"Longitude (x)","Latitude (y)","Station Name","Climate ID","Date/Time (LST)","Year","Month","Day","Time (LST)","Temp (°C)","Temp Flag","Dew Point Temp (°C)","Dew Point Temp Flag","Rel Hum (%)","Rel Hum Flag","Precip. Amount (mm)","Precip. Amount Flag","Wind Dir (10s deg)","Wind Dir Flag","Wind Spd (km/h)","Wind Spd Flag","Visibility (km)","Visibility Flag","Stn Press (kPa)","Stn Press Flag","Hmdx","Hmdx Flag","Wind Chill","Wind Chill Flag","Weather"
"-101.68","54.68","FLIN FLON A","5050961","2023-01-01 00:00","2023","01","01","00:00"
"-101.68","54.68","FLIN FLON A","5050961","2023-01-01 01:00","2023","01","01","01:00"
"-101.68","54.68","FLIN FLON A","5050961","2023-01-01 02:00","2023","01","01","02:00"
"-101.68","54.68","FLIN FLON A","5050961","2023-01-01 03:00","2023","01","01","03:00"
"-101.68","54.68","FLIN FLON A","5050961","2023-01-01 04:00","2023","01","01","04:00"
"-101.68","54.68","FLIN FLON A","5050961","2023-01-01 05:00","2023","01","01","05:00"
"-101.68","54.68","FLIN FLON A","5050961","2023-01-01 06:00","2023","01","01","06:00","-13.3","","-15.8","","82","","","","36","","4","","24.1","","97.33","","","","-16","","Cloudy"
"-101.68","54.68","FLIN FLON A","5050961","2023-01-01 07:00","2023","01","01","07:00","-13.4","","-15.8","","82","","","","35","","9","","24.1","","97.36","","","","-19","","NA"
"-101.68","54.68","FLIN FLON A","5050961","2023-01-01 08:00","2023","01","01","08:00","-13.8","","-16.3","","82","","","","35","","3","","24.1","","97.40","","","","-16","","NA"
"-101.68","54.68","FLIN FLON A","5050961","2023-01-01 09:00","2023","01","01","09:00","-14.7","","-17.2","","82","","","","32","","3","","24.1","","97.47","","","","-17","","Cloudy"
"-101.68","54.68","FLIN FLON A","5050961","2023-01-01 10:00","2023","01","01","10:00","-15.9","","-18.0","","84","","","","36","","3","","24.1","","97.51","","","","-18","","NA"
"-101.68","54.68","FLIN FLON A","5050961","2023-01-01 11:00","2023","01","01","11:00","-15.0","","-17.5","","82","","","","5","","3","","24.1","","97.55","","","","-17","","NA"
"-101.68","54.68","FLIN FLON A","5050961","2023-01-01 12:00","2023","01","01","12:00","-13.8","","-16.6","","79","","","","34","","4","","24.1","","97.56","","","","-17","","Cloudy"
"-101.68","54.68","FLIN FLON A","5050961","2023-01-01 13:00","2023","01","01","13:00","-13.6","","-16.6","","78","","","","0","","1","","24.1","","97.54","","","","-14","","NA"
"-101.68","54.68","FLIN FLON A","5050961","2023-01-01 14:00","2023","01","01","14:00","-13.0","","-16.1","","78","","","","16","","4","","24.1","","97.52","","","","-16","","NA"
"-101.68","54.68","FLIN FLON A","5050961","2023-01-01 15:00","2023","01","01","15:00","-12.4","","-15.4","","79","","","","16","","4","","24.1","","97.53","","","","-15","","Cloudy"
"-101.68","54.68","FLIN FLON A","5050961","2023-01-01 16:00","2023","01","01","16:00","-12.0","","-14.8","","80","","","","36","","2","","24.1","","97.54","","","","-13","","NA"
"-101.68","54.68","FLIN FLON A","5050961","2023-01-01 17:00","2023","01","01","17:00","-11.7","","-14.3","","81","","","","18","","8","","24.1","","97.54","","","","-16","","NA"
"-101.68","54.68","FLIN FLON A","5050961","2023-01-01 18:00","2023","01","01","18:00","-11.7","","-14.2","","82","","","","18","","7","","24.1","","97.54","","","","-16","","Cloudy"
"-101.68","54.68","FLIN FLON A","5050961","2023-01-01 19:00","2023","01","01","19:00"
"-101.68","54.68","FLIN FLON A","5050961","2023-01-01 20:00","2023","01","01","20:00"
"-101.68","54.68","FLIN FLON A","5050961","2023-01-01 21:00","2023","01","01","21:00"
"-101.68","54.68","FLIN FLON A","5050961","2023-01-01 22:00","2023","01","01","22:00"
"-101.68","54.68","FLIN FLON A","5050961","2023-01-01 23:00","2023","01","01","23:00"
"-101.68","54.68","FLIN FLON A","5050961","2023-01-02 00:00","2023","01","02","00:00"
"-101.68","54.68","FLIN FLON A","5050961","2023-01-02 01:00","2023","01","02","01:00"
"-101.68","54.68","FLIN FLON A","5050961","2023-01-02 02:00","2023","01","02","02:00"
"-101.68","54.68","FLIN FLON A","5050961","2023-01-02 03:00","2023","01","02","03:00"
"-101.68","54.68","FLIN FLON A","5050961","2023-01-02 04:00","2023","01","02","04:00"
"-101.68","54.68","FLIN FLON A","5050961","2023-01-02 05:00","2023","01","02","05:00"
"-101.68","54.68","FLIN FLON A","5050961","2023-01-02 06:00","2023","01","02","06:00","-12.1","","-13.8","","88","","","","21","","10","","24.1","","97.32","","","","-18","","Cloudy"
"-101.68","54.68","FLIN FLON A","5050961","2023-01-02 07:00","2023","01","02","07:00","-11.2","","-12.7","","89","","","","24","","12","","4.8","","97.30","","","","-17","","Fog"
"-101.68","54.68","FLIN FLON A","5050961","2023-01-02 08:00","2023","01","02","08:00","-10.9","","-12.6","","88","","","","24","","13","","4.8","","97.30","","","","-17","","Fog"
"-101.68","54.68","FLIN FLON A","5050961","2023-01-02 09:00","2023","01","02","09:00","-11.3","","-13.1","","87","","","","25","","16","","24.1","","97.34","","","","-19","","Mostly Cloudy"
"-101.68","54.68","FLIN FLON A","5050961","2023-01-02 10:00","2023","01","02","10:00","-12.7","","-14.6","","86","","","","22","","7","","24.1","","97.35","","","","-17","","NA"
"-101.68","54.68","FLIN FLON A","5050961","2023-01-02 11:00","2023","01","02","11:00","-11.4","","-13.2","","87","","","","22","","10","","24.1","","97.37","","","","-17","","NA"
"-101.68","54.68","FLIN FLON A","5050961","2023-01-02 12:00","2023","01","02","12:00","-10.3","","-12.1","","87","","","","25","","8","","24.1","","97.35","","","","-15","","Clear"
"-101.68","54.68","FLIN FLON A","5050961","2023-01-02 13:00","2023","01","02","13:00","-9.5","","-11.9","","83","","","","28","","3","","24.1","","97.34","","","","-11","","NA"
"-101.68","54.68","FLIN FLON A","5050961","2023-01-02 14:00","2023","01","02","14:00","-8.8","","-11.8","","78","","","","26","","7","","24.1","","97.36","","","","-13","","NA"
"-101.68","54.68","FLIN FLON A","5050961","2023-01-02 15:00","2023","01","02","15:00","-8.8","","-11.9","","78","","","","23","","9","","24.1","","97.37","","","","-13","","Clear"
"-101.68","54.68","FLIN FLON A","5050961","2023-01-02 16:00","2023","01","02","16:00","-9.9","","-12.4","","82","","","","17","","7","","24.1","","97.31","","","","-14","","NA"
"-101.68","54.68","FLIN FLON A","5050961","2023-01-02 17:00","2023","01","02","17:00","-10.1","","-12.2","","85","","","","19","","9","","24.1","","97.34","","","","-15","","NA"
"-101.68","54.68","FLIN FLON A","5050961","2023-01-02 18:00","2023","01","02","18:00","-10.5","","-12.6","","85","","","","20","","9","","24.1","","97.36","","","","-15","","Mostly Cloudy"
"-101.68","54.68","FLIN FLON A","5050961","2023-01-02 19:00","2023","01","02","19:00"
"-101.68","54.68","FLIN FLON A","5050961","2023-01-02 20:00","2023","01","02","20:00"
"-101.68","54.68","FLIN FLON A","5050961","2023-01-02 21:00","2023","01","02","21:00"
"-101.68","54.68","FLIN FLON A","5050961","2023-01-02 22:00","2023","01","02","22:00"
"-101.68","54.68","FLIN FLON A","5050961","2023-01-02 23:00","2023","01","02","23:00"
"-101.68","54.68","FLIN FLON A","5050961","2023-01-03 00:00","2023","01","03","00:00"
"-101.68","54.68","FLIN FLON A","5050961","2023-01-03 01:00","2023","01","03","01:00"
"-101.68","54.68","FLIN FLON A","5050961","2023-01-03 02:00","2023","01","03","02:00"
"-101.68","54.68","FLIN FLON A","5050961","2023-01-03 03:00","2023","01","03","03:00"
"-101.68","54.68","FLIN FLON A","5050961","2023-01-03 04:00","2023","01","03","04:00"
"-101.68","54.68","FLIN FLON A","5050961","2023-01-03 05:00","2023","01","03","05:00"
"-101.68","54.68","FLIN FLON A","5050961","2023-01-03 06:00","2023","01","03","06:00","-17.9","","-20.4","","81","","","","36","","1","","24.1","","97.29","","","","-19","","Mainly Clear"
"-101.68","54.68","FLIN FLON A","5050961","2023-01-03 07:00","2023","01","03","07:00","-18.7","","-21.4","","80","","","","25","","3","","24.1","","97.30","","","","-21","","NA"
"-101.68","54.68","FLIN FLON A","5050961","2023-01-03 08:00","2023","01","03","08:00","-19.4","","-22.1","","79","","","","36","","1","","24.1","","97.32","","","","-20","","NA"
"-101.68","54.68","FLIN FLON A","5050961","2023-01-03 09:00","2023","01","03","09:00","-19.9","","-22.7","","79","","","","1","","3","","24.1","","97.30","","","","-22","","Mainly Clear"
"-101.68","54.68","FLIN FLON A","5050961","2023-01-03 10:00","2023","01","03","10:00","-19.0","","-21.8","","79","","","","36","","1","","24.1","","97.36","","","","-20","","NA"
"-101.68","54.68","FLIN FLON A","5050961","2023-01-03 11:00","2023","01","03","11:00","-18.5","","-21.3","","79","","","","0","","1","","24.1","","97.39","","","","-19","","NA"
"-101.68","54.68","FLIN FLON A","5050961","2023-01-03 12:00","2023","01","03","12:00","-17.0","","-19.6","","80","","","","36","","2","","24.1","","97.37","","","","-19","","Mainly Clear"
"-101.68","54.68","FLIN FLON A","5050961","2023-01-03 13:00","2023","01","03","13:00","-14.0","","-16.4","","83","","","","5","","3","","24.1","","97.30","","","","-16","","NA"
"-101.68","54.68","FLIN FLON A","5050961","2023-01-03 14:00","2023","01","03","14:00","-11.4","","-13.4","","86","","","","19","","3","","19.3","","97.31","","","","-13","","NA"
"-101.68","54.68","FLIN FLON A","5050961","2023-01-03 15:00","2023","01","03","15:00","-11.4","","-13.5","","85","","","","19","","3","","19.3","","97.34","","","","-13","","Mainly Clear"
"-101.68","54.68","FLIN FLON A","5050961","2023-01-03 16:00","2023","01","03","16:00","-11.9","","-13.9","","85","","","","15","","3","","19.3","","97.36","","","","-14","","NA"
"-101.68","54.68","FLIN FLON A","5050961","2023-01-03 17:00","2023","01","03","17:00","-13.3","","-15.3","","85","","","","36","","2","","19.3","","97.39","","","","-15","","NA"
"-101.68","54.68","FLIN FLON A","5050961","2023-01-03 18:00","2023","01","03","18:00","-15.6","","-17.9","","83","","","","3","","8","","24.1","","97.43","","","","-21","","Mainly Clear"
"-101.68","54.68","FLIN FLON A","5050961","2023-01-03 19:00","2023","01","03","19:00"
"-101.68","54.68","FLIN FLON A","5050961","2023-01-03 20:00","2023","01","03","20:00"
"-101.68","54.68","FLIN FLON A","5050961","2023-01-03 21:00","2023","01","03","21:00"
"-101.68","54.68","FLIN FLON A","5050961","2023-01-03 22:00","2023","01","03","22:00"
"-101.68","54.68","FLIN FLON A","5050961","2023-01-03 23:00","2023","01","03","23:00"
"-101.68","54.68","FLIN FLON A","5050961","2023-01-04 00:00","2023","01","04","00:00"
"-101.68","54.68","FLIN FLON A","5050961","2023-01-04 01:00","2023","01","04","01:00"
"-101.68","54.68","FLIN FLON A","5050961","2023-01-04 02:00","2023","01","04","02:00"
"-101.68","54.68","FLIN FLON A","5050961","2023-01-04 03:00","2023","01","04","03:00"
"-101.68","54.68","FLIN FLON A","5050961","2023-01-04 04:00","2023","01","04","04:00"
"-101.68","54.68","FLIN FLON A","5050961","2023-01-04 05:00","2023","01","04","05:00"
"-101.68","54.68","FLIN FLON A","5050961","2023-01-04 06:00","2023","01","04","06:00","-18.7","","-21.4","","80","","","","19","","3","","24.1","","97.64","","","","-21","","Clear"
"-101.68","54.68","FLIN FLON A","5050961","2023-01-04 07:00","2023","01","04","07:00","-17.7","","-20.3","","81","","","","18","","7","","24.1","","97.63","","","","-23","","NA"
"-101.68","54.68","FLIN FLON A","5050961","2023-01-04 08:00","2023","01","04","08:00","-18.5","","-21.2","","80","","","","18","","8","","24.1","","97.63","","","","-24","","NA"
"-101.68","54.68","FLIN FLON A","5050961","2023-01-04 09:00","2023","01","04","09:00","-17.1","","-19.6","","81","","","","18","","9","","24.1","","97.64","","","","-23","","Mainly Clear"
"-101.68","54.68","FLIN FLON A","5050961","2023-01-04 10:00","2023","01","04","10:00","-17.7","","-20.3","","80","","","","20","","7","","24.1","","97.71","","","","-23","","NA"
"-101.68","54.68","FLIN FLON A","5050961","2023-01-04 11:00","2023","01","04","11:00","-15.7","","-18.1","","82","","","","18","","10","","24.1","","97.68","","","","-22","","NA"
"-101.68","54.68","FLIN FLON A","5050961","2023-01-04 12:00","2023","01","04","12:00","-14.0","","-16.1","","84","","","","18","","14","","24.1","","97.64","","","","-21","","Mainly Clear"
"-101.68","54.68","FLIN FLON A","5050961","2023-01-04 13:00","2023","01","04","13:00","-12.0","","-13.9","","86","","","","16","","11","","24.1","","97.61","","","","-18","","NA"
"-101.68","54.68","FLIN FLON A","5050961","2023-01-04 14:00","2023","01","04","14:00","-10.3","","-12.0","","88","","","","16","","9","","24.1","","97.57","","","","-15","","NA"
"-101.68","54.68","FLIN FLON A","5050961","2023-01-04 15:00","2023","01","04","15:00","-8.8","","-10.3","","89","","","","17","","12","","24.1","","97.54","","","","-14","","Mainly Clear"
"-101.68","54.68","FLIN FLON A","5050961","2023-01-04 16:00","2023","01","04","16:00","-9.9","","-11.5","","88","","","","18","","5","","24.1","","97.57","","","","-13","","NA"
"-101.68","54.68","FLIN FLON A","5050961","2023-01-04 17:00","2023","01","04","17:00","-10.9","","-12.6","","87","","","","19","","7","","22.5","","97.58","","","","-15","","NA"
"-101.68","54.68","FLIN FLON A","5050961","2023-01-04 18:00","2023","01","04","18:00","-13.5","","-15.6","","85","","","","19","","7","","24.1","","97.62","","","","-18","","Mainly Clear"
"-101.68","54.68","FLIN FLON A","5050961","2023-01-04 19:00","2023","01","04","19:00"
"-101.68","54.68","FLIN FLON A","5050961","2023-01-04 20:00","2023","01","04","20:00"
"-101.68","54.68","FLIN FLON A","5050961","2023-01-04 21:00","2023","01","04","21:00"
"-101.68","54.68","FLIN FLON A","5050961","2023-01-04 22:00","2023","01","04","22:00"
"-101.68","54.68","FLIN FLON A","5050961","2023-01-04 23:00","2023","01","04","23:00"
"-101.68","54.68","FLIN FLON A","5050961","2023-01-05 00:00","2023","01","05","00:00"
"-101.68","54.68","FLIN FLON A","5050961","2023-01-05 01:00","2023","01","05","01:00"
"-101.68","54.68","FLIN FLON A","5050961","2023-01-05 02:00","2023","01","05","02:00"
"-101.68","54.68","FLIN FLON A","5050961","2023-01-05 03:00","2023","01","05","03:00"
"-101.68","54.68","FLIN FLON A","5050961","2023-01-05 04:00","2023","01","05","04:00"
"-101.68","54.68","FLIN FLON A","5050961","2023-01-05 05:00","2023","01","05","05:00"
"-101.68","54.68","FLIN FLON A","5050961","2023-01-05 06:00","2023","01","05","06:00","-13.9","","-16.0","","84","","","","30","","9","","4.8","","97.82","","","","-20","","Snow"
"-101.68","54.68","FLIN FLON A","5050961","2023-01-05 07:00","2023","01","05","07:00","-13.2","","-15.2","","85","","","","31","","7","","4.8","","97.88","","","","-18","","Snow"
"-101.68","54.68","FLIN FLON A","5050961","2023-01-05 08:00","2023","01","05","08:00","-12.5","","-14.5","","86","","","","33","","7","","4.8","","97.87","","","","-17","","Snow,Fog"
"-101.68","54.68","FLIN FLON A","5050961","2023-01-05 09:00","2023","01","05","09:00","-12.2","","-14.1","","86","","","","34","","9","","4.8","","97.88","","","","-17","","Snow,Fog"
"-101.68","54.68","FLIN FLON A","5050961","2023-01-05 10:00","2023","01","05","10:00","-11.7","","-13.6","","86","","","","35","","10","","4.8","","97.99","","","","-17","","Snow,Fog"
"-101.68","54.68","FLIN FLON A","5050961","2023-01-05 11:00","2023","01","05","11:00","-11.5","","-13.4","","87","","","","1","","14","","4.8","","98.05","","","","-18","","Snow,Fog"
"-101.68","54.68","FLIN FLON A","5050961","2023-01-05 12:00","2023","01","05","12:00","-11.4","","-13.2","","87","","","","1","","6","","4.8","","98.07","","","","-15","","Snow,Fog"
"-101.68","54.68","FLIN FLON A","5050961","2023-01-05 13:00","2023","01","05","13:00","-11.5","","-13.3","","87","","","","35","","7","","4.8","","98.09","","","","-16","","Snow,Fog"
"-101.68","54.68","FLIN FLON A","5050961","2023-01-05 14:00","2023","01","05","14:00","-11.2","","-13.0","","87","","","","36","","8","","4.8","","98.09","","","","-16","","Snow,Fog"
"-101.68","54.68","FLIN FLON A","5050961","2023-01-05 15:00","2023","01","05","15:00","-11.0","","-12.7","","87","","","","34","","8","","4.8","","98.15","","","","-16","","Snow,Fog"
"-101.68","54.68","FLIN FLON A","5050961","2023-01-05 16:00","2023","01","05","16:00","-11.3","","-13.1","","87","","","","1","","7","","4.8","","98.21","","","","-16","","Snow,Fog"
"-101.68","54.68","FLIN FLON A","5050961","2023-01-05 17:00","2023","01","05","17:00","-11.4","","-13.2","","87","","","","33","","7","","4.8","","98.27","","","","-16","","Snow,Fog"
"-101.68","54.68","FLIN FLON A","5050961","2023-01-05 18:00","2023","01","05","18:00","-11.6","","-13.4","","87","","","","33","","7","","4.8","","98.30","","","","-16","","Snow,Fog"
"-101.68","54.68","FLIN FLON A","5050961","2023-01-05 19:00","2023","01","05","19:00"
"-101.68","54.68","FLIN FLON A","5050961","2023-01-05 20:00","2023","01","05","20:00"
"-101.68","54.68","FLIN FLON A","5050961","2023-01-05 21:00","2023","01","05","21:00"
"-101.68","54.68","FLIN FLON A","5050961","2023-01-05 22:00","2023","01","05","22:00"
"-101.68","54.68","FLIN FLON A","5050961","2023-01-05 23:00","2023","01","05","23:00"
"-101.68","54.68","FLIN FLON A","5050961","2023-01-06 00:00","2023","01","06","00:00"
"-101.68","54.68","FLIN FLON A","5050961","2023-01-06 01:00","2023","01","06","01:00"
"-101.68","54.68","FLIN FLON A","5050961","2023-01-06 02:00","2023","01","06","02:00"
"-101.68","54.68","FLIN FLON A","5050961","2023-01-06 03:00","2023","01","06","03:00"
"-101.68","54.68","FLIN FLON A","5050961","2023-01-06 04:00","2023","01","06","04:00"
"-101.68","54.68","FLIN FLON A","5050961","2023-01-06 05:00","2023","01","06","05:00"
"-101.68","54.68","FLIN FLON A","5050961","2023-01-06 06:00","2023","01","06","06:00","-13.1","","-15.1","","85","","","","19","","12","","4.0","","98.44","","","","-20","","Snow,Fog"
"-101.68","54.68","FLIN FLON A","5050961","2023-01-06 07:00","2023","01","06","07:00","-13.2","","-15.3","","85","","","","18","","10","","4.0","","98.42","","","","-19","","Snow,Fog"
"-101.68","54.68","FLIN FLON A","5050961","2023-01-06 08:00","2023","01","06","08:00","-13.3","","-15.4","","85","","","","19","","13","","4.0","","98.45","","","","-20","","Snow,Fog"
"-101.68","54.68","FLIN FLON A","5050961","2023-01-06 09:00","2023","01","06","09:00","-13.7","","-15.8","","84","","","","19","","16","","4.8","","98.42","","","","-22","","Snow,Fog"
"-101.68","54.68","FLIN FLON A","5050961","2023-01-06 10:00","2023","01","06","10:00","-13.7","","-15.8","","84","","","","19","","15","","4.0","","98.45","","","","-21","","Snow,Fog"
"-101.68","54.68","FLIN FLON A","5050961","2023-01-06 11:00","2023","01","06","11:00","-13.7","","-15.8","","84","","","","17","","10","","8.1","","98.46","","","","-20","","Snow"
"-101.68","54.68","FLIN FLON A","5050961","2023-01-06 12:00","2023","01","06","12:00","-13.3","","-15.3","","85","","","","18","","11","","8.1","","98.43","","","","-20","","Snow"
"-101.68","54.68","FLIN FLON A","5050961","2023-01-06 13:00","2023","01","06","13:00","-13.4","","-15.5","","85","","","","18","","17","","6.4","","98.39","","","","-21","","Snow"
"-101.68","54.68","FLIN FLON A","5050961","2023-01-06 14:00","2023","01","06","14:00","-13.0","","-15.0","","85","","","","17","","13","","16.1","","98.34","","","","-20","","Snow"
"-101.68","54.68","FLIN FLON A","5050961","2023-01-06 15:00","2023","01","06","15:00","-12.9","","-14.9","","85","","","","17","","10","","16.1","","98.30","","","","-19","","Snow"
"-101.68","54.68","FLIN FLON A","5050961","2023-01-06 16:00","2023","01","06","16:00","-12.9","","-14.9","","85","","","","17","","13","","19.3","","98.30","","","","-20","","Snow"
"-101.68","54.68","FLIN FLON A","5050961","2023-01-06 17:00","2023","01","06","17:00","-13.5","","-15.5","","85","","","","16","","17","","16.1","","98.21","","","","-22","","Snow"
"-101.68","54.68","FLIN FLON A","5050961","2023-01-06 18:00","2023","01","06","18:00","-14.2","","-16.3","","84","","","","18","","15","","16.1","","98.24","","","","-22","","Snow"
"-101.68","54.68","FLIN FLON A","5050961","2023-01-06 19:00","2023","01","06","19:00"
"-101.68","54.68","FLIN FLON A","5050961","2023-01-06 20:00","2023","01","06","20:00"
"-101.68","54.68","FLIN FLON A","5050961","2023-01-06 21:00","2023","01","06","21:00"
"-101.68","54.68","FLIN FLON A","5050961","2023-01-06 22:00","2023","01","06","22:00"
"-101.68","54.68","FLIN FLON A","5050961","2023-01-06 23:00","2023","01","06","23:00"
"-101.68","54.68","FLIN FLON A","5050961","2023-01-07 00:00","2023","01","07","00:00"
"-101.68","54.68","FLIN FLON A","5050961","2023-01-07 01:00","2023","01","07","01:00"
"-101.68","54.68","FLIN FLON A","5050961","2023-01-07 02:00","2023","01","07","02:00"
"-101.68","54.68","FLIN FLON A","5050961","2023-01-07 03:00","2023","01","07","03:00"
"-101.68","54.68","FLIN FLON A","5050961","2023-01-07 04:00","2023","01","07","04:00"
"-101.68","54.68","FLIN FLON A","5050961","2023-01-07 05:00","2023","01","07","05:00"
"-101.68","54.68","FLIN FLON A","5050961","2023-01-07 06:00","2023","01","07","06:00","-20.2","","-23.0","","78","","","","36","","3","","24.1","","97.53","","","","-23","","Clear"
"-101.68","54.68","FLIN FLON A","5050961","2023-01-07 07:00","2023","01","07","07:00","-20.6","","-23.5","","78","","","","19","","6","","24.1","","97.52","","","","-26","","NA"
"-101.68","54.68","FLIN FLON A","5050961","2023-01-07 08:00","2023","01","07","08:00","-21.4","","-24.4","","77","","","","36","","3","","24.1","","97.49","","","","-24","","NA"
"-101.68","54.68","FLIN FLON A","5050961","2023-01-07 09:00","2023","01","07","09:00","-21.2","","-24.2","","77","","","","18","","4","","24.1","","97.45","","","","-25","","Mainly Clear"
"-101.68","54.68","FLIN FLON A","5050961","2023-01-07 10:00","2023","01","07","10:00","-17.4","","-19.9","","81","","","","23","","13","","24.1","","97.48","","","","-25","","NA"
"-101.68","54.68","FLIN FLON A","5050961","2023-01-07 11:00","2023","01","07","11:00","-15.7","","-18.1","","82","","","","19","","7","","24.1","","97.47","","","","-21","","NA"
"-101.68","54.68","FLIN FLON A","5050961","2023-01-07 12:00","2023","01","07","12:00","-14.4","","-16.6","","83","","","","23","","5","","24.1","","97.48","","","","-18","","Mostly Cloudy"
"-101.68","54.68","FLIN FLON A","5050961","2023-01-07 13:00","2023","01","07","13:00","-14.4","","-16.6","","83","","","","21","","7","","24.1","","97.45","","","","-19","","NA"
"-101.68","54.68","FLIN FLON A","5050961","2023-01-07 14:00","2023","01","07","14:00","-13.5","","-15.7","","84","","","","18","","7","","24.1","","97.42","","","","-18","","NA"
"-101.68","54.68","FLIN FLON A","5050961","2023-01-07 15:00","2023","01","07","15:00","-13.3","","-15.4","","84","","","","18","","7","","24.1","","97.42","","","","-18","","Mainly Clear"
"-101.68","54.68","FLIN FLON A","5050961","2023-01-07 16:00","2023","01","07","16:00","-14.1","","-16.3","","84","","","","18","","5","","24.1","","97.46","","","","-18","","NA"
"-101.68","54.68","FLIN FLON A","5050961","2023-01-07 17:00","2023","01","07","17:00","-16.2","","-18.6","","82","","","","20","","7","","24.1","","97.50","","","","-21","","NA"
"-101.68","54.68","FLIN FLON A","5050961","2023-01-07 18:00","2023","01","07","18:00","-14.4","","-16.6","","84","","","","19","","7","","24.1","","97.49","","","","-19","","Clear"
"-101.68","54.68","FLIN FLON A","5050961","2023-01-07 19:00","2023","01","07","19:00"
"-101.68","54.68","FLIN FLON A","5050961","2023-01-07 20:00","2023","01","07","20:00"
"-101.68","54.68","FLIN FLON A","5050961","2023-01-07 21:00","2023","01","07","21:00"
"-101.68","54.68","FLIN FLON A","5050961","2023-01-07 22:00","2023","01","07","22:00"
"-101.68","54.68","FLIN FLON A","5050961","2023-01-07 23:00","2023","01","07","23:00"
"-101.68","54.68","FLIN FLON A","5050961","2023-01-08 00:00","2023","01","08","00:00"
"-101.68","54.68","FLIN FLON A","5050961","2023-01-08 01:00","2023","01","08","01:00"
"-101.68","54.68","FLIN FLON A","5050961","2023-01-08 02:00","2023","01","08","02:00"
"-101.68","54.68","FLIN FLON A","5050961","2023-01-08 03:00","2023","01","08","03:00"
"-101.68","54.68","FLIN FLON A","5050961","2023-01-08 04:00","2023","01","08","04:00"
"-101.68","54.68","FLIN FLON A","5050961","2023-01-08 05:00","2023","01","08","05:00"
"-101.68","54.68","FLIN FLON A","5050961","2023-01-08 06:00","2023","01","08","06:00","-8.5","","-9.8","","90","","","","36","","11","","24.1","","97.72","","","","-14","","Cloudy"
"-101.68","54.68","FLIN FLON A","5050961","2023-01-08 07:00","2023","01","08","07:00","-9.0","","-10.4","","89","","","","32","","6","","24.1","","97.74","","","","-12","","NA"
"-101.68","54.68","FLIN FLON A","5050961","2023-01-08 08:00","2023","01","08","08:00","-9.0","","-10.5","","89","","","","33","","8","","16.1","","97.76","","","","-13","","NA"
"-101.68","54.68","FLIN FLON A","5050961","2023-01-08 09:00","2023","01","08","09:00","-9.0","","-10.4","","89","","","","35","","6","","9.7","","97.79","","","","-12","","Fog"
"-101.68","54.68","FLIN FLON A","5050961","2023-01-08 10:00","2023","01","08","10:00","-8.7","","-10.1","","90","","","","36","","5","","9.7","","97.82","","","","-11","","Fog"
"-101.68","54.68","FLIN FLON A","5050961","2023-01-08 11:00","2023","01","08","11:00","-8.5","","-9.9","","90","","","","1","","7","","4.8","","97.81","","","","-12","","Fog"
"-101.68","54.68","FLIN FLON A","5050961","2023-01-08 12:00","2023","01","08","12:00","-8.4","","-9.8","","90","","","","5","","4","","4.8","","97.80","","","","-11","","Snow,Fog"
"-101.68","54.68","FLIN FLON A","5050961","2023-01-08 13:00","2023","01","08","13:00","-8.5","","-9.9","","90","","","","11","","5","","6.4","","97.76","","","","-11","","Snow,Fog"
"-101.68","54.68","FLIN FLON A","5050961","2023-01-08 14:00","2023","01","08","14:00","-8.9","","-10.3","","89","","","","8","","7","","8.1","","97.75","","","","-13","","Snow,Fog"
"-101.68","54.68","FLIN FLON A","5050961","2023-01-08 15:00","2023","01","08","15:00","-9.2","","-10.7","","89","","","","9","","4","","9.7","","97.78","","","","-11","","Snow,Fog"
"-101.68","54.68","FLIN FLON A","5050961","2023-01-08 16:00","2023","01","08","16:00","-9.5","","-11.1","","89","","","","9","","7","","9.7","","97.84","","","","-13","","Snow,Fog"
"-101.68","54.68","FLIN FLON A","5050961","2023-01-08 17:00","2023","01","08","17:00","-9.9","","-11.4","","88","","","","8","","8","","8.1","","97.80","","","","-14","","Snow,Fog"
"-101.68","54.68","FLIN FLON A","5050961","2023-01-08 18:00","2023","01","08","18:00","-10.3","","-11.9","","88","","","","9","","8","","6.4","","97.81","","","","-15","","Snow,Fog"
"-101.68","54.68","FLIN FLON A","5050961","2023-01-08 19:00","2023","01","08","19:00"
"-101.68","54.68","FLIN FLON A","5050961","2023-01-08 20:00","2023","01","08","20:00"
"-101.68","54.68","FLIN FLON A","5050961","2023-01-08 21:00","2023","01","08","21:00"
"-101.68","54.68","FLIN FLON A","5050961","2023-01-08 22:00","2023","01","08","22:00"
"-101.68","54.68","FLIN FLON A","5050961","2023-01-08 23:00","2023","01","08","23:00"
"-101.68","54.68","FLIN FLON A","5050961","2023-01-09 00:00","2023","01","09","00:00"
"-101.68","54.68","FLIN FLON A","5050961","2023-01-09 01:00","2023","01","09","01:00"
"-101.68","54.68","FLIN FLON A","5050961","2023-01-09 02:00","2023","01","09","02:00"
"-101.68","54.68","FLIN FLON A","5050961","2023-01-09 03:00","2023","01","09","03:00"
"-101.68","54.68","FLIN FLON A","5050961","2023-01-09 04:00","2023","01","09","04:00"
"-101.68","54.68","FLIN FLON A","5050961","2023-01-09 05:00","2023","01","09","05:00"
"-101.68","54.68","FLIN FLON A","5050961","2023-01-09 06:00","2023","01","09","06:00","-10.8","","-12.5","","87","","","","10","","9","","19.3","","97.53","","","","-16","","Cloudy"
"-101.68","54.68","FLIN FLON A","5050961","2023-01-09 07:00","2023","01","09","07:00","-10.8","","-12.4","","88","","","","12","","14","","16.1","","97.50","","","","-17","","Snow"
"-101.68","54.68","FLIN FLON A","5050961","2023-01-09 08:00","2023","01","09","08:00","-10.6","","-12.3","","88","","","","11","","9","","16.1","","97.49","","","","-16","","Snow"
"-101.68","54.68","FLIN FLON A","5050961","2023-01-09 09:00","2023","01","09","09:00","-10.3","","-12.0","","88","","","","12","","9","","16.1","","97.44","","","","-15","","Snow"
"-101.68","54.68","FLIN FLON A","5050961","2023-01-09 10:00","2023","01","09","10:00","-10.1","","-11.6","","88","","","","11","","8","","19.3","","97.46","","","","-15","","Fog"
"-101.68","54.68","FLIN FLON A","5050961","2023-01-09 11:00","2023","01","09","11:00","-9.8","","-11.3","","89","","","","11","","6","","12.9","","97.43","","","","-13","","Snow"
"-101.68","54.68","FLIN FLON A","5050961","2023-01-09 12:00","2023","01","09","12:00","-9.5","","-11.1","","89","","","","11","","13","","12.9","","97.42","","","","-16","","Snow"
"-101.68","54.68","FLIN FLON A","5050961","2023-01-09 13:00","2023","01","09","13:00","-9.5","","-11.0","","89","","","","13","","11","","16.1","","97.34","","","","-15","","Snow"
"-101.68","54.68","FLIN FLON A","5050961","2023-01-09 14:00","2023","01","09","14:00","-9.3","","-10.9","","89","","","","11","","7","","16.1","","97.31","","","","-13","","Snow"
"-101.68","54.68","FLIN FLON A","5050961","2023-01-09 15:00","2023","01","09","15:00","-9.6","","-11.1","","89","","","","8","","11","","16.1","","97.29","","","","-15","","Snow"
"-101.68","54.68","FLIN FLON A","5050961","2023-01-09 16:00","2023","01","09","16:00","-9.6","","-11.2","","89","","","","8","","8","","16.1","","97.31","","","","-14","","Snow"
"-101.68","54.68","FLIN FLON A","5050961","2023-01-09 17:00","2023","01","09","17:00","-9.8","","-11.3","","89","","","","9","","7","","16.1","","97.32","","","","-14","","Snow"
"-101.68","54.68","FLIN FLON A","5050961","2023-01-09 18:00","2023","01","09","18:00","-9.9","","-11.5","","88","","","","9","","6","","16.1","","97.34","","","","-13","","Snow"
"-101.68","54.68","FLIN FLON A","5050961","2023-01-09 19:00","2023","01","09","19:00"
"-101.68","54.68","FLIN FLON A","5050961","2023-01-09 20:00","2023","01","09","20:00"
"-101.68","54.68","FLIN FLON A","5050961","2023-01-09 21:00","2023","01","09","21:00"
"-101.68","54.68","FLIN FLON A","5050961","2023-01-09 22:00","2023","01","09","22:00"
"-101.68","54.68","FLIN FLON A","5050961","2023-01-09 23:00","2023","01","09","23:00"
"-101.68","54.68","FLIN FLON A","5050961","2023-01-10 00:00","2023","01","10","00:00"
"-101.68","54.68","FLIN FLON A","5050961","2023-01-10 01:00","2023","01","10","01:00"
"-101.68","54.68","FLIN FLON A","5050961","2023-01-10 02:00","2023","01","10","02:00"
"-101.68","54.68","FLIN FLON A","5050961","2023-01-10 03:00","2023","01","10","03:00"
"-101.68","54.68","FLIN FLON A","5050961","2023-01-10 04:00","2023","01","10","04:00"
"-101.68","54.68","FLIN FLON A","5050961","2023-01-10 05:00","2023","01","10","05:00"
"-101.68","54.68","FLIN FLON A","5050961","2023-01-10 06:00","2023","01","10","06:00","-11.1","","-12.8","","87","","","","6","","7","","24.1","","97.39","","","","-15","","Snow"
"-101.68","54.68","FLIN FLON A","5050961","2023-01-10 07:00","2023","01","10","07:00","-11.3","","-13.0","","87","","","","6","","7","","24.1","","97.41","","","","-16","","Snow"
"-101.68","54.68","FLIN FLON A","5050961","2023-01-10 08:00","2023","01","10","08:00","-11.4","","-13.1","","87","","","","5","","5","","24.1","","97.42","","","","-15","","Snow"
"-101.68","54.68","FLIN FLON A","5050961","2023-01-10 09:00","2023","01","10","09:00","-11.4","","-13.1","","87","","","","36","","3","","24.1","","97.41","","","","-13","","Snow"
"-101.68","54.68","FLIN FLON A","5050961","2023-01-10 10:00","2023","01","10","10:00","-11.3","","-13.0","","87","","","","1","","6","","24.1","","97.43","","","","-15","","Snow"
"-101.68","54.68","FLIN FLON A","5050961","2023-01-10 11:00","2023","01","10","11:00","-11.2","","-13.0","","87","","","","1","","7","","24.1","","97.42","","","","-15","","Snow"
"-101.68","54.68","FLIN FLON A","5050961","2023-01-10 12:00","2023","01","10","12:00","-11.0","","-12.7","","87","","","","36","","8","","24.1","","97.42","","","","-16","","Snow"
"-101.68","54.68","FLIN FLON A","5050961","2023-01-10 13:00","2023","01","10","13:00","-10.8","","-12.5","","87","","","","1","","7","","24.1","","97.40","","","","-15","","Snow"
"-101.68","54.68","FLIN FLON A","5050961","2023-01-10 14:00","2023","01","10","14:00","-10.6","","-12.3","","88","","","","2","","9","","24.1","","97.39","","","","-16","","Snow"
"-101.68","54.68","FLIN FLON A","5050961","2023-01-10 15:00","2023","01","10","15:00","-10.5","","-12.2","","88","","","","1","","8","","24.1","","97.41","","","","-15","","Snow"
"-101.68","54.68","FLIN FLON A","5050961","2023-01-10 16:00","2023","01","10","16:00","-10.5","","-12.1","","88","","","","36","","11","","9.7","","97.47","","","","-16","","Snow"
"-101.68","54.68","FLIN FLON A","5050961","2023-01-10 17:00","2023","01","10","17:00","-10.7","","-12.3","","88","","","","1","","9","","0.6","","97.52","","","","-16","","Moderate Snow"
"-101.68","54.68","FLIN FLON A","5050961","2023-01-10 18:00","2023","01","10","18:00","-10.7","","-12.4","","88","","","","1","","6","","1.2","","97.55","","","","-14","","Snow"
"-101.68","54.68","FLIN FLON A","5050961","2023-01-10 19:00","2023","01","10","19:00"
"-101.68","54.68","FLIN FLON A","5050961","2023-01-10 20:00","2023","01","10","20:00"
"-101.68","54.68","FLIN FLON A","5050961","2023-01-10 21:00","2023","01","10","21:00"
"-101.68","54.68","FLIN FLON A","5050961","2023-01-10 22:00","2023","01","10","22:00"
"-101.68","54.68","FLIN FLON A","5050961","2023-01-10 23:00","2023","01","10","23:00"
"-101.68","54.68","FLIN FLON A","5050961","2023-01-11 00:00","2023","01","11","00:00"
"-101.68","54.68","FLIN FLON A","5050961","2023-01-11 01:00","2023","01","11","01:00"
"-101.68","54.68","FLIN FLON A","5050961","2023-01-11 02:00","2023","01","11","02:00"
"-101.68","54.68","FLIN FLON A","5050961","2023-01-11 03:00","2023","01","11","03:00"
"-101.68","54.68","FLIN FLON A","5050961","2023-01-11 04:00","2023","01","11","04:00"
"-101.68","54.68","FLIN FLON A","5050961","2023-01-11 05:00","2023","01","11","05:00"
"-101.68","54.68","FLIN FLON A","5050961","2023-01-11 06:00","2023","01","11","06:00","-12.1","","-14.0","","86","","","","35","","9","","24.1","","97.85","","","","-17","","Cloudy"
"-101.68","54.68","FLIN FLON A","5050961","2023-01-11 07:00","2023","01","11","07:00","-12.1","","-13.9","","86","","","","34","","10","","24.1","","97.90","","","","-18","","NA"
"-101.68","54.68","FLIN FLON A","5050961","2023-01-11 08:00","2023","01","11","08:00","-12.0","","-13.8","","86","","","","33","","6","","24.1","","97.94","","","","-16","","NA"
"-101.68","54.68","FLIN FLON A","5050961","2023-01-11 09:00","2023","01","11","09:00","-11.9","","-13.8","","86","","","","34","","7","","24.1","","98.01","","","","-16","","Snow"
"-101.68","54.68","FLIN FLON A","5050961","2023-01-11 10:00","2023","01","11","10:00","-11.7","","-13.5","","86","","","","31","","5","","24.1","","98.11","","","","-15","","Snow"
"-101.68","54.68","FLIN FLON A","5050961","2023-01-11 11:00","2023","01","11","11:00","-11.2","","-12.9","","87","","","","31","","5","","24.1","","98.18","","","","-14","","Snow"
"-101.68","54.68","FLIN FLON A","5050961","2023-01-11 12:00","2023","01","11","12:00","-10.6","","-12.3","","87","","","","31","","7","","24.1","","98.21","","","","-15","","Snow"
"-101.68","54.68","FLIN FLON A","5050961","2023-01-11 13:00","2023","01","11","13:00","-10.1","","-11.9","","87","","","","30","","11","","24.1","","98.23","","","","-16","","NA"
"-101.68","54.68","FLIN FLON A","5050961","2023-01-11 14:00","2023","01","11","14:00","-10.1","","-12.1","","86","","","","30","","5","","24.1","","98.27","","","","-13","","NA"
"-101.68","54.68","FLIN FLON A","5050961","2023-01-11 15:00","2023","01","11","15:00","-9.5","","-11.7","","85","","","","30","","8","","24.1","","98.34","","","","-14","","Mainly Clear"
"-101.68","54.68","FLIN FLON A","5050961","2023-01-11 16:00","2023","01","11","16:00","-9.4","","-11.4","","85","","","","30","","6","","24.1","","98.43","","","","-13","","NA"
"-101.68","54.68","FLIN FLON A","5050961","2023-01-11 17:00","2023","01","11","17:00","-10.2","","-12.0","","86","","","","30","","4","","24.1","","98.51","","","","-13","","NA"
"-101.68","54.68","FLIN FLON A","5050961","2023-01-11 18:00","2023","01","11","18:00","-12.7","","-14.6","","86","","","","22","","4","","24.1","","98.60","","","","-15","","Mainly Clear"
"-101.68","54.68","FLIN FLON A","5050961","2023-01-11 19:00","2023","01","11","19:00"
"-101.68","54.68","FLIN FLON A","5050961","2023-01-11 20:00","2023","01","11","20:00"
"-101.68","54.68","FLIN FLON A","5050961","2023-01-11 21:00","2023","01","11","21:00"
"-101.68","54.68","FLIN FLON A","5050961","2023-01-11 22:00","2023","01","11","22:00"
"-101.68","54.68","FLIN FLON A","5050961","2023-01-11 23:00","2023","01","11","23:00"
"-101.68","54.68","FLIN FLON A","5050961","2023-01-12 00:00","2023","01","12","00:00"
"-101.68","54.68","FLIN FLON A","5050961","2023-01-12 01:00","2023","01","12","01:00"
"-101.68","54.68","FLIN FLON A","5050961","2023-01-12 02:00","2023","01","12","02:00"
"-101.68","54.68","FLIN FLON A","5050961","2023-01-12 03:00","2023","01","12","03:00"
"-101.68","54.68","FLIN FLON A","5050961","2023-01-12 04:00","2023","01","12","04:00"
"-101.68","54.68","FLIN FLON A","5050961","2023-01-12 05:00","2023","01","12","05:00"
"-101.68","54.68","FLIN FLON A","5050961","2023-01-12 06:00","2023","01","12","06:00","-11.5","","-13.2","","87","","","","20","","9","","24.1","","99.01","","","","-17","","Cloudy"
"-101.68","54.68","FLIN FLON A","5050961","2023-01-12 07:00","2023","01","12","07:00","-11.6","","-13.4","","87","","","","19","","8","","24.1","","99.00","","","","-16","","NA"
"-101.68","54.68","FLIN FLON A","5050961","2023-01-12 08:00","2023","01","12","08:00","-12.3","","-14.0","","87","","","","18","","9","","24.1","","98.97","","","","-18","","NA"
"-101.68","54.68","FLIN FLON A","5050961","2023-01-12 09:00","2023","01","12","09:00","-12.6","","-14.2","","87","","","","18","","9","","24.1","","98.98","","","","-18","","Cloudy"
"-101.68","54.68","FLIN FLON A","5050961","2023-01-12 10:00","2023","01","12","10:00","-12.1","","-13.8","","87","","","","17","","7","","24.1","","99.01","","","","-16","","NA"
"-101.68","54.68","FLIN FLON A","5050961","2023-01-12 11:00","2023","01","12","11:00","-12.0","","-13.8","","86","","","","18","","10","","24.1","","99.04","","","","-18","","NA"
"-101.68","54.68","FLIN FLON A","5050961","2023-01-12 12:00","2023","01","12","12:00","-12.4","","-14.5","","85","","","","19","","13","","24.1","","99.00","","","","-19","","Mainly Clear"
"-101.68","54.68","FLIN FLON A","5050961","2023-01-12 13:00","2023","01","12","13:00","-12.5","","-14.6","","84","","","","17","","9","","24.1","","98.93","","","","-18","","NA"
"-101.68","54.68","FLIN FLON A","5050961","2023-01-12 14:00","2023","01","12","14:00","-11.8","","-14.0","","83","","","","16","","8","","24.1","","98.91","","","","-17","","NA"
"-101.68","54.68","FLIN FLON A","5050961","2023-01-12 15:00","2023","01","12","15:00","-11.3","","-13.6","","83","","","","17","","9","","24.1","","98.87","","","","-16","","Mainly Clear"
"-101.68","54.68","FLIN FLON A","5050961","2023-01-12 16:00","2023","01","12","16:00","-12.0","","-14.2","","84","","","","17","","10","","24.1","","98.84","","","","-18","","NA"
"-101.68","54.68","FLIN FLON A","5050961","2023-01-12 17:00","2023","01","12","17:00","-13.6","","-15.6","","85","","","","16","","11","","24.1","","98.81","","","","-20","","NA"
"-101.68","54.68","FLIN FLON A","5050961","2023-01-12 18:00","2023","01","12","18:00","-15.5","","-17.6","","84","","","","18","","7","","24.1","","98.75","","","","-20","","Mainly Clear"
"-101.68","54.68","FLIN FLON A","5050961","2023-01-12 19:00","2023","01","12","19:00"
"-101.68","54.68","FLIN FLON A","5050961","2023-01-12 20:00","2023","01","12","20:00"
"-101.68","54.68","FLIN FLON A","5050961","2023-01-12 21:00","2023","01","12","21:00"
"-101.68","54.68","FLIN FLON A","5050961","2023-01-12 22:00","2023","01","12","22:00"
"-101.68","54.68","FLIN FLON A","5050961","2023-01-12 23:00","2023","01","12","23:00"
"-101.68","54.68","FLIN FLON A","5050961","2023-01-13 00:00","2023","01","13","00:00"
"-101.68","54.68","FLIN FLON A","5050961","2023-01-13 01:00","2023","01","13","01:00"
"-101.68","54.68","FLIN FLON A","5050961","2023-01-13 02:00","2023","01","13","02:00"
"-101.68","54.68","FLIN FLON A","5050961","2023-01-13 03:00","2023","01","13","03:00"
"-101.68","54.68","FLIN FLON A","5050961","2023-01-13 04:00","2023","01","13","04:00"
"-101.68","54.68","FLIN FLON A","5050961","2023-01-13 05:00","2023","01","13","05:00"
"-101.68","54.68","FLIN FLON A","5050961","2023-01-13 06:00","2023","01","13","06:00","-11.3","","-13.0","","87","","","","19","","14","","24.1","","97.88","","","","-18","","Snow"
"-101.68","54.68","FLIN FLON A","5050961","2023-01-13 07:00","2023","01","13","07:00","-11.7","","-13.4","","87","","","","20","","10","","24.1","","97.80","","","","-17","","NA"
"-101.68","54.68","FLIN FLON A","5050961","2023-01-13 08:00","2023","01","13","08:00","-11.6","","-13.4","","87","","","","20","","7","","24.1","","97.73","","","","-16","","NA"
"-101.68","54.68","FLIN FLON A","5050961","2023-01-13 09:00","2023","01","13","09:00","-12.1","","-13.9","","86","","","","20","","11","","24.1","","97.66","","","","-18","","Cloudy"
"-101.68","54.68","FLIN FLON A","5050961","2023-01-13 10:00","2023","01","13","10:00","-11.9","","-13.8","","86","","","","22","","6","","24.1","","97.66","","","","-16","","NA"
"-101.68","54.68","FLIN FLON A","5050961","2023-01-13 11:00","2023","01","13","11:00","-12.3","","-14.2","","86","","","","23","","6","","24.1","","97.63","","","","-16","","NA"
"-101.68","54.68","FLIN FLON A","5050961","2023-01-13 12:00","2023","01","13","12:00","-11.9","","-13.8","","86","","","","31","","6","","24.1","","97.60","","","","-16","","Mostly Cloudy"
"-101.68","54.68","FLIN FLON A","5050961","2023-01-13 13:00","2023","01","13","13:00","-11.4","","-13.3","","86","","","","33","","10","","24.1","","97.48","","","","-17","","NA"
"-101.68","54.68","FLIN FLON A","5050961","2023-01-13 14:00","2023","01","13","14:00","-10.9","","-12.9","","85","","","","36","","2","","24.1","","97.53","","","","-12","","NA"
"-101.68","54.68","FLIN FLON A","5050961","2023-01-13 15:00","2023","01","13","15:00","-10.6","","-12.5","","86","","","","36","","15","","24.1","","97.55","","","","-17","","Snow"
"-101.68","54.68","FLIN FLON A","5050961","2023-01-13 16:00","2023","01","13","16:00","-10.9","","-12.9","","85","","","","36","","12","","24.1","","97.58","","","","-17","","Snow"
"-101.68","54.68","FLIN FLON A","5050961","2023-01-13 17:00","2023","01","13","17:00","-11.1","","-13.1","","85","","","","1","","11","","9.7","","97.63","","","","-17","","Snow"
"-101.68","54.68","FLIN FLON A","5050961","2023-01-13 18:00","2023","01","13","18:00","-11.1","","-13.2","","84","","","","3","","11","","9.7","","97.66","","","","-17","","Snow"
"-101.68","54.68","FLIN FLON A","5050961","2023-01-13 19:00","2023","01","13","19:00"
"-101.68","54.68","FLIN FLON A","5050961","2023-01-13 20:00","2023","01","13","20:00"
"-101.68","54.68","FLIN FLON A","5050961","2023-01-13 21:00","2023","01","13","21:00"
"-101.68","54.68","FLIN FLON A","5050961","2023-01-13 22:00","2023","01","13","22:00"
"-101.68","54.68","FLIN FLON A","5050961","2023-01-13 23:00","2023","01","13","23:00"
"-101.68","54.68","FLIN FLON A","5050961","2023-01-14 00:00","2023","01","14","00:00"
"-101.68","54.68","FLIN FLON A","5050961","2023-01-14 01:00","2023","01","14","01:00"
"-101.68","54.68","FLIN FLON A","5050961","2023-01-14 02:00","2023","01","14","02:00"
"-101.68","54.68","FLIN FLON A","5050961","2023-01-14 03:00","2023","01","14","03:00"
"-101.68","54.68","FLIN FLON A","5050961","2023-01-14 04:00","2023","01","14","04:00"
"-101.68","54.68","FLIN FLON A","5050961","2023-01-14 05:00","2023","01","14","05:00"
"-101.68","54.68","FLIN FLON A","5050961","2023-01-14 06:00","2023","01","14","06:00","-10.6","","-12.8","","84","","","","9","","8","","4.8","","97.63","","","","-15","","Snow"
"-101.68","54.68","FLIN FLON A","5050961","2023-01-14 07:00","2023","01","14","07:00","-10.9","","-13.3","","83","","","","9","","10","","6.4","","97.58","","","","-16","","Snow"
"-101.68","54.68","FLIN FLON A","5050961","2023-01-14 08:00","2023","01","14","08:00","-11.2","","-13.7","","82","","","","6","","11","","4.8","","97.52","","","","-17","","Snow"
"-101.68","54.68","FLIN FLON A","5050961","2023-01-14 09:00","2023","01","14","09:00","-11.8","","-14.4","","81","","","","8","","8","","6.4","","97.52","","","","-17","","Snow"
"-101.68","54.68","FLIN FLON A","5050961","2023-01-14 10:00","2023","01","14","10:00","-12.3","","-15.1","","79","","","","7","","13","","16.1","","97.50","","","","-19","","Snow"
"-101.68","54.68","FLIN FLON A","5050961","2023-01-14 11:00","2023","01","14","11:00","-12.5","","-15.4","","79","","","","7","","12","","12.9","","97.44","","","","-19","","Snow"
"-101.68","54.68","FLIN FLON A","5050961","2023-01-14 12:00","2023","01","14","12:00","-12.3","","-15.4","","78","","","","9","","17","","8.1","","97.39","","","","-20","","Snow,Blowing Snow"
"-101.68","54.68","FLIN FLON A","5050961","2023-01-14 13:00","2023","01","14","13:00","-12.2","","-15.0","","79","","","","10","","12","","1.6","","97.33","","","","-19","","Snow,Blowing Snow"
"-101.68","54.68","FLIN FLON A","5050961","2023-01-14 14:00","2023","01","14","14:00","-12.3","","-15.6","","77","","","","9","","16","","9.7","","97.23","","","","-20","","Snow,Blowing Snow"
"-101.68","54.68","FLIN FLON A","5050961","2023-01-14 15:00","2023","01","14","15:00","-12.5","","-15.8","","77","","","","10","","10","","19.3","","97.18","","","","-18","","Snow,Blowing Snow"
"-101.68","54.68","FLIN FLON A","5050961","2023-01-14 16:00","2023","01","14","16:00","-13.0","","-16.1","","77","","","","8","","19","","19.3","","97.15","","","","-21","","Snow,Blowing Snow"
"-101.68","54.68","FLIN FLON A","5050961","2023-01-14 17:00","2023","01","14","17:00","-13.7","","-16.6","","79","","","","7","","14","","9.7","","97.14","","","","-21","","Snow,Blowing Snow"
"-101.68","54.68","FLIN FLON A","5050961","2023-01-14 18:00","2023","01","14","18:00","-13.8","","-16.6","","80","","","","7","","10","","4.8","","97.12","","","","-20","","Snow,Blowing Snow"
"-101.68","54.68","FLIN FLON A","5050961","2023-01-14 19:00","2023","01","14","19:00"
"-101.68","54.68","FLIN FLON A","5050961","2023-01-14 20:00","2023","01","14","20:00"
"-101.68","54.68","FLIN FLON A","5050961","2023-01-14 21:00","2023","01","14","21:00"
"-101.68","54.68","FLIN FLON A","5050961","2023-01-14 22:00","2023","01","14","22:00"
"-101.68","54.68","FLIN FLON A","5050961","2023-01-14 23:00","2023","01","14","23:00"
"-101.68","54.68","FLIN FLON A","5050961","2023-01-15 00:00","2023","01","15","00:00"
"-101.68","54.68","FLIN FLON A","5050961","2023-01-15 01:00","2023","01","15","01:00"
"-101.68","54.68","FLIN FLON A","5050961","2023-01-15 02:00","2023","01","15","02:00"
"-101.68","54.68","FLIN FLON A","5050961","2023-01-15 03:00","2023","01","15","03:00"
"-101.68","54.68","FLIN FLON A","5050961","2023-01-15 04:00","2023","01","15","04:00"
"-101.68","54.68","FLIN FLON A","5050961","2023-01-15 05:00","2023","01","15","05:00"
"-101.68","54.68","FLIN FLON A","5050961","2023-01-15 06:00","2023","01","15","06:00","-14.8","","-17.3","","82","","","","2","","6","","4.8","","96.79","","","","-19","","Snow"
"-101.68","54.68","FLIN FLON A","5050961","2023-01-15 07:00","2023","01","15","07:00","-14.8","","-17.2","","82","","","","2","","7","","2.4","","96.77","","","","-20","","Snow"
"-101.68","54.68","FLIN FLON A","5050961","2023-01-15 08:00","2023","01","15","08:00","-14.6","","-17.2","","81","","","","1","","5","","3.2","","96.77","","","","-18","","Snow"
"-101.68","54.68","FLIN FLON A","5050961","2023-01-15 09:00","2023","01","15","09:00","-14.5","","-17.3","","79","","","","1","","7","","4.8","","96.77","","","","-19","","Snow"
"-101.68","54.68","FLIN FLON A","5050961","2023-01-15 10:00","2023","01","15","10:00","-14.5","","-17.6","","78","","","","1","","10","","6.4","","96.78","","","","-21","","Snow"
"-101.68","54.68","FLIN FLON A","5050961","2023-01-15 11:00","2023","01","15","11:00","-14.3","","-17.5","","76","","","","1","","7","","24.1","","96.81","","","","-19","","Snow"
"-101.68","54.68","FLIN FLON A","5050961","2023-01-15 12:00","2023","01","15","12:00","-13.9","","-17.3","","76","","","","4","","6","","16.1","","96.79","","","","-18","","Snow"
"-101.68","54.68","FLIN FLON A","5050961","2023-01-15 13:00","2023","01","15","13:00","-13.4","","-16.7","","77","","","","35","","7","","9.7","","96.80","","","","-18","","Snow"
"-101.68","54.68","FLIN FLON A","5050961","2023-01-15 14:00","2023","01","15","14:00","-12.9","","-16.3","","76","","","","33","","9","","24.1","","96.78","","","","-18","","Snow"
"-101.68","54.68","FLIN FLON A","5050961","2023-01-15 15:00","2023","01","15","15:00","-12.6","","-16.1","","75","","","","1","","7","","19.3","","96.81","","","","-17","","Snow"
"-101.68","54.68","FLIN FLON A","5050961","2023-01-15 16:00","2023","01","15","16:00","-12.6","","-15.8","","77","","","","4","","6","","19.3","","96.86","","","","-17","","Snow"
"-101.68","54.68","FLIN FLON A","5050961","2023-01-15 17:00","2023","01","15","17:00","-13.3","","-16.2","","79","","","","2","","4","","24.1","","96.94","","","","-16","","Snow"
"-101.68","54.68","FLIN FLON A","5050961","2023-01-15 18:00","2023","01","15","18:00","-14.9","","-16.9","","85","","","","36","","2","","24.1","","97.02","","","","-16","","Mainly Clear"
"-101.68","54.68","FLIN FLON A","5050961","2023-01-15 19:00","2023","01","15","19:00"
"-101.68","54.68","FLIN FLON A","5050961","2023-01-15 20:00","2023","01","15","20:00"
"-101.68","54.68","FLIN FLON A","5050961","2023-01-15 21:00","2023","01","15","21:00"
"-101.68","54.68","FLIN FLON A","5050961","2023-01-15 22:00","2023","01","15","22:00"
"-101.68","54.68","FLIN FLON A","5050961","2023-01-15 23:00","2023","01","15","23:00"
"-101.68","54.68","FLIN FLON A","5050961","2023-01-16 00:00","2023","01","16","00:00"
"-101.68","54.68","FLIN FLON A","5050961","2023-01-16 01:00","2023","01","16","01:00"
"-101.68","54.68","FLIN FLON A","5050961","2023-01-16 02:00","2023","01","16","02:00"
"-101.68","54.68","FLIN FLON A","5050961","2023-01-16 03:00","2023","01","16","03:00"
"-101.68","54.68","FLIN FLON A","5050961","2023-01-16 04:00","2023","01","16","04:00"
"-101.68","54.68","FLIN FLON A","5050961","2023-01-16 05:00","2023","01","16","05:00"
"-101.68","54.68","FLIN FLON A","5050961","2023-01-16 06:00","2023","01","16","06:00","-13.6","","-15.7","","84","","","","36","","1","","24.1","","97.42","","","","-14","","Mainly Clear"
"-101.68","54.68","FLIN FLON A","5050961","2023-01-16 07:00","2023","01","16","07:00","-16.0","","-18.2","","84","","","","36","","1","","24.1","","97.45","","","","-17","","NA"
"-101.68","54.68","FLIN FLON A","5050961","2023-01-16 08:00","2023","01","16","08:00","-16.0","","-18.3","","83","","","","20","","3","","24.1","","97.52","","","","-18","","NA"
"-101.68","54.68","FLIN FLON A","5050961","2023-01-16 09:00","2023","01","16","09:00","-13.3","","-15.4","","84","","","","28","","5","","24.1","","97.56","","","","-17","","Cloudy"
"-101.68","54.68","FLIN FLON A","5050961","2023-01-16 10:00","2023","01","16","10:00","-12.6","","-14.7","","84","","","","18","","3","","24.1","","97.61","","","","-15","","NA"
"-101.68","54.68","FLIN FLON A","5050961","2023-01-16 11:00","2023","01","16","11:00","-11.2","","-13.8","","82","","","","27","","4","","24.1","","97.64","","","","-14","","NA"
"-101.68","54.68","FLIN FLON A","5050961","2023-01-16 12:00","2023","01","16","12:00","-10.8","","-13.4","","81","","","","4","","5","","24.1","","97.62","","","","-14","","Cloudy"
"-101.68","54.68","FLIN FLON A","5050961","2023-01-16 13:00","2023","01","16","13:00","-10.2","","-12.8","","81","","","","36","","3","","24.1","","97.61","","","","-12","","NA"
"-101.68","54.68","FLIN FLON A","5050961","2023-01-16 14:00","2023","01","16","14:00","-9.9","","-12.5","","82","","","","5","","3","","24.1","","97.58","","","","-12","","NA"
"-101.68","54.68","FLIN FLON A","5050961","2023-01-16 15:00","2023","01","16","15:00","-9.6","","-12.0","","83","","","","5","","7","","24.1","","97.59","","","","-14","","Cloudy"
"-101.68","54.68","FLIN FLON A","5050961","2023-01-16 16:00","2023","01","16","16:00","-9.0","","-11.5","","82","","","","2","","5","","24.1","","97.64","","","","-12","","NA"
"-101.68","54.68","FLIN FLON A","5050961","2023-01-16 17:00","2023","01","16","17:00","-9.0","","-11.3","","83","","","","3","","3","","24.1","","97.68","","","","-11","","NA"
"-101.68","54.68","FLIN FLON A","5050961","2023-01-16 18:00","2023","01","16","18:00","-9.0","","-11.2","","84","","","","34","","4","","24.1","","97.71","","","","-11","","Cloudy"
"-101.68","54.68","FLIN FLON A","5050961","2023-01-16 19:00","2023","01","16","19:00"
"-101.68","54.68","FLIN FLON A","5050961","2023-01-16 20:00","2023","01","16","20:00"
"-101.68","54.68","FLIN FLON A","5050961","2023-01-16 21:00","2023","01","16","21:00"
"-101.68","54.68","FLIN FLON A","5050961","2023-01-16 22:00","2023","01","16","22:00"
"-101.68","54.68","FLIN FLON A","5050961","2023-01-16 23:00","2023","01","16","23:00"
"-101.68","54.68","FLIN FLON A","5050961","2023-01-17 00:00","2023","01","17","00:00"
"-101.68","54.68","FLIN FLON A","5050961","2023-01-17 01:00","2023","01","17","01:00"
"-101.68","54.68","FLIN FLON A","5050961","2023-01-17 02:00","2023","01","17","02:00"
"-101.68","54.68","FLIN FLON A","5050961","2023-01-17 03:00","2023","01","17","03:00"
"-101.68","54.68","FLIN FLON A","5050961","2023-01-17 04:00","2023","01","17","04:00"
"-101.68","54.68","FLIN FLON A","5050961","2023-01-17 05:00","2023","01","17","05:00"
"-101.68","54.68","FLIN FLON A","5050961","2023-01-17 06:00","2023","01","17","06:00","-9.4","","-11.4","","86","","","","13","","3","","20.9","","97.89","","","","-11","","Snow"
"-101.68","54.68","FLIN FLON A","5050961","2023-01-17 07:00","2023","01","17","07:00","-9.6","","-11.1","","89","","","","13","","3","","19.3","","97.90","","","","-11","","Freezing Drizzle"
"-101.68","54.68","FLIN FLON A","5050961","2023-01-17 08:00","2023","01","17","08:00","-9.6","","-10.9","","90","","","","14","","4","","16.1","","97.94","","","","-12","","Freezing Drizzle"
"-101.68","54.68","FLIN FLON A","5050961","2023-01-17 09:00","2023","01","17","09:00","-9.6","","-11.1","","89","","","","16","","3","","9.7","","97.95","","","","-11","","Freezing Drizzle,Fog"
"-101.68","54.68","FLIN FLON A","5050961","2023-01-17 10:00","2023","01","17","10:00","-9.4","","-10.8","","89","","","","36","","2","","4.8","","97.99","","","","-11","","Freezing Drizzle,Fog"
"-101.68","54.68","FLIN FLON A","5050961","2023-01-17 11:00","2023","01","17","11:00","-9.2","","-10.7","","89","","","","10","","5","","4.8","","98.01","","","","-12","","Freezing Drizzle,Fog"
"-101.68","54.68","FLIN FLON A","5050961","2023-01-17 12:00","2023","01","17","12:00","-9.0","","-10.4","","89","","","","17","","5","","4.8","","98.02","","","","-12","","Freezing Drizzle,Fog"
"-101.68","54.68","FLIN FLON A","5050961","2023-01-17 13:00","2023","01","17","13:00","-8.8","","-10.3","","89","","","","18","","8","","12.9","","97.99","","","","-13","","NA"
"-101.68","54.68","FLIN FLON A","5050961","2023-01-17 14:00","2023","01","17","14:00","-8.6","","-10.0","","89","","","","17","","8","","24.1","","97.97","","","","-13","","NA"
"-101.68","54.68","FLIN FLON A","5050961","2023-01-17 15:00","2023","01","17","15:00","-8.3","","-9.8","","90","","","","15","","9","","24.1","","97.99","","","","-13","","Cloudy"
"-101.68","54.68","FLIN FLON A","5050961","2023-01-17 16:00","2023","01","17","16:00","-8.3","","-9.7","","89","","","","17","","10","","24.1","","98.03","","","","-13","","NA"
"-101.68","54.68","FLIN FLON A","5050961","2023-01-17 17:00","2023","01","17","17:00","-8.2","","-9.7","","89","","","","15","","10","","24.1","","98.05","","","","-13","","NA"
"-101.68","54.68","FLIN FLON A","5050961","2023-01-17 18:00","2023","01","17","18:00","-8.4","","-9.9","","89","","","","15","","9","","24.1","","98.07","","","","-13","","Freezing Drizzle"
"-101.68","54.68","FLIN FLON A","5050961","2023-01-17 19:00","2023","01","17","19:00"
"-101.68","54.68","FLIN FLON A","5050961","2023-01-17 20:00","2023","01","17","20:00"
"-101.68","54.68","FLIN FLON A","5050961","2023-01-17 21:00","2023","01","17","21:00"
"-101.68","54.68","FLIN FLON A","5050961","2023-01-17 22:00","2023","01","17","22:00"
"-101.68","54.68","FLIN FLON A","5050961","2023-01-17 23:00","2023","01","17","23:00"
"-101.68","54.68","FLIN FLON A","5050961","2023-01-18 00:00","2023","01","18","00:00"
"-101.68","54.68","FLIN FLON A","5050961","2023-01-18 01:00","2023","01","18","01:00"
"-101.68","54.68","FLIN FLON A","5050961","2023-01-18 02:00","2023","01","18","02:00"
"-101.68","54.68","FLIN FLON A","5050961","2023-01-18 03:00","2023","01","18","03:00"
"-101.68","54.68","FLIN FLON A","5050961","2023-01-18 04:00","2023","01","18","04:00"
"-101.68","54.68","FLIN FLON A","5050961","2023-01-18 05:00","2023","01","18","05:00"
"-101.68","54.68","FLIN FLON A","5050961","2023-01-18 06:00","2023","01","18","06:00","-11.9","","-14.0","","85","","","","15","","7","","24.1","","98.12","","","","-16","","Cloudy"
"-101.68","54.68","FLIN FLON A","5050961","2023-01-18 07:00","2023","01","18","07:00","-12.1","","-14.2","","85","","","","16","","7","","24.1","","98.14","","","","-16","","NA"
"-101.68","54.68","FLIN FLON A","5050961","2023-01-18 08:00","2023","01","18","08:00","-12.4","","-14.8","","82","","","","16","","7","","24.1","","98.16","","","","-17","","NA"
"-101.68","54.68","FLIN FLON A","5050961","2023-01-18 09:00","2023","01","18","09:00","-12.6","","-15.4","","80","","","","17","","9","","19.3","","98.17","","","","-18","","Cloudy"
"-101.68","54.68","FLIN FLON A","5050961","2023-01-18 10:00","2023","01","18","10:00","-12.7","","-15.4","","80","","","","17","","13","","19.3","","98.16","","","","-20","","NA"
"-101.68","54.68","FLIN FLON A","5050961","2023-01-18 11:00","2023","01","18","11:00","-12.7","","-15.7","","79","","","","18","","11","","24.1","","98.18","","","","-19","","NA"
"-101.68","54.68","FLIN FLON A","5050961","2023-01-18 12:00","2023","01","18","12:00","-12.3","","-15.4","","78","","","","16","","9","","24.1","","98.20","","","","-18","","Mostly Cloudy"
"-101.68","54.68","FLIN FLON A","5050961","2023-01-18 13:00","2023","01","18","13:00","-11.4","","-14.8","","77","","","","15","","12","","24.1","","98.11","","","","-18","","NA"
"-101.68","54.68","FLIN FLON A","5050961","2023-01-18 14:00","2023","01","18","14:00","-10.8","","-14.5","","74","","","","16","","13","","24.1","","98.05","","","","-17","","NA"
"-101.68","54.68","FLIN FLON A","5050961","2023-01-18 15:00","2023","01","18","15:00","-10.9","","-14.5","","75","","","","17","","14","","24.1","","98.02","","","","-18","","Mostly Cloudy"
"-101.68","54.68","FLIN FLON A","5050961","2023-01-18 16:00","2023","01","18","16:00","-11.2","","-14.6","","76","","","","17","","9","","24.1","","98.01","","","","-16","","NA"
"-101.68","54.68","FLIN FLON A","5050961","2023-01-18 17:00","2023","01","18","17:00","-12.3","","-15.1","","80","","","","17","","9","","24.1","","98.04","","","","-18","","NA"
"-101.68","54.68","FLIN FLON A","5050961","2023-01-18 18:00","2023","01","18","18:00","-15.3","","-17.6","","83","","","","15","","3","","24.1","","98.04","","","","-17","","Mainly Clear"
"-101.68","54.68","FLIN FLON A","5050961","2023-01-18 19:00","2023","01","18","19:00"
"-101.68","54.68","FLIN FLON A","5050961","2023-01-18 20:00","2023","01","18","20:00"
"-101.68","54.68","FLIN FLON A","5050961","2023-01-18 21:00","2023","01","18","21:00"
"-101.68","54.68","FLIN FLON A","5050961","2023-01-18 22:00","2023","01","18","22:00"
"-101.68","54.68","FLIN FLON A","5050961","2023-01-18 23:00","2023","01","18","23:00"
"-101.68","54.68","FLIN FLON A","5050961","2023-01-19 00:00","2023","01","19","00:00"
"-101.68","54.68","FLIN FLON A","5050961","2023-01-19 01:00","2023","01","19","01:00"
"-101.68","54.68","FLIN FLON A","5050961","2023-01-19 02:00","2023","01","19","02:00"
"-101.68","54.68","FLIN FLON A","5050961","2023-01-19 03:00","2023","01","19","03:00"
"-101.68","54.68","FLIN FLON A","5050961","2023-01-19 04:00","2023","01","19","04:00"
"-101.68","54.68","FLIN FLON A","5050961","2023-01-19 05:00","2023","01","19","05:00"
"-101.68","54.68","FLIN FLON A","5050961","2023-01-19 06:00","2023","01","19","06:00","-21.5","","-24.5","","77","","","","36","","3","","24.1","","97.93","","","","-24","","Cloudy"
"-101.68","54.68","FLIN FLON A","5050961","2023-01-19 07:00","2023","01","19","07:00","-21.1","","-24.1","","77","","","","8","","3","","24.1","","97.91","","","","-24","","NA"
"-101.68","54.68","FLIN FLON A","5050961","2023-01-19 08:00","2023","01","19","08:00","-19.9","","-22.6","","79","","","","9","","3","","1.2","","97.89","","","","-22","","Snow"
"-101.68","54.68","FLIN FLON A","5050961","2023-01-19 09:00","2023","01","19","09:00","-19.6","","-22.4","","79","","","","36","","3","","2.0","","97.90","","","","-22","","Fog"
"-101.68","54.68","FLIN FLON A","5050961","2023-01-19 10:00","2023","01","19","10:00","-18.7","","-21.5","","79","","","","17","","7","","2.0","","97.92","","","","-24","","Snow,Fog"
"-101.68","54.68","FLIN FLON A","5050961","2023-01-19 11:00","2023","01","19","11:00","-18.1","","-20.8","","80","","","","17","","7","","2.0","","97.92","","","","-23","","Snow,Fog"
"-101.68","54.68","FLIN FLON A","5050961","2023-01-19 12:00","2023","01","19","12:00","-17.4","","-20.0","","81","","","","16","","8","","2.4","","97.93","","","","-23","","Snow,Fog"
"-101.68","54.68","FLIN FLON A","5050961","2023-01-19 13:00","2023","01","19","13:00","-16.5","","-19.0","","81","","","","18","","6","","2.4","","97.90","","","","-21","","Snow,Fog"
"-101.68","54.68","FLIN FLON A","5050961","2023-01-19 14:00","2023","01","19","14:00","-15.6","","-18.0","","82","","","","18","","5","","2.4","","97.87","","","","-19","","Snow,Fog"
"-101.68","54.68","FLIN FLON A","5050961","2023-01-19 15:00","2023","01","19","15:00","-14.6","","-16.8","","83","","","","18","","6","","2.4","","97.88","","","","-19","","Snow,Fog"
"-101.68","54.68","FLIN FLON A","5050961","2023-01-19 16:00","2023","01","19","16:00","-13.8","","-15.9","","84","","","","17","","12","","2.4","","97.89","","","","-21","","Snow,Fog"
"-101.68","54.68","FLIN FLON A","5050961","2023-01-19 17:00","2023","01","19","17:00","-13.2","","-15.3","","85","","","","18","","9","","2.4","","97.91","","","","-19","","Snow,Fog"
"-101.68","54.68","FLIN FLON A","5050961","2023-01-19 18:00","2023","01","19","18:00","-12.9","","-14.9","","85","","","","20","","8","","2.4","","97.91","","","","-18","","Snow,Fog"
"-101.68","54.68","FLIN FLON A","5050961","2023-01-19 19:00","2023","01","19","19:00"
"-101.68","54.68","FLIN FLON A","5050961","2023-01-19 20:00","2023","01","19","20:00"
"-101.68","54.68","FLIN FLON A","5050961","2023-01-19 21:00","2023","01","19","21:00"
"-101.68","54.68","FLIN FLON A","5050961","2023-01-19 22:00","2023","01","19","22:00"
"-101.68","54.68","FLIN FLON A","5050961","2023-01-19 23:00","2023","01","19","23:00"
"-101.68","54.68","FLIN FLON A","5050961","2023-01-20 00:00","2023","01","20","00:00"
"-101.68","54.68","FLIN FLON A","5050961","2023-01-20 01:00","2023","01","20","01:00"
"-101.68","54.68","FLIN FLON A","5050961","2023-01-20 02:00","2023","01","20","02:00"
"-101.68","54.68","FLIN FLON A","5050961","2023-01-20 03:00","2023","01","20","03:00"
"-101.68","54.68","FLIN FLON A","5050961","2023-01-20 04:00","2023","01","20","04:00"
"-101.68","54.68","FLIN FLON A","5050961","2023-01-20 05:00","2023","01","20","05:00"
"-101.68","54.68","FLIN FLON A","5050961","2023-01-20 06:00","2023","01","20","06:00","-7.3","","-8.6","","91","","","","24","","13","","24.1","","97.66","","","","-13","","Cloudy"
"-101.68","54.68","FLIN FLON A","5050961","2023-01-20 07:00","2023","01","20","07:00","-7.2","","-8.4","","91","","","","25","","12","","19.3","","97.64","","","","-13","","NA"
"-101.68","54.68","FLIN FLON A","5050961","2023-01-20 08:00","2023","01","20","08:00","-8.4","","-9.8","","90","","","","24","","12","","24.1","","97.64","","","","-14","","NA"
"-101.68","54.68","FLIN FLON A","5050961","2023-01-20 09:00","2023","01","20","09:00","-10.3","","-11.9","","88","","","","22","","8","","24.1","","97.61","","","","-15","","Mainly Clear"
"-101.68","54.68","FLIN FLON A","5050961","2023-01-20 10:00","2023","01","20","10:00","-11.3","","-13.0","","87","","","","22","","12","","24.1","","97.62","","","","-17","","NA"
"-101.68","54.68","FLIN FLON A","5050961","2023-01-20 11:00","2023","01","20","11:00","-10.4","","-12.1","","88","","","","22","","9","","24.1","","97.60","","","","-15","","NA"
"-101.68","54.68","FLIN FLON A","5050961","2023-01-20 12:00","2023","01","20","12:00","-10.3","","-11.9","","88","","","","19","","10","","24.1","","97.53","","","","-16","","Mainly Clear"
"-101.68","54.68","FLIN FLON A","5050961","2023-01-20 13:00","2023","01","20","13:00","-8.8","","-10.2","","89","","","","21","","9","","24.1","","97.46","","","","-13","","NA"
"-101.68","54.68","FLIN FLON A","5050961","2023-01-20 14:00","2023","01","20","14:00","-7.0","","-8.2","","91","","","","26","","5","","24.1","","97.44","","","","-10","","NA"
"-101.68","54.68","FLIN FLON A","5050961","2023-01-20 15:00","2023","01","20","15:00","-6.8","","-8.0","","91","","","","25","","11","","24.1","","97.42","","","","-12","","Mainly Clear"
"-101.68","54.68","FLIN FLON A","5050961","2023-01-20 16:00","2023","01","20","16:00","-6.5","","-7.7","","92","","","","25","","12","","24.1","","97.45","","","","-12","","NA"
"-101.68","54.68","FLIN FLON A","5050961","2023-01-20 17:00","2023","01","20","17:00","-8.0","","-9.3","","91","","","","22","","5","","24.1","","97.47","","","","-11","","NA"
"-101.68","54.68","FLIN FLON A","5050961","2023-01-20 18:00","2023","01","20","18:00","-9.5","","-10.9","","89","","","","21","","6","","24.1","","97.49","","","","-13","","Mainly Clear"
"-101.68","54.68","FLIN FLON A","5050961","2023-01-20 19:00","2023","01","20","19:00"
"-101.68","54.68","FLIN FLON A","5050961","2023-01-20 20:00","2023","01","20","20:00"
"-101.68","54.68","FLIN FLON A","5050961","2023-01-20 21:00","2023","01","20","21:00"
"-101.68","54.68","FLIN FLON A","5050961","2023-01-20 22:00","2023","01","20","22:00"
"-101.68","54.68","FLIN FLON A","5050961","2023-01-20 23:00","2023","01","20","23:00"
"-101.68","54.68","FLIN FLON A","5050961","2023-01-21 00:00","2023","01","21","00:00"
"-101.68","54.68","FLIN FLON A","5050961","2023-01-21 01:00","2023","01","21","01:00"
"-101.68","54.68","FLIN FLON A","5050961","2023-01-21 02:00","2023","01","21","02:00"
"-101.68","54.68","FLIN FLON A","5050961","2023-01-21 03:00","2023","01","21","03:00"
"-101.68","54.68","FLIN FLON A","5050961","2023-01-21 04:00","2023","01","21","04:00"
"-101.68","54.68","FLIN FLON A","5050961","2023-01-21 05:00","2023","01","21","05:00"
"-101.68","54.68","FLIN FLON A","5050961","2023-01-21 06:00","2023","01","21","06:00","-8.8","","-10.2","","90","","","","29","","7","","24.1","","97.46","","","","-13","","Mainly Clear"
"-101.68","54.68","FLIN FLON A","5050961","2023-01-21 07:00","2023","01","21","07:00","-9.6","","-11.1","","89","","","","30","","6","","24.1","","97.48","","","","-13","","NA"
"-101.68","54.68","FLIN FLON A","5050961","2023-01-21 08:00","2023","01","21","08:00","-10.0","","-11.6","","88","","","","30","","8","","3.2","","97.50","","","","-14","","Fog"
"-101.68","54.68","FLIN FLON A","5050961","2023-01-21 09:00","2023","01","21","09:00","-10.0","","-11.5","","88","","","","29","","4","","4.8","","97.52","","","","-12","","Fog"
"-101.68","54.68","FLIN FLON A","5050961","2023-01-21 10:00","2023","01","21","10:00","-9.6","","-11.1","","89","","","","28","","5","","12.9","","97.56","","","","-12","","NA"
"-101.68","54.68","FLIN FLON A","5050961","2023-01-21 11:00","2023","01","21","11:00","-9.6","","-11.1","","89","","","","31","","7","","19.3","","97.57","","","","-14","","NA"
"-101.68","54.68","FLIN FLON A","5050961","2023-01-21 12:00","2023","01","21","12:00","-9.6","","-11.1","","89","","","","29","","8","","19.3","","97.57","","","","-14","","Cloudy"
"-101.68","54.68","FLIN FLON A","5050961","2023-01-21 13:00","2023","01","21","13:00","-9.0","","-10.4","","89","","","","24","","8","","19.3","","97.56","","","","-13","","NA"
"-101.68","54.68","FLIN FLON A","5050961","2023-01-21 14:00","2023","01","21","14:00","-8.5","","-9.9","","90","","","","25","","11","","19.3","","97.50","","","","-14","","NA"
"-101.68","54.68","FLIN FLON A","5050961","2023-01-21 15:00","2023","01","21","15:00","-8.6","","-10.1","","90","","","","27","","9","","19.3","","97.45","","","","-13","","Cloudy"
"-101.68","54.68","FLIN FLON A","5050961","2023-01-21 16:00","2023","01","21","16:00","-8.9","","-10.3","","89","","","","24","","7","","12.9","","97.48","","","","-13","","NA"
"-101.68","54.68","FLIN FLON A","5050961","2023-01-21 17:00","2023","01","21","17:00","-9.2","","-10.6","","89","","","","27","","10","","12.9","","97.48","","","","-14","","NA"
"-101.68","54.68","FLIN FLON A","5050961","2023-01-21 18:00","2023","01","21","18:00","-9.2","","-10.7","","89","","","","24","","9","","12.9","","97.51","","","","-14","","Cloudy"
"-101.68","54.68","FLIN FLON A","5050961","2023-01-21 19:00","2023","01","21","19:00"
"-101.68","54.68","FLIN FLON A","5050961","2023-01-21 20:00","2023","01","21","20:00"
"-101.68","54.68","FLIN FLON A","5050961","2023-01-21 21:00","2023","01","21","21:00"
"-101.68","54.68","FLIN FLON A","5050961","2023-01-21 22:00","2023","01","21","22:00"
"-101.68","54.68","FLIN FLON A","5050961","2023-01-21 23:00","2023","01","21","23:00"
"-101.68","54.68","FLIN FLON A","5050961","2023-01-22 00:00","2023","01","22","00:00"
"-101.68","54.68","FLIN FLON A","5050961","2023-01-22 01:00","2023","01","22","01:00"
"-101.68","54.68","FLIN FLON A","5050961","2023-01-22 02:00","2023","01","22","02:00"
"-101.68","54.68","FLIN FLON A","5050961","2023-01-22 03:00","2023","01","22","03:00"
"-101.68","54.68","FLIN FLON A","5050961","2023-01-22 04:00","2023","01","22","04:00"
"-101.68","54.68","FLIN FLON A","5050961","2023-01-22 05:00","2023","01","22","05:00"
"-101.68","54.68","FLIN FLON A","5050961","2023-01-22 06:00","2023","01","22","06:00","-9.6","","-11.2","","89","","","","17","","13","","24.1","","96.68","","","","-16","","Cloudy"
"-101.68","54.68","FLIN FLON A","5050961","2023-01-22 07:00","2023","01","22","07:00","-9.1","","-10.6","","89","","","","18","","16","","24.1","","96.56","","","","-16","","NA"
"-101.68","54.68","FLIN FLON A","5050961","2023-01-22 08:00","2023","01","22","08:00","-8.9","","-10.3","","89","","","","20","","12","","24.1","","96.54","","","","-15","","NA"
"-101.68","54.68","FLIN FLON A","5050961","2023-01-22 09:00","2023","01","22","09:00","-8.8","","-10.2","","90","","","","20","","13","","19.3","","96.48","","","","-15","","Cloudy"
"-101.68","54.68","FLIN FLON A","5050961","2023-01-22 10:00","2023","01","22","10:00","-8.1","","-9.5","","90","","","","20","","13","","19.3","","96.46","","","","-14","","NA"
"-101.68","54.68","FLIN FLON A","5050961","2023-01-22 11:00","2023","01","22","11:00","-7.2","","-8.4","","91","","","","23","","11","","19.3","","96.45","","","","-12","","NA"
"-101.68","54.68","FLIN FLON A","5050961","2023-01-22 12:00","2023","01","22","12:00","-5.8","","-6.8","","92","","","","25","","12","","19.3","","96.45","","","","-11","","Cloudy"
"-101.68","54.68","FLIN FLON A","5050961","2023-01-22 13:00","2023","01","22","13:00","-4.3","","-5.1","","94","","","","27","","10","","19.3","","96.42","","","","-8","","NA"
"-101.68","54.68","FLIN FLON A","5050961","2023-01-22 14:00","2023","01","22","14:00","-3.3","","-3.9","","95","","","","28","","12","","19.3","","96.46","","","","-8","","NA"
"-101.68","54.68","FLIN FLON A","5050961","2023-01-22 15:00","2023","01","22","15:00","-2.1","","-2.6","","97","","","","29","","9","","19.3","","96.51","","","","-6","","Cloudy"
"-101.68","54.68","FLIN FLON A","5050961","2023-01-22 16:00","2023","01","22","16:00","-1.4","","-1.8","","97","","","","31","","16","","19.3","","96.57","","","","-6","","NA"
"-101.68","54.68","FLIN FLON A","5050961","2023-01-22 17:00","2023","01","22","17:00","-1.2","","-1.5","","98","","","","29","","12","","19.3","","96.63","","","","-5","","NA"
"-101.68","54.68","FLIN FLON A","5050961","2023-01-22 18:00","2023","01","22","18:00","-1.1","","-1.4","","98","","","","29","","10","","24.1","","96.69","","","","-5","","Cloudy"
"-101.68","54.68","FLIN FLON A","5050961","2023-01-22 19:00","2023","01","22","19:00"
"-101.68","54.68","FLIN FLON A","5050961","2023-01-22 20:00","2023","01","22","20:00"
"-101.68","54.68","FLIN FLON A","5050961","2023-01-22 21:00","2023","01","22","21:00"
"-101.68","54.68","FLIN FLON A","5050961","2023-01-22 22:00","2023","01","22","22:00"
"-101.68","54.68","FLIN FLON A","5050961","2023-01-22 23:00","2023","01","22","23:00"
"-101.68","54.68","FLIN FLON A","5050961","2023-01-23 00:00","2023","01","23","00:00"
"-101.68","54.68","FLIN FLON A","5050961","2023-01-23 01:00","2023","01","23","01:00"
"-101.68","54.68","FLIN FLON A","5050961","2023-01-23 02:00","2023","01","23","02:00"
"-101.68","54.68","FLIN FLON A","5050961","2023-01-23 03:00","2023","01","23","03:00"
"-101.68","54.68","FLIN FLON A","5050961","2023-01-23 04:00","2023","01","23","04:00"
"-101.68","54.68","FLIN FLON A","5050961","2023-01-23 05:00","2023","01","23","05:00"
"-101.68","54.68","FLIN FLON A","5050961","2023-01-23 06:00","2023","01","23","06:00","-14.8","","-18.3","","75","","","","34","","19","","24.1","","97.95","","","","-24","","Cloudy"
"-101.68","54.68","FLIN FLON A","5050961","2023-01-23 07:00","2023","01","23","07:00","-15.3","","-18.7","","75","","","","36","","13","","24.1","","97.98","","","","-23","","NA"
"-101.68","54.68","FLIN FLON A","5050961","2023-01-23 08:00","2023","01","23","08:00","-17.4","","-20.2","","79","","","","2","","9","","24.1","","98.01","","","","-24","","NA"
"-101.68","54.68","FLIN FLON A","5050961","2023-01-23 09:00","2023","01","23","09:00","-18.9","","-21.7","","79","","","","34","","9","","24.1","","98.05","","","","-25","","Mostly Cloudy"
"-101.68","54.68","FLIN FLON A","5050961","2023-01-23 10:00","2023","01","23","10:00","-19.2","","-22.4","","76","","","","33","","14","","24.1","","98.10","","","","-28","","NA"
"-101.68","54.68","FLIN FLON A","5050961","2023-01-23 11:00","2023","01","23","11:00","-19.5","","-23.2","","73","","","","35","","13","","24.1","","98.10","","","","-28","","NA"
"-101.68","54.68","FLIN FLON A","5050961","2023-01-23 12:00","2023","01","23","12:00","-19.9","","-23.9","","71","","","","5","","5","","24.1","","98.08","","","","-24","","Mostly Cloudy"
"-101.68","54.68","FLIN FLON A","5050961","2023-01-23 13:00","2023","01","23","13:00","-18.8","","-23.2","","69","","","","36","","2","","24.1","","98.01","","","","-20","","NA"
"-101.68","54.68","FLIN FLON A","5050961","2023-01-23 14:00","2023","01","23","14:00","-17.8","","-22.4","","68","","","","36","","2","","24.1","","97.95","","","","-19","","NA"
"-101.68","54.68","FLIN FLON A","5050961","2023-01-23 15:00","2023","01","23","15:00","-17.4","","-22.7","","64","","","","36","","1","","24.1","","97.92","","","","-18","","Mostly Cloudy"
"-101.68","54.68","FLIN FLON A","5050961","2023-01-23 16:00","2023","01","23","16:00","-17.2","","-22.3","","65","","","","19","","4","","24.1","","97.89","","","","-20","","NA"
"-101.68","54.68","FLIN FLON A","5050961","2023-01-23 17:00","2023","01","23","17:00","-17.1","","-22.4","","64","","","","20","","6","","24.1","","97.92","","","","-22","","NA"
"-101.68","54.68","FLIN FLON A","5050961","2023-01-23 18:00","2023","01","23","18:00","-17.0","","-22.1","","65","","","","36","","2","","24.1","","97.90","","","","-19","","Cloudy"
"-101.68","54.68","FLIN FLON A","5050961","2023-01-23 19:00","2023","01","23","19:00"
"-101.68","54.68","FLIN FLON A","5050961","2023-01-23 20:00","2023","01","23","20:00"
"-101.68","54.68","FLIN FLON A","5050961","2023-01-23 21:00","2023","01","23","21:00"
"-101.68","54.68","FLIN FLON A","5050961","2023-01-23 22:00","2023","01","23","22:00"
"-101.68","54.68","FLIN FLON A","5050961","2023-01-23 23:00","2023","01","23","23:00"
"-101.68","54.68","FLIN FLON A","5050961","2023-01-24 00:00","2023","01","24","00:00"
"-101.68","54.68","FLIN FLON A","5050961","2023-01-24 01:00","2023","01","24","01:00"
"-101.68","54.68","FLIN FLON A","5050961","2023-01-24 02:00","2023","01","24","02:00"
"-101.68","54.68","FLIN FLON A","5050961","2023-01-24 03:00","2023","01","24","03:00"
"-101.68","54.68","FLIN FLON A","5050961","2023-01-24 04:00","2023","01","24","04:00"
"-101.68","54.68","FLIN FLON A","5050961","2023-01-24 05:00","2023","01","24","05:00"
"-101.68","54.68","FLIN FLON A","5050961","2023-01-24 06:00","2023","01","24","06:00","-18.7","","-23.2","","68","","","","7","","5","","24.1","","98.07","","","","-23","","Cloudy"
"-101.68","54.68","FLIN FLON A","5050961","2023-01-24 07:00","2023","01","24","07:00","-18.7","","-23.1","","69","","","","5","","4","","24.1","","98.12","","","","-22","","NA"
"-101.68","54.68","FLIN FLON A","5050961","2023-01-24 08:00","2023","01","24","08:00","-18.8","","-23.0","","70","","","","4","","7","","24.1","","98.16","","","","-24","","NA"
"-101.68","54.68","FLIN FLON A","5050961","2023-01-24 09:00","2023","01","24","09:00","-18.9","","-23.1","","70","","","","5","","8","","24.1","","98.19","","","","-25","","Cloudy"
"-101.68","54.68","FLIN FLON A","5050961","2023-01-24 10:00","2023","01","24","10:00","-18.8","","-22.8","","71","","","","4","","5","","24.1","","98.24","","","","-23","","NA"
"-101.68","54.68","FLIN FLON A","5050961","2023-01-24 11:00","2023","01","24","11:00","-18.2","","-22.9","","67","","","","9","","4","","24.1","","98.30","","","","-21","","NA"
"-101.68","54.68","FLIN FLON A","5050961","2023-01-24 12:00","2023","01","24","12:00","-17.4","","-22.7","","64","","","","4","","4","","24.1","","98.33","","","","-21","","Mostly Cloudy"
"-101.68","54.68","FLIN FLON A","5050961","2023-01-24 13:00","2023","01","24","13:00","-16.5","","-22.7","","59","","","","29","","3","","24.1","","98.32","","","","-19","","NA"
"-101.68","54.68","FLIN FLON A","5050961","2023-01-24 14:00","2023","01","24","14:00","-16.1","","-22.7","","58","","","","18","","5","","24.1","","98.33","","","","-20","","NA"
"-101.68","54.68","FLIN FLON A","5050961","2023-01-24 15:00","2023","01","24","15:00","-15.6","","-22.2","","58","","","","16","","7","","24.1","","98.35","","","","-21","","Cloudy"
"-101.68","54.68","FLIN FLON A","5050961","2023-01-24 16:00","2023","01","24","16:00","-15.5","","-22.7","","55","","","","16","","5","","24.1","","98.38","","","","-19","","NA"
"-101.68","54.68","FLIN FLON A","5050961","2023-01-24 17:00","2023","01","24","17:00","-15.2","","-21.5","","59","","","","17","","5","","24.1","","98.40","","","","-19","","NA"
"-101.68","54.68","FLIN FLON A","5050961","2023-01-24 18:00","2023","01","24","18:00","-15.3","","-21.0","","62","","","","19","","7","","24.1","","98.41","","","","-20","","Cloudy"
"-101.68","54.68","FLIN FLON A","5050961","2023-01-24 19:00","2023","01","24","19:00"
"-101.68","54.68","FLIN FLON A","5050961","2023-01-24 20:00","2023","01","24","20:00"
"-101.68","54.68","FLIN FLON A","5050961","2023-01-24 21:00","2023","01","24","21:00"
"-101.68","54.68","FLIN FLON A","5050961","2023-01-24 22:00","2023","01","24","22:00"
"-101.68","54.68","FLIN FLON A","5050961","2023-01-24 23:00","2023","01","24","23:00"
"-101.68","54.68","FLIN FLON A","5050961","2023-01-25 00:00","2023","01","25","00:00"
"-101.68","54.68","FLIN FLON A","5050961","2023-01-25 01:00","2023","01","25","01:00"
"-101.68","54.68","FLIN FLON A","5050961","2023-01-25 02:00","2023","01","25","02:00"
"-101.68","54.68","FLIN FLON A","5050961","2023-01-25 03:00","2023","01","25","03:00"
"-101.68","54.68","FLIN FLON A","5050961","2023-01-25 04:00","2023","01","25","04:00"
"-101.68","54.68","FLIN FLON A","5050961","2023-01-25 05:00","2023","01","25","05:00"
"-101.68","54.68","FLIN FLON A","5050961","2023-01-25 06:00","2023","01","25","06:00","-13.6","","-16.3","","80","","","","19","","5","","24.1","","98.20","","","","-17","","Snow"
"-101.68","54.68","FLIN FLON A","5050961","2023-01-25 07:00","2023","01","25","07:00","-13.3","","-16.1","","80","","","","31","","4","","24.1","","98.21","","","","-16","","Snow"
"-101.68","54.68","FLIN FLON A","5050961","2023-01-25 08:00","2023","01","25","08:00","-13.2","","-15.9","","80","","","","34","","3","","24.1","","98.18","","","","-15","","Snow"
"-101.68","54.68","FLIN FLON A","5050961","2023-01-25 09:00","2023","01","25","09:00","-13.2","","-15.5","","83","","","","1","","5","","9.7","","98.24","","","","-17","","Snow"
"-101.68","54.68","FLIN FLON A","5050961","2023-01-25 10:00","2023","01","25","10:00","-12.7","","-14.5","","86","","","","35","","9","","16.1","","98.28","","","","-18","","Snow"
"-101.68","54.68","FLIN FLON A","5050961","2023-01-25 11:00","2023","01","25","11:00","-11.9","","-15.0","","78","","","","35","","19","","24.1","","98.35","","","","-20","","Snow"
"-101.68","54.68","FLIN FLON A","5050961","2023-01-25 12:00","2023","01","25","12:00","-11.6","","-15.2","","75","","","","36","","17","","24.1","","98.41","","","","-19","","Snow"
"-101.68","54.68","FLIN FLON A","5050961","2023-01-25 13:00","2023","01","25","13:00","-11.4","","-15.4","","73","","","","35","","16","","24.1","","98.45","","","","-19","","Snow"
"-101.68","54.68","FLIN FLON A","5050961","2023-01-25 14:00","2023","01","25","14:00","-11.8","","-16.1","","71","","","","35","","21","","24.1","","98.50","","","","-20","","Snow"
"-101.68","54.68","FLIN FLON A","5050961","2023-01-25 15:00","2023","01","25","15:00","-12.1","","-16.5","","70","","","","34","","19","","24.1","","98.51","","","","-20","","Snow"
"-101.68","54.68","FLIN FLON A","5050961","2023-01-25 16:00","2023","01","25","16:00","-13.2","","-18.5","","65","","","","36","","14","","24.1","","98.58","","","","-20","","NA"
"-101.68","54.68","FLIN FLON A","5050961","2023-01-25 17:00","2023","01","25","17:00","-14.1","","-18.8","","68","","","","35","","18","","24.1","","98.64","","","","-23","","NA"
"-101.68","54.68","FLIN FLON A","5050961","2023-01-25 18:00","2023","01","25","18:00","-15.5","","-19.5","","72","","","","36","","16","","24.1","","98.72","","","","-24","","Mainly Clear"
"-101.68","54.68","FLIN FLON A","5050961","2023-01-25 19:00","2023","01","25","19:00"
"-101.68","54.68","FLIN FLON A","5050961","2023-01-25 20:00","2023","01","25","20:00"
"-101.68","54.68","FLIN FLON A","5050961","2023-01-25 21:00","2023","01","25","21:00"
"-101.68","54.68","FLIN FLON A","5050961","2023-01-25 22:00","2023","01","25","22:00"
"-101.68","54.68","FLIN FLON A","5050961","2023-01-25 23:00","2023","01","25","23:00"
"-101.68","54.68","FLIN FLON A","5050961","2023-01-26 00:00","2023","01","26","00:00"
"-101.68","54.68","FLIN FLON A","5050961","2023-01-26 01:00","2023","01","26","01:00"
"-101.68","54.68","FLIN FLON A","5050961","2023-01-26 02:00","2023","01","26","02:00"
"-101.68","54.68","FLIN FLON A","5050961","2023-01-26 03:00","2023","01","26","03:00"
"-101.68","54.68","FLIN FLON A","5050961","2023-01-26 04:00","2023","01","26","04:00"
"-101.68","54.68","FLIN FLON A","5050961","2023-01-26 05:00","2023","01","26","05:00"
"-101.68","54.68","FLIN FLON A","5050961","2023-01-26 06:00","2023","01","26","06:00","-16.9","","-19.6","","80","","","","15","","13","","9.7","","97.27","","","","-25","","Snow"
"-101.68","54.68","FLIN FLON A","5050961","2023-01-26 07:00","2023","01","26","07:00","-16.9","","-19.5","","81","","","","15","","10","","12.9","","97.00","","","","-24","","Snow"
"-101.68","54.68","FLIN FLON A","5050961","2023-01-26 08:00","2023","01","26","08:00","-16.6","","-19.3","","80","","","","12","","13","","2.8","","96.76","","","","-24","","Snow"
"-101.68","54.68","FLIN FLON A","5050961","2023-01-26 09:00","2023","01","26","09:00","-16.2","","-19.1","","79","","","","13","","8","","1.2","","96.63","","","","-22","","Snow"
"-101.68","54.68","FLIN FLON A","5050961","2023-01-26 10:00","2023","01","26","10:00","-15.5","","-18.3","","79","","","","9","","9","","1.6","","96.53","","","","-21","","Snow"
"-101.68","54.68","FLIN FLON A","5050961","2023-01-26 11:00","2023","01","26","11:00","-14.6","","-17.6","","78","","","","9","","8","","1.6","","96.48","","","","-20","","Snow"
"-101.68","54.68","FLIN FLON A","5050961","2023-01-26 12:00","2023","01","26","12:00","-14.4","","-17.6","","77","","","","9","","11","","2.0","","96.41","","","","-21","","Snow"
"-101.68","54.68","FLIN FLON A","5050961","2023-01-26 13:00","2023","01","26","13:00","-14.2","","-17.3","","77","","","","10","","10","","2.0","","96.32","","","","-20","","Snow"
"-101.68","54.68","FLIN FLON A","5050961","2023-01-26 14:00","2023","01","26","14:00","-14.4","","-17.8","","76","","","","5","","15","","3.2","","96.41","","","","-22","","Snow"
"-101.68","54.68","FLIN FLON A","5050961","2023-01-26 15:00","2023","01","26","15:00","-14.3","","-17.8","","75","","","","4","","13","","2.4","","96.56","","","","-21","","Snow"
"-101.68","54.68","FLIN FLON A","5050961","2023-01-26 16:00","2023","01","26","16:00","-14.7","","-17.7","","78","","","","2","","10","","2.4","","96.65","","","","-21","","Snow"
"-101.68","54.68","FLIN FLON A","5050961","2023-01-26 17:00","2023","01","26","17:00","-15.1","","-18.1","","78","","","","36","","14","","9.7","","96.83","","","","-23","","Snow"
"-101.68","54.68","FLIN FLON A","5050961","2023-01-26 18:00","2023","01","26","18:00","-14.7","","-17.9","","77","","","","35","","11","","4.8","","96.87","","","","-21","","Snow"
"-101.68","54.68","FLIN FLON A","5050961","2023-01-26 19:00","2023","01","26","19:00"
"-101.68","54.68","FLIN FLON A","5050961","2023-01-26 20:00","2023","01","26","20:00"
"-101.68","54.68","FLIN FLON A","5050961","2023-01-26 21:00","2023","01","26","21:00"
"-101.68","54.68","FLIN FLON A","5050961","2023-01-26 22:00","2023","01","26","22:00"
"-101.68","54.68","FLIN FLON A","5050961","2023-01-26 23:00","2023","01","26","23:00"
"-101.68","54.68","FLIN FLON A","5050961","2023-01-27 00:00","2023","01","27","00:00"
"-101.68","54.68","FLIN FLON A","5050961","2023-01-27 01:00","2023","01","27","01:00"
"-101.68","54.68","FLIN FLON A","5050961","2023-01-27 02:00","2023","01","27","02:00"
"-101.68","54.68","FLIN FLON A","5050961","2023-01-27 03:00","2023","01","27","03:00"
"-101.68","54.68","FLIN FLON A","5050961","2023-01-27 04:00","2023","01","27","04:00"
"-101.68","54.68","FLIN FLON A","5050961","2023-01-27 05:00","2023","01","27","05:00"
"-101.68","54.68","FLIN FLON A","5050961","2023-01-27 06:00","2023","01","27","06:00","-19.8","","-23.0","","76","","","","34","","27","","19.3","","97.77","","","","-32","","Snow,Blowing Snow"
"-101.68","54.68","FLIN FLON A","5050961","2023-01-27 07:00","2023","01","27","07:00","-20.4","","-23.8","","75","","","","33","","23","","9.7","","97.83","","","","-32","","Snow,Blowing Snow"
"-101.68","54.68","FLIN FLON A","5050961","2023-01-27 08:00","2023","01","27","08:00","-23.3","","-27.2","","71","","","","34","","22","","19.3","","97.93","","","","-35","","Snow,Blowing Snow"
"-101.68","54.68","FLIN FLON A","5050961","2023-01-27 09:00","2023","01","27","09:00","-25.3","","-29.3","","70","","","","36","","23","","24.1","","98.01","","","","-38","","Blowing Snow"
"-101.68","54.68","FLIN FLON A","5050961","2023-01-27 10:00","2023","01","27","10:00","-25.9","","-30.2","","68","","","","35","","22","","24.1","","98.08","","","","-38","","Blowing Snow"
"-101.68","54.68","FLIN FLON A","5050961","2023-01-27 11:00","2023","01","27","11:00","-25.9","","-31.0","","63","","","","34","","20","","24.1","","98.15","","","","-38","","Blowing Snow"
"-101.68","54.68","FLIN FLON A","5050961","2023-01-27 12:00","2023","01","27","12:00","-24.9","","-30.5","","61","","","","32","","15","","24.1","","98.17","","","","-35","","Blowing Snow"
"-101.68","54.68","FLIN FLON A","5050961","2023-01-27 13:00","2023","01","27","13:00","-24.4","","-30.2","","59","","","","33","","18","","24.1","","98.18","","","","-35","","Blowing Snow"
"-101.68","54.68","FLIN FLON A","5050961","2023-01-27 14:00","2023","01","27","14:00","-23.7","","-29.5","","60","","","","31","","14","","24.1","","98.19","","","","-33","","NA"
"-101.68","54.68","FLIN FLON A","5050961","2023-01-27 15:00","2023","01","27","15:00","-23.0","","-28.9","","59","","","","33","","9","","24.1","","98.21","","","","-30","","Mainly Clear"
"-101.68","54.68","FLIN FLON A","5050961","2023-01-27 16:00","2023","01","27","16:00","-23.1","","-29.1","","58","","","","31","","16","","24.1","","98.24","","","","-33","","NA"
"-101.68","54.68","FLIN FLON A","5050961","2023-01-27 17:00","2023","01","27","17:00","-24.1","","-30.1","","59","","","","29","","14","","24.1","","98.31","","","","-34","","NA"
"-101.68","54.68","FLIN FLON A","5050961","2023-01-27 18:00","2023","01","27","18:00","-25.0","","-30.8","","59","","","","30","","11","","24.1","","98.34","","","","-34","","Clear"
"-101.68","54.68","FLIN FLON A","5050961","2023-01-27 19:00","2023","01","27","19:00"
"-101.68","54.68","FLIN FLON A","5050961","2023-01-27 20:00","2023","01","27","20:00"
"-101.68","54.68","FLIN FLON A","5050961","2023-01-27 21:00","2023","01","27","21:00"
"-101.68","54.68","FLIN FLON A","5050961","2023-01-27 22:00","2023","01","27","22:00"
"-101.68","54.68","FLIN FLON A","5050961","2023-01-27 23:00","2023","01","27","23:00"
"-101.68","54.68","FLIN FLON A","5050961","2023-01-28 00:00","2023","01","28","00:00"
"-101.68","54.68","FLIN FLON A","5050961","2023-01-28 01:00","2023","01","28","01:00"
"-101.68","54.68","FLIN FLON A","5050961","2023-01-28 02:00","2023","01","28","02:00"
"-101.68","54.68","FLIN FLON A","5050961","2023-01-28 03:00","2023","01","28","03:00"
"-101.68","54.68","FLIN FLON A","5050961","2023-01-28 04:00","2023","01","28","04:00"
"-101.68","54.68","FLIN FLON A","5050961","2023-01-28 05:00","2023","01","28","05:00"
"-101.68","54.68","FLIN FLON A","5050961","2023-01-28 06:00","2023","01","28","06:00","-26.8","","-31.2","","67","","","","31","","7","","24.1","","98.60","","","","-34","","Clear"
"-101.68","54.68","FLIN FLON A","5050961","2023-01-28 07:00","2023","01","28","07:00","-27.7","","-31.7","","69","","","","25","","7","","24.1","","98.61","","","","-35","","NA"
"-101.68","54.68","FLIN FLON A","5050961","2023-01-28 08:00","2023","01","28","08:00","-28.2","","-32.0","","70","","","","27","","8","","24.1","","98.61","","","","-36","","NA"
"-101.68","54.68","FLIN FLON A","5050961","2023-01-28 09:00","2023","01","28","09:00","-28.6","","-32.5","","70","","","","24","","7","","24.1","","98.61","","","","-36","","Mainly Clear"
"-101.68","54.68","FLIN FLON A","5050961","2023-01-28 10:00","2023","01","28","10:00","-27.1","","-31.3","","68","","","","27","","11","","24.1","","98.63","","","","-36","","NA"
"-101.68","54.68","FLIN FLON A","5050961","2023-01-28 11:00","2023","01","28","11:00","-26.3","","-30.7","","67","","","","27","","10","","24.1","","98.63","","","","-35","","NA"
"-101.68","54.68","FLIN FLON A","5050961","2023-01-28 12:00","2023","01","28","12:00","-23.8","","-29.3","","61","","","","29","","11","","24.1","","98.64","","","","-32","","Mainly Clear"
"-101.68","54.68","FLIN FLON A","5050961","2023-01-28 13:00","2023","01","28","13:00","-22.8","","-28.9","","58","","","","30","","19","","16.1","","98.59","","","","-34","","Snow,Blowing Snow"
"-101.68","54.68","FLIN FLON A","5050961","2023-01-28 14:00","2023","01","28","14:00","-22.9","","-28.5","","61","","","","30","","18","","9.7","","98.54","","","","-34","","Snow,Blowing Snow"
"-101.68","54.68","FLIN FLON A","5050961","2023-01-28 15:00","2023","01","28","15:00","-22.7","","-28.8","","58","","","","29","","19","","16.1","","98.55","","","","-34","","Snow,Blowing Snow"
"-101.68","54.68","FLIN FLON A","5050961","2023-01-28 16:00","2023","01","28","16:00","-22.6","","-28.1","","62","","","","30","","14","","16.1","","98.56","","","","-32","","Snow,Blowing Snow"
"-101.68","54.68","FLIN FLON A","5050961","2023-01-28 17:00","2023","01","28","17:00","-22.7","","-28.4","","61","","","","30","","16","","24.1","","98.57","","","","-33","","Blowing Snow"
"-101.68","54.68","FLIN FLON A","5050961","2023-01-28 18:00","2023","01","28","18:00","-23.5","","-28.5","","64","","","","30","","6","","24.1","","98.56","","","","-29","","Mainly Clear"
"-101.68","54.68","FLIN FLON A","5050961","2023-01-28 19:00","2023","01","28","19:00"
"-101.68","54.68","FLIN FLON A","5050961","2023-01-28 20:00","2023","01","28","20:00"
"-101.68","54.68","FLIN FLON A","5050961","2023-01-28 21:00","2023","01","28","21:00"
"-101.68","54.68","FLIN FLON A","5050961","2023-01-28 22:00","2023","01","28","22:00"
"-101.68","54.68","FLIN FLON A","5050961","2023-01-28 23:00","2023","01","28","23:00"
"-101.68","54.68","FLIN FLON A","5050961","2023-01-29 00:00","2023","01","29","00:00"
"-101.68","54.68","FLIN FLON A","5050961","2023-01-29 01:00","2023","01","29","01:00"
"-101.68","54.68","FLIN FLON A","5050961","2023-01-29 02:00","2023","01","29","02:00"
"-101.68","54.68","FLIN FLON A","5050961","2023-01-29 03:00","2023","01","29","03:00"
"-101.68","54.68","FLIN FLON A","5050961","2023-01-29 04:00","2023","01","29","04:00"
"-101.68","54.68","FLIN FLON A","5050961","2023-01-29 05:00","2023","01","29","05:00"
"-101.68","54.68","FLIN FLON A","5050961","2023-01-29 06:00","2023","01","29","06:00","-29.4","","-34.1","","64","","","","27","","10","","24.1","","98.89","","","","-38","","Clear"
"-101.68","54.68","FLIN FLON A","5050961","2023-01-29 07:00","2023","01","29","07:00","-29.9","","-34.5","","65","","","","28","","11","","24.1","","98.88","","","","-40","","NA"
"-101.68","54.68","FLIN FLON A","5050961","2023-01-29 08:00","2023","01","29","08:00","-30.1","","-34.7","","65","","","","28","","10","","24.1","","98.86","","","","-39","","NA"
"-101.68","54.68","FLIN FLON A","5050961","2023-01-29 09:00","2023","01","29","09:00","-30.1","","-34.7","","65","","","","29","","13","","24.1","","98.84","","","","-41","","Blowing Snow"
"-101.68","54.68","FLIN FLON A","5050961","2023-01-29 10:00","2023","01","29","10:00","-29.5","","-34.3","","64","","","","27","","16","","24.1","","98.82","","","","-41","","NA"
"-101.68","54.68","FLIN FLON A","5050961","2023-01-29 11:00","2023","01","29","11:00","-28.2","","-33.5","","62","","","","30","","16","","24.1","","98.80","","","","-40","","Blowing Snow"
"-101.68","54.68","FLIN FLON A","5050961","2023-01-29 12:00","2023","01","29","12:00","-27.5","","-33.1","","59","","","","30","","21","","24.1","","98.78","","","","-40","","Blowing Snow"
"-101.68","54.68","FLIN FLON A","5050961","2023-01-29 13:00","2023","01","29","13:00","-26.6","","-32.5","","58","","","","26","","19","","24.1","","98.70","","","","-39","","Blowing Snow"
"-101.68","54.68","FLIN FLON A","5050961","2023-01-29 14:00","2023","01","29","14:00","-25.9","","-32.2","","57","","","","31","","16","","24.1","","98.62","","","","-37","","Blowing Snow"
"-101.68","54.68","FLIN FLON A","5050961","2023-01-29 15:00","2023","01","29","15:00","-25.5","","-31.7","","57","","","","25","","18","","24.1","","98.53","","","","-37","","Blowing Snow"
"-101.68","54.68","FLIN FLON A","5050961","2023-01-29 16:00","2023","01","29","16:00","-25.2","","-31.2","","58","","","","27","","10","","24.1","","98.50","","","","-33","","Blowing Snow"
"-101.68","54.68","FLIN FLON A","5050961","2023-01-29 17:00","2023","01","29","17:00","-25.7","","-31.1","","61","","","","27","","11","","24.1","","98.49","","","","-34","","Blowing Snow"
"-101.68","54.68","FLIN FLON A","5050961","2023-01-29 18:00","2023","01","29","18:00","-26.2","","-31.1","","64","","","","26","","10","","24.1","","98.46","","","","-35","","Blowing Snow"
"-101.68","54.68","FLIN FLON A","5050961","2023-01-29 19:00","2023","01","29","19:00"
"-101.68","54.68","FLIN FLON A","5050961","2023-01-29 20:00","2023","01","29","20:00"
"-101.68","54.68","FLIN FLON A","5050961","2023-01-29 21:00","2023","01","29","21:00"
"-101.68","54.68","FLIN FLON A","5050961","2023-01-29 22:00","2023","01","29","22:00"
"-101.68","54.68","FLIN FLON A","5050961","2023-01-29 23:00","2023","01","29","23:00"
"-101.68","54.68","FLIN FLON A","5050961","2023-01-30 00:00","2023","01","30","00:00"
"-101.68","54.68","FLIN FLON A","5050961","2023-01-30 01:00","2023","01","30","01:00"
"-101.68","54.68","FLIN FLON A","5050961","2023-01-30 02:00","2023","01","30","02:00"
"-101.68","54.68","FLIN FLON A","5050961","2023-01-30 03:00","2023","01","30","03:00"
"-101.68","54.68","FLIN FLON A","5050961","2023-01-30 04:00","2023","01","30","04:00"
"-101.68","54.68","FLIN FLON A","5050961","2023-01-30 05:00","2023","01","30","05:00"
"-101.68","54.68","FLIN FLON A","5050961","2023-01-30 06:00","2023","01","30","06:00","-30.2","","-33.9","","71","","","","21","","11","","24.1","","97.90","","","","-40","","Clear"
"-101.68","54.68","FLIN FLON A","5050961","2023-01-30 07:00","2023","01","30","07:00","-30.0","","-33.9","","70","","","","22","","11","","24.1","","97.85","","","","-40","","Ice Crystals"
"-101.68","54.68","FLIN FLON A","5050961","2023-01-30 08:00","2023","01","30","08:00","-30.3","","-34.1","","70","","","","20","","9","","24.1","","97.82","","","","-39","","NA"
"-101.68","54.68","FLIN FLON A","5050961","2023-01-30 09:00","2023","01","30","09:00","-28.5","","-32.3","","71","","","","24","","9","","24.1","","97.82","","","","-37","","Clear"
"-101.68","54.68","FLIN FLON A","5050961","2023-01-30 10:00","2023","01","30","10:00","-26.1","","-29.8","","71","","","","29","","15","","24.1","","97.82","","","","-37","","Blowing Snow"
"-101.68","54.68","FLIN FLON A","5050961","2023-01-30 11:00","2023","01","30","11:00","-24.9","","-28.8","","71","","","","31","","16","","24.1","","97.84","","","","-35","","Blowing Snow"
"-101.68","54.68","FLIN FLON A","5050961","2023-01-30 12:00","2023","01","30","12:00","-23.6","","-27.7","","70","","","","29","","16","","24.1","","97.82","","","","-34","","Blowing Snow"
"-101.68","54.68","FLIN FLON A","5050961","2023-01-30 13:00","2023","01","30","13:00","-22.1","","-27.4","","63","","","","30","","14","","24.1","","97.80","","","","-31","","NA"
"-101.68","54.68","FLIN FLON A","5050961","2023-01-30 14:00","2023","01","30","14:00","-20.9","","-26.9","","60","","","","29","","8","","24.1","","97.75","","","","-27","","NA"
"-101.68","54.68","FLIN FLON A","5050961","2023-01-30 15:00","2023","01","30","15:00","-20.3","","-26.4","","59","","","","31","","12","","24.1","","97.75","","","","-28","","Clear"
"-101.68","54.68","FLIN FLON A","5050961","2023-01-30 16:00","2023","01","30","16:00","-20.4","","-26.5","","59","","","","29","","17","","24.1","","97.74","","","","-30","","NA"
"-101.68","54.68","FLIN FLON A","5050961","2023-01-30 17:00","2023","01","30","17:00","-21.0","","-26.8","","60","","","","29","","16","","24.1","","97.74","","","","-31","","NA"
"-101.68","54.68","FLIN FLON A","5050961","2023-01-30 18:00","2023","01","30","18:00","-22.2","","-27.2","","65","","","","26","","12","","24.1","","97.74","","","","-31","","Clear"
"-101.68","54.68","FLIN FLON A","5050961","2023-01-30 19:00","2023","01","30","19:00"
"-101.68","54.68","FLIN FLON A","5050961","2023-01-30 20:00","2023","01","30","20:00"
"-101.68","54.68","FLIN FLON A","5050961","2023-01-30 21:00","2023","01","30","21:00"
"-101.68","54.68","FLIN FLON A","5050961","2023-01-30 22:00","2023","01","30","22:00"
"-101.68","54.68","FLIN FLON A","5050961","2023-01-30 23:00","2023","01","30","23:00"
"-101.68","54.68","FLIN FLON A","5050961","2023-01-31 00:00","2023","01","31","00:00"
"-101.68","54.68","FLIN FLON A","5050961","2023-01-31 01:00","2023","01","31","01:00"
"-101.68","54.68","FLIN FLON A","5050961","2023-01-31 02:00","2023","01","31","02:00"
"-101.68","54.68","FLIN FLON A","5050961","2023-01-31 03:00","2023","01","31","03:00"
"-101.68","54.68","FLIN FLON A","5050961","2023-01-31 04:00","2023","01","31","04:00"
"-101.68","54.68","FLIN FLON A","5050961","2023-01-31 05:00","2023","01","31","05:00"
"-101.68","54.68","FLIN FLON A","5050961","2023-01-31 06:00","2023","01","31","06:00","-32.6","","-36.4","","70","","","","20","","4","","24.1","","97.85","","","","-37","","Mainly Clear"
"-101.68","54.68","FLIN FLON A","5050961","2023-01-31 07:00","2023","01","31","07:00","-31.4","","-35.0","","71","","","","36","","2","","24.1","","97.86","","","","-34","","NA"
"-101.68","54.68","FLIN FLON A","5050961","2023-01-31 08:00","2023","01","31","08:00","-33.3","","-37.1","","69","","","","5","","3","","24.1","","97.89","","","","-37","","NA"
"-101.68","54.68","FLIN FLON A","5050961","2023-01-31 09:00","2023","01","31","09:00","-34.0","","-37.8","","69","","","","5","","5","","24.1","","97.91","","","","-40","","Mainly Clear"
"-101.68","54.68","FLIN FLON A","5050961","2023-01-31 10:00","2023","01","31","10:00","-33.5","","-37.4","","69","","","","5","","7","","24.1","","97.99","","","","-41","","NA"
"-101.68","54.68","FLIN FLON A","5050961","2023-01-31 11:00","2023","01","31","11:00","-30.4","","-34.2","","70","","","","36","","3","","24.1","","98.03","","","","-34","","NA"
"-101.68","54.68","FLIN FLON A","5050961","2023-01-31 12:00","2023","01","31","12:00","-26.6","","-30.7","","69","","","","36","","2","","24.1","","98.04","","","","-29","","Mainly Clear"
"-101.68","54.68","FLIN FLON A","5050961","2023-01-31 13:00","2023","01","31","13:00","-25.2","","-30.0","","65","","","","30","","6","","24.1","","97.98","","","","-31","","NA"
"-101.68","54.68","FLIN FLON A","5050961","2023-01-31 14:00","2023","01","31","14:00","-24.6","","-30.1","","61","","","","33","","9","","24.1","","97.95","","","","-32","","NA"
"-101.68","54.68","FLIN FLON A","5050961","2023-01-31 15:00","2023","01","31","15:00","-23.7","","-29.4","","60","","","","32","","9","","24.1","","97.92","","","","-31","","Mainly Clear"
"-101.68","54.68","FLIN FLON A","5050961","2023-01-31 16:00","2023","01","31","16:00","-23.4","","-29.2","","59","","","","31","","8","","24.1","","97.93","","","","-30","","NA"
"-101.68","54.68","FLIN FLON A","5050961","2023-01-31 17:00","2023","01","31","17:00","-23.7","","-29.3","","61","","","","31","","4","","24.1","","97.95","","","","-28","","NA"
"-101.68","54.68","FLIN FLON A","5050961","2023-01-31 18:00","2023","01","31","18:00","-27.5","","-31.4","","70","","","","33","","7","","24.1","","97.95","","","","-34","","Clear"
"-101.68","54.68","FLIN FLON A","5050961","2023-01-31 19:00","2023","01","31","19:00"
"-101.68","54.68","FLIN FLON A","5050961","2023-01-31 20:00","2023","01","31","20:00"
"-101.68","54.68","FLIN FLON A","5050961","2023-01-31 21:00","2023","01","31","21:00"
"-101.68","54.68","FLIN FLON A","5050961","2023-01-31 22:00","2023","01","31","22:00"
"-101.68","54.68","FLIN FLON A","5050961","2023-01-31 23:00","2023","01","31","23:00"
