"Longitude (x)","Latitude (y)","Station Name","Climate ID","Date/Time (LST)","Year","Month","Day","Time (LST)","Temp (°C)","Temp Flag","Dew Point Temp (°C)","Dew Point Temp Flag","Rel Hum (%)","Rel Hum Flag","Precip. Amount (mm)","Precip. Amount Flag","Wind Dir (10s deg)","Wind Dir Flag","Wind Spd (km/h)","Wind Spd Flag","Visibility (km)","Visibility Flag","Stn Press (kPa)","Stn Press Flag","Hmdx","Hmdx Flag","Wind Chill","Wind Chill Flag","Weather"
"-66.09","43.83","YARMOUTH A","8206495","2022-02-01 00:00","2022","02","01","00:00","-8.4","","-10.1","","88","","","","4","","10","","14.5","","102.77","","","","-13","","Snow"
"-66.09","43.83","YARMOUTH A","8206495","2022-02-01 01:00","2022","02","01","01:00","-7.5","","-9.0","","89","","","","7","","8","","16.1","","102.80","","","","-12","","Snow"
"-66.09","43.83","YARMOUTH A","8206495","2022-02-01 02:00","2022","02","01","02:00","-8.8","","-10.3","","89","","","","8","","9","","24.1","","102.83","","","","-13","","Mainly Clear"
"-66.09","43.83","YARMOUTH A","8206495","2022-02-01 03:00","2022","02","01","03:00","-10.0","","-10.7","","94","","","","10","","4","","24.1","","102.90","","","","-12","","NA"
"-66.09","43.83","YARMOUTH A","8206495","2022-02-01 04:00","2022","02","01","04:00","-9.8","","-10.9","","92","","","","8","","7","","24.1","","102.93","","","","-14","","NA"
"-66.09","43.83","YARMOUTH A","8206495","2022-02-01 05:00","2022","02","01","05:00","-10.8","","-11.9","","92","","","","5","","12","","24.1","","102.98","","","","-17","","Clear"
"-66.09","43.83","YARMOUTH A","8206495","2022-02-01 06:00","2022","02","01","06:00","-10.5","","-11.4","","93","","","","6","","14","","24.1","","103.01","","","","-17","","NA"
"-66.09","43.83","YARMOUTH A","8206495","2022-02-01 07:00","2022","02","01","07:00","-11.8","","-13.0","","91","","","","5","","13","","24.1","","103.09","","","","-18","","NA"
"-66.09","43.83","YARMOUTH A","8206495","2022-02-01 08:00","2022","02","01","08:00","-11.9","","-13.5","","88","","","","6","","10","","24.1","","103.19","","","","-18","","Mainly Clear"
"-66.09","43.83","YARMOUTH A","8206495","2022-02-01 09:00","2022","02","01","09:00","-9.9","","-12.5","","81","","","","7","","14","","24.1","","103.24","","","","-16","","NA"
"-66.09","43.83","YARMOUTH A","8206495","2022-02-01 10:00","2022","02","01","10:00","-7.7","","-12.1","","71","","","","7","","13","","24.1","","103.26","","","","-13","","NA"
"-66.09","43.83","YARMOUTH A","8206495","2022-02-01 11:00","2022","02","01","11:00","-6.2","","-12.2","","62","","","","6","","19","","24.1","","103.29","","","","-13","","Clear"
"-66.09","43.83","YARMOUTH A","8206495","2022-02-01 12:00","2022","02","01","12:00","-5.3","","-11.8","","61","","","","4","","12","","24.1","","103.26","","","","-10","","NA"
"-66.09","43.83","YARMOUTH A","8206495","2022-02-01 13:00","2022","02","01","13:00","-4.5","","-12.0","","56","","","","3","","8","","24.1","","103.23","","","","-8","","NA"
"-66.09","43.83","YARMOUTH A","8206495","2022-02-01 14:00","2022","02","01","14:00","-3.7","","-12.7","","50","","","","6","","10","","24.1","","103.15","","","","-8","","Clear"
"-66.09","43.83","YARMOUTH A","8206495","2022-02-01 15:00","2022","02","01","15:00","-3.3","","-12.8","","48","","","","4","","13","","24.1","","103.13","","","","-8","","NA"
"-66.09","43.83","YARMOUTH A","8206495","2022-02-01 16:00","2022","02","01","16:00","-3.4","","-13.2","","47","","","","4","","8","","24.1","","103.11","","","","-7","","NA"
"-66.09","43.83","YARMOUTH A","8206495","2022-02-01 17:00","2022","02","01","17:00","-3.8","","-13.2","","48","","","","6","","10","","24.1","","103.09","","","","-8","","Clear"
"-66.09","43.83","YARMOUTH A","8206495","2022-02-01 18:00","2022","02","01","18:00","-4.9","","-13.7","","51","","","","8","","6","","24.1","","103.14","","","","-8","","NA"
"-66.09","43.83","YARMOUTH A","8206495","2022-02-01 19:00","2022","02","01","19:00","-6.2","","-14.5","","52","","","","7","","7","","24.1","","103.27","","","","-10","","NA"
"-66.09","43.83","YARMOUTH A","8206495","2022-02-01 20:00","2022","02","01","20:00","-7.8","","-14.8","","57","","","","7","","9","","24.1","","103.39","","","","-12","","Clear"
"-66.09","43.83","YARMOUTH A","8206495","2022-02-01 21:00","2022","02","01","21:00","-8.0","","-15.8","","54","","","","10","","11","","24.1","","103.37","","","","-13","","NA"
"-66.09","43.83","YARMOUTH A","8206495","2022-02-01 22:00","2022","02","01","22:00","-8.7","","-14.1","","65","","","","9","","8","","24.1","","103.38","","","","-13","","NA"
"-66.09","43.83","YARMOUTH A","8206495","2022-02-01 23:00","2022","02","01","23:00","-9.6","","-14.3","","69","","","","9","","13","","24.1","","103.29","","","","-16","","Clear"
"-66.09","43.83","YARMOUTH A","8206495","2022-02-02 00:00","2022","02","02","00:00","-10.2","","-14.9","","69","","","","10","","13","","24.1","","103.20","","","","-16","","NA"
"-66.09","43.83","YARMOUTH A","8206495","2022-02-02 01:00","2022","02","02","01:00","-11.4","","-15.7","","71","","","","8","","9","","24.1","","103.14","","","","-17","","NA"
"-66.09","43.83","YARMOUTH A","8206495","2022-02-02 02:00","2022","02","02","02:00","-12.7","","-16.4","","74","","","","6","","14","","24.1","","103.15","","","","-20","","Clear"
"-66.09","43.83","YARMOUTH A","8206495","2022-02-02 03:00","2022","02","02","03:00","-12.6","","-16.1","","76","","","","6","","15","","24.1","","103.18","","","","-20","","NA"
"-66.09","43.83","YARMOUTH A","8206495","2022-02-02 04:00","2022","02","02","04:00","-12.6","","-15.6","","79","","","","8","","10","","24.1","","103.13","","","","-18","","NA"
"-66.09","43.83","YARMOUTH A","8206495","2022-02-02 05:00","2022","02","02","05:00","-13.0","","-15.3","","83","","","","5","","12","","24.1","","103.10","","","","-20","","Mostly Cloudy"
"-66.09","43.83","YARMOUTH A","8206495","2022-02-02 06:00","2022","02","02","06:00","-11.9","","-14.2","","84","","","","6","","7","","24.1","","103.09","","","","-16","","NA"
"-66.09","43.83","YARMOUTH A","8206495","2022-02-02 07:00","2022","02","02","07:00","-11.3","","-13.6","","83","","","","7","","11","","24.1","","103.11","","","","-17","","NA"
"-66.09","43.83","YARMOUTH A","8206495","2022-02-02 08:00","2022","02","02","08:00","-10.8","","-12.9","","84","","","","7","","11","","24.1","","103.10","","","","-17","","Mostly Cloudy"
"-66.09","43.83","YARMOUTH A","8206495","2022-02-02 09:00","2022","02","02","09:00","-8.1","","-11.1","","79","","","","8","","9","","24.1","","103.13","","","","-13","","NA"
"-66.09","43.83","YARMOUTH A","8206495","2022-02-02 10:00","2022","02","02","10:00","-6.3","","-9.4","","79","","","","10","","10","","24.1","","103.11","","","","-11","","NA"
"-66.09","43.83","YARMOUTH A","8206495","2022-02-02 11:00","2022","02","02","11:00","-3.1","","-6.3","","79","","","","12","","10","","24.1","","103.07","","","","-7","","Cloudy"
"-66.09","43.83","YARMOUTH A","8206495","2022-02-02 12:00","2022","02","02","12:00","-0.3","","-3.7","","78","","","","13","","16","","24.1","","103.03","","","","-5","","NA"
"-66.09","43.83","YARMOUTH A","8206495","2022-02-02 13:00","2022","02","02","13:00","1.6","","-1.6","","80","","","","15","","26","","24.1","","102.91","","","","","","NA"
"-66.09","43.83","YARMOUTH A","8206495","2022-02-02 14:00","2022","02","02","14:00","2.0","","-1.0","","80","","","","16","","21","","24.1","","102.85","","","","","","Cloudy"
"-66.09","43.83","YARMOUTH A","8206495","2022-02-02 15:00","2022","02","02","15:00","2.2","","-0.6","","82","","","","14","","21","","19.3","","102.80","","","","","","NA"
"-66.09","43.83","YARMOUTH A","8206495","2022-02-02 16:00","2022","02","02","16:00","2.6","","-0.1","","82","","","","14","","15","","19.3","","102.79","","","","","","NA"
"-66.09","43.83","YARMOUTH A","8206495","2022-02-02 17:00","2022","02","02","17:00","2.2","","0.1","","85","","","","13","","15","","16.1","","102.79","","","","","","Cloudy"
"-66.09","43.83","YARMOUTH A","8206495","2022-02-02 18:00","2022","02","02","18:00","2.2","","0.3","","87","","","","13","","16","","19.3","","102.75","","","","","","NA"
"-66.09","43.83","YARMOUTH A","8206495","2022-02-02 19:00","2022","02","02","19:00","2.4","","0.9","","90","","","","14","","13","","16.1","","102.69","","","","","","NA"
"-66.09","43.83","YARMOUTH A","8206495","2022-02-02 20:00","2022","02","02","20:00","3.3","","1.9","","90","","","","16","","17","","16.1","","102.66","","","","","","Cloudy"
"-66.09","43.83","YARMOUTH A","8206495","2022-02-02 21:00","2022","02","02","21:00","3.0","","2.2","","95","","","","16","","17","","11.3","","102.64","","","","","","Drizzle"
"-66.09","43.83","YARMOUTH A","8206495","2022-02-02 22:00","2022","02","02","22:00","3.7","","2.9","","94","","","","17","","21","","16.1","","102.60","","","","","","NA"
"-66.09","43.83","YARMOUTH A","8206495","2022-02-02 23:00","2022","02","02","23:00","3.9","","3.2","","95","","","","16","","20","","16.1","","102.48","","","","","","Cloudy"
"-66.09","43.83","YARMOUTH A","8206495","2022-02-03 00:00","2022","02","03","00:00","4.2","","3.6","","96","","","","17","","23","","8.1","","102.43","","","","","","Rain,Fog"
"-66.09","43.83","YARMOUTH A","8206495","2022-02-03 01:00","2022","02","03","01:00","4.4","","4.2","","98","","","","17","","19","","11.3","","102.32","","","","","","Rain"
"-66.09","43.83","YARMOUTH A","8206495","2022-02-03 02:00","2022","02","03","02:00","4.8","","4.1","","95","","","","17","","24","","11.3","","102.24","","","","","","Rain"
"-66.09","43.83","YARMOUTH A","8206495","2022-02-03 03:00","2022","02","03","03:00","4.8","","4.1","","95","","","","17","","26","","16.1","","102.18","","","","","","NA"
"-66.09","43.83","YARMOUTH A","8206495","2022-02-03 04:00","2022","02","03","04:00","4.5","","4.0","","97","","","","18","","27","","8.1","","102.10","","","","","","Drizzle"
"-66.09","43.83","YARMOUTH A","8206495","2022-02-03 05:00","2022","02","03","05:00","5.2","","5.1","","99","","","","18","","34","","0.4","","102.09","","","","","","Fog"
"-66.09","43.83","YARMOUTH A","8206495","2022-02-03 06:00","2022","02","03","06:00","5.1","","5.0","","100","","","","19","","34","","0.8","","102.04","","","","","","Fog"
"-66.09","43.83","YARMOUTH A","8206495","2022-02-03 07:00","2022","02","03","07:00","5.0","","4.9","","100","","","","19","","31","","3.2","","102.03","","","","","","Drizzle,Fog"
"-66.09","43.83","YARMOUTH A","8206495","2022-02-03 08:00","2022","02","03","08:00","5.0","","5.0","","100","","","","19","","27","","1.0","","102.05","","","","","","Drizzle,Fog"
"-66.09","43.83","YARMOUTH A","8206495","2022-02-03 09:00","2022","02","03","09:00","5.2","","5.2","","100","","","","20","","25","","0.4","","102.04","","","","","","Fog"
"-66.09","43.83","YARMOUTH A","8206495","2022-02-03 10:00","2022","02","03","10:00","7.3","","7.3","","100","","","","21","","26","","0.4","","102.05","","","","","","Fog"
"-66.09","43.83","YARMOUTH A","8206495","2022-02-03 11:00","2022","02","03","11:00","6.5","","6.5","","100","","","","22","","21","","0.4","","102.10","","","","","","Fog"
"-66.09","43.83","YARMOUTH A","8206495","2022-02-03 12:00","2022","02","03","12:00","6.0","","6.0","","100","","","","23","","22","","0.4","","102.10","","","","","","Fog"
"-66.09","43.83","YARMOUTH A","8206495","2022-02-03 13:00","2022","02","03","13:00","6.5","","6.5","","100","","","","22","","18","","6.4","","102.00","","","","","","Fog"
"-66.09","43.83","YARMOUTH A","8206495","2022-02-03 14:00","2022","02","03","14:00","6.4","","6.2","","98","","","","21","","18","","6.4","","101.96","","","","","","Fog"
"-66.09","43.83","YARMOUTH A","8206495","2022-02-03 15:00","2022","02","03","15:00","6.4","","6.1","","98","","","","22","","21","","4.8","","101.96","","","","","","Fog"
"-66.09","43.83","YARMOUTH A","8206495","2022-02-03 16:00","2022","02","03","16:00","5.8","","5.5","","98","","","","23","","17","","3.2","","101.97","","","","","","Fog"
"-66.09","43.83","YARMOUTH A","8206495","2022-02-03 17:00","2022","02","03","17:00","5.7","","5.6","","99","","","","22","","17","","0.2","","101.99","","","","","","Rain Showers,Fog"
"-66.09","43.83","YARMOUTH A","8206495","2022-02-03 18:00","2022","02","03","18:00","5.8","","5.7","","100","","","","22","","18","","1.2","","101.95","","","","","","Rain Showers,Fog"
"-66.09","43.83","YARMOUTH A","8206495","2022-02-03 19:00","2022","02","03","19:00","5.9","","5.9","","100","","","","22","","15","","1.6","","102.00","","","","","","Rain Showers,Fog"
"-66.09","43.83","YARMOUTH A","8206495","2022-02-03 20:00","2022","02","03","20:00","6.1","","6.1","","100","","","","24","","16","","3.2","","102.00","","","","","","Rain Showers,Fog"
"-66.09","43.83","YARMOUTH A","8206495","2022-02-03 21:00","2022","02","03","21:00","5.6","","5.6","","100","","","","25","","9","","1.2","","101.96","","","","","","Rain Showers,Fog"
"-66.09","43.83","YARMOUTH A","8206495","2022-02-03 22:00","2022","02","03","22:00","6.2","","6.2","","100","","","","23","","7","","1.6","","101.85","","","","","","Rain,Fog"
"-66.09","43.83","YARMOUTH A","8206495","2022-02-03 23:00","2022","02","03","23:00","4.9","","4.9","","100","","","","17","","5","","1.0","","101.77","","","","","","Rain,Fog"
"-66.09","43.83","YARMOUTH A","8206495","2022-02-04 00:00","2022","02","04","00:00","4.4","","4.4","","100","","","","15","","8","","1.0","","101.69","","","","","","Rain,Fog"
"-66.09","43.83","YARMOUTH A","8206495","2022-02-04 01:00","2022","02","04","01:00","4.3","","4.3","","100","","","","11","","9","","0.8","","101.55","","","","","","Rain,Fog"
"-66.09","43.83","YARMOUTH A","8206495","2022-02-04 02:00","2022","02","04","02:00","4.5","","4.5","","100","","","","15","","11","","0.8","","101.43","","","","","","Rain,Fog"
"-66.09","43.83","YARMOUTH A","8206495","2022-02-04 03:00","2022","02","04","03:00","5.5","","5.5","","100","","","","15","","10","","1.2","","101.30","","","","","","Rain,Fog"
"-66.09","43.83","YARMOUTH A","8206495","2022-02-04 04:00","2022","02","04","04:00","6.8","","6.8","","100","","","","19","","26","","1.6","","101.23","","","","","","Moderate Rain,Fog"
"-66.09","43.83","YARMOUTH A","8206495","2022-02-04 05:00","2022","02","04","05:00","6.9","","6.9","","100","","","","23","","11","","2.4","","101.17","","","","","","Moderate Rain,Fog"
"-66.09","43.83","YARMOUTH A","8206495","2022-02-04 06:00","2022","02","04","06:00","7.8","","7.8","","100","","","","21","","14","","1.6","","101.14","","","","","","Rain,Fog"
"-66.09","43.83","YARMOUTH A","8206495","2022-02-04 07:00","2022","02","04","07:00","7.4","","7.4","","100","","","","20","","13","","2.4","","101.08","","","","","","Rain,Fog"
"-66.09","43.83","YARMOUTH A","8206495","2022-02-04 08:00","2022","02","04","08:00","8.0","","8.0","","100","","","","20","","19","","3.2","","101.04","","","","","","Moderate Rain,Fog"
"-66.09","43.83","YARMOUTH A","8206495","2022-02-04 09:00","2022","02","04","09:00","8.1","","8.1","","100","","","","20","","20","","3.2","","100.95","","","","","","Rain,Fog"
"-66.09","43.83","YARMOUTH A","8206495","2022-02-04 10:00","2022","02","04","10:00","8.5","","8.5","","100","","","","22","","22","","1.6","","100.89","","","","","","Moderate Rain,Fog"
"-66.09","43.83","YARMOUTH A","8206495","2022-02-04 11:00","2022","02","04","11:00","8.5","","8.5","","100","","","","21","","22","","3.2","","100.84","","","","","","Rain,Fog"
"-66.09","43.83","YARMOUTH A","8206495","2022-02-04 12:00","2022","02","04","12:00","8.5","","8.5","","100","","","","21","","24","","2.4","","100.71","","","","","","Rain,Fog"
"-66.09","43.83","YARMOUTH A","8206495","2022-02-04 13:00","2022","02","04","13:00","8.1","","8.1","","100","","","","21","","23","","3.2","","100.49","","","","","","Moderate Rain,Fog"
"-66.09","43.83","YARMOUTH A","8206495","2022-02-04 14:00","2022","02","04","14:00","6.1","","6.1","","100","","","","31","","12","","3.2","","100.39","","","","","","Moderate Rain,Fog"
"-66.09","43.83","YARMOUTH A","8206495","2022-02-04 15:00","2022","02","04","15:00","5.9","","5.9","","100","","","","2","","6","","4.8","","100.35","","","","","","Moderate Rain,Fog"
"-66.09","43.83","YARMOUTH A","8206495","2022-02-04 16:00","2022","02","04","16:00","6.5","","6.5","","100","","","","10","","7","","4.8","","100.30","","","","","","Rain,Fog"
"-66.09","43.83","YARMOUTH A","8206495","2022-02-04 17:00","2022","02","04","17:00","4.5","","4.5","","100","","","","35","","13","","3.2","","100.36","","","","","","Rain,Fog"
"-66.09","43.83","YARMOUTH A","8206495","2022-02-04 18:00","2022","02","04","18:00","2.8","","2.8","","100","","","","5","","18","","3.2","","100.30","","","","","","Rain,Fog"
"-66.09","43.83","YARMOUTH A","8206495","2022-02-04 19:00","2022","02","04","19:00","2.1","","2.1","","100","","","","4","","17","","3.2","","100.35","","","","","","Rain,Fog"
"-66.09","43.83","YARMOUTH A","8206495","2022-02-04 20:00","2022","02","04","20:00","1.4","","1.4","","100","","","","2","","23","","3.2","","100.42","","","","","","Fog"
"-66.09","43.83","YARMOUTH A","8206495","2022-02-04 21:00","2022","02","04","21:00","1.1","","1.0","","100","","","","5","","14","","4.0","","100.35","","","","","","Rain,Fog"
"-66.09","43.83","YARMOUTH A","8206495","2022-02-04 22:00","2022","02","04","22:00","0.8","","0.7","","99","","","","4","","20","","4.8","","100.33","","","","","","Rain Showers,Fog"
"-66.09","43.83","YARMOUTH A","8206495","2022-02-04 23:00","2022","02","04","23:00","0.5","","0.3","","99","","","","3","","16","","11.3","","100.32","","","","","","Rain Showers"
"-66.09","43.83","YARMOUTH A","8206495","2022-02-05 00:00","2022","02","05","00:00","0.0","","-0.3","","98","","","","3","","13","","14.5","","100.27","","","","-4","","NA"
"-66.09","43.83","YARMOUTH A","8206495","2022-02-05 01:00","2022","02","05","01:00","-0.4","","-0.5","","99","","","","6","","13","","2.0","","100.13","","","","-5","","Fog"
"-66.09","43.83","YARMOUTH A","8206495","2022-02-05 02:00","2022","02","05","02:00","-1.2","","-1.4","","98","","","","1","","21","","4.8","","100.31","","","","-7","","Fog"
"-66.09","43.83","YARMOUTH A","8206495","2022-02-05 03:00","2022","02","05","03:00","-1.7","","-2.0","","98","","","","36","","19","","4.0","","100.28","","","","-7","","Fog"
"-66.09","43.83","YARMOUTH A","8206495","2022-02-05 04:00","2022","02","05","04:00","-2.3","","-2.6","","97","","","","3","","16","","3.2","","100.15","","","","-7","","Freezing Rain,Fog"
"-66.09","43.83","YARMOUTH A","8206495","2022-02-05 05:00","2022","02","05","05:00","-2.7","","-3.2","","97","","","","3","","12","","11.3","","100.22","","","","-7","","Freezing Rain"
"-66.09","43.83","YARMOUTH A","8206495","2022-02-05 06:00","2022","02","05","06:00","-3.0","","-3.7","","95","","","","1","","14","","14.5","","100.20","","","","-8","","NA"
"-66.09","43.83","YARMOUTH A","8206495","2022-02-05 07:00","2022","02","05","07:00","-3.3","","-4.2","","93","","","","2","","16","","14.5","","100.20","","","","-9","","NA"
"-66.09","43.83","YARMOUTH A","8206495","2022-02-05 08:00","2022","02","05","08:00","-3.3","","-4.1","","94","","","","36","","14","","11.3","","100.27","","","","-8","","Ice Pellet Showers"
"-66.09","43.83","YARMOUTH A","8206495","2022-02-05 09:00","2022","02","05","09:00","-3.2","","-4.3","","92","","","","36","","19","","19.3","","100.32","","","","-9","","Snow Showers"
"-66.09","43.83","YARMOUTH A","8206495","2022-02-05 10:00","2022","02","05","10:00","-3.5","","-4.5","","92","","","","35","","25","","24.1","","100.37","","","","-10","","Snow Showers"
"-66.09","43.83","YARMOUTH A","8206495","2022-02-05 11:00","2022","02","05","11:00","-4.0","","-5.0","","93","","","","36","","27","","24.1","","100.40","","","","-11","","Cloudy"
"-66.09","43.83","YARMOUTH A","8206495","2022-02-05 12:00","2022","02","05","12:00","-4.2","","-5.3","","92","","","","36","","27","","19.3","","100.42","","","","-12","","NA"
"-66.09","43.83","YARMOUTH A","8206495","2022-02-05 13:00","2022","02","05","13:00","-4.3","","-6.0","","88","","","","35","","31","","14.5","","100.43","","","","-12","","Snow Showers,Blowing Snow"
"-66.09","43.83","YARMOUTH A","8206495","2022-02-05 14:00","2022","02","05","14:00","-4.6","","-6.6","","86","","","","35","","26","","14.5","","100.47","","","","-12","","Snow Showers,Blowing Snow"
"-66.09","43.83","YARMOUTH A","8206495","2022-02-05 15:00","2022","02","05","15:00","-5.1","","-8.0","","80","","","","35","","37","","19.3","","100.59","","","","-14","","NA"
"-66.09","43.83","YARMOUTH A","8206495","2022-02-05 16:00","2022","02","05","16:00","-5.1","","-7.8","","81","","","","35","","29","","9.7","","100.75","","","","-13","","Snow Showers"
"-66.09","43.83","YARMOUTH A","8206495","2022-02-05 17:00","2022","02","05","17:00","-5.3","","-8.7","","77","","","","36","","33","","9.7","","100.94","","","","-14","","Snow Showers"
"-66.09","43.83","YARMOUTH A","8206495","2022-02-05 18:00","2022","02","05","18:00","-5.3","","-9.2","","74","","","","34","","35","","9.7","","101.15","","","","-14","","Snow Showers"
"-66.09","43.83","YARMOUTH A","8206495","2022-02-05 19:00","2022","02","05","19:00","-5.8","","-10.3","","71","","","","34","","34","","14.5","","101.38","","","","-15","","NA"
"-66.09","43.83","YARMOUTH A","8206495","2022-02-05 20:00","2022","02","05","20:00","-6.4","","-11.3","","69","","","","34","","37","","14.5","","101.58","","","","-16","","Snow Showers"
"-66.09","43.83","YARMOUTH A","8206495","2022-02-05 21:00","2022","02","05","21:00","-6.8","","-12.8","","63","","","","35","","40","","14.5","","101.73","","","","-16","","Snow Showers"
"-66.09","43.83","YARMOUTH A","8206495","2022-02-05 22:00","2022","02","05","22:00","-7.4","","-11.3","","74","","","","1","","23","","4.8","","101.85","","","","-15","","Snow Showers"
"-66.09","43.83","YARMOUTH A","8206495","2022-02-05 23:00","2022","02","05","23:00","-8.6","","-11.3","","81","","","","36","","42","","2.0","","102.00","","","","-19","","Snow Showers"
"-66.09","43.83","YARMOUTH A","8206495","2022-02-06 00:00","2022","02","06","00:00","-8.9","","-14.8","","63","","","","36","","35","","14.5","","102.11","","","","-19","","Snow Showers"
"-66.09","43.83","YARMOUTH A","8206495","2022-02-06 01:00","2022","02","06","01:00","-8.9","","-14.6","","63","","","","1","","31","","14.5","","102.23","","","","-18","","NA"
"-66.09","43.83","YARMOUTH A","8206495","2022-02-06 02:00","2022","02","06","02:00","-9.7","","-11.8","","84","","","","1","","23","","14.5","","102.30","","","","-18","","Cloudy"
"-66.09","43.83","YARMOUTH A","8206495","2022-02-06 03:00","2022","02","06","03:00","-9.2","","-11.8","","81","","","","36","","23","","2.0","","102.42","","","","-17","","Snow Showers"
"-66.09","43.83","YARMOUTH A","8206495","2022-02-06 04:00","2022","02","06","04:00","-10.0","","-12.2","","85","","","","36","","21","","0.8","","102.52","","","","-18","","Moderate Snow"
"-66.09","43.83","YARMOUTH A","8206495","2022-02-06 05:00","2022","02","06","05:00","-10.9","","-14.2","","77","","","","1","","21","","14.5","","102.66","","","","-19","","Snow Showers"
"-66.09","43.83","YARMOUTH A","8206495","2022-02-06 06:00","2022","02","06","06:00","-12.6","","-15.8","","77","","","","3","","14","","14.5","","102.80","","","","-20","","NA"
"-66.09","43.83","YARMOUTH A","8206495","2022-02-06 07:00","2022","02","06","07:00","-13.1","","-16.1","","78","","","","2","","11","","16.1","","102.93","","","","-19","","NA"
"-66.09","43.83","YARMOUTH A","8206495","2022-02-06 08:00","2022","02","06","08:00","-13.3","","-16.1","","80","","","","3","","12","","24.1","","103.05","","","","-20","","Mainly Clear"
"-66.09","43.83","YARMOUTH A","8206495","2022-02-06 09:00","2022","02","06","09:00","-10.8","","-15.1","","71","","","","3","","21","","24.1","","103.09","","","","-19","","NA"
"-66.09","43.83","YARMOUTH A","8206495","2022-02-06 10:00","2022","02","06","10:00","-9.9","","-14.6","","69","","","","3","","21","","24.1","","103.15","","","","-18","","NA"
"-66.09","43.83","YARMOUTH A","8206495","2022-02-06 11:00","2022","02","06","11:00","-9.0","","-14.3","","66","","","","3","","16","","24.1","","103.19","","","","-16","","Mainly Clear"
"-66.09","43.83","YARMOUTH A","8206495","2022-02-06 12:00","2022","02","06","12:00","-8.2","","-15.3","","57","","","","1","","13","","24.1","","103.22","","","","-14","","NA"
"-66.09","43.83","YARMOUTH A","8206495","2022-02-06 13:00","2022","02","06","13:00","-7.2","","-16.0","","50","","","","34","","7","","24.1","","103.19","","","","-11","","NA"
"-66.09","43.83","YARMOUTH A","8206495","2022-02-06 14:00","2022","02","06","14:00","-6.7","","-14.5","","54","","","","30","","13","","24.1","","103.18","","","","-12","","Mainly Clear"
"-66.09","43.83","YARMOUTH A","8206495","2022-02-06 15:00","2022","02","06","15:00","-6.6","","-13.5","","58","","","","27","","13","","24.1","","103.22","","","","-12","","NA"
"-66.09","43.83","YARMOUTH A","8206495","2022-02-06 16:00","2022","02","06","16:00","-7.0","","-14.2","","57","","","","33","","14","","24.1","","103.23","","","","-13","","NA"
"-66.09","43.83","YARMOUTH A","8206495","2022-02-06 17:00","2022","02","06","17:00","-7.3","","-14.7","","56","","","","31","","5","","24.1","","103.26","","","","-10","","Mainly Clear"
"-66.09","43.83","YARMOUTH A","8206495","2022-02-06 18:00","2022","02","06","18:00","-8.4","","-14.5","","62","","","","30","","6","","24.1","","103.30","","","","-12","","NA"
"-66.09","43.83","YARMOUTH A","8206495","2022-02-06 19:00","2022","02","06","19:00","-9.2","","-14.1","","68","","","","36","","1","","24.1","","103.31","","","","-10","","NA"
"-66.09","43.83","YARMOUTH A","8206495","2022-02-06 20:00","2022","02","06","20:00","-8.9","","-12.6","","75","","","","13","","5","","24.1","","103.33","","","","-12","","Mostly Cloudy"
"-66.09","43.83","YARMOUTH A","8206495","2022-02-06 21:00","2022","02","06","21:00","-8.6","","-11.7","","79","","","","16","","8","","24.1","","103.30","","","","-13","","NA"
"-66.09","43.83","YARMOUTH A","8206495","2022-02-06 22:00","2022","02","06","22:00","-8.0","","-12.5","","70","","","","14","","8","","24.1","","103.22","","","","-12","","NA"
"-66.09","43.83","YARMOUTH A","8206495","2022-02-06 23:00","2022","02","06","23:00","-7.9","","-11.9","","73","","","","14","","6","","24.1","","103.19","","","","-11","","Clear"
"-66.09","43.83","YARMOUTH A","8206495","2022-02-07 00:00","2022","02","07","00:00","-8.9","","-11.7","","80","","","","14","","4","","24.1","","103.16","","","","-11","","NA"
"-66.09","43.83","YARMOUTH A","8206495","2022-02-07 01:00","2022","02","07","01:00","-7.5","","-11.0","","76","","","","16","","6","","24.1","","103.10","","","","-11","","NA"
"-66.09","43.83","YARMOUTH A","8206495","2022-02-07 02:00","2022","02","07","02:00","-5.6","","-9.9","","72","","","","18","","10","","24.1","","103.03","","","","-10","","Mainly Clear"
"-66.09","43.83","YARMOUTH A","8206495","2022-02-07 03:00","2022","02","07","03:00","-4.4","","-8.6","","72","","","","18","","11","","24.1","","103.03","","","","-9","","NA"
"-66.09","43.83","YARMOUTH A","8206495","2022-02-07 04:00","2022","02","07","04:00","-3.1","","-7.7","","71","","","","19","","16","","24.1","","102.97","","","","-8","","NA"
"-66.09","43.83","YARMOUTH A","8206495","2022-02-07 05:00","2022","02","07","05:00","-2.5","","-6.6","","74","","","","21","","11","","24.1","","103.00","","","","-7","","Mostly Cloudy"
"-66.09","43.83","YARMOUTH A","8206495","2022-02-07 06:00","2022","02","07","06:00","-1.7","","-6.0","","73","","","","22","","12","","24.1","","102.96","","","","-6","","NA"
"-66.09","43.83","YARMOUTH A","8206495","2022-02-07 07:00","2022","02","07","07:00","-6.5","","-8.4","","87","","","","7","","12","","24.1","","102.92","","","","-12","","NA"
"-66.09","43.83","YARMOUTH A","8206495","2022-02-07 08:00","2022","02","07","08:00","-5.7","","-7.6","","87","","","","8","","10","","24.1","","102.87","","","","-10","","Cloudy"
"-66.09","43.83","YARMOUTH A","8206495","2022-02-07 09:00","2022","02","07","09:00","-4.5","","-6.5","","86","","","","9","","10","","24.1","","102.84","","","","-9","","NA"
"-66.09","43.83","YARMOUTH A","8206495","2022-02-07 10:00","2022","02","07","10:00","-2.5","","-4.8","","84","","","","10","","7","","16.1","","102.82","","","","-5","","NA"
"-66.09","43.83","YARMOUTH A","8206495","2022-02-07 11:00","2022","02","07","11:00","-1.0","","-1.9","","93","","","","9","","8","","16.1","","102.75","","","","-4","","Snow Showers"
"-66.09","43.83","YARMOUTH A","8206495","2022-02-07 12:00","2022","02","07","12:00","1.1","","-1.2","","85","","","","16","","16","","24.1","","102.67","","","","","","NA"
"-66.09","43.83","YARMOUTH A","8206495","2022-02-07 13:00","2022","02","07","13:00","1.2","","-1.1","","85","","","","16","","23","","24.1","","102.60","","","","","","NA"
"-66.09","43.83","YARMOUTH A","8206495","2022-02-07 14:00","2022","02","07","14:00","1.6","","-0.8","","84","","","","15","","24","","24.1","","102.50","","","","","","Mostly Cloudy"
"-66.09","43.83","YARMOUTH A","8206495","2022-02-07 15:00","2022","02","07","15:00","2.1","","-0.7","","82","","","","15","","19","","24.1","","102.45","","","","","","NA"
"-66.09","43.83","YARMOUTH A","8206495","2022-02-07 16:00","2022","02","07","16:00","2.4","","-0.2","","83","","","","15","","15","","24.1","","102.42","","","","","","NA"
"-66.09","43.83","YARMOUTH A","8206495","2022-02-07 17:00","2022","02","07","17:00","2.0","","-0.5","","84","","","","15","","17","","24.1","","102.39","","","","","","Mostly Cloudy"
"-66.09","43.83","YARMOUTH A","8206495","2022-02-07 18:00","2022","02","07","18:00","1.3","","-0.4","","88","","","","13","","13","","24.1","","102.36","","","","","","NA"
"-66.09","43.83","YARMOUTH A","8206495","2022-02-07 19:00","2022","02","07","19:00","0.8","","-0.4","","92","","","","11","","13","","24.1","","102.30","","","","","","NA"
"-66.09","43.83","YARMOUTH A","8206495","2022-02-07 20:00","2022","02","07","20:00","0.7","","-0.3","","93","","","","10","","11","","24.1","","102.26","","","","","","Mostly Cloudy"
"-66.09","43.83","YARMOUTH A","8206495","2022-02-07 21:00","2022","02","07","21:00","0.9","","-0.1","","93","","","","9","","12","","24.1","","102.23","","","","","","NA"
"-66.09","43.83","YARMOUTH A","8206495","2022-02-07 22:00","2022","02","07","22:00","0.9","","0.0","","94","","","","11","","10","","24.1","","102.22","","","","","","NA"
"-66.09","43.83","YARMOUTH A","8206495","2022-02-07 23:00","2022","02","07","23:00","1.0","","0.2","","94","","","","11","","10","","16.1","","102.09","","","","","","Rain"
"-66.09","43.83","YARMOUTH A","8206495","2022-02-08 00:00","2022","02","08","00:00","1.3","","0.6","","95","","","","8","","13","","24.1","","101.96","","","","","","NA"
"-66.09","43.83","YARMOUTH A","8206495","2022-02-08 01:00","2022","02","08","01:00","1.4","","0.9","","97","","","","8","","14","","16.1","","101.80","","","","","","Rain"
"-66.09","43.83","YARMOUTH A","8206495","2022-02-08 02:00","2022","02","08","02:00","1.6","","1.3","","98","","","","8","","16","","16.1","","101.66","","","","","","Cloudy"
"-66.09","43.83","YARMOUTH A","8206495","2022-02-08 03:00","2022","02","08","03:00","2.0","","1.8","","98","","","","10","","21","","14.5","","101.52","","","","","","NA"
"-66.09","43.83","YARMOUTH A","8206495","2022-02-08 04:00","2022","02","08","04:00","2.3","","2.2","","99","","","","10","","25","","4.8","","101.27","","","","","","Rain,Fog"
"-66.09","43.83","YARMOUTH A","8206495","2022-02-08 05:00","2022","02","08","05:00","2.7","","2.5","","99","","","","9","","13","","4.8","","101.18","","","","","","Rain,Fog"
"-66.09","43.83","YARMOUTH A","8206495","2022-02-08 06:00","2022","02","08","06:00","3.0","","2.9","","99","","","","7","","20","","4.0","","101.01","","","","","","Rain,Fog"
"-66.09","43.83","YARMOUTH A","8206495","2022-02-08 07:00","2022","02","08","07:00","3.3","","3.3","","100","","","","7","","24","","4.0","","100.85","","","","","","Moderate Rain,Fog"
"-66.09","43.83","YARMOUTH A","8206495","2022-02-08 08:00","2022","02","08","08:00","4.0","","3.9","","100","","","","9","","25","","4.0","","100.72","","","","","","Rain,Fog"
"-66.09","43.83","YARMOUTH A","8206495","2022-02-08 09:00","2022","02","08","09:00","4.6","","4.5","","99","","","","8","","23","","4.8","","100.47","","","","","","Rain,Fog"
"-66.09","43.83","YARMOUTH A","8206495","2022-02-08 10:00","2022","02","08","10:00","4.8","","4.7","","99","","","","7","","22","","4.0","","100.24","","","","","","Moderate Rain,Fog"
"-66.09","43.83","YARMOUTH A","8206495","2022-02-08 11:00","2022","02","08","11:00","6.0","","5.9","","100","","","","7","","23","","6.4","","99.98","","","","","","Moderate Rain,Fog"
"-66.09","43.83","YARMOUTH A","8206495","2022-02-08 12:00","2022","02","08","12:00","6.5","","6.4","","99","","","","7","","23","","4.8","","99.74","","","","","","Moderate Rain,Fog"
"-66.09","43.83","YARMOUTH A","8206495","2022-02-08 13:00","2022","02","08","13:00","7.5","","7.4","","99","","","","7","","28","","6.4","","99.38","","","","","","Rain,Fog"
"-66.09","43.83","YARMOUTH A","8206495","2022-02-08 14:00","2022","02","08","14:00","8.9","","7.9","","94","","","","4","","20","","14.5","","99.30","","","","","","Mostly Cloudy"
"-66.09","43.83","YARMOUTH A","8206495","2022-02-08 15:00","2022","02","08","15:00","7.5","","6.1","","90","","","","31","","18","","24.1","","99.36","","","","","","NA"
"-66.09","43.83","YARMOUTH A","8206495","2022-02-08 16:00","2022","02","08","16:00","6.6","","5.7","","94","","","","32","","16","","24.1","","99.38","","","","","","NA"
"-66.09","43.83","YARMOUTH A","8206495","2022-02-08 17:00","2022","02","08","17:00","3.8","","3.4","","97","","","","30","","20","","19.3","","99.50","","","","","","Mostly Cloudy"
"-66.09","43.83","YARMOUTH A","8206495","2022-02-08 18:00","2022","02","08","18:00","3.7","","3.3","","97","","","","33","","20","","11.3","","99.51","","","","","","NA"
"-66.09","43.83","YARMOUTH A","8206495","2022-02-08 19:00","2022","02","08","19:00","3.2","","3.0","","99","","","","31","","13","","1.6","","99.57","","","","","","Rain,Fog"
"-66.09","43.83","YARMOUTH A","8206495","2022-02-08 20:00","2022","02","08","20:00","3.1","","3.1","","99","","","","28","","13","","0.8","","99.67","","","","","","Rain,Fog"
"-66.09","43.83","YARMOUTH A","8206495","2022-02-08 21:00","2022","02","08","21:00","3.4","","3.4","","100","","","","30","","21","","1.2","","99.69","","","","","","Drizzle,Fog"
"-66.09","43.83","YARMOUTH A","8206495","2022-02-08 22:00","2022","02","08","22:00","3.1","","3.1","","100","","","","29","","23","","1.2","","99.78","","","","","","Rain,Fog"
"-66.09","43.83","YARMOUTH A","8206495","2022-02-08 23:00","2022","02","08","23:00","2.8","","2.8","","100","","","","27","","18","","3.2","","99.80","","","","","","Drizzle,Fog"
"-66.09","43.83","YARMOUTH A","8206495","2022-02-09 00:00","2022","02","09","00:00","2.5","","2.3","","99","","","","27","","29","","14.5","","99.77","","","","","","NA"
"-66.09","43.83","YARMOUTH A","8206495","2022-02-09 01:00","2022","02","09","01:00","2.4","","1.3","","93","","","","27","","26","","16.1","","99.80","","","","","","NA"
"-66.09","43.83","YARMOUTH A","8206495","2022-02-09 02:00","2022","02","09","02:00","2.3","","0.9","","91","","","","28","","31","","24.1","","99.82","","","","","","Cloudy"
"-66.09","43.83","YARMOUTH A","8206495","2022-02-09 03:00","2022","02","09","03:00","2.4","","0.8","","89","","","","29","","28","","24.1","","99.87","","","","","","NA"
"-66.09","43.83","YARMOUTH A","8206495","2022-02-09 04:00","2022","02","09","04:00","2.4","","0.8","","89","","","","29","","32","","24.1","","99.92","","","","","","NA"
"-66.09","43.83","YARMOUTH A","8206495","2022-02-09 05:00","2022","02","09","05:00","2.3","","0.0","","85","","","","30","","32","","24.1","","100.02","","","","","","Cloudy"
"-66.09","43.83","YARMOUTH A","8206495","2022-02-09 06:00","2022","02","09","06:00","1.5","","-1.0","","83","","","","30","","38","","24.1","","100.13","","","","","","NA"
"-66.09","43.83","YARMOUTH A","8206495","2022-02-09 07:00","2022","02","09","07:00","1.2","","-1.6","","81","","","","30","","34","","24.1","","100.25","","","","","","NA"
"-66.09","43.83","YARMOUTH A","8206495","2022-02-09 08:00","2022","02","09","08:00","1.2","","-1.7","","81","","","","31","","31","","24.1","","100.42","","","","","","Mostly Cloudy"
"-66.09","43.83","YARMOUTH A","8206495","2022-02-09 09:00","2022","02","09","09:00","1.2","","-2.1","","78","","","","30","","36","","24.1","","100.61","","","","","","NA"
"-66.09","43.83","YARMOUTH A","8206495","2022-02-09 10:00","2022","02","09","10:00","1.4","","-2.1","","78","","","","31","","36","","24.1","","100.73","","","","","","NA"
"-66.09","43.83","YARMOUTH A","8206495","2022-02-09 11:00","2022","02","09","11:00","1.8","","-1.8","","77","","","","32","","31","","24.1","","100.78","","","","","","Mostly Cloudy"
"-66.09","43.83","YARMOUTH A","8206495","2022-02-09 12:00","2022","02","09","12:00","1.6","","-2.2","","76","","","","31","","32","","24.1","","100.86","","","","","","NA"
"-66.09","43.83","YARMOUTH A","8206495","2022-02-09 13:00","2022","02","09","13:00","1.7","","-2.0","","77","","","","32","","24","","24.1","","100.87","","","","","","NA"
"-66.09","43.83","YARMOUTH A","8206495","2022-02-09 14:00","2022","02","09","14:00","1.6","","-1.9","","78","","","","31","","22","","24.1","","100.92","","","","","","Cloudy"
"-66.09","43.83","YARMOUTH A","8206495","2022-02-09 15:00","2022","02","09","15:00","1.8","","-1.7","","78","","","","32","","17","","24.1","","100.92","","","","","","NA"
"-66.09","43.83","YARMOUTH A","8206495","2022-02-09 16:00","2022","02","09","16:00","1.7","","-2.1","","76","","","","28","","22","","24.1","","101.02","","","","","","NA"
"-66.09","43.83","YARMOUTH A","8206495","2022-02-09 17:00","2022","02","09","17:00","1.6","","-2.0","","77","","","","30","","17","","24.1","","101.08","","","","","","Cloudy"
"-66.09","43.83","YARMOUTH A","8206495","2022-02-09 18:00","2022","02","09","18:00","1.1","","-2.0","","80","","","","28","","10","","24.1","","101.08","","","","","","NA"
"-66.09","43.83","YARMOUTH A","8206495","2022-02-09 19:00","2022","02","09","19:00","-0.5","","-2.4","","87","","","","27","","6","","24.1","","101.15","","","","-3","","NA"
"-66.09","43.83","YARMOUTH A","8206495","2022-02-09 20:00","2022","02","09","20:00","-0.6","","-2.5","","87","","","","27","","7","","24.1","","101.16","","","","-3","","Clear"
"-66.09","43.83","YARMOUTH A","8206495","2022-02-09 21:00","2022","02","09","21:00","-0.9","","-2.3","","90","","","","23","","5","","24.1","","101.14","","","","-3","","NA"
"-66.09","43.83","YARMOUTH A","8206495","2022-02-09 22:00","2022","02","09","22:00","-1.8","","-2.6","","94","","","","15","","9","","24.1","","101.16","","","","-5","","NA"
"-66.09","43.83","YARMOUTH A","8206495","2022-02-09 23:00","2022","02","09","23:00","-3.1","","-3.8","","94","","","","36","","3","","24.1","","101.13","","","","-4","","Clear"
"-66.09","43.83","YARMOUTH A","8206495","2022-02-10 00:00","2022","02","10","00:00","-2.7","","-3.2","","96","","","","21","","9","","24.1","","101.13","","","","-6","","NA"
"-66.09","43.83","YARMOUTH A","8206495","2022-02-10 01:00","2022","02","10","01:00","1.6","","-0.7","","85","","","","21","","12","","24.1","","101.10","","","","","","NA"
"-66.09","43.83","YARMOUTH A","8206495","2022-02-10 02:00","2022","02","10","02:00","1.6","","-0.6","","85","","","","20","","9","","24.1","","101.05","","","","","","Cloudy"
"-66.09","43.83","YARMOUTH A","8206495","2022-02-10 03:00","2022","02","10","03:00","1.9","","-0.8","","83","","","","21","","8","","24.1","","101.04","","","","","","NA"
"-66.09","43.83","YARMOUTH A","8206495","2022-02-10 04:00","2022","02","10","04:00","1.6","","-0.8","","84","","","","21","","7","","24.1","","100.97","","","","","","NA"
"-66.09","43.83","YARMOUTH A","8206495","2022-02-10 05:00","2022","02","10","05:00","0.8","","-1.2","","87","","","","15","","9","","24.1","","100.91","","","","","","Clear"
"-66.09","43.83","YARMOUTH A","8206495","2022-02-10 06:00","2022","02","10","06:00","-0.5","","-1.8","","91","","","","17","","8","","24.1","","100.89","","","","-3","","NA"
"-66.09","43.83","YARMOUTH A","8206495","2022-02-10 07:00","2022","02","10","07:00","-0.1","","-1.2","","92","","","","18","","7","","24.1","","100.90","","","","-3","","NA"
"-66.09","43.83","YARMOUTH A","8206495","2022-02-10 08:00","2022","02","10","08:00","1.4","","0.1","","91","","","","18","","10","","24.1","","100.90","","","","","","Cloudy"
"-66.09","43.83","YARMOUTH A","8206495","2022-02-10 09:00","2022","02","10","09:00","2.1","","0.4","","88","","","","18","","16","","24.1","","100.85","","","","","","NA"
"-66.09","43.83","YARMOUTH A","8206495","2022-02-10 10:00","2022","02","10","10:00","3.1","","1.0","","86","","","","18","","16","","24.1","","100.81","","","","","","NA"
"-66.09","43.83","YARMOUTH A","8206495","2022-02-10 11:00","2022","02","10","11:00","4.3","","0.9","","79","","","","18","","26","","24.1","","100.77","","","","","","Mainly Clear"
"-66.09","43.83","YARMOUTH A","8206495","2022-02-10 12:00","2022","02","10","12:00","4.6","","1.2","","79","","","","19","","24","","24.1","","100.74","","","","","","NA"
"-66.09","43.83","YARMOUTH A","8206495","2022-02-10 13:00","2022","02","10","13:00","4.4","","1.8","","83","","","","18","","27","","24.1","","100.62","","","","","","NA"
"-66.09","43.83","YARMOUTH A","8206495","2022-02-10 14:00","2022","02","10","14:00","5.1","","2.3","","82","","","","18","","25","","24.1","","100.53","","","","","","Mainly Clear"
"-66.09","43.83","YARMOUTH A","8206495","2022-02-10 15:00","2022","02","10","15:00","4.8","","2.0","","82","","","","19","","23","","24.1","","100.49","","","","","","NA"
"-66.09","43.83","YARMOUTH A","8206495","2022-02-10 16:00","2022","02","10","16:00","4.7","","2.5","","86","","","","19","","23","","24.1","","100.44","","","","","","NA"
"-66.09","43.83","YARMOUTH A","8206495","2022-02-10 17:00","2022","02","10","17:00","4.0","","2.6","","91","","","","18","","20","","24.1","","100.43","","","","","","Mainly Clear"
"-66.09","43.83","YARMOUTH A","8206495","2022-02-10 18:00","2022","02","10","18:00","2.6","","2.0","","96","","","","18","","20","","24.1","","100.42","","","","","","NA"
"-66.09","43.83","YARMOUTH A","8206495","2022-02-10 19:00","2022","02","10","19:00","3.3","","2.7","","96","","","","17","","22","","24.1","","100.41","","","","","","NA"
"-66.09","43.83","YARMOUTH A","8206495","2022-02-10 20:00","2022","02","10","20:00","3.7","","2.7","","93","","","","18","","24","","24.1","","100.38","","","","","","Cloudy"
"-66.09","43.83","YARMOUTH A","8206495","2022-02-10 21:00","2022","02","10","21:00","3.7","","2.0","","89","","","","18","","26","","24.1","","100.33","","","","","","NA"
"-66.09","43.83","YARMOUTH A","8206495","2022-02-10 22:00","2022","02","10","22:00","4.2","","2.7","","90","","","","20","","26","","24.1","","100.35","","","","","","NA"
"-66.09","43.83","YARMOUTH A","8206495","2022-02-10 23:00","2022","02","10","23:00","4.7","","3.5","","92","","","","20","","20","","24.1","","100.32","","","","","","Mainly Clear"
"-66.09","43.83","YARMOUTH A","8206495","2022-02-11 00:00","2022","02","11","00:00","5.1","","3.2","","88","","","","26","","29","","24.1","","100.39","","","","","","NA"
"-66.09","43.83","YARMOUTH A","8206495","2022-02-11 01:00","2022","02","11","01:00","4.1","","1.9","","85","","","","26","","30","","24.1","","100.46","","","","","","NA"
"-66.09","43.83","YARMOUTH A","8206495","2022-02-11 02:00","2022","02","11","02:00","4.0","","1.7","","85","","","","27","","27","","24.1","","100.55","","","","","","Mainly Clear"
"-66.09","43.83","YARMOUTH A","8206495","2022-02-11 03:00","2022","02","11","03:00","3.6","","1.4","","86","","","","26","","21","","24.1","","100.60","","","","","","NA"
"-66.09","43.83","YARMOUTH A","8206495","2022-02-11 04:00","2022","02","11","04:00","3.6","","1.3","","85","","","","27","","22","","24.1","","100.65","","","","","","NA"
"-66.09","43.83","YARMOUTH A","8206495","2022-02-11 05:00","2022","02","11","05:00","3.5","","1.6","","87","","","","26","","19","","24.1","","100.72","","","","","","Clear"
"-66.09","43.83","YARMOUTH A","8206495","2022-02-11 06:00","2022","02","11","06:00","3.5","","1.4","","86","","","","25","","19","","24.1","","100.83","","","","","","NA"
"-66.09","43.83","YARMOUTH A","8206495","2022-02-11 07:00","2022","02","11","07:00","3.5","","1.4","","86","","","","26","","23","","24.1","","100.95","","","","","","NA"
"-66.09","43.83","YARMOUTH A","8206495","2022-02-11 08:00","2022","02","11","08:00","3.5","","1.6","","87","","","","30","","17","","24.1","","101.06","","","","","","Mainly Clear"
"-66.09","43.83","YARMOUTH A","8206495","2022-02-11 09:00","2022","02","11","09:00","5.0","","2.6","","84","","","","27","","14","","24.1","","101.13","","","","","","NA"
"-66.09","43.83","YARMOUTH A","8206495","2022-02-11 10:00","2022","02","11","10:00","5.7","","2.8","","82","","","","28","","17","","24.1","","101.18","","","","","","NA"
"-66.09","43.83","YARMOUTH A","8206495","2022-02-11 11:00","2022","02","11","11:00","6.3","","2.1","","74","","","","26","","22","","24.1","","101.25","","","","","","Mostly Cloudy"
"-66.09","43.83","YARMOUTH A","8206495","2022-02-11 12:00","2022","02","11","12:00","6.9","","2.3","","72","","","","28","","21","","24.1","","101.28","","","","","","NA"
"-66.09","43.83","YARMOUTH A","8206495","2022-02-11 13:00","2022","02","11","13:00","6.5","","1.5","","70","","","","26","","21","","24.1","","101.28","","","","","","NA"
"-66.09","43.83","YARMOUTH A","8206495","2022-02-11 14:00","2022","02","11","14:00","7.0","","1.8","","70","","","","26","","16","","24.1","","101.26","","","","","","Mainly Clear"
"-66.09","43.83","YARMOUTH A","8206495","2022-02-11 15:00","2022","02","11","15:00","7.3","","2.5","","71","","","","24","","15","","24.1","","101.25","","","","","","NA"
"-66.09","43.83","YARMOUTH A","8206495","2022-02-11 16:00","2022","02","11","16:00","6.7","","2.6","","75","","","","18","","17","","24.1","","101.25","","","","","","NA"
"-66.09","43.83","YARMOUTH A","8206495","2022-02-11 17:00","2022","02","11","17:00","5.3","","2.6","","83","","","","19","","17","","24.1","","101.25","","","","","","Mostly Cloudy"
"-66.09","43.83","YARMOUTH A","8206495","2022-02-11 18:00","2022","02","11","18:00","3.6","","1.9","","89","","","","17","","16","","24.1","","101.27","","","","","","NA"
"-66.09","43.83","YARMOUTH A","8206495","2022-02-11 19:00","2022","02","11","19:00","3.4","","2.2","","92","","","","17","","16","","24.1","","101.25","","","","","","NA"
"-66.09","43.83","YARMOUTH A","8206495","2022-02-11 20:00","2022","02","11","20:00","3.9","","1.3","","83","","","","16","","12","","24.1","","101.24","","","","","","Mostly Cloudy"
"-66.09","43.83","YARMOUTH A","8206495","2022-02-11 21:00","2022","02","11","21:00","3.3","","0.7","","83","","","","15","","13","","24.1","","101.18","","","","","","NA"
"-66.09","43.83","YARMOUTH A","8206495","2022-02-11 22:00","2022","02","11","22:00","3.4","","-0.6","","75","","","","14","","14","","24.1","","101.13","","","","","","NA"
"-66.09","43.83","YARMOUTH A","8206495","2022-02-11 23:00","2022","02","11","23:00","4.8","","-1.0","","66","","","","15","","18","","24.1","","101.07","","","","","","Cloudy"
"-66.09","43.83","YARMOUTH A","8206495","2022-02-12 00:00","2022","02","12","00:00","4.8","","2.6","","86","","","","19","","18","","24.1","","101.03","","","","","","NA"
"-66.09","43.83","YARMOUTH A","8206495","2022-02-12 01:00","2022","02","12","01:00","4.6","","4.0","","96","","","","20","","18","","14.5","","101.04","","","","","","NA"
"-66.09","43.83","YARMOUTH A","8206495","2022-02-12 02:00","2022","02","12","02:00","5.7","","5.4","","98","","","","22","","22","","14.5","","101.04","","","","","","Mainly Clear"
"-66.09","43.83","YARMOUTH A","8206495","2022-02-12 03:00","2022","02","12","03:00","6.6","","4.7","","87","","","","22","","19","","24.1","","101.03","","","","","","NA"
"-66.09","43.83","YARMOUTH A","8206495","2022-02-12 04:00","2022","02","12","04:00","4.3","","3.8","","97","","","","19","","19","","24.1","","100.97","","","","","","NA"
"-66.09","43.83","YARMOUTH A","8206495","2022-02-12 05:00","2022","02","12","05:00","4.7","","4.1","","96","","","","19","","22","","24.1","","100.95","","","","","","Clear"
"-66.09","43.83","YARMOUTH A","8206495","2022-02-12 06:00","2022","02","12","06:00","5.2","","4.0","","92","","","","19","","25","","24.1","","100.92","","","","","","NA"
"-66.09","43.83","YARMOUTH A","8206495","2022-02-12 07:00","2022","02","12","07:00","5.2","","3.8","","91","","","","18","","23","","24.1","","100.89","","","","","","NA"
"-66.09","43.83","YARMOUTH A","8206495","2022-02-12 08:00","2022","02","12","08:00","5.9","","4.0","","88","","","","19","","28","","19.3","","100.88","","","","","","Mainly Clear"
"-66.09","43.83","YARMOUTH A","8206495","2022-02-12 09:00","2022","02","12","09:00","6.9","","4.9","","87","","","","19","","28","","24.1","","100.88","","","","","","NA"
"-66.09","43.83","YARMOUTH A","8206495","2022-02-12 10:00","2022","02","12","10:00","8.3","","5.5","","82","","","","19","","34","","24.1","","100.84","","","","","","NA"
"-66.09","43.83","YARMOUTH A","8206495","2022-02-12 11:00","2022","02","12","11:00","8.9","","5.8","","81","","","","20","","37","","24.1","","100.77","","","","","","Mostly Cloudy"
"-66.09","43.83","YARMOUTH A","8206495","2022-02-12 12:00","2022","02","12","12:00","9.6","","6.7","","82","","","","20","","37","","24.1","","100.66","","","","","","NA"
"-66.09","43.83","YARMOUTH A","8206495","2022-02-12 13:00","2022","02","12","13:00","9.6","","6.1","","79","","","","20","","35","","24.1","","100.57","","","","","","NA"
"-66.09","43.83","YARMOUTH A","8206495","2022-02-12 14:00","2022","02","12","14:00","10.0","","6.0","","76","","","","20","","34","","24.1","","100.47","","","","","","Mostly Cloudy"
"-66.09","43.83","YARMOUTH A","8206495","2022-02-12 15:00","2022","02","12","15:00","10.0","","5.9","","75","","","","21","","36","","24.1","","100.49","","","","","","NA"
"-66.09","43.83","YARMOUTH A","8206495","2022-02-12 16:00","2022","02","12","16:00","9.7","","6.0","","78","","","","22","","30","","24.1","","100.51","","","","","","NA"
"-66.09","43.83","YARMOUTH A","8206495","2022-02-12 17:00","2022","02","12","17:00","8.8","","6.1","","83","","","","22","","28","","24.1","","100.48","","","","","","Mostly Cloudy"
"-66.09","43.83","YARMOUTH A","8206495","2022-02-12 18:00","2022","02","12","18:00","6.7","","5.5","","92","","","","22","","20","","16.1","","100.57","","","","","","NA"
"-66.09","43.83","YARMOUTH A","8206495","2022-02-12 19:00","2022","02","12","19:00","6.3","","5.3","","93","","","","22","","27","","14.5","","100.64","","","","","","NA"
"-66.09","43.83","YARMOUTH A","8206495","2022-02-12 20:00","2022","02","12","20:00","5.8","","4.8","","93","","","","23","","19","","19.3","","100.70","","","","","","Clear"
"-66.09","43.83","YARMOUTH A","8206495","2022-02-12 21:00","2022","02","12","21:00","5.1","","4.3","","94","","","","25","","16","","19.3","","100.73","","","","","","NA"
"-66.09","43.83","YARMOUTH A","8206495","2022-02-12 22:00","2022","02","12","22:00","5.3","","3.9","","91","","","","26","","16","","19.3","","100.79","","","","","","NA"
"-66.09","43.83","YARMOUTH A","8206495","2022-02-12 23:00","2022","02","12","23:00","5.5","","2.7","","82","","","","27","","18","","19.3","","100.86","","","","","","Mainly Clear"
"-66.09","43.83","YARMOUTH A","8206495","2022-02-13 00:00","2022","02","13","00:00","5.1","","1.7","","78","","","","28","","17","","19.3","","100.94","","","","","","NA"
"-66.09","43.83","YARMOUTH A","8206495","2022-02-13 01:00","2022","02","13","01:00","4.4","","1.5","","81","","","","28","","19","","19.3","","101.00","","","","","","NA"
"-66.09","43.83","YARMOUTH A","8206495","2022-02-13 02:00","2022","02","13","02:00","3.5","","-1.6","","70","","","","34","","23","","19.3","","101.05","","","","","","Cloudy"
"-66.09","43.83","YARMOUTH A","8206495","2022-02-13 03:00","2022","02","13","03:00","3.0","","-1.4","","73","","","","34","","21","","19.3","","101.14","","","","","","NA"
"-66.09","43.83","YARMOUTH A","8206495","2022-02-13 04:00","2022","02","13","04:00","2.0","","-3.8","","65","","","","34","","22","","19.3","","101.19","","","","","","NA"
"-66.09","43.83","YARMOUTH A","8206495","2022-02-13 05:00","2022","02","13","05:00","1.2","","-5.9","","59","","","","34","","23","","19.3","","101.30","","","","","","Cloudy"
"-66.09","43.83","YARMOUTH A","8206495","2022-02-13 06:00","2022","02","13","06:00","0.6","","-5.2","","65","","","","34","","15","","19.3","","101.29","","","","","","NA"
"-66.09","43.83","YARMOUTH A","8206495","2022-02-13 07:00","2022","02","13","07:00","0.1","","-5.3","","67","","","","34","","13","","24.1","","101.34","","","","","","NA"
"-66.09","43.83","YARMOUTH A","8206495","2022-02-13 08:00","2022","02","13","08:00","-0.2","","-5.3","","69","","","","35","","15","","24.1","","101.51","","","","-5","","Mostly Cloudy"
"-66.09","43.83","YARMOUTH A","8206495","2022-02-13 09:00","2022","02","13","09:00","-0.2","","-5.4","","68","","","","36","","18","","24.1","","101.53","","","","-5","","NA"
"-66.09","43.83","YARMOUTH A","8206495","2022-02-13 10:00","2022","02","13","10:00","-0.3","","-5.4","","69","","","","34","","16","","24.1","","101.60","","","","-5","","NA"
"-66.09","43.83","YARMOUTH A","8206495","2022-02-13 11:00","2022","02","13","11:00","-1.1","","-5.8","","71","","","","35","","17","","24.1","","101.60","","","","-6","","Cloudy"
"-66.09","43.83","YARMOUTH A","8206495","2022-02-13 12:00","2022","02","13","12:00","-1.6","","-6.2","","71","","","","36","","18","","24.1","","101.59","","","","-7","","NA"
"-66.09","43.83","YARMOUTH A","8206495","2022-02-13 13:00","2022","02","13","13:00","-1.5","","-6.5","","69","","","","2","","19","","24.1","","101.49","","","","-7","","NA"
"-66.09","43.83","YARMOUTH A","8206495","2022-02-13 14:00","2022","02","13","14:00","-1.6","","-6.3","","70","","","","1","","17","","24.1","","101.42","","","","-7","","Cloudy"
"-66.09","43.83","YARMOUTH A","8206495","2022-02-13 15:00","2022","02","13","15:00","-2.0","","-6.6","","71","","","","36","","17","","24.1","","101.43","","","","-7","","NA"
"-66.09","43.83","YARMOUTH A","8206495","2022-02-13 16:00","2022","02","13","16:00","-2.6","","-7.0","","71","","","","2","","17","","16.1","","101.38","","","","-8","","NA"
"-66.09","43.83","YARMOUTH A","8206495","2022-02-13 17:00","2022","02","13","17:00","-3.4","","-5.6","","85","","","","3","","16","","3.2","","101.31","","","","-9","","Snow Showers"
"-66.09","43.83","YARMOUTH A","8206495","2022-02-13 18:00","2022","02","13","18:00","-4.0","","-5.3","","91","","","","3","","16","","2.0","","101.27","","","","-10","","Snow"
"-66.09","43.83","YARMOUTH A","8206495","2022-02-13 19:00","2022","02","13","19:00","-4.4","","-5.5","","92","","","","4","","19","","2.0","","101.21","","","","-11","","Snow"
"-66.09","43.83","YARMOUTH A","8206495","2022-02-13 20:00","2022","02","13","20:00","-4.8","","-5.8","","92","","","","3","","21","","1.6","","101.14","","","","-11","","Snow"
"-66.09","43.83","YARMOUTH A","8206495","2022-02-13 21:00","2022","02","13","21:00","-4.9","","-6.0","","92","","","","3","","18","","3.2","","101.11","","","","-11","","Snow"
"-66.09","43.83","YARMOUTH A","8206495","2022-02-13 22:00","2022","02","13","22:00","-4.9","","-6.0","","92","","","","3","","14","","3.2","","101.00","","","","-10","","Snow"
"-66.09","43.83","YARMOUTH A","8206495","2022-02-13 23:00","2022","02","13","23:00","-4.8","","-5.9","","92","","","","3","","16","","3.2","","100.91","","","","-11","","Snow"
"-66.09","43.83","YARMOUTH A","8206495","2022-02-14 00:00","2022","02","14","00:00","-4.6","","-5.8","","92","","","","3","","21","","3.2","","100.80","","","","-11","","Snow"
"-66.09","43.83","YARMOUTH A","8206495","2022-02-14 01:00","2022","02","14","01:00","-4.8","","-5.9","","92","","","","4","","21","","3.2","","100.71","","","","-11","","Snow"
"-66.09","43.83","YARMOUTH A","8206495","2022-02-14 02:00","2022","02","14","02:00","-5.7","","-7.2","","89","","","","6","","23","","4.8","","100.63","","","","-13","","Snow"
"-66.09","43.83","YARMOUTH A","8206495","2022-02-14 03:00","2022","02","14","03:00","-6.4","","-8.1","","88","","","","5","","25","","9.7","","100.55","","","","-14","","Snow"
"-66.09","43.83","YARMOUTH A","8206495","2022-02-14 04:00","2022","02","14","04:00","-6.5","","-8.2","","88","","","","5","","21","","8.1","","100.40","","","","-14","","Snow"
"-66.09","43.83","YARMOUTH A","8206495","2022-02-14 05:00","2022","02","14","05:00","-6.4","","-8.2","","87","","","","5","","18","","8.1","","100.40","","","","-13","","Snow"
"-66.09","43.83","YARMOUTH A","8206495","2022-02-14 06:00","2022","02","14","06:00","-6.6","","-8.2","","89","","","","5","","18","","3.2","","100.40","","","","-13","","Snow"
"-66.09","43.83","YARMOUTH A","8206495","2022-02-14 07:00","2022","02","14","07:00","-6.8","","-8.1","","90","","","","4","","20","","2.4","","100.31","","","","-14","","Snow"
"-66.09","43.83","YARMOUTH A","8206495","2022-02-14 08:00","2022","02","14","08:00","-6.9","","-8.2","","90","","","","5","","19","","1.6","","100.30","","","","-14","","Snow"
"-66.09","43.83","YARMOUTH A","8206495","2022-02-14 09:00","2022","02","14","09:00","-6.9","","-8.5","","89","","","","4","","21","","1.2","","100.27","","","","-14","","Snow"
"-66.09","43.83","YARMOUTH A","8206495","2022-02-14 10:00","2022","02","14","10:00","-7.0","","-8.8","","88","","","","5","","29","","1.2","","100.13","","","","-15","","Snow"
"-66.09","43.83","YARMOUTH A","8206495","2022-02-14 11:00","2022","02","14","11:00","-6.6","","-8.7","","85","","","","3","","25","","2.4","","100.19","","","","-14","","Snow"
"-66.09","43.83","YARMOUTH A","8206495","2022-02-14 12:00","2022","02","14","12:00","-6.4","","-8.6","","85","","","","3","","23","","1.2","","100.15","","","","-14","","Snow"
"-66.09","43.83","YARMOUTH A","8206495","2022-02-14 13:00","2022","02","14","13:00","-6.2","","-8.7","","83","","","","4","","21","","1.6","","100.06","","","","-13","","Snow"
"-66.09","43.83","YARMOUTH A","8206495","2022-02-14 14:00","2022","02","14","14:00","-6.2","","-8.6","","83","","","","2","","22","","1.6","","100.08","","","","-13","","Snow"
"-66.09","43.83","YARMOUTH A","8206495","2022-02-14 15:00","2022","02","14","15:00","-6.5","","-8.8","","84","","","","3","","27","","1.6","","100.06","","","","-15","","Snow"
"-66.09","43.83","YARMOUTH A","8206495","2022-02-14 16:00","2022","02","14","16:00","-5.9","","-8.2","","84","","","","2","","18","","4.8","","100.09","","","","-12","","Snow"
"-66.09","43.83","YARMOUTH A","8206495","2022-02-14 17:00","2022","02","14","17:00","-6.2","","-8.2","","86","","","","36","","28","","2.0","","100.20","","","","-14","","Snow"
"-66.09","43.83","YARMOUTH A","8206495","2022-02-14 18:00","2022","02","14","18:00","-6.9","","-8.8","","86","","","","36","","23","","3.2","","100.39","","","","-14","","Snow"
"-66.09","43.83","YARMOUTH A","8206495","2022-02-14 19:00","2022","02","14","19:00","-7.4","","-9.2","","87","","","","36","","21","","4.8","","100.56","","","","-15","","Snow Showers"
"-66.09","43.83","YARMOUTH A","8206495","2022-02-14 20:00","2022","02","14","20:00","-7.9","","-9.6","","88","","","","36","","24","","2.4","","100.71","","","","-16","","Snow"
"-66.09","43.83","YARMOUTH A","8206495","2022-02-14 21:00","2022","02","14","21:00","-8.3","","-10.4","","85","","","","36","","23","","4.8","","100.87","","","","-16","","Snow"
"-66.09","43.83","YARMOUTH A","8206495","2022-02-14 22:00","2022","02","14","22:00","-8.5","","-9.9","","89","","","","34","","34","","1.2","","101.05","","","","-18","","Snow,Blowing Snow"
"-66.09","43.83","YARMOUTH A","8206495","2022-02-14 23:00","2022","02","14","23:00","-8.7","","-12.3","","76","","","","33","","29","","4.8","","101.17","","","","-18","","Snow,Blowing Snow"
"-66.09","43.83","YARMOUTH A","8206495","2022-02-15 00:00","2022","02","15","00:00","-9.2","","-13.4","","72","","","","33","","31","","6.4","","101.29","","","","-19","","Snow Showers,Blowing Snow"
"-66.09","43.83","YARMOUTH A","8206495","2022-02-15 01:00","2022","02","15","01:00","-9.8","","-13.3","","76","","","","33","","35","","6.4","","101.42","","","","-20","","Snow Showers,Blowing Snow"
"-66.09","43.83","YARMOUTH A","8206495","2022-02-15 02:00","2022","02","15","02:00","-10.1","","-13.9","","74","","","","32","","32","","6.4","","101.48","","","","-20","","Snow Showers,Blowing Snow"
"-66.09","43.83","YARMOUTH A","8206495","2022-02-15 03:00","2022","02","15","03:00","-11.0","","-14.0","","78","","","","33","","32","","4.8","","101.60","","","","-21","","Snow Showers,Blowing Snow"
"-66.09","43.83","YARMOUTH A","8206495","2022-02-15 04:00","2022","02","15","04:00","-11.2","","-14.5","","77","","","","34","","26","","4.8","","101.66","","","","-20","","Snow Showers,Blowing Snow"
"-66.09","43.83","YARMOUTH A","8206495","2022-02-15 05:00","2022","02","15","05:00","-11.4","","-14.2","","80","","","","34","","31","","3.2","","101.76","","","","-21","","Snow Showers,Blowing Snow"
"-66.09","43.83","YARMOUTH A","8206495","2022-02-15 06:00","2022","02","15","06:00","-11.2","","-14.6","","76","","","","34","","27","","4.8","","101.89","","","","-21","","Snow Showers,Blowing Snow"
"-66.09","43.83","YARMOUTH A","8206495","2022-02-15 07:00","2022","02","15","07:00","-11.1","","-14.2","","78","","","","34","","25","","4.8","","101.99","","","","-20","","Snow Showers"
"-66.09","43.83","YARMOUTH A","8206495","2022-02-15 08:00","2022","02","15","08:00","-10.9","","-13.4","","82","","","","34","","19","","3.2","","102.10","","","","-19","","Snow Showers"
"-66.09","43.83","YARMOUTH A","8206495","2022-02-15 09:00","2022","02","15","09:00","-10.7","","-13.4","","81","","","","34","","26","","3.2","","102.22","","","","-20","","Snow Showers"
"-66.09","43.83","YARMOUTH A","8206495","2022-02-15 10:00","2022","02","15","10:00","-10.5","","-14.0","","75","","","","33","","25","","3.2","","102.30","","","","-19","","Snow Showers,Blowing Snow"
"-66.09","43.83","YARMOUTH A","8206495","2022-02-15 11:00","2022","02","15","11:00","-10.1","","-13.9","","74","","","","33","","27","","0.8","","102.33","","","","-19","","Snow Showers,Blowing Snow"
"-66.09","43.83","YARMOUTH A","8206495","2022-02-15 12:00","2022","02","15","12:00","-9.7","","-14.1","","71","","","","31","","29","","3.2","","102.38","","","","-19","","Snow Showers,Blowing Snow"
"-66.09","43.83","YARMOUTH A","8206495","2022-02-15 13:00","2022","02","15","13:00","-9.4","","-14.8","","65","","","","32","","30","","11.3","","102.33","","","","-19","","Blowing Snow"
"-66.09","43.83","YARMOUTH A","8206495","2022-02-15 14:00","2022","02","15","14:00","-9.0","","-15.0","","62","","","","32","","30","","11.3","","102.32","","","","-18","","Snow Showers,Blowing Snow"
"-66.09","43.83","YARMOUTH A","8206495","2022-02-15 15:00","2022","02","15","15:00","-8.7","","-14.9","","61","","","","32","","32","","11.3","","102.34","","","","-18","","Snow Showers,Blowing Snow"
"-66.09","43.83","YARMOUTH A","8206495","2022-02-15 16:00","2022","02","15","16:00","-8.9","","-14.0","","67","","","","32","","36","","14.5","","102.42","","","","-19","","Blowing Snow"
"-66.09","43.83","YARMOUTH A","8206495","2022-02-15 17:00","2022","02","15","17:00","-8.2","","-15.3","","57","","","","32","","38","","12.9","","102.50","","","","-18","","Blowing Snow"
"-66.09","43.83","YARMOUTH A","8206495","2022-02-15 18:00","2022","02","15","18:00","-7.6","","-16.2","","51","","","","31","","35","","16.1","","102.61","","","","-17","","Blowing Snow"
"-66.09","43.83","YARMOUTH A","8206495","2022-02-15 19:00","2022","02","15","19:00","-7.2","","-14.1","","58","","","","30","","32","","16.1","","102.72","","","","-16","","NA"
"-66.09","43.83","YARMOUTH A","8206495","2022-02-15 20:00","2022","02","15","20:00","-6.6","","-14.5","","54","","","","32","","35","","24.1","","102.83","","","","-16","","Mostly Cloudy"
"-66.09","43.83","YARMOUTH A","8206495","2022-02-15 21:00","2022","02","15","21:00","-6.5","","-14.4","","54","","","","32","","36","","24.1","","102.90","","","","-16","","NA"
"-66.09","43.83","YARMOUTH A","8206495","2022-02-15 22:00","2022","02","15","22:00","-6.3","","-14.9","","51","","","","32","","30","","24.1","","103.01","","","","-15","","NA"
"-66.09","43.83","YARMOUTH A","8206495","2022-02-15 23:00","2022","02","15","23:00","-6.5","","-15.4","","50","","","","32","","32","","24.1","","103.12","","","","-15","","Mostly Cloudy"
"-66.09","43.83","YARMOUTH A","8206495","2022-02-16 00:00","2022","02","16","00:00","-7.0","","-15.5","","51","","","","33","","29","","24.1","","103.22","","","","-15","","NA"
"-66.09","43.83","YARMOUTH A","8206495","2022-02-16 01:00","2022","02","16","01:00","-7.7","","-14.9","","56","","","","33","","27","","24.1","","103.33","","","","-16","","NA"
"-66.09","43.83","YARMOUTH A","8206495","2022-02-16 02:00","2022","02","16","02:00","-8.6","","-15.2","","59","","","","33","","25","","24.1","","103.42","","","","-17","","Mostly Cloudy"
"-66.09","43.83","YARMOUTH A","8206495","2022-02-16 03:00","2022","02","16","03:00","-9.3","","-15.6","","61","","","","34","","16","","24.1","","103.49","","","","-16","","NA"
"-66.09","43.83","YARMOUTH A","8206495","2022-02-16 04:00","2022","02","16","04:00","-9.8","","-15.5","","63","","","","34","","13","","24.1","","103.54","","","","-16","","NA"
"-66.09","43.83","YARMOUTH A","8206495","2022-02-16 05:00","2022","02","16","05:00","-11.4","","-15.9","","70","","","","1","","7","","24.1","","103.63","","","","-16","","Mainly Clear"
"-66.09","43.83","YARMOUTH A","8206495","2022-02-16 06:00","2022","02","16","06:00","-11.3","","-16.3","","67","","","","2","","7","","24.1","","103.68","","","","-16","","NA"
"-66.09","43.83","YARMOUTH A","8206495","2022-02-16 07:00","2022","02","16","07:00","-13.4","","-17.1","","74","","","","6","","5","","24.1","","103.77","","","","-17","","NA"
"-66.09","43.83","YARMOUTH A","8206495","2022-02-16 08:00","2022","02","16","08:00","-12.7","","-16.4","","74","","","","36","","3","","24.1","","103.84","","","","-15","","Mainly Clear"
"-66.09","43.83","YARMOUTH A","8206495","2022-02-16 09:00","2022","02","16","09:00","-9.0","","-15.1","","62","","","","11","","9","","24.1","","103.90","","","","-14","","NA"
"-66.09","43.83","YARMOUTH A","8206495","2022-02-16 10:00","2022","02","16","10:00","-7.4","","-13.7","","61","","","","11","","7","","24.1","","103.89","","","","-11","","NA"
"-66.09","43.83","YARMOUTH A","8206495","2022-02-16 11:00","2022","02","16","11:00","-6.0","","-12.5","","60","","","","17","","9","","24.1","","103.84","","","","-10","","Clear"
"-66.09","43.83","YARMOUTH A","8206495","2022-02-16 12:00","2022","02","16","12:00","-4.9","","-10.7","","64","","","","17","","15","","24.1","","103.83","","","","-10","","NA"
"-66.09","43.83","YARMOUTH A","8206495","2022-02-16 13:00","2022","02","16","13:00","-3.9","","-10.3","","61","","","","18","","21","","24.1","","103.69","","","","-10","","NA"
"-66.09","43.83","YARMOUTH A","8206495","2022-02-16 14:00","2022","02","16","14:00","-2.8","","-9.1","","62","","","","19","","26","","24.1","","103.56","","","","-10","","Clear"
"-66.09","43.83","YARMOUTH A","8206495","2022-02-16 15:00","2022","02","16","15:00","-2.4","","-7.4","","69","","","","19","","26","","24.1","","103.45","","","","-9","","NA"
"-66.09","43.83","YARMOUTH A","8206495","2022-02-16 16:00","2022","02","16","16:00","-1.4","","-5.5","","73","","","","20","","23","","24.1","","103.34","","","","-7","","NA"
"-66.09","43.83","YARMOUTH A","8206495","2022-02-16 17:00","2022","02","16","17:00","-0.1","","-4.0","","75","","","","20","","29","","24.1","","103.21","","","","-6","","Cloudy"
"-66.09","43.83","YARMOUTH A","8206495","2022-02-16 18:00","2022","02","16","18:00","0.7","","-4.0","","70","","","","21","","29","","24.1","","103.13","","","","","","NA"
"-66.09","43.83","YARMOUTH A","8206495","2022-02-16 19:00","2022","02","16","19:00","1.1","","-3.7","","71","","","","21","","38","","24.1","","103.04","","","","","","NA"
"-66.09","43.83","YARMOUTH A","8206495","2022-02-16 20:00","2022","02","16","20:00","1.5","","-2.8","","73","","","","21","","34","","24.1","","102.99","","","","","","Cloudy"
"-66.09","43.83","YARMOUTH A","8206495","2022-02-16 21:00","2022","02","16","21:00","2.4","","-1.0","","78","","","","21","","30","","24.1","","102.94","","","","","","NA"
"-66.09","43.83","YARMOUTH A","8206495","2022-02-16 22:00","2022","02","16","22:00","2.5","","0.1","","84","","","","20","","31","","24.1","","102.81","","","","","","NA"
"-66.09","43.83","YARMOUTH A","8206495","2022-02-16 23:00","2022","02","16","23:00","2.7","","1.1","","90","","","","20","","27","","24.1","","102.70","","","","","","Cloudy"
"-66.09","43.83","YARMOUTH A","8206495","2022-02-17 00:00","2022","02","17","00:00","3.1","","1.7","","91","","","","20","","29","","24.1","","102.58","","","","","","NA"
"-66.09","43.83","YARMOUTH A","8206495","2022-02-17 01:00","2022","02","17","01:00","3.5","","2.1","","91","","","","21","","27","","24.1","","102.54","","","","","","NA"
"-66.09","43.83","YARMOUTH A","8206495","2022-02-17 02:00","2022","02","17","02:00","4.0","","2.8","","92","","","","21","","35","","19.3","","102.40","","","","","","Cloudy"
"-66.09","43.83","YARMOUTH A","8206495","2022-02-17 03:00","2022","02","17","03:00","4.7","","3.6","","93","","","","21","","35","","19.3","","102.32","","","","","","NA"
"-66.09","43.83","YARMOUTH A","8206495","2022-02-17 04:00","2022","02","17","04:00","5.2","","4.3","","94","","","","20","","38","","19.3","","102.22","","","","","","NA"
"-66.09","43.83","YARMOUTH A","8206495","2022-02-17 05:00","2022","02","17","05:00","5.8","","4.8","","93","","","","21","","32","","19.3","","102.17","","","","","","Cloudy"
"-66.09","43.83","YARMOUTH A","8206495","2022-02-17 06:00","2022","02","17","06:00","6.3","","5.1","","92","","","","21","","36","","19.3","","102.15","","","","","","NA"
"-66.09","43.83","YARMOUTH A","8206495","2022-02-17 07:00","2022","02","17","07:00","6.2","","5.1","","93","","","","20","","41","","19.3","","102.05","","","","","","NA"
"-66.09","43.83","YARMOUTH A","8206495","2022-02-17 08:00","2022","02","17","08:00","6.2","","5.0","","92","","","","20","","33","","11.3","","102.00","","","","","","Mostly Cloudy"
"-66.09","43.83","YARMOUTH A","8206495","2022-02-17 09:00","2022","02","17","09:00","7.5","","5.7","","88","","","","21","","43","","12.9","","101.98","","","","","","NA"
"-66.09","43.83","YARMOUTH A","8206495","2022-02-17 10:00","2022","02","17","10:00","8.4","","6.0","","85","","","","21","","45","","12.9","","101.94","","","","","","NA"
"-66.09","43.83","YARMOUTH A","8206495","2022-02-17 11:00","2022","02","17","11:00","7.9","","5.9","","87","","","","20","","41","","12.9","","101.86","","","","","","Mainly Clear"
"-66.09","43.83","YARMOUTH A","8206495","2022-02-17 12:00","2022","02","17","12:00","8.9","","6.4","","84","","","","20","","43","","12.9","","101.79","","","","","","NA"
"-66.09","43.83","YARMOUTH A","8206495","2022-02-17 13:00","2022","02","17","13:00","8.5","","6.3","","86","","","","20","","43","","12.9","","101.73","","","","","","NA"
"-66.09","43.83","YARMOUTH A","8206495","2022-02-17 14:00","2022","02","17","14:00","8.2","","6.3","","88","","","","20","","35","","12.9","","101.61","","","","","","Cloudy"
"-66.09","43.83","YARMOUTH A","8206495","2022-02-17 15:00","2022","02","17","15:00","8.3","","6.8","","90","","","","20","","37","","11.3","","101.52","","","","","","NA"
"-66.09","43.83","YARMOUTH A","8206495","2022-02-17 16:00","2022","02","17","16:00","8.4","","7.2","","92","","","","20","","39","","9.7","","101.39","","","","","","Fog"
"-66.09","43.83","YARMOUTH A","8206495","2022-02-17 17:00","2022","02","17","17:00","8.3","","7.3","","93","","","","20","","37","","9.7","","101.31","","","","","","Fog"
"-66.09","43.83","YARMOUTH A","8206495","2022-02-17 18:00","2022","02","17","18:00","7.6","","6.9","","96","","","","20","","36","","9.7","","101.25","","","","","","Fog"
"-66.09","43.83","YARMOUTH A","8206495","2022-02-17 19:00","2022","02","17","19:00","7.2","","6.7","","96","","","","19","","32","","14.5","","101.16","","","","","","NA"
"-66.09","43.83","YARMOUTH A","8206495","2022-02-17 20:00","2022","02","17","20:00","7.3","","6.8","","96","","","","20","","35","","11.3","","101.11","","","","","","Cloudy"
"-66.09","43.83","YARMOUTH A","8206495","2022-02-17 21:00","2022","02","17","21:00","7.9","","7.3","","96","","","","20","","38","","11.3","","101.04","","","","","","NA"
"-66.09","43.83","YARMOUTH A","8206495","2022-02-17 22:00","2022","02","17","22:00","7.4","","7.0","","98","","","","20","","38","","11.3","","100.92","","","","","","NA"
"-66.09","43.83","YARMOUTH A","8206495","2022-02-17 23:00","2022","02","17","23:00","8.1","","7.8","","98","","","","20","","37","","11.3","","100.81","","","","","","Cloudy"
"-66.09","43.83","YARMOUTH A","8206495","2022-02-18 00:00","2022","02","18","00:00","8.1","","7.9","","99","","","","20","","39","","3.2","","100.63","","","","","","Fog"
"-66.09","43.83","YARMOUTH A","8206495","2022-02-18 01:00","2022","02","18","01:00","8.4","","8.3","","99","","","","20","","37","","3.2","","100.50","","","","","","Rain,Fog"
"-66.09","43.83","YARMOUTH A","8206495","2022-02-18 02:00","2022","02","18","02:00","8.5","","8.4","","99","","","","20","","41","","3.2","","100.30","","","","","","Rain,Fog"
"-66.09","43.83","YARMOUTH A","8206495","2022-02-18 03:00","2022","02","18","03:00","8.7","","8.7","","100","","","","19","","43","","0.8","","100.06","","","","","","Fog"
"-66.09","43.83","YARMOUTH A","8206495","2022-02-18 04:00","2022","02","18","04:00","9.4","","9.3","","100","","","","20","","48","","3.2","","99.79","","","","","","Rain,Fog"
"-66.09","43.83","YARMOUTH A","8206495","2022-02-18 05:00","2022","02","18","05:00","9.3","","9.2","","100","","","","20","","46","","2.4","","99.60","","","","","","Heavy Rain,Fog"
"-66.09","43.83","YARMOUTH A","8206495","2022-02-18 06:00","2022","02","18","06:00","10.0","","9.8","","99","","","","20","","53","","4.8","","99.45","","","","","","Fog"
"-66.09","43.83","YARMOUTH A","8206495","2022-02-18 07:00","2022","02","18","07:00","9.4","","9.2","","99","","","","20","","49","","2.4","","99.21","","","","","","Rain,Fog"
"-66.09","43.83","YARMOUTH A","8206495","2022-02-18 08:00","2022","02","18","08:00","9.5","","9.3","","99","","","","20","","56","","1.6","","98.98","","","","","","Heavy Rain,Fog"
"-66.09","43.83","YARMOUTH A","8206495","2022-02-18 09:00","2022","02","18","09:00","10.1","","9.9","","99","","","","20","","52","","4.0","","98.89","","","","","","Rain,Fog"
"-66.09","43.83","YARMOUTH A","8206495","2022-02-18 10:00","2022","02","18","10:00","10.7","","10.5","","99","","","","21","","54","","3.2","","98.70","","","","","","Rain,Fog"
"-66.09","43.83","YARMOUTH A","8206495","2022-02-18 11:00","2022","02","18","11:00","10.6","","10.4","","99","","","","21","","52","","2.0","","98.51","","","","","","Heavy Rain,Fog"
"-66.09","43.83","YARMOUTH A","8206495","2022-02-18 12:00","2022","02","18","12:00","10.9","","10.7","","99","","","","22","","54","","2.8","","98.44","","","","","","Rain,Fog"
"-66.09","43.83","YARMOUTH A","8206495","2022-02-18 13:00","2022","02","18","13:00","10.3","","10.2","","99","","","","24","","44","","4.0","","98.48","","","","","","Fog"
"-66.09","43.83","YARMOUTH A","8206495","2022-02-18 14:00","2022","02","18","14:00","6.8","","6.6","","98","","","","30","","32","","4.8","","98.57","","","","","","Rain,Fog"
"-66.09","43.83","YARMOUTH A","8206495","2022-02-18 15:00","2022","02","18","15:00","3.5","","1.6","","87","","","","32","","39","","16.1","","98.89","","","","","","NA"
"-66.09","43.83","YARMOUTH A","8206495","2022-02-18 16:00","2022","02","18","16:00","1.2","","-1.5","","82","","","","32","","41","","24.1","","99.18","","","","","","NA"
"-66.09","43.83","YARMOUTH A","8206495","2022-02-18 17:00","2022","02","18","17:00","-0.3","","-3.1","","81","","","","32","","37","","24.1","","99.48","","","","-8","","Cloudy"
"-66.09","43.83","YARMOUTH A","8206495","2022-02-18 18:00","2022","02","18","18:00","-0.7","","-4.3","","77","","","","34","","39","","24.1","","99.70","","","","-8","","NA"
"-66.09","43.83","YARMOUTH A","8206495","2022-02-18 19:00","2022","02","18","19:00","-0.7","","-4.2","","78","","","","33","","34","","24.1","","99.91","","","","-8","","NA"
"-66.09","43.83","YARMOUTH A","8206495","2022-02-18 20:00","2022","02","18","20:00","-0.9","","-5.3","","72","","","","32","","25","","24.1","","100.12","","","","-7","","Mostly Cloudy"
"-66.09","43.83","YARMOUTH A","8206495","2022-02-18 21:00","2022","02","18","21:00","-1.6","","-6.2","","71","","","","35","","33","","24.1","","100.25","","","","-9","","NA"
"-66.09","43.83","YARMOUTH A","8206495","2022-02-18 22:00","2022","02","18","22:00","-2.4","","-7.3","","69","","","","36","","24","","24.1","","100.37","","","","-9","","Snow"
"-66.09","43.83","YARMOUTH A","8206495","2022-02-18 23:00","2022","02","18","23:00","-3.0","","-7.0","","74","","","","36","","33","","19.3","","100.49","","","","-11","","Snow"
"-66.09","43.83","YARMOUTH A","8206495","2022-02-19 00:00","2022","02","19","00:00","-3.9","","-8.5","","70","","","","35","","35","","19.3","","100.62","","","","-12","","Snow"
"-66.09","43.83","YARMOUTH A","8206495","2022-02-19 01:00","2022","02","19","01:00","-4.3","","-9.8","","66","","","","33","","24","","19.3","","100.79","","","","-11","","Snow"
"-66.09","43.83","YARMOUTH A","8206495","2022-02-19 02:00","2022","02","19","02:00","-5.4","","-8.9","","77","","","","2","","16","","19.3","","100.87","","","","-11","","Snow"
"-66.09","43.83","YARMOUTH A","8206495","2022-02-19 03:00","2022","02","19","03:00","-5.4","","-9.9","","71","","","","36","","19","","19.3","","100.95","","","","-12","","Snow"
"-66.09","43.83","YARMOUTH A","8206495","2022-02-19 04:00","2022","02","19","04:00","-6.4","","-7.9","","89","","","","1","","14","","2.4","","101.02","","","","-12","","Snow"
"-66.09","43.83","YARMOUTH A","8206495","2022-02-19 05:00","2022","02","19","05:00","-6.8","","-8.6","","87","","","","2","","17","","2.4","","101.06","","","","-13","","Snow"
"-66.09","43.83","YARMOUTH A","8206495","2022-02-19 06:00","2022","02","19","06:00","-6.8","","-9.1","","84","","","","6","","8","","14.5","","101.13","","","","-11","","Snow"
"-66.09","43.83","YARMOUTH A","8206495","2022-02-19 07:00","2022","02","19","07:00","-7.8","","-9.6","","88","","","","7","","8","","11.3","","101.12","","","","-12","","Snow"
"-66.09","43.83","YARMOUTH A","8206495","2022-02-19 08:00","2022","02","19","08:00","-7.5","","-9.0","","89","","","","10","","7","","14.5","","101.16","","","","-11","","Snow"
"-66.09","43.83","YARMOUTH A","8206495","2022-02-19 09:00","2022","02","19","09:00","-6.6","","-10.5","","74","","","","12","","9","","19.3","","101.18","","","","-11","","NA"
"-66.09","43.83","YARMOUTH A","8206495","2022-02-19 10:00","2022","02","19","10:00","-5.5","","-9.6","","73","","","","15","","12","","19.3","","101.16","","","","-10","","Snow Showers"
"-66.09","43.83","YARMOUTH A","8206495","2022-02-19 11:00","2022","02","19","11:00","-4.1","","-8.4","","72","","","","16","","15","","24.1","","101.09","","","","-9","","Mostly Cloudy"
"-66.09","43.83","YARMOUTH A","8206495","2022-02-19 12:00","2022","02","19","12:00","-3.6","","-7.4","","75","","","","18","","20","","24.1","","101.01","","","","-10","","NA"
"-66.09","43.83","YARMOUTH A","8206495","2022-02-19 13:00","2022","02","19","13:00","-2.3","","-6.4","","73","","","","18","","22","","24.1","","100.88","","","","-8","","NA"
"-66.09","43.83","YARMOUTH A","8206495","2022-02-19 14:00","2022","02","19","14:00","-1.5","","-6.5","","69","","","","18","","27","","24.1","","100.78","","","","-8","","Mostly Cloudy"
"-66.09","43.83","YARMOUTH A","8206495","2022-02-19 15:00","2022","02","19","15:00","-0.8","","-5.6","","70","","","","19","","22","","24.1","","100.67","","","","-7","","NA"
"-66.09","43.83","YARMOUTH A","8206495","2022-02-19 16:00","2022","02","19","16:00","0.1","","-4.2","","73","","","","18","","25","","24.1","","100.52","","","","","","NA"
"-66.09","43.83","YARMOUTH A","8206495","2022-02-19 17:00","2022","02","19","17:00","0.6","","-3.9","","72","","","","18","","23","","24.1","","100.43","","","","","","Cloudy"
"-66.09","43.83","YARMOUTH A","8206495","2022-02-19 18:00","2022","02","19","18:00","0.8","","-2.9","","76","","","","18","","25","","24.1","","100.31","","","","","","NA"
"-66.09","43.83","YARMOUTH A","8206495","2022-02-19 19:00","2022","02","19","19:00","1.5","","-3.5","","69","","","","22","","22","","19.3","","100.28","","","","","","NA"
"-66.09","43.83","YARMOUTH A","8206495","2022-02-19 20:00","2022","02","19","20:00","0.7","","-0.9","","89","","","","20","","18","","3.2","","100.18","","","","","","Snow Showers"
"-66.09","43.83","YARMOUTH A","8206495","2022-02-19 21:00","2022","02","19","21:00","1.8","","-2.4","","74","","","","25","","27","","14.5","","100.08","","","","","","Snow Showers"
"-66.09","43.83","YARMOUTH A","8206495","2022-02-19 22:00","2022","02","19","22:00","-0.8","","-1.2","","97","","","","33","","26","","0.8","","100.09","","","","-7","","Moderate Snow"
"-66.09","43.83","YARMOUTH A","8206495","2022-02-19 23:00","2022","02","19","23:00","-1.2","","-1.9","","95","","","","33","","34","","1.2","","100.17","","","","-8","","Snow"
"-66.09","43.83","YARMOUTH A","8206495","2022-02-20 00:00","2022","02","20","00:00","-1.4","","-2.5","","93","","","","34","","23","","8.1","","100.23","","","","-7","","Snow"
"-66.09","43.83","YARMOUTH A","8206495","2022-02-20 01:00","2022","02","20","01:00","-1.4","","-5.5","","74","","","","33","","35","","14.5","","100.32","","","","-9","","NA"
"-66.09","43.83","YARMOUTH A","8206495","2022-02-20 02:00","2022","02","20","02:00","-2.8","","-7.4","","71","","","","34","","39","","14.5","","100.40","","","","-11","","Mostly Cloudy"
"-66.09","43.83","YARMOUTH A","8206495","2022-02-20 03:00","2022","02","20","03:00","-3.2","","-8.9","","65","","","","32","","46","","19.3","","100.54","","","","-12","","NA"
"-66.09","43.83","YARMOUTH A","8206495","2022-02-20 04:00","2022","02","20","04:00","-4.0","","-9.2","","67","","","","33","","39","","19.3","","100.66","","","","-13","","NA"
"-66.09","43.83","YARMOUTH A","8206495","2022-02-20 05:00","2022","02","20","05:00","-4.7","","-8.8","","73","","","","32","","45","","19.3","","100.87","","","","-14","","Cloudy"
"-66.09","43.83","YARMOUTH A","8206495","2022-02-20 06:00","2022","02","20","06:00","-5.1","","-9.8","","70","","","","33","","40","","19.3","","101.02","","","","-14","","NA"
"-66.09","43.83","YARMOUTH A","8206495","2022-02-20 07:00","2022","02","20","07:00","-5.3","","-9.9","","70","","","","33","","41","","19.3","","101.21","","","","-15","","NA"
"-66.09","43.83","YARMOUTH A","8206495","2022-02-20 08:00","2022","02","20","08:00","-6.0","","-10.5","","70","","","","34","","43","","16.1","","101.47","","","","-16","","Snow"
"-66.09","43.83","YARMOUTH A","8206495","2022-02-20 09:00","2022","02","20","09:00","-6.5","","-10.1","","76","","","","34","","34","","3.2","","101.67","","","","-15","","Snow"
"-66.09","43.83","YARMOUTH A","8206495","2022-02-20 10:00","2022","02","20","10:00","-7.0","","-11.7","","69","","","","33","","32","","8.1","","101.79","","","","-16","","Snow"
"-66.09","43.83","YARMOUTH A","8206495","2022-02-20 11:00","2022","02","20","11:00","-6.9","","-11.9","","68","","","","34","","40","","4.8","","101.90","","","","-17","","Snow"
"-66.09","43.83","YARMOUTH A","8206495","2022-02-20 12:00","2022","02","20","12:00","-6.3","","-11.0","","70","","","","34","","26","","8.1","","101.97","","","","-14","","Snow"
"-66.09","43.83","YARMOUTH A","8206495","2022-02-20 13:00","2022","02","20","13:00","-6.8","","-10.9","","73","","","","32","","32","","8.1","","101.98","","","","-16","","Snow"
"-66.09","43.83","YARMOUTH A","8206495","2022-02-20 14:00","2022","02","20","14:00","-6.9","","-11.7","","69","","","","32","","24","","9.7","","102.06","","","","-15","","Snow"
"-66.09","43.83","YARMOUTH A","8206495","2022-02-20 15:00","2022","02","20","15:00","-6.2","","-11.4","","67","","","","32","","24","","24.1","","102.03","","","","-14","","NA"
"-66.09","43.83","YARMOUTH A","8206495","2022-02-20 16:00","2022","02","20","16:00","-5.8","","-10.5","","69","","","","33","","17","","24.1","","102.05","","","","-12","","NA"
"-66.09","43.83","YARMOUTH A","8206495","2022-02-20 17:00","2022","02","20","17:00","-5.9","","-10.7","","69","","","","28","","12","","24.1","","102.07","","","","-11","","Mostly Cloudy"
"-66.09","43.83","YARMOUTH A","8206495","2022-02-20 18:00","2022","02","20","18:00","-5.9","","-10.9","","68","","","","26","","14","","24.1","","102.11","","","","-11","","NA"
"-66.09","43.83","YARMOUTH A","8206495","2022-02-20 19:00","2022","02","20","19:00","-5.6","","-10.2","","70","","","","22","","11","","24.1","","102.10","","","","-10","","NA"
"-66.09","43.83","YARMOUTH A","8206495","2022-02-20 20:00","2022","02","20","20:00","-4.3","","-9.4","","68","","","","23","","17","","24.1","","102.08","","","","-10","","Clear"
"-66.09","43.83","YARMOUTH A","8206495","2022-02-20 21:00","2022","02","20","21:00","-3.1","","-7.6","","71","","","","22","","23","","24.1","","102.04","","","","-10","","NA"
"-66.09","43.83","YARMOUTH A","8206495","2022-02-20 22:00","2022","02","20","22:00","-1.5","","-5.8","","73","","","","22","","27","","24.1","","101.97","","","","-8","","NA"
"-66.09","43.83","YARMOUTH A","8206495","2022-02-20 23:00","2022","02","20","23:00","0.0","","-4.3","","73","","","","23","","31","","24.1","","101.92","","","","-7","","Cloudy"
"-66.09","43.83","YARMOUTH A","8206495","2022-02-21 00:00","2022","02","21","00:00","0.8","","-3.3","","74","","","","22","","33","","24.1","","101.80","","","","","","NA"
"-66.09","43.83","YARMOUTH A","8206495","2022-02-21 01:00","2022","02","21","01:00","1.8","","-2.0","","76","","","","22","","30","","24.1","","101.76","","","","","","NA"
"-66.09","43.83","YARMOUTH A","8206495","2022-02-21 02:00","2022","02","21","02:00","2.5","","-1.5","","75","","","","23","","37","","24.1","","101.79","","","","","","Mostly Cloudy"
"-66.09","43.83","YARMOUTH A","8206495","2022-02-21 03:00","2022","02","21","03:00","2.9","","-0.8","","77","","","","23","","33","","24.1","","101.77","","","","","","NA"
"-66.09","43.83","YARMOUTH A","8206495","2022-02-21 04:00","2022","02","21","04:00","3.4","","-0.2","","78","","","","24","","36","","24.1","","101.76","","","","","","NA"
"-66.09","43.83","YARMOUTH A","8206495","2022-02-21 05:00","2022","02","21","05:00","3.4","","-0.3","","77","","","","25","","37","","24.1","","101.75","","","","","","Mainly Clear"
"-66.09","43.83","YARMOUTH A","8206495","2022-02-21 06:00","2022","02","21","06:00","3.3","","-0.2","","78","","","","25","","34","","24.1","","101.74","","","","","","NA"
"-66.09","43.83","YARMOUTH A","8206495","2022-02-21 07:00","2022","02","21","07:00","3.3","","-0.1","","78","","","","26","","26","","16.1","","101.79","","","","","","NA"
"-66.09","43.83","YARMOUTH A","8206495","2022-02-21 08:00","2022","02","21","08:00","3.6","","0.1","","78","","","","25","","26","","16.1","","101.84","","","","","","Mainly Clear"
"-66.09","43.83","YARMOUTH A","8206495","2022-02-21 09:00","2022","02","21","09:00","4.5","","0.7","","76","","","","26","","23","","19.3","","101.94","","","","","","NA"
"-66.09","43.83","YARMOUTH A","8206495","2022-02-21 10:00","2022","02","21","10:00","5.5","","1.5","","75","","","","26","","24","","19.3","","101.99","","","","","","NA"
"-66.09","43.83","YARMOUTH A","8206495","2022-02-21 11:00","2022","02","21","11:00","6.1","","2.0","","75","","","","26","","25","","19.3","","102.02","","","","","","Mostly Cloudy"
"-66.09","43.83","YARMOUTH A","8206495","2022-02-21 12:00","2022","02","21","12:00","6.3","","2.3","","76","","","","26","","26","","19.3","","102.10","","","","","","NA"
"-66.09","43.83","YARMOUTH A","8206495","2022-02-21 13:00","2022","02","21","13:00","6.8","","3.1","","77","","","","26","","22","","19.3","","102.09","","","","","","NA"
"-66.09","43.83","YARMOUTH A","8206495","2022-02-21 14:00","2022","02","21","14:00","6.6","","3.0","","78","","","","25","","22","","19.3","","102.09","","","","","","Mostly Cloudy"
"-66.09","43.83","YARMOUTH A","8206495","2022-02-21 15:00","2022","02","21","15:00","6.3","","2.8","","78","","","","25","","23","","19.3","","102.09","","","","","","NA"
"-66.09","43.83","YARMOUTH A","8206495","2022-02-21 16:00","2022","02","21","16:00","6.1","","2.6","","78","","","","25","","23","","19.3","","102.17","","","","","","NA"
"-66.09","43.83","YARMOUTH A","8206495","2022-02-21 17:00","2022","02","21","17:00","5.2","","2.3","","82","","","","25","","18","","19.3","","102.23","","","","","","Cloudy"
"-66.09","43.83","YARMOUTH A","8206495","2022-02-21 18:00","2022","02","21","18:00","3.7","","2.1","","89","","","","24","","7","","19.3","","102.30","","","","","","NA"
"-66.09","43.83","YARMOUTH A","8206495","2022-02-21 19:00","2022","02","21","19:00","2.4","","1.3","","92","","","","19","","10","","19.3","","102.37","","","","","","NA"
"-66.09","43.83","YARMOUTH A","8206495","2022-02-21 20:00","2022","02","21","20:00","1.2","","0.6","","95","","","","36","","2","","19.3","","102.45","","","","","","Mainly Clear"
"-66.09","43.83","YARMOUTH A","8206495","2022-02-21 21:00","2022","02","21","21:00","0.7","","0.3","","97","","","","36","","1","","24.1","","102.51","","","","","","NA"
"-66.09","43.83","YARMOUTH A","8206495","2022-02-21 22:00","2022","02","21","22:00","0.2","","0.0","","99","","","","6","","4","","24.1","","102.56","","","","","","NA"
"-66.09","43.83","YARMOUTH A","8206495","2022-02-21 23:00","2022","02","21","23:00","0.4","","0.3","","99","","","","7","","5","","24.1","","102.68","","","","","","Clear"
"-66.09","43.83","YARMOUTH A","8206495","2022-02-22 00:00","2022","02","22","00:00","-0.7","","-0.8","","99","","","","6","","9","","16.1","","102.70","","","","-4","","NA"
"-66.09","43.83","YARMOUTH A","8206495","2022-02-22 01:00","2022","02","22","01:00","-0.4","","-0.4","","100","","","","9","","6","","14.5","","102.74","","","","-2","","NA"
"-66.09","43.83","YARMOUTH A","8206495","2022-02-22 02:00","2022","02","22","02:00","0.1","","0.0","","100","","","","7","","10","","1.0","","102.75","","","","","","Fog"
"-66.09","43.83","YARMOUTH A","8206495","2022-02-22 03:00","2022","02","22","03:00","-0.1","","-0.2","","100","","","","6","","12","","4.8","","102.74","","","","-4","","Fog"
"-66.09","43.83","YARMOUTH A","8206495","2022-02-22 04:00","2022","02","22","04:00","-0.1","","-0.2","","100","","","","10","","12","","16.1","","102.72","","","","-4","","NA"
"-66.09","43.83","YARMOUTH A","8206495","2022-02-22 05:00","2022","02","22","05:00","0.1","","0.0","","100","","","","10","","13","","16.1","","102.78","","","","","","Mainly Clear"
"-66.09","43.83","YARMOUTH A","8206495","2022-02-22 06:00","2022","02","22","06:00","0.4","","0.3","","100","","","","10","","13","","1.6","","102.82","","","","","","Fog"
"-66.09","43.83","YARMOUTH A","8206495","2022-02-22 07:00","2022","02","22","07:00","0.5","","0.5","","100","","","","10","","17","","4.8","","102.82","","","","","","Fog"
"-66.09","43.83","YARMOUTH A","8206495","2022-02-22 08:00","2022","02","22","08:00","0.9","","0.7","","98","","","","11","","16","","12.9","","102.91","","","","","","Cloudy"
"-66.09","43.83","YARMOUTH A","8206495","2022-02-22 09:00","2022","02","22","09:00","1.5","","0.8","","95","","","","10","","18","","19.3","","102.95","","","","","","NA"
"-66.09","43.83","YARMOUTH A","8206495","2022-02-22 10:00","2022","02","22","10:00","2.8","","1.5","","91","","","","11","","23","","19.3","","102.95","","","","","","NA"
"-66.09","43.83","YARMOUTH A","8206495","2022-02-22 11:00","2022","02","22","11:00","4.1","","1.5","","83","","","","13","","28","","19.3","","102.92","","","","","","Cloudy"
"-66.09","43.83","YARMOUTH A","8206495","2022-02-22 12:00","2022","02","22","12:00","5.3","","1.5","","77","","","","11","","27","","24.1","","102.89","","","","","","NA"
"-66.09","43.83","YARMOUTH A","8206495","2022-02-22 13:00","2022","02","22","13:00","5.9","","1.9","","75","","","","11","","23","","24.1","","102.79","","","","","","NA"
"-66.09","43.83","YARMOUTH A","8206495","2022-02-22 14:00","2022","02","22","14:00","6.4","","1.7","","72","","","","11","","25","","24.1","","102.70","","","","","","Mostly Cloudy"
"-66.09","43.83","YARMOUTH A","8206495","2022-02-22 15:00","2022","02","22","15:00","5.9","","2.2","","77","","","","11","","22","","19.3","","102.58","","","","","","NA"
"-66.09","43.83","YARMOUTH A","8206495","2022-02-22 16:00","2022","02","22","16:00","5.5","","3.0","","84","","","","12","","25","","16.1","","102.50","","","","","","NA"
"-66.09","43.83","YARMOUTH A","8206495","2022-02-22 17:00","2022","02","22","17:00","4.3","","3.5","","94","","","","12","","21","","3.2","","102.50","","","","","","Drizzle,Fog"
"-66.09","43.83","YARMOUTH A","8206495","2022-02-22 18:00","2022","02","22","18:00","4.1","","3.4","","95","","","","11","","18","","6.4","","102.46","","","","","","Fog"
"-66.09","43.83","YARMOUTH A","8206495","2022-02-22 19:00","2022","02","22","19:00","3.8","","3.4","","97","","","","11","","19","","3.2","","102.39","","","","","","Drizzle,Fog"
"-66.09","43.83","YARMOUTH A","8206495","2022-02-22 20:00","2022","02","22","20:00","3.8","","3.6","","99","","","","11","","19","","2.4","","102.27","","","","","","Drizzle,Fog"
"-66.09","43.83","YARMOUTH A","8206495","2022-02-22 21:00","2022","02","22","21:00","3.9","","3.8","","99","","","","11","","19","","2.4","","102.11","","","","","","Fog"
"-66.09","43.83","YARMOUTH A","8206495","2022-02-22 22:00","2022","02","22","22:00","4.5","","4.4","","100","","","","13","","19","","1.6","","101.94","","","","","","Rain,Fog"
"-66.09","43.83","YARMOUTH A","8206495","2022-02-22 23:00","2022","02","22","23:00","6.8","","6.8","","100","","","","17","","19","","2.4","","101.74","","","","","","Fog"
"-66.09","43.83","YARMOUTH A","8206495","2022-02-23 00:00","2022","02","23","00:00","7.1","","7.0","","100","","","","18","","27","","14.5","","101.53","","","","","","NA"
"-66.09","43.83","YARMOUTH A","8206495","2022-02-23 01:00","2022","02","23","01:00","6.8","","6.1","","96","","","","19","","36","","14.5","","101.40","","","","","","Rain Showers"
"-66.09","43.83","YARMOUTH A","8206495","2022-02-23 02:00","2022","02","23","02:00","7.0","","6.1","","94","","","","19","","41","","14.5","","101.25","","","","","","Rain Showers"
"-66.09","43.83","YARMOUTH A","8206495","2022-02-23 03:00","2022","02","23","03:00","6.8","","6.0","","94","","","","18","","36","","14.5","","101.07","","","","","","Rain Showers"
"-66.09","43.83","YARMOUTH A","8206495","2022-02-23 04:00","2022","02","23","04:00","7.2","","6.6","","96","","","","19","","40","","9.7","","100.86","","","","","","Moderate Rain"
"-66.09","43.83","YARMOUTH A","8206495","2022-02-23 05:00","2022","02","23","05:00","8.0","","7.8","","99","","","","20","","47","","4.8","","100.67","","","","","","Moderate Rain,Fog"
"-66.09","43.83","YARMOUTH A","8206495","2022-02-23 06:00","2022","02","23","06:00","8.7","","8.6","","99","","","","21","","41","","4.8","","100.64","","","","","","Rain,Fog"
"-66.09","43.83","YARMOUTH A","8206495","2022-02-23 07:00","2022","02","23","07:00","8.9","","8.8","","99","","","","21","","41","","4.0","","100.60","","","","","","Rain,Fog"
"-66.09","43.83","YARMOUTH A","8206495","2022-02-23 08:00","2022","02","23","08:00","9.2","","9.1","","99","","","","22","","34","","3.2","","100.59","","","","","","Fog"
"-66.09","43.83","YARMOUTH A","8206495","2022-02-23 09:00","2022","02","23","09:00","8.8","","8.7","","99","","","","22","","28","","2.0","","100.55","","","","","","Fog"
"-66.09","43.83","YARMOUTH A","8206495","2022-02-23 10:00","2022","02","23","10:00","8.8","","8.7","","100","","","","22","","26","","0.8","","100.51","","","","","","Fog"
"-66.09","43.83","YARMOUTH A","8206495","2022-02-23 11:00","2022","02","23","11:00","8.5","","8.5","","100","","","","22","","27","","0.2","","100.45","","","","","","Fog"
"-66.09","43.83","YARMOUTH A","8206495","2022-02-23 12:00","2022","02","23","12:00","8.3","","8.3","","100","","","","22","","30","","0.2","","100.36","","","","","","Fog"
"-66.09","43.83","YARMOUTH A","8206495","2022-02-23 13:00","2022","02","23","13:00","8.1","","8.1","","100","","","","23","","30","","0.2","","100.28","","","","","","Fog"
"-66.09","43.83","YARMOUTH A","8206495","2022-02-23 14:00","2022","02","23","14:00","8.6","","8.6","","100","","","","22","","30","","0.2","","100.14","","","","","","Fog"
"-66.09","43.83","YARMOUTH A","8206495","2022-02-23 15:00","2022","02","23","15:00","8.2","","8.2","","100","","","","22","","30","","0.2","","100.06","","","","","","Fog"
"-66.09","43.83","YARMOUTH A","8206495","2022-02-23 16:00","2022","02","23","16:00","7.8","","7.8","","100","","","","22","","28","","0.2","","99.99","","","","","","Fog"
"-66.09","43.83","YARMOUTH A","8206495","2022-02-23 17:00","2022","02","23","17:00","7.8","","7.8","","100","","","","22","","28","","3.2","","99.89","","","","","","Fog"
"-66.09","43.83","YARMOUTH A","8206495","2022-02-23 18:00","2022","02","23","18:00","7.4","","7.3","","100","","","","22","","32","","3.2","","99.84","","","","","","Fog"
"-66.09","43.83","YARMOUTH A","8206495","2022-02-23 19:00","2022","02","23","19:00","7.2","","7.1","","99","","","","24","","27","","8.1","","99.91","","","","","","Fog"
"-66.09","43.83","YARMOUTH A","8206495","2022-02-23 20:00","2022","02","23","20:00","8.2","","6.1","","87","","","","27","","43","","24.1","","100.03","","","","","","Clear"
"-66.09","43.83","YARMOUTH A","8206495","2022-02-23 21:00","2022","02","23","21:00","5.6","","3.5","","86","","","","33","","29","","24.1","","100.31","","","","","","NA"
"-66.09","43.83","YARMOUTH A","8206495","2022-02-23 22:00","2022","02","23","22:00","4.1","","-0.3","","73","","","","33","","37","","24.1","","100.48","","","","","","NA"
"-66.09","43.83","YARMOUTH A","8206495","2022-02-23 23:00","2022","02","23","23:00","0.6","","-4.8","","67","","","","33","","40","","24.1","","100.69","","","","","","Clear"
"-66.09","43.83","YARMOUTH A","8206495","2022-02-24 00:00","2022","02","24","00:00","-0.9","","-8.6","","56","","","","32","","44","","24.1","","100.86","","","","-9","","NA"
"-66.09","43.83","YARMOUTH A","8206495","2022-02-24 01:00","2022","02","24","01:00","-2.7","","-9.3","","61","","","","31","","41","","24.1","","101.04","","","","-11","","NA"
"-66.09","43.83","YARMOUTH A","8206495","2022-02-24 02:00","2022","02","24","02:00","-4.4","","-10.2","","64","","","","33","","39","","24.1","","101.24","","","","-13","","Cloudy"
"-66.09","43.83","YARMOUTH A","8206495","2022-02-24 03:00","2022","02","24","03:00","-5.2","","-11.3","","62","","","","33","","33","","24.1","","101.43","","","","-14","","NA"
"-66.09","43.83","YARMOUTH A","8206495","2022-02-24 04:00","2022","02","24","04:00","-5.7","","-11.4","","64","","","","34","","33","","24.1","","101.52","","","","-14","","NA"
"-66.09","43.83","YARMOUTH A","8206495","2022-02-24 05:00","2022","02","24","05:00","-6.0","","-11.4","","66","","","","34","","35","","24.1","","101.59","","","","-15","","Mostly Cloudy"
"-66.09","43.83","YARMOUTH A","8206495","2022-02-24 06:00","2022","02","24","06:00","-6.5","","-11.9","","65","","","","33","","32","","24.1","","101.74","","","","-15","","NA"
"-66.09","43.83","YARMOUTH A","8206495","2022-02-24 07:00","2022","02","24","07:00","-6.7","","-11.9","","67","","","","33","","30","","24.1","","101.86","","","","-15","","NA"
"-66.09","43.83","YARMOUTH A","8206495","2022-02-24 08:00","2022","02","24","08:00","-6.5","","-11.3","","69","","","","33","","33","","24.1","","101.99","","","","-15","","Mainly Clear"
"-66.09","43.83","YARMOUTH A","8206495","2022-02-24 09:00","2022","02","24","09:00","-6.0","","-11.3","","67","","","","34","","38","","24.1","","102.11","","","","-15","","NA"
"-66.09","43.83","YARMOUTH A","8206495","2022-02-24 10:00","2022","02","24","10:00","-6.1","","-11.8","","64","","","","34","","40","","24.1","","102.16","","","","-16","","NA"
"-66.09","43.83","YARMOUTH A","8206495","2022-02-24 11:00","2022","02","24","11:00","-5.6","","-11.3","","65","","","","34","","30","","24.1","","102.19","","","","-14","","Mainly Clear"
"-66.09","43.83","YARMOUTH A","8206495","2022-02-24 12:00","2022","02","24","12:00","-4.8","","-10.8","","63","","","","35","","26","","24.1","","102.24","","","","-12","","NA"
"-66.09","43.83","YARMOUTH A","8206495","2022-02-24 13:00","2022","02","24","13:00","-5.1","","-10.6","","66","","","","34","","28","","24.1","","102.30","","","","-13","","NA"
"-66.09","43.83","YARMOUTH A","8206495","2022-02-24 14:00","2022","02","24","14:00","-5.0","","-11.8","","59","","","","32","","27","","24.1","","102.37","","","","-13","","Mainly Clear"
"-66.09","43.83","YARMOUTH A","8206495","2022-02-24 15:00","2022","02","24","15:00","-4.6","","-11.4","","59","","","","34","","32","","24.1","","102.33","","","","-13","","NA"
"-66.09","43.83","YARMOUTH A","8206495","2022-02-24 16:00","2022","02","24","16:00","-4.5","","-11.8","","57","","","","34","","28","","24.1","","102.37","","","","-12","","NA"
"-66.09","43.83","YARMOUTH A","8206495","2022-02-24 17:00","2022","02","24","17:00","-4.5","","-11.9","","57","","","","34","","23","","24.1","","102.36","","","","-11","","Mainly Clear"
"-66.09","43.83","YARMOUTH A","8206495","2022-02-24 18:00","2022","02","24","18:00","-5.2","","-12.4","","57","","","","34","","18","","24.1","","102.41","","","","-11","","NA"
"-66.09","43.83","YARMOUTH A","8206495","2022-02-24 19:00","2022","02","24","19:00","-5.9","","-12.7","","59","","","","35","","11","","24.1","","102.49","","","","-11","","NA"
"-66.09","43.83","YARMOUTH A","8206495","2022-02-24 20:00","2022","02","24","20:00","-6.1","","-12.6","","60","","","","1","","4","","24.1","","102.61","","","","-8","","Clear"
"-66.09","43.83","YARMOUTH A","8206495","2022-02-24 21:00","2022","02","24","21:00","-6.2","","-13.0","","59","","","","2","","5","","24.1","","102.62","","","","-9","","NA"
"-66.09","43.83","YARMOUTH A","8206495","2022-02-24 22:00","2022","02","24","22:00","-7.4","","-13.2","","64","","","","2","","8","","24.1","","102.69","","","","-11","","NA"
"-66.09","43.83","YARMOUTH A","8206495","2022-02-24 23:00","2022","02","24","23:00","-7.8","","-13.6","","63","","","","2","","11","","24.1","","102.72","","","","-13","","Clear"
"-66.09","43.83","YARMOUTH A","8206495","2022-02-25 00:00","2022","02","25","00:00","-8.3","","-14.0","","64","","","","2","","7","","24.1","","102.78","","","","-12","","NA"
"-66.09","43.83","YARMOUTH A","8206495","2022-02-25 01:00","2022","02","25","01:00","-8.1","","-13.0","","68","","","","5","","8","","24.1","","102.74","","","","-12","","NA"
"-66.09","43.83","YARMOUTH A","8206495","2022-02-25 02:00","2022","02","25","02:00","-8.5","","-13.0","","70","","","","6","","8","","24.1","","102.67","","","","-13","","Clear"
"-66.09","43.83","YARMOUTH A","8206495","2022-02-25 03:00","2022","02","25","03:00","-8.3","","-11.8","","76","","","","6","","5","","24.1","","102.69","","","","-11","","NA"
"-66.09","43.83","YARMOUTH A","8206495","2022-02-25 04:00","2022","02","25","04:00","-8.3","","-11.4","","78","","","","9","","7","","24.1","","102.69","","","","-12","","NA"
"-66.09","43.83","YARMOUTH A","8206495","2022-02-25 05:00","2022","02","25","05:00","-8.7","","-11.8","","78","","","","6","","10","","24.1","","102.67","","","","-14","","Cloudy"
"-66.09","43.83","YARMOUTH A","8206495","2022-02-25 06:00","2022","02","25","06:00","-8.0","","-13.1","","67","","","","7","","15","","24.1","","102.63","","","","-14","","NA"
"-66.09","43.83","YARMOUTH A","8206495","2022-02-25 07:00","2022","02","25","07:00","-8.0","","-13.3","","66","","","","8","","11","","24.1","","102.50","","","","-13","","NA"
"-66.09","43.83","YARMOUTH A","8206495","2022-02-25 08:00","2022","02","25","08:00","-7.8","","-14.2","","61","","","","6","","10","","24.1","","102.65","","","","-13","","Cloudy"
"-66.09","43.83","YARMOUTH A","8206495","2022-02-25 09:00","2022","02","25","09:00","-8.1","","-14.5","","60","","","","8","","15","","24.1","","102.39","","","","-14","","NA"
"-66.09","43.83","YARMOUTH A","8206495","2022-02-25 10:00","2022","02","25","10:00","-8.4","","-13.3","","68","","","","8","","20","","2.0","","102.24","","","","-16","","Snow"
"-66.09","43.83","YARMOUTH A","8206495","2022-02-25 11:00","2022","02","25","11:00","-9.0","","-10.8","","87","","","","8","","13","","0.6","","102.19","","","","-15","","Moderate Snow"
"-66.09","43.83","YARMOUTH A","8206495","2022-02-25 12:00","2022","02","25","12:00","-9.2","","-10.9","","87","","","","8","","22","","0.6","","101.93","","","","-17","","Moderate Snow"
"-66.09","43.83","YARMOUTH A","8206495","2022-02-25 13:00","2022","02","25","13:00","-9.1","","-10.6","","89","","","","8","","22","","0.4","","101.66","","","","-17","","Moderate Snow,Blowing Snow"
"-66.09","43.83","YARMOUTH A","8206495","2022-02-25 14:00","2022","02","25","14:00","-9.1","","-10.8","","88","","","","7","","18","","0.8","","101.48","","","","-16","","Moderate Snow"
"-66.09","43.83","YARMOUTH A","8206495","2022-02-25 15:00","2022","02","25","15:00","-8.6","","-10.2","","89","","","","6","","25","","0.2","","101.14","","","","-17","","Moderate Snow,Blowing Snow"
"-66.09","43.83","YARMOUTH A","8206495","2022-02-25 16:00","2022","02","25","16:00","-8.5","","-10.2","","87","","","","4","","32","","0.8","","100.84","","","","-18","","Snow,Blowing Snow"
"-66.09","43.83","YARMOUTH A","8206495","2022-02-25 17:00","2022","02","25","17:00","-8.8","","-10.4","","88","","","","4","","29","","0.8","","100.82","","","","-18","","Snow,Ice Pellets,Blowing Snow"
"-66.09","43.83","YARMOUTH A","8206495","2022-02-25 18:00","2022","02","25","18:00","-9.2","","-10.8","","88","","","","3","","29","","0.6","","100.84","","","","-18","","Snow,Blowing Snow"
"-66.09","43.83","YARMOUTH A","8206495","2022-02-25 19:00","2022","02","25","19:00","-9.4","","-11.1","","87","","","","4","","32","","1.6","","100.81","","","","-19","","Snow,Blowing Snow"
"-66.09","43.83","YARMOUTH A","8206495","2022-02-25 20:00","2022","02","25","20:00","-8.9","","-10.8","","86","","","","2","","28","","4.8","","100.94","","","","-18","","Snow,Blowing Snow"
"-66.09","43.83","YARMOUTH A","8206495","2022-02-25 21:00","2022","02","25","21:00","-9.4","","-11.2","","86","","","","2","","31","","3.2","","101.07","","","","-19","","Snow,Blowing Snow"
"-66.09","43.83","YARMOUTH A","8206495","2022-02-25 22:00","2022","02","25","22:00","-9.8","","-12.4","","82","","","","3","","30","","16.1","","101.18","","","","-19","","Blowing Snow"
"-66.09","43.83","YARMOUTH A","8206495","2022-02-25 23:00","2022","02","25","23:00","-10.3","","-13.2","","80","","","","2","","22","","24.1","","101.30","","","","-19","","Mainly Clear"
"-66.09","43.83","YARMOUTH A","8206495","2022-02-26 00:00","2022","02","26","00:00","-11.3","","-13.8","","82","","","","1","","13","","24.1","","101.40","","","","-18","","NA"
"-66.09","43.83","YARMOUTH A","8206495","2022-02-26 01:00","2022","02","26","01:00","-10.2","","-12.8","","81","","","","2","","19","","24.1","","101.49","","","","-18","","NA"
"-66.09","43.83","YARMOUTH A","8206495","2022-02-26 02:00","2022","02","26","02:00","-9.6","","-12.2","","82","","","","2","","15","","19.3","","101.65","","","","-16","","Snow"
"-66.09","43.83","YARMOUTH A","8206495","2022-02-26 03:00","2022","02","26","03:00","-9.3","","-11.9","","82","","","","1","","17","","19.3","","101.72","","","","-16","","NA"
"-66.09","43.83","YARMOUTH A","8206495","2022-02-26 04:00","2022","02","26","04:00","-9.3","","-11.6","","83","","","","1","","16","","16.1","","101.74","","","","-16","","Snow"
"-66.09","43.83","YARMOUTH A","8206495","2022-02-26 05:00","2022","02","26","05:00","-9.3","","-11.3","","86","","","","1","","19","","9.7","","101.81","","","","-17","","Snow"
"-66.09","43.83","YARMOUTH A","8206495","2022-02-26 06:00","2022","02","26","06:00","-9.3","","-11.5","","84","","","","1","","18","","9.7","","101.89","","","","-17","","Snow"
"-66.09","43.83","YARMOUTH A","8206495","2022-02-26 07:00","2022","02","26","07:00","-9.6","","-11.6","","85","","","","1","","13","","4.8","","101.96","","","","-16","","Snow"
"-66.09","43.83","YARMOUTH A","8206495","2022-02-26 08:00","2022","02","26","08:00","-9.5","","-11.6","","85","","","","1","","16","","4.0","","102.01","","","","-16","","Snow"
"-66.09","43.83","YARMOUTH A","8206495","2022-02-26 09:00","2022","02","26","09:00","-9.1","","-11.3","","84","","","","1","","17","","1.6","","102.04","","","","-16","","Snow"
"-66.09","43.83","YARMOUTH A","8206495","2022-02-26 10:00","2022","02","26","10:00","-8.5","","-12.5","","73","","","","35","","29","","11.3","","102.11","","","","-17","","Snow"
"-66.09","43.83","YARMOUTH A","8206495","2022-02-26 11:00","2022","02","26","11:00","-8.0","","-13.3","","65","","","","34","","25","","16.1","","102.09","","","","-16","","Mostly Cloudy"
"-66.09","43.83","YARMOUTH A","8206495","2022-02-26 12:00","2022","02","26","12:00","-8.0","","-13.6","","64","","","","33","","21","","19.3","","102.09","","","","-16","","NA"
"-66.09","43.83","YARMOUTH A","8206495","2022-02-26 13:00","2022","02","26","13:00","-7.3","","-12.5","","67","","","","33","","19","","16.1","","102.05","","","","-14","","NA"
"-66.09","43.83","YARMOUTH A","8206495","2022-02-26 14:00","2022","02","26","14:00","-7.5","","-13.4","","63","","","","31","","17","","24.1","","101.98","","","","-14","","Mainly Clear"
"-66.09","43.83","YARMOUTH A","8206495","2022-02-26 15:00","2022","02","26","15:00","-7.5","","-13.5","","62","","","","32","","18","","24.1","","101.92","","","","-14","","NA"
"-66.09","43.83","YARMOUTH A","8206495","2022-02-26 16:00","2022","02","26","16:00","-7.4","","-12.8","","65","","","","30","","16","","24.1","","101.88","","","","-14","","NA"
"-66.09","43.83","YARMOUTH A","8206495","2022-02-26 17:00","2022","02","26","17:00","-7.2","","-12.5","","66","","","","29","","15","","24.1","","101.86","","","","-13","","Mainly Clear"
"-66.09","43.83","YARMOUTH A","8206495","2022-02-26 18:00","2022","02","26","18:00","-7.4","","-12.7","","66","","","","27","","13","","24.1","","101.81","","","","-13","","NA"
"-66.09","43.83","YARMOUTH A","8206495","2022-02-26 19:00","2022","02","26","19:00","-7.5","","-12.9","","65","","","","27","","12","","24.1","","101.77","","","","-13","","NA"
"-66.09","43.83","YARMOUTH A","8206495","2022-02-26 20:00","2022","02","26","20:00","-7.0","","-12.5","","65","","","","26","","16","","24.1","","101.71","","","","-13","","Clear"
"-66.09","43.83","YARMOUTH A","8206495","2022-02-26 21:00","2022","02","26","21:00","-5.3","","-10.6","","66","","","","27","","24","","24.1","","101.68","","","","-13","","NA"
"-66.09","43.83","YARMOUTH A","8206495","2022-02-26 22:00","2022","02","26","22:00","-5.1","","-10.2","","67","","","","27","","18","","24.1","","101.64","","","","-11","","NA"
"-66.09","43.83","YARMOUTH A","8206495","2022-02-26 23:00","2022","02","26","23:00","-4.3","","-9.3","","68","","","","26","","19","","24.1","","101.61","","","","-10","","Mostly Cloudy"
"-66.09","43.83","YARMOUTH A","8206495","2022-02-27 00:00","2022","02","27","00:00","-3.4","","-8.7","","67","","","","27","","18","","24.1","","101.50","","","","-9","","NA"
"-66.09","43.83","YARMOUTH A","8206495","2022-02-27 01:00","2022","02","27","01:00","-2.7","","-7.8","","68","","","","28","","22","","24.1","","101.36","","","","-9","","NA"
"-66.09","43.83","YARMOUTH A","8206495","2022-02-27 02:00","2022","02","27","02:00","-2.6","","-8.4","","64","","","","26","","22","","24.1","","101.28","","","","-9","","Mostly Cloudy"
"-66.09","43.83","YARMOUTH A","8206495","2022-02-27 03:00","2022","02","27","03:00","-1.8","","-6.5","","71","","","","28","","19","","24.1","","101.15","","","","-7","","NA"
"-66.09","43.83","YARMOUTH A","8206495","2022-02-27 04:00","2022","02","27","04:00","-1.2","","-6.0","","70","","","","26","","26","","11.3","","101.04","","","","-8","","Snow Showers"
"-66.09","43.83","YARMOUTH A","8206495","2022-02-27 05:00","2022","02","27","05:00","-0.6","","-7.5","","59","","","","26","","25","","16.1","","100.93","","","","-7","","Cloudy"
"-66.09","43.83","YARMOUTH A","8206495","2022-02-27 06:00","2022","02","27","06:00","-1.4","","-3.0","","89","","","","24","","18","","11.3","","100.88","","","","-7","","Snow Showers"
"-66.09","43.83","YARMOUTH A","8206495","2022-02-27 07:00","2022","02","27","07:00","-0.5","","-5.6","","69","","","","26","","35","","16.1","","100.81","","","","-8","","NA"
"-66.09","43.83","YARMOUTH A","8206495","2022-02-27 08:00","2022","02","27","08:00","-1.4","","-3.2","","87","","","","29","","16","","4.0","","100.74","","","","-6","","Snow Showers"
"-66.09","43.83","YARMOUTH A","8206495","2022-02-27 09:00","2022","02","27","09:00","-0.6","","-5.2","","71","","","","26","","31","","16.1","","100.67","","","","-7","","Snow Showers"
"-66.09","43.83","YARMOUTH A","8206495","2022-02-27 10:00","2022","02","27","10:00","-0.6","","-4.3","","76","","","","27","","27","","12.9","","100.58","","","","-7","","Snow Showers"
"-66.09","43.83","YARMOUTH A","8206495","2022-02-27 11:00","2022","02","27","11:00","-1.3","","-3.6","","84","","","","27","","30","","4.0","","100.49","","","","-8","","Snow Showers"
"-66.09","43.83","YARMOUTH A","8206495","2022-02-27 12:00","2022","02","27","12:00","-0.9","","-3.5","","83","","","","27","","27","","4.8","","100.37","","","","-7","","Snow Showers"
"-66.09","43.83","YARMOUTH A","8206495","2022-02-27 13:00","2022","02","27","13:00","0.0","","-5.5","","67","","","","26","","34","","1.0","","100.21","","","","-7","","Snow Showers"
"-66.09","43.83","YARMOUTH A","8206495","2022-02-27 14:00","2022","02","27","14:00","-0.5","","-3.5","","80","","","","28","","26","","8.1","","100.07","","","","-7","","Snow Showers"
"-66.09","43.83","YARMOUTH A","8206495","2022-02-27 15:00","2022","02","27","15:00","-0.8","","-3.4","","82","","","","26","","27","","8.1","","99.98","","","","-7","","Snow Showers"
"-66.09","43.83","YARMOUTH A","8206495","2022-02-27 16:00","2022","02","27","16:00","0.1","","-5.4","","67","","","","27","","35","","14.5","","99.90","","","","","","Snow Showers"
"-66.09","43.83","YARMOUTH A","8206495","2022-02-27 17:00","2022","02","27","17:00","0.2","","-6.8","","59","","","","28","","33","","12.9","","99.85","","","","","","Snow Showers"
"-66.09","43.83","YARMOUTH A","8206495","2022-02-27 18:00","2022","02","27","18:00","0.2","","-4.5","","71","","","","26","","26","","12.9","","99.81","","","","","","Snow Showers"
"-66.09","43.83","YARMOUTH A","8206495","2022-02-27 19:00","2022","02","27","19:00","0.5","","-6.7","","58","","","","29","","31","","16.1","","99.83","","","","","","NA"
"-66.09","43.83","YARMOUTH A","8206495","2022-02-27 20:00","2022","02","27","20:00","1.0","","-5.2","","63","","","","27","","27","","16.1","","99.81","","","","","","Cloudy"
"-66.09","43.83","YARMOUTH A","8206495","2022-02-27 21:00","2022","02","27","21:00","1.6","","-4.5","","64","","","","27","","34","","14.5","","99.72","","","","","","NA"
"-66.09","43.83","YARMOUTH A","8206495","2022-02-27 22:00","2022","02","27","22:00","0.1","","-2.6","","82","","","","25","","21","","14.5","","99.68","","","","","","NA"
"-66.09","43.83","YARMOUTH A","8206495","2022-02-27 23:00","2022","02","27","23:00","1.1","","-4.4","","67","","","","29","","45","","14.5","","99.61","","","","","","Snow Showers"
"-66.09","43.83","YARMOUTH A","8206495","2022-02-28 00:00","2022","02","28","00:00","-2.4","","-3.3","","93","","","","32","","49","","0.8","","99.72","","","","-11","","Moderate Snow Showers,Blowing Snow"
"-66.09","43.83","YARMOUTH A","8206495","2022-02-28 01:00","2022","02","28","01:00","-3.4","","-8.1","","70","","","","34","","50","","14.5","","99.83","","","","-13","","Snow Showers"
"-66.09","43.83","YARMOUTH A","8206495","2022-02-28 02:00","2022","02","28","02:00","-5.8","","-10.7","","69","","","","33","","53","","14.5","","100.02","","","","-16","","Snow Showers"
"-66.09","43.83","YARMOUTH A","8206495","2022-02-28 03:00","2022","02","28","03:00","-7.2","","-15.2","","53","","","","34","","55","","14.5","","100.11","","","","-18","","Blowing Snow"
"-66.09","43.83","YARMOUTH A","8206495","2022-02-28 04:00","2022","02","28","04:00","-7.4","","-14.6","","57","","","","33","","38","","14.5","","100.21","","","","-17","","Blowing Snow"
"-66.09","43.83","YARMOUTH A","8206495","2022-02-28 05:00","2022","02","28","05:00","-7.9","","-15.0","","57","","","","33","","37","","14.5","","100.32","","","","-18","","Mostly Cloudy"
"-66.09","43.83","YARMOUTH A","8206495","2022-02-28 06:00","2022","02","28","06:00","-8.6","","-16.9","","51","","","","34","","45","","14.5","","100.45","","","","-19","","NA"
"-66.09","43.83","YARMOUTH A","8206495","2022-02-28 07:00","2022","02","28","07:00","-8.8","","-16.2","","55","","","","33","","45","","19.3","","100.56","","","","-20","","Blowing Snow"
"-66.09","43.83","YARMOUTH A","8206495","2022-02-28 08:00","2022","02","28","08:00","-9.4","","-16.7","","56","","","","33","","44","","19.3","","100.74","","","","-20","","Blowing Snow"
"-66.09","43.83","YARMOUTH A","8206495","2022-02-28 09:00","2022","02","28","09:00","-9.8","","-16.1","","60","","","","33","","38","","19.3","","100.85","","","","-20","","Blowing Snow"
"-66.09","43.83","YARMOUTH A","8206495","2022-02-28 10:00","2022","02","28","10:00","-10.0","","-16.0","","62","","","","33","","40","","19.3","","100.90","","","","-21","","NA"
"-66.09","43.83","YARMOUTH A","8206495","2022-02-28 11:00","2022","02","28","11:00","-10.1","","-15.3","","66","","","","33","","35","","16.1","","100.98","","","","-20","","Snow Showers,Blowing Snow"
"-66.09","43.83","YARMOUTH A","8206495","2022-02-28 12:00","2022","02","28","12:00","-10.2","","-16.1","","63","","","","32","","35","","19.3","","101.08","","","","-20","","Blowing Snow"
"-66.09","43.83","YARMOUTH A","8206495","2022-02-28 13:00","2022","02","28","13:00","-9.4","","-14.7","","66","","","","34","","32","","16.1","","101.08","","","","-19","","Snow Showers"
"-66.09","43.83","YARMOUTH A","8206495","2022-02-28 14:00","2022","02","28","14:00","-9.1","","-13.9","","68","","","","31","","30","","4.8","","101.08","","","","-18","","Snow Showers"
"-66.09","43.83","YARMOUTH A","8206495","2022-02-28 15:00","2022","02","28","15:00","-8.8","","-14.4","","64","","","","32","","33","","16.1","","101.14","","","","-18","","Snow Showers"
"-66.09","43.83","YARMOUTH A","8206495","2022-02-28 16:00","2022","02","28","16:00","-8.4","","-15.6","","57","","","","33","","34","","19.3","","101.22","","","","-18","","NA"
"-66.09","43.83","YARMOUTH A","8206495","2022-02-28 17:00","2022","02","28","17:00","-8.2","","-15.1","","58","","","","32","","24","","24.1","","101.26","","","","-16","","Mostly Cloudy"
"-66.09","43.83","YARMOUTH A","8206495","2022-02-28 18:00","2022","02","28","18:00","-8.1","","-15.8","","54","","","","33","","28","","24.1","","101.38","","","","-17","","NA"
"-66.09","43.83","YARMOUTH A","8206495","2022-02-28 19:00","2022","02","28","19:00","-7.5","","-15.9","","51","","","","33","","24","","24.1","","101.49","","","","-15","","NA"
"-66.09","43.83","YARMOUTH A","8206495","2022-02-28 20:00","2022","02","28","20:00","-7.3","","-15.2","","54","","","","33","","28","","24.1","","101.55","","","","-16","","Mainly Clear"
"-66.09","43.83","YARMOUTH A","8206495","2022-02-28 21:00","2022","02","28","21:00","-6.9","","-14.4","","56","","","","33","","22","","24.1","","101.63","","","","-14","","NA"
"-66.09","43.83","YARMOUTH A","8206495","2022-02-28 22:00","2022","02","28","22:00","-7.5","","-15.3","","54","","","","34","","27","","24.1","","101.70","","","","-16","","NA"
"-66.09","43.83","YARMOUTH A","8206495","2022-02-28 23:00","2022","02","28","23:00","-7.4","","-14.9","","56","","","","32","","23","","24.1","","101.80","","","","-15","","Mostly Cloudy"
