"Longitude (x)","Latitude (y)","Station Name","Climate ID","Date/Time (LST)","Year","Month","Day","Time (LST)","Temp (°C)","Temp Flag","Dew Point Temp (°C)","Dew Point Temp Flag","Rel Hum (%)","Rel Hum Flag","Precip. Amount (mm)","Precip. Amount Flag","Wind Dir (10s deg)","Wind Dir Flag","Wind Spd (km/h)","Wind Spd Flag","Visibility (km)","Visibility Flag","Stn Press (kPa)","Stn Press Flag","Hmdx","Hmdx Flag","Wind Chill","Wind Chill Flag","Weather"
"-81.38","48.57","TIMMINS A","6078286","2021-12-01 00:00","2021","12","01","00:00","-7.9","","-10.3","","83","","","","27","","8","","24.1","","97.45","","","","-12","","Snow"
"-81.38","48.57","TIMMINS A","6078286","2021-12-01 01:00","2021","12","01","01:00","-7.8","","-10.3","","82","","","","27","","16","","8.1","","97.50","","","","-14","","Snow"
"-81.38","48.57","TIMMINS A","6078286","2021-12-01 02:00","2021","12","01","02:00","-8.8","","-11.2","","83","","","","28","","13","","24.1","","97.54","","","","-15","","Snow"
"-81.38","48.57","TIMMINS A","6078286","2021-12-01 03:00","2021","12","01","03:00","-9.9","","-12.5","","81","","","","28","","14","","24.1","","97.62","","","","-16","","Snow"
"-81.38","48.57","TIMMINS A","6078286","2021-12-01 04:00","2021","12","01","04:00","-10.5","","-12.8","","83","","","","27","","8","","24.1","","97.70","","","","-15","","Mostly Cloudy"
"-81.38","48.57","TIMMINS A","6078286","2021-12-01 05:00","2021","12","01","05:00","-11.5","","-13.6","","85","","","","26","","8","","24.1","","97.77","","","","-16","","Snow"
"-81.38","48.57","TIMMINS A","6078286","2021-12-01 06:00","2021","12","01","06:00","-12.8","","-14.4","","88","","","","24","","6","","24.1","","97.81","","","","-17","","Snow"
"-81.38","48.57","TIMMINS A","6078286","2021-12-01 07:00","2021","12","01","07:00","-13.2","","-15.0","","87","","","","23","","7","","24.1","","97.84","","","","-18","","Clear"
"-81.38","48.57","TIMMINS A","6078286","2021-12-01 08:00","2021","12","01","08:00","-14.0","","-15.7","","87","","","","22","","7","","24.1","","97.86","","","","-19","","NA"
"-81.38","48.57","TIMMINS A","6078286","2021-12-01 09:00","2021","12","01","09:00","-12.4","","-14.6","","84","","","","22","","9","","24.1","","97.91","","","","-18","","NA"
"-81.38","48.57","TIMMINS A","6078286","2021-12-01 10:00","2021","12","01","10:00","-12.0","","-14.2","","84","","","","19","","7","","24.1","","97.88","","","","-16","","Mostly Cloudy"
"-81.38","48.57","TIMMINS A","6078286","2021-12-01 11:00","2021","12","01","11:00","-10.5","","-13.1","","81","","","","18","","13","","24.1","","97.83","","","","-17","","NA"
"-81.38","48.57","TIMMINS A","6078286","2021-12-01 12:00","2021","12","01","12:00","-9.5","","-12.6","","79","","","","18","","12","","24.1","","97.73","","","","-15","","NA"
"-81.38","48.57","TIMMINS A","6078286","2021-12-01 13:00","2021","12","01","13:00","-8.4","","-11.8","","77","","","","16","","14","","24.1","","97.62","","","","-15","","Cloudy"
"-81.38","48.57","TIMMINS A","6078286","2021-12-01 14:00","2021","12","01","14:00","-7.7","","-11.4","","75","","","","17","","16","","24.1","","97.52","","","","-14","","NA"
"-81.38","48.57","TIMMINS A","6078286","2021-12-01 15:00","2021","12","01","15:00","-7.1","","-10.5","","77","","","","17","","15","","24.1","","97.45","","","","-13","","NA"
"-81.38","48.57","TIMMINS A","6078286","2021-12-01 16:00","2021","12","01","16:00","-7.1","","-10.4","","77","","","","14","","12","","9.7","","97.38","","","","-12","","Snow"
"-81.38","48.57","TIMMINS A","6078286","2021-12-01 17:00","2021","12","01","17:00","-7.4","","-9.2","","87","","","","14","","14","","2.4","","97.26","","","","-13","","Snow"
"-81.38","48.57","TIMMINS A","6078286","2021-12-01 18:00","2021","12","01","18:00","-7.2","","-9.2","","86","","","","13","","22","","9.7","","97.07","","","","-15","","Snow"
"-81.38","48.57","TIMMINS A","6078286","2021-12-01 19:00","2021","12","01","19:00","-6.6","","-8.1","","89","","","","14","","23","","1.6","","96.86","","","","-14","","Snow"
"-81.38","48.57","TIMMINS A","6078286","2021-12-01 20:00","2021","12","01","20:00","-6.3","","-7.6","","91","","","","13","","21","","1.6","","96.66","","","","-13","","Snow"
"-81.38","48.57","TIMMINS A","6078286","2021-12-01 21:00","2021","12","01","21:00","-5.6","","-6.7","","92","","","","14","","19","","1.6","","96.46","","","","-12","","Snow"
"-81.38","48.57","TIMMINS A","6078286","2021-12-01 22:00","2021","12","01","22:00","-5.0","","-6.0","","93","","","","14","","16","","2.4","","96.26","","","","-11","","Snow"
"-81.38","48.57","TIMMINS A","6078286","2021-12-01 23:00","2021","12","01","23:00","-3.6","","-4.5","","94","","","","15","","13","","8.1","","96.09","","","","-8","","Snow"
"-81.38","48.57","TIMMINS A","6078286","2021-12-02 00:00","2021","12","02","00:00","-1.8","","-2.6","","94","","","","15","","22","","4.8","","95.86","","","","-8","","Snow"
"-81.38","48.57","TIMMINS A","6078286","2021-12-02 01:00","2021","12","02","01:00","-0.9","","-1.5","","96","","","","15","","17","","2.4","","95.70","","","","-6","","Snow"
"-81.38","48.57","TIMMINS A","6078286","2021-12-02 02:00","2021","12","02","02:00","0.0","","-0.5","","97","","","","15","","20","","2.4","","95.51","","","","-5","","Snow"
"-81.38","48.57","TIMMINS A","6078286","2021-12-02 03:00","2021","12","02","03:00","0.3","","-0.1","","98","","","","16","","18","","2.4","","95.35","","","","","","Snow"
"-81.38","48.57","TIMMINS A","6078286","2021-12-02 04:00","2021","12","02","04:00","0.3","","-0.1","","98","","","","17","","18","","2.4","","95.20","","","","","","Snow"
"-81.38","48.57","TIMMINS A","6078286","2021-12-02 05:00","2021","12","02","05:00","0.2","","-0.1","","98","","","","18","","16","","2.4","","95.10","","","","","","Snow"
"-81.38","48.57","TIMMINS A","6078286","2021-12-02 06:00","2021","12","02","06:00","0.2","","-0.1","","98","","","","19","","8","","4.0","","95.04","","","","","","Snow"
"-81.38","48.57","TIMMINS A","6078286","2021-12-02 07:00","2021","12","02","07:00","0.2","","-0.1","","98","","","","19","","8","","2.8","","95.06","","","","","","Snow"
"-81.38","48.57","TIMMINS A","6078286","2021-12-02 08:00","2021","12","02","08:00","0.3","","0.0","","98","","","","27","","8","","4.0","","95.12","","","","","","Snow"
"-81.38","48.57","TIMMINS A","6078286","2021-12-02 09:00","2021","12","02","09:00","-0.2","","-1.2","","93","","","","33","","37","","1.6","","95.27","","","","-7","","Snow"
"-81.38","48.57","TIMMINS A","6078286","2021-12-02 10:00","2021","12","02","10:00","-2.7","","-3.9","","91","","","","31","","33","","3.2","","95.50","","","","-10","","Snow"
"-81.38","48.57","TIMMINS A","6078286","2021-12-02 11:00","2021","12","02","11:00","-4.7","","-6.3","","89","","","","32","","33","","0.8","","95.79","","","","-13","","Moderate Snow,Blowing Snow"
"-81.38","48.57","TIMMINS A","6078286","2021-12-02 12:00","2021","12","02","12:00","-5.5","","-7.5","","86","","","","33","","36","","3.2","","95.96","","","","-14","","Snow,Blowing Snow"
"-81.38","48.57","TIMMINS A","6078286","2021-12-02 13:00","2021","12","02","13:00","-5.6","","-7.5","","86","","","","31","","27","","2.4","","96.15","","","","-13","","Snow,Blowing Snow"
"-81.38","48.57","TIMMINS A","6078286","2021-12-02 14:00","2021","12","02","14:00","-5.6","","-7.5","","87","","","","32","","26","","2.4","","96.33","","","","-13","","Snow,Blowing Snow"
"-81.38","48.57","TIMMINS A","6078286","2021-12-02 15:00","2021","12","02","15:00","-6.0","","-7.8","","87","","","","32","","28","","3.2","","96.55","","","","-14","","Snow,Blowing Snow"
"-81.38","48.57","TIMMINS A","6078286","2021-12-02 16:00","2021","12","02","16:00","-6.5","","-8.4","","86","","","","31","","23","","4.0","","96.80","","","","-14","","Snow,Blowing Snow"
"-81.38","48.57","TIMMINS A","6078286","2021-12-02 17:00","2021","12","02","17:00","-7.0","","-9.0","","86","","","","33","","26","","9.7","","97.01","","","","-15","","Snow,Blowing Snow"
"-81.38","48.57","TIMMINS A","6078286","2021-12-02 18:00","2021","12","02","18:00","-7.6","","-9.8","","85","","","","33","","32","","9.7","","97.21","","","","-17","","Snow,Blowing Snow"
"-81.38","48.57","TIMMINS A","6078286","2021-12-02 19:00","2021","12","02","19:00","-8.8","","-11.1","","84","","","","32","","18","","9.7","","97.36","","","","-16","","Snow,Blowing Snow"
"-81.38","48.57","TIMMINS A","6078286","2021-12-02 20:00","2021","12","02","20:00","-11.4","","-14.6","","77","","","","32","","27","","24.1","","97.51","","","","-21","","Snow"
"-81.38","48.57","TIMMINS A","6078286","2021-12-02 21:00","2021","12","02","21:00","-13.5","","-16.1","","81","","","","29","","13","","24.1","","97.61","","","","-20","","NA"
"-81.38","48.57","TIMMINS A","6078286","2021-12-02 22:00","2021","12","02","22:00","-14.8","","-17.4","","81","","","","30","","15","","24.1","","97.71","","","","-23","","Clear"
"-81.38","48.57","TIMMINS A","6078286","2021-12-02 23:00","2021","12","02","23:00","-15.6","","-18.3","","81","","","","29","","14","","24.1","","97.81","","","","-23","","NA"
"-81.38","48.57","TIMMINS A","6078286","2021-12-03 00:00","2021","12","03","00:00","-16.6","","-19.3","","80","","","","28","","10","","24.1","","97.83","","","","-23","","NA"
"-81.38","48.57","TIMMINS A","6078286","2021-12-03 01:00","2021","12","03","01:00","-17.6","","-19.8","","83","","","","27","","7","","24.1","","97.82","","","","-23","","Clear"
"-81.38","48.57","TIMMINS A","6078286","2021-12-03 02:00","2021","12","03","02:00","-17.9","","-20.2","","83","","","","27","","8","","24.1","","97.89","","","","-24","","NA"
"-81.38","48.57","TIMMINS A","6078286","2021-12-03 03:00","2021","12","03","03:00","-18.2","","-20.5","","82","","","","27","","10","","24.1","","97.95","","","","-25","","NA"
"-81.38","48.57","TIMMINS A","6078286","2021-12-03 04:00","2021","12","03","04:00","-18.9","","-21.3","","81","","","","28","","11","","24.1","","97.98","","","","-26","","Clear"
"-81.38","48.57","TIMMINS A","6078286","2021-12-03 05:00","2021","12","03","05:00","-19.1","","-21.5","","82","","","","27","","11","","24.1","","98.00","","","","-27","","NA"
"-81.38","48.57","TIMMINS A","6078286","2021-12-03 06:00","2021","12","03","06:00","-19.4","","-21.9","","81","","","","28","","10","","24.1","","98.04","","","","-26","","Ice Crystals"
"-81.38","48.57","TIMMINS A","6078286","2021-12-03 07:00","2021","12","03","07:00","-19.6","","-22.1","","80","","","","27","","9","","24.1","","98.10","","","","-26","","Clear"
"-81.38","48.57","TIMMINS A","6078286","2021-12-03 08:00","2021","12","03","08:00","-19.7","","-22.3","","80","","","","27","","9","","24.1","","98.10","","","","-26","","NA"
"-81.38","48.57","TIMMINS A","6078286","2021-12-03 09:00","2021","12","03","09:00","-18.9","","-21.6","","80","","","","27","","9","","24.1","","98.13","","","","-25","","NA"
"-81.38","48.57","TIMMINS A","6078286","2021-12-03 10:00","2021","12","03","10:00","-17.6","","-20.8","","77","","","","28","","14","","24.1","","98.17","","","","-26","","Mainly Clear"
"-81.38","48.57","TIMMINS A","6078286","2021-12-03 11:00","2021","12","03","11:00","-16.1","","-20.2","","71","","","","29","","18","","24.1","","98.19","","","","-25","","NA"
"-81.38","48.57","TIMMINS A","6078286","2021-12-03 12:00","2021","12","03","12:00","-14.8","","-19.2","","69","","","","28","","9","","24.1","","98.11","","","","-21","","NA"
"-81.38","48.57","TIMMINS A","6078286","2021-12-03 13:00","2021","12","03","13:00","-14.2","","-19.1","","67","","","","29","","7","","24.1","","98.04","","","","-19","","Mostly Cloudy"
"-81.38","48.57","TIMMINS A","6078286","2021-12-03 14:00","2021","12","03","14:00","-13.2","","-17.9","","69","","","","27","","14","","24.1","","98.08","","","","-20","","NA"
"-81.38","48.57","TIMMINS A","6078286","2021-12-03 15:00","2021","12","03","15:00","-13.6","","-17.5","","72","","","","28","","8","","24.1","","98.07","","","","-19","","NA"
"-81.38","48.57","TIMMINS A","6078286","2021-12-03 16:00","2021","12","03","16:00","-13.6","","-17.0","","76","","","","26","","8","","24.1","","98.12","","","","-19","","Mostly Cloudy"
"-81.38","48.57","TIMMINS A","6078286","2021-12-03 17:00","2021","12","03","17:00","-14.2","","-16.9","","80","","","","26","","5","","24.1","","98.12","","","","-18","","NA"
"-81.38","48.57","TIMMINS A","6078286","2021-12-03 18:00","2021","12","03","18:00","-15.8","","-17.6","","86","","","","36","","2","","24.1","","98.06","","","","-17","","NA"
"-81.38","48.57","TIMMINS A","6078286","2021-12-03 19:00","2021","12","03","19:00","-16.9","","-18.5","","88","","","","36","","2","","24.1","","98.03","","","","-18","","Cloudy"
"-81.38","48.57","TIMMINS A","6078286","2021-12-03 20:00","2021","12","03","20:00","-18.0","","-19.8","","86","","","","36","","3","","24.1","","98.02","","","","-20","","NA"
"-81.38","48.57","TIMMINS A","6078286","2021-12-03 21:00","2021","12","03","21:00","-18.0","","-19.7","","87","","","","18","","7","","24.1","","97.98","","","","-23","","NA"
"-81.38","48.57","TIMMINS A","6078286","2021-12-03 22:00","2021","12","03","22:00","-15.9","","-17.6","","86","","","","17","","4","","16.1","","97.91","","","","-19","","Snow"
"-81.38","48.57","TIMMINS A","6078286","2021-12-03 23:00","2021","12","03","23:00","-16.7","","-18.7","","84","","","","18","","4","","19.3","","97.86","","","","-20","","Snow"
"-81.38","48.57","TIMMINS A","6078286","2021-12-04 00:00","2021","12","04","00:00","-16.2","","-18.0","","86","","","","16","","7","","24.1","","97.83","","","","-21","","Snow"
"-81.38","48.57","TIMMINS A","6078286","2021-12-04 01:00","2021","12","04","01:00","-18.0","","-19.8","","86","","","","14","","4","","24.1","","97.77","","","","-21","","Snow"
"-81.38","48.57","TIMMINS A","6078286","2021-12-04 02:00","2021","12","04","02:00","-18.1","","-19.7","","88","","","","36","","3","","24.1","","97.70","","","","-21","","NA"
"-81.38","48.57","TIMMINS A","6078286","2021-12-04 03:00","2021","12","04","03:00","-17.5","","-19.5","","85","","","","7","","7","","24.1","","97.63","","","","-23","","Snow"
"-81.38","48.57","TIMMINS A","6078286","2021-12-04 04:00","2021","12","04","04:00","-17.0","","-18.9","","85","","","","3","","5","","24.1","","97.56","","","","-21","","Snow"
"-81.38","48.57","TIMMINS A","6078286","2021-12-04 05:00","2021","12","04","05:00","-16.1","","-18.1","","85","","","","5","","7","","24.1","","97.52","","","","-21","","Snow"
"-81.38","48.57","TIMMINS A","6078286","2021-12-04 06:00","2021","12","04","06:00","-15.4","","-17.3","","86","","","","8","","6","","19.3","","97.53","","","","-20","","Snow"
"-81.38","48.57","TIMMINS A","6078286","2021-12-04 07:00","2021","12","04","07:00","-15.8","","-17.7","","85","","","","7","","4","","24.1","","97.52","","","","-19","","Snow"
"-81.38","48.57","TIMMINS A","6078286","2021-12-04 08:00","2021","12","04","08:00","-16.6","","-18.5","","85","","","","3","","4","","24.1","","97.52","","","","-20","","Snow"
"-81.38","48.57","TIMMINS A","6078286","2021-12-04 09:00","2021","12","04","09:00","-15.9","","-17.7","","86","","","","36","","3","","24.1","","97.57","","","","-18","","Snow"
"-81.38","48.57","TIMMINS A","6078286","2021-12-04 10:00","2021","12","04","10:00","-14.6","","-16.7","","84","","","","36","","1","","4.0","","97.60","","","","-15","","Snow"
"-81.38","48.57","TIMMINS A","6078286","2021-12-04 11:00","2021","12","04","11:00","-13.4","","-15.5","","85","","","","36","","2","","4.0","","97.61","","","","-15","","Snow"
"-81.38","48.57","TIMMINS A","6078286","2021-12-04 12:00","2021","12","04","12:00","-11.7","","-13.7","","85","","","","0","","1","","3.2","","97.63","","","","-12","","Snow"
"-81.38","48.57","TIMMINS A","6078286","2021-12-04 13:00","2021","12","04","13:00","-10.2","","-12.6","","83","","","","33","","10","","2.4","","97.70","","","","-15","","Snow"
"-81.38","48.57","TIMMINS A","6078286","2021-12-04 14:00","2021","12","04","14:00","-10.3","","-13.0","","81","","","","30","","12","","24.1","","97.78","","","","-16","","Snow"
"-81.38","48.57","TIMMINS A","6078286","2021-12-04 15:00","2021","12","04","15:00","-10.2","","-12.7","","82","","","","32","","12","","4.8","","97.88","","","","-16","","Snow"
"-81.38","48.57","TIMMINS A","6078286","2021-12-04 16:00","2021","12","04","16:00","-10.2","","-12.2","","86","","","","32","","9","","3.2","","97.98","","","","-15","","Snow"
"-81.38","48.57","TIMMINS A","6078286","2021-12-04 17:00","2021","12","04","17:00","-11.0","","-13.0","","85","","","","29","","8","","4.8","","98.11","","","","-16","","Snow"
"-81.38","48.57","TIMMINS A","6078286","2021-12-04 18:00","2021","12","04","18:00","-13.0","","-14.6","","88","","","","32","","7","","14.5","","98.19","","","","-18","","Snow"
"-81.38","48.57","TIMMINS A","6078286","2021-12-04 19:00","2021","12","04","19:00","-14.7","","-16.1","","89","","","","30","","4","","14.5","","98.22","","","","-18","","Snow"
"-81.38","48.57","TIMMINS A","6078286","2021-12-04 20:00","2021","12","04","20:00","-13.9","","-15.5","","88","","","","26","","5","","24.1","","98.27","","","","-17","","Snow"
"-81.38","48.57","TIMMINS A","6078286","2021-12-04 21:00","2021","12","04","21:00","-13.2","","-14.9","","87","","","","25","","4","","24.1","","98.30","","","","-16","","Snow"
"-81.38","48.57","TIMMINS A","6078286","2021-12-04 22:00","2021","12","04","22:00","-13.2","","-15.0","","87","","","","29","","7","","24.1","","98.34","","","","-18","","Snow"
"-81.38","48.57","TIMMINS A","6078286","2021-12-04 23:00","2021","12","04","23:00","-13.2","","-15.0","","86","","","","30","","9","","24.1","","98.42","","","","-19","","Snow"
"-81.38","48.57","TIMMINS A","6078286","2021-12-05 00:00","2021","12","05","00:00","-13.5","","-15.6","","84","","","","29","","13","","24.1","","98.48","","","","-20","","Snow"
"-81.38","48.57","TIMMINS A","6078286","2021-12-05 01:00","2021","12","05","01:00","-14.4","","-16.7","","83","","","","28","","12","","24.1","","98.56","","","","-21","","Snow"
"-81.38","48.57","TIMMINS A","6078286","2021-12-05 02:00","2021","12","05","02:00","-14.4","","-16.6","","83","","","","27","","8","","24.1","","98.64","","","","-20","","Snow"
"-81.38","48.57","TIMMINS A","6078286","2021-12-05 03:00","2021","12","05","03:00","-14.9","","-16.9","","85","","","","21","","4","","24.1","","98.70","","","","-18","","Snow"
"-81.38","48.57","TIMMINS A","6078286","2021-12-05 04:00","2021","12","05","04:00","-14.6","","-16.7","","84","","","","23","","7","","24.1","","98.70","","","","-19","","Snow"
"-81.38","48.57","TIMMINS A","6078286","2021-12-05 05:00","2021","12","05","05:00","-15.6","","-17.6","","85","","","","23","","7","","24.1","","98.71","","","","-21","","NA"
"-81.38","48.57","TIMMINS A","6078286","2021-12-05 06:00","2021","12","05","06:00","-16.8","","-19.0","","84","","","","36","","3","","24.1","","98.75","","","","-19","","Snow"
"-81.38","48.57","TIMMINS A","6078286","2021-12-05 07:00","2021","12","05","07:00","-16.2","","-18.2","","85","","","","26","","4","","24.1","","98.81","","","","-19","","Snow"
"-81.38","48.57","TIMMINS A","6078286","2021-12-05 08:00","2021","12","05","08:00","-14.8","","-17.0","","84","","","","25","","3","","24.1","","98.84","","","","-17","","Snow"
"-81.38","48.57","TIMMINS A","6078286","2021-12-05 09:00","2021","12","05","09:00","-15.6","","-17.6","","85","","","","18","","9","","24.1","","98.81","","","","-22","","NA"
"-81.38","48.57","TIMMINS A","6078286","2021-12-05 10:00","2021","12","05","10:00","-14.5","","-16.8","","83","","","","19","","8","","24.1","","98.79","","","","-20","","Mostly Cloudy"
"-81.38","48.57","TIMMINS A","6078286","2021-12-05 11:00","2021","12","05","11:00","-12.8","","-15.8","","78","","","","19","","16","","24.1","","98.85","","","","-20","","NA"
"-81.38","48.57","TIMMINS A","6078286","2021-12-05 12:00","2021","12","05","12:00","-11.8","","-15.0","","78","","","","18","","11","","24.1","","98.78","","","","-18","","NA"
"-81.38","48.57","TIMMINS A","6078286","2021-12-05 13:00","2021","12","05","13:00","-11.0","","-14.1","","78","","","","18","","19","","24.1","","98.73","","","","-19","","Cloudy"
"-81.38","48.57","TIMMINS A","6078286","2021-12-05 14:00","2021","12","05","14:00","-10.5","","-13.4","","80","","","","18","","12","","24.1","","98.65","","","","-17","","NA"
"-81.38","48.57","TIMMINS A","6078286","2021-12-05 15:00","2021","12","05","15:00","-10.3","","-12.8","","82","","","","16","","17","","24.1","","98.64","","","","-18","","Snow"
"-81.38","48.57","TIMMINS A","6078286","2021-12-05 16:00","2021","12","05","16:00","-10.5","","-12.8","","84","","","","14","","14","","24.1","","98.54","","","","-17","","Snow"
"-81.38","48.57","TIMMINS A","6078286","2021-12-05 17:00","2021","12","05","17:00","-11.1","","-13.1","","85","","","","13","","15","","24.1","","98.41","","","","-18","","Snow"
"-81.38","48.57","TIMMINS A","6078286","2021-12-05 18:00","2021","12","05","18:00","-11.2","","-13.3","","85","","","","14","","17","","24.1","","98.39","","","","-19","","Snow"
"-81.38","48.57","TIMMINS A","6078286","2021-12-05 19:00","2021","12","05","19:00","-11.5","","-13.4","","86","","","","12","","15","","24.1","","98.22","","","","-19","","Snow"
"-81.38","48.57","TIMMINS A","6078286","2021-12-05 20:00","2021","12","05","20:00","-11.6","","-13.5","","86","","","","12","","13","","24.1","","98.18","","","","-18","","Snow"
"-81.38","48.57","TIMMINS A","6078286","2021-12-05 21:00","2021","12","05","21:00","-11.7","","-13.6","","86","","","","11","","14","","14.5","","98.05","","","","-19","","Snow"
"-81.38","48.57","TIMMINS A","6078286","2021-12-05 22:00","2021","12","05","22:00","-11.8","","-13.9","","85","","","","12","","14","","24.1","","97.96","","","","-19","","Snow"
"-81.38","48.57","TIMMINS A","6078286","2021-12-05 23:00","2021","12","05","23:00","-11.7","","-13.6","","86","","","","8","","12","","4.0","","97.86","","","","-18","","Snow"
"-81.38","48.57","TIMMINS A","6078286","2021-12-06 00:00","2021","12","06","00:00","-11.6","","-13.3","","87","","","","8","","12","","4.0","","97.70","","","","-18","","Snow"
"-81.38","48.57","TIMMINS A","6078286","2021-12-06 01:00","2021","12","06","01:00","-11.2","","-13.0","","87","","","","5","","18","","4.0","","97.39","","","","-19","","Snow"
"-81.38","48.57","TIMMINS A","6078286","2021-12-06 02:00","2021","12","06","02:00","-10.3","","-12.1","","87","","","","7","","19","","4.0","","97.19","","","","-18","","Snow"
"-81.38","48.57","TIMMINS A","6078286","2021-12-06 03:00","2021","12","06","03:00","-9.9","","-11.7","","87","","","","7","","21","","4.0","","96.96","","","","-18","","Snow"
"-81.38","48.57","TIMMINS A","6078286","2021-12-06 04:00","2021","12","06","04:00","-9.7","","-11.5","","87","","","","6","","17","","4.0","","96.70","","","","-17","","Snow"
"-81.38","48.57","TIMMINS A","6078286","2021-12-06 05:00","2021","12","06","05:00","-9.3","","-11.0","","87","","","","8","","19","","4.8","","96.50","","","","-17","","Snow"
"-81.38","48.57","TIMMINS A","6078286","2021-12-06 06:00","2021","12","06","06:00","-9.3","","-11.0","","88","","","","8","","16","","4.0","","96.34","","","","-16","","Snow"
"-81.38","48.57","TIMMINS A","6078286","2021-12-06 07:00","2021","12","06","07:00","-9.4","","-11.0","","88","","","","7","","18","","4.0","","96.13","","","","-17","","Snow"
"-81.38","48.57","TIMMINS A","6078286","2021-12-06 08:00","2021","12","06","08:00","-9.3","","-10.8","","88","","","","8","","16","","1.6","","96.03","","","","-16","","Snow"
"-81.38","48.57","TIMMINS A","6078286","2021-12-06 09:00","2021","12","06","09:00","-9.2","","-10.8","","88","","","","6","","11","","2.4","","95.89","","","","-15","","Snow"
"-81.38","48.57","TIMMINS A","6078286","2021-12-06 10:00","2021","12","06","10:00","-8.9","","-10.5","","88","","","","5","","9","","1.2","","95.80","","","","-14","","Snow"
"-81.38","48.57","TIMMINS A","6078286","2021-12-06 11:00","2021","12","06","11:00","-8.7","","-10.1","","89","","","","36","","11","","0.6","","95.70","","","","-14","","Moderate Snow"
"-81.38","48.57","TIMMINS A","6078286","2021-12-06 12:00","2021","12","06","12:00","-8.4","","-10.2","","87","","","","1","","9","","1.2","","95.63","","","","-13","","Snow"
"-81.38","48.57","TIMMINS A","6078286","2021-12-06 13:00","2021","12","06","13:00","-8.0","","-10.2","","85","","","","32","","14","","2.4","","95.64","","","","-14","","Snow"
"-81.38","48.57","TIMMINS A","6078286","2021-12-06 14:00","2021","12","06","14:00","-8.5","","-10.7","","84","","","","31","","19","","4.0","","95.69","","","","-16","","Snow"
"-81.38","48.57","TIMMINS A","6078286","2021-12-06 15:00","2021","12","06","15:00","-8.6","","-10.9","","84","","","","29","","21","","4.0","","95.79","","","","-16","","Snow"
"-81.38","48.57","TIMMINS A","6078286","2021-12-06 16:00","2021","12","06","16:00","-9.6","","-12.2","","82","","","","31","","29","","4.0","","95.96","","","","-19","","Snow"
"-81.38","48.57","TIMMINS A","6078286","2021-12-06 17:00","2021","12","06","17:00","-11.3","","-14.0","","81","","","","30","","19","","24.1","","96.16","","","","-19","","Snow,Blowing Snow"
"-81.38","48.57","TIMMINS A","6078286","2021-12-06 18:00","2021","12","06","18:00","-12.2","","-15.0","","80","","","","30","","34","","4.0","","96.38","","","","-23","","Snow,Blowing Snow"
"-81.38","48.57","TIMMINS A","6078286","2021-12-06 19:00","2021","12","06","19:00","-15.1","","-18.4","","76","","","","30","","36","","4.0","","96.66","","","","-27","","Snow"
"-81.38","48.57","TIMMINS A","6078286","2021-12-06 20:00","2021","12","06","20:00","-16.2","","-19.4","","77","","","","30","","30","","4.8","","96.85","","","","-28","","Snow"
"-81.38","48.57","TIMMINS A","6078286","2021-12-06 21:00","2021","12","06","21:00","-16.9","","-20.3","","75","","","","30","","25","","4.8","","97.02","","","","-28","","Snow,Blowing Snow"
"-81.38","48.57","TIMMINS A","6078286","2021-12-06 22:00","2021","12","06","22:00","-17.4","","-20.5","","77","","","","30","","22","","8.1","","97.19","","","","-28","","Snow,Blowing Snow"
"-81.38","48.57","TIMMINS A","6078286","2021-12-06 23:00","2021","12","06","23:00","-18.3","","-21.9","","74","","","","31","","22","","9.7","","97.32","","","","-29","","Snow,Blowing Snow"
"-81.38","48.57","TIMMINS A","6078286","2021-12-07 00:00","2021","12","07","00:00","-19.4","","-22.7","","75","","","","28","","21","","19.3","","97.50","","","","-30","","Snow,Blowing Snow"
"-81.38","48.57","TIMMINS A","6078286","2021-12-07 01:00","2021","12","07","01:00","-20.2","","-23.6","","74","","","","29","","25","","16.1","","97.63","","","","-32","","Snow,Blowing Snow"
"-81.38","48.57","TIMMINS A","6078286","2021-12-07 02:00","2021","12","07","02:00","-20.2","","-23.8","","74","","","","29","","18","","16.1","","97.78","","","","-30","","Snow,Blowing Snow"
"-81.38","48.57","TIMMINS A","6078286","2021-12-07 03:00","2021","12","07","03:00","-21.5","","-24.7","","76","","","","27","","11","","19.3","","97.89","","","","-29","","Snow"
"-81.38","48.57","TIMMINS A","6078286","2021-12-07 04:00","2021","12","07","04:00","-22.1","","-24.9","","78","","","","26","","9","","19.3","","97.99","","","","-29","","Snow"
"-81.38","48.57","TIMMINS A","6078286","2021-12-07 05:00","2021","12","07","05:00","-23.2","","-26.0","","79","","","","28","","8","","24.1","","98.04","","","","-30","","NA"
"-81.38","48.57","TIMMINS A","6078286","2021-12-07 06:00","2021","12","07","06:00","-23.8","","-26.8","","77","","","","29","","8","","24.1","","98.08","","","","-31","","NA"
"-81.38","48.57","TIMMINS A","6078286","2021-12-07 07:00","2021","12","07","07:00","-24.2","","-27.4","","75","","","","28","","10","","24.1","","98.14","","","","-32","","Mainly Clear"
"-81.38","48.57","TIMMINS A","6078286","2021-12-07 08:00","2021","12","07","08:00","-24.6","","-27.5","","78","","","","23","","5","","24.1","","98.23","","","","-29","","NA"
"-81.38","48.57","TIMMINS A","6078286","2021-12-07 09:00","2021","12","07","09:00","-24.4","","-27.4","","76","","","","26","","7","","24.1","","98.25","","","","-31","","NA"
"-81.38","48.57","TIMMINS A","6078286","2021-12-07 10:00","2021","12","07","10:00","-23.1","","-26.4","","75","","","","22","","10","","24.1","","98.30","","","","-31","","Mainly Clear"
"-81.38","48.57","TIMMINS A","6078286","2021-12-07 11:00","2021","12","07","11:00","-22.2","","-25.9","","72","","","","22","","10","","24.1","","98.32","","","","-30","","NA"
"-81.38","48.57","TIMMINS A","6078286","2021-12-07 12:00","2021","12","07","12:00","-21.2","","-25.6","","68","","","","23","","9","","24.1","","98.29","","","","-28","","NA"
"-81.38","48.57","TIMMINS A","6078286","2021-12-07 13:00","2021","12","07","13:00","-19.9","","-24.8","","65","","","","21","","6","","24.1","","98.25","","","","-25","","Mostly Cloudy"
"-81.38","48.57","TIMMINS A","6078286","2021-12-07 14:00","2021","12","07","14:00","-18.9","","-24.0","","65","","","","20","","11","","24.1","","98.22","","","","-26","","NA"
"-81.38","48.57","TIMMINS A","6078286","2021-12-07 15:00","2021","12","07","15:00","-19.0","","-23.4","","69","","","","19","","12","","24.1","","98.19","","","","-27","","NA"
"-81.38","48.57","TIMMINS A","6078286","2021-12-07 16:00","2021","12","07","16:00","-20.4","","-23.6","","76","","","","20","","7","","24.1","","98.17","","","","-26","","Mainly Clear"
"-81.38","48.57","TIMMINS A","6078286","2021-12-07 17:00","2021","12","07","17:00","-20.1","","-23.0","","78","","","","19","","7","","24.1","","98.19","","","","-26","","NA"
"-81.38","48.57","TIMMINS A","6078286","2021-12-07 18:00","2021","12","07","18:00","-19.2","","-22.0","","79","","","","16","","5","","24.1","","98.17","","","","-23","","Snow"
"-81.38","48.57","TIMMINS A","6078286","2021-12-07 19:00","2021","12","07","19:00","-18.2","","-21.1","","79","","","","13","","6","","24.1","","98.11","","","","-23","","Cloudy"
"-81.38","48.57","TIMMINS A","6078286","2021-12-07 20:00","2021","12","07","20:00","-17.6","","-20.1","","81","","","","15","","7","","8.1","","98.08","","","","-23","","Snow"
"-81.38","48.57","TIMMINS A","6078286","2021-12-07 21:00","2021","12","07","21:00","-18.0","","-20.3","","82","","","","14","","8","","19.3","","98.03","","","","-24","","Snow"
"-81.38","48.57","TIMMINS A","6078286","2021-12-07 22:00","2021","12","07","22:00","-17.9","","-20.3","","82","","","","15","","9","","24.1","","97.97","","","","-24","","Snow"
"-81.38","48.57","TIMMINS A","6078286","2021-12-07 23:00","2021","12","07","23:00","-17.4","","-19.8","","82","","","","17","","3","","24.1","","97.94","","","","-20","","Snow"
"-81.38","48.57","TIMMINS A","6078286","2021-12-08 00:00","2021","12","08","00:00","-18.1","","-20.3","","83","","","","36","","2","","24.1","","97.95","","","","-20","","Snow"
"-81.38","48.57","TIMMINS A","6078286","2021-12-08 01:00","2021","12","08","01:00","-17.9","","-20.2","","83","","","","7","","3","","24.1","","97.89","","","","-20","","Snow"
"-81.38","48.57","TIMMINS A","6078286","2021-12-08 02:00","2021","12","08","02:00","-18.0","","-20.2","","83","","","","12","","5","","24.1","","97.85","","","","-22","","Snow"
"-81.38","48.57","TIMMINS A","6078286","2021-12-08 03:00","2021","12","08","03:00","-17.0","","-19.1","","84","","","","36","","2","","24.1","","97.85","","","","-19","","Snow"
"-81.38","48.57","TIMMINS A","6078286","2021-12-08 04:00","2021","12","08","04:00","-15.1","","-17.2","","84","","","","18","","8","","9.7","","97.81","","","","-20","","Snow"
"-81.38","48.57","TIMMINS A","6078286","2021-12-08 05:00","2021","12","08","05:00","-14.6","","-16.6","","85","","","","17","","11","","4.8","","97.77","","","","-21","","Snow"
"-81.38","48.57","TIMMINS A","6078286","2021-12-08 06:00","2021","12","08","06:00","-14.4","","-16.6","","84","","","","18","","8","","4.8","","97.73","","","","-20","","Snow"
"-81.38","48.57","TIMMINS A","6078286","2021-12-08 07:00","2021","12","08","07:00","-15.1","","-17.2","","84","","","","18","","8","","24.1","","97.73","","","","-20","","Snow"
"-81.38","48.57","TIMMINS A","6078286","2021-12-08 08:00","2021","12","08","08:00","-15.7","","-17.7","","85","","","","18","","9","","24.1","","97.70","","","","-22","","Snow"
"-81.38","48.57","TIMMINS A","6078286","2021-12-08 09:00","2021","12","08","09:00","-15.9","","-17.9","","85","","","","18","","8","","24.1","","97.69","","","","-21","","Snow"
"-81.38","48.57","TIMMINS A","6078286","2021-12-08 10:00","2021","12","08","10:00","-15.0","","-17.0","","85","","","","36","","3","","14.5","","97.70","","","","-17","","Snow"
"-81.38","48.57","TIMMINS A","6078286","2021-12-08 11:00","2021","12","08","11:00","-13.5","","-16.0","","82","","","","19","","4","","24.1","","97.67","","","","-16","","Snow"
"-81.38","48.57","TIMMINS A","6078286","2021-12-08 12:00","2021","12","08","12:00","-11.9","","-14.3","","82","","","","35","","3","","4.0","","97.62","","","","-14","","Snow"
"-81.38","48.57","TIMMINS A","6078286","2021-12-08 13:00","2021","12","08","13:00","-10.9","","-13.9","","79","","","","32","","5","","24.1","","97.60","","","","-14","","Snow"
"-81.38","48.57","TIMMINS A","6078286","2021-12-08 14:00","2021","12","08","14:00","-11.2","","-14.1","","79","","","","35","","9","","11.3","","97.60","","","","-16","","Snow"
"-81.38","48.57","TIMMINS A","6078286","2021-12-08 15:00","2021","12","08","15:00","-11.2","","-13.8","","81","","","","36","","11","","4.8","","97.67","","","","-17","","Snow"
"-81.38","48.57","TIMMINS A","6078286","2021-12-08 16:00","2021","12","08","16:00","-12.3","","-14.9","","82","","","","35","","9","","4.8","","97.72","","","","-18","","Snow"
"-81.38","48.57","TIMMINS A","6078286","2021-12-08 17:00","2021","12","08","17:00","-14.4","","-16.0","","88","","","","34","","9","","24.1","","97.80","","","","-20","","Snow"
"-81.38","48.57","TIMMINS A","6078286","2021-12-08 18:00","2021","12","08","18:00","-15.2","","-17.1","","85","","","","33","","12","","24.1","","97.88","","","","-22","","Snow"
"-81.38","48.57","TIMMINS A","6078286","2021-12-08 19:00","2021","12","08","19:00","-15.3","","-17.7","","83","","","","33","","10","","24.1","","97.99","","","","-22","","Snow"
"-81.38","48.57","TIMMINS A","6078286","2021-12-08 20:00","2021","12","08","20:00","-16.3","","-18.5","","83","","","","31","","9","","24.1","","98.10","","","","-22","","Snow"
"-81.38","48.57","TIMMINS A","6078286","2021-12-08 21:00","2021","12","08","21:00","-17.0","","-19.3","","83","","","","35","","8","","24.1","","98.12","","","","-23","","Snow"
"-81.38","48.57","TIMMINS A","6078286","2021-12-08 22:00","2021","12","08","22:00","-19.0","","-21.1","","83","","","","34","","8","","24.1","","98.14","","","","-25","","Snow"
"-81.38","48.57","TIMMINS A","6078286","2021-12-08 23:00","2021","12","08","23:00","-20.6","","-22.8","","83","","","","34","","8","","24.1","","98.23","","","","-27","","Snow"
"-81.38","48.57","TIMMINS A","6078286","2021-12-09 00:00","2021","12","09","00:00","-22.1","","-24.3","","82","","","","33","","8","","24.1","","98.27","","","","-29","","NA"
"-81.38","48.57","TIMMINS A","6078286","2021-12-09 01:00","2021","12","09","01:00","-22.9","","-25.2","","82","","","","36","","8","","24.1","","98.29","","","","-30","","Clear"
"-81.38","48.57","TIMMINS A","6078286","2021-12-09 02:00","2021","12","09","02:00","-23.6","","-25.8","","82","","","","33","","5","","24.1","","98.39","","","","-28","","NA"
"-81.38","48.57","TIMMINS A","6078286","2021-12-09 03:00","2021","12","09","03:00","-26.2","","-28.7","","80","","","","36","","2","","24.1","","98.49","","","","-28","","NA"
"-81.38","48.57","TIMMINS A","6078286","2021-12-09 04:00","2021","12","09","04:00","-26.5","","-28.9","","80","","","","36","","2","","24.1","","98.46","","","","-29","","Mainly Clear"
"-81.38","48.57","TIMMINS A","6078286","2021-12-09 05:00","2021","12","09","05:00","-28.1","","-31.0","","77","","","","36","","1","","24.1","","98.47","","","","-29","","NA"
"-81.38","48.57","TIMMINS A","6078286","2021-12-09 06:00","2021","12","09","06:00","-29.1","","-32.0","","76","","","","8","","4","","24.1","","98.50","","","","-34","","NA"
"-81.38","48.57","TIMMINS A","6078286","2021-12-09 07:00","2021","12","09","07:00","-28.4","","-31.3","","77","","","","18","","5","","24.1","","98.54","","","","-34","","Mainly Clear"
"-81.38","48.57","TIMMINS A","6078286","2021-12-09 08:00","2021","12","09","08:00","-27.3","","-30.1","","78","","","","11","","5","","24.1","","98.51","","","","-33","","NA"
"-81.38","48.57","TIMMINS A","6078286","2021-12-09 09:00","2021","12","09","09:00","-25.7","","-28.3","","79","","","","14","","4","","24.1","","98.51","","","","-30","","NA"
"-81.38","48.57","TIMMINS A","6078286","2021-12-09 10:00","2021","12","09","10:00","-22.4","","-25.0","","80","","","","19","","6","","24.1","","98.54","","","","-28","","Mostly Cloudy"
"-81.38","48.57","TIMMINS A","6078286","2021-12-09 11:00","2021","12","09","11:00","-19.6","","-22.0","","82","","","","14","","9","","24.1","","98.51","","","","-26","","NA"
"-81.38","48.57","TIMMINS A","6078286","2021-12-09 12:00","2021","12","09","12:00","-16.9","","-19.3","","82","","","","13","","13","","24.1","","98.38","","","","-25","","NA"
"-81.38","48.57","TIMMINS A","6078286","2021-12-09 13:00","2021","12","09","13:00","-15.8","","-18.6","","79","","","","14","","18","","24.1","","98.26","","","","-25","","Mostly Cloudy"
"-81.38","48.57","TIMMINS A","6078286","2021-12-09 14:00","2021","12","09","14:00","-14.9","","-18.2","","76","","","","13","","17","","24.1","","98.12","","","","-23","","NA"
"-81.38","48.57","TIMMINS A","6078286","2021-12-09 15:00","2021","12","09","15:00","-14.2","","-17.3","","77","","","","13","","16","","24.1","","98.03","","","","-22","","NA"
"-81.38","48.57","TIMMINS A","6078286","2021-12-09 16:00","2021","12","09","16:00","-13.4","","-16.3","","79","","","","13","","17","","24.1","","97.94","","","","-21","","Cloudy"
"-81.38","48.57","TIMMINS A","6078286","2021-12-09 17:00","2021","12","09","17:00","-13.2","","-15.8","","80","","","","13","","16","","24.1","","97.83","","","","-21","","NA"
"-81.38","48.57","TIMMINS A","6078286","2021-12-09 18:00","2021","12","09","18:00","-12.8","","-15.5","","81","","","","13","","18","","24.1","","97.76","","","","-21","","NA"
"-81.38","48.57","TIMMINS A","6078286","2021-12-09 19:00","2021","12","09","19:00","-12.2","","-15.2","","78","","","","13","","21","","24.1","","97.71","","","","-21","","Cloudy"
"-81.38","48.57","TIMMINS A","6078286","2021-12-09 20:00","2021","12","09","20:00","-12.3","","-15.3","","79","","","","14","","19","","24.1","","97.70","","","","-21","","Snow"
"-81.38","48.57","TIMMINS A","6078286","2021-12-09 21:00","2021","12","09","21:00","-12.4","","-15.0","","81","","","","14","","21","","9.7","","97.63","","","","-21","","Snow"
"-81.38","48.57","TIMMINS A","6078286","2021-12-09 22:00","2021","12","09","22:00","-12.2","","-14.4","","84","","","","13","","22","","6.4","","97.50","","","","-21","","Snow"
"-81.38","48.57","TIMMINS A","6078286","2021-12-09 23:00","2021","12","09","23:00","-11.3","","-13.6","","83","","","","13","","28","","9.7","","97.36","","","","-21","","Snow"
"-81.38","48.57","TIMMINS A","6078286","2021-12-10 00:00","2021","12","10","00:00","-11.2","","-13.2","","85","","","","15","","19","","9.7","","97.32","","","","-19","","Snow,Blowing Snow"
"-81.38","48.57","TIMMINS A","6078286","2021-12-10 01:00","2021","12","10","01:00","-10.8","","-12.8","","85","","","","14","","25","","4.8","","97.21","","","","-20","","Snow,Blowing Snow"
"-81.38","48.57","TIMMINS A","6078286","2021-12-10 02:00","2021","12","10","02:00","-10.4","","-12.5","","85","","","","14","","22","","4.0","","97.15","","","","-19","","Snow,Blowing Snow"
"-81.38","48.57","TIMMINS A","6078286","2021-12-10 03:00","2021","12","10","03:00","-10.1","","-12.0","","86","","","","15","","17","","4.8","","97.12","","","","-17","","Snow"
"-81.38","48.57","TIMMINS A","6078286","2021-12-10 04:00","2021","12","10","04:00","-9.7","","-11.4","","88","","","","15","","14","","4.8","","97.09","","","","-16","","Snow"
"-81.38","48.57","TIMMINS A","6078286","2021-12-10 05:00","2021","12","10","05:00","-8.8","","-10.4","","89","","","","15","","17","","4.8","","97.05","","","","-16","","Snow"
"-81.38","48.57","TIMMINS A","6078286","2021-12-10 06:00","2021","12","10","06:00","-7.6","","-8.9","","90","","","","17","","17","","4.8","","97.02","","","","-14","","Snow"
"-81.38","48.57","TIMMINS A","6078286","2021-12-10 07:00","2021","12","10","07:00","-6.2","","-7.0","","94","","","","19","","14","","4.8","","97.06","","","","-12","","Freezing Drizzle,Snow"
"-81.38","48.57","TIMMINS A","6078286","2021-12-10 08:00","2021","12","10","08:00","-5.3","","-6.2","","93","","","","22","","9","","4.8","","97.19","","","","-9","","Snow"
"-81.38","48.57","TIMMINS A","6078286","2021-12-10 09:00","2021","12","10","09:00","-4.3","","-5.2","","93","","","","23","","8","","11.3","","97.31","","","","-8","","Snow"
"-81.38","48.57","TIMMINS A","6078286","2021-12-10 10:00","2021","12","10","10:00","-3.2","","-4.0","","95","","","","28","","7","","4.8","","97.46","","","","-6","","Freezing Drizzle,Snow"
"-81.38","48.57","TIMMINS A","6078286","2021-12-10 11:00","2021","12","10","11:00","-2.8","","-3.7","","94","","","","27","","9","","24.1","","97.54","","","","-6","","Snow"
"-81.38","48.57","TIMMINS A","6078286","2021-12-10 12:00","2021","12","10","12:00","-2.2","","-4.1","","87","","","","28","","10","","24.1","","97.54","","","","-6","","NA"
"-81.38","48.57","TIMMINS A","6078286","2021-12-10 13:00","2021","12","10","13:00","-1.8","","-4.3","","83","","","","26","","8","","24.1","","97.60","","","","-5","","Mainly Clear"
"-81.38","48.57","TIMMINS A","6078286","2021-12-10 14:00","2021","12","10","14:00","-1.5","","-5.7","","74","","","","26","","12","","24.1","","97.65","","","","-6","","NA"
"-81.38","48.57","TIMMINS A","6078286","2021-12-10 15:00","2021","12","10","15:00","-1.6","","-5.5","","74","","","","24","","10","","24.1","","97.76","","","","-5","","NA"
"-81.38","48.57","TIMMINS A","6078286","2021-12-10 16:00","2021","12","10","16:00","-2.2","","-5.0","","82","","","","21","","6","","24.1","","97.82","","","","-5","","Mostly Cloudy"
"-81.38","48.57","TIMMINS A","6078286","2021-12-10 17:00","2021","12","10","17:00","-4.2","","-5.9","","88","","","","19","","6","","24.1","","97.94","","","","-7","","NA"
"-81.38","48.57","TIMMINS A","6078286","2021-12-10 18:00","2021","12","10","18:00","-6.0","","-6.5","","96","","","","17","","9","","24.1","","97.94","","","","-10","","NA"
"-81.38","48.57","TIMMINS A","6078286","2021-12-10 19:00","2021","12","10","19:00","-7.2","","-7.6","","97","","","","19","","7","","24.1","","97.93","","","","-11","","Mostly Cloudy"
"-81.38","48.57","TIMMINS A","6078286","2021-12-10 20:00","2021","12","10","20:00","-7.7","","-8.2","","96","","","","18","","6","","24.1","","97.93","","","","-11","","NA"
"-81.38","48.57","TIMMINS A","6078286","2021-12-10 21:00","2021","12","10","21:00","-8.8","","-9.7","","93","","","","16","","6","","24.1","","97.83","","","","-12","","NA"
"-81.38","48.57","TIMMINS A","6078286","2021-12-10 22:00","2021","12","10","22:00","-8.7","","-9.6","","93","","","","13","","5","","24.1","","97.74","","","","-11","","Mostly Cloudy"
"-81.38","48.57","TIMMINS A","6078286","2021-12-10 23:00","2021","12","10","23:00","-8.4","","-9.4","","93","","","","36","","3","","24.1","","97.70","","","","-10","","NA"
"-81.38","48.57","TIMMINS A","6078286","2021-12-11 00:00","2021","12","11","00:00","-8.3","","-9.3","","93","","","","8","","6","","24.1","","97.67","","","","-12","","NA"
"-81.38","48.57","TIMMINS A","6078286","2021-12-11 01:00","2021","12","11","01:00","-8.2","","-9.3","","92","","","","12","","6","","24.1","","97.50","","","","-11","","Cloudy"
"-81.38","48.57","TIMMINS A","6078286","2021-12-11 02:00","2021","12","11","02:00","-6.6","","-7.6","","93","","","","10","","9","","24.1","","97.33","","","","-11","","NA"
"-81.38","48.57","TIMMINS A","6078286","2021-12-11 03:00","2021","12","11","03:00","-5.8","","-6.7","","94","","","","11","","10","","24.1","","97.20","","","","-10","","NA"
"-81.38","48.57","TIMMINS A","6078286","2021-12-11 04:00","2021","12","11","04:00","-5.4","","-6.3","","94","","","","9","","15","","24.1","","96.92","","","","-11","","Cloudy"
"-81.38","48.57","TIMMINS A","6078286","2021-12-11 05:00","2021","12","11","05:00","-5.5","","-6.3","","94","","","","8","","20","","9.7","","96.64","","","","-12","","Snow"
"-81.38","48.57","TIMMINS A","6078286","2021-12-11 06:00","2021","12","11","06:00","-5.1","","-5.8","","94","","","","7","","18","","2.4","","96.35","","","","-11","","Snow,Blowing Snow"
"-81.38","48.57","TIMMINS A","6078286","2021-12-11 07:00","2021","12","11","07:00","-5.0","","-5.9","","94","","","","6","","19","","2.4","","96.03","","","","-11","","Snow"
"-81.38","48.57","TIMMINS A","6078286","2021-12-11 08:00","2021","12","11","08:00","-4.5","","-5.3","","94","","","","6","","23","","0.8","","95.66","","","","-11","","Moderate Snow"
"-81.38","48.57","TIMMINS A","6078286","2021-12-11 09:00","2021","12","11","09:00","-3.9","","-4.7","","94","","","","8","","15","","1.2","","95.44","","","","-9","","Snow"
"-81.38","48.57","TIMMINS A","6078286","2021-12-11 10:00","2021","12","11","10:00","-3.8","","-4.7","","94","","","","6","","15","","1.2","","95.30","","","","-9","","Snow"
"-81.38","48.57","TIMMINS A","6078286","2021-12-11 11:00","2021","12","11","11:00","-3.9","","-4.6","","95","","","","2","","13","","0.8","","95.12","","","","-9","","Moderate Snow"
"-81.38","48.57","TIMMINS A","6078286","2021-12-11 12:00","2021","12","11","12:00","-4.0","","-5.0","","93","","","","3","","22","","0.8","","94.84","","","","-11","","Moderate Snow"
"-81.38","48.57","TIMMINS A","6078286","2021-12-11 13:00","2021","12","11","13:00","-3.9","","-4.8","","93","","","","3","","17","","1.2","","94.67","","","","-10","","Snow"
"-81.38","48.57","TIMMINS A","6078286","2021-12-11 14:00","2021","12","11","14:00","-4.3","","-5.2","","93","","","","34","","23","","0.4","","94.53","","","","-11","","Heavy Snow"
"-81.38","48.57","TIMMINS A","6078286","2021-12-11 15:00","2021","12","11","15:00","-4.4","","-5.7","","90","","","","33","","20","","1.2","","94.53","","","","-11","","Snow"
"-81.38","48.57","TIMMINS A","6078286","2021-12-11 16:00","2021","12","11","16:00","-4.8","","-6.3","","90","","","","32","","35","","4.8","","94.62","","","","-13","","Snow,Blowing Snow"
"-81.38","48.57","TIMMINS A","6078286","2021-12-11 17:00","2021","12","11","17:00","-5.2","","-6.5","","91","","","","32","","23","","1.2","","94.78","","","","-12","","Snow,Blowing Snow"
"-81.38","48.57","TIMMINS A","6078286","2021-12-11 18:00","2021","12","11","18:00","-5.7","","-7.0","","90","","","","30","","23","","1.2","","95.01","","","","-13","","Snow,Blowing Snow"
"-81.38","48.57","TIMMINS A","6078286","2021-12-11 19:00","2021","12","11","19:00","-5.0","","-6.5","","89","","","","29","","23","","1.2","","95.28","","","","-12","","Snow,Blowing Snow"
"-81.38","48.57","TIMMINS A","6078286","2021-12-11 20:00","2021","12","11","20:00","-4.2","","-5.9","","88","","","","30","","27","","3.2","","95.53","","","","-12","","Snow,Blowing Snow"
"-81.38","48.57","TIMMINS A","6078286","2021-12-11 21:00","2021","12","11","21:00","-4.0","","-6.4","","84","","","","29","","29","","12.9","","95.75","","","","-12","","Snow,Blowing Snow"
"-81.38","48.57","TIMMINS A","6078286","2021-12-11 22:00","2021","12","11","22:00","-5.4","","-7.5","","86","","","","27","","20","","24.1","","95.94","","","","-12","","Blowing Snow"
"-81.38","48.57","TIMMINS A","6078286","2021-12-11 23:00","2021","12","11","23:00","-5.9","","-7.9","","86","","","","27","","17","","24.1","","96.15","","","","-12","","Blowing Snow"
"-81.38","48.57","TIMMINS A","6078286","2021-12-12 00:00","2021","12","12","00:00","-6.4","","-8.4","","86","","","","26","","9","","24.1","","96.26","","","","-11","","NA"
"-81.38","48.57","TIMMINS A","6078286","2021-12-12 01:00","2021","12","12","01:00","-6.8","","-8.8","","86","","","","23","","13","","24.1","","96.35","","","","-12","","Mainly Clear"
"-81.38","48.57","TIMMINS A","6078286","2021-12-12 02:00","2021","12","12","02:00","-6.1","","-8.1","","86","","","","24","","14","","24.1","","96.44","","","","-12","","NA"
"-81.38","48.57","TIMMINS A","6078286","2021-12-12 03:00","2021","12","12","03:00","-5.2","","-7.3","","86","","","","24","","14","","24.1","","96.55","","","","-11","","NA"
"-81.38","48.57","TIMMINS A","6078286","2021-12-12 04:00","2021","12","12","04:00","-5.1","","-6.8","","88","","","","22","","8","","24.1","","96.56","","","","-9","","Mostly Cloudy"
"-81.38","48.57","TIMMINS A","6078286","2021-12-12 05:00","2021","12","12","05:00","-4.7","","-6.2","","89","","","","22","","11","","24.1","","96.57","","","","-9","","NA"
"-81.38","48.57","TIMMINS A","6078286","2021-12-12 06:00","2021","12","12","06:00","-4.1","","-5.5","","90","","","","22","","13","","24.1","","96.58","","","","-9","","NA"
"-81.38","48.57","TIMMINS A","6078286","2021-12-12 07:00","2021","12","12","07:00","-2.8","","-4.5","","88","","","","22","","16","","24.1","","96.60","","","","-8","","Mostly Cloudy"
"-81.38","48.57","TIMMINS A","6078286","2021-12-12 08:00","2021","12","12","08:00","-2.4","","-4.2","","88","","","","23","","13","","24.1","","96.62","","","","-7","","NA"
"-81.38","48.57","TIMMINS A","6078286","2021-12-12 09:00","2021","12","12","09:00","-2.0","","-4.0","","86","","","","23","","19","","24.1","","96.63","","","","-8","","NA"
"-81.38","48.57","TIMMINS A","6078286","2021-12-12 10:00","2021","12","12","10:00","-1.9","","-4.2","","84","","","","22","","14","","24.1","","96.64","","","","-7","","Mostly Cloudy"
"-81.38","48.57","TIMMINS A","6078286","2021-12-12 11:00","2021","12","12","11:00","-1.9","","-4.7","","81","","","","20","","26","","24.1","","96.62","","","","-8","","NA"
"-81.38","48.57","TIMMINS A","6078286","2021-12-12 12:00","2021","12","12","12:00","-1.7","","-4.8","","79","","","","20","","19","","24.1","","96.53","","","","-7","","NA"
"-81.38","48.57","TIMMINS A","6078286","2021-12-12 13:00","2021","12","12","13:00","-1.2","","-4.5","","78","","","","21","","17","","24.1","","96.43","","","","-6","","Mostly Cloudy"
"-81.38","48.57","TIMMINS A","6078286","2021-12-12 14:00","2021","12","12","14:00","-0.2","","-3.6","","78","","","","21","","19","","24.1","","96.37","","","","-5","","NA"
"-81.38","48.57","TIMMINS A","6078286","2021-12-12 15:00","2021","12","12","15:00","0.7","","-2.9","","77","","","","21","","14","","24.1","","96.34","","","","","","NA"
"-81.38","48.57","TIMMINS A","6078286","2021-12-12 16:00","2021","12","12","16:00","1.1","","-2.4","","77","","","","22","","21","","24.1","","96.36","","","","","","Mainly Clear"
"-81.38","48.57","TIMMINS A","6078286","2021-12-12 17:00","2021","12","12","17:00","0.4","","-2.3","","82","","","","22","","14","","24.1","","96.45","","","","","","NA"
"-81.38","48.57","TIMMINS A","6078286","2021-12-12 18:00","2021","12","12","18:00","0.1","","-2.5","","83","","","","24","","12","","24.1","","96.56","","","","","","NA"
"-81.38","48.57","TIMMINS A","6078286","2021-12-12 19:00","2021","12","12","19:00","0.0","","-2.6","","83","","","","24","","10","","24.1","","96.63","","","","-3","","Clear"
"-81.38","48.57","TIMMINS A","6078286","2021-12-12 20:00","2021","12","12","20:00","-0.7","","-2.8","","86","","","","24","","8","","24.1","","96.77","","","","-4","","NA"
"-81.38","48.57","TIMMINS A","6078286","2021-12-12 21:00","2021","12","12","21:00","-0.3","","-2.2","","87","","","","24","","9","","24.1","","96.88","","","","-3","","NA"
"-81.38","48.57","TIMMINS A","6078286","2021-12-12 22:00","2021","12","12","22:00","-0.2","","-1.9","","88","","","","23","","9","","24.1","","96.95","","","","-3","","Mostly Cloudy"
"-81.38","48.57","TIMMINS A","6078286","2021-12-12 23:00","2021","12","12","23:00","-0.1","","-1.6","","89","","","","23","","8","","24.1","","97.03","","","","-3","","NA"
"-81.38","48.57","TIMMINS A","6078286","2021-12-13 00:00","2021","12","13","00:00","-1.4","","-2.5","","92","","","","23","","8","","24.1","","97.09","","","","-4","","NA"
"-81.38","48.57","TIMMINS A","6078286","2021-12-13 01:00","2021","12","13","01:00","-1.5","","-2.5","","93","","","","22","","11","","24.1","","97.17","","","","-5","","Mostly Cloudy"
"-81.38","48.57","TIMMINS A","6078286","2021-12-13 02:00","2021","12","13","02:00","-0.9","","-2.0","","92","","","","24","","12","","24.1","","97.25","","","","-5","","NA"
"-81.38","48.57","TIMMINS A","6078286","2021-12-13 03:00","2021","12","13","03:00","-1.2","","-2.1","","93","","","","22","","4","","24.1","","97.29","","","","-3","","NA"
"-81.38","48.57","TIMMINS A","6078286","2021-12-13 04:00","2021","12","13","04:00","-2.5","","-3.0","","97","","","","20","","10","","24.1","","97.30","","","","-6","","Cloudy"
"-81.38","48.57","TIMMINS A","6078286","2021-12-13 05:00","2021","12","13","05:00","-2.4","","-2.9","","97","","","","20","","9","","24.1","","97.27","","","","-6","","NA"
"-81.38","48.57","TIMMINS A","6078286","2021-12-13 06:00","2021","12","13","06:00","-2.0","","-2.6","","96","","","","20","","8","","24.1","","97.25","","","","-5","","NA"
"-81.38","48.57","TIMMINS A","6078286","2021-12-13 07:00","2021","12","13","07:00","-0.9","","-2.1","","91","","","","20","","12","","24.1","","97.27","","","","-5","","Snow"
"-81.38","48.57","TIMMINS A","6078286","2021-12-13 08:00","2021","12","13","08:00","-0.4","","-2.0","","89","","","","20","","18","","24.1","","97.28","","","","-5","","NA"
"-81.38","48.57","TIMMINS A","6078286","2021-12-13 09:00","2021","12","13","09:00","-0.5","","-1.9","","90","","","","20","","13","","16.1","","97.26","","","","-5","","Snow"
"-81.38","48.57","TIMMINS A","6078286","2021-12-13 10:00","2021","12","13","10:00","0.0","","-2.0","","87","","","","22","","11","","24.1","","97.27","","","","-4","","Mostly Cloudy"
"-81.38","48.57","TIMMINS A","6078286","2021-12-13 11:00","2021","12","13","11:00","1.3","","-1.6","","81","","","","23","","9","","24.1","","97.27","","","","","","NA"
"-81.38","48.57","TIMMINS A","6078286","2021-12-13 12:00","2021","12","13","12:00","1.6","","-1.2","","82","","","","24","","18","","24.1","","97.24","","","","","","NA"
"-81.38","48.57","TIMMINS A","6078286","2021-12-13 13:00","2021","12","13","13:00","1.4","","-0.9","","85","","","","24","","13","","24.1","","97.33","","","","","","Cloudy"
"-81.38","48.57","TIMMINS A","6078286","2021-12-13 14:00","2021","12","13","14:00","1.7","","-0.3","","86","","","","26","","14","","24.1","","97.38","","","","","","NA"
"-81.38","48.57","TIMMINS A","6078286","2021-12-13 15:00","2021","12","13","15:00","1.7","","0.1","","89","","","","27","","12","","24.1","","97.51","","","","","","NA"
"-81.38","48.57","TIMMINS A","6078286","2021-12-13 16:00","2021","12","13","16:00","1.8","","0.1","","88","","","","29","","21","","24.1","","97.70","","","","","","Cloudy"
"-81.38","48.57","TIMMINS A","6078286","2021-12-13 17:00","2021","12","13","17:00","1.1","","-1.4","","83","","","","29","","13","","24.1","","97.90","","","","","","NA"
"-81.38","48.57","TIMMINS A","6078286","2021-12-13 18:00","2021","12","13","18:00","0.7","","-1.3","","86","","","","30","","22","","24.1","","98.08","","","","","","Snow"
"-81.38","48.57","TIMMINS A","6078286","2021-12-13 19:00","2021","12","13","19:00","-0.4","","-2.0","","89","","","","32","","30","","4.0","","98.34","","","","-7","","Snow,Blowing Snow"
"-81.38","48.57","TIMMINS A","6078286","2021-12-13 20:00","2021","12","13","20:00","-1.7","","-3.5","","87","","","","34","","24","","8.1","","98.59","","","","-8","","Snow,Blowing Snow"
"-81.38","48.57","TIMMINS A","6078286","2021-12-13 21:00","2021","12","13","21:00","-3.3","","-5.6","","84","","","","32","","22","","24.1","","98.83","","","","-10","","Snow,Blowing Snow"
"-81.38","48.57","TIMMINS A","6078286","2021-12-13 22:00","2021","12","13","22:00","-4.4","","-7.4","","80","","","","33","","21","","24.1","","98.95","","","","-11","","Snow,Blowing Snow"
"-81.38","48.57","TIMMINS A","6078286","2021-12-13 23:00","2021","12","13","23:00","-6.1","","-8.8","","81","","","","33","","17","","24.1","","99.12","","","","-12","","Snow,Blowing Snow"
"-81.38","48.57","TIMMINS A","6078286","2021-12-14 00:00","2021","12","14","00:00","-5.8","","-8.5","","82","","","","31","","13","","24.1","","99.24","","","","-11","","Snow"
"-81.38","48.57","TIMMINS A","6078286","2021-12-14 01:00","2021","12","14","01:00","-5.8","","-8.1","","84","","","","31","","13","","24.1","","99.34","","","","-11","","Snow"
"-81.38","48.57","TIMMINS A","6078286","2021-12-14 02:00","2021","12","14","02:00","-5.8","","-8.4","","82","","","","31","","11","","24.1","","99.47","","","","-11","","Snow"
"-81.38","48.57","TIMMINS A","6078286","2021-12-14 03:00","2021","12","14","03:00","-5.8","","-8.4","","82","","","","29","","7","","24.1","","99.57","","","","-9","","Snow"
"-81.38","48.57","TIMMINS A","6078286","2021-12-14 04:00","2021","12","14","04:00","-6.0","","-8.6","","82","","","","29","","12","","24.1","","99.65","","","","-11","","Cloudy"
"-81.38","48.57","TIMMINS A","6078286","2021-12-14 05:00","2021","12","14","05:00","-6.3","","-9.1","","81","","","","32","","10","","24.1","","99.72","","","","-11","","NA"
"-81.38","48.57","TIMMINS A","6078286","2021-12-14 06:00","2021","12","14","06:00","-6.7","","-9.2","","83","","","","35","","8","","24.1","","99.76","","","","-11","","NA"
"-81.38","48.57","TIMMINS A","6078286","2021-12-14 07:00","2021","12","14","07:00","-7.0","","-9.1","","85","","","","36","","2","","24.1","","99.83","","","","-8","","Cloudy"
"-81.38","48.57","TIMMINS A","6078286","2021-12-14 08:00","2021","12","14","08:00","-7.0","","-9.4","","83","","","","25","","3","","24.1","","99.86","","","","-9","","NA"
"-81.38","48.57","TIMMINS A","6078286","2021-12-14 09:00","2021","12","14","09:00","-6.7","","-9.5","","81","","","","27","","3","","24.1","","99.94","","","","-8","","NA"
"-81.38","48.57","TIMMINS A","6078286","2021-12-14 10:00","2021","12","14","10:00","-6.1","","-9.4","","77","","","","36","","2","","24.1","","100.02","","","","-7","","Mostly Cloudy"
"-81.38","48.57","TIMMINS A","6078286","2021-12-14 11:00","2021","12","14","11:00","-5.4","","-9.4","","73","","","","36","","3","","24.1","","100.05","","","","-7","","NA"
"-81.38","48.57","TIMMINS A","6078286","2021-12-14 12:00","2021","12","14","12:00","-5.1","","-9.2","","73","","","","18","","12","","24.1","","100.03","","","","-10","","NA"
"-81.38","48.57","TIMMINS A","6078286","2021-12-14 13:00","2021","12","14","13:00","-4.8","","-8.7","","74","","","","17","","9","","24.1","","99.99","","","","-9","","Mostly Cloudy"
"-81.38","48.57","TIMMINS A","6078286","2021-12-14 14:00","2021","12","14","14:00","-3.9","","-8.4","","71","","","","15","","12","","24.1","","99.96","","","","-9","","NA"
"-81.38","48.57","TIMMINS A","6078286","2021-12-14 15:00","2021","12","14","15:00","-4.1","","-8.1","","74","","","","17","","7","","24.1","","99.91","","","","-7","","NA"
"-81.38","48.57","TIMMINS A","6078286","2021-12-14 16:00","2021","12","14","16:00","-4.3","","-8.2","","74","","","","15","","10","","24.1","","99.88","","","","-8","","Mostly Cloudy"
"-81.38","48.57","TIMMINS A","6078286","2021-12-14 17:00","2021","12","14","17:00","-5.1","","-8.2","","79","","","","13","","8","","24.1","","99.87","","","","-9","","NA"
"-81.38","48.57","TIMMINS A","6078286","2021-12-14 18:00","2021","12","14","18:00","-5.2","","-8.1","","81","","","","14","","10","","24.1","","99.89","","","","-10","","NA"
"-81.38","48.57","TIMMINS A","6078286","2021-12-14 19:00","2021","12","14","19:00","-5.3","","-7.8","","83","","","","14","","9","","24.1","","99.87","","","","-9","","Cloudy"
"-81.38","48.57","TIMMINS A","6078286","2021-12-14 20:00","2021","12","14","20:00","-5.3","","-7.7","","84","","","","13","","10","","24.1","","99.83","","","","-10","","NA"
"-81.38","48.57","TIMMINS A","6078286","2021-12-14 21:00","2021","12","14","21:00","-4.9","","-7.5","","82","","","","12","","11","","24.1","","99.75","","","","-9","","NA"
"-81.38","48.57","TIMMINS A","6078286","2021-12-14 22:00","2021","12","14","22:00","-4.6","","-7.5","","80","","","","13","","13","","24.1","","99.68","","","","-10","","Cloudy"
"-81.38","48.57","TIMMINS A","6078286","2021-12-14 23:00","2021","12","14","23:00","-4.6","","-7.8","","78","","","","12","","13","","24.1","","99.64","","","","-10","","NA"
"-81.38","48.57","TIMMINS A","6078286","2021-12-15 00:00","2021","12","15","00:00","-4.9","","-8.2","","78","","","","13","","16","","24.1","","99.49","","","","-11","","NA"
"-81.38","48.57","TIMMINS A","6078286","2021-12-15 01:00","2021","12","15","01:00","-4.0","","-9.3","","66","","","","14","","19","","24.1","","99.32","","","","-10","","Mostly Cloudy"
"-81.38","48.57","TIMMINS A","6078286","2021-12-15 02:00","2021","12","15","02:00","-4.6","","-9.7","","68","","","","14","","18","","24.1","","99.25","","","","-11","","NA"
"-81.38","48.57","TIMMINS A","6078286","2021-12-15 03:00","2021","12","15","03:00","-5.0","","-9.2","","73","","","","14","","18","","24.1","","99.17","","","","-11","","NA"
"-81.38","48.57","TIMMINS A","6078286","2021-12-15 04:00","2021","12","15","04:00","-4.3","","-8.6","","72","","","","13","","17","","24.1","","98.97","","","","-10","","Cloudy"
"-81.38","48.57","TIMMINS A","6078286","2021-12-15 05:00","2021","12","15","05:00","-3.6","","-8.4","","69","","","","15","","19","","24.1","","98.84","","","","-10","","NA"
"-81.38","48.57","TIMMINS A","6078286","2021-12-15 06:00","2021","12","15","06:00","-3.3","","-8.4","","68","","","","15","","21","","24.1","","98.68","","","","-10","","NA"
"-81.38","48.57","TIMMINS A","6078286","2021-12-15 07:00","2021","12","15","07:00","-2.8","","-8.3","","66","","","","14","","23","","24.1","","98.57","","","","-9","","Cloudy"
"-81.38","48.57","TIMMINS A","6078286","2021-12-15 08:00","2021","12","15","08:00","-2.6","","-8.4","","65","","","","15","","24","","24.1","","98.41","","","","-9","","NA"
"-81.38","48.57","TIMMINS A","6078286","2021-12-15 09:00","2021","12","15","09:00","-2.4","","-8.2","","65","","","","15","","25","","24.1","","98.27","","","","-9","","NA"
"-81.38","48.57","TIMMINS A","6078286","2021-12-15 10:00","2021","12","15","10:00","-1.0","","-7.2","","63","","","","16","","24","","24.1","","98.15","","","","-7","","Cloudy"
"-81.38","48.57","TIMMINS A","6078286","2021-12-15 11:00","2021","12","15","11:00","0.3","","-6.3","","61","","","","16","","30","","24.1","","98.05","","","","","","NA"
"-81.38","48.57","TIMMINS A","6078286","2021-12-15 12:00","2021","12","15","12:00","0.6","","-5.0","","66","","","","16","","25","","24.1","","97.85","","","","","","NA"
"-81.38","48.57","TIMMINS A","6078286","2021-12-15 13:00","2021","12","15","13:00","1.1","","-3.3","","72","","","","17","","25","","24.1","","97.75","","","","","","Cloudy"
"-81.38","48.57","TIMMINS A","6078286","2021-12-15 14:00","2021","12","15","14:00","1.4","","-1.5","","81","","","","17","","21","","24.1","","97.64","","","","","","NA"
"-81.38","48.57","TIMMINS A","6078286","2021-12-15 15:00","2021","12","15","15:00","1.4","","-0.7","","86","","","","17","","26","","24.1","","97.54","","","","","","NA"
"-81.38","48.57","TIMMINS A","6078286","2021-12-15 16:00","2021","12","15","16:00","1.5","","0.0","","89","","","","16","","19","","24.1","","97.47","","","","","","Cloudy"
"-81.38","48.57","TIMMINS A","6078286","2021-12-15 17:00","2021","12","15","17:00","1.6","","0.4","","92","","","","17","","23","","24.1","","97.45","","","","","","NA"
"-81.38","48.57","TIMMINS A","6078286","2021-12-15 18:00","2021","12","15","18:00","1.4","","0.6","","94","","","","16","","21","","24.1","","97.38","","","","","","NA"
"-81.38","48.57","TIMMINS A","6078286","2021-12-15 19:00","2021","12","15","19:00","1.4","","0.8","","96","","","","15","","16","","24.1","","97.32","","","","","","Cloudy"
"-81.38","48.57","TIMMINS A","6078286","2021-12-15 20:00","2021","12","15","20:00","1.4","","1.1","","97","","","","15","","19","","14.5","","97.23","","","","","","NA"
"-81.38","48.57","TIMMINS A","6078286","2021-12-15 21:00","2021","12","15","21:00","1.5","","1.3","","98","","","","15","","18","","11.3","","97.12","","","","","","NA"
"-81.38","48.57","TIMMINS A","6078286","2021-12-15 22:00","2021","12","15","22:00","2.1","","1.6","","97","","","","16","","18","","11.3","","97.01","","","","","","Cloudy"
"-81.38","48.57","TIMMINS A","6078286","2021-12-15 23:00","2021","12","15","23:00","2.1","","1.9","","98","","","","16","","18","","11.3","","96.95","","","","","","NA"
"-81.38","48.57","TIMMINS A","6078286","2021-12-16 00:00","2021","12","16","00:00","2.4","","2.1","","98","","","","16","","17","","11.3","","96.82","","","","","","NA"
"-81.38","48.57","TIMMINS A","6078286","2021-12-16 01:00","2021","12","16","01:00","2.7","","2.5","","98","","","","15","","17","","11.3","","96.64","","","","","","Cloudy"
"-81.38","48.57","TIMMINS A","6078286","2021-12-16 02:00","2021","12","16","02:00","3.2","","3.1","","99","","","","15","","21","","3.2","","96.42","","","","","","Fog"
"-81.38","48.57","TIMMINS A","6078286","2021-12-16 03:00","2021","12","16","03:00","4.1","","4.0","","99","","","","16","","25","","4.8","","96.26","","","","","","Rain,Fog"
"-81.38","48.57","TIMMINS A","6078286","2021-12-16 04:00","2021","12","16","04:00","4.1","","3.9","","99","","","","17","","19","","8.1","","96.18","","","","","","Fog"
"-81.38","48.57","TIMMINS A","6078286","2021-12-16 05:00","2021","12","16","05:00","5.5","","5.3","","99","","","","16","","20","","1.6","","95.80","","","","","","Fog"
"-81.38","48.57","TIMMINS A","6078286","2021-12-16 06:00","2021","12","16","06:00","6.1","","6.0","","99","","","","16","","26","","4.0","","95.56","","","","","","Fog"
"-81.38","48.57","TIMMINS A","6078286","2021-12-16 07:00","2021","12","16","07:00","6.8","","6.7","","99","","","","16","","23","","6.4","","95.36","","","","","","Rain,Fog"
"-81.38","48.57","TIMMINS A","6078286","2021-12-16 08:00","2021","12","16","08:00","7.5","","7.3","","98","","","","17","","32","","6.4","","95.13","","","","","","Rain"
"-81.38","48.57","TIMMINS A","6078286","2021-12-16 09:00","2021","12","16","09:00","8.0","","7.1","","94","","","","17","","30","","9.7","","94.94","","","","","","Rain"
"-81.38","48.57","TIMMINS A","6078286","2021-12-16 10:00","2021","12","16","10:00","7.8","","7.1","","96","","","","19","","27","","4.0","","94.90","","","","","","Rain,Fog"
"-81.38","48.57","TIMMINS A","6078286","2021-12-16 11:00","2021","12","16","11:00","8.2","","6.4","","89","","","","21","","23","","8.1","","94.93","","","","","","Rain"
"-81.38","48.57","TIMMINS A","6078286","2021-12-16 12:00","2021","12","16","12:00","7.2","","4.7","","84","","","","21","","22","","16.1","","94.94","","","","","","Rain"
"-81.38","48.57","TIMMINS A","6078286","2021-12-16 13:00","2021","12","16","13:00","5.5","","4.4","","92","","","","21","","20","","8.1","","95.01","","","","","","Rain Showers,Fog"
"-81.38","48.57","TIMMINS A","6078286","2021-12-16 14:00","2021","12","16","14:00","4.2","","2.8","","90","","","","22","","22","","8.1","","95.07","","","","","","Rain Showers,Fog"
"-81.38","48.57","TIMMINS A","6078286","2021-12-16 15:00","2021","12","16","15:00","4.0","","1.0","","81","","","","21","","27","","16.1","","95.08","","","","","","Rain Showers"
"-81.38","48.57","TIMMINS A","6078286","2021-12-16 16:00","2021","12","16","16:00","3.7","","0.2","","78","","","","21","","21","","24.1","","95.07","","","","","","Cloudy"
"-81.38","48.57","TIMMINS A","6078286","2021-12-16 17:00","2021","12","16","17:00","3.7","","-0.7","","73","","","","22","","29","","24.1","","95.12","","","","","","NA"
"-81.38","48.57","TIMMINS A","6078286","2021-12-16 18:00","2021","12","16","18:00","1.9","","0.2","","88","","","","23","","18","","24.1","","95.22","","","","","","Rain"
"-81.38","48.57","TIMMINS A","6078286","2021-12-16 19:00","2021","12","16","19:00","1.0","","-0.1","","92","","","","23","","23","","8.1","","95.32","","","","","","Rain,Snow"
"-81.38","48.57","TIMMINS A","6078286","2021-12-16 20:00","2021","12","16","20:00","0.5","","-0.6","","93","","","","24","","20","","6.4","","95.45","","","","","","Snow"
"-81.38","48.57","TIMMINS A","6078286","2021-12-16 21:00","2021","12","16","21:00","0.2","","-0.7","","94","","","","23","","24","","6.4","","95.59","","","","","","Snow"
"-81.38","48.57","TIMMINS A","6078286","2021-12-16 22:00","2021","12","16","22:00","-0.1","","-1.1","","93","","","","23","","19","","6.4","","95.72","","","","-5","","Snow"
"-81.38","48.57","TIMMINS A","6078286","2021-12-16 23:00","2021","12","16","23:00","-0.4","","-1.6","","92","","","","24","","25","","8.1","","95.88","","","","-6","","Snow"
"-81.38","48.57","TIMMINS A","6078286","2021-12-17 00:00","2021","12","17","00:00","-0.7","","-2.0","","91","","","","25","","16","","9.7","","96.05","","","","-5","","Snow"
"-81.38","48.57","TIMMINS A","6078286","2021-12-17 01:00","2021","12","17","01:00","-1.4","","-3.6","","85","","","","26","","21","","9.7","","96.28","","","","-7","","Snow"
"-81.38","48.57","TIMMINS A","6078286","2021-12-17 02:00","2021","12","17","02:00","-2.0","","-4.4","","83","","","","28","","36","","6.4","","96.51","","","","-10","","Snow"
"-81.38","48.57","TIMMINS A","6078286","2021-12-17 03:00","2021","12","17","03:00","-2.8","","-4.7","","87","","","","29","","15","","6.4","","96.72","","","","-8","","Snow"
"-81.38","48.57","TIMMINS A","6078286","2021-12-17 04:00","2021","12","17","04:00","-3.8","","-6.0","","85","","","","28","","18","","6.4","","96.90","","","","-10","","Snow"
"-81.38","48.57","TIMMINS A","6078286","2021-12-17 05:00","2021","12","17","05:00","-4.2","","-6.0","","88","","","","29","","10","","8.1","","97.06","","","","-8","","Snow"
"-81.38","48.57","TIMMINS A","6078286","2021-12-17 06:00","2021","12","17","06:00","-5.1","","-7.3","","85","","","","29","","18","","8.1","","97.23","","","","-11","","Snow"
"-81.38","48.57","TIMMINS A","6078286","2021-12-17 07:00","2021","12","17","07:00","-5.6","","-7.8","","85","","","","29","","20","","4.8","","97.38","","","","-12","","Snow,Blowing Snow"
"-81.38","48.57","TIMMINS A","6078286","2021-12-17 08:00","2021","12","17","08:00","-6.1","","-9.0","","81","","","","29","","23","","24.1","","97.53","","","","-13","","Snow,Blowing Snow"
"-81.38","48.57","TIMMINS A","6078286","2021-12-17 09:00","2021","12","17","09:00","-6.5","","-9.5","","80","","","","27","","21","","6.4","","97.71","","","","-14","","Snow,Blowing Snow"
"-81.38","48.57","TIMMINS A","6078286","2021-12-17 10:00","2021","12","17","10:00","-7.4","","-10.1","","81","","","","30","","23","","3.2","","97.90","","","","-15","","Snow,Blowing Snow"
"-81.38","48.57","TIMMINS A","6078286","2021-12-17 11:00","2021","12","17","11:00","-7.6","","-11.9","","71","","","","30","","23","","9.7","","98.06","","","","-15","","Snow,Blowing Snow"
"-81.38","48.57","TIMMINS A","6078286","2021-12-17 12:00","2021","12","17","12:00","-7.9","","-12.0","","73","","","","29","","23","","8.1","","98.20","","","","-16","","Snow,Blowing Snow"
"-81.38","48.57","TIMMINS A","6078286","2021-12-17 13:00","2021","12","17","13:00","-8.3","","-12.0","","75","","","","29","","27","","4.0","","98.31","","","","-17","","Snow,Blowing Snow"
"-81.38","48.57","TIMMINS A","6078286","2021-12-17 14:00","2021","12","17","14:00","-8.6","","-12.7","","73","","","","29","","17","","6.4","","98.47","","","","-15","","Snow,Blowing Snow"
"-81.38","48.57","TIMMINS A","6078286","2021-12-17 15:00","2021","12","17","15:00","-9.0","","-13.0","","73","","","","29","","14","","6.4","","98.59","","","","-15","","Snow,Blowing Snow"
"-81.38","48.57","TIMMINS A","6078286","2021-12-17 16:00","2021","12","17","16:00","-9.1","","-12.6","","76","","","","28","","13","","8.1","","98.73","","","","-15","","Snow"
"-81.38","48.57","TIMMINS A","6078286","2021-12-17 17:00","2021","12","17","17:00","-9.4","","-12.5","","78","","","","28","","16","","8.1","","98.86","","","","-16","","Snow,Blowing Snow"
"-81.38","48.57","TIMMINS A","6078286","2021-12-17 18:00","2021","12","17","18:00","-9.5","","-12.7","","78","","","","30","","9","","16.1","","98.92","","","","-14","","Snow,Blowing Snow"
"-81.38","48.57","TIMMINS A","6078286","2021-12-17 19:00","2021","12","17","19:00","-10.1","","-13.2","","79","","","","29","","10","","16.1","","99.03","","","","-15","","Snow"
"-81.38","48.57","TIMMINS A","6078286","2021-12-17 20:00","2021","12","17","20:00","-10.4","","-13.9","","76","","","","31","","15","","24.1","","99.10","","","","-17","","Snow"
"-81.38","48.57","TIMMINS A","6078286","2021-12-17 21:00","2021","12","17","21:00","-10.7","","-14.4","","75","","","","31","","14","","24.1","","99.13","","","","-17","","Snow"
"-81.38","48.57","TIMMINS A","6078286","2021-12-17 22:00","2021","12","17","22:00","-11.1","","-14.6","","75","","","","28","","14","","24.1","","99.20","","","","-18","","Snow"
"-81.38","48.57","TIMMINS A","6078286","2021-12-17 23:00","2021","12","17","23:00","-11.2","","-14.2","","79","","","","32","","10","","24.1","","99.17","","","","-17","","Snow"
"-81.38","48.57","TIMMINS A","6078286","2021-12-18 00:00","2021","12","18","00:00","-11.6","","-14.2","","81","","","","32","","7","","14.5","","99.18","","","","-16","","Snow"
"-81.38","48.57","TIMMINS A","6078286","2021-12-18 01:00","2021","12","18","01:00","-12.3","","-15.2","","79","","","","35","","11","","24.1","","99.19","","","","-18","","Snow"
"-81.38","48.57","TIMMINS A","6078286","2021-12-18 02:00","2021","12","18","02:00","-12.6","","-15.4","","80","","","","2","","7","","24.1","","99.19","","","","-17","","Snow"
"-81.38","48.57","TIMMINS A","6078286","2021-12-18 03:00","2021","12","18","03:00","-13.4","","-15.7","","83","","","","1","","11","","14.5","","99.19","","","","-20","","Snow"
"-81.38","48.57","TIMMINS A","6078286","2021-12-18 04:00","2021","12","18","04:00","-13.6","","-15.9","","83","","","","1","","4","","14.5","","99.17","","","","-16","","Snow"
"-81.38","48.57","TIMMINS A","6078286","2021-12-18 05:00","2021","12","18","05:00","-13.5","","-15.8","","83","","","","36","","2","","14.5","","99.13","","","","-15","","Snow"
"-81.38","48.57","TIMMINS A","6078286","2021-12-18 06:00","2021","12","18","06:00","-13.8","","-16.2","","82","","","","5","","7","","14.5","","99.08","","","","-18","","Snow"
"-81.38","48.57","TIMMINS A","6078286","2021-12-18 07:00","2021","12","18","07:00","-14.1","","-16.2","","84","","","","2","","5","","24.1","","99.02","","","","-18","","Snow"
"-81.38","48.57","TIMMINS A","6078286","2021-12-18 08:00","2021","12","18","08:00","-14.0","","-16.2","","84","","","","3","","12","","4.0","","98.99","","","","-21","","Snow"
"-81.38","48.57","TIMMINS A","6078286","2021-12-18 09:00","2021","12","18","09:00","-14.1","","-16.0","","86","","","","5","","10","","6.4","","98.98","","","","-20","","Snow"
"-81.38","48.57","TIMMINS A","6078286","2021-12-18 10:00","2021","12","18","10:00","-14.2","","-16.6","","82","","","","7","","8","","9.7","","98.95","","","","-19","","Snow"
"-81.38","48.57","TIMMINS A","6078286","2021-12-18 11:00","2021","12","18","11:00","-13.9","","-16.8","","79","","","","3","","9","","4.0","","98.89","","","","-20","","Snow"
"-81.38","48.57","TIMMINS A","6078286","2021-12-18 12:00","2021","12","18","12:00","-13.2","","-16.1","","79","","","","4","","7","","1.6","","98.75","","","","-18","","Snow"
"-81.38","48.57","TIMMINS A","6078286","2021-12-18 13:00","2021","12","18","13:00","-13.2","","-16.3","","78","","","","2","","10","","3.2","","98.65","","","","-19","","Snow"
"-81.38","48.57","TIMMINS A","6078286","2021-12-18 14:00","2021","12","18","14:00","-13.0","","-15.7","","80","","","","2","","10","","12.9","","98.59","","","","-19","","Snow"
"-81.38","48.57","TIMMINS A","6078286","2021-12-18 15:00","2021","12","18","15:00","-13.2","","-16.1","","79","","","","2","","7","","16.1","","98.52","","","","-18","","Snow"
"-81.38","48.57","TIMMINS A","6078286","2021-12-18 16:00","2021","12","18","16:00","-13.4","","-16.0","","81","","","","2","","9","","8.1","","98.54","","","","-19","","Snow Showers"
"-81.38","48.57","TIMMINS A","6078286","2021-12-18 17:00","2021","12","18","17:00","-13.7","","-16.2","","82","","","","3","","6","","16.1","","98.55","","","","-18","","Snow"
"-81.38","48.57","TIMMINS A","6078286","2021-12-18 18:00","2021","12","18","18:00","-13.7","","-16.2","","82","","","","36","","4","","24.1","","98.58","","","","-16","","Snow"
"-81.38","48.57","TIMMINS A","6078286","2021-12-18 19:00","2021","12","18","19:00","-14.1","","-16.7","","81","","","","1","","8","","19.3","","98.61","","","","-19","","Snow"
"-81.38","48.57","TIMMINS A","6078286","2021-12-18 20:00","2021","12","18","20:00","-14.1","","-16.5","","82","","","","36","","8","","24.1","","98.62","","","","-19","","Snow"
"-81.38","48.57","TIMMINS A","6078286","2021-12-18 21:00","2021","12","18","21:00","-14.3","","-16.7","","82","","","","35","","9","","24.1","","98.66","","","","-20","","Snow"
"-81.38","48.57","TIMMINS A","6078286","2021-12-18 22:00","2021","12","18","22:00","-14.6","","-17.0","","82","","","","36","","13","","24.1","","98.65","","","","-22","","Snow"
"-81.38","48.57","TIMMINS A","6078286","2021-12-18 23:00","2021","12","18","23:00","-15.3","","-18.1","","80","","","","34","","17","","24.1","","98.69","","","","-24","","Snow"
"-81.38","48.57","TIMMINS A","6078286","2021-12-19 00:00","2021","12","19","00:00","-15.5","","-18.1","","80","","","","36","","9","","24.1","","98.74","","","","-21","","Snow"
"-81.38","48.57","TIMMINS A","6078286","2021-12-19 01:00","2021","12","19","01:00","-16.0","","-18.8","","79","","","","31","","13","","24.1","","98.79","","","","-24","","Snow"
"-81.38","48.57","TIMMINS A","6078286","2021-12-19 02:00","2021","12","19","02:00","-16.6","","-19.5","","78","","","","31","","16","","24.1","","98.84","","","","-25","","Snow"
"-81.38","48.57","TIMMINS A","6078286","2021-12-19 03:00","2021","12","19","03:00","-17.0","","-19.9","","79","","","","32","","15","","24.1","","98.89","","","","-25","","Snow"
"-81.38","48.57","TIMMINS A","6078286","2021-12-19 04:00","2021","12","19","04:00","-16.9","","-19.8","","79","","","","33","","10","","24.1","","98.95","","","","-24","","Snow"
"-81.38","48.57","TIMMINS A","6078286","2021-12-19 05:00","2021","12","19","05:00","-17.7","","-20.3","","80","","","","31","","11","","24.1","","99.00","","","","-25","","Snow"
"-81.38","48.57","TIMMINS A","6078286","2021-12-19 06:00","2021","12","19","06:00","-19.9","","-22.0","","84","","","","28","","5","","24.1","","99.05","","","","-24","","NA"
"-81.38","48.57","TIMMINS A","6078286","2021-12-19 07:00","2021","12","19","07:00","-22.8","","-25.0","","82","","","","27","","4","","24.1","","99.07","","","","-27","","Mainly Clear"
"-81.38","48.57","TIMMINS A","6078286","2021-12-19 08:00","2021","12","19","08:00","-24.2","","-26.6","","81","","","","27","","6","","24.1","","99.12","","","","-30","","NA"
"-81.38","48.57","TIMMINS A","6078286","2021-12-19 09:00","2021","12","19","09:00","-22.2","","-24.3","","83","","","","36","","2","","24.1","","99.14","","","","-24","","NA"
"-81.38","48.57","TIMMINS A","6078286","2021-12-19 10:00","2021","12","19","10:00","-19.3","","-21.8","","81","","","","29","","3","","24.1","","99.21","","","","-22","","Mainly Clear"
"-81.38","48.57","TIMMINS A","6078286","2021-12-19 11:00","2021","12","19","11:00","-17.9","","-21.0","","77","","","","33","","3","","24.1","","99.21","","","","-20","","NA"
"-81.38","48.57","TIMMINS A","6078286","2021-12-19 12:00","2021","12","19","12:00","-17.2","","-21.5","","70","","","","16","","7","","24.1","","99.11","","","","-22","","NA"
"-81.38","48.57","TIMMINS A","6078286","2021-12-19 13:00","2021","12","19","13:00","-16.0","","-20.8","","67","","","","15","","10","","24.1","","99.06","","","","-22","","Mainly Clear"
"-81.38","48.57","TIMMINS A","6078286","2021-12-19 14:00","2021","12","19","14:00","-14.9","","-20.4","","64","","","","17","","10","","24.1","","99.01","","","","-21","","NA"
"-81.38","48.57","TIMMINS A","6078286","2021-12-19 15:00","2021","12","19","15:00","-14.5","","-20.1","","63","","","","15","","8","","24.1","","98.91","","","","-20","","NA"
"-81.38","48.57","TIMMINS A","6078286","2021-12-19 16:00","2021","12","19","16:00","-14.4","","-19.8","","64","","","","14","","12","","24.1","","98.85","","","","-21","","Mostly Cloudy"
"-81.38","48.57","TIMMINS A","6078286","2021-12-19 17:00","2021","12","19","17:00","-14.8","","-19.6","","67","","","","14","","9","","24.1","","98.80","","","","-21","","NA"
"-81.38","48.57","TIMMINS A","6078286","2021-12-19 18:00","2021","12","19","18:00","-13.9","","-18.8","","67","","","","16","","11","","24.1","","98.75","","","","-20","","NA"
"-81.38","48.57","TIMMINS A","6078286","2021-12-19 19:00","2021","12","19","19:00","-13.2","","-18.1","","67","","","","15","","16","","24.1","","98.62","","","","-21","","Cloudy"
"-81.38","48.57","TIMMINS A","6078286","2021-12-19 20:00","2021","12","19","20:00","-12.7","","-17.2","","69","","","","16","","16","","24.1","","98.49","","","","-20","","NA"
"-81.38","48.57","TIMMINS A","6078286","2021-12-19 21:00","2021","12","19","21:00","-12.5","","-16.9","","70","","","","16","","18","","24.1","","98.37","","","","-21","","NA"
"-81.38","48.57","TIMMINS A","6078286","2021-12-19 22:00","2021","12","19","22:00","-11.2","","-15.6","","70","","","","17","","19","","24.1","","98.25","","","","-19","","Mostly Cloudy"
"-81.38","48.57","TIMMINS A","6078286","2021-12-19 23:00","2021","12","19","23:00","-10.1","","-14.3","","72","","","","17","","23","","24.1","","98.10","","","","-19","","NA"
"-81.38","48.57","TIMMINS A","6078286","2021-12-20 00:00","2021","12","20","00:00","-9.1","","-13.0","","74","","","","17","","23","","24.1","","97.95","","","","-17","","NA"
"-81.38","48.57","TIMMINS A","6078286","2021-12-20 01:00","2021","12","20","01:00","-8.0","","-11.7","","75","","","","18","","27","","24.1","","97.79","","","","-16","","Mostly Cloudy"
"-81.38","48.57","TIMMINS A","6078286","2021-12-20 02:00","2021","12","20","02:00","-7.6","","-10.5","","80","","","","18","","24","","24.1","","97.63","","","","-16","","Snow Showers"
"-81.38","48.57","TIMMINS A","6078286","2021-12-20 03:00","2021","12","20","03:00","-6.5","","-9.4","","80","","","","18","","27","","24.1","","97.58","","","","-15","","Snow Showers"
"-81.38","48.57","TIMMINS A","6078286","2021-12-20 04:00","2021","12","20","04:00","-5.9","","-7.7","","87","","","","18","","26","","4.0","","97.37","","","","-14","","Snow Showers"
"-81.38","48.57","TIMMINS A","6078286","2021-12-20 05:00","2021","12","20","05:00","-5.0","","-6.9","","86","","","","18","","23","","24.1","","97.27","","","","-12","","Snow Showers"
"-81.38","48.57","TIMMINS A","6078286","2021-12-20 06:00","2021","12","20","06:00","-3.7","","-5.6","","87","","","","20","","17","","4.0","","97.19","","","","-9","","Snow Showers,Blowing Snow"
"-81.38","48.57","TIMMINS A","6078286","2021-12-20 07:00","2021","12","20","07:00","-3.4","","-4.5","","92","","","","20","","14","","3.2","","97.15","","","","-8","","Snow,Blowing Snow"
"-81.38","48.57","TIMMINS A","6078286","2021-12-20 08:00","2021","12","20","08:00","-2.9","","-4.1","","91","","","","20","","11","","24.1","","97.11","","","","-7","","Snow"
"-81.38","48.57","TIMMINS A","6078286","2021-12-20 09:00","2021","12","20","09:00","-1.8","","-3.9","","86","","","","21","","16","","24.1","","97.11","","","","-7","","Snow"
"-81.38","48.57","TIMMINS A","6078286","2021-12-20 10:00","2021","12","20","10:00","-1.7","","-3.8","","86","","","","22","","12","","24.1","","97.10","","","","-6","","Snow"
"-81.38","48.57","TIMMINS A","6078286","2021-12-20 11:00","2021","12","20","11:00","-1.6","","-3.5","","87","","","","21","","17","","8.1","","97.06","","","","-7","","Freezing Drizzle"
"-81.38","48.57","TIMMINS A","6078286","2021-12-20 12:00","2021","12","20","12:00","-1.4","","-3.2","","88","","","","22","","18","","9.7","","96.95","","","","-7","","Freezing Drizzle,Blowing Snow"
"-81.38","48.57","TIMMINS A","6078286","2021-12-20 13:00","2021","12","20","13:00","-1.2","","-2.9","","88","","","","22","","14","","4.8","","96.93","","","","-6","","Freezing Drizzle,Snow,Blowing Snow"
"-81.38","48.57","TIMMINS A","6078286","2021-12-20 14:00","2021","12","20","14:00","-1.4","","-2.8","","90","","","","24","","13","","4.0","","96.90","","","","-6","","Snow,Blowing Snow"
"-81.38","48.57","TIMMINS A","6078286","2021-12-20 15:00","2021","12","20","15:00","-1.3","","-3.2","","87","","","","25","","9","","24.1","","96.89","","","","-5","","Snow"
"-81.38","48.57","TIMMINS A","6078286","2021-12-20 16:00","2021","12","20","16:00","-1.2","","-5.2","","75","","","","27","","16","","24.1","","96.92","","","","-6","","Mostly Cloudy"
"-81.38","48.57","TIMMINS A","6078286","2021-12-20 17:00","2021","12","20","17:00","-2.5","","-6.2","","75","","","","29","","21","","24.1","","96.99","","","","-9","","Snow Showers,Blowing Snow"
"-81.38","48.57","TIMMINS A","6078286","2021-12-20 18:00","2021","12","20","18:00","-5.4","","-8.6","","78","","","","32","","27","","6.4","","97.15","","","","-13","","Snow Showers,Blowing Snow"
"-81.38","48.57","TIMMINS A","6078286","2021-12-20 19:00","2021","12","20","19:00","-8.2","","-11.6","","77","","","","31","","22","","8.1","","97.35","","","","-16","","Snow Showers,Blowing Snow"
"-81.38","48.57","TIMMINS A","6078286","2021-12-20 20:00","2021","12","20","20:00","-9.9","","-13.3","","76","","","","31","","25","","4.0","","97.45","","","","-19","","Snow,Blowing Snow"
"-81.38","48.57","TIMMINS A","6078286","2021-12-20 21:00","2021","12","20","21:00","-11.4","","-16.6","","66","","","","31","","26","","24.1","","97.57","","","","-21","","Snow Showers,Blowing Snow"
"-81.38","48.57","TIMMINS A","6078286","2021-12-20 22:00","2021","12","20","22:00","-12.9","","-17.9","","66","","","","30","","27","","24.1","","97.65","","","","-23","","Snow Showers,Blowing Snow"
"-81.38","48.57","TIMMINS A","6078286","2021-12-20 23:00","2021","12","20","23:00","-13.7","","-18.5","","67","","","","30","","28","","24.1","","97.72","","","","-24","","Snow Showers,Blowing Snow"
"-81.38","48.57","TIMMINS A","6078286","2021-12-21 00:00","2021","12","21","00:00","-14.2","","-19.3","","66","","","","29","","30","","24.1","","97.81","","","","-25","","Snow,Blowing Snow"
"-81.38","48.57","TIMMINS A","6078286","2021-12-21 01:00","2021","12","21","01:00","-14.8","","-19.7","","66","","","","29","","15","","24.1","","97.87","","","","-23","","Snow,Blowing Snow"
"-81.38","48.57","TIMMINS A","6078286","2021-12-21 02:00","2021","12","21","02:00","-15.7","","-20.5","","67","","","","29","","20","","24.1","","97.96","","","","-25","","Snow,Blowing Snow"
"-81.38","48.57","TIMMINS A","6078286","2021-12-21 03:00","2021","12","21","03:00","-16.6","","-20.8","","71","","","","28","","19","","24.1","","98.06","","","","-26","","Blowing Snow"
"-81.38","48.57","TIMMINS A","6078286","2021-12-21 04:00","2021","12","21","04:00","-17.6","","-21.1","","74","","","","28","","10","","24.1","","98.10","","","","-24","","Blowing Snow"
"-81.38","48.57","TIMMINS A","6078286","2021-12-21 05:00","2021","12","21","05:00","-18.2","","-21.5","","76","","","","27","","14","","24.1","","98.21","","","","-27","","NA"
"-81.38","48.57","TIMMINS A","6078286","2021-12-21 06:00","2021","12","21","06:00","-19.1","","-22.0","","78","","","","27","","10","","24.1","","98.19","","","","-26","","NA"
"-81.38","48.57","TIMMINS A","6078286","2021-12-21 07:00","2021","12","21","07:00","-20.3","","-22.7","","82","","","","26","","7","","24.1","","98.26","","","","-26","","Mainly Clear"
"-81.38","48.57","TIMMINS A","6078286","2021-12-21 08:00","2021","12","21","08:00","-21.1","","-23.2","","83","","","","36","","2","","24.1","","98.18","","","","-23","","NA"
"-81.38","48.57","TIMMINS A","6078286","2021-12-21 09:00","2021","12","21","09:00","-20.3","","-22.7","","82","","","","23","","6","","24.1","","98.20","","","","-25","","NA"
"-81.38","48.57","TIMMINS A","6078286","2021-12-21 10:00","2021","12","21","10:00","-18.6","","-22.2","","74","","","","36","","1","","24.1","","98.16","","","","-19","","Mostly Cloudy"
"-81.38","48.57","TIMMINS A","6078286","2021-12-21 11:00","2021","12","21","11:00","-18.1","","-22.4","","69","","","","0","","1","","24.1","","98.11","","","","-19","","NA"
"-81.38","48.57","TIMMINS A","6078286","2021-12-21 12:00","2021","12","21","12:00","-16.9","","-21.3","","69","","","","36","","3","","24.1","","97.98","","","","-19","","NA"
"-81.38","48.57","TIMMINS A","6078286","2021-12-21 13:00","2021","12","21","13:00","-16.1","","-20.9","","67","","","","13","","9","","24.1","","97.79","","","","-22","","Cloudy"
"-81.38","48.57","TIMMINS A","6078286","2021-12-21 14:00","2021","12","21","14:00","-15.4","","-19.9","","69","","","","14","","11","","24.1","","97.72","","","","-22","","NA"
"-81.38","48.57","TIMMINS A","6078286","2021-12-21 15:00","2021","12","21","15:00","-14.9","","-19.5","","69","","","","12","","13","","24.1","","97.64","","","","-22","","NA"
"-81.38","48.57","TIMMINS A","6078286","2021-12-21 16:00","2021","12","21","16:00","-14.7","","-19.1","","70","","","","13","","14","","24.1","","97.51","","","","-22","","Cloudy"
"-81.38","48.57","TIMMINS A","6078286","2021-12-21 17:00","2021","12","21","17:00","-14.7","","-18.0","","76","","","","10","","16","","2.4","","97.35","","","","-23","","Snow"
"-81.38","48.57","TIMMINS A","6078286","2021-12-21 18:00","2021","12","21","18:00","-14.6","","-16.9","","82","","","","10","","13","","2.4","","97.20","","","","-22","","Snow"
"-81.38","48.57","TIMMINS A","6078286","2021-12-21 19:00","2021","12","21","19:00","-14.3","","-16.7","","82","","","","11","","14","","3.2","","97.03","","","","-22","","Snow"
"-81.38","48.57","TIMMINS A","6078286","2021-12-21 20:00","2021","12","21","20:00","-14.2","","-16.2","","84","","","","9","","14","","2.4","","96.92","","","","-22","","Snow"
"-81.38","48.57","TIMMINS A","6078286","2021-12-21 21:00","2021","12","21","21:00","-13.9","","-15.9","","85","","","","7","","13","","2.4","","96.77","","","","-21","","Snow"
"-81.38","48.57","TIMMINS A","6078286","2021-12-21 22:00","2021","12","21","22:00","-14.1","","-16.2","","85","","","","4","","12","","2.4","","96.67","","","","-21","","Snow"
"-81.38","48.57","TIMMINS A","6078286","2021-12-21 23:00","2021","12","21","23:00","-14.2","","-16.1","","85","","","","3","","13","","2.4","","96.53","","","","-21","","Snow"
"-81.38","48.57","TIMMINS A","6078286","2021-12-22 00:00","2021","12","22","00:00","-14.0","","-16.1","","85","","","","1","","13","","2.4","","96.45","","","","-21","","Snow"
"-81.38","48.57","TIMMINS A","6078286","2021-12-22 01:00","2021","12","22","01:00","-14.0","","-16.1","","84","","","","3","","14","","2.4","","96.38","","","","-21","","Snow"
"-81.38","48.57","TIMMINS A","6078286","2021-12-22 02:00","2021","12","22","02:00","-14.1","","-16.2","","84","","","","1","","11","","4.8","","96.34","","","","-21","","Snow"
"-81.38","48.57","TIMMINS A","6078286","2021-12-22 03:00","2021","12","22","03:00","-15.3","","-17.3","","85","","","","34","","14","","24.1","","96.38","","","","-23","","Snow"
"-81.38","48.57","TIMMINS A","6078286","2021-12-22 04:00","2021","12","22","04:00","-15.3","","-17.4","","84","","","","34","","16","","19.3","","96.41","","","","-24","","Snow"
"-81.38","48.57","TIMMINS A","6078286","2021-12-22 05:00","2021","12","22","05:00","-15.4","","-17.7","","83","","","","33","","21","","9.7","","96.48","","","","-25","","Snow"
"-81.38","48.57","TIMMINS A","6078286","2021-12-22 06:00","2021","12","22","06:00","-17.1","","-19.3","","83","","","","32","","18","","24.1","","96.60","","","","-26","","Snow"
"-81.38","48.57","TIMMINS A","6078286","2021-12-22 07:00","2021","12","22","07:00","-18.0","","-20.2","","83","","","","32","","17","","24.1","","96.72","","","","-27","","Snow"
"-81.38","48.57","TIMMINS A","6078286","2021-12-22 08:00","2021","12","22","08:00","-18.8","","-21.1","","82","","","","31","","19","","24.1","","96.88","","","","-29","","NA"
"-81.38","48.57","TIMMINS A","6078286","2021-12-22 09:00","2021","12","22","09:00","-19.1","","-21.3","","83","","","","32","","23","","24.1","","97.05","","","","-30","","Blowing Snow"
"-81.38","48.57","TIMMINS A","6078286","2021-12-22 10:00","2021","12","22","10:00","-19.0","","-21.5","","81","","","","31","","26","","12.9","","97.18","","","","-31","","Blowing Snow"
"-81.38","48.57","TIMMINS A","6078286","2021-12-22 11:00","2021","12","22","11:00","-18.8","","-21.3","","81","","","","30","","22","","11.3","","97.23","","","","-29","","Blowing Snow"
"-81.38","48.57","TIMMINS A","6078286","2021-12-22 12:00","2021","12","22","12:00","-17.8","","-21.2","","75","","","","31","","18","","24.1","","97.24","","","","-27","","Blowing Snow"
"-81.38","48.57","TIMMINS A","6078286","2021-12-22 13:00","2021","12","22","13:00","-17.5","","-21.4","","72","","","","29","","15","","24.1","","97.29","","","","-26","","Blowing Snow"
"-81.38","48.57","TIMMINS A","6078286","2021-12-22 14:00","2021","12","22","14:00","-17.4","","-21.4","","72","","","","28","","19","","24.1","","97.38","","","","-27","","Blowing Snow"
"-81.38","48.57","TIMMINS A","6078286","2021-12-22 15:00","2021","12","22","15:00","-17.8","","-21.5","","73","","","","31","","19","","24.1","","97.48","","","","-27","","Blowing Snow"
"-81.38","48.57","TIMMINS A","6078286","2021-12-22 16:00","2021","12","22","16:00","-18.3","","-21.7","","75","","","","32","","18","","11.3","","97.58","","","","-28","","Snow,Blowing Snow"
"-81.38","48.57","TIMMINS A","6078286","2021-12-22 17:00","2021","12","22","17:00","-18.5","","-21.7","","77","","","","30","","9","","9.7","","97.67","","","","-25","","Snow,Blowing Snow"
"-81.38","48.57","TIMMINS A","6078286","2021-12-22 18:00","2021","12","22","18:00","-19.0","","-22.2","","76","","","","29","","10","","14.5","","97.75","","","","-26","","Snow"
"-81.38","48.57","TIMMINS A","6078286","2021-12-22 19:00","2021","12","22","19:00","-18.9","","-21.9","","78","","","","31","","10","","14.5","","97.86","","","","-26","","Snow"
"-81.38","48.57","TIMMINS A","6078286","2021-12-22 20:00","2021","12","22","20:00","-19.0","","-21.8","","79","","","","31","","3","","16.1","","97.89","","","","-21","","Snow"
"-81.38","48.57","TIMMINS A","6078286","2021-12-22 21:00","2021","12","22","21:00","-19.2","","-22.0","","79","","","","33","","5","","24.1","","97.89","","","","-23","","Snow"
"-81.38","48.57","TIMMINS A","6078286","2021-12-22 22:00","2021","12","22","22:00","-21.2","","-23.7","","81","","","","36","","3","","24.1","","97.90","","","","-24","","Snow"
"-81.38","48.57","TIMMINS A","6078286","2021-12-22 23:00","2021","12","22","23:00","-24.8","","-27.4","","80","","","","26","","3","","24.1","","97.94","","","","-28","","NA"
"-81.38","48.57","TIMMINS A","6078286","2021-12-23 00:00","2021","12","23","00:00","-26.7","","-29.4","","79","","","","36","","2","","24.1","","97.95","","","","-29","","NA"
"-81.38","48.57","TIMMINS A","6078286","2021-12-23 01:00","2021","12","23","01:00","-27.4","","-30.1","","78","","","","","","0","","24.1","","98.00","","","","","","Mainly Clear"
"-81.38","48.57","TIMMINS A","6078286","2021-12-23 02:00","2021","12","23","02:00","-28.6","","-31.6","","76","","","","15","","3","","24.1","","98.04","","","","-32","","NA"
"-81.38","48.57","TIMMINS A","6078286","2021-12-23 03:00","2021","12","23","03:00","-29.2","","-32.1","","77","","","","18","","3","","24.1","","98.04","","","","-33","","NA"
"-81.38","48.57","TIMMINS A","6078286","2021-12-23 04:00","2021","12","23","04:00","-29.0","","-31.6","","79","","","","16","","4","","24.1","","98.07","","","","-33","","Mainly Clear"
"-81.38","48.57","TIMMINS A","6078286","2021-12-23 05:00","2021","12","23","05:00","-25.9","","-28.1","","82","","","","19","","9","","24.1","","98.11","","","","-34","","NA"
"-81.38","48.57","TIMMINS A","6078286","2021-12-23 06:00","2021","12","23","06:00","-24.9","","-27.5","","79","","","","15","","4","","24.1","","98.09","","","","-29","","NA"
"-81.38","48.57","TIMMINS A","6078286","2021-12-23 07:00","2021","12","23","07:00","-23.1","","-25.6","","81","","","","36","","3","","24.1","","98.08","","","","-26","","Mostly Cloudy"
"-81.38","48.57","TIMMINS A","6078286","2021-12-23 08:00","2021","12","23","08:00","-22.3","","-25.0","","79","","","","10","","3","","24.1","","98.06","","","","-25","","NA"
"-81.38","48.57","TIMMINS A","6078286","2021-12-23 09:00","2021","12","23","09:00","-21.9","","-24.4","","80","","","","36","","2","","24.1","","98.05","","","","-24","","NA"
"-81.38","48.57","TIMMINS A","6078286","2021-12-23 10:00","2021","12","23","10:00","-19.4","","-21.7","","82","","","","13","","6","","9.7","","98.05","","","","-24","","Snow"
"-81.38","48.57","TIMMINS A","6078286","2021-12-23 11:00","2021","12","23","11:00","-17.1","","-19.4","","83","","","","15","","6","","4.0","","98.07","","","","-22","","Snow"
"-81.38","48.57","TIMMINS A","6078286","2021-12-23 12:00","2021","12","23","12:00","-14.5","","-16.8","","83","","","","16","","10","","4.0","","98.01","","","","-21","","Snow"
"-81.38","48.57","TIMMINS A","6078286","2021-12-23 13:00","2021","12","23","13:00","-12.8","","-15.4","","82","","","","16","","10","","4.0","","97.94","","","","-19","","Snow"
"-81.38","48.57","TIMMINS A","6078286","2021-12-23 14:00","2021","12","23","14:00","-11.9","","-14.2","","83","","","","16","","13","","4.0","","97.89","","","","-19","","Snow"
"-81.38","48.57","TIMMINS A","6078286","2021-12-23 15:00","2021","12","23","15:00","-11.5","","-13.8","","83","","","","15","","12","","8.1","","97.86","","","","-18","","Snow"
"-81.38","48.57","TIMMINS A","6078286","2021-12-23 16:00","2021","12","23","16:00","-11.7","","-13.8","","85","","","","12","","10","","24.1","","97.82","","","","-17","","Snow"
"-81.38","48.57","TIMMINS A","6078286","2021-12-23 17:00","2021","12","23","17:00","-13.7","","-15.5","","86","","","","9","","10","","8.1","","97.79","","","","-20","","Snow"
"-81.38","48.57","TIMMINS A","6078286","2021-12-23 18:00","2021","12","23","18:00","-13.7","","-15.4","","87","","","","11","","11","","24.1","","97.78","","","","-20","","Snow"
"-81.38","48.57","TIMMINS A","6078286","2021-12-23 19:00","2021","12","23","19:00","-13.7","","-15.3","","88","","","","10","","11","","24.1","","97.79","","","","-20","","Snow"
"-81.38","48.57","TIMMINS A","6078286","2021-12-23 20:00","2021","12","23","20:00","-15.2","","-16.9","","87","","","","11","","7","","24.1","","97.80","","","","-20","","NA"
"-81.38","48.57","TIMMINS A","6078286","2021-12-23 21:00","2021","12","23","21:00","-14.3","","-15.8","","88","","","","7","","6","","24.1","","97.79","","","","-18","","Snow"
"-81.38","48.57","TIMMINS A","6078286","2021-12-23 22:00","2021","12","23","22:00","-12.1","","-13.7","","88","","","","13","","8","","24.1","","97.77","","","","-17","","Snow"
"-81.38","48.57","TIMMINS A","6078286","2021-12-23 23:00","2021","12","23","23:00","-11.1","","-12.6","","88","","","","13","","9","","8.1","","97.74","","","","-16","","Snow"
"-81.38","48.57","TIMMINS A","6078286","2021-12-24 00:00","2021","12","24","00:00","-10.9","","-12.5","","88","","","","12","","8","","16.1","","97.75","","","","-16","","Snow"
"-81.38","48.57","TIMMINS A","6078286","2021-12-24 01:00","2021","12","24","01:00","-11.1","","-12.8","","88","","","","11","","10","","16.1","","97.72","","","","-17","","Snow"
"-81.38","48.57","TIMMINS A","6078286","2021-12-24 02:00","2021","12","24","02:00","-11.1","","-12.8","","88","","","","11","","7","","24.1","","97.73","","","","-15","","Snow"
"-81.38","48.57","TIMMINS A","6078286","2021-12-24 03:00","2021","12","24","03:00","-11.1","","-12.8","","88","","","","13","","11","","24.1","","97.80","","","","-17","","Snow"
"-81.38","48.57","TIMMINS A","6078286","2021-12-24 04:00","2021","12","24","04:00","-10.8","","-12.0","","91","","","","11","","10","","8.1","","97.77","","","","-16","","Snow"
"-81.38","48.57","TIMMINS A","6078286","2021-12-24 05:00","2021","12","24","05:00","-10.5","","-11.5","","92","","","","13","","10","","8.1","","97.75","","","","-16","","Freezing Drizzle,Snow"
"-81.38","48.57","TIMMINS A","6078286","2021-12-24 06:00","2021","12","24","06:00","-10.1","","-11.2","","92","","","","11","","11","","4.8","","97.72","","","","-16","","Freezing Drizzle,Snow"
"-81.38","48.57","TIMMINS A","6078286","2021-12-24 07:00","2021","12","24","07:00","-9.6","","-10.8","","91","","","","12","","9","","9.7","","97.70","","","","-14","","Snow"
"-81.38","48.57","TIMMINS A","6078286","2021-12-24 08:00","2021","12","24","08:00","-9.2","","-10.5","","91","","","","12","","10","","24.1","","97.72","","","","-14","","Snow"
"-81.38","48.57","TIMMINS A","6078286","2021-12-24 09:00","2021","12","24","09:00","-8.9","","-10.1","","91","","","","11","","11","","24.1","","97.70","","","","-14","","Snow"
"-81.38","48.57","TIMMINS A","6078286","2021-12-24 10:00","2021","12","24","10:00","-8.3","","-9.6","","91","","","","13","","11","","24.1","","97.63","","","","-14","","Snow"
"-81.38","48.57","TIMMINS A","6078286","2021-12-24 11:00","2021","12","24","11:00","-7.4","","-8.9","","89","","","","12","","14","","24.1","","97.58","","","","-13","","Snow"
"-81.38","48.57","TIMMINS A","6078286","2021-12-24 12:00","2021","12","24","12:00","-6.0","","-7.7","","88","","","","12","","14","","24.1","","97.51","","","","-12","","Snow"
"-81.38","48.57","TIMMINS A","6078286","2021-12-24 13:00","2021","12","24","13:00","-4.8","","-6.6","","87","","","","14","","15","","24.1","","97.44","","","","-10","","Snow"
"-81.38","48.57","TIMMINS A","6078286","2021-12-24 14:00","2021","12","24","14:00","-4.4","","-6.1","","88","","","","13","","14","","24.1","","97.32","","","","-10","","NA"
"-81.38","48.57","TIMMINS A","6078286","2021-12-24 15:00","2021","12","24","15:00","-4.4","","-6.1","","88","","","","13","","18","","24.1","","97.26","","","","-10","","NA"
"-81.38","48.57","TIMMINS A","6078286","2021-12-24 16:00","2021","12","24","16:00","-4.2","","-5.8","","89","","","","13","","20","","24.1","","97.20","","","","-11","","Snow"
"-81.38","48.57","TIMMINS A","6078286","2021-12-24 17:00","2021","12","24","17:00","-4.6","","-5.9","","91","","","","13","","22","","24.1","","97.08","","","","-11","","Snow"
"-81.38","48.57","TIMMINS A","6078286","2021-12-24 18:00","2021","12","24","18:00","-5.2","","-6.4","","91","","","","13","","22","","24.1","","97.00","","","","-12","","Snow"
"-81.38","48.57","TIMMINS A","6078286","2021-12-24 19:00","2021","12","24","19:00","-5.3","","-6.7","","90","","","","13","","23","","24.1","","96.86","","","","-12","","Cloudy"
"-81.38","48.57","TIMMINS A","6078286","2021-12-24 20:00","2021","12","24","20:00","-5.0","","-6.3","","91","","","","13","","26","","24.1","","96.81","","","","-12","","NA"
"-81.38","48.57","TIMMINS A","6078286","2021-12-24 21:00","2021","12","24","21:00","-4.6","","-5.6","","93","","","","13","","20","","16.1","","96.60","","","","-11","","Freezing Drizzle,Snow"
"-81.38","48.57","TIMMINS A","6078286","2021-12-24 22:00","2021","12","24","22:00","-4.2","","-5.1","","93","","","","13","","22","","2.8","","96.52","","","","-11","","Snow"
"-81.38","48.57","TIMMINS A","6078286","2021-12-24 23:00","2021","12","24","23:00","-4.0","","-5.0","","93","","","","14","","13","","2.4","","96.55","","","","-9","","Snow"
"-81.38","48.57","TIMMINS A","6078286","2021-12-25 00:00","2021","12","25","00:00","-4.0","","-5.1","","92","","","","13","","14","","4.8","","96.44","","","","-9","","Snow"
"-81.38","48.57","TIMMINS A","6078286","2021-12-25 01:00","2021","12","25","01:00","-4.0","","-5.3","","91","","","","12","","18","","16.1","","96.36","","","","-10","","Snow"
"-81.38","48.57","TIMMINS A","6078286","2021-12-25 02:00","2021","12","25","02:00","-4.1","","-5.2","","92","","","","11","","18","","24.1","","96.32","","","","-10","","Snow"
"-81.38","48.57","TIMMINS A","6078286","2021-12-25 03:00","2021","12","25","03:00","-3.9","","-4.8","","94","","","","13","","13","","24.1","","96.33","","","","-9","","Snow"
"-81.38","48.57","TIMMINS A","6078286","2021-12-25 04:00","2021","12","25","04:00","-3.7","","-4.4","","95","","","","14","","14","","8.1","","96.25","","","","-9","","Freezing Drizzle,Snow"
"-81.38","48.57","TIMMINS A","6078286","2021-12-25 05:00","2021","12","25","05:00","-3.5","","-4.1","","95","","","","15","","13","","8.1","","96.22","","","","-8","","Freezing Drizzle,Snow"
"-81.38","48.57","TIMMINS A","6078286","2021-12-25 06:00","2021","12","25","06:00","-3.7","","-4.3","","96","","","","16","","10","","8.1","","96.19","","","","-8","","Snow"
"-81.38","48.57","TIMMINS A","6078286","2021-12-25 07:00","2021","12","25","07:00","-3.1","","-3.8","","95","","","","17","","10","","16.1","","96.22","","","","-7","","Snow"
"-81.38","48.57","TIMMINS A","6078286","2021-12-25 08:00","2021","12","25","08:00","-2.8","","-3.4","","96","","","","16","","7","","9.7","","96.18","","","","-6","","Snow"
"-81.38","48.57","TIMMINS A","6078286","2021-12-25 09:00","2021","12","25","09:00","-2.4","","-2.9","","96","","","","16","","5","","9.7","","96.20","","","","-4","","Snow"
"-81.38","48.57","TIMMINS A","6078286","2021-12-25 10:00","2021","12","25","10:00","-1.7","","-2.2","","96","","","","19","","4","","9.7","","96.27","","","","-3","","Snow"
"-81.38","48.57","TIMMINS A","6078286","2021-12-25 11:00","2021","12","25","11:00","-0.5","","-1.0","","97","","","","24","","3","","8.1","","96.35","","","","-1","","Fog"
"-81.38","48.57","TIMMINS A","6078286","2021-12-25 12:00","2021","12","25","12:00","0.4","","0.1","","98","","","","30","","16","","2.4","","96.39","","","","","","Fog"
"-81.38","48.57","TIMMINS A","6078286","2021-12-25 13:00","2021","12","25","13:00","0.5","","-0.4","","94","","","","31","","16","","8.1","","96.44","","","","","","Fog"
"-81.38","48.57","TIMMINS A","6078286","2021-12-25 14:00","2021","12","25","14:00","-0.2","","-1.7","","90","","","","31","","25","","9.7","","96.53","","","","-6","","Snow,Fog"
"-81.38","48.57","TIMMINS A","6078286","2021-12-25 15:00","2021","12","25","15:00","-2.0","","-3.8","","88","","","","31","","20","","19.3","","96.68","","","","-8","","NA"
"-81.38","48.57","TIMMINS A","6078286","2021-12-25 16:00","2021","12","25","16:00","-3.3","","-5.5","","85","","","","31","","27","","19.3","","96.84","","","","-10","","Cloudy"
"-81.38","48.57","TIMMINS A","6078286","2021-12-25 17:00","2021","12","25","17:00","-4.3","","-7.2","","81","","","","31","","22","","24.1","","96.98","","","","-11","","NA"
"-81.38","48.57","TIMMINS A","6078286","2021-12-25 18:00","2021","12","25","18:00","-5.2","","-7.6","","83","","","","32","","17","","24.1","","97.10","","","","-11","","Snow"
"-81.38","48.57","TIMMINS A","6078286","2021-12-25 19:00","2021","12","25","19:00","-6.5","","-10.2","","75","","","","30","","18","","24.1","","97.22","","","","-13","","Snow"
"-81.38","48.57","TIMMINS A","6078286","2021-12-25 20:00","2021","12","25","20:00","-7.2","","-10.2","","80","","","","29","","13","","16.1","","97.30","","","","-13","","Snow"
"-81.38","48.57","TIMMINS A","6078286","2021-12-25 21:00","2021","12","25","21:00","-8.1","","-11.3","","78","","","","30","","16","","24.1","","97.41","","","","-15","","Snow"
"-81.38","48.57","TIMMINS A","6078286","2021-12-25 22:00","2021","12","25","22:00","-8.3","","-12.2","","74","","","","32","","22","","24.1","","97.49","","","","-16","","Cloudy"
"-81.38","48.57","TIMMINS A","6078286","2021-12-25 23:00","2021","12","25","23:00","-8.8","","-12.0","","78","","","","31","","13","","24.1","","97.55","","","","-15","","Snow"
"-81.38","48.57","TIMMINS A","6078286","2021-12-26 00:00","2021","12","26","00:00","-9.1","","-11.6","","82","","","","31","","16","","24.1","","97.66","","","","-16","","Snow"
"-81.38","48.57","TIMMINS A","6078286","2021-12-26 01:00","2021","12","26","01:00","-9.6","","-11.7","","84","","","","33","","18","","24.1","","97.68","","","","-17","","Snow"
"-81.38","48.57","TIMMINS A","6078286","2021-12-26 02:00","2021","12","26","02:00","-10.5","","-12.8","","83","","","","32","","14","","24.1","","97.79","","","","-17","","Snow"
"-81.38","48.57","TIMMINS A","6078286","2021-12-26 03:00","2021","12","26","03:00","-10.7","","-12.8","","85","","","","31","","13","","24.1","","97.87","","","","-17","","Snow"
"-81.38","48.57","TIMMINS A","6078286","2021-12-26 04:00","2021","12","26","04:00","-11.6","","-14.2","","81","","","","30","","19","","24.1","","97.97","","","","-20","","Cloudy"
"-81.38","48.57","TIMMINS A","6078286","2021-12-26 05:00","2021","12","26","05:00","-12.4","","-14.7","","83","","","","29","","18","","24.1","","98.06","","","","-20","","Snow"
"-81.38","48.57","TIMMINS A","6078286","2021-12-26 06:00","2021","12","26","06:00","-13.1","","-15.2","","84","","","","31","","13","","24.1","","98.13","","","","-20","","Snow"
"-81.38","48.57","TIMMINS A","6078286","2021-12-26 07:00","2021","12","26","07:00","-14.5","","-16.8","","83","","","","33","","13","","24.1","","98.26","","","","-22","","Cloudy"
"-81.38","48.57","TIMMINS A","6078286","2021-12-26 08:00","2021","12","26","08:00","-16.3","","-18.4","","84","","","","31","","14","","24.1","","98.38","","","","-24","","Snow"
"-81.38","48.57","TIMMINS A","6078286","2021-12-26 09:00","2021","12","26","09:00","-17.4","","-19.7","","82","","","","33","","16","","24.1","","98.47","","","","-26","","NA"
"-81.38","48.57","TIMMINS A","6078286","2021-12-26 10:00","2021","12","26","10:00","-18.2","","-20.9","","80","","","","31","","10","","24.1","","98.56","","","","-25","","Mostly Cloudy"
"-81.38","48.57","TIMMINS A","6078286","2021-12-26 11:00","2021","12","26","11:00","-17.0","","-21.2","","70","","","","34","","17","","24.1","","98.60","","","","-26","","NA"
"-81.38","48.57","TIMMINS A","6078286","2021-12-26 12:00","2021","12","26","12:00","-16.2","","-21.5","","64","","","","30","","13","","24.1","","98.65","","","","-24","","NA"
"-81.38","48.57","TIMMINS A","6078286","2021-12-26 13:00","2021","12","26","13:00","-15.3","","-21.4","","60","","","","31","","15","","24.1","","98.68","","","","-23","","Mainly Clear"
"-81.38","48.57","TIMMINS A","6078286","2021-12-26 14:00","2021","12","26","14:00","-15.0","","-21.3","","59","","","","31","","8","","24.1","","98.69","","","","-20","","NA"
"-81.38","48.57","TIMMINS A","6078286","2021-12-26 15:00","2021","12","26","15:00","-15.0","","-21.7","","57","","","","30","","12","","24.1","","98.75","","","","-22","","NA"
"-81.38","48.57","TIMMINS A","6078286","2021-12-26 16:00","2021","12","26","16:00","-15.1","","-20.9","","62","","","","29","","10","","24.1","","98.83","","","","-21","","Clear"
"-81.38","48.57","TIMMINS A","6078286","2021-12-26 17:00","2021","12","26","17:00","-17.4","","-21.0","","74","","","","32","","7","","24.1","","98.89","","","","-23","","NA"
"-81.38","48.57","TIMMINS A","6078286","2021-12-26 18:00","2021","12","26","18:00","-18.6","","-21.7","","77","","","","32","","6","","24.1","","98.95","","","","-23","","NA"
"-81.38","48.57","TIMMINS A","6078286","2021-12-26 19:00","2021","12","26","19:00","-20.8","","-23.2","","81","","","","35","","6","","24.1","","98.97","","","","-26","","Clear"
"-81.38","48.57","TIMMINS A","6078286","2021-12-26 20:00","2021","12","26","20:00","-22.6","","-25.2","","80","","","","29","","6","","24.1","","99.02","","","","-28","","NA"
"-81.38","48.57","TIMMINS A","6078286","2021-12-26 21:00","2021","12","26","21:00","-21.0","","-23.5","","81","","","","34","","9","","24.1","","99.02","","","","-28","","NA"
"-81.38","48.57","TIMMINS A","6078286","2021-12-26 22:00","2021","12","26","22:00","-22.9","","-25.4","","81","","","","36","","3","","24.1","","99.03","","","","-26","","Clear"
"-81.38","48.57","TIMMINS A","6078286","2021-12-26 23:00","2021","12","26","23:00","-22.7","","-25.0","","82","","","","29","","8","","24.1","","99.16","","","","-29","","NA"
"-81.38","48.57","TIMMINS A","6078286","2021-12-27 00:00","2021","12","27","00:00","-24.9","","-27.4","","80","","","","16","","6","","24.1","","99.18","","","","-31","","NA"
"-81.38","48.57","TIMMINS A","6078286","2021-12-27 01:00","2021","12","27","01:00","-25.6","","-28.1","","80","","","","4","","3","","24.1","","99.03","","","","-29","","Clear"
"-81.38","48.57","TIMMINS A","6078286","2021-12-27 02:00","2021","12","27","02:00","-26.4","","-29.2","","78","","","","3","","4","","24.1","","98.93","","","","-31","","NA"
"-81.38","48.57","TIMMINS A","6078286","2021-12-27 03:00","2021","12","27","03:00","-24.9","","-27.2","","81","","","","7","","6","","24.1","","98.89","","","","-31","","NA"
"-81.38","48.57","TIMMINS A","6078286","2021-12-27 04:00","2021","12","27","04:00","-25.5","","-28.0","","80","","","","4","","5","","24.1","","98.87","","","","-31","","Mainly Clear"
"-81.38","48.57","TIMMINS A","6078286","2021-12-27 05:00","2021","12","27","05:00","-24.0","","-26.4","","81","","","","5","","9","","24.1","","98.75","","","","-31","","NA"
"-81.38","48.57","TIMMINS A","6078286","2021-12-27 06:00","2021","12","27","06:00","-23.4","","-26.1","","79","","","","12","","6","","24.1","","98.75","","","","-29","","NA"
"-81.38","48.57","TIMMINS A","6078286","2021-12-27 07:00","2021","12","27","07:00","-23.6","","-26.2","","79","","","","9","","8","","24.1","","98.71","","","","-30","","Mostly Cloudy"
"-81.38","48.57","TIMMINS A","6078286","2021-12-27 08:00","2021","12","27","08:00","-23.2","","-25.9","","80","","","","11","","9","","24.1","","98.67","","","","-31","","NA"
"-81.38","48.57","TIMMINS A","6078286","2021-12-27 09:00","2021","12","27","09:00","-22.9","","-25.5","","80","","","","8","","6","","24.1","","98.59","","","","-28","","NA"
"-81.38","48.57","TIMMINS A","6078286","2021-12-27 10:00","2021","12","27","10:00","-21.7","","-24.3","","80","","","","10","","10","","24.1","","98.55","","","","-29","","Mostly Cloudy"
"-81.38","48.57","TIMMINS A","6078286","2021-12-27 11:00","2021","12","27","11:00","-20.2","","-22.9","","79","","","","11","","10","","24.1","","98.44","","","","-27","","NA"
"-81.38","48.57","TIMMINS A","6078286","2021-12-27 12:00","2021","12","27","12:00","-18.8","","-21.9","","77","","","","12","","11","","24.1","","98.33","","","","-26","","NA"
"-81.38","48.57","TIMMINS A","6078286","2021-12-27 13:00","2021","12","27","13:00","-17.1","","-20.8","","73","","","","9","","16","","24.1","","98.10","","","","-26","","Mostly Cloudy"
"-81.38","48.57","TIMMINS A","6078286","2021-12-27 14:00","2021","12","27","14:00","-16.6","","-20.7","","71","","","","10","","14","","24.1","","97.95","","","","-25","","NA"
"-81.38","48.57","TIMMINS A","6078286","2021-12-27 15:00","2021","12","27","15:00","-16.1","","-19.9","","73","","","","9","","14","","24.1","","97.81","","","","-24","","NA"
"-81.38","48.57","TIMMINS A","6078286","2021-12-27 16:00","2021","12","27","16:00","-15.8","","-19.3","","75","","","","9","","17","","24.1","","97.69","","","","-24","","Cloudy"
"-81.38","48.57","TIMMINS A","6078286","2021-12-27 17:00","2021","12","27","17:00","-15.4","","-18.9","","75","","","","9","","16","","24.1","","97.63","","","","-24","","NA"
"-81.38","48.57","TIMMINS A","6078286","2021-12-27 18:00","2021","12","27","18:00","-15.2","","-18.5","","76","","","","8","","17","","24.1","","97.51","","","","-24","","NA"
"-81.38","48.57","TIMMINS A","6078286","2021-12-27 19:00","2021","12","27","19:00","-15.5","","-18.6","","78","","","","9","","17","","24.1","","97.34","","","","-24","","Snow"
"-81.38","48.57","TIMMINS A","6078286","2021-12-27 20:00","2021","12","27","20:00","-15.3","","-18.4","","77","","","","8","","18","","16.1","","97.20","","","","-24","","Snow"
"-81.38","48.57","TIMMINS A","6078286","2021-12-27 21:00","2021","12","27","21:00","-14.8","","-17.9","","78","","","","9","","12","","4.8","","97.09","","","","-22","","Snow"
"-81.38","48.57","TIMMINS A","6078286","2021-12-27 22:00","2021","12","27","22:00","-14.6","","-16.8","","83","","","","8","","12","","4.0","","97.04","","","","-21","","Snow"
"-81.38","48.57","TIMMINS A","6078286","2021-12-27 23:00","2021","12","27","23:00","-14.1","","-16.1","","85","","","","10","","9","","2.4","","96.96","","","","-20","","Snow"
"-81.38","48.57","TIMMINS A","6078286","2021-12-28 00:00","2021","12","28","00:00","-13.6","","-15.7","","84","","","","10","","15","","1.6","","96.85","","","","-21","","Snow"
"-81.38","48.57","TIMMINS A","6078286","2021-12-28 01:00","2021","12","28","01:00","-13.1","","-15.1","","85","","","","11","","13","","1.6","","96.77","","","","-20","","Snow"
"-81.38","48.57","TIMMINS A","6078286","2021-12-28 02:00","2021","12","28","02:00","-12.8","","-14.9","","84","","","","11","","12","","2.4","","96.73","","","","-19","","Snow"
"-81.38","48.57","TIMMINS A","6078286","2021-12-28 03:00","2021","12","28","03:00","-14.0","","-15.9","","85","","","","12","","4","","24.1","","96.78","","","","-17","","Snow"
"-81.38","48.57","TIMMINS A","6078286","2021-12-28 04:00","2021","12","28","04:00","-14.3","","-16.0","","87","","","","1","","4","","24.1","","96.81","","","","-17","","Snow"
"-81.38","48.57","TIMMINS A","6078286","2021-12-28 05:00","2021","12","28","05:00","-13.3","","-15.2","","86","","","","1","","9","","24.1","","96.84","","","","-19","","Snow"
"-81.38","48.57","TIMMINS A","6078286","2021-12-28 06:00","2021","12","28","06:00","-13.0","","-14.9","","86","","","","35","","7","","4.0","","96.94","","","","-18","","Snow"
"-81.38","48.57","TIMMINS A","6078286","2021-12-28 07:00","2021","12","28","07:00","-13.0","","-14.9","","86","","","","32","","7","","2.4","","97.03","","","","-18","","Snow"
"-81.38","48.57","TIMMINS A","6078286","2021-12-28 08:00","2021","12","28","08:00","-15.0","","-16.9","","86","","","","34","","8","","16.1","","97.05","","","","-20","","Snow"
"-81.38","48.57","TIMMINS A","6078286","2021-12-28 09:00","2021","12","28","09:00","-14.3","","-16.0","","87","","","","29","","7","","24.1","","97.23","","","","-19","","NA"
"-81.38","48.57","TIMMINS A","6078286","2021-12-28 10:00","2021","12","28","10:00","-13.1","","-15.2","","85","","","","32","","9","","24.1","","97.31","","","","-19","","Snow"
"-81.38","48.57","TIMMINS A","6078286","2021-12-28 11:00","2021","12","28","11:00","-12.2","","-14.6","","82","","","","27","","5","","12.9","","97.39","","","","-15","","Snow"
"-81.38","48.57","TIMMINS A","6078286","2021-12-28 12:00","2021","12","28","12:00","-11.5","","-14.0","","82","","","","28","","10","","4.0","","97.47","","","","-17","","Snow"
"-81.38","48.57","TIMMINS A","6078286","2021-12-28 13:00","2021","12","28","13:00","-10.7","","-13.8","","79","","","","29","","14","","8.1","","97.47","","","","-17","","Snow"
"-81.38","48.57","TIMMINS A","6078286","2021-12-28 14:00","2021","12","28","14:00","-10.2","","-13.2","","79","","","","31","","14","","16.1","","97.50","","","","-17","","Snow"
"-81.38","48.57","TIMMINS A","6078286","2021-12-28 15:00","2021","12","28","15:00","-10.6","","-13.0","","82","","","","34","","8","","16.1","","97.48","","","","-15","","Snow"
"-81.38","48.57","TIMMINS A","6078286","2021-12-28 16:00","2021","12","28","16:00","-11.9","","-14.2","","83","","","","36","","12","","24.1","","97.54","","","","-18","","Snow"
"-81.38","48.57","TIMMINS A","6078286","2021-12-28 17:00","2021","12","28","17:00","-13.5","","-15.0","","89","","","","32","","5","","24.1","","97.63","","","","-17","","NA"
"-81.38","48.57","TIMMINS A","6078286","2021-12-28 18:00","2021","12","28","18:00","-15.6","","-16.9","","90","","","","5","","5","","24.1","","97.68","","","","-19","","Snow"
"-81.38","48.57","TIMMINS A","6078286","2021-12-28 19:00","2021","12","28","19:00","-16.2","","-18.0","","86","","","","5","","10","","24.1","","97.70","","","","-23","","Snow"
"-81.38","48.57","TIMMINS A","6078286","2021-12-28 20:00","2021","12","28","20:00","-13.9","","-15.6","","87","","","","7","","7","","24.1","","97.74","","","","-19","","Snow"
"-81.38","48.57","TIMMINS A","6078286","2021-12-28 21:00","2021","12","28","21:00","-13.6","","-15.2","","87","","","","3","","6","","24.1","","97.74","","","","-18","","Snow"
"-81.38","48.57","TIMMINS A","6078286","2021-12-28 22:00","2021","12","28","22:00","-14.1","","-15.9","","86","","","","3","","6","","24.1","","97.77","","","","-18","","Snow"
"-81.38","48.57","TIMMINS A","6078286","2021-12-28 23:00","2021","12","28","23:00","-15.0","","-16.8","","86","","","","3","","11","","24.1","","97.67","","","","-22","","Snow"
"-81.38","48.57","TIMMINS A","6078286","2021-12-29 00:00","2021","12","29","00:00","-15.7","","-17.6","","85","","","","5","","8","","24.1","","97.61","","","","-21","","Snow"
"-81.38","48.57","TIMMINS A","6078286","2021-12-29 01:00","2021","12","29","01:00","-15.4","","-17.3","","86","","","","7","","7","","24.1","","97.66","","","","-20","","Snow"
"-81.38","48.57","TIMMINS A","6078286","2021-12-29 02:00","2021","12","29","02:00","-15.0","","-16.9","","86","","","","8","","9","","24.1","","97.63","","","","-21","","Snow"
"-81.38","48.57","TIMMINS A","6078286","2021-12-29 03:00","2021","12","29","03:00","-15.2","","-17.1","","85","","","","8","","10","","24.1","","97.63","","","","-21","","Snow"
"-81.38","48.57","TIMMINS A","6078286","2021-12-29 04:00","2021","12","29","04:00","-15.6","","-17.5","","85","","","","11","","8","","24.1","","97.58","","","","-21","","Snow"
"-81.38","48.57","TIMMINS A","6078286","2021-12-29 05:00","2021","12","29","05:00","-15.5","","-17.4","","86","","","","11","","6","","24.1","","97.59","","","","-20","","Snow"
"-81.38","48.57","TIMMINS A","6078286","2021-12-29 06:00","2021","12","29","06:00","-15.2","","-17.0","","86","","","","10","","10","","24.1","","97.58","","","","-21","","Snow"
"-81.38","48.57","TIMMINS A","6078286","2021-12-29 07:00","2021","12","29","07:00","-15.7","","-17.7","","85","","","","13","","8","","24.1","","97.58","","","","-21","","Snow"
"-81.38","48.57","TIMMINS A","6078286","2021-12-29 08:00","2021","12","29","08:00","-17.9","","-20.1","","84","","","","8","","8","","24.1","","97.56","","","","-24","","NA"
"-81.38","48.57","TIMMINS A","6078286","2021-12-29 09:00","2021","12","29","09:00","-17.7","","-19.8","","84","","","","12","","8","","24.1","","97.58","","","","-24","","NA"
"-81.38","48.57","TIMMINS A","6078286","2021-12-29 10:00","2021","12","29","10:00","-16.1","","-18.2","","85","","","","12","","12","","24.1","","97.54","","","","-23","","Mostly Cloudy"
"-81.38","48.57","TIMMINS A","6078286","2021-12-29 11:00","2021","12","29","11:00","-14.3","","-16.4","","84","","","","12","","13","","24.1","","97.49","","","","-21","","NA"
"-81.38","48.57","TIMMINS A","6078286","2021-12-29 12:00","2021","12","29","12:00","-11.9","","-14.4","","82","","","","13","","11","","24.1","","97.34","","","","-18","","NA"
"-81.38","48.57","TIMMINS A","6078286","2021-12-29 13:00","2021","12","29","13:00","-10.0","","-12.5","","82","","","","13","","13","","24.1","","97.25","","","","-16","","Cloudy"
"-81.38","48.57","TIMMINS A","6078286","2021-12-29 14:00","2021","12","29","14:00","-8.9","","-10.9","","85","","","","13","","15","","1.6","","97.18","","","","-15","","Snow"
"-81.38","48.57","TIMMINS A","6078286","2021-12-29 15:00","2021","12","29","15:00","-8.1","","-9.9","","87","","","","13","","14","","2.4","","97.17","","","","-14","","Snow"
"-81.38","48.57","TIMMINS A","6078286","2021-12-29 16:00","2021","12","29","16:00","-7.8","","-9.2","","89","","","","13","","14","","1.6","","97.14","","","","-14","","Snow"
"-81.38","48.57","TIMMINS A","6078286","2021-12-29 17:00","2021","12","29","17:00","-7.5","","-9.0","","89","","","","14","","9","","16.1","","97.13","","","","-12","","Snow"
"-81.38","48.57","TIMMINS A","6078286","2021-12-29 18:00","2021","12","29","18:00","-7.7","","-9.1","","90","","","","13","","10","","24.1","","97.09","","","","-13","","Snow"
"-81.38","48.57","TIMMINS A","6078286","2021-12-29 19:00","2021","12","29","19:00","-6.9","","-8.2","","90","","","","25","","4","","24.1","","97.15","","","","-9","","Snow"
"-81.38","48.57","TIMMINS A","6078286","2021-12-29 20:00","2021","12","29","20:00","-5.9","","-7.2","","91","","","","18","","8","","24.1","","97.18","","","","-10","","Snow"
"-81.38","48.57","TIMMINS A","6078286","2021-12-29 21:00","2021","12","29","21:00","-5.0","","-6.2","","91","","","","23","","7","","24.1","","97.22","","","","-8","","Snow"
"-81.38","48.57","TIMMINS A","6078286","2021-12-29 22:00","2021","12","29","22:00","-4.3","","-6.6","","84","","","","23","","8","","24.1","","97.28","","","","-8","","Snow"
"-81.38","48.57","TIMMINS A","6078286","2021-12-29 23:00","2021","12","29","23:00","-4.9","","-7.4","","83","","","","25","","14","","24.1","","97.30","","","","-10","","Snow"
"-81.38","48.57","TIMMINS A","6078286","2021-12-30 00:00","2021","12","30","00:00","-5.7","","-8.6","","81","","","","26","","13","","24.1","","97.37","","","","-11","","Snow"
"-81.38","48.57","TIMMINS A","6078286","2021-12-30 01:00","2021","12","30","01:00","-6.8","","-10.0","","78","","","","25","","12","","24.1","","97.43","","","","-12","","Snow"
"-81.38","48.57","TIMMINS A","6078286","2021-12-30 02:00","2021","12","30","02:00","-7.9","","-10.3","","83","","","","25","","9","","24.1","","97.50","","","","-12","","Snow"
"-81.38","48.57","TIMMINS A","6078286","2021-12-30 03:00","2021","12","30","03:00","-8.5","","-10.9","","83","","","","29","","5","","24.1","","97.57","","","","-11","","Snow"
"-81.38","48.57","TIMMINS A","6078286","2021-12-30 04:00","2021","12","30","04:00","-8.5","","-10.2","","88","","","","33","","8","","24.1","","97.61","","","","-13","","Snow"
"-81.38","48.57","TIMMINS A","6078286","2021-12-30 05:00","2021","12","30","05:00","-8.6","","-10.8","","84","","","","27","","10","","19.3","","97.64","","","","-14","","Snow"
"-81.38","48.57","TIMMINS A","6078286","2021-12-30 06:00","2021","12","30","06:00","-8.9","","-12.0","","79","","","","25","","12","","24.1","","97.70","","","","-15","","Snow"
"-81.38","48.57","TIMMINS A","6078286","2021-12-30 07:00","2021","12","30","07:00","-10.9","","-13.2","","83","","","","27","","7","","24.1","","97.73","","","","-15","","Mostly Cloudy"
"-81.38","48.57","TIMMINS A","6078286","2021-12-30 08:00","2021","12","30","08:00","-11.2","","-13.4","","84","","","","23","","7","","24.1","","97.77","","","","-15","","NA"
"-81.38","48.57","TIMMINS A","6078286","2021-12-30 09:00","2021","12","30","09:00","-11.1","","-13.3","","84","","","","23","","6","","24.1","","97.86","","","","-15","","NA"
"-81.38","48.57","TIMMINS A","6078286","2021-12-30 10:00","2021","12","30","10:00","-10.4","","-12.8","","83","","","","24","","6","","24.1","","97.90","","","","-14","","Cloudy"
"-81.38","48.57","TIMMINS A","6078286","2021-12-30 11:00","2021","12","30","11:00","-9.7","","-12.6","","79","","","","26","","4","","24.1","","97.89","","","","-12","","NA"
"-81.38","48.57","TIMMINS A","6078286","2021-12-30 12:00","2021","12","30","12:00","-9.3","","-12.6","","77","","","","25","","3","","24.1","","97.85","","","","-11","","NA"
"-81.38","48.57","TIMMINS A","6078286","2021-12-30 13:00","2021","12","30","13:00","-8.8","","-12.4","","76","","","","19","","6","","24.1","","97.77","","","","-12","","Cloudy"
"-81.38","48.57","TIMMINS A","6078286","2021-12-30 14:00","2021","12","30","14:00","-8.6","","-11.8","","78","","","","18","","11","","24.1","","97.72","","","","-14","","NA"
"-81.38","48.57","TIMMINS A","6078286","2021-12-30 15:00","2021","12","30","15:00","-8.4","","-11.6","","78","","","","19","","6","","24.1","","97.75","","","","-12","","NA"
"-81.38","48.57","TIMMINS A","6078286","2021-12-30 16:00","2021","12","30","16:00","-8.7","","-11.6","","80","","","","17","","10","","24.1","","97.72","","","","-14","","Mostly Cloudy"
"-81.38","48.57","TIMMINS A","6078286","2021-12-30 17:00","2021","12","30","17:00","-9.6","","-11.4","","86","","","","18","","4","","24.1","","97.72","","","","-12","","NA"
"-81.38","48.57","TIMMINS A","6078286","2021-12-30 18:00","2021","12","30","18:00","-11.0","","-12.1","","91","","","","14","","5","","24.1","","97.71","","","","-14","","NA"
"-81.38","48.57","TIMMINS A","6078286","2021-12-30 19:00","2021","12","30","19:00","-11.8","","-12.7","","93","","","","13","","5","","24.1","","97.68","","","","-15","","Cloudy"
"-81.38","48.57","TIMMINS A","6078286","2021-12-30 20:00","2021","12","30","20:00","-12.0","","-13.1","","92","","","","16","","6","","24.1","","97.69","","","","-16","","NA"
"-81.38","48.57","TIMMINS A","6078286","2021-12-30 21:00","2021","12","30","21:00","-11.9","","-13.1","","91","","","","12","","4","","24.1","","97.63","","","","-14","","NA"
"-81.38","48.57","TIMMINS A","6078286","2021-12-30 22:00","2021","12","30","22:00","-11.6","","-12.7","","91","","","","14","","4","","24.1","","97.60","","","","-14","","Mostly Cloudy"
"-81.38","48.57","TIMMINS A","6078286","2021-12-30 23:00","2021","12","30","23:00","-10.4","","-11.7","","90","","","","16","","7","","24.1","","97.52","","","","-14","","NA"
"-81.38","48.57","TIMMINS A","6078286","2021-12-31 00:00","2021","12","31","00:00","-8.8","","-10.4","","89","","","","16","","17","","24.1","","97.46","","","","-16","","NA"
"-81.38","48.57","TIMMINS A","6078286","2021-12-31 01:00","2021","12","31","01:00","-9.0","","-10.7","","88","","","","16","","15","","24.1","","97.38","","","","-16","","Snow"
"-81.38","48.57","TIMMINS A","6078286","2021-12-31 02:00","2021","12","31","02:00","-8.3","","-10.2","","86","","","","16","","14","","24.1","","97.35","","","","-14","","Snow"
"-81.38","48.57","TIMMINS A","6078286","2021-12-31 03:00","2021","12","31","03:00","-7.8","","-10.2","","84","","","","17","","17","","24.1","","97.33","","","","-14","","Snow"
"-81.38","48.57","TIMMINS A","6078286","2021-12-31 04:00","2021","12","31","04:00","-7.9","","-9.9","","85","","","","17","","18","","4.0","","97.26","","","","-15","","Snow"
"-81.38","48.57","TIMMINS A","6078286","2021-12-31 05:00","2021","12","31","05:00","-7.9","","-9.5","","89","","","","16","","18","","4.0","","97.13","","","","-15","","Snow"
"-81.38","48.57","TIMMINS A","6078286","2021-12-31 06:00","2021","12","31","06:00","-7.8","","-9.4","","88","","","","16","","18","","4.0","","97.07","","","","-15","","Snow"
"-81.38","48.57","TIMMINS A","6078286","2021-12-31 07:00","2021","12","31","07:00","-7.7","","-9.2","","89","","","","16","","16","","3.2","","97.01","","","","-14","","Snow"
"-81.38","48.57","TIMMINS A","6078286","2021-12-31 08:00","2021","12","31","08:00","-7.0","","-8.5","","89","","","","18","","18","","9.7","","96.93","","","","-14","","Snow"
"-81.38","48.57","TIMMINS A","6078286","2021-12-31 09:00","2021","12","31","09:00","-5.7","","-7.3","","89","","","","18","","19","","24.1","","96.87","","","","-12","","NA"
"-81.38","48.57","TIMMINS A","6078286","2021-12-31 10:00","2021","12","31","10:00","-5.3","","-6.9","","88","","","","19","","18","","24.1","","96.88","","","","-12","","Snow"
"-81.38","48.57","TIMMINS A","6078286","2021-12-31 11:00","2021","12","31","11:00","-3.7","","-5.6","","87","","","","20","","19","","8.1","","96.88","","","","-10","","Snow"
"-81.38","48.57","TIMMINS A","6078286","2021-12-31 12:00","2021","12","31","12:00","-3.0","","-4.8","","88","","","","20","","18","","16.1","","96.88","","","","-9","","Snow"
"-81.38","48.57","TIMMINS A","6078286","2021-12-31 13:00","2021","12","31","13:00","-2.5","","-4.2","","88","","","","20","","13","","16.1","","96.84","","","","-7","","Snow"
"-81.38","48.57","TIMMINS A","6078286","2021-12-31 14:00","2021","12","31","14:00","-1.9","","-4.0","","86","","","","20","","12","","16.1","","96.85","","","","-6","","Snow"
"-81.38","48.57","TIMMINS A","6078286","2021-12-31 15:00","2021","12","31","15:00","-1.5","","-4.9","","78","","","","21","","14","","24.1","","96.86","","","","-6","","Snow"
"-81.38","48.57","TIMMINS A","6078286","2021-12-31 16:00","2021","12","31","16:00","-1.8","","-5.3","","77","","","","22","","13","","16.1","","96.92","","","","-6","","Snow"
"-81.38","48.57","TIMMINS A","6078286","2021-12-31 17:00","2021","12","31","17:00","-2.1","","-5.2","","79","","","","26","","9","","24.1","","96.98","","","","-6","","Snow"
"-81.38","48.57","TIMMINS A","6078286","2021-12-31 18:00","2021","12","31","18:00","-2.6","","-4.6","","86","","","","27","","7","","24.1","","97.01","","","","-5","","Snow"
"-81.38","48.57","TIMMINS A","6078286","2021-12-31 19:00","2021","12","31","19:00","-3.0","","-5.2","","85","","","","28","","8","","24.1","","97.03","","","","-6","","Snow"
"-81.38","48.57","TIMMINS A","6078286","2021-12-31 20:00","2021","12","31","20:00","-4.0","","-5.9","","87","","","","32","","16","","24.1","","97.08","","","","-10","","Snow"
"-81.38","48.57","TIMMINS A","6078286","2021-12-31 21:00","2021","12","31","21:00","-9.7","","-11.9","","84","","","","35","","19","","24.1","","97.25","","","","-17","","Snow"
"-81.38","48.57","TIMMINS A","6078286","2021-12-31 22:00","2021","12","31","22:00","-10.7","","-12.7","","85","","","","33","","13","","3.2","","97.32","","","","-17","","Snow"
"-81.38","48.57","TIMMINS A","6078286","2021-12-31 23:00","2021","12","31","23:00","-11.9","","-14.0","","85","","","","35","","12","","2.4","","97.37","","","","-18","","Snow"
