"Longitude (x)","Latitude (y)","Station Name","Climate ID","Date/Time (LST)","Year","Month","Day","Time (LST)","Temp (°C)","Temp Flag","Dew Point Temp (°C)","Dew Point Temp Flag","Rel Hum (%)","Rel Hum Flag","Precip. Amount (mm)","Precip. Amount Flag","Wind Dir (10s deg)","Wind Dir Flag","Wind Spd (km/h)","Wind Spd Flag","Visibility (km)","Visibility Flag","Stn Press (kPa)","Stn Press Flag","Hmdx","Hmdx Flag","Wind Chill","Wind Chill Flag","Weather"
"-81.38","48.57","TIMMINS A","6078286","2021-03-01 00:00","2021","03","01","00:00","-9.2","","-11.4","","85","","","","31","","27","","2.4","","96.00","","","","-18","","Snow"
"-81.38","48.57","TIMMINS A","6078286","2021-03-01 01:00","2021","03","01","01:00","-12.1","","-15.1","","79","","","","30","","33","","3.2","","96.31","","","","-23","","Snow"
"-81.38","48.57","TIMMINS A","6078286","2021-03-01 02:00","2021","03","01","02:00","-13.7","","-16.5","","80","","","","29","","23","","4.8","","96.58","","","","-23","","Snow"
"-81.38","48.57","TIMMINS A","6078286","2021-03-01 03:00","2021","03","01","03:00","-14.7","","-17.6","","79","","","","29","","23","","3.2","","96.75","","","","-24","","Snow"
"-81.38","48.57","TIMMINS A","6078286","2021-03-01 04:00","2021","03","01","04:00","-15.8","","-19.0","","77","","","","29","","23","","4.8","","96.91","","","","-26","","Snow"
"-81.38","48.57","TIMMINS A","6078286","2021-03-01 05:00","2021","03","01","05:00","-16.2","","-19.6","","76","","","","30","","29","","8.1","","97.06","","","","-27","","Snow"
"-81.38","48.57","TIMMINS A","6078286","2021-03-01 06:00","2021","03","01","06:00","-16.6","","-20.0","","75","","","","30","","23","","8.1","","97.17","","","","-27","","Snow"
"-81.38","48.57","TIMMINS A","6078286","2021-03-01 07:00","2021","03","01","07:00","-17.4","","-21.0","","74","","","","31","","23","","24.1","","97.29","","","","-28","","Snow,Blowing Snow"
"-81.38","48.57","TIMMINS A","6078286","2021-03-01 08:00","2021","03","01","08:00","-18.0","","-21.5","","74","","","","30","","21","","24.1","","97.42","","","","-28","","Blowing Snow"
"-81.38","48.57","TIMMINS A","6078286","2021-03-01 09:00","2021","03","01","09:00","-17.9","","-22.5","","68","","","","31","","35","","24.1","","97.56","","","","-31","","Blowing Snow"
"-81.38","48.57","TIMMINS A","6078286","2021-03-01 10:00","2021","03","01","10:00","-17.1","","-22.8","","62","","","","31","","25","","9.7","","97.64","","","","-28","","Snow Showers,Blowing Snow"
"-81.38","48.57","TIMMINS A","6078286","2021-03-01 11:00","2021","03","01","11:00","-17.8","","-22.9","","65","","","","31","","26","","4.8","","97.75","","","","-29","","Snow Showers,Blowing Snow"
"-81.38","48.57","TIMMINS A","6078286","2021-03-01 12:00","2021","03","01","12:00","-18.8","","-23.3","","68","","","","32","","33","","2.4","","97.82","","","","-32","","Snow Showers,Blowing Snow"
"-81.38","48.57","TIMMINS A","6078286","2021-03-01 13:00","2021","03","01","13:00","-18.5","","-24.4","","61","","","","31","","29","","3.2","","97.84","","","","-30","","Snow Showers,Blowing Snow"
"-81.38","48.57","TIMMINS A","6078286","2021-03-01 14:00","2021","03","01","14:00","-18.8","","-25.3","","58","","","","31","","32","","4.0","","97.92","","","","-31","","Snow Showers,Blowing Snow"
"-81.38","48.57","TIMMINS A","6078286","2021-03-01 15:00","2021","03","01","15:00","-17.9","","-23.5","","62","","","","31","","29","","3.2","","97.99","","","","-30","","Snow Showers,Blowing Snow"
"-81.38","48.57","TIMMINS A","6078286","2021-03-01 16:00","2021","03","01","16:00","-18.2","","-24.2","","60","","","","31","","24","","4.8","","98.07","","","","-29","","Snow Showers,Blowing Snow"
"-81.38","48.57","TIMMINS A","6078286","2021-03-01 17:00","2021","03","01","17:00","-17.8","","-24.2","","58","","","","28","","22","","16.1","","98.16","","","","-28","","Snow Showers,Blowing Snow"
"-81.38","48.57","TIMMINS A","6078286","2021-03-01 18:00","2021","03","01","18:00","-18.6","","-23.6","","66","","","","30","","16","","4.8","","98.26","","","","-28","","Snow Showers,Blowing Snow"
"-81.38","48.57","TIMMINS A","6078286","2021-03-01 19:00","2021","03","01","19:00","-18.7","","-23.3","","68","","","","30","","17","","12.9","","98.39","","","","-28","","Snow Showers,Blowing Snow"
"-81.38","48.57","TIMMINS A","6078286","2021-03-01 20:00","2021","03","01","20:00","-19.5","","-23.9","","68","","","","30","","18","","24.1","","98.42","","","","-29","","Snow Showers"
"-81.38","48.57","TIMMINS A","6078286","2021-03-01 21:00","2021","03","01","21:00","-21.2","","-24.5","","75","","","","28","","8","","24.1","","98.47","","","","-28","","NA"
"-81.38","48.57","TIMMINS A","6078286","2021-03-01 22:00","2021","03","01","22:00","-22.1","","-24.8","","79","","","","28","","8","","24.1","","98.44","","","","-29","","Mainly Clear"
"-81.38","48.57","TIMMINS A","6078286","2021-03-01 23:00","2021","03","01","23:00","-22.1","","-24.9","","79","","","","27","","11","","24.1","","98.44","","","","-30","","NA"
"-81.38","48.57","TIMMINS A","6078286","2021-03-02 00:00","2021","03","02","00:00","-21.4","","-24.4","","77","","","","27","","10","","24.1","","98.46","","","","-29","","NA"
"-81.38","48.57","TIMMINS A","6078286","2021-03-02 01:00","2021","03","02","01:00","-21.8","","-24.9","","77","","","","27","","11","","24.1","","98.52","","","","-30","","Mainly Clear"
"-81.38","48.57","TIMMINS A","6078286","2021-03-02 02:00","2021","03","02","02:00","-22.1","","-25.3","","76","","","","26","","8","","24.1","","98.54","","","","-29","","NA"
"-81.38","48.57","TIMMINS A","6078286","2021-03-02 03:00","2021","03","02","03:00","-23.1","","-26.1","","76","","","","25","","7","","24.1","","98.49","","","","-29","","NA"
"-81.38","48.57","TIMMINS A","6078286","2021-03-02 04:00","2021","03","02","04:00","-23.2","","-26.2","","77","","","","26","","9","","24.1","","98.49","","","","-31","","Clear"
"-81.38","48.57","TIMMINS A","6078286","2021-03-02 05:00","2021","03","02","05:00","-23.0","","-26.3","","75","","","","23","","7","","24.1","","98.50","","","","-29","","NA"
"-81.38","48.57","TIMMINS A","6078286","2021-03-02 06:00","2021","03","02","06:00","-23.5","","-26.6","","76","","","","22","","12","","24.1","","98.47","","","","-32","","NA"
"-81.38","48.57","TIMMINS A","6078286","2021-03-02 07:00","2021","03","02","07:00","-26.7","","-29.6","","77","","","","17","","8","","24.1","","98.39","","","","-34","","Mainly Clear"
"-81.38","48.57","TIMMINS A","6078286","2021-03-02 08:00","2021","03","02","08:00","-23.6","","-26.5","","77","","","","18","","9","","24.1","","98.32","","","","-31","","NA"
"-81.38","48.57","TIMMINS A","6078286","2021-03-02 09:00","2021","03","02","09:00","-20.5","","-24.2","","73","","","","19","","13","","24.1","","98.27","","","","-29","","NA"
"-81.38","48.57","TIMMINS A","6078286","2021-03-02 10:00","2021","03","02","10:00","-17.1","","-22.6","","62","","","","19","","15","","24.1","","98.18","","","","-26","","Mostly Cloudy"
"-81.38","48.57","TIMMINS A","6078286","2021-03-02 11:00","2021","03","02","11:00","-15.3","","-19.1","","73","","","","18","","14","","2.4","","98.01","","","","-23","","Snow,Blowing Snow"
"-81.38","48.57","TIMMINS A","6078286","2021-03-02 12:00","2021","03","02","12:00","-13.4","","-16.7","","77","","","","18","","20","","4.0","","97.83","","","","-22","","Snow,Blowing Snow"
"-81.38","48.57","TIMMINS A","6078286","2021-03-02 13:00","2021","03","02","13:00","-11.4","","-14.4","","79","","","","17","","18","","2.4","","97.62","","","","-19","","Snow,Blowing Snow"
"-81.38","48.57","TIMMINS A","6078286","2021-03-02 14:00","2021","03","02","14:00","-10.0","","-12.2","","84","","","","15","","20","","0.8","","97.39","","","","-18","","Moderate Snow,Blowing Snow"
"-81.38","48.57","TIMMINS A","6078286","2021-03-02 15:00","2021","03","02","15:00","-9.3","","-11.3","","86","","","","16","","18","","0.8","","97.26","","","","-17","","Moderate Snow,Blowing Snow"
"-81.38","48.57","TIMMINS A","6078286","2021-03-02 16:00","2021","03","02","16:00","-9.0","","-10.9","","86","","","","15","","22","","0.8","","97.17","","","","-17","","Moderate Snow,Blowing Snow"
"-81.38","48.57","TIMMINS A","6078286","2021-03-02 17:00","2021","03","02","17:00","-8.7","","-10.3","","88","","","","15","","18","","0.8","","97.10","","","","-16","","Moderate Snow,Blowing Snow"
"-81.38","48.57","TIMMINS A","6078286","2021-03-02 18:00","2021","03","02","18:00","-8.5","","-10.3","","87","","","","16","","20","","1.6","","97.02","","","","-16","","Snow,Blowing Snow"
"-81.38","48.57","TIMMINS A","6078286","2021-03-02 19:00","2021","03","02","19:00","-8.4","","-10.0","","88","","","","17","","16","","1.2","","96.98","","","","-15","","Snow,Blowing Snow"
"-81.38","48.57","TIMMINS A","6078286","2021-03-02 20:00","2021","03","02","20:00","-8.3","","-9.9","","88","","","","17","","14","","1.6","","96.94","","","","-14","","Snow,Blowing Snow"
"-81.38","48.57","TIMMINS A","6078286","2021-03-02 21:00","2021","03","02","21:00","-8.1","","-9.7","","88","","","","17","","10","","9.7","","96.88","","","","-13","","Snow,Blowing Snow"
"-81.38","48.57","TIMMINS A","6078286","2021-03-02 22:00","2021","03","02","22:00","-7.8","","-9.3","","89","","","","18","","7","","9.7","","96.86","","","","-11","","Snow"
"-81.38","48.57","TIMMINS A","6078286","2021-03-02 23:00","2021","03","02","23:00","-7.6","","-8.9","","91","","","","15","","5","","4.8","","96.86","","","","-10","","Snow"
"-81.38","48.57","TIMMINS A","6078286","2021-03-03 00:00","2021","03","03","00:00","-8.7","","-9.8","","92","","","","4","","5","","4.8","","96.88","","","","-11","","Snow"
"-81.38","48.57","TIMMINS A","6078286","2021-03-03 01:00","2021","03","03","01:00","-8.3","","-9.7","","90","","","","36","","5","","16.1","","96.96","","","","-11","","Snow"
"-81.38","48.57","TIMMINS A","6078286","2021-03-03 02:00","2021","03","03","02:00","-8.4","","-9.7","","91","","","","28","","5","","24.1","","97.06","","","","-11","","Snow"
"-81.38","48.57","TIMMINS A","6078286","2021-03-03 03:00","2021","03","03","03:00","-8.0","","-9.4","","90","","","","34","","10","","24.1","","97.12","","","","-13","","Snow"
"-81.38","48.57","TIMMINS A","6078286","2021-03-03 04:00","2021","03","03","04:00","-8.2","","-9.6","","90","","","","33","","9","","24.1","","97.22","","","","-13","","Snow"
"-81.38","48.57","TIMMINS A","6078286","2021-03-03 05:00","2021","03","03","05:00","-8.2","","-9.6","","90","","","","32","","11","","24.1","","97.33","","","","-13","","Snow"
"-81.38","48.57","TIMMINS A","6078286","2021-03-03 06:00","2021","03","03","06:00","-8.4","","-9.8","","89","","","","35","","11","","24.1","","97.39","","","","-14","","Snow"
"-81.38","48.57","TIMMINS A","6078286","2021-03-03 07:00","2021","03","03","07:00","-8.8","","-10.3","","89","","","","35","","8","","24.1","","97.45","","","","-13","","Snow"
"-81.38","48.57","TIMMINS A","6078286","2021-03-03 08:00","2021","03","03","08:00","-9.0","","-10.7","","88","","","","35","","9","","24.1","","97.55","","","","-14","","Snow"
"-81.38","48.57","TIMMINS A","6078286","2021-03-03 09:00","2021","03","03","09:00","-9.1","","-11.1","","86","","","","34","","13","","24.1","","97.67","","","","-15","","Snow"
"-81.38","48.57","TIMMINS A","6078286","2021-03-03 10:00","2021","03","03","10:00","-8.8","","-11.3","","82","","","","34","","14","","24.1","","97.75","","","","-15","","Snow"
"-81.38","48.57","TIMMINS A","6078286","2021-03-03 11:00","2021","03","03","11:00","-8.3","","-11.0","","82","","","","35","","10","","19.3","","97.81","","","","-13","","Snow"
"-81.38","48.57","TIMMINS A","6078286","2021-03-03 12:00","2021","03","03","12:00","-7.9","","-11.4","","76","","","","3","","15","","24.1","","97.83","","","","-14","","Snow"
"-81.38","48.57","TIMMINS A","6078286","2021-03-03 13:00","2021","03","03","13:00","-7.5","","-11.0","","77","","","","34","","14","","19.3","","97.87","","","","-13","","Snow"
"-81.38","48.57","TIMMINS A","6078286","2021-03-03 14:00","2021","03","03","14:00","-7.5","","-10.9","","77","","","","2","","14","","24.1","","97.94","","","","-13","","Snow"
"-81.38","48.57","TIMMINS A","6078286","2021-03-03 15:00","2021","03","03","15:00","-7.5","","-11.1","","76","","","","34","","14","","4.0","","98.02","","","","-13","","Snow"
"-81.38","48.57","TIMMINS A","6078286","2021-03-03 16:00","2021","03","03","16:00","-7.8","","-10.7","","80","","","","34","","17","","4.8","","98.10","","","","-14","","Snow"
"-81.38","48.57","TIMMINS A","6078286","2021-03-03 17:00","2021","03","03","17:00","-8.4","","-11.1","","81","","","","34","","21","","9.7","","98.17","","","","-16","","Snow"
"-81.38","48.57","TIMMINS A","6078286","2021-03-03 18:00","2021","03","03","18:00","-9.3","","-12.0","","81","","","","35","","18","","24.1","","98.27","","","","-17","","Snow"
"-81.38","48.57","TIMMINS A","6078286","2021-03-03 19:00","2021","03","03","19:00","-10.5","","-13.2","","81","","","","35","","17","","9.7","","98.37","","","","-18","","Snow"
"-81.38","48.57","TIMMINS A","6078286","2021-03-03 20:00","2021","03","03","20:00","-11.8","","-14.5","","81","","","","35","","22","","9.7","","98.48","","","","-21","","Snow"
"-81.38","48.57","TIMMINS A","6078286","2021-03-03 21:00","2021","03","03","21:00","-12.9","","-15.6","","80","","","","34","","21","","16.1","","98.52","","","","-22","","Snow,Blowing Snow"
"-81.38","48.57","TIMMINS A","6078286","2021-03-03 22:00","2021","03","03","22:00","-14.8","","-18.3","","74","","","","35","","21","","19.3","","98.65","","","","-24","","Snow,Blowing Snow"
"-81.38","48.57","TIMMINS A","6078286","2021-03-03 23:00","2021","03","03","23:00","-15.9","","-18.9","","78","","","","35","","18","","19.3","","98.67","","","","-25","","Snow,Blowing Snow"
"-81.38","48.57","TIMMINS A","6078286","2021-03-04 00:00","2021","03","04","00:00","-17.2","","-20.1","","78","","","","34","","17","","24.1","","98.74","","","","-26","","Snow,Blowing Snow"
"-81.38","48.57","TIMMINS A","6078286","2021-03-04 01:00","2021","03","04","01:00","-19.1","","-21.7","","81","","","","34","","13","","24.1","","98.81","","","","-27","","Snow"
"-81.38","48.57","TIMMINS A","6078286","2021-03-04 02:00","2021","03","04","02:00","-20.5","","-23.0","","80","","","","33","","12","","24.1","","98.88","","","","-29","","Snow"
"-81.38","48.57","TIMMINS A","6078286","2021-03-04 03:00","2021","03","04","03:00","-22.0","","-24.7","","79","","","","34","","12","","24.1","","98.91","","","","-30","","NA"
"-81.38","48.57","TIMMINS A","6078286","2021-03-04 04:00","2021","03","04","04:00","-22.6","","-25.0","","81","","","","31","","13","","24.1","","98.95","","","","-32","","Snow"
"-81.38","48.57","TIMMINS A","6078286","2021-03-04 05:00","2021","03","04","05:00","-24.1","","-26.5","","81","","","","29","","9","","24.1","","98.97","","","","-32","","Ice Crystals"
"-81.38","48.57","TIMMINS A","6078286","2021-03-04 06:00","2021","03","04","06:00","-25.3","","-27.8","","80","","","","29","","11","","24.1","","99.00","","","","-34","","Ice Crystals"
"-81.38","48.57","TIMMINS A","6078286","2021-03-04 07:00","2021","03","04","07:00","-25.2","","-27.7","","80","","","","29","","12","","24.1","","99.04","","","","-34","","Ice Crystals"
"-81.38","48.57","TIMMINS A","6078286","2021-03-04 08:00","2021","03","04","08:00","-23.8","","-26.6","","78","","","","32","","17","","24.1","","99.09","","","","-34","","NA"
"-81.38","48.57","TIMMINS A","6078286","2021-03-04 09:00","2021","03","04","09:00","-22.4","","-26.1","","72","","","","33","","13","","24.1","","99.15","","","","-31","","NA"
"-81.38","48.57","TIMMINS A","6078286","2021-03-04 10:00","2021","03","04","10:00","-20.4","","-25.6","","64","","","","34","","18","","24.1","","99.13","","","","-30","","Mainly Clear"
"-81.38","48.57","TIMMINS A","6078286","2021-03-04 11:00","2021","03","04","11:00","-18.1","","-24.0","","60","","","","33","","21","","24.1","","99.08","","","","-28","","NA"
"-81.38","48.57","TIMMINS A","6078286","2021-03-04 12:00","2021","03","04","12:00","-16.1","","-22.3","","59","","","","32","","16","","24.1","","99.08","","","","-25","","NA"
"-81.38","48.57","TIMMINS A","6078286","2021-03-04 13:00","2021","03","04","13:00","-14.8","","-21.2","","58","","","","31","","21","","24.1","","99.02","","","","-24","","Mainly Clear"
"-81.38","48.57","TIMMINS A","6078286","2021-03-04 14:00","2021","03","04","14:00","-13.3","","-20.3","","56","","","","31","","22","","24.1","","98.97","","","","-22","","NA"
"-81.38","48.57","TIMMINS A","6078286","2021-03-04 15:00","2021","03","04","15:00","-12.2","","-19.5","","55","","","","33","","24","","24.1","","98.96","","","","-21","","NA"
"-81.38","48.57","TIMMINS A","6078286","2021-03-04 16:00","2021","03","04","16:00","-11.9","","-19.2","","55","","","","32","","22","","24.1","","98.92","","","","-21","","Clear"
"-81.38","48.57","TIMMINS A","6078286","2021-03-04 17:00","2021","03","04","17:00","-11.8","","-19.4","","54","","","","31","","19","","24.1","","98.87","","","","-20","","NA"
"-81.38","48.57","TIMMINS A","6078286","2021-03-04 18:00","2021","03","04","18:00","-12.7","","-18.9","","60","","","","31","","16","","24.1","","98.82","","","","-20","","NA"
"-81.38","48.57","TIMMINS A","6078286","2021-03-04 19:00","2021","03","04","19:00","-14.2","","-19.1","","67","","","","31","","13","","24.1","","98.82","","","","-21","","Clear"
"-81.38","48.57","TIMMINS A","6078286","2021-03-04 20:00","2021","03","04","20:00","-15.8","","-19.7","","72","","","","30","","11","","24.1","","98.79","","","","-23","","NA"
"-81.38","48.57","TIMMINS A","6078286","2021-03-04 21:00","2021","03","04","21:00","-15.7","","-19.2","","75","","","","31","","14","","24.1","","98.78","","","","-23","","NA"
"-81.38","48.57","TIMMINS A","6078286","2021-03-04 22:00","2021","03","04","22:00","-15.8","","-19.3","","75","","","","31","","19","","24.1","","98.75","","","","-25","","Clear"
"-81.38","48.57","TIMMINS A","6078286","2021-03-04 23:00","2021","03","04","23:00","-16.3","","-20.1","","73","","","","30","","13","","24.1","","98.67","","","","-24","","NA"
"-81.38","48.57","TIMMINS A","6078286","2021-03-05 00:00","2021","03","05","00:00","-17.0","","-19.9","","79","","","","29","","13","","24.1","","98.58","","","","-25","","NA"
"-81.38","48.57","TIMMINS A","6078286","2021-03-05 01:00","2021","03","05","01:00","-16.7","","-19.8","","77","","","","30","","13","","24.1","","98.50","","","","-24","","Clear"
"-81.38","48.57","TIMMINS A","6078286","2021-03-05 02:00","2021","03","05","02:00","-16.6","","-20.7","","71","","","","30","","16","","24.1","","98.46","","","","-25","","NA"
"-81.38","48.57","TIMMINS A","6078286","2021-03-05 03:00","2021","03","05","03:00","-17.1","","-21.6","","69","","","","30","","14","","24.1","","98.36","","","","-25","","NA"
"-81.38","48.57","TIMMINS A","6078286","2021-03-05 04:00","2021","03","05","04:00","-16.9","","-21.9","","66","","","","29","","17","","24.1","","98.28","","","","-26","","Clear"
"-81.38","48.57","TIMMINS A","6078286","2021-03-05 05:00","2021","03","05","05:00","-16.6","","-21.8","","65","","","","29","","18","","24.1","","98.22","","","","-26","","NA"
"-81.38","48.57","TIMMINS A","6078286","2021-03-05 06:00","2021","03","05","06:00","-17.0","","-22.6","","62","","","","29","","19","","24.1","","98.15","","","","-26","","NA"
"-81.38","48.57","TIMMINS A","6078286","2021-03-05 07:00","2021","03","05","07:00","-17.0","","-23.3","","59","","","","29","","19","","24.1","","98.12","","","","-26","","Mainly Clear"
"-81.38","48.57","TIMMINS A","6078286","2021-03-05 08:00","2021","03","05","08:00","-15.8","","-22.3","","58","","","","29","","25","","24.1","","98.10","","","","-26","","NA"
"-81.38","48.57","TIMMINS A","6078286","2021-03-05 09:00","2021","03","05","09:00","-14.0","","-19.9","","62","","","","31","","26","","24.1","","98.07","","","","-24","","Blowing Snow"
"-81.38","48.57","TIMMINS A","6078286","2021-03-05 10:00","2021","03","05","10:00","-13.1","","-18.2","","66","","","","31","","37","","12.9","","98.04","","","","-25","","Snow,Blowing Snow"
"-81.38","48.57","TIMMINS A","6078286","2021-03-05 11:00","2021","03","05","11:00","-12.0","","-16.8","","68","","","","32","","27","","8.1","","98.08","","","","-22","","Snow,Blowing Snow"
"-81.38","48.57","TIMMINS A","6078286","2021-03-05 12:00","2021","03","05","12:00","-11.7","","-16.6","","68","","","","33","","35","","4.0","","98.14","","","","-22","","Snow,Blowing Snow"
"-81.38","48.57","TIMMINS A","6078286","2021-03-05 13:00","2021","03","05","13:00","-11.0","","-15.5","","70","","","","34","","29","","4.0","","98.16","","","","-21","","Snow,Blowing Snow"
"-81.38","48.57","TIMMINS A","6078286","2021-03-05 14:00","2021","03","05","14:00","-10.8","","-15.1","","71","","","","31","","27","","2.4","","98.20","","","","-20","","Snow,Blowing Snow"
"-81.38","48.57","TIMMINS A","6078286","2021-03-05 15:00","2021","03","05","15:00","-10.5","","-14.6","","72","","","","31","","22","","4.0","","98.23","","","","-19","","Snow,Blowing Snow"
"-81.38","48.57","TIMMINS A","6078286","2021-03-05 16:00","2021","03","05","16:00","-10.2","","-14.8","","69","","","","33","","29","","3.2","","98.26","","","","-20","","Snow,Blowing Snow"
"-81.38","48.57","TIMMINS A","6078286","2021-03-05 17:00","2021","03","05","17:00","-10.5","","-13.6","","78","","","","32","","17","","2.4","","98.32","","","","-18","","Snow,Blowing Snow"
"-81.38","48.57","TIMMINS A","6078286","2021-03-05 18:00","2021","03","05","18:00","-10.5","","-14.1","","75","","","","32","","25","","4.0","","98.36","","","","-19","","Snow,Blowing Snow"
"-81.38","48.57","TIMMINS A","6078286","2021-03-05 19:00","2021","03","05","19:00","-10.8","","-13.1","","83","","","","32","","11","","2.4","","98.38","","","","-17","","Snow,Blowing Snow"
"-81.38","48.57","TIMMINS A","6078286","2021-03-05 20:00","2021","03","05","20:00","-10.2","","-12.7","","82","","","","31","","25","","3.2","","98.39","","","","-19","","Snow,Blowing Snow"
"-81.38","48.57","TIMMINS A","6078286","2021-03-05 21:00","2021","03","05","21:00","-10.4","","-13.9","","76","","","","31","","27","","14.5","","98.42","","","","-20","","Snow,Blowing Snow"
"-81.38","48.57","TIMMINS A","6078286","2021-03-05 22:00","2021","03","05","22:00","-11.0","","-14.0","","78","","","","32","","22","","4.8","","98.44","","","","-20","","Snow,Blowing Snow"
"-81.38","48.57","TIMMINS A","6078286","2021-03-05 23:00","2021","03","05","23:00","-11.3","","-15.3","","73","","","","33","","28","","4.8","","98.44","","","","-21","","Snow,Blowing Snow"
"-81.38","48.57","TIMMINS A","6078286","2021-03-06 00:00","2021","03","06","00:00","-12.0","","-15.3","","76","","","","32","","21","","4.8","","98.45","","","","-21","","Snow,Blowing Snow"
"-81.38","48.57","TIMMINS A","6078286","2021-03-06 01:00","2021","03","06","01:00","-12.5","","-15.5","","79","","","","31","","19","","9.7","","98.45","","","","-21","","Snow,Blowing Snow"
"-81.38","48.57","TIMMINS A","6078286","2021-03-06 02:00","2021","03","06","02:00","-12.8","","-16.2","","76","","","","32","","25","","19.3","","98.47","","","","-22","","Snow,Blowing Snow"
"-81.38","48.57","TIMMINS A","6078286","2021-03-06 03:00","2021","03","06","03:00","-13.4","","-17.4","","73","","","","32","","20","","24.1","","98.48","","","","-22","","Snow,Blowing Snow"
"-81.38","48.57","TIMMINS A","6078286","2021-03-06 04:00","2021","03","06","04:00","-14.0","","-18.7","","68","","","","31","","19","","24.1","","98.49","","","","-23","","Snow,Blowing Snow"
"-81.38","48.57","TIMMINS A","6078286","2021-03-06 05:00","2021","03","06","05:00","-14.5","","-19.2","","68","","","","31","","23","","24.1","","98.53","","","","-24","","NA"
"-81.38","48.57","TIMMINS A","6078286","2021-03-06 06:00","2021","03","06","06:00","-15.0","","-19.4","","70","","","","32","","22","","24.1","","98.57","","","","-25","","NA"
"-81.38","48.57","TIMMINS A","6078286","2021-03-06 07:00","2021","03","06","07:00","-15.8","","-19.6","","73","","","","31","","25","","24.1","","98.60","","","","-26","","Blowing Snow"
"-81.38","48.57","TIMMINS A","6078286","2021-03-06 08:00","2021","03","06","08:00","-15.9","","-19.8","","72","","","","31","","23","","24.1","","98.66","","","","-26","","Blowing Snow"
"-81.38","48.57","TIMMINS A","6078286","2021-03-06 09:00","2021","03","06","09:00","-15.3","","-19.9","","68","","","","30","","26","","24.1","","98.67","","","","-26","","Blowing Snow"
"-81.38","48.57","TIMMINS A","6078286","2021-03-06 10:00","2021","03","06","10:00","-14.2","","-20.2","","61","","","","33","","27","","24.1","","98.68","","","","-25","","Blowing Snow"
"-81.38","48.57","TIMMINS A","6078286","2021-03-06 11:00","2021","03","06","11:00","-12.8","","-20.3","","54","","","","31","","21","","24.1","","98.69","","","","-22","","NA"
"-81.38","48.57","TIMMINS A","6078286","2021-03-06 12:00","2021","03","06","12:00","-11.3","","-20.6","","47","","","","31","","17","","24.1","","98.69","","","","-19","","NA"
"-81.38","48.57","TIMMINS A","6078286","2021-03-06 13:00","2021","03","06","13:00","-9.9","","-20.4","","43","","","","32","","20","","24.1","","98.66","","","","-18","","Mainly Clear"
"-81.38","48.57","TIMMINS A","6078286","2021-03-06 14:00","2021","03","06","14:00","-9.1","","-18.6","","47","","","","30","","28","","24.1","","98.69","","","","-18","","Blowing Snow"
"-81.38","48.57","TIMMINS A","6078286","2021-03-06 15:00","2021","03","06","15:00","-8.7","","-17.7","","49","","","","32","","23","","24.1","","98.72","","","","-17","","Blowing Snow"
"-81.38","48.57","TIMMINS A","6078286","2021-03-06 16:00","2021","03","06","16:00","-8.4","","-17.4","","49","","","","32","","21","","24.1","","98.75","","","","-16","","Blowing Snow"
"-81.38","48.57","TIMMINS A","6078286","2021-03-06 17:00","2021","03","06","17:00","-9.1","","-18.0","","49","","","","31","","20","","24.1","","98.80","","","","-17","","NA"
"-81.38","48.57","TIMMINS A","6078286","2021-03-06 18:00","2021","03","06","18:00","-10.4","","-18.7","","51","","","","33","","19","","24.1","","98.86","","","","-18","","NA"
"-81.38","48.57","TIMMINS A","6078286","2021-03-06 19:00","2021","03","06","19:00","-12.6","","-19.6","","56","","","","33","","11","","24.1","","98.95","","","","-19","","Clear"
"-81.38","48.57","TIMMINS A","6078286","2021-03-06 20:00","2021","03","06","20:00","-14.4","","-20.6","","60","","","","32","","9","","24.1","","98.97","","","","-20","","NA"
"-81.38","48.57","TIMMINS A","6078286","2021-03-06 21:00","2021","03","06","21:00","-15.9","","-21.4","","63","","","","33","","11","","24.1","","98.99","","","","-23","","NA"
"-81.38","48.57","TIMMINS A","6078286","2021-03-06 22:00","2021","03","06","22:00","-16.9","","-22.1","","65","","","","33","","11","","24.1","","99.05","","","","-24","","Clear"
"-81.38","48.57","TIMMINS A","6078286","2021-03-06 23:00","2021","03","06","23:00","-18.6","","-22.6","","71","","","","31","","8","","24.1","","99.11","","","","-25","","NA"
"-81.38","48.57","TIMMINS A","6078286","2021-03-07 00:00","2021","03","07","00:00","-24.2","","-26.5","","82","","","","27","","7","","24.1","","99.03","","","","-31","","NA"
"-81.38","48.57","TIMMINS A","6078286","2021-03-07 01:00","2021","03","07","01:00","-24.4","","-26.9","","81","","","","30","","7","","24.1","","99.07","","","","-31","","Clear"
"-81.38","48.57","TIMMINS A","6078286","2021-03-07 02:00","2021","03","07","02:00","-26.9","","-29.9","","76","","","","28","","5","","24.1","","99.14","","","","-32","","NA"
"-81.38","48.57","TIMMINS A","6078286","2021-03-07 03:00","2021","03","07","03:00","-27.3","","-30.2","","77","","","","36","","3","","24.1","","99.16","","","","-30","","NA"
"-81.38","48.57","TIMMINS A","6078286","2021-03-07 04:00","2021","03","07","04:00","-29.2","","-31.9","","78","","","","27","","4","","24.1","","99.22","","","","-34","","Clear"
"-81.38","48.57","TIMMINS A","6078286","2021-03-07 05:00","2021","03","07","05:00","-29.6","","-32.1","","79","","","","20","","4","","24.1","","99.24","","","","-34","","NA"
"-81.38","48.57","TIMMINS A","6078286","2021-03-07 06:00","2021","03","07","06:00","-30.8","","-34.0","","74","","","","28","","5","","24.1","","99.31","","","","-37","","NA"
"-81.38","48.57","TIMMINS A","6078286","2021-03-07 07:00","2021","03","07","07:00","-30.5","","-33.5","","76","","","","36","","3","","24.1","","99.38","","","","-34","","Ice Crystals"
"-81.38","48.57","TIMMINS A","6078286","2021-03-07 08:00","2021","03","07","08:00","-29.1","","-32.0","","76","","","","18","","7","","24.1","","99.41","","","","-36","","Ice Crystals"
"-81.38","48.57","TIMMINS A","6078286","2021-03-07 09:00","2021","03","07","09:00","-23.2","","-26.8","","73","","","","16","","5","","24.1","","99.41","","","","-28","","NA"
"-81.38","48.57","TIMMINS A","6078286","2021-03-07 10:00","2021","03","07","10:00","-17.8","","-23.7","","61","","","","12","","6","","24.1","","99.39","","","","-22","","Clear"
"-81.38","48.57","TIMMINS A","6078286","2021-03-07 11:00","2021","03","07","11:00","-14.4","","-22.5","","51","","","","18","","12","","24.1","","99.39","","","","-21","","NA"
"-81.38","48.57","TIMMINS A","6078286","2021-03-07 12:00","2021","03","07","12:00","-12.1","","-22.8","","41","","","","15","","9","","24.1","","99.36","","","","-17","","NA"
"-81.38","48.57","TIMMINS A","6078286","2021-03-07 13:00","2021","03","07","13:00","-9.8","","-22.2","","36","","","","13","","8","","24.1","","99.31","","","","-14","","Clear"
"-81.38","48.57","TIMMINS A","6078286","2021-03-07 14:00","2021","03","07","14:00","-8.5","","-22.5","","32","","","","17","","12","","24.1","","99.21","","","","-14","","NA"
"-81.38","48.57","TIMMINS A","6078286","2021-03-07 15:00","2021","03","07","15:00","-7.2","","-22.6","","29","","","","15","","13","","24.1","","99.20","","","","-13","","NA"
"-81.38","48.57","TIMMINS A","6078286","2021-03-07 16:00","2021","03","07","16:00","-6.6","","-22.5","","28","","","","17","","10","","24.1","","99.14","","","","-11","","Mainly Clear"
"-81.38","48.57","TIMMINS A","6078286","2021-03-07 17:00","2021","03","07","17:00","-6.5","","-21.1","","31","","","","15","","8","","24.1","","99.09","","","","-10","","NA"
"-81.38","48.57","TIMMINS A","6078286","2021-03-07 18:00","2021","03","07","18:00","-7.1","","-20.9","","33","","","","15","","12","","24.1","","99.04","","","","-12","","NA"
"-81.38","48.57","TIMMINS A","6078286","2021-03-07 19:00","2021","03","07","19:00","-9.3","","-20.9","","39","","","","15","","7","","24.1","","99.01","","","","-13","","Clear"
"-81.38","48.57","TIMMINS A","6078286","2021-03-07 20:00","2021","03","07","20:00","-10.3","","-21.0","","42","","","","15","","5","","24.1","","98.99","","","","-13","","NA"
"-81.38","48.57","TIMMINS A","6078286","2021-03-07 21:00","2021","03","07","21:00","-12.1","","-21.4","","46","","","","15","","5","","24.1","","98.92","","","","-15","","NA"
"-81.38","48.57","TIMMINS A","6078286","2021-03-07 22:00","2021","03","07","22:00","-12.6","","-22.1","","46","","","","16","","10","","24.1","","98.85","","","","-18","","Clear"
"-81.38","48.57","TIMMINS A","6078286","2021-03-07 23:00","2021","03","07","23:00","-10.9","","-22.3","","39","","","","17","","13","","24.1","","98.78","","","","-17","","NA"
"-81.38","48.57","TIMMINS A","6078286","2021-03-08 00:00","2021","03","08","00:00","-10.4","","-21.9","","39","","","","17","","18","","24.1","","98.71","","","","-18","","NA"
"-81.38","48.57","TIMMINS A","6078286","2021-03-08 01:00","2021","03","08","01:00","-9.8","","-20.6","","42","","","","16","","16","","24.1","","98.64","","","","-17","","Cloudy"
"-81.38","48.57","TIMMINS A","6078286","2021-03-08 02:00","2021","03","08","02:00","-8.7","","-19.1","","43","","","","17","","19","","24.1","","98.56","","","","-16","","NA"
"-81.38","48.57","TIMMINS A","6078286","2021-03-08 03:00","2021","03","08","03:00","-7.9","","-17.2","","48","","","","17","","16","","24.1","","98.48","","","","-14","","NA"
"-81.38","48.57","TIMMINS A","6078286","2021-03-08 04:00","2021","03","08","04:00","-6.8","","-15.9","","49","","","","19","","18","","24.1","","98.41","","","","-13","","Cloudy"
"-81.38","48.57","TIMMINS A","6078286","2021-03-08 05:00","2021","03","08","05:00","-6.7","","-14.8","","53","","","","18","","14","","24.1","","98.36","","","","-12","","NA"
"-81.38","48.57","TIMMINS A","6078286","2021-03-08 06:00","2021","03","08","06:00","-7.0","","-13.9","","58","","","","17","","13","","24.1","","98.28","","","","-13","","NA"
"-81.38","48.57","TIMMINS A","6078286","2021-03-08 07:00","2021","03","08","07:00","-6.6","","-12.6","","63","","","","17","","12","","24.1","","98.24","","","","-12","","Cloudy"
"-81.38","48.57","TIMMINS A","6078286","2021-03-08 08:00","2021","03","08","08:00","-5.6","","-11.2","","65","","","","16","","20","","24.1","","98.17","","","","-12","","NA"
"-81.38","48.57","TIMMINS A","6078286","2021-03-08 09:00","2021","03","08","09:00","-4.2","","-9.6","","66","","","","17","","17","","24.1","","98.15","","","","-10","","NA"
"-81.38","48.57","TIMMINS A","6078286","2021-03-08 10:00","2021","03","08","10:00","-2.2","","-7.7","","66","","","","19","","15","","24.1","","98.13","","","","-7","","Cloudy"
"-81.38","48.57","TIMMINS A","6078286","2021-03-08 11:00","2021","03","08","11:00","-0.9","","-6.4","","66","","","","19","","14","","24.1","","98.07","","","","-5","","NA"
"-81.38","48.57","TIMMINS A","6078286","2021-03-08 12:00","2021","03","08","12:00","0.5","","-5.4","","65","","","","19","","15","","24.1","","98.06","","","","","","NA"
"-81.38","48.57","TIMMINS A","6078286","2021-03-08 13:00","2021","03","08","13:00","1.2","","-4.5","","65","","","","19","","13","","24.1","","98.01","","","","","","Cloudy"
"-81.38","48.57","TIMMINS A","6078286","2021-03-08 14:00","2021","03","08","14:00","2.5","","-3.8","","63","","","","18","","18","","24.1","","97.90","","","","","","NA"
"-81.38","48.57","TIMMINS A","6078286","2021-03-08 15:00","2021","03","08","15:00","4.1","","-3.1","","60","","","","25","","11","","24.1","","97.91","","","","","","NA"
"-81.38","48.57","TIMMINS A","6078286","2021-03-08 16:00","2021","03","08","16:00","4.0","","-2.9","","61","","","","26","","6","","24.1","","97.93","","","","","","Cloudy"
"-81.38","48.57","TIMMINS A","6078286","2021-03-08 17:00","2021","03","08","17:00","3.5","","-1.5","","69","","","","28","","22","","16.1","","98.00","","","","","","Rain"
"-81.38","48.57","TIMMINS A","6078286","2021-03-08 18:00","2021","03","08","18:00","2.6","","-0.5","","80","","","","29","","15","","16.1","","98.10","","","","","","Rain"
"-81.38","48.57","TIMMINS A","6078286","2021-03-08 19:00","2021","03","08","19:00","2.2","","-0.5","","82","","","","30","","13","","16.1","","98.20","","","","","","Rain"
"-81.38","48.57","TIMMINS A","6078286","2021-03-08 20:00","2021","03","08","20:00","2.4","","-1.2","","77","","","","29","","18","","16.1","","98.28","","","","","","Rain"
"-81.38","48.57","TIMMINS A","6078286","2021-03-08 21:00","2021","03","08","21:00","1.8","","-1.7","","77","","","","30","","18","","24.1","","98.38","","","","","","NA"
"-81.38","48.57","TIMMINS A","6078286","2021-03-08 22:00","2021","03","08","22:00","1.4","","-2.0","","78","","","","30","","14","","24.1","","98.43","","","","","","Cloudy"
"-81.38","48.57","TIMMINS A","6078286","2021-03-08 23:00","2021","03","08","23:00","0.1","","-4.1","","74","","","","28","","10","","24.1","","98.48","","","","","","NA"
"-81.38","48.57","TIMMINS A","6078286","2021-03-09 00:00","2021","03","09","00:00","-0.9","","-4.6","","76","","","","25","","7","","24.1","","98.53","","","","-3","","NA"
"-81.38","48.57","TIMMINS A","6078286","2021-03-09 01:00","2021","03","09","01:00","-1.7","","-4.8","","79","","","","25","","7","","24.1","","98.57","","","","-4","","Clear"
"-81.38","48.57","TIMMINS A","6078286","2021-03-09 02:00","2021","03","09","02:00","-3.1","","-5.4","","84","","","","25","","5","","24.1","","98.61","","","","-5","","NA"
"-81.38","48.57","TIMMINS A","6078286","2021-03-09 03:00","2021","03","09","03:00","-4.0","","-5.5","","90","","","","23","","5","","24.1","","98.65","","","","-6","","NA"
"-81.38","48.57","TIMMINS A","6078286","2021-03-09 04:00","2021","03","09","04:00","-4.4","","-5.6","","91","","","","24","","7","","24.1","","98.70","","","","-8","","Mainly Clear"
"-81.38","48.57","TIMMINS A","6078286","2021-03-09 05:00","2021","03","09","05:00","-4.5","","-5.5","","92","","","","27","","8","","24.1","","98.77","","","","-8","","NA"
"-81.38","48.57","TIMMINS A","6078286","2021-03-09 06:00","2021","03","09","06:00","-5.6","","-6.3","","95","","","","26","","8","","24.1","","98.87","","","","-9","","NA"
"-81.38","48.57","TIMMINS A","6078286","2021-03-09 07:00","2021","03","09","07:00","-8.8","","-9.3","","96","","","","36","","1","","24.1","","98.91","","","","-9","","Clear"
"-81.38","48.57","TIMMINS A","6078286","2021-03-09 08:00","2021","03","09","08:00","-7.5","","-8.0","","96","","","","17","","7","","24.1","","98.97","","","","-11","","NA"
"-81.38","48.57","TIMMINS A","6078286","2021-03-09 09:00","2021","03","09","09:00","-3.2","","-4.7","","89","","","","17","","8","","24.1","","99.01","","","","-6","","NA"
"-81.38","48.57","TIMMINS A","6078286","2021-03-09 10:00","2021","03","09","10:00","0.9","","-3.9","","71","","","","18","","10","","24.1","","99.06","","","","","","Mainly Clear"
"-81.38","48.57","TIMMINS A","6078286","2021-03-09 11:00","2021","03","09","11:00","4.2","","-3.5","","57","","","","17","","14","","24.1","","99.04","","","","","","NA"
"-81.38","48.57","TIMMINS A","6078286","2021-03-09 12:00","2021","03","09","12:00","6.0","","-3.5","","50","","","","17","","15","","24.1","","99.03","","","","","","NA"
"-81.38","48.57","TIMMINS A","6078286","2021-03-09 13:00","2021","03","09","13:00","7.6","","-4.7","","42","","","","17","","12","","24.1","","99.00","","","","","","Mainly Clear"
"-81.38","48.57","TIMMINS A","6078286","2021-03-09 14:00","2021","03","09","14:00","7.7","","-4.9","","40","","","","17","","17","","24.1","","98.92","","","","","","NA"
"-81.38","48.57","TIMMINS A","6078286","2021-03-09 15:00","2021","03","09","15:00","8.2","","-6.8","","34","","","","17","","19","","24.1","","98.84","","","","","","NA"
"-81.38","48.57","TIMMINS A","6078286","2021-03-09 16:00","2021","03","09","16:00","9.5","","-7.4","","30","","","","19","","19","","24.1","","98.81","","","","","","Mostly Cloudy"
"-81.38","48.57","TIMMINS A","6078286","2021-03-09 17:00","2021","03","09","17:00","8.5","","-7.4","","32","","","","19","","12","","24.1","","98.76","","","","","","NA"
"-81.38","48.57","TIMMINS A","6078286","2021-03-09 18:00","2021","03","09","18:00","7.7","","-6.1","","37","","","","16","","17","","24.1","","98.70","","","","","","NA"
"-81.38","48.57","TIMMINS A","6078286","2021-03-09 19:00","2021","03","09","19:00","6.1","","-5.7","","43","","","","15","","13","","24.1","","98.69","","","","","","Cloudy"
"-81.38","48.57","TIMMINS A","6078286","2021-03-09 20:00","2021","03","09","20:00","6.0","","-7.0","","39","","","","15","","18","","24.1","","98.60","","","","","","NA"
"-81.38","48.57","TIMMINS A","6078286","2021-03-09 21:00","2021","03","09","21:00","5.8","","-6.1","","42","","","","17","","22","","24.1","","98.60","","","","","","NA"
"-81.38","48.57","TIMMINS A","6078286","2021-03-09 22:00","2021","03","09","22:00","5.6","","-5.7","","44","","","","17","","28","","24.1","","98.53","","","","","","Cloudy"
"-81.38","48.57","TIMMINS A","6078286","2021-03-09 23:00","2021","03","09","23:00","5.0","","-5.4","","47","","","","17","","26","","24.1","","98.47","","","","","","NA"
"-81.38","48.57","TIMMINS A","6078286","2021-03-10 00:00","2021","03","10","00:00","4.2","","-4.8","","52","","","","17","","28","","24.1","","98.39","","","","","","NA"
"-81.38","48.57","TIMMINS A","6078286","2021-03-10 01:00","2021","03","10","01:00","4.0","","-3.8","","57","","","","18","","28","","24.1","","98.29","","","","","","Cloudy"
"-81.38","48.57","TIMMINS A","6078286","2021-03-10 02:00","2021","03","10","02:00","3.9","","-3.7","","58","","","","18","","26","","24.1","","98.22","","","","","","NA"
"-81.38","48.57","TIMMINS A","6078286","2021-03-10 03:00","2021","03","10","03:00","3.9","","-2.6","","63","","","","19","","23","","24.1","","98.13","","","","","","NA"
"-81.38","48.57","TIMMINS A","6078286","2021-03-10 04:00","2021","03","10","04:00","3.9","","-2.0","","65","","","","19","","23","","24.1","","98.02","","","","","","Cloudy"
"-81.38","48.57","TIMMINS A","6078286","2021-03-10 05:00","2021","03","10","05:00","3.9","","-2.2","","64","","","","18","","27","","24.1","","97.88","","","","","","NA"
"-81.38","48.57","TIMMINS A","6078286","2021-03-10 06:00","2021","03","10","06:00","4.2","","-2.2","","63","","","","18","","28","","24.1","","97.80","","","","","","NA"
"-81.38","48.57","TIMMINS A","6078286","2021-03-10 07:00","2021","03","10","07:00","4.7","","-1.6","","64","","","","18","","29","","24.1","","97.72","","","","","","Cloudy"
"-81.38","48.57","TIMMINS A","6078286","2021-03-10 08:00","2021","03","10","08:00","4.6","","-1.5","","65","","","","18","","30","","24.1","","97.66","","","","","","NA"
"-81.38","48.57","TIMMINS A","6078286","2021-03-10 09:00","2021","03","10","09:00","4.9","","-1.1","","65","","","","19","","19","","24.1","","97.64","","","","","","NA"
"-81.38","48.57","TIMMINS A","6078286","2021-03-10 10:00","2021","03","10","10:00","5.3","","-0.7","","65","","","","19","","24","","24.1","","97.64","","","","","","Cloudy"
"-81.38","48.57","TIMMINS A","6078286","2021-03-10 11:00","2021","03","10","11:00","5.9","","-0.3","","64","","","","19","","22","","24.1","","97.57","","","","","","NA"
"-81.38","48.57","TIMMINS A","6078286","2021-03-10 12:00","2021","03","10","12:00","6.6","","0.3","","64","","","","19","","26","","24.1","","97.51","","","","","","NA"
"-81.38","48.57","TIMMINS A","6078286","2021-03-10 13:00","2021","03","10","13:00","7.1","","0.6","","63","","","","19","","21","","24.1","","97.46","","","","","","Cloudy"
"-81.38","48.57","TIMMINS A","6078286","2021-03-10 14:00","2021","03","10","14:00","8.0","","1.0","","61","","","","21","","28","","24.1","","97.43","","","","","","NA"
"-81.38","48.57","TIMMINS A","6078286","2021-03-10 15:00","2021","03","10","15:00","7.6","","1.6","","65","","","","20","","22","","24.1","","97.36","","","","","","NA"
"-81.38","48.57","TIMMINS A","6078286","2021-03-10 16:00","2021","03","10","16:00","6.0","","2.9","","81","","","","20","","17","","14.5","","97.40","","","","","","Rain Showers"
"-81.38","48.57","TIMMINS A","6078286","2021-03-10 17:00","2021","03","10","17:00","4.4","","3.6","","94","","","","20","","12","","9.7","","97.41","","","","","","Rain Showers"
"-81.38","48.57","TIMMINS A","6078286","2021-03-10 18:00","2021","03","10","18:00","4.0","","3.5","","96","","","","20","","9","","9.7","","97.46","","","","","","Rain Showers,Fog"
"-81.38","48.57","TIMMINS A","6078286","2021-03-10 19:00","2021","03","10","19:00","3.9","","3.5","","97","","","","21","","7","","4.0","","97.48","","","","","","Rain,Fog"
"-81.38","48.57","TIMMINS A","6078286","2021-03-10 20:00","2021","03","10","20:00","3.2","","2.9","","98","","","","20","","7","","1.6","","97.52","","","","","","Rain"
"-81.38","48.57","TIMMINS A","6078286","2021-03-10 21:00","2021","03","10","21:00","0.6","","0.1","","97","","","","1","","19","","3.2","","97.56","","","","","","Rain,Fog"
"-81.38","48.57","TIMMINS A","6078286","2021-03-10 22:00","2021","03","10","22:00","-0.2","","-0.7","","97","","","","1","","17","","9.7","","97.57","","","","-5","","Freezing Rain"
"-81.38","48.57","TIMMINS A","6078286","2021-03-10 23:00","2021","03","10","23:00","-0.3","","-0.9","","96","","","","36","","17","","9.7","","97.61","","","","-5","","Freezing Rain,Ice Pellets"
"-81.38","48.57","TIMMINS A","6078286","2021-03-11 00:00","2021","03","11","00:00","-1.6","","-2.5","","93","","","","35","","17","","4.8","","97.58","","","","-7","","Freezing Rain,Ice Pellets"
"-81.38","48.57","TIMMINS A","6078286","2021-03-11 01:00","2021","03","11","01:00","-3.1","","-4.5","","91","","","","5","","20","","4.8","","97.45","","","","-9","","Freezing Rain,Snow"
"-81.38","48.57","TIMMINS A","6078286","2021-03-11 02:00","2021","03","11","02:00","-3.6","","-4.8","","91","","","","4","","20","","9.7","","97.41","","","","-10","","Freezing Rain,Snow"
"-81.38","48.57","TIMMINS A","6078286","2021-03-11 03:00","2021","03","11","03:00","-3.3","","-4.2","","94","","","","5","","15","","9.7","","97.24","","","","-8","","Freezing Rain,Snow"
"-81.38","48.57","TIMMINS A","6078286","2021-03-11 04:00","2021","03","11","04:00","-2.9","","-3.5","","95","","","","6","","11","","9.7","","97.06","","","","-7","","Freezing Rain,Snow"
"-81.38","48.57","TIMMINS A","6078286","2021-03-11 05:00","2021","03","11","05:00","-2.0","","-2.6","","96","","","","9","","14","","4.0","","96.91","","","","-7","","Freezing Drizzle,Fog"
"-81.38","48.57","TIMMINS A","6078286","2021-03-11 06:00","2021","03","11","06:00","-1.0","","-1.4","","97","","","","8","","11","","4.8","","96.75","","","","-5","","Freezing Rain,Fog"
"-81.38","48.57","TIMMINS A","6078286","2021-03-11 07:00","2021","03","11","07:00","-0.2","","-0.6","","97","","","","11","","12","","4.8","","96.45","","","","-4","","Freezing Rain,Fog"
"-81.38","48.57","TIMMINS A","6078286","2021-03-11 08:00","2021","03","11","08:00","0.1","","-0.2","","98","","","","9","","9","","1.6","","96.30","","","","","","Freezing Rain,Fog"
"-81.38","48.57","TIMMINS A","6078286","2021-03-11 09:00","2021","03","11","09:00","0.4","","0.1","","98","","","","13","","9","","0.8","","96.18","","","","","","Fog"
"-81.38","48.57","TIMMINS A","6078286","2021-03-11 10:00","2021","03","11","10:00","2.8","","2.6","","98","","","","16","","7","","0.8","","95.98","","","","","","Fog"
"-81.38","48.57","TIMMINS A","6078286","2021-03-11 11:00","2021","03","11","11:00","10.2","","7.8","","85","","","","20","","22","","24.1","","95.78","","","","","","NA"
"-81.38","48.57","TIMMINS A","6078286","2021-03-11 12:00","2021","03","11","12:00","9.8","","3.5","","65","","","","22","","23","","24.1","","95.79","","","","","","Rain"
"-81.38","48.57","TIMMINS A","6078286","2021-03-11 13:00","2021","03","11","13:00","6.5","","1.7","","71","","","","23","","21","","24.1","","95.94","","","","","","Rain"
"-81.38","48.57","TIMMINS A","6078286","2021-03-11 14:00","2021","03","11","14:00","4.2","","0.7","","78","","","","22","","36","","24.1","","95.97","","","","","","Rain"
"-81.38","48.57","TIMMINS A","6078286","2021-03-11 15:00","2021","03","11","15:00","4.2","","-0.7","","70","","","","22","","31","","24.1","","96.02","","","","","","Rain"
"-81.38","48.57","TIMMINS A","6078286","2021-03-11 16:00","2021","03","11","16:00","4.0","","-0.6","","72","","","","24","","19","","24.1","","96.09","","","","","","Rain"
"-81.38","48.57","TIMMINS A","6078286","2021-03-11 17:00","2021","03","11","17:00","1.6","","-2.7","","73","","","","26","","30","","24.1","","96.27","","","","","","Rain"
"-81.38","48.57","TIMMINS A","6078286","2021-03-11 18:00","2021","03","11","18:00","-4.0","","-6.1","","85","","","","30","","30","","9.7","","96.50","","","","-12","","Snow"
"-81.38","48.57","TIMMINS A","6078286","2021-03-11 19:00","2021","03","11","19:00","-7.7","","-11.0","","77","","","","30","","31","","9.7","","96.78","","","","-17","","Snow"
"-81.38","48.57","TIMMINS A","6078286","2021-03-11 20:00","2021","03","11","20:00","-8.8","","-13.0","","72","","","","30","","28","","14.5","","97.04","","","","-18","","Snow"
"-81.38","48.57","TIMMINS A","6078286","2021-03-11 21:00","2021","03","11","21:00","-8.6","","-12.0","","77","","","","28","","25","","14.5","","97.21","","","","-17","","Snow"
"-81.38","48.57","TIMMINS A","6078286","2021-03-11 22:00","2021","03","11","22:00","-7.8","","-11.0","","78","","","","29","","24","","9.7","","97.34","","","","-16","","Snow"
"-81.38","48.57","TIMMINS A","6078286","2021-03-11 23:00","2021","03","11","23:00","-6.9","","-10.0","","79","","","","28","","25","","14.5","","97.47","","","","-15","","Snow"
"-81.38","48.57","TIMMINS A","6078286","2021-03-12 00:00","2021","03","12","00:00","-6.2","","-8.9","","81","","","","27","","16","","14.5","","97.61","","","","-12","","Snow"
"-81.38","48.57","TIMMINS A","6078286","2021-03-12 01:00","2021","03","12","01:00","-5.6","","-8.7","","79","","","","27","","21","","24.1","","97.70","","","","-12","","Snow"
"-81.38","48.57","TIMMINS A","6078286","2021-03-12 02:00","2021","03","12","02:00","-5.4","","-9.3","","74","","","","26","","14","","24.1","","97.77","","","","-11","","Snow"
"-81.38","48.57","TIMMINS A","6078286","2021-03-12 03:00","2021","03","12","03:00","-5.3","","-9.1","","75","","","","25","","10","","24.1","","97.83","","","","-10","","NA"
"-81.38","48.57","TIMMINS A","6078286","2021-03-12 04:00","2021","03","12","04:00","-4.9","","-8.8","","74","","","","24","","9","","24.1","","97.83","","","","-9","","Mostly Cloudy"
"-81.38","48.57","TIMMINS A","6078286","2021-03-12 05:00","2021","03","12","05:00","-4.4","","-8.4","","74","","","","21","","5","","24.1","","97.81","","","","-7","","NA"
"-81.38","48.57","TIMMINS A","6078286","2021-03-12 06:00","2021","03","12","06:00","-4.4","","-7.7","","78","","","","20","","6","","24.1","","97.82","","","","-7","","NA"
"-81.38","48.57","TIMMINS A","6078286","2021-03-12 07:00","2021","03","12","07:00","-4.4","","-6.2","","87","","","","19","","13","","1.6","","97.76","","","","-9","","Snow"
"-81.38","48.57","TIMMINS A","6078286","2021-03-12 08:00","2021","03","12","08:00","-4.0","","-5.5","","89","","","","19","","10","","24.1","","97.70","","","","-8","","NA"
"-81.38","48.57","TIMMINS A","6078286","2021-03-12 09:00","2021","03","12","09:00","-4.0","","-6.5","","83","","","","29","","29","","1.6","","97.76","","","","-12","","Snow,Blowing Snow"
"-81.38","48.57","TIMMINS A","6078286","2021-03-12 10:00","2021","03","12","10:00","-8.5","","-11.8","","77","","","","29","","35","","1.6","","98.02","","","","-18","","Snow,Blowing Snow"
"-81.38","48.57","TIMMINS A","6078286","2021-03-12 11:00","2021","03","12","11:00","-9.6","","-14.7","","67","","","","29","","36","","2.4","","98.23","","","","-20","","Snow,Blowing Snow"
"-81.38","48.57","TIMMINS A","6078286","2021-03-12 12:00","2021","03","12","12:00","-10.6","","-16.0","","65","","","","31","","34","","3.2","","98.39","","","","-21","","Snow,Blowing Snow"
"-81.38","48.57","TIMMINS A","6078286","2021-03-12 13:00","2021","03","12","13:00","-10.1","","-16.9","","58","","","","30","","41","","9.7","","98.51","","","","-21","","Snow,Blowing Snow"
"-81.38","48.57","TIMMINS A","6078286","2021-03-12 14:00","2021","03","12","14:00","-10.2","","-16.9","","59","","","","31","","32","","16.1","","98.62","","","","-20","","Snow,Blowing Snow"
"-81.38","48.57","TIMMINS A","6078286","2021-03-12 15:00","2021","03","12","15:00","-11.0","","-17.5","","59","","","","32","","34","","16.1","","98.77","","","","-21","","Snow,Blowing Snow"
"-81.38","48.57","TIMMINS A","6078286","2021-03-12 16:00","2021","03","12","16:00","-11.8","","-17.5","","63","","","","29","","29","","16.1","","98.89","","","","-22","","Snow,Blowing Snow"
"-81.38","48.57","TIMMINS A","6078286","2021-03-12 17:00","2021","03","12","17:00","-11.9","","-17.8","","62","","","","32","","25","","24.1","","99.01","","","","-21","","Snow,Blowing Snow"
"-81.38","48.57","TIMMINS A","6078286","2021-03-12 18:00","2021","03","12","18:00","-12.6","","-18.3","","63","","","","32","","26","","24.1","","99.12","","","","-22","","Snow,Blowing Snow"
"-81.38","48.57","TIMMINS A","6078286","2021-03-12 19:00","2021","03","12","19:00","-13.2","","-18.4","","65","","","","31","","18","","24.1","","99.21","","","","-21","","Mostly Cloudy"
"-81.38","48.57","TIMMINS A","6078286","2021-03-12 20:00","2021","03","12","20:00","-13.4","","-18.3","","67","","","","32","","14","","24.1","","99.26","","","","-21","","Snow"
"-81.38","48.57","TIMMINS A","6078286","2021-03-12 21:00","2021","03","12","21:00","-14.8","","-18.6","","73","","","","31","","4","","24.1","","99.28","","","","-18","","NA"
"-81.38","48.57","TIMMINS A","6078286","2021-03-12 22:00","2021","03","12","22:00","-17.7","","-19.8","","84","","","","28","","4","","24.1","","99.28","","","","-21","","Mainly Clear"
"-81.38","48.57","TIMMINS A","6078286","2021-03-12 23:00","2021","03","12","23:00","-18.4","","-20.5","","84","","","","27","","5","","24.1","","99.29","","","","-22","","NA"
"-81.38","48.57","TIMMINS A","6078286","2021-03-13 00:00","2021","03","13","00:00","-20.8","","-22.9","","83","","","","23","","4","","24.1","","99.28","","","","-24","","NA"
"-81.38","48.57","TIMMINS A","6078286","2021-03-13 01:00","2021","03","13","01:00","-19.1","","-20.8","","86","","","","23","","9","","24.1","","99.32","","","","-26","","Mainly Clear"
"-81.38","48.57","TIMMINS A","6078286","2021-03-13 02:00","2021","03","13","02:00","-17.7","","-20.0","","83","","","","21","","7","","24.1","","99.26","","","","-23","","NA"
"-81.38","48.57","TIMMINS A","6078286","2021-03-13 03:00","2021","03","13","03:00","-17.4","","-19.6","","83","","","","17","","9","","24.1","","99.16","","","","-24","","NA"
"-81.38","48.57","TIMMINS A","6078286","2021-03-13 04:00","2021","03","13","04:00","-17.7","","-19.9","","84","","","","18","","8","","24.1","","99.03","","","","-24","","Mainly Clear"
"-81.38","48.57","TIMMINS A","6078286","2021-03-13 05:00","2021","03","13","05:00","-17.6","","-19.9","","83","","","","18","","10","","24.1","","98.93","","","","-24","","NA"
"-81.38","48.57","TIMMINS A","6078286","2021-03-13 06:00","2021","03","13","06:00","-17.3","","-19.8","","81","","","","19","","13","","24.1","","98.84","","","","-25","","NA"
"-81.38","48.57","TIMMINS A","6078286","2021-03-13 07:00","2021","03","13","07:00","-15.5","","-18.1","","81","","","","19","","10","","24.1","","98.74","","","","-22","","Mostly Cloudy"
"-81.38","48.57","TIMMINS A","6078286","2021-03-13 08:00","2021","03","13","08:00","-12.8","","-15.9","","78","","","","20","","13","","24.1","","98.60","","","","-20","","NA"
"-81.38","48.57","TIMMINS A","6078286","2021-03-13 09:00","2021","03","13","09:00","-9.6","","-13.4","","74","","","","20","","16","","24.1","","98.47","","","","-16","","NA"
"-81.38","48.57","TIMMINS A","6078286","2021-03-13 10:00","2021","03","13","10:00","-6.7","","-11.6","","68","","","","20","","19","","24.1","","98.31","","","","-14","","Cloudy"
"-81.38","48.57","TIMMINS A","6078286","2021-03-13 11:00","2021","03","13","11:00","-5.6","","-10.7","","67","","","","22","","21","","24.1","","98.19","","","","-12","","NA"
"-81.38","48.57","TIMMINS A","6078286","2021-03-13 12:00","2021","03","13","12:00","-4.5","","-9.9","","66","","","","23","","13","","24.1","","98.07","","","","-10","","Snow"
"-81.38","48.57","TIMMINS A","6078286","2021-03-13 13:00","2021","03","13","13:00","-3.6","","-10.4","","60","","","","21","","11","","24.1","","97.98","","","","-8","","Cloudy"
"-81.38","48.57","TIMMINS A","6078286","2021-03-13 14:00","2021","03","13","14:00","-2.0","","-10.2","","54","","","","22","","15","","24.1","","97.82","","","","-7","","NA"
"-81.38","48.57","TIMMINS A","6078286","2021-03-13 15:00","2021","03","13","15:00","0.5","","-7.6","","55","","","","25","","14","","24.1","","97.74","","","","","","NA"
"-81.38","48.57","TIMMINS A","6078286","2021-03-13 16:00","2021","03","13","16:00","2.1","","-5.6","","56","","","","26","","20","","24.1","","97.73","","","","","","Cloudy"
"-81.38","48.57","TIMMINS A","6078286","2021-03-13 17:00","2021","03","13","17:00","2.1","","-5.5","","57","","","","28","","20","","24.1","","97.74","","","","","","NA"
"-81.38","48.57","TIMMINS A","6078286","2021-03-13 18:00","2021","03","13","18:00","0.9","","-3.4","","73","","","","27","","15","","24.1","","97.81","","","","","","NA"
"-81.38","48.57","TIMMINS A","6078286","2021-03-13 19:00","2021","03","13","19:00","-0.7","","-4.4","","76","","","","29","","9","","24.1","","97.87","","","","-4","","Mainly Clear"
"-81.38","48.57","TIMMINS A","6078286","2021-03-13 20:00","2021","03","13","20:00","-0.7","","-7.5","","61","","","","31","","10","","24.1","","97.92","","","","-4","","NA"
"-81.38","48.57","TIMMINS A","6078286","2021-03-13 21:00","2021","03","13","21:00","-1.7","","-4.7","","80","","","","1","","28","","24.1","","98.06","","","","-8","","Snow"
"-81.38","48.57","TIMMINS A","6078286","2021-03-13 22:00","2021","03","13","22:00","-2.9","","-6.0","","79","","","","34","","25","","24.1","","98.18","","","","-10","","Snow"
"-81.38","48.57","TIMMINS A","6078286","2021-03-13 23:00","2021","03","13","23:00","-3.5","","-7.3","","75","","","","33","","22","","24.1","","98.24","","","","-10","","Snow"
"-81.38","48.57","TIMMINS A","6078286","2021-03-14 00:00","2021","03","14","00:00","-5.6","","-11.6","","63","","","","32","","24","","24.1","","98.34","","","","-13","","Snow"
"-81.38","48.57","TIMMINS A","6078286","2021-03-14 01:00","2021","03","14","01:00","-6.8","","-11.2","","71","","","","34","","22","","24.1","","98.44","","","","-14","","Snow"
"-81.38","48.57","TIMMINS A","6078286","2021-03-14 02:00","2021","03","14","02:00","-8.1","","-13.1","","68","","","","33","","26","","24.1","","98.56","","","","-16","","Snow"
"-81.38","48.57","TIMMINS A","6078286","2021-03-14 03:00","2021","03","14","03:00","-9.4","","-13.5","","72","","","","31","","19","","24.1","","98.63","","","","-17","","Snow"
"-81.38","48.57","TIMMINS A","6078286","2021-03-14 04:00","2021","03","14","04:00","-10.2","","-14.1","","73","","","","33","","27","","9.7","","98.73","","","","-19","","Snow,Blowing Snow"
"-81.38","48.57","TIMMINS A","6078286","2021-03-14 05:00","2021","03","14","05:00","-13.0","","-17.6","","69","","","","34","","26","","9.7","","98.92","","","","-23","","Snow,Blowing Snow"
"-81.38","48.57","TIMMINS A","6078286","2021-03-14 06:00","2021","03","14","06:00","-14.1","","-18.3","","71","","","","32","","19","","24.1","","99.03","","","","-23","","Snow,Blowing Snow"
"-81.38","48.57","TIMMINS A","6078286","2021-03-14 07:00","2021","03","14","07:00","-14.3","","-19.1","","67","","","","33","","23","","24.1","","99.12","","","","-24","","Blowing Snow"
"-81.38","48.57","TIMMINS A","6078286","2021-03-14 08:00","2021","03","14","08:00","-14.5","","-19.7","","65","","","","32","","33","","24.1","","99.24","","","","-26","","Blowing Snow"
"-81.38","48.57","TIMMINS A","6078286","2021-03-14 09:00","2021","03","14","09:00","-13.8","","-19.6","","62","","","","33","","28","","24.1","","99.37","","","","-24","","Blowing Snow"
"-81.38","48.57","TIMMINS A","6078286","2021-03-14 10:00","2021","03","14","10:00","-13.8","","-18.6","","68","","","","30","","22","","24.1","","99.47","","","","-23","","Blowing Snow"
"-81.38","48.57","TIMMINS A","6078286","2021-03-14 11:00","2021","03","14","11:00","-12.7","","-20.1","","54","","","","33","","19","","24.1","","99.56","","","","-21","","Blowing Snow"
"-81.38","48.57","TIMMINS A","6078286","2021-03-14 12:00","2021","03","14","12:00","-12.2","","-20.7","","50","","","","32","","22","","24.1","","99.60","","","","-21","","Blowing Snow"
"-81.38","48.57","TIMMINS A","6078286","2021-03-14 13:00","2021","03","14","13:00","-11.2","","-20.5","","47","","","","31","","26","","24.1","","99.59","","","","-20","","Blowing Snow"
"-81.38","48.57","TIMMINS A","6078286","2021-03-14 14:00","2021","03","14","14:00","-10.4","","-20.3","","45","","","","34","","23","","24.1","","99.57","","","","-19","","NA"
"-81.38","48.57","TIMMINS A","6078286","2021-03-14 15:00","2021","03","14","15:00","-9.8","","-20.5","","42","","","","32","","31","","24.1","","99.58","","","","-19","","NA"
"-81.38","48.57","TIMMINS A","6078286","2021-03-14 16:00","2021","03","14","16:00","-9.3","","-20.6","","40","","","","31","","26","","24.1","","99.60","","","","-18","","Clear"
"-81.38","48.57","TIMMINS A","6078286","2021-03-14 17:00","2021","03","14","17:00","-9.2","","-20.9","","39","","","","32","","22","","24.1","","99.65","","","","-17","","NA"
"-81.38","48.57","TIMMINS A","6078286","2021-03-14 18:00","2021","03","14","18:00","-10.1","","-21.1","","41","","","","32","","20","","24.1","","99.72","","","","-18","","NA"
"-81.38","48.57","TIMMINS A","6078286","2021-03-14 19:00","2021","03","14","19:00","-11.3","","-21.5","","43","","","","31","","19","","24.1","","99.78","","","","-19","","Clear"
"-81.38","48.57","TIMMINS A","6078286","2021-03-14 20:00","2021","03","14","20:00","-13.2","","-21.9","","49","","","","30","","8","","24.1","","99.81","","","","-18","","NA"
"-81.38","48.57","TIMMINS A","6078286","2021-03-14 21:00","2021","03","14","21:00","-14.6","","-22.2","","53","","","","33","","7","","24.1","","99.82","","","","-19","","NA"
"-81.38","48.57","TIMMINS A","6078286","2021-03-14 22:00","2021","03","14","22:00","-15.2","","-22.4","","55","","","","32","","9","","24.1","","99.87","","","","-21","","Clear"
"-81.38","48.57","TIMMINS A","6078286","2021-03-14 23:00","2021","03","14","23:00"
"-81.38","48.57","TIMMINS A","6078286","2021-03-15 00:00","2021","03","15","00:00","-17.1","","-23.2","","60","","","","31","","7","","24.1","","99.84","","","","-22","","NA"
"-81.38","48.57","TIMMINS A","6078286","2021-03-15 01:00","2021","03","15","01:00","-18.7","","-23.4","","67","","","","30","","6","","24.1","","99.83","","","","-24","","Clear"
"-81.38","48.57","TIMMINS A","6078286","2021-03-15 02:00","2021","03","15","02:00","-18.5","","-23.7","","64","","","","31","","9","","24.1","","99.86","","","","-25","","NA"
"-81.38","48.57","TIMMINS A","6078286","2021-03-15 03:00","2021","03","15","03:00","-20.7","","-24.2","","74","","","","27","","8","","24.1","","99.84","","","","-27","","NA"
"-81.38","48.57","TIMMINS A","6078286","2021-03-15 04:00","2021","03","15","04:00","-20.3","","-24.3","","71","","","","32","","9","","24.1","","99.83","","","","-27","","Clear"
"-81.38","48.57","TIMMINS A","6078286","2021-03-15 05:00","2021","03","15","05:00","-20.8","","-24.4","","73","","","","28","","9","","24.1","","99.88","","","","-28","","NA"
"-81.38","48.57","TIMMINS A","6078286","2021-03-15 06:00","2021","03","15","06:00","-22.2","","-25.9","","73","","","","30","","4","","24.1","","99.90","","","","-26","","NA"
"-81.38","48.57","TIMMINS A","6078286","2021-03-15 07:00","2021","03","15","07:00","-21.7","","-24.1","","81","","","","17","","4","","24.1","","99.90","","","","-25","","Mainly Clear"
"-81.38","48.57","TIMMINS A","6078286","2021-03-15 08:00","2021","03","15","08:00","-18.7","","-23.4","","67","","","","36","","2","","24.1","","99.94","","","","-20","","NA"
"-81.38","48.57","TIMMINS A","6078286","2021-03-15 09:00","2021","03","15","09:00","-15.4","","-23.0","","53","","","","17","","6","","24.1","","99.88","","","","-20","","NA"
"-81.38","48.57","TIMMINS A","6078286","2021-03-15 10:00","2021","03","15","10:00","-13.3","","-22.4","","47","","","","15","","8","","24.1","","99.79","","","","-18","","Mainly Clear"
"-81.38","48.57","TIMMINS A","6078286","2021-03-15 11:00","2021","03","15","11:00","-10.8","","-21.7","","41","","","","17","","10","","24.1","","99.65","","","","-16","","NA"
"-81.38","48.57","TIMMINS A","6078286","2021-03-15 12:00","2021","03","15","12:00","-8.7","","-21.9","","34","","","","17","","12","","24.1","","99.56","","","","-14","","NA"
"-81.38","48.57","TIMMINS A","6078286","2021-03-15 13:00","2021","03","15","13:00","-6.6","","-20.8","","32","","","","17","","12","","24.1","","99.42","","","","-12","","Mainly Clear"
"-81.38","48.57","TIMMINS A","6078286","2021-03-15 14:00","2021","03","15","14:00","-4.6","","-20.3","","29","","","","19","","9","","24.1","","99.30","","","","-8","","NA"
"-81.38","48.57","TIMMINS A","6078286","2021-03-15 15:00","2021","03","15","15:00","-3.7","","-20.1","","27","","","","17","","14","","24.1","","99.12","","","","-9","","NA"
"-81.38","48.57","TIMMINS A","6078286","2021-03-15 16:00","2021","03","15","16:00","-2.6","","-19.2","","27","","","","17","","15","","24.1","","99.02","","","","-8","","Mainly Clear"
"-81.38","48.57","TIMMINS A","6078286","2021-03-15 17:00","2021","03","15","17:00","-2.3","","-18.3","","28","","","","17","","15","","24.1","","98.94","","","","-7","","NA"
"-81.38","48.57","TIMMINS A","6078286","2021-03-15 18:00","2021","03","15","18:00","-2.1","","-20.4","","24","","","","20","","13","","24.1","","98.85","","","","-7","","NA"
"-81.38","48.57","TIMMINS A","6078286","2021-03-15 19:00","2021","03","15","19:00","-3.7","","-19.7","","28","","","","19","","9","","24.1","","98.79","","","","-7","","Clear"
"-81.38","48.57","TIMMINS A","6078286","2021-03-15 20:00","2021","03","15","20:00","-4.3","","-19.7","","29","","","","20","","9","","24.1","","98.73","","","","-8","","NA"
"-81.38","48.57","TIMMINS A","6078286","2021-03-15 21:00","2021","03","15","21:00","-5.3","","-20.3","","30","","","","17","","4","","24.1","","98.65","","","","-7","","NA"
"-81.38","48.57","TIMMINS A","6078286","2021-03-15 22:00","2021","03","15","22:00","-6.0","","-19.8","","33","","","","20","","10","","24.1","","98.60","","","","-10","","Clear"
"-81.38","48.57","TIMMINS A","6078286","2021-03-15 23:00","2021","03","15","23:00","-7.0","","-19.1","","38","","","","20","","9","","24.1","","98.52","","","","-11","","NA"
"-81.38","48.57","TIMMINS A","6078286","2021-03-16 00:00","2021","03","16","00:00","-5.0","","-19.5","","32","","","","21","","14","","24.1","","98.50","","","","-10","","NA"
"-81.38","48.57","TIMMINS A","6078286","2021-03-16 01:00","2021","03","16","01:00","-5.3","","-18.4","","35","","","","23","","10","","24.1","","98.45","","","","-10","","Clear"
"-81.38","48.57","TIMMINS A","6078286","2021-03-16 02:00","2021","03","16","02:00","-4.9","","-16.5","","40","","","","22","","8","","24.1","","98.36","","","","-8","","NA"
"-81.38","48.57","TIMMINS A","6078286","2021-03-16 03:00","2021","03","16","03:00","-7.7","","-16.3","","50","","","","19","","14","","24.1","","98.30","","","","-14","","NA"
"-81.38","48.57","TIMMINS A","6078286","2021-03-16 04:00","2021","03","16","04:00","-7.8","","-17.0","","48","","","","21","","9","","24.1","","98.25","","","","-12","","Clear"
"-81.38","48.57","TIMMINS A","6078286","2021-03-16 05:00","2021","03","16","05:00","-7.1","","-18.5","","40","","","","21","","4","","24.1","","98.25","","","","-9","","NA"
"-81.38","48.57","TIMMINS A","6078286","2021-03-16 06:00","2021","03","16","06:00","-9.4","","-17.9","","50","","","","18","","10","","24.1","","98.24","","","","-15","","NA"
"-81.38","48.57","TIMMINS A","6078286","2021-03-16 07:00","2021","03","16","07:00","-8.8","","-18.5","","46","","","","19","","13","","24.1","","98.20","","","","-15","","Mostly Cloudy"
"-81.38","48.57","TIMMINS A","6078286","2021-03-16 08:00","2021","03","16","08:00","-6.5","","-18.2","","39","","","","21","","10","","24.1","","98.20","","","","-11","","NA"
"-81.38","48.57","TIMMINS A","6078286","2021-03-16 09:00","2021","03","16","09:00","-3.5","","-18.5","","31","","","","22","","6","","24.1","","98.20","","","","-6","","NA"
"-81.38","48.57","TIMMINS A","6078286","2021-03-16 10:00","2021","03","16","10:00","-0.4","","-19.6","","22","","","","23","","13","","24.1","","98.09","","","","-5","","Mostly Cloudy"
"-81.38","48.57","TIMMINS A","6078286","2021-03-16 11:00","2021","03","16","11:00","2.3","","-19.5","","18","","","","23","","14","","24.1","","98.02","","","","","","NA"
"-81.38","48.57","TIMMINS A","6078286","2021-03-16 12:00","2021","03","16","12:00","5.6","","-20.0","","14","","","","24","","11","","24.1","","97.97","","","","","","NA"
"-81.38","48.57","TIMMINS A","6078286","2021-03-16 13:00","2021","03","16","13:00","7.5","","-21.5","","11","","","","22","","17","","24.1","","97.91","","","","","","Mainly Clear"
"-81.38","48.57","TIMMINS A","6078286","2021-03-16 14:00","2021","03","16","14:00","8.3","","-19.9","","12","","","","23","","16","","24.1","","97.87","","","","","","NA"
"-81.38","48.57","TIMMINS A","6078286","2021-03-16 15:00","2021","03","16","15:00","8.7","","-19.9","","11","","","","27","","14","","24.1","","97.86","","","","","","NA"
"-81.38","48.57","TIMMINS A","6078286","2021-03-16 16:00","2021","03","16","16:00","9.3","","-16.8","","14","","","","26","","10","","24.1","","97.86","","","","","","Mainly Clear"
"-81.38","48.57","TIMMINS A","6078286","2021-03-16 17:00","2021","03","16","17:00","9.3","","-16.7","","14","","","","25","","9","","24.1","","97.86","","","","","","NA"
"-81.38","48.57","TIMMINS A","6078286","2021-03-16 18:00","2021","03","16","18:00","8.5","","-16.4","","15","","","","23","","8","","24.1","","97.85","","","","","","NA"
"-81.38","48.57","TIMMINS A","6078286","2021-03-16 19:00","2021","03","16","19:00","0.9","","-11.0","","41","","","","28","","4","","24.1","","97.89","","","","","","Clear"
"-81.38","48.57","TIMMINS A","6078286","2021-03-16 20:00","2021","03","16","20:00","-1.5","","-13.1","","41","","","","25","","6","","24.1","","97.94","","","","-4","","NA"
"-81.38","48.57","TIMMINS A","6078286","2021-03-16 21:00","2021","03","16","21:00","-2.6","","-11.0","","52","","","","36","","3","","24.1","","97.98","","","","-4","","NA"
"-81.38","48.57","TIMMINS A","6078286","2021-03-16 22:00","2021","03","16","22:00","-3.3","","-11.4","","54","","","","36","","1","","24.1","","98.02","","","","-4","","Clear"
"-81.38","48.57","TIMMINS A","6078286","2021-03-16 23:00","2021","03","16","23:00","-5.0","","-11.2","","62","","","","21","","3","","24.1","","98.03","","","","-6","","NA"
"-81.38","48.57","TIMMINS A","6078286","2021-03-17 00:00","2021","03","17","00:00","-5.7","","-10.4","","70","","","","19","","5","","24.1","","98.02","","","","-8","","NA"
"-81.38","48.57","TIMMINS A","6078286","2021-03-17 01:00","2021","03","17","01:00","-6.5","","-11.6","","67","","","","36","","2","","24.1","","98.02","","","","-7","","Clear"
"-81.38","48.57","TIMMINS A","6078286","2021-03-17 02:00","2021","03","17","02:00","-7.2","","-11.8","","70","","","","36","","1","","24.1","","98.06","","","","-8","","NA"
"-81.38","48.57","TIMMINS A","6078286","2021-03-17 03:00","2021","03","17","03:00","-7.5","","-11.2","","75","","","","17","","3","","24.1","","98.02","","","","-9","","NA"
"-81.38","48.57","TIMMINS A","6078286","2021-03-17 04:00","2021","03","17","04:00","-8.1","","-11.4","","77","","","","36","","1","","24.1","","97.99","","","","-9","","Mostly Cloudy"
"-81.38","48.57","TIMMINS A","6078286","2021-03-17 05:00","2021","03","17","05:00","-8.5","","-12.3","","75","","","","20","","4","","24.1","","98.08","","","","-11","","NA"
"-81.38","48.57","TIMMINS A","6078286","2021-03-17 06:00","2021","03","17","06:00","-6.9","","-11.8","","68","","","","20","","9","","24.1","","98.10","","","","-11","","NA"
"-81.38","48.57","TIMMINS A","6078286","2021-03-17 07:00","2021","03","17","07:00","-7.8","","-11.3","","76","","","","19","","5","","24.1","","98.06","","","","-10","","Mainly Clear"
"-81.38","48.57","TIMMINS A","6078286","2021-03-17 08:00","2021","03","17","08:00","-3.8","","-10.3","","61","","","","22","","4","","24.1","","98.02","","","","-5","","NA"
"-81.38","48.57","TIMMINS A","6078286","2021-03-17 09:00","2021","03","17","09:00","-2.2","","-9.1","","59","","","","19","","7","","24.1","","98.03","","","","-5","","NA"
"-81.38","48.57","TIMMINS A","6078286","2021-03-17 10:00","2021","03","17","10:00","1.0","","-8.2","","51","","","","14","","4","","24.1","","97.96","","","","","","Mostly Cloudy"
"-81.38","48.57","TIMMINS A","6078286","2021-03-17 11:00","2021","03","17","11:00","3.2","","-6.4","","49","","","","19","","8","","24.1","","97.94","","","","","","NA"
"-81.38","48.57","TIMMINS A","6078286","2021-03-17 12:00","2021","03","17","12:00","4.5","","-6.0","","47","","","","18","","10","","24.1","","97.85","","","","","","NA"
"-81.38","48.57","TIMMINS A","6078286","2021-03-17 13:00","2021","03","17","13:00","6.5","","-9.5","","31","","","","28","","13","","24.1","","97.74","","","","","","Cloudy"
"-81.38","48.57","TIMMINS A","6078286","2021-03-17 14:00","2021","03","17","14:00","6.7","","-10.3","","28","","","","24","","10","","24.1","","97.67","","","","","","NA"
"-81.38","48.57","TIMMINS A","6078286","2021-03-17 15:00","2021","03","17","15:00","5.9","","-11.1","","28","","","","24","","13","","24.1","","97.68","","","","","","NA"
"-81.38","48.57","TIMMINS A","6078286","2021-03-17 16:00","2021","03","17","16:00","5.3","","-12.9","","26","","","","26","","13","","24.1","","97.70","","","","","","Cloudy"
"-81.38","48.57","TIMMINS A","6078286","2021-03-17 17:00","2021","03","17","17:00","4.2","","-5.3","","50","","","","29","","19","","24.1","","97.69","","","","","","NA"
"-81.38","48.57","TIMMINS A","6078286","2021-03-17 18:00","2021","03","17","18:00","4.2","","-6.0","","47","","","","25","","9","","24.1","","97.73","","","","","","NA"
"-81.38","48.57","TIMMINS A","6078286","2021-03-17 19:00","2021","03","17","19:00","3.5","","-6.5","","48","","","","23","","8","","24.1","","97.78","","","","","","Mostly Cloudy"
"-81.38","48.57","TIMMINS A","6078286","2021-03-17 20:00","2021","03","17","20:00","3.1","","-7.6","","46","","","","24","","9","","24.1","","97.83","","","","","","NA"
"-81.38","48.57","TIMMINS A","6078286","2021-03-17 21:00","2021","03","17","21:00","2.8","","-6.7","","50","","","","27","","10","","24.1","","97.83","","","","","","NA"
"-81.38","48.57","TIMMINS A","6078286","2021-03-17 22:00","2021","03","17","22:00","2.8","","-3.5","","63","","","","29","","19","","24.1","","97.85","","","","","","Cloudy"
"-81.38","48.57","TIMMINS A","6078286","2021-03-17 23:00","2021","03","17","23:00","1.7","","-1.2","","81","","","","31","","26","","24.1","","97.91","","","","","","Snow"
"-81.38","48.57","TIMMINS A","6078286","2021-03-18 00:00","2021","03","18","00:00","0.2","","-0.8","","93","","","","33","","19","","9.7","","97.96","","","","","","Snow"
"-81.38","48.57","TIMMINS A","6078286","2021-03-18 01:00","2021","03","18","01:00","-1.1","","-3.4","","84","","","","34","","22","","12.9","","98.14","","","","-7","","Snow"
"-81.38","48.57","TIMMINS A","6078286","2021-03-18 02:00","2021","03","18","02:00","-2.3","","-5.3","","80","","","","35","","21","","24.1","","98.30","","","","-8","","NA"
"-81.38","48.57","TIMMINS A","6078286","2021-03-18 03:00","2021","03","18","03:00","-2.8","","-5.5","","82","","","","36","","26","","19.3","","98.40","","","","-10","","Snow,Blowing Snow"
"-81.38","48.57","TIMMINS A","6078286","2021-03-18 04:00","2021","03","18","04:00","-4.9","","-9.8","","69","","","","34","","24","","24.1","","98.54","","","","-12","","Snow,Blowing Snow"
"-81.38","48.57","TIMMINS A","6078286","2021-03-18 05:00","2021","03","18","05:00","-7.7","","-12.7","","68","","","","34","","18","","24.1","","98.75","","","","-15","","NA"
"-81.38","48.57","TIMMINS A","6078286","2021-03-18 06:00","2021","03","18","06:00","-10.0","","-13.5","","76","","","","31","","21","","24.1","","98.94","","","","-18","","NA"
"-81.38","48.57","TIMMINS A","6078286","2021-03-18 07:00","2021","03","18","07:00","-10.3","","-13.4","","78","","","","34","","15","","24.1","","99.10","","","","-17","","Snow"
"-81.38","48.57","TIMMINS A","6078286","2021-03-18 08:00","2021","03","18","08:00","-11.1","","-14.7","","75","","","","35","","21","","24.1","","99.26","","","","-19","","Snow"
"-81.38","48.57","TIMMINS A","6078286","2021-03-18 09:00","2021","03","18","09:00","-10.8","","-14.7","","74","","","","32","","21","","24.1","","99.31","","","","-19","","NA"
"-81.38","48.57","TIMMINS A","6078286","2021-03-18 10:00","2021","03","18","10:00","-9.5","","-16.9","","55","","","","35","","18","","24.1","","99.35","","","","-17","","Mainly Clear"
"-81.38","48.57","TIMMINS A","6078286","2021-03-18 11:00","2021","03","18","11:00","-8.5","","-17.2","","50","","","","36","","16","","24.1","","99.38","","","","-15","","NA"
"-81.38","48.57","TIMMINS A","6078286","2021-03-18 12:00","2021","03","18","12:00","-7.4","","-17.3","","45","","","","34","","20","","24.1","","99.38","","","","-15","","NA"
"-81.38","48.57","TIMMINS A","6078286","2021-03-18 13:00","2021","03","18","13:00","-6.1","","-17.2","","42","","","","2","","23","","24.1","","99.35","","","","-13","","Clear"
"-81.38","48.57","TIMMINS A","6078286","2021-03-18 14:00","2021","03","18","14:00","-4.9","","-16.6","","40","","","","1","","19","","24.1","","99.32","","","","-11","","NA"
"-81.38","48.57","TIMMINS A","6078286","2021-03-18 15:00","2021","03","18","15:00","-4.5","","-17.6","","36","","","","4","","17","","24.1","","99.30","","","","-10","","NA"
"-81.38","48.57","TIMMINS A","6078286","2021-03-18 16:00","2021","03","18","16:00","-4.0","","-16.2","","38","","","","1","","18","","24.1","","99.32","","","","-10","","Clear"
"-81.38","48.57","TIMMINS A","6078286","2021-03-18 17:00","2021","03","18","17:00","-4.0","","-17.7","","34","","","","35","","18","","24.1","","99.31","","","","-10","","NA"
"-81.38","48.57","TIMMINS A","6078286","2021-03-18 18:00","2021","03","18","18:00","-4.5","","-17.9","","35","","","","35","","14","","24.1","","99.36","","","","-10","","NA"
"-81.38","48.57","TIMMINS A","6078286","2021-03-18 19:00","2021","03","18","19:00","-6.2","","-17.7","","40","","","","34","","7","","24.1","","99.39","","","","-10","","Mainly Clear"
"-81.38","48.57","TIMMINS A","6078286","2021-03-18 20:00","2021","03","18","20:00","-7.9","","-17.3","","48","","","","35","","7","","24.1","","99.39","","","","-12","","NA"
"-81.38","48.57","TIMMINS A","6078286","2021-03-18 21:00","2021","03","18","21:00","-10.1","","-16.2","","62","","","","29","","3","","24.1","","99.41","","","","-12","","NA"
"-81.38","48.57","TIMMINS A","6078286","2021-03-18 22:00","2021","03","18","22:00","-11.7","","-17.6","","62","","","","36","","2","","24.1","","99.42","","","","-13","","Clear"
"-81.38","48.57","TIMMINS A","6078286","2021-03-18 23:00","2021","03","18","23:00","-11.6","","-16.8","","66","","","","14","","4","","24.1","","99.42","","","","-14","","NA"
"-81.38","48.57","TIMMINS A","6078286","2021-03-19 00:00","2021","03","19","00:00","-13.7","","-17.8","","71","","","","36","","3","","24.1","","99.44","","","","-16","","NA"
"-81.38","48.57","TIMMINS A","6078286","2021-03-19 01:00","2021","03","19","01:00","-13.9","","-17.2","","76","","","","19","","7","","24.1","","99.43","","","","-19","","Clear"
"-81.38","48.57","TIMMINS A","6078286","2021-03-19 02:00","2021","03","19","02:00","-14.2","","-17.5","","77","","","","18","","5","","24.1","","99.46","","","","-18","","NA"
"-81.38","48.57","TIMMINS A","6078286","2021-03-19 03:00","2021","03","19","03:00","-14.3","","-17.0","","80","","","","18","","7","","24.1","","99.41","","","","-19","","NA"
"-81.38","48.57","TIMMINS A","6078286","2021-03-19 04:00","2021","03","19","04:00","-14.6","","-17.2","","81","","","","16","","7","","24.1","","99.41","","","","-19","","Mainly Clear"
"-81.38","48.57","TIMMINS A","6078286","2021-03-19 05:00","2021","03","19","05:00","-13.9","","-17.1","","77","","","","18","","9","","24.1","","99.39","","","","-20","","NA"
"-81.38","48.57","TIMMINS A","6078286","2021-03-19 06:00","2021","03","19","06:00","-13.1","","-17.3","","71","","","","19","","13","","24.1","","99.37","","","","-20","","NA"
"-81.38","48.57","TIMMINS A","6078286","2021-03-19 07:00","2021","03","19","07:00","-11.9","","-17.0","","66","","","","19","","13","","24.1","","99.34","","","","-19","","Clear"
"-81.38","48.57","TIMMINS A","6078286","2021-03-19 08:00","2021","03","19","08:00","-7.8","","-15.8","","53","","","","21","","11","","24.1","","99.31","","","","-13","","NA"
"-81.38","48.57","TIMMINS A","6078286","2021-03-19 09:00","2021","03","19","09:00","-1.0","","-13.5","","38","","","","25","","13","","24.1","","99.26","","","","-5","","NA"
"-81.38","48.57","TIMMINS A","6078286","2021-03-19 10:00","2021","03","19","10:00","2.0","","-12.3","","34","","","","26","","19","","24.1","","99.20","","","","","","Clear"
"-81.38","48.57","TIMMINS A","6078286","2021-03-19 11:00","2021","03","19","11:00","5.0","","-11.4","","30","","","","27","","21","","24.1","","99.13","","","","","","NA"
"-81.38","48.57","TIMMINS A","6078286","2021-03-19 12:00","2021","03","19","12:00","7.2","","-10.5","","27","","","","27","","18","","24.1","","99.03","","","","","","NA"
"-81.38","48.57","TIMMINS A","6078286","2021-03-19 13:00","2021","03","19","13:00","8.5","","-9.6","","27","","","","27","","20","","24.1","","98.94","","","","","","Mainly Clear"
"-81.38","48.57","TIMMINS A","6078286","2021-03-19 14:00","2021","03","19","14:00","9.3","","-10.4","","24","","","","26","","21","","24.1","","98.85","","","","","","NA"
"-81.38","48.57","TIMMINS A","6078286","2021-03-19 15:00","2021","03","19","15:00","9.9","","-9.5","","25","","","","25","","20","","24.1","","98.80","","","","","","NA"
"-81.38","48.57","TIMMINS A","6078286","2021-03-19 16:00","2021","03","19","16:00","10.1","","-10.1","","23","","","","26","","25","","24.1","","98.76","","","","","","Mainly Clear"
"-81.38","48.57","TIMMINS A","6078286","2021-03-19 17:00","2021","03","19","17:00","9.7","","-9.8","","24","","","","26","","21","","24.1","","98.74","","","","","","NA"
"-81.38","48.57","TIMMINS A","6078286","2021-03-19 18:00","2021","03","19","18:00","8.4","","-9.1","","28","","","","25","","17","","24.1","","98.77","","","","","","NA"
"-81.38","48.57","TIMMINS A","6078286","2021-03-19 19:00","2021","03","19","19:00","6.5","","-9.7","","30","","","","24","","14","","24.1","","98.79","","","","","","Mainly Clear"
"-81.38","48.57","TIMMINS A","6078286","2021-03-19 20:00","2021","03","19","20:00","5.3","","-10.1","","32","","","","25","","13","","24.1","","98.79","","","","","","NA"
"-81.38","48.57","TIMMINS A","6078286","2021-03-19 21:00","2021","03","19","21:00","4.5","","-10.1","","34","","","","24","","13","","24.1","","98.82","","","","","","NA"
"-81.38","48.57","TIMMINS A","6078286","2021-03-19 22:00","2021","03","19","22:00","3.7","","-9.6","","37","","","","25","","15","","24.1","","98.86","","","","","","Mainly Clear"
"-81.38","48.57","TIMMINS A","6078286","2021-03-19 23:00","2021","03","19","23:00","2.7","","-9.5","","40","","","","26","","13","","24.1","","98.89","","","","","","NA"
"-81.38","48.57","TIMMINS A","6078286","2021-03-20 00:00","2021","03","20","00:00","1.9","","-9.7","","42","","","","26","","10","","24.1","","98.94","","","","","","NA"
"-81.38","48.57","TIMMINS A","6078286","2021-03-20 01:00","2021","03","20","01:00","1.2","","-10.0","","43","","","","24","","10","","24.1","","98.98","","","","","","Mainly Clear"
"-81.38","48.57","TIMMINS A","6078286","2021-03-20 02:00","2021","03","20","02:00","0.3","","-10.3","","45","","","","22","","8","","24.1","","98.99","","","","","","NA"
"-81.38","48.57","TIMMINS A","6078286","2021-03-20 03:00","2021","03","20","03:00","-0.7","","-10.3","","48","","","","22","","10","","24.1","","98.98","","","","-4","","NA"
"-81.38","48.57","TIMMINS A","6078286","2021-03-20 04:00","2021","03","20","04:00","-0.9","","-10.1","","50","","","","23","","10","","24.1","","98.99","","","","-4","","Clear"
"-81.38","48.57","TIMMINS A","6078286","2021-03-20 05:00","2021","03","20","05:00","-0.9","","-9.8","","51","","","","22","","9","","24.1","","99.04","","","","-4","","NA"
"-81.38","48.57","TIMMINS A","6078286","2021-03-20 06:00","2021","03","20","06:00","-0.7","","-9.2","","53","","","","22","","8","","24.1","","99.08","","","","-4","","NA"
"-81.38","48.57","TIMMINS A","6078286","2021-03-20 07:00","2021","03","20","07:00","-0.6","","-8.7","","54","","","","22","","10","","24.1","","99.10","","","","-4","","Mainly Clear"
"-81.38","48.57","TIMMINS A","6078286","2021-03-20 08:00","2021","03","20","08:00","2.0","","-7.9","","48","","","","22","","9","","24.1","","99.12","","","","","","NA"
"-81.38","48.57","TIMMINS A","6078286","2021-03-20 09:00","2021","03","20","09:00","5.0","","-7.9","","39","","","","27","","19","","24.1","","99.14","","","","","","NA"
"-81.38","48.57","TIMMINS A","6078286","2021-03-20 10:00","2021","03","20","10:00","7.9","","-8.0","","32","","","","24","","14","","24.1","","99.13","","","","","","Mainly Clear"
"-81.38","48.57","TIMMINS A","6078286","2021-03-20 11:00","2021","03","20","11:00","9.5","","-9.7","","25","","","","27","","20","","24.1","","99.10","","","","","","NA"
"-81.38","48.57","TIMMINS A","6078286","2021-03-20 12:00","2021","03","20","12:00","11.2","","-10.2","","21","","","","26","","18","","24.1","","99.04","","","","","","NA"
"-81.38","48.57","TIMMINS A","6078286","2021-03-20 13:00","2021","03","20","13:00","12.6","","-10.9","","18","","","","23","","22","","24.1","","98.98","","","","","","Clear"
"-81.38","48.57","TIMMINS A","6078286","2021-03-20 14:00","2021","03","20","14:00","13.9","","-14.5","","13","","","","26","","15","","24.1","","98.92","","","","","","NA"
"-81.38","48.57","TIMMINS A","6078286","2021-03-20 15:00","2021","03","20","15:00","14.4","","-13.3","","13","","","","20","","21","","24.1","","98.86","","","","","","NA"
"-81.38","48.57","TIMMINS A","6078286","2021-03-20 16:00","2021","03","20","16:00","14.6","","-14.1","","12","","","","22","","24","","24.1","","98.82","","","","","","Mainly Clear"
"-81.38","48.57","TIMMINS A","6078286","2021-03-20 17:00","2021","03","20","17:00","14.1","","-14.5","","12","","","","22","","18","","24.1","","98.79","","","","","","NA"
"-81.38","48.57","TIMMINS A","6078286","2021-03-20 18:00","2021","03","20","18:00","12.8","","-15.0","","13","","","","21","","18","","24.1","","98.80","","","","","","NA"
"-81.38","48.57","TIMMINS A","6078286","2021-03-20 19:00","2021","03","20","19:00","10.9","","-14.8","","15","","","","21","","16","","24.1","","98.77","","","","","","Mainly Clear"
"-81.38","48.57","TIMMINS A","6078286","2021-03-20 20:00","2021","03","20","20:00","7.9","","-12.9","","22","","","","20","","13","","24.1","","98.78","","","","","","NA"
"-81.38","48.57","TIMMINS A","6078286","2021-03-20 21:00","2021","03","20","21:00","8.1","","-11.5","","24","","","","20","","17","","24.1","","98.80","","","","","","NA"
"-81.38","48.57","TIMMINS A","6078286","2021-03-20 22:00","2021","03","20","22:00","7.1","","-11.2","","26","","","","21","","16","","24.1","","98.78","","","","","","Mainly Clear"
"-81.38","48.57","TIMMINS A","6078286","2021-03-20 23:00","2021","03","20","23:00","5.7","","-11.1","","29","","","","21","","15","","24.1","","98.77","","","","","","NA"
"-81.38","48.57","TIMMINS A","6078286","2021-03-21 00:00","2021","03","21","00:00","5.6","","-10.6","","30","","","","21","","22","","24.1","","98.78","","","","","","NA"
"-81.38","48.57","TIMMINS A","6078286","2021-03-21 01:00","2021","03","21","01:00","3.1","","-8.9","","41","","","","20","","10","","24.1","","98.77","","","","","","Mainly Clear"
"-81.38","48.57","TIMMINS A","6078286","2021-03-21 02:00","2021","03","21","02:00","1.6","","-8.9","","46","","","","19","","13","","24.1","","98.79","","","","","","NA"
"-81.38","48.57","TIMMINS A","6078286","2021-03-21 03:00","2021","03","21","03:00","1.8","","-9.2","","44","","","","20","","9","","24.1","","98.79","","","","","","NA"
"-81.38","48.57","TIMMINS A","6078286","2021-03-21 04:00","2021","03","21","04:00","3.2","","-9.1","","40","","","","21","","11","","24.1","","98.83","","","","","","Mainly Clear"
"-81.38","48.57","TIMMINS A","6078286","2021-03-21 05:00","2021","03","21","05:00","2.8","","-8.7","","43","","","","20","","16","","24.1","","98.85","","","","","","NA"
"-81.38","48.57","TIMMINS A","6078286","2021-03-21 06:00","2021","03","21","06:00","-1.0","","-8.6","","57","","","","19","","11","","24.1","","98.85","","","","-5","","NA"
"-81.38","48.57","TIMMINS A","6078286","2021-03-21 07:00","2021","03","21","07:00","4.4","","-8.4","","39","","","","21","","16","","24.1","","98.85","","","","","","Clear"
"-81.38","48.57","TIMMINS A","6078286","2021-03-21 08:00","2021","03","21","08:00","3.6","","-7.3","","45","","","","19","","16","","24.1","","98.86","","","","","","NA"
"-81.38","48.57","TIMMINS A","6078286","2021-03-21 09:00","2021","03","21","09:00","8.2","","-6.8","","34","","","","23","","19","","24.1","","98.83","","","","","","NA"
"-81.38","48.57","TIMMINS A","6078286","2021-03-21 10:00","2021","03","21","10:00","10.1","","-7.9","","27","","","","23","","13","","24.1","","98.78","","","","","","Clear"
"-81.38","48.57","TIMMINS A","6078286","2021-03-21 11:00","2021","03","21","11:00","11.5","","-6.9","","27","","","","19","","25","","24.1","","98.73","","","","","","NA"
"-81.38","48.57","TIMMINS A","6078286","2021-03-21 12:00","2021","03","21","12:00","13.2","","-10.0","","19","","","","20","","28","","24.1","","98.66","","","","","","NA"
"-81.38","48.57","TIMMINS A","6078286","2021-03-21 13:00","2021","03","21","13:00","14.4","","-7.6","","21","","","","20","","19","","24.1","","98.61","","","","","","Mainly Clear"
"-81.38","48.57","TIMMINS A","6078286","2021-03-21 14:00","2021","03","21","14:00","14.1","","-6.9","","23","","","","19","","24","","24.1","","98.54","","","","","","NA"
"-81.38","48.57","TIMMINS A","6078286","2021-03-21 15:00","2021","03","21","15:00","14.9","","-9.3","","18","","","","20","","26","","24.1","","98.47","","","","","","NA"
"-81.38","48.57","TIMMINS A","6078286","2021-03-21 16:00","2021","03","21","16:00","14.5","","-8.7","","19","","","","18","","28","","24.1","","98.41","","","","","","Mainly Clear"
"-81.38","48.57","TIMMINS A","6078286","2021-03-21 17:00","2021","03","21","17:00","14.5","","-9.0","","19","","","","19","","23","","24.1","","98.36","","","","","","NA"
"-81.38","48.57","TIMMINS A","6078286","2021-03-21 18:00","2021","03","21","18:00","13.6","","-10.4","","18","","","","20","","26","","24.1","","98.37","","","","","","NA"
"-81.38","48.57","TIMMINS A","6078286","2021-03-21 19:00","2021","03","21","19:00","10.7","","-9.2","","24","","","","19","","14","","24.1","","98.37","","","","","","Mostly Cloudy"
"-81.38","48.57","TIMMINS A","6078286","2021-03-21 20:00","2021","03","21","20:00","9.5","","-7.7","","29","","","","19","","22","","24.1","","98.40","","","","","","NA"
"-81.38","48.57","TIMMINS A","6078286","2021-03-21 21:00","2021","03","21","21:00","7.3","","-6.3","","37","","","","19","","19","","24.1","","98.37","","","","","","NA"
"-81.38","48.57","TIMMINS A","6078286","2021-03-21 22:00","2021","03","21","22:00","7.3","","-6.7","","36","","","","19","","23","","24.1","","98.35","","","","","","Clear"
"-81.38","48.57","TIMMINS A","6078286","2021-03-21 23:00","2021","03","21","23:00","6.4","","-6.6","","39","","","","20","","18","","24.1","","98.32","","","","","","NA"
"-81.38","48.57","TIMMINS A","6078286","2021-03-22 00:00","2021","03","22","00:00","6.3","","-6.6","","39","","","","19","","22","","24.1","","98.25","","","","","","NA"
"-81.38","48.57","TIMMINS A","6078286","2021-03-22 01:00","2021","03","22","01:00","5.6","","-6.4","","42","","","","19","","19","","24.1","","98.22","","","","","","Mainly Clear"
"-81.38","48.57","TIMMINS A","6078286","2021-03-22 02:00","2021","03","22","02:00","6.0","","-6.9","","39","","","","20","","18","","24.1","","98.20","","","","","","NA"
"-81.38","48.57","TIMMINS A","6078286","2021-03-22 03:00","2021","03","22","03:00","6.0","","-6.8","","39","","","","19","","17","","24.1","","98.15","","","","","","NA"
"-81.38","48.57","TIMMINS A","6078286","2021-03-22 04:00","2021","03","22","04:00","5.6","","-6.2","","42","","","","19","","15","","24.1","","98.11","","","","","","Mostly Cloudy"
"-81.38","48.57","TIMMINS A","6078286","2021-03-22 05:00","2021","03","22","05:00","5.2","","-5.8","","45","","","","18","","23","","24.1","","98.05","","","","","","NA"
"-81.38","48.57","TIMMINS A","6078286","2021-03-22 06:00","2021","03","22","06:00","5.2","","-5.5","","46","","","","18","","22","","24.1","","97.99","","","","","","NA"
"-81.38","48.57","TIMMINS A","6078286","2021-03-22 07:00","2021","03","22","07:00","6.0","","-5.3","","44","","","","20","","19","","24.1","","97.97","","","","","","Mostly Cloudy"
"-81.38","48.57","TIMMINS A","6078286","2021-03-22 08:00","2021","03","22","08:00","6.7","","-5.0","","43","","","","19","","24","","24.1","","97.91","","","","","","NA"
"-81.38","48.57","TIMMINS A","6078286","2021-03-22 09:00","2021","03","22","09:00","7.6","","-4.5","","42","","","","20","","22","","24.1","","97.88","","","","","","NA"
"-81.38","48.57","TIMMINS A","6078286","2021-03-22 10:00","2021","03","22","10:00","10.1","","-3.4","","38","","","","19","","18","","24.1","","97.85","","","","","","Mostly Cloudy"
"-81.38","48.57","TIMMINS A","6078286","2021-03-22 11:00","2021","03","22","11:00","13.1","","-3.1","","32","","","","18","","22","","24.1","","97.77","","","","","","NA"
"-81.38","48.57","TIMMINS A","6078286","2021-03-22 12:00","2021","03","22","12:00","12.3","","-3.0","","34","","","","19","","10","","24.1","","97.74","","","","","","NA"
"-81.38","48.57","TIMMINS A","6078286","2021-03-22 13:00","2021","03","22","13:00","12.3","","-2.9","","34","","","","21","","12","","24.1","","97.73","","","","","","Cloudy"
"-81.38","48.57","TIMMINS A","6078286","2021-03-22 14:00","2021","03","22","14:00","12.1","","-2.9","","35","","","","25","","7","","24.1","","97.75","","","","","","Rain"
"-81.38","48.57","TIMMINS A","6078286","2021-03-22 15:00","2021","03","22","15:00","8.0","","3.8","","75","","","","23","","7","","6.4","","97.83","","","","","","Rain"
"-81.38","48.57","TIMMINS A","6078286","2021-03-22 16:00","2021","03","22","16:00","7.9","","4.0","","76","","","","22","","8","","16.1","","97.89","","","","","","Cloudy"
"-81.38","48.57","TIMMINS A","6078286","2021-03-22 17:00","2021","03","22","17:00","8.2","","3.6","","73","","","","23","","8","","19.3","","97.93","","","","","","NA"
"-81.38","48.57","TIMMINS A","6078286","2021-03-22 18:00","2021","03","22","18:00","8.3","","2.9","","69","","","","22","","8","","24.1","","98.03","","","","","","NA"
"-81.38","48.57","TIMMINS A","6078286","2021-03-22 19:00","2021","03","22","19:00","7.8","","2.0","","67","","","","21","","5","","24.1","","98.08","","","","","","Cloudy"
"-81.38","48.57","TIMMINS A","6078286","2021-03-22 20:00","2021","03","22","20:00","7.5","","1.6","","66","","","","24","","5","","24.1","","98.16","","","","","","NA"
"-81.38","48.57","TIMMINS A","6078286","2021-03-22 21:00","2021","03","22","21:00","6.0","","1.7","","74","","","","1","","9","","24.1","","98.26","","","","","","NA"
"-81.38","48.57","TIMMINS A","6078286","2021-03-22 22:00","2021","03","22","22:00","4.8","","1.6","","79","","","","36","","9","","24.1","","98.30","","","","","","Cloudy"
"-81.38","48.57","TIMMINS A","6078286","2021-03-22 23:00","2021","03","22","23:00","3.8","","1.5","","85","","","","36","","8","","24.1","","98.37","","","","","","NA"
"-81.38","48.57","TIMMINS A","6078286","2021-03-23 00:00","2021","03","23","00:00","1.0","","0.3","","95","","","","","","0","","24.1","","98.40","","","","","","NA"
"-81.38","48.57","TIMMINS A","6078286","2021-03-23 01:00","2021","03","23","01:00","0.5","","-0.2","","95","","","","29","","3","","24.1","","98.44","","","","","","Mostly Cloudy"
"-81.38","48.57","TIMMINS A","6078286","2021-03-23 02:00","2021","03","23","02:00","-0.7","","-1.3","","96","","","","36","","3","","24.1","","98.45","","","","-2","","NA"
"-81.38","48.57","TIMMINS A","6078286","2021-03-23 03:00","2021","03","23","03:00","-2.0","","-2.4","","97","","","","4","","5","","24.1","","98.46","","","","-4","","NA"
"-81.38","48.57","TIMMINS A","6078286","2021-03-23 04:00","2021","03","23","04:00","-1.9","","-2.4","","96","","","","","","0","","24.1","","98.48","","","","","","Mostly Cloudy"
"-81.38","48.57","TIMMINS A","6078286","2021-03-23 05:00","2021","03","23","05:00","-1.3","","-1.9","","96","","","","0","","1","","24.1","","98.51","","","","-2","","NA"
"-81.38","48.57","TIMMINS A","6078286","2021-03-23 06:00","2021","03","23","06:00","-0.7","","-1.2","","96","","","","5","","5","","3.2","","98.54","","","","-2","","Fog"
"-81.38","48.57","TIMMINS A","6078286","2021-03-23 07:00","2021","03","23","07:00","0.0","","-0.4","","98","","","","7","","5","","9.7","","98.56","","","","-2","","Fog"
"-81.38","48.57","TIMMINS A","6078286","2021-03-23 08:00","2021","03","23","08:00","2.6","","2.0","","96","","","","11","","7","","24.1","","98.61","","","","","","NA"
"-81.38","48.57","TIMMINS A","6078286","2021-03-23 09:00","2021","03","23","09:00","5.5","","2.4","","80","","","","9","","8","","24.1","","98.64","","","","","","NA"
"-81.38","48.57","TIMMINS A","6078286","2021-03-23 10:00","2021","03","23","10:00","6.3","","1.6","","72","","","","9","","16","","24.1","","98.66","","","","","","Mostly Cloudy"
"-81.38","48.57","TIMMINS A","6078286","2021-03-23 11:00","2021","03","23","11:00","6.8","","1.5","","69","","","","11","","11","","24.1","","98.65","","","","","","NA"
"-81.38","48.57","TIMMINS A","6078286","2021-03-23 12:00","2021","03","23","12:00","7.0","","1.5","","68","","","","10","","10","","24.1","","98.60","","","","","","NA"
"-81.38","48.57","TIMMINS A","6078286","2021-03-23 13:00","2021","03","23","13:00","7.4","","1.6","","67","","","","10","","14","","24.1","","98.56","","","","","","Cloudy"
"-81.38","48.57","TIMMINS A","6078286","2021-03-23 14:00","2021","03","23","14:00","7.6","","2.2","","69","","","","10","","8","","24.1","","98.52","","","","","","NA"
"-81.38","48.57","TIMMINS A","6078286","2021-03-23 15:00","2021","03","23","15:00","7.7","","2.4","","69","","","","10","","13","","24.1","","98.46","","","","","","NA"
"-81.38","48.57","TIMMINS A","6078286","2021-03-23 16:00","2021","03","23","16:00","6.9","","3.5","","79","","","","14","","7","","19.3","","98.45","","","","","","Rain"
"-81.38","48.57","TIMMINS A","6078286","2021-03-23 17:00","2021","03","23","17:00","6.1","","4.6","","90","","","","13","","4","","9.7","","98.43","","","","","","Rain,Fog"
"-81.38","48.57","TIMMINS A","6078286","2021-03-23 18:00","2021","03","23","18:00","5.0","","4.5","","97","","","","5","","6","","19.3","","98.45","","","","","","Rain"
"-81.38","48.57","TIMMINS A","6078286","2021-03-23 19:00","2021","03","23","19:00","4.3","","4.0","","97","","","","2","","8","","24.1","","98.44","","","","","","Rain"
"-81.38","48.57","TIMMINS A","6078286","2021-03-23 20:00","2021","03","23","20:00","4.1","","3.6","","97","","","","5","","10","","24.1","","98.43","","","","","","Rain"
"-81.38","48.57","TIMMINS A","6078286","2021-03-23 21:00","2021","03","23","21:00","3.7","","3.2","","96","","","","8","","9","","24.1","","98.47","","","","","","NA"
"-81.38","48.57","TIMMINS A","6078286","2021-03-23 22:00","2021","03","23","22:00","3.6","","3.1","","97","","","","7","","9","","24.1","","98.40","","","","","","Rain"
"-81.38","48.57","TIMMINS A","6078286","2021-03-23 23:00","2021","03","23","23:00","3.4","","2.8","","96","","","","8","","11","","24.1","","98.36","","","","","","NA"
"-81.38","48.57","TIMMINS A","6078286","2021-03-24 00:00","2021","03","24","00:00","3.5","","2.8","","95","","","","6","","10","","24.1","","98.32","","","","","","NA"
"-81.38","48.57","TIMMINS A","6078286","2021-03-24 01:00","2021","03","24","01:00","3.0","","2.2","","94","","","","9","","10","","24.1","","98.32","","","","","","Cloudy"
"-81.38","48.57","TIMMINS A","6078286","2021-03-24 02:00","2021","03","24","02:00","3.0","","2.1","","94","","","","7","","13","","24.1","","98.26","","","","","","NA"
"-81.38","48.57","TIMMINS A","6078286","2021-03-24 03:00","2021","03","24","03:00","2.7","","1.7","","93","","","","8","","16","","24.1","","98.17","","","","","","NA"
"-81.38","48.57","TIMMINS A","6078286","2021-03-24 04:00","2021","03","24","04:00","2.5","","1.5","","93","","","","6","","13","","24.1","","98.08","","","","","","Cloudy"
"-81.38","48.57","TIMMINS A","6078286","2021-03-24 05:00","2021","03","24","05:00","2.1","","1.2","","93","","","","6","","12","","24.1","","98.02","","","","","","NA"
"-81.38","48.57","TIMMINS A","6078286","2021-03-24 06:00","2021","03","24","06:00","1.9","","0.6","","91","","","","8","","13","","24.1","","97.98","","","","","","NA"
"-81.38","48.57","TIMMINS A","6078286","2021-03-24 07:00","2021","03","24","07:00","2.1","","0.3","","88","","","","7","","15","","24.1","","97.94","","","","","","Mostly Cloudy"
"-81.38","48.57","TIMMINS A","6078286","2021-03-24 08:00","2021","03","24","08:00","3.0","","0.7","","85","","","","8","","17","","24.1","","97.88","","","","","","NA"
"-81.38","48.57","TIMMINS A","6078286","2021-03-24 09:00","2021","03","24","09:00","3.9","","0.6","","79","","","","9","","14","","24.1","","97.85","","","","","","NA"
"-81.38","48.57","TIMMINS A","6078286","2021-03-24 10:00","2021","03","24","10:00","5.9","","0.7","","70","","","","11","","14","","24.1","","97.76","","","","","","Mostly Cloudy"
"-81.38","48.57","TIMMINS A","6078286","2021-03-24 11:00","2021","03","24","11:00","6.9","","1.0","","66","","","","8","","20","","24.1","","97.60","","","","","","NA"
"-81.38","48.57","TIMMINS A","6078286","2021-03-24 12:00","2021","03","24","12:00","8.3","","0.4","","58","","","","10","","10","","24.1","","97.51","","","","","","NA"
"-81.38","48.57","TIMMINS A","6078286","2021-03-24 13:00","2021","03","24","13:00","8.1","","0.8","","60","","","","8","","16","","24.1","","97.40","","","","","","Rain"
"-81.38","48.57","TIMMINS A","6078286","2021-03-24 14:00","2021","03","24","14:00","6.2","","3.0","","80","","","","9","","11","","24.1","","97.32","","","","","","Rain"
"-81.38","48.57","TIMMINS A","6078286","2021-03-24 15:00","2021","03","24","15:00","5.8","","3.7","","87","","","","8","","20","","24.1","","97.13","","","","","","Rain"
"-81.38","48.57","TIMMINS A","6078286","2021-03-24 16:00","2021","03","24","16:00","5.3","","3.5","","88","","","","11","","15","","9.7","","97.10","","","","","","Rain,Fog"
"-81.38","48.57","TIMMINS A","6078286","2021-03-24 17:00","2021","03","24","17:00","4.7","","3.8","","94","","","","10","","19","","8.1","","97.01","","","","","","Rain,Fog"
"-81.38","48.57","TIMMINS A","6078286","2021-03-24 18:00","2021","03","24","18:00","4.6","","4.1","","96","","","","12","","14","","8.1","","96.99","","","","","","Rain,Fog"
"-81.38","48.57","TIMMINS A","6078286","2021-03-24 19:00","2021","03","24","19:00","4.6","","4.0","","96","","","","12","","10","","19.3","","96.87","","","","","","Rain"
"-81.38","48.57","TIMMINS A","6078286","2021-03-24 20:00","2021","03","24","20:00","4.6","","4.2","","97","","","","13","","10","","24.1","","96.83","","","","","","NA"
"-81.38","48.57","TIMMINS A","6078286","2021-03-24 21:00","2021","03","24","21:00","5.0","","4.7","","98","","","","14","","9","","4.8","","96.75","","","","","","Rain Showers"
"-81.38","48.57","TIMMINS A","6078286","2021-03-24 22:00","2021","03","24","22:00","5.3","","5.0","","98","","","","12","","5","","4.8","","96.69","","","","","","Rain Showers"
"-81.38","48.57","TIMMINS A","6078286","2021-03-24 23:00","2021","03","24","23:00","5.3","","5.0","","98","","","","13","","7","","4.8","","96.64","","","","","","Rain Showers"
"-81.38","48.57","TIMMINS A","6078286","2021-03-25 00:00","2021","03","25","00:00","5.1","","4.9","","98","","","","19","","4","","9.7","","96.62","","","","","","Rain Showers"
"-81.38","48.57","TIMMINS A","6078286","2021-03-25 01:00","2021","03","25","01:00","5.5","","5.3","","99","","","","19","","7","","0.8","","96.58","","","","","","Rain Showers,Fog"
"-81.38","48.57","TIMMINS A","6078286","2021-03-25 02:00","2021","03","25","02:00","5.5","","5.4","","99","","","","19","","6","","0.8","","96.56","","","","","","Rain Showers,Fog"
"-81.38","48.57","TIMMINS A","6078286","2021-03-25 03:00","2021","03","25","03:00","5.7","","5.5","","99","","","","18","","6","","0.8","","96.55","","","","","","Rain Showers,Fog"
"-81.38","48.57","TIMMINS A","6078286","2021-03-25 04:00","2021","03","25","04:00","6.1","","5.9","","99","","","","19","","7","","0.8","","96.56","","","","","","Rain Showers,Fog"
"-81.38","48.57","TIMMINS A","6078286","2021-03-25 05:00","2021","03","25","05:00","7.2","","7.0","","99","","","","22","","10","","24.1","","96.63","","","","","","Rain Showers"
"-81.38","48.57","TIMMINS A","6078286","2021-03-25 06:00","2021","03","25","06:00","7.1","","6.8","","98","","","","23","","11","","9.7","","96.73","","","","","","Rain Showers"
"-81.38","48.57","TIMMINS A","6078286","2021-03-25 07:00","2021","03","25","07:00","1.0","","0.6","","97","","","","30","","17","","4.0","","96.91","","","","","","Fog"
"-81.38","48.57","TIMMINS A","6078286","2021-03-25 08:00","2021","03","25","08:00","0.0","","-0.4","","97","","","","31","","14","","3.2","","97.02","","","","-4","","Freezing Drizzle"
"-81.38","48.57","TIMMINS A","6078286","2021-03-25 09:00","2021","03","25","09:00","-0.2","","-0.8","","96","","","","30","","16","","2.4","","97.22","","","","-5","","Fog"
"-81.38","48.57","TIMMINS A","6078286","2021-03-25 10:00","2021","03","25","10:00","-0.2","","-1.3","","92","","","","30","","13","","1.6","","97.33","","","","-4","","Snow"
"-81.38","48.57","TIMMINS A","6078286","2021-03-25 11:00","2021","03","25","11:00","-1.5","","-2.9","","91","","","","30","","20","","9.7","","97.45","","","","-7","","Snow"
"-81.38","48.57","TIMMINS A","6078286","2021-03-25 12:00","2021","03","25","12:00","-2.6","","-4.5","","87","","","","29","","13","","19.3","","97.63","","","","-7","","NA"
"-81.38","48.57","TIMMINS A","6078286","2021-03-25 13:00","2021","03","25","13:00","-3.0","","-5.2","","85","","","","31","","15","","24.1","","97.80","","","","-8","","Cloudy"
"-81.38","48.57","TIMMINS A","6078286","2021-03-25 14:00","2021","03","25","14:00","-3.3","","-5.5","","85","","","","32","","20","","24.1","","97.90","","","","-9","","NA"
"-81.38","48.57","TIMMINS A","6078286","2021-03-25 15:00","2021","03","25","15:00","-2.7","","-5.4","","82","","","","31","","15","","24.1","","97.91","","","","-8","","NA"
"-81.38","48.57","TIMMINS A","6078286","2021-03-25 16:00","2021","03","25","16:00","-3.3","","-6.0","","82","","","","34","","18","","24.1","","97.96","","","","-9","","Cloudy"
"-81.38","48.57","TIMMINS A","6078286","2021-03-25 17:00","2021","03","25","17:00","-4.0","","-6.9","","80","","","","33","","17","","24.1","","98.04","","","","-10","","NA"
"-81.38","48.57","TIMMINS A","6078286","2021-03-25 18:00","2021","03","25","18:00","-4.7","","-7.2","","83","","","","34","","12","","24.1","","98.15","","","","-9","","NA"
"-81.38","48.57","TIMMINS A","6078286","2021-03-25 19:00","2021","03","25","19:00","-5.3","","-7.7","","83","","","","35","","16","","24.1","","98.21","","","","-11","","Cloudy"
"-81.38","48.57","TIMMINS A","6078286","2021-03-25 20:00","2021","03","25","20:00","-6.6","","-8.8","","84","","","","35","","18","","24.1","","98.26","","","","-13","","Snow"
"-81.38","48.57","TIMMINS A","6078286","2021-03-25 21:00","2021","03","25","21:00","-7.2","","-9.4","","85","","","","35","","20","","24.1","","98.29","","","","-14","","Freezing Rain,Snow"
"-81.38","48.57","TIMMINS A","6078286","2021-03-25 22:00","2021","03","25","22:00","-7.7","","-10.3","","82","","","","1","","19","","24.1","","98.31","","","","-15","","Snow"
"-81.38","48.57","TIMMINS A","6078286","2021-03-25 23:00","2021","03","25","23:00","-7.8","","-10.4","","82","","","","1","","18","","24.1","","98.28","","","","-15","","Snow"
"-81.38","48.57","TIMMINS A","6078286","2021-03-26 00:00","2021","03","26","00:00","-7.9","","-10.4","","82","","","","1","","18","","24.1","","98.26","","","","-15","","Snow"
"-81.38","48.57","TIMMINS A","6078286","2021-03-26 01:00","2021","03","26","01:00","-7.9","","-10.1","","84","","","","1","","13","","24.1","","98.23","","","","-14","","Snow"
"-81.38","48.57","TIMMINS A","6078286","2021-03-26 02:00","2021","03","26","02:00","-8.1","","-10.3","","84","","","","3","","22","","24.1","","98.15","","","","-16","","Snow"
"-81.38","48.57","TIMMINS A","6078286","2021-03-26 03:00","2021","03","26","03:00","-8.2","","-10.0","","87","","","","2","","18","","24.1","","97.99","","","","-15","","Snow"
"-81.38","48.57","TIMMINS A","6078286","2021-03-26 04:00","2021","03","26","04:00","-8.2","","-9.6","","89","","","","3","","20","","24.1","","97.99","","","","-16","","Snow"
"-81.38","48.57","TIMMINS A","6078286","2021-03-26 05:00","2021","03","26","05:00","-8.3","","-9.6","","90","","","","3","","19","","24.1","","97.91","","","","-16","","Snow"
"-81.38","48.57","TIMMINS A","6078286","2021-03-26 06:00","2021","03","26","06:00","-8.6","","-9.7","","92","","","","3","","18","","14.5","","97.93","","","","-16","","Snow"
"-81.38","48.57","TIMMINS A","6078286","2021-03-26 07:00","2021","03","26","07:00","-8.6","","-9.9","","91","","","","1","","21","","24.1","","98.00","","","","-16","","Snow"
"-81.38","48.57","TIMMINS A","6078286","2021-03-26 08:00","2021","03","26","08:00","-8.7","","-9.9","","91","","","","36","","25","","24.1","","98.01","","","","-17","","NA"
"-81.38","48.57","TIMMINS A","6078286","2021-03-26 09:00","2021","03","26","09:00","-8.1","","-10.5","","83","","","","36","","22","","24.1","","98.02","","","","-16","","Snow"
"-81.38","48.57","TIMMINS A","6078286","2021-03-26 10:00","2021","03","26","10:00","-6.5","","-10.3","","74","","","","3","","24","","24.1","","97.97","","","","-14","","Snow"
"-81.38","48.57","TIMMINS A","6078286","2021-03-26 11:00","2021","03","26","11:00","-3.9","","-9.3","","66","","","","3","","22","","24.1","","97.92","","","","-10","","NA"
"-81.38","48.57","TIMMINS A","6078286","2021-03-26 12:00","2021","03","26","12:00","-2.3","","-8.6","","63","","","","3","","22","","24.1","","97.93","","","","-8","","NA"
"-81.38","48.57","TIMMINS A","6078286","2021-03-26 13:00","2021","03","26","13:00","-0.9","","-8.7","","56","","","","36","","24","","24.1","","97.93","","","","-7","","Mainly Clear"
"-81.38","48.57","TIMMINS A","6078286","2021-03-26 14:00","2021","03","26","14:00","0.7","","-7.6","","54","","","","2","","16","","24.1","","97.89","","","","","","NA"
"-81.38","48.57","TIMMINS A","6078286","2021-03-26 15:00","2021","03","26","15:00","1.2","","-7.5","","52","","","","3","","15","","24.1","","97.91","","","","","","NA"
"-81.38","48.57","TIMMINS A","6078286","2021-03-26 16:00","2021","03","26","16:00","2.0","","-7.5","","49","","","","1","","17","","24.1","","97.92","","","","","","Mainly Clear"
"-81.38","48.57","TIMMINS A","6078286","2021-03-26 17:00","2021","03","26","17:00","1.2","","-8.3","","49","","","","35","","16","","24.1","","98.00","","","","","","NA"
"-81.38","48.57","TIMMINS A","6078286","2021-03-26 18:00","2021","03","26","18:00","0.0","","-8.6","","53","","","","36","","21","","24.1","","98.06","","","","-5","","NA"
"-81.38","48.57","TIMMINS A","6078286","2021-03-26 19:00","2021","03","26","19:00","-1.5","","-8.4","","60","","","","1","","15","","24.1","","98.10","","","","-6","","Mainly Clear"
"-81.38","48.57","TIMMINS A","6078286","2021-03-26 20:00","2021","03","26","20:00","-2.8","","-8.3","","66","","","","35","","11","","24.1","","98.23","","","","-7","","NA"
"-81.38","48.57","TIMMINS A","6078286","2021-03-26 21:00","2021","03","26","21:00","-4.0","","-8.2","","73","","","","35","","9","","24.1","","98.28","","","","-8","","NA"
"-81.38","48.57","TIMMINS A","6078286","2021-03-26 22:00","2021","03","26","22:00","-5.2","","-8.5","","78","","","","36","","8","","24.1","","98.28","","","","-9","","Clear"
"-81.38","48.57","TIMMINS A","6078286","2021-03-26 23:00","2021","03","26","23:00","-6.3","","-8.9","","82","","","","32","","7","","24.1","","98.34","","","","-10","","NA"
"-81.38","48.57","TIMMINS A","6078286","2021-03-27 00:00","2021","03","27","00:00","-7.3","","-9.3","","86","","","","35","","6","","24.1","","98.31","","","","-10","","NA"
"-81.38","48.57","TIMMINS A","6078286","2021-03-27 01:00","2021","03","27","01:00","-8.2","","-9.8","","88","","","","36","","8","","24.1","","98.32","","","","-12","","Clear"
"-81.38","48.57","TIMMINS A","6078286","2021-03-27 02:00","2021","03","27","02:00","-8.9","","-10.5","","89","","","","34","","8","","24.1","","98.37","","","","-13","","NA"
"-81.38","48.57","TIMMINS A","6078286","2021-03-27 03:00","2021","03","27","03:00","-9.6","","-10.8","","91","","","","1","","5","","24.1","","98.35","","","","-12","","NA"
"-81.38","48.57","TIMMINS A","6078286","2021-03-27 04:00","2021","03","27","04:00","-10.4","","-11.7","","90","","","","2","","4","","24.1","","98.32","","","","-13","","Mainly Clear"
"-81.38","48.57","TIMMINS A","6078286","2021-03-27 05:00","2021","03","27","05:00","-10.9","","-12.2","","90","","","","28","","4","","24.1","","98.36","","","","-13","","NA"
"-81.38","48.57","TIMMINS A","6078286","2021-03-27 06:00","2021","03","27","06:00","-11.0","","-12.2","","91","","","","27","","4","","24.1","","98.38","","","","-13","","NA"
"-81.38","48.57","TIMMINS A","6078286","2021-03-27 07:00","2021","03","27","07:00","-10.4","","-11.9","","89","","","","36","","1","","24.1","","98.41","","","","-11","","Mostly Cloudy"
"-81.38","48.57","TIMMINS A","6078286","2021-03-27 08:00","2021","03","27","08:00","-7.8","","-9.2","","90","","","","18","","4","","24.1","","98.42","","","","-10","","NA"
"-81.38","48.57","TIMMINS A","6078286","2021-03-27 09:00","2021","03","27","09:00","-5.0","","-8.0","","79","","","","16","","7","","24.1","","98.42","","","","-8","","NA"
"-81.38","48.57","TIMMINS A","6078286","2021-03-27 10:00","2021","03","27","10:00","-2.1","","-7.9","","65","","","","28","","5","","24.1","","98.34","","","","-4","","Mainly Clear"
"-81.38","48.57","TIMMINS A","6078286","2021-03-27 11:00","2021","03","27","11:00","0.2","","-7.1","","58","","","","17","","5","","24.1","","98.28","","","","","","NA"
"-81.38","48.57","TIMMINS A","6078286","2021-03-27 12:00","2021","03","27","12:00","1.8","","-7.4","","51","","","","15","","7","","24.1","","98.15","","","","","","NA"
"-81.38","48.57","TIMMINS A","6078286","2021-03-27 13:00","2021","03","27","13:00","3.2","","-7.0","","47","","","","18","","4","","24.1","","98.08","","","","","","Mainly Clear"
"-81.38","48.57","TIMMINS A","6078286","2021-03-27 14:00","2021","03","27","14:00","4.8","","-7.0","","42","","","","19","","11","","24.1","","97.97","","","","","","NA"
"-81.38","48.57","TIMMINS A","6078286","2021-03-27 15:00","2021","03","27","15:00","5.7","","-7.6","","38","","","","21","","10","","24.1","","97.89","","","","","","NA"
"-81.38","48.57","TIMMINS A","6078286","2021-03-27 16:00","2021","03","27","16:00","6.2","","-7.4","","37","","","","19","","7","","24.1","","97.90","","","","","","Mostly Cloudy"
"-81.38","48.57","TIMMINS A","6078286","2021-03-27 17:00","2021","03","27","17:00","6.4","","-6.8","","38","","","","18","","5","","24.1","","97.85","","","","","","NA"
"-81.38","48.57","TIMMINS A","6078286","2021-03-27 18:00","2021","03","27","18:00","5.8","","-6.0","","42","","","","17","","15","","24.1","","97.82","","","","","","NA"
"-81.38","48.57","TIMMINS A","6078286","2021-03-27 19:00","2021","03","27","19:00","2.5","","-5.0","","57","","","","14","","9","","24.1","","97.75","","","","","","Mostly Cloudy"
"-81.38","48.57","TIMMINS A","6078286","2021-03-27 20:00","2021","03","27","20:00","2.1","","-4.5","","62","","","","19","","9","","24.1","","97.77","","","","","","NA"
"-81.38","48.57","TIMMINS A","6078286","2021-03-27 21:00","2021","03","27","21:00","1.2","","-4.8","","64","","","","20","","8","","24.1","","97.77","","","","","","NA"
"-81.38","48.57","TIMMINS A","6078286","2021-03-27 22:00","2021","03","27","22:00","-0.7","","-4.8","","74","","","","17","","7","","24.1","","97.71","","","","-3","","Mostly Cloudy"
"-81.38","48.57","TIMMINS A","6078286","2021-03-27 23:00","2021","03","27","23:00","-1.9","","-5.1","","79","","","","16","","7","","24.1","","97.66","","","","-5","","NA"
"-81.38","48.57","TIMMINS A","6078286","2021-03-28 00:00","2021","03","28","00:00","-3.0","","-5.4","","84","","","","16","","4","","24.1","","97.55","","","","-5","","NA"
"-81.38","48.57","TIMMINS A","6078286","2021-03-28 01:00","2021","03","28","01:00","-3.5","","-5.2","","88","","","","14","","4","","24.1","","97.48","","","","-5","","Mainly Clear"
"-81.38","48.57","TIMMINS A","6078286","2021-03-28 02:00","2021","03","28","02:00","-3.9","","-5.2","","91","","","","36","","1","","24.1","","97.39","","","","-4","","NA"
"-81.38","48.57","TIMMINS A","6078286","2021-03-28 03:00","2021","03","28","03:00","-4.2","","-5.7","","90","","","","11","","8","","24.1","","97.29","","","","-8","","NA"
"-81.38","48.57","TIMMINS A","6078286","2021-03-28 04:00","2021","03","28","04:00","-3.9","","-5.2","","91","","","","13","","4","","24.1","","97.22","","","","-6","","Mostly Cloudy"
"-81.38","48.57","TIMMINS A","6078286","2021-03-28 05:00","2021","03","28","05:00","-3.0","","-4.8","","87","","","","9","","4","","24.1","","97.13","","","","-5","","NA"
"-81.38","48.57","TIMMINS A","6078286","2021-03-28 06:00","2021","03","28","06:00","-3.0","","-4.7","","88","","","","2","","6","","24.1","","97.03","","","","-5","","NA"
"-81.38","48.57","TIMMINS A","6078286","2021-03-28 07:00","2021","03","28","07:00","-2.8","","-4.3","","89","","","","4","","8","","24.1","","96.95","","","","-6","","Mostly Cloudy"
"-81.38","48.57","TIMMINS A","6078286","2021-03-28 08:00","2021","03","28","08:00","-2.3","","-4.0","","88","","","","2","","9","","24.1","","96.88","","","","-6","","NA"
"-81.38","48.57","TIMMINS A","6078286","2021-03-28 09:00","2021","03","28","09:00","-1.7","","-4.0","","84","","","","2","","8","","24.1","","96.81","","","","-5","","NA"
"-81.38","48.57","TIMMINS A","6078286","2021-03-28 10:00","2021","03","28","10:00","-1.7","","-2.7","","93","","","","2","","10","","1.6","","96.73","","","","-5","","Snow"
"-81.38","48.57","TIMMINS A","6078286","2021-03-28 11:00","2021","03","28","11:00","-1.6","","-2.7","","92","","","","36","","12","","1.6","","96.64","","","","-6","","Snow"
"-81.38","48.57","TIMMINS A","6078286","2021-03-28 12:00","2021","03","28","12:00","-1.0","","-2.1","","92","","","","34","","15","","1.6","","96.58","","","","-6","","Snow"
"-81.38","48.57","TIMMINS A","6078286","2021-03-28 13:00","2021","03","28","13:00","-0.3","","-1.4","","92","","","","35","","17","","1.6","","96.51","","","","-5","","Snow"
"-81.38","48.57","TIMMINS A","6078286","2021-03-28 14:00","2021","03","28","14:00","-0.2","","-1.7","","90","","","","35","","26","","1.6","","96.43","","","","-6","","Snow"
"-81.38","48.57","TIMMINS A","6078286","2021-03-28 15:00","2021","03","28","15:00","-0.1","","-3.0","","81","","","","33","","22","","24.1","","96.48","","","","-6","","Snow"
"-81.38","48.57","TIMMINS A","6078286","2021-03-28 16:00","2021","03","28","16:00","-1.0","","-4.7","","76","","","","34","","27","","24.1","","96.59","","","","-7","","Snow,Blowing Snow"
"-81.38","48.57","TIMMINS A","6078286","2021-03-28 17:00","2021","03","28","17:00","-1.4","","-3.9","","83","","","","33","","31","","12.9","","96.73","","","","-8","","Snow,Blowing Snow"
"-81.38","48.57","TIMMINS A","6078286","2021-03-28 18:00","2021","03","28","18:00","-2.9","","-5.5","","82","","","","33","","36","","12.9","","96.92","","","","-11","","Snow,Blowing Snow"
"-81.38","48.57","TIMMINS A","6078286","2021-03-28 19:00","2021","03","28","19:00","-4.5","","-7.4","","80","","","","32","","32","","9.7","","97.12","","","","-13","","Snow,Blowing Snow"
"-81.38","48.57","TIMMINS A","6078286","2021-03-28 20:00","2021","03","28","20:00","-5.2","","-7.8","","82","","","","33","","25","","24.1","","97.30","","","","-13","","Snow,Blowing Snow"
"-81.38","48.57","TIMMINS A","6078286","2021-03-28 21:00","2021","03","28","21:00","-5.7","","-9.1","","77","","","","33","","24","","24.1","","97.40","","","","-13","","Snow,Blowing Snow"
"-81.38","48.57","TIMMINS A","6078286","2021-03-28 22:00","2021","03","28","22:00","-6.5","","-10.8","","72","","","","32","","29","","24.1","","97.51","","","","-15","","Snow,Blowing Snow"
"-81.38","48.57","TIMMINS A","6078286","2021-03-28 23:00","2021","03","28","23:00","-7.2","","-12.2","","67","","","","33","","26","","24.1","","97.60","","","","-15","","Snow,Blowing Snow"
"-81.38","48.57","TIMMINS A","6078286","2021-03-29 00:00","2021","03","29","00:00","-7.6","","-11.5","","74","","","","33","","15","","24.1","","97.67","","","","-14","","Snow,Blowing Snow"
"-81.38","48.57","TIMMINS A","6078286","2021-03-29 01:00","2021","03","29","01:00","-7.9","","-12.4","","71","","","","33","","17","","24.1","","97.74","","","","-15","","Snow,Blowing Snow"
"-81.38","48.57","TIMMINS A","6078286","2021-03-29 02:00","2021","03","29","02:00","-8.9","","-12.8","","74","","","","32","","13","","24.1","","97.80","","","","-15","","Snow"
"-81.38","48.57","TIMMINS A","6078286","2021-03-29 03:00","2021","03","29","03:00","-10.8","","-13.2","","83","","","","30","","9","","24.1","","97.83","","","","-16","","NA"
"-81.38","48.57","TIMMINS A","6078286","2021-03-29 04:00","2021","03","29","04:00","-12.1","","-14.0","","86","","","","28","","9","","24.1","","97.92","","","","-17","","Mainly Clear"
"-81.38","48.57","TIMMINS A","6078286","2021-03-29 05:00","2021","03","29","05:00","-12.8","","-14.8","","85","","","","29","","9","","24.1","","98.03","","","","-18","","NA"
"-81.38","48.57","TIMMINS A","6078286","2021-03-29 06:00","2021","03","29","06:00","-13.7","","-15.3","","87","","","","27","","8","","24.1","","98.13","","","","-19","","NA"
"-81.38","48.57","TIMMINS A","6078286","2021-03-29 07:00","2021","03","29","07:00","-12.2","","-14.4","","83","","","","27","","8","","24.1","","98.18","","","","-17","","Clear"
"-81.38","48.57","TIMMINS A","6078286","2021-03-29 08:00","2021","03","29","08:00","-9.5","","-13.5","","73","","","","28","","5","","24.1","","98.25","","","","-12","","NA"
"-81.38","48.57","TIMMINS A","6078286","2021-03-29 09:00","2021","03","29","09:00","-6.9","","-13.6","","59","","","","30","","10","","24.1","","98.27","","","","-12","","NA"
"-81.38","48.57","TIMMINS A","6078286","2021-03-29 10:00","2021","03","29","10:00","-5.1","","-13.1","","54","","","","24","","12","","24.1","","98.31","","","","-10","","Mainly Clear"
"-81.38","48.57","TIMMINS A","6078286","2021-03-29 11:00","2021","03","29","11:00","-4.0","","-12.9","","50","","","","21","","3","","24.1","","98.29","","","","-5","","NA"
"-81.38","48.57","TIMMINS A","6078286","2021-03-29 12:00","2021","03","29","12:00","-2.1","","-10.4","","53","","","","17","","13","","24.1","","98.25","","","","-7","","NA"
"-81.38","48.57","TIMMINS A","6078286","2021-03-29 13:00","2021","03","29","13:00","-1.5","","-11.2","","48","","","","20","","9","","24.1","","98.21","","","","-5","","Mostly Cloudy"
"-81.38","48.57","TIMMINS A","6078286","2021-03-29 14:00","2021","03","29","14:00","-0.7","","-9.2","","53","","","","16","","17","","24.1","","98.17","","","","-6","","NA"
"-81.38","48.57","TIMMINS A","6078286","2021-03-29 15:00","2021","03","29","15:00","0.6","","-8.5","","51","","","","20","","19","","24.1","","98.07","","","","","","NA"
"-81.38","48.57","TIMMINS A","6078286","2021-03-29 16:00","2021","03","29","16:00","0.8","","-8.3","","51","","","","18","","22","","24.1","","98.00","","","","","","Cloudy"
"-81.38","48.57","TIMMINS A","6078286","2021-03-29 17:00","2021","03","29","17:00","0.5","","-8.2","","52","","","","19","","16","","24.1","","97.92","","","","","","NA"
"-81.38","48.57","TIMMINS A","6078286","2021-03-29 18:00","2021","03","29","18:00","0.4","","-7.8","","54","","","","17","","18","","24.1","","97.85","","","","","","NA"
"-81.38","48.57","TIMMINS A","6078286","2021-03-29 19:00","2021","03","29","19:00","0.0","","-7.4","","58","","","","16","","14","","24.1","","97.77","","","","-4","","Cloudy"
"-81.38","48.57","TIMMINS A","6078286","2021-03-29 20:00","2021","03","29","20:00","-0.3","","-6.4","","64","","","","16","","21","","24.1","","97.68","","","","-6","","NA"
"-81.38","48.57","TIMMINS A","6078286","2021-03-29 21:00","2021","03","29","21:00","-0.6","","-5.4","","70","","","","17","","22","","24.1","","97.68","","","","-6","","NA"
"-81.38","48.57","TIMMINS A","6078286","2021-03-29 22:00","2021","03","29","22:00","-1.2","","-5.7","","72","","","","16","","19","","24.1","","97.59","","","","-7","","Mostly Cloudy"
"-81.38","48.57","TIMMINS A","6078286","2021-03-29 23:00","2021","03","29","23:00","-1.4","","-6.5","","68","","","","17","","26","","24.1","","97.54","","","","-8","","NA"
"-81.38","48.57","TIMMINS A","6078286","2021-03-30 00:00","2021","03","30","00:00","-1.5","","-5.9","","72","","","","16","","23","","24.1","","97.49","","","","-8","","NA"
"-81.38","48.57","TIMMINS A","6078286","2021-03-30 01:00","2021","03","30","01:00","-1.5","","-5.5","","74","","","","16","","23","","24.1","","97.38","","","","-8","","Mostly Cloudy"
"-81.38","48.57","TIMMINS A","6078286","2021-03-30 02:00","2021","03","30","02:00","-1.0","","-5.0","","75","","","","16","","29","","24.1","","97.21","","","","-8","","NA"
"-81.38","48.57","TIMMINS A","6078286","2021-03-30 03:00","2021","03","30","03:00","-1.0","","-4.5","","77","","","","16","","24","","24.1","","97.05","","","","-7","","NA"
"-81.38","48.57","TIMMINS A","6078286","2021-03-30 04:00","2021","03","30","04:00","-0.6","","-3.8","","79","","","","17","","23","","24.1","","96.94","","","","-6","","Mainly Clear"
"-81.38","48.57","TIMMINS A","6078286","2021-03-30 05:00","2021","03","30","05:00","0.1","","-3.0","","79","","","","17","","24","","24.1","","96.84","","","","","","NA"
"-81.38","48.57","TIMMINS A","6078286","2021-03-30 06:00","2021","03","30","06:00","1.2","","-2.4","","77","","","","18","","21","","24.1","","96.75","","","","","","NA"
"-81.38","48.57","TIMMINS A","6078286","2021-03-30 07:00","2021","03","30","07:00","2.4","","-1.9","","73","","","","18","","23","","24.1","","96.67","","","","","","Mostly Cloudy"
"-81.38","48.57","TIMMINS A","6078286","2021-03-30 08:00","2021","03","30","08:00","4.8","","-1.2","","65","","","","18","","28","","24.1","","96.61","","","","","","NA"
"-81.38","48.57","TIMMINS A","6078286","2021-03-30 09:00","2021","03","30","09:00","7.3","","-0.6","","57","","","","19","","35","","24.1","","96.51","","","","","","NA"
"-81.38","48.57","TIMMINS A","6078286","2021-03-30 10:00","2021","03","30","10:00","9.3","","0.0","","52","","","","19","","39","","24.1","","96.41","","","","","","Mostly Cloudy"
"-81.38","48.57","TIMMINS A","6078286","2021-03-30 11:00","2021","03","30","11:00","10.1","","0.4","","51","","","","20","","30","","24.1","","96.32","","","","","","NA"
"-81.38","48.57","TIMMINS A","6078286","2021-03-30 12:00","2021","03","30","12:00","11.7","","1.0","","48","","","","19","","36","","24.1","","96.23","","","","","","NA"
"-81.38","48.57","TIMMINS A","6078286","2021-03-30 13:00","2021","03","30","13:00","12.8","","1.2","","45","","","","19","","33","","24.1","","96.21","","","","","","Mostly Cloudy"
"-81.38","48.57","TIMMINS A","6078286","2021-03-30 14:00","2021","03","30","14:00","11.9","","1.3","","48","","","","19","","34","","24.1","","96.14","","","","","","Rain"
"-81.38","48.57","TIMMINS A","6078286","2021-03-30 15:00","2021","03","30","15:00","11.8","","1.3","","48","","","","20","","21","","24.1","","96.20","","","","","","NA"
"-81.38","48.57","TIMMINS A","6078286","2021-03-30 16:00","2021","03","30","16:00","11.4","","0.8","","48","","","","21","","20","","24.1","","96.25","","","","","","Cloudy"
"-81.38","48.57","TIMMINS A","6078286","2021-03-30 17:00","2021","03","30","17:00","10.8","","1.0","","51","","","","20","","16","","24.1","","96.36","","","","","","NA"
"-81.38","48.57","TIMMINS A","6078286","2021-03-30 18:00","2021","03","30","18:00","10.9","","1.0","","50","","","","21","","16","","24.1","","96.40","","","","","","NA"
"-81.38","48.57","TIMMINS A","6078286","2021-03-30 19:00","2021","03","30","19:00","10.3","","1.1","","53","","","","20","","17","","24.1","","96.45","","","","","","Cloudy"
"-81.38","48.57","TIMMINS A","6078286","2021-03-30 20:00","2021","03","30","20:00","5.8","","-0.2","","65","","","","26","","21","","24.1","","96.65","","","","","","NA"
"-81.38","48.57","TIMMINS A","6078286","2021-03-30 21:00","2021","03","30","21:00","4.8","","-4.2","","52","","","","27","","27","","24.1","","96.75","","","","","","NA"
"-81.38","48.57","TIMMINS A","6078286","2021-03-30 22:00","2021","03","30","22:00","3.6","","-7.1","","46","","","","25","","16","","24.1","","96.88","","","","","","Mostly Cloudy"
"-81.38","48.57","TIMMINS A","6078286","2021-03-30 23:00","2021","03","30","23:00","2.6","","-8.4","","44","","","","27","","18","","24.1","","96.99","","","","","","NA"
"-81.38","48.57","TIMMINS A","6078286","2021-03-31 00:00","2021","03","31","00:00","1.4","","-8.3","","49","","","","26","","14","","24.1","","97.06","","","","","","NA"
"-81.38","48.57","TIMMINS A","6078286","2021-03-31 01:00","2021","03","31","01:00","0.5","","-8.1","","53","","","","24","","11","","24.1","","97.09","","","","","","Mostly Cloudy"
"-81.38","48.57","TIMMINS A","6078286","2021-03-31 02:00","2021","03","31","02:00","0.1","","-7.8","","56","","","","22","","6","","24.1","","97.15","","","","","","NA"
"-81.38","48.57","TIMMINS A","6078286","2021-03-31 03:00","2021","03","31","03:00","-0.9","","-7.6","","60","","","","22","","8","","24.1","","97.15","","","","-4","","NA"
"-81.38","48.57","TIMMINS A","6078286","2021-03-31 04:00","2021","03","31","04:00","-1.3","","-7.2","","64","","","","22","","10","","24.1","","97.19","","","","-5","","Mostly Cloudy"
"-81.38","48.57","TIMMINS A","6078286","2021-03-31 05:00","2021","03","31","05:00","-1.7","","-6.8","","68","","","","23","","7","","24.1","","97.25","","","","-4","","NA"
"-81.38","48.57","TIMMINS A","6078286","2021-03-31 06:00","2021","03","31","06:00","-1.4","","-6.4","","69","","","","25","","7","","24.1","","97.31","","","","-4","","NA"
"-81.38","48.57","TIMMINS A","6078286","2021-03-31 07:00","2021","03","31","07:00","-1.0","","-7.6","","61","","","","25","","13","","24.1","","97.38","","","","-5","","Cloudy"
"-81.38","48.57","TIMMINS A","6078286","2021-03-31 08:00","2021","03","31","08:00","-1.4","","-5.8","","72","","","","27","","7","","24.1","","97.42","","","","-4","","NA"
"-81.38","48.57","TIMMINS A","6078286","2021-03-31 09:00","2021","03","31","09:00","-1.6","","-6.1","","71","","","","32","","21","","24.1","","97.47","","","","-7","","Snow"
"-81.38","48.57","TIMMINS A","6078286","2021-03-31 10:00","2021","03","31","10:00","-1.8","","-7.2","","67","","","","32","","20","","12.9","","97.56","","","","-8","","Snow"
"-81.38","48.57","TIMMINS A","6078286","2021-03-31 11:00","2021","03","31","11:00","-1.3","","-9.0","","56","","","","30","","18","","19.3","","97.60","","","","-7","","Snow"
"-81.38","48.57","TIMMINS A","6078286","2021-03-31 12:00","2021","03","31","12:00","-3.8","","-6.7","","80","","","","35","","26","","2.4","","97.75","","","","-11","","Snow"
"-81.38","48.57","TIMMINS A","6078286","2021-03-31 13:00","2021","03","31","13:00","-4.3","","-9.0","","70","","","","34","","27","","4.8","","97.89","","","","-12","","Snow"
"-81.38","48.57","TIMMINS A","6078286","2021-03-31 14:00","2021","03","31","14:00","-4.6","","-10.8","","62","","","","33","","26","","9.7","","97.99","","","","-12","","Snow"
"-81.38","48.57","TIMMINS A","6078286","2021-03-31 15:00","2021","03","31","15:00","-4.5","","-12.3","","55","","","","33","","23","","16.1","","98.10","","","","-11","","Snow"
"-81.38","48.57","TIMMINS A","6078286","2021-03-31 16:00","2021","03","31","16:00","-4.4","","-13.1","","51","","","","36","","23","","24.1","","98.16","","","","-11","","Mostly Cloudy"
"-81.38","48.57","TIMMINS A","6078286","2021-03-31 17:00","2021","03","31","17:00","-4.0","","-14.8","","43","","","","33","","27","","24.1","","98.30","","","","-11","","NA"
"-81.38","48.57","TIMMINS A","6078286","2021-03-31 18:00","2021","03","31","18:00","-5.5","","-16.3","","43","","","","33","","18","","24.1","","98.40","","","","-12","","NA"
"-81.38","48.57","TIMMINS A","6078286","2021-03-31 19:00","2021","03","31","19:00","-7.6","","-16.5","","49","","","","35","","23","","24.1","","98.55","","","","-15","","Mostly Cloudy"
"-81.38","48.57","TIMMINS A","6078286","2021-03-31 20:00","2021","03","31","20:00","-9.7","","-17.1","","55","","","","1","","22","","24.1","","98.76","","","","-18","","NA"
"-81.38","48.57","TIMMINS A","6078286","2021-03-31 21:00","2021","03","31","21:00","-10.9","","-17.6","","58","","","","35","","23","","24.1","","98.88","","","","-20","","NA"
"-81.38","48.57","TIMMINS A","6078286","2021-03-31 22:00","2021","03","31","22:00","-11.1","","-16.5","","65","","","","35","","22","","24.1","","98.96","","","","-20","","Snow"
"-81.38","48.57","TIMMINS A","6078286","2021-03-31 23:00","2021","03","31","23:00","-12.1","","-16.8","","68","","","","35","","19","","24.1","","99.03","","","","-20","","Snow"
