"Longitude (x)","Latitude (y)","Station Name","Climate ID","Date/Time (LST)","Year","Month","Day","Time (LST)","Temp (°C)","Temp Flag","Dew Point Temp (°C)","Dew Point Temp Flag","Rel Hum (%)","Rel Hum Flag","Precip. Amount (mm)","Precip. Amount Flag","Wind Dir (10s deg)","Wind Dir Flag","Wind Spd (km/h)","Wind Spd Flag","Visibility (km)","Visibility Flag","Stn Press (kPa)","Stn Press Flag","Hmdx","Hmdx Flag","Wind Chill","Wind Chill Flag","Weather"
"-114.44","62.46","YELLOWKNIFE A","2204101","2022-02-01 00:00","2022","02","01","00:00","-27.9","","-30.8","","77","","","","32","","12","","24.1","","100.19","","","","-38","","NA"
"-114.44","62.46","YELLOWKNIFE A","2204101","2022-02-01 01:00","2022","02","01","01:00","-28.2","","-31.3","","75","","","","33","","14","","24.1","","100.25","","","","-39","","NA"
"-114.44","62.46","YELLOWKNIFE A","2204101","2022-02-01 02:00","2022","02","01","02:00","-28.9","","-32.2","","74","","","","32","","14","","24.1","","100.34","","","","-40","","Mainly Clear"
"-114.44","62.46","YELLOWKNIFE A","2204101","2022-02-01 03:00","2022","02","01","03:00","-28.9","","-32.4","","73","","","","32","","14","","24.1","","100.46","","","","-40","","Snow"
"-114.44","62.46","YELLOWKNIFE A","2204101","2022-02-01 04:00","2022","02","01","04:00","-29.8","","-33.7","","70","","","","34","","26","","24.1","","100.55","","","","-44","","Blowing Snow"
"-114.44","62.46","YELLOWKNIFE A","2204101","2022-02-01 05:00","2022","02","01","05:00","-31.1","","-35.1","","69","","","","34","","15","","24.1","","100.65","","","","-43","","Blowing Snow"
"-114.44","62.46","YELLOWKNIFE A","2204101","2022-02-01 06:00","2022","02","01","06:00","-32.1","","-36.0","","69","","","","33","","21","","24.1","","100.76","","","","-46","","NA"
"-114.44","62.46","YELLOWKNIFE A","2204101","2022-02-01 07:00","2022","02","01","07:00","-33.0","","-37.1","","68","","","","33","","12","","24.1","","100.89","","","","-44","","NA"
"-114.44","62.46","YELLOWKNIFE A","2204101","2022-02-01 08:00","2022","02","01","08:00","-33.9","","-37.7","","69","","","","31","","17","","24.1","","100.94","","","","-47","","Clear"
"-114.44","62.46","YELLOWKNIFE A","2204101","2022-02-01 09:00","2022","02","01","09:00","-34.4","","-38.2","","69","","","","31","","14","","24.1","","101.02","","","","-46","","NA"
"-114.44","62.46","YELLOWKNIFE A","2204101","2022-02-01 10:00","2022","02","01","10:00","-33.8","","-37.6","","70","","","","32","","21","","24.1","","101.12","","","","-48","","NA"
"-114.44","62.46","YELLOWKNIFE A","2204101","2022-02-01 11:00","2022","02","01","11:00","-32.6","","-36.6","","69","","","","33","","19","","24.1","","101.18","","","","-46","","Clear"
"-114.44","62.46","YELLOWKNIFE A","2204101","2022-02-01 12:00","2022","02","01","12:00","-31.9","","-36.1","","68","","","","33","","17","","24.1","","101.29","","","","-44","","NA"
"-114.44","62.46","YELLOWKNIFE A","2204101","2022-02-01 13:00","2022","02","01","13:00","-31.5","","-35.8","","67","","","","32","","18","","24.1","","101.35","","","","-44","","NA"
"-114.44","62.46","YELLOWKNIFE A","2204101","2022-02-01 14:00","2022","02","01","14:00","-31.1","","-35.5","","66","","","","32","","13","","24.1","","101.39","","","","-42","","Clear"
"-114.44","62.46","YELLOWKNIFE A","2204101","2022-02-01 15:00","2022","02","01","15:00","-31.0","","-35.3","","67","","","","28","","16","","24.1","","101.43","","","","-43","","NA"
"-114.44","62.46","YELLOWKNIFE A","2204101","2022-02-01 16:00","2022","02","01","16:00","-31.7","","-35.8","","68","","","","30","","13","","24.1","","101.46","","","","-43","","NA"
"-114.44","62.46","YELLOWKNIFE A","2204101","2022-02-01 17:00","2022","02","01","17:00","-32.8","","-36.4","","71","","","","30","","10","","24.1","","101.42","","","","-42","","Clear"
"-114.44","62.46","YELLOWKNIFE A","2204101","2022-02-01 18:00","2022","02","01","18:00","-33.8","","-37.1","","73","","","","32","","7","","24.1","","101.36","","","","-42","","NA"
"-114.44","62.46","YELLOWKNIFE A","2204101","2022-02-01 19:00","2022","02","01","19:00","-34.6","","-37.8","","73","","","","25","","9","","24.1","","101.36","","","","-44","","NA"
"-114.44","62.46","YELLOWKNIFE A","2204101","2022-02-01 20:00","2022","02","01","20:00","-35.9","","-39.0","","74","","","","20","","7","","24.1","","101.32","","","","-44","","Clear"
"-114.44","62.46","YELLOWKNIFE A","2204101","2022-02-01 21:00","2022","02","01","21:00","-35.3","","-38.5","","73","","","","25","","10","","24.1","","101.23","","","","-45","","NA"
"-114.44","62.46","YELLOWKNIFE A","2204101","2022-02-01 22:00","2022","02","01","22:00","-35.8","","-39.0","","73","","","","36","","2","","24.1","","101.12","","","","-38","","NA"
"-114.44","62.46","YELLOWKNIFE A","2204101","2022-02-01 23:00","2022","02","01","23:00","-36.2","","-39.5","","72","","","","17","","13","","24.1","","101.02","","","","-48","","Clear"
"-114.44","62.46","YELLOWKNIFE A","2204101","2022-02-02 00:00","2022","02","02","00:00","-35.1","","-38.4","","73","","","","19","","12","","24.1","","100.93","","","","-46","","NA"
"-114.44","62.46","YELLOWKNIFE A","2204101","2022-02-02 01:00","2022","02","02","01:00","-34.9","","-38.2","","73","","","","19","","12","","24.1","","100.86","","","","-46","","NA"
"-114.44","62.46","YELLOWKNIFE A","2204101","2022-02-02 02:00","2022","02","02","02:00","-33.7","","-36.9","","73","","","","19","","12","","24.1","","100.77","","","","-45","","Clear"
"-114.44","62.46","YELLOWKNIFE A","2204101","2022-02-02 03:00","2022","02","02","03:00","-36.5","","-39.8","","72","","","","17","","9","","24.1","","100.71","","","","-46","","NA"
"-114.44","62.46","YELLOWKNIFE A","2204101","2022-02-02 04:00","2022","02","02","04:00","-36.3","","-39.7","","72","","","","15","","8","","24.1","","100.62","","","","-45","","NA"
"-114.44","62.46","YELLOWKNIFE A","2204101","2022-02-02 05:00","2022","02","02","05:00","-36.5","","-39.9","","72","","","","18","","3","","24.1","","100.50","","","","-40","","Clear"
"-114.44","62.46","YELLOWKNIFE A","2204101","2022-02-02 06:00","2022","02","02","06:00","-36.8","","-40.2","","71","","","","14","","4","","16.1","","100.42","","","","-42","","NA"
"-114.44","62.46","YELLOWKNIFE A","2204101","2022-02-02 07:00","2022","02","02","07:00","-39.0","","-42.5","","70","","","","7","","4","","16.1","","100.36","","","","-44","","Snow"
"-114.44","62.46","YELLOWKNIFE A","2204101","2022-02-02 08:00","2022","02","02","08:00","-38.9","","-42.5","","70","","","","5","","4","","8.1","","100.28","","","","-44","","Snow,Fog"
"-114.44","62.46","YELLOWKNIFE A","2204101","2022-02-02 09:00","2022","02","02","09:00","-39.5","","-43.2","","69","","","","5","","7","","6.4","","100.22","","","","-48","","Fog"
"-114.44","62.46","YELLOWKNIFE A","2204101","2022-02-02 10:00","2022","02","02","10:00","-38.5","","-42.2","","69","","","","5","","11","","4.8","","100.22","","","","-50","","Fog"
"-114.44","62.46","YELLOWKNIFE A","2204101","2022-02-02 11:00","2022","02","02","11:00","-37.7","","-41.4","","70","","","","10","","4","","9.7","","100.23","","","","-43","","Fog"
"-114.44","62.46","YELLOWKNIFE A","2204101","2022-02-02 12:00","2022","02","02","12:00","-36.0","","-39.6","","70","","","","3","","4","","16.1","","100.20","","","","-41","","NA"
"-114.44","62.46","YELLOWKNIFE A","2204101","2022-02-02 13:00","2022","02","02","13:00","-34.0","","-37.5","","71","","","","3","","5","","24.1","","100.16","","","","-40","","NA"
"-114.44","62.46","YELLOWKNIFE A","2204101","2022-02-02 14:00","2022","02","02","14:00","-32.7","","-36.1","","72","","","","2","","6","","24.1","","100.13","","","","-40","","Mainly Clear"
"-114.44","62.46","YELLOWKNIFE A","2204101","2022-02-02 15:00","2022","02","02","15:00","-32.3","","-35.6","","73","","","","1","","6","","24.1","","100.14","","","","-39","","NA"
"-114.44","62.46","YELLOWKNIFE A","2204101","2022-02-02 16:00","2022","02","02","16:00","-31.5","","-34.8","","73","","","","36","","6","","24.1","","100.13","","","","-38","","NA"
"-114.44","62.46","YELLOWKNIFE A","2204101","2022-02-02 17:00","2022","02","02","17:00","-32.4","","-35.8","","73","","","","36","","8","","24.1","","100.15","","","","-41","","Mainly Clear"
"-114.44","62.46","YELLOWKNIFE A","2204101","2022-02-02 18:00","2022","02","02","18:00","-34.0","","-37.4","","72","","","","34","","8","","24.1","","100.17","","","","-43","","NA"
"-114.44","62.46","YELLOWKNIFE A","2204101","2022-02-02 19:00","2022","02","02","19:00","-34.7","","-38.2","","72","","","","30","","10","","24.1","","100.18","","","","-45","","NA"
"-114.44","62.46","YELLOWKNIFE A","2204101","2022-02-02 20:00","2022","02","02","20:00","-35.4","","-38.9","","71","","","","30","","9","","24.1","","100.21","","","","-45","","Mainly Clear"
"-114.44","62.46","YELLOWKNIFE A","2204101","2022-02-02 21:00","2022","02","02","21:00","-35.9","","-39.5","","71","","","","32","","10","","24.1","","100.21","","","","-46","","NA"
"-114.44","62.46","YELLOWKNIFE A","2204101","2022-02-02 22:00","2022","02","02","22:00","-35.7","","-39.3","","71","","","","31","","13","","24.1","","100.23","","","","-48","","NA"
"-114.44","62.46","YELLOWKNIFE A","2204101","2022-02-02 23:00","2022","02","02","23:00","-35.9","","-39.4","","71","","","","31","","17","","24.1","","100.26","","","","-49","","Clear"
"-114.44","62.46","YELLOWKNIFE A","2204101","2022-02-03 00:00","2022","02","03","00:00","-35.6","","-39.2","","71","","","","30","","18","","24.1","","100.27","","","","-49","","NA"
"-114.44","62.46","YELLOWKNIFE A","2204101","2022-02-03 01:00","2022","02","03","01:00","-35.7","","-39.3","","71","","","","30","","17","","24.1","","100.31","","","","-49","","NA"
"-114.44","62.46","YELLOWKNIFE A","2204101","2022-02-03 02:00","2022","02","03","02:00","-35.6","","-39.1","","71","","","","30","","18","","24.1","","100.34","","","","-49","","Clear"
"-114.44","62.46","YELLOWKNIFE A","2204101","2022-02-03 03:00","2022","02","03","03:00","-36.0","","-39.5","","71","","","","29","","16","","24.1","","100.36","","","","-49","","NA"
"-114.44","62.46","YELLOWKNIFE A","2204101","2022-02-03 04:00","2022","02","03","04:00","-35.2","","-38.7","","71","","","","30","","21","","24.1","","100.41","","","","-50","","NA"
"-114.44","62.46","YELLOWKNIFE A","2204101","2022-02-03 05:00","2022","02","03","05:00","-35.2","","-38.7","","71","","","","28","","16","","24.1","","100.43","","","","-48","","Clear"
"-114.44","62.46","YELLOWKNIFE A","2204101","2022-02-03 06:00","2022","02","03","06:00","-35.2","","-38.7","","71","","","","29","","18","","24.1","","100.46","","","","-49","","NA"
"-114.44","62.46","YELLOWKNIFE A","2204101","2022-02-03 07:00","2022","02","03","07:00","-35.5","","-39.1","","71","","","","29","","19","","24.1","","100.51","","","","-50","","NA"
"-114.44","62.46","YELLOWKNIFE A","2204101","2022-02-03 08:00","2022","02","03","08:00","-36.2","","-39.7","","71","","","","28","","17","","24.1","","100.52","","","","-50","","Clear"
"-114.44","62.46","YELLOWKNIFE A","2204101","2022-02-03 09:00","2022","02","03","09:00","-36.5","","-40.1","","70","","","","28","","16","","24.1","","100.57","","","","-50","","NA"
"-114.44","62.46","YELLOWKNIFE A","2204101","2022-02-03 10:00","2022","02","03","10:00","-36.0","","-39.5","","70","","","","29","","15","","24.1","","100.61","","","","-49","","NA"
"-114.44","62.46","YELLOWKNIFE A","2204101","2022-02-03 11:00","2022","02","03","11:00","-34.4","","-37.9","","71","","","","29","","13","","24.1","","100.64","","","","-46","","Clear"
"-114.44","62.46","YELLOWKNIFE A","2204101","2022-02-03 12:00","2022","02","03","12:00","-32.8","","-36.2","","72","","","","29","","15","","24.1","","100.65","","","","-45","","NA"
"-114.44","62.46","YELLOWKNIFE A","2204101","2022-02-03 13:00","2022","02","03","13:00","-31.4","","-34.8","","73","","","","27","","9","","24.1","","100.67","","","","-40","","NA"
"-114.44","62.46","YELLOWKNIFE A","2204101","2022-02-03 14:00","2022","02","03","14:00","-30.9","","-34.3","","73","","","","27","","12","","24.1","","100.69","","","","-41","","Clear"
"-114.44","62.46","YELLOWKNIFE A","2204101","2022-02-03 15:00","2022","02","03","15:00","-30.6","","-34.0","","73","","","","27","","10","","24.1","","100.68","","","","-40","","NA"
"-114.44","62.46","YELLOWKNIFE A","2204101","2022-02-03 16:00","2022","02","03","16:00","-31.1","","-34.4","","73","","","","25","","10","","24.1","","100.68","","","","-40","","NA"
"-114.44","62.46","YELLOWKNIFE A","2204101","2022-02-03 17:00","2022","02","03","17:00","-32.3","","-35.6","","73","","","","23","","5","","24.1","","100.67","","","","-38","","Clear"
"-114.44","62.46","YELLOWKNIFE A","2204101","2022-02-03 18:00","2022","02","03","18:00","-33.4","","-36.8","","72","","","","24","","9","","24.1","","100.63","","","","-43","","NA"
"-114.44","62.46","YELLOWKNIFE A","2204101","2022-02-03 19:00","2022","02","03","19:00","-33.7","","-37.1","","72","","","","25","","10","","24.1","","100.56","","","","-44","","NA"
"-114.44","62.46","YELLOWKNIFE A","2204101","2022-02-03 20:00","2022","02","03","20:00","-34.0","","-37.5","","72","","","","23","","9","","24.1","","100.56","","","","-43","","Clear"
"-114.44","62.46","YELLOWKNIFE A","2204101","2022-02-03 21:00","2022","02","03","21:00","-34.3","","-37.8","","72","","","","25","","8","","24.1","","100.49","","","","-43","","NA"
"-114.44","62.46","YELLOWKNIFE A","2204101","2022-02-03 22:00","2022","02","03","22:00","-35.3","","-38.8","","71","","","","25","","7","","24.1","","100.49","","","","-43","","Ice Crystals"
"-114.44","62.46","YELLOWKNIFE A","2204101","2022-02-03 23:00","2022","02","03","23:00","-34.9","","-38.4","","71","","","","23","","12","","24.1","","100.42","","","","-46","","Clear"
"-114.44","62.46","YELLOWKNIFE A","2204101","2022-02-04 00:00","2022","02","04","00:00","-36.1","","-39.7","","71","","","","27","","7","","24.1","","100.38","","","","-44","","NA"
"-114.44","62.46","YELLOWKNIFE A","2204101","2022-02-04 01:00","2022","02","04","01:00","-35.5","","-39.0","","71","","","","27","","9","","24.1","","100.35","","","","-45","","NA"
"-114.44","62.46","YELLOWKNIFE A","2204101","2022-02-04 02:00","2022","02","04","02:00","-36.7","","-40.3","","71","","","","30","","5","","24.1","","100.30","","","","-43","","Clear"
"-114.44","62.46","YELLOWKNIFE A","2204101","2022-02-04 03:00","2022","02","04","03:00","-38.5","","-42.1","","69","","","","33","","8","","24.1","","100.27","","","","-48","","NA"
"-114.44","62.46","YELLOWKNIFE A","2204101","2022-02-04 04:00","2022","02","04","04:00","-39.2","","-42.9","","69","","","","1","","5","","24.1","","100.21","","","","-46","","NA"
"-114.44","62.46","YELLOWKNIFE A","2204101","2022-02-04 05:00","2022","02","04","05:00","-39.8","","-43.5","","69","","","","4","","7","","24.1","","100.19","","","","-49","","Clear"
"-114.44","62.46","YELLOWKNIFE A","2204101","2022-02-04 06:00","2022","02","04","06:00","-39.3","","-43.0","","69","","","","10","","4","","24.1","","100.10","","","","-45","","NA"
"-114.44","62.46","YELLOWKNIFE A","2204101","2022-02-04 07:00","2022","02","04","07:00","-39.6","","-43.4","","69","","","","7","","4","","16.1","","100.06","","","","-45","","NA"
"-114.44","62.46","YELLOWKNIFE A","2204101","2022-02-04 08:00","2022","02","04","08:00","-39.8","","-43.6","","69","","","","9","","4","","24.1","","100.01","","","","-45","","Mainly Clear"
"-114.44","62.46","YELLOWKNIFE A","2204101","2022-02-04 09:00","2022","02","04","09:00","-39.8","","-43.6","","68","","","","6","","5","","1.6","","99.94","","","","-47","","Fog"
"-114.44","62.46","YELLOWKNIFE A","2204101","2022-02-04 10:00","2022","02","04","10:00","-39.6","","-43.4","","69","","","","4","","5","","1.2","","99.90","","","","-47","","Fog"
"-114.44","62.46","YELLOWKNIFE A","2204101","2022-02-04 11:00","2022","02","04","11:00","-37.9","","-41.6","","69","","","","7","","4","","1.6","","99.87","","","","-43","","Fog"
"-114.44","62.46","YELLOWKNIFE A","2204101","2022-02-04 12:00","2022","02","04","12:00","-36.4","","-40.1","","70","","","","3","","3","","2.4","","99.87","","","","-40","","Fog"
"-114.44","62.46","YELLOWKNIFE A","2204101","2022-02-04 13:00","2022","02","04","13:00","-34.5","","-38.0","","71","","","","4","","4","","16.1","","99.79","","","","-39","","NA"
"-114.44","62.46","YELLOWKNIFE A","2204101","2022-02-04 14:00","2022","02","04","14:00","-33.2","","-36.7","","72","","","","4","","4","","24.1","","99.72","","","","-38","","Mainly Clear"
"-114.44","62.46","YELLOWKNIFE A","2204101","2022-02-04 15:00","2022","02","04","15:00","-32.3","","-35.7","","72","","","","4","","6","","24.1","","99.70","","","","-39","","NA"
"-114.44","62.46","YELLOWKNIFE A","2204101","2022-02-04 16:00","2022","02","04","16:00","-32.6","","-36.0","","72","","","","4","","6","","24.1","","99.64","","","","-40","","NA"
"-114.44","62.46","YELLOWKNIFE A","2204101","2022-02-04 17:00","2022","02","04","17:00","-33.6","","-37.1","","72","","","","4","","4","","24.1","","99.62","","","","-38","","Mainly Clear"
"-114.44","62.46","YELLOWKNIFE A","2204101","2022-02-04 18:00","2022","02","04","18:00","-34.6","","-38.1","","71","","","","5","","12","","24.1","","99.57","","","","-46","","NA"
"-114.44","62.46","YELLOWKNIFE A","2204101","2022-02-04 19:00","2022","02","04","19:00","-33.4","","-36.9","","72","","","","7","","9","","24.1","","99.49","","","","-43","","NA"
"-114.44","62.46","YELLOWKNIFE A","2204101","2022-02-04 20:00","2022","02","04","20:00","-33.5","","-37.0","","72","","","","6","","13","","24.1","","99.40","","","","-45","","Cloudy"
"-114.44","62.46","YELLOWKNIFE A","2204101","2022-02-04 21:00","2022","02","04","21:00","-33.0","","-36.5","","72","","","","7","","10","","24.1","","99.35","","","","-43","","NA"
"-114.44","62.46","YELLOWKNIFE A","2204101","2022-02-04 22:00","2022","02","04","22:00","-33.1","","-36.5","","72","","","","8","","7","","24.1","","99.33","","","","-41","","NA"
"-114.44","62.46","YELLOWKNIFE A","2204101","2022-02-04 23:00","2022","02","04","23:00","-33.0","","-36.4","","72","","","","7","","8","","24.1","","99.31","","","","-41","","Cloudy"
"-114.44","62.46","YELLOWKNIFE A","2204101","2022-02-05 00:00","2022","02","05","00:00","-32.5","","-35.9","","72","","","","6","","13","","24.1","","99.24","","","","-44","","NA"
"-114.44","62.46","YELLOWKNIFE A","2204101","2022-02-05 01:00","2022","02","05","01:00","-32.0","","-35.4","","73","","","","6","","13","","24.1","","99.20","","","","-43","","NA"
"-114.44","62.46","YELLOWKNIFE A","2204101","2022-02-05 02:00","2022","02","05","02:00","-31.6","","-35.0","","73","","","","6","","9","","24.1","","99.17","","","","-40","","Cloudy"
"-114.44","62.46","YELLOWKNIFE A","2204101","2022-02-05 03:00","2022","02","05","03:00","-30.9","","-34.2","","73","","","","7","","10","","24.1","","99.17","","","","-40","","NA"
"-114.44","62.46","YELLOWKNIFE A","2204101","2022-02-05 04:00","2022","02","05","04:00","-30.2","","-33.5","","74","","","","7","","13","","24.1","","99.16","","","","-41","","NA"
"-114.44","62.46","YELLOWKNIFE A","2204101","2022-02-05 05:00","2022","02","05","05:00","-29.5","","-32.8","","74","","","","6","","10","","24.1","","99.14","","","","-39","","Cloudy"
"-114.44","62.46","YELLOWKNIFE A","2204101","2022-02-05 06:00","2022","02","05","06:00","-28.8","","-32.0","","75","","","","7","","15","","24.1","","99.12","","","","-40","","NA"
"-114.44","62.46","YELLOWKNIFE A","2204101","2022-02-05 07:00","2022","02","05","07:00","-27.8","","-30.9","","75","","","","7","","18","","24.1","","99.14","","","","-40","","NA"
"-114.44","62.46","YELLOWKNIFE A","2204101","2022-02-05 08:00","2022","02","05","08:00","-27.4","","-30.4","","76","","","","7","","14","","24.1","","99.13","","","","-38","","Mostly Cloudy"
"-114.44","62.46","YELLOWKNIFE A","2204101","2022-02-05 09:00","2022","02","05","09:00","-27.1","","-30.2","","76","","","","7","","12","","24.1","","99.12","","","","-37","","NA"
"-114.44","62.46","YELLOWKNIFE A","2204101","2022-02-05 10:00","2022","02","05","10:00","-26.9","","-29.9","","76","","","","10","","12","","24.1","","99.17","","","","-36","","NA"
"-114.44","62.46","YELLOWKNIFE A","2204101","2022-02-05 11:00","2022","02","05","11:00","-26.2","","-29.1","","77","","","","11","","10","","24.1","","99.20","","","","-35","","Snow"
"-114.44","62.46","YELLOWKNIFE A","2204101","2022-02-05 12:00","2022","02","05","12:00","-25.6","","-28.5","","77","","","","13","","12","","24.1","","99.23","","","","-35","","Snow"
"-114.44","62.46","YELLOWKNIFE A","2204101","2022-02-05 13:00","2022","02","05","13:00","-25.4","","-28.4","","77","","","","13","","12","","24.1","","99.20","","","","-35","","Snow"
"-114.44","62.46","YELLOWKNIFE A","2204101","2022-02-05 14:00","2022","02","05","14:00","-25.4","","-28.3","","77","","","","15","","10","","24.1","","99.23","","","","-34","","Snow"
"-114.44","62.46","YELLOWKNIFE A","2204101","2022-02-05 15:00","2022","02","05","15:00","-25.4","","-28.3","","77","","","","15","","10","","24.1","","99.23","","","","-34","","NA"
"-114.44","62.46","YELLOWKNIFE A","2204101","2022-02-05 16:00","2022","02","05","16:00","-26.9","","-29.9","","76","","","","15","","11","","24.1","","99.24","","","","-36","","NA"
"-114.44","62.46","YELLOWKNIFE A","2204101","2022-02-05 17:00","2022","02","05","17:00","-27.3","","-30.3","","76","","","","16","","11","","24.1","","99.23","","","","-36","","Mainly Clear"
"-114.44","62.46","YELLOWKNIFE A","2204101","2022-02-05 18:00","2022","02","05","18:00","-28.7","","-31.8","","75","","","","12","","9","","24.1","","99.22","","","","-37","","NA"
"-114.44","62.46","YELLOWKNIFE A","2204101","2022-02-05 19:00","2022","02","05","19:00","-28.5","","-31.6","","75","","","","12","","13","","24.1","","99.18","","","","-39","","NA"
"-114.44","62.46","YELLOWKNIFE A","2204101","2022-02-05 20:00","2022","02","05","20:00","-28.4","","-31.5","","75","","","","13","","16","","24.1","","99.09","","","","-40","","Clear"
"-114.44","62.46","YELLOWKNIFE A","2204101","2022-02-05 21:00","2022","02","05","21:00","-29.2","","-32.4","","75","","","","14","","12","","24.1","","99.06","","","","-39","","NA"
"-114.44","62.46","YELLOWKNIFE A","2204101","2022-02-05 22:00","2022","02","05","22:00","-29.5","","-32.6","","75","","","","13","","11","","24.1","","98.97","","","","-39","","NA"
"-114.44","62.46","YELLOWKNIFE A","2204101","2022-02-05 23:00","2022","02","05","23:00","-29.4","","-32.5","","75","","","","14","","13","","24.1","","98.87","","","","-40","","Mainly Clear"
"-114.44","62.46","YELLOWKNIFE A","2204101","2022-02-06 00:00","2022","02","06","00:00","-28.5","","-31.6","","75","","","","14","","14","","24.1","","98.80","","","","-39","","NA"
"-114.44","62.46","YELLOWKNIFE A","2204101","2022-02-06 01:00","2022","02","06","01:00","-28.2","","-31.2","","76","","","","14","","17","","24.1","","98.70","","","","-40","","NA"
"-114.44","62.46","YELLOWKNIFE A","2204101","2022-02-06 02:00","2022","02","06","02:00","-28.6","","-31.7","","75","","","","12","","13","","24.1","","98.62","","","","-39","","Clear"
"-114.44","62.46","YELLOWKNIFE A","2204101","2022-02-06 03:00","2022","02","06","03:00","-28.1","","-31.1","","76","","","","13","","16","","24.1","","98.48","","","","-39","","NA"
"-114.44","62.46","YELLOWKNIFE A","2204101","2022-02-06 04:00","2022","02","06","04:00","-27.7","","-30.8","","76","","","","13","","17","","24.1","","98.38","","","","-39","","NA"
"-114.44","62.46","YELLOWKNIFE A","2204101","2022-02-06 05:00","2022","02","06","05:00","-27.7","","-30.8","","76","","","","10","","15","","24.1","","98.22","","","","-39","","Clear"
"-114.44","62.46","YELLOWKNIFE A","2204101","2022-02-06 06:00","2022","02","06","06:00","-26.8","","-29.7","","77","","","","11","","21","","24.1","","98.09","","","","-39","","NA"
"-114.44","62.46","YELLOWKNIFE A","2204101","2022-02-06 07:00","2022","02","06","07:00","-25.8","","-28.7","","77","","","","13","","22","","24.1","","97.93","","","","-38","","NA"
"-114.44","62.46","YELLOWKNIFE A","2204101","2022-02-06 08:00","2022","02","06","08:00","-25.3","","-28.1","","78","","","","12","","19","","24.1","","97.82","","","","-37","","Mostly Cloudy"
"-114.44","62.46","YELLOWKNIFE A","2204101","2022-02-06 09:00","2022","02","06","09:00","-24.8","","-27.5","","78","","","","11","","19","","24.1","","97.65","","","","-36","","NA"
"-114.44","62.46","YELLOWKNIFE A","2204101","2022-02-06 10:00","2022","02","06","10:00","-24.4","","-27.2","","78","","","","10","","22","","24.1","","97.49","","","","-37","","NA"
"-114.44","62.46","YELLOWKNIFE A","2204101","2022-02-06 11:00","2022","02","06","11:00","-23.4","","-26.0","","79","","","","11","","21","","2.4","","97.34","","","","-35","","Snow,Blowing Snow"
"-114.44","62.46","YELLOWKNIFE A","2204101","2022-02-06 12:00","2022","02","06","12:00","-22.3","","-24.8","","80","","","","11","","23","","2.4","","97.17","","","","-34","","Snow,Blowing Snow"
"-114.44","62.46","YELLOWKNIFE A","2204101","2022-02-06 13:00","2022","02","06","13:00","-20.8","","-23.2","","82","","","","10","","22","","16.1","","97.03","","","","-32","","Snow,Blowing Snow"
"-114.44","62.46","YELLOWKNIFE A","2204101","2022-02-06 14:00","2022","02","06","14:00","-20.2","","-22.5","","82","","","","9","","16","","4.8","","96.98","","","","-30","","Snow,Blowing Snow"
"-114.44","62.46","YELLOWKNIFE A","2204101","2022-02-06 15:00","2022","02","06","15:00","-19.6","","-21.8","","83","","","","9","","16","","4.0","","96.91","","","","-29","","Snow"
"-114.44","62.46","YELLOWKNIFE A","2204101","2022-02-06 16:00","2022","02","06","16:00","-19.0","","-21.1","","84","","","","10","","12","","2.4","","96.91","","","","-27","","Snow"
"-114.44","62.46","YELLOWKNIFE A","2204101","2022-02-06 17:00","2022","02","06","17:00","-18.8","","-20.8","","84","","","","5","","10","","24.1","","96.94","","","","-26","","Snow"
"-114.44","62.46","YELLOWKNIFE A","2204101","2022-02-06 18:00","2022","02","06","18:00","-19.4","","-21.5","","84","","","","8","","8","","24.1","","96.96","","","","-26","","Snow"
"-114.44","62.46","YELLOWKNIFE A","2204101","2022-02-06 19:00","2022","02","06","19:00","-20.3","","-22.6","","83","","","","34","","9","","24.1","","96.98","","","","-27","","Snow"
"-114.44","62.46","YELLOWKNIFE A","2204101","2022-02-06 20:00","2022","02","06","20:00","-21.7","","-24.1","","81","","","","2","","5","","24.1","","96.93","","","","-26","","Ice Crystals"
"-114.44","62.46","YELLOWKNIFE A","2204101","2022-02-06 21:00","2022","02","06","21:00","-22.8","","-25.3","","80","","","","36","","2","","24.1","","96.99","","","","-25","","Ice Crystals"
"-114.44","62.46","YELLOWKNIFE A","2204101","2022-02-06 22:00","2022","02","06","22:00","-21.6","","-23.9","","82","","","","34","","7","","24.1","","97.03","","","","-28","","Snow"
"-114.44","62.46","YELLOWKNIFE A","2204101","2022-02-06 23:00","2022","02","06","23:00","-21.1","","-23.4","","82","","","","33","","4","","24.1","","97.06","","","","-25","","Snow"
"-114.44","62.46","YELLOWKNIFE A","2204101","2022-02-07 00:00","2022","02","07","00:00","-21.7","","-24.1","","81","","","","31","","5","","24.1","","97.07","","","","-26","","Snow"
"-114.44","62.46","YELLOWKNIFE A","2204101","2022-02-07 01:00","2022","02","07","01:00","-21.5","","-23.9","","82","","","","23","","5","","24.1","","97.07","","","","-26","","Snow"
"-114.44","62.46","YELLOWKNIFE A","2204101","2022-02-07 02:00","2022","02","07","02:00","-22.1","","-24.5","","81","","","","32","","8","","24.1","","97.02","","","","-29","","Mostly Cloudy"
"-114.44","62.46","YELLOWKNIFE A","2204101","2022-02-07 03:00","2022","02","07","03:00","-22.9","","-25.4","","80","","","","26","","9","","24.1","","97.06","","","","-30","","NA"
"-114.44","62.46","YELLOWKNIFE A","2204101","2022-02-07 04:00","2022","02","07","04:00","-21.9","","-24.3","","81","","","","33","","9","","24.1","","97.03","","","","-29","","NA"
"-114.44","62.46","YELLOWKNIFE A","2204101","2022-02-07 05:00","2022","02","07","05:00","-22.1","","-24.5","","81","","","","34","","9","","24.1","","96.94","","","","-29","","Cloudy"
"-114.44","62.46","YELLOWKNIFE A","2204101","2022-02-07 06:00","2022","02","07","06:00","-21.7","","-24.1","","81","","","","28","","7","","24.1","","97.07","","","","-28","","Snow"
"-114.44","62.46","YELLOWKNIFE A","2204101","2022-02-07 07:00","2022","02","07","07:00","-21.6","","-24.0","","81","","","","31","","12","","24.1","","97.01","","","","-30","","Snow"
"-114.44","62.46","YELLOWKNIFE A","2204101","2022-02-07 08:00","2022","02","07","08:00","-21.2","","-23.6","","82","","","","32","","18","","24.1","","97.00","","","","-31","","Snow"
"-114.44","62.46","YELLOWKNIFE A","2204101","2022-02-07 09:00","2022","02","07","09:00","-21.0","","-23.3","","82","","","","32","","16","","24.1","","96.98","","","","-31","","Snow"
"-114.44","62.46","YELLOWKNIFE A","2204101","2022-02-07 10:00","2022","02","07","10:00","-20.8","","-23.0","","82","","","","32","","22","","24.1","","96.99","","","","-32","","Snow"
"-114.44","62.46","YELLOWKNIFE A","2204101","2022-02-07 11:00","2022","02","07","11:00","-20.4","","-22.6","","83","","","","33","","18","","24.1","","97.06","","","","-30","","Snow"
"-114.44","62.46","YELLOWKNIFE A","2204101","2022-02-07 12:00","2022","02","07","12:00","-19.6","","-21.8","","83","","","","33","","23","","24.1","","97.11","","","","-31","","Snow"
"-114.44","62.46","YELLOWKNIFE A","2204101","2022-02-07 13:00","2022","02","07","13:00","-19.5","","-21.7","","83","","","","32","","20","","24.1","","97.19","","","","-30","","Snow"
"-114.44","62.46","YELLOWKNIFE A","2204101","2022-02-07 14:00","2022","02","07","14:00","-19.6","","-21.8","","83","","","","30","","19","","24.1","","97.34","","","","-30","","Cloudy"
"-114.44","62.46","YELLOWKNIFE A","2204101","2022-02-07 15:00","2022","02","07","15:00","-19.1","","-21.4","","83","","","","31","","24","","24.1","","97.44","","","","-30","","Blowing Snow"
"-114.44","62.46","YELLOWKNIFE A","2204101","2022-02-07 16:00","2022","02","07","16:00","-19.6","","-22.4","","79","","","","31","","27","","24.1","","97.60","","","","-31","","Blowing Snow"
"-114.44","62.46","YELLOWKNIFE A","2204101","2022-02-07 17:00","2022","02","07","17:00","-19.8","","-23.0","","76","","","","31","","26","","24.1","","97.79","","","","-32","","Blowing Snow"
"-114.44","62.46","YELLOWKNIFE A","2204101","2022-02-07 18:00","2022","02","07","18:00","-19.8","","-23.1","","75","","","","31","","31","","6.4","","97.90","","","","-32","","Snow,Blowing Snow"
"-114.44","62.46","YELLOWKNIFE A","2204101","2022-02-07 19:00","2022","02","07","19:00","-20.1","","-23.5","","75","","","","33","","27","","6.4","","98.01","","","","-32","","Snow,Blowing Snow"
"-114.44","62.46","YELLOWKNIFE A","2204101","2022-02-07 20:00","2022","02","07","20:00","-20.1","","-23.4","","76","","","","33","","25","","6.4","","98.16","","","","-32","","Snow,Blowing Snow"
"-114.44","62.46","YELLOWKNIFE A","2204101","2022-02-07 21:00","2022","02","07","21:00","-21.3","","-25.1","","72","","","","34","","21","","24.1","","98.25","","","","-32","","Snow,Blowing Snow"
"-114.44","62.46","YELLOWKNIFE A","2204101","2022-02-07 22:00","2022","02","07","22:00","-22.1","","-25.8","","72","","","","33","","25","","24.1","","98.38","","","","-34","","Snow,Blowing Snow"
"-114.44","62.46","YELLOWKNIFE A","2204101","2022-02-07 23:00","2022","02","07","23:00","-22.8","","-26.8","","71","","","","34","","24","","24.1","","98.53","","","","-35","","Snow,Blowing Snow"
"-114.44","62.46","YELLOWKNIFE A","2204101","2022-02-08 00:00","2022","02","08","00:00","-23.2","","-27.0","","71","","","","33","","20","","6.4","","98.70","","","","-35","","Snow,Blowing Snow"
"-114.44","62.46","YELLOWKNIFE A","2204101","2022-02-08 01:00","2022","02","08","01:00","-24.2","","-27.9","","73","","","","33","","20","","24.1","","98.81","","","","-36","","Snow,Blowing Snow"
"-114.44","62.46","YELLOWKNIFE A","2204101","2022-02-08 02:00","2022","02","08","02:00","-25.3","","-28.9","","72","","","","34","","16","","24.1","","98.90","","","","-36","","Snow,Blowing Snow"
"-114.44","62.46","YELLOWKNIFE A","2204101","2022-02-08 03:00","2022","02","08","03:00","-26.0","","-29.6","","72","","","","35","","15","","24.1","","98.95","","","","-36","","NA"
"-114.44","62.46","YELLOWKNIFE A","2204101","2022-02-08 04:00","2022","02","08","04:00","-26.3","","-30.0","","72","","","","34","","13","","24.1","","99.04","","","","-36","","NA"
"-114.44","62.46","YELLOWKNIFE A","2204101","2022-02-08 05:00","2022","02","08","05:00","-27.7","","-31.1","","73","","","","32","","13","","24.1","","99.10","","","","-38","","Mainly Clear"
"-114.44","62.46","YELLOWKNIFE A","2204101","2022-02-08 06:00","2022","02","08","06:00","-28.4","","-31.7","","74","","","","33","","10","","24.1","","99.15","","","","-37","","NA"
"-114.44","62.46","YELLOWKNIFE A","2204101","2022-02-08 07:00","2022","02","08","07:00","-29.7","","-32.9","","75","","","","29","","8","","24.1","","99.21","","","","-38","","NA"
"-114.44","62.46","YELLOWKNIFE A","2204101","2022-02-08 08:00","2022","02","08","08:00","-29.4","","-32.8","","73","","","","32","","11","","24.1","","99.26","","","","-39","","Mostly Cloudy"
"-114.44","62.46","YELLOWKNIFE A","2204101","2022-02-08 09:00","2022","02","08","09:00","-30.4","","-33.7","","73","","","","33","","12","","24.1","","99.29","","","","-41","","NA"
"-114.44","62.46","YELLOWKNIFE A","2204101","2022-02-08 10:00","2022","02","08","10:00","-29.7","","-33.1","","73","","","","31","","8","","24.1","","99.32","","","","-38","","NA"
"-114.44","62.46","YELLOWKNIFE A","2204101","2022-02-08 11:00","2022","02","08","11:00","-28.3","","-32.0","","71","","","","32","","7","","24.1","","99.35","","","","-35","","Mostly Cloudy"
"-114.44","62.46","YELLOWKNIFE A","2204101","2022-02-08 12:00","2022","02","08","12:00","-27.8","","-31.9","","69","","","","35","","8","","24.1","","99.41","","","","-35","","NA"
"-114.44","62.46","YELLOWKNIFE A","2204101","2022-02-08 13:00","2022","02","08","13:00","-27.0","","-31.1","","68","","","","2","","7","","24.1","","99.38","","","","-34","","NA"
"-114.44","62.46","YELLOWKNIFE A","2204101","2022-02-08 14:00","2022","02","08","14:00","-26.4","","-30.9","","67","","","","30","","7","","24.1","","99.39","","","","-33","","Mostly Cloudy"
"-114.44","62.46","YELLOWKNIFE A","2204101","2022-02-08 15:00","2022","02","08","15:00","-26.2","","-30.7","","67","","","","34","","7","","24.1","","99.43","","","","-33","","NA"
"-114.44","62.46","YELLOWKNIFE A","2204101","2022-02-08 16:00","2022","02","08","16:00","-26.5","","-30.8","","68","","","","1","","8","","24.1","","99.43","","","","-34","","NA"
"-114.44","62.46","YELLOWKNIFE A","2204101","2022-02-08 17:00","2022","02","08","17:00","-26.8","","-30.8","","70","","","","32","","7","","24.1","","99.44","","","","-34","","Mostly Cloudy"
"-114.44","62.46","YELLOWKNIFE A","2204101","2022-02-08 18:00","2022","02","08","18:00","-28.0","","-31.5","","72","","","","35","","8","","24.1","","99.43","","","","-36","","NA"
"-114.44","62.46","YELLOWKNIFE A","2204101","2022-02-08 19:00","2022","02","08","19:00","-29.5","","-32.7","","74","","","","29","","8","","24.1","","99.50","","","","-37","","NA"
"-114.44","62.46","YELLOWKNIFE A","2204101","2022-02-08 20:00","2022","02","08","20:00","-30.1","","-33.3","","74","","","","36","","9","","24.1","","99.42","","","","-39","","Mainly Clear"
"-114.44","62.46","YELLOWKNIFE A","2204101","2022-02-08 21:00","2022","02","08","21:00","-30.3","","-33.5","","74","","","","34","","7","","24.1","","99.42","","","","-38","","NA"
"-114.44","62.46","YELLOWKNIFE A","2204101","2022-02-08 22:00","2022","02","08","22:00","-30.8","","-34.1","","74","","","","1","","5","","24.1","","99.35","","","","-37","","NA"
"-114.44","62.46","YELLOWKNIFE A","2204101","2022-02-08 23:00","2022","02","08","23:00","-29.7","","-33.0","","73","","","","3","","8","","24.1","","99.34","","","","-38","","Mostly Cloudy"
"-114.44","62.46","YELLOWKNIFE A","2204101","2022-02-09 00:00","2022","02","09","00:00","-28.0","","-31.4","","73","","","","4","","7","","24.1","","99.36","","","","-35","","Snow"
"-114.44","62.46","YELLOWKNIFE A","2204101","2022-02-09 01:00","2022","02","09","01:00","-27.6","","-31.1","","73","","","","4","","11","","24.1","","99.38","","","","-37","","Snow"
"-114.44","62.46","YELLOWKNIFE A","2204101","2022-02-09 02:00","2022","02","09","02:00","-27.4","","-30.9","","72","","","","6","","9","","24.1","","99.37","","","","-36","","Snow"
"-114.44","62.46","YELLOWKNIFE A","2204101","2022-02-09 03:00","2022","02","09","03:00","-27.2","","-30.8","","72","","","","4","","7","","24.1","","99.39","","","","-34","","Snow"
"-114.44","62.46","YELLOWKNIFE A","2204101","2022-02-09 04:00","2022","02","09","04:00","-26.8","","-30.4","","72","","","","3","","9","","24.1","","99.43","","","","-35","","Snow"
"-114.44","62.46","YELLOWKNIFE A","2204101","2022-02-09 05:00","2022","02","09","05:00","-26.5","","-30.1","","72","","","","6","","8","","24.1","","99.44","","","","-34","","Snow"
"-114.44","62.46","YELLOWKNIFE A","2204101","2022-02-09 06:00","2022","02","09","06:00","-26.2","","-29.8","","73","","","","5","","7","","24.1","","99.44","","","","-33","","Snow"
"-114.44","62.46","YELLOWKNIFE A","2204101","2022-02-09 07:00","2022","02","09","07:00","-25.9","","-29.5","","73","","","","3","","13","","24.1","","99.47","","","","-36","","Snow"
"-114.44","62.46","YELLOWKNIFE A","2204101","2022-02-09 08:00","2022","02","09","08:00","-25.6","","-29.0","","74","","","","6","","13","","24.1","","99.46","","","","-35","","Snow"
"-114.44","62.46","YELLOWKNIFE A","2204101","2022-02-09 09:00","2022","02","09","09:00","-25.5","","-28.9","","74","","","","6","","16","","24.1","","99.38","","","","-36","","Snow"
"-114.44","62.46","YELLOWKNIFE A","2204101","2022-02-09 10:00","2022","02","09","10:00","-25.2","","-28.6","","74","","","","8","","13","","24.1","","99.29","","","","-35","","Snow"
"-114.44","62.46","YELLOWKNIFE A","2204101","2022-02-09 11:00","2022","02","09","11:00","-24.7","","-28.3","","72","","","","9","","12","","24.1","","99.23","","","","-34","","Snow"
"-114.44","62.46","YELLOWKNIFE A","2204101","2022-02-09 12:00","2022","02","09","12:00","-24.1","","-28.0","","71","","","","10","","14","","24.1","","99.13","","","","-34","","Snow"
"-114.44","62.46","YELLOWKNIFE A","2204101","2022-02-09 13:00","2022","02","09","13:00","-23.5","","-27.5","","70","","","","8","","16","","24.1","","99.02","","","","-34","","Snow"
"-114.44","62.46","YELLOWKNIFE A","2204101","2022-02-09 14:00","2022","02","09","14:00","-23.2","","-27.1","","71","","","","9","","16","","24.1","","98.95","","","","-33","","Snow"
"-114.44","62.46","YELLOWKNIFE A","2204101","2022-02-09 15:00","2022","02","09","15:00","-22.9","","-26.7","","71","","","","8","","22","","24.1","","98.76","","","","-35","","NA"
"-114.44","62.46","YELLOWKNIFE A","2204101","2022-02-09 16:00","2022","02","09","16:00","-23.0","","-26.4","","74","","","","8","","26","","4.0","","98.52","","","","-36","","Snow,Blowing Snow"
"-114.44","62.46","YELLOWKNIFE A","2204101","2022-02-09 17:00","2022","02","09","17:00","-23.2","","-26.4","","75","","","","8","","30","","2.4","","98.32","","","","-37","","Snow,Blowing Snow"
"-114.44","62.46","YELLOWKNIFE A","2204101","2022-02-09 18:00","2022","02","09","18:00","-22.9","","-26.1","","76","","","","8","","29","","2.4","","98.16","","","","-36","","Snow,Blowing Snow"
"-114.44","62.46","YELLOWKNIFE A","2204101","2022-02-09 19:00","2022","02","09","19:00","-22.8","","-25.8","","77","","","","8","","24","","1.6","","98.14","","","","-35","","Snow,Blowing Snow"
"-114.44","62.46","YELLOWKNIFE A","2204101","2022-02-09 20:00","2022","02","09","20:00","-22.5","","-25.5","","77","","","","7","","23","","0.8","","98.08","","","","-34","","Snow,Blowing Snow"
"-114.44","62.46","YELLOWKNIFE A","2204101","2022-02-09 21:00","2022","02","09","21:00","-22.7","","-25.6","","78","","","","6","","26","","1.2","","98.06","","","","-35","","Snow,Blowing Snow"
"-114.44","62.46","YELLOWKNIFE A","2204101","2022-02-09 22:00","2022","02","09","22:00","-22.5","","-25.4","","77","","","","6","","27","","1.6","","98.01","","","","-35","","Snow,Blowing Snow"
"-114.44","62.46","YELLOWKNIFE A","2204101","2022-02-09 23:00","2022","02","09","23:00","-22.1","","-25.2","","77","","","","6","","28","","4.0","","98.00","","","","-35","","Snow,Blowing Snow"
"-114.44","62.46","YELLOWKNIFE A","2204101","2022-02-10 00:00","2022","02","10","00:00","-22.2","","-25.4","","76","","","","5","","34","","6.4","","98.06","","","","-36","","Snow,Blowing Snow"
"-114.44","62.46","YELLOWKNIFE A","2204101","2022-02-10 01:00","2022","02","10","01:00","-22.3","","-25.6","","75","","","","6","","25","","6.4","","98.10","","","","-35","","Snow,Blowing Snow"
"-114.44","62.46","YELLOWKNIFE A","2204101","2022-02-10 02:00","2022","02","10","02:00","-22.7","","-26.4","","72","","","","6","","28","","16.1","","98.18","","","","-36","","Snow,Blowing Snow"
"-114.44","62.46","YELLOWKNIFE A","2204101","2022-02-10 03:00","2022","02","10","03:00","-23.2","","-27.1","","71","","","","5","","21","","24.1","","98.32","","","","-35","","Snow,Blowing Snow"
"-114.44","62.46","YELLOWKNIFE A","2204101","2022-02-10 04:00","2022","02","10","04:00","-23.2","","-27.2","","70","","","","5","","19","","24.1","","98.48","","","","-34","","Snow,Blowing Snow"
"-114.44","62.46","YELLOWKNIFE A","2204101","2022-02-10 05:00","2022","02","10","05:00","-23.4","","-27.5","","70","","","","5","","23","","24.1","","98.62","","","","-36","","Snow,Blowing Snow"
"-114.44","62.46","YELLOWKNIFE A","2204101","2022-02-10 06:00","2022","02","10","06:00","-23.7","","-27.9","","69","","","","7","","24","","24.1","","98.70","","","","-36","","Snow,Blowing Snow"
"-114.44","62.46","YELLOWKNIFE A","2204101","2022-02-10 07:00","2022","02","10","07:00","-23.8","","-27.9","","69","","","","7","","27","","24.1","","98.80","","","","-37","","Snow,Blowing Snow"
"-114.44","62.46","YELLOWKNIFE A","2204101","2022-02-10 08:00","2022","02","10","08:00","-24.0","","-28.2","","69","","","","7","","30","","24.1","","98.93","","","","-38","","Snow,Blowing Snow"
"-114.44","62.46","YELLOWKNIFE A","2204101","2022-02-10 09:00","2022","02","10","09:00","-24.5","","-28.6","","69","","","","7","","21","","24.1","","99.07","","","","-36","","Blowing Snow"
"-114.44","62.46","YELLOWKNIFE A","2204101","2022-02-10 10:00","2022","02","10","10:00","-25.0","","-29.2","","69","","","","8","","26","","24.1","","99.19","","","","-38","","Blowing Snow"
"-114.44","62.46","YELLOWKNIFE A","2204101","2022-02-10 11:00","2022","02","10","11:00","-24.9","","-29.2","","68","","","","8","","23","","24.1","","99.31","","","","-37","","Blowing Snow"
"-114.44","62.46","YELLOWKNIFE A","2204101","2022-02-10 12:00","2022","02","10","12:00","-24.8","","-29.0","","69","","","","8","","25","","24.1","","99.29","","","","-38","","Blowing Snow"
"-114.44","62.46","YELLOWKNIFE A","2204101","2022-02-10 13:00","2022","02","10","13:00","-24.6","","-28.9","","68","","","","7","","18","","24.1","","99.40","","","","-36","","Blowing Snow"
"-114.44","62.46","YELLOWKNIFE A","2204101","2022-02-10 14:00","2022","02","10","14:00","-24.2","","-28.5","","68","","","","8","","16","","24.1","","99.51","","","","-35","","Mostly Cloudy"
"-114.44","62.46","YELLOWKNIFE A","2204101","2022-02-10 15:00","2022","02","10","15:00","-24.6","","-28.9","","69","","","","7","","16","","24.1","","99.61","","","","-35","","NA"
"-114.44","62.46","YELLOWKNIFE A","2204101","2022-02-10 16:00","2022","02","10","16:00","-25.3","","-29.6","","68","","","","8","","17","","24.1","","99.69","","","","-36","","NA"
"-114.44","62.46","YELLOWKNIFE A","2204101","2022-02-10 17:00","2022","02","10","17:00","-26.0","","-30.0","","70","","","","7","","15","","24.1","","99.81","","","","-36","","Mostly Cloudy"
"-114.44","62.46","YELLOWKNIFE A","2204101","2022-02-10 18:00","2022","02","10","18:00","-27.2","","-31.1","","70","","","","7","","18","","24.1","","99.94","","","","-39","","NA"
"-114.44","62.46","YELLOWKNIFE A","2204101","2022-02-10 19:00","2022","02","10","19:00","-27.9","","-31.9","","69","","","","8","","13","","24.1","","100.10","","","","-38","","NA"
"-114.44","62.46","YELLOWKNIFE A","2204101","2022-02-10 20:00","2022","02","10","20:00","-28.0","","-32.2","","68","","","","7","","6","","24.1","","100.23","","","","-34","","Cloudy"
"-114.44","62.46","YELLOWKNIFE A","2204101","2022-02-10 21:00","2022","02","10","21:00","-28.3","","-32.4","","69","","","","4","","10","","24.1","","100.33","","","","-37","","NA"
"-114.44","62.46","YELLOWKNIFE A","2204101","2022-02-10 22:00","2022","02","10","22:00","-28.5","","-32.4","","70","","","","4","","9","","24.1","","100.38","","","","-37","","NA"
"-114.44","62.46","YELLOWKNIFE A","2204101","2022-02-10 23:00","2022","02","10","23:00","-28.6","","-32.4","","70","","","","8","","12","","24.1","","100.39","","","","-38","","Cloudy"
"-114.44","62.46","YELLOWKNIFE A","2204101","2022-02-11 00:00","2022","02","11","00:00","-28.7","","-32.6","","69","","","","8","","5","","24.1","","100.47","","","","-34","","NA"
"-114.44","62.46","YELLOWKNIFE A","2204101","2022-02-11 01:00","2022","02","11","01:00","-28.5","","-32.5","","69","","","","13","","6","","24.1","","100.49","","","","-35","","NA"
"-114.44","62.46","YELLOWKNIFE A","2204101","2022-02-11 02:00","2022","02","11","02:00","-28.4","","-32.1","","71","","","","23","","6","","9.7","","100.58","","","","-35","","Snow"
"-114.44","62.46","YELLOWKNIFE A","2204101","2022-02-11 03:00","2022","02","11","03:00","-28.1","","-31.5","","73","","","","18","","6","","3.2","","100.60","","","","-34","","Snow"
"-114.44","62.46","YELLOWKNIFE A","2204101","2022-02-11 04:00","2022","02","11","04:00","-27.9","","-31.2","","74","","","","18","","5","","9.7","","100.64","","","","-33","","Snow"
"-114.44","62.46","YELLOWKNIFE A","2204101","2022-02-11 05:00","2022","02","11","05:00","-29.0","","-32.0","","76","","","","16","","3","","24.1","","100.61","","","","-32","","Snow"
"-114.44","62.46","YELLOWKNIFE A","2204101","2022-02-11 06:00","2022","02","11","06:00","-30.3","","-33.4","","75","","","","15","","7","","24.1","","100.60","","","","-38","","NA"
"-114.44","62.46","YELLOWKNIFE A","2204101","2022-02-11 07:00","2022","02","11","07:00","-31.5","","-34.5","","75","","","","20","","7","","24.1","","100.61","","","","-39","","NA"
"-114.44","62.46","YELLOWKNIFE A","2204101","2022-02-11 08:00","2022","02","11","08:00","-34.0","","-37.3","","73","","","","31","","5","","24.1","","100.58","","","","-40","","Clear"
"-114.44","62.46","YELLOWKNIFE A","2204101","2022-02-11 09:00","2022","02","11","09:00","-31.4","","-34.6","","74","","","","33","","4","","24.1","","100.61","","","","-36","","NA"
"-114.44","62.46","YELLOWKNIFE A","2204101","2022-02-11 10:00","2022","02","11","10:00","-29.1","","-32.1","","76","","","","27","","7","","24.1","","100.60","","","","-36","","NA"
"-114.44","62.46","YELLOWKNIFE A","2204101","2022-02-11 11:00","2022","02","11","11:00","-27.1","","-30.1","","77","","","","31","","7","","24.1","","100.63","","","","-34","","Mostly Cloudy"
"-114.44","62.46","YELLOWKNIFE A","2204101","2022-02-11 12:00","2022","02","11","12:00","-24.8","","-27.6","","78","","","","31","","4","","24.1","","100.64","","","","-29","","NA"
"-114.44","62.46","YELLOWKNIFE A","2204101","2022-02-11 13:00","2022","02","11","13:00","-24.2","","-27.1","","78","","","","15","","5","","24.1","","100.63","","","","-29","","NA"
"-114.44","62.46","YELLOWKNIFE A","2204101","2022-02-11 14:00","2022","02","11","14:00","-23.4","","-26.4","","76","","","","9","","5","","24.1","","100.57","","","","-28","","Mostly Cloudy"
"-114.44","62.46","YELLOWKNIFE A","2204101","2022-02-11 15:00","2022","02","11","15:00","-23.3","","-26.7","","74","","","","17","","6","","24.1","","100.49","","","","-29","","NA"
"-114.44","62.46","YELLOWKNIFE A","2204101","2022-02-11 16:00","2022","02","11","16:00","-22.4","","-26.0","","73","","","","19","","5","","24.1","","100.51","","","","-27","","NA"
"-114.44","62.46","YELLOWKNIFE A","2204101","2022-02-11 17:00","2022","02","11","17:00","-24.8","","-28.0","","75","","","","19","","4","","24.1","","100.57","","","","-29","","Mainly Clear"
"-114.44","62.46","YELLOWKNIFE A","2204101","2022-02-11 18:00","2022","02","11","18:00","-24.6","","-27.5","","77","","","","27","","4","","16.1","","100.57","","","","-29","","Snow"
"-114.44","62.46","YELLOWKNIFE A","2204101","2022-02-11 19:00","2022","02","11","19:00","-25.0","","-27.6","","79","","","","36","","1","","16.1","","100.50","","","","-26","","Snow"
"-114.44","62.46","YELLOWKNIFE A","2204101","2022-02-11 20:00","2022","02","11","20:00","-25.7","","-28.5","","78","","","","36","","2","","24.1","","100.47","","","","-28","","Snow"
"-114.44","62.46","YELLOWKNIFE A","2204101","2022-02-11 21:00","2022","02","11","21:00","-25.3","","-28.0","","79","","","","36","","2","","16.1","","100.48","","","","-27","","Snow"
"-114.44","62.46","YELLOWKNIFE A","2204101","2022-02-11 22:00","2022","02","11","22:00","-27.3","","-30.1","","77","","","","3","","8","","16.1","","100.47","","","","-35","","Snow"
"-114.44","62.46","YELLOWKNIFE A","2204101","2022-02-11 23:00","2022","02","11","23:00","-29.2","","-32.2","","76","","","","36","","5","","24.1","","100.46","","","","-35","","Snow"
"-114.44","62.46","YELLOWKNIFE A","2204101","2022-02-12 00:00","2022","02","12","00:00","-27.6","","-30.3","","78","","","","28","","4","","24.1","","100.44","","","","-32","","NA"
"-114.44","62.46","YELLOWKNIFE A","2204101","2022-02-12 01:00","2022","02","12","01:00","-29.2","","-31.9","","78","","","","23","","5","","24.1","","100.46","","","","-35","","NA"
"-114.44","62.46","YELLOWKNIFE A","2204101","2022-02-12 02:00","2022","02","12","02:00","-29.3","","-32.0","","78","","","","25","","5","","24.1","","100.46","","","","-35","","Mostly Cloudy"
"-114.44","62.46","YELLOWKNIFE A","2204101","2022-02-12 03:00","2022","02","12","03:00","-31.2","","-34.2","","76","","","","23","","5","","24.1","","100.44","","","","-37","","NA"
"-114.44","62.46","YELLOWKNIFE A","2204101","2022-02-12 04:00","2022","02","12","04:00","-32.2","","-35.3","","75","","","","28","","6","","24.1","","100.48","","","","-39","","NA"
"-114.44","62.46","YELLOWKNIFE A","2204101","2022-02-12 05:00","2022","02","12","05:00","-34.3","","-37.6","","73","","","","33","","5","","24.1","","100.42","","","","-41","","Mainly Clear"
"-114.44","62.46","YELLOWKNIFE A","2204101","2022-02-12 06:00","2022","02","12","06:00","-35.6","","-39.0","","72","","","","1","","9","","24.1","","100.39","","","","-45","","NA"
"-114.44","62.46","YELLOWKNIFE A","2204101","2022-02-12 07:00","2022","02","12","07:00","-33.9","","-37.1","","74","","","","5","","9","","24.1","","100.37","","","","-43","","NA"
"-114.44","62.46","YELLOWKNIFE A","2204101","2022-02-12 08:00","2022","02","12","08:00","-35.9","","-39.3","","72","","","","6","","9","","24.1","","100.32","","","","-46","","Clear"
"-114.44","62.46","YELLOWKNIFE A","2204101","2022-02-12 09:00","2022","02","12","09:00","-34.0","","-37.3","","73","","","","6","","7","","24.1","","100.26","","","","-42","","NA"
"-114.44","62.46","YELLOWKNIFE A","2204101","2022-02-12 10:00","2022","02","12","10:00","-32.9","","-36.2","","73","","","","8","","6","","24.1","","100.20","","","","-40","","NA"
"-114.44","62.46","YELLOWKNIFE A","2204101","2022-02-12 11:00","2022","02","12","11:00","-31.0","","-34.3","","74","","","","4","","8","","24.1","","100.17","","","","-39","","Mainly Clear"
"-114.44","62.46","YELLOWKNIFE A","2204101","2022-02-12 12:00","2022","02","12","12:00","-29.2","","-32.4","","75","","","","4","","5","","24.1","","100.08","","","","-35","","NA"
"-114.44","62.46","YELLOWKNIFE A","2204101","2022-02-12 13:00","2022","02","12","13:00","-27.6","","-30.7","","76","","","","5","","6","","24.1","","100.03","","","","-34","","NA"
"-114.44","62.46","YELLOWKNIFE A","2204101","2022-02-12 14:00","2022","02","12","14:00","-26.2","","-29.2","","77","","","","7","","10","","24.1","","99.92","","","","-35","","Mostly Cloudy"
"-114.44","62.46","YELLOWKNIFE A","2204101","2022-02-12 15:00","2022","02","12","15:00","-25.2","","-28.1","","78","","","","7","","11","","24.1","","99.83","","","","-34","","NA"
"-114.44","62.46","YELLOWKNIFE A","2204101","2022-02-12 16:00","2022","02","12","16:00","-24.9","","-27.8","","78","","","","7","","15","","24.1","","99.72","","","","-35","","NA"
"-114.44","62.46","YELLOWKNIFE A","2204101","2022-02-12 17:00","2022","02","12","17:00","-24.9","","-27.7","","77","","","","8","","17","","24.1","","99.64","","","","-36","","Mostly Cloudy"
"-114.44","62.46","YELLOWKNIFE A","2204101","2022-02-12 18:00","2022","02","12","18:00","-25.1","","-28.0","","77","","","","7","","17","","24.1","","99.55","","","","-36","","NA"
"-114.44","62.46","YELLOWKNIFE A","2204101","2022-02-12 19:00","2022","02","12","19:00","-25.2","","-28.1","","77","","","","6","","16","","24.1","","99.49","","","","-36","","NA"
"-114.44","62.46","YELLOWKNIFE A","2204101","2022-02-12 20:00","2022","02","12","20:00","-25.3","","-28.3","","76","","","","5","","16","","24.1","","99.52","","","","-36","","Mostly Cloudy"
"-114.44","62.46","YELLOWKNIFE A","2204101","2022-02-12 21:00","2022","02","12","21:00","-25.9","","-29.0","","76","","","","5","","18","","24.1","","99.54","","","","-37","","Snow"
"-114.44","62.46","YELLOWKNIFE A","2204101","2022-02-12 22:00","2022","02","12","22:00","-26.8","","-29.9","","75","","","","4","","20","","24.1","","99.56","","","","-39","","Snow"
"-114.44","62.46","YELLOWKNIFE A","2204101","2022-02-12 23:00","2022","02","12","23:00","-28.3","","-31.5","","74","","","","3","","14","","24.1","","99.64","","","","-39","","Mainly Clear"
"-114.44","62.46","YELLOWKNIFE A","2204101","2022-02-13 00:00","2022","02","13","00:00","-29.9","","-33.2","","73","","","","2","","11","","24.1","","99.71","","","","-40","","NA"
"-114.44","62.46","YELLOWKNIFE A","2204101","2022-02-13 01:00","2022","02","13","01:00","-31.0","","-34.5","","72","","","","2","","11","","24.1","","99.81","","","","-41","","NA"
"-114.44","62.46","YELLOWKNIFE A","2204101","2022-02-13 02:00","2022","02","13","02:00","-31.8","","-35.3","","72","","","","2","","12","","24.1","","99.88","","","","-42","","Mainly Clear"
"-114.44","62.46","YELLOWKNIFE A","2204101","2022-02-13 03:00","2022","02","13","03:00","-31.5","","-35.3","","70","","","","1","","9","","24.1","","99.96","","","","-40","","NA"
"-114.44","62.46","YELLOWKNIFE A","2204101","2022-02-13 04:00","2022","02","13","04:00","-32.6","","-36.2","","71","","","","35","","8","","24.1","","100.06","","","","-41","","NA"
"-114.44","62.46","YELLOWKNIFE A","2204101","2022-02-13 05:00","2022","02","13","05:00","-33.1","","-36.7","","71","","","","2","","8","","24.1","","100.07","","","","-42","","Mostly Cloudy"
"-114.44","62.46","YELLOWKNIFE A","2204101","2022-02-13 06:00","2022","02","13","06:00","-33.4","","-37.2","","70","","","","1","","8","","24.1","","100.14","","","","-42","","NA"
"-114.44","62.46","YELLOWKNIFE A","2204101","2022-02-13 07:00","2022","02","13","07:00","-34.0","","-37.8","","70","","","","35","","6","","24.1","","100.19","","","","-41","","NA"
"-114.44","62.46","YELLOWKNIFE A","2204101","2022-02-13 08:00","2022","02","13","08:00","-32.9","","-36.7","","69","","","","31","","9","","24.1","","100.28","","","","-42","","Mostly Cloudy"
"-114.44","62.46","YELLOWKNIFE A","2204101","2022-02-13 09:00","2022","02","13","09:00","-31.5","","-35.5","","68","","","","32","","7","","24.1","","100.33","","","","-39","","NA"
"-114.44","62.46","YELLOWKNIFE A","2204101","2022-02-13 10:00","2022","02","13","10:00","-30.4","","-34.6","","67","","","","31","","5","","24.1","","100.37","","","","-36","","NA"
"-114.44","62.46","YELLOWKNIFE A","2204101","2022-02-13 11:00","2022","02","13","11:00","-29.6","","-33.9","","67","","","","1","","4","","24.1","","100.37","","","","-34","","Mostly Cloudy"
"-114.44","62.46","YELLOWKNIFE A","2204101","2022-02-13 12:00","2022","02","13","12:00","-28.6","","-33.0","","66","","","","27","","7","","24.1","","100.41","","","","-36","","NA"
"-114.44","62.46","YELLOWKNIFE A","2204101","2022-02-13 13:00","2022","02","13","13:00","-27.4","","-32.4","","63","","","","29","","8","","24.1","","100.42","","","","-35","","NA"
"-114.44","62.46","YELLOWKNIFE A","2204101","2022-02-13 14:00","2022","02","13","14:00","-26.2","","-32.0","","59","","","","33","","8","","24.1","","100.41","","","","-34","","Clear"
"-114.44","62.46","YELLOWKNIFE A","2204101","2022-02-13 15:00","2022","02","13","15:00","-26.0","","-32.1","","57","","","","34","","8","","24.1","","100.42","","","","-33","","NA"
"-114.44","62.46","YELLOWKNIFE A","2204101","2022-02-13 16:00","2022","02","13","16:00","-26.0","","-31.9","","59","","","","30","","4","","24.1","","100.39","","","","-30","","NA"
"-114.44","62.46","YELLOWKNIFE A","2204101","2022-02-13 17:00","2022","02","13","17:00","-26.6","","-31.6","","64","","","","36","","3","","24.1","","100.39","","","","-30","","Mainly Clear"
"-114.44","62.46","YELLOWKNIFE A","2204101","2022-02-13 18:00","2022","02","13","18:00","-28.1","","-31.9","","70","","","","5","","7","","24.1","","100.35","","","","-35","","NA"
"-114.44","62.46","YELLOWKNIFE A","2204101","2022-02-13 19:00","2022","02","13","19:00","-29.7","","-33.2","","72","","","","21","","8","","24.1","","100.33","","","","-38","","NA"
"-114.44","62.46","YELLOWKNIFE A","2204101","2022-02-13 20:00","2022","02","13","20:00","-31.4","","-34.8","","72","","","","18","","4","","24.1","","100.31","","","","-36","","Mainly Clear"
"-114.44","62.46","YELLOWKNIFE A","2204101","2022-02-13 21:00","2022","02","13","21:00","-32.9","","-36.2","","73","","","","11","","4","","24.1","","100.27","","","","-38","","NA"
"-114.44","62.46","YELLOWKNIFE A","2204101","2022-02-13 22:00","2022","02","13","22:00","-32.8","","-36.2","","72","","","","10","","6","","24.1","","100.27","","","","-40","","NA"
"-114.44","62.46","YELLOWKNIFE A","2204101","2022-02-13 23:00","2022","02","13","23:00","-33.3","","-36.5","","73","","","","7","","10","","24.1","","100.22","","","","-43","","Clear"
"-114.44","62.46","YELLOWKNIFE A","2204101","2022-02-14 00:00","2022","02","14","00:00","-31.9","","-34.9","","75","","","","13","","5","","24.1","","100.22","","","","-38","","NA"
"-114.44","62.46","YELLOWKNIFE A","2204101","2022-02-14 01:00","2022","02","14","01:00","-32.1","","-35.2","","74","","","","9","","8","","24.1","","100.17","","","","-40","","NA"
"-114.44","62.46","YELLOWKNIFE A","2204101","2022-02-14 02:00","2022","02","14","02:00","-32.9","","-36.1","","73","","","","7","","6","","24.1","","100.14","","","","-40","","Mostly Cloudy"
"-114.44","62.46","YELLOWKNIFE A","2204101","2022-02-14 03:00","2022","02","14","03:00","-30.9","","-34.2","","74","","","","7","","8","","24.1","","100.11","","","","-39","","NA"
"-114.44","62.46","YELLOWKNIFE A","2204101","2022-02-14 04:00","2022","02","14","04:00","-30.3","","-33.6","","74","","","","10","","12","","24.1","","100.03","","","","-41","","Snow"
"-114.44","62.46","YELLOWKNIFE A","2204101","2022-02-14 05:00","2022","02","14","05:00","-29.9","","-33.1","","74","","","","10","","8","","24.1","","99.95","","","","-38","","Snow"
"-114.44","62.46","YELLOWKNIFE A","2204101","2022-02-14 06:00","2022","02","14","06:00","-29.0","","-32.2","","75","","","","10","","11","","24.1","","99.88","","","","-38","","NA"
"-114.44","62.46","YELLOWKNIFE A","2204101","2022-02-14 07:00","2022","02","14","07:00","-28.6","","-31.8","","75","","","","7","","8","","24.1","","99.85","","","","-36","","NA"
"-114.44","62.46","YELLOWKNIFE A","2204101","2022-02-14 08:00","2022","02","14","08:00","-28.3","","-31.5","","75","","","","8","","12","","24.1","","99.79","","","","-38","","Mostly Cloudy"
"-114.44","62.46","YELLOWKNIFE A","2204101","2022-02-14 09:00","2022","02","14","09:00","-27.5","","-30.6","","75","","","","10","","11","","24.1","","99.75","","","","-37","","Snow"
"-114.44","62.46","YELLOWKNIFE A","2204101","2022-02-14 10:00","2022","02","14","10:00","-26.9","","-30.1","","75","","","","8","","11","","24.1","","99.69","","","","-36","","Snow"
"-114.44","62.46","YELLOWKNIFE A","2204101","2022-02-14 11:00","2022","02","14","11:00","-26.1","","-29.4","","74","","","","9","","12","","24.1","","99.64","","","","-35","","Snow"
"-114.44","62.46","YELLOWKNIFE A","2204101","2022-02-14 12:00","2022","02","14","12:00","-25.1","","-28.6","","73","","","","5","","9","","24.1","","99.63","","","","-33","","Snow"
"-114.44","62.46","YELLOWKNIFE A","2204101","2022-02-14 13:00","2022","02","14","13:00","-24.2","","-27.7","","74","","","","7","","12","","6.4","","99.54","","","","-33","","Snow,Fog"
"-114.44","62.46","YELLOWKNIFE A","2204101","2022-02-14 14:00","2022","02","14","14:00","-23.5","","-27.0","","74","","","","5","","8","","4.0","","99.49","","","","-30","","Snow,Fog"
"-114.44","62.46","YELLOWKNIFE A","2204101","2022-02-14 15:00","2022","02","14","15:00","-22.8","","-26.2","","74","","","","3","","8","","8.1","","99.45","","","","-30","","Snow"
"-114.44","62.46","YELLOWKNIFE A","2204101","2022-02-14 16:00","2022","02","14","16:00","-22.5","","-25.8","","75","","","","3","","8","","16.1","","99.46","","","","-29","","Snow"
"-114.44","62.46","YELLOWKNIFE A","2204101","2022-02-14 17:00","2022","02","14","17:00","-22.4","","-25.5","","76","","","","1","","10","","2.4","","99.46","","","","-30","","Snow"
"-114.44","62.46","YELLOWKNIFE A","2204101","2022-02-14 18:00","2022","02","14","18:00","-22.1","","-25.1","","77","","","","34","","8","","1.6","","99.45","","","","-29","","Snow"
"-114.44","62.46","YELLOWKNIFE A","2204101","2022-02-14 19:00","2022","02","14","19:00","-22.6","","-25.7","","77","","","","34","","12","","8.1","","99.44","","","","-31","","Snow"
"-114.44","62.46","YELLOWKNIFE A","2204101","2022-02-14 20:00","2022","02","14","20:00","-22.5","","-25.7","","76","","","","34","","14","","8.1","","99.45","","","","-32","","Snow"
"-114.44","62.46","YELLOWKNIFE A","2204101","2022-02-14 21:00","2022","02","14","21:00","-22.8","","-26.1","","75","","","","33","","17","","4.8","","99.48","","","","-33","","Snow"
"-114.44","62.46","YELLOWKNIFE A","2204101","2022-02-14 22:00","2022","02","14","22:00","-22.9","","-26.3","","74","","","","33","","26","","1.6","","99.51","","","","-36","","Snow"
"-114.44","62.46","YELLOWKNIFE A","2204101","2022-02-14 23:00","2022","02","14","23:00","-23.4","","-27.1","","72","","","","33","","27","","6.4","","99.54","","","","-36","","Snow,Blowing Snow"
"-114.44","62.46","YELLOWKNIFE A","2204101","2022-02-15 00:00","2022","02","15","00:00","-24.4","","-28.1","","72","","","","33","","25","","6.4","","99.55","","","","-37","","Snow,Blowing Snow"
"-114.44","62.46","YELLOWKNIFE A","2204101","2022-02-15 01:00","2022","02","15","01:00","-25.4","","-29.5","","70","","","","33","","28","","24.1","","99.59","","","","-39","","Snow,Blowing Snow"
"-114.44","62.46","YELLOWKNIFE A","2204101","2022-02-15 02:00","2022","02","15","02:00","-27.5","","-31.4","","70","","","","34","","25","","24.1","","99.64","","","","-41","","Snow,Blowing Snow"
"-114.44","62.46","YELLOWKNIFE A","2204101","2022-02-15 03:00","2022","02","15","03:00","-28.9","","-32.9","","69","","","","33","","17","","24.1","","99.72","","","","-41","","Snow,Blowing Snow"
"-114.44","62.46","YELLOWKNIFE A","2204101","2022-02-15 04:00","2022","02","15","04:00","-30.0","","-33.9","","70","","","","32","","21","","24.1","","99.72","","","","-43","","NA"
"-114.44","62.46","YELLOWKNIFE A","2204101","2022-02-15 05:00","2022","02","15","05:00","-30.8","","-34.8","","69","","","","33","","23","","24.1","","99.78","","","","-45","","Mainly Clear"
"-114.44","62.46","YELLOWKNIFE A","2204101","2022-02-15 06:00","2022","02","15","06:00","-31.8","","-35.8","","69","","","","33","","16","","24.1","","99.81","","","","-44","","NA"
"-114.44","62.46","YELLOWKNIFE A","2204101","2022-02-15 07:00","2022","02","15","07:00","-33.0","","-36.9","","70","","","","32","","15","","24.1","","99.86","","","","-45","","NA"
"-114.44","62.46","YELLOWKNIFE A","2204101","2022-02-15 08:00","2022","02","15","08:00","-33.9","","-37.7","","70","","","","32","","16","","24.1","","99.86","","","","-47","","Clear"
"-114.44","62.46","YELLOWKNIFE A","2204101","2022-02-15 09:00","2022","02","15","09:00","-34.2","","-38.1","","69","","","","34","","14","","24.1","","99.87","","","","-46","","NA"
"-114.44","62.46","YELLOWKNIFE A","2204101","2022-02-15 10:00","2022","02","15","10:00","-34.1","","-38.4","","67","","","","32","","14","","24.1","","99.94","","","","-46","","NA"
"-114.44","62.46","YELLOWKNIFE A","2204101","2022-02-15 11:00","2022","02","15","11:00","-32.8","","-37.3","","65","","","","33","","15","","24.1","","99.97","","","","-45","","Clear"
"-114.44","62.46","YELLOWKNIFE A","2204101","2022-02-15 12:00","2022","02","15","12:00","-31.7","","-36.6","","63","","","","32","","17","","24.1","","99.97","","","","-44","","NA"
"-114.44","62.46","YELLOWKNIFE A","2204101","2022-02-15 13:00","2022","02","15","13:00","-30.5","","-35.5","","62","","","","33","","14","","24.1","","99.99","","","","-42","","NA"
"-114.44","62.46","YELLOWKNIFE A","2204101","2022-02-15 14:00","2022","02","15","14:00","-29.4","","-34.4","","63","","","","35","","14","","24.1","","99.96","","","","-40","","Clear"
"-114.44","62.46","YELLOWKNIFE A","2204101","2022-02-15 15:00","2022","02","15","15:00","-28.6","","-33.6","","63","","","","35","","15","","24.1","","100.02","","","","-40","","NA"
"-114.44","62.46","YELLOWKNIFE A","2204101","2022-02-15 16:00","2022","02","15","16:00","-28.4","","-33.3","","64","","","","29","","12","","24.1","","100.01","","","","-38","","NA"
"-114.44","62.46","YELLOWKNIFE A","2204101","2022-02-15 17:00","2022","02","15","17:00","-29.6","","-34.3","","65","","","","31","","9","","24.1","","100.07","","","","-38","","Clear"
"-114.44","62.46","YELLOWKNIFE A","2204101","2022-02-15 18:00","2022","02","15","18:00","-31.1","","-35.0","","69","","","","30","","14","","24.1","","100.10","","","","-42","","NA"
"-114.44","62.46","YELLOWKNIFE A","2204101","2022-02-15 19:00","2022","02","15","19:00","-32.0","","-35.8","","70","","","","31","","13","","24.1","","100.12","","","","-43","","NA"
"-114.44","62.46","YELLOWKNIFE A","2204101","2022-02-15 20:00","2022","02","15","20:00","-32.7","","-36.1","","73","","","","31","","17","","24.1","","100.15","","","","-45","","Clear"
"-114.44","62.46","YELLOWKNIFE A","2204101","2022-02-15 21:00","2022","02","15","21:00","-32.5","","-35.7","","73","","","","28","","9","","24.1","","100.20","","","","-42","","NA"
"-114.44","62.46","YELLOWKNIFE A","2204101","2022-02-15 22:00","2022","02","15","22:00","-33.0","","-36.0","","75","","","","28","","8","","24.1","","100.23","","","","-41","","NA"
"-114.44","62.46","YELLOWKNIFE A","2204101","2022-02-15 23:00","2022","02","15","23:00","-34.5","","-37.6","","74","","","","29","","10","","24.1","","100.24","","","","-45","","Clear"
"-114.44","62.46","YELLOWKNIFE A","2204101","2022-02-16 00:00","2022","02","16","00:00","-34.4","","-37.5","","74","","","","30","","10","","24.1","","100.28","","","","-44","","NA"
"-114.44","62.46","YELLOWKNIFE A","2204101","2022-02-16 01:00","2022","02","16","01:00","-34.8","","-37.9","","74","","","","30","","13","","24.1","","100.28","","","","-46","","NA"
"-114.44","62.46","YELLOWKNIFE A","2204101","2022-02-16 02:00","2022","02","16","02:00","-33.6","","-36.8","","73","","","","30","","17","","24.1","","100.25","","","","-47","","Clear"
"-114.44","62.46","YELLOWKNIFE A","2204101","2022-02-16 03:00","2022","02","16","03:00","-35.3","","-38.6","","72","","","","31","","10","","24.1","","100.26","","","","-45","","NA"
"-114.44","62.46","YELLOWKNIFE A","2204101","2022-02-16 04:00","2022","02","16","04:00","-35.4","","-38.6","","73","","","","29","","14","","24.1","","100.25","","","","-48","","NA"
"-114.44","62.46","YELLOWKNIFE A","2204101","2022-02-16 05:00","2022","02","16","05:00","-36.6","","-40.0","","72","","","","28","","13","","24.1","","100.28","","","","-49","","Clear"
"-114.44","62.46","YELLOWKNIFE A","2204101","2022-02-16 06:00","2022","02","16","06:00","-36.6","","-39.9","","72","","","","30","","12","","24.1","","100.31","","","","-48","","NA"
"-114.44","62.46","YELLOWKNIFE A","2204101","2022-02-16 07:00","2022","02","16","07:00","-37.8","","-41.3","","71","","","","29","","12","","24.1","","100.34","","","","-50","","NA"
"-114.44","62.46","YELLOWKNIFE A","2204101","2022-02-16 08:00","2022","02","16","08:00","-37.7","","-41.1","","71","","","","31","","9","","24.1","","100.36","","","","-48","","Clear"
"-114.44","62.46","YELLOWKNIFE A","2204101","2022-02-16 09:00","2022","02","16","09:00","-37.2","","-40.6","","71","","","","31","","8","","24.1","","100.32","","","","-46","","NA"
"-114.44","62.46","YELLOWKNIFE A","2204101","2022-02-16 10:00","2022","02","16","10:00","-35.8","","-39.2","","72","","","","29","","7","","24.1","","100.34","","","","-44","","NA"
"-114.44","62.46","YELLOWKNIFE A","2204101","2022-02-16 11:00","2022","02","16","11:00","-33.4","","-36.9","","72","","","","24","","5","","24.1","","100.34","","","","-39","","Clear"
"-114.44","62.46","YELLOWKNIFE A","2204101","2022-02-16 12:00","2022","02","16","12:00","-32.3","","-35.9","","71","","","","36","","2","","24.1","","100.33","","","","-35","","NA"
"-114.44","62.46","YELLOWKNIFE A","2204101","2022-02-16 13:00","2022","02","16","13:00","-30.3","","-34.0","","71","","","","28","","8","","24.1","","100.26","","","","-38","","NA"
"-114.44","62.46","YELLOWKNIFE A","2204101","2022-02-16 14:00","2022","02","16","14:00","-29.4","","-33.1","","71","","","","26","","7","","24.1","","100.21","","","","-37","","Clear"
"-114.44","62.46","YELLOWKNIFE A","2204101","2022-02-16 15:00","2022","02","16","15:00","-29.2","","-33.3","","68","","","","26","","4","","24.1","","100.15","","","","-34","","NA"
"-114.44","62.46","YELLOWKNIFE A","2204101","2022-02-16 16:00","2022","02","16","16:00","-29.8","","-34.0","","68","","","","24","","9","","24.1","","100.13","","","","-38","","NA"
"-114.44","62.46","YELLOWKNIFE A","2204101","2022-02-16 17:00","2022","02","16","17:00","-30.4","","-34.2","","70","","","","18","","4","","24.1","","100.07","","","","-35","","Clear"
"-114.44","62.46","YELLOWKNIFE A","2204101","2022-02-16 18:00","2022","02","16","18:00","-33.6","","-36.9","","73","","","","15","","10","","24.1","","99.95","","","","-43","","NA"
"-114.44","62.46","YELLOWKNIFE A","2204101","2022-02-16 19:00","2022","02","16","19:00","-34.1","","-37.2","","74","","","","14","","10","","24.1","","99.83","","","","-44","","NA"
"-114.44","62.46","YELLOWKNIFE A","2204101","2022-02-16 20:00","2022","02","16","20:00","-34.6","","-37.8","","74","","","","13","","11","","24.1","","99.72","","","","-45","","Clear"
"-114.44","62.46","YELLOWKNIFE A","2204101","2022-02-16 21:00","2022","02","16","21:00","-34.7","","-37.8","","74","","","","13","","10","","24.1","","99.61","","","","-45","","NA"
"-114.44","62.46","YELLOWKNIFE A","2204101","2022-02-16 22:00","2022","02","16","22:00","-34.8","","-37.9","","74","","","","12","","10","","24.1","","99.51","","","","-45","","NA"
"-114.44","62.46","YELLOWKNIFE A","2204101","2022-02-16 23:00","2022","02","16","23:00","-35.6","","-38.8","","73","","","","10","","9","","24.1","","99.42","","","","-45","","Ice Crystals"
"-114.44","62.46","YELLOWKNIFE A","2204101","2022-02-17 00:00","2022","02","17","00:00","-35.3","","-38.5","","73","","","","8","","8","","24.1","","99.34","","","","-44","","Ice Crystals"
"-114.44","62.46","YELLOWKNIFE A","2204101","2022-02-17 01:00","2022","02","17","01:00","-35.5","","-38.7","","73","","","","6","","14","","24.1","","99.19","","","","-48","","Ice Crystals"
"-114.44","62.46","YELLOWKNIFE A","2204101","2022-02-17 02:00","2022","02","17","02:00","-34.7","","-37.9","","73","","","","6","","13","","24.1","","99.11","","","","-46","","Ice Crystals"
"-114.44","62.46","YELLOWKNIFE A","2204101","2022-02-17 03:00","2022","02","17","03:00","-33.4","","-36.5","","74","","","","7","","12","","24.1","","99.08","","","","-44","","Snow"
"-114.44","62.46","YELLOWKNIFE A","2204101","2022-02-17 04:00","2022","02","17","04:00","-32.7","","-35.9","","74","","","","5","","13","","24.1","","99.00","","","","-44","","Snow"
"-114.44","62.46","YELLOWKNIFE A","2204101","2022-02-17 05:00","2022","02","17","05:00","-31.8","","-35.0","","74","","","","5","","15","","24.1","","98.91","","","","-44","","Snow"
"-114.44","62.46","YELLOWKNIFE A","2204101","2022-02-17 06:00","2022","02","17","06:00","-31.4","","-34.6","","74","","","","6","","16","","24.1","","98.92","","","","-44","","Snow"
"-114.44","62.46","YELLOWKNIFE A","2204101","2022-02-17 07:00","2022","02","17","07:00","-30.6","","-33.9","","74","","","","5","","10","","24.1","","98.93","","","","-40","","NA"
"-114.44","62.46","YELLOWKNIFE A","2204101","2022-02-17 08:00","2022","02","17","08:00","-29.9","","-33.2","","74","","","","3","","10","","24.1","","98.98","","","","-39","","Cloudy"
"-114.44","62.46","YELLOWKNIFE A","2204101","2022-02-17 09:00","2022","02","17","09:00","-29.6","","-32.9","","74","","","","3","","11","","24.1","","99.05","","","","-39","","NA"
"-114.44","62.46","YELLOWKNIFE A","2204101","2022-02-17 10:00","2022","02","17","10:00","-28.6","","-31.9","","74","","","","2","","10","","24.1","","99.09","","","","-37","","NA"
"-114.44","62.46","YELLOWKNIFE A","2204101","2022-02-17 11:00","2022","02","17","11:00","-28.0","","-31.2","","74","","","","1","","11","","12.9","","99.12","","","","-37","","Snow"
"-114.44","62.46","YELLOWKNIFE A","2204101","2022-02-17 12:00","2022","02","17","12:00","-27.4","","-30.7","","74","","","","1","","14","","24.1","","99.17","","","","-38","","NA"
"-114.44","62.46","YELLOWKNIFE A","2204101","2022-02-17 13:00","2022","02","17","13:00","-25.7","","-29.3","","72","","","","35","","18","","24.1","","99.29","","","","-37","","NA"
"-114.44","62.46","YELLOWKNIFE A","2204101","2022-02-17 14:00","2022","02","17","14:00","-24.5","","-28.8","","68","","","","32","","16","","24.1","","99.30","","","","-35","","Mainly Clear"
"-114.44","62.46","YELLOWKNIFE A","2204101","2022-02-17 15:00","2022","02","17","15:00","-24.2","","-28.5","","69","","","","31","","20","","24.1","","99.34","","","","-36","","NA"
"-114.44","62.46","YELLOWKNIFE A","2204101","2022-02-17 16:00","2022","02","17","16:00","-25.1","","-29.0","","70","","","","32","","26","","12.9","","99.41","","","","-38","","Snow,Blowing Snow"
"-114.44","62.46","YELLOWKNIFE A","2204101","2022-02-17 17:00","2022","02","17","17:00","-26.4","","-30.4","","70","","","","29","","23","","24.1","","99.49","","","","-39","","Blowing Snow"
"-114.44","62.46","YELLOWKNIFE A","2204101","2022-02-17 18:00","2022","02","17","18:00","-26.7","","-30.4","","72","","","","30","","26","","16.1","","99.56","","","","-40","","Snow,Blowing Snow"
"-114.44","62.46","YELLOWKNIFE A","2204101","2022-02-17 19:00","2022","02","17","19:00","-26.6","","-30.1","","72","","","","29","","22","","12.9","","99.67","","","","-39","","Snow,Blowing Snow"
"-114.44","62.46","YELLOWKNIFE A","2204101","2022-02-17 20:00","2022","02","17","20:00","-26.0","","-29.4","","74","","","","29","","26","","9.7","","99.69","","","","-40","","Snow,Blowing Snow"
"-114.44","62.46","YELLOWKNIFE A","2204101","2022-02-17 21:00","2022","02","17","21:00","-26.3","","-29.7","","74","","","","30","","25","","24.1","","99.74","","","","-40","","Blowing Snow"
"-114.44","62.46","YELLOWKNIFE A","2204101","2022-02-17 22:00","2022","02","17","22:00","-26.4","","-30.1","","71","","","","30","","27","","24.1","","99.80","","","","-40","","Blowing Snow"
"-114.44","62.46","YELLOWKNIFE A","2204101","2022-02-17 23:00","2022","02","17","23:00","-27.2","","-31.2","","70","","","","29","","28","","24.1","","99.84","","","","-42","","Blowing Snow"
"-114.44","62.46","YELLOWKNIFE A","2204101","2022-02-18 00:00","2022","02","18","00:00","-28.4","","-32.2","","70","","","","30","","26","","24.1","","99.87","","","","-43","","Blowing Snow"
"-114.44","62.46","YELLOWKNIFE A","2204101","2022-02-18 01:00","2022","02","18","01:00","-29.2","","-33.2","","70","","","","30","","23","","24.1","","99.89","","","","-43","","NA"
"-114.44","62.46","YELLOWKNIFE A","2204101","2022-02-18 02:00","2022","02","18","02:00","-29.9","","-33.7","","70","","","","30","","21","","24.1","","99.89","","","","-43","","Clear"
"-114.44","62.46","YELLOWKNIFE A","2204101","2022-02-18 03:00","2022","02","18","03:00","-29.9","","-33.8","","70","","","","30","","21","","24.1","","99.96","","","","-43","","NA"
"-114.44","62.46","YELLOWKNIFE A","2204101","2022-02-18 04:00","2022","02","18","04:00","-30.6","","-34.2","","71","","","","28","","16","","24.1","","99.97","","","","-43","","NA"
"-114.44","62.46","YELLOWKNIFE A","2204101","2022-02-18 05:00","2022","02","18","05:00","-31.0","","-34.4","","73","","","","27","","13","","24.1","","99.99","","","","-42","","Clear"
"-114.44","62.46","YELLOWKNIFE A","2204101","2022-02-18 06:00","2022","02","18","06:00","-31.3","","-34.6","","74","","","","28","","13","","24.1","","99.97","","","","-42","","NA"
"-114.44","62.46","YELLOWKNIFE A","2204101","2022-02-18 07:00","2022","02","18","07:00","-31.1","","-34.3","","74","","","","30","","13","","24.1","","99.95","","","","-42","","NA"
"-114.44","62.46","YELLOWKNIFE A","2204101","2022-02-18 08:00","2022","02","18","08:00","-31.6","","-34.8","","74","","","","28","","12","","24.1","","99.93","","","","-42","","Mainly Clear"
"-114.44","62.46","YELLOWKNIFE A","2204101","2022-02-18 09:00","2022","02","18","09:00","-31.9","","-35.0","","75","","","","28","","11","","24.1","","99.90","","","","-42","","NA"
"-114.44","62.46","YELLOWKNIFE A","2204101","2022-02-18 10:00","2022","02","18","10:00","-30.4","","-33.7","","74","","","","29","","11","","24.1","","99.85","","","","-40","","NA"
"-114.44","62.46","YELLOWKNIFE A","2204101","2022-02-18 11:00","2022","02","18","11:00","-27.9","","-31.6","","71","","","","28","","9","","24.1","","99.81","","","","-36","","Mainly Clear"
"-114.44","62.46","YELLOWKNIFE A","2204101","2022-02-18 12:00","2022","02","18","12:00","-26.0","","-30.6","","66","","","","36","","2","","24.1","","99.73","","","","-28","","NA"
"-114.44","62.46","YELLOWKNIFE A","2204101","2022-02-18 13:00","2022","02","18","13:00","-26.3","","-30.9","","66","","","","12","","5","","24.1","","99.63","","","","-31","","NA"
"-114.44","62.46","YELLOWKNIFE A","2204101","2022-02-18 14:00","2022","02","18","14:00","-26.8","","-31.2","","67","","","","14","","7","","24.1","","99.52","","","","-34","","Mostly Cloudy"
"-114.44","62.46","YELLOWKNIFE A","2204101","2022-02-18 15:00","2022","02","18","15:00","-27.1","","-31.2","","69","","","","14","","7","","24.1","","99.40","","","","-34","","NA"
"-114.44","62.46","YELLOWKNIFE A","2204101","2022-02-18 16:00","2022","02","18","16:00","-28.8","","-32.4","","72","","","","16","","10","","24.1","","99.29","","","","-38","","NA"
"-114.44","62.46","YELLOWKNIFE A","2204101","2022-02-18 17:00","2022","02","18","17:00","-29.4","","-32.6","","74","","","","17","","10","","24.1","","99.19","","","","-38","","Mostly Cloudy"
"-114.44","62.46","YELLOWKNIFE A","2204101","2022-02-18 18:00","2022","02","18","18:00","-29.9","","-32.9","","76","","","","16","","10","","24.1","","99.11","","","","-39","","NA"
"-114.44","62.46","YELLOWKNIFE A","2204101","2022-02-18 19:00","2022","02","18","19:00","-29.9","","-32.9","","76","","","","11","","10","","24.1","","98.96","","","","-39","","Ice Crystals"
"-114.44","62.46","YELLOWKNIFE A","2204101","2022-02-18 20:00","2022","02","18","20:00","-29.5","","-32.6","","75","","","","8","","8","","24.1","","98.86","","","","-37","","Ice Crystals"
"-114.44","62.46","YELLOWKNIFE A","2204101","2022-02-18 21:00","2022","02","18","21:00","-29.5","","-32.6","","75","","","","6","","9","","24.1","","98.72","","","","-38","","NA"
"-114.44","62.46","YELLOWKNIFE A","2204101","2022-02-18 22:00","2022","02","18","22:00","-29.4","","-32.5","","75","","","","7","","10","","24.1","","98.67","","","","-38","","NA"
"-114.44","62.46","YELLOWKNIFE A","2204101","2022-02-18 23:00","2022","02","18","23:00","-29.3","","-32.4","","75","","","","5","","18","","24.1","","98.58","","","","-42","","Mostly Cloudy"
"-114.44","62.46","YELLOWKNIFE A","2204101","2022-02-19 00:00","2022","02","19","00:00","-29.1","","-32.2","","75","","","","5","","15","","24.1","","98.53","","","","-40","","NA"
"-114.44","62.46","YELLOWKNIFE A","2204101","2022-02-19 01:00","2022","02","19","01:00","-29.1","","-32.3","","74","","","","4","","13","","24.1","","98.54","","","","-39","","NA"
"-114.44","62.46","YELLOWKNIFE A","2204101","2022-02-19 02:00","2022","02","19","02:00","-29.4","","-32.6","","74","","","","5","","12","","24.1","","98.59","","","","-39","","Mostly Cloudy"
"-114.44","62.46","YELLOWKNIFE A","2204101","2022-02-19 03:00","2022","02","19","03:00","-30.6","","-33.8","","74","","","","3","","11","","24.1","","98.62","","","","-40","","NA"
"-114.44","62.46","YELLOWKNIFE A","2204101","2022-02-19 04:00","2022","02","19","04:00","-30.8","","-34.0","","74","","","","3","","14","","24.1","","98.63","","","","-42","","NA"
"-114.44","62.46","YELLOWKNIFE A","2204101","2022-02-19 05:00","2022","02","19","05:00","-31.3","","-34.5","","74","","","","4","","13","","24.1","","98.67","","","","-42","","Mainly Clear"
"-114.44","62.46","YELLOWKNIFE A","2204101","2022-02-19 06:00","2022","02","19","06:00","-31.4","","-34.6","","74","","","","2","","13","","24.1","","98.76","","","","-42","","NA"
"-114.44","62.46","YELLOWKNIFE A","2204101","2022-02-19 07:00","2022","02","19","07:00","-32.8","","-36.1","","73","","","","36","","11","","24.1","","98.83","","","","-43","","NA"
"-114.44","62.46","YELLOWKNIFE A","2204101","2022-02-19 08:00","2022","02","19","08:00","-34.0","","-37.3","","73","","","","34","","7","","24.1","","98.89","","","","-42","","Mainly Clear"
"-114.44","62.46","YELLOWKNIFE A","2204101","2022-02-19 09:00","2022","02","19","09:00","-33.3","","-36.8","","72","","","","32","","7","","24.1","","98.99","","","","-41","","NA"
"-114.44","62.46","YELLOWKNIFE A","2204101","2022-02-19 10:00","2022","02","19","10:00","-32.1","","-35.7","","72","","","","33","","9","","24.1","","99.07","","","","-41","","NA"
"-114.44","62.46","YELLOWKNIFE A","2204101","2022-02-19 11:00","2022","02","19","11:00","-30.4","","-34.1","","71","","","","36","","17","","24.1","","99.14","","","","-43","","Mainly Clear"
"-114.44","62.46","YELLOWKNIFE A","2204101","2022-02-19 12:00","2022","02","19","12:00","-27.9","","-32.3","","67","","","","34","","12","","24.1","","99.23","","","","-38","","NA"
"-114.44","62.46","YELLOWKNIFE A","2204101","2022-02-19 13:00","2022","02","19","13:00","-26.3","","-31.1","","65","","","","36","","8","","24.1","","99.28","","","","-34","","NA"
"-114.44","62.46","YELLOWKNIFE A","2204101","2022-02-19 14:00","2022","02","19","14:00","-25.4","","-30.5","","64","","","","34","","13","","24.1","","99.34","","","","-35","","Mainly Clear"
"-114.44","62.46","YELLOWKNIFE A","2204101","2022-02-19 15:00","2022","02","19","15:00","-25.3","","-30.3","","64","","","","34","","13","","24.1","","99.41","","","","-35","","NA"
"-114.44","62.46","YELLOWKNIFE A","2204101","2022-02-19 16:00","2022","02","19","16:00","-25.7","","-30.6","","65","","","","32","","16","","24.1","","99.48","","","","-36","","NA"
"-114.44","62.46","YELLOWKNIFE A","2204101","2022-02-19 17:00","2022","02","19","17:00","-27.1","","-31.6","","67","","","","31","","14","","24.1","","99.59","","","","-37","","Mainly Clear"
"-114.44","62.46","YELLOWKNIFE A","2204101","2022-02-19 18:00","2022","02","19","18:00","-28.8","","-32.7","","70","","","","32","","13","","24.1","","99.67","","","","-39","","NA"
"-114.44","62.46","YELLOWKNIFE A","2204101","2022-02-19 19:00","2022","02","19","19:00","-30.6","","-34.0","","73","","","","32","","13","","24.1","","99.73","","","","-41","","NA"
"-114.44","62.46","YELLOWKNIFE A","2204101","2022-02-19 20:00","2022","02","19","20:00","-31.2","","-34.4","","74","","","","32","","13","","24.1","","99.81","","","","-42","","Clear"
"-114.44","62.46","YELLOWKNIFE A","2204101","2022-02-19 21:00","2022","02","19","21:00","-32.2","","-35.3","","74","","","","34","","8","","24.1","","99.90","","","","-41","","NA"
"-114.44","62.46","YELLOWKNIFE A","2204101","2022-02-19 22:00","2022","02","19","22:00","-33.6","","-36.7","","75","","","","35","","8","","24.1","","99.98","","","","-42","","NA"
"-114.44","62.46","YELLOWKNIFE A","2204101","2022-02-19 23:00","2022","02","19","23:00","-34.0","","-37.1","","74","","","","35","","8","","24.1","","100.04","","","","-43","","Clear"
"-114.44","62.46","YELLOWKNIFE A","2204101","2022-02-20 00:00","2022","02","20","00:00","-35.6","","-38.8","","73","","","","35","","7","","24.1","","100.12","","","","-44","","NA"
"-114.44","62.46","YELLOWKNIFE A","2204101","2022-02-20 01:00","2022","02","20","01:00","-35.8","","-39.0","","73","","","","36","","9","","24.1","","100.19","","","","-45","","NA"
"-114.44","62.46","YELLOWKNIFE A","2204101","2022-02-20 02:00","2022","02","20","02:00","-36.8","","-40.2","","72","","","","32","","8","","24.1","","100.24","","","","-46","","Clear"
"-114.44","62.46","YELLOWKNIFE A","2204101","2022-02-20 03:00","2022","02","20","03:00","-36.5","","-39.8","","72","","","","34","","9","","24.1","","100.29","","","","-46","","NA"
"-114.44","62.46","YELLOWKNIFE A","2204101","2022-02-20 04:00","2022","02","20","04:00","-37.7","","-41.1","","71","","","","36","","9","","24.1","","100.29","","","","-48","","NA"
"-114.44","62.46","YELLOWKNIFE A","2204101","2022-02-20 05:00","2022","02","20","05:00","-38.0","","-41.4","","71","","","","33","","7","","24.1","","100.36","","","","-47","","Ice Crystals"
"-114.44","62.46","YELLOWKNIFE A","2204101","2022-02-20 06:00","2022","02","20","06:00","-39.2","","-42.8","","70","","","","35","","8","","9.7","","100.39","","","","-49","","Ice Crystals"
"-114.44","62.46","YELLOWKNIFE A","2204101","2022-02-20 07:00","2022","02","20","07:00","-38.9","","-42.6","","69","","","","33","","7","","16.1","","100.42","","","","-48","","NA"
"-114.44","62.46","YELLOWKNIFE A","2204101","2022-02-20 08:00","2022","02","20","08:00","-39.0","","-42.7","","69","","","","35","","6","","9.7","","100.43","","","","-47","","Fog"
"-114.44","62.46","YELLOWKNIFE A","2204101","2022-02-20 09:00","2022","02","20","09:00","-39.3","","-43.0","","69","","","","36","","1","","9.7","","100.46","","","","-41","","Fog"
"-114.44","62.46","YELLOWKNIFE A","2204101","2022-02-20 10:00","2022","02","20","10:00","-35.6","","-39.3","","70","","","","26","","5","","9.7","","100.50","","","","-42","","Fog"
"-114.44","62.46","YELLOWKNIFE A","2204101","2022-02-20 11:00","2022","02","20","11:00","-34.1","","-37.6","","72","","","","15","","3","","24.1","","100.49","","","","-38","","Mainly Clear"
"-114.44","62.46","YELLOWKNIFE A","2204101","2022-02-20 12:00","2022","02","20","12:00","-31.3","","-34.9","","71","","","","9","","4","","24.1","","100.51","","","","-36","","NA"
"-114.44","62.46","YELLOWKNIFE A","2204101","2022-02-20 13:00","2022","02","20","13:00","-30.1","","-33.7","","72","","","","13","","5","","24.1","","100.53","","","","-36","","NA"
"-114.44","62.46","YELLOWKNIFE A","2204101","2022-02-20 14:00","2022","02","20","14:00","-29.0","","-33.0","","69","","","","11","","7","","24.1","","100.54","","","","-36","","Mainly Clear"
"-114.44","62.46","YELLOWKNIFE A","2204101","2022-02-20 15:00","2022","02","20","15:00","-27.8","","-32.1","","68","","","","12","","4","","24.1","","100.55","","","","-32","","NA"
"-114.44","62.46","YELLOWKNIFE A","2204101","2022-02-20 16:00","2022","02","20","16:00","-27.2","","-31.7","","67","","","","27","","8","","24.1","","100.60","","","","-35","","NA"
"-114.44","62.46","YELLOWKNIFE A","2204101","2022-02-20 17:00","2022","02","20","17:00","-27.9","","-32.1","","68","","","","27","","7","","24.1","","100.66","","","","-35","","Mainly Clear"
"-114.44","62.46","YELLOWKNIFE A","2204101","2022-02-20 18:00","2022","02","20","18:00","-29.2","","-32.8","","72","","","","23","","6","","24.1","","100.68","","","","-36","","NA"
"-114.44","62.46","YELLOWKNIFE A","2204101","2022-02-20 19:00","2022","02","20","19:00","-31.9","","-35.1","","73","","","","28","","7","","24.1","","100.70","","","","-39","","Snow"
"-114.44","62.46","YELLOWKNIFE A","2204101","2022-02-20 20:00","2022","02","20","20:00","-31.6","","-34.6","","76","","","","28","","7","","24.1","","100.73","","","","-39","","Mainly Clear"
"-114.44","62.46","YELLOWKNIFE A","2204101","2022-02-20 21:00","2022","02","20","21:00","-32.4","","-35.2","","77","","","","27","","10","","9.7","","100.73","","","","-42","","Snow"
"-114.44","62.46","YELLOWKNIFE A","2204101","2022-02-20 22:00","2022","02","20","22:00","-32.9","","-36.0","","75","","","","29","","9","","24.1","","100.75","","","","-42","","Snow"
"-114.44","62.46","YELLOWKNIFE A","2204101","2022-02-20 23:00","2022","02","20","23:00","-32.8","","-35.7","","76","","","","30","","11","","24.1","","100.77","","","","-43","","Ice Crystals"
"-114.44","62.46","YELLOWKNIFE A","2204101","2022-02-21 00:00","2022","02","21","00:00","-32.8","","-35.6","","76","","","","31","","12","","24.1","","100.78","","","","-44","","Ice Crystals"
"-114.44","62.46","YELLOWKNIFE A","2204101","2022-02-21 01:00","2022","02","21","01:00","-33.7","","-36.6","","75","","","","31","","12","","24.1","","100.85","","","","-45","","Ice Crystals"
"-114.44","62.46","YELLOWKNIFE A","2204101","2022-02-21 02:00","2022","02","21","02:00","-34.0","","-37.1","","75","","","","30","","11","","24.1","","100.89","","","","-44","","Ice Crystals"
"-114.44","62.46","YELLOWKNIFE A","2204101","2022-02-21 03:00","2022","02","21","03:00","-35.2","","-38.4","","73","","","","28","","11","","24.1","","100.90","","","","-46","","Ice Crystals"
"-114.44","62.46","YELLOWKNIFE A","2204101","2022-02-21 04:00","2022","02","21","04:00","-35.8","","-39.0","","73","","","","29","","13","","24.1","","100.94","","","","-48","","NA"
"-114.44","62.46","YELLOWKNIFE A","2204101","2022-02-21 05:00","2022","02","21","05:00","-36.6","","-40.0","","72","","","","28","","8","","24.1","","100.93","","","","-46","","Clear"
"-114.44","62.46","YELLOWKNIFE A","2204101","2022-02-21 06:00","2022","02","21","06:00","-36.3","","-39.6","","72","","","","30","","12","","24.1","","100.98","","","","-48","","NA"
"-114.44","62.46","YELLOWKNIFE A","2204101","2022-02-21 07:00","2022","02","21","07:00","-36.6","","-40.0","","72","","","","28","","12","","24.1","","100.99","","","","-48","","NA"
"-114.44","62.46","YELLOWKNIFE A","2204101","2022-02-21 08:00","2022","02","21","08:00","-37.2","","-40.7","","71","","","","30","","14","","24.1","","101.02","","","","-50","","Mainly Clear"
"-114.44","62.46","YELLOWKNIFE A","2204101","2022-02-21 09:00","2022","02","21","09:00","-35.9","","-39.4","","72","","","","29","","11","","24.1","","101.06","","","","-47","","NA"
"-114.44","62.46","YELLOWKNIFE A","2204101","2022-02-21 10:00","2022","02","21","10:00","-32.9","","-36.2","","73","","","","31","","14","","24.1","","101.07","","","","-45","","NA"
"-114.44","62.46","YELLOWKNIFE A","2204101","2022-02-21 11:00","2022","02","21","11:00","-30.6","","-34.0","","73","","","","31","","18","","24.1","","101.08","","","","-43","","Clear"
"-114.44","62.46","YELLOWKNIFE A","2204101","2022-02-21 12:00","2022","02","21","12:00","-28.5","","-31.8","","74","","","","32","","18","","24.1","","101.11","","","","-41","","NA"
"-114.44","62.46","YELLOWKNIFE A","2204101","2022-02-21 13:00","2022","02","21","13:00","-27.6","","-31.0","","73","","","","30","","15","","24.1","","101.14","","","","-38","","NA"
"-114.44","62.46","YELLOWKNIFE A","2204101","2022-02-21 14:00","2022","02","21","14:00","-26.2","","-29.7","","73","","","","29","","18","","24.1","","101.14","","","","-38","","Clear"
"-114.44","62.46","YELLOWKNIFE A","2204101","2022-02-21 15:00","2022","02","21","15:00","-25.7","","-29.4","","72","","","","30","","18","","24.1","","101.20","","","","-37","","NA"
"-114.44","62.46","YELLOWKNIFE A","2204101","2022-02-21 16:00","2022","02","21","16:00","-25.3","","-29.5","","69","","","","31","","15","","24.1","","101.24","","","","-36","","NA"
"-114.44","62.46","YELLOWKNIFE A","2204101","2022-02-21 17:00","2022","02","21","17:00","-25.9","","-29.9","","70","","","","31","","13","","24.1","","101.28","","","","-36","","Mainly Clear"
"-114.44","62.46","YELLOWKNIFE A","2204101","2022-02-21 18:00","2022","02","21","18:00","-27.2","","-30.6","","73","","","","31","","14","","24.1","","101.29","","","","-38","","NA"
"-114.44","62.46","YELLOWKNIFE A","2204101","2022-02-21 19:00","2022","02","21","19:00","-27.6","","-30.8","","75","","","","29","","13","","24.1","","101.35","","","","-38","","NA"
"-114.44","62.46","YELLOWKNIFE A","2204101","2022-02-21 20:00","2022","02","21","20:00","-28.5","","-31.5","","76","","","","30","","11","","24.1","","101.37","","","","-38","","Mainly Clear"
"-114.44","62.46","YELLOWKNIFE A","2204101","2022-02-21 21:00","2022","02","21","21:00","-29.1","","-32.0","","76","","","","30","","12","","24.1","","101.37","","","","-39","","NA"
"-114.44","62.46","YELLOWKNIFE A","2204101","2022-02-21 22:00","2022","02","21","22:00","-30.1","","-33.0","","76","","","","29","","14","","24.1","","101.38","","","","-41","","NA"
"-114.44","62.46","YELLOWKNIFE A","2204101","2022-02-21 23:00","2022","02","21","23:00","-30.3","","-33.3","","76","","","","30","","14","","24.1","","101.39","","","","-41","","Clear"
"-114.44","62.46","YELLOWKNIFE A","2204101","2022-02-22 00:00","2022","02","22","00:00","-31.0","","-34.1","","75","","","","31","","16","","24.1","","101.42","","","","-43","","NA"
"-114.44","62.46","YELLOWKNIFE A","2204101","2022-02-22 01:00","2022","02","22","01:00","-31.4","","-34.5","","75","","","","32","","15","","24.1","","101.45","","","","-43","","NA"
"-114.44","62.46","YELLOWKNIFE A","2204101","2022-02-22 02:00","2022","02","22","02:00","-32.4","","-35.5","","75","","","","34","","10","","24.1","","101.44","","","","-42","","Clear"
"-114.44","62.46","YELLOWKNIFE A","2204101","2022-02-22 03:00","2022","02","22","03:00","-32.7","","-35.9","","74","","","","35","","8","","24.1","","101.45","","","","-41","","NA"
"-114.44","62.46","YELLOWKNIFE A","2204101","2022-02-22 04:00","2022","02","22","04:00","-31.5","","-34.6","","75","","","","34","","12","","24.1","","101.44","","","","-42","","NA"
"-114.44","62.46","YELLOWKNIFE A","2204101","2022-02-22 05:00","2022","02","22","05:00","-33.0","","-36.1","","74","","","","1","","6","","24.1","","101.40","","","","-40","","Clear"
"-114.44","62.46","YELLOWKNIFE A","2204101","2022-02-22 06:00","2022","02","22","06:00","-33.5","","-36.7","","74","","","","36","","8","","24.1","","101.37","","","","-42","","NA"
"-114.44","62.46","YELLOWKNIFE A","2204101","2022-02-22 07:00","2022","02","22","07:00","-35.1","","-38.4","","73","","","","29","","7","","24.1","","101.39","","","","-43","","NA"
"-114.44","62.46","YELLOWKNIFE A","2204101","2022-02-22 08:00","2022","02","22","08:00","-37.7","","-41.1","","71","","","","31","","9","","24.1","","101.39","","","","-48","","Clear"
"-114.44","62.46","YELLOWKNIFE A","2204101","2022-02-22 09:00","2022","02","22","09:00","-34.6","","-38.0","","72","","","","36","","4","","24.1","","101.34","","","","-40","","NA"
"-114.44","62.46","YELLOWKNIFE A","2204101","2022-02-22 10:00","2022","02","22","10:00","-33.4","","-36.8","","73","","","","11","","8","","24.1","","101.23","","","","-42","","NA"
"-114.44","62.46","YELLOWKNIFE A","2204101","2022-02-22 11:00","2022","02","22","11:00","-30.4","","-33.7","","74","","","","17","","8","","24.1","","101.20","","","","-38","","Clear"
"-114.44","62.46","YELLOWKNIFE A","2204101","2022-02-22 12:00","2022","02","22","12:00","-28.0","","-31.3","","74","","","","16","","9","","24.1","","101.19","","","","-36","","NA"
"-114.44","62.46","YELLOWKNIFE A","2204101","2022-02-22 13:00","2022","02","22","13:00","-27.1","","-30.5","","73","","","","15","","11","","24.1","","101.10","","","","-36","","NA"
"-114.44","62.46","YELLOWKNIFE A","2204101","2022-02-22 14:00","2022","02","22","14:00","-27.8","","-31.2","","73","","","","14","","11","","24.1","","100.99","","","","-37","","Clear"
"-114.44","62.46","YELLOWKNIFE A","2204101","2022-02-22 15:00","2022","02","22","15:00","-27.0","","-30.6","","72","","","","16","","16","","24.1","","100.84","","","","-38","","NA"
"-114.44","62.46","YELLOWKNIFE A","2204101","2022-02-22 16:00","2022","02","22","16:00","-27.7","","-31.0","","74","","","","15","","23","","24.1","","100.72","","","","-41","","NA"
"-114.44","62.46","YELLOWKNIFE A","2204101","2022-02-22 17:00","2022","02","22","17:00","-28.1","","-31.2","","76","","","","15","","20","","24.1","","100.64","","","","-41","","Mainly Clear"
"-114.44","62.46","YELLOWKNIFE A","2204101","2022-02-22 18:00","2022","02","22","18:00","-28.6","","-31.5","","77","","","","14","","17","","24.1","","100.50","","","","-40","","NA"
"-114.44","62.46","YELLOWKNIFE A","2204101","2022-02-22 19:00","2022","02","22","19:00","-27.3","","-30.2","","77","","","","13","","23","","24.1","","100.35","","","","-41","","NA"
"-114.44","62.46","YELLOWKNIFE A","2204101","2022-02-22 20:00","2022","02","22","20:00","-26.6","","-29.6","","77","","","","13","","21","","24.1","","100.29","","","","-39","","Mainly Clear"
"-114.44","62.46","YELLOWKNIFE A","2204101","2022-02-22 21:00","2022","02","22","21:00","-24.1","","-26.9","","78","","","","14","","26","","24.1","","100.15","","","","-37","","NA"
"-114.44","62.46","YELLOWKNIFE A","2204101","2022-02-22 22:00","2022","02","22","22:00","-22.9","","-25.7","","78","","","","14","","35","","24.1","","99.96","","","","-37","","Blowing Snow"
"-114.44","62.46","YELLOWKNIFE A","2204101","2022-02-22 23:00","2022","02","22","23:00","-22.6","","-25.6","","78","","","","14","","31","","24.1","","99.84","","","","-36","","Blowing Snow"
"-114.44","62.46","YELLOWKNIFE A","2204101","2022-02-23 00:00","2022","02","23","00:00","-22.5","","-25.5","","77","","","","14","","32","","24.1","","99.73","","","","-36","","Blowing Snow"
"-114.44","62.46","YELLOWKNIFE A","2204101","2022-02-23 01:00","2022","02","23","01:00","-23.5","","-26.5","","77","","","","12","","25","","24.1","","99.64","","","","-36","","NA"
"-114.44","62.46","YELLOWKNIFE A","2204101","2022-02-23 02:00","2022","02","23","02:00","-23.0","","-26.2","","76","","","","12","","27","","24.1","","99.50","","","","-36","","Blowing Snow"
"-114.44","62.46","YELLOWKNIFE A","2204101","2022-02-23 03:00","2022","02","23","03:00","-22.2","","-25.8","","73","","","","12","","21","","24.1","","99.46","","","","-34","","Blowing Snow"
"-114.44","62.46","YELLOWKNIFE A","2204101","2022-02-23 04:00","2022","02","23","04:00","-22.2","","-25.9","","73","","","","12","","26","","24.1","","99.34","","","","-35","","Blowing Snow"
"-114.44","62.46","YELLOWKNIFE A","2204101","2022-02-23 05:00","2022","02","23","05:00","-22.3","","-26.2","","72","","","","13","","21","","24.1","","99.29","","","","-34","","Cloudy"
"-114.44","62.46","YELLOWKNIFE A","2204101","2022-02-23 06:00","2022","02","23","06:00","-22.4","","-26.2","","72","","","","12","","22","","24.1","","99.17","","","","-34","","NA"
"-114.44","62.46","YELLOWKNIFE A","2204101","2022-02-23 07:00","2022","02","23","07:00","-22.1","","-25.6","","74","","","","11","","22","","24.1","","99.15","","","","-34","","Blowing Snow"
"-114.44","62.46","YELLOWKNIFE A","2204101","2022-02-23 08:00","2022","02","23","08:00","-21.3","","-24.8","","74","","","","12","","19","","24.1","","99.15","","","","-32","","Blowing Snow"
"-114.44","62.46","YELLOWKNIFE A","2204101","2022-02-23 09:00","2022","02","23","09:00","-20.9","","-24.4","","74","","","","12","","19","","24.1","","99.11","","","","-31","","Blowing Snow"
"-114.44","62.46","YELLOWKNIFE A","2204101","2022-02-23 10:00","2022","02","23","10:00","-20.6","","-24.1","","74","","","","10","","16","","24.1","","99.11","","","","-30","","Blowing Snow"
"-114.44","62.46","YELLOWKNIFE A","2204101","2022-02-23 11:00","2022","02","23","11:00","-19.7","","-23.4","","73","","","","8","","10","","24.1","","99.15","","","","-27","","Blowing Snow"
"-114.44","62.46","YELLOWKNIFE A","2204101","2022-02-23 12:00","2022","02","23","12:00","-19.4","","-23.1","","73","","","","7","","10","","24.1","","99.17","","","","-26","","NA"
"-114.44","62.46","YELLOWKNIFE A","2204101","2022-02-23 13:00","2022","02","23","13:00","-18.1","","-22.1","","71","","","","8","","15","","24.1","","99.18","","","","-27","","NA"
"-114.44","62.46","YELLOWKNIFE A","2204101","2022-02-23 14:00","2022","02","23","14:00","-17.4","","-21.7","","70","","","","6","","12","","24.1","","99.22","","","","-25","","Mostly Cloudy"
"-114.44","62.46","YELLOWKNIFE A","2204101","2022-02-23 15:00","2022","02","23","15:00","-16.9","","-21.3","","69","","","","7","","8","","24.1","","99.26","","","","-23","","NA"
"-114.44","62.46","YELLOWKNIFE A","2204101","2022-02-23 16:00","2022","02","23","16:00","-17.4","","-21.7","","69","","","","6","","9","","24.1","","99.33","","","","-24","","NA"
"-114.44","62.46","YELLOWKNIFE A","2204101","2022-02-23 17:00","2022","02","23","17:00","-18.3","","-22.5","","70","","","","4","","10","","24.1","","99.36","","","","-25","","Clear"
"-114.44","62.46","YELLOWKNIFE A","2204101","2022-02-23 18:00","2022","02","23","18:00","-19.1","","-22.6","","74","","","","3","","5","","24.1","","99.43","","","","-23","","NA"
"-114.44","62.46","YELLOWKNIFE A","2204101","2022-02-23 19:00","2022","02","23","19:00","-22.2","","-25.1","","78","","","","1","","7","","24.1","","99.48","","","","-28","","NA"
"-114.44","62.46","YELLOWKNIFE A","2204101","2022-02-23 20:00","2022","02","23","20:00","-23.9","","-26.4","","80","","","","34","","7","","24.1","","99.52","","","","-30","","Clear"
"-114.44","62.46","YELLOWKNIFE A","2204101","2022-02-23 21:00","2022","02","23","21:00","-23.8","","-26.2","","81","","","","5","","9","","24.1","","99.56","","","","-31","","NA"
"-114.44","62.46","YELLOWKNIFE A","2204101","2022-02-23 22:00","2022","02","23","22:00","-25.9","","-28.6","","79","","","","2","","5","","24.1","","99.53","","","","-31","","NA"
"-114.44","62.46","YELLOWKNIFE A","2204101","2022-02-23 23:00","2022","02","23","23:00","-26.3","","-28.9","","79","","","","5","","4","","24.1","","99.56","","","","-30","","Clear"
"-114.44","62.46","YELLOWKNIFE A","2204101","2022-02-24 00:00","2022","02","24","00:00","-27.4","","-30.3","","77","","","","1","","4","","24.1","","99.59","","","","-32","","NA"
"-114.44","62.46","YELLOWKNIFE A","2204101","2022-02-24 01:00","2022","02","24","01:00","-27.9","","-30.9","","76","","","","1","","4","","24.1","","99.56","","","","-32","","NA"
"-114.44","62.46","YELLOWKNIFE A","2204101","2022-02-24 02:00","2022","02","24","02:00","-26.5","","-28.9","","80","","","","13","","5","","24.1","","99.52","","","","-32","","Clear"
"-114.44","62.46","YELLOWKNIFE A","2204101","2022-02-24 03:00","2022","02","24","03:00","-27.4","","-30.4","","76","","","","18","","8","","24.1","","99.50","","","","-35","","NA"
"-114.44","62.46","YELLOWKNIFE A","2204101","2022-02-24 04:00","2022","02","24","04:00","-28.3","","-31.3","","76","","","","15","","9","","24.1","","99.52","","","","-37","","NA"
"-114.44","62.46","YELLOWKNIFE A","2204101","2022-02-24 05:00","2022","02","24","05:00","-25.4","","-27.9","","80","","","","21","","7","","24.1","","99.51","","","","-32","","Mainly Clear"
"-114.44","62.46","YELLOWKNIFE A","2204101","2022-02-24 06:00","2022","02","24","06:00","-23.9","","-26.2","","82","","","","20","","5","","24.1","","99.47","","","","-29","","NA"
"-114.44","62.46","YELLOWKNIFE A","2204101","2022-02-24 07:00","2022","02","24","07:00","-22.4","","-24.7","","82","","","","19","","10","","24.1","","99.39","","","","-30","","Snow"
"-114.44","62.46","YELLOWKNIFE A","2204101","2022-02-24 08:00","2022","02","24","08:00","-21.4","","-23.7","","82","","","","20","","14","","24.1","","99.32","","","","-30","","Snow"
"-114.44","62.46","YELLOWKNIFE A","2204101","2022-02-24 09:00","2022","02","24","09:00","-19.8","","-22.0","","82","","","","19","","11","","24.1","","99.24","","","","-27","","Snow"
"-114.44","62.46","YELLOWKNIFE A","2204101","2022-02-24 10:00","2022","02","24","10:00","-18.3","","-20.3","","85","","","","20","","13","","6.4","","99.19","","","","-26","","Snow"
"-114.44","62.46","YELLOWKNIFE A","2204101","2022-02-24 11:00","2022","02","24","11:00","-16.8","","-18.6","","86","","","","20","","12","","24.1","","99.14","","","","-24","","Snow"
"-114.44","62.46","YELLOWKNIFE A","2204101","2022-02-24 12:00","2022","02","24","12:00","-15.1","","-17.0","","86","","","","20","","10","","24.1","","99.12","","","","-21","","Snow"
"-114.44","62.46","YELLOWKNIFE A","2204101","2022-02-24 13:00","2022","02","24","13:00","-13.3","","-15.9","","81","","","","19","","7","","9.7","","99.10","","","","-18","","Snow"
"-114.44","62.46","YELLOWKNIFE A","2204101","2022-02-24 14:00","2022","02","24","14:00","-12.0","","-14.9","","79","","","","36","","3","","24.1","","99.08","","","","-14","","Snow"
"-114.44","62.46","YELLOWKNIFE A","2204101","2022-02-24 15:00","2022","02","24","15:00","-14.3","","-17.2","","79","","","","13","","6","","24.1","","99.08","","","","-18","","NA"
"-114.44","62.46","YELLOWKNIFE A","2204101","2022-02-24 16:00","2022","02","24","16:00","-14.0","","-16.8","","79","","","","16","","8","","24.1","","99.04","","","","-19","","NA"
"-114.44","62.46","YELLOWKNIFE A","2204101","2022-02-24 17:00","2022","02","24","17:00","-13.9","","-16.2","","84","","","","17","","8","","16.1","","99.02","","","","-19","","Snow"
"-114.44","62.46","YELLOWKNIFE A","2204101","2022-02-24 18:00","2022","02","24","18:00","-14.2","","-16.3","","84","","","","18","","5","","24.1","","99.00","","","","-18","","Snow"
"-114.44","62.46","YELLOWKNIFE A","2204101","2022-02-24 19:00","2022","02","24","19:00","-14.6","","-16.4","","86","","","","11","","7","","24.1","","99.01","","","","-19","","Snow"
"-114.44","62.46","YELLOWKNIFE A","2204101","2022-02-24 20:00","2022","02","24","20:00","-14.8","","-16.5","","87","","","","36","","2","","24.1","","98.96","","","","-16","","Snow"
"-114.44","62.46","YELLOWKNIFE A","2204101","2022-02-24 21:00","2022","02","24","21:00","-14.5","","-16.1","","88","","","","19","","8","","24.1","","98.92","","","","-20","","Snow"
"-114.44","62.46","YELLOWKNIFE A","2204101","2022-02-24 22:00","2022","02","24","22:00","-14.4","","-15.9","","88","","","","19","","7","","24.1","","98.89","","","","-19","","Snow"
"-114.44","62.46","YELLOWKNIFE A","2204101","2022-02-24 23:00","2022","02","24","23:00","-14.0","","-15.3","","90","","","","18","","5","","24.1","","98.83","","","","-17","","Snow"
"-114.44","62.46","YELLOWKNIFE A","2204101","2022-02-25 00:00","2022","02","25","00:00","-13.4","","-14.5","","91","","","","36","","3","","24.1","","98.77","","","","-15","","Snow"
"-114.44","62.46","YELLOWKNIFE A","2204101","2022-02-25 01:00","2022","02","25","01:00","-13.2","","-14.3","","92","","","","21","","7","","24.1","","98.70","","","","-18","","Snow"
"-114.44","62.46","YELLOWKNIFE A","2204101","2022-02-25 02:00","2022","02","25","02:00","-13.3","","-14.4","","92","","","","32","","5","","24.1","","98.68","","","","-17","","Cloudy"
"-114.44","62.46","YELLOWKNIFE A","2204101","2022-02-25 03:00","2022","02","25","03:00","-13.2","","-14.1","","93","","","","36","","4","","24.1","","98.67","","","","-16","","Snow"
"-114.44","62.46","YELLOWKNIFE A","2204101","2022-02-25 04:00","2022","02","25","04:00","-13.0","","-14.1","","92","","","","36","","2","","24.1","","98.62","","","","-14","","NA"
"-114.44","62.46","YELLOWKNIFE A","2204101","2022-02-25 05:00","2022","02","25","05:00","-13.2","","-14.3","","92","","","","32","","8","","24.1","","98.61","","","","-18","","Snow"
"-114.44","62.46","YELLOWKNIFE A","2204101","2022-02-25 06:00","2022","02","25","06:00","-12.5","","-13.5","","92","","","","32","","10","","24.1","","98.61","","","","-18","","Snow"
"-114.44","62.46","YELLOWKNIFE A","2204101","2022-02-25 07:00","2022","02","25","07:00","-11.9","","-14.7","","80","","","","33","","17","","24.1","","98.62","","","","-20","","Snow"
"-114.44","62.46","YELLOWKNIFE A","2204101","2022-02-25 08:00","2022","02","25","08:00","-12.4","","-15.9","","76","","","","33","","16","","24.1","","98.62","","","","-20","","Snow"
"-114.44","62.46","YELLOWKNIFE A","2204101","2022-02-25 09:00","2022","02","25","09:00","-12.8","","-18.4","","63","","","","32","","22","","24.1","","98.69","","","","-22","","Snow"
"-114.44","62.46","YELLOWKNIFE A","2204101","2022-02-25 10:00","2022","02","25","10:00","-14.0","","-20.3","","60","","","","32","","24","","24.1","","98.73","","","","-24","","Snow"
"-114.44","62.46","YELLOWKNIFE A","2204101","2022-02-25 11:00","2022","02","25","11:00","-14.4","","-21.2","","57","","","","32","","24","","24.1","","98.78","","","","-24","","Blowing Snow"
"-114.44","62.46","YELLOWKNIFE A","2204101","2022-02-25 12:00","2022","02","25","12:00","-14.5","","-21.8","","54","","","","32","","25","","24.1","","98.85","","","","-25","","Blowing Snow"
"-114.44","62.46","YELLOWKNIFE A","2204101","2022-02-25 13:00","2022","02","25","13:00","-15.6","","-22.1","","58","","","","32","","25","","24.1","","98.97","","","","-26","","Blowing Snow"
"-114.44","62.46","YELLOWKNIFE A","2204101","2022-02-25 14:00","2022","02","25","14:00","-15.3","","-21.4","","60","","","","32","","26","","24.1","","99.02","","","","-26","","Clear"
"-114.44","62.46","YELLOWKNIFE A","2204101","2022-02-25 15:00","2022","02","25","15:00","-15.5","","-21.4","","61","","","","32","","27","","24.1","","99.06","","","","-26","","Blowing Snow"
"-114.44","62.46","YELLOWKNIFE A","2204101","2022-02-25 16:00","2022","02","25","16:00","-16.3","","-22.3","","61","","","","31","","27","","24.1","","99.14","","","","-27","","Blowing Snow"
"-114.44","62.46","YELLOWKNIFE A","2204101","2022-02-25 17:00","2022","02","25","17:00","-16.9","","-22.6","","62","","","","32","","26","","24.1","","99.20","","","","-28","","Blowing Snow"
"-114.44","62.46","YELLOWKNIFE A","2204101","2022-02-25 18:00","2022","02","25","18:00","-19.0","","-23.8","","67","","","","32","","12","","24.1","","99.22","","","","-27","","Blowing Snow"
"-114.44","62.46","YELLOWKNIFE A","2204101","2022-02-25 19:00","2022","02","25","19:00","-20.9","","-24.6","","72","","","","31","","14","","24.1","","99.26","","","","-30","","NA"
"-114.44","62.46","YELLOWKNIFE A","2204101","2022-02-25 20:00","2022","02","25","20:00","-22.1","","-25.4","","76","","","","32","","13","","24.1","","99.29","","","","-31","","Clear"
"-114.44","62.46","YELLOWKNIFE A","2204101","2022-02-25 21:00","2022","02","25","21:00","-23.6","","-26.8","","75","","","","34","","11","","24.1","","99.30","","","","-32","","NA"
"-114.44","62.46","YELLOWKNIFE A","2204101","2022-02-25 22:00","2022","02","25","22:00","-23.3","","-26.2","","77","","","","35","","13","","24.1","","99.35","","","","-32","","NA"
"-114.44","62.46","YELLOWKNIFE A","2204101","2022-02-25 23:00","2022","02","25","23:00","-23.9","","-27.1","","75","","","","34","","15","","24.1","","99.39","","","","-34","","Clear"
"-114.44","62.46","YELLOWKNIFE A","2204101","2022-02-26 00:00","2022","02","26","00:00","-25.3","","-28.3","","77","","","","33","","10","","24.1","","99.40","","","","-34","","NA"
"-114.44","62.46","YELLOWKNIFE A","2204101","2022-02-26 01:00","2022","02","26","01:00","-26.9","","-29.5","","79","","","","32","","10","","24.1","","99.46","","","","-35","","NA"
"-114.44","62.46","YELLOWKNIFE A","2204101","2022-02-26 02:00","2022","02","26","02:00","-27.7","","-30.3","","79","","","","33","","10","","24.1","","99.54","","","","-36","","Mainly Clear"
"-114.44","62.46","YELLOWKNIFE A","2204101","2022-02-26 03:00","2022","02","26","03:00","-28.6","","-31.2","","79","","","","31","","13","","24.1","","99.58","","","","-39","","NA"
"-114.44","62.46","YELLOWKNIFE A","2204101","2022-02-26 04:00","2022","02","26","04:00","-29.1","","-32.0","","77","","","","35","","8","","24.1","","99.65","","","","-37","","NA"
"-114.44","62.46","YELLOWKNIFE A","2204101","2022-02-26 05:00","2022","02","26","05:00","-29.7","","-32.6","","76","","","","35","","13","","24.1","","99.69","","","","-40","","Clear"
"-114.44","62.46","YELLOWKNIFE A","2204101","2022-02-26 06:00","2022","02","26","06:00","-30.1","","-33.1","","75","","","","1","","10","","24.1","","99.75","","","","-39","","NA"
"-114.44","62.46","YELLOWKNIFE A","2204101","2022-02-26 07:00","2022","02","26","07:00","-30.7","","-33.9","","75","","","","34","","10","","24.1","","99.82","","","","-40","","NA"
"-114.44","62.46","YELLOWKNIFE A","2204101","2022-02-26 08:00","2022","02","26","08:00","-31.4","","-34.7","","73","","","","35","","13","","24.1","","99.86","","","","-42","","Mainly Clear"
"-114.44","62.46","YELLOWKNIFE A","2204101","2022-02-26 09:00","2022","02","26","09:00","-30.5","","-33.9","","73","","","","1","","10","","24.1","","99.93","","","","-40","","NA"
"-114.44","62.46","YELLOWKNIFE A","2204101","2022-02-26 10:00","2022","02","26","10:00","-28.5","","-32.3","","71","","","","1","","9","","24.1","","100.00","","","","-37","","NA"
"-114.44","62.46","YELLOWKNIFE A","2204101","2022-02-26 11:00","2022","02","26","11:00","-27.6","","-32.1","","66","","","","1","","14","","24.1","","100.08","","","","-38","","Clear"
"-114.44","62.46","YELLOWKNIFE A","2204101","2022-02-26 12:00","2022","02","26","12:00","-26.4","","-31.6","","62","","","","2","","13","","24.1","","100.12","","","","-36","","NA"
"-114.44","62.46","YELLOWKNIFE A","2204101","2022-02-26 13:00","2022","02","26","13:00","-25.4","","-31.0","","60","","","","36","","16","","24.1","","100.16","","","","-36","","NA"
"-114.44","62.46","YELLOWKNIFE A","2204101","2022-02-26 14:00","2022","02","26","14:00","-24.4","","-30.3","","59","","","","36","","9","","24.1","","100.20","","","","-32","","Clear"
"-114.44","62.46","YELLOWKNIFE A","2204101","2022-02-26 15:00","2022","02","26","15:00","-23.8","","-29.8","","59","","","","36","","13","","24.1","","100.23","","","","-33","","NA"
"-114.44","62.46","YELLOWKNIFE A","2204101","2022-02-26 16:00","2022","02","26","16:00","-23.7","","-29.7","","59","","","","2","","10","","24.1","","100.28","","","","-32","","NA"
"-114.44","62.46","YELLOWKNIFE A","2204101","2022-02-26 17:00","2022","02","26","17:00","-24.0","","-29.6","","61","","","","5","","11","","24.1","","100.34","","","","-32","","Clear"
"-114.44","62.46","YELLOWKNIFE A","2204101","2022-02-26 18:00","2022","02","26","18:00","-25.4","","-30.2","","65","","","","3","","10","","24.1","","100.33","","","","-34","","NA"
"-114.44","62.46","YELLOWKNIFE A","2204101","2022-02-26 19:00","2022","02","26","19:00","-26.8","","-31.1","","68","","","","3","","11","","24.1","","100.35","","","","-36","","NA"
"-114.44","62.46","YELLOWKNIFE A","2204101","2022-02-26 20:00","2022","02","26","20:00","-27.6","","-31.4","","70","","","","4","","10","","24.1","","100.36","","","","-36","","Clear"
"-114.44","62.46","YELLOWKNIFE A","2204101","2022-02-26 21:00","2022","02","26","21:00","-28.5","","-32.1","","72","","","","6","","5","","24.1","","100.37","","","","-34","","NA"
"-114.44","62.46","YELLOWKNIFE A","2204101","2022-02-26 22:00","2022","02","26","22:00","-28.6","","-32.0","","73","","","","4","","6","","24.1","","100.41","","","","-35","","NA"
"-114.44","62.46","YELLOWKNIFE A","2204101","2022-02-26 23:00","2022","02","26","23:00","-29.1","","-32.4","","74","","","","5","","4","","24.1","","100.46","","","","-34","","Clear"
"-114.44","62.46","YELLOWKNIFE A","2204101","2022-02-27 00:00","2022","02","27","00:00","-32.8","","-36.4","","71","","","","6","","5","","24.1","","100.44","","","","-39","","NA"
"-114.44","62.46","YELLOWKNIFE A","2204101","2022-02-27 01:00","2022","02","27","01:00","-34.4","","-37.7","","73","","","","2","","8","","24.1","","100.43","","","","-43","","NA"
"-114.44","62.46","YELLOWKNIFE A","2204101","2022-02-27 02:00","2022","02","27","02:00","-34.3","","-37.4","","74","","","","2","","7","","24.1","","100.41","","","","-42","","Clear"
"-114.44","62.46","YELLOWKNIFE A","2204101","2022-02-27 03:00","2022","02","27","03:00","-33.1","","-36.3","","74","","","","4","","5","","24.1","","100.42","","","","-39","","NA"
"-114.44","62.46","YELLOWKNIFE A","2204101","2022-02-27 04:00","2022","02","27","04:00","-33.8","","-37.2","","72","","","","5","","5","","24.1","","100.43","","","","-40","","NA"
"-114.44","62.46","YELLOWKNIFE A","2204101","2022-02-27 05:00","2022","02","27","05:00","-35.7","","-39.2","","71","","","","6","","7","","24.1","","100.41","","","","-44","","Clear"
"-114.44","62.46","YELLOWKNIFE A","2204101","2022-02-27 06:00","2022","02","27","06:00","-37.2","","-40.9","","69","","","","4","","9","","24.1","","100.37","","","","-47","","NA"
"-114.44","62.46","YELLOWKNIFE A","2204101","2022-02-27 07:00","2022","02","27","07:00","-36.6","","-40.0","","72","","","","6","","7","","24.1","","100.34","","","","-45","","NA"
"-114.44","62.46","YELLOWKNIFE A","2204101","2022-02-27 08:00","2022","02","27","08:00","-34.0","","-37.2","","74","","","","7","","4","","24.1","","100.31","","","","-39","","Clear"
"-114.44","62.46","YELLOWKNIFE A","2204101","2022-02-27 09:00","2022","02","27","09:00","-33.5","","-36.7","","73","","","","7","","4","","24.1","","100.30","","","","-38","","NA"
"-114.44","62.46","YELLOWKNIFE A","2204101","2022-02-27 10:00","2022","02","27","10:00","-30.7","","-34.5","","70","","","","36","","1","","24.1","","100.29","","","","-32","","NA"
"-114.44","62.46","YELLOWKNIFE A","2204101","2022-02-27 11:00","2022","02","27","11:00","-27.7","","-31.6","","70","","","","4","","5","","24.1","","100.28","","","","-33","","Clear"
"-114.44","62.46","YELLOWKNIFE A","2204101","2022-02-27 12:00","2022","02","27","12:00","-26.1","","-30.8","","65","","","","4","","6","","24.1","","100.27","","","","-32","","NA"
"-114.44","62.46","YELLOWKNIFE A","2204101","2022-02-27 13:00","2022","02","27","13:00","-24.6","","-29.9","","62","","","","4","","7","","24.1","","100.24","","","","-31","","NA"
"-114.44","62.46","YELLOWKNIFE A","2204101","2022-02-27 14:00","2022","02","27","14:00","-23.4","","-29.1","","60","","","","6","","4","","24.1","","100.16","","","","-27","","Clear"
"-114.44","62.46","YELLOWKNIFE A","2204101","2022-02-27 15:00","2022","02","27","15:00","-22.2","","-28.2","","59","","","","5","","4","","24.1","","100.14","","","","-26","","NA"
"-114.44","62.46","YELLOWKNIFE A","2204101","2022-02-27 16:00","2022","02","27","16:00","-21.7","","-27.9","","58","","","","10","","4","","24.1","","100.15","","","","-25","","NA"
"-114.44","62.46","YELLOWKNIFE A","2204101","2022-02-27 17:00","2022","02","27","17:00","-23.0","","-28.8","","59","","","","28","","7","","24.1","","100.11","","","","-29","","Clear"
"-114.44","62.46","YELLOWKNIFE A","2204101","2022-02-27 18:00","2022","02","27","18:00","-25.0","","-29.7","","65","","","","29","","5","","24.1","","100.04","","","","-30","","NA"
"-114.44","62.46","YELLOWKNIFE A","2204101","2022-02-27 19:00","2022","02","27","19:00","-27.2","","-31.0","","70","","","","32","","8","","24.1","","99.99","","","","-35","","NA"
"-114.44","62.46","YELLOWKNIFE A","2204101","2022-02-27 20:00","2022","02","27","20:00","-28.4","","-31.8","","73","","","","31","","7","","24.1","","99.99","","","","-35","","Clear"
"-114.44","62.46","YELLOWKNIFE A","2204101","2022-02-27 21:00","2022","02","27","21:00","-28.8","","-32.0","","75","","","","34","","7","","24.1","","99.97","","","","-36","","NA"
"-114.44","62.46","YELLOWKNIFE A","2204101","2022-02-27 22:00","2022","02","27","22:00","-28.9","","-31.9","","76","","","","36","","8","","24.1","","99.98","","","","-37","","NA"
"-114.44","62.46","YELLOWKNIFE A","2204101","2022-02-27 23:00","2022","02","27","23:00","-30.7","","-33.6","","76","","","","36","","7","","24.1","","100.00","","","","-38","","Clear"
"-114.44","62.46","YELLOWKNIFE A","2204101","2022-02-28 00:00","2022","02","28","00:00","-32.1","","-35.2","","74","","","","36","","7","","24.1","","99.98","","","","-40","","NA"
"-114.44","62.46","YELLOWKNIFE A","2204101","2022-02-28 01:00","2022","02","28","01:00","-32.4","","-35.4","","75","","","","1","","11","","24.1","","100.00","","","","-43","","NA"
"-114.44","62.46","YELLOWKNIFE A","2204101","2022-02-28 02:00","2022","02","28","02:00","-32.4","","-35.5","","75","","","","36","","9","","24.1","","99.95","","","","-41","","Clear"
"-114.44","62.46","YELLOWKNIFE A","2204101","2022-02-28 03:00","2022","02","28","03:00","-32.9","","-35.9","","75","","","","2","","8","","24.1","","99.92","","","","-41","","NA"
"-114.44","62.46","YELLOWKNIFE A","2204101","2022-02-28 04:00","2022","02","28","04:00","-32.2","","-35.1","","76","","","","2","","8","","24.1","","99.87","","","","-41","","NA"
"-114.44","62.46","YELLOWKNIFE A","2204101","2022-02-28 05:00","2022","02","28","05:00","-32.0","","-34.9","","76","","","","2","","10","","24.1","","99.84","","","","-42","","Clear"
"-114.44","62.46","YELLOWKNIFE A","2204101","2022-02-28 06:00","2022","02","28","06:00","-33.1","","-35.8","","77","","","","36","","8","","24.1","","99.82","","","","-42","","NA"
"-114.44","62.46","YELLOWKNIFE A","2204101","2022-02-28 07:00","2022","02","28","07:00","-31.8","","-34.5","","77","","","","34","","8","","24.1","","99.83","","","","-40","","NA"
"-114.44","62.46","YELLOWKNIFE A","2204101","2022-02-28 08:00","2022","02","28","08:00","-31.1","","-33.9","","77","","","","31","","8","","24.1","","99.78","","","","-39","","Clear"
"-114.44","62.46","YELLOWKNIFE A","2204101","2022-02-28 09:00","2022","02","28","09:00","-30.8","","-33.8","","75","","","","28","","7","","24.1","","99.78","","","","-38","","NA"
"-114.44","62.46","YELLOWKNIFE A","2204101","2022-02-28 10:00","2022","02","28","10:00","-28.6","","-31.7","","75","","","","30","","9","","24.1","","99.77","","","","-37","","NA"
"-114.44","62.46","YELLOWKNIFE A","2204101","2022-02-28 11:00","2022","02","28","11:00","-24.1","","-27.4","","75","","","","31","","12","","24.1","","99.77","","","","-33","","Mainly Clear"
"-114.44","62.46","YELLOWKNIFE A","2204101","2022-02-28 12:00","2022","02","28","12:00","-22.0","","-25.9","","72","","","","33","","14","","24.1","","99.74","","","","-31","","NA"
"-114.44","62.46","YELLOWKNIFE A","2204101","2022-02-28 13:00","2022","02","28","13:00","-19.7","","-24.8","","65","","","","30","","13","","24.1","","99.71","","","","-28","","NA"
"-114.44","62.46","YELLOWKNIFE A","2204101","2022-02-28 14:00","2022","02","28","14:00","-18.8","","-24.2","","63","","","","31","","16","","24.1","","99.67","","","","-28","","Mostly Cloudy"
"-114.44","62.46","YELLOWKNIFE A","2204101","2022-02-28 15:00","2022","02","28","15:00","-18.5","","-23.7","","64","","","","29","","12","","24.1","","99.65","","","","-26","","NA"
"-114.44","62.46","YELLOWKNIFE A","2204101","2022-02-28 16:00","2022","02","28","16:00","-18.2","","-23.4","","64","","","","34","","15","","24.1","","99.66","","","","-27","","NA"
"-114.44","62.46","YELLOWKNIFE A","2204101","2022-02-28 17:00","2022","02","28","17:00","-19.6","","-24.2","","67","","","","30","","12","","24.1","","99.64","","","","-28","","Mostly Cloudy"
"-114.44","62.46","YELLOWKNIFE A","2204101","2022-02-28 18:00","2022","02","28","18:00","-21.3","","-25.3","","70","","","","34","","12","","24.1","","99.65","","","","-30","","NA"
"-114.44","62.46","YELLOWKNIFE A","2204101","2022-02-28 19:00","2022","02","28","19:00","-23.3","","-26.8","","73","","","","35","","10","","24.1","","99.67","","","","-31","","NA"
"-114.44","62.46","YELLOWKNIFE A","2204101","2022-02-28 20:00","2022","02","28","20:00","-24.7","","-28.0","","74","","","","33","","12","","24.1","","99.65","","","","-34","","Clear"
"-114.44","62.46","YELLOWKNIFE A","2204101","2022-02-28 21:00","2022","02","28","21:00","-25.9","","-29.0","","76","","","","35","","9","","24.1","","99.66","","","","-34","","NA"
"-114.44","62.46","YELLOWKNIFE A","2204101","2022-02-28 22:00","2022","02","28","22:00","-26.4","","-29.2","","78","","","","33","","7","","24.1","","99.67","","","","-33","","NA"
"-114.44","62.46","YELLOWKNIFE A","2204101","2022-02-28 23:00","2022","02","28","23:00","-29.5","","-32.3","","77","","","","30","","9","","24.1","","99.71","","","","-38","","Clear"
