"Longitude (x)","Latitude (y)","Station Name","Climate ID","Date/Time (LST)","Year","Month","Day","Time (LST)","Temp (°C)","Temp Flag","Dew Point Temp (°C)","Dew Point Temp Flag","Rel Hum (%)","Rel Hum Flag","Precip. Amount (mm)","Precip. Amount Flag","Wind Dir (10s deg)","Wind Dir Flag","Wind Spd (km/h)","Wind Spd Flag","Visibility (km)","Visibility Flag","Stn Press (kPa)","Stn Press Flag","Hmdx","Hmdx Flag","Wind Chill","Wind Chill Flag","Weather"
"-123.44","65.21","DELINE A","2201020","2021-04-01 00:00","2021","04","01","00:00"
"-123.44","65.21","DELINE A","2201020","2021-04-01 01:00","2021","04","01","01:00"
"-123.44","65.21","DELINE A","2201020","2021-04-01 02:00","2021","04","01","02:00"
"-123.44","65.21","DELINE A","2201020","2021-04-01 03:00","2021","04","01","03:00"
"-123.44","65.21","DELINE A","2201020","2021-04-01 04:00","2021","04","01","04:00"
"-123.44","65.21","DELINE A","2201020","2021-04-01 05:00","2021","04","01","05:00"
"-123.44","65.21","DELINE A","2201020","2021-04-01 06:00","2021","04","01","06:00","-18.3","","-21.3","","78","","","","1","","9","","1.2","","97.74","","","","-25","","Snow"
"-123.44","65.21","DELINE A","2201020","2021-04-01 07:00","2021","04","01","07:00","-18.7","","-21.4","","80","","","","34","","6","","1.0","","97.74","","","","-24","","Snow"
"-123.44","65.21","DELINE A","2201020","2021-04-01 08:00","2021","04","01","08:00","-18.6","","-22.3","","73","","","","36","","9","","2.4","","97.75","","","","-25","","Snow"
"-123.44","65.21","DELINE A","2201020","2021-04-01 09:00","2021","04","01","09:00","-18.5","","-21.9","","75","","","","5","","8","","1.0","","97.77","","","","-24","","Snow"
"-123.44","65.21","DELINE A","2201020","2021-04-01 10:00","2021","04","01","10:00","-20.6","","-23.6","","77","","","","31","","18","","1.2","","97.81","","","","-31","","Snow"
"-123.44","65.21","DELINE A","2201020","2021-04-01 11:00","2021","04","01","11:00","-20.4","","-23.5","","77","","","","31","","19","","1.0","","97.84","","","","-31","","Snow"
"-123.44","65.21","DELINE A","2201020","2021-04-01 12:00","2021","04","01","12:00","-19.7","","-22.9","","76","","","","31","","15","","1.0","","97.89","","","","-29","","Snow"
"-123.44","65.21","DELINE A","2201020","2021-04-01 13:00","2021","04","01","13:00","-18.3","","-22.1","","72","","","","34","","15","","1.6","","97.91","","","","-27","","Snow"
"-123.44","65.21","DELINE A","2201020","2021-04-01 14:00","2021","04","01","14:00","-17.6","","-22.0","","69","","","","35","","14","","3.2","","97.97","","","","-26","","Snow"
"-123.44","65.21","DELINE A","2201020","2021-04-01 15:00","2021","04","01","15:00","-16.7","","-20.6","","72","","","","33","","8","","3.2","","98.01","","","","-22","","Snow"
"-123.44","65.21","DELINE A","2201020","2021-04-01 16:00","2021","04","01","16:00","-18.2","","-21.2","","78","","","","13","","9","","2.4","","98.08","","","","-25","","Snow"
"-123.44","65.21","DELINE A","2201020","2021-04-01 17:00","2021","04","01","17:00"
"-123.44","65.21","DELINE A","2201020","2021-04-01 18:00","2021","04","01","18:00"
"-123.44","65.21","DELINE A","2201020","2021-04-01 19:00","2021","04","01","19:00"
"-123.44","65.21","DELINE A","2201020","2021-04-01 20:00","2021","04","01","20:00"
"-123.44","65.21","DELINE A","2201020","2021-04-01 21:00","2021","04","01","21:00"
"-123.44","65.21","DELINE A","2201020","2021-04-01 22:00","2021","04","01","22:00"
"-123.44","65.21","DELINE A","2201020","2021-04-01 23:00","2021","04","01","23:00"
"-123.44","65.21","DELINE A","2201020","2021-04-02 00:00","2021","04","02","00:00"
"-123.44","65.21","DELINE A","2201020","2021-04-02 01:00","2021","04","02","01:00"
"-123.44","65.21","DELINE A","2201020","2021-04-02 02:00","2021","04","02","02:00"
"-123.44","65.21","DELINE A","2201020","2021-04-02 03:00","2021","04","02","03:00"
"-123.44","65.21","DELINE A","2201020","2021-04-02 04:00","2021","04","02","04:00"
"-123.44","65.21","DELINE A","2201020","2021-04-02 05:00","2021","04","02","05:00"
"-123.44","65.21","DELINE A","2201020","2021-04-02 06:00","2021","04","02","06:00"
"-123.44","65.21","DELINE A","2201020","2021-04-02 07:00","2021","04","02","07:00"
"-123.44","65.21","DELINE A","2201020","2021-04-02 08:00","2021","04","02","08:00"
"-123.44","65.21","DELINE A","2201020","2021-04-02 09:00","2021","04","02","09:00"
"-123.44","65.21","DELINE A","2201020","2021-04-02 10:00","2021","04","02","10:00"
"-123.44","65.21","DELINE A","2201020","2021-04-02 11:00","2021","04","02","11:00"
"-123.44","65.21","DELINE A","2201020","2021-04-02 12:00","2021","04","02","12:00"
"-123.44","65.21","DELINE A","2201020","2021-04-02 13:00","2021","04","02","13:00"
"-123.44","65.21","DELINE A","2201020","2021-04-02 14:00","2021","04","02","14:00"
"-123.44","65.21","DELINE A","2201020","2021-04-02 15:00","2021","04","02","15:00"
"-123.44","65.21","DELINE A","2201020","2021-04-02 16:00","2021","04","02","16:00"
"-123.44","65.21","DELINE A","2201020","2021-04-02 17:00","2021","04","02","17:00"
"-123.44","65.21","DELINE A","2201020","2021-04-02 18:00","2021","04","02","18:00"
"-123.44","65.21","DELINE A","2201020","2021-04-02 19:00","2021","04","02","19:00"
"-123.44","65.21","DELINE A","2201020","2021-04-02 20:00","2021","04","02","20:00"
"-123.44","65.21","DELINE A","2201020","2021-04-02 21:00","2021","04","02","21:00"
"-123.44","65.21","DELINE A","2201020","2021-04-02 22:00","2021","04","02","22:00"
"-123.44","65.21","DELINE A","2201020","2021-04-02 23:00","2021","04","02","23:00"
"-123.44","65.21","DELINE A","2201020","2021-04-03 00:00","2021","04","03","00:00"
"-123.44","65.21","DELINE A","2201020","2021-04-03 01:00","2021","04","03","01:00"
"-123.44","65.21","DELINE A","2201020","2021-04-03 02:00","2021","04","03","02:00"
"-123.44","65.21","DELINE A","2201020","2021-04-03 03:00","2021","04","03","03:00"
"-123.44","65.21","DELINE A","2201020","2021-04-03 04:00","2021","04","03","04:00"
"-123.44","65.21","DELINE A","2201020","2021-04-03 05:00","2021","04","03","05:00"
"-123.44","65.21","DELINE A","2201020","2021-04-03 06:00","2021","04","03","06:00","-19.8","","-23.2","","74","","","","9","","20","","64.4","","98.92","","","","-30","","NA"
"-123.44","65.21","DELINE A","2201020","2021-04-03 07:00","2021","04","03","07:00","-20.9","","-24.3","","74","","","","9","","22","","64.4","","98.92","","","","-32","","NA"
"-123.44","65.21","DELINE A","2201020","2021-04-03 08:00","2021","04","03","08:00","-20.1","","-24.1","","71","","","","8","","21","","64.4","","98.88","","","","-31","","Mainly Clear"
"-123.44","65.21","DELINE A","2201020","2021-04-03 09:00","2021","04","03","09:00","-19.6","","-24.3","","67","","","","9","","22","","64.4","","98.87","","","","-30","","NA"
"-123.44","65.21","DELINE A","2201020","2021-04-03 10:00","2021","04","03","10:00","-18.3","","-23.7","","63","","","","9","","18","","64.4","","98.86","","","","-28","","NA"
"-123.44","65.21","DELINE A","2201020","2021-04-03 11:00","2021","04","03","11:00","-17.3","","-23.1","","61","","","","8","","21","","64.4","","98.82","","","","-27","","Mostly Cloudy"
"-123.44","65.21","DELINE A","2201020","2021-04-03 12:00","2021","04","03","12:00","-16.3","","-22.2","","61","","","","8","","20","","64.4","","98.82","","","","-26","","NA"
"-123.44","65.21","DELINE A","2201020","2021-04-03 13:00","2021","04","03","13:00","-15.2","","-21.5","","59","","","","9","","21","","64.4","","98.78","","","","-25","","NA"
"-123.44","65.21","DELINE A","2201020","2021-04-03 14:00","2021","04","03","14:00","-14.1","","-20.6","","58","","","","10","","14","","64.4","","98.78","","","","-22","","Mostly Cloudy"
"-123.44","65.21","DELINE A","2201020","2021-04-03 15:00","2021","04","03","15:00","-13.2","","-20.0","","57","","","","8","","14","","64.4","","98.78","","","","-20","","NA"
"-123.44","65.21","DELINE A","2201020","2021-04-03 16:00","2021","04","03","16:00","-12.5","","-19.7","","55","","","","10","","12","","64.4","","98.78","","","","-19","","NA"
"-123.44","65.21","DELINE A","2201020","2021-04-03 17:00","2021","04","03","17:00"
"-123.44","65.21","DELINE A","2201020","2021-04-03 18:00","2021","04","03","18:00"
"-123.44","65.21","DELINE A","2201020","2021-04-03 19:00","2021","04","03","19:00"
"-123.44","65.21","DELINE A","2201020","2021-04-03 20:00","2021","04","03","20:00"
"-123.44","65.21","DELINE A","2201020","2021-04-03 21:00","2021","04","03","21:00"
"-123.44","65.21","DELINE A","2201020","2021-04-03 22:00","2021","04","03","22:00"
"-123.44","65.21","DELINE A","2201020","2021-04-03 23:00","2021","04","03","23:00"
"-123.44","65.21","DELINE A","2201020","2021-04-04 00:00","2021","04","04","00:00"
"-123.44","65.21","DELINE A","2201020","2021-04-04 01:00","2021","04","04","01:00"
"-123.44","65.21","DELINE A","2201020","2021-04-04 02:00","2021","04","04","02:00"
"-123.44","65.21","DELINE A","2201020","2021-04-04 03:00","2021","04","04","03:00"
"-123.44","65.21","DELINE A","2201020","2021-04-04 04:00","2021","04","04","04:00"
"-123.44","65.21","DELINE A","2201020","2021-04-04 05:00","2021","04","04","05:00"
"-123.44","65.21","DELINE A","2201020","2021-04-04 06:00","2021","04","04","06:00"
"-123.44","65.21","DELINE A","2201020","2021-04-04 07:00","2021","04","04","07:00"
"-123.44","65.21","DELINE A","2201020","2021-04-04 08:00","2021","04","04","08:00"
"-123.44","65.21","DELINE A","2201020","2021-04-04 09:00","2021","04","04","09:00"
"-123.44","65.21","DELINE A","2201020","2021-04-04 10:00","2021","04","04","10:00","-15.9","","-18.5","","81","","","","10","","16","","64.4","","98.54","","","","-24","","NA"
"-123.44","65.21","DELINE A","2201020","2021-04-04 11:00","2021","04","04","11:00","-15.1","","-21.3","","60","","","","17","","11","","64.4","","98.41","","","","-22","","Mainly Clear"
"-123.44","65.21","DELINE A","2201020","2021-04-04 12:00","2021","04","04","12:00","-13.7","","-18.6","","67","","","","12","","11","","64.4","","98.36","","","","-20","","NA"
"-123.44","65.21","DELINE A","2201020","2021-04-04 13:00","2021","04","04","13:00","-11.5","","-17.3","","62","","","","14","","8","","64.4","","98.27","","","","-16","","NA"
"-123.44","65.21","DELINE A","2201020","2021-04-04 14:00","2021","04","04","14:00","-10.4","","-16.1","","63","","","","14","","9","","64.4","","98.17","","","","-15","","Mostly Cloudy"
"-123.44","65.21","DELINE A","2201020","2021-04-04 15:00","2021","04","04","15:00","-10.1","","-16.1","","62","","","","13","","14","","64.4","","98.11","","","","-17","","NA"
"-123.44","65.21","DELINE A","2201020","2021-04-04 16:00","2021","04","04","16:00"
"-123.44","65.21","DELINE A","2201020","2021-04-04 17:00","2021","04","04","17:00"
"-123.44","65.21","DELINE A","2201020","2021-04-04 18:00","2021","04","04","18:00"
"-123.44","65.21","DELINE A","2201020","2021-04-04 19:00","2021","04","04","19:00"
"-123.44","65.21","DELINE A","2201020","2021-04-04 20:00","2021","04","04","20:00"
"-123.44","65.21","DELINE A","2201020","2021-04-04 21:00","2021","04","04","21:00"
"-123.44","65.21","DELINE A","2201020","2021-04-04 22:00","2021","04","04","22:00"
"-123.44","65.21","DELINE A","2201020","2021-04-04 23:00","2021","04","04","23:00"
"-123.44","65.21","DELINE A","2201020","2021-04-05 00:00","2021","04","05","00:00"
"-123.44","65.21","DELINE A","2201020","2021-04-05 01:00","2021","04","05","01:00"
"-123.44","65.21","DELINE A","2201020","2021-04-05 02:00","2021","04","05","02:00"
"-123.44","65.21","DELINE A","2201020","2021-04-05 03:00","2021","04","05","03:00"
"-123.44","65.21","DELINE A","2201020","2021-04-05 04:00","2021","04","05","04:00"
"-123.44","65.21","DELINE A","2201020","2021-04-05 05:00","2021","04","05","05:00"
"-123.44","65.21","DELINE A","2201020","2021-04-05 06:00","2021","04","05","06:00","-10.6","","-13.6","","79","","","","8","","6","","64.4","","97.69","","","","-14","","NA"
"-123.44","65.21","DELINE A","2201020","2021-04-05 07:00","2021","04","05","07:00","-10.6","","-13.8","","78","","","","36","","1","","64.4","","97.71","","","","-11","","NA"
"-123.44","65.21","DELINE A","2201020","2021-04-05 08:00","2021","04","05","08:00","-8.6","","-11.2","","82","","","","30","","18","","8.1","","97.82","","","","-16","","Snow"
"-123.44","65.21","DELINE A","2201020","2021-04-05 09:00","2021","04","05","09:00","-6.0","","-7.9","","87","","","","33","","30","","3.2","","97.84","","","","-14","","Snow"
"-123.44","65.21","DELINE A","2201020","2021-04-05 10:00","2021","04","05","10:00","-5.7","","-8.0","","84","","","","34","","25","","2.4","","97.95","","","","-13","","Snow,Blowing Snow"
"-123.44","65.21","DELINE A","2201020","2021-04-05 11:00","2021","04","05","11:00","-5.6","","-8.9","","78","","","","33","","27","","3.2","","98.12","","","","-13","","Snow,Blowing Snow"
"-123.44","65.21","DELINE A","2201020","2021-04-05 12:00","2021","04","05","12:00","-4.8","","-9.8","","68","","","","33","","30","","24.1","","98.19","","","","-13","","NA"
"-123.44","65.21","DELINE A","2201020","2021-04-05 13:00","2021","04","05","13:00","-4.6","","-10.9","","61","","","","33","","37","","24.1","","98.34","","","","-13","","NA"
"-123.44","65.21","DELINE A","2201020","2021-04-05 14:00","2021","04","05","14:00","-6.1","","-9.6","","77","","","","33","","22","","3.2","","98.46","","","","-13","","Snow,Blowing Snow"
"-123.44","65.21","DELINE A","2201020","2021-04-05 15:00","2021","04","05","15:00","-6.4","","-13.7","","56","","","","32","","28","","24.1","","98.57","","","","-15","","NA"
"-123.44","65.21","DELINE A","2201020","2021-04-05 16:00","2021","04","05","16:00","-7.1","","-16.4","","48","","","","33","","25","","32.2","","98.68","","","","-15","","NA"
"-123.44","65.21","DELINE A","2201020","2021-04-05 17:00","2021","04","05","17:00"
"-123.44","65.21","DELINE A","2201020","2021-04-05 18:00","2021","04","05","18:00"
"-123.44","65.21","DELINE A","2201020","2021-04-05 19:00","2021","04","05","19:00"
"-123.44","65.21","DELINE A","2201020","2021-04-05 20:00","2021","04","05","20:00"
"-123.44","65.21","DELINE A","2201020","2021-04-05 21:00","2021","04","05","21:00"
"-123.44","65.21","DELINE A","2201020","2021-04-05 22:00","2021","04","05","22:00"
"-123.44","65.21","DELINE A","2201020","2021-04-05 23:00","2021","04","05","23:00"
"-123.44","65.21","DELINE A","2201020","2021-04-06 00:00","2021","04","06","00:00"
"-123.44","65.21","DELINE A","2201020","2021-04-06 01:00","2021","04","06","01:00"
"-123.44","65.21","DELINE A","2201020","2021-04-06 02:00","2021","04","06","02:00"
"-123.44","65.21","DELINE A","2201020","2021-04-06 03:00","2021","04","06","03:00"
"-123.44","65.21","DELINE A","2201020","2021-04-06 04:00","2021","04","06","04:00"
"-123.44","65.21","DELINE A","2201020","2021-04-06 05:00","2021","04","06","05:00"
"-123.44","65.21","DELINE A","2201020","2021-04-06 06:00","2021","04","06","06:00","-22.9","","-25.6","","80","","","","33","","9","","16.1","","99.66","","","","-30","","NA"
"-123.44","65.21","DELINE A","2201020","2021-04-06 07:00","2021","04","06","07:00","-22.7","","-25.4","","79","","","","34","","12","","16.1","","99.68","","","","-31","","NA"
"-123.44","65.21","DELINE A","2201020","2021-04-06 08:00","2021","04","06","08:00","-20.9","","-24.2","","75","","","","33","","7","","24.1","","99.71","","","","-27","","Mostly Cloudy"
"-123.44","65.21","DELINE A","2201020","2021-04-06 09:00","2021","04","06","09:00","-18.8","","-23.7","","66","","","","31","","8","","24.1","","99.71","","","","-25","","NA"
"-123.44","65.21","DELINE A","2201020","2021-04-06 10:00","2021","04","06","10:00","-17.7","","-23.9","","59","","","","28","","6","","24.1","","99.71","","","","-22","","NA"
"-123.44","65.21","DELINE A","2201020","2021-04-06 11:00","2021","04","06","11:00","-16.6","","-23.3","","57","","","","27","","8","","32.2","","99.72","","","","-22","","Mainly Clear"
"-123.44","65.21","DELINE A","2201020","2021-04-06 12:00","2021","04","06","12:00","-15.9","","-23.3","","54","","","","29","","14","","32.2","","99.68","","","","-24","","NA"
"-123.44","65.21","DELINE A","2201020","2021-04-06 13:00","2021","04","06","13:00","-14.7","","-23.1","","50","","","","28","","16","","32.2","","99.66","","","","-23","","NA"
"-123.44","65.21","DELINE A","2201020","2021-04-06 14:00","2021","04","06","14:00","-13.9","","-22.9","","48","","","","29","","10","","32.2","","99.63","","","","-20","","Mostly Cloudy"
"-123.44","65.21","DELINE A","2201020","2021-04-06 15:00","2021","04","06","15:00","-14.6","","-21.4","","57","","","","13","","15","","48.3","","99.62","","","","-22","","NA"
"-123.44","65.21","DELINE A","2201020","2021-04-06 16:00","2021","04","06","16:00","-15.4","","-21.7","","59","","","","11","","10","","48.3","","99.60","","","","-22","","NA"
"-123.44","65.21","DELINE A","2201020","2021-04-06 17:00","2021","04","06","17:00"
"-123.44","65.21","DELINE A","2201020","2021-04-06 18:00","2021","04","06","18:00"
"-123.44","65.21","DELINE A","2201020","2021-04-06 19:00","2021","04","06","19:00"
"-123.44","65.21","DELINE A","2201020","2021-04-06 20:00","2021","04","06","20:00"
"-123.44","65.21","DELINE A","2201020","2021-04-06 21:00","2021","04","06","21:00"
"-123.44","65.21","DELINE A","2201020","2021-04-06 22:00","2021","04","06","22:00"
"-123.44","65.21","DELINE A","2201020","2021-04-06 23:00","2021","04","06","23:00"
"-123.44","65.21","DELINE A","2201020","2021-04-07 00:00","2021","04","07","00:00"
"-123.44","65.21","DELINE A","2201020","2021-04-07 01:00","2021","04","07","01:00"
"-123.44","65.21","DELINE A","2201020","2021-04-07 02:00","2021","04","07","02:00"
"-123.44","65.21","DELINE A","2201020","2021-04-07 03:00","2021","04","07","03:00"
"-123.44","65.21","DELINE A","2201020","2021-04-07 04:00","2021","04","07","04:00"
"-123.44","65.21","DELINE A","2201020","2021-04-07 05:00","2021","04","07","05:00"
"-123.44","65.21","DELINE A","2201020","2021-04-07 06:00","2021","04","07","06:00","-22.8","","-25.2","","81","","","","0","","1","","3.2","","99.63","","","","-24","","Snow"
"-123.44","65.21","DELINE A","2201020","2021-04-07 07:00","2021","04","07","07:00","-22.6","","-25.0","","81","","","","14","","3","","2.4","","99.64","","","","-25","","Snow"
"-123.44","65.21","DELINE A","2201020","2021-04-07 08:00","2021","04","07","08:00","-21.4","","-24.0","","80","","","","10","","4","","1.6","","99.66","","","","-25","","Snow"
"-123.44","65.21","DELINE A","2201020","2021-04-07 09:00","2021","04","07","09:00","-21.1","","-24.2","","77","","","","17","","4","","4.8","","99.67","","","","-25","","Snow"
"-123.44","65.21","DELINE A","2201020","2021-04-07 10:00","2021","04","07","10:00","-19.4","","-22.8","","75","","","","36","","1","","4.8","","99.65","","","","-20","","Snow"
"-123.44","65.21","DELINE A","2201020","2021-04-07 11:00","2021","04","07","11:00","-18.1","","-21.8","","74","","","","18","","7","","6.4","","99.61","","","","-23","","Snow"
"-123.44","65.21","DELINE A","2201020","2021-04-07 12:00","2021","04","07","12:00","-16.7","","-20.6","","72","","","","16","","4","","6.4","","99.59","","","","-20","","Snow"
"-123.44","65.21","DELINE A","2201020","2021-04-07 13:00","2021","04","07","13:00","-15.8","","-20.2","","69","","","","10","","8","","11.3","","99.57","","","","-21","","NA"
"-123.44","65.21","DELINE A","2201020","2021-04-07 14:00","2021","04","07","14:00","-14.0","","-20.8","","57","","","","36","","13","","24.1","","99.54","","","","-21","","Mostly Cloudy"
"-123.44","65.21","DELINE A","2201020","2021-04-07 15:00","2021","04","07","15:00","-13.7","","-20.7","","56","","","","32","","17","","32.2","","99.51","","","","-22","","NA"
"-123.44","65.21","DELINE A","2201020","2021-04-07 16:00","2021","04","07","16:00","-13.5","","-21.0","","54","","","","35","","12","","48.3","","99.50","","","","-20","","NA"
"-123.44","65.21","DELINE A","2201020","2021-04-07 17:00","2021","04","07","17:00"
"-123.44","65.21","DELINE A","2201020","2021-04-07 18:00","2021","04","07","18:00"
"-123.44","65.21","DELINE A","2201020","2021-04-07 19:00","2021","04","07","19:00"
"-123.44","65.21","DELINE A","2201020","2021-04-07 20:00","2021","04","07","20:00"
"-123.44","65.21","DELINE A","2201020","2021-04-07 21:00","2021","04","07","21:00"
"-123.44","65.21","DELINE A","2201020","2021-04-07 22:00","2021","04","07","22:00"
"-123.44","65.21","DELINE A","2201020","2021-04-07 23:00","2021","04","07","23:00"
"-123.44","65.21","DELINE A","2201020","2021-04-08 00:00","2021","04","08","00:00"
"-123.44","65.21","DELINE A","2201020","2021-04-08 01:00","2021","04","08","01:00"
"-123.44","65.21","DELINE A","2201020","2021-04-08 02:00","2021","04","08","02:00"
"-123.44","65.21","DELINE A","2201020","2021-04-08 03:00","2021","04","08","03:00"
"-123.44","65.21","DELINE A","2201020","2021-04-08 04:00","2021","04","08","04:00"
"-123.44","65.21","DELINE A","2201020","2021-04-08 05:00","2021","04","08","05:00"
"-123.44","65.21","DELINE A","2201020","2021-04-08 06:00","2021","04","08","06:00","-28.5","","-31.1","","79","","","","34","","16","","48.3","","99.11","","","","-40","","NA"
"-123.44","65.21","DELINE A","2201020","2021-04-08 07:00","2021","04","08","07:00","-27.5","","-30.1","","79","","","","34","","12","","80.5","","99.09","","","","-37","","NA"
"-123.44","65.21","DELINE A","2201020","2021-04-08 08:00","2021","04","08","08:00","-18.8","","-22.1","","75","","","","1","","7","","80.5","","99.05","","","","-24","","Clear"
"-123.44","65.21","DELINE A","2201020","2021-04-08 09:00","2021","04","08","09:00","-16.2","","-23.9","","52","","","","36","","1","","80.5","","98.99","","","","-17","","NA"
"-123.44","65.21","DELINE A","2201020","2021-04-08 10:00","2021","04","08","10:00","-19.2","","-25.2","","60","","","","12","","14","","64.4","","98.99","","","","-28","","NA"
"-123.44","65.21","DELINE A","2201020","2021-04-08 11:00","2021","04","08","11:00","-18.3","","-23.9","","62","","","","10","","8","","64.4","","98.96","","","","-24","","Clear"
"-123.44","65.21","DELINE A","2201020","2021-04-08 12:00","2021","04","08","12:00","-17.2","","-24.1","","56","","","","9","","12","","64.4","","98.90","","","","-25","","NA"
"-123.44","65.21","DELINE A","2201020","2021-04-08 13:00","2021","04","08","13:00","-18.0","","-24.1","","59","","","","13","","15","","64.4","","98.88","","","","-27","","NA"
"-123.44","65.21","DELINE A","2201020","2021-04-08 14:00","2021","04","08","14:00","-17.5","","-24.4","","56","","","","11","","19","","64.4","","98.83","","","","-27","","Mainly Clear"
"-123.44","65.21","DELINE A","2201020","2021-04-08 15:00","2021","04","08","15:00","-16.9","","-24.5","","52","","","","10","","17","","64.4","","98.80","","","","-26","","NA"
"-123.44","65.21","DELINE A","2201020","2021-04-08 16:00","2021","04","08","16:00","-18.6","","-23.8","","64","","","","13","","17","","64.4","","98.77","","","","-28","","NA"
"-123.44","65.21","DELINE A","2201020","2021-04-08 17:00","2021","04","08","17:00"
"-123.44","65.21","DELINE A","2201020","2021-04-08 18:00","2021","04","08","18:00"
"-123.44","65.21","DELINE A","2201020","2021-04-08 19:00","2021","04","08","19:00"
"-123.44","65.21","DELINE A","2201020","2021-04-08 20:00","2021","04","08","20:00"
"-123.44","65.21","DELINE A","2201020","2021-04-08 21:00","2021","04","08","21:00"
"-123.44","65.21","DELINE A","2201020","2021-04-08 22:00","2021","04","08","22:00"
"-123.44","65.21","DELINE A","2201020","2021-04-08 23:00","2021","04","08","23:00"
"-123.44","65.21","DELINE A","2201020","2021-04-09 00:00","2021","04","09","00:00"
"-123.44","65.21","DELINE A","2201020","2021-04-09 01:00","2021","04","09","01:00"
"-123.44","65.21","DELINE A","2201020","2021-04-09 02:00","2021","04","09","02:00"
"-123.44","65.21","DELINE A","2201020","2021-04-09 03:00","2021","04","09","03:00"
"-123.44","65.21","DELINE A","2201020","2021-04-09 04:00","2021","04","09","04:00"
"-123.44","65.21","DELINE A","2201020","2021-04-09 05:00","2021","04","09","05:00"
"-123.44","65.21","DELINE A","2201020","2021-04-09 06:00","2021","04","09","06:00","-24.4","","-27.4","","76","","","","34","","6","","48.3","","99.02","","","","-30","","NA"
"-123.44","65.21","DELINE A","2201020","2021-04-09 07:00","2021","04","09","07:00","-24.3","","-27.4","","76","","","","33","","8","","48.3","","99.11","","","","-31","","NA"
"-123.44","65.21","DELINE A","2201020","2021-04-09 08:00","2021","04","09","08:00","-21.0","","-25.4","","68","","","","25","","5","","48.3","","99.20","","","","-25","","Mostly Cloudy"
"-123.44","65.21","DELINE A","2201020","2021-04-09 09:00","2021","04","09","09:00","-19.6","","-25.0","","63","","","","25","","6","","48.3","","99.24","","","","-25","","NA"
"-123.44","65.21","DELINE A","2201020","2021-04-09 10:00","2021","04","09","10:00","-20.5","","-25.6","","64","","","","19","","11","","48.3","","99.32","","","","-28","","NA"
"-123.44","65.21","DELINE A","2201020","2021-04-09 11:00","2021","04","09","11:00","-19.4","","-25.4","","60","","","","21","","12","","48.3","","99.38","","","","-27","","Mostly Cloudy"
"-123.44","65.21","DELINE A","2201020","2021-04-09 12:00","2021","04","09","12:00","-18.9","","-24.5","","62","","","","18","","13","","48.3","","99.44","","","","-27","","NA"
"-123.44","65.21","DELINE A","2201020","2021-04-09 13:00","2021","04","09","13:00","-16.9","","-23.8","","56","","","","17","","8","","48.3","","99.44","","","","-23","","NA"
"-123.44","65.21","DELINE A","2201020","2021-04-09 14:00","2021","04","09","14:00","-18.3","","-23.3","","66","","","","13","","18","","48.3","","99.55","","","","-28","","Mostly Cloudy"
"-123.44","65.21","DELINE A","2201020","2021-04-09 15:00","2021","04","09","15:00","-18.8","","-23.5","","67","","","","11","","11","","48.3","","99.60","","","","-26","","NA"
"-123.44","65.21","DELINE A","2201020","2021-04-09 16:00","2021","04","09","16:00","-18.6","","-23.2","","67","","","","14","","9","","48.3","","99.67","","","","-25","","NA"
"-123.44","65.21","DELINE A","2201020","2021-04-09 17:00","2021","04","09","17:00"
"-123.44","65.21","DELINE A","2201020","2021-04-09 18:00","2021","04","09","18:00"
"-123.44","65.21","DELINE A","2201020","2021-04-09 19:00","2021","04","09","19:00"
"-123.44","65.21","DELINE A","2201020","2021-04-09 20:00","2021","04","09","20:00"
"-123.44","65.21","DELINE A","2201020","2021-04-09 21:00","2021","04","09","21:00"
"-123.44","65.21","DELINE A","2201020","2021-04-09 22:00","2021","04","09","22:00"
"-123.44","65.21","DELINE A","2201020","2021-04-09 23:00","2021","04","09","23:00"
"-123.44","65.21","DELINE A","2201020","2021-04-10 00:00","2021","04","10","00:00"
"-123.44","65.21","DELINE A","2201020","2021-04-10 01:00","2021","04","10","01:00"
"-123.44","65.21","DELINE A","2201020","2021-04-10 02:00","2021","04","10","02:00"
"-123.44","65.21","DELINE A","2201020","2021-04-10 03:00","2021","04","10","03:00"
"-123.44","65.21","DELINE A","2201020","2021-04-10 04:00","2021","04","10","04:00"
"-123.44","65.21","DELINE A","2201020","2021-04-10 05:00","2021","04","10","05:00"
"-123.44","65.21","DELINE A","2201020","2021-04-10 06:00","2021","04","10","06:00","-23.7","","-26.2","","80","","","","11","","7","","24.1","","100.32","","","","-30","","Snow"
"-123.44","65.21","DELINE A","2201020","2021-04-10 07:00","2021","04","10","07:00","-23.3","","-25.9","","79","","","","18","","6","","32.2","","100.35","","","","-29","","Snow"
"-123.44","65.21","DELINE A","2201020","2021-04-10 08:00","2021","04","10","08:00","-23.2","","-26.6","","74","","","","14","","8","","24.1","","100.37","","","","-30","","Snow"
"-123.44","65.21","DELINE A","2201020","2021-04-10 09:00","2021","04","10","09:00","-22.9","","-26.5","","73","","","","13","","7","","11.3","","100.38","","","","-29","","Snow"
"-123.44","65.21","DELINE A","2201020","2021-04-10 10:00","2021","04","10","10:00","-22.3","","-26.2","","71","","","","14","","5","","24.1","","100.36","","","","-27","","Snow"
"-123.44","65.21","DELINE A","2201020","2021-04-10 11:00","2021","04","10","11:00","-21.3","","-25.8","","67","","","","36","","2","","24.1","","100.34","","","","-23","","Snow"
"-123.44","65.21","DELINE A","2201020","2021-04-10 12:00","2021","04","10","12:00","-20.8","","-25.7","","66","","","","12","","8","","32.2","","100.33","","","","-27","","Snow"
"-123.44","65.21","DELINE A","2201020","2021-04-10 13:00","2021","04","10","13:00","-20.9","","-25.8","","65","","","","14","","9","","32.2","","100.31","","","","-28","","NA"
"-123.44","65.21","DELINE A","2201020","2021-04-10 14:00","2021","04","10","14:00","-20.6","","-25.4","","66","","","","13","","10","","32.2","","100.28","","","","-28","","Mostly Cloudy"
"-123.44","65.21","DELINE A","2201020","2021-04-10 15:00","2021","04","10","15:00","-19.6","","-24.0","","69","","","","10","","7","","24.1","","100.24","","","","-25","","NA"
"-123.44","65.21","DELINE A","2201020","2021-04-10 16:00","2021","04","10","16:00","-19.5","","-24.1","","67","","","","13","","9","","24.1","","100.23","","","","-26","","NA"
"-123.44","65.21","DELINE A","2201020","2021-04-10 17:00","2021","04","10","17:00"
"-123.44","65.21","DELINE A","2201020","2021-04-10 18:00","2021","04","10","18:00"
"-123.44","65.21","DELINE A","2201020","2021-04-10 19:00","2021","04","10","19:00"
"-123.44","65.21","DELINE A","2201020","2021-04-10 20:00","2021","04","10","20:00"
"-123.44","65.21","DELINE A","2201020","2021-04-10 21:00","2021","04","10","21:00"
"-123.44","65.21","DELINE A","2201020","2021-04-10 22:00","2021","04","10","22:00"
"-123.44","65.21","DELINE A","2201020","2021-04-10 23:00","2021","04","10","23:00"
"-123.44","65.21","DELINE A","2201020","2021-04-11 00:00","2021","04","11","00:00"
"-123.44","65.21","DELINE A","2201020","2021-04-11 01:00","2021","04","11","01:00"
"-123.44","65.21","DELINE A","2201020","2021-04-11 02:00","2021","04","11","02:00"
"-123.44","65.21","DELINE A","2201020","2021-04-11 03:00","2021","04","11","03:00"
"-123.44","65.21","DELINE A","2201020","2021-04-11 04:00","2021","04","11","04:00"
"-123.44","65.21","DELINE A","2201020","2021-04-11 05:00","2021","04","11","05:00"
"-123.44","65.21","DELINE A","2201020","2021-04-11 06:00","2021","04","11","06:00"
"-123.44","65.21","DELINE A","2201020","2021-04-11 07:00","2021","04","11","07:00"
"-123.44","65.21","DELINE A","2201020","2021-04-11 08:00","2021","04","11","08:00"
"-123.44","65.21","DELINE A","2201020","2021-04-11 09:00","2021","04","11","09:00"
"-123.44","65.21","DELINE A","2201020","2021-04-11 10:00","2021","04","11","10:00","-20.1","","-24.3","","69","","","","28","","12","","64.4","","100.59","","","","-28","","NA"
"-123.44","65.21","DELINE A","2201020","2021-04-11 11:00","2021","04","11","11:00","-18.5","","-23.7","","64","","","","27","","13","","64.4","","100.58","","","","-27","","Clear"
"-123.44","65.21","DELINE A","2201020","2021-04-11 12:00","2021","04","11","12:00","-17.5","","-23.7","","59","","","","25","","13","","64.4","","100.57","","","","-25","","NA"
"-123.44","65.21","DELINE A","2201020","2021-04-11 13:00","2021","04","11","13:00","-16.5","","-23.3","","56","","","","21","","10","","64.4","","100.55","","","","-23","","NA"
"-123.44","65.21","DELINE A","2201020","2021-04-11 14:00","2021","04","11","14:00","-16.2","","-24.9","","48","","","","16","","9","","64.4","","100.53","","","","-22","","Clear"
"-123.44","65.21","DELINE A","2201020","2021-04-11 15:00","2021","04","11","15:00","-15.5","","-23.9","","50","","","","18","","10","","64.4","","100.51","","","","-22","","NA"
"-123.44","65.21","DELINE A","2201020","2021-04-11 16:00","2021","04","11","16:00"
"-123.44","65.21","DELINE A","2201020","2021-04-11 17:00","2021","04","11","17:00"
"-123.44","65.21","DELINE A","2201020","2021-04-11 18:00","2021","04","11","18:00"
"-123.44","65.21","DELINE A","2201020","2021-04-11 19:00","2021","04","11","19:00"
"-123.44","65.21","DELINE A","2201020","2021-04-11 20:00","2021","04","11","20:00"
"-123.44","65.21","DELINE A","2201020","2021-04-11 21:00","2021","04","11","21:00"
"-123.44","65.21","DELINE A","2201020","2021-04-11 22:00","2021","04","11","22:00"
"-123.44","65.21","DELINE A","2201020","2021-04-11 23:00","2021","04","11","23:00"
"-123.44","65.21","DELINE A","2201020","2021-04-12 00:00","2021","04","12","00:00"
"-123.44","65.21","DELINE A","2201020","2021-04-12 01:00","2021","04","12","01:00"
"-123.44","65.21","DELINE A","2201020","2021-04-12 02:00","2021","04","12","02:00"
"-123.44","65.21","DELINE A","2201020","2021-04-12 03:00","2021","04","12","03:00"
"-123.44","65.21","DELINE A","2201020","2021-04-12 04:00","2021","04","12","04:00"
"-123.44","65.21","DELINE A","2201020","2021-04-12 05:00","2021","04","12","05:00"
"-123.44","65.21","DELINE A","2201020","2021-04-12 06:00","2021","04","12","06:00","-16.5","","-23.3","","56","","","","10","","15","","64.4","","99.73","","","","-25","","NA"
"-123.44","65.21","DELINE A","2201020","2021-04-12 07:00","2021","04","12","07:00","-15.6","","-22.7","","55","","","","10","","18","","64.4","","99.63","","","","-24","","NA"
"-123.44","65.21","DELINE A","2201020","2021-04-12 08:00","2021","04","12","08:00","-14.4","","-22.4","","51","","","","10","","15","","64.4","","99.65","","","","-22","","Mostly Cloudy"
"-123.44","65.21","DELINE A","2201020","2021-04-12 09:00","2021","04","12","09:00","-13.1","","-21.9","","48","","","","11","","15","","64.4","","99.62","","","","-21","","NA"
"-123.44","65.21","DELINE A","2201020","2021-04-12 10:00","2021","04","12","10:00","-11.9","","-21.5","","45","","","","9","","17","","64.4","","99.60","","","","-20","","NA"
"-123.44","65.21","DELINE A","2201020","2021-04-12 11:00","2021","04","12","11:00","-11.1","","-21.1","","44","","","","11","","13","","64.4","","99.56","","","","-18","","Mostly Cloudy"
"-123.44","65.21","DELINE A","2201020","2021-04-12 12:00","2021","04","12","12:00","-9.6","","-20.2","","42","","","","9","","15","","64.4","","99.51","","","","-16","","NA"
"-123.44","65.21","DELINE A","2201020","2021-04-12 13:00","2021","04","12","13:00","-9.3","","-19.6","","44","","","","10","","11","","64.4","","99.50","","","","-15","","NA"
"-123.44","65.21","DELINE A","2201020","2021-04-12 14:00","2021","04","12","14:00","-8.0","","-19.0","","41","","","","13","","11","","64.4","","99.46","","","","-13","","Mostly Cloudy"
"-123.44","65.21","DELINE A","2201020","2021-04-12 15:00","2021","04","12","15:00","-6.6","","-18.6","","38","","","","9","","14","","64.4","","99.43","","","","-12","","NA"
"-123.44","65.21","DELINE A","2201020","2021-04-12 16:00","2021","04","12","16:00","-5.7","","-17.4","","40","","","","12","","10","","64.4","","99.43","","","","-10","","NA"
"-123.44","65.21","DELINE A","2201020","2021-04-12 17:00","2021","04","12","17:00"
"-123.44","65.21","DELINE A","2201020","2021-04-12 18:00","2021","04","12","18:00"
"-123.44","65.21","DELINE A","2201020","2021-04-12 19:00","2021","04","12","19:00"
"-123.44","65.21","DELINE A","2201020","2021-04-12 20:00","2021","04","12","20:00"
"-123.44","65.21","DELINE A","2201020","2021-04-12 21:00","2021","04","12","21:00"
"-123.44","65.21","DELINE A","2201020","2021-04-12 22:00","2021","04","12","22:00"
"-123.44","65.21","DELINE A","2201020","2021-04-12 23:00","2021","04","12","23:00"
"-123.44","65.21","DELINE A","2201020","2021-04-13 00:00","2021","04","13","00:00"
"-123.44","65.21","DELINE A","2201020","2021-04-13 01:00","2021","04","13","01:00"
"-123.44","65.21","DELINE A","2201020","2021-04-13 02:00","2021","04","13","02:00"
"-123.44","65.21","DELINE A","2201020","2021-04-13 03:00","2021","04","13","03:00"
"-123.44","65.21","DELINE A","2201020","2021-04-13 04:00","2021","04","13","04:00"
"-123.44","65.21","DELINE A","2201020","2021-04-13 05:00","2021","04","13","05:00"
"-123.44","65.21","DELINE A","2201020","2021-04-13 06:00","2021","04","13","06:00","-14.3","","-18.5","","71","","","","10","","8","","64.4","","99.62","","","","-20","","NA"
"-123.44","65.21","DELINE A","2201020","2021-04-13 07:00","2021","04","13","07:00","-13.3","","-18.4","","66","","","","12","","5","","80.5","","99.65","","","","-17","","NA"
"-123.44","65.21","DELINE A","2201020","2021-04-13 08:00","2021","04","13","08:00","-10.8","","-16.9","","61","","","","9","","4","","80.5","","99.67","","","","-13","","Mainly Clear"
"-123.44","65.21","DELINE A","2201020","2021-04-13 09:00","2021","04","13","09:00","-8.7","","-16.2","","55","","","","14","","6","","80.5","","99.66","","","","-12","","NA"
"-123.44","65.21","DELINE A","2201020","2021-04-13 10:00","2021","04","13","10:00","-8.1","","-15.1","","57","","","","15","","7","","80.5","","99.66","","","","-12","","NA"
"-123.44","65.21","DELINE A","2201020","2021-04-13 11:00","2021","04","13","11:00","-7.0","","-14.4","","56","","","","16","","9","","80.5","","99.66","","","","-11","","Mainly Clear"
"-123.44","65.21","DELINE A","2201020","2021-04-13 12:00","2021","04","13","12:00","-7.5","","-13.9","","60","","","","14","","8","","80.5","","99.67","","","","-12","","NA"
"-123.44","65.21","DELINE A","2201020","2021-04-13 13:00","2021","04","13","13:00","-6.3","","-12.4","","63","","","","13","","14","","80.5","","99.67","","","","-12","","NA"
"-123.44","65.21","DELINE A","2201020","2021-04-13 14:00","2021","04","13","14:00","-3.6","","-11.4","","55","","","","13","","14","","80.5","","99.66","","","","-9","","Mainly Clear"
"-123.44","65.21","DELINE A","2201020","2021-04-13 15:00","2021","04","13","15:00","-1.8","","-13.3","","41","","","","10","","20","","80.5","","99.66","","","","-8","","NA"
"-123.44","65.21","DELINE A","2201020","2021-04-13 16:00","2021","04","13","16:00","-3.9","","-11.2","","57","","","","15","","14","","80.5","","99.69","","","","-9","","NA"
"-123.44","65.21","DELINE A","2201020","2021-04-13 17:00","2021","04","13","17:00"
"-123.44","65.21","DELINE A","2201020","2021-04-13 18:00","2021","04","13","18:00"
"-123.44","65.21","DELINE A","2201020","2021-04-13 19:00","2021","04","13","19:00"
"-123.44","65.21","DELINE A","2201020","2021-04-13 20:00","2021","04","13","20:00"
"-123.44","65.21","DELINE A","2201020","2021-04-13 21:00","2021","04","13","21:00"
"-123.44","65.21","DELINE A","2201020","2021-04-13 22:00","2021","04","13","22:00"
"-123.44","65.21","DELINE A","2201020","2021-04-13 23:00","2021","04","13","23:00"
"-123.44","65.21","DELINE A","2201020","2021-04-14 00:00","2021","04","14","00:00"
"-123.44","65.21","DELINE A","2201020","2021-04-14 01:00","2021","04","14","01:00"
"-123.44","65.21","DELINE A","2201020","2021-04-14 02:00","2021","04","14","02:00"
"-123.44","65.21","DELINE A","2201020","2021-04-14 03:00","2021","04","14","03:00"
"-123.44","65.21","DELINE A","2201020","2021-04-14 04:00","2021","04","14","04:00"
"-123.44","65.21","DELINE A","2201020","2021-04-14 05:00","2021","04","14","05:00"
"-123.44","65.21","DELINE A","2201020","2021-04-14 06:00","2021","04","14","06:00","-15.4","","-17.0","","88","","","","35","","3","","64.4","","100.01","","","","-18","","NA"
"-123.44","65.21","DELINE A","2201020","2021-04-14 07:00","2021","04","14","07:00","-14.7","","-16.7","","84","","","","27","","4","","80.5","","100.04","","","","-18","","NA"
"-123.44","65.21","DELINE A","2201020","2021-04-14 08:00","2021","04","14","08:00","-11.0","","-15.6","","69","","","","16","","4","","80.5","","100.04","","","","-13","","Clear"
"-123.44","65.21","DELINE A","2201020","2021-04-14 09:00","2021","04","14","09:00","-9.3","","-15.9","","59","","","","17","","7","","80.5","","100.07","","","","-13","","NA"
"-123.44","65.21","DELINE A","2201020","2021-04-14 10:00","2021","04","14","10:00","-8.3","","-15.7","","56","","","","17","","8","","80.5","","100.02","","","","-12","","NA"
"-123.44","65.21","DELINE A","2201020","2021-04-14 11:00","2021","04","14","11:00","-4.6","","-13.5","","50","","","","13","","9","","80.5","","99.97","","","","-8","","Clear"
"-123.44","65.21","DELINE A","2201020","2021-04-14 12:00","2021","04","14","12:00","-5.6","","-12.3","","60","","","","12","","15","","80.5","","99.95","","","","-11","","NA"
"-123.44","65.21","DELINE A","2201020","2021-04-14 13:00","2021","04","14","13:00","-2.5","","-10.7","","53","","","","13","","16","","80.5","","99.90","","","","-8","","NA"
"-123.44","65.21","DELINE A","2201020","2021-04-14 14:00","2021","04","14","14:00","0.5","","-9.5","","47","","","","12","","15","","80.5","","99.88","","","","","","Mainly Clear"
"-123.44","65.21","DELINE A","2201020","2021-04-14 15:00","2021","04","14","15:00","1.6","","-7.9","","49","","","","13","","11","","80.5","","99.79","","","","","","NA"
"-123.44","65.21","DELINE A","2201020","2021-04-14 16:00","2021","04","14","16:00","4.1","","-7.3","","43","","","","13","","12","","80.5","","99.69","","","","","","NA"
"-123.44","65.21","DELINE A","2201020","2021-04-14 17:00","2021","04","14","17:00"
"-123.44","65.21","DELINE A","2201020","2021-04-14 18:00","2021","04","14","18:00"
"-123.44","65.21","DELINE A","2201020","2021-04-14 19:00","2021","04","14","19:00"
"-123.44","65.21","DELINE A","2201020","2021-04-14 20:00","2021","04","14","20:00"
"-123.44","65.21","DELINE A","2201020","2021-04-14 21:00","2021","04","14","21:00"
"-123.44","65.21","DELINE A","2201020","2021-04-14 22:00","2021","04","14","22:00"
"-123.44","65.21","DELINE A","2201020","2021-04-14 23:00","2021","04","14","23:00"
"-123.44","65.21","DELINE A","2201020","2021-04-15 00:00","2021","04","15","00:00"
"-123.44","65.21","DELINE A","2201020","2021-04-15 01:00","2021","04","15","01:00"
"-123.44","65.21","DELINE A","2201020","2021-04-15 02:00","2021","04","15","02:00"
"-123.44","65.21","DELINE A","2201020","2021-04-15 03:00","2021","04","15","03:00"
"-123.44","65.21","DELINE A","2201020","2021-04-15 04:00","2021","04","15","04:00"
"-123.44","65.21","DELINE A","2201020","2021-04-15 05:00","2021","04","15","05:00"
"-123.44","65.21","DELINE A","2201020","2021-04-15 06:00","2021","04","15","06:00","-4.8","","-7.8","","80","","","","36","","1","","80.5","","99.41","","","","-5","","NA"
"-123.44","65.21","DELINE A","2201020","2021-04-15 07:00","2021","04","15","07:00","-3.8","","-6.9","","79","","","","36","","1","","80.5","","99.45","","","","-4","","NA"
"-123.44","65.21","DELINE A","2201020","2021-04-15 08:00","2021","04","15","08:00","-2.2","","-6.3","","73","","","","36","","1","","80.5","","99.50","","","","-3","","Mainly Clear"
"-123.44","65.21","DELINE A","2201020","2021-04-15 09:00","2021","04","15","09:00","2.0","","-5.2","","59","","","","8","","3","","80.5","","99.53","","","","","","NA"
"-123.44","65.21","DELINE A","2201020","2021-04-15 10:00","2021","04","15","10:00","3.8","","-4.8","","53","","","","36","","1","","80.5","","99.55","","","","","","NA"
"-123.44","65.21","DELINE A","2201020","2021-04-15 11:00","2021","04","15","11:00","5.2","","-4.3","","50","","","","36","","1","","80.5","","99.56","","","","","","Mainly Clear"
"-123.44","65.21","DELINE A","2201020","2021-04-15 12:00","2021","04","15","12:00","8.2","","-3.6","","43","","","","21","","4","","80.5","","99.57","","","","","","NA"
"-123.44","65.21","DELINE A","2201020","2021-04-15 13:00","2021","04","15","13:00","9.2","","-3.5","","41","","","","21","","5","","80.5","","99.60","","","","","","NA"
"-123.44","65.21","DELINE A","2201020","2021-04-15 14:00","2021","04","15","14:00","10.3","","-3.3","","38","","","","22","","8","","80.5","","99.64","","","","","","Clear"
"-123.44","65.21","DELINE A","2201020","2021-04-15 15:00","2021","04","15","15:00","12.0","","-2.7","","36","","","","21","","8","","80.5","","99.68","","","","","","NA"
"-123.44","65.21","DELINE A","2201020","2021-04-15 16:00","2021","04","15","16:00","9.7","","-2.1","","44","","","","21","","8","","80.5","","99.72","","","","","","NA"
"-123.44","65.21","DELINE A","2201020","2021-04-15 17:00","2021","04","15","17:00"
"-123.44","65.21","DELINE A","2201020","2021-04-15 18:00","2021","04","15","18:00"
"-123.44","65.21","DELINE A","2201020","2021-04-15 19:00","2021","04","15","19:00"
"-123.44","65.21","DELINE A","2201020","2021-04-15 20:00","2021","04","15","20:00"
"-123.44","65.21","DELINE A","2201020","2021-04-15 21:00","2021","04","15","21:00"
"-123.44","65.21","DELINE A","2201020","2021-04-15 22:00","2021","04","15","22:00"
"-123.44","65.21","DELINE A","2201020","2021-04-15 23:00","2021","04","15","23:00"
"-123.44","65.21","DELINE A","2201020","2021-04-16 00:00","2021","04","16","00:00"
"-123.44","65.21","DELINE A","2201020","2021-04-16 01:00","2021","04","16","01:00"
"-123.44","65.21","DELINE A","2201020","2021-04-16 02:00","2021","04","16","02:00"
"-123.44","65.21","DELINE A","2201020","2021-04-16 03:00","2021","04","16","03:00"
"-123.44","65.21","DELINE A","2201020","2021-04-16 04:00","2021","04","16","04:00"
"-123.44","65.21","DELINE A","2201020","2021-04-16 05:00","2021","04","16","05:00"
"-123.44","65.21","DELINE A","2201020","2021-04-16 06:00","2021","04","16","06:00","-0.4","","-5.0","","71","","","","33","","15","","64.4","","100.37","","","","-5","","NA"
"-123.44","65.21","DELINE A","2201020","2021-04-16 07:00","2021","04","16","07:00","0.1","","-4.5","","71","","","","33","","12","","64.4","","100.40","","","","","","NA"
"-123.44","65.21","DELINE A","2201020","2021-04-16 08:00","2021","04","16","08:00","2.5","","-3.7","","64","","","","33","","9","","80.5","","100.42","","","","","","Mainly Clear"
"-123.44","65.21","DELINE A","2201020","2021-04-16 09:00","2021","04","16","09:00","4.8","","-3.0","","57","","","","29","","8","","80.5","","100.45","","","","","","NA"
"-123.44","65.21","DELINE A","2201020","2021-04-16 10:00","2021","04","16","10:00","1.7","","-4.0","","66","","","","10","","20","","80.5","","100.50","","","","","","NA"
"-123.44","65.21","DELINE A","2201020","2021-04-16 11:00","2021","04","16","11:00","0.9","","-4.2","","69","","","","13","","10","","80.5","","100.52","","","","","","Mainly Clear"
"-123.44","65.21","DELINE A","2201020","2021-04-16 12:00","2021","04","16","12:00","2.0","","-3.5","","67","","","","13","","14","","80.5","","100.53","","","","","","NA"
"-123.44","65.21","DELINE A","2201020","2021-04-16 13:00","2021","04","16","13:00","1.2","","-3.4","","72","","","","13","","14","","80.5","","100.55","","","","","","NA"
"-123.44","65.21","DELINE A","2201020","2021-04-16 14:00","2021","04","16","14:00","0.8","","-3.5","","73","","","","13","","10","","80.5","","100.55","","","","","","Mainly Clear"
"-123.44","65.21","DELINE A","2201020","2021-04-16 15:00","2021","04","16","15:00","0.8","","-3.3","","74","","","","14","","11","","80.5","","100.55","","","","","","NA"
"-123.44","65.21","DELINE A","2201020","2021-04-16 16:00","2021","04","16","16:00","0.8","","-3.1","","75","","","","13","","9","","80.5","","100.54","","","","","","NA"
"-123.44","65.21","DELINE A","2201020","2021-04-16 17:00","2021","04","16","17:00"
"-123.44","65.21","DELINE A","2201020","2021-04-16 18:00","2021","04","16","18:00"
"-123.44","65.21","DELINE A","2201020","2021-04-16 19:00","2021","04","16","19:00"
"-123.44","65.21","DELINE A","2201020","2021-04-16 20:00","2021","04","16","20:00"
"-123.44","65.21","DELINE A","2201020","2021-04-16 21:00","2021","04","16","21:00"
"-123.44","65.21","DELINE A","2201020","2021-04-16 22:00","2021","04","16","22:00"
"-123.44","65.21","DELINE A","2201020","2021-04-16 23:00","2021","04","16","23:00"
"-123.44","65.21","DELINE A","2201020","2021-04-17 00:00","2021","04","17","00:00"
"-123.44","65.21","DELINE A","2201020","2021-04-17 01:00","2021","04","17","01:00"
"-123.44","65.21","DELINE A","2201020","2021-04-17 02:00","2021","04","17","02:00"
"-123.44","65.21","DELINE A","2201020","2021-04-17 03:00","2021","04","17","03:00"
"-123.44","65.21","DELINE A","2201020","2021-04-17 04:00","2021","04","17","04:00"
"-123.44","65.21","DELINE A","2201020","2021-04-17 05:00","2021","04","17","05:00"
"-123.44","65.21","DELINE A","2201020","2021-04-17 06:00","2021","04","17","06:00","-2.5","","-4.2","","88","","","","34","","16","","64.4","","100.72","","","","-8","","NA"
"-123.44","65.21","DELINE A","2201020","2021-04-17 07:00","2021","04","17","07:00","-0.7","","-3.5","","82","","","","33","","13","","64.4","","100.75","","","","-5","","NA"
"-123.44","65.21","DELINE A","2201020","2021-04-17 08:00","2021","04","17","08:00","0.0","","-3.2","","79","","","","30","","18","","64.4","","100.78","","","","-5","","Mainly Clear"
"-123.44","65.21","DELINE A","2201020","2021-04-17 09:00","2021","04","17","09:00","2.2","","-2.6","","70","","","","32","","14","","64.4","","100.83","","","","","","NA"
"-123.44","65.21","DELINE A","2201020","2021-04-17 10:00","2021","04","17","10:00","4.0","","-2.5","","63","","","","32","","14","","64.4","","100.85","","","","","","NA"
"-123.44","65.21","DELINE A","2201020","2021-04-17 11:00","2021","04","17","11:00","4.0","","-2.4","","63","","","","29","","12","","64.4","","100.88","","","","","","Mostly Cloudy"
"-123.44","65.21","DELINE A","2201020","2021-04-17 12:00","2021","04","17","12:00","5.1","","-2.6","","57","","","","27","","10","","64.4","","100.89","","","","","","NA"
"-123.44","65.21","DELINE A","2201020","2021-04-17 13:00","2021","04","17","13:00","6.6","","-3.2","","50","","","","31","","13","","64.4","","100.91","","","","","","NA"
"-123.44","65.21","DELINE A","2201020","2021-04-17 14:00","2021","04","17","14:00","6.9","","-3.4","","48","","","","24","","14","","64.4","","100.92","","","","","","Mostly Cloudy"
"-123.44","65.21","DELINE A","2201020","2021-04-17 15:00","2021","04","17","15:00","7.3","","-3.6","","46","","","","27","","8","","64.4","","100.92","","","","","","NA"
"-123.44","65.21","DELINE A","2201020","2021-04-17 16:00","2021","04","17","16:00","8.0","","-3.5","","44","","","","29","","13","","64.4","","100.93","","","","","","NA"
"-123.44","65.21","DELINE A","2201020","2021-04-17 17:00","2021","04","17","17:00"
"-123.44","65.21","DELINE A","2201020","2021-04-17 18:00","2021","04","17","18:00"
"-123.44","65.21","DELINE A","2201020","2021-04-17 19:00","2021","04","17","19:00"
"-123.44","65.21","DELINE A","2201020","2021-04-17 20:00","2021","04","17","20:00"
"-123.44","65.21","DELINE A","2201020","2021-04-17 21:00","2021","04","17","21:00"
"-123.44","65.21","DELINE A","2201020","2021-04-17 22:00","2021","04","17","22:00"
"-123.44","65.21","DELINE A","2201020","2021-04-17 23:00","2021","04","17","23:00"
"-123.44","65.21","DELINE A","2201020","2021-04-18 00:00","2021","04","18","00:00"
"-123.44","65.21","DELINE A","2201020","2021-04-18 01:00","2021","04","18","01:00"
"-123.44","65.21","DELINE A","2201020","2021-04-18 02:00","2021","04","18","02:00"
"-123.44","65.21","DELINE A","2201020","2021-04-18 03:00","2021","04","18","03:00"
"-123.44","65.21","DELINE A","2201020","2021-04-18 04:00","2021","04","18","04:00"
"-123.44","65.21","DELINE A","2201020","2021-04-18 05:00","2021","04","18","05:00"
"-123.44","65.21","DELINE A","2201020","2021-04-18 06:00","2021","04","18","06:00"
"-123.44","65.21","DELINE A","2201020","2021-04-18 07:00","2021","04","18","07:00"
"-123.44","65.21","DELINE A","2201020","2021-04-18 08:00","2021","04","18","08:00"
"-123.44","65.21","DELINE A","2201020","2021-04-18 09:00","2021","04","18","09:00"
"-123.44","65.21","DELINE A","2201020","2021-04-18 10:00","2021","04","18","10:00","3.8","","-4.0","","57","","","","29","","17","","64.4","","101.06","","","","","","NA"
"-123.44","65.21","DELINE A","2201020","2021-04-18 11:00","2021","04","18","11:00","5.2","","-4.3","","50","","","","29","","17","","64.4","","101.06","","","","","","Clear"
"-123.44","65.21","DELINE A","2201020","2021-04-18 12:00","2021","04","18","12:00","5.6","","-4.3","","49","","","","30","","18","","64.4","","101.06","","","","","","NA"
"-123.44","65.21","DELINE A","2201020","2021-04-18 13:00","2021","04","18","13:00","6.8","","-4.6","","44","","","","34","","12","","64.4","","101.04","","","","","","NA"
"-123.44","65.21","DELINE A","2201020","2021-04-18 14:00","2021","04","18","14:00","7.3","","-4.3","","44","","","","33","","11","","64.4","","101.04","","","","","","Clear"
"-123.44","65.21","DELINE A","2201020","2021-04-18 15:00","2021","04","18","15:00","7.5","","-3.6","","45","","","","34","","7","","64.4","","101.01","","","","","","NA"
"-123.44","65.21","DELINE A","2201020","2021-04-18 16:00","2021","04","18","16:00"
"-123.44","65.21","DELINE A","2201020","2021-04-18 17:00","2021","04","18","17:00"
"-123.44","65.21","DELINE A","2201020","2021-04-18 18:00","2021","04","18","18:00"
"-123.44","65.21","DELINE A","2201020","2021-04-18 19:00","2021","04","18","19:00"
"-123.44","65.21","DELINE A","2201020","2021-04-18 20:00","2021","04","18","20:00"
"-123.44","65.21","DELINE A","2201020","2021-04-18 21:00","2021","04","18","21:00"
"-123.44","65.21","DELINE A","2201020","2021-04-18 22:00","2021","04","18","22:00"
"-123.44","65.21","DELINE A","2201020","2021-04-18 23:00","2021","04","18","23:00"
"-123.44","65.21","DELINE A","2201020","2021-04-19 00:00","2021","04","19","00:00"
"-123.44","65.21","DELINE A","2201020","2021-04-19 01:00","2021","04","19","01:00"
"-123.44","65.21","DELINE A","2201020","2021-04-19 02:00","2021","04","19","02:00"
"-123.44","65.21","DELINE A","2201020","2021-04-19 03:00","2021","04","19","03:00"
"-123.44","65.21","DELINE A","2201020","2021-04-19 04:00","2021","04","19","04:00"
"-123.44","65.21","DELINE A","2201020","2021-04-19 05:00","2021","04","19","05:00"
"-123.44","65.21","DELINE A","2201020","2021-04-19 06:00","2021","04","19","06:00","-3.0","","-5.5","","83","","","","9","","20","","64.4","","100.46","","","","-9","","NA"
"-123.44","65.21","DELINE A","2201020","2021-04-19 07:00","2021","04","19","07:00","-1.7","","-5.2","","77","","","","8","","20","","64.4","","100.38","","","","-7","","NA"
"-123.44","65.21","DELINE A","2201020","2021-04-19 08:00","2021","04","19","08:00","-0.1","","-4.9","","70","","","","10","","14","","64.4","","100.31","","","","-4","","Clear"
"-123.44","65.21","DELINE A","2201020","2021-04-19 09:00","2021","04","19","09:00","1.7","","-4.7","","62","","","","11","","12","","64.4","","100.22","","","","","","NA"
"-123.44","65.21","DELINE A","2201020","2021-04-19 10:00","2021","04","19","10:00","2.6","","-5.0","","57","","","","11","","18","","64.4","","100.17","","","","","","NA"
"-123.44","65.21","DELINE A","2201020","2021-04-19 11:00","2021","04","19","11:00","3.7","","-4.5","","55","","","","11","","13","","64.4","","100.08","","","","","","Clear"
"-123.44","65.21","DELINE A","2201020","2021-04-19 12:00","2021","04","19","12:00","5.0","","-4.4","","51","","","","11","","13","","64.4","","100.01","","","","","","NA"
"-123.44","65.21","DELINE A","2201020","2021-04-19 13:00","2021","04","19","13:00","5.8","","-4.4","","48","","","","13","","15","","64.4","","99.91","","","","","","NA"
"-123.44","65.21","DELINE A","2201020","2021-04-19 14:00","2021","04","19","14:00","7.0","","-3.9","","46","","","","13","","12","","64.4","","99.84","","","","","","Clear"
"-123.44","65.21","DELINE A","2201020","2021-04-19 15:00","2021","04","19","15:00","7.4","","-3.6","","46","","","","13","","13","","64.4","","99.76","","","","","","NA"
"-123.44","65.21","DELINE A","2201020","2021-04-19 16:00","2021","04","19","16:00","7.9","","-3.8","","44","","","","12","","13","","64.4","","99.67","","","","","","NA"
"-123.44","65.21","DELINE A","2201020","2021-04-19 17:00","2021","04","19","17:00"
"-123.44","65.21","DELINE A","2201020","2021-04-19 18:00","2021","04","19","18:00"
"-123.44","65.21","DELINE A","2201020","2021-04-19 19:00","2021","04","19","19:00"
"-123.44","65.21","DELINE A","2201020","2021-04-19 20:00","2021","04","19","20:00"
"-123.44","65.21","DELINE A","2201020","2021-04-19 21:00","2021","04","19","21:00"
"-123.44","65.21","DELINE A","2201020","2021-04-19 22:00","2021","04","19","22:00"
"-123.44","65.21","DELINE A","2201020","2021-04-19 23:00","2021","04","19","23:00"
"-123.44","65.21","DELINE A","2201020","2021-04-20 00:00","2021","04","20","00:00"
"-123.44","65.21","DELINE A","2201020","2021-04-20 01:00","2021","04","20","01:00"
"-123.44","65.21","DELINE A","2201020","2021-04-20 02:00","2021","04","20","02:00"
"-123.44","65.21","DELINE A","2201020","2021-04-20 03:00","2021","04","20","03:00"
"-123.44","65.21","DELINE A","2201020","2021-04-20 04:00","2021","04","20","04:00"
"-123.44","65.21","DELINE A","2201020","2021-04-20 05:00","2021","04","20","05:00"
"-123.44","65.21","DELINE A","2201020","2021-04-20 06:00","2021","04","20","06:00","1.0","","-4.9","","65","","","","33","","17","","48.3","","99.00","","","","","","NA"
"-123.44","65.21","DELINE A","2201020","2021-04-20 07:00","2021","04","20","07:00","2.0","","-4.5","","62","","","","31","","14","","80.5","","98.98","","","","","","NA"
"-123.44","65.21","DELINE A","2201020","2021-04-20 08:00","2021","04","20","08:00","2.3","","-4.2","","62","","","","30","","16","","80.5","","98.99","","","","","","Clear"
"-123.44","65.21","DELINE A","2201020","2021-04-20 09:00","2021","04","20","09:00","5.0","","-4.9","","49","","","","32","","22","","80.5","","98.97","","","","","","NA"
"-123.44","65.21","DELINE A","2201020","2021-04-20 10:00","2021","04","20","10:00","5.1","","-4.2","","51","","","","30","","19","","80.5","","98.97","","","","","","NA"
"-123.44","65.21","DELINE A","2201020","2021-04-20 11:00","2021","04","20","11:00","6.4","","-3.9","","48","","","","29","","18","","64.4","","98.97","","","","","","Clear"
"-123.44","65.21","DELINE A","2201020","2021-04-20 12:00","2021","04","20","12:00","7.6","","-3.2","","46","","","","29","","20","","64.4","","99.00","","","","","","NA"
"-123.44","65.21","DELINE A","2201020","2021-04-20 13:00","2021","04","20","13:00","7.6","","-3.1","","47","","","","32","","25","","64.4","","98.99","","","","","","NA"
"-123.44","65.21","DELINE A","2201020","2021-04-20 14:00","2021","04","20","14:00","6.5","","-3.7","","48","","","","31","","27","","64.4","","99.02","","","","","","Clear"
"-123.44","65.21","DELINE A","2201020","2021-04-20 15:00","2021","04","20","15:00","5.9","","-4.1","","49","","","","34","","29","","64.4","","99.05","","","","","","NA"
"-123.44","65.21","DELINE A","2201020","2021-04-20 16:00","2021","04","20","16:00","4.8","","-4.4","","51","","","","31","","28","","64.4","","99.07","","","","","","NA"
"-123.44","65.21","DELINE A","2201020","2021-04-20 17:00","2021","04","20","17:00"
"-123.44","65.21","DELINE A","2201020","2021-04-20 18:00","2021","04","20","18:00"
"-123.44","65.21","DELINE A","2201020","2021-04-20 19:00","2021","04","20","19:00"
"-123.44","65.21","DELINE A","2201020","2021-04-20 20:00","2021","04","20","20:00"
"-123.44","65.21","DELINE A","2201020","2021-04-20 21:00","2021","04","20","21:00"
"-123.44","65.21","DELINE A","2201020","2021-04-20 22:00","2021","04","20","22:00"
"-123.44","65.21","DELINE A","2201020","2021-04-20 23:00","2021","04","20","23:00"
"-123.44","65.21","DELINE A","2201020","2021-04-21 00:00","2021","04","21","00:00"
"-123.44","65.21","DELINE A","2201020","2021-04-21 01:00","2021","04","21","01:00"
"-123.44","65.21","DELINE A","2201020","2021-04-21 02:00","2021","04","21","02:00"
"-123.44","65.21","DELINE A","2201020","2021-04-21 03:00","2021","04","21","03:00"
"-123.44","65.21","DELINE A","2201020","2021-04-21 04:00","2021","04","21","04:00"
"-123.44","65.21","DELINE A","2201020","2021-04-21 05:00","2021","04","21","05:00"
"-123.44","65.21","DELINE A","2201020","2021-04-21 06:00","2021","04","21","06:00","-9.1","","-13.3","","72","","","","31","","27","","32.2","","100.15","","","","-18","","NA"
"-123.44","65.21","DELINE A","2201020","2021-04-21 07:00","2021","04","21","07:00","-9.0","","-13.7","","69","","","","31","","26","","32.2","","100.16","","","","-18","","NA"
"-123.44","65.21","DELINE A","2201020","2021-04-21 08:00","2021","04","21","08:00","-9.0","","-13.8","","69","","","","31","","32","","24.1","","100.14","","","","-18","","Mostly Cloudy"
"-123.44","65.21","DELINE A","2201020","2021-04-21 09:00","2021","04","21","09:00","-8.8","","-13.9","","67","","","","31","","35","","24.1","","100.16","","","","-19","","NA"
"-123.44","65.21","DELINE A","2201020","2021-04-21 10:00","2021","04","21","10:00","-7.8","","-12.5","","70","","","","30","","27","","6.4","","100.11","","","","-16","","Snow"
"-123.44","65.21","DELINE A","2201020","2021-04-21 11:00","2021","04","21","11:00","-6.3","","-11.8","","65","","","","29","","29","","8.1","","100.04","","","","-15","","Snow"
"-123.44","65.21","DELINE A","2201020","2021-04-21 12:00","2021","04","21","12:00","-5.2","","-12.8","","55","","","","31","","40","","32.2","","99.97","","","","-14","","NA"
"-123.44","65.21","DELINE A","2201020","2021-04-21 13:00","2021","04","21","13:00","-3.4","","-12.1","","51","","","","30","","35","","32.2","","99.90","","","","-11","","NA"
"-123.44","65.21","DELINE A","2201020","2021-04-21 14:00","2021","04","21","14:00","-3.8","","-12.9","","49","","","","32","","39","","48.3","","99.85","","","","-12","","Mostly Cloudy"
"-123.44","65.21","DELINE A","2201020","2021-04-21 15:00","2021","04","21","15:00","-3.7","","-12.4","","51","","","","30","","44","","48.3","","99.84","","","","-13","","NA"
"-123.44","65.21","DELINE A","2201020","2021-04-21 16:00","2021","04","21","16:00","-3.1","","-11.8","","51","","","","29","","41","","48.3","","99.78","","","","-12","","NA"
"-123.44","65.21","DELINE A","2201020","2021-04-21 17:00","2021","04","21","17:00"
"-123.44","65.21","DELINE A","2201020","2021-04-21 18:00","2021","04","21","18:00"
"-123.44","65.21","DELINE A","2201020","2021-04-21 19:00","2021","04","21","19:00"
"-123.44","65.21","DELINE A","2201020","2021-04-21 20:00","2021","04","21","20:00"
"-123.44","65.21","DELINE A","2201020","2021-04-21 21:00","2021","04","21","21:00"
"-123.44","65.21","DELINE A","2201020","2021-04-21 22:00","2021","04","21","22:00"
"-123.44","65.21","DELINE A","2201020","2021-04-21 23:00","2021","04","21","23:00"
"-123.44","65.21","DELINE A","2201020","2021-04-22 00:00","2021","04","22","00:00"
"-123.44","65.21","DELINE A","2201020","2021-04-22 01:00","2021","04","22","01:00"
"-123.44","65.21","DELINE A","2201020","2021-04-22 02:00","2021","04","22","02:00"
"-123.44","65.21","DELINE A","2201020","2021-04-22 03:00","2021","04","22","03:00"
"-123.44","65.21","DELINE A","2201020","2021-04-22 04:00","2021","04","22","04:00"
"-123.44","65.21","DELINE A","2201020","2021-04-22 05:00","2021","04","22","05:00"
"-123.44","65.21","DELINE A","2201020","2021-04-22 06:00","2021","04","22","06:00","-11.7","","-16.6","","67","","","","32","","26","","48.3","","99.81","","","","-21","","NA"
"-123.44","65.21","DELINE A","2201020","2021-04-22 07:00","2021","04","22","07:00","-11.9","","-16.4","","69","","","","32","","22","","48.3","","99.90","","","","-21","","NA"
"-123.44","65.21","DELINE A","2201020","2021-04-22 08:00","2021","04","22","08:00","-11.9","","-16.1","","71","","","","31","","24","","48.3","","99.96","","","","-21","","Mostly Cloudy"
"-123.44","65.21","DELINE A","2201020","2021-04-22 09:00","2021","04","22","09:00","-11.6","","-16.2","","69","","","","31","","27","","48.3","","99.99","","","","-21","","NA"
"-123.44","65.21","DELINE A","2201020","2021-04-22 10:00","2021","04","22","10:00","-11.0","","-16.0","","67","","","","30","","23","","48.3","","100.00","","","","-20","","NA"
"-123.44","65.21","DELINE A","2201020","2021-04-22 11:00","2021","04","22","11:00","-10.6","","-16.1","","64","","","","34","","21","","64.4","","100.00","","","","-19","","Mainly Clear"
"-123.44","65.21","DELINE A","2201020","2021-04-22 12:00","2021","04","22","12:00","-9.0","","-15.8","","58","","","","32","","22","","64.4","","99.99","","","","-17","","NA"
"-123.44","65.21","DELINE A","2201020","2021-04-22 13:00","2021","04","22","13:00","-8.0","","-15.9","","53","","","","31","","20","","48.3","","99.98","","","","-15","","NA"
"-123.44","65.21","DELINE A","2201020","2021-04-22 14:00","2021","04","22","14:00","-6.5","","-16.6","","45","","","","32","","19","","64.4","","99.94","","","","-13","","Mainly Clear"
"-123.44","65.21","DELINE A","2201020","2021-04-22 15:00","2021","04","22","15:00","-5.7","","-16.8","","42","","","","31","","30","","64.4","","99.91","","","","-14","","NA"
"-123.44","65.21","DELINE A","2201020","2021-04-22 16:00","2021","04","22","16:00","-4.8","","-16.2","","41","","","","32","","24","","64.4","","99.89","","","","-12","","NA"
"-123.44","65.21","DELINE A","2201020","2021-04-22 17:00","2021","04","22","17:00"
"-123.44","65.21","DELINE A","2201020","2021-04-22 18:00","2021","04","22","18:00"
"-123.44","65.21","DELINE A","2201020","2021-04-22 19:00","2021","04","22","19:00"
"-123.44","65.21","DELINE A","2201020","2021-04-22 20:00","2021","04","22","20:00"
"-123.44","65.21","DELINE A","2201020","2021-04-22 21:00","2021","04","22","21:00"
"-123.44","65.21","DELINE A","2201020","2021-04-22 22:00","2021","04","22","22:00"
"-123.44","65.21","DELINE A","2201020","2021-04-22 23:00","2021","04","22","23:00"
"-123.44","65.21","DELINE A","2201020","2021-04-23 00:00","2021","04","23","00:00"
"-123.44","65.21","DELINE A","2201020","2021-04-23 01:00","2021","04","23","01:00"
"-123.44","65.21","DELINE A","2201020","2021-04-23 02:00","2021","04","23","02:00"
"-123.44","65.21","DELINE A","2201020","2021-04-23 03:00","2021","04","23","03:00"
"-123.44","65.21","DELINE A","2201020","2021-04-23 04:00","2021","04","23","04:00"
"-123.44","65.21","DELINE A","2201020","2021-04-23 05:00","2021","04","23","05:00"
"-123.44","65.21","DELINE A","2201020","2021-04-23 06:00","2021","04","23","06:00","-19.3","","-21.6","","82","","","","36","","2","","64.4","","99.90","","","","-21","","NA"
"-123.44","65.21","DELINE A","2201020","2021-04-23 07:00","2021","04","23","07:00","-16.7","","-19.3","","80","","","","30","","7","","64.4","","99.91","","","","-22","","NA"
"-123.44","65.21","DELINE A","2201020","2021-04-23 08:00","2021","04","23","08:00","-12.7","","-17.2","","69","","","","27","","8","","80.5","","99.90","","","","-18","","Mainly Clear"
"-123.44","65.21","DELINE A","2201020","2021-04-23 09:00","2021","04","23","09:00","-10.2","","-16.6","","60","","","","29","","12","","80.5","","99.85","","","","-16","","NA"
"-123.44","65.21","DELINE A","2201020","2021-04-23 10:00","2021","04","23","10:00","-8.4","","-15.9","","55","","","","29","","16","","80.5","","99.82","","","","-15","","NA"
"-123.44","65.21","DELINE A","2201020","2021-04-23 11:00","2021","04","23","11:00","-7.6","","-16.1","","51","","","","28","","17","","64.4","","99.80","","","","-14","","Mainly Clear"
"-123.44","65.21","DELINE A","2201020","2021-04-23 12:00","2021","04","23","12:00","-5.8","","-15.5","","47","","","","31","","15","","64.4","","99.76","","","","-12","","NA"
"-123.44","65.21","DELINE A","2201020","2021-04-23 13:00","2021","04","23","13:00","-5.0","","-15.4","","44","","","","27","","13","","64.4","","99.72","","","","-10","","NA"
"-123.44","65.21","DELINE A","2201020","2021-04-23 14:00","2021","04","23","14:00","-3.7","","-15.3","","40","","","","30","","17","","64.4","","99.67","","","","-9","","Mainly Clear"
"-123.44","65.21","DELINE A","2201020","2021-04-23 15:00","2021","04","23","15:00","-3.0","","-14.9","","40","","","","29","","17","","64.4","","99.65","","","","-9","","NA"
"-123.44","65.21","DELINE A","2201020","2021-04-23 16:00","2021","04","23","16:00","-2.3","","-14.3","","39","","","","29","","18","","80.5","","99.59","","","","-8","","NA"
"-123.44","65.21","DELINE A","2201020","2021-04-23 17:00","2021","04","23","17:00"
"-123.44","65.21","DELINE A","2201020","2021-04-23 18:00","2021","04","23","18:00"
"-123.44","65.21","DELINE A","2201020","2021-04-23 19:00","2021","04","23","19:00"
"-123.44","65.21","DELINE A","2201020","2021-04-23 20:00","2021","04","23","20:00"
"-123.44","65.21","DELINE A","2201020","2021-04-23 21:00","2021","04","23","21:00"
"-123.44","65.21","DELINE A","2201020","2021-04-23 22:00","2021","04","23","22:00"
"-123.44","65.21","DELINE A","2201020","2021-04-23 23:00","2021","04","23","23:00"
"-123.44","65.21","DELINE A","2201020","2021-04-24 00:00","2021","04","24","00:00"
"-123.44","65.21","DELINE A","2201020","2021-04-24 01:00","2021","04","24","01:00"
"-123.44","65.21","DELINE A","2201020","2021-04-24 02:00","2021","04","24","02:00"
"-123.44","65.21","DELINE A","2201020","2021-04-24 03:00","2021","04","24","03:00"
"-123.44","65.21","DELINE A","2201020","2021-04-24 04:00","2021","04","24","04:00"
"-123.44","65.21","DELINE A","2201020","2021-04-24 05:00","2021","04","24","05:00"
"-123.44","65.21","DELINE A","2201020","2021-04-24 06:00","2021","04","24","06:00","-16.8","","-19.0","","83","","","","33","","5","","64.4","","99.29","","","","-21","","NA"
"-123.44","65.21","DELINE A","2201020","2021-04-24 07:00","2021","04","24","07:00","-14.2","","-16.4","","84","","","","36","","2","","64.4","","99.26","","","","-16","","NA"
"-123.44","65.21","DELINE A","2201020","2021-04-24 08:00","2021","04","24","08:00","-10.5","","-15.3","","68","","","","28","","5","","64.4","","99.23","","","","-14","","Mostly Cloudy"
"-123.44","65.21","DELINE A","2201020","2021-04-24 09:00","2021","04","24","09:00","-5.9","","-14.1","","52","","","","28","","7","","64.4","","99.18","","","","-9","","NA"
"-123.44","65.21","DELINE A","2201020","2021-04-24 10:00","2021","04","24","10:00","-3.6","","-13.7","","46","","","","28","","14","","64.4","","99.14","","","","-9","","NA"
"-123.44","65.21","DELINE A","2201020","2021-04-24 11:00","2021","04","24","11:00","-2.6","","-14.3","","40","","","","33","","15","","64.4","","99.14","","","","-8","","Mainly Clear"
"-123.44","65.21","DELINE A","2201020","2021-04-24 12:00","2021","04","24","12:00","-2.3","","-14.4","","39","","","","1","","16","","64.4","","99.11","","","","-7","","NA"
"-123.44","65.21","DELINE A","2201020","2021-04-24 13:00","2021","04","24","13:00","-6.5","","-12.2","","64","","","","15","","12","","64.4","","99.09","","","","-12","","NA"
"-123.44","65.21","DELINE A","2201020","2021-04-24 14:00","2021","04","24","14:00","-6.5","","-13.7","","57","","","","12","","14","","64.4","","99.08","","","","-12","","Clear"
"-123.44","65.21","DELINE A","2201020","2021-04-24 15:00","2021","04","24","15:00","-6.6","","-13.1","","60","","","","13","","14","","64.4","","99.05","","","","-12","","NA"
"-123.44","65.21","DELINE A","2201020","2021-04-24 16:00","2021","04","24","16:00","-7.0","","-12.4","","65","","","","14","","12","","64.4","","99.04","","","","-12","","NA"
"-123.44","65.21","DELINE A","2201020","2021-04-24 17:00","2021","04","24","17:00"
"-123.44","65.21","DELINE A","2201020","2021-04-24 18:00","2021","04","24","18:00"
"-123.44","65.21","DELINE A","2201020","2021-04-24 19:00","2021","04","24","19:00"
"-123.44","65.21","DELINE A","2201020","2021-04-24 20:00","2021","04","24","20:00"
"-123.44","65.21","DELINE A","2201020","2021-04-24 21:00","2021","04","24","21:00"
"-123.44","65.21","DELINE A","2201020","2021-04-24 22:00","2021","04","24","22:00"
"-123.44","65.21","DELINE A","2201020","2021-04-24 23:00","2021","04","24","23:00"
"-123.44","65.21","DELINE A","2201020","2021-04-25 00:00","2021","04","25","00:00"
"-123.44","65.21","DELINE A","2201020","2021-04-25 01:00","2021","04","25","01:00"
"-123.44","65.21","DELINE A","2201020","2021-04-25 02:00","2021","04","25","02:00"
"-123.44","65.21","DELINE A","2201020","2021-04-25 03:00","2021","04","25","03:00"
"-123.44","65.21","DELINE A","2201020","2021-04-25 04:00","2021","04","25","04:00"
"-123.44","65.21","DELINE A","2201020","2021-04-25 05:00","2021","04","25","05:00"
"-123.44","65.21","DELINE A","2201020","2021-04-25 06:00","2021","04","25","06:00"
"-123.44","65.21","DELINE A","2201020","2021-04-25 07:00","2021","04","25","07:00"
"-123.44","65.21","DELINE A","2201020","2021-04-25 08:00","2021","04","25","08:00"
"-123.44","65.21","DELINE A","2201020","2021-04-25 09:00","2021","04","25","09:00"
"-123.44","65.21","DELINE A","2201020","2021-04-25 10:00","2021","04","25","10:00","-3.3","","-6.7","","78","","","","32","","29","","24.1","","97.91","","","","-11","","NA"
"-123.44","65.21","DELINE A","2201020","2021-04-25 11:00","2021","04","25","11:00","-3.3","","-6.7","","77","","","","32","","28","","64.4","","97.98","","","","-11","","Snow"
"-123.44","65.21","DELINE A","2201020","2021-04-25 12:00","2021","04","25","12:00","-2.9","","-6.7","","75","","","","32","","25","","11.3","","98.03","","","","-10","","Snow"
"-123.44","65.21","DELINE A","2201020","2021-04-25 13:00","2021","04","25","13:00","-3.5","","-6.7","","78","","","","34","","28","","3.2","","98.07","","","","-11","","Snow"
"-123.44","65.21","DELINE A","2201020","2021-04-25 14:00","2021","04","25","14:00","-3.4","","-7.0","","76","","","","34","","16","","3.2","","98.16","","","","-9","","Snow"
"-123.44","65.21","DELINE A","2201020","2021-04-25 15:00","2021","04","25","15:00","-4.1","","-7.7","","76","","","","1","","16","","2.4","","98.24","","","","-10","","Snow"
"-123.44","65.21","DELINE A","2201020","2021-04-25 16:00","2021","04","25","16:00"
"-123.44","65.21","DELINE A","2201020","2021-04-25 17:00","2021","04","25","17:00"
"-123.44","65.21","DELINE A","2201020","2021-04-25 18:00","2021","04","25","18:00"
"-123.44","65.21","DELINE A","2201020","2021-04-25 19:00","2021","04","25","19:00"
"-123.44","65.21","DELINE A","2201020","2021-04-25 20:00","2021","04","25","20:00"
"-123.44","65.21","DELINE A","2201020","2021-04-25 21:00","2021","04","25","21:00"
"-123.44","65.21","DELINE A","2201020","2021-04-25 22:00","2021","04","25","22:00"
"-123.44","65.21","DELINE A","2201020","2021-04-25 23:00","2021","04","25","23:00"
"-123.44","65.21","DELINE A","2201020","2021-04-26 00:00","2021","04","26","00:00"
"-123.44","65.21","DELINE A","2201020","2021-04-26 01:00","2021","04","26","01:00"
"-123.44","65.21","DELINE A","2201020","2021-04-26 02:00","2021","04","26","02:00"
"-123.44","65.21","DELINE A","2201020","2021-04-26 03:00","2021","04","26","03:00"
"-123.44","65.21","DELINE A","2201020","2021-04-26 04:00","2021","04","26","04:00"
"-123.44","65.21","DELINE A","2201020","2021-04-26 05:00","2021","04","26","05:00"
"-123.44","65.21","DELINE A","2201020","2021-04-26 06:00","2021","04","26","06:00","-17.1","","-20.3","","77","","","","9","","5","","32.2","","99.06","","","","-21","","NA"
"-123.44","65.21","DELINE A","2201020","2021-04-26 07:00","2021","04","26","07:00","-15.9","","-19.4","","75","","","","12","","4","","32.2","","99.15","","","","-19","","NA"
"-123.44","65.21","DELINE A","2201020","2021-04-26 08:00","2021","04","26","08:00","-14.3","","-20.5","","60","","","","5","","20","","32.2","","99.25","","","","-23","","Mostly Cloudy"
"-123.44","65.21","DELINE A","2201020","2021-04-26 09:00","2021","04","26","09:00","-14.6","","-22.3","","53","","","","6","","25","","48.3","","99.36","","","","-25","","NA"
"-123.44","65.21","DELINE A","2201020","2021-04-26 10:00","2021","04","26","10:00","-14.0","","-21.9","","52","","","","6","","23","","48.3","","99.45","","","","-24","","NA"
"-123.44","65.21","DELINE A","2201020","2021-04-26 11:00","2021","04","26","11:00","-13.4","","-22.2","","49","","","","5","","20","","48.3","","99.55","","","","-22","","Clear"
"-123.44","65.21","DELINE A","2201020","2021-04-26 12:00","2021","04","26","12:00","-12.5","","-22.1","","45","","","","8","","18","","64.4","","99.66","","","","-21","","NA"
"-123.44","65.21","DELINE A","2201020","2021-04-26 13:00","2021","04","26","13:00","-12.0","","-21.9","","44","","","","7","","22","","64.4","","99.74","","","","-21","","NA"
"-123.44","65.21","DELINE A","2201020","2021-04-26 14:00","2021","04","26","14:00","-11.6","","-21.7","","44","","","","7","","18","","64.4","","99.82","","","","-19","","Clear"
"-123.44","65.21","DELINE A","2201020","2021-04-26 15:00","2021","04","26","15:00","-11.6","","-22.2","","41","","","","5","","25","","64.4","","99.87","","","","-21","","NA"
"-123.44","65.21","DELINE A","2201020","2021-04-26 16:00","2021","04","26","16:00","-10.9","","-21.7","","41","","","","6","","22","","64.4","","99.91","","","","-19","","NA"
"-123.44","65.21","DELINE A","2201020","2021-04-26 17:00","2021","04","26","17:00"
"-123.44","65.21","DELINE A","2201020","2021-04-26 18:00","2021","04","26","18:00"
"-123.44","65.21","DELINE A","2201020","2021-04-26 19:00","2021","04","26","19:00"
"-123.44","65.21","DELINE A","2201020","2021-04-26 20:00","2021","04","26","20:00"
"-123.44","65.21","DELINE A","2201020","2021-04-26 21:00","2021","04","26","21:00"
"-123.44","65.21","DELINE A","2201020","2021-04-26 22:00","2021","04","26","22:00"
"-123.44","65.21","DELINE A","2201020","2021-04-26 23:00","2021","04","26","23:00"
"-123.44","65.21","DELINE A","2201020","2021-04-27 00:00","2021","04","27","00:00"
"-123.44","65.21","DELINE A","2201020","2021-04-27 01:00","2021","04","27","01:00"
"-123.44","65.21","DELINE A","2201020","2021-04-27 02:00","2021","04","27","02:00"
"-123.44","65.21","DELINE A","2201020","2021-04-27 03:00","2021","04","27","03:00"
"-123.44","65.21","DELINE A","2201020","2021-04-27 04:00","2021","04","27","04:00"
"-123.44","65.21","DELINE A","2201020","2021-04-27 05:00","2021","04","27","05:00"
"-123.44","65.21","DELINE A","2201020","2021-04-27 06:00","2021","04","27","06:00","-20.2","","-22.7","","81","","","","33","","14","","64.4","","99.97","","","","-29","","NA"
"-123.44","65.21","DELINE A","2201020","2021-04-27 07:00","2021","04","27","07:00","-17.4","","-20.5","","77","","","","32","","12","","64.4","","99.92","","","","-25","","NA"
"-123.44","65.21","DELINE A","2201020","2021-04-27 08:00","2021","04","27","08:00","-14.8","","-20.1","","65","","","","30","","16","","64.4","","99.88","","","","-23","","Mostly Cloudy"
"-123.44","65.21","DELINE A","2201020","2021-04-27 09:00","2021","04","27","09:00","-12.2","","-20.0","","53","","","","29","","19","","64.4","","99.80","","","","-20","","NA"
"-123.44","65.21","DELINE A","2201020","2021-04-27 10:00","2021","04","27","10:00","-10.4","","-19.8","","47","","","","30","","22","","64.4","","99.71","","","","-19","","NA"
"-123.44","65.21","DELINE A","2201020","2021-04-27 11:00","2021","04","27","11:00","-9.5","","-18.8","","47","","","","31","","22","","64.4","","99.65","","","","-18","","Mostly Cloudy"
"-123.44","65.21","DELINE A","2201020","2021-04-27 12:00","2021","04","27","12:00","-8.7","","-17.3","","50","","","","29","","19","","64.4","","99.55","","","","-16","","NA"
"-123.44","65.21","DELINE A","2201020","2021-04-27 13:00","2021","04","27","13:00","-8.2","","-17.9","","46","","","","29","","28","","64.4","","99.46","","","","-17","","NA"
"-123.44","65.21","DELINE A","2201020","2021-04-27 14:00","2021","04","27","14:00","-7.6","","-16.3","","50","","","","30","","26","","32.2","","99.39","","","","-16","","Cloudy"
"-123.44","65.21","DELINE A","2201020","2021-04-27 15:00","2021","04","27","15:00","-7.0","","-14.5","","55","","","","30","","23","","32.2","","99.32","","","","-15","","NA"
"-123.44","65.21","DELINE A","2201020","2021-04-27 16:00","2021","04","27","16:00","-6.6","","-12.5","","63","","","","30","","22","","11.3","","99.27","","","","-14","","NA"
"-123.44","65.21","DELINE A","2201020","2021-04-27 17:00","2021","04","27","17:00"
"-123.44","65.21","DELINE A","2201020","2021-04-27 18:00","2021","04","27","18:00"
"-123.44","65.21","DELINE A","2201020","2021-04-27 19:00","2021","04","27","19:00"
"-123.44","65.21","DELINE A","2201020","2021-04-27 20:00","2021","04","27","20:00"
"-123.44","65.21","DELINE A","2201020","2021-04-27 21:00","2021","04","27","21:00"
"-123.44","65.21","DELINE A","2201020","2021-04-27 22:00","2021","04","27","22:00"
"-123.44","65.21","DELINE A","2201020","2021-04-27 23:00","2021","04","27","23:00"
"-123.44","65.21","DELINE A","2201020","2021-04-28 00:00","2021","04","28","00:00"
"-123.44","65.21","DELINE A","2201020","2021-04-28 01:00","2021","04","28","01:00"
"-123.44","65.21","DELINE A","2201020","2021-04-28 02:00","2021","04","28","02:00"
"-123.44","65.21","DELINE A","2201020","2021-04-28 03:00","2021","04","28","03:00"
"-123.44","65.21","DELINE A","2201020","2021-04-28 04:00","2021","04","28","04:00"
"-123.44","65.21","DELINE A","2201020","2021-04-28 05:00","2021","04","28","05:00"
"-123.44","65.21","DELINE A","2201020","2021-04-28 06:00","2021","04","28","06:00","-9.2","","-11.6","","83","","","","36","","10","","16.1","","99.19","","","","-14","","Snow"
"-123.44","65.21","DELINE A","2201020","2021-04-28 07:00","2021","04","28","07:00","-8.2","","-11.7","","76","","","","4","","4","","16.1","","99.24","","","","-10","","NA"
"-123.44","65.21","DELINE A","2201020","2021-04-28 08:00","2021","04","28","08:00","-7.9","","-11.1","","78","","","","15","","4","","9.7","","99.30","","","","-10","","Snow"
"-123.44","65.21","DELINE A","2201020","2021-04-28 09:00","2021","04","28","09:00","-8.7","","-12.9","","72","","","","14","","8","","24.1","","99.35","","","","-13","","NA"
"-123.44","65.21","DELINE A","2201020","2021-04-28 10:00","2021","04","28","10:00","-9.2","","-13.6","","71","","","","15","","15","","32.2","","99.42","","","","-16","","NA"
"-123.44","65.21","DELINE A","2201020","2021-04-28 11:00","2021","04","28","11:00","-10.3","","-15.2","","67","","","","12","","16","","32.2","","99.46","","","","-17","","Mostly Cloudy"
"-123.44","65.21","DELINE A","2201020","2021-04-28 12:00","2021","04","28","12:00","-10.7","","-15.2","","70","","","","11","","13","","48.3","","99.51","","","","-17","","NA"
"-123.44","65.21","DELINE A","2201020","2021-04-28 13:00","2021","04","28","13:00","-10.7","","-15.9","","66","","","","12","","18","","48.3","","99.57","","","","-18","","NA"
"-123.44","65.21","DELINE A","2201020","2021-04-28 14:00","2021","04","28","14:00","-10.6","","-15.4","","68","","","","14","","18","","48.3","","99.59","","","","-18","","Clear"
"-123.44","65.21","DELINE A","2201020","2021-04-28 15:00","2021","04","28","15:00","-10.5","","-15.6","","66","","","","14","","22","","64.4","","99.64","","","","-19","","NA"
"-123.44","65.21","DELINE A","2201020","2021-04-28 16:00","2021","04","28","16:00","-10.6","","-15.6","","67","","","","14","","21","","64.4","","99.64","","","","-19","","NA"
"-123.44","65.21","DELINE A","2201020","2021-04-28 17:00","2021","04","28","17:00"
"-123.44","65.21","DELINE A","2201020","2021-04-28 18:00","2021","04","28","18:00"
"-123.44","65.21","DELINE A","2201020","2021-04-28 19:00","2021","04","28","19:00"
"-123.44","65.21","DELINE A","2201020","2021-04-28 20:00","2021","04","28","20:00"
"-123.44","65.21","DELINE A","2201020","2021-04-28 21:00","2021","04","28","21:00"
"-123.44","65.21","DELINE A","2201020","2021-04-28 22:00","2021","04","28","22:00"
"-123.44","65.21","DELINE A","2201020","2021-04-28 23:00","2021","04","28","23:00"
"-123.44","65.21","DELINE A","2201020","2021-04-29 00:00","2021","04","29","00:00"
"-123.44","65.21","DELINE A","2201020","2021-04-29 01:00","2021","04","29","01:00"
"-123.44","65.21","DELINE A","2201020","2021-04-29 02:00","2021","04","29","02:00"
"-123.44","65.21","DELINE A","2201020","2021-04-29 03:00","2021","04","29","03:00"
"-123.44","65.21","DELINE A","2201020","2021-04-29 04:00","2021","04","29","04:00"
"-123.44","65.21","DELINE A","2201020","2021-04-29 05:00","2021","04","29","05:00"
"-123.44","65.21","DELINE A","2201020","2021-04-29 06:00","2021","04","29","06:00","-9.7","","-14.5","","68","","","","8","","24","","80.5","","98.90","","","","-18","","NA"
"-123.44","65.21","DELINE A","2201020","2021-04-29 07:00","2021","04","29","07:00","-8.4","","-14.0","","64","","","","9","","23","","80.5","","98.79","","","","-16","","NA"
"-123.44","65.21","DELINE A","2201020","2021-04-29 08:00","2021","04","29","08:00","-6.5","","-12.9","","61","","","","9","","26","","80.5","","98.71","","","","-14","","Mostly Cloudy"
"-123.44","65.21","DELINE A","2201020","2021-04-29 09:00","2021","04","29","09:00","-4.9","","-12.1","","57","","","","8","","26","","80.5","","98.60","","","","-12","","NA"
"-123.44","65.21","DELINE A","2201020","2021-04-29 10:00","2021","04","29","10:00","-2.7","","-10.5","","55","","","","10","","18","","80.5","","98.50","","","","-8","","NA"
"-123.44","65.21","DELINE A","2201020","2021-04-29 11:00","2021","04","29","11:00","-1.2","","-9.9","","52","","","","10","","22","","80.5","","98.41","","","","-7","","Mainly Clear"
"-123.44","65.21","DELINE A","2201020","2021-04-29 12:00","2021","04","29","12:00","0.2","","-9.3","","49","","","","10","","21","","80.5","","98.31","","","","","","NA"
"-123.44","65.21","DELINE A","2201020","2021-04-29 13:00","2021","04","29","13:00","2.0","","-9.0","","44","","","","11","","19","","80.5","","98.24","","","","","","NA"
"-123.44","65.21","DELINE A","2201020","2021-04-29 14:00","2021","04","29","14:00","3.6","","-8.3","","41","","","","12","","18","","80.5","","98.15","","","","","","Mostly Cloudy"
"-123.44","65.21","DELINE A","2201020","2021-04-29 15:00","2021","04","29","15:00","4.5","","-7.8","","40","","","","11","","20","","80.5","","98.06","","","","","","NA"
"-123.44","65.21","DELINE A","2201020","2021-04-29 16:00","2021","04","29","16:00","5.3","","-7.4","","40","","","","11","","19","","80.5","","97.95","","","","","","NA"
"-123.44","65.21","DELINE A","2201020","2021-04-29 17:00","2021","04","29","17:00"
"-123.44","65.21","DELINE A","2201020","2021-04-29 18:00","2021","04","29","18:00"
"-123.44","65.21","DELINE A","2201020","2021-04-29 19:00","2021","04","29","19:00"
"-123.44","65.21","DELINE A","2201020","2021-04-29 20:00","2021","04","29","20:00"
"-123.44","65.21","DELINE A","2201020","2021-04-29 21:00","2021","04","29","21:00"
"-123.44","65.21","DELINE A","2201020","2021-04-29 22:00","2021","04","29","22:00"
"-123.44","65.21","DELINE A","2201020","2021-04-29 23:00","2021","04","29","23:00"
"-123.44","65.21","DELINE A","2201020","2021-04-30 00:00","2021","04","30","00:00"
"-123.44","65.21","DELINE A","2201020","2021-04-30 01:00","2021","04","30","01:00"
"-123.44","65.21","DELINE A","2201020","2021-04-30 02:00","2021","04","30","02:00"
"-123.44","65.21","DELINE A","2201020","2021-04-30 03:00","2021","04","30","03:00"
"-123.44","65.21","DELINE A","2201020","2021-04-30 04:00","2021","04","30","04:00"
"-123.44","65.21","DELINE A","2201020","2021-04-30 05:00","2021","04","30","05:00"
"-123.44","65.21","DELINE A","2201020","2021-04-30 06:00","2021","04","30","06:00","-1.5","","-8.4","","59","","","","9","","17","","64.4","","97.43","","","","-7","","NA"
"-123.44","65.21","DELINE A","2201020","2021-04-30 07:00","2021","04","30","07:00","-1.0","","-8.1","","59","","","","10","","17","","64.4","","97.45","","","","-6","","NA"
"-123.44","65.21","DELINE A","2201020","2021-04-30 08:00","2021","04","30","08:00","-0.4","","-7.2","","60","","","","10","","14","","64.4","","97.47","","","","-5","","Mainly Clear"
"-123.44","65.21","DELINE A","2201020","2021-04-30 09:00","2021","04","30","09:00","0.1","","-6.9","","59","","","","11","","10","","64.4","","97.51","","","","","","NA"
"-123.44","65.21","DELINE A","2201020","2021-04-30 10:00","2021","04","30","10:00","-1.8","","-7.6","","65","","","","18","","9","","64.4","","97.54","","","","-5","","NA"
"-123.44","65.21","DELINE A","2201020","2021-04-30 11:00","2021","04","30","11:00","-3.0","","-7.4","","72","","","","18","","8","","64.4","","97.56","","","","-6","","Mainly Clear"
"-123.44","65.21","DELINE A","2201020","2021-04-30 12:00","2021","04","30","12:00","-0.4","","-5.6","","68","","","","14","","12","","64.4","","97.59","","","","-4","","NA"
"-123.44","65.21","DELINE A","2201020","2021-04-30 13:00","2021","04","30","13:00","-0.4","","-5.7","","68","","","","18","","8","","64.4","","97.65","","","","-3","","NA"
"-123.44","65.21","DELINE A","2201020","2021-04-30 14:00","2021","04","30","14:00","-0.2","","-5.2","","69","","","","23","","9","","64.4","","97.69","","","","-3","","Mainly Clear"
"-123.44","65.21","DELINE A","2201020","2021-04-30 15:00","2021","04","30","15:00","-0.6","","-5.4","","70","","","","13","","17","","64.4","","97.75","","","","-6","","NA"
"-123.44","65.21","DELINE A","2201020","2021-04-30 16:00","2021","04","30","16:00","-1.6","","-6.1","","71","","","","14","","19","","64.4","","97.80","","","","-7","","NA"
"-123.44","65.21","DELINE A","2201020","2021-04-30 17:00","2021","04","30","17:00"
"-123.44","65.21","DELINE A","2201020","2021-04-30 18:00","2021","04","30","18:00"
"-123.44","65.21","DELINE A","2201020","2021-04-30 19:00","2021","04","30","19:00"
"-123.44","65.21","DELINE A","2201020","2021-04-30 20:00","2021","04","30","20:00"
"-123.44","65.21","DELINE A","2201020","2021-04-30 21:00","2021","04","30","21:00"
"-123.44","65.21","DELINE A","2201020","2021-04-30 22:00","2021","04","30","22:00"
"-123.44","65.21","DELINE A","2201020","2021-04-30 23:00","2021","04","30","23:00"
