"Longitude (x)","Latitude (y)","Station Name","Climate ID","Date/Time (LST)","Year","Month","Day","Time (LST)","Temp (°C)","Temp Flag","Dew Point Temp (°C)","Dew Point Temp Flag","Rel Hum (%)","Rel Hum Flag","Precip. Amount (mm)","Precip. Amount Flag","Wind Dir (10s deg)","Wind Dir Flag","Wind Spd (km/h)","Wind Spd Flag","Visibility (km)","Visibility Flag","Stn Press (kPa)","Stn Press Flag","Hmdx","Hmdx Flag","Wind Chill","Wind Chill Flag","Weather"
"-123.53","48.30","RACE ROCKS","1016640","2018-12-01 00:00","2018","12","01","00:00","7.7","","4.3","","79","","","M","5","","16","","","","100.29","","","","","","NA"
"-123.53","48.30","RACE ROCKS","1016640","2018-12-01 01:00","2018","12","01","01:00","7.6","","5.2","","85","","","M","6","","15","","","","100.33","","","","","","NA"
"-123.53","48.30","RACE ROCKS","1016640","2018-12-01 02:00","2018","12","01","02:00","7.6","","4.9","","83","","","M","3","","13","","","","100.36","","","","","","NA"
"-123.53","48.30","RACE ROCKS","1016640","2018-12-01 03:00","2018","12","01","03:00","7.4","","5.0","","85","","","M","2","","24","","","","100.42","","","","","","NA"
"-123.53","48.30","RACE ROCKS","1016640","2018-12-01 04:00","2018","12","01","04:00","7.5","","5.1","","85","","","M","2","","22","","","","100.46","","","","","","NA"
"-123.53","48.30","RACE ROCKS","1016640","2018-12-01 05:00","2018","12","01","05:00","6.9","","4.6","","85","","","M","4","","25","","","","100.50","","","","","","NA"
"-123.53","48.30","RACE ROCKS","1016640","2018-12-01 06:00","2018","12","01","06:00","6.8","","4.5","","85","","","M","5","","26","","","","100.55","","","","","","NA"
"-123.53","48.30","RACE ROCKS","1016640","2018-12-01 07:00","2018","12","01","07:00","6.9","","4.5","","84","","","M","5","","28","","","","100.59","","","","","","NA"
"-123.53","48.30","RACE ROCKS","1016640","2018-12-01 08:00","2018","12","01","08:00","7.0","","4.3","","83","","","M","2","","26","","","","100.64","","","","","","NA"
"-123.53","48.30","RACE ROCKS","1016640","2018-12-01 09:00","2018","12","01","09:00","7.2","","4.4","","83","","","M","3","","23","","","","100.71","","","","","","NA"
"-123.53","48.30","RACE ROCKS","1016640","2018-12-01 10:00","2018","12","01","10:00","6.8","","4.4","","84","","","M","2","","28","","","","100.78","","","","","","NA"
"-123.53","48.30","RACE ROCKS","1016640","2018-12-01 11:00","2018","12","01","11:00","6.9","","4.2","","83","","","M","2","","25","","","","100.81","","","","","","NA"
"-123.53","48.30","RACE ROCKS","1016640","2018-12-01 12:00","2018","12","01","12:00","7.2","","4.0","","80","","","M","2","","22","","","","100.82","","","","","","NA"
"-123.53","48.30","RACE ROCKS","1016640","2018-12-01 13:00","2018","12","01","13:00","7.2","","4.1","","81","","","M","1","","24","","","","100.83","","","","","","NA"
"-123.53","48.30","RACE ROCKS","1016640","2018-12-01 14:00","2018","12","01","14:00","7.3","","4.0","","80","","","M","1","","23","","","","100.84","","","","","","NA"
"-123.53","48.30","RACE ROCKS","1016640","2018-12-01 15:00","2018","12","01","15:00","7.4","","3.8","","78","","","M","36","","20","","","","100.88","","","","","","NA"
"-123.53","48.30","RACE ROCKS","1016640","2018-12-01 16:00","2018","12","01","16:00","7.5","","4.0","","79","","","M","1","","8","","","","100.92","","","","","","NA"
"-123.53","48.30","RACE ROCKS","1016640","2018-12-01 17:00","2018","12","01","17:00","7.3","","3.9","","79","","","M","4","","10","","","","100.95","","","","","","NA"
"-123.53","48.30","RACE ROCKS","1016640","2018-12-01 18:00","2018","12","01","18:00","7.2","","4.1","","81","","","M","6","","15","","","","100.98","","","","","","NA"
"-123.53","48.30","RACE ROCKS","1016640","2018-12-01 19:00","2018","12","01","19:00","7.1","","4.1","","81","","","M","9","","11","","","","101.01","","","","","","NA"
"-123.53","48.30","RACE ROCKS","1016640","2018-12-01 20:00","2018","12","01","20:00","6.9","","4.4","","84","","","M","2","","12","","","","101.06","","","","","","NA"
"-123.53","48.30","RACE ROCKS","1016640","2018-12-01 21:00","2018","12","01","21:00","6.8","","4.7","","87","","","M","2","","11","","","","101.10","","","","","","NA"
"-123.53","48.30","RACE ROCKS","1016640","2018-12-01 22:00","2018","12","01","22:00","6.6","","4.5","","86","","","M","2","","11","","","","101.15","","","","","","NA"
"-123.53","48.30","RACE ROCKS","1016640","2018-12-01 23:00","2018","12","01","23:00","6.6","","4.4","","86","","","M","2","","9","","","","101.20","","","","","","NA"
"-123.53","48.30","RACE ROCKS","1016640","2018-12-02 00:00","2018","12","02","00:00","6.6","","3.9","","83","","","M","3","","6","","","","101.23","","","","","","NA"
"-123.53","48.30","RACE ROCKS","1016640","2018-12-02 01:00","2018","12","02","01:00","6.3","","3.9","","84","","","M","5","","5","","","","101.25","","","","","","NA"
"-123.53","48.30","RACE ROCKS","1016640","2018-12-02 02:00","2018","12","02","02:00","6.5","","3.7","","83","","","M","3","","13","","","","101.27","","","","","","NA"
"-123.53","48.30","RACE ROCKS","1016640","2018-12-02 03:00","2018","12","02","03:00","6.6","","3.8","","82","","","M","2","","19","","","","101.29","","","","","","NA"
"-123.53","48.30","RACE ROCKS","1016640","2018-12-02 04:00","2018","12","02","04:00","6.4","","3.5","","82","","","M","2","","21","","","","101.32","","","","","","NA"
"-123.53","48.30","RACE ROCKS","1016640","2018-12-02 05:00","2018","12","02","05:00","6.4","","3.4","","81","","","M","2","","32","","","","101.34","","","","","","NA"
"-123.53","48.30","RACE ROCKS","1016640","2018-12-02 06:00","2018","12","02","06:00","6.4","","3.7","","83","","","M","2","","31","","","","101.42","","","","","","NA"
"-123.53","48.30","RACE ROCKS","1016640","2018-12-02 07:00","2018","12","02","07:00","6.4","","4.1","","85","","","M","2","","25","","","","101.50","","","","","","NA"
"-123.53","48.30","RACE ROCKS","1016640","2018-12-02 08:00","2018","12","02","08:00","6.2","","3.7","","84","","","M","4","","19","","","","101.55","","","","","","NA"
"-123.53","48.30","RACE ROCKS","1016640","2018-12-02 09:00","2018","12","02","09:00","6.1","","3.6","","84","","","M","2","","25","","","","101.62","","","","","","NA"
"-123.53","48.30","RACE ROCKS","1016640","2018-12-02 10:00","2018","12","02","10:00","6.0","","3.4","","84","","","M","3","","25","","","","101.69","","","","","","NA"
"-123.53","48.30","RACE ROCKS","1016640","2018-12-02 11:00","2018","12","02","11:00","6.3","","3.1","","80","","","M","4","","25","","","","101.72","","","","","","NA"
"-123.53","48.30","RACE ROCKS","1016640","2018-12-02 12:00","2018","12","02","12:00","6.8","","2.8","","76","","","M","4","","26","","","","101.73","","","","","","NA"
"-123.53","48.30","RACE ROCKS","1016640","2018-12-02 13:00","2018","12","02","13:00","6.8","","2.4","","73","","","M","5","","25","","","","101.78","","","","","","NA"
"-123.53","48.30","RACE ROCKS","1016640","2018-12-02 14:00","2018","12","02","14:00","7.0","","2.4","","72","","","M","5","","21","","","","101.80","","","","","","NA"
"-123.53","48.30","RACE ROCKS","1016640","2018-12-02 15:00","2018","12","02","15:00","6.9","","2.2","","72","","","M","6","","17","","","","101.84","","","","","","NA"
"-123.53","48.30","RACE ROCKS","1016640","2018-12-02 16:00","2018","12","02","16:00","6.9","","2.2","","72","","","M","8","","17","","","","101.89","","","","","","NA"
"-123.53","48.30","RACE ROCKS","1016640","2018-12-02 17:00","2018","12","02","17:00","6.9","","2.2","","72","","","M","8","","13","","","","101.92","","","","","","NA"
"-123.53","48.30","RACE ROCKS","1016640","2018-12-02 18:00","2018","12","02","18:00","6.4","","2.8","","78","","","M","36","","12","","","","101.96","","","","","","NA"
"-123.53","48.30","RACE ROCKS","1016640","2018-12-02 19:00","2018","12","02","19:00","6.0","","2.5","","78","","","M","36","","22","","","","101.99","","","","","","NA"
"-123.53","48.30","RACE ROCKS","1016640","2018-12-02 20:00","2018","12","02","20:00","5.5","","2.5","","81","","","M","36","","18","","","","102.01","","","","","","NA"
"-123.53","48.30","RACE ROCKS","1016640","2018-12-02 21:00","2018","12","02","21:00","5.3","","3.1","","86","","","M","1","","21","","","","102.04","","","","","","NA"
"-123.53","48.30","RACE ROCKS","1016640","2018-12-02 22:00","2018","12","02","22:00","5.7","","3.5","","86","","","M","36","","26","","","","102.08","","","","","","NA"
"-123.53","48.30","RACE ROCKS","1016640","2018-12-02 23:00","2018","12","02","23:00","5.9","","2.7","","80","","","M","36","","25","","","","102.15","","","","","","NA"
"-123.53","48.30","RACE ROCKS","1016640","2018-12-03 00:00","2018","12","03","00:00","5.8","","2.2","","77","","","M","36","","25","","","","102.19","","","","","","NA"
"-123.53","48.30","RACE ROCKS","1016640","2018-12-03 01:00","2018","12","03","01:00","6.0","","1.5","","73","","","M","36","","25","","","","102.19","","","","","","NA"
"-123.53","48.30","RACE ROCKS","1016640","2018-12-03 02:00","2018","12","03","02:00","5.7","","0.4","","68","","","M","1","","31","","","","102.23","","","","","","NA"
"-123.53","48.30","RACE ROCKS","1016640","2018-12-03 03:00","2018","12","03","03:00","5.4","","0.3","","70","","","M","1","","31","","","","102.26","","","","","","NA"
"-123.53","48.30","RACE ROCKS","1016640","2018-12-03 04:00","2018","12","03","04:00","4.9","","0.3","","72","","","M","1","","28","","","","102.29","","","","","","NA"
"-123.53","48.30","RACE ROCKS","1016640","2018-12-03 05:00","2018","12","03","05:00","4.8","","0.2","","72","","","M","1","","29","","","","102.31","","","","","","NA"
"-123.53","48.30","RACE ROCKS","1016640","2018-12-03 06:00","2018","12","03","06:00","4.7","","0.3","","73","","","M","1","","33","","","","102.31","","","","","","NA"
"-123.53","48.30","RACE ROCKS","1016640","2018-12-03 07:00","2018","12","03","07:00","4.8","","0.4","","73","","","M","1","","34","","","","102.34","","","","","","NA"
"-123.53","48.30","RACE ROCKS","1016640","2018-12-03 08:00","2018","12","03","08:00","4.9","","0.6","","74","","","M","2","","36","","","","102.37","","","","","","NA"
"-123.53","48.30","RACE ROCKS","1016640","2018-12-03 09:00","2018","12","03","09:00","4.7","","0.6","","75","","","M","3","","28","","","","102.44","","","","","","NA"
"-123.53","48.30","RACE ROCKS","1016640","2018-12-03 10:00","2018","12","03","10:00","5.0","","-0.2","","69","","","M","2","","30","","","","102.47","","","","","","NA"
"-123.53","48.30","RACE ROCKS","1016640","2018-12-03 11:00","2018","12","03","11:00","5.5","","-1.0","","63","","","M","3","","34","","","","102.46","","","","","","NA"
"-123.53","48.30","RACE ROCKS","1016640","2018-12-03 12:00","2018","12","03","12:00","5.7","","-0.4","","65","","","M","4","","30","","","","102.46","","","","","","NA"
"-123.53","48.30","RACE ROCKS","1016640","2018-12-03 13:00","2018","12","03","13:00","6.1","","-1.7","","57","","","M","4","","31","","","","102.44","","","","","","NA"
"-123.53","48.30","RACE ROCKS","1016640","2018-12-03 14:00","2018","12","03","14:00","6.4","","-3.2","","50","","","M","4","","34","","","","102.43","","","","","","NA"
"-123.53","48.30","RACE ROCKS","1016640","2018-12-03 15:00","2018","12","03","15:00","6.5","","-2.7","","52","","","M","3","","29","","","","102.43","","","","","","NA"
"-123.53","48.30","RACE ROCKS","1016640","2018-12-03 16:00","2018","12","03","16:00","6.4","","-1.7","","56","","","M","4","","28","","","","102.44","","","","","","NA"
"-123.53","48.30","RACE ROCKS","1016640","2018-12-03 17:00","2018","12","03","17:00","6.1","","-1.4","","59","","","M","2","","25","","","","102.47","","","","","","NA"
"-123.53","48.30","RACE ROCKS","1016640","2018-12-03 18:00","2018","12","03","18:00","5.6","","-1.0","","62","","","M","3","","25","","","","102.47","","","","","","NA"
"-123.53","48.30","RACE ROCKS","1016640","2018-12-03 19:00","2018","12","03","19:00","5.4","","0.3","","70","","","M","3","","28","","","","102.48","","","","","","NA"
"-123.53","48.30","RACE ROCKS","1016640","2018-12-03 20:00","2018","12","03","20:00","5.5","","-2.4","","57","","","M","3","","30","","","","102.51","","","","","","NA"
"-123.53","48.30","RACE ROCKS","1016640","2018-12-03 21:00","2018","12","03","21:00","5.3","","-2.0","","59","","","M","3","","34","","","","102.48","","","","","","NA"
"-123.53","48.30","RACE ROCKS","1016640","2018-12-03 22:00","2018","12","03","22:00","5.1","","-2.1","","60","","","M","2","","37","","","","102.45","","","","","","NA"
"-123.53","48.30","RACE ROCKS","1016640","2018-12-03 23:00","2018","12","03","23:00","5.1","","-1.3","","64","","","M","2","","36","","","","102.48","","","","","","NA"
"-123.53","48.30","RACE ROCKS","1016640","2018-12-04 00:00","2018","12","04","00:00","4.5","","-2.1","","62","","","M","1","","32","","","","102.48","","","","","","NA"
"-123.53","48.30","RACE ROCKS","1016640","2018-12-04 01:00","2018","12","04","01:00","4.6","","-1.6","","64","","","M","2","","36","","","","102.43","","","","","","NA"
"-123.53","48.30","RACE ROCKS","1016640","2018-12-04 02:00","2018","12","04","02:00","4.3","","-1.3","","67","","","M","1","","38","","","","102.45","","","","","","NA"
"-123.53","48.30","RACE ROCKS","1016640","2018-12-04 03:00","2018","12","04","03:00","4.1","","-1.9","","65","","","M","1","","43","","","","102.49","","","","","","NA"
"-123.53","48.30","RACE ROCKS","1016640","2018-12-04 04:00","2018","12","04","04:00","4.2","","-1.9","","65","","","M","2","","38","","","","102.46","","","","","","NA"
"-123.53","48.30","RACE ROCKS","1016640","2018-12-04 05:00","2018","12","04","05:00","4.4","","-0.7","","69","","","M","4","","30","","","","102.47","","","","","","NA"
"-123.53","48.30","RACE ROCKS","1016640","2018-12-04 06:00","2018","12","04","06:00","3.8","","-1.3","","70","","","M","4","","34","","","","102.42","","","","","","NA"
"-123.53","48.30","RACE ROCKS","1016640","2018-12-04 07:00","2018","12","04","07:00","3.4","","-1.2","","71","","","M","4","","28","","","","102.44","","","","","","NA"
"-123.53","48.30","RACE ROCKS","1016640","2018-12-04 08:00","2018","12","04","08:00","3.4","","-0.3","","77","","","M","3","","27","","","","102.43","","","","","","NA"
"-123.53","48.30","RACE ROCKS","1016640","2018-12-04 09:00","2018","12","04","09:00","3.6","","0.5","","80","","","M","4","","26","","","","102.45","","","","","","NA"
"-123.53","48.30","RACE ROCKS","1016640","2018-12-04 10:00","2018","12","04","10:00","3.9","","-0.9","","71","","","M","4","","30","","","","102.43","","","","","","NA"
"-123.53","48.30","RACE ROCKS","1016640","2018-12-04 11:00","2018","12","04","11:00","4.4","","-1.0","","68","","","M","4","","29","","","","102.41","","","","","","NA"
"-123.53","48.30","RACE ROCKS","1016640","2018-12-04 12:00","2018","12","04","12:00","4.8","","-2.3","","60","","","M","5","","33","","","","102.34","","","","","","NA"
"-123.53","48.30","RACE ROCKS","1016640","2018-12-04 13:00","2018","12","04","13:00","4.9","","-1.5","","63","","","M","4","","31","","","","102.26","","","","","","NA"
"-123.53","48.30","RACE ROCKS","1016640","2018-12-04 14:00","2018","12","04","14:00","4.7","","-3.8","","54","","","M","3","","36","","","","102.17","","","","","","NA"
"-123.53","48.30","RACE ROCKS","1016640","2018-12-04 15:00","2018","12","04","15:00","4.9","","-2.0","","61","","","M","4","","34","","","","102.15","","","","","","NA"
"-123.53","48.30","RACE ROCKS","1016640","2018-12-04 16:00","2018","12","04","16:00","4.6","","-1.9","","63","","","M","4","","32","","","","102.11","","","","","","NA"
"-123.53","48.30","RACE ROCKS","1016640","2018-12-04 17:00","2018","12","04","17:00","4.2","","-1.9","","64","","","M","3","","29","","","","102.06","","","","","","NA"
"-123.53","48.30","RACE ROCKS","1016640","2018-12-04 18:00","2018","12","04","18:00","3.7","","-0.7","","73","","","M","3","","30","","","","101.99","","","","","","NA"
"-123.53","48.30","RACE ROCKS","1016640","2018-12-04 19:00","2018","12","04","19:00","3.7","","-1.1","","71","","","M","3","","29","","","","101.97","","","","","","NA"
"-123.53","48.30","RACE ROCKS","1016640","2018-12-04 20:00","2018","12","04","20:00","3.5","","-0.7","","74","","","M","3","","25","","","","101.98","","","","","","NA"
"-123.53","48.30","RACE ROCKS","1016640","2018-12-04 21:00","2018","12","04","21:00","3.7","","-1.0","","71","","","M","2","","24","","","","101.96","","","","","","NA"
"-123.53","48.30","RACE ROCKS","1016640","2018-12-04 22:00","2018","12","04","22:00","3.7","","-1.5","","69","","","M","3","","24","","","","101.96","","","","","","NA"
"-123.53","48.30","RACE ROCKS","1016640","2018-12-04 23:00","2018","12","04","23:00","3.7","","-0.7","","73","","","M","3","","24","","","","101.97","","","","","","NA"
"-123.53","48.30","RACE ROCKS","1016640","2018-12-05 00:00","2018","12","05","00:00","3.6","","-0.6","","74","","","M","5","","21","","","","101.96","","","","","","NA"
"-123.53","48.30","RACE ROCKS","1016640","2018-12-05 01:00","2018","12","05","01:00","3.7","","-0.6","","73","","","M","6","","20","","","","101.95","","","","","","NA"
"-123.53","48.30","RACE ROCKS","1016640","2018-12-05 02:00","2018","12","05","02:00","3.4","","-0.3","","77","","","M","6","","25","","","","101.95","","","","","","NA"
"-123.53","48.30","RACE ROCKS","1016640","2018-12-05 03:00","2018","12","05","03:00","3.4","","0.1","","79","","","M","6","","24","","","","101.96","","","","","","NA"
"-123.53","48.30","RACE ROCKS","1016640","2018-12-05 04:00","2018","12","05","04:00","3.3","","0.3","","81","","","M","6","","24","","","","101.93","","","","","","NA"
"-123.53","48.30","RACE ROCKS","1016640","2018-12-05 05:00","2018","12","05","05:00","3.1","","0.1","","81","","","M","4","","23","","","","101.90","","","","","","NA"
"-123.53","48.30","RACE ROCKS","1016640","2018-12-05 06:00","2018","12","05","06:00","3.4","","0.3","","80","","","M","4","","27","","","","101.88","","","","","","NA"
"-123.53","48.30","RACE ROCKS","1016640","2018-12-05 07:00","2018","12","05","07:00","3.8","","0.2","","77","","","M","4","","28","","","","101.87","","","","","","NA"
"-123.53","48.30","RACE ROCKS","1016640","2018-12-05 08:00","2018","12","05","08:00","3.5","","-0.4","","76","","","M","5","","20","","","","101.88","","","","","","NA"
"-123.53","48.30","RACE ROCKS","1016640","2018-12-05 09:00","2018","12","05","09:00","3.9","","-0.6","","72","","","M","5","","21","","","","101.91","","","","","","NA"
"-123.53","48.30","RACE ROCKS","1016640","2018-12-05 10:00","2018","12","05","10:00","4.6","","-0.4","","70","","","M","4","","28","","","","101.92","","","","","","NA"
"-123.53","48.30","RACE ROCKS","1016640","2018-12-05 11:00","2018","12","05","11:00","4.8","","-0.7","","67","","","M","4","","24","","","","101.92","","","","","","NA"
"-123.53","48.30","RACE ROCKS","1016640","2018-12-05 12:00","2018","12","05","12:00","5.8","","-0.6","","63","","","M","4","","27","","","","101.85","","","","","","NA"
"-123.53","48.30","RACE ROCKS","1016640","2018-12-05 13:00","2018","12","05","13:00","6.3","","-1.7","","57","","","M","4","","35","","","","101.80","","","","","","NA"
"-123.53","48.30","RACE ROCKS","1016640","2018-12-05 14:00","2018","12","05","14:00","6.8","","-2.7","","51","","","M","9","","21","","","","101.80","","","","","","NA"
"-123.53","48.30","RACE ROCKS","1016640","2018-12-05 15:00","2018","12","05","15:00","6.4","","-2.7","","52","","","M","10","","16","","","","101.78","","","","","","NA"
"-123.53","48.30","RACE ROCKS","1016640","2018-12-05 16:00","2018","12","05","16:00","6.1","","-2.1","","55","","","M","7","","19","","","","101.77","","","","","","NA"
"-123.53","48.30","RACE ROCKS","1016640","2018-12-05 17:00","2018","12","05","17:00","5.7","","-2.2","","57","","","M","9","","24","","","","101.77","","","","","","NA"
"-123.53","48.30","RACE ROCKS","1016640","2018-12-05 18:00","2018","12","05","18:00","5.9","","-1.3","","60","","","M","7","","23","","","","101.76","","","","","","NA"
"-123.53","48.30","RACE ROCKS","1016640","2018-12-05 19:00","2018","12","05","19:00","5.5","","-0.7","","65","","","M","3","","22","","","","101.76","","","","","","NA"
"-123.53","48.30","RACE ROCKS","1016640","2018-12-05 20:00","2018","12","05","20:00","5.6","","-0.8","","63","","","M","3","","22","","","","101.77","","","","","","NA"
"-123.53","48.30","RACE ROCKS","1016640","2018-12-05 21:00","2018","12","05","21:00","4.9","","-2.7","","58","","","M","36","","28","","","","101.78","","","","","","NA"
"-123.53","48.30","RACE ROCKS","1016640","2018-12-05 22:00","2018","12","05","22:00","5.0","","-1.7","","62","","","M","1","","33","","","","101.78","","","","","","NA"
"-123.53","48.30","RACE ROCKS","1016640","2018-12-05 23:00","2018","12","05","23:00","4.8","","-1.6","","63","","","M","1","","36","","","","101.80","","","","","","NA"
"-123.53","48.30","RACE ROCKS","1016640","2018-12-06 00:00","2018","12","06","00:00","4.5","","-1.8","","64","","","M","1","","36","","","","101.78","","","","","","NA"
"-123.53","48.30","RACE ROCKS","1016640","2018-12-06 01:00","2018","12","06","01:00","4.4","","-0.9","","68","","","M","2","","33","","","","101.75","","","","","","NA"
"-123.53","48.30","RACE ROCKS","1016640","2018-12-06 02:00","2018","12","06","02:00","4.5","","-0.6","","70","","","M","3","","29","","","","101.76","","","","","","NA"
"-123.53","48.30","RACE ROCKS","1016640","2018-12-06 03:00","2018","12","06","03:00","4.3","","-0.2","","72","","","M","2","","25","","","","101.78","","","","","","NA"
"-123.53","48.30","RACE ROCKS","1016640","2018-12-06 04:00","2018","12","06","04:00","4.4","","-0.6","","70","","","M","2","","31","","","","101.78","","","","","","NA"
"-123.53","48.30","RACE ROCKS","1016640","2018-12-06 05:00","2018","12","06","05:00","3.9","","-1.7","","67","","","M","1","","38","","","","101.75","","","","","","NA"
"-123.53","48.30","RACE ROCKS","1016640","2018-12-06 06:00","2018","12","06","06:00","3.4","","-1.2","","72","","","M","2","","39","","","","101.72","","","","","","NA"
"-123.53","48.30","RACE ROCKS","1016640","2018-12-06 07:00","2018","12","06","07:00","3.2","","-1.0","","74","","","M","2","","37","","","","101.68","","","","","","NA"
"-123.53","48.30","RACE ROCKS","1016640","2018-12-06 08:00","2018","12","06","08:00","2.7","","-2.0","","71","","","M","2","","40","","","","101.69","","","","","","NA"
"-123.53","48.30","RACE ROCKS","1016640","2018-12-06 09:00","2018","12","06","09:00","2.9","","-1.5","","72","","","M","1","","39","","","","101.73","","","","","","NA"
"-123.53","48.30","RACE ROCKS","1016640","2018-12-06 10:00","2018","12","06","10:00","3.4","","-1.2","","72","","","M","3","","31","","","","101.79","","","","","","NA"
"-123.53","48.30","RACE ROCKS","1016640","2018-12-06 11:00","2018","12","06","11:00","3.8","","-1.3","","70","","","M","3","","27","","","","101.76","","","","","","NA"
"-123.53","48.30","RACE ROCKS","1016640","2018-12-06 12:00","2018","12","06","12:00","4.1","","-2.1","","64","","","M","4","","27","","","","101.73","","","","","","NA"
"-123.53","48.30","RACE ROCKS","1016640","2018-12-06 13:00","2018","12","06","13:00","4.9","","-2.3","","60","","","M","6","","24","","","","101.69","","","","","","NA"
"-123.53","48.30","RACE ROCKS","1016640","2018-12-06 14:00","2018","12","06","14:00","4.9","","-5.7","","46","","","M","6","","25","","","","101.65","","","","","","NA"
"-123.53","48.30","RACE ROCKS","1016640","2018-12-06 15:00","2018","12","06","15:00","5.2","","-4.3","","50","","","M","6","","25","","","","101.59","","","","","","NA"
"-123.53","48.30","RACE ROCKS","1016640","2018-12-06 16:00","2018","12","06","16:00","4.8","","-4.0","","53","","","M","4","","34","","","","101.56","","","","","","NA"
"-123.53","48.30","RACE ROCKS","1016640","2018-12-06 17:00","2018","12","06","17:00","4.4","","-2.6","","60","","","M","3","","34","","","","101.54","","","","","","NA"
"-123.53","48.30","RACE ROCKS","1016640","2018-12-06 18:00","2018","12","06","18:00","3.7","","-1.8","","67","","","M","3","","33","","","","101.56","","","","","","NA"
"-123.53","48.30","RACE ROCKS","1016640","2018-12-06 19:00","2018","12","06","19:00","3.7","","-2.2","","65","","","M","3","","29","","","","101.55","","","","","","NA"
"-123.53","48.30","RACE ROCKS","1016640","2018-12-06 20:00","2018","12","06","20:00","3.8","","-1.8","","67","","","M","1","","32","","","","101.58","","","","","","NA"
"-123.53","48.30","RACE ROCKS","1016640","2018-12-06 21:00","2018","12","06","21:00","3.9","","-1.8","","66","","","M","2","","33","","","","101.55","","","","","","NA"
"-123.53","48.30","RACE ROCKS","1016640","2018-12-06 22:00","2018","12","06","22:00","3.6","","-2.0","","67","","","M","2","","36","","","","101.51","","","","","","NA"
"-123.53","48.30","RACE ROCKS","1016640","2018-12-06 23:00","2018","12","06","23:00"
"-123.53","48.30","RACE ROCKS","1016640","2018-12-07 00:00","2018","12","07","00:00"
"-123.53","48.30","RACE ROCKS","1016640","2018-12-07 01:00","2018","12","07","01:00"
"-123.53","48.30","RACE ROCKS","1016640","2018-12-07 02:00","2018","12","07","02:00"
"-123.53","48.30","RACE ROCKS","1016640","2018-12-07 03:00","2018","12","07","03:00"
"-123.53","48.30","RACE ROCKS","1016640","2018-12-07 04:00","2018","12","07","04:00"
"-123.53","48.30","RACE ROCKS","1016640","2018-12-07 05:00","2018","12","07","05:00"
"-123.53","48.30","RACE ROCKS","1016640","2018-12-07 06:00","2018","12","07","06:00"
"-123.53","48.30","RACE ROCKS","1016640","2018-12-07 07:00","2018","12","07","07:00"
"-123.53","48.30","RACE ROCKS","1016640","2018-12-07 08:00","2018","12","07","08:00"
"-123.53","48.30","RACE ROCKS","1016640","2018-12-07 09:00","2018","12","07","09:00"
"-123.53","48.30","RACE ROCKS","1016640","2018-12-07 10:00","2018","12","07","10:00"
"-123.53","48.30","RACE ROCKS","1016640","2018-12-07 11:00","2018","12","07","11:00"
"-123.53","48.30","RACE ROCKS","1016640","2018-12-07 12:00","2018","12","07","12:00"
"-123.53","48.30","RACE ROCKS","1016640","2018-12-07 13:00","2018","12","07","13:00"
"-123.53","48.30","RACE ROCKS","1016640","2018-12-07 14:00","2018","12","07","14:00","5.4","","-3.1","","54","","","M","7","","30","","","","101.60","","","","","","NA"
"-123.53","48.30","RACE ROCKS","1016640","2018-12-07 15:00","2018","12","07","15:00","5.7","","-2.1","","57","","","M","6","","30","","","","101.59","","","","","","NA"
"-123.53","48.30","RACE ROCKS","1016640","2018-12-07 16:00","2018","12","07","16:00","5.2","","-0.8","","65","","","M","3","","29","","","","101.61","","","","","","NA"
"-123.53","48.30","RACE ROCKS","1016640","2018-12-07 17:00","2018","12","07","17:00","5.0","","-1.7","","62","","","M","1","","32","","","","101.65","","","","","","NA"
"-123.53","48.30","RACE ROCKS","1016640","2018-12-07 18:00","2018","12","07","18:00","5.0","","-2.1","","60","","","M","1","","34","","","","101.66","","","","","","NA"
"-123.53","48.30","RACE ROCKS","1016640","2018-12-07 19:00","2018","12","07","19:00","5.4","","-1.8","","60","","","M","36","","33","","","","101.69","","","","","","NA"
"-123.53","48.30","RACE ROCKS","1016640","2018-12-07 20:00","2018","12","07","20:00","5.8","","-2.0","","58","","","M","2","","35","","","","101.68","","","","","","NA"
"-123.53","48.30","RACE ROCKS","1016640","2018-12-07 21:00","2018","12","07","21:00","5.6","","-1.3","","61","","","M","2","","38","","","","101.70","","","","","","NA"
"-123.53","48.30","RACE ROCKS","1016640","2018-12-07 22:00","2018","12","07","22:00","5.7","","-1.3","","61","","","M","2","","35","","","","101.75","","","","","","NA"
"-123.53","48.30","RACE ROCKS","1016640","2018-12-07 23:00","2018","12","07","23:00","5.6","","-0.7","","64","","","M","2","","31","","","","101.80","","","","","","NA"
"-123.53","48.30","RACE ROCKS","1016640","2018-12-08 00:00","2018","12","08","00:00","5.6","","-0.7","","64","","","M","2","","37","","","","101.78","","","","","","NA"
"-123.53","48.30","RACE ROCKS","1016640","2018-12-08 01:00","2018","12","08","01:00","5.6","","-0.1","","67","","","M","2","","40","","","","101.78","","","","","","NA"
"-123.53","48.30","RACE ROCKS","1016640","2018-12-08 02:00","2018","12","08","02:00","5.7","","0.0","","67","","","M","2","","37","","","","101.82","","","","","","NA"
"-123.53","48.30","RACE ROCKS","1016640","2018-12-08 03:00","2018","12","08","03:00","5.7","","-0.1","","66","","","M","2","","36","","","","101.87","","","","","","NA"
"-123.53","48.30","RACE ROCKS","1016640","2018-12-08 04:00","2018","12","08","04:00","5.7","","-0.3","","65","","","M","1","","46","","","","101.87","","","","","","NA"
"-123.53","48.30","RACE ROCKS","1016640","2018-12-08 05:00","2018","12","08","05:00"
"-123.53","48.30","RACE ROCKS","1016640","2018-12-08 06:00","2018","12","08","06:00"
"-123.53","48.30","RACE ROCKS","1016640","2018-12-08 07:00","2018","12","08","07:00"
"-123.53","48.30","RACE ROCKS","1016640","2018-12-08 08:00","2018","12","08","08:00"
"-123.53","48.30","RACE ROCKS","1016640","2018-12-08 09:00","2018","12","08","09:00","6.1","","2.9","","80","","","M","1","","37","","","","102.14","","","","","","NA"
"-123.53","48.30","RACE ROCKS","1016640","2018-12-08 10:00","2018","12","08","10:00","6.4","","3.0","","78","","","M","1","","31","","","","102.20","","","","","","NA"
"-123.53","48.30","RACE ROCKS","1016640","2018-12-08 11:00","2018","12","08","11:00","6.7","","3.0","","77","","","M","2","","32","","","","102.25","","","","","","NA"
"-123.53","48.30","RACE ROCKS","1016640","2018-12-08 12:00","2018","12","08","12:00","6.9","","2.8","","75","","","M","4","","23","","","","102.27","","","","","","NA"
"-123.53","48.30","RACE ROCKS","1016640","2018-12-08 13:00","2018","12","08","13:00","6.8","","3.6","","80","","","M","7","","25","","","","102.25","","","","","","NA"
"-123.53","48.30","RACE ROCKS","1016640","2018-12-08 14:00","2018","12","08","14:00","6.8","","3.6","","80","","","M","6","","30","","","","102.21","","","","","","NA"
"-123.53","48.30","RACE ROCKS","1016640","2018-12-08 15:00","2018","12","08","15:00","7.0","","3.9","","81","","","M","6","","30","","","","102.23","","","","","","NA"
"-123.53","48.30","RACE ROCKS","1016640","2018-12-08 16:00","2018","12","08","16:00","7.5","","4.3","","80","","","M","6","","25","","","","102.23","","","","","","NA"
"-123.53","48.30","RACE ROCKS","1016640","2018-12-08 17:00","2018","12","08","17:00","7.5","","4.1","","79","","","M","6","","24","","","","102.20","","","","","","NA"
"-123.53","48.30","RACE ROCKS","1016640","2018-12-08 18:00","2018","12","08","18:00","7.4","","4.0","","79","","","M","2","","28","","","","102.14","","","","","","NA"
"-123.53","48.30","RACE ROCKS","1016640","2018-12-08 19:00","2018","12","08","19:00","7.0","","3.9","","81","","","M","3","","35","","","","102.08","","","","","","NA"
"-123.53","48.30","RACE ROCKS","1016640","2018-12-08 20:00","2018","12","08","20:00","7.1","","4.4","","83","","","M","7","","33","","","","102.04","","","","","","NA"
"-123.53","48.30","RACE ROCKS","1016640","2018-12-08 21:00","2018","12","08","21:00","6.7","","3.7","","81","","","M","3","","38","","","","101.92","","","","","","NA"
"-123.53","48.30","RACE ROCKS","1016640","2018-12-08 22:00","2018","12","08","22:00","7.3","","3.3","","76","","","M","2","","40","","","","101.92","","","","","","NA"
"-123.53","48.30","RACE ROCKS","1016640","2018-12-08 23:00","2018","12","08","23:00","8.1","","3.0","","70","","","M","6","","52","","","","101.83","","","","","","NA"
"-123.53","48.30","RACE ROCKS","1016640","2018-12-09 00:00","2018","12","09","00:00","7.0","","3.4","","78","","","M","7","","27","","","","101.83","","","","","","NA"
"-123.53","48.30","RACE ROCKS","1016640","2018-12-09 01:00","2018","12","09","01:00","8.2","","2.9","","69","","","M","5","","48","","","","101.65","","","","","","NA"
"-123.53","48.30","RACE ROCKS","1016640","2018-12-09 02:00","2018","12","09","02:00","7.9","","3.2","","72","","","M","6","","39","","","","101.69","","","","","","NA"
"-123.53","48.30","RACE ROCKS","1016640","2018-12-09 03:00","2018","12","09","03:00","8.6","","3.0","","68","","","M","5","","48","","","","101.50","","","","","","NA"
"-123.53","48.30","RACE ROCKS","1016640","2018-12-09 04:00","2018","12","09","04:00","8.7","","2.3","","64","","","M","6","","42","","","","101.38","","","","","","NA"
"-123.53","48.30","RACE ROCKS","1016640","2018-12-09 05:00","2018","12","09","05:00","8.5","","2.9","","68","","","M","4","","18","","","","101.33","","","","","","NA"
"-123.53","48.30","RACE ROCKS","1016640","2018-12-09 06:00","2018","12","09","06:00","9.1","","5.8","","80","","","M","2","","14","","","","101.25","","","","","","NA"
"-123.53","48.30","RACE ROCKS","1016640","2018-12-09 07:00","2018","12","09","07:00","8.3","","4.9","","79","","","M","2","","21","","","","101.24","","","","","","NA"
"-123.53","48.30","RACE ROCKS","1016640","2018-12-09 08:00","2018","12","09","08:00","8.0","","5.4","","84","","","M","1","","34","","","","101.24","","","","","","NA"
"-123.53","48.30","RACE ROCKS","1016640","2018-12-09 09:00","2018","12","09","09:00","8.1","","5.9","","86","","","M","1","","29","","","","101.30","","","","","","NA"
"-123.53","48.30","RACE ROCKS","1016640","2018-12-09 10:00","2018","12","09","10:00","7.8","","6.8","","93","","","M","36","","30","","","","101.34","","","","","","NA"
"-123.53","48.30","RACE ROCKS","1016640","2018-12-09 11:00","2018","12","09","11:00","8.1","","6.9","","92","","","M","36","","34","","","","101.34","","","","","","NA"
"-123.53","48.30","RACE ROCKS","1016640","2018-12-09 12:00","2018","12","09","12:00","8.3","","6.9","","91","","","M","35","","37","","","","101.31","","","","","","NA"
"-123.53","48.30","RACE ROCKS","1016640","2018-12-09 13:00","2018","12","09","13:00","8.3","","6.7","","90","","","M","36","","43","","","","101.28","","","","","","NA"
"-123.53","48.30","RACE ROCKS","1016640","2018-12-09 14:00","2018","12","09","14:00","7.8","","7.0","","95","","","M","35","","35","","","","101.30","","","","","","NA"
"-123.53","48.30","RACE ROCKS","1016640","2018-12-09 15:00","2018","12","09","15:00","7.6","","7.3","","98","","","M","36","","39","","","","101.26","","","","","","NA"
"-123.53","48.30","RACE ROCKS","1016640","2018-12-09 16:00","2018","12","09","16:00","7.4","","7.2","","98","","","M","36","","35","","","","101.29","","","","","","NA"
"-123.53","48.30","RACE ROCKS","1016640","2018-12-09 17:00","2018","12","09","17:00","7.2","","6.9","","98","","","M","35","","33","","","","101.33","","","","","","NA"
"-123.53","48.30","RACE ROCKS","1016640","2018-12-09 18:00","2018","12","09","18:00","7.2","","6.8","","97","","","M","35","","18","","","","101.36","","","","","","NA"
"-123.53","48.30","RACE ROCKS","1016640","2018-12-09 19:00","2018","12","09","19:00","7.5","","6.9","","96","","","M","36","","3","","","","101.38","","","","","","NA"
"-123.53","48.30","RACE ROCKS","1016640","2018-12-09 20:00","2018","12","09","20:00","7.5","","7.3","","99","","","M","2","","5","","","","101.42","","","","","","NA"
"-123.53","48.30","RACE ROCKS","1016640","2018-12-09 21:00","2018","12","09","21:00","7.6","","7.5","","99","","","M","3","","9","","","","101.47","","","","","","NA"
"-123.53","48.30","RACE ROCKS","1016640","2018-12-09 22:00","2018","12","09","22:00","7.5","","7.5","","100","","","M","5","","7","","","","101.52","","","","","","NA"
"-123.53","48.30","RACE ROCKS","1016640","2018-12-09 23:00","2018","12","09","23:00","7.6","","7.6","","100","","","M","6","","1","","","","101.60","","","","","","NA"
"-123.53","48.30","RACE ROCKS","1016640","2018-12-10 00:00","2018","12","10","00:00","7.5","","7.5","","100","","","M","12","","4","","","","101.61","","","","","","NA"
"-123.53","48.30","RACE ROCKS","1016640","2018-12-10 01:00","2018","12","10","01:00","7.5","","7.5","","100","","","M","6","","5","","","","101.62","","","","","","NA"
"-123.53","48.30","RACE ROCKS","1016640","2018-12-10 02:00","2018","12","10","02:00","7.5","","7.1","","98","","","M","19","","1","","","","101.66","","","","","","NA"
"-123.53","48.30","RACE ROCKS","1016640","2018-12-10 03:00","2018","12","10","03:00","8.5","","4.6","","76","","","M","24","","45","","","","101.69","","","","","","NA"
"-123.53","48.30","RACE ROCKS","1016640","2018-12-10 04:00","2018","12","10","04:00","8.2","","5.2","","82","","","M","26","","19","","","","101.73","","","","","","NA"
"-123.53","48.30","RACE ROCKS","1016640","2018-12-10 05:00","2018","12","10","05:00","8.1","","6.0","","86","","","M","26","","10","","","","101.76","","","","","","NA"
"-123.53","48.30","RACE ROCKS","1016640","2018-12-10 06:00","2018","12","10","06:00","7.7","","5.9","","89","","","M","15","","15","","","","101.77","","","","","","NA"
"-123.53","48.30","RACE ROCKS","1016640","2018-12-10 07:00","2018","12","10","07:00","7.9","","6.0","","88","","","M","23","","11","","","","101.86","","","","","","NA"
"-123.53","48.30","RACE ROCKS","1016640","2018-12-10 08:00","2018","12","10","08:00","7.1","","5.4","","89","","","M","34","","6","","","","101.90","","","","","","NA"
"-123.53","48.30","RACE ROCKS","1016640","2018-12-10 09:00","2018","12","10","09:00","7.1","","5.5","","90","","","M","3","","7","","","","101.95","","","","","","NA"
"-123.53","48.30","RACE ROCKS","1016640","2018-12-10 10:00","2018","12","10","10:00","6.8","","5.4","","90","","","M","31","","5","","","","102.00","","","","","","NA"
"-123.53","48.30","RACE ROCKS","1016640","2018-12-10 11:00","2018","12","10","11:00","7.2","","5.6","","90","","","M","2","","3","","","","102.00","","","","","","NA"
"-123.53","48.30","RACE ROCKS","1016640","2018-12-10 12:00","2018","12","10","12:00","7.9","","4.9","","81","","","M","33","","3","","","","101.96","","","","","","NA"
"-123.53","48.30","RACE ROCKS","1016640","2018-12-10 13:00","2018","12","10","13:00","7.8","","5.5","","85","","","M","20","","2","","","","101.93","","","","","","NA"
"-123.53","48.30","RACE ROCKS","1016640","2018-12-10 14:00","2018","12","10","14:00","8.4","","5.2","","81","","","M","14","","11","","","","101.93","","","","","","NA"
"-123.53","48.30","RACE ROCKS","1016640","2018-12-10 15:00","2018","12","10","15:00","8.5","","4.9","","78","","","M","12","","14","","","","101.91","","","","","","NA"
"-123.53","48.30","RACE ROCKS","1016640","2018-12-10 16:00","2018","12","10","16:00","7.7","","5.9","","89","","","M","12","","18","","","","101.89","","","","","","NA"
"-123.53","48.30","RACE ROCKS","1016640","2018-12-10 17:00","2018","12","10","17:00","7.3","","6.4","","94","","","M","11","","17","","","","101.88","","","","","","NA"
"-123.53","48.30","RACE ROCKS","1016640","2018-12-10 18:00","2018","12","10","18:00","7.5","","6.3","","92","","","M","11","","13","","","","101.83","","","","","","NA"
"-123.53","48.30","RACE ROCKS","1016640","2018-12-10 19:00","2018","12","10","19:00","7.7","","6.0","","89","","","M","10","","18","","","","101.74","","","","","","NA"
"-123.53","48.30","RACE ROCKS","1016640","2018-12-10 20:00","2018","12","10","20:00","7.6","","5.7","","88","","","M","8","","18","","","","101.67","","","","","","NA"
"-123.53","48.30","RACE ROCKS","1016640","2018-12-10 21:00","2018","12","10","21:00","7.3","","5.7","","90","","","M","4","","24","","","","101.57","","","","","","NA"
"-123.53","48.30","RACE ROCKS","1016640","2018-12-10 22:00","2018","12","10","22:00","7.5","","5.9","","89","","","M","4","","17","","","","101.49","","","","","","NA"
"-123.53","48.30","RACE ROCKS","1016640","2018-12-10 23:00","2018","12","10","23:00","7.4","","5.9","","91","","","M","36","","29","","","","101.40","","","","","","NA"
"-123.53","48.30","RACE ROCKS","1016640","2018-12-11 00:00","2018","12","11","00:00","7.4","","5.9","","90","","","M","1","","29","","","","101.26","","","","","","NA"
"-123.53","48.30","RACE ROCKS","1016640","2018-12-11 01:00","2018","12","11","01:00","7.3","","4.9","","85","","","M","5","","17","","","","101.09","","","","","","NA"
"-123.53","48.30","RACE ROCKS","1016640","2018-12-11 02:00","2018","12","11","02:00","7.2","","6.0","","92","","","M","36","","29","","","","100.99","","","","","","NA"
"-123.53","48.30","RACE ROCKS","1016640","2018-12-11 03:00","2018","12","11","03:00","6.9","","6.1","","95","","","M","1","","29","","","","100.86","","","","","","NA"
"-123.53","48.30","RACE ROCKS","1016640","2018-12-11 04:00","2018","12","11","04:00","6.8","","5.3","","90","","","M","36","","33","","","","100.67","","","","","","NA"
"-123.53","48.30","RACE ROCKS","1016640","2018-12-11 05:00","2018","12","11","05:00","7.1","","5.2","","88","","","M","36","","33","","","","100.54","","","","","","NA"
"-123.53","48.30","RACE ROCKS","1016640","2018-12-11 06:00","2018","12","11","06:00","7.4","","5.6","","88","","","M","36","","33","","","","100.45","","","","","","NA"
"-123.53","48.30","RACE ROCKS","1016640","2018-12-11 07:00","2018","12","11","07:00","7.0","","6.6","","98","","","M","36","","26","","","","100.40","","","","","","NA"
"-123.53","48.30","RACE ROCKS","1016640","2018-12-11 08:00","2018","12","11","08:00","7.0","","6.9","","99","","","M","2","","21","","","","100.26","","","","","","NA"
"-123.53","48.30","RACE ROCKS","1016640","2018-12-11 09:00","2018","12","11","09:00","7.0","","6.8","","98","","","M","10","","13","","","","100.19","","","","","","NA"
"-123.53","48.30","RACE ROCKS","1016640","2018-12-11 10:00","2018","12","11","10:00","7.2","","7.0","","98","","","M","9","","10","","","","100.13","","","","","","NA"
"-123.53","48.30","RACE ROCKS","1016640","2018-12-11 11:00","2018","12","11","11:00","7.3","","7.2","","99","","","M","8","","10","","","","99.96","","","","","","NA"
"-123.53","48.30","RACE ROCKS","1016640","2018-12-11 12:00","2018","12","11","12:00","8.2","","7.1","","92","","","M","7","","5","","","","99.85","","","","","","NA"
"-123.53","48.30","RACE ROCKS","1016640","2018-12-11 13:00","2018","12","11","13:00","10.5","","8.7","","88","","","M","24","","38","","","","99.78","","","","","","NA"
"-123.53","48.30","RACE ROCKS","1016640","2018-12-11 14:00","2018","12","11","14:00","8.6","","7.2","","91","","","M","28","","52","","","","99.81","","","","","","NA"
"-123.53","48.30","RACE ROCKS","1016640","2018-12-11 15:00","2018","12","11","15:00","8.4","","8.0","","97","","","M","27","","44","","","","99.88","","","","","","NA"
"-123.53","48.30","RACE ROCKS","1016640","2018-12-11 16:00","2018","12","11","16:00","8.6","","7.0","","89","","","M","27","","42","","","","99.88","","","","","","NA"
"-123.53","48.30","RACE ROCKS","1016640","2018-12-11 17:00","2018","12","11","17:00","6.5","","5.1","","91","","","M","28","","54","","","","99.97","","","","","","NA"
"-123.53","48.30","RACE ROCKS","1016640","2018-12-11 18:00","2018","12","11","18:00","7.1","","4.6","","84","","","M","27","","80","","","","99.92","","","","","","NA"
"-123.53","48.30","RACE ROCKS","1016640","2018-12-11 19:00","2018","12","11","19:00","7.7","","5.1","","84","","","M","25","","56","","","","99.99","","","","","","NA"
"-123.53","48.30","RACE ROCKS","1016640","2018-12-11 20:00","2018","12","11","20:00","8.8","","4.4","","74","","","M","25","","67","","","","100.02","","","","","","NA"
"-123.53","48.30","RACE ROCKS","1016640","2018-12-11 21:00","2018","12","11","21:00","7.2","","4.4","","82","","","M","25","","62","","","","100.26","","","","","","NA"
"-123.53","48.30","RACE ROCKS","1016640","2018-12-11 22:00","2018","12","11","22:00","8.1","","4.9","","81","","","M","25","","61","","","","100.38","","","","","","NA"
"-123.53","48.30","RACE ROCKS","1016640","2018-12-11 23:00","2018","12","11","23:00","8.1","","4.9","","80","","","M","25","","53","","","","100.57","","","","","","NA"
"-123.53","48.30","RACE ROCKS","1016640","2018-12-12 00:00","2018","12","12","00:00","8.1","","4.7","","79","","","M","25","","57","","","","100.64","","","","","","NA"
"-123.53","48.30","RACE ROCKS","1016640","2018-12-12 01:00","2018","12","12","01:00","8.5","","4.3","","75","","","M","25","","56","","","","100.80","","","","","","NA"
"-123.53","48.30","RACE ROCKS","1016640","2018-12-12 02:00","2018","12","12","02:00","7.2","","4.2","","82","","","M","26","","69","","","","100.99","","","","","","NA"
"-123.53","48.30","RACE ROCKS","1016640","2018-12-12 03:00","2018","12","12","03:00","7.9","","3.2","","72","","","M","25","","64","","","","101.05","","","","","","NA"
"-123.53","48.30","RACE ROCKS","1016640","2018-12-12 04:00","2018","12","12","04:00","8.1","","3.2","","71","","","M","25","","60","","","","101.24","","","","","","NA"
"-123.53","48.30","RACE ROCKS","1016640","2018-12-12 05:00","2018","12","12","05:00","8.5","","3.6","","72","","","M","25","","53","","","","101.39","","","","","","NA"
"-123.53","48.30","RACE ROCKS","1016640","2018-12-12 06:00","2018","12","12","06:00","8.2","","3.6","","73","","","M","25","","48","","","","101.52","","","","","","NA"
"-123.53","48.30","RACE ROCKS","1016640","2018-12-12 07:00","2018","12","12","07:00","8.3","","3.9","","73","","","M","25","","33","","","","101.64","","","","","","NA"
"-123.53","48.30","RACE ROCKS","1016640","2018-12-12 08:00","2018","12","12","08:00","8.4","","3.9","","74","","","M","26","","41","","","","101.71","","","","","","NA"
"-123.53","48.30","RACE ROCKS","1016640","2018-12-12 09:00","2018","12","12","09:00","8.8","","3.1","","68","","","M","23","","37","","","","101.78","","","","","","NA"
"-123.53","48.30","RACE ROCKS","1016640","2018-12-12 10:00","2018","12","12","10:00","9.0","","3.9","","70","","","M","22","","27","","","","101.89","","","","","","NA"
"-123.53","48.30","RACE ROCKS","1016640","2018-12-12 11:00","2018","12","12","11:00","9.0","","2.2","","62","","","M","17","","26","","","","101.88","","","","","","NA"
"-123.53","48.30","RACE ROCKS","1016640","2018-12-12 12:00","2018","12","12","12:00","8.2","","2.4","","67","","","M","18","","9","","","","101.85","","","","","","NA"
"-123.53","48.30","RACE ROCKS","1016640","2018-12-12 13:00","2018","12","12","13:00","7.3","","4.1","","80","","","M","3","","16","","","","101.78","","","","","","NA"
"-123.53","48.30","RACE ROCKS","1016640","2018-12-12 14:00","2018","12","12","14:00","7.4","","3.9","","78","","","M","8","","16","","","","101.73","","","","","","NA"
"-123.53","48.30","RACE ROCKS","1016640","2018-12-12 15:00","2018","12","12","15:00","7.9","","3.9","","76","","","M","9","","10","","","","101.65","","","","","","NA"
"-123.53","48.30","RACE ROCKS","1016640","2018-12-12 16:00","2018","12","12","16:00","8.1","","3.7","","74","","","M","9","","13","","","","101.62","","","","","","NA"
"-123.53","48.30","RACE ROCKS","1016640","2018-12-12 17:00","2018","12","12","17:00","7.9","","3.9","","76","","","M","14","","13","","","","101.53","","","","","","NA"
"-123.53","48.30","RACE ROCKS","1016640","2018-12-12 18:00","2018","12","12","18:00","8.1","","3.2","","71","","","M","8","","4","","","","101.43","","","","","","NA"
"-123.53","48.30","RACE ROCKS","1016640","2018-12-12 19:00","2018","12","12","19:00","6.8","","4.7","","87","","","M","36","","24","","","","101.37","","","","","","NA"
"-123.53","48.30","RACE ROCKS","1016640","2018-12-12 20:00","2018","12","12","20:00","6.4","","5.8","","96","","","M","36","","26","","","","101.26","","","","","","NA"
"-123.53","48.30","RACE ROCKS","1016640","2018-12-12 21:00","2018","12","12","21:00","6.4","","5.9","","97","","","M","1","","25","","","","101.14","","","","","","NA"
"-123.53","48.30","RACE ROCKS","1016640","2018-12-12 22:00","2018","12","12","22:00","6.8","","6.6","","99","","","M","36","","25","","","","101.05","","","","","","NA"
"-123.53","48.30","RACE ROCKS","1016640","2018-12-12 23:00","2018","12","12","23:00","7.0","","6.1","","95","","","M","1","","21","","","","101.00","","","","","","NA"
"-123.53","48.30","RACE ROCKS","1016640","2018-12-13 00:00","2018","12","13","00:00","8.5","","6.3","","86","","","M","7","","8","","","","100.88","","","","","","NA"
"-123.53","48.30","RACE ROCKS","1016640","2018-12-13 01:00","2018","12","13","01:00","7.9","","6.2","","89","","","M","36","","29","","","","100.82","","","","","","NA"
"-123.53","48.30","RACE ROCKS","1016640","2018-12-13 02:00","2018","12","13","02:00","7.8","","6.6","","92","","","M","36","","31","","","","100.86","","","","","","NA"
"-123.53","48.30","RACE ROCKS","1016640","2018-12-13 03:00","2018","12","13","03:00","8.0","","7.8","","99","","","M","1","","22","","","","100.94","","","","","","NA"
"-123.53","48.30","RACE ROCKS","1016640","2018-12-13 04:00","2018","12","13","04:00","9.1","","8.7","","98","","","M","34","","6","","","","100.96","","","","","","NA"
"-123.53","48.30","RACE ROCKS","1016640","2018-12-13 05:00","2018","12","13","05:00","8.8","","8.5","","98","","","M","19","","5","","","","100.94","","","","","","NA"
"-123.53","48.30","RACE ROCKS","1016640","2018-12-13 06:00","2018","12","13","06:00","8.6","","8.4","","98","","","M","23","","6","","","","100.99","","","","","","NA"
"-123.53","48.30","RACE ROCKS","1016640","2018-12-13 07:00","2018","12","13","07:00","8.3","","8.3","","100","","","M","23","","7","","","","100.99","","","","","","NA"
"-123.53","48.30","RACE ROCKS","1016640","2018-12-13 08:00","2018","12","13","08:00","8.0","","8.0","","100","","","M","25","","18","","","","101.00","","","","","","NA"
"-123.53","48.30","RACE ROCKS","1016640","2018-12-13 09:00","2018","12","13","09:00","8.1","","8.1","","100","","","M","19","","13","","","","101.04","","","","","","NA"
"-123.53","48.30","RACE ROCKS","1016640","2018-12-13 10:00","2018","12","13","10:00","8.1","","8.1","","100","","","M","32","","2","","","","101.01","","","","","","NA"
"-123.53","48.30","RACE ROCKS","1016640","2018-12-13 11:00","2018","12","13","11:00"
"-123.53","48.30","RACE ROCKS","1016640","2018-12-13 12:00","2018","12","13","12:00"
"-123.53","48.30","RACE ROCKS","1016640","2018-12-13 13:00","2018","12","13","13:00"
"-123.53","48.30","RACE ROCKS","1016640","2018-12-13 14:00","2018","12","13","14:00"
"-123.53","48.30","RACE ROCKS","1016640","2018-12-13 15:00","2018","12","13","15:00","9.5","","7.4","","87","","","M","2","","16","","","","100.83","","","","","","NA"
"-123.53","48.30","RACE ROCKS","1016640","2018-12-13 16:00","2018","12","13","16:00","9.2","","7.1","","86","","","M","3","","20","","","","100.78","","","","","","NA"
"-123.53","48.30","RACE ROCKS","1016640","2018-12-13 17:00","2018","12","13","17:00","9.0","","7.4","","90","","","M","36","","25","","","","100.78","","","","","","NA"
"-123.53","48.30","RACE ROCKS","1016640","2018-12-13 18:00","2018","12","13","18:00","9.0","","7.4","","90","","","M","36","","26","","","","100.68","","","","","","NA"
"-123.53","48.30","RACE ROCKS","1016640","2018-12-13 19:00","2018","12","13","19:00","9.0","","7.4","","90","","","M","36","","30","","","","100.63","","","","","","NA"
"-123.53","48.30","RACE ROCKS","1016640","2018-12-13 20:00","2018","12","13","20:00","9.1","","7.2","","88","","","M","2","","22","","","","100.57","","","","","","NA"
"-123.53","48.30","RACE ROCKS","1016640","2018-12-13 21:00","2018","12","13","21:00","9.0","","7.2","","88","","","M","1","","21","","","","100.52","","","","","","NA"
"-123.53","48.30","RACE ROCKS","1016640","2018-12-13 22:00","2018","12","13","22:00","8.7","","7.3","","91","","","M","3","","17","","","","100.43","","","","","","NA"
"-123.53","48.30","RACE ROCKS","1016640","2018-12-13 23:00","2018","12","13","23:00","8.8","","7.2","","90","","","M","3","","25","","","","100.34","","","","","","NA"
"-123.53","48.30","RACE ROCKS","1016640","2018-12-14 00:00","2018","12","14","00:00","9.3","","6.9","","85","","","M","36","","23","","","","100.25","","","","","","NA"
"-123.53","48.30","RACE ROCKS","1016640","2018-12-14 01:00","2018","12","14","01:00","9.8","","5.8","","76","","","M","36","","39","","","","100.12","","","","","","NA"
"-123.53","48.30","RACE ROCKS","1016640","2018-12-14 02:00","2018","12","14","02:00","9.5","","6.0","","79","","","M","2","","18","","","","100.10","","","","","","NA"
"-123.53","48.30","RACE ROCKS","1016640","2018-12-14 03:00","2018","12","14","03:00","9.2","","5.6","","78","","","M","1","","34","","","","99.95","","","","","","NA"
"-123.53","48.30","RACE ROCKS","1016640","2018-12-14 04:00","2018","12","14","04:00","9.8","","5.4","","74","","","M","1","","38","","","","99.89","","","","","","NA"
"-123.53","48.30","RACE ROCKS","1016640","2018-12-14 05:00","2018","12","14","05:00","10.0","","3.9","","66","","","M","36","","44","","","","99.75","","","","","","NA"
"-123.53","48.30","RACE ROCKS","1016640","2018-12-14 06:00","2018","12","14","06:00","10.6","","2.5","","57","","","M","36","","43","","","","99.64","","","","","","NA"
"-123.53","48.30","RACE ROCKS","1016640","2018-12-14 07:00","2018","12","14","07:00","11.6","","0.6","","47","","","M","36","","32","","","","99.54","","","","","","NA"
"-123.53","48.30","RACE ROCKS","1016640","2018-12-14 08:00","2018","12","14","08:00","17.1","","-9.3","","16","","","M","11","","35","","","","99.40","","","","","","NA"
"-123.53","48.30","RACE ROCKS","1016640","2018-12-14 09:00","2018","12","14","09:00","16.7","","-5.5","","21","","","M","10","","37","","","","99.34","","","","","","NA"
"-123.53","48.30","RACE ROCKS","1016640","2018-12-14 10:00","2018","12","14","10:00","17.0","","-9.0","","16","","","M","11","","35","","","","99.37","","","","","","NA"
"-123.53","48.30","RACE ROCKS","1016640","2018-12-14 11:00","2018","12","14","11:00","17.6","","-7.9","","17","","","M","10","","30","","","","99.30","","","","","","NA"
"-123.53","48.30","RACE ROCKS","1016640","2018-12-14 12:00","2018","12","14","12:00","18.2","","-8.4","","16","","","M","12","","37","","","","99.16","","","","","","NA"
"-123.53","48.30","RACE ROCKS","1016640","2018-12-14 13:00","2018","12","14","13:00","17.8","","-6.7","","18","","","M","15","","43","","","","99.00","","","","","","NA"
"-123.53","48.30","RACE ROCKS","1016640","2018-12-14 14:00","2018","12","14","14:00","16.5","","-4.2","","24","","","M","18","","40","","","","98.96","","","","","","NA"
"-123.53","48.30","RACE ROCKS","1016640","2018-12-14 15:00","2018","12","14","15:00","14.1","","0.9","","41","","","M","17","","57","","","","98.93","","","","","","NA"
"-123.53","48.30","RACE ROCKS","1016640","2018-12-14 16:00","2018","12","14","16:00","12.5","","4.2","","57","","","M","28","","9","","","","99.08","","","","","","NA"
"-123.53","48.30","RACE ROCKS","1016640","2018-12-14 17:00","2018","12","14","17:00","12.4","","3.7","","55","","","M","25","","25","","","","99.12","","","","","","NA"
"-123.53","48.30","RACE ROCKS","1016640","2018-12-14 18:00","2018","12","14","18:00","7.1","","4.3","","82","","","M","27","","76","","","","99.38","","","","","","NA"
"-123.53","48.30","RACE ROCKS","1016640","2018-12-14 19:00","2018","12","14","19:00","7.5","","3.7","","77","","","M","24","","62","","","","99.63","","","","","","NA"
"-123.53","48.30","RACE ROCKS","1016640","2018-12-14 20:00","2018","12","14","20:00","7.2","","3.1","","75","","","M","25","","68","","","","99.84","","","","","","NA"
"-123.53","48.30","RACE ROCKS","1016640","2018-12-14 21:00","2018","12","14","21:00","7.5","","2.5","","71","","","M","25","","63","","","","100.15","","","","","","NA"
"-123.53","48.30","RACE ROCKS","1016640","2018-12-14 22:00","2018","12","14","22:00","7.5","","2.2","","69","","","M","24","","54","","","","100.39","","","","","","NA"
"-123.53","48.30","RACE ROCKS","1016640","2018-12-14 23:00","2018","12","14","23:00","7.3","","1.7","","67","","","M","24","","44","","","","100.63","","","","","","NA"
"-123.53","48.30","RACE ROCKS","1016640","2018-12-15 00:00","2018","12","15","00:00","7.9","","2.4","","68","","","M","25","","49","","","","100.80","","","","","","NA"
"-123.53","48.30","RACE ROCKS","1016640","2018-12-15 01:00","2018","12","15","01:00","7.8","","2.5","","69","","","M","23","","24","","","","100.97","","","","","","NA"
"-123.53","48.30","RACE ROCKS","1016640","2018-12-15 02:00","2018","12","15","02:00","7.5","","2.0","","68","","","M","22","","31","","","","100.99","","","","","","NA"
"-123.53","48.30","RACE ROCKS","1016640","2018-12-15 03:00","2018","12","15","03:00","7.1","","2.2","","71","","","M","23","","27","","","","101.12","","","","","","NA"
"-123.53","48.30","RACE ROCKS","1016640","2018-12-15 04:00","2018","12","15","04:00","7.4","","1.2","","65","","","M","22","","18","","","","101.19","","","","","","NA"
"-123.53","48.30","RACE ROCKS","1016640","2018-12-15 05:00","2018","12","15","05:00","7.0","","2.1","","71","","","M","17","","12","","","","101.20","","","","","","NA"
"-123.53","48.30","RACE ROCKS","1016640","2018-12-15 06:00","2018","12","15","06:00","7.1","","3.9","","80","","","M","11","","23","","","","101.10","","","","","","NA"
"-123.53","48.30","RACE ROCKS","1016640","2018-12-15 07:00","2018","12","15","07:00","6.7","","3.8","","82","","","M","12","","26","","","","101.09","","","","","","NA"
"-123.53","48.30","RACE ROCKS","1016640","2018-12-15 08:00","2018","12","15","08:00","6.7","","4.4","","85","","","M","9","","10","","","","101.22","","","","","","NA"
"-123.53","48.30","RACE ROCKS","1016640","2018-12-15 09:00","2018","12","15","09:00","6.7","","4.3","","85","","","M","7","","33","","","","101.12","","","","","","NA"
"-123.53","48.30","RACE ROCKS","1016640","2018-12-15 10:00","2018","12","15","10:00","7.0","","3.9","","81","","","M","8","","24","","","","101.06","","","","","","NA"
"-123.53","48.30","RACE ROCKS","1016640","2018-12-15 11:00","2018","12","15","11:00","7.0","","4.2","","82","","","M","2","","26","","","","101.00","","","","","","NA"
"-123.53","48.30","RACE ROCKS","1016640","2018-12-15 12:00","2018","12","15","12:00","7.1","","3.4","","77","","","M","4","","17","","","","100.88","","","","","","NA"
"-123.53","48.30","RACE ROCKS","1016640","2018-12-15 13:00","2018","12","15","13:00","7.0","","2.5","","73","","","M","7","","18","","","","100.80","","","","","","NA"
"-123.53","48.30","RACE ROCKS","1016640","2018-12-15 14:00","2018","12","15","14:00","7.2","","3.6","","78","","","M","9","","7","","","","100.77","","","","","","NA"
"-123.53","48.30","RACE ROCKS","1016640","2018-12-15 15:00","2018","12","15","15:00","8.0","","3.8","","75","","","M","7","","13","","","","100.74","","","","","","NA"
"-123.53","48.30","RACE ROCKS","1016640","2018-12-15 16:00","2018","12","15","16:00","8.5","","3.4","","70","","","M","9","","22","","","","100.72","","","","","","NA"
"-123.53","48.30","RACE ROCKS","1016640","2018-12-15 17:00","2018","12","15","17:00","8.3","","3.4","","71","","","M","10","","14","","","","100.67","","","","","","NA"
"-123.53","48.30","RACE ROCKS","1016640","2018-12-15 18:00","2018","12","15","18:00","9.5","","1.3","","57","","","M","11","","37","","","","100.50","","","","","","NA"
"-123.53","48.30","RACE ROCKS","1016640","2018-12-15 19:00","2018","12","15","19:00","9.5","","1.5","","57","","","M","12","","62","","","","100.41","","","","","","NA"
"-123.53","48.30","RACE ROCKS","1016640","2018-12-15 20:00","2018","12","15","20:00","8.7","","3.0","","67","","","M","10","","42","","","","100.46","","","","","","NA"
"-123.53","48.30","RACE ROCKS","1016640","2018-12-15 21:00","2018","12","15","21:00","9.6","","2.3","","61","","","M","12","","51","","","","100.31","","","","","","NA"
"-123.53","48.30","RACE ROCKS","1016640","2018-12-15 22:00","2018","12","15","22:00","8.9","","2.9","","66","","","M","12","","45","","","","100.25","","","","","","NA"
"-123.53","48.30","RACE ROCKS","1016640","2018-12-15 23:00","2018","12","15","23:00","8.8","","3.5","","69","","","M","12","","56","","","","100.19","","","","","","NA"
"-123.53","48.30","RACE ROCKS","1016640","2018-12-16 00:00","2018","12","16","00:00","8.5","","3.6","","71","","","M","12","","61","","","","100.11","","","","","","NA"
"-123.53","48.30","RACE ROCKS","1016640","2018-12-16 01:00","2018","12","16","01:00","7.8","","4.0","","77","","","M","11","","69","","","","100.03","","","","","","NA"
"-123.53","48.30","RACE ROCKS","1016640","2018-12-16 02:00","2018","12","16","02:00","7.6","","4.8","","82","","","M","11","","69","","","","99.92","","","","","","NA"
"-123.53","48.30","RACE ROCKS","1016640","2018-12-16 03:00","2018","12","16","03:00","7.7","","5.2","","84","","","M","11","","78","","","","99.80","","","","","","NA"
"-123.53","48.30","RACE ROCKS","1016640","2018-12-16 04:00","2018","12","16","04:00","7.9","","5.6","","85","","","M","11","","71","","","","99.68","","","","","","NA"
"-123.53","48.30","RACE ROCKS","1016640","2018-12-16 05:00","2018","12","16","05:00","8.3","","6.1","","86","","","M","10","","60","","","","99.67","","","","","","NA"
"-123.53","48.30","RACE ROCKS","1016640","2018-12-16 06:00","2018","12","16","06:00","9.1","","6.4","","84","","","M","12","","71","","","","99.62","","","","","","NA"
"-123.53","48.30","RACE ROCKS","1016640","2018-12-16 07:00","2018","12","16","07:00","9.5","","6.6","","82","","","M","12","","59","","","","99.63","","","","","","NA"
"-123.53","48.30","RACE ROCKS","1016640","2018-12-16 08:00","2018","12","16","08:00","9.3","","7.0","","86","","","M","12","","53","","","","99.63","","","","","","NA"
"-123.53","48.30","RACE ROCKS","1016640","2018-12-16 09:00","2018","12","16","09:00","9.9","","7.4","","84","","","M","12","","47","","","","99.65","","","","","","NA"
"-123.53","48.30","RACE ROCKS","1016640","2018-12-16 10:00","2018","12","16","10:00","9.9","","7.8","","87","","","M","13","","45","","","","99.74","","","","","","NA"
"-123.53","48.30","RACE ROCKS","1016640","2018-12-16 11:00","2018","12","16","11:00","9.6","","8.1","","91","","","M","23","","11","","","","99.80","","","","","","NA"
"-123.53","48.30","RACE ROCKS","1016640","2018-12-16 12:00","2018","12","16","12:00","9.5","","8.3","","92","","","M","36","","30","","","","99.76","","","","","","NA"
"-123.53","48.30","RACE ROCKS","1016640","2018-12-16 13:00","2018","12","16","13:00","9.8","","8.6","","92","","","M","35","","23","","","","99.73","","","","","","NA"
"-123.53","48.30","RACE ROCKS","1016640","2018-12-16 14:00","2018","12","16","14:00","9.8","","8.7","","93","","","M","34","","7","","","","99.76","","","","","","NA"
"-123.53","48.30","RACE ROCKS","1016640","2018-12-16 15:00","2018","12","16","15:00","9.8","","8.7","","93","","","M","1","","16","","","","99.72","","","","","","NA"
"-123.53","48.30","RACE ROCKS","1016640","2018-12-16 16:00","2018","12","16","16:00","9.7","","8.7","","94","","","M","1","","25","","","","99.71","","","","","","NA"
"-123.53","48.30","RACE ROCKS","1016640","2018-12-16 17:00","2018","12","16","17:00","9.6","","8.7","","94","","","M","30","","15","","","","99.81","","","","","","NA"
"-123.53","48.30","RACE ROCKS","1016640","2018-12-16 18:00","2018","12","16","18:00","9.8","","8.7","","93","","","M","27","","21","","","","99.88","","","","","","NA"
"-123.53","48.30","RACE ROCKS","1016640","2018-12-16 19:00","2018","12","16","19:00","9.9","","7.8","","87","","","M","27","","35","","","","100.07","","","","","","NA"
"-123.53","48.30","RACE ROCKS","1016640","2018-12-16 20:00","2018","12","16","20:00","9.7","","6.8","","82","","","M","28","","26","","","","100.17","","","","","","NA"
"-123.53","48.30","RACE ROCKS","1016640","2018-12-16 21:00","2018","12","16","21:00","10.0","","5.8","","75","","","M","27","","23","","","","100.27","","","","","","NA"
"-123.53","48.30","RACE ROCKS","1016640","2018-12-16 22:00","2018","12","16","22:00","9.4","","6.2","","80","","","M","29","","22","","","","100.36","","","","","","NA"
"-123.53","48.30","RACE ROCKS","1016640","2018-12-16 23:00","2018","12","16","23:00","9.1","","7.1","","88","","","M","23","","7","","","","100.48","","","","","","NA"
"-123.53","48.30","RACE ROCKS","1016640","2018-12-17 00:00","2018","12","17","00:00","10.6","","6.4","","75","","","M","26","","27","","","","100.54","","","","","","NA"
"-123.53","48.30","RACE ROCKS","1016640","2018-12-17 01:00","2018","12","17","01:00","9.0","","7.5","","90","","","M","14","","23","","","","100.64","","","","","","NA"
"-123.53","48.30","RACE ROCKS","1016640","2018-12-17 02:00","2018","12","17","02:00","9.2","","7.5","","89","","","M","15","","14","","","","100.70","","","","","","NA"
"-123.53","48.30","RACE ROCKS","1016640","2018-12-17 03:00","2018","12","17","03:00","8.8","","7.3","","91","","","M","36","","3","","","","100.72","","","","","","NA"
"-123.53","48.30","RACE ROCKS","1016640","2018-12-17 04:00","2018","12","17","04:00","8.6","","7.7","","94","","","M","36","","8","","","","100.74","","","","","","NA"
"-123.53","48.30","RACE ROCKS","1016640","2018-12-17 05:00","2018","12","17","05:00","8.6","","7.4","","93","","","M","31","","8","","","","100.75","","","","","","NA"
"-123.53","48.30","RACE ROCKS","1016640","2018-12-17 06:00","2018","12","17","06:00","8.9","","6.4","","85","","","M","25","","5","","","","100.76","","","","","","NA"
"-123.53","48.30","RACE ROCKS","1016640","2018-12-17 07:00","2018","12","17","07:00","8.3","","5.9","","85","","","M","16","","12","","","","100.72","","","","","","NA"
"-123.53","48.30","RACE ROCKS","1016640","2018-12-17 08:00","2018","12","17","08:00","7.8","","6.4","","91","","","M","5","","7","","","","100.66","","","","","","NA"
"-123.53","48.30","RACE ROCKS","1016640","2018-12-17 09:00","2018","12","17","09:00","7.8","","6.9","","94","","","M","32","","7","","","","100.76","","","","","","NA"
"-123.53","48.30","RACE ROCKS","1016640","2018-12-17 10:00","2018","12","17","10:00","7.6","","6.3","","91","","","M","1","","10","","","","100.71","","","","","","NA"
"-123.53","48.30","RACE ROCKS","1016640","2018-12-17 11:00","2018","12","17","11:00","7.9","","6.6","","92","","","M","4","","9","","","","100.66","","","","","","NA"
"-123.53","48.30","RACE ROCKS","1016640","2018-12-17 12:00","2018","12","17","12:00","8.1","","7.0","","93","","","M","1","","15","","","","100.61","","","","","","NA"
"-123.53","48.30","RACE ROCKS","1016640","2018-12-17 13:00","2018","12","17","13:00","8.4","","7.0","","91","","","M","5","","16","","","","100.49","","","","","","NA"
"-123.53","48.30","RACE ROCKS","1016640","2018-12-17 14:00","2018","12","17","14:00","8.3","","7.0","","92","","","M","6","","10","","","","100.39","","","","","","NA"
"-123.53","48.30","RACE ROCKS","1016640","2018-12-17 15:00","2018","12","17","15:00","8.0","","6.4","","90","","","M","5","","13","","","","100.22","","","","","","NA"
"-123.53","48.30","RACE ROCKS","1016640","2018-12-17 16:00","2018","12","17","16:00","8.1","","6.9","","92","","","M","2","","22","","","","100.08","","","","","","NA"
"-123.53","48.30","RACE ROCKS","1016640","2018-12-17 17:00","2018","12","17","17:00","8.9","","6.0","","82","","","M","10","","16","","","","99.94","","","","","","NA"
"-123.53","48.30","RACE ROCKS","1016640","2018-12-17 18:00","2018","12","17","18:00","9.3","","5.6","","77","","","M","12","","17","","","","99.83","","","","","","NA"
"-123.53","48.30","RACE ROCKS","1016640","2018-12-17 19:00","2018","12","17","19:00","10.3","","3.9","","65","","","M","12","","36","","","","99.60","","","","","","NA"
"-123.53","48.30","RACE ROCKS","1016640","2018-12-17 20:00","2018","12","17","20:00","10.4","","4.4","","66","","","M","16","","25","","","","99.59","","","","","","NA"
"-123.53","48.30","RACE ROCKS","1016640","2018-12-17 21:00","2018","12","17","21:00","9.7","","5.2","","74","","","M","34","","15","","","","99.73","","","","","","NA"
"-123.53","48.30","RACE ROCKS","1016640","2018-12-17 22:00","2018","12","17","22:00","9.4","","6.1","","80","","","M","1","","13","","","","99.81","","","","","","NA"
"-123.53","48.30","RACE ROCKS","1016640","2018-12-17 23:00","2018","12","17","23:00","9.3","","6.2","","81","","","M","8","","10","","","","99.78","","","","","","NA"
"-123.53","48.30","RACE ROCKS","1016640","2018-12-18 00:00","2018","12","18","00:00","8.4","","5.9","","85","","","M","11","","13","","","","99.77","","","","","","NA"
"-123.53","48.30","RACE ROCKS","1016640","2018-12-18 01:00","2018","12","18","01:00","7.9","","6.6","","91","","","M","36","","21","","","","99.70","","","","","","NA"
"-123.53","48.30","RACE ROCKS","1016640","2018-12-18 02:00","2018","12","18","02:00","7.8","","6.5","","91","","","M","36","","22","","","","99.67","","","","","","NA"
"-123.53","48.30","RACE ROCKS","1016640","2018-12-18 03:00","2018","12","18","03:00","7.7","","6.5","","92","","","M","1","","17","","","","99.55","","","","","","NA"
"-123.53","48.30","RACE ROCKS","1016640","2018-12-18 04:00","2018","12","18","04:00","7.7","","6.4","","91","","","M","4","","11","","","","99.48","","","","","","NA"
"-123.53","48.30","RACE ROCKS","1016640","2018-12-18 05:00","2018","12","18","05:00","7.6","","6.6","","93","","","M","2","","12","","","","99.47","","","","","","NA"
"-123.53","48.30","RACE ROCKS","1016640","2018-12-18 06:00","2018","12","18","06:00","7.8","","6.7","","93","","","M","5","","4","","","","99.44","","","","","","NA"
"-123.53","48.30","RACE ROCKS","1016640","2018-12-18 07:00","2018","12","18","07:00","8.2","","6.7","","91","","","M","32","","9","","","","99.62","","","","","","NA"
"-123.53","48.30","RACE ROCKS","1016640","2018-12-18 08:00","2018","12","18","08:00","8.8","","6.7","","87","","","M","24","","13","","","","99.69","","","","","","NA"
"-123.53","48.30","RACE ROCKS","1016640","2018-12-18 09:00","2018","12","18","09:00","9.4","","7.2","","86","","","M","25","","33","","","","99.75","","","","","","NA"
"-123.53","48.30","RACE ROCKS","1016640","2018-12-18 10:00","2018","12","18","10:00","9.2","","7.0","","86","","","M","27","","30","","","","99.90","","","","","","NA"
"-123.53","48.30","RACE ROCKS","1016640","2018-12-18 11:00","2018","12","18","11:00","9.4","","7.2","","86","","","M","22","","28","","","","99.99","","","","","","NA"
"-123.53","48.30","RACE ROCKS","1016640","2018-12-18 12:00","2018","12","18","12:00","9.8","","6.5","","80","","","M","20","","34","","","","100.02","","","","","","NA"
"-123.53","48.30","RACE ROCKS","1016640","2018-12-18 13:00","2018","12","18","13:00","9.7","","6.4","","80","","","M","22","","18","","","","100.13","","","","","","NA"
"-123.53","48.30","RACE ROCKS","1016640","2018-12-18 14:00","2018","12","18","14:00","9.1","","6.0","","81","","","M","24","","38","","","","100.22","","","","","","NA"
"-123.53","48.30","RACE ROCKS","1016640","2018-12-18 15:00","2018","12","18","15:00","9.7","","5.4","","75","","","M","20","","30","","","","100.25","","","","","","NA"
"-123.53","48.30","RACE ROCKS","1016640","2018-12-18 16:00","2018","12","18","16:00","8.9","","6.4","","84","","","M","17","","29","","","","100.35","","","","","","NA"
"-123.53","48.30","RACE ROCKS","1016640","2018-12-18 17:00","2018","12","18","17:00","9.7","","4.8","","72","","","M","19","","31","","","","100.42","","","","","","NA"
"-123.53","48.30","RACE ROCKS","1016640","2018-12-18 18:00","2018","12","18","18:00","8.7","","6.1","","84","","","M","25","","49","","","","100.51","","","","","","NA"
"-123.53","48.30","RACE ROCKS","1016640","2018-12-18 19:00","2018","12","18","19:00","9.0","","5.4","","78","","","M","23","","38","","","","100.64","","","","","","NA"
"-123.53","48.30","RACE ROCKS","1016640","2018-12-18 20:00","2018","12","18","20:00","9.3","","5.5","","77","","","M","22","","30","","","","100.82","","","","","","NA"
"-123.53","48.30","RACE ROCKS","1016640","2018-12-18 21:00","2018","12","18","21:00","9.9","","5.7","","75","","","M","24","","37","","","","100.91","","","","","","NA"
"-123.53","48.30","RACE ROCKS","1016640","2018-12-18 22:00","2018","12","18","22:00","9.7","","5.1","","73","","","M","22","","31","","","","101.06","","","","","","NA"
"-123.53","48.30","RACE ROCKS","1016640","2018-12-18 23:00","2018","12","18","23:00","8.7","","5.3","","79","","","M","25","","23","","","","101.24","","","","","","NA"
"-123.53","48.30","RACE ROCKS","1016640","2018-12-19 00:00","2018","12","19","00:00","9.0","","4.2","","72","","","M","18","","17","","","","101.32","","","","","","NA"
"-123.53","48.30","RACE ROCKS","1016640","2018-12-19 01:00","2018","12","19","01:00","9.7","","4.2","","68","","","M","24","","35","","","","101.34","","","","","","NA"
"-123.53","48.30","RACE ROCKS","1016640","2018-12-19 02:00","2018","12","19","02:00","9.2","","4.4","","72","","","M","21","","37","","","","101.45","","","","","","NA"
"-123.53","48.30","RACE ROCKS","1016640","2018-12-19 03:00","2018","12","19","03:00","9.5","","4.4","","71","","","M","21","","31","","","","101.52","","","","","","NA"
"-123.53","48.30","RACE ROCKS","1016640","2018-12-19 04:00","2018","12","19","04:00","9.3","","5.9","","79","","","M","25","","33","","","","101.54","","","","","","NA"
"-123.53","48.30","RACE ROCKS","1016640","2018-12-19 05:00","2018","12","19","05:00","9.6","","4.3","","69","","","M","18","","19","","","","101.71","","","","","","NA"
"-123.53","48.30","RACE ROCKS","1016640","2018-12-19 06:00","2018","12","19","06:00","9.4","","2.7","","63","","","M","18","","28","","","","101.78","","","","","","NA"
"-123.53","48.30","RACE ROCKS","1016640","2018-12-19 07:00","2018","12","19","07:00","9.1","","3.7","","69","","","M","18","","18","","","","101.81","","","","","","NA"
"-123.53","48.30","RACE ROCKS","1016640","2018-12-19 08:00","2018","12","19","08:00","9.8","","2.5","","61","","","M","21","","17","","","","101.88","","","","","","NA"
"-123.53","48.30","RACE ROCKS","1016640","2018-12-19 09:00","2018","12","19","09:00","8.8","","5.2","","78","","","M","24","","16","","","","101.96","","","","","","NA"
"-123.53","48.30","RACE ROCKS","1016640","2018-12-19 10:00","2018","12","19","10:00","8.6","","5.6","","82","","","M","29","","13","","","","102.03","","","","","","NA"
"-123.53","48.30","RACE ROCKS","1016640","2018-12-19 11:00","2018","12","19","11:00","9.0","","5.6","","79","","","M","16","","8","","","","102.02","","","","","","NA"
"-123.53","48.30","RACE ROCKS","1016640","2018-12-19 12:00","2018","12","19","12:00","9.2","","5.3","","77","","","M","14","","10","","","","101.99","","","","","","NA"
"-123.53","48.30","RACE ROCKS","1016640","2018-12-19 13:00","2018","12","19","13:00","8.5","","5.1","","79","","","M","8","","7","","","","101.94","","","","","","NA"
"-123.53","48.30","RACE ROCKS","1016640","2018-12-19 14:00","2018","12","19","14:00","8.4","","5.4","","82","","","M","7","","6","","","","101.86","","","","","","NA"
"-123.53","48.30","RACE ROCKS","1016640","2018-12-19 15:00","2018","12","19","15:00","8.2","","5.8","","85","","","M","6","","11","","","","101.81","","","","","","NA"
"-123.53","48.30","RACE ROCKS","1016640","2018-12-19 16:00","2018","12","19","16:00","7.8","","5.7","","87","","","M","6","","18","","","","101.71","","","","","","NA"
"-123.53","48.30","RACE ROCKS","1016640","2018-12-19 17:00","2018","12","19","17:00","7.7","","5.8","","88","","","M","3","","24","","","","101.58","","","","","","NA"
"-123.53","48.30","RACE ROCKS","1016640","2018-12-19 18:00","2018","12","19","18:00","8.1","","6.6","","90","","","M","3","","28","","","","101.47","","","","","","NA"
"-123.53","48.30","RACE ROCKS","1016640","2018-12-19 19:00","2018","12","19","19:00","8.4","","6.5","","88","","","M","5","","23","","","","101.31","","","","","","NA"
"-123.53","48.30","RACE ROCKS","1016640","2018-12-19 20:00","2018","12","19","20:00","8.2","","6.5","","89","","","M","8","","25","","","","101.13","","","","","","NA"
"-123.53","48.30","RACE ROCKS","1016640","2018-12-19 21:00","2018","12","19","21:00","9.0","","6.0","","82","","","M","7","","39","","","","101.01","","","","","","NA"
"-123.53","48.30","RACE ROCKS","1016640","2018-12-19 22:00","2018","12","19","22:00","8.9","","5.9","","81","","","M","6","","37","","","","100.91","","","","","","NA"
"-123.53","48.30","RACE ROCKS","1016640","2018-12-19 23:00","2018","12","19","23:00","9.0","","5.7","","80","","","M","8","","40","","","","100.73","","","","","","NA"
"-123.53","48.30","RACE ROCKS","1016640","2018-12-20 00:00","2018","12","20","00:00","8.5","","6.2","","85","","","M","5","","35","","","","100.57","","","","","","NA"
"-123.53","48.30","RACE ROCKS","1016640","2018-12-20 01:00","2018","12","20","01:00","8.4","","5.4","","82","","","M","5","","13","","","","100.40","","","","","","NA"
"-123.53","48.30","RACE ROCKS","1016640","2018-12-20 02:00","2018","12","20","02:00","8.4","","5.7","","83","","","M","6","","12","","","","100.23","","","","","","NA"
"-123.53","48.30","RACE ROCKS","1016640","2018-12-20 03:00","2018","12","20","03:00","8.8","","6.4","","85","","","M","5","","16","","","","100.05","","","","","","NA"
"-123.53","48.30","RACE ROCKS","1016640","2018-12-20 04:00","2018","12","20","04:00","9.1","","7.1","","87","","","M","4","","16","","","","99.92","","","","","","NA"
"-123.53","48.30","RACE ROCKS","1016640","2018-12-20 05:00","2018","12","20","05:00","8.9","","7.8","","93","","","M","11","","23","","","","99.69","","","","","","NA"
"-123.53","48.30","RACE ROCKS","1016640","2018-12-20 06:00","2018","12","20","06:00","9.4","","7.9","","91","","","M","10","","36","","","","99.42","","","","","","NA"
"-123.53","48.30","RACE ROCKS","1016640","2018-12-20 07:00","2018","12","20","07:00","10.3","","8.3","","87","","","M","10","","33","","","","99.25","","","","","","NA"
"-123.53","48.30","RACE ROCKS","1016640","2018-12-20 08:00","2018","12","20","08:00","11.4","","7.6","","77","","","M","8","","17","","","","99.23","","","","","","NA"
"-123.53","48.30","RACE ROCKS","1016640","2018-12-20 09:00","2018","12","20","09:00","11.7","","7.5","","75","","","M","9","","17","","","","99.10","","","","","","NA"
"-123.53","48.30","RACE ROCKS","1016640","2018-12-20 10:00","2018","12","20","10:00","11.2","","7.6","","79","","","M","1","","18","","","","99.04","","","","","","NA"
"-123.53","48.30","RACE ROCKS","1016640","2018-12-20 11:00","2018","12","20","11:00","14.7","","3.5","","47","","","M","22","","47","","","","99.11","","","","","","NA"
"-123.53","48.30","RACE ROCKS","1016640","2018-12-20 12:00","2018","12","20","12:00","11.0","","3.0","","58","","","M","23","","60","","","","99.30","","","","","","NA"
"-123.53","48.30","RACE ROCKS","1016640","2018-12-20 13:00","2018","12","20","13:00","9.5","","3.2","","65","","","M","23","","62","","","","99.64","","","","","","NA"
"-123.53","48.30","RACE ROCKS","1016640","2018-12-20 14:00","2018","12","20","14:00","9.9","","2.6","","61","","","M","23","","73","","","","99.70","","","","","","NA"
"-123.53","48.30","RACE ROCKS","1016640","2018-12-20 15:00","2018","12","20","15:00","9.4","","1.9","","60","","","M","24","","72","","","","99.89","","","","","","NA"
"-123.53","48.30","RACE ROCKS","1016640","2018-12-20 16:00","2018","12","20","16:00","7.8","","3.7","","75","","","M","24","","66","","","","100.08","","","","","","NA"
"-123.53","48.30","RACE ROCKS","1016640","2018-12-20 17:00","2018","12","20","17:00","7.9","","2.9","","70","","","M","23","","94","","","","99.76","","","","","","NA"
"-123.53","48.30","RACE ROCKS","1016640","2018-12-20 18:00","2018","12","20","18:00","7.6","","2.6","","71","","","M","24","","68","","","","100.38","","","","","","NA"
"-123.53","48.30","RACE ROCKS","1016640","2018-12-20 19:00","2018","12","20","19:00","8.2","","1.0","","60","","","M","25","","65","","","","100.55","","","","","","NA"
"-123.53","48.30","RACE ROCKS","1016640","2018-12-20 20:00","2018","12","20","20:00","7.4","","-0.3","","58","","","M","24","","57","","","","100.60","","","","","","NA"
"-123.53","48.30","RACE ROCKS","1016640","2018-12-20 21:00","2018","12","20","21:00","7.4","","1.1","","64","","","M","24","","70","","","","100.58","","","","","","NA"
"-123.53","48.30","RACE ROCKS","1016640","2018-12-20 22:00","2018","12","20","22:00","7.6","","0.7","","62","","","M","25","","65","","","","100.75","","","","","","NA"
"-123.53","48.30","RACE ROCKS","1016640","2018-12-20 23:00","2018","12","20","23:00","7.5","","0.2","","60","","","M","25","","69","","","","100.87","","","","","","NA"
"-123.53","48.30","RACE ROCKS","1016640","2018-12-21 00:00","2018","12","21","00:00","7.3","","0.6","","63","","","M","25","","67","","","","100.91","","","","","","NA"
"-123.53","48.30","RACE ROCKS","1016640","2018-12-21 01:00","2018","12","21","01:00","7.2","","1.8","","69","","","M","26","","58","","","","101.11","","","","","","NA"
"-123.53","48.30","RACE ROCKS","1016640","2018-12-21 02:00","2018","12","21","02:00","6.3","","1.6","","72","","","M","24","","54","","","","101.18","","","","","","NA"
"-123.53","48.30","RACE ROCKS","1016640","2018-12-21 03:00","2018","12","21","03:00","7.2","","1.5","","67","","","M","25","","58","","","","101.29","","","","","","NA"
"-123.53","48.30","RACE ROCKS","1016640","2018-12-21 04:00","2018","12","21","04:00","6.7","","1.5","","69","","","M","24","","53","","","","101.40","","","","","","NA"
"-123.53","48.30","RACE ROCKS","1016640","2018-12-21 05:00","2018","12","21","05:00","6.5","","1.8","","72","","","M","25","","43","","","","101.49","","","","","","NA"
"-123.53","48.30","RACE ROCKS","1016640","2018-12-21 06:00","2018","12","21","06:00","7.0","","1.6","","69","","","M","26","","39","","","","101.53","","","","","","NA"
"-123.53","48.30","RACE ROCKS","1016640","2018-12-21 07:00","2018","12","21","07:00","6.1","","0.0","","65","","","M","29","","22","","","","101.64","","","","","","NA"
"-123.53","48.30","RACE ROCKS","1016640","2018-12-21 08:00","2018","12","21","08:00","6.1","","-0.7","","61","","","M","28","","19","","","","101.72","","","","","","NA"
"-123.53","48.30","RACE ROCKS","1016640","2018-12-21 09:00","2018","12","21","09:00","6.2","","-0.7","","61","","","M","29","","10","","","","101.82","","","","","","NA"
"-123.53","48.30","RACE ROCKS","1016640","2018-12-21 10:00","2018","12","21","10:00","6.7","","-0.3","","61","","","M","8","","7","","","","101.81","","","","","","NA"
"-123.53","48.30","RACE ROCKS","1016640","2018-12-21 11:00","2018","12","21","11:00","6.9","","0.1","","62","","","M","26","","3","","","","101.86","","","","","","NA"
"-123.53","48.30","RACE ROCKS","1016640","2018-12-21 12:00","2018","12","21","12:00","6.8","","0.8","","65","","","M","32","","5","","","","101.83","","","","","","NA"
"-123.53","48.30","RACE ROCKS","1016640","2018-12-21 13:00","2018","12","21","13:00","6.8","","1.0","","67","","","M","32","","7","","","","101.80","","","","","","NA"
"-123.53","48.30","RACE ROCKS","1016640","2018-12-21 14:00","2018","12","21","14:00","6.8","","1.3","","68","","","M","31","","6","","","","101.80","","","","","","NA"
"-123.53","48.30","RACE ROCKS","1016640","2018-12-21 15:00","2018","12","21","15:00","7.7","","0.8","","62","","","M","23","","2","","","","101.83","","","","","","NA"
"-123.53","48.30","RACE ROCKS","1016640","2018-12-21 16:00","2018","12","21","16:00","7.1","","0.8","","64","","","M","13","","9","","","","101.88","","","","","","NA"
"-123.53","48.30","RACE ROCKS","1016640","2018-12-21 17:00","2018","12","21","17:00","6.8","","1.2","","67","","","M","13","","14","","","","101.86","","","","","","NA"
"-123.53","48.30","RACE ROCKS","1016640","2018-12-21 18:00","2018","12","21","18:00","6.9","","-0.5","","59","","","M","12","","19","","","","101.83","","","","","","NA"
"-123.53","48.30","RACE ROCKS","1016640","2018-12-21 19:00","2018","12","21","19:00","6.6","","1.4","","69","","","M","11","","22","","","","101.82","","","","","","NA"
"-123.53","48.30","RACE ROCKS","1016640","2018-12-21 20:00","2018","12","21","20:00","5.9","","1.0","","71","","","M","11","","19","","","","101.82","","","","","","NA"
"-123.53","48.30","RACE ROCKS","1016640","2018-12-21 21:00","2018","12","21","21:00","6.0","","1.8","","74","","","M","11","","16","","","","101.85","","","","","","NA"
"-123.53","48.30","RACE ROCKS","1016640","2018-12-21 22:00","2018","12","21","22:00","5.6","","2.4","","80","","","M","11","","31","","","","101.81","","","","","","NA"
"-123.53","48.30","RACE ROCKS","1016640","2018-12-21 23:00","2018","12","21","23:00","5.4","","2.5","","82","","","M","9","","37","","","","101.75","","","","","","NA"
"-123.53","48.30","RACE ROCKS","1016640","2018-12-22 00:00","2018","12","22","00:00","5.6","","2.6","","81","","","M","8","","33","","","","101.77","","","","","","NA"
"-123.53","48.30","RACE ROCKS","1016640","2018-12-22 01:00","2018","12","22","01:00","5.5","","0.3","","69","","","M","8","","26","","","","101.71","","","","","","NA"
"-123.53","48.30","RACE ROCKS","1016640","2018-12-22 02:00","2018","12","22","02:00","6.0","","2.3","","77","","","M","5","","10","","","","101.75","","","","","","NA"
"-123.53","48.30","RACE ROCKS","1016640","2018-12-22 03:00","2018","12","22","03:00","6.0","","2.9","","81","","","M","4","","31","","","","101.66","","","","","","NA"
"-123.53","48.30","RACE ROCKS","1016640","2018-12-22 04:00","2018","12","22","04:00","6.2","","2.9","","79","","","M","7","","18","","","","101.64","","","","","","NA"
"-123.53","48.30","RACE ROCKS","1016640","2018-12-22 05:00","2018","12","22","05:00","6.4","","2.9","","78","","","M","7","","23","","","","101.50","","","","","","NA"
"-123.53","48.30","RACE ROCKS","1016640","2018-12-22 06:00","2018","12","22","06:00","6.1","","2.4","","77","","","M","3","","15","","","","101.48","","","","","","NA"
"-123.53","48.30","RACE ROCKS","1016640","2018-12-22 07:00","2018","12","22","07:00","6.2","","2.3","","76","","","M","4","","21","","","","101.43","","","","","","NA"
"-123.53","48.30","RACE ROCKS","1016640","2018-12-22 08:00","2018","12","22","08:00","6.2","","2.1","","75","","","M","4","","13","","","","101.41","","","","","","NA"
"-123.53","48.30","RACE ROCKS","1016640","2018-12-22 09:00","2018","12","22","09:00","5.9","","3.8","","87","","","M","36","","31","","","","101.39","","","","","","NA"
"-123.53","48.30","RACE ROCKS","1016640","2018-12-22 10:00","2018","12","22","10:00","6.5","","3.5","","81","","","M","2","","29","","","","101.31","","","","","","NA"
"-123.53","48.30","RACE ROCKS","1016640","2018-12-22 11:00","2018","12","22","11:00","6.3","","4.0","","85","","","M","35","","23","","","","101.27","","","","","","NA"
"-123.53","48.30","RACE ROCKS","1016640","2018-12-22 12:00","2018","12","22","12:00","7.0","","2.7","","74","","","M","9","","19","","","","101.15","","","","","","NA"
"-123.53","48.30","RACE ROCKS","1016640","2018-12-22 13:00","2018","12","22","13:00","7.1","","2.5","","72","","","M","8","","25","","","","100.97","","","","","","NA"
"-123.53","48.30","RACE ROCKS","1016640","2018-12-22 14:00","2018","12","22","14:00","7.1","","3.0","","75","","","M","3","","25","","","","100.82","","","","","","NA"
"-123.53","48.30","RACE ROCKS","1016640","2018-12-22 15:00","2018","12","22","15:00","8.3","","1.3","","62","","","M","7","","25","","","","100.72","","","","","","NA"
"-123.53","48.30","RACE ROCKS","1016640","2018-12-22 16:00","2018","12","22","16:00","7.7","","2.7","","70","","","M","11","","14","","","","100.68","","","","","","NA"
"-123.53","48.30","RACE ROCKS","1016640","2018-12-22 17:00","2018","12","22","17:00","8.1","","2.4","","67","","","M","33","","9","","","","100.68","","","","","","NA"
"-123.53","48.30","RACE ROCKS","1016640","2018-12-22 18:00","2018","12","22","18:00","6.8","","4.3","","84","","","M","36","","21","","","","100.60","","","","","","NA"
"-123.53","48.30","RACE ROCKS","1016640","2018-12-22 19:00","2018","12","22","19:00","6.8","","4.6","","86","","","M","36","","31","","","","100.57","","","","","","NA"
"-123.53","48.30","RACE ROCKS","1016640","2018-12-22 20:00","2018","12","22","20:00","7.3","","4.9","","85","","","M","10","","26","","","","100.45","","","","","","NA"
"-123.53","48.30","RACE ROCKS","1016640","2018-12-22 21:00","2018","12","22","21:00","6.8","","4.1","","83","","","M","8","","17","","","","100.36","","","","","","NA"
"-123.53","48.30","RACE ROCKS","1016640","2018-12-22 22:00","2018","12","22","22:00","7.5","","4.4","","81","","","M","18","","9","","","","100.48","","","","","","NA"
"-123.53","48.30","RACE ROCKS","1016640","2018-12-22 23:00","2018","12","22","23:00","7.4","","4.8","","84","","","M","12","","14","","","","100.43","","","","","","NA"
"-123.53","48.30","RACE ROCKS","1016640","2018-12-23 00:00","2018","12","23","00:00","7.3","","4.2","","81","","","M","11","","19","","","","100.50","","","","","","NA"
"-123.53","48.30","RACE ROCKS","1016640","2018-12-23 01:00","2018","12","23","01:00","7.3","","4.6","","83","","","M","13","","13","","","","100.51","","","","","","NA"
"-123.53","48.30","RACE ROCKS","1016640","2018-12-23 02:00","2018","12","23","02:00","6.7","","4.8","","88","","","M","35","","14","","","","100.55","","","","","","NA"
"-123.53","48.30","RACE ROCKS","1016640","2018-12-23 03:00","2018","12","23","03:00","7.4","","5.6","","89","","","M","9","","6","","","","100.59","","","","","","NA"
"-123.53","48.30","RACE ROCKS","1016640","2018-12-23 04:00","2018","12","23","04:00","7.8","","5.4","","85","","","M","21","","13","","","","100.64","","","","","","NA"
"-123.53","48.30","RACE ROCKS","1016640","2018-12-23 05:00","2018","12","23","05:00","8.0","","5.4","","83","","","M","19","","16","","","","100.67","","","","","","NA"
"-123.53","48.30","RACE ROCKS","1016640","2018-12-23 06:00","2018","12","23","06:00","8.0","","4.7","","79","","","M","21","","21","","","","100.72","","","","","","NA"
"-123.53","48.30","RACE ROCKS","1016640","2018-12-23 07:00","2018","12","23","07:00","7.8","","3.2","","72","","","M","21","","15","","","","100.75","","","","","","NA"
"-123.53","48.30","RACE ROCKS","1016640","2018-12-23 08:00","2018","12","23","08:00","7.6","","3.9","","77","","","M","17","","28","","","","100.77","","","","","","NA"
"-123.53","48.30","RACE ROCKS","1016640","2018-12-23 09:00","2018","12","23","09:00","8.2","","3.5","","72","","","M","20","","28","","","","100.87","","","","","","NA"
"-123.53","48.30","RACE ROCKS","1016640","2018-12-23 10:00","2018","12","23","10:00","9.1","","3.0","","65","","","M","25","","26","","","","100.88","","","","","","NA"
"-123.53","48.30","RACE ROCKS","1016640","2018-12-23 11:00","2018","12","23","11:00","7.4","","5.0","","85","","","M","24","","15","","","","101.00","","","","","","NA"
"-123.53","48.30","RACE ROCKS","1016640","2018-12-23 12:00","2018","12","23","12:00","8.4","","3.4","","71","","","M","21","","15","","","","101.01","","","","","","NA"
"-123.53","48.30","RACE ROCKS","1016640","2018-12-23 13:00","2018","12","23","13:00","7.1","","5.2","","88","","","M","2","","9","","","","101.02","","","","","","NA"
"-123.53","48.30","RACE ROCKS","1016640","2018-12-23 14:00","2018","12","23","14:00","7.4","","5.4","","87","","","M","6","","13","","","","101.01","","","","","","NA"
"-123.53","48.30","RACE ROCKS","1016640","2018-12-23 15:00","2018","12","23","15:00","7.6","","5.3","","85","","","M","12","","15","","","","101.04","","","","","","NA"
"-123.53","48.30","RACE ROCKS","1016640","2018-12-23 16:00","2018","12","23","16:00","7.8","","5.2","","84","","","M","10","","3","","","","101.15","","","","","","NA"
"-123.53","48.30","RACE ROCKS","1016640","2018-12-23 17:00","2018","12","23","17:00","7.6","","5.7","","88","","","M","2","","5","","","","101.17","","","","","","NA"
"-123.53","48.30","RACE ROCKS","1016640","2018-12-23 18:00","2018","12","23","18:00","7.3","","5.5","","88","","","M","33","","6","","","","101.19","","","","","","NA"
"-123.53","48.30","RACE ROCKS","1016640","2018-12-23 19:00","2018","12","23","19:00","7.1","","5.2","","87","","","M","36","","8","","","","101.21","","","","","","NA"
"-123.53","48.30","RACE ROCKS","1016640","2018-12-23 20:00","2018","12","23","20:00","6.9","","5.0","","88","","","M","","","0","","","","101.22","","","","","","NA"
"-123.53","48.30","RACE ROCKS","1016640","2018-12-23 21:00","2018","12","23","21:00","6.6","","5.3","","92","","","M","36","","16","","","","101.22","","","","","","NA"
"-123.53","48.30","RACE ROCKS","1016640","2018-12-23 22:00","2018","12","23","22:00","7.2","","4.6","","84","","","M","2","","4","","","","101.26","","","","","","NA"
"-123.53","48.30","RACE ROCKS","1016640","2018-12-23 23:00","2018","12","23","23:00","6.7","","4.1","","84","","","M","30","","2","","","","101.30","","","","","","NA"
"-123.53","48.30","RACE ROCKS","1016640","2018-12-24 00:00","2018","12","24","00:00","6.4","","4.7","","89","","","M","2","","4","","","","101.31","","","","","","NA"
"-123.53","48.30","RACE ROCKS","1016640","2018-12-24 01:00","2018","12","24","01:00","5.8","","4.5","","91","","","M","1","","14","","","","101.29","","","","","","NA"
"-123.53","48.30","RACE ROCKS","1016640","2018-12-24 02:00","2018","12","24","02:00","6.0","","5.0","","93","","","M","36","","13","","","","101.34","","","","","","NA"
"-123.53","48.30","RACE ROCKS","1016640","2018-12-24 03:00","2018","12","24","03:00","6.1","","5.1","","94","","","M","36","","13","","","","101.35","","","","","","NA"
"-123.53","48.30","RACE ROCKS","1016640","2018-12-24 04:00","2018","12","24","04:00","6.9","","5.5","","91","","","M","1","","12","","","","101.34","","","","","","NA"
"-123.53","48.30","RACE ROCKS","1016640","2018-12-24 05:00","2018","12","24","05:00","6.4","","5.1","","91","","","M","35","","14","","","","101.33","","","","","","NA"
"-123.53","48.30","RACE ROCKS","1016640","2018-12-24 06:00","2018","12","24","06:00","6.6","","4.8","","88","","","M","4","","18","","","","101.30","","","","","","NA"
"-123.53","48.30","RACE ROCKS","1016640","2018-12-24 07:00","2018","12","24","07:00","6.9","","4.7","","86","","","M","6","","18","","","","101.29","","","","","","NA"
"-123.53","48.30","RACE ROCKS","1016640","2018-12-24 08:00","2018","12","24","08:00","6.7","","4.5","","86","","","M","8","","19","","","","101.29","","","","","","NA"
"-123.53","48.30","RACE ROCKS","1016640","2018-12-24 09:00","2018","12","24","09:00","6.6","","4.2","","84","","","M","8","","22","","","","101.33","","","","","","NA"
"-123.53","48.30","RACE ROCKS","1016640","2018-12-24 10:00","2018","12","24","10:00","6.7","","4.5","","86","","","M","8","","14","","","","101.34","","","","","","NA"
"-123.53","48.30","RACE ROCKS","1016640","2018-12-24 11:00","2018","12","24","11:00","6.3","","3.8","","84","","","M","8","","26","","","","101.32","","","","","","NA"
"-123.53","48.30","RACE ROCKS","1016640","2018-12-24 12:00","2018","12","24","12:00","6.7","","4.6","","87","","","M","8","","17","","","","101.30","","","","","","NA"
"-123.53","48.30","RACE ROCKS","1016640","2018-12-24 13:00","2018","12","24","13:00","6.7","","5.3","","91","","","M","6","","14","","","","101.27","","","","","","NA"
"-123.53","48.30","RACE ROCKS","1016640","2018-12-24 14:00","2018","12","24","14:00","6.8","","5.4","","91","","","M","3","","23","","","","101.27","","","","","","NA"
"-123.53","48.30","RACE ROCKS","1016640","2018-12-24 15:00","2018","12","24","15:00","7.1","","5.0","","86","","","M","2","","21","","","","101.31","","","","","","NA"
"-123.53","48.30","RACE ROCKS","1016640","2018-12-24 16:00","2018","12","24","16:00","7.2","","5.0","","86","","","M","1","","15","","","","101.34","","","","","","NA"
"-123.53","48.30","RACE ROCKS","1016640","2018-12-24 17:00","2018","12","24","17:00","7.1","","4.4","","83","","","M","35","","25","","","","101.36","","","","","","NA"
"-123.53","48.30","RACE ROCKS","1016640","2018-12-24 18:00","2018","12","24","18:00","7.3","","3.0","","74","","","M","35","","24","","","","101.40","","","","","","NA"
"-123.53","48.30","RACE ROCKS","1016640","2018-12-24 19:00","2018","12","24","19:00","7.4","","3.1","","74","","","M","30","","7","","","","101.44","","","","","","NA"
"-123.53","48.30","RACE ROCKS","1016640","2018-12-24 20:00","2018","12","24","20:00","7.6","","3.3","","74","","","M","25","","4","","","","101.50","","","","","","NA"
"-123.53","48.30","RACE ROCKS","1016640","2018-12-24 21:00","2018","12","24","21:00","7.7","","2.8","","71","","","M","32","","4","","","","101.56","","","","","","NA"
"-123.53","48.30","RACE ROCKS","1016640","2018-12-24 22:00","2018","12","24","22:00","7.3","","3.7","","78","","","M","20","","1","","","","101.60","","","","","","NA"
"-123.53","48.30","RACE ROCKS","1016640","2018-12-24 23:00","2018","12","24","23:00","7.4","","4.9","","84","","","M","19","","9","","","","101.64","","","","","","NA"
"-123.53","48.30","RACE ROCKS","1016640","2018-12-25 00:00","2018","12","25","00:00","7.2","","4.9","","85","","","M","18","","13","","","","101.64","","","","","","NA"
"-123.53","48.30","RACE ROCKS","1016640","2018-12-25 01:00","2018","12","25","01:00","6.8","","4.0","","83","","","M","7","","16","","","","101.68","","","","","","NA"
"-123.53","48.30","RACE ROCKS","1016640","2018-12-25 02:00","2018","12","25","02:00","6.8","","4.2","","84","","","M","10","","14","","","","101.71","","","","","","NA"
"-123.53","48.30","RACE ROCKS","1016640","2018-12-25 03:00","2018","12","25","03:00","5.7","","3.9","","88","","","M","2","","15","","","","101.78","","","","","","NA"
"-123.53","48.30","RACE ROCKS","1016640","2018-12-25 04:00","2018","12","25","04:00","5.8","","3.8","","87","","","M","3","","5","","","","101.85","","","","","","NA"
"-123.53","48.30","RACE ROCKS","1016640","2018-12-25 05:00","2018","12","25","05:00","5.4","","3.7","","89","","","M","35","","9","","","","101.86","","","","","","NA"
"-123.53","48.30","RACE ROCKS","1016640","2018-12-25 06:00","2018","12","25","06:00","5.7","","3.8","","88","","","M","36","","7","","","","101.89","","","","","","NA"
"-123.53","48.30","RACE ROCKS","1016640","2018-12-25 07:00","2018","12","25","07:00","5.8","","2.4","","79","","","M","2","","20","","","","101.89","","","","","","NA"
"-123.53","48.30","RACE ROCKS","1016640","2018-12-25 08:00","2018","12","25","08:00","5.6","","2.1","","78","","","M","3","","20","","","","101.92","","","","","","NA"
"-123.53","48.30","RACE ROCKS","1016640","2018-12-25 09:00","2018","12","25","09:00","5.8","","1.6","","74","","","M","3","","22","","","","102.02","","","","","","NA"
"-123.53","48.30","RACE ROCKS","1016640","2018-12-25 10:00","2018","12","25","10:00","5.8","","1.5","","74","","","M","3","","19","","","","102.04","","","","","","NA"
"-123.53","48.30","RACE ROCKS","1016640","2018-12-25 11:00","2018","12","25","11:00","5.9","","1.3","","72","","","M","3","","18","","","","102.04","","","","","","NA"
"-123.53","48.30","RACE ROCKS","1016640","2018-12-25 12:00","2018","12","25","12:00","5.9","","1.4","","73","","","M","2","","16","","","","102.01","","","","","","NA"
"-123.53","48.30","RACE ROCKS","1016640","2018-12-25 13:00","2018","12","25","13:00","6.1","","1.8","","74","","","M","3","","13","","","","101.98","","","","","","NA"
"-123.53","48.30","RACE ROCKS","1016640","2018-12-25 14:00","2018","12","25","14:00","6.2","","1.8","","73","","","M","6","","18","","","","101.96","","","","","","NA"
"-123.53","48.30","RACE ROCKS","1016640","2018-12-25 15:00","2018","12","25","15:00","6.3","","2.1","","75","","","M","9","","11","","","","101.99","","","","","","NA"
"-123.53","48.30","RACE ROCKS","1016640","2018-12-25 16:00","2018","12","25","16:00","6.3","","2.2","","75","","","M","8","","15","","","","101.94","","","","","","NA"
"-123.53","48.30","RACE ROCKS","1016640","2018-12-25 17:00","2018","12","25","17:00","6.3","","2.1","","74","","","M","11","","18","","","","101.91","","","","","","NA"
"-123.53","48.30","RACE ROCKS","1016640","2018-12-25 18:00","2018","12","25","18:00","6.4","","1.8","","72","","","M","11","","22","","","","101.86","","","","","","NA"
"-123.53","48.30","RACE ROCKS","1016640","2018-12-25 19:00","2018","12","25","19:00","6.6","","2.4","","75","","","M","11","","21","","","","101.86","","","","","","NA"
"-123.53","48.30","RACE ROCKS","1016640","2018-12-25 20:00","2018","12","25","20:00","6.4","","2.4","","75","","","M","11","","25","","","","101.80","","","","","","NA"
"-123.53","48.30","RACE ROCKS","1016640","2018-12-25 21:00","2018","12","25","21:00","6.4","","3.0","","79","","","M","11","","29","","","","101.70","","","","","","NA"
"-123.53","48.30","RACE ROCKS","1016640","2018-12-25 22:00","2018","12","25","22:00","6.3","","3.3","","81","","","M","10","","30","","","","101.67","","","","","","NA"
"-123.53","48.30","RACE ROCKS","1016640","2018-12-25 23:00","2018","12","25","23:00","6.1","","3.2","","81","","","M","10","","24","","","","101.69","","","","","","NA"
"-123.53","48.30","RACE ROCKS","1016640","2018-12-26 00:00","2018","12","26","00:00","6.2","","3.1","","80","","","M","7","","28","","","","101.60","","","","","","NA"
"-123.53","48.30","RACE ROCKS","1016640","2018-12-26 01:00","2018","12","26","01:00","6.3","","3.4","","82","","","M","9","","29","","","","101.52","","","","","","NA"
"-123.53","48.30","RACE ROCKS","1016640","2018-12-26 02:00","2018","12","26","02:00","6.1","","3.2","","82","","","M","10","","19","","","","101.48","","","","","","NA"
"-123.53","48.30","RACE ROCKS","1016640","2018-12-26 03:00","2018","12","26","03:00","6.0","","2.8","","80","","","M","10","","18","","","","101.33","","","","","","NA"
"-123.53","48.30","RACE ROCKS","1016640","2018-12-26 04:00","2018","12","26","04:00","6.1","","3.0","","80","","","M","6","","14","","","","101.19","","","","","","NA"
"-123.53","48.30","RACE ROCKS","1016640","2018-12-26 05:00","2018","12","26","05:00","6.4","","3.4","","81","","","M","1","","14","","","","101.14","","","","","","NA"
"-123.53","48.30","RACE ROCKS","1016640","2018-12-26 06:00","2018","12","26","06:00","6.3","","3.0","","79","","","M","4","","13","","","","101.09","","","","","","NA"
"-123.53","48.30","RACE ROCKS","1016640","2018-12-26 07:00","2018","12","26","07:00","5.6","","3.6","","87","","","M","36","","20","","","","101.07","","","","","","NA"
"-123.53","48.30","RACE ROCKS","1016640","2018-12-26 08:00","2018","12","26","08:00","5.6","","3.4","","86","","","M","34","","22","","","","101.07","","","","","","NA"
"-123.53","48.30","RACE ROCKS","1016640","2018-12-26 09:00","2018","12","26","09:00","5.4","","3.6","","88","","","M","34","","19","","","","101.10","","","","","","NA"
"-123.53","48.30","RACE ROCKS","1016640","2018-12-26 10:00","2018","12","26","10:00","5.8","","3.9","","88","","","M","34","","12","","","","101.12","","","","","","NA"
"-123.53","48.30","RACE ROCKS","1016640","2018-12-26 11:00","2018","12","26","11:00","5.9","","4.0","","88","","","M","35","","20","","","","101.14","","","","","","NA"
"-123.53","48.30","RACE ROCKS","1016640","2018-12-26 12:00","2018","12","26","12:00","6.1","","4.3","","88","","","M","36","","13","","","","101.13","","","","","","NA"
"-123.53","48.30","RACE ROCKS","1016640","2018-12-26 13:00","2018","12","26","13:00","7.5","","4.1","","79","","","M","14","","7","","","","101.11","","","","","","NA"
"-123.53","48.30","RACE ROCKS","1016640","2018-12-26 14:00","2018","12","26","14:00","6.5","","4.3","","86","","","M","22","","10","","","","101.13","","","","","","NA"
"-123.53","48.30","RACE ROCKS","1016640","2018-12-26 15:00","2018","12","26","15:00","6.7","","4.1","","84","","","M","27","","16","","","","101.23","","","","","","NA"
"-123.53","48.30","RACE ROCKS","1016640","2018-12-26 16:00","2018","12","26","16:00","6.6","","4.3","","86","","","M","25","","14","","","","101.30","","","","","","NA"
"-123.53","48.30","RACE ROCKS","1016640","2018-12-26 17:00","2018","12","26","17:00","6.7","","3.4","","79","","","M","25","","16","","","","101.34","","","","","","NA"
"-123.53","48.30","RACE ROCKS","1016640","2018-12-26 18:00","2018","12","26","18:00","6.3","","4.1","","86","","","M","31","","12","","","","101.43","","","","","","NA"
"-123.53","48.30","RACE ROCKS","1016640","2018-12-26 19:00","2018","12","26","19:00","6.4","","4.1","","85","","","M","29","","10","","","","101.50","","","","","","NA"
"-123.53","48.30","RACE ROCKS","1016640","2018-12-26 20:00","2018","12","26","20:00","6.8","","4.7","","86","","","M","26","","17","","","","101.55","","","","","","NA"
"-123.53","48.30","RACE ROCKS","1016640","2018-12-26 21:00","2018","12","26","21:00","6.2","","4.5","","89","","","M","30","","11","","","","101.65","","","","","","NA"
"-123.53","48.30","RACE ROCKS","1016640","2018-12-26 22:00","2018","12","26","22:00","5.7","","4.2","","90","","","M","32","","5","","","","101.72","","","","","","NA"
"-123.53","48.30","RACE ROCKS","1016640","2018-12-26 23:00","2018","12","26","23:00","6.4","","4.6","","88","","","M","27","","19","","","","101.76","","","","","","NA"
"-123.53","48.30","RACE ROCKS","1016640","2018-12-27 00:00","2018","12","27","00:00","5.7","","4.0","","89","","","M","32","","12","","","","101.86","","","","","","NA"
"-123.53","48.30","RACE ROCKS","1016640","2018-12-27 01:00","2018","12","27","01:00","6.0","","4.0","","87","","","M","33","","11","","","","101.94","","","","","","NA"
"-123.53","48.30","RACE ROCKS","1016640","2018-12-27 02:00","2018","12","27","02:00","5.0","","3.2","","88","","","M","1","","13","","","","102.04","","","","","","NA"
"-123.53","48.30","RACE ROCKS","1016640","2018-12-27 03:00","2018","12","27","03:00","5.6","","3.6","","87","","","M","7","","7","","","","102.11","","","","","","NA"
"-123.53","48.30","RACE ROCKS","1016640","2018-12-27 04:00","2018","12","27","04:00","5.1","","3.5","","90","","","M","2","","4","","","","102.12","","","","","","NA"
"-123.53","48.30","RACE ROCKS","1016640","2018-12-27 05:00","2018","12","27","05:00","5.5","","3.9","","90","","","M","6","","5","","","","102.17","","","","","","NA"
"-123.53","48.30","RACE ROCKS","1016640","2018-12-27 06:00","2018","12","27","06:00","5.9","","4.1","","88","","","M","3","","9","","","","102.20","","","","","","NA"
"-123.53","48.30","RACE ROCKS","1016640","2018-12-27 07:00","2018","12","27","07:00","5.5","","2.8","","83","","","M","5","","12","","","","102.28","","","","","","NA"
"-123.53","48.30","RACE ROCKS","1016640","2018-12-27 08:00","2018","12","27","08:00","5.1","","2.2","","81","","","M","5","","6","","","","102.38","","","","","","NA"
"-123.53","48.30","RACE ROCKS","1016640","2018-12-27 09:00","2018","12","27","09:00","5.3","","2.3","","81","","","M","6","","7","","","","102.45","","","","","","NA"
"-123.53","48.30","RACE ROCKS","1016640","2018-12-27 10:00","2018","12","27","10:00","5.4","","2.0","","78","","","M","7","","16","","","","102.49","","","","","","NA"
"-123.53","48.30","RACE ROCKS","1016640","2018-12-27 11:00","2018","12","27","11:00","5.6","","1.8","","76","","","M","4","","14","","","","102.50","","","","","","NA"
"-123.53","48.30","RACE ROCKS","1016640","2018-12-27 12:00","2018","12","27","12:00","5.7","","1.8","","76","","","M","6","","14","","","","102.46","","","","","","NA"
"-123.53","48.30","RACE ROCKS","1016640","2018-12-27 13:00","2018","12","27","13:00","6.0","","1.7","","74","","","M","7","","11","","","","102.45","","","","","","NA"
"-123.53","48.30","RACE ROCKS","1016640","2018-12-27 14:00","2018","12","27","14:00","6.1","","2.2","","76","","","M","8","","17","","","","102.48","","","","","","NA"
"-123.53","48.30","RACE ROCKS","1016640","2018-12-27 15:00","2018","12","27","15:00","6.2","","2.5","","77","","","M","7","","18","","","","102.51","","","","","","NA"
"-123.53","48.30","RACE ROCKS","1016640","2018-12-27 16:00","2018","12","27","16:00","6.3","","2.7","","78","","","M","8","","17","","","","102.53","","","","","","NA"
"-123.53","48.30","RACE ROCKS","1016640","2018-12-27 17:00","2018","12","27","17:00","6.3","","3.0","","79","","","M","8","","17","","","","102.51","","","","","","NA"
"-123.53","48.30","RACE ROCKS","1016640","2018-12-27 18:00","2018","12","27","18:00","6.6","","3.2","","79","","","M","8","","14","","","","102.48","","","","","","NA"
"-123.53","48.30","RACE ROCKS","1016640","2018-12-27 19:00","2018","12","27","19:00","6.6","","2.9","","77","","","M","7","","13","","","","102.55","","","","","","NA"
"-123.53","48.30","RACE ROCKS","1016640","2018-12-27 20:00","2018","12","27","20:00","5.5","","4.0","","90","","","M","2","","15","","","","102.52","","","","","","NA"
"-123.53","48.30","RACE ROCKS","1016640","2018-12-27 21:00","2018","12","27","21:00","5.4","","4.3","","93","","","M","36","","20","","","","102.51","","","","","","NA"
"-123.53","48.30","RACE ROCKS","1016640","2018-12-27 22:00","2018","12","27","22:00","5.7","","4.5","","92","","","M","36","","24","","","","102.48","","","","","","NA"
"-123.53","48.30","RACE ROCKS","1016640","2018-12-27 23:00","2018","12","27","23:00","5.9","","4.5","","91","","","M","1","","23","","","","102.48","","","","","","NA"
"-123.53","48.30","RACE ROCKS","1016640","2018-12-28 00:00","2018","12","28","00:00","6.7","","4.5","","86","","","M","7","","14","","","","102.48","","","","","","NA"
"-123.53","48.30","RACE ROCKS","1016640","2018-12-28 01:00","2018","12","28","01:00","6.3","","4.4","","88","","","M","10","","14","","","","102.46","","","","","","NA"
"-123.53","48.30","RACE ROCKS","1016640","2018-12-28 02:00","2018","12","28","02:00","6.3","","4.3","","87","","","M","5","","11","","","","102.46","","","","","","NA"
"-123.53","48.30","RACE ROCKS","1016640","2018-12-28 03:00","2018","12","28","03:00","6.1","","4.5","","89","","","M","9","","18","","","","102.41","","","","","","NA"
"-123.53","48.30","RACE ROCKS","1016640","2018-12-28 04:00","2018","12","28","04:00","6.3","","4.4","","87","","","M","6","","15","","","","102.36","","","","","","NA"
"-123.53","48.30","RACE ROCKS","1016640","2018-12-28 05:00","2018","12","28","05:00","6.3","","4.6","","89","","","M","7","","12","","","","102.31","","","","","","NA"
"-123.53","48.30","RACE ROCKS","1016640","2018-12-28 06:00","2018","12","28","06:00","6.0","","4.0","","87","","","M","8","","8","","","","102.28","","","","","","NA"
"-123.53","48.30","RACE ROCKS","1016640","2018-12-28 07:00","2018","12","28","07:00","6.2","","4.5","","88","","","M","7","","13","","","","102.26","","","","","","NA"
"-123.53","48.30","RACE ROCKS","1016640","2018-12-28 08:00","2018","12","28","08:00","5.9","","4.2","","89","","","M","9","","8","","","","102.23","","","","","","NA"
"-123.53","48.30","RACE ROCKS","1016640","2018-12-28 09:00","2018","12","28","09:00","6.0","","4.5","","90","","","M","10","","14","","","","102.23","","","","","","NA"
"-123.53","48.30","RACE ROCKS","1016640","2018-12-28 10:00","2018","12","28","10:00","5.9","","4.6","","91","","","M","9","","17","","","","102.20","","","","","","NA"
"-123.53","48.30","RACE ROCKS","1016640","2018-12-28 11:00","2018","12","28","11:00","6.0","","4.8","","92","","","M","9","","17","","","","102.13","","","","","","NA"
"-123.53","48.30","RACE ROCKS","1016640","2018-12-28 12:00","2018","12","28","12:00","6.1","","4.8","","91","","","M","10","","29","","","","101.97","","","","","","NA"
"-123.53","48.30","RACE ROCKS","1016640","2018-12-28 13:00","2018","12","28","13:00","6.3","","4.7","","90","","","M","11","","20","","","","101.88","","","","","","NA"
"-123.53","48.30","RACE ROCKS","1016640","2018-12-28 14:00","2018","12","28","14:00","6.5","","4.9","","90","","","M","9","","23","","","","101.81","","","","","","NA"
"-123.53","48.30","RACE ROCKS","1016640","2018-12-28 15:00","2018","12","28","15:00","6.7","","5.1","","89","","","M","7","","20","","","","101.78","","","","","","NA"
"-123.53","48.30","RACE ROCKS","1016640","2018-12-28 16:00","2018","12","28","16:00","6.7","","5.3","","90","","","M","6","","13","","","","101.73","","","","","","NA"
"-123.53","48.30","RACE ROCKS","1016640","2018-12-28 17:00","2018","12","28","17:00","6.8","","5.3","","90","","","M","7","","12","","","","101.64","","","","","","NA"
"-123.53","48.30","RACE ROCKS","1016640","2018-12-28 18:00","2018","12","28","18:00","6.9","","5.7","","92","","","M","1","","15","","","","101.60","","","","","","NA"
"-123.53","48.30","RACE ROCKS","1016640","2018-12-28 19:00","2018","12","28","19:00","6.8","","5.9","","94","","","M","3","","13","","","","101.56","","","","","","NA"
"-123.53","48.30","RACE ROCKS","1016640","2018-12-28 20:00","2018","12","28","20:00","6.9","","6.1","","94","","","M","36","","10","","","","101.55","","","","","","NA"
"-123.53","48.30","RACE ROCKS","1016640","2018-12-28 21:00","2018","12","28","21:00","6.8","","6.2","","96","","","M","9","","4","","","","101.52","","","","","","NA"
"-123.53","48.30","RACE ROCKS","1016640","2018-12-28 22:00","2018","12","28","22:00","6.7","","6.1","","96","","","M","15","","7","","","","101.49","","","","","","NA"
"-123.53","48.30","RACE ROCKS","1016640","2018-12-28 23:00","2018","12","28","23:00","7.0","","6.3","","95","","","M","14","","15","","","","101.47","","","","","","NA"
"-123.53","48.30","RACE ROCKS","1016640","2018-12-29 00:00","2018","12","29","00:00","7.5","","6.8","","95","","","M","14","","15","","","","101.52","","","","","","NA"
"-123.53","48.30","RACE ROCKS","1016640","2018-12-29 01:00","2018","12","29","01:00","9.3","","8.7","","96","","","M","21","","18","","","","101.53","","","","","","NA"
"-123.53","48.30","RACE ROCKS","1016640","2018-12-29 02:00","2018","12","29","02:00","10.0","","9.3","","95","","","M","23","","25","","","","101.50","","","","","","NA"
"-123.53","48.30","RACE ROCKS","1016640","2018-12-29 03:00","2018","12","29","03:00","10.6","","8.7","","88","","","M","23","","27","","","","101.45","","","","","","NA"
"-123.53","48.30","RACE ROCKS","1016640","2018-12-29 04:00","2018","12","29","04:00","10.6","","8.2","","85","","","M","24","","32","","","","101.43","","","","","","NA"
"-123.53","48.30","RACE ROCKS","1016640","2018-12-29 05:00","2018","12","29","05:00","10.6","","8.1","","85","","","M","26","","41","","","","101.34","","","","","","NA"
"-123.53","48.30","RACE ROCKS","1016640","2018-12-29 06:00","2018","12","29","06:00","10.8","","8.3","","85","","","M","27","","47","","","","101.26","","","","","","NA"
"-123.53","48.30","RACE ROCKS","1016640","2018-12-29 07:00","2018","12","29","07:00","11.0","","8.1","","82","","","M","26","","48","","","","101.25","","","","","","NA"
"-123.53","48.30","RACE ROCKS","1016640","2018-12-29 08:00","2018","12","29","08:00","9.8","","7.4","","85","","","M","14","","31","","","","101.22","","","","","","NA"
"-123.53","48.30","RACE ROCKS","1016640","2018-12-29 09:00","2018","12","29","09:00","10.4","","7.5","","82","","","M","18","","9","","","","101.12","","","","","","NA"
"-123.53","48.30","RACE ROCKS","1016640","2018-12-29 10:00","2018","12","29","10:00","11.0","","7.9","","81","","","M","27","","11","","","","100.98","","","","","","NA"
"-123.53","48.30","RACE ROCKS","1016640","2018-12-29 11:00","2018","12","29","11:00","11.1","","8.9","","87","","","M","24","","41","","","","100.91","","","","","","NA"
"-123.53","48.30","RACE ROCKS","1016640","2018-12-29 12:00","2018","12","29","12:00","11.0","","9.2","","89","","","M","25","","46","","","","100.81","","","","","","NA"
"-123.53","48.30","RACE ROCKS","1016640","2018-12-29 13:00","2018","12","29","13:00","9.3","","8.2","","93","","","M","28","","60","","","","100.84","","","","","","NA"
"-123.53","48.30","RACE ROCKS","1016640","2018-12-29 14:00","2018","12","29","14:00","9.0","","8.0","","93","","","M","27","","50","","","","100.86","","","","","","NA"
"-123.53","48.30","RACE ROCKS","1016640","2018-12-29 15:00","2018","12","29","15:00","9.6","","7.3","","86","","","M","25","","42","","","","100.89","","","","","","NA"
"-123.53","48.30","RACE ROCKS","1016640","2018-12-29 16:00","2018","12","29","16:00","9.3","","7.5","","89","","","M","26","","45","","","","100.93","","","","","","NA"
"-123.53","48.30","RACE ROCKS","1016640","2018-12-29 17:00","2018","12","29","17:00","9.2","","6.3","","82","","","M","26","","52","","","","100.92","","","","","","NA"
"-123.53","48.30","RACE ROCKS","1016640","2018-12-29 18:00","2018","12","29","18:00","8.7","","6.1","","84","","","M","27","","53","","","","101.02","","","","","","NA"
"-123.53","48.30","RACE ROCKS","1016640","2018-12-29 19:00","2018","12","29","19:00","8.5","","5.8","","83","","","M","26","","54","","","","101.04","","","","","","NA"
"-123.53","48.30","RACE ROCKS","1016640","2018-12-29 20:00","2018","12","29","20:00","8.3","","5.6","","83","","","M","27","","52","","","","101.09","","","","","","NA"
"-123.53","48.30","RACE ROCKS","1016640","2018-12-29 21:00","2018","12","29","21:00","8.2","","4.6","","78","","","M","25","","59","","","","100.99","","","","","","NA"
"-123.53","48.30","RACE ROCKS","1016640","2018-12-29 22:00","2018","12","29","22:00","7.7","","4.5","","80","","","M","26","","66","","","","101.06","","","","","","NA"
"-123.53","48.30","RACE ROCKS","1016640","2018-12-29 23:00","2018","12","29","23:00","8.1","","4.4","","78","","","M","26","","53","","","","101.13","","","","","","NA"
"-123.53","48.30","RACE ROCKS","1016640","2018-12-30 00:00","2018","12","30","00:00","7.2","","4.0","","80","","","M","25","","59","","","","101.12","","","","","","NA"
"-123.53","48.30","RACE ROCKS","1016640","2018-12-30 01:00","2018","12","30","01:00","7.0","","3.9","","81","","","M","25","","60","","","","101.16","","","","","","NA"
"-123.53","48.30","RACE ROCKS","1016640","2018-12-30 02:00","2018","12","30","02:00","7.3","","3.7","","78","","","M","25","","55","","","","101.25","","","","","","NA"
"-123.53","48.30","RACE ROCKS","1016640","2018-12-30 03:00","2018","12","30","03:00","7.3","","3.7","","78","","","M","29","","40","","","","101.49","","","","","","NA"
"-123.53","48.30","RACE ROCKS","1016640","2018-12-30 04:00","2018","12","30","04:00","7.5","","4.1","","79","","","M","26","","50","","","","101.44","","","","","","NA"
"-123.53","48.30","RACE ROCKS","1016640","2018-12-30 05:00","2018","12","30","05:00","7.5","","3.2","","74","","","M","26","","46","","","","101.44","","","","","","NA"
"-123.53","48.30","RACE ROCKS","1016640","2018-12-30 06:00","2018","12","30","06:00","7.4","","3.7","","78","","","M","25","","48","","","","101.49","","","","","","NA"
"-123.53","48.30","RACE ROCKS","1016640","2018-12-30 07:00","2018","12","30","07:00","7.4","","3.3","","75","","","M","26","","45","","","","101.59","","","","","","NA"
"-123.53","48.30","RACE ROCKS","1016640","2018-12-30 08:00","2018","12","30","08:00","7.6","","2.5","","71","","","M","25","","45","","","","101.62","","","","","","NA"
"-123.53","48.30","RACE ROCKS","1016640","2018-12-30 09:00","2018","12","30","09:00","7.5","","3.0","","73","","","M","26","","43","","","","101.72","","","","","","NA"
"-123.53","48.30","RACE ROCKS","1016640","2018-12-30 10:00","2018","12","30","10:00","7.1","","3.0","","75","","","M","28","","33","","","","101.82","","","","","","NA"
"-123.53","48.30","RACE ROCKS","1016640","2018-12-30 11:00","2018","12","30","11:00","7.4","","2.3","","70","","","M","27","","35","","","","101.84","","","","","","NA"
"-123.53","48.30","RACE ROCKS","1016640","2018-12-30 12:00","2018","12","30","12:00","7.3","","2.7","","73","","","M","28","","27","","","","101.78","","","","","","NA"
"-123.53","48.30","RACE ROCKS","1016640","2018-12-30 13:00","2018","12","30","13:00","7.4","","2.2","","70","","","M","28","","32","","","","101.77","","","","","","NA"
"-123.53","48.30","RACE ROCKS","1016640","2018-12-30 14:00","2018","12","30","14:00","8.0","","2.2","","67","","","M","28","","24","","","","101.83","","","","","","NA"
"-123.53","48.30","RACE ROCKS","1016640","2018-12-30 15:00","2018","12","30","15:00","8.0","","1.9","","65","","","M","27","","20","","","","101.91","","","","","","NA"
"-123.53","48.30","RACE ROCKS","1016640","2018-12-30 16:00","2018","12","30","16:00","8.2","","1.3","","62","","","M","30","","10","","","","101.97","","","","","","NA"
"-123.53","48.30","RACE ROCKS","1016640","2018-12-30 17:00","2018","12","30","17:00","7.8","","2.3","","68","","","M","6","","18","","","","102.02","","","","","","NA"
"-123.53","48.30","RACE ROCKS","1016640","2018-12-30 18:00","2018","12","30","18:00","7.0","","1.6","","69","","","M","5","","21","","","","102.10","","","","","","NA"
"-123.53","48.30","RACE ROCKS","1016640","2018-12-30 19:00","2018","12","30","19:00","6.2","","2.2","","76","","","M","4","","7","","","","102.19","","","","","","NA"
"-123.53","48.30","RACE ROCKS","1016640","2018-12-30 20:00","2018","12","30","20:00","6.5","","0.4","","65","","","M","3","","17","","","","102.26","","","","","","NA"
"-123.53","48.30","RACE ROCKS","1016640","2018-12-30 21:00","2018","12","30","21:00","5.9","","1.1","","71","","","M","35","","23","","","","102.32","","","","","","NA"
"-123.53","48.30","RACE ROCKS","1016640","2018-12-30 22:00","2018","12","30","22:00","6.3","","1.5","","71","","","M","1","","32","","","","102.34","","","","","","NA"
"-123.53","48.30","RACE ROCKS","1016640","2018-12-30 23:00","2018","12","30","23:00","6.1","","1.2","","71","","","M","2","","29","","","","102.45","","","","","","NA"
"-123.53","48.30","RACE ROCKS","1016640","2018-12-31 00:00","2018","12","31","00:00","5.8","","1.8","","76","","","M","36","","19","","","","102.54","","","","","","NA"
"-123.53","48.30","RACE ROCKS","1016640","2018-12-31 01:00","2018","12","31","01:00","5.5","","0.9","","73","","","M","35","","12","","","","102.60","","","","","","NA"
"-123.53","48.30","RACE ROCKS","1016640","2018-12-31 02:00","2018","12","31","02:00","5.5","","0.3","","69","","","M","34","","12","","","","102.73","","","","","","NA"
"-123.53","48.30","RACE ROCKS","1016640","2018-12-31 03:00","2018","12","31","03:00","5.0","","0.4","","72","","","M","36","","1","","","","102.78","","","","","","NA"
"-123.53","48.30","RACE ROCKS","1016640","2018-12-31 04:00","2018","12","31","04:00","5.2","","0.4","","71","","","M","4","","7","","","","102.74","","","","","","NA"
"-123.53","48.30","RACE ROCKS","1016640","2018-12-31 05:00","2018","12","31","05:00","4.3","","0.8","","78","","","M","2","","11","","","","102.77","","","","","","NA"
"-123.53","48.30","RACE ROCKS","1016640","2018-12-31 06:00","2018","12","31","06:00","4.2","","0.5","","77","","","M","3","","7","","","","102.79","","","","","","NA"
"-123.53","48.30","RACE ROCKS","1016640","2018-12-31 07:00","2018","12","31","07:00","4.0","","1.2","","82","","","M","4","","7","","","","102.80","","","","","","NA"
"-123.53","48.30","RACE ROCKS","1016640","2018-12-31 08:00","2018","12","31","08:00","3.5","","1.1","","84","","","M","35","","6","","","","102.85","","","","","","NA"
"-123.53","48.30","RACE ROCKS","1016640","2018-12-31 09:00","2018","12","31","09:00","4.1","","0.1","","75","","","M","36","","8","","","","102.87","","","","","","NA"
"-123.53","48.30","RACE ROCKS","1016640","2018-12-31 10:00","2018","12","31","10:00","5.2","","-1.0","","65","","","M","1","","13","","","","102.90","","","","","","NA"
"-123.53","48.30","RACE ROCKS","1016640","2018-12-31 11:00","2018","12","31","11:00","5.2","","-3.2","","55","","","M","2","","23","","","","102.95","","","","","","NA"
"-123.53","48.30","RACE ROCKS","1016640","2018-12-31 12:00","2018","12","31","12:00","5.5","","-2.8","","55","","","M","3","","16","","","","102.90","","","","","","NA"
"-123.53","48.30","RACE ROCKS","1016640","2018-12-31 13:00","2018","12","31","13:00","5.4","","-3.4","","53","","","M","4","","23","","","","102.85","","","","","","NA"
"-123.53","48.30","RACE ROCKS","1016640","2018-12-31 14:00","2018","12","31","14:00","5.2","","-2.9","","56","","","M","7","","17","","","","102.85","","","","","","NA"
"-123.53","48.30","RACE ROCKS","1016640","2018-12-31 15:00","2018","12","31","15:00","5.4","","-2.6","","56","","","M","7","","8","","","","102.90","","","","","","NA"
"-123.53","48.30","RACE ROCKS","1016640","2018-12-31 16:00","2018","12","31","16:00","5.3","","-2.3","","58","","","M","8","","6","","","","102.89","","","","","","NA"
"-123.53","48.30","RACE ROCKS","1016640","2018-12-31 17:00","2018","12","31","17:00","5.2","","-1.8","","61","","","M","10","","8","","","","102.86","","","","","","NA"
"-123.53","48.30","RACE ROCKS","1016640","2018-12-31 18:00","2018","12","31","18:00","4.8","","-1.4","","64","","","M","1","","11","","","","102.87","","","","","","NA"
"-123.53","48.30","RACE ROCKS","1016640","2018-12-31 19:00","2018","12","31","19:00","4.6","","-2.1","","62","","","M","35","","12","","","","102.84","","","","","","NA"
"-123.53","48.30","RACE ROCKS","1016640","2018-12-31 20:00","2018","12","31","20:00","4.4","","-2.1","","63","","","M","35","","12","","","","102.81","","","","","","NA"
"-123.53","48.30","RACE ROCKS","1016640","2018-12-31 21:00","2018","12","31","21:00","4.5","","-1.9","","63","","","M","36","","8","","","","102.72","","","","","","NA"
"-123.53","48.30","RACE ROCKS","1016640","2018-12-31 22:00","2018","12","31","22:00","4.8","","-2.2","","61","","","M","36","","6","","","","102.75","","","","","","NA"
"-123.53","48.30","RACE ROCKS","1016640","2018-12-31 23:00","2018","12","31","23:00","5.0","","-1.2","","64","","","M","36","","8","","","","102.73","","","","","","NA"
