"Longitude (x)","Latitude (y)","Station Name","Climate ID","Date/Time (LST)","Year","Month","Day","Time (LST)","Temp (°C)","Temp Flag","Dew Point Temp (°C)","Dew Point Temp Flag","Rel Hum (%)","Rel Hum Flag","Precip. Amount (mm)","Precip. Amount Flag","Wind Dir (10s deg)","Wind Dir Flag","Wind Spd (km/h)","Wind Spd Flag","Visibility (km)","Visibility Flag","Stn Press (kPa)","Stn Press Flag","Hmdx","Hmdx Flag","Wind Chill","Wind Chill Flag","Weather"
"-123.53","48.30","RACE ROCKS","1016640","2018-05-01 00:00","2018","05","01","00:00","9.7","","7.1","","84","","","M","27","","50","","","","101.47","","","","","","NA"
"-123.53","48.30","RACE ROCKS","1016640","2018-05-01 01:00","2018","05","01","01:00","9.6","","7.1","","85","","","M","27","","55","","","","101.42","","","","","","NA"
"-123.53","48.30","RACE ROCKS","1016640","2018-05-01 02:00","2018","05","01","02:00","9.7","","6.9","","83","","","M","27","","57","","","","101.38","","","","","","NA"
"-123.53","48.30","RACE ROCKS","1016640","2018-05-01 03:00","2018","05","01","03:00","9.4","","6.8","","84","","","M","26","","58","","","","101.36","","","","","","NA"
"-123.53","48.30","RACE ROCKS","1016640","2018-05-01 04:00","2018","05","01","04:00","9.4","","6.4","","82","","","M","26","","41","","","","101.43","","","","","","NA"
"-123.53","48.30","RACE ROCKS","1016640","2018-05-01 05:00","2018","05","01","05:00","9.4","","6.2","","81","","","M","27","","37","","","","101.45","","","","","","NA"
"-123.53","48.30","RACE ROCKS","1016640","2018-05-01 06:00","2018","05","01","06:00","9.4","","6.2","","80","","","M","27","","45","","","","101.44","","","","","","NA"
"-123.53","48.30","RACE ROCKS","1016640","2018-05-01 07:00","2018","05","01","07:00","9.3","","6.4","","82","","","M","27","","32","","","","101.52","","","","","","NA"
"-123.53","48.30","RACE ROCKS","1016640","2018-05-01 08:00","2018","05","01","08:00","9.2","","6.7","","85","","","M","28","","29","","","","101.54","","","","","","NA"
"-123.53","48.30","RACE ROCKS","1016640","2018-05-01 09:00","2018","05","01","09:00","9.5","","6.1","","79","","","M","28","","33","","","","101.59","","","","","","NA"
"-123.53","48.30","RACE ROCKS","1016640","2018-05-01 10:00","2018","05","01","10:00","9.5","","6.3","","81","","","M","27","","26","","","","101.58","","","","","","NA"
"-123.53","48.30","RACE ROCKS","1016640","2018-05-01 11:00","2018","05","01","11:00","9.6","","6.7","","82","","","M","26","","20","","","","101.57","","","","","","NA"
"-123.53","48.30","RACE ROCKS","1016640","2018-05-01 12:00","2018","05","01","12:00","11.0","","5.9","","71","","","M","27","","9","","","","101.61","","","","","","NA"
"-123.53","48.30","RACE ROCKS","1016640","2018-05-01 13:00","2018","05","01","13:00","11.4","","6.0","","69","","","M","26","","5","","","","101.61","","","","","","NA"
"-123.53","48.30","RACE ROCKS","1016640","2018-05-01 14:00","2018","05","01","14:00","12.1","","5.7","","65","","","M","18","","2","","","","101.58","","","","","","NA"
"-123.53","48.30","RACE ROCKS","1016640","2018-05-01 15:00","2018","05","01","15:00","11.1","","7.3","","77","","","M","23","","7","","","","101.54","","","","","","NA"
"-123.53","48.30","RACE ROCKS","1016640","2018-05-01 16:00","2018","05","01","16:00","11.2","","6.2","","71","","","M","26","","8","","","","101.51","","","","","","NA"
"-123.53","48.30","RACE ROCKS","1016640","2018-05-01 17:00","2018","05","01","17:00","11.6","","5.5","","66","","","M","26","","16","","","","101.55","","","","","","NA"
"-123.53","48.30","RACE ROCKS","1016640","2018-05-01 18:00","2018","05","01","18:00","10.2","","8.0","","86","","","M","27","","26","","","","101.52","","","","","","NA"
"-123.53","48.30","RACE ROCKS","1016640","2018-05-01 19:00","2018","05","01","19:00","9.7","","7.5","","86","","","M","27","","33","","","","101.53","","","","","","NA"
"-123.53","48.30","RACE ROCKS","1016640","2018-05-01 20:00","2018","05","01","20:00","9.6","","7.4","","86","","","M","27","","32","","","","101.55","","","","","","NA"
"-123.53","48.30","RACE ROCKS","1016640","2018-05-01 21:00","2018","05","01","21:00","9.9","","7.1","","83","","","M","27","","39","","","","101.59","","","","","","NA"
"-123.53","48.30","RACE ROCKS","1016640","2018-05-01 22:00","2018","05","01","22:00","9.7","","7.0","","84","","","M","27","","37","","","","101.58","","","","","","NA"
"-123.53","48.30","RACE ROCKS","1016640","2018-05-01 23:00","2018","05","01","23:00","9.7","","7.2","","85","","","M","27","","40","","","","101.59","","","","","","NA"
"-123.53","48.30","RACE ROCKS","1016640","2018-05-02 00:00","2018","05","02","00:00","9.5","","8.2","","92","","","M","27","","39","","","","101.58","","","","","","NA"
"-123.53","48.30","RACE ROCKS","1016640","2018-05-02 01:00","2018","05","02","01:00","10.0","","6.6","","79","","","M","28","","30","","","","101.55","","","","","","NA"
"-123.53","48.30","RACE ROCKS","1016640","2018-05-02 02:00","2018","05","02","02:00","10.1","","6.2","","77","","","M","27","","23","","","","101.56","","","","","","NA"
"-123.53","48.30","RACE ROCKS","1016640","2018-05-02 03:00","2018","05","02","03:00","8.8","","7.8","","93","","","M","25","","26","","","","101.61","","","","","","NA"
"-123.53","48.30","RACE ROCKS","1016640","2018-05-02 04:00","2018","05","02","04:00","8.8","","7.7","","92","","","M","25","","25","","","","101.58","","","","","","NA"
"-123.53","48.30","RACE ROCKS","1016640","2018-05-02 05:00","2018","05","02","05:00","8.9","","7.8","","93","","","M","27","","24","","","","101.61","","","","","","NA"
"-123.53","48.30","RACE ROCKS","1016640","2018-05-02 06:00","2018","05","02","06:00","8.8","","8.0","","95","","","M","27","","18","","","","101.64","","","","","","NA"
"-123.53","48.30","RACE ROCKS","1016640","2018-05-02 07:00","2018","05","02","07:00","8.9","","7.7","","92","","","M","26","","20","","","","101.68","","","","","","NA"
"-123.53","48.30","RACE ROCKS","1016640","2018-05-02 08:00","2018","05","02","08:00","8.9","","8.1","","94","","","M","25","","22","","","","101.68","","","","","","NA"
"-123.53","48.30","RACE ROCKS","1016640","2018-05-02 09:00","2018","05","02","09:00","9.2","","8.6","","96","","","M","25","","19","","","","101.68","","","","","","NA"
"-123.53","48.30","RACE ROCKS","1016640","2018-05-02 10:00","2018","05","02","10:00","9.3","","8.7","","96","","","M","25","","22","","","","101.69","","","","","","NA"
"-123.53","48.30","RACE ROCKS","1016640","2018-05-02 11:00","2018","05","02","11:00","9.8","","7.9","","88","","","M","25","","12","","","","101.66","","","","","","NA"
"-123.53","48.30","RACE ROCKS","1016640","2018-05-02 12:00","2018","05","02","12:00","11.1","","6.7","","75","","","M","27","","5","","","","101.65","","","","","","NA"
"-123.53","48.30","RACE ROCKS","1016640","2018-05-02 13:00","2018","05","02","13:00","10.3","","8.2","","87","","","M","25","","14","","","","101.65","","","","","","NA"
"-123.53","48.30","RACE ROCKS","1016640","2018-05-02 14:00","2018","05","02","14:00","11.9","","6.5","","70","","","M","26","","17","","","","101.60","","","","","","NA"
"-123.53","48.30","RACE ROCKS","1016640","2018-05-02 15:00","2018","05","02","15:00","10.2","","8.2","","87","","","M","27","","39","","","","101.57","","","","","","NA"
"-123.53","48.30","RACE ROCKS","1016640","2018-05-02 16:00","2018","05","02","16:00","10.2","","8.3","","88","","","M","26","","31","","","","101.51","","","","","","NA"
"-123.53","48.30","RACE ROCKS","1016640","2018-05-02 17:00","2018","05","02","17:00","10.2","","9.0","","92","","","M","25","","31","","","","101.46","","","","","","NA"
"-123.53","48.30","RACE ROCKS","1016640","2018-05-02 18:00","2018","05","02","18:00","10.3","","8.6","","89","","","M","26","","29","","","","101.42","","","","","","NA"
"-123.53","48.30","RACE ROCKS","1016640","2018-05-02 19:00","2018","05","02","19:00","10.0","","9.1","","94","","","M","25","","31","","","","101.44","","","","","","NA"
"-123.53","48.30","RACE ROCKS","1016640","2018-05-02 20:00","2018","05","02","20:00","10.1","","9.3","","95","","","M","25","","32","","","","101.46","","","","","","NA"
"-123.53","48.30","RACE ROCKS","1016640","2018-05-02 21:00","2018","05","02","21:00","10.0","","9.4","","96","","","M","25","","30","","","","101.47","","","","","","NA"
"-123.53","48.30","RACE ROCKS","1016640","2018-05-02 22:00","2018","05","02","22:00","10.0","","9.4","","97","","","M","26","","28","","","","101.46","","","","","","NA"
"-123.53","48.30","RACE ROCKS","1016640","2018-05-02 23:00","2018","05","02","23:00","9.8","","9.5","","99","","","M","26","","21","","","","101.48","","","","","","NA"
"-123.53","48.30","RACE ROCKS","1016640","2018-05-03 00:00","2018","05","03","00:00","10.2","","9.1","","93","","","M","26","","20","","","","101.47","","","","","","NA"
"-123.53","48.30","RACE ROCKS","1016640","2018-05-03 01:00","2018","05","03","01:00","9.5","","9.4","","99","","","M","27","","20","","","","101.50","","","","","","NA"
"-123.53","48.30","RACE ROCKS","1016640","2018-05-03 02:00","2018","05","03","02:00","9.6","","9.6","","100","","","M","26","","19","","","","101.52","","","","","","NA"
"-123.53","48.30","RACE ROCKS","1016640","2018-05-03 03:00","2018","05","03","03:00","9.5","","9.5","","100","","","M","26","","23","","","","101.52","","","","","","NA"
"-123.53","48.30","RACE ROCKS","1016640","2018-05-03 04:00","2018","05","03","04:00","9.0","","9.0","","100","","","M","27","","14","","","","101.54","","","","","","NA"
"-123.53","48.30","RACE ROCKS","1016640","2018-05-03 05:00","2018","05","03","05:00","8.8","","8.8","","100","","","M","28","","9","","","","101.54","","","","","","NA"
"-123.53","48.30","RACE ROCKS","1016640","2018-05-03 06:00","2018","05","03","06:00","9.4","","9.4","","100","","","M","2","","7","","","","101.57","","","","","","NA"
"-123.53","48.30","RACE ROCKS","1016640","2018-05-03 07:00","2018","05","03","07:00","9.9","","9.8","","99","","","M","1","","16","","","","101.60","","","","","","NA"
"-123.53","48.30","RACE ROCKS","1016640","2018-05-03 08:00","2018","05","03","08:00","10.0","","9.7","","98","","","M","4","","11","","","","101.63","","","","","","NA"
"-123.53","48.30","RACE ROCKS","1016640","2018-05-03 09:00","2018","05","03","09:00","9.6","","9.1","","96","","","M","29","","8","","","","101.64","","","","","","NA"
"-123.53","48.30","RACE ROCKS","1016640","2018-05-03 10:00","2018","05","03","10:00","9.7","","9.4","","98","","","M","26","","14","","","","101.66","","","","","","NA"
"-123.53","48.30","RACE ROCKS","1016640","2018-05-03 11:00","2018","05","03","11:00","9.4","","9.1","","98","","","M","26","","24","","","","101.65","","","","","","NA"
"-123.53","48.30","RACE ROCKS","1016640","2018-05-03 12:00","2018","05","03","12:00","8.5","","8.5","","100","","","M","26","","28","","","","101.63","","","","","","NA"
"-123.53","48.30","RACE ROCKS","1016640","2018-05-03 13:00","2018","05","03","13:00","8.6","","8.6","","100","","","M","27","","28","","","","101.65","","","","","","NA"
"-123.53","48.30","RACE ROCKS","1016640","2018-05-03 14:00","2018","05","03","14:00","9.8","","9.8","","100","","","M","26","","36","","","","101.62","","","","","","NA"
"-123.53","48.30","RACE ROCKS","1016640","2018-05-03 15:00","2018","05","03","15:00","10.4","","9.6","","95","","","M","25","","35","","","","101.58","","","","","","NA"
"-123.53","48.30","RACE ROCKS","1016640","2018-05-03 16:00","2018","05","03","16:00","11.0","","8.7","","85","","","M","27","","51","","","","101.52","","","","","","NA"
"-123.53","48.30","RACE ROCKS","1016640","2018-05-03 17:00","2018","05","03","17:00","11.7","","8.3","","79","","","M","28","","66","","","","101.55","","","","","","NA"
"-123.53","48.30","RACE ROCKS","1016640","2018-05-03 18:00","2018","05","03","18:00","10.6","","7.9","","83","","","M","28","","68","","","","101.54","","","","","","NA"
"-123.53","48.30","RACE ROCKS","1016640","2018-05-03 19:00","2018","05","03","19:00","11.0","","7.3","","78","","","M","28","","63","","","","101.55","","","","","","NA"
"-123.53","48.30","RACE ROCKS","1016640","2018-05-03 20:00","2018","05","03","20:00","10.8","","7.0","","77","","","M","28","","63","","","","101.58","","","","","","NA"
"-123.53","48.30","RACE ROCKS","1016640","2018-05-03 21:00","2018","05","03","21:00","10.5","","7.0","","79","","","M","28","","57","","","","101.66","","","","","","NA"
"-123.53","48.30","RACE ROCKS","1016640","2018-05-03 22:00","2018","05","03","22:00","10.5","","6.8","","78","","","M","29","","50","","","","101.75","","","","","","NA"
"-123.53","48.30","RACE ROCKS","1016640","2018-05-03 23:00","2018","05","03","23:00","10.4","","6.3","","75","","","M","28","","47","","","","101.78","","","","","","NA"
"-123.53","48.30","RACE ROCKS","1016640","2018-05-04 00:00","2018","05","04","00:00","10.3","","6.0","","75","","","M","28","","38","","","","101.86","","","","","","NA"
"-123.53","48.30","RACE ROCKS","1016640","2018-05-04 01:00","2018","05","04","01:00","10.2","","5.9","","75","","","M","27","","36","","","","101.91","","","","","","NA"
"-123.53","48.30","RACE ROCKS","1016640","2018-05-04 02:00","2018","05","04","02:00","10.2","","5.8","","74","","","M","28","","39","","","","101.93","","","","","","NA"
"-123.53","48.30","RACE ROCKS","1016640","2018-05-04 03:00","2018","05","04","03:00","10.0","","5.8","","75","","","M","28","","31","","","","101.97","","","","","","NA"
"-123.53","48.30","RACE ROCKS","1016640","2018-05-04 04:00","2018","05","04","04:00","9.7","","5.8","","77","","","M","28","","24","","","","102.00","","","","","","NA"
"-123.53","48.30","RACE ROCKS","1016640","2018-05-04 05:00","2018","05","04","05:00","9.5","","6.0","","79","","","M","26","","14","","","","102.02","","","","","","NA"
"-123.53","48.30","RACE ROCKS","1016640","2018-05-04 06:00","2018","05","04","06:00","9.4","","6.5","","82","","","M","27","","20","","","","102.07","","","","","","NA"
"-123.53","48.30","RACE ROCKS","1016640","2018-05-04 07:00","2018","05","04","07:00","9.4","","6.8","","84","","","M","27","","20","","","","102.10","","","","","","NA"
"-123.53","48.30","RACE ROCKS","1016640","2018-05-04 08:00","2018","05","04","08:00","9.5","","7.0","","84","","","M","25","","23","","","","102.14","","","","","","NA"
"-123.53","48.30","RACE ROCKS","1016640","2018-05-04 09:00","2018","05","04","09:00","9.8","","7.1","","83","","","M","25","","17","","","","102.18","","","","","","NA"
"-123.53","48.30","RACE ROCKS","1016640","2018-05-04 10:00","2018","05","04","10:00","9.8","","7.1","","83","","","M","26","","18","","","","102.21","","","","","","NA"
"-123.53","48.30","RACE ROCKS","1016640","2018-05-04 11:00","2018","05","04","11:00","9.8","","7.3","","84","","","M","26","","14","","","","102.24","","","","","","NA"
"-123.53","48.30","RACE ROCKS","1016640","2018-05-04 12:00","2018","05","04","12:00","10.3","","7.2","","81","","","M","25","","11","","","","102.22","","","","","","NA"
"-123.53","48.30","RACE ROCKS","1016640","2018-05-04 13:00","2018","05","04","13:00","10.3","","7.5","","83","","","M","23","","15","","","","102.18","","","","","","NA"
"-123.53","48.30","RACE ROCKS","1016640","2018-05-04 14:00","2018","05","04","14:00","10.4","","7.6","","83","","","M","24","","21","","","","102.19","","","","","","NA"
"-123.53","48.30","RACE ROCKS","1016640","2018-05-04 15:00","2018","05","04","15:00","10.0","","7.9","","86","","","M","26","","19","","","","102.21","","","","","","NA"
"-123.53","48.30","RACE ROCKS","1016640","2018-05-04 16:00","2018","05","04","16:00","10.0","","8.2","","88","","","M","24","","22","","","","102.15","","","","","","NA"
"-123.53","48.30","RACE ROCKS","1016640","2018-05-04 17:00","2018","05","04","17:00","10.0","","8.0","","88","","","M","25","","37","","","","102.03","","","","","","NA"
"-123.53","48.30","RACE ROCKS","1016640","2018-05-04 18:00","2018","05","04","18:00","10.3","","8.0","","86","","","M","24","","36","","","","101.98","","","","","","NA"
"-123.53","48.30","RACE ROCKS","1016640","2018-05-04 19:00","2018","05","04","19:00","9.9","","8.1","","89","","","M","25","","26","","","","102.05","","","","","","NA"
"-123.53","48.30","RACE ROCKS","1016640","2018-05-04 20:00","2018","05","04","20:00","9.7","","8.9","","95","","","M","26","","28","","","","102.08","","","","","","NA"
"-123.53","48.30","RACE ROCKS","1016640","2018-05-04 21:00","2018","05","04","21:00","10.6","","7.4","","81","","","M","28","","21","","","","102.07","","","","","","NA"
"-123.53","48.30","RACE ROCKS","1016640","2018-05-04 22:00","2018","05","04","22:00","10.0","","7.8","","86","","","M","26","","24","","","","102.03","","","","","","NA"
"-123.53","48.30","RACE ROCKS","1016640","2018-05-04 23:00","2018","05","04","23:00","9.5","","9.2","","98","","","M","25","","22","","","","102.05","","","","","","NA"
"-123.53","48.30","RACE ROCKS","1016640","2018-05-05 00:00","2018","05","05","00:00","9.4","","9.3","","99","","","M","27","","20","","","","102.04","","","","","","NA"
"-123.53","48.30","RACE ROCKS","1016640","2018-05-05 01:00","2018","05","05","01:00","8.7","","8.6","","100","","","M","27","","14","","","","102.03","","","","","","NA"
"-123.53","48.30","RACE ROCKS","1016640","2018-05-05 02:00","2018","05","05","02:00","8.9","","8.9","","100","","","M","27","","14","","","","102.03","","","","","","NA"
"-123.53","48.30","RACE ROCKS","1016640","2018-05-05 03:00","2018","05","05","03:00","8.8","","8.8","","100","","","M","26","","8","","","","102.03","","","","","","NA"
"-123.53","48.30","RACE ROCKS","1016640","2018-05-05 04:00","2018","05","05","04:00","8.3","","8.3","","100","","","M","24","","3","","","","102.01","","","","","","NA"
"-123.53","48.30","RACE ROCKS","1016640","2018-05-05 05:00","2018","05","05","05:00","8.4","","8.3","","99","","","M","","","0","","","","101.96","","","","","","NA"
"-123.53","48.30","RACE ROCKS","1016640","2018-05-05 06:00","2018","05","05","06:00","9.6","","9.4","","98","","","M","23","","4","","","","101.95","","","","","","NA"
"-123.53","48.30","RACE ROCKS","1016640","2018-05-05 07:00","2018","05","05","07:00","9.2","","8.9","","98","","","M","20","","7","","","","101.95","","","","","","NA"
"-123.53","48.30","RACE ROCKS","1016640","2018-05-05 08:00","2018","05","05","08:00","10.7","","8.8","","89","","","M","13","","5","","","","101.94","","","","","","NA"
"-123.53","48.30","RACE ROCKS","1016640","2018-05-05 09:00","2018","05","05","09:00","11.9","","8.1","","78","","","M","14","","15","","","","101.92","","","","","","NA"
"-123.53","48.30","RACE ROCKS","1016640","2018-05-05 10:00","2018","05","05","10:00","12.2","","8.0","","76","","","M","15","","23","","","","101.87","","","","","","NA"
"-123.53","48.30","RACE ROCKS","1016640","2018-05-05 11:00","2018","05","05","11:00","12.2","","8.1","","76","","","M","14","","22","","","","101.79","","","","","","NA"
"-123.53","48.30","RACE ROCKS","1016640","2018-05-05 12:00","2018","05","05","12:00","13.0","","8.1","","72","","","M","12","","19","","","","101.71","","","","","","NA"
"-123.53","48.30","RACE ROCKS","1016640","2018-05-05 13:00","2018","05","05","13:00","13.4","","8.2","","71","","","M","13","","23","","","","101.62","","","","","","NA"
"-123.53","48.30","RACE ROCKS","1016640","2018-05-05 14:00","2018","05","05","14:00","14.4","","7.9","","65","","","M","12","","24","","","","101.54","","","","","","NA"
"-123.53","48.30","RACE ROCKS","1016640","2018-05-05 15:00","2018","05","05","15:00","15.7","","7.5","","58","","","M","12","","19","","","","101.46","","","","","","NA"
"-123.53","48.30","RACE ROCKS","1016640","2018-05-05 16:00","2018","05","05","16:00","16.0","","7.0","","55","","","M","13","","19","","","","101.39","","","","","","NA"
"-123.53","48.30","RACE ROCKS","1016640","2018-05-05 17:00","2018","05","05","17:00","16.4","","6.5","","52","","","M","13","","15","","","","101.34","","","","","","NA"
"-123.53","48.30","RACE ROCKS","1016640","2018-05-05 18:00","2018","05","05","18:00","16.2","","7.6","","57","","","M","0","","1","","","","101.29","","","","","","NA"
"-123.53","48.30","RACE ROCKS","1016640","2018-05-05 19:00","2018","05","05","19:00","15.4","","7.0","","57","","","M","19","","3","","","","101.26","","","","","","NA"
"-123.53","48.30","RACE ROCKS","1016640","2018-05-05 20:00","2018","05","05","20:00","14.1","","7.0","","62","","","M","24","","8","","","","101.26","","","","","","NA"
"-123.53","48.30","RACE ROCKS","1016640","2018-05-05 21:00","2018","05","05","21:00","11.9","","8.3","","78","","","M","25","","9","","","","101.32","","","","","","NA"
"-123.53","48.30","RACE ROCKS","1016640","2018-05-05 22:00","2018","05","05","22:00","11.1","","8.6","","85","","","M","27","","13","","","","101.29","","","","","","NA"
"-123.53","48.30","RACE ROCKS","1016640","2018-05-05 23:00","2018","05","05","23:00","10.9","","9.1","","89","","","M","26","","14","","","","101.26","","","","","","NA"
"-123.53","48.30","RACE ROCKS","1016640","2018-05-06 00:00","2018","05","06","00:00","11.0","","9.1","","88","","","M","26","","10","","","","101.23","","","","","","NA"
"-123.53","48.30","RACE ROCKS","1016640","2018-05-06 01:00","2018","05","06","01:00","11.8","","8.4","","80","","","M","24","","9","","","","101.20","","","","","","NA"
"-123.53","48.30","RACE ROCKS","1016640","2018-05-06 02:00","2018","05","06","02:00","11.8","","8.7","","81","","","M","26","","8","","","","101.17","","","","","","NA"
"-123.53","48.30","RACE ROCKS","1016640","2018-05-06 03:00","2018","05","06","03:00","12.7","","8.8","","77","","","M","4","","10","","","","101.16","","","","","","NA"
"-123.53","48.30","RACE ROCKS","1016640","2018-05-06 04:00","2018","05","06","04:00","12.5","","9.0","","79","","","M","4","","14","","","","101.18","","","","","","NA"
"-123.53","48.30","RACE ROCKS","1016640","2018-05-06 05:00","2018","05","06","05:00","13.2","","9.1","","77","","","M","5","","9","","","","101.15","","","","","","NA"
"-123.53","48.30","RACE ROCKS","1016640","2018-05-06 06:00","2018","05","06","06:00","13.6","","9.8","","78","","","M","13","","4","","","","101.16","","","","","","NA"
"-123.53","48.30","RACE ROCKS","1016640","2018-05-06 07:00","2018","05","06","07:00","13.7","","8.8","","72","","","M","14","","9","","","","101.18","","","","","","NA"
"-123.53","48.30","RACE ROCKS","1016640","2018-05-06 08:00","2018","05","06","08:00","14.7","","8.6","","67","","","M","12","","3","","","","101.17","","","","","","NA"
"-123.53","48.30","RACE ROCKS","1016640","2018-05-06 09:00","2018","05","06","09:00","14.8","","8.1","","64","","","M","13","","13","","","","101.21","","","","","","NA"
"-123.53","48.30","RACE ROCKS","1016640","2018-05-06 10:00","2018","05","06","10:00","15.1","","8.7","","65","","","M","14","","19","","","","101.22","","","","","","NA"
"-123.53","48.30","RACE ROCKS","1016640","2018-05-06 11:00","2018","05","06","11:00","15.4","","9.2","","67","","","M","10","","15","","","","101.24","","","","","","NA"
"-123.53","48.30","RACE ROCKS","1016640","2018-05-06 12:00","2018","05","06","12:00","14.5","","9.5","","72","","","M","14","","14","","","","101.24","","","","","","NA"
"-123.53","48.30","RACE ROCKS","1016640","2018-05-06 13:00","2018","05","06","13:00","17.3","","9.9","","62","","","M","14","","11","","","","101.23","","","","","","NA"
"-123.53","48.30","RACE ROCKS","1016640","2018-05-06 14:00","2018","05","06","14:00","17.2","","10.1","","63","","","M","10","","9","","","","101.22","","","","","","NA"
"-123.53","48.30","RACE ROCKS","1016640","2018-05-06 15:00","2018","05","06","15:00","14.8","","9.4","","70","","","M","25","","18","","","","101.24","","","","","","NA"
"-123.53","48.30","RACE ROCKS","1016640","2018-05-06 16:00","2018","05","06","16:00","14.3","","9.4","","72","","","M","27","","32","","","","101.23","","","","","","NA"
"-123.53","48.30","RACE ROCKS","1016640","2018-05-06 17:00","2018","05","06","17:00","12.4","","9.7","","84","","","M","26","","45","","","","101.21","","","","","","NA"
"-123.53","48.30","RACE ROCKS","1016640","2018-05-06 18:00","2018","05","06","18:00","11.7","","9.6","","87","","","M","25","","48","","","","101.18","","","","","","NA"
"-123.53","48.30","RACE ROCKS","1016640","2018-05-06 19:00","2018","05","06","19:00","14.3","","9.0","","71","","","M","28","","52","","","","101.26","","","","","","NA"
"-123.53","48.30","RACE ROCKS","1016640","2018-05-06 20:00","2018","05","06","20:00","13.7","","9.1","","74","","","M","28","","60","","","","101.28","","","","","","NA"
"-123.53","48.30","RACE ROCKS","1016640","2018-05-06 21:00","2018","05","06","21:00","10.9","","9.1","","88","","","M","28","","66","","","","101.35","","","","","","NA"
"-123.53","48.30","RACE ROCKS","1016640","2018-05-06 22:00","2018","05","06","22:00","10.2","","9.7","","96","","","M","27","","66","","","","101.35","","","","","","NA"
"-123.53","48.30","RACE ROCKS","1016640","2018-05-06 23:00","2018","05","06","23:00","10.4","","9.4","","94","","","M","27","","60","","","","101.49","","","","","","NA"
"-123.53","48.30","RACE ROCKS","1016640","2018-05-07 00:00","2018","05","07","00:00","10.1","","9.6","","97","","","M","28","","56","","","","101.57","","","","","","NA"
"-123.53","48.30","RACE ROCKS","1016640","2018-05-07 01:00","2018","05","07","01:00","10.3","","9.6","","96","","","M","27","","53","","","","101.60","","","","","","NA"
"-123.53","48.30","RACE ROCKS","1016640","2018-05-07 02:00","2018","05","07","02:00","10.5","","9.1","","92","","","M","27","","53","","","","101.62","","","","","","NA"
"-123.53","48.30","RACE ROCKS","1016640","2018-05-07 03:00","2018","05","07","03:00","10.3","","8.7","","90","","","M","27","","52","","","","101.69","","","","","","NA"
"-123.53","48.30","RACE ROCKS","1016640","2018-05-07 04:00","2018","05","07","04:00","9.8","","8.9","","94","","","M","27","","42","","","","101.74","","","","","","NA"
"-123.53","48.30","RACE ROCKS","1016640","2018-05-07 05:00","2018","05","07","05:00","9.7","","8.8","","94","","","M","27","","43","","","","101.77","","","","","","NA"
"-123.53","48.30","RACE ROCKS","1016640","2018-05-07 06:00","2018","05","07","06:00","9.6","","8.7","","94","","","M","28","","36","","","","101.86","","","","","","NA"
"-123.53","48.30","RACE ROCKS","1016640","2018-05-07 07:00","2018","05","07","07:00","9.7","","8.8","","94","","","M","28","","33","","","","101.90","","","","","","NA"
"-123.53","48.30","RACE ROCKS","1016640","2018-05-07 08:00","2018","05","07","08:00","9.7","","8.6","","93","","","M","28","","30","","","","101.95","","","","","","NA"
"-123.53","48.30","RACE ROCKS","1016640","2018-05-07 09:00","2018","05","07","09:00","10.0","","9.0","","93","","","M","27","","28","","","","101.96","","","","","","NA"
"-123.53","48.30","RACE ROCKS","1016640","2018-05-07 10:00","2018","05","07","10:00","10.7","","8.8","","88","","","M","26","","20","","","","101.97","","","","","","NA"
"-123.53","48.30","RACE ROCKS","1016640","2018-05-07 11:00","2018","05","07","11:00","10.1","","8.9","","92","","","M","21","","15","","","","102.03","","","","","","NA"
"-123.53","48.30","RACE ROCKS","1016640","2018-05-07 12:00","2018","05","07","12:00","10.4","","8.7","","89","","","M","23","","21","","","","102.06","","","","","","NA"
"-123.53","48.30","RACE ROCKS","1016640","2018-05-07 13:00","2018","05","07","13:00","10.6","","9.4","","93","","","M","23","","21","","","","102.02","","","","","","NA"
"-123.53","48.30","RACE ROCKS","1016640","2018-05-07 14:00","2018","05","07","14:00","10.4","","9.7","","96","","","M","25","","24","","","","101.97","","","","","","NA"
"-123.53","48.30","RACE ROCKS","1016640","2018-05-07 15:00","2018","05","07","15:00","10.3","","9.9","","97","","","M","25","","29","","","","101.90","","","","","","NA"
"-123.53","48.30","RACE ROCKS","1016640","2018-05-07 16:00","2018","05","07","16:00","10.5","","10.0","","97","","","M","23","","27","","","","101.85","","","","","","NA"
"-123.53","48.30","RACE ROCKS","1016640","2018-05-07 17:00","2018","05","07","17:00","10.6","","10.0","","96","","","M","25","","30","","","","101.79","","","","","","NA"
"-123.53","48.30","RACE ROCKS","1016640","2018-05-07 18:00","2018","05","07","18:00","10.4","","9.8","","96","","","M","26","","32","","","","101.76","","","","","","NA"
"-123.53","48.30","RACE ROCKS","1016640","2018-05-07 19:00","2018","05","07","19:00","10.2","","9.7","","97","","","M","26","","35","","","","101.72","","","","","","NA"
"-123.53","48.30","RACE ROCKS","1016640","2018-05-07 20:00","2018","05","07","20:00","9.8","","9.6","","98","","","M","27","","34","","","","101.69","","","","","","NA"
"-123.53","48.30","RACE ROCKS","1016640","2018-05-07 21:00","2018","05","07","21:00","9.6","","9.5","","100","","","M","27","","41","","","","101.71","","","","","","NA"
"-123.53","48.30","RACE ROCKS","1016640","2018-05-07 22:00","2018","05","07","22:00","8.5","","8.5","","100","","","M","26","","41","","","","101.66","","","","","","NA"
"-123.53","48.30","RACE ROCKS","1016640","2018-05-07 23:00","2018","05","07","23:00","8.4","","8.4","","100","","","M","27","","39","","","","101.66","","","","","","NA"
"-123.53","48.30","RACE ROCKS","1016640","2018-05-08 00:00","2018","05","08","00:00","8.4","","8.4","","100","","","M","26","","30","","","","101.69","","","","","","NA"
"-123.53","48.30","RACE ROCKS","1016640","2018-05-08 01:00","2018","05","08","01:00","8.2","","8.2","","100","","","M","26","","27","","","","101.70","","","","","","NA"
"-123.53","48.30","RACE ROCKS","1016640","2018-05-08 02:00","2018","05","08","02:00","8.7","","8.7","","100","","","M","26","","14","","","","101.68","","","","","","NA"
"-123.53","48.30","RACE ROCKS","1016640","2018-05-08 03:00","2018","05","08","03:00","7.9","","7.9","","100","","","M","25","","21","","","","101.66","","","","","","NA"
"-123.53","48.30","RACE ROCKS","1016640","2018-05-08 04:00","2018","05","08","04:00","7.9","","7.9","","100","","","M","26","","14","","","","101.62","","","","","","NA"
"-123.53","48.30","RACE ROCKS","1016640","2018-05-08 05:00","2018","05","08","05:00","7.8","","7.8","","100","","","M","27","","7","","","","101.57","","","","","","NA"
"-123.53","48.30","RACE ROCKS","1016640","2018-05-08 06:00","2018","05","08","06:00","9.0","","9.0","","100","","","M","3","","5","","","","101.52","","","","","","NA"
"-123.53","48.30","RACE ROCKS","1016640","2018-05-08 07:00","2018","05","08","07:00","9.4","","9.4","","100","","","M","15","","6","","","","101.51","","","","","","NA"
"-123.53","48.30","RACE ROCKS","1016640","2018-05-08 08:00","2018","05","08","08:00","9.3","","9.3","","100","","","M","14","","3","","","","101.46","","","","","","NA"
"-123.53","48.30","RACE ROCKS","1016640","2018-05-08 09:00","2018","05","08","09:00","9.4","","9.4","","100","","","M","10","","10","","","","101.39","","","","","","NA"
"-123.53","48.30","RACE ROCKS","1016640","2018-05-08 10:00","2018","05","08","10:00","10.0","","10.0","","100","","","M","9","","13","","","","101.31","","","","","","NA"
"-123.53","48.30","RACE ROCKS","1016640","2018-05-08 11:00","2018","05","08","11:00","11.6","","11.6","","100","","","M","11","","8","","","","101.22","","","","","","NA"
"-123.53","48.30","RACE ROCKS","1016640","2018-05-08 12:00","2018","05","08","12:00","12.4","","11.0","","92","","","M","14","","11","","","","101.15","","","","","","NA"
"-123.53","48.30","RACE ROCKS","1016640","2018-05-08 13:00","2018","05","08","13:00","13.8","","10.8","","82","","","M","16","","16","","","","101.05","","","","","","NA"
"-123.53","48.30","RACE ROCKS","1016640","2018-05-08 14:00","2018","05","08","14:00","12.7","","10.3","","86","","","M","24","","11","","","","101.02","","","","","","NA"
"-123.53","48.30","RACE ROCKS","1016640","2018-05-08 15:00","2018","05","08","15:00","12.4","","10.1","","86","","","M","27","","40","","","","100.95","","","","","","NA"
"-123.53","48.30","RACE ROCKS","1016640","2018-05-08 16:00","2018","05","08","16:00","11.1","","10.4","","95","","","M","25","","38","","","","100.93","","","","","","NA"
"-123.53","48.30","RACE ROCKS","1016640","2018-05-08 17:00","2018","05","08","17:00","17.6","","11.4","","67","","","M","29","","41","","","","100.82","","","","","","NA"
"-123.53","48.30","RACE ROCKS","1016640","2018-05-08 18:00","2018","05","08","18:00","14.6","","9.9","","74","","","M","28","","44","","","","100.72","","","","","","NA"
"-123.53","48.30","RACE ROCKS","1016640","2018-05-08 19:00","2018","05","08","19:00","12.8","","10.4","","85","","","M","22","","27","","","","100.74","","","","","","NA"
"-123.53","48.30","RACE ROCKS","1016640","2018-05-08 20:00","2018","05","08","20:00","13.2","","10.4","","83","","","M","22","","30","","","","100.82","","","","","","NA"
"-123.53","48.30","RACE ROCKS","1016640","2018-05-08 21:00","2018","05","08","21:00","11.8","","10.7","","93","","","M","23","","29","","","","100.81","","","","","","NA"
"-123.53","48.30","RACE ROCKS","1016640","2018-05-08 22:00","2018","05","08","22:00","11.1","","10.8","","98","","","M","26","","29","","","","100.77","","","","","","NA"
"-123.53","48.30","RACE ROCKS","1016640","2018-05-08 23:00","2018","05","08","23:00","13.2","","11.0","","87","","","M","28","","47","","","","100.77","","","","","","NA"
"-123.53","48.30","RACE ROCKS","1016640","2018-05-09 00:00","2018","05","09","00:00","14.0","","11.4","","84","","","M","29","","33","","","","100.81","","","","","","NA"
"-123.53","48.30","RACE ROCKS","1016640","2018-05-09 01:00","2018","05","09","01:00","14.0","","11.1","","83","","","M","28","","24","","","","100.86","","","","","","NA"
"-123.53","48.30","RACE ROCKS","1016640","2018-05-09 02:00","2018","05","09","02:00","13.7","","10.6","","82","","","M","28","","26","","","","100.84","","","","","","NA"
"-123.53","48.30","RACE ROCKS","1016640","2018-05-09 03:00","2018","05","09","03:00","13.2","","9.9","","81","","","M","26","","28","","","","100.87","","","","","","NA"
"-123.53","48.30","RACE ROCKS","1016640","2018-05-09 04:00","2018","05","09","04:00","13.0","","10.2","","83","","","M","28","","33","","","","100.96","","","","","","NA"
"-123.53","48.30","RACE ROCKS","1016640","2018-05-09 05:00","2018","05","09","05:00","12.9","","8.5","","74","","","M","29","","29","","","","101.01","","","","","","NA"
"-123.53","48.30","RACE ROCKS","1016640","2018-05-09 06:00","2018","05","09","06:00","13.2","","8.6","","73","","","M","27","","35","","","","101.05","","","","","","NA"
"-123.53","48.30","RACE ROCKS","1016640","2018-05-09 07:00","2018","05","09","07:00","12.3","","8.8","","79","","","M","29","","36","","","","101.17","","","","","","NA"
"-123.53","48.30","RACE ROCKS","1016640","2018-05-09 08:00","2018","05","09","08:00","12.2","","7.8","","75","","","M","28","","39","","","","101.22","","","","","","NA"
"-123.53","48.30","RACE ROCKS","1016640","2018-05-09 09:00","2018","05","09","09:00","12.5","","7.9","","74","","","M","29","","46","","","","101.22","","","","","","NA"
"-123.53","48.30","RACE ROCKS","1016640","2018-05-09 10:00","2018","05","09","10:00","13.6","","7.2","","65","","","M","28","","37","","","","101.27","","","","","","NA"
"-123.53","48.30","RACE ROCKS","1016640","2018-05-09 11:00","2018","05","09","11:00","13.3","","7.1","","66","","","M","28","","31","","","","101.29","","","","","","NA"
"-123.53","48.30","RACE ROCKS","1016640","2018-05-09 12:00","2018","05","09","12:00","13.9","","7.3","","64","","","M","27","","31","","","","101.32","","","","","","NA"
"-123.53","48.30","RACE ROCKS","1016640","2018-05-09 13:00","2018","05","09","13:00","13.7","","8.2","","69","","","M","28","","40","","","","101.35","","","","","","NA"
"-123.53","48.30","RACE ROCKS","1016640","2018-05-09 14:00","2018","05","09","14:00","13.3","","8.4","","72","","","M","28","","42","","","","101.36","","","","","","NA"
"-123.53","48.30","RACE ROCKS","1016640","2018-05-09 15:00","2018","05","09","15:00","13.0","","8.6","","75","","","M","28","","44","","","","101.37","","","","","","NA"
"-123.53","48.30","RACE ROCKS","1016640","2018-05-09 16:00","2018","05","09","16:00","13.1","","7.4","","68","","","M","29","","46","","","","101.39","","","","","","NA"
"-123.53","48.30","RACE ROCKS","1016640","2018-05-09 17:00","2018","05","09","17:00","13.1","","6.8","","66","","","M","28","","38","","","","101.38","","","","","","NA"
"-123.53","48.30","RACE ROCKS","1016640","2018-05-09 18:00","2018","05","09","18:00","13.2","","6.3","","63","","","M","28","","43","","","","101.35","","","","","","NA"
"-123.53","48.30","RACE ROCKS","1016640","2018-05-09 19:00","2018","05","09","19:00","12.8","","6.5","","65","","","M","29","","41","","","","101.35","","","","","","NA"
"-123.53","48.30","RACE ROCKS","1016640","2018-05-09 20:00","2018","05","09","20:00","12.4","","6.0","","65","","","M","29","","44","","","","101.36","","","","","","NA"
"-123.53","48.30","RACE ROCKS","1016640","2018-05-09 21:00","2018","05","09","21:00","11.9","","5.9","","67","","","M","29","","41","","","","101.39","","","","","","NA"
"-123.53","48.30","RACE ROCKS","1016640","2018-05-09 22:00","2018","05","09","22:00","11.7","","5.9","","68","","","M","29","","47","","","","101.37","","","","","","NA"
"-123.53","48.30","RACE ROCKS","1016640","2018-05-09 23:00","2018","05","09","23:00","11.4","","5.7","","68","","","M","29","","44","","","","101.37","","","","","","NA"
"-123.53","48.30","RACE ROCKS","1016640","2018-05-10 00:00","2018","05","10","00:00","11.6","","5.2","","65","","","M","29","","34","","","","101.41","","","","","","NA"
"-123.53","48.30","RACE ROCKS","1016640","2018-05-10 01:00","2018","05","10","01:00","11.4","","5.4","","66","","","M","29","","18","","","","101.43","","","","","","NA"
"-123.53","48.30","RACE ROCKS","1016640","2018-05-10 02:00","2018","05","10","02:00","11.0","","5.9","","71","","","M","22","","4","","","","101.42","","","","","","NA"
"-123.53","48.30","RACE ROCKS","1016640","2018-05-10 03:00","2018","05","10","03:00","10.0","","7.7","","86","","","M","20","","8","","","","101.42","","","","","","NA"
"-123.53","48.30","RACE ROCKS","1016640","2018-05-10 04:00","2018","05","10","04:00","9.9","","7.3","","84","","","M","33","","10","","","","101.45","","","","","","NA"
"-123.53","48.30","RACE ROCKS","1016640","2018-05-10 05:00","2018","05","10","05:00","9.2","","8.1","","93","","","M","26","","3","","","","101.47","","","","","","NA"
"-123.53","48.30","RACE ROCKS","1016640","2018-05-10 06:00","2018","05","10","06:00","9.4","","9.1","","98","","","M","1","","6","","","","101.49","","","","","","NA"
"-123.53","48.30","RACE ROCKS","1016640","2018-05-10 07:00","2018","05","10","07:00","9.0","","9.0","","100","","","M","21","","4","","","","101.54","","","","","","NA"
"-123.53","48.30","RACE ROCKS","1016640","2018-05-10 08:00","2018","05","10","08:00","9.4","","9.1","","98","","","M","24","","9","","","","101.57","","","","","","NA"
"-123.53","48.30","RACE ROCKS","1016640","2018-05-10 09:00","2018","05","10","09:00","9.5","","9.1","","97","","","M","26","","9","","","","101.60","","","","","","NA"
"-123.53","48.30","RACE ROCKS","1016640","2018-05-10 10:00","2018","05","10","10:00","9.7","","9.2","","97","","","M","26","","13","","","","101.62","","","","","","NA"
"-123.53","48.30","RACE ROCKS","1016640","2018-05-10 11:00","2018","05","10","11:00","9.6","","9.1","","97","","","M","26","","19","","","","101.62","","","","","","NA"
"-123.53","48.30","RACE ROCKS","1016640","2018-05-10 12:00","2018","05","10","12:00","10.0","","9.3","","96","","","M","26","","30","","","","101.59","","","","","","NA"
"-123.53","48.30","RACE ROCKS","1016640","2018-05-10 13:00","2018","05","10","13:00","10.2","","8.4","","89","","","M","27","","50","","","","101.59","","","","","","NA"
"-123.53","48.30","RACE ROCKS","1016640","2018-05-10 14:00","2018","05","10","14:00","11.1","","7.5","","79","","","M","28","","46","","","","101.65","","","","","","NA"
"-123.53","48.30","RACE ROCKS","1016640","2018-05-10 15:00","2018","05","10","15:00","10.7","","7.9","","83","","","M","28","","55","","","","101.65","","","","","","NA"
"-123.53","48.30","RACE ROCKS","1016640","2018-05-10 16:00","2018","05","10","16:00","10.9","","6.8","","76","","","M","28","","57","","","","101.65","","","","","","NA"
"-123.53","48.30","RACE ROCKS","1016640","2018-05-10 17:00","2018","05","10","17:00","10.3","","8.1","","86","","","M","28","","51","","","","101.69","","","","","","NA"
"-123.53","48.30","RACE ROCKS","1016640","2018-05-10 18:00","2018","05","10","18:00","10.3","","7.8","","85","","","M","28","","54","","","","101.66","","","","","","NA"
"-123.53","48.30","RACE ROCKS","1016640","2018-05-10 19:00","2018","05","10","19:00","10.4","","7.4","","82","","","M","28","","51","","","","101.72","","","","","","NA"
"-123.53","48.30","RACE ROCKS","1016640","2018-05-10 20:00","2018","05","10","20:00","10.1","","7.4","","84","","","M","28","","57","","","","101.75","","","","","","NA"
"-123.53","48.30","RACE ROCKS","1016640","2018-05-10 21:00","2018","05","10","21:00","10.0","","7.7","","86","","","M","27","","54","","","","101.78","","","","","","NA"
"-123.53","48.30","RACE ROCKS","1016640","2018-05-10 22:00","2018","05","10","22:00","10.0","","7.3","","84","","","M","26","","47","","","","101.81","","","","","","NA"
"-123.53","48.30","RACE ROCKS","1016640","2018-05-10 23:00","2018","05","10","23:00","10.0","","7.1","","82","","","M","26","","46","","","","101.86","","","","","","NA"
"-123.53","48.30","RACE ROCKS","1016640","2018-05-11 00:00","2018","05","11","00:00","10.1","","7.6","","85","","","M","26","","48","","","","101.88","","","","","","NA"
"-123.53","48.30","RACE ROCKS","1016640","2018-05-11 01:00","2018","05","11","01:00","10.1","","7.3","","83","","","M","27","","47","","","","101.91","","","","","","NA"
"-123.53","48.30","RACE ROCKS","1016640","2018-05-11 02:00","2018","05","11","02:00","10.0","","7.0","","82","","","M","26","","37","","","","101.92","","","","","","NA"
"-123.53","48.30","RACE ROCKS","1016640","2018-05-11 03:00","2018","05","11","03:00","9.9","","7.3","","84","","","M","27","","33","","","","101.94","","","","","","NA"
"-123.53","48.30","RACE ROCKS","1016640","2018-05-11 04:00","2018","05","11","04:00","10.0","","7.4","","84","","","M","28","","28","","","","101.97","","","","","","NA"
"-123.53","48.30","RACE ROCKS","1016640","2018-05-11 05:00","2018","05","11","05:00","9.8","","7.7","","86","","","M","27","","28","","","","102.01","","","","","","NA"
"-123.53","48.30","RACE ROCKS","1016640","2018-05-11 06:00","2018","05","11","06:00","10.1","","7.7","","85","","","M","27","","31","","","","102.09","","","","","","NA"
"-123.53","48.30","RACE ROCKS","1016640","2018-05-11 07:00","2018","05","11","07:00","10.0","","9.0","","93","","","M","26","","25","","","","102.11","","","","","","NA"
"-123.53","48.30","RACE ROCKS","1016640","2018-05-11 08:00","2018","05","11","08:00","10.2","","7.9","","86","","","M","27","","24","","","","102.14","","","","","","NA"
"-123.53","48.30","RACE ROCKS","1016640","2018-05-11 09:00","2018","05","11","09:00","10.5","","7.8","","84","","","M","27","","17","","","","102.16","","","","","","NA"
"-123.53","48.30","RACE ROCKS","1016640","2018-05-11 10:00","2018","05","11","10:00","10.8","","7.9","","82","","","M","27","","13","","","","102.17","","","","","","NA"
"-123.53","48.30","RACE ROCKS","1016640","2018-05-11 11:00","2018","05","11","11:00","10.5","","8.4","","87","","","M","20","","15","","","","102.16","","","","","","NA"
"-123.53","48.30","RACE ROCKS","1016640","2018-05-11 12:00","2018","05","11","12:00","10.6","","8.7","","88","","","M","23","","16","","","","102.12","","","","","","NA"
"-123.53","48.30","RACE ROCKS","1016640","2018-05-11 13:00","2018","05","11","13:00","11.0","","8.9","","87","","","M","24","","20","","","","102.08","","","","","","NA"
"-123.53","48.30","RACE ROCKS","1016640","2018-05-11 14:00","2018","05","11","14:00","10.7","","9.5","","92","","","M","26","","24","","","","102.03","","","","","","NA"
"-123.53","48.30","RACE ROCKS","1016640","2018-05-11 15:00","2018","05","11","15:00","10.6","","9.7","","94","","","M","25","","30","","","","101.97","","","","","","NA"
"-123.53","48.30","RACE ROCKS","1016640","2018-05-11 16:00","2018","05","11","16:00","10.6","","9.6","","93","","","M","27","","33","","","","101.91","","","","","","NA"
"-123.53","48.30","RACE ROCKS","1016640","2018-05-11 17:00","2018","05","11","17:00","10.8","","10.0","","95","","","M","25","","32","","","","101.87","","","","","","NA"
"-123.53","48.30","RACE ROCKS","1016640","2018-05-11 18:00","2018","05","11","18:00","10.9","","10.0","","95","","","M","27","","39","","","","101.81","","","","","","NA"
"-123.53","48.30","RACE ROCKS","1016640","2018-05-11 19:00","2018","05","11","19:00","10.8","","9.9","","94","","","M","27","","36","","","","101.81","","","","","","NA"
"-123.53","48.30","RACE ROCKS","1016640","2018-05-11 20:00","2018","05","11","20:00","10.6","","10.0","","96","","","M","27","","38","","","","101.80","","","","","","NA"
"-123.53","48.30","RACE ROCKS","1016640","2018-05-11 21:00","2018","05","11","21:00","10.5","","10.1","","98","","","M","27","","38","","","","101.83","","","","","","NA"
"-123.53","48.30","RACE ROCKS","1016640","2018-05-11 22:00","2018","05","11","22:00","10.3","","10.1","","99","","","M","26","","28","","","","101.87","","","","","","NA"
"-123.53","48.30","RACE ROCKS","1016640","2018-05-11 23:00","2018","05","11","23:00","10.1","","10.1","","100","","","M","25","","30","","","","101.86","","","","","","NA"
"-123.53","48.30","RACE ROCKS","1016640","2018-05-12 00:00","2018","05","12","00:00","10.0","","10.0","","100","","","M","27","","33","","","","101.85","","","","","","NA"
"-123.53","48.30","RACE ROCKS","1016640","2018-05-12 01:00","2018","05","12","01:00","8.9","","8.9","","100","","","M","27","","19","","","","101.89","","","","","","NA"
"-123.53","48.30","RACE ROCKS","1016640","2018-05-12 02:00","2018","05","12","02:00","8.4","","8.4","","100","","","M","26","","18","","","","101.88","","","","","","NA"
"-123.53","48.30","RACE ROCKS","1016640","2018-05-12 03:00","2018","05","12","03:00","8.0","","8.0","","100","","","M","26","","16","","","","101.90","","","","","","NA"
"-123.53","48.30","RACE ROCKS","1016640","2018-05-12 04:00","2018","05","12","04:00","7.8","","7.8","","100","","","M","26","","12","","","","101.89","","","","","","NA"
"-123.53","48.30","RACE ROCKS","1016640","2018-05-12 05:00","2018","05","12","05:00","9.0","","9.0","","100","","","M","","","0","","","","101.90","","","","","","NA"
"-123.53","48.30","RACE ROCKS","1016640","2018-05-12 06:00","2018","05","12","06:00","11.0","","11.0","","100","","","M","11","","4","","","","101.90","","","","","","NA"
"-123.53","48.30","RACE ROCKS","1016640","2018-05-12 07:00","2018","05","12","07:00","11.4","","11.4","","100","","","M","9","","14","","","","101.90","","","","","","NA"
"-123.53","48.30","RACE ROCKS","1016640","2018-05-12 08:00","2018","05","12","08:00","13.6","","10.7","","83","","","M","12","","23","","","","101.88","","","","","","NA"
"-123.53","48.30","RACE ROCKS","1016640","2018-05-12 09:00","2018","05","12","09:00","14.2","","9.9","","75","","","M","14","","16","","","","101.84","","","","","","NA"
"-123.53","48.30","RACE ROCKS","1016640","2018-05-12 10:00","2018","05","12","10:00","14.9","","9.9","","72","","","M","13","","18","","","","101.76","","","","","","NA"
"-123.53","48.30","RACE ROCKS","1016640","2018-05-12 11:00","2018","05","12","11:00","15.6","","9.8","","69","","","M","13","","13","","","","101.71","","","","","","NA"
"-123.53","48.30","RACE ROCKS","1016640","2018-05-12 12:00","2018","05","12","12:00","15.9","","9.7","","67","","","M","11","","11","","","","101.63","","","","","","NA"
"-123.53","48.30","RACE ROCKS","1016640","2018-05-12 13:00","2018","05","12","13:00","17.0","","9.0","","59","","","M","12","","7","","","","101.55","","","","","","NA"
"-123.53","48.30","RACE ROCKS","1016640","2018-05-12 14:00","2018","05","12","14:00","17.4","","7.9","","53","","","M","13","","13","","","","101.45","","","","","","NA"
"-123.53","48.30","RACE ROCKS","1016640","2018-05-12 15:00","2018","05","12","15:00","18.0","","7.6","","51","","","M","13","","9","","","","101.36","","","","","","NA"
"-123.53","48.30","RACE ROCKS","1016640","2018-05-12 16:00","2018","05","12","16:00","18.3","","7.1","","48","","","M","15","","7","","","","101.32","","","","","","NA"
"-123.53","48.30","RACE ROCKS","1016640","2018-05-12 17:00","2018","05","12","17:00","15.1","","9.2","","68","","","M","26","","24","","","","101.24","","","","","","NA"
"-123.53","48.30","RACE ROCKS","1016640","2018-05-12 18:00","2018","05","12","18:00","16.2","","8.9","","62","","","M","27","","38","","","","101.14","","","","","","NA"
"-123.53","48.30","RACE ROCKS","1016640","2018-05-12 19:00","2018","05","12","19:00","13.8","","9.0","","72","","","M","26","","42","","","","101.08","","","","","","NA"
"-123.53","48.30","RACE ROCKS","1016640","2018-05-12 20:00","2018","05","12","20:00","14.7","","9.1","","69","","","M","27","","39","","","","101.04","","","","","","NA"
"-123.53","48.30","RACE ROCKS","1016640","2018-05-12 21:00","2018","05","12","21:00","12.0","","9.8","","87","","","M","26","","34","","","","101.08","","","","","","NA"
"-123.53","48.30","RACE ROCKS","1016640","2018-05-12 22:00","2018","05","12","22:00","11.9","","9.9","","88","","","M","26","","29","","","","101.08","","","","","","NA"
"-123.53","48.30","RACE ROCKS","1016640","2018-05-12 23:00","2018","05","12","23:00","14.4","","9.5","","73","","","M","27","","25","","","","101.07","","","","","","NA"
"-123.53","48.30","RACE ROCKS","1016640","2018-05-13 00:00","2018","05","13","00:00","15.0","","9.3","","69","","","M","27","","13","","","","101.12","","","","","","NA"
"-123.53","48.30","RACE ROCKS","1016640","2018-05-13 01:00","2018","05","13","01:00","13.6","","10.2","","80","","","M","4","","3","","","","101.13","","","","","","NA"
"-123.53","48.30","RACE ROCKS","1016640","2018-05-13 02:00","2018","05","13","02:00","14.4","","9.3","","72","","","M","6","","11","","","","101.13","","","","","","NA"
"-123.53","48.30","RACE ROCKS","1016640","2018-05-13 03:00","2018","05","13","03:00","13.4","","8.8","","73","","","M","9","","12","","","","101.12","","","","","","NA"
"-123.53","48.30","RACE ROCKS","1016640","2018-05-13 04:00","2018","05","13","04:00","13.0","","9.5","","79","","","M","4","","14","","","","101.12","","","","","","NA"
"-123.53","48.30","RACE ROCKS","1016640","2018-05-13 05:00","2018","05","13","05:00","13.6","","9.7","","77","","","M","9","","13","","","","101.13","","","","","","NA"
"-123.53","48.30","RACE ROCKS","1016640","2018-05-13 06:00","2018","05","13","06:00","15.8","","9.8","","67","","","M","9","","20","","","","101.16","","","","","","NA"
"-123.53","48.30","RACE ROCKS","1016640","2018-05-13 07:00","2018","05","13","07:00","14.5","","9.4","","71","","","M","9","","17","","","","101.19","","","","","","NA"
"-123.53","48.30","RACE ROCKS","1016640","2018-05-13 08:00","2018","05","13","08:00","17.1","","9.6","","61","","","M","11","","25","","","","101.17","","","","","","NA"
"-123.53","48.30","RACE ROCKS","1016640","2018-05-13 09:00","2018","05","13","09:00","16.1","","9.6","","65","","","M","9","","22","","","","101.17","","","","","","NA"
"-123.53","48.30","RACE ROCKS","1016640","2018-05-13 10:00","2018","05","13","10:00","16.6","","9.8","","64","","","M","10","","21","","","","101.15","","","","","","NA"
"-123.53","48.30","RACE ROCKS","1016640","2018-05-13 11:00","2018","05","13","11:00","17.1","","9.9","","62","","","M","11","","18","","","","101.15","","","","","","NA"
"-123.53","48.30","RACE ROCKS","1016640","2018-05-13 12:00","2018","05","13","12:00","17.3","","9.9","","62","","","M","13","","11","","","","101.10","","","","","","NA"
"-123.53","48.30","RACE ROCKS","1016640","2018-05-13 13:00","2018","05","13","13:00","18.6","","9.6","","56","","","M","13","","9","","","","101.04","","","","","","NA"
"-123.53","48.30","RACE ROCKS","1016640","2018-05-13 14:00","2018","05","13","14:00","19.8","","9.3","","51","","","M","11","","15","","","","100.99","","","","","","NA"
"-123.53","48.30","RACE ROCKS","1016640","2018-05-13 15:00","2018","05","13","15:00","17.7","","9.7","","60","","","M","14","","9","","","","100.95","","","","","","NA"
"-123.53","48.30","RACE ROCKS","1016640","2018-05-13 16:00","2018","05","13","16:00","20.7","","9.0","","47","","","M","10","","12","","","","100.89","","","","","","NA"
"-123.53","48.30","RACE ROCKS","1016640","2018-05-13 17:00","2018","05","13","17:00","19.3","","9.4","","53","","","M","13","","10","","","","100.88","","","","","","NA"
"-123.53","48.30","RACE ROCKS","1016640","2018-05-13 18:00","2018","05","13","18:00","23.0","","7.9","","38","","","M","11","","7","","","","100.85","","","","","","NA"
"-123.53","48.30","RACE ROCKS","1016640","2018-05-13 19:00","2018","05","13","19:00","23.2","","7.9","","37","","","M","12","","2","","","","100.84","","","","","","NA"
"-123.53","48.30","RACE ROCKS","1016640","2018-05-13 20:00","2018","05","13","20:00","14.8","","9.5","","71","","","M","25","","18","","","","100.84","","","","","","NA"
"-123.53","48.30","RACE ROCKS","1016640","2018-05-13 21:00","2018","05","13","21:00","14.9","","10.6","","76","","","M","27","","24","","","","100.88","","","","","","NA"
"-123.53","48.30","RACE ROCKS","1016640","2018-05-13 22:00","2018","05","13","22:00","19.2","","7.8","","48","","","M","27","","30","","","","100.86","","","","","","NA"
"-123.53","48.30","RACE ROCKS","1016640","2018-05-13 23:00","2018","05","13","23:00","18.5","","8.7","","53","","","M","27","","25","","","","100.85","","","","","","NA"
"-123.53","48.30","RACE ROCKS","1016640","2018-05-14 00:00","2018","05","14","00:00","18.7","","7.7","","49","","","M","27","","18","","","","100.88","","","","","","NA"
"-123.53","48.30","RACE ROCKS","1016640","2018-05-14 01:00","2018","05","14","01:00","15.0","","9.8","","71","","","M","35","","13","","","","100.93","","","","","","NA"
"-123.53","48.30","RACE ROCKS","1016640","2018-05-14 02:00","2018","05","14","02:00","15.5","","10.0","","70","","","M","4","","4","","","","100.96","","","","","","NA"
"-123.53","48.30","RACE ROCKS","1016640","2018-05-14 03:00","2018","05","14","03:00","12.6","","9.9","","83","","","M","7","","5","","","","101.00","","","","","","NA"
"-123.53","48.30","RACE ROCKS","1016640","2018-05-14 04:00","2018","05","14","04:00","15.1","","9.2","","68","","","M","1","","8","","","","101.00","","","","","","NA"
"-123.53","48.30","RACE ROCKS","1016640","2018-05-14 05:00","2018","05","14","05:00","13.6","","10.0","","78","","","M","25","","12","","","","101.05","","","","","","NA"
"-123.53","48.30","RACE ROCKS","1016640","2018-05-14 06:00","2018","05","14","06:00","12.3","","10.1","","86","","","M","26","","8","","","","101.09","","","","","","NA"
"-123.53","48.30","RACE ROCKS","1016640","2018-05-14 07:00","2018","05","14","07:00","14.0","","9.1","","72","","","M","27","","18","","","","101.12","","","","","","NA"
"-123.53","48.30","RACE ROCKS","1016640","2018-05-14 08:00","2018","05","14","08:00","14.3","","9.5","","73","","","M","26","","20","","","","101.11","","","","","","NA"
"-123.53","48.30","RACE ROCKS","1016640","2018-05-14 09:00","2018","05","14","09:00","13.6","","9.7","","77","","","M","26","","20","","","","101.10","","","","","","NA"
"-123.53","48.30","RACE ROCKS","1016640","2018-05-14 10:00","2018","05","14","10:00","12.7","","10.5","","86","","","M","26","","22","","","","101.09","","","","","","NA"
"-123.53","48.30","RACE ROCKS","1016640","2018-05-14 11:00","2018","05","14","11:00","12.0","","11.3","","96","","","M","26","","26","","","","101.10","","","","","","NA"
"-123.53","48.30","RACE ROCKS","1016640","2018-05-14 12:00","2018","05","14","12:00","11.2","","11.2","","100","","","M","26","","28","","","","101.05","","","","","","NA"
"-123.53","48.30","RACE ROCKS","1016640","2018-05-14 13:00","2018","05","14","13:00","11.6","","11.5","","100","","","M","26","","32","","","","101.01","","","","","","NA"
"-123.53","48.30","RACE ROCKS","1016640","2018-05-14 14:00","2018","05","14","14:00","11.3","","11.3","","100","","","M","26","","36","","","","100.96","","","","","","NA"
"-123.53","48.30","RACE ROCKS","1016640","2018-05-14 15:00","2018","05","14","15:00","11.6","","11.4","","99","","","M","26","","41","","","","100.90","","","","","","NA"
"-123.53","48.30","RACE ROCKS","1016640","2018-05-14 16:00","2018","05","14","16:00","11.2","","11.2","","100","","","M","25","","42","","","","100.81","","","","","","NA"
"-123.53","48.30","RACE ROCKS","1016640","2018-05-14 17:00","2018","05","14","17:00","10.5","","10.5","","100","","","M","26","","44","","","","100.75","","","","","","NA"
"-123.53","48.30","RACE ROCKS","1016640","2018-05-14 18:00","2018","05","14","18:00","10.1","","10.1","","100","","","M","26","","46","","","","100.70","","","","","","NA"
"-123.53","48.30","RACE ROCKS","1016640","2018-05-14 19:00","2018","05","14","19:00","10.0","","10.0","","100","","","M","25","","49","","","","100.63","","","","","","NA"
"-123.53","48.30","RACE ROCKS","1016640","2018-05-14 20:00","2018","05","14","20:00","9.8","","9.8","","100","","","M","26","","49","","","","100.64","","","","","","NA"
"-123.53","48.30","RACE ROCKS","1016640","2018-05-14 21:00","2018","05","14","21:00","9.8","","9.8","","100","","","M","26","","54","","","","100.65","","","","","","NA"
"-123.53","48.30","RACE ROCKS","1016640","2018-05-14 22:00","2018","05","14","22:00","9.6","","9.6","","100","","","M","26","","52","","","","100.67","","","","","","NA"
"-123.53","48.30","RACE ROCKS","1016640","2018-05-14 23:00","2018","05","14","23:00","9.4","","9.4","","100","","","M","26","","51","","","","100.67","","","","","","NA"
"-123.53","48.30","RACE ROCKS","1016640","2018-05-15 00:00","2018","05","15","00:00","9.5","","9.5","","100","","","M","26","","51","","","","100.68","","","","","","NA"
"-123.53","48.30","RACE ROCKS","1016640","2018-05-15 01:00","2018","05","15","01:00","9.7","","9.7","","100","","","M","27","","53","","","","100.67","","","","","","NA"
"-123.53","48.30","RACE ROCKS","1016640","2018-05-15 02:00","2018","05","15","02:00","9.6","","9.6","","100","","","M","27","","57","","","","100.70","","","","","","NA"
"-123.53","48.30","RACE ROCKS","1016640","2018-05-15 03:00","2018","05","15","03:00","9.8","","9.8","","100","","","M","27","","62","","","","100.70","","","","","","NA"
"-123.53","48.30","RACE ROCKS","1016640","2018-05-15 04:00","2018","05","15","04:00","9.9","","9.9","","100","","","M","27","","61","","","","100.75","","","","","","NA"
"-123.53","48.30","RACE ROCKS","1016640","2018-05-15 05:00","2018","05","15","05:00","10.1","","10.1","","100","","","M","27","","54","","","","100.81","","","","","","NA"
"-123.53","48.30","RACE ROCKS","1016640","2018-05-15 06:00","2018","05","15","06:00","10.4","","10.4","","100","","","M","27","","49","","","","100.86","","","","","","NA"
"-123.53","48.30","RACE ROCKS","1016640","2018-05-15 07:00","2018","05","15","07:00","10.2","","10.2","","100","","","M","27","","51","","","","100.86","","","","","","NA"
"-123.53","48.30","RACE ROCKS","1016640","2018-05-15 08:00","2018","05","15","08:00","10.2","","10.2","","100","","","M","27","","49","","","","100.90","","","","","","NA"
"-123.53","48.30","RACE ROCKS","1016640","2018-05-15 09:00","2018","05","15","09:00","10.1","","10.1","","100","","","M","27","","49","","","","100.91","","","","","","NA"
"-123.53","48.30","RACE ROCKS","1016640","2018-05-15 10:00","2018","05","15","10:00","10.2","","10.2","","100","","","M","27","","46","","","","100.92","","","","","","NA"
"-123.53","48.30","RACE ROCKS","1016640","2018-05-15 11:00","2018","05","15","11:00","10.9","","10.9","","100","","","M","27","","42","","","","100.97","","","","","","NA"
"-123.53","48.30","RACE ROCKS","1016640","2018-05-15 12:00","2018","05","15","12:00","11.0","","10.9","","99","","","M","26","","44","","","","100.95","","","","","","NA"
"-123.53","48.30","RACE ROCKS","1016640","2018-05-15 13:00","2018","05","15","13:00","11.4","","11.0","","97","","","M","27","","51","","","","100.92","","","","","","NA"
"-123.53","48.30","RACE ROCKS","1016640","2018-05-15 14:00","2018","05","15","14:00","12.1","","10.9","","93","","","M","27","","60","","","","100.87","","","","","","NA"
"-123.53","48.30","RACE ROCKS","1016640","2018-05-15 15:00","2018","05","15","15:00","13.3","","10.7","","84","","","M","28","","60","","","","100.85","","","","","","NA"
"-123.53","48.30","RACE ROCKS","1016640","2018-05-15 16:00","2018","05","15","16:00","13.9","","11.0","","83","","","M","27","","66","","","","100.77","","","","","","NA"
"-123.53","48.30","RACE ROCKS","1016640","2018-05-15 17:00","2018","05","15","17:00","13.3","","10.6","","84","","","M","28","","63","","","","100.78","","","","","","NA"
"-123.53","48.30","RACE ROCKS","1016640","2018-05-15 18:00","2018","05","15","18:00","13.1","","10.7","","86","","","M","28","","66","","","","100.72","","","","","","NA"
"-123.53","48.30","RACE ROCKS","1016640","2018-05-15 19:00","2018","05","15","19:00","12.5","","10.5","","87","","","M","28","","70","","","","100.70","","","","","","NA"
"-123.53","48.30","RACE ROCKS","1016640","2018-05-15 20:00","2018","05","15","20:00","12.2","","10.2","","88","","","M","28","","68","","","","100.75","","","","","","NA"
"-123.53","48.30","RACE ROCKS","1016640","2018-05-15 21:00","2018","05","15","21:00","11.6","","10.4","","92","","","M","28","","66","","","","100.82","","","","","","NA"
"-123.53","48.30","RACE ROCKS","1016640","2018-05-15 22:00","2018","05","15","22:00","11.5","","10.8","","95","","","M","28","","77","","","","100.83","","","","","","NA"
"-123.53","48.30","RACE ROCKS","1016640","2018-05-15 23:00","2018","05","15","23:00","11.2","","10.8","","98","","","M","28","","72","","","","100.86","","","","","","NA"
"-123.53","48.30","RACE ROCKS","1016640","2018-05-16 00:00","2018","05","16","00:00","11.1","","10.5","","96","","","M","27","","74","","","","100.85","","","","","","NA"
"-123.53","48.30","RACE ROCKS","1016640","2018-05-16 01:00","2018","05","16","01:00","10.9","","10.7","","99","","","M","28","","51","","","","101.06","","","","","","NA"
"-123.53","48.30","RACE ROCKS","1016640","2018-05-16 02:00","2018","05","16","02:00","10.7","","10.3","","97","","","M","27","","58","","","","101.06","","","","","","NA"
"-123.53","48.30","RACE ROCKS","1016640","2018-05-16 03:00","2018","05","16","03:00","10.6","","10.1","","97","","","M","27","","56","","","","101.07","","","","","","NA"
"-123.53","48.30","RACE ROCKS","1016640","2018-05-16 04:00","2018","05","16","04:00","10.6","","9.6","","93","","","M","27","","39","","","","101.16","","","","","","NA"
"-123.53","48.30","RACE ROCKS","1016640","2018-05-16 05:00","2018","05","16","05:00","10.7","","9.6","","93","","","M","27","","37","","","","101.20","","","","","","NA"
"-123.53","48.30","RACE ROCKS","1016640","2018-05-16 06:00","2018","05","16","06:00","10.5","","9.8","","95","","","M","26","","31","","","","101.23","","","","","","NA"
"-123.53","48.30","RACE ROCKS","1016640","2018-05-16 07:00","2018","05","16","07:00","10.4","","9.9","","97","","","M","27","","32","","","","101.25","","","","","","NA"
"-123.53","48.30","RACE ROCKS","1016640","2018-05-16 08:00","2018","05","16","08:00","10.4","","9.8","","97","","","M","27","","31","","","","101.26","","","","","","NA"
"-123.53","48.30","RACE ROCKS","1016640","2018-05-16 09:00","2018","05","16","09:00","10.3","","10.0","","98","","","M","27","","28","","","","101.29","","","","","","NA"
"-123.53","48.30","RACE ROCKS","1016640","2018-05-16 10:00","2018","05","16","10:00","10.7","","9.7","","93","","","M","27","","28","","","","101.31","","","","","","NA"
"-123.53","48.30","RACE ROCKS","1016640","2018-05-16 11:00","2018","05","16","11:00","10.8","","9.2","","90","","","M","26","","27","","","","101.33","","","","","","NA"
"-123.53","48.30","RACE ROCKS","1016640","2018-05-16 12:00","2018","05","16","12:00","11.5","","9.2","","86","","","M","27","","32","","","","101.31","","","","","","NA"
"-123.53","48.30","RACE ROCKS","1016640","2018-05-16 13:00","2018","05","16","13:00","11.5","","9.4","","87","","","M","26","","32","","","","101.33","","","","","","NA"
"-123.53","48.30","RACE ROCKS","1016640","2018-05-16 14:00","2018","05","16","14:00","11.7","","9.3","","85","","","M","27","","39","","","","101.32","","","","","","NA"
"-123.53","48.30","RACE ROCKS","1016640","2018-05-16 15:00","2018","05","16","15:00","12.7","","9.6","","81","","","M","28","","47","","","","101.26","","","","","","NA"
"-123.53","48.30","RACE ROCKS","1016640","2018-05-16 16:00","2018","05","16","16:00","12.9","","9.5","","80","","","M","28","","45","","","","101.26","","","","","","NA"
"-123.53","48.30","RACE ROCKS","1016640","2018-05-16 17:00","2018","05","16","17:00","13.1","","9.5","","79","","","M","28","","43","","","","101.26","","","","","","NA"
"-123.53","48.30","RACE ROCKS","1016640","2018-05-16 18:00","2018","05","16","18:00","12.5","","9.3","","81","","","M","28","","48","","","","101.22","","","","","","NA"
"-123.53","48.30","RACE ROCKS","1016640","2018-05-16 19:00","2018","05","16","19:00","11.5","","9.1","","85","","","M","28","","54","","","","101.24","","","","","","NA"
"-123.53","48.30","RACE ROCKS","1016640","2018-05-16 20:00","2018","05","16","20:00","10.7","","10.0","","96","","","M","27","","55","","","","101.22","","","","","","NA"
"-123.53","48.30","RACE ROCKS","1016640","2018-05-16 21:00","2018","05","16","21:00","10.6","","10.0","","96","","","M","27","","53","","","","101.25","","","","","","NA"
"-123.53","48.30","RACE ROCKS","1016640","2018-05-16 22:00","2018","05","16","22:00","10.5","","10.0","","97","","","M","27","","48","","","","101.32","","","","","","NA"
"-123.53","48.30","RACE ROCKS","1016640","2018-05-16 23:00","2018","05","16","23:00","10.5","","9.9","","96","","","M","27","","49","","","","101.32","","","","","","NA"
"-123.53","48.30","RACE ROCKS","1016640","2018-05-17 00:00","2018","05","17","00:00","10.6","","9.3","","92","","","M","27","","46","","","","101.34","","","","","","NA"
"-123.53","48.30","RACE ROCKS","1016640","2018-05-17 01:00","2018","05","17","01:00","10.7","","9.7","","94","","","M","28","","51","","","","101.34","","","","","","NA"
"-123.53","48.30","RACE ROCKS","1016640","2018-05-17 02:00","2018","05","17","02:00","10.6","","9.6","","93","","","M","27","","49","","","","101.35","","","","","","NA"
"-123.53","48.30","RACE ROCKS","1016640","2018-05-17 03:00","2018","05","17","03:00","10.5","","9.4","","93","","","M","27","","42","","","","101.40","","","","","","NA"
"-123.53","48.30","RACE ROCKS","1016640","2018-05-17 04:00","2018","05","17","04:00","10.7","","9.2","","90","","","M","27","","42","","","","101.39","","","","","","NA"
"-123.53","48.30","RACE ROCKS","1016640","2018-05-17 05:00","2018","05","17","05:00","10.5","","9.9","","96","","","M","26","","39","","","","101.43","","","","","","NA"
"-123.53","48.30","RACE ROCKS","1016640","2018-05-17 06:00","2018","05","17","06:00","10.6","","9.7","","94","","","M","26","","38","","","","101.47","","","","","","NA"
"-123.53","48.30","RACE ROCKS","1016640","2018-05-17 07:00","2018","05","17","07:00","10.1","","9.9","","98","","","M","27","","27","","","","101.50","","","","","","NA"
"-123.53","48.30","RACE ROCKS","1016640","2018-05-17 08:00","2018","05","17","08:00","9.9","","9.8","","99","","","M","25","","22","","","","101.49","","","","","","NA"
"-123.53","48.30","RACE ROCKS","1016640","2018-05-17 09:00","2018","05","17","09:00","10.3","","10.0","","99","","","M","25","","22","","","","101.49","","","","","","NA"
"-123.53","48.30","RACE ROCKS","1016640","2018-05-17 10:00","2018","05","17","10:00","10.5","","9.9","","96","","","M","25","","27","","","","101.47","","","","","","NA"
"-123.53","48.30","RACE ROCKS","1016640","2018-05-17 11:00","2018","05","17","11:00","11.1","","8.9","","87","","","M","27","","29","","","","101.46","","","","","","NA"
"-123.53","48.30","RACE ROCKS","1016640","2018-05-17 12:00","2018","05","17","12:00","11.1","","9.2","","88","","","M","26","","24","","","","101.47","","","","","","NA"
"-123.53","48.30","RACE ROCKS","1016640","2018-05-17 13:00","2018","05","17","13:00","11.4","","9.4","","88","","","M","24","","24","","","","101.46","","","","","","NA"
"-123.53","48.30","RACE ROCKS","1016640","2018-05-17 14:00","2018","05","17","14:00","11.3","","10.3","","94","","","M","25","","33","","","","101.41","","","","","","NA"
"-123.53","48.30","RACE ROCKS","1016640","2018-05-17 15:00","2018","05","17","15:00","11.1","","10.6","","97","","","M","25","","34","","","","101.35","","","","","","NA"
"-123.53","48.30","RACE ROCKS","1016640","2018-05-17 16:00","2018","05","17","16:00","11.3","","9.5","","89","","","M","27","","42","","","","101.31","","","","","","NA"
"-123.53","48.30","RACE ROCKS","1016640","2018-05-17 17:00","2018","05","17","17:00","11.8","","9.2","","84","","","M","27","","43","","","","101.27","","","","","","NA"
"-123.53","48.30","RACE ROCKS","1016640","2018-05-17 18:00","2018","05","17","18:00","13.0","","9.6","","80","","","M","28","","43","","","","101.25","","","","","","NA"
"-123.53","48.30","RACE ROCKS","1016640","2018-05-17 19:00","2018","05","17","19:00","12.4","","9.3","","81","","","M","28","","40","","","","101.26","","","","","","NA"
"-123.53","48.30","RACE ROCKS","1016640","2018-05-17 20:00","2018","05","17","20:00","11.9","","9.2","","83","","","M","28","","43","","","","101.27","","","","","","NA"
"-123.53","48.30","RACE ROCKS","1016640","2018-05-17 21:00","2018","05","17","21:00","11.8","","9.1","","84","","","M","28","","43","","","","101.28","","","","","","NA"
"-123.53","48.30","RACE ROCKS","1016640","2018-05-17 22:00","2018","05","17","22:00","11.5","","9.1","","85","","","M","28","","53","","","","101.24","","","","","","NA"
"-123.53","48.30","RACE ROCKS","1016640","2018-05-17 23:00","2018","05","17","23:00","10.9","","8.7","","86","","","M","28","","51","","","","101.26","","","","","","NA"
"-123.53","48.30","RACE ROCKS","1016640","2018-05-18 00:00","2018","05","18","00:00","10.6","","8.7","","88","","","M","27","","42","","","","101.30","","","","","","NA"
"-123.53","48.30","RACE ROCKS","1016640","2018-05-18 01:00","2018","05","18","01:00","10.7","","8.6","","87","","","M","27","","46","","","","101.30","","","","","","NA"
"-123.53","48.30","RACE ROCKS","1016640","2018-05-18 02:00","2018","05","18","02:00","10.6","","8.6","","88","","","M","27","","48","","","","101.26","","","","","","NA"
"-123.53","48.30","RACE ROCKS","1016640","2018-05-18 03:00","2018","05","18","03:00","10.4","","8.7","","89","","","M","26","","42","","","","101.26","","","","","","NA"
"-123.53","48.30","RACE ROCKS","1016640","2018-05-18 04:00","2018","05","18","04:00","10.3","","9.4","","95","","","M","27","","41","","","","101.26","","","","","","NA"
"-123.53","48.30","RACE ROCKS","1016640","2018-05-18 05:00","2018","05","18","05:00","10.0","","9.6","","97","","","M","27","","31","","","","101.32","","","","","","NA"
"-123.53","48.30","RACE ROCKS","1016640","2018-05-18 06:00","2018","05","18","06:00","10.1","","9.7","","97","","","M","27","","33","","","","101.31","","","","","","NA"
"-123.53","48.30","RACE ROCKS","1016640","2018-05-18 07:00","2018","05","18","07:00","9.9","","9.5","","98","","","M","27","","35","","","","101.32","","","","","","NA"
"-123.53","48.30","RACE ROCKS","1016640","2018-05-18 08:00","2018","05","18","08:00","9.9","","9.4","","97","","","M","27","","32","","","","101.35","","","","","","NA"
"-123.53","48.30","RACE ROCKS","1016640","2018-05-18 09:00","2018","05","18","09:00","10.0","","9.5","","96","","","M","28","","33","","","","101.36","","","","","","NA"
"-123.53","48.30","RACE ROCKS","1016640","2018-05-18 10:00","2018","05","18","10:00","10.4","","9.3","","93","","","M","28","","32","","","","101.38","","","","","","NA"
"-123.53","48.30","RACE ROCKS","1016640","2018-05-18 11:00","2018","05","18","11:00","10.3","","9.7","","96","","","M","27","","32","","","","101.37","","","","","","NA"
"-123.53","48.30","RACE ROCKS","1016640","2018-05-18 12:00","2018","05","18","12:00","10.6","","9.5","","93","","","M","27","","28","","","","101.37","","","","","","NA"
"-123.53","48.30","RACE ROCKS","1016640","2018-05-18 13:00","2018","05","18","13:00","10.7","","9.9","","95","","","M","25","","26","","","","101.39","","","","","","NA"
"-123.53","48.30","RACE ROCKS","1016640","2018-05-18 14:00","2018","05","18","14:00","10.6","","10.2","","97","","","M","26","","24","","","","101.37","","","","","","NA"
"-123.53","48.30","RACE ROCKS","1016640","2018-05-18 15:00","2018","05","18","15:00","10.7","","10.2","","97","","","M","25","","27","","","","101.34","","","","","","NA"
"-123.53","48.30","RACE ROCKS","1016640","2018-05-18 16:00","2018","05","18","16:00","10.4","","10.3","","99","","","M","26","","28","","","","101.33","","","","","","NA"
"-123.53","48.30","RACE ROCKS","1016640","2018-05-18 17:00","2018","05","18","17:00","10.3","","10.3","","100","","","M","25","","27","","","","101.31","","","","","","NA"
"-123.53","48.30","RACE ROCKS","1016640","2018-05-18 18:00","2018","05","18","18:00","10.6","","10.1","","96","","","M","26","","32","","","","101.28","","","","","","NA"
"-123.53","48.30","RACE ROCKS","1016640","2018-05-18 19:00","2018","05","18","19:00","10.5","","9.8","","95","","","M","27","","36","","","","101.28","","","","","","NA"
"-123.53","48.30","RACE ROCKS","1016640","2018-05-18 20:00","2018","05","18","20:00","10.8","","9.0","","89","","","M","28","","40","","","","101.30","","","","","","NA"
"-123.53","48.30","RACE ROCKS","1016640","2018-05-18 21:00","2018","05","18","21:00","10.6","","9.5","","93","","","M","27","","41","","","","101.31","","","","","","NA"
"-123.53","48.30","RACE ROCKS","1016640","2018-05-18 22:00","2018","05","18","22:00","10.5","","9.7","","95","","","M","27","","35","","","","101.30","","","","","","NA"
"-123.53","48.30","RACE ROCKS","1016640","2018-05-18 23:00","2018","05","18","23:00","11.4","","9.2","","86","","","M","28","","36","","","","101.31","","","","","","NA"
"-123.53","48.30","RACE ROCKS","1016640","2018-05-19 00:00","2018","05","19","00:00","11.3","","8.8","","85","","","M","27","","35","","","","101.30","","","","","","NA"
"-123.53","48.30","RACE ROCKS","1016640","2018-05-19 01:00","2018","05","19","01:00","10.2","","9.5","","95","","","M","26","","32","","","","101.26","","","","","","NA"
"-123.53","48.30","RACE ROCKS","1016640","2018-05-19 02:00","2018","05","19","02:00","9.8","","9.6","","98","","","M","26","","29","","","","101.24","","","","","","NA"
"-123.53","48.30","RACE ROCKS","1016640","2018-05-19 03:00","2018","05","19","03:00","9.6","","9.6","","100","","","M","26","","27","","","","101.24","","","","","","NA"
"-123.53","48.30","RACE ROCKS","1016640","2018-05-19 04:00","2018","05","19","04:00","10.3","","10.2","","99","","","M","27","","31","","","","101.23","","","","","","NA"
"-123.53","48.30","RACE ROCKS","1016640","2018-05-19 05:00","2018","05","19","05:00","10.2","","10.0","","99","","","M","27","","30","","","","101.24","","","","","","NA"
"-123.53","48.30","RACE ROCKS","1016640","2018-05-19 06:00","2018","05","19","06:00","9.8","","9.8","","100","","","M","26","","28","","","","101.25","","","","","","NA"
"-123.53","48.30","RACE ROCKS","1016640","2018-05-19 07:00","2018","05","19","07:00","10.4","","10.4","","100","","","M","24","","26","","","","101.27","","","","","","NA"
"-123.53","48.30","RACE ROCKS","1016640","2018-05-19 08:00","2018","05","19","08:00","10.2","","10.2","","100","","","M","24","","29","","","","101.27","","","","","","NA"
"-123.53","48.30","RACE ROCKS","1016640","2018-05-19 09:00","2018","05","19","09:00","10.1","","10.1","","100","","","M","26","","25","","","","101.27","","","","","","NA"
"-123.53","48.30","RACE ROCKS","1016640","2018-05-19 10:00","2018","05","19","10:00","10.2","","10.2","","100","","","M","26","","23","","","","101.27","","","","","","NA"
"-123.53","48.30","RACE ROCKS","1016640","2018-05-19 11:00","2018","05","19","11:00","10.5","","10.5","","100","","","M","26","","26","","","","101.24","","","","","","NA"
"-123.53","48.30","RACE ROCKS","1016640","2018-05-19 12:00","2018","05","19","12:00","10.8","","10.6","","99","","","M","25","","23","","","","101.23","","","","","","NA"
"-123.53","48.30","RACE ROCKS","1016640","2018-05-19 13:00","2018","05","19","13:00","10.7","","10.5","","98","","","M","25","","26","","","","101.19","","","","","","NA"
"-123.53","48.30","RACE ROCKS","1016640","2018-05-19 14:00","2018","05","19","14:00","10.5","","10.4","","99","","","M","27","","24","","","","101.15","","","","","","NA"
"-123.53","48.30","RACE ROCKS","1016640","2018-05-19 15:00","2018","05","19","15:00","10.9","","10.6","","98","","","M","26","","31","","","","101.08","","","","","","NA"
"-123.53","48.30","RACE ROCKS","1016640","2018-05-19 16:00","2018","05","19","16:00","10.8","","9.8","","93","","","M","27","","37","","","","101.03","","","","","","NA"
"-123.53","48.30","RACE ROCKS","1016640","2018-05-19 17:00","2018","05","19","17:00","13.4","","9.4","","77","","","M","28","","41","","","","100.98","","","","","","NA"
"-123.53","48.30","RACE ROCKS","1016640","2018-05-19 18:00","2018","05","19","18:00","13.5","","9.2","","75","","","M","28","","46","","","","100.95","","","","","","NA"
"-123.53","48.30","RACE ROCKS","1016640","2018-05-19 19:00","2018","05","19","19:00","13.5","","9.3","","76","","","M","28","","44","","","","100.96","","","","","","NA"
"-123.53","48.30","RACE ROCKS","1016640","2018-05-19 20:00","2018","05","19","20:00","11.1","","9.3","","89","","","M","28","","49","","","","100.98","","","","","","NA"
"-123.53","48.30","RACE ROCKS","1016640","2018-05-19 21:00","2018","05","19","21:00","11.0","","9.2","","89","","","M","28","","50","","","","101.03","","","","","","NA"
"-123.53","48.30","RACE ROCKS","1016640","2018-05-19 22:00","2018","05","19","22:00","10.7","","9.6","","93","","","M","28","","48","","","","101.04","","","","","","NA"
"-123.53","48.30","RACE ROCKS","1016640","2018-05-19 23:00","2018","05","19","23:00","10.4","","9.7","","96","","","M","27","","49","","","","101.03","","","","","","NA"
"-123.53","48.30","RACE ROCKS","1016640","2018-05-20 00:00","2018","05","20","00:00","10.5","","9.5","","94","","","M","28","","50","","","","101.03","","","","","","NA"
"-123.53","48.30","RACE ROCKS","1016640","2018-05-20 01:00","2018","05","20","01:00","10.1","","9.9","","99","","","M","27","","38","","","","101.08","","","","","","NA"
"-123.53","48.30","RACE ROCKS","1016640","2018-05-20 02:00","2018","05","20","02:00","10.1","","9.9","","99","","","M","27","","44","","","","101.06","","","","","","NA"
"-123.53","48.30","RACE ROCKS","1016640","2018-05-20 03:00","2018","05","20","03:00","10.4","","9.9","","97","","","M","27","","46","","","","101.08","","","","","","NA"
"-123.53","48.30","RACE ROCKS","1016640","2018-05-20 04:00","2018","05","20","04:00","10.0","","10.0","","100","","","M","28","","45","","","","101.10","","","","","","NA"
"-123.53","48.30","RACE ROCKS","1016640","2018-05-20 05:00","2018","05","20","05:00","10.2","","9.2","","94","","","M","28","","42","","","","101.12","","","","","","NA"
"-123.53","48.30","RACE ROCKS","1016640","2018-05-20 06:00","2018","05","20","06:00","10.1","","9.1","","94","","","M","27","","44","","","","101.17","","","","","","NA"
"-123.53","48.30","RACE ROCKS","1016640","2018-05-20 07:00","2018","05","20","07:00","9.8","","9.4","","97","","","M","27","","41","","","","101.22","","","","","","NA"
"-123.53","48.30","RACE ROCKS","1016640","2018-05-20 08:00","2018","05","20","08:00","10.2","","8.8","","91","","","M","27","","41","","","","101.27","","","","","","NA"
"-123.53","48.30","RACE ROCKS","1016640","2018-05-20 09:00","2018","05","20","09:00","10.6","","8.4","","86","","","M","28","","40","","","","101.32","","","","","","NA"
"-123.53","48.30","RACE ROCKS","1016640","2018-05-20 10:00","2018","05","20","10:00","10.5","","8.4","","87","","","M","27","","40","","","","101.34","","","","","","NA"
"-123.53","48.30","RACE ROCKS","1016640","2018-05-20 11:00","2018","05","20","11:00","11.5","","8.0","","79","","","M","27","","38","","","","101.35","","","","","","NA"
"-123.53","48.30","RACE ROCKS","1016640","2018-05-20 12:00","2018","05","20","12:00","12.8","","7.4","","70","","","M","27","","36","","","","101.36","","","","","","NA"
"-123.53","48.30","RACE ROCKS","1016640","2018-05-20 13:00","2018","05","20","13:00","11.4","","8.0","","80","","","M","27","","33","","","","101.39","","","","","","NA"
"-123.53","48.30","RACE ROCKS","1016640","2018-05-20 14:00","2018","05","20","14:00","11.0","","8.5","","85","","","M","27","","43","","","","101.36","","","","","","NA"
"-123.53","48.30","RACE ROCKS","1016640","2018-05-20 15:00","2018","05","20","15:00","10.8","","8.6","","87","","","M","27","","46","","","","101.35","","","","","","NA"
"-123.53","48.30","RACE ROCKS","1016640","2018-05-20 16:00","2018","05","20","16:00","10.7","","8.8","","88","","","M","28","","50","","","","101.32","","","","","","NA"
"-123.53","48.30","RACE ROCKS","1016640","2018-05-20 17:00","2018","05","20","17:00","11.8","","7.9","","77","","","M","28","","51","","","","101.33","","","","","","NA"
"-123.53","48.30","RACE ROCKS","1016640","2018-05-20 18:00","2018","05","20","18:00","11.9","","7.5","","74","","","M","28","","49","","","","101.31","","","","","","NA"
"-123.53","48.30","RACE ROCKS","1016640","2018-05-20 19:00","2018","05","20","19:00","11.8","","6.6","","70","","","M","28","","53","","","","101.29","","","","","","NA"
"-123.53","48.30","RACE ROCKS","1016640","2018-05-20 20:00","2018","05","20","20:00","11.3","","6.6","","73","","","M","28","","53","","","","101.31","","","","","","NA"
"-123.53","48.30","RACE ROCKS","1016640","2018-05-20 21:00","2018","05","20","21:00","11.1","","6.6","","74","","","M","28","","49","","","","101.37","","","","","","NA"
"-123.53","48.30","RACE ROCKS","1016640","2018-05-20 22:00","2018","05","20","22:00","10.3","","7.8","","85","","","M","28","","47","","","","101.39","","","","","","NA"
"-123.53","48.30","RACE ROCKS","1016640","2018-05-20 23:00","2018","05","20","23:00","10.1","","7.6","","84","","","M","28","","43","","","","101.41","","","","","","NA"
"-123.53","48.30","RACE ROCKS","1016640","2018-05-21 00:00","2018","05","21","00:00","9.9","","7.6","","86","","","M","27","","40","","","","101.41","","","","","","NA"
"-123.53","48.30","RACE ROCKS","1016640","2018-05-21 01:00","2018","05","21","01:00","9.6","","7.7","","88","","","M","27","","41","","","","101.39","","","","","","NA"
"-123.53","48.30","RACE ROCKS","1016640","2018-05-21 02:00","2018","05","21","02:00","9.5","","7.8","","89","","","M","27","","38","","","","101.40","","","","","","NA"
"-123.53","48.30","RACE ROCKS","1016640","2018-05-21 03:00","2018","05","21","03:00","9.7","","7.9","","89","","","M","27","","38","","","","101.40","","","","","","NA"
"-123.53","48.30","RACE ROCKS","1016640","2018-05-21 04:00","2018","05","21","04:00","9.4","","8.5","","94","","","M","27","","35","","","","101.40","","","","","","NA"
"-123.53","48.30","RACE ROCKS","1016640","2018-05-21 05:00","2018","05","21","05:00","9.4","","8.8","","96","","","M","27","","29","","","","101.40","","","","","","NA"
"-123.53","48.30","RACE ROCKS","1016640","2018-05-21 06:00","2018","05","21","06:00","9.6","","8.5","","93","","","M","27","","34","","","","101.43","","","","","","NA"
"-123.53","48.30","RACE ROCKS","1016640","2018-05-21 07:00","2018","05","21","07:00","9.4","","9.1","","98","","","M","27","","29","","","","101.46","","","","","","NA"
"-123.53","48.30","RACE ROCKS","1016640","2018-05-21 08:00","2018","05","21","08:00","9.5","","9.3","","99","","","M","26","","27","","","","101.50","","","","","","NA"
"-123.53","48.30","RACE ROCKS","1016640","2018-05-21 09:00","2018","05","21","09:00","9.7","","8.7","","93","","","M","27","","32","","","","101.50","","","","","","NA"
"-123.53","48.30","RACE ROCKS","1016640","2018-05-21 10:00","2018","05","21","10:00","9.6","","9.2","","97","","","M","27","","31","","","","101.52","","","","","","NA"
"-123.53","48.30","RACE ROCKS","1016640","2018-05-21 11:00","2018","05","21","11:00","11.0","","7.7","","80","","","M","27","","28","","","","101.49","","","","","","NA"
"-123.53","48.30","RACE ROCKS","1016640","2018-05-21 12:00","2018","05","21","12:00","11.2","","8.2","","82","","","M","27","","30","","","","101.48","","","","","","NA"
"-123.53","48.30","RACE ROCKS","1016640","2018-05-21 13:00","2018","05","21","13:00","10.5","","8.7","","89","","","M","26","","32","","","","101.48","","","","","","NA"
"-123.53","48.30","RACE ROCKS","1016640","2018-05-21 14:00","2018","05","21","14:00","10.9","","8.8","","87","","","M","25","","24","","","","101.44","","","","","","NA"
"-123.53","48.30","RACE ROCKS","1016640","2018-05-21 15:00","2018","05","21","15:00","10.8","","8.5","","86","","","M","27","","33","","","","101.39","","","","","","NA"
"-123.53","48.30","RACE ROCKS","1016640","2018-05-21 16:00","2018","05","21","16:00","10.6","","9.2","","91","","","M","25","","30","","","","101.34","","","","","","NA"
"-123.53","48.30","RACE ROCKS","1016640","2018-05-21 17:00","2018","05","21","17:00","10.7","","9.4","","92","","","M","26","","32","","","","101.30","","","","","","NA"
"-123.53","48.30","RACE ROCKS","1016640","2018-05-21 18:00","2018","05","21","18:00","10.7","","8.8","","88","","","M","27","","38","","","","101.27","","","","","","NA"
"-123.53","48.30","RACE ROCKS","1016640","2018-05-21 19:00","2018","05","21","19:00","10.6","","8.9","","89","","","M","27","","38","","","","101.25","","","","","","NA"
"-123.53","48.30","RACE ROCKS","1016640","2018-05-21 20:00","2018","05","21","20:00","10.5","","9.7","","95","","","M","28","","43","","","","101.22","","","","","","NA"
"-123.53","48.30","RACE ROCKS","1016640","2018-05-21 21:00","2018","05","21","21:00","10.5","","9.8","","96","","","M","27","","48","","","","101.20","","","","","","NA"
"-123.53","48.30","RACE ROCKS","1016640","2018-05-21 22:00","2018","05","21","22:00","10.1","","10.0","","99","","","M","27","","40","","","","101.22","","","","","","NA"
"-123.53","48.30","RACE ROCKS","1016640","2018-05-21 23:00","2018","05","21","23:00","9.9","","9.9","","100","","","M","26","","39","","","","101.19","","","","","","NA"
"-123.53","48.30","RACE ROCKS","1016640","2018-05-22 00:00","2018","05","22","00:00","10.1","","10.1","","100","","","M","27","","36","","","","101.20","","","","","","NA"
"-123.53","48.30","RACE ROCKS","1016640","2018-05-22 01:00","2018","05","22","01:00","9.8","","9.8","","100","","","M","27","","36","","","","101.17","","","","","","NA"
"-123.53","48.30","RACE ROCKS","1016640","2018-05-22 02:00","2018","05","22","02:00","9.7","","9.7","","100","","","M","27","","34","","","","101.17","","","","","","NA"
"-123.53","48.30","RACE ROCKS","1016640","2018-05-22 03:00","2018","05","22","03:00","9.3","","9.3","","100","","","M","27","","32","","","","101.15","","","","","","NA"
"-123.53","48.30","RACE ROCKS","1016640","2018-05-22 04:00","2018","05","22","04:00","9.3","","9.3","","100","","","M","27","","31","","","","101.16","","","","","","NA"
"-123.53","48.30","RACE ROCKS","1016640","2018-05-22 05:00","2018","05","22","05:00","9.4","","9.4","","100","","","M","27","","28","","","","101.14","","","","","","NA"
"-123.53","48.30","RACE ROCKS","1016640","2018-05-22 06:00","2018","05","22","06:00","9.3","","9.3","","100","","","M","27","","27","","","","101.15","","","","","","NA"
"-123.53","48.30","RACE ROCKS","1016640","2018-05-22 07:00","2018","05","22","07:00","9.4","","9.4","","100","","","M","27","","26","","","","101.16","","","","","","NA"
"-123.53","48.30","RACE ROCKS","1016640","2018-05-22 08:00","2018","05","22","08:00","9.4","","9.4","","100","","","M","26","","23","","","","101.15","","","","","","NA"
"-123.53","48.30","RACE ROCKS","1016640","2018-05-22 09:00","2018","05","22","09:00","9.4","","9.4","","100","","","M","26","","22","","","","101.13","","","","","","NA"
"-123.53","48.30","RACE ROCKS","1016640","2018-05-22 10:00","2018","05","22","10:00","9.0","","9.0","","100","","","M","26","","16","","","","101.10","","","","","","NA"
"-123.53","48.30","RACE ROCKS","1016640","2018-05-22 11:00","2018","05","22","11:00","9.1","","9.1","","100","","","M","26","","17","","","","101.06","","","","","","NA"
"-123.53","48.30","RACE ROCKS","1016640","2018-05-22 12:00","2018","05","22","12:00","11.7","","10.7","","94","","","M","26","","18","","","","101.00","","","","","","NA"
"-123.53","48.30","RACE ROCKS","1016640","2018-05-22 13:00","2018","05","22","13:00","8.8","","8.8","","100","","","M","26","","30","","","","100.94","","","","","","NA"
"-123.53","48.30","RACE ROCKS","1016640","2018-05-22 14:00","2018","05","22","14:00","9.1","","9.1","","100","","","M","26","","37","","","","100.90","","","","","","NA"
"-123.53","48.30","RACE ROCKS","1016640","2018-05-22 15:00","2018","05","22","15:00","9.3","","9.3","","100","","","M","26","","34","","","","100.85","","","","","","NA"
"-123.53","48.30","RACE ROCKS","1016640","2018-05-22 16:00","2018","05","22","16:00","9.8","","9.8","","100","","","M","26","","39","","","","100.77","","","","","","NA"
"-123.53","48.30","RACE ROCKS","1016640","2018-05-22 17:00","2018","05","22","17:00","11.2","","11.2","","100","","","M","26","","40","","","","100.73","","","","","","NA"
"-123.53","48.30","RACE ROCKS","1016640","2018-05-22 18:00","2018","05","22","18:00","11.3","","11.2","","99","","","M","26","","38","","","","100.66","","","","","","NA"
"-123.53","48.30","RACE ROCKS","1016640","2018-05-22 19:00","2018","05","22","19:00","11.4","","11.0","","98","","","M","27","","45","","","","100.62","","","","","","NA"
"-123.53","48.30","RACE ROCKS","1016640","2018-05-22 20:00","2018","05","22","20:00","11.8","","11.3","","97","","","M","27","","57","","","","100.57","","","","","","NA"
"-123.53","48.30","RACE ROCKS","1016640","2018-05-22 21:00","2018","05","22","21:00","11.4","","11.2","","99","","","M","27","","55","","","","100.59","","","","","","NA"
"-123.53","48.30","RACE ROCKS","1016640","2018-05-22 22:00","2018","05","22","22:00","11.2","","11.2","","100","","","M","27","","53","","","","100.58","","","","","","NA"
"-123.53","48.30","RACE ROCKS","1016640","2018-05-22 23:00","2018","05","22","23:00","11.0","","10.8","","99","","","M","27","","52","","","","100.57","","","","","","NA"
"-123.53","48.30","RACE ROCKS","1016640","2018-05-23 00:00","2018","05","23","00:00","10.7","","10.7","","100","","","M","27","","52","","","","100.56","","","","","","NA"
"-123.53","48.30","RACE ROCKS","1016640","2018-05-23 01:00","2018","05","23","01:00","10.4","","10.4","","100","","","M","27","","48","","","","100.56","","","","","","NA"
"-123.53","48.30","RACE ROCKS","1016640","2018-05-23 02:00","2018","05","23","02:00","10.5","","10.5","","100","","","M","27","","36","","","","100.57","","","","","","NA"
"-123.53","48.30","RACE ROCKS","1016640","2018-05-23 03:00","2018","05","23","03:00","10.0","","10.0","","100","","","M","27","","43","","","","100.55","","","","","","NA"
"-123.53","48.30","RACE ROCKS","1016640","2018-05-23 04:00","2018","05","23","04:00","10.0","","10.0","","100","","","M","27","","47","","","","100.52","","","","","","NA"
"-123.53","48.30","RACE ROCKS","1016640","2018-05-23 05:00","2018","05","23","05:00","10.1","","10.1","","100","","","M","27","","53","","","","100.53","","","","","","NA"
"-123.53","48.30","RACE ROCKS","1016640","2018-05-23 06:00","2018","05","23","06:00","10.3","","10.3","","100","","","M","28","","53","","","","100.57","","","","","","NA"
"-123.53","48.30","RACE ROCKS","1016640","2018-05-23 07:00","2018","05","23","07:00","10.1","","10.1","","100","","","M","27","","48","","","","100.60","","","","","","NA"
"-123.53","48.30","RACE ROCKS","1016640","2018-05-23 08:00","2018","05","23","08:00","10.1","","10.1","","100","","","M","27","","43","","","","100.59","","","","","","NA"
"-123.53","48.30","RACE ROCKS","1016640","2018-05-23 09:00","2018","05","23","09:00","10.1","","10.1","","100","","","M","27","","45","","","","100.60","","","","","","NA"
"-123.53","48.30","RACE ROCKS","1016640","2018-05-23 10:00","2018","05","23","10:00","10.2","","10.2","","100","","","M","27","","42","","","","100.59","","","","","","NA"
"-123.53","48.30","RACE ROCKS","1016640","2018-05-23 11:00","2018","05","23","11:00","10.2","","10.2","","100","","","M","27","","41","","","","100.60","","","","","","NA"
"-123.53","48.30","RACE ROCKS","1016640","2018-05-23 12:00","2018","05","23","12:00","10.2","","10.2","","100","","","M","26","","39","","","","100.56","","","","","","NA"
"-123.53","48.30","RACE ROCKS","1016640","2018-05-23 13:00","2018","05","23","13:00","10.3","","10.3","","100","","","M","26","","38","","","","100.55","","","","","","NA"
"-123.53","48.30","RACE ROCKS","1016640","2018-05-23 14:00","2018","05","23","14:00","10.9","","10.9","","100","","","M","26","","47","","","","100.46","","","","","","NA"
"-123.53","48.30","RACE ROCKS","1016640","2018-05-23 15:00","2018","05","23","15:00","11.6","","10.7","","94","","","M","26","","63","","","","100.36","","","","","","NA"
"-123.53","48.30","RACE ROCKS","1016640","2018-05-23 16:00","2018","05","23","16:00","11.6","","11.2","","98","","","M","28","","72","","","","100.39","","","","","","NA"
"-123.53","48.30","RACE ROCKS","1016640","2018-05-23 17:00","2018","05","23","17:00","10.5","","10.5","","100","","","M","28","","76","","","","100.42","","","","","","NA"
"-123.53","48.30","RACE ROCKS","1016640","2018-05-23 18:00","2018","05","23","18:00","11.4","","11.4","","100","","","M","28","","73","","","","100.48","","","","","","NA"
"-123.53","48.30","RACE ROCKS","1016640","2018-05-23 19:00","2018","05","23","19:00","11.7","","10.5","","93","","","M","28","","66","","","","100.55","","","","","","NA"
"-123.53","48.30","RACE ROCKS","1016640","2018-05-23 20:00","2018","05","23","20:00","11.0","","11.0","","100","","","M","28","","76","","","","100.56","","","","","","NA"
"-123.53","48.30","RACE ROCKS","1016640","2018-05-23 21:00","2018","05","23","21:00","11.2","","11.1","","100","","","M","28","","72","","","","100.63","","","","","","NA"
"-123.53","48.30","RACE ROCKS","1016640","2018-05-23 22:00","2018","05","23","22:00","11.1","","11.1","","100","","","M","28","","70","","","","100.66","","","","","","NA"
"-123.53","48.30","RACE ROCKS","1016640","2018-05-23 23:00","2018","05","23","23:00","11.0","","10.6","","98","","","M","27","","74","","","","100.68","","","","","","NA"
"-123.53","48.30","RACE ROCKS","1016640","2018-05-24 00:00","2018","05","24","00:00","10.9","","10.7","","98","","","M","27","","67","","","","100.77","","","","","","NA"
"-123.53","48.30","RACE ROCKS","1016640","2018-05-24 01:00","2018","05","24","01:00","11.0","","10.7","","99","","","M","27","","55","","","","100.91","","","","","","NA"
"-123.53","48.30","RACE ROCKS","1016640","2018-05-24 02:00","2018","05","24","02:00","10.8","","10.8","","100","","","M","28","","45","","","","101.03","","","","","","NA"
"-123.53","48.30","RACE ROCKS","1016640","2018-05-24 03:00","2018","05","24","03:00","11.1","","11.1","","100","","","M","27","","65","","","","100.96","","","","","","NA"
"-123.53","48.30","RACE ROCKS","1016640","2018-05-24 04:00","2018","05","24","04:00","10.4","","10.4","","100","","","M","27","","63","","","","101.00","","","","","","NA"
"-123.53","48.30","RACE ROCKS","1016640","2018-05-24 05:00","2018","05","24","05:00","10.9","","10.9","","100","","","M","27","","36","","","","101.16","","","","","","NA"
"-123.53","48.30","RACE ROCKS","1016640","2018-05-24 06:00","2018","05","24","06:00","11.2","","9.4","","89","","","M","28","","43","","","","101.20","","","","","","NA"
"-123.53","48.30","RACE ROCKS","1016640","2018-05-24 07:00","2018","05","24","07:00","10.6","","10.2","","98","","","M","27","","45","","","","101.26","","","","","","NA"
"-123.53","48.30","RACE ROCKS","1016640","2018-05-24 08:00","2018","05","24","08:00","10.4","","10.1","","98","","","M","28","","46","","","","101.34","","","","","","NA"
"-123.53","48.30","RACE ROCKS","1016640","2018-05-24 09:00","2018","05","24","09:00","10.7","","8.8","","88","","","M","27","","55","","","","101.31","","","","","","NA"
"-123.53","48.30","RACE ROCKS","1016640","2018-05-24 10:00","2018","05","24","10:00","10.1","","9.8","","99","","","M","27","","56","","","","101.32","","","","","","NA"
"-123.53","48.30","RACE ROCKS","1016640","2018-05-24 11:00","2018","05","24","11:00","10.5","","9.0","","91","","","M","27","","57","","","","101.35","","","","","","NA"
"-123.53","48.30","RACE ROCKS","1016640","2018-05-24 12:00","2018","05","24","12:00","10.8","","8.6","","86","","","M","28","","57","","","","101.37","","","","","","NA"
"-123.53","48.30","RACE ROCKS","1016640","2018-05-24 13:00","2018","05","24","13:00","11.7","","8.4","","80","","","M","28","","55","","","","101.38","","","","","","NA"
"-123.53","48.30","RACE ROCKS","1016640","2018-05-24 14:00","2018","05","24","14:00","12.0","","8.4","","79","","","M","28","","49","","","","101.38","","","","","","NA"
"-123.53","48.30","RACE ROCKS","1016640","2018-05-24 15:00","2018","05","24","15:00","12.8","","8.4","","74","","","M","28","","51","","","","101.33","","","","","","NA"
"-123.53","48.30","RACE ROCKS","1016640","2018-05-24 16:00","2018","05","24","16:00","12.8","","7.6","","71","","","M","28","","60","","","","101.30","","","","","","NA"
"-123.53","48.30","RACE ROCKS","1016640","2018-05-24 17:00","2018","05","24","17:00","13.1","","7.3","","68","","","M","28","","48","","","","101.30","","","","","","NA"
"-123.53","48.30","RACE ROCKS","1016640","2018-05-24 18:00","2018","05","24","18:00","11.9","","7.2","","73","","","M","29","","51","","","","101.31","","","","","","NA"
"-123.53","48.30","RACE ROCKS","1016640","2018-05-24 19:00","2018","05","24","19:00","11.2","","7.9","","80","","","M","29","","57","","","","101.31","","","","","","NA"
"-123.53","48.30","RACE ROCKS","1016640","2018-05-24 20:00","2018","05","24","20:00","10.5","","8.0","","85","","","M","28","","56","","","","101.29","","","","","","NA"
"-123.53","48.30","RACE ROCKS","1016640","2018-05-24 21:00","2018","05","24","21:00","10.4","","7.9","","85","","","M","27","","59","","","","101.26","","","","","","NA"
"-123.53","48.30","RACE ROCKS","1016640","2018-05-24 22:00","2018","05","24","22:00","10.2","","8.1","","87","","","M","27","","58","","","","101.25","","","","","","NA"
"-123.53","48.30","RACE ROCKS","1016640","2018-05-24 23:00","2018","05","24","23:00","10.2","","8.1","","87","","","M","26","","61","","","","101.21","","","","","","NA"
"-123.53","48.30","RACE ROCKS","1016640","2018-05-25 00:00","2018","05","25","00:00","10.1","","8.0","","87","","","M","27","","61","","","","101.21","","","","","","NA"
"-123.53","48.30","RACE ROCKS","1016640","2018-05-25 01:00","2018","05","25","01:00","9.8","","8.6","","92","","","M","27","","58","","","","101.17","","","","","","NA"
"-123.53","48.30","RACE ROCKS","1016640","2018-05-25 02:00","2018","05","25","02:00","9.6","","8.4","","92","","","M","27","","61","","","","101.16","","","","","","NA"
"-123.53","48.30","RACE ROCKS","1016640","2018-05-25 03:00","2018","05","25","03:00","9.8","","8.1","","89","","","M","26","","65","","","","101.13","","","","","","NA"
"-123.53","48.30","RACE ROCKS","1016640","2018-05-25 04:00","2018","05","25","04:00","9.6","","8.8","","95","","","M","27","","51","","","","101.21","","","","","","NA"
"-123.53","48.30","RACE ROCKS","1016640","2018-05-25 05:00","2018","05","25","05:00","9.8","","7.7","","87","","","M","26","","51","","","","101.23","","","","","","NA"
"-123.53","48.30","RACE ROCKS","1016640","2018-05-25 06:00","2018","05","25","06:00","10.0","","7.3","","83","","","M","26","","51","","","","101.27","","","","","","NA"
"-123.53","48.30","RACE ROCKS","1016640","2018-05-25 07:00","2018","05","25","07:00","10.2","","7.2","","82","","","M","27","","48","","","","101.33","","","","","","NA"
"-123.53","48.30","RACE ROCKS","1016640","2018-05-25 08:00","2018","05","25","08:00","9.7","","7.9","","89","","","M","27","","49","","","","101.29","","","","","","NA"
"-123.53","48.30","RACE ROCKS","1016640","2018-05-25 09:00","2018","05","25","09:00","9.8","","7.6","","87","","","M","27","","50","","","","101.31","","","","","","NA"
"-123.53","48.30","RACE ROCKS","1016640","2018-05-25 10:00","2018","05","25","10:00","10.6","","6.5","","76","","","M","28","","56","","","","101.31","","","","","","NA"
"-123.53","48.30","RACE ROCKS","1016640","2018-05-25 11:00","2018","05","25","11:00","11.0","","6.3","","72","","","M","28","","56","","","","101.29","","","","","","NA"
"-123.53","48.30","RACE ROCKS","1016640","2018-05-25 12:00","2018","05","25","12:00","11.7","","5.7","","67","","","M","28","","58","","","","101.27","","","","","","NA"
"-123.53","48.30","RACE ROCKS","1016640","2018-05-25 13:00","2018","05","25","13:00","11.8","","5.6","","66","","","M","28","","56","","","","101.27","","","","","","NA"
"-123.53","48.30","RACE ROCKS","1016640","2018-05-25 14:00","2018","05","25","14:00","11.4","","5.2","","66","","","M","28","","66","","","","101.23","","","","","","NA"
"-123.53","48.30","RACE ROCKS","1016640","2018-05-25 15:00","2018","05","25","15:00","11.4","","5.3","","66","","","M","29","","58","","","","101.26","","","","","","NA"
"-123.53","48.30","RACE ROCKS","1016640","2018-05-25 16:00","2018","05","25","16:00","11.3","","5.9","","69","","","M","28","","64","","","","101.22","","","","","","NA"
"-123.53","48.30","RACE ROCKS","1016640","2018-05-25 17:00","2018","05","25","17:00","11.2","","6.7","","74","","","M","28","","69","","","","101.21","","","","","","NA"
"-123.53","48.30","RACE ROCKS","1016640","2018-05-25 18:00","2018","05","25","18:00","10.9","","7.3","","78","","","M","28","","67","","","","101.22","","","","","","NA"
"-123.53","48.30","RACE ROCKS","1016640","2018-05-25 19:00","2018","05","25","19:00","11.5","","6.9","","73","","","M","28","","62","","","","101.23","","","","","","NA"
"-123.53","48.30","RACE ROCKS","1016640","2018-05-25 20:00","2018","05","25","20:00","10.7","","7.6","","81","","","M","28","","61","","","","101.26","","","","","","NA"
"-123.53","48.30","RACE ROCKS","1016640","2018-05-25 21:00","2018","05","25","21:00","10.5","","8.0","","85","","","M","28","","59","","","","101.32","","","","","","NA"
"-123.53","48.30","RACE ROCKS","1016640","2018-05-25 22:00","2018","05","25","22:00","10.4","","8.0","","85","","","M","26","","58","","","","101.33","","","","","","NA"
"-123.53","48.30","RACE ROCKS","1016640","2018-05-25 23:00","2018","05","25","23:00","11.0","","7.5","","79","","","M","26","","54","","","","101.35","","","","","","NA"
"-123.53","48.30","RACE ROCKS","1016640","2018-05-26 00:00","2018","05","26","00:00","11.0","","7.7","","80","","","M","26","","47","","","","101.40","","","","","","NA"
"-123.53","48.30","RACE ROCKS","1016640","2018-05-26 01:00","2018","05","26","01:00","10.5","","8.5","","88","","","M","28","","41","","","","101.43","","","","","","NA"
"-123.53","48.30","RACE ROCKS","1016640","2018-05-26 02:00","2018","05","26","02:00","10.6","","8.8","","89","","","M","26","","35","","","","101.46","","","","","","NA"
"-123.53","48.30","RACE ROCKS","1016640","2018-05-26 03:00","2018","05","26","03:00","10.8","","8.8","","87","","","M","26","","44","","","","101.43","","","","","","NA"
"-123.53","48.30","RACE ROCKS","1016640","2018-05-26 04:00","2018","05","26","04:00","10.2","","9.3","","94","","","M","27","","38","","","","101.48","","","","","","NA"
"-123.53","48.30","RACE ROCKS","1016640","2018-05-26 05:00","2018","05","26","05:00","9.9","","9.9","","100","","","M","28","","35","","","","101.53","","","","","","NA"
"-123.53","48.30","RACE ROCKS","1016640","2018-05-26 06:00","2018","05","26","06:00","10.0","","9.9","","100","","","M","27","","39","","","","101.56","","","","","","NA"
"-123.53","48.30","RACE ROCKS","1016640","2018-05-26 07:00","2018","05","26","07:00","10.7","","9.2","","91","","","M","28","","39","","","","101.60","","","","","","NA"
"-123.53","48.30","RACE ROCKS","1016640","2018-05-26 08:00","2018","05","26","08:00","10.5","","9.0","","91","","","M","27","","40","","","","101.63","","","","","","NA"
"-123.53","48.30","RACE ROCKS","1016640","2018-05-26 09:00","2018","05","26","09:00","11.2","","8.3","","83","","","M","28","","39","","","","101.67","","","","","","NA"
"-123.53","48.30","RACE ROCKS","1016640","2018-05-26 10:00","2018","05","26","10:00","12.3","","7.5","","73","","","M","28","","42","","","","101.68","","","","","","NA"
"-123.53","48.30","RACE ROCKS","1016640","2018-05-26 11:00","2018","05","26","11:00","13.2","","6.9","","66","","","M","29","","38","","","","101.70","","","","","","NA"
"-123.53","48.30","RACE ROCKS","1016640","2018-05-26 12:00","2018","05","26","12:00","13.9","","7.2","","64","","","M","28","","45","","","","101.70","","","","","","NA"
"-123.53","48.30","RACE ROCKS","1016640","2018-05-26 13:00","2018","05","26","13:00","13.6","","7.0","","65","","","M","28","","44","","","","101.74","","","","","","NA"
"-123.53","48.30","RACE ROCKS","1016640","2018-05-26 14:00","2018","05","26","14:00","13.6","","6.5","","62","","","M","28","","46","","","","101.76","","","","","","NA"
"-123.53","48.30","RACE ROCKS","1016640","2018-05-26 15:00","2018","05","26","15:00","13.5","","6.2","","61","","","M","28","","54","","","","101.78","","","","","","NA"
"-123.53","48.30","RACE ROCKS","1016640","2018-05-26 16:00","2018","05","26","16:00","13.3","","4.5","","55","","","M","28","","58","","","","101.79","","","","","","NA"
"-123.53","48.30","RACE ROCKS","1016640","2018-05-26 17:00","2018","05","26","17:00","13.6","","4.7","","55","","","M","29","","47","","","","101.83","","","","","","NA"
"-123.53","48.30","RACE ROCKS","1016640","2018-05-26 18:00","2018","05","26","18:00","14.1","","4.7","","53","","","M","28","","32","","","","101.83","","","","","","NA"
"-123.53","48.30","RACE ROCKS","1016640","2018-05-26 19:00","2018","05","26","19:00","11.8","","7.2","","74","","","M","27","","36","","","","101.81","","","","","","NA"
"-123.53","48.30","RACE ROCKS","1016640","2018-05-26 20:00","2018","05","26","20:00","10.8","","7.9","","82","","","M","27","","42","","","","101.85","","","","","","NA"
"-123.53","48.30","RACE ROCKS","1016640","2018-05-26 21:00","2018","05","26","21:00","10.9","","7.8","","82","","","M","27","","46","","","","101.87","","","","","","NA"
"-123.53","48.30","RACE ROCKS","1016640","2018-05-26 22:00","2018","05","26","22:00","10.5","","7.8","","83","","","M","27","","39","","","","101.92","","","","","","NA"
"-123.53","48.30","RACE ROCKS","1016640","2018-05-26 23:00","2018","05","26","23:00","10.3","","8.2","","87","","","M","27","","34","","","","101.98","","","","","","NA"
"-123.53","48.30","RACE ROCKS","1016640","2018-05-27 00:00","2018","05","27","00:00","9.9","","8.9","","94","","","M","28","","33","","","","101.97","","","","","","NA"
"-123.53","48.30","RACE ROCKS","1016640","2018-05-27 01:00","2018","05","27","01:00","10.1","","8.2","","88","","","M","27","","38","","","","101.98","","","","","","NA"
"-123.53","48.30","RACE ROCKS","1016640","2018-05-27 02:00","2018","05","27","02:00","10.1","","8.1","","87","","","M","27","","35","","","","102.01","","","","","","NA"
"-123.53","48.30","RACE ROCKS","1016640","2018-05-27 03:00","2018","05","27","03:00","9.7","","8.8","","95","","","M","27","","32","","","","102.03","","","","","","NA"
"-123.53","48.30","RACE ROCKS","1016640","2018-05-27 04:00","2018","05","27","04:00","9.5","","9.0","","97","","","M","27","","29","","","","102.04","","","","","","NA"
"-123.53","48.30","RACE ROCKS","1016640","2018-05-27 05:00","2018","05","27","05:00","9.7","","9.1","","96","","","M","27","","25","","","","102.06","","","","","","NA"
"-123.53","48.30","RACE ROCKS","1016640","2018-05-27 06:00","2018","05","27","06:00","9.9","","9.2","","96","","","M","25","","23","","","","102.05","","","","","","NA"
"-123.53","48.30","RACE ROCKS","1016640","2018-05-27 07:00","2018","05","27","07:00","10.4","","8.1","","86","","","M","25","","24","","","","102.05","","","","","","NA"
"-123.53","48.30","RACE ROCKS","1016640","2018-05-27 08:00","2018","05","27","08:00","10.0","","8.0","","87","","","M","24","","21","","","","102.07","","","","","","NA"
"-123.53","48.30","RACE ROCKS","1016640","2018-05-27 09:00","2018","05","27","09:00","10.3","","8.3","","87","","","M","25","","18","","","","102.07","","","","","","NA"
"-123.53","48.30","RACE ROCKS","1016640","2018-05-27 10:00","2018","05","27","10:00","10.7","","8.5","","86","","","M","25","","19","","","","102.05","","","","","","NA"
"-123.53","48.30","RACE ROCKS","1016640","2018-05-27 11:00","2018","05","27","11:00","10.9","","8.6","","86","","","M","25","","22","","","","102.04","","","","","","NA"
"-123.53","48.30","RACE ROCKS","1016640","2018-05-27 12:00","2018","05","27","12:00","11.5","","8.6","","82","","","M","25","","27","","","","102.00","","","","","","NA"
"-123.53","48.30","RACE ROCKS","1016640","2018-05-27 13:00","2018","05","27","13:00","11.5","","8.8","","83","","","M","26","","33","","","","101.96","","","","","","NA"
"-123.53","48.30","RACE ROCKS","1016640","2018-05-27 14:00","2018","05","27","14:00","11.9","","8.8","","82","","","M","25","","35","","","","101.93","","","","","","NA"
"-123.53","48.30","RACE ROCKS","1016640","2018-05-27 15:00","2018","05","27","15:00","11.7","","8.4","","80","","","M","27","","37","","","","101.89","","","","","","NA"
"-123.53","48.30","RACE ROCKS","1016640","2018-05-27 16:00","2018","05","27","16:00","11.8","","8.8","","82","","","M","28","","51","","","","101.80","","","","","","NA"
"-123.53","48.30","RACE ROCKS","1016640","2018-05-27 17:00","2018","05","27","17:00","11.7","","9.4","","86","","","M","27","","52","","","","101.77","","","","","","NA"
"-123.53","48.30","RACE ROCKS","1016640","2018-05-27 18:00","2018","05","27","18:00","13.1","","8.4","","73","","","M","28","","55","","","","101.76","","","","","","NA"
"-123.53","48.30","RACE ROCKS","1016640","2018-05-27 19:00","2018","05","27","19:00","12.9","","8.7","","75","","","M","28","","58","","","","101.75","","","","","","NA"
"-123.53","48.30","RACE ROCKS","1016640","2018-05-27 20:00","2018","05","27","20:00","12.0","","9.2","","83","","","M","28","","60","","","","101.74","","","","","","NA"
"-123.53","48.30","RACE ROCKS","1016640","2018-05-27 21:00","2018","05","27","21:00","11.0","","9.3","","89","","","M","28","","60","","","","101.79","","","","","","NA"
"-123.53","48.30","RACE ROCKS","1016640","2018-05-27 22:00","2018","05","27","22:00","11.3","","9.3","","87","","","M","27","","57","","","","101.78","","","","","","NA"
"-123.53","48.30","RACE ROCKS","1016640","2018-05-27 23:00","2018","05","27","23:00","10.5","","9.9","","96","","","M","27","","57","","","","101.80","","","","","","NA"
"-123.53","48.30","RACE ROCKS","1016640","2018-05-28 00:00","2018","05","28","00:00","10.9","","9.0","","88","","","M","27","","53","","","","101.86","","","","","","NA"
"-123.53","48.30","RACE ROCKS","1016640","2018-05-28 01:00","2018","05","28","01:00","11.0","","9.1","","88","","","M","27","","53","","","","101.85","","","","","","NA"
"-123.53","48.30","RACE ROCKS","1016640","2018-05-28 02:00","2018","05","28","02:00","10.8","","10.0","","95","","","M","28","","44","","","","101.92","","","","","","NA"
"-123.53","48.30","RACE ROCKS","1016640","2018-05-28 03:00","2018","05","28","03:00","10.8","","9.3","","90","","","M","27","","40","","","","101.92","","","","","","NA"
"-123.53","48.30","RACE ROCKS","1016640","2018-05-28 04:00","2018","05","28","04:00","11.1","","9.2","","88","","","M","27","","44","","","","101.91","","","","","","NA"
"-123.53","48.30","RACE ROCKS","1016640","2018-05-28 05:00","2018","05","28","05:00","11.8","","9.0","","83","","","M","27","","43","","","","101.93","","","","","","NA"
"-123.53","48.30","RACE ROCKS","1016640","2018-05-28 06:00","2018","05","28","06:00","11.6","","9.4","","87","","","M","28","","36","","","","101.98","","","","","","NA"
"-123.53","48.30","RACE ROCKS","1016640","2018-05-28 07:00","2018","05","28","07:00","11.5","","9.8","","89","","","M","27","","38","","","","101.97","","","","","","NA"
"-123.53","48.30","RACE ROCKS","1016640","2018-05-28 08:00","2018","05","28","08:00","11.6","","9.2","","85","","","M","27","","34","","","","102.00","","","","","","NA"
"-123.53","48.30","RACE ROCKS","1016640","2018-05-28 09:00","2018","05","28","09:00","10.9","","10.3","","96","","","M","27","","26","","","","102.01","","","","","","NA"
"-123.53","48.30","RACE ROCKS","1016640","2018-05-28 10:00","2018","05","28","10:00","13.1","","9.4","","78","","","M","27","","49","","","","101.99","","","","","","NA"
"-123.53","48.30","RACE ROCKS","1016640","2018-05-28 11:00","2018","05","28","11:00","12.5","","9.5","","82","","","M","28","","45","","","","101.98","","","","","","NA"
"-123.53","48.30","RACE ROCKS","1016640","2018-05-28 12:00","2018","05","28","12:00","10.7","","10.3","","98","","","M","28","","56","","","","101.97","","","","","","NA"
"-123.53","48.30","RACE ROCKS","1016640","2018-05-28 13:00","2018","05","28","13:00","11.0","","8.2","","83","","","M","28","","64","","","","101.91","","","","","","NA"
"-123.53","48.30","RACE ROCKS","1016640","2018-05-28 14:00","2018","05","28","14:00","12.1","","6.2","","67","","","M","28","","57","","","","101.92","","","","","","NA"
"-123.53","48.30","RACE ROCKS","1016640","2018-05-28 15:00","2018","05","28","15:00","12.2","","6.1","","66","","","M","28","","55","","","","101.91","","","","","","NA"
"-123.53","48.30","RACE ROCKS","1016640","2018-05-28 16:00","2018","05","28","16:00","11.9","","5.6","","65","","","M","28","","61","","","","101.82","","","","","","NA"
"-123.53","48.30","RACE ROCKS","1016640","2018-05-28 17:00","2018","05","28","17:00","11.4","","5.8","","69","","","M","28","","67","","","","101.74","","","","","","NA"
"-123.53","48.30","RACE ROCKS","1016640","2018-05-28 18:00","2018","05","28","18:00","11.2","","6.4","","73","","","M","28","","63","","","","101.76","","","","","","NA"
"-123.53","48.30","RACE ROCKS","1016640","2018-05-28 19:00","2018","05","28","19:00","10.8","","6.8","","76","","","M","28","","67","","","","101.75","","","","","","NA"
"-123.53","48.30","RACE ROCKS","1016640","2018-05-28 20:00","2018","05","28","20:00","10.6","","6.9","","78","","","M","28","","64","","","","101.71","","","","","","NA"
"-123.53","48.30","RACE ROCKS","1016640","2018-05-28 21:00","2018","05","28","21:00","10.6","","6.5","","76","","","M","27","","63","","","","101.73","","","","","","NA"
"-123.53","48.30","RACE ROCKS","1016640","2018-05-28 22:00","2018","05","28","22:00","10.4","","6.9","","79","","","M","27","","56","","","","101.76","","","","","","NA"
"-123.53","48.30","RACE ROCKS","1016640","2018-05-28 23:00","2018","05","28","23:00","10.5","","6.7","","77","","","M","27","","52","","","","101.72","","","","","","NA"
"-123.53","48.30","RACE ROCKS","1016640","2018-05-29 00:00","2018","05","29","00:00","10.3","","6.5","","78","","","M","27","","51","","","","101.71","","","","","","NA"
"-123.53","48.30","RACE ROCKS","1016640","2018-05-29 01:00","2018","05","29","01:00","10.2","","6.8","","80","","","M","27","","47","","","","101.70","","","","","","NA"
"-123.53","48.30","RACE ROCKS","1016640","2018-05-29 02:00","2018","05","29","02:00","10.1","","7.2","","82","","","M","27","","40","","","","101.68","","","","","","NA"
"-123.53","48.30","RACE ROCKS","1016640","2018-05-29 03:00","2018","05","29","03:00","10.3","","7.4","","83","","","M","28","","37","","","","101.65","","","","","","NA"
"-123.53","48.30","RACE ROCKS","1016640","2018-05-29 04:00","2018","05","29","04:00","10.2","","7.5","","84","","","M","28","","31","","","","101.62","","","","","","NA"
"-123.53","48.30","RACE ROCKS","1016640","2018-05-29 05:00","2018","05","29","05:00","10.3","","7.6","","83","","","M","28","","30","","","","101.59","","","","","","NA"
"-123.53","48.30","RACE ROCKS","1016640","2018-05-29 06:00","2018","05","29","06:00","10.6","","7.4","","81","","","M","27","","42","","","","101.58","","","","","","NA"
"-123.53","48.30","RACE ROCKS","1016640","2018-05-29 07:00","2018","05","29","07:00","10.7","","7.2","","79","","","M","28","","37","","","","101.61","","","","","","NA"
"-123.53","48.30","RACE ROCKS","1016640","2018-05-29 08:00","2018","05","29","08:00","10.1","","6.7","","79","","","M","28","","43","","","","101.62","","","","","","NA"
"-123.53","48.30","RACE ROCKS","1016640","2018-05-29 09:00","2018","05","29","09:00","10.8","","5.8","","72","","","M","28","","38","","","","101.62","","","","","","NA"
"-123.53","48.30","RACE ROCKS","1016640","2018-05-29 10:00","2018","05","29","10:00","11.5","","5.1","","65","","","M","28","","43","","","","101.56","","","","","","NA"
"-123.53","48.30","RACE ROCKS","1016640","2018-05-29 11:00","2018","05","29","11:00","11.9","","4.6","","61","","","M","28","","39","","","","101.55","","","","","","NA"
"-123.53","48.30","RACE ROCKS","1016640","2018-05-29 12:00","2018","05","29","12:00","12.0","","4.7","","61","","","M","28","","44","","","","101.50","","","","","","NA"
"-123.53","48.30","RACE ROCKS","1016640","2018-05-29 13:00","2018","05","29","13:00","12.3","","4.2","","58","","","M","28","","45","","","","101.48","","","","","","NA"
"-123.53","48.30","RACE ROCKS","1016640","2018-05-29 14:00","2018","05","29","14:00","12.2","","4.1","","58","","","M","28","","46","","","","101.45","","","","","","NA"
"-123.53","48.30","RACE ROCKS","1016640","2018-05-29 15:00","2018","05","29","15:00","11.2","","5.0","","66","","","M","28","","54","","","","101.43","","","","","","NA"
"-123.53","48.30","RACE ROCKS","1016640","2018-05-29 16:00","2018","05","29","16:00","11.7","","4.6","","62","","","M","29","","57","","","","101.41","","","","","","NA"
"-123.53","48.30","RACE ROCKS","1016640","2018-05-29 17:00","2018","05","29","17:00","11.5","","5.3","","66","","","M","28","","58","","","","101.38","","","","","","NA"
"-123.53","48.30","RACE ROCKS","1016640","2018-05-29 18:00","2018","05","29","18:00","11.2","","5.8","","69","","","M","28","","63","","","","101.35","","","","","","NA"
"-123.53","48.30","RACE ROCKS","1016640","2018-05-29 19:00","2018","05","29","19:00","10.9","","6.1","","73","","","M","28","","57","","","","101.37","","","","","","NA"
"-123.53","48.30","RACE ROCKS","1016640","2018-05-29 20:00","2018","05","29","20:00","10.5","","6.6","","77","","","M","29","","44","","","","101.42","","","","","","NA"
"-123.53","48.30","RACE ROCKS","1016640","2018-05-29 21:00","2018","05","29","21:00","10.4","","6.8","","79","","","M","27","","41","","","","101.41","","","","","","NA"
"-123.53","48.30","RACE ROCKS","1016640","2018-05-29 22:00","2018","05","29","22:00","10.2","","6.6","","78","","","M","26","","41","","","","101.36","","","","","","NA"
"-123.53","48.30","RACE ROCKS","1016640","2018-05-29 23:00","2018","05","29","23:00","10.2","","6.8","","80","","","M","26","","43","","","","101.36","","","","","","NA"
"-123.53","48.30","RACE ROCKS","1016640","2018-05-30 00:00","2018","05","30","00:00","10.2","","7.1","","81","","","M","27","","39","","","","101.35","","","","","","NA"
"-123.53","48.30","RACE ROCKS","1016640","2018-05-30 01:00","2018","05","30","01:00","9.9","","7.6","","86","","","M","27","","35","","","","101.32","","","","","","NA"
"-123.53","48.30","RACE ROCKS","1016640","2018-05-30 02:00","2018","05","30","02:00","9.9","","6.8","","81","","","M","28","","28","","","","101.32","","","","","","NA"
"-123.53","48.30","RACE ROCKS","1016640","2018-05-30 03:00","2018","05","30","03:00","10.0","","6.4","","79","","","M","29","","27","","","","101.30","","","","","","NA"
"-123.53","48.30","RACE ROCKS","1016640","2018-05-30 04:00","2018","05","30","04:00","9.7","","6.1","","78","","","M","29","","23","","","","101.30","","","","","","NA"
"-123.53","48.30","RACE ROCKS","1016640","2018-05-30 05:00","2018","05","30","05:00","9.7","","5.9","","77","","","M","29","","24","","","","101.28","","","","","","NA"
"-123.53","48.30","RACE ROCKS","1016640","2018-05-30 06:00","2018","05","30","06:00","9.9","","6.0","","77","","","M","29","","8","","","","101.31","","","","","","NA"
"-123.53","48.30","RACE ROCKS","1016640","2018-05-30 07:00","2018","05","30","07:00","10.2","","6.1","","76","","","M","28","","8","","","","101.29","","","","","","NA"
"-123.53","48.30","RACE ROCKS","1016640","2018-05-30 08:00","2018","05","30","08:00","10.5","","6.2","","75","","","M","27","","11","","","","101.28","","","","","","NA"
"-123.53","48.30","RACE ROCKS","1016640","2018-05-30 09:00","2018","05","30","09:00","10.4","","6.7","","78","","","M","26","","18","","","","101.25","","","","","","NA"
"-123.53","48.30","RACE ROCKS","1016640","2018-05-30 10:00","2018","05","30","10:00","10.5","","6.7","","78","","","M","27","","19","","","","101.25","","","","","","NA"
"-123.53","48.30","RACE ROCKS","1016640","2018-05-30 11:00","2018","05","30","11:00","10.8","","6.6","","75","","","M","26","","15","","","","101.22","","","","","","NA"
"-123.53","48.30","RACE ROCKS","1016640","2018-05-30 12:00","2018","05","30","12:00","11.0","","6.6","","74","","","M","26","","14","","","","101.19","","","","","","NA"
"-123.53","48.30","RACE ROCKS","1016640","2018-05-30 13:00","2018","05","30","13:00","11.2","","7.0","","75","","","M","24","","13","","","","101.12","","","","","","NA"
"-123.53","48.30","RACE ROCKS","1016640","2018-05-30 14:00","2018","05","30","14:00","12.2","","5.6","","64","","","M","22","","10","","","","101.05","","","","","","NA"
"-123.53","48.30","RACE ROCKS","1016640","2018-05-30 15:00","2018","05","30","15:00","11.7","","7.2","","74","","","M","26","","20","","","","100.98","","","","","","NA"
"-123.53","48.30","RACE ROCKS","1016640","2018-05-30 16:00","2018","05","30","16:00","10.4","","8.2","","86","","","M","27","","29","","","","100.93","","","","","","NA"
"-123.53","48.30","RACE ROCKS","1016640","2018-05-30 17:00","2018","05","30","17:00","10.3","","7.5","","83","","","M","27","","34","","","","100.87","","","","","","NA"
"-123.53","48.30","RACE ROCKS","1016640","2018-05-30 18:00","2018","05","30","18:00","10.0","","6.2","","77","","","M","28","","44","","","","100.81","","","","","","NA"
"-123.53","48.30","RACE ROCKS","1016640","2018-05-30 19:00","2018","05","30","19:00","9.9","","6.7","","81","","","M","28","","50","","","","100.78","","","","","","NA"
"-123.53","48.30","RACE ROCKS","1016640","2018-05-30 20:00","2018","05","30","20:00","9.7","","7.2","","85","","","M","28","","51","","","","100.79","","","","","","NA"
"-123.53","48.30","RACE ROCKS","1016640","2018-05-30 21:00","2018","05","30","21:00","9.7","","7.3","","86","","","M","27","","52","","","","100.75","","","","","","NA"
"-123.53","48.30","RACE ROCKS","1016640","2018-05-30 22:00","2018","05","30","22:00","9.7","","7.2","","85","","","M","27","","47","","","","100.74","","","","","","NA"
"-123.53","48.30","RACE ROCKS","1016640","2018-05-30 23:00","2018","05","30","23:00","9.6","","6.7","","82","","","M","27","","46","","","","100.69","","","","","","NA"
"-123.53","48.30","RACE ROCKS","1016640","2018-05-31 00:00","2018","05","31","00:00","9.6","","6.7","","82","","","M","27","","48","","","","100.69","","","","","","NA"
"-123.53","48.30","RACE ROCKS","1016640","2018-05-31 01:00","2018","05","31","01:00","9.6","","6.9","","83","","","M","27","","49","","","","100.68","","","","","","NA"
"-123.53","48.30","RACE ROCKS","1016640","2018-05-31 02:00","2018","05","31","02:00","9.6","","7.0","","84","","","M","27","","50","","","","100.71","","","","","","NA"
"-123.53","48.30","RACE ROCKS","1016640","2018-05-31 03:00","2018","05","31","03:00","9.6","","6.9","","84","","","M","27","","48","","","","100.71","","","","","","NA"
"-123.53","48.30","RACE ROCKS","1016640","2018-05-31 04:00","2018","05","31","04:00","9.6","","6.9","","84","","","M","27","","47","","","","100.71","","","","","","NA"
"-123.53","48.30","RACE ROCKS","1016640","2018-05-31 05:00","2018","05","31","05:00","9.6","","7.3","","86","","","M","27","","43","","","","100.74","","","","","","NA"
"-123.53","48.30","RACE ROCKS","1016640","2018-05-31 06:00","2018","05","31","06:00","9.6","","7.1","","84","","","M","27","","40","","","","100.77","","","","","","NA"
"-123.53","48.30","RACE ROCKS","1016640","2018-05-31 07:00","2018","05","31","07:00","9.8","","7.3","","85","","","M","26","","42","","","","100.80","","","","","","NA"
"-123.53","48.30","RACE ROCKS","1016640","2018-05-31 08:00","2018","05","31","08:00","9.7","","7.2","","84","","","M","27","","37","","","","100.82","","","","","","NA"
"-123.53","48.30","RACE ROCKS","1016640","2018-05-31 09:00","2018","05","31","09:00","9.8","","7.4","","85","","","M","27","","41","","","","100.84","","","","","","NA"
"-123.53","48.30","RACE ROCKS","1016640","2018-05-31 10:00","2018","05","31","10:00","10.5","","6.2","","74","","","M","28","","40","","","","100.86","","","","","","NA"
"-123.53","48.30","RACE ROCKS","1016640","2018-05-31 11:00","2018","05","31","11:00","11.7","","5.5","","66","","","M","28","","35","","","","100.89","","","","","","NA"
"-123.53","48.30","RACE ROCKS","1016640","2018-05-31 12:00","2018","05","31","12:00","12.3","","5.5","","63","","","M","28","","33","","","","100.87","","","","","","NA"
"-123.53","48.30","RACE ROCKS","1016640","2018-05-31 13:00","2018","05","31","13:00","11.9","","5.9","","67","","","M","27","","40","","","","100.85","","","","","","NA"
"-123.53","48.30","RACE ROCKS","1016640","2018-05-31 14:00","2018","05","31","14:00","12.2","","5.7","","65","","","M","28","","44","","","","100.87","","","","","","NA"
"-123.53","48.30","RACE ROCKS","1016640","2018-05-31 15:00","2018","05","31","15:00","12.5","","5.4","","62","","","M","28","","50","","","","100.90","","","","","","NA"
"-123.53","48.30","RACE ROCKS","1016640","2018-05-31 16:00","2018","05","31","16:00","12.8","","5.1","","60","","","M","28","","55","","","","100.93","","","","","","NA"
"-123.53","48.30","RACE ROCKS","1016640","2018-05-31 17:00","2018","05","31","17:00","12.1","","5.2","","63","","","M","28","","55","","","","100.97","","","","","","NA"
"-123.53","48.30","RACE ROCKS","1016640","2018-05-31 18:00","2018","05","31","18:00","11.7","","5.8","","67","","","M","28","","58","","","","101.00","","","","","","NA"
"-123.53","48.30","RACE ROCKS","1016640","2018-05-31 19:00","2018","05","31","19:00","11.3","","5.3","","67","","","M","29","","64","","","","101.08","","","","","","NA"
"-123.53","48.30","RACE ROCKS","1016640","2018-05-31 20:00","2018","05","31","20:00","10.5","","6.4","","76","","","M","28","","57","","","","101.17","","","","","","NA"
"-123.53","48.30","RACE ROCKS","1016640","2018-05-31 21:00","2018","05","31","21:00","10.5","","6.3","","75","","","M","28","","52","","","","101.20","","","","","","NA"
"-123.53","48.30","RACE ROCKS","1016640","2018-05-31 22:00","2018","05","31","22:00","10.4","","6.6","","77","","","M","28","","53","","","","101.20","","","","","","NA"
"-123.53","48.30","RACE ROCKS","1016640","2018-05-31 23:00","2018","05","31","23:00","10.0","","6.9","","81","","","M","27","","45","","","","101.26","","","","","","NA"
