"Longitude (x)","Latitude (y)","Station Name","Climate ID","Date/Time (LST)","Year","Month","Day","Time (LST)","Temp (°C)","Temp Flag","Dew Point Temp (°C)","Dew Point Temp Flag","Rel Hum (%)","Rel Hum Flag","Precip. Amount (mm)","Precip. Amount Flag","Wind Dir (10s deg)","Wind Dir Flag","Wind Spd (km/h)","Wind Spd Flag","Visibility (km)","Visibility Flag","Stn Press (kPa)","Stn Press Flag","Hmdx","Hmdx Flag","Wind Chill","Wind Chill Flag","Weather"
"-81.15","43.03","LONDON A","6144473","2020-11-01 00:00","2020","11","01","00:00","8.2","","3.3","","71","","","","19","","28","","24.1","","98.13","","","","","","NA"
"-81.15","43.03","LONDON A","6144473","2020-11-01 01:00","2020","11","01","01:00","9.0","","3.9","","70","","","","19","","30","","24.1","","97.98","","","","","","Cloudy"
"-81.15","43.03","LONDON A","6144473","2020-11-01 02:00","2020","11","01","02:00","9.3","","4.5","","72","","","","19","","22","","24.1","","97.83","","","","","","NA"
"-81.15","43.03","LONDON A","6144473","2020-11-01 03:00","2020","11","01","03:00","9.9","","4.6","","69","","","","19","","27","","24.1","","97.67","","","","","","NA"
"-81.15","43.03","LONDON A","6144473","2020-11-01 04:00","2020","11","01","04:00","10.1","","4.9","","70","","","","19","","25","","24.1","","97.46","","","","","","Cloudy"
"-81.15","43.03","LONDON A","6144473","2020-11-01 05:00","2020","11","01","05:00","10.4","","5.6","","72","","","","19","","25","","24.1","","97.31","","","","","","NA"
"-81.15","43.03","LONDON A","6144473","2020-11-01 06:00","2020","11","01","06:00","10.0","","6.3","","78","","","","22","","25","","24.1","","97.18","","","","","","Rain"
"-81.15","43.03","LONDON A","6144473","2020-11-01 07:00","2020","11","01","07:00","8.8","","6.7","","86","","","","24","","31","","4.0","","97.12","","","","","","Rain,Fog"
"-81.15","43.03","LONDON A","6144473","2020-11-01 08:00","2020","11","01","08:00","7.7","","6.5","","92","","","","24","","26","","4.0","","97.12","","","","","","Rain,Fog"
"-81.15","43.03","LONDON A","6144473","2020-11-01 09:00","2020","11","01","09:00","5.4","","2.9","","84","","","","28","","16","","16.1","","97.20","","","","","","Rain"
"-81.15","43.03","LONDON A","6144473","2020-11-01 10:00","2020","11","01","10:00","4.3","","0.9","","78","","","","27","","27","","16.1","","97.24","","","","","","Rain"
"-81.15","43.03","LONDON A","6144473","2020-11-01 11:00","2020","11","01","11:00","5.7","","-0.1","","66","","","","28","","32","","24.1","","97.22","","","","","","NA"
"-81.15","43.03","LONDON A","6144473","2020-11-01 12:00","2020","11","01","12:00","5.1","","-1.8","","61","","","","28","","37","","24.1","","97.36","","","","","","NA"
"-81.15","43.03","LONDON A","6144473","2020-11-01 13:00","2020","11","01","13:00","3.0","","-1.8","","71","","","","27","","27","","24.1","","97.45","","","","","","Rain,Snow"
"-81.15","43.03","LONDON A","6144473","2020-11-01 14:00","2020","11","01","14:00","2.2","","-2.9","","69","","","","29","","35","","12.9","","97.56","","","","","","Snow"
"-81.15","43.03","LONDON A","6144473","2020-11-01 15:00","2020","11","01","15:00","0.4","","-2.4","","82","","","","27","","23","","24.1","","97.67","","","","","","Snow Showers"
"-81.15","43.03","LONDON A","6144473","2020-11-01 16:00","2020","11","01","16:00","1.6","","-4.8","","62","","","","27","","28","","24.1","","97.73","","","","","","Snow Showers"
"-81.15","43.03","LONDON A","6144473","2020-11-01 17:00","2020","11","01","17:00","1.3","","-4.2","","67","","","","26","","30","","24.1","","97.78","","","","","","Snow Showers"
"-81.15","43.03","LONDON A","6144473","2020-11-01 18:00","2020","11","01","18:00","1.3","","-3.3","","71","","","","27","","47","","6.4","","97.88","","","","","","Snow Showers"
"-81.15","43.03","LONDON A","6144473","2020-11-01 19:00","2020","11","01","19:00","-0.4","","-1.1","","95","","","","28","","23","","2.4","","97.94","","","","-6","","Snow Showers"
"-81.15","43.03","LONDON A","6144473","2020-11-01 20:00","2020","11","01","20:00","0.5","","-2.4","","81","","","","29","","27","","3.2","","98.03","","","","","","Snow Showers"
"-81.15","43.03","LONDON A","6144473","2020-11-01 21:00","2020","11","01","21:00","-0.3","","-1.0","","95","","","","29","","31","","1.6","","98.09","","","","-7","","Snow Showers"
"-81.15","43.03","LONDON A","6144473","2020-11-01 22:00","2020","11","01","22:00","-0.1","","-0.8","","95","","","","31","","26","","1.2","","98.13","","","","-6","","Snow Showers"
"-81.15","43.03","LONDON A","6144473","2020-11-01 23:00","2020","11","01","23:00","-0.3","","-1.3","","93","","","","31","","23","","6.4","","98.19","","","","-6","","Snow Showers"
"-81.15","43.03","LONDON A","6144473","2020-11-02 00:00","2020","11","02","00:00","-0.4","","-3.3","","81","","","","31","","19","","24.1","","98.26","","","","-6","","NA"
"-81.15","43.03","LONDON A","6144473","2020-11-02 01:00","2020","11","02","01:00","-0.5","","-2.1","","89","","","","31","","23","","24.1","","98.32","","","","-6","","Mainly Clear"
"-81.15","43.03","LONDON A","6144473","2020-11-02 02:00","2020","11","02","02:00","0.1","","-2.1","","85","","","","32","","27","","24.1","","98.40","","","","","","Snow Showers"
"-81.15","43.03","LONDON A","6144473","2020-11-02 03:00","2020","11","02","03:00","0.0","","-4.0","","75","","","","32","","27","","24.1","","98.47","","","","-6","","Snow Showers"
"-81.15","43.03","LONDON A","6144473","2020-11-02 04:00","2020","11","02","04:00","-0.3","","-5.5","","68","","","","33","","33","","24.1","","98.53","","","","-7","","Mostly Cloudy"
"-81.15","43.03","LONDON A","6144473","2020-11-02 05:00","2020","11","02","05:00","-0.7","","-5.2","","72","","","","33","","26","","24.1","","98.58","","","","-7","","NA"
"-81.15","43.03","LONDON A","6144473","2020-11-02 06:00","2020","11","02","06:00","-0.5","","-4.9","","72","","","","31","","17","","24.1","","98.61","","","","-5","","NA"
"-81.15","43.03","LONDON A","6144473","2020-11-02 07:00","2020","11","02","07:00","-0.7","","-2.6","","87","","","","31","","14","","24.1","","98.65","","","","-5","","Mostly Cloudy"
"-81.15","43.03","LONDON A","6144473","2020-11-02 08:00","2020","11","02","08:00","0.4","","-5.0","","67","","","","31","","23","","24.1","","98.68","","","","","","NA"
"-81.15","43.03","LONDON A","6144473","2020-11-02 09:00","2020","11","02","09:00","0.6","","-4.1","","71","","","","28","","15","","24.1","","98.72","","","","","","NA"
"-81.15","43.03","LONDON A","6144473","2020-11-02 10:00","2020","11","02","10:00","0.7","","-4.2","","70","","","","28","","15","","24.1","","98.70","","","","","","Cloudy"
"-81.15","43.03","LONDON A","6144473","2020-11-02 11:00","2020","11","02","11:00","0.8","","-3.7","","72","","","","27","","21","","24.1","","98.65","","","","","","NA"
"-81.15","43.03","LONDON A","6144473","2020-11-02 12:00","2020","11","02","12:00","1.3","","-4.1","","67","","","","27","","25","","24.1","","98.57","","","","","","NA"
"-81.15","43.03","LONDON A","6144473","2020-11-02 13:00","2020","11","02","13:00","2.9","","-4.2","","59","","","","25","","24","","24.1","","98.42","","","","","","Mostly Cloudy"
"-81.15","43.03","LONDON A","6144473","2020-11-02 14:00","2020","11","02","14:00","3.6","","-5.4","","52","","","","25","","27","","24.1","","98.28","","","","","","NA"
"-81.15","43.03","LONDON A","6144473","2020-11-02 15:00","2020","11","02","15:00","4.7","","-5.0","","49","","","","23","","35","","24.1","","98.12","","","","","","NA"
"-81.15","43.03","LONDON A","6144473","2020-11-02 16:00","2020","11","02","16:00","4.2","","-5.1","","51","","","","23","","28","","24.1","","98.03","","","","","","Mostly Cloudy"
"-81.15","43.03","LONDON A","6144473","2020-11-02 17:00","2020","11","02","17:00","4.7","","-5.1","","49","","","","24","","27","","24.1","","97.95","","","","","","NA"
"-81.15","43.03","LONDON A","6144473","2020-11-02 18:00","2020","11","02","18:00","4.3","","-4.6","","52","","","","24","","26","","24.1","","97.86","","","","","","NA"
"-81.15","43.03","LONDON A","6144473","2020-11-02 19:00","2020","11","02","19:00","4.3","","-5.0","","51","","","","25","","24","","24.1","","97.83","","","","","","Mostly Cloudy"
"-81.15","43.03","LONDON A","6144473","2020-11-02 20:00","2020","11","02","20:00","4.4","","-5.5","","49","","","","25","","29","","24.1","","97.84","","","","","","NA"
"-81.15","43.03","LONDON A","6144473","2020-11-02 21:00","2020","11","02","21:00","4.2","","-5.7","","49","","","","25","","24","","24.1","","97.78","","","","","","NA"
"-81.15","43.03","LONDON A","6144473","2020-11-02 22:00","2020","11","02","22:00","3.6","","-5.3","","52","","","","26","","22","","24.1","","97.94","","","","","","Mainly Clear"
"-81.15","43.03","LONDON A","6144473","2020-11-02 23:00","2020","11","02","23:00","3.4","","-3.8","","60","","","","25","","20","","24.1","","97.95","","","","","","NA"
"-81.15","43.03","LONDON A","6144473","2020-11-03 00:00","2020","11","03","00:00","3.0","","-2.3","","68","","","","25","","17","","24.1","","97.99","","","","","","NA"
"-81.15","43.03","LONDON A","6144473","2020-11-03 01:00","2020","11","03","01:00","4.3","","-0.9","","69","","","","26","","20","","24.1","","97.97","","","","","","Mainly Clear"
"-81.15","43.03","LONDON A","6144473","2020-11-03 02:00","2020","11","03","02:00","4.5","","-0.5","","70","","","","27","","19","","24.1","","97.99","","","","","","NA"
"-81.15","43.03","LONDON A","6144473","2020-11-03 03:00","2020","11","03","03:00","3.6","","-0.5","","75","","","","25","","18","","24.1","","98.00","","","","","","NA"
"-81.15","43.03","LONDON A","6144473","2020-11-03 04:00","2020","11","03","04:00","2.6","","-0.6","","79","","","","25","","16","","24.1","","98.08","","","","","","Clear"
"-81.15","43.03","LONDON A","6144473","2020-11-03 05:00","2020","11","03","05:00","2.2","","-0.8","","80","","","","25","","16","","24.1","","98.15","","","","","","NA"
"-81.15","43.03","LONDON A","6144473","2020-11-03 06:00","2020","11","03","06:00","1.8","","-0.8","","83","","","","26","","11","","24.1","","98.23","","","","","","NA"
"-81.15","43.03","LONDON A","6144473","2020-11-03 07:00","2020","11","03","07:00","1.6","","-0.7","","85","","","","25","","13","","24.1","","98.33","","","","","","Mostly Cloudy"
"-81.15","43.03","LONDON A","6144473","2020-11-03 08:00","2020","11","03","08:00","3.6","","0.5","","80","","","","25","","7","","24.1","","98.35","","","","","","NA"
"-81.15","43.03","LONDON A","6144473","2020-11-03 09:00","2020","11","03","09:00","5.0","","1.4","","78","","","","26","","15","","24.1","","98.47","","","","","","NA"
"-81.15","43.03","LONDON A","6144473","2020-11-03 10:00","2020","11","03","10:00","6.2","","1.6","","73","","","","27","","18","","24.1","","98.55","","","","","","Mostly Cloudy"
"-81.15","43.03","LONDON A","6144473","2020-11-03 11:00","2020","11","03","11:00","7.0","","2.3","","72","","","","28","","13","","24.1","","98.59","","","","","","NA"
"-81.15","43.03","LONDON A","6144473","2020-11-03 12:00","2020","11","03","12:00","7.4","","2.5","","71","","","","25","","11","","24.1","","98.57","","","","","","NA"
"-81.15","43.03","LONDON A","6144473","2020-11-03 13:00","2020","11","03","13:00","8.7","","1.6","","61","","","","23","","10","","24.1","","98.58","","","","","","Cloudy"
"-81.15","43.03","LONDON A","6144473","2020-11-03 14:00","2020","11","03","14:00","10.5","","2.5","","57","","","","22","","11","","24.1","","98.54","","","","","","NA"
"-81.15","43.03","LONDON A","6144473","2020-11-03 15:00","2020","11","03","15:00","10.7","","2.8","","58","","","","20","","12","","24.1","","98.48","","","","","","NA"
"-81.15","43.03","LONDON A","6144473","2020-11-03 16:00","2020","11","03","16:00","10.9","","3.9","","61","","","","17","","13","","24.1","","98.48","","","","","","Mostly Cloudy"
"-81.15","43.03","LONDON A","6144473","2020-11-03 17:00","2020","11","03","17:00","9.6","","4.7","","71","","","","17","","14","","24.1","","98.50","","","","","","NA"
"-81.15","43.03","LONDON A","6144473","2020-11-03 18:00","2020","11","03","18:00","8.2","","4.3","","76","","","","19","","17","","24.1","","98.56","","","","","","NA"
"-81.15","43.03","LONDON A","6144473","2020-11-03 19:00","2020","11","03","19:00","6.6","","3.4","","80","","","","18","","11","","24.1","","98.62","","","","","","Mainly Clear"
"-81.15","43.03","LONDON A","6144473","2020-11-03 20:00","2020","11","03","20:00","4.0","","1.8","","86","","","","13","","6","","24.1","","98.62","","","","","","NA"
"-81.15","43.03","LONDON A","6144473","2020-11-03 21:00","2020","11","03","21:00","3.7","","1.8","","87","","","","14","","6","","24.1","","98.58","","","","","","NA"
"-81.15","43.03","LONDON A","6144473","2020-11-03 22:00","2020","11","03","22:00","4.8","","2.9","","88","","","","15","","8","","24.1","","98.59","","","","","","Mainly Clear"
"-81.15","43.03","LONDON A","6144473","2020-11-03 23:00","2020","11","03","23:00","7.5","","5.4","","86","","","","20","","10","","24.1","","98.60","","","","","","NA"
"-81.15","43.03","LONDON A","6144473","2020-11-04 00:00","2020","11","04","00:00","8.9","","5.4","","79","","","","21","","16","","24.1","","98.64","","","","","","NA"
"-81.15","43.03","LONDON A","6144473","2020-11-04 01:00","2020","11","04","01:00","8.5","","4.6","","76","","","","21","","14","","24.1","","98.68","","","","","","Clear"
"-81.15","43.03","LONDON A","6144473","2020-11-04 02:00","2020","11","04","02:00","7.6","","4.0","","78","","","","21","","14","","24.1","","98.70","","","","","","NA"
"-81.15","43.03","LONDON A","6144473","2020-11-04 03:00","2020","11","04","03:00","7.8","","3.4","","74","","","","20","","12","","24.1","","98.73","","","","","","NA"
"-81.15","43.03","LONDON A","6144473","2020-11-04 04:00","2020","11","04","04:00","7.2","","2.9","","74","","","","21","","12","","24.1","","98.75","","","","","","Clear"
"-81.15","43.03","LONDON A","6144473","2020-11-04 05:00","2020","11","04","05:00","6.6","","2.8","","77","","","","19","","12","","24.1","","98.79","","","","","","NA"
"-81.15","43.03","LONDON A","6144473","2020-11-04 06:00","2020","11","04","06:00","6.9","","3.3","","78","","","","19","","12","","24.1","","98.81","","","","","","NA"
"-81.15","43.03","LONDON A","6144473","2020-11-04 07:00","2020","11","04","07:00","7.9","","4.6","","80","","","","19","","15","","24.1","","98.80","","","","","","Clear"
"-81.15","43.03","LONDON A","6144473","2020-11-04 08:00","2020","11","04","08:00","9.5","","5.9","","78","","","","20","","17","","24.1","","98.84","","","","","","NA"
"-81.15","43.03","LONDON A","6144473","2020-11-04 09:00","2020","11","04","09:00","11.9","","6.4","","69","","","","20","","21","","24.1","","98.87","","","","","","NA"
"-81.15","43.03","LONDON A","6144473","2020-11-04 10:00","2020","11","04","10:00","13.6","","7.1","","65","","","","20","","31","","24.1","","98.87","","","","","","Clear"
"-81.15","43.03","LONDON A","6144473","2020-11-04 11:00","2020","11","04","11:00","14.3","","7.2","","62","","","","19","","28","","24.1","","98.84","","","","","","NA"
"-81.15","43.03","LONDON A","6144473","2020-11-04 12:00","2020","11","04","12:00","15.1","","7.5","","60","","","","19","","29","","24.1","","98.79","","","","","","NA"
"-81.15","43.03","LONDON A","6144473","2020-11-04 13:00","2020","11","04","13:00","15.4","","7.3","","58","","","","20","","32","","24.1","","98.76","","","","","","Clear"
"-81.15","43.03","LONDON A","6144473","2020-11-04 14:00","2020","11","04","14:00","15.8","","6.8","","55","","","","20","","35","","24.1","","98.76","","","","","","NA"
"-81.15","43.03","LONDON A","6144473","2020-11-04 15:00","2020","11","04","15:00","16.6","","7.4","","54","","","","19","","25","","24.1","","98.75","","","","","","NA"
"-81.15","43.03","LONDON A","6144473","2020-11-04 16:00","2020","11","04","16:00","16.9","","6.9","","51","","","","19","","30","","24.1","","98.76","","","","","","Clear"
"-81.15","43.03","LONDON A","6144473","2020-11-04 17:00","2020","11","04","17:00","15.8","","7.3","","56","","","","20","","25","","24.1","","98.75","","","","","","NA"
"-81.15","43.03","LONDON A","6144473","2020-11-04 18:00","2020","11","04","18:00","14.4","","7.5","","63","","","","19","","21","","24.1","","98.79","","","","","","NA"
"-81.15","43.03","LONDON A","6144473","2020-11-04 19:00","2020","11","04","19:00","13.6","","7.8","","68","","","","20","","17","","24.1","","98.83","","","","","","Clear"
"-81.15","43.03","LONDON A","6144473","2020-11-04 20:00","2020","11","04","20:00","14.0","","7.6","","65","","","","20","","26","","24.1","","98.85","","","","","","NA"
"-81.15","43.03","LONDON A","6144473","2020-11-04 21:00","2020","11","04","21:00","13.9","","6.8","","62","","","","20","","24","","24.1","","98.85","","","","","","NA"
"-81.15","43.03","LONDON A","6144473","2020-11-04 22:00","2020","11","04","22:00","14.3","","6.2","","58","","","","20","","29","","24.1","","98.89","","","","","","Clear"
"-81.15","43.03","LONDON A","6144473","2020-11-04 23:00","2020","11","04","23:00","13.7","","6.2","","60","","","","20","","25","","24.1","","98.92","","","","","","NA"
"-81.15","43.03","LONDON A","6144473","2020-11-05 00:00","2020","11","05","00:00","12.5","","6.3","","66","","","","20","","22","","24.1","","98.91","","","","","","NA"
"-81.15","43.03","LONDON A","6144473","2020-11-05 01:00","2020","11","05","01:00","11.8","","6.3","","69","","","","20","","19","","24.1","","98.89","","","","","","Clear"
"-81.15","43.03","LONDON A","6144473","2020-11-05 02:00","2020","11","05","02:00","11.4","","6.6","","72","","","","20","","19","","24.1","","98.86","","","","","","NA"
"-81.15","43.03","LONDON A","6144473","2020-11-05 03:00","2020","11","05","03:00","10.9","","6.7","","75","","","","20","","17","","24.1","","98.83","","","","","","NA"
"-81.15","43.03","LONDON A","6144473","2020-11-05 04:00","2020","11","05","04:00","10.3","","6.5","","77","","","","21","","16","","24.1","","98.81","","","","","","Clear"
"-81.15","43.03","LONDON A","6144473","2020-11-05 05:00","2020","11","05","05:00","10.4","","6.3","","75","","","","21","","16","","24.1","","98.81","","","","","","NA"
"-81.15","43.03","LONDON A","6144473","2020-11-05 06:00","2020","11","05","06:00","10.5","","6.4","","75","","","","21","","17","","24.1","","98.80","","","","","","NA"
"-81.15","43.03","LONDON A","6144473","2020-11-05 07:00","2020","11","05","07:00","10.2","","6.4","","77","","","","21","","13","","24.1","","98.81","","","","","","Mainly Clear"
"-81.15","43.03","LONDON A","6144473","2020-11-05 08:00","2020","11","05","08:00","10.5","","6.7","","77","","","","21","","15","","24.1","","98.83","","","","","","NA"
"-81.15","43.03","LONDON A","6144473","2020-11-05 09:00","2020","11","05","09:00","12.6","","7.3","","70","","","","21","","18","","24.1","","98.83","","","","","","NA"
"-81.15","43.03","LONDON A","6144473","2020-11-05 10:00","2020","11","05","10:00","15.3","","7.7","","60","","","","23","","24","","24.1","","98.81","","","","","","Cloudy"
"-81.15","43.03","LONDON A","6144473","2020-11-05 11:00","2020","11","05","11:00","16.7","","7.4","","54","","","","23","","19","","24.1","","98.81","","","","","","NA"
"-81.15","43.03","LONDON A","6144473","2020-11-05 12:00","2020","11","05","12:00","17.1","","8.7","","57","","","","22","","16","","24.1","","98.79","","","","","","NA"
"-81.15","43.03","LONDON A","6144473","2020-11-05 13:00","2020","11","05","13:00","17.8","","8.2","","53","","","","22","","16","","24.1","","98.75","","","","","","Cloudy"
"-81.15","43.03","LONDON A","6144473","2020-11-05 14:00","2020","11","05","14:00","17.8","","8.6","","54","","","","19","","17","","24.1","","98.70","","","","","","NA"
"-81.15","43.03","LONDON A","6144473","2020-11-05 15:00","2020","11","05","15:00","15.2","","9.2","","67","","","","18","","21","","24.1","","98.73","","","","","","NA"
"-81.15","43.03","LONDON A","6144473","2020-11-05 16:00","2020","11","05","16:00","14.3","","8.7","","69","","","","20","","18","","24.1","","98.73","","","","","","Mostly Cloudy"
"-81.15","43.03","LONDON A","6144473","2020-11-05 17:00","2020","11","05","17:00","14.2","","7.4","","63","","","","21","","23","","24.1","","98.76","","","","","","NA"
"-81.15","43.03","LONDON A","6144473","2020-11-05 18:00","2020","11","05","18:00","14.2","","6.9","","61","","","","21","","22","","24.1","","98.78","","","","","","NA"
"-81.15","43.03","LONDON A","6144473","2020-11-05 19:00","2020","11","05","19:00","14.0","","7.0","","62","","","","22","","16","","24.1","","98.81","","","","","","Cloudy"
"-81.15","43.03","LONDON A","6144473","2020-11-05 20:00","2020","11","05","20:00","13.6","","6.9","","64","","","","22","","17","","24.1","","98.83","","","","","","NA"
"-81.15","43.03","LONDON A","6144473","2020-11-05 21:00","2020","11","05","21:00","13.3","","6.8","","65","","","","23","","17","","24.1","","98.82","","","","","","NA"
"-81.15","43.03","LONDON A","6144473","2020-11-05 22:00","2020","11","05","22:00","12.5","","6.7","","68","","","","23","","15","","24.1","","98.84","","","","","","Mainly Clear"
"-81.15","43.03","LONDON A","6144473","2020-11-05 23:00","2020","11","05","23:00","11.9","","6.8","","71","","","","23","","15","","24.1","","98.83","","","","","","NA"
"-81.15","43.03","LONDON A","6144473","2020-11-06 00:00","2020","11","06","00:00","10.6","","6.5","","75","","","","21","","11","","24.1","","98.79","","","","","","NA"
"-81.15","43.03","LONDON A","6144473","2020-11-06 01:00","2020","11","06","01:00","9.7","","6.3","","80","","","","22","","11","","24.1","","98.80","","","","","","Clear"
"-81.15","43.03","LONDON A","6144473","2020-11-06 02:00","2020","11","06","02:00","8.9","","6.2","","83","","","","22","","12","","24.1","","98.82","","","","","","NA"
"-81.15","43.03","LONDON A","6144473","2020-11-06 03:00","2020","11","06","03:00","9.2","","6.1","","81","","","","22","","8","","24.1","","98.81","","","","","","NA"
"-81.15","43.03","LONDON A","6144473","2020-11-06 04:00","2020","11","06","04:00","10.1","","6.7","","80","","","","23","","14","","24.1","","98.80","","","","","","Mainly Clear"
"-81.15","43.03","LONDON A","6144473","2020-11-06 05:00","2020","11","06","05:00","9.2","","6.2","","82","","","","23","","13","","24.1","","98.81","","","","","","NA"
"-81.15","43.03","LONDON A","6144473","2020-11-06 06:00","2020","11","06","06:00","9.1","","6.4","","83","","","","24","","12","","24.1","","98.85","","","","","","NA"
"-81.15","43.03","LONDON A","6144473","2020-11-06 07:00","2020","11","06","07:00","7.8","","5.8","","87","","","","24","","9","","24.1","","98.88","","","","","","Mainly Clear"
"-81.15","43.03","LONDON A","6144473","2020-11-06 08:00","2020","11","06","08:00","8.3","","6.5","","88","","","","19","","6","","24.1","","98.94","","","","","","NA"
"-81.15","43.03","LONDON A","6144473","2020-11-06 09:00","2020","11","06","09:00","10.4","","7.0","","79","","","","23","","13","","24.1","","98.93","","","","","","NA"
"-81.15","43.03","LONDON A","6144473","2020-11-06 10:00","2020","11","06","10:00","13.2","","7.5","","68","","","","23","","15","","24.1","","98.93","","","","","","Cloudy"
"-81.15","43.03","LONDON A","6144473","2020-11-06 11:00","2020","11","06","11:00","15.3","","8.9","","65","","","","22","","14","","24.1","","98.91","","","","","","NA"
"-81.15","43.03","LONDON A","6144473","2020-11-06 12:00","2020","11","06","12:00","17.9","","9.7","","58","","","","22","","14","","24.1","","98.87","","","","","","NA"
"-81.15","43.03","LONDON A","6144473","2020-11-06 13:00","2020","11","06","13:00","19.5","","10.0","","54","","","","22","","22","","24.1","","98.82","","","","","","Cloudy"
"-81.15","43.03","LONDON A","6144473","2020-11-06 14:00","2020","11","06","14:00","20.2","","9.2","","49","","","","24","","28","","24.1","","98.80","","","","","","NA"
"-81.15","43.03","LONDON A","6144473","2020-11-06 15:00","2020","11","06","15:00","19.6","","9.2","","50","","","","24","","22","","24.1","","98.78","","","","","","NA"
"-81.15","43.03","LONDON A","6144473","2020-11-06 16:00","2020","11","06","16:00","16.2","","10.6","","69","","","","18","","16","","24.1","","98.81","","","","","","Mostly Cloudy"
"-81.15","43.03","LONDON A","6144473","2020-11-06 17:00","2020","11","06","17:00","14.1","","9.9","","76","","","","19","","11","","16.1","","98.87","","","","","","NA"
"-81.15","43.03","LONDON A","6144473","2020-11-06 18:00","2020","11","06","18:00","13.3","","9.3","","76","","","","20","","13","","24.1","","98.90","","","","","","NA"
"-81.15","43.03","LONDON A","6144473","2020-11-06 19:00","2020","11","06","19:00","12.9","","8.7","","76","","","","20","","13","","24.1","","98.88","","","","","","Clear"
"-81.15","43.03","LONDON A","6144473","2020-11-06 20:00","2020","11","06","20:00","12.4","","8.2","","76","","","","21","","12","","24.1","","98.91","","","","","","NA"
"-81.15","43.03","LONDON A","6144473","2020-11-06 21:00","2020","11","06","21:00","11.9","","7.9","","76","","","","21","","13","","24.1","","98.90","","","","","","NA"
"-81.15","43.03","LONDON A","6144473","2020-11-06 22:00","2020","11","06","22:00","11.7","","7.6","","76","","","","20","","13","","24.1","","98.91","","","","","","Mainly Clear"
"-81.15","43.03","LONDON A","6144473","2020-11-06 23:00","2020","11","06","23:00","11.6","","7.4","","75","","","","22","","7","","24.1","","98.92","","","","","","NA"
"-81.15","43.03","LONDON A","6144473","2020-11-07 00:00","2020","11","07","00:00","10.8","","7.2","","78","","","","20","","12","","24.1","","98.91","","","","","","NA"
"-81.15","43.03","LONDON A","6144473","2020-11-07 01:00","2020","11","07","01:00","11.6","","7.4","","75","","","","23","","5","","24.1","","98.95","","","","","","Mainly Clear"
"-81.15","43.03","LONDON A","6144473","2020-11-07 02:00","2020","11","07","02:00","8.5","","5.8","","83","","","","21","","8","","24.1","","98.97","","","","","","NA"
"-81.15","43.03","LONDON A","6144473","2020-11-07 03:00","2020","11","07","03:00","8.1","","6.0","","87","","","","20","","5","","24.1","","98.98","","","","","","NA"
"-81.15","43.03","LONDON A","6144473","2020-11-07 04:00","2020","11","07","04:00","7.7","","6.1","","90","","","","19","","4","","24.1","","98.96","","","","","","Mostly Cloudy"
"-81.15","43.03","LONDON A","6144473","2020-11-07 05:00","2020","11","07","05:00","6.9","","5.5","","91","","","","17","","7","","24.1","","99.02","","","","","","NA"
"-81.15","43.03","LONDON A","6144473","2020-11-07 06:00","2020","11","07","06:00","7.5","","6.2","","91","","","","21","","9","","24.1","","99.04","","","","","","NA"
"-81.15","43.03","LONDON A","6144473","2020-11-07 07:00","2020","11","07","07:00","8.4","","6.3","","86","","","","21","","11","","24.1","","99.08","","","","","","Mostly Cloudy"
"-81.15","43.03","LONDON A","6144473","2020-11-07 08:00","2020","11","07","08:00","10.0","","7.2","","83","","","","21","","11","","24.1","","99.11","","","","","","NA"
"-81.15","43.03","LONDON A","6144473","2020-11-07 09:00","2020","11","07","09:00","12.9","","8.3","","73","","","","23","","11","","24.1","","99.13","","","","","","NA"
"-81.15","43.03","LONDON A","6144473","2020-11-07 10:00","2020","11","07","10:00","15.1","","8.0","","62","","","","22","","14","","24.1","","99.11","","","","","","Cloudy"
"-81.15","43.03","LONDON A","6144473","2020-11-07 11:00","2020","11","07","11:00","16.7","","8.4","","58","","","","22","","16","","24.1","","99.09","","","","","","NA"
"-81.15","43.03","LONDON A","6144473","2020-11-07 12:00","2020","11","07","12:00","18.9","","8.6","","51","","","","24","","17","","24.1","","99.02","","","","","","NA"
"-81.15","43.03","LONDON A","6144473","2020-11-07 13:00","2020","11","07","13:00","19.2","","8.4","","49","","","","24","","21","","24.1","","98.98","","","","","","Cloudy"
"-81.15","43.03","LONDON A","6144473","2020-11-07 14:00","2020","11","07","14:00","18.9","","10.4","","57","","","","18","","18","","24.1","","98.96","","","","","","NA"
"-81.15","43.03","LONDON A","6144473","2020-11-07 15:00","2020","11","07","15:00","18.1","","10.4","","60","","","","18","","17","","24.1","","98.96","","","","","","NA"
"-81.15","43.03","LONDON A","6144473","2020-11-07 16:00","2020","11","07","16:00","16.7","","9.7","","63","","","","18","","16","","24.1","","98.97","","","","","","Mostly Cloudy"
"-81.15","43.03","LONDON A","6144473","2020-11-07 17:00","2020","11","07","17:00","14.6","","8.6","","67","","","","19","","15","","24.1","","99.00","","","","","","NA"
"-81.15","43.03","LONDON A","6144473","2020-11-07 18:00","2020","11","07","18:00","12.7","","7.9","","73","","","","19","","12","","24.1","","99.05","","","","","","NA"
"-81.15","43.03","LONDON A","6144473","2020-11-07 19:00","2020","11","07","19:00","10.2","","6.9","","80","","","","12","","5","","24.1","","99.08","","","","","","Mainly Clear"
"-81.15","43.03","LONDON A","6144473","2020-11-07 20:00","2020","11","07","20:00","11.5","","7.4","","76","","","","20","","4","","24.1","","99.09","","","","","","NA"
"-81.15","43.03","LONDON A","6144473","2020-11-07 21:00","2020","11","07","21:00","10.6","","6.9","","78","","","","20","","7","","24.1","","99.11","","","","","","NA"
"-81.15","43.03","LONDON A","6144473","2020-11-07 22:00","2020","11","07","22:00","9.4","","6.4","","81","","","","19","","9","","24.1","","99.11","","","","","","Clear"
"-81.15","43.03","LONDON A","6144473","2020-11-07 23:00","2020","11","07","23:00","10.8","","6.8","","76","","","","20","","8","","24.1","","99.10","","","","","","NA"
"-81.15","43.03","LONDON A","6144473","2020-11-08 00:00","2020","11","08","00:00","7.9","","6.0","","88","","","","16","","5","","24.1","","99.12","","","","","","NA"
"-81.15","43.03","LONDON A","6144473","2020-11-08 01:00","2020","11","08","01:00","7.0","","6.1","","94","","","","15","","4","","24.1","","99.14","","","","","","Clear"
"-81.15","43.03","LONDON A","6144473","2020-11-08 02:00","2020","11","08","02:00","6.2","","5.6","","96","","","","13","","5","","24.1","","99.16","","","","","","NA"
"-81.15","43.03","LONDON A","6144473","2020-11-08 03:00","2020","11","08","03:00","6.0","","5.6","","98","","","","12","","5","","24.1","","99.20","","","","","","NA"
"-81.15","43.03","LONDON A","6144473","2020-11-08 04:00","2020","11","08","04:00","6.0","","6.0","","100","","","","10","","5","","24.1","","99.23","","","","","","Clear"
"-81.15","43.03","LONDON A","6144473","2020-11-08 05:00","2020","11","08","05:00","4.3","","4.3","","99","","","","8","","5","","24.1","","99.27","","","","","","NA"
"-81.15","43.03","LONDON A","6144473","2020-11-08 06:00","2020","11","08","06:00","4.5","","4.4","","100","","","","5","","5","","6.4","","99.32","","","","","","NA"
"-81.15","43.03","LONDON A","6144473","2020-11-08 07:00","2020","11","08","07:00","2.8","","2.7","","99","","","","8","","7","","1.2","","99.38","","","","","","Fog"
"-81.15","43.03","LONDON A","6144473","2020-11-08 08:00","2020","11","08","08:00","4.5","","4.4","","99","","","","10","","6","","4.0","","99.44","","","","","","NA"
"-81.15","43.03","LONDON A","6144473","2020-11-08 09:00","2020","11","08","09:00","9.2","","7.9","","92","","","","13","","3","","9.7","","99.48","","","","","","Fog"
"-81.15","43.03","LONDON A","6144473","2020-11-08 10:00","2020","11","08","10:00","13.7","","9.8","","77","","","","12","","3","","12.9","","99.48","","","","","","Clear"
"-81.15","43.03","LONDON A","6144473","2020-11-08 11:00","2020","11","08","11:00","17.6","","9.2","","57","","","","20","","9","","12.9","","99.49","","","","","","NA"
"-81.15","43.03","LONDON A","6144473","2020-11-08 12:00","2020","11","08","12:00","19.7","","9.4","","51","","","","22","","8","","19.3","","99.44","","","","","","NA"
"-81.15","43.03","LONDON A","6144473","2020-11-08 13:00","2020","11","08","13:00","20.5","","8.8","","46","","","","22","","11","","19.3","","99.39","","","","","","Clear"
"-81.15","43.03","LONDON A","6144473","2020-11-08 14:00","2020","11","08","14:00","21.2","","9.0","","45","","","","23","","7","","19.3","","99.38","","","","","","NA"
"-81.15","43.03","LONDON A","6144473","2020-11-08 15:00","2020","11","08","15:00","21.1","","9.5","","47","","","","21","","10","","24.1","","99.37","","","","","","NA"
"-81.15","43.03","LONDON A","6144473","2020-11-08 16:00","2020","11","08","16:00","19.6","","9.5","","52","","","","20","","14","","24.1","","99.37","","","","","","Clear"
"-81.15","43.03","LONDON A","6144473","2020-11-08 17:00","2020","11","08","17:00","16.8","","8.5","","58","","","","18","","10","","24.1","","99.37","","","","","","NA"
"-81.15","43.03","LONDON A","6144473","2020-11-08 18:00","2020","11","08","18:00","13.6","","8.1","","69","","","","14","","8","","24.1","","99.37","","","","","","NA"
"-81.15","43.03","LONDON A","6144473","2020-11-08 19:00","2020","11","08","19:00","12.4","","7.3","","71","","","","12","","9","","24.1","","99.34","","","","","","Clear"
"-81.15","43.03","LONDON A","6144473","2020-11-08 20:00","2020","11","08","20:00","11.2","","7.2","","76","","","","16","","5","","24.1","","99.33","","","","","","NA"
"-81.15","43.03","LONDON A","6144473","2020-11-08 21:00","2020","11","08","21:00","10.6","","7.0","","79","","","","11","","5","","24.1","","99.33","","","","","","NA"
"-81.15","43.03","LONDON A","6144473","2020-11-08 22:00","2020","11","08","22:00","8.8","","6.8","","87","","","","4","","3","","24.1","","99.36","","","","","","Clear"
"-81.15","43.03","LONDON A","6144473","2020-11-08 23:00","2020","11","08","23:00","8.1","","6.1","","87","","","","8","","7","","24.1","","99.34","","","","","","NA"
"-81.15","43.03","LONDON A","6144473","2020-11-09 00:00","2020","11","09","00:00","8.8","","5.9","","82","","","","8","","7","","24.1","","99.30","","","","","","NA"
"-81.15","43.03","LONDON A","6144473","2020-11-09 01:00","2020","11","09","01:00","7.9","","5.7","","86","","","","8","","9","","24.1","","99.28","","","","","","Clear"
"-81.15","43.03","LONDON A","6144473","2020-11-09 02:00","2020","11","09","02:00","7.9","","5.3","","84","","","","9","","11","","24.1","","99.25","","","","","","NA"
"-81.15","43.03","LONDON A","6144473","2020-11-09 03:00","2020","11","09","03:00","7.9","","4.8","","81","","","","6","","4","","24.1","","99.26","","","","","","NA"
"-81.15","43.03","LONDON A","6144473","2020-11-09 04:00","2020","11","09","04:00","7.9","","5.0","","81","","","","8","","9","","24.1","","99.21","","","","","","Clear"
"-81.15","43.03","LONDON A","6144473","2020-11-09 05:00","2020","11","09","05:00","6.4","","4.7","","88","","","","8","","8","","24.1","","99.21","","","","","","NA"
"-81.15","43.03","LONDON A","6144473","2020-11-09 06:00","2020","11","09","06:00","7.2","","4.7","","84","","","","9","","7","","24.1","","99.23","","","","","","NA"
"-81.15","43.03","LONDON A","6144473","2020-11-09 07:00","2020","11","09","07:00","7.7","","5.5","","86","","","","9","","9","","19.3","","99.23","","","","","","Mostly Cloudy"
"-81.15","43.03","LONDON A","6144473","2020-11-09 08:00","2020","11","09","08:00","9.0","","6.7","","86","","","","9","","8","","24.1","","99.25","","","","","","NA"
"-81.15","43.03","LONDON A","6144473","2020-11-09 09:00","2020","11","09","09:00","12.5","","8.0","","74","","","","10","","6","","24.1","","99.25","","","","","","NA"
"-81.15","43.03","LONDON A","6144473","2020-11-09 10:00","2020","11","09","10:00","16.1","","9.9","","67","","","","13","","10","","24.1","","99.16","","","","","","Mainly Clear"
"-81.15","43.03","LONDON A","6144473","2020-11-09 11:00","2020","11","09","11:00","19.6","","8.7","","49","","","","17","","14","","19.3","","99.11","","","","","","NA"
"-81.15","43.03","LONDON A","6144473","2020-11-09 12:00","2020","11","09","12:00","20.7","","10.3","","51","","","","18","","15","","24.1","","99.02","","","","","","NA"
"-81.15","43.03","LONDON A","6144473","2020-11-09 13:00","2020","11","09","13:00","20.9","","10.2","","50","","","","15","","17","","24.1","","98.90","","","","","","Mainly Clear"
"-81.15","43.03","LONDON A","6144473","2020-11-09 14:00","2020","11","09","14:00","20.8","","11.2","","54","","","","16","","18","","24.1","","98.83","","","","","","NA"
"-81.15","43.03","LONDON A","6144473","2020-11-09 15:00","2020","11","09","15:00","20.4","","11.3","","55","","","","17","","16","","24.1","","98.82","","","","","","NA"
"-81.15","43.03","LONDON A","6144473","2020-11-09 16:00","2020","11","09","16:00","19.0","","10.8","","58","","","","16","","18","","24.1","","98.78","","","","","","Clear"
"-81.15","43.03","LONDON A","6144473","2020-11-09 17:00","2020","11","09","17:00","16.1","","10.0","","67","","","","17","","12","","24.1","","98.79","","","","","","NA"
"-81.15","43.03","LONDON A","6144473","2020-11-09 18:00","2020","11","09","18:00","13.1","","8.9","","75","","","","12","","8","","24.1","","98.78","","","","","","NA"
"-81.15","43.03","LONDON A","6144473","2020-11-09 19:00","2020","11","09","19:00","11.8","","9.0","","83","","","","11","","8","","24.1","","98.75","","","","","","Clear"
"-81.15","43.03","LONDON A","6144473","2020-11-09 20:00","2020","11","09","20:00","10.8","","8.7","","87","","","","10","","9","","24.1","","98.70","","","","","","NA"
"-81.15","43.03","LONDON A","6144473","2020-11-09 21:00","2020","11","09","21:00","10.8","","8.4","","85","","","","13","","10","","24.1","","98.66","","","","","","NA"
"-81.15","43.03","LONDON A","6144473","2020-11-09 22:00","2020","11","09","22:00","11.8","","9.1","","84","","","","14","","11","","24.1","","98.65","","","","","","Clear"
"-81.15","43.03","LONDON A","6144473","2020-11-09 23:00","2020","11","09","23:00","13.1","","9.7","","80","","","","16","","8","","24.1","","98.59","","","","","","NA"
"-81.15","43.03","LONDON A","6144473","2020-11-10 00:00","2020","11","10","00:00","12.7","","10.1","","84","","","","17","","9","","24.1","","98.54","","","","","","NA"
"-81.15","43.03","LONDON A","6144473","2020-11-10 01:00","2020","11","10","01:00","13.0","","10.6","","85","","","","18","","9","","24.1","","98.53","","","","","","Clear"
"-81.15","43.03","LONDON A","6144473","2020-11-10 02:00","2020","11","10","02:00","14.2","","11.3","","82","","","","19","","12","","24.1","","98.50","","","","","","NA"
"-81.15","43.03","LONDON A","6144473","2020-11-10 03:00","2020","11","10","03:00","13.4","","10.7","","83","","","","18","","12","","24.1","","98.44","","","","","","NA"
"-81.15","43.03","LONDON A","6144473","2020-11-10 04:00","2020","11","10","04:00","14.1","","11.2","","82","","","","19","","10","","24.1","","98.39","","","","","","Mostly Cloudy"
"-81.15","43.03","LONDON A","6144473","2020-11-10 05:00","2020","11","10","05:00","14.8","","11.5","","80","","","","19","","14","","24.1","","98.37","","","","","","NA"
"-81.15","43.03","LONDON A","6144473","2020-11-10 06:00","2020","11","10","06:00","14.2","","11.4","","83","","","","18","","11","","24.1","","98.36","","","","","","NA"
"-81.15","43.03","LONDON A","6144473","2020-11-10 07:00","2020","11","10","07:00","13.7","","11.3","","86","","","","17","","13","","24.1","","98.36","","","","","","Mostly Cloudy"
"-81.15","43.03","LONDON A","6144473","2020-11-10 08:00","2020","11","10","08:00","15.1","","11.7","","80","","","","18","","14","","24.1","","98.35","","","","","","NA"
"-81.15","43.03","LONDON A","6144473","2020-11-10 09:00","2020","11","10","09:00","16.3","","12.2","","76","","","","20","","15","","24.1","","98.35","","","","","","NA"
"-81.15","43.03","LONDON A","6144473","2020-11-10 10:00","2020","11","10","10:00","18.7","","12.7","","68","","","","20","","19","","24.1","","98.32","","","","","","Mainly Clear"
"-81.15","43.03","LONDON A","6144473","2020-11-10 11:00","2020","11","10","11:00","19.5","","13.1","","66","","","","20","","26","","24.1","","98.29","","","","","","NA"
"-81.15","43.03","LONDON A","6144473","2020-11-10 12:00","2020","11","10","12:00","18.9","","12.8","","67","","","","20","","20","","24.1","","98.21","","","","","","NA"
"-81.15","43.03","LONDON A","6144473","2020-11-10 13:00","2020","11","10","13:00","21.4","","13.9","","62","","","","17","","19","","24.1","","98.10","","25","","","","Mainly Clear"
"-81.15","43.03","LONDON A","6144473","2020-11-10 14:00","2020","11","10","14:00","21.3","","13.8","","62","","","","20","","27","","24.1","","98.03","","25","","","","NA"
"-81.15","43.03","LONDON A","6144473","2020-11-10 15:00","2020","11","10","15:00","21.4","","13.8","","62","","","","20","","31","","24.1","","97.94","","25","","","","NA"
"-81.15","43.03","LONDON A","6144473","2020-11-10 16:00","2020","11","10","16:00","20.6","","13.5","","63","","","","19","","28","","24.1","","97.95","","","","","","Mostly Cloudy"
"-81.15","43.03","LONDON A","6144473","2020-11-10 17:00","2020","11","10","17:00","20.2","","13.4","","65","","","","19","","17","","24.1","","97.89","","","","","","NA"
"-81.15","43.03","LONDON A","6144473","2020-11-10 18:00","2020","11","10","18:00","18.8","","13.1","","69","","","","17","","20","","24.1","","97.87","","","","","","NA"
"-81.15","43.03","LONDON A","6144473","2020-11-10 19:00","2020","11","10","19:00","16.9","","12.7","","76","","","","16","","13","","24.1","","97.85","","","","","","Mainly Clear"
"-81.15","43.03","LONDON A","6144473","2020-11-10 20:00","2020","11","10","20:00","17.0","","12.8","","76","","","","16","","14","","24.1","","97.83","","","","","","NA"
"-81.15","43.03","LONDON A","6144473","2020-11-10 21:00","2020","11","10","21:00","17.7","","12.8","","72","","","","16","","19","","24.1","","97.74","","","","","","NA"
"-81.15","43.03","LONDON A","6144473","2020-11-10 22:00","2020","11","10","22:00","18.0","","12.7","","71","","","","17","","23","","24.1","","97.67","","","","","","Mainly Clear"
"-81.15","43.03","LONDON A","6144473","2020-11-10 23:00","2020","11","10","23:00","18.3","","12.6","","69","","","","16","","18","","24.1","","97.60","","","","","","NA"
"-81.15","43.03","LONDON A","6144473","2020-11-11 00:00","2020","11","11","00:00","17.5","","14.3","","81","","","","20","","14","","24.1","","97.57","","","","","","NA"
"-81.15","43.03","LONDON A","6144473","2020-11-11 01:00","2020","11","11","01:00","16.8","","13.8","","82","","","","17","","8","","24.1","","97.50","","","","","","Cloudy"
"-81.15","43.03","LONDON A","6144473","2020-11-11 02:00","2020","11","11","02:00","15.6","","14.2","","92","","","","23","","14","","16.1","","97.61","","","","","","Rain Showers"
"-81.15","43.03","LONDON A","6144473","2020-11-11 03:00","2020","11","11","03:00","15.7","","14.5","","92","","","","19","","24","","24.1","","97.49","","","","","","Rain Showers"
"-81.15","43.03","LONDON A","6144473","2020-11-11 04:00","2020","11","11","04:00","15.9","","15.2","","95","","","","20","","23","","24.1","","97.51","","","","","","Cloudy"
"-81.15","43.03","LONDON A","6144473","2020-11-11 05:00","2020","11","11","05:00","16.0","","15.7","","98","","","","20","","24","","8.1","","97.51","","","","","","Rain Showers,Fog"
"-81.15","43.03","LONDON A","6144473","2020-11-11 06:00","2020","11","11","06:00","15.9","","15.2","","95","","","","20","","16","","24.1","","97.47","","","","","","NA"
"-81.15","43.03","LONDON A","6144473","2020-11-11 07:00","2020","11","11","07:00","14.8","","13.8","","93","","","","23","","16","","19.3","","97.57","","","","","","Mostly Cloudy"
"-81.15","43.03","LONDON A","6144473","2020-11-11 08:00","2020","11","11","08:00","13.4","","9.7","","78","","","","25","","19","","24.1","","97.68","","","","","","NA"
"-81.15","43.03","LONDON A","6144473","2020-11-11 09:00","2020","11","11","09:00","12.4","","8.3","","76","","","","26","","16","","24.1","","97.78","","","","","","NA"
"-81.15","43.03","LONDON A","6144473","2020-11-11 10:00","2020","11","11","10:00","12.6","","9.3","","80","","","","28","","16","","24.1","","97.89","","","","","","Mainly Clear"
"-81.15","43.03","LONDON A","6144473","2020-11-11 11:00","2020","11","11","11:00","11.5","","4.0","","60","","","","31","","23","","24.1","","97.96","","","","","","NA"
"-81.15","43.03","LONDON A","6144473","2020-11-11 12:00","2020","11","11","12:00","10.9","","4.6","","65","","","","30","","22","","24.1","","97.98","","","","","","NA"
"-81.15","43.03","LONDON A","6144473","2020-11-11 13:00","2020","11","11","13:00","10.4","","3.1","","61","","","","31","","21","","24.1","","97.99","","","","","","Clear"
"-81.15","43.03","LONDON A","6144473","2020-11-11 14:00","2020","11","11","14:00","9.4","","3.9","","68","","","","32","","14","","24.1","","98.06","","","","","","NA"
"-81.15","43.03","LONDON A","6144473","2020-11-11 15:00","2020","11","11","15:00","8.7","","3.0","","67","","","","33","","17","","24.1","","98.11","","","","","","NA"
"-81.15","43.03","LONDON A","6144473","2020-11-11 16:00","2020","11","11","16:00","7.3","","2.0","","69","","","","31","","15","","24.1","","98.20","","","","","","Mainly Clear"
"-81.15","43.03","LONDON A","6144473","2020-11-11 17:00","2020","11","11","17:00","5.8","","1.4","","73","","","","31","","17","","24.1","","98.24","","","","","","NA"
"-81.15","43.03","LONDON A","6144473","2020-11-11 18:00","2020","11","11","18:00","4.8","","0.9","","76","","","","32","","16","","24.1","","98.32","","","","","","NA"
"-81.15","43.03","LONDON A","6144473","2020-11-11 19:00","2020","11","11","19:00","4.1","","0.8","","79","","","","31","","10","","24.1","","98.38","","","","","","Mainly Clear"
"-81.15","43.03","LONDON A","6144473","2020-11-11 20:00","2020","11","11","20:00","3.4","","0.4","","80","","","","30","","10","","24.1","","98.41","","","","","","NA"
"-81.15","43.03","LONDON A","6144473","2020-11-11 21:00","2020","11","11","21:00","3.2","","0.7","","84","","","","28","","8","","24.1","","98.47","","","","","","NA"
"-81.15","43.03","LONDON A","6144473","2020-11-11 22:00","2020","11","11","22:00","3.0","","0.1","","81","","","","30","","9","","24.1","","98.52","","","","","","Mostly Cloudy"
"-81.15","43.03","LONDON A","6144473","2020-11-11 23:00","2020","11","11","23:00","4.1","","0.5","","77","","","","30","","12","","24.1","","98.55","","","","","","NA"
"-81.15","43.03","LONDON A","6144473","2020-11-12 00:00","2020","11","12","00:00","4.0","","0.0","","75","","","","31","","13","","24.1","","98.54","","","","","","NA"
"-81.15","43.03","LONDON A","6144473","2020-11-12 01:00","2020","11","12","01:00","4.1","","0.2","","76","","","","30","","12","","24.1","","98.60","","","","","","Cloudy"
"-81.15","43.03","LONDON A","6144473","2020-11-12 02:00","2020","11","12","02:00","4.0","","-0.1","","75","","","","31","","12","","24.1","","98.63","","","","","","NA"
"-81.15","43.03","LONDON A","6144473","2020-11-12 03:00","2020","11","12","03:00","3.5","","-0.3","","76","","","","29","","9","","24.1","","98.69","","","","","","NA"
"-81.15","43.03","LONDON A","6144473","2020-11-12 04:00","2020","11","12","04:00","2.7","","-0.4","","80","","","","27","","8","","24.1","","98.76","","","","","","Mostly Cloudy"
"-81.15","43.03","LONDON A","6144473","2020-11-12 05:00","2020","11","12","05:00","1.8","","-0.7","","83","","","","28","","7","","24.1","","98.80","","","","","","NA"
"-81.15","43.03","LONDON A","6144473","2020-11-12 06:00","2020","11","12","06:00","1.3","","-0.7","","87","","","","36","","2","","24.1","","98.82","","","","","","NA"
"-81.15","43.03","LONDON A","6144473","2020-11-12 07:00","2020","11","12","07:00","1.0","","-0.8","","88","","","","36","","3","","24.1","","98.87","","","","","","Clear"
"-81.15","43.03","LONDON A","6144473","2020-11-12 08:00","2020","11","12","08:00","-0.3","","-1.6","","91","","","","12","","5","","24.1","","98.93","","","","-2","","NA"
"-81.15","43.03","LONDON A","6144473","2020-11-12 09:00","2020","11","12","09:00","3.1","","0.4","","82","","","","31","","3","","19.3","","98.95","","","","","","NA"
"-81.15","43.03","LONDON A","6144473","2020-11-12 10:00","2020","11","12","10:00","5.5","","0.6","","71","","","","32","","8","","24.1","","98.96","","","","","","Clear"
"-81.15","43.03","LONDON A","6144473","2020-11-12 11:00","2020","11","12","11:00","6.4","","0.1","","64","","","","1","","7","","24.1","","98.89","","","","","","NA"
"-81.15","43.03","LONDON A","6144473","2020-11-12 12:00","2020","11","12","12:00","7.5","","-0.7","","56","","","","5","","11","","24.1","","98.84","","","","","","NA"
"-81.15","43.03","LONDON A","6144473","2020-11-12 13:00","2020","11","12","13:00","8.6","","-0.6","","53","","","","5","","11","","24.1","","98.76","","","","","","Clear"
"-81.15","43.03","LONDON A","6144473","2020-11-12 14:00","2020","11","12","14:00","9.3","","-1.6","","46","","","","9","","13","","24.1","","98.70","","","","","","NA"
"-81.15","43.03","LONDON A","6144473","2020-11-12 15:00","2020","11","12","15:00","9.1","","-1.1","","49","","","","10","","9","","24.1","","98.64","","","","","","NA"
"-81.15","43.03","LONDON A","6144473","2020-11-12 16:00","2020","11","12","16:00","8.2","","-2.0","","48","","","","8","","9","","24.1","","98.61","","","","","","Mainly Clear"
"-81.15","43.03","LONDON A","6144473","2020-11-12 17:00","2020","11","12","17:00","7.6","","-1.4","","53","","","","6","","4","","24.1","","98.61","","","","","","NA"
"-81.15","43.03","LONDON A","6144473","2020-11-12 18:00","2020","11","12","18:00","4.6","","-0.9","","68","","","","11","","4","","24.1","","98.62","","","","","","NA"
"-81.15","43.03","LONDON A","6144473","2020-11-12 19:00","2020","11","12","19:00","4.6","","-0.1","","72","","","","21","","5","","24.1","","98.65","","","","","","Mainly Clear"
"-81.15","43.03","LONDON A","6144473","2020-11-12 20:00","2020","11","12","20:00","2.4","","-0.7","","80","","","","14","","3","","24.1","","98.67","","","","","","NA"
"-81.15","43.03","LONDON A","6144473","2020-11-12 21:00","2020","11","12","21:00","0.7","","-1.0","","88","","","","5","","8","","24.1","","98.62","","","","","","NA"
"-81.15","43.03","LONDON A","6144473","2020-11-12 22:00","2020","11","12","22:00","0.6","","-1.2","","88","","","","7","","8","","24.1","","98.54","","","","","","Mostly Cloudy"
"-81.15","43.03","LONDON A","6144473","2020-11-12 23:00","2020","11","12","23:00","0.9","","-2.1","","80","","","","8","","10","","24.1","","98.45","","","","","","NA"
"-81.15","43.03","LONDON A","6144473","2020-11-13 00:00","2020","11","13","00:00","1.6","","-2.1","","77","","","","10","","8","","24.1","","98.36","","","","","","NA"
"-81.15","43.03","LONDON A","6144473","2020-11-13 01:00","2020","11","13","01:00","1.8","","-0.6","","84","","","","7","","9","","24.1","","98.31","","","","","","Cloudy"
"-81.15","43.03","LONDON A","6144473","2020-11-13 02:00","2020","11","13","02:00","2.1","","0.6","","90","","","","10","","10","","24.1","","98.26","","","","","","NA"
"-81.15","43.03","LONDON A","6144473","2020-11-13 03:00","2020","11","13","03:00","2.2","","0.5","","88","","","","11","","7","","24.1","","98.24","","","","","","NA"
"-81.15","43.03","LONDON A","6144473","2020-11-13 04:00","2020","11","13","04:00","1.4","","0.0","","90","","","","10","","8","","24.1","","98.16","","","","","","Mainly Clear"
"-81.15","43.03","LONDON A","6144473","2020-11-13 05:00","2020","11","13","05:00","1.3","","0.5","","94","","","","7","","6","","24.1","","98.09","","","","","","NA"
"-81.15","43.03","LONDON A","6144473","2020-11-13 06:00","2020","11","13","06:00","1.7","","0.5","","92","","","","26","","4","","24.1","","98.11","","","","","","NA"
"-81.15","43.03","LONDON A","6144473","2020-11-13 07:00","2020","11","13","07:00","2.1","","1.2","","94","","","","28","","6","","24.1","","98.11","","","","","","Mostly Cloudy"
"-81.15","43.03","LONDON A","6144473","2020-11-13 08:00","2020","11","13","08:00","2.9","","1.6","","91","","","","29","","8","","24.1","","98.15","","","","","","NA"
"-81.15","43.03","LONDON A","6144473","2020-11-13 09:00","2020","11","13","09:00","3.8","","2.0","","88","","","","29","","10","","24.1","","98.14","","","","","","NA"
"-81.15","43.03","LONDON A","6144473","2020-11-13 10:00","2020","11","13","10:00","4.6","","2.4","","86","","","","27","","10","","24.1","","98.15","","","","","","Cloudy"
"-81.15","43.03","LONDON A","6144473","2020-11-13 11:00","2020","11","13","11:00","5.9","","2.9","","81","","","","26","","20","","24.1","","98.18","","","","","","NA"
"-81.15","43.03","LONDON A","6144473","2020-11-13 12:00","2020","11","13","12:00","8.2","","3.2","","71","","","","28","","18","","24.1","","98.16","","","","","","NA"
"-81.15","43.03","LONDON A","6144473","2020-11-13 13:00","2020","11","13","13:00","7.0","","2.3","","72","","","","28","","27","","24.1","","98.20","","","","","","Cloudy"
"-81.15","43.03","LONDON A","6144473","2020-11-13 14:00","2020","11","13","14:00","6.1","","2.8","","79","","","","27","","19","","19.3","","98.26","","","","","","NA"
"-81.15","43.03","LONDON A","6144473","2020-11-13 15:00","2020","11","13","15:00","5.6","","2.5","","80","","","","26","","27","","19.3","","98.33","","","","","","Drizzle"
"-81.15","43.03","LONDON A","6144473","2020-11-13 16:00","2020","11","13","16:00","5.6","","2.0","","77","","","","29","","12","","24.1","","98.36","","","","","","Drizzle"
"-81.15","43.03","LONDON A","6144473","2020-11-13 17:00","2020","11","13","17:00","5.5","","1.7","","76","","","","29","","13","","24.1","","98.36","","","","","","NA"
"-81.15","43.03","LONDON A","6144473","2020-11-13 18:00","2020","11","13","18:00","4.0","","1.7","","85","","","","29","","8","","24.1","","98.43","","","","","","NA"
"-81.15","43.03","LONDON A","6144473","2020-11-13 19:00","2020","11","13","19:00","4.6","","1.1","","78","","","","29","","10","","24.1","","98.48","","","","","","Cloudy"
"-81.15","43.03","LONDON A","6144473","2020-11-13 20:00","2020","11","13","20:00","4.5","","-0.6","","70","","","","29","","17","","24.1","","98.54","","","","","","NA"
"-81.15","43.03","LONDON A","6144473","2020-11-13 21:00","2020","11","13","21:00","3.2","","-1.8","","70","","","","29","","18","","24.1","","98.58","","","","","","NA"
"-81.15","43.03","LONDON A","6144473","2020-11-13 22:00","2020","11","13","22:00","2.3","","-3.2","","67","","","","29","","12","","24.1","","98.63","","","","","","Mostly Cloudy"
"-81.15","43.03","LONDON A","6144473","2020-11-13 23:00","2020","11","13","23:00","2.1","","-3.9","","65","","","","29","","10","","24.1","","98.63","","","","","","NA"
"-81.15","43.03","LONDON A","6144473","2020-11-14 00:00","2020","11","14","00:00","2.3","","-3.8","","64","","","","28","","11","","24.1","","98.67","","","","","","NA"
"-81.15","43.03","LONDON A","6144473","2020-11-14 01:00","2020","11","14","01:00","2.2","","-3.2","","68","","","","29","","10","","24.1","","98.69","","","","","","Cloudy"
"-81.15","43.03","LONDON A","6144473","2020-11-14 02:00","2020","11","14","02:00","1.8","","-2.9","","71","","","","29","","11","","24.1","","98.71","","","","","","NA"
"-81.15","43.03","LONDON A","6144473","2020-11-14 03:00","2020","11","14","03:00","1.2","","-3.2","","72","","","","32","","12","","24.1","","98.78","","","","","","NA"
"-81.15","43.03","LONDON A","6144473","2020-11-14 04:00","2020","11","14","04:00","1.2","","-5.0","","63","","","","29","","10","","24.1","","98.78","","","","","","Mostly Cloudy"
"-81.15","43.03","LONDON A","6144473","2020-11-14 05:00","2020","11","14","05:00","0.8","","-4.0","","70","","","","26","","8","","24.1","","98.81","","","","","","NA"
"-81.15","43.03","LONDON A","6144473","2020-11-14 06:00","2020","11","14","06:00","-0.3","","-3.8","","78","","","","24","","13","","24.1","","98.84","","","","-4","","NA"
"-81.15","43.03","LONDON A","6144473","2020-11-14 07:00","2020","11","14","07:00","-1.5","","-4.5","","80","","","","24","","9","","24.1","","98.89","","","","-5","","Mainly Clear"
"-81.15","43.03","LONDON A","6144473","2020-11-14 08:00","2020","11","14","08:00","-1.3","","-4.3","","80","","","","26","","8","","24.1","","98.90","","","","-4","","NA"
"-81.15","43.03","LONDON A","6144473","2020-11-14 09:00","2020","11","14","09:00","0.7","","-4.2","","70","","","","26","","9","","24.1","","98.94","","","","","","NA"
"-81.15","43.03","LONDON A","6144473","2020-11-14 10:00","2020","11","14","10:00","2.4","","-5.0","","58","","","","20","","4","","24.1","","98.96","","","","","","Clear"
"-81.15","43.03","LONDON A","6144473","2020-11-14 11:00","2020","11","14","11:00","3.5","","-4.6","","55","","","","18","","10","","24.1","","98.98","","","","","","NA"
"-81.15","43.03","LONDON A","6144473","2020-11-14 12:00","2020","11","14","12:00","4.0","","-5.3","","51","","","","16","","15","","24.1","","98.92","","","","","","NA"
"-81.15","43.03","LONDON A","6144473","2020-11-14 13:00","2020","11","14","13:00","5.0","","-4.3","","51","","","","18","","7","","24.1","","98.89","","","","","","Mainly Clear"
"-81.15","43.03","LONDON A","6144473","2020-11-14 14:00","2020","11","14","14:00","5.5","","-4.6","","48","","","","20","","9","","24.1","","98.86","","","","","","NA"
"-81.15","43.03","LONDON A","6144473","2020-11-14 15:00","2020","11","14","15:00","4.5","","-5.7","","47","","","","15","","10","","24.1","","98.77","","","","","","NA"
"-81.15","43.03","LONDON A","6144473","2020-11-14 16:00","2020","11","14","16:00","3.8","","-3.6","","58","","","","16","","10","","24.1","","98.77","","","","","","Mostly Cloudy"
"-81.15","43.03","LONDON A","6144473","2020-11-14 17:00","2020","11","14","17:00","2.6","","-3.1","","66","","","","14","","10","","24.1","","98.72","","","","","","NA"
"-81.15","43.03","LONDON A","6144473","2020-11-14 18:00","2020","11","14","18:00","0.2","","-3.6","","76","","","","10","","11","","24.1","","98.69","","","","","","NA"
"-81.15","43.03","LONDON A","6144473","2020-11-14 19:00","2020","11","14","19:00","0.1","","-2.6","","82","","","","9","","15","","24.1","","98.62","","","","","","Mainly Clear"
"-81.15","43.03","LONDON A","6144473","2020-11-14 20:00","2020","11","14","20:00","0.4","","-2.2","","82","","","","11","","16","","24.1","","98.60","","","","","","NA"
"-81.15","43.03","LONDON A","6144473","2020-11-14 21:00","2020","11","14","21:00","1.5","","-2.0","","78","","","","12","","17","","24.1","","98.48","","","","","","NA"
"-81.15","43.03","LONDON A","6144473","2020-11-14 22:00","2020","11","14","22:00","2.6","","-0.7","","79","","","","11","","18","","12.9","","98.38","","","","","","Cloudy"
"-81.15","43.03","LONDON A","6144473","2020-11-14 23:00","2020","11","14","23:00","3.8","","0.8","","81","","","","10","","20","","24.1","","98.23","","","","","","NA"
"-81.15","43.03","LONDON A","6144473","2020-11-15 00:00","2020","11","15","00:00","4.3","","0.8","","78","","","","10","","22","","24.1","","98.04","","","","","","Rain Showers"
"-81.15","43.03","LONDON A","6144473","2020-11-15 01:00","2020","11","15","01:00","4.9","","1.3","","77","","","","12","","22","","24.1","","97.99","","","","","","Rain Showers"
"-81.15","43.03","LONDON A","6144473","2020-11-15 02:00","2020","11","15","02:00","4.4","","2.3","","86","","","","13","","21","","24.1","","97.86","","","","","","Rain Showers"
"-81.15","43.03","LONDON A","6144473","2020-11-15 03:00","2020","11","15","03:00","4.8","","2.9","","88","","","","13","","25","","24.1","","97.68","","","","","","Rain Showers"
"-81.15","43.03","LONDON A","6144473","2020-11-15 04:00","2020","11","15","04:00","4.9","","3.4","","90","","","","13","","32","","24.1","","97.46","","","","","","Rain Showers"
"-81.15","43.03","LONDON A","6144473","2020-11-15 05:00","2020","11","15","05:00","5.5","","4.1","","91","","","","12","","31","","24.1","","97.20","","","","","","Rain Showers"
"-81.15","43.03","LONDON A","6144473","2020-11-15 06:00","2020","11","15","06:00","6.1","","4.4","","89","","","","12","","29","","24.1","","96.97","","","","","","Rain Showers"
"-81.15","43.03","LONDON A","6144473","2020-11-15 07:00","2020","11","15","07:00","6.2","","5.2","","93","","","","13","","27","","6.4","","96.87","","","","","","Rain Showers,Fog"
"-81.15","43.03","LONDON A","6144473","2020-11-15 08:00","2020","11","15","08:00","6.7","","5.5","","92","","","","14","","28","","9.7","","96.69","","","","","","Rain Showers,Fog"
"-81.15","43.03","LONDON A","6144473","2020-11-15 09:00","2020","11","15","09:00","8.2","","7.6","","96","","","","16","","28","","4.0","","96.52","","","","","","Rain,Fog"
"-81.15","43.03","LONDON A","6144473","2020-11-15 10:00","2020","11","15","10:00","9.6","","8.7","","94","","","","18","","32","","6.4","","96.43","","","","","","Rain,Fog"
"-81.15","43.03","LONDON A","6144473","2020-11-15 11:00","2020","11","15","11:00","10.9","","9.6","","92","","","","19","","42","","19.3","","96.26","","","","","","Rain"
"-81.15","43.03","LONDON A","6144473","2020-11-15 12:00","2020","11","15","12:00","11.4","","9.6","","89","","","","19","","37","","24.1","","96.08","","","","","","NA"
"-81.15","43.03","LONDON A","6144473","2020-11-15 13:00","2020","11","15","13:00","11.8","","8.8","","82","","","","19","","45","","24.1","","95.93","","","","","","Cloudy"
"-81.15","43.03","LONDON A","6144473","2020-11-15 14:00","2020","11","15","14:00","9.8","","6.6","","80","","","","23","","34","","24.1","","95.89","","","","","","Rain Showers"
"-81.15","43.03","LONDON A","6144473","2020-11-15 15:00","2020","11","15","15:00","9.3","","4.8","","73","","","","23","","58","","24.1","","96.02","","","","","","NA"
"-81.15","43.03","LONDON A","6144473","2020-11-15 16:00","2020","11","15","16:00","7.2","","2.6","","72","","","","25","","49","","24.1","","96.35","","","","","","Mostly Cloudy"
"-81.15","43.03","LONDON A","6144473","2020-11-15 17:00","2020","11","15","17:00","6.5","","2.4","","75","","","","23","","40","","24.1","","96.59","","","","","","NA"
"-81.15","43.03","LONDON A","6144473","2020-11-15 18:00","2020","11","15","18:00","6.2","","1.6","","72","","","","25","","32","","24.1","","96.77","","","","","","Rain Showers"
"-81.15","43.03","LONDON A","6144473","2020-11-15 19:00","2020","11","15","19:00","5.8","","0.2","","67","","","","25","","36","","24.1","","96.91","","","","","","Cloudy"
"-81.15","43.03","LONDON A","6144473","2020-11-15 20:00","2020","11","15","20:00","4.4","","-0.9","","68","","","","25","","29","","24.1","","97.08","","","","","","NA"
"-81.15","43.03","LONDON A","6144473","2020-11-15 21:00","2020","11","15","21:00","4.3","","-1.6","","65","","","","24","","29","","19.3","","97.15","","","","","","Rain Showers,Snow Showers"
"-81.15","43.03","LONDON A","6144473","2020-11-15 22:00","2020","11","15","22:00","4.1","","-1.1","","69","","","","24","","31","","19.3","","97.16","","","","","","Rain Showers,Snow Showers"
"-81.15","43.03","LONDON A","6144473","2020-11-15 23:00","2020","11","15","23:00","3.8","","-1.3","","69","","","","25","","40","","24.1","","97.21","","","","","","Rain Showers,Snow Showers"
"-81.15","43.03","LONDON A","6144473","2020-11-16 00:00","2020","11","16","00:00","3.7","","-1.6","","68","","","","25","","23","","24.1","","97.29","","","","","","Rain Showers,Snow Showers"
"-81.15","43.03","LONDON A","6144473","2020-11-16 01:00","2020","11","16","01:00","3.5","","-1.4","","70","","","","26","","26","","24.1","","97.38","","","","","","Snow Showers"
"-81.15","43.03","LONDON A","6144473","2020-11-16 02:00","2020","11","16","02:00","3.6","","-1.9","","67","","","","26","","30","","24.1","","97.47","","","","","","Snow Showers"
"-81.15","43.03","LONDON A","6144473","2020-11-16 03:00","2020","11","16","03:00","3.6","","-2.5","","64","","","","27","","35","","24.1","","97.55","","","","","","Snow Showers"
"-81.15","43.03","LONDON A","6144473","2020-11-16 04:00","2020","11","16","04:00","3.2","","-2.4","","67","","","","26","","27","","24.1","","97.61","","","","","","Cloudy"
"-81.15","43.03","LONDON A","6144473","2020-11-16 05:00","2020","11","16","05:00","2.9","","-2.8","","66","","","","27","","26","","24.1","","97.69","","","","","","Snow Showers"
"-81.15","43.03","LONDON A","6144473","2020-11-16 06:00","2020","11","16","06:00","2.7","","-2.6","","68","","","","26","","27","","24.1","","97.75","","","","","","Snow Showers"
"-81.15","43.03","LONDON A","6144473","2020-11-16 07:00","2020","11","16","07:00","2.4","","-3.5","","65","","","","26","","29","","24.1","","97.81","","","","","","Cloudy"
"-81.15","43.03","LONDON A","6144473","2020-11-16 08:00","2020","11","16","08:00","2.2","","-3.9","","64","","","","27","","24","","24.1","","97.91","","","","","","NA"
"-81.15","43.03","LONDON A","6144473","2020-11-16 09:00","2020","11","16","09:00","2.3","","-4.0","","63","","","","26","","27","","24.1","","98.02","","","","","","NA"
"-81.15","43.03","LONDON A","6144473","2020-11-16 10:00","2020","11","16","10:00","2.1","","-4.2","","63","","","","27","","27","","24.1","","98.10","","","","","","Cloudy"
"-81.15","43.03","LONDON A","6144473","2020-11-16 11:00","2020","11","16","11:00","2.3","","-4.0","","63","","","","25","","25","","24.1","","98.18","","","","","","NA"
"-81.15","43.03","LONDON A","6144473","2020-11-16 12:00","2020","11","16","12:00","2.9","","-3.7","","62","","","","27","","26","","24.1","","98.16","","","","","","NA"
"-81.15","43.03","LONDON A","6144473","2020-11-16 13:00","2020","11","16","13:00","2.8","","-3.3","","64","","","","28","","25","","24.1","","98.15","","","","","","Cloudy"
"-81.15","43.03","LONDON A","6144473","2020-11-16 14:00","2020","11","16","14:00","3.8","","-2.4","","64","","","","26","","20","","24.1","","98.12","","","","","","NA"
"-81.15","43.03","LONDON A","6144473","2020-11-16 15:00","2020","11","16","15:00","3.8","","-2.5","","63","","","","28","","17","","24.1","","98.13","","","","","","NA"
"-81.15","43.03","LONDON A","6144473","2020-11-16 16:00","2020","11","16","16:00","3.4","","-2.9","","63","","","","27","","18","","24.1","","98.13","","","","","","Mostly Cloudy"
"-81.15","43.03","LONDON A","6144473","2020-11-16 17:00","2020","11","16","17:00","2.5","","-2.8","","68","","","","29","","6","","24.1","","98.15","","","","","","NA"
"-81.15","43.03","LONDON A","6144473","2020-11-16 18:00","2020","11","16","18:00","1.6","","-2.7","","73","","","","26","","8","","24.1","","98.18","","","","","","NA"
"-81.15","43.03","LONDON A","6144473","2020-11-16 19:00","2020","11","16","19:00","1.1","","-2.8","","75","","","","23","","7","","24.1","","98.18","","","","","","Mainly Clear"
"-81.15","43.03","LONDON A","6144473","2020-11-16 20:00","2020","11","16","20:00","0.5","","-2.3","","82","","","","24","","9","","24.1","","98.16","","","","","","NA"
"-81.15","43.03","LONDON A","6144473","2020-11-16 21:00","2020","11","16","21:00","0.7","","-1.3","","86","","","","23","","10","","24.1","","98.16","","","","","","NA"
"-81.15","43.03","LONDON A","6144473","2020-11-16 22:00","2020","11","16","22:00","1.0","","-0.8","","88","","","","26","","20","","4.8","","98.22","","","","","","Snow Showers"
"-81.15","43.03","LONDON A","6144473","2020-11-16 23:00","2020","11","16","23:00","0.2","","-0.7","","93","","","","26","","14","","24.1","","98.15","","","","","","NA"
"-81.15","43.03","LONDON A","6144473","2020-11-17 00:00","2020","11","17","00:00","0.2","","-0.7","","93","","","","26","","10","","16.1","","98.08","","","","","","Snow Showers"
"-81.15","43.03","LONDON A","6144473","2020-11-17 01:00","2020","11","17","01:00","0.1","","-0.5","","96","","","","28","","9","","16.1","","98.07","","","","","","Snow Showers"
"-81.15","43.03","LONDON A","6144473","2020-11-17 02:00","2020","11","17","02:00","0.3","","-0.2","","96","","","","28","","11","","24.1","","98.04","","","","","","Snow Showers"
"-81.15","43.03","LONDON A","6144473","2020-11-17 03:00","2020","11","17","03:00","0.3","","-0.4","","95","","","","27","","9","","24.1","","98.06","","","","","","NA"
"-81.15","43.03","LONDON A","6144473","2020-11-17 04:00","2020","11","17","04:00","0.2","","-0.8","","93","","","","27","","9","","24.1","","98.07","","","","","","Cloudy"
"-81.15","43.03","LONDON A","6144473","2020-11-17 05:00","2020","11","17","05:00","0.0","","-1.1","","92","","","","30","","9","","2.4","","98.15","","","","-3","","Snow Showers"
"-81.15","43.03","LONDON A","6144473","2020-11-17 06:00","2020","11","17","06:00","-0.2","","-0.9","","95","","","","30","","17","","1.6","","98.23","","","","-5","","Snow Showers"
"-81.15","43.03","LONDON A","6144473","2020-11-17 07:00","2020","11","17","07:00","-0.4","","-1.2","","94","","","","30","","18","","1.6","","98.32","","","","-5","","Snow Showers"
"-81.15","43.03","LONDON A","6144473","2020-11-17 08:00","2020","11","17","08:00","-0.5","","-2.1","","89","","","","32","","23","","12.9","","98.42","","","","-6","","Snow Showers"
"-81.15","43.03","LONDON A","6144473","2020-11-17 09:00","2020","11","17","09:00","0.0","","-2.9","","81","","","","31","","17","","24.1","","98.54","","","","-5","","Snow Showers"
"-81.15","43.03","LONDON A","6144473","2020-11-17 10:00","2020","11","17","10:00","0.3","","-4.5","","71","","","","30","","32","","24.1","","98.67","","","","","","Snow Showers"
"-81.15","43.03","LONDON A","6144473","2020-11-17 11:00","2020","11","17","11:00","-0.4","","-3.6","","79","","","","30","","24","","24.1","","98.78","","","","-6","","Snow Showers"
"-81.15","43.03","LONDON A","6144473","2020-11-17 12:00","2020","11","17","12:00","-0.9","","-4.1","","79","","","","29","","25","","24.1","","98.85","","","","-7","","NA"
"-81.15","43.03","LONDON A","6144473","2020-11-17 13:00","2020","11","17","13:00","-1.1","","-3.3","","85","","","","33","","32","","4.0","","98.89","","","","-8","","Snow Showers"
"-81.15","43.03","LONDON A","6144473","2020-11-17 14:00","2020","11","17","14:00","-1.2","","-4.3","","80","","","","30","","19","","2.4","","98.92","","","","-7","","Snow Showers"
"-81.15","43.03","LONDON A","6144473","2020-11-17 15:00","2020","11","17","15:00","-0.4","","-5.4","","69","","","","29","","20","","19.3","","99.02","","","","-6","","Snow Showers"
"-81.15","43.03","LONDON A","6144473","2020-11-17 16:00","2020","11","17","16:00","-1.4","","-4.7","","78","","","","30","","29","","12.9","","99.13","","","","-8","","Snow Showers"
"-81.15","43.03","LONDON A","6144473","2020-11-17 17:00","2020","11","17","17:00","-2.0","","-4.3","","84","","","","28","","25","","24.1","","99.19","","","","-8","","Snow Showers"
"-81.15","43.03","LONDON A","6144473","2020-11-17 18:00","2020","11","17","18:00","-1.8","","-3.5","","89","","","","30","","16","","3.2","","99.24","","","","-7","","Snow Showers"
"-81.15","43.03","LONDON A","6144473","2020-11-17 19:00","2020","11","17","19:00","-2.0","","-3.2","","91","","","","29","","20","","19.3","","99.28","","","","-8","","Snow Showers"
"-81.15","43.03","LONDON A","6144473","2020-11-17 20:00","2020","11","17","20:00","-1.7","","-3.7","","87","","","","30","","18","","2.4","","99.34","","","","-7","","Snow Showers"
"-81.15","43.03","LONDON A","6144473","2020-11-17 21:00","2020","11","17","21:00","-2.0","","-4.6","","83","","","","30","","13","","24.1","","99.40","","","","-6","","Snow Showers"
"-81.15","43.03","LONDON A","6144473","2020-11-17 22:00","2020","11","17","22:00","-2.0","","-4.7","","82","","","","34","","14","","19.3","","99.46","","","","-7","","Snow Showers"
"-81.15","43.03","LONDON A","6144473","2020-11-17 23:00","2020","11","17","23:00","-2.8","","-6.0","","79","","","","35","","19","","8.1","","99.51","","","","-9","","Snow Showers"
"-81.15","43.03","LONDON A","6144473","2020-11-18 00:00","2020","11","18","00:00","-3.4","","-5.5","","86","","","","35","","10","","19.3","","99.57","","","","-7","","Snow Showers"
"-81.15","43.03","LONDON A","6144473","2020-11-18 01:00","2020","11","18","01:00","-3.6","","-6.2","","82","","","","34","","5","","12.9","","99.61","","","","-6","","Snow Showers"
"-81.15","43.03","LONDON A","6144473","2020-11-18 02:00","2020","11","18","02:00","-3.8","","-6.5","","82","","","","11","","3","","19.3","","99.64","","","","-5","","Snow Showers"
"-81.15","43.03","LONDON A","6144473","2020-11-18 03:00","2020","11","18","03:00","-3.9","","-6.3","","83","","","","7","","3","","24.1","","99.71","","","","-5","","Snow Showers"
"-81.15","43.03","LONDON A","6144473","2020-11-18 04:00","2020","11","18","04:00","-3.8","","-6.3","","83","","","","16","","7","","24.1","","99.76","","","","-7","","Snow Showers"
"-81.15","43.03","LONDON A","6144473","2020-11-18 05:00","2020","11","18","05:00","-3.6","","-6.0","","84","","","","14","","4","","24.1","","99.84","","","","-5","","Snow Showers"
"-81.15","43.03","LONDON A","6144473","2020-11-18 06:00","2020","11","18","06:00","-3.5","","-5.5","","86","","","","17","","7","","24.1","","99.90","","","","-6","","Snow Showers"
"-81.15","43.03","LONDON A","6144473","2020-11-18 07:00","2020","11","18","07:00","-3.3","","-5.0","","88","","","","17","","7","","24.1","","99.93","","","","-6","","Snow Showers"
"-81.15","43.03","LONDON A","6144473","2020-11-18 08:00","2020","11","18","08:00","-3.0","","-4.9","","87","","","","16","","7","","24.1","","99.96","","","","-6","","Snow Showers"
"-81.15","43.03","LONDON A","6144473","2020-11-18 09:00","2020","11","18","09:00","-2.2","","-4.4","","85","","","","20","","5","","24.1","","99.97","","","","-4","","Snow Showers"
"-81.15","43.03","LONDON A","6144473","2020-11-18 10:00","2020","11","18","10:00","-1.1","","-4.9","","75","","","","26","","16","","24.1","","100.01","","","","-6","","Snow Showers"
"-81.15","43.03","LONDON A","6144473","2020-11-18 11:00","2020","11","18","11:00","0.0","","-4.5","","71","","","","26","","19","","24.1","","100.01","","","","-5","","NA"
"-81.15","43.03","LONDON A","6144473","2020-11-18 12:00","2020","11","18","12:00","1.2","","-4.9","","64","","","","25","","20","","24.1","","99.98","","","","","","NA"
"-81.15","43.03","LONDON A","6144473","2020-11-18 13:00","2020","11","18","13:00","2.1","","-3.5","","66","","","","25","","19","","24.1","","99.94","","","","","","Mostly Cloudy"
"-81.15","43.03","LONDON A","6144473","2020-11-18 14:00","2020","11","18","14:00","2.3","","-4.0","","63","","","","25","","12","","24.1","","99.84","","","","","","NA"
"-81.15","43.03","LONDON A","6144473","2020-11-18 15:00","2020","11","18","15:00","2.6","","-5.0","","57","","","","26","","14","","24.1","","99.81","","","","","","NA"
"-81.15","43.03","LONDON A","6144473","2020-11-18 16:00","2020","11","18","16:00","2.6","","-4.3","","61","","","","23","","16","","24.1","","99.78","","","","","","Mainly Clear"
"-81.15","43.03","LONDON A","6144473","2020-11-18 17:00","2020","11","18","17:00","1.3","","-4.0","","68","","","","21","","12","","24.1","","99.79","","","","","","NA"
"-81.15","43.03","LONDON A","6144473","2020-11-18 18:00","2020","11","18","18:00","0.2","","-4.0","","73","","","","17","","11","","24.1","","99.72","","","","","","NA"
"-81.15","43.03","LONDON A","6144473","2020-11-18 19:00","2020","11","18","19:00","0.4","","-3.0","","78","","","","21","","11","","24.1","","99.70","","","","","","Mainly Clear"
"-81.15","43.03","LONDON A","6144473","2020-11-18 20:00","2020","11","18","20:00","-0.2","","-2.9","","83","","","","16","","8","","24.1","","99.62","","","","-3","","NA"
"-81.15","43.03","LONDON A","6144473","2020-11-18 21:00","2020","11","18","21:00","-1.0","","-2.8","","88","","","","13","","10","","24.1","","99.52","","","","-5","","NA"
"-81.15","43.03","LONDON A","6144473","2020-11-18 22:00","2020","11","18","22:00","0.5","","-2.0","","83","","","","15","","11","","24.1","","99.44","","","","","","Cloudy"
"-81.15","43.03","LONDON A","6144473","2020-11-18 23:00","2020","11","18","23:00","2.5","","-1.7","","74","","","","19","","16","","24.1","","99.36","","","","","","NA"
"-81.15","43.03","LONDON A","6144473","2020-11-19 00:00","2020","11","19","00:00","3.6","","-1.6","","69","","","","19","","22","","24.1","","99.30","","","","","","NA"
"-81.15","43.03","LONDON A","6144473","2020-11-19 01:00","2020","11","19","01:00","3.9","","-1.3","","69","","","","19","","22","","24.1","","99.25","","","","","","Mostly Cloudy"
"-81.15","43.03","LONDON A","6144473","2020-11-19 02:00","2020","11","19","02:00","4.0","","-1.2","","69","","","","18","","23","","24.1","","99.17","","","","","","NA"
"-81.15","43.03","LONDON A","6144473","2020-11-19 03:00","2020","11","19","03:00","4.0","","-1.0","","70","","","","18","","23","","24.1","","99.09","","","","","","NA"
"-81.15","43.03","LONDON A","6144473","2020-11-19 04:00","2020","11","19","04:00","4.5","","-1.1","","67","","","","18","","24","","24.1","","99.01","","","","","","Mainly Clear"
"-81.15","43.03","LONDON A","6144473","2020-11-19 05:00","2020","11","19","05:00","4.9","","-1.0","","65","","","","19","","22","","24.1","","98.92","","","","","","NA"
"-81.15","43.03","LONDON A","6144473","2020-11-19 06:00","2020","11","19","06:00","5.4","","-1.4","","62","","","","19","","22","","24.1","","98.84","","","","","","NA"
"-81.15","43.03","LONDON A","6144473","2020-11-19 07:00","2020","11","19","07:00","5.7","","-1.4","","60","","","","21","","24","","24.1","","98.73","","","","","","Mainly Clear"
"-81.15","43.03","LONDON A","6144473","2020-11-19 08:00","2020","11","19","08:00","6.3","","-0.8","","60","","","","20","","25","","24.1","","98.69","","","","","","NA"
"-81.15","43.03","LONDON A","6144473","2020-11-19 09:00","2020","11","19","09:00","8.5","","-1.2","","51","","","","21","","31","","24.1","","98.68","","","","","","NA"
"-81.15","43.03","LONDON A","6144473","2020-11-19 10:00","2020","11","19","10:00","10.5","","-1.9","","42","","","","22","","32","","24.1","","98.64","","","","","","Mostly Cloudy"
"-81.15","43.03","LONDON A","6144473","2020-11-19 11:00","2020","11","19","11:00","11.6","","-0.8","","42","","","","22","","30","","24.1","","98.59","","","","","","NA"
"-81.15","43.03","LONDON A","6144473","2020-11-19 12:00","2020","11","19","12:00","12.5","","-1.0","","39","","","","22","","42","","24.1","","98.49","","","","","","NA"
"-81.15","43.03","LONDON A","6144473","2020-11-19 13:00","2020","11","19","13:00","13.2","","-0.1","","40","","","","22","","29","","24.1","","98.42","","","","","","Mostly Cloudy"
"-81.15","43.03","LONDON A","6144473","2020-11-19 14:00","2020","11","19","14:00","13.0","","0.2","","41","","","","20","","32","","24.1","","98.37","","","","","","NA"
"-81.15","43.03","LONDON A","6144473","2020-11-19 15:00","2020","11","19","15:00","13.6","","1.1","","42","","","","20","","26","","24.1","","98.32","","","","","","NA"
"-81.15","43.03","LONDON A","6144473","2020-11-19 16:00","2020","11","19","16:00","13.5","","0.8","","42","","","","21","","21","","24.1","","98.28","","","","","","Cloudy"
"-81.15","43.03","LONDON A","6144473","2020-11-19 17:00","2020","11","19","17:00","13.6","","0.5","","40","","","","21","","31","","24.1","","98.27","","","","","","NA"
"-81.15","43.03","LONDON A","6144473","2020-11-19 18:00","2020","11","19","18:00","13.9","","-0.2","","38","","","","21","","30","","24.1","","98.33","","","","","","NA"
"-81.15","43.03","LONDON A","6144473","2020-11-19 19:00","2020","11","19","19:00","13.9","","0.6","","40","","","","23","","30","","24.1","","98.38","","","","","","Cloudy"
"-81.15","43.03","LONDON A","6144473","2020-11-19 20:00","2020","11","19","20:00","14.0","","0.6","","40","","","","22","","27","","24.1","","98.44","","","","","","NA"
"-81.15","43.03","LONDON A","6144473","2020-11-19 21:00","2020","11","19","21:00","13.8","","-0.1","","38","","","","22","","28","","24.1","","98.48","","","","","","NA"
"-81.15","43.03","LONDON A","6144473","2020-11-19 22:00","2020","11","19","22:00","13.1","","-0.2","","40","","","","22","","28","","24.1","","98.51","","","","","","Cloudy"
"-81.15","43.03","LONDON A","6144473","2020-11-19 23:00","2020","11","19","23:00","12.8","","-0.8","","39","","","","22","","28","","24.1","","98.50","","","","","","NA"
"-81.15","43.03","LONDON A","6144473","2020-11-20 00:00","2020","11","20","00:00","12.3","","-0.4","","41","","","","22","","28","","24.1","","98.51","","","","","","NA"
"-81.15","43.03","LONDON A","6144473","2020-11-20 01:00","2020","11","20","01:00","12.0","","0.3","","45","","","","22","","27","","24.1","","98.53","","","","","","Mostly Cloudy"
"-81.15","43.03","LONDON A","6144473","2020-11-20 02:00","2020","11","20","02:00","12.2","","0.5","","44","","","","22","","35","","24.1","","98.52","","","","","","NA"
"-81.15","43.03","LONDON A","6144473","2020-11-20 03:00","2020","11","20","03:00","12.3","","0.5","","44","","","","22","","35","","24.1","","98.53","","","","","","NA"
"-81.15","43.03","LONDON A","6144473","2020-11-20 04:00","2020","11","20","04:00","12.5","","0.6","","44","","","","22","","31","","24.1","","98.52","","","","","","Cloudy"
"-81.15","43.03","LONDON A","6144473","2020-11-20 05:00","2020","11","20","05:00","12.4","","0.1","","42","","","","23","","29","","24.1","","98.53","","","","","","NA"
"-81.15","43.03","LONDON A","6144473","2020-11-20 06:00","2020","11","20","06:00","12.0","","0.3","","44","","","","23","","25","","24.1","","98.56","","","","","","NA"
"-81.15","43.03","LONDON A","6144473","2020-11-20 07:00","2020","11","20","07:00","11.4","","0.7","","48","","","","22","","25","","22.5","","98.57","","","","","","Cloudy"
"-81.15","43.03","LONDON A","6144473","2020-11-20 08:00","2020","11","20","08:00","10.3","","1.1","","53","","","","21","","23","","24.1","","98.60","","","","","","NA"
"-81.15","43.03","LONDON A","6144473","2020-11-20 09:00","2020","11","20","09:00","11.3","","1.7","","51","","","","22","","25","","24.1","","98.66","","","","","","NA"
"-81.15","43.03","LONDON A","6144473","2020-11-20 10:00","2020","11","20","10:00","12.2","","1.7","","48","","","","22","","29","","24.1","","98.68","","","","","","Mostly Cloudy"
"-81.15","43.03","LONDON A","6144473","2020-11-20 11:00","2020","11","20","11:00","13.9","","2.8","","47","","","","23","","27","","24.1","","98.68","","","","","","NA"
"-81.15","43.03","LONDON A","6144473","2020-11-20 12:00","2020","11","20","12:00","14.9","","4.0","","48","","","","23","","22","","24.1","","98.69","","","","","","NA"
"-81.15","43.03","LONDON A","6144473","2020-11-20 13:00","2020","11","20","13:00","15.9","","4.5","","47","","","","23","","30","","24.1","","98.66","","","","","","Mostly Cloudy"
"-81.15","43.03","LONDON A","6144473","2020-11-20 14:00","2020","11","20","14:00","15.1","","4.5","","49","","","","23","","27","","24.1","","98.70","","","","","","NA"
"-81.15","43.03","LONDON A","6144473","2020-11-20 15:00","2020","11","20","15:00","14.7","","4.9","","51","","","","24","","22","","24.1","","98.73","","","","","","NA"
"-81.15","43.03","LONDON A","6144473","2020-11-20 16:00","2020","11","20","16:00","14.2","","5.5","","56","","","","23","","19","","24.1","","98.80","","","","","","Mostly Cloudy"
"-81.15","43.03","LONDON A","6144473","2020-11-20 17:00","2020","11","20","17:00","13.9","","5.9","","59","","","","23","","14","","24.1","","98.87","","","","","","NA"
"-81.15","43.03","LONDON A","6144473","2020-11-20 18:00","2020","11","20","18:00","13.1","","6.2","","63","","","","25","","14","","24.1","","98.95","","","","","","NA"
"-81.15","43.03","LONDON A","6144473","2020-11-20 19:00","2020","11","20","19:00","12.6","","6.1","","64","","","","27","","16","","24.1","","99.00","","","","","","Mostly Cloudy"
"-81.15","43.03","LONDON A","6144473","2020-11-20 20:00","2020","11","20","20:00","12.5","","5.2","","61","","","","27","","19","","24.1","","99.06","","","","","","NA"
"-81.15","43.03","LONDON A","6144473","2020-11-20 21:00","2020","11","20","21:00","9.8","","6.0","","77","","","","32","","23","","24.1","","99.17","","","","","","NA"
"-81.15","43.03","LONDON A","6144473","2020-11-20 22:00","2020","11","20","22:00","5.8","","3.4","","85","","","","34","","23","","24.1","","99.29","","","","","","Mainly Clear"
"-81.15","43.03","LONDON A","6144473","2020-11-20 23:00","2020","11","20","23:00","5.4","","3.3","","86","","","","33","","13","","24.1","","99.33","","","","","","NA"
"-81.15","43.03","LONDON A","6144473","2020-11-21 00:00","2020","11","21","00:00","5.3","","3.4","","88","","","","31","","12","","24.1","","99.35","","","","","","NA"
"-81.15","43.03","LONDON A","6144473","2020-11-21 01:00","2020","11","21","01:00","5.4","","3.1","","85","","","","34","","14","","24.1","","99.44","","","","","","Mostly Cloudy"
"-81.15","43.03","LONDON A","6144473","2020-11-21 02:00","2020","11","21","02:00","4.7","","1.9","","83","","","","33","","13","","24.1","","99.50","","","","","","NA"
"-81.15","43.03","LONDON A","6144473","2020-11-21 03:00","2020","11","21","03:00","3.6","","1.1","","83","","","","33","","9","","24.1","","99.57","","","","","","NA"
"-81.15","43.03","LONDON A","6144473","2020-11-21 04:00","2020","11","21","04:00","3.7","","0.0","","77","","","","34","","15","","24.1","","99.60","","","","","","Mostly Cloudy"
"-81.15","43.03","LONDON A","6144473","2020-11-21 05:00","2020","11","21","05:00","2.7","","-0.6","","79","","","","35","","9","","24.1","","99.67","","","","","","NA"
"-81.15","43.03","LONDON A","6144473","2020-11-21 06:00","2020","11","21","06:00","2.6","","-0.6","","79","","","","34","","6","","24.1","","99.71","","","","","","NA"
"-81.15","43.03","LONDON A","6144473","2020-11-21 07:00","2020","11","21","07:00","3.0","","-0.4","","78","","","","31","","5","","24.1","","99.78","","","","","","Mostly Cloudy"
"-81.15","43.03","LONDON A","6144473","2020-11-21 08:00","2020","11","21","08:00","3.0","","-0.7","","77","","","","35","","10","","24.1","","99.79","","","","","","NA"
"-81.15","43.03","LONDON A","6144473","2020-11-21 09:00","2020","11","21","09:00","3.0","","-0.3","","79","","","","36","","9","","24.1","","99.87","","","","","","NA"
"-81.15","43.03","LONDON A","6144473","2020-11-21 10:00","2020","11","21","10:00","3.5","","-0.7","","74","","","","36","","12","","24.1","","99.91","","","","","","Cloudy"
"-81.15","43.03","LONDON A","6144473","2020-11-21 11:00","2020","11","21","11:00","3.9","","-0.9","","71","","","","33","","12","","22.5","","99.93","","","","","","NA"
"-81.15","43.03","LONDON A","6144473","2020-11-21 12:00","2020","11","21","12:00","4.1","","-1.4","","67","","","","33","","13","","24.1","","99.90","","","","","","NA"
"-81.15","43.03","LONDON A","6144473","2020-11-21 13:00","2020","11","21","13:00","4.3","","-1.2","","68","","","","31","","10","","24.1","","99.88","","","","","","Cloudy"
"-81.15","43.03","LONDON A","6144473","2020-11-21 14:00","2020","11","21","14:00","4.2","","-1.4","","67","","","","33","","14","","24.1","","99.86","","","","","","NA"
"-81.15","43.03","LONDON A","6144473","2020-11-21 15:00","2020","11","21","15:00","4.4","","-1.3","","67","","","","33","","9","","24.1","","99.85","","","","","","NA"
"-81.15","43.03","LONDON A","6144473","2020-11-21 16:00","2020","11","21","16:00","3.8","","-2.4","","64","","","","33","","10","","24.1","","99.89","","","","","","Mostly Cloudy"
"-81.15","43.03","LONDON A","6144473","2020-11-21 17:00","2020","11","21","17:00","3.0","","-2.8","","66","","","","36","","10","","24.1","","99.91","","","","","","NA"
"-81.15","43.03","LONDON A","6144473","2020-11-21 18:00","2020","11","21","18:00","2.4","","-3.4","","66","","","","1","","7","","24.1","","99.93","","","","","","NA"
"-81.15","43.03","LONDON A","6144473","2020-11-21 19:00","2020","11","21","19:00","0.6","","-4.0","","72","","","","36","","8","","24.1","","99.96","","","","","","Mainly Clear"
"-81.15","43.03","LONDON A","6144473","2020-11-21 20:00","2020","11","21","20:00","-0.4","","-3.9","","77","","","","1","","7","","24.1","","99.96","","","","-3","","NA"
"-81.15","43.03","LONDON A","6144473","2020-11-21 21:00","2020","11","21","21:00","-0.5","","-4.5","","74","","","","2","","11","","24.1","","99.90","","","","-4","","NA"
"-81.15","43.03","LONDON A","6144473","2020-11-21 22:00","2020","11","21","22:00","-0.7","","-4.7","","75","","","","4","","9","","24.1","","99.90","","","","-4","","Mainly Clear"
"-81.15","43.03","LONDON A","6144473","2020-11-21 23:00","2020","11","21","23:00","-1.5","","-5.0","","77","","","","7","","7","","24.1","","99.86","","","","-4","","NA"
"-81.15","43.03","LONDON A","6144473","2020-11-22 00:00","2020","11","22","00:00","-2.0","","-5.1","","79","","","","6","","7","","24.1","","99.85","","","","-5","","NA"
"-81.15","43.03","LONDON A","6144473","2020-11-22 01:00","2020","11","22","01:00","-2.0","","-4.9","","81","","","","6","","9","","24.1","","99.82","","","","-5","","Cloudy"
"-81.15","43.03","LONDON A","6144473","2020-11-22 02:00","2020","11","22","02:00","-1.8","","-4.7","","80","","","","7","","10","","24.1","","99.75","","","","-5","","NA"
"-81.15","43.03","LONDON A","6144473","2020-11-22 03:00","2020","11","22","03:00","-1.2","","-4.3","","79","","","","6","","10","","24.1","","99.71","","","","-5","","NA"
"-81.15","43.03","LONDON A","6144473","2020-11-22 04:00","2020","11","22","04:00","-0.8","","-4.3","","77","","","","5","","14","","24.1","","99.64","","","","-5","","Cloudy"
"-81.15","43.03","LONDON A","6144473","2020-11-22 05:00","2020","11","22","05:00","-0.7","","-4.3","","77","","","","6","","11","","24.1","","99.61","","","","-4","","NA"
"-81.15","43.03","LONDON A","6144473","2020-11-22 06:00","2020","11","22","06:00","-0.6","","-3.9","","78","","","","8","","14","","24.1","","99.57","","","","-5","","NA"
"-81.15","43.03","LONDON A","6144473","2020-11-22 07:00","2020","11","22","07:00","-0.4","","-3.9","","77","","","","8","","15","","24.1","","99.51","","","","-5","","Cloudy"
"-81.15","43.03","LONDON A","6144473","2020-11-22 08:00","2020","11","22","08:00","-0.8","","-1.5","","95","","","","8","","14","","1.6","","99.44","","","","-5","","Snow"
"-81.15","43.03","LONDON A","6144473","2020-11-22 09:00","2020","11","22","09:00","-0.8","","-1.3","","96","","","","7","","18","","0.8","","99.36","","","","-6","","Moderate Snow"
"-81.15","43.03","LONDON A","6144473","2020-11-22 10:00","2020","11","22","10:00","-0.4","","-0.9","","97","","","","7","","21","","0.8","","99.24","","","","-6","","Moderate Snow"
"-81.15","43.03","LONDON A","6144473","2020-11-22 11:00","2020","11","22","11:00","-0.2","","-0.8","","96","","","","7","","26","","1.0","","99.10","","","","-6","","Snow"
"-81.15","43.03","LONDON A","6144473","2020-11-22 12:00","2020","11","22","12:00","0.0","","-0.6","","96","","","","7","","23","","1.0","","98.91","","","","-6","","Snow"
"-81.15","43.03","LONDON A","6144473","2020-11-22 13:00","2020","11","22","13:00","0.2","","-0.5","","95","","","","5","","20","","0.8","","98.73","","","","","","Moderate Snow"
"-81.15","43.03","LONDON A","6144473","2020-11-22 14:00","2020","11","22","14:00","0.2","","-0.4","","95","","","","5","","20","","1.6","","98.58","","","","","","Snow"
"-81.15","43.03","LONDON A","6144473","2020-11-22 15:00","2020","11","22","15:00","0.3","","-0.3","","96","","","","5","","14","","2.4","","98.43","","","","","","Snow"
"-81.15","43.03","LONDON A","6144473","2020-11-22 16:00","2020","11","22","16:00","0.2","","-0.3","","96","","","","3","","16","","1.2","","98.34","","","","","","Snow"
"-81.15","43.03","LONDON A","6144473","2020-11-22 17:00","2020","11","22","17:00","-0.1","","-0.5","","97","","","","1","","15","","1.2","","98.31","","","","-5","","Snow"
"-81.15","43.03","LONDON A","6144473","2020-11-22 18:00","2020","11","22","18:00","-0.3","","-0.8","","96","","","","36","","11","","3.2","","98.31","","","","-4","","Snow"
"-81.15","43.03","LONDON A","6144473","2020-11-22 19:00","2020","11","22","19:00","-0.2","","-0.9","","95","","","","35","","14","","8.1","","98.30","","","","-4","","Snow"
"-81.15","43.03","LONDON A","6144473","2020-11-22 20:00","2020","11","22","20:00","-0.3","","-1.0","","95","","","","35","","16","","9.7","","98.28","","","","-5","","Snow"
"-81.15","43.03","LONDON A","6144473","2020-11-22 21:00","2020","11","22","21:00","-0.2","","-1.2","","93","","","","34","","17","","19.3","","98.27","","","","-5","","NA"
"-81.15","43.03","LONDON A","6144473","2020-11-22 22:00","2020","11","22","22:00","-0.3","","-1.2","","93","","","","32","","13","","19.3","","98.30","","","","-4","","Cloudy"
"-81.15","43.03","LONDON A","6144473","2020-11-22 23:00","2020","11","22","23:00","-0.4","","-1.2","","94","","","","31","","15","","24.1","","98.30","","","","-5","","NA"
"-81.15","43.03","LONDON A","6144473","2020-11-23 00:00","2020","11","23","00:00","-0.4","","-1.2","","95","","","","30","","12","","24.1","","98.38","","","","-4","","Snow"
"-81.15","43.03","LONDON A","6144473","2020-11-23 01:00","2020","11","23","01:00","-0.2","","-1.2","","93","","","","32","","14","","24.1","","98.42","","","","-4","","Cloudy"
"-81.15","43.03","LONDON A","6144473","2020-11-23 02:00","2020","11","23","02:00","-0.9","","-1.5","","95","","","","26","","11","","24.1","","98.44","","","","-5","","Snow"
"-81.15","43.03","LONDON A","6144473","2020-11-23 03:00","2020","11","23","03:00","-0.5","","-0.8","","97","","","","25","","12","","19.3","","98.50","","","","-4","","Snow Showers"
"-81.15","43.03","LONDON A","6144473","2020-11-23 04:00","2020","11","23","04:00","-0.8","","-1.1","","98","","","","25","","16","","11.3","","98.53","","","","-6","","Mainly Clear"
"-81.15","43.03","LONDON A","6144473","2020-11-23 05:00","2020","11","23","05:00","-0.5","","-0.8","","98","","","","26","","20","","4.8","","98.57","","","","-6","","Fog"
"-81.15","43.03","LONDON A","6144473","2020-11-23 06:00","2020","11","23","06:00","-0.8","","-1.1","","98","","","","25","","14","","1.6","","98.62","","","","-5","","Fog"
"-81.15","43.03","LONDON A","6144473","2020-11-23 07:00","2020","11","23","07:00","-0.6","","-1.1","","97","","","","23","","13","","12.9","","98.62","","","","-5","","Cloudy"
"-81.15","43.03","LONDON A","6144473","2020-11-23 08:00","2020","11","23","08:00","-0.1","","-0.4","","97","","","","23","","16","","3.2","","98.66","","","","-5","","Snow Showers"
"-81.15","43.03","LONDON A","6144473","2020-11-23 09:00","2020","11","23","09:00","0.4","","0.0","","98","","","","25","","18","","3.2","","98.69","","","","","","Snow Showers,Fog"
"-81.15","43.03","LONDON A","6144473","2020-11-23 10:00","2020","11","23","10:00","0.9","","0.4","","96","","","","25","","18","","4.8","","98.71","","","","","","Fog"
"-81.15","43.03","LONDON A","6144473","2020-11-23 11:00","2020","11","23","11:00","1.2","","0.6","","96","","","","25","","17","","4.0","","98.74","","","","","","Fog"
"-81.15","43.03","LONDON A","6144473","2020-11-23 12:00","2020","11","23","12:00","1.9","","0.8","","93","","","","26","","17","","12.9","","98.73","","","","","","NA"
"-81.15","43.03","LONDON A","6144473","2020-11-23 13:00","2020","11","23","13:00","2.2","","0.9","","91","","","","26","","19","","16.1","","98.74","","","","","","Cloudy"
"-81.15","43.03","LONDON A","6144473","2020-11-23 14:00","2020","11","23","14:00","2.6","","1.0","","89","","","","27","","15","","24.1","","98.78","","","","","","NA"
"-81.15","43.03","LONDON A","6144473","2020-11-23 15:00","2020","11","23","15:00","2.8","","0.1","","83","","","","28","","17","","24.1","","98.84","","","","","","NA"
"-81.15","43.03","LONDON A","6144473","2020-11-23 16:00","2020","11","23","16:00","2.9","","-0.5","","78","","","","28","","14","","24.1","","98.91","","","","","","Mostly Cloudy"
"-81.15","43.03","LONDON A","6144473","2020-11-23 17:00","2020","11","23","17:00","2.7","","-1.4","","74","","","","29","","11","","24.1","","98.98","","","","","","NA"
"-81.15","43.03","LONDON A","6144473","2020-11-23 18:00","2020","11","23","18:00","2.2","","-2.8","","69","","","","29","","13","","24.1","","99.06","","","","","","NA"
"-81.15","43.03","LONDON A","6144473","2020-11-23 19:00","2020","11","23","19:00","1.8","","-3.2","","69","","","","27","","15","","24.1","","99.15","","","","","","Mostly Cloudy"
"-81.15","43.03","LONDON A","6144473","2020-11-23 20:00","2020","11","23","20:00","1.6","","-3.5","","69","","","","28","","14","","24.1","","99.20","","","","","","NA"
"-81.15","43.03","LONDON A","6144473","2020-11-23 21:00","2020","11","23","21:00","1.4","","-3.2","","72","","","","29","","10","","24.1","","99.23","","","","","","Snow Showers"
"-81.15","43.03","LONDON A","6144473","2020-11-23 22:00","2020","11","23","22:00","1.4","","-2.1","","77","","","","31","","8","","24.1","","99.24","","","","","","Snow Showers"
"-81.15","43.03","LONDON A","6144473","2020-11-23 23:00","2020","11","23","23:00","1.1","","-2.6","","77","","","","32","","8","","24.1","","99.25","","","","","","NA"
"-81.15","43.03","LONDON A","6144473","2020-11-24 00:00","2020","11","24","00:00","0.9","","-2.9","","76","","","","34","","11","","24.1","","99.27","","","","","","NA"
"-81.15","43.03","LONDON A","6144473","2020-11-24 01:00","2020","11","24","01:00","0.9","","-3.8","","71","","","","33","","11","","24.1","","99.28","","","","","","Mostly Cloudy"
"-81.15","43.03","LONDON A","6144473","2020-11-24 02:00","2020","11","24","02:00","0.6","","-3.8","","72","","","","34","","12","","24.1","","99.27","","","","","","NA"
"-81.15","43.03","LONDON A","6144473","2020-11-24 03:00","2020","11","24","03:00","0.6","","-4.2","","70","","","","31","","11","","24.1","","99.31","","","","","","NA"
"-81.15","43.03","LONDON A","6144473","2020-11-24 04:00","2020","11","24","04:00","0.4","","-4.0","","72","","","","33","","12","","24.1","","99.32","","","","","","Mostly Cloudy"
"-81.15","43.03","LONDON A","6144473","2020-11-24 05:00","2020","11","24","05:00","-0.6","","-4.9","","73","","","","35","","6","","24.1","","99.35","","","","-3","","NA"
"-81.15","43.03","LONDON A","6144473","2020-11-24 06:00","2020","11","24","06:00","-2.3","","-4.3","","86","","","","25","","3","","24.1","","99.43","","","","-3","","NA"
"-81.15","43.03","LONDON A","6144473","2020-11-24 07:00","2020","11","24","07:00","-3.5","","-5.2","","88","","","","0","","1","","24.1","","99.47","","","","-4","","Mostly Cloudy"
"-81.15","43.03","LONDON A","6144473","2020-11-24 08:00","2020","11","24","08:00","-3.7","","-5.2","","90","","","","13","","3","","24.1","","99.50","","","","-5","","NA"
"-81.15","43.03","LONDON A","6144473","2020-11-24 09:00","2020","11","24","09:00","-2.1","","-4.2","","86","","","","10","","6","","24.1","","99.50","","","","-4","","NA"
"-81.15","43.03","LONDON A","6144473","2020-11-24 10:00","2020","11","24","10:00","-0.5","","-3.7","","79","","","","13","","4","","24.1","","99.53","","","","-2","","Mostly Cloudy"
"-81.15","43.03","LONDON A","6144473","2020-11-24 11:00","2020","11","24","11:00","0.6","","-3.8","","72","","","","11","","11","","24.1","","99.51","","","","","","NA"
"-81.15","43.03","LONDON A","6144473","2020-11-24 12:00","2020","11","24","12:00","1.0","","-3.5","","72","","","","12","","10","","24.1","","99.45","","","","","","NA"
"-81.15","43.03","LONDON A","6144473","2020-11-24 13:00","2020","11","24","13:00","0.9","","-4.2","","69","","","","14","","14","","24.1","","99.36","","","","","","Cloudy"
"-81.15","43.03","LONDON A","6144473","2020-11-24 14:00","2020","11","24","14:00","1.1","","-4.0","","69","","","","12","","16","","24.1","","99.25","","","","","","NA"
"-81.15","43.03","LONDON A","6144473","2020-11-24 15:00","2020","11","24","15:00","1.2","","-3.6","","70","","","","14","","18","","24.1","","99.19","","","","","","NA"
"-81.15","43.03","LONDON A","6144473","2020-11-24 16:00","2020","11","24","16:00","0.7","","-3.0","","76","","","","10","","14","","24.1","","99.15","","","","","","Cloudy"
"-81.15","43.03","LONDON A","6144473","2020-11-24 17:00","2020","11","24","17:00","0.5","","-3.0","","77","","","","10","","15","","24.1","","99.13","","","","","","NA"
"-81.15","43.03","LONDON A","6144473","2020-11-24 18:00","2020","11","24","18:00","0.2","","-2.5","","82","","","","9","","18","","24.1","","99.08","","","","","","NA"
"-81.15","43.03","LONDON A","6144473","2020-11-24 19:00","2020","11","24","19:00","0.3","","-2.2","","83","","","","9","","20","","12.9","","99.03","","","","","","Snow"
"-81.15","43.03","LONDON A","6144473","2020-11-24 20:00","2020","11","24","20:00","-0.4","","-1.2","","95","","","","10","","21","","3.2","","98.95","","","","-6","","Snow"
"-81.15","43.03","LONDON A","6144473","2020-11-24 21:00","2020","11","24","21:00","-0.7","","-1.1","","97","","","","10","","25","","1.6","","98.83","","","","-7","","Snow"
"-81.15","43.03","LONDON A","6144473","2020-11-24 22:00","2020","11","24","22:00","-0.3","","-0.8","","96","","","","11","","21","","9.7","","98.71","","","","-6","","Snow"
"-81.15","43.03","LONDON A","6144473","2020-11-24 23:00","2020","11","24","23:00","0.0","","-0.4","","97","","","","10","","22","","4.8","","98.55","","","","-6","","Snow"
"-81.15","43.03","LONDON A","6144473","2020-11-25 00:00","2020","11","25","00:00","0.4","","0.0","","97","","","","9","","13","","9.7","","98.56","","","","","","Snow"
"-81.15","43.03","LONDON A","6144473","2020-11-25 01:00","2020","11","25","01:00","0.6","","0.2","","97","","","","9","","13","","8.1","","98.50","","","","","","Rain,Snow"
"-81.15","43.03","LONDON A","6144473","2020-11-25 02:00","2020","11","25","02:00","0.5","","0.2","","98","","","","8","","15","","12.9","","98.46","","","","","","Rain,Snow"
"-81.15","43.03","LONDON A","6144473","2020-11-25 03:00","2020","11","25","03:00","0.8","","0.4","","97","","","","10","","16","","16.1","","98.39","","","","","","NA"
"-81.15","43.03","LONDON A","6144473","2020-11-25 04:00","2020","11","25","04:00","0.9","","0.4","","97","","","","10","","16","","16.1","","98.29","","","","","","Cloudy"
"-81.15","43.03","LONDON A","6144473","2020-11-25 05:00","2020","11","25","05:00","1.1","","0.6","","96","","","","10","","10","","16.1","","98.30","","","","","","NA"
"-81.15","43.03","LONDON A","6144473","2020-11-25 06:00","2020","11","25","06:00","1.1","","0.6","","97","","","","10","","8","","24.1","","98.28","","","","","","NA"
"-81.15","43.03","LONDON A","6144473","2020-11-25 07:00","2020","11","25","07:00","1.3","","0.8","","96","","","","13","","12","","24.1","","98.19","","","","","","Cloudy"
"-81.15","43.03","LONDON A","6144473","2020-11-25 08:00","2020","11","25","08:00","1.6","","1.2","","97","","","","12","","8","","12.9","","98.20","","","","","","NA"
"-81.15","43.03","LONDON A","6144473","2020-11-25 09:00","2020","11","25","09:00","3.7","","3.0","","96","","","","15","","8","","16.1","","98.23","","","","","","NA"
"-81.15","43.03","LONDON A","6144473","2020-11-25 10:00","2020","11","25","10:00","5.4","","3.6","","88","","","","21","","12","","19.3","","98.25","","","","","","Rain Showers"
"-81.15","43.03","LONDON A","6144473","2020-11-25 11:00","2020","11","25","11:00","5.7","","3.3","","84","","","","21","","10","","24.1","","98.24","","","","","","NA"
"-81.15","43.03","LONDON A","6144473","2020-11-25 12:00","2020","11","25","12:00","5.3","","4.4","","94","","","","23","","7","","8.1","","98.24","","","","","","Drizzle,Fog"
"-81.15","43.03","LONDON A","6144473","2020-11-25 13:00","2020","11","25","13:00","5.3","","5.2","","99","","","","15","","9","","0.8","","98.16","","","","","","Drizzle,Fog"
"-81.15","43.03","LONDON A","6144473","2020-11-25 14:00","2020","11","25","14:00","5.1","","5.1","","100","","","","13","","9","","0.6","","98.08","","","","","","Drizzle,Fog"
"-81.15","43.03","LONDON A","6144473","2020-11-25 15:00","2020","11","25","15:00","6.5","","6.5","","100","","","","16","","13","","0.8","","98.00","","","","","","Drizzle"
"-81.15","43.03","LONDON A","6144473","2020-11-25 16:00","2020","11","25","16:00","6.3","","6.3","","100","","","","13","","17","","1.6","","97.94","","","","","","Rain,Fog"
"-81.15","43.03","LONDON A","6144473","2020-11-25 17:00","2020","11","25","17:00","6.4","","6.3","","100","","","","13","","15","","3.2","","97.88","","","","","","Rain,Fog"
"-81.15","43.03","LONDON A","6144473","2020-11-25 18:00","2020","11","25","18:00","7.3","","7.3","","100","","","","15","","19","","1.6","","97.87","","","","","","Rain,Fog"
"-81.15","43.03","LONDON A","6144473","2020-11-25 19:00","2020","11","25","19:00","7.7","","7.6","","99","","","","16","","16","","4.8","","97.84","","","","","","Rain,Fog"
"-81.15","43.03","LONDON A","6144473","2020-11-25 20:00","2020","11","25","20:00","8.0","","7.8","","99","","","","16","","17","","2.4","","97.82","","","","","","Rain,Fog"
"-81.15","43.03","LONDON A","6144473","2020-11-25 21:00","2020","11","25","21:00","8.1","","7.9","","99","","","","15","","15","","2.4","","97.75","","","","","","Rain,Fog"
"-81.15","43.03","LONDON A","6144473","2020-11-25 22:00","2020","11","25","22:00","8.4","","8.2","","99","","","","15","","18","","2.4","","97.67","","","","","","Rain,Fog"
"-81.15","43.03","LONDON A","6144473","2020-11-25 23:00","2020","11","25","23:00","8.3","","8.1","","99","","","","13","","18","","2.4","","97.58","","","","","","Drizzle,Fog"
"-81.15","43.03","LONDON A","6144473","2020-11-26 00:00","2020","11","26","00:00","8.7","","8.6","","99","","","","12","","13","","6.4","","97.52","","","","","","Rain Showers,Fog"
"-81.15","43.03","LONDON A","6144473","2020-11-26 01:00","2020","11","26","01:00","8.7","","8.5","","98","","","","13","","16","","6.4","","97.46","","","","","","Rain,Fog"
"-81.15","43.03","LONDON A","6144473","2020-11-26 02:00","2020","11","26","02:00","9.1","","8.8","","98","","","","14","","15","","6.4","","97.36","","","","","","Rain,Fog"
"-81.15","43.03","LONDON A","6144473","2020-11-26 03:00","2020","11","26","03:00","9.4","","9.1","","98","","","","16","","14","","6.4","","97.39","","","","","","Rain,Fog"
"-81.15","43.03","LONDON A","6144473","2020-11-26 04:00","2020","11","26","04:00","9.7","","9.4","","98","","","","18","","12","","9.7","","97.35","","","","","","Fog"
"-81.15","43.03","LONDON A","6144473","2020-11-26 05:00","2020","11","26","05:00","9.9","","9.6","","98","","","","20","","13","","4.8","","97.39","","","","","","Drizzle,Fog"
"-81.15","43.03","LONDON A","6144473","2020-11-26 06:00","2020","11","26","06:00","9.8","","9.6","","98","","","","23","","12","","6.4","","97.44","","","","","","Drizzle,Fog"
"-81.15","43.03","LONDON A","6144473","2020-11-26 07:00","2020","11","26","07:00","9.7","","9.3","","98","","","","25","","11","","12.9","","97.50","","","","","","Drizzle"
"-81.15","43.03","LONDON A","6144473","2020-11-26 08:00","2020","11","26","08:00","9.2","","9.1","","99","","","","27","","22","","2.8","","97.64","","","","","","Drizzle,Fog"
"-81.15","43.03","LONDON A","6144473","2020-11-26 09:00","2020","11","26","09:00","8.6","","8.6","","100","","","","26","","18","","0.8","","97.76","","","","","","Drizzle,Fog"
"-81.15","43.03","LONDON A","6144473","2020-11-26 10:00","2020","11","26","10:00","8.6","","8.5","","99","","","","26","","16","","4.0","","97.86","","","","","","Drizzle,Fog"
"-81.15","43.03","LONDON A","6144473","2020-11-26 11:00","2020","11","26","11:00","8.7","","8.4","","98","","","","27","","18","","4.8","","97.94","","","","","","Fog"
"-81.15","43.03","LONDON A","6144473","2020-11-26 12:00","2020","11","26","12:00","8.2","","8.0","","98","","","","27","","21","","2.8","","97.98","","","","","","Drizzle,Fog"
"-81.15","43.03","LONDON A","6144473","2020-11-26 13:00","2020","11","26","13:00","7.8","","7.5","","98","","","","26","","16","","3.6","","98.00","","","","","","Drizzle,Fog"
"-81.15","43.03","LONDON A","6144473","2020-11-26 14:00","2020","11","26","14:00","7.4","","7.0","","97","","","","27","","15","","4.0","","98.05","","","","","","Drizzle,Fog"
"-81.15","43.03","LONDON A","6144473","2020-11-26 15:00","2020","11","26","15:00","7.5","","6.8","","95","","","","25","","16","","6.4","","98.08","","","","","","Drizzle,Fog"
"-81.15","43.03","LONDON A","6144473","2020-11-26 16:00","2020","11","26","16:00","7.1","","6.3","","95","","","","26","","9","","16.1","","98.19","","","","","","Cloudy"
"-81.15","43.03","LONDON A","6144473","2020-11-26 17:00","2020","11","26","17:00","6.9","","5.5","","91","","","","27","","13","","19.3","","98.27","","","","","","NA"
"-81.15","43.03","LONDON A","6144473","2020-11-26 18:00","2020","11","26","18:00","6.6","","5.5","","93","","","","26","","8","","24.1","","98.31","","","","","","NA"
"-81.15","43.03","LONDON A","6144473","2020-11-26 19:00","2020","11","26","19:00","6.6","","5.7","","94","","","","23","","8","","24.1","","98.36","","","","","","Cloudy"
"-81.15","43.03","LONDON A","6144473","2020-11-26 20:00","2020","11","26","20:00","6.9","","6.0","","94","","","","22","","10","","24.1","","98.39","","","","","","NA"
"-81.15","43.03","LONDON A","6144473","2020-11-26 21:00","2020","11","26","21:00","6.8","","5.7","","92","","","","24","","18","","24.1","","98.42","","","","","","NA"
"-81.15","43.03","LONDON A","6144473","2020-11-26 22:00","2020","11","26","22:00","6.5","","5.0","","90","","","","23","","9","","24.1","","98.43","","","","","","Cloudy"
"-81.15","43.03","LONDON A","6144473","2020-11-26 23:00","2020","11","26","23:00","6.5","","4.1","","84","","","","23","","12","","24.1","","98.42","","","","","","NA"
"-81.15","43.03","LONDON A","6144473","2020-11-27 00:00","2020","11","27","00:00","6.0","","3.9","","86","","","","20","","8","","24.1","","98.45","","","","","","NA"
"-81.15","43.03","LONDON A","6144473","2020-11-27 01:00","2020","11","27","01:00","6.0","","4.3","","89","","","","24","","8","","24.1","","98.46","","","","","","Cloudy"
"-81.15","43.03","LONDON A","6144473","2020-11-27 02:00","2020","11","27","02:00","5.8","","4.2","","89","","","","26","","7","","24.1","","98.49","","","","","","NA"
"-81.15","43.03","LONDON A","6144473","2020-11-27 03:00","2020","11","27","03:00","5.7","","3.4","","85","","","","25","","10","","24.1","","98.49","","","","","","NA"
"-81.15","43.03","LONDON A","6144473","2020-11-27 04:00","2020","11","27","04:00","5.5","","3.0","","84","","","","25","","11","","24.1","","98.48","","","","","","Cloudy"
"-81.15","43.03","LONDON A","6144473","2020-11-27 05:00","2020","11","27","05:00","5.3","","3.1","","85","","","","25","","7","","24.1","","98.48","","","","","","NA"
"-81.15","43.03","LONDON A","6144473","2020-11-27 06:00","2020","11","27","06:00","5.4","","2.5","","82","","","","26","","9","","24.1","","98.49","","","","","","NA"
"-81.15","43.03","LONDON A","6144473","2020-11-27 07:00","2020","11","27","07:00","5.3","","3.0","","85","","","","25","","10","","24.1","","98.50","","","","","","Cloudy"
"-81.15","43.03","LONDON A","6144473","2020-11-27 08:00","2020","11","27","08:00","5.3","","3.4","","87","","","","25","","12","","19.3","","98.50","","","","","","NA"
"-81.15","43.03","LONDON A","6144473","2020-11-27 09:00","2020","11","27","09:00","5.2","","2.6","","83","","","","22","","12","","19.3","","98.52","","","","","","NA"
"-81.15","43.03","LONDON A","6144473","2020-11-27 10:00","2020","11","27","10:00","5.7","","2.2","","79","","","","22","","16","","19.3","","98.50","","","","","","Cloudy"
"-81.15","43.03","LONDON A","6144473","2020-11-27 11:00","2020","11","27","11:00","6.0","","2.0","","76","","","","23","","17","","24.1","","98.48","","","","","","NA"
"-81.15","43.03","LONDON A","6144473","2020-11-27 12:00","2020","11","27","12:00","6.3","","2.5","","76","","","","23","","16","","24.1","","98.45","","","","","","NA"
"-81.15","43.03","LONDON A","6144473","2020-11-27 13:00","2020","11","27","13:00","5.8","","2.7","","80","","","","23","","19","","19.3","","98.40","","","","","","Cloudy"
"-81.15","43.03","LONDON A","6144473","2020-11-27 14:00","2020","11","27","14:00","5.8","","2.5","","79","","","","23","","20","","19.3","","98.33","","","","","","NA"
"-81.15","43.03","LONDON A","6144473","2020-11-27 15:00","2020","11","27","15:00","5.7","","2.5","","80","","","","23","","19","","24.1","","98.30","","","","","","NA"
"-81.15","43.03","LONDON A","6144473","2020-11-27 16:00","2020","11","27","16:00","5.3","","2.6","","83","","","","23","","18","","24.1","","98.25","","","","","","Cloudy"
"-81.15","43.03","LONDON A","6144473","2020-11-27 17:00","2020","11","27","17:00","5.2","","2.7","","84","","","","24","","10","","19.3","","98.28","","","","","","NA"
"-81.15","43.03","LONDON A","6144473","2020-11-27 18:00","2020","11","27","18:00","5.2","","2.9","","85","","","","24","","14","","24.1","","98.30","","","","","","NA"
"-81.15","43.03","LONDON A","6144473","2020-11-27 19:00","2020","11","27","19:00","5.1","","2.9","","85","","","","22","","17","","24.1","","98.27","","","","","","Cloudy"
"-81.15","43.03","LONDON A","6144473","2020-11-27 20:00","2020","11","27","20:00","4.9","","2.7","","85","","","","24","","13","","24.1","","98.26","","","","","","NA"
"-81.15","43.03","LONDON A","6144473","2020-11-27 21:00","2020","11","27","21:00","4.5","","3.2","","91","","","","24","","13","","9.7","","98.26","","","","","","Rain,Fog"
"-81.15","43.03","LONDON A","6144473","2020-11-27 22:00","2020","11","27","22:00","4.3","","3.4","","93","","","","24","","10","","9.7","","98.25","","","","","","Rain,Fog"
"-81.15","43.03","LONDON A","6144473","2020-11-27 23:00","2020","11","27","23:00","4.7","","3.2","","90","","","","25","","14","","24.1","","98.21","","","","","","NA"
"-81.15","43.03","LONDON A","6144473","2020-11-28 00:00","2020","11","28","00:00","4.7","","3.3","","90","","","","25","","13","","12.9","","98.18","","","","","","NA"
"-81.15","43.03","LONDON A","6144473","2020-11-28 01:00","2020","11","28","01:00","3.6","","2.1","","90","","","","27","","15","","12.9","","98.17","","","","","","Cloudy"
"-81.15","43.03","LONDON A","6144473","2020-11-28 02:00","2020","11","28","02:00","3.3","","1.1","","86","","","","28","","12","","24.1","","98.19","","","","","","NA"
"-81.15","43.03","LONDON A","6144473","2020-11-28 03:00","2020","11","28","03:00","2.7","","-0.1","","82","","","","29","","19","","24.1","","98.26","","","","","","NA"
"-81.15","43.03","LONDON A","6144473","2020-11-28 04:00","2020","11","28","04:00","1.9","","-2.1","","75","","","","29","","14","","24.1","","98.27","","","","","","Cloudy"
"-81.15","43.03","LONDON A","6144473","2020-11-28 05:00","2020","11","28","05:00","1.7","","-2.2","","75","","","","28","","16","","24.1","","98.29","","","","","","NA"
"-81.15","43.03","LONDON A","6144473","2020-11-28 06:00","2020","11","28","06:00","0.4","","-2.2","","83","","","","26","","11","","24.1","","98.33","","","","","","NA"
"-81.15","43.03","LONDON A","6144473","2020-11-28 07:00","2020","11","28","07:00","0.4","","-1.7","","86","","","","26","","13","","24.1","","98.37","","","","","","Mainly Clear"
"-81.15","43.03","LONDON A","6144473","2020-11-28 08:00","2020","11","28","08:00","-0.4","","-1.8","","90","","","","25","","13","","24.1","","98.50","","","","-5","","NA"
"-81.15","43.03","LONDON A","6144473","2020-11-28 09:00","2020","11","28","09:00","0.9","","-1.7","","83","","","","25","","17","","24.1","","98.51","","","","","","NA"
"-81.15","43.03","LONDON A","6144473","2020-11-28 10:00","2020","11","28","10:00","2.2","","-1.2","","78","","","","25","","18","","24.1","","98.55","","","","","","Clear"
"-81.15","43.03","LONDON A","6144473","2020-11-28 11:00","2020","11","28","11:00","3.1","","-1.4","","72","","","","26","","21","","24.1","","98.60","","","","","","NA"
"-81.15","43.03","LONDON A","6144473","2020-11-28 12:00","2020","11","28","12:00","3.8","","-2.6","","63","","","","27","","17","","24.1","","98.57","","","","","","NA"
"-81.15","43.03","LONDON A","6144473","2020-11-28 13:00","2020","11","28","13:00","4.7","","-4.2","","52","","","","26","","20","","24.1","","98.54","","","","","","Mainly Clear"
"-81.15","43.03","LONDON A","6144473","2020-11-28 14:00","2020","11","28","14:00","5.0","","-3.2","","56","","","","23","","18","","24.1","","98.50","","","","","","NA"
"-81.15","43.03","LONDON A","6144473","2020-11-28 15:00","2020","11","28","15:00","5.4","","-4.2","","50","","","","24","","17","","24.1","","98.47","","","","","","NA"
"-81.15","43.03","LONDON A","6144473","2020-11-28 16:00","2020","11","28","16:00","5.0","","-3.2","","56","","","","22","","16","","24.1","","98.44","","","","","","Mainly Clear"
"-81.15","43.03","LONDON A","6144473","2020-11-28 17:00","2020","11","28","17:00","3.3","","-2.6","","65","","","","23","","16","","24.1","","98.43","","","","","","NA"
"-81.15","43.03","LONDON A","6144473","2020-11-28 18:00","2020","11","28","18:00","2.5","","-2.5","","69","","","","22","","17","","24.1","","98.41","","","","","","NA"
"-81.15","43.03","LONDON A","6144473","2020-11-28 19:00","2020","11","28","19:00","2.1","","-1.3","","78","","","","22","","18","","24.1","","98.43","","","","","","Clear"
"-81.15","43.03","LONDON A","6144473","2020-11-28 20:00","2020","11","28","20:00","2.2","","-1.6","","76","","","","22","","20","","24.1","","98.40","","","","","","NA"
"-81.15","43.03","LONDON A","6144473","2020-11-28 21:00","2020","11","28","21:00","2.2","","-1.3","","77","","","","22","","17","","24.1","","98.40","","","","","","NA"
"-81.15","43.03","LONDON A","6144473","2020-11-28 22:00","2020","11","28","22:00","2.2","","-1.3","","78","","","","22","","15","","24.1","","98.42","","","","","","Clear"
"-81.15","43.03","LONDON A","6144473","2020-11-28 23:00","2020","11","28","23:00","2.2","","-1.7","","76","","","","22","","14","","24.1","","98.43","","","","","","NA"
"-81.15","43.03","LONDON A","6144473","2020-11-29 00:00","2020","11","29","00:00","2.1","","-1.9","","75","","","","22","","14","","24.1","","98.42","","","","","","NA"
"-81.15","43.03","LONDON A","6144473","2020-11-29 01:00","2020","11","29","01:00","2.2","","-2.0","","74","","","","23","","16","","24.1","","98.40","","","","","","Clear"
"-81.15","43.03","LONDON A","6144473","2020-11-29 02:00","2020","11","29","02:00","2.1","","-2.0","","74","","","","23","","17","","24.1","","98.37","","","","","","NA"
"-81.15","43.03","LONDON A","6144473","2020-11-29 03:00","2020","11","29","03:00","1.1","","-2.2","","79","","","","21","","13","","24.1","","98.34","","","","","","NA"
"-81.15","43.03","LONDON A","6144473","2020-11-29 04:00","2020","11","29","04:00","0.4","","-2.3","","82","","","","22","","13","","24.1","","98.30","","","","","","Clear"
"-81.15","43.03","LONDON A","6144473","2020-11-29 05:00","2020","11","29","05:00","0.4","","-2.4","","82","","","","21","","12","","24.1","","98.31","","","","","","NA"
"-81.15","43.03","LONDON A","6144473","2020-11-29 06:00","2020","11","29","06:00","0.5","","-2.4","","81","","","","21","","12","","24.1","","98.30","","","","","","NA"
"-81.15","43.03","LONDON A","6144473","2020-11-29 07:00","2020","11","29","07:00","0.4","","-2.2","","83","","","","21","","14","","24.1","","98.32","","","","","","Clear"
"-81.15","43.03","LONDON A","6144473","2020-11-29 08:00","2020","11","29","08:00","0.6","","-1.9","","84","","","","21","","10","","24.1","","98.32","","","","","","NA"
"-81.15","43.03","LONDON A","6144473","2020-11-29 09:00","2020","11","29","09:00","2.8","","-0.8","","78","","","","22","","16","","24.1","","98.30","","","","","","NA"
"-81.15","43.03","LONDON A","6144473","2020-11-29 10:00","2020","11","29","10:00","4.7","","0.0","","72","","","","21","","21","","24.1","","98.32","","","","","","Clear"
"-81.15","43.03","LONDON A","6144473","2020-11-29 11:00","2020","11","29","11:00","6.5","","0.8","","67","","","","21","","17","","24.1","","98.29","","","","","","NA"
"-81.15","43.03","LONDON A","6144473","2020-11-29 12:00","2020","11","29","12:00","7.4","","1.5","","66","","","","20","","19","","24.1","","98.19","","","","","","NA"
"-81.15","43.03","LONDON A","6144473","2020-11-29 13:00","2020","11","29","13:00","8.8","","2.1","","63","","","","21","","24","","24.1","","98.10","","","","","","Mostly Cloudy"
"-81.15","43.03","LONDON A","6144473","2020-11-29 14:00","2020","11","29","14:00","9.6","","3.2","","64","","","","20","","18","","24.1","","98.07","","","","","","NA"
"-81.15","43.03","LONDON A","6144473","2020-11-29 15:00","2020","11","29","15:00","8.1","","2.7","","69","","","","19","","16","","24.1","","98.00","","","","","","NA"
"-81.15","43.03","LONDON A","6144473","2020-11-29 16:00","2020","11","29","16:00","7.8","","2.8","","71","","","","18","","18","","24.1","","98.01","","","","","","Mostly Cloudy"
"-81.15","43.03","LONDON A","6144473","2020-11-29 17:00","2020","11","29","17:00","6.3","","1.9","","73","","","","20","","24","","24.1","","98.01","","","","","","NA"
"-81.15","43.03","LONDON A","6144473","2020-11-29 18:00","2020","11","29","18:00","5.2","","1.4","","76","","","","20","","16","","24.1","","97.98","","","","","","NA"
"-81.15","43.03","LONDON A","6144473","2020-11-29 19:00","2020","11","29","19:00","5.0","","1.6","","79","","","","20","","14","","24.1","","97.94","","","","","","Mostly Cloudy"
"-81.15","43.03","LONDON A","6144473","2020-11-29 20:00","2020","11","29","20:00","5.4","","1.7","","77","","","","20","","14","","24.1","","97.92","","","","","","NA"
"-81.15","43.03","LONDON A","6144473","2020-11-29 21:00","2020","11","29","21:00","5.8","","1.2","","72","","","","19","","11","","24.1","","97.86","","","","","","NA"
"-81.15","43.03","LONDON A","6144473","2020-11-29 22:00","2020","11","29","22:00","4.4","","0.5","","76","","","","20","","8","","24.1","","97.83","","","","","","Mostly Cloudy"
"-81.15","43.03","LONDON A","6144473","2020-11-29 23:00","2020","11","29","23:00","3.7","","0.7","","81","","","","0","","1","","24.1","","97.76","","","","","","NA"
"-81.15","43.03","LONDON A","6144473","2020-11-30 00:00","2020","11","30","00:00","1.4","","0.2","","92","","","","10","","7","","24.1","","97.73","","","","","","NA"
"-81.15","43.03","LONDON A","6144473","2020-11-30 01:00","2020","11","30","01:00","2.3","","0.8","","90","","","","10","","7","","24.1","","97.66","","","","","","Cloudy"
"-81.15","43.03","LONDON A","6144473","2020-11-30 02:00","2020","11","30","02:00","2.7","","0.9","","87","","","","34","","5","","24.1","","97.57","","","","","","NA"
"-81.15","43.03","LONDON A","6144473","2020-11-30 03:00","2020","11","30","03:00","2.7","","1.4","","91","","","","34","","8","","24.1","","97.52","","","","","","NA"
"-81.15","43.03","LONDON A","6144473","2020-11-30 04:00","2020","11","30","04:00","1.9","","0.9","","93","","","","10","","7","","24.1","","97.52","","","","","","Cloudy"
"-81.15","43.03","LONDON A","6144473","2020-11-30 05:00","2020","11","30","05:00","2.3","","1.1","","92","","","","36","","2","","24.1","","97.45","","","","","","NA"
"-81.15","43.03","LONDON A","6144473","2020-11-30 06:00","2020","11","30","06:00","2.9","","1.1","","88","","","","36","","9","","24.1","","97.35","","","","","","NA"
"-81.15","43.03","LONDON A","6144473","2020-11-30 07:00","2020","11","30","07:00","3.2","","1.3","","88","","","","32","","6","","24.1","","97.35","","","","","","Cloudy"
"-81.15","43.03","LONDON A","6144473","2020-11-30 08:00","2020","11","30","08:00","3.1","","1.4","","88","","","","36","","12","","19.3","","97.31","","","","","","NA"
"-81.15","43.03","LONDON A","6144473","2020-11-30 09:00","2020","11","30","09:00","3.4","","1.6","","88","","","","35","","17","","16.1","","97.23","","","","","","Rain"
"-81.15","43.03","LONDON A","6144473","2020-11-30 10:00","2020","11","30","10:00","4.2","","2.6","","89","","","","36","","18","","16.1","","97.08","","","","","","Cloudy"
"-81.15","43.03","LONDON A","6144473","2020-11-30 11:00","2020","11","30","11:00","4.4","","2.6","","88","","","","1","","22","","12.9","","97.01","","","","","","Rain"
"-81.15","43.03","LONDON A","6144473","2020-11-30 12:00","2020","11","30","12:00","4.3","","3.2","","93","","","","35","","17","","6.4","","96.91","","","","","","Rain,Fog"
"-81.15","43.03","LONDON A","6144473","2020-11-30 13:00","2020","11","30","13:00","4.0","","3.0","","94","","","","36","","24","","9.7","","96.80","","","","","","Rain,Fog"
"-81.15","43.03","LONDON A","6144473","2020-11-30 14:00","2020","11","30","14:00","3.6","","2.7","","94","","","","36","","18","","9.7","","96.73","","","","","","Rain,Fog"
"-81.15","43.03","LONDON A","6144473","2020-11-30 15:00","2020","11","30","15:00","3.1","","2.1","","93","","","","35","","21","","9.7","","96.71","","","","","","Rain,Fog"
"-81.15","43.03","LONDON A","6144473","2020-11-30 16:00","2020","11","30","16:00","2.6","","1.5","","92","","","","34","","27","","6.4","","96.74","","","","","","Rain,Fog"
"-81.15","43.03","LONDON A","6144473","2020-11-30 17:00","2020","11","30","17:00","1.6","","0.8","","94","","","","34","","25","","9.7","","96.74","","","","","","Rain,Fog"
"-81.15","43.03","LONDON A","6144473","2020-11-30 18:00","2020","11","30","18:00","0.9","","0.3","","96","","","","34","","21","","6.4","","96.79","","","","","","Rain,Snow,Fog"
"-81.15","43.03","LONDON A","6144473","2020-11-30 19:00","2020","11","30","19:00","0.6","","0.0","","96","","","","33","","27","","3.2","","96.79","","","","","","Snow,Fog"
"-81.15","43.03","LONDON A","6144473","2020-11-30 20:00","2020","11","30","20:00","0.3","","-0.2","","96","","","","33","","22","","3.2","","96.82","","","","","","Snow,Fog"
"-81.15","43.03","LONDON A","6144473","2020-11-30 21:00","2020","11","30","21:00","0.1","","-0.7","","94","","","","34","","29","","2.4","","96.84","","","","","","Snow,Fog"
"-81.15","43.03","LONDON A","6144473","2020-11-30 22:00","2020","11","30","22:00","-0.2","","-1.0","","94","","","","33","","28","","4.0","","96.84","","","","-7","","Snow"
"-81.15","43.03","LONDON A","6144473","2020-11-30 23:00","2020","11","30","23:00","-0.4","","-1.2","","94","","","","33","","23","","3.2","","96.81","","","","-6","","Snow"
