"Longitude (x)","Latitude (y)","Station Name","Climate ID","Date/Time (LST)","Year","Month","Day","Time (LST)","Temp (°C)","Temp Flag","Dew Point Temp (°C)","Dew Point Temp Flag","Rel Hum (%)","Rel Hum Flag","Precip. Amount (mm)","Precip. Amount Flag","Wind Dir (10s deg)","Wind Dir Flag","Wind Spd (km/h)","Wind Spd Flag","Visibility (km)","Visibility Flag","Stn Press (kPa)","Stn Press Flag","Hmdx","Hmdx Flag","Wind Chill","Wind Chill Flag","Weather"
"-96.57","50.70","VICTORIA BEACH (AUT)","5032951","2022-02-01 00:00","2022","02","01","00:00","-4.4","","-5.4","","92","","","","8","","3","","","","96.68","","","","-6","","NA"
"-96.57","50.70","VICTORIA BEACH (AUT)","5032951","2022-02-01 01:00","2022","02","01","01:00","-4.6","","-5.3","","94","","","","5","","7","","","","96.65","","","","-8","","NA"
"-96.57","50.70","VICTORIA BEACH (AUT)","5032951","2022-02-01 02:00","2022","02","01","02:00","-4.5","","-5.2","","95","","","","4","","8","","","","96.62","","","","-8","","NA"
"-96.57","50.70","VICTORIA BEACH (AUT)","5032951","2022-02-01 03:00","2022","02","01","03:00","-5.5","","-6.5","","93","","","","33","","19","","","","96.66","","","","-12","","NA"
"-96.57","50.70","VICTORIA BEACH (AUT)","5032951","2022-02-01 04:00","2022","02","01","04:00","-8.6","","-10.3","","87","","","","33","","54","","","","96.75","","","","-20","","NA"
"-96.57","50.70","VICTORIA BEACH (AUT)","5032951","2022-02-01 05:00","2022","02","01","05:00","-12.1","","-14.1","","85","","","","32","","58","","","","96.90","","","","-25","","NA"
"-96.57","50.70","VICTORIA BEACH (AUT)","5032951","2022-02-01 06:00","2022","02","01","06:00","-13.5","","-15.5","","85","","","","32","","61","","","","97.11","","","","-28","","NA"
"-96.57","50.70","VICTORIA BEACH (AUT)","5032951","2022-02-01 07:00","2022","02","01","07:00","-14.7","","-16.8","","84","","","","32","","63","","","","97.28","","","","-29","","NA"
"-96.57","50.70","VICTORIA BEACH (AUT)","5032951","2022-02-01 08:00","2022","02","01","08:00","-15.1","","-17.3","","83","","","","33","","60","","","","97.47","","","","-30","","NA"
"-96.57","50.70","VICTORIA BEACH (AUT)","5032951","2022-02-01 09:00","2022","02","01","09:00","-15.6","","-17.9","","83","","","","33","","59","","","","97.64","","","","-30","","NA"
"-96.57","50.70","VICTORIA BEACH (AUT)","5032951","2022-02-01 10:00","2022","02","01","10:00","-16.2","","-18.6","","82","","","","32","","62","","","","97.86","","","","-31","","NA"
"-96.57","50.70","VICTORIA BEACH (AUT)","5032951","2022-02-01 11:00","2022","02","01","11:00","-16.7","","-19.2","","81","","","","33","","59","","","","98.05","","","","-32","","NA"
"-96.57","50.70","VICTORIA BEACH (AUT)","5032951","2022-02-01 12:00","2022","02","01","12:00","-17.4","","-20.1","","80","","","","33","","64","","","","98.20","","","","-33","","NA"
"-96.57","50.70","VICTORIA BEACH (AUT)","5032951","2022-02-01 13:00","2022","02","01","13:00","-18.0","","-20.8","","78","","","","32","","51","","","","98.38","","","","-33","","NA"
"-96.57","50.70","VICTORIA BEACH (AUT)","5032951","2022-02-01 14:00","2022","02","01","14:00","-18.3","","-21.3","","77","","","","33","","52","","","","98.55","","","","-33","","NA"
"-96.57","50.70","VICTORIA BEACH (AUT)","5032951","2022-02-01 15:00","2022","02","01","15:00","-18.9","","-21.7","","78","","","","32","","51","","","","98.74","","","","-34","","NA"
"-96.57","50.70","VICTORIA BEACH (AUT)","5032951","2022-02-01 16:00","2022","02","01","16:00","-19.0","","-21.8","","79","","","","33","","48","","","","98.93","","","","-34","","NA"
"-96.57","50.70","VICTORIA BEACH (AUT)","5032951","2022-02-01 17:00","2022","02","01","17:00","-19.5","","-22.5","","77","","","","33","","44","","","","99.15","","","","-34","","NA"
"-96.57","50.70","VICTORIA BEACH (AUT)","5032951","2022-02-01 18:00","2022","02","01","18:00","-19.5","","-22.7","","76","","","","33","","34","","","","99.33","","","","-33","","NA"
"-96.57","50.70","VICTORIA BEACH (AUT)","5032951","2022-02-01 19:00","2022","02","01","19:00","-20.6","","-24.0","","74","","","","33","","38","","","","99.48","","","","-35","","NA"
"-96.57","50.70","VICTORIA BEACH (AUT)","5032951","2022-02-01 20:00","2022","02","01","20:00","-21.5","","-25.5","","71","","","","33","","37","","","","99.63","","","","-36","","NA"
"-96.57","50.70","VICTORIA BEACH (AUT)","5032951","2022-02-01 21:00","2022","02","01","21:00","-22.7","","-26.2","","73","","","","31","","21","","","","99.76","","","","-34","","NA"
"-96.57","50.70","VICTORIA BEACH (AUT)","5032951","2022-02-01 22:00","2022","02","01","22:00","-23.4","","-27.0","","72","","","","32","","21","","","","99.87","","","","-35","","NA"
"-96.57","50.70","VICTORIA BEACH (AUT)","5032951","2022-02-01 23:00","2022","02","01","23:00","-24.2","","-27.8","","72","","","","31","","22","","","","99.96","","","","-36","","NA"
"-96.57","50.70","VICTORIA BEACH (AUT)","5032951","2022-02-02 00:00","2022","02","02","00:00","-24.9","","-28.5","","72","","","","30","","19","","","","100.05","","","","-36","","NA"
"-96.57","50.70","VICTORIA BEACH (AUT)","5032951","2022-02-02 01:00","2022","02","02","01:00","-25.4","","-28.9","","72","","","","29","","20","","","","100.13","","","","-37","","NA"
"-96.57","50.70","VICTORIA BEACH (AUT)","5032951","2022-02-02 02:00","2022","02","02","02:00","-25.6","","-29.3","","71","","","","29","","22","","","","100.18","","","","-38","","NA"
"-96.57","50.70","VICTORIA BEACH (AUT)","5032951","2022-02-02 03:00","2022","02","02","03:00","-25.9","","-29.6","","71","","","","29","","22","","","","100.26","","","","-38","","NA"
"-96.57","50.70","VICTORIA BEACH (AUT)","5032951","2022-02-02 04:00","2022","02","02","04:00","-26.4","","-30.0","","72","","","","28","","21","","","","100.32","","","","-39","","NA"
"-96.57","50.70","VICTORIA BEACH (AUT)","5032951","2022-02-02 05:00","2022","02","02","05:00","-27.2","","-30.6","","73","","","","28","","16","","","","100.39","","","","-38","","NA"
"-96.57","50.70","VICTORIA BEACH (AUT)","5032951","2022-02-02 06:00","2022","02","02","06:00","-27.3","","-30.6","","74","","","","27","","18","","","","100.42","","","","-39","","NA"
"-96.57","50.70","VICTORIA BEACH (AUT)","5032951","2022-02-02 07:00","2022","02","02","07:00","-27.7","","-30.9","","74","","","","27","","20","","","","100.47","","","","-40","","NA"
"-96.57","50.70","VICTORIA BEACH (AUT)","5032951","2022-02-02 08:00","2022","02","02","08:00","-27.7","","-30.9","","74","","","","27","","20","","","","100.56","","","","-40","","NA"
"-96.57","50.70","VICTORIA BEACH (AUT)","5032951","2022-02-02 09:00","2022","02","02","09:00","-27.3","","-30.9","","72","","","","27","","19","","","","100.66","","","","-39","","NA"
"-96.57","50.70","VICTORIA BEACH (AUT)","5032951","2022-02-02 10:00","2022","02","02","10:00","-27.2","","-31.0","","70","","","","26","","16","","","","100.75","","","","-38","","NA"
"-96.57","50.70","VICTORIA BEACH (AUT)","5032951","2022-02-02 11:00","2022","02","02","11:00","-25.8","","-30.0","","68","","","","28","","20","","","","100.82","","","","-38","","NA"
"-96.57","50.70","VICTORIA BEACH (AUT)","5032951","2022-02-02 12:00","2022","02","02","12:00","-25.1","","-30.3","","62","","","","29","","25","","","","100.82","","","","-38","","NA"
"-96.57","50.70","VICTORIA BEACH (AUT)","5032951","2022-02-02 13:00","2022","02","02","13:00","-25.0","","-30.6","","60","","","","29","","32","","","","100.84","","","","-39","","NA"
"-96.57","50.70","VICTORIA BEACH (AUT)","5032951","2022-02-02 14:00","2022","02","02","14:00","-24.3","","-30.1","","59","","","","30","","26","","","","100.85","","","","-37","","NA"
"-96.57","50.70","VICTORIA BEACH (AUT)","5032951","2022-02-02 15:00","2022","02","02","15:00","-23.4","","-29.1","","60","","","","29","","14","","","","100.87","","","","-33","","NA"
"-96.57","50.70","VICTORIA BEACH (AUT)","5032951","2022-02-02 16:00","2022","02","02","16:00","-23.7","","-29.2","","60","","","","30","","14","","","","100.89","","","","-33","","NA"
"-96.57","50.70","VICTORIA BEACH (AUT)","5032951","2022-02-02 17:00","2022","02","02","17:00","-24.3","","-29.3","","63","","","","29","","12","","","","100.92","","","","-33","","NA"
"-96.57","50.70","VICTORIA BEACH (AUT)","5032951","2022-02-02 18:00","2022","02","02","18:00","-25.4","","-30.0","","65","","","","28","","16","","","","100.98","","","","-36","","NA"
"-96.57","50.70","VICTORIA BEACH (AUT)","5032951","2022-02-02 19:00","2022","02","02","19:00","-26.6","","-30.9","","67","","","","26","","16","","","","100.95","","","","-38","","NA"
"-96.57","50.70","VICTORIA BEACH (AUT)","5032951","2022-02-02 20:00","2022","02","02","20:00","-27.1","","-31.7","","65","","","","24","","19","","","","100.98","","","","-39","","NA"
"-96.57","50.70","VICTORIA BEACH (AUT)","5032951","2022-02-02 21:00","2022","02","02","21:00","-27.0","","-31.6","","65","","","","24","","21","","","","100.99","","","","-40","","NA"
"-96.57","50.70","VICTORIA BEACH (AUT)","5032951","2022-02-02 22:00","2022","02","02","22:00","-27.3","","-31.6","","67","","","","23","","20","","","","100.99","","","","-40","","NA"
"-96.57","50.70","VICTORIA BEACH (AUT)","5032951","2022-02-02 23:00","2022","02","02","23:00","-27.6","","-31.5","","69","","","","23","","19","","","","100.98","","","","-40","","NA"
"-96.57","50.70","VICTORIA BEACH (AUT)","5032951","2022-02-03 00:00","2022","02","03","00:00","-27.8","","-31.9","","68","","","","24","","18","","","","101.00","","","","-40","","NA"
"-96.57","50.70","VICTORIA BEACH (AUT)","5032951","2022-02-03 01:00","2022","02","03","01:00","-28.4","","-32.2","","70","","","","16","","7","","","","101.02","","","","-35","","NA"
"-96.57","50.70","VICTORIA BEACH (AUT)","5032951","2022-02-03 02:00","2022","02","03","02:00","-28.6","","-32.2","","71","","","","19","","5","","","","101.00","","","","-34","","NA"
"-96.57","50.70","VICTORIA BEACH (AUT)","5032951","2022-02-03 03:00","2022","02","03","03:00","-29.3","","-32.9","","71","","","","15","","6","","","","101.01","","","","-36","","NA"
"-96.57","50.70","VICTORIA BEACH (AUT)","5032951","2022-02-03 04:00","2022","02","03","04:00","-29.0","","-32.9","","69","","","","18","","5","","","","101.02","","","","-34","","NA"
"-96.57","50.70","VICTORIA BEACH (AUT)","5032951","2022-02-03 05:00","2022","02","03","05:00","-30.2","","-34.0","","69","","","","17","","8","","","","101.01","","","","-38","","NA"
"-96.57","50.70","VICTORIA BEACH (AUT)","5032951","2022-02-03 06:00","2022","02","03","06:00","-31.9","","-35.4","","71","","","","13","","10","","","","101.00","","","","-41","","NA"
"-96.57","50.70","VICTORIA BEACH (AUT)","5032951","2022-02-03 07:00","2022","02","03","07:00","-29.6","","-33.3","","70","","","","18","","12","","","","100.98","","","","-40","","NA"
"-96.57","50.70","VICTORIA BEACH (AUT)","5032951","2022-02-03 08:00","2022","02","03","08:00","-28.3","","-32.6","","66","","","","17","","10","","","","100.95","","","","-37","","NA"
"-96.57","50.70","VICTORIA BEACH (AUT)","5032951","2022-02-03 09:00","2022","02","03","09:00","-30.0","","-34.3","","66","","","","11","","10","","","","100.91","","","","-39","","NA"
"-96.57","50.70","VICTORIA BEACH (AUT)","5032951","2022-02-03 10:00","2022","02","03","10:00","-24.5","","-30.0","","60","","","","19","","28","","","","100.86","","","","-38","","NA"
"-96.57","50.70","VICTORIA BEACH (AUT)","5032951","2022-02-03 11:00","2022","02","03","11:00","-24.3","","-29.9","","60","","","","20","","32","","","","100.84","","","","-39","","NA"
"-96.57","50.70","VICTORIA BEACH (AUT)","5032951","2022-02-03 12:00","2022","02","03","12:00","-24.0","","-30.2","","56","","","","19","","26","","","","100.76","","","","-37","","NA"
"-96.57","50.70","VICTORIA BEACH (AUT)","5032951","2022-02-03 13:00","2022","02","03","13:00","-23.4","","-29.7","","56","","","","19","","26","","","","100.70","","","","-36","","NA"
"-96.57","50.70","VICTORIA BEACH (AUT)","5032951","2022-02-03 14:00","2022","02","03","14:00","-21.5","","-28.8","","52","","","","18","","23","","","","100.57","","","","-33","","NA"
"-96.57","50.70","VICTORIA BEACH (AUT)","5032951","2022-02-03 15:00","2022","02","03","15:00","-20.7","","-28.0","","52","","","","16","","17","","","","100.48","","","","-31","","NA"
"-96.57","50.70","VICTORIA BEACH (AUT)","5032951","2022-02-03 16:00","2022","02","03","16:00","-21.5","","-28.2","","55","","","","15","","19","","","","100.44","","","","-32","","NA"
"-96.57","50.70","VICTORIA BEACH (AUT)","5032951","2022-02-03 17:00","2022","02","03","17:00","-21.1","","-27.7","","55","","","","15","","19","","","","100.35","","","","-32","","NA"
"-96.57","50.70","VICTORIA BEACH (AUT)","5032951","2022-02-03 18:00","2022","02","03","18:00","-20.4","","-27.5","","53","","","","15","","22","","","","100.31","","","","-31","","NA"
"-96.57","50.70","VICTORIA BEACH (AUT)","5032951","2022-02-03 19:00","2022","02","03","19:00","-20.1","","-25.0","","65","","","","15","","17","","","","100.27","","","","-30","","NA"
"-96.57","50.70","VICTORIA BEACH (AUT)","5032951","2022-02-03 20:00","2022","02","03","20:00","-20.5","","-24.2","","72","","","","13","","17","","","","100.20","","","","-30","","NA"
"-96.57","50.70","VICTORIA BEACH (AUT)","5032951","2022-02-03 21:00","2022","02","03","21:00","-20.3","","-24.0","","72","","","","15","","18","","","","100.17","","","","-30","","NA"
"-96.57","50.70","VICTORIA BEACH (AUT)","5032951","2022-02-03 22:00","2022","02","03","22:00","-20.3","","-24.0","","73","","","","16","","16","","","","100.18","","","","-30","","NA"
"-96.57","50.70","VICTORIA BEACH (AUT)","5032951","2022-02-03 23:00","2022","02","03","23:00","-20.6","","-23.8","","75","","","","14","","9","","","","100.16","","","","-27","","NA"
"-96.57","50.70","VICTORIA BEACH (AUT)","5032951","2022-02-04 00:00","2022","02","04","00:00","-21.2","","-24.1","","77","","","","10","","8","","","","100.17","","","","-28","","NA"
"-96.57","50.70","VICTORIA BEACH (AUT)","5032951","2022-02-04 01:00","2022","02","04","01:00","-21.4","","-24.1","","78","","","","8","","9","","","","100.17","","","","-28","","NA"
"-96.57","50.70","VICTORIA BEACH (AUT)","5032951","2022-02-04 02:00","2022","02","04","02:00","-21.7","","-24.5","","78","","","","7","","8","","","","100.19","","","","-28","","NA"
"-96.57","50.70","VICTORIA BEACH (AUT)","5032951","2022-02-04 03:00","2022","02","04","03:00","-22.5","","-25.3","","78","","","","7","","6","","","","100.23","","","","-28","","NA"
"-96.57","50.70","VICTORIA BEACH (AUT)","5032951","2022-02-04 04:00","2022","02","04","04:00","-25.3","","-28.0","","78","","","","0","","1","","","","100.26","","","","-26","","NA"
"-96.57","50.70","VICTORIA BEACH (AUT)","5032951","2022-02-04 05:00","2022","02","04","05:00","-25.2","","-27.6","","80","","","","","","0","","","","100.30","","","","","","NA"
"-96.57","50.70","VICTORIA BEACH (AUT)","5032951","2022-02-04 06:00","2022","02","04","06:00","-27.4","","-30.0","","79","","","","33","","9","","","","100.39","","","","-36","","NA"
"-96.57","50.70","VICTORIA BEACH (AUT)","5032951","2022-02-04 07:00","2022","02","04","07:00","-27.9","","-30.6","","78","","","","33","","12","","","","100.50","","","","-38","","NA"
"-96.57","50.70","VICTORIA BEACH (AUT)","5032951","2022-02-04 08:00","2022","02","04","08:00","-27.8","","-30.7","","76","","","","34","","15","","","","100.52","","","","-39","","NA"
"-96.57","50.70","VICTORIA BEACH (AUT)","5032951","2022-02-04 09:00","2022","02","04","09:00","-28.6","","-32.0","","73","","","","32","","12","","","","100.58","","","","-38","","NA"
"-96.57","50.70","VICTORIA BEACH (AUT)","5032951","2022-02-04 10:00","2022","02","04","10:00","-27.9","","-31.5","","71","","","","32","","13","","","","100.62","","","","-38","","NA"
"-96.57","50.70","VICTORIA BEACH (AUT)","5032951","2022-02-04 11:00","2022","02","04","11:00","-27.6","","-31.4","","70","","","","33","","12","","","","100.67","","","","-37","","NA"
"-96.57","50.70","VICTORIA BEACH (AUT)","5032951","2022-02-04 12:00","2022","02","04","12:00","-27.1","","-31.2","","69","","","","32","","14","","","","100.67","","","","-37","","NA"
"-96.57","50.70","VICTORIA BEACH (AUT)","5032951","2022-02-04 13:00","2022","02","04","13:00","-26.5","","-30.7","","68","","","","31","","10","","","","100.61","","","","-35","","NA"
"-96.57","50.70","VICTORIA BEACH (AUT)","5032951","2022-02-04 14:00","2022","02","04","14:00","-26.0","","-30.2","","68","","","","29","","10","","","","100.56","","","","-34","","NA"
"-96.57","50.70","VICTORIA BEACH (AUT)","5032951","2022-02-04 15:00","2022","02","04","15:00","-25.1","","-29.6","","66","","","","27","","5","","","","100.50","","","","-30","","NA"
"-96.57","50.70","VICTORIA BEACH (AUT)","5032951","2022-02-04 16:00","2022","02","04","16:00","-25.1","","-29.6","","66","","","","23","","4","","","","100.46","","","","-29","","NA"
"-96.57","50.70","VICTORIA BEACH (AUT)","5032951","2022-02-04 17:00","2022","02","04","17:00","-26.5","","-30.3","","70","","","","24","","9","","","","100.45","","","","-34","","NA"
"-96.57","50.70","VICTORIA BEACH (AUT)","5032951","2022-02-04 18:00","2022","02","04","18:00","-26.5","","-30.1","","72","","","","16","","4","","","","100.40","","","","-31","","NA"
"-96.57","50.70","VICTORIA BEACH (AUT)","5032951","2022-02-04 19:00","2022","02","04","19:00","-26.3","","-29.8","","72","","","","16","","3","","","","100.34","","","","-29","","NA"
"-96.57","50.70","VICTORIA BEACH (AUT)","5032951","2022-02-04 20:00","2022","02","04","20:00","-25.4","","-29.5","","69","","","","16","","6","","","","100.30","","","","-31","","NA"
"-96.57","50.70","VICTORIA BEACH (AUT)","5032951","2022-02-04 21:00","2022","02","04","21:00","-26.1","","-29.6","","72","","","","13","","6","","","","100.15","","","","-32","","NA"
"-96.57","50.70","VICTORIA BEACH (AUT)","5032951","2022-02-04 22:00","2022","02","04","22:00","-25.1","","-28.8","","72","","","","12","","9","","","","99.99","","","","-33","","NA"
"-96.57","50.70","VICTORIA BEACH (AUT)","5032951","2022-02-04 23:00","2022","02","04","23:00","-24.7","","-28.5","","71","","","","13","","7","","","","99.90","","","","-31","","NA"
"-96.57","50.70","VICTORIA BEACH (AUT)","5032951","2022-02-05 00:00","2022","02","05","00:00","-23.9","","-27.7","","71","","","","12","","12","","","","99.82","","","","-33","","NA"
"-96.57","50.70","VICTORIA BEACH (AUT)","5032951","2022-02-05 01:00","2022","02","05","01:00","-23.8","","-27.4","","73","","","","13","","16","","","","99.63","","","","-34","","NA"
"-96.57","50.70","VICTORIA BEACH (AUT)","5032951","2022-02-05 02:00","2022","02","05","02:00","-23.5","","-26.8","","74","","","","11","","17","","","","99.49","","","","-34","","NA"
"-96.57","50.70","VICTORIA BEACH (AUT)","5032951","2022-02-05 03:00","2022","02","05","03:00","-23.2","","-26.4","","75","","","","13","","18","","","","99.37","","","","-34","","NA"
"-96.57","50.70","VICTORIA BEACH (AUT)","5032951","2022-02-05 04:00","2022","02","05","04:00","-22.7","","-25.9","","75","","","","12","","18","","","","99.20","","","","-33","","NA"
"-96.57","50.70","VICTORIA BEACH (AUT)","5032951","2022-02-05 05:00","2022","02","05","05:00","-21.5","","-24.8","","75","","","","12","","22","","","","99.04","","","","-33","","NA"
"-96.57","50.70","VICTORIA BEACH (AUT)","5032951","2022-02-05 06:00","2022","02","05","06:00","-20.6","","-23.9","","75","","","","12","","25","","","","98.88","","","","-32","","NA"
"-96.57","50.70","VICTORIA BEACH (AUT)","5032951","2022-02-05 07:00","2022","02","05","07:00","-19.5","","-22.7","","76","","","","11","","27","","","","98.77","","","","-31","","NA"
"-96.57","50.70","VICTORIA BEACH (AUT)","5032951","2022-02-05 08:00","2022","02","05","08:00","-18.7","","-21.7","","77","","","","11","","24","","","","98.69","","","","-30","","NA"
"-96.57","50.70","VICTORIA BEACH (AUT)","5032951","2022-02-05 09:00","2022","02","05","09:00","-17.8","","-21.1","","76","","","","12","","22","","","","98.64","","","","-28","","NA"
"-96.57","50.70","VICTORIA BEACH (AUT)","5032951","2022-02-05 10:00","2022","02","05","10:00","-17.2","","-20.5","","75","","","","11","","19","","","","98.64","","","","-27","","NA"
"-96.57","50.70","VICTORIA BEACH (AUT)","5032951","2022-02-05 11:00","2022","02","05","11:00","-16.7","","-20.2","","74","","","","10","","19","","","","98.62","","","","-26","","NA"
"-96.57","50.70","VICTORIA BEACH (AUT)","5032951","2022-02-05 12:00","2022","02","05","12:00","-16.0","","-19.7","","74","","","","9","","21","","","","98.61","","","","-26","","NA"
"-96.57","50.70","VICTORIA BEACH (AUT)","5032951","2022-02-05 13:00","2022","02","05","13:00","-15.1","","-19.0","","72","","","","9","","20","","","","98.56","","","","-24","","NA"
"-96.57","50.70","VICTORIA BEACH (AUT)","5032951","2022-02-05 14:00","2022","02","05","14:00","-14.3","","-19.0","","68","","","","10","","19","","","","98.53","","","","-23","","NA"
"-96.57","50.70","VICTORIA BEACH (AUT)","5032951","2022-02-05 15:00","2022","02","05","15:00","-13.6","","-18.6","","66","","","","10","","11","","","","98.57","","","","-20","","NA"
"-96.57","50.70","VICTORIA BEACH (AUT)","5032951","2022-02-05 16:00","2022","02","05","16:00","-13.4","","-18.4","","66","","","","8","","8","","","","98.62","","","","-18","","NA"
"-96.57","50.70","VICTORIA BEACH (AUT)","5032951","2022-02-05 17:00","2022","02","05","17:00","-14.2","","-17.1","","78","","","","35","","7","","","","98.69","","","","-19","","NA"
"-96.57","50.70","VICTORIA BEACH (AUT)","5032951","2022-02-05 18:00","2022","02","05","18:00","-14.5","","-17.2","","80","","","","36","","8","","","","98.74","","","","-20","","NA"
"-96.57","50.70","VICTORIA BEACH (AUT)","5032951","2022-02-05 19:00","2022","02","05","19:00","-14.6","","-17.5","","78","","","","35","","11","","","","98.78","","","","-21","","NA"
"-96.57","50.70","VICTORIA BEACH (AUT)","5032951","2022-02-05 20:00","2022","02","05","20:00","-14.7","","-17.1","","82","","","","35","","13","","","","98.85","","","","-22","","NA"
"-96.57","50.70","VICTORIA BEACH (AUT)","5032951","2022-02-05 21:00","2022","02","05","21:00","-15.6","","-17.9","","83","","","","36","","9","","","","98.87","","","","-22","","NA"
"-96.57","50.70","VICTORIA BEACH (AUT)","5032951","2022-02-05 22:00","2022","02","05","22:00","-15.8","","-18.1","","83","","","","36","","10","","","","98.94","","","","-22","","NA"
"-96.57","50.70","VICTORIA BEACH (AUT)","5032951","2022-02-05 23:00","2022","02","05","23:00","-16.9","","-19.1","","83","","","","36","","9","","","","98.99","","","","-23","","NA"
"-96.57","50.70","VICTORIA BEACH (AUT)","5032951","2022-02-06 00:00","2022","02","06","00:00","-17.8","","-20.0","","83","","","","35","","11","","","","99.05","","","","-25","","NA"
"-96.57","50.70","VICTORIA BEACH (AUT)","5032951","2022-02-06 01:00","2022","02","06","01:00","-20.2","","-22.7","","81","","","","34","","18","","","","99.11","","","","-30","","NA"
"-96.57","50.70","VICTORIA BEACH (AUT)","5032951","2022-02-06 02:00","2022","02","06","02:00","-19.4","","-21.8","","81","","","","34","","17","","","","99.18","","","","-29","","NA"
"-96.57","50.70","VICTORIA BEACH (AUT)","5032951","2022-02-06 03:00","2022","02","06","03:00","-19.9","","-22.4","","81","","","","34","","17","","","","99.24","","","","-30","","NA"
"-96.57","50.70","VICTORIA BEACH (AUT)","5032951","2022-02-06 04:00","2022","02","06","04:00","-21.0","","-23.6","","80","","","","33","","16","","","","99.31","","","","-31","","NA"
"-96.57","50.70","VICTORIA BEACH (AUT)","5032951","2022-02-06 05:00","2022","02","06","05:00","-20.7","","-23.2","","80","","","","34","","16","","","","99.38","","","","-30","","NA"
"-96.57","50.70","VICTORIA BEACH (AUT)","5032951","2022-02-06 06:00","2022","02","06","06:00","-19.9","","-22.4","","81","","","","33","","16","","","","99.50","","","","-29","","NA"
"-96.57","50.70","VICTORIA BEACH (AUT)","5032951","2022-02-06 07:00","2022","02","06","07:00","-19.7","","-22.2","","80","","","","34","","18","","","","99.56","","","","-30","","NA"
"-96.57","50.70","VICTORIA BEACH (AUT)","5032951","2022-02-06 08:00","2022","02","06","08:00","-19.4","","-21.9","","80","","","","34","","7","","","","99.64","","","","-25","","NA"
"-96.57","50.70","VICTORIA BEACH (AUT)","5032951","2022-02-06 09:00","2022","02","06","09:00","-20.1","","-23.2","","77","","","","33","","13","","","","99.71","","","","-29","","NA"
"-96.57","50.70","VICTORIA BEACH (AUT)","5032951","2022-02-06 10:00","2022","02","06","10:00","-20.4","","-23.6","","75","","","","33","","17","","","","99.82","","","","-30","","NA"
"-96.57","50.70","VICTORIA BEACH (AUT)","5032951","2022-02-06 11:00","2022","02","06","11:00","-20.6","","-24.1","","74","","","","34","","13","","","","99.85","","","","-29","","NA"
"-96.57","50.70","VICTORIA BEACH (AUT)","5032951","2022-02-06 12:00","2022","02","06","12:00","-20.4","","-23.8","","74","","","","31","","14","","","","99.86","","","","-29","","NA"
"-96.57","50.70","VICTORIA BEACH (AUT)","5032951","2022-02-06 13:00","2022","02","06","13:00","-19.7","","-23.3","","73","","","","32","","16","","","","99.82","","","","-29","","NA"
"-96.57","50.70","VICTORIA BEACH (AUT)","5032951","2022-02-06 14:00","2022","02","06","14:00","-19.0","","-22.9","","72","","","","31","","10","","","","99.80","","","","-26","","NA"
"-96.57","50.70","VICTORIA BEACH (AUT)","5032951","2022-02-06 15:00","2022","02","06","15:00","-18.7","","-22.8","","70","","","","29","","6","","","","99.75","","","","-24","","NA"
"-96.57","50.70","VICTORIA BEACH (AUT)","5032951","2022-02-06 16:00","2022","02","06","16:00","-18.8","","-22.7","","71","","","","29","","5","","","","99.75","","","","-23","","NA"
"-96.57","50.70","VICTORIA BEACH (AUT)","5032951","2022-02-06 17:00","2022","02","06","17:00","-19.3","","-22.8","","74","","","","22","","2","","","","99.74","","","","-21","","NA"
"-96.57","50.70","VICTORIA BEACH (AUT)","5032951","2022-02-06 18:00","2022","02","06","18:00","-19.1","","-22.4","","75","","","","19","","7","","","","99.76","","","","-25","","NA"
"-96.57","50.70","VICTORIA BEACH (AUT)","5032951","2022-02-06 19:00","2022","02","06","19:00","-19.5","","-22.6","","76","","","","14","","4","","","","99.72","","","","-23","","NA"
"-96.57","50.70","VICTORIA BEACH (AUT)","5032951","2022-02-06 20:00","2022","02","06","20:00","-19.5","","-23.2","","72","","","","16","","7","","","","99.66","","","","-25","","NA"
"-96.57","50.70","VICTORIA BEACH (AUT)","5032951","2022-02-06 21:00","2022","02","06","21:00","-19.0","","-22.5","","74","","","","21","","19","","","","99.61","","","","-29","","NA"
"-96.57","50.70","VICTORIA BEACH (AUT)","5032951","2022-02-06 22:00","2022","02","06","22:00","-18.9","","-22.3","","74","","","","18","","14","","","","99.58","","","","-27","","NA"
"-96.57","50.70","VICTORIA BEACH (AUT)","5032951","2022-02-06 23:00","2022","02","06","23:00","-19.1","","-22.2","","77","","","","14","","12","","","","99.49","","","","-27","","NA"
"-96.57","50.70","VICTORIA BEACH (AUT)","5032951","2022-02-07 00:00","2022","02","07","00:00","-19.4","","-22.3","","78","","","","13","","10","","","","99.48","","","","-26","","NA"
"-96.57","50.70","VICTORIA BEACH (AUT)","5032951","2022-02-07 01:00","2022","02","07","01:00","-19.0","","-22.3","","76","","","","16","","16","","","","99.40","","","","-28","","NA"
"-96.57","50.70","VICTORIA BEACH (AUT)","5032951","2022-02-07 02:00","2022","02","07","02:00","-18.2","","-21.8","","74","","","","15","","19","","","","99.26","","","","-28","","NA"
"-96.57","50.70","VICTORIA BEACH (AUT)","5032951","2022-02-07 03:00","2022","02","07","03:00","-16.6","","-20.6","","71","","","","17","","22","","","","99.13","","","","-27","","NA"
"-96.57","50.70","VICTORIA BEACH (AUT)","5032951","2022-02-07 04:00","2022","02","07","04:00","-16.2","","-20.3","","71","","","","16","","19","","","","99.09","","","","-25","","NA"
"-96.57","50.70","VICTORIA BEACH (AUT)","5032951","2022-02-07 05:00","2022","02","07","05:00","-15.9","","-19.6","","73","","","","14","","21","","","","98.97","","","","-26","","NA"
"-96.57","50.70","VICTORIA BEACH (AUT)","5032951","2022-02-07 06:00","2022","02","07","06:00","-15.1","","-18.4","","76","","","","17","","23","","","","98.87","","","","-25","","NA"
"-96.57","50.70","VICTORIA BEACH (AUT)","5032951","2022-02-07 07:00","2022","02","07","07:00","-14.4","","-17.7","","76","","","","16","","16","","","","98.88","","","","-22","","NA"
"-96.57","50.70","VICTORIA BEACH (AUT)","5032951","2022-02-07 08:00","2022","02","07","08:00","-13.9","","-17.3","","76","","","","17","","18","","","","98.82","","","","-22","","NA"
"-96.57","50.70","VICTORIA BEACH (AUT)","5032951","2022-02-07 09:00","2022","02","07","09:00","-13.6","","-17.0","","76","","","","16","","19","","","","98.75","","","","-22","","NA"
"-96.57","50.70","VICTORIA BEACH (AUT)","5032951","2022-02-07 10:00","2022","02","07","10:00","-12.4","","-15.9","","75","","","","17","","18","","","","98.74","","","","-20","","NA"
"-96.57","50.70","VICTORIA BEACH (AUT)","5032951","2022-02-07 11:00","2022","02","07","11:00","-11.4","","-15.4","","72","","","","15","","19","","","","98.66","","","","-19","","NA"
"-96.57","50.70","VICTORIA BEACH (AUT)","5032951","2022-02-07 12:00","2022","02","07","12:00","-9.6","","-14.4","","68","","","","17","","21","","","","98.60","","","","-18","","NA"
"-96.57","50.70","VICTORIA BEACH (AUT)","5032951","2022-02-07 13:00","2022","02","07","13:00","-8.8","","-14.2","","65","","","","14","","17","","","","98.49","","","","-16","","NA"
"-96.57","50.70","VICTORIA BEACH (AUT)","5032951","2022-02-07 14:00","2022","02","07","14:00","-8.0","","-13.5","","64","","","","15","","21","","","","98.39","","","","-16","","NA"
"-96.57","50.70","VICTORIA BEACH (AUT)","5032951","2022-02-07 15:00","2022","02","07","15:00","-7.1","","-12.9","","64","","","","15","","22","","","","98.35","","","","-15","","NA"
"-96.57","50.70","VICTORIA BEACH (AUT)","5032951","2022-02-07 16:00","2022","02","07","16:00","-6.4","","-12.0","","65","","","","16","","21","","","","98.29","","","","-13","","NA"
"-96.57","50.70","VICTORIA BEACH (AUT)","5032951","2022-02-07 17:00","2022","02","07","17:00","-6.6","","-11.6","","68","","","","15","","20","","","","98.21","","","","-14","","NA"
"-96.57","50.70","VICTORIA BEACH (AUT)","5032951","2022-02-07 18:00","2022","02","07","18:00","-7.8","","-12.3","","70","","","","14","","13","","","","98.18","","","","-14","","NA"
"-96.57","50.70","VICTORIA BEACH (AUT)","5032951","2022-02-07 19:00","2022","02","07","19:00","-8.4","","-12.6","","72","","","","14","","14","","","","98.03","","","","-15","","NA"
"-96.57","50.70","VICTORIA BEACH (AUT)","5032951","2022-02-07 20:00","2022","02","07","20:00","-8.2","","-12.1","","74","","","","15","","17","","","","97.95","","","","-15","","NA"
"-96.57","50.70","VICTORIA BEACH (AUT)","5032951","2022-02-07 21:00","2022","02","07","21:00","-7.7","","-11.5","","74","","","","15","","22","","","","97.78","","","","-15","","NA"
"-96.57","50.70","VICTORIA BEACH (AUT)","5032951","2022-02-07 22:00","2022","02","07","22:00","-8.3","","-11.6","","77","","","","14","","22","","","","97.70","","","","-16","","NA"
"-96.57","50.70","VICTORIA BEACH (AUT)","5032951","2022-02-07 23:00","2022","02","07","23:00","-8.9","","-11.6","","81","","","","13","","22","","","","97.59","","","","-17","","NA"
"-96.57","50.70","VICTORIA BEACH (AUT)","5032951","2022-02-08 00:00","2022","02","08","00:00","-9.2","","-11.8","","82","","","","14","","21","","","","97.49","","","","-17","","NA"
"-96.57","50.70","VICTORIA BEACH (AUT)","5032951","2022-02-08 01:00","2022","02","08","01:00","-9.0","","-11.3","","84","","","","13","","21","","","","97.30","","","","-17","","NA"
"-96.57","50.70","VICTORIA BEACH (AUT)","5032951","2022-02-08 02:00","2022","02","08","02:00","-8.2","","-10.3","","85","","","","14","","20","","","","97.15","","","","-16","","NA"
"-96.57","50.70","VICTORIA BEACH (AUT)","5032951","2022-02-08 03:00","2022","02","08","03:00","-6.7","","-9.0","","84","","","","15","","19","","","","97.07","","","","-14","","NA"
"-96.57","50.70","VICTORIA BEACH (AUT)","5032951","2022-02-08 04:00","2022","02","08","04:00","-7.8","","-9.7","","86","","","","15","","10","","","","97.06","","","","-13","","NA"
"-96.57","50.70","VICTORIA BEACH (AUT)","5032951","2022-02-08 05:00","2022","02","08","05:00","-6.5","","-9.0","","82","","","","20","","17","","","","96.99","","","","-13","","NA"
"-96.57","50.70","VICTORIA BEACH (AUT)","5032951","2022-02-08 06:00","2022","02","08","06:00","-6.5","","-8.4","","86","","","","23","","22","","","","96.97","","","","-14","","NA"
"-96.57","50.70","VICTORIA BEACH (AUT)","5032951","2022-02-08 07:00","2022","02","08","07:00","-5.1","","-6.4","","91","","","","24","","24","","","","96.94","","","","-12","","NA"
"-96.57","50.70","VICTORIA BEACH (AUT)","5032951","2022-02-08 08:00","2022","02","08","08:00","-2.6","","-4.7","","86","","","","23","","21","","","","96.91","","","","-9","","NA"
"-96.57","50.70","VICTORIA BEACH (AUT)","5032951","2022-02-08 09:00","2022","02","08","09:00","-2.1","","-4.2","","85","","","","23","","27","","","","96.92","","","","-9","","NA"
"-96.57","50.70","VICTORIA BEACH (AUT)","5032951","2022-02-08 10:00","2022","02","08","10:00","-0.1","","-1.3","","92","","","","26","","25","","","","96.93","","","","-6","","NA"
"-96.57","50.70","VICTORIA BEACH (AUT)","5032951","2022-02-08 11:00","2022","02","08","11:00","0.2","","-1.4","","89","","","","25","","25","","","","96.91","","","","","","NA"
"-96.57","50.70","VICTORIA BEACH (AUT)","5032951","2022-02-08 12:00","2022","02","08","12:00","1.4","","-0.4","","88","","","","27","","33","","","","96.90","","","","","","NA"
"-96.57","50.70","VICTORIA BEACH (AUT)","5032951","2022-02-08 13:00","2022","02","08","13:00","-0.9","","-1.8","","94","","","","32","","20","","","","96.97","","","","-6","","NA"
"-96.57","50.70","VICTORIA BEACH (AUT)","5032951","2022-02-08 14:00","2022","02","08","14:00","-2.6","","-4.2","","89","","","","32","","36","","","","97.00","","","","-10","","NA"
"-96.57","50.70","VICTORIA BEACH (AUT)","5032951","2022-02-08 15:00","2022","02","08","15:00","-4.4","","-6.4","","86","","","","34","","35","","","","97.12","","","","-13","","NA"
"-96.57","50.70","VICTORIA BEACH (AUT)","5032951","2022-02-08 16:00","2022","02","08","16:00","-5.4","","-6.9","","89","","","","33","","30","","","","97.28","","","","-14","","NA"
"-96.57","50.70","VICTORIA BEACH (AUT)","5032951","2022-02-08 17:00","2022","02","08","17:00","-5.9","","-7.1","","91","","","","34","","23","","","","97.36","","","","-13","","NA"
"-96.57","50.70","VICTORIA BEACH (AUT)","5032951","2022-02-08 18:00","2022","02","08","18:00","-5.5","","-6.6","","92","","","","34","","10","","","","97.43","","","","-10","","NA"
"-96.57","50.70","VICTORIA BEACH (AUT)","5032951","2022-02-08 19:00","2022","02","08","19:00","-5.4","","-6.4","","92","","","","32","","8","","","","97.44","","","","-9","","NA"
"-96.57","50.70","VICTORIA BEACH (AUT)","5032951","2022-02-08 20:00","2022","02","08","20:00","-3.9","","-5.3","","90","","","","35","","26","","","","97.52","","","","-11","","NA"
"-96.57","50.70","VICTORIA BEACH (AUT)","5032951","2022-02-08 21:00","2022","02","08","21:00","-4.4","","-6.0","","89","","","","34","","31","","","","97.60","","","","-12","","NA"
"-96.57","50.70","VICTORIA BEACH (AUT)","5032951","2022-02-08 22:00","2022","02","08","22:00","-4.3","","-6.3","","86","","","","33","","32","","","","97.61","","","","-12","","NA"
"-96.57","50.70","VICTORIA BEACH (AUT)","5032951","2022-02-08 23:00","2022","02","08","23:00","-5.1","","-7.0","","87","","","","33","","36","","","","97.67","","","","-14","","NA"
"-96.57","50.70","VICTORIA BEACH (AUT)","5032951","2022-02-09 00:00","2022","02","09","00:00","-5.4","","-7.6","","85","","","","34","","36","","","","97.75","","","","-14","","NA"
"-96.57","50.70","VICTORIA BEACH (AUT)","5032951","2022-02-09 01:00","2022","02","09","01:00","-5.3","","-6.9","","89","","","","34","","42","","","","97.79","","","","-15","","NA"
"-96.57","50.70","VICTORIA BEACH (AUT)","5032951","2022-02-09 02:00","2022","02","09","02:00","-6.3","","-8.1","","87","","","","34","","45","","","","97.87","","","","-16","","NA"
"-96.57","50.70","VICTORIA BEACH (AUT)","5032951","2022-02-09 03:00","2022","02","09","03:00","-6.5","","-8.5","","86","","","","34","","35","","","","97.98","","","","-16","","NA"
"-96.57","50.70","VICTORIA BEACH (AUT)","5032951","2022-02-09 04:00","2022","02","09","04:00","-7.1","","-8.8","","87","","","","33","","40","","","","98.03","","","","-17","","NA"
"-96.57","50.70","VICTORIA BEACH (AUT)","5032951","2022-02-09 05:00","2022","02","09","05:00","-8.0","","-9.8","","87","","","","33","","38","","","","98.11","","","","-18","","NA"
"-96.57","50.70","VICTORIA BEACH (AUT)","5032951","2022-02-09 06:00","2022","02","09","06:00","-8.7","","-10.7","","85","","","","33","","39","","","","98.19","","","","-19","","NA"
"-96.57","50.70","VICTORIA BEACH (AUT)","5032951","2022-02-09 07:00","2022","02","09","07:00","-9.5","","-11.5","","85","","","","33","","41","","","","98.29","","","","-20","","NA"
"-96.57","50.70","VICTORIA BEACH (AUT)","5032951","2022-02-09 08:00","2022","02","09","08:00","-10.1","","-12.5","","83","","","","33","","43","","","","98.39","","","","-21","","NA"
"-96.57","50.70","VICTORIA BEACH (AUT)","5032951","2022-02-09 09:00","2022","02","09","09:00","-10.7","","-13.1","","82","","","","33","","39","","","","98.52","","","","-22","","NA"
"-96.57","50.70","VICTORIA BEACH (AUT)","5032951","2022-02-09 10:00","2022","02","09","10:00","-11.2","","-13.8","","81","","","","33","","41","","","","98.60","","","","-22","","NA"
"-96.57","50.70","VICTORIA BEACH (AUT)","5032951","2022-02-09 11:00","2022","02","09","11:00","-11.3","","-14.2","","79","","","","33","","44","","","","98.65","","","","-23","","NA"
"-96.57","50.70","VICTORIA BEACH (AUT)","5032951","2022-02-09 12:00","2022","02","09","12:00","-11.2","","-14.2","","78","","","","33","","42","","","","98.73","","","","-23","","NA"
"-96.57","50.70","VICTORIA BEACH (AUT)","5032951","2022-02-09 13:00","2022","02","09","13:00","-11.7","","-14.8","","78","","","","33","","38","","","","98.79","","","","-23","","NA"
"-96.57","50.70","VICTORIA BEACH (AUT)","5032951","2022-02-09 14:00","2022","02","09","14:00","-11.7","","-15.3","","75","","","","34","","37","","","","98.77","","","","-23","","NA"
"-96.57","50.70","VICTORIA BEACH (AUT)","5032951","2022-02-09 15:00","2022","02","09","15:00","-12.0","","-15.7","","74","","","","34","","34","","","","98.83","","","","-23","","NA"
"-96.57","50.70","VICTORIA BEACH (AUT)","5032951","2022-02-09 16:00","2022","02","09","16:00","-12.1","","-15.2","","78","","","","33","","23","","","","98.91","","","","-21","","NA"
"-96.57","50.70","VICTORIA BEACH (AUT)","5032951","2022-02-09 17:00","2022","02","09","17:00","-13.0","","-16.2","","77","","","","34","","21","","","","98.99","","","","-22","","NA"
"-96.57","50.70","VICTORIA BEACH (AUT)","5032951","2022-02-09 18:00","2022","02","09","18:00","-12.9","","-16.2","","77","","","","34","","14","","","","99.05","","","","-20","","NA"
"-96.57","50.70","VICTORIA BEACH (AUT)","5032951","2022-02-09 19:00","2022","02","09","19:00","-12.3","","-15.8","","75","","","","35","","13","","","","99.07","","","","-19","","NA"
"-96.57","50.70","VICTORIA BEACH (AUT)","5032951","2022-02-09 20:00","2022","02","09","20:00","-13.7","","-16.9","","77","","","","3","","10","","","","99.09","","","","-20","","NA"
"-96.57","50.70","VICTORIA BEACH (AUT)","5032951","2022-02-09 21:00","2022","02","09","21:00","-14.0","","-16.9","","79","","","","31","","10","","","","99.10","","","","-20","","NA"
"-96.57","50.70","VICTORIA BEACH (AUT)","5032951","2022-02-09 22:00","2022","02","09","22:00","-13.9","","-16.5","","80","","","","20","","2","","","","99.01","","","","-15","","NA"
"-96.57","50.70","VICTORIA BEACH (AUT)","5032951","2022-02-09 23:00","2022","02","09","23:00","-13.5","","-16.2","","80","","","","21","","2","","","","98.98","","","","-15","","NA"
"-96.57","50.70","VICTORIA BEACH (AUT)","5032951","2022-02-10 00:00","2022","02","10","00:00","-13.2","","-15.8","","81","","","","14","","10","","","","98.82","","","","-19","","NA"
"-96.57","50.70","VICTORIA BEACH (AUT)","5032951","2022-02-10 01:00","2022","02","10","01:00","-12.8","","-15.5","","80","","","","15","","12","","","","98.68","","","","-19","","NA"
"-96.57","50.70","VICTORIA BEACH (AUT)","5032951","2022-02-10 02:00","2022","02","10","02:00","-12.4","","-15.4","","78","","","","15","","13","","","","98.51","","","","-19","","NA"
"-96.57","50.70","VICTORIA BEACH (AUT)","5032951","2022-02-10 03:00","2022","02","10","03:00","-12.1","","-15.4","","77","","","","17","","16","","","","98.33","","","","-20","","NA"
"-96.57","50.70","VICTORIA BEACH (AUT)","5032951","2022-02-10 04:00","2022","02","10","04:00","-11.8","","-15.5","","74","","","","18","","22","","","","98.11","","","","-21","","NA"
"-96.57","50.70","VICTORIA BEACH (AUT)","5032951","2022-02-10 05:00","2022","02","10","05:00","-11.7","","-15.1","","76","","","","18","","24","","","","97.93","","","","-21","","NA"
"-96.57","50.70","VICTORIA BEACH (AUT)","5032951","2022-02-10 06:00","2022","02","10","06:00","-11.2","","-13.7","","82","","","","15","","24","","","","97.62","","","","-20","","NA"
"-96.57","50.70","VICTORIA BEACH (AUT)","5032951","2022-02-10 07:00","2022","02","10","07:00","-10.8","","-13.1","","83","","","","15","","22","","","","97.37","","","","-19","","NA"
"-96.57","50.70","VICTORIA BEACH (AUT)","5032951","2022-02-10 08:00","2022","02","10","08:00","-10.4","","-12.6","","84","","","","15","","26","","","","97.09","","","","-19","","NA"
"-96.57","50.70","VICTORIA BEACH (AUT)","5032951","2022-02-10 09:00","2022","02","10","09:00","-9.5","","-11.6","","84","","","","15","","24","","","","96.87","","","","-18","","NA"
"-96.57","50.70","VICTORIA BEACH (AUT)","5032951","2022-02-10 10:00","2022","02","10","10:00","-8.4","","-10.4","","86","","","","15","","22","","","","96.67","","","","-16","","NA"
"-96.57","50.70","VICTORIA BEACH (AUT)","5032951","2022-02-10 11:00","2022","02","10","11:00","-7.2","","-9.1","","86","","","","14","","22","","","","96.45","","","","-15","","NA"
"-96.57","50.70","VICTORIA BEACH (AUT)","5032951","2022-02-10 12:00","2022","02","10","12:00","-6.5","","-8.4","","86","","","","13","","20","","","","96.27","","","","-13","","NA"
"-96.57","50.70","VICTORIA BEACH (AUT)","5032951","2022-02-10 13:00","2022","02","10","13:00","-5.9","","-8.3","","83","","","","13","","19","","","","96.14","","","","-13","","NA"
"-96.57","50.70","VICTORIA BEACH (AUT)","5032951","2022-02-10 14:00","2022","02","10","14:00","-5.5","","-7.9","","83","","","","11","","15","","","","96.10","","","","-11","","NA"
"-96.57","50.70","VICTORIA BEACH (AUT)","5032951","2022-02-10 15:00","2022","02","10","15:00","-5.6","","-7.5","","87","","","","9","","11","","","","96.12","","","","-10","","NA"
"-96.57","50.70","VICTORIA BEACH (AUT)","5032951","2022-02-10 16:00","2022","02","10","16:00","-5.5","","-7.3","","87","","","","7","","10","","","","96.17","","","","-10","","NA"
"-96.57","50.70","VICTORIA BEACH (AUT)","5032951","2022-02-10 17:00","2022","02","10","17:00","-5.5","","-7.3","","87","","","","2","","12","","","","96.23","","","","-10","","NA"
"-96.57","50.70","VICTORIA BEACH (AUT)","5032951","2022-02-10 18:00","2022","02","10","18:00","-5.9","","-7.9","","85","","","","4","","11","","","","96.36","","","","-11","","NA"
"-96.57","50.70","VICTORIA BEACH (AUT)","5032951","2022-02-10 19:00","2022","02","10","19:00","-6.8","","-8.4","","88","","","","2","","11","","","","96.51","","","","-12","","NA"
"-96.57","50.70","VICTORIA BEACH (AUT)","5032951","2022-02-10 20:00","2022","02","10","20:00","-7.7","","-9.5","","87","","","","36","","14","","","","96.63","","","","-14","","NA"
"-96.57","50.70","VICTORIA BEACH (AUT)","5032951","2022-02-10 21:00","2022","02","10","21:00","-9.0","","-11.3","","84","","","","2","","17","","","","96.81","","","","-16","","NA"
"-96.57","50.70","VICTORIA BEACH (AUT)","5032951","2022-02-10 22:00","2022","02","10","22:00","-10.5","","-12.8","","83","","","","1","","22","","","","96.98","","","","-19","","NA"
"-96.57","50.70","VICTORIA BEACH (AUT)","5032951","2022-02-10 23:00","2022","02","10","23:00","-11.3","","-14.1","","80","","","","2","","22","","","","97.16","","","","-20","","NA"
"-96.57","50.70","VICTORIA BEACH (AUT)","5032951","2022-02-11 00:00","2022","02","11","00:00","-13.0","","-16.0","","78","","","","1","","26","","","","97.40","","","","-23","","NA"
"-96.57","50.70","VICTORIA BEACH (AUT)","5032951","2022-02-11 01:00","2022","02","11","01:00","-14.5","","-17.9","","75","","","","1","","24","","","","97.65","","","","-24","","NA"
"-96.57","50.70","VICTORIA BEACH (AUT)","5032951","2022-02-11 02:00","2022","02","11","02:00","-15.6","","-19.3","","74","","","","1","","25","","","","97.90","","","","-26","","NA"
"-96.57","50.70","VICTORIA BEACH (AUT)","5032951","2022-02-11 03:00","2022","02","11","03:00","-17.3","","-20.5","","76","","","","36","","25","","","","98.14","","","","-28","","NA"
"-96.57","50.70","VICTORIA BEACH (AUT)","5032951","2022-02-11 04:00","2022","02","11","04:00","-18.3","","-21.3","","77","","","","36","","27","","","","98.38","","","","-30","","NA"
"-96.57","50.70","VICTORIA BEACH (AUT)","5032951","2022-02-11 05:00","2022","02","11","05:00","-19.8","","-23.1","","75","","","","36","","27","","","","98.60","","","","-32","","NA"
"-96.57","50.70","VICTORIA BEACH (AUT)","5032951","2022-02-11 06:00","2022","02","11","06:00","-21.2","","-24.7","","73","","","","36","","23","","","","98.87","","","","-33","","NA"
"-96.57","50.70","VICTORIA BEACH (AUT)","5032951","2022-02-11 07:00","2022","02","11","07:00","-22.9","","-26.1","","75","","","","35","","26","","","","99.10","","","","-36","","NA"
"-96.57","50.70","VICTORIA BEACH (AUT)","5032951","2022-02-11 08:00","2022","02","11","08:00","-24.3","","-27.7","","74","","","","35","","35","","","","99.31","","","","-39","","NA"
"-96.57","50.70","VICTORIA BEACH (AUT)","5032951","2022-02-11 09:00","2022","02","11","09:00","-25.3","","-28.9","","72","","","","35","","34","","","","99.56","","","","-40","","NA"
"-96.57","50.70","VICTORIA BEACH (AUT)","5032951","2022-02-11 10:00","2022","02","11","10:00","-25.9","","-29.9","","69","","","","35","","30","","","","99.77","","","","-40","","NA"
"-96.57","50.70","VICTORIA BEACH (AUT)","5032951","2022-02-11 11:00","2022","02","11","11:00","-26.5","","-31.2","","64","","","","36","","30","","","","99.93","","","","-41","","NA"
"-96.57","50.70","VICTORIA BEACH (AUT)","5032951","2022-02-11 12:00","2022","02","11","12:00","-26.2","","-31.3","","62","","","","35","","29","","","","100.06","","","","-40","","NA"
"-96.57","50.70","VICTORIA BEACH (AUT)","5032951","2022-02-11 13:00","2022","02","11","13:00","-26.3","","-30.9","","65","","","","34","","36","","","","100.15","","","","-42","","NA"
"-96.57","50.70","VICTORIA BEACH (AUT)","5032951","2022-02-11 14:00","2022","02","11","14:00","-26.1","","-30.9","","64","","","","34","","35","","","","100.24","","","","-41","","NA"
"-96.57","50.70","VICTORIA BEACH (AUT)","5032951","2022-02-11 15:00","2022","02","11","15:00","-25.5","","-30.5","","62","","","","34","","33","","","","100.31","","","","-40","","NA"
"-96.57","50.70","VICTORIA BEACH (AUT)","5032951","2022-02-11 16:00","2022","02","11","16:00","-24.9","","-30.4","","60","","","","34","","28","","","","100.43","","","","-39","","NA"
"-96.57","50.70","VICTORIA BEACH (AUT)","5032951","2022-02-11 17:00","2022","02","11","17:00","-25.6","","-30.2","","66","","","","32","","18","","","","100.52","","","","-37","","NA"
"-96.57","50.70","VICTORIA BEACH (AUT)","5032951","2022-02-11 18:00","2022","02","11","18:00","-26.9","","-31.1","","68","","","","31","","5","","","","100.57","","","","-32","","NA"
"-96.57","50.70","VICTORIA BEACH (AUT)","5032951","2022-02-11 19:00","2022","02","11","19:00","-27.6","","-32.2","","64","","","","32","","12","","","","100.64","","","","-37","","NA"
"-96.57","50.70","VICTORIA BEACH (AUT)","5032951","2022-02-11 20:00","2022","02","11","20:00","-28.4","","-33.0","","65","","","","29","","6","","","","100.71","","","","-35","","NA"
"-96.57","50.70","VICTORIA BEACH (AUT)","5032951","2022-02-11 21:00","2022","02","11","21:00","-29.1","","-33.5","","66","","","","0","","1","","","","100.71","","","","-30","","NA"
"-96.57","50.70","VICTORIA BEACH (AUT)","5032951","2022-02-11 22:00","2022","02","11","22:00","-29.3","","-34.1","","63","","","","32","","3","","","","100.65","","","","-33","","NA"
"-96.57","50.70","VICTORIA BEACH (AUT)","5032951","2022-02-11 23:00","2022","02","11","23:00","-30.4","","-34.3","","68","","","","17","","2","","","","100.60","","","","-33","","NA"
"-96.57","50.70","VICTORIA BEACH (AUT)","5032951","2022-02-12 00:00","2022","02","12","00:00","-30.5","","-34.7","","67","","","","26","","6","","","","100.59","","","","-37","","NA"
"-96.57","50.70","VICTORIA BEACH (AUT)","5032951","2022-02-12 01:00","2022","02","12","01:00","-29.7","","-33.5","","69","","","","23","","4","","","","100.52","","","","-34","","NA"
"-96.57","50.70","VICTORIA BEACH (AUT)","5032951","2022-02-12 02:00","2022","02","12","02:00","-29.0","","-33.2","","67","","","","23","","5","","","","100.46","","","","-34","","NA"
"-96.57","50.70","VICTORIA BEACH (AUT)","5032951","2022-02-12 03:00","2022","02","12","03:00","-29.0","","-33.1","","67","","","","23","","17","","","","100.46","","","","-41","","NA"
"-96.57","50.70","VICTORIA BEACH (AUT)","5032951","2022-02-12 04:00","2022","02","12","04:00","-28.8","","-32.9","","68","","","","20","","8","","","","100.36","","","","-37","","NA"
"-96.57","50.70","VICTORIA BEACH (AUT)","5032951","2022-02-12 05:00","2022","02","12","05:00","-28.8","","-32.8","","69","","","","18","","7","","","","100.26","","","","-36","","NA"
"-96.57","50.70","VICTORIA BEACH (AUT)","5032951","2022-02-12 06:00","2022","02","12","06:00","-29.6","","-33.5","","69","","","","16","","6","","","","100.22","","","","-36","","NA"
"-96.57","50.70","VICTORIA BEACH (AUT)","5032951","2022-02-12 07:00","2022","02","12","07:00","-30.1","","-33.9","","70","","","","15","","5","","","","100.16","","","","-36","","NA"
"-96.57","50.70","VICTORIA BEACH (AUT)","5032951","2022-02-12 08:00","2022","02","12","08:00","-27.4","","-32.5","","61","","","","19","","10","","","","100.10","","","","-36","","NA"
"-96.57","50.70","VICTORIA BEACH (AUT)","5032951","2022-02-12 09:00","2022","02","12","09:00","-28.0","","-32.9","","63","","","","10","","12","","","","100.00","","","","-38","","NA"
"-96.57","50.70","VICTORIA BEACH (AUT)","5032951","2022-02-12 10:00","2022","02","12","10:00","-26.9","","-31.7","","64","","","","9","","10","","","","100.00","","","","-35","","NA"
"-96.57","50.70","VICTORIA BEACH (AUT)","5032951","2022-02-12 11:00","2022","02","12","11:00","-23.6","","-30.6","","53","","","","20","","15","","","","100.01","","","","-34","","NA"
"-96.57","50.70","VICTORIA BEACH (AUT)","5032951","2022-02-12 12:00","2022","02","12","12:00","-23.8","","-30.2","","55","","","","22","","6","","","","100.05","","","","-29","","NA"
"-96.57","50.70","VICTORIA BEACH (AUT)","5032951","2022-02-12 13:00","2022","02","12","13:00","-21.6","","-27.6","","58","","","","17","","1","","","","100.04","","","","-22","","NA"
"-96.57","50.70","VICTORIA BEACH (AUT)","5032951","2022-02-12 14:00","2022","02","12","14:00","-23.4","","-28.1","","65","","","","32","","9","","","","100.05","","","","-31","","NA"
"-96.57","50.70","VICTORIA BEACH (AUT)","5032951","2022-02-12 15:00","2022","02","12","15:00","-23.7","","-28.3","","66","","","","32","","12","","","","100.10","","","","-33","","NA"
"-96.57","50.70","VICTORIA BEACH (AUT)","5032951","2022-02-12 16:00","2022","02","12","16:00","-24.0","","-28.5","","66","","","","34","","14","","","","100.16","","","","-34","","NA"
"-96.57","50.70","VICTORIA BEACH (AUT)","5032951","2022-02-12 17:00","2022","02","12","17:00","-24.9","","-28.7","","70","","","","34","","12","","","","100.27","","","","-34","","NA"
"-96.57","50.70","VICTORIA BEACH (AUT)","5032951","2022-02-12 18:00","2022","02","12","18:00","-25.5","","-29.2","","71","","","","34","","14","","","","100.34","","","","-35","","NA"
"-96.57","50.70","VICTORIA BEACH (AUT)","5032951","2022-02-12 19:00","2022","02","12","19:00","-24.7","","-29.4","","65","","","","35","","12","","","","100.40","","","","-34","","NA"
"-96.57","50.70","VICTORIA BEACH (AUT)","5032951","2022-02-12 20:00","2022","02","12","20:00","-25.8","","-29.9","","68","","","","34","","12","","","","100.45","","","","-35","","NA"
"-96.57","50.70","VICTORIA BEACH (AUT)","5032951","2022-02-12 21:00","2022","02","12","21:00","-25.9","","-29.7","","70","","","","35","","10","","","","100.48","","","","-34","","NA"
"-96.57","50.70","VICTORIA BEACH (AUT)","5032951","2022-02-12 22:00","2022","02","12","22:00","-26.8","","-30.3","","72","","","","34","","8","","","","100.51","","","","-34","","NA"
"-96.57","50.70","VICTORIA BEACH (AUT)","5032951","2022-02-12 23:00","2022","02","12","23:00","-29.0","","-32.0","","75","","","","12","","1","","","","100.48","","","","-30","","NA"
"-96.57","50.70","VICTORIA BEACH (AUT)","5032951","2022-02-13 00:00","2022","02","13","00:00","-29.2","","-32.2","","76","","","","25","","5","","","","100.49","","","","-35","","NA"
"-96.57","50.70","VICTORIA BEACH (AUT)","5032951","2022-02-13 01:00","2022","02","13","01:00","-28.8","","-31.7","","76","","","","0","","1","","","","100.49","","","","-30","","NA"
"-96.57","50.70","VICTORIA BEACH (AUT)","5032951","2022-02-13 02:00","2022","02","13","02:00","-31.4","","-34.4","","74","","","","13","","1","","","","100.44","","","","-33","","NA"
"-96.57","50.70","VICTORIA BEACH (AUT)","5032951","2022-02-13 03:00","2022","02","13","03:00","-31.3","","-34.4","","74","","","","13","","4","","","","100.43","","","","-36","","NA"
"-96.57","50.70","VICTORIA BEACH (AUT)","5032951","2022-02-13 04:00","2022","02","13","04:00","-29.8","","-32.8","","75","","","","10","","7","","","","100.34","","","","-37","","NA"
"-96.57","50.70","VICTORIA BEACH (AUT)","5032951","2022-02-13 05:00","2022","02","13","05:00","-29.9","","-32.8","","75","","","","12","","11","","","","100.26","","","","-40","","NA"
"-96.57","50.70","VICTORIA BEACH (AUT)","5032951","2022-02-13 06:00","2022","02","13","06:00","-30.2","","-33.4","","74","","","","10","","5","","","","100.22","","","","-36","","NA"
"-96.57","50.70","VICTORIA BEACH (AUT)","5032951","2022-02-13 07:00","2022","02","13","07:00","-28.2","","-31.0","","77","","","","13","","10","","","","100.00","","","","-37","","NA"
"-96.57","50.70","VICTORIA BEACH (AUT)","5032951","2022-02-13 08:00","2022","02","13","08:00","-23.6","","-27.4","","71","","","","18","","20","","","","99.88","","","","-35","","NA"
"-96.57","50.70","VICTORIA BEACH (AUT)","5032951","2022-02-13 09:00","2022","02","13","09:00","-22.6","","-27.4","","65","","","","19","","24","","","","99.77","","","","-35","","NA"
"-96.57","50.70","VICTORIA BEACH (AUT)","5032951","2022-02-13 10:00","2022","02","13","10:00","-22.1","","-27.7","","60","","","","19","","27","","","","99.73","","","","-35","","NA"
"-96.57","50.70","VICTORIA BEACH (AUT)","5032951","2022-02-13 11:00","2022","02","13","11:00","-20.7","","-26.7","","59","","","","17","","21","","","","99.63","","","","-32","","NA"
"-96.57","50.70","VICTORIA BEACH (AUT)","5032951","2022-02-13 12:00","2022","02","13","12:00","-21.1","","-26.2","","64","","","","15","","22","","","","99.51","","","","-32","","NA"
"-96.57","50.70","VICTORIA BEACH (AUT)","5032951","2022-02-13 13:00","2022","02","13","13:00","-20.7","","-24.5","","71","","","","15","","24","","","","99.35","","","","-32","","NA"
"-96.57","50.70","VICTORIA BEACH (AUT)","5032951","2022-02-13 14:00","2022","02","13","14:00","-19.5","","-23.2","","73","","","","13","","24","","","","99.23","","","","-31","","NA"
"-96.57","50.70","VICTORIA BEACH (AUT)","5032951","2022-02-13 15:00","2022","02","13","15:00","-19.1","","-22.9","","72","","","","12","","27","","","","99.15","","","","-31","","NA"
"-96.57","50.70","VICTORIA BEACH (AUT)","5032951","2022-02-13 16:00","2022","02","13","16:00","-18.4","","-22.2","","72","","","","12","","27","","","","99.17","","","","-30","","NA"
"-96.57","50.70","VICTORIA BEACH (AUT)","5032951","2022-02-13 17:00","2022","02","13","17:00","-18.1","","-22.4","","69","","","","12","","28","","","","99.17","","","","-30","","NA"
"-96.57","50.70","VICTORIA BEACH (AUT)","5032951","2022-02-13 18:00","2022","02","13","18:00","-18.3","","-22.0","","73","","","","11","","15","","","","99.33","","","","-27","","NA"
"-96.57","50.70","VICTORIA BEACH (AUT)","5032951","2022-02-13 19:00","2022","02","13","19:00","-18.9","","-22.7","","72","","","","10","","17","","","","99.41","","","","-28","","NA"
"-96.57","50.70","VICTORIA BEACH (AUT)","5032951","2022-02-13 20:00","2022","02","13","20:00","-20.2","","-23.6","","75","","","","9","","11","","","","99.49","","","","-28","","NA"
"-96.57","50.70","VICTORIA BEACH (AUT)","5032951","2022-02-13 21:00","2022","02","13","21:00","-21.0","","-24.1","","76","","","","8","","6","","","","99.60","","","","-26","","NA"
"-96.57","50.70","VICTORIA BEACH (AUT)","5032951","2022-02-13 22:00","2022","02","13","22:00","-21.8","","-24.3","","80","","","","35","","2","","","","99.66","","","","-24","","NA"
"-96.57","50.70","VICTORIA BEACH (AUT)","5032951","2022-02-13 23:00","2022","02","13","23:00","-26.0","","-28.9","","76","","","","8","","2","","","","99.74","","","","-28","","NA"
"-96.57","50.70","VICTORIA BEACH (AUT)","5032951","2022-02-14 00:00","2022","02","14","00:00","-26.5","","-29.3","","77","","","","","","0","","","","99.81","","","","","","NA"
"-96.57","50.70","VICTORIA BEACH (AUT)","5032951","2022-02-14 01:00","2022","02","14","01:00","-27.7","","-30.6","","77","","","","27","","2","","","","99.84","","","","-30","","NA"
"-96.57","50.70","VICTORIA BEACH (AUT)","5032951","2022-02-14 02:00","2022","02","14","02:00","-27.4","","-29.9","","79","","","","27","","3","","","","99.87","","","","-31","","NA"
"-96.57","50.70","VICTORIA BEACH (AUT)","5032951","2022-02-14 03:00","2022","02","14","03:00","-26.4","","-28.7","","81","","","","25","","6","","","","99.88","","","","-32","","NA"
"-96.57","50.70","VICTORIA BEACH (AUT)","5032951","2022-02-14 04:00","2022","02","14","04:00","-26.3","","-28.9","","79","","","","23","","3","","","","99.91","","","","-29","","NA"
"-96.57","50.70","VICTORIA BEACH (AUT)","5032951","2022-02-14 05:00","2022","02","14","05:00","-24.9","","-27.6","","79","","","","28","","3","","","","99.93","","","","-28","","NA"
"-96.57","50.70","VICTORIA BEACH (AUT)","5032951","2022-02-14 06:00","2022","02","14","06:00","-23.2","","-26.0","","78","","","","23","","11","","","","99.93","","","","-31","","NA"
"-96.57","50.70","VICTORIA BEACH (AUT)","5032951","2022-02-14 07:00","2022","02","14","07:00","-22.8","","-25.6","","78","","","","24","","13","","","","99.98","","","","-32","","NA"
"-96.57","50.70","VICTORIA BEACH (AUT)","5032951","2022-02-14 08:00","2022","02","14","08:00","-22.0","","-24.8","","78","","","","26","","11","","","","100.01","","","","-30","","NA"
"-96.57","50.70","VICTORIA BEACH (AUT)","5032951","2022-02-14 09:00","2022","02","14","09:00","-21.2","","-24.0","","78","","","","25","","10","","","","100.03","","","","-29","","NA"
"-96.57","50.70","VICTORIA BEACH (AUT)","5032951","2022-02-14 10:00","2022","02","14","10:00","-20.1","","-23.1","","77","","","","24","","8","","","","100.05","","","","-26","","NA"
"-96.57","50.70","VICTORIA BEACH (AUT)","5032951","2022-02-14 11:00","2022","02","14","11:00","-19.9","","-23.2","","75","","","","23","","14","","","","100.12","","","","-29","","NA"
"-96.57","50.70","VICTORIA BEACH (AUT)","5032951","2022-02-14 12:00","2022","02","14","12:00","-18.8","","-22.7","","71","","","","24","","10","","","","100.18","","","","-26","","NA"
"-96.57","50.70","VICTORIA BEACH (AUT)","5032951","2022-02-14 13:00","2022","02","14","13:00","-18.6","","-22.4","","72","","","","24","","10","","","","100.16","","","","-26","","NA"
"-96.57","50.70","VICTORIA BEACH (AUT)","5032951","2022-02-14 14:00","2022","02","14","14:00","-17.6","","-21.5","","72","","","","28","","7","","","","100.13","","","","-23","","NA"
"-96.57","50.70","VICTORIA BEACH (AUT)","5032951","2022-02-14 15:00","2022","02","14","15:00","-16.9","","-21.3","","69","","","","25","","5","","","","100.11","","","","-21","","NA"
"-96.57","50.70","VICTORIA BEACH (AUT)","5032951","2022-02-14 16:00","2022","02","14","16:00","-16.8","","-21.2","","69","","","","30","","3","","","","100.13","","","","-19","","NA"
"-96.57","50.70","VICTORIA BEACH (AUT)","5032951","2022-02-14 17:00","2022","02","14","17:00","-17.1","","-22.0","","66","","","","32","","1","","","","100.11","","","","-18","","NA"
"-96.57","50.70","VICTORIA BEACH (AUT)","5032951","2022-02-14 18:00","2022","02","14","18:00","-18.5","","-21.4","","78","","","","24","","7","","","","100.15","","","","-24","","NA"
"-96.57","50.70","VICTORIA BEACH (AUT)","5032951","2022-02-14 19:00","2022","02","14","19:00","-20.6","","-22.7","","83","","","","0","","1","","","","100.18","","","","-21","","NA"
"-96.57","50.70","VICTORIA BEACH (AUT)","5032951","2022-02-14 20:00","2022","02","14","20:00","-22.5","","-24.9","","81","","","","13","","3","","","","100.16","","","","-25","","NA"
"-96.57","50.70","VICTORIA BEACH (AUT)","5032951","2022-02-14 21:00","2022","02","14","21:00","-23.3","","-25.6","","81","","","","9","","3","","","","100.16","","","","-26","","NA"
"-96.57","50.70","VICTORIA BEACH (AUT)","5032951","2022-02-14 22:00","2022","02","14","22:00","-24.0","","-26.7","","79","","","","13","","5","","","","100.16","","","","-29","","NA"
"-96.57","50.70","VICTORIA BEACH (AUT)","5032951","2022-02-14 23:00","2022","02","14","23:00","-25.7","","-28.5","","77","","","","9","","4","","","","100.17","","","","-30","","NA"
"-96.57","50.70","VICTORIA BEACH (AUT)","5032951","2022-02-15 00:00","2022","02","15","00:00","-27.1","","-30.2","","75","","","","9","","5","","","","100.16","","","","-32","","NA"
"-96.57","50.70","VICTORIA BEACH (AUT)","5032951","2022-02-15 01:00","2022","02","15","01:00","-26.3","","-28.8","","80","","","","12","","5","","","","100.13","","","","-31","","NA"
"-96.57","50.70","VICTORIA BEACH (AUT)","5032951","2022-02-15 02:00","2022","02","15","02:00","-26.3","","-29.5","","74","","","","12","","6","","","","100.09","","","","-32","","NA"
"-96.57","50.70","VICTORIA BEACH (AUT)","5032951","2022-02-15 03:00","2022","02","15","03:00","-22.8","","-25.1","","81","","","","10","","9","","","","100.04","","","","-30","","NA"
"-96.57","50.70","VICTORIA BEACH (AUT)","5032951","2022-02-15 04:00","2022","02","15","04:00","-23.5","","-26.0","","80","","","","10","","11","","","","99.94","","","","-32","","NA"
"-96.57","50.70","VICTORIA BEACH (AUT)","5032951","2022-02-15 05:00","2022","02","15","05:00","-23.7","","-26.3","","79","","","","10","","12","","","","99.87","","","","-33","","NA"
"-96.57","50.70","VICTORIA BEACH (AUT)","5032951","2022-02-15 06:00","2022","02","15","06:00","-24.5","","-27.3","","78","","","","10","","15","","","","99.77","","","","-35","","NA"
"-96.57","50.70","VICTORIA BEACH (AUT)","5032951","2022-02-15 07:00","2022","02","15","07:00","-23.0","","-25.8","","78","","","","10","","16","","","","99.67","","","","-33","","NA"
"-96.57","50.70","VICTORIA BEACH (AUT)","5032951","2022-02-15 08:00","2022","02","15","08:00","-22.1","","-24.9","","78","","","","11","","15","","","","99.63","","","","-32","","NA"
"-96.57","50.70","VICTORIA BEACH (AUT)","5032951","2022-02-15 09:00","2022","02","15","09:00","-20.4","","-23.4","","77","","","","12","","19","","","","99.60","","","","-31","","NA"
"-96.57","50.70","VICTORIA BEACH (AUT)","5032951","2022-02-15 10:00","2022","02","15","10:00","-18.6","","-21.9","","76","","","","12","","19","","","","99.47","","","","-28","","NA"
"-96.57","50.70","VICTORIA BEACH (AUT)","5032951","2022-02-15 11:00","2022","02","15","11:00","-16.8","","-20.1","","76","","","","12","","23","","","","99.32","","","","-27","","NA"
"-96.57","50.70","VICTORIA BEACH (AUT)","5032951","2022-02-15 12:00","2022","02","15","12:00","-15.0","","-18.2","","76","","","","12","","19","","","","99.17","","","","-24","","NA"
"-96.57","50.70","VICTORIA BEACH (AUT)","5032951","2022-02-15 13:00","2022","02","15","13:00","-14.9","","-17.5","","80","","","","10","","22","","","","98.97","","","","-24","","NA"
"-96.57","50.70","VICTORIA BEACH (AUT)","5032951","2022-02-15 14:00","2022","02","15","14:00","-14.0","","-16.6","","81","","","","10","","21","","","","98.81","","","","-23","","NA"
"-96.57","50.70","VICTORIA BEACH (AUT)","5032951","2022-02-15 15:00","2022","02","15","15:00","-13.3","","-16.0","","81","","","","10","","25","","","","98.63","","","","-23","","NA"
"-96.57","50.70","VICTORIA BEACH (AUT)","5032951","2022-02-15 16:00","2022","02","15","16:00","-13.0","","-15.6","","81","","","","11","","25","","","","98.48","","","","-23","","NA"
"-96.57","50.70","VICTORIA BEACH (AUT)","5032951","2022-02-15 17:00","2022","02","15","17:00","-12.9","","-15.3","","82","","","","11","","18","","","","98.37","","","","-21","","NA"
"-96.57","50.70","VICTORIA BEACH (AUT)","5032951","2022-02-15 18:00","2022","02","15","18:00","-12.7","","-15.0","","83","","","","13","","18","","","","98.28","","","","-21","","NA"
"-96.57","50.70","VICTORIA BEACH (AUT)","5032951","2022-02-15 19:00","2022","02","15","19:00","-12.6","","-15.0","","82","","","","14","","19","","","","98.24","","","","-21","","NA"
"-96.57","50.70","VICTORIA BEACH (AUT)","5032951","2022-02-15 20:00","2022","02","15","20:00","-12.6","","-15.1","","82","","","","15","","15","","","","98.17","","","","-20","","NA"
"-96.57","50.70","VICTORIA BEACH (AUT)","5032951","2022-02-15 21:00","2022","02","15","21:00","-13.7","","-15.8","","84","","","","15","","11","","","","98.09","","","","-20","","NA"
"-96.57","50.70","VICTORIA BEACH (AUT)","5032951","2022-02-15 22:00","2022","02","15","22:00","-18.8","","-20.9","","84","","","","23","","7","","","","98.04","","","","-24","","NA"
"-96.57","50.70","VICTORIA BEACH (AUT)","5032951","2022-02-15 23:00","2022","02","15","23:00","-16.6","","-18.7","","84","","","","23","","12","","","","97.97","","","","-24","","NA"
"-96.57","50.70","VICTORIA BEACH (AUT)","5032951","2022-02-16 00:00","2022","02","16","00:00","-19.7","","-22.1","","81","","","","25","","10","","","","97.94","","","","-27","","NA"
"-96.57","50.70","VICTORIA BEACH (AUT)","5032951","2022-02-16 01:00","2022","02","16","01:00","-20.6","","-23.1","","80","","","","24","","14","","","","97.90","","","","-29","","NA"
"-96.57","50.70","VICTORIA BEACH (AUT)","5032951","2022-02-16 02:00","2022","02","16","02:00","-18.5","","-20.8","","82","","","","24","","15","","","","97.88","","","","-27","","NA"
"-96.57","50.70","VICTORIA BEACH (AUT)","5032951","2022-02-16 03:00","2022","02","16","03:00","-16.3","","-18.4","","84","","","","26","","16","","","","97.91","","","","-25","","NA"
"-96.57","50.70","VICTORIA BEACH (AUT)","5032951","2022-02-16 04:00","2022","02","16","04:00","-16.6","","-18.7","","83","","","","25","","16","","","","97.96","","","","-25","","NA"
"-96.57","50.70","VICTORIA BEACH (AUT)","5032951","2022-02-16 05:00","2022","02","16","05:00","-15.7","","-17.7","","84","","","","27","","14","","","","98.08","","","","-23","","NA"
"-96.57","50.70","VICTORIA BEACH (AUT)","5032951","2022-02-16 06:00","2022","02","16","06:00","-14.1","","-16.0","","85","","","","31","","20","","","","98.13","","","","-23","","NA"
"-96.57","50.70","VICTORIA BEACH (AUT)","5032951","2022-02-16 07:00","2022","02","16","07:00","-13.6","","-15.5","","86","","","","29","","22","","","","98.19","","","","-23","","NA"
"-96.57","50.70","VICTORIA BEACH (AUT)","5032951","2022-02-16 08:00","2022","02","16","08:00","-14.3","","-17.8","","74","","","","32","","42","","","","98.30","","","","-27","","NA"
"-96.57","50.70","VICTORIA BEACH (AUT)","5032951","2022-02-16 09:00","2022","02","16","09:00","-16.4","","-19.6","","76","","","","31","","39","","","","98.49","","","","-29","","NA"
"-96.57","50.70","VICTORIA BEACH (AUT)","5032951","2022-02-16 10:00","2022","02","16","10:00","-17.6","","-21.1","","74","","","","31","","42","","","","98.62","","","","-31","","NA"
"-96.57","50.70","VICTORIA BEACH (AUT)","5032951","2022-02-16 11:00","2022","02","16","11:00","-17.5","","-21.2","","73","","","","31","","36","","","","98.76","","","","-30","","NA"
"-96.57","50.70","VICTORIA BEACH (AUT)","5032951","2022-02-16 12:00","2022","02","16","12:00","-18.1","","-22.6","","68","","","","31","","34","","","","98.90","","","","-31","","NA"
"-96.57","50.70","VICTORIA BEACH (AUT)","5032951","2022-02-16 13:00","2022","02","16","13:00","-18.9","","-23.7","","66","","","","30","","36","","","","99.00","","","","-32","","NA"
"-96.57","50.70","VICTORIA BEACH (AUT)","5032951","2022-02-16 14:00","2022","02","16","14:00","-19.0","","-24.2","","64","","","","31","","34","","","","99.07","","","","-32","","NA"
"-96.57","50.70","VICTORIA BEACH (AUT)","5032951","2022-02-16 15:00","2022","02","16","15:00","-19.2","","-23.9","","66","","","","32","","23","","","","99.19","","","","-30","","NA"
"-96.57","50.70","VICTORIA BEACH (AUT)","5032951","2022-02-16 16:00","2022","02","16","16:00","-20.3","","-24.7","","68","","","","34","","19","","","","99.32","","","","-31","","NA"
"-96.57","50.70","VICTORIA BEACH (AUT)","5032951","2022-02-16 17:00","2022","02","16","17:00","-21.2","","-25.5","","69","","","","34","","15","","","","99.41","","","","-31","","NA"
"-96.57","50.70","VICTORIA BEACH (AUT)","5032951","2022-02-16 18:00","2022","02","16","18:00","-22.3","","-26.4","","69","","","","36","","7","","","","99.54","","","","-28","","NA"
"-96.57","50.70","VICTORIA BEACH (AUT)","5032951","2022-02-16 19:00","2022","02","16","19:00","-24.4","","-28.0","","72","","","","1","","12","","","","99.72","","","","-33","","NA"
"-96.57","50.70","VICTORIA BEACH (AUT)","5032951","2022-02-16 20:00","2022","02","16","20:00","-25.0","","-28.7","","71","","","","36","","11","","","","99.86","","","","-34","","NA"
"-96.57","50.70","VICTORIA BEACH (AUT)","5032951","2022-02-16 21:00","2022","02","16","21:00","-26.0","","-29.9","","70","","","","33","","20","","","","99.96","","","","-38","","NA"
"-96.57","50.70","VICTORIA BEACH (AUT)","5032951","2022-02-16 22:00","2022","02","16","22:00","-26.1","","-30.3","","68","","","","32","","24","","","","100.04","","","","-39","","NA"
"-96.57","50.70","VICTORIA BEACH (AUT)","5032951","2022-02-16 23:00","2022","02","16","23:00","-28.0","","-31.6","","71","","","","30","","20","","","","100.07","","","","-41","","NA"
"-96.57","50.70","VICTORIA BEACH (AUT)","5032951","2022-02-17 00:00","2022","02","17","00:00","-29.1","","-32.7","","72","","","","31","","19","","","","100.13","","","","-42","","NA"
"-96.57","50.70","VICTORIA BEACH (AUT)","5032951","2022-02-17 01:00","2022","02","17","01:00","-29.5","","-32.8","","73","","","","33","","9","","","","100.20","","","","-38","","NA"
"-96.57","50.70","VICTORIA BEACH (AUT)","5032951","2022-02-17 02:00","2022","02","17","02:00","-29.4","","-32.8","","72","","","","32","","6","","","","100.22","","","","-36","","NA"
"-96.57","50.70","VICTORIA BEACH (AUT)","5032951","2022-02-17 03:00","2022","02","17","03:00","-29.6","","-32.8","","73","","","","30","","3","","","","100.21","","","","-33","","NA"
"-96.57","50.70","VICTORIA BEACH (AUT)","5032951","2022-02-17 04:00","2022","02","17","04:00","-30.3","","-33.4","","74","","","","27","","5","","","","100.20","","","","-36","","NA"
"-96.57","50.70","VICTORIA BEACH (AUT)","5032951","2022-02-17 05:00","2022","02","17","05:00","-31.2","","-34.2","","75","","","","26","","4","","","","100.21","","","","-36","","NA"
"-96.57","50.70","VICTORIA BEACH (AUT)","5032951","2022-02-17 06:00","2022","02","17","06:00","-31.3","","-34.4","","74","","","","24","","5","","","","100.23","","","","-37","","NA"
"-96.57","50.70","VICTORIA BEACH (AUT)","5032951","2022-02-17 07:00","2022","02","17","07:00","-31.1","","-34.2","","74","","","","24","","4","","","","100.22","","","","-36","","NA"
"-96.57","50.70","VICTORIA BEACH (AUT)","5032951","2022-02-17 08:00","2022","02","17","08:00","-31.2","","-34.4","","74","","","","25","","5","","","","100.24","","","","-37","","NA"
"-96.57","50.70","VICTORIA BEACH (AUT)","5032951","2022-02-17 09:00","2022","02","17","09:00","-27.6","","-31.5","","70","","","","","","0","","","","100.28","","","","","","NA"
"-96.57","50.70","VICTORIA BEACH (AUT)","5032951","2022-02-17 10:00","2022","02","17","10:00","-28.9","","-32.9","","68","","","","29","","3","","","","100.23","","","","-32","","NA"
"-96.57","50.70","VICTORIA BEACH (AUT)","5032951","2022-02-17 11:00","2022","02","17","11:00","-28.3","","-32.4","","68","","","","26","","3","","","","100.19","","","","-32","","NA"
"-96.57","50.70","VICTORIA BEACH (AUT)","5032951","2022-02-17 12:00","2022","02","17","12:00","-27.5","","-31.6","","68","","","","27","","7","","","","100.15","","","","-34","","NA"
"-96.57","50.70","VICTORIA BEACH (AUT)","5032951","2022-02-17 13:00","2022","02","17","13:00","-24.4","","-29.2","","65","","","","23","","18","","","","100.07","","","","-35","","NA"
"-96.57","50.70","VICTORIA BEACH (AUT)","5032951","2022-02-17 14:00","2022","02","17","14:00","-24.0","","-29.3","","61","","","","23","","20","","","","99.93","","","","-36","","NA"
"-96.57","50.70","VICTORIA BEACH (AUT)","5032951","2022-02-17 15:00","2022","02","17","15:00","-23.8","","-28.9","","63","","","","24","","16","","","","99.82","","","","-34","","NA"
"-96.57","50.70","VICTORIA BEACH (AUT)","5032951","2022-02-17 16:00","2022","02","17","16:00","-24.0","","-29.1","","63","","","","24","","16","","","","99.72","","","","-34","","NA"
"-96.57","50.70","VICTORIA BEACH (AUT)","5032951","2022-02-17 17:00","2022","02","17","17:00","-23.5","","-29.0","","61","","","","22","","7","","","","99.63","","","","-30","","NA"
"-96.57","50.70","VICTORIA BEACH (AUT)","5032951","2022-02-17 18:00","2022","02","17","18:00","-24.8","","-30.5","","59","","","","18","","5","","","","99.55","","","","-30","","NA"
"-96.57","50.70","VICTORIA BEACH (AUT)","5032951","2022-02-17 19:00","2022","02","17","19:00","-24.6","","-29.3","","65","","","","10","","7","","","","99.43","","","","-31","","NA"
"-96.57","50.70","VICTORIA BEACH (AUT)","5032951","2022-02-17 20:00","2022","02","17","20:00","-26.7","","-30.1","","72","","","","12","","9","","","","99.32","","","","-35","","NA"
"-96.57","50.70","VICTORIA BEACH (AUT)","5032951","2022-02-17 21:00","2022","02","17","21:00","-25.8","","-29.8","","69","","","","12","","14","","","","99.17","","","","-36","","NA"
"-96.57","50.70","VICTORIA BEACH (AUT)","5032951","2022-02-17 22:00","2022","02","17","22:00","-26.6","","-30.5","","70","","","","13","","11","","","","99.02","","","","-36","","NA"
"-96.57","50.70","VICTORIA BEACH (AUT)","5032951","2022-02-17 23:00","2022","02","17","23:00","-24.0","","-28.3","","68","","","","12","","16","","","","98.89","","","","-34","","NA"
"-96.57","50.70","VICTORIA BEACH (AUT)","5032951","2022-02-18 00:00","2022","02","18","00:00","-23.2","","-28.4","","62","","","","13","","22","","","","98.67","","","","-35","","NA"
"-96.57","50.70","VICTORIA BEACH (AUT)","5032951","2022-02-18 01:00","2022","02","18","01:00","-23.7","","-28.5","","65","","","","11","","22","","","","98.49","","","","-36","","NA"
"-96.57","50.70","VICTORIA BEACH (AUT)","5032951","2022-02-18 02:00","2022","02","18","02:00","-22.1","","-27.1","","63","","","","12","","24","","","","98.26","","","","-34","","NA"
"-96.57","50.70","VICTORIA BEACH (AUT)","5032951","2022-02-18 03:00","2022","02","18","03:00","-21.0","","-24.8","","72","","","","12","","28","","","","98.04","","","","-34","","NA"
"-96.57","50.70","VICTORIA BEACH (AUT)","5032951","2022-02-18 04:00","2022","02","18","04:00","-20.7","","-24.0","","75","","","","10","","29","","","","97.84","","","","-33","","NA"
"-96.57","50.70","VICTORIA BEACH (AUT)","5032951","2022-02-18 05:00","2022","02","18","05:00","-20.1","","-23.0","","77","","","","10","","31","","","","97.70","","","","-33","","NA"
"-96.57","50.70","VICTORIA BEACH (AUT)","5032951","2022-02-18 06:00","2022","02","18","06:00","-19.7","","-22.6","","78","","","","9","","22","","","","97.66","","","","-31","","NA"
"-96.57","50.70","VICTORIA BEACH (AUT)","5032951","2022-02-18 07:00","2022","02","18","07:00","-19.5","","-22.4","","77","","","","9","","23","","","","97.61","","","","-31","","NA"
"-96.57","50.70","VICTORIA BEACH (AUT)","5032951","2022-02-18 08:00","2022","02","18","08:00","-19.4","","-22.4","","77","","","","6","","16","","","","97.67","","","","-29","","NA"
"-96.57","50.70","VICTORIA BEACH (AUT)","5032951","2022-02-18 09:00","2022","02","18","09:00","-19.3","","-22.6","","75","","","","1","","14","","","","97.81","","","","-28","","NA"
"-96.57","50.70","VICTORIA BEACH (AUT)","5032951","2022-02-18 10:00","2022","02","18","10:00","-19.5","","-23.0","","74","","","","35","","19","","","","97.96","","","","-30","","NA"
"-96.57","50.70","VICTORIA BEACH (AUT)","5032951","2022-02-18 11:00","2022","02","18","11:00","-19.6","","-23.3","","72","","","","35","","24","","","","98.11","","","","-31","","NA"
"-96.57","50.70","VICTORIA BEACH (AUT)","5032951","2022-02-18 12:00","2022","02","18","12:00","-19.3","","-23.2","","71","","","","34","","28","","","","98.30","","","","-31","","NA"
"-96.57","50.70","VICTORIA BEACH (AUT)","5032951","2022-02-18 13:00","2022","02","18","13:00","-18.6","","-22.0","","75","","","","34","","40","","","","98.39","","","","-32","","NA"
"-96.57","50.70","VICTORIA BEACH (AUT)","5032951","2022-02-18 14:00","2022","02","18","14:00","-18.3","","-21.9","","73","","","","34","","44","","","","98.56","","","","-32","","NA"
"-96.57","50.70","VICTORIA BEACH (AUT)","5032951","2022-02-18 15:00","2022","02","18","15:00","-18.5","","-22.1","","73","","","","32","","39","","","","98.75","","","","-32","","NA"
"-96.57","50.70","VICTORIA BEACH (AUT)","5032951","2022-02-18 16:00","2022","02","18","16:00","-18.3","","-22.3","","71","","","","33","","36","","","","98.95","","","","-31","","NA"
"-96.57","50.70","VICTORIA BEACH (AUT)","5032951","2022-02-18 17:00","2022","02","18","17:00","-19.0","","-23.2","","70","","","","32","","33","","","","99.12","","","","-32","","NA"
"-96.57","50.70","VICTORIA BEACH (AUT)","5032951","2022-02-18 18:00","2022","02","18","18:00","-20.5","","-24.4","","71","","","","34","","29","","","","99.27","","","","-33","","NA"
"-96.57","50.70","VICTORIA BEACH (AUT)","5032951","2022-02-18 19:00","2022","02","18","19:00","-22.3","","-26.0","","72","","","","32","","18","","","","99.41","","","","-33","","NA"
"-96.57","50.70","VICTORIA BEACH (AUT)","5032951","2022-02-18 20:00","2022","02","18","20:00","-24.0","","-27.4","","74","","","","32","","5","","","","99.49","","","","-29","","NA"
"-96.57","50.70","VICTORIA BEACH (AUT)","5032951","2022-02-18 21:00","2022","02","18","21:00","-23.2","","-26.5","","74","","","","27","","6","","","","99.54","","","","-29","","NA"
"-96.57","50.70","VICTORIA BEACH (AUT)","5032951","2022-02-18 22:00","2022","02","18","22:00","-24.2","","-27.4","","75","","","","28","","16","","","","99.59","","","","-35","","NA"
"-96.57","50.70","VICTORIA BEACH (AUT)","5032951","2022-02-18 23:00","2022","02","18","23:00","-25.7","","-28.7","","76","","","","28","","2","","","","99.62","","","","-28","","NA"
"-96.57","50.70","VICTORIA BEACH (AUT)","5032951","2022-02-19 00:00","2022","02","19","00:00","-26.4","","-29.5","","75","","","","29","","8","","","","99.66","","","","-34","","NA"
"-96.57","50.70","VICTORIA BEACH (AUT)","5032951","2022-02-19 01:00","2022","02","19","01:00","-26.7","","-29.9","","75","","","","25","","17","","","","99.67","","","","-38","","NA"
"-96.57","50.70","VICTORIA BEACH (AUT)","5032951","2022-02-19 02:00","2022","02","19","02:00","-25.6","","-28.5","","77","","","","26","","16","","","","99.64","","","","-36","","NA"
"-96.57","50.70","VICTORIA BEACH (AUT)","5032951","2022-02-19 03:00","2022","02","19","03:00","-25.8","","-28.7","","77","","","","25","","7","","","","99.62","","","","-32","","NA"
"-96.57","50.70","VICTORIA BEACH (AUT)","5032951","2022-02-19 04:00","2022","02","19","04:00","-24.8","","-27.9","","75","","","","21","","6","","","","99.54","","","","-31","","NA"
"-96.57","50.70","VICTORIA BEACH (AUT)","5032951","2022-02-19 05:00","2022","02","19","05:00","-24.1","","-27.2","","76","","","","18","","8","","","","99.44","","","","-31","","NA"
"-96.57","50.70","VICTORIA BEACH (AUT)","5032951","2022-02-19 06:00","2022","02","19","06:00","-24.0","","-27.3","","74","","","","21","","24","","","","99.40","","","","-37","","NA"
"-96.57","50.70","VICTORIA BEACH (AUT)","5032951","2022-02-19 07:00","2022","02","19","07:00","-24.0","","-27.6","","72","","","","20","","18","","","","99.29","","","","-35","","NA"
"-96.57","50.70","VICTORIA BEACH (AUT)","5032951","2022-02-19 08:00","2022","02","19","08:00","-23.5","","-27.1","","72","","","","17","","11","","","","99.15","","","","-32","","NA"
"-96.57","50.70","VICTORIA BEACH (AUT)","5032951","2022-02-19 09:00","2022","02","19","09:00","-22.2","","-26.2","","70","","","","14","","14","","","","98.90","","","","-31","","NA"
"-96.57","50.70","VICTORIA BEACH (AUT)","5032951","2022-02-19 10:00","2022","02","19","10:00","-19.7","","-25.0","","63","","","","18","","23","","","","98.62","","","","-31","","NA"
"-96.57","50.70","VICTORIA BEACH (AUT)","5032951","2022-02-19 11:00","2022","02","19","11:00","-17.7","","-23.5","","61","","","","18","","35","","","","98.41","","","","-30","","NA"
"-96.57","50.70","VICTORIA BEACH (AUT)","5032951","2022-02-19 12:00","2022","02","19","12:00","-18.1","","-21.6","","74","","","","16","","30","","","","98.17","","","","-30","","NA"
"-96.57","50.70","VICTORIA BEACH (AUT)","5032951","2022-02-19 13:00","2022","02","19","13:00","-16.8","","-20.2","","75","","","","15","","34","","","","97.84","","","","-29","","NA"
"-96.57","50.70","VICTORIA BEACH (AUT)","5032951","2022-02-19 14:00","2022","02","19","14:00","-15.3","","-18.7","","75","","","","16","","37","","","","97.58","","","","-27","","NA"
"-96.57","50.70","VICTORIA BEACH (AUT)","5032951","2022-02-19 15:00","2022","02","19","15:00","-13.8","","-17.0","","77","","","","17","","30","","","","97.43","","","","-24","","NA"
"-96.57","50.70","VICTORIA BEACH (AUT)","5032951","2022-02-19 16:00","2022","02","19","16:00","-12.7","","-15.6","","79","","","","17","","27","","","","97.31","","","","-23","","NA"
"-96.57","50.70","VICTORIA BEACH (AUT)","5032951","2022-02-19 17:00","2022","02","19","17:00","-11.4","","-14.3","","79","","","","16","","19","","","","97.21","","","","-19","","NA"
"-96.57","50.70","VICTORIA BEACH (AUT)","5032951","2022-02-19 18:00","2022","02","19","18:00","-10.7","","-13.5","","80","","","","19","","23","","","","97.11","","","","-19","","NA"
"-96.57","50.70","VICTORIA BEACH (AUT)","5032951","2022-02-19 19:00","2022","02","19","19:00","-9.4","","-11.8","","83","","","","20","","29","","","","97.05","","","","-19","","NA"
"-96.57","50.70","VICTORIA BEACH (AUT)","5032951","2022-02-19 20:00","2022","02","19","20:00","-8.8","","-10.7","","86","","","","20","","15","","","","97.01","","","","-15","","NA"
"-96.57","50.70","VICTORIA BEACH (AUT)","5032951","2022-02-19 21:00","2022","02","19","21:00","-9.0","","-10.6","","88","","","","25","","3","","","","96.99","","","","-11","","NA"
"-96.57","50.70","VICTORIA BEACH (AUT)","5032951","2022-02-19 22:00","2022","02","19","22:00","-10.0","","-11.6","","88","","","","3","","5","","","","97.05","","","","-13","","NA"
"-96.57","50.70","VICTORIA BEACH (AUT)","5032951","2022-02-19 23:00","2022","02","19","23:00","-10.8","","-13.1","","83","","","","36","","11","","","","97.10","","","","-17","","NA"
"-96.57","50.70","VICTORIA BEACH (AUT)","5032951","2022-02-20 00:00","2022","02","20","00:00","-12.6","","-15.5","","79","","","","35","","23","","","","97.18","","","","-22","","NA"
"-96.57","50.70","VICTORIA BEACH (AUT)","5032951","2022-02-20 01:00","2022","02","20","01:00","-13.5","","-16.6","","78","","","","36","","23","","","","97.24","","","","-23","","NA"
"-96.57","50.70","VICTORIA BEACH (AUT)","5032951","2022-02-20 02:00","2022","02","20","02:00","-14.1","","-17.0","","79","","","","35","","25","","","","97.32","","","","-24","","NA"
"-96.57","50.70","VICTORIA BEACH (AUT)","5032951","2022-02-20 03:00","2022","02","20","03:00","-14.5","","-17.3","","79","","","","36","","21","","","","97.41","","","","-24","","NA"
"-96.57","50.70","VICTORIA BEACH (AUT)","5032951","2022-02-20 04:00","2022","02","20","04:00","-15.4","","-18.5","","77","","","","36","","21","","","","97.59","","","","-25","","NA"
"-96.57","50.70","VICTORIA BEACH (AUT)","5032951","2022-02-20 05:00","2022","02","20","05:00","-16.8","","-19.7","","79","","","","35","","26","","","","97.82","","","","-28","","NA"
"-96.57","50.70","VICTORIA BEACH (AUT)","5032951","2022-02-20 06:00","2022","02","20","06:00","-18.3","","-21.2","","78","","","","35","","25","","","","98.07","","","","-29","","NA"
"-96.57","50.70","VICTORIA BEACH (AUT)","5032951","2022-02-20 07:00","2022","02","20","07:00","-20.4","","-23.3","","77","","","","35","","31","","","","98.29","","","","-33","","NA"
"-96.57","50.70","VICTORIA BEACH (AUT)","5032951","2022-02-20 08:00","2022","02","20","08:00","-22.1","","-25.0","","77","","","","34","","31","","","","98.49","","","","-35","","NA"
"-96.57","50.70","VICTORIA BEACH (AUT)","5032951","2022-02-20 09:00","2022","02","20","09:00","-23.0","","-26.4","","74","","","","34","","36","","","","98.72","","","","-38","","NA"
"-96.57","50.70","VICTORIA BEACH (AUT)","5032951","2022-02-20 10:00","2022","02","20","10:00","-23.2","","-27.0","","71","","","","34","","40","","","","98.91","","","","-38","","NA"
"-96.57","50.70","VICTORIA BEACH (AUT)","5032951","2022-02-20 11:00","2022","02","20","11:00","-22.9","","-27.3","","67","","","","35","","30","","","","99.03","","","","-36","","NA"
"-96.57","50.70","VICTORIA BEACH (AUT)","5032951","2022-02-20 12:00","2022","02","20","12:00","-23.5","","-28.0","","67","","","","33","","35","","","","99.26","","","","-38","","NA"
"-96.57","50.70","VICTORIA BEACH (AUT)","5032951","2022-02-20 13:00","2022","02","20","13:00","-23.5","","-28.4","","64","","","","33","","36","","","","99.34","","","","-38","","NA"
"-96.57","50.70","VICTORIA BEACH (AUT)","5032951","2022-02-20 14:00","2022","02","20","14:00","-23.3","","-28.8","","61","","","","34","","36","","","","99.43","","","","-38","","NA"
"-96.57","50.70","VICTORIA BEACH (AUT)","5032951","2022-02-20 15:00","2022","02","20","15:00","-23.2","","-30.1","","53","","","","34","","31","","","","99.55","","","","-37","","NA"
"-96.57","50.70","VICTORIA BEACH (AUT)","5032951","2022-02-20 16:00","2022","02","20","16:00","-23.9","","-30.3","","56","","","","34","","27","","","","99.70","","","","-37","","NA"
"-96.57","50.70","VICTORIA BEACH (AUT)","5032951","2022-02-20 17:00","2022","02","20","17:00","-25.2","","-31.2","","57","","","","36","","18","","","","99.80","","","","-36","","NA"
"-96.57","50.70","VICTORIA BEACH (AUT)","5032951","2022-02-20 18:00","2022","02","20","18:00","-26.6","","-32.6","","57","","","","36","","17","","","","99.98","","","","-38","","NA"
"-96.57","50.70","VICTORIA BEACH (AUT)","5032951","2022-02-20 19:00","2022","02","20","19:00","-27.4","","-32.9","","60","","","","1","","11","","","","100.13","","","","-37","","NA"
"-96.57","50.70","VICTORIA BEACH (AUT)","5032951","2022-02-20 20:00","2022","02","20","20:00","-28.1","","-33.9","","57","","","","36","","11","","","","100.20","","","","-37","","NA"
"-96.57","50.70","VICTORIA BEACH (AUT)","5032951","2022-02-20 21:00","2022","02","20","21:00","-28.6","","-34.2","","59","","","","36","","10","","","","100.21","","","","-37","","NA"
"-96.57","50.70","VICTORIA BEACH (AUT)","5032951","2022-02-20 22:00","2022","02","20","22:00","-29.2","","-34.3","","61","","","","36","","12","","","","100.28","","","","-39","","NA"
"-96.57","50.70","VICTORIA BEACH (AUT)","5032951","2022-02-20 23:00","2022","02","20","23:00","-29.9","","-34.8","","63","","","","28","","2","","","","100.44","","","","-32","","NA"
"-96.57","50.70","VICTORIA BEACH (AUT)","5032951","2022-02-21 00:00","2022","02","21","00:00","-30.7","","-35.0","","66","","","","33","","9","","","","100.51","","","","-39","","NA"
"-96.57","50.70","VICTORIA BEACH (AUT)","5032951","2022-02-21 01:00","2022","02","21","01:00","-30.7","","-34.9","","66","","","","35","","10","","","","100.56","","","","-40","","NA"
"-96.57","50.70","VICTORIA BEACH (AUT)","5032951","2022-02-21 02:00","2022","02","21","02:00","-30.7","","-34.9","","67","","","","36","","9","","","","100.63","","","","-39","","NA"
"-96.57","50.70","VICTORIA BEACH (AUT)","5032951","2022-02-21 03:00","2022","02","21","03:00","-31.0","","-35.0","","68","","","","35","","13","","","","100.62","","","","-42","","NA"
"-96.57","50.70","VICTORIA BEACH (AUT)","5032951","2022-02-21 04:00","2022","02","21","04:00","-30.7","","-34.7","","67","","","","35","","4","","","","100.66","","","","-35","","NA"
"-96.57","50.70","VICTORIA BEACH (AUT)","5032951","2022-02-21 05:00","2022","02","21","05:00","-30.5","","-34.5","","68","","","","35","","8","","","","100.70","","","","-39","","NA"
"-96.57","50.70","VICTORIA BEACH (AUT)","5032951","2022-02-21 06:00","2022","02","21","06:00","-30.4","","-34.4","","68","","","","1","","2","","","","100.79","","","","-33","","NA"
"-96.57","50.70","VICTORIA BEACH (AUT)","5032951","2022-02-21 07:00","2022","02","21","07:00","-30.0","","-34.1","","68","","","","0","","1","","","","100.84","","","","-31","","NA"
"-96.57","50.70","VICTORIA BEACH (AUT)","5032951","2022-02-21 08:00","2022","02","21","08:00","-29.7","","-34.1","","66","","","","1","","3","","","","100.92","","","","-33","","NA"
"-96.57","50.70","VICTORIA BEACH (AUT)","5032951","2022-02-21 09:00","2022","02","21","09:00","-29.0","","-33.7","","63","","","","3","","4","","","","100.95","","","","-33","","NA"
"-96.57","50.70","VICTORIA BEACH (AUT)","5032951","2022-02-21 10:00","2022","02","21","10:00","-28.0","","-33.6","","59","","","","3","","8","","","","100.98","","","","-36","","NA"
"-96.57","50.70","VICTORIA BEACH (AUT)","5032951","2022-02-21 11:00","2022","02","21","11:00","-28.0","","-33.7","","58","","","","35","","7","","","","101.02","","","","-35","","NA"
"-96.57","50.70","VICTORIA BEACH (AUT)","5032951","2022-02-21 12:00","2022","02","21","12:00","-28.0","","-32.6","","64","","","","34","","15","","","","101.01","","","","-39","","NA"
"-96.57","50.70","VICTORIA BEACH (AUT)","5032951","2022-02-21 13:00","2022","02","21","13:00","-26.5","","-31.7","","62","","","","33","","15","","","","101.02","","","","-37","","NA"
"-96.57","50.70","VICTORIA BEACH (AUT)","5032951","2022-02-21 14:00","2022","02","21","14:00","-26.0","","-30.8","","64","","","","33","","17","","","","101.01","","","","-37","","NA"
"-96.57","50.70","VICTORIA BEACH (AUT)","5032951","2022-02-21 15:00","2022","02","21","15:00","-25.0","","-30.3","","61","","","","34","","21","","","","100.97","","","","-37","","NA"
"-96.57","50.70","VICTORIA BEACH (AUT)","5032951","2022-02-21 16:00","2022","02","21","16:00","-23.8","","-30.3","","55","","","","35","","17","","","","100.97","","","","-34","","NA"
"-96.57","50.70","VICTORIA BEACH (AUT)","5032951","2022-02-21 17:00","2022","02","21","17:00","-24.2","","-29.6","","61","","","","35","","15","","","","101.03","","","","-34","","NA"
"-96.57","50.70","VICTORIA BEACH (AUT)","5032951","2022-02-21 18:00","2022","02","21","18:00","-24.9","","-30.7","","58","","","","35","","16","","","","101.04","","","","-35","","NA"
"-96.57","50.70","VICTORIA BEACH (AUT)","5032951","2022-02-21 19:00","2022","02","21","19:00","-25.4","","-31.4","","57","","","","36","","15","","","","101.11","","","","-36","","NA"
"-96.57","50.70","VICTORIA BEACH (AUT)","5032951","2022-02-21 20:00","2022","02","21","20:00","-26.4","","-32.5","","57","","","","36","","15","","","","101.15","","","","-37","","NA"
"-96.57","50.70","VICTORIA BEACH (AUT)","5032951","2022-02-21 21:00","2022","02","21","21:00","-27.5","","-33.3","","58","","","","36","","13","","","","101.20","","","","-38","","NA"
"-96.57","50.70","VICTORIA BEACH (AUT)","5032951","2022-02-21 22:00","2022","02","21","22:00","-28.2","","-33.6","","60","","","","36","","12","","","","101.24","","","","-38","","NA"
"-96.57","50.70","VICTORIA BEACH (AUT)","5032951","2022-02-21 23:00","2022","02","21","23:00","-28.6","","-33.8","","61","","","","1","","7","","","","101.23","","","","-36","","NA"
"-96.57","50.70","VICTORIA BEACH (AUT)","5032951","2022-02-22 00:00","2022","02","22","00:00","-29.7","","-34.5","","63","","","","24","","2","","","","101.24","","","","-32","","NA"
"-96.57","50.70","VICTORIA BEACH (AUT)","5032951","2022-02-22 01:00","2022","02","22","01:00","-31.3","","-35.5","","66","","","","32","","5","","","","101.23","","","","-37","","NA"
"-96.57","50.70","VICTORIA BEACH (AUT)","5032951","2022-02-22 02:00","2022","02","22","02:00","-31.4","","-35.7","","66","","","","0","","1","","","","101.23","","","","-33","","NA"
"-96.57","50.70","VICTORIA BEACH (AUT)","5032951","2022-02-22 03:00","2022","02","22","03:00","-31.2","","-35.4","","67","","","","36","","7","","","","101.19","","","","-39","","NA"
"-96.57","50.70","VICTORIA BEACH (AUT)","5032951","2022-02-22 04:00","2022","02","22","04:00","-31.7","","-35.7","","67","","","","21","","1","","","","101.16","","","","-33","","NA"
"-96.57","50.70","VICTORIA BEACH (AUT)","5032951","2022-02-22 05:00","2022","02","22","05:00","-32.7","","-36.5","","69","","","","33","","8","","","","101.18","","","","-41","","NA"
"-96.57","50.70","VICTORIA BEACH (AUT)","5032951","2022-02-22 06:00","2022","02","22","06:00","-32.9","","-36.6","","70","","","","34","","7","","","","101.19","","","","-41","","NA"
"-96.57","50.70","VICTORIA BEACH (AUT)","5032951","2022-02-22 07:00","2022","02","22","07:00","-32.9","","-36.5","","70","","","","1","","2","","","","101.21","","","","-35","","NA"
"-96.57","50.70","VICTORIA BEACH (AUT)","5032951","2022-02-22 08:00","2022","02","22","08:00","-33.2","","-36.8","","70","","","","34","","9","","","","101.22","","","","-42","","NA"
"-96.57","50.70","VICTORIA BEACH (AUT)","5032951","2022-02-22 09:00","2022","02","22","09:00","-32.9","","-37.1","","66","","","","34","","12","","","","101.25","","","","-44","","NA"
"-96.57","50.70","VICTORIA BEACH (AUT)","5032951","2022-02-22 10:00","2022","02","22","10:00","-31.7","","-36.1","","65","","","","34","","14","","","","101.25","","","","-43","","NA"
"-96.57","50.70","VICTORIA BEACH (AUT)","5032951","2022-02-22 11:00","2022","02","22","11:00","-29.7","","-34.1","","65","","","","34","","18","","","","101.20","","","","-42","","NA"
"-96.57","50.70","VICTORIA BEACH (AUT)","5032951","2022-02-22 12:00","2022","02","22","12:00","-28.1","","-32.7","","65","","","","33","","17","","","","101.15","","","","-40","","NA"
"-96.57","50.70","VICTORIA BEACH (AUT)","5032951","2022-02-22 13:00","2022","02","22","13:00","-25.8","","-30.7","","63","","","","34","","14","","","","101.09","","","","-36","","NA"
"-96.57","50.70","VICTORIA BEACH (AUT)","5032951","2022-02-22 14:00","2022","02","22","14:00","-24.1","","-29.2","","63","","","","33","","20","","","","101.02","","","","-36","","NA"
"-96.57","50.70","VICTORIA BEACH (AUT)","5032951","2022-02-22 15:00","2022","02","22","15:00","-23.0","","-28.3","","62","","","","33","","17","","","","101.00","","","","-33","","NA"
"-96.57","50.70","VICTORIA BEACH (AUT)","5032951","2022-02-22 16:00","2022","02","22","16:00","-22.7","","-27.7","","64","","","","33","","14","","","","101.00","","","","-32","","NA"
"-96.57","50.70","VICTORIA BEACH (AUT)","5032951","2022-02-22 17:00","2022","02","22","17:00","-23.1","","-28.5","","62","","","","33","","13","","","","101.04","","","","-32","","NA"
"-96.57","50.70","VICTORIA BEACH (AUT)","5032951","2022-02-22 18:00","2022","02","22","18:00","-23.4","","-28.6","","62","","","","35","","12","","","","101.04","","","","-32","","NA"
"-96.57","50.70","VICTORIA BEACH (AUT)","5032951","2022-02-22 19:00","2022","02","22","19:00","-25.4","","-29.8","","66","","","","31","","10","","","","101.08","","","","-34","","NA"
"-96.57","50.70","VICTORIA BEACH (AUT)","5032951","2022-02-22 20:00","2022","02","22","20:00","-27.3","","-31.2","","69","","","","33","","6","","","","101.08","","","","-33","","NA"
"-96.57","50.70","VICTORIA BEACH (AUT)","5032951","2022-02-22 21:00","2022","02","22","21:00","-29.3","","-33.0","","70","","","","32","","2","","","","101.06","","","","-32","","NA"
"-96.57","50.70","VICTORIA BEACH (AUT)","5032951","2022-02-22 22:00","2022","02","22","22:00","-27.2","","-31.7","","65","","","","26","","7","","","","101.07","","","","-34","","NA"
"-96.57","50.70","VICTORIA BEACH (AUT)","5032951","2022-02-22 23:00","2022","02","22","23:00","-28.3","","-32.5","","67","","","","27","","6","","","","101.08","","","","-35","","NA"
"-96.57","50.70","VICTORIA BEACH (AUT)","5032951","2022-02-23 00:00","2022","02","23","00:00","-28.2","","-32.4","","67","","","","24","","8","","","","101.07","","","","-36","","NA"
"-96.57","50.70","VICTORIA BEACH (AUT)","5032951","2022-02-23 01:00","2022","02","23","01:00","-28.6","","-32.6","","69","","","","23","","8","","","","101.07","","","","-36","","NA"
"-96.57","50.70","VICTORIA BEACH (AUT)","5032951","2022-02-23 02:00","2022","02","23","02:00","-28.4","","-32.3","","69","","","","24","","6","","","","101.10","","","","-35","","NA"
"-96.57","50.70","VICTORIA BEACH (AUT)","5032951","2022-02-23 03:00","2022","02","23","03:00","-28.5","","-32.5","","68","","","","23","","7","","","","101.10","","","","-36","","NA"
"-96.57","50.70","VICTORIA BEACH (AUT)","5032951","2022-02-23 04:00","2022","02","23","04:00","-27.6","","-31.6","","68","","","","21","","4","","","","101.09","","","","-32","","NA"
"-96.57","50.70","VICTORIA BEACH (AUT)","5032951","2022-02-23 05:00","2022","02","23","05:00","-28.2","","-31.9","","71","","","","18","","4","","","","101.06","","","","-33","","NA"
"-96.57","50.70","VICTORIA BEACH (AUT)","5032951","2022-02-23 06:00","2022","02","23","06:00","-28.7","","-32.0","","73","","","","15","","1","","","","101.05","","","","-30","","NA"
"-96.57","50.70","VICTORIA BEACH (AUT)","5032951","2022-02-23 07:00","2022","02","23","07:00","-29.0","","-32.5","","72","","","","16","","2","","","","101.03","","","","-31","","NA"
"-96.57","50.70","VICTORIA BEACH (AUT)","5032951","2022-02-23 08:00","2022","02","23","08:00","-29.2","","-32.7","","72","","","","22","","6","","","","101.06","","","","-36","","NA"
"-96.57","50.70","VICTORIA BEACH (AUT)","5032951","2022-02-23 09:00","2022","02","23","09:00","-27.3","","-31.6","","67","","","","20","","6","","","","101.07","","","","-33","","NA"
"-96.57","50.70","VICTORIA BEACH (AUT)","5032951","2022-02-23 10:00","2022","02","23","10:00","-26.8","","-31.4","","65","","","","22","","12","","","","101.02","","","","-36","","NA"
"-96.57","50.70","VICTORIA BEACH (AUT)","5032951","2022-02-23 11:00","2022","02","23","11:00","-25.5","","-30.4","","64","","","","23","","12","","","","101.03","","","","-35","","NA"
"-96.57","50.70","VICTORIA BEACH (AUT)","5032951","2022-02-23 12:00","2022","02","23","12:00","-24.8","","-29.9","","63","","","","24","","13","","","","101.00","","","","-34","","NA"
"-96.57","50.70","VICTORIA BEACH (AUT)","5032951","2022-02-23 13:00","2022","02","23","13:00","-23.6","","-29.0","","61","","","","22","","15","","","","100.96","","","","-34","","NA"
"-96.57","50.70","VICTORIA BEACH (AUT)","5032951","2022-02-23 14:00","2022","02","23","14:00","-22.8","","-28.6","","59","","","","21","","14","","","","100.93","","","","-32","","NA"
"-96.57","50.70","VICTORIA BEACH (AUT)","5032951","2022-02-23 15:00","2022","02","23","15:00","-22.3","","-27.8","","61","","","","22","","16","","","","100.86","","","","-32","","NA"
"-96.57","50.70","VICTORIA BEACH (AUT)","5032951","2022-02-23 16:00","2022","02","23","16:00","-22.0","","-27.5","","61","","","","21","","15","","","","100.82","","","","-32","","NA"
"-96.57","50.70","VICTORIA BEACH (AUT)","5032951","2022-02-23 17:00","2022","02","23","17:00","-22.5","","-27.6","","63","","","","19","","16","","","","100.81","","","","-32","","NA"
"-96.57","50.70","VICTORIA BEACH (AUT)","5032951","2022-02-23 18:00","2022","02","23","18:00","-23.5","","-28.1","","66","","","","20","","17","","","","100.78","","","","-34","","NA"
"-96.57","50.70","VICTORIA BEACH (AUT)","5032951","2022-02-23 19:00","2022","02","23","19:00","-22.9","","-27.2","","68","","","","21","","21","","","","100.77","","","","-34","","NA"
"-96.57","50.70","VICTORIA BEACH (AUT)","5032951","2022-02-23 20:00","2022","02","23","20:00","-22.7","","-27.0","","68","","","","22","","19","","","","100.75","","","","-34","","NA"
"-96.57","50.70","VICTORIA BEACH (AUT)","5032951","2022-02-23 21:00","2022","02","23","21:00","-25.2","","-28.8","","72","","","","19","","8","","","","100.73","","","","-32","","NA"
"-96.57","50.70","VICTORIA BEACH (AUT)","5032951","2022-02-23 22:00","2022","02","23","22:00","-24.0","","-27.6","","72","","","","20","","11","","","","100.75","","","","-32","","NA"
"-96.57","50.70","VICTORIA BEACH (AUT)","5032951","2022-02-23 23:00","2022","02","23","23:00","-24.2","","-27.2","","76","","","","18","","11","","","","100.73","","","","-33","","NA"
"-96.57","50.70","VICTORIA BEACH (AUT)","5032951","2022-02-24 00:00","2022","02","24","00:00","-24.1","","-27.5","","74","","","","19","","10","","","","100.71","","","","-32","","NA"
"-96.57","50.70","VICTORIA BEACH (AUT)","5032951","2022-02-24 01:00","2022","02","24","01:00","-25.6","","-28.6","","76","","","","17","","6","","","","100.70","","","","-31","","NA"
"-96.57","50.70","VICTORIA BEACH (AUT)","5032951","2022-02-24 02:00","2022","02","24","02:00","-26.2","","-29.1","","77","","","","19","","5","","","","100.72","","","","-31","","NA"
"-96.57","50.70","VICTORIA BEACH (AUT)","5032951","2022-02-24 03:00","2022","02","24","03:00","-26.7","","-29.5","","77","","","","17","","3","","","","100.69","","","","-30","","NA"
"-96.57","50.70","VICTORIA BEACH (AUT)","5032951","2022-02-24 04:00","2022","02","24","04:00","-27.8","","-30.6","","77","","","","12","","5","","","","100.67","","","","-33","","NA"
"-96.57","50.70","VICTORIA BEACH (AUT)","5032951","2022-02-24 05:00","2022","02","24","05:00","-31.6","","-34.8","","73","","","","14","","9","","","","100.67","","","","-40","","NA"
"-96.57","50.70","VICTORIA BEACH (AUT)","5032951","2022-02-24 06:00","2022","02","24","06:00","-30.0","","-33.2","","74","","","","12","","5","","","","100.65","","","","-36","","NA"
"-96.57","50.70","VICTORIA BEACH (AUT)","5032951","2022-02-24 07:00","2022","02","24","07:00","-29.9","","-33.0","","75","","","","11","","7","","","","100.67","","","","-37","","NA"
"-96.57","50.70","VICTORIA BEACH (AUT)","5032951","2022-02-24 08:00","2022","02","24","08:00","-31.1","","-34.5","","72","","","","14","","8","","","","100.72","","","","-39","","NA"
"-96.57","50.70","VICTORIA BEACH (AUT)","5032951","2022-02-24 09:00","2022","02","24","09:00","-28.0","","-31.6","","71","","","","11","","3","","","","100.77","","","","-31","","NA"
"-96.57","50.70","VICTORIA BEACH (AUT)","5032951","2022-02-24 10:00","2022","02","24","10:00","-26.6","","-30.4","","71","","","","24","","4","","","","100.82","","","","-31","","NA"
"-96.57","50.70","VICTORIA BEACH (AUT)","5032951","2022-02-24 11:00","2022","02","24","11:00","-23.2","","-27.4","","68","","","","0","","1","","","","100.82","","","","-24","","NA"
"-96.57","50.70","VICTORIA BEACH (AUT)","5032951","2022-02-24 12:00","2022","02","24","12:00","-24.2","","-28.0","","70","","","","24","","13","","","","100.84","","","","-34","","NA"
"-96.57","50.70","VICTORIA BEACH (AUT)","5032951","2022-02-24 13:00","2022","02","24","13:00","-21.7","","-26.2","","67","","","","26","","9","","","","100.79","","","","-29","","NA"
"-96.57","50.70","VICTORIA BEACH (AUT)","5032951","2022-02-24 14:00","2022","02","24","14:00","-21.3","","-25.7","","68","","","","26","","6","","","","100.74","","","","-27","","NA"
"-96.57","50.70","VICTORIA BEACH (AUT)","5032951","2022-02-24 15:00","2022","02","24","15:00","-21.3","","-25.5","","69","","","","25","","10","","","","100.68","","","","-29","","NA"
"-96.57","50.70","VICTORIA BEACH (AUT)","5032951","2022-02-24 16:00","2022","02","24","16:00","-21.4","","-25.3","","71","","","","25","","14","","","","100.64","","","","-30","","NA"
"-96.57","50.70","VICTORIA BEACH (AUT)","5032951","2022-02-24 17:00","2022","02","24","17:00","-21.0","","-25.5","","67","","","","24","","11","","","","100.63","","","","-29","","NA"
"-96.57","50.70","VICTORIA BEACH (AUT)","5032951","2022-02-24 18:00","2022","02","24","18:00","-20.3","","-25.4","","64","","","","18","","5","","","","100.62","","","","-25","","NA"
"-96.57","50.70","VICTORIA BEACH (AUT)","5032951","2022-02-24 19:00","2022","02","24","19:00","-21.0","","-25.5","","67","","","","18","","9","","","","100.61","","","","-28","","NA"
"-96.57","50.70","VICTORIA BEACH (AUT)","5032951","2022-02-24 20:00","2022","02","24","20:00","-21.0","","-25.4","","68","","","","20","","10","","","","100.59","","","","-28","","NA"
"-96.57","50.70","VICTORIA BEACH (AUT)","5032951","2022-02-24 21:00","2022","02","24","21:00","-22.3","","-26.0","","72","","","","18","","5","","","","100.56","","","","-27","","NA"
"-96.57","50.70","VICTORIA BEACH (AUT)","5032951","2022-02-24 22:00","2022","02","24","22:00","-22.3","","-25.7","","74","","","","17","","5","","","","100.55","","","","-27","","NA"
"-96.57","50.70","VICTORIA BEACH (AUT)","5032951","2022-02-24 23:00","2022","02","24","23:00","-21.0","","-24.7","","72","","","","22","","20","","","","100.51","","","","-32","","NA"
"-96.57","50.70","VICTORIA BEACH (AUT)","5032951","2022-02-25 00:00","2022","02","25","00:00","-21.4","","-24.9","","74","","","","21","","22","","","","100.44","","","","-33","","NA"
"-96.57","50.70","VICTORIA BEACH (AUT)","5032951","2022-02-25 01:00","2022","02","25","01:00","-21.3","","-24.1","","78","","","","21","","21","","","","100.38","","","","-32","","NA"
"-96.57","50.70","VICTORIA BEACH (AUT)","5032951","2022-02-25 02:00","2022","02","25","02:00","-21.9","","-24.5","","79","","","","21","","24","","","","100.36","","","","-34","","NA"
"-96.57","50.70","VICTORIA BEACH (AUT)","5032951","2022-02-25 03:00","2022","02","25","03:00","-22.2","","-25.2","","76","","","","21","","22","","","","100.32","","","","-34","","NA"
"-96.57","50.70","VICTORIA BEACH (AUT)","5032951","2022-02-25 04:00","2022","02","25","04:00","-22.6","","-25.7","","76","","","","21","","21","","","","100.28","","","","-34","","NA"
"-96.57","50.70","VICTORIA BEACH (AUT)","5032951","2022-02-25 05:00","2022","02","25","05:00","-23.0","","-25.9","","77","","","","21","","21","","","","100.24","","","","-35","","NA"
"-96.57","50.70","VICTORIA BEACH (AUT)","5032951","2022-02-25 06:00","2022","02","25","06:00","-21.6","","-24.8","","75","","","","21","","27","","","","100.19","","","","-34","","NA"
"-96.57","50.70","VICTORIA BEACH (AUT)","5032951","2022-02-25 07:00","2022","02","25","07:00","-21.5","","-25.0","","74","","","","21","","26","","","","100.13","","","","-34","","NA"
"-96.57","50.70","VICTORIA BEACH (AUT)","5032951","2022-02-25 08:00","2022","02","25","08:00","-21.3","","-25.0","","72","","","","20","","26","","","","100.11","","","","-33","","NA"
"-96.57","50.70","VICTORIA BEACH (AUT)","5032951","2022-02-25 09:00","2022","02","25","09:00","-19.7","","-23.9","","70","","","","20","","30","","","","100.05","","","","-32","","NA"
"-96.57","50.70","VICTORIA BEACH (AUT)","5032951","2022-02-25 10:00","2022","02","25","10:00","-20.2","","-24.2","","70","","","","21","","33","","","","100.01","","","","-33","","NA"
"-96.57","50.70","VICTORIA BEACH (AUT)","5032951","2022-02-25 11:00","2022","02","25","11:00","-19.0","","-23.2","","70","","","","21","","33","","","","99.99","","","","-32","","NA"
"-96.57","50.70","VICTORIA BEACH (AUT)","5032951","2022-02-25 12:00","2022","02","25","12:00","-17.8","","-22.4","","67","","","","21","","30","","","","99.92","","","","-30","","NA"
"-96.57","50.70","VICTORIA BEACH (AUT)","5032951","2022-02-25 13:00","2022","02","25","13:00","-16.2","","-21.0","","67","","","","20","","30","","","","99.82","","","","-28","","NA"
"-96.57","50.70","VICTORIA BEACH (AUT)","5032951","2022-02-25 14:00","2022","02","25","14:00","-15.4","","-20.3","","66","","","","21","","31","","","","99.71","","","","-27","","NA"
"-96.57","50.70","VICTORIA BEACH (AUT)","5032951","2022-02-25 15:00","2022","02","25","15:00","-14.9","","-19.8","","66","","","","21","","32","","","","99.65","","","","-26","","NA"
"-96.57","50.70","VICTORIA BEACH (AUT)","5032951","2022-02-25 16:00","2022","02","25","16:00","-14.0","","-19.2","","65","","","","20","","35","","","","99.54","","","","-25","","NA"
"-96.57","50.70","VICTORIA BEACH (AUT)","5032951","2022-02-25 17:00","2022","02","25","17:00","-13.9","","-19.0","","65","","","","20","","33","","","","99.48","","","","-25","","NA"
"-96.57","50.70","VICTORIA BEACH (AUT)","5032951","2022-02-25 18:00","2022","02","25","18:00","-14.5","","-18.5","","71","","","","20","","30","","","","99.42","","","","-25","","NA"
"-96.57","50.70","VICTORIA BEACH (AUT)","5032951","2022-02-25 19:00","2022","02","25","19:00","-14.7","","-18.4","","73","","","","20","","30","","","","99.33","","","","-26","","NA"
"-96.57","50.70","VICTORIA BEACH (AUT)","5032951","2022-02-25 20:00","2022","02","25","20:00","-15.3","","-19.2","","72","","","","21","","36","","","","99.21","","","","-27","","NA"
"-96.57","50.70","VICTORIA BEACH (AUT)","5032951","2022-02-25 21:00","2022","02","25","21:00","-15.7","","-19.7","","71","","","","21","","40","","","","99.12","","","","-28","","NA"
"-96.57","50.70","VICTORIA BEACH (AUT)","5032951","2022-02-25 22:00","2022","02","25","22:00","-16.2","","-20.3","","71","","","","21","","38","","","","99.06","","","","-29","","NA"
"-96.57","50.70","VICTORIA BEACH (AUT)","5032951","2022-02-25 23:00","2022","02","25","23:00","-16.7","","-20.6","","72","","","","21","","37","","","","98.91","","","","-29","","NA"
"-96.57","50.70","VICTORIA BEACH (AUT)","5032951","2022-02-26 00:00","2022","02","26","00:00","-16.6","","-20.2","","73","","","","21","","39","","","","98.80","","","","-29","","NA"
"-96.57","50.70","VICTORIA BEACH (AUT)","5032951","2022-02-26 01:00","2022","02","26","01:00","-15.5","","-18.8","","76","","","","21","","39","","","","98.69","","","","-28","","NA"
"-96.57","50.70","VICTORIA BEACH (AUT)","5032951","2022-02-26 02:00","2022","02","26","02:00","-15.0","","-18.0","","78","","","","21","","40","","","","98.58","","","","-27","","NA"
"-96.57","50.70","VICTORIA BEACH (AUT)","5032951","2022-02-26 03:00","2022","02","26","03:00","-14.3","","-17.4","","78","","","","21","","41","","","","98.50","","","","-27","","NA"
"-96.57","50.70","VICTORIA BEACH (AUT)","5032951","2022-02-26 04:00","2022","02","26","04:00","-14.5","","-17.5","","78","","","","22","","36","","","","98.47","","","","-26","","NA"
"-96.57","50.70","VICTORIA BEACH (AUT)","5032951","2022-02-26 05:00","2022","02","26","05:00","-14.2","","-17.1","","79","","","","21","","31","","","","98.44","","","","-25","","NA"
"-96.57","50.70","VICTORIA BEACH (AUT)","5032951","2022-02-26 06:00","2022","02","26","06:00","-14.1","","-17.0","","79","","","","22","","24","","","","98.47","","","","-24","","NA"
"-96.57","50.70","VICTORIA BEACH (AUT)","5032951","2022-02-26 07:00","2022","02","26","07:00","-13.0","","-16.0","","78","","","","22","","20","","","","98.49","","","","-22","","NA"
"-96.57","50.70","VICTORIA BEACH (AUT)","5032951","2022-02-26 08:00","2022","02","26","08:00","-13.0","","-16.0","","79","","","","22","","22","","","","98.53","","","","-22","","NA"
"-96.57","50.70","VICTORIA BEACH (AUT)","5032951","2022-02-26 09:00","2022","02","26","09:00","-12.1","","-15.0","","79","","","","24","","19","","","","98.62","","","","-20","","NA"
"-96.57","50.70","VICTORIA BEACH (AUT)","5032951","2022-02-26 10:00","2022","02","26","10:00","-11.0","","-14.3","","77","","","","26","","12","","","","98.70","","","","-17","","NA"
"-96.57","50.70","VICTORIA BEACH (AUT)","5032951","2022-02-26 11:00","2022","02","26","11:00","-9.5","","-12.9","","76","","","","28","","10","","","","98.76","","","","-15","","NA"
"-96.57","50.70","VICTORIA BEACH (AUT)","5032951","2022-02-26 12:00","2022","02","26","12:00","-8.8","","-12.2","","77","","","","29","","15","","","","98.81","","","","-15","","NA"
"-96.57","50.70","VICTORIA BEACH (AUT)","5032951","2022-02-26 13:00","2022","02","26","13:00","-8.1","","-11.6","","76","","","","28","","14","","","","98.84","","","","-14","","NA"
"-96.57","50.70","VICTORIA BEACH (AUT)","5032951","2022-02-26 14:00","2022","02","26","14:00","-7.2","","-10.9","","75","","","","28","","12","","","","98.90","","","","-13","","NA"
"-96.57","50.70","VICTORIA BEACH (AUT)","5032951","2022-02-26 15:00","2022","02","26","15:00","-6.6","","-11.2","","70","","","","29","","18","","","","98.95","","","","-13","","NA"
"-96.57","50.70","VICTORIA BEACH (AUT)","5032951","2022-02-26 16:00","2022","02","26","16:00","-6.2","","-10.4","","72","","","","29","","9","","","","98.99","","","","-10","","NA"
"-96.57","50.70","VICTORIA BEACH (AUT)","5032951","2022-02-26 17:00","2022","02","26","17:00","-6.5","","-11.3","","69","","","","30","","20","","","","99.04","","","","-13","","NA"
"-96.57","50.70","VICTORIA BEACH (AUT)","5032951","2022-02-26 18:00","2022","02","26","18:00","-8.8","","-13.0","","71","","","","32","","17","","","","99.10","","","","-16","","NA"
"-96.57","50.70","VICTORIA BEACH (AUT)","5032951","2022-02-26 19:00","2022","02","26","19:00","-9.8","","-14.2","","70","","","","1","","9","","","","99.22","","","","-15","","NA"
"-96.57","50.70","VICTORIA BEACH (AUT)","5032951","2022-02-26 20:00","2022","02","26","20:00","-11.1","","-15.1","","72","","","","3","","11","","","","99.26","","","","-17","","NA"
"-96.57","50.70","VICTORIA BEACH (AUT)","5032951","2022-02-26 21:00","2022","02","26","21:00","-12.2","","-15.9","","74","","","","2","","6","","","","99.29","","","","-16","","NA"
"-96.57","50.70","VICTORIA BEACH (AUT)","5032951","2022-02-26 22:00","2022","02","26","22:00","-13.4","","-16.3","","79","","","","0","","1","","","","99.38","","","","-14","","NA"
"-96.57","50.70","VICTORIA BEACH (AUT)","5032951","2022-02-26 23:00","2022","02","26","23:00","-16.5","","-18.8","","83","","","","29","","5","","","","99.44","","","","-20","","NA"
"-96.57","50.70","VICTORIA BEACH (AUT)","5032951","2022-02-27 00:00","2022","02","27","00:00","-16.8","","-18.3","","88","","","","24","","3","","","","99.45","","","","-19","","NA"
"-96.57","50.70","VICTORIA BEACH (AUT)","5032951","2022-02-27 01:00","2022","02","27","01:00","-16.0","","-18.3","","83","","","","","","0","","","","99.48","","","","","","NA"
"-96.57","50.70","VICTORIA BEACH (AUT)","5032951","2022-02-27 02:00","2022","02","27","02:00","-16.9","","-19.0","","84","","","","","","0","","","","99.55","","","","","","NA"
"-96.57","50.70","VICTORIA BEACH (AUT)","5032951","2022-02-27 03:00","2022","02","27","03:00","-17.7","","-20.1","","82","","","","27","","6","","","","99.60","","","","-22","","NA"
"-96.57","50.70","VICTORIA BEACH (AUT)","5032951","2022-02-27 04:00","2022","02","27","04:00","-16.2","","-18.6","","82","","","","0","","1","","","","99.64","","","","-17","","NA"
"-96.57","50.70","VICTORIA BEACH (AUT)","5032951","2022-02-27 05:00","2022","02","27","05:00","-16.0","","-18.9","","78","","","","34","","1","","","","99.67","","","","-17","","NA"
"-96.57","50.70","VICTORIA BEACH (AUT)","5032951","2022-02-27 06:00","2022","02","27","06:00","-16.0","","-19.4","","75","","","","3","","10","","","","99.69","","","","-22","","NA"
"-96.57","50.70","VICTORIA BEACH (AUT)","5032951","2022-02-27 07:00","2022","02","27","07:00","-16.7","","-20.4","","73","","","","5","","10","","","","99.70","","","","-23","","NA"
"-96.57","50.70","VICTORIA BEACH (AUT)","5032951","2022-02-27 08:00","2022","02","27","08:00","-16.9","","-21.1","","70","","","","6","","9","","","","99.76","","","","-23","","NA"
"-96.57","50.70","VICTORIA BEACH (AUT)","5032951","2022-02-27 09:00","2022","02","27","09:00","-16.2","","-21.3","","65","","","","8","","10","","","","99.81","","","","-23","","NA"
"-96.57","50.70","VICTORIA BEACH (AUT)","5032951","2022-02-27 10:00","2022","02","27","10:00","-15.1","","-21.1","","60","","","","8","","8","","","","99.86","","","","-20","","NA"
"-96.57","50.70","VICTORIA BEACH (AUT)","5032951","2022-02-27 11:00","2022","02","27","11:00","-14.2","","-20.4","","59","","","","21","","6","","","","99.89","","","","-18","","NA"
"-96.57","50.70","VICTORIA BEACH (AUT)","5032951","2022-02-27 12:00","2022","02","27","12:00","-14.0","","-20.2","","59","","","","35","","14","","","","99.91","","","","-21","","NA"
"-96.57","50.70","VICTORIA BEACH (AUT)","5032951","2022-02-27 13:00","2022","02","27","13:00","-14.6","","-19.9","","64","","","","34","","21","","","","99.88","","","","-24","","NA"
"-96.57","50.70","VICTORIA BEACH (AUT)","5032951","2022-02-27 14:00","2022","02","27","14:00","-14.5","","-21.3","","56","","","","34","","22","","","","99.85","","","","-24","","NA"
"-96.57","50.70","VICTORIA BEACH (AUT)","5032951","2022-02-27 15:00","2022","02","27","15:00","-13.7","","-21.0","","54","","","","34","","20","","","","99.82","","","","-23","","NA"
"-96.57","50.70","VICTORIA BEACH (AUT)","5032951","2022-02-27 16:00","2022","02","27","16:00","-13.7","","-20.8","","55","","","","35","","15","","","","99.83","","","","-21","","NA"
"-96.57","50.70","VICTORIA BEACH (AUT)","5032951","2022-02-27 17:00","2022","02","27","17:00","-13.7","","-20.2","","58","","","","36","","8","","","","99.77","","","","-19","","NA"
"-96.57","50.70","VICTORIA BEACH (AUT)","5032951","2022-02-27 18:00","2022","02","27","18:00","-14.0","","-21.2","","55","","","","36","","8","","","","99.75","","","","-19","","NA"
"-96.57","50.70","VICTORIA BEACH (AUT)","5032951","2022-02-27 19:00","2022","02","27","19:00","-14.2","","-21.7","","53","","","","1","","10","","","","99.74","","","","-20","","NA"
"-96.57","50.70","VICTORIA BEACH (AUT)","5032951","2022-02-27 20:00","2022","02","27","20:00","-14.2","","-21.7","","53","","","","2","","13","","","","99.72","","","","-21","","NA"
"-96.57","50.70","VICTORIA BEACH (AUT)","5032951","2022-02-27 21:00","2022","02","27","21:00","-14.3","","-21.8","","53","","","","3","","16","","","","99.72","","","","-22","","NA"
"-96.57","50.70","VICTORIA BEACH (AUT)","5032951","2022-02-27 22:00","2022","02","27","22:00","-14.5","","-21.6","","55","","","","5","","11","","","","99.67","","","","-21","","NA"
"-96.57","50.70","VICTORIA BEACH (AUT)","5032951","2022-02-27 23:00","2022","02","27","23:00","-14.4","","-21.7","","54","","","","7","","8","","","","99.62","","","","-20","","NA"
"-96.57","50.70","VICTORIA BEACH (AUT)","5032951","2022-02-28 00:00","2022","02","28","00:00","-14.6","","-21.8","","54","","","","9","","4","","","","99.61","","","","-17","","NA"
"-96.57","50.70","VICTORIA BEACH (AUT)","5032951","2022-02-28 01:00","2022","02","28","01:00","-14.5","","-21.4","","56","","","","9","","5","","","","99.54","","","","-18","","NA"
"-96.57","50.70","VICTORIA BEACH (AUT)","5032951","2022-02-28 02:00","2022","02","28","02:00","-14.5","","-21.4","","56","","","","9","","8","","","","99.45","","","","-20","","NA"
"-96.57","50.70","VICTORIA BEACH (AUT)","5032951","2022-02-28 03:00","2022","02","28","03:00","-14.6","","-20.8","","59","","","","9","","9","","","","99.33","","","","-20","","NA"
"-96.57","50.70","VICTORIA BEACH (AUT)","5032951","2022-02-28 04:00","2022","02","28","04:00","-14.5","","-18.6","","71","","","","10","","8","","","","99.29","","","","-20","","NA"
"-96.57","50.70","VICTORIA BEACH (AUT)","5032951","2022-02-28 05:00","2022","02","28","05:00","-14.3","","-17.8","","75","","","","9","","10","","","","99.25","","","","-20","","NA"
"-96.57","50.70","VICTORIA BEACH (AUT)","5032951","2022-02-28 06:00","2022","02","28","06:00","-14.3","","-17.2","","79","","","","9","","11","","","","99.17","","","","-21","","NA"
"-96.57","50.70","VICTORIA BEACH (AUT)","5032951","2022-02-28 07:00","2022","02","28","07:00","-14.1","","-16.9","","79","","","","8","","13","","","","99.14","","","","-21","","NA"
"-96.57","50.70","VICTORIA BEACH (AUT)","5032951","2022-02-28 08:00","2022","02","28","08:00","-13.7","","-16.2","","82","","","","7","","6","","","","99.12","","","","-18","","NA"
"-96.57","50.70","VICTORIA BEACH (AUT)","5032951","2022-02-28 09:00","2022","02","28","09:00","-13.1","","-15.7","","81","","","","8","","10","","","","99.04","","","","-19","","NA"
"-96.57","50.70","VICTORIA BEACH (AUT)","5032951","2022-02-28 10:00","2022","02","28","10:00","-11.4","","-14.9","","75","","","","21","","3","","","","99.01","","","","-13","","NA"
"-96.57","50.70","VICTORIA BEACH (AUT)","5032951","2022-02-28 11:00","2022","02","28","11:00","-10.7","","-14.0","","77","","","","4","","14","","","","98.96","","","","-17","","NA"
"-96.57","50.70","VICTORIA BEACH (AUT)","5032951","2022-02-28 12:00","2022","02","28","12:00","-12.4","","-15.6","","77","","","","33","","15","","","","98.94","","","","-20","","NA"
"-96.57","50.70","VICTORIA BEACH (AUT)","5032951","2022-02-28 13:00","2022","02","28","13:00","-11.7","","-14.8","","78","","","","33","","17","","","","98.86","","","","-19","","NA"
"-96.57","50.70","VICTORIA BEACH (AUT)","5032951","2022-02-28 14:00","2022","02","28","14:00","-10.4","","-14.2","","74","","","","34","","18","","","","98.87","","","","-18","","NA"
"-96.57","50.70","VICTORIA BEACH (AUT)","5032951","2022-02-28 15:00","2022","02","28","15:00","-10.9","","-14.0","","78","","","","33","","19","","","","98.87","","","","-19","","NA"
"-96.57","50.70","VICTORIA BEACH (AUT)","5032951","2022-02-28 16:00","2022","02","28","16:00","-11.6","","-14.4","","79","","","","32","","14","","","","98.91","","","","-18","","NA"
"-96.57","50.70","VICTORIA BEACH (AUT)","5032951","2022-02-28 17:00","2022","02","28","17:00","-12.6","","-15.7","","78","","","","33","","11","","","","98.92","","","","-19","","NA"
"-96.57","50.70","VICTORIA BEACH (AUT)","5032951","2022-02-28 18:00","2022","02","28","18:00","-13.0","","-16.3","","76","","","","35","","10","","","","98.91","","","","-19","","NA"
"-96.57","50.70","VICTORIA BEACH (AUT)","5032951","2022-02-28 19:00","2022","02","28","19:00","-12.9","","-17.2","","70","","","","35","","8","","","","98.95","","","","-18","","NA"
"-96.57","50.70","VICTORIA BEACH (AUT)","5032951","2022-02-28 20:00","2022","02","28","20:00","-13.3","","-17.8","","69","","","","35","","14","","","","98.98","","","","-21","","NA"
"-96.57","50.70","VICTORIA BEACH (AUT)","5032951","2022-02-28 21:00","2022","02","28","21:00","-13.8","","-18.2","","69","","","","36","","10","","","","99.01","","","","-20","","NA"
"-96.57","50.70","VICTORIA BEACH (AUT)","5032951","2022-02-28 22:00","2022","02","28","22:00","-13.6","","-19.7","","60","","","","34","","18","","","","99.02","","","","-22","","NA"
"-96.57","50.70","VICTORIA BEACH (AUT)","5032951","2022-02-28 23:00","2022","02","28","23:00","-14.1","","-20.4","","59","","","","35","","17","","","","99.05","","","","-22","","NA"
