"Longitude (x)","Latitude (y)","Station Name","Climate ID","Date/Time (LST)","Year","Month","Day","Time (LST)","Temp (°C)","Temp Flag","Dew Point Temp (°C)","Dew Point Temp Flag","Rel Hum (%)","Rel Hum Flag","Precip. Amount (mm)","Precip. Amount Flag","Wind Dir (10s deg)","Wind Dir Flag","Wind Spd (km/h)","Wind Spd Flag","Visibility (km)","Visibility Flag","Stn Press (kPa)","Stn Press Flag","Hmdx","Hmdx Flag","Wind Chill","Wind Chill Flag","Weather"
"-115.78","60.84","HAY RIVER A","2202401","2021-12-01 00:00","2021","12","01","00:00","-17.2","","-20.8","","74","","","","9","","21","","19.3","","98.30","","","","-27","","Snow"
"-115.78","60.84","HAY RIVER A","2202401","2021-12-01 01:00","2021","12","01","01:00","-16.7","","-20.1","","75","","","","8","","23","","24.1","","98.33","","","","-27","","Snow"
"-115.78","60.84","HAY RIVER A","2202401","2021-12-01 02:00","2021","12","01","02:00","-16.6","","-19.9","","76","","","","7","","20","","24.1","","98.34","","","","-26","","Mostly Cloudy"
"-115.78","60.84","HAY RIVER A","2202401","2021-12-01 03:00","2021","12","01","03:00","-16.2","","-19.1","","79","","","","8","","22","","19.3","","98.39","","","","-26","","Snow"
"-115.78","60.84","HAY RIVER A","2202401","2021-12-01 04:00","2021","12","01","04:00","-16.0","","-18.5","","81","","","","9","","16","","24.1","","98.45","","","","-24","","Snow"
"-115.78","60.84","HAY RIVER A","2202401","2021-12-01 05:00","2021","12","01","05:00","-16.0","","-18.6","","80","","","","8","","18","","24.1","","98.51","","","","-25","","Snow"
"-115.78","60.84","HAY RIVER A","2202401","2021-12-01 06:00","2021","12","01","06:00","-15.7","","-18.6","","78","","","","9","","14","","24.1","","98.61","","","","-23","","NA"
"-115.78","60.84","HAY RIVER A","2202401","2021-12-01 07:00","2021","12","01","07:00","-15.6","","-18.0","","82","","","","7","","15","","24.1","","98.61","","","","-24","","NA"
"-115.78","60.84","HAY RIVER A","2202401","2021-12-01 08:00","2021","12","01","08:00","-15.4","","-17.6","","83","","","","9","","13","","24.1","","98.64","","","","-23","","Mostly Cloudy"
"-115.78","60.84","HAY RIVER A","2202401","2021-12-01 09:00","2021","12","01","09:00","-16.1","","-18.2","","84","","","","11","","12","","24.1","","98.68","","","","-23","","NA"
"-115.78","60.84","HAY RIVER A","2202401","2021-12-01 10:00","2021","12","01","10:00","-16.6","","-18.9","","83","","","","11","","10","","24.1","","98.67","","","","-23","","NA"
"-115.78","60.84","HAY RIVER A","2202401","2021-12-01 11:00","2021","12","01","11:00","-16.1","","-18.1","","85","","","","14","","5","","24.1","","98.73","","","","-20","","Cloudy"
"-115.78","60.84","HAY RIVER A","2202401","2021-12-01 12:00","2021","12","01","12:00","-15.7","","-17.2","","88","","","","19","","7","","11.3","","98.79","","","","-21","","Snow"
"-115.78","60.84","HAY RIVER A","2202401","2021-12-01 13:00","2021","12","01","13:00","-15.2","","-17.1","","85","","","","12","","10","","14.5","","98.78","","","","-21","","Snow"
"-115.78","60.84","HAY RIVER A","2202401","2021-12-01 14:00","2021","12","01","14:00","-14.6","","-17.0","","82","","","","15","","9","","3.2","","98.78","","","","-20","","Snow"
"-115.78","60.84","HAY RIVER A","2202401","2021-12-01 15:00","2021","12","01","15:00","-14.6","","-17.1","","82","","","","18","","10","","4.8","","98.81","","","","-21","","Snow"
"-115.78","60.84","HAY RIVER A","2202401","2021-12-01 16:00","2021","12","01","16:00","-14.5","","-16.9","","82","","","","18","","8","","3.2","","98.82","","","","-20","","Snow"
"-115.78","60.84","HAY RIVER A","2202401","2021-12-01 17:00","2021","12","01","17:00","-14.7","","-16.8","","84","","","","17","","7","","4.8","","98.81","","","","-19","","Snow"
"-115.78","60.84","HAY RIVER A","2202401","2021-12-01 18:00","2021","12","01","18:00","-14.5","","-16.8","","83","","","","16","","6","","6.4","","98.82","","","","-19","","Snow"
"-115.78","60.84","HAY RIVER A","2202401","2021-12-01 19:00","2021","12","01","19:00","-14.4","","-16.7","","83","","","","20","","5","","8.1","","98.83","","","","-18","","Snow"
"-115.78","60.84","HAY RIVER A","2202401","2021-12-01 20:00","2021","12","01","20:00","-14.6","","-17.1","","81","","","","26","","6","","6.4","","98.82","","","","-19","","Snow"
"-115.78","60.84","HAY RIVER A","2202401","2021-12-01 21:00","2021","12","01","21:00","-15.4","","-18.1","","80","","","","24","","10","","6.4","","98.85","","","","-22","","Snow"
"-115.78","60.84","HAY RIVER A","2202401","2021-12-01 22:00","2021","12","01","22:00","-15.8","","-18.4","","81","","","","25","","7","","9.7","","98.85","","","","-21","","Snow"
"-115.78","60.84","HAY RIVER A","2202401","2021-12-01 23:00","2021","12","01","23:00","-17.2","","-19.3","","84","","","","36","","3","","16.1","","98.83","","","","-20","","Snow"
"-115.78","60.84","HAY RIVER A","2202401","2021-12-02 00:00","2021","12","02","00:00","-20.3","","-22.2","","85","","","","23","","3","","24.1","","98.84","","","","-23","","NA"
"-115.78","60.84","HAY RIVER A","2202401","2021-12-02 01:00","2021","12","02","01:00","-22.6","","-25.0","","82","","","","27","","5","","24.1","","98.87","","","","-27","","NA"
"-115.78","60.84","HAY RIVER A","2202401","2021-12-02 02:00","2021","12","02","02:00","-23.2","","-25.5","","82","","","","32","","7","","24.1","","98.88","","","","-29","","Mainly Clear"
"-115.78","60.84","HAY RIVER A","2202401","2021-12-02 03:00","2021","12","02","03:00","-20.3","","-22.6","","82","","","","33","","4","","19.3","","98.87","","","","-24","","Snow"
"-115.78","60.84","HAY RIVER A","2202401","2021-12-02 04:00","2021","12","02","04:00","-19.6","","-21.8","","82","","","","33","","5","","19.3","","98.84","","","","-24","","Snow"
"-115.78","60.84","HAY RIVER A","2202401","2021-12-02 05:00","2021","12","02","05:00","-19.0","","-21.3","","83","","","","28","","4","","19.3","","98.85","","","","-22","","Snow"
"-115.78","60.84","HAY RIVER A","2202401","2021-12-02 06:00","2021","12","02","06:00","-17.9","","-19.9","","84","","","","35","","3","","19.3","","98.88","","","","-20","","Snow"
"-115.78","60.84","HAY RIVER A","2202401","2021-12-02 07:00","2021","12","02","07:00","-17.2","","-19.3","","84","","","","35","","5","","24.1","","98.91","","","","-21","","NA"
"-115.78","60.84","HAY RIVER A","2202401","2021-12-02 08:00","2021","12","02","08:00","-18.1","","-20.2","","84","","","","2","","4","","19.3","","98.95","","","","-21","","Snow"
"-115.78","60.84","HAY RIVER A","2202401","2021-12-02 09:00","2021","12","02","09:00","-16.9","","-19.0","","84","","","","33","","9","","19.3","","99.02","","","","-23","","Snow"
"-115.78","60.84","HAY RIVER A","2202401","2021-12-02 10:00","2021","12","02","10:00","-15.7","","-17.7","","85","","","","32","","14","","16.1","","99.07","","","","-23","","Snow"
"-115.78","60.84","HAY RIVER A","2202401","2021-12-02 11:00","2021","12","02","11:00","-16.4","","-18.4","","85","","","","31","","16","","14.5","","99.15","","","","-25","","Snow"
"-115.78","60.84","HAY RIVER A","2202401","2021-12-02 12:00","2021","12","02","12:00","-16.2","","-18.3","","84","","","","30","","18","","9.7","","99.17","","","","-25","","Snow"
"-115.78","60.84","HAY RIVER A","2202401","2021-12-02 13:00","2021","12","02","13:00","-17.2","","-19.4","","84","","","","30","","18","","9.7","","99.21","","","","-26","","Snow"
"-115.78","60.84","HAY RIVER A","2202401","2021-12-02 14:00","2021","12","02","14:00","-17.0","","-19.1","","84","","","","29","","18","","16.1","","99.29","","","","-26","","Snow"
"-115.78","60.84","HAY RIVER A","2202401","2021-12-02 15:00","2021","12","02","15:00","-16.9","","-19.1","","83","","","","29","","21","","8.1","","99.39","","","","-27","","Snow"
"-115.78","60.84","HAY RIVER A","2202401","2021-12-02 16:00","2021","12","02","16:00","-17.4","","-19.8","","82","","","","29","","21","","4.8","","99.47","","","","-27","","Snow,Blowing Snow"
"-115.78","60.84","HAY RIVER A","2202401","2021-12-02 17:00","2021","12","02","17:00","-17.3","","-19.8","","81","","","","28","","20","","4.0","","99.54","","","","-27","","Snow,Blowing Snow"
"-115.78","60.84","HAY RIVER A","2202401","2021-12-02 18:00","2021","12","02","18:00","-17.3","","-19.8","","81","","","","28","","22","","2.8","","99.61","","","","-28","","Snow,Blowing Snow"
"-115.78","60.84","HAY RIVER A","2202401","2021-12-02 19:00","2021","12","02","19:00","-17.6","","-20.2","","80","","","","28","","24","","3.2","","99.68","","","","-28","","Snow,Blowing Snow"
"-115.78","60.84","HAY RIVER A","2202401","2021-12-02 20:00","2021","12","02","20:00","-17.3","","-19.8","","81","","","","29","","29","","2.4","","99.73","","","","-29","","Snow,Blowing Snow"
"-115.78","60.84","HAY RIVER A","2202401","2021-12-02 21:00","2021","12","02","21:00","-17.1","","-19.6","","81","","","","29","","28","","2.4","","99.82","","","","-28","","Snow,Blowing Snow"
"-115.78","60.84","HAY RIVER A","2202401","2021-12-02 22:00","2021","12","02","22:00","-17.1","","-19.7","","81","","","","30","","30","","2.0","","99.88","","","","-29","","Snow,Blowing Snow"
"-115.78","60.84","HAY RIVER A","2202401","2021-12-02 23:00","2021","12","02","23:00","-18.1","","-20.8","","80","","","","28","","28","","3.2","","99.99","","","","-30","","Snow,Blowing Snow"
"-115.78","60.84","HAY RIVER A","2202401","2021-12-03 00:00","2021","12","03","00:00","-18.6","","-21.3","","79","","","","29","","31","","3.2","","100.04","","","","-31","","Snow,Blowing Snow"
"-115.78","60.84","HAY RIVER A","2202401","2021-12-03 01:00","2021","12","03","01:00","-18.0","","-20.6","","81","","","","30","","35","","1.6","","100.11","","","","-31","","Snow,Blowing Snow"
"-115.78","60.84","HAY RIVER A","2202401","2021-12-03 02:00","2021","12","03","02:00","-18.3","","-21.1","","79","","","","30","","31","","1.6","","100.20","","","","-31","","Snow,Blowing Snow"
"-115.78","60.84","HAY RIVER A","2202401","2021-12-03 03:00","2021","12","03","03:00","-18.5","","-21.3","","79","","","","30","","34","","1.6","","100.27","","","","-31","","Snow,Blowing Snow"
"-115.78","60.84","HAY RIVER A","2202401","2021-12-03 04:00","2021","12","03","04:00","-18.8","","-21.9","","78","","","","30","","32","","2.4","","100.35","","","","-31","","Snow,Blowing Snow"
"-115.78","60.84","HAY RIVER A","2202401","2021-12-03 05:00","2021","12","03","05:00","-19.1","","-22.3","","77","","","","30","","32","","3.2","","100.39","","","","-32","","Snow,Blowing Snow"
"-115.78","60.84","HAY RIVER A","2202401","2021-12-03 06:00","2021","12","03","06:00","-19.6","","-22.3","","79","","","","29","","23","","2.4","","100.42","","","","-31","","Snow,Blowing Snow"
"-115.78","60.84","HAY RIVER A","2202401","2021-12-03 07:00","2021","12","03","07:00","-19.2","","-22.4","","76","","","","30","","27","","3.2","","100.46","","","","-31","","Snow,Blowing Snow"
"-115.78","60.84","HAY RIVER A","2202401","2021-12-03 08:00","2021","12","03","08:00","-19.6","","-22.9","","75","","","","31","","28","","4.0","","100.51","","","","-32","","Snow,Blowing Snow"
"-115.78","60.84","HAY RIVER A","2202401","2021-12-03 09:00","2021","12","03","09:00","-19.8","","-23.4","","74","","","","30","","29","","6.4","","100.56","","","","-32","","Snow,Blowing Snow"
"-115.78","60.84","HAY RIVER A","2202401","2021-12-03 10:00","2021","12","03","10:00","-20.2","","-23.6","","75","","","","31","","32","","8.1","","100.61","","","","-33","","Snow,Blowing Snow"
"-115.78","60.84","HAY RIVER A","2202401","2021-12-03 11:00","2021","12","03","11:00","-20.5","","-24.1","","73","","","","32","","32","","16.1","","100.66","","","","-34","","Snow,Blowing Snow"
"-115.78","60.84","HAY RIVER A","2202401","2021-12-03 12:00","2021","12","03","12:00","-20.9","","-24.4","","74","","","","31","","28","","16.1","","100.71","","","","-33","","Snow,Blowing Snow"
"-115.78","60.84","HAY RIVER A","2202401","2021-12-03 13:00","2021","12","03","13:00","-21.0","","-24.6","","73","","","","30","","29","","19.3","","100.75","","","","-34","","Blowing Snow"
"-115.78","60.84","HAY RIVER A","2202401","2021-12-03 14:00","2021","12","03","14:00","-21.1","","-24.6","","74","","","","30","","27","","8.1","","100.79","","","","-33","","Snow,Blowing Snow"
"-115.78","60.84","HAY RIVER A","2202401","2021-12-03 15:00","2021","12","03","15:00","-21.2","","-24.8","","73","","","","31","","28","","4.8","","100.82","","","","-34","","Snow,Blowing Snow"
"-115.78","60.84","HAY RIVER A","2202401","2021-12-03 16:00","2021","12","03","16:00","-21.7","","-25.2","","74","","","","31","","30","","9.7","","100.85","","","","-35","","Snow,Blowing Snow"
"-115.78","60.84","HAY RIVER A","2202401","2021-12-03 17:00","2021","12","03","17:00","-22.1","","-25.8","","73","","","","32","","30","","9.7","","100.87","","","","-35","","Snow,Blowing Snow"
"-115.78","60.84","HAY RIVER A","2202401","2021-12-03 18:00","2021","12","03","18:00","-22.4","","-26.0","","73","","","","31","","28","","8.1","","100.90","","","","-35","","Snow,Blowing Snow"
"-115.78","60.84","HAY RIVER A","2202401","2021-12-03 19:00","2021","12","03","19:00","-23.0","","-26.6","","73","","","","32","","27","","19.3","","100.88","","","","-36","","Snow,Blowing Snow"
"-115.78","60.84","HAY RIVER A","2202401","2021-12-03 20:00","2021","12","03","20:00","-22.9","","-26.5","","73","","","","32","","25","","20.9","","100.89","","","","-35","","Snow,Blowing Snow"
"-115.78","60.84","HAY RIVER A","2202401","2021-12-03 21:00","2021","12","03","21:00","-23.3","","-27.1","","71","","","","33","","24","","20.9","","100.89","","","","-36","","Snow,Blowing Snow"
"-115.78","60.84","HAY RIVER A","2202401","2021-12-03 22:00","2021","12","03","22:00","-24.1","","-27.9","","72","","","","32","","26","","24.1","","100.93","","","","-37","","Blowing Snow"
"-115.78","60.84","HAY RIVER A","2202401","2021-12-03 23:00","2021","12","03","23:00","-24.6","","-28.2","","73","","","","32","","25","","20.9","","100.94","","","","-38","","Snow,Blowing Snow"
"-115.78","60.84","HAY RIVER A","2202401","2021-12-04 00:00","2021","12","04","00:00","-24.7","","-28.4","","72","","","","32","","20","","19.3","","100.93","","","","-36","","Snow,Blowing Snow"
"-115.78","60.84","HAY RIVER A","2202401","2021-12-04 01:00","2021","12","04","01:00","-25.2","","-28.8","","72","","","","33","","17","","16.1","","100.91","","","","-36","","Snow,Blowing Snow"
"-115.78","60.84","HAY RIVER A","2202401","2021-12-04 02:00","2021","12","04","02:00","-25.1","","-28.7","","72","","","","32","","17","","16.1","","100.89","","","","-36","","Snow,Blowing Snow"
"-115.78","60.84","HAY RIVER A","2202401","2021-12-04 03:00","2021","12","04","03:00","-24.8","","-28.7","","71","","","","31","","18","","11.3","","100.85","","","","-36","","Snow,Blowing Snow"
"-115.78","60.84","HAY RIVER A","2202401","2021-12-04 04:00","2021","12","04","04:00","-26.5","","-29.7","","75","","","","27","","9","","14.5","","100.85","","","","-34","","Snow,Blowing Snow"
"-115.78","60.84","HAY RIVER A","2202401","2021-12-04 05:00","2021","12","04","05:00","-27.6","","-30.6","","75","","","","27","","10","","22.5","","100.82","","","","-36","","Ice Crystals,Blowing Snow"
"-115.78","60.84","HAY RIVER A","2202401","2021-12-04 06:00","2021","12","04","06:00","-27.6","","-31.3","","72","","","","32","","18","","24.1","","100.79","","","","-39","","Blowing Snow"
"-115.78","60.84","HAY RIVER A","2202401","2021-12-04 07:00","2021","12","04","07:00","-28.4","","-32.1","","71","","","","33","","10","","24.1","","100.75","","","","-37","","NA"
"-115.78","60.84","HAY RIVER A","2202401","2021-12-04 08:00","2021","12","04","08:00","-30.6","","-34.2","","71","","","","36","","2","","24.1","","100.70","","","","-33","","Mainly Clear"
"-115.78","60.84","HAY RIVER A","2202401","2021-12-04 09:00","2021","12","04","09:00","-32.2","","-35.4","","74","","","","24","","12","","24.1","","100.70","","","","-43","","NA"
"-115.78","60.84","HAY RIVER A","2202401","2021-12-04 10:00","2021","12","04","10:00","-32.6","","-35.9","","74","","","","36","","1","","24.1","","100.71","","","","-34","","NA"
"-115.78","60.84","HAY RIVER A","2202401","2021-12-04 11:00","2021","12","04","11:00","-32.8","","-36.1","","73","","","","24","","8","","24.1","","100.69","","","","-41","","Mainly Clear"
"-115.78","60.84","HAY RIVER A","2202401","2021-12-04 12:00","2021","12","04","12:00","-31.0","","-34.2","","74","","","","23","","10","","24.1","","100.65","","","","-40","","NA"
"-115.78","60.84","HAY RIVER A","2202401","2021-12-04 13:00","2021","12","04","13:00","-29.4","","-32.6","","74","","","","26","","12","","24.1","","100.64","","","","-39","","NA"
"-115.78","60.84","HAY RIVER A","2202401","2021-12-04 14:00","2021","12","04","14:00","-29.5","","-33.1","","72","","","","27","","8","","24.1","","100.60","","","","-37","","Mainly Clear"
"-115.78","60.84","HAY RIVER A","2202401","2021-12-04 15:00","2021","12","04","15:00","-30.1","","-33.7","","71","","","","27","","10","","24.1","","100.61","","","","-39","","NA"
"-115.78","60.84","HAY RIVER A","2202401","2021-12-04 16:00","2021","12","04","16:00","-31.3","","-34.6","","74","","","","25","","11","","24.1","","100.60","","","","-41","","NA"
"-115.78","60.84","HAY RIVER A","2202401","2021-12-04 17:00","2021","12","04","17:00","-32.6","","-35.8","","74","","","","24","","9","","24.1","","100.61","","","","-42","","Clear"
"-115.78","60.84","HAY RIVER A","2202401","2021-12-04 18:00","2021","12","04","18:00","-33.2","","-36.5","","73","","","","24","","9","","24.1","","100.60","","","","-42","","NA"
"-115.78","60.84","HAY RIVER A","2202401","2021-12-04 19:00","2021","12","04","19:00","-33.0","","-36.4","","73","","","","24","","10","","24.1","","100.56","","","","-43","","NA"
"-115.78","60.84","HAY RIVER A","2202401","2021-12-04 20:00","2021","12","04","20:00","-32.7","","-36.1","","73","","","","24","","10","","24.1","","100.57","","","","-42","","Clear"
"-115.78","60.84","HAY RIVER A","2202401","2021-12-04 21:00","2021","12","04","21:00","-32.3","","-35.7","","73","","","","24","","13","","24.1","","100.57","","","","-43","","NA"
"-115.78","60.84","HAY RIVER A","2202401","2021-12-04 22:00","2021","12","04","22:00","-31.0","","-34.6","","72","","","","24","","12","","24.1","","100.57","","","","-41","","NA"
"-115.78","60.84","HAY RIVER A","2202401","2021-12-04 23:00","2021","12","04","23:00","-30.7","","-34.4","","71","","","","23","","15","","24.1","","100.57","","","","-42","","Mainly Clear"
"-115.78","60.84","HAY RIVER A","2202401","2021-12-05 00:00","2021","12","05","00:00","-30.6","","-34.1","","72","","","","22","","10","","24.1","","100.58","","","","-40","","NA"
"-115.78","60.84","HAY RIVER A","2202401","2021-12-05 01:00","2021","12","05","01:00","-31.1","","-34.6","","72","","","","25","","16","","24.1","","100.53","","","","-43","","NA"
"-115.78","60.84","HAY RIVER A","2202401","2021-12-05 02:00","2021","12","05","02:00","-30.1","","-33.8","","71","","","","24","","14","","24.1","","100.53","","","","-41","","Mainly Clear"
"-115.78","60.84","HAY RIVER A","2202401","2021-12-05 03:00","2021","12","05","03:00","-30.5","","-34.1","","71","","","","23","","10","","24.1","","100.57","","","","-40","","NA"
"-115.78","60.84","HAY RIVER A","2202401","2021-12-05 04:00","2021","12","05","04:00","-30.1","","-33.6","","72","","","","20","","8","","24.1","","100.58","","","","-38","","NA"
"-115.78","60.84","HAY RIVER A","2202401","2021-12-05 05:00","2021","12","05","05:00","-31.1","","-34.6","","72","","","","23","","6","","24.1","","100.56","","","","-38","","Mainly Clear"
"-115.78","60.84","HAY RIVER A","2202401","2021-12-05 06:00","2021","12","05","06:00","-32.1","","-35.5","","73","","","","23","","8","","24.1","","100.59","","","","-40","","NA"
"-115.78","60.84","HAY RIVER A","2202401","2021-12-05 07:00","2021","12","05","07:00","-33.0","","-36.4","","73","","","","23","","5","","24.1","","100.60","","","","-39","","NA"
"-115.78","60.84","HAY RIVER A","2202401","2021-12-05 08:00","2021","12","05","08:00","-32.9","","-36.2","","73","","","","23","","8","","24.1","","100.60","","","","-41","","Clear"
"-115.78","60.84","HAY RIVER A","2202401","2021-12-05 09:00","2021","12","05","09:00","-31.9","","-35.3","","72","","","","24","","11","","24.1","","100.65","","","","-42","","NA"
"-115.78","60.84","HAY RIVER A","2202401","2021-12-05 10:00","2021","12","05","10:00","-31.2","","-34.4","","74","","","","25","","3","","24.1","","100.68","","","","-35","","NA"
"-115.78","60.84","HAY RIVER A","2202401","2021-12-05 11:00","2021","12","05","11:00","-30.2","","-33.4","","74","","","","24","","11","","24.1","","100.65","","","","-40","","Clear"
"-115.78","60.84","HAY RIVER A","2202401","2021-12-05 12:00","2021","12","05","12:00","-28.2","","-31.5","","74","","","","24","","10","","24.1","","100.68","","","","-37","","NA"
"-115.78","60.84","HAY RIVER A","2202401","2021-12-05 13:00","2021","12","05","13:00","-26.5","","-30.2","","71","","","","23","","9","","24.1","","100.61","","","","-34","","NA"
"-115.78","60.84","HAY RIVER A","2202401","2021-12-05 14:00","2021","12","05","14:00","-25.8","","-29.6","","71","","","","22","","10","","24.1","","100.58","","","","-34","","Clear"
"-115.78","60.84","HAY RIVER A","2202401","2021-12-05 15:00","2021","12","05","15:00","-25.8","","-29.7","","71","","","","22","","8","","24.1","","100.55","","","","-33","","NA"
"-115.78","60.84","HAY RIVER A","2202401","2021-12-05 16:00","2021","12","05","16:00","-28.1","","-31.5","","74","","","","18","","8","","24.1","","100.48","","","","-36","","NA"
"-115.78","60.84","HAY RIVER A","2202401","2021-12-05 17:00","2021","12","05","17:00","-27.9","","-31.2","","74","","","","19","","7","","24.1","","100.47","","","","-35","","Clear"
"-115.78","60.84","HAY RIVER A","2202401","2021-12-05 18:00","2021","12","05","18:00","-29.1","","-32.4","","74","","","","18","","8","","24.1","","100.42","","","","-37","","NA"
"-115.78","60.84","HAY RIVER A","2202401","2021-12-05 19:00","2021","12","05","19:00","-29.6","","-32.9","","74","","","","19","","8","","24.1","","100.31","","","","-38","","NA"
"-115.78","60.84","HAY RIVER A","2202401","2021-12-05 20:00","2021","12","05","20:00","-29.8","","-33.3","","72","","","","18","","5","","24.1","","100.23","","","","-35","","Clear"
"-115.78","60.84","HAY RIVER A","2202401","2021-12-05 21:00","2021","12","05","21:00","-29.9","","-33.2","","74","","","","21","","7","","24.1","","100.16","","","","-37","","NA"
"-115.78","60.84","HAY RIVER A","2202401","2021-12-05 22:00","2021","12","05","22:00","-30.6","","-33.8","","74","","","","21","","5","","24.1","","100.10","","","","-36","","NA"
"-115.78","60.84","HAY RIVER A","2202401","2021-12-05 23:00","2021","12","05","23:00","-30.0","","-33.2","","74","","","","17","","8","","24.1","","99.98","","","","-38","","Clear"
"-115.78","60.84","HAY RIVER A","2202401","2021-12-06 00:00","2021","12","06","00:00","-30.6","","-33.9","","74","","","","20","","7","","24.1","","99.96","","","","-38","","NA"
"-115.78","60.84","HAY RIVER A","2202401","2021-12-06 01:00","2021","12","06","01:00","-30.6","","-34.0","","73","","","","18","","7","","24.1","","99.87","","","","-38","","NA"
"-115.78","60.84","HAY RIVER A","2202401","2021-12-06 02:00","2021","12","06","02:00","-29.8","","-32.9","","75","","","","18","","7","","24.1","","99.86","","","","-37","","Mainly Clear"
"-115.78","60.84","HAY RIVER A","2202401","2021-12-06 03:00","2021","12","06","03:00","-28.4","","-31.8","","73","","","","21","","8","","24.1","","99.78","","","","-36","","NA"
"-115.78","60.84","HAY RIVER A","2202401","2021-12-06 04:00","2021","12","06","04:00","-28.0","","-31.4","","73","","","","18","","7","","24.1","","99.69","","","","-35","","NA"
"-115.78","60.84","HAY RIVER A","2202401","2021-12-06 05:00","2021","12","06","05:00","-27.3","","-30.8","","73","","","","18","","7","","24.1","","99.61","","","","-34","","Mainly Clear"
"-115.78","60.84","HAY RIVER A","2202401","2021-12-06 06:00","2021","12","06","06:00","-27.7","","-31.1","","73","","","","18","","8","","24.1","","99.54","","","","-35","","NA"
"-115.78","60.84","HAY RIVER A","2202401","2021-12-06 07:00","2021","12","06","07:00","-28.1","","-31.3","","74","","","","17","","5","","24.1","","99.49","","","","-33","","NA"
"-115.78","60.84","HAY RIVER A","2202401","2021-12-06 08:00","2021","12","06","08:00","-28.7","","-31.7","","76","","","","16","","8","","24.1","","99.42","","","","-36","","Mainly Clear"
"-115.78","60.84","HAY RIVER A","2202401","2021-12-06 09:00","2021","12","06","09:00","-29.1","","-32.4","","74","","","","17","","7","","24.1","","99.40","","","","-36","","NA"
"-115.78","60.84","HAY RIVER A","2202401","2021-12-06 10:00","2021","12","06","10:00","-29.8","","-32.9","","75","","","","19","","5","","24.1","","99.39","","","","-35","","NA"
"-115.78","60.84","HAY RIVER A","2202401","2021-12-06 11:00","2021","12","06","11:00","-28.9","","-32.1","","75","","","","17","","10","","24.1","","99.33","","","","-38","","Mainly Clear"
"-115.78","60.84","HAY RIVER A","2202401","2021-12-06 12:00","2021","12","06","12:00","-27.7","","-31.2","","73","","","","16","","10","","24.1","","99.26","","","","-36","","NA"
"-115.78","60.84","HAY RIVER A","2202401","2021-12-06 13:00","2021","12","06","13:00","-26.0","","-29.6","","72","","","","18","","7","","24.1","","99.25","","","","-33","","NA"
"-115.78","60.84","HAY RIVER A","2202401","2021-12-06 14:00","2021","12","06","14:00","-25.5","","-29.1","","72","","","","16","","8","","24.1","","99.22","","","","-33","","Mainly Clear"
"-115.78","60.84","HAY RIVER A","2202401","2021-12-06 15:00","2021","12","06","15:00","-25.4","","-28.7","","74","","","","18","","5","","24.1","","99.19","","","","-30","","NA"
"-115.78","60.84","HAY RIVER A","2202401","2021-12-06 16:00","2021","12","06","16:00","-25.2","","-28.4","","75","","","","12","","6","","24.1","","99.19","","","","-31","","NA"
"-115.78","60.84","HAY RIVER A","2202401","2021-12-06 17:00","2021","12","06","17:00","-25.8","","-28.7","","77","","","","13","","7","","24.1","","99.19","","","","-32","","Mainly Clear"
"-115.78","60.84","HAY RIVER A","2202401","2021-12-06 18:00","2021","12","06","18:00","-26.6","","-29.5","","77","","","","14","","6","","24.1","","99.16","","","","-33","","NA"
"-115.78","60.84","HAY RIVER A","2202401","2021-12-06 19:00","2021","12","06","19:00","-26.1","","-28.9","","77","","","","14","","7","","24.1","","99.09","","","","-33","","NA"
"-115.78","60.84","HAY RIVER A","2202401","2021-12-06 20:00","2021","12","06","20:00","-25.8","","-28.8","","76","","","","16","","9","","24.1","","99.09","","","","-34","","Mainly Clear"
"-115.78","60.84","HAY RIVER A","2202401","2021-12-06 21:00","2021","12","06","21:00","-26.0","","-28.9","","77","","","","11","","9","","24.1","","99.07","","","","-34","","NA"
"-115.78","60.84","HAY RIVER A","2202401","2021-12-06 22:00","2021","12","06","22:00","-27.3","","-30.3","","76","","","","10","","9","","24.1","","99.07","","","","-35","","NA"
"-115.78","60.84","HAY RIVER A","2202401","2021-12-06 23:00","2021","12","06","23:00","-26.4","","-29.4","","77","","","","12","","5","","24.1","","99.04","","","","-32","","Mainly Clear"
"-115.78","60.84","HAY RIVER A","2202401","2021-12-07 00:00","2021","12","07","00:00","-27.2","","-30.3","","75","","","","10","","12","","24.1","","98.96","","","","-37","","NA"
"-115.78","60.84","HAY RIVER A","2202401","2021-12-07 01:00","2021","12","07","01:00","-26.9","","-30.1","","75","","","","13","","8","","24.1","","98.97","","","","-34","","NA"
"-115.78","60.84","HAY RIVER A","2202401","2021-12-07 02:00","2021","12","07","02:00","-27.0","","-30.1","","75","","","","11","","7","","24.1","","98.94","","","","-34","","Mainly Clear"
"-115.78","60.84","HAY RIVER A","2202401","2021-12-07 03:00","2021","12","07","03:00","-26.7","","-30.0","","74","","","","11","","9","","24.1","","98.89","","","","-35","","NA"
"-115.78","60.84","HAY RIVER A","2202401","2021-12-07 04:00","2021","12","07","04:00","-26.9","","-29.9","","76","","","","10","","8","","24.1","","98.84","","","","-34","","NA"
"-115.78","60.84","HAY RIVER A","2202401","2021-12-07 05:00","2021","12","07","05:00","-26.4","","-29.4","","76","","","","9","","15","","24.1","","98.80","","","","-37","","Mainly Clear"
"-115.78","60.84","HAY RIVER A","2202401","2021-12-07 06:00","2021","12","07","06:00","-26.7","","-29.8","","76","","","","10","","11","","24.1","","98.75","","","","-36","","NA"
"-115.78","60.84","HAY RIVER A","2202401","2021-12-07 07:00","2021","12","07","07:00","-27.2","","-30.2","","76","","","","9","","9","","24.1","","98.68","","","","-35","","NA"
"-115.78","60.84","HAY RIVER A","2202401","2021-12-07 08:00","2021","12","07","08:00","-26.1","","-29.2","","75","","","","11","","13","","24.1","","98.60","","","","-36","","Mainly Clear"
"-115.78","60.84","HAY RIVER A","2202401","2021-12-07 09:00","2021","12","07","09:00","-25.6","","-28.9","","74","","","","14","","12","","24.1","","98.52","","","","-35","","NA"
"-115.78","60.84","HAY RIVER A","2202401","2021-12-07 10:00","2021","12","07","10:00","-25.9","","-29.2","","74","","","","12","","11","","24.1","","98.45","","","","-35","","NA"
"-115.78","60.84","HAY RIVER A","2202401","2021-12-07 11:00","2021","12","07","11:00","-24.8","","-28.1","","75","","","","14","","14","","24.1","","98.38","","","","-35","","Mainly Clear"
"-115.78","60.84","HAY RIVER A","2202401","2021-12-07 12:00","2021","12","07","12:00","-22.8","","-26.1","","75","","","","14","","15","","24.1","","98.22","","","","-33","","NA"
"-115.78","60.84","HAY RIVER A","2202401","2021-12-07 13:00","2021","12","07","13:00","-21.0","","-24.4","","75","","","","16","","15","","24.1","","98.14","","","","-30","","NA"
"-115.78","60.84","HAY RIVER A","2202401","2021-12-07 14:00","2021","12","07","14:00","-19.6","","-23.0","","75","","","","13","","18","","9.7","","98.01","","","","-29","","Snow"
"-115.78","60.84","HAY RIVER A","2202401","2021-12-07 15:00","2021","12","07","15:00","-18.4","","-21.2","","79","","","","14","","18","","3.2","","97.87","","","","-28","","Snow,Blowing Snow"
"-115.78","60.84","HAY RIVER A","2202401","2021-12-07 16:00","2021","12","07","16:00","-17.4","","-20.1","","80","","","","15","","28","","4.8","","97.71","","","","-29","","Snow,Blowing Snow"
"-115.78","60.84","HAY RIVER A","2202401","2021-12-07 17:00","2021","12","07","17:00","-16.5","","-19.2","","80","","","","16","","31","","19.3","","97.58","","","","-28","","Snow,Blowing Snow"
"-115.78","60.84","HAY RIVER A","2202401","2021-12-07 18:00","2021","12","07","18:00","-15.3","","-18.0","","80","","","","17","","29","","19.3","","97.45","","","","-26","","Snow,Blowing Snow"
"-115.78","60.84","HAY RIVER A","2202401","2021-12-07 19:00","2021","12","07","19:00","-14.2","","-16.9","","80","","","","17","","30","","19.3","","97.34","","","","-25","","Snow,Blowing Snow"
"-115.78","60.84","HAY RIVER A","2202401","2021-12-07 20:00","2021","12","07","20:00","-13.1","","-15.7","","81","","","","18","","27","","24.1","","97.26","","","","-23","","Snow,Blowing Snow"
"-115.78","60.84","HAY RIVER A","2202401","2021-12-07 21:00","2021","12","07","21:00","-12.8","","-15.3","","81","","","","18","","26","","24.1","","97.13","","","","-23","","Snow,Blowing Snow"
"-115.78","60.84","HAY RIVER A","2202401","2021-12-07 22:00","2021","12","07","22:00","-13.1","","-15.6","","82","","","","17","","23","","24.1","","97.04","","","","-22","","Snow,Blowing Snow"
"-115.78","60.84","HAY RIVER A","2202401","2021-12-07 23:00","2021","12","07","23:00","-11.4","","-13.8","","83","","","","17","","22","","24.1","","96.94","","","","-20","","Snow,Blowing Snow"
"-115.78","60.84","HAY RIVER A","2202401","2021-12-08 00:00","2021","12","08","00:00","-10.5","","-13.0","","82","","","","18","","20","","24.1","","96.86","","","","-18","","Blowing Snow"
"-115.78","60.84","HAY RIVER A","2202401","2021-12-08 01:00","2021","12","08","01:00","-11.5","","-13.7","","84","","","","17","","19","","24.1","","96.78","","","","-20","","NA"
"-115.78","60.84","HAY RIVER A","2202401","2021-12-08 02:00","2021","12","08","02:00","-10.8","","-13.2","","83","","","","17","","13","","24.1","","96.69","","","","-17","","Mostly Cloudy"
"-115.78","60.84","HAY RIVER A","2202401","2021-12-08 03:00","2021","12","08","03:00","-10.8","","-13.0","","84","","","","18","","15","","24.1","","96.66","","","","-18","","NA"
"-115.78","60.84","HAY RIVER A","2202401","2021-12-08 04:00","2021","12","08","04:00","-11.9","","-14.0","","85","","","","17","","10","","24.1","","96.62","","","","-18","","NA"
"-115.78","60.84","HAY RIVER A","2202401","2021-12-08 05:00","2021","12","08","05:00","-11.8","","-13.9","","85","","","","16","","10","","24.1","","96.57","","","","-17","","Mostly Cloudy"
"-115.78","60.84","HAY RIVER A","2202401","2021-12-08 06:00","2021","12","08","06:00","-12.5","","-14.6","","85","","","","20","","4","","24.1","","96.53","","","","-15","","Snow"
"-115.78","60.84","HAY RIVER A","2202401","2021-12-08 07:00","2021","12","08","07:00","-12.4","","-14.4","","85","","","","17","","8","","24.1","","96.52","","","","-17","","NA"
"-115.78","60.84","HAY RIVER A","2202401","2021-12-08 08:00","2021","12","08","08:00","-12.8","","-14.5","","88","","","","14","","5","","24.1","","96.51","","","","-16","","Mostly Cloudy"
"-115.78","60.84","HAY RIVER A","2202401","2021-12-08 09:00","2021","12","08","09:00","-13.7","","-15.3","","88","","","","30","","14","","24.1","","96.55","","","","-21","","NA"
"-115.78","60.84","HAY RIVER A","2202401","2021-12-08 10:00","2021","12","08","10:00","-15.9","","-17.9","","85","","","","29","","13","","24.1","","96.57","","","","-23","","NA"
"-115.78","60.84","HAY RIVER A","2202401","2021-12-08 11:00","2021","12","08","11:00","-16.9","","-18.6","","86","","","","29","","18","","24.1","","96.62","","","","-26","","Mostly Cloudy"
"-115.78","60.84","HAY RIVER A","2202401","2021-12-08 12:00","2021","12","08","12:00","-16.6","","-18.4","","86","","","","28","","18","","4.0","","96.66","","","","-26","","Snow,Fog"
"-115.78","60.84","HAY RIVER A","2202401","2021-12-08 13:00","2021","12","08","13:00","-15.5","","-17.4","","86","","","","28","","21","","3.2","","96.69","","","","-25","","Snow,Fog"
"-115.78","60.84","HAY RIVER A","2202401","2021-12-08 14:00","2021","12","08","14:00","-15.0","","-16.9","","86","","","","28","","23","","2.4","","96.75","","","","-25","","Snow,Fog,Blowing Snow"
"-115.78","60.84","HAY RIVER A","2202401","2021-12-08 15:00","2021","12","08","15:00","-15.5","","-17.5","","85","","","","28","","23","","1.6","","96.83","","","","-25","","Snow,Fog,Blowing Snow"
"-115.78","60.84","HAY RIVER A","2202401","2021-12-08 16:00","2021","12","08","16:00","-15.8","","-18.0","","84","","","","29","","28","","2.4","","96.90","","","","-27","","Snow,Fog,Blowing Snow"
"-115.78","60.84","HAY RIVER A","2202401","2021-12-08 17:00","2021","12","08","17:00","-16.1","","-18.3","","83","","","","29","","23","","6.4","","96.98","","","","-26","","Snow,Blowing Snow"
"-115.78","60.84","HAY RIVER A","2202401","2021-12-08 18:00","2021","12","08","18:00","-17.0","","-19.9","","79","","","","30","","21","","19.3","","97.07","","","","-27","","Snow,Blowing Snow"
"-115.78","60.84","HAY RIVER A","2202401","2021-12-08 19:00","2021","12","08","19:00","-17.3","","-20.0","","80","","","","29","","19","","19.3","","97.11","","","","-27","","Snow,Blowing Snow"
"-115.78","60.84","HAY RIVER A","2202401","2021-12-08 20:00","2021","12","08","20:00","-17.7","","-20.5","","79","","","","27","","11","","24.1","","97.12","","","","-25","","Snow,Blowing Snow"
"-115.78","60.84","HAY RIVER A","2202401","2021-12-08 21:00","2021","12","08","21:00","-18.5","","-21.1","","80","","","","26","","9","","24.1","","97.16","","","","-25","","Snow,Blowing Snow"
"-115.78","60.84","HAY RIVER A","2202401","2021-12-08 22:00","2021","12","08","22:00","-20.4","","-22.6","","83","","","","27","","7","","24.1","","97.17","","","","-26","","Snow"
"-115.78","60.84","HAY RIVER A","2202401","2021-12-08 23:00","2021","12","08","23:00","-20.7","","-22.9","","83","","","","36","","1","","24.1","","97.20","","","","-22","","Mainly Clear"
"-115.78","60.84","HAY RIVER A","2202401","2021-12-09 00:00","2021","12","09","00:00","-22.6","","-25.0","","81","","","","25","","4","","24.1","","97.24","","","","-26","","NA"
"-115.78","60.84","HAY RIVER A","2202401","2021-12-09 01:00","2021","12","09","01:00","-21.8","","-24.1","","82","","","","28","","3","","24.1","","97.26","","","","-25","","NA"
"-115.78","60.84","HAY RIVER A","2202401","2021-12-09 02:00","2021","12","09","02:00","-22.6","","-25.0","","81","","","","36","","2","","24.1","","97.29","","","","-24","","Mainly Clear"
"-115.78","60.84","HAY RIVER A","2202401","2021-12-09 03:00","2021","12","09","03:00","-23.0","","-25.4","","81","","","","23","","5","","24.1","","97.32","","","","-28","","NA"
"-115.78","60.84","HAY RIVER A","2202401","2021-12-09 04:00","2021","12","09","04:00","-24.3","","-26.8","","80","","","","22","","5","","24.1","","97.36","","","","-29","","NA"
"-115.78","60.84","HAY RIVER A","2202401","2021-12-09 05:00","2021","12","09","05:00","-24.4","","-27.1","","79","","","","21","","3","","24.1","","97.36","","","","-27","","Mainly Clear"
"-115.78","60.84","HAY RIVER A","2202401","2021-12-09 06:00","2021","12","09","06:00","-23.6","","-26.2","","80","","","","36","","1","","24.1","","97.37","","","","-25","","NA"
"-115.78","60.84","HAY RIVER A","2202401","2021-12-09 07:00","2021","12","09","07:00","-23.6","","-26.3","","79","","","","36","","3","","22.5","","97.39","","","","-26","","Ice Crystals"
"-115.78","60.84","HAY RIVER A","2202401","2021-12-09 08:00","2021","12","09","08:00","-23.9","","-26.5","","79","","","","19","","3","","22.5","","97.40","","","","-27","","Ice Crystals"
"-115.78","60.84","HAY RIVER A","2202401","2021-12-09 09:00","2021","12","09","09:00","-24.0","","-26.7","","79","","","","15","","7","","22.5","","97.44","","","","-30","","Ice Crystals"
"-115.78","60.84","HAY RIVER A","2202401","2021-12-09 10:00","2021","12","09","10:00","-22.0","","-24.5","","80","","","","36","","3","","3.2","","97.47","","","","-25","","Snow"
"-115.78","60.84","HAY RIVER A","2202401","2021-12-09 11:00","2021","12","09","11:00","-20.9","","-23.4","","81","","","","23","","4","","8.1","","97.47","","","","-24","","Snow"
"-115.78","60.84","HAY RIVER A","2202401","2021-12-09 12:00","2021","12","09","12:00","-19.0","","-21.2","","83","","","","24","","8","","22.5","","97.50","","","","-25","","Snow"
"-115.78","60.84","HAY RIVER A","2202401","2021-12-09 13:00","2021","12","09","13:00","-16.3","","-18.6","","83","","","","33","","18","","6.4","","97.54","","","","-25","","Snow"
"-115.78","60.84","HAY RIVER A","2202401","2021-12-09 14:00","2021","12","09","14:00","-17.0","","-19.5","","81","","","","32","","23","","4.8","","97.61","","","","-27","","Snow"
"-115.78","60.84","HAY RIVER A","2202401","2021-12-09 15:00","2021","12","09","15:00","-18.0","","-21.0","","77","","","","31","","26","","9.7","","97.66","","","","-29","","Snow,Blowing Snow"
"-115.78","60.84","HAY RIVER A","2202401","2021-12-09 16:00","2021","12","09","16:00","-18.9","","-22.4","","74","","","","32","","25","","24.1","","97.71","","","","-30","","Blowing Snow"
"-115.78","60.84","HAY RIVER A","2202401","2021-12-09 17:00","2021","12","09","17:00","-19.1","","-22.3","","76","","","","31","","19","","24.1","","97.75","","","","-29","","Ice Crystals,Blowing Snow"
"-115.78","60.84","HAY RIVER A","2202401","2021-12-09 18:00","2021","12","09","18:00","-18.8","","-21.9","","77","","","","28","","19","","19.3","","97.75","","","","-29","","Ice Crystals,Blowing Snow"
"-115.78","60.84","HAY RIVER A","2202401","2021-12-09 19:00","2021","12","09","19:00","-18.3","","-21.5","","76","","","","31","","23","","16.1","","97.75","","","","-29","","Snow,Blowing Snow"
"-115.78","60.84","HAY RIVER A","2202401","2021-12-09 20:00","2021","12","09","20:00","-18.6","","-21.1","","81","","","","29","","12","","16.1","","97.79","","","","-26","","Snow"
"-115.78","60.84","HAY RIVER A","2202401","2021-12-09 21:00","2021","12","09","21:00","-18.7","","-21.3","","80","","","","27","","12","","16.1","","97.80","","","","-26","","Snow"
"-115.78","60.84","HAY RIVER A","2202401","2021-12-09 22:00","2021","12","09","22:00","-18.6","","-21.3","","79","","","","27","","14","","19.3","","97.79","","","","-27","","Snow"
"-115.78","60.84","HAY RIVER A","2202401","2021-12-09 23:00","2021","12","09","23:00","-18.0","","-20.9","","78","","","","27","","15","","19.3","","97.80","","","","-27","","Snow"
"-115.78","60.84","HAY RIVER A","2202401","2021-12-10 00:00","2021","12","10","00:00","-20.0","","-22.7","","80","","","","25","","13","","24.1","","97.80","","","","-28","","NA"
"-115.78","60.84","HAY RIVER A","2202401","2021-12-10 01:00","2021","12","10","01:00","-19.9","","-22.4","","81","","","","25","","11","","24.1","","97.80","","","","-28","","NA"
"-115.78","60.84","HAY RIVER A","2202401","2021-12-10 02:00","2021","12","10","02:00","-19.8","","-22.2","","81","","","","23","","9","","19.3","","97.76","","","","-27","","Snow"
"-115.78","60.84","HAY RIVER A","2202401","2021-12-10 03:00","2021","12","10","03:00","-20.1","","-22.5","","82","","","","25","","10","","19.3","","97.77","","","","-27","","Snow"
"-115.78","60.84","HAY RIVER A","2202401","2021-12-10 04:00","2021","12","10","04:00","-20.6","","-23.0","","82","","","","24","","7","","19.3","","97.79","","","","-26","","Snow"
"-115.78","60.84","HAY RIVER A","2202401","2021-12-10 05:00","2021","12","10","05:00","-21.3","","-23.5","","83","","","","36","","2","","24.1","","97.77","","","","-23","","Mainly Clear"
"-115.78","60.84","HAY RIVER A","2202401","2021-12-10 06:00","2021","12","10","06:00","-24.0","","-26.5","","80","","","","22","","8","","24.1","","97.75","","","","-31","","NA"
"-115.78","60.84","HAY RIVER A","2202401","2021-12-10 07:00","2021","12","10","07:00","-24.8","","-27.5","","78","","","","26","","3","","24.1","","97.72","","","","-28","","NA"
"-115.78","60.84","HAY RIVER A","2202401","2021-12-10 08:00","2021","12","10","08:00","-24.4","","-26.9","","80","","","","16","","4","","24.1","","97.66","","","","-28","","Mostly Cloudy"
"-115.78","60.84","HAY RIVER A","2202401","2021-12-10 09:00","2021","12","10","09:00","-24.5","","-27.2","","79","","","","19","","3","","16.1","","97.62","","","","-27","","NA"
"-115.78","60.84","HAY RIVER A","2202401","2021-12-10 10:00","2021","12","10","10:00","-21.7","","-24.2","","81","","","","36","","1","","2.8","","97.60","","","","-23","","Fog"
"-115.78","60.84","HAY RIVER A","2202401","2021-12-10 11:00","2021","12","10","11:00","-20.3","","-22.6","","82","","","","15","","5","","1.0","","97.54","","","","-25","","Fog"
"-115.78","60.84","HAY RIVER A","2202401","2021-12-10 12:00","2021","12","10","12:00","-18.4","","-20.6","","83","","","","10","","6","","2.8","","97.47","","","","-23","","Fog"
"-115.78","60.84","HAY RIVER A","2202401","2021-12-10 13:00","2021","12","10","13:00","-17.9","","-20.1","","84","","","","9","","8","","4.0","","97.44","","","","-24","","Fog"
"-115.78","60.84","HAY RIVER A","2202401","2021-12-10 14:00","2021","12","10","14:00","-18.8","","-21.1","","83","","","","10","","10","","24.1","","97.41","","","","-26","","Mainly Clear"
"-115.78","60.84","HAY RIVER A","2202401","2021-12-10 15:00","2021","12","10","15:00","-18.5","","-20.7","","83","","","","10","","10","","24.1","","97.38","","","","-25","","NA"
"-115.78","60.84","HAY RIVER A","2202401","2021-12-10 16:00","2021","12","10","16:00","-19.0","","-21.3","","82","","","","12","","11","","24.1","","97.32","","","","-26","","NA"
"-115.78","60.84","HAY RIVER A","2202401","2021-12-10 17:00","2021","12","10","17:00","-19.3","","-21.7","","82","","","","12","","10","","24.1","","97.24","","","","-26","","Mainly Clear"
"-115.78","60.84","HAY RIVER A","2202401","2021-12-10 18:00","2021","12","10","18:00","-19.1","","-21.3","","83","","","","12","","12","","24.1","","97.10","","","","-27","","NA"
"-115.78","60.84","HAY RIVER A","2202401","2021-12-10 19:00","2021","12","10","19:00","-19.5","","-21.8","","82","","","","12","","7","","24.1","","97.03","","","","-25","","NA"
"-115.78","60.84","HAY RIVER A","2202401","2021-12-10 20:00","2021","12","10","20:00","-20.1","","-22.3","","82","","","","9","","15","","24.1","","96.92","","","","-29","","Clear"
"-115.78","60.84","HAY RIVER A","2202401","2021-12-10 21:00","2021","12","10","21:00","-19.1","","-21.4","","83","","","","10","","10","","24.1","","96.81","","","","-26","","NA"
"-115.78","60.84","HAY RIVER A","2202401","2021-12-10 22:00","2021","12","10","22:00","-19.0","","-21.3","","83","","","","10","","15","","24.1","","96.74","","","","-28","","NA"
"-115.78","60.84","HAY RIVER A","2202401","2021-12-10 23:00","2021","12","10","23:00","-19.2","","-21.4","","83","","","","10","","15","","24.1","","96.68","","","","-28","","Mainly Clear"
"-115.78","60.84","HAY RIVER A","2202401","2021-12-11 00:00","2021","12","11","00:00","-18.4","","-20.5","","83","","","","12","","14","","24.1","","96.60","","","","-27","","NA"
"-115.78","60.84","HAY RIVER A","2202401","2021-12-11 01:00","2021","12","11","01:00","-19.0","","-21.2","","83","","","","9","","14","","24.1","","96.51","","","","-28","","NA"
"-115.78","60.84","HAY RIVER A","2202401","2021-12-11 02:00","2021","12","11","02:00","-18.2","","-20.4","","83","","","","9","","18","","24.1","","96.37","","","","-28","","Mainly Clear"
"-115.78","60.84","HAY RIVER A","2202401","2021-12-11 03:00","2021","12","11","03:00","-17.8","","-19.9","","84","","","","9","","16","","24.1","","96.32","","","","-27","","NA"
"-115.78","60.84","HAY RIVER A","2202401","2021-12-11 04:00","2021","12","11","04:00","-17.0","","-19.0","","84","","","","11","","20","","24.1","","96.20","","","","-27","","NA"
"-115.78","60.84","HAY RIVER A","2202401","2021-12-11 05:00","2021","12","11","05:00","-16.7","","-18.8","","85","","","","12","","20","","24.1","","96.16","","","","-26","","Mostly Cloudy"
"-115.78","60.84","HAY RIVER A","2202401","2021-12-11 06:00","2021","12","11","06:00","-15.7","","-17.6","","85","","","","11","","19","","12.9","","96.08","","","","-25","","Snow"
"-115.78","60.84","HAY RIVER A","2202401","2021-12-11 07:00","2021","12","11","07:00","-15.2","","-17.1","","86","","","","10","","21","","19.3","","95.99","","","","-25","","Snow,Blowing Snow"
"-115.78","60.84","HAY RIVER A","2202401","2021-12-11 08:00","2021","12","11","08:00","-15.2","","-17.0","","86","","","","10","","18","","19.3","","95.98","","","","-24","","Snow,Blowing Snow"
"-115.78","60.84","HAY RIVER A","2202401","2021-12-11 09:00","2021","12","11","09:00","-15.2","","-17.1","","86","","","","10","","20","","24.1","","95.99","","","","-24","","Snow,Blowing Snow"
"-115.78","60.84","HAY RIVER A","2202401","2021-12-11 10:00","2021","12","11","10:00","-15.1","","-17.0","","86","","","","10","","16","","24.1","","95.96","","","","-23","","NA"
"-115.78","60.84","HAY RIVER A","2202401","2021-12-11 11:00","2021","12","11","11:00","-14.9","","-16.9","","85","","","","9","","11","","24.1","","95.96","","","","-21","","Snow"
"-115.78","60.84","HAY RIVER A","2202401","2021-12-11 12:00","2021","12","11","12:00","-14.7","","-17.0","","83","","","","8","","13","","24.1","","95.97","","","","-22","","Snow"
"-115.78","60.84","HAY RIVER A","2202401","2021-12-11 13:00","2021","12","11","13:00","-14.6","","-16.9","","83","","","","9","","9","","1.6","","95.97","","","","-20","","Snow"
"-115.78","60.84","HAY RIVER A","2202401","2021-12-11 14:00","2021","12","11","14:00","-14.5","","-16.7","","84","","","","7","","7","","0.8","","96.01","","","","-19","","Moderate Snow"
"-115.78","60.84","HAY RIVER A","2202401","2021-12-11 15:00","2021","12","11","15:00","-14.5","","-16.6","","84","","","","","","0","","2.4","","96.09","","","","","","Snow"
"-115.78","60.84","HAY RIVER A","2202401","2021-12-11 16:00","2021","12","11","16:00","-14.8","","-16.8","","85","","","","30","","11","","9.7","","96.15","","","","-21","","Snow"
"-115.78","60.84","HAY RIVER A","2202401","2021-12-11 17:00","2021","12","11","17:00","-14.5","","-16.9","","83","","","","31","","18","","8.1","","96.22","","","","-23","","Snow"
"-115.78","60.84","HAY RIVER A","2202401","2021-12-11 18:00","2021","12","11","18:00","-14.6","","-16.8","","84","","","","30","","22","","8.1","","96.29","","","","-24","","Snow"
"-115.78","60.84","HAY RIVER A","2202401","2021-12-11 19:00","2021","12","11","19:00","-15.3","","-17.7","","82","","","","29","","26","","12.9","","96.40","","","","-26","","Snow,Blowing Snow"
"-115.78","60.84","HAY RIVER A","2202401","2021-12-11 20:00","2021","12","11","20:00","-16.5","","-19.0","","81","","","","28","","25","","16.1","","96.47","","","","-27","","Snow,Blowing Snow"
"-115.78","60.84","HAY RIVER A","2202401","2021-12-11 21:00","2021","12","11","21:00","-17.5","","-20.0","","81","","","","27","","19","","19.3","","96.56","","","","-27","","Blowing Snow"
"-115.78","60.84","HAY RIVER A","2202401","2021-12-11 22:00","2021","12","11","22:00","-18.2","","-20.8","","81","","","","28","","25","","19.3","","96.65","","","","-29","","Blowing Snow"
"-115.78","60.84","HAY RIVER A","2202401","2021-12-11 23:00","2021","12","11","23:00","-18.9","","-21.5","","80","","","","27","","20","","19.3","","96.75","","","","-29","","Blowing Snow"
"-115.78","60.84","HAY RIVER A","2202401","2021-12-12 00:00","2021","12","12","00:00","-19.2","","-21.9","","79","","","","26","","17","","19.3","","96.82","","","","-29","","Blowing Snow"
"-115.78","60.84","HAY RIVER A","2202401","2021-12-12 01:00","2021","12","12","01:00","-19.0","","-21.8","","79","","","","27","","21","","22.5","","96.90","","","","-29","","Blowing Snow"
"-115.78","60.84","HAY RIVER A","2202401","2021-12-12 02:00","2021","12","12","02:00","-19.1","","-22.0","","78","","","","27","","20","","22.5","","96.96","","","","-29","","Blowing Snow"
"-115.78","60.84","HAY RIVER A","2202401","2021-12-12 03:00","2021","12","12","03:00","-19.2","","-22.1","","78","","","","27","","21","","24.1","","97.07","","","","-30","","Blowing Snow"
"-115.78","60.84","HAY RIVER A","2202401","2021-12-12 04:00","2021","12","12","04:00","-19.6","","-22.5","","78","","","","26","","17","","24.1","","97.18","","","","-29","","NA"
"-115.78","60.84","HAY RIVER A","2202401","2021-12-12 05:00","2021","12","12","05:00","-19.9","","-22.8","","78","","","","26","","19","","24.1","","97.25","","","","-30","","Blowing Snow"
"-115.78","60.84","HAY RIVER A","2202401","2021-12-12 06:00","2021","12","12","06:00","-20.5","","-23.3","","78","","","","26","","17","","24.1","","97.29","","","","-30","","Blowing Snow"
"-115.78","60.84","HAY RIVER A","2202401","2021-12-12 07:00","2021","12","12","07:00","-21.2","","-24.2","","77","","","","25","","18","","24.1","","97.38","","","","-31","","Blowing Snow"
"-115.78","60.84","HAY RIVER A","2202401","2021-12-12 08:00","2021","12","12","08:00","-20.5","","-23.7","","76","","","","25","","14","","24.1","","97.46","","","","-29","","Mostly Cloudy"
"-115.78","60.84","HAY RIVER A","2202401","2021-12-12 09:00","2021","12","12","09:00","-19.6","","-22.7","","77","","","","25","","16","","24.1","","97.56","","","","-29","","NA"
"-115.78","60.84","HAY RIVER A","2202401","2021-12-12 10:00","2021","12","12","10:00","-18.8","","-22.0","","76","","","","25","","17","","24.1","","97.68","","","","-28","","NA"
"-115.78","60.84","HAY RIVER A","2202401","2021-12-12 11:00","2021","12","12","11:00","-18.5","","-21.6","","77","","","","26","","18","","24.1","","97.77","","","","-28","","Mostly Cloudy"
"-115.78","60.84","HAY RIVER A","2202401","2021-12-12 12:00","2021","12","12","12:00","-19.3","","-22.6","","76","","","","25","","17","","24.1","","97.84","","","","-29","","NA"
"-115.78","60.84","HAY RIVER A","2202401","2021-12-12 13:00","2021","12","12","13:00","-18.8","","-22.2","","75","","","","25","","18","","24.1","","97.94","","","","-28","","NA"
"-115.78","60.84","HAY RIVER A","2202401","2021-12-12 14:00","2021","12","12","14:00","-19.1","","-22.5","","75","","","","24","","19","","24.1","","98.05","","","","-29","","Mainly Clear"
"-115.78","60.84","HAY RIVER A","2202401","2021-12-12 15:00","2021","12","12","15:00","-19.9","","-23.0","","76","","","","24","","18","","24.1","","98.15","","","","-30","","NA"
"-115.78","60.84","HAY RIVER A","2202401","2021-12-12 16:00","2021","12","12","16:00","-20.8","","-23.6","","79","","","","24","","13","","24.1","","98.27","","","","-29","","NA"
"-115.78","60.84","HAY RIVER A","2202401","2021-12-12 17:00","2021","12","12","17:00","-21.5","","-24.2","","79","","","","24","","12","","24.1","","98.35","","","","-30","","Mostly Cloudy"
"-115.78","60.84","HAY RIVER A","2202401","2021-12-12 18:00","2021","12","12","18:00","-21.6","","-24.1","","81","","","","23","","12","","24.1","","98.41","","","","-30","","NA"
"-115.78","60.84","HAY RIVER A","2202401","2021-12-12 19:00","2021","12","12","19:00","-21.7","","-24.1","","81","","","","24","","14","","24.1","","98.47","","","","-31","","NA"
"-115.78","60.84","HAY RIVER A","2202401","2021-12-12 20:00","2021","12","12","20:00","-21.6","","-24.1","","80","","","","24","","13","","24.1","","98.57","","","","-30","","Mainly Clear"
"-115.78","60.84","HAY RIVER A","2202401","2021-12-12 21:00","2021","12","12","21:00","-20.8","","-23.3","","80","","","","23","","12","","24.1","","98.68","","","","-29","","NA"
"-115.78","60.84","HAY RIVER A","2202401","2021-12-12 22:00","2021","12","12","22:00","-19.9","","-22.7","","79","","","","24","","15","","24.1","","98.76","","","","-29","","NA"
"-115.78","60.84","HAY RIVER A","2202401","2021-12-12 23:00","2021","12","12","23:00","-20.1","","-22.9","","79","","","","25","","17","","24.1","","98.85","","","","-30","","Mostly Cloudy"
"-115.78","60.84","HAY RIVER A","2202401","2021-12-13 00:00","2021","12","13","00:00","-20.2","","-23.0","","79","","","","25","","17","","24.1","","98.91","","","","-30","","Ice Crystals"
"-115.78","60.84","HAY RIVER A","2202401","2021-12-13 01:00","2021","12","13","01:00","-19.9","","-22.6","","79","","","","25","","14","","24.1","","99.00","","","","-29","","Ice Crystals"
"-115.78","60.84","HAY RIVER A","2202401","2021-12-13 02:00","2021","12","13","02:00","-20.6","","-23.0","","81","","","","25","","11","","24.1","","99.09","","","","-28","","Ice Crystals"
"-115.78","60.84","HAY RIVER A","2202401","2021-12-13 03:00","2021","12","13","03:00","-19.2","","-22.1","","79","","","","26","","14","","24.1","","99.17","","","","-28","","Ice Crystals"
"-115.78","60.84","HAY RIVER A","2202401","2021-12-13 04:00","2021","12","13","04:00","-19.6","","-22.5","","78","","","","25","","16","","19.3","","99.25","","","","-29","","Ice Crystals"
"-115.78","60.84","HAY RIVER A","2202401","2021-12-13 05:00","2021","12","13","05:00","-20.0","","-22.7","","79","","","","26","","17","","22.5","","99.31","","","","-30","","Ice Crystals"
"-115.78","60.84","HAY RIVER A","2202401","2021-12-13 06:00","2021","12","13","06:00","-18.8","","-21.6","","79","","","","27","","16","","22.5","","99.36","","","","-28","","Ice Crystals"
"-115.78","60.84","HAY RIVER A","2202401","2021-12-13 07:00","2021","12","13","07:00","-18.7","","-21.4","","80","","","","26","","16","","24.1","","99.42","","","","-28","","NA"
"-115.78","60.84","HAY RIVER A","2202401","2021-12-13 08:00","2021","12","13","08:00","-18.1","","-20.5","","81","","","","27","","18","","24.1","","99.49","","","","-28","","Snow"
"-115.78","60.84","HAY RIVER A","2202401","2021-12-13 09:00","2021","12","13","09:00","-17.2","","-19.6","","82","","","","29","","22","","24.1","","99.59","","","","-27","","Snow"
"-115.78","60.84","HAY RIVER A","2202401","2021-12-13 10:00","2021","12","13","10:00","-17.1","","-19.8","","79","","","","30","","29","","6.4","","99.70","","","","-29","","Snow"
"-115.78","60.84","HAY RIVER A","2202401","2021-12-13 11:00","2021","12","13","11:00","-17.4","","-20.3","","79","","","","30","","30","","6.4","","99.81","","","","-29","","Snow,Blowing Snow"
"-115.78","60.84","HAY RIVER A","2202401","2021-12-13 12:00","2021","12","13","12:00","-17.6","","-20.6","","78","","","","30","","30","","9.7","","99.89","","","","-29","","Snow,Blowing Snow"
"-115.78","60.84","HAY RIVER A","2202401","2021-12-13 13:00","2021","12","13","13:00","-17.9","","-20.9","","77","","","","30","","25","","12.9","","99.96","","","","-29","","Snow,Blowing Snow"
"-115.78","60.84","HAY RIVER A","2202401","2021-12-13 14:00","2021","12","13","14:00","-18.2","","-21.4","","77","","","","30","","27","","19.3","","100.00","","","","-30","","Snow,Blowing Snow"
"-115.78","60.84","HAY RIVER A","2202401","2021-12-13 15:00","2021","12","13","15:00","-18.5","","-21.8","","75","","","","30","","26","","16.1","","100.07","","","","-30","","Snow,Blowing Snow"
"-115.78","60.84","HAY RIVER A","2202401","2021-12-13 16:00","2021","12","13","16:00","-18.5","","-21.7","","76","","","","30","","26","","9.7","","100.13","","","","-30","","Snow,Blowing Snow"
"-115.78","60.84","HAY RIVER A","2202401","2021-12-13 17:00","2021","12","13","17:00","-18.9","","-22.4","","75","","","","30","","31","","12.9","","100.18","","","","-31","","Snow,Blowing Snow"
"-115.78","60.84","HAY RIVER A","2202401","2021-12-13 18:00","2021","12","13","18:00","-19.0","","-21.7","","79","","","","29","","24","","19.3","","100.24","","","","-30","","Snow,Blowing Snow"
"-115.78","60.84","HAY RIVER A","2202401","2021-12-13 19:00","2021","12","13","19:00","-19.8","","-22.8","","78","","","","30","","25","","19.3","","100.29","","","","-31","","Snow,Blowing Snow"
"-115.78","60.84","HAY RIVER A","2202401","2021-12-13 20:00","2021","12","13","20:00","-20.3","","-23.2","","78","","","","29","","17","","19.3","","100.35","","","","-30","","Snow,Blowing Snow"
"-115.78","60.84","HAY RIVER A","2202401","2021-12-13 21:00","2021","12","13","21:00","-21.1","","-23.9","","79","","","","28","","16","","19.3","","100.38","","","","-31","","Snow,Blowing Snow"
"-115.78","60.84","HAY RIVER A","2202401","2021-12-13 22:00","2021","12","13","22:00","-21.8","","-24.8","","78","","","","27","","17","","24.1","","100.44","","","","-32","","Snow,Blowing Snow"
"-115.78","60.84","HAY RIVER A","2202401","2021-12-13 23:00","2021","12","13","23:00","-22.7","","-25.6","","78","","","","27","","16","","24.1","","100.44","","","","-33","","Snow,Blowing Snow"
"-115.78","60.84","HAY RIVER A","2202401","2021-12-14 00:00","2021","12","14","00:00","-22.2","","-25.1","","78","","","","25","","14","","24.1","","100.47","","","","-31","","Snow,Blowing Snow"
"-115.78","60.84","HAY RIVER A","2202401","2021-12-14 01:00","2021","12","14","01:00","-22.0","","-24.9","","77","","","","26","","10","","24.1","","100.44","","","","-30","","Snow,Blowing Snow"
"-115.78","60.84","HAY RIVER A","2202401","2021-12-14 02:00","2021","12","14","02:00","-21.9","","-25.0","","77","","","","27","","12","","24.1","","100.45","","","","-30","","Snow,Blowing Snow"
"-115.78","60.84","HAY RIVER A","2202401","2021-12-14 03:00","2021","12","14","03:00","-22.0","","-25.1","","77","","","","28","","8","","22.5","","100.43","","","","-29","","Snow,Blowing Snow"
"-115.78","60.84","HAY RIVER A","2202401","2021-12-14 04:00","2021","12","14","04:00","-22.4","","-25.4","","77","","","","25","","8","","24.1","","100.43","","","","-29","","Snow,Blowing Snow"
"-115.78","60.84","HAY RIVER A","2202401","2021-12-14 05:00","2021","12","14","05:00","-23.3","","-26.4","","76","","","","26","","7","","24.1","","100.41","","","","-29","","Snow"
"-115.78","60.84","HAY RIVER A","2202401","2021-12-14 06:00","2021","12","14","06:00","-24.6","","-27.7","","76","","","","22","","11","","24.1","","100.42","","","","-33","","Snow"
"-115.78","60.84","HAY RIVER A","2202401","2021-12-14 07:00","2021","12","14","07:00","-26.0","","-28.8","","78","","","","20","","7","","24.1","","100.37","","","","-33","","NA"
"-115.78","60.84","HAY RIVER A","2202401","2021-12-14 08:00","2021","12","14","08:00","-27.6","","-30.4","","78","","","","16","","7","","24.1","","100.31","","","","-34","","Mainly Clear"
"-115.78","60.84","HAY RIVER A","2202401","2021-12-14 09:00","2021","12","14","09:00","-28.6","","-31.6","","76","","","","14","","5","","24.1","","100.29","","","","-34","","NA"
"-115.78","60.84","HAY RIVER A","2202401","2021-12-14 10:00","2021","12","14","10:00","-29.2","","-32.3","","75","","","","17","","7","","24.1","","100.29","","","","-36","","NA"
"-115.78","60.84","HAY RIVER A","2202401","2021-12-14 11:00","2021","12","14","11:00","-28.4","","-31.5","","76","","","","17","","8","","24.1","","100.25","","","","-36","","Mainly Clear"
"-115.78","60.84","HAY RIVER A","2202401","2021-12-14 12:00","2021","12","14","12:00","-27.5","","-30.5","","76","","","","15","","9","","24.1","","100.23","","","","-36","","NA"
"-115.78","60.84","HAY RIVER A","2202401","2021-12-14 13:00","2021","12","14","13:00","-25.8","","-28.8","","76","","","","14","","9","","24.1","","100.20","","","","-34","","NA"
"-115.78","60.84","HAY RIVER A","2202401","2021-12-14 14:00","2021","12","14","14:00","-24.7","","-27.9","","76","","","","14","","8","","24.1","","100.12","","","","-32","","Clear"
"-115.78","60.84","HAY RIVER A","2202401","2021-12-14 15:00","2021","12","14","15:00","-25.1","","-28.2","","76","","","","13","","9","","24.1","","100.09","","","","-33","","NA"
"-115.78","60.84","HAY RIVER A","2202401","2021-12-14 16:00","2021","12","14","16:00","-25.7","","-28.6","","77","","","","11","","10","","24.1","","100.10","","","","-34","","NA"
"-115.78","60.84","HAY RIVER A","2202401","2021-12-14 17:00","2021","12","14","17:00","-25.9","","-28.6","","79","","","","13","","12","","24.1","","100.10","","","","-35","","Clear"
"-115.78","60.84","HAY RIVER A","2202401","2021-12-14 18:00","2021","12","14","18:00","-24.9","","-27.6","","79","","","","15","","17","","24.1","","100.07","","","","-36","","NA"
"-115.78","60.84","HAY RIVER A","2202401","2021-12-14 19:00","2021","12","14","19:00","-25.0","","-27.8","","78","","","","14","","16","","24.1","","100.05","","","","-36","","NA"
"-115.78","60.84","HAY RIVER A","2202401","2021-12-14 20:00","2021","12","14","20:00","-25.8","","-28.6","","78","","","","14","","12","","24.1","","100.01","","","","-35","","Mainly Clear"
"-115.78","60.84","HAY RIVER A","2202401","2021-12-14 21:00","2021","12","14","21:00","-26.3","","-29.1","","77","","","","14","","10","","24.1","","99.97","","","","-35","","NA"
"-115.78","60.84","HAY RIVER A","2202401","2021-12-14 22:00","2021","12","14","22:00","-26.4","","-29.3","","77","","","","14","","11","","24.1","","99.97","","","","-35","","NA"
"-115.78","60.84","HAY RIVER A","2202401","2021-12-14 23:00","2021","12","14","23:00","-26.9","","-29.7","","77","","","","12","","10","","24.1","","100.03","","","","-35","","Clear"
"-115.78","60.84","HAY RIVER A","2202401","2021-12-15 00:00","2021","12","15","00:00","-26.9","","-29.8","","77","","","","13","","9","","24.1","","100.05","","","","-35","","NA"
"-115.78","60.84","HAY RIVER A","2202401","2021-12-15 01:00","2021","12","15","01:00","-27.1","","-30.0","","77","","","","12","","11","","24.1","","100.06","","","","-36","","NA"
"-115.78","60.84","HAY RIVER A","2202401","2021-12-15 02:00","2021","12","15","02:00","-27.3","","-30.2","","77","","","","12","","12","","24.1","","100.03","","","","-37","","Clear"
"-115.78","60.84","HAY RIVER A","2202401","2021-12-15 03:00","2021","12","15","03:00","-26.8","","-29.7","","77","","","","13","","13","","24.1","","100.01","","","","-37","","NA"
"-115.78","60.84","HAY RIVER A","2202401","2021-12-15 04:00","2021","12","15","04:00","-27.0","","-29.9","","77","","","","13","","9","","24.1","","100.01","","","","-35","","NA"
"-115.78","60.84","HAY RIVER A","2202401","2021-12-15 05:00","2021","12","15","05:00","-26.9","","-29.9","","77","","","","13","","9","","24.1","","100.00","","","","-35","","Mainly Clear"
"-115.78","60.84","HAY RIVER A","2202401","2021-12-15 06:00","2021","12","15","06:00","-27.0","","-30.0","","76","","","","14","","11","","24.1","","99.99","","","","-36","","NA"
"-115.78","60.84","HAY RIVER A","2202401","2021-12-15 07:00","2021","12","15","07:00","-27.3","","-30.4","","76","","","","13","","7","","24.1","","100.04","","","","-34","","NA"
"-115.78","60.84","HAY RIVER A","2202401","2021-12-15 08:00","2021","12","15","08:00","-27.6","","-30.6","","76","","","","13","","7","","24.1","","100.09","","","","-34","","Mainly Clear"
"-115.78","60.84","HAY RIVER A","2202401","2021-12-15 09:00","2021","12","15","09:00","-27.8","","-30.9","","76","","","","12","","7","","24.1","","100.09","","","","-35","","NA"
"-115.78","60.84","HAY RIVER A","2202401","2021-12-15 10:00","2021","12","15","10:00","-28.4","","-31.5","","75","","","","15","","8","","24.1","","100.11","","","","-36","","NA"
"-115.78","60.84","HAY RIVER A","2202401","2021-12-15 11:00","2021","12","15","11:00","-27.6","","-30.6","","76","","","","15","","10","","24.1","","100.11","","","","-36","","Mostly Cloudy"
"-115.78","60.84","HAY RIVER A","2202401","2021-12-15 12:00","2021","12","15","12:00","-26.3","","-29.3","","76","","","","18","","8","","24.1","","100.10","","","","-34","","NA"
"-115.78","60.84","HAY RIVER A","2202401","2021-12-15 13:00","2021","12","15","13:00","-26.0","","-29.0","","77","","","","20","","7","","24.1","","100.13","","","","-33","","NA"
"-115.78","60.84","HAY RIVER A","2202401","2021-12-15 14:00","2021","12","15","14:00","-26.5","","-29.5","","76","","","","23","","8","","24.1","","100.16","","","","-34","","Mostly Cloudy"
"-115.78","60.84","HAY RIVER A","2202401","2021-12-15 15:00","2021","12","15","15:00","-27.8","","-30.9","","75","","","","28","","5","","24.1","","100.21","","","","-33","","NA"
"-115.78","60.84","HAY RIVER A","2202401","2021-12-15 16:00","2021","12","15","16:00","-28.4","","-31.5","","75","","","","30","","10","","24.1","","100.27","","","","-37","","NA"
"-115.78","60.84","HAY RIVER A","2202401","2021-12-15 17:00","2021","12","15","17:00","-29.1","","-32.1","","75","","","","27","","9","","24.1","","100.32","","","","-38","","Mostly Cloudy"
"-115.78","60.84","HAY RIVER A","2202401","2021-12-15 18:00","2021","12","15","18:00","-30.2","","-33.5","","74","","","","25","","8","","24.1","","100.33","","","","-38","","NA"
"-115.78","60.84","HAY RIVER A","2202401","2021-12-15 19:00","2021","12","15","19:00","-30.8","","-34.0","","74","","","","25","","6","","24.1","","100.33","","","","-37","","NA"
"-115.78","60.84","HAY RIVER A","2202401","2021-12-15 20:00","2021","12","15","20:00","-30.9","","-34.1","","74","","","","28","","5","","24.1","","100.38","","","","-37","","Mainly Clear"
"-115.78","60.84","HAY RIVER A","2202401","2021-12-15 21:00","2021","12","15","21:00","-31.9","","-35.2","","73","","","","23","","7","","24.1","","100.38","","","","-39","","NA"
"-115.78","60.84","HAY RIVER A","2202401","2021-12-15 22:00","2021","12","15","22:00","-31.7","","-35.0","","73","","","","25","","9","","24.1","","100.40","","","","-41","","NA"
"-115.78","60.84","HAY RIVER A","2202401","2021-12-15 23:00","2021","12","15","23:00","-30.6","","-33.9","","74","","","","27","","9","","24.1","","100.45","","","","-39","","Mainly Clear"
"-115.78","60.84","HAY RIVER A","2202401","2021-12-16 00:00","2021","12","16","00:00","-29.9","","-33.1","","74","","","","25","","9","","24.1","","100.47","","","","-38","","NA"
"-115.78","60.84","HAY RIVER A","2202401","2021-12-16 01:00","2021","12","16","01:00","-28.8","","-31.9","","75","","","","25","","10","","24.1","","100.49","","","","-38","","Snow"
"-115.78","60.84","HAY RIVER A","2202401","2021-12-16 02:00","2021","12","16","02:00","-27.9","","-31.0","","75","","","","26","","9","","24.1","","100.51","","","","-36","","Snow"
"-115.78","60.84","HAY RIVER A","2202401","2021-12-16 03:00","2021","12","16","03:00","-26.8","","-29.8","","76","","","","25","","8","","24.1","","100.53","","","","-34","","Snow"
"-115.78","60.84","HAY RIVER A","2202401","2021-12-16 04:00","2021","12","16","04:00","-25.2","","-28.1","","77","","","","29","","20","","24.1","","100.55","","","","-37","","Snow"
"-115.78","60.84","HAY RIVER A","2202401","2021-12-16 05:00","2021","12","16","05:00","-25.1","","-28.0","","77","","","","29","","17","","19.3","","100.60","","","","-36","","Snow"
"-115.78","60.84","HAY RIVER A","2202401","2021-12-16 06:00","2021","12","16","06:00","-25.1","","-28.0","","77","","","","29","","18","","3.2","","100.63","","","","-36","","Snow"
"-115.78","60.84","HAY RIVER A","2202401","2021-12-16 07:00","2021","12","16","07:00","-25.2","","-28.2","","77","","","","30","","21","","3.2","","100.69","","","","-37","","Snow,Blowing Snow"
"-115.78","60.84","HAY RIVER A","2202401","2021-12-16 08:00","2021","12","16","08:00","-25.2","","-28.4","","75","","","","30","","17","","3.2","","100.73","","","","-36","","Snow"
"-115.78","60.84","HAY RIVER A","2202401","2021-12-16 09:00","2021","12","16","09:00","-25.2","","-28.6","","73","","","","30","","21","","4.8","","100.78","","","","-37","","Snow"
"-115.78","60.84","HAY RIVER A","2202401","2021-12-16 10:00","2021","12","16","10:00","-25.4","","-28.8","","74","","","","29","","17","","16.1","","100.80","","","","-36","","Snow"
"-115.78","60.84","HAY RIVER A","2202401","2021-12-16 11:00","2021","12","16","11:00","-25.9","","-29.2","","74","","","","26","","10","","24.1","","100.83","","","","-34","","Mostly Cloudy"
"-115.78","60.84","HAY RIVER A","2202401","2021-12-16 12:00","2021","12","16","12:00","-25.7","","-29.0","","75","","","","26","","10","","24.1","","100.84","","","","-34","","NA"
"-115.78","60.84","HAY RIVER A","2202401","2021-12-16 13:00","2021","12","16","13:00","-24.4","","-27.9","","73","","","","28","","18","","24.1","","100.83","","","","-35","","NA"
"-115.78","60.84","HAY RIVER A","2202401","2021-12-16 14:00","2021","12","16","14:00","-24.5","","-28.2","","72","","","","27","","17","","16.1","","100.88","","","","-35","","Snow"
"-115.78","60.84","HAY RIVER A","2202401","2021-12-16 15:00","2021","12","16","15:00","-25.2","","-29.1","","71","","","","28","","18","","24.1","","100.90","","","","-36","","NA"
"-115.78","60.84","HAY RIVER A","2202401","2021-12-16 16:00","2021","12","16","16:00","-26.4","","-30.3","","71","","","","27","","16","","24.1","","100.93","","","","-37","","NA"
"-115.78","60.84","HAY RIVER A","2202401","2021-12-16 17:00","2021","12","16","17:00","-27.2","","-30.9","","72","","","","25","","14","","24.1","","100.94","","","","-38","","Mostly Cloudy"
"-115.78","60.84","HAY RIVER A","2202401","2021-12-16 18:00","2021","12","16","18:00","-27.4","","-31.0","","72","","","","26","","12","","11.3","","100.94","","","","-37","","Snow"
"-115.78","60.84","HAY RIVER A","2202401","2021-12-16 19:00","2021","12","16","19:00","-28.1","","-31.4","","74","","","","25","","9","","19.3","","100.92","","","","-36","","Snow"
"-115.78","60.84","HAY RIVER A","2202401","2021-12-16 20:00","2021","12","16","20:00","-27.8","","-31.1","","74","","","","25","","9","","19.3","","100.92","","","","-36","","Snow"
"-115.78","60.84","HAY RIVER A","2202401","2021-12-16 21:00","2021","12","16","21:00","-28.6","","-32.2","","72","","","","26","","10","","24.1","","100.91","","","","-37","","Snow"
"-115.78","60.84","HAY RIVER A","2202401","2021-12-16 22:00","2021","12","16","22:00","-30.2","","-33.4","","74","","","","24","","10","","24.1","","100.87","","","","-39","","Snow"
"-115.78","60.84","HAY RIVER A","2202401","2021-12-16 23:00","2021","12","16","23:00","-30.5","","-33.8","","73","","","","23","","8","","24.1","","100.85","","","","-39","","Mainly Clear"
"-115.78","60.84","HAY RIVER A","2202401","2021-12-17 00:00","2021","12","17","00:00","-30.8","","-34.1","","73","","","","21","","7","","24.1","","100.81","","","","-38","","NA"
"-115.78","60.84","HAY RIVER A","2202401","2021-12-17 01:00","2021","12","17","01:00","-31.2","","-34.6","","72","","","","23","","8","","24.1","","100.82","","","","-39","","NA"
"-115.78","60.84","HAY RIVER A","2202401","2021-12-17 02:00","2021","12","17","02:00","-31.9","","-35.1","","74","","","","13","","4","","24.1","","100.79","","","","-37","","Mainly Clear"
"-115.78","60.84","HAY RIVER A","2202401","2021-12-17 03:00","2021","12","17","03:00","-32.0","","-35.3","","74","","","","15","","7","","24.1","","100.75","","","","-40","","NA"
"-115.78","60.84","HAY RIVER A","2202401","2021-12-17 04:00","2021","12","17","04:00","-32.4","","-35.9","","72","","","","17","","9","","24.1","","100.73","","","","-41","","NA"
"-115.78","60.84","HAY RIVER A","2202401","2021-12-17 05:00","2021","12","17","05:00","-32.7","","-36.3","","71","","","","17","","8","","24.1","","100.67","","","","-41","","Mainly Clear"
"-115.78","60.84","HAY RIVER A","2202401","2021-12-17 06:00","2021","12","17","06:00","-33.2","","-36.8","","71","","","","17","","9","","24.1","","100.65","","","","-42","","NA"
"-115.78","60.84","HAY RIVER A","2202401","2021-12-17 07:00","2021","12","17","07:00","-33.0","","-36.6","","71","","","","16","","10","","24.1","","100.61","","","","-43","","NA"
"-115.78","60.84","HAY RIVER A","2202401","2021-12-17 08:00","2021","12","17","08:00","-33.1","","-36.7","","71","","","","15","","10","","24.1","","100.57","","","","-43","","Clear"
"-115.78","60.84","HAY RIVER A","2202401","2021-12-17 09:00","2021","12","17","09:00","-33.4","","-36.9","","71","","","","14","","7","","24.1","","100.54","","","","-41","","NA"
"-115.78","60.84","HAY RIVER A","2202401","2021-12-17 10:00","2021","12","17","10:00","-32.6","","-36.1","","72","","","","14","","8","","24.1","","100.50","","","","-41","","NA"
"-115.78","60.84","HAY RIVER A","2202401","2021-12-17 11:00","2021","12","17","11:00","-31.2","","-34.8","","72","","","","15","","10","","24.1","","100.45","","","","-41","","Clear"
"-115.78","60.84","HAY RIVER A","2202401","2021-12-17 12:00","2021","12","17","12:00","-28.3","","-32.2","","70","","","","17","","17","","24.1","","100.37","","","","-40","","NA"
"-115.78","60.84","HAY RIVER A","2202401","2021-12-17 13:00","2021","12","17","13:00","-27.1","","-31.3","","68","","","","15","","16","","24.1","","100.32","","","","-38","","NA"
"-115.78","60.84","HAY RIVER A","2202401","2021-12-17 14:00","2021","12","17","14:00","-27.1","","-31.4","","68","","","","15","","18","","24.1","","100.27","","","","-39","","Mainly Clear"
"-115.78","60.84","HAY RIVER A","2202401","2021-12-17 15:00","2021","12","17","15:00","-26.9","","-31.1","","68","","","","16","","20","","24.1","","100.24","","","","-39","","NA"
"-115.78","60.84","HAY RIVER A","2202401","2021-12-17 16:00","2021","12","17","16:00","-26.7","","-30.8","","69","","","","14","","18","","24.1","","100.18","","","","-38","","NA"
"-115.78","60.84","HAY RIVER A","2202401","2021-12-17 17:00","2021","12","17","17:00","-26.7","","-30.9","","68","","","","14","","17","","24.1","","100.14","","","","-38","","Mainly Clear"
"-115.78","60.84","HAY RIVER A","2202401","2021-12-17 18:00","2021","12","17","18:00","-25.7","","-29.9","","69","","","","14","","19","","24.1","","100.07","","","","-37","","NA"
"-115.78","60.84","HAY RIVER A","2202401","2021-12-17 19:00","2021","12","17","19:00","-25.9","","-29.8","","70","","","","13","","13","","24.1","","100.02","","","","-36","","NA"
"-115.78","60.84","HAY RIVER A","2202401","2021-12-17 20:00","2021","12","17","20:00","-26.4","","-30.2","","71","","","","13","","16","","24.1","","99.94","","","","-37","","Mostly Cloudy"
"-115.78","60.84","HAY RIVER A","2202401","2021-12-17 21:00","2021","12","17","21:00","-26.6","","-30.4","","71","","","","14","","14","","24.1","","99.90","","","","-37","","NA"
"-115.78","60.84","HAY RIVER A","2202401","2021-12-17 22:00","2021","12","17","22:00","-26.5","","-30.2","","72","","","","13","","16","","24.1","","99.82","","","","-37","","NA"
"-115.78","60.84","HAY RIVER A","2202401","2021-12-17 23:00","2021","12","17","23:00","-24.6","","-28.2","","72","","","","16","","22","","16.1","","99.71","","","","-37","","Snow,Blowing Snow"
"-115.78","60.84","HAY RIVER A","2202401","2021-12-18 00:00","2021","12","18","00:00","-24.1","","-27.4","","74","","","","13","","14","","12.9","","99.69","","","","-34","","Snow"
"-115.78","60.84","HAY RIVER A","2202401","2021-12-18 01:00","2021","12","18","01:00","-23.5","","-26.8","","75","","","","13","","12","","9.7","","99.62","","","","-32","","Snow"
"-115.78","60.84","HAY RIVER A","2202401","2021-12-18 02:00","2021","12","18","02:00","-23.0","","-26.6","","73","","","","16","","18","","12.9","","99.56","","","","-34","","Snow"
"-115.78","60.84","HAY RIVER A","2202401","2021-12-18 03:00","2021","12","18","03:00","-22.7","","-26.1","","74","","","","15","","11","","12.9","","99.50","","","","-31","","Snow"
"-115.78","60.84","HAY RIVER A","2202401","2021-12-18 04:00","2021","12","18","04:00","-22.5","","-26.0","","74","","","","18","","11","","16.1","","99.47","","","","-31","","Snow"
"-115.78","60.84","HAY RIVER A","2202401","2021-12-18 05:00","2021","12","18","05:00","-23.8","","-27.3","","73","","","","19","","11","","24.1","","99.46","","","","-32","","Mainly Clear"
"-115.78","60.84","HAY RIVER A","2202401","2021-12-18 06:00","2021","12","18","06:00","-24.9","","-28.0","","76","","","","16","","8","","24.1","","99.40","","","","-32","","Snow"
"-115.78","60.84","HAY RIVER A","2202401","2021-12-18 07:00","2021","12","18","07:00","-24.4","","-27.7","","75","","","","18","","7","","24.1","","99.37","","","","-31","","Snow"
"-115.78","60.84","HAY RIVER A","2202401","2021-12-18 08:00","2021","12","18","08:00","-23.7","","-26.9","","75","","","","21","","4","","24.1","","99.38","","","","-28","","Snow"
"-115.78","60.84","HAY RIVER A","2202401","2021-12-18 09:00","2021","12","18","09:00","-23.1","","-26.1","","77","","","","26","","8","","24.1","","99.36","","","","-30","","Snow"
"-115.78","60.84","HAY RIVER A","2202401","2021-12-18 10:00","2021","12","18","10:00","-22.1","","-25.2","","76","","","","28","","20","","3.2","","99.35","","","","-33","","Snow,Blowing Snow"
"-115.78","60.84","HAY RIVER A","2202401","2021-12-18 11:00","2021","12","18","11:00","-23.8","","-26.9","","76","","","","28","","26","","11.3","","99.40","","","","-37","","Snow,Blowing Snow"
"-115.78","60.84","HAY RIVER A","2202401","2021-12-18 12:00","2021","12","18","12:00","-25.7","","-28.9","","75","","","","28","","18","","20.9","","99.38","","","","-37","","Blowing Snow"
"-115.78","60.84","HAY RIVER A","2202401","2021-12-18 13:00","2021","12","18","13:00","-24.9","","-28.1","","75","","","","28","","19","","14.5","","99.41","","","","-36","","Snow,Blowing Snow"
"-115.78","60.84","HAY RIVER A","2202401","2021-12-18 14:00","2021","12","18","14:00","-24.6","","-28.0","","74","","","","28","","22","","6.4","","99.42","","","","-37","","Snow,Blowing Snow"
"-115.78","60.84","HAY RIVER A","2202401","2021-12-18 15:00","2021","12","18","15:00","-24.5","","-27.8","","74","","","","30","","23","","14.5","","99.41","","","","-37","","Snow,Blowing Snow"
"-115.78","60.84","HAY RIVER A","2202401","2021-12-18 16:00","2021","12","18","16:00","-24.5","","-28.0","","73","","","","30","","22","","20.9","","99.44","","","","-37","","Ice Crystals,Blowing Snow"
"-115.78","60.84","HAY RIVER A","2202401","2021-12-18 17:00","2021","12","18","17:00","-24.4","","-27.9","","74","","","","30","","18","","14.5","","99.46","","","","-35","","Snow,Blowing Snow"
"-115.78","60.84","HAY RIVER A","2202401","2021-12-18 18:00","2021","12","18","18:00","-24.5","","-28.0","","73","","","","30","","21","","11.3","","99.46","","","","-36","","Snow,Blowing Snow"
"-115.78","60.84","HAY RIVER A","2202401","2021-12-18 19:00","2021","12","18","19:00","-24.4","","-27.9","","73","","","","31","","23","","11.3","","99.49","","","","-37","","Snow,Blowing Snow"
"-115.78","60.84","HAY RIVER A","2202401","2021-12-18 20:00","2021","12","18","20:00","-24.7","","-28.4","","72","","","","30","","21","","11.3","","99.50","","","","-37","","Snow,Blowing Snow"
"-115.78","60.84","HAY RIVER A","2202401","2021-12-18 21:00","2021","12","18","21:00","-25.0","","-28.6","","73","","","","32","","19","","16.1","","99.50","","","","-37","","Ice Crystals"
"-115.78","60.84","HAY RIVER A","2202401","2021-12-18 22:00","2021","12","18","22:00","-25.4","","-28.9","","73","","","","31","","18","","19.3","","99.54","","","","-37","","Ice Crystals"
"-115.78","60.84","HAY RIVER A","2202401","2021-12-18 23:00","2021","12","18","23:00","-25.5","","-29.1","","72","","","","31","","13","","19.3","","99.57","","","","-35","","Ice Crystals"
"-115.78","60.84","HAY RIVER A","2202401","2021-12-19 00:00","2021","12","19","00:00","-27.0","","-30.2","","75","","","","25","","10","","24.1","","99.61","","","","-36","","NA"
"-115.78","60.84","HAY RIVER A","2202401","2021-12-19 01:00","2021","12","19","01:00","-27.9","","-30.8","","76","","","","26","","9","","24.1","","99.65","","","","-36","","NA"
"-115.78","60.84","HAY RIVER A","2202401","2021-12-19 02:00","2021","12","19","02:00","-26.6","","-29.6","","76","","","","25","","9","","24.1","","99.65","","","","-35","","Mostly Cloudy"
"-115.78","60.84","HAY RIVER A","2202401","2021-12-19 03:00","2021","12","19","03:00","-25.7","","-28.7","","76","","","","24","","8","","19.3","","99.70","","","","-33","","Snow"
"-115.78","60.84","HAY RIVER A","2202401","2021-12-19 04:00","2021","12","19","04:00","-25.0","","-28.1","","76","","","","26","","8","","22.5","","99.74","","","","-32","","Snow"
"-115.78","60.84","HAY RIVER A","2202401","2021-12-19 05:00","2021","12","19","05:00","-24.3","","-27.6","","75","","","","26","","10","","19.3","","99.78","","","","-32","","Snow"
"-115.78","60.84","HAY RIVER A","2202401","2021-12-19 06:00","2021","12","19","06:00","-24.0","","-27.3","","75","","","","27","","8","","22.5","","99.82","","","","-31","","Snow"
"-115.78","60.84","HAY RIVER A","2202401","2021-12-19 07:00","2021","12","19","07:00","-23.7","","-26.9","","76","","","","25","","10","","24.1","","99.86","","","","-32","","Snow"
"-115.78","60.84","HAY RIVER A","2202401","2021-12-19 08:00","2021","12","19","08:00","-23.0","","-26.1","","76","","","","24","","8","","24.1","","99.90","","","","-30","","Snow"
"-115.78","60.84","HAY RIVER A","2202401","2021-12-19 09:00","2021","12","19","09:00","-21.7","","-25.0","","75","","","","31","","14","","24.1","","99.94","","","","-31","","Snow"
"-115.78","60.84","HAY RIVER A","2202401","2021-12-19 10:00","2021","12","19","10:00","-21.3","","-24.7","","74","","","","32","","19","","24.1","","99.99","","","","-32","","Snow"
"-115.78","60.84","HAY RIVER A","2202401","2021-12-19 11:00","2021","12","19","11:00","-21.1","","-24.1","","77","","","","29","","12","","24.1","","99.98","","","","-29","","Snow"
"-115.78","60.84","HAY RIVER A","2202401","2021-12-19 12:00","2021","12","19","12:00","-20.6","","-23.7","","76","","","","30","","18","","24.1","","100.01","","","","-31","","NA"
"-115.78","60.84","HAY RIVER A","2202401","2021-12-19 13:00","2021","12","19","13:00","-20.3","","-23.3","","77","","","","30","","17","","24.1","","100.03","","","","-30","","NA"
"-115.78","60.84","HAY RIVER A","2202401","2021-12-19 14:00","2021","12","19","14:00","-20.0","","-23.0","","77","","","","30","","17","","24.1","","100.11","","","","-30","","Mostly Cloudy"
"-115.78","60.84","HAY RIVER A","2202401","2021-12-19 15:00","2021","12","19","15:00","-20.1","","-23.4","","75","","","","30","","16","","24.1","","100.13","","","","-30","","NA"
"-115.78","60.84","HAY RIVER A","2202401","2021-12-19 16:00","2021","12","19","16:00","-19.9","","-22.9","","77","","","","27","","4","","24.1","","100.13","","","","-23","","Snow"
"-115.78","60.84","HAY RIVER A","2202401","2021-12-19 17:00","2021","12","19","17:00","-20.6","","-23.3","","79","","","","26","","7","","19.3","","100.16","","","","-26","","Snow"
"-115.78","60.84","HAY RIVER A","2202401","2021-12-19 18:00","2021","12","19","18:00","-20.4","","-23.0","","80","","","","27","","6","","4.8","","100.14","","","","-25","","Snow"
"-115.78","60.84","HAY RIVER A","2202401","2021-12-19 19:00","2021","12","19","19:00","-20.7","","-23.1","","81","","","","24","","5","","12.9","","100.11","","","","-25","","Snow"
"-115.78","60.84","HAY RIVER A","2202401","2021-12-19 20:00","2021","12","19","20:00","-19.2","","-21.9","","80","","","","29","","12","","14.5","","100.08","","","","-27","","Snow"
"-115.78","60.84","HAY RIVER A","2202401","2021-12-19 21:00","2021","12","19","21:00","-18.9","","-22.2","","76","","","","33","","21","","14.5","","100.12","","","","-29","","Snow,Blowing Snow"
"-115.78","60.84","HAY RIVER A","2202401","2021-12-19 22:00","2021","12","19","22:00","-19.5","","-22.6","","77","","","","34","","13","","16.1","","100.13","","","","-28","","Snow,Blowing Snow"
"-115.78","60.84","HAY RIVER A","2202401","2021-12-19 23:00","2021","12","19","23:00","-20.5","","-24.3","","72","","","","33","","22","","19.3","","100.19","","","","-32","","Snow,Blowing Snow"
"-115.78","60.84","HAY RIVER A","2202401","2021-12-20 00:00","2021","12","20","00:00","-21.7","","-26.4","","66","","","","33","","14","","19.3","","100.20","","","","-31","","Snow,Blowing Snow"
"-115.78","60.84","HAY RIVER A","2202401","2021-12-20 01:00","2021","12","20","01:00","-21.9","","-26.0","","70","","","","34","","12","","19.3","","100.19","","","","-30","","Snow,Blowing Snow"
"-115.78","60.84","HAY RIVER A","2202401","2021-12-20 02:00","2021","12","20","02:00","-22.1","","-26.1","","70","","","","33","","13","","19.3","","100.20","","","","-31","","Snow,Blowing Snow"
"-115.78","60.84","HAY RIVER A","2202401","2021-12-20 03:00","2021","12","20","03:00","-22.0","","-25.7","","72","","","","33","","19","","19.3","","100.16","","","","-33","","Snow,Blowing Snow"
"-115.78","60.84","HAY RIVER A","2202401","2021-12-20 04:00","2021","12","20","04:00","-22.9","","-27.4","","67","","","","35","","11","","20.9","","100.15","","","","-31","","Snow,Blowing Snow"
"-115.78","60.84","HAY RIVER A","2202401","2021-12-20 05:00","2021","12","20","05:00","-23.4","","-27.7","","68","","","","33","","14","","24.1","","100.08","","","","-33","","Blowing Snow"
"-115.78","60.84","HAY RIVER A","2202401","2021-12-20 06:00","2021","12","20","06:00","-25.5","","-29.0","","73","","","","32","","8","","24.1","","100.01","","","","-33","","NA"
"-115.78","60.84","HAY RIVER A","2202401","2021-12-20 07:00","2021","12","20","07:00","-24.9","","-28.6","","72","","","","33","","4","","24.1","","99.93","","","","-29","","NA"
"-115.78","60.84","HAY RIVER A","2202401","2021-12-20 08:00","2021","12","20","08:00","-25.9","","-29.1","","75","","","","36","","2","","24.1","","99.90","","","","-28","","Mostly Cloudy"
"-115.78","60.84","HAY RIVER A","2202401","2021-12-20 09:00","2021","12","20","09:00","-26.9","","-29.9","","77","","","","36","","2","","24.1","","99.80","","","","-29","","NA"
"-115.78","60.84","HAY RIVER A","2202401","2021-12-20 10:00","2021","12","20","10:00","-26.2","","-29.2","","76","","","","0","","1","","24.1","","99.74","","","","-27","","NA"
"-115.78","60.84","HAY RIVER A","2202401","2021-12-20 11:00","2021","12","20","11:00","-25.9","","-28.9","","77","","","","36","","3","","24.1","","99.68","","","","-29","","Mostly Cloudy"
"-115.78","60.84","HAY RIVER A","2202401","2021-12-20 12:00","2021","12","20","12:00","-25.6","","-28.4","","78","","","","36","","2","","24.1","","99.62","","","","-28","","NA"
"-115.78","60.84","HAY RIVER A","2202401","2021-12-20 13:00","2021","12","20","13:00","-24.7","","-27.6","","77","","","","36","","2","","24.1","","99.48","","","","-27","","NA"
"-115.78","60.84","HAY RIVER A","2202401","2021-12-20 14:00","2021","12","20","14:00","-24.3","","-27.3","","76","","","","8","","3","","24.1","","99.33","","","","-27","","Mostly Cloudy"
"-115.78","60.84","HAY RIVER A","2202401","2021-12-20 15:00","2021","12","20","15:00","-24.6","","-27.7","","76","","","","10","","4","","24.1","","99.20","","","","-29","","NA"
"-115.78","60.84","HAY RIVER A","2202401","2021-12-20 16:00","2021","12","20","16:00","-25.1","","-28.1","","76","","","","10","","7","","24.1","","99.13","","","","-32","","NA"
"-115.78","60.84","HAY RIVER A","2202401","2021-12-20 17:00","2021","12","20","17:00","-25.4","","-28.3","","77","","","","9","","10","","24.1","","99.02","","","","-34","","Snow"
"-115.78","60.84","HAY RIVER A","2202401","2021-12-20 18:00","2021","12","20","18:00","-25.6","","-28.6","","77","","","","10","","12","","24.1","","98.89","","","","-35","","Ice Crystals"
"-115.78","60.84","HAY RIVER A","2202401","2021-12-20 19:00","2021","12","20","19:00","-25.6","","-28.7","","76","","","","9","","9","","24.1","","98.78","","","","-33","","NA"
"-115.78","60.84","HAY RIVER A","2202401","2021-12-20 20:00","2021","12","20","20:00","-26.0","","-29.0","","76","","","","10","","9","","24.1","","98.63","","","","-34","","Mostly Cloudy"
"-115.78","60.84","HAY RIVER A","2202401","2021-12-20 21:00","2021","12","20","21:00","-25.3","","-28.4","","76","","","","12","","8","","24.1","","98.51","","","","-32","","NA"
"-115.78","60.84","HAY RIVER A","2202401","2021-12-20 22:00","2021","12","20","22:00","-24.5","","-27.5","","77","","","","12","","7","","24.1","","98.45","","","","-31","","NA"
"-115.78","60.84","HAY RIVER A","2202401","2021-12-20 23:00","2021","12","20","23:00","-23.3","","-26.0","","79","","","","13","","9","","12.9","","98.30","","","","-31","","Snow"
"-115.78","60.84","HAY RIVER A","2202401","2021-12-21 00:00","2021","12","21","00:00","-22.8","","-25.5","","79","","","","11","","9","","24.1","","98.21","","","","-30","","Ice Crystals"
"-115.78","60.84","HAY RIVER A","2202401","2021-12-21 01:00","2021","12","21","01:00","-21.8","","-24.6","","79","","","","15","","7","","24.1","","98.14","","","","-28","","NA"
"-115.78","60.84","HAY RIVER A","2202401","2021-12-21 02:00","2021","12","21","02:00","-20.4","","-23.1","","79","","","","13","","6","","24.1","","98.09","","","","-25","","Mostly Cloudy"
"-115.78","60.84","HAY RIVER A","2202401","2021-12-21 03:00","2021","12","21","03:00","-19.3","","-22.0","","80","","","","24","","5","","19.3","","98.07","","","","-23","","Snow"
"-115.78","60.84","HAY RIVER A","2202401","2021-12-21 04:00","2021","12","21","04:00","-19.0","","-21.6","","80","","","","31","","6","","19.3","","98.05","","","","-24","","Snow"
"-115.78","60.84","HAY RIVER A","2202401","2021-12-21 05:00","2021","12","21","05:00","-19.3","","-22.1","","79","","","","30","","14","","11.3","","98.08","","","","-28","","Snow"
"-115.78","60.84","HAY RIVER A","2202401","2021-12-21 06:00","2021","12","21","06:00","-20.5","","-23.2","","79","","","","30","","24","","8.1","","98.22","","","","-32","","Snow"
"-115.78","60.84","HAY RIVER A","2202401","2021-12-21 07:00","2021","12","21","07:00","-20.4","","-23.3","","78","","","","30","","21","","14.5","","98.32","","","","-31","","Snow"
"-115.78","60.84","HAY RIVER A","2202401","2021-12-21 08:00","2021","12","21","08:00","-21.7","","-24.6","","77","","","","30","","20","","14.5","","98.43","","","","-33","","Snow"
"-115.78","60.84","HAY RIVER A","2202401","2021-12-21 09:00","2021","12","21","09:00","-23.4","","-26.4","","77","","","","29","","21","","9.7","","98.52","","","","-35","","Snow,Blowing Snow"
"-115.78","60.84","HAY RIVER A","2202401","2021-12-21 10:00","2021","12","21","10:00","-22.9","","-25.9","","77","","","","31","","18","","24.1","","98.60","","","","-34","","Snow,Blowing Snow"
"-115.78","60.84","HAY RIVER A","2202401","2021-12-21 11:00","2021","12","21","11:00","-23.9","","-26.9","","76","","","","28","","15","","24.1","","98.71","","","","-34","","Mostly Cloudy"
"-115.78","60.84","HAY RIVER A","2202401","2021-12-21 12:00","2021","12","21","12:00","-24.6","","-27.8","","76","","","","31","","21","","24.1","","98.77","","","","-37","","Blowing Snow"
"-115.78","60.84","HAY RIVER A","2202401","2021-12-21 13:00","2021","12","21","13:00","-24.8","","-27.9","","76","","","","32","","15","","24.1","","98.83","","","","-35","","Ice Crystals"
"-115.78","60.84","HAY RIVER A","2202401","2021-12-21 14:00","2021","12","21","14:00","-24.3","","-27.4","","76","","","","29","","9","","24.1","","98.90","","","","-32","","Mostly Cloudy"
"-115.78","60.84","HAY RIVER A","2202401","2021-12-21 15:00","2021","12","21","15:00","-25.0","","-28.1","","76","","","","29","","16","","24.1","","99.00","","","","-36","","Snow"
"-115.78","60.84","HAY RIVER A","2202401","2021-12-21 16:00","2021","12","21","16:00","-24.8","","-27.8","","76","","","","29","","12","","24.1","","99.06","","","","-34","","Snow"
"-115.78","60.84","HAY RIVER A","2202401","2021-12-21 17:00","2021","12","21","17:00","-24.5","","-27.6","","76","","","","25","","9","","24.1","","99.13","","","","-32","","Snow"
"-115.78","60.84","HAY RIVER A","2202401","2021-12-21 18:00","2021","12","21","18:00","-24.8","","-28.0","","75","","","","26","","8","","24.1","","99.17","","","","-32","","Snow"
"-115.78","60.84","HAY RIVER A","2202401","2021-12-21 19:00","2021","12","21","19:00","-24.8","","-28.0","","75","","","","28","","6","","24.1","","99.23","","","","-31","","Snow"
"-115.78","60.84","HAY RIVER A","2202401","2021-12-21 20:00","2021","12","21","20:00","-24.7","","-27.9","","76","","","","25","","8","","24.1","","99.25","","","","-32","","Snow"
"-115.78","60.84","HAY RIVER A","2202401","2021-12-21 21:00","2021","12","21","21:00","-24.7","","-26.9","","82","","","","25","","8","","24.1","","99.29","","","","-32","","Snow"
"-115.78","60.84","HAY RIVER A","2202401","2021-12-21 22:00","2021","12","21","22:00","-24.6","","-26.9","","81","","","","25","","7","","24.1","","99.30","","","","-31","","Snow"
"-115.78","60.84","HAY RIVER A","2202401","2021-12-21 23:00","2021","12","21","23:00","-24.6","","-27.0","","81","","","","31","","3","","24.1","","99.35","","","","-28","","Snow"
"-115.78","60.84","HAY RIVER A","2202401","2021-12-22 00:00","2021","12","22","00:00","-24.7","","-27.2","","80","","","","20","","3","","24.1","","99.37","","","","-28","","Snow"
"-115.78","60.84","HAY RIVER A","2202401","2021-12-22 01:00","2021","12","22","01:00","-25.3","","-28.0","","79","","","","13","","4","","24.1","","99.38","","","","-29","","Snow"
"-115.78","60.84","HAY RIVER A","2202401","2021-12-22 02:00","2021","12","22","02:00","-26.1","","-28.9","","78","","","","13","","5","","9.7","","99.38","","","","-31","","Snow,Fog"
"-115.78","60.84","HAY RIVER A","2202401","2021-12-22 03:00","2021","12","22","03:00","-25.6","","-28.4","","78","","","","19","","14","","4.8","","99.43","","","","-36","","Snow,Fog"
"-115.78","60.84","HAY RIVER A","2202401","2021-12-22 04:00","2021","12","22","04:00","-25.7","","-28.5","","78","","","","18","","8","","24.1","","99.48","","","","-33","","Snow"
"-115.78","60.84","HAY RIVER A","2202401","2021-12-22 05:00","2021","12","22","05:00","-25.6","","-28.4","","78","","","","18","","10","","19.3","","99.44","","","","-34","","Snow"
"-115.78","60.84","HAY RIVER A","2202401","2021-12-22 06:00","2021","12","22","06:00","-25.2","","-28.0","","78","","","","18","","10","","19.3","","99.38","","","","-33","","Snow"
"-115.78","60.84","HAY RIVER A","2202401","2021-12-22 07:00","2021","12","22","07:00","-24.9","","-27.8","","78","","","","18","","7","","24.1","","99.36","","","","-31","","Snow"
"-115.78","60.84","HAY RIVER A","2202401","2021-12-22 08:00","2021","12","22","08:00","-24.6","","-27.4","","78","","","","17","","12","","20.9","","99.35","","","","-34","","Snow"
"-115.78","60.84","HAY RIVER A","2202401","2021-12-22 09:00","2021","12","22","09:00","-24.2","","-27.0","","78","","","","19","","9","","24.1","","99.42","","","","-32","","Snow"
"-115.78","60.84","HAY RIVER A","2202401","2021-12-22 10:00","2021","12","22","10:00","-24.0","","-26.7","","78","","","","18","","9","","24.1","","99.43","","","","-31","","Snow"
"-115.78","60.84","HAY RIVER A","2202401","2021-12-22 11:00","2021","12","22","11:00","-23.5","","-26.3","","79","","","","17","","10","","24.1","","99.40","","","","-31","","Snow"
"-115.78","60.84","HAY RIVER A","2202401","2021-12-22 12:00","2021","12","22","12:00","-23.1","","-25.8","","79","","","","17","","12","","24.1","","99.35","","","","-32","","Snow"
"-115.78","60.84","HAY RIVER A","2202401","2021-12-22 13:00","2021","12","22","13:00","-22.3","","-24.9","","80","","","","17","","11","","24.1","","99.34","","","","-30","","Snow"
"-115.78","60.84","HAY RIVER A","2202401","2021-12-22 14:00","2021","12","22","14:00","-22.0","","-24.6","","80","","","","18","","12","","24.1","","99.29","","","","-30","","Cloudy"
"-115.78","60.84","HAY RIVER A","2202401","2021-12-22 15:00","2021","12","22","15:00","-22.0","","-24.6","","80","","","","13","","6","","24.1","","99.29","","","","-27","","Snow Grains"
"-115.78","60.84","HAY RIVER A","2202401","2021-12-22 16:00","2021","12","22","16:00","-22.1","","-24.6","","80","","","","15","","11","","24.1","","99.29","","","","-30","","Snow Grains"
"-115.78","60.84","HAY RIVER A","2202401","2021-12-22 17:00","2021","12","22","17:00","-21.8","","-24.3","","80","","","","14","","10","","24.1","","99.26","","","","-29","","Snow Grains"
"-115.78","60.84","HAY RIVER A","2202401","2021-12-22 18:00","2021","12","22","18:00","-21.7","","-24.3","","80","","","","15","","8","","24.1","","99.18","","","","-28","","Snow Grains"
"-115.78","60.84","HAY RIVER A","2202401","2021-12-22 19:00","2021","12","22","19:00","-21.8","","-24.3","","80","","","","15","","8","","24.1","","99.16","","","","-28","","Snow Grains"
"-115.78","60.84","HAY RIVER A","2202401","2021-12-22 20:00","2021","12","22","20:00","-21.9","","-24.5","","80","","","","13","","8","","24.1","","99.13","","","","-28","","Snow"
"-115.78","60.84","HAY RIVER A","2202401","2021-12-22 21:00","2021","12","22","21:00","-21.9","","-24.4","","80","","","","21","","4","","24.1","","99.13","","","","-26","","Snow"
"-115.78","60.84","HAY RIVER A","2202401","2021-12-22 22:00","2021","12","22","22:00","-21.9","","-24.5","","80","","","","36","","2","","24.1","","99.12","","","","-24","","Snow"
"-115.78","60.84","HAY RIVER A","2202401","2021-12-22 23:00","2021","12","22","23:00","-22.1","","-24.7","","80","","","","36","","2","","24.1","","99.06","","","","-24","","Snow"
"-115.78","60.84","HAY RIVER A","2202401","2021-12-23 00:00","2021","12","23","00:00","-22.3","","-24.9","","80","","","","6","","3","","24.1","","99.00","","","","-25","","Snow"
"-115.78","60.84","HAY RIVER A","2202401","2021-12-23 01:00","2021","12","23","01:00","-22.3","","-24.9","","80","","","","10","","4","","24.1","","98.95","","","","-26","","Snow"
"-115.78","60.84","HAY RIVER A","2202401","2021-12-23 02:00","2021","12","23","02:00","-22.5","","-25.1","","80","","","","12","","8","","24.1","","98.90","","","","-29","","Snow"
"-115.78","60.84","HAY RIVER A","2202401","2021-12-23 03:00","2021","12","23","03:00","-23.5","","-26.2","","79","","","","11","","12","","24.1","","98.87","","","","-32","","Snow"
"-115.78","60.84","HAY RIVER A","2202401","2021-12-23 04:00","2021","12","23","04:00","-23.5","","-26.2","","79","","","","13","","9","","24.1","","98.84","","","","-31","","Snow"
"-115.78","60.84","HAY RIVER A","2202401","2021-12-23 05:00","2021","12","23","05:00","-23.1","","-25.8","","79","","","","15","","5","","24.1","","98.78","","","","-28","","Snow"
"-115.78","60.84","HAY RIVER A","2202401","2021-12-23 06:00","2021","12","23","06:00","-22.9","","-25.6","","79","","","","0","","1","","24.1","","98.73","","","","-24","","Snow"
"-115.78","60.84","HAY RIVER A","2202401","2021-12-23 07:00","2021","12","23","07:00","-22.8","","-25.4","","80","","","","9","","4","","19.3","","98.69","","","","-27","","Snow"
"-115.78","60.84","HAY RIVER A","2202401","2021-12-23 08:00","2021","12","23","08:00","-22.6","","-25.3","","80","","","","9","","6","","16.1","","98.65","","","","-28","","Snow"
"-115.78","60.84","HAY RIVER A","2202401","2021-12-23 09:00","2021","12","23","09:00","-22.6","","-25.2","","80","","","","11","","5","","16.1","","98.60","","","","-27","","Snow"
"-115.78","60.84","HAY RIVER A","2202401","2021-12-23 10:00","2021","12","23","10:00","-22.4","","-25.0","","80","","","","11","","5","","8.1","","98.58","","","","-27","","Snow,Fog"
"-115.78","60.84","HAY RIVER A","2202401","2021-12-23 11:00","2021","12","23","11:00","-22.1","","-24.7","","80","","","","24","","3","","6.4","","98.58","","","","-25","","Snow,Fog"
"-115.78","60.84","HAY RIVER A","2202401","2021-12-23 12:00","2021","12","23","12:00","-22.0","","-24.6","","80","","","","0","","1","","3.6","","98.57","","","","-23","","Snow,Fog"
"-115.78","60.84","HAY RIVER A","2202401","2021-12-23 13:00","2021","12","23","13:00","-21.8","","-24.4","","80","","","","36","","1","","4.8","","98.54","","","","-23","","Snow,Fog"
"-115.78","60.84","HAY RIVER A","2202401","2021-12-23 14:00","2021","12","23","14:00","-21.6","","-24.1","","80","","","","30","","4","","3.2","","98.54","","","","-25","","Snow,Fog"
"-115.78","60.84","HAY RIVER A","2202401","2021-12-23 15:00","2021","12","23","15:00","-21.6","","-24.1","","80","","","","5","","3","","4.8","","98.55","","","","-24","","Snow,Fog"
"-115.78","60.84","HAY RIVER A","2202401","2021-12-23 16:00","2021","12","23","16:00","-22.9","","-25.6","","79","","","","2","","4","","16.1","","98.58","","","","-27","","Snow"
"-115.78","60.84","HAY RIVER A","2202401","2021-12-23 17:00","2021","12","23","17:00","-22.5","","-25.1","","80","","","","2","","4","","16.1","","98.60","","","","-26","","Snow"
"-115.78","60.84","HAY RIVER A","2202401","2021-12-23 18:00","2021","12","23","18:00","-22.4","","-25.0","","80","","","","1","","4","","16.1","","98.67","","","","-26","","Snow"
"-115.78","60.84","HAY RIVER A","2202401","2021-12-23 19:00","2021","12","23","19:00","-22.7","","-25.4","","79","","","","4","","7","","24.1","","98.74","","","","-29","","Snow"
"-115.78","60.84","HAY RIVER A","2202401","2021-12-23 20:00","2021","12","23","20:00","-23.0","","-25.7","","79","","","","1","","5","","19.3","","98.82","","","","-28","","Snow"
"-115.78","60.84","HAY RIVER A","2202401","2021-12-23 21:00","2021","12","23","21:00","-23.1","","-25.8","","79","","","","34","","9","","24.1","","98.86","","","","-30","","Snow"
"-115.78","60.84","HAY RIVER A","2202401","2021-12-23 22:00","2021","12","23","22:00","-23.9","","-26.7","","79","","","","33","","13","","24.1","","98.96","","","","-33","","Snow"
"-115.78","60.84","HAY RIVER A","2202401","2021-12-23 23:00","2021","12","23","23:00","-24.3","","-27.1","","78","","","","33","","14","","24.1","","99.05","","","","-34","","Snow"
"-115.78","60.84","HAY RIVER A","2202401","2021-12-24 00:00","2021","12","24","00:00","-24.3","","-27.0","","78","","","","33","","20","","24.1","","99.11","","","","-36","","Snow"
"-115.78","60.84","HAY RIVER A","2202401","2021-12-24 01:00","2021","12","24","01:00","-24.8","","-27.7","","78","","","","32","","23","","19.3","","99.17","","","","-37","","Snow"
"-115.78","60.84","HAY RIVER A","2202401","2021-12-24 02:00","2021","12","24","02:00","-25.3","","-28.2","","77","","","","32","","27","","19.3","","99.24","","","","-39","","Snow"
"-115.78","60.84","HAY RIVER A","2202401","2021-12-24 03:00","2021","12","24","03:00","-25.6","","-28.4","","77","","","","33","","19","","19.3","","99.31","","","","-37","","Snow"
"-115.78","60.84","HAY RIVER A","2202401","2021-12-24 04:00","2021","12","24","04:00","-25.5","","-28.4","","77","","","","31","","28","","19.3","","99.38","","","","-39","","Snow"
"-115.78","60.84","HAY RIVER A","2202401","2021-12-24 05:00","2021","12","24","05:00","-26.4","","-29.3","","77","","","","31","","26","","19.3","","99.41","","","","-40","","Snow"
"-115.78","60.84","HAY RIVER A","2202401","2021-12-24 06:00","2021","12","24","06:00","-27.4","","-30.4","","76","","","","31","","25","","4.8","","99.48","","","","-41","","Snow"
"-115.78","60.84","HAY RIVER A","2202401","2021-12-24 07:00","2021","12","24","07:00","-28.1","","-31.2","","75","","","","31","","24","","4.8","","99.55","","","","-42","","Snow"
"-115.78","60.84","HAY RIVER A","2202401","2021-12-24 08:00","2021","12","24","08:00","-28.4","","-31.5","","75","","","","30","","23","","3.2","","99.58","","","","-42","","Snow,Blowing Snow"
"-115.78","60.84","HAY RIVER A","2202401","2021-12-24 09:00","2021","12","24","09:00","-28.8","","-31.9","","75","","","","31","","26","","3.2","","99.65","","","","-43","","Snow,Blowing Snow"
"-115.78","60.84","HAY RIVER A","2202401","2021-12-24 10:00","2021","12","24","10:00","-28.6","","-31.7","","75","","","","30","","19","","3.2","","99.71","","","","-41","","Snow,Blowing Snow"
"-115.78","60.84","HAY RIVER A","2202401","2021-12-24 11:00","2021","12","24","11:00","-28.6","","-31.8","","75","","","","29","","21","","3.2","","99.74","","","","-42","","Snow,Blowing Snow"
"-115.78","60.84","HAY RIVER A","2202401","2021-12-24 12:00","2021","12","24","12:00","-28.5","","-31.6","","75","","","","31","","26","","3.2","","99.76","","","","-43","","Snow,Blowing Snow"
"-115.78","60.84","HAY RIVER A","2202401","2021-12-24 13:00","2021","12","24","13:00","-28.6","","-31.8","","75","","","","31","","24","","6.4","","99.75","","","","-42","","Snow,Blowing Snow"
"-115.78","60.84","HAY RIVER A","2202401","2021-12-24 14:00","2021","12","24","14:00","-28.6","","-31.8","","75","","","","30","","21","","6.4","","99.78","","","","-42","","Snow,Blowing Snow"
"-115.78","60.84","HAY RIVER A","2202401","2021-12-24 15:00","2021","12","24","15:00","-29.2","","-32.4","","75","","","","30","","22","","6.4","","99.84","","","","-43","","Snow,Blowing Snow"
"-115.78","60.84","HAY RIVER A","2202401","2021-12-24 16:00","2021","12","24","16:00","-28.4","","-31.6","","75","","","","31","","22","","4.0","","99.88","","","","-42","","Snow,Blowing Snow"
"-115.78","60.84","HAY RIVER A","2202401","2021-12-24 17:00","2021","12","24","17:00","-28.9","","-32.1","","75","","","","30","","23","","4.0","","99.94","","","","-43","","Snow,Blowing Snow"
"-115.78","60.84","HAY RIVER A","2202401","2021-12-24 18:00","2021","12","24","18:00","-28.4","","-31.6","","75","","","","32","","23","","4.0","","99.97","","","","-42","","Snow,Blowing Snow"
"-115.78","60.84","HAY RIVER A","2202401","2021-12-24 19:00","2021","12","24","19:00","-28.3","","-31.5","","75","","","","33","","28","","3.6","","99.99","","","","-43","","Snow,Blowing Snow"
"-115.78","60.84","HAY RIVER A","2202401","2021-12-24 20:00","2021","12","24","20:00","-27.9","","-30.9","","76","","","","32","","24","","3.6","","100.01","","","","-42","","Snow,Blowing Snow"
"-115.78","60.84","HAY RIVER A","2202401","2021-12-24 21:00","2021","12","24","21:00","-28.1","","-31.2","","75","","","","32","","28","","4.0","","100.04","","","","-43","","Snow,Blowing Snow"
"-115.78","60.84","HAY RIVER A","2202401","2021-12-24 22:00","2021","12","24","22:00","-28.1","","-31.2","","76","","","","32","","25","","12.9","","100.08","","","","-42","","Snow,Blowing Snow"
"-115.78","60.84","HAY RIVER A","2202401","2021-12-24 23:00","2021","12","24","23:00","-28.0","","-31.1","","76","","","","32","","21","","12.9","","100.13","","","","-41","","Ice Crystals"
"-115.78","60.84","HAY RIVER A","2202401","2021-12-25 00:00","2021","12","25","00:00","-28.1","","-31.2","","75","","","","32","","26","","4.0","","100.16","","","","-42","","Snow,Blowing Snow"
"-115.78","60.84","HAY RIVER A","2202401","2021-12-25 01:00","2021","12","25","01:00","-28.9","","-32.1","","75","","","","32","","24","","3.2","","100.18","","","","-43","","Snow,Blowing Snow"
"-115.78","60.84","HAY RIVER A","2202401","2021-12-25 02:00","2021","12","25","02:00","-29.2","","-32.4","","75","","","","31","","27","","8.1","","100.21","","","","-44","","Ice Crystals"
"-115.78","60.84","HAY RIVER A","2202401","2021-12-25 03:00","2021","12","25","03:00","-28.8","","-31.9","","75","","","","32","","28","","8.1","","100.25","","","","-44","","Snow,Blowing Snow"
"-115.78","60.84","HAY RIVER A","2202401","2021-12-25 04:00","2021","12","25","04:00","-28.6","","-31.8","","75","","","","32","","30","","4.8","","100.28","","","","-44","","Snow,Blowing Snow"
"-115.78","60.84","HAY RIVER A","2202401","2021-12-25 05:00","2021","12","25","05:00","-28.6","","-31.8","","75","","","","32","","25","","4.8","","100.27","","","","-43","","Snow,Blowing Snow"
"-115.78","60.84","HAY RIVER A","2202401","2021-12-25 06:00","2021","12","25","06:00","-28.2","","-31.3","","75","","","","32","","27","","4.8","","100.27","","","","-43","","Snow,Blowing Snow"
"-115.78","60.84","HAY RIVER A","2202401","2021-12-25 07:00","2021","12","25","07:00","-27.7","","-30.7","","76","","","","32","","30","","6.4","","100.23","","","","-43","","Snow,Blowing Snow"
"-115.78","60.84","HAY RIVER A","2202401","2021-12-25 08:00","2021","12","25","08:00","-27.3","","-30.4","","76","","","","31","","29","","4.8","","100.24","","","","-42","","Snow,Blowing Snow"
"-115.78","60.84","HAY RIVER A","2202401","2021-12-25 09:00","2021","12","25","09:00","-27.1","","-30.1","","76","","","","31","","35","","3.2","","100.21","","","","-43","","Snow,Blowing Snow"
"-115.78","60.84","HAY RIVER A","2202401","2021-12-25 10:00","2021","12","25","10:00","-26.8","","-29.9","","76","","","","31","","33","","2.0","","100.20","","","","-42","","Snow,Blowing Snow"
"-115.78","60.84","HAY RIVER A","2202401","2021-12-25 11:00","2021","12","25","11:00","-26.7","","-29.8","","76","","","","31","","36","","2.4","","100.17","","","","-42","","Snow,Blowing Snow"
"-115.78","60.84","HAY RIVER A","2202401","2021-12-25 12:00","2021","12","25","12:00","-26.7","","-29.8","","76","","","","31","","32","","3.2","","100.13","","","","-42","","Snow,Blowing Snow"
"-115.78","60.84","HAY RIVER A","2202401","2021-12-25 13:00","2021","12","25","13:00","-26.6","","-29.6","","76","","","","31","","36","","3.2","","100.08","","","","-42","","Snow,Blowing Snow"
"-115.78","60.84","HAY RIVER A","2202401","2021-12-25 14:00","2021","12","25","14:00","-26.4","","-29.4","","76","","","","30","","29","","2.8","","100.06","","","","-41","","Snow,Blowing Snow"
"-115.78","60.84","HAY RIVER A","2202401","2021-12-25 15:00","2021","12","25","15:00","-26.4","","-29.4","","76","","","","30","","31","","2.8","","100.00","","","","-41","","Snow,Blowing Snow"
"-115.78","60.84","HAY RIVER A","2202401","2021-12-25 16:00","2021","12","25","16:00","-26.4","","-29.4","","76","","","","29","","29","","2.8","","99.99","","","","-41","","Snow,Blowing Snow"
"-115.78","60.84","HAY RIVER A","2202401","2021-12-25 17:00","2021","12","25","17:00","-26.3","","-29.3","","76","","","","29","","32","","2.8","","99.96","","","","-41","","Snow,Blowing Snow"
"-115.78","60.84","HAY RIVER A","2202401","2021-12-25 18:00","2021","12","25","18:00","-26.3","","-29.3","","76","","","","30","","33","","2.0","","99.92","","","","-41","","Snow,Blowing Snow"
"-115.78","60.84","HAY RIVER A","2202401","2021-12-25 19:00","2021","12","25","19:00","-26.2","","-29.2","","76","","","","29","","35","","1.6","","99.88","","","","-42","","Snow,Blowing Snow"
"-115.78","60.84","HAY RIVER A","2202401","2021-12-25 20:00","2021","12","25","20:00","-26.2","","-29.2","","76","","","","30","","35","","2.0","","99.86","","","","-42","","Snow,Blowing Snow"
"-115.78","60.84","HAY RIVER A","2202401","2021-12-25 21:00","2021","12","25","21:00","-26.0","","-29.0","","76","","","","30","","36","","2.4","","99.82","","","","-42","","Snow,Blowing Snow"
"-115.78","60.84","HAY RIVER A","2202401","2021-12-25 22:00","2021","12","25","22:00","-25.8","","-28.7","","77","","","","30","","38","","2.4","","99.80","","","","-42","","Snow,Blowing Snow"
"-115.78","60.84","HAY RIVER A","2202401","2021-12-25 23:00","2021","12","25","23:00","-25.4","","-28.3","","77","","","","29","","31","","2.8","","99.76","","","","-40","","Snow,Blowing Snow"
"-115.78","60.84","HAY RIVER A","2202401","2021-12-26 00:00","2021","12","26","00:00","-25.4","","-28.3","","77","","","","30","","35","","2.8","","99.75","","","","-41","","Snow,Blowing Snow"
"-115.78","60.84","HAY RIVER A","2202401","2021-12-26 01:00","2021","12","26","01:00","-25.3","","-28.3","","77","","","","29","","31","","2.8","","99.73","","","","-40","","Snow,Blowing Snow"
"-115.78","60.84","HAY RIVER A","2202401","2021-12-26 02:00","2021","12","26","02:00","-25.6","","-28.6","","77","","","","29","","28","","4.0","","99.74","","","","-39","","Snow,Blowing Snow"
"-115.78","60.84","HAY RIVER A","2202401","2021-12-26 03:00","2021","12","26","03:00","-25.4","","-28.4","","77","","","","29","","27","","3.2","","99.77","","","","-39","","Snow,Blowing Snow"
"-115.78","60.84","HAY RIVER A","2202401","2021-12-26 04:00","2021","12","26","04:00","-25.3","","-28.2","","77","","","","29","","27","","3.2","","99.79","","","","-39","","Snow,Blowing Snow"
"-115.78","60.84","HAY RIVER A","2202401","2021-12-26 05:00","2021","12","26","05:00","-25.1","","-28.1","","77","","","","30","","24","","3.2","","99.76","","","","-38","","Snow,Blowing Snow"
"-115.78","60.84","HAY RIVER A","2202401","2021-12-26 06:00","2021","12","26","06:00","-25.1","","-28.0","","77","","","","29","","22","","3.2","","99.78","","","","-37","","Snow,Blowing Snow"
"-115.78","60.84","HAY RIVER A","2202401","2021-12-26 07:00","2021","12","26","07:00","-25.1","","-28.0","","77","","","","28","","23","","14.5","","99.83","","","","-38","","Snow,Blowing Snow"
"-115.78","60.84","HAY RIVER A","2202401","2021-12-26 08:00","2021","12","26","08:00","-25.1","","-28.0","","77","","","","28","","25","","11.3","","99.86","","","","-38","","Snow,Blowing Snow"
"-115.78","60.84","HAY RIVER A","2202401","2021-12-26 09:00","2021","12","26","09:00","-25.2","","-28.1","","77","","","","28","","20","","14.5","","99.90","","","","-37","","Snow,Blowing Snow"
"-115.78","60.84","HAY RIVER A","2202401","2021-12-26 10:00","2021","12","26","10:00","-25.8","","-28.8","","77","","","","28","","18","","16.1","","99.96","","","","-37","","Snow,Blowing Snow"
"-115.78","60.84","HAY RIVER A","2202401","2021-12-26 11:00","2021","12","26","11:00","-26.4","","-29.4","","76","","","","26","","13","","9.7","","100.02","","","","-36","","Snow,Blowing Snow"
"-115.78","60.84","HAY RIVER A","2202401","2021-12-26 12:00","2021","12","26","12:00","-26.6","","-29.6","","76","","","","26","","17","","16.1","","100.06","","","","-38","","Ice Crystals,Blowing Snow"
"-115.78","60.84","HAY RIVER A","2202401","2021-12-26 13:00","2021","12","26","13:00","-26.5","","-29.6","","76","","","","27","","16","","19.3","","100.05","","","","-37","","Ice Crystals,Blowing Snow"
"-115.78","60.84","HAY RIVER A","2202401","2021-12-26 14:00","2021","12","26","14:00","-26.6","","-29.7","","76","","","","26","","18","","19.3","","100.05","","","","-38","","Ice Crystals,Blowing Snow"
"-115.78","60.84","HAY RIVER A","2202401","2021-12-26 15:00","2021","12","26","15:00","-27.1","","-30.3","","75","","","","27","","15","","22.5","","100.07","","","","-38","","Ice Crystals"
"-115.78","60.84","HAY RIVER A","2202401","2021-12-26 16:00","2021","12","26","16:00","-28.1","","-31.2","","75","","","","26","","12","","24.1","","100.06","","","","-38","","NA"
"-115.78","60.84","HAY RIVER A","2202401","2021-12-26 17:00","2021","12","26","17:00","-28.8","","-32.1","","74","","","","25","","16","","24.1","","100.10","","","","-40","","Mainly Clear"
"-115.78","60.84","HAY RIVER A","2202401","2021-12-26 18:00","2021","12","26","18:00","-29.4","","-32.7","","74","","","","25","","13","","20.9","","100.13","","","","-40","","Ice Crystals"
"-115.78","60.84","HAY RIVER A","2202401","2021-12-26 19:00","2021","12","26","19:00","-30.6","","-33.9","","74","","","","23","","10","","20.9","","100.11","","","","-40","","Ice Crystals"
"-115.78","60.84","HAY RIVER A","2202401","2021-12-26 20:00","2021","12","26","20:00","-30.7","","-34.0","","74","","","","23","","7","","16.1","","100.04","","","","-38","","Snow"
"-115.78","60.84","HAY RIVER A","2202401","2021-12-26 21:00","2021","12","26","21:00","-30.7","","-34.0","","74","","","","22","","9","","20.9","","99.94","","","","-39","","Ice Crystals"
"-115.78","60.84","HAY RIVER A","2202401","2021-12-26 22:00","2021","12","26","22:00","-30.9","","-34.2","","73","","","","20","","10","","20.9","","99.88","","","","-40","","Ice Crystals"
"-115.78","60.84","HAY RIVER A","2202401","2021-12-26 23:00","2021","12","26","23:00","-31.9","","-35.3","","72","","","","19","","9","","20.9","","99.79","","","","-41","","Ice Crystals"
"-115.78","60.84","HAY RIVER A","2202401","2021-12-27 00:00","2021","12","27","00:00","-32.8","","-36.3","","72","","","","19","","8","","24.1","","99.67","","","","-41","","NA"
"-115.78","60.84","HAY RIVER A","2202401","2021-12-27 01:00","2021","12","27","01:00","-33.1","","-36.6","","72","","","","18","","13","","24.1","","99.53","","","","-44","","NA"
"-115.78","60.84","HAY RIVER A","2202401","2021-12-27 02:00","2021","12","27","02:00","-33.5","","-37.0","","71","","","","17","","19","","24.1","","99.37","","","","-47","","Clear"
"-115.78","60.84","HAY RIVER A","2202401","2021-12-27 03:00","2021","12","27","03:00","-33.4","","-36.9","","71","","","","18","","17","","24.1","","99.23","","","","-46","","NA"
"-115.78","60.84","HAY RIVER A","2202401","2021-12-27 04:00","2021","12","27","04:00","-33.0","","-36.6","","71","","","","17","","17","","24.1","","99.15","","","","-46","","NA"
"-115.78","60.84","HAY RIVER A","2202401","2021-12-27 05:00","2021","12","27","05:00","-33.3","","-36.8","","71","","","","16","","14","","24.1","","99.04","","","","-45","","Clear"
"-115.78","60.84","HAY RIVER A","2202401","2021-12-27 06:00","2021","12","27","06:00","-32.2","","-35.7","","72","","","","17","","17","","24.1","","98.90","","","","-45","","NA"
"-115.78","60.84","HAY RIVER A","2202401","2021-12-27 07:00","2021","12","27","07:00","-31.2","","-34.7","","72","","","","17","","21","","24.1","","98.80","","","","-45","","NA"
"-115.78","60.84","HAY RIVER A","2202401","2021-12-27 08:00","2021","12","27","08:00","-30.5","","-34.0","","72","","","","17","","21","","24.1","","98.73","","","","-44","","Clear"
"-115.78","60.84","HAY RIVER A","2202401","2021-12-27 09:00","2021","12","27","09:00","-31.2","","-34.7","","72","","","","16","","17","","24.1","","98.66","","","","-44","","NA"
"-115.78","60.84","HAY RIVER A","2202401","2021-12-27 10:00","2021","12","27","10:00","-31.8","","-35.3","","72","","","","16","","17","","24.1","","98.67","","","","-44","","NA"
"-115.78","60.84","HAY RIVER A","2202401","2021-12-27 11:00","2021","12","27","11:00","-31.6","","-35.2","","72","","","","17","","20","","24.1","","98.66","","","","-45","","Clear"
"-115.78","60.84","HAY RIVER A","2202401","2021-12-27 12:00","2021","12","27","12:00","-31.3","","-34.9","","71","","","","15","","20","","24.1","","98.66","","","","-45","","NA"
"-115.78","60.84","HAY RIVER A","2202401","2021-12-27 13:00","2021","12","27","13:00","-30.3","","-34.0","","71","","","","16","","15","","24.1","","98.60","","","","-42","","NA"
"-115.78","60.84","HAY RIVER A","2202401","2021-12-27 14:00","2021","12","27","14:00","-29.5","","-33.2","","71","","","","16","","14","","24.1","","98.59","","","","-40","","Clear"
"-115.78","60.84","HAY RIVER A","2202401","2021-12-27 15:00","2021","12","27","15:00","-29.2","","-32.9","","71","","","","15","","14","","24.1","","98.59","","","","-40","","NA"
"-115.78","60.84","HAY RIVER A","2202401","2021-12-27 16:00","2021","12","27","16:00","-29.9","","-33.5","","71","","","","13","","10","","24.1","","98.62","","","","-39","","NA"
"-115.78","60.84","HAY RIVER A","2202401","2021-12-27 17:00","2021","12","27","17:00","-31.1","","-34.7","","72","","","","13","","9","","24.1","","98.67","","","","-40","","Mainly Clear"
"-115.78","60.84","HAY RIVER A","2202401","2021-12-27 18:00","2021","12","27","18:00","-31.8","","-35.3","","72","","","","13","","9","","24.1","","98.68","","","","-41","","NA"
"-115.78","60.84","HAY RIVER A","2202401","2021-12-27 19:00","2021","12","27","19:00","-32.4","","-35.9","","72","","","","14","","8","","24.1","","98.73","","","","-41","","NA"
"-115.78","60.84","HAY RIVER A","2202401","2021-12-27 20:00","2021","12","27","20:00","-32.6","","-36.0","","72","","","","15","","7","","24.1","","98.76","","","","-40","","Clear"
"-115.78","60.84","HAY RIVER A","2202401","2021-12-27 21:00","2021","12","27","21:00","-33.0","","-36.5","","72","","","","20","","5","","24.1","","98.78","","","","-39","","NA"
"-115.78","60.84","HAY RIVER A","2202401","2021-12-27 22:00","2021","12","27","22:00","-33.6","","-37.1","","71","","","","36","","2","","24.1","","98.84","","","","-36","","NA"
"-115.78","60.84","HAY RIVER A","2202401","2021-12-27 23:00","2021","12","27","23:00","-34.1","","-37.6","","71","","","","23","","5","","24.1","","98.91","","","","-40","","Mainly Clear"
"-115.78","60.84","HAY RIVER A","2202401","2021-12-28 00:00","2021","12","28","00:00","-34.1","","-37.5","","72","","","","24","","8","","24.1","","98.94","","","","-43","","NA"
"-115.78","60.84","HAY RIVER A","2202401","2021-12-28 01:00","2021","12","28","01:00","-33.4","","-36.9","","72","","","","27","","10","","24.1","","99.02","","","","-43","","NA"
"-115.78","60.84","HAY RIVER A","2202401","2021-12-28 02:00","2021","12","28","02:00","-33.2","","-36.8","","71","","","","29","","21","","4.8","","99.09","","","","-47","","Snow Grains,Fog"
"-115.78","60.84","HAY RIVER A","2202401","2021-12-28 03:00","2021","12","28","03:00","-33.6","","-37.2","","70","","","","29","","14","","4.8","","99.12","","","","-45","","Ice Crystals,Fog"
"-115.78","60.84","HAY RIVER A","2202401","2021-12-28 04:00","2021","12","28","04:00","-33.2","","-36.9","","71","","","","28","","18","","11.3","","99.19","","","","-46","","Ice Crystals"
"-115.78","60.84","HAY RIVER A","2202401","2021-12-28 05:00","2021","12","28","05:00","-33.1","","-36.7","","71","","","","29","","18","","19.3","","99.26","","","","-46","","Ice Crystals"
"-115.78","60.84","HAY RIVER A","2202401","2021-12-28 06:00","2021","12","28","06:00","-32.7","","-36.3","","71","","","","30","","21","","4.8","","99.36","","","","-47","","Ice Crystals,Fog"
"-115.78","60.84","HAY RIVER A","2202401","2021-12-28 07:00","2021","12","28","07:00","-32.7","","-36.4","","70","","","","30","","20","","4.8","","99.49","","","","-47","","Ice Crystals"
"-115.78","60.84","HAY RIVER A","2202401","2021-12-28 08:00","2021","12","28","08:00","-33.2","","-37.0","","70","","","","30","","21","","12.9","","99.60","","","","-47","","Ice Crystals"
"-115.78","60.84","HAY RIVER A","2202401","2021-12-28 09:00","2021","12","28","09:00","-32.5","","-36.2","","70","","","","31","","22","","24.1","","99.68","","","","-47","","Ice Crystals"
"-115.78","60.84","HAY RIVER A","2202401","2021-12-28 10:00","2021","12","28","10:00","-32.5","","-36.2","","71","","","","31","","18","","19.3","","99.78","","","","-46","","Ice Crystals"
"-115.78","60.84","HAY RIVER A","2202401","2021-12-28 11:00","2021","12","28","11:00","-32.5","","-36.1","","71","","","","31","","21","","20.9","","99.83","","","","-47","","Ice Crystals"
"-115.78","60.84","HAY RIVER A","2202401","2021-12-28 12:00","2021","12","28","12:00","-32.2","","-35.9","","71","","","","31","","19","","20.9","","99.84","","","","-46","","Ice Crystals"
"-115.78","60.84","HAY RIVER A","2202401","2021-12-28 13:00","2021","12","28","13:00","-32.3","","-36.2","","69","","","","30","","18","","24.1","","99.86","","","","-45","","NA"
"-115.78","60.84","HAY RIVER A","2202401","2021-12-28 14:00","2021","12","28","14:00","-32.0","","-36.0","","69","","","","29","","15","","24.1","","99.94","","","","-44","","Mainly Clear"
"-115.78","60.84","HAY RIVER A","2202401","2021-12-28 15:00","2021","12","28","15:00","-31.9","","-36.0","","68","","","","25","","8","","24.1","","99.96","","","","-40","","NA"
"-115.78","60.84","HAY RIVER A","2202401","2021-12-28 16:00","2021","12","28","16:00","-33.4","","-37.1","","70","","","","25","","6","","24.1","","100.02","","","","-40","","NA"
"-115.78","60.84","HAY RIVER A","2202401","2021-12-28 17:00","2021","12","28","17:00","-33.7","","-37.1","","72","","","","17","","7","","24.1","","100.02","","","","-42","","Mostly Cloudy"
"-115.78","60.84","HAY RIVER A","2202401","2021-12-28 18:00","2021","12","28","18:00","-33.8","","-37.4","","71","","","","19","","4","","24.1","","100.02","","","","-39","","NA"
"-115.78","60.84","HAY RIVER A","2202401","2021-12-28 19:00","2021","12","28","19:00","-32.7","","-36.1","","72","","","","36","","2","","24.1","","100.02","","","","-35","","NA"
"-115.78","60.84","HAY RIVER A","2202401","2021-12-28 20:00","2021","12","28","20:00","-32.4","","-35.8","","73","","","","25","","7","","24.1","","100.01","","","","-40","","Mainly Clear"
"-115.78","60.84","HAY RIVER A","2202401","2021-12-28 21:00","2021","12","28","21:00","-32.2","","-35.5","","73","","","","24","","5","","24.1","","99.99","","","","-38","","Ice Crystals"
"-115.78","60.84","HAY RIVER A","2202401","2021-12-28 22:00","2021","12","28","22:00","-31.8","","-35.1","","73","","","","25","","4","","24.1","","99.95","","","","-36","","NA"
"-115.78","60.84","HAY RIVER A","2202401","2021-12-28 23:00","2021","12","28","23:00","-31.7","","-35.1","","73","","","","23","","4","","24.1","","99.96","","","","-36","","Mostly Cloudy"
"-115.78","60.84","HAY RIVER A","2202401","2021-12-29 00:00","2021","12","29","00:00","-31.7","","-35.1","","73","","","","23","","5","","24.1","","99.87","","","","-38","","NA"
"-115.78","60.84","HAY RIVER A","2202401","2021-12-29 01:00","2021","12","29","01:00","-31.5","","-34.9","","73","","","","20","","3","","24.1","","99.84","","","","-35","","NA"
"-115.78","60.84","HAY RIVER A","2202401","2021-12-29 02:00","2021","12","29","02:00","-31.6","","-34.9","","73","","","","17","","8","","17.7","","99.80","","","","-40","","Ice Crystals"
"-115.78","60.84","HAY RIVER A","2202401","2021-12-29 03:00","2021","12","29","03:00","-31.5","","-34.9","","73","","","","16","","8","","22.5","","99.76","","","","-40","","Ice Crystals"
"-115.78","60.84","HAY RIVER A","2202401","2021-12-29 04:00","2021","12","29","04:00","-32.1","","-35.5","","73","","","","17","","8","","24.1","","99.70","","","","-40","","NA"
"-115.78","60.84","HAY RIVER A","2202401","2021-12-29 05:00","2021","12","29","05:00","-32.5","","-35.9","","72","","","","15","","6","","24.1","","99.63","","","","-39","","Mainly Clear"
"-115.78","60.84","HAY RIVER A","2202401","2021-12-29 06:00","2021","12","29","06:00","-32.8","","-36.3","","72","","","","15","","7","","24.1","","99.53","","","","-41","","NA"
"-115.78","60.84","HAY RIVER A","2202401","2021-12-29 07:00","2021","12","29","07:00","-33.5","","-37.0","","72","","","","24","","3","","24.1","","99.45","","","","-37","","NA"
"-115.78","60.84","HAY RIVER A","2202401","2021-12-29 08:00","2021","12","29","08:00","-33.7","","-37.2","","71","","","","14","","8","","24.1","","99.41","","","","-42","","Mainly Clear"
"-115.78","60.84","HAY RIVER A","2202401","2021-12-29 09:00","2021","12","29","09:00","-33.5","","-37.0","","71","","","","14","","8","","24.1","","99.32","","","","-42","","NA"
"-115.78","60.84","HAY RIVER A","2202401","2021-12-29 10:00","2021","12","29","10:00","-33.7","","-37.2","","71","","","","14","","9","","24.1","","99.24","","","","-43","","Ice Crystals"
"-115.78","60.84","HAY RIVER A","2202401","2021-12-29 11:00","2021","12","29","11:00","-33.5","","-37.1","","71","","","","11","","9","","24.1","","99.17","","","","-43","","Ice Crystals"
"-115.78","60.84","HAY RIVER A","2202401","2021-12-29 12:00","2021","12","29","12:00","-33.1","","-36.6","","71","","","","16","","8","","24.1","","99.09","","","","-42","","Ice Crystals"
"-115.78","60.84","HAY RIVER A","2202401","2021-12-29 13:00","2021","12","29","13:00","-31.4","","-34.8","","73","","","","15","","8","","24.1","","99.01","","","","-40","","NA"
"-115.78","60.84","HAY RIVER A","2202401","2021-12-29 14:00","2021","12","29","14:00","-30.6","","-34.0","","73","","","","12","","7","","24.1","","98.97","","","","-38","","Mostly Cloudy"
"-115.78","60.84","HAY RIVER A","2202401","2021-12-29 15:00","2021","12","29","15:00","-31.5","","-34.9","","73","","","","10","","4","","24.1","","98.97","","","","-36","","NA"
"-115.78","60.84","HAY RIVER A","2202401","2021-12-29 16:00","2021","12","29","16:00","-32.5","","-35.9","","73","","","","9","","10","","24.1","","98.97","","","","-42","","NA"
"-115.78","60.84","HAY RIVER A","2202401","2021-12-29 17:00","2021","12","29","17:00","-31.7","","-35.1","","73","","","","8","","10","","24.1","","98.96","","","","-41","","Mostly Cloudy"
"-115.78","60.84","HAY RIVER A","2202401","2021-12-29 18:00","2021","12","29","18:00","-31.3","","-34.7","","73","","","","7","","6","","24.1","","99.01","","","","-38","","NA"
"-115.78","60.84","HAY RIVER A","2202401","2021-12-29 19:00","2021","12","29","19:00","-30.9","","-34.3","","73","","","","8","","8","","24.1","","99.05","","","","-39","","NA"
"-115.78","60.84","HAY RIVER A","2202401","2021-12-29 20:00","2021","12","29","20:00","-31.2","","-34.5","","73","","","","8","","8","","24.1","","99.08","","","","-39","","Mainly Clear"
"-115.78","60.84","HAY RIVER A","2202401","2021-12-29 21:00","2021","12","29","21:00","-31.7","","-35.0","","73","","","","8","","7","","24.1","","99.10","","","","-39","","NA"
"-115.78","60.84","HAY RIVER A","2202401","2021-12-29 22:00","2021","12","29","22:00","-33.6","","-37.1","","71","","","","31","","3","","24.1","","99.18","","","","-37","","NA"
"-115.78","60.84","HAY RIVER A","2202401","2021-12-29 23:00","2021","12","29","23:00","-34.2","","-37.8","","71","","","","36","","1","","24.1","","99.22","","","","-35","","Mainly Clear"
"-115.78","60.84","HAY RIVER A","2202401","2021-12-30 00:00","2021","12","30","00:00","-34.7","","-38.2","","71","","","","8","","5","","24.1","","99.27","","","","-41","","NA"
"-115.78","60.84","HAY RIVER A","2202401","2021-12-30 01:00","2021","12","30","01:00","-35.9","","-39.6","","70","","","","36","","3","","24.1","","99.35","","","","-40","","NA"
"-115.78","60.84","HAY RIVER A","2202401","2021-12-30 02:00","2021","12","30","02:00","-35.0","","-38.5","","71","","","","26","","3","","24.1","","99.43","","","","-39","","Mainly Clear"
"-115.78","60.84","HAY RIVER A","2202401","2021-12-30 03:00","2021","12","30","03:00","-35.6","","-39.2","","70","","","","36","","3","","24.1","","99.46","","","","-39","","NA"
"-115.78","60.84","HAY RIVER A","2202401","2021-12-30 04:00","2021","12","30","04:00","-35.9","","-39.5","","70","","","","25","","7","","24.1","","99.52","","","","-44","","NA"
"-115.78","60.84","HAY RIVER A","2202401","2021-12-30 05:00","2021","12","30","05:00","-36.0","","-39.7","","70","","","","28","","5","","24.1","","99.58","","","","-42","","Mainly Clear"
"-115.78","60.84","HAY RIVER A","2202401","2021-12-30 06:00","2021","12","30","06:00","-35.9","","-39.5","","70","","","","26","","8","","24.1","","99.65","","","","-45","","NA"
"-115.78","60.84","HAY RIVER A","2202401","2021-12-30 07:00","2021","12","30","07:00","-33.8","","-37.3","","71","","","","28","","12","","24.1","","99.72","","","","-45","","NA"
"-115.78","60.84","HAY RIVER A","2202401","2021-12-30 08:00","2021","12","30","08:00","-34.6","","-38.3","","70","","","","28","","7","","24.1","","99.71","","","","-43","","Mainly Clear"
"-115.78","60.84","HAY RIVER A","2202401","2021-12-30 09:00","2021","12","30","09:00","-33.6","","-37.2","","71","","","","29","","9","","24.1","","99.74","","","","-43","","NA"
"-115.78","60.84","HAY RIVER A","2202401","2021-12-30 10:00","2021","12","30","10:00","-34.0","","-37.6","","71","","","","29","","14","","24.1","","99.82","","","","-46","","NA"
"-115.78","60.84","HAY RIVER A","2202401","2021-12-30 11:00","2021","12","30","11:00","-33.4","","-37.0","","71","","","","29","","15","","24.1","","99.82","","","","-46","","Mostly Cloudy"
"-115.78","60.84","HAY RIVER A","2202401","2021-12-30 12:00","2021","12","30","12:00","-33.0","","-36.5","","71","","","","28","","12","","24.1","","99.83","","","","-44","","Ice Crystals"
"-115.78","60.84","HAY RIVER A","2202401","2021-12-30 13:00","2021","12","30","13:00","-32.5","","-36.0","","71","","","","29","","15","","24.1","","99.85","","","","-44","","Ice Crystals"
"-115.78","60.84","HAY RIVER A","2202401","2021-12-30 14:00","2021","12","30","14:00","-31.7","","-35.2","","72","","","","30","","19","","24.1","","99.88","","","","-45","","Ice Crystals"
"-115.78","60.84","HAY RIVER A","2202401","2021-12-30 15:00","2021","12","30","15:00","-31.1","","-34.6","","72","","","","29","","14","","24.1","","99.93","","","","-42","","Ice Crystals"
"-115.78","60.84","HAY RIVER A","2202401","2021-12-30 16:00","2021","12","30","16:00","-31.1","","-34.6","","72","","","","29","","14","","9.7","","99.98","","","","-42","","Snow"
"-115.78","60.84","HAY RIVER A","2202401","2021-12-30 17:00","2021","12","30","17:00","-30.9","","-34.4","","72","","","","29","","21","","8.1","","100.01","","","","-45","","Snow,Blowing Snow"
"-115.78","60.84","HAY RIVER A","2202401","2021-12-30 18:00","2021","12","30","18:00","-30.2","","-33.6","","73","","","","29","","22","","8.1","","100.02","","","","-44","","Snow,Blowing Snow"
"-115.78","60.84","HAY RIVER A","2202401","2021-12-30 19:00","2021","12","30","19:00","-31.0","","-34.5","","72","","","","29","","16","","8.1","","100.05","","","","-43","","Snow"
"-115.78","60.84","HAY RIVER A","2202401","2021-12-30 20:00","2021","12","30","20:00","-31.1","","-34.5","","72","","","","28","","19","","19.3","","100.09","","","","-44","","Snow"
"-115.78","60.84","HAY RIVER A","2202401","2021-12-30 21:00","2021","12","30","21:00","-30.7","","-34.2","","72","","","","30","","22","","19.3","","100.12","","","","-45","","Snow"
"-115.78","60.84","HAY RIVER A","2202401","2021-12-30 22:00","2021","12","30","22:00","-30.3","","-33.7","","73","","","","29","","19","","19.3","","100.15","","","","-43","","Snow"
"-115.78","60.84","HAY RIVER A","2202401","2021-12-30 23:00","2021","12","30","23:00","-30.7","","-34.2","","72","","","","30","","20","","19.3","","100.18","","","","-44","","Snow"
"-115.78","60.84","HAY RIVER A","2202401","2021-12-31 00:00","2021","12","31","00:00","-30.6","","-34.0","","72","","","","30","","20","","24.1","","100.19","","","","-44","","Snow"
"-115.78","60.84","HAY RIVER A","2202401","2021-12-31 01:00","2021","12","31","01:00","-30.4","","-33.9","","73","","","","29","","20","","24.1","","100.21","","","","-44","","NA"
"-115.78","60.84","HAY RIVER A","2202401","2021-12-31 02:00","2021","12","31","02:00","-30.2","","-33.7","","73","","","","29","","22","","24.1","","100.25","","","","-44","","Mainly Clear"
"-115.78","60.84","HAY RIVER A","2202401","2021-12-31 03:00","2021","12","31","03:00","-29.9","","-33.4","","73","","","","29","","24","","24.1","","100.27","","","","-44","","NA"
"-115.78","60.84","HAY RIVER A","2202401","2021-12-31 04:00","2021","12","31","04:00","-31.4","","-34.9","","72","","","","28","","19","","24.1","","100.29","","","","-45","","NA"
"-115.78","60.84","HAY RIVER A","2202401","2021-12-31 05:00","2021","12","31","05:00","-32.3","","-35.8","","71","","","","27","","15","","24.1","","100.28","","","","-44","","Mainly Clear"
"-115.78","60.84","HAY RIVER A","2202401","2021-12-31 06:00","2021","12","31","06:00","-32.8","","-36.4","","71","","","","26","","13","","24.1","","100.28","","","","-44","","NA"
"-115.78","60.84","HAY RIVER A","2202401","2021-12-31 07:00","2021","12","31","07:00","-32.9","","-36.5","","71","","","","27","","13","","24.1","","100.28","","","","-44","","NA"
"-115.78","60.84","HAY RIVER A","2202401","2021-12-31 08:00","2021","12","31","08:00","-32.8","","-36.3","","71","","","","26","","12","","24.1","","100.29","","","","-44","","Mainly Clear"
"-115.78","60.84","HAY RIVER A","2202401","2021-12-31 09:00","2021","12","31","09:00","-33.2","","-36.8","","71","","","","27","","9","","24.1","","100.27","","","","-42","","NA"
"-115.78","60.84","HAY RIVER A","2202401","2021-12-31 10:00","2021","12","31","10:00","-34.3","","-37.8","","71","","","","25","","8","","24.1","","100.24","","","","-43","","NA"
"-115.78","60.84","HAY RIVER A","2202401","2021-12-31 11:00","2021","12","31","11:00","-34.7","","-38.3","","71","","","","25","","7","","24.1","","100.22","","","","-43","","Mainly Clear"
"-115.78","60.84","HAY RIVER A","2202401","2021-12-31 12:00","2021","12","31","12:00","-33.1","","-36.6","","72","","","","24","","7","","24.1","","100.17","","","","-41","","NA"
"-115.78","60.84","HAY RIVER A","2202401","2021-12-31 13:00","2021","12","31","13:00","-32.0","","-35.5","","72","","","","22","","3","","24.1","","100.10","","","","-36","","NA"
"-115.78","60.84","HAY RIVER A","2202401","2021-12-31 14:00","2021","12","31","14:00","-30.0","","-33.5","","72","","","","24","","7","","24.1","","100.08","","","","-37","","Mainly Clear"
"-115.78","60.84","HAY RIVER A","2202401","2021-12-31 15:00","2021","12","31","15:00","-31.1","","-34.5","","73","","","","36","","2","","24.1","","100.06","","","","-33","","NA"
"-115.78","60.84","HAY RIVER A","2202401","2021-12-31 16:00","2021","12","31","16:00","-31.7","","-35.1","","73","","","","15","","4","","24.1","","100.03","","","","-36","","NA"
"-115.78","60.84","HAY RIVER A","2202401","2021-12-31 17:00","2021","12","31","17:00","-32.2","","-35.6","","73","","","","36","","2","","20.9","","99.99","","","","-35","","Ice Crystals"
"-115.78","60.84","HAY RIVER A","2202401","2021-12-31 18:00","2021","12","31","18:00","-33.7","","-37.2","","72","","","","18","","4","","20.9","","99.97","","","","-39","","Ice Crystals"
"-115.78","60.84","HAY RIVER A","2202401","2021-12-31 19:00","2021","12","31","19:00","-34.6","","-38.1","","71","","","","15","","4","","24.1","","99.92","","","","-40","","Ice Crystals"
"-115.78","60.84","HAY RIVER A","2202401","2021-12-31 20:00","2021","12","31","20:00","-34.4","","-37.9","","71","","","","16","","5","","24.1","","99.87","","","","-41","","Ice Crystals"
"-115.78","60.84","HAY RIVER A","2202401","2021-12-31 21:00","2021","12","31","21:00","-34.4","","-38.0","","71","","","","10","","6","","24.1","","99.80","","","","-42","","Ice Crystals"
"-115.78","60.84","HAY RIVER A","2202401","2021-12-31 22:00","2021","12","31","22:00","-36.1","","-39.8","","70","","","","13","","3","","24.1","","99.79","","","","-40","","Ice Crystals"
"-115.78","60.84","HAY RIVER A","2202401","2021-12-31 23:00","2021","12","31","23:00","-35.1","","-38.7","","71","","","","14","","5","","24.1","","99.75","","","","-41","","Ice Crystals"
