"Longitude (x)","Latitude (y)","Station Name","Climate ID","Date/Time (LST)","Year","Month","Day","Time (LST)","Temp (°C)","Temp Flag","Dew Point Temp (°C)","Dew Point Temp Flag","Rel Hum (%)","Rel Hum Flag","Precip. Amount (mm)","Precip. Amount Flag","Wind Dir (10s deg)","Wind Dir Flag","Wind Spd (km/h)","Wind Spd Flag","Visibility (km)","Visibility Flag","Stn Press (kPa)","Stn Press Flag","Hmdx","Hmdx Flag","Wind Chill","Wind Chill Flag","Weather"
"-115.78","60.84","HAY RIVER A","2202401","2021-02-01 00:00","2021","02","01","00:00","-20.2","","-23.4","","76","","","","32","","16","","24.1","","100.53","","","","-30","","NA"
"-115.78","60.84","HAY RIVER A","2202401","2021-02-01 01:00","2021","02","01","01:00","-20.0","","-23.3","","76","","","","34","","11","","19.3","","100.52","","","","-28","","Snow"
"-115.78","60.84","HAY RIVER A","2202401","2021-02-01 02:00","2021","02","01","02:00","-19.8","","-23.1","","76","","","","33","","6","","19.3","","100.51","","","","-25","","Snow"
"-115.78","60.84","HAY RIVER A","2202401","2021-02-01 03:00","2021","02","01","03:00","-19.9","","-22.9","","77","","","","2","","5","","9.7","","100.46","","","","-24","","Snow"
"-115.78","60.84","HAY RIVER A","2202401","2021-02-01 04:00","2021","02","01","04:00","-19.7","","-22.7","","77","","","","1","","4","","9.7","","100.45","","","","-23","","Snow"
"-115.78","60.84","HAY RIVER A","2202401","2021-02-01 05:00","2021","02","01","05:00","-19.7","","-22.7","","78","","","","36","","5","","19.3","","100.43","","","","-24","","Snow"
"-115.78","60.84","HAY RIVER A","2202401","2021-02-01 06:00","2021","02","01","06:00","-19.5","","-22.4","","79","","","","36","","6","","19.3","","100.38","","","","-24","","Snow"
"-115.78","60.84","HAY RIVER A","2202401","2021-02-01 07:00","2021","02","01","07:00","-19.5","","-22.4","","78","","","","36","","8","","9.7","","100.37","","","","-26","","Snow"
"-115.78","60.84","HAY RIVER A","2202401","2021-02-01 08:00","2021","02","01","08:00","-19.1","","-22.0","","78","","","","35","","10","","9.7","","100.36","","","","-26","","Snow"
"-115.78","60.84","HAY RIVER A","2202401","2021-02-01 09:00","2021","02","01","09:00","-19.1","","-22.0","","78","","","","34","","9","","1.6","","100.36","","","","-26","","Snow"
"-115.78","60.84","HAY RIVER A","2202401","2021-02-01 10:00","2021","02","01","10:00","-18.9","","-21.8","","79","","","","34","","10","","1.6","","100.35","","","","-26","","Snow"
"-115.78","60.84","HAY RIVER A","2202401","2021-02-01 11:00","2021","02","01","11:00","-18.6","","-21.6","","78","","","","35","","13","","1.6","","100.34","","","","-27","","Snow"
"-115.78","60.84","HAY RIVER A","2202401","2021-02-01 12:00","2021","02","01","12:00","-18.5","","-21.4","","78","","","","34","","11","","1.6","","100.34","","","","-26","","Snow"
"-115.78","60.84","HAY RIVER A","2202401","2021-02-01 13:00","2021","02","01","13:00","-18.5","","-21.7","","77","","","","35","","14","","1.6","","100.35","","","","-27","","Snow"
"-115.78","60.84","HAY RIVER A","2202401","2021-02-01 14:00","2021","02","01","14:00","-18.5","","-21.4","","78","","","","33","","20","","1.6","","100.37","","","","-29","","Snow"
"-115.78","60.84","HAY RIVER A","2202401","2021-02-01 15:00","2021","02","01","15:00","-18.5","","-21.3","","79","","","","32","","22","","1.6","","100.40","","","","-29","","Snow"
"-115.78","60.84","HAY RIVER A","2202401","2021-02-01 16:00","2021","02","01","16:00","-18.6","","-21.6","","78","","","","33","","23","","4.8","","100.41","","","","-29","","Snow"
"-115.78","60.84","HAY RIVER A","2202401","2021-02-01 17:00","2021","02","01","17:00","-19.0","","-21.9","","78","","","","33","","23","","3.2","","100.44","","","","-30","","Snow"
"-115.78","60.84","HAY RIVER A","2202401","2021-02-01 18:00","2021","02","01","18:00","-19.3","","-22.2","","78","","","","32","","27","","4.8","","100.46","","","","-31","","Snow"
"-115.78","60.84","HAY RIVER A","2202401","2021-02-01 19:00","2021","02","01","19:00","-20.0","","-23.0","","77","","","","32","","27","","4.8","","100.47","","","","-32","","Snow"
"-115.78","60.84","HAY RIVER A","2202401","2021-02-01 20:00","2021","02","01","20:00","-20.6","","-23.8","","76","","","","31","","27","","4.8","","100.50","","","","-33","","Snow"
"-115.78","60.84","HAY RIVER A","2202401","2021-02-01 21:00","2021","02","01","21:00","-20.8","","-23.8","","77","","","","31","","25","","4.8","","100.52","","","","-33","","Snow"
"-115.78","60.84","HAY RIVER A","2202401","2021-02-01 22:00","2021","02","01","22:00","-21.1","","-24.1","","77","","","","31","","27","","19.3","","100.50","","","","-33","","Snow"
"-115.78","60.84","HAY RIVER A","2202401","2021-02-01 23:00","2021","02","01","23:00","-21.1","","-24.7","","73","","","","32","","27","","19.3","","100.54","","","","-33","","Snow"
"-115.78","60.84","HAY RIVER A","2202401","2021-02-02 00:00","2021","02","02","00:00","-21.4","","-24.9","","74","","","","32","","26","","19.3","","100.53","","","","-34","","Snow"
"-115.78","60.84","HAY RIVER A","2202401","2021-02-02 01:00","2021","02","02","01:00","-22.0","","-25.3","","75","","","","32","","22","","19.3","","100.53","","","","-34","","Snow"
"-115.78","60.84","HAY RIVER A","2202401","2021-02-02 02:00","2021","02","02","02:00","-22.8","","-26.0","","76","","","","32","","20","","24.1","","100.57","","","","-34","","Snow"
"-115.78","60.84","HAY RIVER A","2202401","2021-02-02 03:00","2021","02","02","03:00","-23.4","","-26.6","","76","","","","31","","23","","24.1","","100.60","","","","-36","","Snow"
"-115.78","60.84","HAY RIVER A","2202401","2021-02-02 04:00","2021","02","02","04:00","-24.3","","-27.6","","75","","","","31","","22","","24.1","","100.64","","","","-36","","NA"
"-115.78","60.84","HAY RIVER A","2202401","2021-02-02 05:00","2021","02","02","05:00","-25.3","","-28.5","","75","","","","31","","21","","24.1","","100.59","","","","-37","","Mainly Clear"
"-115.78","60.84","HAY RIVER A","2202401","2021-02-02 06:00","2021","02","02","06:00","-26.1","","-29.2","","76","","","","31","","18","","24.1","","100.60","","","","-38","","NA"
"-115.78","60.84","HAY RIVER A","2202401","2021-02-02 07:00","2021","02","02","07:00","-26.6","","-29.8","","75","","","","29","","16","","24.1","","100.62","","","","-38","","NA"
"-115.78","60.84","HAY RIVER A","2202401","2021-02-02 08:00","2021","02","02","08:00","-26.1","","-29.2","","76","","","","29","","18","","24.1","","100.64","","","","-38","","Mainly Clear"
"-115.78","60.84","HAY RIVER A","2202401","2021-02-02 09:00","2021","02","02","09:00","-24.7","","-27.9","","75","","","","30","","17","","24.1","","100.68","","","","-36","","NA"
"-115.78","60.84","HAY RIVER A","2202401","2021-02-02 10:00","2021","02","02","10:00","-24.7","","-28.0","","75","","","","32","","21","","24.1","","100.66","","","","-37","","NA"
"-115.78","60.84","HAY RIVER A","2202401","2021-02-02 11:00","2021","02","02","11:00","-24.6","","-28.1","","73","","","","32","","18","","24.1","","100.66","","","","-36","","Mostly Cloudy"
"-115.78","60.84","HAY RIVER A","2202401","2021-02-02 12:00","2021","02","02","12:00","-24.5","","-28.2","","72","","","","31","","20","","24.1","","100.69","","","","-36","","NA"
"-115.78","60.84","HAY RIVER A","2202401","2021-02-02 13:00","2021","02","02","13:00","-24.6","","-28.2","","73","","","","32","","19","","24.1","","100.68","","","","-36","","NA"
"-115.78","60.84","HAY RIVER A","2202401","2021-02-02 14:00","2021","02","02","14:00","-25.0","","-28.6","","72","","","","31","","21","","24.1","","100.66","","","","-37","","Mostly Cloudy"
"-115.78","60.84","HAY RIVER A","2202401","2021-02-02 15:00","2021","02","02","15:00","-25.0","","-28.7","","72","","","","31","","23","","24.1","","100.73","","","","-38","","NA"
"-115.78","60.84","HAY RIVER A","2202401","2021-02-02 16:00","2021","02","02","16:00","-24.9","","-28.5","","73","","","","31","","18","","24.1","","100.75","","","","-36","","NA"
"-115.78","60.84","HAY RIVER A","2202401","2021-02-02 17:00","2021","02","02","17:00","-24.9","","-28.6","","72","","","","32","","19","","24.1","","100.72","","","","-36","","Cloudy"
"-115.78","60.84","HAY RIVER A","2202401","2021-02-02 18:00","2021","02","02","18:00","-25.0","","-28.9","","71","","","","33","","17","","24.1","","100.72","","","","-36","","NA"
"-115.78","60.84","HAY RIVER A","2202401","2021-02-02 19:00","2021","02","02","19:00","-25.0","","-28.9","","71","","","","33","","17","","24.1","","100.76","","","","-36","","NA"
"-115.78","60.84","HAY RIVER A","2202401","2021-02-02 20:00","2021","02","02","20:00","-25.0","","-28.8","","71","","","","33","","17","","24.1","","100.73","","","","-36","","Snow"
"-115.78","60.84","HAY RIVER A","2202401","2021-02-02 21:00","2021","02","02","21:00","-25.1","","-29.0","","71","","","","33","","14","","24.1","","100.74","","","","-35","","Snow"
"-115.78","60.84","HAY RIVER A","2202401","2021-02-02 22:00","2021","02","02","22:00","-25.0","","-28.7","","71","","","","33","","16","","24.1","","100.73","","","","-36","","Snow"
"-115.78","60.84","HAY RIVER A","2202401","2021-02-02 23:00","2021","02","02","23:00","-25.1","","-28.8","","72","","","","32","","16","","24.1","","100.75","","","","-36","","Mostly Cloudy"
"-115.78","60.84","HAY RIVER A","2202401","2021-02-03 00:00","2021","02","03","00:00","-25.4","","-29.2","","71","","","","33","","13","","24.1","","100.73","","","","-35","","Snow"
"-115.78","60.84","HAY RIVER A","2202401","2021-02-03 01:00","2021","02","03","01:00","-26.1","","-29.7","","72","","","","30","","17","","24.1","","100.70","","","","-37","","NA"
"-115.78","60.84","HAY RIVER A","2202401","2021-02-03 02:00","2021","02","03","02:00","-26.5","","-30.3","","71","","","","30","","19","","19.3","","100.70","","","","-38","","Snow"
"-115.78","60.84","HAY RIVER A","2202401","2021-02-03 03:00","2021","02","03","03:00","-26.8","","-30.7","","70","","","","31","","19","","19.3","","100.67","","","","-39","","Snow"
"-115.78","60.84","HAY RIVER A","2202401","2021-02-03 04:00","2021","02","03","04:00","-26.7","","-30.6","","70","","","","32","","20","","19.3","","100.68","","","","-39","","Snow"
"-115.78","60.84","HAY RIVER A","2202401","2021-02-03 05:00","2021","02","03","05:00","-26.4","","-30.2","","71","","","","32","","17","","19.3","","100.68","","","","-38","","Snow"
"-115.78","60.84","HAY RIVER A","2202401","2021-02-03 06:00","2021","02","03","06:00","-26.4","","-30.2","","71","","","","31","","19","","19.3","","100.66","","","","-38","","Snow"
"-115.78","60.84","HAY RIVER A","2202401","2021-02-03 07:00","2021","02","03","07:00","-26.2","","-30.1","","71","","","","33","","18","","24.1","","100.63","","","","-38","","Snow"
"-115.78","60.84","HAY RIVER A","2202401","2021-02-03 08:00","2021","02","03","08:00","-26.1","","-29.9","","71","","","","32","","13","","24.1","","100.58","","","","-36","","Snow"
"-115.78","60.84","HAY RIVER A","2202401","2021-02-03 09:00","2021","02","03","09:00","-25.9","","-29.6","","71","","","","32","","15","","24.1","","100.58","","","","-36","","Snow"
"-115.78","60.84","HAY RIVER A","2202401","2021-02-03 10:00","2021","02","03","10:00","-25.6","","-29.5","","71","","","","31","","16","","24.1","","100.57","","","","-36","","Snow"
"-115.78","60.84","HAY RIVER A","2202401","2021-02-03 11:00","2021","02","03","11:00","-25.6","","-29.4","","71","","","","32","","13","","24.1","","100.53","","","","-35","","Snow"
"-115.78","60.84","HAY RIVER A","2202401","2021-02-03 12:00","2021","02","03","12:00","-25.5","","-29.5","","69","","","","31","","11","","24.1","","100.48","","","","-34","","Snow"
"-115.78","60.84","HAY RIVER A","2202401","2021-02-03 13:00","2021","02","03","13:00","-25.6","","-29.5","","70","","","","31","","15","","9.7","","100.45","","","","-36","","Snow"
"-115.78","60.84","HAY RIVER A","2202401","2021-02-03 14:00","2021","02","03","14:00","-25.7","","-29.4","","71","","","","31","","15","","16.1","","100.42","","","","-36","","Snow"
"-115.78","60.84","HAY RIVER A","2202401","2021-02-03 15:00","2021","02","03","15:00","-26.0","","-29.9","","71","","","","31","","14","","24.1","","100.40","","","","-36","","Snow"
"-115.78","60.84","HAY RIVER A","2202401","2021-02-03 16:00","2021","02","03","16:00","-25.7","","-29.3","","72","","","","32","","9","","24.1","","100.38","","","","-33","","Snow"
"-115.78","60.84","HAY RIVER A","2202401","2021-02-03 17:00","2021","02","03","17:00","-25.2","","-28.9","","72","","","","31","","12","","19.3","","100.38","","","","-34","","Snow"
"-115.78","60.84","HAY RIVER A","2202401","2021-02-03 18:00","2021","02","03","18:00","-25.3","","-28.9","","73","","","","30","","8","","24.1","","100.36","","","","-32","","Snow"
"-115.78","60.84","HAY RIVER A","2202401","2021-02-03 19:00","2021","02","03","19:00","-25.2","","-28.5","","74","","","","30","","9","","11.3","","100.33","","","","-33","","Snow"
"-115.78","60.84","HAY RIVER A","2202401","2021-02-03 20:00","2021","02","03","20:00","-25.3","","-28.7","","74","","","","33","","9","","12.9","","100.30","","","","-33","","Snow"
"-115.78","60.84","HAY RIVER A","2202401","2021-02-03 21:00","2021","02","03","21:00","-25.2","","-28.6","","74","","","","34","","7","","11.3","","100.30","","","","-32","","Snow"
"-115.78","60.84","HAY RIVER A","2202401","2021-02-03 22:00","2021","02","03","22:00","-25.4","","-28.9","","73","","","","34","","7","","14.5","","100.28","","","","-32","","Snow"
"-115.78","60.84","HAY RIVER A","2202401","2021-02-03 23:00","2021","02","03","23:00","-25.7","","-29.3","","73","","","","34","","9","","19.3","","100.29","","","","-33","","Snow"
"-115.78","60.84","HAY RIVER A","2202401","2021-02-04 00:00","2021","02","04","00:00","-25.4","","-29.1","","72","","","","33","","18","","14.5","","100.28","","","","-37","","Snow"
"-115.78","60.84","HAY RIVER A","2202401","2021-02-04 01:00","2021","02","04","01:00","-25.8","","-29.5","","72","","","","32","","20","","14.5","","100.30","","","","-38","","Snow"
"-115.78","60.84","HAY RIVER A","2202401","2021-02-04 02:00","2021","02","04","02:00","-26.1","","-29.8","","72","","","","31","","23","","12.9","","100.35","","","","-39","","Snow"
"-115.78","60.84","HAY RIVER A","2202401","2021-02-04 03:00","2021","02","04","03:00","-26.5","","-30.3","","71","","","","32","","27","","14.5","","100.39","","","","-40","","Snow"
"-115.78","60.84","HAY RIVER A","2202401","2021-02-04 04:00","2021","02","04","04:00","-28.1","","-31.8","","71","","","","31","","25","","22.5","","100.40","","","","-42","","Ice Crystals,Blowing Snow"
"-115.78","60.84","HAY RIVER A","2202401","2021-02-04 05:00","2021","02","04","05:00","-28.2","","-32.1","","70","","","","31","","23","","24.1","","100.42","","","","-42","","Ice Crystals,Blowing Snow"
"-115.78","60.84","HAY RIVER A","2202401","2021-02-04 06:00","2021","02","04","06:00","-29.5","","-33.4","","70","","","","30","","25","","24.1","","100.45","","","","-44","","Blowing Snow"
"-115.78","60.84","HAY RIVER A","2202401","2021-02-04 07:00","2021","02","04","07:00","-30.2","","-33.8","","72","","","","29","","25","","24.1","","100.50","","","","-45","","Blowing Snow"
"-115.78","60.84","HAY RIVER A","2202401","2021-02-04 08:00","2021","02","04","08:00","-30.5","","-34.1","","71","","","","30","","29","","24.1","","100.53","","","","-46","","Blowing Snow"
"-115.78","60.84","HAY RIVER A","2202401","2021-02-04 09:00","2021","02","04","09:00","-31.4","","-35.0","","71","","","","29","","31","","16.1","","100.61","","","","-48","","Blowing Snow"
"-115.78","60.84","HAY RIVER A","2202401","2021-02-04 10:00","2021","02","04","10:00","-31.6","","-35.4","","71","","","","30","","26","","16.1","","100.69","","","","-47","","Blowing Snow"
"-115.78","60.84","HAY RIVER A","2202401","2021-02-04 11:00","2021","02","04","11:00","-31.1","","-35.0","","69","","","","29","","25","","24.1","","100.76","","","","-46","","Blowing Snow"
"-115.78","60.84","HAY RIVER A","2202401","2021-02-04 12:00","2021","02","04","12:00","-30.7","","-34.8","","68","","","","30","","23","","24.1","","100.78","","","","-45","","Blowing Snow"
"-115.78","60.84","HAY RIVER A","2202401","2021-02-04 13:00","2021","02","04","13:00","-30.7","","-34.8","","68","","","","30","","27","","24.1","","100.80","","","","-46","","Blowing Snow"
"-115.78","60.84","HAY RIVER A","2202401","2021-02-04 14:00","2021","02","04","14:00","-30.1","","-34.3","","68","","","","29","","28","","24.1","","100.85","","","","-45","","Mainly Clear"
"-115.78","60.84","HAY RIVER A","2202401","2021-02-04 15:00","2021","02","04","15:00","-29.7","","-34.0","","67","","","","30","","23","","24.1","","100.90","","","","-44","","Blowing Snow"
"-115.78","60.84","HAY RIVER A","2202401","2021-02-04 16:00","2021","02","04","16:00","-29.7","","-33.9","","68","","","","30","","20","","24.1","","100.91","","","","-43","","Blowing Snow"
"-115.78","60.84","HAY RIVER A","2202401","2021-02-04 17:00","2021","02","04","17:00","-30.2","","-34.2","","69","","","","29","","22","","24.1","","100.92","","","","-44","","Blowing Snow"
"-115.78","60.84","HAY RIVER A","2202401","2021-02-04 18:00","2021","02","04","18:00","-30.7","","-34.6","","70","","","","30","","19","","24.1","","100.94","","","","-44","","NA"
"-115.78","60.84","HAY RIVER A","2202401","2021-02-04 19:00","2021","02","04","19:00","-31.6","","-35.4","","71","","","","29","","15","","24.1","","100.92","","","","-43","","NA"
"-115.78","60.84","HAY RIVER A","2202401","2021-02-04 20:00","2021","02","04","20:00","-34.0","","-37.3","","73","","","","29","","11","","24.1","","100.91","","","","-44","","Mainly Clear"
"-115.78","60.84","HAY RIVER A","2202401","2021-02-04 21:00","2021","02","04","21:00","-32.5","","-35.8","","73","","","","29","","12","","24.1","","100.93","","","","-43","","NA"
"-115.78","60.84","HAY RIVER A","2202401","2021-02-04 22:00","2021","02","04","22:00","-35.0","","-38.4","","72","","","","25","","8","","24.1","","100.98","","","","-44","","NA"
"-115.78","60.84","HAY RIVER A","2202401","2021-02-04 23:00","2021","02","04","23:00","-35.0","","-38.5","","71","","","","26","","3","","24.1","","100.97","","","","-39","","Clear"
"-115.78","60.84","HAY RIVER A","2202401","2021-02-05 00:00","2021","02","05","00:00","-35.9","","-39.3","","71","","","","24","","5","","24.1","","100.98","","","","-42","","NA"
"-115.78","60.84","HAY RIVER A","2202401","2021-02-05 01:00","2021","02","05","01:00","-37.0","","-40.6","","70","","","","24","","7","","24.1","","100.97","","","","-45","","NA"
"-115.78","60.84","HAY RIVER A","2202401","2021-02-05 02:00","2021","02","05","02:00","-36.4","","-39.9","","71","","","","36","","3","","24.1","","101.01","","","","-40","","Clear"
"-115.78","60.84","HAY RIVER A","2202401","2021-02-05 03:00","2021","02","05","03:00","-37.7","","-41.3","","70","","","","24","","8","","24.1","","101.06","","","","-47","","NA"
"-115.78","60.84","HAY RIVER A","2202401","2021-02-05 04:00","2021","02","05","04:00","-36.6","","-40.2","","70","","","","28","","5","","24.1","","101.11","","","","-43","","NA"
"-115.78","60.84","HAY RIVER A","2202401","2021-02-05 05:00","2021","02","05","05:00","-36.0","","-39.6","","70","","","","31","","16","","24.1","","101.11","","","","-49","","Clear"
"-115.78","60.84","HAY RIVER A","2202401","2021-02-05 06:00","2021","02","05","06:00","-35.0","","-38.6","","71","","","","28","","16","","24.1","","101.20","","","","-48","","NA"
"-115.78","60.84","HAY RIVER A","2202401","2021-02-05 07:00","2021","02","05","07:00","-34.2","","-37.8","","71","","","","29","","19","","24.1","","101.23","","","","-48","","NA"
"-115.78","60.84","HAY RIVER A","2202401","2021-02-05 08:00","2021","02","05","08:00","-34.2","","-37.9","","70","","","","30","","23","","24.1","","101.28","","","","-49","","Mainly Clear"
"-115.78","60.84","HAY RIVER A","2202401","2021-02-05 09:00","2021","02","05","09:00","-34.4","","-38.1","","70","","","","30","","21","","24.1","","101.32","","","","-49","","Ice Crystals"
"-115.78","60.84","HAY RIVER A","2202401","2021-02-05 10:00","2021","02","05","10:00","-33.4","","-37.1","","71","","","","30","","20","","24.1","","101.37","","","","-47","","Ice Crystals,Blowing Snow"
"-115.78","60.84","HAY RIVER A","2202401","2021-02-05 11:00","2021","02","05","11:00","-32.5","","-36.2","","70","","","","31","","20","","24.1","","101.46","","","","-46","","Blowing Snow"
"-115.78","60.84","HAY RIVER A","2202401","2021-02-05 12:00","2021","02","05","12:00","-32.0","","-35.8","","70","","","","30","","21","","24.1","","101.48","","","","-46","","Blowing Snow"
"-115.78","60.84","HAY RIVER A","2202401","2021-02-05 13:00","2021","02","05","13:00","-31.2","","-35.1","","69","","","","29","","17","","24.1","","101.50","","","","-44","","Blowing Snow"
"-115.78","60.84","HAY RIVER A","2202401","2021-02-05 14:00","2021","02","05","14:00","-30.7","","-35.1","","66","","","","28","","14","","24.1","","101.53","","","","-42","","Blowing Snow"
"-115.78","60.84","HAY RIVER A","2202401","2021-02-05 15:00","2021","02","05","15:00","-30.6","","-35.0","","66","","","","28","","12","","24.1","","101.55","","","","-41","","Ice Crystals"
"-115.78","60.84","HAY RIVER A","2202401","2021-02-05 16:00","2021","02","05","16:00","-30.8","","-35.2","","66","","","","29","","14","","24.1","","101.57","","","","-42","","Ice Crystals"
"-115.78","60.84","HAY RIVER A","2202401","2021-02-05 17:00","2021","02","05","17:00","-31.3","","-35.5","","68","","","","29","","8","","24.1","","101.56","","","","-40","","Mostly Cloudy"
"-115.78","60.84","HAY RIVER A","2202401","2021-02-05 18:00","2021","02","05","18:00","-33.5","","-37.0","","71","","","","30","","4","","24.1","","101.55","","","","-38","","Ice Crystals"
"-115.78","60.84","HAY RIVER A","2202401","2021-02-05 19:00","2021","02","05","19:00","-33.4","","-36.9","","72","","","","28","","4","","24.1","","101.55","","","","-38","","Ice Crystals"
"-115.78","60.84","HAY RIVER A","2202401","2021-02-05 20:00","2021","02","05","20:00","-31.5","","-35.7","","67","","","","33","","14","","24.1","","101.54","","","","-43","","Ice Crystals"
"-115.78","60.84","HAY RIVER A","2202401","2021-02-05 21:00","2021","02","05","21:00","-32.1","","-36.2","","68","","","","34","","8","","24.1","","101.53","","","","-40","","Ice Crystals"
"-115.78","60.84","HAY RIVER A","2202401","2021-02-05 22:00","2021","02","05","22:00","-34.3","","-38.4","","68","","","","32","","9","","24.1","","101.54","","","","-44","","Ice Crystals"
"-115.78","60.84","HAY RIVER A","2202401","2021-02-05 23:00","2021","02","05","23:00","-34.6","","-39.0","","65","","","","33","","9","","24.1","","101.55","","","","-44","","Mainly Clear"
"-115.78","60.84","HAY RIVER A","2202401","2021-02-06 00:00","2021","02","06","00:00","-35.9","","-39.9","","67","","","","32","","7","","24.1","","101.58","","","","-44","","NA"
"-115.78","60.84","HAY RIVER A","2202401","2021-02-06 01:00","2021","02","06","01:00","-37.4","","-41.5","","67","","","","30","","11","","24.1","","101.56","","","","-49","","NA"
"-115.78","60.84","HAY RIVER A","2202401","2021-02-06 02:00","2021","02","06","02:00","-37.3","","-41.2","","68","","","","32","","9","","24.1","","101.56","","","","-47","","Clear"
"-115.78","60.84","HAY RIVER A","2202401","2021-02-06 03:00","2021","02","06","03:00","-37.8","","-41.5","","69","","","","30","","8","","24.1","","101.57","","","","-47","","NA"
"-115.78","60.84","HAY RIVER A","2202401","2021-02-06 04:00","2021","02","06","04:00","-38.5","","-42.2","","69","","","","31","","7","","24.1","","101.56","","","","-47","","NA"
"-115.78","60.84","HAY RIVER A","2202401","2021-02-06 05:00","2021","02","06","05:00","-39.1","","-42.9","","68","","","","32","","7","","24.1","","101.52","","","","-48","","Clear"
"-115.78","60.84","HAY RIVER A","2202401","2021-02-06 06:00","2021","02","06","06:00","-39.8","","-43.6","","68","","","","36","","1","","24.1","","101.51","","","","-41","","NA"
"-115.78","60.84","HAY RIVER A","2202401","2021-02-06 07:00","2021","02","06","07:00","-41.6","","-45.5","","67","","","","36","","2","","24.1","","101.51","","","","-44","","NA"
"-115.78","60.84","HAY RIVER A","2202401","2021-02-06 08:00","2021","02","06","08:00","-41.7","","-45.7","","66","","","","25","","7","","19.3","","101.48","","","","-51","","Mainly Clear"
"-115.78","60.84","HAY RIVER A","2202401","2021-02-06 09:00","2021","02","06","09:00","-42.1","","-46.2","","65","","","","16","","3","","0.8","","101.49","","","","-46","","Fog"
"-115.78","60.84","HAY RIVER A","2202401","2021-02-06 10:00","2021","02","06","10:00","-40.1","","-44.1","","67","","","","23","","4","","12.9","","101.49","","","","-46","","NA"
"-115.78","60.84","HAY RIVER A","2202401","2021-02-06 11:00","2021","02","06","11:00","-37.2","","-41.1","","68","","","","21","","4","","24.1","","101.49","","","","-42","","Mainly Clear"
"-115.78","60.84","HAY RIVER A","2202401","2021-02-06 12:00","2021","02","06","12:00","-34.5","","-38.6","","67","","","","24","","5","","24.1","","101.44","","","","-41","","NA"
"-115.78","60.84","HAY RIVER A","2202401","2021-02-06 13:00","2021","02","06","13:00","-32.7","","-37.7","","62","","","","36","","1","","24.1","","101.39","","","","-34","","NA"
"-115.78","60.84","HAY RIVER A","2202401","2021-02-06 14:00","2021","02","06","14:00","-33.9","","-39.6","","57","","","","6","","7","","24.1","","101.38","","","","-42","","Mainly Clear"
"-115.78","60.84","HAY RIVER A","2202401","2021-02-06 15:00","2021","02","06","15:00","-34.8","","-39.7","","62","","","","8","","12","","24.1","","101.36","","","","-46","","NA"
"-115.78","60.84","HAY RIVER A","2202401","2021-02-06 16:00","2021","02","06","16:00","-35.4","","-39.9","","65","","","","8","","11","","24.1","","101.34","","","","-46","","NA"
"-115.78","60.84","HAY RIVER A","2202401","2021-02-06 17:00","2021","02","06","17:00","-36.0","","-40.4","","65","","","","8","","11","","24.1","","101.31","","","","-47","","Mainly Clear"
"-115.78","60.84","HAY RIVER A","2202401","2021-02-06 18:00","2021","02","06","18:00","-37.3","","-41.1","","68","","","","8","","10","","24.1","","101.30","","","","-48","","NA"
"-115.78","60.84","HAY RIVER A","2202401","2021-02-06 19:00","2021","02","06","19:00","-36.9","","-40.6","","70","","","","10","","8","","24.1","","101.26","","","","-46","","NA"
"-115.78","60.84","HAY RIVER A","2202401","2021-02-06 20:00","2021","02","06","20:00","-37.1","","-40.8","","69","","","","10","","7","","24.1","","101.20","","","","-46","","Clear"
"-115.78","60.84","HAY RIVER A","2202401","2021-02-06 21:00","2021","02","06","21:00","-37.6","","-41.2","","69","","","","9","","8","","24.1","","101.18","","","","-47","","NA"
"-115.78","60.84","HAY RIVER A","2202401","2021-02-06 22:00","2021","02","06","22:00","-37.5","","-41.2","","69","","","","11","","8","","24.1","","101.16","","","","-47","","NA"
"-115.78","60.84","HAY RIVER A","2202401","2021-02-06 23:00","2021","02","06","23:00","-38.4","","-42.2","","69","","","","10","","7","","8.1","","101.14","","","","-47","","Fog"
"-115.78","60.84","HAY RIVER A","2202401","2021-02-07 00:00","2021","02","07","00:00","-38.4","","-42.2","","68","","","","11","","7","","19.3","","101.10","","","","-47","","NA"
"-115.78","60.84","HAY RIVER A","2202401","2021-02-07 01:00","2021","02","07","01:00","-39.0","","-42.9","","68","","","","9","","7","","8.1","","101.11","","","","-48","","Fog"
"-115.78","60.84","HAY RIVER A","2202401","2021-02-07 02:00","2021","02","07","02:00","-39.4","","-43.3","","68","","","","8","","11","","4.8","","101.09","","","","-51","","Fog"
"-115.78","60.84","HAY RIVER A","2202401","2021-02-07 03:00","2021","02","07","03:00","-40.0","","-43.9","","67","","","","9","","7","","4.8","","101.11","","","","-49","","Fog"
"-115.78","60.84","HAY RIVER A","2202401","2021-02-07 04:00","2021","02","07","04:00","-40.0","","-44.0","","67","","","","9","","8","","4.8","","101.11","","","","-50","","Fog"
"-115.78","60.84","HAY RIVER A","2202401","2021-02-07 05:00","2021","02","07","05:00","-40.6","","-44.7","","66","","","","10","","6","","4.0","","101.11","","","","-49","","Fog"
"-115.78","60.84","HAY RIVER A","2202401","2021-02-07 06:00","2021","02","07","06:00","-41.1","","-45.2","","66","","","","8","","9","","3.2","","101.13","","","","-52","","Fog"
"-115.78","60.84","HAY RIVER A","2202401","2021-02-07 07:00","2021","02","07","07:00","-41.1","","-45.1","","66","","","","9","","8","","9.7","","101.17","","","","-51","","Fog"
"-115.78","60.84","HAY RIVER A","2202401","2021-02-07 08:00","2021","02","07","08:00","-41.7","","-45.8","","66","","","","8","","13","","4.8","","101.22","","","","-55","","Fog"
"-115.78","60.84","HAY RIVER A","2202401","2021-02-07 09:00","2021","02","07","09:00","-41.6","","-45.7","","66","","","","8","","13","","8.1","","101.26","","","","-55","","Fog"
"-115.78","60.84","HAY RIVER A","2202401","2021-02-07 10:00","2021","02","07","10:00","-40.2","","-44.2","","66","","","","9","","8","","16.1","","101.31","","","","-50","","NA"
"-115.78","60.84","HAY RIVER A","2202401","2021-02-07 11:00","2021","02","07","11:00","-38.0","","-41.9","","67","","","","8","","9","","24.1","","101.35","","","","-48","","Mainly Clear"
"-115.78","60.84","HAY RIVER A","2202401","2021-02-07 12:00","2021","02","07","12:00","-37.1","","-41.0","","67","","","","9","","9","","24.1","","101.41","","","","-47","","NA"
"-115.78","60.84","HAY RIVER A","2202401","2021-02-07 13:00","2021","02","07","13:00","-36.0","","-40.1","","67","","","","9","","10","","24.1","","101.48","","","","-46","","NA"
"-115.78","60.84","HAY RIVER A","2202401","2021-02-07 14:00","2021","02","07","14:00","-34.3","","-38.7","","66","","","","4","","7","","24.1","","101.53","","","","-42","","Mainly Clear"
"-115.78","60.84","HAY RIVER A","2202401","2021-02-07 15:00","2021","02","07","15:00","-33.8","","-38.8","","61","","","","6","","13","","24.1","","101.61","","","","-45","","NA"
"-115.78","60.84","HAY RIVER A","2202401","2021-02-07 16:00","2021","02","07","16:00","-34.0","","-39.0","","61","","","","4","","8","","24.1","","101.69","","","","-43","","NA"
"-115.78","60.84","HAY RIVER A","2202401","2021-02-07 17:00","2021","02","07","17:00","-35.0","","-39.5","","65","","","","1","","4","","24.1","","101.78","","","","-40","","Mainly Clear"
"-115.78","60.84","HAY RIVER A","2202401","2021-02-07 18:00","2021","02","07","18:00","-36.6","","-40.6","","67","","","","36","","3","","24.1","","101.81","","","","-41","","NA"
"-115.78","60.84","HAY RIVER A","2202401","2021-02-07 19:00","2021","02","07","19:00","-38.0","","-41.8","","69","","","","33","","9","","24.1","","101.83","","","","-48","","NA"
"-115.78","60.84","HAY RIVER A","2202401","2021-02-07 20:00","2021","02","07","20:00","-39.6","","-43.3","","69","","","","32","","5","","24.1","","101.86","","","","-47","","Mainly Clear"
"-115.78","60.84","HAY RIVER A","2202401","2021-02-07 21:00","2021","02","07","21:00","-40.2","","-44.1","","67","","","","29","","6","","24.1","","101.86","","","","-48","","NA"
"-115.78","60.84","HAY RIVER A","2202401","2021-02-07 22:00","2021","02","07","22:00","-39.1","","-43.0","","68","","","","29","","10","","24.1","","101.90","","","","-50","","NA"
"-115.78","60.84","HAY RIVER A","2202401","2021-02-07 23:00","2021","02","07","23:00","-38.0","","-42.0","","68","","","","30","","14","","24.1","","101.94","","","","-51","","Clear"
"-115.78","60.84","HAY RIVER A","2202401","2021-02-08 00:00","2021","02","08","00:00","-38.5","","-42.5","","67","","","","30","","14","","24.1","","101.96","","","","-51","","NA"
"-115.78","60.84","HAY RIVER A","2202401","2021-02-08 01:00","2021","02","08","01:00","-38.7","","-42.6","","67","","","","31","","13","","24.1","","102.00","","","","-51","","NA"
"-115.78","60.84","HAY RIVER A","2202401","2021-02-08 02:00","2021","02","08","02:00","-39.1","","-43.1","","67","","","","31","","12","","24.1","","102.00","","","","-51","","Mainly Clear"
"-115.78","60.84","HAY RIVER A","2202401","2021-02-08 03:00","2021","02","08","03:00","-39.1","","-43.1","","67","","","","30","","12","","24.1","","102.01","","","","-51","","NA"
"-115.78","60.84","HAY RIVER A","2202401","2021-02-08 04:00","2021","02","08","04:00","-39.2","","-43.2","","67","","","","30","","13","","24.1","","102.05","","","","-52","","NA"
"-115.78","60.84","HAY RIVER A","2202401","2021-02-08 05:00","2021","02","08","05:00","-38.7","","-42.7","","67","","","","29","","17","","24.1","","102.04","","","","-53","","Mainly Clear"
"-115.78","60.84","HAY RIVER A","2202401","2021-02-08 06:00","2021","02","08","06:00","-38.4","","-42.4","","67","","","","29","","20","","24.1","","102.05","","","","-54","","NA"
"-115.78","60.84","HAY RIVER A","2202401","2021-02-08 07:00","2021","02","08","07:00","-37.9","","-41.8","","67","","","","30","","22","","24.1","","102.07","","","","-54","","NA"
"-115.78","60.84","HAY RIVER A","2202401","2021-02-08 08:00","2021","02","08","08:00","-37.3","","-41.3","","67","","","","29","","25","","24.1","","102.04","","","","-54","","Mainly Clear"
"-115.78","60.84","HAY RIVER A","2202401","2021-02-08 09:00","2021","02","08","09:00","-36.3","","-40.3","","67","","","","29","","29","","16.1","","102.06","","","","-54","","Blowing Snow"
"-115.78","60.84","HAY RIVER A","2202401","2021-02-08 10:00","2021","02","08","10:00","-35.9","","-39.9","","67","","","","29","","30","","20.9","","102.05","","","","-53","","Blowing Snow"
"-115.78","60.84","HAY RIVER A","2202401","2021-02-08 11:00","2021","02","08","11:00","-35.3","","-39.4","","67","","","","30","","31","","20.9","","102.04","","","","-53","","Blowing Snow"
"-115.78","60.84","HAY RIVER A","2202401","2021-02-08 12:00","2021","02","08","12:00","-34.7","","-38.9","","66","","","","29","","31","","8.1","","102.03","","","","-52","","Blowing Snow"
"-115.78","60.84","HAY RIVER A","2202401","2021-02-08 13:00","2021","02","08","13:00","-33.1","","-37.2","","67","","","","29","","34","","4.8","","102.02","","","","-51","","Blowing Snow"
"-115.78","60.84","HAY RIVER A","2202401","2021-02-08 14:00","2021","02","08","14:00","-32.6","","-36.7","","68","","","","30","","34","","6.4","","102.02","","","","-50","","Blowing Snow"
"-115.78","60.84","HAY RIVER A","2202401","2021-02-08 15:00","2021","02","08","15:00","-31.8","","-35.9","","67","","","","29","","35","","16.1","","102.02","","","","-49","","Blowing Snow"
"-115.78","60.84","HAY RIVER A","2202401","2021-02-08 16:00","2021","02","08","16:00","-30.7","","-34.8","","68","","","","29","","30","","24.1","","102.03","","","","-47","","Blowing Snow"
"-115.78","60.84","HAY RIVER A","2202401","2021-02-08 17:00","2021","02","08","17:00","-30.2","","-34.3","","68","","","","29","","31","","16.1","","102.03","","","","-46","","Snow,Blowing Snow"
"-115.78","60.84","HAY RIVER A","2202401","2021-02-08 18:00","2021","02","08","18:00","-30.3","","-34.2","","69","","","","29","","32","","24.1","","101.99","","","","-46","","Blowing Snow"
"-115.78","60.84","HAY RIVER A","2202401","2021-02-08 19:00","2021","02","08","19:00","-30.3","","-34.1","","70","","","","29","","34","","24.1","","101.98","","","","-47","","Snow Showers,Blowing Snow"
"-115.78","60.84","HAY RIVER A","2202401","2021-02-08 20:00","2021","02","08","20:00","-30.2","","-33.9","","71","","","","30","","32","","24.1","","101.94","","","","-46","","Snow Showers,Blowing Snow"
"-115.78","60.84","HAY RIVER A","2202401","2021-02-08 21:00","2021","02","08","21:00","-29.9","","-33.7","","71","","","","30","","35","","24.1","","101.92","","","","-46","","Snow,Blowing Snow"
"-115.78","60.84","HAY RIVER A","2202401","2021-02-08 22:00","2021","02","08","22:00","-29.7","","-33.5","","71","","","","30","","31","","4.8","","101.90","","","","-45","","Snow,Blowing Snow"
"-115.78","60.84","HAY RIVER A","2202401","2021-02-08 23:00","2021","02","08","23:00","-29.5","","-33.3","","71","","","","31","","31","","9.7","","101.89","","","","-45","","Snow,Blowing Snow"
"-115.78","60.84","HAY RIVER A","2202401","2021-02-09 00:00","2021","02","09","00:00","-29.4","","-33.2","","70","","","","31","","31","","9.7","","101.85","","","","-45","","Snow,Blowing Snow"
"-115.78","60.84","HAY RIVER A","2202401","2021-02-09 01:00","2021","02","09","01:00","-29.2","","-33.1","","70","","","","31","","37","","19.3","","101.83","","","","-46","","Snow,Blowing Snow"
"-115.78","60.84","HAY RIVER A","2202401","2021-02-09 02:00","2021","02","09","02:00","-29.2","","-33.0","","71","","","","31","","34","","9.7","","101.80","","","","-45","","Snow,Blowing Snow"
"-115.78","60.84","HAY RIVER A","2202401","2021-02-09 03:00","2021","02","09","03:00","-29.1","","-32.8","","70","","","","30","","34","","9.7","","101.78","","","","-45","","Snow,Blowing Snow"
"-115.78","60.84","HAY RIVER A","2202401","2021-02-09 04:00","2021","02","09","04:00","-28.9","","-32.7","","70","","","","30","","32","","4.8","","101.78","","","","-45","","Snow,Blowing Snow"
"-115.78","60.84","HAY RIVER A","2202401","2021-02-09 05:00","2021","02","09","05:00","-28.9","","-32.6","","71","","","","30","","28","","3.2","","101.69","","","","-44","","Snow,Blowing Snow"
"-115.78","60.84","HAY RIVER A","2202401","2021-02-09 06:00","2021","02","09","06:00","-28.9","","-32.5","","72","","","","31","","36","","1.6","","101.66","","","","-45","","Snow,Blowing Snow"
"-115.78","60.84","HAY RIVER A","2202401","2021-02-09 07:00","2021","02","09","07:00","-28.8","","-32.4","","72","","","","31","","43","","1.2","","101.62","","","","-46","","Snow,Blowing Snow"
"-115.78","60.84","HAY RIVER A","2202401","2021-02-09 08:00","2021","02","09","08:00","-28.7","","-32.2","","72","","","","32","","43","","1.2","","101.59","","","","-46","","Snow,Blowing Snow"
"-115.78","60.84","HAY RIVER A","2202401","2021-02-09 09:00","2021","02","09","09:00","-28.6","","-32.2","","72","","","","32","","45","","0.8","","101.57","","","","-46","","Snow,Blowing Snow"
"-115.78","60.84","HAY RIVER A","2202401","2021-02-09 10:00","2021","02","09","10:00","-28.3","","-32.1","","71","","","","32","","44","","0.8","","101.52","","","","-46","","Snow,Blowing Snow"
"-115.78","60.84","HAY RIVER A","2202401","2021-02-09 11:00","2021","02","09","11:00","-28.1","","-31.7","","72","","","","32","","44","","0.8","","101.52","","","","-46","","Snow,Blowing Snow"
"-115.78","60.84","HAY RIVER A","2202401","2021-02-09 12:00","2021","02","09","12:00","-28.2","","-31.9","","71","","","","31","","38","","0.8","","101.53","","","","-45","","Snow,Blowing Snow"
"-115.78","60.84","HAY RIVER A","2202401","2021-02-09 13:00","2021","02","09","13:00","-28.1","","-31.9","","70","","","","31","","38","","1.6","","101.54","","","","-45","","Snow,Blowing Snow"
"-115.78","60.84","HAY RIVER A","2202401","2021-02-09 14:00","2021","02","09","14:00","-28.0","","-31.8","","71","","","","31","","34","","1.6","","101.56","","","","-44","","Snow,Blowing Snow"
"-115.78","60.84","HAY RIVER A","2202401","2021-02-09 15:00","2021","02","09","15:00","-27.9","","-31.8","","71","","","","31","","34","","3.2","","101.62","","","","-44","","Snow,Blowing Snow"
"-115.78","60.84","HAY RIVER A","2202401","2021-02-09 16:00","2021","02","09","16:00","-27.7","","-31.6","","70","","","","30","","27","","3.2","","101.67","","","","-42","","Snow,Blowing Snow"
"-115.78","60.84","HAY RIVER A","2202401","2021-02-09 17:00","2021","02","09","17:00","-27.5","","-31.2","","72","","","","30","","28","","2.4","","101.71","","","","-42","","Snow,Blowing Snow"
"-115.78","60.84","HAY RIVER A","2202401","2021-02-09 18:00","2021","02","09","18:00","-27.4","","-31.1","","72","","","","30","","30","","6.4","","101.74","","","","-42","","Snow,Blowing Snow"
"-115.78","60.84","HAY RIVER A","2202401","2021-02-09 19:00","2021","02","09","19:00","-27.7","","-31.3","","72","","","","30","","30","","9.7","","101.77","","","","-43","","Snow,Blowing Snow"
"-115.78","60.84","HAY RIVER A","2202401","2021-02-09 20:00","2021","02","09","20:00","-28.0","","-31.6","","72","","","","30","","27","","9.7","","101.81","","","","-42","","Snow,Blowing Snow"
"-115.78","60.84","HAY RIVER A","2202401","2021-02-09 21:00","2021","02","09","21:00","-28.4","","-32.0","","72","","","","30","","26","","19.3","","101.84","","","","-43","","Snow,Blowing Snow"
"-115.78","60.84","HAY RIVER A","2202401","2021-02-09 22:00","2021","02","09","22:00","-28.9","","-32.5","","72","","","","29","","23","","24.1","","101.86","","","","-43","","Snow,Blowing Snow"
"-115.78","60.84","HAY RIVER A","2202401","2021-02-09 23:00","2021","02","09","23:00","-28.9","","-32.4","","72","","","","29","","25","","24.1","","101.86","","","","-43","","Snow,Blowing Snow"
"-115.78","60.84","HAY RIVER A","2202401","2021-02-10 00:00","2021","02","10","00:00","-28.5","","-32.1","","72","","","","29","","26","","19.3","","101.89","","","","-43","","Snow,Blowing Snow"
"-115.78","60.84","HAY RIVER A","2202401","2021-02-10 01:00","2021","02","10","01:00","-28.4","","-31.9","","73","","","","30","","26","","24.1","","101.90","","","","-43","","Snow,Blowing Snow"
"-115.78","60.84","HAY RIVER A","2202401","2021-02-10 02:00","2021","02","10","02:00","-28.4","","-31.9","","73","","","","29","","27","","24.1","","101.92","","","","-43","","Snow,Blowing Snow"
"-115.78","60.84","HAY RIVER A","2202401","2021-02-10 03:00","2021","02","10","03:00","-27.3","","-30.7","","74","","","","29","","24","","9.7","","101.91","","","","-41","","Snow,Blowing Snow"
"-115.78","60.84","HAY RIVER A","2202401","2021-02-10 04:00","2021","02","10","04:00","-26.9","","-30.5","","73","","","","30","","30","","4.8","","101.86","","","","-42","","Snow,Blowing Snow"
"-115.78","60.84","HAY RIVER A","2202401","2021-02-10 05:00","2021","02","10","05:00","-26.8","","-30.4","","73","","","","31","","25","","9.7","","101.88","","","","-40","","Snow,Blowing Snow"
"-115.78","60.84","HAY RIVER A","2202401","2021-02-10 06:00","2021","02","10","06:00","-26.4","","-29.9","","73","","","","30","","29","","4.8","","101.85","","","","-41","","Snow,Blowing Snow"
"-115.78","60.84","HAY RIVER A","2202401","2021-02-10 07:00","2021","02","10","07:00"
"-115.78","60.84","HAY RIVER A","2202401","2021-02-10 08:00","2021","02","10","08:00","-26.2","","-29.8","","73","","","","31","","23","","4.8","","101.89","","","","-39","","Snow"
"-115.78","60.84","HAY RIVER A","2202401","2021-02-10 09:00","2021","02","10","09:00","-27.3","","-30.9","","72","","","","31","","17","","24.1","","101.93","","","","-39","","NA"
"-115.78","60.84","HAY RIVER A","2202401","2021-02-10 10:00","2021","02","10","10:00","-27.6","","-31.2","","72","","","","30","","18","","24.1","","101.99","","","","-39","","NA"
"-115.78","60.84","HAY RIVER A","2202401","2021-02-10 11:00","2021","02","10","11:00","-27.4","","-31.3","","71","","","","29","","16","","24.1","","102.06","","","","-39","","Mainly Clear"
"-115.78","60.84","HAY RIVER A","2202401","2021-02-10 12:00","2021","02","10","12:00","-26.8","","-31.1","","68","","","","29","","16","","24.1","","102.16","","","","-38","","NA"
"-115.78","60.84","HAY RIVER A","2202401","2021-02-10 13:00","2021","02","10","13:00","-26.4","","-31.0","","66","","","","30","","17","","24.1","","102.26","","","","-38","","NA"
"-115.78","60.84","HAY RIVER A","2202401","2021-02-10 14:00","2021","02","10","14:00"
"-115.78","60.84","HAY RIVER A","2202401","2021-02-10 15:00","2021","02","10","15:00","-26.0","","-30.5","","67","","","","29","","15","","24.1","","102.44","","","","-36","","NA"
"-115.78","60.84","HAY RIVER A","2202401","2021-02-10 16:00","2021","02","10","16:00","-26.3","","-30.6","","68","","","","30","","16","","24.1","","102.55","","","","-37","","NA"
"-115.78","60.84","HAY RIVER A","2202401","2021-02-10 17:00","2021","02","10","17:00","-27.1","","-31.1","","70","","","","30","","11","","24.1","","102.63","","","","-36","","Mainly Clear"
"-115.78","60.84","HAY RIVER A","2202401","2021-02-10 18:00","2021","02","10","18:00","-26.7","","-30.3","","72","","","","32","","9","","24.1","","102.71","","","","-35","","NA"
"-115.78","60.84","HAY RIVER A","2202401","2021-02-10 19:00","2021","02","10","19:00","-27.7","","-31.1","","73","","","","31","","10","","24.1","","102.75","","","","-36","","NA"
"-115.78","60.84","HAY RIVER A","2202401","2021-02-10 20:00","2021","02","10","20:00","-27.9","","-31.2","","74","","","","31","","12","","24.1","","102.79","","","","-38","","Mostly Cloudy"
"-115.78","60.84","HAY RIVER A","2202401","2021-02-10 21:00","2021","02","10","21:00","-28.8","","-32.0","","74","","","","31","","8","","24.1","","102.83","","","","-37","","NA"
"-115.78","60.84","HAY RIVER A","2202401","2021-02-10 22:00","2021","02","10","22:00","-29.3","","-32.4","","75","","","","30","","7","","24.1","","102.87","","","","-36","","NA"
"-115.78","60.84","HAY RIVER A","2202401","2021-02-10 23:00","2021","02","10","23:00","-30.0","","-33.2","","74","","","","30","","9","","24.1","","102.91","","","","-39","","Mainly Clear"
"-115.78","60.84","HAY RIVER A","2202401","2021-02-11 00:00","2021","02","11","00:00","-29.4","","-32.5","","75","","","","28","","8","","24.1","","102.93","","","","-37","","NA"
"-115.78","60.84","HAY RIVER A","2202401","2021-02-11 01:00","2021","02","11","01:00","-28.7","","-31.8","","75","","","","30","","13","","24.1","","102.92","","","","-39","","NA"
"-115.78","60.84","HAY RIVER A","2202401","2021-02-11 02:00","2021","02","11","02:00","-28.8","","-32.0","","75","","","","29","","15","","24.1","","102.98","","","","-40","","Mainly Clear"
"-115.78","60.84","HAY RIVER A","2202401","2021-02-11 03:00","2021","02","11","03:00","-28.0","","-31.2","","75","","","","28","","20","","24.1","","102.95","","","","-41","","NA"
"-115.78","60.84","HAY RIVER A","2202401","2021-02-11 04:00","2021","02","11","04:00","-28.0","","-31.2","","75","","","","29","","16","","24.1","","102.93","","","","-39","","NA"
"-115.78","60.84","HAY RIVER A","2202401","2021-02-11 05:00","2021","02","11","05:00","-26.3","","-29.4","","76","","","","29","","23","","24.1","","102.88","","","","-39","","Mainly Clear"
"-115.78","60.84","HAY RIVER A","2202401","2021-02-11 06:00","2021","02","11","06:00","-25.2","","-28.3","","76","","","","30","","24","","19.3","","102.88","","","","-38","","Snow"
"-115.78","60.84","HAY RIVER A","2202401","2021-02-11 07:00","2021","02","11","07:00","-24.9","","-28.0","","76","","","","29","","22","","16.1","","102.84","","","","-37","","Snow"
"-115.78","60.84","HAY RIVER A","2202401","2021-02-11 08:00","2021","02","11","08:00","-24.4","","-27.5","","76","","","","28","","16","","24.1","","102.76","","","","-35","","Snow"
"-115.78","60.84","HAY RIVER A","2202401","2021-02-11 09:00","2021","02","11","09:00","-23.7","","-26.9","","75","","","","30","","24","","24.1","","102.71","","","","-36","","Snow"
"-115.78","60.84","HAY RIVER A","2202401","2021-02-11 10:00","2021","02","11","10:00","-23.4","","-27.2","","72","","","","29","","30","","24.1","","102.63","","","","-37","","Snow,Blowing Snow"
"-115.78","60.84","HAY RIVER A","2202401","2021-02-11 11:00","2021","02","11","11:00","-22.6","","-26.9","","69","","","","28","","27","","24.1","","102.51","","","","-35","","Mostly Cloudy"
"-115.78","60.84","HAY RIVER A","2202401","2021-02-11 12:00","2021","02","11","12:00","-22.3","","-26.6","","68","","","","29","","22","","24.1","","102.48","","","","-34","","Blowing Snow"
"-115.78","60.84","HAY RIVER A","2202401","2021-02-11 13:00","2021","02","11","13:00","-21.7","","-25.6","","71","","","","29","","25","","24.1","","102.38","","","","-34","","NA"
"-115.78","60.84","HAY RIVER A","2202401","2021-02-11 14:00","2021","02","11","14:00","-20.7","","-24.5","","72","","","","30","","26","","24.1","","102.29","","","","-33","","Blowing Snow"
"-115.78","60.84","HAY RIVER A","2202401","2021-02-11 15:00","2021","02","11","15:00","-20.3","","-23.9","","74","","","","29","","28","","1.6","","102.20","","","","-33","","Snow,Blowing Snow"
"-115.78","60.84","HAY RIVER A","2202401","2021-02-11 16:00","2021","02","11","16:00","-20.0","","-23.6","","74","","","","31","","25","","16.1","","102.17","","","","-32","","Snow"
"-115.78","60.84","HAY RIVER A","2202401","2021-02-11 17:00","2021","02","11","17:00","-20.1","","-23.6","","74","","","","30","","26","","24.1","","102.13","","","","-32","","Snow,Blowing Snow"
"-115.78","60.84","HAY RIVER A","2202401","2021-02-11 18:00","2021","02","11","18:00","-20.3","","-23.7","","75","","","","30","","26","","24.1","","102.05","","","","-32","","Snow,Blowing Snow"
"-115.78","60.84","HAY RIVER A","2202401","2021-02-11 19:00","2021","02","11","19:00","-20.9","","-24.4","","74","","","","30","","22","","24.1","","102.03","","","","-32","","NA"
"-115.78","60.84","HAY RIVER A","2202401","2021-02-11 20:00","2021","02","11","20:00","-21.5","","-25.0","","74","","","","31","","22","","24.1","","101.98","","","","-33","","Mostly Cloudy"
"-115.78","60.84","HAY RIVER A","2202401","2021-02-11 21:00","2021","02","11","21:00","-21.6","","-25.0","","74","","","","32","","19","","24.1","","101.94","","","","-32","","NA"
"-115.78","60.84","HAY RIVER A","2202401","2021-02-11 22:00","2021","02","11","22:00","-21.4","","-24.7","","75","","","","32","","22","","24.1","","101.90","","","","-33","","NA"
"-115.78","60.84","HAY RIVER A","2202401","2021-02-11 23:00","2021","02","11","23:00","-21.7","","-24.9","","76","","","","33","","13","","24.1","","101.88","","","","-30","","Snow"
"-115.78","60.84","HAY RIVER A","2202401","2021-02-12 00:00","2021","02","12","00:00","-22.4","","-25.7","","75","","","","34","","10","","24.1","","101.85","","","","-30","","NA"
"-115.78","60.84","HAY RIVER A","2202401","2021-02-12 01:00","2021","02","12","01:00","-23.7","","-26.9","","75","","","","32","","8","","24.1","","101.83","","","","-31","","NA"
"-115.78","60.84","HAY RIVER A","2202401","2021-02-12 02:00","2021","02","12","02:00","-24.2","","-27.1","","77","","","","33","","7","","24.1","","101.82","","","","-31","","Mostly Cloudy"
"-115.78","60.84","HAY RIVER A","2202401","2021-02-12 03:00","2021","02","12","03:00","-26.3","","-29.1","","78","","","","25","","8","","24.1","","101.79","","","","-34","","NA"
"-115.78","60.84","HAY RIVER A","2202401","2021-02-12 04:00","2021","02","12","04:00","-26.8","","-29.6","","78","","","","28","","7","","24.1","","101.79","","","","-34","","NA"
"-115.78","60.84","HAY RIVER A","2202401","2021-02-12 05:00","2021","02","12","05:00","-27.4","","-30.2","","78","","","","30","","6","","24.1","","101.77","","","","-34","","Mainly Clear"
"-115.78","60.84","HAY RIVER A","2202401","2021-02-12 06:00","2021","02","12","06:00","-29.3","","-32.3","","76","","","","30","","4","","24.1","","101.76","","","","-34","","NA"
"-115.78","60.84","HAY RIVER A","2202401","2021-02-12 07:00","2021","02","12","07:00","-30.9","","-34.1","","75","","","","21","","3","","24.1","","101.74","","","","-34","","NA"
"-115.78","60.84","HAY RIVER A","2202401","2021-02-12 08:00","2021","02","12","08:00","-31.7","","-34.9","","74","","","","36","","2","","24.1","","101.73","","","","-34","","Mainly Clear"
"-115.78","60.84","HAY RIVER A","2202401","2021-02-12 09:00","2021","02","12","09:00","-31.9","","-35.2","","73","","","","36","","2","","24.1","","101.72","","","","-34","","NA"
"-115.78","60.84","HAY RIVER A","2202401","2021-02-12 10:00","2021","02","12","10:00","-29.7","","-32.9","","74","","","","25","","4","","24.1","","101.76","","","","-34","","NA"
"-115.78","60.84","HAY RIVER A","2202401","2021-02-12 11:00","2021","02","12","11:00","-26.4","","-29.3","","77","","","","36","","2","","24.1","","101.74","","","","-28","","Clear"
"-115.78","60.84","HAY RIVER A","2202401","2021-02-12 12:00","2021","02","12","12:00","-26.4","","-29.6","","75","","","","31","","5","","24.1","","101.71","","","","-32","","NA"
"-115.78","60.84","HAY RIVER A","2202401","2021-02-12 13:00","2021","02","12","13:00","-25.5","","-28.5","","76","","","","32","","9","","24.1","","101.70","","","","-33","","NA"
"-115.78","60.84","HAY RIVER A","2202401","2021-02-12 14:00","2021","02","12","14:00","-25.2","","-28.2","","76","","","","32","","8","","24.1","","101.69","","","","-32","","Clear"
"-115.78","60.84","HAY RIVER A","2202401","2021-02-12 15:00","2021","02","12","15:00","-23.9","","-27.3","","74","","","","9","","9","","24.1","","101.66","","","","-31","","NA"
"-115.78","60.84","HAY RIVER A","2202401","2021-02-12 16:00","2021","02","12","16:00","-25.1","","-28.5","","74","","","","8","","11","","24.1","","101.65","","","","-34","","NA"
"-115.78","60.84","HAY RIVER A","2202401","2021-02-12 17:00","2021","02","12","17:00","-26.2","","-29.4","","76","","","","8","","12","","24.1","","101.63","","","","-36","","Clear"
"-115.78","60.84","HAY RIVER A","2202401","2021-02-12 18:00","2021","02","12","18:00","-26.9","","-29.7","","77","","","","8","","9","","24.1","","101.62","","","","-35","","NA"
"-115.78","60.84","HAY RIVER A","2202401","2021-02-12 19:00","2021","02","12","19:00","-27.6","","-30.4","","77","","","","9","","7","","24.1","","101.60","","","","-34","","NA"
"-115.78","60.84","HAY RIVER A","2202401","2021-02-12 20:00","2021","02","12","20:00","-28.0","","-31.1","","76","","","","10","","6","","24.1","","101.59","","","","-34","","Clear"
"-115.78","60.84","HAY RIVER A","2202401","2021-02-12 21:00","2021","02","12","21:00","-29.6","","-32.8","","75","","","","11","","5","","24.1","","101.56","","","","-35","","NA"
"-115.78","60.84","HAY RIVER A","2202401","2021-02-12 22:00","2021","02","12","22:00","-29.2","","-32.2","","76","","","","9","","6","","24.1","","101.55","","","","-36","","NA"
"-115.78","60.84","HAY RIVER A","2202401","2021-02-12 23:00","2021","02","12","23:00","-30.2","","-33.3","","75","","","","9","","7","","24.1","","101.57","","","","-38","","Clear"
"-115.78","60.84","HAY RIVER A","2202401","2021-02-13 00:00","2021","02","13","00:00","-28.1","","-31.1","","76","","","","9","","7","","24.1","","101.55","","","","-35","","NA"
"-115.78","60.84","HAY RIVER A","2202401","2021-02-13 01:00","2021","02","13","01:00","-26.5","","-29.5","","77","","","","12","","7","","24.1","","101.55","","","","-33","","NA"
"-115.78","60.84","HAY RIVER A","2202401","2021-02-13 02:00","2021","02","13","02:00","-26.7","","-29.7","","76","","","","11","","8","","24.1","","101.55","","","","-34","","Mainly Clear"
"-115.78","60.84","HAY RIVER A","2202401","2021-02-13 03:00","2021","02","13","03:00","-27.0","","-30.0","","76","","","","12","","8","","24.1","","101.51","","","","-34","","NA"
"-115.78","60.84","HAY RIVER A","2202401","2021-02-13 04:00","2021","02","13","04:00","-26.4","","-29.4","","76","","","","12","","9","","24.1","","101.48","","","","-34","","NA"
"-115.78","60.84","HAY RIVER A","2202401","2021-02-13 05:00","2021","02","13","05:00","-26.4","","-29.5","","76","","","","14","","10","","24.1","","101.44","","","","-35","","Clear"
"-115.78","60.84","HAY RIVER A","2202401","2021-02-13 06:00","2021","02","13","06:00","-26.7","","-29.7","","76","","","","13","","9","","24.1","","101.41","","","","-35","","NA"
"-115.78","60.84","HAY RIVER A","2202401","2021-02-13 07:00","2021","02","13","07:00","-26.1","","-29.1","","76","","","","14","","11","","24.1","","101.39","","","","-35","","NA"
"-115.78","60.84","HAY RIVER A","2202401","2021-02-13 08:00","2021","02","13","08:00","-25.9","","-28.9","","76","","","","14","","13","","24.1","","101.39","","","","-36","","Clear"
"-115.78","60.84","HAY RIVER A","2202401","2021-02-13 09:00","2021","02","13","09:00","-25.3","","-28.4","","76","","","","16","","18","","24.1","","101.38","","","","-37","","NA"
"-115.78","60.84","HAY RIVER A","2202401","2021-02-13 10:00","2021","02","13","10:00","-24.0","","-27.0","","77","","","","16","","15","","24.1","","101.38","","","","-34","","NA"
"-115.78","60.84","HAY RIVER A","2202401","2021-02-13 11:00","2021","02","13","11:00","-21.1","","-23.9","","78","","","","17","","18","","24.1","","101.35","","","","-31","","Clear"
"-115.78","60.84","HAY RIVER A","2202401","2021-02-13 12:00","2021","02","13","12:00","-18.6","","-21.9","","75","","","","18","","20","","24.1","","101.31","","","","-29","","Blowing Snow"
"-115.78","60.84","HAY RIVER A","2202401","2021-02-13 13:00","2021","02","13","13:00","-17.1","","-22.1","","66","","","","19","","19","","24.1","","101.28","","","","-27","","NA"
"-115.78","60.84","HAY RIVER A","2202401","2021-02-13 14:00","2021","02","13","14:00","-16.4","","-21.8","","64","","","","18","","12","","24.1","","101.26","","","","-24","","Clear"
"-115.78","60.84","HAY RIVER A","2202401","2021-02-13 15:00","2021","02","13","15:00","-15.7","","-21.3","","62","","","","18","","16","","24.1","","101.23","","","","-24","","NA"
"-115.78","60.84","HAY RIVER A","2202401","2021-02-13 16:00","2021","02","13","16:00","-15.2","","-21.0","","62","","","","19","","15","","24.1","","101.20","","","","-23","","NA"
"-115.78","60.84","HAY RIVER A","2202401","2021-02-13 17:00","2021","02","13","17:00","-16.2","","-21.3","","65","","","","18","","15","","24.1","","101.17","","","","-24","","Clear"
"-115.78","60.84","HAY RIVER A","2202401","2021-02-13 18:00","2021","02","13","18:00","-17.3","","-21.8","","68","","","","15","","9","","24.1","","101.15","","","","-24","","NA"
"-115.78","60.84","HAY RIVER A","2202401","2021-02-13 19:00","2021","02","13","19:00","-18.0","","-22.1","","71","","","","14","","14","","24.1","","101.10","","","","-26","","NA"
"-115.78","60.84","HAY RIVER A","2202401","2021-02-13 20:00","2021","02","13","20:00","-18.1","","-22.1","","71","","","","14","","14","","24.1","","101.07","","","","-26","","Clear"
"-115.78","60.84","HAY RIVER A","2202401","2021-02-13 21:00","2021","02","13","21:00","-19.6","","-23.3","","73","","","","15","","17","","24.1","","100.99","","","","-29","","NA"
"-115.78","60.84","HAY RIVER A","2202401","2021-02-13 22:00","2021","02","13","22:00","-20.2","","-23.6","","75","","","","15","","14","","24.1","","100.95","","","","-29","","NA"
"-115.78","60.84","HAY RIVER A","2202401","2021-02-13 23:00","2021","02","13","23:00","-21.3","","-24.5","","76","","","","16","","17","","24.1","","100.90","","","","-31","","Clear"
"-115.78","60.84","HAY RIVER A","2202401","2021-02-14 00:00","2021","02","14","00:00","-22.1","","-25.0","","78","","","","16","","15","","24.1","","100.83","","","","-32","","NA"
"-115.78","60.84","HAY RIVER A","2202401","2021-02-14 01:00","2021","02","14","01:00","-22.1","","-25.2","","77","","","","17","","13","","24.1","","100.79","","","","-31","","NA"
"-115.78","60.84","HAY RIVER A","2202401","2021-02-14 02:00","2021","02","14","02:00","-21.2","","-24.6","","75","","","","15","","12","","24.1","","100.76","","","","-29","","Clear"
"-115.78","60.84","HAY RIVER A","2202401","2021-02-14 03:00","2021","02","14","03:00","-20.1","","-23.9","","72","","","","18","","18","","24.1","","100.72","","","","-30","","NA"
"-115.78","60.84","HAY RIVER A","2202401","2021-02-14 04:00","2021","02","14","04:00","-20.0","","-23.9","","71","","","","18","","15","","24.1","","100.68","","","","-29","","NA"
"-115.78","60.84","HAY RIVER A","2202401","2021-02-14 05:00","2021","02","14","05:00","-19.4","","-23.4","","71","","","","19","","19","","24.1","","100.62","","","","-29","","Mainly Clear"
"-115.78","60.84","HAY RIVER A","2202401","2021-02-14 06:00","2021","02","14","06:00","-20.4","","-24.0","","73","","","","16","","14","","24.1","","100.56","","","","-29","","NA"
"-115.78","60.84","HAY RIVER A","2202401","2021-02-14 07:00","2021","02","14","07:00","-22.7","","-25.8","","76","","","","15","","14","","24.1","","100.52","","","","-32","","NA"
"-115.78","60.84","HAY RIVER A","2202401","2021-02-14 08:00","2021","02","14","08:00","-22.6","","-25.9","","75","","","","14","","12","","24.1","","100.47","","","","-31","","Mainly Clear"
"-115.78","60.84","HAY RIVER A","2202401","2021-02-14 09:00","2021","02","14","09:00","-23.0","","-26.3","","75","","","","16","","15","","24.1","","100.42","","","","-33","","NA"
"-115.78","60.84","HAY RIVER A","2202401","2021-02-14 10:00","2021","02","14","10:00","-21.6","","-25.4","","72","","","","17","","15","","24.1","","100.34","","","","-31","","NA"
"-115.78","60.84","HAY RIVER A","2202401","2021-02-14 11:00","2021","02","14","11:00","-18.4","","-23.8","","63","","","","17","","14","","24.1","","100.28","","","","-27","","Clear"
"-115.78","60.84","HAY RIVER A","2202401","2021-02-14 12:00","2021","02","14","12:00","-15.9","","-22.4","","58","","","","18","","18","","24.1","","100.23","","","","-25","","NA"
"-115.78","60.84","HAY RIVER A","2202401","2021-02-14 13:00","2021","02","14","13:00","-14.6","","-21.6","","56","","","","18","","19","","24.1","","100.16","","","","-23","","NA"
"-115.78","60.84","HAY RIVER A","2202401","2021-02-14 14:00","2021","02","14","14:00","-14.9","","-21.1","","60","","","","15","","15","","24.1","","100.05","","","","-23","","Clear"
"-115.78","60.84","HAY RIVER A","2202401","2021-02-14 15:00","2021","02","14","15:00","-14.5","","-21.1","","58","","","","16","","21","","24.1","","99.97","","","","-24","","NA"
"-115.78","60.84","HAY RIVER A","2202401","2021-02-14 16:00","2021","02","14","16:00","-15.0","","-21.3","","59","","","","16","","14","","24.1","","99.90","","","","-23","","NA"
"-115.78","60.84","HAY RIVER A","2202401","2021-02-14 17:00","2021","02","14","17:00","-15.1","","-21.1","","61","","","","13","","9","","24.1","","99.80","","","","-21","","Clear"
"-115.78","60.84","HAY RIVER A","2202401","2021-02-14 18:00","2021","02","14","18:00","-16.3","","-21.2","","67","","","","12","","10","","24.1","","99.71","","","","-23","","NA"
"-115.78","60.84","HAY RIVER A","2202401","2021-02-14 19:00","2021","02","14","19:00","-16.1","","-21.1","","66","","","","13","","12","","24.1","","99.61","","","","-23","","NA"
"-115.78","60.84","HAY RIVER A","2202401","2021-02-14 20:00","2021","02","14","20:00","-16.5","","-22.0","","63","","","","14","","14","","24.1","","99.53","","","","-24","","Clear"
"-115.78","60.84","HAY RIVER A","2202401","2021-02-14 21:00","2021","02","14","21:00","-17.3","","-22.8","","63","","","","16","","12","","24.1","","99.48","","","","-25","","NA"
"-115.78","60.84","HAY RIVER A","2202401","2021-02-14 22:00","2021","02","14","22:00","-19.7","","-23.3","","73","","","","30","","4","","24.1","","99.52","","","","-23","","NA"
"-115.78","60.84","HAY RIVER A","2202401","2021-02-14 23:00","2021","02","14","23:00","-22.5","","-24.8","","82","","","","","","0","","24.1","","99.51","","","","","","Clear"
"-115.78","60.84","HAY RIVER A","2202401","2021-02-15 00:00","2021","02","15","00:00","-24.9","","-27.5","","79","","","","13","","5","","24.1","","99.45","","","","-30","","NA"
"-115.78","60.84","HAY RIVER A","2202401","2021-02-15 01:00","2021","02","15","01:00","-22.0","","-25.1","","76","","","","15","","10","","24.1","","99.41","","","","-30","","NA"
"-115.78","60.84","HAY RIVER A","2202401","2021-02-15 02:00","2021","02","15","02:00","-21.6","","-25.1","","74","","","","15","","16","","24.1","","99.38","","","","-31","","Clear"
"-115.78","60.84","HAY RIVER A","2202401","2021-02-15 03:00","2021","02","15","03:00","-22.2","","-25.8","","73","","","","16","","18","","24.1","","99.31","","","","-33","","NA"
"-115.78","60.84","HAY RIVER A","2202401","2021-02-15 04:00","2021","02","15","04:00","-22.7","","-26.4","","72","","","","17","","19","","24.1","","99.24","","","","-34","","NA"
"-115.78","60.84","HAY RIVER A","2202401","2021-02-15 05:00","2021","02","15","05:00","-23.6","","-27.4","","71","","","","17","","14","","24.1","","99.17","","","","-33","","Mainly Clear"
"-115.78","60.84","HAY RIVER A","2202401","2021-02-15 06:00","2021","02","15","06:00","-23.1","","-26.9","","71","","","","16","","11","","24.1","","99.14","","","","-31","","NA"
"-115.78","60.84","HAY RIVER A","2202401","2021-02-15 07:00","2021","02","15","07:00","-23.6","","-27.4","","72","","","","16","","12","","24.1","","99.08","","","","-32","","NA"
"-115.78","60.84","HAY RIVER A","2202401","2021-02-15 08:00","2021","02","15","08:00","-23.7","","-27.3","","73","","","","15","","11","","24.1","","99.04","","","","-32","","Mainly Clear"
"-115.78","60.84","HAY RIVER A","2202401","2021-02-15 09:00","2021","02","15","09:00","-24.8","","-28.3","","73","","","","18","","10","","24.1","","99.03","","","","-33","","NA"
"-115.78","60.84","HAY RIVER A","2202401","2021-02-15 10:00","2021","02","15","10:00","-22.7","","-26.6","","72","","","","23","","16","","24.1","","99.03","","","","-33","","NA"
"-115.78","60.84","HAY RIVER A","2202401","2021-02-15 11:00","2021","02","15","11:00","-19.9","","-24.4","","68","","","","23","","14","","24.1","","99.03","","","","-29","","Mainly Clear"
"-115.78","60.84","HAY RIVER A","2202401","2021-02-15 12:00","2021","02","15","12:00","-18.1","","-23.4","","64","","","","30","","14","","24.1","","99.07","","","","-26","","NA"
"-115.78","60.84","HAY RIVER A","2202401","2021-02-15 13:00","2021","02","15","13:00","-20.0","","-24.1","","70","","","","32","","10","","24.1","","99.04","","","","-27","","NA"
"-115.78","60.84","HAY RIVER A","2202401","2021-02-15 14:00","2021","02","15","14:00","-19.4","","-24.0","","67","","","","33","","11","","24.1","","99.03","","","","-27","","Mostly Cloudy"
"-115.78","60.84","HAY RIVER A","2202401","2021-02-15 15:00","2021","02","15","15:00","-19.0","","-23.6","","68","","","","33","","12","","24.1","","99.04","","","","-27","","NA"
"-115.78","60.84","HAY RIVER A","2202401","2021-02-15 16:00","2021","02","15","16:00","-19.8","","-23.9","","70","","","","32","","8","","24.1","","99.08","","","","-26","","NA"
"-115.78","60.84","HAY RIVER A","2202401","2021-02-15 17:00","2021","02","15","17:00","-21.2","","-24.8","","73","","","","30","","7","","24.1","","99.11","","","","-27","","Mostly Cloudy"
"-115.78","60.84","HAY RIVER A","2202401","2021-02-15 18:00","2021","02","15","18:00","-20.8","","-24.2","","74","","","","28","","5","","24.1","","99.14","","","","-25","","NA"
"-115.78","60.84","HAY RIVER A","2202401","2021-02-15 19:00","2021","02","15","19:00","-22.4","","-25.1","","79","","","","36","","1","","24.1","","99.15","","","","-23","","NA"
"-115.78","60.84","HAY RIVER A","2202401","2021-02-15 20:00","2021","02","15","20:00","-22.0","","-24.9","","78","","","","31","","3","","24.1","","99.15","","","","-25","","Mostly Cloudy"
"-115.78","60.84","HAY RIVER A","2202401","2021-02-15 21:00","2021","02","15","21:00","-20.4","","-23.7","","75","","","","31","","9","","24.1","","99.16","","","","-27","","NA"
"-115.78","60.84","HAY RIVER A","2202401","2021-02-15 22:00","2021","02","15","22:00","-21.7","","-24.7","","77","","","","3","","4","","24.1","","99.21","","","","-25","","NA"
"-115.78","60.84","HAY RIVER A","2202401","2021-02-15 23:00","2021","02","15","23:00","-24.5","","-27.3","","79","","","","33","","6","","24.1","","99.24","","","","-30","","Mostly Cloudy"
"-115.78","60.84","HAY RIVER A","2202401","2021-02-16 00:00","2021","02","16","00:00","-25.2","","-27.9","","79","","","","36","","7","","24.1","","99.28","","","","-32","","NA"
"-115.78","60.84","HAY RIVER A","2202401","2021-02-16 01:00","2021","02","16","01:00","-26.6","","-29.4","","78","","","","32","","7","","24.1","","99.30","","","","-33","","NA"
"-115.78","60.84","HAY RIVER A","2202401","2021-02-16 02:00","2021","02","16","02:00","-28.5","","-31.4","","77","","","","36","","1","","24.1","","99.33","","","","-30","","Mostly Cloudy"
"-115.78","60.84","HAY RIVER A","2202401","2021-02-16 03:00","2021","02","16","03:00","-30.0","","-33.3","","74","","","","36","","2","","24.1","","99.37","","","","-32","","NA"
"-115.78","60.84","HAY RIVER A","2202401","2021-02-16 04:00","2021","02","16","04:00","-30.1","","-33.2","","75","","","","36","","2","","24.1","","99.37","","","","-32","","NA"
"-115.78","60.84","HAY RIVER A","2202401","2021-02-16 05:00","2021","02","16","05:00","-31.4","","-34.8","","73","","","","14","","3","","24.1","","99.37","","","","-35","","Mainly Clear"
"-115.78","60.84","HAY RIVER A","2202401","2021-02-16 06:00","2021","02","16","06:00","-29.9","","-33.0","","75","","","","36","","2","","24.1","","99.40","","","","-32","","Snow"
"-115.78","60.84","HAY RIVER A","2202401","2021-02-16 07:00","2021","02","16","07:00","-28.7","","-31.9","","74","","","","36","","1","","24.1","","99.40","","","","-30","","Snow"
"-115.78","60.84","HAY RIVER A","2202401","2021-02-16 08:00","2021","02","16","08:00","-27.8","","-30.7","","76","","","","24","","4","","24.1","","99.44","","","","-32","","Snow"
"-115.78","60.84","HAY RIVER A","2202401","2021-02-16 09:00","2021","02","16","09:00","-27.0","","-30.0","","76","","","","36","","3","","24.1","","99.44","","","","-30","","Snow"
"-115.78","60.84","HAY RIVER A","2202401","2021-02-16 10:00","2021","02","16","10:00","-25.9","","-28.9","","76","","","","36","","1","","16.1","","99.46","","","","-27","","Snow"
"-115.78","60.84","HAY RIVER A","2202401","2021-02-16 11:00","2021","02","16","11:00","-24.8","","-27.8","","76","","","","36","","3","","24.1","","99.51","","","","-28","","Snow"
"-115.78","60.84","HAY RIVER A","2202401","2021-02-16 12:00","2021","02","16","12:00"
"-115.78","60.84","HAY RIVER A","2202401","2021-02-16 13:00","2021","02","16","13:00","-24.3","","-27.5","","75","","","","33","","10","","24.1","","99.55","","","","-32","","NA"
"-115.78","60.84","HAY RIVER A","2202401","2021-02-16 14:00","2021","02","16","14:00","-24.2","","-27.6","","74","","","","33","","12","","24.1","","99.54","","","","-33","","Mostly Cloudy"
"-115.78","60.84","HAY RIVER A","2202401","2021-02-16 15:00","2021","02","16","15:00","-24.2","","-27.5","","74","","","","32","","9","","24.1","","99.58","","","","-32","","NA"
"-115.78","60.84","HAY RIVER A","2202401","2021-02-16 16:00","2021","02","16","16:00","-24.5","","-27.9","","74","","","","32","","7","","24.1","","99.62","","","","-31","","NA"
"-115.78","60.84","HAY RIVER A","2202401","2021-02-16 17:00","2021","02","16","17:00","-24.3","","-27.7","","74","","","","32","","7","","24.1","","99.66","","","","-31","","Mostly Cloudy"
"-115.78","60.84","HAY RIVER A","2202401","2021-02-16 18:00","2021","02","16","18:00","-26.0","","-29.2","","75","","","","32","","4","","24.1","","99.69","","","","-30","","NA"
"-115.78","60.84","HAY RIVER A","2202401","2021-02-16 19:00","2021","02","16","19:00","-27.6","","-30.5","","76","","","","36","","2","","24.1","","99.73","","","","-30","","NA"
"-115.78","60.84","HAY RIVER A","2202401","2021-02-16 20:00","2021","02","16","20:00","-29.3","","-32.5","","75","","","","36","","2","","24.1","","99.76","","","","-32","","Mainly Clear"
"-115.78","60.84","HAY RIVER A","2202401","2021-02-16 21:00","2021","02","16","21:00","-30.8","","-34.1","","73","","","","36","","1","","24.1","","99.82","","","","-32","","NA"
"-115.78","60.84","HAY RIVER A","2202401","2021-02-16 22:00","2021","02","16","22:00","-31.3","","-34.6","","73","","","","26","","3","","24.1","","99.87","","","","-35","","NA"
"-115.78","60.84","HAY RIVER A","2202401","2021-02-16 23:00","2021","02","16","23:00","-32.7","","-36.2","","72","","","","22","","4","","24.1","","99.92","","","","-37","","Mainly Clear"
"-115.78","60.84","HAY RIVER A","2202401","2021-02-17 00:00","2021","02","17","00:00","-31.2","","-34.2","","75","","","","23","","5","","24.1","","99.97","","","","-37","","NA"
"-115.78","60.84","HAY RIVER A","2202401","2021-02-17 01:00","2021","02","17","01:00","-29.4","","-32.4","","75","","","","26","","7","","24.1","","100.02","","","","-37","","Snow"
"-115.78","60.84","HAY RIVER A","2202401","2021-02-17 02:00","2021","02","17","02:00","-28.3","","-31.3","","76","","","","24","","4","","24.1","","100.08","","","","-33","","Snow"
"-115.78","60.84","HAY RIVER A","2202401","2021-02-17 03:00","2021","02","17","03:00","-26.6","","-29.6","","77","","","","23","","4","","24.1","","100.13","","","","-31","","Snow"
"-115.78","60.84","HAY RIVER A","2202401","2021-02-17 04:00","2021","02","17","04:00","-26.7","","-29.7","","76","","","","25","","3","","24.1","","100.15","","","","-30","","Snow"
"-115.78","60.84","HAY RIVER A","2202401","2021-02-17 05:00","2021","02","17","05:00","-28.0","","-31.2","","74","","","","24","","3","","24.1","","100.21","","","","-31","","Snow"
"-115.78","60.84","HAY RIVER A","2202401","2021-02-17 06:00","2021","02","17","06:00","-27.6","","-30.7","","75","","","","36","","2","","24.1","","100.27","","","","-30","","NA"
"-115.78","60.84","HAY RIVER A","2202401","2021-02-17 07:00","2021","02","17","07:00","-25.8","","-28.7","","77","","","","27","","5","","24.1","","100.30","","","","-31","","Snow"
"-115.78","60.84","HAY RIVER A","2202401","2021-02-17 08:00","2021","02","17","08:00","-25.0","","-27.8","","78","","","","23","","12","","24.1","","100.32","","","","-34","","Snow"
"-115.78","60.84","HAY RIVER A","2202401","2021-02-17 09:00","2021","02","17","09:00"
"-115.78","60.84","HAY RIVER A","2202401","2021-02-17 10:00","2021","02","17","10:00","-22.9","","-25.5","","80","","","","26","","12","","24.1","","100.40","","","","-32","","Snow"
"-115.78","60.84","HAY RIVER A","2202401","2021-02-17 11:00","2021","02","17","11:00","-22.9","","-25.5","","80","","","","21","","10","","24.1","","100.34","","","","-31","","Mostly Cloudy"
"-115.78","60.84","HAY RIVER A","2202401","2021-02-17 12:00","2021","02","17","12:00","-22.1","","-24.9","","78","","","","15","","8","","24.1","","100.41","","","","-29","","NA"
"-115.78","60.84","HAY RIVER A","2202401","2021-02-17 13:00","2021","02","17","13:00","-21.0","","-24.1","","77","","","","16","","10","","24.1","","100.42","","","","-28","","NA"
"-115.78","60.84","HAY RIVER A","2202401","2021-02-17 14:00","2021","02","17","14:00","-20.0","","-24.0","","71","","","","17","","18","","24.1","","100.31","","","","-30","","Mainly Clear"
"-115.78","60.84","HAY RIVER A","2202401","2021-02-17 15:00","2021","02","17","15:00","-19.8","","-24.5","","67","","","","20","","13","","24.1","","100.36","","","","-28","","NA"
"-115.78","60.84","HAY RIVER A","2202401","2021-02-17 16:00","2021","02","17","16:00","-19.6","","-24.4","","67","","","","18","","17","","24.1","","100.31","","","","-29","","NA"
"-115.78","60.84","HAY RIVER A","2202401","2021-02-17 17:00","2021","02","17","17:00","-20.4","","-24.9","","68","","","","17","","19","","24.1","","100.23","","","","-31","","Mainly Clear"
"-115.78","60.84","HAY RIVER A","2202401","2021-02-17 18:00","2021","02","17","18:00","-21.8","","-25.5","","72","","","","17","","18","","24.1","","100.17","","","","-32","","NA"
"-115.78","60.84","HAY RIVER A","2202401","2021-02-17 19:00","2021","02","17","19:00","-22.8","","-26.2","","74","","","","16","","16","","24.1","","100.11","","","","-33","","NA"
"-115.78","60.84","HAY RIVER A","2202401","2021-02-17 20:00","2021","02","17","20:00","-22.4","","-25.6","","75","","","","16","","16","","24.1","","99.99","","","","-32","","Mainly Clear"
"-115.78","60.84","HAY RIVER A","2202401","2021-02-17 21:00","2021","02","17","21:00","-19.8","","-23.5","","73","","","","18","","22","","24.1","","99.85","","","","-31","","NA"
"-115.78","60.84","HAY RIVER A","2202401","2021-02-17 22:00","2021","02","17","22:00","-18.9","","-22.8","","72","","","","18","","22","","24.1","","99.78","","","","-30","","NA"
"-115.78","60.84","HAY RIVER A","2202401","2021-02-17 23:00","2021","02","17","23:00","-19.1","","-23.2","","71","","","","18","","16","","24.1","","99.73","","","","-28","","Mainly Clear"
"-115.78","60.84","HAY RIVER A","2202401","2021-02-18 00:00","2021","02","18","00:00","-18.6","","-22.5","","72","","","","19","","15","","24.1","","99.66","","","","-27","","NA"
"-115.78","60.84","HAY RIVER A","2202401","2021-02-18 01:00","2021","02","18","01:00","-17.0","","-21.2","","70","","","","19","","17","","24.1","","99.60","","","","-26","","NA"
"-115.78","60.84","HAY RIVER A","2202401","2021-02-18 02:00","2021","02","18","02:00","-16.1","","-20.6","","69","","","","19","","20","","24.1","","99.52","","","","-26","","Mainly Clear"
"-115.78","60.84","HAY RIVER A","2202401","2021-02-18 03:00","2021","02","18","03:00","-16.8","","-21.1","","70","","","","18","","18","","24.1","","99.41","","","","-26","","NA"
"-115.78","60.84","HAY RIVER A","2202401","2021-02-18 04:00","2021","02","18","04:00","-16.5","","-20.7","","70","","","","18","","15","","24.1","","99.33","","","","-25","","NA"
"-115.78","60.84","HAY RIVER A","2202401","2021-02-18 05:00","2021","02","18","05:00","-17.0","","-20.8","","73","","","","18","","13","","24.1","","99.22","","","","-25","","Clear"
"-115.78","60.84","HAY RIVER A","2202401","2021-02-18 06:00","2021","02","18","06:00","-16.6","","-20.5","","73","","","","19","","11","","24.1","","99.17","","","","-24","","NA"
"-115.78","60.84","HAY RIVER A","2202401","2021-02-18 07:00","2021","02","18","07:00","-16.3","","-20.1","","73","","","","18","","13","","24.1","","99.07","","","","-24","","NA"
"-115.78","60.84","HAY RIVER A","2202401","2021-02-18 08:00","2021","02","18","08:00","-14.8","","-19.1","","70","","","","19","","15","","24.1","","98.96","","","","-23","","Mostly Cloudy"
"-115.78","60.84","HAY RIVER A","2202401","2021-02-18 09:00","2021","02","18","09:00","-13.6","","-18.2","","69","","","","19","","12","","24.1","","98.88","","","","-20","","NA"
"-115.78","60.84","HAY RIVER A","2202401","2021-02-18 10:00","2021","02","18","10:00","-12.6","","-17.6","","66","","","","19","","14","","24.1","","98.78","","","","-20","","NA"
"-115.78","60.84","HAY RIVER A","2202401","2021-02-18 11:00","2021","02","18","11:00","-10.8","","-16.4","","63","","","","19","","17","","24.1","","98.72","","","","-18","","Mainly Clear"
"-115.78","60.84","HAY RIVER A","2202401","2021-02-18 12:00","2021","02","18","12:00","-9.0","","-15.3","","60","","","","18","","15","","24.1","","98.65","","","","-16","","NA"
"-115.78","60.84","HAY RIVER A","2202401","2021-02-18 13:00","2021","02","18","13:00","-7.3","","-13.8","","60","","","","18","","12","","24.1","","98.57","","","","-13","","NA"
"-115.78","60.84","HAY RIVER A","2202401","2021-02-18 14:00","2021","02","18","14:00","-6.5","","-13.4","","58","","","","17","","12","","24.1","","98.49","","","","-12","","Mainly Clear"
"-115.78","60.84","HAY RIVER A","2202401","2021-02-18 15:00","2021","02","18","15:00","-7.2","","-13.7","","60","","","","17","","14","","24.1","","98.43","","","","-13","","NA"
"-115.78","60.84","HAY RIVER A","2202401","2021-02-18 16:00","2021","02","18","16:00","-7.3","","-13.6","","61","","","","16","","6","","24.1","","98.36","","","","-10","","NA"
"-115.78","60.84","HAY RIVER A","2202401","2021-02-18 17:00","2021","02","18","17:00","-9.4","","-14.9","","65","","","","17","","8","","24.1","","98.29","","","","-14","","Mostly Cloudy"
"-115.78","60.84","HAY RIVER A","2202401","2021-02-18 18:00","2021","02","18","18:00","-8.8","","-13.5","","69","","","","15","","3","","24.1","","98.24","","","","-10","","NA"
"-115.78","60.84","HAY RIVER A","2202401","2021-02-18 19:00","2021","02","18","19:00","-11.4","","-14.9","","76","","","","13","","8","","24.1","","98.13","","","","-16","","NA"
"-115.78","60.84","HAY RIVER A","2202401","2021-02-18 20:00","2021","02","18","20:00","-11.0","","-14.2","","77","","","","15","","8","","24.1","","98.04","","","","-16","","Mainly Clear"
"-115.78","60.84","HAY RIVER A","2202401","2021-02-18 21:00","2021","02","18","21:00","-12.5","","-15.6","","78","","","","13","","6","","24.1","","97.94","","","","-16","","NA"
"-115.78","60.84","HAY RIVER A","2202401","2021-02-18 22:00","2021","02","18","22:00","-12.2","","-14.6","","82","","","","13","","8","","24.1","","97.86","","","","-17","","NA"
"-115.78","60.84","HAY RIVER A","2202401","2021-02-18 23:00","2021","02","18","23:00","-12.3","","-15.1","","80","","","","12","","7","","24.1","","97.75","","","","-17","","Mostly Cloudy"
"-115.78","60.84","HAY RIVER A","2202401","2021-02-19 00:00","2021","02","19","00:00","-12.6","","-15.4","","80","","","","12","","7","","24.1","","97.67","","","","-17","","NA"
"-115.78","60.84","HAY RIVER A","2202401","2021-02-19 01:00","2021","02","19","01:00","-11.6","","-14.6","","79","","","","12","","8","","24.1","","97.56","","","","-16","","NA"
"-115.78","60.84","HAY RIVER A","2202401","2021-02-19 02:00","2021","02","19","02:00","-10.6","","-13.8","","78","","","","14","","8","","24.1","","97.51","","","","-15","","Mostly Cloudy"
"-115.78","60.84","HAY RIVER A","2202401","2021-02-19 03:00","2021","02","19","03:00","-9.8","","-13.3","","76","","","","15","","12","","24.1","","97.41","","","","-16","","NA"
"-115.78","60.84","HAY RIVER A","2202401","2021-02-19 04:00","2021","02","19","04:00","-10.0","","-13.5","","76","","","","17","","16","","24.1","","97.32","","","","-17","","NA"
"-115.78","60.84","HAY RIVER A","2202401","2021-02-19 05:00","2021","02","19","05:00","-10.5","","-14.0","","76","","","","17","","15","","24.1","","97.25","","","","-17","","Mostly Cloudy"
"-115.78","60.84","HAY RIVER A","2202401","2021-02-19 06:00","2021","02","19","06:00","-9.6","","-13.4","","74","","","","19","","16","","24.1","","97.17","","","","-16","","NA"
"-115.78","60.84","HAY RIVER A","2202401","2021-02-19 07:00","2021","02","19","07:00","-11.1","","-14.4","","77","","","","19","","11","","24.1","","97.12","","","","-17","","NA"
"-115.78","60.84","HAY RIVER A","2202401","2021-02-19 08:00","2021","02","19","08:00","-12.8","","-15.6","","80","","","","18","","10","","24.1","","97.09","","","","-19","","Mainly Clear"
"-115.78","60.84","HAY RIVER A","2202401","2021-02-19 09:00","2021","02","19","09:00","-12.5","","-15.4","","79","","","","18","","10","","24.1","","97.07","","","","-18","","NA"
"-115.78","60.84","HAY RIVER A","2202401","2021-02-19 10:00","2021","02","19","10:00","-8.7","","-12.9","","72","","","","21","","12","","24.1","","97.04","","","","-14","","NA"
"-115.78","60.84","HAY RIVER A","2202401","2021-02-19 11:00","2021","02","19","11:00","-7.0","","-12.0","","68","","","","20","","12","","24.1","","97.03","","","","-12","","Mainly Clear"
"-115.78","60.84","HAY RIVER A","2202401","2021-02-19 12:00","2021","02","19","12:00","-4.5","","-10.9","","61","","","","19","","14","","24.1","","96.98","","","","-10","","NA"
"-115.78","60.84","HAY RIVER A","2202401","2021-02-19 13:00","2021","02","19","13:00","-2.4","","-10.1","","56","","","","21","","10","","24.1","","96.96","","","","-6","","NA"
"-115.78","60.84","HAY RIVER A","2202401","2021-02-19 14:00","2021","02","19","14:00","0.1","","-8.9","","51","","","","23","","18","","24.1","","96.94","","","","","","Mainly Clear"
"-115.78","60.84","HAY RIVER A","2202401","2021-02-19 15:00","2021","02","19","15:00","0.8","","-8.4","","50","","","","22","","12","","24.1","","96.93","","","","","","NA"
"-115.78","60.84","HAY RIVER A","2202401","2021-02-19 16:00","2021","02","19","16:00","-0.3","","-8.2","","55","","","","20","","11","","24.1","","96.95","","","","-4","","NA"
"-115.78","60.84","HAY RIVER A","2202401","2021-02-19 17:00","2021","02","19","17:00","-1.9","","-8.0","","63","","","","36","","9","","24.1","","97.00","","","","-5","","Mainly Clear"
"-115.78","60.84","HAY RIVER A","2202401","2021-02-19 18:00","2021","02","19","18:00","-4.9","","-10.1","","67","","","","3","","7","","24.1","","97.04","","","","-8","","NA"
"-115.78","60.84","HAY RIVER A","2202401","2021-02-19 19:00","2021","02","19","19:00","-7.6","","-11.5","","73","","","","5","","3","","24.1","","97.06","","","","-9","","NA"
"-115.78","60.84","HAY RIVER A","2202401","2021-02-19 20:00","2021","02","19","20:00","-7.3","","-11.1","","74","","","","36","","5","","24.1","","97.10","","","","-10","","Mostly Cloudy"
"-115.78","60.84","HAY RIVER A","2202401","2021-02-19 21:00","2021","02","19","21:00","-9.7","","-13.3","","75","","","","36","","7","","24.1","","97.17","","","","-14","","NA"
"-115.78","60.84","HAY RIVER A","2202401","2021-02-19 22:00","2021","02","19","22:00","-11.8","","-14.7","","80","","","","36","","4","","24.1","","97.25","","","","-14","","NA"
"-115.78","60.84","HAY RIVER A","2202401","2021-02-19 23:00","2021","02","19","23:00","-14.8","","-17.2","","82","","","","33","","12","","24.1","","97.32","","","","-22","","Mainly Clear"
"-115.78","60.84","HAY RIVER A","2202401","2021-02-20 00:00","2021","02","20","00:00","-16.4","","-18.6","","83","","","","33","","11","","24.1","","97.43","","","","-23","","NA"
"-115.78","60.84","HAY RIVER A","2202401","2021-02-20 01:00","2021","02","20","01:00","-17.8","","-20.1","","82","","","","32","","15","","24.1","","97.47","","","","-26","","NA"
"-115.78","60.84","HAY RIVER A","2202401","2021-02-20 02:00","2021","02","20","02:00","-18.7","","-21.2","","81","","","","31","","17","","24.1","","97.52","","","","-28","","Mainly Clear"
"-115.78","60.84","HAY RIVER A","2202401","2021-02-20 03:00","2021","02","20","03:00","-19.4","","-22.5","","77","","","","32","","20","","24.1","","97.55","","","","-30","","NA"
"-115.78","60.84","HAY RIVER A","2202401","2021-02-20 04:00","2021","02","20","04:00","-18.0","","-20.9","","78","","","","33","","18","","24.1","","97.56","","","","-27","","NA"
"-115.78","60.84","HAY RIVER A","2202401","2021-02-20 05:00","2021","02","20","05:00","-18.0","","-20.6","","80","","","","33","","12","","24.1","","97.60","","","","-26","","Mostly Cloudy"
"-115.78","60.84","HAY RIVER A","2202401","2021-02-20 06:00","2021","02","20","06:00","-18.3","","-20.7","","82","","","","33","","14","","24.1","","97.61","","","","-27","","NA"
"-115.78","60.84","HAY RIVER A","2202401","2021-02-20 07:00","2021","02","20","07:00","-18.3","","-20.7","","82","","","","32","","16","","24.1","","97.66","","","","-27","","NA"
"-115.78","60.84","HAY RIVER A","2202401","2021-02-20 08:00","2021","02","20","08:00","-18.2","","-19.5","","90","","","","32","","12","","9.7","","97.65","","","","-26","","Fog"
"-115.78","60.84","HAY RIVER A","2202401","2021-02-20 09:00","2021","02","20","09:00","-18.1","","-19.7","","87","","","","30","","15","","1.2","","97.69","","","","-27","","Fog"
"-115.78","60.84","HAY RIVER A","2202401","2021-02-20 10:00","2021","02","20","10:00","-18.1","","-20.0","","85","","","","32","","13","","1.0","","97.71","","","","-26","","Fog"
"-115.78","60.84","HAY RIVER A","2202401","2021-02-20 11:00","2021","02","20","11:00","-18.5","","-20.8","","83","","","","33","","17","","1.0","","97.77","","","","-28","","Snow,Fog"
"-115.78","60.84","HAY RIVER A","2202401","2021-02-20 12:00","2021","02","20","12:00","-19.0","","-21.4","","82","","","","32","","14","","9.7","","97.79","","","","-28","","Snow"
"-115.78","60.84","HAY RIVER A","2202401","2021-02-20 13:00","2021","02","20","13:00","-19.2","","-21.6","","82","","","","32","","19","","16.1","","97.82","","","","-29","","Snow"
"-115.78","60.84","HAY RIVER A","2202401","2021-02-20 14:00","2021","02","20","14:00","-18.9","","-21.3","","82","","","","33","","15","","24.1","","97.84","","","","-28","","Snow"
"-115.78","60.84","HAY RIVER A","2202401","2021-02-20 15:00","2021","02","20","15:00","-18.2","","-20.7","","81","","","","32","","10","","24.1","","97.85","","","","-25","","NA"
"-115.78","60.84","HAY RIVER A","2202401","2021-02-20 16:00","2021","02","20","16:00","-19.2","","-22.0","","79","","","","32","","10","","24.1","","97.86","","","","-26","","NA"
"-115.78","60.84","HAY RIVER A","2202401","2021-02-20 17:00","2021","02","20","17:00","-19.6","","-22.4","","79","","","","36","","5","","24.1","","97.86","","","","-24","","Mostly Cloudy"
"-115.78","60.84","HAY RIVER A","2202401","2021-02-20 18:00","2021","02","20","18:00","-20.0","","-22.8","","79","","","","7","","4","","24.1","","97.86","","","","-23","","NA"
"-115.78","60.84","HAY RIVER A","2202401","2021-02-20 19:00","2021","02","20","19:00","-19.8","","-22.7","","78","","","","8","","4","","19.3","","97.83","","","","-23","","Snow"
"-115.78","60.84","HAY RIVER A","2202401","2021-02-20 20:00","2021","02","20","20:00","-19.6","","-22.6","","78","","","","31","","3","","20.9","","97.79","","","","-22","","Snow"
"-115.78","60.84","HAY RIVER A","2202401","2021-02-20 21:00","2021","02","20","21:00","-19.5","","-22.4","","78","","","","36","","3","","24.1","","97.77","","","","-22","","Snow"
"-115.78","60.84","HAY RIVER A","2202401","2021-02-20 22:00","2021","02","20","22:00","-20.5","","-23.3","","79","","","","4","","5","","24.1","","97.70","","","","-25","","NA"
"-115.78","60.84","HAY RIVER A","2202401","2021-02-20 23:00","2021","02","20","23:00","-21.8","","-24.2","","81","","","","8","","4","","24.1","","97.69","","","","-25","","Mostly Cloudy"
"-115.78","60.84","HAY RIVER A","2202401","2021-02-21 00:00","2021","02","21","00:00","-23.0","","-25.5","","81","","","","36","","2","","24.1","","97.70","","","","-25","","NA"
"-115.78","60.84","HAY RIVER A","2202401","2021-02-21 01:00","2021","02","21","01:00","-21.9","","-24.5","","80","","","","36","","2","","24.1","","97.64","","","","-24","","NA"
"-115.78","60.84","HAY RIVER A","2202401","2021-02-21 02:00","2021","02","21","02:00","-21.0","","-23.8","","79","","","","6","","5","","24.1","","97.56","","","","-25","","Mostly Cloudy"
"-115.78","60.84","HAY RIVER A","2202401","2021-02-21 03:00","2021","02","21","03:00","-20.7","","-24.0","","76","","","","7","","7","","24.1","","97.53","","","","-26","","NA"
"-115.78","60.84","HAY RIVER A","2202401","2021-02-21 04:00","2021","02","21","04:00","-20.7","","-24.1","","75","","","","5","","10","","24.1","","97.43","","","","-28","","NA"
"-115.78","60.84","HAY RIVER A","2202401","2021-02-21 05:00","2021","02","21","05:00","-20.9","","-24.4","","74","","","","5","","8","","24.1","","97.37","","","","-27","","Mostly Cloudy"
"-115.78","60.84","HAY RIVER A","2202401","2021-02-21 06:00","2021","02","21","06:00","-21.1","","-24.6","","74","","","","6","","5","","24.1","","97.34","","","","-26","","Snow"
"-115.78","60.84","HAY RIVER A","2202401","2021-02-21 07:00","2021","02","21","07:00","-21.1","","-24.6","","74","","","","5","","9","","24.1","","97.23","","","","-28","","Snow"
"-115.78","60.84","HAY RIVER A","2202401","2021-02-21 08:00","2021","02","21","08:00","-21.4","","-24.7","","75","","","","6","","8","","24.1","","97.15","","","","-28","","Mostly Cloudy"
"-115.78","60.84","HAY RIVER A","2202401","2021-02-21 09:00","2021","02","21","09:00","-21.2","","-24.6","","74","","","","5","","10","","24.1","","97.09","","","","-29","","NA"
"-115.78","60.84","HAY RIVER A","2202401","2021-02-21 10:00","2021","02","21","10:00","-21.4","","-24.7","","75","","","","6","","10","","3.2","","97.06","","","","-29","","Snow"
"-115.78","60.84","HAY RIVER A","2202401","2021-02-21 11:00","2021","02","21","11:00","-21.7","","-25.0","","75","","","","5","","12","","2.0","","97.00","","","","-30","","Snow"
"-115.78","60.84","HAY RIVER A","2202401","2021-02-21 12:00","2021","02","21","12:00","-21.6","","-25.0","","74","","","","6","","17","","3.2","","96.90","","","","-32","","Snow"
"-115.78","60.84","HAY RIVER A","2202401","2021-02-21 13:00","2021","02","21","13:00","-21.0","","-24.5","","74","","","","5","","17","","2.8","","96.82","","","","-31","","Snow"
"-115.78","60.84","HAY RIVER A","2202401","2021-02-21 14:00","2021","02","21","14:00","-20.9","","-24.4","","74","","","","7","","17","","3.2","","96.84","","","","-31","","Snow"
"-115.78","60.84","HAY RIVER A","2202401","2021-02-21 15:00","2021","02","21","15:00","-21.1","","-24.6","","74","","","","6","","16","","4.0","","96.85","","","","-31","","Snow"
"-115.78","60.84","HAY RIVER A","2202401","2021-02-21 16:00","2021","02","21","16:00","-21.3","","-24.9","","73","","","","3","","16","","3.2","","96.89","","","","-31","","Snow"
"-115.78","60.84","HAY RIVER A","2202401","2021-02-21 17:00","2021","02","21","17:00","-21.9","","-25.3","","74","","","","2","","11","","12.9","","96.97","","","","-30","","Snow"
"-115.78","60.84","HAY RIVER A","2202401","2021-02-21 18:00","2021","02","21","18:00","-21.9","","-25.5","","73","","","","35","","9","","24.1","","97.07","","","","-29","","Snow"
"-115.78","60.84","HAY RIVER A","2202401","2021-02-21 19:00","2021","02","21","19:00","-21.3","","-24.7","","75","","","","35","","11","","19.3","","97.17","","","","-29","","Snow"
"-115.78","60.84","HAY RIVER A","2202401","2021-02-21 20:00","2021","02","21","20:00","-21.7","","-24.6","","78","","","","33","","14","","2.0","","97.19","","","","-31","","Snow"
"-115.78","60.84","HAY RIVER A","2202401","2021-02-21 21:00","2021","02","21","21:00","-21.7","","-24.7","","77","","","","33","","19","","3.2","","97.26","","","","-32","","Snow"
"-115.78","60.84","HAY RIVER A","2202401","2021-02-21 22:00","2021","02","21","22:00","-21.8","","-25.2","","75","","","","33","","21","","16.1","","97.36","","","","-33","","Snow"
"-115.78","60.84","HAY RIVER A","2202401","2021-02-21 23:00","2021","02","21","23:00","-21.9","","-25.1","","76","","","","32","","16","","19.3","","97.45","","","","-32","","Snow,Blowing Snow"
"-115.78","60.84","HAY RIVER A","2202401","2021-02-22 00:00","2021","02","22","00:00","-22.1","","-25.2","","76","","","","32","","15","","19.3","","97.53","","","","-32","","Snow,Blowing Snow"
"-115.78","60.84","HAY RIVER A","2202401","2021-02-22 01:00","2021","02","22","01:00","-21.9","","-25.3","","75","","","","31","","17","","22.5","","97.66","","","","-32","","Snow,Blowing Snow"
"-115.78","60.84","HAY RIVER A","2202401","2021-02-22 02:00","2021","02","22","02:00","-21.8","","-25.3","","74","","","","30","","14","","22.5","","97.76","","","","-31","","Snow,Blowing Snow"
"-115.78","60.84","HAY RIVER A","2202401","2021-02-22 03:00","2021","02","22","03:00","-21.9","","-25.2","","75","","","","29","","17","","24.1","","97.87","","","","-32","","Blowing Snow"
"-115.78","60.84","HAY RIVER A","2202401","2021-02-22 04:00","2021","02","22","04:00","-22.2","","-26.0","","72","","","","31","","21","","24.1","","97.94","","","","-34","","Blowing Snow"
"-115.78","60.84","HAY RIVER A","2202401","2021-02-22 05:00","2021","02","22","05:00","-22.5","","-26.3","","72","","","","31","","18","","24.1","","98.05","","","","-33","","Mostly Cloudy"
"-115.78","60.84","HAY RIVER A","2202401","2021-02-22 06:00","2021","02","22","06:00","-22.6","","-26.3","","72","","","","29","","17","","24.1","","98.16","","","","-33","","NA"
"-115.78","60.84","HAY RIVER A","2202401","2021-02-22 07:00","2021","02","22","07:00","-22.7","","-26.4","","72","","","","31","","15","","24.1","","98.20","","","","-32","","Snow"
"-115.78","60.84","HAY RIVER A","2202401","2021-02-22 08:00","2021","02","22","08:00","-22.5","","-26.1","","73","","","","29","","9","","24.1","","98.22","","","","-30","","Mostly Cloudy"
"-115.78","60.84","HAY RIVER A","2202401","2021-02-22 09:00","2021","02","22","09:00","-23.6","","-26.8","","75","","","","26","","7","","24.1","","98.28","","","","-30","","NA"
"-115.78","60.84","HAY RIVER A","2202401","2021-02-22 10:00","2021","02","22","10:00","-22.5","","-26.7","","69","","","","23","","9","","24.1","","98.33","","","","-30","","NA"
"-115.78","60.84","HAY RIVER A","2202401","2021-02-22 11:00","2021","02","22","11:00","-21.6","","-26.4","","66","","","","21","","4","","24.1","","98.32","","","","-25","","Mostly Cloudy"
"-115.78","60.84","HAY RIVER A","2202401","2021-02-22 12:00","2021","02","22","12:00","-22.0","","-27.2","","63","","","","31","","5","","24.1","","98.35","","","","-27","","NA"
"-115.78","60.84","HAY RIVER A","2202401","2021-02-22 13:00","2021","02","22","13:00","-21.4","","-26.6","","63","","","","2","","3","","24.1","","98.37","","","","-24","","NA"
"-115.78","60.84","HAY RIVER A","2202401","2021-02-22 14:00","2021","02","22","14:00","-21.3","","-26.4","","65","","","","8","","12","","24.1","","98.39","","","","-30","","Mainly Clear"
"-115.78","60.84","HAY RIVER A","2202401","2021-02-22 15:00","2021","02","22","15:00","-22.2","","-26.7","","67","","","","7","","14","","24.1","","98.39","","","","-31","","NA"
"-115.78","60.84","HAY RIVER A","2202401","2021-02-22 16:00","2021","02","22","16:00","-23.3","","-27.4","","70","","","","8","","17","","24.1","","98.38","","","","-34","","NA"
"-115.78","60.84","HAY RIVER A","2202401","2021-02-22 17:00","2021","02","22","17:00","-24.5","","-28.5","","70","","","","8","","18","","24.1","","98.36","","","","-36","","Mostly Cloudy"
"-115.78","60.84","HAY RIVER A","2202401","2021-02-22 18:00","2021","02","22","18:00","-24.8","","-28.1","","74","","","","7","","14","","24.1","","98.41","","","","-35","","NA"
"-115.78","60.84","HAY RIVER A","2202401","2021-02-22 19:00","2021","02","22","19:00","-24.7","","-28.1","","74","","","","8","","12","","24.1","","98.47","","","","-34","","NA"
"-115.78","60.84","HAY RIVER A","2202401","2021-02-22 20:00","2021","02","22","20:00","-25.0","","-28.1","","76","","","","9","","8","","24.1","","98.50","","","","-32","","Mostly Cloudy"
"-115.78","60.84","HAY RIVER A","2202401","2021-02-22 21:00","2021","02","22","21:00","-24.1","","-27.3","","75","","","","8","","8","","24.1","","98.56","","","","-31","","NA"
"-115.78","60.84","HAY RIVER A","2202401","2021-02-22 22:00","2021","02","22","22:00","-25.3","","-28.5","","75","","","","7","","7","","24.1","","98.59","","","","-32","","NA"
"-115.78","60.84","HAY RIVER A","2202401","2021-02-22 23:00","2021","02","22","23:00","-27.0","","-30.1","","76","","","","8","","8","","32.2","","98.67","","","","-34","","Mainly Clear"
"-115.78","60.84","HAY RIVER A","2202401","2021-02-23 00:00","2021","02","23","00:00","-27.4","","-30.0","","79","","","","8","","8","","24.1","","98.76","","","","-35","","NA"
"-115.78","60.84","HAY RIVER A","2202401","2021-02-23 01:00","2021","02","23","01:00","-28.2","","-31.0","","77","","","","8","","4","","24.1","","98.82","","","","-33","","NA"
"-115.78","60.84","HAY RIVER A","2202401","2021-02-23 02:00","2021","02","23","02:00","-29.2","","-32.3","","75","","","","9","","4","","24.1","","98.89","","","","-34","","Mostly Cloudy"
"-115.78","60.84","HAY RIVER A","2202401","2021-02-23 03:00","2021","02","23","03:00","-28.6","","-31.9","","74","","","","36","","3","","24.1","","99.02","","","","-32","","NA"
"-115.78","60.84","HAY RIVER A","2202401","2021-02-23 04:00","2021","02","23","04:00","-29.4","","-32.7","","74","","","","30","","5","","24.1","","99.14","","","","-35","","NA"
"-115.78","60.84","HAY RIVER A","2202401","2021-02-23 05:00","2021","02","23","05:00","-30.7","","-33.7","","76","","","","30","","4","","24.1","","99.22","","","","-35","","Mainly Clear"
"-115.78","60.84","HAY RIVER A","2202401","2021-02-23 06:00","2021","02","23","06:00","-31.8","","-35.1","","74","","","","28","","7","","24.1","","99.30","","","","-39","","NA"
"-115.78","60.84","HAY RIVER A","2202401","2021-02-23 07:00","2021","02","23","07:00","-32.0","","-35.0","","75","","","","30","","5","","24.1","","99.40","","","","-38","","NA"
"-115.78","60.84","HAY RIVER A","2202401","2021-02-23 08:00","2021","02","23","08:00","-33.6","","-37.1","","72","","","","25","","4","","24.1","","99.45","","","","-38","","Mainly Clear"
"-115.78","60.84","HAY RIVER A","2202401","2021-02-23 09:00","2021","02","23","09:00","-31.1","","-34.3","","74","","","","24","","5","","24.1","","99.52","","","","-37","","NA"
"-115.78","60.84","HAY RIVER A","2202401","2021-02-23 10:00","2021","02","23","10:00","-28.5","","-31.6","","75","","","","23","","7","","24.1","","99.61","","","","-36","","NA"
"-115.78","60.84","HAY RIVER A","2202401","2021-02-23 11:00","2021","02","23","11:00","-25.2","","-28.5","","75","","","","32","","5","","24.1","","99.68","","","","-30","","Mostly Cloudy"
"-115.78","60.84","HAY RIVER A","2202401","2021-02-23 12:00","2021","02","23","12:00","-23.7","","-27.5","","71","","","","32","","4","","24.1","","99.69","","","","-28","","NA"
"-115.78","60.84","HAY RIVER A","2202401","2021-02-23 13:00","2021","02","23","13:00","-22.3","","-27.3","","65","","","","33","","9","","24.1","","99.72","","","","-29","","NA"
"-115.78","60.84","HAY RIVER A","2202401","2021-02-23 14:00","2021","02","23","14:00","-20.6","","-25.7","","64","","","","33","","5","","22.5","","99.72","","","","-25","","Mostly Cloudy"
"-115.78","60.84","HAY RIVER A","2202401","2021-02-23 15:00","2021","02","23","15:00","-21.0","","-26.1","","64","","","","32","","9","","24.1","","99.74","","","","-28","","NA"
"-115.78","60.84","HAY RIVER A","2202401","2021-02-23 16:00","2021","02","23","16:00","-20.4","","-25.8","","63","","","","32","","7","","24.1","","99.76","","","","-26","","NA"
"-115.78","60.84","HAY RIVER A","2202401","2021-02-23 17:00","2021","02","23","17:00","-20.6","","-25.0","","68","","","","32","","3","","24.1","","99.81","","","","-23","","Snow"
"-115.78","60.84","HAY RIVER A","2202401","2021-02-23 18:00","2021","02","23","18:00","-20.2","","-23.9","","73","","","","2","","4","","3.6","","99.90","","","","-24","","Snow"
"-115.78","60.84","HAY RIVER A","2202401","2021-02-23 19:00","2021","02","23","19:00","-20.9","","-23.9","","77","","","","36","","1","","19.3","","99.94","","","","-22","","Snow"
"-115.78","60.84","HAY RIVER A","2202401","2021-02-23 20:00","2021","02","23","20:00","-21.0","","-23.9","","78","","","","36","","1","","19.3","","99.99","","","","-22","","Snow"
"-115.78","60.84","HAY RIVER A","2202401","2021-02-23 21:00","2021","02","23","21:00","-24.2","","-26.9","","79","","","","32","","8","","24.1","","100.10","","","","-31","","Snow"
"-115.78","60.84","HAY RIVER A","2202401","2021-02-23 22:00","2021","02","23","22:00","-24.7","","-26.9","","82","","","","18","","5","","24.1","","100.09","","","","-30","","Snow"
"-115.78","60.84","HAY RIVER A","2202401","2021-02-23 23:00","2021","02","23","23:00","-25.8","","-28.6","","79","","","","24","","4","","24.1","","100.11","","","","-30","","Snow"
"-115.78","60.84","HAY RIVER A","2202401","2021-02-24 00:00","2021","02","24","00:00","-26.4","","-29.0","","79","","","","29","","4","","24.1","","100.19","","","","-31","","Snow"
"-115.78","60.84","HAY RIVER A","2202401","2021-02-24 01:00","2021","02","24","01:00","-27.0","","-29.8","","78","","","","36","","1","","24.1","","100.16","","","","-28","","Snow"
"-115.78","60.84","HAY RIVER A","2202401","2021-02-24 02:00","2021","02","24","02:00","-27.5","","-30.2","","78","","","","36","","2","","24.1","","100.15","","","","-30","","Snow"
"-115.78","60.84","HAY RIVER A","2202401","2021-02-24 03:00","2021","02","24","03:00","-29.0","","-31.9","","77","","","","15","","3","","24.1","","100.18","","","","-32","","Snow"
"-115.78","60.84","HAY RIVER A","2202401","2021-02-24 04:00","2021","02","24","04:00","-29.8","","-32.9","","75","","","","16","","3","","24.1","","100.18","","","","-33","","NA"
"-115.78","60.84","HAY RIVER A","2202401","2021-02-24 05:00","2021","02","24","05:00","-31.2","","-34.5","","74","","","","17","","4","","24.1","","100.14","","","","-36","","Mainly Clear"
"-115.78","60.84","HAY RIVER A","2202401","2021-02-24 06:00","2021","02","24","06:00","-31.5","","-34.8","","73","","","","11","","4","","24.1","","100.10","","","","-36","","NA"
"-115.78","60.84","HAY RIVER A","2202401","2021-02-24 07:00","2021","02","24","07:00","-30.9","","-34.1","","74","","","","12","","5","","24.1","","99.99","","","","-37","","NA"
"-115.78","60.84","HAY RIVER A","2202401","2021-02-24 08:00","2021","02","24","08:00","-27.6","","-30.5","","77","","","","14","","7","","24.1","","99.97","","","","-34","","Mostly Cloudy"
"-115.78","60.84","HAY RIVER A","2202401","2021-02-24 09:00","2021","02","24","09:00","-26.5","","-29.4","","77","","","","13","","7","","24.1","","99.89","","","","-33","","NA"
"-115.78","60.84","HAY RIVER A","2202401","2021-02-24 10:00","2021","02","24","10:00","-22.4","","-25.4","","77","","","","14","","12","","24.1","","99.81","","","","-31","","NA"
"-115.78","60.84","HAY RIVER A","2202401","2021-02-24 11:00","2021","02","24","11:00","-19.2","","-22.2","","78","","","","15","","10","","24.1","","99.69","","","","-26","","Mainly Clear"
"-115.78","60.84","HAY RIVER A","2202401","2021-02-24 12:00","2021","02","24","12:00","-16.9","","-20.4","","75","","","","17","","12","","24.1","","99.59","","","","-24","","NA"
"-115.78","60.84","HAY RIVER A","2202401","2021-02-24 13:00","2021","02","24","13:00","-14.4","","-18.8","","70","","","","18","","19","","24.1","","99.48","","","","-23","","NA"
"-115.78","60.84","HAY RIVER A","2202401","2021-02-24 14:00","2021","02","24","14:00","-13.9","","-18.6","","68","","","","17","","16","","24.1","","99.38","","","","-22","","Mainly Clear"
"-115.78","60.84","HAY RIVER A","2202401","2021-02-24 15:00","2021","02","24","15:00","-12.5","","-17.8","","65","","","","18","","18","","24.1","","99.33","","","","-21","","NA"
"-115.78","60.84","HAY RIVER A","2202401","2021-02-24 16:00","2021","02","24","16:00","-12.1","","-17.5","","65","","","","19","","12","","24.1","","99.30","","","","-18","","NA"
"-115.78","60.84","HAY RIVER A","2202401","2021-02-24 17:00","2021","02","24","17:00","-11.9","","-17.2","","65","","","","18","","6","","24.1","","99.26","","","","-16","","Mainly Clear"
"-115.78","60.84","HAY RIVER A","2202401","2021-02-24 18:00","2021","02","24","18:00","-15.3","","-17.9","","80","","","","12","","4","","24.1","","99.15","","","","-18","","NA"
"-115.78","60.84","HAY RIVER A","2202401","2021-02-24 19:00","2021","02","24","19:00","-23.8","","-26.3","","80","","","","5","","3","","24.1","","99.08","","","","-27","","NA"
"-115.78","60.84","HAY RIVER A","2202401","2021-02-24 20:00","2021","02","24","20:00","-22.2","","-24.4","","83","","","","6","","10","","24.1","","99.04","","","","-30","","Mainly Clear"
"-115.78","60.84","HAY RIVER A","2202401","2021-02-24 21:00","2021","02","24","21:00","-20.5","","-22.7","","83","","","","5","","9","","24.1","","98.98","","","","-27","","NA"
"-115.78","60.84","HAY RIVER A","2202401","2021-02-24 22:00","2021","02","24","22:00","-20.0","","-22.5","","81","","","","5","","12","","24.1","","98.89","","","","-28","","NA"
"-115.78","60.84","HAY RIVER A","2202401","2021-02-24 23:00","2021","02","24","23:00","-19.9","","-22.4","","80","","","","4","","17","","24.1","","98.87","","","","-30","","Mainly Clear"
"-115.78","60.84","HAY RIVER A","2202401","2021-02-25 00:00","2021","02","25","00:00","-19.0","","-21.6","","80","","","","6","","20","","24.1","","98.86","","","","-29","","NA"
"-115.78","60.84","HAY RIVER A","2202401","2021-02-25 01:00","2021","02","25","01:00","-19.5","","-22.3","","79","","","","5","","15","","24.1","","98.87","","","","-28","","NA"
"-115.78","60.84","HAY RIVER A","2202401","2021-02-25 02:00","2021","02","25","02:00","-18.2","","-21.2","","78","","","","4","","17","","24.1","","98.93","","","","-27","","Mostly Cloudy"
"-115.78","60.84","HAY RIVER A","2202401","2021-02-25 03:00","2021","02","25","03:00","-18.3","","-21.4","","77","","","","5","","19","","19.3","","98.95","","","","-28","","Snow"
"-115.78","60.84","HAY RIVER A","2202401","2021-02-25 04:00","2021","02","25","04:00","-20.0","","-22.9","","78","","","","5","","18","","9.7","","99.02","","","","-30","","Snow"
"-115.78","60.84","HAY RIVER A","2202401","2021-02-25 05:00","2021","02","25","05:00","-22.0","","-25.5","","74","","","","5","","21","","0.8","","99.06","","","","-33","","Snow,Blowing Snow"
"-115.78","60.84","HAY RIVER A","2202401","2021-02-25 06:00","2021","02","25","06:00","-23.3","","-26.7","","74","","","","5","","16","","3.2","","99.15","","","","-33","","Snow,Blowing Snow"
"-115.78","60.84","HAY RIVER A","2202401","2021-02-25 07:00","2021","02","25","07:00","-25.0","","-28.5","","73","","","","5","","17","","3.2","","99.14","","","","-36","","Snow,Blowing Snow"
"-115.78","60.84","HAY RIVER A","2202401","2021-02-25 08:00","2021","02","25","08:00","-26.5","","-30.1","","72","","","","4","","18","","2.8","","99.19","","","","-38","","Snow,Blowing Snow"
"-115.78","60.84","HAY RIVER A","2202401","2021-02-25 09:00","2021","02","25","09:00","-27.5","","-31.3","","71","","","","5","","19","","2.8","","99.25","","","","-40","","Snow,Blowing Snow"
"-115.78","60.84","HAY RIVER A","2202401","2021-02-25 10:00","2021","02","25","10:00","-28.2","","-32.1","","70","","","","5","","14","","2.8","","99.30","","","","-39","","Snow,Blowing Snow"
"-115.78","60.84","HAY RIVER A","2202401","2021-02-25 11:00","2021","02","25","11:00","-28.9","","-32.9","","69","","","","4","","14","","3.2","","99.32","","","","-40","","Snow,Blowing Snow"
"-115.78","60.84","HAY RIVER A","2202401","2021-02-25 12:00","2021","02","25","12:00","-29.4","","-33.9","","66","","","","6","","18","","3.2","","99.34","","","","-42","","Snow,Blowing Snow"
"-115.78","60.84","HAY RIVER A","2202401","2021-02-25 13:00","2021","02","25","13:00","-29.8","","-34.6","","64","","","","6","","17","","4.8","","99.40","","","","-42","","Ice Crystals,Blowing Snow"
"-115.78","60.84","HAY RIVER A","2202401","2021-02-25 14:00","2021","02","25","14:00","-29.9","","-35.0","","62","","","","3","","12","","20.9","","99.44","","","","-40","","Ice Crystals,Blowing Snow"
"-115.78","60.84","HAY RIVER A","2202401","2021-02-25 15:00","2021","02","25","15:00","-30.1","","-35.3","","61","","","","5","","13","","24.1","","99.48","","","","-41","","Blowing Snow"
"-115.78","60.84","HAY RIVER A","2202401","2021-02-25 16:00","2021","02","25","16:00","-30.4","","-35.7","","60","","","","5","","13","","24.1","","99.59","","","","-41","","NA"
"-115.78","60.84","HAY RIVER A","2202401","2021-02-25 17:00","2021","02","25","17:00","-31.0","","-36.2","","61","","","","4","","7","","24.1","","99.63","","","","-38","","Mostly Cloudy"
"-115.78","60.84","HAY RIVER A","2202401","2021-02-25 18:00","2021","02","25","18:00","-31.3","","-36.4","","62","","","","3","","6","","24.1","","99.65","","","","-38","","NA"
"-115.78","60.84","HAY RIVER A","2202401","2021-02-25 19:00","2021","02","25","19:00","-31.8","","-36.4","","64","","","","5","","7","","24.1","","99.65","","","","-39","","NA"
"-115.78","60.84","HAY RIVER A","2202401","2021-02-25 20:00","2021","02","25","20:00","-31.9","","-36.7","","64","","","","6","","8","","24.1","","99.64","","","","-40","","Mainly Clear"
"-115.78","60.84","HAY RIVER A","2202401","2021-02-25 21:00","2021","02","25","21:00","-32.6","","-37.1","","65","","","","7","","7","","24.1","","99.64","","","","-40","","NA"
"-115.78","60.84","HAY RIVER A","2202401","2021-02-25 22:00","2021","02","25","22:00","-34.1","","-37.9","","70","","","","25","","3","","24.1","","99.68","","","","-38","","NA"
"-115.78","60.84","HAY RIVER A","2202401","2021-02-25 23:00","2021","02","25","23:00","-35.3","","-39.0","","70","","","","36","","2","","24.1","","99.72","","","","-38","","Mainly Clear"
"-115.78","60.84","HAY RIVER A","2202401","2021-02-26 00:00","2021","02","26","00:00","-36.0","","-39.4","","72","","","","16","","4","","24.1","","99.77","","","","-41","","NA"
"-115.78","60.84","HAY RIVER A","2202401","2021-02-26 01:00","2021","02","26","01:00","-36.9","","-40.5","","70","","","","36","","2","","24.1","","99.79","","","","-40","","NA"
"-115.78","60.84","HAY RIVER A","2202401","2021-02-26 02:00","2021","02","26","02:00","-37.5","","-41.2","","69","","","","36","","3","","24.1","","99.84","","","","-41","","Mainly Clear"
"-115.78","60.84","HAY RIVER A","2202401","2021-02-26 03:00","2021","02","26","03:00","-37.3","","-40.8","","71","","","","36","","1","","24.1","","99.84","","","","-39","","NA"
"-115.78","60.84","HAY RIVER A","2202401","2021-02-26 04:00","2021","02","26","04:00","-38.3","","-42.0","","69","","","","36","","3","","24.1","","99.87","","","","-42","","NA"
"-115.78","60.84","HAY RIVER A","2202401","2021-02-26 05:00","2021","02","26","05:00","-39.0","","-42.8","","69","","","","36","","2","","24.1","","99.89","","","","-42","","Mainly Clear"
"-115.78","60.84","HAY RIVER A","2202401","2021-02-26 06:00","2021","02","26","06:00","-39.7","","-43.5","","68","","","","15","","4","","24.1","","99.92","","","","-45","","NA"
"-115.78","60.84","HAY RIVER A","2202401","2021-02-26 07:00","2021","02","26","07:00","-40.2","","-44.1","","67","","","","15","","6","","19.3","","99.93","","","","-48","","NA"
"-115.78","60.84","HAY RIVER A","2202401","2021-02-26 08:00","2021","02","26","08:00","-39.8","","-43.7","","67","","","","18","","3","","2.4","","99.94","","","","-44","","Fog"
"-115.78","60.84","HAY RIVER A","2202401","2021-02-26 09:00","2021","02","26","09:00","-37.0","","-40.8","","69","","","","15","","4","","3.2","","99.97","","","","-42","","Fog"
"-115.78","60.84","HAY RIVER A","2202401","2021-02-26 10:00","2021","02","26","10:00","-33.9","","-37.6","","70","","","","16","","3","","24.1","","99.99","","","","-38","","NA"
"-115.78","60.84","HAY RIVER A","2202401","2021-02-26 11:00","2021","02","26","11:00","-30.7","","-35.1","","66","","","","14","","4","","24.1","","100.01","","","","-35","","Mainly Clear"
"-115.78","60.84","HAY RIVER A","2202401","2021-02-26 12:00","2021","02","26","12:00","-29.3","","-35.4","","57","","","","36","","1","","24.1","","100.00","","","","-30","","NA"
"-115.78","60.84","HAY RIVER A","2202401","2021-02-26 13:00","2021","02","26","13:00","-28.5","","-34.3","","58","","","","32","","5","","24.1","","100.02","","","","-34","","NA"
"-115.78","60.84","HAY RIVER A","2202401","2021-02-26 14:00","2021","02","26","14:00","-27.5","","-33.8","","56","","","","33","","8","","24.1","","100.01","","","","-35","","Mainly Clear"
"-115.78","60.84","HAY RIVER A","2202401","2021-02-26 15:00","2021","02","26","15:00","-25.6","","-35.4","","41","","","","33","","7","","24.1","","100.00","","","","-32","","NA"
"-115.78","60.84","HAY RIVER A","2202401","2021-02-26 16:00","2021","02","26","16:00","-26.3","","-35.4","","43","","","","33","","7","","24.1","","99.96","","","","-33","","NA"
"-115.78","60.84","HAY RIVER A","2202401","2021-02-26 17:00","2021","02","26","17:00","-27.9","","-35.2","","51","","","","32","","4","","24.1","","99.93","","","","-32","","Mostly Cloudy"
"-115.78","60.84","HAY RIVER A","2202401","2021-02-26 18:00","2021","02","26","18:00","-27.0","","-31.9","","64","","","","33","","4","","24.1","","99.91","","","","-31","","NA"
"-115.78","60.84","HAY RIVER A","2202401","2021-02-26 19:00","2021","02","26","19:00","-29.5","","-33.2","","70","","","","0","","1","","24.1","","99.91","","","","-31","","NA"
"-115.78","60.84","HAY RIVER A","2202401","2021-02-26 20:00","2021","02","26","20:00","-30.9","","-34.8","","69","","","","36","","1","","24.1","","99.90","","","","-32","","Mainly Clear"
"-115.78","60.84","HAY RIVER A","2202401","2021-02-26 21:00","2021","02","26","21:00","-32.1","","-36.7","","65","","","","21","","4","","24.1","","99.90","","","","-37","","NA"
"-115.78","60.84","HAY RIVER A","2202401","2021-02-26 22:00","2021","02","26","22:00","-30.9","","-35.6","","64","","","","36","","3","","24.1","","99.85","","","","-34","","NA"
"-115.78","60.84","HAY RIVER A","2202401","2021-02-26 23:00","2021","02","26","23:00","-29.2","","-34.6","","60","","","","25","","8","","24.1","","99.83","","","","-37","","Mainly Clear"
"-115.78","60.84","HAY RIVER A","2202401","2021-02-27 00:00","2021","02","27","00:00","-28.6","","-34.3","","59","","","","26","","10","","24.1","","99.81","","","","-37","","NA"
"-115.78","60.84","HAY RIVER A","2202401","2021-02-27 01:00","2021","02","27","01:00","-29.1","","-34.1","","63","","","","25","","13","","24.1","","99.80","","","","-39","","NA"
"-115.78","60.84","HAY RIVER A","2202401","2021-02-27 02:00","2021","02","27","02:00","-29.4","","-33.1","","71","","","","26","","10","","24.1","","99.81","","","","-38","","Mainly Clear"
"-115.78","60.84","HAY RIVER A","2202401","2021-02-27 03:00","2021","02","27","03:00","-31.1","","-34.3","","74","","","","24","","13","","24.1","","99.83","","","","-42","","NA"
"-115.78","60.84","HAY RIVER A","2202401","2021-02-27 04:00","2021","02","27","04:00","-31.1","","-34.3","","74","","","","24","","9","","24.1","","99.80","","","","-40","","NA"
"-115.78","60.84","HAY RIVER A","2202401","2021-02-27 05:00","2021","02","27","05:00","-31.9","","-35.0","","74","","","","25","","12","","24.1","","99.79","","","","-42","","Mainly Clear"
"-115.78","60.84","HAY RIVER A","2202401","2021-02-27 06:00","2021","02","27","06:00","-29.4","","-32.8","","73","","","","29","","13","","24.1","","99.84","","","","-40","","NA"
"-115.78","60.84","HAY RIVER A","2202401","2021-02-27 07:00","2021","02","27","07:00","-29.3","","-32.7","","73","","","","29","","5","","24.1","","99.85","","","","-35","","NA"
"-115.78","60.84","HAY RIVER A","2202401","2021-02-27 08:00","2021","02","27","08:00","-30.0","","-33.5","","73","","","","29","","3","","24.1","","99.88","","","","-33","","Mostly Cloudy"
"-115.78","60.84","HAY RIVER A","2202401","2021-02-27 09:00","2021","02","27","09:00","-29.1","","-32.5","","73","","","","31","","8","","24.1","","99.89","","","","-37","","NA"
"-115.78","60.84","HAY RIVER A","2202401","2021-02-27 10:00","2021","02","27","10:00","-27.2","","-32.6","","61","","","","35","","7","","24.1","","99.91","","","","-34","","NA"
"-115.78","60.84","HAY RIVER A","2202401","2021-02-27 11:00","2021","02","27","11:00","-27.3","","-32.9","","60","","","","33","","9","","24.1","","99.94","","","","-35","","Mostly Cloudy"
"-115.78","60.84","HAY RIVER A","2202401","2021-02-27 12:00","2021","02","27","12:00","-27.1","","-32.6","","60","","","","33","","8","","24.1","","99.97","","","","-35","","NA"
"-115.78","60.84","HAY RIVER A","2202401","2021-02-27 13:00","2021","02","27","13:00","-27.0","","-32.5","","61","","","","33","","10","","24.1","","100.06","","","","-36","","NA"
"-115.78","60.84","HAY RIVER A","2202401","2021-02-27 14:00","2021","02","27","14:00","-26.6","","-32.3","","60","","","","3","","8","","24.1","","100.09","","","","-34","","Mostly Cloudy"
"-115.78","60.84","HAY RIVER A","2202401","2021-02-27 15:00","2021","02","27","15:00","-26.8","","-32.3","","60","","","","4","","7","","24.1","","100.14","","","","-34","","NA"
"-115.78","60.84","HAY RIVER A","2202401","2021-02-27 16:00","2021","02","27","16:00","-27.4","","-32.9","","61","","","","7","","8","","24.1","","100.19","","","","-35","","NA"
"-115.78","60.84","HAY RIVER A","2202401","2021-02-27 17:00","2021","02","27","17:00","-27.8","","-33.2","","61","","","","7","","11","","24.1","","100.23","","","","-37","","Mostly Cloudy"
"-115.78","60.84","HAY RIVER A","2202401","2021-02-27 18:00","2021","02","27","18:00","-28.9","","-33.7","","64","","","","7","","5","","24.1","","100.27","","","","-34","","NA"
"-115.78","60.84","HAY RIVER A","2202401","2021-02-27 19:00","2021","02","27","19:00","-31.3","","-34.8","","72","","","","36","","2","","24.1","","100.33","","","","-34","","NA"
"-115.78","60.84","HAY RIVER A","2202401","2021-02-27 20:00","2021","02","27","20:00","-33.4","","-36.5","","74","","","","13","","3","","24.1","","100.35","","","","-37","","Mainly Clear"
"-115.78","60.84","HAY RIVER A","2202401","2021-02-27 21:00","2021","02","27","21:00","-33.1","","-36.5","","72","","","","8","","10","","24.1","","100.39","","","","-43","","NA"
"-115.78","60.84","HAY RIVER A","2202401","2021-02-27 22:00","2021","02","27","22:00","-33.3","","-37.0","","70","","","","11","","6","","24.1","","100.40","","","","-40","","NA"
"-115.78","60.84","HAY RIVER A","2202401","2021-02-27 23:00","2021","02","27","23:00","-34.9","","-38.5","","71","","","","36","","2","","24.1","","100.46","","","","-37","","Clear"
"-115.78","60.84","HAY RIVER A","2202401","2021-02-28 00:00","2021","02","28","00:00","-36.9","","-40.4","","71","","","","8","","3","","24.1","","100.48","","","","-41","","NA"
"-115.78","60.84","HAY RIVER A","2202401","2021-02-28 01:00","2021","02","28","01:00","-37.9","","-41.5","","70","","","","6","","4","","24.1","","100.47","","","","-43","","NA"
"-115.78","60.84","HAY RIVER A","2202401","2021-02-28 02:00","2021","02","28","02:00","-38.5","","-42.1","","70","","","","36","","2","","24.1","","100.46","","","","-41","","Clear"
"-115.78","60.84","HAY RIVER A","2202401","2021-02-28 03:00","2021","02","28","03:00","-39.4","","-43.3","","68","","","","36","","2","","24.1","","100.51","","","","-42","","NA"
"-115.78","60.84","HAY RIVER A","2202401","2021-02-28 04:00","2021","02","28","04:00","-40.1","","-44.0","","67","","","","10","","4","","24.1","","100.50","","","","-46","","NA"
"-115.78","60.84","HAY RIVER A","2202401","2021-02-28 05:00","2021","02","28","05:00","-39.1","","-43.0","","68","","","","8","","9","","3.2","","100.47","","","","-49","","Fog"
"-115.78","60.84","HAY RIVER A","2202401","2021-02-28 06:00","2021","02","28","06:00","-38.4","","-42.3","","68","","","","8","","5","","24.1","","100.50","","","","-45","","NA"
"-115.78","60.84","HAY RIVER A","2202401","2021-02-28 07:00","2021","02","28","07:00","-39.0","","-42.9","","68","","","","9","","9","","6.4","","100.41","","","","-49","","Fog"
"-115.78","60.84","HAY RIVER A","2202401","2021-02-28 08:00","2021","02","28","08:00","-38.7","","-42.6","","68","","","","8","","10","","19.3","","100.40","","","","-50","","Mainly Clear"
"-115.78","60.84","HAY RIVER A","2202401","2021-02-28 09:00","2021","02","28","09:00","-36.3","","-40.1","","69","","","","8","","16","","24.1","","100.30","","","","-50","","NA"
"-115.78","60.84","HAY RIVER A","2202401","2021-02-28 10:00","2021","02","28","10:00","-35.0","","-38.8","","69","","","","8","","17","","24.1","","100.25","","","","-48","","NA"
"-115.78","60.84","HAY RIVER A","2202401","2021-02-28 11:00","2021","02","28","11:00","-32.7","","-36.5","","70","","","","7","","16","","24.1","","100.18","","","","-45","","Mostly Cloudy"
"-115.78","60.84","HAY RIVER A","2202401","2021-02-28 12:00","2021","02","28","12:00","-30.0","","-34.7","","65","","","","7","","17","","24.1","","100.13","","","","-42","","NA"
"-115.78","60.84","HAY RIVER A","2202401","2021-02-28 13:00","2021","02","28","13:00","-28.0","","-32.9","","64","","","","7","","20","","24.1","","99.97","","","","-41","","NA"
"-115.78","60.84","HAY RIVER A","2202401","2021-02-28 14:00","2021","02","28","14:00","-24.8","","-31.0","","57","","","","7","","13","","24.1","","99.87","","","","-34","","Mostly Cloudy"
"-115.78","60.84","HAY RIVER A","2202401","2021-02-28 15:00","2021","02","28","15:00","-21.6","","-31.3","","42","","","","12","","17","","24.1","","99.80","","","","-32","","NA"
"-115.78","60.84","HAY RIVER A","2202401","2021-02-28 16:00","2021","02","28","16:00","-21.4","","-30.6","","44","","","","11","","17","","24.1","","99.69","","","","-31","","NA"
"-115.78","60.84","HAY RIVER A","2202401","2021-02-28 17:00","2021","02","28","17:00","-21.1","","-30.5","","43","","","","11","","18","","24.1","","99.57","","","","-31","","Mostly Cloudy"
"-115.78","60.84","HAY RIVER A","2202401","2021-02-28 18:00","2021","02","28","18:00","-21.3","","-29.8","","47","","","","10","","25","","24.1","","99.40","","","","-33","","NA"
"-115.78","60.84","HAY RIVER A","2202401","2021-02-28 19:00","2021","02","28","19:00","-21.3","","-29.3","","49","","","","12","","19","","24.1","","99.35","","","","-32","","NA"
"-115.78","60.84","HAY RIVER A","2202401","2021-02-28 20:00","2021","02","28","20:00","-21.1","","-28.4","","53","","","","11","","20","","24.1","","99.25","","","","-32","","Cloudy"
"-115.78","60.84","HAY RIVER A","2202401","2021-02-28 21:00","2021","02","28","21:00","-21.3","","-27.9","","56","","","","9","","19","","24.1","","99.13","","","","-32","","NA"
"-115.78","60.84","HAY RIVER A","2202401","2021-02-28 22:00","2021","02","28","22:00","-21.1","","-25.2","","70","","","","9","","21","","16.1","","99.02","","","","-32","","Snow"
"-115.78","60.84","HAY RIVER A","2202401","2021-02-28 23:00","2021","02","28","23:00","-21.1","","-24.9","","72","","","","12","","25","","9.7","","98.89","","","","-33","","Snow"
