"Longitude (x)","Latitude (y)","Station Name","Climate ID","Date/Time (LST)","Year","Month","Day","Time (LST)","Temp (°C)","Temp Flag","Dew Point Temp (°C)","Dew Point Temp Flag","Rel Hum (%)","Rel Hum Flag","Precip. Amount (mm)","Precip. Amount Flag","Wind Dir (10s deg)","Wind Dir Flag","Wind Spd (km/h)","Wind Spd Flag","Visibility (km)","Visibility Flag","Stn Press (kPa)","Stn Press Flag","Hmdx","Hmdx Flag","Wind Chill","Wind Chill Flag","Weather"
"-115.78","60.84","HAY RIVER A","2202401","2021-04-01 00:00","2021","04","01","00:00","-0.7","","-3.0","","85","","","","10","","11","","24.1","","98.01","","","","-4","","NA"
"-115.78","60.84","HAY RIVER A","2202401","2021-04-01 01:00","2021","04","01","01:00","-0.6","","-3.4","","81","","","","12","","12","","24.1","","97.92","","","","-5","","NA"
"-115.78","60.84","HAY RIVER A","2202401","2021-04-01 02:00","2021","04","01","02:00","0.3","","-4.4","","71","","","","14","","13","","24.1","","97.82","","","","","","Mostly Cloudy"
"-115.78","60.84","HAY RIVER A","2202401","2021-04-01 03:00","2021","04","01","03:00","0.3","","-4.9","","68","","","","14","","13","","24.1","","97.72","","","","","","NA"
"-115.78","60.84","HAY RIVER A","2202401","2021-04-01 04:00","2021","04","01","04:00","-0.2","","-4.8","","71","","","","16","","13","","24.1","","97.63","","","","-4","","NA"
"-115.78","60.84","HAY RIVER A","2202401","2021-04-01 05:00","2021","04","01","05:00","-0.3","","-4.8","","72","","","","16","","11","","24.1","","97.55","","","","-4","","Mostly Cloudy"
"-115.78","60.84","HAY RIVER A","2202401","2021-04-01 06:00","2021","04","01","06:00","1.0","","-4.7","","66","","","","15","","11","","24.1","","97.47","","","","","","NA"
"-115.78","60.84","HAY RIVER A","2202401","2021-04-01 07:00","2021","04","01","07:00","0.6","","-4.3","","70","","","","17","","10","","24.1","","97.41","","","","","","NA"
"-115.78","60.84","HAY RIVER A","2202401","2021-04-01 08:00","2021","04","01","08:00","1.9","","-3.5","","67","","","","15","","10","","24.1","","97.32","","","","","","Cloudy"
"-115.78","60.84","HAY RIVER A","2202401","2021-04-01 09:00","2021","04","01","09:00","2.7","","-1.5","","74","","","","15","","10","","24.1","","97.24","","","","","","NA"
"-115.78","60.84","HAY RIVER A","2202401","2021-04-01 10:00","2021","04","01","10:00","3.5","","-0.6","","75","","","","14","","6","","24.1","","97.17","","","","","","NA"
"-115.78","60.84","HAY RIVER A","2202401","2021-04-01 11:00","2021","04","01","11:00","4.3","","-0.3","","72","","","","15","","12","","24.1","","97.11","","","","","","Cloudy"
"-115.78","60.84","HAY RIVER A","2202401","2021-04-01 12:00","2021","04","01","12:00","2.1","","-1.1","","79","","","","7","","13","","24.1","","97.10","","","","","","NA"
"-115.78","60.84","HAY RIVER A","2202401","2021-04-01 13:00","2021","04","01","13:00","1.1","","-2.4","","77","","","","5","","8","","24.1","","97.14","","","","","","NA"
"-115.78","60.84","HAY RIVER A","2202401","2021-04-01 14:00","2021","04","01","14:00","0.3","","-2.8","","80","","","","2","","10","","24.1","","97.16","","","","","","Mostly Cloudy"
"-115.78","60.84","HAY RIVER A","2202401","2021-04-01 15:00","2021","04","01","15:00","-1.4","","-3.2","","87","","","","32","","16","","24.1","","97.26","","","","-6","","NA"
"-115.78","60.84","HAY RIVER A","2202401","2021-04-01 16:00","2021","04","01","16:00","-5.1","","-7.0","","86","","","","33","","21","","24.1","","97.39","","","","-12","","NA"
"-115.78","60.84","HAY RIVER A","2202401","2021-04-01 17:00","2021","04","01","17:00","-6.4","","-8.3","","86","","","","34","","15","","24.1","","97.55","","","","-12","","Cloudy"
"-115.78","60.84","HAY RIVER A","2202401","2021-04-01 18:00","2021","04","01","18:00","-6.1","","-7.7","","89","","","","34","","12","","1.2","","97.65","","","","-11","","Snow Showers"
"-115.78","60.84","HAY RIVER A","2202401","2021-04-01 19:00","2021","04","01","19:00","-6.0","","-7.2","","92","","","","32","","15","","3.2","","97.75","","","","-12","","Snow"
"-115.78","60.84","HAY RIVER A","2202401","2021-04-01 20:00","2021","04","01","20:00","-6.6","","-8.1","","89","","","","33","","28","","9.7","","97.85","","","","-15","","Snow"
"-115.78","60.84","HAY RIVER A","2202401","2021-04-01 21:00","2021","04","01","21:00","-8.0","","-10.0","","86","","","","32","","34","","9.7","","97.99","","","","-17","","Snow"
"-115.78","60.84","HAY RIVER A","2202401","2021-04-01 22:00","2021","04","01","22:00","-9.3","","-11.4","","85","","","","31","","31","","24.1","","98.14","","","","-19","","Snow"
"-115.78","60.84","HAY RIVER A","2202401","2021-04-01 23:00","2021","04","01","23:00","-9.9","","-12.6","","81","","","","31","","33","","24.1","","98.25","","","","-20","","Snow"
"-115.78","60.84","HAY RIVER A","2202401","2021-04-02 00:00","2021","04","02","00:00","-10.0","","-13.1","","78","","","","31","","31","","24.1","","98.40","","","","-20","","Snow"
"-115.78","60.84","HAY RIVER A","2202401","2021-04-02 01:00","2021","04","02","01:00","-10.4","","-13.4","","78","","","","31","","28","","24.1","","98.56","","","","-20","","Snow"
"-115.78","60.84","HAY RIVER A","2202401","2021-04-02 02:00","2021","04","02","02:00","-11.3","","-14.4","","78","","","","31","","25","","24.1","","98.69","","","","-20","","Snow"
"-115.78","60.84","HAY RIVER A","2202401","2021-04-02 03:00","2021","04","02","03:00","-11.9","","-15.3","","76","","","","31","","22","","24.1","","98.81","","","","-21","","Snow"
"-115.78","60.84","HAY RIVER A","2202401","2021-04-02 04:00","2021","04","02","04:00","-12.4","","-15.9","","76","","","","31","","21","","24.1","","98.92","","","","-21","","Snow"
"-115.78","60.84","HAY RIVER A","2202401","2021-04-02 05:00","2021","04","02","05:00","-13.1","","-16.5","","76","","","","30","","27","","24.1","","99.03","","","","-23","","Snow"
"-115.78","60.84","HAY RIVER A","2202401","2021-04-02 06:00","2021","04","02","06:00","-14.3","","-18.4","","72","","","","30","","27","","24.1","","99.16","","","","-25","","Snow"
"-115.78","60.84","HAY RIVER A","2202401","2021-04-02 07:00","2021","04","02","07:00","-15.2","","-19.2","","71","","","","30","","20","","24.1","","99.27","","","","-24","","NA"
"-115.78","60.84","HAY RIVER A","2202401","2021-04-02 08:00","2021","04","02","08:00","-16.3","","-21.2","","66","","","","28","","19","","24.1","","99.36","","","","-26","","Mostly Cloudy"
"-115.78","60.84","HAY RIVER A","2202401","2021-04-02 09:00","2021","04","02","09:00","-15.9","","-21.3","","64","","","","29","","18","","24.1","","99.41","","","","-25","","NA"
"-115.78","60.84","HAY RIVER A","2202401","2021-04-02 10:00","2021","04","02","10:00","-14.7","","-20.6","","61","","","","30","","18","","24.1","","99.46","","","","-23","","NA"
"-115.78","60.84","HAY RIVER A","2202401","2021-04-02 11:00","2021","04","02","11:00","-14.7","","-19.9","","65","","","","33","","19","","24.1","","99.51","","","","-24","","Mainly Clear"
"-115.78","60.84","HAY RIVER A","2202401","2021-04-02 12:00","2021","04","02","12:00","-13.6","","-19.4","","62","","","","32","","21","","24.1","","99.56","","","","-23","","NA"
"-115.78","60.84","HAY RIVER A","2202401","2021-04-02 13:00","2021","04","02","13:00","-13.2","","-19.5","","60","","","","33","","16","","24.1","","99.62","","","","-21","","NA"
"-115.78","60.84","HAY RIVER A","2202401","2021-04-02 14:00","2021","04","02","14:00","-13.1","","-19.2","","60","","","","32","","18","","24.1","","99.69","","","","-21","","Mainly Clear"
"-115.78","60.84","HAY RIVER A","2202401","2021-04-02 15:00","2021","04","02","15:00","-12.3","","-19.0","","58","","","","31","","10","","24.1","","99.72","","","","-18","","NA"
"-115.78","60.84","HAY RIVER A","2202401","2021-04-02 16:00","2021","04","02","16:00","-11.7","","-19.0","","55","","","","31","","7","","24.1","","99.76","","","","-16","","NA"
"-115.78","60.84","HAY RIVER A","2202401","2021-04-02 17:00","2021","04","02","17:00","-11.0","","-19.3","","51","","","","34","","6","","24.1","","99.80","","","","-15","","Mainly Clear"
"-115.78","60.84","HAY RIVER A","2202401","2021-04-02 18:00","2021","04","02","18:00","-11.2","","-19.8","","49","","","","32","","5","","24.1","","99.81","","","","-14","","NA"
"-115.78","60.84","HAY RIVER A","2202401","2021-04-02 19:00","2021","04","02","19:00","-11.9","","-20.4","","50","","","","36","","3","","24.1","","99.84","","","","-14","","NA"
"-115.78","60.84","HAY RIVER A","2202401","2021-04-02 20:00","2021","04","02","20:00","-15.2","","-20.2","","66","","","","36","","1","","24.1","","99.87","","","","-16","","Mainly Clear"
"-115.78","60.84","HAY RIVER A","2202401","2021-04-02 21:00","2021","04","02","21:00","-16.6","","-21.4","","67","","","","7","","6","","24.1","","99.92","","","","-21","","NA"
"-115.78","60.84","HAY RIVER A","2202401","2021-04-02 22:00","2021","04","02","22:00","-17.8","","-22.3","","68","","","","6","","6","","24.1","","99.95","","","","-22","","NA"
"-115.78","60.84","HAY RIVER A","2202401","2021-04-02 23:00","2021","04","02","23:00","-18.6","","-22.1","","74","","","","8","","10","","24.1","","99.98","","","","-26","","Mainly Clear"
"-115.78","60.84","HAY RIVER A","2202401","2021-04-03 00:00","2021","04","03","00:00","-18.4","","-21.6","","76","","","","8","","9","","24.1","","99.99","","","","-25","","NA"
"-115.78","60.84","HAY RIVER A","2202401","2021-04-03 01:00","2021","04","03","01:00","-19.9","","-22.7","","79","","","","7","","7","","24.1","","100.03","","","","-26","","NA"
"-115.78","60.84","HAY RIVER A","2202401","2021-04-03 02:00","2021","04","03","02:00","-20.9","","-23.8","","78","","","","7","","8","","24.1","","100.05","","","","-27","","Mainly Clear"
"-115.78","60.84","HAY RIVER A","2202401","2021-04-03 03:00","2021","04","03","03:00","-21.8","","-24.3","","81","","","","10","","6","","24.1","","100.07","","","","-27","","NA"
"-115.78","60.84","HAY RIVER A","2202401","2021-04-03 04:00","2021","04","03","04:00","-22.5","","-25.0","","81","","","","9","","8","","24.1","","100.06","","","","-29","","NA"
"-115.78","60.84","HAY RIVER A","2202401","2021-04-03 05:00","2021","04","03","05:00","-22.1","","-24.6","","81","","","","9","","8","","24.1","","100.05","","","","-29","","Mainly Clear"
"-115.78","60.84","HAY RIVER A","2202401","2021-04-03 06:00","2021","04","03","06:00","-23.3","","-25.8","","81","","","","9","","8","","24.1","","100.05","","","","-30","","NA"
"-115.78","60.84","HAY RIVER A","2202401","2021-04-03 07:00","2021","04","03","07:00","-21.5","","-24.2","","79","","","","9","","11","","24.1","","100.02","","","","-29","","NA"
"-115.78","60.84","HAY RIVER A","2202401","2021-04-03 08:00","2021","04","03","08:00","-19.1","","-22.9","","73","","","","12","","7","","24.1","","100.02","","","","-25","","Mainly Clear"
"-115.78","60.84","HAY RIVER A","2202401","2021-04-03 09:00","2021","04","03","09:00","-14.6","","-20.2","","62","","","","8","","13","","24.1","","99.97","","","","-22","","NA"
"-115.78","60.84","HAY RIVER A","2202401","2021-04-03 10:00","2021","04","03","10:00","-13.0","","-19.1","","61","","","","7","","19","","24.1","","99.95","","","","-21","","NA"
"-115.78","60.84","HAY RIVER A","2202401","2021-04-03 11:00","2021","04","03","11:00","-11.6","","-17.4","","62","","","","7","","18","","24.1","","99.90","","","","-19","","Mostly Cloudy"
"-115.78","60.84","HAY RIVER A","2202401","2021-04-03 12:00","2021","04","03","12:00","-9.9","","-15.8","","62","","","","7","","22","","24.1","","99.86","","","","-18","","NA"
"-115.78","60.84","HAY RIVER A","2202401","2021-04-03 13:00","2021","04","03","13:00","-8.4","","-14.0","","64","","","","7","","20","","24.1","","99.79","","","","-16","","NA"
"-115.78","60.84","HAY RIVER A","2202401","2021-04-03 14:00","2021","04","03","14:00","-7.0","","-13.0","","63","","","","7","","21","","24.1","","99.72","","","","-14","","Mostly Cloudy"
"-115.78","60.84","HAY RIVER A","2202401","2021-04-03 15:00","2021","04","03","15:00","-4.7","","-12.0","","57","","","","7","","17","","24.1","","99.64","","","","-11","","NA"
"-115.78","60.84","HAY RIVER A","2202401","2021-04-03 16:00","2021","04","03","16:00","-4.2","","-11.1","","59","","","","7","","17","","24.1","","99.60","","","","-10","","NA"
"-115.78","60.84","HAY RIVER A","2202401","2021-04-03 17:00","2021","04","03","17:00","-3.6","","-10.8","","58","","","","7","","12","","24.1","","99.55","","","","-8","","Mainly Clear"
"-115.78","60.84","HAY RIVER A","2202401","2021-04-03 18:00","2021","04","03","18:00","-4.3","","-11.2","","59","","","","7","","14","","24.1","","99.48","","","","-9","","NA"
"-115.78","60.84","HAY RIVER A","2202401","2021-04-03 19:00","2021","04","03","19:00","-4.8","","-12.0","","57","","","","8","","12","","24.1","","99.43","","","","-10","","NA"
"-115.78","60.84","HAY RIVER A","2202401","2021-04-03 20:00","2021","04","03","20:00","-5.2","","-13.1","","54","","","","10","","11","","24.1","","99.40","","","","-10","","Mainly Clear"
"-115.78","60.84","HAY RIVER A","2202401","2021-04-03 21:00","2021","04","03","21:00","-5.6","","-13.3","","55","","","","10","","11","","24.1","","99.39","","","","-10","","NA"
"-115.78","60.84","HAY RIVER A","2202401","2021-04-03 22:00","2021","04","03","22:00","-6.5","","-13.4","","58","","","","10","","10","","24.1","","99.36","","","","-11","","NA"
"-115.78","60.84","HAY RIVER A","2202401","2021-04-03 23:00","2021","04","03","23:00","-5.2","","-12.6","","57","","","","12","","11","","24.1","","99.29","","","","-10","","Mostly Cloudy"
"-115.78","60.84","HAY RIVER A","2202401","2021-04-04 00:00","2021","04","04","00:00","-6.4","","-12.4","","62","","","","15","","12","","24.1","","99.24","","","","-12","","NA"
"-115.78","60.84","HAY RIVER A","2202401","2021-04-04 01:00","2021","04","04","01:00","-6.6","","-11.6","","68","","","","16","","14","","24.1","","99.21","","","","-12","","NA"
"-115.78","60.84","HAY RIVER A","2202401","2021-04-04 02:00","2021","04","04","02:00","-7.2","","-11.5","","72","","","","17","","8","","24.1","","99.18","","","","-11","","Mostly Cloudy"
"-115.78","60.84","HAY RIVER A","2202401","2021-04-04 03:00","2021","04","04","03:00","-8.0","","-11.7","","75","","","","34","","5","","24.1","","99.19","","","","-11","","NA"
"-115.78","60.84","HAY RIVER A","2202401","2021-04-04 04:00","2021","04","04","04:00","-8.3","","-11.9","","75","","","","29","","4","","24.1","","99.17","","","","-10","","NA"
"-115.78","60.84","HAY RIVER A","2202401","2021-04-04 05:00","2021","04","04","05:00","-10.7","","-13.8","","78","","","","34","","5","","24.1","","99.15","","","","-14","","Mostly Cloudy"
"-115.78","60.84","HAY RIVER A","2202401","2021-04-04 06:00","2021","04","04","06:00","-10.9","","-13.4","","82","","","","27","","13","","24.1","","99.26","","","","-17","","NA"
"-115.78","60.84","HAY RIVER A","2202401","2021-04-04 07:00","2021","04","04","07:00","-10.2","","-12.3","","84","","","","32","","19","","24.1","","99.29","","","","-18","","NA"
"-115.78","60.84","HAY RIVER A","2202401","2021-04-04 08:00","2021","04","04","08:00","-9.4","","-11.4","","86","","","","32","","19","","9.7","","99.33","","","","-17","","Snow"
"-115.78","60.84","HAY RIVER A","2202401","2021-04-04 09:00","2021","04","04","09:00","-8.9","","-10.9","","85","","","","30","","14","","16.1","","99.37","","","","-15","","Snow"
"-115.78","60.84","HAY RIVER A","2202401","2021-04-04 10:00","2021","04","04","10:00","-9.1","","-12.5","","77","","","","31","","21","","24.1","","99.41","","","","-17","","NA"
"-115.78","60.84","HAY RIVER A","2202401","2021-04-04 11:00","2021","04","04","11:00","-8.2","","-11.9","","75","","","","31","","17","","24.1","","99.45","","","","-15","","Mostly Cloudy"
"-115.78","60.84","HAY RIVER A","2202401","2021-04-04 12:00","2021","04","04","12:00","-8.2","","-13.1","","68","","","","32","","20","","24.1","","99.47","","","","-16","","NA"
"-115.78","60.84","HAY RIVER A","2202401","2021-04-04 13:00","2021","04","04","13:00","-7.7","","-13.1","","65","","","","33","","18","","24.1","","99.50","","","","-15","","NA"
"-115.78","60.84","HAY RIVER A","2202401","2021-04-04 14:00","2021","04","04","14:00","-6.6","","-13.0","","61","","","","32","","14","","24.1","","99.47","","","","-12","","Clear"
"-115.78","60.84","HAY RIVER A","2202401","2021-04-04 15:00","2021","04","04","15:00","-5.2","","-12.9","","55","","","","30","","4","","24.1","","99.45","","","","-7","","NA"
"-115.78","60.84","HAY RIVER A","2202401","2021-04-04 16:00","2021","04","04","16:00","-5.6","","-12.6","","58","","","","8","","16","","24.1","","99.42","","","","-12","","NA"
"-115.78","60.84","HAY RIVER A","2202401","2021-04-04 17:00","2021","04","04","17:00","-6.4","","-13.3","","59","","","","7","","13","","24.1","","99.37","","","","-12","","Mainly Clear"
"-115.78","60.84","HAY RIVER A","2202401","2021-04-04 18:00","2021","04","04","18:00","-6.3","","-13.9","","56","","","","8","","10","","24.1","","99.32","","","","-11","","NA"
"-115.78","60.84","HAY RIVER A","2202401","2021-04-04 19:00","2021","04","04","19:00","-8.3","","-14.0","","64","","","","7","","14","","24.1","","99.26","","","","-14","","NA"
"-115.78","60.84","HAY RIVER A","2202401","2021-04-04 20:00","2021","04","04","20:00","-10.5","","-14.9","","70","","","","11","","9","","24.1","","99.23","","","","-15","","Mainly Clear"
"-115.78","60.84","HAY RIVER A","2202401","2021-04-04 21:00","2021","04","04","21:00","-9.0","","-14.3","","66","","","","9","","13","","24.1","","99.16","","","","-15","","NA"
"-115.78","60.84","HAY RIVER A","2202401","2021-04-04 22:00","2021","04","04","22:00","-8.7","","-13.3","","70","","","","10","","10","","24.1","","99.06","","","","-14","","NA"
"-115.78","60.84","HAY RIVER A","2202401","2021-04-04 23:00","2021","04","04","23:00","-9.2","","-12.8","","75","","","","13","","9","","24.1","","99.00","","","","-14","","Mostly Cloudy"
"-115.78","60.84","HAY RIVER A","2202401","2021-04-05 00:00","2021","04","05","00:00","-7.8","","-11.8","","74","","","","16","","14","","24.1","","98.88","","","","-14","","NA"
"-115.78","60.84","HAY RIVER A","2202401","2021-04-05 01:00","2021","04","05","01:00","-5.9","","-9.1","","78","","","","15","","13","","24.1","","98.80","","","","-11","","NA"
"-115.78","60.84","HAY RIVER A","2202401","2021-04-05 02:00","2021","04","05","02:00","-4.8","","-8.6","","75","","","","16","","18","","24.1","","98.70","","","","-11","","Mostly Cloudy"
"-115.78","60.84","HAY RIVER A","2202401","2021-04-05 03:00","2021","04","05","03:00","-4.3","","-8.7","","72","","","","15","","19","","24.1","","98.58","","","","-10","","NA"
"-115.78","60.84","HAY RIVER A","2202401","2021-04-05 04:00","2021","04","05","04:00","-3.5","","-8.6","","68","","","","16","","18","","24.1","","98.49","","","","-9","","NA"
"-115.78","60.84","HAY RIVER A","2202401","2021-04-05 05:00","2021","04","05","05:00","-2.3","","-8.9","","61","","","","17","","19","","24.1","","98.46","","","","-8","","Mostly Cloudy"
"-115.78","60.84","HAY RIVER A","2202401","2021-04-05 06:00","2021","04","05","06:00","-1.5","","-8.6","","58","","","","16","","20","","24.1","","98.41","","","","-7","","NA"
"-115.78","60.84","HAY RIVER A","2202401","2021-04-05 07:00","2021","04","05","07:00","-1.4","","-7.8","","62","","","","16","","21","","24.1","","98.39","","","","-7","","NA"
"-115.78","60.84","HAY RIVER A","2202401","2021-04-05 08:00","2021","04","05","08:00","-0.1","","-7.2","","59","","","","18","","20","","24.1","","98.38","","","","-5","","Mostly Cloudy"
"-115.78","60.84","HAY RIVER A","2202401","2021-04-05 09:00","2021","04","05","09:00","1.0","","-6.3","","58","","","","17","","26","","24.1","","98.36","","","","","","NA"
"-115.78","60.84","HAY RIVER A","2202401","2021-04-05 10:00","2021","04","05","10:00","2.3","","-4.2","","62","","","","17","","21","","24.1","","98.34","","","","","","NA"
"-115.78","60.84","HAY RIVER A","2202401","2021-04-05 11:00","2021","04","05","11:00","3.4","","-2.8","","64","","","","18","","20","","24.1","","98.32","","","","","","Mostly Cloudy"
"-115.78","60.84","HAY RIVER A","2202401","2021-04-05 12:00","2021","04","05","12:00","4.0","","-3.9","","57","","","","18","","22","","24.1","","98.30","","","","","","NA"
"-115.78","60.84","HAY RIVER A","2202401","2021-04-05 13:00","2021","04","05","13:00","4.1","","-3.2","","59","","","","17","","14","","24.1","","98.31","","","","","","NA"
"-115.78","60.84","HAY RIVER A","2202401","2021-04-05 14:00","2021","04","05","14:00","4.4","","-3.5","","57","","","","18","","15","","24.1","","98.33","","","","","","Mostly Cloudy"
"-115.78","60.84","HAY RIVER A","2202401","2021-04-05 15:00","2021","04","05","15:00","4.6","","-2.4","","61","","","","17","","11","","24.1","","98.36","","","","","","NA"
"-115.78","60.84","HAY RIVER A","2202401","2021-04-05 16:00","2021","04","05","16:00","6.1","","-3.5","","50","","","","25","","13","","24.1","","98.40","","","","","","NA"
"-115.78","60.84","HAY RIVER A","2202401","2021-04-05 17:00","2021","04","05","17:00","2.0","","-2.8","","71","","","","32","","15","","24.1","","98.47","","","","","","Mostly Cloudy"
"-115.78","60.84","HAY RIVER A","2202401","2021-04-05 18:00","2021","04","05","18:00","1.8","","-3.6","","67","","","","32","","9","","24.1","","98.50","","","","","","NA"
"-115.78","60.84","HAY RIVER A","2202401","2021-04-05 19:00","2021","04","05","19:00","1.9","","-5.0","","60","","","","30","","12","","24.1","","98.57","","","","","","NA"
"-115.78","60.84","HAY RIVER A","2202401","2021-04-05 20:00","2021","04","05","20:00","-0.5","","-5.5","","69","","","","31","","12","","24.1","","98.66","","","","-4","","Mainly Clear"
"-115.78","60.84","HAY RIVER A","2202401","2021-04-05 21:00","2021","04","05","21:00","-1.9","","-6.3","","72","","","","34","","9","","24.1","","98.73","","","","-5","","NA"
"-115.78","60.84","HAY RIVER A","2202401","2021-04-05 22:00","2021","04","05","22:00","-2.6","","-7.4","","70","","","","33","","14","","24.1","","98.81","","","","-7","","NA"
"-115.78","60.84","HAY RIVER A","2202401","2021-04-05 23:00","2021","04","05","23:00","-4.4","","-8.7","","72","","","","33","","14","","24.1","","98.86","","","","-10","","Clear"
"-115.78","60.84","HAY RIVER A","2202401","2021-04-06 00:00","2021","04","06","00:00","-5.5","","-9.4","","74","","","","29","","11","","24.1","","98.93","","","","-10","","NA"
"-115.78","60.84","HAY RIVER A","2202401","2021-04-06 01:00","2021","04","06","01:00","-5.1","","-9.5","","71","","","","30","","23","","24.1","","98.97","","","","-12","","NA"
"-115.78","60.84","HAY RIVER A","2202401","2021-04-06 02:00","2021","04","06","02:00","-4.4","","-7.6","","79","","","","31","","27","","24.1","","99.05","","","","-12","","Mostly Cloudy"
"-115.78","60.84","HAY RIVER A","2202401","2021-04-06 03:00","2021","04","06","03:00","-4.7","","-7.2","","83","","","","32","","25","","24.1","","99.13","","","","-12","","NA"
"-115.78","60.84","HAY RIVER A","2202401","2021-04-06 04:00","2021","04","06","04:00","-4.9","","-7.2","","84","","","","32","","21","","24.1","","99.24","","","","-12","","NA"
"-115.78","60.84","HAY RIVER A","2202401","2021-04-06 05:00","2021","04","06","05:00","-4.9","","-6.9","","86","","","","32","","14","","3.2","","99.34","","","","-10","","Snow"
"-115.78","60.84","HAY RIVER A","2202401","2021-04-06 06:00","2021","04","06","06:00","-5.8","","-7.4","","88","","","","34","","13","","1.2","","99.42","","","","-11","","Snow"
"-115.78","60.84","HAY RIVER A","2202401","2021-04-06 07:00","2021","04","06","07:00","-6.1","","-8.2","","86","","","","34","","13","","9.7","","99.50","","","","-11","","Snow"
"-115.78","60.84","HAY RIVER A","2202401","2021-04-06 08:00","2021","04","06","08:00","-6.5","","-9.2","","81","","","","34","","12","","24.1","","99.57","","","","-12","","Blowing Snow"
"-115.78","60.84","HAY RIVER A","2202401","2021-04-06 09:00","2021","04","06","09:00","-7.2","","-9.6","","83","","","","33","","17","","16.1","","99.62","","","","-14","","Snow"
"-115.78","60.84","HAY RIVER A","2202401","2021-04-06 10:00","2021","04","06","10:00","-8.0","","-10.2","","84","","","","32","","22","","24.1","","99.67","","","","-16","","Snow,Blowing Snow"
"-115.78","60.84","HAY RIVER A","2202401","2021-04-06 11:00","2021","04","06","11:00","-8.2","","-10.9","","81","","","","33","","21","","24.1","","99.71","","","","-16","","Snow,Blowing Snow"
"-115.78","60.84","HAY RIVER A","2202401","2021-04-06 12:00","2021","04","06","12:00","-8.5","","-11.3","","80","","","","32","","22","","24.1","","99.72","","","","-16","","Snow,Blowing Snow"
"-115.78","60.84","HAY RIVER A","2202401","2021-04-06 13:00","2021","04","06","13:00","-7.7","","-10.8","","78","","","","32","","13","","24.1","","99.75","","","","-13","","Snow"
"-115.78","60.84","HAY RIVER A","2202401","2021-04-06 14:00","2021","04","06","14:00","-7.8","","-11.0","","77","","","","31","","18","","24.1","","99.78","","","","-15","","Snow"
"-115.78","60.84","HAY RIVER A","2202401","2021-04-06 15:00","2021","04","06","15:00","-7.3","","-11.5","","72","","","","1","","10","","24.1","","99.78","","","","-12","","Snow"
"-115.78","60.84","HAY RIVER A","2202401","2021-04-06 16:00","2021","04","06","16:00","-7.7","","-12.1","","71","","","","3","","12","","24.1","","99.73","","","","-13","","Snow"
"-115.78","60.84","HAY RIVER A","2202401","2021-04-06 17:00","2021","04","06","17:00","-7.7","","-12.0","","72","","","","1","","9","","24.1","","99.74","","","","-12","","Cloudy"
"-115.78","60.84","HAY RIVER A","2202401","2021-04-06 18:00","2021","04","06","18:00","-7.9","","-12.1","","72","","","","3","","8","","24.1","","99.73","","","","-12","","NA"
"-115.78","60.84","HAY RIVER A","2202401","2021-04-06 19:00","2021","04","06","19:00","-8.1","","-11.7","","75","","","","1","","12","","24.1","","99.64","","","","-14","","NA"
"-115.78","60.84","HAY RIVER A","2202401","2021-04-06 20:00","2021","04","06","20:00","-8.0","","-11.1","","79","","","","3","","9","","24.1","","99.64","","","","-13","","Mostly Cloudy"
"-115.78","60.84","HAY RIVER A","2202401","2021-04-06 21:00","2021","04","06","21:00","-7.6","","-10.2","","82","","","","3","","9","","24.1","","99.58","","","","-12","","NA"
"-115.78","60.84","HAY RIVER A","2202401","2021-04-06 22:00","2021","04","06","22:00","-7.4","","-9.4","","85","","","","5","","8","","24.1","","99.54","","","","-11","","NA"
"-115.78","60.84","HAY RIVER A","2202401","2021-04-06 23:00","2021","04","06","23:00","-7.2","","-9.1","","87","","","","5","","6","","24.1","","99.46","","","","-10","","Snow"
"-115.78","60.84","HAY RIVER A","2202401","2021-04-07 00:00","2021","04","07","00:00","-7.2","","-8.7","","89","","","","5","","13","","9.7","","99.40","","","","-13","","Snow"
"-115.78","60.84","HAY RIVER A","2202401","2021-04-07 01:00","2021","04","07","01:00","-7.9","","-9.4","","89","","","","6","","10","","9.7","","99.31","","","","-13","","Snow"
"-115.78","60.84","HAY RIVER A","2202401","2021-04-07 02:00","2021","04","07","02:00","-8.1","","-9.6","","89","","","","6","","14","","9.7","","99.24","","","","-14","","Snow"
"-115.78","60.84","HAY RIVER A","2202401","2021-04-07 03:00","2021","04","07","03:00","-7.8","","-9.1","","90","","","","7","","8","","19.3","","99.16","","","","-12","","Snow"
"-115.78","60.84","HAY RIVER A","2202401","2021-04-07 04:00","2021","04","07","04:00","-6.4","","-7.5","","92","","","","8","","14","","4.8","","99.08","","","","-12","","Snow"
"-115.78","60.84","HAY RIVER A","2202401","2021-04-07 05:00","2021","04","07","05:00","-5.9","","-7.0","","92","","","","8","","17","","4.8","","98.99","","","","-12","","Snow"
"-115.78","60.84","HAY RIVER A","2202401","2021-04-07 06:00","2021","04","07","06:00","-4.4","","-5.6","","91","","","","8","","21","","12.9","","98.94","","","","-11","","Snow"
"-115.78","60.84","HAY RIVER A","2202401","2021-04-07 07:00","2021","04","07","07:00","-4.1","","-5.4","","91","","","","11","","10","","4.8","","98.93","","","","-8","","Snow"
"-115.78","60.84","HAY RIVER A","2202401","2021-04-07 08:00","2021","04","07","08:00","-4.0","","-5.4","","90","","","","10","","8","","20.9","","98.91","","","","-7","","Snow"
"-115.78","60.84","HAY RIVER A","2202401","2021-04-07 09:00","2021","04","07","09:00","-3.7","","-5.3","","89","","","","7","","9","","24.1","","98.88","","","","-7","","Snow"
"-115.78","60.84","HAY RIVER A","2202401","2021-04-07 10:00","2021","04","07","10:00","-6.3","","-8.1","","87","","","","29","","16","","24.1","","98.90","","","","-12","","NA"
"-115.78","60.84","HAY RIVER A","2202401","2021-04-07 11:00","2021","04","07","11:00","-8.2","","-10.2","","86","","","","28","","19","","24.1","","98.90","","","","-15","","Snow"
"-115.78","60.84","HAY RIVER A","2202401","2021-04-07 12:00","2021","04","07","12:00","-8.9","","-10.8","","86","","","","29","","19","","24.1","","98.90","","","","-16","","Snow"
"-115.78","60.84","HAY RIVER A","2202401","2021-04-07 13:00","2021","04","07","13:00","-8.8","","-10.7","","87","","","","29","","19","","24.1","","98.89","","","","-16","","Snow"
"-115.78","60.84","HAY RIVER A","2202401","2021-04-07 14:00","2021","04","07","14:00","-7.4","","-9.7","","84","","","","28","","19","","2.4","","98.88","","","","-14","","Snow"
"-115.78","60.84","HAY RIVER A","2202401","2021-04-07 15:00","2021","04","07","15:00","-5.6","","-7.9","","84","","","","28","","16","","9.7","","98.88","","","","-12","","Snow"
"-115.78","60.84","HAY RIVER A","2202401","2021-04-07 16:00","2021","04","07","16:00","-5.3","","-6.8","","89","","","","33","","23","","4.8","","98.92","","","","-12","","Snow"
"-115.78","60.84","HAY RIVER A","2202401","2021-04-07 17:00","2021","04","07","17:00","-5.8","","-7.3","","89","","","","33","","27","","3.6","","98.96","","","","-14","","Snow,Blowing Snow"
"-115.78","60.84","HAY RIVER A","2202401","2021-04-07 18:00","2021","04","07","18:00","-6.7","","-8.5","","87","","","","33","","16","","4.0","","99.01","","","","-13","","Snow,Blowing Snow"
"-115.78","60.84","HAY RIVER A","2202401","2021-04-07 19:00","2021","04","07","19:00","-7.4","","-8.9","","89","","","","31","","26","","4.0","","99.06","","","","-16","","Snow,Blowing Snow"
"-115.78","60.84","HAY RIVER A","2202401","2021-04-07 20:00","2021","04","07","20:00","-8.6","","-10.4","","87","","","","31","","30","","9.7","","99.11","","","","-18","","Snow,Blowing Snow"
"-115.78","60.84","HAY RIVER A","2202401","2021-04-07 21:00","2021","04","07","21:00","-9.5","","-11.3","","87","","","","31","","29","","9.7","","99.12","","","","-19","","Snow,Blowing Snow"
"-115.78","60.84","HAY RIVER A","2202401","2021-04-07 22:00","2021","04","07","22:00","-10.1","","-12.0","","86","","","","31","","28","","9.7","","99.16","","","","-19","","Snow"
"-115.78","60.84","HAY RIVER A","2202401","2021-04-07 23:00","2021","04","07","23:00","-10.4","","-12.2","","87","","","","31","","29","","9.7","","99.18","","","","-20","","Snow,Blowing Snow"
"-115.78","60.84","HAY RIVER A","2202401","2021-04-08 00:00","2021","04","08","00:00","-10.8","","-12.8","","85","","","","31","","28","","19.3","","99.21","","","","-20","","Snow,Blowing Snow"
"-115.78","60.84","HAY RIVER A","2202401","2021-04-08 01:00","2021","04","08","01:00","-11.2","","-13.3","","84","","","","31","","29","","19.3","","99.23","","","","-21","","Snow,Blowing Snow"
"-115.78","60.84","HAY RIVER A","2202401","2021-04-08 02:00","2021","04","08","02:00","-11.4","","-13.5","","85","","","","31","","29","","9.7","","99.26","","","","-21","","Snow,Blowing Snow"
"-115.78","60.84","HAY RIVER A","2202401","2021-04-08 03:00","2021","04","08","03:00","-12.1","","-14.3","","84","","","","","","","M","19.3","","99.29","","","","","","Snow,Blowing Snow"
"-115.78","60.84","HAY RIVER A","2202401","2021-04-08 04:00","2021","04","08","04:00","-12.8","","-15.3","","82","","","","31","","33","","19.3","","99.32","","","","-24","","Snow,Blowing Snow"
"-115.78","60.84","HAY RIVER A","2202401","2021-04-08 05:00","2021","04","08","05:00","-13.3","","-15.9","","81","","","","31","","35","","19.3","","99.37","","","","-25","","Snow,Blowing Snow"
"-115.78","60.84","HAY RIVER A","2202401","2021-04-08 06:00","2021","04","08","06:00","-14.3","","-17.1","","79","","","","31","","36","","6.4","","99.42","","","","-26","","Snow,Blowing Snow"
"-115.78","60.84","HAY RIVER A","2202401","2021-04-08 07:00","2021","04","08","07:00","-15.2","","-18.3","","78","","","","31","","28","","24.1","","99.47","","","","-26","","Blowing Snow"
"-115.78","60.84","HAY RIVER A","2202401","2021-04-08 08:00","2021","04","08","08:00","-14.8","","-18.0","","77","","","","30","","28","","24.1","","99.53","","","","-25","","Blowing Snow"
"-115.78","60.84","HAY RIVER A","2202401","2021-04-08 09:00","2021","04","08","09:00","-14.8","","-18.4","","74","","","","30","","29","","24.1","","99.53","","","","-26","","Snow,Blowing Snow"
"-115.78","60.84","HAY RIVER A","2202401","2021-04-08 10:00","2021","04","08","10:00","-13.5","","-17.0","","75","","","","29","","24","","24.1","","99.54","","","","-23","","Blowing Snow"
"-115.78","60.84","HAY RIVER A","2202401","2021-04-08 11:00","2021","04","08","11:00","-12.9","","-16.9","","72","","","","30","","26","","24.1","","99.53","","","","-23","","Blowing Snow"
"-115.78","60.84","HAY RIVER A","2202401","2021-04-08 12:00","2021","04","08","12:00","-12.2","","-16.4","","71","","","","30","","21","","24.1","","99.53","","","","-21","","Blowing Snow"
"-115.78","60.84","HAY RIVER A","2202401","2021-04-08 13:00","2021","04","08","13:00","-11.3","","-16.5","","66","","","","30","","24","","24.1","","99.53","","","","-20","","Blowing Snow"
"-115.78","60.84","HAY RIVER A","2202401","2021-04-08 14:00","2021","04","08","14:00","-10.4","","-16.2","","63","","","","31","","19","","24.1","","99.56","","","","-18","","Mainly Clear"
"-115.78","60.84","HAY RIVER A","2202401","2021-04-08 15:00","2021","04","08","15:00","-9.4","","-15.3","","63","","","","31","","13","","24.1","","99.55","","","","-15","","NA"
"-115.78","60.84","HAY RIVER A","2202401","2021-04-08 16:00","2021","04","08","16:00","-8.9","","-15.1","","62","","","","33","","14","","24.1","","99.55","","","","-15","","NA"
"-115.78","60.84","HAY RIVER A","2202401","2021-04-08 17:00","2021","04","08","17:00","-9.5","","-15.1","","64","","","","32","","8","","24.1","","99.52","","","","-14","","Mainly Clear"
"-115.78","60.84","HAY RIVER A","2202401","2021-04-08 18:00","2021","04","08","18:00","-9.2","","-15.4","","61","","","","36","","2","","24.1","","99.48","","","","-10","","NA"
"-115.78","60.84","HAY RIVER A","2202401","2021-04-08 19:00","2021","04","08","19:00","-10.8","","-16.2","","65","","","","7","","14","","24.1","","99.44","","","","-17","","NA"
"-115.78","60.84","HAY RIVER A","2202401","2021-04-08 20:00","2021","04","08","20:00","-12.2","","-16.7","","69","","","","9","","10","","24.1","","99.42","","","","-18","","Mainly Clear"
"-115.78","60.84","HAY RIVER A","2202401","2021-04-08 21:00","2021","04","08","21:00","-13.3","","-17.2","","73","","","","9","","10","","24.1","","99.38","","","","-19","","NA"
"-115.78","60.84","HAY RIVER A","2202401","2021-04-08 22:00","2021","04","08","22:00","-13.4","","-17.4","","72","","","","12","","8","","24.1","","99.33","","","","-18","","NA"
"-115.78","60.84","HAY RIVER A","2202401","2021-04-08 23:00","2021","04","08","23:00","-13.0","","-17.6","","69","","","","13","","9","","24.1","","99.30","","","","-18","","Mainly Clear"
"-115.78","60.84","HAY RIVER A","2202401","2021-04-09 00:00","2021","04","09","00:00","-14.3","","-18.3","","72","","","","10","","13","","24.1","","99.20","","","","-21","","NA"
"-115.78","60.84","HAY RIVER A","2202401","2021-04-09 01:00","2021","04","09","01:00","-15.1","","-18.4","","76","","","","9","","13","","24.1","","99.14","","","","-22","","NA"
"-115.78","60.84","HAY RIVER A","2202401","2021-04-09 02:00","2021","04","09","02:00","-15.5","","-18.4","","79","","","","8","","11","","24.1","","99.11","","","","-22","","Mostly Cloudy"
"-115.78","60.84","HAY RIVER A","2202401","2021-04-09 03:00","2021","04","09","03:00","-14.3","","-17.4","","78","","","","8","","12","","24.1","","99.05","","","","-21","","NA"
"-115.78","60.84","HAY RIVER A","2202401","2021-04-09 04:00","2021","04","09","04:00","-11.4","","-15.6","","71","","","","10","","16","","24.1","","99.00","","","","-19","","NA"
"-115.78","60.84","HAY RIVER A","2202401","2021-04-09 05:00","2021","04","09","05:00","-11.9","","-15.8","","73","","","","7","","16","","24.1","","98.94","","","","-19","","Mainly Clear"
"-115.78","60.84","HAY RIVER A","2202401","2021-04-09 06:00","2021","04","09","06:00","-11.3","","-15.1","","74","","","","8","","21","","24.1","","98.87","","","","-20","","NA"
"-115.78","60.84","HAY RIVER A","2202401","2021-04-09 07:00","2021","04","09","07:00","-10.6","","-14.5","","74","","","","9","","18","","24.1","","98.82","","","","-18","","NA"
"-115.78","60.84","HAY RIVER A","2202401","2021-04-09 08:00","2021","04","09","08:00","-9.1","","-13.2","","72","","","","8","","17","","24.1","","98.78","","","","-16","","Mostly Cloudy"
"-115.78","60.84","HAY RIVER A","2202401","2021-04-09 09:00","2021","04","09","09:00","-8.5","","-12.8","","72","","","","7","","22","","24.1","","98.74","","","","-16","","NA"
"-115.78","60.84","HAY RIVER A","2202401","2021-04-09 10:00","2021","04","09","10:00","-8.0","","-11.7","","75","","","","8","","26","","4.8","","98.74","","","","-16","","Snow"
"-115.78","60.84","HAY RIVER A","2202401","2021-04-09 11:00","2021","04","09","11:00","-7.8","","-10.5","","81","","","","7","","26","","2.8","","98.71","","","","-16","","Snow,Blowing Snow"
"-115.78","60.84","HAY RIVER A","2202401","2021-04-09 12:00","2021","04","09","12:00","-8.3","","-10.7","","83","","","","7","","20","","2.4","","98.72","","","","-16","","Snow,Blowing Snow"
"-115.78","60.84","HAY RIVER A","2202401","2021-04-09 13:00","2021","04","09","13:00","-7.8","","-10.1","","83","","","","6","","27","","2.4","","98.72","","","","-16","","Snow,Blowing Snow"
"-115.78","60.84","HAY RIVER A","2202401","2021-04-09 14:00","2021","04","09","14:00","-8.8","","-11.0","","84","","","","6","","24","","1.6","","98.81","","","","-17","","Snow,Blowing Snow"
"-115.78","60.84","HAY RIVER A","2202401","2021-04-09 15:00","2021","04","09","15:00","-8.5","","-10.8","","83","","","","6","","19","","1.2","","98.88","","","","-16","","Snow,Blowing Snow"
"-115.78","60.84","HAY RIVER A","2202401","2021-04-09 16:00","2021","04","09","16:00","-8.5","","-10.9","","83","","","","5","","23","","1.2","","98.93","","","","-17","","Snow,Blowing Snow"
"-115.78","60.84","HAY RIVER A","2202401","2021-04-09 17:00","2021","04","09","17:00","-9.5","","-11.6","","85","","","","5","","16","","1.0","","99.05","","","","-16","","Snow,Blowing Snow"
"-115.78","60.84","HAY RIVER A","2202401","2021-04-09 18:00","2021","04","09","18:00","-10.3","","-12.3","","85","","","","5","","18","","1.0","","99.13","","","","-18","","Snow,Blowing Snow"
"-115.78","60.84","HAY RIVER A","2202401","2021-04-09 19:00","2021","04","09","19:00","-10.1","","-12.1","","85","","","","4","","23","","1.0","","99.21","","","","-19","","Snow,Blowing Snow"
"-115.78","60.84","HAY RIVER A","2202401","2021-04-09 20:00","2021","04","09","20:00","-10.3","","-12.2","","86","","","","3","","17","","1.0","","99.29","","","","-18","","Snow,Blowing Snow"
"-115.78","60.84","HAY RIVER A","2202401","2021-04-09 21:00","2021","04","09","21:00","-10.3","","-12.4","","85","","","","3","","18","","9.7","","99.38","","","","-18","","Snow,Blowing Snow"
"-115.78","60.84","HAY RIVER A","2202401","2021-04-09 22:00","2021","04","09","22:00","-11.0","","-13.7","","81","","","","3","","14","","9.7","","99.43","","","","-18","","Snow,Blowing Snow"
"-115.78","60.84","HAY RIVER A","2202401","2021-04-09 23:00","2021","04","09","23:00","-11.8","","-14.5","","80","","","","4","","12","","9.7","","99.49","","","","-18","","Snow,Blowing Snow"
"-115.78","60.84","HAY RIVER A","2202401","2021-04-10 00:00","2021","04","10","00:00","-12.8","","-15.2","","83","","","","4","","13","","24.1","","99.55","","","","-20","","Snow,Blowing Snow"
"-115.78","60.84","HAY RIVER A","2202401","2021-04-10 01:00","2021","04","10","01:00","-14.7","","-17.1","","82","","","","3","","10","","19.3","","99.65","","","","-21","","Snow,Blowing Snow"
"-115.78","60.84","HAY RIVER A","2202401","2021-04-10 02:00","2021","04","10","02:00","-16.1","","-18.9","","79","","","","1","","10","","24.1","","99.76","","","","-23","","Snow,Blowing Snow"
"-115.78","60.84","HAY RIVER A","2202401","2021-04-10 03:00","2021","04","10","03:00","-17.1","","-20.2","","77","","","","36","","10","","24.1","","99.88","","","","-24","","Snow,Blowing Snow"
"-115.78","60.84","HAY RIVER A","2202401","2021-04-10 04:00","2021","04","10","04:00","-18.4","","-21.9","","74","","","","35","","10","","24.1","","99.96","","","","-25","","Blowing Snow"
"-115.78","60.84","HAY RIVER A","2202401","2021-04-10 05:00","2021","04","10","05:00","-19.2","","-22.9","","73","","","","34","","10","","24.1","","100.06","","","","-26","","Mainly Clear"
"-115.78","60.84","HAY RIVER A","2202401","2021-04-10 06:00","2021","04","10","06:00","-21.1","","-24.6","","74","","","","33","","12","","24.1","","100.14","","","","-29","","NA"
"-115.78","60.84","HAY RIVER A","2202401","2021-04-10 07:00","2021","04","10","07:00","-21.0","","-24.6","","73","","","","33","","14","","24.1","","100.25","","","","-30","","NA"
"-115.78","60.84","HAY RIVER A","2202401","2021-04-10 08:00","2021","04","10","08:00","-21.0","","-24.9","","71","","","","32","","18","","24.1","","100.31","","","","-31","","Mainly Clear"
"-115.78","60.84","HAY RIVER A","2202401","2021-04-10 09:00","2021","04","10","09:00","-19.7","","-24.1","","69","","","","32","","19","","24.1","","100.41","","","","-30","","NA"
"-115.78","60.84","HAY RIVER A","2202401","2021-04-10 10:00","2021","04","10","10:00","-18.7","","-23.5","","66","","","","31","","16","","24.1","","100.50","","","","-28","","NA"
"-115.78","60.84","HAY RIVER A","2202401","2021-04-10 11:00","2021","04","10","11:00","-18.0","","-23.1","","65","","","","32","","19","","24.1","","100.54","","","","-28","","Mainly Clear"
"-115.78","60.84","HAY RIVER A","2202401","2021-04-10 12:00","2021","04","10","12:00","-17.2","","-22.4","","64","","","","33","","17","","24.1","","100.60","","","","-26","","NA"
"-115.78","60.84","HAY RIVER A","2202401","2021-04-10 13:00","2021","04","10","13:00","-16.6","","-22.0","","63","","","","32","","20","","24.1","","100.66","","","","-26","","NA"
"-115.78","60.84","HAY RIVER A","2202401","2021-04-10 14:00","2021","04","10","14:00","-15.2","","-20.9","","62","","","","33","","17","","24.1","","100.71","","","","-24","","Clear"
"-115.78","60.84","HAY RIVER A","2202401","2021-04-10 15:00","2021","04","10","15:00","-14.5","","-20.5","","61","","","","30","","12","","24.1","","100.75","","","","-21","","NA"
"-115.78","60.84","HAY RIVER A","2202401","2021-04-10 16:00","2021","04","10","16:00","-14.1","","-20.6","","58","","","","30","","10","","24.1","","100.80","","","","-20","","NA"
"-115.78","60.84","HAY RIVER A","2202401","2021-04-10 17:00","2021","04","10","17:00","-14.0","","-21.1","","56","","","","32","","7","","24.1","","100.80","","","","-19","","Clear"
"-115.78","60.84","HAY RIVER A","2202401","2021-04-10 18:00","2021","04","10","18:00","-14.0","","-20.6","","58","","","","9","","9","","24.1","","100.80","","","","-20","","NA"
"-115.78","60.84","HAY RIVER A","2202401","2021-04-10 19:00","2021","04","10","19:00","-14.4","","-20.9","","59","","","","11","","4","","24.1","","100.82","","","","-17","","NA"
"-115.78","60.84","HAY RIVER A","2202401","2021-04-10 20:00","2021","04","10","20:00","-16.1","","-21.1","","66","","","","11","","5","","24.1","","100.83","","","","-20","","Mainly Clear"
"-115.78","60.84","HAY RIVER A","2202401","2021-04-10 21:00","2021","04","10","21:00","-19.5","","-22.5","","77","","","","36","","3","","24.1","","100.85","","","","-22","","NA"
"-115.78","60.84","HAY RIVER A","2202401","2021-04-10 22:00","2021","04","10","22:00","-20.3","","-22.9","","80","","","","12","","3","","24.1","","100.84","","","","-23","","NA"
"-115.78","60.84","HAY RIVER A","2202401","2021-04-10 23:00","2021","04","10","23:00","-21.6","","-24.4","","79","","","","15","","3","","24.1","","100.84","","","","-24","","Mainly Clear"
"-115.78","60.84","HAY RIVER A","2202401","2021-04-11 00:00","2021","04","11","00:00","-22.8","","-25.1","","82","","","","10","","4","","24.1","","100.82","","","","-27","","NA"
"-115.78","60.84","HAY RIVER A","2202401","2021-04-11 01:00","2021","04","11","01:00","-20.5","","-23.5","","77","","","","19","","6","","24.1","","100.85","","","","-26","","NA"
"-115.78","60.84","HAY RIVER A","2202401","2021-04-11 02:00","2021","04","11","02:00","-20.9","","-23.4","","80","","","","10","","9","","24.1","","100.84","","","","-28","","Mainly Clear"
"-115.78","60.84","HAY RIVER A","2202401","2021-04-11 03:00","2021","04","11","03:00","-19.5","","-22.1","","80","","","","9","","7","","24.1","","100.85","","","","-25","","NA"
"-115.78","60.84","HAY RIVER A","2202401","2021-04-11 04:00","2021","04","11","04:00","-21.1","","-24.0","","78","","","","8","","7","","24.1","","100.86","","","","-27","","NA"
"-115.78","60.84","HAY RIVER A","2202401","2021-04-11 05:00","2021","04","11","05:00","-19.5","","-22.4","","78","","","","8","","9","","24.1","","100.88","","","","-26","","Mainly Clear"
"-115.78","60.84","HAY RIVER A","2202401","2021-04-11 06:00","2021","04","11","06:00","-19.5","","-22.5","","77","","","","10","","9","","24.1","","100.86","","","","-26","","NA"
"-115.78","60.84","HAY RIVER A","2202401","2021-04-11 07:00","2021","04","11","07:00","-18.7","","-21.8","","77","","","","9","","10","","24.1","","100.86","","","","-26","","NA"
"-115.78","60.84","HAY RIVER A","2202401","2021-04-11 08:00","2021","04","11","08:00","-16.6","","-20.8","","71","","","","36","","3","","24.1","","100.86","","","","-19","","Mostly Cloudy"
"-115.78","60.84","HAY RIVER A","2202401","2021-04-11 09:00","2021","04","11","09:00","-14.5","","-19.7","","65","","","","7","","10","","24.1","","100.83","","","","-21","","NA"
"-115.78","60.84","HAY RIVER A","2202401","2021-04-11 10:00","2021","04","11","10:00","-13.6","","-18.7","","66","","","","7","","17","","24.1","","100.77","","","","-22","","NA"
"-115.78","60.84","HAY RIVER A","2202401","2021-04-11 11:00","2021","04","11","11:00","-12.6","","-17.8","","65","","","","7","","18","","24.1","","100.77","","","","-21","","Cloudy"
"-115.78","60.84","HAY RIVER A","2202401","2021-04-11 12:00","2021","04","11","12:00","-11.9","","-16.8","","67","","","","5","","11","","24.1","","100.78","","","","-18","","Snow"
"-115.78","60.84","HAY RIVER A","2202401","2021-04-11 13:00","2021","04","11","13:00","-11.6","","-16.0","","70","","","","2","","8","","8.1","","100.86","","","","-16","","Snow"
"-115.78","60.84","HAY RIVER A","2202401","2021-04-11 14:00","2021","04","11","14:00","-11.9","","-15.7","","74","","","","34","","9","","16.1","","100.96","","","","-17","","Snow"
"-115.78","60.84","HAY RIVER A","2202401","2021-04-11 15:00","2021","04","11","15:00","-12.4","","-16.2","","74","","","","31","","21","","24.1","","101.07","","","","-21","","NA"
"-115.78","60.84","HAY RIVER A","2202401","2021-04-11 16:00","2021","04","11","16:00","-14.3","","-17.5","","77","","","","32","","20","","24.1","","101.17","","","","-23","","NA"
"-115.78","60.84","HAY RIVER A","2202401","2021-04-11 17:00","2021","04","11","17:00","-13.9","","-17.4","","75","","","","32","","14","","24.1","","101.25","","","","-21","","Mainly Clear"
"-115.78","60.84","HAY RIVER A","2202401","2021-04-11 18:00","2021","04","11","18:00","-14.1","","-17.4","","76","","","","33","","9","","24.1","","101.31","","","","-20","","NA"
"-115.78","60.84","HAY RIVER A","2202401","2021-04-11 19:00","2021","04","11","19:00","-14.6","","-17.7","","78","","","","36","","2","","24.1","","101.35","","","","-16","","NA"
"-115.78","60.84","HAY RIVER A","2202401","2021-04-11 20:00","2021","04","11","20:00","-16.5","","-19.0","","82","","","","36","","3","","24.1","","101.41","","","","-19","","Mainly Clear"
"-115.78","60.84","HAY RIVER A","2202401","2021-04-11 21:00","2021","04","11","21:00","-19.1","","-21.0","","86","","","","14","","3","","24.1","","101.44","","","","-22","","NA"
"-115.78","60.84","HAY RIVER A","2202401","2021-04-11 22:00","2021","04","11","22:00","-19.9","","-21.9","","85","","","","13","","4","","24.1","","101.49","","","","-23","","NA"
"-115.78","60.84","HAY RIVER A","2202401","2021-04-11 23:00","2021","04","11","23:00","-21.5","","-23.8","","82","","","","17","","5","","24.1","","101.54","","","","-26","","Clear"
"-115.78","60.84","HAY RIVER A","2202401","2021-04-12 00:00","2021","04","12","00:00","-22.4","","-24.9","","81","","","","14","","3","","24.1","","101.56","","","","-25","","NA"
"-115.78","60.84","HAY RIVER A","2202401","2021-04-12 01:00","2021","04","12","01:00","-23.2","","-25.9","","79","","","","13","","4","","24.1","","101.58","","","","-27","","NA"
"-115.78","60.84","HAY RIVER A","2202401","2021-04-12 02:00","2021","04","12","02:00","-21.5","","-23.6","","83","","","","14","","9","","24.1","","101.60","","","","-29","","Clear"
"-115.78","60.84","HAY RIVER A","2202401","2021-04-12 03:00","2021","04","12","03:00","-21.3","","-23.4","","83","","","","15","","9","","24.1","","101.60","","","","-28","","NA"
"-115.78","60.84","HAY RIVER A","2202401","2021-04-12 04:00","2021","04","12","04:00","-21.3","","-23.5","","82","","","","15","","7","","24.1","","101.62","","","","-27","","NA"
"-115.78","60.84","HAY RIVER A","2202401","2021-04-12 05:00","2021","04","12","05:00","-21.2","","-23.9","","79","","","","15","","11","","24.1","","101.63","","","","-29","","Clear"
"-115.78","60.84","HAY RIVER A","2202401","2021-04-12 06:00","2021","04","12","06:00","-20.8","","-23.6","","78","","","","16","","17","","24.1","","101.62","","","","-31","","NA"
"-115.78","60.84","HAY RIVER A","2202401","2021-04-12 07:00","2021","04","12","07:00","-18.5","","-21.1","","80","","","","16","","16","","24.1","","101.60","","","","-28","","NA"
"-115.78","60.84","HAY RIVER A","2202401","2021-04-12 08:00","2021","04","12","08:00","-14.0","","-17.5","","75","","","","16","","17","","24.1","","101.54","","","","-22","","Clear"
"-115.78","60.84","HAY RIVER A","2202401","2021-04-12 09:00","2021","04","12","09:00","-8.9","","-17.8","","49","","","","18","","30","","24.1","","101.44","","","","-18","","Blowing Snow"
"-115.78","60.84","HAY RIVER A","2202401","2021-04-12 10:00","2021","04","12","10:00","-6.9","","-16.4","","47","","","","18","","28","","24.1","","101.37","","","","-15","","Blowing Snow"
"-115.78","60.84","HAY RIVER A","2202401","2021-04-12 11:00","2021","04","12","11:00","-5.1","","-15.5","","44","","","","18","","34","","24.1","","101.27","","","","-14","","Mainly Clear"
"-115.78","60.84","HAY RIVER A","2202401","2021-04-12 12:00","2021","04","12","12:00","-3.4","","-14.8","","41","","","","18","","39","","24.1","","101.21","","","","-12","","Blowing Snow"
"-115.78","60.84","HAY RIVER A","2202401","2021-04-12 13:00","2021","04","12","13:00","-0.5","","-13.0","","39","","","","18","","33","","24.1","","101.14","","","","-7","","NA"
"-115.78","60.84","HAY RIVER A","2202401","2021-04-12 14:00","2021","04","12","14:00","0.9","","-10.9","","41","","","","18","","38","","24.1","","101.08","","","","","","Mainly Clear"
"-115.78","60.84","HAY RIVER A","2202401","2021-04-12 15:00","2021","04","12","15:00","2.4","","-10.8","","37","","","","18","","31","","24.1","","101.02","","","","","","NA"
"-115.78","60.84","HAY RIVER A","2202401","2021-04-12 16:00","2021","04","12","16:00","3.1","","-9.8","","38","","","","18","","32","","24.1","","100.96","","","","","","NA"
"-115.78","60.84","HAY RIVER A","2202401","2021-04-12 17:00","2021","04","12","17:00","4.0","","-9.8","","36","","","","18","","32","","24.1","","100.88","","","","","","Mainly Clear"
"-115.78","60.84","HAY RIVER A","2202401","2021-04-12 18:00","2021","04","12","18:00","3.7","","-9.8","","37","","","","19","","33","","24.1","","100.84","","","","","","NA"
"-115.78","60.84","HAY RIVER A","2202401","2021-04-12 19:00","2021","04","12","19:00","2.6","","-9.0","","42","","","","18","","23","","24.1","","100.80","","","","","","NA"
"-115.78","60.84","HAY RIVER A","2202401","2021-04-12 20:00","2021","04","12","20:00","1.9","","-9.1","","44","","","","18","","23","","24.1","","100.77","","","","","","Mainly Clear"
"-115.78","60.84","HAY RIVER A","2202401","2021-04-12 21:00","2021","04","12","21:00","1.8","","-8.9","","45","","","","18","","24","","24.1","","100.75","","","","","","NA"
"-115.78","60.84","HAY RIVER A","2202401","2021-04-12 22:00","2021","04","12","22:00","1.3","","-8.7","","48","","","","18","","20","","24.1","","100.72","","","","","","NA"
"-115.78","60.84","HAY RIVER A","2202401","2021-04-12 23:00","2021","04","12","23:00","0.3","","-8.8","","51","","","","18","","21","","24.1","","100.70","","","","","","Mostly Cloudy"
"-115.78","60.84","HAY RIVER A","2202401","2021-04-13 00:00","2021","04","13","00:00","0.6","","-8.9","","49","","","","18","","24","","24.1","","100.65","","","","","","NA"
"-115.78","60.84","HAY RIVER A","2202401","2021-04-13 01:00","2021","04","13","01:00","-0.5","","-9.0","","53","","","","18","","19","","24.1","","100.64","","","","-6","","NA"
"-115.78","60.84","HAY RIVER A","2202401","2021-04-13 02:00","2021","04","13","02:00","0.0","","-8.4","","53","","","","18","","21","","24.1","","100.58","","","","-5","","Mostly Cloudy"
"-115.78","60.84","HAY RIVER A","2202401","2021-04-13 03:00","2021","04","13","03:00","0.2","","-7.9","","55","","","","19","","20","","24.1","","100.55","","","","","","NA"
"-115.78","60.84","HAY RIVER A","2202401","2021-04-13 04:00","2021","04","13","04:00","0.9","","-7.7","","53","","","","20","","22","","24.1","","100.51","","","","","","NA"
"-115.78","60.84","HAY RIVER A","2202401","2021-04-13 05:00","2021","04","13","05:00","0.9","","-7.7","","53","","","","19","","22","","24.1","","100.49","","","","","","Mostly Cloudy"
"-115.78","60.84","HAY RIVER A","2202401","2021-04-13 06:00","2021","04","13","06:00","0.6","","-7.2","","56","","","","19","","19","","24.1","","100.46","","","","","","NA"
"-115.78","60.84","HAY RIVER A","2202401","2021-04-13 07:00","2021","04","13","07:00","1.7","","-7.4","","51","","","","20","","22","","24.1","","100.43","","","","","","NA"
"-115.78","60.84","HAY RIVER A","2202401","2021-04-13 08:00","2021","04","13","08:00","2.1","","-7.0","","51","","","","19","","20","","24.1","","100.42","","","","","","Cloudy"
"-115.78","60.84","HAY RIVER A","2202401","2021-04-13 09:00","2021","04","13","09:00","3.0","","-6.8","","49","","","","18","","23","","24.1","","100.42","","","","","","NA"
"-115.78","60.84","HAY RIVER A","2202401","2021-04-13 10:00","2021","04","13","10:00","3.7","","-6.0","","49","","","","18","","23","","24.1","","100.38","","","","","","NA"
"-115.78","60.84","HAY RIVER A","2202401","2021-04-13 11:00","2021","04","13","11:00","4.8","","-5.7","","47","","","","18","","26","","24.1","","100.33","","","","","","Mostly Cloudy"
"-115.78","60.84","HAY RIVER A","2202401","2021-04-13 12:00","2021","04","13","12:00","5.1","","-4.7","","49","","","","18","","21","","24.1","","100.34","","","","","","NA"
"-115.78","60.84","HAY RIVER A","2202401","2021-04-13 13:00","2021","04","13","13:00","5.3","","-4.8","","48","","","","18","","23","","24.1","","100.33","","","","","","NA"
"-115.78","60.84","HAY RIVER A","2202401","2021-04-13 14:00","2021","04","13","14:00","6.0","","-4.8","","46","","","","18","","17","","24.1","","100.30","","","","","","Mostly Cloudy"
"-115.78","60.84","HAY RIVER A","2202401","2021-04-13 15:00","2021","04","13","15:00","7.2","","-4.6","","43","","","","20","","14","","24.1","","100.30","","","","","","NA"
"-115.78","60.84","HAY RIVER A","2202401","2021-04-13 16:00","2021","04","13","16:00","8.4","","-4.6","","39","","","","22","","15","","24.1","","100.32","","","","","","NA"
"-115.78","60.84","HAY RIVER A","2202401","2021-04-13 17:00","2021","04","13","17:00","8.5","","-4.5","","40","","","","20","","20","","24.1","","100.29","","","","","","Mostly Cloudy"
"-115.78","60.84","HAY RIVER A","2202401","2021-04-13 18:00","2021","04","13","18:00","7.8","","-4.1","","43","","","","20","","13","","24.1","","100.29","","","","","","NA"
"-115.78","60.84","HAY RIVER A","2202401","2021-04-13 19:00","2021","04","13","19:00","7.1","","-3.6","","46","","","","21","","11","","24.1","","100.28","","","","","","NA"
"-115.78","60.84","HAY RIVER A","2202401","2021-04-13 20:00","2021","04","13","20:00","6.5","","-4.1","","47","","","","21","","11","","24.1","","100.29","","","","","","Mostly Cloudy"
"-115.78","60.84","HAY RIVER A","2202401","2021-04-13 21:00","2021","04","13","21:00","4.6","","-3.3","","56","","","","19","","10","","24.1","","100.29","","","","","","NA"
"-115.78","60.84","HAY RIVER A","2202401","2021-04-13 22:00","2021","04","13","22:00","4.9","","-4.0","","53","","","","20","","10","","24.1","","100.29","","","","","","NA"
"-115.78","60.84","HAY RIVER A","2202401","2021-04-13 23:00","2021","04","13","23:00","5.3","","-4.0","","51","","","","19","","11","","24.1","","100.28","","","","","","Mostly Cloudy"
"-115.78","60.84","HAY RIVER A","2202401","2021-04-14 00:00","2021","04","14","00:00","5.5","","-3.6","","52","","","","20","","15","","24.1","","100.28","","","","","","NA"
"-115.78","60.84","HAY RIVER A","2202401","2021-04-14 01:00","2021","04","14","01:00","3.8","","-2.8","","62","","","","31","","7","","24.1","","100.31","","","","","","NA"
"-115.78","60.84","HAY RIVER A","2202401","2021-04-14 02:00","2021","04","14","02:00","1.4","","-2.3","","76","","","","26","","5","","24.1","","100.35","","","","","","Mostly Cloudy"
"-115.78","60.84","HAY RIVER A","2202401","2021-04-14 03:00","2021","04","14","03:00","1.5","","-3.5","","69","","","","33","","7","","24.1","","100.41","","","","","","NA"
"-115.78","60.84","HAY RIVER A","2202401","2021-04-14 04:00","2021","04","14","04:00","-0.1","","-2.9","","82","","","","30","","7","","24.1","","100.44","","","","-3","","NA"
"-115.78","60.84","HAY RIVER A","2202401","2021-04-14 05:00","2021","04","14","05:00","-0.5","","-3.2","","82","","","","33","","7","","24.1","","100.52","","","","-3","","Mostly Cloudy"
"-115.78","60.84","HAY RIVER A","2202401","2021-04-14 06:00","2021","04","14","06:00","-2.3","","-5.2","","81","","","","32","","7","","24.1","","100.57","","","","-5","","NA"
"-115.78","60.84","HAY RIVER A","2202401","2021-04-14 07:00","2021","04","14","07:00","-0.8","","-5.3","","71","","","","33","","18","","24.1","","100.66","","","","-6","","NA"
"-115.78","60.84","HAY RIVER A","2202401","2021-04-14 08:00","2021","04","14","08:00","-0.3","","-5.8","","66","","","","32","","6","","24.1","","100.71","","","","-2","","Mainly Clear"
"-115.78","60.84","HAY RIVER A","2202401","2021-04-14 09:00","2021","04","14","09:00","1.5","","-5.8","","58","","","","32","","8","","24.1","","100.78","","","","","","NA"
"-115.78","60.84","HAY RIVER A","2202401","2021-04-14 10:00","2021","04","14","10:00","1.5","","-6.3","","56","","","","33","","11","","24.1","","100.85","","","","","","NA"
"-115.78","60.84","HAY RIVER A","2202401","2021-04-14 11:00","2021","04","14","11:00","1.8","","-4.5","","63","","","","32","","9","","24.1","","100.88","","","","","","Clear"
"-115.78","60.84","HAY RIVER A","2202401","2021-04-14 12:00","2021","04","14","12:00","2.7","","-5.3","","56","","","","31","","10","","24.1","","100.90","","","","","","NA"
"-115.78","60.84","HAY RIVER A","2202401","2021-04-14 13:00","2021","04","14","13:00","2.8","","-4.1","","60","","","","31","","11","","24.1","","100.90","","","","","","NA"
"-115.78","60.84","HAY RIVER A","2202401","2021-04-14 14:00","2021","04","14","14:00","3.2","","-5.7","","52","","","","32","","12","","24.1","","100.91","","","","","","Mainly Clear"
"-115.78","60.84","HAY RIVER A","2202401","2021-04-14 15:00","2021","04","14","15:00","6.0","","-7.0","","39","","","","7","","8","","24.1","","100.91","","","","","","NA"
"-115.78","60.84","HAY RIVER A","2202401","2021-04-14 16:00","2021","04","14","16:00","6.1","","-7.8","","36","","","","7","","10","","24.1","","100.90","","","","","","NA"
"-115.78","60.84","HAY RIVER A","2202401","2021-04-14 17:00","2021","04","14","17:00","4.5","","-4.3","","53","","","","8","","14","","24.1","","100.87","","","","","","Clear"
"-115.78","60.84","HAY RIVER A","2202401","2021-04-14 18:00","2021","04","14","18:00","4.6","","-4.7","","51","","","","8","","13","","24.1","","100.84","","","","","","NA"
"-115.78","60.84","HAY RIVER A","2202401","2021-04-14 19:00","2021","04","14","19:00","4.5","","-7.3","","42","","","","7","","10","","24.1","","100.82","","","","","","NA"
"-115.78","60.84","HAY RIVER A","2202401","2021-04-14 20:00","2021","04","14","20:00","1.9","","-6.7","","53","","","","9","","11","","24.1","","100.82","","","","","","Clear"
"-115.78","60.84","HAY RIVER A","2202401","2021-04-14 21:00","2021","04","14","21:00","1.4","","-7.9","","50","","","","8","","10","","24.1","","100.81","","","","","","NA"
"-115.78","60.84","HAY RIVER A","2202401","2021-04-14 22:00","2021","04","14","22:00","-0.7","","-6.2","","66","","","","10","","7","","24.1","","100.78","","","","-3","","NA"
"-115.78","60.84","HAY RIVER A","2202401","2021-04-14 23:00","2021","04","14","23:00","-1.4","","-6.9","","67","","","","12","","5","","24.1","","100.75","","","","-3","","Mainly Clear"
"-115.78","60.84","HAY RIVER A","2202401","2021-04-15 00:00","2021","04","15","00:00","-1.3","","-6.9","","66","","","","12","","7","","24.1","","100.72","","","","-4","","NA"
"-115.78","60.84","HAY RIVER A","2202401","2021-04-15 01:00","2021","04","15","01:00","-1.1","","-7.8","","61","","","","15","","4","","24.1","","100.68","","","","-2","","NA"
"-115.78","60.84","HAY RIVER A","2202401","2021-04-15 02:00","2021","04","15","02:00","-0.9","","-8.0","","59","","","","13","","8","","24.1","","100.66","","","","-4","","Mainly Clear"
"-115.78","60.84","HAY RIVER A","2202401","2021-04-15 03:00","2021","04","15","03:00","-1.8","","-8.1","","62","","","","12","","10","","24.1","","100.61","","","","-5","","NA"
"-115.78","60.84","HAY RIVER A","2202401","2021-04-15 04:00","2021","04","15","04:00","-2.2","","-8.2","","64","","","","12","","9","","24.1","","100.55","","","","-6","","NA"
"-115.78","60.84","HAY RIVER A","2202401","2021-04-15 05:00","2021","04","15","05:00","-1.7","","-8.0","","63","","","","14","","9","","24.1","","100.54","","","","-5","","Mainly Clear"
"-115.78","60.84","HAY RIVER A","2202401","2021-04-15 06:00","2021","04","15","06:00","-1.8","","-6.7","","69","","","","16","","10","","24.1","","100.52","","","","-5","","NA"
"-115.78","60.84","HAY RIVER A","2202401","2021-04-15 07:00","2021","04","15","07:00","-1.3","","-5.7","","72","","","","17","","11","","24.1","","100.51","","","","-5","","NA"
"-115.78","60.84","HAY RIVER A","2202401","2021-04-15 08:00","2021","04","15","08:00","2.7","","-4.0","","62","","","","17","","11","","24.1","","100.49","","","","","","Mainly Clear"
"-115.78","60.84","HAY RIVER A","2202401","2021-04-15 09:00","2021","04","15","09:00","6.4","","-2.7","","52","","","","17","","10","","24.1","","100.48","","","","","","NA"
"-115.78","60.84","HAY RIVER A","2202401","2021-04-15 10:00","2021","04","15","10:00","7.8","","-2.3","","49","","","","18","","17","","24.1","","100.44","","","","","","NA"
"-115.78","60.84","HAY RIVER A","2202401","2021-04-15 11:00","2021","04","15","11:00","9.6","","-2.3","","43","","","","18","","17","","24.1","","100.39","","","","","","Mainly Clear"
"-115.78","60.84","HAY RIVER A","2202401","2021-04-15 12:00","2021","04","15","12:00","10.8","","-2.1","","40","","","","18","","19","","24.1","","100.35","","","","","","NA"
"-115.78","60.84","HAY RIVER A","2202401","2021-04-15 13:00","2021","04","15","13:00","11.6","","-2.8","","37","","","","18","","24","","24.1","","100.31","","","","","","NA"
"-115.78","60.84","HAY RIVER A","2202401","2021-04-15 14:00","2021","04","15","14:00","11.8","","-1.9","","38","","","","18","","19","","24.1","","100.31","","","","","","Mainly Clear"
"-115.78","60.84","HAY RIVER A","2202401","2021-04-15 15:00","2021","04","15","15:00","13.0","","-1.9","","35","","","","18","","19","","24.1","","100.30","","","","","","NA"
"-115.78","60.84","HAY RIVER A","2202401","2021-04-15 16:00","2021","04","15","16:00","12.6","","-1.8","","36","","","","23","","8","","24.1","","100.32","","","","","","NA"
"-115.78","60.84","HAY RIVER A","2202401","2021-04-15 17:00","2021","04","15","17:00","15.4","","-2.6","","29","","","","21","","6","","24.1","","100.31","","","","","","Mainly Clear"
"-115.78","60.84","HAY RIVER A","2202401","2021-04-15 18:00","2021","04","15","18:00","12.9","","-2.0","","35","","","","36","","3","","24.1","","100.30","","","","","","NA"
"-115.78","60.84","HAY RIVER A","2202401","2021-04-15 19:00","2021","04","15","19:00","6.0","","-1.8","","57","","","","3","","11","","24.1","","100.37","","","","","","NA"
"-115.78","60.84","HAY RIVER A","2202401","2021-04-15 20:00","2021","04","15","20:00","4.1","","-1.9","","65","","","","3","","3","","24.1","","100.40","","","","","","Mostly Cloudy"
"-115.78","60.84","HAY RIVER A","2202401","2021-04-15 21:00","2021","04","15","21:00","2.0","","-2.2","","74","","","","3","","4","","24.1","","100.45","","","","","","NA"
"-115.78","60.84","HAY RIVER A","2202401","2021-04-15 22:00","2021","04","15","22:00","0.2","","-3.2","","78","","","","26","","3","","24.1","","100.49","","","","","","NA"
"-115.78","60.84","HAY RIVER A","2202401","2021-04-15 23:00","2021","04","15","23:00","-0.9","","-2.9","","86","","","","32","","5","","24.1","","100.54","","","","-3","","Mainly Clear"
"-115.78","60.84","HAY RIVER A","2202401","2021-04-16 00:00","2021","04","16","00:00","-1.0","","-3.9","","81","","","","29","","6","","24.1","","100.59","","","","-3","","NA"
"-115.78","60.84","HAY RIVER A","2202401","2021-04-16 01:00","2021","04","16","01:00","-1.6","","-3.5","","87","","","","29","","5","","24.1","","100.66","","","","-3","","NA"
"-115.78","60.84","HAY RIVER A","2202401","2021-04-16 02:00","2021","04","16","02:00","-2.9","","-4.7","","87","","","","24","","7","","24.1","","100.67","","","","-6","","Clear"
"-115.78","60.84","HAY RIVER A","2202401","2021-04-16 03:00","2021","04","16","03:00","-2.7","","-4.7","","87","","","","25","","4","","24.1","","100.71","","","","-4","","NA"
"-115.78","60.84","HAY RIVER A","2202401","2021-04-16 04:00","2021","04","16","04:00","-1.7","","-3.7","","86","","","","33","","8","","24.1","","100.74","","","","-5","","NA"
"-115.78","60.84","HAY RIVER A","2202401","2021-04-16 05:00","2021","04","16","05:00","-3.6","","-5.3","","88","","","","36","","3","","24.1","","100.77","","","","-5","","Mainly Clear"
"-115.78","60.84","HAY RIVER A","2202401","2021-04-16 06:00","2021","04","16","06:00","-3.7","","-5.5","","87","","","","36","","3","","24.1","","100.81","","","","-5","","NA"
"-115.78","60.84","HAY RIVER A","2202401","2021-04-16 07:00","2021","04","16","07:00","-2.5","","-5.2","","82","","","","25","","3","","24.1","","100.83","","","","-4","","NA"
"-115.78","60.84","HAY RIVER A","2202401","2021-04-16 08:00","2021","04","16","08:00","-0.7","","-4.1","","78","","","","31","","8","","24.1","","100.87","","","","-4","","Mainly Clear"
"-115.78","60.84","HAY RIVER A","2202401","2021-04-16 09:00","2021","04","16","09:00","2.1","","-3.5","","66","","","","30","","5","","24.1","","100.92","","","","","","NA"
"-115.78","60.84","HAY RIVER A","2202401","2021-04-16 10:00","2021","04","16","10:00","1.4","","-2.7","","74","","","","31","","7","","24.1","","100.96","","","","","","NA"
"-115.78","60.84","HAY RIVER A","2202401","2021-04-16 11:00","2021","04","16","11:00","3.0","","-2.9","","65","","","","33","","12","","24.1","","100.95","","","","","","Mostly Cloudy"
"-115.78","60.84","HAY RIVER A","2202401","2021-04-16 12:00","2021","04","16","12:00","4.4","","-3.7","","56","","","","32","","10","","24.1","","100.91","","","","","","NA"
"-115.78","60.84","HAY RIVER A","2202401","2021-04-16 13:00","2021","04","16","13:00","6.6","","-4.0","","47","","","","33","","8","","24.1","","100.90","","","","","","NA"
"-115.78","60.84","HAY RIVER A","2202401","2021-04-16 14:00","2021","04","16","14:00","7.3","","-3.8","","45","","","","33","","10","","24.1","","100.92","","","","","","Mostly Cloudy"
"-115.78","60.84","HAY RIVER A","2202401","2021-04-16 15:00","2021","04","16","15:00","5.9","","-3.4","","51","","","","32","","9","","24.1","","100.93","","","","","","NA"
"-115.78","60.84","HAY RIVER A","2202401","2021-04-16 16:00","2021","04","16","16:00","8.2","","-3.9","","42","","","","31","","9","","24.1","","100.90","","","","","","NA"
"-115.78","60.84","HAY RIVER A","2202401","2021-04-16 17:00","2021","04","16","17:00","8.4","","-3.6","","42","","","","32","","9","","24.1","","100.91","","","","","","Mostly Cloudy"
"-115.78","60.84","HAY RIVER A","2202401","2021-04-16 18:00","2021","04","16","18:00","7.9","","-3.6","","44","","","","32","","7","","24.1","","100.89","","","","","","NA"
"-115.78","60.84","HAY RIVER A","2202401","2021-04-16 19:00","2021","04","16","19:00","6.9","","-3.3","","48","","","","33","","7","","24.1","","100.89","","","","","","NA"
"-115.78","60.84","HAY RIVER A","2202401","2021-04-16 20:00","2021","04","16","20:00","5.7","","-3.6","","51","","","","1","","5","","24.1","","100.90","","","","","","Mostly Cloudy"
"-115.78","60.84","HAY RIVER A","2202401","2021-04-16 21:00","2021","04","16","21:00","3.6","","-4.1","","57","","","","36","","1","","24.1","","100.89","","","","","","NA"
"-115.78","60.84","HAY RIVER A","2202401","2021-04-16 22:00","2021","04","16","22:00","2.4","","-3.3","","66","","","","32","","3","","24.1","","100.90","","","","","","NA"
"-115.78","60.84","HAY RIVER A","2202401","2021-04-16 23:00","2021","04","16","23:00","1.8","","-1.7","","78","","","","16","","4","","24.1","","100.87","","","","","","Mostly Cloudy"
"-115.78","60.84","HAY RIVER A","2202401","2021-04-17 00:00","2021","04","17","00:00","1.2","","-2.1","","79","","","","36","","1","","24.1","","100.90","","","","","","NA"
"-115.78","60.84","HAY RIVER A","2202401","2021-04-17 01:00","2021","04","17","01:00","2.1","","-3.1","","68","","","","36","","2","","24.1","","100.92","","","","","","NA"
"-115.78","60.84","HAY RIVER A","2202401","2021-04-17 02:00","2021","04","17","02:00","2.0","","-2.2","","74","","","","36","","2","","24.1","","100.95","","","","","","Mostly Cloudy"
"-115.78","60.84","HAY RIVER A","2202401","2021-04-17 03:00","2021","04","17","03:00","2.3","","-2.2","","73","","","","1","","5","","24.1","","101.02","","","","","","NA"
"-115.78","60.84","HAY RIVER A","2202401","2021-04-17 04:00","2021","04","17","04:00","1.8","","-1.9","","77","","","","8","","4","","24.1","","101.05","","","","","","NA"
"-115.78","60.84","HAY RIVER A","2202401","2021-04-17 05:00","2021","04","17","05:00","0.4","","-0.5","","94","","","","30","","5","","24.1","","101.07","","","","","","Rain"
"-115.78","60.84","HAY RIVER A","2202401","2021-04-17 06:00","2021","04","17","06:00","0.6","","-0.2","","95","","","","34","","5","","24.1","","101.08","","","","","","Rain"
"-115.78","60.84","HAY RIVER A","2202401","2021-04-17 07:00","2021","04","17","07:00","-0.3","","-1.6","","91","","","","7","","10","","24.1","","101.15","","","","-4","","NA"
"-115.78","60.84","HAY RIVER A","2202401","2021-04-17 08:00","2021","04","17","08:00","-0.1","","-1.5","","91","","","","4","","5","","24.1","","101.21","","","","-2","","Mostly Cloudy"
"-115.78","60.84","HAY RIVER A","2202401","2021-04-17 09:00","2021","04","17","09:00","-0.7","","-2.8","","86","","","","8","","14","","24.1","","101.27","","","","-5","","NA"
"-115.78","60.84","HAY RIVER A","2202401","2021-04-17 10:00","2021","04","17","10:00","0.4","","-3.6","","74","","","","8","","9","","24.1","","101.28","","","","","","NA"
"-115.78","60.84","HAY RIVER A","2202401","2021-04-17 11:00","2021","04","17","11:00","1.5","","-3.2","","71","","","","7","","8","","24.1","","101.33","","","","","","Mainly Clear"
"-115.78","60.84","HAY RIVER A","2202401","2021-04-17 12:00","2021","04","17","12:00","0.6","","-3.4","","75","","","","35","","10","","24.1","","101.39","","","","","","NA"
"-115.78","60.84","HAY RIVER A","2202401","2021-04-17 13:00","2021","04","17","13:00","1.6","","-3.5","","69","","","","2","","7","","24.1","","101.42","","","","","","NA"
"-115.78","60.84","HAY RIVER A","2202401","2021-04-17 14:00","2021","04","17","14:00","0.5","","-2.8","","79","","","","32","","9","","24.1","","101.42","","","","","","Mainly Clear"
"-115.78","60.84","HAY RIVER A","2202401","2021-04-17 15:00","2021","04","17","15:00","4.5","","-4.0","","54","","","","32","","5","","24.1","","101.41","","","","","","NA"
"-115.78","60.84","HAY RIVER A","2202401","2021-04-17 16:00","2021","04","17","16:00","5.4","","-4.1","","50","","","","32","","7","","24.1","","101.38","","","","","","NA"
"-115.78","60.84","HAY RIVER A","2202401","2021-04-17 17:00","2021","04","17","17:00","5.9","","-4.2","","48","","","","30","","11","","24.1","","101.33","","","","","","Mostly Cloudy"
"-115.78","60.84","HAY RIVER A","2202401","2021-04-17 18:00","2021","04","17","18:00","5.4","","-5.2","","46","","","","33","","11","","24.1","","101.35","","","","","","NA"
"-115.78","60.84","HAY RIVER A","2202401","2021-04-17 19:00","2021","04","17","19:00","3.2","","-2.0","","69","","","","33","","12","","24.1","","101.37","","","","","","NA"
"-115.78","60.84","HAY RIVER A","2202401","2021-04-17 20:00","2021","04","17","20:00","2.1","","-1.5","","77","","","","31","","6","","24.1","","101.39","","","","","","Mostly Cloudy"
"-115.78","60.84","HAY RIVER A","2202401","2021-04-17 21:00","2021","04","17","21:00","1.8","","-2.2","","74","","","","35","","13","","24.1","","101.47","","","","","","NA"
"-115.78","60.84","HAY RIVER A","2202401","2021-04-17 22:00","2021","04","17","22:00","1.3","","-1.6","","81","","","","35","","9","","24.1","","101.54","","","","","","NA"
"-115.78","60.84","HAY RIVER A","2202401","2021-04-17 23:00","2021","04","17","23:00","0.8","","-1.7","","83","","","","34","","8","","24.1","","101.63","","","","","","Mostly Cloudy"
"-115.78","60.84","HAY RIVER A","2202401","2021-04-18 00:00","2021","04","18","00:00","0.0","","-2.8","","81","","","","3","","8","","24.1","","101.68","","","","-3","","NA"
"-115.78","60.84","HAY RIVER A","2202401","2021-04-18 01:00","2021","04","18","01:00","-1.6","","-4.2","","83","","","","1","","5","","24.1","","101.74","","","","-3","","NA"
"-115.78","60.84","HAY RIVER A","2202401","2021-04-18 02:00","2021","04","18","02:00","-2.5","","-4.7","","84","","","","35","","7","","24.1","","101.79","","","","-5","","Mainly Clear"
"-115.78","60.84","HAY RIVER A","2202401","2021-04-18 03:00","2021","04","18","03:00","-3.5","","-5.6","","85","","","","32","","4","","24.1","","101.82","","","","-5","","NA"
"-115.78","60.84","HAY RIVER A","2202401","2021-04-18 04:00","2021","04","18","04:00","-4.0","","-5.5","","89","","","","28","","5","","24.1","","101.83","","","","-6","","NA"
"-115.78","60.84","HAY RIVER A","2202401","2021-04-18 05:00","2021","04","18","05:00","-4.4","","-5.8","","90","","","","24","","6","","24.1","","101.84","","","","-7","","Mostly Cloudy"
"-115.78","60.84","HAY RIVER A","2202401","2021-04-18 06:00","2021","04","18","06:00","-3.7","","-5.1","","90","","","","24","","9","","24.1","","101.82","","","","-7","","NA"
"-115.78","60.84","HAY RIVER A","2202401","2021-04-18 07:00","2021","04","18","07:00","-2.6","","-4.7","","85","","","","24","","10","","24.1","","101.80","","","","-6","","NA"
"-115.78","60.84","HAY RIVER A","2202401","2021-04-18 08:00","2021","04","18","08:00","0.1","","-3.7","","76","","","","24","","17","","24.1","","101.79","","","","","","Mostly Cloudy"
"-115.78","60.84","HAY RIVER A","2202401","2021-04-18 09:00","2021","04","18","09:00","3.0","","-4.1","","60","","","","26","","17","","24.1","","101.73","","","","","","NA"
"-115.78","60.84","HAY RIVER A","2202401","2021-04-18 10:00","2021","04","18","10:00","4.2","","-4.2","","55","","","","29","","21","","24.1","","101.69","","","","","","NA"
"-115.78","60.84","HAY RIVER A","2202401","2021-04-18 11:00","2021","04","18","11:00","4.2","","-3.7","","56","","","","30","","21","","24.1","","101.67","","","","","","Mainly Clear"
"-115.78","60.84","HAY RIVER A","2202401","2021-04-18 12:00","2021","04","18","12:00","4.4","","-3.3","","57","","","","31","","20","","24.1","","101.67","","","","","","NA"
"-115.78","60.84","HAY RIVER A","2202401","2021-04-18 13:00","2021","04","18","13:00","4.9","","-3.1","","56","","","","31","","17","","24.1","","101.66","","","","","","NA"
"-115.78","60.84","HAY RIVER A","2202401","2021-04-18 14:00","2021","04","18","14:00","5.7","","-3.4","","52","","","","30","","15","","24.1","","101.62","","","","","","Mostly Cloudy"
"-115.78","60.84","HAY RIVER A","2202401","2021-04-18 15:00","2021","04","18","15:00","6.0","","-2.9","","53","","","","32","","13","","24.1","","101.59","","","","","","NA"
"-115.78","60.84","HAY RIVER A","2202401","2021-04-18 16:00","2021","04","18","16:00","6.5","","-3.2","","50","","","","33","","12","","24.1","","101.54","","","","","","NA"
"-115.78","60.84","HAY RIVER A","2202401","2021-04-18 17:00","2021","04","18","17:00","7.0","","-3.5","","47","","","","35","","7","","24.1","","101.51","","","","","","Mainly Clear"
"-115.78","60.84","HAY RIVER A","2202401","2021-04-18 18:00","2021","04","18","18:00","4.6","","-1.9","","63","","","","8","","16","","24.1","","101.45","","","","","","NA"
"-115.78","60.84","HAY RIVER A","2202401","2021-04-18 19:00","2021","04","18","19:00","3.5","","-2.6","","64","","","","8","","13","","24.1","","101.44","","","","","","NA"
"-115.78","60.84","HAY RIVER A","2202401","2021-04-18 20:00","2021","04","18","20:00","2.9","","-3.7","","62","","","","7","","5","","24.1","","101.44","","","","","","Mainly Clear"
"-115.78","60.84","HAY RIVER A","2202401","2021-04-18 21:00","2021","04","18","21:00","1.6","","-3.8","","68","","","","36","","2","","24.1","","101.44","","","","","","NA"
"-115.78","60.84","HAY RIVER A","2202401","2021-04-18 22:00","2021","04","18","22:00","-0.4","","-4.2","","76","","","","36","","3","","24.1","","101.44","","","","-1","","NA"
"-115.78","60.84","HAY RIVER A","2202401","2021-04-18 23:00","2021","04","18","23:00","-1.6","","-4.2","","82","","","","15","","3","","24.1","","101.44","","","","-3","","Mainly Clear"
"-115.78","60.84","HAY RIVER A","2202401","2021-04-19 00:00","2021","04","19","00:00","-3.0","","-4.8","","87","","","","36","","1","","24.1","","101.42","","","","-3","","NA"
"-115.78","60.84","HAY RIVER A","2202401","2021-04-19 01:00","2021","04","19","01:00","-3.4","","-5.2","","87","","","","36","","2","","24.1","","101.44","","","","-4","","NA"
"-115.78","60.84","HAY RIVER A","2202401","2021-04-19 02:00","2021","04","19","02:00","-3.3","","-4.8","","89","","","","16","","5","","24.1","","101.45","","","","-5","","Mainly Clear"
"-115.78","60.84","HAY RIVER A","2202401","2021-04-19 03:00","2021","04","19","03:00","-4.5","","-5.6","","92","","","","24","","4","","24.1","","101.46","","","","-6","","NA"
"-115.78","60.84","HAY RIVER A","2202401","2021-04-19 04:00","2021","04","19","04:00","-3.9","","-5.3","","90","","","","36","","3","","24.1","","101.45","","","","-5","","NA"
"-115.78","60.84","HAY RIVER A","2202401","2021-04-19 05:00","2021","04","19","05:00","-3.0","","-4.8","","87","","","","14","","3","","24.1","","101.45","","","","-4","","Mostly Cloudy"
"-115.78","60.84","HAY RIVER A","2202401","2021-04-19 06:00","2021","04","19","06:00","-3.4","","-5.4","","86","","","","24","","5","","24.1","","101.43","","","","-5","","NA"
"-115.78","60.84","HAY RIVER A","2202401","2021-04-19 07:00","2021","04","19","07:00","-1.3","","-4.3","","80","","","","25","","8","","24.1","","101.42","","","","-4","","NA"
"-115.78","60.84","HAY RIVER A","2202401","2021-04-19 08:00","2021","04","19","08:00","1.4","","-3.5","","70","","","","23","","5","","24.1","","101.43","","","","","","Mainly Clear"
"-115.78","60.84","HAY RIVER A","2202401","2021-04-19 09:00","2021","04","19","09:00","3.7","","-3.0","","62","","","","36","","2","","24.1","","101.40","","","","","","NA"
"-115.78","60.84","HAY RIVER A","2202401","2021-04-19 10:00","2021","04","19","10:00","2.6","","-2.5","","69","","","","32","","10","","24.1","","101.40","","","","","","NA"
"-115.78","60.84","HAY RIVER A","2202401","2021-04-19 11:00","2021","04","19","11:00","3.2","","-2.2","","68","","","","32","","9","","24.1","","101.39","","","","","","Mainly Clear"
"-115.78","60.84","HAY RIVER A","2202401","2021-04-19 12:00","2021","04","19","12:00","5.7","","-3.8","","51","","","","32","","10","","24.1","","101.35","","","","","","NA"
"-115.78","60.84","HAY RIVER A","2202401","2021-04-19 13:00","2021","04","19","13:00","6.7","","-4.7","","44","","","","32","","10","","24.1","","101.31","","","","","","NA"
"-115.78","60.84","HAY RIVER A","2202401","2021-04-19 14:00","2021","04","19","14:00","6.3","","-3.8","","48","","","","8","","13","","24.1","","101.26","","","","","","Mainly Clear"
"-115.78","60.84","HAY RIVER A","2202401","2021-04-19 15:00","2021","04","19","15:00","6.2","","-4.2","","47","","","","8","","13","","24.1","","101.18","","","","","","NA"
"-115.78","60.84","HAY RIVER A","2202401","2021-04-19 16:00","2021","04","19","16:00","6.0","","-4.0","","49","","","","8","","17","","24.1","","101.10","","","","","","NA"
"-115.78","60.84","HAY RIVER A","2202401","2021-04-19 17:00","2021","04","19","17:00","6.1","","-4.5","","46","","","","7","","11","","24.1","","101.04","","","","","","Mainly Clear"
"-115.78","60.84","HAY RIVER A","2202401","2021-04-19 18:00","2021","04","19","18:00","6.3","","-4.2","","47","","","","8","","9","","24.1","","100.96","","","","","","NA"
"-115.78","60.84","HAY RIVER A","2202401","2021-04-19 19:00","2021","04","19","19:00","7.3","","-3.7","","45","","","","16","","13","","24.1","","100.85","","","","","","NA"
"-115.78","60.84","HAY RIVER A","2202401","2021-04-19 20:00","2021","04","19","20:00","5.9","","-4.6","","47","","","","15","","13","","24.1","","100.77","","","","","","Mainly Clear"
"-115.78","60.84","HAY RIVER A","2202401","2021-04-19 21:00","2021","04","19","21:00","3.7","","-4.1","","57","","","","16","","16","","24.1","","100.72","","","","","","NA"
"-115.78","60.84","HAY RIVER A","2202401","2021-04-19 22:00","2021","04","19","22:00","2.2","","-4.4","","62","","","","17","","13","","24.1","","100.64","","","","","","NA"
"-115.78","60.84","HAY RIVER A","2202401","2021-04-19 23:00","2021","04","19","23:00","1.9","","-5.1","","60","","","","16","","13","","24.1","","100.58","","","","","","Mainly Clear"
"-115.78","60.84","HAY RIVER A","2202401","2021-04-20 00:00","2021","04","20","00:00","1.1","","-5.2","","63","","","","17","","14","","24.1","","100.47","","","","","","NA"
"-115.78","60.84","HAY RIVER A","2202401","2021-04-20 01:00","2021","04","20","01:00","1.9","","-5.3","","59","","","","18","","17","","24.1","","100.38","","","","","","NA"
"-115.78","60.84","HAY RIVER A","2202401","2021-04-20 02:00","2021","04","20","02:00","3.1","","-5.7","","52","","","","21","","14","","24.1","","100.31","","","","","","Mainly Clear"
"-115.78","60.84","HAY RIVER A","2202401","2021-04-20 03:00","2021","04","20","03:00","1.4","","-5.6","","59","","","","18","","12","","24.1","","100.23","","","","","","NA"
"-115.78","60.84","HAY RIVER A","2202401","2021-04-20 04:00","2021","04","20","04:00","0.2","","-5.6","","65","","","","18","","12","","24.1","","100.14","","","","","","NA"
"-115.78","60.84","HAY RIVER A","2202401","2021-04-20 05:00","2021","04","20","05:00","0.8","","-5.8","","62","","","","19","","13","","24.1","","100.05","","","","","","Mainly Clear"
"-115.78","60.84","HAY RIVER A","2202401","2021-04-20 06:00","2021","04","20","06:00","2.3","","-5.6","","56","","","","19","","17","","24.1","","99.93","","","","","","NA"
"-115.78","60.84","HAY RIVER A","2202401","2021-04-20 07:00","2021","04","20","07:00","4.2","","-5.2","","50","","","","19","","19","","24.1","","99.82","","","","","","NA"
"-115.78","60.84","HAY RIVER A","2202401","2021-04-20 08:00","2021","04","20","08:00","5.5","","-4.5","","48","","","","18","","16","","24.1","","99.76","","","","","","Mainly Clear"
"-115.78","60.84","HAY RIVER A","2202401","2021-04-20 09:00","2021","04","20","09:00","7.1","","-4.0","","45","","","","18","","16","","24.1","","99.68","","","","","","NA"
"-115.78","60.84","HAY RIVER A","2202401","2021-04-20 10:00","2021","04","20","10:00","8.4","","-3.4","","43","","","","17","","16","","24.1","","99.62","","","","","","NA"
"-115.78","60.84","HAY RIVER A","2202401","2021-04-20 11:00","2021","04","20","11:00","9.9","","-3.0","","40","","","","18","","15","","24.1","","99.51","","","","","","Clear"
"-115.78","60.84","HAY RIVER A","2202401","2021-04-20 12:00","2021","04","20","12:00","10.9","","-2.8","","38","","","","17","","18","","24.1","","99.45","","","","","","NA"
"-115.78","60.84","HAY RIVER A","2202401","2021-04-20 13:00","2021","04","20","13:00","12.5","","-3.0","","34","","","","19","","13","","24.1","","99.39","","","","","","NA"
"-115.78","60.84","HAY RIVER A","2202401","2021-04-20 14:00","2021","04","20","14:00","13.5","","-2.8","","32","","","","18","","16","","24.1","","99.31","","","","","","Clear"
"-115.78","60.84","HAY RIVER A","2202401","2021-04-20 15:00","2021","04","20","15:00","14.1","","-2.8","","31","","","","18","","14","","24.1","","99.27","","","","","","NA"
"-115.78","60.84","HAY RIVER A","2202401","2021-04-20 16:00","2021","04","20","16:00","15.1","","-3.1","","28","","","","27","","4","","24.1","","99.21","","","","","","NA"
"-115.78","60.84","HAY RIVER A","2202401","2021-04-20 17:00","2021","04","20","17:00","12.0","","-0.6","","42","","","","8","","13","","24.1","","99.15","","","","","","Clear"
"-115.78","60.84","HAY RIVER A","2202401","2021-04-20 18:00","2021","04","20","18:00","11.4","","-3.1","","36","","","","2","","8","","24.1","","99.15","","","","","","NA"
"-115.78","60.84","HAY RIVER A","2202401","2021-04-20 19:00","2021","04","20","19:00","10.4","","-3.7","","37","","","","2","","7","","24.1","","99.09","","","","","","NA"
"-115.78","60.84","HAY RIVER A","2202401","2021-04-20 20:00","2021","04","20","20:00","6.4","","-3.9","","48","","","","6","","7","","24.1","","99.05","","","","","","Mainly Clear"
"-115.78","60.84","HAY RIVER A","2202401","2021-04-20 21:00","2021","04","20","21:00","3.1","","-4.5","","57","","","","36","","1","","24.1","","99.02","","","","","","NA"
"-115.78","60.84","HAY RIVER A","2202401","2021-04-20 22:00","2021","04","20","22:00","0.7","","-4.3","","69","","","","36","","3","","24.1","","99.00","","","","","","NA"
"-115.78","60.84","HAY RIVER A","2202401","2021-04-20 23:00","2021","04","20","23:00","1.1","","-3.3","","73","","","","31","","6","","24.1","","99.00","","","","","","Mainly Clear"
"-115.78","60.84","HAY RIVER A","2202401","2021-04-21 00:00","2021","04","21","00:00","2.7","","-3.6","","63","","","","33","","13","","24.1","","99.00","","","","","","NA"
"-115.78","60.84","HAY RIVER A","2202401","2021-04-21 01:00","2021","04","21","01:00","2.8","","-3.9","","61","","","","36","","9","","24.1","","98.99","","","","","","NA"
"-115.78","60.84","HAY RIVER A","2202401","2021-04-21 02:00","2021","04","21","02:00","1.5","","-4.2","","66","","","","1","","8","","24.1","","99.00","","","","","","Mainly Clear"
"-115.78","60.84","HAY RIVER A","2202401","2021-04-21 03:00","2021","04","21","03:00","0.0","","-4.4","","72","","","","35","","9","","24.1","","99.01","","","","-3","","NA"
"-115.78","60.84","HAY RIVER A","2202401","2021-04-21 04:00","2021","04","21","04:00","-0.6","","-4.3","","76","","","","36","","11","","24.1","","99.11","","","","-4","","NA"
"-115.78","60.84","HAY RIVER A","2202401","2021-04-21 05:00","2021","04","21","05:00","-0.9","","-3.8","","81","","","","33","","13","","24.1","","99.22","","","","-5","","Mainly Clear"
"-115.78","60.84","HAY RIVER A","2202401","2021-04-21 06:00","2021","04","21","06:00","-0.4","","-3.0","","83","","","","35","","13","","24.1","","99.36","","","","-5","","NA"
"-115.78","60.84","HAY RIVER A","2202401","2021-04-21 07:00","2021","04","21","07:00","-0.2","","-2.9","","82","","","","35","","15","","24.1","","99.48","","","","-5","","NA"
"-115.78","60.84","HAY RIVER A","2202401","2021-04-21 08:00","2021","04","21","08:00","-1.3","","-5.0","","76","","","","1","","20","","24.1","","99.59","","","","-7","","Cloudy"
"-115.78","60.84","HAY RIVER A","2202401","2021-04-21 09:00","2021","04","21","09:00","-2.9","","-5.2","","84","","","","1","","23","","2.4","","99.73","","","","-9","","Snow"
"-115.78","60.84","HAY RIVER A","2202401","2021-04-21 10:00","2021","04","21","10:00","-3.0","","-4.7","","88","","","","1","","13","","1.6","","99.87","","","","-8","","Snow"
"-115.78","60.84","HAY RIVER A","2202401","2021-04-21 11:00","2021","04","21","11:00","-3.4","","-5.2","","87","","","","2","","16","","1.2","","99.99","","","","-9","","Snow"
"-115.78","60.84","HAY RIVER A","2202401","2021-04-21 12:00","2021","04","21","12:00","-3.9","","-6.0","","85","","","","36","","14","","1.2","","100.13","","","","-9","","Snow"
"-115.78","60.84","HAY RIVER A","2202401","2021-04-21 13:00","2021","04","21","13:00","-4.1","","-6.2","","86","","","","33","","23","","1.6","","100.24","","","","-11","","Snow"
"-115.78","60.84","HAY RIVER A","2202401","2021-04-21 14:00","2021","04","21","14:00","-4.0","","-7.5","","77","","","","33","","24","","20.9","","100.32","","","","-11","","Mostly Cloudy"
"-115.78","60.84","HAY RIVER A","2202401","2021-04-21 15:00","2021","04","21","15:00","-2.9","","-9.7","","60","","","","33","","22","","24.1","","100.39","","","","-9","","NA"
"-115.78","60.84","HAY RIVER A","2202401","2021-04-21 16:00","2021","04","21","16:00","-3.4","","-9.5","","63","","","","33","","16","","24.1","","100.43","","","","-9","","NA"
"-115.78","60.84","HAY RIVER A","2202401","2021-04-21 17:00","2021","04","21","17:00","-4.2","","-8.2","","74","","","","32","","33","","24.1","","100.45","","","","-12","","Mostly Cloudy"
"-115.78","60.84","HAY RIVER A","2202401","2021-04-21 18:00","2021","04","21","18:00","-4.8","","-10.2","","66","","","","33","","31","","24.1","","100.47","","","","-13","","NA"
"-115.78","60.84","HAY RIVER A","2202401","2021-04-21 19:00","2021","04","21","19:00","-5.4","","-10.3","","69","","","","33","","30","","24.1","","100.51","","","","-14","","NA"
"-115.78","60.84","HAY RIVER A","2202401","2021-04-21 20:00","2021","04","21","20:00","-5.7","","-9.9","","73","","","","32","","14","","24.1","","100.50","","","","-11","","Mostly Cloudy"
"-115.78","60.84","HAY RIVER A","2202401","2021-04-21 21:00","2021","04","21","21:00","-6.7","","-11.4","","70","","","","31","","13","","24.1","","100.50","","","","-12","","NA"
"-115.78","60.84","HAY RIVER A","2202401","2021-04-21 22:00","2021","04","21","22:00","-8.5","","-12.4","","74","","","","27","","5","","24.1","","100.47","","","","-11","","NA"
"-115.78","60.84","HAY RIVER A","2202401","2021-04-21 23:00","2021","04","21","23:00","-7.6","","-11.8","","72","","","","23","","9","","24.1","","100.40","","","","-12","","Mainly Clear"
"-115.78","60.84","HAY RIVER A","2202401","2021-04-22 00:00","2021","04","22","00:00","-6.6","","-11.6","","68","","","","24","","12","","24.1","","100.32","","","","-12","","NA"
"-115.78","60.84","HAY RIVER A","2202401","2021-04-22 01:00","2021","04","22","01:00","-7.4","","-12.2","","69","","","","25","","10","","24.1","","100.26","","","","-12","","NA"
"-115.78","60.84","HAY RIVER A","2202401","2021-04-22 02:00","2021","04","22","02:00","-6.7","","-11.9","","66","","","","26","","10","","24.1","","100.20","","","","-11","","Mainly Clear"
"-115.78","60.84","HAY RIVER A","2202401","2021-04-22 03:00","2021","04","22","03:00","-5.8","","-11.6","","64","","","","25","","11","","24.1","","100.13","","","","-11","","NA"
"-115.78","60.84","HAY RIVER A","2202401","2021-04-22 04:00","2021","04","22","04:00","-5.6","","-10.6","","68","","","","29","","9","","24.1","","100.09","","","","-10","","NA"
"-115.78","60.84","HAY RIVER A","2202401","2021-04-22 05:00","2021","04","22","05:00","-5.0","","-10.5","","65","","","","30","","21","","24.1","","100.09","","","","-12","","Mostly Cloudy"
"-115.78","60.84","HAY RIVER A","2202401","2021-04-22 06:00","2021","04","22","06:00","-5.2","","-11.2","","63","","","","30","","24","","24.1","","100.08","","","","-12","","NA"
"-115.78","60.84","HAY RIVER A","2202401","2021-04-22 07:00","2021","04","22","07:00","-4.3","","-10.8","","61","","","","29","","23","","24.1","","100.07","","","","-11","","NA"
"-115.78","60.84","HAY RIVER A","2202401","2021-04-22 08:00","2021","04","22","08:00","-4.2","","-10.5","","62","","","","29","","22","","24.1","","100.06","","","","-11","","Mostly Cloudy"
"-115.78","60.84","HAY RIVER A","2202401","2021-04-22 09:00","2021","04","22","09:00","-4.1","","-10.5","","62","","","","31","","35","","24.1","","100.08","","","","-12","","NA"
"-115.78","60.84","HAY RIVER A","2202401","2021-04-22 10:00","2021","04","22","10:00","-4.0","","-9.9","","64","","","","33","","22","","24.1","","100.09","","","","-11","","NA"
"-115.78","60.84","HAY RIVER A","2202401","2021-04-22 11:00","2021","04","22","11:00","-3.7","","-10.2","","61","","","","32","","31","","24.1","","100.10","","","","-11","","Mostly Cloudy"
"-115.78","60.84","HAY RIVER A","2202401","2021-04-22 12:00","2021","04","22","12:00","-3.4","","-10.7","","57","","","","33","","29","","24.1","","100.11","","","","-11","","NA"
"-115.78","60.84","HAY RIVER A","2202401","2021-04-22 13:00","2021","04","22","13:00","-2.9","","-11.2","","53","","","","34","","21","","24.1","","100.16","","","","-9","","NA"
"-115.78","60.84","HAY RIVER A","2202401","2021-04-22 14:00","2021","04","22","14:00","-3.9","","-11.9","","54","","","","36","","18","","24.1","","100.21","","","","-10","","Mostly Cloudy"
"-115.78","60.84","HAY RIVER A","2202401","2021-04-22 15:00","2021","04","22","15:00","-5.4","","-9.8","","72","","","","4","","16","","24.1","","100.29","","","","-11","","NA"
"-115.78","60.84","HAY RIVER A","2202401","2021-04-22 16:00","2021","04","22","16:00","-5.7","","-12.4","","59","","","","2","","19","","24.1","","100.34","","","","-12","","NA"
"-115.78","60.84","HAY RIVER A","2202401","2021-04-22 17:00","2021","04","22","17:00","-5.9","","-13.9","","54","","","","2","","16","","24.1","","100.37","","","","-12","","Mostly Cloudy"
"-115.78","60.84","HAY RIVER A","2202401","2021-04-22 18:00","2021","04","22","18:00","-6.3","","-14.1","","54","","","","1","","15","","24.1","","100.41","","","","-12","","NA"
"-115.78","60.84","HAY RIVER A","2202401","2021-04-22 19:00","2021","04","22","19:00","-6.5","","-13.7","","57","","","","1","","10","","24.1","","100.43","","","","-11","","NA"
"-115.78","60.84","HAY RIVER A","2202401","2021-04-22 20:00","2021","04","22","20:00","-7.6","","-14.9","","56","","","","36","","7","","24.1","","100.42","","","","-11","","Mainly Clear"
"-115.78","60.84","HAY RIVER A","2202401","2021-04-22 21:00","2021","04","22","21:00","-8.4","","-15.4","","57","","","","1","","10","","24.1","","100.46","","","","-13","","NA"
"-115.78","60.84","HAY RIVER A","2202401","2021-04-22 22:00","2021","04","22","22:00","-8.8","","-15.6","","59","","","","4","","7","","24.1","","100.44","","","","-13","","NA"
"-115.78","60.84","HAY RIVER A","2202401","2021-04-22 23:00","2021","04","22","23:00","-8.5","","-15.7","","57","","","","5","","8","","24.1","","100.40","","","","-13","","Mostly Cloudy"
"-115.78","60.84","HAY RIVER A","2202401","2021-04-23 00:00","2021","04","23","00:00","-8.6","","-14.6","","62","","","","36","","2","","24.1","","100.41","","","","-10","","NA"
"-115.78","60.84","HAY RIVER A","2202401","2021-04-23 01:00","2021","04","23","01:00","-8.6","","-14.7","","62","","","","1","","4","","24.1","","100.39","","","","-11","","NA"
"-115.78","60.84","HAY RIVER A","2202401","2021-04-23 02:00","2021","04","23","02:00","-8.6","","-14.3","","64","","","","33","","4","","24.1","","100.40","","","","-11","","Snow"
"-115.78","60.84","HAY RIVER A","2202401","2021-04-23 03:00","2021","04","23","03:00","-8.6","","-14.1","","65","","","","27","","4","","24.1","","100.37","","","","-11","","Snow"
"-115.78","60.84","HAY RIVER A","2202401","2021-04-23 04:00","2021","04","23","04:00","-8.8","","-13.9","","67","","","","27","","7","","24.1","","100.37","","","","-13","","NA"
"-115.78","60.84","HAY RIVER A","2202401","2021-04-23 05:00","2021","04","23","05:00","-9.1","","-13.8","","69","","","","28","","9","","24.1","","100.35","","","","-14","","Mostly Cloudy"
"-115.78","60.84","HAY RIVER A","2202401","2021-04-23 06:00","2021","04","23","06:00","-8.7","","-14.4","","64","","","","31","","12","","24.1","","100.34","","","","-14","","NA"
"-115.78","60.84","HAY RIVER A","2202401","2021-04-23 07:00","2021","04","23","07:00","-8.7","","-13.7","","67","","","","32","","7","","24.1","","100.33","","","","-13","","NA"
"-115.78","60.84","HAY RIVER A","2202401","2021-04-23 08:00","2021","04","23","08:00","-8.2","","-14.6","","61","","","","28","","7","","24.1","","100.32","","","","-12","","Mostly Cloudy"
"-115.78","60.84","HAY RIVER A","2202401","2021-04-23 09:00","2021","04","23","09:00","-6.8","","-14.1","","56","","","","27","","13","","24.1","","100.29","","","","-12","","NA"
"-115.78","60.84","HAY RIVER A","2202401","2021-04-23 10:00","2021","04","23","10:00","-7.1","","-12.8","","64","","","","31","","19","","24.1","","100.30","","","","-14","","NA"
"-115.78","60.84","HAY RIVER A","2202401","2021-04-23 11:00","2021","04","23","11:00","-6.7","","-13.8","","58","","","","32","","22","","24.1","","100.30","","","","-14","","Mostly Cloudy"
"-115.78","60.84","HAY RIVER A","2202401","2021-04-23 12:00","2021","04","23","12:00","-6.2","","-14.5","","52","","","","33","","19","","24.1","","100.30","","","","-13","","NA"
"-115.78","60.84","HAY RIVER A","2202401","2021-04-23 13:00","2021","04","23","13:00","-5.6","","-12.6","","58","","","","32","","23","","24.1","","100.28","","","","-13","","NA"
"-115.78","60.84","HAY RIVER A","2202401","2021-04-23 14:00","2021","04","23","14:00","-5.8","","-13.4","","55","","","","33","","16","","24.1","","100.28","","","","-12","","Mainly Clear"
"-115.78","60.84","HAY RIVER A","2202401","2021-04-23 15:00","2021","04","23","15:00","-5.6","","-13.7","","53","","","","33","","15","","24.1","","100.25","","","","-11","","NA"
"-115.78","60.84","HAY RIVER A","2202401","2021-04-23 16:00","2021","04","23","16:00","-5.5","","-12.6","","58","","","","36","","10","","24.1","","100.21","","","","-10","","NA"
"-115.78","60.84","HAY RIVER A","2202401","2021-04-23 17:00","2021","04","23","17:00","-6.6","","-11.2","","70","","","","9","","16","","24.1","","100.22","","","","-13","","Mainly Clear"
"-115.78","60.84","HAY RIVER A","2202401","2021-04-23 18:00","2021","04","23","18:00","-7.1","","-11.7","","70","","","","8","","11","","24.1","","100.19","","","","-12","","NA"
"-115.78","60.84","HAY RIVER A","2202401","2021-04-23 19:00","2021","04","23","19:00","-7.4","","-12.8","","66","","","","6","","6","","24.1","","100.18","","","","-11","","NA"
"-115.78","60.84","HAY RIVER A","2202401","2021-04-23 20:00","2021","04","23","20:00","-8.1","","-12.9","","68","","","","10","","7","","24.1","","100.17","","","","-12","","Mostly Cloudy"
"-115.78","60.84","HAY RIVER A","2202401","2021-04-23 21:00","2021","04","23","21:00","-8.7","","-13.3","","70","","","","15","","4","","24.1","","100.15","","","","-11","","NA"
"-115.78","60.84","HAY RIVER A","2202401","2021-04-23 22:00","2021","04","23","22:00","-9.6","","-12.8","","78","","","","18","","6","","24.1","","100.11","","","","-13","","NA"
"-115.78","60.84","HAY RIVER A","2202401","2021-04-23 23:00","2021","04","23","23:00","-9.6","","-13.3","","74","","","","19","","4","","24.1","","100.07","","","","-12","","Clear"
"-115.78","60.84","HAY RIVER A","2202401","2021-04-24 00:00","2021","04","24","00:00","-11.5","","-14.0","","82","","","","22","","3","","24.1","","100.06","","","","-13","","NA"
"-115.78","60.84","HAY RIVER A","2202401","2021-04-24 01:00","2021","04","24","01:00","-11.7","","-14.6","","79","","","","22","","6","","24.1","","100.04","","","","-15","","NA"
"-115.78","60.84","HAY RIVER A","2202401","2021-04-24 02:00","2021","04","24","02:00","-11.7","","-14.4","","81","","","","22","","6","","24.1","","99.98","","","","-15","","Clear"
"-115.78","60.84","HAY RIVER A","2202401","2021-04-24 03:00","2021","04","24","03:00","-12.3","","-14.4","","85","","","","11","","4","","24.1","","99.96","","","","-15","","NA"
"-115.78","60.84","HAY RIVER A","2202401","2021-04-24 04:00","2021","04","24","04:00","-13.0","","-15.1","","85","","","","13","","5","","24.1","","99.93","","","","-16","","NA"
"-115.78","60.84","HAY RIVER A","2202401","2021-04-24 05:00","2021","04","24","05:00","-12.8","","-15.1","","83","","","","15","","8","","24.1","","99.89","","","","-18","","Mainly Clear"
"-115.78","60.84","HAY RIVER A","2202401","2021-04-24 06:00","2021","04","24","06:00","-12.2","","-14.6","","83","","","","16","","5","","24.1","","99.84","","","","-15","","NA"
"-115.78","60.84","HAY RIVER A","2202401","2021-04-24 07:00","2021","04","24","07:00","-9.6","","-13.0","","76","","","","23","","6","","24.1","","99.79","","","","-13","","NA"
"-115.78","60.84","HAY RIVER A","2202401","2021-04-24 08:00","2021","04","24","08:00","-7.0","","-12.3","","67","","","","29","","13","","24.1","","99.76","","","","-13","","Mainly Clear"
"-115.78","60.84","HAY RIVER A","2202401","2021-04-24 09:00","2021","04","24","09:00","-6.9","","-12.6","","64","","","","29","","15","","24.1","","99.72","","","","-13","","NA"
"-115.78","60.84","HAY RIVER A","2202401","2021-04-24 10:00","2021","04","24","10:00","-6.8","","-12.6","","63","","","","32","","16","","24.1","","99.69","","","","-13","","NA"
"-115.78","60.84","HAY RIVER A","2202401","2021-04-24 11:00","2021","04","24","11:00","-4.8","","-11.9","","58","","","","31","","15","","24.1","","99.66","","","","-10","","Mainly Clear"
"-115.78","60.84","HAY RIVER A","2202401","2021-04-24 12:00","2021","04","24","12:00","-3.5","","-12.9","","48","","","","29","","19","","24.1","","99.60","","","","-9","","NA"
"-115.78","60.84","HAY RIVER A","2202401","2021-04-24 13:00","2021","04","24","13:00","-2.9","","-11.6","","51","","","","32","","18","","24.1","","99.55","","","","-9","","NA"
"-115.78","60.84","HAY RIVER A","2202401","2021-04-24 14:00","2021","04","24","14:00","-2.7","","-10.6","","54","","","","32","","17","","24.1","","99.50","","","","-8","","Mostly Cloudy"
"-115.78","60.84","HAY RIVER A","2202401","2021-04-24 15:00","2021","04","24","15:00","-2.5","","-10.4","","55","","","","31","","15","","24.1","","99.46","","","","-7","","NA"
"-115.78","60.84","HAY RIVER A","2202401","2021-04-24 16:00","2021","04","24","16:00","-2.3","","-9.9","","56","","","","32","","18","","24.1","","99.42","","","","-8","","NA"
"-115.78","60.84","HAY RIVER A","2202401","2021-04-24 17:00","2021","04","24","17:00","-2.2","","-10.4","","53","","","","34","","13","","24.1","","99.40","","","","-7","","Mostly Cloudy"
"-115.78","60.84","HAY RIVER A","2202401","2021-04-24 18:00","2021","04","24","18:00","-3.5","","-10.9","","57","","","","3","","14","","24.1","","99.40","","","","-9","","NA"
"-115.78","60.84","HAY RIVER A","2202401","2021-04-24 19:00","2021","04","24","19:00","-4.2","","-10.9","","60","","","","4","","10","","24.1","","99.40","","","","-8","","NA"
"-115.78","60.84","HAY RIVER A","2202401","2021-04-24 20:00","2021","04","24","20:00","-4.8","","-10.6","","64","","","","5","","7","","24.1","","99.36","","","","-8","","Mostly Cloudy"
"-115.78","60.84","HAY RIVER A","2202401","2021-04-24 21:00","2021","04","24","21:00","-5.8","","-9.9","","73","","","","12","","6","","24.1","","99.32","","","","-9","","NA"
"-115.78","60.84","HAY RIVER A","2202401","2021-04-24 22:00","2021","04","24","22:00","-5.9","","-9.7","","75","","","","11","","7","","24.1","","99.31","","","","-9","","NA"
"-115.78","60.84","HAY RIVER A","2202401","2021-04-24 23:00","2021","04","24","23:00","-7.4","","-9.8","","83","","","","6","","10","","14.5","","99.28","","","","-12","","Snow"
"-115.78","60.84","HAY RIVER A","2202401","2021-04-25 00:00","2021","04","25","00:00","-8.9","","-11.2","","84","","","","7","","18","","14.5","","99.30","","","","-16","","Snow"
"-115.78","60.84","HAY RIVER A","2202401","2021-04-25 01:00","2021","04","25","01:00","-9.7","","-11.6","","86","","","","7","","16","","14.5","","99.31","","","","-17","","Snow"
"-115.78","60.84","HAY RIVER A","2202401","2021-04-25 02:00","2021","04","25","02:00","-10.1","","-12.3","","84","","","","7","","13","","14.5","","99.30","","","","-16","","Snow"
"-115.78","60.84","HAY RIVER A","2202401","2021-04-25 03:00","2021","04","25","03:00","-12.4","","-15.3","","79","","","","8","","19","","16.1","","99.29","","","","-21","","Snow"
"-115.78","60.84","HAY RIVER A","2202401","2021-04-25 04:00","2021","04","25","04:00","-12.6","","-15.8","","77","","","","8","","17","","19.3","","99.27","","","","-20","","Snow"
"-115.78","60.84","HAY RIVER A","2202401","2021-04-25 05:00","2021","04","25","05:00","-13.0","","-15.9","","79","","","","8","","11","","24.1","","99.26","","","","-19","","Mostly Cloudy"
"-115.78","60.84","HAY RIVER A","2202401","2021-04-25 06:00","2021","04","25","06:00","-13.0","","-16.0","","79","","","","7","","9","","19.3","","99.26","","","","-18","","Snow"
"-115.78","60.84","HAY RIVER A","2202401","2021-04-25 07:00","2021","04","25","07:00","-12.9","","-15.7","","80","","","","8","","12","","19.3","","99.22","","","","-19","","Snow"
"-115.78","60.84","HAY RIVER A","2202401","2021-04-25 08:00","2021","04","25","08:00","-12.1","","-15.4","","77","","","","8","","13","","8.1","","99.15","","","","-19","","Snow"
"-115.78","60.84","HAY RIVER A","2202401","2021-04-25 09:00","2021","04","25","09:00","-11.4","","-14.6","","77","","","","7","","14","","8.1","","99.10","","","","-18","","Snow"
"-115.78","60.84","HAY RIVER A","2202401","2021-04-25 10:00","2021","04","25","10:00","-10.7","","-14.0","","77","","","","7","","17","","8.1","","99.01","","","","-18","","Snow"
"-115.78","60.84","HAY RIVER A","2202401","2021-04-25 11:00","2021","04","25","11:00","-10.3","","-14.1","","74","","","","7","","16","","19.3","","98.93","","","","-17","","Snow"
"-115.78","60.84","HAY RIVER A","2202401","2021-04-25 12:00","2021","04","25","12:00","-7.4","","-12.8","","66","","","","16","","17","","24.1","","98.79","","","","-14","","NA"
"-115.78","60.84","HAY RIVER A","2202401","2021-04-25 13:00","2021","04","25","13:00","-5.3","","-11.3","","63","","","","18","","17","","24.1","","98.66","","","","-11","","NA"
"-115.78","60.84","HAY RIVER A","2202401","2021-04-25 14:00","2021","04","25","14:00","-4.6","","-11.9","","57","","","","17","","17","","24.1","","98.55","","","","-10","","Mostly Cloudy"
"-115.78","60.84","HAY RIVER A","2202401","2021-04-25 15:00","2021","04","25","15:00","-4.5","","-9.7","","67","","","","16","","17","","6.4","","98.41","","","","-10","","Snow"
"-115.78","60.84","HAY RIVER A","2202401","2021-04-25 16:00","2021","04","25","16:00","-4.8","","-7.4","","82","","","","14","","13","","2.0","","98.36","","","","-10","","Snow"
"-115.78","60.84","HAY RIVER A","2202401","2021-04-25 17:00","2021","04","25","17:00","-4.5","","-6.9","","83","","","","12","","13","","4.8","","98.28","","","","-10","","Snow"
"-115.78","60.84","HAY RIVER A","2202401","2021-04-25 18:00","2021","04","25","18:00","-3.7","","-6.4","","82","","","","15","","13","","24.1","","98.22","","","","-9","","Snow"
"-115.78","60.84","HAY RIVER A","2202401","2021-04-25 19:00","2021","04","25","19:00","-3.4","","-5.8","","84","","","","14","","8","","19.3","","98.15","","","","-7","","Snow"
"-115.78","60.84","HAY RIVER A","2202401","2021-04-25 20:00","2021","04","25","20:00","-3.8","","-5.0","","91","","","","36","","1","","3.2","","98.15","","","","-4","","Snow"
"-115.78","60.84","HAY RIVER A","2202401","2021-04-25 21:00","2021","04","25","21:00","-6.9","","-8.3","","90","","","","6","","12","","4.8","","98.20","","","","-12","","Snow"
"-115.78","60.84","HAY RIVER A","2202401","2021-04-25 22:00","2021","04","25","22:00","-8.3","","-9.9","","88","","","","5","","16","","24.1","","98.26","","","","-15","","NA"
"-115.78","60.84","HAY RIVER A","2202401","2021-04-25 23:00","2021","04","25","23:00","-9.3","","-11.0","","88","","","","1","","11","","19.3","","98.33","","","","-15","","Snow"
"-115.78","60.84","HAY RIVER A","2202401","2021-04-26 00:00","2021","04","26","00:00","-10.2","","-12.2","","85","","","","3","","13","","9.7","","98.43","","","","-16","","Snow"
"-115.78","60.84","HAY RIVER A","2202401","2021-04-26 01:00","2021","04","26","01:00","-12.7","","-14.8","","85","","","","3","","17","","9.7","","98.53","","","","-21","","Snow"
"-115.78","60.84","HAY RIVER A","2202401","2021-04-26 02:00","2021","04","26","02:00","-13.2","","-15.4","","84","","","","3","","13","","19.3","","98.61","","","","-20","","Snow"
"-115.78","60.84","HAY RIVER A","2202401","2021-04-26 03:00","2021","04","26","03:00","-14.4","","-16.7","","83","","","","3","","12","","9.7","","98.68","","","","-21","","Snow"
"-115.78","60.84","HAY RIVER A","2202401","2021-04-26 04:00","2021","04","26","04:00","-15.9","","-18.3","","82","","","","1","","9","","24.1","","98.78","","","","-22","","Snow"
"-115.78","60.84","HAY RIVER A","2202401","2021-04-26 05:00","2021","04","26","05:00","-15.9","","-18.5","","81","","","","1","","10","","9.7","","98.86","","","","-22","","Snow"
"-115.78","60.84","HAY RIVER A","2202401","2021-04-26 06:00","2021","04","26","06:00","-16.1","","-18.8","","80","","","","33","","13","","9.7","","98.94","","","","-24","","Snow"
"-115.78","60.84","HAY RIVER A","2202401","2021-04-26 07:00","2021","04","26","07:00","-16.4","","-19.3","","78","","","","34","","12","","6.4","","99.01","","","","-24","","Snow"
"-115.78","60.84","HAY RIVER A","2202401","2021-04-26 08:00","2021","04","26","08:00","-16.6","","-19.8","","77","","","","33","","13","","24.1","","99.09","","","","-24","","Snow"
"-115.78","60.84","HAY RIVER A","2202401","2021-04-26 09:00","2021","04","26","09:00","-16.4","","-19.8","","76","","","","33","","15","","24.1","","99.15","","","","-25","","Snow"
"-115.78","60.84","HAY RIVER A","2202401","2021-04-26 10:00","2021","04","26","10:00","-15.2","","-19.0","","73","","","","35","","13","","11.3","","99.21","","","","-23","","Snow"
"-115.78","60.84","HAY RIVER A","2202401","2021-04-26 11:00","2021","04","26","11:00","-15.2","","-19.7","","69","","","","34","","17","","6.4","","99.30","","","","-24","","Snow"
"-115.78","60.84","HAY RIVER A","2202401","2021-04-26 12:00","2021","04","26","12:00","-15.3","","-20.3","","66","","","","2","","10","","6.4","","99.41","","","","-22","","Snow"
"-115.78","60.84","HAY RIVER A","2202401","2021-04-26 13:00","2021","04","26","13:00","-14.8","","-20.1","","65","","","","36","","13","","9.7","","99.49","","","","-22","","Snow"
"-115.78","60.84","HAY RIVER A","2202401","2021-04-26 14:00","2021","04","26","14:00","-14.0","","-19.6","","63","","","","36","","14","","19.3","","99.56","","","","-21","","Mostly Cloudy"
"-115.78","60.84","HAY RIVER A","2202401","2021-04-26 15:00","2021","04","26","15:00","-13.4","","-19.2","","62","","","","1","","13","","24.1","","99.63","","","","-20","","NA"
"-115.78","60.84","HAY RIVER A","2202401","2021-04-26 16:00","2021","04","26","16:00","-13.4","","-19.4","","61","","","","36","","13","","24.1","","99.68","","","","-20","","NA"
"-115.78","60.84","HAY RIVER A","2202401","2021-04-26 17:00","2021","04","26","17:00","-13.6","","-19.2","","63","","","","36","","9","","24.1","","99.76","","","","-19","","Mainly Clear"
"-115.78","60.84","HAY RIVER A","2202401","2021-04-26 18:00","2021","04","26","18:00","-13.4","","-18.6","","66","","","","32","","10","","24.1","","99.83","","","","-19","","NA"
"-115.78","60.84","HAY RIVER A","2202401","2021-04-26 19:00","2021","04","26","19:00","-13.8","","-18.6","","67","","","","33","","9","","24.1","","99.90","","","","-19","","NA"
"-115.78","60.84","HAY RIVER A","2202401","2021-04-26 20:00","2021","04","26","20:00","-14.2","","-18.6","","70","","","","28","","8","","24.1","","99.93","","","","-19","","Mainly Clear"
"-115.78","60.84","HAY RIVER A","2202401","2021-04-26 21:00","2021","04","26","21:00","-15.6","","-19.2","","74","","","","31","","7","","24.1","","99.98","","","","-21","","NA"
"-115.78","60.84","HAY RIVER A","2202401","2021-04-26 22:00","2021","04","26","22:00","-15.1","","-20.7","","62","","","","33","","11","","24.1","","100.04","","","","-22","","NA"
"-115.78","60.84","HAY RIVER A","2202401","2021-04-26 23:00","2021","04","26","23:00","-15.9","","-22.1","","60","","","","34","","8","","24.1","","100.08","","","","-21","","Mainly Clear"
"-115.78","60.84","HAY RIVER A","2202401","2021-04-27 00:00","2021","04","27","00:00","-16.2","","-21.6","","64","","","","34","","7","","24.1","","100.15","","","","-21","","NA"
"-115.78","60.84","HAY RIVER A","2202401","2021-04-27 01:00","2021","04","27","01:00","-16.0","","-21.6","","63","","","","33","","18","","24.1","","100.22","","","","-25","","NA"
"-115.78","60.84","HAY RIVER A","2202401","2021-04-27 02:00","2021","04","27","02:00","-16.4","","-21.4","","66","","","","33","","14","","24.1","","100.26","","","","-24","","Mainly Clear"
"-115.78","60.84","HAY RIVER A","2202401","2021-04-27 03:00","2021","04","27","03:00","-15.4","","-20.2","","67","","","","33","","18","","24.1","","100.31","","","","-24","","NA"
"-115.78","60.84","HAY RIVER A","2202401","2021-04-27 04:00","2021","04","27","04:00","-14.4","","-19.0","","69","","","","32","","14","","24.1","","100.35","","","","-22","","NA"
"-115.78","60.84","HAY RIVER A","2202401","2021-04-27 05:00","2021","04","27","05:00","-13.8","","-18.7","","67","","","","30","","16","","24.1","","100.40","","","","-22","","Mainly Clear"
"-115.78","60.84","HAY RIVER A","2202401","2021-04-27 06:00","2021","04","27","06:00","-13.6","","-18.3","","68","","","","31","","18","","22.5","","100.45","","","","-22","","Snow"
"-115.78","60.84","HAY RIVER A","2202401","2021-04-27 07:00","2021","04","27","07:00","-13.4","","-17.8","","70","","","","32","","22","","24.1","","100.46","","","","-23","","Snow"
"-115.78","60.84","HAY RIVER A","2202401","2021-04-27 08:00","2021","04","27","08:00","-13.1","","-17.7","","69","","","","32","","22","","24.1","","100.50","","","","-22","","Mostly Cloudy"
"-115.78","60.84","HAY RIVER A","2202401","2021-04-27 09:00","2021","04","27","09:00","-13.0","","-19.2","","60","","","","30","","21","","24.1","","100.54","","","","-22","","NA"
"-115.78","60.84","HAY RIVER A","2202401","2021-04-27 10:00","2021","04","27","10:00","-13.1","","-19.9","","58","","","","31","","17","","24.1","","100.55","","","","-21","","NA"
"-115.78","60.84","HAY RIVER A","2202401","2021-04-27 11:00","2021","04","27","11:00","-12.1","","-19.4","","55","","","","30","","16","","24.1","","100.56","","","","-20","","Mostly Cloudy"
"-115.78","60.84","HAY RIVER A","2202401","2021-04-27 12:00","2021","04","27","12:00","-11.4","","-18.3","","57","","","","32","","16","","24.1","","100.53","","","","-19","","NA"
"-115.78","60.84","HAY RIVER A","2202401","2021-04-27 13:00","2021","04","27","13:00","-10.7","","-17.6","","57","","","","33","","17","","24.1","","100.49","","","","-18","","NA"
"-115.78","60.84","HAY RIVER A","2202401","2021-04-27 14:00","2021","04","27","14:00","-10.2","","-17.9","","54","","","","32","","17","","24.1","","100.45","","","","-17","","Mainly Clear"
"-115.78","60.84","HAY RIVER A","2202401","2021-04-27 15:00","2021","04","27","15:00","-9.4","","-17.6","","52","","","","33","","14","","24.1","","100.40","","","","-16","","NA"
"-115.78","60.84","HAY RIVER A","2202401","2021-04-27 16:00","2021","04","27","16:00","-8.7","","-17.6","","49","","","","34","","12","","24.1","","100.32","","","","-14","","NA"
"-115.78","60.84","HAY RIVER A","2202401","2021-04-27 17:00","2021","04","27","17:00","-8.3","","-17.7","","47","","","","33","","11","","24.1","","100.26","","","","-14","","Mainly Clear"
"-115.78","60.84","HAY RIVER A","2202401","2021-04-27 18:00","2021","04","27","18:00","-7.9","","-18.3","","43","","","","32","","10","","24.1","","100.20","","","","-13","","NA"
"-115.78","60.84","HAY RIVER A","2202401","2021-04-27 19:00","2021","04","27","19:00","-6.8","","-18.2","","40","","","","26","","15","","24.1","","100.13","","","","-13","","NA"
"-115.78","60.84","HAY RIVER A","2202401","2021-04-27 20:00","2021","04","27","20:00","-7.5","","-17.2","","46","","","","24","","15","","24.1","","100.07","","","","-14","","Mainly Clear"
"-115.78","60.84","HAY RIVER A","2202401","2021-04-27 21:00","2021","04","27","21:00","-9.0","","-17.4","","51","","","","21","","10","","24.1","","100.03","","","","-14","","NA"
"-115.78","60.84","HAY RIVER A","2202401","2021-04-27 22:00","2021","04","27","22:00","-9.9","","-17.8","","53","","","","23","","10","","24.1","","99.98","","","","-15","","NA"
"-115.78","60.84","HAY RIVER A","2202401","2021-04-27 23:00","2021","04","27","23:00","-10.9","","-17.7","","57","","","","23","","11","","24.1","","99.94","","","","-17","","Mainly Clear"
"-115.78","60.84","HAY RIVER A","2202401","2021-04-28 00:00","2021","04","28","00:00","-11.8","","-17.8","","62","","","","23","","11","","24.1","","99.89","","","","-18","","NA"
"-115.78","60.84","HAY RIVER A","2202401","2021-04-28 01:00","2021","04","28","01:00","-12.1","","-17.9","","62","","","","23","","10","","24.1","","99.85","","","","-18","","NA"
"-115.78","60.84","HAY RIVER A","2202401","2021-04-28 02:00","2021","04","28","02:00","-12.2","","-18.1","","62","","","","23","","11","","24.1","","99.80","","","","-18","","Mainly Clear"
"-115.78","60.84","HAY RIVER A","2202401","2021-04-28 03:00","2021","04","28","03:00","-12.1","","-18.1","","61","","","","23","","12","","24.1","","99.78","","","","-18","","NA"
"-115.78","60.84","HAY RIVER A","2202401","2021-04-28 04:00","2021","04","28","04:00","-12.2","","-18.0","","62","","","","24","","12","","24.1","","99.75","","","","-19","","NA"
"-115.78","60.84","HAY RIVER A","2202401","2021-04-28 05:00","2021","04","28","05:00","-12.1","","-18.0","","62","","","","24","","13","","24.1","","99.72","","","","-19","","Mainly Clear"
"-115.78","60.84","HAY RIVER A","2202401","2021-04-28 06:00","2021","04","28","06:00","-9.9","","-17.4","","55","","","","24","","19","","24.1","","99.70","","","","-18","","NA"
"-115.78","60.84","HAY RIVER A","2202401","2021-04-28 07:00","2021","04","28","07:00","-7.2","","-17.6","","43","","","","28","","22","","24.1","","99.74","","","","-15","","NA"
"-115.78","60.84","HAY RIVER A","2202401","2021-04-28 08:00","2021","04","28","08:00","-6.3","","-17.1","","43","","","","29","","22","","24.1","","99.76","","","","-14","","Mainly Clear"
"-115.78","60.84","HAY RIVER A","2202401","2021-04-28 09:00","2021","04","28","09:00","-6.1","","-15.8","","47","","","","32","","22","","24.1","","99.80","","","","-13","","NA"
"-115.78","60.84","HAY RIVER A","2202401","2021-04-28 10:00","2021","04","28","10:00","-5.5","","-14.3","","50","","","","32","","21","","24.1","","99.81","","","","-12","","NA"
"-115.78","60.84","HAY RIVER A","2202401","2021-04-28 11:00","2021","04","28","11:00","-5.0","","-13.8","","51","","","","33","","16","","24.1","","99.84","","","","-11","","Mainly Clear"
"-115.78","60.84","HAY RIVER A","2202401","2021-04-28 12:00","2021","04","28","12:00","-3.5","","-12.9","","48","","","","34","","13","","24.1","","99.86","","","","-8","","NA"
"-115.78","60.84","HAY RIVER A","2202401","2021-04-28 13:00","2021","04","28","13:00","-2.9","","-12.6","","47","","","","33","","20","","24.1","","99.90","","","","-9","","NA"
"-115.78","60.84","HAY RIVER A","2202401","2021-04-28 14:00","2021","04","28","14:00","-2.7","","-10.4","","56","","","","33","","23","","24.1","","99.93","","","","-9","","Mainly Clear"
"-115.78","60.84","HAY RIVER A","2202401","2021-04-28 15:00","2021","04","28","15:00","-2.1","","-9.8","","56","","","","35","","13","","24.1","","99.98","","","","-7","","NA"
"-115.78","60.84","HAY RIVER A","2202401","2021-04-28 16:00","2021","04","28","16:00","-2.3","","-9.4","","59","","","","32","","14","","24.1","","100.03","","","","-7","","NA"
"-115.78","60.84","HAY RIVER A","2202401","2021-04-28 17:00","2021","04","28","17:00","-2.1","","-9.8","","56","","","","32","","14","","24.1","","100.05","","","","-7","","Mainly Clear"
"-115.78","60.84","HAY RIVER A","2202401","2021-04-28 18:00","2021","04","28","18:00","-1.8","","-10.6","","51","","","","32","","13","","24.1","","100.08","","","","-6","","NA"
"-115.78","60.84","HAY RIVER A","2202401","2021-04-28 19:00","2021","04","28","19:00","-2.1","","-10.2","","54","","","","32","","13","","24.1","","100.09","","","","-7","","NA"
"-115.78","60.84","HAY RIVER A","2202401","2021-04-28 20:00","2021","04","28","20:00","-3.0","","-10.2","","58","","","","1","","5","","24.1","","100.14","","","","-5","","Mainly Clear"
"-115.78","60.84","HAY RIVER A","2202401","2021-04-28 21:00","2021","04","28","21:00","-4.7","","-10.3","","65","","","","36","","1","","24.1","","100.16","","","","-5","","NA"
"-115.78","60.84","HAY RIVER A","2202401","2021-04-28 22:00","2021","04","28","22:00","-6.3","","-11.1","","69","","","","","","0","","24.1","","100.21","","","","","","NA"
"-115.78","60.84","HAY RIVER A","2202401","2021-04-28 23:00","2021","04","28","23:00","-7.5","","-11.4","","74","","","","24","","4","","24.1","","100.26","","","","-10","","Mainly Clear"
"-115.78","60.84","HAY RIVER A","2202401","2021-04-29 00:00","2021","04","29","00:00","-9.3","","-11.9","","82","","","","25","","4","","24.1","","100.28","","","","-12","","NA"
"-115.78","60.84","HAY RIVER A","2202401","2021-04-29 01:00","2021","04","29","01:00","-10.1","","-12.7","","81","","","","26","","3","","24.1","","100.33","","","","-12","","NA"
"-115.78","60.84","HAY RIVER A","2202401","2021-04-29 02:00","2021","04","29","02:00","-10.4","","-12.5","","85","","","","36","","1","","24.1","","100.34","","","","-11","","Mainly Clear"
"-115.78","60.84","HAY RIVER A","2202401","2021-04-29 03:00","2021","04","29","03:00","-11.0","","-12.6","","88","","","","36","","2","","24.1","","100.35","","","","-12","","NA"
"-115.78","60.84","HAY RIVER A","2202401","2021-04-29 04:00","2021","04","29","04:00","-11.6","","-13.1","","88","","","","15","","3","","24.1","","100.37","","","","-13","","NA"
"-115.78","60.84","HAY RIVER A","2202401","2021-04-29 05:00","2021","04","29","05:00","-12.2","","-13.9","","87","","","","16","","3","","24.1","","100.37","","","","-14","","Mainly Clear"
"-115.78","60.84","HAY RIVER A","2202401","2021-04-29 06:00","2021","04","29","06:00","-11.1","","-13.1","","86","","","","16","","3","","24.1","","100.35","","","","-13","","NA"
"-115.78","60.84","HAY RIVER A","2202401","2021-04-29 07:00","2021","04","29","07:00","-7.3","","-10.9","","75","","","","9","","7","","24.1","","100.28","","","","-11","","NA"
"-115.78","60.84","HAY RIVER A","2202401","2021-04-29 08:00","2021","04","29","08:00","-4.0","","-10.6","","60","","","","15","","10","","24.1","","100.27","","","","-8","","Mainly Clear"
"-115.78","60.84","HAY RIVER A","2202401","2021-04-29 09:00","2021","04","29","09:00","-1.5","","-10.3","","52","","","","18","","13","","24.1","","100.21","","","","-6","","NA"
"-115.78","60.84","HAY RIVER A","2202401","2021-04-29 10:00","2021","04","29","10:00","0.0","","-11.3","","42","","","","16","","7","","24.1","","100.13","","","","-2","","NA"
"-115.78","60.84","HAY RIVER A","2202401","2021-04-29 11:00","2021","04","29","11:00","1.1","","-10.5","","42","","","","15","","14","","24.1","","100.04","","","","","","Mainly Clear"
"-115.78","60.84","HAY RIVER A","2202401","2021-04-29 12:00","2021","04","29","12:00","0.9","","-8.6","","49","","","","8","","14","","24.1","","99.99","","","","","","NA"
"-115.78","60.84","HAY RIVER A","2202401","2021-04-29 13:00","2021","04","29","13:00","3.2","","-11.2","","34","","","","16","","16","","24.1","","99.85","","","","","","NA"
"-115.78","60.84","HAY RIVER A","2202401","2021-04-29 14:00","2021","04","29","14:00","4.0","","-9.9","","36","","","","14","","13","","24.1","","99.72","","","","","","Mostly Cloudy"
"-115.78","60.84","HAY RIVER A","2202401","2021-04-29 15:00","2021","04","29","15:00","2.8","","-6.7","","50","","","","7","","17","","24.1","","99.63","","","","","","NA"
"-115.78","60.84","HAY RIVER A","2202401","2021-04-29 16:00","2021","04","29","16:00","3.1","","-6.2","","51","","","","7","","17","","22.5","","99.47","","","","","","NA"
"-115.78","60.84","HAY RIVER A","2202401","2021-04-29 17:00","2021","04","29","17:00","5.8","","-8.6","","35","","","","12","","21","","24.1","","99.32","","","","","","Mostly Cloudy"
"-115.78","60.84","HAY RIVER A","2202401","2021-04-29 18:00","2021","04","29","18:00","6.7","","-9.0","","32","","","","14","","25","","24.1","","99.19","","","","","","NA"
"-115.78","60.84","HAY RIVER A","2202401","2021-04-29 19:00","2021","04","29","19:00","5.4","","-7.8","","38","","","","13","","15","","24.1","","99.04","","","","","","NA"
"-115.78","60.84","HAY RIVER A","2202401","2021-04-29 20:00","2021","04","29","20:00","4.5","","-7.7","","41","","","","13","","19","","24.1","","98.87","","","","","","Mostly Cloudy"
"-115.78","60.84","HAY RIVER A","2202401","2021-04-29 21:00","2021","04","29","21:00","4.2","","-7.1","","44","","","","13","","18","","24.1","","98.75","","","","","","NA"
"-115.78","60.84","HAY RIVER A","2202401","2021-04-29 22:00","2021","04","29","22:00","3.9","","-6.8","","46","","","","14","","21","","24.1","","98.67","","","","","","NA"
"-115.78","60.84","HAY RIVER A","2202401","2021-04-29 23:00","2021","04","29","23:00","3.5","","-6.2","","49","","","","15","","22","","24.1","","98.53","","","","","","Mostly Cloudy"
"-115.78","60.84","HAY RIVER A","2202401","2021-04-30 00:00","2021","04","30","00:00","3.1","","-6.0","","51","","","","14","","18","","24.1","","98.41","","","","","","NA"
"-115.78","60.84","HAY RIVER A","2202401","2021-04-30 01:00","2021","04","30","01:00","2.0","","-3.8","","65","","","","14","","20","","16.1","","98.32","","","","","","Rain,Snow"
"-115.78","60.84","HAY RIVER A","2202401","2021-04-30 02:00","2021","04","30","02:00","0.8","","-1.9","","82","","","","11","","13","","17.7","","98.18","","","","","","Rain,Snow"
"-115.78","60.84","HAY RIVER A","2202401","2021-04-30 03:00","2021","04","30","03:00","0.2","","-1.5","","88","","","","10","","14","","14.5","","98.08","","","","","","Rain,Snow"
"-115.78","60.84","HAY RIVER A","2202401","2021-04-30 04:00","2021","04","30","04:00","0.0","","-0.7","","95","","","","10","","13","","20.9","","97.96","","","","-4","","Rain,Ice Pellets"
"-115.78","60.84","HAY RIVER A","2202401","2021-04-30 05:00","2021","04","30","05:00","0.1","","-0.1","","98","","","","10","","10","","16.1","","97.88","","","","","","Freezing Rain,Ice Pellets"
"-115.78","60.84","HAY RIVER A","2202401","2021-04-30 06:00","2021","04","30","06:00","0.1","","0.0","","99","","","","10","","10","","24.1","","97.79","","","","","","Rain"
"-115.78","60.84","HAY RIVER A","2202401","2021-04-30 07:00","2021","04","30","07:00","0.2","","0.2","","100","","","","9","","6","","19.3","","97.75","","","","","","Rain,Ice Pellets"
"-115.78","60.84","HAY RIVER A","2202401","2021-04-30 08:00","2021","04","30","08:00","0.4","","0.3","","99","","","","7","","8","","24.1","","97.72","","","","","","Snow"
"-115.78","60.84","HAY RIVER A","2202401","2021-04-30 09:00","2021","04","30","09:00","0.3","","0.3","","100","","","","8","","6","","4.8","","97.71","","","","","","Snow,Ice Pellet Showers"
"-115.78","60.84","HAY RIVER A","2202401","2021-04-30 10:00","2021","04","30","10:00","0.6","","0.6","","100","","","","8","","7","","4.8","","97.70","","","","","","Snow"
"-115.78","60.84","HAY RIVER A","2202401","2021-04-30 11:00","2021","04","30","11:00","0.9","","0.6","","98","","","","31","","5","","8.1","","97.74","","","","","","Snow"
"-115.78","60.84","HAY RIVER A","2202401","2021-04-30 12:00","2021","04","30","12:00","1.0","","0.3","","95","","","","32","","14","","22.5","","97.84","","","","","","Snow"
"-115.78","60.84","HAY RIVER A","2202401","2021-04-30 13:00","2021","04","30","13:00","0.5","","-0.3","","94","","","","31","","17","","24.1","","97.94","","","","","","NA"
"-115.78","60.84","HAY RIVER A","2202401","2021-04-30 14:00","2021","04","30","14:00","0.5","","-0.5","","93","","","","31","","14","","24.1","","98.00","","","","","","Cloudy"
"-115.78","60.84","HAY RIVER A","2202401","2021-04-30 15:00","2021","04","30","15:00","0.9","","-0.5","","91","","","","32","","12","","24.1","","98.08","","","","","","NA"
"-115.78","60.84","HAY RIVER A","2202401","2021-04-30 16:00","2021","04","30","16:00","0.8","","-1.3","","86","","","","33","","7","","24.1","","98.13","","","","","","NA"
"-115.78","60.84","HAY RIVER A","2202401","2021-04-30 17:00","2021","04","30","17:00","0.8","","-1.4","","85","","","","32","","9","","24.1","","98.16","","","","","","Cloudy"
"-115.78","60.84","HAY RIVER A","2202401","2021-04-30 18:00","2021","04","30","18:00","1.2","","-1.6","","82","","","","32","","6","","24.1","","98.18","","","","","","NA"
"-115.78","60.84","HAY RIVER A","2202401","2021-04-30 19:00","2021","04","30","19:00","1.0","","-1.1","","86","","","","35","","5","","24.1","","98.19","","","","","","Snow"
"-115.78","60.84","HAY RIVER A","2202401","2021-04-30 20:00","2021","04","30","20:00","0.7","","-1.4","","86","","","","36","","2","","24.1","","98.21","","","","","","Snow"
"-115.78","60.84","HAY RIVER A","2202401","2021-04-30 21:00","2021","04","30","21:00","0.3","","-1.2","","90","","","","36","","2","","24.1","","98.28","","","","","","NA"
"-115.78","60.84","HAY RIVER A","2202401","2021-04-30 22:00","2021","04","30","22:00","0.1","","-1.1","","92","","","","36","","3","","24.1","","98.31","","","","","","NA"
"-115.78","60.84","HAY RIVER A","2202401","2021-04-30 23:00","2021","04","30","23:00","-0.1","","-1.0","","93","","","","36","","1","","24.1","","98.34","","","","0","","Cloudy"
