"Longitude (x)","Latitude (y)","Station Name","Climate ID","Date/Time (LST)","Year","Month","Day","Time (LST)","Temp (°C)","Temp Flag","Dew Point Temp (°C)","Dew Point Temp Flag","Rel Hum (%)","Rel Hum Flag","Precip. Amount (mm)","Precip. Amount Flag","Wind Dir (10s deg)","Wind Dir Flag","Wind Spd (km/h)","Wind Spd Flag","Visibility (km)","Visibility Flag","Stn Press (kPa)","Stn Press Flag","Hmdx","Hmdx Flag","Wind Chill","Wind Chill Flag","Weather"
"-71.50","46.90","VALCARTIER A","7018573","2021-12-01 00:00","2021","12","01","00:00","-14.7","","-16.1","","89","","","","","","0","","11.3","","98.98","","","","","","NA"
"-71.50","46.90","VALCARTIER A","7018573","2021-12-01 01:00","2021","12","01","01:00","-16.0","","-17.6","","88","","","","","","0","","14.5","","99.01","","","","","","NA"
"-71.50","46.90","VALCARTIER A","7018573","2021-12-01 02:00","2021","12","01","02:00","-14.0","","-15.5","","88","","","","","","0","","14.5","","99.04","","","","","","NA"
"-71.50","46.90","VALCARTIER A","7018573","2021-12-01 03:00","2021","12","01","03:00","-12.5","","-13.9","","89","","","","","","0","","14.5","","99.05","","","","","","NA"
"-71.50","46.90","VALCARTIER A","7018573","2021-12-01 04:00","2021","12","01","04:00","-14.1","","-15.1","","92","","","","","","0","","14.5","","99.05","","","","","","NA"
"-71.50","46.90","VALCARTIER A","7018573","2021-12-01 05:00","2021","12","01","05:00","-13.1","","-14.5","","89","","","","","","0","","14.5","","99.03","","","","","","NA"
"-71.50","46.90","VALCARTIER A","7018573","2021-12-01 06:00","2021","12","01","06:00","-10.6","","-12.0","","89","","","","","","0","","14.5","","99.06","","","","","","Snow"
"-71.50","46.90","VALCARTIER A","7018573","2021-12-01 07:00","2021","12","01","07:00","-8.8","","-10.1","","90","","","","4","","4","","1.6","","99.06","","","","-11","","Snow"
"-71.50","46.90","VALCARTIER A","7018573","2021-12-01 08:00","2021","12","01","08:00","-8.3","","-9.5","","91","","","","2","","4","","0.8","","99.04","","","","-10","","Snow"
"-71.50","46.90","VALCARTIER A","7018573","2021-12-01 09:00","2021","12","01","09:00","-7.3","","-8.4","","92","","","","1","","4","","1.1","","99.02","","","","-9","","Snow"
"-71.50","46.90","VALCARTIER A","7018573","2021-12-01 10:00","2021","12","01","10:00","-6.4","","-7.6","","91","","","","","","0","","4.0","","99.11","","","","","","Snow"
"-71.50","46.90","VALCARTIER A","7018573","2021-12-01 11:00","2021","12","01","11:00","-4.5","","-6.0","","89","","","","24","","6","","4.0","","99.17","","","","-7","","Snow"
"-71.50","46.90","VALCARTIER A","7018573","2021-12-01 12:00","2021","12","01","12:00","-3.3","","-5.3","","86","","","","27","","11","","11.3","","99.25","","","","-8","","NA"
"-71.50","46.90","VALCARTIER A","7018573","2021-12-01 13:00","2021","12","01","13:00","-3.0","","-7.1","","73","","","","30","","26","","14.5","","99.36","","","","-10","","Snow"
"-71.50","46.90","VALCARTIER A","7018573","2021-12-01 14:00","2021","12","01","14:00","-3.3","","-9.9","","60","","","","28","","19","","14.5","","99.48","","","","-9","","NA"
"-71.50","46.90","VALCARTIER A","7018573","2021-12-01 15:00","2021","12","01","15:00","-3.5","","-9.3","","64","","","","28","","15","","14.5","","99.58","","","","-9","","NA"
"-71.50","46.90","VALCARTIER A","7018573","2021-12-01 16:00","2021","12","01","16:00","-4.3","","-10.2","","63","","","","30","","7","","14.5","","99.61","","","","-7","","NA"
"-71.50","46.90","VALCARTIER A","7018573","2021-12-01 17:00","2021","12","01","17:00","-6.7","","-10.8","","73","","","","31","","6","","14.5","","99.72","","","","-10","","NA"
"-71.50","46.90","VALCARTIER A","7018573","2021-12-01 18:00","2021","12","01","18:00","-6.0","","-10.8","","69","","","","30","","9","","14.5","","99.78","","","","-10","","NA"
"-71.50","46.90","VALCARTIER A","7018573","2021-12-01 19:00","2021","12","01","19:00","-6.1","","-11.1","","68","","","","34","","7","","14.5","","99.79","","","","-9","","NA"
"-71.50","46.90","VALCARTIER A","7018573","2021-12-01 20:00","2021","12","01","20:00","-7.8","","-11.5","","75","","","","18","","4","","14.5","","99.80","","","","-10","","NA"
"-71.50","46.90","VALCARTIER A","7018573","2021-12-01 21:00","2021","12","01","21:00","-12.4","","-13.2","","94","","","","","","0","","14.5","","99.75","","","","","","NA"
"-71.50","46.90","VALCARTIER A","7018573","2021-12-01 22:00","2021","12","01","22:00","-13.2","","-14.6","","89","","","","","","0","","14.5","","99.76","","","","","","NA"
"-71.50","46.90","VALCARTIER A","7018573","2021-12-01 23:00","2021","12","01","23:00","-11.0","","-12.4","","89","","","","","","0","","14.5","","99.71","","","","","","NA"
"-71.50","46.90","VALCARTIER A","7018573","2021-12-02 00:00","2021","12","02","00:00","-10.3","","-12.1","","87","","","","11","","4","","14.5","","99.67","","","","-13","","NA"
"-71.50","46.90","VALCARTIER A","7018573","2021-12-02 01:00","2021","12","02","01:00","-10.8","","-12.4","","88","","","","","","0","","14.5","","99.61","","","","","","NA"
"-71.50","46.90","VALCARTIER A","7018573","2021-12-02 02:00","2021","12","02","02:00","-11.3","","-12.9","","88","","","","","","0","","14.5","","99.56","","","","","","NA"
"-71.50","46.90","VALCARTIER A","7018573","2021-12-02 03:00","2021","12","02","03:00","-10.4","","-11.9","","89","","","","7","","4","","14.5","","99.44","","","","-13","","NA"
"-71.50","46.90","VALCARTIER A","7018573","2021-12-02 04:00","2021","12","02","04:00","-8.1","","-10.8","","81","","","","7","","6","","14.5","","99.31","","","","-11","","NA"
"-71.50","46.90","VALCARTIER A","7018573","2021-12-02 05:00","2021","12","02","05:00","-7.6","","-10.4","","80","","","","7","","6","","14.5","","99.17","","","","-11","","NA"
"-71.50","46.90","VALCARTIER A","7018573","2021-12-02 06:00","2021","12","02","06:00","-6.8","","-10.2","","77","","","","4","","6","","14.5","","99.07","","","","-10","","NA"
"-71.50","46.90","VALCARTIER A","7018573","2021-12-02 07:00","2021","12","02","07:00","-6.2","","-9.5","","77","","","","3","","6","","14.5","","98.92","","","","-9","","NA"
"-71.50","46.90","VALCARTIER A","7018573","2021-12-02 08:00","2021","12","02","08:00","-5.6","","-8.8","","78","","","","35","","9","","14.5","","98.76","","","","-10","","NA"
"-71.50","46.90","VALCARTIER A","7018573","2021-12-02 09:00","2021","12","02","09:00","-4.1","","-6.8","","81","","","","8","","6","","1.4","","98.64","","","","-7","","Snow"
"-71.50","46.90","VALCARTIER A","7018573","2021-12-02 10:00","2021","12","02","10:00"
"-71.50","46.90","VALCARTIER A","7018573","2021-12-02 11:00","2021","12","02","11:00","-2.9","","-4.4","","89","","","","10","","7","","1.1","","98.29","","","","-6","","Snow"
"-71.50","46.90","VALCARTIER A","7018573","2021-12-02 12:00","2021","12","02","12:00","-2.4","","-3.9","","89","","","","9","","9","","1.6","","98.08","","","","-6","","Snow"
"-71.50","46.90","VALCARTIER A","7018573","2021-12-02 13:00","2021","12","02","13:00"
"-71.50","46.90","VALCARTIER A","7018573","2021-12-02 14:00","2021","12","02","14:00","-1.5","","-2.5","","93","","","","13","","6","","0.6","","97.71","","","","-4","","Snow"
"-71.50","46.90","VALCARTIER A","7018573","2021-12-02 15:00","2021","12","02","15:00"
"-71.50","46.90","VALCARTIER A","7018573","2021-12-02 16:00","2021","12","02","16:00","-0.6","","-1.3","","95","","","","10","","4","","1.4","","97.47","","","","-2","","Snow"
"-71.50","46.90","VALCARTIER A","7018573","2021-12-02 17:00","2021","12","02","17:00","0.2","","-0.3","","96","","","","","","0","","3.2","","97.37","","","","","","Moderate Freezing Rain"
"-71.50","46.90","VALCARTIER A","7018573","2021-12-02 18:00","2021","12","02","18:00","0.3","","-0.1","","97","","","","","","0","","4.0","","97.29","","","","","","Moderate Freezing Rain"
"-71.50","46.90","VALCARTIER A","7018573","2021-12-02 19:00","2021","12","02","19:00","0.3","","-0.1","","97","","","","5","","4","","3.9","","97.25","","","","","","Heavy Rain"
"-71.50","46.90","VALCARTIER A","7018573","2021-12-02 20:00","2021","12","02","20:00","0.5","","0.1","","97","","","","","","0","","4.0","","97.19","","","","","","Rain"
"-71.50","46.90","VALCARTIER A","7018573","2021-12-02 21:00","2021","12","02","21:00","0.3","","0.0","","98","","","","","","0","","4.8","","97.15","","","","","","Rain"
"-71.50","46.90","VALCARTIER A","7018573","2021-12-02 22:00","2021","12","02","22:00","0.4","","0.0","","97","","","","","","0","","3.9","","97.14","","","","","","Moderate Rain"
"-71.50","46.90","VALCARTIER A","7018573","2021-12-02 23:00","2021","12","02","23:00","0.3","","0.0","","98","","","","","","0","","4.0","","97.16","","","","","","Rain"
"-71.50","46.90","VALCARTIER A","7018573","2021-12-03 00:00","2021","12","03","00:00","0.9","","0.5","","97","","","","23","","11","","6.4","","97.14","","","","","","Rain"
"-71.50","46.90","VALCARTIER A","7018573","2021-12-03 01:00","2021","12","03","01:00","0.9","","0.3","","96","","","","23","","7","","11.3","","97.20","","","","","","NA"
"-71.50","46.90","VALCARTIER A","7018573","2021-12-03 02:00","2021","12","03","02:00","1.4","","-0.4","","88","","","","27","","13","","14.5","","97.34","","","","","","NA"
"-71.50","46.90","VALCARTIER A","7018573","2021-12-03 03:00","2021","12","03","03:00","0.4","","-2.7","","80","","","","28","","13","","14.5","","97.51","","","","","","NA"
"-71.50","46.90","VALCARTIER A","7018573","2021-12-03 04:00","2021","12","03","04:00","-0.9","","-3.9","","80","","","","31","","15","","14.5","","97.64","","","","-6","","NA"
"-71.50","46.90","VALCARTIER A","7018573","2021-12-03 05:00","2021","12","03","05:00","-2.5","","-6.4","","75","","","","31","","28","","14.5","","97.86","","","","-10","","Snow"
"-71.50","46.90","VALCARTIER A","7018573","2021-12-03 06:00","2021","12","03","06:00","-3.8","","-7.9","","73","","","","29","","24","","14.5","","98.09","","","","-11","","Snow"
"-71.50","46.90","VALCARTIER A","7018573","2021-12-03 07:00","2021","12","03","07:00","-5.6","","-10.5","","68","","","","32","","31","","14.5","","98.32","","","","-14","","Snow"
"-71.50","46.90","VALCARTIER A","7018573","2021-12-03 08:00","2021","12","03","08:00","-6.4","","-11.5","","67","","","","31","","24","","5.6","","98.49","","","","-14","","Snow"
"-71.50","46.90","VALCARTIER A","7018573","2021-12-03 09:00","2021","12","03","09:00","-6.2","","-10.6","","71","","","","26","","11","","14.5","","98.57","","","","-11","","Snow"
"-71.50","46.90","VALCARTIER A","7018573","2021-12-03 10:00","2021","12","03","10:00","-6.5","","-12.1","","64","","","","31","","24","","14.5","","98.63","","","","-14","","Snow"
"-71.50","46.90","VALCARTIER A","7018573","2021-12-03 11:00","2021","12","03","11:00","-6.5","","-13.1","","59","","","","31","","20","","14.5","","98.67","","","","-13","","Snow"
"-71.50","46.90","VALCARTIER A","7018573","2021-12-03 12:00","2021","12","03","12:00","-6.6","","-12.7","","62","","","","31","","19","","14.5","","98.66","","","","-13","","Snow"
"-71.50","46.90","VALCARTIER A","7018573","2021-12-03 13:00","2021","12","03","13:00","-7.5","","-13.5","","62","","","","32","","31","","14.5","","98.70","","","","-16","","Snow"
"-71.50","46.90","VALCARTIER A","7018573","2021-12-03 14:00","2021","12","03","14:00","-7.5","","-13.5","","62","","","","31","","19","","14.5","","98.77","","","","-15","","NA"
"-71.50","46.90","VALCARTIER A","7018573","2021-12-03 15:00","2021","12","03","15:00","-7.7","","-12.3","","70","","","","29","","7","","14.5","","98.84","","","","-11","","Snow"
"-71.50","46.90","VALCARTIER A","7018573","2021-12-03 16:00","2021","12","03","16:00","-8.3","","-13.6","","66","","","","28","","26","","14.5","","98.92","","","","-17","","Snow"
"-71.50","46.90","VALCARTIER A","7018573","2021-12-03 17:00","2021","12","03","17:00","-8.5","","-13.0","","70","","","","28","","17","","14.5","","99.02","","","","-15","","Snow"
"-71.50","46.90","VALCARTIER A","7018573","2021-12-03 18:00","2021","12","03","18:00","-9.1","","-14.1","","67","","","","29","","15","","14.5","","99.09","","","","-16","","NA"
"-71.50","46.90","VALCARTIER A","7018573","2021-12-03 19:00","2021","12","03","19:00","-9.5","","-14.8","","65","","","","30","","15","","14.5","","99.16","","","","-16","","Snow"
"-71.50","46.90","VALCARTIER A","7018573","2021-12-03 20:00","2021","12","03","20:00","-9.9","","-14.9","","67","","","","31","","17","","14.5","","99.24","","","","-17","","NA"
"-71.50","46.90","VALCARTIER A","7018573","2021-12-03 21:00","2021","12","03","21:00","-11.0","","-15.2","","71","","","","32","","15","","4.8","","99.30","","","","-18","","Snow"
"-71.50","46.90","VALCARTIER A","7018573","2021-12-03 22:00","2021","12","03","22:00","-11.9","","-15.0","","78","","","","28","","9","","8.0","","99.41","","","","-17","","Snow"
"-71.50","46.90","VALCARTIER A","7018573","2021-12-03 23:00","2021","12","03","23:00","-11.9","","-15.7","","73","","","","30","","13","","4.8","","99.44","","","","-19","","Snow"
"-71.50","46.90","VALCARTIER A","7018573","2021-12-04 00:00","2021","12","04","00:00","-12.6","","-15.8","","77","","","","27","","17","","14.5","","99.45","","","","-20","","NA"
"-71.50","46.90","VALCARTIER A","7018573","2021-12-04 01:00","2021","12","04","01:00","-13.1","","-16.7","","74","","","","25","","6","","14.5","","99.49","","","","-17","","NA"
"-71.50","46.90","VALCARTIER A","7018573","2021-12-04 02:00","2021","12","04","02:00","-13.6","","-16.9","","76","","","","27","","7","","14.5","","99.53","","","","-18","","NA"
"-71.50","46.90","VALCARTIER A","7018573","2021-12-04 03:00","2021","12","04","03:00","-14.4","","-17.0","","81","","","","27","","7","","14.5","","99.57","","","","-19","","NA"
"-71.50","46.90","VALCARTIER A","7018573","2021-12-04 04:00","2021","12","04","04:00","-16.1","","-17.6","","88","","","","20","","4","","14.5","","99.57","","","","-19","","NA"
"-71.50","46.90","VALCARTIER A","7018573","2021-12-04 05:00","2021","12","04","05:00","-16.5","","-17.9","","89","","","","22","","7","","14.5","","99.57","","","","-22","","NA"
"-71.50","46.90","VALCARTIER A","7018573","2021-12-04 06:00","2021","12","04","06:00","-16.6","","-18.1","","88","","","","24","","9","","14.5","","99.63","","","","-23","","NA"
"-71.50","46.90","VALCARTIER A","7018573","2021-12-04 07:00","2021","12","04","07:00","-17.3","","-18.6","","90","","","","25","","7","","14.5","","99.71","","","","-23","","NA"
"-71.50","46.90","VALCARTIER A","7018573","2021-12-04 08:00","2021","12","04","08:00","-18.6","","-20.0","","89","","","","","","0","","14.5","","99.71","","","","","","NA"
"-71.50","46.90","VALCARTIER A","7018573","2021-12-04 09:00","2021","12","04","09:00","-16.1","","-17.6","","88","","","","1","","4","","14.5","","99.74","","","","-19","","NA"
"-71.50","46.90","VALCARTIER A","7018573","2021-12-04 10:00","2021","12","04","10:00","-13.8","","-16.5","","80","","","","22","","7","","14.5","","99.76","","","","-18","","NA"
"-71.50","46.90","VALCARTIER A","7018573","2021-12-04 11:00","2021","12","04","11:00","-12.7","","-16.5","","73","","","","26","","7","","14.5","","99.74","","","","-17","","NA"
"-71.50","46.90","VALCARTIER A","7018573","2021-12-04 12:00","2021","12","04","12:00","-11.0","","-15.8","","68","","","","21","","9","","14.5","","99.65","","","","-16","","NA"
"-71.50","46.90","VALCARTIER A","7018573","2021-12-04 13:00","2021","12","04","13:00","-10.6","","-16.4","","62","","","","24","","7","","14.5","","99.57","","","","-15","","NA"
"-71.50","46.90","VALCARTIER A","7018573","2021-12-04 14:00","2021","12","04","14:00","-10.6","","-16.6","","61","","","","19","","4","","14.5","","99.56","","","","-13","","NA"
"-71.50","46.90","VALCARTIER A","7018573","2021-12-04 15:00","2021","12","04","15:00","-10.5","","-16.4","","62","","","","34","","4","","14.5","","99.52","","","","-13","","NA"
"-71.50","46.90","VALCARTIER A","7018573","2021-12-04 16:00","2021","12","04","16:00","-10.7","","-14.9","","71","","","","35","","4","","14.5","","99.54","","","","-13","","Snow"
"-71.50","46.90","VALCARTIER A","7018573","2021-12-04 17:00","2021","12","04","17:00","-11.1","","-13.5","","82","","","","","","0","","1.4","","99.60","","","","","","Snow"
"-71.50","46.90","VALCARTIER A","7018573","2021-12-04 18:00","2021","12","04","18:00","-11.0","","-13.0","","85","","","","5","","4","","3.7","","99.60","","","","-13","","Snow"
"-71.50","46.90","VALCARTIER A","7018573","2021-12-04 19:00","2021","12","04","19:00","-11.0","","-12.8","","87","","","","3","","7","","4.0","","99.55","","","","-15","","Snow"
"-71.50","46.90","VALCARTIER A","7018573","2021-12-04 20:00","2021","12","04","20:00","-10.8","","-12.8","","85","","","","3","","9","","4.0","","99.53","","","","-16","","Snow"
"-71.50","46.90","VALCARTIER A","7018573","2021-12-04 21:00","2021","12","04","21:00","-10.6","","-12.8","","84","","","","2","","6","","12.9","","99.54","","","","-14","","Snow"
"-71.50","46.90","VALCARTIER A","7018573","2021-12-04 22:00","2021","12","04","22:00","-10.7","","-12.3","","88","","","","","","0","","1.6","","99.59","","","","","","Snow"
"-71.50","46.90","VALCARTIER A","7018573","2021-12-04 23:00","2021","12","04","23:00","-12.1","","-13.4","","90","","","","","","0","","12.9","","99.62","","","","","","Snow"
"-71.50","46.90","VALCARTIER A","7018573","2021-12-05 00:00","2021","12","05","00:00","-12.4","","-14.2","","86","","","","22","","4","","14.5","","99.68","","","","-15","","NA"
"-71.50","46.90","VALCARTIER A","7018573","2021-12-05 01:00","2021","12","05","01:00","-11.0","","-12.4","","89","","","","24","","6","","4.8","","99.79","","","","-15","","Snow"
"-71.50","46.90","VALCARTIER A","7018573","2021-12-05 02:00","2021","12","05","02:00","-11.4","","-13.0","","88","","","","22","","9","","4.0","","99.91","","","","-17","","Snow"
"-71.50","46.90","VALCARTIER A","7018573","2021-12-05 03:00","2021","12","05","03:00","-11.8","","-13.4","","88","","","","24","","7","","14.5","","99.99","","","","-16","","NA"
"-71.50","46.90","VALCARTIER A","7018573","2021-12-05 04:00","2021","12","05","04:00","-12.7","","-14.3","","88","","","","23","","6","","14.5","","100.03","","","","-17","","NA"
"-71.50","46.90","VALCARTIER A","7018573","2021-12-05 05:00","2021","12","05","05:00","-14.4","","-15.6","","91","","","","","","0","","14.5","","100.14","","","","","","NA"
"-71.50","46.90","VALCARTIER A","7018573","2021-12-05 06:00","2021","12","05","06:00","-17.3","","-18.1","","94","","","","28","","6","","14.5","","100.24","","","","-22","","NA"
"-71.50","46.90","VALCARTIER A","7018573","2021-12-05 07:00","2021","12","05","07:00","-20.3","","-21.6","","89","","","","1","","4","","14.5","","100.33","","","","-24","","NA"
"-71.50","46.90","VALCARTIER A","7018573","2021-12-05 08:00","2021","12","05","08:00","-20.1","","-21.4","","89","","","","","","0","","14.5","","100.41","","","","","","NA"
"-71.50","46.90","VALCARTIER A","7018573","2021-12-05 09:00","2021","12","05","09:00","-15.1","","-16.8","","87","","","","","","0","","14.5","","100.53","","","","","","NA"
"-71.50","46.90","VALCARTIER A","7018573","2021-12-05 10:00","2021","12","05","10:00","-11.3","","-13.6","","83","","","","22","","13","","14.5","","100.64","","","","-18","","NA"
"-71.50","46.90","VALCARTIER A","7018573","2021-12-05 11:00","2021","12","05","11:00","-9.7","","-13.5","","74","","","","24","","11","","14.5","","100.67","","","","-15","","NA"
"-71.50","46.90","VALCARTIER A","7018573","2021-12-05 12:00","2021","12","05","12:00","-8.9","","-13.6","","69","","","","23","","13","","14.5","","100.68","","","","-15","","NA"
"-71.50","46.90","VALCARTIER A","7018573","2021-12-05 13:00","2021","12","05","13:00","-8.4","","-13.6","","66","","","","23","","19","","14.5","","100.71","","","","-16","","NA"
"-71.50","46.90","VALCARTIER A","7018573","2021-12-05 14:00","2021","12","05","14:00","-8.8","","-13.2","","70","","","","23","","17","","14.5","","100.81","","","","-16","","NA"
"-71.50","46.90","VALCARTIER A","7018573","2021-12-05 15:00","2021","12","05","15:00","-8.9","","-13.4","","70","","","","23","","15","","14.5","","100.86","","","","-15","","NA"
"-71.50","46.90","VALCARTIER A","7018573","2021-12-05 16:00","2021","12","05","16:00","-9.7","","-13.5","","74","","","","23","","7","","14.5","","100.96","","","","-14","","NA"
"-71.50","46.90","VALCARTIER A","7018573","2021-12-05 17:00","2021","12","05","17:00","-13.4","","-15.9","","81","","","","","","0","","14.5","","100.96","","","","","","NA"
"-71.50","46.90","VALCARTIER A","7018573","2021-12-05 18:00","2021","12","05","18:00","-13.6","","-15.4","","86","","","","5","","4","","14.5","","100.99","","","","-16","","NA"
"-71.50","46.90","VALCARTIER A","7018573","2021-12-05 19:00","2021","12","05","19:00","-14.1","","-15.4","","90","","","","","","0","","14.5","","101.01","","","","","","NA"
"-71.50","46.90","VALCARTIER A","7018573","2021-12-05 20:00","2021","12","05","20:00","-14.1","","-15.5","","89","","","","1","","4","","14.5","","100.99","","","","-17","","NA"
"-71.50","46.90","VALCARTIER A","7018573","2021-12-05 21:00","2021","12","05","21:00","-11.2","","-13.3","","84","","","","4","","4","","14.5","","100.96","","","","-14","","NA"
"-71.50","46.90","VALCARTIER A","7018573","2021-12-05 22:00","2021","12","05","22:00","-10.9","","-13.3","","83","","","","5","","6","","14.5","","100.90","","","","-15","","NA"
"-71.50","46.90","VALCARTIER A","7018573","2021-12-05 23:00","2021","12","05","23:00","-10.6","","-13.0","","83","","","","3","","6","","14.5","","100.87","","","","-14","","NA"
"-71.50","46.90","VALCARTIER A","7018573","2021-12-06 00:00","2021","12","06","00:00","-10.4","","-12.6","","84","","","","3","","6","","2.1","","100.72","","","","-14","","Snow"
"-71.50","46.90","VALCARTIER A","7018573","2021-12-06 01:00","2021","12","06","01:00","-9.7","","-11.5","","87","","","","4","","9","","0.8","","100.63","","","","-15","","Snow"
"-71.50","46.90","VALCARTIER A","7018573","2021-12-06 02:00","2021","12","06","02:00","-9.0","","-10.6","","88","","","","5","","13","","0.5","","100.42","","","","-15","","Snow"
"-71.50","46.90","VALCARTIER A","7018573","2021-12-06 03:00","2021","12","06","03:00","-7.9","","-9.5","","88","","","","8","","13","","0.5","","100.32","","","","-14","","Snow"
"-71.50","46.90","VALCARTIER A","7018573","2021-12-06 04:00","2021","12","06","04:00","-7.6","","-9.2","","88","","","","8","","13","","0.3","","100.14","","","","-13","","Snow"
"-71.50","46.90","VALCARTIER A","7018573","2021-12-06 05:00","2021","12","06","05:00","-6.4","","-8.1","","88","","","","8","","17","","0.3","","99.92","","","","-13","","Snow"
"-71.50","46.90","VALCARTIER A","7018573","2021-12-06 06:00","2021","12","06","06:00","-6.5","","-8.2","","88","","","","9","","15","","0.3","","99.75","","","","-12","","Snow"
"-71.50","46.90","VALCARTIER A","7018573","2021-12-06 07:00","2021","12","06","07:00"
"-71.50","46.90","VALCARTIER A","7018573","2021-12-06 08:00","2021","12","06","08:00","-5.5","","-7.5","","86","","","","13","","9","","1.9","","99.37","","","","-10","","Snow"
"-71.50","46.90","VALCARTIER A","7018573","2021-12-06 09:00","2021","12","06","09:00","-4.6","","-7.0","","83","","","","9","","11","","4.0","","99.23","","","","-9","","Snow"
"-71.50","46.90","VALCARTIER A","7018573","2021-12-06 10:00","2021","12","06","10:00","-3.1","","-4.6","","89","","","","11","","15","","2.3","","99.01","","","","-8","","Freezing Rain"
"-71.50","46.90","VALCARTIER A","7018573","2021-12-06 11:00","2021","12","06","11:00","-2.5","","-3.7","","91","","","","10","","9","","2.3","","98.73","","","","-6","","Moderate Freezing Drizzle"
"-71.50","46.90","VALCARTIER A","7018573","2021-12-06 12:00","2021","12","06","12:00","-1.4","","-2.7","","91","","","","8","","7","","9.7","","98.38","","","","-4","","Freezing Rain"
"-71.50","46.90","VALCARTIER A","7018573","2021-12-06 13:00","2021","12","06","13:00","-0.1","","-1.4","","91","","","","7","","9","","4.8","","98.04","","","","-3","","Freezing Rain"
"-71.50","46.90","VALCARTIER A","7018573","2021-12-06 14:00","2021","12","06","14:00","0.3","","-0.8","","92","","","","10","","11","","3.9","","97.75","","","","","","Moderate Freezing Rain"
"-71.50","46.90","VALCARTIER A","7018573","2021-12-06 15:00","2021","12","06","15:00","0.6","","-0.2","","94","","","","15","","7","","3.5","","97.61","","","","","","Moderate Rain"
"-71.50","46.90","VALCARTIER A","7018573","2021-12-06 16:00","2021","12","06","16:00","0.5","","-0.1","","96","","","","9","","4","","3.4","","97.45","","","","","","Moderate Rain"
"-71.50","46.90","VALCARTIER A","7018573","2021-12-06 17:00","2021","12","06","17:00","0.5","","0.0","","96","","","","2","","4","","3.2","","97.40","","","","","","Moderate Rain"
"-71.50","46.90","VALCARTIER A","7018573","2021-12-06 18:00","2021","12","06","18:00","0.5","","0.1","","97","","","","5","","4","","4.8","","97.30","","","","","","Moderate Rain"
"-71.50","46.90","VALCARTIER A","7018573","2021-12-06 19:00","2021","12","06","19:00","0.6","","0.3","","98","","","","","","0","","2.6","","97.25","","","","","","Moderate Rain"
"-71.50","46.90","VALCARTIER A","7018573","2021-12-06 20:00","2021","12","06","20:00","1.0","","0.3","","95","","","","24","","7","","3.1","","97.34","","","","","","Moderate Rain"
"-71.50","46.90","VALCARTIER A","7018573","2021-12-06 21:00","2021","12","06","21:00","2.0","","1.5","","97","","","","24","","20","","6.4","","97.44","","","","","","Heavy Rain"
"-71.50","46.90","VALCARTIER A","7018573","2021-12-06 22:00","2021","12","06","22:00","2.0","","1.0","","93","","","","24","","17","","8.0","","97.49","","","","","","Moderate Rain"
"-71.50","46.90","VALCARTIER A","7018573","2021-12-06 23:00","2021","12","06","23:00","1.8","","0.5","","91","","","","24","","24","","11.3","","97.52","","","","","","Rain"
"-71.50","46.90","VALCARTIER A","7018573","2021-12-07 00:00","2021","12","07","00:00","0.9","","-0.7","","89","","","","24","","19","","14.5","","97.64","","","","","","Rain"
"-71.50","46.90","VALCARTIER A","7018573","2021-12-07 01:00","2021","12","07","01:00","0.8","","-1.2","","87","","","","24","","22","","14.5","","97.67","","","","","","NA"
"-71.50","46.90","VALCARTIER A","7018573","2021-12-07 02:00","2021","12","07","02:00","0.3","","-2.5","","81","","","","23","","19","","14.5","","97.75","","","","","","Snow"
"-71.50","46.90","VALCARTIER A","7018573","2021-12-07 03:00","2021","12","07","03:00","0.3","","-2.9","","79","","","","24","","30","","14.5","","97.81","","","","","","Snow"
"-71.50","46.90","VALCARTIER A","7018573","2021-12-07 04:00","2021","12","07","04:00","-1.9","","-6.8","","69","","","","28","","31","","3.5","","98.12","","","","-9","","Snow"
"-71.50","46.90","VALCARTIER A","7018573","2021-12-07 05:00","2021","12","07","05:00","-5.6","","-11.4","","64","","","","29","","31","","14.5","","98.49","","","","-14","","Snow"
"-71.50","46.90","VALCARTIER A","7018573","2021-12-07 06:00","2021","12","07","06:00","-6.8","","-12.2","","65","","","","27","","17","","14.5","","98.75","","","","-13","","NA"
"-71.50","46.90","VALCARTIER A","7018573","2021-12-07 07:00","2021","12","07","07:00","-7.9","","-13.2","","66","","","","27","","22","","14.5","","98.95","","","","-16","","NA"
"-71.50","46.90","VALCARTIER A","7018573","2021-12-07 08:00","2021","12","07","08:00","-8.4","","-13.2","","68","","","","27","","26","","14.5","","99.14","","","","-17","","NA"
"-71.50","46.90","VALCARTIER A","7018573","2021-12-07 09:00","2021","12","07","09:00","-8.1","","-13.0","","68","","","","28","","19","","14.5","","99.27","","","","-15","","NA"
"-71.50","46.90","VALCARTIER A","7018573","2021-12-07 10:00","2021","12","07","10:00","-7.9","","-13.2","","66","","","","31","","20","","14.5","","99.39","","","","-15","","Snow"
"-71.50","46.90","VALCARTIER A","7018573","2021-12-07 11:00","2021","12","07","11:00","-6.6","","-12.9","","61","","","","26","","6","","14.5","","99.45","","","","-10","","NA"
"-71.50","46.90","VALCARTIER A","7018573","2021-12-07 12:00","2021","12","07","12:00","-6.4","","-12.6","","61","","","","26","","9","","14.5","","99.45","","","","-11","","NA"
"-71.50","46.90","VALCARTIER A","7018573","2021-12-07 13:00","2021","12","07","13:00"
"-71.50","46.90","VALCARTIER A","7018573","2021-12-07 14:00","2021","12","07","14:00","-6.6","","-12.6","","62","","","","26","","13","","14.5","","99.55","","","","-12","","NA"
"-71.50","46.90","VALCARTIER A","7018573","2021-12-07 15:00","2021","12","07","15:00","-6.8","","-12.0","","67","","","","26","","11","","14.5","","99.58","","","","-12","","NA"
"-71.50","46.90","VALCARTIER A","7018573","2021-12-07 16:00","2021","12","07","16:00","-7.2","","-11.4","","72","","","","26","","9","","14.5","","99.64","","","","-12","","Snow"
"-71.50","46.90","VALCARTIER A","7018573","2021-12-07 17:00","2021","12","07","17:00","-7.8","","-12.5","","69","","","","27","","15","","14.5","","99.70","","","","-14","","NA"
"-71.50","46.90","VALCARTIER A","7018573","2021-12-07 18:00","2021","12","07","18:00","-8.3","","-13.0","","69","","","","29","","17","","14.5","","99.80","","","","-15","","NA"
"-71.50","46.90","VALCARTIER A","7018573","2021-12-07 19:00","2021","12","07","19:00","-9.6","","-14.2","","69","","","","29","","13","","14.5","","99.86","","","","-16","","NA"
"-71.50","46.90","VALCARTIER A","7018573","2021-12-07 20:00","2021","12","07","20:00","-10.6","","-15.9","","65","","","","28","","15","","14.5","","99.99","","","","-17","","Snow"
"-71.50","46.90","VALCARTIER A","7018573","2021-12-07 21:00","2021","12","07","21:00","-11.4","","-16.4","","67","","","","30","","15","","14.5","","100.04","","","","-18","","NA"
"-71.50","46.90","VALCARTIER A","7018573","2021-12-07 22:00","2021","12","07","22:00","-12.6","","-16.7","","71","","","","29","","9","","14.5","","100.10","","","","-18","","NA"
"-71.50","46.90","VALCARTIER A","7018573","2021-12-07 23:00","2021","12","07","23:00","-13.6","","-18.5","","67","","","","30","","7","","14.5","","100.13","","","","-18","","NA"
"-71.50","46.90","VALCARTIER A","7018573","2021-12-08 00:00","2021","12","08","00:00","-14.6","","-18.2","","74","","","","27","","7","","14.5","","100.17","","","","-19","","NA"
"-71.50","46.90","VALCARTIER A","7018573","2021-12-08 01:00","2021","12","08","01:00","-16.8","","-19.2","","82","","","","30","","6","","14.5","","100.17","","","","-21","","NA"
"-71.50","46.90","VALCARTIER A","7018573","2021-12-08 02:00","2021","12","08","02:00","-18.0","","-19.3","","90","","","","","","0","","14.5","","100.27","","","","","","NA"
"-71.50","46.90","VALCARTIER A","7018573","2021-12-08 03:00","2021","12","08","03:00","-20.1","","-21.7","","87","","","","","","0","","14.5","","100.30","","","","","","NA"
"-71.50","46.90","VALCARTIER A","7018573","2021-12-08 04:00","2021","12","08","04:00"
"-71.50","46.90","VALCARTIER A","7018573","2021-12-08 05:00","2021","12","08","05:00"
"-71.50","46.90","VALCARTIER A","7018573","2021-12-08 06:00","2021","12","08","06:00"
"-71.50","46.90","VALCARTIER A","7018573","2021-12-08 07:00","2021","12","08","07:00","-22.9","","-26.3","","74","","","","","","0","","11.3","","100.31","","","","","","NA"
"-71.50","46.90","VALCARTIER A","7018573","2021-12-08 08:00","2021","12","08","08:00","-21.1","","-24.9","","72","","","","34","","4","","4.8","","100.35","","","","-25","","NA"
"-71.50","46.90","VALCARTIER A","7018573","2021-12-08 09:00","2021","12","08","09:00","-19.3","","-23.0","","73","","","","","","0","","14.5","","100.32","","","","","","NA"
"-71.50","46.90","VALCARTIER A","7018573","2021-12-08 10:00","2021","12","08","10:00","-16.6","","-20.0","","75","","","","","","0","","14.5","","100.33","","","","","","NA"
"-71.50","46.90","VALCARTIER A","7018573","2021-12-08 11:00","2021","12","08","11:00","-14.7","","-19.7","","66","","","","35","","6","","14.5","","100.23","","","","-19","","NA"
"-71.50","46.90","VALCARTIER A","7018573","2021-12-08 12:00","2021","12","08","12:00","-12.7","","-20.5","","52","","","","5","","6","","14.5","","100.16","","","","-17","","NA"
"-71.50","46.90","VALCARTIER A","7018573","2021-12-08 13:00","2021","12","08","13:00","-11.5","","-20.0","","49","","","","12","","9","","14.5","","100.06","","","","-17","","NA"
"-71.50","46.90","VALCARTIER A","7018573","2021-12-08 14:00","2021","12","08","14:00","-10.8","","-19.4","","49","","","","9","","6","","14.5","","99.98","","","","-14","","NA"
"-71.50","46.90","VALCARTIER A","7018573","2021-12-08 15:00","2021","12","08","15:00","-10.9","","-17.9","","56","","","","7","","7","","14.5","","99.89","","","","-15","","NA"
"-71.50","46.90","VALCARTIER A","7018573","2021-12-08 16:00","2021","12","08","16:00","-10.8","","-17.4","","58","","","","8","","4","","14.5","","99.82","","","","-13","","NA"
"-71.50","46.90","VALCARTIER A","7018573","2021-12-08 17:00","2021","12","08","17:00","-11.1","","-17.8","","58","","","","13","","11","","14.5","","99.83","","","","-17","","NA"
"-71.50","46.90","VALCARTIER A","7018573","2021-12-08 18:00","2021","12","08","18:00","-11.0","","-17.9","","57","","","","8","","11","","14.5","","99.83","","","","-17","","Snow"
"-71.50","46.90","VALCARTIER A","7018573","2021-12-08 19:00","2021","12","08","19:00","-10.9","","-15.4","","69","","","","8","","11","","9.7","","99.82","","","","-17","","Snow"
"-71.50","46.90","VALCARTIER A","7018573","2021-12-08 20:00","2021","12","08","20:00","-11.0","","-14.9","","73","","","","9","","15","","8.0","","99.78","","","","-18","","Snow"
"-71.50","46.90","VALCARTIER A","7018573","2021-12-08 21:00","2021","12","08","21:00","-11.2","","-15.1","","73","","","","9","","13","","11.3","","99.70","","","","-18","","Snow"
"-71.50","46.90","VALCARTIER A","7018573","2021-12-08 22:00","2021","12","08","22:00","-11.2","","-15.3","","72","","","","10","","13","","14.5","","99.60","","","","-18","","NA"
"-71.50","46.90","VALCARTIER A","7018573","2021-12-08 23:00","2021","12","08","23:00","-11.3","","-15.6","","71","","","","9","","11","","14.5","","99.56","","","","-17","","NA"
"-71.50","46.90","VALCARTIER A","7018573","2021-12-09 00:00","2021","12","09","00:00","-14.3","","-17.8","","75","","","","3","","9","","14.5","","99.54","","","","-20","","NA"
"-71.50","46.90","VALCARTIER A","7018573","2021-12-09 01:00","2021","12","09","01:00","-13.4","","-17.3","","72","","","","3","","9","","14.5","","99.53","","","","-19","","NA"
"-71.50","46.90","VALCARTIER A","7018573","2021-12-09 02:00","2021","12","09","02:00"
"-71.50","46.90","VALCARTIER A","7018573","2021-12-09 03:00","2021","12","09","03:00"
"-71.50","46.90","VALCARTIER A","7018573","2021-12-09 04:00","2021","12","09","04:00","-13.0","","-15.8","","80","","","","3","","7","","4.0","","99.59","","","","-18","","Snow"
"-71.50","46.90","VALCARTIER A","7018573","2021-12-09 05:00","2021","12","09","05:00","-12.6","","-14.9","","83","","","","5","","4","","1.1","","99.62","","","","-15","","Snow"
"-71.50","46.90","VALCARTIER A","7018573","2021-12-09 06:00","2021","12","09","06:00","-11.3","","-14.3","","79","","","","10","","13","","2.3","","99.68","","","","-18","","Snow"
"-71.50","46.90","VALCARTIER A","7018573","2021-12-09 07:00","2021","12","09","07:00","-12.7","","-15.2","","82","","","","1","","6","","2.3","","99.78","","","","-17","","Snow"
"-71.50","46.90","VALCARTIER A","7018573","2021-12-09 08:00","2021","12","09","08:00"
"-71.50","46.90","VALCARTIER A","7018573","2021-12-09 09:00","2021","12","09","09:00","-12.1","","-14.3","","84","","","","36","","4","","6.4","","99.95","","","","-15","","Snow"
"-71.50","46.90","VALCARTIER A","7018573","2021-12-09 10:00","2021","12","09","10:00","-12.4","","-15.4","","78","","","","35","","6","","14.5","","100.02","","","","-16","","NA"
"-71.50","46.90","VALCARTIER A","7018573","2021-12-09 11:00","2021","12","09","11:00","-9.5","","-14.8","","65","","","","13","","6","","14.5","","100.03","","","","-13","","NA"
"-71.50","46.90","VALCARTIER A","7018573","2021-12-09 12:00","2021","12","09","12:00","-8.4","","-14.1","","63","","","","","","0","","14.5","","100.02","","","","","","NA"
"-71.50","46.90","VALCARTIER A","7018573","2021-12-09 13:00","2021","12","09","13:00","-8.0","","-13.7","","64","","","","19","","7","","14.5","","100.07","","","","-12","","NA"
"-71.50","46.90","VALCARTIER A","7018573","2021-12-09 14:00","2021","12","09","14:00","-8.2","","-13.1","","68","","","","24","","9","","12.9","","100.12","","","","-13","","Snow"
"-71.50","46.90","VALCARTIER A","7018573","2021-12-09 15:00","2021","12","09","15:00","-8.2","","-12.8","","69","","","","23","","7","","14.5","","100.22","","","","-12","","NA"
"-71.50","46.90","VALCARTIER A","7018573","2021-12-09 16:00","2021","12","09","16:00","-10.2","","-13.2","","79","","","","22","","4","","12.9","","100.28","","","","-13","","NA"
"-71.50","46.90","VALCARTIER A","7018573","2021-12-09 17:00","2021","12","09","17:00","-11.7","","-13.7","","85","","","","23","","6","","14.5","","100.39","","","","-15","","NA"
"-71.50","46.90","VALCARTIER A","7018573","2021-12-09 18:00","2021","12","09","18:00","-13.7","","-15.2","","88","","","","","","0","","14.5","","100.39","","","","","","NA"
"-71.50","46.90","VALCARTIER A","7018573","2021-12-09 19:00","2021","12","09","19:00","-17.2","","-18.7","","88","","","","","","0","","12.9","","100.41","","","","","","NA"
"-71.50","46.90","VALCARTIER A","7018573","2021-12-09 20:00","2021","12","09","20:00","-18.0","","-19.0","","92","","","","","","0","","14.5","","100.47","","","","","","NA"
"-71.50","46.90","VALCARTIER A","7018573","2021-12-09 21:00","2021","12","09","21:00","-20.1","","-20.8","","94","","","","","","0","","0.8","","100.44","","","","","","NA"
"-71.50","46.90","VALCARTIER A","7018573","2021-12-09 22:00","2021","12","09","22:00","-18.9","","-20.2","","89","","","","","","0","","1.4","","100.45","","","","","","NA"
"-71.50","46.90","VALCARTIER A","7018573","2021-12-09 23:00","2021","12","09","23:00","-18.3","","-19.6","","90","","","","","","0","","14.5","","100.52","","","","","","NA"
"-71.50","46.90","VALCARTIER A","7018573","2021-12-10 00:00","2021","12","10","00:00","-19.1","","-20.3","","90","","","","","","0","","14.5","","100.46","","","","","","NA"
"-71.50","46.90","VALCARTIER A","7018573","2021-12-10 01:00","2021","12","10","01:00","-20.8","","-22.1","","89","","","","","","0","","14.5","","100.44","","","","","","NA"
"-71.50","46.90","VALCARTIER A","7018573","2021-12-10 02:00","2021","12","10","02:00","-22.0","","-26.7","","66","","","","","","0","","14.5","","100.43","","","","","","NA"
"-71.50","46.90","VALCARTIER A","7018573","2021-12-10 03:00","2021","12","10","03:00","-19.8","","-23.7","","71","","","","","","0","","14.5","","100.41","","","","","","NA"
"-71.50","46.90","VALCARTIER A","7018573","2021-12-10 04:00","2021","12","10","04:00","-19.1","","-22.8","","73","","","","","","0","","14.5","","100.37","","","","","","NA"
"-71.50","46.90","VALCARTIER A","7018573","2021-12-10 05:00","2021","12","10","05:00","-14.9","","-18.1","","77","","","","3","","9","","14.5","","100.30","","","","-21","","NA"
"-71.50","46.90","VALCARTIER A","7018573","2021-12-10 06:00","2021","12","10","06:00","-13.4","","-15.3","","86","","","","","","0","","14.5","","100.31","","","","","","NA"
"-71.50","46.90","VALCARTIER A","7018573","2021-12-10 07:00","2021","12","10","07:00","-11.7","","-14.0","","83","","","","7","","7","","14.5","","100.20","","","","-16","","NA"
"-71.50","46.90","VALCARTIER A","7018573","2021-12-10 08:00","2021","12","10","08:00","-9.7","","-13.2","","76","","","","11","","9","","8.0","","100.14","","","","-15","","Snow"
"-71.50","46.90","VALCARTIER A","7018573","2021-12-10 09:00","2021","12","10","09:00","-9.7","","-12.2","","82","","","","10","","7","","1.6","","100.11","","","","-14","","Snow"
"-71.50","46.90","VALCARTIER A","7018573","2021-12-10 10:00","2021","12","10","10:00","-9.4","","-11.6","","84","","","","10","","9","","1.4","","100.09","","","","-14","","Snow"
"-71.50","46.90","VALCARTIER A","7018573","2021-12-10 11:00","2021","12","10","11:00","-9.2","","-11.3","","85","","","","13","","7","","4.0","","100.02","","","","-13","","Snow"
"-71.50","46.90","VALCARTIER A","7018573","2021-12-10 12:00","2021","12","10","12:00","-9.0","","-10.9","","86","","","","8","","7","","4.8","","99.98","","","","-13","","Snow"
"-71.50","46.90","VALCARTIER A","7018573","2021-12-10 13:00","2021","12","10","13:00","-8.6","","-10.6","","85","","","","8","","6","","4.8","","99.89","","","","-12","","Snow"
"-71.50","46.90","VALCARTIER A","7018573","2021-12-10 14:00","2021","12","10","14:00","-8.3","","-9.7","","90","","","","5","","6","","4.8","","99.85","","","","-12","","Snow"
"-71.50","46.90","VALCARTIER A","7018573","2021-12-10 15:00","2021","12","10","15:00","-8.2","","-9.3","","92","","","","3","","6","","5.6","","99.88","","","","-11","","Snow"
"-71.50","46.90","VALCARTIER A","7018573","2021-12-10 16:00","2021","12","10","16:00","-8.2","","-9.4","","91","","","","2","","6","","1.8","","99.92","","","","-11","","Snow"
"-71.50","46.90","VALCARTIER A","7018573","2021-12-10 17:00","2021","12","10","17:00","-7.9","","-9.1","","91","","","","5","","6","","2.3","","99.91","","","","-11","","Snow"
"-71.50","46.90","VALCARTIER A","7018573","2021-12-10 18:00","2021","12","10","18:00","-7.5","","-8.9","","90","","","","4","","4","","8.0","","99.92","","","","-10","","Snow"
"-71.50","46.90","VALCARTIER A","7018573","2021-12-10 19:00","2021","12","10","19:00","-7.5","","-8.7","","91","","","","36","","4","","11.3","","99.96","","","","-10","","Snow"
"-71.50","46.90","VALCARTIER A","7018573","2021-12-10 20:00","2021","12","10","20:00","-7.1","","-8.5","","90","","","","2","","6","","12.9","","99.98","","","","-10","","Snow"
"-71.50","46.90","VALCARTIER A","7018573","2021-12-10 21:00","2021","12","10","21:00","-6.8","","-8.2","","90","","","","","","0","","12.9","","99.97","","","","","","Snow"
"-71.50","46.90","VALCARTIER A","7018573","2021-12-10 22:00","2021","12","10","22:00","-6.6","","-8.0","","90","","","","","","0","","12.9","","100.02","","","","","","NA"
"-71.50","46.90","VALCARTIER A","7018573","2021-12-10 23:00","2021","12","10","23:00","-6.6","","-7.9","","91","","","","","","0","","12.9","","100.00","","","","","","NA"
"-71.50","46.90","VALCARTIER A","7018573","2021-12-11 00:00","2021","12","11","00:00","-6.1","","-7.6","","89","","","","36","","6","","12.9","","99.96","","","","-9","","NA"
"-71.50","46.90","VALCARTIER A","7018573","2021-12-11 01:00","2021","12","11","01:00","-6.1","","-7.3","","91","","","","","","0","","12.9","","99.94","","","","","","NA"
"-71.50","46.90","VALCARTIER A","7018573","2021-12-11 02:00","2021","12","11","02:00","-5.5","","-6.9","","90","","","","10","","4","","11.3","","99.91","","","","-7","","NA"
"-71.50","46.90","VALCARTIER A","7018573","2021-12-11 03:00","2021","12","11","03:00","-5.3","","-6.8","","89","","","","","","0","","9.7","","99.91","","","","","","NA"
"-71.50","46.90","VALCARTIER A","7018573","2021-12-11 04:00","2021","12","11","04:00","-4.3","","-6.1","","87","","","","3","","9","","9.7","","99.79","","","","-8","","NA"
"-71.50","46.90","VALCARTIER A","7018573","2021-12-11 05:00","2021","12","11","05:00","-3.8","","-5.7","","87","","","","3","","11","","11.3","","99.64","","","","-8","","NA"
"-71.50","46.90","VALCARTIER A","7018573","2021-12-11 06:00","2021","12","11","06:00","-3.5","","-5.1","","89","","","","3","","7","","11.3","","99.50","","","","-6","","NA"
"-71.50","46.90","VALCARTIER A","7018573","2021-12-11 07:00","2021","12","11","07:00","-2.9","","-4.6","","88","","","","12","","4","","9.7","","99.40","","","","-4","","NA"
"-71.50","46.90","VALCARTIER A","7018573","2021-12-11 08:00","2021","12","11","08:00","-1.7","","-3.5","","88","","","","7","","7","","9.7","","99.21","","","","-4","","NA"
"-71.50","46.90","VALCARTIER A","7018573","2021-12-11 09:00","2021","12","11","09:00","0.1","","-2.7","","81","","","","12","","11","","9.7","","98.97","","","","","","Rain"
"-71.50","46.90","VALCARTIER A","7018573","2021-12-11 10:00","2021","12","11","10:00","0.3","","-1.3","","89","","","","10","","20","","2.3","","98.65","","","","","","Moderate Rain"
"-71.50","46.90","VALCARTIER A","7018573","2021-12-11 11:00","2021","12","11","11:00","0.7","","-0.5","","92","","","","10","","22","","2.9","","98.35","","","","","","Moderate Rain"
"-71.50","46.90","VALCARTIER A","7018573","2021-12-11 12:00","2021","12","11","12:00","0.9","","0.1","","94","","","","9","","6","","2.3","","98.16","","","","","","Rain"
"-71.50","46.90","VALCARTIER A","7018573","2021-12-11 13:00","2021","12","11","13:00","1.5","","0.7","","94","","","","10","","13","","2.3","","97.99","","","","","","Rain"
"-71.50","46.90","VALCARTIER A","7018573","2021-12-11 14:00","2021","12","11","14:00","1.7","","1.0","","95","","","","11","","11","","3.1","","97.75","","","","","","Moderate Drizzle"
"-71.50","46.90","VALCARTIER A","7018573","2021-12-11 15:00","2021","12","11","15:00","1.4","","0.9","","97","","","","9","","9","","2.4","","97.65","","","","","","Rain"
"-71.50","46.90","VALCARTIER A","7018573","2021-12-11 16:00","2021","12","11","16:00","1.2","","0.8","","97","","","","12","","6","","1.6","","97.49","","","","","","Rain"
"-71.50","46.90","VALCARTIER A","7018573","2021-12-11 17:00","2021","12","11","17:00","0.9","","0.5","","97","","","","14","","9","","3.9","","97.33","","","","","","Rain"
"-71.50","46.90","VALCARTIER A","7018573","2021-12-11 18:00","2021","12","11","18:00","0.9","","0.5","","97","","","","14","","11","","4.0","","97.15","","","","","","Moderate Rain"
"-71.50","46.90","VALCARTIER A","7018573","2021-12-11 19:00","2021","12","11","19:00","0.9","","0.5","","97","","","","9","","6","","2.6","","96.96","","","","","","Rain"
"-71.50","46.90","VALCARTIER A","7018573","2021-12-11 20:00","2021","12","11","20:00","1.1","","0.7","","97","","","","12","","9","","14.5","","96.78","","","","","","NA"
"-71.50","46.90","VALCARTIER A","7018573","2021-12-11 21:00","2021","12","11","21:00","1.1","","0.8","","98","","","","","","0","","1.8","","96.78","","","","","","Moderate Rain"
"-71.50","46.90","VALCARTIER A","7018573","2021-12-11 22:00","2021","12","11","22:00","1.3","","1.1","","99","","","","","","0","","14.5","","96.72","","","","","","Rain"
"-71.50","46.90","VALCARTIER A","7018573","2021-12-11 23:00","2021","12","11","23:00","4.9","","3.7","","92","","","","22","","31","","14.5","","96.83","","","","","","NA"
"-71.50","46.90","VALCARTIER A","7018573","2021-12-12 00:00","2021","12","12","00:00","4.0","","1.5","","84","","","","23","","24","","14.5","","96.89","","","","","","NA"
"-71.50","46.90","VALCARTIER A","7018573","2021-12-12 01:00","2021","12","12","01:00","3.9","","0.1","","76","","","","23","","22","","14.5","","96.97","","","","","","Rain"
"-71.50","46.90","VALCARTIER A","7018573","2021-12-12 02:00","2021","12","12","02:00","3.5","","-2.0","","67","","","","22","","26","","14.5","","97.08","","","","","","NA"
"-71.50","46.90","VALCARTIER A","7018573","2021-12-12 03:00","2021","12","12","03:00"
"-71.50","46.90","VALCARTIER A","7018573","2021-12-12 04:00","2021","12","12","04:00","0.9","","-7.1","","55","","","","28","","39","","14.5","","97.63","","","","","","NA"
"-71.50","46.90","VALCARTIER A","7018573","2021-12-12 05:00","2021","12","12","05:00","-0.1","","-7.6","","57","","","","27","","26","","14.5","","97.90","","","","-6","","Snow"
"-71.50","46.90","VALCARTIER A","7018573","2021-12-12 06:00","2021","12","12","06:00","-0.3","","-7.5","","58","","","","27","","24","","14.5","","98.08","","","","-6","","Snow"
"-71.50","46.90","VALCARTIER A","7018573","2021-12-12 07:00","2021","12","12","07:00","-0.5","","-7.8","","58","","","","26","","22","","14.5","","98.26","","","","-6","","Snow"
"-71.50","46.90","VALCARTIER A","7018573","2021-12-12 08:00","2021","12","12","08:00","-0.7","","-7.9","","58","","","","25","","22","","14.5","","98.36","","","","-6","","Snow"
"-71.50","46.90","VALCARTIER A","7018573","2021-12-12 09:00","2021","12","12","09:00","-0.6","","-8.1","","57","","","","26","","26","","14.5","","98.44","","","","-7","","Snow"
"-71.50","46.90","VALCARTIER A","7018573","2021-12-12 10:00","2021","12","12","10:00","0.0","","-8.3","","54","","","","26","","17","","14.5","","98.53","","","","-5","","Snow"
"-71.50","46.90","VALCARTIER A","7018573","2021-12-12 11:00","2021","12","12","11:00","0.9","","-8.5","","49","","","","27","","33","","14.5","","98.53","","","","","","NA"
"-71.50","46.90","VALCARTIER A","7018573","2021-12-12 12:00","2021","12","12","12:00","1.2","","-7.5","","52","","","","26","","19","","14.5","","98.57","","","","","","NA"
"-71.50","46.90","VALCARTIER A","7018573","2021-12-12 13:00","2021","12","12","13:00","1.9","","-6.7","","53","","","","26","","24","","14.5","","98.59","","","","","","NA"
"-71.50","46.90","VALCARTIER A","7018573","2021-12-12 14:00","2021","12","12","14:00","2.0","","-4.8","","61","","","","23","","20","","14.5","","98.62","","","","","","NA"
"-71.50","46.90","VALCARTIER A","7018573","2021-12-12 15:00","2021","12","12","15:00","1.7","","-5.1","","61","","","","23","","19","","14.5","","98.65","","","","","","NA"
"-71.50","46.90","VALCARTIER A","7018573","2021-12-12 16:00","2021","12","12","16:00","1.7","","-5.4","","59","","","","23","","22","","14.5","","98.71","","","","","","NA"
"-71.50","46.90","VALCARTIER A","7018573","2021-12-12 17:00","2021","12","12","17:00","1.3","","-5.2","","62","","","","23","","15","","14.5","","98.77","","","","","","NA"
"-71.50","46.90","VALCARTIER A","7018573","2021-12-12 18:00","2021","12","12","18:00","1.1","","-5.3","","62","","","","24","","11","","14.5","","98.83","","","","","","NA"
"-71.50","46.90","VALCARTIER A","7018573","2021-12-12 19:00","2021","12","12","19:00","1.7","","-6.0","","57","","","","24","","19","","14.5","","98.82","","","","","","NA"
"-71.50","46.90","VALCARTIER A","7018573","2021-12-12 20:00","2021","12","12","20:00","2.1","","-5.9","","55","","","","24","","20","","14.5","","98.78","","","","","","NA"
"-71.50","46.90","VALCARTIER A","7018573","2021-12-12 21:00","2021","12","12","21:00","2.2","","-4.3","","62","","","","23","","20","","14.5","","98.75","","","","","","NA"
"-71.50","46.90","VALCARTIER A","7018573","2021-12-12 22:00","2021","12","12","22:00","2.0","","-3.4","","67","","","","24","","15","","14.5","","98.75","","","","","","NA"
"-71.50","46.90","VALCARTIER A","7018573","2021-12-12 23:00","2021","12","12","23:00","1.6","","-3.7","","68","","","","24","","13","","14.5","","98.76","","","","","","NA"
"-71.50","46.90","VALCARTIER A","7018573","2021-12-13 00:00","2021","12","13","00:00","2.0","","-3.4","","67","","","","24","","20","","14.5","","98.74","","","","","","NA"
"-71.50","46.90","VALCARTIER A","7018573","2021-12-13 01:00","2021","12","13","01:00","2.3","","-2.8","","69","","","","24","","20","","14.5","","98.76","","","","","","NA"
"-71.50","46.90","VALCARTIER A","7018573","2021-12-13 02:00","2021","12","13","02:00","2.5","","-2.7","","69","","","","24","","19","","14.5","","98.83","","","","","","NA"
"-71.50","46.90","VALCARTIER A","7018573","2021-12-13 03:00","2021","12","13","03:00","2.4","","-2.3","","71","","","","24","","17","","14.5","","98.88","","","","","","NA"
"-71.50","46.90","VALCARTIER A","7018573","2021-12-13 04:00","2021","12","13","04:00","2.4","","-2.3","","71","","","","24","","19","","14.5","","98.92","","","","","","NA"
"-71.50","46.90","VALCARTIER A","7018573","2021-12-13 05:00","2021","12","13","05:00","2.3","","-2.4","","71","","","","24","","20","","14.5","","98.99","","","","","","NA"
"-71.50","46.90","VALCARTIER A","7018573","2021-12-13 06:00","2021","12","13","06:00","2.2","","-2.5","","71","","","","25","","19","","14.5","","99.07","","","","","","NA"
"-71.50","46.90","VALCARTIER A","7018573","2021-12-13 07:00","2021","12","13","07:00","2.1","","-2.5","","72","","","","24","","11","","14.5","","99.17","","","","","","NA"
"-71.50","46.90","VALCARTIER A","7018573","2021-12-13 08:00","2021","12","13","08:00","2.0","","-2.4","","73","","","","25","","13","","14.5","","99.24","","","","","","NA"
"-71.50","46.90","VALCARTIER A","7018573","2021-12-13 09:00","2021","12","13","09:00","2.1","","-2.2","","73","","","","25","","9","","14.5","","99.30","","","","","","NA"
"-71.50","46.90","VALCARTIER A","7018573","2021-12-13 10:00","2021","12","13","10:00","2.3","","-2.2","","72","","","","25","","9","","14.5","","99.37","","","","","","NA"
"-71.50","46.90","VALCARTIER A","7018573","2021-12-13 11:00","2021","12","13","11:00","2.6","","-2.2","","71","","","","24","","13","","14.5","","99.31","","","","","","NA"
"-71.50","46.90","VALCARTIER A","7018573","2021-12-13 12:00","2021","12","13","12:00","2.7","","-2.1","","71","","","","23","","13","","12.9","","99.23","","","","","","NA"
"-71.50","46.90","VALCARTIER A","7018573","2021-12-13 13:00","2021","12","13","13:00","2.7","","-2.1","","71","","","","23","","9","","14.5","","99.12","","","","","","NA"
"-71.50","46.90","VALCARTIER A","7018573","2021-12-13 14:00","2021","12","13","14:00","2.8","","-2.0","","71","","","","25","","15","","14.5","","99.14","","","","","","NA"
"-71.50","46.90","VALCARTIER A","7018573","2021-12-13 15:00","2021","12","13","15:00","3.0","","-1.7","","71","","","","24","","9","","14.5","","99.12","","","","","","NA"
"-71.50","46.90","VALCARTIER A","7018573","2021-12-13 16:00","2021","12","13","16:00","3.0","","-1.7","","71","","","","24","","7","","14.5","","99.06","","","","","","NA"
"-71.50","46.90","VALCARTIER A","7018573","2021-12-13 17:00","2021","12","13","17:00","2.8","","-1.5","","73","","","","22","","6","","12.9","","99.07","","","","","","NA"
"-71.50","46.90","VALCARTIER A","7018573","2021-12-13 18:00","2021","12","13","18:00","3.0","","-1.3","","73","","","","24","","7","","14.5","","99.06","","","","","","NA"
"-71.50","46.90","VALCARTIER A","7018573","2021-12-13 19:00","2021","12","13","19:00","3.1","","-1.2","","73","","","","23","","4","","14.5","","99.05","","","","","","Rain"
"-71.50","46.90","VALCARTIER A","7018573","2021-12-13 20:00","2021","12","13","20:00","3.0","","-1.2","","74","","","","23","","13","","14.5","","99.01","","","","","","NA"
"-71.50","46.90","VALCARTIER A","7018573","2021-12-13 21:00","2021","12","13","21:00","3.0","","-0.9","","76","","","","24","","11","","14.5","","99.04","","","","","","NA"
"-71.50","46.90","VALCARTIER A","7018573","2021-12-13 22:00","2021","12","13","22:00","2.8","","-1.0","","76","","","","25","","9","","14.5","","99.10","","","","","","NA"
"-71.50","46.90","VALCARTIER A","7018573","2021-12-13 23:00","2021","12","13","23:00","1.6","","-1.9","","78","","","","32","","9","","14.5","","99.21","","","","","","NA"
"-71.50","46.90","VALCARTIER A","7018573","2021-12-14 00:00","2021","12","14","00:00","-0.4","","-2.3","","87","","","","30","","6","","14.5","","99.31","","","","-2","","NA"
"-71.50","46.90","VALCARTIER A","7018573","2021-12-14 01:00","2021","12","14","01:00","3.5","","-2.2","","66","","","","30","","28","","14.5","","99.46","","","","","","NA"
"-71.50","46.90","VALCARTIER A","7018573","2021-12-14 02:00","2021","12","14","02:00","2.3","","-6.2","","53","","","","31","","24","","14.5","","99.70","","","","","","NA"
"-71.50","46.90","VALCARTIER A","7018573","2021-12-14 03:00","2021","12","14","03:00","1.3","","-6.9","","54","","","","30","","17","","14.5","","99.87","","","","","","NA"
"-71.50","46.90","VALCARTIER A","7018573","2021-12-14 04:00","2021","12","14","04:00","-0.2","","-8.1","","55","","","","34","","28","","14.5","","100.11","","","","-7","","Snow"
"-71.50","46.90","VALCARTIER A","7018573","2021-12-14 05:00","2021","12","14","05:00","-1.7","","-9.7","","54","","","","34","","30","","14.5","","100.33","","","","-9","","Snow"
"-71.50","46.90","VALCARTIER A","7018573","2021-12-14 06:00","2021","12","14","06:00","-3.5","","-12.1","","51","","","","33","","31","","14.5","","100.55","","","","-11","","Snow"
"-71.50","46.90","VALCARTIER A","7018573","2021-12-14 07:00","2021","12","14","07:00","-4.7","","-13.0","","52","","","","33","","28","","14.5","","100.74","","","","-12","","Snow"
"-71.50","46.90","VALCARTIER A","7018573","2021-12-14 08:00","2021","12","14","08:00","-5.2","","-13.3","","53","","","","33","","17","","14.5","","100.89","","","","-11","","NA"
"-71.50","46.90","VALCARTIER A","7018573","2021-12-14 09:00","2021","12","14","09:00","-4.8","","-12.8","","54","","","","31","","17","","14.5","","101.03","","","","-11","","NA"
"-71.50","46.90","VALCARTIER A","7018573","2021-12-14 10:00","2021","12","14","10:00","-4.6","","-12.3","","55","","","","32","","13","","14.5","","101.12","","","","-10","","Snow"
"-71.50","46.90","VALCARTIER A","7018573","2021-12-14 11:00","2021","12","14","11:00","-4.0","","-12.0","","54","","","","33","","19","","","M","101.17","","","","-10","","Snow"
"-71.50","46.90","VALCARTIER A","7018573","2021-12-14 12:00","2021","12","14","12:00","-3.5","","-12.1","","51","","","","31","","15","","14.5","","101.16","","","","-9","","NA"
"-71.50","46.90","VALCARTIER A","7018573","2021-12-14 13:00","2021","12","14","13:00","-2.9","","-12.7","","47","","","","30","","17","","14.5","","101.21","","","","-8","","Snow"
"-71.50","46.90","VALCARTIER A","7018573","2021-12-14 14:00","2021","12","14","14:00","-3.3","","-12.8","","48","","","","34","","20","","14.5","","101.27","","","","-9","","Snow"
"-71.50","46.90","VALCARTIER A","7018573","2021-12-14 15:00","2021","12","14","15:00","-3.1","","-13.5","","45","","","","30","","17","","14.5","","101.34","","","","-9","","Snow"
"-71.50","46.90","VALCARTIER A","7018573","2021-12-14 16:00","2021","12","14","16:00","-4.3","","-13.8","","48","","","","32","","15","","14.5","","101.44","","","","-10","","NA"
"-71.50","46.90","VALCARTIER A","7018573","2021-12-14 17:00","2021","12","14","17:00","-5.5","","-13.6","","53","","","","30","","9","","14.5","","101.53","","","","-10","","NA"
"-71.50","46.90","VALCARTIER A","7018573","2021-12-14 18:00","2021","12","14","18:00","-5.7","","-13.4","","55","","","","28","","17","","14.5","","101.55","","","","-12","","NA"
"-71.50","46.90","VALCARTIER A","7018573","2021-12-14 19:00","2021","12","14","19:00","-6.6","","-13.5","","58","","","","29","","11","","14.5","","101.59","","","","-12","","NA"
"-71.50","46.90","VALCARTIER A","7018573","2021-12-14 20:00","2021","12","14","20:00","-7.4","","-13.5","","62","","","","29","","7","","14.5","","101.59","","","","-11","","NA"
"-71.50","46.90","VALCARTIER A","7018573","2021-12-14 21:00","2021","12","14","21:00","-9.2","","-13.4","","72","","","","17","","4","","14.5","","101.66","","","","-11","","NA"
"-71.50","46.90","VALCARTIER A","7018573","2021-12-14 22:00","2021","12","14","22:00","-9.2","","-13.8","","69","","","","20","","4","","14.5","","101.65","","","","-11","","NA"
"-71.50","46.90","VALCARTIER A","7018573","2021-12-14 23:00","2021","12","14","23:00","-9.4","","-13.9","","70","","","","19","","9","","14.5","","101.67","","","","-14","","NA"
"-71.50","46.90","VALCARTIER A","7018573","2021-12-15 00:00","2021","12","15","00:00","-9.6","","-13.8","","71","","","","28","","7","","14.5","","101.69","","","","-14","","NA"
"-71.50","46.90","VALCARTIER A","7018573","2021-12-15 01:00","2021","12","15","01:00","-12.6","","-15.8","","77","","","","29","","11","","14.5","","101.79","","","","-19","","NA"
"-71.50","46.90","VALCARTIER A","7018573","2021-12-15 02:00","2021","12","15","02:00","-13.8","","-16.0","","83","","","","2","","4","","14.5","","101.82","","","","-17","","NA"
"-71.50","46.90","VALCARTIER A","7018573","2021-12-15 03:00","2021","12","15","03:00","-14.5","","-16.0","","88","","","","","","0","","14.5","","101.86","","","","","","NA"
"-71.50","46.90","VALCARTIER A","7018573","2021-12-15 04:00","2021","12","15","04:00","-16.1","","-17.2","","91","","","","","","0","","14.5","","101.85","","","","","","NA"
"-71.50","46.90","VALCARTIER A","7018573","2021-12-15 05:00","2021","12","15","05:00","-17.0","","-18.2","","90","","","","","","0","","14.5","","101.91","","","","","","NA"
"-71.50","46.90","VALCARTIER A","7018573","2021-12-15 06:00","2021","12","15","06:00","-17.0","","-18.5","","88","","","","34","","4","","14.5","","101.89","","","","-20","","NA"
"-71.50","46.90","VALCARTIER A","7018573","2021-12-15 07:00","2021","12","15","07:00","-17.0","","-18.5","","88","","","","23","","4","","14.5","","101.85","","","","-20","","NA"
"-71.50","46.90","VALCARTIER A","7018573","2021-12-15 08:00","2021","12","15","08:00","-16.6","","-18.1","","88","","","","","","0","","14.5","","101.81","","","","","","NA"
"-71.50","46.90","VALCARTIER A","7018573","2021-12-15 09:00","2021","12","15","09:00","-14.2","","-16.5","","83","","","","3","","4","","14.5","","101.74","","","","-17","","NA"
"-71.50","46.90","VALCARTIER A","7018573","2021-12-15 10:00","2021","12","15","10:00","-9.2","","-14.2","","67","","","","28","","6","","14.5","","101.68","","","","-13","","NA"
"-71.50","46.90","VALCARTIER A","7018573","2021-12-15 11:00","2021","12","15","11:00","-8.2","","-14.2","","62","","","","","","0","","14.5","","101.60","","","","","","NA"
"-71.50","46.90","VALCARTIER A","7018573","2021-12-15 12:00","2021","12","15","12:00","-7.5","","-13.4","","63","","","","","","0","","14.5","","101.49","","","","","","NA"
"-71.50","46.90","VALCARTIER A","7018573","2021-12-15 13:00","2021","12","15","13:00","-7.1","","-13.5","","60","","","","","","0","","14.5","","101.40","","","","","","NA"
"-71.50","46.90","VALCARTIER A","7018573","2021-12-15 14:00","2021","12","15","14:00","-5.7","","-13.5","","54","","","","10","","4","","14.5","","101.22","","","","-8","","NA"
"-71.50","46.90","VALCARTIER A","7018573","2021-12-15 15:00","2021","12","15","15:00","-5.8","","-13.4","","55","","","","9","","6","","14.5","","101.07","","","","-9","","NA"
"-71.50","46.90","VALCARTIER A","7018573","2021-12-15 16:00","2021","12","15","16:00","-5.8","","-13.3","","55","","","","4","","9","","14.5","","100.96","","","","-10","","NA"
"-71.50","46.90","VALCARTIER A","7018573","2021-12-15 17:00","2021","12","15","17:00","-5.6","","-12.9","","56","","","","3","","9","","14.5","","100.82","","","","-10","","NA"
"-71.50","46.90","VALCARTIER A","7018573","2021-12-15 18:00","2021","12","15","18:00","-5.3","","-13.0","","55","","","","","","0","","14.5","","100.74","","","","","","NA"
"-71.50","46.90","VALCARTIER A","7018573","2021-12-15 19:00","2021","12","15","19:00","-5.1","","-11.9","","59","","","","22","","11","","14.5","","100.76","","","","-10","","NA"
"-71.50","46.90","VALCARTIER A","7018573","2021-12-15 20:00","2021","12","15","20:00","-6.3","","-8.3","","86","","","","12","","9","","0.6","","100.61","","","","-11","","Snow"
"-71.50","46.90","VALCARTIER A","7018573","2021-12-15 21:00","2021","12","15","21:00","-6.1","","-7.4","","91","","","","1","","4","","0.5","","100.49","","","","-8","","Snow"
"-71.50","46.90","VALCARTIER A","7018573","2021-12-15 22:00","2021","12","15","22:00","-5.8","","-7.0","","91","","","","3","","6","","1.0","","100.31","","","","-9","","Snow"
"-71.50","46.90","VALCARTIER A","7018573","2021-12-15 23:00","2021","12","15","23:00","-5.3","","-6.6","","91","","","","7","","6","","1.0","","100.15","","","","-8","","Snow"
"-71.50","46.90","VALCARTIER A","7018573","2021-12-16 00:00","2021","12","16","00:00","-4.9","","-6.1","","91","","","","9","","4","","0.8","","100.04","","","","-7","","Snow"
"-71.50","46.90","VALCARTIER A","7018573","2021-12-16 01:00","2021","12","16","01:00","-4.3","","-5.4","","92","","","","12","","4","","2.7","","99.94","","","","-6","","Rain"
"-71.50","46.90","VALCARTIER A","7018573","2021-12-16 02:00","2021","12","16","02:00","-3.4","","-4.4","","93","","","","12","","6","","2.3","","99.89","","","","-6","","Freezing Rain"
"-71.50","46.90","VALCARTIER A","7018573","2021-12-16 03:00","2021","12","16","03:00","-3.2","","-4.1","","94","","","","11","","4","","9.7","","99.79","","","","-5","","Freezing Rain"
"-71.50","46.90","VALCARTIER A","7018573","2021-12-16 04:00","2021","12","16","04:00","-2.7","","-3.4","","95","","","","8","","4","","4.0","","99.69","","","","-4","","Freezing Drizzle"
"-71.50","46.90","VALCARTIER A","7018573","2021-12-16 05:00","2021","12","16","05:00","-2.1","","-2.7","","96","","","","","","0","","2.3","","99.60","","","","","","Freezing Drizzle"
"-71.50","46.90","VALCARTIER A","7018573","2021-12-16 06:00","2021","12","16","06:00","-2.2","","-2.9","","95","","","","11","","6","","2.3","","99.54","","","","-5","","Freezing Rain"
"-71.50","46.90","VALCARTIER A","7018573","2021-12-16 07:00","2021","12","16","07:00","-1.9","","-2.7","","94","","","","12","","4","","2.4","","99.48","","","","-3","","Freezing Rain"
"-71.50","46.90","VALCARTIER A","7018573","2021-12-16 08:00","2021","12","16","08:00","-1.3","","-2.1","","94","","","","11","","6","","1.9","","99.38","","","","-4","","Freezing Rain"
"-71.50","46.90","VALCARTIER A","7018573","2021-12-16 09:00","2021","12","16","09:00","-1.1","","-1.8","","95","","","","13","","6","","2.4","","99.29","","","","-3","","Freezing Rain"
"-71.50","46.90","VALCARTIER A","7018573","2021-12-16 10:00","2021","12","16","10:00","-0.5","","-1.1","","96","","","","15","","6","","4.0","","99.18","","","","-3","","Freezing Rain"
"-71.50","46.90","VALCARTIER A","7018573","2021-12-16 11:00","2021","12","16","11:00","-0.2","","-0.9","","95","","","","","","0","","9.7","","99.02","","","","","","NA"
"-71.50","46.90","VALCARTIER A","7018573","2021-12-16 12:00","2021","12","16","12:00"
"-71.50","46.90","VALCARTIER A","7018573","2021-12-16 13:00","2021","12","16","13:00","0.4","","-0.2","","96","","","","9","","4","","5.6","","98.70","","","","","","NA"
"-71.50","46.90","VALCARTIER A","7018573","2021-12-16 14:00","2021","12","16","14:00","0.6","","0.0","","96","","","","","","0","","6.4","","98.57","","","","","","NA"
"-71.50","46.90","VALCARTIER A","7018573","2021-12-16 15:00","2021","12","16","15:00","0.8","","0.3","","96","","","","10","","6","","9.7","","98.45","","","","","","Rain"
"-71.50","46.90","VALCARTIER A","7018573","2021-12-16 16:00","2021","12","16","16:00","0.8","","0.3","","96","","","","","","0","","6.4","","98.42","","","","","","NA"
"-71.50","46.90","VALCARTIER A","7018573","2021-12-16 17:00","2021","12","16","17:00","0.5","","0.0","","96","","","","","","0","","5.6","","98.35","","","","","","NA"
"-71.50","46.90","VALCARTIER A","7018573","2021-12-16 18:00","2021","12","16","18:00","0.6","","0.1","","96","","","","","","0","","8.0","","98.26","","","","","","NA"
"-71.50","46.90","VALCARTIER A","7018573","2021-12-16 19:00","2021","12","16","19:00","0.7","","0.3","","97","","","","","","0","","6.4","","98.13","","","","","","NA"
"-71.50","46.90","VALCARTIER A","7018573","2021-12-16 20:00","2021","12","16","20:00","1.0","","0.4","","96","","","","36","","4","","6.4","","98.02","","","","","","NA"
"-71.50","46.90","VALCARTIER A","7018573","2021-12-16 21:00","2021","12","16","21:00","1.0","","0.5","","97","","","","","","0","","4.8","","97.90","","","","","","Rain"
"-71.50","46.90","VALCARTIER A","7018573","2021-12-16 22:00","2021","12","16","22:00","1.6","","1.2","","97","","","","","","0","","8.0","","97.76","","","","","","NA"
"-71.50","46.90","VALCARTIER A","7018573","2021-12-16 23:00","2021","12","16","23:00","1.1","","0.8","","98","","","","36","","4","","6.4","","97.65","","","","","","NA"
"-71.50","46.90","VALCARTIER A","7018573","2021-12-17 00:00","2021","12","17","00:00","0.9","","0.6","","98","","","","","","0","","6.4","","97.58","","","","","","NA"
"-71.50","46.90","VALCARTIER A","7018573","2021-12-17 01:00","2021","12","17","01:00","1.3","","0.8","","97","","","","19","","6","","9.7","","97.52","","","","","","NA"
"-71.50","46.90","VALCARTIER A","7018573","2021-12-17 02:00","2021","12","17","02:00","6.8","","5.7","","93","","","","27","","13","","14.5","","97.71","","","","","","NA"
"-71.50","46.90","VALCARTIER A","7018573","2021-12-17 03:00","2021","12","17","03:00","6.1","","3.6","","84","","","","26","","17","","14.5","","97.81","","","","","","NA"
"-71.50","46.90","VALCARTIER A","7018573","2021-12-17 04:00","2021","12","17","04:00","5.4","","2.7","","83","","","","27","","15","","14.5","","97.89","","","","","","NA"
"-71.50","46.90","VALCARTIER A","7018573","2021-12-17 05:00","2021","12","17","05:00"
"-71.50","46.90","VALCARTIER A","7018573","2021-12-17 06:00","2021","12","17","06:00","3.9","","0.8","","80","","","","26","","26","","14.5","","98.18","","","","","","Rain"
"-71.50","46.90","VALCARTIER A","7018573","2021-12-17 07:00","2021","12","17","07:00","3.5","","-0.1","","77","","","","26","","20","","14.5","","98.32","","","","","","Rain"
"-71.50","46.90","VALCARTIER A","7018573","2021-12-17 08:00","2021","12","17","08:00","2.1","","0.2","","87","","","","26","","19","","14.5","","98.47","","","","","","Rain"
"-71.50","46.90","VALCARTIER A","7018573","2021-12-17 09:00","2021","12","17","09:00","2.1","","0.0","","86","","","","25","","19","","14.5","","98.57","","","","","","Rain"
"-71.50","46.90","VALCARTIER A","7018573","2021-12-17 10:00","2021","12","17","10:00"
"-71.50","46.90","VALCARTIER A","7018573","2021-12-17 11:00","2021","12","17","11:00","2.5","","-4.0","","62","","","","26","","24","","14.5","","98.71","","","","","","NA"
"-71.50","46.90","VALCARTIER A","7018573","2021-12-17 12:00","2021","12","17","12:00","2.4","","-4.5","","60","","","","27","","22","","14.5","","98.74","","","","","","NA"
"-71.50","46.90","VALCARTIER A","7018573","2021-12-17 13:00","2021","12","17","13:00","2.4","","-5.0","","58","","","","28","","20","","14.5","","98.81","","","","","","NA"
"-71.50","46.90","VALCARTIER A","7018573","2021-12-17 14:00","2021","12","17","14:00","2.2","","-4.6","","61","","","","26","","20","","14.5","","98.92","","","","","","Snow"
"-71.50","46.90","VALCARTIER A","7018573","2021-12-17 15:00","2021","12","17","15:00","2.1","","-4.5","","62","","","","25","","15","","14.5","","99.01","","","","","","Snow"
"-71.50","46.90","VALCARTIER A","7018573","2021-12-17 16:00","2021","12","17","16:00","2.0","","-4.8","","61","","","","26","","11","","14.5","","99.13","","","","","","Snow"
"-71.50","46.90","VALCARTIER A","7018573","2021-12-17 17:00","2021","12","17","17:00","1.8","","-5.2","","60","","","","27","","15","","14.5","","99.26","","","","","","NA"
"-71.50","46.90","VALCARTIER A","7018573","2021-12-17 18:00","2021","12","17","18:00","1.5","","-5.1","","62","","","","28","","20","","14.5","","99.37","","","","","","NA"
"-71.50","46.90","VALCARTIER A","7018573","2021-12-17 19:00","2021","12","17","19:00","0.6","","-7.5","","55","","","","28","","26","","14.5","","99.53","","","","","","NA"
"-71.50","46.90","VALCARTIER A","7018573","2021-12-17 20:00","2021","12","17","20:00","-0.3","","-8.6","","54","","","","28","","24","","14.5","","99.62","","","","-6","","NA"
"-71.50","46.90","VALCARTIER A","7018573","2021-12-17 21:00","2021","12","17","21:00","-1.3","","-9.7","","53","","","","29","","22","","14.5","","99.76","","","","-7","","NA"
"-71.50","46.90","VALCARTIER A","7018573","2021-12-17 22:00","2021","12","17","22:00","-1.9","","-10.1","","54","","","","29","","17","","14.5","","99.87","","","","-7","","NA"
"-71.50","46.90","VALCARTIER A","7018573","2021-12-17 23:00","2021","12","17","23:00","-2.4","","-10.5","","54","","","","32","","15","","14.5","","99.94","","","","-7","","NA"
"-71.50","46.90","VALCARTIER A","7018573","2021-12-18 00:00","2021","12","18","00:00","-3.6","","-11.4","","55","","","","33","","26","","14.5","","100.04","","","","-11","","Snow"
"-71.50","46.90","VALCARTIER A","7018573","2021-12-18 01:00","2021","12","18","01:00","-5.0","","-12.5","","56","","","","34","","24","","14.5","","100.18","","","","-12","","NA"
"-71.50","46.90","VALCARTIER A","7018573","2021-12-18 02:00","2021","12","18","02:00","-5.8","","-13.1","","56","","","","30","","13","","14.5","","100.31","","","","-11","","NA"
"-71.50","46.90","VALCARTIER A","7018573","2021-12-18 03:00","2021","12","18","03:00","-6.2","","-14.0","","54","","","","29","","15","","14.5","","100.35","","","","-12","","NA"
"-71.50","46.90","VALCARTIER A","7018573","2021-12-18 04:00","2021","12","18","04:00","-7.4","","-14.5","","57","","","","28","","9","","14.5","","100.36","","","","-12","","NA"
"-71.50","46.90","VALCARTIER A","7018573","2021-12-18 05:00","2021","12","18","05:00","-8.2","","-14.5","","60","","","","29","","7","","14.5","","100.40","","","","-12","","NA"
"-71.50","46.90","VALCARTIER A","7018573","2021-12-18 06:00","2021","12","18","06:00","-8.1","","-14.2","","62","","","","31","","7","","14.5","","100.45","","","","-12","","NA"
"-71.50","46.90","VALCARTIER A","7018573","2021-12-18 07:00","2021","12","18","07:00","-8.2","","-14.1","","63","","","","30","","7","","14.5","","100.47","","","","-12","","NA"
"-71.50","46.90","VALCARTIER A","7018573","2021-12-18 08:00","2021","12","18","08:00","-9.5","","-14.3","","68","","","","33","","6","","14.5","","100.48","","","","-13","","NA"
"-71.50","46.90","VALCARTIER A","7018573","2021-12-18 09:00","2021","12","18","09:00","-8.2","","-13.9","","64","","","","1","","9","","14.5","","100.46","","","","-13","","NA"
"-71.50","46.90","VALCARTIER A","7018573","2021-12-18 10:00","2021","12","18","10:00","-7.6","","-13.8","","61","","","","1","","4","","14.5","","100.38","","","","-10","","NA"
"-71.50","46.90","VALCARTIER A","7018573","2021-12-18 11:00","2021","12","18","11:00","-7.4","","-13.3","","63","","","","34","","13","","14.5","","100.31","","","","-13","","NA"
"-71.50","46.90","VALCARTIER A","7018573","2021-12-18 12:00","2021","12","18","12:00","-6.6","","-13.2","","59","","","","36","","7","","14.5","","100.22","","","","-10","","NA"
"-71.50","46.90","VALCARTIER A","7018573","2021-12-18 13:00","2021","12","18","13:00","-6.2","","-13.3","","57","","","","1","","6","","14.5","","100.16","","","","-9","","NA"
"-71.50","46.90","VALCARTIER A","7018573","2021-12-18 14:00","2021","12","18","14:00","-5.8","","-13.1","","56","","","","36","","4","","14.5","","100.12","","","","-8","","NA"
"-71.50","46.90","VALCARTIER A","7018573","2021-12-18 15:00","2021","12","18","15:00","-5.8","","-13.3","","55","","","","","","0","","14.5","","100.06","","","","","","NA"
"-71.50","46.90","VALCARTIER A","7018573","2021-12-18 16:00","2021","12","18","16:00","-5.9","","-13.3","","56","","","","12","","7","","14.5","","100.03","","","","-9","","NA"
"-71.50","46.90","VALCARTIER A","7018573","2021-12-18 17:00","2021","12","18","17:00","-6.1","","-12.9","","59","","","","10","","6","","14.5","","99.96","","","","-9","","NA"
"-71.50","46.90","VALCARTIER A","7018573","2021-12-18 18:00","2021","12","18","18:00","-6.1","","-12.5","","61","","","","9","","9","","14.5","","99.95","","","","-10","","NA"
"-71.50","46.90","VALCARTIER A","7018573","2021-12-18 19:00","2021","12","18","19:00","-6.2","","-11.7","","65","","","","9","","9","","14.5","","99.89","","","","-10","","NA"
"-71.50","46.90","VALCARTIER A","7018573","2021-12-18 20:00","2021","12","18","20:00","-6.1","","-11.2","","67","","","","8","","6","","14.5","","99.91","","","","-9","","NA"
"-71.50","46.90","VALCARTIER A","7018573","2021-12-18 21:00","2021","12","18","21:00","-6.7","","-9.9","","78","","","","9","","9","","1.8","","99.78","","","","-11","","Snow"
"-71.50","46.90","VALCARTIER A","7018573","2021-12-18 22:00","2021","12","18","22:00","-7.1","","-9.7","","82","","","","7","","15","","1.8","","99.67","","","","-13","","Snow"
"-71.50","46.90","VALCARTIER A","7018573","2021-12-18 23:00","2021","12","18","23:00","-7.0","","-9.9","","80","","","","9","","15","","2.9","","99.65","","","","-13","","Snow"
"-71.50","46.90","VALCARTIER A","7018573","2021-12-19 00:00","2021","12","19","00:00","-7.1","","-9.8","","81","","","","8","","15","","2.3","","99.53","","","","-13","","Snow"
"-71.50","46.90","VALCARTIER A","7018573","2021-12-19 01:00","2021","12","19","01:00","-7.1","","-10.0","","80","","","","8","","17","","1.1","","99.50","","","","-14","","Snow"
"-71.50","46.90","VALCARTIER A","7018573","2021-12-19 02:00","2021","12","19","02:00","-7.4","","-9.3","","86","","","","9","","7","","0.8","","99.51","","","","-11","","Snow"
"-71.50","46.90","VALCARTIER A","7018573","2021-12-19 03:00","2021","12","19","03:00","-7.2","","-9.7","","82","","","","8","","11","","1.3","","99.51","","","","-12","","Snow"
"-71.50","46.90","VALCARTIER A","7018573","2021-12-19 04:00","2021","12","19","04:00","-7.3","","-9.7","","83","","","","8","","9","","1.4","","99.49","","","","-12","","Snow"
"-71.50","46.90","VALCARTIER A","7018573","2021-12-19 05:00","2021","12","19","05:00","-7.5","","-9.9","","83","","","","6","","7","","2.7","","99.50","","","","-11","","Snow"
"-71.50","46.90","VALCARTIER A","7018573","2021-12-19 06:00","2021","12","19","06:00"
"-71.50","46.90","VALCARTIER A","7018573","2021-12-19 07:00","2021","12","19","07:00","-9.4","","-10.5","","92","","","","","","0","","8.0","","99.67","","","","","","Snow"
"-71.50","46.90","VALCARTIER A","7018573","2021-12-19 08:00","2021","12","19","08:00","-9.7","","-11.1","","90","","","","","","0","","14.5","","99.72","","","","","","NA"
"-71.50","46.90","VALCARTIER A","7018573","2021-12-19 09:00","2021","12","19","09:00","-8.2","","-9.7","","89","","","","","","0","","14.5","","99.76","","","","","","NA"
"-71.50","46.90","VALCARTIER A","7018573","2021-12-19 10:00","2021","12","19","10:00","-6.4","","-9.7","","77","","","","13","","4","","14.5","","99.79","","","","-8","","NA"
"-71.50","46.90","VALCARTIER A","7018573","2021-12-19 11:00","2021","12","19","11:00","-5.7","","-9.9","","72","","","","27","","13","","14.5","","99.79","","","","-11","","Snow"
"-71.50","46.90","VALCARTIER A","7018573","2021-12-19 12:00","2021","12","19","12:00","-5.2","","-9.2","","74","","","","24","","6","","14.5","","99.81","","","","-8","","NA"
"-71.50","46.90","VALCARTIER A","7018573","2021-12-19 13:00","2021","12","19","13:00","-4.8","","-10.3","","65","","","","31","","15","","14.5","","99.80","","","","-10","","NA"
"-71.50","46.90","VALCARTIER A","7018573","2021-12-19 14:00","2021","12","19","14:00","-5.5","","-11.0","","65","","","","31","","15","","14.5","","99.88","","","","-11","","NA"
"-71.50","46.90","VALCARTIER A","7018573","2021-12-19 15:00","2021","12","19","15:00","-6.1","","-11.9","","64","","","","33","","15","","14.5","","99.96","","","","-12","","NA"
"-71.50","46.90","VALCARTIER A","7018573","2021-12-19 16:00","2021","12","19","16:00","-8.0","","-13.0","","67","","","","32","","13","","14.5","","100.07","","","","-14","","NA"
"-71.50","46.90","VALCARTIER A","7018573","2021-12-19 17:00","2021","12","19","17:00","-8.8","","-14.2","","65","","","","34","","28","","14.5","","100.17","","","","-18","","NA"
"-71.50","46.90","VALCARTIER A","7018573","2021-12-19 18:00","2021","12","19","18:00","-10.5","","-15.2","","68","","","","34","","9","","14.5","","100.27","","","","-15","","NA"
"-71.50","46.90","VALCARTIER A","7018573","2021-12-19 19:00","2021","12","19","19:00","-10.8","","-15.3","","69","","","","31","","9","","14.5","","100.31","","","","-16","","NA"
"-71.50","46.90","VALCARTIER A","7018573","2021-12-19 20:00","2021","12","19","20:00","-12.2","","-15.8","","75","","","","28","","9","","14.5","","100.33","","","","-17","","NA"
"-71.50","46.90","VALCARTIER A","7018573","2021-12-19 21:00","2021","12","19","21:00","-15.4","","-17.7","","83","","","","","","0","","14.5","","100.37","","","","","","NA"
"-71.50","46.90","VALCARTIER A","7018573","2021-12-19 22:00","2021","12","19","22:00","-17.8","","-19.2","","89","","","","30","","9","","14.5","","100.40","","","","-24","","NA"
"-71.50","46.90","VALCARTIER A","7018573","2021-12-19 23:00","2021","12","19","23:00","-17.0","","-18.6","","87","","","","27","","7","","14.5","","100.40","","","","-22","","NA"
"-71.50","46.90","VALCARTIER A","7018573","2021-12-20 00:00","2021","12","20","00:00","-18.1","","-20.0","","85","","","","","","0","","14.5","","100.38","","","","","","NA"
"-71.50","46.90","VALCARTIER A","7018573","2021-12-20 01:00","2021","12","20","01:00","-20.9","","-21.9","","92","","","","","","0","","8.0","","100.37","","","","","","NA"
"-71.50","46.90","VALCARTIER A","7018573","2021-12-20 02:00","2021","12","20","02:00","-22.5","","-27.0","","67","","","","","","0","","14.5","","100.39","","","","","","NA"
"-71.50","46.90","VALCARTIER A","7018573","2021-12-20 03:00","2021","12","20","03:00","-23.9","","-28.4","","66","","","","","","0","","14.5","","100.47","","","","","","NA"
"-71.50","46.90","VALCARTIER A","7018573","2021-12-20 04:00","2021","12","20","04:00","-23.2","","-28.0","","65","","","","","","0","","1.3","","100.49","","","","","","NA"
"-71.50","46.90","VALCARTIER A","7018573","2021-12-20 05:00","2021","12","20","05:00","-23.3","","-27.7","","67","","","","3","","4","","14.5","","100.48","","","","-27","","NA"
"-71.50","46.90","VALCARTIER A","7018573","2021-12-20 06:00","2021","12","20","06:00","-23.3","","-27.3","","70","","","","","","0","","14.5","","100.53","","","","","","NA"
"-71.50","46.90","VALCARTIER A","7018573","2021-12-20 07:00","2021","12","20","07:00","-21.6","","-25.5","","71","","","","","","0","","14.5","","100.52","","","","","","NA"
"-71.50","46.90","VALCARTIER A","7018573","2021-12-20 08:00","2021","12","20","08:00","-21.1","","-25.0","","71","","","","","","0","","14.5","","100.51","","","","","","NA"
"-71.50","46.90","VALCARTIER A","7018573","2021-12-20 09:00","2021","12","20","09:00","-17.8","","-21.0","","76","","","","","","0","","14.5","","100.54","","","","","","NA"
"-71.50","46.90","VALCARTIER A","7018573","2021-12-20 10:00","2021","12","20","10:00","-15.1","","-19.0","","72","","","","29","","4","","14.5","","100.47","","","","-18","","NA"
"-71.50","46.90","VALCARTIER A","7018573","2021-12-20 11:00","2021","12","20","11:00","-12.9","","-17.7","","67","","","","23","","13","","14.5","","100.42","","","","-20","","NA"
"-71.50","46.90","VALCARTIER A","7018573","2021-12-20 12:00","2021","12","20","12:00","-12.4","","-16.7","","70","","","","24","","4","","14.5","","100.30","","","","-15","","NA"
"-71.50","46.90","VALCARTIER A","7018573","2021-12-20 13:00","2021","12","20","13:00","-10.8","","-15.9","","66","","","","27","","4","","14.5","","100.18","","","","-13","","NA"
"-71.50","46.90","VALCARTIER A","7018573","2021-12-20 14:00","2021","12","20","14:00","-10.4","","-15.3","","67","","","","","","0","","14.5","","100.06","","","","","","NA"
"-71.50","46.90","VALCARTIER A","7018573","2021-12-20 15:00","2021","12","20","15:00","-10.2","","-14.5","","71","","","","","","0","","14.5","","99.97","","","","","","NA"
"-71.50","46.90","VALCARTIER A","7018573","2021-12-20 16:00","2021","12","20","16:00"
"-71.50","46.90","VALCARTIER A","7018573","2021-12-20 17:00","2021","12","20","17:00","-10.6","","-13.4","","80","","","","2","","6","","5.6","","99.76","","","","-14","","Snow"
"-71.50","46.90","VALCARTIER A","7018573","2021-12-20 18:00","2021","12","20","18:00","-10.7","","-12.8","","85","","","","","","0","","14.5","","99.64","","","","","","Snow"
"-71.50","46.90","VALCARTIER A","7018573","2021-12-20 19:00","2021","12","20","19:00","-10.6","","-12.4","","87","","","","4","","6","","1.0","","99.49","","","","-14","","Snow"
"-71.50","46.90","VALCARTIER A","7018573","2021-12-20 20:00","2021","12","20","20:00","-10.4","","-12.0","","88","","","","1","","7","","2.3","","99.42","","","","-14","","Snow"
"-71.50","46.90","VALCARTIER A","7018573","2021-12-20 21:00","2021","12","20","21:00","-9.9","","-11.6","","87","","","","36","","4","","12.9","","99.29","","","","-12","","Snow"
"-71.50","46.90","VALCARTIER A","7018573","2021-12-20 22:00","2021","12","20","22:00","-9.9","","-11.6","","87","","","","34","","4","","0.8","","99.13","","","","-12","","Snow"
"-71.50","46.90","VALCARTIER A","7018573","2021-12-20 23:00","2021","12","20","23:00","-9.6","","-10.8","","91","","","","","","0","","0.8","","99.05","","","","","","Snow"
"-71.50","46.90","VALCARTIER A","7018573","2021-12-21 00:00","2021","12","21","00:00","-9.4","","-10.7","","90","","","","","","0","","0.8","","98.95","","","","","","Snow"
"-71.50","46.90","VALCARTIER A","7018573","2021-12-21 01:00","2021","12","21","01:00","-9.1","","-10.3","","91","","","","","","0","","0.5","","98.87","","","","","","Snow"
"-71.50","46.90","VALCARTIER A","7018573","2021-12-21 02:00","2021","12","21","02:00","-8.6","","-9.8","","91","","","","","","0","","0.8","","98.83","","","","","","Snow"
"-71.50","46.90","VALCARTIER A","7018573","2021-12-21 03:00","2021","12","21","03:00","-8.2","","-9.4","","91","","","","","","0","","0.6","","98.79","","","","","","Snow"
"-71.50","46.90","VALCARTIER A","7018573","2021-12-21 04:00","2021","12","21","04:00","-7.5","","-8.8","","90","","","","","","0","","2.3","","98.76","","","","","","Snow"
"-71.50","46.90","VALCARTIER A","7018573","2021-12-21 05:00","2021","12","21","05:00","-6.4","","-7.6","","91","","","","19","","4","","12.9","","98.75","","","","-8","","Snow"
"-71.50","46.90","VALCARTIER A","7018573","2021-12-21 06:00","2021","12","21","06:00","-4.5","","-5.5","","93","","","","27","","7","","8.0","","98.80","","","","-8","","Snow"
"-71.50","46.90","VALCARTIER A","7018573","2021-12-21 07:00","2021","12","21","07:00"
"-71.50","46.90","VALCARTIER A","7018573","2021-12-21 08:00","2021","12","21","08:00","-4.5","","-8.9","","71","","","","29","","20","","3.2","","99.11","","","","-11","","Snow"
"-71.50","46.90","VALCARTIER A","7018573","2021-12-21 09:00","2021","12","21","09:00","-5.7","","-11.0","","66","","","","30","","22","","14.5","","99.27","","","","-13","","NA"
"-71.50","46.90","VALCARTIER A","7018573","2021-12-21 10:00","2021","12","21","10:00","-6.7","","-13.1","","60","","","","29","","20","","14.5","","99.47","","","","-14","","NA"
"-71.50","46.90","VALCARTIER A","7018573","2021-12-21 11:00","2021","12","21","11:00","-6.8","","-13.2","","60","","","","28","","17","","14.5","","99.49","","","","-13","","NA"
"-71.50","46.90","VALCARTIER A","7018573","2021-12-21 12:00","2021","12","21","12:00","-7.3","","-13.8","","60","","","","31","","22","","14.5","","99.59","","","","-15","","NA"
"-71.50","46.90","VALCARTIER A","7018573","2021-12-21 13:00","2021","12","21","13:00","-8.3","","-15.6","","56","","","","32","","19","","14.5","","99.63","","","","-16","","NA"
"-71.50","46.90","VALCARTIER A","7018573","2021-12-21 14:00","2021","12","21","14:00","-8.2","","-15.5","","56","","","","29","","17","","14.5","","99.60","","","","-15","","NA"
"-71.50","46.90","VALCARTIER A","7018573","2021-12-21 15:00","2021","12","21","15:00","-8.6","","-15.7","","57","","","","29","","9","","14.5","","99.66","","","","-13","","NA"
"-71.50","46.90","VALCARTIER A","7018573","2021-12-21 16:00","2021","12","21","16:00","-9.9","","-15.3","","65","","","","25","","6","","14.5","","99.77","","","","-13","","NA"
"-71.50","46.90","VALCARTIER A","7018573","2021-12-21 17:00","2021","12","21","17:00","-13.7","","-16.2","","81","","","","4","","4","","14.5","","99.76","","","","-16","","NA"
"-71.50","46.90","VALCARTIER A","7018573","2021-12-21 18:00","2021","12","21","18:00","-16.2","","-18.1","","85","","","","","","0","","14.5","","99.74","","","","","","NA"
"-71.50","46.90","VALCARTIER A","7018573","2021-12-21 19:00","2021","12","21","19:00","-14.6","","-16.8","","83","","","","","","0","","14.5","","99.71","","","","","","NA"
"-71.50","46.90","VALCARTIER A","7018573","2021-12-21 20:00","2021","12","21","20:00","-13.2","","-15.4","","84","","","","3","","4","","14.5","","99.61","","","","-16","","NA"
"-71.50","46.90","VALCARTIER A","7018573","2021-12-21 21:00","2021","12","21","21:00","-14.3","","-15.7","","89","","","","5","","4","","14.5","","99.53","","","","-17","","NA"
"-71.50","46.90","VALCARTIER A","7018573","2021-12-21 22:00","2021","12","21","22:00","-11.9","","-15.4","","75","","","","3","","13","","14.5","","99.39","","","","-19","","NA"
"-71.50","46.90","VALCARTIER A","7018573","2021-12-21 23:00","2021","12","21","23:00","-12.0","","-15.1","","78","","","","1","","6","","14.5","","99.45","","","","-16","","NA"
"-71.50","46.90","VALCARTIER A","7018573","2021-12-22 00:00","2021","12","22","00:00","-11.3","","-14.7","","76","","","","2","","11","","14.5","","99.29","","","","-17","","NA"
"-71.50","46.90","VALCARTIER A","7018573","2021-12-22 01:00","2021","12","22","01:00","-8.9","","-12.7","","74","","","","6","","11","","14.5","","99.04","","","","-14","","NA"
"-71.50","46.90","VALCARTIER A","7018573","2021-12-22 02:00","2021","12","22","02:00","-8.2","","-13.1","","68","","","","8","","20","","14.5","","98.95","","","","-16","","NA"
"-71.50","46.90","VALCARTIER A","7018573","2021-12-22 03:00","2021","12","22","03:00","-8.2","","-12.6","","71","","","","7","","13","","14.5","","98.83","","","","-14","","NA"
"-71.50","46.90","VALCARTIER A","7018573","2021-12-22 04:00","2021","12","22","04:00","-7.8","","-12.6","","68","","","","7","","11","","14.5","","98.67","","","","-13","","NA"
"-71.50","46.90","VALCARTIER A","7018573","2021-12-22 05:00","2021","12","22","05:00","-7.4","","-12.1","","69","","","","9","","11","","14.5","","98.55","","","","-12","","NA"
"-71.50","46.90","VALCARTIER A","7018573","2021-12-22 06:00","2021","12","22","06:00","-7.1","","-11.9","","69","","","","7","","6","","14.5","","98.48","","","","-10","","NA"
"-71.50","46.90","VALCARTIER A","7018573","2021-12-22 07:00","2021","12","22","07:00","-6.1","","-10.8","","69","","","","8","","17","","14.5","","98.37","","","","-12","","NA"
"-71.50","46.90","VALCARTIER A","7018573","2021-12-22 08:00","2021","12","22","08:00","-6.1","","-10.8","","69","","","","9","","15","","14.5","","98.35","","","","-12","","NA"
"-71.50","46.90","VALCARTIER A","7018573","2021-12-22 09:00","2021","12","22","09:00","-5.7","","-10.1","","71","","","","11","","11","","14.5","","98.26","","","","-10","","NA"
"-71.50","46.90","VALCARTIER A","7018573","2021-12-22 10:00","2021","12","22","10:00","-5.2","","-9.7","","71","","","","6","","4","","14.5","","98.24","","","","-7","","Snow"
"-71.50","46.90","VALCARTIER A","7018573","2021-12-22 11:00","2021","12","22","11:00","-4.4","","-8.6","","73","","","","10","","11","","14.5","","98.10","","","","-9","","Snow"
"-71.50","46.90","VALCARTIER A","7018573","2021-12-22 12:00","2021","12","22","12:00","-4.6","","-8.7","","73","","","","13","","7","","14.5","","97.97","","","","-8","","Snow"
"-71.50","46.90","VALCARTIER A","7018573","2021-12-22 13:00","2021","12","22","13:00","-4.6","","-8.4","","75","","","","14","","13","","9.7","","97.91","","","","-10","","Snow"
"-71.50","46.90","VALCARTIER A","7018573","2021-12-22 14:00","2021","12","22","14:00","-5.5","","-7.6","","85","","","","13","","6","","1.1","","97.88","","","","-8","","Snow"
"-71.50","46.90","VALCARTIER A","7018573","2021-12-22 15:00","2021","12","22","15:00","-5.5","","-7.3","","87","","","","14","","6","","4.8","","97.86","","","","-8","","Snow"
"-71.50","46.90","VALCARTIER A","7018573","2021-12-22 16:00","2021","12","22","16:00","-5.5","","-7.3","","87","","","","14","","7","","3.4","","97.91","","","","-9","","Snow"
"-71.50","46.90","VALCARTIER A","7018573","2021-12-22 17:00","2021","12","22","17:00","-5.6","","-7.3","","88","","","","14","","9","","4.8","","97.93","","","","-10","","Snow"
"-71.50","46.90","VALCARTIER A","7018573","2021-12-22 18:00","2021","12","22","18:00","-5.9","","-7.5","","88","","","","19","","4","","2.1","","98.00","","","","-8","","Snow"
"-71.50","46.90","VALCARTIER A","7018573","2021-12-22 19:00","2021","12","22","19:00","-5.8","","-7.7","","86","","","","17","","4","","5.6","","98.03","","","","-8","","Snow"
"-71.50","46.90","VALCARTIER A","7018573","2021-12-22 20:00","2021","12","22","20:00","-6.0","","-7.9","","86","","","","15","","4","","8.0","","98.03","","","","-8","","Snow"
"-71.50","46.90","VALCARTIER A","7018573","2021-12-22 21:00","2021","12","22","21:00","-6.4","","-7.8","","90","","","","","","0","","0.6","","98.03","","","","","","Snow"
"-71.50","46.90","VALCARTIER A","7018573","2021-12-22 22:00","2021","12","22","22:00","-6.4","","-7.7","","91","","","","26","","7","","4.0","","98.03","","","","-10","","Snow"
"-71.50","46.90","VALCARTIER A","7018573","2021-12-22 23:00","2021","12","22","23:00","-5.7","","-7.7","","86","","","","27","","15","","14.5","","98.08","","","","-11","","Snow"
"-71.50","46.90","VALCARTIER A","7018573","2021-12-23 00:00","2021","12","23","00:00","-6.8","","-11.3","","70","","","","29","","20","","14.5","","98.20","","","","-14","","NA"
"-71.50","46.90","VALCARTIER A","7018573","2021-12-23 01:00","2021","12","23","01:00","-8.6","","-14.1","","64","","","","31","","19","","14.5","","98.38","","","","-16","","NA"
"-71.50","46.90","VALCARTIER A","7018573","2021-12-23 02:00","2021","12","23","02:00","-10.2","","-14.5","","71","","","","27","","15","","14.5","","98.60","","","","-17","","NA"
"-71.50","46.90","VALCARTIER A","7018573","2021-12-23 03:00","2021","12","23","03:00","-11.3","","-15.3","","72","","","","29","","15","","14.5","","98.76","","","","-18","","NA"
"-71.50","46.90","VALCARTIER A","7018573","2021-12-23 04:00","2021","12","23","04:00","-12.6","","-16.6","","72","","","","30","","20","","14.5","","98.85","","","","-21","","Snow"
"-71.50","46.90","VALCARTIER A","7018573","2021-12-23 05:00","2021","12","23","05:00","-14.1","","-18.6","","69","","","","29","","19","","14.5","","99.04","","","","-23","","NA"
"-71.50","46.90","VALCARTIER A","7018573","2021-12-23 06:00","2021","12","23","06:00","-14.4","","-18.8","","69","","","","28","","17","","14.5","","99.23","","","","-23","","NA"
"-71.50","46.90","VALCARTIER A","7018573","2021-12-23 07:00","2021","12","23","07:00","-15.1","","-19.1","","72","","","","28","","9","","14.5","","99.31","","","","-21","","NA"
"-71.50","46.90","VALCARTIER A","7018573","2021-12-23 08:00","2021","12","23","08:00","-15.2","","-19.4","","70","","","","26","","19","","4.0","","99.45","","","","-24","","NA"
"-71.50","46.90","VALCARTIER A","7018573","2021-12-23 09:00","2021","12","23","09:00","-15.0","","-19.5","","69","","","","27","","17","","14.5","","99.61","","","","-23","","NA"
"-71.50","46.90","VALCARTIER A","7018573","2021-12-23 10:00","2021","12","23","10:00","-14.9","","-20.7","","61","","","","33","","17","","14.5","","99.66","","","","-23","","NA"
"-71.50","46.90","VALCARTIER A","7018573","2021-12-23 11:00","2021","12","23","11:00","-14.8","","-21.0","","59","","","","34","","17","","14.5","","99.67","","","","-23","","NA"
"-71.50","46.90","VALCARTIER A","7018573","2021-12-23 12:00","2021","12","23","12:00","-14.5","","-21.0","","58","","","","32","","19","","14.5","","99.64","","","","-23","","NA"
"-71.50","46.90","VALCARTIER A","7018573","2021-12-23 13:00","2021","12","23","13:00","-13.7","","-20.8","","55","","","","31","","19","","14.5","","99.64","","","","-22","","NA"
"-71.50","46.90","VALCARTIER A","7018573","2021-12-23 14:00","2021","12","23","14:00","-13.8","","-20.8","","56","","","","28","","15","","14.5","","99.69","","","","-21","","NA"
"-71.50","46.90","VALCARTIER A","7018573","2021-12-23 15:00","2021","12","23","15:00","-14.4","","-21.1","","57","","","","29","","24","","14.5","","99.75","","","","-24","","NA"
"-71.50","46.90","VALCARTIER A","7018573","2021-12-23 16:00","2021","12","23","16:00","-15.5","","-24.7","","45","","","","28","","11","","14.5","","99.84","","","","-22","","NA"
"-71.50","46.90","VALCARTIER A","7018573","2021-12-23 17:00","2021","12","23","17:00","-16.2","","-23.7","","52","","","","29","","9","","14.5","","99.89","","","","-22","","NA"
"-71.50","46.90","VALCARTIER A","7018573","2021-12-23 18:00","2021","12","23","18:00","-21.5","","-25.8","","68","","","","","","0","","14.5","","99.96","","","","","","NA"
"-71.50","46.90","VALCARTIER A","7018573","2021-12-23 19:00","2021","12","23","19:00","-23.5","","-27.6","","69","","","","","","0","","14.5","","99.99","","","","","","NA"
"-71.50","46.90","VALCARTIER A","7018573","2021-12-23 20:00","2021","12","23","20:00","-25.5","","-29.6","","69","","","","","","0","","14.5","","100.04","","","","","","NA"
"-71.50","46.90","VALCARTIER A","7018573","2021-12-23 21:00","2021","12","23","21:00","-26.5","","-30.9","","66","","","","","","0","","14.5","","100.00","","","","","","NA"
"-71.50","46.90","VALCARTIER A","7018573","2021-12-23 22:00","2021","12","23","22:00","-26.8","","-31.0","","68","","","","","","0","","14.5","","99.98","","","","","","NA"
"-71.50","46.90","VALCARTIER A","7018573","2021-12-23 23:00","2021","12","23","23:00","-28.0","","-32.3","","67","","","","","","0","","14.5","","100.03","","","","","","NA"
"-71.50","46.90","VALCARTIER A","7018573","2021-12-24 00:00","2021","12","24","00:00","-28.2","","-32.6","","66","","","","","","0","","14.5","","100.03","","","","","","NA"
"-71.50","46.90","VALCARTIER A","7018573","2021-12-24 01:00","2021","12","24","01:00","-28.7","","-33.6","","63","","","","34","","4","","14.5","","99.98","","","","-33","","NA"
"-71.50","46.90","VALCARTIER A","7018573","2021-12-24 02:00","2021","12","24","02:00","-29.3","","-34.2","","63","","","","","","0","","14.5","","100.03","","","","","","NA"
"-71.50","46.90","VALCARTIER A","7018573","2021-12-24 03:00","2021","12","24","03:00","-29.7","","-33.7","","68","","","","","","0","","14.5","","100.02","","","","","","NA"
"-71.50","46.90","VALCARTIER A","7018573","2021-12-24 04:00","2021","12","24","04:00","-29.2","","-34.0","","63","","","","","","0","","14.5","","99.98","","","","","","Snow"
"-71.50","46.90","VALCARTIER A","7018573","2021-12-24 05:00","2021","12","24","05:00","-27.3","","-31.6","","67","","","","","","0","","14.5","","99.99","","","","","","NA"
"-71.50","46.90","VALCARTIER A","7018573","2021-12-24 06:00","2021","12","24","06:00","-25.2","","-29.5","","67","","","","","","0","","14.5","","99.98","","","","","","Snow"
"-71.50","46.90","VALCARTIER A","7018573","2021-12-24 07:00","2021","12","24","07:00","-22.9","","-26.8","","70","","","","","","0","","14.5","","100.01","","","","","","NA"
"-71.50","46.90","VALCARTIER A","7018573","2021-12-24 08:00","2021","12","24","08:00","-21.5","","-25.3","","71","","","","","","0","","14.5","","99.99","","","","","","NA"
"-71.50","46.90","VALCARTIER A","7018573","2021-12-24 09:00","2021","12","24","09:00","-19.7","","-23.3","","73","","","","","","0","","14.5","","99.96","","","","","","NA"
"-71.50","46.90","VALCARTIER A","7018573","2021-12-24 10:00","2021","12","24","10:00","-17.8","","-21.3","","74","","","","","","0","","14.5","","99.91","","","","","","NA"
"-71.50","46.90","VALCARTIER A","7018573","2021-12-24 11:00","2021","12","24","11:00","-14.4","","-19.1","","68","","","","","","0","","14.5","","99.83","","","","","","NA"
"-71.50","46.90","VALCARTIER A","7018573","2021-12-24 12:00","2021","12","24","12:00","-12.7","","-18.8","","60","","","","22","","11","","14.5","","99.78","","","","-19","","NA"
"-71.50","46.90","VALCARTIER A","7018573","2021-12-24 13:00","2021","12","24","13:00","-12.3","","-18.2","","61","","","","21","","7","","14.5","","99.72","","","","-17","","NA"
"-71.50","46.90","VALCARTIER A","7018573","2021-12-24 14:00","2021","12","24","14:00","-11.2","","-17.0","","62","","","","24","","7","","14.5","","99.60","","","","-15","","NA"
"-71.50","46.90","VALCARTIER A","7018573","2021-12-24 15:00","2021","12","24","15:00","-11.0","","-17.2","","60","","","","21","","11","","14.5","","99.58","","","","-17","","NA"
"-71.50","46.90","VALCARTIER A","7018573","2021-12-24 16:00","2021","12","24","16:00","-12.0","","-17.7","","63","","","","22","","6","","14.5","","99.58","","","","-16","","NA"
"-71.50","46.90","VALCARTIER A","7018573","2021-12-24 17:00","2021","12","24","17:00","-13.3","","-18.1","","67","","","","21","","7","","14.5","","99.58","","","","-18","","NA"
"-71.50","46.90","VALCARTIER A","7018573","2021-12-24 18:00","2021","12","24","18:00","-16.0","","-21.0","","65","","","","","","0","","14.5","","99.53","","","","","","NA"
"-71.50","46.90","VALCARTIER A","7018573","2021-12-24 19:00","2021","12","24","19:00","-18.1","","-22.7","","67","","","","","","0","","14.5","","99.54","","","","","","NA"
"-71.50","46.90","VALCARTIER A","7018573","2021-12-24 20:00","2021","12","24","20:00","-20.8","","-24.1","","75","","","","36","","7","","14.5","","99.47","","","","-27","","NA"
"-71.50","46.90","VALCARTIER A","7018573","2021-12-24 21:00","2021","12","24","21:00","-21.4","","-25.0","","73","","","","","","0","","14.5","","99.37","","","","","","NA"
"-71.50","46.90","VALCARTIER A","7018573","2021-12-24 22:00","2021","12","24","22:00","-22.2","","-25.7","","73","","","","","","0","","14.5","","99.31","","","","","","NA"
"-71.50","46.90","VALCARTIER A","7018573","2021-12-24 23:00","2021","12","24","23:00"
"-71.50","46.90","VALCARTIER A","7018573","2021-12-25 00:00","2021","12","25","00:00","-24.1","","-28.6","","66","","","","","","0","","1.4","","99.26","","","","","","NA"
"-71.50","46.90","VALCARTIER A","7018573","2021-12-25 01:00","2021","12","25","01:00","-25.0","","-29.1","","69","","","","36","","4","","2.6","","99.22","","","","-29","","NA"
"-71.50","46.90","VALCARTIER A","7018573","2021-12-25 02:00","2021","12","25","02:00"
"-71.50","46.90","VALCARTIER A","7018573","2021-12-25 03:00","2021","12","25","03:00","-22.5","","-26.5","","70","","","","","","0","","14.5","","99.05","","","","","","NA"
"-71.50","46.90","VALCARTIER A","7018573","2021-12-25 04:00","2021","12","25","04:00","-21.1","","-24.8","","72","","","","","","0","","14.5","","98.95","","","","","","NA"
"-71.50","46.90","VALCARTIER A","7018573","2021-12-25 05:00","2021","12","25","05:00","-21.5","","-25.4","","71","","","","","","0","","14.5","","98.87","","","","","","NA"
"-71.50","46.90","VALCARTIER A","7018573","2021-12-25 06:00","2021","12","25","06:00","-21.8","","-25.8","","70","","","","","","0","","14.5","","98.75","","","","","","NA"
"-71.50","46.90","VALCARTIER A","7018573","2021-12-25 07:00","2021","12","25","07:00","-21.5","","-25.3","","71","","","","","","0","","14.5","","98.69","","","","","","NA"
"-71.50","46.90","VALCARTIER A","7018573","2021-12-25 08:00","2021","12","25","08:00","-18.2","","-21.6","","75","","","","","","0","","14.5","","98.63","","","","","","NA"
"-71.50","46.90","VALCARTIER A","7018573","2021-12-25 09:00","2021","12","25","09:00","-14.2","","-17.0","","79","","","","","","0","","14.5","","98.56","","","","","","NA"
"-71.50","46.90","VALCARTIER A","7018573","2021-12-25 10:00","2021","12","25","10:00","-10.3","","-16.9","","58","","","","13","","6","","14.5","","98.49","","","","-14","","NA"
"-71.50","46.90","VALCARTIER A","7018573","2021-12-25 11:00","2021","12","25","11:00","-8.2","","-17.6","","47","","","","14","","7","","14.5","","98.42","","","","-12","","NA"
"-71.50","46.90","VALCARTIER A","7018573","2021-12-25 12:00","2021","12","25","12:00","-7.8","","-15.5","","54","","","","15","","6","","14.5","","98.31","","","","-11","","NA"
"-71.50","46.90","VALCARTIER A","7018573","2021-12-25 13:00","2021","12","25","13:00","-6.5","","-14.8","","52","","","","","","0","","14.5","","98.29","","","","","","NA"
"-71.50","46.90","VALCARTIER A","7018573","2021-12-25 14:00","2021","12","25","14:00","-6.1","","-14.5","","51","","","","","","0","","14.5","","98.26","","","","","","NA"
"-71.50","46.90","VALCARTIER A","7018573","2021-12-25 15:00","2021","12","25","15:00","-5.7","","-13.8","","53","","","","10","","4","","14.5","","98.23","","","","-8","","NA"
"-71.50","46.90","VALCARTIER A","7018573","2021-12-25 16:00","2021","12","25","16:00","-5.6","","-12.6","","58","","","","17","","4","","14.5","","98.23","","","","-7","","NA"
"-71.50","46.90","VALCARTIER A","7018573","2021-12-25 17:00","2021","12","25","17:00","-6.3","","-12.6","","61","","","","13","","4","","12.9","","98.23","","","","-8","","NA"
"-71.50","46.90","VALCARTIER A","7018573","2021-12-25 18:00","2021","12","25","18:00","-6.2","","-12.1","","63","","","","","","0","","12.9","","98.28","","","","","","NA"
"-71.50","46.90","VALCARTIER A","7018573","2021-12-25 19:00","2021","12","25","19:00","-6.1","","-12.0","","63","","","","13","","6","","12.9","","98.30","","","","-9","","NA"
"-71.50","46.90","VALCARTIER A","7018573","2021-12-25 20:00","2021","12","25","20:00","-6.2","","-11.2","","68","","","","13","","6","","11.3","","98.29","","","","-9","","NA"
"-71.50","46.90","VALCARTIER A","7018573","2021-12-25 21:00","2021","12","25","21:00","-6.2","","-10.7","","70","","","","12","","4","","12.9","","98.35","","","","-8","","NA"
"-71.50","46.90","VALCARTIER A","7018573","2021-12-25 22:00","2021","12","25","22:00","-6.0","","-9.8","","75","","","","16","","4","","14.5","","98.40","","","","-8","","NA"
"-71.50","46.90","VALCARTIER A","7018573","2021-12-25 23:00","2021","12","25","23:00","-6.4","","-9.8","","77","","","","9","","4","","14.5","","98.41","","","","-8","","NA"
"-71.50","46.90","VALCARTIER A","7018573","2021-12-26 00:00","2021","12","26","00:00","-6.5","","-9.8","","77","","","","12","","6","","14.5","","98.47","","","","-9","","NA"
"-71.50","46.90","VALCARTIER A","7018573","2021-12-26 01:00","2021","12","26","01:00","-6.2","","-9.5","","77","","","","14","","4","","14.5","","98.47","","","","-8","","NA"
"-71.50","46.90","VALCARTIER A","7018573","2021-12-26 02:00","2021","12","26","02:00","-6.1","","-9.3","","78","","","","15","","4","","14.5","","98.59","","","","-8","","NA"
"-71.50","46.90","VALCARTIER A","7018573","2021-12-26 03:00","2021","12","26","03:00","-6.4","","-9.3","","80","","","","","","0","","14.5","","98.60","","","","","","NA"
"-71.50","46.90","VALCARTIER A","7018573","2021-12-26 04:00","2021","12","26","04:00","-9.3","","-11.1","","87","","","","","","0","","14.5","","98.67","","","","","","NA"
"-71.50","46.90","VALCARTIER A","7018573","2021-12-26 05:00","2021","12","26","05:00","-12.8","","-14.1","","90","","","","1","","4","","14.5","","98.71","","","","-15","","NA"
"-71.50","46.90","VALCARTIER A","7018573","2021-12-26 06:00","2021","12","26","06:00","-13.8","","-15.4","","88","","","","","","0","","14.5","","98.76","","","","","","NA"
"-71.50","46.90","VALCARTIER A","7018573","2021-12-26 07:00","2021","12","26","07:00","-15.5","","-17.1","","88","","","","","","0","","14.5","","98.80","","","","","","NA"
"-71.50","46.90","VALCARTIER A","7018573","2021-12-26 08:00","2021","12","26","08:00","-15.8","","-17.2","","89","","","","","","0","","14.5","","98.89","","","","","","NA"
"-71.50","46.90","VALCARTIER A","7018573","2021-12-26 09:00","2021","12","26","09:00","-13.4","","-15.3","","86","","","","36","","4","","14.5","","98.92","","","","-16","","NA"
"-71.50","46.90","VALCARTIER A","7018573","2021-12-26 10:00","2021","12","26","10:00","-9.6","","-10.8","","91","","","","","","0","","14.5","","98.96","","","","","","NA"
"-71.50","46.90","VALCARTIER A","7018573","2021-12-26 11:00","2021","12","26","11:00","-6.3","","-9.8","","76","","","","25","","7","","14.5","","98.97","","","","-10","","NA"
"-71.50","46.90","VALCARTIER A","7018573","2021-12-26 12:00","2021","12","26","12:00","-5.4","","-9.4","","73","","","","23","","11","","14.5","","98.96","","","","-10","","NA"
"-71.50","46.90","VALCARTIER A","7018573","2021-12-26 13:00","2021","12","26","13:00","-4.9","","-9.0","","73","","","","22","","11","","14.5","","98.95","","","","-9","","NA"
"-71.50","46.90","VALCARTIER A","7018573","2021-12-26 14:00","2021","12","26","14:00","-4.7","","-8.6","","74","","","","22","","6","","14.5","","98.97","","","","-7","","NA"
"-71.50","46.90","VALCARTIER A","7018573","2021-12-26 15:00","2021","12","26","15:00","-4.6","","-8.5","","74","","","","22","","6","","14.5","","99.02","","","","-7","","NA"
"-71.50","46.90","VALCARTIER A","7018573","2021-12-26 16:00","2021","12","26","16:00","-4.5","","-8.1","","76","","","","14","","6","","14.5","","99.04","","","","-7","","NA"
"-71.50","46.90","VALCARTIER A","7018573","2021-12-26 17:00","2021","12","26","17:00","-4.4","","-7.8","","77","","","","35","","4","","14.5","","99.13","","","","-6","","NA"
"-71.50","46.90","VALCARTIER A","7018573","2021-12-26 18:00","2021","12","26","18:00","-3.8","","-9.6","","64","","","","34","","13","","14.5","","99.24","","","","-9","","Snow"
"-71.50","46.90","VALCARTIER A","7018573","2021-12-26 19:00","2021","12","26","19:00","-4.7","","-10.9","","62","","","","32","","9","","14.5","","99.35","","","","-9","","NA"
"-71.50","46.90","VALCARTIER A","7018573","2021-12-26 20:00","2021","12","26","20:00","-4.9","","-11.3","","61","","","","34","","9","","14.5","","99.42","","","","-9","","NA"
"-71.50","46.90","VALCARTIER A","7018573","2021-12-26 21:00","2021","12","26","21:00","-4.9","","-11.1","","62","","","","36","","15","","14.5","","99.49","","","","-10","","Snow"
"-71.50","46.90","VALCARTIER A","7018573","2021-12-26 22:00","2021","12","26","22:00","-4.5","","-10.5","","63","","","","35","","13","","14.5","","99.56","","","","-10","","Snow"
"-71.50","46.90","VALCARTIER A","7018573","2021-12-26 23:00","2021","12","26","23:00","-4.6","","-10.2","","65","","","","34","","6","","14.5","","99.63","","","","-7","","NA"
"-71.50","46.90","VALCARTIER A","7018573","2021-12-27 00:00","2021","12","27","00:00","-4.5","","-10.6","","62","","","","35","","15","","14.5","","99.67","","","","-10","","Snow"
"-71.50","46.90","VALCARTIER A","7018573","2021-12-27 01:00","2021","12","27","01:00","-4.7","","-10.4","","64","","","","35","","7","","14.5","","99.72","","","","-8","","NA"
"-71.50","46.90","VALCARTIER A","7018573","2021-12-27 02:00","2021","12","27","02:00","-6.1","","-11.4","","66","","","","35","","11","","14.5","","99.76","","","","-11","","NA"
"-71.50","46.90","VALCARTIER A","7018573","2021-12-27 03:00","2021","12","27","03:00","-9.6","","-12.6","","79","","","","","","0","","14.5","","99.71","","","","","","NA"
"-71.50","46.90","VALCARTIER A","7018573","2021-12-27 04:00","2021","12","27","04:00","-7.5","","-11.9","","71","","","","30","","11","","14.5","","99.75","","","","-13","","NA"
"-71.50","46.90","VALCARTIER A","7018573","2021-12-27 05:00","2021","12","27","05:00","-8.4","","-12.8","","71","","","","29","","15","","14.5","","99.76","","","","-15","","NA"
"-71.50","46.90","VALCARTIER A","7018573","2021-12-27 06:00","2021","12","27","06:00","-12.7","","-14.3","","88","","","","","","0","","14.5","","99.77","","","","","","NA"
"-71.50","46.90","VALCARTIER A","7018573","2021-12-27 07:00","2021","12","27","07:00","-13.3","","-15.4","","84","","","","15","","4","","14.5","","99.92","","","","-16","","NA"
"-71.50","46.90","VALCARTIER A","7018573","2021-12-27 08:00","2021","12","27","08:00","-11.0","","-12.8","","87","","","","1","","9","","14.5","","99.87","","","","-16","","NA"
"-71.50","46.90","VALCARTIER A","7018573","2021-12-27 09:00","2021","12","27","09:00","-8.8","","-14.1","","66","","","","2","","17","","14.5","","99.83","","","","-16","","Snow"
"-71.50","46.90","VALCARTIER A","7018573","2021-12-27 10:00","2021","12","27","10:00","-7.0","","-14.1","","57","","","","5","","6","","14.5","","99.81","","","","-10","","NA"
"-71.50","46.90","VALCARTIER A","7018573","2021-12-27 11:00","2021","12","27","11:00","-6.2","","-12.8","","60","","","","17","","6","","14.5","","99.74","","","","-9","","NA"
"-71.50","46.90","VALCARTIER A","7018573","2021-12-27 12:00","2021","12","27","12:00","-7.1","","-13.2","","62","","","","22","","13","","14.5","","99.73","","","","-13","","NA"
"-71.50","46.90","VALCARTIER A","7018573","2021-12-27 13:00","2021","12","27","13:00","-7.2","","-13.4","","61","","","","21","","11","","14.5","","99.76","","","","-12","","NA"
"-71.50","46.90","VALCARTIER A","7018573","2021-12-27 14:00","2021","12","27","14:00","-8.0","","-13.8","","63","","","","22","","9","","14.5","","99.77","","","","-13","","NA"
"-71.50","46.90","VALCARTIER A","7018573","2021-12-27 15:00","2021","12","27","15:00","-9.2","","-14.5","","65","","","","21","","4","","14.5","","99.69","","","","-11","","NA"
"-71.50","46.90","VALCARTIER A","7018573","2021-12-27 16:00","2021","12","27","16:00","-10.1","","-14.8","","68","","","","24","","6","","14.5","","99.63","","","","-14","","NA"
"-71.50","46.90","VALCARTIER A","7018573","2021-12-27 17:00","2021","12","27","17:00","-11.0","","-14.9","","73","","","","28","","4","","14.5","","99.58","","","","-13","","NA"
"-71.50","46.90","VALCARTIER A","7018573","2021-12-27 18:00","2021","12","27","18:00","-13.9","","-16.5","","81","","","","","","0","","14.5","","99.52","","","","","","NA"
"-71.50","46.90","VALCARTIER A","7018573","2021-12-27 19:00","2021","12","27","19:00","-14.1","","-16.2","","84","","","","","","0","","14.5","","99.51","","","","","","NA"
"-71.50","46.90","VALCARTIER A","7018573","2021-12-27 20:00","2021","12","27","20:00","-15.1","","-16.9","","86","","","","","","0","","14.5","","99.48","","","","","","NA"
"-71.50","46.90","VALCARTIER A","7018573","2021-12-27 21:00","2021","12","27","21:00","-16.0","","-17.3","","90","","","","","","0","","14.5","","99.41","","","","","","NA"
"-71.50","46.90","VALCARTIER A","7018573","2021-12-27 22:00","2021","12","27","22:00","-15.7","","-17.5","","86","","","","4","","4","","14.5","","99.33","","","","-19","","NA"
"-71.50","46.90","VALCARTIER A","7018573","2021-12-27 23:00","2021","12","27","23:00","-14.1","","-15.9","","86","","","","11","","4","","14.5","","99.29","","","","-17","","NA"
"-71.50","46.90","VALCARTIER A","7018573","2021-12-28 00:00","2021","12","28","00:00","-14.4","","-16.1","","87","","","","8","","4","","14.5","","99.16","","","","-17","","NA"
"-71.50","46.90","VALCARTIER A","7018573","2021-12-28 01:00","2021","12","28","01:00","-11.2","","-13.8","","81","","","","4","","7","","14.5","","99.01","","","","-15","","NA"
"-71.50","46.90","VALCARTIER A","7018573","2021-12-28 02:00","2021","12","28","02:00","-11.4","","-13.7","","83","","","","11","","4","","14.5","","98.99","","","","-14","","NA"
"-71.50","46.90","VALCARTIER A","7018573","2021-12-28 03:00","2021","12","28","03:00","-11.7","","-14.0","","83","","","","2","","6","","14.5","","98.91","","","","-15","","NA"
"-71.50","46.90","VALCARTIER A","7018573","2021-12-28 04:00","2021","12","28","04:00","-11.5","","-13.7","","84","","","","2","","4","","14.5","","98.85","","","","-14","","NA"
"-71.50","46.90","VALCARTIER A","7018573","2021-12-28 05:00","2021","12","28","05:00","-12.1","","-13.9","","86","","","","8","","6","","14.5","","98.71","","","","-16","","NA"
"-71.50","46.90","VALCARTIER A","7018573","2021-12-28 06:00","2021","12","28","06:00","-9.6","","-12.1","","82","","","","1","","7","","14.5","","98.57","","","","-14","","Snow"
"-71.50","46.90","VALCARTIER A","7018573","2021-12-28 07:00","2021","12","28","07:00","-8.7","","-11.6","","80","","","","3","","4","","14.5","","98.59","","","","-11","","Snow"
"-71.50","46.90","VALCARTIER A","7018573","2021-12-28 08:00","2021","12","28","08:00","-8.5","","-10.6","","85","","","","5","","6","","1.3","","98.66","","","","-12","","Snow"
"-71.50","46.90","VALCARTIER A","7018573","2021-12-28 09:00","2021","12","28","09:00","-8.3","","-9.6","","90","","","","","","0","","0.3","","98.59","","","","","","Snow"
"-71.50","46.90","VALCARTIER A","7018573","2021-12-28 10:00","2021","12","28","10:00","-7.1","","-9.0","","86","","","","12","","7","","2.3","","98.54","","","","-11","","Snow"
"-71.50","46.90","VALCARTIER A","7018573","2021-12-28 11:00","2021","12","28","11:00","-7.1","","-9.0","","86","","","","13","","9","","4.8","","98.47","","","","-11","","Snow"
"-71.50","46.90","VALCARTIER A","7018573","2021-12-28 12:00","2021","12","28","12:00","-6.5","","-8.8","","84","","","","15","","4","","6.4","","98.46","","","","-8","","Snow"
"-71.50","46.90","VALCARTIER A","7018573","2021-12-28 13:00","2021","12","28","13:00","-6.5","","-8.7","","84","","","","16","","6","","12.9","","98.50","","","","-9","","Snow"
"-71.50","46.90","VALCARTIER A","7018573","2021-12-28 14:00","2021","12","28","14:00"
"-71.50","46.90","VALCARTIER A","7018573","2021-12-28 15:00","2021","12","28","15:00","-6.3","","-8.0","","88","","","","21","","6","","6.4","","98.64","","","","-9","","Snow"
"-71.50","46.90","VALCARTIER A","7018573","2021-12-28 16:00","2021","12","28","16:00","-6.4","","-7.9","","89","","","","19","","6","","2.6","","98.68","","","","-9","","Snow"
"-71.50","46.90","VALCARTIER A","7018573","2021-12-28 17:00","2021","12","28","17:00","-6.5","","-8.0","","89","","","","23","","6","","6.4","","98.69","","","","-9","","NA"
"-71.50","46.90","VALCARTIER A","7018573","2021-12-28 18:00","2021","12","28","18:00","-6.1","","-7.7","","88","","","","23","","11","","9.7","","98.90","","","","-11","","NA"
"-71.50","46.90","VALCARTIER A","7018573","2021-12-28 19:00","2021","12","28","19:00","-6.4","","-9.1","","81","","","","26","","13","","14.5","","99.02","","","","-12","","NA"
"-71.50","46.90","VALCARTIER A","7018573","2021-12-28 20:00","2021","12","28","20:00","-6.9","","-9.6","","81","","","","27","","9","","14.5","","99.04","","","","-11","","NA"
"-71.50","46.90","VALCARTIER A","7018573","2021-12-28 21:00","2021","12","28","21:00","-7.4","","-10.6","","78","","","","27","","6","","14.5","","99.05","","","","-11","","NA"
"-71.50","46.90","VALCARTIER A","7018573","2021-12-28 22:00","2021","12","28","22:00","-7.5","","-11.0","","76","","","","18","","6","","14.5","","99.04","","","","-11","","NA"
"-71.50","46.90","VALCARTIER A","7018573","2021-12-28 23:00","2021","12","28","23:00","-7.7","","-11.5","","74","","","","26","","4","","14.5","","99.10","","","","-10","","NA"
"-71.50","46.90","VALCARTIER A","7018573","2021-12-29 00:00","2021","12","29","00:00","-8.1","","-11.8","","75","","","","30","","7","","14.5","","99.08","","","","-12","","NA"
"-71.50","46.90","VALCARTIER A","7018573","2021-12-29 01:00","2021","12","29","01:00","-8.3","","-11.8","","76","","","","26","","7","","14.5","","99.10","","","","-12","","NA"
"-71.50","46.90","VALCARTIER A","7018573","2021-12-29 02:00","2021","12","29","02:00","-8.9","","-11.9","","79","","","","27","","6","","14.5","","99.07","","","","-12","","NA"
"-71.50","46.90","VALCARTIER A","7018573","2021-12-29 03:00","2021","12","29","03:00","-10.1","","-12.2","","85","","","","20","","4","","14.5","","99.11","","","","-12","","NA"
"-71.50","46.90","VALCARTIER A","7018573","2021-12-29 04:00","2021","12","29","04:00","-9.6","","-12.0","","83","","","","","","0","","14.5","","99.14","","","","","","NA"
"-71.50","46.90","VALCARTIER A","7018573","2021-12-29 05:00","2021","12","29","05:00","-9.8","","-11.9","","85","","","","1","","4","","14.5","","99.19","","","","-12","","Snow"
"-71.50","46.90","VALCARTIER A","7018573","2021-12-29 06:00","2021","12","29","06:00","-9.3","","-11.6","","83","","","","","","0","","14.5","","99.21","","","","","","Snow"
"-71.50","46.90","VALCARTIER A","7018573","2021-12-29 07:00","2021","12","29","07:00","-8.3","","-11.0","","81","","","","5","","6","","14.5","","99.31","","","","-12","","Snow"
"-71.50","46.90","VALCARTIER A","7018573","2021-12-29 08:00","2021","12","29","08:00","-8.3","","-11.3","","79","","","","5","","6","","8.0","","99.38","","","","-12","","Snow"
"-71.50","46.90","VALCARTIER A","7018573","2021-12-29 09:00","2021","12","29","09:00","-8.3","","-11.1","","80","","","","5","","7","","5.6","","99.42","","","","-12","","Snow"
"-71.50","46.90","VALCARTIER A","7018573","2021-12-29 10:00","2021","12","29","10:00","-8.0","","-10.8","","80","","","","2","","6","","8.0","","99.49","","","","-11","","Snow"
"-71.50","46.90","VALCARTIER A","7018573","2021-12-29 11:00","2021","12","29","11:00","-7.5","","-10.2","","81","","","","35","","6","","8.0","","99.46","","","","-11","","Snow"
"-71.50","46.90","VALCARTIER A","7018573","2021-12-29 12:00","2021","12","29","12:00","-6.5","","-9.8","","77","","","","16","","6","","8.0","","99.40","","","","-9","","Snow"
"-71.50","46.90","VALCARTIER A","7018573","2021-12-29 13:00","2021","12","29","13:00","-6.4","","-10.4","","73","","","","13","","6","","11.3","","99.45","","","","-9","","Snow"
"-71.50","46.90","VALCARTIER A","7018573","2021-12-29 14:00","2021","12","29","14:00","-6.3","","-10.5","","72","","","","13","","7","","14.5","","99.49","","","","-10","","NA"
"-71.50","46.90","VALCARTIER A","7018573","2021-12-29 15:00","2021","12","29","15:00","-6.1","","-10.0","","74","","","","8","","6","","14.5","","99.48","","","","-9","","NA"
"-71.50","46.90","VALCARTIER A","7018573","2021-12-29 16:00","2021","12","29","16:00","-6.4","","-9.9","","76","","","","","","0","","14.5","","99.55","","","","","","NA"
"-71.50","46.90","VALCARTIER A","7018573","2021-12-29 17:00","2021","12","29","17:00","-7.3","","-9.7","","83","","","","","","0","","14.5","","99.59","","","","","","NA"
"-71.50","46.90","VALCARTIER A","7018573","2021-12-29 18:00","2021","12","29","18:00","-7.6","","-9.6","","86","","","","","","0","","14.5","","99.62","","","","","","NA"
"-71.50","46.90","VALCARTIER A","7018573","2021-12-29 19:00","2021","12","29","19:00","-7.2","","-9.4","","84","","","","","","0","","14.5","","99.58","","","","","","NA"
"-71.50","46.90","VALCARTIER A","7018573","2021-12-29 20:00","2021","12","29","20:00","-7.5","","-9.3","","87","","","","","","0","","12.9","","99.59","","","","","","NA"
"-71.50","46.90","VALCARTIER A","7018573","2021-12-29 21:00","2021","12","29","21:00","-6.6","","-8.8","","84","","","","4","","4","","12.9","","99.58","","","","-9","","NA"
"-71.50","46.90","VALCARTIER A","7018573","2021-12-29 22:00","2021","12","29","22:00","-6.6","","-8.8","","84","","","","","","0","","12.9","","99.55","","","","","","NA"
"-71.50","46.90","VALCARTIER A","7018573","2021-12-29 23:00","2021","12","29","23:00","-6.4","","-8.6","","84","","","","4","","4","","12.9","","99.50","","","","-8","","NA"
"-71.50","46.90","VALCARTIER A","7018573","2021-12-30 00:00","2021","12","30","00:00","-6.4","","-8.6","","84","","","","","","0","","12.9","","99.45","","","","","","NA"
"-71.50","46.90","VALCARTIER A","7018573","2021-12-30 01:00","2021","12","30","01:00","-6.1","","-8.7","","82","","","","2","","6","","14.5","","99.42","","","","-9","","NA"
"-71.50","46.90","VALCARTIER A","7018573","2021-12-30 02:00","2021","12","30","02:00","-6.1","","-8.5","","83","","","","","","0","","14.5","","99.43","","","","","","NA"
"-71.50","46.90","VALCARTIER A","7018573","2021-12-30 03:00","2021","12","30","03:00","-6.0","","-8.3","","84","","","","3","","6","","14.5","","99.37","","","","-9","","NA"
"-71.50","46.90","VALCARTIER A","7018573","2021-12-30 04:00","2021","12","30","04:00","-6.1","","-8.0","","86","","","","","","0","","14.5","","99.35","","","","","","NA"
"-71.50","46.90","VALCARTIER A","7018573","2021-12-30 05:00","2021","12","30","05:00","-6.0","","-8.0","","86","","","","12","","4","","14.5","","99.33","","","","-8","","NA"
"-71.50","46.90","VALCARTIER A","7018573","2021-12-30 06:00","2021","12","30","06:00","-6.1","","-7.6","","89","","","","","","0","","14.5","","99.37","","","","","","Snow"
"-71.50","46.90","VALCARTIER A","7018573","2021-12-30 07:00","2021","12","30","07:00","-6.0","","-7.6","","88","","","","","","0","","12.9","","99.40","","","","","","NA"
"-71.50","46.90","VALCARTIER A","7018573","2021-12-30 08:00","2021","12","30","08:00","-5.7","","-7.3","","89","","","","","","0","","12.9","","99.41","","","","","","NA"
"-71.50","46.90","VALCARTIER A","7018573","2021-12-30 09:00","2021","12","30","09:00","-5.4","","-6.9","","89","","","","35","","4","","2.3","","99.44","","","","-7","","Snow"
"-71.50","46.90","VALCARTIER A","7018573","2021-12-30 10:00","2021","12","30","10:00","-4.7","","-6.1","","90","","","","","","0","","3.4","","99.45","","","","","","NA"
"-71.50","46.90","VALCARTIER A","7018573","2021-12-30 11:00","2021","12","30","11:00","-3.8","","-5.6","","87","","","","","","0","","8.0","","99.39","","","","","","NA"
"-71.50","46.90","VALCARTIER A","7018573","2021-12-30 12:00","2021","12","30","12:00","-2.6","","-5.0","","84","","","","","","0","","11.3","","99.33","","","","","","NA"
"-71.50","46.90","VALCARTIER A","7018573","2021-12-30 13:00","2021","12","30","13:00","-2.1","","-4.9","","81","","","","21","","4","","12.9","","99.33","","","","-4","","NA"
"-71.50","46.90","VALCARTIER A","7018573","2021-12-30 14:00","2021","12","30","14:00","-2.1","","-4.9","","81","","","","24","","7","","14.5","","99.32","","","","-5","","NA"
"-71.50","46.90","VALCARTIER A","7018573","2021-12-30 15:00","2021","12","30","15:00","-2.0","","-4.7","","82","","","","21","","6","","12.9","","99.29","","","","-4","","NA"
"-71.50","46.90","VALCARTIER A","7018573","2021-12-30 16:00","2021","12","30","16:00","-2.5","","-4.9","","84","","","","23","","6","","12.9","","99.25","","","","-5","","NA"
"-71.50","46.90","VALCARTIER A","7018573","2021-12-30 17:00","2021","12","30","17:00","-2.8","","-4.8","","86","","","","25","","6","","11.3","","99.33","","","","-5","","NA"
"-71.50","46.90","VALCARTIER A","7018573","2021-12-30 18:00","2021","12","30","18:00","-3.3","","-5.1","","87","","","","22","","7","","9.7","","99.40","","","","-6","","NA"
"-71.50","46.90","VALCARTIER A","7018573","2021-12-30 19:00","2021","12","30","19:00","-3.8","","-5.4","","89","","","","26","","4","","8.0","","99.39","","","","-5","","NA"
"-71.50","46.90","VALCARTIER A","7018573","2021-12-30 20:00","2021","12","30","20:00","-3.8","","-5.3","","89","","","","21","","4","","8.0","","99.42","","","","-5","","NA"
"-71.50","46.90","VALCARTIER A","7018573","2021-12-30 21:00","2021","12","30","21:00","-4.3","","-5.5","","91","","","","","","0","","8.0","","99.41","","","","","","NA"
"-71.50","46.90","VALCARTIER A","7018573","2021-12-30 22:00","2021","12","30","22:00","-4.8","","-6.0","","91","","","","","","0","","8.0","","99.41","","","","","","NA"
"-71.50","46.90","VALCARTIER A","7018573","2021-12-30 23:00","2021","12","30","23:00","-4.7","","-5.9","","91","","","","","","0","","8.0","","99.37","","","","","","NA"
"-71.50","46.90","VALCARTIER A","7018573","2021-12-31 00:00","2021","12","31","00:00","-5.0","","-6.0","","93","","","","","","0","","6.4","","99.33","","","","","","NA"
"-71.50","46.90","VALCARTIER A","7018573","2021-12-31 01:00","2021","12","31","01:00","-5.0","","-6.2","","91","","","","3","","4","","6.4","","99.32","","","","-7","","NA"
"-71.50","46.90","VALCARTIER A","7018573","2021-12-31 02:00","2021","12","31","02:00","-4.8","","-5.9","","92","","","","","","0","","6.4","","99.39","","","","","","NA"
"-71.50","46.90","VALCARTIER A","7018573","2021-12-31 03:00","2021","12","31","03:00","-4.8","","-6.0","","91","","","","32","","4","","6.4","","99.40","","","","-7","","NA"
"-71.50","46.90","VALCARTIER A","7018573","2021-12-31 04:00","2021","12","31","04:00","-4.6","","-5.8","","91","","","","","","0","","4.8","","99.37","","","","","","Snow"
"-71.50","46.90","VALCARTIER A","7018573","2021-12-31 05:00","2021","12","31","05:00","-4.5","","-5.7","","91","","","","","","0","","5.6","","99.38","","","","","","Snow"
"-71.50","46.90","VALCARTIER A","7018573","2021-12-31 06:00","2021","12","31","06:00","-4.3","","-5.5","","91","","","","","","0","","8.0","","99.39","","","","","","NA"
"-71.50","46.90","VALCARTIER A","7018573","2021-12-31 07:00","2021","12","31","07:00","-4.5","","-5.7","","91","","","","","","0","","11.3","","99.45","","","","","","NA"
"-71.50","46.90","VALCARTIER A","7018573","2021-12-31 08:00","2021","12","31","08:00","-4.2","","-5.5","","91","","","","","","0","","11.3","","99.50","","","","","","NA"
"-71.50","46.90","VALCARTIER A","7018573","2021-12-31 09:00","2021","12","31","09:00","-3.1","","-5.0","","87","","","","","","0","","11.3","","99.47","","","","","","NA"
"-71.50","46.90","VALCARTIER A","7018573","2021-12-31 10:00","2021","12","31","10:00","-2.3","","-4.7","","84","","","","13","","7","","12.9","","99.49","","","","-5","","NA"
"-71.50","46.90","VALCARTIER A","7018573","2021-12-31 11:00","2021","12","31","11:00","-1.9","","-4.4","","83","","","","12","","7","","12.9","","99.44","","","","-5","","NA"
"-71.50","46.90","VALCARTIER A","7018573","2021-12-31 12:00","2021","12","31","12:00","-1.9","","-4.7","","81","","","","14","","7","","14.5","","99.35","","","","-5","","NA"
"-71.50","46.90","VALCARTIER A","7018573","2021-12-31 13:00","2021","12","31","13:00","-1.8","","-4.9","","79","","","","13","","9","","14.5","","99.31","","","","-5","","NA"
"-71.50","46.90","VALCARTIER A","7018573","2021-12-31 14:00","2021","12","31","14:00","-2.0","","-5.1","","79","","","","12","","7","","11.3","","99.28","","","","-5","","NA"
"-71.50","46.90","VALCARTIER A","7018573","2021-12-31 15:00","2021","12","31","15:00","-1.8","","-4.7","","81","","","","13","","4","","14.5","","99.28","","","","-3","","NA"
"-71.50","46.90","VALCARTIER A","7018573","2021-12-31 16:00","2021","12","31","16:00","-2.1","","-4.7","","82","","","","14","","4","","12.9","","99.27","","","","-4","","NA"
"-71.50","46.90","VALCARTIER A","7018573","2021-12-31 17:00","2021","12","31","17:00","-2.2","","-4.4","","85","","","","","","0","","12.9","","99.26","","","","","","NA"
"-71.50","46.90","VALCARTIER A","7018573","2021-12-31 18:00","2021","12","31","18:00","-2.4","","-4.4","","86","","","","12","","4","","8.0","","99.26","","","","-4","","Snow"
"-71.50","46.90","VALCARTIER A","7018573","2021-12-31 19:00","2021","12","31","19:00","-2.6","","-4.2","","89","","","","13","","4","","4.8","","99.28","","","","-4","","Snow"
"-71.50","46.90","VALCARTIER A","7018573","2021-12-31 20:00","2021","12","31","20:00","-2.7","","-4.0","","91","","","","12","","4","","3.2","","99.26","","","","-4","","Snow"
"-71.50","46.90","VALCARTIER A","7018573","2021-12-31 21:00","2021","12","31","21:00","-2.6","","-3.9","","91","","","","","","0","","4.0","","99.27","","","","","","Snow"
"-71.50","46.90","VALCARTIER A","7018573","2021-12-31 22:00","2021","12","31","22:00","-2.6","","-3.8","","91","","","","13","","4","","1.9","","99.23","","","","-4","","Snow"
"-71.50","46.90","VALCARTIER A","7018573","2021-12-31 23:00","2021","12","31","23:00","-2.5","","-3.6","","92","","","","","","0","","5.6","","99.23","","","","","","Snow"
