"Longitude (x)","Latitude (y)","Station Name","Climate ID","Date/Time (LST)","Year","Month","Day","Time (LST)","Temp (°C)","Temp Flag","Dew Point Temp (°C)","Dew Point Temp Flag","Rel Hum (%)","Rel Hum Flag","Precip. Amount (mm)","Precip. Amount Flag","Wind Dir (10s deg)","Wind Dir Flag","Wind Spd (km/h)","Wind Spd Flag","Visibility (km)","Visibility Flag","Stn Press (kPa)","Stn Press Flag","Hmdx","Hmdx Flag","Wind Chill","Wind Chill Flag","Weather"
"-71.50","46.90","VALCARTIER A","7018573","2021-04-01 00:00","2021","04","01","00:00","3.9","","0.3","","77","","","","26","","9","","14.5","","99.17","","","","","","NA"
"-71.50","46.90","VALCARTIER A","7018573","2021-04-01 01:00","2021","04","01","01:00","3.8","","-0.5","","74","","","","28","","7","","14.5","","99.12","","","","","","NA"
"-71.50","46.90","VALCARTIER A","7018573","2021-04-01 02:00","2021","04","01","02:00","3.3","","-1.3","","72","","","","34","","4","","14.5","","99.12","","","","","","NA"
"-71.50","46.90","VALCARTIER A","7018573","2021-04-01 03:00","2021","04","01","03:00","3.0","","-2.3","","68","","","","36","","11","","14.5","","99.02","","","","","","NA"
"-71.50","46.90","VALCARTIER A","7018573","2021-04-01 04:00","2021","04","01","04:00","2.8","","-2.7","","67","","","","35","","6","","14.5","","99.08","","","","","","NA"
"-71.50","46.90","VALCARTIER A","7018573","2021-04-01 05:00","2021","04","01","05:00","2.5","","-3.8","","63","","","","2","","13","","14.5","","99.16","","","","","","Snow"
"-71.50","46.90","VALCARTIER A","7018573","2021-04-01 06:00","2021","04","01","06:00"
"-71.50","46.90","VALCARTIER A","7018573","2021-04-01 07:00","2021","04","01","07:00","-0.7","","-5.0","","73","","","","36","","22","","1.6","","99.18","","","","-6","","Snow"
"-71.50","46.90","VALCARTIER A","7018573","2021-04-01 08:00","2021","04","01","08:00","-1.1","","-4.9","","75","","","","36","","13","","1.3","","99.19","","","","-5","","Snow"
"-71.50","46.90","VALCARTIER A","7018573","2021-04-01 09:00","2021","04","01","09:00"
"-71.50","46.90","VALCARTIER A","7018573","2021-04-01 10:00","2021","04","01","10:00","-2.8","","-6.9","","73","","","","35","","19","","1.1","","99.22","","","","-9","","Snow"
"-71.50","46.90","VALCARTIER A","7018573","2021-04-01 11:00","2021","04","01","11:00","-3.1","","-7.8","","70","","","","36","","20","","2.1","","99.11","","","","-9","","Snow"
"-71.50","46.90","VALCARTIER A","7018573","2021-04-01 12:00","2021","04","01","12:00"
"-71.50","46.90","VALCARTIER A","7018573","2021-04-01 13:00","2021","04","01","13:00","-2.9","","-9.1","","62","","","","32","","11","","14.5","","99.15","","","","-7","","Snow"
"-71.50","46.90","VALCARTIER A","7018573","2021-04-01 14:00","2021","04","01","14:00","-3.6","","-10.1","","61","","","","36","","24","","8.0","","99.02","","","","-10","","Snow"
"-71.50","46.90","VALCARTIER A","7018573","2021-04-01 15:00","2021","04","01","15:00","-3.8","","-10.8","","58","","","","32","","19","","14.5","","99.14","","","","-10","","Snow"
"-71.50","46.90","VALCARTIER A","7018573","2021-04-01 16:00","2021","04","01","16:00","-4.5","","-11.7","","57","","","","32","","20","","14.5","","99.16","","","","-11","","Snow"
"-71.50","46.90","VALCARTIER A","7018573","2021-04-01 17:00","2021","04","01","17:00","-5.2","","-12.8","","55","","","","33","","26","","14.5","","99.30","","","","-13","","Snow"
"-71.50","46.90","VALCARTIER A","7018573","2021-04-01 18:00","2021","04","01","18:00","-6.1","","-12.4","","61","","","","33","","28","","3.2","","99.35","","","","-14","","Snow"
"-71.50","46.90","VALCARTIER A","7018573","2021-04-01 19:00","2021","04","01","19:00","-6.2","","-12.8","","60","","","","33","","28","","5.6","","99.43","","","","-14","","Snow"
"-71.50","46.90","VALCARTIER A","7018573","2021-04-01 20:00","2021","04","01","20:00","-6.4","","-13.0","","60","","","","34","","22","","14.5","","99.47","","","","-14","","Snow"
"-71.50","46.90","VALCARTIER A","7018573","2021-04-01 21:00","2021","04","01","21:00","-6.4","","-13.8","","56","","","","33","","13","","14.5","","99.45","","","","-12","","NA"
"-71.50","46.90","VALCARTIER A","7018573","2021-04-01 22:00","2021","04","01","22:00","-6.2","","-14.3","","53","","","","36","","20","","14.5","","99.44","","","","-13","","Snow"
"-71.50","46.90","VALCARTIER A","7018573","2021-04-01 23:00","2021","04","01","23:00","-6.4","","-14.6","","52","","","","36","","17","","14.5","","99.40","","","","-13","","Snow"
"-71.50","46.90","VALCARTIER A","7018573","2021-04-02 00:00","2021","04","02","00:00","-6.4","","-14.4","","53","","","","35","","17","","14.5","","99.40","","","","-13","","NA"
"-71.50","46.90","VALCARTIER A","7018573","2021-04-02 01:00","2021","04","02","01:00","-6.6","","-14.4","","54","","","","35","","11","","14.5","","99.42","","","","-12","","Snow"
"-71.50","46.90","VALCARTIER A","7018573","2021-04-02 02:00","2021","04","02","02:00","-6.9","","-14.5","","55","","","","34","","11","","14.5","","99.44","","","","-12","","NA"
"-71.50","46.90","VALCARTIER A","7018573","2021-04-02 03:00","2021","04","02","03:00","-7.3","","-15.0","","54","","","","30","","11","","14.5","","99.47","","","","-12","","NA"
"-71.50","46.90","VALCARTIER A","7018573","2021-04-02 04:00","2021","04","02","04:00","-7.5","","-15.1","","55","","","","33","","15","","14.5","","99.50","","","","-14","","NA"
"-71.50","46.90","VALCARTIER A","7018573","2021-04-02 05:00","2021","04","02","05:00","-8.3","","-15.9","","54","","","","32","","11","","14.5","","99.57","","","","-14","","NA"
"-71.50","46.90","VALCARTIER A","7018573","2021-04-02 06:00","2021","04","02","06:00","-9.2","","-15.8","","59","","","","29","","9","","14.5","","99.67","","","","-14","","NA"
"-71.50","46.90","VALCARTIER A","7018573","2021-04-02 07:00","2021","04","02","07:00","-7.6","","-15.5","","53","","","","32","","11","","14.5","","99.71","","","","-13","","Snow"
"-71.50","46.90","VALCARTIER A","7018573","2021-04-02 08:00","2021","04","02","08:00","-7.2","","-16.0","","49","","","","32","","9","","14.5","","99.74","","","","-12","","Snow"
"-71.50","46.90","VALCARTIER A","7018573","2021-04-02 09:00","2021","04","02","09:00","-6.4","","-15.5","","48","","","","30","","19","","14.5","","99.76","","","","-13","","Snow"
"-71.50","46.90","VALCARTIER A","7018573","2021-04-02 10:00","2021","04","02","10:00","-5.7","","-14.8","","49","","","","31","","22","","14.5","","99.80","","","","-13","","Snow"
"-71.50","46.90","VALCARTIER A","7018573","2021-04-02 11:00","2021","04","02","11:00","-5.0","","-14.4","","48","","","","31","","19","","14.5","","99.77","","","","-11","","NA"
"-71.50","46.90","VALCARTIER A","7018573","2021-04-02 12:00","2021","04","02","12:00","-4.5","","-13.8","","48","","","","34","","20","","14.5","","99.80","","","","-11","","Snow"
"-71.50","46.90","VALCARTIER A","7018573","2021-04-02 13:00","2021","04","02","13:00","-4.1","","-13.4","","48","","","","32","","19","","14.5","","99.83","","","","-10","","Snow"
"-71.50","46.90","VALCARTIER A","7018573","2021-04-02 14:00","2021","04","02","14:00","-3.8","","-13.0","","49","","","","29","","24","","14.5","","99.83","","","","-11","","Snow"
"-71.50","46.90","VALCARTIER A","7018573","2021-04-02 15:00","2021","04","02","15:00","-3.7","","-12.6","","50","","","","30","","15","","14.5","","99.86","","","","-9","","Snow"
"-71.50","46.90","VALCARTIER A","7018573","2021-04-02 16:00","2021","04","02","16:00","-3.4","","-12.6","","49","","","","32","","11","","14.5","","99.92","","","","-8","","NA"
"-71.50","46.90","VALCARTIER A","7018573","2021-04-02 17:00","2021","04","02","17:00","-3.2","","-12.5","","49","","","","34","","6","","14.5","","99.97","","","","-6","","NA"
"-71.50","46.90","VALCARTIER A","7018573","2021-04-02 18:00","2021","04","02","18:00","-3.3","","-11.6","","53","","","","","","0","","14.5","","100.01","","","","","","NA"
"-71.50","46.90","VALCARTIER A","7018573","2021-04-02 19:00","2021","04","02","19:00","-3.4","","-11.4","","54","","","","3","","4","","14.5","","100.08","","","","-5","","NA"
"-71.50","46.90","VALCARTIER A","7018573","2021-04-02 20:00","2021","04","02","20:00","-3.6","","-11.5","","54","","","","2","","9","","14.5","","100.11","","","","-7","","NA"
"-71.50","46.90","VALCARTIER A","7018573","2021-04-02 21:00","2021","04","02","21:00","-4.8","","-11.8","","58","","","","36","","6","","14.5","","100.10","","","","-8","","NA"
"-71.50","46.90","VALCARTIER A","7018573","2021-04-02 22:00","2021","04","02","22:00","-6.2","","-11.5","","66","","","","21","","4","","14.5","","100.12","","","","-8","","NA"
"-71.50","46.90","VALCARTIER A","7018573","2021-04-02 23:00","2021","04","02","23:00","-7.9","","-12.6","","69","","","","","","0","","14.5","","100.12","","","","","","NA"
"-71.50","46.90","VALCARTIER A","7018573","2021-04-03 00:00","2021","04","03","00:00","-10.3","","-14.1","","74","","","","","","0","","14.5","","100.13","","","","","","NA"
"-71.50","46.90","VALCARTIER A","7018573","2021-04-03 01:00","2021","04","03","01:00","-10.0","","-13.8","","74","","","","","","0","","14.5","","100.12","","","","","","NA"
"-71.50","46.90","VALCARTIER A","7018573","2021-04-03 02:00","2021","04","03","02:00","-11.1","","-14.1","","79","","","","","","0","","14.5","","100.12","","","","","","NA"
"-71.50","46.90","VALCARTIER A","7018573","2021-04-03 03:00","2021","04","03","03:00","-11.2","","-14.9","","74","","","","1","","4","","14.5","","100.16","","","","-14","","NA"
"-71.50","46.90","VALCARTIER A","7018573","2021-04-03 04:00","2021","04","03","04:00","-12.0","","-15.4","","76","","","","34","","4","","14.5","","100.19","","","","-15","","NA"
"-71.50","46.90","VALCARTIER A","7018573","2021-04-03 05:00","2021","04","03","05:00","-13.3","","-16.9","","74","","","","","","0","","14.5","","100.18","","","","","","NA"
"-71.50","46.90","VALCARTIER A","7018573","2021-04-03 06:00","2021","04","03","06:00","-14.2","","-17.0","","79","","","","","","0","","14.5","","100.23","","","","","","NA"
"-71.50","46.90","VALCARTIER A","7018573","2021-04-03 07:00","2021","04","03","07:00","-10.6","","-14.4","","74","","","","","","0","","14.5","","100.25","","","","","","NA"
"-71.50","46.90","VALCARTIER A","7018573","2021-04-03 08:00","2021","04","03","08:00","-4.3","","-11.8","","56","","","","15","","4","","14.5","","100.22","","","","-6","","NA"
"-71.50","46.90","VALCARTIER A","7018573","2021-04-03 09:00","2021","04","03","09:00","-2.7","","-14.3","","41","","","","25","","13","","14.5","","100.19","","","","-7","","Snow"
"-71.50","46.90","VALCARTIER A","7018573","2021-04-03 10:00","2021","04","03","10:00","-1.0","","-14.7","","35","","","","24","","17","","14.5","","100.16","","","","-6","","NA"
"-71.50","46.90","VALCARTIER A","7018573","2021-04-03 11:00","2021","04","03","11:00","-0.3","","-15.5","","31","","","","25","","11","","14.5","","100.13","","","","-4","","Snow"
"-71.50","46.90","VALCARTIER A","7018573","2021-04-03 12:00","2021","04","03","12:00","1.6","","-14.2","","30","","","","26","","13","","14.5","","100.08","","","","","","NA"
"-71.50","46.90","VALCARTIER A","7018573","2021-04-03 13:00","2021","04","03","13:00","2.6","","-13.4","","30","","","","27","","15","","14.5","","100.03","","","","","","NA"
"-71.50","46.90","VALCARTIER A","7018573","2021-04-03 14:00","2021","04","03","14:00","3.7","","-12.3","","30","","","","25","","15","","14.5","","100.01","","","","","","NA"
"-71.50","46.90","VALCARTIER A","7018573","2021-04-03 15:00","2021","04","03","15:00","3.8","","-11.7","","31","","","","20","","13","","14.5","","100.00","","","","","","NA"
"-71.50","46.90","VALCARTIER A","7018573","2021-04-03 16:00","2021","04","03","16:00","3.9","","-12.1","","30","","","","22","","11","","14.5","","100.00","","","","","","NA"
"-71.50","46.90","VALCARTIER A","7018573","2021-04-03 17:00","2021","04","03","17:00","3.9","","-12.3","","30","","","","23","","9","","14.5","","100.00","","","","","","NA"
"-71.50","46.90","VALCARTIER A","7018573","2021-04-03 18:00","2021","04","03","18:00","3.4","","-11.9","","32","","","","","","0","","14.5","","100.04","","","","","","NA"
"-71.50","46.90","VALCARTIER A","7018573","2021-04-03 19:00","2021","04","03","19:00","-1.9","","-10.5","","52","","","","","","0","","14.5","","100.08","","","","","","NA"
"-71.50","46.90","VALCARTIER A","7018573","2021-04-03 20:00","2021","04","03","20:00","-4.0","","-9.9","","64","","","","","","0","","14.5","","100.11","","","","","","NA"
"-71.50","46.90","VALCARTIER A","7018573","2021-04-03 21:00","2021","04","03","21:00","-4.3","","-9.9","","65","","","","","","0","","14.5","","100.12","","","","","","NA"
"-71.50","46.90","VALCARTIER A","7018573","2021-04-03 22:00","2021","04","03","22:00","-5.2","","-9.8","","70","","","","","","0","","14.5","","100.09","","","","","","NA"
"-71.50","46.90","VALCARTIER A","7018573","2021-04-03 23:00","2021","04","03","23:00","-5.6","","-9.9","","72","","","","","","0","","14.5","","100.04","","","","","","NA"
"-71.50","46.90","VALCARTIER A","7018573","2021-04-04 00:00","2021","04","04","00:00","-6.3","","-10.2","","74","","","","34","","6","","14.5","","100.03","","","","-9","","NA"
"-71.50","46.90","VALCARTIER A","7018573","2021-04-04 01:00","2021","04","04","01:00","-5.7","","-10.0","","72","","","","33","","4","","14.5","","99.98","","","","-8","","NA"
"-71.50","46.90","VALCARTIER A","7018573","2021-04-04 02:00","2021","04","04","02:00","-6.0","","-10.4","","71","","","","","","0","","14.5","","99.97","","","","","","NA"
"-71.50","46.90","VALCARTIER A","7018573","2021-04-04 03:00","2021","04","04","03:00","-3.2","","-10.1","","59","","","","5","","7","","14.5","","99.97","","","","-6","","NA"
"-71.50","46.90","VALCARTIER A","7018573","2021-04-04 04:00","2021","04","04","04:00","-5.9","","-10.7","","69","","","","12","","6","","14.5","","100.02","","","","-9","","NA"
"-71.50","46.90","VALCARTIER A","7018573","2021-04-04 05:00","2021","04","04","05:00","-6.7","","-11.2","","70","","","","","","0","","14.5","","100.04","","","","","","NA"
"-71.50","46.90","VALCARTIER A","7018573","2021-04-04 06:00","2021","04","04","06:00","-4.3","","-10.2","","63","","","","6","","6","","14.5","","100.06","","","","-7","","NA"
"-71.50","46.90","VALCARTIER A","7018573","2021-04-04 07:00","2021","04","04","07:00","-2.8","","-9.8","","59","","","","2","","7","","14.5","","100.07","","","","-6","","NA"
"-71.50","46.90","VALCARTIER A","7018573","2021-04-04 08:00","2021","04","04","08:00","-0.6","","-9.0","","53","","","","","","0","","14.5","","100.05","","","","","","NA"
"-71.50","46.90","VALCARTIER A","7018573","2021-04-04 09:00","2021","04","04","09:00","1.1","","-7.8","","51","","","","","","0","","14.5","","100.00","","","","","","NA"
"-71.50","46.90","VALCARTIER A","7018573","2021-04-04 10:00","2021","04","04","10:00","3.8","","-6.9","","46","","","","16","","7","","14.5","","99.94","","","","","","NA"
"-71.50","46.90","VALCARTIER A","7018573","2021-04-04 11:00","2021","04","04","11:00","4.4","","-5.8","","47","","","","12","","7","","14.5","","99.90","","","","","","NA"
"-71.50","46.90","VALCARTIER A","7018573","2021-04-04 12:00","2021","04","04","12:00","4.8","","-5.0","","49","","","","12","","17","","14.5","","99.83","","","","","","NA"
"-71.50","46.90","VALCARTIER A","7018573","2021-04-04 13:00","2021","04","04","13:00","5.3","","-6.1","","44","","","","13","","13","","14.5","","99.75","","","","","","NA"
"-71.50","46.90","VALCARTIER A","7018573","2021-04-04 14:00","2021","04","04","14:00","5.8","","-7.1","","39","","","","14","","13","","14.5","","99.66","","","","","","NA"
"-71.50","46.90","VALCARTIER A","7018573","2021-04-04 15:00","2021","04","04","15:00","6.3","","-6.0","","41","","","","12","","11","","14.5","","99.58","","","","","","NA"
"-71.50","46.90","VALCARTIER A","7018573","2021-04-04 16:00","2021","04","04","16:00","7.8","","-5.6","","38","","","","11","","4","","14.5","","99.55","","","","","","NA"
"-71.50","46.90","VALCARTIER A","7018573","2021-04-04 17:00","2021","04","04","17:00","9.0","","-5.0","","37","","","","35","","26","","14.5","","99.55","","","","","","NA"
"-71.50","46.90","VALCARTIER A","7018573","2021-04-04 18:00","2021","04","04","18:00","7.5","","-5.3","","40","","","","34","","13","","14.5","","99.58","","","","","","NA"
"-71.50","46.90","VALCARTIER A","7018573","2021-04-04 19:00","2021","04","04","19:00","6.6","","-5.9","","40","","","","33","","17","","14.5","","99.64","","","","","","NA"
"-71.50","46.90","VALCARTIER A","7018573","2021-04-04 20:00","2021","04","04","20:00","5.0","","-6.8","","42","","","","1","","11","","14.5","","99.65","","","","","","NA"
"-71.50","46.90","VALCARTIER A","7018573","2021-04-04 21:00","2021","04","04","21:00","1.1","","-7.3","","54","","","","14","","13","","14.5","","99.66","","","","","","NA"
"-71.50","46.90","VALCARTIER A","7018573","2021-04-04 22:00","2021","04","04","22:00","-1.5","","-7.6","","63","","","","","","0","","14.5","","99.62","","","","","","NA"
"-71.50","46.90","VALCARTIER A","7018573","2021-04-04 23:00","2021","04","04","23:00","-1.5","","-7.2","","65","","","","15","","4","","14.5","","99.56","","","","-3","","NA"
"-71.50","46.90","VALCARTIER A","7018573","2021-04-05 00:00","2021","04","05","00:00","-2.0","","-7.0","","69","","","","","","0","","14.5","","99.54","","","","","","NA"
"-71.50","46.90","VALCARTIER A","7018573","2021-04-05 01:00","2021","04","05","01:00","-2.6","","-7.1","","71","","","","","","0","","14.5","","99.50","","","","","","NA"
"-71.50","46.90","VALCARTIER A","7018573","2021-04-05 02:00","2021","04","05","02:00","-2.3","","-6.3","","74","","","","","","0","","14.5","","99.49","","","","","","NA"
"-71.50","46.90","VALCARTIER A","7018573","2021-04-05 03:00","2021","04","05","03:00","-1.9","","-6.3","","72","","","","24","","4","","14.5","","99.45","","","","-3","","NA"
"-71.50","46.90","VALCARTIER A","7018573","2021-04-05 04:00","2021","04","05","04:00","-1.6","","-6.7","","68","","","","25","","4","","14.5","","99.35","","","","-3","","NA"
"-71.50","46.90","VALCARTIER A","7018573","2021-04-05 05:00","2021","04","05","05:00","-1.7","","-6.3","","71","","","","","","0","","14.5","","99.35","","","","","","NA"
"-71.50","46.90","VALCARTIER A","7018573","2021-04-05 06:00","2021","04","05","06:00","-1.6","","-5.9","","73","","","","","","0","","14.5","","99.38","","","","","","NA"
"-71.50","46.90","VALCARTIER A","7018573","2021-04-05 07:00","2021","04","05","07:00","2.5","","-5.0","","58","","","","","","0","","14.5","","99.40","","","","","","NA"
"-71.50","46.90","VALCARTIER A","7018573","2021-04-05 08:00","2021","04","05","08:00","4.1","","-6.8","","45","","","","34","","6","","14.5","","99.38","","","","","","NA"
"-71.50","46.90","VALCARTIER A","7018573","2021-04-05 09:00","2021","04","05","09:00","5.3","","-6.6","","42","","","","36","","6","","14.5","","99.39","","","","","","NA"
"-71.50","46.90","VALCARTIER A","7018573","2021-04-05 10:00","2021","04","05","10:00","6.9","","-7.8","","34","","","","1","","13","","14.5","","99.36","","","","","","NA"
"-71.50","46.90","VALCARTIER A","7018573","2021-04-05 11:00","2021","04","05","11:00","8.0","","-6.8","","34","","","","1","","17","","14.5","","99.32","","","","","","NA"
"-71.50","46.90","VALCARTIER A","7018573","2021-04-05 12:00","2021","04","05","12:00","8.5","","-6.6","","34","","","","29","","17","","14.5","","99.27","","","","","","NA"
"-71.50","46.90","VALCARTIER A","7018573","2021-04-05 13:00","2021","04","05","13:00","7.5","","-3.6","","45","","","","32","","15","","12.9","","99.29","","","","","","Rain"
"-71.50","46.90","VALCARTIER A","7018573","2021-04-05 14:00","2021","04","05","14:00","8.4","","-3.0","","45","","","","34","","11","","14.5","","99.24","","","","","","NA"
"-71.50","46.90","VALCARTIER A","7018573","2021-04-05 15:00","2021","04","05","15:00","7.7","","-3.1","","46","","","","1","","15","","14.5","","99.28","","","","","","NA"
"-71.50","46.90","VALCARTIER A","7018573","2021-04-05 16:00","2021","04","05","16:00","6.8","","-3.0","","50","","","","1","","19","","14.5","","99.35","","","","","","NA"
"-71.50","46.90","VALCARTIER A","7018573","2021-04-05 17:00","2021","04","05","17:00","5.9","","-2.9","","53","","","","32","","15","","14.5","","99.39","","","","","","Rain"
"-71.50","46.90","VALCARTIER A","7018573","2021-04-05 18:00","2021","04","05","18:00","5.4","","-3.2","","54","","","","31","","9","","14.5","","99.39","","","","","","NA"
"-71.50","46.90","VALCARTIER A","7018573","2021-04-05 19:00","2021","04","05","19:00","5.6","","-3.9","","50","","","","32","","7","","14.5","","99.40","","","","","","NA"
"-71.50","46.90","VALCARTIER A","7018573","2021-04-05 20:00","2021","04","05","20:00","5.2","","-4.2","","51","","","","34","","4","","14.5","","99.43","","","","","","NA"
"-71.50","46.90","VALCARTIER A","7018573","2021-04-05 21:00","2021","04","05","21:00","4.1","","-3.9","","56","","","","2","","4","","14.5","","99.42","","","","","","NA"
"-71.50","46.90","VALCARTIER A","7018573","2021-04-05 22:00","2021","04","05","22:00","3.1","","-3.1","","64","","","","","","0","","14.5","","99.42","","","","","","NA"
"-71.50","46.90","VALCARTIER A","7018573","2021-04-05 23:00","2021","04","05","23:00","2.7","","-3.2","","65","","","","","","0","","1.1","","99.41","","","","","","NA"
"-71.50","46.90","VALCARTIER A","7018573","2021-04-06 00:00","2021","04","06","00:00","2.4","","-2.9","","68","","","","","","0","","14.5","","99.39","","","","","","Rain"
"-71.50","46.90","VALCARTIER A","7018573","2021-04-06 01:00","2021","04","06","01:00","1.3","","-2.9","","74","","","","","","0","","14.5","","99.36","","","","","","NA"
"-71.50","46.90","VALCARTIER A","7018573","2021-04-06 02:00","2021","04","06","02:00","1.0","","-2.7","","76","","","","","","0","","14.5","","99.34","","","","","","NA"
"-71.50","46.90","VALCARTIER A","7018573","2021-04-06 03:00","2021","04","06","03:00","-1.5","","-4.9","","78","","","","","","0","","14.5","","99.36","","","","","","NA"
"-71.50","46.90","VALCARTIER A","7018573","2021-04-06 04:00","2021","04","06","04:00","-1.6","","-4.9","","78","","","","","","0","","14.5","","99.38","","","","","","NA"
"-71.50","46.90","VALCARTIER A","7018573","2021-04-06 05:00","2021","04","06","05:00","-0.7","","-3.9","","79","","","","","","0","","14.5","","99.43","","","","","","NA"
"-71.50","46.90","VALCARTIER A","7018573","2021-04-06 06:00","2021","04","06","06:00","-0.6","","-3.9","","78","","","","","","0","","14.5","","99.49","","","","","","NA"
"-71.50","46.90","VALCARTIER A","7018573","2021-04-06 07:00","2021","04","06","07:00","1.8","","-2.0","","76","","","","","","0","","14.5","","99.48","","","","","","NA"
"-71.50","46.90","VALCARTIER A","7018573","2021-04-06 08:00","2021","04","06","08:00","4.2","","-0.9","","69","","","","22","","4","","14.5","","99.50","","","","","","NA"
"-71.50","46.90","VALCARTIER A","7018573","2021-04-06 09:00","2021","04","06","09:00","7.5","","0.3","","60","","","","26","","6","","14.5","","99.54","","","","","","NA"
"-71.50","46.90","VALCARTIER A","7018573","2021-04-06 10:00","2021","04","06","10:00","9.1","","1.8","","60","","","","27","","6","","14.5","","99.55","","","","","","NA"
"-71.50","46.90","VALCARTIER A","7018573","2021-04-06 11:00","2021","04","06","11:00","9.5","","1.2","","56","","","","26","","15","","14.5","","99.52","","","","","","NA"
"-71.50","46.90","VALCARTIER A","7018573","2021-04-06 12:00","2021","04","06","12:00","10.8","","1.6","","53","","","","28","","11","","14.5","","99.47","","","","","","NA"
"-71.50","46.90","VALCARTIER A","7018573","2021-04-06 13:00","2021","04","06","13:00","11.1","","2.7","","56","","","","7","","11","","14.5","","99.48","","","","","","NA"
"-71.50","46.90","VALCARTIER A","7018573","2021-04-06 14:00","2021","04","06","14:00","12.2","","4.1","","58","","","","5","","4","","14.5","","99.43","","","","","","NA"
"-71.50","46.90","VALCARTIER A","7018573","2021-04-06 15:00","2021","04","06","15:00","12.8","","4.4","","57","","","","12","","13","","14.5","","99.43","","","","","","NA"
"-71.50","46.90","VALCARTIER A","7018573","2021-04-06 16:00","2021","04","06","16:00","11.3","","2.8","","56","","","","11","","15","","14.5","","99.50","","","","","","NA"
"-71.50","46.90","VALCARTIER A","7018573","2021-04-06 17:00","2021","04","06","17:00","10.2","","3.4","","63","","","","12","","9","","14.5","","99.58","","","","","","NA"
"-71.50","46.90","VALCARTIER A","7018573","2021-04-06 18:00","2021","04","06","18:00","8.2","","3.3","","71","","","","13","","11","","14.5","","99.64","","","","","","NA"
"-71.50","46.90","VALCARTIER A","7018573","2021-04-06 19:00","2021","04","06","19:00","7.0","","3.2","","77","","","","12","","7","","14.5","","99.66","","","","","","NA"
"-71.50","46.90","VALCARTIER A","7018573","2021-04-06 20:00","2021","04","06","20:00","6.0","","2.9","","81","","","","14","","6","","14.5","","99.69","","","","","","NA"
"-71.50","46.90","VALCARTIER A","7018573","2021-04-06 21:00","2021","04","06","21:00"
"-71.50","46.90","VALCARTIER A","7018573","2021-04-06 22:00","2021","04","06","22:00","5.8","","3.1","","83","","","","","","0","","9.7","","99.72","","","","","","NA"
"-71.50","46.90","VALCARTIER A","7018573","2021-04-06 23:00","2021","04","06","23:00","4.1","","1.4","","83","","","","34","","4","","9.7","","99.72","","","","","","NA"
"-71.50","46.90","VALCARTIER A","7018573","2021-04-07 00:00","2021","04","07","00:00","3.7","","0.6","","80","","","","","","0","","14.5","","99.75","","","","","","NA"
"-71.50","46.90","VALCARTIER A","7018573","2021-04-07 01:00","2021","04","07","01:00","3.1","","0.3","","82","","","","34","","4","","12.9","","99.74","","","","","","NA"
"-71.50","46.90","VALCARTIER A","7018573","2021-04-07 02:00","2021","04","07","02:00","3.3","","0.3","","81","","","","","","0","","14.5","","99.77","","","","","","NA"
"-71.50","46.90","VALCARTIER A","7018573","2021-04-07 03:00","2021","04","07","03:00","2.7","","-0.1","","82","","","","36","","4","","14.5","","99.78","","","","","","NA"
"-71.50","46.90","VALCARTIER A","7018573","2021-04-07 04:00","2021","04","07","04:00"
"-71.50","46.90","VALCARTIER A","7018573","2021-04-07 05:00","2021","04","07","05:00","2.6","","-0.2","","82","","","","","","0","","11.3","","99.86","","","","","","NA"
"-71.50","46.90","VALCARTIER A","7018573","2021-04-07 06:00","2021","04","07","06:00","3.7","","0.5","","80","","","","","","0","","12.9","","99.94","","","","","","NA"
"-71.50","46.90","VALCARTIER A","7018573","2021-04-07 07:00","2021","04","07","07:00","4.1","","1.9","","86","","","","","","0","","0.3","","99.98","","","","","","NA"
"-71.50","46.90","VALCARTIER A","7018573","2021-04-07 08:00","2021","04","07","08:00","7.0","","3.8","","80","","","","13","","6","","9.7","","99.97","","","","","","NA"
"-71.50","46.90","VALCARTIER A","7018573","2021-04-07 09:00","2021","04","07","09:00","10.5","","4.8","","68","","","","18","","6","","14.5","","99.98","","","","","","NA"
"-71.50","46.90","VALCARTIER A","7018573","2021-04-07 10:00","2021","04","07","10:00","11.7","","5.1","","64","","","","17","","11","","14.5","","99.99","","","","","","NA"
"-71.50","46.90","VALCARTIER A","7018573","2021-04-07 11:00","2021","04","07","11:00","12.9","","5.3","","60","","","","14","","9","","14.5","","99.98","","","","","","NA"
"-71.50","46.90","VALCARTIER A","7018573","2021-04-07 12:00","2021","04","07","12:00","13.6","","5.3","","57","","","","17","","6","","14.5","","99.92","","","","","","NA"
"-71.50","46.90","VALCARTIER A","7018573","2021-04-07 13:00","2021","04","07","13:00","13.2","","5.6","","60","","","","15","","9","","14.5","","99.93","","","","","","NA"
"-71.50","46.90","VALCARTIER A","7018573","2021-04-07 14:00","2021","04","07","14:00","13.7","","5.5","","58","","","","14","","17","","14.5","","99.91","","","","","","NA"
"-71.50","46.90","VALCARTIER A","7018573","2021-04-07 15:00","2021","04","07","15:00","13.4","","4.9","","56","","","","14","","15","","14.5","","99.90","","","","","","NA"
"-71.50","46.90","VALCARTIER A","7018573","2021-04-07 16:00","2021","04","07","16:00","12.8","","4.4","","57","","","","10","","13","","14.5","","99.90","","","","","","NA"
"-71.50","46.90","VALCARTIER A","7018573","2021-04-07 17:00","2021","04","07","17:00","11.8","","3.6","","57","","","","14","","13","","14.5","","99.92","","","","","","NA"
"-71.50","46.90","VALCARTIER A","7018573","2021-04-07 18:00","2021","04","07","18:00","10.4","","3.0","","60","","","","10","","7","","14.5","","99.94","","","","","","NA"
"-71.50","46.90","VALCARTIER A","7018573","2021-04-07 19:00","2021","04","07","19:00","8.3","","2.3","","66","","","","9","","4","","14.5","","99.97","","","","","","NA"
"-71.50","46.90","VALCARTIER A","7018573","2021-04-07 20:00","2021","04","07","20:00","5.6","","1.1","","73","","","","","","0","","14.5","","100.03","","","","","","NA"
"-71.50","46.90","VALCARTIER A","7018573","2021-04-07 21:00","2021","04","07","21:00","2.6","","-1.6","","74","","","","35","","4","","14.5","","100.05","","","","","","NA"
"-71.50","46.90","VALCARTIER A","7018573","2021-04-07 22:00","2021","04","07","22:00","1.3","","-1.5","","82","","","","6","","6","","14.5","","100.04","","","","","","NA"
"-71.50","46.90","VALCARTIER A","7018573","2021-04-07 23:00","2021","04","07","23:00","1.2","","-2.4","","77","","","","","","0","","14.5","","100.04","","","","","","NA"
"-71.50","46.90","VALCARTIER A","7018573","2021-04-08 00:00","2021","04","08","00:00","-0.3","","-3.8","","77","","","","","","0","","14.5","","100.04","","","","","","NA"
"-71.50","46.90","VALCARTIER A","7018573","2021-04-08 01:00","2021","04","08","01:00","-0.8","","-4.0","","79","","","","","","0","","14.5","","100.05","","","","","","NA"
"-71.50","46.90","VALCARTIER A","7018573","2021-04-08 02:00","2021","04","08","02:00","-0.7","","-4.2","","77","","","","8","","6","","14.5","","100.03","","","","-3","","NA"
"-71.50","46.90","VALCARTIER A","7018573","2021-04-08 03:00","2021","04","08","03:00","-1.7","","-4.7","","80","","","","","","0","","14.5","","100.04","","","","","","NA"
"-71.50","46.90","VALCARTIER A","7018573","2021-04-08 04:00","2021","04","08","04:00","-1.7","","-5.0","","78","","","","","","0","","14.5","","100.09","","","","","","NA"
"-71.50","46.90","VALCARTIER A","7018573","2021-04-08 05:00","2021","04","08","05:00","-1.7","","-4.7","","80","","","","","","0","","14.5","","100.13","","","","","","NA"
"-71.50","46.90","VALCARTIER A","7018573","2021-04-08 06:00","2021","04","08","06:00","-1.4","","-3.9","","83","","","","","","0","","14.5","","100.19","","","","","","NA"
"-71.50","46.90","VALCARTIER A","7018573","2021-04-08 07:00","2021","04","08","07:00","3.1","","-0.2","","79","","","","","","0","","14.5","","100.24","","","","","","NA"
"-71.50","46.90","VALCARTIER A","7018573","2021-04-08 08:00","2021","04","08","08:00","7.6","","2.7","","71","","","","11","","6","","14.5","","100.24","","","","","","NA"
"-71.50","46.90","VALCARTIER A","7018573","2021-04-08 09:00","2021","04","08","09:00","10.0","","3.7","","65","","","","14","","11","","14.5","","100.22","","","","","","NA"
"-71.50","46.90","VALCARTIER A","7018573","2021-04-08 10:00","2021","04","08","10:00","11.1","","4.1","","62","","","","15","","13","","14.5","","100.20","","","","","","NA"
"-71.50","46.90","VALCARTIER A","7018573","2021-04-08 11:00","2021","04","08","11:00","12.1","","4.2","","58","","","","11","","13","","14.5","","100.16","","","","","","NA"
"-71.50","46.90","VALCARTIER A","7018573","2021-04-08 12:00","2021","04","08","12:00","13.2","","4.5","","56","","","","14","","20","","14.5","","100.09","","","","","","NA"
"-71.50","46.90","VALCARTIER A","7018573","2021-04-08 13:00","2021","04","08","13:00","14.4","","5.5","","55","","","","14","","19","","14.5","","100.04","","","","","","NA"
"-71.50","46.90","VALCARTIER A","7018573","2021-04-08 14:00","2021","04","08","14:00","14.9","","5.6","","54","","","","15","","15","","14.5","","99.98","","","","","","NA"
"-71.50","46.90","VALCARTIER A","7018573","2021-04-08 15:00","2021","04","08","15:00","15.5","","5.2","","50","","","","12","","15","","14.5","","99.92","","","","","","NA"
"-71.50","46.90","VALCARTIER A","7018573","2021-04-08 16:00","2021","04","08","16:00","15.6","","5.2","","50","","","","10","","11","","14.5","","99.92","","","","","","NA"
"-71.50","46.90","VALCARTIER A","7018573","2021-04-08 17:00","2021","04","08","17:00","14.7","","5.0","","52","","","","13","","9","","14.5","","99.90","","","","","","NA"
"-71.50","46.90","VALCARTIER A","7018573","2021-04-08 18:00","2021","04","08","18:00","11.8","","4.6","","61","","","","13","","7","","14.5","","99.89","","","","","","NA"
"-71.50","46.90","VALCARTIER A","7018573","2021-04-08 19:00","2021","04","08","19:00","10.0","","4.0","","66","","","","12","","7","","14.5","","99.91","","","","","","NA"
"-71.50","46.90","VALCARTIER A","7018573","2021-04-08 20:00","2021","04","08","20:00","8.2","","3.4","","72","","","","12","","4","","14.5","","99.97","","","","","","NA"
"-71.50","46.90","VALCARTIER A","7018573","2021-04-08 21:00","2021","04","08","21:00","5.2","","1.8","","79","","","","11","","4","","14.5","","99.97","","","","","","NA"
"-71.50","46.90","VALCARTIER A","7018573","2021-04-08 22:00","2021","04","08","22:00","4.6","","0.3","","74","","","","13","","4","","14.5","","99.96","","","","","","NA"
"-71.50","46.90","VALCARTIER A","7018573","2021-04-08 23:00","2021","04","08","23:00","3.6","","-0.2","","76","","","","10","","6","","14.5","","99.94","","","","","","NA"
"-71.50","46.90","VALCARTIER A","7018573","2021-04-09 00:00","2021","04","09","00:00","2.7","","-0.5","","79","","","","9","","7","","14.5","","99.95","","","","","","NA"
"-71.50","46.90","VALCARTIER A","7018573","2021-04-09 01:00","2021","04","09","01:00","2.7","","-0.9","","77","","","","","","0","","14.5","","99.94","","","","","","NA"
"-71.50","46.90","VALCARTIER A","7018573","2021-04-09 02:00","2021","04","09","02:00","2.3","","-1.4","","77","","","","12","","6","","14.5","","99.93","","","","","","NA"
"-71.50","46.90","VALCARTIER A","7018573","2021-04-09 03:00","2021","04","09","03:00","0.3","","-2.7","","80","","","","","","0","","14.5","","99.91","","","","","","NA"
"-71.50","46.90","VALCARTIER A","7018573","2021-04-09 04:00","2021","04","09","04:00","0.9","","-2.5","","78","","","","","","0","","14.5","","99.92","","","","","","NA"
"-71.50","46.90","VALCARTIER A","7018573","2021-04-09 05:00","2021","04","09","05:00","0.4","","-2.4","","82","","","","","","0","","14.5","","99.95","","","","","","NA"
"-71.50","46.90","VALCARTIER A","7018573","2021-04-09 06:00","2021","04","09","06:00","1.3","","-1.4","","82","","","","","","0","","14.5","","100.01","","","","","","NA"
"-71.50","46.90","VALCARTIER A","7018573","2021-04-09 07:00","2021","04","09","07:00","6.2","","2.0","","74","","","","8","","4","","14.5","","100.02","","","","","","NA"
"-71.50","46.90","VALCARTIER A","7018573","2021-04-09 08:00","2021","04","09","08:00","9.4","","3.1","","65","","","","4","","7","","14.5","","100.04","","","","","","NA"
"-71.50","46.90","VALCARTIER A","7018573","2021-04-09 09:00","2021","04","09","09:00","12.6","","4.8","","59","","","","13","","9","","14.5","","100.05","","","","","","NA"
"-71.50","46.90","VALCARTIER A","7018573","2021-04-09 10:00","2021","04","09","10:00","15.2","","5.6","","53","","","","14","","11","","14.5","","99.99","","","","","","NA"
"-71.50","46.90","VALCARTIER A","7018573","2021-04-09 11:00","2021","04","09","11:00","16.5","","6.0","","50","","","","15","","9","","14.5","","99.94","","","","","","NA"
"-71.50","46.90","VALCARTIER A","7018573","2021-04-09 12:00","2021","04","09","12:00","18.1","","6.2","","46","","","","14","","15","","14.5","","99.85","","","","","","NA"
"-71.50","46.90","VALCARTIER A","7018573","2021-04-09 13:00","2021","04","09","13:00","18.5","","6.0","","44","","","","14","","11","","14.5","","99.81","","","","","","NA"
"-71.50","46.90","VALCARTIER A","7018573","2021-04-09 14:00","2021","04","09","14:00","19.0","","5.9","","42","","","","17","","9","","14.5","","99.75","","","","","","NA"
"-71.50","46.90","VALCARTIER A","7018573","2021-04-09 15:00","2021","04","09","15:00","20.2","","5.7","","39","","","","12","","11","","14.5","","99.70","","","","","","NA"
"-71.50","46.90","VALCARTIER A","7018573","2021-04-09 16:00","2021","04","09","16:00","18.1","","6.1","","45","","","","14","","19","","14.5","","99.69","","","","","","NA"
"-71.50","46.90","VALCARTIER A","7018573","2021-04-09 17:00","2021","04","09","17:00","16.3","","5.5","","49","","","","14","","13","","14.5","","99.69","","","","","","NA"
"-71.50","46.90","VALCARTIER A","7018573","2021-04-09 18:00","2021","04","09","18:00","14.2","","4.8","","53","","","","13","","13","","14.5","","99.70","","","","","","NA"
"-71.50","46.90","VALCARTIER A","7018573","2021-04-09 19:00","2021","04","09","19:00","11.2","","3.9","","61","","","","13","","9","","14.5","","99.71","","","","","","NA"
"-71.50","46.90","VALCARTIER A","7018573","2021-04-09 20:00","2021","04","09","20:00","10.0","","3.5","","64","","","","13","","13","","14.5","","99.76","","","","","","NA"
"-71.50","46.90","VALCARTIER A","7018573","2021-04-09 21:00","2021","04","09","21:00","5.1","","0.8","","74","","","","9","","4","","14.5","","99.75","","","","","","NA"
"-71.50","46.90","VALCARTIER A","7018573","2021-04-09 22:00","2021","04","09","22:00","7.2","","2.7","","73","","","","9","","9","","14.5","","99.74","","","","","","NA"
"-71.50","46.90","VALCARTIER A","7018573","2021-04-09 23:00","2021","04","09","23:00","7.6","","2.5","","70","","","","10","","11","","14.5","","99.69","","","","","","NA"
"-71.50","46.90","VALCARTIER A","7018573","2021-04-10 00:00","2021","04","10","00:00","7.2","","2.3","","71","","","","10","","11","","14.5","","99.66","","","","","","NA"
"-71.50","46.90","VALCARTIER A","7018573","2021-04-10 01:00","2021","04","10","01:00","3.8","","-0.2","","75","","","","9","","6","","14.5","","99.62","","","","","","NA"
"-71.50","46.90","VALCARTIER A","7018573","2021-04-10 02:00","2021","04","10","02:00","6.2","","2.0","","74","","","","11","","9","","14.5","","99.59","","","","","","NA"
"-71.50","46.90","VALCARTIER A","7018573","2021-04-10 03:00","2021","04","10","03:00","5.4","","1.3","","75","","","","11","","7","","14.5","","99.59","","","","","","NA"
"-71.50","46.90","VALCARTIER A","7018573","2021-04-10 04:00","2021","04","10","04:00","5.2","","1.1","","75","","","","10","","9","","14.5","","99.60","","","","","","NA"
"-71.50","46.90","VALCARTIER A","7018573","2021-04-10 05:00","2021","04","10","05:00","3.9","","0.5","","79","","","","9","","7","","14.5","","99.61","","","","","","NA"
"-71.50","46.90","VALCARTIER A","7018573","2021-04-10 06:00","2021","04","10","06:00","4.9","","1.1","","76","","","","11","","9","","14.5","","99.60","","","","","","NA"
"-71.50","46.90","VALCARTIER A","7018573","2021-04-10 07:00","2021","04","10","07:00","7.5","","2.5","","71","","","","10","","9","","14.5","","99.58","","","","","","NA"
"-71.50","46.90","VALCARTIER A","7018573","2021-04-10 08:00","2021","04","10","08:00","10.2","","2.8","","60","","","","12","","11","","14.5","","99.54","","","","","","NA"
"-71.50","46.90","VALCARTIER A","7018573","2021-04-10 09:00","2021","04","10","09:00","11.5","","2.5","","54","","","","14","","15","","14.5","","99.55","","","","","","NA"
"-71.50","46.90","VALCARTIER A","7018573","2021-04-10 10:00","2021","04","10","10:00","11.8","","1.9","","51","","","","14","","17","","14.5","","99.51","","","","","","NA"
"-71.50","46.90","VALCARTIER A","7018573","2021-04-10 11:00","2021","04","10","11:00","12.6","","2.0","","48","","","","13","","13","","14.5","","99.44","","","","","","NA"
"-71.50","46.90","VALCARTIER A","7018573","2021-04-10 12:00","2021","04","10","12:00","12.1","","1.8","","49","","","","12","","17","","14.5","","99.34","","","","","","NA"
"-71.50","46.90","VALCARTIER A","7018573","2021-04-10 13:00","2021","04","10","13:00","12.5","","1.5","","47","","","","14","","20","","14.5","","99.23","","","","","","NA"
"-71.50","46.90","VALCARTIER A","7018573","2021-04-10 14:00","2021","04","10","14:00","12.5","","0.5","","44","","","","14","","7","","14.5","","99.18","","","","","","NA"
"-71.50","46.90","VALCARTIER A","7018573","2021-04-10 15:00","2021","04","10","15:00","12.1","","-0.5","","42","","","","12","","17","","14.5","","99.14","","","","","","NA"
"-71.50","46.90","VALCARTIER A","7018573","2021-04-10 16:00","2021","04","10","16:00","10.5","","-2.8","","39","","","","11","","17","","14.5","","99.08","","","","","","NA"
"-71.50","46.90","VALCARTIER A","7018573","2021-04-10 17:00","2021","04","10","17:00","10.1","","-3.1","","39","","","","14","","9","","14.5","","99.06","","","","","","NA"
"-71.50","46.90","VALCARTIER A","7018573","2021-04-10 18:00","2021","04","10","18:00","8.7","","-3.4","","42","","","","13","","9","","14.5","","99.07","","","","","","NA"
"-71.50","46.90","VALCARTIER A","7018573","2021-04-10 19:00","2021","04","10","19:00","7.0","","-3.6","","47","","","","14","","6","","14.5","","99.07","","","","","","NA"
"-71.50","46.90","VALCARTIER A","7018573","2021-04-10 20:00","2021","04","10","20:00","5.8","","-4.9","","46","","","","13","","13","","14.5","","99.08","","","","","","NA"
"-71.50","46.90","VALCARTIER A","7018573","2021-04-10 21:00","2021","04","10","21:00","5.7","","-5.0","","46","","","","13","","17","","14.5","","99.04","","","","","","NA"
"-71.50","46.90","VALCARTIER A","7018573","2021-04-10 22:00","2021","04","10","22:00","7.5","","-6.9","","35","","","","10","","11","","14.5","","99.02","","","","","","NA"
"-71.50","46.90","VALCARTIER A","7018573","2021-04-10 23:00","2021","04","10","23:00","7.7","","-7.1","","34","","","","10","","13","","14.5","","99.03","","","","","","NA"
"-71.50","46.90","VALCARTIER A","7018573","2021-04-11 00:00","2021","04","11","00:00","7.2","","-7.0","","36","","","","9","","11","","14.5","","99.05","","","","","","NA"
"-71.50","46.90","VALCARTIER A","7018573","2021-04-11 01:00","2021","04","11","01:00","6.5","","-6.4","","39","","","","10","","13","","14.5","","99.11","","","","","","NA"
"-71.50","46.90","VALCARTIER A","7018573","2021-04-11 02:00","2021","04","11","02:00","5.6","","-5.1","","46","","","","9","","7","","14.5","","99.08","","","","","","Rain"
"-71.50","46.90","VALCARTIER A","7018573","2021-04-11 03:00","2021","04","11","03:00","4.8","","-5.3","","48","","","","13","","6","","14.5","","99.08","","","","","","NA"
"-71.50","46.90","VALCARTIER A","7018573","2021-04-11 04:00","2021","04","11","04:00","4.0","","-4.7","","53","","","","12","","11","","14.5","","99.06","","","","","","NA"
"-71.50","46.90","VALCARTIER A","7018573","2021-04-11 05:00","2021","04","11","05:00","3.3","","-4.4","","57","","","","11","","11","","14.5","","99.05","","","","","","NA"
"-71.50","46.90","VALCARTIER A","7018573","2021-04-11 06:00","2021","04","11","06:00","3.4","","-5.3","","53","","","","12","","13","","14.5","","99.05","","","","","","NA"
"-71.50","46.90","VALCARTIER A","7018573","2021-04-11 07:00","2021","04","11","07:00","5.1","","-4.5","","50","","","","13","","11","","14.5","","99.07","","","","","","NA"
"-71.50","46.90","VALCARTIER A","7018573","2021-04-11 08:00","2021","04","11","08:00","6.7","","-6.0","","40","","","","10","","19","","14.5","","99.11","","","","","","NA"
"-71.50","46.90","VALCARTIER A","7018573","2021-04-11 09:00","2021","04","11","09:00","8.5","","-6.1","","35","","","","11","","19","","14.5","","99.11","","","","","","NA"
"-71.50","46.90","VALCARTIER A","7018573","2021-04-11 10:00","2021","04","11","10:00","10.0","","-6.3","","31","","","","13","","19","","14.5","","99.09","","","","","","NA"
"-71.50","46.90","VALCARTIER A","7018573","2021-04-11 11:00","2021","04","11","11:00","10.8","","-7.0","","28","","","","11","","20","","14.5","","99.06","","","","","","NA"
"-71.50","46.90","VALCARTIER A","7018573","2021-04-11 12:00","2021","04","11","12:00","11.6","","-6.4","","28","","","","12","","19","","14.5","","99.05","","","","","","NA"
"-71.50","46.90","VALCARTIER A","7018573","2021-04-11 13:00","2021","04","11","13:00","11.5","","-5.0","","31","","","","12","","20","","14.5","","99.03","","","","","","NA"
"-71.50","46.90","VALCARTIER A","7018573","2021-04-11 14:00","2021","04","11","14:00","11.9","","-3.0","","35","","","","11","","22","","14.5","","98.99","","","","","","NA"
"-71.50","46.90","VALCARTIER A","7018573","2021-04-11 15:00","2021","04","11","15:00","12.0","","-2.2","","37","","","","12","","20","","14.5","","98.93","","","","","","NA"
"-71.50","46.90","VALCARTIER A","7018573","2021-04-11 16:00","2021","04","11","16:00","12.8","","-0.8","","39","","","","8","","20","","14.5","","98.92","","","","","","NA"
"-71.50","46.90","VALCARTIER A","7018573","2021-04-11 17:00","2021","04","11","17:00","12.6","","-0.5","","40","","","","10","","13","","14.5","","98.96","","","","","","NA"
"-71.50","46.90","VALCARTIER A","7018573","2021-04-11 18:00","2021","04","11","18:00","10.8","","-0.9","","44","","","","9","","17","","14.5","","99.03","","","","","","NA"
"-71.50","46.90","VALCARTIER A","7018573","2021-04-11 19:00","2021","04","11","19:00","8.5","","-0.5","","53","","","","11","","17","","14.5","","99.10","","","","","","NA"
"-71.50","46.90","VALCARTIER A","7018573","2021-04-11 20:00","2021","04","11","20:00","8.4","","0.4","","57","","","","12","","11","","14.5","","99.16","","","","","","NA"
"-71.50","46.90","VALCARTIER A","7018573","2021-04-11 21:00","2021","04","11","21:00","8.1","","0.9","","60","","","","13","","7","","14.5","","99.17","","","","","","NA"
"-71.50","46.90","VALCARTIER A","7018573","2021-04-11 22:00","2021","04","11","22:00","9.1","","1.2","","58","","","","9","","11","","14.5","","99.16","","","","","","NA"
"-71.50","46.90","VALCARTIER A","7018573","2021-04-11 23:00","2021","04","11","23:00","10.4","","1.8","","55","","","","7","","19","","14.5","","99.15","","","","","","NA"
"-71.50","46.90","VALCARTIER A","7018573","2021-04-12 00:00","2021","04","12","00:00","10.9","","3.1","","59","","","","7","","22","","14.5","","99.15","","","","","","NA"
"-71.50","46.90","VALCARTIER A","7018573","2021-04-12 01:00","2021","04","12","01:00","10.8","","3.7","","62","","","","7","","15","","14.5","","99.20","","","","","","NA"
"-71.50","46.90","VALCARTIER A","7018573","2021-04-12 02:00","2021","04","12","02:00","11.0","","4.1","","62","","","","9","","24","","14.5","","99.21","","","","","","NA"
"-71.50","46.90","VALCARTIER A","7018573","2021-04-12 03:00","2021","04","12","03:00","10.6","","3.6","","62","","","","6","","19","","14.5","","99.25","","","","","","NA"
"-71.50","46.90","VALCARTIER A","7018573","2021-04-12 04:00","2021","04","12","04:00","10.8","","3.9","","62","","","","7","","20","","14.5","","99.26","","","","","","NA"
"-71.50","46.90","VALCARTIER A","7018573","2021-04-12 05:00","2021","04","12","05:00","10.0","","3.7","","65","","","","13","","11","","14.5","","99.32","","","","","","NA"
"-71.50","46.90","VALCARTIER A","7018573","2021-04-12 06:00","2021","04","12","06:00","10.4","","3.5","","62","","","","7","","20","","14.5","","99.40","","","","","","NA"
"-71.50","46.90","VALCARTIER A","7018573","2021-04-12 07:00","2021","04","12","07:00","10.3","","3.6","","63","","","","7","","24","","14.5","","99.44","","","","","","NA"
"-71.50","46.90","VALCARTIER A","7018573","2021-04-12 08:00","2021","04","12","08:00","10.8","","3.2","","59","","","","7","","22","","14.5","","99.48","","","","","","NA"
"-71.50","46.90","VALCARTIER A","7018573","2021-04-12 09:00","2021","04","12","09:00","11.1","","2.6","","56","","","","7","","24","","14.5","","99.54","","","","","","NA"
"-71.50","46.90","VALCARTIER A","7018573","2021-04-12 10:00","2021","04","12","10:00","12.0","","2.8","","53","","","","10","","20","","14.5","","99.53","","","","","","NA"
"-71.50","46.90","VALCARTIER A","7018573","2021-04-12 11:00","2021","04","12","11:00","13.7","","3.2","","49","","","","8","","20","","14.5","","99.50","","","","","","NA"
"-71.50","46.90","VALCARTIER A","7018573","2021-04-12 12:00","2021","04","12","12:00","13.7","","3.2","","49","","","","10","","22","","14.5","","99.51","","","","","","NA"
"-71.50","46.90","VALCARTIER A","7018573","2021-04-12 13:00","2021","04","12","13:00","14.3","","3.7","","49","","","","9","","17","","14.5","","99.55","","","","","","NA"
"-71.50","46.90","VALCARTIER A","7018573","2021-04-12 14:00","2021","04","12","14:00","13.6","","3.2","","49","","","","7","","26","","14.5","","99.52","","","","","","NA"
"-71.50","46.90","VALCARTIER A","7018573","2021-04-12 15:00","2021","04","12","15:00","13.4","","3.0","","49","","","","7","","20","","14.5","","99.56","","","","","","NA"
"-71.50","46.90","VALCARTIER A","7018573","2021-04-12 16:00","2021","04","12","16:00","12.9","","2.9","","51","","","","9","","17","","14.5","","99.58","","","","","","NA"
"-71.50","46.90","VALCARTIER A","7018573","2021-04-12 17:00","2021","04","12","17:00","12.4","","2.8","","52","","","","5","","17","","14.5","","99.62","","","","","","NA"
"-71.50","46.90","VALCARTIER A","7018573","2021-04-12 18:00","2021","04","12","18:00","11.5","","2.8","","55","","","","7","","9","","14.5","","99.66","","","","","","NA"
"-71.50","46.90","VALCARTIER A","7018573","2021-04-12 19:00","2021","04","12","19:00","9.5","","1.8","","59","","","","9","","11","","14.5","","99.71","","","","","","NA"
"-71.50","46.90","VALCARTIER A","7018573","2021-04-12 20:00","2021","04","12","20:00","7.7","","0.7","","61","","","","13","","9","","14.5","","99.77","","","","","","NA"
"-71.50","46.90","VALCARTIER A","7018573","2021-04-12 21:00","2021","04","12","21:00","8.4","","1.4","","61","","","","6","","4","","14.5","","99.79","","","","","","NA"
"-71.50","46.90","VALCARTIER A","7018573","2021-04-12 22:00","2021","04","12","22:00","9.0","","1.6","","60","","","","11","","7","","14.5","","99.84","","","","","","NA"
"-71.50","46.90","VALCARTIER A","7018573","2021-04-12 23:00","2021","04","12","23:00","9.1","","1.4","","59","","","","9","","11","","14.5","","99.89","","","","","","NA"
"-71.50","46.90","VALCARTIER A","7018573","2021-04-13 00:00","2021","04","13","00:00","7.5","","0.9","","63","","","","17","","6","","14.5","","99.90","","","","","","NA"
"-71.50","46.90","VALCARTIER A","7018573","2021-04-13 01:00","2021","04","13","01:00","7.1","","1.1","","66","","","","17","","4","","14.5","","99.87","","","","","","NA"
"-71.50","46.90","VALCARTIER A","7018573","2021-04-13 02:00","2021","04","13","02:00","4.0","","-0.5","","73","","","","","","0","","14.5","","99.86","","","","","","NA"
"-71.50","46.90","VALCARTIER A","7018573","2021-04-13 03:00","2021","04","13","03:00","3.4","","-0.8","","74","","","","12","","4","","14.5","","99.90","","","","","","NA"
"-71.50","46.90","VALCARTIER A","7018573","2021-04-13 04:00","2021","04","13","04:00","2.6","","-1.4","","75","","","","10","","4","","14.5","","99.94","","","","","","NA"
"-71.50","46.90","VALCARTIER A","7018573","2021-04-13 05:00","2021","04","13","05:00","1.3","","-2.1","","78","","","","","","0","","14.5","","100.00","","","","","","NA"
"-71.50","46.90","VALCARTIER A","7018573","2021-04-13 06:00","2021","04","13","06:00","2.0","","-1.8","","76","","","","33","","4","","14.5","","100.05","","","","","","NA"
"-71.50","46.90","VALCARTIER A","7018573","2021-04-13 07:00","2021","04","13","07:00","6.7","","0.4","","64","","","","4","","9","","14.5","","100.08","","","","","","NA"
"-71.50","46.90","VALCARTIER A","7018573","2021-04-13 08:00","2021","04","13","08:00","8.7","","1.7","","61","","","","15","","6","","14.5","","100.08","","","","","","NA"
"-71.50","46.90","VALCARTIER A","7018573","2021-04-13 09:00","2021","04","13","09:00","11.6","","1.5","","50","","","","10","","11","","14.5","","100.06","","","","","","NA"
"-71.50","46.90","VALCARTIER A","7018573","2021-04-13 10:00","2021","04","13","10:00","12.6","","1.5","","47","","","","14","","15","","14.5","","100.01","","","","","","NA"
"-71.50","46.90","VALCARTIER A","7018573","2021-04-13 11:00","2021","04","13","11:00","13.7","","1.5","","44","","","","13","","17","","14.5","","99.97","","","","","","NA"
"-71.50","46.90","VALCARTIER A","7018573","2021-04-13 12:00","2021","04","13","12:00","13.6","","1.6","","44","","","","15","","15","","14.5","","99.95","","","","","","NA"
"-71.50","46.90","VALCARTIER A","7018573","2021-04-13 13:00","2021","04","13","13:00","14.1","","1.1","","41","","","","13","","13","","14.5","","99.90","","","","","","NA"
"-71.50","46.90","VALCARTIER A","7018573","2021-04-13 14:00","2021","04","13","14:00","13.2","","0.3","","41","","","","12","","24","","14.5","","99.85","","","","","","NA"
"-71.50","46.90","VALCARTIER A","7018573","2021-04-13 15:00","2021","04","13","15:00","12.7","","-0.3","","41","","","","10","","24","","14.5","","99.83","","","","","","NA"
"-71.50","46.90","VALCARTIER A","7018573","2021-04-13 16:00","2021","04","13","16:00","12.8","","-0.9","","39","","","","14","","19","","14.5","","99.81","","","","","","NA"
"-71.50","46.90","VALCARTIER A","7018573","2021-04-13 17:00","2021","04","13","17:00","11.7","","-2.0","","38","","","","13","","13","","14.5","","99.83","","","","","","NA"
"-71.50","46.90","VALCARTIER A","7018573","2021-04-13 18:00","2021","04","13","18:00","10.6","","-2.8","","39","","","","12","","13","","14.5","","99.85","","","","","","NA"
"-71.50","46.90","VALCARTIER A","7018573","2021-04-13 19:00","2021","04","13","19:00","8.6","","-3.5","","42","","","","14","","6","","14.5","","99.87","","","","","","NA"
"-71.50","46.90","VALCARTIER A","7018573","2021-04-13 20:00","2021","04","13","20:00","4.8","","-3.4","","55","","","","","","0","","14.5","","99.88","","","","","","NA"
"-71.50","46.90","VALCARTIER A","7018573","2021-04-13 21:00","2021","04","13","21:00","2.0","","-4.1","","64","","","","3","","4","","14.5","","99.90","","","","","","NA"
"-71.50","46.90","VALCARTIER A","7018573","2021-04-13 22:00","2021","04","13","22:00","-0.1","","-5.3","","68","","","","2","","4","","14.5","","99.91","","","","-1","","NA"
"-71.50","46.90","VALCARTIER A","7018573","2021-04-13 23:00","2021","04","13","23:00","-1.8","","-6.3","","71","","","","","","0","","14.5","","99.90","","","","","","NA"
"-71.50","46.90","VALCARTIER A","7018573","2021-04-14 00:00","2021","04","14","00:00","-3.0","","-6.3","","78","","","","4","","4","","14.5","","99.89","","","","-5","","NA"
"-71.50","46.90","VALCARTIER A","7018573","2021-04-14 01:00","2021","04","14","01:00","-2.6","","-6.2","","76","","","","35","","4","","14.5","","99.88","","","","-4","","NA"
"-71.50","46.90","VALCARTIER A","7018573","2021-04-14 02:00","2021","04","14","02:00","-4.5","","-7.8","","78","","","","","","0","","14.5","","99.89","","","","","","NA"
"-71.50","46.90","VALCARTIER A","7018573","2021-04-14 03:00","2021","04","14","03:00","-3.5","","-7.1","","76","","","","","","0","","14.5","","99.90","","","","","","NA"
"-71.50","46.90","VALCARTIER A","7018573","2021-04-14 04:00","2021","04","14","04:00","-4.0","","-7.4","","77","","","","","","0","","14.5","","99.90","","","","","","NA"
"-71.50","46.90","VALCARTIER A","7018573","2021-04-14 05:00","2021","04","14","05:00","-4.0","","-7.7","","75","","","","","","0","","14.5","","99.92","","","","","","NA"
"-71.50","46.90","VALCARTIER A","7018573","2021-04-14 06:00","2021","04","14","06:00","-2.7","","-6.3","","76","","","","","","0","","14.5","","99.94","","","","","","NA"
"-71.50","46.90","VALCARTIER A","7018573","2021-04-14 07:00","2021","04","14","07:00","3.3","","-3.2","","62","","","","6","","4","","14.5","","99.95","","","","","","NA"
"-71.50","46.90","VALCARTIER A","7018573","2021-04-14 08:00","2021","04","14","08:00","8.3","","-1.7","","49","","","","11","","9","","14.5","","99.90","","","","","","NA"
"-71.50","46.90","VALCARTIER A","7018573","2021-04-14 09:00","2021","04","14","09:00","9.3","","-1.8","","46","","","","12","","17","","14.5","","99.83","","","","","","NA"
"-71.50","46.90","VALCARTIER A","7018573","2021-04-14 10:00","2021","04","14","10:00","11.2","","-1.6","","41","","","","12","","19","","14.5","","99.78","","","","","","NA"
"-71.50","46.90","VALCARTIER A","7018573","2021-04-14 11:00","2021","04","14","11:00","12.3","","-1.2","","39","","","","12","","11","","14.5","","99.70","","","","","","NA"
"-71.50","46.90","VALCARTIER A","7018573","2021-04-14 12:00","2021","04","14","12:00","13.6","","-1.1","","36","","","","12","","11","","14.5","","99.63","","","","","","NA"
"-71.50","46.90","VALCARTIER A","7018573","2021-04-14 13:00","2021","04","14","13:00","13.7","","-2.4","","33","","","","16","","15","","14.5","","99.53","","","","","","NA"
"-71.50","46.90","VALCARTIER A","7018573","2021-04-14 14:00","2021","04","14","14:00","14.9","","-3.9","","27","","","","14","","13","","14.5","","99.45","","","","","","NA"
"-71.50","46.90","VALCARTIER A","7018573","2021-04-14 15:00","2021","04","14","15:00","15.3","","-3.1","","28","","","","14","","13","","14.5","","99.40","","","","","","NA"
"-71.50","46.90","VALCARTIER A","7018573","2021-04-14 16:00","2021","04","14","16:00","15.5","","-2.3","","29","","","","13","","7","","14.5","","99.34","","","","","","NA"
"-71.50","46.90","VALCARTIER A","7018573","2021-04-14 17:00","2021","04","14","17:00","15.1","","-2.4","","30","","","","14","","11","","14.5","","99.31","","","","","","NA"
"-71.50","46.90","VALCARTIER A","7018573","2021-04-14 18:00","2021","04","14","18:00","13.4","","-2.7","","33","","","","14","","6","","14.5","","99.27","","","","","","NA"
"-71.50","46.90","VALCARTIER A","7018573","2021-04-14 19:00","2021","04","14","19:00","9.3","","-1.2","","48","","","","13","","11","","14.5","","99.27","","","","","","NA"
"-71.50","46.90","VALCARTIER A","7018573","2021-04-14 20:00","2021","04","14","20:00","7.7","","-2.2","","50","","","","12","","9","","14.5","","99.30","","","","","","NA"
"-71.50","46.90","VALCARTIER A","7018573","2021-04-14 21:00","2021","04","14","21:00","1.8","","-3.8","","66","","","","1","","9","","12.9","","99.28","","","","","","NA"
"-71.50","46.90","VALCARTIER A","7018573","2021-04-14 22:00","2021","04","14","22:00","-0.1","","-4.9","","70","","","","","","0","","14.5","","99.25","","","","","","NA"
"-71.50","46.90","VALCARTIER A","7018573","2021-04-14 23:00","2021","04","14","23:00","-1.0","","-5.3","","73","","","","","","0","","14.5","","99.22","","","","","","NA"
"-71.50","46.90","VALCARTIER A","7018573","2021-04-15 00:00","2021","04","15","00:00","-1.5","","-6.2","","70","","","","","","0","","14.5","","99.21","","","","","","NA"
"-71.50","46.90","VALCARTIER A","7018573","2021-04-15 01:00","2021","04","15","01:00","2.0","","-5.6","","57","","","","6","","9","","14.5","","99.18","","","","","","NA"
"-71.50","46.90","VALCARTIER A","7018573","2021-04-15 02:00","2021","04","15","02:00","3.1","","-5.9","","52","","","","4","","6","","14.5","","99.13","","","","","","NA"
"-71.50","46.90","VALCARTIER A","7018573","2021-04-15 03:00","2021","04","15","03:00","-1.5","","-6.7","","68","","","","10","","4","","14.5","","99.10","","","","-3","","NA"
"-71.50","46.90","VALCARTIER A","7018573","2021-04-15 04:00","2021","04","15","04:00","-0.8","","-6.5","","65","","","","9","","6","","14.5","","99.07","","","","-3","","NA"
"-71.50","46.90","VALCARTIER A","7018573","2021-04-15 05:00","2021","04","15","05:00","0.4","","-6.3","","61","","","","9","","7","","14.5","","99.04","","","","","","NA"
"-71.50","46.90","VALCARTIER A","7018573","2021-04-15 06:00","2021","04","15","06:00","2.7","","-5.2","","56","","","","","","0","","14.5","","99.01","","","","","","NA"
"-71.50","46.90","VALCARTIER A","7018573","2021-04-15 07:00","2021","04","15","07:00","6.7","","-3.8","","47","","","","12","","6","","14.5","","99.02","","","","","","NA"
"-71.50","46.90","VALCARTIER A","7018573","2021-04-15 08:00","2021","04","15","08:00","10.1","","-2.8","","40","","","","14","","9","","14.5","","99.03","","","","","","NA"
"-71.50","46.90","VALCARTIER A","7018573","2021-04-15 09:00","2021","04","15","09:00","12.5","","-3.6","","32","","","","11","","17","","14.5","","99.00","","","","","","NA"
"-71.50","46.90","VALCARTIER A","7018573","2021-04-15 10:00","2021","04","15","10:00","13.7","","-3.8","","30","","","","11","","20","","14.5","","98.93","","","","","","NA"
"-71.50","46.90","VALCARTIER A","7018573","2021-04-15 11:00","2021","04","15","11:00","15.7","","-2.6","","28","","","","13","","17","","14.5","","98.90","","","","","","NA"
"-71.50","46.90","VALCARTIER A","7018573","2021-04-15 12:00","2021","04","15","12:00","16.4","","-2.5","","27","","","","10","","20","","14.5","","98.85","","","","","","NA"
"-71.50","46.90","VALCARTIER A","7018573","2021-04-15 13:00","2021","04","15","13:00","18.0","","-2.7","","24","","","","6","","15","","14.5","","98.77","","","","","","NA"
"-71.50","46.90","VALCARTIER A","7018573","2021-04-15 14:00","2021","04","15","14:00","17.4","","-2.7","","25","","","","8","","11","","14.5","","98.71","","","","","","NA"
"-71.50","46.90","VALCARTIER A","7018573","2021-04-15 15:00","2021","04","15","15:00","17.6","","-3.3","","24","","","","9","","20","","14.5","","98.69","","","","","","NA"
"-71.50","46.90","VALCARTIER A","7018573","2021-04-15 16:00","2021","04","15","16:00","16.2","","-3.7","","25","","","","8","","20","","14.5","","98.65","","","","","","NA"
"-71.50","46.90","VALCARTIER A","7018573","2021-04-15 17:00","2021","04","15","17:00","15.1","","-2.7","","29","","","","11","","17","","14.5","","98.66","","","","","","NA"
"-71.50","46.90","VALCARTIER A","7018573","2021-04-15 18:00","2021","04","15","18:00","13.4","","-1.6","","35","","","","12","","17","","14.5","","98.72","","","","","","NA"
"-71.50","46.90","VALCARTIER A","7018573","2021-04-15 19:00","2021","04","15","19:00","12.0","","-2.2","","37","","","","13","","19","","14.5","","98.77","","","","","","NA"
"-71.50","46.90","VALCARTIER A","7018573","2021-04-15 20:00","2021","04","15","20:00","11.6","","-2.7","","37","","","","12","","11","","14.5","","98.81","","","","","","NA"
"-71.50","46.90","VALCARTIER A","7018573","2021-04-15 21:00","2021","04","15","21:00","12.2","","-3.7","","33","","","","10","","19","","14.5","","98.79","","","","","","NA"
"-71.50","46.90","VALCARTIER A","7018573","2021-04-15 22:00","2021","04","15","22:00","11.6","","-3.7","","34","","","","9","","13","","14.5","","98.75","","","","","","NA"
"-71.50","46.90","VALCARTIER A","7018573","2021-04-15 23:00","2021","04","15","23:00","10.8","","-4.1","","35","","","","10","","11","","14.5","","98.81","","","","","","NA"
"-71.50","46.90","VALCARTIER A","7018573","2021-04-16 00:00","2021","04","16","00:00","10.1","","-4.5","","35","","","","10","","15","","14.5","","98.86","","","","","","NA"
"-71.50","46.90","VALCARTIER A","7018573","2021-04-16 01:00","2021","04","16","01:00","9.3","","-4.7","","37","","","","9","","17","","14.5","","98.85","","","","","","NA"
"-71.50","46.90","VALCARTIER A","7018573","2021-04-16 02:00","2021","04","16","02:00","8.2","","-6.0","","36","","","","7","","13","","14.5","","98.89","","","","","","NA"
"-71.50","46.90","VALCARTIER A","7018573","2021-04-16 03:00","2021","04","16","03:00","6.9","","-6.1","","39","","","","8","","13","","14.5","","98.91","","","","","","NA"
"-71.50","46.90","VALCARTIER A","7018573","2021-04-16 04:00","2021","04","16","04:00","6.2","","-5.6","","43","","","","8","","11","","14.5","","98.93","","","","","","NA"
"-71.50","46.90","VALCARTIER A","7018573","2021-04-16 05:00","2021","04","16","05:00","5.6","","-6.6","","41","","","","7","","13","","14.5","","98.94","","","","","","NA"
"-71.50","46.90","VALCARTIER A","7018573","2021-04-16 06:00","2021","04","16","06:00","5.2","","-8.3","","37","","","","7","","17","","14.5","","99.00","","","","","","NA"
"-71.50","46.90","VALCARTIER A","7018573","2021-04-16 07:00","2021","04","16","07:00","5.1","","-8.0","","38","","","","8","","19","","14.5","","99.03","","","","","","NA"
"-71.50","46.90","VALCARTIER A","7018573","2021-04-16 08:00","2021","04","16","08:00","5.8","","-6.6","","41","","","","10","","17","","14.5","","99.04","","","","","","NA"
"-71.50","46.90","VALCARTIER A","7018573","2021-04-16 09:00","2021","04","16","09:00","6.5","","-5.7","","41","","","","10","","20","","14.5","","99.01","","","","","","NA"
"-71.50","46.90","VALCARTIER A","7018573","2021-04-16 10:00","2021","04","16","10:00","6.9","","-5.8","","40","","","","11","","24","","14.5","","98.99","","","","","","NA"
"-71.50","46.90","VALCARTIER A","7018573","2021-04-16 11:00","2021","04","16","11:00","8.3","","-4.8","","39","","","","5","","24","","14.5","","98.92","","","","","","NA"
"-71.50","46.90","VALCARTIER A","7018573","2021-04-16 12:00","2021","04","16","12:00","8.0","","-4.3","","42","","","","6","","22","","14.5","","98.89","","","","","","NA"
"-71.50","46.90","VALCARTIER A","7018573","2021-04-16 13:00","2021","04","16","13:00","8.3","","-3.9","","42","","","","7","","22","","14.5","","98.86","","","","","","NA"
"-71.50","46.90","VALCARTIER A","7018573","2021-04-16 14:00","2021","04","16","14:00","9.3","","-4.3","","38","","","","10","","17","","14.5","","98.81","","","","","","NA"
"-71.50","46.90","VALCARTIER A","7018573","2021-04-16 15:00","2021","04","16","15:00","10.4","","-4.4","","35","","","","6","","15","","14.5","","98.78","","","","","","NA"
"-71.50","46.90","VALCARTIER A","7018573","2021-04-16 16:00","2021","04","16","16:00","10.1","","-3.6","","38","","","","6","","13","","14.5","","98.79","","","","","","NA"
"-71.50","46.90","VALCARTIER A","7018573","2021-04-16 17:00","2021","04","16","17:00","9.6","","-2.1","","44","","","","10","","7","","14.5","","98.82","","","","","","NA"
"-71.50","46.90","VALCARTIER A","7018573","2021-04-16 18:00","2021","04","16","18:00","8.2","","-1.8","","49","","","","10","","7","","14.5","","98.86","","","","","","NA"
"-71.50","46.90","VALCARTIER A","7018573","2021-04-16 19:00","2021","04","16","19:00","8.2","","-3.5","","43","","","","6","","15","","14.5","","98.92","","","","","","NA"
"-71.50","46.90","VALCARTIER A","7018573","2021-04-16 20:00","2021","04","16","20:00","7.5","","-3.6","","45","","","","7","","15","","14.5","","98.96","","","","","","NA"
"-71.50","46.90","VALCARTIER A","7018573","2021-04-16 21:00","2021","04","16","21:00","6.6","","-3.6","","48","","","","7","","9","","14.5","","98.95","","","","","","NA"
"-71.50","46.90","VALCARTIER A","7018573","2021-04-16 22:00","2021","04","16","22:00","5.4","","-3.7","","52","","","","8","","13","","14.5","","98.98","","","","","","NA"
"-71.50","46.90","VALCARTIER A","7018573","2021-04-16 23:00","2021","04","16","23:00","4.8","","-4.1","","53","","","","9","","11","","14.5","","99.03","","","","","","NA"
"-71.50","46.90","VALCARTIER A","7018573","2021-04-17 00:00","2021","04","17","00:00","4.1","","-4.4","","54","","","","9","","19","","14.5","","99.02","","","","","","NA"
"-71.50","46.90","VALCARTIER A","7018573","2021-04-17 01:00","2021","04","17","01:00","3.5","","-5.2","","53","","","","7","","19","","14.5","","99.01","","","","","","NA"
"-71.50","46.90","VALCARTIER A","7018573","2021-04-17 02:00","2021","04","17","02:00","3.0","","-5.9","","52","","","","8","","17","","14.5","","99.02","","","","","","NA"
"-71.50","46.90","VALCARTIER A","7018573","2021-04-17 03:00","2021","04","17","03:00","2.7","","-5.8","","54","","","","3","","11","","14.5","","99.01","","","","","","NA"
"-71.50","46.90","VALCARTIER A","7018573","2021-04-17 04:00","2021","04","17","04:00","2.6","","-5.4","","56","","","","7","","11","","14.5","","99.02","","","","","","NA"
"-71.50","46.90","VALCARTIER A","7018573","2021-04-17 05:00","2021","04","17","05:00","2.6","","-5.4","","56","","","","5","","6","","14.5","","99.04","","","","","","NA"
"-71.50","46.90","VALCARTIER A","7018573","2021-04-17 06:00","2021","04","17","06:00","2.6","","-5.3","","56","","","","10","","11","","14.5","","99.05","","","","","","NA"
"-71.50","46.90","VALCARTIER A","7018573","2021-04-17 07:00","2021","04","17","07:00","2.7","","-5.8","","54","","","","7","","13","","14.5","","99.05","","","","","","NA"
"-71.50","46.90","VALCARTIER A","7018573","2021-04-17 08:00","2021","04","17","08:00","3.5","","-5.8","","51","","","","10","","15","","14.5","","99.07","","","","","","NA"
"-71.50","46.90","VALCARTIER A","7018573","2021-04-17 09:00","2021","04","17","09:00","3.9","","-5.8","","49","","","","4","","20","","14.5","","99.07","","","","","","NA"
"-71.50","46.90","VALCARTIER A","7018573","2021-04-17 10:00","2021","04","17","10:00","5.3","","-5.0","","47","","","","6","","17","","14.5","","99.01","","","","","","NA"
"-71.50","46.90","VALCARTIER A","7018573","2021-04-17 11:00","2021","04","17","11:00","6.2","","-4.5","","46","","","","13","","20","","14.5","","98.98","","","","","","NA"
"-71.50","46.90","VALCARTIER A","7018573","2021-04-17 12:00","2021","04","17","12:00","5.3","","-4.6","","49","","","","12","","20","","14.5","","98.98","","","","","","NA"
"-71.50","46.90","VALCARTIER A","7018573","2021-04-17 13:00","2021","04","17","13:00","7.1","","-3.3","","48","","","","13","","20","","14.5","","98.97","","","","","","NA"
"-71.50","46.90","VALCARTIER A","7018573","2021-04-17 14:00","2021","04","17","14:00","6.7","","-3.7","","47","","","","10","","13","","14.5","","98.97","","","","","","NA"
"-71.50","46.90","VALCARTIER A","7018573","2021-04-17 15:00","2021","04","17","15:00","7.7","","-2.7","","48","","","","13","","22","","14.5","","98.93","","","","","","NA"
"-71.50","46.90","VALCARTIER A","7018573","2021-04-17 16:00","2021","04","17","16:00","7.3","","-2.7","","49","","","","12","","13","","14.5","","98.95","","","","","","NA"
"-71.50","46.90","VALCARTIER A","7018573","2021-04-17 17:00","2021","04","17","17:00","7.0","","-2.7","","50","","","","11","","13","","14.5","","98.94","","","","","","NA"
"-71.50","46.90","VALCARTIER A","7018573","2021-04-17 18:00","2021","04","17","18:00","5.0","","-1.9","","61","","","","13","","6","","14.5","","98.98","","","","","","NA"
"-71.50","46.90","VALCARTIER A","7018573","2021-04-17 19:00","2021","04","17","19:00","4.4","","-1.8","","64","","","","","","0","","14.5","","99.01","","","","","","NA"
"-71.50","46.90","VALCARTIER A","7018573","2021-04-17 20:00","2021","04","17","20:00","4.2","","-1.6","","66","","","","","","0","","14.5","","99.02","","","","","","NA"
"-71.50","46.90","VALCARTIER A","7018573","2021-04-17 21:00","2021","04","17","21:00","3.9","","-1.3","","69","","","","14","","6","","14.5","","99.01","","","","","","Rain"
"-71.50","46.90","VALCARTIER A","7018573","2021-04-17 22:00","2021","04","17","22:00","3.6","","-1.2","","71","","","","12","","4","","14.5","","98.99","","","","","","NA"
"-71.50","46.90","VALCARTIER A","7018573","2021-04-17 23:00","2021","04","17","23:00","3.4","","-1.2","","72","","","","11","","6","","14.5","","98.94","","","","","","NA"
"-71.50","46.90","VALCARTIER A","7018573","2021-04-18 00:00","2021","04","18","00:00","3.1","","-1.3","","73","","","","14","","9","","14.5","","98.92","","","","","","NA"
"-71.50","46.90","VALCARTIER A","7018573","2021-04-18 01:00","2021","04","18","01:00","2.6","","-1.4","","75","","","","14","","7","","14.5","","98.89","","","","","","NA"
"-71.50","46.90","VALCARTIER A","7018573","2021-04-18 02:00","2021","04","18","02:00","2.7","","-1.1","","76","","","","17","","4","","12.9","","98.88","","","","","","NA"
"-71.50","46.90","VALCARTIER A","7018573","2021-04-18 03:00","2021","04","18","03:00","2.8","","-1.3","","74","","","","14","","7","","12.9","","98.90","","","","","","NA"
"-71.50","46.90","VALCARTIER A","7018573","2021-04-18 04:00","2021","04","18","04:00","2.8","","-1.4","","74","","","","14","","7","","12.9","","98.90","","","","","","NA"
"-71.50","46.90","VALCARTIER A","7018573","2021-04-18 05:00","2021","04","18","05:00","2.8","","-1.5","","73","","","","16","","4","","14.5","","98.90","","","","","","NA"
"-71.50","46.90","VALCARTIER A","7018573","2021-04-18 06:00","2021","04","18","06:00","3.0","","-1.5","","72","","","","17","","4","","14.5","","98.93","","","","","","NA"
"-71.50","46.90","VALCARTIER A","7018573","2021-04-18 07:00","2021","04","18","07:00","3.7","","-1.1","","71","","","","","","0","","14.5","","98.94","","","","","","NA"
"-71.50","46.90","VALCARTIER A","7018573","2021-04-18 08:00","2021","04","18","08:00","4.6","","-0.9","","68","","","","","","0","","14.5","","98.93","","","","","","NA"
"-71.50","46.90","VALCARTIER A","7018573","2021-04-18 09:00","2021","04","18","09:00","5.7","","-0.9","","63","","","","","","0","","14.5","","98.93","","","","","","NA"
"-71.50","46.90","VALCARTIER A","7018573","2021-04-18 10:00","2021","04","18","10:00","6.3","","-0.1","","64","","","","15","","7","","14.5","","98.90","","","","","","NA"
"-71.50","46.90","VALCARTIER A","7018573","2021-04-18 11:00","2021","04","18","11:00","6.9","","-0.3","","60","","","","13","","9","","14.5","","98.87","","","","","","NA"
"-71.50","46.90","VALCARTIER A","7018573","2021-04-18 12:00","2021","04","18","12:00","8.3","","0.4","","58","","","","16","","9","","14.5","","98.83","","","","","","Rain"
"-71.50","46.90","VALCARTIER A","7018573","2021-04-18 13:00","2021","04","18","13:00","10.2","","0.3","","50","","","","24","","7","","14.5","","98.79","","","","","","NA"
"-71.50","46.90","VALCARTIER A","7018573","2021-04-18 14:00","2021","04","18","14:00","10.0","","0.7","","52","","","","28","","15","","14.5","","98.73","","","","","","NA"
"-71.50","46.90","VALCARTIER A","7018573","2021-04-18 15:00","2021","04","18","15:00","10.6","","0.7","","50","","","","23","","11","","14.5","","98.70","","","","","","NA"
"-71.50","46.90","VALCARTIER A","7018573","2021-04-18 16:00","2021","04","18","16:00","10.5","","0.9","","51","","","","24","","11","","14.5","","98.71","","","","","","NA"
"-71.50","46.90","VALCARTIER A","7018573","2021-04-18 17:00","2021","04","18","17:00","10.6","","1.5","","53","","","","28","","13","","14.5","","98.72","","","","","","NA"
"-71.50","46.90","VALCARTIER A","7018573","2021-04-18 18:00","2021","04","18","18:00","9.8","","1.6","","57","","","","22","","4","","14.5","","98.72","","","","","","NA"
"-71.50","46.90","VALCARTIER A","7018573","2021-04-18 19:00","2021","04","18","19:00","8.6","","1.3","","60","","","","","","0","","14.5","","98.73","","","","","","NA"
"-71.50","46.90","VALCARTIER A","7018573","2021-04-18 20:00","2021","04","18","20:00","6.9","","0.7","","65","","","","22","","7","","14.5","","98.77","","","","","","NA"
"-71.50","46.90","VALCARTIER A","7018573","2021-04-18 21:00","2021","04","18","21:00","2.6","","-2.1","","71","","","","","","0","","14.5","","98.81","","","","","","NA"
"-71.50","46.90","VALCARTIER A","7018573","2021-04-18 22:00","2021","04","18","22:00","2.3","","-1.5","","76","","","","","","0","","14.5","","98.82","","","","","","NA"
"-71.50","46.90","VALCARTIER A","7018573","2021-04-18 23:00","2021","04","18","23:00","3.4","","-0.3","","77","","","","","","0","","14.5","","98.81","","","","","","NA"
"-71.50","46.90","VALCARTIER A","7018573","2021-04-19 00:00","2021","04","19","00:00","3.8","","0.1","","77","","","","","","0","","14.5","","98.84","","","","","","NA"
"-71.50","46.90","VALCARTIER A","7018573","2021-04-19 01:00","2021","04","19","01:00","3.3","","-0.2","","78","","","","","","0","","14.5","","98.82","","","","","","NA"
"-71.50","46.90","VALCARTIER A","7018573","2021-04-19 02:00","2021","04","19","02:00","1.4","","-1.5","","81","","","","","","0","","14.5","","98.83","","","","","","NA"
"-71.50","46.90","VALCARTIER A","7018573","2021-04-19 03:00","2021","04","19","03:00","-0.1","","-3.2","","80","","","","","","0","","6.4","","98.84","","","","","","NA"
"-71.50","46.90","VALCARTIER A","7018573","2021-04-19 04:00","2021","04","19","04:00","-1.1","","-4.2","","79","","","","","","0","","14.5","","98.85","","","","","","NA"
"-71.50","46.90","VALCARTIER A","7018573","2021-04-19 05:00","2021","04","19","05:00","-2.2","","-5.1","","81","","","","","","0","","11.3","","98.86","","","","","","NA"
"-71.50","46.90","VALCARTIER A","7018573","2021-04-19 06:00","2021","04","19","06:00","1.1","","-2.0","","80","","","","","","0","","12.9","","98.89","","","","","","NA"
"-71.50","46.90","VALCARTIER A","7018573","2021-04-19 07:00","2021","04","19","07:00","5.1","","0.6","","73","","","","","","0","","14.5","","98.92","","","","","","NA"
"-71.50","46.90","VALCARTIER A","7018573","2021-04-19 08:00","2021","04","19","08:00","9.0","","1.8","","61","","","","","","0","","14.5","","98.90","","","","","","NA"
"-71.50","46.90","VALCARTIER A","7018573","2021-04-19 09:00","2021","04","19","09:00","11.2","","2.2","","54","","","","19","","6","","14.5","","98.86","","","","","","NA"
"-71.50","46.90","VALCARTIER A","7018573","2021-04-19 10:00","2021","04","19","10:00","13.0","","2.7","","50","","","","20","","9","","14.5","","98.82","","","","","","NA"
"-71.50","46.90","VALCARTIER A","7018573","2021-04-19 11:00","2021","04","19","11:00","14.8","","2.7","","44","","","","27","","17","","14.5","","98.72","","","","","","NA"
"-71.50","46.90","VALCARTIER A","7018573","2021-04-19 12:00","2021","04","19","12:00","13.5","","1.3","","43","","","","33","","17","","14.5","","98.70","","","","","","NA"
"-71.50","46.90","VALCARTIER A","7018573","2021-04-19 13:00","2021","04","19","13:00","10.7","","2.0","","55","","","","30","","22","","8.0","","98.72","","","","","","Rain"
"-71.50","46.90","VALCARTIER A","7018573","2021-04-19 14:00","2021","04","19","14:00"
"-71.50","46.90","VALCARTIER A","7018573","2021-04-19 15:00","2021","04","19","15:00","12.4","","1.6","","48","","","","21","","11","","14.5","","98.62","","","","","","NA"
"-71.50","46.90","VALCARTIER A","7018573","2021-04-19 16:00","2021","04","19","16:00","14.0","","0.8","","41","","","","33","","4","","14.5","","98.65","","","","","","NA"
"-71.50","46.90","VALCARTIER A","7018573","2021-04-19 17:00","2021","04","19","17:00","12.7","","2.3","","49","","","","32","","6","","14.5","","98.68","","","","","","NA"
"-71.50","46.90","VALCARTIER A","7018573","2021-04-19 18:00","2021","04","19","18:00","11.9","","1.8","","50","","","","23","","9","","14.5","","98.70","","","","","","NA"
"-71.50","46.90","VALCARTIER A","7018573","2021-04-19 19:00","2021","04","19","19:00","10.2","","2.0","","57","","","","23","","7","","14.5","","98.74","","","","","","NA"
"-71.50","46.90","VALCARTIER A","7018573","2021-04-19 20:00","2021","04","19","20:00","9.0","","2.2","","62","","","","","","0","","14.5","","98.79","","","","","","NA"
"-71.50","46.90","VALCARTIER A","7018573","2021-04-19 21:00","2021","04","19","21:00","6.3","","1.0","","69","","","","","","0","","14.5","","98.83","","","","","","NA"
"-71.50","46.90","VALCARTIER A","7018573","2021-04-19 22:00","2021","04","19","22:00","5.3","","1.1","","74","","","","","","0","","14.5","","98.82","","","","","","NA"
"-71.50","46.90","VALCARTIER A","7018573","2021-04-19 23:00","2021","04","19","23:00","4.9","","0.9","","75","","","","","","0","","14.5","","98.80","","","","","","NA"
"-71.50","46.90","VALCARTIER A","7018573","2021-04-20 00:00","2021","04","20","00:00","4.6","","0.7","","76","","","","36","","4","","14.5","","98.78","","","","","","NA"
"-71.50","46.90","VALCARTIER A","7018573","2021-04-20 01:00","2021","04","20","01:00","4.7","","0.9","","76","","","","33","","4","","14.5","","98.76","","","","","","NA"
"-71.50","46.90","VALCARTIER A","7018573","2021-04-20 02:00","2021","04","20","02:00","3.6","","0.1","","78","","","","34","","4","","14.5","","98.75","","","","","","NA"
"-71.50","46.90","VALCARTIER A","7018573","2021-04-20 03:00","2021","04","20","03:00","1.3","","-1.9","","79","","","","","","0","","5.6","","98.74","","","","","","NA"
"-71.50","46.90","VALCARTIER A","7018573","2021-04-20 04:00","2021","04","20","04:00","0.4","","-2.8","","79","","","","","","0","","14.5","","98.68","","","","","","NA"
"-71.50","46.90","VALCARTIER A","7018573","2021-04-20 05:00","2021","04","20","05:00","-0.1","","-3.3","","79","","","","","","0","","14.5","","98.68","","","","","","NA"
"-71.50","46.90","VALCARTIER A","7018573","2021-04-20 06:00","2021","04","20","06:00","2.7","","-0.8","","78","","","","","","0","","14.5","","98.67","","","","","","NA"
"-71.50","46.90","VALCARTIER A","7018573","2021-04-20 07:00","2021","04","20","07:00","4.5","","0.5","","75","","","","","","0","","14.5","","98.67","","","","","","NA"
"-71.50","46.90","VALCARTIER A","7018573","2021-04-20 08:00","2021","04","20","08:00","5.0","","1.4","","78","","","","3","","6","","9.7","","98.61","","","","","","Rain"
"-71.50","46.90","VALCARTIER A","7018573","2021-04-20 09:00","2021","04","20","09:00","5.7","","2.6","","80","","","","1","","4","","5.6","","98.59","","","","","","Rain"
"-71.50","46.90","VALCARTIER A","7018573","2021-04-20 10:00","2021","04","20","10:00","6.9","","3.7","","80","","","","17","","6","","4.8","","98.57","","","","","","Rain"
"-71.50","46.90","VALCARTIER A","7018573","2021-04-20 11:00","2021","04","20","11:00","7.0","","3.8","","80","","","","23","","13","","4.0","","98.57","","","","","","Rain"
"-71.50","46.90","VALCARTIER A","7018573","2021-04-20 12:00","2021","04","20","12:00"
"-71.50","46.90","VALCARTIER A","7018573","2021-04-20 13:00","2021","04","20","13:00","8.3","","3.1","","70","","","","23","","26","","14.5","","98.65","","","","","","NA"
"-71.50","46.90","VALCARTIER A","7018573","2021-04-20 14:00","2021","04","20","14:00","8.3","","-0.9","","52","","","","22","","28","","14.5","","98.66","","","","","","NA"
"-71.50","46.90","VALCARTIER A","7018573","2021-04-20 15:00","2021","04","20","15:00","8.9","","-2.4","","45","","","","22","","24","","14.5","","98.71","","","","","","NA"
"-71.50","46.90","VALCARTIER A","7018573","2021-04-20 16:00","2021","04","20","16:00","8.2","","-3.4","","44","","","","25","","28","","14.5","","98.78","","","","","","NA"
"-71.50","46.90","VALCARTIER A","7018573","2021-04-20 17:00","2021","04","20","17:00","7.2","","-3.4","","47","","","","28","","17","","14.5","","98.84","","","","","","NA"
"-71.50","46.90","VALCARTIER A","7018573","2021-04-20 18:00","2021","04","20","18:00","6.1","","-4.1","","48","","","","27","","15","","14.5","","98.89","","","","","","NA"
"-71.50","46.90","VALCARTIER A","7018573","2021-04-20 19:00","2021","04","20","19:00","5.5","","-3.7","","52","","","","25","","6","","14.5","","98.95","","","","","","Rain"
"-71.50","46.90","VALCARTIER A","7018573","2021-04-20 20:00","2021","04","20","20:00","4.9","","-3.3","","55","","","","","","0","","14.5","","98.99","","","","","","NA"
"-71.50","46.90","VALCARTIER A","7018573","2021-04-20 21:00","2021","04","20","21:00","4.4","","-2.6","","60","","","","22","","7","","14.5","","99.03","","","","","","Rain"
"-71.50","46.90","VALCARTIER A","7018573","2021-04-20 22:00","2021","04","20","22:00","4.7","","-3.4","","56","","","","24","","13","","14.5","","99.02","","","","","","NA"
"-71.50","46.90","VALCARTIER A","7018573","2021-04-20 23:00","2021","04","20","23:00","3.9","","-4.7","","53","","","","24","","11","","14.5","","99.05","","","","","","NA"
"-71.50","46.90","VALCARTIER A","7018573","2021-04-21 00:00","2021","04","21","00:00","2.7","","-5.4","","55","","","","23","","9","","14.5","","99.06","","","","","","NA"
"-71.50","46.90","VALCARTIER A","7018573","2021-04-21 01:00","2021","04","21","01:00","0.9","","-5.8","","61","","","","23","","6","","14.5","","99.01","","","","","","NA"
"-71.50","46.90","VALCARTIER A","7018573","2021-04-21 02:00","2021","04","21","02:00","-0.6","","-6.2","","66","","","","21","","7","","14.5","","99.04","","","","-3","","NA"
"-71.50","46.90","VALCARTIER A","7018573","2021-04-21 03:00","2021","04","21","03:00","-0.8","","-6.0","","68","","","","22","","9","","14.5","","99.06","","","","-4","","NA"
"-71.50","46.90","VALCARTIER A","7018573","2021-04-21 04:00","2021","04","21","04:00","0.0","","-5.1","","69","","","","","","0","","14.5","","99.04","","","","","","NA"
"-71.50","46.90","VALCARTIER A","7018573","2021-04-21 05:00","2021","04","21","05:00","0.3","","-5.6","","65","","","","28","","7","","14.5","","99.03","","","","","","NA"
"-71.50","46.90","VALCARTIER A","7018573","2021-04-21 06:00","2021","04","21","06:00","0.5","","-7.1","","57","","","","25","","7","","14.5","","99.03","","","","","","NA"
"-71.50","46.90","VALCARTIER A","7018573","2021-04-21 07:00","2021","04","21","07:00","0.8","","-7.3","","55","","","","23","","11","","14.5","","99.04","","","","","","NA"
"-71.50","46.90","VALCARTIER A","7018573","2021-04-21 08:00","2021","04","21","08:00","1.0","","-7.3","","54","","","","27","","7","","14.5","","99.00","","","","","","NA"
"-71.50","46.90","VALCARTIER A","7018573","2021-04-21 09:00","2021","04","21","09:00","2.0","","-7.1","","51","","","","26","","6","","14.5","","98.96","","","","","","NA"
"-71.50","46.90","VALCARTIER A","7018573","2021-04-21 10:00","2021","04","21","10:00","2.0","","-7.1","","51","","","","20","","6","","14.5","","98.92","","","","","","NA"
"-71.50","46.90","VALCARTIER A","7018573","2021-04-21 11:00","2021","04","21","11:00","1.0","","-5.9","","60","","","","18","","4","","9.7","","98.84","","","","","","Snow"
"-71.50","46.90","VALCARTIER A","7018573","2021-04-21 12:00","2021","04","21","12:00","0.4","","-3.8","","73","","","","","","0","","2.3","","98.72","","","","","","Snow"
"-71.50","46.90","VALCARTIER A","7018573","2021-04-21 13:00","2021","04","21","13:00","0.9","","-3.5","","72","","","","26","","6","","2.3","","98.61","","","","","","Snow"
"-71.50","46.90","VALCARTIER A","7018573","2021-04-21 14:00","2021","04","21","14:00","0.1","","-3.5","","77","","","","25","","7","","1.0","","98.60","","","","","","Snow"
"-71.50","46.90","VALCARTIER A","7018573","2021-04-21 15:00","2021","04","21","15:00","-0.2","","-3.4","","79","","","","26","","7","","1.0","","98.50","","","","-3","","Snow"
"-71.50","46.90","VALCARTIER A","7018573","2021-04-21 16:00","2021","04","21","16:00"
"-71.50","46.90","VALCARTIER A","7018573","2021-04-21 17:00","2021","04","21","17:00","-0.1","","-3.3","","79","","","","29","","13","","4.0","","98.44","","","","-4","","Snow"
"-71.50","46.90","VALCARTIER A","7018573","2021-04-21 18:00","2021","04","21","18:00","-0.1","","-3.7","","77","","","","28","","7","","3.7","","98.39","","","","-3","","Snow"
"-71.50","46.90","VALCARTIER A","7018573","2021-04-21 19:00","2021","04","21","19:00","-0.5","","-4.1","","77","","","","28","","13","","4.8","","98.37","","","","-5","","Snow"
"-71.50","46.90","VALCARTIER A","7018573","2021-04-21 20:00","2021","04","21","20:00","-0.7","","-4.3","","77","","","","28","","6","","3.2","","98.38","","","","-3","","Snow"
"-71.50","46.90","VALCARTIER A","7018573","2021-04-21 21:00","2021","04","21","21:00","-1.5","","-5.6","","74","","","","35","","13","","4.0","","98.35","","","","-6","","Snow"
"-71.50","46.90","VALCARTIER A","7018573","2021-04-21 22:00","2021","04","21","22:00","-2.2","","-7.1","","69","","","","35","","15","","6.4","","98.24","","","","-7","","Snow"
"-71.50","46.90","VALCARTIER A","7018573","2021-04-21 23:00","2021","04","21","23:00"
"-71.50","46.90","VALCARTIER A","7018573","2021-04-22 00:00","2021","04","22","00:00","-3.1","","-7.1","","74","","","","36","","11","","1.6","","98.18","","","","-7","","Snow"
"-71.50","46.90","VALCARTIER A","7018573","2021-04-22 01:00","2021","04","22","01:00","-3.3","","-7.5","","73","","","","1","","11","","2.1","","98.08","","","","-8","","Snow"
"-71.50","46.90","VALCARTIER A","7018573","2021-04-22 02:00","2021","04","22","02:00","-3.4","","-7.6","","73","","","","32","","4","","6.4","","97.97","","","","-5","","Snow"
"-71.50","46.90","VALCARTIER A","7018573","2021-04-22 03:00","2021","04","22","03:00","-3.3","","-8.2","","69","","","","30","","6","","8.0","","97.90","","","","-6","","Snow"
"-71.50","46.90","VALCARTIER A","7018573","2021-04-22 04:00","2021","04","22","04:00","-3.5","","-8.5","","68","","","","32","","7","","14.5","","97.83","","","","-6","","NA"
"-71.50","46.90","VALCARTIER A","7018573","2021-04-22 05:00","2021","04","22","05:00","-3.4","","-8.9","","66","","","","30","","9","","14.5","","97.79","","","","-7","","NA"
"-71.50","46.90","VALCARTIER A","7018573","2021-04-22 06:00","2021","04","22","06:00","-3.3","","-8.7","","66","","","","30","","11","","14.5","","97.78","","","","-8","","Snow"
"-71.50","46.90","VALCARTIER A","7018573","2021-04-22 07:00","2021","04","22","07:00","-3.1","","-8.4","","67","","","","29","","9","","11.3","","97.76","","","","-7","","Snow"
"-71.50","46.90","VALCARTIER A","7018573","2021-04-22 08:00","2021","04","22","08:00","-2.6","","-7.9","","67","","","","29","","13","","14.5","","97.70","","","","-7","","Snow"
"-71.50","46.90","VALCARTIER A","7018573","2021-04-22 09:00","2021","04","22","09:00","-2.6","","-7.3","","70","","","","30","","19","","2.3","","97.69","","","","-8","","Snow"
"-71.50","46.90","VALCARTIER A","7018573","2021-04-22 10:00","2021","04","22","10:00","-2.1","","-7.9","","65","","","","30","","24","","4.0","","97.68","","","","-8","","Snow"
"-71.50","46.90","VALCARTIER A","7018573","2021-04-22 11:00","2021","04","22","11:00","-1.5","","-7.6","","63","","","","28","","22","","6.4","","97.64","","","","-7","","Snow"
"-71.50","46.90","VALCARTIER A","7018573","2021-04-22 12:00","2021","04","22","12:00","-1.5","","-7.0","","66","","","","29","","24","","4.0","","97.61","","","","-8","","Snow"
"-71.50","46.90","VALCARTIER A","7018573","2021-04-22 13:00","2021","04","22","13:00","-1.5","","-7.0","","66","","","","29","","24","","3.1","","97.62","","","","-8","","Snow"
"-71.50","46.90","VALCARTIER A","7018573","2021-04-22 14:00","2021","04","22","14:00","-0.6","","-7.0","","62","","","","28","","26","","8.0","","97.63","","","","-7","","Snow"
"-71.50","46.90","VALCARTIER A","7018573","2021-04-22 15:00","2021","04","22","15:00","-0.8","","-7.5","","60","","","","28","","19","","4.8","","97.68","","","","-6","","Snow"
"-71.50","46.90","VALCARTIER A","7018573","2021-04-22 16:00","2021","04","22","16:00","-1.3","","-7.6","","62","","","","27","","26","","4.0","","97.70","","","","-8","","Snow"
"-71.50","46.90","VALCARTIER A","7018573","2021-04-22 17:00","2021","04","22","17:00","-1.6","","-7.8","","63","","","","28","","17","","6.4","","97.78","","","","-7","","Snow"
"-71.50","46.90","VALCARTIER A","7018573","2021-04-22 18:00","2021","04","22","18:00","-2.0","","-7.5","","66","","","","27","","19","","4.8","","97.82","","","","-8","","Snow"
"-71.50","46.90","VALCARTIER A","7018573","2021-04-22 19:00","2021","04","22","19:00","-1.4","","-9.0","","56","","","","28","","19","","14.5","","97.83","","","","-7","","NA"
"-71.50","46.90","VALCARTIER A","7018573","2021-04-22 20:00","2021","04","22","20:00","-0.8","","-9.7","","51","","","","28","","17","","14.5","","97.86","","","","-6","","NA"
"-71.50","46.90","VALCARTIER A","7018573","2021-04-22 21:00","2021","04","22","21:00","-0.7","","-9.4","","52","","","","27","","17","","14.5","","97.78","","","","-6","","NA"
"-71.50","46.90","VALCARTIER A","7018573","2021-04-22 22:00","2021","04","22","22:00","-0.4","","-9.1","","52","","","","27","","20","","14.5","","97.72","","","","-6","","NA"
"-71.50","46.90","VALCARTIER A","7018573","2021-04-22 23:00","2021","04","22","23:00","0.2","","-9.1","","50","","","","27","","19","","14.5","","97.69","","","","","","NA"
"-71.50","46.90","VALCARTIER A","7018573","2021-04-23 00:00","2021","04","23","00:00","0.6","","-9.7","","46","","","","28","","13","","14.5","","97.72","","","","","","NA"
"-71.50","46.90","VALCARTIER A","7018573","2021-04-23 01:00","2021","04","23","01:00","0.9","","-10.0","","44","","","","27","","20","","14.5","","97.72","","","","","","Snow"
"-71.50","46.90","VALCARTIER A","7018573","2021-04-23 02:00","2021","04","23","02:00","0.8","","-9.6","","46","","","","27","","19","","14.5","","97.72","","","","","","NA"
"-71.50","46.90","VALCARTIER A","7018573","2021-04-23 03:00","2021","04","23","03:00","0.6","","-9.3","","47","","","","29","","22","","14.5","","97.76","","","","","","NA"
"-71.50","46.90","VALCARTIER A","7018573","2021-04-23 04:00","2021","04","23","04:00","0.6","","-8.9","","49","","","","28","","24","","14.5","","97.79","","","","","","NA"
"-71.50","46.90","VALCARTIER A","7018573","2021-04-23 05:00","2021","04","23","05:00","0.2","","-8.5","","52","","","","29","","17","","14.5","","97.84","","","","","","NA"
"-71.50","46.90","VALCARTIER A","7018573","2021-04-23 06:00","2021","04","23","06:00","0.3","","-8.4","","52","","","","28","","17","","14.5","","97.90","","","","","","NA"
"-71.50","46.90","VALCARTIER A","7018573","2021-04-23 07:00","2021","04","23","07:00","0.6","","-8.1","","52","","","","28","","22","","14.5","","97.97","","","","","","NA"
"-71.50","46.90","VALCARTIER A","7018573","2021-04-23 08:00","2021","04","23","08:00","2.0","","-7.4","","50","","","","25","","22","","14.5","","97.99","","","","","","NA"
"-71.50","46.90","VALCARTIER A","7018573","2021-04-23 09:00","2021","04","23","09:00","3.7","","-6.8","","46","","","","27","","22","","14.5","","98.01","","","","","","NA"
"-71.50","46.90","VALCARTIER A","7018573","2021-04-23 10:00","2021","04","23","10:00","5.0","","-5.9","","45","","","","27","","17","","14.5","","98.01","","","","","","NA"
"-71.50","46.90","VALCARTIER A","7018573","2021-04-23 11:00","2021","04","23","11:00","7.2","","-5.6","","40","","","","28","","30","","14.5","","97.98","","","","","","NA"
"-71.50","46.90","VALCARTIER A","7018573","2021-04-23 12:00","2021","04","23","12:00","8.8","","-4.9","","38","","","","30","","31","","14.5","","97.97","","","","","","NA"
"-71.50","46.90","VALCARTIER A","7018573","2021-04-23 13:00","2021","04","23","13:00","10.4","","-5.3","","33","","","","29","","28","","14.5","","97.97","","","","","","NA"
"-71.50","46.90","VALCARTIER A","7018573","2021-04-23 14:00","2021","04","23","14:00","11.5","","-7.0","","27","","","","30","","33","","14.5","","97.98","","","","","","NA"
"-71.50","46.90","VALCARTIER A","7018573","2021-04-23 15:00","2021","04","23","15:00","12.3","","-7.3","","25","","","","30","","26","","14.5","","97.97","","","","","","NA"
"-71.50","46.90","VALCARTIER A","7018573","2021-04-23 16:00","2021","04","23","16:00","12.4","","-7.9","","24","","","","29","","33","","14.5","","97.99","","","","","","NA"
"-71.50","46.90","VALCARTIER A","7018573","2021-04-23 17:00","2021","04","23","17:00","12.7","","-7.4","","24","","","","29","","24","","14.5","","98.01","","","","","","NA"
"-71.50","46.90","VALCARTIER A","7018573","2021-04-23 18:00","2021","04","23","18:00","12.3","","-6.5","","26","","","","29","","20","","14.5","","98.03","","","","","","NA"
"-71.50","46.90","VALCARTIER A","7018573","2021-04-23 19:00","2021","04","23","19:00","11.2","","-6.0","","29","","","","27","","9","","14.5","","98.10","","","","","","NA"
"-71.50","46.90","VALCARTIER A","7018573","2021-04-23 20:00","2021","04","23","20:00","10.3","","-5.8","","32","","","","24","","7","","14.5","","98.16","","","","","","NA"
"-71.50","46.90","VALCARTIER A","7018573","2021-04-23 21:00","2021","04","23","21:00","9.4","","-5.2","","35","","","","23","","9","","14.5","","98.16","","","","","","NA"
"-71.50","46.90","VALCARTIER A","7018573","2021-04-23 22:00","2021","04","23","22:00","6.9","","-4.3","","45","","","","","","0","","14.5","","98.15","","","","","","NA"
"-71.50","46.90","VALCARTIER A","7018573","2021-04-23 23:00","2021","04","23","23:00","8.9","","-4.1","","40","","","","25","","13","","14.5","","98.17","","","","","","NA"
"-71.50","46.90","VALCARTIER A","7018573","2021-04-24 00:00","2021","04","24","00:00","7.2","","-4.3","","44","","","","27","","6","","14.5","","98.16","","","","","","NA"
"-71.50","46.90","VALCARTIER A","7018573","2021-04-24 01:00","2021","04","24","01:00","5.4","","-4.6","","49","","","","25","","9","","14.5","","98.15","","","","","","NA"
"-71.50","46.90","VALCARTIER A","7018573","2021-04-24 02:00","2021","04","24","02:00","4.8","","-4.6","","51","","","","26","","6","","14.5","","98.19","","","","","","NA"
"-71.50","46.90","VALCARTIER A","7018573","2021-04-24 03:00","2021","04","24","03:00","3.1","","-4.9","","56","","","","26","","7","","14.5","","98.28","","","","","","NA"
"-71.50","46.90","VALCARTIER A","7018573","2021-04-24 04:00","2021","04","24","04:00","0.9","","-5.3","","63","","","","27","","6","","14.5","","98.36","","","","","","NA"
"-71.50","46.90","VALCARTIER A","7018573","2021-04-24 05:00","2021","04","24","05:00","2.7","","-5.3","","56","","","","27","","6","","14.5","","98.47","","","","","","NA"
"-71.50","46.90","VALCARTIER A","7018573","2021-04-24 06:00","2021","04","24","06:00","5.9","","-4.4","","48","","","","29","","9","","14.5","","98.61","","","","","","NA"
"-71.50","46.90","VALCARTIER A","7018573","2021-04-24 07:00","2021","04","24","07:00","8.2","","-5.0","","39","","","","31","","24","","14.5","","98.67","","","","","","NA"
"-71.50","46.90","VALCARTIER A","7018573","2021-04-24 08:00","2021","04","24","08:00","9.8","","-6.2","","32","","","","32","","20","","14.5","","98.70","","","","","","NA"
"-71.50","46.90","VALCARTIER A","7018573","2021-04-24 09:00","2021","04","24","09:00","12.0","","-6.8","","26","","","","28","","19","","14.5","","98.75","","","","","","NA"
"-71.50","46.90","VALCARTIER A","7018573","2021-04-24 10:00","2021","04","24","10:00","13.5","","-5.7","","26","","","","26","","15","","14.5","","98.76","","","","","","NA"
"-71.50","46.90","VALCARTIER A","7018573","2021-04-24 11:00","2021","04","24","11:00","15.1","","-5.1","","24","","","","28","","20","","14.5","","98.75","","","","","","NA"
"-71.50","46.90","VALCARTIER A","7018573","2021-04-24 12:00","2021","04","24","12:00","16.3","","-4.6","","24","","","","28","","13","","14.5","","98.71","","","","","","NA"
"-71.50","46.90","VALCARTIER A","7018573","2021-04-24 13:00","2021","04","24","13:00","17.3","","-4.4","","22","","","","25","","26","","14.5","","98.68","","","","","","NA"
"-71.50","46.90","VALCARTIER A","7018573","2021-04-24 14:00","2021","04","24","14:00","17.7","","-4.0","","23","","","","29","","26","","14.5","","98.65","","","","","","NA"
"-71.50","46.90","VALCARTIER A","7018573","2021-04-24 15:00","2021","04","24","15:00","18.4","","-3.9","","22","","","","29","","17","","14.5","","98.63","","","","","","NA"
"-71.50","46.90","VALCARTIER A","7018573","2021-04-24 16:00","2021","04","24","16:00","16.3","","-0.9","","31","","","","23","","17","","14.5","","98.67","","","","","","NA"
"-71.50","46.90","VALCARTIER A","7018573","2021-04-24 17:00","2021","04","24","17:00","15.9","","-0.9","","32","","","","22","","17","","14.5","","98.71","","","","","","Rain"
"-71.50","46.90","VALCARTIER A","7018573","2021-04-24 18:00","2021","04","24","18:00","15.6","","-1.0","","32","","","","23","","9","","14.5","","98.70","","","","","","NA"
"-71.50","46.90","VALCARTIER A","7018573","2021-04-24 19:00","2021","04","24","19:00","13.9","","-0.5","","37","","","","21","","6","","14.5","","98.76","","","","","","NA"
"-71.50","46.90","VALCARTIER A","7018573","2021-04-24 20:00","2021","04","24","20:00","13.3","","0.4","","41","","","","27","","11","","14.5","","98.83","","","","","","NA"
"-71.50","46.90","VALCARTIER A","7018573","2021-04-24 21:00","2021","04","24","21:00","10.5","","2.0","","56","","","","","","0","","14.5","","98.86","","","","","","NA"
"-71.50","46.90","VALCARTIER A","7018573","2021-04-24 22:00","2021","04","24","22:00","9.6","","1.0","","55","","","","","","0","","14.5","","98.85","","","","","","NA"
"-71.50","46.90","VALCARTIER A","7018573","2021-04-24 23:00","2021","04","24","23:00","7.2","","0.7","","63","","","","","","0","","14.5","","98.85","","","","","","NA"
"-71.50","46.90","VALCARTIER A","7018573","2021-04-25 00:00","2021","04","25","00:00","5.7","","0.1","","67","","","","","","0","","14.5","","98.84","","","","","","NA"
"-71.50","46.90","VALCARTIER A","7018573","2021-04-25 01:00","2021","04","25","01:00","3.4","","-1.0","","73","","","","","","0","","14.5","","98.82","","","","","","NA"
"-71.50","46.90","VALCARTIER A","7018573","2021-04-25 02:00","2021","04","25","02:00","3.1","","-1.6","","71","","","","2","","4","","14.5","","98.81","","","","","","NA"
"-71.50","46.90","VALCARTIER A","7018573","2021-04-25 03:00","2021","04","25","03:00","4.8","","-0.9","","67","","","","4","","4","","14.5","","98.80","","","","","","NA"
"-71.50","46.90","VALCARTIER A","7018573","2021-04-25 04:00","2021","04","25","04:00","6.4","","-1.5","","57","","","","5","","7","","14.5","","98.78","","","","","","NA"
"-71.50","46.90","VALCARTIER A","7018573","2021-04-25 05:00","2021","04","25","05:00","5.4","","-1.5","","61","","","","1","","6","","14.5","","98.80","","","","","","NA"
"-71.50","46.90","VALCARTIER A","7018573","2021-04-25 06:00","2021","04","25","06:00","5.9","","-1.3","","60","","","","","","0","","14.5","","98.81","","","","","","NA"
"-71.50","46.90","VALCARTIER A","7018573","2021-04-25 07:00","2021","04","25","07:00","8.6","","-0.1","","54","","","","11","","7","","14.5","","98.81","","","","","","NA"
"-71.50","46.90","VALCARTIER A","7018573","2021-04-25 08:00","2021","04","25","08:00","11.2","","-0.6","","44","","","","13","","11","","14.5","","98.79","","","","","","NA"
"-71.50","46.90","VALCARTIER A","7018573","2021-04-25 09:00","2021","04","25","09:00","12.4","","0.0","","43","","","","9","","13","","14.5","","98.74","","","","","","NA"
"-71.50","46.90","VALCARTIER A","7018573","2021-04-25 10:00","2021","04","25","10:00","12.2","","0.0","","43","","","","13","","13","","14.5","","98.71","","","","","","NA"
"-71.50","46.90","VALCARTIER A","7018573","2021-04-25 11:00","2021","04","25","11:00","13.5","","1.1","","43","","","","15","","9","","14.5","","98.64","","","","","","NA"
"-71.50","46.90","VALCARTIER A","7018573","2021-04-25 12:00","2021","04","25","12:00","13.7","","0.9","","42","","","","11","","15","","14.5","","98.57","","","","","","NA"
"-71.50","46.90","VALCARTIER A","7018573","2021-04-25 13:00","2021","04","25","13:00","14.4","","1.8","","42","","","","14","","11","","14.5","","98.50","","","","","","NA"
"-71.50","46.90","VALCARTIER A","7018573","2021-04-25 14:00","2021","04","25","14:00","14.0","","2.3","","45","","","","13","","11","","14.5","","98.43","","","","","","NA"
"-71.50","46.90","VALCARTIER A","7018573","2021-04-25 15:00","2021","04","25","15:00","13.2","","2.1","","47","","","","14","","13","","14.5","","98.42","","","","","","Rain"
"-71.50","46.90","VALCARTIER A","7018573","2021-04-25 16:00","2021","04","25","16:00","11.3","","1.1","","49","","","","14","","17","","14.5","","98.44","","","","","","NA"
"-71.50","46.90","VALCARTIER A","7018573","2021-04-25 17:00","2021","04","25","17:00","8.1","","2.3","","67","","","","13","","11","","9.7","","98.47","","","","","","Rain"
"-71.50","46.90","VALCARTIER A","7018573","2021-04-25 18:00","2021","04","25","18:00","7.3","","3.4","","76","","","","12","","4","","5.6","","98.45","","","","","","Rain"
"-71.50","46.90","VALCARTIER A","7018573","2021-04-25 19:00","2021","04","25","19:00","7.2","","3.8","","79","","","","","","0","","5.6","","98.42","","","","","","Rain"
"-71.50","46.90","VALCARTIER A","7018573","2021-04-25 20:00","2021","04","25","20:00"
"-71.50","46.90","VALCARTIER A","7018573","2021-04-25 21:00","2021","04","25","21:00","6.6","","3.5","","81","","","","12","","7","","4.0","","98.40","","","","","","Heavy Rain"
"-71.50","46.90","VALCARTIER A","7018573","2021-04-25 22:00","2021","04","25","22:00","6.2","","3.2","","81","","","","","","0","","3.7","","98.37","","","","","","Rain"
"-71.50","46.90","VALCARTIER A","7018573","2021-04-25 23:00","2021","04","25","23:00","6.3","","3.4","","82","","","","","","0","","5.6","","98.37","","","","","","NA"
"-71.50","46.90","VALCARTIER A","7018573","2021-04-26 00:00","2021","04","26","00:00","6.3","","3.6","","83","","","","19","","4","","1.6","","98.36","","","","","","Moderate Rain"
"-71.50","46.90","VALCARTIER A","7018573","2021-04-26 01:00","2021","04","26","01:00","4.8","","1.6","","80","","","","26","","9","","3.5","","98.40","","","","","","Moderate Rain"
"-71.50","46.90","VALCARTIER A","7018573","2021-04-26 02:00","2021","04","26","02:00","2.9","","-0.9","","76","","","","28","","13","","14.5","","98.47","","","","","","Rain"
"-71.50","46.90","VALCARTIER A","7018573","2021-04-26 03:00","2021","04","26","03:00","0.9","","-2.7","","77","","","","27","","13","","5.6","","98.57","","","","","","Snow"
"-71.50","46.90","VALCARTIER A","7018573","2021-04-26 04:00","2021","04","26","04:00","0.4","","-3.2","","77","","","","31","","6","","3.4","","98.68","","","","","","Moderate Freezing Drizzle"
"-71.50","46.90","VALCARTIER A","7018573","2021-04-26 05:00","2021","04","26","05:00","-0.5","","-4.2","","76","","","","26","","13","","2.3","","98.79","","","","-5","","Snow"
"-71.50","46.90","VALCARTIER A","7018573","2021-04-26 06:00","2021","04","26","06:00","-1.3","","-4.9","","77","","","","27","","17","","0.6","","98.89","","","","-6","","Snow"
"-71.50","46.90","VALCARTIER A","7018573","2021-04-26 07:00","2021","04","26","07:00","-1.5","","-5.3","","75","","","","28","","15","","2.3","","98.95","","","","-6","","Snow"
"-71.50","46.90","VALCARTIER A","7018573","2021-04-26 08:00","2021","04","26","08:00","-1.2","","-5.4","","73","","","","29","","15","","2.3","","98.97","","","","-6","","Snow"
"-71.50","46.90","VALCARTIER A","7018573","2021-04-26 09:00","2021","04","26","09:00","-0.7","","-5.2","","72","","","","28","","9","","6.4","","99.00","","","","-4","","Snow"
"-71.50","46.90","VALCARTIER A","7018573","2021-04-26 10:00","2021","04","26","10:00","0.1","","-4.5","","71","","","","30","","20","","14.5","","99.02","","","","","","NA"
"-71.50","46.90","VALCARTIER A","7018573","2021-04-26 11:00","2021","04","26","11:00","0.9","","-4.2","","69","","","","31","","30","","14.5","","99.05","","","","","","Snow"
"-71.50","46.90","VALCARTIER A","7018573","2021-04-26 12:00","2021","04","26","12:00","1.8","","-3.6","","67","","","","30","","20","","14.5","","99.07","","","","","","NA"
"-71.50","46.90","VALCARTIER A","7018573","2021-04-26 13:00","2021","04","26","13:00","1.6","","-3.7","","68","","","","30","","22","","14.5","","99.13","","","","","","Snow"
"-71.50","46.90","VALCARTIER A","7018573","2021-04-26 14:00","2021","04","26","14:00","2.3","","-3.8","","64","","","","32","","22","","14.5","","99.15","","","","","","Snow"
"-71.50","46.90","VALCARTIER A","7018573","2021-04-26 15:00","2021","04","26","15:00","2.0","","-3.9","","65","","","","30","","15","","14.5","","99.19","","","","","","NA"
"-71.50","46.90","VALCARTIER A","7018573","2021-04-26 16:00","2021","04","26","16:00","1.4","","-4.7","","64","","","","29","","22","","14.5","","99.25","","","","","","Snow"
"-71.50","46.90","VALCARTIER A","7018573","2021-04-26 17:00","2021","04","26","17:00","1.6","","-4.8","","62","","","","31","","26","","14.5","","99.29","","","","","","NA"
"-71.50","46.90","VALCARTIER A","7018573","2021-04-26 18:00","2021","04","26","18:00","1.4","","-4.9","","63","","","","31","","13","","14.5","","99.33","","","","","","NA"
"-71.50","46.90","VALCARTIER A","7018573","2021-04-26 19:00","2021","04","26","19:00","1.3","","-4.9","","63","","","","32","","11","","14.5","","99.33","","","","","","Snow"
"-71.50","46.90","VALCARTIER A","7018573","2021-04-26 20:00","2021","04","26","20:00","1.5","","-4.8","","63","","","","30","","15","","14.5","","99.42","","","","","","NA"
"-71.50","46.90","VALCARTIER A","7018573","2021-04-26 21:00","2021","04","26","21:00","1.1","","-4.8","","65","","","","30","","6","","14.5","","99.31","","","","","","NA"
"-71.50","46.90","VALCARTIER A","7018573","2021-04-26 22:00","2021","04","26","22:00","1.4","","-5.1","","62","","","","28","","19","","14.5","","99.23","","","","","","NA"
"-71.50","46.90","VALCARTIER A","7018573","2021-04-26 23:00","2021","04","26","23:00","1.4","","-4.8","","63","","","","28","","13","","14.5","","99.26","","","","","","NA"
"-71.50","46.90","VALCARTIER A","7018573","2021-04-27 00:00","2021","04","27","00:00","1.4","","-4.3","","66","","","","25","","9","","14.5","","99.26","","","","","","NA"
"-71.50","46.90","VALCARTIER A","7018573","2021-04-27 01:00","2021","04","27","01:00","2.0","","-3.7","","66","","","","28","","13","","14.5","","99.25","","","","","","NA"
"-71.50","46.90","VALCARTIER A","7018573","2021-04-27 02:00","2021","04","27","02:00","2.1","","-3.7","","65","","","","28","","13","","14.5","","99.26","","","","","","NA"
"-71.50","46.90","VALCARTIER A","7018573","2021-04-27 03:00","2021","04","27","03:00","2.2","","-3.8","","65","","","","31","","11","","14.5","","99.31","","","","","","NA"
"-71.50","46.90","VALCARTIER A","7018573","2021-04-27 04:00","2021","04","27","04:00","1.8","","-4.1","","65","","","","24","","13","","14.5","","99.29","","","","","","NA"
"-71.50","46.90","VALCARTIER A","7018573","2021-04-27 05:00","2021","04","27","05:00"
"-71.50","46.90","VALCARTIER A","7018573","2021-04-27 06:00","2021","04","27","06:00","2.7","","-3.1","","66","","","","29","","11","","14.5","","99.34","","","","","","NA"
"-71.50","46.90","VALCARTIER A","7018573","2021-04-27 07:00","2021","04","27","07:00","4.1","","-2.5","","62","","","","31","","15","","14.5","","99.37","","","","","","NA"
"-71.50","46.90","VALCARTIER A","7018573","2021-04-27 08:00","2021","04","27","08:00","5.7","","-1.5","","60","","","","31","","13","","14.5","","99.32","","","","","","NA"
"-71.50","46.90","VALCARTIER A","7018573","2021-04-27 09:00","2021","04","27","09:00","7.5","","-0.5","","57","","","","32","","19","","14.5","","99.30","","","","","","NA"
"-71.50","46.90","VALCARTIER A","7018573","2021-04-27 10:00","2021","04","27","10:00","9.3","","0.5","","54","","","","29","","11","","14.5","","99.26","","","","","","NA"
"-71.50","46.90","VALCARTIER A","7018573","2021-04-27 11:00","2021","04","27","11:00","11.2","","1.3","","51","","","","30","","20","","14.5","","99.21","","","","","","NA"
"-71.50","46.90","VALCARTIER A","7018573","2021-04-27 12:00","2021","04","27","12:00","12.9","","1.8","","47","","","","33","","13","","14.5","","99.14","","","","","","NA"
"-71.50","46.90","VALCARTIER A","7018573","2021-04-27 13:00","2021","04","27","13:00","13.4","","0.3","","41","","","","36","","26","","14.5","","99.13","","","","","","NA"
"-71.50","46.90","VALCARTIER A","7018573","2021-04-27 14:00","2021","04","27","14:00","13.9","","1.2","","42","","","","33","","17","","14.5","","99.09","","","","","","NA"
"-71.50","46.90","VALCARTIER A","7018573","2021-04-27 15:00","2021","04","27","15:00","15.7","","1.2","","37","","","","30","","20","","14.5","","99.05","","","","","","NA"
"-71.50","46.90","VALCARTIER A","7018573","2021-04-27 16:00","2021","04","27","16:00","16.0","","0.9","","36","","","","33","","13","","14.5","","99.03","","","","","","NA"
"-71.50","46.90","VALCARTIER A","7018573","2021-04-27 17:00","2021","04","27","17:00","16.0","","0.7","","35","","","","34","","15","","14.5","","99.06","","","","","","NA"
"-71.50","46.90","VALCARTIER A","7018573","2021-04-27 18:00","2021","04","27","18:00","14.7","","0.4","","38","","","","34","","11","","14.5","","99.07","","","","","","NA"
"-71.50","46.90","VALCARTIER A","7018573","2021-04-27 19:00","2021","04","27","19:00","10.1","","1.0","","53","","","","","","0","","14.5","","99.11","","","","","","NA"
"-71.50","46.90","VALCARTIER A","7018573","2021-04-27 20:00","2021","04","27","20:00","7.2","","0.2","","61","","","","","","0","","14.5","","99.18","","","","","","NA"
"-71.50","46.90","VALCARTIER A","7018573","2021-04-27 21:00","2021","04","27","21:00","5.1","","-0.7","","66","","","","","","0","","14.5","","99.23","","","","","","NA"
"-71.50","46.90","VALCARTIER A","7018573","2021-04-27 22:00","2021","04","27","22:00","2.3","","-1.9","","74","","","","36","","9","","14.5","","99.21","","","","","","NA"
"-71.50","46.90","VALCARTIER A","7018573","2021-04-27 23:00","2021","04","27","23:00","2.3","","-1.5","","76","","","","","","0","","14.5","","99.19","","","","","","NA"
"-71.50","46.90","VALCARTIER A","7018573","2021-04-28 00:00","2021","04","28","00:00","2.0","","-2.0","","75","","","","","","0","","14.5","","99.17","","","","","","NA"
"-71.50","46.90","VALCARTIER A","7018573","2021-04-28 01:00","2021","04","28","01:00","2.6","","-1.4","","75","","","","","","0","","14.5","","99.13","","","","","","NA"
"-71.50","46.90","VALCARTIER A","7018573","2021-04-28 02:00","2021","04","28","02:00","3.4","","-0.5","","76","","","","","","0","","14.5","","99.18","","","","","","NA"
"-71.50","46.90","VALCARTIER A","7018573","2021-04-28 03:00","2021","04","28","03:00","3.6","","-0.1","","77","","","","","","0","","14.5","","99.19","","","","","","NA"
"-71.50","46.90","VALCARTIER A","7018573","2021-04-28 04:00","2021","04","28","04:00","4.0","","-0.2","","74","","","","2","","4","","14.5","","99.24","","","","","","NA"
"-71.50","46.90","VALCARTIER A","7018573","2021-04-28 05:00","2021","04","28","05:00","4.3","","-0.9","","69","","","","","","0","","14.5","","99.25","","","","","","NA"
"-71.50","46.90","VALCARTIER A","7018573","2021-04-28 06:00","2021","04","28","06:00","5.1","","0.0","","70","","","","32","","4","","14.5","","99.29","","","","","","NA"
"-71.50","46.90","VALCARTIER A","7018573","2021-04-28 07:00","2021","04","28","07:00","7.5","","0.5","","61","","","","32","","4","","14.5","","99.31","","","","","","NA"
"-71.50","46.90","VALCARTIER A","7018573","2021-04-28 08:00","2021","04","28","08:00","12.1","","1.4","","48","","","","1","","4","","14.5","","99.27","","","","","","NA"
"-71.50","46.90","VALCARTIER A","7018573","2021-04-28 09:00","2021","04","28","09:00","15.3","","0.4","","36","","","","","","0","","14.5","","99.21","","","","","","NA"
"-71.50","46.90","VALCARTIER A","7018573","2021-04-28 10:00","2021","04","28","10:00","16.6","","-0.2","","32","","","","10","","11","","14.5","","99.17","","","","","","NA"
"-71.50","46.90","VALCARTIER A","7018573","2021-04-28 11:00","2021","04","28","11:00","17.0","","-0.6","","30","","","","24","","7","","14.5","","99.12","","","","","","NA"
"-71.50","46.90","VALCARTIER A","7018573","2021-04-28 12:00","2021","04","28","12:00","17.6","","-1.1","","28","","","","6","","6","","14.5","","99.06","","","","","","NA"
"-71.50","46.90","VALCARTIER A","7018573","2021-04-28 13:00","2021","04","28","13:00","18.8","","-0.6","","27","","","","18","","7","","14.5","","99.02","","","","","","NA"
"-71.50","46.90","VALCARTIER A","7018573","2021-04-28 14:00","2021","04","28","14:00","18.1","","1.0","","32","","","","18","","9","","14.5","","98.96","","","","","","NA"
"-71.50","46.90","VALCARTIER A","7018573","2021-04-28 15:00","2021","04","28","15:00","17.8","","0.4","","31","","","","21","","11","","14.5","","98.90","","","","","","NA"
"-71.50","46.90","VALCARTIER A","7018573","2021-04-28 16:00","2021","04","28","16:00","17.5","","0.2","","31","","","","19","","11","","14.5","","98.94","","","","","","NA"
"-71.50","46.90","VALCARTIER A","7018573","2021-04-28 17:00","2021","04","28","17:00","17.0","","-0.1","","31","","","","20","","9","","14.5","","98.94","","","","","","NA"
"-71.50","46.90","VALCARTIER A","7018573","2021-04-28 18:00","2021","04","28","18:00","16.3","","0.3","","34","","","","","","0","","14.5","","98.91","","","","","","NA"
"-71.50","46.90","VALCARTIER A","7018573","2021-04-28 19:00","2021","04","28","19:00","12.8","","2.4","","49","","","","","","0","","14.5","","98.93","","","","","","NA"
"-71.50","46.90","VALCARTIER A","7018573","2021-04-28 20:00","2021","04","28","20:00","10.0","","2.6","","60","","","","36","","4","","14.5","","99.00","","","","","","NA"
"-71.50","46.90","VALCARTIER A","7018573","2021-04-28 21:00","2021","04","28","21:00","12.1","","1.2","","47","","","","4","","9","","14.5","","98.99","","","","","","NA"
"-71.50","46.90","VALCARTIER A","7018573","2021-04-28 22:00","2021","04","28","22:00","11.5","","-0.6","","43","","","","4","","6","","14.5","","98.96","","","","","","NA"
"-71.50","46.90","VALCARTIER A","7018573","2021-04-28 23:00","2021","04","28","23:00","9.1","","-0.8","","50","","","","6","","7","","14.5","","98.94","","","","","","NA"
"-71.50","46.90","VALCARTIER A","7018573","2021-04-29 00:00","2021","04","29","00:00","10.3","","-1.5","","44","","","","5","","7","","14.5","","98.93","","","","","","NA"
"-71.50","46.90","VALCARTIER A","7018573","2021-04-29 01:00","2021","04","29","01:00","10.4","","-1.9","","42","","","","5","","7","","14.5","","98.97","","","","","","NA"
"-71.50","46.90","VALCARTIER A","7018573","2021-04-29 02:00","2021","04","29","02:00","5.7","","-0.9","","63","","","","","","0","","14.5","","99.00","","","","","","NA"
"-71.50","46.90","VALCARTIER A","7018573","2021-04-29 03:00","2021","04","29","03:00","5.5","","-1.1","","62","","","","","","0","","14.5","","98.99","","","","","","NA"
"-71.50","46.90","VALCARTIER A","7018573","2021-04-29 04:00","2021","04","29","04:00","5.1","","-1.5","","62","","","","36","","6","","14.5","","99.02","","","","","","NA"
"-71.50","46.90","VALCARTIER A","7018573","2021-04-29 05:00","2021","04","29","05:00","6.5","","-0.7","","60","","","","7","","4","","14.5","","99.06","","","","","","NA"
"-71.50","46.90","VALCARTIER A","7018573","2021-04-29 06:00","2021","04","29","06:00","8.4","","0.1","","56","","","","5","","4","","14.5","","99.04","","","","","","NA"
"-71.50","46.90","VALCARTIER A","7018573","2021-04-29 07:00","2021","04","29","07:00","10.8","","0.4","","49","","","","13","","13","","14.5","","99.04","","","","","","NA"
"-71.50","46.90","VALCARTIER A","7018573","2021-04-29 08:00","2021","04","29","08:00","12.1","","1.3","","48","","","","14","","11","","14.5","","99.04","","","","","","NA"
"-71.50","46.90","VALCARTIER A","7018573","2021-04-29 09:00","2021","04","29","09:00","13.3","","1.1","","43","","","","15","","15","","14.5","","99.01","","","","","","NA"
"-71.50","46.90","VALCARTIER A","7018573","2021-04-29 10:00","2021","04","29","10:00","14.9","","1.1","","39","","","","13","","15","","14.5","","98.87","","","","","","NA"
"-71.50","46.90","VALCARTIER A","7018573","2021-04-29 11:00","2021","04","29","11:00","16.1","","1.4","","37","","","","13","","17","","14.5","","98.80","","","","","","NA"
"-71.50","46.90","VALCARTIER A","7018573","2021-04-29 12:00","2021","04","29","12:00","16.8","","0.5","","33","","","","16","","17","","14.5","","98.70","","","","","","NA"
"-71.50","46.90","VALCARTIER A","7018573","2021-04-29 13:00","2021","04","29","13:00","17.9","","0.6","","31","","","","11","","11","","14.5","","98.62","","","","","","NA"
"-71.50","46.90","VALCARTIER A","7018573","2021-04-29 14:00","2021","04","29","14:00","18.1","","-0.1","","29","","","","12","","7","","14.5","","98.54","","","","","","NA"
"-71.50","46.90","VALCARTIER A","7018573","2021-04-29 15:00","2021","04","29","15:00","18.2","","-0.2","","29","","","","15","","6","","14.5","","98.36","","","","","","NA"
"-71.50","46.90","VALCARTIER A","7018573","2021-04-29 16:00","2021","04","29","16:00","18.5","","0.1","","29","","","","8","","6","","14.5","","98.28","","","","","","NA"
"-71.50","46.90","VALCARTIER A","7018573","2021-04-29 17:00","2021","04","29","17:00","16.8","","2.9","","39","","","","14","","11","","14.5","","98.20","","","","","","NA"
"-71.50","46.90","VALCARTIER A","7018573","2021-04-29 18:00","2021","04","29","18:00","15.6","","0.5","","36","","","","14","","11","","14.5","","98.18","","","","","","NA"
"-71.50","46.90","VALCARTIER A","7018573","2021-04-29 19:00","2021","04","29","19:00","14.3","","-0.5","","36","","","","12","","9","","14.5","","98.10","","","","","","NA"
"-71.50","46.90","VALCARTIER A","7018573","2021-04-29 20:00","2021","04","29","20:00","13.1","","-2.2","","35","","","","13","","9","","14.5","","98.08","","","","","","NA"
"-71.50","46.90","VALCARTIER A","7018573","2021-04-29 21:00","2021","04","29","21:00","11.8","","-0.3","","43","","","","12","","4","","14.5","","98.02","","","","","","NA"
"-71.50","46.90","VALCARTIER A","7018573","2021-04-29 22:00","2021","04","29","22:00","10.9","","0.3","","48","","","","13","","7","","14.5","","97.94","","","","","","NA"
"-71.50","46.90","VALCARTIER A","7018573","2021-04-29 23:00","2021","04","29","23:00","10.0","","1.2","","54","","","","27","","4","","14.5","","97.84","","","","","","NA"
"-71.50","46.90","VALCARTIER A","7018573","2021-04-30 00:00","2021","04","30","00:00","12.8","","-0.1","","41","","","","7","","6","","14.5","","97.75","","","","","","NA"
"-71.50","46.90","VALCARTIER A","7018573","2021-04-30 01:00","2021","04","30","01:00","12.4","","-0.2","","42","","","","3","","6","","14.5","","97.65","","","","","","NA"
"-71.50","46.90","VALCARTIER A","7018573","2021-04-30 02:00","2021","04","30","02:00","10.4","","0.8","","51","","","","","","0","","14.5","","97.50","","","","","","NA"
"-71.50","46.90","VALCARTIER A","7018573","2021-04-30 03:00","2021","04","30","03:00","10.3","","0.5","","51","","","","14","","7","","14.5","","97.46","","","","","","NA"
"-71.50","46.90","VALCARTIER A","7018573","2021-04-30 04:00","2021","04","30","04:00","8.6","","1.5","","61","","","","13","","13","","14.5","","97.39","","","","","","Rain"
"-71.50","46.90","VALCARTIER A","7018573","2021-04-30 05:00","2021","04","30","05:00","7.8","","2.2","","68","","","","14","","11","","14.5","","97.38","","","","","","Rain"
"-71.50","46.90","VALCARTIER A","7018573","2021-04-30 06:00","2021","04","30","06:00","6.7","","2.7","","76","","","","13","","11","","4.0","","97.37","","","","","","Rain"
"-71.50","46.90","VALCARTIER A","7018573","2021-04-30 07:00","2021","04","30","07:00","6.5","","2.7","","77","","","","13","","11","","12.9","","97.33","","","","","","Rain"
"-71.50","46.90","VALCARTIER A","7018573","2021-04-30 08:00","2021","04","30","08:00","7.5","","3.9","","78","","","","21","","6","","14.5","","97.27","","","","","","Rain"
"-71.50","46.90","VALCARTIER A","7018573","2021-04-30 09:00","2021","04","30","09:00","8.1","","4.6","","79","","","","18","","7","","14.5","","97.23","","","","","","NA"
"-71.50","46.90","VALCARTIER A","7018573","2021-04-30 10:00","2021","04","30","10:00","7.5","","3.6","","76","","","","14","","17","","14.5","","97.19","","","","","","Rain"
"-71.50","46.90","VALCARTIER A","7018573","2021-04-30 11:00","2021","04","30","11:00","7.4","","3.6","","77","","","","14","","11","","11.3","","97.19","","","","","","Rain"
"-71.50","46.90","VALCARTIER A","7018573","2021-04-30 12:00","2021","04","30","12:00","7.5","","4.2","","80","","","","14","","7","","5.6","","97.18","","","","","","Rain"
"-71.50","46.90","VALCARTIER A","7018573","2021-04-30 13:00","2021","04","30","13:00","8.3","","5.1","","80","","","","18","","4","","9.7","","97.14","","","","","","Rain"
"-71.50","46.90","VALCARTIER A","7018573","2021-04-30 14:00","2021","04","30","14:00","8.5","","5.3","","80","","","","15","","13","","14.5","","97.12","","","","","","NA"
"-71.50","46.90","VALCARTIER A","7018573","2021-04-30 15:00","2021","04","30","15:00","9.2","","5.1","","76","","","","14","","9","","14.5","","97.17","","","","","","NA"
"-71.50","46.90","VALCARTIER A","7018573","2021-04-30 16:00","2021","04","30","16:00"
"-71.50","46.90","VALCARTIER A","7018573","2021-04-30 17:00","2021","04","30","17:00","7.8","","4.3","","79","","","","12","","7","","5.6","","97.33","","","","","","Rain"
"-71.50","46.90","VALCARTIER A","7018573","2021-04-30 18:00","2021","04","30","18:00","6.8","","3.2","","78","","","","13","","6","","14.5","","97.42","","","","","","Rain"
"-71.50","46.90","VALCARTIER A","7018573","2021-04-30 19:00","2021","04","30","19:00","6.5","","2.9","","78","","","","11","","4","","14.5","","97.49","","","","","","NA"
"-71.50","46.90","VALCARTIER A","7018573","2021-04-30 20:00","2021","04","30","20:00","6.4","","2.7","","77","","","","14","","7","","14.5","","97.56","","","","","","NA"
"-71.50","46.90","VALCARTIER A","7018573","2021-04-30 21:00","2021","04","30","21:00","6.1","","2.9","","80","","","","28","","4","","14.5","","97.60","","","","","","NA"
"-71.50","46.90","VALCARTIER A","7018573","2021-04-30 22:00","2021","04","30","22:00","6.0","","3.0","","81","","","","","","0","","14.5","","97.63","","","","","","NA"
"-71.50","46.90","VALCARTIER A","7018573","2021-04-30 23:00","2021","04","30","23:00","6.5","","3.6","","82","","","","22","","6","","9.7","","97.65","","","","","","Rain"
