"Longitude (x)","Latitude (y)","Station Name","Climate ID","Date/Time (LST)","Year","Month","Day","Time (LST)","Temp (°C)","Temp Flag","Dew Point Temp (°C)","Dew Point Temp Flag","Rel Hum (%)","Rel Hum Flag","Precip. Amount (mm)","Precip. Amount Flag","Wind Dir (10s deg)","Wind Dir Flag","Wind Spd (km/h)","Wind Spd Flag","Visibility (km)","Visibility Flag","Stn Press (kPa)","Stn Press Flag","Hmdx","Hmdx Flag","Wind Chill","Wind Chill Flag","Weather"
"-79.25","56.54","SANIKILUAQ A","2303666","2022-03-01 00:00","2022","03","01","00:00"
"-79.25","56.54","SANIKILUAQ A","2303666","2022-03-01 01:00","2022","03","01","01:00"
"-79.25","56.54","SANIKILUAQ A","2303666","2022-03-01 02:00","2022","03","01","02:00"
"-79.25","56.54","SANIKILUAQ A","2303666","2022-03-01 03:00","2022","03","01","03:00"
"-79.25","56.54","SANIKILUAQ A","2303666","2022-03-01 04:00","2022","03","01","04:00"
"-79.25","56.54","SANIKILUAQ A","2303666","2022-03-01 05:00","2022","03","01","05:00"
"-79.25","56.54","SANIKILUAQ A","2303666","2022-03-01 06:00","2022","03","01","06:00"
"-79.25","56.54","SANIKILUAQ A","2303666","2022-03-01 07:00","2022","03","01","07:00"
"-79.25","56.54","SANIKILUAQ A","2303666","2022-03-01 08:00","2022","03","01","08:00","-24.9","","-27.9","","77","","","","23","","18","","24.1","","100.90","","","","-36","","NA"
"-79.25","56.54","SANIKILUAQ A","2303666","2022-03-01 09:00","2022","03","01","09:00","-24.1","","-27.0","","78","","","","21","","9","","24.1","","100.88","","","","-32","","NA"
"-79.25","56.54","SANIKILUAQ A","2303666","2022-03-01 10:00","2022","03","01","10:00","-23.9","","-26.8","","77","","","","19","","9","","24.1","","100.87","","","","-31","","Clear"
"-79.25","56.54","SANIKILUAQ A","2303666","2022-03-01 11:00","2022","03","01","11:00","-23.6","","-26.5","","78","","","","18","","11","","24.1","","100.84","","","","-32","","NA"
"-79.25","56.54","SANIKILUAQ A","2303666","2022-03-01 12:00","2022","03","01","12:00","-23.4","","-26.2","","78","","","","21","","10","","24.1","","100.82","","","","-31","","NA"
"-79.25","56.54","SANIKILUAQ A","2303666","2022-03-01 13:00","2022","03","01","13:00","-23.3","","-26.1","","78","","","","21","","11","","24.1","","100.81","","","","-32","","Mainly Clear"
"-79.25","56.54","SANIKILUAQ A","2303666","2022-03-01 14:00","2022","03","01","14:00","-22.7","","-25.5","","78","","","","22","","7","","24.1","","100.82","","","","-29","","NA"
"-79.25","56.54","SANIKILUAQ A","2303666","2022-03-01 15:00","2022","03","01","15:00","-22.8","","-25.6","","78","","","","23","","8","","24.1","","100.81","","","","-30","","NA"
"-79.25","56.54","SANIKILUAQ A","2303666","2022-03-01 16:00","2022","03","01","16:00","-23.4","","-26.2","","78","","","","26","","11","","24.1","","100.82","","","","-32","","Mostly Cloudy"
"-79.25","56.54","SANIKILUAQ A","2303666","2022-03-01 17:00","2022","03","01","17:00","-24.1","","-27.0","","78","","","","24","","10","","24.1","","100.84","","","","-32","","NA"
"-79.25","56.54","SANIKILUAQ A","2303666","2022-03-01 18:00","2022","03","01","18:00","-25.7","","-28.7","","76","","","","25","","15","","24.1","","100.88","","","","-36","","NA"
"-79.25","56.54","SANIKILUAQ A","2303666","2022-03-01 19:00","2022","03","01","19:00","-26.0","","-29.0","","76","","","","25","","15","","24.1","","100.89","","","","-36","","Clear"
"-79.25","56.54","SANIKILUAQ A","2303666","2022-03-01 20:00","2022","03","01","20:00"
"-79.25","56.54","SANIKILUAQ A","2303666","2022-03-01 21:00","2022","03","01","21:00"
"-79.25","56.54","SANIKILUAQ A","2303666","2022-03-01 22:00","2022","03","01","22:00"
"-79.25","56.54","SANIKILUAQ A","2303666","2022-03-01 23:00","2022","03","01","23:00"
"-79.25","56.54","SANIKILUAQ A","2303666","2022-03-02 00:00","2022","03","02","00:00"
"-79.25","56.54","SANIKILUAQ A","2303666","2022-03-02 01:00","2022","03","02","01:00"
"-79.25","56.54","SANIKILUAQ A","2303666","2022-03-02 02:00","2022","03","02","02:00"
"-79.25","56.54","SANIKILUAQ A","2303666","2022-03-02 03:00","2022","03","02","03:00","-30.4","","-33.8","","73","","","","36","","1","","24.1","","100.76","","","","-32","","NA"
"-79.25","56.54","SANIKILUAQ A","2303666","2022-03-02 04:00","2022","03","02","04:00","-30.2","","-33.5","","73","","","","17","","9","","24.1","","100.74","","","","-39","","Ice Crystals"
"-79.25","56.54","SANIKILUAQ A","2303666","2022-03-02 05:00","2022","03","02","05:00","-30.2","","-33.5","","73","","","","16","","5","","24.1","","100.75","","","","-36","","Ice Crystals"
"-79.25","56.54","SANIKILUAQ A","2303666","2022-03-02 06:00","2022","03","02","06:00","-31.3","","-34.7","","73","","","","20","","7","","24.1","","100.74","","","","-39","","NA"
"-79.25","56.54","SANIKILUAQ A","2303666","2022-03-02 07:00","2022","03","02","07:00","-31.6","","-35.0","","72","","","","17","","3","","24.1","","100.76","","","","-35","","Clear"
"-79.25","56.54","SANIKILUAQ A","2303666","2022-03-02 08:00","2022","03","02","08:00","-31.8","","-35.2","","72","","","","23","","6","","24.1","","100.76","","","","-39","","NA"
"-79.25","56.54","SANIKILUAQ A","2303666","2022-03-02 09:00","2022","03","02","09:00","-31.7","","-35.2","","72","","","","26","","8","","24.1","","100.75","","","","-40","","NA"
"-79.25","56.54","SANIKILUAQ A","2303666","2022-03-02 10:00","2022","03","02","10:00","-30.8","","-34.3","","73","","","","26","","17","","24.1","","100.79","","","","-43","","Clear"
"-79.25","56.54","SANIKILUAQ A","2303666","2022-03-02 11:00","2022","03","02","11:00","-29.6","","-33.0","","73","","","","27","","22","","24.1","","100.79","","","","-43","","NA"
"-79.25","56.54","SANIKILUAQ A","2303666","2022-03-02 12:00","2022","03","02","12:00","-29.0","","-32.3","","74","","","","28","","22","","24.1","","100.82","","","","-42","","NA"
"-79.25","56.54","SANIKILUAQ A","2303666","2022-03-02 13:00","2022","03","02","13:00","-28.1","","-31.4","","74","","","","28","","18","","24.1","","100.84","","","","-40","","Clear"
"-79.25","56.54","SANIKILUAQ A","2303666","2022-03-02 14:00","2022","03","02","14:00","-27.4","","-30.5","","75","","","","28","","19","","24.1","","100.88","","","","-40","","NA"
"-79.25","56.54","SANIKILUAQ A","2303666","2022-03-02 15:00","2022","03","02","15:00","-27.1","","-30.3","","75","","","","31","","16","","19.3","","100.95","","","","-38","","Ice Crystals"
"-79.25","56.54","SANIKILUAQ A","2303666","2022-03-02 16:00","2022","03","02","16:00","-27.1","","-30.2","","75","","","","29","","15","","24.1","","101.00","","","","-38","","Clear"
"-79.25","56.54","SANIKILUAQ A","2303666","2022-03-02 17:00","2022","03","02","17:00","-27.7","","-30.9","","75","","","","28","","16","","24.1","","101.03","","","","-39","","NA"
"-79.25","56.54","SANIKILUAQ A","2303666","2022-03-02 18:00","2022","03","02","18:00","-28.7","","-32.0","","74","","","","27","","18","","24.1","","101.04","","","","-41","","NA"
"-79.25","56.54","SANIKILUAQ A","2303666","2022-03-02 19:00","2022","03","02","19:00"
"-79.25","56.54","SANIKILUAQ A","2303666","2022-03-02 20:00","2022","03","02","20:00"
"-79.25","56.54","SANIKILUAQ A","2303666","2022-03-02 21:00","2022","03","02","21:00"
"-79.25","56.54","SANIKILUAQ A","2303666","2022-03-02 22:00","2022","03","02","22:00"
"-79.25","56.54","SANIKILUAQ A","2303666","2022-03-02 23:00","2022","03","02","23:00"
"-79.25","56.54","SANIKILUAQ A","2303666","2022-03-03 00:00","2022","03","03","00:00"
"-79.25","56.54","SANIKILUAQ A","2303666","2022-03-03 01:00","2022","03","03","01:00"
"-79.25","56.54","SANIKILUAQ A","2303666","2022-03-03 02:00","2022","03","03","02:00"
"-79.25","56.54","SANIKILUAQ A","2303666","2022-03-03 03:00","2022","03","03","03:00"
"-79.25","56.54","SANIKILUAQ A","2303666","2022-03-03 04:00","2022","03","03","04:00"
"-79.25","56.54","SANIKILUAQ A","2303666","2022-03-03 05:00","2022","03","03","05:00"
"-79.25","56.54","SANIKILUAQ A","2303666","2022-03-03 06:00","2022","03","03","06:00"
"-79.25","56.54","SANIKILUAQ A","2303666","2022-03-03 07:00","2022","03","03","07:00"
"-79.25","56.54","SANIKILUAQ A","2303666","2022-03-03 08:00","2022","03","03","08:00","-26.2","","-29.2","","76","","","","25","","30","","11.3","","100.83","","","","-41","","Ice Crystals"
"-79.25","56.54","SANIKILUAQ A","2303666","2022-03-03 09:00","2022","03","03","09:00","-26.4","","-29.5","","76","","","","25","","33","","6.4","","100.81","","","","-41","","Ice Crystals,Blowing Snow"
"-79.25","56.54","SANIKILUAQ A","2303666","2022-03-03 10:00","2022","03","03","10:00","-25.9","","-29.0","","76","","","","25","","34","","4.8","","100.81","","","","-41","","Ice Crystals,Blowing Snow"
"-79.25","56.54","SANIKILUAQ A","2303666","2022-03-03 11:00","2022","03","03","11:00","-25.3","","-28.3","","76","","","","24","","36","","4.8","","100.77","","","","-41","","Ice Crystals,Blowing Snow"
"-79.25","56.54","SANIKILUAQ A","2303666","2022-03-03 12:00","2022","03","03","12:00","-24.6","","-27.5","","77","","","","24","","31","","4.8","","100.82","","","","-39","","Ice Crystals,Blowing Snow"
"-79.25","56.54","SANIKILUAQ A","2303666","2022-03-03 13:00","2022","03","03","13:00","-24.0","","-26.9","","77","","","","24","","30","","4.8","","100.81","","","","-38","","Ice Crystals,Blowing Snow"
"-79.25","56.54","SANIKILUAQ A","2303666","2022-03-03 14:00","2022","03","03","14:00","-23.9","","-26.8","","77","","","","24","","34","","8.1","","100.81","","","","-38","","Ice Crystals,Blowing Snow"
"-79.25","56.54","SANIKILUAQ A","2303666","2022-03-03 15:00","2022","03","03","15:00","-23.7","","-26.6","","78","","","","24","","35","","8.1","","100.81","","","","-38","","Ice Crystals,Blowing Snow"
"-79.25","56.54","SANIKILUAQ A","2303666","2022-03-03 16:00","2022","03","03","16:00","-23.9","","-26.7","","78","","","","25","","31","","8.1","","100.84","","","","-38","","Ice Crystals,Blowing Snow"
"-79.25","56.54","SANIKILUAQ A","2303666","2022-03-03 17:00","2022","03","03","17:00","-24.1","","-26.9","","78","","","","24","","23","","11.3","","100.88","","","","-36","","Blowing Snow"
"-79.25","56.54","SANIKILUAQ A","2303666","2022-03-03 18:00","2022","03","03","18:00","-24.6","","-27.5","","77","","","","24","","24","","11.3","","100.97","","","","-37","","NA"
"-79.25","56.54","SANIKILUAQ A","2303666","2022-03-03 19:00","2022","03","03","19:00"
"-79.25","56.54","SANIKILUAQ A","2303666","2022-03-03 20:00","2022","03","03","20:00"
"-79.25","56.54","SANIKILUAQ A","2303666","2022-03-03 21:00","2022","03","03","21:00"
"-79.25","56.54","SANIKILUAQ A","2303666","2022-03-03 22:00","2022","03","03","22:00"
"-79.25","56.54","SANIKILUAQ A","2303666","2022-03-03 23:00","2022","03","03","23:00"
"-79.25","56.54","SANIKILUAQ A","2303666","2022-03-04 00:00","2022","03","04","00:00"
"-79.25","56.54","SANIKILUAQ A","2303666","2022-03-04 01:00","2022","03","04","01:00"
"-79.25","56.54","SANIKILUAQ A","2303666","2022-03-04 02:00","2022","03","04","02:00"
"-79.25","56.54","SANIKILUAQ A","2303666","2022-03-04 03:00","2022","03","04","03:00"
"-79.25","56.54","SANIKILUAQ A","2303666","2022-03-04 04:00","2022","03","04","04:00"
"-79.25","56.54","SANIKILUAQ A","2303666","2022-03-04 05:00","2022","03","04","05:00"
"-79.25","56.54","SANIKILUAQ A","2303666","2022-03-04 06:00","2022","03","04","06:00"
"-79.25","56.54","SANIKILUAQ A","2303666","2022-03-04 07:00","2022","03","04","07:00"
"-79.25","56.54","SANIKILUAQ A","2303666","2022-03-04 08:00","2022","03","04","08:00","-25.9","","-28.9","","76","","","","24","","32","","11.3","","100.85","","","","-41","","Ice Crystals,Blowing Snow"
"-79.25","56.54","SANIKILUAQ A","2303666","2022-03-04 09:00","2022","03","04","09:00","-24.8","","-27.7","","77","","","","24","","34","","4.8","","100.86","","","","-40","","Ice Crystals,Blowing Snow"
"-79.25","56.54","SANIKILUAQ A","2303666","2022-03-04 10:00","2022","03","04","10:00","-24.0","","-26.9","","77","","","","25","","32","","0.8","","100.86","","","","-38","","Ice Crystals,Blowing Snow"
"-79.25","56.54","SANIKILUAQ A","2303666","2022-03-04 11:00","2022","03","04","11:00","-22.9","","-25.7","","78","","","","26","","39","","1.6","","100.82","","","","-38","","Ice Crystals,Blowing Snow"
"-79.25","56.54","SANIKILUAQ A","2303666","2022-03-04 12:00","2022","03","04","12:00","-21.4","","-24.0","","80","","","","26","","39","","1.6","","100.85","","","","-36","","Ice Crystals,Blowing Snow"
"-79.25","56.54","SANIKILUAQ A","2303666","2022-03-04 13:00","2022","03","04","13:00","-20.8","","-23.4","","80","","","","26","","37","","1.6","","100.85","","","","-35","","Ice Crystals,Blowing Snow"
"-79.25","56.54","SANIKILUAQ A","2303666","2022-03-04 14:00","2022","03","04","14:00","-20.6","","-23.1","","80","","","","25","","35","","4.8","","100.89","","","","-34","","Ice Crystals,Blowing Snow"
"-79.25","56.54","SANIKILUAQ A","2303666","2022-03-04 15:00","2022","03","04","15:00","-20.7","","-23.3","","80","","","","26","","38","","4.8","","100.92","","","","-35","","Ice Crystals,Blowing Snow"
"-79.25","56.54","SANIKILUAQ A","2303666","2022-03-04 16:00","2022","03","04","16:00","-20.7","","-23.3","","80","","","","26","","38","","4.8","","100.98","","","","-35","","Ice Crystals,Blowing Snow"
"-79.25","56.54","SANIKILUAQ A","2303666","2022-03-04 17:00","2022","03","04","17:00","-20.1","","-22.6","","81","","","","27","","45","","8.1","","100.98","","","","-35","","Ice Crystals,Blowing Snow"
"-79.25","56.54","SANIKILUAQ A","2303666","2022-03-04 18:00","2022","03","04","18:00","-19.9","","-22.4","","81","","","","27","","43","","6.4","","101.01","","","","-34","","Ice Crystals,Blowing Snow"
"-79.25","56.54","SANIKILUAQ A","2303666","2022-03-04 19:00","2022","03","04","19:00"
"-79.25","56.54","SANIKILUAQ A","2303666","2022-03-04 20:00","2022","03","04","20:00","-19.5","","-22.0","","81","","","","28","","40","","8.1","","101.09","","","","-33","","Snow,Blowing Snow"
"-79.25","56.54","SANIKILUAQ A","2303666","2022-03-04 21:00","2022","03","04","21:00","-19.8","","-22.2","","81","","","","29","","37","","8.1","","101.12","","","","-33","","Snow,Blowing Snow"
"-79.25","56.54","SANIKILUAQ A","2303666","2022-03-04 22:00","2022","03","04","22:00","-19.7","","-22.2","","81","","","","28","","28","","8.1","","101.13","","","","-32","","Snow,Blowing Snow"
"-79.25","56.54","SANIKILUAQ A","2303666","2022-03-04 23:00","2022","03","04","23:00","-19.7","","-22.2","","81","","","","28","","28","","8.1","","101.13","","","","-32","","Snow,Blowing Snow"
"-79.25","56.54","SANIKILUAQ A","2303666","2022-03-05 00:00","2022","03","05","00:00","-19.9","","-22.4","","81","","","","27","","28","","11.3","","101.16","","","","-32","","Blowing Snow"
"-79.25","56.54","SANIKILUAQ A","2303666","2022-03-05 01:00","2022","03","05","01:00"
"-79.25","56.54","SANIKILUAQ A","2303666","2022-03-05 02:00","2022","03","05","02:00"
"-79.25","56.54","SANIKILUAQ A","2303666","2022-03-05 03:00","2022","03","05","03:00"
"-79.25","56.54","SANIKILUAQ A","2303666","2022-03-05 04:00","2022","03","05","04:00"
"-79.25","56.54","SANIKILUAQ A","2303666","2022-03-05 05:00","2022","03","05","05:00"
"-79.25","56.54","SANIKILUAQ A","2303666","2022-03-05 06:00","2022","03","05","06:00"
"-79.25","56.54","SANIKILUAQ A","2303666","2022-03-05 07:00","2022","03","05","07:00"
"-79.25","56.54","SANIKILUAQ A","2303666","2022-03-05 08:00","2022","03","05","08:00"
"-79.25","56.54","SANIKILUAQ A","2303666","2022-03-05 09:00","2022","03","05","09:00"
"-79.25","56.54","SANIKILUAQ A","2303666","2022-03-05 10:00","2022","03","05","10:00","-19.1","","-21.5","","82","","","","25","","27","","3.2","","101.40","","","","-31","","Ice Crystals,Blowing Snow"
"-79.25","56.54","SANIKILUAQ A","2303666","2022-03-05 11:00","2022","03","05","11:00","-18.6","","-20.9","","82","","","","22","","27","","8.1","","101.37","","","","-30","","Ice Crystals,Blowing Snow"
"-79.25","56.54","SANIKILUAQ A","2303666","2022-03-05 12:00","2022","03","05","12:00","-17.9","","-20.2","","82","","","","23","","32","","11.3","","101.36","","","","-30","","Ice Crystals,Blowing Snow"
"-79.25","56.54","SANIKILUAQ A","2303666","2022-03-05 13:00","2022","03","05","13:00","-17.6","","-19.9","","83","","","","24","","37","","11.3","","101.33","","","","-31","","Ice Crystals"
"-79.25","56.54","SANIKILUAQ A","2303666","2022-03-05 14:00","2022","03","05","14:00","-17.1","","-19.3","","83","","","","24","","40","","8.1","","101.32","","","","-30","","Ice Crystals,Blowing Snow"
"-79.25","56.54","SANIKILUAQ A","2303666","2022-03-05 15:00","2022","03","05","15:00","-16.7","","-18.9","","84","","","","23","","36","","8.1","","101.33","","","","-29","","Ice Crystals,Blowing Snow"
"-79.25","56.54","SANIKILUAQ A","2303666","2022-03-05 16:00","2022","03","05","16:00","-17.0","","-19.2","","83","","","","23","","39","","11.3","","101.31","","","","-30","","Ice Crystals,Blowing Snow"
"-79.25","56.54","SANIKILUAQ A","2303666","2022-03-05 17:00","2022","03","05","17:00","-17.4","","-19.6","","83","","","","22","","27","","24.1","","101.36","","","","-29","","Blowing Snow"
"-79.25","56.54","SANIKILUAQ A","2303666","2022-03-05 18:00","2022","03","05","18:00","-18.3","","-20.6","","83","","","","21","","24","","24.1","","101.33","","","","-29","","NA"
"-79.25","56.54","SANIKILUAQ A","2303666","2022-03-05 19:00","2022","03","05","19:00","-18.6","","-20.9","","82","","","","21","","27","","24.1","","101.33","","","","-30","","Mainly Clear"
"-79.25","56.54","SANIKILUAQ A","2303666","2022-03-05 20:00","2022","03","05","20:00","-19.0","","-21.3","","82","","","","22","","35","","19.3","","101.29","","","","-32","","Ice Crystals"
"-79.25","56.54","SANIKILUAQ A","2303666","2022-03-05 21:00","2022","03","05","21:00","-19.4","","-21.8","","82","","","","22","","35","","19.3","","101.27","","","","-33","","Ice Crystals,Blowing Snow"
"-79.25","56.54","SANIKILUAQ A","2303666","2022-03-05 22:00","2022","03","05","22:00"
"-79.25","56.54","SANIKILUAQ A","2303666","2022-03-05 23:00","2022","03","05","23:00"
"-79.25","56.54","SANIKILUAQ A","2303666","2022-03-06 00:00","2022","03","06","00:00"
"-79.25","56.54","SANIKILUAQ A","2303666","2022-03-06 01:00","2022","03","06","01:00"
"-79.25","56.54","SANIKILUAQ A","2303666","2022-03-06 02:00","2022","03","06","02:00"
"-79.25","56.54","SANIKILUAQ A","2303666","2022-03-06 03:00","2022","03","06","03:00"
"-79.25","56.54","SANIKILUAQ A","2303666","2022-03-06 04:00","2022","03","06","04:00"
"-79.25","56.54","SANIKILUAQ A","2303666","2022-03-06 05:00","2022","03","06","05:00"
"-79.25","56.54","SANIKILUAQ A","2303666","2022-03-06 06:00","2022","03","06","06:00"
"-79.25","56.54","SANIKILUAQ A","2303666","2022-03-06 07:00","2022","03","06","07:00"
"-79.25","56.54","SANIKILUAQ A","2303666","2022-03-06 08:00","2022","03","06","08:00"
"-79.25","56.54","SANIKILUAQ A","2303666","2022-03-06 09:00","2022","03","06","09:00","-19.5","","-22.0","","81","","","","21","","28","","24.1","","100.76","","","","-32","","Blowing Snow"
"-79.25","56.54","SANIKILUAQ A","2303666","2022-03-06 10:00","2022","03","06","10:00","-17.4","","-19.6","","83","","","","21","","18","","24.1","","100.76","","","","-27","","Clear"
"-79.25","56.54","SANIKILUAQ A","2303666","2022-03-06 11:00","2022","03","06","11:00","-17.0","","-19.3","","83","","","","19","","18","","24.1","","100.75","","","","-26","","NA"
"-79.25","56.54","SANIKILUAQ A","2303666","2022-03-06 12:00","2022","03","06","12:00","-16.5","","-18.7","","83","","","","20","","21","","24.1","","100.68","","","","-26","","NA"
"-79.25","56.54","SANIKILUAQ A","2303666","2022-03-06 13:00","2022","03","06","13:00","-15.8","","-18.1","","83","","","","18","","17","","24.1","","100.65","","","","-24","","Clear"
"-79.25","56.54","SANIKILUAQ A","2303666","2022-03-06 14:00","2022","03","06","14:00"
"-79.25","56.54","SANIKILUAQ A","2303666","2022-03-06 15:00","2022","03","06","15:00"
"-79.25","56.54","SANIKILUAQ A","2303666","2022-03-06 16:00","2022","03","06","16:00"
"-79.25","56.54","SANIKILUAQ A","2303666","2022-03-06 17:00","2022","03","06","17:00"
"-79.25","56.54","SANIKILUAQ A","2303666","2022-03-06 18:00","2022","03","06","18:00"
"-79.25","56.54","SANIKILUAQ A","2303666","2022-03-06 19:00","2022","03","06","19:00"
"-79.25","56.54","SANIKILUAQ A","2303666","2022-03-06 20:00","2022","03","06","20:00"
"-79.25","56.54","SANIKILUAQ A","2303666","2022-03-06 21:00","2022","03","06","21:00"
"-79.25","56.54","SANIKILUAQ A","2303666","2022-03-06 22:00","2022","03","06","22:00"
"-79.25","56.54","SANIKILUAQ A","2303666","2022-03-06 23:00","2022","03","06","23:00"
"-79.25","56.54","SANIKILUAQ A","2303666","2022-03-07 00:00","2022","03","07","00:00"
"-79.25","56.54","SANIKILUAQ A","2303666","2022-03-07 01:00","2022","03","07","01:00"
"-79.25","56.54","SANIKILUAQ A","2303666","2022-03-07 02:00","2022","03","07","02:00"
"-79.25","56.54","SANIKILUAQ A","2303666","2022-03-07 03:00","2022","03","07","03:00"
"-79.25","56.54","SANIKILUAQ A","2303666","2022-03-07 04:00","2022","03","07","04:00"
"-79.25","56.54","SANIKILUAQ A","2303666","2022-03-07 05:00","2022","03","07","05:00"
"-79.25","56.54","SANIKILUAQ A","2303666","2022-03-07 06:00","2022","03","07","06:00"
"-79.25","56.54","SANIKILUAQ A","2303666","2022-03-07 07:00","2022","03","07","07:00"
"-79.25","56.54","SANIKILUAQ A","2303666","2022-03-07 08:00","2022","03","07","08:00","-14.8","","-16.8","","85","","","","26","","14","","11.3","","100.52","","","","-22","","Snow"
"-79.25","56.54","SANIKILUAQ A","2303666","2022-03-07 09:00","2022","03","07","09:00","-16.0","","-18.0","","84","","","","27","","22","","11.3","","100.51","","","","-26","","Snow"
"-79.25","56.54","SANIKILUAQ A","2303666","2022-03-07 10:00","2022","03","07","10:00","-16.3","","-18.4","","84","","","","27","","16","","19.3","","100.48","","","","-25","","Mostly Cloudy"
"-79.25","56.54","SANIKILUAQ A","2303666","2022-03-07 11:00","2022","03","07","11:00","-15.9","","-18.0","","84","","","","26","","20","","19.3","","100.42","","","","-25","","NA"
"-79.25","56.54","SANIKILUAQ A","2303666","2022-03-07 12:00","2022","03","07","12:00","-15.2","","-17.2","","85","","","","26","","23","","19.3","","100.40","","","","-25","","Snow"
"-79.25","56.54","SANIKILUAQ A","2303666","2022-03-07 13:00","2022","03","07","13:00","-15.5","","-17.5","","85","","","","26","","24","","11.3","","100.34","","","","-26","","Snow"
"-79.25","56.54","SANIKILUAQ A","2303666","2022-03-07 14:00","2022","03","07","14:00","-15.2","","-17.2","","85","","","","27","","20","","11.3","","100.30","","","","-24","","Snow"
"-79.25","56.54","SANIKILUAQ A","2303666","2022-03-07 15:00","2022","03","07","15:00","-15.2","","-17.2","","85","","","","28","","19","","11.3","","100.28","","","","-24","","Snow"
"-79.25","56.54","SANIKILUAQ A","2303666","2022-03-07 16:00","2022","03","07","16:00","-15.4","","-17.4","","85","","","","28","","22","","12.9","","100.28","","","","-25","","Snow"
"-79.25","56.54","SANIKILUAQ A","2303666","2022-03-07 17:00","2022","03","07","17:00","-15.9","","-18.0","","84","","","","28","","22","","16.1","","100.30","","","","-26","","Snow"
"-79.25","56.54","SANIKILUAQ A","2303666","2022-03-07 18:00","2022","03","07","18:00","-17.4","","-19.7","","83","","","","28","","16","","24.1","","100.30","","","","-26","","NA"
"-79.25","56.54","SANIKILUAQ A","2303666","2022-03-07 19:00","2022","03","07","19:00"
"-79.25","56.54","SANIKILUAQ A","2303666","2022-03-07 20:00","2022","03","07","20:00"
"-79.25","56.54","SANIKILUAQ A","2303666","2022-03-07 21:00","2022","03","07","21:00"
"-79.25","56.54","SANIKILUAQ A","2303666","2022-03-07 22:00","2022","03","07","22:00"
"-79.25","56.54","SANIKILUAQ A","2303666","2022-03-07 23:00","2022","03","07","23:00"
"-79.25","56.54","SANIKILUAQ A","2303666","2022-03-08 00:00","2022","03","08","00:00"
"-79.25","56.54","SANIKILUAQ A","2303666","2022-03-08 01:00","2022","03","08","01:00"
"-79.25","56.54","SANIKILUAQ A","2303666","2022-03-08 02:00","2022","03","08","02:00"
"-79.25","56.54","SANIKILUAQ A","2303666","2022-03-08 03:00","2022","03","08","03:00"
"-79.25","56.54","SANIKILUAQ A","2303666","2022-03-08 04:00","2022","03","08","04:00"
"-79.25","56.54","SANIKILUAQ A","2303666","2022-03-08 05:00","2022","03","08","05:00"
"-79.25","56.54","SANIKILUAQ A","2303666","2022-03-08 06:00","2022","03","08","06:00"
"-79.25","56.54","SANIKILUAQ A","2303666","2022-03-08 07:00","2022","03","08","07:00"
"-79.25","56.54","SANIKILUAQ A","2303666","2022-03-08 08:00","2022","03","08","08:00","-20.1","","-22.6","","81","","","","23","","16","","24.1","","100.26","","","","-30","","Snow"
"-79.25","56.54","SANIKILUAQ A","2303666","2022-03-08 09:00","2022","03","08","09:00","-20.2","","-22.7","","81","","","","24","","16","","24.1","","100.29","","","","-30","","Snow"
"-79.25","56.54","SANIKILUAQ A","2303666","2022-03-08 10:00","2022","03","08","10:00","-19.4","","-21.8","","81","","","","27","","15","","24.1","","100.33","","","","-28","","Mostly Cloudy"
"-79.25","56.54","SANIKILUAQ A","2303666","2022-03-08 11:00","2022","03","08","11:00","-18.1","","-20.4","","82","","","","27","","18","","24.1","","100.32","","","","-28","","NA"
"-79.25","56.54","SANIKILUAQ A","2303666","2022-03-08 12:00","2022","03","08","12:00","-17.7","","-20.1","","82","","","","26","","18","","9.7","","100.34","","","","-27","","Snow"
"-79.25","56.54","SANIKILUAQ A","2303666","2022-03-08 13:00","2022","03","08","13:00","-17.4","","-19.7","","83","","","","26","","9","","11.3","","100.33","","","","-24","","Snow"
"-79.25","56.54","SANIKILUAQ A","2303666","2022-03-08 14:00","2022","03","08","14:00","-16.8","","-19.1","","83","","","","24","","11","","11.3","","100.33","","","","-24","","Snow"
"-79.25","56.54","SANIKILUAQ A","2303666","2022-03-08 15:00","2022","03","08","15:00","-16.7","","-19.0","","83","","","","22","","14","","11.3","","100.36","","","","-25","","Snow"
"-79.25","56.54","SANIKILUAQ A","2303666","2022-03-08 16:00","2022","03","08","16:00","-16.9","","-19.2","","82","","","","24","","7","","11.3","","100.39","","","","-22","","Snow"
"-79.25","56.54","SANIKILUAQ A","2303666","2022-03-08 17:00","2022","03","08","17:00","-17.0","","-19.4","","82","","","","22","","5","","11.3","","100.40","","","","-21","","Snow"
"-79.25","56.54","SANIKILUAQ A","2303666","2022-03-08 18:00","2022","03","08","18:00","-17.1","","-19.5","","82","","","","17","","9","","11.3","","100.38","","","","-23","","Snow"
"-79.25","56.54","SANIKILUAQ A","2303666","2022-03-08 19:00","2022","03","08","19:00"
"-79.25","56.54","SANIKILUAQ A","2303666","2022-03-08 20:00","2022","03","08","20:00"
"-79.25","56.54","SANIKILUAQ A","2303666","2022-03-08 21:00","2022","03","08","21:00"
"-79.25","56.54","SANIKILUAQ A","2303666","2022-03-08 22:00","2022","03","08","22:00"
"-79.25","56.54","SANIKILUAQ A","2303666","2022-03-08 23:00","2022","03","08","23:00"
"-79.25","56.54","SANIKILUAQ A","2303666","2022-03-09 00:00","2022","03","09","00:00"
"-79.25","56.54","SANIKILUAQ A","2303666","2022-03-09 01:00","2022","03","09","01:00"
"-79.25","56.54","SANIKILUAQ A","2303666","2022-03-09 02:00","2022","03","09","02:00"
"-79.25","56.54","SANIKILUAQ A","2303666","2022-03-09 03:00","2022","03","09","03:00"
"-79.25","56.54","SANIKILUAQ A","2303666","2022-03-09 04:00","2022","03","09","04:00"
"-79.25","56.54","SANIKILUAQ A","2303666","2022-03-09 05:00","2022","03","09","05:00"
"-79.25","56.54","SANIKILUAQ A","2303666","2022-03-09 06:00","2022","03","09","06:00"
"-79.25","56.54","SANIKILUAQ A","2303666","2022-03-09 07:00","2022","03","09","07:00"
"-79.25","56.54","SANIKILUAQ A","2303666","2022-03-09 08:00","2022","03","09","08:00","-17.8","","-19.9","","84","","","","32","","10","","19.3","","100.06","","","","-25","","NA"
"-79.25","56.54","SANIKILUAQ A","2303666","2022-03-09 09:00","2022","03","09","09:00","-17.9","","-20.1","","84","","","","32","","12","","19.3","","100.04","","","","-25","","NA"
"-79.25","56.54","SANIKILUAQ A","2303666","2022-03-09 10:00","2022","03","09","10:00","-18.6","","-20.9","","82","","","","30","","19","","19.3","","100.02","","","","-28","","Cloudy"
"-79.25","56.54","SANIKILUAQ A","2303666","2022-03-09 11:00","2022","03","09","11:00","-19.0","","-21.4","","82","","","","30","","14","","8.1","","100.03","","","","-28","","Snow"
"-79.25","56.54","SANIKILUAQ A","2303666","2022-03-09 12:00","2022","03","09","12:00","-19.7","","-22.1","","81","","","","29","","21","","8.1","","100.03","","","","-30","","Snow"
"-79.25","56.54","SANIKILUAQ A","2303666","2022-03-09 13:00","2022","03","09","13:00","-19.8","","-22.3","","81","","","","32","","9","","16.1","","100.02","","","","-27","","Cloudy"
"-79.25","56.54","SANIKILUAQ A","2303666","2022-03-09 14:00","2022","03","09","14:00","-18.9","","-21.3","","82","","","","29","","14","","19.3","","100.01","","","","-27","","NA"
"-79.25","56.54","SANIKILUAQ A","2303666","2022-03-09 15:00","2022","03","09","15:00","-18.3","","-20.6","","82","","","","29","","18","","11.3","","100.01","","","","-28","","Snow"
"-79.25","56.54","SANIKILUAQ A","2303666","2022-03-09 16:00","2022","03","09","16:00","-17.8","","-20.1","","82","","","","28","","22","","24.1","","100.03","","","","-28","","Mostly Cloudy"
"-79.25","56.54","SANIKILUAQ A","2303666","2022-03-09 17:00","2022","03","09","17:00","-19.1","","-21.6","","81","","","","28","","23","","24.1","","100.08","","","","-30","","NA"
"-79.25","56.54","SANIKILUAQ A","2303666","2022-03-09 18:00","2022","03","09","18:00","-20.4","","-23.0","","80","","","","28","","18","","24.1","","100.13","","","","-30","","NA"
"-79.25","56.54","SANIKILUAQ A","2303666","2022-03-09 19:00","2022","03","09","19:00"
"-79.25","56.54","SANIKILUAQ A","2303666","2022-03-09 20:00","2022","03","09","20:00"
"-79.25","56.54","SANIKILUAQ A","2303666","2022-03-09 21:00","2022","03","09","21:00"
"-79.25","56.54","SANIKILUAQ A","2303666","2022-03-09 22:00","2022","03","09","22:00"
"-79.25","56.54","SANIKILUAQ A","2303666","2022-03-09 23:00","2022","03","09","23:00"
"-79.25","56.54","SANIKILUAQ A","2303666","2022-03-10 00:00","2022","03","10","00:00"
"-79.25","56.54","SANIKILUAQ A","2303666","2022-03-10 01:00","2022","03","10","01:00"
"-79.25","56.54","SANIKILUAQ A","2303666","2022-03-10 02:00","2022","03","10","02:00"
"-79.25","56.54","SANIKILUAQ A","2303666","2022-03-10 03:00","2022","03","10","03:00"
"-79.25","56.54","SANIKILUAQ A","2303666","2022-03-10 04:00","2022","03","10","04:00"
"-79.25","56.54","SANIKILUAQ A","2303666","2022-03-10 05:00","2022","03","10","05:00"
"-79.25","56.54","SANIKILUAQ A","2303666","2022-03-10 06:00","2022","03","10","06:00"
"-79.25","56.54","SANIKILUAQ A","2303666","2022-03-10 07:00","2022","03","10","07:00"
"-79.25","56.54","SANIKILUAQ A","2303666","2022-03-10 08:00","2022","03","10","08:00","-22.8","","-25.6","","79","","","","22","","16","","16.1","","100.40","","","","-33","","Snow"
"-79.25","56.54","SANIKILUAQ A","2303666","2022-03-10 09:00","2022","03","10","09:00","-22.1","","-24.9","","79","","","","25","","21","","16.1","","100.43","","","","-33","","Snow"
"-79.25","56.54","SANIKILUAQ A","2303666","2022-03-10 10:00","2022","03","10","10:00","-21.8","","-24.7","","78","","","","27","","19","","16.1","","100.47","","","","-32","","Snow"
"-79.25","56.54","SANIKILUAQ A","2303666","2022-03-10 11:00","2022","03","10","11:00","-21.4","","-24.6","","77","","","","25","","16","","19.3","","100.51","","","","-31","","Snow"
"-79.25","56.54","SANIKILUAQ A","2303666","2022-03-10 12:00","2022","03","10","12:00","-20.8","","-24.0","","76","","","","23","","16","","24.1","","100.53","","","","-30","","NA"
"-79.25","56.54","SANIKILUAQ A","2303666","2022-03-10 13:00","2022","03","10","13:00","-20.3","","-23.6","","75","","","","21","","19","","24.1","","100.56","","","","-31","","Mainly Clear"
"-79.25","56.54","SANIKILUAQ A","2303666","2022-03-10 14:00","2022","03","10","14:00","-19.8","","-23.4","","74","","","","21","","22","","24.1","","100.60","","","","-31","","NA"
"-79.25","56.54","SANIKILUAQ A","2303666","2022-03-10 15:00","2022","03","10","15:00","-19.5","","-23.2","","73","","","","22","","20","","24.1","","100.64","","","","-30","","NA"
"-79.25","56.54","SANIKILUAQ A","2303666","2022-03-10 16:00","2022","03","10","16:00","-19.6","","-22.8","","76","","","","22","","20","","11.3","","100.69","","","","-30","","Snow"
"-79.25","56.54","SANIKILUAQ A","2303666","2022-03-10 17:00","2022","03","10","17:00","-20.8","","-24.0","","76","","","","24","","21","","11.3","","100.72","","","","-32","","Snow,Blowing Snow"
"-79.25","56.54","SANIKILUAQ A","2303666","2022-03-10 18:00","2022","03","10","18:00","-21.8","","-25.2","","75","","","","23","","23","","24.1","","100.78","","","","-33","","NA"
"-79.25","56.54","SANIKILUAQ A","2303666","2022-03-10 19:00","2022","03","10","19:00"
"-79.25","56.54","SANIKILUAQ A","2303666","2022-03-10 20:00","2022","03","10","20:00"
"-79.25","56.54","SANIKILUAQ A","2303666","2022-03-10 21:00","2022","03","10","21:00"
"-79.25","56.54","SANIKILUAQ A","2303666","2022-03-10 22:00","2022","03","10","22:00"
"-79.25","56.54","SANIKILUAQ A","2303666","2022-03-10 23:00","2022","03","10","23:00"
"-79.25","56.54","SANIKILUAQ A","2303666","2022-03-11 00:00","2022","03","11","00:00"
"-79.25","56.54","SANIKILUAQ A","2303666","2022-03-11 01:00","2022","03","11","01:00"
"-79.25","56.54","SANIKILUAQ A","2303666","2022-03-11 02:00","2022","03","11","02:00"
"-79.25","56.54","SANIKILUAQ A","2303666","2022-03-11 03:00","2022","03","11","03:00"
"-79.25","56.54","SANIKILUAQ A","2303666","2022-03-11 04:00","2022","03","11","04:00"
"-79.25","56.54","SANIKILUAQ A","2303666","2022-03-11 05:00","2022","03","11","05:00","-25.7","","-28.7","","77","","","","22","","26","","11.3","","100.92","","","","-39","","Ice Crystals"
"-79.25","56.54","SANIKILUAQ A","2303666","2022-03-11 06:00","2022","03","11","06:00"
"-79.25","56.54","SANIKILUAQ A","2303666","2022-03-11 07:00","2022","03","11","07:00"
"-79.25","56.54","SANIKILUAQ A","2303666","2022-03-11 08:00","2022","03","11","08:00","-26.3","","-29.3","","76","","","","18","","25","","16.1","","100.89","","","","-40","","Ice Crystals"
"-79.25","56.54","SANIKILUAQ A","2303666","2022-03-11 09:00","2022","03","11","09:00","-24.8","","-27.8","","77","","","","18","","23","","19.3","","100.88","","","","-37","","Ice Crystals"
"-79.25","56.54","SANIKILUAQ A","2303666","2022-03-11 10:00","2022","03","11","10:00","-22.8","","-25.8","","77","","","","18","","25","","19.3","","100.86","","","","-35","","Ice Crystals"
"-79.25","56.54","SANIKILUAQ A","2303666","2022-03-11 11:00","2022","03","11","11:00","-19.7","","-23.1","","75","","","","20","","30","","19.3","","100.87","","","","-32","","Blowing Snow"
"-79.25","56.54","SANIKILUAQ A","2303666","2022-03-11 12:00","2022","03","11","12:00","-18.8","","-22.9","","71","","","","20","","33","","19.3","","100.83","","","","-32","","Blowing Snow"
"-79.25","56.54","SANIKILUAQ A","2303666","2022-03-11 13:00","2022","03","11","13:00","-17.9","","-21.4","","74","","","","19","","32","","19.3","","100.82","","","","-30","","Blowing Snow"
"-79.25","56.54","SANIKILUAQ A","2303666","2022-03-11 14:00","2022","03","11","14:00","-18.3","","-21.4","","77","","","","18","","28","","19.3","","100.77","","","","-30","","Blowing Snow"
"-79.25","56.54","SANIKILUAQ A","2303666","2022-03-11 15:00","2022","03","11","15:00","-17.6","","-20.8","","76","","","","18","","23","","19.3","","100.75","","","","-28","","Blowing Snow"
"-79.25","56.54","SANIKILUAQ A","2303666","2022-03-11 16:00","2022","03","11","16:00","-18.2","","-21.4","","77","","","","18","","21","","19.3","","100.72","","","","-28","","Blowing Snow"
"-79.25","56.54","SANIKILUAQ A","2303666","2022-03-11 17:00","2022","03","11","17:00","-19.5","","-22.6","","77","","","","19","","16","","24.1","","100.72","","","","-29","","NA"
"-79.25","56.54","SANIKILUAQ A","2303666","2022-03-11 18:00","2022","03","11","18:00","-21.5","","-24.3","","78","","","","19","","17","","24.1","","100.71","","","","-32","","NA"
"-79.25","56.54","SANIKILUAQ A","2303666","2022-03-11 19:00","2022","03","11","19:00"
"-79.25","56.54","SANIKILUAQ A","2303666","2022-03-11 20:00","2022","03","11","20:00"
"-79.25","56.54","SANIKILUAQ A","2303666","2022-03-11 21:00","2022","03","11","21:00"
"-79.25","56.54","SANIKILUAQ A","2303666","2022-03-11 22:00","2022","03","11","22:00"
"-79.25","56.54","SANIKILUAQ A","2303666","2022-03-11 23:00","2022","03","11","23:00"
"-79.25","56.54","SANIKILUAQ A","2303666","2022-03-12 00:00","2022","03","12","00:00"
"-79.25","56.54","SANIKILUAQ A","2303666","2022-03-12 01:00","2022","03","12","01:00"
"-79.25","56.54","SANIKILUAQ A","2303666","2022-03-12 02:00","2022","03","12","02:00"
"-79.25","56.54","SANIKILUAQ A","2303666","2022-03-12 03:00","2022","03","12","03:00"
"-79.25","56.54","SANIKILUAQ A","2303666","2022-03-12 04:00","2022","03","12","04:00"
"-79.25","56.54","SANIKILUAQ A","2303666","2022-03-12 05:00","2022","03","12","05:00"
"-79.25","56.54","SANIKILUAQ A","2303666","2022-03-12 06:00","2022","03","12","06:00"
"-79.25","56.54","SANIKILUAQ A","2303666","2022-03-12 07:00","2022","03","12","07:00"
"-79.25","56.54","SANIKILUAQ A","2303666","2022-03-12 08:00","2022","03","12","08:00"
"-79.25","56.54","SANIKILUAQ A","2303666","2022-03-12 09:00","2022","03","12","09:00"
"-79.25","56.54","SANIKILUAQ A","2303666","2022-03-12 10:00","2022","03","12","10:00"
"-79.25","56.54","SANIKILUAQ A","2303666","2022-03-12 11:00","2022","03","12","11:00"
"-79.25","56.54","SANIKILUAQ A","2303666","2022-03-12 12:00","2022","03","12","12:00"
"-79.25","56.54","SANIKILUAQ A","2303666","2022-03-12 13:00","2022","03","12","13:00","-24.0","","-26.9","","77","","","","24","","14","","24.1","","100.37","","","","-34","","Mainly Clear"
"-79.25","56.54","SANIKILUAQ A","2303666","2022-03-12 14:00","2022","03","12","14:00","-23.8","","-26.8","","77","","","","23","","14","","24.1","","100.33","","","","-33","","NA"
"-79.25","56.54","SANIKILUAQ A","2303666","2022-03-12 15:00","2022","03","12","15:00","-23.2","","-26.1","","78","","","","23","","16","","24.1","","100.28","","","","-33","","NA"
"-79.25","56.54","SANIKILUAQ A","2303666","2022-03-12 16:00","2022","03","12","16:00","-22.4","","-25.2","","78","","","","24","","19","","24.1","","100.25","","","","-33","","Mostly Cloudy"
"-79.25","56.54","SANIKILUAQ A","2303666","2022-03-12 17:00","2022","03","12","17:00","-22.7","","-25.6","","78","","","","22","","16","","24.1","","100.20","","","","-33","","NA"
"-79.25","56.54","SANIKILUAQ A","2303666","2022-03-12 18:00","2022","03","12","18:00"
"-79.25","56.54","SANIKILUAQ A","2303666","2022-03-12 19:00","2022","03","12","19:00"
"-79.25","56.54","SANIKILUAQ A","2303666","2022-03-12 20:00","2022","03","12","20:00","-23.3","","-26.2","","78","","","","22","","22","","24.1","","100.08","","","","-35","","NA"
"-79.25","56.54","SANIKILUAQ A","2303666","2022-03-12 21:00","2022","03","12","21:00"
"-79.25","56.54","SANIKILUAQ A","2303666","2022-03-12 22:00","2022","03","12","22:00"
"-79.25","56.54","SANIKILUAQ A","2303666","2022-03-12 23:00","2022","03","12","23:00"
"-79.25","56.54","SANIKILUAQ A","2303666","2022-03-13 00:00","2022","03","13","00:00"
"-79.25","56.54","SANIKILUAQ A","2303666","2022-03-13 01:00","2022","03","13","01:00"
"-79.25","56.54","SANIKILUAQ A","2303666","2022-03-13 02:00","2022","03","13","02:00"
"-79.25","56.54","SANIKILUAQ A","2303666","2022-03-13 03:00","2022","03","13","03:00"
"-79.25","56.54","SANIKILUAQ A","2303666","2022-03-13 04:00","2022","03","13","04:00"
"-79.25","56.54","SANIKILUAQ A","2303666","2022-03-13 05:00","2022","03","13","05:00"
"-79.25","56.54","SANIKILUAQ A","2303666","2022-03-13 06:00","2022","03","13","06:00"
"-79.25","56.54","SANIKILUAQ A","2303666","2022-03-13 07:00","2022","03","13","07:00"
"-79.25","56.54","SANIKILUAQ A","2303666","2022-03-13 08:00","2022","03","13","08:00","-26.2","","-29.2","","76","","","","29","","17","","24.1","","99.70","","","","-37","","NA"
"-79.25","56.54","SANIKILUAQ A","2303666","2022-03-13 09:00","2022","03","13","09:00","-25.6","","-28.6","","76","","","","30","","14","","24.1","","99.71","","","","-36","","NA"
"-79.25","56.54","SANIKILUAQ A","2303666","2022-03-13 10:00","2022","03","13","10:00","-25.8","","-28.8","","76","","","","25","","12","","24.1","","99.73","","","","-35","","Mainly Clear"
"-79.25","56.54","SANIKILUAQ A","2303666","2022-03-13 11:00","2022","03","13","11:00","-24.6","","-27.5","","77","","","","23","","14","","24.1","","99.71","","","","-34","","NA"
"-79.25","56.54","SANIKILUAQ A","2303666","2022-03-13 12:00","2022","03","13","12:00","-23.0","","-25.9","","78","","","","25","","21","","24.1","","99.73","","","","-35","","NA"
"-79.25","56.54","SANIKILUAQ A","2303666","2022-03-13 13:00","2022","03","13","13:00"
"-79.25","56.54","SANIKILUAQ A","2303666","2022-03-13 14:00","2022","03","13","14:00","-21.5","","-24.2","","79","","","","25","","31","","11.3","","99.76","","","","-35","","Ice Crystals,Blowing Snow"
"-79.25","56.54","SANIKILUAQ A","2303666","2022-03-13 15:00","2022","03","13","15:00","-21.3","","-24.1","","79","","","","25","","34","","11.3","","99.77","","","","-35","","Ice Crystals,Blowing Snow"
"-79.25","56.54","SANIKILUAQ A","2303666","2022-03-13 16:00","2022","03","13","16:00","-21.4","","-24.2","","78","","","","24","","31","","16.1","","99.79","","","","-35","","Ice Crystals,Blowing Snow"
"-79.25","56.54","SANIKILUAQ A","2303666","2022-03-13 17:00","2022","03","13","17:00"
"-79.25","56.54","SANIKILUAQ A","2303666","2022-03-13 18:00","2022","03","13","18:00"
"-79.25","56.54","SANIKILUAQ A","2303666","2022-03-13 19:00","2022","03","13","19:00"
"-79.25","56.54","SANIKILUAQ A","2303666","2022-03-13 20:00","2022","03","13","20:00"
"-79.25","56.54","SANIKILUAQ A","2303666","2022-03-13 21:00","2022","03","13","21:00"
"-79.25","56.54","SANIKILUAQ A","2303666","2022-03-13 22:00","2022","03","13","22:00"
"-79.25","56.54","SANIKILUAQ A","2303666","2022-03-13 23:00","2022","03","13","23:00"
"-79.25","56.54","SANIKILUAQ A","2303666","2022-03-14 00:00","2022","03","14","00:00"
"-79.25","56.54","SANIKILUAQ A","2303666","2022-03-14 01:00","2022","03","14","01:00"
"-79.25","56.54","SANIKILUAQ A","2303666","2022-03-14 02:00","2022","03","14","02:00","-22.4","","-25.1","","79","","","","26","","16","","11.3","","99.98","","","","-32","","Snow"
"-79.25","56.54","SANIKILUAQ A","2303666","2022-03-14 03:00","2022","03","14","03:00","-22.6","","-25.3","","79","","","","24","","16","","16.1","","99.95","","","","-33","","Snow"
"-79.25","56.54","SANIKILUAQ A","2303666","2022-03-14 04:00","2022","03","14","04:00","-22.4","","-25.1","","79","","","","24","","18","","16.1","","99.92","","","","-33","","Snow"
"-79.25","56.54","SANIKILUAQ A","2303666","2022-03-14 05:00","2022","03","14","05:00","-22.4","","-25.1","","79","","","","24","","23","","16.1","","99.94","","","","-34","","Snow"
"-79.25","56.54","SANIKILUAQ A","2303666","2022-03-14 06:00","2022","03","14","06:00"
"-79.25","56.54","SANIKILUAQ A","2303666","2022-03-14 07:00","2022","03","14","07:00"
"-79.25","56.54","SANIKILUAQ A","2303666","2022-03-14 08:00","2022","03","14","08:00"
"-79.25","56.54","SANIKILUAQ A","2303666","2022-03-14 09:00","2022","03","14","09:00","-24.6","","-27.5","","78","","","","25","","20","","24.1","","100.04","","","","-36","","NA"
"-79.25","56.54","SANIKILUAQ A","2303666","2022-03-14 10:00","2022","03","14","10:00","-23.8","","-26.7","","77","","","","26","","24","","11.3","","100.07","","","","-36","","Ice Crystals"
"-79.25","56.54","SANIKILUAQ A","2303666","2022-03-14 11:00","2022","03","14","11:00","-23.0","","-26.1","","76","","","","26","","28","","11.3","","100.09","","","","-36","","Ice Crystals"
"-79.25","56.54","SANIKILUAQ A","2303666","2022-03-14 12:00","2022","03","14","12:00","-22.3","","-25.9","","73","","","","27","","37","","6.4","","100.13","","","","-37","","Ice Crystals,Blowing Snow"
"-79.25","56.54","SANIKILUAQ A","2303666","2022-03-14 13:00","2022","03","14","13:00","-21.9","","-25.6","","73","","","","27","","37","","6.4","","100.17","","","","-36","","Ice Crystals,Blowing Snow"
"-79.25","56.54","SANIKILUAQ A","2303666","2022-03-14 14:00","2022","03","14","14:00","-21.7","","-25.6","","71","","","","27","","39","","6.4","","100.26","","","","-36","","Ice Crystals,Blowing Snow"
"-79.25","56.54","SANIKILUAQ A","2303666","2022-03-14 15:00","2022","03","14","15:00","-21.4","","-25.0","","73","","","","26","","40","","6.4","","100.31","","","","-36","","Ice Crystals,Blowing Snow"
"-79.25","56.54","SANIKILUAQ A","2303666","2022-03-14 16:00","2022","03","14","16:00","-21.3","","-24.5","","76","","","","27","","52","","6.4","","100.36","","","","-37","","Ice Crystals,Blowing Snow"
"-79.25","56.54","SANIKILUAQ A","2303666","2022-03-14 17:00","2022","03","14","17:00","-22.6","","-26.0","","74","","","","28","","37","","0.8","","100.51","","","","-37","","Ice Crystals,Blowing Snow"
"-79.25","56.54","SANIKILUAQ A","2303666","2022-03-14 18:00","2022","03","14","18:00"
"-79.25","56.54","SANIKILUAQ A","2303666","2022-03-14 19:00","2022","03","14","19:00"
"-79.25","56.54","SANIKILUAQ A","2303666","2022-03-14 20:00","2022","03","14","20:00"
"-79.25","56.54","SANIKILUAQ A","2303666","2022-03-14 21:00","2022","03","14","21:00"
"-79.25","56.54","SANIKILUAQ A","2303666","2022-03-14 22:00","2022","03","14","22:00"
"-79.25","56.54","SANIKILUAQ A","2303666","2022-03-14 23:00","2022","03","14","23:00"
"-79.25","56.54","SANIKILUAQ A","2303666","2022-03-15 00:00","2022","03","15","00:00"
"-79.25","56.54","SANIKILUAQ A","2303666","2022-03-15 01:00","2022","03","15","01:00"
"-79.25","56.54","SANIKILUAQ A","2303666","2022-03-15 02:00","2022","03","15","02:00"
"-79.25","56.54","SANIKILUAQ A","2303666","2022-03-15 03:00","2022","03","15","03:00"
"-79.25","56.54","SANIKILUAQ A","2303666","2022-03-15 04:00","2022","03","15","04:00"
"-79.25","56.54","SANIKILUAQ A","2303666","2022-03-15 05:00","2022","03","15","05:00"
"-79.25","56.54","SANIKILUAQ A","2303666","2022-03-15 06:00","2022","03","15","06:00"
"-79.25","56.54","SANIKILUAQ A","2303666","2022-03-15 07:00","2022","03","15","07:00","-26.8","","-29.9","","76","","","","22","","27","","19.3","","101.14","","","","-41","","Ice Crystals,Blowing Snow"
"-79.25","56.54","SANIKILUAQ A","2303666","2022-03-15 08:00","2022","03","15","08:00","-26.0","","-29.1","","76","","","","22","","27","","19.3","","101.18","","","","-40","","Ice Crystals,Blowing Snow"
"-79.25","56.54","SANIKILUAQ A","2303666","2022-03-15 09:00","2022","03","15","09:00","-24.7","","-27.9","","75","","","","23","","27","","19.3","","101.23","","","","-38","","Ice Crystals,Blowing Snow"
"-79.25","56.54","SANIKILUAQ A","2303666","2022-03-15 10:00","2022","03","15","10:00","-23.4","","-26.8","","74","","","","23","","30","","19.3","","101.26","","","","-37","","Ice Crystals,Blowing Snow"
"-79.25","56.54","SANIKILUAQ A","2303666","2022-03-15 11:00","2022","03","15","11:00","-22.2","","-25.7","","74","","","","22","","34","","19.3","","101.23","","","","-36","","Ice Crystals,Blowing Snow"
"-79.25","56.54","SANIKILUAQ A","2303666","2022-03-15 12:00","2022","03","15","12:00","-21.0","","-24.6","","73","","","","22","","35","","19.3","","101.23","","","","-35","","Ice Crystals,Blowing Snow"
"-79.25","56.54","SANIKILUAQ A","2303666","2022-03-15 13:00","2022","03","15","13:00","-19.6","","-23.5","","72","","","","22","","30","","19.3","","101.25","","","","-32","","Ice Crystals,Blowing Snow"
"-79.25","56.54","SANIKILUAQ A","2303666","2022-03-15 14:00","2022","03","15","14:00","-18.8","","-23.0","","70","","","","23","","32","","19.3","","101.22","","","","-31","","Ice Crystals,Blowing Snow"
"-79.25","56.54","SANIKILUAQ A","2303666","2022-03-15 15:00","2022","03","15","15:00","-18.3","","-22.2","","72","","","","22","","26","","24.1","","101.20","","","","-30","","Ice Crystals,Blowing Snow"
"-79.25","56.54","SANIKILUAQ A","2303666","2022-03-15 16:00","2022","03","15","16:00","-18.3","","-22.2","","72","","","","22","","25","","24.1","","101.17","","","","-29","","Blowing Snow"
"-79.25","56.54","SANIKILUAQ A","2303666","2022-03-15 17:00","2022","03","15","17:00","-18.8","","-22.4","","74","","","","22","","29","","24.1","","101.14","","","","-31","","NA"
"-79.25","56.54","SANIKILUAQ A","2303666","2022-03-15 18:00","2022","03","15","18:00"
"-79.25","56.54","SANIKILUAQ A","2303666","2022-03-15 19:00","2022","03","15","19:00"
"-79.25","56.54","SANIKILUAQ A","2303666","2022-03-15 20:00","2022","03","15","20:00"
"-79.25","56.54","SANIKILUAQ A","2303666","2022-03-15 21:00","2022","03","15","21:00"
"-79.25","56.54","SANIKILUAQ A","2303666","2022-03-15 22:00","2022","03","15","22:00"
"-79.25","56.54","SANIKILUAQ A","2303666","2022-03-15 23:00","2022","03","15","23:00"
"-79.25","56.54","SANIKILUAQ A","2303666","2022-03-16 00:00","2022","03","16","00:00"
"-79.25","56.54","SANIKILUAQ A","2303666","2022-03-16 01:00","2022","03","16","01:00"
"-79.25","56.54","SANIKILUAQ A","2303666","2022-03-16 02:00","2022","03","16","02:00"
"-79.25","56.54","SANIKILUAQ A","2303666","2022-03-16 03:00","2022","03","16","03:00"
"-79.25","56.54","SANIKILUAQ A","2303666","2022-03-16 04:00","2022","03","16","04:00"
"-79.25","56.54","SANIKILUAQ A","2303666","2022-03-16 05:00","2022","03","16","05:00"
"-79.25","56.54","SANIKILUAQ A","2303666","2022-03-16 06:00","2022","03","16","06:00"
"-79.25","56.54","SANIKILUAQ A","2303666","2022-03-16 07:00","2022","03","16","07:00","-22.9","","-25.6","","79","","","","23","","25","","24.1","","101.00","","","","-35","","Clear"
"-79.25","56.54","SANIKILUAQ A","2303666","2022-03-16 08:00","2022","03","16","08:00","-22.8","","-25.6","","79","","","","21","","27","","24.1","","101.03","","","","-36","","NA"
"-79.25","56.54","SANIKILUAQ A","2303666","2022-03-16 09:00","2022","03","16","09:00","-21.6","","-24.5","","78","","","","22","","25","","24.1","","101.05","","","","-34","","NA"
"-79.25","56.54","SANIKILUAQ A","2303666","2022-03-16 10:00","2022","03","16","10:00","-20.8","","-24.0","","76","","","","21","","26","","24.1","","101.06","","","","-33","","Clear"
"-79.25","56.54","SANIKILUAQ A","2303666","2022-03-16 11:00","2022","03","16","11:00","-19.2","","-23.3","","70","","","","21","","22","","24.1","","101.05","","","","-30","","NA"
"-79.25","56.54","SANIKILUAQ A","2303666","2022-03-16 12:00","2022","03","16","12:00","-18.5","","-21.9","","75","","","","20","","23","","24.1","","101.06","","","","-29","","NA"
"-79.25","56.54","SANIKILUAQ A","2303666","2022-03-16 13:00","2022","03","16","13:00","-17.2","","-20.9","","74","","","","20","","27","","24.1","","101.03","","","","-28","","Mainly Clear"
"-79.25","56.54","SANIKILUAQ A","2303666","2022-03-16 14:00","2022","03","16","14:00","-15.8","","-19.7","","72","","","","21","","31","","24.1","","101.02","","","","-27","","NA"
"-79.25","56.54","SANIKILUAQ A","2303666","2022-03-16 15:00","2022","03","16","15:00","-14.6","","-18.7","","71","","","","21","","32","","24.1","","100.98","","","","-26","","NA"
"-79.25","56.54","SANIKILUAQ A","2303666","2022-03-16 16:00","2022","03","16","16:00","-14.8","","-18.9","","71","","","","21","","35","","24.1","","100.98","","","","-27","","Mostly Cloudy"
"-79.25","56.54","SANIKILUAQ A","2303666","2022-03-16 17:00","2022","03","16","17:00","-15.6","","-19.2","","75","","","","20","","27","","24.1","","100.93","","","","-26","","NA"
"-79.25","56.54","SANIKILUAQ A","2303666","2022-03-16 18:00","2022","03","16","18:00"
"-79.25","56.54","SANIKILUAQ A","2303666","2022-03-16 19:00","2022","03","16","19:00"
"-79.25","56.54","SANIKILUAQ A","2303666","2022-03-16 20:00","2022","03","16","20:00"
"-79.25","56.54","SANIKILUAQ A","2303666","2022-03-16 21:00","2022","03","16","21:00"
"-79.25","56.54","SANIKILUAQ A","2303666","2022-03-16 22:00","2022","03","16","22:00"
"-79.25","56.54","SANIKILUAQ A","2303666","2022-03-16 23:00","2022","03","16","23:00"
"-79.25","56.54","SANIKILUAQ A","2303666","2022-03-17 00:00","2022","03","17","00:00"
"-79.25","56.54","SANIKILUAQ A","2303666","2022-03-17 01:00","2022","03","17","01:00"
"-79.25","56.54","SANIKILUAQ A","2303666","2022-03-17 02:00","2022","03","17","02:00"
"-79.25","56.54","SANIKILUAQ A","2303666","2022-03-17 03:00","2022","03","17","03:00","-16.5","","-19.3","","79","","","","21","","29","","24.1","","100.64","","","","-28","","NA"
"-79.25","56.54","SANIKILUAQ A","2303666","2022-03-17 04:00","2022","03","17","04:00","-16.9","","-19.6","","80","","","","21","","29","","24.1","","100.62","","","","-28","","Mainly Clear"
"-79.25","56.54","SANIKILUAQ A","2303666","2022-03-17 05:00","2022","03","17","05:00","-17.2","","-19.6","","81","","","","21","","28","","24.1","","100.62","","","","-29","","NA"
"-79.25","56.54","SANIKILUAQ A","2303666","2022-03-17 06:00","2022","03","17","06:00"
"-79.25","56.54","SANIKILUAQ A","2303666","2022-03-17 07:00","2022","03","17","07:00","-17.6","","-19.7","","84","","","","22","","30","","24.1","","100.58","","","","-29","","Mainly Clear"
"-79.25","56.54","SANIKILUAQ A","2303666","2022-03-17 08:00","2022","03","17","08:00","-17.5","","-19.7","","83","","","","22","","27","","24.1","","100.63","","","","-29","","NA"
"-79.25","56.54","SANIKILUAQ A","2303666","2022-03-17 09:00","2022","03","17","09:00","-17.4","","-19.5","","83","","","","24","","30","","24.1","","100.63","","","","-29","","NA"
"-79.25","56.54","SANIKILUAQ A","2303666","2022-03-17 10:00","2022","03","17","10:00","-17.0","","-19.2","","83","","","","24","","28","","24.1","","100.66","","","","-28","","Mainly Clear"
"-79.25","56.54","SANIKILUAQ A","2303666","2022-03-17 11:00","2022","03","17","11:00","-16.5","","-18.9","","82","","","","25","","25","","24.1","","100.68","","","","-27","","NA"
"-79.25","56.54","SANIKILUAQ A","2303666","2022-03-17 12:00","2022","03","17","12:00","-15.9","","-18.4","","82","","","","24","","25","","24.1","","100.66","","","","-26","","NA"
"-79.25","56.54","SANIKILUAQ A","2303666","2022-03-17 13:00","2022","03","17","13:00","-15.1","","-17.8","","80","","","","23","","27","","24.1","","100.68","","","","-26","","Clear"
"-79.25","56.54","SANIKILUAQ A","2303666","2022-03-17 14:00","2022","03","17","14:00","-14.1","","-16.8","","80","","","","23","","20","","24.1","","100.72","","","","-23","","NA"
"-79.25","56.54","SANIKILUAQ A","2303666","2022-03-17 15:00","2022","03","17","15:00","-13.2","","-16.3","","78","","","","24","","22","","24.1","","100.73","","","","-22","","NA"
"-79.25","56.54","SANIKILUAQ A","2303666","2022-03-17 16:00","2022","03","17","16:00","-13.5","","-16.6","","78","","","","26","","21","","24.1","","100.78","","","","-22","","Clear"
"-79.25","56.54","SANIKILUAQ A","2303666","2022-03-17 17:00","2022","03","17","17:00","-14.7","","-17.4","","80","","","","27","","18","","24.1","","100.82","","","","-23","","NA"
"-79.25","56.54","SANIKILUAQ A","2303666","2022-03-17 18:00","2022","03","17","18:00"
"-79.25","56.54","SANIKILUAQ A","2303666","2022-03-17 19:00","2022","03","17","19:00"
"-79.25","56.54","SANIKILUAQ A","2303666","2022-03-17 20:00","2022","03","17","20:00"
"-79.25","56.54","SANIKILUAQ A","2303666","2022-03-17 21:00","2022","03","17","21:00"
"-79.25","56.54","SANIKILUAQ A","2303666","2022-03-17 22:00","2022","03","17","22:00"
"-79.25","56.54","SANIKILUAQ A","2303666","2022-03-17 23:00","2022","03","17","23:00"
"-79.25","56.54","SANIKILUAQ A","2303666","2022-03-18 00:00","2022","03","18","00:00"
"-79.25","56.54","SANIKILUAQ A","2303666","2022-03-18 01:00","2022","03","18","01:00"
"-79.25","56.54","SANIKILUAQ A","2303666","2022-03-18 02:00","2022","03","18","02:00"
"-79.25","56.54","SANIKILUAQ A","2303666","2022-03-18 03:00","2022","03","18","03:00"
"-79.25","56.54","SANIKILUAQ A","2303666","2022-03-18 04:00","2022","03","18","04:00"
"-79.25","56.54","SANIKILUAQ A","2303666","2022-03-18 05:00","2022","03","18","05:00"
"-79.25","56.54","SANIKILUAQ A","2303666","2022-03-18 06:00","2022","03","18","06:00"
"-79.25","56.54","SANIKILUAQ A","2303666","2022-03-18 07:00","2022","03","18","07:00","-17.6","","-20.0","","82","","","","23","","28","","24.1","","101.10","","","","-29","","Mostly Cloudy"
"-79.25","56.54","SANIKILUAQ A","2303666","2022-03-18 08:00","2022","03","18","08:00","-17.3","","-19.6","","83","","","","21","","28","","24.1","","101.12","","","","-29","","NA"
"-79.25","56.54","SANIKILUAQ A","2303666","2022-03-18 09:00","2022","03","18","09:00","-16.4","","-18.9","","82","","","","19","","22","","24.1","","101.13","","","","-26","","NA"
"-79.25","56.54","SANIKILUAQ A","2303666","2022-03-18 10:00","2022","03","18","10:00","-14.6","","-17.7","","77","","","","20","","26","","24.1","","101.14","","","","-25","","Mostly Cloudy"
"-79.25","56.54","SANIKILUAQ A","2303666","2022-03-18 11:00","2022","03","18","11:00","-13.3","","-16.3","","79","","","","19","","26","","19.3","","101.12","","","","-23","","Snow"
"-79.25","56.54","SANIKILUAQ A","2303666","2022-03-18 12:00","2022","03","18","12:00","-11.6","","-14.7","","78","","","","19","","25","","24.1","","101.10","","","","-21","","Snow"
"-79.25","56.54","SANIKILUAQ A","2303666","2022-03-18 13:00","2022","03","18","13:00","-10.1","","-13.0","","80","","","","18","","26","","24.1","","101.07","","","","-19","","Mostly Cloudy"
"-79.25","56.54","SANIKILUAQ A","2303666","2022-03-18 14:00","2022","03","18","14:00","-9.5","","-12.2","","81","","","","18","","23","","24.1","","101.06","","","","-18","","NA"
"-79.25","56.54","SANIKILUAQ A","2303666","2022-03-18 15:00","2022","03","18","15:00","-8.4","","-10.8","","83","","","","18","","29","","24.1","","101.02","","","","-17","","NA"
"-79.25","56.54","SANIKILUAQ A","2303666","2022-03-18 16:00","2022","03","18","16:00","-7.9","","-10.1","","84","","","","18","","30","","19.3","","101.03","","","","-17","","Snow,Blowing Snow"
"-79.25","56.54","SANIKILUAQ A","2303666","2022-03-18 17:00","2022","03","18","17:00","-7.9","","-9.9","","86","","","","19","","34","","19.3","","101.01","","","","-17","","Snow,Blowing Snow"
"-79.25","56.54","SANIKILUAQ A","2303666","2022-03-18 18:00","2022","03","18","18:00"
"-79.25","56.54","SANIKILUAQ A","2303666","2022-03-18 19:00","2022","03","18","19:00","-8.1","","-9.5","","89","","","","19","","22","","19.3","","101.00","","","","-16","","Snow"
"-79.25","56.54","SANIKILUAQ A","2303666","2022-03-18 20:00","2022","03","18","20:00"
"-79.25","56.54","SANIKILUAQ A","2303666","2022-03-18 21:00","2022","03","18","21:00"
"-79.25","56.54","SANIKILUAQ A","2303666","2022-03-18 22:00","2022","03","18","22:00"
"-79.25","56.54","SANIKILUAQ A","2303666","2022-03-18 23:00","2022","03","18","23:00"
"-79.25","56.54","SANIKILUAQ A","2303666","2022-03-19 00:00","2022","03","19","00:00"
"-79.25","56.54","SANIKILUAQ A","2303666","2022-03-19 01:00","2022","03","19","01:00"
"-79.25","56.54","SANIKILUAQ A","2303666","2022-03-19 02:00","2022","03","19","02:00"
"-79.25","56.54","SANIKILUAQ A","2303666","2022-03-19 03:00","2022","03","19","03:00"
"-79.25","56.54","SANIKILUAQ A","2303666","2022-03-19 04:00","2022","03","19","04:00"
"-79.25","56.54","SANIKILUAQ A","2303666","2022-03-19 05:00","2022","03","19","05:00"
"-79.25","56.54","SANIKILUAQ A","2303666","2022-03-19 06:00","2022","03","19","06:00"
"-79.25","56.54","SANIKILUAQ A","2303666","2022-03-19 07:00","2022","03","19","07:00"
"-79.25","56.54","SANIKILUAQ A","2303666","2022-03-19 08:00","2022","03","19","08:00"
"-79.25","56.54","SANIKILUAQ A","2303666","2022-03-19 09:00","2022","03","19","09:00"
"-79.25","56.54","SANIKILUAQ A","2303666","2022-03-19 10:00","2022","03","19","10:00"
"-79.25","56.54","SANIKILUAQ A","2303666","2022-03-19 11:00","2022","03","19","11:00"
"-79.25","56.54","SANIKILUAQ A","2303666","2022-03-19 12:00","2022","03","19","12:00"
"-79.25","56.54","SANIKILUAQ A","2303666","2022-03-19 13:00","2022","03","19","13:00"
"-79.25","56.54","SANIKILUAQ A","2303666","2022-03-19 14:00","2022","03","19","14:00"
"-79.25","56.54","SANIKILUAQ A","2303666","2022-03-19 15:00","2022","03","19","15:00"
"-79.25","56.54","SANIKILUAQ A","2303666","2022-03-19 16:00","2022","03","19","16:00"
"-79.25","56.54","SANIKILUAQ A","2303666","2022-03-19 17:00","2022","03","19","17:00"
"-79.25","56.54","SANIKILUAQ A","2303666","2022-03-19 18:00","2022","03","19","18:00"
"-79.25","56.54","SANIKILUAQ A","2303666","2022-03-19 19:00","2022","03","19","19:00"
"-79.25","56.54","SANIKILUAQ A","2303666","2022-03-19 20:00","2022","03","19","20:00"
"-79.25","56.54","SANIKILUAQ A","2303666","2022-03-19 21:00","2022","03","19","21:00"
"-79.25","56.54","SANIKILUAQ A","2303666","2022-03-19 22:00","2022","03","19","22:00"
"-79.25","56.54","SANIKILUAQ A","2303666","2022-03-19 23:00","2022","03","19","23:00"
"-79.25","56.54","SANIKILUAQ A","2303666","2022-03-20 00:00","2022","03","20","00:00"
"-79.25","56.54","SANIKILUAQ A","2303666","2022-03-20 01:00","2022","03","20","01:00"
"-79.25","56.54","SANIKILUAQ A","2303666","2022-03-20 02:00","2022","03","20","02:00"
"-79.25","56.54","SANIKILUAQ A","2303666","2022-03-20 03:00","2022","03","20","03:00"
"-79.25","56.54","SANIKILUAQ A","2303666","2022-03-20 04:00","2022","03","20","04:00"
"-79.25","56.54","SANIKILUAQ A","2303666","2022-03-20 05:00","2022","03","20","05:00"
"-79.25","56.54","SANIKILUAQ A","2303666","2022-03-20 06:00","2022","03","20","06:00"
"-79.25","56.54","SANIKILUAQ A","2303666","2022-03-20 07:00","2022","03","20","07:00"
"-79.25","56.54","SANIKILUAQ A","2303666","2022-03-20 08:00","2022","03","20","08:00","-8.5","","-12.2","","74","","","","19","","7","","24.1","","100.23","","","","-12","","NA"
"-79.25","56.54","SANIKILUAQ A","2303666","2022-03-20 09:00","2022","03","20","09:00","-7.6","","-11.6","","73","","","","36","","3","","24.1","","100.22","","","","-9","","NA"
"-79.25","56.54","SANIKILUAQ A","2303666","2022-03-20 10:00","2022","03","20","10:00","-6.8","","-9.9","","78","","","","12","","4","","24.1","","100.22","","","","-9","","Mostly Cloudy"
"-79.25","56.54","SANIKILUAQ A","2303666","2022-03-20 11:00","2022","03","20","11:00","-7.3","","-10.5","","78","","","","35","","6","","24.1","","100.23","","","","-10","","NA"
"-79.25","56.54","SANIKILUAQ A","2303666","2022-03-20 12:00","2022","03","20","12:00","-6.2","","-9.4","","78","","","","35","","3","","24.1","","100.24","","","","-8","","NA"
"-79.25","56.54","SANIKILUAQ A","2303666","2022-03-20 13:00","2022","03","20","13:00"
"-79.25","56.54","SANIKILUAQ A","2303666","2022-03-20 14:00","2022","03","20","14:00"
"-79.25","56.54","SANIKILUAQ A","2303666","2022-03-20 15:00","2022","03","20","15:00"
"-79.25","56.54","SANIKILUAQ A","2303666","2022-03-20 16:00","2022","03","20","16:00"
"-79.25","56.54","SANIKILUAQ A","2303666","2022-03-20 17:00","2022","03","20","17:00","-6.3","","-8.0","","88","","","","35","","26","","24.1","","100.41","","","","-14","","NA"
"-79.25","56.54","SANIKILUAQ A","2303666","2022-03-20 18:00","2022","03","20","18:00","-8.0","","-9.5","","89","","","","34","","37","","24.1","","100.49","","","","-18","","NA"
"-79.25","56.54","SANIKILUAQ A","2303666","2022-03-20 19:00","2022","03","20","19:00","-9.2","","-10.7","","89","","","","34","","40","","16.1","","100.57","","","","-20","","Mostly Cloudy"
"-79.25","56.54","SANIKILUAQ A","2303666","2022-03-20 20:00","2022","03","20","20:00","-9.8","","-11.4","","88","","","","34","","40","","16.1","","100.59","","","","-20","","Blowing Snow"
"-79.25","56.54","SANIKILUAQ A","2303666","2022-03-20 21:00","2022","03","20","21:00"
"-79.25","56.54","SANIKILUAQ A","2303666","2022-03-20 22:00","2022","03","20","22:00"
"-79.25","56.54","SANIKILUAQ A","2303666","2022-03-20 23:00","2022","03","20","23:00"
"-79.25","56.54","SANIKILUAQ A","2303666","2022-03-21 00:00","2022","03","21","00:00"
"-79.25","56.54","SANIKILUAQ A","2303666","2022-03-21 01:00","2022","03","21","01:00"
"-79.25","56.54","SANIKILUAQ A","2303666","2022-03-21 02:00","2022","03","21","02:00"
"-79.25","56.54","SANIKILUAQ A","2303666","2022-03-21 03:00","2022","03","21","03:00"
"-79.25","56.54","SANIKILUAQ A","2303666","2022-03-21 04:00","2022","03","21","04:00"
"-79.25","56.54","SANIKILUAQ A","2303666","2022-03-21 05:00","2022","03","21","05:00"
"-79.25","56.54","SANIKILUAQ A","2303666","2022-03-21 06:00","2022","03","21","06:00"
"-79.25","56.54","SANIKILUAQ A","2303666","2022-03-21 07:00","2022","03","21","07:00","-14.9","","-17.1","","84","","","","33","","50","","8.1","","101.23","","","","-28","","Ice Crystals,Blowing Snow"
"-79.25","56.54","SANIKILUAQ A","2303666","2022-03-21 08:00","2022","03","21","08:00","-15.3","","-17.5","","83","","","","33","","47","","6.4","","101.30","","","","-29","","Ice Crystals,Blowing Snow"
"-79.25","56.54","SANIKILUAQ A","2303666","2022-03-21 09:00","2022","03","21","09:00","-15.1","","-17.4","","83","","","","33","","47","","8.1","","101.35","","","","-28","","Ice Crystals,Blowing Snow"
"-79.25","56.54","SANIKILUAQ A","2303666","2022-03-21 10:00","2022","03","21","10:00","-14.2","","-16.6","","82","","","","33","","45","","11.3","","101.42","","","","-27","","Blowing Snow"
"-79.25","56.54","SANIKILUAQ A","2303666","2022-03-21 11:00","2022","03","21","11:00","-13.4","","-16.0","","82","","","","33","","44","","11.3","","101.49","","","","-26","","Blowing Snow"
"-79.25","56.54","SANIKILUAQ A","2303666","2022-03-21 12:00","2022","03","21","12:00","-13.2","","-15.7","","82","","","","33","","51","","11.3","","101.51","","","","-26","","Blowing Snow"
"-79.25","56.54","SANIKILUAQ A","2303666","2022-03-21 13:00","2022","03","21","13:00","-12.4","","-14.9","","82","","","","34","","45","","16.1","","101.60","","","","-25","","Blowing Snow"
"-79.25","56.54","SANIKILUAQ A","2303666","2022-03-21 14:00","2022","03","21","14:00","-12.0","","-14.6","","82","","","","34","","50","","16.1","","101.62","","","","-24","","Blowing Snow"
"-79.25","56.54","SANIKILUAQ A","2303666","2022-03-21 15:00","2022","03","21","15:00","-12.3","","-14.7","","83","","","","33","","54","","16.1","","101.66","","","","-25","","Blowing Snow"
"-79.25","56.54","SANIKILUAQ A","2303666","2022-03-21 16:00","2022","03","21","16:00","-12.7","","-15.0","","83","","","","33","","49","","16.1","","101.81","","","","-25","","Blowing Snow"
"-79.25","56.54","SANIKILUAQ A","2303666","2022-03-21 17:00","2022","03","21","17:00","-12.9","","-15.2","","83","","","","33","","43","","16.1","","101.94","","","","-25","","Blowing Snow"
"-79.25","56.54","SANIKILUAQ A","2303666","2022-03-21 18:00","2022","03","21","18:00"
"-79.25","56.54","SANIKILUAQ A","2303666","2022-03-21 19:00","2022","03","21","19:00"
"-79.25","56.54","SANIKILUAQ A","2303666","2022-03-21 20:00","2022","03","21","20:00"
"-79.25","56.54","SANIKILUAQ A","2303666","2022-03-21 21:00","2022","03","21","21:00"
"-79.25","56.54","SANIKILUAQ A","2303666","2022-03-21 22:00","2022","03","21","22:00"
"-79.25","56.54","SANIKILUAQ A","2303666","2022-03-21 23:00","2022","03","21","23:00"
"-79.25","56.54","SANIKILUAQ A","2303666","2022-03-22 00:00","2022","03","22","00:00"
"-79.25","56.54","SANIKILUAQ A","2303666","2022-03-22 01:00","2022","03","22","01:00"
"-79.25","56.54","SANIKILUAQ A","2303666","2022-03-22 02:00","2022","03","22","02:00"
"-79.25","56.54","SANIKILUAQ A","2303666","2022-03-22 03:00","2022","03","22","03:00"
"-79.25","56.54","SANIKILUAQ A","2303666","2022-03-22 04:00","2022","03","22","04:00"
"-79.25","56.54","SANIKILUAQ A","2303666","2022-03-22 05:00","2022","03","22","05:00"
"-79.25","56.54","SANIKILUAQ A","2303666","2022-03-22 06:00","2022","03","22","06:00"
"-79.25","56.54","SANIKILUAQ A","2303666","2022-03-22 07:00","2022","03","22","07:00","-18.2","","-21.0","","79","","","","36","","26","","24.1","","102.84","","","","-29","","Mainly Clear"
"-79.25","56.54","SANIKILUAQ A","2303666","2022-03-22 08:00","2022","03","22","08:00","-18.1","","-21.1","","78","","","","36","","25","","24.1","","102.88","","","","-29","","NA"
"-79.25","56.54","SANIKILUAQ A","2303666","2022-03-22 09:00","2022","03","22","09:00","-17.5","","-20.5","","78","","","","3","","9","","24.1","","102.94","","","","-24","","NA"
"-79.25","56.54","SANIKILUAQ A","2303666","2022-03-22 10:00","2022","03","22","10:00","-16.4","","-19.3","","79","","","","3","","14","","24.1","","102.97","","","","-24","","Clear"
"-79.25","56.54","SANIKILUAQ A","2303666","2022-03-22 11:00","2022","03","22","11:00","-15.3","","-18.1","","79","","","","5","","12","","24.1","","102.91","","","","-22","","NA"
"-79.25","56.54","SANIKILUAQ A","2303666","2022-03-22 12:00","2022","03","22","12:00","-13.9","","-16.6","","81","","","","4","","12","","24.1","","102.93","","","","-21","","NA"
"-79.25","56.54","SANIKILUAQ A","2303666","2022-03-22 13:00","2022","03","22","13:00","-12.8","","-15.4","","81","","","","3","","15","","24.1","","102.99","","","","-20","","Clear"
"-79.25","56.54","SANIKILUAQ A","2303666","2022-03-22 14:00","2022","03","22","14:00","-11.9","","-14.6","","81","","","","4","","19","","24.1","","102.98","","","","-20","","NA"
"-79.25","56.54","SANIKILUAQ A","2303666","2022-03-22 15:00","2022","03","22","15:00","-11.3","","-14.0","","81","","","","5","","18","","24.1","","102.97","","","","-19","","NA"
"-79.25","56.54","SANIKILUAQ A","2303666","2022-03-22 16:00","2022","03","22","16:00","-11.2","","-13.7","","82","","","","4","","7","","24.1","","103.06","","","","-15","","Clear"
"-79.25","56.54","SANIKILUAQ A","2303666","2022-03-22 17:00","2022","03","22","17:00","-11.4","","-14.0","","82","","","","31","","5","","24.1","","103.15","","","","-15","","NA"
"-79.25","56.54","SANIKILUAQ A","2303666","2022-03-22 18:00","2022","03","22","18:00"
"-79.25","56.54","SANIKILUAQ A","2303666","2022-03-22 19:00","2022","03","22","19:00"
"-79.25","56.54","SANIKILUAQ A","2303666","2022-03-22 20:00","2022","03","22","20:00"
"-79.25","56.54","SANIKILUAQ A","2303666","2022-03-22 21:00","2022","03","22","21:00"
"-79.25","56.54","SANIKILUAQ A","2303666","2022-03-22 22:00","2022","03","22","22:00"
"-79.25","56.54","SANIKILUAQ A","2303666","2022-03-22 23:00","2022","03","22","23:00"
"-79.25","56.54","SANIKILUAQ A","2303666","2022-03-23 00:00","2022","03","23","00:00"
"-79.25","56.54","SANIKILUAQ A","2303666","2022-03-23 01:00","2022","03","23","01:00"
"-79.25","56.54","SANIKILUAQ A","2303666","2022-03-23 02:00","2022","03","23","02:00"
"-79.25","56.54","SANIKILUAQ A","2303666","2022-03-23 03:00","2022","03","23","03:00"
"-79.25","56.54","SANIKILUAQ A","2303666","2022-03-23 04:00","2022","03","23","04:00"
"-79.25","56.54","SANIKILUAQ A","2303666","2022-03-23 05:00","2022","03","23","05:00"
"-79.25","56.54","SANIKILUAQ A","2303666","2022-03-23 06:00","2022","03","23","06:00"
"-79.25","56.54","SANIKILUAQ A","2303666","2022-03-23 07:00","2022","03","23","07:00","-11.1","","-14.1","","78","","","","16","","37","","24.1","","102.62","","","","-22","","Mostly Cloudy"
"-79.25","56.54","SANIKILUAQ A","2303666","2022-03-23 08:00","2022","03","23","08:00","-9.6","","-13.0","","77","","","","16","","35","","24.1","","102.57","","","","-20","","NA"
"-79.25","56.54","SANIKILUAQ A","2303666","2022-03-23 09:00","2022","03","23","09:00","-9.7","","-12.8","","78","","","","17","","31","","24.1","","102.52","","","","-19","","NA"
"-79.25","56.54","SANIKILUAQ A","2303666","2022-03-23 10:00","2022","03","23","10:00","-8.4","","-11.7","","77","","","","16","","37","","24.1","","102.46","","","","-18","","Mostly Cloudy"
"-79.25","56.54","SANIKILUAQ A","2303666","2022-03-23 11:00","2022","03","23","11:00","-7.6","","-10.6","","79","","","","17","","36","","24.1","","102.38","","","","-17","","NA"
"-79.25","56.54","SANIKILUAQ A","2303666","2022-03-23 12:00","2022","03","23","12:00","-7.1","","-10.1","","80","","","","17","","34","","24.1","","102.35","","","","-16","","NA"
"-79.25","56.54","SANIKILUAQ A","2303666","2022-03-23 13:00","2022","03","23","13:00","-6.8","","-9.5","","81","","","","18","","36","","24.1","","102.31","","","","-16","","Mostly Cloudy"
"-79.25","56.54","SANIKILUAQ A","2303666","2022-03-23 14:00","2022","03","23","14:00","-6.2","","-8.8","","82","","","","18","","32","","24.1","","102.26","","","","-15","","NA"
"-79.25","56.54","SANIKILUAQ A","2303666","2022-03-23 15:00","2022","03","23","15:00","-5.8","","-8.3","","82","","","","18","","31","","24.1","","102.19","","","","-14","","NA"
"-79.25","56.54","SANIKILUAQ A","2303666","2022-03-23 16:00","2022","03","23","16:00","-5.4","","-8.3","","81","","","","17","","36","","24.1","","102.11","","","","-14","","Mostly Cloudy"
"-79.25","56.54","SANIKILUAQ A","2303666","2022-03-23 17:00","2022","03","23","17:00","-5.5","","-8.2","","81","","","","17","","37","","24.1","","102.00","","","","-14","","NA"
"-79.25","56.54","SANIKILUAQ A","2303666","2022-03-23 18:00","2022","03","23","18:00"
"-79.25","56.54","SANIKILUAQ A","2303666","2022-03-23 19:00","2022","03","23","19:00"
"-79.25","56.54","SANIKILUAQ A","2303666","2022-03-23 20:00","2022","03","23","20:00"
"-79.25","56.54","SANIKILUAQ A","2303666","2022-03-23 21:00","2022","03","23","21:00"
"-79.25","56.54","SANIKILUAQ A","2303666","2022-03-23 22:00","2022","03","23","22:00"
"-79.25","56.54","SANIKILUAQ A","2303666","2022-03-23 23:00","2022","03","23","23:00"
"-79.25","56.54","SANIKILUAQ A","2303666","2022-03-24 00:00","2022","03","24","00:00"
"-79.25","56.54","SANIKILUAQ A","2303666","2022-03-24 01:00","2022","03","24","01:00"
"-79.25","56.54","SANIKILUAQ A","2303666","2022-03-24 02:00","2022","03","24","02:00"
"-79.25","56.54","SANIKILUAQ A","2303666","2022-03-24 03:00","2022","03","24","03:00"
"-79.25","56.54","SANIKILUAQ A","2303666","2022-03-24 04:00","2022","03","24","04:00"
"-79.25","56.54","SANIKILUAQ A","2303666","2022-03-24 05:00","2022","03","24","05:00","-9.1","","-11.6","","82","","","","18","","15","","24.1","","101.48","","","","-16","","NA"
"-79.25","56.54","SANIKILUAQ A","2303666","2022-03-24 06:00","2022","03","24","06:00","-10.4","","-12.6","","84","","","","18","","14","","24.1","","101.44","","","","-17","","NA"
"-79.25","56.54","SANIKILUAQ A","2303666","2022-03-24 07:00","2022","03","24","07:00","-10.6","","-12.8","","84","","","","19","","13","","24.1","","101.43","","","","-17","","Mainly Clear"
"-79.25","56.54","SANIKILUAQ A","2303666","2022-03-24 08:00","2022","03","24","08:00","-9.4","","-12.0","","82","","","","19","","12","","24.1","","101.37","","","","-15","","NA"
"-79.25","56.54","SANIKILUAQ A","2303666","2022-03-24 09:00","2022","03","24","09:00","-7.8","","-10.4","","82","","","","16","","5","","24.1","","101.31","","","","-10","","NA"
"-79.25","56.54","SANIKILUAQ A","2303666","2022-03-24 10:00","2022","03","24","10:00","-6.2","","-10.0","","75","","","","13","","7","","24.1","","101.21","","","","-10","","Mostly Cloudy"
"-79.25","56.54","SANIKILUAQ A","2303666","2022-03-24 11:00","2022","03","24","11:00","-5.3","","-8.6","","78","","","","20","","16","","24.1","","101.10","","","","-11","","NA"
"-79.25","56.54","SANIKILUAQ A","2303666","2022-03-24 12:00","2022","03","24","12:00","-5.0","","-8.4","","77","","","","20","","14","","24.1","","101.03","","","","-10","","NA"
"-79.25","56.54","SANIKILUAQ A","2303666","2022-03-24 13:00","2022","03","24","13:00","-3.9","","-7.9","","74","","","","15","","10","","24.1","","100.95","","","","-8","","Mainly Clear"
"-79.25","56.54","SANIKILUAQ A","2303666","2022-03-24 14:00","2022","03","24","14:00","-3.7","","-8.2","","71","","","","16","","8","","24.1","","100.89","","","","-7","","NA"
"-79.25","56.54","SANIKILUAQ A","2303666","2022-03-24 15:00","2022","03","24","15:00","-3.3","","-6.6","","78","","","","13","","8","","24.1","","100.77","","","","-7","","NA"
"-79.25","56.54","SANIKILUAQ A","2303666","2022-03-24 16:00","2022","03","24","16:00","-3.7","","-6.9","","79","","","","10","","7","","24.1","","100.71","","","","-7","","Mainly Clear"
"-79.25","56.54","SANIKILUAQ A","2303666","2022-03-24 17:00","2022","03","24","17:00","-5.2","","-7.6","","83","","","","11","","14","","24.1","","100.66","","","","-11","","NA"
"-79.25","56.54","SANIKILUAQ A","2303666","2022-03-24 18:00","2022","03","24","18:00"
"-79.25","56.54","SANIKILUAQ A","2303666","2022-03-24 19:00","2022","03","24","19:00"
"-79.25","56.54","SANIKILUAQ A","2303666","2022-03-24 20:00","2022","03","24","20:00"
"-79.25","56.54","SANIKILUAQ A","2303666","2022-03-24 21:00","2022","03","24","21:00"
"-79.25","56.54","SANIKILUAQ A","2303666","2022-03-24 22:00","2022","03","24","22:00","-9.5","","-10.7","","91","","","","9","","14","","24.1","","100.43","","","","-16","","Clear"
"-79.25","56.54","SANIKILUAQ A","2303666","2022-03-24 23:00","2022","03","24","23:00","-9.5","","-11.0","","89","","","","10","","8","","24.1","","100.35","","","","-14","","NA"
"-79.25","56.54","SANIKILUAQ A","2303666","2022-03-25 00:00","2022","03","25","00:00","-9.4","","-12.3","","79","","","","15","","4","","24.1","","100.27","","","","-12","","NA"
"-79.25","56.54","SANIKILUAQ A","2303666","2022-03-25 01:00","2022","03","25","01:00","-9.6","","-12.1","","83","","","","22","","3","","24.1","","100.23","","","","-11","","Clear"
"-79.25","56.54","SANIKILUAQ A","2303666","2022-03-25 02:00","2022","03","25","02:00"
"-79.25","56.54","SANIKILUAQ A","2303666","2022-03-25 03:00","2022","03","25","03:00"
"-79.25","56.54","SANIKILUAQ A","2303666","2022-03-25 04:00","2022","03","25","04:00"
"-79.25","56.54","SANIKILUAQ A","2303666","2022-03-25 05:00","2022","03","25","05:00"
"-79.25","56.54","SANIKILUAQ A","2303666","2022-03-25 06:00","2022","03","25","06:00"
"-79.25","56.54","SANIKILUAQ A","2303666","2022-03-25 07:00","2022","03","25","07:00","-12.4","","-13.8","","90","","","","1","","5","","24.1","","100.00","","","","-16","","Mainly Clear"
"-79.25","56.54","SANIKILUAQ A","2303666","2022-03-25 08:00","2022","03","25","08:00","-10.4","","-13.3","","79","","","","13","","5","","24.1","","99.97","","","","-13","","NA"
"-79.25","56.54","SANIKILUAQ A","2303666","2022-03-25 09:00","2022","03","25","09:00","-10.6","","-12.7","","85","","","","10","","3","","24.1","","99.94","","","","-12","","NA"
"-79.25","56.54","SANIKILUAQ A","2303666","2022-03-25 10:00","2022","03","25","10:00","-10.4","","-13.0","","81","","","","35","","4","","24.1","","99.87","","","","-13","","Mainly Clear"
"-79.25","56.54","SANIKILUAQ A","2303666","2022-03-25 11:00","2022","03","25","11:00","-8.3","","-11.4","","79","","","","2","","4","","24.1","","99.83","","","","-10","","NA"
"-79.25","56.54","SANIKILUAQ A","2303666","2022-03-25 12:00","2022","03","25","12:00","-5.7","","-9.6","","74","","","","1","","8","","24.1","","99.76","","","","-9","","NA"
"-79.25","56.54","SANIKILUAQ A","2303666","2022-03-25 13:00","2022","03","25","13:00","-4.9","","-8.0","","79","","","","1","","8","","24.1","","99.69","","","","-8","","Clear"
"-79.25","56.54","SANIKILUAQ A","2303666","2022-03-25 14:00","2022","03","25","14:00","-4.3","","-7.5","","79","","","","5","","14","","24.1","","99.60","","","","-9","","NA"
"-79.25","56.54","SANIKILUAQ A","2303666","2022-03-25 15:00","2022","03","25","15:00","-4.1","","-6.6","","83","","","","3","","15","","24.1","","99.57","","","","-9","","NA"
"-79.25","56.54","SANIKILUAQ A","2303666","2022-03-25 16:00","2022","03","25","16:00","-4.0","","-6.3","","84","","","","5","","20","","24.1","","99.55","","","","-10","","Clear"
"-79.25","56.54","SANIKILUAQ A","2303666","2022-03-25 17:00","2022","03","25","17:00","-4.3","","-6.6","","84","","","","6","","16","","24.1","","99.56","","","","-10","","NA"
"-79.25","56.54","SANIKILUAQ A","2303666","2022-03-25 18:00","2022","03","25","18:00"
"-79.25","56.54","SANIKILUAQ A","2303666","2022-03-25 19:00","2022","03","25","19:00"
"-79.25","56.54","SANIKILUAQ A","2303666","2022-03-25 20:00","2022","03","25","20:00"
"-79.25","56.54","SANIKILUAQ A","2303666","2022-03-25 21:00","2022","03","25","21:00"
"-79.25","56.54","SANIKILUAQ A","2303666","2022-03-25 22:00","2022","03","25","22:00"
"-79.25","56.54","SANIKILUAQ A","2303666","2022-03-25 23:00","2022","03","25","23:00"
"-79.25","56.54","SANIKILUAQ A","2303666","2022-03-26 00:00","2022","03","26","00:00"
"-79.25","56.54","SANIKILUAQ A","2303666","2022-03-26 01:00","2022","03","26","01:00"
"-79.25","56.54","SANIKILUAQ A","2303666","2022-03-26 02:00","2022","03","26","02:00"
"-79.25","56.54","SANIKILUAQ A","2303666","2022-03-26 03:00","2022","03","26","03:00"
"-79.25","56.54","SANIKILUAQ A","2303666","2022-03-26 04:00","2022","03","26","04:00"
"-79.25","56.54","SANIKILUAQ A","2303666","2022-03-26 05:00","2022","03","26","05:00"
"-79.25","56.54","SANIKILUAQ A","2303666","2022-03-26 06:00","2022","03","26","06:00"
"-79.25","56.54","SANIKILUAQ A","2303666","2022-03-26 07:00","2022","03","26","07:00"
"-79.25","56.54","SANIKILUAQ A","2303666","2022-03-26 08:00","2022","03","26","08:00"
"-79.25","56.54","SANIKILUAQ A","2303666","2022-03-26 09:00","2022","03","26","09:00"
"-79.25","56.54","SANIKILUAQ A","2303666","2022-03-26 10:00","2022","03","26","10:00"
"-79.25","56.54","SANIKILUAQ A","2303666","2022-03-26 11:00","2022","03","26","11:00"
"-79.25","56.54","SANIKILUAQ A","2303666","2022-03-26 12:00","2022","03","26","12:00"
"-79.25","56.54","SANIKILUAQ A","2303666","2022-03-26 13:00","2022","03","26","13:00"
"-79.25","56.54","SANIKILUAQ A","2303666","2022-03-26 14:00","2022","03","26","14:00"
"-79.25","56.54","SANIKILUAQ A","2303666","2022-03-26 15:00","2022","03","26","15:00"
"-79.25","56.54","SANIKILUAQ A","2303666","2022-03-26 16:00","2022","03","26","16:00"
"-79.25","56.54","SANIKILUAQ A","2303666","2022-03-26 17:00","2022","03","26","17:00"
"-79.25","56.54","SANIKILUAQ A","2303666","2022-03-26 18:00","2022","03","26","18:00"
"-79.25","56.54","SANIKILUAQ A","2303666","2022-03-26 19:00","2022","03","26","19:00"
"-79.25","56.54","SANIKILUAQ A","2303666","2022-03-26 20:00","2022","03","26","20:00"
"-79.25","56.54","SANIKILUAQ A","2303666","2022-03-26 21:00","2022","03","26","21:00"
"-79.25","56.54","SANIKILUAQ A","2303666","2022-03-26 22:00","2022","03","26","22:00"
"-79.25","56.54","SANIKILUAQ A","2303666","2022-03-26 23:00","2022","03","26","23:00"
"-79.25","56.54","SANIKILUAQ A","2303666","2022-03-27 00:00","2022","03","27","00:00"
"-79.25","56.54","SANIKILUAQ A","2303666","2022-03-27 01:00","2022","03","27","01:00"
"-79.25","56.54","SANIKILUAQ A","2303666","2022-03-27 02:00","2022","03","27","02:00"
"-79.25","56.54","SANIKILUAQ A","2303666","2022-03-27 03:00","2022","03","27","03:00"
"-79.25","56.54","SANIKILUAQ A","2303666","2022-03-27 04:00","2022","03","27","04:00"
"-79.25","56.54","SANIKILUAQ A","2303666","2022-03-27 05:00","2022","03","27","05:00"
"-79.25","56.54","SANIKILUAQ A","2303666","2022-03-27 06:00","2022","03","27","06:00"
"-79.25","56.54","SANIKILUAQ A","2303666","2022-03-27 07:00","2022","03","27","07:00"
"-79.25","56.54","SANIKILUAQ A","2303666","2022-03-27 08:00","2022","03","27","08:00","-13.5","","-15.7","","84","","","","29","","36","","6.4","","99.71","","","","-25","","Snow,Blowing Snow"
"-79.25","56.54","SANIKILUAQ A","2303666","2022-03-27 09:00","2022","03","27","09:00","-13.1","","-15.3","","83","","","","29","","35","","6.4","","99.70","","","","-24","","Snow,Blowing Snow"
"-79.25","56.54","SANIKILUAQ A","2303666","2022-03-27 10:00","2022","03","27","10:00","-12.4","","-14.7","","83","","","","29","","30","","6.4","","99.70","","","","-23","","Snow,Blowing Snow"
"-79.25","56.54","SANIKILUAQ A","2303666","2022-03-27 11:00","2022","03","27","11:00","-12.0","","-14.4","","82","","","","29","","36","","6.4","","99.69","","","","-23","","Snow,Blowing Snow"
"-79.25","56.54","SANIKILUAQ A","2303666","2022-03-27 12:00","2022","03","27","12:00","-11.6","","-14.3","","81","","","","30","","36","","6.4","","99.69","","","","-22","","Snow,Blowing Snow"
"-79.25","56.54","SANIKILUAQ A","2303666","2022-03-27 13:00","2022","03","27","13:00"
"-79.25","56.54","SANIKILUAQ A","2303666","2022-03-27 14:00","2022","03","27","14:00"
"-79.25","56.54","SANIKILUAQ A","2303666","2022-03-27 15:00","2022","03","27","15:00","-11.1","","-13.8","","81","","","","28","","39","","6.4","","99.77","","","","-22","","Snow,Blowing Snow"
"-79.25","56.54","SANIKILUAQ A","2303666","2022-03-27 16:00","2022","03","27","16:00","-11.1","","-13.5","","83","","","","28","","41","","6.4","","99.80","","","","-22","","Snow,Blowing Snow"
"-79.25","56.54","SANIKILUAQ A","2303666","2022-03-27 17:00","2022","03","27","17:00","-11.7","","-13.9","","84","","","","28","","42","","4.8","","99.85","","","","-23","","Snow,Blowing Snow"
"-79.25","56.54","SANIKILUAQ A","2303666","2022-03-27 18:00","2022","03","27","18:00"
"-79.25","56.54","SANIKILUAQ A","2303666","2022-03-27 19:00","2022","03","27","19:00"
"-79.25","56.54","SANIKILUAQ A","2303666","2022-03-27 20:00","2022","03","27","20:00"
"-79.25","56.54","SANIKILUAQ A","2303666","2022-03-27 21:00","2022","03","27","21:00"
"-79.25","56.54","SANIKILUAQ A","2303666","2022-03-27 22:00","2022","03","27","22:00"
"-79.25","56.54","SANIKILUAQ A","2303666","2022-03-27 23:00","2022","03","27","23:00"
"-79.25","56.54","SANIKILUAQ A","2303666","2022-03-28 00:00","2022","03","28","00:00"
"-79.25","56.54","SANIKILUAQ A","2303666","2022-03-28 01:00","2022","03","28","01:00"
"-79.25","56.54","SANIKILUAQ A","2303666","2022-03-28 02:00","2022","03","28","02:00"
"-79.25","56.54","SANIKILUAQ A","2303666","2022-03-28 03:00","2022","03","28","03:00"
"-79.25","56.54","SANIKILUAQ A","2303666","2022-03-28 04:00","2022","03","28","04:00"
"-79.25","56.54","SANIKILUAQ A","2303666","2022-03-28 05:00","2022","03","28","05:00"
"-79.25","56.54","SANIKILUAQ A","2303666","2022-03-28 06:00","2022","03","28","06:00"
"-79.25","56.54","SANIKILUAQ A","2303666","2022-03-28 07:00","2022","03","28","07:00","-15.0","","-17.4","","82","","","","26","","29","","19.3","","100.22","","","","-26","","Mostly Cloudy"
"-79.25","56.54","SANIKILUAQ A","2303666","2022-03-28 08:00","2022","03","28","08:00","-15.1","","-17.4","","82","","","","25","","24","","24.1","","100.26","","","","-25","","NA"
"-79.25","56.54","SANIKILUAQ A","2303666","2022-03-28 09:00","2022","03","28","09:00","-14.3","","-16.9","","81","","","","25","","32","","24.1","","100.27","","","","-25","","NA"
"-79.25","56.54","SANIKILUAQ A","2303666","2022-03-28 10:00","2022","03","28","10:00","-13.6","","-16.3","","80","","","","26","","32","","24.1","","100.31","","","","-25","","Mainly Clear"
"-79.25","56.54","SANIKILUAQ A","2303666","2022-03-28 11:00","2022","03","28","11:00","-12.8","","-15.6","","80","","","","27","","35","","24.1","","100.31","","","","-24","","NA"
"-79.25","56.54","SANIKILUAQ A","2303666","2022-03-28 12:00","2022","03","28","12:00","-12.2","","-15.0","","80","","","","27","","31","","24.1","","100.32","","","","-23","","NA"
"-79.25","56.54","SANIKILUAQ A","2303666","2022-03-28 13:00","2022","03","28","13:00","-11.8","","-14.4","","81","","","","26","","32","","19.3","","100.36","","","","-22","","Blowing Snow"
"-79.25","56.54","SANIKILUAQ A","2303666","2022-03-28 14:00","2022","03","28","14:00","-11.5","","-13.8","","83","","","","26","","28","","16.1","","100.42","","","","-21","","Snow,Blowing Snow"
"-79.25","56.54","SANIKILUAQ A","2303666","2022-03-28 15:00","2022","03","28","15:00","-11.3","","-13.8","","82","","","","25","","29","","16.1","","100.46","","","","-21","","Snow,Blowing Snow"
"-79.25","56.54","SANIKILUAQ A","2303666","2022-03-28 16:00","2022","03","28","16:00","-11.5","","-13.9","","82","","","","25","","36","","16.1","","100.47","","","","-22","","Snow,Blowing Snow"
"-79.25","56.54","SANIKILUAQ A","2303666","2022-03-28 17:00","2022","03","28","17:00","-11.8","","-13.9","","85","","","","26","","37","","11.3","","100.47","","","","-23","","Snow,Blowing Snow"
"-79.25","56.54","SANIKILUAQ A","2303666","2022-03-28 18:00","2022","03","28","18:00","-12.2","","-14.2","","85","","","","26","","39","","11.3","","100.52","","","","-24","","Snow,Blowing Snow"
"-79.25","56.54","SANIKILUAQ A","2303666","2022-03-28 19:00","2022","03","28","19:00","-12.2","","-14.2","","85","","","","26","","31","","11.3","","100.55","","","","-23","","Snow,Blowing Snow"
"-79.25","56.54","SANIKILUAQ A","2303666","2022-03-28 20:00","2022","03","28","20:00"
"-79.25","56.54","SANIKILUAQ A","2303666","2022-03-28 21:00","2022","03","28","21:00"
"-79.25","56.54","SANIKILUAQ A","2303666","2022-03-28 22:00","2022","03","28","22:00"
"-79.25","56.54","SANIKILUAQ A","2303666","2022-03-28 23:00","2022","03","28","23:00"
"-79.25","56.54","SANIKILUAQ A","2303666","2022-03-29 00:00","2022","03","29","00:00"
"-79.25","56.54","SANIKILUAQ A","2303666","2022-03-29 01:00","2022","03","29","01:00"
"-79.25","56.54","SANIKILUAQ A","2303666","2022-03-29 02:00","2022","03","29","02:00"
"-79.25","56.54","SANIKILUAQ A","2303666","2022-03-29 03:00","2022","03","29","03:00"
"-79.25","56.54","SANIKILUAQ A","2303666","2022-03-29 04:00","2022","03","29","04:00"
"-79.25","56.54","SANIKILUAQ A","2303666","2022-03-29 05:00","2022","03","29","05:00"
"-79.25","56.54","SANIKILUAQ A","2303666","2022-03-29 06:00","2022","03","29","06:00"
"-79.25","56.54","SANIKILUAQ A","2303666","2022-03-29 07:00","2022","03","29","07:00","-12.5","","-14.4","","86","","","","27","","42","","0.8","","100.52","","","","-24","","Snow,Blowing Snow"
"-79.25","56.54","SANIKILUAQ A","2303666","2022-03-29 08:00","2022","03","29","08:00","-12.7","","-14.8","","85","","","","27","","37","","11.3","","100.57","","","","-24","","Snow,Blowing Snow"
"-79.25","56.54","SANIKILUAQ A","2303666","2022-03-29 09:00","2022","03","29","09:00","-12.5","","-14.7","","84","","","","27","","40","","11.3","","100.59","","","","-24","","Snow,Blowing Snow"
"-79.25","56.54","SANIKILUAQ A","2303666","2022-03-29 10:00","2022","03","29","10:00","-12.3","","-14.6","","83","","","","27","","40","","11.3","","100.63","","","","-24","","Snow,Blowing Snow"
"-79.25","56.54","SANIKILUAQ A","2303666","2022-03-29 11:00","2022","03","29","11:00","-11.9","","-14.3","","83","","","","27","","39","","11.3","","100.67","","","","-23","","Snow,Blowing Snow"
"-79.25","56.54","SANIKILUAQ A","2303666","2022-03-29 12:00","2022","03","29","12:00","-11.7","","-14.0","","83","","","","27","","36","","3.2","","100.70","","","","-23","","Snow,Blowing Snow"
"-79.25","56.54","SANIKILUAQ A","2303666","2022-03-29 13:00","2022","03","29","13:00","-11.6","","-14.1","","82","","","","26","","36","","4.8","","100.80","","","","-22","","Snow,Blowing Snow"
"-79.25","56.54","SANIKILUAQ A","2303666","2022-03-29 14:00","2022","03","29","14:00","-11.8","","-14.2","","82","","","","26","","36","","6.4","","100.83","","","","-23","","Snow,Blowing Snow"
"-79.25","56.54","SANIKILUAQ A","2303666","2022-03-29 15:00","2022","03","29","15:00","-11.8","","-14.3","","82","","","","26","","37","","11.3","","100.88","","","","-23","","Snow,Blowing Snow"
"-79.25","56.54","SANIKILUAQ A","2303666","2022-03-29 16:00","2022","03","29","16:00","-12.2","","-14.4","","84","","","","27","","29","","11.3","","100.93","","","","-22","","Snow,Blowing Snow"
"-79.25","56.54","SANIKILUAQ A","2303666","2022-03-29 17:00","2022","03","29","17:00","-12.2","","-14.5","","84","","","","26","","31","","6.4","","100.99","","","","-23","","Snow,Blowing Snow"
"-79.25","56.54","SANIKILUAQ A","2303666","2022-03-29 18:00","2022","03","29","18:00"
"-79.25","56.54","SANIKILUAQ A","2303666","2022-03-29 19:00","2022","03","29","19:00"
"-79.25","56.54","SANIKILUAQ A","2303666","2022-03-29 20:00","2022","03","29","20:00"
"-79.25","56.54","SANIKILUAQ A","2303666","2022-03-29 21:00","2022","03","29","21:00"
"-79.25","56.54","SANIKILUAQ A","2303666","2022-03-29 22:00","2022","03","29","22:00"
"-79.25","56.54","SANIKILUAQ A","2303666","2022-03-29 23:00","2022","03","29","23:00"
"-79.25","56.54","SANIKILUAQ A","2303666","2022-03-30 00:00","2022","03","30","00:00"
"-79.25","56.54","SANIKILUAQ A","2303666","2022-03-30 01:00","2022","03","30","01:00"
"-79.25","56.54","SANIKILUAQ A","2303666","2022-03-30 02:00","2022","03","30","02:00"
"-79.25","56.54","SANIKILUAQ A","2303666","2022-03-30 03:00","2022","03","30","03:00"
"-79.25","56.54","SANIKILUAQ A","2303666","2022-03-30 04:00","2022","03","30","04:00"
"-79.25","56.54","SANIKILUAQ A","2303666","2022-03-30 05:00","2022","03","30","05:00"
"-79.25","56.54","SANIKILUAQ A","2303666","2022-03-30 06:00","2022","03","30","06:00"
"-79.25","56.54","SANIKILUAQ A","2303666","2022-03-30 07:00","2022","03","30","07:00","-19.8","","-22.1","","82","","","","18","","20","","24.1","","101.48","","","","-30","","Mostly Cloudy"
"-79.25","56.54","SANIKILUAQ A","2303666","2022-03-30 08:00","2022","03","30","08:00","-19.1","","-21.4","","82","","","","19","","13","","24.1","","101.51","","","","-27","","NA"
"-79.25","56.54","SANIKILUAQ A","2303666","2022-03-30 09:00","2022","03","30","09:00","-17.5","","-19.7","","83","","","","20","","17","","24.1","","101.54","","","","-27","","NA"
"-79.25","56.54","SANIKILUAQ A","2303666","2022-03-30 10:00","2022","03","30","10:00","-16.3","","-18.4","","84","","","","18","","18","","24.1","","101.52","","","","-25","","Mostly Cloudy"
"-79.25","56.54","SANIKILUAQ A","2303666","2022-03-30 11:00","2022","03","30","11:00","-13.8","","-15.7","","86","","","","20","","21","","24.1","","101.48","","","","-23","","NA"
"-79.25","56.54","SANIKILUAQ A","2303666","2022-03-30 12:00","2022","03","30","12:00","-13.4","","-15.3","","86","","","","18","","17","","24.1","","101.46","","","","-21","","NA"
"-79.25","56.54","SANIKILUAQ A","2303666","2022-03-30 13:00","2022","03","30","13:00","-12.9","","-14.9","","85","","","","17","","10","","24.1","","101.43","","","","-19","","Mostly Cloudy"
"-79.25","56.54","SANIKILUAQ A","2303666","2022-03-30 14:00","2022","03","30","14:00","-12.1","","-14.3","","84","","","","18","","10","","24.1","","101.41","","","","-18","","NA"
"-79.25","56.54","SANIKILUAQ A","2303666","2022-03-30 15:00","2022","03","30","15:00","-12.0","","-14.2","","84","","","","13","","12","","24.1","","101.39","","","","-18","","NA"
"-79.25","56.54","SANIKILUAQ A","2303666","2022-03-30 16:00","2022","03","30","16:00","-12.3","","-14.7","","82","","","","13","","12","","24.1","","101.31","","","","-19","","Mostly Cloudy"
"-79.25","56.54","SANIKILUAQ A","2303666","2022-03-30 17:00","2022","03","30","17:00","-12.3","","-15.0","","81","","","","11","","9","","24.1","","101.27","","","","-18","","NA"
"-79.25","56.54","SANIKILUAQ A","2303666","2022-03-30 18:00","2022","03","30","18:00"
"-79.25","56.54","SANIKILUAQ A","2303666","2022-03-30 19:00","2022","03","30","19:00"
"-79.25","56.54","SANIKILUAQ A","2303666","2022-03-30 20:00","2022","03","30","20:00"
"-79.25","56.54","SANIKILUAQ A","2303666","2022-03-30 21:00","2022","03","30","21:00"
"-79.25","56.54","SANIKILUAQ A","2303666","2022-03-30 22:00","2022","03","30","22:00"
"-79.25","56.54","SANIKILUAQ A","2303666","2022-03-30 23:00","2022","03","30","23:00"
"-79.25","56.54","SANIKILUAQ A","2303666","2022-03-31 00:00","2022","03","31","00:00"
"-79.25","56.54","SANIKILUAQ A","2303666","2022-03-31 01:00","2022","03","31","01:00"
"-79.25","56.54","SANIKILUAQ A","2303666","2022-03-31 02:00","2022","03","31","02:00"
"-79.25","56.54","SANIKILUAQ A","2303666","2022-03-31 03:00","2022","03","31","03:00"
"-79.25","56.54","SANIKILUAQ A","2303666","2022-03-31 04:00","2022","03","31","04:00"
"-79.25","56.54","SANIKILUAQ A","2303666","2022-03-31 05:00","2022","03","31","05:00"
"-79.25","56.54","SANIKILUAQ A","2303666","2022-03-31 06:00","2022","03","31","06:00"
"-79.25","56.54","SANIKILUAQ A","2303666","2022-03-31 07:00","2022","03","31","07:00","-13.6","","-15.7","","84","","","","4","","20","","11.3","","100.70","","","","-22","","Snow"
"-79.25","56.54","SANIKILUAQ A","2303666","2022-03-31 08:00","2022","03","31","08:00","-13.3","","-15.7","","82","","","","4","","23","","11.3","","100.66","","","","-23","","Snow"
"-79.25","56.54","SANIKILUAQ A","2303666","2022-03-31 09:00","2022","03","31","09:00","-12.4","","-14.9","","82","","","","3","","30","","11.3","","100.55","","","","-23","","Snow"
"-79.25","56.54","SANIKILUAQ A","2303666","2022-03-31 10:00","2022","03","31","10:00","-12.2","","-15.2","","79","","","","3","","30","","11.3","","100.51","","","","-22","","Snow"
"-79.25","56.54","SANIKILUAQ A","2303666","2022-03-31 11:00","2022","03","31","11:00","-11.5","","-14.2","","80","","","","2","","29","","11.3","","100.39","","","","-21","","Snow,Blowing Snow"
"-79.25","56.54","SANIKILUAQ A","2303666","2022-03-31 12:00","2022","03","31","12:00","-10.9","","-13.1","","84","","","","2","","33","","4.8","","100.28","","","","-21","","Snow,Blowing Snow"
"-79.25","56.54","SANIKILUAQ A","2303666","2022-03-31 13:00","2022","03","31","13:00","-10.4","","-12.7","","83","","","","2","","32","","6.4","","100.17","","","","-20","","Snow,Blowing Snow"
"-79.25","56.54","SANIKILUAQ A","2303666","2022-03-31 14:00","2022","03","31","14:00","-9.6","","-11.5","","86","","","","2","","35","","4.8","","100.02","","","","-20","","Snow,Blowing Snow"
"-79.25","56.54","SANIKILUAQ A","2303666","2022-03-31 15:00","2022","03","31","15:00","-9.0","","-10.7","","88","","","","1","","39","","1.6","","99.90","","","","-19","","Snow,Blowing Snow"
"-79.25","56.54","SANIKILUAQ A","2303666","2022-03-31 16:00","2022","03","31","16:00","-9.1","","-10.7","","88","","","","1","","41","","1.6","","99.85","","","","-20","","Snow,Blowing Snow"
"-79.25","56.54","SANIKILUAQ A","2303666","2022-03-31 17:00","2022","03","31","17:00","-9.3","","-10.8","","89","","","","1","","42","","0.4","","99.81","","","","-20","","Moderate Snow,Blowing Snow"
"-79.25","56.54","SANIKILUAQ A","2303666","2022-03-31 18:00","2022","03","31","18:00"
"-79.25","56.54","SANIKILUAQ A","2303666","2022-03-31 19:00","2022","03","31","19:00"
"-79.25","56.54","SANIKILUAQ A","2303666","2022-03-31 20:00","2022","03","31","20:00"
"-79.25","56.54","SANIKILUAQ A","2303666","2022-03-31 21:00","2022","03","31","21:00"
"-79.25","56.54","SANIKILUAQ A","2303666","2022-03-31 22:00","2022","03","31","22:00"
"-79.25","56.54","SANIKILUAQ A","2303666","2022-03-31 23:00","2022","03","31","23:00"
