"Longitude (x)","Latitude (y)","Station Name","Climate ID","Date/Time (LST)","Year","Month","Day","Time (LST)","Temp (°C)","Temp Flag","Dew Point Temp (°C)","Dew Point Temp Flag","Rel Hum (%)","Rel Hum Flag","Precip. Amount (mm)","Precip. Amount Flag","Wind Dir (10s deg)","Wind Dir Flag","Wind Spd (km/h)","Wind Spd Flag","Visibility (km)","Visibility Flag","Stn Press (kPa)","Stn Press Flag","Hmdx","Hmdx Flag","Wind Chill","Wind Chill Flag","Weather"
"-97.24","49.00","EMERSON AUTO","5020881","2022-06-01 00:00","2022","06","01","00:00","","M","","M","","M","0.0","","22","","12","","","","98.59","","","","","","NA"
"-97.24","49.00","EMERSON AUTO","5020881","2022-06-01 01:00","2022","06","01","01:00","","M","","M","","M","0.0","","21","","15","","","","98.55","","","","","","NA"
"-97.24","49.00","EMERSON AUTO","5020881","2022-06-01 02:00","2022","06","01","02:00","","M","","M","","M","0.0","","22","","15","","","","98.52","","","","","","NA"
"-97.24","49.00","EMERSON AUTO","5020881","2022-06-01 03:00","2022","06","01","03:00","","M","","M","","M","0.0","","21","","15","","","","98.51","","","","","","NA"
"-97.24","49.00","EMERSON AUTO","5020881","2022-06-01 04:00","2022","06","01","04:00","","M","","M","","M","0.0","","22","","21","","","","98.51","","","","","","NA"
"-97.24","49.00","EMERSON AUTO","5020881","2022-06-01 05:00","2022","06","01","05:00","","M","","M","","M","0.0","","24","","16","","","","98.55","","","","","","NA"
"-97.24","49.00","EMERSON AUTO","5020881","2022-06-01 06:00","2022","06","01","06:00","","M","","M","","M","0.0","","24","","17","","","","98.59","","","","","","NA"
"-97.24","49.00","EMERSON AUTO","5020881","2022-06-01 07:00","2022","06","01","07:00","","M","","M","","M","0.0","","25","","22","","","","98.62","","","","","","NA"
"-97.24","49.00","EMERSON AUTO","5020881","2022-06-01 08:00","2022","06","01","08:00","","M","","M","","M","0.0","","24","","21","","","","98.60","","","","","","NA"
"-97.24","49.00","EMERSON AUTO","5020881","2022-06-01 09:00","2022","06","01","09:00","","M","","M","","M","0.0","","23","","28","","","","98.56","","","","","","NA"
"-97.24","49.00","EMERSON AUTO","5020881","2022-06-01 10:00","2022","06","01","10:00","","M","","M","","M","0.0","","27","","34","","","","98.54","","","","","","NA"
"-97.24","49.00","EMERSON AUTO","5020881","2022-06-01 11:00","2022","06","01","11:00","","M","","M","","M","0.0","","28","","35","","","","98.50","","","","","","NA"
"-97.24","49.00","EMERSON AUTO","5020881","2022-06-01 12:00","2022","06","01","12:00","","M","","M","","M","0.0","","28","","34","","","","98.45","","","","","","NA"
"-97.24","49.00","EMERSON AUTO","5020881","2022-06-01 13:00","2022","06","01","13:00","","M","","M","","M","0.0","","28","","36","","","","98.37","","","","","","NA"
"-97.24","49.00","EMERSON AUTO","5020881","2022-06-01 14:00","2022","06","01","14:00","","M","","M","","M","0.0","","28","","41","","","","98.32","","","","","","NA"
"-97.24","49.00","EMERSON AUTO","5020881","2022-06-01 15:00","2022","06","01","15:00","","M","","M","","M","0.0","","28","","41","","","","98.29","","","","","","NA"
"-97.24","49.00","EMERSON AUTO","5020881","2022-06-01 16:00","2022","06","01","16:00","","M","","M","","M","0.0","","28","","42","","","","98.26","","","","","","NA"
"-97.24","49.00","EMERSON AUTO","5020881","2022-06-01 17:00","2022","06","01","17:00","","M","","M","","M","0.0","","29","","40","","","","98.24","","","","","","NA"
"-97.24","49.00","EMERSON AUTO","5020881","2022-06-01 18:00","2022","06","01","18:00","","M","","M","","M","0.0","","28","","37","","","","98.21","","","","","","NA"
"-97.24","49.00","EMERSON AUTO","5020881","2022-06-01 19:00","2022","06","01","19:00","","M","","M","","M","0.0","","29","","27","","","","98.17","","","","","","NA"
"-97.24","49.00","EMERSON AUTO","5020881","2022-06-01 20:00","2022","06","01","20:00","","M","","M","","M","0.0","","28","","14","","","","98.15","","","","","","NA"
"-97.24","49.00","EMERSON AUTO","5020881","2022-06-01 21:00","2022","06","01","21:00","","M","","M","","M","0.0","","24","","12","","","","98.11","","","","","","NA"
"-97.24","49.00","EMERSON AUTO","5020881","2022-06-01 22:00","2022","06","01","22:00","","M","","M","","M","0.0","","23","","16","","","","98.09","","","","","","NA"
"-97.24","49.00","EMERSON AUTO","5020881","2022-06-01 23:00","2022","06","01","23:00","","M","","M","","M","0.0","","31","","13","","","","98.10","","","","","","NA"
"-97.24","49.00","EMERSON AUTO","5020881","2022-06-02 00:00","2022","06","02","00:00","","M","","M","","M","0.0","","28","","8","","","","98.08","","","","","","NA"
"-97.24","49.00","EMERSON AUTO","5020881","2022-06-02 01:00","2022","06","02","01:00","","M","","M","","M","0.0","","27","","9","","","","98.05","","","","","","NA"
"-97.24","49.00","EMERSON AUTO","5020881","2022-06-02 02:00","2022","06","02","02:00","","M","","M","","M","0.0","","22","","8","","","","98.02","","","","","","NA"
"-97.24","49.00","EMERSON AUTO","5020881","2022-06-02 03:00","2022","06","02","03:00","","M","","M","","M","0.0","","24","","14","","","","97.98","","","","","","NA"
"-97.24","49.00","EMERSON AUTO","5020881","2022-06-02 04:00","2022","06","02","04:00","","M","","M","","M","0.0","","24","","20","","","","97.95","","","","","","NA"
"-97.24","49.00","EMERSON AUTO","5020881","2022-06-02 05:00","2022","06","02","05:00","","M","","M","","M","0.0","","27","","24","","","","98.00","","","","","","NA"
"-97.24","49.00","EMERSON AUTO","5020881","2022-06-02 06:00","2022","06","02","06:00","","M","","M","","M","0.0","","27","","27","","","","98.02","","","","","","NA"
"-97.24","49.00","EMERSON AUTO","5020881","2022-06-02 07:00","2022","06","02","07:00","","M","","M","","M","0.0","","29","","34","","","","98.02","","","","","","NA"
"-97.24","49.00","EMERSON AUTO","5020881","2022-06-02 08:00","2022","06","02","08:00","","M","","M","","M","0.0","","29","","35","","","","97.99","","","","","","NA"
"-97.24","49.00","EMERSON AUTO","5020881","2022-06-02 09:00","2022","06","02","09:00","","M","","M","","M","0.0","","29","","35","","","","98.03","","","","","","NA"
"-97.24","49.00","EMERSON AUTO","5020881","2022-06-02 10:00","2022","06","02","10:00","","M","","M","","M","0.0","","30","","28","","","","98.01","","","","","","NA"
"-97.24","49.00","EMERSON AUTO","5020881","2022-06-02 11:00","2022","06","02","11:00","","M","","M","","M","0.0","","29","","22","","","","98.01","","","","","","NA"
"-97.24","49.00","EMERSON AUTO","5020881","2022-06-02 12:00","2022","06","02","12:00","","M","","M","","M","0.0","","32","","29","","","","98.04","","","","","","NA"
"-97.24","49.00","EMERSON AUTO","5020881","2022-06-02 13:00","2022","06","02","13:00","","M","","M","","M","0.0","","33","","16","","","","98.09","","","","","","NA"
"-97.24","49.00","EMERSON AUTO","5020881","2022-06-02 14:00","2022","06","02","14:00","","M","","M","","M","0.0","","35","","24","","","","98.10","","","","","","NA"
"-97.24","49.00","EMERSON AUTO","5020881","2022-06-02 15:00","2022","06","02","15:00","","M","","M","","M","0.0","","35","","28","","","","98.17","","","","","","NA"
"-97.24","49.00","EMERSON AUTO","5020881","2022-06-02 16:00","2022","06","02","16:00","","M","","M","","M","0.0","","34","","31","","","","98.23","","","","","","NA"
"-97.24","49.00","EMERSON AUTO","5020881","2022-06-02 17:00","2022","06","02","17:00","","M","","M","","M","0.0","","33","","26","","","","98.28","","","","","","NA"
"-97.24","49.00","EMERSON AUTO","5020881","2022-06-02 18:00","2022","06","02","18:00","","M","","M","","M","0.0","","31","","24","","","","98.30","","","","","","NA"
"-97.24","49.00","EMERSON AUTO","5020881","2022-06-02 19:00","2022","06","02","19:00","","M","","M","","M","0.0","","32","","27","","","","98.34","","","","","","NA"
"-97.24","49.00","EMERSON AUTO","5020881","2022-06-02 20:00","2022","06","02","20:00","","M","","M","","M","0.0","","32","","18","","","","98.37","","","","","","NA"
"-97.24","49.00","EMERSON AUTO","5020881","2022-06-02 21:00","2022","06","02","21:00","","M","","M","","M","0.0","","32","","16","","","","98.43","","","","","","NA"
"-97.24","49.00","EMERSON AUTO","5020881","2022-06-02 22:00","2022","06","02","22:00","","M","","M","","M","0.0","","31","","16","","","","98.51","","","","","","NA"
"-97.24","49.00","EMERSON AUTO","5020881","2022-06-02 23:00","2022","06","02","23:00","","M","","M","","M","0.0","","30","","17","","","","98.51","","","","","","NA"
"-97.24","49.00","EMERSON AUTO","5020881","2022-06-03 00:00","2022","06","03","00:00","","M","","M","","M","0.0","","29","","13","","","","98.52","","","","","","NA"
"-97.24","49.00","EMERSON AUTO","5020881","2022-06-03 01:00","2022","06","03","01:00","","M","","M","","M","0.0","","28","","12","","","","98.53","","","","","","NA"
"-97.24","49.00","EMERSON AUTO","5020881","2022-06-03 02:00","2022","06","03","02:00","","M","","M","","M","0.0","","26","","12","","","","98.53","","","","","","NA"
"-97.24","49.00","EMERSON AUTO","5020881","2022-06-03 03:00","2022","06","03","03:00","","M","","M","","M","0.0","","28","","15","","","","98.57","","","","","","NA"
"-97.24","49.00","EMERSON AUTO","5020881","2022-06-03 04:00","2022","06","03","04:00","","M","","M","","M","0.0","","29","","16","","","","98.60","","","","","","NA"
"-97.24","49.00","EMERSON AUTO","5020881","2022-06-03 05:00","2022","06","03","05:00","","M","","M","","M","0.0","","28","","14","","","","98.63","","","","","","NA"
"-97.24","49.00","EMERSON AUTO","5020881","2022-06-03 06:00","2022","06","03","06:00","","M","","M","","M","0.0","","30","","20","","","","98.66","","","","","","NA"
"-97.24","49.00","EMERSON AUTO","5020881","2022-06-03 07:00","2022","06","03","07:00","","M","","M","","M","0.0","","28","","19","","","","98.69","","","","","","NA"
"-97.24","49.00","EMERSON AUTO","5020881","2022-06-03 08:00","2022","06","03","08:00","","M","","M","","M","0.0","","31","","30","","","","98.71","","","","","","NA"
"-97.24","49.00","EMERSON AUTO","5020881","2022-06-03 09:00","2022","06","03","09:00","","M","","M","","M","0.0","","30","","22","","","","98.71","","","","","","NA"
"-97.24","49.00","EMERSON AUTO","5020881","2022-06-03 10:00","2022","06","03","10:00","","M","","M","","M","0.0","","31","","14","","","","98.67","","","","","","NA"
"-97.24","49.00","EMERSON AUTO","5020881","2022-06-03 11:00","2022","06","03","11:00","","M","","M","","M","0.0","","29","","16","","","","98.64","","","","","","NA"
"-97.24","49.00","EMERSON AUTO","5020881","2022-06-03 12:00","2022","06","03","12:00","","M","","M","","M","0.0","","25","","14","","","","98.57","","","","","","NA"
"-97.24","49.00","EMERSON AUTO","5020881","2022-06-03 13:00","2022","06","03","13:00","","M","","M","","M","0.0","","21","","6","","","","98.45","","","","","","NA"
"-97.24","49.00","EMERSON AUTO","5020881","2022-06-03 14:00","2022","06","03","14:00","","M","","M","","M","0.0","","22","","8","","","","98.34","","","","","","NA"
"-97.24","49.00","EMERSON AUTO","5020881","2022-06-03 15:00","2022","06","03","15:00","","M","","M","","M","0.0","","31","","16","","","","98.27","","","","","","NA"
"-97.24","49.00","EMERSON AUTO","5020881","2022-06-03 16:00","2022","06","03","16:00","","M","","M","","M","0.0","","29","","26","","","","98.23","","","","","","NA"
"-97.24","49.00","EMERSON AUTO","5020881","2022-06-03 17:00","2022","06","03","17:00","","M","","M","","M","0.0","","31","","23","","","","98.22","","","","","","NA"
"-97.24","49.00","EMERSON AUTO","5020881","2022-06-03 18:00","2022","06","03","18:00","","M","","M","","M","0.0","","30","","21","","","","98.16","","","","","","NA"
"-97.24","49.00","EMERSON AUTO","5020881","2022-06-03 19:00","2022","06","03","19:00","","M","","M","","M","0.0","","30","","15","","","","98.13","","","","","","NA"
"-97.24","49.00","EMERSON AUTO","5020881","2022-06-03 20:00","2022","06","03","20:00","","M","","M","","M","0.0","","32","","10","","","","98.11","","","","","","NA"
"-97.24","49.00","EMERSON AUTO","5020881","2022-06-03 21:00","2022","06","03","21:00","","M","","M","","M","0.0","","","","0","","","","98.12","","","","","","NA"
"-97.24","49.00","EMERSON AUTO","5020881","2022-06-03 22:00","2022","06","03","22:00","","M","","M","","M","0.0","","30","","3","","","","98.13","","","","","","NA"
"-97.24","49.00","EMERSON AUTO","5020881","2022-06-03 23:00","2022","06","03","23:00","","M","","M","","M","0.0","","22","","7","","","","98.11","","","","","","NA"
"-97.24","49.00","EMERSON AUTO","5020881","2022-06-04 00:00","2022","06","04","00:00","","M","","M","","M","0.0","","35","","7","","","","98.15","","","","","","NA"
"-97.24","49.00","EMERSON AUTO","5020881","2022-06-04 01:00","2022","06","04","01:00","","M","","M","","M","0.0","","3","","2","","","","98.17","","","","","","NA"
"-97.24","49.00","EMERSON AUTO","5020881","2022-06-04 02:00","2022","06","04","02:00","","M","","M","","M","0.0","","5","","10","","","","98.19","","","","","","NA"
"-97.24","49.00","EMERSON AUTO","5020881","2022-06-04 03:00","2022","06","04","03:00","","M","","M","","M","0.0","","9","","7","","","","98.21","","","","","","NA"
"-97.24","49.00","EMERSON AUTO","5020881","2022-06-04 04:00","2022","06","04","04:00","","M","","M","","M","0.0","","35","","11","","","","98.31","","","","","","NA"
"-97.24","49.00","EMERSON AUTO","5020881","2022-06-04 05:00","2022","06","04","05:00","","M","","M","","M","0.0","","33","","5","","","","98.36","","","","","","NA"
"-97.24","49.00","EMERSON AUTO","5020881","2022-06-04 06:00","2022","06","04","06:00","","M","","M","","M","0.0","","36","","8","","","","98.40","","","","","","NA"
"-97.24","49.00","EMERSON AUTO","5020881","2022-06-04 07:00","2022","06","04","07:00","","M","","M","","M","0.0","","5","","7","","","","98.40","","","","","","NA"
"-97.24","49.00","EMERSON AUTO","5020881","2022-06-04 08:00","2022","06","04","08:00","","M","","M","","M","0.0","","6","","6","","","","98.44","","","","","","NA"
"-97.24","49.00","EMERSON AUTO","5020881","2022-06-04 09:00","2022","06","04","09:00","","M","","M","","M","0.0","","2","","14","","","","98.43","","","","","","NA"
"-97.24","49.00","EMERSON AUTO","5020881","2022-06-04 10:00","2022","06","04","10:00","","M","","M","","M","0.0","","1","","14","","","","98.45","","","","","","NA"
"-97.24","49.00","EMERSON AUTO","5020881","2022-06-04 11:00","2022","06","04","11:00","","M","","M","","M","0.0","","36","","12","","","","98.47","","","","","","NA"
"-97.24","49.00","EMERSON AUTO","5020881","2022-06-04 12:00","2022","06","04","12:00","","M","","M","","M","0.0","","34","","15","","","","98.47","","","","","","NA"
"-97.24","49.00","EMERSON AUTO","5020881","2022-06-04 13:00","2022","06","04","13:00","","M","","M","","M","0.0","","35","","12","","","","98.46","","","","","","NA"
"-97.24","49.00","EMERSON AUTO","5020881","2022-06-04 14:00","2022","06","04","14:00","","M","","M","","M","0.0","","36","","15","","","","98.44","","","","","","NA"
"-97.24","49.00","EMERSON AUTO","5020881","2022-06-04 15:00","2022","06","04","15:00","","M","","M","","M","0.0","","1","","14","","","","98.40","","","","","","NA"
"-97.24","49.00","EMERSON AUTO","5020881","2022-06-04 16:00","2022","06","04","16:00","","M","","M","","M","0.0","","1","","18","","","","98.40","","","","","","NA"
"-97.24","49.00","EMERSON AUTO","5020881","2022-06-04 17:00","2022","06","04","17:00","","M","","M","","M","0.0","","1","","19","","","","98.39","","","","","","NA"
"-97.24","49.00","EMERSON AUTO","5020881","2022-06-04 18:00","2022","06","04","18:00","","M","","M","","M","0.0","","1","","16","","","","98.35","","","","","","NA"
"-97.24","49.00","EMERSON AUTO","5020881","2022-06-04 19:00","2022","06","04","19:00","","M","","M","","M","0.0","","1","","14","","","","98.33","","","","","","NA"
"-97.24","49.00","EMERSON AUTO","5020881","2022-06-04 20:00","2022","06","04","20:00","","M","","M","","M","0.0","","5","","11","","","","98.31","","","","","","NA"
"-97.24","49.00","EMERSON AUTO","5020881","2022-06-04 21:00","2022","06","04","21:00","","M","","M","","M","0.0","","7","","9","","","","98.31","","","","","","NA"
"-97.24","49.00","EMERSON AUTO","5020881","2022-06-04 22:00","2022","06","04","22:00","","M","","M","","M","0.0","","8","","7","","","","98.33","","","","","","NA"
"-97.24","49.00","EMERSON AUTO","5020881","2022-06-04 23:00","2022","06","04","23:00","","M","","M","","M","0.0","","10","","4","","","","98.35","","","","","","NA"
"-97.24","49.00","EMERSON AUTO","5020881","2022-06-05 00:00","2022","06","05","00:00","","M","","M","","M","0.0","","9","","6","","","","98.32","","","","","","NA"
"-97.24","49.00","EMERSON AUTO","5020881","2022-06-05 01:00","2022","06","05","01:00","","M","","M","","M","0.0","","3","","12","","","","98.34","","","","","","NA"
"-97.24","49.00","EMERSON AUTO","5020881","2022-06-05 02:00","2022","06","05","02:00","","M","","M","","M","0.0","","3","","14","","","","98.37","","","","","","NA"
"-97.24","49.00","EMERSON AUTO","5020881","2022-06-05 03:00","2022","06","05","03:00","","M","","M","","M","0.0","","4","","14","","","","98.38","","","","","","NA"
"-97.24","49.00","EMERSON AUTO","5020881","2022-06-05 04:00","2022","06","05","04:00","","M","","M","","M","0.0","","3","","13","","","","98.42","","","","","","NA"
"-97.24","49.00","EMERSON AUTO","5020881","2022-06-05 05:00","2022","06","05","05:00","","M","","M","","M","0.0","","2","","12","","","","98.43","","","","","","NA"
"-97.24","49.00","EMERSON AUTO","5020881","2022-06-05 06:00","2022","06","05","06:00","","M","","M","","M","0.0","","2","","13","","","","98.44","","","","","","NA"
"-97.24","49.00","EMERSON AUTO","5020881","2022-06-05 07:00","2022","06","05","07:00","","M","","M","","M","0.0","","4","","16","","","","98.45","","","","","","NA"
"-97.24","49.00","EMERSON AUTO","5020881","2022-06-05 08:00","2022","06","05","08:00","","M","","M","","M","0.0","","4","","19","","","","98.44","","","","","","NA"
"-97.24","49.00","EMERSON AUTO","5020881","2022-06-05 09:00","2022","06","05","09:00","","M","","M","","M","0.0","","4","","21","","","","98.43","","","","","","NA"
"-97.24","49.00","EMERSON AUTO","5020881","2022-06-05 10:00","2022","06","05","10:00","","M","","M","","M","0.0","","3","","22","","","","98.41","","","","","","NA"
"-97.24","49.00","EMERSON AUTO","5020881","2022-06-05 11:00","2022","06","05","11:00","","M","","M","","M","0.0","","3","","22","","","","98.40","","","","","","NA"
"-97.24","49.00","EMERSON AUTO","5020881","2022-06-05 12:00","2022","06","05","12:00","","M","","M","","M","0.0","","3","","19","","","","98.40","","","","","","NA"
"-97.24","49.00","EMERSON AUTO","5020881","2022-06-05 13:00","2022","06","05","13:00","","M","","M","","M","0.0","","2","","20","","","","98.37","","","","","","NA"
"-97.24","49.00","EMERSON AUTO","5020881","2022-06-05 14:00","2022","06","05","14:00","","M","","M","","M","0.0","","4","","20","","","","98.36","","","","","","NA"
"-97.24","49.00","EMERSON AUTO","5020881","2022-06-05 15:00","2022","06","05","15:00","","M","","M","","M","0.0","","1","","18","","","","98.35","","","","","","NA"
"-97.24","49.00","EMERSON AUTO","5020881","2022-06-05 16:00","2022","06","05","16:00","","M","","M","","M","0.0","","3","","21","","","","98.34","","","","","","NA"
"-97.24","49.00","EMERSON AUTO","5020881","2022-06-05 17:00","2022","06","05","17:00","","M","","M","","M","0.0","","36","","21","","","","98.34","","","","","","NA"
"-97.24","49.00","EMERSON AUTO","5020881","2022-06-05 18:00","2022","06","05","18:00","","M","","M","","M","0.0","","36","","23","","","","98.33","","","","","","NA"
"-97.24","49.00","EMERSON AUTO","5020881","2022-06-05 19:00","2022","06","05","19:00","","M","","M","","M","0.0","","1","","17","","","","98.36","","","","","","NA"
"-97.24","49.00","EMERSON AUTO","5020881","2022-06-05 20:00","2022","06","05","20:00","","M","","M","","M","0.0","","2","","19","","","","98.39","","","","","","NA"
"-97.24","49.00","EMERSON AUTO","5020881","2022-06-05 21:00","2022","06","05","21:00","","M","","M","","M","0.0","","2","","20","","","","98.42","","","","","","NA"
"-97.24","49.00","EMERSON AUTO","5020881","2022-06-05 22:00","2022","06","05","22:00","","M","","M","","M","0.0","","2","","21","","","","98.44","","","","","","NA"
"-97.24","49.00","EMERSON AUTO","5020881","2022-06-05 23:00","2022","06","05","23:00","","M","","M","","M","0.0","","2","","17","","","","98.47","","","","","","NA"
"-97.24","49.00","EMERSON AUTO","5020881","2022-06-06 00:00","2022","06","06","00:00","","M","","M","","M","0.0","","3","","10","","","","98.49","","","","","","NA"
"-97.24","49.00","EMERSON AUTO","5020881","2022-06-06 01:00","2022","06","06","01:00","","M","","M","","M","0.0","","1","","8","","","","98.51","","","","","","NA"
"-97.24","49.00","EMERSON AUTO","5020881","2022-06-06 02:00","2022","06","06","02:00","","M","","M","","M","0.0","","2","","9","","","","98.52","","","","","","NA"
"-97.24","49.00","EMERSON AUTO","5020881","2022-06-06 03:00","2022","06","06","03:00","","M","","M","","M","0.0","","33","","7","","","","98.53","","","","","","NA"
"-97.24","49.00","EMERSON AUTO","5020881","2022-06-06 04:00","2022","06","06","04:00","","M","","M","","M","0.0","","33","","12","","","","98.53","","","","","","NA"
"-97.24","49.00","EMERSON AUTO","5020881","2022-06-06 05:00","2022","06","06","05:00","","M","","M","","M","0.0","","35","","13","","","","98.54","","","","","","NA"
"-97.24","49.00","EMERSON AUTO","5020881","2022-06-06 06:00","2022","06","06","06:00","","M","","M","","M","0.0","","36","","13","","","","98.54","","","","","","NA"
"-97.24","49.00","EMERSON AUTO","5020881","2022-06-06 07:00","2022","06","06","07:00","","M","","M","","M","0.0","","36","","12","","","","98.56","","","","","","NA"
"-97.24","49.00","EMERSON AUTO","5020881","2022-06-06 08:00","2022","06","06","08:00","","M","","M","","M","0.0","","36","","11","","","","98.57","","","","","","NA"
"-97.24","49.00","EMERSON AUTO","5020881","2022-06-06 09:00","2022","06","06","09:00","","M","","M","","M","0.0","","4","","14","","","","98.54","","","","","","NA"
"-97.24","49.00","EMERSON AUTO","5020881","2022-06-06 10:00","2022","06","06","10:00","","M","","M","","M","0.0","","3","","20","","","","98.50","","","","","","NA"
"-97.24","49.00","EMERSON AUTO","5020881","2022-06-06 11:00","2022","06","06","11:00","","M","","M","","M","0.0","","6","","18","","","","98.50","","","","","","NA"
"-97.24","49.00","EMERSON AUTO","5020881","2022-06-06 12:00","2022","06","06","12:00","","M","","M","","M","0.0","","7","","18","","","","98.46","","","","","","NA"
"-97.24","49.00","EMERSON AUTO","5020881","2022-06-06 13:00","2022","06","06","13:00","","M","","M","","M","0.0","","3","","18","","","","98.42","","","","","","NA"
"-97.24","49.00","EMERSON AUTO","5020881","2022-06-06 14:00","2022","06","06","14:00","","M","","M","","M","0.0","","2","","19","","","","98.38","","","","","","NA"
"-97.24","49.00","EMERSON AUTO","5020881","2022-06-06 15:00","2022","06","06","15:00","","M","","M","","M","0.0","","3","","13","","","","98.36","","","","","","NA"
"-97.24","49.00","EMERSON AUTO","5020881","2022-06-06 16:00","2022","06","06","16:00","","M","","M","","M","0.0","","5","","8","","","","98.33","","","","","","NA"
"-97.24","49.00","EMERSON AUTO","5020881","2022-06-06 17:00","2022","06","06","17:00","","M","","M","","M","0.0","","2","","13","","","","98.33","","","","","","NA"
"-97.24","49.00","EMERSON AUTO","5020881","2022-06-06 18:00","2022","06","06","18:00","","M","","M","","M","0.0","","2","","12","","","","98.35","","","","","","NA"
"-97.24","49.00","EMERSON AUTO","5020881","2022-06-06 19:00","2022","06","06","19:00","","M","","M","","M","0.0","","36","","9","","","","98.37","","","","","","NA"
"-97.24","49.00","EMERSON AUTO","5020881","2022-06-06 20:00","2022","06","06","20:00","","M","","M","","M","0.0","","36","","9","","","","98.40","","","","","","NA"
"-97.24","49.00","EMERSON AUTO","5020881","2022-06-06 21:00","2022","06","06","21:00","","M","","M","","M","0.0","","35","","11","","","","98.44","","","","","","NA"
"-97.24","49.00","EMERSON AUTO","5020881","2022-06-06 22:00","2022","06","06","22:00","","M","","M","","M","0.0","","2","","12","","","","98.47","","","","","","NA"
"-97.24","49.00","EMERSON AUTO","5020881","2022-06-06 23:00","2022","06","06","23:00","","M","","M","","M","0.0","","3","","12","","","","98.47","","","","","","NA"
"-97.24","49.00","EMERSON AUTO","5020881","2022-06-07 00:00","2022","06","07","00:00","","M","","M","","M","0.0","","1","","9","","","","98.48","","","","","","NA"
"-97.24","49.00","EMERSON AUTO","5020881","2022-06-07 01:00","2022","06","07","01:00","","M","","M","","M","0.0","","1","","8","","","","98.49","","","","","","NA"
"-97.24","49.00","EMERSON AUTO","5020881","2022-06-07 02:00","2022","06","07","02:00","","M","","M","","M","0.0","","35","","7","","","","98.52","","","","","","NA"
"-97.24","49.00","EMERSON AUTO","5020881","2022-06-07 03:00","2022","06","07","03:00","","M","","M","","M","0.0","","30","","4","","","","98.54","","","","","","NA"
"-97.24","49.00","EMERSON AUTO","5020881","2022-06-07 04:00","2022","06","07","04:00","","M","","M","","M","0.0","","33","","8","","","","98.56","","","","","","NA"
"-97.24","49.00","EMERSON AUTO","5020881","2022-06-07 05:00","2022","06","07","05:00","","M","","M","","M","0.0","","35","","8","","","","98.58","","","","","","NA"
"-97.24","49.00","EMERSON AUTO","5020881","2022-06-07 06:00","2022","06","07","06:00","","M","","M","","M","0.0","","34","","9","","","","98.61","","","","","","NA"
"-97.24","49.00","EMERSON AUTO","5020881","2022-06-07 07:00","2022","06","07","07:00","","M","","M","","M","0.0","","32","","8","","","","98.62","","","","","","NA"
"-97.24","49.00","EMERSON AUTO","5020881","2022-06-07 08:00","2022","06","07","08:00","","M","","M","","M","0.0","","34","","11","","","","98.61","","","","","","NA"
"-97.24","49.00","EMERSON AUTO","5020881","2022-06-07 09:00","2022","06","07","09:00","","M","","M","","M","0.0","","34","","15","","","","98.59","","","","","","NA"
"-97.24","49.00","EMERSON AUTO","5020881","2022-06-07 10:00","2022","06","07","10:00","","M","","M","","M","0.0","","34","","19","","","","98.57","","","","","","NA"
"-97.24","49.00","EMERSON AUTO","5020881","2022-06-07 11:00","2022","06","07","11:00","","M","","M","","M","0.0","","35","","21","","","","98.54","","","","","","NA"
"-97.24","49.00","EMERSON AUTO","5020881","2022-06-07 12:00","2022","06","07","12:00","","M","","M","","M","0.0","","36","","21","","","","98.51","","","","","","NA"
"-97.24","49.00","EMERSON AUTO","5020881","2022-06-07 13:00","2022","06","07","13:00","","M","","M","","M","0.0","","34","","21","","","","98.49","","","","","","NA"
"-97.24","49.00","EMERSON AUTO","5020881","2022-06-07 14:00","2022","06","07","14:00","","M","","M","","M","0.0","","34","","21","","","","98.47","","","","","","NA"
"-97.24","49.00","EMERSON AUTO","5020881","2022-06-07 15:00","2022","06","07","15:00","","M","","M","","M","0.0","","32","","19","","","","98.44","","","","","","NA"
"-97.24","49.00","EMERSON AUTO","5020881","2022-06-07 16:00","2022","06","07","16:00","","M","","M","","M","0.0","","34","","21","","","","98.43","","","","","","NA"
"-97.24","49.00","EMERSON AUTO","5020881","2022-06-07 17:00","2022","06","07","17:00","","M","","M","","M","0.0","","33","","23","","","","98.43","","","","","","NA"
"-97.24","49.00","EMERSON AUTO","5020881","2022-06-07 18:00","2022","06","07","18:00","","M","","M","","M","0.0","","35","","22","","","","98.43","","","","","","NA"
"-97.24","49.00","EMERSON AUTO","5020881","2022-06-07 19:00","2022","06","07","19:00","","M","","M","","M","0.0","","34","","25","","","","98.44","","","","","","NA"
"-97.24","49.00","EMERSON AUTO","5020881","2022-06-07 20:00","2022","06","07","20:00","","M","","M","","M","0.0","","34","","19","","","","98.46","","","","","","NA"
"-97.24","49.00","EMERSON AUTO","5020881","2022-06-07 21:00","2022","06","07","21:00","","M","","M","","M","0.0","","33","","16","","","","98.52","","","","","","NA"
"-97.24","49.00","EMERSON AUTO","5020881","2022-06-07 22:00","2022","06","07","22:00","","M","","M","","M","0.0","","34","","12","","","","98.55","","","","","","NA"
"-97.24","49.00","EMERSON AUTO","5020881","2022-06-07 23:00","2022","06","07","23:00","","M","","M","","M","0.0","","35","","11","","","","98.59","","","","","","NA"
"-97.24","49.00","EMERSON AUTO","5020881","2022-06-08 00:00","2022","06","08","00:00","","M","","M","","M","0.0","","31","","8","","","","98.60","","","","","","NA"
"-97.24","49.00","EMERSON AUTO","5020881","2022-06-08 01:00","2022","06","08","01:00","","M","","M","","M","0.0","","35","","6","","","","98.57","","","","","","NA"
"-97.24","49.00","EMERSON AUTO","5020881","2022-06-08 02:00","2022","06","08","02:00","","M","","M","","M","0.0","","24","","3","","","","98.57","","","","","","NA"
"-97.24","49.00","EMERSON AUTO","5020881","2022-06-08 03:00","2022","06","08","03:00","","M","","M","","M","0.0","","29","","4","","","","98.60","","","","","","NA"
"-97.24","49.00","EMERSON AUTO","5020881","2022-06-08 04:00","2022","06","08","04:00","","M","","M","","M","0.0","","27","","6","","","","98.64","","","","","","NA"
"-97.24","49.00","EMERSON AUTO","5020881","2022-06-08 05:00","2022","06","08","05:00","","M","","M","","M","0.0","","23","","4","","","","98.66","","","","","","NA"
"-97.24","49.00","EMERSON AUTO","5020881","2022-06-08 06:00","2022","06","08","06:00","","M","","M","","M","0.0","","29","","3","","","","98.68","","","","","","NA"
"-97.24","49.00","EMERSON AUTO","5020881","2022-06-08 07:00","2022","06","08","07:00","","M","","M","","M","0.0","","32","","12","","","","98.71","","","","","","NA"
"-97.24","49.00","EMERSON AUTO","5020881","2022-06-08 08:00","2022","06","08","08:00","","M","","M","","M","0.0","","31","","14","","","","98.71","","","","","","NA"
"-97.24","49.00","EMERSON AUTO","5020881","2022-06-08 09:00","2022","06","08","09:00","","M","","M","","M","0.0","","34","","18","","","","98.71","","","","","","NA"
"-97.24","49.00","EMERSON AUTO","5020881","2022-06-08 10:00","2022","06","08","10:00","","M","","M","","M","0.0","","34","","18","","","","98.67","","","","","","NA"
"-97.24","49.00","EMERSON AUTO","5020881","2022-06-08 11:00","2022","06","08","11:00","","M","","M","","M","0.0","","33","","12","","","","98.63","","","","","","NA"
"-97.24","49.00","EMERSON AUTO","5020881","2022-06-08 12:00","2022","06","08","12:00","","M","","M","","M","0.0","","33","","16","","","","98.59","","","","","","NA"
"-97.24","49.00","EMERSON AUTO","5020881","2022-06-08 13:00","2022","06","08","13:00","","M","","M","","M","0.0","","35","","20","","","","98.57","","","","","","NA"
"-97.24","49.00","EMERSON AUTO","5020881","2022-06-08 14:00","2022","06","08","14:00","","M","","M","","M","0.0","","1","","22","","","","98.53","","","","","","NA"
"-97.24","49.00","EMERSON AUTO","5020881","2022-06-08 15:00","2022","06","08","15:00","","M","","M","","M","0.0","","36","","22","","","","98.52","","","","","","NA"
"-97.24","49.00","EMERSON AUTO","5020881","2022-06-08 16:00","2022","06","08","16:00","","M","","M","","M","0.0","","35","","21","","","","98.49","","","","","","NA"
"-97.24","49.00","EMERSON AUTO","5020881","2022-06-08 17:00","2022","06","08","17:00","","M","","M","","M","0.0","","31","","23","","","","98.49","","","","","","NA"
"-97.24","49.00","EMERSON AUTO","5020881","2022-06-08 18:00","2022","06","08","18:00","","M","","M","","M","0.0","","31","","20","","","","98.46","","","","","","NA"
"-97.24","49.00","EMERSON AUTO","5020881","2022-06-08 19:00","2022","06","08","19:00","","M","","M","","M","0.0","","32","","21","","","","98.45","","","","","","NA"
"-97.24","49.00","EMERSON AUTO","5020881","2022-06-08 20:00","2022","06","08","20:00","","M","","M","","M","0.0","","35","","14","","","","98.46","","","","","","NA"
"-97.24","49.00","EMERSON AUTO","5020881","2022-06-08 21:00","2022","06","08","21:00","","M","","M","","M","0.0","","33","","14","","","","98.50","","","","","","NA"
"-97.24","49.00","EMERSON AUTO","5020881","2022-06-08 22:00","2022","06","08","22:00","","M","","M","","M","0.0","","34","","11","","","","98.52","","","","","","NA"
"-97.24","49.00","EMERSON AUTO","5020881","2022-06-08 23:00","2022","06","08","23:00","","M","","M","","M","0.0","","32","","13","","","","98.55","","","","","","NA"
"-97.24","49.00","EMERSON AUTO","5020881","2022-06-09 00:00","2022","06","09","00:00","","M","","M","","M","0.0","","34","","8","","","","98.57","","","","","","NA"
"-97.24","49.00","EMERSON AUTO","5020881","2022-06-09 01:00","2022","06","09","01:00","","M","","M","","M","0.0","","32","","6","","","","98.58","","","","","","NA"
"-97.24","49.00","EMERSON AUTO","5020881","2022-06-09 02:00","2022","06","09","02:00","","M","","M","","M","0.0","","33","","6","","","","98.60","","","","","","NA"
"-97.24","49.00","EMERSON AUTO","5020881","2022-06-09 03:00","2022","06","09","03:00","","M","","M","","M","0.0","","25","","2","","","","98.61","","","","","","NA"
"-97.24","49.00","EMERSON AUTO","5020881","2022-06-09 04:00","2022","06","09","04:00","","M","","M","","M","0.0","","1","","7","","","","98.63","","","","","","NA"
"-97.24","49.00","EMERSON AUTO","5020881","2022-06-09 05:00","2022","06","09","05:00","","M","","M","","M","0.0","","36","","4","","","","98.66","","","","","","NA"
"-97.24","49.00","EMERSON AUTO","5020881","2022-06-09 06:00","2022","06","09","06:00","","M","","M","","M","0.0","","28","","1","","","","98.67","","","","","","NA"
"-97.24","49.00","EMERSON AUTO","5020881","2022-06-09 07:00","2022","06","09","07:00","","M","","M","","M","0.0","","24","","5","","","","98.69","","","","","","NA"
"-97.24","49.00","EMERSON AUTO","5020881","2022-06-09 08:00","2022","06","09","08:00","","M","","M","","M","0.0","","18","","3","","","","98.68","","","","","","NA"
"-97.24","49.00","EMERSON AUTO","5020881","2022-06-09 09:00","2022","06","09","09:00","","M","","M","","M","0.0","","18","","2","","","","98.67","","","","","","NA"
"-97.24","49.00","EMERSON AUTO","5020881","2022-06-09 10:00","2022","06","09","10:00","","M","","M","","M","0.0","","19","","5","","","","98.65","","","","","","NA"
"-97.24","49.00","EMERSON AUTO","5020881","2022-06-09 11:00","2022","06","09","11:00","","M","","M","","M","0.0","","13","","7","","","","98.62","","","","","","NA"
"-97.24","49.00","EMERSON AUTO","5020881","2022-06-09 12:00","2022","06","09","12:00","","M","","M","","M","0.0","","13","","7","","","","98.59","","","","","","NA"
"-97.24","49.00","EMERSON AUTO","5020881","2022-06-09 13:00","2022","06","09","13:00","","M","","M","","M","0.0","","12","","10","","","","98.52","","","","","","NA"
"-97.24","49.00","EMERSON AUTO","5020881","2022-06-09 14:00","2022","06","09","14:00","","M","","M","","M","0.0","","6","","7","","","","98.47","","","","","","NA"
"-97.24","49.00","EMERSON AUTO","5020881","2022-06-09 15:00","2022","06","09","15:00","","M","","M","","M","0.0","","7","","8","","","","98.42","","","","","","NA"
"-97.24","49.00","EMERSON AUTO","5020881","2022-06-09 16:00","2022","06","09","16:00","","M","","M","","M","0.0","","8","","9","","","","98.38","","","","","","NA"
"-97.24","49.00","EMERSON AUTO","5020881","2022-06-09 17:00","2022","06","09","17:00","","M","","M","","M","0.0","","1","","10","","","","98.35","","","","","","NA"
"-97.24","49.00","EMERSON AUTO","5020881","2022-06-09 18:00","2022","06","09","18:00","","M","","M","","M","0.0","","35","","8","","","","98.35","","","","","","NA"
"-97.24","49.00","EMERSON AUTO","5020881","2022-06-09 19:00","2022","06","09","19:00","","M","","M","","M","0.0","","34","","7","","","","98.39","","","","","","NA"
"-97.24","49.00","EMERSON AUTO","5020881","2022-06-09 20:00","2022","06","09","20:00","","M","","M","","M","0.0","","27","","11","","","","98.38","","","","","","NA"
"-97.24","49.00","EMERSON AUTO","5020881","2022-06-09 21:00","2022","06","09","21:00","","M","","M","","M","0.0","","3","","5","","","","98.39","","","","","","NA"
"-97.24","49.00","EMERSON AUTO","5020881","2022-06-09 22:00","2022","06","09","22:00","","M","","M","","M","0.0","","4","","8","","","","98.39","","","","","","NA"
"-97.24","49.00","EMERSON AUTO","5020881","2022-06-09 23:00","2022","06","09","23:00","","M","","M","","M","0.0","","34","","6","","","","98.42","","","","","","NA"
"-97.24","49.00","EMERSON AUTO","5020881","2022-06-10 00:00","2022","06","10","00:00","","M","","M","","M","0.0","","13","","4","","","","98.41","","","","","","NA"
"-97.24","49.00","EMERSON AUTO","5020881","2022-06-10 01:00","2022","06","10","01:00","","M","","M","","M","0.0","","2","","8","","","","98.41","","","","","","NA"
"-97.24","49.00","EMERSON AUTO","5020881","2022-06-10 02:00","2022","06","10","02:00","","M","","M","","M","0.0","","13","","6","","","","98.40","","","","","","NA"
"-97.24","49.00","EMERSON AUTO","5020881","2022-06-10 03:00","2022","06","10","03:00","","M","","M","","M","0.0","","6","","3","","","","98.35","","","","","","NA"
"-97.24","49.00","EMERSON AUTO","5020881","2022-06-10 04:00","2022","06","10","04:00","","M","","M","","M","0.0","","2","","11","","","","98.35","","","","","","NA"
"-97.24","49.00","EMERSON AUTO","5020881","2022-06-10 05:00","2022","06","10","05:00","","M","","M","","M","0.0","","7","","9","","","","98.32","","","","","","NA"
"-97.24","49.00","EMERSON AUTO","5020881","2022-06-10 06:00","2022","06","10","06:00","","M","","M","","M","0.0","","31","","5","","","","98.34","","","","","","NA"
"-97.24","49.00","EMERSON AUTO","5020881","2022-06-10 07:00","2022","06","10","07:00","","M","","M","","M","0.0","","5","","4","","","","98.34","","","","","","NA"
"-97.24","49.00","EMERSON AUTO","5020881","2022-06-10 08:00","2022","06","10","08:00","","M","","M","","M","0.0","","22","","4","","","","98.36","","","","","","NA"
"-97.24","49.00","EMERSON AUTO","5020881","2022-06-10 09:00","2022","06","10","09:00","","M","","M","","M","0.0","","23","","5","","","","98.36","","","","","","NA"
"-97.24","49.00","EMERSON AUTO","5020881","2022-06-10 10:00","2022","06","10","10:00","","M","","M","","M","0.0","","21","","7","","","","98.32","","","","","","NA"
"-97.24","49.00","EMERSON AUTO","5020881","2022-06-10 11:00","2022","06","10","11:00","","M","","M","","M","0.0","","12","","6","","","","98.27","","","","","","NA"
"-97.24","49.00","EMERSON AUTO","5020881","2022-06-10 12:00","2022","06","10","12:00","","M","","M","","M","0.0","","20","","6","","","","98.20","","","","","","NA"
"-97.24","49.00","EMERSON AUTO","5020881","2022-06-10 13:00","2022","06","10","13:00","","M","","M","","M","0.0","","21","","8","","","","98.17","","","","","","NA"
"-97.24","49.00","EMERSON AUTO","5020881","2022-06-10 14:00","2022","06","10","14:00","","M","","M","","M","0.0","","19","","6","","","","98.10","","","","","","NA"
"-97.24","49.00","EMERSON AUTO","5020881","2022-06-10 15:00","2022","06","10","15:00","","M","","M","","M","0.0","","16","","12","","","","98.06","","","","","","NA"
"-97.24","49.00","EMERSON AUTO","5020881","2022-06-10 16:00","2022","06","10","16:00","","M","","M","","M","0.0","","17","","9","","","","98.01","","","","","","NA"
"-97.24","49.00","EMERSON AUTO","5020881","2022-06-10 17:00","2022","06","10","17:00","","M","","M","","M","0.0","","17","","9","","","","97.94","","","","","","NA"
"-97.24","49.00","EMERSON AUTO","5020881","2022-06-10 18:00","2022","06","10","18:00","","M","","M","","M","0.0","","14","","6","","","","97.88","","","","","","NA"
"-97.24","49.00","EMERSON AUTO","5020881","2022-06-10 19:00","2022","06","10","19:00","","M","","M","","M","0.0","","13","","7","","","","97.85","","","","","","NA"
"-97.24","49.00","EMERSON AUTO","5020881","2022-06-10 20:00","2022","06","10","20:00","","M","","M","","M","0.0","","11","","9","","","","97.84","","","","","","NA"
"-97.24","49.00","EMERSON AUTO","5020881","2022-06-10 21:00","2022","06","10","21:00","","M","","M","","M","0.0","","25","","31","","","","97.92","","","","","","NA"
"-97.24","49.00","EMERSON AUTO","5020881","2022-06-10 22:00","2022","06","10","22:00","","M","","M","","M","0.0","","29","","10","","","","97.89","","","","","","NA"
"-97.24","49.00","EMERSON AUTO","5020881","2022-06-10 23:00","2022","06","10","23:00","","M","","M","","M","0.0","","23","","14","","","","97.82","","","","","","NA"
"-97.24","49.00","EMERSON AUTO","5020881","2022-06-11 00:00","2022","06","11","00:00","","M","","M","","M","0.0","","24","","3","","","","97.77","","","","","","NA"
"-97.24","49.00","EMERSON AUTO","5020881","2022-06-11 01:00","2022","06","11","01:00","","M","","M","","M","0.0","","","","0","","","","97.72","","","","","","NA"
"-97.24","49.00","EMERSON AUTO","5020881","2022-06-11 02:00","2022","06","11","02:00","","M","","M","","M","0.0","","8","","5","","","","97.71","","","","","","NA"
"-97.24","49.00","EMERSON AUTO","5020881","2022-06-11 03:00","2022","06","11","03:00","","M","","M","","M","0.0","","8","","7","","","","97.70","","","","","","NA"
"-97.24","49.00","EMERSON AUTO","5020881","2022-06-11 04:00","2022","06","11","04:00","","M","","M","","M","0.0","","12","","5","","","","97.70","","","","","","NA"
"-97.24","49.00","EMERSON AUTO","5020881","2022-06-11 05:00","2022","06","11","05:00","","M","","M","","M","0.0","","11","","7","","","","97.71","","","","","","NA"
"-97.24","49.00","EMERSON AUTO","5020881","2022-06-11 06:00","2022","06","11","06:00","","M","","M","","M","0.0","","12","","6","","","","97.72","","","","","","NA"
"-97.24","49.00","EMERSON AUTO","5020881","2022-06-11 07:00","2022","06","11","07:00","","M","","M","","M","0.0","","13","","8","","","","97.72","","","","","","NA"
"-97.24","49.00","EMERSON AUTO","5020881","2022-06-11 08:00","2022","06","11","08:00","","M","","M","","M","0.0","","17","","5","","","","97.72","","","","","","NA"
"-97.24","49.00","EMERSON AUTO","5020881","2022-06-11 09:00","2022","06","11","09:00","","M","","M","","M","0.0","","13","","3","","","","97.74","","","","","","NA"
"-97.24","49.00","EMERSON AUTO","5020881","2022-06-11 10:00","2022","06","11","10:00","","M","","M","","M","0.0","","14","","5","","","","97.73","","","","","","NA"
"-97.24","49.00","EMERSON AUTO","5020881","2022-06-11 11:00","2022","06","11","11:00","","M","","M","","M","0.0","","7","","5","","","","97.70","","","","","","NA"
"-97.24","49.00","EMERSON AUTO","5020881","2022-06-11 12:00","2022","06","11","12:00","","M","","M","","M","0.0","","14","","7","","","","97.69","","","","","","NA"
"-97.24","49.00","EMERSON AUTO","5020881","2022-06-11 13:00","2022","06","11","13:00","","M","","M","","M","0.0","","17","","9","","","","97.68","","","","","","NA"
"-97.24","49.00","EMERSON AUTO","5020881","2022-06-11 14:00","2022","06","11","14:00","","M","","M","","M","0.0","","19","","6","","","","97.68","","","","","","NA"
"-97.24","49.00","EMERSON AUTO","5020881","2022-06-11 15:00","2022","06","11","15:00","","M","","M","","M","0.0","","17","","7","","","","97.69","","","","","","NA"
"-97.24","49.00","EMERSON AUTO","5020881","2022-06-11 16:00","2022","06","11","16:00","","M","","M","","M","0.0","","10","","11","","","","97.65","","","","","","NA"
"-97.24","49.00","EMERSON AUTO","5020881","2022-06-11 17:00","2022","06","11","17:00","","M","","M","","M","0.0","","9","","14","","","","97.67","","","","","","NA"
"-97.24","49.00","EMERSON AUTO","5020881","2022-06-11 18:00","2022","06","11","18:00","","M","","M","","M","0.0","","9","","14","","","","97.67","","","","","","NA"
"-97.24","49.00","EMERSON AUTO","5020881","2022-06-11 19:00","2022","06","11","19:00","","M","","M","","M","0.0","","10","","11","","","","97.68","","","","","","NA"
"-97.24","49.00","EMERSON AUTO","5020881","2022-06-11 20:00","2022","06","11","20:00","","M","","M","","M","0.0","","10","","12","","","","97.66","","","","","","NA"
"-97.24","49.00","EMERSON AUTO","5020881","2022-06-11 21:00","2022","06","11","21:00","","M","","M","","M","0.0","","12","","13","","","","97.71","","","","","","NA"
"-97.24","49.00","EMERSON AUTO","5020881","2022-06-11 22:00","2022","06","11","22:00","","M","","M","","M","0.0","","12","","13","","","","97.69","","","","","","NA"
"-97.24","49.00","EMERSON AUTO","5020881","2022-06-11 23:00","2022","06","11","23:00","","M","","M","","M","0.0","","13","","14","","","","97.70","","","","","","NA"
"-97.24","49.00","EMERSON AUTO","5020881","2022-06-12 00:00","2022","06","12","00:00","","M","","M","","M","0.0","","13","","14","","","","97.67","","","","","","NA"
"-97.24","49.00","EMERSON AUTO","5020881","2022-06-12 01:00","2022","06","12","01:00","","M","","M","","M","0.0","","13","","13","","","","97.62","","","","","","NA"
"-97.24","49.00","EMERSON AUTO","5020881","2022-06-12 02:00","2022","06","12","02:00","","M","","M","","M","0.0","","14","","14","","","","97.65","","","","","","NA"
"-97.24","49.00","EMERSON AUTO","5020881","2022-06-12 03:00","2022","06","12","03:00","","M","","M","","M","0.0","","16","","11","","","","97.70","","","","","","NA"
"-97.24","49.00","EMERSON AUTO","5020881","2022-06-12 04:00","2022","06","12","04:00","","M","","M","","M","0.0","","13","","9","","","","97.70","","","","","","NA"
"-97.24","49.00","EMERSON AUTO","5020881","2022-06-12 05:00","2022","06","12","05:00","","M","","M","","M","7.4","","3","","5","","","","97.77","","","","","","NA"
"-97.24","49.00","EMERSON AUTO","5020881","2022-06-12 06:00","2022","06","12","06:00","","M","","M","","M","8.5","","8","","16","","","","97.66","","","","","","NA"
"-97.24","49.00","EMERSON AUTO","5020881","2022-06-12 07:00","2022","06","12","07:00","","M","","M","","M","0.0","","11","","16","","","","97.65","","","","","","NA"
"-97.24","49.00","EMERSON AUTO","5020881","2022-06-12 08:00","2022","06","12","08:00","","M","","M","","M","0.4","","8","","13","","","","97.62","","","","","","NA"
"-97.24","49.00","EMERSON AUTO","5020881","2022-06-12 09:00","2022","06","12","09:00","","M","","M","","M","0.0","","13","","24","","","","97.52","","","","","","NA"
"-97.24","49.00","EMERSON AUTO","5020881","2022-06-12 10:00","2022","06","12","10:00","","M","","M","","M","0.0","","14","","31","","","","97.43","","","","","","NA"
"-97.24","49.00","EMERSON AUTO","5020881","2022-06-12 11:00","2022","06","12","11:00","","M","","M","","M","0.0","","16","","26","","","","97.43","","","","","","NA"
"-97.24","49.00","EMERSON AUTO","5020881","2022-06-12 12:00","2022","06","12","12:00","","M","","M","","M","0.0","","17","","27","","","","97.39","","","","","","NA"
"-97.24","49.00","EMERSON AUTO","5020881","2022-06-12 13:00","2022","06","12","13:00","","M","","M","","M","0.0","","18","","22","","","","97.35","","","","","","NA"
"-97.24","49.00","EMERSON AUTO","5020881","2022-06-12 14:00","2022","06","12","14:00","","M","","M","","M","0.0","","17","","20","","","","97.29","","","","","","NA"
"-97.24","49.00","EMERSON AUTO","5020881","2022-06-12 15:00","2022","06","12","15:00","","M","","M","","M","0.0","","19","","21","","","","97.26","","","","","","NA"
"-97.24","49.00","EMERSON AUTO","5020881","2022-06-12 16:00","2022","06","12","16:00","","M","","M","","M","0.0","","31","","34","","","","97.35","","","","","","NA"
"-97.24","49.00","EMERSON AUTO","5020881","2022-06-12 17:00","2022","06","12","17:00","","M","","M","","M","0.0","","34","","32","","","","97.45","","","","","","NA"
"-97.24","49.00","EMERSON AUTO","5020881","2022-06-12 18:00","2022","06","12","18:00","","M","","M","","M","0.0","","35","","30","","","","97.49","","","","","","NA"
"-97.24","49.00","EMERSON AUTO","5020881","2022-06-12 19:00","2022","06","12","19:00","","M","","M","","M","0.0","","1","","19","","","","97.52","","","","","","NA"
"-97.24","49.00","EMERSON AUTO","5020881","2022-06-12 20:00","2022","06","12","20:00","","M","","M","","M","0.0","","36","","13","","","","97.63","","","","","","NA"
"-97.24","49.00","EMERSON AUTO","5020881","2022-06-12 21:00","2022","06","12","21:00","","M","","M","","M","0.0","","36","","7","","","","97.65","","","","","","NA"
"-97.24","49.00","EMERSON AUTO","5020881","2022-06-12 22:00","2022","06","12","22:00","","M","","M","","M","0.0","","2","","9","","","","97.63","","","","","","NA"
"-97.24","49.00","EMERSON AUTO","5020881","2022-06-12 23:00","2022","06","12","23:00","","M","","M","","M","0.0","","7","","4","","","","97.70","","","","","","NA"
"-97.24","49.00","EMERSON AUTO","5020881","2022-06-13 00:00","2022","06","13","00:00","","M","","M","","M","0.0","","5","","4","","","","97.68","","","","","","NA"
"-97.24","49.00","EMERSON AUTO","5020881","2022-06-13 01:00","2022","06","13","01:00","","M","","M","","M","0.0","","3","","9","","","","97.63","","","","","","NA"
"-97.24","49.00","EMERSON AUTO","5020881","2022-06-13 02:00","2022","06","13","02:00","","M","","M","","M","0.0","","5","","4","","","","97.63","","","","","","NA"
"-97.24","49.00","EMERSON AUTO","5020881","2022-06-13 03:00","2022","06","13","03:00","","M","","M","","M","0.0","","9","","7","","","","97.58","","","","","","NA"
"-97.24","49.00","EMERSON AUTO","5020881","2022-06-13 04:00","2022","06","13","04:00","","M","","M","","M","0.0","","13","","8","","","","97.53","","","","","","NA"
"-97.24","49.00","EMERSON AUTO","5020881","2022-06-13 05:00","2022","06","13","05:00","","M","","M","","M","0.0","","5","","10","","","","97.45","","","","","","NA"
"-97.24","49.00","EMERSON AUTO","5020881","2022-06-13 06:00","2022","06","13","06:00","","M","","M","","M","0.0","","2","","6","","","","97.57","","","","","","NA"
"-97.24","49.00","EMERSON AUTO","5020881","2022-06-13 07:00","2022","06","13","07:00","","M","","M","","M","0.0","","1","","12","","","","97.60","","","","","","NA"
"-97.24","49.00","EMERSON AUTO","5020881","2022-06-13 08:00","2022","06","13","08:00","","M","","M","","M","0.0","","2","","16","","","","97.54","","","","","","NA"
"-97.24","49.00","EMERSON AUTO","5020881","2022-06-13 09:00","2022","06","13","09:00","","M","","M","","M","0.0","","3","","13","","","","97.51","","","","","","NA"
"-97.24","49.00","EMERSON AUTO","5020881","2022-06-13 10:00","2022","06","13","10:00","","M","","M","","M","0.0","","6","","13","","","","97.50","","","","","","NA"
"-97.24","49.00","EMERSON AUTO","5020881","2022-06-13 11:00","2022","06","13","11:00","","M","","M","","M","0.0","","6","","16","","","","97.47","","","","","","NA"
"-97.24","49.00","EMERSON AUTO","5020881","2022-06-13 12:00","2022","06","13","12:00","","M","","M","","M","0.0","","6","","16","","","","97.44","","","","","","NA"
"-97.24","49.00","EMERSON AUTO","5020881","2022-06-13 13:00","2022","06","13","13:00","","M","","M","","M","0.0","","7","","16","","","","97.45","","","","","","NA"
"-97.24","49.00","EMERSON AUTO","5020881","2022-06-13 14:00","2022","06","13","14:00","","M","","M","","M","0.0","","8","","18","","","","97.43","","","","","","NA"
"-97.24","49.00","EMERSON AUTO","5020881","2022-06-13 15:00","2022","06","13","15:00","","M","","M","","M","0.0","","10","","19","","","","97.40","","","","","","NA"
"-97.24","49.00","EMERSON AUTO","5020881","2022-06-13 16:00","2022","06","13","16:00","","M","","M","","M","0.0","","11","","15","","","","97.33","","","","","","NA"
"-97.24","49.00","EMERSON AUTO","5020881","2022-06-13 17:00","2022","06","13","17:00","","M","","M","","M","0.0","","11","","18","","","","97.32","","","","","","NA"
"-97.24","49.00","EMERSON AUTO","5020881","2022-06-13 18:00","2022","06","13","18:00","","M","","M","","M","0.0","","12","","15","","","","97.29","","","","","","NA"
"-97.24","49.00","EMERSON AUTO","5020881","2022-06-13 19:00","2022","06","13","19:00","","M","","M","","M","0.0","","9","","16","","","","97.26","","","","","","NA"
"-97.24","49.00","EMERSON AUTO","5020881","2022-06-13 20:00","2022","06","13","20:00","","M","","M","","M","0.0","","8","","18","","","","97.20","","","","","","NA"
"-97.24","49.00","EMERSON AUTO","5020881","2022-06-13 21:00","2022","06","13","21:00","","M","","M","","M","0.0","","9","","19","","","","97.14","","","","","","NA"
"-97.24","49.00","EMERSON AUTO","5020881","2022-06-13 22:00","2022","06","13","22:00","","M","","M","","M","0.0","","9","","16","","","","97.26","","","","","","NA"
"-97.24","49.00","EMERSON AUTO","5020881","2022-06-13 23:00","2022","06","13","23:00","","M","","M","","M","0.0","","12","","17","","","","97.30","","","","","","NA"
"-97.24","49.00","EMERSON AUTO","5020881","2022-06-14 00:00","2022","06","14","00:00","","M","","M","","M","0.0","","12","","12","","","","97.27","","","","","","NA"
"-97.24","49.00","EMERSON AUTO","5020881","2022-06-14 01:00","2022","06","14","01:00","","M","","M","","M","0.0","","14","","8","","","","97.53","","","","","","NA"
"-97.24","49.00","EMERSON AUTO","5020881","2022-06-14 02:00","2022","06","14","02:00","","M","","M","","M","1.6","","9","","22","","","","97.04","","","","","","NA"
"-97.24","49.00","EMERSON AUTO","5020881","2022-06-14 03:00","2022","06","14","03:00","","M","","M","","M","0.0","","11","","30","","","","96.93","","","","","","NA"
"-97.24","49.00","EMERSON AUTO","5020881","2022-06-14 04:00","2022","06","14","04:00","","M","","M","","M","0.0","","11","","12","","","","97.14","","","","","","NA"
"-97.24","49.00","EMERSON AUTO","5020881","2022-06-14 05:00","2022","06","14","05:00","","M","","M","","M","0.0","","7","","13","","","","97.05","","","","","","NA"
"-97.24","49.00","EMERSON AUTO","5020881","2022-06-14 06:00","2022","06","14","06:00","","M","","M","","M","0.0","","9","","15","","","","96.92","","","","","","NA"
"-97.24","49.00","EMERSON AUTO","5020881","2022-06-14 07:00","2022","06","14","07:00","","M","","M","","M","0.0","","15","","19","","","","97.22","","","","","","NA"
"-97.24","49.00","EMERSON AUTO","5020881","2022-06-14 08:00","2022","06","14","08:00","","M","","M","","M","10.9","","13","","21","","","","97.06","","","","","","NA"
"-97.24","49.00","EMERSON AUTO","5020881","2022-06-14 09:00","2022","06","14","09:00","","M","","M","","M","4.8","","21","","18","","","","96.98","","","","","","NA"
"-97.24","49.00","EMERSON AUTO","5020881","2022-06-14 10:00","2022","06","14","10:00","","M","","M","","M","2.8","","17","","42","","","","96.73","","","","","","NA"
"-97.24","49.00","EMERSON AUTO","5020881","2022-06-14 11:00","2022","06","14","11:00","","M","","M","","M","0.0","","15","","17","","","","96.86","","","","","","NA"
"-97.24","49.00","EMERSON AUTO","5020881","2022-06-14 12:00","2022","06","14","12:00","","M","","M","","M","0.0","","13","","15","","","","96.87","","","","","","NA"
"-97.24","49.00","EMERSON AUTO","5020881","2022-06-14 13:00","2022","06","14","13:00","","M","","M","","M","0.0","","13","","18","","","","96.84","","","","","","NA"
"-97.24","49.00","EMERSON AUTO","5020881","2022-06-14 14:00","2022","06","14","14:00","","M","","M","","M","0.3","","14","","16","","","","96.93","","","","","","NA"
"-97.24","49.00","EMERSON AUTO","5020881","2022-06-14 15:00","2022","06","14","15:00","","M","","M","","M","0.3","","17","","14","","","","96.96","","","","","","NA"
"-97.24","49.00","EMERSON AUTO","5020881","2022-06-14 16:00","2022","06","14","16:00","","M","","M","","M","0.0","","18","","11","","","","96.94","","","","","","NA"
"-97.24","49.00","EMERSON AUTO","5020881","2022-06-14 17:00","2022","06","14","17:00","","M","","M","","M","0.0","","20","","20","","","","96.96","","","","","","NA"
"-97.24","49.00","EMERSON AUTO","5020881","2022-06-14 18:00","2022","06","14","18:00","","M","","M","","M","0.0","","30","","32","","","","97.00","","","","","","NA"
"-97.24","49.00","EMERSON AUTO","5020881","2022-06-14 19:00","2022","06","14","19:00","","M","","M","","M","0.0","","27","","28","","","","97.14","","","","","","NA"
"-97.24","49.00","EMERSON AUTO","5020881","2022-06-14 20:00","2022","06","14","20:00","","M","","M","","M","0.0","","27","","21","","","","97.24","","","","","","NA"
"-97.24","49.00","EMERSON AUTO","5020881","2022-06-14 21:00","2022","06","14","21:00","","M","","M","","M","0.0","","27","","13","","","","97.39","","","","","","NA"
"-97.24","49.00","EMERSON AUTO","5020881","2022-06-14 22:00","2022","06","14","22:00","","M","","M","","M","0.0","","24","","5","","","","97.48","","","","","","NA"
"-97.24","49.00","EMERSON AUTO","5020881","2022-06-14 23:00","2022","06","14","23:00","","M","","M","","M","0.0","","21","","7","","","","97.48","","","","","","NA"
"-97.24","49.00","EMERSON AUTO","5020881","2022-06-15 00:00","2022","06","15","00:00","","M","","M","","M","0.0","","17","","9","","","","97.46","","","","","","NA"
"-97.24","49.00","EMERSON AUTO","5020881","2022-06-15 01:00","2022","06","15","01:00","","M","","M","","M","0.0","","18","","15","","","","97.48","","","","","","NA"
"-97.24","49.00","EMERSON AUTO","5020881","2022-06-15 02:00","2022","06","15","02:00","","M","","M","","M","0.0","","17","","13","","","","97.40","","","","","","NA"
"-97.24","49.00","EMERSON AUTO","5020881","2022-06-15 03:00","2022","06","15","03:00","","M","","M","","M","0.0","","17","","16","","","","97.39","","","","","","NA"
"-97.24","49.00","EMERSON AUTO","5020881","2022-06-15 04:00","2022","06","15","04:00","","M","","M","","M","0.0","","17","","21","","","","97.39","","","","","","NA"
"-97.24","49.00","EMERSON AUTO","5020881","2022-06-15 05:00","2022","06","15","05:00","","M","","M","","M","0.0","","17","","21","","","","97.42","","","","","","NA"
"-97.24","49.00","EMERSON AUTO","5020881","2022-06-15 06:00","2022","06","15","06:00","","M","","M","","M","0.0","","18","","19","","","","97.45","","","","","","NA"
"-97.24","49.00","EMERSON AUTO","5020881","2022-06-15 07:00","2022","06","15","07:00","","M","","M","","M","0.0","","18","","24","","","","97.45","","","","","","NA"
"-97.24","49.00","EMERSON AUTO","5020881","2022-06-15 08:00","2022","06","15","08:00","","M","","M","","M","0.0","","19","","30","","","","97.41","","","","","","NA"
"-97.24","49.00","EMERSON AUTO","5020881","2022-06-15 09:00","2022","06","15","09:00","","M","","M","","M","0.0","","20","","30","","","","97.41","","","","","","NA"
"-97.24","49.00","EMERSON AUTO","5020881","2022-06-15 10:00","2022","06","15","10:00","","M","","M","","M","0.0","","18","","28","","","","97.32","","","","","","NA"
"-97.24","49.00","EMERSON AUTO","5020881","2022-06-15 11:00","2022","06","15","11:00","","M","","M","","M","0.0","","20","","29","","","","97.26","","","","","","NA"
"-97.24","49.00","EMERSON AUTO","5020881","2022-06-15 12:00","2022","06","15","12:00","","M","","M","","M","0.0","","19","","31","","","","97.19","","","","","","NA"
"-97.24","49.00","EMERSON AUTO","5020881","2022-06-15 13:00","2022","06","15","13:00","","M","","M","","M","0.0","","20","","34","","","","97.13","","","","","","NA"
"-97.24","49.00","EMERSON AUTO","5020881","2022-06-15 14:00","2022","06","15","14:00","","M","","M","","M","0.0","","21","","36","","","","97.06","","","","","","NA"
"-97.24","49.00","EMERSON AUTO","5020881","2022-06-15 15:00","2022","06","15","15:00","","M","","M","","M","0.0","","21","","36","","","","97.02","","","","","","NA"
"-97.24","49.00","EMERSON AUTO","5020881","2022-06-15 16:00","2022","06","15","16:00","","M","","M","","M","0.0","","20","","45","","","","96.93","","","","","","NA"
"-97.24","49.00","EMERSON AUTO","5020881","2022-06-15 17:00","2022","06","15","17:00","","M","","M","","M","0.0","","21","","50","","","","96.87","","","","","","NA"
"-97.24","49.00","EMERSON AUTO","5020881","2022-06-15 18:00","2022","06","15","18:00","","M","","M","","M","0.0","","22","","38","","","","96.86","","","","","","NA"
"-97.24","49.00","EMERSON AUTO","5020881","2022-06-15 19:00","2022","06","15","19:00","","M","","M","","M","0.0","","21","","35","","","","96.81","","","","","","NA"
"-97.24","49.00","EMERSON AUTO","5020881","2022-06-15 20:00","2022","06","15","20:00","","M","","M","","M","0.0","","19","","24","","","","96.69","","","","","","NA"
"-97.24","49.00","EMERSON AUTO","5020881","2022-06-15 21:00","2022","06","15","21:00","","M","","M","","M","0.0","","20","","38","","","","96.65","","","","","","NA"
"-97.24","49.00","EMERSON AUTO","5020881","2022-06-15 22:00","2022","06","15","22:00","","M","","M","","M","0.0","","19","","31","","","","96.53","","","","","","NA"
"-97.24","49.00","EMERSON AUTO","5020881","2022-06-15 23:00","2022","06","15","23:00","","M","","M","","M","0.0","","20","","29","","","","96.52","","","","","","NA"
"-97.24","49.00","EMERSON AUTO","5020881","2022-06-16 00:00","2022","06","16","00:00","","M","","M","","M","0.0","","26","","30","","","","96.60","","","","","","NA"
"-97.24","49.00","EMERSON AUTO","5020881","2022-06-16 01:00","2022","06","16","01:00","","M","","M","","M","0.0","","26","","31","","","","96.67","","","","","","NA"
"-97.24","49.00","EMERSON AUTO","5020881","2022-06-16 02:00","2022","06","16","02:00","","M","","M","","M","0.0","","27","","32","","","","96.78","","","","","","NA"
"-97.24","49.00","EMERSON AUTO","5020881","2022-06-16 03:00","2022","06","16","03:00","","M","","M","","M","0.0","","26","","24","","","","96.85","","","","","","NA"
"-97.24","49.00","EMERSON AUTO","5020881","2022-06-16 04:00","2022","06","16","04:00","","M","","M","","M","0.0","","26","","22","","","","96.96","","","","","","NA"
"-97.24","49.00","EMERSON AUTO","5020881","2022-06-16 05:00","2022","06","16","05:00","","M","","M","","M","0.0","","26","","26","","","","97.06","","","","","","NA"
"-97.24","49.00","EMERSON AUTO","5020881","2022-06-16 06:00","2022","06","16","06:00","","M","","M","","M","0.0","","27","","32","","","","97.20","","","","","","NA"
"-97.24","49.00","EMERSON AUTO","5020881","2022-06-16 07:00","2022","06","16","07:00","","M","","M","","M","0.0","","29","","35","","","","97.35","","","","","","NA"
"-97.24","49.00","EMERSON AUTO","5020881","2022-06-16 08:00","2022","06","16","08:00","","M","","M","","M","0.0","","30","","37","","","","97.47","","","","","","NA"
"-97.24","49.00","EMERSON AUTO","5020881","2022-06-16 09:00","2022","06","16","09:00","","M","","M","","M","0.0","","30","","36","","","","97.60","","","","","","NA"
"-97.24","49.00","EMERSON AUTO","5020881","2022-06-16 10:00","2022","06","16","10:00","","M","","M","","M","0.0","","31","","38","","","","97.70","","","","","","NA"
"-97.24","49.00","EMERSON AUTO","5020881","2022-06-16 11:00","2022","06","16","11:00","","M","","M","","M","0.0","","30","","36","","","","97.81","","","","","","NA"
"-97.24","49.00","EMERSON AUTO","5020881","2022-06-16 12:00","2022","06","16","12:00","","M","","M","","M","0.0","","31","","38","","","","97.92","","","","","","NA"
"-97.24","49.00","EMERSON AUTO","5020881","2022-06-16 13:00","2022","06","16","13:00","","M","","M","","M","0.0","","30","","39","","","","98.02","","","","","","NA"
"-97.24","49.00","EMERSON AUTO","5020881","2022-06-16 14:00","2022","06","16","14:00","","M","","M","","M","0.0","","31","","31","","","","98.11","","","","","","NA"
"-97.24","49.00","EMERSON AUTO","5020881","2022-06-16 15:00","2022","06","16","15:00","","M","","M","","M","0.0","","32","","32","","","","98.18","","","","","","NA"
"-97.24","49.00","EMERSON AUTO","5020881","2022-06-16 16:00","2022","06","16","16:00","","M","","M","","M","0.0","","30","","30","","","","98.23","","","","","","NA"
"-97.24","49.00","EMERSON AUTO","5020881","2022-06-16 17:00","2022","06","16","17:00","","M","","M","","M","0.0","","30","","29","","","","98.27","","","","","","NA"
"-97.24","49.00","EMERSON AUTO","5020881","2022-06-16 18:00","2022","06","16","18:00","","M","","M","","M","0.0","","30","","25","","","","98.34","","","","","","NA"
"-97.24","49.00","EMERSON AUTO","5020881","2022-06-16 19:00","2022","06","16","19:00","","M","","M","","M","0.0","","32","","17","","","","98.39","","","","","","NA"
"-97.24","49.00","EMERSON AUTO","5020881","2022-06-16 20:00","2022","06","16","20:00","","M","","M","","M","0.0","","32","","15","","","","98.44","","","","","","NA"
"-97.24","49.00","EMERSON AUTO","5020881","2022-06-16 21:00","2022","06","16","21:00","","M","","M","","M","0.0","","30","","8","","","","98.52","","","","","","NA"
"-97.24","49.00","EMERSON AUTO","5020881","2022-06-16 22:00","2022","06","16","22:00","","M","","M","","M","0.0","","27","","11","","","","98.58","","","","","","NA"
"-97.24","49.00","EMERSON AUTO","5020881","2022-06-16 23:00","2022","06","16","23:00","","M","","M","","M","0.0","","27","","11","","","","98.62","","","","","","NA"
"-97.24","49.00","EMERSON AUTO","5020881","2022-06-17 00:00","2022","06","17","00:00","","M","","M","","M","0.0","","28","","7","","","","98.67","","","","","","NA"
"-97.24","49.00","EMERSON AUTO","5020881","2022-06-17 01:00","2022","06","17","01:00","","M","","M","","M","0.0","","30","","8","","","","98.71","","","","","","NA"
"-97.24","49.00","EMERSON AUTO","5020881","2022-06-17 02:00","2022","06","17","02:00","","M","","M","","M","0.0","","26","","7","","","","98.74","","","","","","NA"
"-97.24","49.00","EMERSON AUTO","5020881","2022-06-17 03:00","2022","06","17","03:00","","M","","M","","M","0.0","","28","","5","","","","98.81","","","","","","NA"
"-97.24","49.00","EMERSON AUTO","5020881","2022-06-17 04:00","2022","06","17","04:00","","M","","M","","M","0.0","","35","","8","","","","98.90","","","","","","NA"
"-97.24","49.00","EMERSON AUTO","5020881","2022-06-17 05:00","2022","06","17","05:00","","M","","M","","M","0.0","","36","","10","","","","98.97","","","","","","NA"
"-97.24","49.00","EMERSON AUTO","5020881","2022-06-17 06:00","2022","06","17","06:00","","M","","M","","M","0.0","","2","","12","","","","99.06","","","","","","NA"
"-97.24","49.00","EMERSON AUTO","5020881","2022-06-17 07:00","2022","06","17","07:00","","M","","M","","M","0.0","","3","","16","","","","99.13","","","","","","NA"
"-97.24","49.00","EMERSON AUTO","5020881","2022-06-17 08:00","2022","06","17","08:00","","M","","M","","M","0.0","","35","","9","","","","99.24","","","","","","NA"
"-97.24","49.00","EMERSON AUTO","5020881","2022-06-17 09:00","2022","06","17","09:00"
"-97.24","49.00","EMERSON AUTO","5020881","2022-06-17 10:00","2022","06","17","10:00"
"-97.24","49.00","EMERSON AUTO","5020881","2022-06-17 11:00","2022","06","17","11:00","20.9","","12.3","","58","","0.0","","3","","12","","","","99.27","","","","","","NA"
"-97.24","49.00","EMERSON AUTO","5020881","2022-06-17 12:00","2022","06","17","12:00","21.6","","12.4","","56","","0.0","","3","","12","","","","99.27","","","","","","NA"
"-97.24","49.00","EMERSON AUTO","5020881","2022-06-17 13:00","2022","06","17","13:00","23.1","","12.2","","50","","0.0","","5","","13","","","","99.22","","25","","","","NA"
"-97.24","49.00","EMERSON AUTO","5020881","2022-06-17 14:00","2022","06","17","14:00","23.3","","10.8","","45","","0.0","","6","","13","","","","99.18","","25","","","","NA"
"-97.24","49.00","EMERSON AUTO","5020881","2022-06-17 15:00","2022","06","17","15:00","24.1","","10.3","","42","","0.0","","6","","13","","","","99.12","","26","","","","NA"
"-97.24","49.00","EMERSON AUTO","5020881","2022-06-17 16:00","2022","06","17","16:00","24.8","","8.2","","35","","0.0","","9","","10","","","","99.05","","25","","","","NA"
"-97.24","49.00","EMERSON AUTO","5020881","2022-06-17 17:00","2022","06","17","17:00","25.2","","9.6","","37","","0.0","","9","","12","","","","99.03","","26","","","","NA"
"-97.24","49.00","EMERSON AUTO","5020881","2022-06-17 18:00","2022","06","17","18:00","24.9","","9.6","","38","","0.0","","11","","14","","","","99.00","","26","","","","NA"
"-97.24","49.00","EMERSON AUTO","5020881","2022-06-17 19:00","2022","06","17","19:00","23.9","","11.1","","45","","0.0","","11","","18","","","","99.01","","26","","","","NA"
"-97.24","49.00","EMERSON AUTO","5020881","2022-06-17 20:00","2022","06","17","20:00","21.8","","11.2","","51","","0.0","","12","","17","","","","99.08","","","","","","NA"
"-97.24","49.00","EMERSON AUTO","5020881","2022-06-17 21:00","2022","06","17","21:00","19.9","","10.7","","55","","0.0","","10","","13","","","","99.08","","","","","","NA"
"-97.24","49.00","EMERSON AUTO","5020881","2022-06-17 22:00","2022","06","17","22:00","18.1","","9.6","","57","","0.0","","10","","15","","","","99.06","","","","","","NA"
"-97.24","49.00","EMERSON AUTO","5020881","2022-06-17 23:00","2022","06","17","23:00","17.4","","9.6","","60","","0.0","","10","","15","","","","99.02","","","","","","NA"
"-97.24","49.00","EMERSON AUTO","5020881","2022-06-18 00:00","2022","06","18","00:00","17.2","","7.9","","55","","0.0","","11","","17","","","","98.97","","","","","","NA"
"-97.24","49.00","EMERSON AUTO","5020881","2022-06-18 01:00","2022","06","18","01:00","16.6","","8.2","","57","","0.0","","12","","18","","","","98.92","","","","","","NA"
"-97.24","49.00","EMERSON AUTO","5020881","2022-06-18 02:00","2022","06","18","02:00","17.2","","7.2","","52","","0.0","","13","","20","","","","98.85","","","","","","NA"
"-97.24","49.00","EMERSON AUTO","5020881","2022-06-18 03:00","2022","06","18","03:00","17.2","","7.8","","54","","0.0","","12","","19","","","","98.86","","","","","","NA"
"-97.24","49.00","EMERSON AUTO","5020881","2022-06-18 04:00","2022","06","18","04:00","16.2","","7.7","","57","","0.0","","11","","14","","","","98.94","","","","","","NA"
"-97.24","49.00","EMERSON AUTO","5020881","2022-06-18 05:00","2022","06","18","05:00","15.5","","7.9","","60","","0.0","","11","","20","","","","98.89","","","","","","NA"
"-97.24","49.00","EMERSON AUTO","5020881","2022-06-18 06:00","2022","06","18","06:00","16.7","","8.6","","59","","0.0","","12","","21","","","","98.83","","","","","","NA"
"-97.24","49.00","EMERSON AUTO","5020881","2022-06-18 07:00","2022","06","18","07:00","18.7","","10.2","","58","","0.0","","14","","22","","","","98.80","","","","","","NA"
"-97.24","49.00","EMERSON AUTO","5020881","2022-06-18 08:00","2022","06","18","08:00","17.5","","13.2","","76","","4.6","","13","","26","","","","98.73","","","","","","NA"
"-97.24","49.00","EMERSON AUTO","5020881","2022-06-18 09:00","2022","06","18","09:00","18.8","","13.7","","72","","0.0","","12","","25","","","","98.67","","","","","","NA"
"-97.24","49.00","EMERSON AUTO","5020881","2022-06-18 10:00","2022","06","18","10:00","20.0","","14.3","","70","","0.0","","12","","26","","","","98.58","","","","","","NA"
"-97.24","49.00","EMERSON AUTO","5020881","2022-06-18 11:00","2022","06","18","11:00","21.9","","14.4","","62","","0.0","","13","","27","","","","98.50","","26","","","","NA"
"-97.24","49.00","EMERSON AUTO","5020881","2022-06-18 12:00","2022","06","18","12:00","23.0","","13.7","","56","","0.0","","15","","41","","","","98.42","","26","","","","NA"
"-97.24","49.00","EMERSON AUTO","5020881","2022-06-18 13:00","2022","06","18","13:00","23.9","","13.4","","52","","0.0","","15","","43","","","","98.38","","27","","","","NA"
"-97.24","49.00","EMERSON AUTO","5020881","2022-06-18 14:00","2022","06","18","14:00","24.6","","12.0","","45","","0.0","","15","","45","","","","98.33","","27","","","","NA"
"-97.24","49.00","EMERSON AUTO","5020881","2022-06-18 15:00","2022","06","18","15:00","26.2","","13.7","","46","","0.0","","15","","43","","","","98.22","","29","","","","NA"
"-97.24","49.00","EMERSON AUTO","5020881","2022-06-18 16:00","2022","06","18","16:00","27.7","","12.3","","38","","0.0","","15","","42","","","","98.16","","30","","","","NA"
"-97.24","49.00","EMERSON AUTO","5020881","2022-06-18 17:00","2022","06","18","17:00","27.7","","12.3","","39","","0.0","","15","","47","","","","98.12","","30","","","","NA"
"-97.24","49.00","EMERSON AUTO","5020881","2022-06-18 18:00","2022","06","18","18:00","27.0","","12.1","","40","","0.0","","15","","41","","","","98.06","","29","","","","NA"
"-97.24","49.00","EMERSON AUTO","5020881","2022-06-18 19:00","2022","06","18","19:00","25.8","","12.1","","42","","0.0","","15","","37","","","","98.02","","28","","","","NA"
"-97.24","49.00","EMERSON AUTO","5020881","2022-06-18 20:00","2022","06","18","20:00","24.5","","13.5","","50","","0.0","","14","","27","","","","97.98","","28","","","","NA"
"-97.24","49.00","EMERSON AUTO","5020881","2022-06-18 21:00","2022","06","18","21:00","23.3","","14.5","","58","","0.0","","14","","28","","","","97.97","","27","","","","NA"
"-97.24","49.00","EMERSON AUTO","5020881","2022-06-18 22:00","2022","06","18","22:00","22.8","","14.3","","59","","0.0","","15","","30","","","","97.93","","26","","","","NA"
"-97.24","49.00","EMERSON AUTO","5020881","2022-06-18 23:00","2022","06","18","23:00","22.4","","13.9","","59","","0.0","","15","","26","","","","97.90","","26","","","","NA"
"-97.24","49.00","EMERSON AUTO","5020881","2022-06-19 00:00","2022","06","19","00:00","22.3","","13.7","","58","","0.0","","15","","28","","","","97.82","","25","","","","NA"
"-97.24","49.00","EMERSON AUTO","5020881","2022-06-19 01:00","2022","06","19","01:00","22.5","","13.7","","58","","0.0","","15","","32","","","","97.75","","26","","","","NA"
"-97.24","49.00","EMERSON AUTO","5020881","2022-06-19 02:00","2022","06","19","02:00","22.7","","14.2","","59","","0.0","","15","","31","","","","97.67","","26","","","","NA"
"-97.24","49.00","EMERSON AUTO","5020881","2022-06-19 03:00","2022","06","19","03:00","22.9","","15.1","","61","","0.0","","17","","34","","","","97.66","","27","","","","NA"
"-97.24","49.00","EMERSON AUTO","5020881","2022-06-19 04:00","2022","06","19","04:00","22.9","","16.2","","66","","0.0","","16","","30","","","","97.64","","28","","","","NA"
"-97.24","49.00","EMERSON AUTO","5020881","2022-06-19 05:00","2022","06","19","05:00","23.7","","17.5","","68","","0.0","","17","","33","","","","97.62","","29","","","","NA"
"-97.24","49.00","EMERSON AUTO","5020881","2022-06-19 06:00","2022","06","19","06:00","24.3","","18.3","","69","","0.0","","17","","29","","","","97.64","","31","","","","NA"
"-97.24","49.00","EMERSON AUTO","5020881","2022-06-19 07:00","2022","06","19","07:00","25.0","","19.1","","70","","0.0","","16","","22","","","","97.67","","32","","","","NA"
"-97.24","49.00","EMERSON AUTO","5020881","2022-06-19 08:00","2022","06","19","08:00","25.9","","19.8","","69","","0.0","","17","","24","","","","97.66","","33","","","","NA"
"-97.24","49.00","EMERSON AUTO","5020881","2022-06-19 09:00","2022","06","19","09:00","28.1","","20.8","","64","","0.0","","17","","31","","","","97.58","","36","","","","NA"
"-97.24","49.00","EMERSON AUTO","5020881","2022-06-19 10:00","2022","06","19","10:00","29.9","","20.9","","59","","0.0","","18","","27","","","","97.57","","38","","","","NA"
"-97.24","49.00","EMERSON AUTO","5020881","2022-06-19 11:00","2022","06","19","11:00","33.2","","20.4","","47","","0.0","","18","","25","","","","97.52","","41","","","","NA"
"-97.24","49.00","EMERSON AUTO","5020881","2022-06-19 12:00","2022","06","19","12:00","33.8","","18.9","","42","","0.0","","18","","29","","","","97.46","","40","","","","NA"
"-97.24","49.00","EMERSON AUTO","5020881","2022-06-19 13:00","2022","06","19","13:00","35.0","","18.9","","39","","0.0","","17","","29","","","","97.37","","42","","","","NA"
"-97.24","49.00","EMERSON AUTO","5020881","2022-06-19 14:00","2022","06","19","14:00","36.2","","18.6","","35","","0.0","","18","","37","","","","97.35","","43","","","","NA"
"-97.24","49.00","EMERSON AUTO","5020881","2022-06-19 15:00","2022","06","19","15:00","36.5","","18.5","","35","","0.0","","17","","31","","","","97.28","","43","","","","NA"
"-97.24","49.00","EMERSON AUTO","5020881","2022-06-19 16:00","2022","06","19","16:00","37.8","","17.8","","31","","0.0","","19","","40","","","","97.22","","44","","","","NA"
"-97.24","49.00","EMERSON AUTO","5020881","2022-06-19 17:00","2022","06","19","17:00","37.9","","17.2","","30","","0.0","","20","","40","","","","97.18","","43","","","","NA"
"-97.24","49.00","EMERSON AUTO","5020881","2022-06-19 18:00","2022","06","19","18:00","37.2","","17.7","","32","","0.0","","21","","35","","","","97.17","","43","","","","NA"
"-97.24","49.00","EMERSON AUTO","5020881","2022-06-19 19:00","2022","06","19","19:00","35.8","","18.4","","36","","0.0","","20","","33","","","","97.18","","42","","","","NA"
"-97.24","49.00","EMERSON AUTO","5020881","2022-06-19 20:00","2022","06","19","20:00","33.6","","18.9","","42","","0.0","","19","","25","","","","97.21","","40","","","","NA"
"-97.24","49.00","EMERSON AUTO","5020881","2022-06-19 21:00","2022","06","19","21:00","33.1","","19.2","","44","","0.0","","17","","24","","","","97.24","","40","","","","NA"
"-97.24","49.00","EMERSON AUTO","5020881","2022-06-19 22:00","2022","06","19","22:00","31.3","","19.3","","49","","0.0","","18","","24","","","","97.26","","38","","","","NA"
"-97.24","49.00","EMERSON AUTO","5020881","2022-06-19 23:00","2022","06","19","23:00","29.3","","20.0","","58","","0.0","","19","","24","","","","97.32","","37","","","","NA"
"-97.24","49.00","EMERSON AUTO","5020881","2022-06-20 00:00","2022","06","20","00:00","28.7","","19.8","","59","","0.0","","19","","32","","","","97.41","","36","","","","NA"
"-97.24","49.00","EMERSON AUTO","5020881","2022-06-20 01:00","2022","06","20","01:00","27.0","","19.9","","65","","0.0","","20","","17","","","","97.41","","34","","","","NA"
"-97.24","49.00","EMERSON AUTO","5020881","2022-06-20 02:00","2022","06","20","02:00","26.8","","18.9","","62","","0.0","","22","","17","","","","97.43","","33","","","","NA"
"-97.24","49.00","EMERSON AUTO","5020881","2022-06-20 03:00","2022","06","20","03:00","25.8","","19.4","","68","","0.0","","19","","20","","","","97.51","","33","","","","NA"
"-97.24","49.00","EMERSON AUTO","5020881","2022-06-20 04:00","2022","06","20","04:00","25.0","","19.8","","73","","0.0","","18","","17","","","","97.54","","32","","","","NA"
"-97.24","49.00","EMERSON AUTO","5020881","2022-06-20 05:00","2022","06","20","05:00","24.8","","20.1","","75","","0.0","","22","","15","","","","97.54","","32","","","","NA"
"-97.24","49.00","EMERSON AUTO","5020881","2022-06-20 06:00","2022","06","20","06:00","25.7","","20.3","","72","","0.0","","17","","5","","","","97.57","","34","","","","NA"
"-97.24","49.00","EMERSON AUTO","5020881","2022-06-20 07:00","2022","06","20","07:00","27.0","","20.4","","68","","0.0","","22","","15","","","","97.65","","35","","","","NA"
"-97.24","49.00","EMERSON AUTO","5020881","2022-06-20 08:00","2022","06","20","08:00","27.4","","20.3","","65","","0.0","","25","","12","","","","97.69","","35","","","","NA"
"-97.24","49.00","EMERSON AUTO","5020881","2022-06-20 09:00","2022","06","20","09:00","29.0","","19.4","","56","","0.0","","28","","16","","","","97.68","","36","","","","NA"
"-97.24","49.00","EMERSON AUTO","5020881","2022-06-20 10:00","2022","06","20","10:00","29.2","","19.0","","54","","0.0","","28","","15","","","","97.78","","36","","","","NA"
"-97.24","49.00","EMERSON AUTO","5020881","2022-06-20 11:00","2022","06","20","11:00","29.2","","19.0","","54","","0.0","","30","","16","","","","97.79","","36","","","","NA"
"-97.24","49.00","EMERSON AUTO","5020881","2022-06-20 12:00","2022","06","20","12:00","29.5","","18.9","","53","","0.0","","31","","17","","","","97.84","","36","","","","NA"
"-97.24","49.00","EMERSON AUTO","5020881","2022-06-20 13:00","2022","06","20","13:00","28.9","","19.4","","57","","0.0","","30","","27","","","","97.84","","36","","","","NA"
"-97.24","49.00","EMERSON AUTO","5020881","2022-06-20 14:00","2022","06","20","14:00","27.2","","19.2","","62","","0.0","","27","","22","","","","97.97","","34","","","","NA"
"-97.24","49.00","EMERSON AUTO","5020881","2022-06-20 15:00","2022","06","20","15:00","25.2","","20.3","","74","","0.0","","31","","18","","","","97.85","","33","","","","NA"
"-97.24","49.00","EMERSON AUTO","5020881","2022-06-20 16:00","2022","06","20","16:00","24.8","","19.7","","73","","0.0","","30","","6","","","","97.80","","32","","","","NA"
"-97.24","49.00","EMERSON AUTO","5020881","2022-06-20 17:00","2022","06","20","17:00","24.9","","20.2","","75","","0.0","","29","","16","","","","97.78","","33","","","","NA"
"-97.24","49.00","EMERSON AUTO","5020881","2022-06-20 18:00","2022","06","20","18:00","25.5","","18.9","","67","","0.0","","27","","8","","","","97.77","","32","","","","NA"
"-97.24","49.00","EMERSON AUTO","5020881","2022-06-20 19:00","2022","06","20","19:00","24.3","","20.7","","80","","0.0","","19","","6","","","","97.74","","32","","","","NA"
"-97.24","49.00","EMERSON AUTO","5020881","2022-06-20 20:00","2022","06","20","20:00","24.6","","19.5","","73","","0.0","","24","","2","","","","97.72","","32","","","","NA"
"-97.24","49.00","EMERSON AUTO","5020881","2022-06-20 21:00","2022","06","20","21:00","23.5","","20.7","","84","","0.0","","18","","7","","","","97.78","","32","","","","NA"
"-97.24","49.00","EMERSON AUTO","5020881","2022-06-20 22:00","2022","06","20","22:00","23.0","","20.9","","88","","0.0","","20","","13","","","","97.78","","31","","","","NA"
"-97.24","49.00","EMERSON AUTO","5020881","2022-06-20 23:00","2022","06","20","23:00","21.7","","18.0","","79","","0.0","","33","","19","","","","97.86","","28","","","","NA"
"-97.24","49.00","EMERSON AUTO","5020881","2022-06-21 00:00","2022","06","21","00:00","20.7","","17.6","","83","","0.0","","34","","14","","","","97.83","","26","","","","NA"
"-97.24","49.00","EMERSON AUTO","5020881","2022-06-21 01:00","2022","06","21","01:00","19.6","","17.3","","87","","0.0","","30","","10","","","","97.84","","","","","","NA"
"-97.24","49.00","EMERSON AUTO","5020881","2022-06-21 02:00","2022","06","21","02:00","18.6","","16.8","","89","","0.0","","31","","13","","","","97.79","","","","","","NA"
"-97.24","49.00","EMERSON AUTO","5020881","2022-06-21 03:00","2022","06","21","03:00","17.8","","16.2","","91","","0.0","","33","","6","","","","97.75","","","","","","NA"
"-97.24","49.00","EMERSON AUTO","5020881","2022-06-21 04:00","2022","06","21","04:00","17.6","","16.5","","93","","0.0","","22","","11","","","","97.83","","","","","","NA"
"-97.24","49.00","EMERSON AUTO","5020881","2022-06-21 05:00","2022","06","21","05:00","18.4","","17.0","","92","","0.0","","24","","11","","","","97.87","","","","","","NA"
"-97.24","49.00","EMERSON AUTO","5020881","2022-06-21 06:00","2022","06","21","06:00","19.1","","17.9","","93","","1.6","","19","","12","","","","97.86","","","","","","NA"
"-97.24","49.00","EMERSON AUTO","5020881","2022-06-21 07:00","2022","06","21","07:00","18.9","","15.9","","83","","0.0","","24","","36","","","","97.88","","","","","","NA"
"-97.24","49.00","EMERSON AUTO","5020881","2022-06-21 08:00","2022","06","21","08:00","19.9","","14.9","","73","","0.0","","24","","32","","","","97.85","","","","","","NA"
"-97.24","49.00","EMERSON AUTO","5020881","2022-06-21 09:00","2022","06","21","09:00","19.7","","14.3","","71","","0.0","","24","","42","","","","97.87","","","","","","NA"
"-97.24","49.00","EMERSON AUTO","5020881","2022-06-21 10:00","2022","06","21","10:00","20.9","","13.5","","63","","0.0","","23","","46","","","","97.90","","","","","","NA"
"-97.24","49.00","EMERSON AUTO","5020881","2022-06-21 11:00","2022","06","21","11:00","21.4","","12.1","","55","","0.0","","23","","49","","","","97.92","","","","","","NA"
"-97.24","49.00","EMERSON AUTO","5020881","2022-06-21 12:00","2022","06","21","12:00","22.0","","12.0","","53","","0.0","","24","","48","","","","97.94","","","","","","NA"
"-97.24","49.00","EMERSON AUTO","5020881","2022-06-21 13:00","2022","06","21","13:00","21.4","","13.0","","59","","0.0","","24","","45","","","","97.96","","","","","","NA"
"-97.24","49.00","EMERSON AUTO","5020881","2022-06-21 14:00","2022","06","21","14:00","23.0","","13.4","","55","","0.0","","31","","34","","","","98.01","","26","","","","NA"
"-97.24","49.00","EMERSON AUTO","5020881","2022-06-21 15:00","2022","06","21","15:00","19.6","","15.5","","77","","0.0","","31","","34","","","","98.17","","","","","","NA"
"-97.24","49.00","EMERSON AUTO","5020881","2022-06-21 16:00","2022","06","21","16:00","19.0","","13.5","","70","","0.0","","31","","38","","","","98.33","","","","","","NA"
"-97.24","49.00","EMERSON AUTO","5020881","2022-06-21 17:00","2022","06","21","17:00","18.8","","13.5","","71","","0.0","","33","","36","","","","98.42","","","","","","NA"
"-97.24","49.00","EMERSON AUTO","5020881","2022-06-21 18:00","2022","06","21","18:00","19.2","","13.0","","67","","0.0","","32","","26","","","","98.49","","","","","","NA"
"-97.24","49.00","EMERSON AUTO","5020881","2022-06-21 19:00","2022","06","21","19:00","18.9","","11.5","","62","","0.0","","31","","31","","","","98.60","","","","","","NA"
"-97.24","49.00","EMERSON AUTO","5020881","2022-06-21 20:00","2022","06","21","20:00","17.7","","11.9","","69","","0.0","","33","","17","","","","98.70","","","","","","NA"
"-97.24","49.00","EMERSON AUTO","5020881","2022-06-21 21:00","2022","06","21","21:00","16.5","","12.2","","76","","0.0","","35","","9","","","","98.78","","","","","","NA"
"-97.24","49.00","EMERSON AUTO","5020881","2022-06-21 22:00","2022","06","21","22:00","15.1","","12.3","","83","","0.0","","2","","4","","","","98.79","","","","","","NA"
"-97.24","49.00","EMERSON AUTO","5020881","2022-06-21 23:00","2022","06","21","23:00","13.9","","12.4","","91","","0.0","","28","","1","","","","98.84","","","","","","NA"
"-97.24","49.00","EMERSON AUTO","5020881","2022-06-22 00:00","2022","06","22","00:00","12.5","","11.1","","91","","0.0","","23","","5","","","","98.85","","","","","","NA"
"-97.24","49.00","EMERSON AUTO","5020881","2022-06-22 01:00","2022","06","22","01:00","12.3","","10.9","","91","","0.0","","23","","6","","","","98.89","","","","","","NA"
"-97.24","49.00","EMERSON AUTO","5020881","2022-06-22 02:00","2022","06","22","02:00","12.3","","11.1","","92","","0.0","","22","","8","","","","98.92","","","","","","NA"
"-97.24","49.00","EMERSON AUTO","5020881","2022-06-22 03:00","2022","06","22","03:00","12.2","","10.5","","89","","0.0","","21","","7","","","","98.91","","","","","","NA"
"-97.24","49.00","EMERSON AUTO","5020881","2022-06-22 04:00","2022","06","22","04:00","11.5","","9.7","","88","","0.0","","20","","9","","","","98.90","","","","","","NA"
"-97.24","49.00","EMERSON AUTO","5020881","2022-06-22 05:00","2022","06","22","05:00","12.2","","9.9","","86","","0.0","","18","","10","","","","98.93","","","","","","NA"
"-97.24","49.00","EMERSON AUTO","5020881","2022-06-22 06:00","2022","06","22","06:00","14.3","","11.3","","82","","0.0","","19","","14","","","","98.97","","","","","","NA"
"-97.24","49.00","EMERSON AUTO","5020881","2022-06-22 07:00","2022","06","22","07:00","17.4","","12.6","","73","","0.0","","18","","14","","","","99.00","","","","","","NA"
"-97.24","49.00","EMERSON AUTO","5020881","2022-06-22 08:00","2022","06","22","08:00","18.5","","13.2","","71","","0.0","","19","","14","","","","99.00","","","","","","NA"
"-97.24","49.00","EMERSON AUTO","5020881","2022-06-22 09:00","2022","06","22","09:00","21.0","","14.3","","66","","0.0","","21","","13","","","","98.97","","25","","","","NA"
"-97.24","49.00","EMERSON AUTO","5020881","2022-06-22 10:00","2022","06","22","10:00","22.1","","12.9","","56","","0.0","","22","","16","","","","98.94","","25","","","","NA"
"-97.24","49.00","EMERSON AUTO","5020881","2022-06-22 11:00","2022","06","22","11:00","23.3","","13.1","","53","","0.0","","23","","14","","","","98.89","","26","","","","NA"
"-97.24","49.00","EMERSON AUTO","5020881","2022-06-22 12:00","2022","06","22","12:00","25.2","","13.0","","47","","0.0","","26","","16","","","","98.83","","28","","","","NA"
"-97.24","49.00","EMERSON AUTO","5020881","2022-06-22 13:00","2022","06","22","13:00","26.1","","10.4","","37","","0.0","","23","","15","","","","98.75","","28","","","","NA"
"-97.24","49.00","EMERSON AUTO","5020881","2022-06-22 14:00","2022","06","22","14:00","27.4","","10.6","","35","","0.0","","23","","20","","","","98.66","","29","","","","NA"
"-97.24","49.00","EMERSON AUTO","5020881","2022-06-22 15:00","2022","06","22","15:00","27.5","","9.2","","32","","0.0","","25","","19","","","","98.61","","28","","","","NA"
"-97.24","49.00","EMERSON AUTO","5020881","2022-06-22 16:00","2022","06","22","16:00","28.5","","9.5","","31","","0.0","","23","","21","","","","98.54","","30","","","","NA"
"-97.24","49.00","EMERSON AUTO","5020881","2022-06-22 17:00","2022","06","22","17:00","27.8","","9.2","","31","","0.0","","24","","19","","","","98.47","","29","","","","NA"
"-97.24","49.00","EMERSON AUTO","5020881","2022-06-22 18:00","2022","06","22","18:00","26.8","","11.8","","39","","0.0","","29","","13","","","","98.41","","29","","","","NA"
"-97.24","49.00","EMERSON AUTO","5020881","2022-06-22 19:00","2022","06","22","19:00","27.7","","10.4","","34","","0.0","","21","","22","","","","98.32","","29","","","","NA"
"-97.24","49.00","EMERSON AUTO","5020881","2022-06-22 20:00","2022","06","22","20:00","26.2","","10.3","","37","","0.0","","21","","21","","","","98.28","","28","","","","NA"
"-97.24","49.00","EMERSON AUTO","5020881","2022-06-22 21:00","2022","06","22","21:00","23.2","","10.8","","46","","0.0","","20","","17","","","","98.27","","25","","","","NA"
"-97.24","49.00","EMERSON AUTO","5020881","2022-06-22 22:00","2022","06","22","22:00","21.3","","11.3","","53","","0.0","","19","","18","","","","98.24","","","","","","NA"
"-97.24","49.00","EMERSON AUTO","5020881","2022-06-22 23:00","2022","06","22","23:00","20.7","","11.6","","56","","0.0","","19","","21","","","","98.20","","","","","","NA"
"-97.24","49.00","EMERSON AUTO","5020881","2022-06-23 00:00","2022","06","23","00:00","20.4","","11.7","","57","","0.0","","19","","21","","","","98.16","","","","","","NA"
"-97.24","49.00","EMERSON AUTO","5020881","2022-06-23 01:00","2022","06","23","01:00","19.9","","11.9","","60","","0.0","","19","","22","","","","98.11","","","","","","NA"
"-97.24","49.00","EMERSON AUTO","5020881","2022-06-23 02:00","2022","06","23","02:00","18.9","","11.9","","64","","0.0","","19","","20","","","","98.08","","","","","","NA"
"-97.24","49.00","EMERSON AUTO","5020881","2022-06-23 03:00","2022","06","23","03:00","18.7","","11.8","","64","","0.0","","19","","21","","","","98.03","","","","","","NA"
"-97.24","49.00","EMERSON AUTO","5020881","2022-06-23 04:00","2022","06","23","04:00","18.6","","11.9","","65","","0.0","","19","","21","","","","97.98","","","","","","NA"
"-97.24","49.00","EMERSON AUTO","5020881","2022-06-23 05:00","2022","06","23","05:00","18.6","","12.3","","67","","0.0","","19","","22","","","","97.93","","","","","","NA"
"-97.24","49.00","EMERSON AUTO","5020881","2022-06-23 06:00","2022","06","23","06:00","20.2","","13.1","","64","","0.0","","19","","21","","","","97.89","","","","","","NA"
"-97.24","49.00","EMERSON AUTO","5020881","2022-06-23 07:00","2022","06","23","07:00","22.3","","13.8","","58","","0.0","","19","","21","","","","97.87","","26","","","","NA"
"-97.24","49.00","EMERSON AUTO","5020881","2022-06-23 08:00","2022","06","23","08:00","25.0","","14.3","","52","","0.0","","20","","20","","","","97.84","","29","","","","NA"
"-97.24","49.00","EMERSON AUTO","5020881","2022-06-23 09:00","2022","06","23","09:00","27.4","","15.1","","47","","0.0","","20","","21","","","","97.79","","31","","","","NA"
"-97.24","49.00","EMERSON AUTO","5020881","2022-06-23 10:00","2022","06","23","10:00","30.3","","12.4","","33","","0.0","","25","","23","","","","97.79","","33","","","","NA"
"-97.24","49.00","EMERSON AUTO","5020881","2022-06-23 11:00","2022","06","23","11:00","31.9","","9.2","","25","","0.0","","29","","24","","","","97.79","","33","","","","NA"
"-97.24","49.00","EMERSON AUTO","5020881","2022-06-23 12:00","2022","06","23","12:00","32.5","","8.7","","23","","0.0","","29","","20","","","","97.78","","33","","","","NA"
"-97.24","49.00","EMERSON AUTO","5020881","2022-06-23 13:00","2022","06","23","13:00","33.4","","8.8","","22","","0.0","","28","","28","","","","97.78","","34","","","","NA"
"-97.24","49.00","EMERSON AUTO","5020881","2022-06-23 14:00","2022","06","23","14:00","34.1","","8.9","","21","","0.0","","29","","28","","","","97.78","","35","","","","NA"
"-97.24","49.00","EMERSON AUTO","5020881","2022-06-23 15:00","2022","06","23","15:00","33.6","","7.3","","20","","0.0","","30","","27","","","","97.79","","34","","","","NA"
"-97.24","49.00","EMERSON AUTO","5020881","2022-06-23 16:00","2022","06","23","16:00","33.9","","8.4","","21","","0.0","","32","","20","","","","97.77","","34","","","","NA"
"-97.24","49.00","EMERSON AUTO","5020881","2022-06-23 17:00","2022","06","23","17:00","33.4","","9.0","","22","","0.0","","33","","17","","","","97.76","","34","","","","NA"
"-97.24","49.00","EMERSON AUTO","5020881","2022-06-23 18:00","2022","06","23","18:00","32.8","","8.6","","22","","0.0","","34","","17","","","","97.77","","33","","","","NA"
"-97.24","49.00","EMERSON AUTO","5020881","2022-06-23 19:00","2022","06","23","19:00","31.5","","9.7","","26","","0.0","","36","","12","","","","97.78","","33","","","","NA"
"-97.24","49.00","EMERSON AUTO","5020881","2022-06-23 20:00","2022","06","23","20:00","28.2","","11.9","","36","","0.0","","7","","8","","","","97.78","","30","","","","NA"
"-97.24","49.00","EMERSON AUTO","5020881","2022-06-23 21:00","2022","06","23","21:00","26.7","","13.7","","45","","0.0","","10","","9","","","","97.81","","30","","","","NA"
"-97.24","49.00","EMERSON AUTO","5020881","2022-06-23 22:00","2022","06","23","22:00","25.7","","14.4","","50","","0.0","","7","","11","","","","97.83","","29","","","","NA"
"-97.24","49.00","EMERSON AUTO","5020881","2022-06-23 23:00","2022","06","23","23:00","24.9","","14.1","","51","","0.0","","7","","14","","","","97.87","","28","","","","NA"
"-97.24","49.00","EMERSON AUTO","5020881","2022-06-24 00:00","2022","06","24","00:00","24.2","","14.3","","54","","0.5","","8","","16","","","","97.77","","28","","","","NA"
"-97.24","49.00","EMERSON AUTO","5020881","2022-06-24 01:00","2022","06","24","01:00","21.6","","13.4","","60","","0.4","","6","","17","","","","97.87","","25","","","","NA"
"-97.24","49.00","EMERSON AUTO","5020881","2022-06-24 02:00","2022","06","24","02:00","21.2","","14.8","","67","","0.0","","9","","13","","","","97.79","","25","","","","NA"
"-97.24","49.00","EMERSON AUTO","5020881","2022-06-24 03:00","2022","06","24","03:00","20.1","","15.6","","75","","0.0","","7","","23","","","","97.78","","","","","","NA"
"-97.24","49.00","EMERSON AUTO","5020881","2022-06-24 04:00","2022","06","24","04:00","20.3","","15.5","","74","","0.0","","7","","17","","","","97.92","","25","","","","NA"
"-97.24","49.00","EMERSON AUTO","5020881","2022-06-24 05:00","2022","06","24","05:00","20.4","","14.8","","70","","0.0","","8","","17","","","","97.97","","","","","","NA"
"-97.24","49.00","EMERSON AUTO","5020881","2022-06-24 06:00","2022","06","24","06:00","20.0","","15.3","","74","","2.1","","12","","12","","","","98.13","","","","","","NA"
"-97.24","49.00","EMERSON AUTO","5020881","2022-06-24 07:00","2022","06","24","07:00","21.3","","14.4","","65","","0.0","","13","","20","","","","97.84","","25","","","","NA"
"-97.24","49.00","EMERSON AUTO","5020881","2022-06-24 08:00","2022","06","24","08:00","23.5","","16.2","","64","","0.0","","10","","11","","","","97.89","","28","","","","NA"
"-97.24","49.00","EMERSON AUTO","5020881","2022-06-24 09:00","2022","06","24","09:00","25.3","","16.4","","58","","0.0","","11","","19","","","","97.87","","30","","","","NA"
"-97.24","49.00","EMERSON AUTO","5020881","2022-06-24 10:00","2022","06","24","10:00","26.4","","18.5","","62","","0.0","","15","","16","","","","97.95","","33","","","","NA"
"-97.24","49.00","EMERSON AUTO","5020881","2022-06-24 11:00","2022","06","24","11:00","27.7","","19.1","","60","","0.0","","16","","17","","","","97.95","","35","","","","NA"
"-97.24","49.00","EMERSON AUTO","5020881","2022-06-24 12:00","2022","06","24","12:00","29.9","","19.9","","55","","0.0","","18","","20","","","","97.94","","37","","","","NA"
"-97.24","49.00","EMERSON AUTO","5020881","2022-06-24 13:00","2022","06","24","13:00","30.0","","19.3","","53","","0.0","","18","","24","","","","97.90","","37","","","","NA"
"-97.24","49.00","EMERSON AUTO","5020881","2022-06-24 14:00","2022","06","24","14:00","26.0","","20.7","","73","","0.8","","18","","15","","","","97.84","","34","","","","NA"
"-97.24","49.00","EMERSON AUTO","5020881","2022-06-24 15:00","2022","06","24","15:00","24.6","","18.3","","68","","0.0","","15","","16","","","","97.90","","31","","","","NA"
"-97.24","49.00","EMERSON AUTO","5020881","2022-06-24 16:00","2022","06","24","16:00","19.8","","17.6","","87","","3.9","","3","","17","","","","98.01","","","","","","NA"
"-97.24","49.00","EMERSON AUTO","5020881","2022-06-24 17:00","2022","06","24","17:00","19.1","","17.5","","91","","1.3","","6","","18","","","","98.02","","","","","","NA"
"-97.24","49.00","EMERSON AUTO","5020881","2022-06-24 18:00","2022","06","24","18:00","19.5","","17.7","","90","","1.0","","16","","2","","","","98.04","","","","","","NA"
"-97.24","49.00","EMERSON AUTO","5020881","2022-06-24 19:00","2022","06","24","19:00","19.6","","18.0","","91","","2.7","","14","","13","","","","97.95","","","","","","NA"
"-97.24","49.00","EMERSON AUTO","5020881","2022-06-24 20:00","2022","06","24","20:00","19.2","","17.4","","89","","1.4","","8","","22","","","","97.70","","","","","","NA"
"-97.24","49.00","EMERSON AUTO","5020881","2022-06-24 21:00","2022","06","24","21:00","19.4","","17.9","","91","","0.8","","30","","17","","","","98.02","","","","","","NA"
"-97.24","49.00","EMERSON AUTO","5020881","2022-06-24 22:00","2022","06","24","22:00","18.9","","17.6","","92","","0.3","","32","","21","","","","97.94","","","","","","NA"
"-97.24","49.00","EMERSON AUTO","5020881","2022-06-24 23:00","2022","06","24","23:00","18.9","","17.1","","89","","0.0","","32","","17","","","","97.94","","","","","","NA"
"-97.24","49.00","EMERSON AUTO","5020881","2022-06-25 00:00","2022","06","25","00:00","18.8","","16.5","","86","","0.0","","34","","18","","","","97.91","","","","","","NA"
"-97.24","49.00","EMERSON AUTO","5020881","2022-06-25 01:00","2022","06","25","01:00","18.5","","16.0","","86","","0.0","","33","","18","","","","98.02","","","","","","NA"
"-97.24","49.00","EMERSON AUTO","5020881","2022-06-25 02:00","2022","06","25","02:00","18.3","","16.7","","90","","0.0","","30","","19","","","","97.98","","","","","","NA"
"-97.24","49.00","EMERSON AUTO","5020881","2022-06-25 03:00","2022","06","25","03:00","18.2","","16.9","","92","","0.9","","30","","20","","","","98.00","","","","","","NA"
"-97.24","49.00","EMERSON AUTO","5020881","2022-06-25 04:00","2022","06","25","04:00","17.0","","14.3","","84","","0.0","","30","","23","","","","98.00","","","","","","NA"
"-97.24","49.00","EMERSON AUTO","5020881","2022-06-25 05:00","2022","06","25","05:00","16.1","","13.2","","83","","0.0","","29","","22","","","","97.98","","","","","","NA"
"-97.24","49.00","EMERSON AUTO","5020881","2022-06-25 06:00","2022","06","25","06:00","16.3","","12.5","","78","","0.0","","28","","21","","","","98.04","","","","","","NA"
"-97.24","49.00","EMERSON AUTO","5020881","2022-06-25 07:00","2022","06","25","07:00","17.1","","12.6","","75","","0.0","","27","","21","","","","98.14","","","","","","NA"
"-97.24","49.00","EMERSON AUTO","5020881","2022-06-25 08:00","2022","06","25","08:00","18.0","","13.2","","74","","0.0","","27","","27","","","","98.17","","","","","","NA"
"-97.24","49.00","EMERSON AUTO","5020881","2022-06-25 09:00","2022","06","25","09:00","17.9","","13.2","","74","","0.0","","27","","29","","","","98.17","","","","","","NA"
"-97.24","49.00","EMERSON AUTO","5020881","2022-06-25 10:00","2022","06","25","10:00","17.7","","13.1","","74","","0.0","","27","","31","","","","98.22","","","","","","NA"
"-97.24","49.00","EMERSON AUTO","5020881","2022-06-25 11:00","2022","06","25","11:00","18.9","","12.9","","68","","0.0","","26","","38","","","","98.22","","","","","","NA"
"-97.24","49.00","EMERSON AUTO","5020881","2022-06-25 12:00","2022","06","25","12:00","19.3","","11.5","","60","","0.0","","25","","34","","","","98.22","","","","","","NA"
"-97.24","49.00","EMERSON AUTO","5020881","2022-06-25 13:00","2022","06","25","13:00","17.6","","12.0","","69","","0.0","","25","","35","","","","98.22","","","","","","NA"
"-97.24","49.00","EMERSON AUTO","5020881","2022-06-25 14:00","2022","06","25","14:00","17.8","","10.4","","62","","0.0","","26","","37","","","","98.22","","","","","","NA"
"-97.24","49.00","EMERSON AUTO","5020881","2022-06-25 15:00","2022","06","25","15:00","16.9","","9.8","","63","","0.0","","26","","36","","","","98.20","","","","","","NA"
"-97.24","49.00","EMERSON AUTO","5020881","2022-06-25 16:00","2022","06","25","16:00","17.8","","10.5","","62","","0.0","","25","","38","","","","98.18","","","","","","NA"
"-97.24","49.00","EMERSON AUTO","5020881","2022-06-25 17:00","2022","06","25","17:00","18.4","","10.8","","61","","0.0","","26","","39","","","","98.12","","","","","","NA"
"-97.24","49.00","EMERSON AUTO","5020881","2022-06-25 18:00","2022","06","25","18:00","17.9","","10.8","","63","","0.0","","26","","45","","","","98.10","","","","","","NA"
"-97.24","49.00","EMERSON AUTO","5020881","2022-06-25 19:00","2022","06","25","19:00","17.3","","11.3","","68","","0.0","","28","","41","","","","98.14","","","","","","NA"
"-97.24","49.00","EMERSON AUTO","5020881","2022-06-25 20:00","2022","06","25","20:00","15.3","","11.7","","79","","0.0","","30","","30","","","","98.22","","","","","","NA"
"-97.24","49.00","EMERSON AUTO","5020881","2022-06-25 21:00","2022","06","25","21:00","14.2","","10.8","","80","","0.0","","31","","40","","","","98.32","","","","","","NA"
"-97.24","49.00","EMERSON AUTO","5020881","2022-06-25 22:00","2022","06","25","22:00","13.4","","10.1","","80","","0.0","","31","","32","","","","98.45","","","","","","NA"
"-97.24","49.00","EMERSON AUTO","5020881","2022-06-25 23:00","2022","06","25","23:00","12.4","","8.4","","77","","0.0","","30","","39","","","","98.53","","","","","","NA"
"-97.24","49.00","EMERSON AUTO","5020881","2022-06-26 00:00","2022","06","26","00:00","12.0","","7.8","","76","","0.0","","29","","40","","","","98.56","","","","","","NA"
"-97.24","49.00","EMERSON AUTO","5020881","2022-06-26 01:00","2022","06","26","01:00","11.9","","7.9","","76","","0.0","","30","","38","","","","98.63","","","","","","NA"
"-97.24","49.00","EMERSON AUTO","5020881","2022-06-26 02:00","2022","06","26","02:00","11.7","","8.1","","78","","0.0","","30","","44","","","","98.70","","","","","","NA"
"-97.24","49.00","EMERSON AUTO","5020881","2022-06-26 03:00","2022","06","26","03:00","11.8","","8.1","","78","","0.0","","30","","35","","","","98.75","","","","","","NA"
"-97.24","49.00","EMERSON AUTO","5020881","2022-06-26 04:00","2022","06","26","04:00","11.6","","8.2","","80","","0.0","","30","","35","","","","98.81","","","","","","NA"
"-97.24","49.00","EMERSON AUTO","5020881","2022-06-26 05:00","2022","06","26","05:00","12.0","","8.0","","76","","0.0","","30","","37","","","","98.87","","","","","","NA"
"-97.24","49.00","EMERSON AUTO","5020881","2022-06-26 06:00","2022","06","26","06:00","12.3","","8.1","","76","","0.0","","30","","33","","","","98.94","","","","","","NA"
"-97.24","49.00","EMERSON AUTO","5020881","2022-06-26 07:00","2022","06","26","07:00","12.7","","8.8","","77","","0.0","","30","","31","","","","99.03","","","","","","NA"
"-97.24","49.00","EMERSON AUTO","5020881","2022-06-26 08:00","2022","06","26","08:00","14.2","","9.1","","71","","0.0","","30","","35","","","","99.12","","","","","","NA"
"-97.24","49.00","EMERSON AUTO","5020881","2022-06-26 09:00","2022","06","26","09:00","15.7","","9.6","","67","","0.0","","32","","35","","","","99.17","","","","","","NA"
"-97.24","49.00","EMERSON AUTO","5020881","2022-06-26 10:00","2022","06","26","10:00","16.8","","8.6","","58","","0.0","","32","","28","","","","99.21","","","","","","NA"
"-97.24","49.00","EMERSON AUTO","5020881","2022-06-26 11:00","2022","06","26","11:00","18.1","","8.6","","54","","0.0","","32","","32","","","","99.21","","","","","","NA"
"-97.24","49.00","EMERSON AUTO","5020881","2022-06-26 12:00","2022","06","26","12:00","19.7","","8.2","","47","","0.0","","31","","32","","","","99.19","","","","","","NA"
"-97.24","49.00","EMERSON AUTO","5020881","2022-06-26 13:00","2022","06","26","13:00","20.8","","6.3","","39","","0.0","","33","","37","","","","99.18","","","","","","NA"
"-97.24","49.00","EMERSON AUTO","5020881","2022-06-26 14:00","2022","06","26","14:00","20.9","","5.1","","36","","0.0","","32","","34","","","","99.18","","","","","","NA"
"-97.24","49.00","EMERSON AUTO","5020881","2022-06-26 15:00","2022","06","26","15:00","22.1","","5.8","","35","","0.0","","34","","33","","","","99.18","","","","","","NA"
"-97.24","49.00","EMERSON AUTO","5020881","2022-06-26 16:00","2022","06","26","16:00","21.8","","6.2","","36","","0.0","","34","","25","","","","99.17","","","","","","NA"
"-97.24","49.00","EMERSON AUTO","5020881","2022-06-26 17:00","2022","06","26","17:00","21.8","","6.7","","37","","0.0","","33","","20","","","","99.15","","","","","","NA"
"-97.24","49.00","EMERSON AUTO","5020881","2022-06-26 18:00","2022","06","26","18:00","22.1","","7.4","","39","","0.0","","34","","14","","","","99.13","","","","","","NA"
"-97.24","49.00","EMERSON AUTO","5020881","2022-06-26 19:00","2022","06","26","19:00","21.3","","7.8","","42","","0.0","","33","","10","","","","99.13","","","","","","NA"
"-97.24","49.00","EMERSON AUTO","5020881","2022-06-26 20:00","2022","06","26","20:00","19.8","","9.7","","52","","0.0","","2","","5","","","","99.14","","","","","","NA"
"-97.24","49.00","EMERSON AUTO","5020881","2022-06-26 21:00","2022","06","26","21:00","18.1","","9.2","","56","","0.0","","12","","6","","","","99.17","","","","","","NA"
"-97.24","49.00","EMERSON AUTO","5020881","2022-06-26 22:00","2022","06","26","22:00","16.9","","8.7","","58","","0.0","","14","","8","","","","99.18","","","","","","NA"
"-97.24","49.00","EMERSON AUTO","5020881","2022-06-26 23:00","2022","06","26","23:00","15.3","","8.5","","64","","0.0","","16","","7","","","","99.18","","","","","","NA"
"-97.24","49.00","EMERSON AUTO","5020881","2022-06-27 00:00","2022","06","27","00:00","15.3","","8.8","","65","","0.0","","18","","15","","","","99.17","","","","","","NA"
"-97.24","49.00","EMERSON AUTO","5020881","2022-06-27 01:00","2022","06","27","01:00","15.5","","9.6","","68","","0.0","","18","","13","","","","99.14","","","","","","NA"
"-97.24","49.00","EMERSON AUTO","5020881","2022-06-27 02:00","2022","06","27","02:00","15.2","","10.8","","75","","0.0","","18","","10","","","","99.09","","","","","","NA"
"-97.24","49.00","EMERSON AUTO","5020881","2022-06-27 03:00","2022","06","27","03:00","14.3","","11.0","","81","","0.0","","18","","11","","","","99.08","","","","","","NA"
"-97.24","49.00","EMERSON AUTO","5020881","2022-06-27 04:00","2022","06","27","04:00","13.7","","10.9","","83","","0.0","","18","","9","","","","99.07","","","","","","NA"
"-97.24","49.00","EMERSON AUTO","5020881","2022-06-27 05:00","2022","06","27","05:00","13.6","","10.5","","82","","0.0","","18","","8","","","","99.07","","","","","","NA"
"-97.24","49.00","EMERSON AUTO","5020881","2022-06-27 06:00","2022","06","27","06:00","15.5","","11.0","","74","","0.0","","22","","12","","","","99.04","","","","","","NA"
"-97.24","49.00","EMERSON AUTO","5020881","2022-06-27 07:00","2022","06","27","07:00","19.1","","11.9","","63","","0.0","","25","","18","","","","99.03","","","","","","NA"
"-97.24","49.00","EMERSON AUTO","5020881","2022-06-27 08:00","2022","06","27","08:00","22.2","","10.6","","48","","0.0","","25","","24","","","","98.99","","","","","","NA"
"-97.24","49.00","EMERSON AUTO","5020881","2022-06-27 09:00","2022","06","27","09:00","24.1","","9.8","","40","","0.0","","28","","26","","","","98.99","","25","","","","NA"
"-97.24","49.00","EMERSON AUTO","5020881","2022-06-27 10:00","2022","06","27","10:00","26.1","","8.8","","33","","0.0","","28","","30","","","","98.96","","27","","","","NA"
"-97.24","49.00","EMERSON AUTO","5020881","2022-06-27 11:00","2022","06","27","11:00","27.4","","7.5","","28","","0.0","","28","","39","","","","98.93","","28","","","","NA"
"-97.24","49.00","EMERSON AUTO","5020881","2022-06-27 12:00","2022","06","27","12:00","27.9","","5.7","","24","","0.0","","27","","37","","","","98.90","","27","","","","NA"
"-97.24","49.00","EMERSON AUTO","5020881","2022-06-27 13:00","2022","06","27","13:00","27.6","","5.2","","24","","0.0","","26","","35","","","","98.83","","27","","","","NA"
"-97.24","49.00","EMERSON AUTO","5020881","2022-06-27 14:00","2022","06","27","14:00","29.5","","2.8","","18","","0.0","","26","","37","","","","98.77","","28","","","","NA"
"-97.24","49.00","EMERSON AUTO","5020881","2022-06-27 15:00","2022","06","27","15:00","28.9","","4.0","","20","","0.0","","27","","30","","","","98.70","","28","","","","NA"
"-97.24","49.00","EMERSON AUTO","5020881","2022-06-27 16:00","2022","06","27","16:00","29.7","","4.1","","20","","0.0","","26","","34","","","","98.64","","29","","","","NA"
"-97.24","49.00","EMERSON AUTO","5020881","2022-06-27 17:00","2022","06","27","17:00","29.4","","1.2","","16","","0.0","","27","","38","","","","98.61","","28","","","","NA"
"-97.24","49.00","EMERSON AUTO","5020881","2022-06-27 18:00","2022","06","27","18:00","27.2","","5.0","","24","","0.0","","28","","24","","","","98.61","","26","","","","NA"
"-97.24","49.00","EMERSON AUTO","5020881","2022-06-27 19:00","2022","06","27","19:00","22.5","","9.7","","44","","0.0","","32","","18","","","","98.63","","","","","","NA"
"-97.24","49.00","EMERSON AUTO","5020881","2022-06-27 20:00","2022","06","27","20:00","24.5","","7.2","","33","","0.0","","30","","36","","","","98.63","","25","","","","NA"
"-97.24","49.00","EMERSON AUTO","5020881","2022-06-27 21:00","2022","06","27","21:00","20.9","","10.9","","53","","0.0","","28","","22","","","","98.74","","","","","","NA"
"-97.24","49.00","EMERSON AUTO","5020881","2022-06-27 22:00","2022","06","27","22:00","19.2","","14.7","","75","","0.0","","35","","15","","","","98.73","","","","","","NA"
"-97.24","49.00","EMERSON AUTO","5020881","2022-06-27 23:00","2022","06","27","23:00","17.4","","14.2","","82","","0.0","","35","","13","","","","98.78","","","","","","NA"
"-97.24","49.00","EMERSON AUTO","5020881","2022-06-28 00:00","2022","06","28","00:00","16.9","","13.0","","78","","0.0","","1","","11","","","","98.85","","","","","","NA"
"-97.24","49.00","EMERSON AUTO","5020881","2022-06-28 01:00","2022","06","28","01:00","15.7","","12.3","","80","","0.0","","2","","10","","","","98.90","","","","","","NA"
"-97.24","49.00","EMERSON AUTO","5020881","2022-06-28 02:00","2022","06","28","02:00","14.3","","10.7","","79","","0.0","","4","","6","","","","98.93","","","","","","NA"
"-97.24","49.00","EMERSON AUTO","5020881","2022-06-28 03:00","2022","06","28","03:00","13.2","","9.7","","79","","0.0","","2","","7","","","","98.95","","","","","","NA"
"-97.24","49.00","EMERSON AUTO","5020881","2022-06-28 04:00","2022","06","28","04:00","12.9","","9.0","","77","","0.0","","3","","10","","","","98.96","","","","","","NA"
"-97.24","49.00","EMERSON AUTO","5020881","2022-06-28 05:00","2022","06","28","05:00","13.4","","8.9","","74","","0.0","","2","","8","","","","99.03","","","","","","NA"
"-97.24","49.00","EMERSON AUTO","5020881","2022-06-28 06:00","2022","06","28","06:00","13.9","","9.3","","73","","0.0","","36","","11","","","","99.13","","","","","","NA"
"-97.24","49.00","EMERSON AUTO","5020881","2022-06-28 07:00","2022","06","28","07:00","14.1","","10.2","","78","","0.0","","35","","10","","","","99.18","","","","","","NA"
"-97.24","49.00","EMERSON AUTO","5020881","2022-06-28 08:00","2022","06","28","08:00","14.8","","9.0","","68","","0.0","","36","","15","","","","99.25","","","","","","NA"
"-97.24","49.00","EMERSON AUTO","5020881","2022-06-28 09:00","2022","06","28","09:00","15.4","","9.0","","66","","0.0","","36","","11","","","","99.25","","","","","","NA"
"-97.24","49.00","EMERSON AUTO","5020881","2022-06-28 10:00","2022","06","28","10:00","16.7","","8.4","","58","","0.0","","2","","16","","","","99.25","","","","","","NA"
"-97.24","49.00","EMERSON AUTO","5020881","2022-06-28 11:00","2022","06","28","11:00","18.6","","7.7","","49","","0.0","","3","","12","","","","99.24","","","","","","NA"
"-97.24","49.00","EMERSON AUTO","5020881","2022-06-28 12:00","2022","06","28","12:00","19.2","","6.8","","44","","0.0","","35","","14","","","","99.21","","","","","","NA"
"-97.24","49.00","EMERSON AUTO","5020881","2022-06-28 13:00","2022","06","28","13:00","19.7","","4.2","","36","","0.0","","34","","16","","","","99.19","","","","","","NA"
"-97.24","49.00","EMERSON AUTO","5020881","2022-06-28 14:00","2022","06","28","14:00","19.9","","4.7","","37","","0.0","","34","","16","","","","99.18","","","","","","NA"
"-97.24","49.00","EMERSON AUTO","5020881","2022-06-28 15:00","2022","06","28","15:00","20.6","","4.2","","34","","0.0","","35","","16","","","","99.16","","","","","","NA"
"-97.24","49.00","EMERSON AUTO","5020881","2022-06-28 16:00","2022","06","28","16:00","21.1","","4.1","","33","","0.0","","33","","24","","","","99.15","","","","","","NA"
"-97.24","49.00","EMERSON AUTO","5020881","2022-06-28 17:00","2022","06","28","17:00","21.1","","3.1","","30","","0.0","","34","","21","","","","99.11","","","","","","NA"
"-97.24","49.00","EMERSON AUTO","5020881","2022-06-28 18:00","2022","06","28","18:00","20.8","","3.2","","31","","0.0","","32","","21","","","","99.09","","","","","","NA"
"-97.24","49.00","EMERSON AUTO","5020881","2022-06-28 19:00","2022","06","28","19:00","20.3","","3.4","","33","","0.0","","32","","18","","","","99.07","","","","","","NA"
"-97.24","49.00","EMERSON AUTO","5020881","2022-06-28 20:00","2022","06","28","20:00","19.1","","4.8","","39","","0.0","","33","","9","","","","99.05","","","","","","NA"
"-97.24","49.00","EMERSON AUTO","5020881","2022-06-28 21:00","2022","06","28","21:00","16.7","","6.5","","51","","0.0","","3","","6","","","","99.07","","","","","","NA"
"-97.24","49.00","EMERSON AUTO","5020881","2022-06-28 22:00","2022","06","28","22:00","15.5","","7.0","","57","","0.0","","11","","5","","","","99.10","","","","","","NA"
"-97.24","49.00","EMERSON AUTO","5020881","2022-06-28 23:00","2022","06","28","23:00","14.4","","6.3","","58","","0.0","","11","","7","","","","99.10","","","","","","NA"
"-97.24","49.00","EMERSON AUTO","5020881","2022-06-29 00:00","2022","06","29","00:00","13.5","","5.5","","58","","0.0","","13","","9","","","","99.07","","","","","","NA"
"-97.24","49.00","EMERSON AUTO","5020881","2022-06-29 01:00","2022","06","29","01:00","12.3","","5.7","","64","","0.0","","12","","8","","","","99.02","","","","","","NA"
"-97.24","49.00","EMERSON AUTO","5020881","2022-06-29 02:00","2022","06","29","02:00","11.2","","6.2","","71","","0.0","","11","","11","","","","98.98","","","","","","NA"
"-97.24","49.00","EMERSON AUTO","5020881","2022-06-29 03:00","2022","06","29","03:00","11.4","","6.8","","73","","0.0","","14","","13","","","","98.95","","","","","","NA"
"-97.24","49.00","EMERSON AUTO","5020881","2022-06-29 04:00","2022","06","29","04:00","10.4","","6.8","","78","","0.0","","12","","10","","","","98.95","","","","","","NA"
"-97.24","49.00","EMERSON AUTO","5020881","2022-06-29 05:00","2022","06","29","05:00","11.0","","6.9","","76","","0.0","","12","","11","","","","98.89","","","","","","NA"
"-97.24","49.00","EMERSON AUTO","5020881","2022-06-29 06:00","2022","06","29","06:00","12.3","","7.3","","72","","0.0","","14","","14","","","","98.93","","","","","","NA"
"-97.24","49.00","EMERSON AUTO","5020881","2022-06-29 07:00","2022","06","29","07:00","13.9","","7.8","","67","","0.0","","14","","15","","","","98.85","","","","","","NA"
"-97.24","49.00","EMERSON AUTO","5020881","2022-06-29 08:00","2022","06","29","08:00","12.6","","9.8","","83","","0.2","","16","","20","","","","98.71","","","","","","NA"
"-97.24","49.00","EMERSON AUTO","5020881","2022-06-29 09:00","2022","06","29","09:00","13.5","","10.1","","80","","0.2","","15","","22","","","","98.60","","","","","","NA"
"-97.24","49.00","EMERSON AUTO","5020881","2022-06-29 10:00","2022","06","29","10:00","14.8","","10.3","","75","","0.2","","14","","18","","","","98.44","","","","","","NA"
"-97.24","49.00","EMERSON AUTO","5020881","2022-06-29 11:00","2022","06","29","11:00","18.2","","11.2","","63","","0.0","","15","","27","","","","98.33","","","","","","NA"
"-97.24","49.00","EMERSON AUTO","5020881","2022-06-29 12:00","2022","06","29","12:00","19.5","","11.4","","60","","0.0","","15","","30","","","","98.18","","","","","","NA"
"-97.24","49.00","EMERSON AUTO","5020881","2022-06-29 13:00","2022","06","29","13:00","19.1","","11.4","","61","","0.0","","13","","28","","","","97.99","","","","","","NA"
"-97.24","49.00","EMERSON AUTO","5020881","2022-06-29 14:00","2022","06","29","14:00","21.2","","11.3","","53","","0.0","","15","","26","","","","98.02","","","","","","NA"
"-97.24","49.00","EMERSON AUTO","5020881","2022-06-29 15:00","2022","06","29","15:00","23.2","","12.5","","51","","0.0","","17","","24","","","","97.98","","26","","","","NA"
"-97.24","49.00","EMERSON AUTO","5020881","2022-06-29 16:00","2022","06","29","16:00","24.1","","13.5","","52","","0.0","","18","","21","","","","97.92","","27","","","","NA"
"-97.24","49.00","EMERSON AUTO","5020881","2022-06-29 17:00","2022","06","29","17:00","25.5","","14.4","","50","","0.0","","19","","16","","","","97.86","","29","","","","NA"
"-97.24","49.00","EMERSON AUTO","5020881","2022-06-29 18:00","2022","06","29","18:00","26.1","","14.4","","48","","0.0","","20","","10","","","","97.82","","30","","","","NA"
"-97.24","49.00","EMERSON AUTO","5020881","2022-06-29 19:00","2022","06","29","19:00","25.1","","15.5","","55","","0.0","","15","","15","","","","97.66","","29","","","","NA"
"-97.24","49.00","EMERSON AUTO","5020881","2022-06-29 20:00","2022","06","29","20:00","23.0","","15.9","","64","","0.0","","14","","19","","","","97.52","","28","","","","NA"
"-97.24","49.00","EMERSON AUTO","5020881","2022-06-29 21:00","2022","06","29","21:00","21.4","","15.8","","70","","0.0","","14","","18","","","","97.51","","26","","","","NA"
"-97.24","49.00","EMERSON AUTO","5020881","2022-06-29 22:00","2022","06","29","22:00","20.9","","15.8","","73","","0.0","","16","","13","","","","97.50","","25","","","","NA"
"-97.24","49.00","EMERSON AUTO","5020881","2022-06-29 23:00","2022","06","29","23:00","19.2","","15.6","","79","","0.0","","19","","11","","","","97.52","","","","","","NA"
"-97.24","49.00","EMERSON AUTO","5020881","2022-06-30 00:00","2022","06","30","00:00","17.8","","15.0","","84","","0.0","","20","","10","","","","97.53","","","","","","NA"
"-97.24","49.00","EMERSON AUTO","5020881","2022-06-30 01:00","2022","06","30","01:00","19.3","","15.8","","80","","0.0","","18","","19","","","","97.50","","","","","","NA"
"-97.24","49.00","EMERSON AUTO","5020881","2022-06-30 02:00","2022","06","30","02:00","19.1","","15.9","","81","","0.0","","19","","21","","","","97.48","","","","","","NA"
"-97.24","49.00","EMERSON AUTO","5020881","2022-06-30 03:00","2022","06","30","03:00","18.3","","15.4","","83","","0.0","","22","","18","","","","97.47","","","","","","NA"
"-97.24","49.00","EMERSON AUTO","5020881","2022-06-30 04:00","2022","06","30","04:00","17.5","","14.5","","83","","0.0","","25","","16","","","","97.46","","","","","","NA"
"-97.24","49.00","EMERSON AUTO","5020881","2022-06-30 05:00","2022","06","30","05:00","18.6","","13.8","","74","","0.0","","28","","31","","","","97.53","","","","","","NA"
"-97.24","49.00","EMERSON AUTO","5020881","2022-06-30 06:00","2022","06","30","06:00","18.4","","14.2","","77","","0.0","","30","","33","","","","97.66","","","","","","NA"
"-97.24","49.00","EMERSON AUTO","5020881","2022-06-30 07:00","2022","06","30","07:00","17.7","","14.3","","81","","0.0","","31","","25","","","","97.75","","","","","","NA"
"-97.24","49.00","EMERSON AUTO","5020881","2022-06-30 08:00","2022","06","30","08:00","17.6","","13.7","","78","","0.0","","31","","26","","","","97.87","","","","","","NA"
"-97.24","49.00","EMERSON AUTO","5020881","2022-06-30 09:00","2022","06","30","09:00","18.0","","12.9","","72","","0.0","","31","","31","","","","97.98","","","","","","NA"
"-97.24","49.00","EMERSON AUTO","5020881","2022-06-30 10:00","2022","06","30","10:00","20.4","","12.6","","61","","0.0","","32","","31","","","","98.02","","","","","","NA"
"-97.24","49.00","EMERSON AUTO","5020881","2022-06-30 11:00","2022","06","30","11:00","20.2","","10.9","","55","","0.0","","34","","29","","","","98.10","","","","","","NA"
"-97.24","49.00","EMERSON AUTO","5020881","2022-06-30 12:00","2022","06","30","12:00","21.0","","11.0","","53","","0.0","","33","","25","","","","98.13","","","","","","NA"
"-97.24","49.00","EMERSON AUTO","5020881","2022-06-30 13:00","2022","06","30","13:00","21.8","","9.7","","46","","0.0","","31","","36","","","","98.17","","","","","","NA"
"-97.24","49.00","EMERSON AUTO","5020881","2022-06-30 14:00","2022","06","30","14:00","22.0","","8.0","","40","","0.0","","31","","34","","","","98.23","","","","","","NA"
"-97.24","49.00","EMERSON AUTO","5020881","2022-06-30 15:00","2022","06","30","15:00","22.1","","8.5","","42","","0.0","","32","","29","","","","98.26","","","","","","NA"
"-97.24","49.00","EMERSON AUTO","5020881","2022-06-30 16:00","2022","06","30","16:00","21.9","","8.0","","41","","0.0","","33","","27","","","","98.32","","","","","","NA"
"-97.24","49.00","EMERSON AUTO","5020881","2022-06-30 17:00","2022","06","30","17:00","21.7","","6.3","","37","","0.0","","32","","23","","","","98.33","","","","","","NA"
"-97.24","49.00","EMERSON AUTO","5020881","2022-06-30 18:00","2022","06","30","18:00","21.5","","6.0","","36","","0.0","","33","","16","","","","98.36","","","","","","NA"
"-97.24","49.00","EMERSON AUTO","5020881","2022-06-30 19:00","2022","06","30","19:00","21.0","","5.4","","36","","0.0","","35","","13","","","","98.39","","","","","","NA"
"-97.24","49.00","EMERSON AUTO","5020881","2022-06-30 20:00","2022","06","30","20:00","19.1","","7.4","","47","","0.0","","1","","5","","","","98.42","","","","","","NA"
"-97.24","49.00","EMERSON AUTO","5020881","2022-06-30 21:00","2022","06","30","21:00","18.1","","7.5","","50","","0.0","","10","","7","","","","98.45","","","","","","NA"
"-97.24","49.00","EMERSON AUTO","5020881","2022-06-30 22:00","2022","06","30","22:00","16.8","","7.7","","55","","0.0","","15","","11","","","","98.45","","","","","","NA"
"-97.24","49.00","EMERSON AUTO","5020881","2022-06-30 23:00","2022","06","30","23:00","15.4","","6.6","","56","","0.0","","17","","8","","","","98.45","","","","","","NA"
