"Longitude (x)","Latitude (y)","Station Name","Climate ID","Date/Time (LST)","Year","Month","Day","Time (LST)","Temp (°C)","Temp Flag","Dew Point Temp (°C)","Dew Point Temp Flag","Rel Hum (%)","Rel Hum Flag","Precip. Amount (mm)","Precip. Amount Flag","Wind Dir (10s deg)","Wind Dir Flag","Wind Spd (km/h)","Wind Spd Flag","Visibility (km)","Visibility Flag","Stn Press (kPa)","Stn Press Flag","Hmdx","Hmdx Flag","Wind Chill","Wind Chill Flag","Weather"
"-64.30","44.36","LUNENBURG","8203210","2020-11-01 00:00","2020","11","01","00:00","1.2","","-1.6","","82","","","","27","","11","","","","103.09","","","","","","NA"
"-64.30","44.36","LUNENBURG","8203210","2020-11-01 01:00","2020","11","01","01:00","0.7","","-2.2","","81","","","","23","","9","","","","103.08","","","","","","NA"
"-64.30","44.36","LUNENBURG","8203210","2020-11-01 02:00","2020","11","01","02:00","0.5","","-1.9","","84","","","","23","","6","","","","103.07","","","","","","NA"
"-64.30","44.36","LUNENBURG","8203210","2020-11-01 03:00","2020","11","01","03:00","1.1","","-1.3","","84","","","","23","","8","","","","103.04","","","","","","NA"
"-64.30","44.36","LUNENBURG","8203210","2020-11-01 04:00","2020","11","01","04:00","1.2","","-1.1","","85","","","","23","","6","","","","103.02","","","","","","NA"
"-64.30","44.36","LUNENBURG","8203210","2020-11-01 05:00","2020","11","01","05:00","1.8","","-1.6","","78","","","","0","","1","","","","103.01","","","","","","NA"
"-64.30","44.36","LUNENBURG","8203210","2020-11-01 06:00","2020","11","01","06:00","1.3","","-0.8","","86","","","","26","","3","","","","102.94","","","","","","NA"
"-64.30","44.36","LUNENBURG","8203210","2020-11-01 07:00","2020","11","01","07:00","1.6","","-1.1","","82","","","","27","","9","","","","102.93","","","","","","NA"
"-64.30","44.36","LUNENBURG","8203210","2020-11-01 08:00","2020","11","01","08:00","1.9","","-0.7","","83","","","","24","","5","","","","102.89","","","","","","NA"
"-64.30","44.36","LUNENBURG","8203210","2020-11-01 09:00","2020","11","01","09:00","3.1","","0.9","","85","","","","26","","2","","","","102.89","","","","","","NA"
"-64.30","44.36","LUNENBURG","8203210","2020-11-01 10:00","2020","11","01","10:00","5.5","","1.6","","76","","","","23","","4","","","","102.80","","","","","","NA"
"-64.30","44.36","LUNENBURG","8203210","2020-11-01 11:00","2020","11","01","11:00","8.5","","2.3","","65","","","","17","","29","","","","102.64","","","","","","NA"
"-64.30","44.36","LUNENBURG","8203210","2020-11-01 12:00","2020","11","01","12:00","9.5","","3.3","","65","","","","16","","34","","","","102.46","","","","","","NA"
"-64.30","44.36","LUNENBURG","8203210","2020-11-01 13:00","2020","11","01","13:00","9.5","","4.6","","72","","","","16","","30","","","","102.36","","","","","","NA"
"-64.30","44.36","LUNENBURG","8203210","2020-11-01 14:00","2020","11","01","14:00","10.1","","5.8","","75","","","","16","","37","","","","102.18","","","","","","NA"
"-64.30","44.36","LUNENBURG","8203210","2020-11-01 15:00","2020","11","01","15:00","10.5","","6.6","","77","","","","16","","30","","","","102.06","","","","","","NA"
"-64.30","44.36","LUNENBURG","8203210","2020-11-01 16:00","2020","11","01","16:00","10.8","","8.8","","87","","","","15","","26","","","","101.94","","","","","","NA"
"-64.30","44.36","LUNENBURG","8203210","2020-11-01 17:00","2020","11","01","17:00","11.1","","11.1","","100","","","","13","","35","","","","101.75","","","","","","NA"
"-64.30","44.36","LUNENBURG","8203210","2020-11-01 18:00","2020","11","01","18:00","11.5","","11.3","","99","","","","13","","38","","","","101.57","","","","","","NA"
"-64.30","44.36","LUNENBURG","8203210","2020-11-01 19:00","2020","11","01","19:00","12.1","","11.5","","96","","","","12","","39","","","","101.41","","","","","","NA"
"-64.30","44.36","LUNENBURG","8203210","2020-11-01 20:00","2020","11","01","20:00","12.4","","12.4","","100","","","","12","","39","","","","101.23","","","","","","NA"
"-64.30","44.36","LUNENBURG","8203210","2020-11-01 21:00","2020","11","01","21:00","13.2","","12.2","","94","","","","13","","44","","","","101.03","","","","","","NA"
"-64.30","44.36","LUNENBURG","8203210","2020-11-01 22:00","2020","11","01","22:00","13.3","","12.8","","97","","","","13","","44","","","","100.88","","","","","","NA"
"-64.30","44.36","LUNENBURG","8203210","2020-11-01 23:00","2020","11","01","23:00","12.7","","12.7","","100","","","","13","","46","","","","100.70","","","","","","NA"
"-64.30","44.36","LUNENBURG","8203210","2020-11-02 00:00","2020","11","02","00:00","12.4","","12.4","","100","","","","12","","43","","","","100.42","","","","","","NA"
"-64.30","44.36","LUNENBURG","8203210","2020-11-02 01:00","2020","11","02","01:00","12.9","","12.9","","100","","","","12","","54","","","","100.11","","","","","","NA"
"-64.30","44.36","LUNENBURG","8203210","2020-11-02 02:00","2020","11","02","02:00","12.6","","12.6","","100","","","","11","","61","","","","99.66","","","","","","NA"
"-64.30","44.36","LUNENBURG","8203210","2020-11-02 03:00","2020","11","02","03:00","12.9","","12.8","","100","","","","12","","50","","","","99.57","","","","","","NA"
"-64.30","44.36","LUNENBURG","8203210","2020-11-02 04:00","2020","11","02","04:00","13.3","","13.3","","100","","","","13","","37","","","","99.36","","","","","","NA"
"-64.30","44.36","LUNENBURG","8203210","2020-11-02 05:00","2020","11","02","05:00","13.4","","13.4","","100","","","","16","","34","","","","99.33","","","","","","NA"
"-64.30","44.36","LUNENBURG","8203210","2020-11-02 06:00","2020","11","02","06:00","13.1","","13.1","","100","","","","16","","25","","","","99.13","","","","","","NA"
"-64.30","44.36","LUNENBURG","8203210","2020-11-02 07:00","2020","11","02","07:00","13.5","","13.5","","100","","","","15","","36","","","","98.89","","","","","","NA"
"-64.30","44.36","LUNENBURG","8203210","2020-11-02 08:00","2020","11","02","08:00","13.6","","13.6","","100","","","","16","","37","","","","98.79","","","","","","NA"
"-64.30","44.36","LUNENBURG","8203210","2020-11-02 09:00","2020","11","02","09:00","13.4","","13.4","","100","","","","18","","32","","","","98.61","","","","","","NA"
"-64.30","44.36","LUNENBURG","8203210","2020-11-02 10:00","2020","11","02","10:00","12.0","","12.0","","100","","","","18","","35","","","","98.54","","","","","","NA"
"-64.30","44.36","LUNENBURG","8203210","2020-11-02 11:00","2020","11","02","11:00","12.0","","11.4","","96","","","","21","","34","","","","98.51","","","","","","NA"
"-64.30","44.36","LUNENBURG","8203210","2020-11-02 12:00","2020","11","02","12:00","11.5","","7.7","","77","","","","23","","47","","","","98.43","","","","","","NA"
"-64.30","44.36","LUNENBURG","8203210","2020-11-02 13:00","2020","11","02","13:00","10.2","","4.9","","70","","","","23","","50","","","","98.44","","","","","","NA"
"-64.30","44.36","LUNENBURG","8203210","2020-11-02 14:00","2020","11","02","14:00","9.3","","3.8","","69","","","","22","","43","","","","98.52","","","","","","NA"
"-64.30","44.36","LUNENBURG","8203210","2020-11-02 15:00","2020","11","02","15:00","7.9","","4.3","","78","","","","23","","43","","","","98.56","","","","","","NA"
"-64.30","44.36","LUNENBURG","8203210","2020-11-02 16:00","2020","11","02","16:00","7.1","","3.3","","77","","","","22","","45","","","","98.70","","","","","","NA"
"-64.30","44.36","LUNENBURG","8203210","2020-11-02 17:00","2020","11","02","17:00","5.3","","5.3","","100","","","","22","","40","","","","98.80","","","","","","NA"
"-64.30","44.36","LUNENBURG","8203210","2020-11-02 18:00","2020","11","02","18:00","4.4","","4.0","","97","","","","23","","35","","","","98.92","","","","","","NA"
"-64.30","44.36","LUNENBURG","8203210","2020-11-02 19:00","2020","11","02","19:00","4.2","","4.2","","100","","","","22","","29","","","","99.01","","","","","","NA"
"-64.30","44.36","LUNENBURG","8203210","2020-11-02 20:00","2020","11","02","20:00","3.9","","3.8","","99","","","","23","","37","","","","99.13","","","","","","NA"
"-64.30","44.36","LUNENBURG","8203210","2020-11-02 21:00","2020","11","02","21:00","3.7","","1.8","","87","","","","25","","33","","","","99.31","","","","","","NA"
"-64.30","44.36","LUNENBURG","8203210","2020-11-02 22:00","2020","11","02","22:00","2.7","","0.9","","88","","","","25","","24","","","","99.48","","","","","","NA"
"-64.30","44.36","LUNENBURG","8203210","2020-11-02 23:00","2020","11","02","23:00","2.7","","-1.8","","72","","","","25","","38","","","","99.56","","","","","","NA"
"-64.30","44.36","LUNENBURG","8203210","2020-11-03 00:00","2020","11","03","00:00","2.5","","-0.8","","79","","","","24","","41","","","","99.68","","","","","","NA"
"-64.30","44.36","LUNENBURG","8203210","2020-11-03 01:00","2020","11","03","01:00","1.9","","-3.3","","69","","","","25","","33","","","","99.80","","","","","","NA"
"-64.30","44.36","LUNENBURG","8203210","2020-11-03 02:00","2020","11","03","02:00","1.8","","-4.0","","66","","","","25","","26","","","","99.96","","","","","","NA"
"-64.30","44.36","LUNENBURG","8203210","2020-11-03 03:00","2020","11","03","03:00","1.5","","-4.7","","63","","","","26","","20","","","","100.01","","","","","","NA"
"-64.30","44.36","LUNENBURG","8203210","2020-11-03 04:00","2020","11","03","04:00","1.4","","-5.5","","60","","","","24","","25","","","","100.05","","","","","","NA"
"-64.30","44.36","LUNENBURG","8203210","2020-11-03 05:00","2020","11","03","05:00","0.9","","-4.4","","68","","","","21","","15","","","","100.12","","","","","","NA"
"-64.30","44.36","LUNENBURG","8203210","2020-11-03 06:00","2020","11","03","06:00","0.3","","-4.6","","70","","","","23","","10","","","","100.18","","","","","","NA"
"-64.30","44.36","LUNENBURG","8203210","2020-11-03 07:00","2020","11","03","07:00","0.4","","-3.9","","73","","","","24","","9","","","","100.22","","","","","","NA"
"-64.30","44.36","LUNENBURG","8203210","2020-11-03 08:00","2020","11","03","08:00","1.0","","-5.1","","64","","","","27","","5","","","","100.23","","","","","","NA"
"-64.30","44.36","LUNENBURG","8203210","2020-11-03 09:00","2020","11","03","09:00","1.3","","-4.2","","66","","","","2","","6","","","","100.21","","","","","","NA"
"-64.30","44.36","LUNENBURG","8203210","2020-11-03 10:00","2020","11","03","10:00","2.5","","-3.8","","63","","","","4","","16","","","","100.14","","","","","","NA"
"-64.30","44.36","LUNENBURG","8203210","2020-11-03 11:00","2020","11","03","11:00","3.2","","-3.4","","62","","","","4","","20","","","","100.06","","","","","","NA"
"-64.30","44.36","LUNENBURG","8203210","2020-11-03 12:00","2020","11","03","12:00","1.1","","1.0","","100","","","","7","","25","","","","100.04","","","","","","NA"
"-64.30","44.36","LUNENBURG","8203210","2020-11-03 13:00","2020","11","03","13:00","0.5","","0.5","","100","","","","33","","11","","","","100.11","","","","","","NA"
"-64.30","44.36","LUNENBURG","8203210","2020-11-03 14:00","2020","11","03","14:00","0.1","","0.1","","100","","","","32","","29","","","","100.17","","","","","","NA"
"-64.30","44.36","LUNENBURG","8203210","2020-11-03 15:00","2020","11","03","15:00","0.0","","0.0","","100","","","","33","","29","","","","100.36","","","","-6","","NA"
"-64.30","44.36","LUNENBURG","8203210","2020-11-03 16:00","2020","11","03","16:00","0.5","","0.1","","97","","","","32","","28","","","","100.62","","","","","","NA"
"-64.30","44.36","LUNENBURG","8203210","2020-11-03 17:00","2020","11","03","17:00","1.0","","0.4","","95","","","","30","","29","","","","100.82","","","","","","NA"
"-64.30","44.36","LUNENBURG","8203210","2020-11-03 18:00","2020","11","03","18:00","0.3","","-2.1","","84","","","","30","","29","","","","101.00","","","","","","NA"
"-64.30","44.36","LUNENBURG","8203210","2020-11-03 19:00","2020","11","03","19:00","-0.3","","-2.3","","87","","","","29","","19","","","","101.24","","","","-5","","NA"
"-64.30","44.36","LUNENBURG","8203210","2020-11-03 20:00","2020","11","03","20:00","-0.1","","-2.8","","83","","","","30","","23","","","","101.44","","","","-6","","NA"
"-64.30","44.36","LUNENBURG","8203210","2020-11-03 21:00","2020","11","03","21:00","-0.1","","-2.8","","82","","","","30","","20","","","","101.60","","","","-5","","NA"
"-64.30","44.36","LUNENBURG","8203210","2020-11-03 22:00","2020","11","03","22:00","-0.4","","-4.2","","76","","","","29","","19","","","","101.82","","","","-6","","NA"
"-64.30","44.36","LUNENBURG","8203210","2020-11-03 23:00","2020","11","03","23:00","-0.7","","-3.2","","83","","","","27","","16","","","","101.97","","","","-5","","NA"
"-64.30","44.36","LUNENBURG","8203210","2020-11-04 00:00","2020","11","04","00:00","-1.2","","-3.7","","83","","","","29","","15","","","","102.09","","","","-6","","NA"
"-64.30","44.36","LUNENBURG","8203210","2020-11-04 01:00","2020","11","04","01:00","-1.2","","-4.9","","76","","","","28","","19","","","","102.25","","","","-7","","NA"
"-64.30","44.36","LUNENBURG","8203210","2020-11-04 02:00","2020","11","04","02:00","-2.2","","-3.6","","90","","","","26","","15","","","","102.34","","","","-7","","NA"
"-64.30","44.36","LUNENBURG","8203210","2020-11-04 03:00","2020","11","04","03:00","-2.3","","-4.5","","85","","","","27","","19","","","","102.48","","","","-8","","NA"
"-64.30","44.36","LUNENBURG","8203210","2020-11-04 04:00","2020","11","04","04:00","-2.2","","-5.6","","78","","","","28","","16","","","","102.57","","","","-7","","NA"
"-64.30","44.36","LUNENBURG","8203210","2020-11-04 05:00","2020","11","04","05:00","-1.9","","-5.3","","78","","","","28","","18","","","","102.77","","","","-7","","NA"
"-64.30","44.36","LUNENBURG","8203210","2020-11-04 06:00","2020","11","04","06:00","-2.3","","-6.7","","71","","","","27","","18","","","","102.87","","","","-8","","NA"
"-64.30","44.36","LUNENBURG","8203210","2020-11-04 07:00","2020","11","04","07:00","-3.4","","-6.1","","82","","","","26","","15","","","","102.98","","","","-9","","NA"
"-64.30","44.36","LUNENBURG","8203210","2020-11-04 08:00","2020","11","04","08:00","-2.4","","-5.1","","82","","","","29","","15","","","","103.15","","","","-7","","NA"
"-64.30","44.36","LUNENBURG","8203210","2020-11-04 09:00","2020","11","04","09:00","-2.1","","-7.6","","66","","","","29","","14","","","","103.24","","","","-7","","NA"
"-64.30","44.36","LUNENBURG","8203210","2020-11-04 10:00","2020","11","04","10:00","-1.3","","-7.9","","61","","","","30","","13","","","","103.32","","","","-6","","NA"
"-64.30","44.36","LUNENBURG","8203210","2020-11-04 11:00","2020","11","04","11:00","-0.6","","-7.5","","60","","","","31","","14","","","","103.33","","","","-5","","NA"
"-64.30","44.36","LUNENBURG","8203210","2020-11-04 12:00","2020","11","04","12:00","0.1","","-8.0","","54","","","","31","","13","","","","103.32","","","","","","NA"
"-64.30","44.36","LUNENBURG","8203210","2020-11-04 13:00","2020","11","04","13:00","0.9","","-8.4","","50","","","","32","","12","","","","103.31","","","","","","NA"
"-64.30","44.36","LUNENBURG","8203210","2020-11-04 14:00","2020","11","04","14:00","1.7","","-9.1","","44","","","","34","","2","","","","103.32","","","","","","NA"
"-64.30","44.36","LUNENBURG","8203210","2020-11-04 15:00","2020","11","04","15:00","3.4","","-6.2","","49","","","","12","","5","","","","103.36","","","","","","NA"
"-64.30","44.36","LUNENBURG","8203210","2020-11-04 16:00","2020","11","04","16:00","2.6","","-5.4","","56","","","","13","","9","","","","103.43","","","","","","NA"
"-64.30","44.36","LUNENBURG","8203210","2020-11-04 17:00","2020","11","04","17:00","2.4","","-4.5","","60","","","","15","","12","","","","103.45","","","","","","NA"
"-64.30","44.36","LUNENBURG","8203210","2020-11-04 18:00","2020","11","04","18:00","2.5","","-6.1","","53","","","","16","","11","","","","103.50","","","","","","NA"
"-64.30","44.36","LUNENBURG","8203210","2020-11-04 19:00","2020","11","04","19:00","2.5","","-5.9","","54","","","","18","","11","","","","103.51","","","","","","NA"
"-64.30","44.36","LUNENBURG","8203210","2020-11-04 20:00","2020","11","04","20:00","2.6","","-5.5","","55","","","","22","","9","","","","103.53","","","","","","NA"
"-64.30","44.36","LUNENBURG","8203210","2020-11-04 21:00","2020","11","04","21:00","2.4","","-5.4","","56","","","","24","","6","","","","103.57","","","","","","NA"
"-64.30","44.36","LUNENBURG","8203210","2020-11-04 22:00","2020","11","04","22:00","2.7","","-5.0","","57","","","","22","","3","","","","103.55","","","","","","NA"
"-64.30","44.36","LUNENBURG","8203210","2020-11-04 23:00","2020","11","04","23:00","3.3","","-2.5","","66","","","","16","","1","","","","103.55","","","","","","NA"
"-64.30","44.36","LUNENBURG","8203210","2020-11-05 00:00","2020","11","05","00:00","3.9","","-1.3","","68","","","","19","","4","","","","103.57","","","","","","NA"
"-64.30","44.36","LUNENBURG","8203210","2020-11-05 01:00","2020","11","05","01:00","4.8","","0.6","","74","","","","16","","11","","","","103.53","","","","","","NA"
"-64.30","44.36","LUNENBURG","8203210","2020-11-05 02:00","2020","11","05","02:00","6.1","","3.4","","82","","","","13","","22","","","","103.45","","","","","","NA"
"-64.30","44.36","LUNENBURG","8203210","2020-11-05 03:00","2020","11","05","03:00","6.6","","3.7","","82","","","","16","","20","","","","103.43","","","","","","NA"
"-64.30","44.36","LUNENBURG","8203210","2020-11-05 04:00","2020","11","05","04:00","6.9","","4.8","","86","","","","15","","23","","","","103.40","","","","","","NA"
"-64.30","44.36","LUNENBURG","8203210","2020-11-05 05:00","2020","11","05","05:00","7.0","","7.0","","100","","","","15","","20","","","","103.39","","","","","","NA"
"-64.30","44.36","LUNENBURG","8203210","2020-11-05 06:00","2020","11","05","06:00","7.6","","7.6","","100","","","","15","","20","","","","103.35","","","","","","NA"
"-64.30","44.36","LUNENBURG","8203210","2020-11-05 07:00","2020","11","05","07:00","8.8","","7.7","","93","","","","16","","25","","","","103.31","","","","","","NA"
"-64.30","44.36","LUNENBURG","8203210","2020-11-05 08:00","2020","11","05","08:00","9.2","","8.1","","93","","","","16","","25","","","","103.30","","","","","","NA"
"-64.30","44.36","LUNENBURG","8203210","2020-11-05 09:00","2020","11","05","09:00","10.0","","8.9","","93","","","","16","","27","","","","103.28","","","","","","NA"
"-64.30","44.36","LUNENBURG","8203210","2020-11-05 10:00","2020","11","05","10:00","10.6","","9.2","","91","","","","16","","29","","","","103.24","","","","","","NA"
"-64.30","44.36","LUNENBURG","8203210","2020-11-05 11:00","2020","11","05","11:00","11.3","","9.3","","88","","","","16","","28","","","","103.19","","","","","","NA"
"-64.30","44.36","LUNENBURG","8203210","2020-11-05 12:00","2020","11","05","12:00","11.4","","9.3","","87","","","","18","","32","","","","103.11","","","","","","NA"
"-64.30","44.36","LUNENBURG","8203210","2020-11-05 13:00","2020","11","05","13:00","11.8","","9.0","","83","","","","18","","39","","","","103.03","","","","","","NA"
"-64.30","44.36","LUNENBURG","8203210","2020-11-05 14:00","2020","11","05","14:00","11.5","","11.1","","98","","","","18","","36","","","","102.99","","","","","","NA"
"-64.30","44.36","LUNENBURG","8203210","2020-11-05 15:00","2020","11","05","15:00","11.3","","11.2","","99","","","","18","","30","","","","102.96","","","","","","NA"
"-64.30","44.36","LUNENBURG","8203210","2020-11-05 16:00","2020","11","05","16:00","11.4","","11.3","","99","","","","18","","28","","","","102.90","","","","","","NA"
"-64.30","44.36","LUNENBURG","8203210","2020-11-05 17:00","2020","11","05","17:00","11.1","","11.1","","100","","","","18","","27","","","","102.86","","","","","","NA"
"-64.30","44.36","LUNENBURG","8203210","2020-11-05 18:00","2020","11","05","18:00","11.1","","11.1","","100","","","","18","","29","","","","102.83","","","","","","NA"
"-64.30","44.36","LUNENBURG","8203210","2020-11-05 19:00","2020","11","05","19:00","11.1","","11.1","","100","","","","19","","28","","","","102.81","","","","","","NA"
"-64.30","44.36","LUNENBURG","8203210","2020-11-05 20:00","2020","11","05","20:00","11.2","","11.2","","100","","","","19","","34","","","","102.74","","","","","","NA"
"-64.30","44.36","LUNENBURG","8203210","2020-11-05 21:00","2020","11","05","21:00","11.5","","11.5","","100","","","","19","","33","","","","102.73","","","","","","NA"
"-64.30","44.36","LUNENBURG","8203210","2020-11-05 22:00","2020","11","05","22:00","11.4","","11.4","","100","","","","19","","31","","","","102.70","","","","","","NA"
"-64.30","44.36","LUNENBURG","8203210","2020-11-05 23:00","2020","11","05","23:00","11.3","","11.3","","100","","","","19","","27","","","","102.65","","","","","","NA"
"-64.30","44.36","LUNENBURG","8203210","2020-11-06 00:00","2020","11","06","00:00","11.3","","11.3","","100","","","","19","","18","","","","102.61","","","","","","NA"
"-64.30","44.36","LUNENBURG","8203210","2020-11-06 01:00","2020","11","06","01:00","11.1","","11.1","","100","","","","19","","18","","","","102.57","","","","","","NA"
"-64.30","44.36","LUNENBURG","8203210","2020-11-06 02:00","2020","11","06","02:00","11.3","","11.3","","100","","","","19","","22","","","","102.51","","","","","","NA"
"-64.30","44.36","LUNENBURG","8203210","2020-11-06 03:00","2020","11","06","03:00","11.7","","11.7","","100","","","","19","","22","","","","102.47","","","","","","NA"
"-64.30","44.36","LUNENBURG","8203210","2020-11-06 04:00","2020","11","06","04:00","12.1","","12.1","","100","","","","19","","20","","","","102.42","","","","","","NA"
"-64.30","44.36","LUNENBURG","8203210","2020-11-06 05:00","2020","11","06","05:00","12.9","","12.9","","100","","","","20","","25","","","","102.38","","","","","","NA"
"-64.30","44.36","LUNENBURG","8203210","2020-11-06 06:00","2020","11","06","06:00","11.5","","11.5","","100","","","","19","","18","","","","102.37","","","","","","NA"
"-64.30","44.36","LUNENBURG","8203210","2020-11-06 07:00","2020","11","06","07:00","11.4","","11.4","","100","","","","19","","22","","","","102.33","","","","","","NA"
"-64.30","44.36","LUNENBURG","8203210","2020-11-06 08:00","2020","11","06","08:00","11.3","","11.3","","100","","","","19","","22","","","","102.33","","","","","","NA"
"-64.30","44.36","LUNENBURG","8203210","2020-11-06 09:00","2020","11","06","09:00","11.4","","11.4","","100","","","","18","","22","","","","102.32","","","","","","NA"
"-64.30","44.36","LUNENBURG","8203210","2020-11-06 10:00","2020","11","06","10:00","12.1","","12.1","","100","","","","18","","23","","","","102.25","","","","","","NA"
"-64.30","44.36","LUNENBURG","8203210","2020-11-06 11:00","2020","11","06","11:00","12.8","","12.7","","99","","","","18","","19","","","","102.22","","","","","","NA"
"-64.30","44.36","LUNENBURG","8203210","2020-11-06 12:00","2020","11","06","12:00","13.9","","13.4","","97","","","","18","","28","","","","102.10","","","","","","NA"
"-64.30","44.36","LUNENBURG","8203210","2020-11-06 13:00","2020","11","06","13:00","14.0","","13.4","","97","","","","18","","27","","","","101.97","","","","","","NA"
"-64.30","44.36","LUNENBURG","8203210","2020-11-06 14:00","2020","11","06","14:00","13.7","","13.6","","100","","","","18","","29","","","","101.92","","","","","","NA"
"-64.30","44.36","LUNENBURG","8203210","2020-11-06 15:00","2020","11","06","15:00","13.1","","13.1","","100","","","","18","","22","","","","101.89","","","","","","NA"
"-64.30","44.36","LUNENBURG","8203210","2020-11-06 16:00","2020","11","06","16:00","14.4","","11.3","","81","","","","20","","24","","","","101.84","","","","","","NA"
"-64.30","44.36","LUNENBURG","8203210","2020-11-06 17:00","2020","11","06","17:00","14.8","","10.1","","73","","","","21","","20","","","","101.85","","","","","","NA"
"-64.30","44.36","LUNENBURG","8203210","2020-11-06 18:00","2020","11","06","18:00","12.6","","12.6","","100","","","","19","","16","","","","101.83","","","","","","NA"
"-64.30","44.36","LUNENBURG","8203210","2020-11-06 19:00","2020","11","06","19:00","11.6","","11.6","","100","","","","18","","22","","","","101.80","","","","","","NA"
"-64.30","44.36","LUNENBURG","8203210","2020-11-06 20:00","2020","11","06","20:00","11.3","","11.3","","100","","","","19","","22","","","","101.75","","","","","","NA"
"-64.30","44.36","LUNENBURG","8203210","2020-11-06 21:00","2020","11","06","21:00","10.9","","10.9","","100","","","","20","","21","","","","101.68","","","","","","NA"
"-64.30","44.36","LUNENBURG","8203210","2020-11-06 22:00","2020","11","06","22:00","10.9","","10.9","","100","","","","20","","19","","","","101.65","","","","","","NA"
"-64.30","44.36","LUNENBURG","8203210","2020-11-06 23:00","2020","11","06","23:00","10.9","","10.9","","100","","","","20","","20","","","","101.56","","","","","","NA"
"-64.30","44.36","LUNENBURG","8203210","2020-11-07 00:00","2020","11","07","00:00","11.1","","11.1","","100","","","","23","","11","","","","101.58","","","","","","NA"
"-64.30","44.36","LUNENBURG","8203210","2020-11-07 01:00","2020","11","07","01:00","11.5","","11.5","","100","","","","21","","20","","","","101.45","","","","","","NA"
"-64.30","44.36","LUNENBURG","8203210","2020-11-07 02:00","2020","11","07","02:00","12.3","","12.3","","100","","","","23","","16","","","","101.45","","","","","","NA"
"-64.30","44.36","LUNENBURG","8203210","2020-11-07 03:00","2020","11","07","03:00","12.2","","12.2","","100","","","","23","","20","","","","101.44","","","","","","NA"
"-64.30","44.36","LUNENBURG","8203210","2020-11-07 04:00","2020","11","07","04:00","12.1","","12.0","","100","","","","24","","22","","","","101.42","","","","","","NA"
"-64.30","44.36","LUNENBURG","8203210","2020-11-07 05:00","2020","11","07","05:00","11.9","","11.9","","100","","","","25","","23","","","","101.45","","","","","","NA"
"-64.30","44.36","LUNENBURG","8203210","2020-11-07 06:00","2020","11","07","06:00","11.7","","11.7","","100","","","","25","","20","","","","101.47","","","","","","NA"
"-64.30","44.36","LUNENBURG","8203210","2020-11-07 07:00","2020","11","07","07:00","11.5","","10.7","","95","","","","26","","15","","","","101.53","","","","","","NA"
"-64.30","44.36","LUNENBURG","8203210","2020-11-07 08:00","2020","11","07","08:00","12.2","","9.8","","85","","","","24","","20","","","","101.57","","","","","","NA"
"-64.30","44.36","LUNENBURG","8203210","2020-11-07 09:00","2020","11","07","09:00","12.8","","9.4","","80","","","","24","","17","","","","101.66","","","","","","NA"
"-64.30","44.36","LUNENBURG","8203210","2020-11-07 10:00","2020","11","07","10:00","15.7","","8.0","","60","","","","27","","22","","","","101.68","","","","","","NA"
"-64.30","44.36","LUNENBURG","8203210","2020-11-07 11:00","2020","11","07","11:00","15.9","","8.4","","61","","","","27","","24","","","","101.66","","","","","","NA"
"-64.30","44.36","LUNENBURG","8203210","2020-11-07 12:00","2020","11","07","12:00","17.1","","8.4","","56","","","","27","","24","","","","101.65","","","","","","NA"
"-64.30","44.36","LUNENBURG","8203210","2020-11-07 13:00","2020","11","07","13:00","17.6","","6.8","","49","","","","27","","22","","","","101.65","","","","","","NA"
"-64.30","44.36","LUNENBURG","8203210","2020-11-07 14:00","2020","11","07","14:00","18.5","","6.9","","47","","","","26","","26","","","","101.64","","","","","","NA"
"-64.30","44.36","LUNENBURG","8203210","2020-11-07 15:00","2020","11","07","15:00","17.7","","7.1","","50","","","","27","","24","","","","101.67","","","","","","NA"
"-64.30","44.36","LUNENBURG","8203210","2020-11-07 16:00","2020","11","07","16:00","17.7","","7.1","","50","","","","28","","19","","","","101.73","","","","","","NA"
"-64.30","44.36","LUNENBURG","8203210","2020-11-07 17:00","2020","11","07","17:00","14.2","","7.9","","66","","","","27","","8","","","","101.79","","","","","","NA"
"-64.30","44.36","LUNENBURG","8203210","2020-11-07 18:00","2020","11","07","18:00","13.8","","8.6","","71","","","","21","","4","","","","101.84","","","","","","NA"
"-64.30","44.36","LUNENBURG","8203210","2020-11-07 19:00","2020","11","07","19:00","11.8","","8.8","","82","","","","0","","1","","","","101.91","","","","","","NA"
"-64.30","44.36","LUNENBURG","8203210","2020-11-07 20:00","2020","11","07","20:00","11.2","","7.9","","80","","","","32","","8","","","","101.98","","","","","","NA"
"-64.30","44.36","LUNENBURG","8203210","2020-11-07 21:00","2020","11","07","21:00","9.8","","9.8","","100","","","","26","","3","","","","102.06","","","","","","NA"
"-64.30","44.36","LUNENBURG","8203210","2020-11-07 22:00","2020","11","07","22:00","10.3","","8.9","","91","","","","2","","6","","","","102.12","","","","","","NA"
"-64.30","44.36","LUNENBURG","8203210","2020-11-07 23:00","2020","11","07","23:00","10.0","","8.9","","93","","","","3","","10","","","","102.17","","","","","","NA"
"-64.30","44.36","LUNENBURG","8203210","2020-11-08 00:00","2020","11","08","00:00","9.0","","7.5","","90","","","","4","","11","","","","102.22","","","","","","NA"
"-64.30","44.36","LUNENBURG","8203210","2020-11-08 01:00","2020","11","08","01:00","8.9","","6.7","","86","","","","5","","15","","","","102.25","","","","","","NA"
"-64.30","44.36","LUNENBURG","8203210","2020-11-08 02:00","2020","11","08","02:00","8.5","","7.7","","95","","","","4","","13","","","","102.26","","","","","","NA"
"-64.30","44.36","LUNENBURG","8203210","2020-11-08 03:00","2020","11","08","03:00","8.4","","7.9","","97","","","","4","","14","","","","102.32","","","","","","NA"
"-64.30","44.36","LUNENBURG","8203210","2020-11-08 04:00","2020","11","08","04:00","8.0","","7.0","","93","","","","4","","19","","","","102.41","","","","","","NA"
"-64.30","44.36","LUNENBURG","8203210","2020-11-08 05:00","2020","11","08","05:00","7.8","","6.0","","89","","","","4","","19","","","","102.48","","","","","","NA"
"-64.30","44.36","LUNENBURG","8203210","2020-11-08 06:00","2020","11","08","06:00","7.5","","5.9","","90","","","","3","","13","","","","102.56","","","","","","NA"
"-64.30","44.36","LUNENBURG","8203210","2020-11-08 07:00","2020","11","08","07:00","6.8","","4.3","","84","","","","2","","10","","","","102.63","","","","","","NA"
"-64.30","44.36","LUNENBURG","8203210","2020-11-08 08:00","2020","11","08","08:00","7.1","","4.9","","86","","","","4","","14","","","","102.71","","","","","","NA"
"-64.30","44.36","LUNENBURG","8203210","2020-11-08 09:00","2020","11","08","09:00","7.4","","3.5","","77","","","","5","","17","","","","102.75","","","","","","NA"
"-64.30","44.36","LUNENBURG","8203210","2020-11-08 10:00","2020","11","08","10:00","7.4","","3.4","","75","","","","5","","17","","","","102.83","","","","","","NA"
"-64.30","44.36","LUNENBURG","8203210","2020-11-08 11:00","2020","11","08","11:00","7.8","","3.3","","73","","","","4","","14","","","","102.82","","","","","","NA"
"-64.30","44.36","LUNENBURG","8203210","2020-11-08 12:00","2020","11","08","12:00","8.0","","3.3","","72","","","","5","","14","","","","102.78","","","","","","NA"
"-64.30","44.36","LUNENBURG","8203210","2020-11-08 13:00","2020","11","08","13:00","8.2","","3.5","","72","","","","6","","11","","","","102.79","","","","","","NA"
"-64.30","44.36","LUNENBURG","8203210","2020-11-08 14:00","2020","11","08","14:00","8.4","","3.7","","72","","","","7","","8","","","","102.76","","","","","","NA"
"-64.30","44.36","LUNENBURG","8203210","2020-11-08 15:00","2020","11","08","15:00","8.2","","3.3","","71","","","","7","","9","","","","102.80","","","","","","NA"
"-64.30","44.36","LUNENBURG","8203210","2020-11-08 16:00","2020","11","08","16:00","8.1","","3.3","","72","","","","10","","9","","","","102.81","","","","","","NA"
"-64.30","44.36","LUNENBURG","8203210","2020-11-08 17:00","2020","11","08","17:00","8.1","","3.1","","71","","","","6","","7","","","","102.83","","","","","","NA"
"-64.30","44.36","LUNENBURG","8203210","2020-11-08 18:00","2020","11","08","18:00","8.1","","5.1","","81","","","","8","","17","","","","102.83","","","","","","NA"
"-64.30","44.36","LUNENBURG","8203210","2020-11-08 19:00","2020","11","08","19:00","7.8","","5.6","","86","","","","5","","9","","","","102.85","","","","","","NA"
"-64.30","44.36","LUNENBURG","8203210","2020-11-08 20:00","2020","11","08","20:00","8.6","","6.3","","85","","","","11","","12","","","","102.83","","","","","","NA"
"-64.30","44.36","LUNENBURG","8203210","2020-11-08 21:00","2020","11","08","21:00","8.9","","7.7","","92","","","","10","","15","","","","102.80","","","","","","NA"
"-64.30","44.36","LUNENBURG","8203210","2020-11-08 22:00","2020","11","08","22:00","9.1","","8.7","","98","","","","13","","18","","","","102.73","","","","","","NA"
"-64.30","44.36","LUNENBURG","8203210","2020-11-08 23:00","2020","11","08","23:00","9.2","","8.2","","94","","","","15","","6","","","","102.74","","","","","","NA"
"-64.30","44.36","LUNENBURG","8203210","2020-11-09 00:00","2020","11","09","00:00","8.7","","8.7","","100","","","","29","","8","","","","102.77","","","","","","NA"
"-64.30","44.36","LUNENBURG","8203210","2020-11-09 01:00","2020","11","09","01:00","8.1","","8.1","","100","","","","18","","9","","","","102.67","","","","","","NA"
"-64.30","44.36","LUNENBURG","8203210","2020-11-09 02:00","2020","11","09","02:00","8.2","","8.2","","100","","","","25","","6","","","","102.64","","","","","","NA"
"-64.30","44.36","LUNENBURG","8203210","2020-11-09 03:00","2020","11","09","03:00","7.8","","7.7","","100","","","","22","","8","","","","102.57","","","","","","NA"
"-64.30","44.36","LUNENBURG","8203210","2020-11-09 04:00","2020","11","09","04:00","8.4","","8.4","","100","","","","25","","11","","","","102.54","","","","","","NA"
"-64.30","44.36","LUNENBURG","8203210","2020-11-09 05:00","2020","11","09","05:00","8.8","","8.8","","100","","","","22","","14","","","","102.50","","","","","","NA"
"-64.30","44.36","LUNENBURG","8203210","2020-11-09 06:00","2020","11","09","06:00","8.6","","8.6","","100","","","","23","","14","","","","102.47","","","","","","NA"
"-64.30","44.36","LUNENBURG","8203210","2020-11-09 07:00","2020","11","09","07:00","8.7","","8.7","","100","","","","25","","15","","","","102.48","","","","","","NA"
"-64.30","44.36","LUNENBURG","8203210","2020-11-09 08:00","2020","11","09","08:00","8.7","","8.7","","100","","","","25","","13","","","","102.51","","","","","","NA"
"-64.30","44.36","LUNENBURG","8203210","2020-11-09 09:00","2020","11","09","09:00","9.1","","9.1","","100","","","","23","","15","","","","102.47","","","","","","NA"
"-64.30","44.36","LUNENBURG","8203210","2020-11-09 10:00","2020","11","09","10:00","10.1","","10.1","","100","","","","24","","13","","","","102.43","","","","","","NA"
"-64.30","44.36","LUNENBURG","8203210","2020-11-09 11:00","2020","11","09","11:00","11.3","","11.3","","100","","","","23","","15","","","","102.36","","","","","","NA"
"-64.30","44.36","LUNENBURG","8203210","2020-11-09 12:00","2020","11","09","12:00","12.8","","11.8","","94","","","","22","","17","","","","102.23","","","","","","NA"
"-64.30","44.36","LUNENBURG","8203210","2020-11-09 13:00","2020","11","09","13:00","14.5","","11.2","","81","","","","24","","17","","","","102.17","","","","","","NA"
"-64.30","44.36","LUNENBURG","8203210","2020-11-09 14:00","2020","11","09","14:00","15.1","","11.2","","77","","","","25","","14","","","","102.11","","","","","","NA"
"-64.30","44.36","LUNENBURG","8203210","2020-11-09 15:00","2020","11","09","15:00","15.6","","10.8","","73","","","","25","","15","","","","102.07","","","","","","NA"
"-64.30","44.36","LUNENBURG","8203210","2020-11-09 16:00","2020","11","09","16:00","15.3","","10.8","","74","","","","24","","16","","","","102.07","","","","","","NA"
"-64.30","44.36","LUNENBURG","8203210","2020-11-09 17:00","2020","11","09","17:00","12.7","","12.1","","96","","","","19","","14","","","","102.07","","","","","","NA"
"-64.30","44.36","LUNENBURG","8203210","2020-11-09 18:00","2020","11","09","18:00","11.3","","11.3","","100","","","","23","","5","","","","102.07","","","","","","NA"
"-64.30","44.36","LUNENBURG","8203210","2020-11-09 19:00","2020","11","09","19:00","11.2","","11.2","","100","","","","25","","12","","","","102.05","","","","","","NA"
"-64.30","44.36","LUNENBURG","8203210","2020-11-09 20:00","2020","11","09","20:00","11.6","","11.6","","100","","","","26","","15","","","","102.05","","","","","","NA"
"-64.30","44.36","LUNENBURG","8203210","2020-11-09 21:00","2020","11","09","21:00","10.8","","10.8","","100","","","","26","","5","","","","102.05","","","","","","NA"
"-64.30","44.36","LUNENBURG","8203210","2020-11-09 22:00","2020","11","09","22:00","10.5","","10.5","","100","","","","26","","10","","","","102.09","","","","","","NA"
"-64.30","44.36","LUNENBURG","8203210","2020-11-09 23:00","2020","11","09","23:00","9.8","","9.8","","100","","","","25","","8","","","","102.07","","","","","","NA"
"-64.30","44.36","LUNENBURG","8203210","2020-11-10 00:00","2020","11","10","00:00","9.8","","9.8","","100","","","","25","","9","","","","102.04","","","","","","NA"
"-64.30","44.36","LUNENBURG","8203210","2020-11-10 01:00","2020","11","10","01:00","9.1","","9.1","","100","","","","25","","11","","","","101.98","","","","","","NA"
"-64.30","44.36","LUNENBURG","8203210","2020-11-10 02:00","2020","11","10","02:00","8.7","","8.7","","100","","","","23","","10","","","","101.98","","","","","","NA"
"-64.30","44.36","LUNENBURG","8203210","2020-11-10 03:00","2020","11","10","03:00","8.2","","8.2","","100","","","","23","","10","","","","101.96","","","","","","NA"
"-64.30","44.36","LUNENBURG","8203210","2020-11-10 04:00","2020","11","10","04:00","8.9","","8.9","","100","","","","20","","9","","","","101.92","","","","","","NA"
"-64.30","44.36","LUNENBURG","8203210","2020-11-10 05:00","2020","11","10","05:00","8.9","","8.9","","100","","","","20","","10","","","","101.92","","","","","","NA"
"-64.30","44.36","LUNENBURG","8203210","2020-11-10 06:00","2020","11","10","06:00","8.6","","8.6","","100","","","","22","","1","","","","101.95","","","","","","NA"
"-64.30","44.36","LUNENBURG","8203210","2020-11-10 07:00","2020","11","10","07:00","8.8","","8.8","","100","","","","20","","8","","","","101.95","","","","","","NA"
"-64.30","44.36","LUNENBURG","8203210","2020-11-10 08:00","2020","11","10","08:00","9.6","","9.6","","100","","","","14","","4","","","","101.98","","","","","","NA"
"-64.30","44.36","LUNENBURG","8203210","2020-11-10 09:00","2020","11","10","09:00","10.8","","10.8","","100","","","","11","","6","","","","101.98","","","","","","NA"
"-64.30","44.36","LUNENBURG","8203210","2020-11-10 10:00","2020","11","10","10:00","12.9","","9.9","","82","","","","25","","9","","","","101.94","","","","","","NA"
"-64.30","44.36","LUNENBURG","8203210","2020-11-10 11:00","2020","11","10","11:00","17.6","","9.9","","61","","","","20","","5","","","","101.90","","","","","","NA"
"-64.30","44.36","LUNENBURG","8203210","2020-11-10 12:00","2020","11","10","12:00","17.4","","9.5","","60","","","","22","","16","","","","101.82","","","","","","NA"
"-64.30","44.36","LUNENBURG","8203210","2020-11-10 13:00","2020","11","10","13:00","16.8","","10.0","","64","","","","21","","16","","","","101.76","","","","","","NA"
"-64.30","44.36","LUNENBURG","8203210","2020-11-10 14:00","2020","11","10","14:00","15.7","","10.0","","69","","","","17","","18","","","","101.69","","","","","","NA"
"-64.30","44.36","LUNENBURG","8203210","2020-11-10 15:00","2020","11","10","15:00","14.3","","10.6","","78","","","","18","","9","","","","101.69","","","","","","NA"
"-64.30","44.36","LUNENBURG","8203210","2020-11-10 16:00","2020","11","10","16:00","14.3","","11.8","","85","","","","13","","4","","","","101.67","","","","","","NA"
"-64.30","44.36","LUNENBURG","8203210","2020-11-10 17:00","2020","11","10","17:00","12.0","","12.0","","100","","","","15","","10","","","","101.64","","","","","","NA"
"-64.30","44.36","LUNENBURG","8203210","2020-11-10 18:00","2020","11","10","18:00","11.5","","11.5","","100","","","","17","","3","","","","101.64","","","","","","NA"
"-64.30","44.36","LUNENBURG","8203210","2020-11-10 19:00","2020","11","10","19:00","11.0","","11.0","","100","","","","15","","3","","","","101.62","","","","","","NA"
"-64.30","44.36","LUNENBURG","8203210","2020-11-10 20:00","2020","11","10","20:00","10.8","","10.8","","100","","","","14","","2","","","","101.62","","","","","","NA"
"-64.30","44.36","LUNENBURG","8203210","2020-11-10 21:00","2020","11","10","21:00","11.3","","11.3","","100","","","","20","","14","","","","101.65","","","","","","NA"
"-64.30","44.36","LUNENBURG","8203210","2020-11-10 22:00","2020","11","10","22:00","13.1","","13.1","","100","","","","24","","23","","","","101.64","","","","","","NA"
"-64.30","44.36","LUNENBURG","8203210","2020-11-10 23:00","2020","11","10","23:00","13.1","","13.1","","100","","","","22","","19","","","","101.61","","","","","","NA"
"-64.30","44.36","LUNENBURG","8203210","2020-11-11 00:00","2020","11","11","00:00","12.6","","12.6","","100","","","","25","","12","","","","101.65","","","","","","NA"
"-64.30","44.36","LUNENBURG","8203210","2020-11-11 01:00","2020","11","11","01:00","11.0","","11.0","","100","","","","15","","7","","","","101.61","","","","","","NA"
"-64.30","44.36","LUNENBURG","8203210","2020-11-11 02:00","2020","11","11","02:00","10.4","","10.4","","100","","","","17","","4","","","","101.60","","","","","","NA"
"-64.30","44.36","LUNENBURG","8203210","2020-11-11 03:00","2020","11","11","03:00","10.3","","10.3","","100","","","","0","","1","","","","101.59","","","","","","NA"
"-64.30","44.36","LUNENBURG","8203210","2020-11-11 04:00","2020","11","11","04:00","10.6","","10.6","","100","","","","29","","3","","","","101.61","","","","","","NA"
"-64.30","44.36","LUNENBURG","8203210","2020-11-11 05:00","2020","11","11","05:00","10.5","","10.5","","100","","","","29","","3","","","","101.61","","","","","","NA"
"-64.30","44.36","LUNENBURG","8203210","2020-11-11 06:00","2020","11","11","06:00","9.9","","9.9","","100","","","","22","","5","","","","101.60","","","","","","NA"
"-64.30","44.36","LUNENBURG","8203210","2020-11-11 07:00","2020","11","11","07:00","10.6","","10.6","","100","","","","21","","6","","","","101.63","","","","","","NA"
"-64.30","44.36","LUNENBURG","8203210","2020-11-11 08:00","2020","11","11","08:00","11.9","","11.9","","100","","","","22","","15","","","","101.68","","","","","","NA"
"-64.30","44.36","LUNENBURG","8203210","2020-11-11 09:00","2020","11","11","09:00","12.8","","12.8","","100","","","","23","","17","","","","101.65","","","","","","NA"
"-64.30","44.36","LUNENBURG","8203210","2020-11-11 10:00","2020","11","11","10:00","13.3","","13.3","","100","","","","21","","18","","","","101.63","","","","","","NA"
"-64.30","44.36","LUNENBURG","8203210","2020-11-11 11:00","2020","11","11","11:00","15.1","","15.1","","100","","","","22","","15","","","","101.62","","","","","","NA"
"-64.30","44.36","LUNENBURG","8203210","2020-11-11 12:00","2020","11","11","12:00","15.8","","15.8","","100","","","","14","","13","","","","101.54","","","","","","NA"
"-64.30","44.36","LUNENBURG","8203210","2020-11-11 13:00","2020","11","11","13:00","18.7","","14.4","","76","","","","25","","30","","","","101.44","","","","","","NA"
"-64.30","44.36","LUNENBURG","8203210","2020-11-11 14:00","2020","11","11","14:00","18.6","","14.7","","78","","","","22","","25","","","","101.38","","","","","","NA"
"-64.30","44.36","LUNENBURG","8203210","2020-11-11 15:00","2020","11","11","15:00","14.9","","14.6","","98","","","","18","","26","","","","101.33","","","","","","NA"
"-64.30","44.36","LUNENBURG","8203210","2020-11-11 16:00","2020","11","11","16:00","13.5","","13.5","","100","","","","18","","28","","","","101.34","","","","","","NA"
"-64.30","44.36","LUNENBURG","8203210","2020-11-11 17:00","2020","11","11","17:00","13.0","","13.0","","100","","","","18","","28","","","","101.32","","","","","","NA"
"-64.30","44.36","LUNENBURG","8203210","2020-11-11 18:00","2020","11","11","18:00","13.0","","13.0","","100","","","","19","","29","","","","101.28","","","","","","NA"
"-64.30","44.36","LUNENBURG","8203210","2020-11-11 19:00","2020","11","11","19:00","12.9","","12.9","","100","","","","18","","22","","","","101.27","","","","","","NA"
"-64.30","44.36","LUNENBURG","8203210","2020-11-11 20:00","2020","11","11","20:00","13.6","","13.6","","100","","","","18","","22","","","","101.20","","","","","","NA"
"-64.30","44.36","LUNENBURG","8203210","2020-11-11 21:00","2020","11","11","21:00","13.5","","13.5","","100","","","","18","","27","","","","101.16","","","","","","NA"
"-64.30","44.36","LUNENBURG","8203210","2020-11-11 22:00","2020","11","11","22:00","14.1","","14.1","","100","","","","18","","23","","","","101.14","","","","","","NA"
"-64.30","44.36","LUNENBURG","8203210","2020-11-11 23:00","2020","11","11","23:00","15.5","","15.5","","100","","","","19","","24","","","","101.10","","","","","","NA"
"-64.30","44.36","LUNENBURG","8203210","2020-11-12 00:00","2020","11","12","00:00","18.5","","18.5","","100","","","","22","","34","","","","101.05","","","","","","NA"
"-64.30","44.36","LUNENBURG","8203210","2020-11-12 01:00","2020","11","12","01:00","18.4","","18.1","","98","","","","23","","39","","","","101.05","","","","","","NA"
"-64.30","44.36","LUNENBURG","8203210","2020-11-12 02:00","2020","11","12","02:00","18.0","","18.0","","100","","","","23","","34","","","","101.04","","","","","","NA"
"-64.30","44.36","LUNENBURG","8203210","2020-11-12 03:00","2020","11","12","03:00","18.2","","18.2","","100","","","","22","","33","","","","100.99","","","","","","NA"
"-64.30","44.36","LUNENBURG","8203210","2020-11-12 04:00","2020","11","12","04:00","14.9","","14.9","","100","","","","19","","19","","","","100.99","","","","","","NA"
"-64.30","44.36","LUNENBURG","8203210","2020-11-12 05:00","2020","11","12","05:00","13.8","","13.8","","100","","","","17","","17","","","","101.04","","","","","","NA"
"-64.30","44.36","LUNENBURG","8203210","2020-11-12 06:00","2020","11","12","06:00","14.1","","14.1","","100","","","","18","","19","","","","100.99","","","","","","NA"
"-64.30","44.36","LUNENBURG","8203210","2020-11-12 07:00","2020","11","12","07:00","13.1","","13.1","","100","","","","18","","18","","","","101.01","","","","","","NA"
"-64.30","44.36","LUNENBURG","8203210","2020-11-12 08:00","2020","11","12","08:00","13.6","","13.6","","100","","","","19","","12","","","","101.07","","","","","","NA"
"-64.30","44.36","LUNENBURG","8203210","2020-11-12 09:00","2020","11","12","09:00","14.7","","14.7","","100","","","","22","","14","","","","101.08","","","","","","NA"
"-64.30","44.36","LUNENBURG","8203210","2020-11-12 10:00","2020","11","12","10:00","15.2","","15.2","","100","","","","24","","16","","","","101.11","","","","","","NA"
"-64.30","44.36","LUNENBURG","8203210","2020-11-12 11:00","2020","11","12","11:00","15.5","","15.5","","100","","","","24","","16","","","","101.10","","","","","","NA"
"-64.30","44.36","LUNENBURG","8203210","2020-11-12 12:00","2020","11","12","12:00","14.5","","14.5","","100","","","","26","","13","","","","101.02","","","","","","NA"
"-64.30","44.36","LUNENBURG","8203210","2020-11-12 13:00","2020","11","12","13:00","16.0","","16.0","","100","","","","24","","10","","","","101.01","","","","","","NA"
"-64.30","44.36","LUNENBURG","8203210","2020-11-12 14:00","2020","11","12","14:00","15.0","","15.0","","100","","","","26","","11","","","","101.04","","","","","","NA"
"-64.30","44.36","LUNENBURG","8203210","2020-11-12 15:00","2020","11","12","15:00","15.1","","15.1","","100","","","","19","","7","","","","101.01","","","","","","NA"
"-64.30","44.36","LUNENBURG","8203210","2020-11-12 16:00","2020","11","12","16:00","15.0","","15.0","","100","","","","26","","5","","","","101.05","","","","","","NA"
"-64.30","44.36","LUNENBURG","8203210","2020-11-12 17:00","2020","11","12","17:00","14.5","","14.5","","100","","","","31","","12","","","","101.06","","","","","","NA"
"-64.30","44.36","LUNENBURG","8203210","2020-11-12 18:00","2020","11","12","18:00","13.7","","13.7","","100","","","","30","","12","","","","101.11","","","","","","NA"
"-64.30","44.36","LUNENBURG","8203210","2020-11-12 19:00","2020","11","12","19:00","13.6","","12.4","","92","","","","30","","23","","","","101.17","","","","","","NA"
"-64.30","44.36","LUNENBURG","8203210","2020-11-12 20:00","2020","11","12","20:00","12.5","","12.5","","100","","","","30","","21","","","","101.25","","","","","","NA"
"-64.30","44.36","LUNENBURG","8203210","2020-11-12 21:00","2020","11","12","21:00","11.5","","11.5","","100","","","","30","","17","","","","101.31","","","","","","NA"
"-64.30","44.36","LUNENBURG","8203210","2020-11-12 22:00","2020","11","12","22:00","11.3","","11.3","","100","","","","31","","21","","","","101.36","","","","","","NA"
"-64.30","44.36","LUNENBURG","8203210","2020-11-12 23:00","2020","11","12","23:00","10.0","","10.0","","100","","","","33","","21","","","","101.37","","","","","","NA"
"-64.30","44.36","LUNENBURG","8203210","2020-11-13 00:00","2020","11","13","00:00","9.3","","9.3","","100","","","","33","","12","","","","101.42","","","","","","NA"
"-64.30","44.36","LUNENBURG","8203210","2020-11-13 01:00","2020","11","13","01:00","8.3","","8.3","","100","","","","33","","11","","","","101.47","","","","","","NA"
"-64.30","44.36","LUNENBURG","8203210","2020-11-13 02:00","2020","11","13","02:00","8.0","","8.0","","100","","","","34","","8","","","","101.55","","","","","","NA"
"-64.30","44.36","LUNENBURG","8203210","2020-11-13 03:00","2020","11","13","03:00","8.1","","8.1","","100","","","","33","","13","","","","101.66","","","","","","NA"
"-64.30","44.36","LUNENBURG","8203210","2020-11-13 04:00","2020","11","13","04:00","8.0","","8.0","","100","","","","33","","12","","","","101.79","","","","","","NA"
"-64.30","44.36","LUNENBURG","8203210","2020-11-13 05:00","2020","11","13","05:00","7.4","","5.3","","86","","","","1","","13","","","","101.84","","","","","","NA"
"-64.30","44.36","LUNENBURG","8203210","2020-11-13 06:00","2020","11","13","06:00","6.6","","4.8","","89","","","","1","","10","","","","101.87","","","","","","NA"
"-64.30","44.36","LUNENBURG","8203210","2020-11-13 07:00","2020","11","13","07:00","6.0","","3.9","","86","","","","1","","10","","","","101.89","","","","","","NA"
"-64.30","44.36","LUNENBURG","8203210","2020-11-13 08:00","2020","11","13","08:00","5.5","","2.6","","82","","","","2","","18","","","","101.91","","","","","","NA"
"-64.30","44.36","LUNENBURG","8203210","2020-11-13 09:00","2020","11","13","09:00","5.6","","3.6","","87","","","","1","","12","","","","101.99","","","","","","NA"
"-64.30","44.36","LUNENBURG","8203210","2020-11-13 10:00","2020","11","13","10:00","5.7","","3.4","","85","","","","2","","15","","","","101.90","","","","","","NA"
"-64.30","44.36","LUNENBURG","8203210","2020-11-13 11:00","2020","11","13","11:00","6.3","","3.8","","84","","","","2","","17","","","","101.89","","","","","","NA"
"-64.30","44.36","LUNENBURG","8203210","2020-11-13 12:00","2020","11","13","12:00","6.7","","4.7","","87","","","","4","","20","","","","101.75","","","","","","NA"
"-64.30","44.36","LUNENBURG","8203210","2020-11-13 13:00","2020","11","13","13:00","7.3","","5.2","","86","","","","6","","22","","","","101.71","","","","","","NA"
"-64.30","44.36","LUNENBURG","8203210","2020-11-13 14:00","2020","11","13","14:00","7.6","","6.1","","90","","","","5","","22","","","","101.64","","","","","","NA"
"-64.30","44.36","LUNENBURG","8203210","2020-11-13 15:00","2020","11","13","15:00","7.6","","6.6","","93","","","","4","","20","","","","101.56","","","","","","NA"
"-64.30","44.36","LUNENBURG","8203210","2020-11-13 16:00","2020","11","13","16:00","7.6","","6.9","","95","","","","4","","22","","","","101.46","","","","","","NA"
"-64.30","44.36","LUNENBURG","8203210","2020-11-13 17:00","2020","11","13","17:00","7.9","","6.7","","92","","","","6","","34","","","","101.31","","","","","","NA"
"-64.30","44.36","LUNENBURG","8203210","2020-11-13 18:00","2020","11","13","18:00","8.2","","6.2","","88","","","","6","","32","","","","101.19","","","","","","NA"
"-64.30","44.36","LUNENBURG","8203210","2020-11-13 19:00","2020","11","13","19:00","7.6","","7.6","","100","","","","6","","32","","","","101.13","","","","","","NA"
"-64.30","44.36","LUNENBURG","8203210","2020-11-13 20:00","2020","11","13","20:00","7.3","","7.3","","100","","","","6","","29","","","","101.02","","","","","","NA"
"-64.30","44.36","LUNENBURG","8203210","2020-11-13 21:00","2020","11","13","21:00","7.2","","7.2","","100","","","","4","","18","","","","100.94","","","","","","NA"
"-64.30","44.36","LUNENBURG","8203210","2020-11-13 22:00","2020","11","13","22:00","6.3","","6.3","","100","","","","1","","9","","","","100.87","","","","","","NA"
"-64.30","44.36","LUNENBURG","8203210","2020-11-13 23:00","2020","11","13","23:00","6.0","","6.0","","100","","","","2","","16","","","","100.75","","","","","","NA"
"-64.30","44.36","LUNENBURG","8203210","2020-11-14 00:00","2020","11","14","00:00","6.1","","6.0","","100","","","","35","","7","","","","100.67","","","","","","NA"
"-64.30","44.36","LUNENBURG","8203210","2020-11-14 01:00","2020","11","14","01:00","5.7","","5.7","","100","","","","33","","18","","","","100.63","","","","","","NA"
"-64.30","44.36","LUNENBURG","8203210","2020-11-14 02:00","2020","11","14","02:00","5.5","","5.5","","100","","","","33","","15","","","","100.56","","","","","","NA"
"-64.30","44.36","LUNENBURG","8203210","2020-11-14 03:00","2020","11","14","03:00","5.6","","5.6","","100","","","","33","","18","","","","100.52","","","","","","NA"
"-64.30","44.36","LUNENBURG","8203210","2020-11-14 04:00","2020","11","14","04:00","5.4","","5.3","","100","","","","31","","18","","","","100.53","","","","","","NA"
"-64.30","44.36","LUNENBURG","8203210","2020-11-14 05:00","2020","11","14","05:00","5.0","","5.0","","100","","","","32","","18","","","","100.54","","","","","","NA"
"-64.30","44.36","LUNENBURG","8203210","2020-11-14 06:00","2020","11","14","06:00","4.9","","4.9","","100","","","","29","","12","","","","100.59","","","","","","NA"
"-64.30","44.36","LUNENBURG","8203210","2020-11-14 07:00","2020","11","14","07:00","5.2","","5.2","","100","","","","30","","17","","","","100.64","","","","","","NA"
"-64.30","44.36","LUNENBURG","8203210","2020-11-14 08:00","2020","11","14","08:00","5.2","","5.2","","100","","","","29","","21","","","","100.66","","","","","","NA"
"-64.30","44.36","LUNENBURG","8203210","2020-11-14 09:00","2020","11","14","09:00","5.7","","5.7","","100","","","","30","","22","","","","100.67","","","","","","NA"
"-64.30","44.36","LUNENBURG","8203210","2020-11-14 10:00","2020","11","14","10:00","6.4","","6.1","","98","","","","29","","26","","","","100.68","","","","","","NA"
"-64.30","44.36","LUNENBURG","8203210","2020-11-14 11:00","2020","11","14","11:00","6.9","","6.0","","94","","","","27","","26","","","","100.74","","","","","","NA"
"-64.30","44.36","LUNENBURG","8203210","2020-11-14 12:00","2020","11","14","12:00","6.7","","5.2","","90","","","","27","","25","","","","100.75","","","","","","NA"
"-64.30","44.36","LUNENBURG","8203210","2020-11-14 13:00","2020","11","14","13:00","6.5","","5.4","","92","","","","28","","27","","","","100.74","","","","","","NA"
"-64.30","44.36","LUNENBURG","8203210","2020-11-14 14:00","2020","11","14","14:00","6.2","","4.6","","90","","","","28","","28","","","","100.78","","","","","","NA"
"-64.30","44.36","LUNENBURG","8203210","2020-11-14 15:00","2020","11","14","15:00","6.0","","4.0","","87","","","","28","","30","","","","100.82","","","","","","NA"
"-64.30","44.36","LUNENBURG","8203210","2020-11-14 16:00","2020","11","14","16:00","6.0","","3.1","","81","","","","28","","34","","","","100.90","","","","","","NA"
"-64.30","44.36","LUNENBURG","8203210","2020-11-14 17:00","2020","11","14","17:00","5.9","","2.4","","78","","","","29","","25","","","","101.00","","","","","","NA"
"-64.30","44.36","LUNENBURG","8203210","2020-11-14 18:00","2020","11","14","18:00","5.9","","3.3","","83","","","","29","","24","","","","101.11","","","","","","NA"
"-64.30","44.36","LUNENBURG","8203210","2020-11-14 19:00","2020","11","14","19:00","5.4","","3.1","","85","","","","28","","15","","","","101.23","","","","","","NA"
"-64.30","44.36","LUNENBURG","8203210","2020-11-14 20:00","2020","11","14","20:00","5.7","","0.9","","71","","","","29","","21","","","","101.29","","","","","","NA"
"-64.30","44.36","LUNENBURG","8203210","2020-11-14 21:00","2020","11","14","21:00","5.8","","1.2","","72","","","","29","","29","","","","101.34","","","","","","NA"
"-64.30","44.36","LUNENBURG","8203210","2020-11-14 22:00","2020","11","14","22:00","5.3","","0.2","","70","","","","28","","21","","","","101.40","","","","","","NA"
"-64.30","44.36","LUNENBURG","8203210","2020-11-14 23:00","2020","11","14","23:00","5.1","","0.9","","74","","","","28","","22","","","","101.44","","","","","","NA"
"-64.30","44.36","LUNENBURG","8203210","2020-11-15 00:00","2020","11","15","00:00","4.5","","0.5","","75","","","","28","","22","","","","101.56","","","","","","NA"
"-64.30","44.36","LUNENBURG","8203210","2020-11-15 01:00","2020","11","15","01:00","4.2","","1.0","","79","","","","28","","21","","","","101.60","","","","","","NA"
"-64.30","44.36","LUNENBURG","8203210","2020-11-15 02:00","2020","11","15","02:00","3.3","","-0.2","","78","","","","28","","23","","","","101.64","","","","","","NA"
"-64.30","44.36","LUNENBURG","8203210","2020-11-15 03:00","2020","11","15","03:00","3.2","","0.4","","82","","","","28","","19","","","","101.71","","","","","","NA"
"-64.30","44.36","LUNENBURG","8203210","2020-11-15 04:00","2020","11","15","04:00","3.3","","1.6","","88","","","","29","","16","","","","101.76","","","","","","NA"
"-64.30","44.36","LUNENBURG","8203210","2020-11-15 05:00","2020","11","15","05:00","3.0","","1.2","","88","","","","29","","15","","","","101.80","","","","","","NA"
"-64.30","44.36","LUNENBURG","8203210","2020-11-15 06:00","2020","11","15","06:00","2.0","","1.9","","100","","","","27","","19","","","","101.90","","","","","","NA"
"-64.30","44.36","LUNENBURG","8203210","2020-11-15 07:00","2020","11","15","07:00","2.2","","1.7","","97","","","","28","","14","","","","101.98","","","","","","NA"
"-64.30","44.36","LUNENBURG","8203210","2020-11-15 08:00","2020","11","15","08:00","2.6","","2.2","","97","","","","30","","13","","","","102.05","","","","","","NA"
"-64.30","44.36","LUNENBURG","8203210","2020-11-15 09:00","2020","11","15","09:00","3.5","","1.3","","85","","","","28","","10","","","","102.07","","","","","","NA"
"-64.30","44.36","LUNENBURG","8203210","2020-11-15 10:00","2020","11","15","10:00","4.1","","1.6","","83","","","","28","","16","","","","102.15","","","","","","NA"
"-64.30","44.36","LUNENBURG","8203210","2020-11-15 11:00","2020","11","15","11:00","5.0","","0.4","","72","","","","31","","23","","","","102.18","","","","","","NA"
"-64.30","44.36","LUNENBURG","8203210","2020-11-15 12:00","2020","11","15","12:00","5.1","","0.0","","70","","","","30","","23","","","","102.14","","","","","","NA"
"-64.30","44.36","LUNENBURG","8203210","2020-11-15 13:00","2020","11","15","13:00","5.4","","-2.1","","59","","","","29","","20","","","","102.14","","","","","","NA"
"-64.30","44.36","LUNENBURG","8203210","2020-11-15 14:00","2020","11","15","14:00","5.7","","-1.7","","59","","","","30","","16","","","","102.16","","","","","","NA"
"-64.30","44.36","LUNENBURG","8203210","2020-11-15 15:00","2020","11","15","15:00","5.4","","-1.0","","63","","","","4","","10","","","","102.20","","","","","","NA"
"-64.30","44.36","LUNENBURG","8203210","2020-11-15 16:00","2020","11","15","16:00","5.1","","-1.0","","65","","","","6","","13","","","","102.21","","","","","","NA"
"-64.30","44.36","LUNENBURG","8203210","2020-11-15 17:00","2020","11","15","17:00","4.7","","-0.4","","70","","","","6","","12","","","","102.19","","","","","","NA"
"-64.30","44.36","LUNENBURG","8203210","2020-11-15 18:00","2020","11","15","18:00","4.6","","-1.4","","65","","","","6","","13","","","","102.25","","","","","","NA"
"-64.30","44.36","LUNENBURG","8203210","2020-11-15 19:00","2020","11","15","19:00","4.9","","-0.9","","66","","","","6","","12","","","","102.22","","","","","","NA"
"-64.30","44.36","LUNENBURG","8203210","2020-11-15 20:00","2020","11","15","20:00","5.5","","-1.0","","63","","","","11","","19","","","","102.13","","","","","","NA"
"-64.30","44.36","LUNENBURG","8203210","2020-11-15 21:00","2020","11","15","21:00","5.8","","-0.7","","63","","","","12","","22","","","","102.10","","","","","","NA"
"-64.30","44.36","LUNENBURG","8203210","2020-11-15 22:00","2020","11","15","22:00","6.2","","0.7","","68","","","","13","","25","","","","102.06","","","","","","NA"
"-64.30","44.36","LUNENBURG","8203210","2020-11-15 23:00","2020","11","15","23:00","6.6","","2.4","","74","","","","12","","32","","","","101.90","","","","","","NA"
"-64.30","44.36","LUNENBURG","8203210","2020-11-16 00:00","2020","11","16","00:00","7.3","","3.9","","79","","","","12","","41","","","","101.77","","","","","","NA"
"-64.30","44.36","LUNENBURG","8203210","2020-11-16 01:00","2020","11","16","01:00","7.8","","3.9","","76","","","","14","","37","","","","101.67","","","","","","NA"
"-64.30","44.36","LUNENBURG","8203210","2020-11-16 02:00","2020","11","16","02:00","8.3","","5.0","","80","","","","13","","40","","","","101.57","","","","","","NA"
"-64.30","44.36","LUNENBURG","8203210","2020-11-16 03:00","2020","11","16","03:00","8.8","","4.7","","75","","","","14","","43","","","","101.43","","","","","","NA"
"-64.30","44.36","LUNENBURG","8203210","2020-11-16 04:00","2020","11","16","04:00","9.4","","6.6","","83","","","","13","","47","","","","101.10","","","","","","NA"
"-64.30","44.36","LUNENBURG","8203210","2020-11-16 05:00","2020","11","16","05:00","10.1","","7.8","","86","","","","13","","47","","","","101.00","","","","","","NA"
"-64.30","44.36","LUNENBURG","8203210","2020-11-16 06:00","2020","11","16","06:00","10.7","","9.7","","94","","","","13","","46","","","","100.83","","","","","","NA"
"-64.30","44.36","LUNENBURG","8203210","2020-11-16 07:00","2020","11","16","07:00","11.1","","11.1","","100","","","","13","","56","","","","100.48","","","","","","NA"
"-64.30","44.36","LUNENBURG","8203210","2020-11-16 08:00","2020","11","16","08:00","11.7","","11.7","","100","","","","13","","57","","","","100.28","","","","","","NA"
"-64.30","44.36","LUNENBURG","8203210","2020-11-16 09:00","2020","11","16","09:00","12.2","","12.2","","100","","","","17","","50","","","","100.37","","","","","","NA"
"-64.30","44.36","LUNENBURG","8203210","2020-11-16 10:00","2020","11","16","10:00","10.4","","10.4","","100","","","","22","","7","","","","100.35","","","","","","NA"
"-64.30","44.36","LUNENBURG","8203210","2020-11-16 11:00","2020","11","16","11:00","9.9","","9.9","","100","","","","20","","16","","","","100.31","","","","","","NA"
"-64.30","44.36","LUNENBURG","8203210","2020-11-16 12:00","2020","11","16","12:00","9.8","","9.8","","100","","","","22","","26","","","","100.31","","","","","","NA"
"-64.30","44.36","LUNENBURG","8203210","2020-11-16 13:00","2020","11","16","13:00","10.3","","10.0","","98","","","","22","","22","","","","100.27","","","","","","NA"
"-64.30","44.36","LUNENBURG","8203210","2020-11-16 14:00","2020","11","16","14:00","11.1","","9.3","","89","","","","24","","23","","","","100.26","","","","","","NA"
"-64.30","44.36","LUNENBURG","8203210","2020-11-16 15:00","2020","11","16","15:00","11.0","","4.4","","64","","","","26","","34","","","","100.26","","","","","","NA"
"-64.30","44.36","LUNENBURG","8203210","2020-11-16 16:00","2020","11","16","16:00","10.4","","3.3","","61","","","","23","","24","","","","100.28","","","","","","NA"
"-64.30","44.36","LUNENBURG","8203210","2020-11-16 17:00","2020","11","16","17:00","9.5","","2.4","","61","","","","25","","28","","","","100.31","","","","","","NA"
"-64.30","44.36","LUNENBURG","8203210","2020-11-16 18:00","2020","11","16","18:00","8.8","","2.7","","66","","","","24","","26","","","","100.39","","","","","","NA"
"-64.30","44.36","LUNENBURG","8203210","2020-11-16 19:00","2020","11","16","19:00","8.3","","3.6","","72","","","","23","","21","","","","100.48","","","","","","NA"
"-64.30","44.36","LUNENBURG","8203210","2020-11-16 20:00","2020","11","16","20:00","7.3","","4.3","","81","","","","23","","17","","","","100.53","","","","","","NA"
"-64.30","44.36","LUNENBURG","8203210","2020-11-16 21:00","2020","11","16","21:00","6.6","","4.1","","84","","","","24","","15","","","","100.58","","","","","","NA"
"-64.30","44.36","LUNENBURG","8203210","2020-11-16 22:00","2020","11","16","22:00","6.4","","4.2","","86","","","","23","","13","","","","100.63","","","","","","NA"
"-64.30","44.36","LUNENBURG","8203210","2020-11-16 23:00","2020","11","16","23:00","5.8","","4.4","","91","","","","22","","16","","","","100.66","","","","","","NA"
"-64.30","44.36","LUNENBURG","8203210","2020-11-17 00:00","2020","11","17","00:00","5.5","","3.7","","88","","","","23","","14","","","","100.67","","","","","","NA"
"-64.30","44.36","LUNENBURG","8203210","2020-11-17 01:00","2020","11","17","01:00","5.6","","3.5","","87","","","","24","","18","","","","100.70","","","","","","NA"
"-64.30","44.36","LUNENBURG","8203210","2020-11-17 02:00","2020","11","17","02:00","5.2","","3.2","","87","","","","25","","13","","","","100.66","","","","","","NA"
"-64.30","44.36","LUNENBURG","8203210","2020-11-17 03:00","2020","11","17","03:00","5.8","","4.2","","90","","","","23","","15","","","","100.69","","","","","","NA"
"-64.30","44.36","LUNENBURG","8203210","2020-11-17 04:00","2020","11","17","04:00","5.6","","3.9","","89","","","","25","","12","","","","100.63","","","","","","NA"
"-64.30","44.36","LUNENBURG","8203210","2020-11-17 05:00","2020","11","17","05:00","6.2","","4.2","","87","","","","23","","14","","","","100.64","","","","","","NA"
"-64.30","44.36","LUNENBURG","8203210","2020-11-17 06:00","2020","11","17","06:00","6.1","","4.1","","87","","","","24","","16","","","","100.63","","","","","","NA"
"-64.30","44.36","LUNENBURG","8203210","2020-11-17 07:00","2020","11","17","07:00","6.0","","4.3","","89","","","","24","","15","","","","100.63","","","","","","NA"
"-64.30","44.36","LUNENBURG","8203210","2020-11-17 08:00","2020","11","17","08:00","5.7","","3.5","","86","","","","28","","12","","","","100.70","","","","","","NA"
"-64.30","44.36","LUNENBURG","8203210","2020-11-17 09:00","2020","11","17","09:00","5.8","","4.2","","90","","","","23","","11","","","","100.70","","","","","","NA"
"-64.30","44.36","LUNENBURG","8203210","2020-11-17 10:00","2020","11","17","10:00","6.3","","3.3","","81","","","","24","","11","","","","100.69","","","","","","NA"
"-64.30","44.36","LUNENBURG","8203210","2020-11-17 11:00","2020","11","17","11:00","7.0","","1.2","","67","","","","26","","19","","","","100.68","","","","","","NA"
"-64.30","44.36","LUNENBURG","8203210","2020-11-17 12:00","2020","11","17","12:00","7.2","","-2.4","","51","","","","26","","18","","","","100.57","","","","","","NA"
"-64.30","44.36","LUNENBURG","8203210","2020-11-17 13:00","2020","11","17","13:00","6.9","","-1.7","","54","","","","26","","20","","","","100.55","","","","","","NA"
"-64.30","44.36","LUNENBURG","8203210","2020-11-17 14:00","2020","11","17","14:00","7.1","","0.0","","61","","","","26","","17","","","","100.53","","","","","","NA"
"-64.30","44.36","LUNENBURG","8203210","2020-11-17 15:00","2020","11","17","15:00","6.8","","0.2","","62","","","","28","","20","","","","100.57","","","","","","NA"
"-64.30","44.36","LUNENBURG","8203210","2020-11-17 16:00","2020","11","17","16:00","6.5","","0.0","","64","","","","28","","20","","","","100.63","","","","","","NA"
"-64.30","44.36","LUNENBURG","8203210","2020-11-17 17:00","2020","11","17","17:00","5.9","","0.2","","66","","","","26","","13","","","","100.68","","","","","","NA"
"-64.30","44.36","LUNENBURG","8203210","2020-11-17 18:00","2020","11","17","18:00","5.0","","-1.0","","65","","","","27","","12","","","","100.72","","","","","","NA"
"-64.30","44.36","LUNENBURG","8203210","2020-11-17 19:00","2020","11","17","19:00","4.7","","-1.8","","63","","","","26","","12","","","","100.75","","","","","","NA"
"-64.30","44.36","LUNENBURG","8203210","2020-11-17 20:00","2020","11","17","20:00","4.6","","-1.4","","65","","","","28","","16","","","","100.79","","","","","","NA"
"-64.30","44.36","LUNENBURG","8203210","2020-11-17 21:00","2020","11","17","21:00","3.5","","-1.0","","72","","","","26","","15","","","","100.86","","","","","","NA"
"-64.30","44.36","LUNENBURG","8203210","2020-11-17 22:00","2020","11","17","22:00","2.7","","-0.6","","79","","","","26","","15","","","","100.93","","","","","","NA"
"-64.30","44.36","LUNENBURG","8203210","2020-11-17 23:00","2020","11","17","23:00","2.5","","-2.6","","69","","","","28","","16","","","","100.95","","","","","","NA"
"-64.30","44.36","LUNENBURG","8203210","2020-11-18 00:00","2020","11","18","00:00","2.0","","-3.8","","65","","","","29","","11","","","","100.96","","","","","","NA"
"-64.30","44.36","LUNENBURG","8203210","2020-11-18 01:00","2020","11","18","01:00","1.4","","-4.9","","63","","","","29","","9","","","","100.99","","","","","","NA"
"-64.30","44.36","LUNENBURG","8203210","2020-11-18 02:00","2020","11","18","02:00","1.0","","-4.0","","69","","","","29","","9","","","","101.03","","","","","","NA"
"-64.30","44.36","LUNENBURG","8203210","2020-11-18 03:00","2020","11","18","03:00","0.3","","-2.9","","79","","","","28","","9","","","","101.08","","","","","","NA"
"-64.30","44.36","LUNENBURG","8203210","2020-11-18 04:00","2020","11","18","04:00","-0.4","","-2.6","","85","","","","26","","17","","","","101.15","","","","-5","","NA"
"-64.30","44.36","LUNENBURG","8203210","2020-11-18 05:00","2020","11","18","05:00","0.1","","-2.7","","81","","","","27","","16","","","","101.20","","","","","","NA"
"-64.30","44.36","LUNENBURG","8203210","2020-11-18 06:00","2020","11","18","06:00","-0.1","","-1.7","","89","","","","26","","18","","","","101.29","","","","-5","","NA"
"-64.30","44.36","LUNENBURG","8203210","2020-11-18 07:00","2020","11","18","07:00","-0.1","","-2.9","","82","","","","28","","19","","","","101.36","","","","-5","","NA"
"-64.30","44.36","LUNENBURG","8203210","2020-11-18 08:00","2020","11","18","08:00","0.1","","-3.1","","79","","","","28","","18","","","","101.47","","","","","","NA"
"-64.30","44.36","LUNENBURG","8203210","2020-11-18 09:00","2020","11","18","09:00","0.2","","-3.3","","77","","","","28","","16","","","","101.55","","","","","","NA"
"-64.30","44.36","LUNENBURG","8203210","2020-11-18 10:00","2020","11","18","10:00","0.6","","-3.2","","76","","","","30","","29","","","","101.58","","","","","","NA"
"-64.30","44.36","LUNENBURG","8203210","2020-11-18 11:00","2020","11","18","11:00","0.0","","-5.0","","69","","","","30","","31","","","","101.63","","","","-7","","NA"
"-64.30","44.36","LUNENBURG","8203210","2020-11-18 12:00","2020","11","18","12:00","0.3","","-4.4","","71","","","","31","","26","","","","101.63","","","","","","NA"
"-64.30","44.36","LUNENBURG","8203210","2020-11-18 13:00","2020","11","18","13:00","0.8","","-5.3","","63","","","","31","","22","","","","101.63","","","","","","NA"
"-64.30","44.36","LUNENBURG","8203210","2020-11-18 14:00","2020","11","18","14:00","1.2","","-6.8","","55","","","","29","","33","","","","101.65","","","","","","NA"
"-64.30","44.36","LUNENBURG","8203210","2020-11-18 15:00","2020","11","18","15:00","1.3","","-6.5","","56","","","","29","","30","","","","101.72","","","","","","NA"
"-64.30","44.36","LUNENBURG","8203210","2020-11-18 16:00","2020","11","18","16:00","0.9","","-7.3","","54","","","","30","","28","","","","101.83","","","","","","NA"
"-64.30","44.36","LUNENBURG","8203210","2020-11-18 17:00","2020","11","18","17:00","0.8","","-6.8","","57","","","","30","","27","","","","101.91","","","","","","NA"
"-64.30","44.36","LUNENBURG","8203210","2020-11-18 18:00","2020","11","18","18:00","0.8","","-5.8","","61","","","","30","","32","","","","101.99","","","","","","NA"
"-64.30","44.36","LUNENBURG","8203210","2020-11-18 19:00","2020","11","18","19:00","0.4","","-7.6","","55","","","","29","","29","","","","102.09","","","","","","NA"
"-64.30","44.36","LUNENBURG","8203210","2020-11-18 20:00","2020","11","18","20:00","0.1","","-8.1","","54","","","","30","","29","","","","102.19","","","","","","NA"
"-64.30","44.36","LUNENBURG","8203210","2020-11-18 21:00","2020","11","18","21:00","0.2","","-7.1","","58","","","","29","","28","","","","102.29","","","","","","NA"
"-64.30","44.36","LUNENBURG","8203210","2020-11-18 22:00","2020","11","18","22:00","-0.1","","-9.8","","48","","","","30","","31","","","","102.37","","","","-7","","NA"
"-64.30","44.36","LUNENBURG","8203210","2020-11-18 23:00","2020","11","18","23:00","-0.3","","-9.5","","50","","","","30","","21","","","","102.42","","","","-6","","NA"
"-64.30","44.36","LUNENBURG","8203210","2020-11-19 00:00","2020","11","19","00:00","-0.2","","-9.4","","50","","","","29","","23","","","","102.44","","","","-6","","NA"
"-64.30","44.36","LUNENBURG","8203210","2020-11-19 01:00","2020","11","19","01:00","-0.4","","-9.8","","49","","","","29","","25","","","","102.50","","","","-6","","NA"
"-64.30","44.36","LUNENBURG","8203210","2020-11-19 02:00","2020","11","19","02:00","-0.4","","-9.2","","51","","","","29","","26","","","","102.56","","","","-7","","NA"
"-64.30","44.36","LUNENBURG","8203210","2020-11-19 03:00","2020","11","19","03:00","-0.7","","-9.6","","51","","","","29","","32","","","","102.63","","","","-8","","NA"
"-64.30","44.36","LUNENBURG","8203210","2020-11-19 04:00","2020","11","19","04:00","-0.9","","-9.6","","52","","","","29","","28","","","","102.72","","","","-7","","NA"
"-64.30","44.36","LUNENBURG","8203210","2020-11-19 05:00","2020","11","19","05:00","-0.9","","-8.9","","54","","","","30","","30","","","","102.78","","","","-8","","NA"
"-64.30","44.36","LUNENBURG","8203210","2020-11-19 06:00","2020","11","19","06:00","-1.1","","-8.6","","57","","","","28","","23","","","","102.91","","","","-7","","NA"
"-64.30","44.36","LUNENBURG","8203210","2020-11-19 07:00","2020","11","19","07:00","-1.4","","-7.9","","61","","","","28","","21","","","","103.01","","","","-7","","NA"
"-64.30","44.36","LUNENBURG","8203210","2020-11-19 08:00","2020","11","19","08:00","-2.2","","-9.4","","58","","","","28","","18","","","","103.07","","","","-8","","NA"
"-64.30","44.36","LUNENBURG","8203210","2020-11-19 09:00","2020","11","19","09:00","-1.5","","-8.8","","58","","","","28","","22","","","","103.12","","","","-7","","NA"
"-64.30","44.36","LUNENBURG","8203210","2020-11-19 10:00","2020","11","19","10:00","-0.9","","-8.5","","56","","","","29","","23","","","","103.15","","","","-7","","NA"
"-64.30","44.36","LUNENBURG","8203210","2020-11-19 11:00","2020","11","19","11:00","-0.6","","-9.2","","52","","","","26","","24","","","","103.20","","","","-7","","NA"
"-64.30","44.36","LUNENBURG","8203210","2020-11-19 12:00","2020","11","19","12:00","0.6","","-8.4","","51","","","","26","","18","","","","103.11","","","","","","NA"
"-64.30","44.36","LUNENBURG","8203210","2020-11-19 13:00","2020","11","19","13:00","1.3","","-7.6","","52","","","","24","","23","","","","103.06","","","","","","NA"
"-64.30","44.36","LUNENBURG","8203210","2020-11-19 14:00","2020","11","19","14:00","1.5","","-7.5","","51","","","","25","","23","","","","103.04","","","","","","NA"
"-64.30","44.36","LUNENBURG","8203210","2020-11-19 15:00","2020","11","19","15:00","1.9","","-5.6","","58","","","","23","","23","","","","103.04","","","","","","NA"
"-64.30","44.36","LUNENBURG","8203210","2020-11-19 16:00","2020","11","19","16:00","2.0","","-5.1","","59","","","","23","","23","","","","103.02","","","","","","NA"
"-64.30","44.36","LUNENBURG","8203210","2020-11-19 17:00","2020","11","19","17:00","1.9","","-4.6","","62","","","","22","","16","","","","102.98","","","","","","NA"
"-64.30","44.36","LUNENBURG","8203210","2020-11-19 18:00","2020","11","19","18:00","2.0","","-3.9","","65","","","","18","","18","","","","102.89","","","","","","NA"
"-64.30","44.36","LUNENBURG","8203210","2020-11-19 19:00","2020","11","19","19:00","2.4","","-2.9","","68","","","","20","","16","","","","102.85","","","","","","NA"
"-64.30","44.36","LUNENBURG","8203210","2020-11-19 20:00","2020","11","19","20:00","3.2","","-1.3","","72","","","","20","","18","","","","102.76","","","","","","NA"
"-64.30","44.36","LUNENBURG","8203210","2020-11-19 21:00","2020","11","19","21:00","4.9","","0.5","","73","","","","20","","24","","","","102.71","","","","","","NA"
"-64.30","44.36","LUNENBURG","8203210","2020-11-19 22:00","2020","11","19","22:00","5.4","","1.6","","77","","","","22","","27","","","","102.72","","","","","","NA"
"-64.30","44.36","LUNENBURG","8203210","2020-11-19 23:00","2020","11","19","23:00","5.5","","2.2","","79","","","","21","","21","","","","102.67","","","","","","NA"
"-64.30","44.36","LUNENBURG","8203210","2020-11-20 00:00","2020","11","20","00:00","6.2","","3.5","","83","","","","21","","19","","","","102.66","","","","","","NA"
"-64.30","44.36","LUNENBURG","8203210","2020-11-20 01:00","2020","11","20","01:00","6.9","","5.2","","89","","","","20","","24","","","","102.55","","","","","","NA"
"-64.30","44.36","LUNENBURG","8203210","2020-11-20 02:00","2020","11","20","02:00","8.0","","6.1","","87","","","","20","","24","","","","102.48","","","","","","NA"
"-64.30","44.36","LUNENBURG","8203210","2020-11-20 03:00","2020","11","20","03:00","8.4","","7.1","","91","","","","20","","23","","","","102.43","","","","","","NA"
"-64.30","44.36","LUNENBURG","8203210","2020-11-20 04:00","2020","11","20","04:00","8.7","","8.3","","97","","","","20","","20","","","","102.37","","","","","","NA"
"-64.30","44.36","LUNENBURG","8203210","2020-11-20 05:00","2020","11","20","05:00","9.0","","9.0","","100","","","","20","","17","","","","102.31","","","","","","NA"
"-64.30","44.36","LUNENBURG","8203210","2020-11-20 06:00","2020","11","20","06:00","9.0","","9.0","","100","","","","20","","16","","","","102.30","","","","","","NA"
"-64.30","44.36","LUNENBURG","8203210","2020-11-20 07:00","2020","11","20","07:00","9.2","","9.2","","100","","","","19","","19","","","","102.25","","","","","","NA"
"-64.30","44.36","LUNENBURG","8203210","2020-11-20 08:00","2020","11","20","08:00","9.4","","9.4","","100","","","","18","","21","","","","102.20","","","","","","NA"
"-64.30","44.36","LUNENBURG","8203210","2020-11-20 09:00","2020","11","20","09:00","9.4","","9.4","","100","","","","18","","18","","","","102.22","","","","","","NA"
"-64.30","44.36","LUNENBURG","8203210","2020-11-20 10:00","2020","11","20","10:00","10.8","","8.3","","85","","","","22","","20","","","","102.16","","","","","","NA"
"-64.30","44.36","LUNENBURG","8203210","2020-11-20 11:00","2020","11","20","11:00","11.2","","7.8","","79","","","","22","","22","","","","102.13","","","","","","NA"
"-64.30","44.36","LUNENBURG","8203210","2020-11-20 12:00","2020","11","20","12:00","11.6","","6.9","","73","","","","22","","26","","","","102.05","","","","","","NA"
"-64.30","44.36","LUNENBURG","8203210","2020-11-20 13:00","2020","11","20","13:00","12.3","","6.1","","66","","","","22","","31","","","","101.98","","","","","","NA"
"-64.30","44.36","LUNENBURG","8203210","2020-11-20 14:00","2020","11","20","14:00","12.0","","6.1","","67","","","","23","","23","","","","101.98","","","","","","NA"
"-64.30","44.36","LUNENBURG","8203210","2020-11-20 15:00","2020","11","20","15:00","12.4","","6.0","","65","","","","23","","20","","","","102.00","","","","","","NA"
"-64.30","44.36","LUNENBURG","8203210","2020-11-20 16:00","2020","11","20","16:00","12.1","","6.1","","67","","","","22","","16","","","","101.99","","","","","","NA"
"-64.30","44.36","LUNENBURG","8203210","2020-11-20 17:00","2020","11","20","17:00","11.2","","6.5","","73","","","","22","","16","","","","102.02","","","","","","NA"
"-64.30","44.36","LUNENBURG","8203210","2020-11-20 18:00","2020","11","20","18:00","10.5","","7.2","","80","","","","22","","9","","","","102.06","","","","","","NA"
"-64.30","44.36","LUNENBURG","8203210","2020-11-20 19:00","2020","11","20","19:00","10.2","","7.7","","84","","","","21","","11","","","","102.02","","","","","","NA"
"-64.30","44.36","LUNENBURG","8203210","2020-11-20 20:00","2020","11","20","20:00","9.9","","8.9","","93","","","","20","","11","","","","102.00","","","","","","NA"
"-64.30","44.36","LUNENBURG","8203210","2020-11-20 21:00","2020","11","20","21:00","9.5","","9.5","","100","","","","19","","9","","","","101.97","","","","","","NA"
"-64.30","44.36","LUNENBURG","8203210","2020-11-20 22:00","2020","11","20","22:00","9.4","","9.4","","100","","","","17","","8","","","","101.90","","","","","","NA"
"-64.30","44.36","LUNENBURG","8203210","2020-11-20 23:00","2020","11","20","23:00","9.2","","9.2","","100","","","","20","","7","","","","101.85","","","","","","NA"
"-64.30","44.36","LUNENBURG","8203210","2020-11-21 00:00","2020","11","21","00:00","9.0","","9.0","","100","","","","19","","10","","","","101.77","","","","","","NA"
"-64.30","44.36","LUNENBURG","8203210","2020-11-21 01:00","2020","11","21","01:00","9.0","","9.0","","100","","","","20","","7","","","","101.69","","","","","","NA"
"-64.30","44.36","LUNENBURG","8203210","2020-11-21 02:00","2020","11","21","02:00","9.2","","9.2","","100","","","","20","","13","","","","101.63","","","","","","NA"
"-64.30","44.36","LUNENBURG","8203210","2020-11-21 03:00","2020","11","21","03:00","9.3","","9.3","","100","","","","22","","13","","","","101.63","","","","","","NA"
"-64.30","44.36","LUNENBURG","8203210","2020-11-21 04:00","2020","11","21","04:00","9.6","","9.6","","100","","","","23","","10","","","","101.65","","","","","","NA"
"-64.30","44.36","LUNENBURG","8203210","2020-11-21 05:00","2020","11","21","05:00","9.4","","9.4","","100","","","","22","","14","","","","101.66","","","","","","NA"
"-64.30","44.36","LUNENBURG","8203210","2020-11-21 06:00","2020","11","21","06:00","9.3","","9.3","","100","","","","24","","16","","","","101.68","","","","","","NA"
"-64.30","44.36","LUNENBURG","8203210","2020-11-21 07:00","2020","11","21","07:00","9.2","","9.2","","100","","","","24","","20","","","","101.71","","","","","","NA"
"-64.30","44.36","LUNENBURG","8203210","2020-11-21 08:00","2020","11","21","08:00","9.1","","9.1","","100","","","","23","","15","","","","101.78","","","","","","NA"
"-64.30","44.36","LUNENBURG","8203210","2020-11-21 09:00","2020","11","21","09:00","9.5","","8.9","","96","","","","23","","18","","","","101.80","","","","","","NA"
"-64.30","44.36","LUNENBURG","8203210","2020-11-21 10:00","2020","11","21","10:00","10.9","","8.1","","83","","","","25","","18","","","","101.82","","","","","","NA"
"-64.30","44.36","LUNENBURG","8203210","2020-11-21 11:00","2020","11","21","11:00","12.4","","6.3","","66","","","","26","","24","","","","101.82","","","","","","NA"
"-64.30","44.36","LUNENBURG","8203210","2020-11-21 12:00","2020","11","21","12:00","12.9","","5.4","","60","","","","26","","24","","","","101.78","","","","","","NA"
"-64.30","44.36","LUNENBURG","8203210","2020-11-21 13:00","2020","11","21","13:00","13.5","","3.5","","51","","","","27","","30","","","","101.76","","","","","","NA"
"-64.30","44.36","LUNENBURG","8203210","2020-11-21 14:00","2020","11","21","14:00","13.4","","1.3","","44","","","","27","","34","","","","101.76","","","","","","NA"
"-64.30","44.36","LUNENBURG","8203210","2020-11-21 15:00","2020","11","21","15:00","12.6","","2.7","","51","","","","28","","26","","","","101.84","","","","","","NA"
"-64.30","44.36","LUNENBURG","8203210","2020-11-21 16:00","2020","11","21","16:00","11.4","","2.6","","55","","","","29","","28","","","","101.94","","","","","","NA"
"-64.30","44.36","LUNENBURG","8203210","2020-11-21 17:00","2020","11","21","17:00","10.0","","2.2","","58","","","","29","","17","","","","102.06","","","","","","NA"
"-64.30","44.36","LUNENBURG","8203210","2020-11-21 18:00","2020","11","21","18:00","8.9","","1.4","","59","","","","29","","15","","","","102.16","","","","","","NA"
"-64.30","44.36","LUNENBURG","8203210","2020-11-21 19:00","2020","11","21","19:00","8.1","","0.5","","58","","","","28","","16","","","","102.28","","","","","","NA"
"-64.30","44.36","LUNENBURG","8203210","2020-11-21 20:00","2020","11","21","20:00","7.3","","0.5","","62","","","","31","","19","","","","102.41","","","","","","NA"
"-64.30","44.36","LUNENBURG","8203210","2020-11-21 21:00","2020","11","21","21:00","6.0","","-1.4","","59","","","","33","","22","","","","102.49","","","","","","NA"
"-64.30","44.36","LUNENBURG","8203210","2020-11-21 22:00","2020","11","21","22:00","5.1","","-1.2","","64","","","","32","","17","","","","102.60","","","","","","NA"
"-64.30","44.36","LUNENBURG","8203210","2020-11-21 23:00","2020","11","21","23:00","4.3","","-2.6","","61","","","","33","","11","","","","102.68","","","","","","NA"
"-64.30","44.36","LUNENBURG","8203210","2020-11-22 00:00","2020","11","22","00:00","3.6","","-2.4","","65","","","","31","","21","","","","102.75","","","","","","NA"
"-64.30","44.36","LUNENBURG","8203210","2020-11-22 01:00","2020","11","22","01:00","2.5","","-2.6","","69","","","","30","","17","","","","102.80","","","","","","NA"
"-64.30","44.36","LUNENBURG","8203210","2020-11-22 02:00","2020","11","22","02:00","1.7","","-3.7","","67","","","","30","","16","","","","102.86","","","","","","NA"
"-64.30","44.36","LUNENBURG","8203210","2020-11-22 03:00","2020","11","22","03:00","1.1","","-3.6","","71","","","","30","","13","","","","102.95","","","","","","NA"
"-64.30","44.36","LUNENBURG","8203210","2020-11-22 04:00","2020","11","22","04:00","0.5","","-3.9","","72","","","","32","","14","","","","103.05","","","","","","NA"
"-64.30","44.36","LUNENBURG","8203210","2020-11-22 05:00","2020","11","22","05:00","0.7","","-4.9","","66","","","","32","","12","","","","103.14","","","","","","NA"
"-64.30","44.36","LUNENBURG","8203210","2020-11-22 06:00","2020","11","22","06:00","0.5","","-4.6","","69","","","","32","","12","","","","103.19","","","","","","NA"
"-64.30","44.36","LUNENBURG","8203210","2020-11-22 07:00","2020","11","22","07:00","-0.2","","-4.4","","73","","","","30","","11","","","","103.25","","","","-4","","NA"
"-64.30","44.36","LUNENBURG","8203210","2020-11-22 08:00","2020","11","22","08:00","0.0","","-4.4","","72","","","","31","","11","","","","103.31","","","","-4","","NA"
"-64.30","44.36","LUNENBURG","8203210","2020-11-22 09:00","2020","11","22","09:00","0.6","","-4.8","","67","","","","31","","12","","","","103.32","","","","","","NA"
"-64.30","44.36","LUNENBURG","8203210","2020-11-22 10:00","2020","11","22","10:00","1.4","","-5.1","","62","","","","32","","18","","","","103.37","","","","","","NA"
"-64.30","44.36","LUNENBURG","8203210","2020-11-22 11:00","2020","11","22","11:00","1.9","","-5.5","","58","","","","33","","13","","","","103.40","","","","","","NA"
"-64.30","44.36","LUNENBURG","8203210","2020-11-22 12:00","2020","11","22","12:00","2.8","","-5.4","","54","","","","3","","10","","","","103.36","","","","","","NA"
"-64.30","44.36","LUNENBURG","8203210","2020-11-22 13:00","2020","11","22","13:00","3.5","","-4.7","","55","","","","3","","9","","","","103.35","","","","","","NA"
"-64.30","44.36","LUNENBURG","8203210","2020-11-22 14:00","2020","11","22","14:00","3.6","","-5.1","","53","","","","3","","4","","","","103.38","","","","","","NA"
"-64.30","44.36","LUNENBURG","8203210","2020-11-22 15:00","2020","11","22","15:00","3.7","","-3.4","","60","","","","10","","13","","","","103.35","","","","","","NA"
"-64.30","44.36","LUNENBURG","8203210","2020-11-22 16:00","2020","11","22","16:00","3.5","","-4.3","","57","","","","5","","9","","","","103.38","","","","","","NA"
"-64.30","44.36","LUNENBURG","8203210","2020-11-22 17:00","2020","11","22","17:00","3.4","","-3.9","","59","","","","10","","6","","","","103.42","","","","","","NA"
"-64.30","44.36","LUNENBURG","8203210","2020-11-22 18:00","2020","11","22","18:00","3.9","","-2.5","","63","","","","13","","12","","","","103.45","","","","","","NA"
"-64.30","44.36","LUNENBURG","8203210","2020-11-22 19:00","2020","11","22","19:00","4.0","","-2.3","","63","","","","10","","16","","","","103.50","","","","","","NA"
"-64.30","44.36","LUNENBURG","8203210","2020-11-22 20:00","2020","11","22","20:00","4.0","","-2.1","","65","","","","9","","17","","","","103.47","","","","","","NA"
"-64.30","44.36","LUNENBURG","8203210","2020-11-22 21:00","2020","11","22","21:00","4.3","","-1.5","","66","","","","9","","25","","","","103.33","","","","","","NA"
"-64.30","44.36","LUNENBURG","8203210","2020-11-22 22:00","2020","11","22","22:00","4.7","","-0.3","","70","","","","10","","27","","","","103.27","","","","","","NA"
"-64.30","44.36","LUNENBURG","8203210","2020-11-22 23:00","2020","11","22","23:00","5.2","","0.5","","72","","","","9","","30","","","","103.19","","","","","","NA"
"-64.30","44.36","LUNENBURG","8203210","2020-11-23 00:00","2020","11","23","00:00","5.9","","1.3","","72","","","","9","","29","","","","103.17","","","","","","NA"
"-64.30","44.36","LUNENBURG","8203210","2020-11-23 01:00","2020","11","23","01:00","6.5","","2.5","","76","","","","10","","33","","","","103.08","","","","","","NA"
"-64.30","44.36","LUNENBURG","8203210","2020-11-23 02:00","2020","11","23","02:00","6.7","","3.4","","80","","","","10","","35","","","","102.97","","","","","","NA"
"-64.30","44.36","LUNENBURG","8203210","2020-11-23 03:00","2020","11","23","03:00","6.9","","4.3","","83","","","","9","","36","","","","102.92","","","","","","NA"
"-64.30","44.36","LUNENBURG","8203210","2020-11-23 04:00","2020","11","23","04:00","7.7","","5.0","","83","","","","10","","37","","","","102.86","","","","","","NA"
"-64.30","44.36","LUNENBURG","8203210","2020-11-23 05:00","2020","11","23","05:00","7.5","","5.8","","89","","","","10","","42","","","","102.75","","","","","","NA"
"-64.30","44.36","LUNENBURG","8203210","2020-11-23 06:00","2020","11","23","06:00","7.9","","6.5","","91","","","","10","","42","","","","102.65","","","","","","NA"
"-64.30","44.36","LUNENBURG","8203210","2020-11-23 07:00","2020","11","23","07:00","8.0","","7.5","","97","","","","9","","48","","","","102.51","","","","","","NA"
"-64.30","44.36","LUNENBURG","8203210","2020-11-23 08:00","2020","11","23","08:00","8.3","","8.3","","100","","","","10","","47","","","","102.39","","","","","","NA"
"-64.30","44.36","LUNENBURG","8203210","2020-11-23 09:00","2020","11","23","09:00","8.8","","8.8","","100","","","","10","","39","","","","102.36","","","","","","NA"
"-64.30","44.36","LUNENBURG","8203210","2020-11-23 10:00","2020","11","23","10:00","9.1","","9.1","","100","","","","10","","44","","","","102.16","","","","","","NA"
"-64.30","44.36","LUNENBURG","8203210","2020-11-23 11:00","2020","11","23","11:00","9.2","","9.2","","100","","","","9","","41","","","","101.99","","","","","","NA"
"-64.30","44.36","LUNENBURG","8203210","2020-11-23 12:00","2020","11","23","12:00","10.0","","10.0","","100","","","","10","","52","","","","101.62","","","","","","NA"
"-64.30","44.36","LUNENBURG","8203210","2020-11-23 13:00","2020","11","23","13:00","10.1","","10.1","","100","","","","11","","51","","","","101.46","","","","","","NA"
"-64.30","44.36","LUNENBURG","8203210","2020-11-23 14:00","2020","11","23","14:00","10.3","","10.3","","100","","","","11","","49","","","","101.31","","","","","","NA"
"-64.30","44.36","LUNENBURG","8203210","2020-11-23 15:00","2020","11","23","15:00","10.7","","10.7","","100","","","","11","","52","","","","101.11","","","","","","NA"
"-64.30","44.36","LUNENBURG","8203210","2020-11-23 16:00","2020","11","23","16:00","10.9","","10.9","","100","","","","11","","51","","","","100.90","","","","","","NA"
"-64.30","44.36","LUNENBURG","8203210","2020-11-23 17:00","2020","11","23","17:00","10.9","","10.9","","100","","","","11","","51","","","","100.71","","","","","","NA"
"-64.30","44.36","LUNENBURG","8203210","2020-11-23 18:00","2020","11","23","18:00","11.2","","11.2","","100","","","","11","","48","","","","100.56","","","","","","NA"
"-64.30","44.36","LUNENBURG","8203210","2020-11-23 19:00","2020","11","23","19:00","12.7","","12.7","","100","","","","13","","50","","","","100.43","","","","","","NA"
"-64.30","44.36","LUNENBURG","8203210","2020-11-23 20:00","2020","11","23","20:00","12.3","","12.3","","100","","","","13","","45","","","","100.26","","","","","","NA"
"-64.30","44.36","LUNENBURG","8203210","2020-11-23 21:00","2020","11","23","21:00","12.6","","12.6","","100","","","","14","","40","","","","99.99","","","","","","NA"
"-64.30","44.36","LUNENBURG","8203210","2020-11-23 22:00","2020","11","23","22:00","12.9","","12.9","","100","","","","19","","55","","","","99.92","","","","","","NA"
"-64.30","44.36","LUNENBURG","8203210","2020-11-23 23:00","2020","11","23","23:00","11.2","","11.2","","100","","","","19","","19","","","","99.72","","","","","","NA"
"-64.30","44.36","LUNENBURG","8203210","2020-11-24 00:00","2020","11","24","00:00","11.2","","11.2","","100","","","","18","","20","","","","99.61","","","","","","NA"
"-64.30","44.36","LUNENBURG","8203210","2020-11-24 01:00","2020","11","24","01:00","7.7","","7.7","","100","","","","28","","36","","","","99.65","","","","","","NA"
"-64.30","44.36","LUNENBURG","8203210","2020-11-24 02:00","2020","11","24","02:00","6.3","","5.2","","92","","","","28","","39","","","","99.74","","","","","","NA"
"-64.30","44.36","LUNENBURG","8203210","2020-11-24 03:00","2020","11","24","03:00","4.8","","3.8","","93","","","","28","","37","","","","99.89","","","","","","NA"
"-64.30","44.36","LUNENBURG","8203210","2020-11-24 04:00","2020","11","24","04:00","4.3","","3.2","","92","","","","27","","38","","","","99.94","","","","","","NA"
"-64.30","44.36","LUNENBURG","8203210","2020-11-24 05:00","2020","11","24","05:00","3.9","","3.1","","94","","","","27","","37","","","","100.04","","","","","","NA"
"-64.30","44.36","LUNENBURG","8203210","2020-11-24 06:00","2020","11","24","06:00","3.4","","2.0","","90","","","","28","","44","","","","100.15","","","","","","NA"
"-64.30","44.36","LUNENBURG","8203210","2020-11-24 07:00","2020","11","24","07:00","2.8","","1.3","","90","","","","28","","35","","","","100.27","","","","","","NA"
"-64.30","44.36","LUNENBURG","8203210","2020-11-24 08:00","2020","11","24","08:00","2.5","","-0.4","","82","","","","27","","38","","","","100.44","","","","","","NA"
"-64.30","44.36","LUNENBURG","8203210","2020-11-24 09:00","2020","11","24","09:00","2.4","","-1.6","","74","","","","28","","38","","","","100.56","","","","","","NA"
"-64.30","44.36","LUNENBURG","8203210","2020-11-24 10:00","2020","11","24","10:00","2.9","","-2.5","","68","","","","28","","49","","","","100.67","","","","","","NA"
"-64.30","44.36","LUNENBURG","8203210","2020-11-24 11:00","2020","11","24","11:00","3.0","","-2.1","","69","","","","27","","49","","","","100.80","","","","","","NA"
"-64.30","44.36","LUNENBURG","8203210","2020-11-24 12:00","2020","11","24","12:00","3.1","","-2.6","","66","","","","28","","45","","","","100.91","","","","","","NA"
"-64.30","44.36","LUNENBURG","8203210","2020-11-24 13:00","2020","11","24","13:00","2.9","","-3.1","","65","","","","28","","51","","","","100.99","","","","","","NA"
"-64.30","44.36","LUNENBURG","8203210","2020-11-24 14:00","2020","11","24","14:00","2.6","","-4.1","","61","","","","28","","48","","","","101.10","","","","","","NA"
"-64.30","44.36","LUNENBURG","8203210","2020-11-24 15:00","2020","11","24","15:00","2.7","","-4.4","","60","","","","27","","44","","","","101.25","","","","","","NA"
"-64.30","44.36","LUNENBURG","8203210","2020-11-24 16:00","2020","11","24","16:00","2.4","","-5.3","","57","","","","28","","44","","","","101.44","","","","","","NA"
"-64.30","44.36","LUNENBURG","8203210","2020-11-24 17:00","2020","11","24","17:00","1.9","","-6.2","","55","","","","28","","44","","","","101.63","","","","","","NA"
"-64.30","44.36","LUNENBURG","8203210","2020-11-24 18:00","2020","11","24","18:00","1.3","","-6.4","","57","","","","28","","39","","","","101.86","","","","","","NA"
"-64.30","44.36","LUNENBURG","8203210","2020-11-24 19:00","2020","11","24","19:00","1.1","","-6.3","","58","","","","29","","40","","","","102.02","","","","","","NA"
"-64.30","44.36","LUNENBURG","8203210","2020-11-24 20:00","2020","11","24","20:00","0.5","","-6.5","","59","","","","30","","35","","","","102.18","","","","","","NA"
"-64.30","44.36","LUNENBURG","8203210","2020-11-24 21:00","2020","11","24","21:00","0.2","","-6.1","","63","","","","30","","27","","","","102.34","","","","","","NA"
"-64.30","44.36","LUNENBURG","8203210","2020-11-24 22:00","2020","11","24","22:00","-0.3","","-7.1","","60","","","","30","","43","","","","102.43","","","","-8","","NA"
"-64.30","44.36","LUNENBURG","8203210","2020-11-24 23:00","2020","11","24","23:00","-1.0","","-7.2","","63","","","","30","","34","","","","102.58","","","","-8","","NA"
"-64.30","44.36","LUNENBURG","8203210","2020-11-25 00:00","2020","11","25","00:00","-1.6","","-8.1","","61","","","","31","","34","","","","102.71","","","","-9","","NA"
"-64.30","44.36","LUNENBURG","8203210","2020-11-25 01:00","2020","11","25","01:00","-2.4","","-8.7","","62","","","","32","","24","","","","102.87","","","","-9","","NA"
"-64.30","44.36","LUNENBURG","8203210","2020-11-25 02:00","2020","11","25","02:00","-3.0","","-9.8","","59","","","","32","","24","","","","102.97","","","","-10","","NA"
"-64.30","44.36","LUNENBURG","8203210","2020-11-25 03:00","2020","11","25","03:00","-3.3","","-10.0","","60","","","","33","","17","","","","103.09","","","","-9","","NA"
"-64.30","44.36","LUNENBURG","8203210","2020-11-25 04:00","2020","11","25","04:00","-3.6","","-9.3","","65","","","","36","","5","","","","103.18","","","","-6","","NA"
"-64.30","44.36","LUNENBURG","8203210","2020-11-25 05:00","2020","11","25","05:00","-3.6","","-9.2","","65","","","","2","","10","","","","103.18","","","","-8","","NA"
"-64.30","44.36","LUNENBURG","8203210","2020-11-25 06:00","2020","11","25","06:00","-3.3","","-8.7","","66","","","","2","","8","","","","103.20","","","","-7","","NA"
"-64.30","44.36","LUNENBURG","8203210","2020-11-25 07:00","2020","11","25","07:00","-3.5","","-8.3","","70","","","","2","","7","","","","103.31","","","","-6","","NA"
"-64.30","44.36","LUNENBURG","8203210","2020-11-25 08:00","2020","11","25","08:00","-3.2","","-5.7","","83","","","","32","","9","","","","103.41","","","","-7","","NA"
"-64.30","44.36","LUNENBURG","8203210","2020-11-25 09:00","2020","11","25","09:00","-2.8","","-5.2","","83","","","","30","","15","","","","103.47","","","","-8","","NA"
"-64.30","44.36","LUNENBURG","8203210","2020-11-25 10:00","2020","11","25","10:00","-1.8","","-4.8","","80","","","","33","","10","","","","103.43","","","","-5","","NA"
"-64.30","44.36","LUNENBURG","8203210","2020-11-25 11:00","2020","11","25","11:00","-0.9","","-3.6","","82","","","","32","","9","","","","103.36","","","","-4","","NA"
"-64.30","44.36","LUNENBURG","8203210","2020-11-25 12:00","2020","11","25","12:00","1.7","","-3.1","","70","","","","17","","7","","","","103.26","","","","","","NA"
"-64.30","44.36","LUNENBURG","8203210","2020-11-25 13:00","2020","11","25","13:00","2.2","","-4.0","","63","","","","18","","19","","","","103.24","","","","","","NA"
"-64.30","44.36","LUNENBURG","8203210","2020-11-25 14:00","2020","11","25","14:00","2.6","","-2.5","","69","","","","18","","10","","","","103.21","","","","","","NA"
"-64.30","44.36","LUNENBURG","8203210","2020-11-25 15:00","2020","11","25","15:00","2.2","","-2.4","","72","","","","29","","10","","","","103.18","","","","","","NA"
"-64.30","44.36","LUNENBURG","8203210","2020-11-25 16:00","2020","11","25","16:00","1.9","","-2.5","","73","","","","31","","12","","","","103.16","","","","","","NA"
"-64.30","44.36","LUNENBURG","8203210","2020-11-25 17:00","2020","11","25","17:00","1.8","","-3.2","","69","","","","33","","7","","","","103.11","","","","","","NA"
"-64.30","44.36","LUNENBURG","8203210","2020-11-25 18:00","2020","11","25","18:00","1.7","","-2.9","","71","","","","32","","2","","","","103.06","","","","","","NA"
"-64.30","44.36","LUNENBURG","8203210","2020-11-25 19:00","2020","11","25","19:00","2.8","","-0.3","","80","","","","8","","13","","","","102.91","","","","","","NA"
"-64.30","44.36","LUNENBURG","8203210","2020-11-25 20:00","2020","11","25","20:00","3.9","","-0.3","","74","","","","18","","8","","","","102.88","","","","","","NA"
"-64.30","44.36","LUNENBURG","8203210","2020-11-25 21:00","2020","11","25","21:00","5.6","","1.1","","72","","","","17","","17","","","","102.81","","","","","","NA"
"-64.30","44.36","LUNENBURG","8203210","2020-11-25 22:00","2020","11","25","22:00","6.0","","2.1","","76","","","","16","","18","","","","102.71","","","","","","NA"
"-64.30","44.36","LUNENBURG","8203210","2020-11-25 23:00","2020","11","25","23:00","6.7","","3.2","","78","","","","17","","22","","","","102.61","","","","","","NA"
"-64.30","44.36","LUNENBURG","8203210","2020-11-26 00:00","2020","11","26","00:00","7.3","","4.6","","83","","","","17","","22","","","","102.55","","","","","","NA"
"-64.30","44.36","LUNENBURG","8203210","2020-11-26 01:00","2020","11","26","01:00","7.9","","5.3","","83","","","","17","","23","","","","102.50","","","","","","NA"
"-64.30","44.36","LUNENBURG","8203210","2020-11-26 02:00","2020","11","26","02:00","8.1","","6.5","","89","","","","17","","19","","","","102.44","","","","","","NA"
"-64.30","44.36","LUNENBURG","8203210","2020-11-26 03:00","2020","11","26","03:00","7.9","","7.9","","100","","","","16","","17","","","","102.37","","","","","","NA"
"-64.30","44.36","LUNENBURG","8203210","2020-11-26 04:00","2020","11","26","04:00","8.5","","8.5","","100","","","","17","","24","","","","102.26","","","","","","NA"
"-64.30","44.36","LUNENBURG","8203210","2020-11-26 05:00","2020","11","26","05:00","9.0","","8.9","","100","","","","19","","21","","","","102.22","","","","","","NA"
"-64.30","44.36","LUNENBURG","8203210","2020-11-26 06:00","2020","11","26","06:00","9.4","","9.4","","100","","","","20","","21","","","","102.23","","","","","","NA"
"-64.30","44.36","LUNENBURG","8203210","2020-11-26 07:00","2020","11","26","07:00","9.5","","9.5","","100","","","","23","","11","","","","102.30","","","","","","NA"
"-64.30","44.36","LUNENBURG","8203210","2020-11-26 08:00","2020","11","26","08:00","9.6","","9.6","","100","","","","28","","6","","","","102.33","","","","","","NA"
"-64.30","44.36","LUNENBURG","8203210","2020-11-26 09:00","2020","11","26","09:00","9.1","","9.1","","100","","","","25","","9","","","","102.35","","","","","","NA"
"-64.30","44.36","LUNENBURG","8203210","2020-11-26 10:00","2020","11","26","10:00","8.9","","8.9","","100","","","","29","","10","","","","102.39","","","","","","NA"
"-64.30","44.36","LUNENBURG","8203210","2020-11-26 11:00","2020","11","26","11:00","8.5","","8.5","","100","","","","28","","6","","","","102.41","","","","","","NA"
"-64.30","44.36","LUNENBURG","8203210","2020-11-26 12:00","2020","11","26","12:00","8.7","","8.7","","100","","","","36","","3","","","","102.35","","","","","","NA"
"-64.30","44.36","LUNENBURG","8203210","2020-11-26 13:00","2020","11","26","13:00","9.0","","9.0","","100","","","","","","0","","","","102.32","","","","","","NA"
"-64.30","44.36","LUNENBURG","8203210","2020-11-26 14:00","2020","11","26","14:00","8.7","","8.7","","100","","","","32","","1","","","","102.34","","","","","","NA"
"-64.30","44.36","LUNENBURG","8203210","2020-11-26 15:00","2020","11","26","15:00","8.1","","8.1","","100","","","","8","","11","","","","102.26","","","","","","NA"
"-64.30","44.36","LUNENBURG","8203210","2020-11-26 16:00","2020","11","26","16:00","7.8","","7.8","","100","","","","9","","10","","","","102.25","","","","","","NA"
"-64.30","44.36","LUNENBURG","8203210","2020-11-26 17:00","2020","11","26","17:00","7.9","","7.9","","100","","","","8","","12","","","","102.20","","","","","","NA"
"-64.30","44.36","LUNENBURG","8203210","2020-11-26 18:00","2020","11","26","18:00","8.5","","8.5","","100","","","","8","","14","","","","102.18","","","","","","NA"
"-64.30","44.36","LUNENBURG","8203210","2020-11-26 19:00","2020","11","26","19:00"
"-64.30","44.36","LUNENBURG","8203210","2020-11-26 20:00","2020","11","26","20:00","9.4","","9.4","","100","","","","13","","21","","","","102.10","","","","","","NA"
"-64.30","44.36","LUNENBURG","8203210","2020-11-26 21:00","2020","11","26","21:00","9.3","","9.3","","100","","","","11","","16","","","","102.06","","","","","","NA"
"-64.30","44.36","LUNENBURG","8203210","2020-11-26 22:00","2020","11","26","22:00","9.5","","9.4","","100","","","","13","","19","","","","102.01","","","","","","NA"
"-64.30","44.36","LUNENBURG","8203210","2020-11-26 23:00","2020","11","26","23:00","11.4","","11.4","","100","","","","17","","23","","","","101.97","","","","","","NA"
"-64.30","44.36","LUNENBURG","8203210","2020-11-27 00:00","2020","11","27","00:00","11.1","","11.1","","100","","","","18","","22","","","","101.94","","","","","","NA"
"-64.30","44.36","LUNENBURG","8203210","2020-11-27 01:00","2020","11","27","01:00","11.1","","11.0","","100","","","","17","","23","","","","101.84","","","","","","NA"
"-64.30","44.36","LUNENBURG","8203210","2020-11-27 02:00","2020","11","27","02:00","11.1","","11.1","","100","","","","18","","27","","","","101.78","","","","","","NA"
"-64.30","44.36","LUNENBURG","8203210","2020-11-27 03:00","2020","11","27","03:00","11.6","","11.6","","100","","","","17","","29","","","","101.71","","","","","","NA"
"-64.30","44.36","LUNENBURG","8203210","2020-11-27 04:00","2020","11","27","04:00","11.2","","11.2","","100","","","","14","","22","","","","101.58","","","","","","NA"
"-64.30","44.36","LUNENBURG","8203210","2020-11-27 05:00","2020","11","27","05:00","11.2","","11.2","","100","","","","15","","18","","","","101.56","","","","","","NA"
"-64.30","44.36","LUNENBURG","8203210","2020-11-27 06:00","2020","11","27","06:00","11.7","","11.7","","100","","","","17","","27","","","","101.48","","","","","","NA"
"-64.30","44.36","LUNENBURG","8203210","2020-11-27 07:00","2020","11","27","07:00","11.7","","11.7","","100","","","","17","","29","","","","101.48","","","","","","NA"
"-64.30","44.36","LUNENBURG","8203210","2020-11-27 08:00","2020","11","27","08:00","11.5","","11.5","","100","","","","18","","25","","","","101.50","","","","","","NA"
"-64.30","44.36","LUNENBURG","8203210","2020-11-27 09:00","2020","11","27","09:00","10.9","","10.9","","100","","","","18","","16","","","","101.52","","","","","","NA"
"-64.30","44.36","LUNENBURG","8203210","2020-11-27 10:00","2020","11","27","10:00","11.2","","11.2","","100","","","","17","","20","","","","101.50","","","","","","NA"
"-64.30","44.36","LUNENBURG","8203210","2020-11-27 11:00","2020","11","27","11:00","11.1","","11.1","","100","","","","21","","14","","","","101.41","","","","","","NA"
"-64.30","44.36","LUNENBURG","8203210","2020-11-27 12:00","2020","11","27","12:00","10.3","","10.3","","100","","","","12","","16","","","","101.30","","","","","","NA"
"-64.30","44.36","LUNENBURG","8203210","2020-11-27 13:00","2020","11","27","13:00","9.6","","9.6","","100","","","","7","","8","","","","101.18","","","","","","NA"
"-64.30","44.36","LUNENBURG","8203210","2020-11-27 14:00","2020","11","27","14:00","9.3","","9.3","","100","","","","9","","13","","","","101.13","","","","","","NA"
"-64.30","44.36","LUNENBURG","8203210","2020-11-27 15:00","2020","11","27","15:00","9.8","","9.8","","100","","","","10","","5","","","","101.09","","","","","","NA"
"-64.30","44.36","LUNENBURG","8203210","2020-11-27 16:00","2020","11","27","16:00","10.5","","10.5","","100","","","","20","","6","","","","101.09","","","","","","NA"
"-64.30","44.36","LUNENBURG","8203210","2020-11-27 17:00","2020","11","27","17:00","10.3","","10.3","","100","","","","19","","5","","","","101.09","","","","","","NA"
"-64.30","44.36","LUNENBURG","8203210","2020-11-27 18:00","2020","11","27","18:00","10.1","","10.1","","100","","","","25","","10","","","","101.11","","","","","","NA"
"-64.30","44.36","LUNENBURG","8203210","2020-11-27 19:00","2020","11","27","19:00","10.3","","10.3","","100","","","","25","","13","","","","101.15","","","","","","NA"
"-64.30","44.36","LUNENBURG","8203210","2020-11-27 20:00","2020","11","27","20:00","10.2","","10.2","","100","","","","25","","12","","","","101.17","","","","","","NA"
"-64.30","44.36","LUNENBURG","8203210","2020-11-27 21:00","2020","11","27","21:00","10.0","","10.0","","100","","","","28","","10","","","","101.13","","","","","","NA"
"-64.30","44.36","LUNENBURG","8203210","2020-11-27 22:00","2020","11","27","22:00","9.4","","9.4","","100","","","","26","","11","","","","101.11","","","","","","NA"
"-64.30","44.36","LUNENBURG","8203210","2020-11-27 23:00","2020","11","27","23:00","9.4","","9.4","","100","","","","30","","10","","","","100.98","","","","","","NA"
"-64.30","44.36","LUNENBURG","8203210","2020-11-28 00:00","2020","11","28","00:00","9.8","","9.8","","100","","","","31","","7","","","","101.05","","","","","","NA"
"-64.30","44.36","LUNENBURG","8203210","2020-11-28 01:00","2020","11","28","01:00","9.2","","9.2","","100","","","","28","","8","","","","101.07","","","","","","NA"
"-64.30","44.36","LUNENBURG","8203210","2020-11-28 02:00","2020","11","28","02:00","8.8","","8.8","","100","","","","25","","12","","","","100.99","","","","","","NA"
"-64.30","44.36","LUNENBURG","8203210","2020-11-28 03:00","2020","11","28","03:00","8.8","","8.8","","100","","","","31","","8","","","","100.97","","","","","","NA"
"-64.30","44.36","LUNENBURG","8203210","2020-11-28 04:00","2020","11","28","04:00","8.6","","8.6","","100","","","","32","","5","","","","100.92","","","","","","NA"
"-64.30","44.36","LUNENBURG","8203210","2020-11-28 05:00","2020","11","28","05:00","8.2","","8.2","","100","","","","29","","10","","","","100.91","","","","","","NA"
"-64.30","44.36","LUNENBURG","8203210","2020-11-28 06:00","2020","11","28","06:00","8.1","","8.1","","100","","","","28","","7","","","","100.89","","","","","","NA"
"-64.30","44.36","LUNENBURG","8203210","2020-11-28 07:00","2020","11","28","07:00","7.9","","7.9","","100","","","","21","","5","","","","100.88","","","","","","NA"
"-64.30","44.36","LUNENBURG","8203210","2020-11-28 08:00","2020","11","28","08:00","7.9","","7.9","","100","","","","23","","6","","","","100.91","","","","","","NA"
"-64.30","44.36","LUNENBURG","8203210","2020-11-28 09:00","2020","11","28","09:00","7.9","","7.9","","100","","","","23","","1","","","","100.89","","","","","","NA"
"-64.30","44.36","LUNENBURG","8203210","2020-11-28 10:00","2020","11","28","10:00","8.4","","8.4","","100","","","","25","","9","","","","100.92","","","","","","NA"
"-64.30","44.36","LUNENBURG","8203210","2020-11-28 11:00","2020","11","28","11:00","8.8","","8.8","","100","","","","25","","8","","","","100.85","","","","","","NA"
"-64.30","44.36","LUNENBURG","8203210","2020-11-28 12:00","2020","11","28","12:00","8.9","","8.9","","100","","","","22","","9","","","","100.78","","","","","","NA"
"-64.30","44.36","LUNENBURG","8203210","2020-11-28 13:00","2020","11","28","13:00","9.3","","8.9","","98","","","","24","","12","","","","100.75","","","","","","NA"
"-64.30","44.36","LUNENBURG","8203210","2020-11-28 14:00","2020","11","28","14:00","9.2","","9.0","","99","","","","25","","14","","","","100.72","","","","","","NA"
"-64.30","44.36","LUNENBURG","8203210","2020-11-28 15:00","2020","11","28","15:00","9.6","","7.7","","88","","","","29","","12","","","","100.71","","","","","","NA"
"-64.30","44.36","LUNENBURG","8203210","2020-11-28 16:00","2020","11","28","16:00","9.1","","7.9","","92","","","","28","","13","","","","100.73","","","","","","NA"
"-64.30","44.36","LUNENBURG","8203210","2020-11-28 17:00","2020","11","28","17:00","8.2","","7.6","","96","","","","29","","21","","","","100.77","","","","","","NA"
"-64.30","44.36","LUNENBURG","8203210","2020-11-28 18:00","2020","11","28","18:00","7.2","","7.0","","98","","","","29","","19","","","","100.81","","","","","","NA"
"-64.30","44.36","LUNENBURG","8203210","2020-11-28 19:00","2020","11","28","19:00","6.8","","6.8","","100","","","","29","","20","","","","100.83","","","","","","NA"
"-64.30","44.36","LUNENBURG","8203210","2020-11-28 20:00","2020","11","28","20:00","6.4","","6.4","","100","","","","31","","18","","","","100.89","","","","","","NA"
"-64.30","44.36","LUNENBURG","8203210","2020-11-28 21:00","2020","11","28","21:00","6.0","","5.5","","96","","","","31","","18","","","","100.90","","","","","","NA"
"-64.30","44.36","LUNENBURG","8203210","2020-11-28 22:00","2020","11","28","22:00","5.3","","5.1","","99","","","","33","","9","","","","100.95","","","","","","NA"
"-64.30","44.36","LUNENBURG","8203210","2020-11-28 23:00","2020","11","28","23:00","4.6","","4.5","","100","","","","29","","16","","","","100.97","","","","","","NA"
"-64.30","44.36","LUNENBURG","8203210","2020-11-29 00:00","2020","11","29","00:00","4.1","","4.1","","100","","","","30","","14","","","","100.93","","","","","","NA"
"-64.30","44.36","LUNENBURG","8203210","2020-11-29 01:00","2020","11","29","01:00","3.8","","3.8","","100","","","","29","","4","","","","100.95","","","","","","NA"
"-64.30","44.36","LUNENBURG","8203210","2020-11-29 02:00","2020","11","29","02:00","3.9","","3.9","","100","","","","27","","13","","","","101.00","","","","","","NA"
"-64.30","44.36","LUNENBURG","8203210","2020-11-29 03:00","2020","11","29","03:00","3.5","","3.5","","100","","","","26","","11","","","","100.99","","","","","","NA"
"-64.30","44.36","LUNENBURG","8203210","2020-11-29 04:00","2020","11","29","04:00","2.9","","2.9","","100","","","","24","","12","","","","101.02","","","","","","NA"
"-64.30","44.36","LUNENBURG","8203210","2020-11-29 05:00","2020","11","29","05:00","2.8","","2.8","","100","","","","25","","11","","","","101.09","","","","","","NA"
"-64.30","44.36","LUNENBURG","8203210","2020-11-29 06:00","2020","11","29","06:00","3.0","","3.0","","100","","","","25","","13","","","","101.08","","","","","","NA"
"-64.30","44.36","LUNENBURG","8203210","2020-11-29 07:00","2020","11","29","07:00","3.2","","3.2","","100","","","","26","","23","","","","101.17","","","","","","NA"
"-64.30","44.36","LUNENBURG","8203210","2020-11-29 08:00","2020","11","29","08:00","3.3","","3.3","","100","","","","26","","19","","","","101.24","","","","","","NA"
"-64.30","44.36","LUNENBURG","8203210","2020-11-29 09:00","2020","11","29","09:00","4.0","","3.9","","99","","","","26","","19","","","","101.31","","","","","","NA"
"-64.30","44.36","LUNENBURG","8203210","2020-11-29 10:00","2020","11","29","10:00","4.4","","3.9","","96","","","","25","","13","","","","101.39","","","","","","NA"
"-64.30","44.36","LUNENBURG","8203210","2020-11-29 11:00","2020","11","29","11:00","5.6","","2.9","","83","","","","25","","17","","","","101.36","","","","","","NA"
"-64.30","44.36","LUNENBURG","8203210","2020-11-29 12:00","2020","11","29","12:00","6.9","","1.3","","67","","","","26","","29","","","","101.31","","","","","","NA"
"-64.30","44.36","LUNENBURG","8203210","2020-11-29 13:00","2020","11","29","13:00","7.5","","1.1","","64","","","","26","","24","","","","101.30","","","","","","NA"
"-64.30","44.36","LUNENBURG","8203210","2020-11-29 14:00","2020","11","29","14:00","7.9","","-0.8","","54","","","","27","","28","","","","101.31","","","","","","NA"
"-64.30","44.36","LUNENBURG","8203210","2020-11-29 15:00","2020","11","29","15:00","8.1","","-0.1","","56","","","","29","","24","","","","101.39","","","","","","NA"
"-64.30","44.36","LUNENBURG","8203210","2020-11-29 16:00","2020","11","29","16:00","7.7","","0.2","","59","","","","27","","22","","","","101.53","","","","","","NA"
"-64.30","44.36","LUNENBURG","8203210","2020-11-29 17:00","2020","11","29","17:00","7.2","","1.0","","65","","","","27","","14","","","","101.63","","","","","","NA"
"-64.30","44.36","LUNENBURG","8203210","2020-11-29 18:00","2020","11","29","18:00","6.8","","1.2","","67","","","","27","","18","","","","101.73","","","","","","NA"
"-64.30","44.36","LUNENBURG","8203210","2020-11-29 19:00","2020","11","29","19:00","6.0","","1.2","","72","","","","26","","12","","","","101.81","","","","","","NA"
"-64.30","44.36","LUNENBURG","8203210","2020-11-29 20:00","2020","11","29","20:00","4.9","","1.7","","80","","","","23","","10","","","","101.91","","","","","","NA"
"-64.30","44.36","LUNENBURG","8203210","2020-11-29 21:00","2020","11","29","21:00","4.1","","2.4","","89","","","","26","","10","","","","102.00","","","","","","NA"
"-64.30","44.36","LUNENBURG","8203210","2020-11-29 22:00","2020","11","29","22:00","4.1","","2.4","","89","","","","27","","8","","","","102.06","","","","","","NA"
"-64.30","44.36","LUNENBURG","8203210","2020-11-29 23:00","2020","11","29","23:00","3.2","","3.2","","100","","","","23","","8","","","","102.15","","","","","","NA"
"-64.30","44.36","LUNENBURG","8203210","2020-11-30 00:00","2020","11","30","00:00","2.9","","2.9","","100","","","","26","","5","","","","102.22","","","","","","NA"
"-64.30","44.36","LUNENBURG","8203210","2020-11-30 01:00","2020","11","30","01:00","2.8","","2.8","","100","","","","25","","5","","","","102.17","","","","","","NA"
"-64.30","44.36","LUNENBURG","8203210","2020-11-30 02:00","2020","11","30","02:00","2.3","","2.3","","100","","","","24","","5","","","","102.21","","","","","","NA"
"-64.30","44.36","LUNENBURG","8203210","2020-11-30 03:00","2020","11","30","03:00","2.1","","2.1","","100","","","","29","","5","","","","102.33","","","","","","NA"
"-64.30","44.36","LUNENBURG","8203210","2020-11-30 04:00","2020","11","30","04:00","1.9","","1.9","","100","","","","31","","3","","","","102.37","","","","","","NA"
"-64.30","44.36","LUNENBURG","8203210","2020-11-30 05:00","2020","11","30","05:00","1.3","","1.3","","100","","","","32","","1","","","","102.42","","","","","","NA"
"-64.30","44.36","LUNENBURG","8203210","2020-11-30 06:00","2020","11","30","06:00","2.4","","2.4","","100","","","","36","","1","","","","102.47","","","","","","NA"
"-64.30","44.36","LUNENBURG","8203210","2020-11-30 07:00","2020","11","30","07:00","2.5","","2.5","","100","","","","31","","4","","","","102.51","","","","","","NA"
"-64.30","44.36","LUNENBURG","8203210","2020-11-30 08:00","2020","11","30","08:00","2.4","","2.4","","100","","","","31","","7","","","","102.56","","","","","","NA"
"-64.30","44.36","LUNENBURG","8203210","2020-11-30 09:00","2020","11","30","09:00","3.7","","3.7","","100","","","","","","0","","","","102.53","","","","","","NA"
"-64.30","44.36","LUNENBURG","8203210","2020-11-30 10:00","2020","11","30","10:00","8.1","","3.0","","70","","","","13","","23","","","","102.58","","","","","","NA"
"-64.30","44.36","LUNENBURG","8203210","2020-11-30 11:00","2020","11","30","11:00","8.6","","4.6","","76","","","","12","","22","","","","102.56","","","","","","NA"
"-64.30","44.36","LUNENBURG","8203210","2020-11-30 12:00","2020","11","30","12:00","8.3","","5.0","","80","","","","11","","29","","","","102.52","","","","","","NA"
"-64.30","44.36","LUNENBURG","8203210","2020-11-30 13:00","2020","11","30","13:00","8.4","","5.4","","81","","","","11","","26","","","","102.50","","","","","","NA"
"-64.30","44.36","LUNENBURG","8203210","2020-11-30 14:00","2020","11","30","14:00","8.5","","6.4","","86","","","","11","","27","","","","102.47","","","","","","NA"
"-64.30","44.36","LUNENBURG","8203210","2020-11-30 15:00","2020","11","30","15:00","8.5","","8.0","","97","","","","11","","25","","","","102.43","","","","","","NA"
"-64.30","44.36","LUNENBURG","8203210","2020-11-30 16:00","2020","11","30","16:00","8.8","","8.8","","100","","","","11","","18","","","","102.43","","","","","","NA"
"-64.30","44.36","LUNENBURG","8203210","2020-11-30 17:00","2020","11","30","17:00","8.9","","8.9","","100","","","","12","","21","","","","102.44","","","","","","NA"
"-64.30","44.36","LUNENBURG","8203210","2020-11-30 18:00","2020","11","30","18:00","9.3","","9.3","","100","","","","11","","33","","","","102.39","","","","","","NA"
"-64.30","44.36","LUNENBURG","8203210","2020-11-30 19:00","2020","11","30","19:00","9.3","","9.3","","100","","","","10","","36","","","","102.31","","","","","","NA"
"-64.30","44.36","LUNENBURG","8203210","2020-11-30 20:00","2020","11","30","20:00","9.4","","9.4","","100","","","","10","","38","","","","102.26","","","","","","NA"
"-64.30","44.36","LUNENBURG","8203210","2020-11-30 21:00","2020","11","30","21:00","9.4","","9.4","","100","","","","11","","35","","","","102.26","","","","","","NA"
"-64.30","44.36","LUNENBURG","8203210","2020-11-30 22:00","2020","11","30","22:00","9.7","","9.7","","100","","","","10","","33","","","","102.19","","","","","","NA"
"-64.30","44.36","LUNENBURG","8203210","2020-11-30 23:00","2020","11","30","23:00","10.2","","10.1","","100","","","","10","","41","","","","102.05","","","","","","NA"
