"Longitude (x)","Latitude (y)","Station Name","Climate ID","Date/Time (LST)","Year","Month","Day","Time (LST)","Temp (°C)","Temp Flag","Dew Point Temp (°C)","Dew Point Temp Flag","Rel Hum (%)","Rel Hum Flag","Precip. Amount (mm)","Precip. Amount Flag","Wind Dir (10s deg)","Wind Dir Flag","Wind Spd (km/h)","Wind Spd Flag","Visibility (km)","Visibility Flag","Stn Press (kPa)","Stn Press Flag","Hmdx","Hmdx Flag","Wind Chill","Wind Chill Flag","Weather"
"-92.11","62.81","RANKIN INLET A","2303405","2022-12-01 00:00","2022","12","01","00:00","-30.5","","-33.8","","74","","","","34","","23","","1.2","","101.70","","","","-45","","Ice Crystals"
"-92.11","62.81","RANKIN INLET A","2303405","2022-12-01 01:00","2022","12","01","01:00","-31.0","","-34.3","","74","","","","35","","22","","2.4","","101.68","","","","-45","","Ice Crystals"
"-92.11","62.81","RANKIN INLET A","2303405","2022-12-01 02:00","2022","12","01","02:00","-31.1","","-34.4","","74","","","","1","","19","","9.7","","101.68","","","","-44","","Ice Crystals"
"-92.11","62.81","RANKIN INLET A","2303405","2022-12-01 03:00","2022","12","01","03:00","-31.2","","-34.5","","74","","","","35","","21","","9.7","","101.65","","","","-45","","Ice Crystals"
"-92.11","62.81","RANKIN INLET A","2303405","2022-12-01 04:00","2022","12","01","04:00","-31.3","","-34.6","","73","","","","35","","27","","2.4","","101.59","","","","-47","","Ice Crystals"
"-92.11","62.81","RANKIN INLET A","2303405","2022-12-01 05:00","2022","12","01","05:00","-31.1","","-34.4","","73","","","","35","","28","","2.4","","101.56","","","","-47","","Ice Crystals"
"-92.11","62.81","RANKIN INLET A","2303405","2022-12-01 06:00","2022","12","01","06:00","-30.9","","-34.1","","74","","","","35","","23","","9.7","","101.54","","","","-45","","Ice Crystals"
"-92.11","62.81","RANKIN INLET A","2303405","2022-12-01 07:00","2022","12","01","07:00","-31.2","","-34.5","","73","","","","36","","20","","9.7","","101.52","","","","-45","","Ice Crystals"
"-92.11","62.81","RANKIN INLET A","2303405","2022-12-01 08:00","2022","12","01","08:00","-31.7","","-35.0","","73","","","","1","","16","","12.9","","101.47","","","","-44","","Ice Crystals"
"-92.11","62.81","RANKIN INLET A","2303405","2022-12-01 09:00","2022","12","01","09:00","-31.8","","-35.1","","73","","","","35","","25","","6.4","","101.41","","","","-47","","Ice Crystals,Blowing Snow"
"-92.11","62.81","RANKIN INLET A","2303405","2022-12-01 10:00","2022","12","01","10:00","-32.0","","-35.4","","73","","","","35","","27","","4.0","","101.38","","","","-48","","Ice Crystals,Blowing Snow"
"-92.11","62.81","RANKIN INLET A","2303405","2022-12-01 11:00","2022","12","01","11:00","-31.9","","-35.2","","73","","","","36","","26","","12.9","","101.37","","","","-47","","Ice Crystals,Blowing Snow"
"-92.11","62.81","RANKIN INLET A","2303405","2022-12-01 12:00","2022","12","01","12:00","-31.7","","-35.1","","73","","","","36","","20","","4.0","","101.32","","","","-45","","Ice Crystals,Blowing Snow"
"-92.11","62.81","RANKIN INLET A","2303405","2022-12-01 13:00","2022","12","01","13:00","-31.6","","-35.0","","73","","","","36","","27","","4.0","","101.28","","","","-47","","Ice Crystals,Blowing Snow"
"-92.11","62.81","RANKIN INLET A","2303405","2022-12-01 14:00","2022","12","01","14:00","-31.8","","-35.1","","73","","","","35","","30","","4.0","","101.26","","","","-48","","Ice Crystals,Blowing Snow"
"-92.11","62.81","RANKIN INLET A","2303405","2022-12-01 15:00","2022","12","01","15:00","-32.2","","-35.6","","73","","","","35","","27","","4.0","","101.27","","","","-48","","Ice Crystals,Blowing Snow"
"-92.11","62.81","RANKIN INLET A","2303405","2022-12-01 16:00","2022","12","01","16:00","-32.3","","-35.7","","73","","","","36","","21","","4.0","","101.28","","","","-46","","Ice Crystals,Blowing Snow"
"-92.11","62.81","RANKIN INLET A","2303405","2022-12-01 17:00","2022","12","01","17:00","-32.5","","-35.9","","72","","","","35","","21","","4.0","","101.26","","","","-47","","Ice Crystals"
"-92.11","62.81","RANKIN INLET A","2303405","2022-12-01 18:00","2022","12","01","18:00","-32.4","","-35.8","","73","","","","35","","22","","4.0","","101.23","","","","-47","","Ice Crystals,Blowing Snow"
"-92.11","62.81","RANKIN INLET A","2303405","2022-12-01 19:00","2022","12","01","19:00","-32.1","","-35.5","","73","","","","34","","25","","4.0","","101.20","","","","-47","","Ice Crystals,Blowing Snow"
"-92.11","62.81","RANKIN INLET A","2303405","2022-12-01 20:00","2022","12","01","20:00","-32.2","","-35.6","","73","","","","33","","24","","4.8","","101.13","","","","-47","","Ice Crystals,Blowing Snow"
"-92.11","62.81","RANKIN INLET A","2303405","2022-12-01 21:00","2022","12","01","21:00","-31.9","","-35.3","","73","","","","34","","22","","9.7","","101.08","","","","-46","","Ice Crystals"
"-92.11","62.81","RANKIN INLET A","2303405","2022-12-01 22:00","2022","12","01","22:00","-31.9","","-35.3","","73","","","","34","","23","","9.7","","101.04","","","","-46","","Ice Crystals"
"-92.11","62.81","RANKIN INLET A","2303405","2022-12-01 23:00","2022","12","01","23:00","-32.1","","-35.5","","73","","","","33","","21","","9.7","","101.03","","","","-46","","Ice Crystals"
"-92.11","62.81","RANKIN INLET A","2303405","2022-12-02 00:00","2022","12","02","00:00","-32.3","","-35.7","","73","","","","33","","21","","16.1","","101.00","","","","-46","","Ice Crystals"
"-92.11","62.81","RANKIN INLET A","2303405","2022-12-02 01:00","2022","12","02","01:00","-32.3","","-35.7","","73","","","","33","","24","","24.1","","100.99","","","","-47","","Ice Crystals"
"-92.11","62.81","RANKIN INLET A","2303405","2022-12-02 02:00","2022","12","02","02:00","-32.6","","-36.0","","72","","","","33","","22","","24.1","","101.00","","","","-47","","Ice Crystals"
"-92.11","62.81","RANKIN INLET A","2303405","2022-12-02 03:00","2022","12","02","03:00","-32.4","","-35.8","","72","","","","33","","21","","24.1","","100.96","","","","-46","","Ice Crystals"
"-92.11","62.81","RANKIN INLET A","2303405","2022-12-02 04:00","2022","12","02","04:00","-32.1","","-35.5","","73","","","","35","","21","","24.1","","100.90","","","","-46","","Ice Crystals"
"-92.11","62.81","RANKIN INLET A","2303405","2022-12-02 05:00","2022","12","02","05:00","-32.5","","-35.9","","72","","","","33","","20","","24.1","","100.86","","","","-46","","Ice Crystals"
"-92.11","62.81","RANKIN INLET A","2303405","2022-12-02 06:00","2022","12","02","06:00","-32.4","","-35.7","","73","","","","33","","14","","24.1","","100.81","","","","-44","","Ice Crystals"
"-92.11","62.81","RANKIN INLET A","2303405","2022-12-02 07:00","2022","12","02","07:00","-32.6","","-36.0","","72","","","","33","","15","","24.1","","100.74","","","","-45","","Ice Crystals"
"-92.11","62.81","RANKIN INLET A","2303405","2022-12-02 08:00","2022","12","02","08:00","-32.7","","-36.1","","72","","","","33","","9","","24.1","","100.72","","","","-42","","Ice Crystals"
"-92.11","62.81","RANKIN INLET A","2303405","2022-12-02 09:00","2022","12","02","09:00","-32.8","","-36.2","","72","","","","29","","13","","24.1","","100.65","","","","-44","","Ice Crystals"
"-92.11","62.81","RANKIN INLET A","2303405","2022-12-02 10:00","2022","12","02","10:00","-32.8","","-36.2","","72","","","","29","","22","","24.1","","100.62","","","","-47","","Ice Crystals"
"-92.11","62.81","RANKIN INLET A","2303405","2022-12-02 11:00","2022","12","02","11:00","-32.9","","-36.3","","72","","","","32","","9","","24.1","","100.60","","","","-42","","Ice Crystals"
"-92.11","62.81","RANKIN INLET A","2303405","2022-12-02 12:00","2022","12","02","12:00","-32.4","","-35.8","","72","","","","28","","11","","24.1","","100.56","","","","-43","","Ice Crystals"
"-92.11","62.81","RANKIN INLET A","2303405","2022-12-02 13:00","2022","12","02","13:00","-32.8","","-36.3","","72","","","","28","","18","","24.1","","100.48","","","","-46","","Ice Crystals"
"-92.11","62.81","RANKIN INLET A","2303405","2022-12-02 14:00","2022","12","02","14:00","-32.5","","-36.0","","72","","","","30","","13","","24.1","","100.47","","","","-44","","Ice Crystals"
"-92.11","62.81","RANKIN INLET A","2303405","2022-12-02 15:00","2022","12","02","15:00","-32.7","","-36.1","","72","","","","32","","5","","24.1","","100.44","","","","-39","","Ice Crystals"
"-92.11","62.81","RANKIN INLET A","2303405","2022-12-02 16:00","2022","12","02","16:00","-32.7","","-36.1","","72","","","","30","","8","","24.1","","100.40","","","","-41","","Ice Crystals"
"-92.11","62.81","RANKIN INLET A","2303405","2022-12-02 17:00","2022","12","02","17:00","-32.2","","-35.6","","73","","","","24","","7","","16.1","","100.39","","","","-40","","Ice Crystals"
"-92.11","62.81","RANKIN INLET A","2303405","2022-12-02 18:00","2022","12","02","18:00","-32.4","","-35.8","","72","","","","29","","12","","24.1","","100.31","","","","-43","","Ice Crystals"
"-92.11","62.81","RANKIN INLET A","2303405","2022-12-02 19:00","2022","12","02","19:00","-32.5","","-35.9","","72","","","","30","","11","","24.1","","100.26","","","","-43","","Ice Crystals"
"-92.11","62.81","RANKIN INLET A","2303405","2022-12-02 20:00","2022","12","02","20:00","-32.5","","-35.9","","72","","","","27","","5","","24.1","","100.25","","","","-38","","Ice Crystals"
"-92.11","62.81","RANKIN INLET A","2303405","2022-12-02 21:00","2022","12","02","21:00","-32.2","","-35.5","","73","","","","28","","3","","24.1","","100.19","","","","-36","","Ice Crystals"
"-92.11","62.81","RANKIN INLET A","2303405","2022-12-02 22:00","2022","12","02","22:00","-31.7","","-35.0","","73","","","","2","","8","","24.1","","100.16","","","","-40","","Ice Crystals"
"-92.11","62.81","RANKIN INLET A","2303405","2022-12-02 23:00","2022","12","02","23:00","-30.2","","-33.4","","74","","","","6","","7","","6.4","","100.13","","","","-38","","Snow"
"-92.11","62.81","RANKIN INLET A","2303405","2022-12-03 00:00","2022","12","03","00:00","-28.5","","-31.6","","75","","","","7","","5","","6.4","","100.06","","","","-34","","Snow"
"-92.11","62.81","RANKIN INLET A","2303405","2022-12-03 01:00","2022","12","03","01:00","-27.0","","-30.0","","77","","","","8","","12","","6.4","","100.04","","","","-37","","Snow"
"-92.11","62.81","RANKIN INLET A","2303405","2022-12-03 02:00","2022","12","03","02:00","-24.9","","-27.7","","78","","","","8","","15","","6.4","","99.99","","","","-35","","Snow"
"-92.11","62.81","RANKIN INLET A","2303405","2022-12-03 03:00","2022","12","03","03:00","-24.1","","-26.8","","79","","","","9","","14","","6.4","","99.95","","","","-34","","Snow"
"-92.11","62.81","RANKIN INLET A","2303405","2022-12-03 04:00","2022","12","03","04:00","-23.1","","-25.8","","79","","","","9","","18","","6.4","","99.92","","","","-34","","Snow"
"-92.11","62.81","RANKIN INLET A","2303405","2022-12-03 05:00","2022","12","03","05:00","-22.9","","-25.5","","80","","","","8","","17","","4.0","","99.87","","","","-33","","Snow"
"-92.11","62.81","RANKIN INLET A","2303405","2022-12-03 06:00","2022","12","03","06:00","-22.5","","-25.0","","80","","","","9","","20","","4.0","","99.86","","","","-34","","Snow"
"-92.11","62.81","RANKIN INLET A","2303405","2022-12-03 07:00","2022","12","03","07:00","-22.2","","-24.7","","80","","","","8","","22","","4.0","","99.85","","","","-34","","Snow,Blowing Snow"
"-92.11","62.81","RANKIN INLET A","2303405","2022-12-03 08:00","2022","12","03","08:00","-22.2","","-24.7","","80","","","","8","","19","","3.2","","99.82","","","","-33","","Snow,Blowing Snow"
"-92.11","62.81","RANKIN INLET A","2303405","2022-12-03 09:00","2022","12","03","09:00","-22.2","","-24.8","","80","","","","7","","19","","3.2","","99.80","","","","-33","","Snow,Blowing Snow"
"-92.11","62.81","RANKIN INLET A","2303405","2022-12-03 10:00","2022","12","03","10:00","-22.1","","-24.6","","80","","","","7","","18","","4.0","","99.78","","","","-33","","Snow,Blowing Snow"
"-92.11","62.81","RANKIN INLET A","2303405","2022-12-03 11:00","2022","12","03","11:00","-21.6","","-24.1","","81","","","","7","","22","","4.0","","99.76","","","","-33","","Snow,Blowing Snow"
"-92.11","62.81","RANKIN INLET A","2303405","2022-12-03 12:00","2022","12","03","12:00","-21.8","","-24.3","","81","","","","6","","22","","6.4","","99.75","","","","-33","","Snow,Blowing Snow"
"-92.11","62.81","RANKIN INLET A","2303405","2022-12-03 13:00","2022","12","03","13:00","-22.1","","-24.6","","81","","","","6","","20","","3.2","","99.74","","","","-33","","Snow,Blowing Snow"
"-92.11","62.81","RANKIN INLET A","2303405","2022-12-03 14:00","2022","12","03","14:00","-22.8","","-25.4","","80","","","","5","","21","","4.0","","99.73","","","","-34","","Snow,Blowing Snow"
"-92.11","62.81","RANKIN INLET A","2303405","2022-12-03 15:00","2022","12","03","15:00","-22.0","","-24.5","","81","","","","6","","22","","4.0","","99.69","","","","-34","","Snow,Blowing Snow"
"-92.11","62.81","RANKIN INLET A","2303405","2022-12-03 16:00","2022","12","03","16:00","-21.7","","-24.1","","81","","","","5","","25","","2.4","","99.68","","","","-34","","Snow,Blowing Snow"
"-92.11","62.81","RANKIN INLET A","2303405","2022-12-03 17:00","2022","12","03","17:00","-21.9","","-24.4","","81","","","","2","","23","","4.8","","99.68","","","","-34","","Snow,Blowing Snow"
"-92.11","62.81","RANKIN INLET A","2303405","2022-12-03 18:00","2022","12","03","18:00","-22.3","","-24.8","","80","","","","34","","27","","4.0","","99.63","","","","-35","","Snow,Blowing Snow"
"-92.11","62.81","RANKIN INLET A","2303405","2022-12-03 19:00","2022","12","03","19:00","-21.4","","-23.8","","81","","","","3","","32","","4.0","","99.57","","","","-35","","Snow,Blowing Snow"
"-92.11","62.81","RANKIN INLET A","2303405","2022-12-03 20:00","2022","12","03","20:00","-20.7","","-23.1","","82","","","","4","","28","","3.2","","99.51","","","","-33","","Snow,Blowing Snow"
"-92.11","62.81","RANKIN INLET A","2303405","2022-12-03 21:00","2022","12","03","21:00","-19.7","","-21.9","","83","","","","4","","27","","9.7","","99.46","","","","-32","","Snow,Blowing Snow"
"-92.11","62.81","RANKIN INLET A","2303405","2022-12-03 22:00","2022","12","03","22:00","-20.0","","-22.3","","82","","","","6","","18","","24.1","","99.46","","","","-30","","NA"
"-92.11","62.81","RANKIN INLET A","2303405","2022-12-03 23:00","2022","12","03","23:00","-20.2","","-22.4","","83","","","","9","","23","","24.1","","99.45","","","","-31","","Ice Crystals"
"-92.11","62.81","RANKIN INLET A","2303405","2022-12-04 00:00","2022","12","04","00:00","-20.7","","-23.0","","82","","","","9","","25","","24.1","","99.51","","","","-33","","Ice Crystals"
"-92.11","62.81","RANKIN INLET A","2303405","2022-12-04 01:00","2022","12","04","01:00","-21.2","","-23.5","","82","","","","9","","21","","24.1","","99.60","","","","-32","","Ice Crystals"
"-92.11","62.81","RANKIN INLET A","2303405","2022-12-04 02:00","2022","12","04","02:00","-21.1","","-23.5","","81","","","","10","","18","","24.1","","99.67","","","","-31","","Ice Crystals"
"-92.11","62.81","RANKIN INLET A","2303405","2022-12-04 03:00","2022","12","04","03:00","-21.6","","-24.1","","81","","","","8","","16","","24.1","","99.74","","","","-31","","Ice Crystals"
"-92.11","62.81","RANKIN INLET A","2303405","2022-12-04 04:00","2022","12","04","04:00","-21.0","","-23.3","","82","","","","7","","12","","9.7","","99.78","","","","-29","","Snow"
"-92.11","62.81","RANKIN INLET A","2303405","2022-12-04 05:00","2022","12","04","05:00","-20.4","","-22.7","","82","","","","6","","12","","6.4","","99.81","","","","-29","","Snow"
"-92.11","62.81","RANKIN INLET A","2303405","2022-12-04 06:00","2022","12","04","06:00","-17.9","","-20.0","","84","","","","6","","32","","2.4","","99.84","","","","-30","","Snow,Blowing Snow"
"-92.11","62.81","RANKIN INLET A","2303405","2022-12-04 07:00","2022","12","04","07:00","-18.8","","-20.9","","83","","","","6","","23","","4.0","","99.86","","","","-30","","Snow,Blowing Snow"
"-92.11","62.81","RANKIN INLET A","2303405","2022-12-04 08:00","2022","12","04","08:00","-19.2","","-21.4","","83","","","","5","","25","","4.8","","99.94","","","","-31","","Snow,Blowing Snow"
"-92.11","62.81","RANKIN INLET A","2303405","2022-12-04 09:00","2022","12","04","09:00","-20.4","","-22.8","","82","","","","4","","27","","6.4","","99.98","","","","-33","","Blowing Snow"
"-92.11","62.81","RANKIN INLET A","2303405","2022-12-04 10:00","2022","12","04","10:00","-20.6","","-22.9","","82","","","","4","","35","","4.8","","100.00","","","","-34","","Blowing Snow"
"-92.11","62.81","RANKIN INLET A","2303405","2022-12-04 11:00","2022","12","04","11:00","-21.0","","-23.3","","82","","","","3","","35","","4.0","","100.05","","","","-35","","Blowing Snow"
"-92.11","62.81","RANKIN INLET A","2303405","2022-12-04 12:00","2022","12","04","12:00","-20.6","","-22.9","","82","","","","4","","29","","4.0","","100.06","","","","-33","","Snow,Blowing Snow"
"-92.11","62.81","RANKIN INLET A","2303405","2022-12-04 13:00","2022","12","04","13:00","-21.2","","-23.6","","81","","","","3","","38","","3.2","","100.11","","","","-35","","Snow,Blowing Snow"
"-92.11","62.81","RANKIN INLET A","2303405","2022-12-04 14:00","2022","12","04","14:00","-22.2","","-24.6","","81","","","","3","","36","","4.0","","100.15","","","","-36","","Snow,Blowing Snow"
"-92.11","62.81","RANKIN INLET A","2303405","2022-12-04 15:00","2022","12","04","15:00","-22.8","","-25.3","","80","","","","3","","40","","4.8","","100.18","","","","-38","","Snow,Blowing Snow"
"-92.11","62.81","RANKIN INLET A","2303405","2022-12-04 16:00","2022","12","04","16:00","-22.6","","-25.2","","80","","","","2","","39","","4.8","","100.24","","","","-37","","Snow,Blowing Snow"
"-92.11","62.81","RANKIN INLET A","2303405","2022-12-04 17:00","2022","12","04","17:00","-22.5","","-25.0","","80","","","","2","","39","","4.8","","100.24","","","","-37","","Snow,Blowing Snow"
"-92.11","62.81","RANKIN INLET A","2303405","2022-12-04 18:00","2022","12","04","18:00","-22.2","","-24.8","","80","","","","1","","41","","4.8","","100.24","","","","-37","","Snow,Blowing Snow"
"-92.11","62.81","RANKIN INLET A","2303405","2022-12-04 19:00","2022","12","04","19:00","-22.2","","-24.8","","80","","","","1","","44","","4.8","","100.21","","","","-38","","Snow,Blowing Snow"
"-92.11","62.81","RANKIN INLET A","2303405","2022-12-04 20:00","2022","12","04","20:00","-22.6","","-25.1","","80","","","","36","","38","","4.8","","100.21","","","","-37","","Snow,Blowing Snow"
"-92.11","62.81","RANKIN INLET A","2303405","2022-12-04 21:00","2022","12","04","21:00","-22.7","","-25.3","","80","","","","36","","43","","4.8","","100.15","","","","-38","","Snow,Blowing Snow"
"-92.11","62.81","RANKIN INLET A","2303405","2022-12-04 22:00","2022","12","04","22:00","-22.5","","-25.1","","80","","","","36","","47","","4.0","","100.09","","","","-38","","Snow,Blowing Snow"
"-92.11","62.81","RANKIN INLET A","2303405","2022-12-04 23:00","2022","12","04","23:00","-22.6","","-25.2","","80","","","","35","","42","","4.0","","100.03","","","","-38","","Snow,Blowing Snow"
"-92.11","62.81","RANKIN INLET A","2303405","2022-12-05 00:00","2022","12","05","00:00","-22.9","","-25.4","","80","","","","35","","43","","4.0","","100.00","","","","-38","","Snow,Blowing Snow"
"-92.11","62.81","RANKIN INLET A","2303405","2022-12-05 01:00","2022","12","05","01:00","-22.9","","-25.4","","80","","","","35","","42","","3.2","","99.95","","","","-38","","Snow,Blowing Snow"
"-92.11","62.81","RANKIN INLET A","2303405","2022-12-05 02:00","2022","12","05","02:00","-23.1","","-25.7","","80","","","","36","","48","","1.6","","99.88","","","","-39","","Snow,Blowing Snow"
"-92.11","62.81","RANKIN INLET A","2303405","2022-12-05 03:00","2022","12","05","03:00","-23.1","","-25.7","","80","","","","35","","48","","1.2","","99.77","","","","-39","","Snow,Blowing Snow"
"-92.11","62.81","RANKIN INLET A","2303405","2022-12-05 04:00","2022","12","05","04:00","-23.1","","-25.6","","80","","","","36","","44","","1.2","","99.69","","","","-39","","Snow,Blowing Snow"
"-92.11","62.81","RANKIN INLET A","2303405","2022-12-05 05:00","2022","12","05","05:00","-23.1","","-25.7","","80","","","","35","","48","","1.2","","99.62","","","","-39","","Snow,Blowing Snow"
"-92.11","62.81","RANKIN INLET A","2303405","2022-12-05 06:00","2022","12","05","06:00","-23.1","","-25.7","","80","","","","36","","43","","1.2","","99.57","","","","-39","","Snow,Blowing Snow"
"-92.11","62.81","RANKIN INLET A","2303405","2022-12-05 07:00","2022","12","05","07:00","-23.3","","-25.9","","79","","","","35","","39","","1.2","","99.53","","","","-38","","Snow,Blowing Snow"
"-92.11","62.81","RANKIN INLET A","2303405","2022-12-05 08:00","2022","12","05","08:00","-23.3","","-25.9","","79","","","","35","","39","","3.2","","99.48","","","","-38","","Snow,Blowing Snow"
"-92.11","62.81","RANKIN INLET A","2303405","2022-12-05 09:00","2022","12","05","09:00","-23.6","","-26.3","","79","","","","36","","47","","1.6","","99.41","","","","-40","","Snow,Blowing Snow"
"-92.11","62.81","RANKIN INLET A","2303405","2022-12-05 10:00","2022","12","05","10:00","-23.7","","-26.4","","79","","","","35","","40","","2.4","","99.39","","","","-39","","Snow,Blowing Snow"
"-92.11","62.81","RANKIN INLET A","2303405","2022-12-05 11:00","2022","12","05","11:00","-23.9","","-26.7","","79","","","","35","","34","","2.4","","99.33","","","","-38","","Ice Crystals,Blowing Snow"
"-92.11","62.81","RANKIN INLET A","2303405","2022-12-05 12:00","2022","12","05","12:00","-24.3","","-27.0","","78","","","","34","","37","","9.7","","99.25","","","","-39","","Ice Crystals,Blowing Snow"
"-92.11","62.81","RANKIN INLET A","2303405","2022-12-05 13:00","2022","12","05","13:00","-23.2","","-25.8","","80","","","","34","","32","","4.8","","99.22","","","","-37","","Ice Crystals,Blowing Snow"
"-92.11","62.81","RANKIN INLET A","2303405","2022-12-05 14:00","2022","12","05","14:00","-22.7","","-25.2","","80","","","","35","","37","","0.8","","99.20","","","","-37","","Snow,Blowing Snow"
"-92.11","62.81","RANKIN INLET A","2303405","2022-12-05 15:00","2022","12","05","15:00","-22.2","","-24.7","","81","","","","34","","34","","0.8","","99.20","","","","-36","","Snow,Blowing Snow"
"-92.11","62.81","RANKIN INLET A","2303405","2022-12-05 16:00","2022","12","05","16:00","-21.6","","-24.0","","81","","","","31","","19","","1.6","","99.22","","","","-32","","Snow,Blowing Snow"
"-92.11","62.81","RANKIN INLET A","2303405","2022-12-05 17:00","2022","12","05","17:00","-21.7","","-24.2","","81","","","","34","","19","","3.2","","99.24","","","","-32","","Snow"
"-92.11","62.81","RANKIN INLET A","2303405","2022-12-05 18:00","2022","12","05","18:00","-21.9","","-24.4","","81","","","","33","","12","","8.1","","99.27","","","","-30","","Snow"
"-92.11","62.81","RANKIN INLET A","2303405","2022-12-05 19:00","2022","12","05","19:00","-21.9","","-24.4","","81","","","","4","","6","","4.8","","99.32","","","","-27","","Snow"
"-92.11","62.81","RANKIN INLET A","2303405","2022-12-05 20:00","2022","12","05","20:00","-21.4","","-23.9","","81","","","","7","","7","","4.8","","99.33","","","","-27","","Snow"
"-92.11","62.81","RANKIN INLET A","2303405","2022-12-05 21:00","2022","12","05","21:00","-21.1","","-23.4","","82","","","","16","","6","","4.8","","99.34","","","","-26","","Snow"
"-92.11","62.81","RANKIN INLET A","2303405","2022-12-05 22:00","2022","12","05","22:00","-22.2","","-24.6","","81","","","","4","","8","","4.8","","99.37","","","","-29","","Snow"
"-92.11","62.81","RANKIN INLET A","2303405","2022-12-05 23:00","2022","12","05","23:00","-21.0","","-23.3","","82","","","","6","","4","","9.7","","99.37","","","","-25","","Snow"
"-92.11","62.81","RANKIN INLET A","2303405","2022-12-06 00:00","2022","12","06","00:00","-18.9","","-21.1","","83","","","","13","","7","","9.7","","99.37","","","","-24","","Snow"
"-92.11","62.81","RANKIN INLET A","2303405","2022-12-06 01:00","2022","12","06","01:00","-18.7","","-21.0","","82","","","","18","","21","","9.7","","99.42","","","","-29","","Snow"
"-92.11","62.81","RANKIN INLET A","2303405","2022-12-06 02:00","2022","12","06","02:00","-21.3","","-23.7","","81","","","","15","","17","","24.1","","99.50","","","","-31","","Snow"
"-92.11","62.81","RANKIN INLET A","2303405","2022-12-06 03:00","2022","12","06","03:00","-21.7","","-24.1","","81","","","","13","","21","","24.1","","99.57","","","","-33","","Snow"
"-92.11","62.81","RANKIN INLET A","2303405","2022-12-06 04:00","2022","12","06","04:00","-22.4","","-25.1","","79","","","","13","","22","","24.1","","99.60","","","","-34","","Snow"
"-92.11","62.81","RANKIN INLET A","2303405","2022-12-06 05:00","2022","12","06","05:00","-22.8","","-25.5","","79","","","","12","","21","","24.1","","99.66","","","","-34","","NA"
"-92.11","62.81","RANKIN INLET A","2303405","2022-12-06 06:00","2022","12","06","06:00","-22.9","","-25.9","","77","","","","13","","19","","24.1","","99.67","","","","-34","","Snow"
"-92.11","62.81","RANKIN INLET A","2303405","2022-12-06 07:00","2022","12","06","07:00","-23.0","","-26.0","","77","","","","13","","19","","24.1","","99.72","","","","-34","","Snow"
"-92.11","62.81","RANKIN INLET A","2303405","2022-12-06 08:00","2022","12","06","08:00","-23.6","","-26.8","","75","","","","14","","21","","24.1","","99.74","","","","-35","","Snow"
"-92.11","62.81","RANKIN INLET A","2303405","2022-12-06 09:00","2022","12","06","09:00","-24.1","","-27.1","","77","","","","14","","22","","24.1","","99.78","","","","-36","","Mostly Cloudy"
"-92.11","62.81","RANKIN INLET A","2303405","2022-12-06 10:00","2022","12","06","10:00","-24.5","","-27.9","","74","","","","14","","21","","24.1","","99.80","","","","-36","","NA"
"-92.11","62.81","RANKIN INLET A","2303405","2022-12-06 11:00","2022","12","06","11:00","-24.7","","-27.8","","76","","","","13","","23","","16.1","","99.84","","","","-37","","NA"
"-92.11","62.81","RANKIN INLET A","2303405","2022-12-06 12:00","2022","12","06","12:00","-25.0","","-28.1","","76","","","","16","","24","","8.1","","99.88","","","","-38","","Ice Crystals,Blowing Snow"
"-92.11","62.81","RANKIN INLET A","2303405","2022-12-06 13:00","2022","12","06","13:00","-25.3","","-28.6","","75","","","","16","","22","","16.1","","99.91","","","","-38","","Ice Crystals,Blowing Snow"
"-92.11","62.81","RANKIN INLET A","2303405","2022-12-06 14:00","2022","12","06","14:00","-25.5","","-28.6","","76","","","","16","","23","","9.7","","99.95","","","","-38","","Ice Crystals"
"-92.11","62.81","RANKIN INLET A","2303405","2022-12-06 15:00","2022","12","06","15:00","-26.0","","-29.0","","76","","","","16","","23","","16.1","","100.00","","","","-39","","Ice Crystals,Blowing Snow"
"-92.11","62.81","RANKIN INLET A","2303405","2022-12-06 16:00","2022","12","06","16:00","-26.4","","-29.6","","75","","","","16","","17","","24.1","","100.04","","","","-38","","Ice Crystals"
"-92.11","62.81","RANKIN INLET A","2303405","2022-12-06 17:00","2022","12","06","17:00","-26.0","","-29.0","","77","","","","16","","26","","8.1","","100.08","","","","-40","","Ice Crystals"
"-92.11","62.81","RANKIN INLET A","2303405","2022-12-06 18:00","2022","12","06","18:00","-25.9","","-28.9","","77","","","","16","","22","","4.8","","100.11","","","","-38","","Ice Crystals"
"-92.11","62.81","RANKIN INLET A","2303405","2022-12-06 19:00","2022","12","06","19:00","-26.0","","-29.3","","74","","","","16","","25","","4.8","","100.14","","","","-39","","Ice Crystals"
"-92.11","62.81","RANKIN INLET A","2303405","2022-12-06 20:00","2022","12","06","20:00","-26.0","","-29.5","","73","","","","16","","25","","16.1","","100.18","","","","-39","","Ice Crystals"
"-92.11","62.81","RANKIN INLET A","2303405","2022-12-06 21:00","2022","12","06","21:00","-25.8","","-29.2","","74","","","","15","","33","","9.7","","100.22","","","","-41","","Ice Crystals"
"-92.11","62.81","RANKIN INLET A","2303405","2022-12-06 22:00","2022","12","06","22:00","-25.6","","-28.7","","76","","","","15","","32","","2.4","","100.25","","","","-40","","Snow,Ice Crystals"
"-92.11","62.81","RANKIN INLET A","2303405","2022-12-06 23:00","2022","12","06","23:00","-25.6","","-28.8","","75","","","","15","","33","","3.2","","100.31","","","","-40","","Snow,Ice Crystals"
"-92.11","62.81","RANKIN INLET A","2303405","2022-12-07 00:00","2022","12","07","00:00","-25.8","","-28.8","","76","","","","15","","32","","3.2","","100.33","","","","-41","","Snow,Ice Crystals"
"-92.11","62.81","RANKIN INLET A","2303405","2022-12-07 01:00","2022","12","07","01:00","-25.2","","-28.2","","76","","","","15","","31","","1.6","","100.40","","","","-40","","Snow,Ice Crystals"
"-92.11","62.81","RANKIN INLET A","2303405","2022-12-07 02:00","2022","12","07","02:00","-25.1","","-28.3","","76","","","","15","","32","","1.6","","100.45","","","","-40","","Snow,Ice Crystals"
"-92.11","62.81","RANKIN INLET A","2303405","2022-12-07 03:00","2022","12","07","03:00","-24.9","","-27.8","","77","","","","16","","36","","1.2","","100.47","","","","-40","","Snow,Blowing Snow"
"-92.11","62.81","RANKIN INLET A","2303405","2022-12-07 04:00","2022","12","07","04:00","-24.8","","-27.8","","77","","","","16","","34","","1.2","","100.49","","","","-40","","Snow,Ice Crystals,Blowing Snow"
"-92.11","62.81","RANKIN INLET A","2303405","2022-12-07 05:00","2022","12","07","05:00","-24.7","","-27.8","","76","","","","16","","33","","1.2","","100.52","","","","-39","","Snow,Ice Crystals,Blowing Snow"
"-92.11","62.81","RANKIN INLET A","2303405","2022-12-07 06:00","2022","12","07","06:00","-25.1","","-28.2","","76","","","","15","","30","","4.0","","100.55","","","","-39","","Ice Crystals,Blowing Snow"
"-92.11","62.81","RANKIN INLET A","2303405","2022-12-07 07:00","2022","12","07","07:00","-25.2","","-28.4","","75","","","","15","","30","","4.0","","100.60","","","","-39","","Ice Crystals,Blowing Snow"
"-92.11","62.81","RANKIN INLET A","2303405","2022-12-07 08:00","2022","12","07","08:00","-25.1","","-28.1","","77","","","","15","","30","","4.8","","100.64","","","","-39","","Ice Crystals,Blowing Snow"
"-92.11","62.81","RANKIN INLET A","2303405","2022-12-07 09:00","2022","12","07","09:00","-25.3","","-29.6","","68","","","","15","","29","","16.1","","100.68","","","","-39","","Ice Crystals,Blowing Snow"
"-92.11","62.81","RANKIN INLET A","2303405","2022-12-07 10:00","2022","12","07","10:00","-25.4","","-29.9","","67","","","","15","","27","","16.1","","100.71","","","","-39","","Ice Crystals,Blowing Snow"
"-92.11","62.81","RANKIN INLET A","2303405","2022-12-07 11:00","2022","12","07","11:00","-25.3","","-29.0","","72","","","","14","","21","","4.8","","100.74","","","","-37","","Ice Crystals,Blowing Snow"
"-92.11","62.81","RANKIN INLET A","2303405","2022-12-07 12:00","2022","12","07","12:00","-25.1","","-29.1","","70","","","","15","","27","","8.1","","100.74","","","","-39","","Ice Crystals,Blowing Snow"
"-92.11","62.81","RANKIN INLET A","2303405","2022-12-07 13:00","2022","12","07","13:00","-25.0","","-28.2","","75","","","","13","","26","","2.4","","100.75","","","","-38","","Ice Crystals,Blowing Snow"
"-92.11","62.81","RANKIN INLET A","2303405","2022-12-07 14:00","2022","12","07","14:00","-25.4","","-28.8","","74","","","","12","","23","","8.1","","100.76","","","","-38","","Ice Crystals,Blowing Snow"
"-92.11","62.81","RANKIN INLET A","2303405","2022-12-07 15:00","2022","12","07","15:00","-25.5","","-29.3","","71","","","","13","","22","","16.1","","100.78","","","","-38","","Ice Crystals,Blowing Snow"
"-92.11","62.81","RANKIN INLET A","2303405","2022-12-07 16:00","2022","12","07","16:00","-25.9","","-29.8","","70","","","","13","","19","","16.1","","100.80","","","","-38","","Ice Crystals,Blowing Snow"
"-92.11","62.81","RANKIN INLET A","2303405","2022-12-07 17:00","2022","12","07","17:00","-25.9","","-29.1","","75","","","","12","","18","","16.1","","100.79","","","","-37","","Ice Crystals"
"-92.11","62.81","RANKIN INLET A","2303405","2022-12-07 18:00","2022","12","07","18:00","-25.9","","-28.9","","77","","","","12","","17","","16.1","","100.81","","","","-37","","Ice Crystals"
"-92.11","62.81","RANKIN INLET A","2303405","2022-12-07 19:00","2022","12","07","19:00","-25.7","","-29.5","","71","","","","13","","17","","16.1","","100.81","","","","-37","","Ice Crystals"
"-92.11","62.81","RANKIN INLET A","2303405","2022-12-07 20:00","2022","12","07","20:00","-25.6","","-29.0","","74","","","","13","","13","","16.1","","100.79","","","","-35","","Ice Crystals"
"-92.11","62.81","RANKIN INLET A","2303405","2022-12-07 21:00","2022","12","07","21:00","-28.1","","-31.1","","76","","","","4","","9","","8.1","","100.79","","","","-36","","Snow"
"-92.11","62.81","RANKIN INLET A","2303405","2022-12-07 22:00","2022","12","07","22:00","-27.7","","-30.6","","77","","","","5","","8","","8.1","","100.81","","","","-35","","Snow"
"-92.11","62.81","RANKIN INLET A","2303405","2022-12-07 23:00","2022","12","07","23:00","-28.2","","-31.1","","77","","","","4","","7","","9.7","","100.80","","","","-35","","Snow"
"-92.11","62.81","RANKIN INLET A","2303405","2022-12-08 00:00","2022","12","08","00:00","-28.7","","-31.4","","78","","","","4","","8","","9.7","","100.83","","","","-36","","Snow"
"-92.11","62.81","RANKIN INLET A","2303405","2022-12-08 01:00","2022","12","08","01:00","-29.9","","-32.8","","77","","","","36","","11","","9.7","","100.88","","","","-40","","Ice Crystals"
"-92.11","62.81","RANKIN INLET A","2303405","2022-12-08 02:00","2022","12","08","02:00","-30.2","","-33.1","","76","","","","35","","16","","16.1","","100.90","","","","-42","","Ice Crystals"
"-92.11","62.81","RANKIN INLET A","2303405","2022-12-08 03:00","2022","12","08","03:00","-30.9","","-34.0","","75","","","","35","","15","","16.1","","100.93","","","","-43","","Ice Crystals"
"-92.11","62.81","RANKIN INLET A","2303405","2022-12-08 04:00","2022","12","08","04:00","-31.7","","-35.0","","73","","","","34","","23","","16.1","","100.96","","","","-46","","Ice Crystals"
"-92.11","62.81","RANKIN INLET A","2303405","2022-12-08 05:00","2022","12","08","05:00","-31.8","","-35.0","","74","","","","35","","18","","16.1","","101.01","","","","-45","","Ice Crystals"
"-92.11","62.81","RANKIN INLET A","2303405","2022-12-08 06:00","2022","12","08","06:00","-32.4","","-35.8","","72","","","","32","","16","","16.1","","101.07","","","","-45","","Ice Crystals"
"-92.11","62.81","RANKIN INLET A","2303405","2022-12-08 07:00","2022","12","08","07:00","-32.3","","-35.6","","73","","","","34","","19","","16.1","","101.07","","","","-46","","NA"
"-92.11","62.81","RANKIN INLET A","2303405","2022-12-08 08:00","2022","12","08","08:00"
"-92.11","62.81","RANKIN INLET A","2303405","2022-12-08 09:00","2022","12","08","09:00","-32.7","","-36.1","","72","","","","30","","10","","16.1","","101.17","","","","-42","","Ice Crystals"
"-92.11","62.81","RANKIN INLET A","2303405","2022-12-08 10:00","2022","12","08","10:00","-32.2","","-35.6","","73","","","","29","","20","","16.1","","101.23","","","","-46","","Ice Crystals"
"-92.11","62.81","RANKIN INLET A","2303405","2022-12-08 11:00","2022","12","08","11:00","-31.4","","-34.7","","73","","","","28","","20","","16.1","","101.27","","","","-45","","Ice Crystals"
"-92.11","62.81","RANKIN INLET A","2303405","2022-12-08 12:00","2022","12","08","12:00","-30.9","","-34.2","","74","","","","27","","20","","16.1","","101.30","","","","-44","","Ice Crystals,Blowing Snow"
"-92.11","62.81","RANKIN INLET A","2303405","2022-12-08 13:00","2022","12","08","13:00","-30.6","","-33.8","","74","","","","28","","22","","16.1","","101.29","","","","-44","","Ice Crystals,Blowing Snow"
"-92.11","62.81","RANKIN INLET A","2303405","2022-12-08 14:00","2022","12","08","14:00","-29.2","","-32.5","","74","","","","27","","20","","16.1","","101.35","","","","-42","","Ice Crystals,Blowing Snow"
"-92.11","62.81","RANKIN INLET A","2303405","2022-12-08 15:00","2022","12","08","15:00","-28.8","","-32.1","","74","","","","28","","29","","16.1","","101.43","","","","-44","","Snow,Blowing Snow"
"-92.11","62.81","RANKIN INLET A","2303405","2022-12-08 16:00","2022","12","08","16:00","-29.0","","-32.3","","74","","","","27","","26","","24.1","","101.51","","","","-43","","Snow,Blowing Snow"
"-92.11","62.81","RANKIN INLET A","2303405","2022-12-08 17:00","2022","12","08","17:00","-28.9","","-32.2","","73","","","","28","","24","","24.1","","101.57","","","","-43","","Snow,Blowing Snow"
"-92.11","62.81","RANKIN INLET A","2303405","2022-12-08 18:00","2022","12","08","18:00","-29.9","","-33.3","","72","","","","28","","26","","24.1","","101.62","","","","-45","","Ice Crystals,Blowing Snow"
"-92.11","62.81","RANKIN INLET A","2303405","2022-12-08 19:00","2022","12","08","19:00","-30.1","","-33.5","","72","","","","28","","23","","24.1","","101.69","","","","-44","","Ice Crystals,Blowing Snow"
"-92.11","62.81","RANKIN INLET A","2303405","2022-12-08 20:00","2022","12","08","20:00","-30.2","","-33.6","","73","","","","28","","29","","24.1","","101.74","","","","-46","","Ice Crystals,Blowing Snow"
"-92.11","62.81","RANKIN INLET A","2303405","2022-12-08 21:00","2022","12","08","21:00","-30.5","","-33.9","","73","","","","29","","26","","24.1","","101.80","","","","-45","","Ice Crystals,Blowing Snow"
"-92.11","62.81","RANKIN INLET A","2303405","2022-12-08 22:00","2022","12","08","22:00","-31.0","","-34.4","","72","","","","30","","18","","24.1","","101.84","","","","-44","","Ice Crystals,Blowing Snow"
"-92.11","62.81","RANKIN INLET A","2303405","2022-12-08 23:00","2022","12","08","23:00","-30.7","","-34.0","","73","","","","27","","16","","24.1","","101.95","","","","-43","","Ice Crystals,Blowing Snow"
"-92.11","62.81","RANKIN INLET A","2303405","2022-12-09 00:00","2022","12","09","00:00","-30.6","","-34.0","","73","","","","28","","17","","24.1","","102.03","","","","-43","","Ice Crystals,Blowing Snow"
"-92.11","62.81","RANKIN INLET A","2303405","2022-12-09 01:00","2022","12","09","01:00","-30.3","","-33.8","","72","","","","27","","19","","24.1","","102.11","","","","-43","","Ice Crystals,Blowing Snow"
"-92.11","62.81","RANKIN INLET A","2303405","2022-12-09 02:00","2022","12","09","02:00","-30.9","","-34.3","","73","","","","25","","11","","24.1","","102.19","","","","-41","","Ice Crystals,Blowing Snow"
"-92.11","62.81","RANKIN INLET A","2303405","2022-12-09 03:00","2022","12","09","03:00","-30.7","","-34.0","","73","","","","36","","2","","24.1","","102.23","","","","-33","","Ice Crystals,Blowing Snow"
"-92.11","62.81","RANKIN INLET A","2303405","2022-12-09 04:00","2022","12","09","04:00","-30.9","","-34.2","","73","","","","25","","9","","24.1","","102.26","","","","-40","","Ice Crystals,Blowing Snow"
"-92.11","62.81","RANKIN INLET A","2303405","2022-12-09 05:00","2022","12","09","05:00","-30.6","","-33.9","","73","","","","22","","8","","24.1","","102.27","","","","-39","","Ice Crystals"
"-92.11","62.81","RANKIN INLET A","2303405","2022-12-09 06:00","2022","12","09","06:00","-30.5","","-33.9","","73","","","","17","","5","","24.1","","102.26","","","","-36","","Ice Crystals"
"-92.11","62.81","RANKIN INLET A","2303405","2022-12-09 07:00","2022","12","09","07:00","-28.8","","-32.0","","74","","","","17","","11","","24.1","","102.28","","","","-38","","Ice Crystals"
"-92.11","62.81","RANKIN INLET A","2303405","2022-12-09 08:00","2022","12","09","08:00","-27.9","","-31.1","","74","","","","13","","10","","24.1","","102.30","","","","-37","","Ice Crystals"
"-92.11","62.81","RANKIN INLET A","2303405","2022-12-09 09:00","2022","12","09","09:00","-26.4","","-29.6","","75","","","","12","","10","","24.1","","102.30","","","","-35","","Ice Crystals"
"-92.11","62.81","RANKIN INLET A","2303405","2022-12-09 10:00","2022","12","09","10:00","-24.6","","-27.7","","76","","","","10","","12","","24.1","","102.24","","","","-34","","NA"
"-92.11","62.81","RANKIN INLET A","2303405","2022-12-09 11:00","2022","12","09","11:00","-21.9","","-24.4","","80","","","","11","","20","","4.8","","102.18","","","","-33","","Snow Grains,Blowing Snow"
"-92.11","62.81","RANKIN INLET A","2303405","2022-12-09 12:00","2022","12","09","12:00","-19.4","","-21.9","","82","","","","14","","31","","4.8","","102.09","","","","-32","","Snow,Blowing Snow"
"-92.11","62.81","RANKIN INLET A","2303405","2022-12-09 13:00","2022","12","09","13:00","-18.9","","-21.2","","82","","","","14","","34","","2.4","","102.07","","","","-32","","Snow,Blowing Snow"
"-92.11","62.81","RANKIN INLET A","2303405","2022-12-09 14:00","2022","12","09","14:00","-18.3","","-20.6","","82","","","","14","","39","","1.6","","101.92","","","","-32","","Snow,Blowing Snow"
"-92.11","62.81","RANKIN INLET A","2303405","2022-12-09 15:00","2022","12","09","15:00","-17.9","","-20.2","","82","","","","13","","39","","1.6","","101.86","","","","-31","","Snow,Blowing Snow"
"-92.11","62.81","RANKIN INLET A","2303405","2022-12-09 16:00","2022","12","09","16:00","-17.4","","-19.5","","84","","","","14","","41","","1.2","","101.80","","","","-31","","Snow,Blowing Snow"
"-92.11","62.81","RANKIN INLET A","2303405","2022-12-09 17:00","2022","12","09","17:00","-16.7","","-18.9","","84","","","","14","","45","","0.8","","101.72","","","","-30","","Snow,Blowing Snow"
"-92.11","62.81","RANKIN INLET A","2303405","2022-12-09 18:00","2022","12","09","18:00","-16.2","","-18.3","","84","","","","13","","49","","0.8","","101.58","","","","-30","","Snow,Blowing Snow"
"-92.11","62.81","RANKIN INLET A","2303405","2022-12-09 19:00","2022","12","09","19:00","-15.2","","-17.3","","84","","","","15","","49","","1.6","","101.61","","","","-29","","Snow,Blowing Snow"
"-92.11","62.81","RANKIN INLET A","2303405","2022-12-09 20:00","2022","12","09","20:00","-14.4","","-16.3","","86","","","","16","","49","","0.8","","101.47","","","","-28","","Snow,Blowing Snow"
"-92.11","62.81","RANKIN INLET A","2303405","2022-12-09 21:00","2022","12","09","21:00","-14.1","","-16.1","","85","","","","16","","43","","1.2","","101.40","","","","-27","","Snow,Blowing Snow"
"-92.11","62.81","RANKIN INLET A","2303405","2022-12-09 22:00","2022","12","09","22:00","-13.7","","-15.6","","86","","","","16","","41","","1.2","","101.39","","","","-26","","Snow,Blowing Snow"
"-92.11","62.81","RANKIN INLET A","2303405","2022-12-09 23:00","2022","12","09","23:00","-13.4","","-15.3","","86","","","","16","","37","","1.2","","101.36","","","","-25","","Snow,Blowing Snow"
"-92.11","62.81","RANKIN INLET A","2303405","2022-12-10 00:00","2022","12","10","00:00","-12.9","","-14.7","","86","","","","17","","39","","1.2","","101.35","","","","-25","","Snow,Blowing Snow"
"-92.11","62.81","RANKIN INLET A","2303405","2022-12-10 01:00","2022","12","10","01:00","-13.7","","-15.8","","84","","","","22","","18","","3.2","","101.35","","","","-22","","Snow,Blowing Snow"
"-92.11","62.81","RANKIN INLET A","2303405","2022-12-10 02:00","2022","12","10","02:00","-14.8","","-17.5","","80","","","","21","","17","","4.8","","101.41","","","","-23","","Snow,Blowing Snow"
"-92.11","62.81","RANKIN INLET A","2303405","2022-12-10 03:00","2022","12","10","03:00","-14.9","","-17.9","","78","","","","20","","17","","4.8","","101.46","","","","-23","","Snow,Blowing Snow"
"-92.11","62.81","RANKIN INLET A","2303405","2022-12-10 04:00","2022","12","10","04:00","-14.9","","-17.8","","79","","","","19","","17","","8.1","","101.54","","","","-23","","Snow"
"-92.11","62.81","RANKIN INLET A","2303405","2022-12-10 05:00","2022","12","10","05:00","-15.2","","-18.5","","76","","","","20","","15","","8.1","","101.57","","","","-23","","Snow"
"-92.11","62.81","RANKIN INLET A","2303405","2022-12-10 06:00","2022","12","10","06:00","-15.4","","-18.4","","78","","","","19","","9","","8.1","","101.59","","","","-21","","Snow"
"-92.11","62.81","RANKIN INLET A","2303405","2022-12-10 07:00","2022","12","10","07:00","-15.2","","-18.1","","79","","","","19","","7","","9.7","","101.67","","","","-20","","Snow"
"-92.11","62.81","RANKIN INLET A","2303405","2022-12-10 08:00","2022","12","10","08:00","-15.2","","-17.3","","84","","","","15","","7","","4.8","","101.68","","","","-20","","Snow"
"-92.11","62.81","RANKIN INLET A","2303405","2022-12-10 09:00","2022","12","10","09:00","-14.4","","-16.4","","85","","","","9","","7","","4.8","","101.71","","","","-19","","Snow"
"-92.11","62.81","RANKIN INLET A","2303405","2022-12-10 10:00","2022","12","10","10:00","-13.9","","-15.5","","87","","","","10","","7","","8.1","","101.71","","","","-19","","Snow"
"-92.11","62.81","RANKIN INLET A","2303405","2022-12-10 11:00","2022","12","10","11:00","-11.7","","-13.3","","88","","","","14","","16","","4.8","","101.70","","","","-19","","Snow"
"-92.11","62.81","RANKIN INLET A","2303405","2022-12-10 12:00","2022","12","10","12:00","-11.1","","-12.6","","89","","","","13","","21","","6.4","","101.68","","","","-19","","Snow,Blowing Snow"
"-92.11","62.81","RANKIN INLET A","2303405","2022-12-10 13:00","2022","12","10","13:00","-10.7","","-12.1","","90","","","","14","","21","","4.8","","101.70","","","","-19","","Snow,Blowing Snow"
"-92.11","62.81","RANKIN INLET A","2303405","2022-12-10 14:00","2022","12","10","14:00","-10.9","","-12.3","","89","","","","14","","24","","4.8","","101.67","","","","-20","","Snow,Blowing Snow"
"-92.11","62.81","RANKIN INLET A","2303405","2022-12-10 15:00","2022","12","10","15:00","-10.7","","-12.0","","91","","","","13","","23","","3.2","","101.67","","","","-19","","Snow,Blowing Snow"
"-92.11","62.81","RANKIN INLET A","2303405","2022-12-10 16:00","2022","12","10","16:00","-10.0","","-10.9","","93","","","","13","","29","","2.4","","101.64","","","","-19","","Snow,Blowing Snow"
"-92.11","62.81","RANKIN INLET A","2303405","2022-12-10 17:00","2022","12","10","17:00","-9.7","","-10.6","","93","","","","12","","22","","3.2","","101.67","","","","-18","","Snow,Blowing Snow"
"-92.11","62.81","RANKIN INLET A","2303405","2022-12-10 18:00","2022","12","10","18:00","-8.8","","-9.8","","93","","","","13","","25","","4.0","","101.64","","","","-17","","Snow,Blowing Snow"
"-92.11","62.81","RANKIN INLET A","2303405","2022-12-10 19:00","2022","12","10","19:00","-8.8","","-9.8","","92","","","","14","","25","","3.2","","101.61","","","","-17","","Snow,Blowing Snow"
"-92.11","62.81","RANKIN INLET A","2303405","2022-12-10 20:00","2022","12","10","20:00","-8.7","","-9.7","","92","","","","14","","25","","3.2","","101.60","","","","-17","","Snow,Blowing Snow"
"-92.11","62.81","RANKIN INLET A","2303405","2022-12-10 21:00","2022","12","10","21:00","-8.6","","-9.6","","92","","","","14","","26","","3.2","","101.56","","","","-17","","Snow,Blowing Snow"
"-92.11","62.81","RANKIN INLET A","2303405","2022-12-10 22:00","2022","12","10","22:00","-8.6","","-9.6","","93","","","","14","","26","","3.2","","101.56","","","","-17","","Snow,Blowing Snow"
"-92.11","62.81","RANKIN INLET A","2303405","2022-12-10 23:00","2022","12","10","23:00","-8.5","","-9.4","","93","","","","15","","24","","3.2","","101.56","","","","-17","","Snow,Blowing Snow"
"-92.11","62.81","RANKIN INLET A","2303405","2022-12-11 00:00","2022","12","11","00:00","-10.4","","-11.8","","90","","","","22","","18","","3.2","","101.60","","","","-18","","Snow,Blowing Snow"
"-92.11","62.81","RANKIN INLET A","2303405","2022-12-11 01:00","2022","12","11","01:00","-11.2","","-12.9","","87","","","","21","","20","","4.8","","101.65","","","","-19","","Snow,Blowing Snow"
"-92.11","62.81","RANKIN INLET A","2303405","2022-12-11 02:00","2022","12","11","02:00","-15.6","","-17.1","","89","","","","21","","14","","8.1","","101.73","","","","-23","","Snow"
"-92.11","62.81","RANKIN INLET A","2303405","2022-12-11 03:00","2022","12","11","03:00","-18.0","","-19.6","","88","","","","21","","12","","8.1","","101.79","","","","-26","","Snow"
"-92.11","62.81","RANKIN INLET A","2303405","2022-12-11 04:00","2022","12","11","04:00","-20.0","","-21.8","","86","","","","22","","9","","8.1","","101.86","","","","-27","","Snow"
"-92.11","62.81","RANKIN INLET A","2303405","2022-12-11 05:00","2022","12","11","05:00","-21.1","","-23.3","","83","","","","25","","13","","16.1","","101.94","","","","-30","","Ice Crystals"
"-92.11","62.81","RANKIN INLET A","2303405","2022-12-11 06:00","2022","12","11","06:00","-22.5","","-24.8","","81","","","","26","","13","","16.1","","102.05","","","","-31","","Ice Crystals"
"-92.11","62.81","RANKIN INLET A","2303405","2022-12-11 07:00","2022","12","11","07:00","-23.6","","-26.1","","81","","","","25","","14","","16.1","","102.11","","","","-33","","Ice Crystals"
"-92.11","62.81","RANKIN INLET A","2303405","2022-12-11 08:00","2022","12","11","08:00","-24.2","","-26.8","","80","","","","26","","14","","16.1","","102.18","","","","-34","","Ice Crystals"
"-92.11","62.81","RANKIN INLET A","2303405","2022-12-11 09:00","2022","12","11","09:00","-24.6","","-27.2","","80","","","","25","","12","","16.1","","102.25","","","","-34","","Ice Crystals"
"-92.11","62.81","RANKIN INLET A","2303405","2022-12-11 10:00","2022","12","11","10:00","-24.8","","-27.4","","79","","","","24","","13","","16.1","","102.34","","","","-34","","Ice Crystals"
"-92.11","62.81","RANKIN INLET A","2303405","2022-12-11 11:00","2022","12","11","11:00","-25.2","","-27.9","","79","","","","25","","11","","16.1","","102.43","","","","-34","","Ice Crystals"
"-92.11","62.81","RANKIN INLET A","2303405","2022-12-11 12:00","2022","12","11","12:00","-25.0","","-27.7","","79","","","","27","","7","","24.1","","102.47","","","","-31","","Ice Crystals"
"-92.11","62.81","RANKIN INLET A","2303405","2022-12-11 13:00","2022","12","11","13:00","-24.9","","-27.6","","79","","","","23","","14","","24.1","","102.53","","","","-35","","Ice Crystals"
"-92.11","62.81","RANKIN INLET A","2303405","2022-12-11 14:00","2022","12","11","14:00","-25.1","","-27.8","","79","","","","23","","8","","24.1","","102.62","","","","-32","","Ice Crystals"
"-92.11","62.81","RANKIN INLET A","2303405","2022-12-11 15:00","2022","12","11","15:00","-24.9","","-27.6","","79","","","","22","","6","","24.1","","102.65","","","","-31","","Ice Crystals"
"-92.11","62.81","RANKIN INLET A","2303405","2022-12-11 16:00","2022","12","11","16:00","-25.1","","-27.8","","79","","","","36","","2","","24.1","","102.70","","","","-27","","Ice Crystals"
"-92.11","62.81","RANKIN INLET A","2303405","2022-12-11 17:00","2022","12","11","17:00","-23.7","","-26.4","","79","","","","24","","4","","24.1","","102.77","","","","-28","","Snow"
"-92.11","62.81","RANKIN INLET A","2303405","2022-12-11 18:00","2022","12","11","18:00","-22.3","","-24.9","","80","","","","10","","4","","24.1","","102.80","","","","-26","","Snow"
"-92.11","62.81","RANKIN INLET A","2303405","2022-12-11 19:00","2022","12","11","19:00","-22.1","","-24.6","","80","","","","12","","4","","24.1","","102.83","","","","-26","","Snow"
"-92.11","62.81","RANKIN INLET A","2303405","2022-12-11 20:00","2022","12","11","20:00","-21.3","","-23.8","","81","","","","13","","7","","24.1","","102.86","","","","-27","","Snow"
"-92.11","62.81","RANKIN INLET A","2303405","2022-12-11 21:00","2022","12","11","21:00","-21.0","","-23.4","","81","","","","14","","5","","16.1","","102.87","","","","-25","","Snow"
"-92.11","62.81","RANKIN INLET A","2303405","2022-12-11 22:00","2022","12","11","22:00","-20.2","","-22.7","","81","","","","13","","13","","24.1","","102.86","","","","-29","","Snow"
"-92.11","62.81","RANKIN INLET A","2303405","2022-12-11 23:00","2022","12","11","23:00","-19.9","","-22.5","","81","","","","12","","9","","24.1","","102.91","","","","-27","","NA"
"-92.11","62.81","RANKIN INLET A","2303405","2022-12-12 00:00","2022","12","12","00:00","-18.9","","-21.1","","83","","","","14","","14","","24.1","","102.92","","","","-27","","Cloudy"
"-92.11","62.81","RANKIN INLET A","2303405","2022-12-12 01:00","2022","12","12","01:00","-17.2","","-19.9","","80","","","","16","","18","","24.1","","102.90","","","","-26","","NA"
"-92.11","62.81","RANKIN INLET A","2303405","2022-12-12 02:00","2022","12","12","02:00","-17.0","","-19.4","","82","","","","14","","9","","24.1","","102.91","","","","-23","","NA"
"-92.11","62.81","RANKIN INLET A","2303405","2022-12-12 03:00","2022","12","12","03:00","-16.7","","-19.1","","82","","","","6","","6","","24.1","","102.91","","","","-21","","Cloudy"
"-92.11","62.81","RANKIN INLET A","2303405","2022-12-12 04:00","2022","12","12","04:00","-16.0","","-18.2","","84","","","","6","","9","","24.1","","102.88","","","","-22","","NA"
"-92.11","62.81","RANKIN INLET A","2303405","2022-12-12 05:00","2022","12","12","05:00","-15.9","","-18.6","","81","","","","9","","11","","24.1","","102.87","","","","-23","","NA"
"-92.11","62.81","RANKIN INLET A","2303405","2022-12-12 06:00","2022","12","12","06:00","-16.6","","-19.2","","80","","","","8","","15","","24.1","","102.81","","","","-25","","Cloudy"
"-92.11","62.81","RANKIN INLET A","2303405","2022-12-12 07:00","2022","12","12","07:00","-16.9","","-19.6","","80","","","","9","","19","","24.1","","102.81","","","","-26","","NA"
"-92.11","62.81","RANKIN INLET A","2303405","2022-12-12 08:00","2022","12","12","08:00","-15.3","","-17.7","","82","","","","9","","21","","24.1","","102.72","","","","-25","","NA"
"-92.11","62.81","RANKIN INLET A","2303405","2022-12-12 09:00","2022","12","12","09:00","-14.5","","-16.9","","82","","","","9","","21","","16.1","","102.68","","","","-24","","Cloudy"
"-92.11","62.81","RANKIN INLET A","2303405","2022-12-12 10:00","2022","12","12","10:00","-14.1","","-16.6","","81","","","","9","","28","","16.1","","102.62","","","","-25","","Ice Crystals,Blowing Snow"
"-92.11","62.81","RANKIN INLET A","2303405","2022-12-12 11:00","2022","12","12","11:00","-13.7","","-15.9","","84","","","","9","","26","","4.8","","102.55","","","","-24","","Snow,Blowing Snow"
"-92.11","62.81","RANKIN INLET A","2303405","2022-12-12 12:00","2022","12","12","12:00","-13.4","","-15.3","","86","","","","9","","26","","3.2","","102.46","","","","-23","","Snow,Blowing Snow"
"-92.11","62.81","RANKIN INLET A","2303405","2022-12-12 13:00","2022","12","12","13:00","-13.0","","-14.7","","87","","","","10","","28","","3.2","","102.39","","","","-23","","Snow,Blowing Snow"
"-92.11","62.81","RANKIN INLET A","2303405","2022-12-12 14:00","2022","12","12","14:00","-12.5","","-14.2","","88","","","","10","","28","","4.8","","102.37","","","","-22","","Snow,Blowing Snow"
"-92.11","62.81","RANKIN INLET A","2303405","2022-12-12 15:00","2022","12","12","15:00","-11.7","","-13.1","","89","","","","10","","23","","4.8","","102.31","","","","-21","","Snow,Blowing Snow"
"-92.11","62.81","RANKIN INLET A","2303405","2022-12-12 16:00","2022","12","12","16:00","-9.5","","-10.5","","93","","","","11","","26","","4.8","","102.29","","","","-18","","Snow,Blowing Snow"
"-92.11","62.81","RANKIN INLET A","2303405","2022-12-12 17:00","2022","12","12","17:00","-8.3","","-9.3","","93","","","","13","","22","","3.2","","102.25","","","","-16","","Snow,Blowing Snow"
"-92.11","62.81","RANKIN INLET A","2303405","2022-12-12 18:00","2022","12","12","18:00","-8.5","","-9.5","","92","","","","14","","26","","3.2","","102.19","","","","-17","","Snow,Blowing Snow"
"-92.11","62.81","RANKIN INLET A","2303405","2022-12-12 19:00","2022","12","12","19:00","-8.8","","-9.9","","92","","","","14","","23","","3.2","","102.15","","","","-17","","Snow,Blowing Snow"
"-92.11","62.81","RANKIN INLET A","2303405","2022-12-12 20:00","2022","12","12","20:00","-9.0","","-10.1","","92","","","","14","","23","","3.2","","102.08","","","","-17","","Snow,Blowing Snow"
"-92.11","62.81","RANKIN INLET A","2303405","2022-12-12 21:00","2022","12","12","21:00","-9.0","","-10.2","","91","","","","13","","21","","4.0","","102.02","","","","-17","","Snow,Blowing Snow"
"-92.11","62.81","RANKIN INLET A","2303405","2022-12-12 22:00","2022","12","12","22:00","-9.1","","-10.1","","92","","","","13","","22","","4.0","","101.93","","","","-17","","Snow,Blowing Snow"
"-92.11","62.81","RANKIN INLET A","2303405","2022-12-12 23:00","2022","12","12","23:00","-9.0","","-10.1","","92","","","","13","","25","","4.0","","101.86","","","","-17","","Snow,Blowing Snow"
"-92.11","62.81","RANKIN INLET A","2303405","2022-12-13 00:00","2022","12","13","00:00","-8.7","","-9.9","","91","","","","13","","25","","3.2","","101.81","","","","-17","","Snow,Blowing Snow"
"-92.11","62.81","RANKIN INLET A","2303405","2022-12-13 01:00","2022","12","13","01:00","-8.6","","-9.8","","91","","","","13","","24","","3.2","","101.74","","","","-17","","Snow,Blowing Snow"
"-92.11","62.81","RANKIN INLET A","2303405","2022-12-13 02:00","2022","12","13","02:00","-8.3","","-9.4","","92","","","","13","","26","","3.2","","101.67","","","","-17","","Snow,Blowing Snow"
"-92.11","62.81","RANKIN INLET A","2303405","2022-12-13 03:00","2022","12","13","03:00","-8.2","","-9.2","","93","","","","13","","24","","4.0","","101.64","","","","-16","","Snow,Blowing Snow"
"-92.11","62.81","RANKIN INLET A","2303405","2022-12-13 04:00","2022","12","13","04:00","-8.0","","-8.9","","93","","","","13","","22","","4.8","","101.54","","","","-16","","Snow,Blowing Snow"
"-92.11","62.81","RANKIN INLET A","2303405","2022-12-13 05:00","2022","12","13","05:00","-7.9","","-8.8","","93","","","","14","","18","","4.0","","101.50","","","","-15","","Snow"
"-92.11","62.81","RANKIN INLET A","2303405","2022-12-13 06:00","2022","12","13","06:00","-8.2","","-9.1","","93","","","","14","","17","","3.2","","101.44","","","","-15","","Snow"
"-92.11","62.81","RANKIN INLET A","2303405","2022-12-13 07:00","2022","12","13","07:00","-8.6","","-9.5","","93","","","","13","","14","","4.8","","101.38","","","","-15","","Snow"
"-92.11","62.81","RANKIN INLET A","2303405","2022-12-13 08:00","2022","12","13","08:00","-8.5","","-9.4","","93","","","","15","","14","","4.8","","101.35","","","","-15","","Snow"
"-92.11","62.81","RANKIN INLET A","2303405","2022-12-13 09:00","2022","12","13","09:00","-8.7","","-9.6","","93","","","","15","","15","","8.1","","101.29","","","","-15","","Snow"
"-92.11","62.81","RANKIN INLET A","2303405","2022-12-13 10:00","2022","12","13","10:00","-8.9","","-9.9","","93","","","","17","","9","","8.1","","101.29","","","","-14","","Snow"
"-92.11","62.81","RANKIN INLET A","2303405","2022-12-13 11:00","2022","12","13","11:00","-8.8","","-9.7","","93","","","","19","","10","","8.1","","101.28","","","","-14","","Snow"
"-92.11","62.81","RANKIN INLET A","2303405","2022-12-13 12:00","2022","12","13","12:00","-8.3","","-9.2","","93","","","","17","","9","","4.8","","101.28","","","","-13","","Snow"
"-92.11","62.81","RANKIN INLET A","2303405","2022-12-13 13:00","2022","12","13","13:00","-8.2","","-9.1","","93","","","","19","","8","","12.9","","101.27","","","","-12","","Snow"
"-92.11","62.81","RANKIN INLET A","2303405","2022-12-13 14:00","2022","12","13","14:00","-8.1","","-9.0","","93","","","","20","","12","","12.9","","101.29","","","","-14","","Snow"
"-92.11","62.81","RANKIN INLET A","2303405","2022-12-13 15:00","2022","12","13","15:00","-8.1","","-9.0","","93","","","","20","","10","","12.9","","101.31","","","","-13","","Snow"
"-92.11","62.81","RANKIN INLET A","2303405","2022-12-13 16:00","2022","12","13","16:00","-8.1","","-9.0","","93","","","","23","","12","","12.9","","101.33","","","","-14","","Snow"
"-92.11","62.81","RANKIN INLET A","2303405","2022-12-13 17:00","2022","12","13","17:00","-8.8","","-9.9","","92","","","","27","","14","","12.9","","101.38","","","","-15","","Snow"
"-92.11","62.81","RANKIN INLET A","2303405","2022-12-13 18:00","2022","12","13","18:00","-14.5","","-16.1","","87","","","","28","","16","","12.9","","101.39","","","","-23","","Snow"
"-92.11","62.81","RANKIN INLET A","2303405","2022-12-13 19:00","2022","12","13","19:00","-16.6","","-18.5","","86","","","","27","","15","","12.9","","101.40","","","","-25","","Snow"
"-92.11","62.81","RANKIN INLET A","2303405","2022-12-13 20:00","2022","12","13","20:00","-18.4","","-20.3","","85","","","","24","","13","","12.9","","101.41","","","","-26","","Snow"
"-92.11","62.81","RANKIN INLET A","2303405","2022-12-13 21:00","2022","12","13","21:00","-18.2","","-20.1","","85","","","","23","","10","","24.1","","101.45","","","","-25","","Mainly Clear"
"-92.11","62.81","RANKIN INLET A","2303405","2022-12-13 22:00","2022","12","13","22:00","-19.2","","-21.3","","84","","","","21","","12","","24.1","","101.48","","","","-27","","NA"
"-92.11","62.81","RANKIN INLET A","2303405","2022-12-13 23:00","2022","12","13","23:00","-18.8","","-20.9","","84","","","","16","","11","","24.1","","101.45","","","","-26","","NA"
"-92.11","62.81","RANKIN INLET A","2303405","2022-12-14 00:00","2022","12","14","00:00","-17.2","","-19.2","","85","","","","19","","26","","24.1","","101.46","","","","-28","","Mostly Cloudy"
"-92.11","62.81","RANKIN INLET A","2303405","2022-12-14 01:00","2022","12","14","01:00","-14.9","","-16.6","","87","","","","19","","28","","24.1","","101.46","","","","-26","","NA"
"-92.11","62.81","RANKIN INLET A","2303405","2022-12-14 02:00","2022","12","14","02:00","-13.3","","-14.8","","88","","","","18","","36","","24.1","","101.42","","","","-25","","Ice Crystals,Blowing Snow"
"-92.11","62.81","RANKIN INLET A","2303405","2022-12-14 03:00","2022","12","14","03:00","-11.8","","-13.1","","90","","","","18","","28","","24.1","","101.42","","","","-22","","Cloudy"
"-92.11","62.81","RANKIN INLET A","2303405","2022-12-14 04:00","2022","12","14","04:00","-10.1","","-11.3","","90","","","","21","","40","","9.7","","101.40","","","","-21","","Ice Crystals,Blowing Snow"
"-92.11","62.81","RANKIN INLET A","2303405","2022-12-14 05:00","2022","12","14","05:00","-9.5","","-10.9","","90","","","","21","","40","","9.7","","101.41","","","","-20","","Snow,Blowing Snow"
"-92.11","62.81","RANKIN INLET A","2303405","2022-12-14 06:00","2022","12","14","06:00","-8.9","","-10.3","","90","","","","20","","35","","9.7","","101.41","","","","-19","","Snow,Blowing Snow"
"-92.11","62.81","RANKIN INLET A","2303405","2022-12-14 07:00","2022","12","14","07:00","-8.5","","-9.8","","90","","","","20","","40","","9.7","","101.42","","","","-19","","Snow,Blowing Snow"
"-92.11","62.81","RANKIN INLET A","2303405","2022-12-14 08:00","2022","12","14","08:00","-8.3","","-9.7","","90","","","","21","","40","","9.7","","101.45","","","","-18","","Snow,Blowing Snow"
"-92.11","62.81","RANKIN INLET A","2303405","2022-12-14 09:00","2022","12","14","09:00","-8.1","","-9.2","","91","","","","21","","34","","3.2","","101.53","","","","-18","","Snow,Blowing Snow"
"-92.11","62.81","RANKIN INLET A","2303405","2022-12-14 10:00","2022","12","14","10:00","-7.8","","-9.1","","91","","","","21","","34","","3.2","","101.54","","","","-17","","Snow,Blowing Snow"
"-92.11","62.81","RANKIN INLET A","2303405","2022-12-14 11:00","2022","12","14","11:00","-7.6","","-8.9","","90","","","","23","","32","","3.2","","101.54","","","","-17","","Snow,Blowing Snow"
"-92.11","62.81","RANKIN INLET A","2303405","2022-12-14 12:00","2022","12","14","12:00","-7.7","","-8.8","","92","","","","22","","26","","4.8","","101.58","","","","-16","","Snow,Blowing Snow"
"-92.11","62.81","RANKIN INLET A","2303405","2022-12-14 13:00","2022","12","14","13:00","-7.7","","-8.9","","91","","","","22","","25","","8.1","","101.60","","","","-16","","Snow,Blowing Snow"
"-92.11","62.81","RANKIN INLET A","2303405","2022-12-14 14:00","2022","12","14","14:00","-7.9","","-9.5","","89","","","","24","","22","","8.1","","101.67","","","","-16","","Snow,Blowing Snow"
"-92.11","62.81","RANKIN INLET A","2303405","2022-12-14 15:00","2022","12","14","15:00","-9.2","","-11.1","","86","","","","25","","18","","8.1","","101.75","","","","-16","","Snow,Blowing Snow"
"-92.11","62.81","RANKIN INLET A","2303405","2022-12-14 16:00","2022","12","14","16:00","-11.3","","-13.4","","85","","","","33","","22","","8.1","","101.85","","","","-20","","Snow,Blowing Snow"
"-92.11","62.81","RANKIN INLET A","2303405","2022-12-14 17:00","2022","12","14","17:00","-12.6","","-14.9","","83","","","","33","","20","","8.1","","101.95","","","","-21","","Snow,Blowing Snow"
"-92.11","62.81","RANKIN INLET A","2303405","2022-12-14 18:00","2022","12","14","18:00","-13.1","","-15.2","","84","","","","33","","16","","8.1","","102.03","","","","-21","","Snow,Blowing Snow"
"-92.11","62.81","RANKIN INLET A","2303405","2022-12-14 19:00","2022","12","14","19:00","-13.8","","-16.3","","82","","","","31","","9","","8.1","","102.12","","","","-19","","Snow,Blowing Snow"
"-92.11","62.81","RANKIN INLET A","2303405","2022-12-14 20:00","2022","12","14","20:00","-14.8","","-17.7","","79","","","","30","","15","","9.7","","102.19","","","","-23","","Snow,Blowing Snow"
"-92.11","62.81","RANKIN INLET A","2303405","2022-12-14 21:00","2022","12","14","21:00","-15.9","","-18.6","","81","","","","28","","9","","24.1","","102.25","","","","-22","","Mostly Cloudy"
"-92.11","62.81","RANKIN INLET A","2303405","2022-12-14 22:00","2022","12","14","22:00","-16.2","","-19.0","","79","","","","27","","6","","24.1","","102.29","","","","-21","","NA"
"-92.11","62.81","RANKIN INLET A","2303405","2022-12-14 23:00","2022","12","14","23:00","-16.9","","-19.9","","78","","","","24","","14","","24.1","","102.33","","","","-25","","NA"
"-92.11","62.81","RANKIN INLET A","2303405","2022-12-15 00:00","2022","12","15","00:00","-16.7","","-19.8","","77","","","","29","","16","","24.1","","102.39","","","","-25","","Mostly Cloudy"
"-92.11","62.81","RANKIN INLET A","2303405","2022-12-15 01:00","2022","12","15","01:00","-16.7","","-19.7","","77","","","","28","","12","","24.1","","102.48","","","","-24","","NA"
"-92.11","62.81","RANKIN INLET A","2303405","2022-12-15 02:00","2022","12","15","02:00","-17.0","","-20.0","","78","","","","31","","15","","24.1","","102.49","","","","-25","","NA"
"-92.11","62.81","RANKIN INLET A","2303405","2022-12-15 03:00","2022","12","15","03:00","-17.1","","-20.3","","77","","","","33","","14","","24.1","","102.58","","","","-25","","Mostly Cloudy"
"-92.11","62.81","RANKIN INLET A","2303405","2022-12-15 04:00","2022","12","15","04:00","-17.4","","-20.5","","77","","","","34","","11","","24.1","","102.57","","","","-25","","NA"
"-92.11","62.81","RANKIN INLET A","2303405","2022-12-15 05:00","2022","12","15","05:00","-17.5","","-20.7","","76","","","","31","","8","","24.1","","102.65","","","","-23","","NA"
"-92.11","62.81","RANKIN INLET A","2303405","2022-12-15 06:00","2022","12","15","06:00","-17.4","","-20.8","","75","","","","28","","9","","24.1","","102.63","","","","-24","","Cloudy"
"-92.11","62.81","RANKIN INLET A","2303405","2022-12-15 07:00","2022","12","15","07:00","-17.1","","-20.6","","75","","","","33","","7","","24.1","","102.71","","","","-22","","NA"
"-92.11","62.81","RANKIN INLET A","2303405","2022-12-15 08:00","2022","12","15","08:00","-17.0","","-20.5","","75","","","","31","","7","","24.1","","102.68","","","","-22","","NA"
"-92.11","62.81","RANKIN INLET A","2303405","2022-12-15 09:00","2022","12","15","09:00","-16.8","","-20.0","","77","","","","34","","19","","24.1","","102.64","","","","-26","","Cloudy"
"-92.11","62.81","RANKIN INLET A","2303405","2022-12-15 10:00","2022","12","15","10:00","-16.6","","-19.6","","78","","","","36","","11","","24.1","","102.65","","","","-24","","NA"
"-92.11","62.81","RANKIN INLET A","2303405","2022-12-15 11:00","2022","12","15","11:00","-16.4","","-19.2","","79","","","","3","","13","","2.4","","102.60","","","","-24","","Snow"
"-92.11","62.81","RANKIN INLET A","2303405","2022-12-15 12:00","2022","12","15","12:00","-16.1","","-18.3","","84","","","","2","","13","","1.6","","102.55","","","","-24","","Snow"
"-92.11","62.81","RANKIN INLET A","2303405","2022-12-15 13:00","2022","12","15","13:00","-14.9","","-16.7","","87","","","","2","","9","","1.6","","102.56","","","","-21","","Snow"
"-92.11","62.81","RANKIN INLET A","2303405","2022-12-15 14:00","2022","12","15","14:00","-14.3","","-16.2","","86","","","","8","","14","","1.6","","102.54","","","","-22","","Snow"
"-92.11","62.81","RANKIN INLET A","2303405","2022-12-15 15:00","2022","12","15","15:00","-14.4","","-16.2","","87","","","","6","","13","","1.6","","102.52","","","","-22","","Snow"
"-92.11","62.81","RANKIN INLET A","2303405","2022-12-15 16:00","2022","12","15","16:00","-14.5","","-16.5","","85","","","","4","","18","","1.6","","102.44","","","","-23","","Snow"
"-92.11","62.81","RANKIN INLET A","2303405","2022-12-15 17:00","2022","12","15","17:00","-14.5","","-16.3","","86","","","","4","","14","","1.6","","102.39","","","","-22","","Snow"
"-92.11","62.81","RANKIN INLET A","2303405","2022-12-15 18:00","2022","12","15","18:00","-14.2","","-15.8","","88","","","","3","","13","","1.6","","102.34","","","","-21","","Snow"
"-92.11","62.81","RANKIN INLET A","2303405","2022-12-15 19:00","2022","12","15","19:00","-14.3","","-16.1","","86","","","","3","","22","","1.6","","102.28","","","","-24","","Snow"
"-92.11","62.81","RANKIN INLET A","2303405","2022-12-15 20:00","2022","12","15","20:00","-14.7","","-16.5","","86","","","","4","","19","","1.6","","102.20","","","","-24","","Snow"
"-92.11","62.81","RANKIN INLET A","2303405","2022-12-15 21:00","2022","12","15","21:00","-15.0","","-16.8","","87","","","","1","","20","","2.4","","102.09","","","","-24","","Snow"
"-92.11","62.81","RANKIN INLET A","2303405","2022-12-15 22:00","2022","12","15","22:00","-15.1","","-16.9","","86","","","","1","","22","","2.4","","101.97","","","","-25","","Snow,Blowing Snow"
"-92.11","62.81","RANKIN INLET A","2303405","2022-12-15 23:00","2022","12","15","23:00","-14.9","","-16.7","","86","","","","36","","20","","2.4","","101.91","","","","-24","","Snow"
"-92.11","62.81","RANKIN INLET A","2303405","2022-12-16 00:00","2022","12","16","00:00","-15.0","","-16.9","","86","","","","35","","24","","1.6","","101.88","","","","-25","","Snow,Blowing Snow"
"-92.11","62.81","RANKIN INLET A","2303405","2022-12-16 01:00","2022","12","16","01:00","-15.7","","-17.6","","85","","","","36","","32","","1.2","","101.79","","","","-27","","Snow Showers,Blowing Snow"
"-92.11","62.81","RANKIN INLET A","2303405","2022-12-16 02:00","2022","12","16","02:00","-15.9","","-17.9","","85","","","","36","","31","","1.2","","101.75","","","","-27","","Snow Showers,Blowing Snow"
"-92.11","62.81","RANKIN INLET A","2303405","2022-12-16 03:00","2022","12","16","03:00","-16.1","","-18.3","","84","","","","35","","37","","8.1","","101.68","","","","-29","","Snow,Blowing Snow"
"-92.11","62.81","RANKIN INLET A","2303405","2022-12-16 04:00","2022","12","16","04:00","-16.4","","-18.5","","84","","","","35","","41","","4.8","","101.62","","","","-29","","Snow Showers,Blowing Snow"
"-92.11","62.81","RANKIN INLET A","2303405","2022-12-16 05:00","2022","12","16","05:00","-16.4","","-18.6","","84","","","","35","","39","","4.8","","101.57","","","","-29","","Snow Showers,Blowing Snow"
"-92.11","62.81","RANKIN INLET A","2303405","2022-12-16 06:00","2022","12","16","06:00","-16.7","","-18.8","","84","","","","35","","41","","4.8","","101.54","","","","-30","","Snow,Blowing Snow"
"-92.11","62.81","RANKIN INLET A","2303405","2022-12-16 07:00","2022","12","16","07:00","-16.9","","-19.0","","84","","","","35","","39","","4.0","","101.50","","","","-30","","Snow,Blowing Snow"
"-92.11","62.81","RANKIN INLET A","2303405","2022-12-16 08:00","2022","12","16","08:00","-17.2","","-19.3","","84","","","","34","","37","","2.4","","101.49","","","","-30","","Snow,Blowing Snow"
"-92.11","62.81","RANKIN INLET A","2303405","2022-12-16 09:00","2022","12","16","09:00","-17.6","","-19.7","","84","","","","33","","39","","1.6","","101.47","","","","-31","","Snow,Blowing Snow"
"-92.11","62.81","RANKIN INLET A","2303405","2022-12-16 10:00","2022","12","16","10:00","-17.9","","-20.2","","83","","","","34","","45","","1.6","","101.48","","","","-32","","Snow,Blowing Snow"
"-92.11","62.81","RANKIN INLET A","2303405","2022-12-16 11:00","2022","12","16","11:00","-18.7","","-21.0","","82","","","","33","","38","","1.6","","101.42","","","","-32","","Snow,Blowing Snow"
"-92.11","62.81","RANKIN INLET A","2303405","2022-12-16 12:00","2022","12","16","12:00","-19.3","","-21.6","","82","","","","33","","34","","2.4","","101.42","","","","-32","","Snow,Blowing Snow"
"-92.11","62.81","RANKIN INLET A","2303405","2022-12-16 13:00","2022","12","16","13:00","-20.9","","-23.4","","80","","","","33","","39","","2.4","","101.38","","","","-35","","Snow,Blowing Snow"
"-92.11","62.81","RANKIN INLET A","2303405","2022-12-16 14:00","2022","12","16","14:00","-21.8","","-24.4","","80","","","","33","","34","","2.4","","101.40","","","","-36","","Snow,Blowing Snow"
"-92.11","62.81","RANKIN INLET A","2303405","2022-12-16 15:00","2022","12","16","15:00","-22.6","","-25.2","","80","","","","33","","42","","1.6","","101.40","","","","-38","","Snow,Blowing Snow"
"-92.11","62.81","RANKIN INLET A","2303405","2022-12-16 16:00","2022","12","16","16:00","-22.5","","-25.1","","80","","","","33","","43","","1.6","","101.43","","","","-38","","Snow,Blowing Snow"
"-92.11","62.81","RANKIN INLET A","2303405","2022-12-16 17:00","2022","12","16","17:00","-22.7","","-25.2","","80","","","","34","","46","","1.2","","101.42","","","","-39","","Snow,Blowing Snow"
"-92.11","62.81","RANKIN INLET A","2303405","2022-12-16 18:00","2022","12","16","18:00","-22.7","","-25.3","","80","","","","34","","47","","1.2","","101.45","","","","-39","","Snow,Blowing Snow"
"-92.11","62.81","RANKIN INLET A","2303405","2022-12-16 19:00","2022","12","16","19:00","-22.9","","-25.5","","80","","","","33","","48","","1.2","","101.51","","","","-39","","Blowing Snow"
"-92.11","62.81","RANKIN INLET A","2303405","2022-12-16 20:00","2022","12","16","20:00","-23.3","","-25.9","","80","","","","34","","53","","0.8","","101.47","","","","-40","","Blowing Snow"
"-92.11","62.81","RANKIN INLET A","2303405","2022-12-16 21:00","2022","12","16","21:00","-23.9","","-26.6","","79","","","","33","","56","","0.6","","101.53","","","","-41","","Blowing Snow"
"-92.11","62.81","RANKIN INLET A","2303405","2022-12-16 22:00","2022","12","16","22:00","-24.4","","-27.1","","79","","","","34","","55","","0.4","","101.56","","","","-42","","Blowing Snow"
"-92.11","62.81","RANKIN INLET A","2303405","2022-12-16 23:00","2022","12","16","23:00","-24.6","","-27.3","","79","","","","34","","53","","0.4","","101.65","","","","-42","","Blowing Snow"
"-92.11","62.81","RANKIN INLET A","2303405","2022-12-17 00:00","2022","12","17","00:00","-24.8","","-27.5","","78","","","","34","","46","","0.6","","101.72","","","","-41","","Blowing Snow"
"-92.11","62.81","RANKIN INLET A","2303405","2022-12-17 01:00","2022","12","17","01:00","-25.1","","-27.9","","78","","","","34","","50","","0.6","","101.72","","","","-42","","Blowing Snow"
"-92.11","62.81","RANKIN INLET A","2303405","2022-12-17 02:00","2022","12","17","02:00","-25.3","","-28.1","","78","","","","34","","54","","0.4","","101.75","","","","-43","","Ice Crystals,Blowing Snow"
"-92.11","62.81","RANKIN INLET A","2303405","2022-12-17 03:00","2022","12","17","03:00","-25.8","","-28.6","","77","","","","34","","54","","0.4","","101.83","","","","-44","","Ice Crystals,Blowing Snow"
"-92.11","62.81","RANKIN INLET A","2303405","2022-12-17 04:00","2022","12","17","04:00","-26.2","","-29.1","","77","","","","34","","46","","0.8","","101.92","","","","-43","","Ice Crystals,Blowing Snow"
"-92.11","62.81","RANKIN INLET A","2303405","2022-12-17 05:00","2022","12","17","05:00","-26.6","","-29.6","","77","","","","34","","46","","0.8","","101.93","","","","-44","","Ice Crystals,Blowing Snow"
"-92.11","62.81","RANKIN INLET A","2303405","2022-12-17 06:00","2022","12","17","06:00","-27.1","","-30.1","","76","","","","34","","45","","0.8","","102.00","","","","-44","","Ice Crystals,Blowing Snow"
"-92.11","62.81","RANKIN INLET A","2303405","2022-12-17 07:00","2022","12","17","07:00","-27.5","","-30.5","","76","","","","34","","34","","1.2","","102.06","","","","-43","","Ice Crystals,Blowing Snow"
"-92.11","62.81","RANKIN INLET A","2303405","2022-12-17 08:00","2022","12","17","08:00","-28.1","","-31.2","","76","","","","34","","41","","1.2","","102.04","","","","-45","","Ice Crystals,Blowing Snow"
"-92.11","62.81","RANKIN INLET A","2303405","2022-12-17 09:00","2022","12","17","09:00","-28.2","","-31.3","","75","","","","34","","38","","1.2","","102.09","","","","-45","","Ice Crystals,Blowing Snow"
"-92.11","62.81","RANKIN INLET A","2303405","2022-12-17 10:00","2022","12","17","10:00","-28.2","","-31.3","","76","","","","35","","28","","1.6","","102.19","","","","-43","","Ice Crystals,Blowing Snow"
"-92.11","62.81","RANKIN INLET A","2303405","2022-12-17 11:00","2022","12","17","11:00","-28.3","","-31.4","","75","","","","33","","36","","3.2","","102.19","","","","-45","","Ice Crystals,Blowing Snow"
"-92.11","62.81","RANKIN INLET A","2303405","2022-12-17 12:00","2022","12","17","12:00","-27.9","","-31.0","","76","","","","35","","30","","3.2","","102.21","","","","-43","","Ice Crystals,Blowing Snow"
"-92.11","62.81","RANKIN INLET A","2303405","2022-12-17 13:00","2022","12","17","13:00","-28.2","","-31.3","","75","","","","34","","36","","2.4","","102.22","","","","-44","","Ice Crystals,Blowing Snow"
"-92.11","62.81","RANKIN INLET A","2303405","2022-12-17 14:00","2022","12","17","14:00","-28.4","","-31.6","","75","","","","34","","34","","3.2","","102.25","","","","-44","","Ice Crystals,Blowing Snow"
"-92.11","62.81","RANKIN INLET A","2303405","2022-12-17 15:00","2022","12","17","15:00","-28.4","","-31.4","","75","","","","35","","26","","3.2","","102.33","","","","-43","","Ice Crystals,Blowing Snow"
"-92.11","62.81","RANKIN INLET A","2303405","2022-12-17 16:00","2022","12","17","16:00","-28.9","","-32.0","","75","","","","34","","27","","3.2","","102.37","","","","-44","","Ice Crystals,Blowing Snow"
"-92.11","62.81","RANKIN INLET A","2303405","2022-12-17 17:00","2022","12","17","17:00","-29.4","","-32.5","","75","","","","33","","25","","3.2","","102.42","","","","-44","","Ice Crystals,Blowing Snow"
"-92.11","62.81","RANKIN INLET A","2303405","2022-12-17 18:00","2022","12","17","18:00","-28.8","","-31.9","","75","","","","33","","28","","4.8","","102.42","","","","-44","","Ice Crystals,Blowing Snow"
"-92.11","62.81","RANKIN INLET A","2303405","2022-12-17 19:00","2022","12","17","19:00","-30.1","","-33.4","","74","","","","32","","23","","4.8","","102.48","","","","-44","","Ice Crystals,Blowing Snow"
"-92.11","62.81","RANKIN INLET A","2303405","2022-12-17 20:00","2022","12","17","20:00","-30.6","","-33.9","","74","","","","33","","24","","16.1","","102.50","","","","-45","","Ice Crystals,Blowing Snow"
"-92.11","62.81","RANKIN INLET A","2303405","2022-12-17 21:00","2022","12","17","21:00","-31.0","","-34.3","","73","","","","32","","26","","16.1","","102.51","","","","-46","","Ice Crystals,Blowing Snow"
"-92.11","62.81","RANKIN INLET A","2303405","2022-12-17 22:00","2022","12","17","22:00","-30.5","","-33.8","","73","","","","32","","26","","8.1","","102.54","","","","-45","","Snow,Blowing Snow"
"-92.11","62.81","RANKIN INLET A","2303405","2022-12-17 23:00","2022","12","17","23:00","-31.1","","-34.5","","73","","","","32","","26","","16.1","","102.58","","","","-46","","Ice Crystals,Blowing Snow"
"-92.11","62.81","RANKIN INLET A","2303405","2022-12-18 00:00","2022","12","18","00:00","-31.3","","-34.7","","73","","","","33","","27","","16.1","","102.61","","","","-47","","Ice Crystals,Blowing Snow"
"-92.11","62.81","RANKIN INLET A","2303405","2022-12-18 01:00","2022","12","18","01:00","-31.7","","-35.1","","72","","","","32","","26","","16.1","","102.66","","","","-47","","Ice Crystals,Blowing Snow"
"-92.11","62.81","RANKIN INLET A","2303405","2022-12-18 02:00","2022","12","18","02:00","-32.3","","-35.8","","72","","","","32","","21","","16.1","","102.75","","","","-46","","Ice Crystals,Blowing Snow"
"-92.11","62.81","RANKIN INLET A","2303405","2022-12-18 03:00","2022","12","18","03:00","-32.2","","-35.6","","72","","","","32","","22","","24.1","","102.81","","","","-46","","Ice Crystals,Blowing Snow"
"-92.11","62.81","RANKIN INLET A","2303405","2022-12-18 04:00","2022","12","18","04:00","-32.4","","-35.9","","72","","","","32","","17","","24.1","","102.87","","","","-45","","Ice Crystals"
"-92.11","62.81","RANKIN INLET A","2303405","2022-12-18 05:00","2022","12","18","05:00","-32.6","","-36.1","","72","","","","31","","18","","24.1","","102.92","","","","-46","","Ice Crystals"
"-92.11","62.81","RANKIN INLET A","2303405","2022-12-18 06:00","2022","12","18","06:00","-33.3","","-36.8","","72","","","","31","","18","","24.1","","102.93","","","","-47","","Ice Crystals"
"-92.11","62.81","RANKIN INLET A","2303405","2022-12-18 07:00","2022","12","18","07:00","-33.0","","-36.5","","71","","","","29","","22","","24.1","","102.97","","","","-47","","Ice Crystals"
"-92.11","62.81","RANKIN INLET A","2303405","2022-12-18 08:00","2022","12","18","08:00","-32.9","","-36.5","","71","","","","28","","23","","24.1","","103.01","","","","-48","","NA"
"-92.11","62.81","RANKIN INLET A","2303405","2022-12-18 09:00","2022","12","18","09:00","-32.7","","-36.2","","71","","","","27","","18","","24.1","","103.10","","","","-46","","Ice Crystals"
"-92.11","62.81","RANKIN INLET A","2303405","2022-12-18 10:00","2022","12","18","10:00","-33.1","","-36.7","","71","","","","27","","16","","24.1","","103.16","","","","-46","","Ice Crystals"
"-92.11","62.81","RANKIN INLET A","2303405","2022-12-18 11:00","2022","12","18","11:00","-32.7","","-36.3","","71","","","","28","","17","","24.1","","103.17","","","","-45","","Ice Crystals"
"-92.11","62.81","RANKIN INLET A","2303405","2022-12-18 12:00","2022","12","18","12:00","-32.3","","-35.9","","71","","","","28","","22","","24.1","","103.20","","","","-47","","Ice Crystals"
"-92.11","62.81","RANKIN INLET A","2303405","2022-12-18 13:00","2022","12","18","13:00","-32.2","","-35.9","","71","","","","29","","22","","24.1","","103.25","","","","-46","","Ice Crystals"
"-92.11","62.81","RANKIN INLET A","2303405","2022-12-18 14:00","2022","12","18","14:00","-32.5","","-36.3","","70","","","","30","","14","","24.1","","103.38","","","","-44","","Ice Crystals"
"-92.11","62.81","RANKIN INLET A","2303405","2022-12-18 15:00","2022","12","18","15:00","-32.5","","-36.1","","71","","","","29","","18","","24.1","","103.43","","","","-46","","Ice Crystals"
"-92.11","62.81","RANKIN INLET A","2303405","2022-12-18 16:00","2022","12","18","16:00","-32.5","","-36.1","","71","","","","28","","17","","24.1","","103.52","","","","-45","","Ice Crystals"
"-92.11","62.81","RANKIN INLET A","2303405","2022-12-18 17:00","2022","12","18","17:00","-32.7","","-36.4","","70","","","","28","","19","","24.1","","103.58","","","","-46","","Ice Crystals"
"-92.11","62.81","RANKIN INLET A","2303405","2022-12-18 18:00","2022","12","18","18:00","-32.7","","-36.3","","71","","","","31","","20","","24.1","","103.60","","","","-47","","Ice Crystals"
"-92.11","62.81","RANKIN INLET A","2303405","2022-12-18 19:00","2022","12","18","19:00","-32.7","","-36.5","","70","","","","29","","17","","24.1","","103.66","","","","-45","","Ice Crystals"
"-92.11","62.81","RANKIN INLET A","2303405","2022-12-18 20:00","2022","12","18","20:00","-32.9","","-36.5","","71","","","","29","","21","","24.1","","103.67","","","","-47","","Ice Crystals"
"-92.11","62.81","RANKIN INLET A","2303405","2022-12-18 21:00","2022","12","18","21:00","-32.2","","-35.9","","70","","","","30","","22","","24.1","","103.71","","","","-46","","Ice Crystals"
"-92.11","62.81","RANKIN INLET A","2303405","2022-12-18 22:00","2022","12","18","22:00","-32.7","","-36.4","","70","","","","31","","23","","24.1","","103.75","","","","-47","","Ice Crystals"
"-92.11","62.81","RANKIN INLET A","2303405","2022-12-18 23:00","2022","12","18","23:00","-33.1","","-36.9","","70","","","","32","","20","","24.1","","103.83","","","","-47","","Ice Crystals"
"-92.11","62.81","RANKIN INLET A","2303405","2022-12-19 00:00","2022","12","19","00:00","-33.1","","-36.9","","70","","","","28","","10","","24.1","","103.96","","","","-43","","Ice Crystals"
"-92.11","62.81","RANKIN INLET A","2303405","2022-12-19 01:00","2022","12","19","01:00","-33.4","","-37.2","","69","","","","31","","18","","24.1","","103.95","","","","-47","","Ice Crystals"
"-92.11","62.81","RANKIN INLET A","2303405","2022-12-19 02:00","2022","12","19","02:00","-33.9","","-37.6","","70","","","","32","","21","","24.1","","104.02","","","","-48","","Ice Crystals"
"-92.11","62.81","RANKIN INLET A","2303405","2022-12-19 03:00","2022","12","19","03:00","-34.0","","-37.9","","69","","","","31","","18","","24.1","","104.06","","","","-47","","Ice Crystals"
"-92.11","62.81","RANKIN INLET A","2303405","2022-12-19 04:00","2022","12","19","04:00","-34.4","","-38.2","","69","","","","33","","17","","24.1","","104.12","","","","-48","","Ice Crystals"
"-92.11","62.81","RANKIN INLET A","2303405","2022-12-19 05:00","2022","12","19","05:00","-34.2","","-38.1","","69","","","","33","","12","","24.1","","104.14","","","","-45","","Ice Crystals"
"-92.11","62.81","RANKIN INLET A","2303405","2022-12-19 06:00","2022","12","19","06:00","-33.9","","-37.8","","69","","","","34","","10","","24.1","","104.18","","","","-44","","Ice Crystals"
"-92.11","62.81","RANKIN INLET A","2303405","2022-12-19 07:00","2022","12","19","07:00","-34.4","","-38.2","","69","","","","33","","17","","24.1","","104.22","","","","-48","","Ice Crystals"
"-92.11","62.81","RANKIN INLET A","2303405","2022-12-19 08:00","2022","12","19","08:00","-34.3","","-38.1","","69","","","","35","","15","","24.1","","104.24","","","","-47","","Ice Crystals"
"-92.11","62.81","RANKIN INLET A","2303405","2022-12-19 09:00","2022","12","19","09:00","-34.0","","-37.8","","69","","","","34","","20","","24.1","","104.25","","","","-48","","Ice Crystals"
"-92.11","62.81","RANKIN INLET A","2303405","2022-12-19 10:00","2022","12","19","10:00","-34.1","","-38.1","","69","","","","34","","13","","24.1","","104.34","","","","-46","","Ice Crystals"
"-92.11","62.81","RANKIN INLET A","2303405","2022-12-19 11:00","2022","12","19","11:00","-34.3","","-38.2","","69","","","","33","","18","","24.1","","104.37","","","","-48","","Ice Crystals"
"-92.11","62.81","RANKIN INLET A","2303405","2022-12-19 12:00","2022","12","19","12:00","-34.2","","-38.2","","68","","","","34","","16","","24.1","","104.37","","","","-47","","Ice Crystals"
"-92.11","62.81","RANKIN INLET A","2303405","2022-12-19 13:00","2022","12","19","13:00","-33.9","","-37.8","","69","","","","36","","13","","24.1","","104.39","","","","-45","","Ice Crystals"
"-92.11","62.81","RANKIN INLET A","2303405","2022-12-19 14:00","2022","12","19","14:00","-33.9","","-37.7","","69","","","","34","","19","","24.1","","104.42","","","","-48","","Ice Crystals"
"-92.11","62.81","RANKIN INLET A","2303405","2022-12-19 15:00","2022","12","19","15:00","-34.0","","-37.9","","69","","","","36","","17","","24.1","","104.47","","","","-47","","Ice Crystals"
"-92.11","62.81","RANKIN INLET A","2303405","2022-12-19 16:00","2022","12","19","16:00","-34.3","","-38.1","","69","","","","36","","15","","24.1","","104.49","","","","-47","","Ice Crystals"
"-92.11","62.81","RANKIN INLET A","2303405","2022-12-19 17:00","2022","12","19","17:00","-34.3","","-38.1","","69","","","","34","","23","","24.1","","104.49","","","","-49","","Ice Crystals"
"-92.11","62.81","RANKIN INLET A","2303405","2022-12-19 18:00","2022","12","19","18:00","-34.2","","-38.0","","69","","","","34","","25","","24.1","","104.48","","","","-50","","Ice Crystals"
"-92.11","62.81","RANKIN INLET A","2303405","2022-12-19 19:00","2022","12","19","19:00","-33.8","","-37.7","","69","","","","35","","21","","24.1","","104.45","","","","-48","","Ice Crystals"
"-92.11","62.81","RANKIN INLET A","2303405","2022-12-19 20:00","2022","12","19","20:00","-33.5","","-37.3","","70","","","","35","","23","","24.1","","104.42","","","","-48","","Ice Crystals"
"-92.11","62.81","RANKIN INLET A","2303405","2022-12-19 21:00","2022","12","19","21:00","-33.1","","-36.9","","70","","","","35","","24","","24.1","","104.40","","","","-48","","Ice Crystals,Blowing Snow"
"-92.11","62.81","RANKIN INLET A","2303405","2022-12-19 22:00","2022","12","19","22:00","-33.6","","-37.4","","69","","","","34","","25","","24.1","","104.41","","","","-49","","Ice Crystals,Blowing Snow"
"-92.11","62.81","RANKIN INLET A","2303405","2022-12-19 23:00","2022","12","19","23:00","-33.9","","-37.7","","70","","","","35","","25","","24.1","","104.42","","","","-49","","Ice Crystals,Blowing Snow"
"-92.11","62.81","RANKIN INLET A","2303405","2022-12-20 00:00","2022","12","20","00:00","-34.2","","-37.9","","70","","","","35","","21","","24.1","","104.43","","","","-49","","Ice Crystals"
"-92.11","62.81","RANKIN INLET A","2303405","2022-12-20 01:00","2022","12","20","01:00","-33.5","","-37.2","","70","","","","35","","26","","24.1","","104.39","","","","-49","","Ice Crystals"
"-92.11","62.81","RANKIN INLET A","2303405","2022-12-20 02:00","2022","12","20","02:00","-33.3","","-37.0","","70","","","","35","","20","","24.1","","104.41","","","","-47","","Ice Crystals"
"-92.11","62.81","RANKIN INLET A","2303405","2022-12-20 03:00","2022","12","20","03:00","-33.3","","-37.0","","70","","","","35","","23","","24.1","","104.45","","","","-48","","Ice Crystals,Blowing Snow"
"-92.11","62.81","RANKIN INLET A","2303405","2022-12-20 04:00","2022","12","20","04:00","-33.3","","-37.0","","70","","","","36","","21","","24.1","","104.43","","","","-48","","Ice Crystals"
"-92.11","62.81","RANKIN INLET A","2303405","2022-12-20 05:00","2022","12","20","05:00","-33.1","","-36.8","","70","","","","36","","24","","24.1","","104.39","","","","-48","","Ice Crystals,Blowing Snow"
"-92.11","62.81","RANKIN INLET A","2303405","2022-12-20 06:00","2022","12","20","06:00","-32.8","","-36.5","","70","","","","35","","23","","24.1","","104.38","","","","-48","","Ice Crystals,Blowing Snow"
"-92.11","62.81","RANKIN INLET A","2303405","2022-12-20 07:00","2022","12","20","07:00","-32.6","","-36.3","","70","","","","35","","20","","24.1","","104.34","","","","-46","","Ice Crystals"
"-92.11","62.81","RANKIN INLET A","2303405","2022-12-20 08:00","2022","12","20","08:00","-31.9","","-35.6","","71","","","","35","","25","","24.1","","104.29","","","","-47","","Ice Crystals"
"-92.11","62.81","RANKIN INLET A","2303405","2022-12-20 09:00","2022","12","20","09:00","-32.0","","-35.7","","71","","","","36","","23","","24.1","","104.25","","","","-46","","Ice Crystals"
"-92.11","62.81","RANKIN INLET A","2303405","2022-12-20 10:00","2022","12","20","10:00","-32.1","","-35.7","","71","","","","35","","28","","24.1","","104.24","","","","-48","","Ice Crystals"
"-92.11","62.81","RANKIN INLET A","2303405","2022-12-20 11:00","2022","12","20","11:00","-32.1","","-35.7","","71","","","","35","","26","","24.1","","104.17","","","","-47","","Ice Crystals"
"-92.11","62.81","RANKIN INLET A","2303405","2022-12-20 12:00","2022","12","20","12:00","-32.3","","-35.9","","71","","","","35","","30","","8.1","","104.11","","","","-49","","Ice Crystals"
"-92.11","62.81","RANKIN INLET A","2303405","2022-12-20 13:00","2022","12","20","13:00","-32.3","","-35.8","","72","","","","34","","27","","3.2","","104.05","","","","-48","","Ice Crystals,Blowing Snow"
"-92.11","62.81","RANKIN INLET A","2303405","2022-12-20 14:00","2022","12","20","14:00","-32.3","","-35.8","","72","","","","35","","32","","3.2","","103.97","","","","-49","","Ice Crystals,Blowing Snow"
"-92.11","62.81","RANKIN INLET A","2303405","2022-12-20 15:00","2022","12","20","15:00","-32.2","","-35.7","","72","","","","35","","37","","1.2","","103.90","","","","-50","","Ice Crystals,Blowing Snow"
"-92.11","62.81","RANKIN INLET A","2303405","2022-12-20 16:00","2022","12","20","16:00","-32.2","","-35.7","","72","","","","1","","41","","1.2","","103.87","","","","-51","","Ice Crystals,Blowing Snow"
"-92.11","62.81","RANKIN INLET A","2303405","2022-12-20 17:00","2022","12","20","17:00","-32.1","","-35.6","","72","","","","36","","40","","1.2","","103.81","","","","-50","","Ice Crystals,Blowing Snow"
"-92.11","62.81","RANKIN INLET A","2303405","2022-12-20 18:00","2022","12","20","18:00","-32.1","","-35.6","","72","","","","36","","43","","1.2","","103.76","","","","-51","","Ice Crystals,Blowing Snow"
"-92.11","62.81","RANKIN INLET A","2303405","2022-12-20 19:00","2022","12","20","19:00","-32.2","","-35.7","","72","","","","36","","39","","1.2","","103.69","","","","-50","","Ice Crystals,Blowing Snow"
"-92.11","62.81","RANKIN INLET A","2303405","2022-12-20 20:00","2022","12","20","20:00","-32.1","","-35.5","","72","","","","36","","40","","0.8","","103.65","","","","-50","","Ice Crystals,Blowing Snow"
"-92.11","62.81","RANKIN INLET A","2303405","2022-12-20 21:00","2022","12","20","21:00","-32.1","","-35.5","","72","","","","1","","39","","0.6","","103.58","","","","-50","","Ice Crystals,Blowing Snow"
"-92.11","62.81","RANKIN INLET A","2303405","2022-12-20 22:00","2022","12","20","22:00","-32.2","","-35.7","","72","","","","36","","41","","0.6","","103.50","","","","-51","","Ice Crystals,Blowing Snow"
"-92.11","62.81","RANKIN INLET A","2303405","2022-12-20 23:00","2022","12","20","23:00","-32.0","","-35.5","","72","","","","36","","39","","0.6","","103.50","","","","-50","","Ice Crystals,Blowing Snow"
"-92.11","62.81","RANKIN INLET A","2303405","2022-12-21 00:00","2022","12","21","00:00","-32.1","","-35.5","","72","","","","36","","37","","0.8","","103.51","","","","-50","","Ice Crystals,Blowing Snow"
"-92.11","62.81","RANKIN INLET A","2303405","2022-12-21 01:00","2022","12","21","01:00","-32.0","","-35.5","","72","","","","36","","40","","0.8","","103.47","","","","-50","","Ice Crystals,Blowing Snow"
"-92.11","62.81","RANKIN INLET A","2303405","2022-12-21 02:00","2022","12","21","02:00","-32.0","","-35.4","","72","","","","36","","38","","1.2","","103.44","","","","-50","","Ice Crystals,Blowing Snow"
"-92.11","62.81","RANKIN INLET A","2303405","2022-12-21 03:00","2022","12","21","03:00","-31.7","","-35.1","","73","","","","36","","34","","1.0","","103.45","","","","-49","","Ice Crystals,Blowing Snow"
"-92.11","62.81","RANKIN INLET A","2303405","2022-12-21 04:00","2022","12","21","04:00","-31.6","","-35.0","","73","","","","35","","42","","1.6","","103.39","","","","-50","","Ice Crystals,Blowing Snow"
"-92.11","62.81","RANKIN INLET A","2303405","2022-12-21 05:00","2022","12","21","05:00","-31.6","","-35.0","","72","","","","36","","34","","2.4","","103.42","","","","-49","","Ice Crystals,Blowing Snow"
"-92.11","62.81","RANKIN INLET A","2303405","2022-12-21 06:00","2022","12","21","06:00","-31.6","","-35.0","","73","","","","36","","37","","2.4","","103.36","","","","-49","","Ice Crystals,Blowing Snow"
"-92.11","62.81","RANKIN INLET A","2303405","2022-12-21 07:00","2022","12","21","07:00","-31.4","","-34.8","","73","","","","35","","41","","2.4","","103.35","","","","-50","","Ice Crystals,Blowing Snow"
"-92.11","62.81","RANKIN INLET A","2303405","2022-12-21 08:00","2022","12","21","08:00","-30.8","","-34.2","","73","","","","36","","37","","2.4","","103.33","","","","-48","","Ice Crystals,Blowing Snow"
"-92.11","62.81","RANKIN INLET A","2303405","2022-12-21 09:00","2022","12","21","09:00","-29.9","","-33.3","","73","","","","36","","37","","2.4","","103.32","","","","-47","","Ice Crystals,Blowing Snow"
"-92.11","62.81","RANKIN INLET A","2303405","2022-12-21 10:00","2022","12","21","10:00","-29.8","","-33.1","","73","","","","36","","30","","3.2","","103.35","","","","-45","","Ice Crystals,Blowing Snow"
"-92.11","62.81","RANKIN INLET A","2303405","2022-12-21 11:00","2022","12","21","11:00","-29.4","","-32.8","","73","","","","36","","39","","4.8","","103.27","","","","-47","","Ice Crystals,Blowing Snow"
"-92.11","62.81","RANKIN INLET A","2303405","2022-12-21 12:00","2022","12","21","12:00","-29.1","","-32.5","","73","","","","36","","31","","4.8","","103.29","","","","-45","","Ice Crystals,Blowing Snow"
"-92.11","62.81","RANKIN INLET A","2303405","2022-12-21 13:00","2022","12","21","13:00","-29.3","","-32.7","","73","","","","35","","34","","4.8","","103.26","","","","-46","","Ice Crystals,Blowing Snow"
"-92.11","62.81","RANKIN INLET A","2303405","2022-12-21 14:00","2022","12","21","14:00","-28.9","","-32.2","","73","","","","35","","31","","4.8","","103.25","","","","-44","","Ice Crystals,Blowing Snow"
"-92.11","62.81","RANKIN INLET A","2303405","2022-12-21 15:00","2022","12","21","15:00","-28.5","","-31.9","","73","","","","35","","35","","8.1","","103.25","","","","-45","","Ice Crystals,Blowing Snow"
"-92.11","62.81","RANKIN INLET A","2303405","2022-12-21 16:00","2022","12","21","16:00","-28.5","","-31.8","","74","","","","35","","37","","8.1","","103.25","","","","-45","","Ice Crystals,Blowing Snow"
"-92.11","62.81","RANKIN INLET A","2303405","2022-12-21 17:00","2022","12","21","17:00","-28.3","","-31.5","","74","","","","36","","41","","4.8","","103.23","","","","-45","","Ice Crystals,Blowing Snow"
"-92.11","62.81","RANKIN INLET A","2303405","2022-12-21 18:00","2022","12","21","18:00","-28.1","","-31.4","","74","","","","36","","39","","4.8","","103.25","","","","-45","","Ice Crystals,Blowing Snow"
"-92.11","62.81","RANKIN INLET A","2303405","2022-12-21 19:00","2022","12","21","19:00","-27.9","","-31.2","","74","","","","36","","35","","4.8","","103.24","","","","-44","","Ice Crystals,Blowing Snow"
"-92.11","62.81","RANKIN INLET A","2303405","2022-12-21 20:00","2022","12","21","20:00","-28.0","","-31.4","","74","","","","36","","33","","8.1","","103.25","","","","-44","","Ice Crystals,Blowing Snow"
"-92.11","62.81","RANKIN INLET A","2303405","2022-12-21 21:00","2022","12","21","21:00","-28.9","","-32.2","","74","","","","35","","33","","12.9","","103.21","","","","-45","","Ice Crystals,Blowing Snow"
"-92.11","62.81","RANKIN INLET A","2303405","2022-12-21 22:00","2022","12","21","22:00","-28.9","","-32.1","","74","","","","35","","34","","16.1","","103.18","","","","-45","","Ice Crystals,Blowing Snow"
"-92.11","62.81","RANKIN INLET A","2303405","2022-12-21 23:00","2022","12","21","23:00","-28.5","","-31.8","","74","","","","35","","36","","12.9","","103.16","","","","-45","","Ice Crystals,Blowing Snow"
"-92.11","62.81","RANKIN INLET A","2303405","2022-12-22 00:00","2022","12","22","00:00","-28.4","","-31.6","","74","","","","35","","35","","16.1","","103.16","","","","-45","","Ice Crystals,Blowing Snow"
"-92.11","62.81","RANKIN INLET A","2303405","2022-12-22 01:00","2022","12","22","01:00","-28.4","","-31.6","","74","","","","35","","34","","16.1","","103.11","","","","-44","","Ice Crystals,Blowing Snow"
"-92.11","62.81","RANKIN INLET A","2303405","2022-12-22 02:00","2022","12","22","02:00","-27.8","","-31.0","","75","","","","35","","35","","9.7","","103.09","","","","-44","","Ice Crystals,Blowing Snow"
"-92.11","62.81","RANKIN INLET A","2303405","2022-12-22 03:00","2022","12","22","03:00","-27.5","","-30.7","","75","","","","36","","34","","9.7","","103.08","","","","-43","","Ice Crystals,Blowing Snow"
"-92.11","62.81","RANKIN INLET A","2303405","2022-12-22 04:00","2022","12","22","04:00","-27.2","","-30.4","","75","","","","36","","36","","9.7","","103.07","","","","-43","","Ice Crystals,Blowing Snow"
"-92.11","62.81","RANKIN INLET A","2303405","2022-12-22 05:00","2022","12","22","05:00","-26.9","","-30.0","","75","","","","36","","39","","9.7","","103.03","","","","-43","","Ice Crystals,Blowing Snow"
"-92.11","62.81","RANKIN INLET A","2303405","2022-12-22 06:00","2022","12","22","06:00","-26.7","","-29.7","","76","","","","35","","42","","6.4","","103.00","","","","-43","","Ice Crystals,Blowing Snow"
"-92.11","62.81","RANKIN INLET A","2303405","2022-12-22 07:00","2022","12","22","07:00","-26.5","","-29.6","","75","","","","36","","39","","6.4","","103.01","","","","-43","","Ice Crystals,Blowing Snow"
"-92.11","62.81","RANKIN INLET A","2303405","2022-12-22 08:00","2022","12","22","08:00","-25.9","","-29.0","","76","","","","36","","43","","6.4","","102.93","","","","-42","","Snow,Blowing Snow"
"-92.11","62.81","RANKIN INLET A","2303405","2022-12-22 09:00","2022","12","22","09:00","-25.9","","-28.9","","76","","","","35","","38","","4.8","","102.92","","","","-42","","Snow,Blowing Snow"
"-92.11","62.81","RANKIN INLET A","2303405","2022-12-22 10:00","2022","12","22","10:00","-25.7","","-28.7","","77","","","","36","","46","","2.4","","102.83","","","","-43","","Snow,Blowing Snow"
"-92.11","62.81","RANKIN INLET A","2303405","2022-12-22 11:00","2022","12","22","11:00","-24.8","","-27.8","","77","","","","36","","31","","3.2","","102.87","","","","-39","","Snow,Blowing Snow"
"-92.11","62.81","RANKIN INLET A","2303405","2022-12-22 12:00","2022","12","22","12:00","-23.6","","-26.6","","77","","","","36","","35","","3.2","","102.81","","","","-38","","Snow,Blowing Snow"
"-92.11","62.81","RANKIN INLET A","2303405","2022-12-22 13:00","2022","12","22","13:00","-22.8","","-25.6","","78","","","","36","","31","","2.0","","102.80","","","","-36","","Snow,Blowing Snow"
"-92.11","62.81","RANKIN INLET A","2303405","2022-12-22 14:00","2022","12","22","14:00","-22.3","","-25.1","","78","","","","36","","30","","4.8","","102.78","","","","-36","","Snow,Blowing Snow"
"-92.11","62.81","RANKIN INLET A","2303405","2022-12-22 15:00","2022","12","22","15:00","-22.0","","-24.7","","79","","","","36","","43","","3.2","","102.74","","","","-37","","Snow,Blowing Snow"
"-92.11","62.81","RANKIN INLET A","2303405","2022-12-22 16:00","2022","12","22","16:00","-21.3","","-23.9","","80","","","","36","","36","","2.4","","102.72","","","","-35","","Snow,Blowing Snow"
"-92.11","62.81","RANKIN INLET A","2303405","2022-12-22 17:00","2022","12","22","17:00","-20.5","","-22.9","","81","","","","36","","30","","2.4","","102.74","","","","-33","","Snow,Blowing Snow"
"-92.11","62.81","RANKIN INLET A","2303405","2022-12-22 18:00","2022","12","22","18:00","-19.6","","-22.1","","81","","","","1","","35","","2.4","","102.72","","","","-33","","Snow,Blowing Snow"
"-92.11","62.81","RANKIN INLET A","2303405","2022-12-22 19:00","2022","12","22","19:00","-19.5","","-21.9","","82","","","","2","","27","","1.6","","102.72","","","","-31","","Snow,Blowing Snow"
"-92.11","62.81","RANKIN INLET A","2303405","2022-12-22 20:00","2022","12","22","20:00","-19.6","","-22.0","","82","","","","36","","29","","1.6","","102.69","","","","-32","","Snow,Blowing Snow"
"-92.11","62.81","RANKIN INLET A","2303405","2022-12-22 21:00","2022","12","22","21:00","-19.6","","-22.0","","81","","","","36","","29","","6.4","","102.65","","","","-32","","Snow,Blowing Snow"
"-92.11","62.81","RANKIN INLET A","2303405","2022-12-22 22:00","2022","12","22","22:00","-19.2","","-21.7","","81","","","","36","","30","","6.4","","102.64","","","","-32","","Snow,Blowing Snow"
"-92.11","62.81","RANKIN INLET A","2303405","2022-12-22 23:00","2022","12","22","23:00","-19.5","","-21.9","","81","","","","36","","33","","6.4","","102.65","","","","-32","","Snow,Blowing Snow"
"-92.11","62.81","RANKIN INLET A","2303405","2022-12-23 00:00","2022","12","23","00:00","-19.3","","-21.7","","82","","","","2","","34","","8.1","","102.64","","","","-32","","Snow,Blowing Snow"
"-92.11","62.81","RANKIN INLET A","2303405","2022-12-23 01:00","2022","12","23","01:00","-19.1","","-21.5","","81","","","","1","","35","","8.1","","102.62","","","","-32","","Snow,Blowing Snow"
"-92.11","62.81","RANKIN INLET A","2303405","2022-12-23 02:00","2022","12","23","02:00","-19.0","","-21.6","","81","","","","1","","37","","6.4","","102.62","","","","-32","","Snow,Blowing Snow"
"-92.11","62.81","RANKIN INLET A","2303405","2022-12-23 03:00","2022","12","23","03:00","-19.0","","-21.4","","82","","","","1","","35","","6.4","","102.62","","","","-32","","Snow,Blowing Snow"
"-92.11","62.81","RANKIN INLET A","2303405","2022-12-23 04:00","2022","12","23","04:00","-18.8","","-21.1","","82","","","","1","","30","","6.4","","102.64","","","","-31","","Snow,Blowing Snow"
"-92.11","62.81","RANKIN INLET A","2303405","2022-12-23 05:00","2022","12","23","05:00","-18.8","","-21.0","","83","","","","36","","26","","2.4","","102.62","","","","-30","","Snow,Blowing Snow"
"-92.11","62.81","RANKIN INLET A","2303405","2022-12-23 06:00","2022","12","23","06:00","-18.9","","-21.3","","82","","","","36","","30","","8.1","","102.64","","","","-31","","Snow,Blowing Snow"
"-92.11","62.81","RANKIN INLET A","2303405","2022-12-23 07:00","2022","12","23","07:00","-18.6","","-20.9","","82","","","","1","","29","","6.4","","102.64","","","","-31","","Snow,Blowing Snow"
"-92.11","62.81","RANKIN INLET A","2303405","2022-12-23 08:00","2022","12","23","08:00","-18.3","","-20.7","","82","","","","1","","27","","6.4","","102.65","","","","-30","","Snow,Blowing Snow"
"-92.11","62.81","RANKIN INLET A","2303405","2022-12-23 09:00","2022","12","23","09:00","-18.1","","-20.4","","82","","","","36","","20","","6.4","","102.66","","","","-28","","Snow,Blowing Snow"
"-92.11","62.81","RANKIN INLET A","2303405","2022-12-23 10:00","2022","12","23","10:00","-18.2","","-20.8","","80","","","","35","","18","","6.4","","102.70","","","","-28","","Snow,Blowing Snow"
"-92.11","62.81","RANKIN INLET A","2303405","2022-12-23 11:00","2022","12","23","11:00","-17.6","","-20.0","","82","","","","1","","22","","3.2","","102.69","","","","-28","","Snow,Blowing Snow"
"-92.11","62.81","RANKIN INLET A","2303405","2022-12-23 12:00","2022","12","23","12:00","-16.8","","-19.1","","83","","","","2","","17","","1.6","","102.68","","","","-26","","Snow,Blowing Snow"
"-92.11","62.81","RANKIN INLET A","2303405","2022-12-23 13:00","2022","12","23","13:00","-16.2","","-18.2","","84","","","","3","","17","","1.6","","102.69","","","","-25","","Snow,Blowing Snow"
"-92.11","62.81","RANKIN INLET A","2303405","2022-12-23 14:00","2022","12","23","14:00","-15.6","","-17.6","","85","","","","6","","11","","3.2","","102.70","","","","-22","","Snow,Blowing Snow"
"-92.11","62.81","RANKIN INLET A","2303405","2022-12-23 15:00","2022","12","23","15:00","-15.4","","-17.4","","85","","","","6","","10","","3.2","","102.74","","","","-22","","Snow,Blowing Snow"
"-92.11","62.81","RANKIN INLET A","2303405","2022-12-23 16:00","2022","12","23","16:00","-15.6","","-17.5","","85","","","","8","","8","","3.2","","102.76","","","","-21","","Snow,Blowing Snow"
"-92.11","62.81","RANKIN INLET A","2303405","2022-12-23 17:00","2022","12","23","17:00","-15.4","","-17.1","","87","","","","9","","8","","3.2","","102.77","","","","-21","","Snow,Blowing Snow"
"-92.11","62.81","RANKIN INLET A","2303405","2022-12-23 18:00","2022","12","23","18:00","-15.9","","-17.4","","88","","","","8","","9","","3.2","","102.78","","","","-22","","Snow,Blowing Snow"
"-92.11","62.81","RANKIN INLET A","2303405","2022-12-23 19:00","2022","12","23","19:00","-15.8","","-17.6","","86","","","","7","","8","","3.2","","102.79","","","","-21","","Snow,Blowing Snow"
"-92.11","62.81","RANKIN INLET A","2303405","2022-12-23 20:00","2022","12","23","20:00","-15.8","","-17.7","","86","","","","7","","9","","3.2","","102.79","","","","-22","","Snow,Blowing Snow"
"-92.11","62.81","RANKIN INLET A","2303405","2022-12-23 21:00","2022","12","23","21:00","-16.8","","-18.7","","86","","","","8","","8","","8.1","","102.78","","","","-22","","Snow"
"-92.11","62.81","RANKIN INLET A","2303405","2022-12-23 22:00","2022","12","23","22:00","-16.8","","-18.7","","85","","","","5","","6","","8.1","","102.77","","","","-21","","Snow"
"-92.11","62.81","RANKIN INLET A","2303405","2022-12-23 23:00","2022","12","23","23:00","-18.1","","-20.2","","84","","","","3","","10","","9.7","","102.77","","","","-25","","Snow"
"-92.11","62.81","RANKIN INLET A","2303405","2022-12-24 00:00","2022","12","24","00:00","-17.4","","-19.1","","86","","","","6","","10","","9.7","","102.77","","","","-24","","Snow"
"-92.11","62.81","RANKIN INLET A","2303405","2022-12-24 01:00","2022","12","24","01:00","-17.9","","-19.9","","85","","","","6","","10","","9.7","","102.76","","","","-25","","Snow"
"-92.11","62.81","RANKIN INLET A","2303405","2022-12-24 02:00","2022","12","24","02:00","-18.5","","-20.5","","84","","","","5","","9","","8.1","","102.78","","","","-25","","Snow"
"-92.11","62.81","RANKIN INLET A","2303405","2022-12-24 03:00","2022","12","24","03:00","-17.7","","-19.8","","84","","","","5","","12","","6.4","","102.78","","","","-25","","Snow"
"-92.11","62.81","RANKIN INLET A","2303405","2022-12-24 04:00","2022","12","24","04:00","-18.2","","-20.4","","84","","","","5","","8","","9.7","","102.82","","","","-24","","Snow"
"-92.11","62.81","RANKIN INLET A","2303405","2022-12-24 05:00","2022","12","24","05:00","-18.3","","-20.4","","84","","","","3","","8","","8.1","","102.76","","","","-24","","Snow"
"-92.11","62.81","RANKIN INLET A","2303405","2022-12-24 06:00","2022","12","24","06:00","-18.9","","-21.2","","83","","","","36","","16","","12.9","","102.72","","","","-28","","Snow"
"-92.11","62.81","RANKIN INLET A","2303405","2022-12-24 07:00","2022","12","24","07:00","-20.7","","-23.1","","81","","","","35","","19","","12.9","","102.68","","","","-31","","Snow"
"-92.11","62.81","RANKIN INLET A","2303405","2022-12-24 08:00","2022","12","24","08:00","-20.9","","-23.3","","81","","","","35","","21","","8.1","","102.71","","","","-32","","Snow,Blowing Snow"
"-92.11","62.81","RANKIN INLET A","2303405","2022-12-24 09:00","2022","12","24","09:00","-20.3","","-22.6","","82","","","","34","","20","","6.4","","102.70","","","","-31","","Snow,Blowing Snow"
"-92.11","62.81","RANKIN INLET A","2303405","2022-12-24 10:00","2022","12","24","10:00","-20.5","","-22.9","","81","","","","35","","28","","3.2","","102.66","","","","-33","","Snow,Blowing Snow"
"-92.11","62.81","RANKIN INLET A","2303405","2022-12-24 11:00","2022","12","24","11:00","-20.9","","-23.4","","81","","","","34","","25","","3.2","","102.61","","","","-33","","Snow,Blowing Snow"
"-92.11","62.81","RANKIN INLET A","2303405","2022-12-24 12:00","2022","12","24","12:00","-20.8","","-23.3","","81","","","","35","","28","","3.2","","102.56","","","","-33","","Snow,Blowing Snow"
"-92.11","62.81","RANKIN INLET A","2303405","2022-12-24 13:00","2022","12","24","13:00","-20.3","","-22.6","","82","","","","34","","26","","1.6","","102.51","","","","-32","","Snow,Blowing Snow"
"-92.11","62.81","RANKIN INLET A","2303405","2022-12-24 14:00","2022","12","24","14:00","-19.3","","-21.6","","83","","","","36","","27","","3.2","","102.44","","","","-31","","Snow,Blowing Snow"
"-92.11","62.81","RANKIN INLET A","2303405","2022-12-24 15:00","2022","12","24","15:00","-19.1","","-21.4","","82","","","","36","","29","","3.2","","102.37","","","","-31","","Snow,Blowing Snow"
"-92.11","62.81","RANKIN INLET A","2303405","2022-12-24 16:00","2022","12","24","16:00","-18.3","","-20.5","","83","","","","35","","26","","1.6","","102.35","","","","-30","","Snow,Blowing Snow"
"-92.11","62.81","RANKIN INLET A","2303405","2022-12-24 17:00","2022","12","24","17:00","-17.5","","-19.6","","84","","","","36","","27","","1.6","","102.30","","","","-29","","Snow,Blowing Snow"
"-92.11","62.81","RANKIN INLET A","2303405","2022-12-24 18:00","2022","12","24","18:00","-17.2","","-19.2","","84","","","","36","","28","","1.6","","102.24","","","","-29","","Snow,Blowing Snow"
"-92.11","62.81","RANKIN INLET A","2303405","2022-12-24 19:00","2022","12","24","19:00","-16.9","","-19.0","","84","","","","36","","26","","3.2","","102.18","","","","-28","","Snow,Blowing Snow"
"-92.11","62.81","RANKIN INLET A","2303405","2022-12-24 20:00","2022","12","24","20:00","-16.8","","-18.9","","84","","","","1","","26","","3.2","","102.15","","","","-28","","Snow,Blowing Snow"
"-92.11","62.81","RANKIN INLET A","2303405","2022-12-24 21:00","2022","12","24","21:00","-17.0","","-19.1","","84","","","","36","","24","","3.2","","102.10","","","","-28","","Snow,Blowing Snow"
"-92.11","62.81","RANKIN INLET A","2303405","2022-12-24 22:00","2022","12","24","22:00","-17.2","","-19.4","","83","","","","36","","27","","4.8","","101.99","","","","-28","","Snow,Blowing Snow"
"-92.11","62.81","RANKIN INLET A","2303405","2022-12-24 23:00","2022","12","24","23:00","-19.1","","-21.4","","82","","","","35","","30","","6.4","","101.86","","","","-31","","Snow,Blowing Snow"
"-92.11","62.81","RANKIN INLET A","2303405","2022-12-25 00:00","2022","12","25","00:00","-19.7","","-22.0","","82","","","","35","","34","","6.4","","101.84","","","","-33","","Snow,Blowing Snow"
"-92.11","62.81","RANKIN INLET A","2303405","2022-12-25 01:00","2022","12","25","01:00","-20.4","","-22.8","","81","","","","35","","37","","3.2","","101.75","","","","-34","","Snow,Blowing Snow"
"-92.11","62.81","RANKIN INLET A","2303405","2022-12-25 02:00","2022","12","25","02:00","-20.8","","-23.2","","81","","","","35","","38","","6.4","","101.64","","","","-35","","Snow,Blowing Snow"
"-92.11","62.81","RANKIN INLET A","2303405","2022-12-25 03:00","2022","12","25","03:00","-21.4","","-23.9","","81","","","","34","","35","","4.8","","101.58","","","","-35","","Snow,Blowing Snow"
"-92.11","62.81","RANKIN INLET A","2303405","2022-12-25 04:00","2022","12","25","04:00","-21.7","","-24.3","","80","","","","34","","35","","3.2","","101.52","","","","-36","","Snow,Blowing Snow"
"-92.11","62.81","RANKIN INLET A","2303405","2022-12-25 05:00","2022","12","25","05:00","-22.8","","-25.5","","79","","","","34","","37","","2.4","","101.46","","","","-37","","Snow,Blowing Snow"
"-92.11","62.81","RANKIN INLET A","2303405","2022-12-25 06:00","2022","12","25","06:00","-23.2","","-25.8","","79","","","","34","","36","","2.4","","101.45","","","","-38","","Snow,Blowing Snow"
"-92.11","62.81","RANKIN INLET A","2303405","2022-12-25 07:00","2022","12","25","07:00","-23.2","","-25.9","","79","","","","34","","33","","3.2","","101.40","","","","-37","","Snow,Blowing Snow"
"-92.11","62.81","RANKIN INLET A","2303405","2022-12-25 08:00","2022","12","25","08:00","-23.7","","-26.4","","79","","","","34","","40","","2.4","","101.33","","","","-39","","Snow,Blowing Snow"
"-92.11","62.81","RANKIN INLET A","2303405","2022-12-25 09:00","2022","12","25","09:00","-23.7","","-26.4","","79","","","","34","","38","","2.4","","101.25","","","","-39","","Snow,Blowing Snow"
"-92.11","62.81","RANKIN INLET A","2303405","2022-12-25 10:00","2022","12","25","10:00","-23.1","","-25.8","","79","","","","35","","41","","1.6","","101.18","","","","-38","","Snow,Blowing Snow"
"-92.11","62.81","RANKIN INLET A","2303405","2022-12-25 11:00","2022","12","25","11:00","-22.3","","-24.8","","80","","","","34","","37","","1.6","","101.13","","","","-37","","Snow,Blowing Snow"
"-92.11","62.81","RANKIN INLET A","2303405","2022-12-25 12:00","2022","12","25","12:00","-21.6","","-24.1","","81","","","","34","","40","","2.4","","101.02","","","","-36","","Snow,Blowing Snow"
"-92.11","62.81","RANKIN INLET A","2303405","2022-12-25 13:00","2022","12","25","13:00","-20.1","","-22.5","","82","","","","34","","37","","1.2","","101.00","","","","-34","","Snow,Blowing Snow"
"-92.11","62.81","RANKIN INLET A","2303405","2022-12-25 14:00","2022","12","25","14:00","-18.8","","-21.0","","83","","","","34","","35","","1.2","","100.99","","","","-32","","Snow,Blowing Snow"
"-92.11","62.81","RANKIN INLET A","2303405","2022-12-25 15:00","2022","12","25","15:00","-17.9","","-20.0","","84","","","","34","","35","","2.4","","100.94","","","","-31","","Snow,Blowing Snow"
"-92.11","62.81","RANKIN INLET A","2303405","2022-12-25 16:00","2022","12","25","16:00","-17.0","","-19.1","","84","","","","35","","34","","2.4","","100.95","","","","-29","","Snow,Blowing Snow"
"-92.11","62.81","RANKIN INLET A","2303405","2022-12-25 17:00","2022","12","25","17:00","-16.6","","-18.8","","83","","","","35","","33","","3.2","","100.94","","","","-29","","Snow,Blowing Snow"
"-92.11","62.81","RANKIN INLET A","2303405","2022-12-25 18:00","2022","12","25","18:00","-16.5","","-18.6","","84","","","","35","","37","","3.2","","100.89","","","","-29","","Snow,Blowing Snow"
"-92.11","62.81","RANKIN INLET A","2303405","2022-12-25 19:00","2022","12","25","19:00","-16.3","","-18.4","","84","","","","35","","40","","2.4","","100.85","","","","-29","","Snow,Blowing Snow"
"-92.11","62.81","RANKIN INLET A","2303405","2022-12-25 20:00","2022","12","25","20:00","-16.2","","-18.3","","84","","","","35","","37","","2.4","","100.79","","","","-29","","Snow,Blowing Snow"
"-92.11","62.81","RANKIN INLET A","2303405","2022-12-25 21:00","2022","12","25","21:00","-16.0","","-18.2","","83","","","","36","","35","","4.8","","100.78","","","","-28","","Snow,Blowing Snow"
"-92.11","62.81","RANKIN INLET A","2303405","2022-12-25 22:00","2022","12","25","22:00","-15.9","","-18.1","","84","","","","36","","37","","4.8","","100.69","","","","-28","","Snow,Blowing Snow"
"-92.11","62.81","RANKIN INLET A","2303405","2022-12-25 23:00","2022","12","25","23:00","-15.5","","-17.6","","84","","","","1","","43","","2.4","","100.63","","","","-28","","Snow,Blowing Snow"
"-92.11","62.81","RANKIN INLET A","2303405","2022-12-26 00:00","2022","12","26","00:00","-15.6","","-17.7","","84","","","","1","","42","","3.2","","100.59","","","","-29","","Snow,Blowing Snow"
"-92.11","62.81","RANKIN INLET A","2303405","2022-12-26 01:00","2022","12","26","01:00","-15.9","","-18.1","","84","","","","2","","40","","3.2","","100.58","","","","-29","","Snow,Blowing Snow"
"-92.11","62.81","RANKIN INLET A","2303405","2022-12-26 02:00","2022","12","26","02:00","-16.0","","-18.1","","84","","","","2","","33","","4.8","","100.63","","","","-28","","Ice Crystals,Blowing Snow"
"-92.11","62.81","RANKIN INLET A","2303405","2022-12-26 03:00","2022","12","26","03:00","-16.1","","-18.3","","84","","","","36","","34","","4.8","","100.57","","","","-28","","Ice Crystals,Blowing Snow"
"-92.11","62.81","RANKIN INLET A","2303405","2022-12-26 04:00","2022","12","26","04:00","-16.3","","-18.5","","84","","","","36","","36","","4.8","","100.54","","","","-29","","Ice Crystals,Blowing Snow"
"-92.11","62.81","RANKIN INLET A","2303405","2022-12-26 05:00","2022","12","26","05:00","-16.6","","-18.9","","83","","","","36","","37","","4.8","","100.54","","","","-29","","Ice Crystals,Blowing Snow"
"-92.11","62.81","RANKIN INLET A","2303405","2022-12-26 06:00","2022","12","26","06:00","-16.7","","-18.9","","83","","","","36","","35","","4.8","","100.59","","","","-29","","Ice Crystals,Blowing Snow"
"-92.11","62.81","RANKIN INLET A","2303405","2022-12-26 07:00","2022","12","26","07:00","-17.0","","-19.2","","83","","","","36","","35","","4.8","","100.55","","","","-29","","Ice Crystals,Blowing Snow"
"-92.11","62.81","RANKIN INLET A","2303405","2022-12-26 08:00","2022","12","26","08:00","-17.2","","-19.4","","84","","","","36","","32","","4.8","","100.56","","","","-29","","Ice Crystals,Blowing Snow"
"-92.11","62.81","RANKIN INLET A","2303405","2022-12-26 09:00","2022","12","26","09:00","-17.6","","-19.8","","83","","","","36","","33","","4.8","","100.52","","","","-30","","Ice Crystals,Blowing Snow"
"-92.11","62.81","RANKIN INLET A","2303405","2022-12-26 10:00","2022","12","26","10:00","-17.8","","-20.0","","83","","","","36","","33","","4.8","","100.50","","","","-30","","Ice Crystals,Blowing Snow"
"-92.11","62.81","RANKIN INLET A","2303405","2022-12-26 11:00","2022","12","26","11:00","-17.6","","-19.9","","83","","","","36","","36","","8.1","","100.49","","","","-30","","Ice Crystals,Blowing Snow"
"-92.11","62.81","RANKIN INLET A","2303405","2022-12-26 12:00","2022","12","26","12:00","-18.1","","-20.4","","83","","","","35","","40","","8.1","","100.44","","","","-32","","Ice Crystals,Blowing Snow"
"-92.11","62.81","RANKIN INLET A","2303405","2022-12-26 13:00","2022","12","26","13:00","-18.3","","-20.7","","82","","","","36","","40","","8.1","","100.50","","","","-32","","Ice Crystals,Blowing Snow"
"-92.11","62.81","RANKIN INLET A","2303405","2022-12-26 14:00","2022","12","26","14:00","-19.3","","-21.6","","82","","","","36","","36","","6.4","","100.51","","","","-33","","Ice Crystals,Blowing Snow"
"-92.11","62.81","RANKIN INLET A","2303405","2022-12-26 15:00","2022","12","26","15:00","-19.6","","-22.0","","82","","","","35","","44","","6.4","","100.51","","","","-34","","Ice Crystals,Blowing Snow"
"-92.11","62.81","RANKIN INLET A","2303405","2022-12-26 16:00","2022","12","26","16:00","-20.0","","-22.5","","81","","","","34","","42","","4.8","","100.57","","","","-34","","Ice Crystals,Blowing Snow"
"-92.11","62.81","RANKIN INLET A","2303405","2022-12-26 17:00","2022","12","26","17:00","-19.7","","-22.2","","81","","","","36","","45","","6.4","","100.58","","","","-34","","Ice Crystals,Blowing Snow"
"-92.11","62.81","RANKIN INLET A","2303405","2022-12-26 18:00","2022","12","26","18:00","-19.8","","-22.4","","80","","","","36","","41","","6.4","","100.56","","","","-34","","Ice Crystals,Blowing Snow"
"-92.11","62.81","RANKIN INLET A","2303405","2022-12-26 19:00","2022","12","26","19:00","-19.8","","-22.4","","80","","","","36","","39","","6.4","","100.56","","","","-34","","Snow,Blowing Snow"
"-92.11","62.81","RANKIN INLET A","2303405","2022-12-26 20:00","2022","12","26","20:00","-20.1","","-22.8","","79","","","","36","","27","","12.9","","100.57","","","","-32","","Blowing Snow"
"-92.11","62.81","RANKIN INLET A","2303405","2022-12-26 21:00","2022","12","26","21:00","-20.2","","-22.9","","79","","","","36","","27","","24.1","","100.56","","","","-32","","Blowing Snow"
"-92.11","62.81","RANKIN INLET A","2303405","2022-12-26 22:00","2022","12","26","22:00","-20.4","","-23.2","","79","","","","35","","32","","24.1","","100.54","","","","-33","","Blowing Snow"
"-92.11","62.81","RANKIN INLET A","2303405","2022-12-26 23:00","2022","12","26","23:00","-20.5","","-23.2","","79","","","","36","","29","","24.1","","100.57","","","","-33","","Blowing Snow"
"-92.11","62.81","RANKIN INLET A","2303405","2022-12-27 00:00","2022","12","27","00:00","-20.5","","-23.3","","79","","","","35","","21","","24.1","","100.56","","","","-31","","Blowing Snow"
"-92.11","62.81","RANKIN INLET A","2303405","2022-12-27 01:00","2022","12","27","01:00","-20.5","","-23.3","","79","","","","35","","26","","24.1","","100.56","","","","-32","","Snow,Blowing Snow"
"-92.11","62.81","RANKIN INLET A","2303405","2022-12-27 02:00","2022","12","27","02:00","-21.5","","-24.2","","79","","","","34","","27","","24.1","","100.58","","","","-34","","Blowing Snow"
"-92.11","62.81","RANKIN INLET A","2303405","2022-12-27 03:00","2022","12","27","03:00","-21.7","","-24.4","","79","","","","35","","27","","24.1","","100.55","","","","-34","","Blowing Snow"
"-92.11","62.81","RANKIN INLET A","2303405","2022-12-27 04:00","2022","12","27","04:00","-22.9","","-25.6","","79","","","","35","","29","","24.1","","100.57","","","","-36","","Blowing Snow"
"-92.11","62.81","RANKIN INLET A","2303405","2022-12-27 05:00","2022","12","27","05:00","-22.8","","-25.6","","79","","","","35","","32","","24.1","","100.59","","","","-37","","Blowing Snow"
"-92.11","62.81","RANKIN INLET A","2303405","2022-12-27 06:00","2022","12","27","06:00","-22.3","","-25.2","","78","","","","36","","26","","24.1","","100.62","","","","-35","","Blowing Snow"
"-92.11","62.81","RANKIN INLET A","2303405","2022-12-27 07:00","2022","12","27","07:00","-22.3","","-25.2","","78","","","","36","","24","","24.1","","100.60","","","","-34","","Blowing Snow"
"-92.11","62.81","RANKIN INLET A","2303405","2022-12-27 08:00","2022","12","27","08:00","-22.6","","-25.6","","77","","","","34","","20","","24.1","","100.61","","","","-34","","NA"
"-92.11","62.81","RANKIN INLET A","2303405","2022-12-27 09:00","2022","12","27","09:00","-23.4","","-26.4","","77","","","","35","","19","","24.1","","100.61","","","","-34","","Mostly Cloudy"
"-92.11","62.81","RANKIN INLET A","2303405","2022-12-27 10:00","2022","12","27","10:00","-23.5","","-26.4","","77","","","","36","","21","","24.1","","100.63","","","","-35","","NA"
"-92.11","62.81","RANKIN INLET A","2303405","2022-12-27 11:00","2022","12","27","11:00","-24.5","","-27.5","","76","","","","34","","21","","24.1","","100.67","","","","-36","","NA"
"-92.11","62.81","RANKIN INLET A","2303405","2022-12-27 12:00","2022","12","27","12:00","-24.9","","-27.8","","77","","","","35","","25","","24.1","","100.64","","","","-38","","Blowing Snow"
"-92.11","62.81","RANKIN INLET A","2303405","2022-12-27 13:00","2022","12","27","13:00","-25.0","","-28.0","","77","","","","35","","25","","24.1","","100.66","","","","-38","","Blowing Snow"
"-92.11","62.81","RANKIN INLET A","2303405","2022-12-27 14:00","2022","12","27","14:00","-25.7","","-28.7","","77","","","","34","","25","","24.1","","100.71","","","","-39","","Blowing Snow"
"-92.11","62.81","RANKIN INLET A","2303405","2022-12-27 15:00","2022","12","27","15:00","-26.5","","-29.5","","76","","","","34","","23","","24.1","","100.72","","","","-39","","Mainly Clear"
"-92.11","62.81","RANKIN INLET A","2303405","2022-12-27 16:00","2022","12","27","16:00","-27.1","","-30.1","","76","","","","35","","23","","24.1","","100.79","","","","-40","","NA"
"-92.11","62.81","RANKIN INLET A","2303405","2022-12-27 17:00","2022","12","27","17:00","-27.3","","-30.4","","76","","","","34","","25","","24.1","","100.84","","","","-41","","Blowing Snow"
"-92.11","62.81","RANKIN INLET A","2303405","2022-12-27 18:00","2022","12","27","18:00","-27.6","","-30.6","","76","","","","34","","21","","24.1","","100.86","","","","-40","","Blowing Snow"
"-92.11","62.81","RANKIN INLET A","2303405","2022-12-27 19:00","2022","12","27","19:00","-27.7","","-30.9","","75","","","","34","","24","","24.1","","100.88","","","","-41","","Blowing Snow"
"-92.11","62.81","RANKIN INLET A","2303405","2022-12-27 20:00","2022","12","27","20:00","-28.1","","-31.3","","75","","","","35","","26","","24.1","","100.94","","","","-42","","Blowing Snow"
"-92.11","62.81","RANKIN INLET A","2303405","2022-12-27 21:00","2022","12","27","21:00","-28.1","","-31.2","","75","","","","36","","22","","24.1","","100.89","","","","-41","","Blowing Snow"
"-92.11","62.81","RANKIN INLET A","2303405","2022-12-27 22:00","2022","12","27","22:00","-28.7","","-31.9","","75","","","","35","","30","","24.1","","100.97","","","","-44","","Blowing Snow"
"-92.11","62.81","RANKIN INLET A","2303405","2022-12-27 23:00","2022","12","27","23:00","-29.0","","-32.2","","74","","","","36","","31","","24.1","","101.00","","","","-45","","NA"
"-92.11","62.81","RANKIN INLET A","2303405","2022-12-28 00:00","2022","12","28","00:00","-29.1","","-32.4","","74","","","","35","","32","","24.1","","101.02","","","","-45","","Clear"
"-92.11","62.81","RANKIN INLET A","2303405","2022-12-28 01:00","2022","12","28","01:00","-29.6","","-32.9","","74","","","","35","","23","","24.1","","101.07","","","","-43","","NA"
"-92.11","62.81","RANKIN INLET A","2303405","2022-12-28 02:00","2022","12","28","02:00","-30.0","","-33.2","","74","","","","1","","24","","24.1","","101.09","","","","-44","","NA"
"-92.11","62.81","RANKIN INLET A","2303405","2022-12-28 03:00","2022","12","28","03:00","-30.2","","-33.5","","73","","","","35","","22","","24.1","","101.16","","","","-44","","Clear"
"-92.11","62.81","RANKIN INLET A","2303405","2022-12-28 04:00","2022","12","28","04:00","-30.4","","-33.8","","73","","","","36","","25","","24.1","","101.22","","","","-45","","NA"
"-92.11","62.81","RANKIN INLET A","2303405","2022-12-28 05:00","2022","12","28","05:00","-30.7","","-34.0","","73","","","","2","","16","","24.1","","101.27","","","","-43","","NA"
"-92.11","62.81","RANKIN INLET A","2303405","2022-12-28 06:00","2022","12","28","06:00","-30.8","","-34.2","","73","","","","36","","27","","24.1","","101.27","","","","-46","","Clear"
"-92.11","62.81","RANKIN INLET A","2303405","2022-12-28 07:00","2022","12","28","07:00","-30.6","","-33.9","","74","","","","1","","19","","24.1","","101.28","","","","-44","","NA"
"-92.11","62.81","RANKIN INLET A","2303405","2022-12-28 08:00","2022","12","28","08:00","-31.0","","-34.3","","73","","","","36","","23","","24.1","","101.34","","","","-45","","NA"
"-92.11","62.81","RANKIN INLET A","2303405","2022-12-28 09:00","2022","12","28","09:00","-30.7","","-34.0","","73","","","","35","","27","","24.1","","101.42","","","","-46","","Blowing Snow"
"-92.11","62.81","RANKIN INLET A","2303405","2022-12-28 10:00","2022","12","28","10:00","-30.9","","-34.3","","73","","","","35","","24","","16.1","","101.51","","","","-45","","Blowing Snow"
"-92.11","62.81","RANKIN INLET A","2303405","2022-12-28 11:00","2022","12","28","11:00","-30.9","","-34.3","","73","","","","36","","17","","16.1","","101.52","","","","-43","","Blowing Snow"
"-92.11","62.81","RANKIN INLET A","2303405","2022-12-28 12:00","2022","12","28","12:00","-29.4","","-32.7","","74","","","","36","","14","","24.1","","101.54","","","","-40","","Mostly Cloudy"
"-92.11","62.81","RANKIN INLET A","2303405","2022-12-28 13:00","2022","12","28","13:00","-28.4","","-31.6","","75","","","","34","","13","","24.1","","101.58","","","","-39","","NA"
"-92.11","62.81","RANKIN INLET A","2303405","2022-12-28 14:00","2022","12","28","14:00","-29.1","","-32.3","","74","","","","36","","19","","24.1","","101.60","","","","-42","","NA"
"-92.11","62.81","RANKIN INLET A","2303405","2022-12-28 15:00","2022","12","28","15:00","-29.0","","-32.1","","75","","","","35","","10","","24.1","","101.67","","","","-38","","Mainly Clear"
"-92.11","62.81","RANKIN INLET A","2303405","2022-12-28 16:00","2022","12","28","16:00","-28.8","","-31.9","","75","","","","36","","12","","24.1","","101.68","","","","-39","","NA"
"-92.11","62.81","RANKIN INLET A","2303405","2022-12-28 17:00","2022","12","28","17:00","-28.8","","-32.0","","75","","","","1","","10","","24.1","","101.77","","","","-38","","NA"
"-92.11","62.81","RANKIN INLET A","2303405","2022-12-28 18:00","2022","12","28","18:00","-28.8","","-31.9","","76","","","","36","","10","","24.1","","101.79","","","","-38","","Mainly Clear"
"-92.11","62.81","RANKIN INLET A","2303405","2022-12-28 19:00","2022","12","28","19:00","-27.6","","-30.6","","76","","","","36","","8","","24.1","","101.82","","","","-35","","NA"
"-92.11","62.81","RANKIN INLET A","2303405","2022-12-28 20:00","2022","12","28","20:00","-27.5","","-30.6","","75","","","","2","","10","","24.1","","101.79","","","","-36","","NA"
"-92.11","62.81","RANKIN INLET A","2303405","2022-12-28 21:00","2022","12","28","21:00","-26.9","","-30.1","","75","","","","1","","8","","24.1","","101.82","","","","-34","","Clear"
"-92.11","62.81","RANKIN INLET A","2303405","2022-12-28 22:00","2022","12","28","22:00","-26.8","","-30.6","","71","","","","2","","9","","24.1","","101.85","","","","-35","","NA"
"-92.11","62.81","RANKIN INLET A","2303405","2022-12-28 23:00","2022","12","28","23:00","-26.9","","-30.7","","71","","","","3","","10","","24.1","","101.86","","","","-35","","NA"
"-92.11","62.81","RANKIN INLET A","2303405","2022-12-29 00:00","2022","12","29","00:00","-25.5","","-28.7","","75","","","","7","","8","","24.1","","101.88","","","","-33","","Mainly Clear"
"-92.11","62.81","RANKIN INLET A","2303405","2022-12-29 01:00","2022","12","29","01:00","-25.7","","-28.6","","77","","","","5","","8","","24.1","","101.88","","","","-33","","NA"
"-92.11","62.81","RANKIN INLET A","2303405","2022-12-29 02:00","2022","12","29","02:00","-28.4","","-31.5","","76","","","","35","","13","","24.1","","101.96","","","","-39","","NA"
"-92.11","62.81","RANKIN INLET A","2303405","2022-12-29 03:00","2022","12","29","03:00","-28.7","","-31.8","","75","","","","2","","11","","24.1","","101.96","","","","-38","","Mainly Clear"
"-92.11","62.81","RANKIN INLET A","2303405","2022-12-29 04:00","2022","12","29","04:00","-25.5","","-28.2","","79","","","","6","","10","","24.1","","101.96","","","","-34","","NA"
"-92.11","62.81","RANKIN INLET A","2303405","2022-12-29 05:00","2022","12","29","05:00","-26.0","","-28.3","","81","","","","6","","9","","24.1","","101.95","","","","-34","","NA"
"-92.11","62.81","RANKIN INLET A","2303405","2022-12-29 06:00","2022","12","29","06:00","-25.3","","-27.7","","81","","","","7","","8","","24.1","","101.96","","","","-32","","Mainly Clear"
"-92.11","62.81","RANKIN INLET A","2303405","2022-12-29 07:00","2022","12","29","07:00","-23.6","","-25.7","","83","","","","6","","9","","11.3","","101.95","","","","-31","","Fog"
"-92.11","62.81","RANKIN INLET A","2303405","2022-12-29 08:00","2022","12","29","08:00","-22.2","","-24.5","","82","","","","6","","10","","1.6","","101.96","","","","-30","","Ice Crystals,Fog"
"-92.11","62.81","RANKIN INLET A","2303405","2022-12-29 09:00","2022","12","29","09:00","-21.8","","-24.2","","81","","","","6","","9","","3.2","","101.93","","","","-29","","Ice Crystals,Fog"
"-92.11","62.81","RANKIN INLET A","2303405","2022-12-29 10:00","2022","12","29","10:00","-20.9","","-23.3","","82","","","","7","","11","","9.7","","101.92","","","","-29","","Ice Crystals,Fog"
"-92.11","62.81","RANKIN INLET A","2303405","2022-12-29 11:00","2022","12","29","11:00","-20.5","","-22.8","","82","","","","8","","14","","9.7","","101.90","","","","-29","","Ice Crystals,Fog"
"-92.11","62.81","RANKIN INLET A","2303405","2022-12-29 12:00","2022","12","29","12:00","-20.4","","-22.7","","82","","","","7","","13","","9.7","","101.86","","","","-29","","Ice Crystals,Fog"
"-92.11","62.81","RANKIN INLET A","2303405","2022-12-29 13:00","2022","12","29","13:00","-20.3","","-22.6","","82","","","","6","","15","","9.7","","101.86","","","","-29","","Ice Crystals,Fog"
"-92.11","62.81","RANKIN INLET A","2303405","2022-12-29 14:00","2022","12","29","14:00","-20.3","","-22.6","","82","","","","6","","12","","9.7","","101.87","","","","-28","","Ice Crystals,Fog"
"-92.11","62.81","RANKIN INLET A","2303405","2022-12-29 15:00","2022","12","29","15:00","-19.7","","-22.0","","83","","","","7","","16","","9.7","","101.86","","","","-29","","Ice Crystals,Fog"
"-92.11","62.81","RANKIN INLET A","2303405","2022-12-29 16:00","2022","12","29","16:00","-19.8","","-22.1","","82","","","","8","","18","","9.7","","101.84","","","","-30","","Ice Crystals,Fog"
"-92.11","62.81","RANKIN INLET A","2303405","2022-12-29 17:00","2022","12","29","17:00","-19.6","","-21.9","","83","","","","7","","12","","9.7","","101.82","","","","-28","","Ice Crystals,Fog"
"-92.11","62.81","RANKIN INLET A","2303405","2022-12-29 18:00","2022","12","29","18:00","-19.5","","-21.7","","83","","","","7","","15","","16.1","","101.79","","","","-28","","Ice Crystals"
"-92.11","62.81","RANKIN INLET A","2303405","2022-12-29 19:00","2022","12","29","19:00","-19.4","","-21.6","","83","","","","6","","14","","16.1","","101.74","","","","-28","","Ice Crystals"
"-92.11","62.81","RANKIN INLET A","2303405","2022-12-29 20:00","2022","12","29","20:00","-19.1","","-21.3","","83","","","","4","","9","","16.1","","101.73","","","","-26","","Ice Crystals"
"-92.11","62.81","RANKIN INLET A","2303405","2022-12-29 21:00","2022","12","29","21:00","-17.2","","-19.2","","85","","","","9","","11","","4.8","","101.68","","","","-24","","Ice Crystals,Fog"
"-92.11","62.81","RANKIN INLET A","2303405","2022-12-29 22:00","2022","12","29","22:00","-16.4","","-18.3","","85","","","","10","","8","","9.7","","101.65","","","","-22","","Ice Crystals"
"-92.11","62.81","RANKIN INLET A","2303405","2022-12-29 23:00","2022","12","29","23:00","-16.2","","-18.1","","86","","","","11","","13","","9.7","","101.61","","","","-24","","Ice Crystals"
"-92.11","62.81","RANKIN INLET A","2303405","2022-12-30 00:00","2022","12","30","00:00","-15.8","","-17.7","","86","","","","8","","8","","9.7","","101.59","","","","-21","","Ice Crystals"
"-92.11","62.81","RANKIN INLET A","2303405","2022-12-30 01:00","2022","12","30","01:00","-15.6","","-17.4","","86","","","","9","","8","","16.1","","101.53","","","","-21","","Ice Crystals"
"-92.11","62.81","RANKIN INLET A","2303405","2022-12-30 02:00","2022","12","30","02:00","-14.5","","-16.1","","88","","","","14","","13","","24.1","","101.51","","","","-22","","Ice Crystals"
"-92.11","62.81","RANKIN INLET A","2303405","2022-12-30 03:00","2022","12","30","03:00","-14.1","","-15.7","","87","","","","15","","18","","24.1","","101.47","","","","-23","","Ice Crystals"
"-92.11","62.81","RANKIN INLET A","2303405","2022-12-30 04:00","2022","12","30","04:00","-14.7","","-16.5","","87","","","","9","","7","","24.1","","101.44","","","","-19","","Snow"
"-92.11","62.81","RANKIN INLET A","2303405","2022-12-30 05:00","2022","12","30","05:00","-14.8","","-16.5","","87","","","","11","","8","","9.7","","101.39","","","","-20","","Snow"
"-92.11","62.81","RANKIN INLET A","2303405","2022-12-30 06:00","2022","12","30","06:00","-14.4","","-16.0","","87","","","","14","","8","","16.1","","101.31","","","","-20","","Snow"
"-92.11","62.81","RANKIN INLET A","2303405","2022-12-30 07:00","2022","12","30","07:00","-14.4","","-16.1","","87","","","","11","","6","","24.1","","101.25","","","","-19","","Snow"
"-92.11","62.81","RANKIN INLET A","2303405","2022-12-30 08:00","2022","12","30","08:00","-14.3","","-16.0","","87","","","","7","","10","","24.1","","101.20","","","","-20","","Snow"
"-92.11","62.81","RANKIN INLET A","2303405","2022-12-30 09:00","2022","12","30","09:00","-14.2","","-15.9","","87","","","","6","","9","","24.1","","101.16","","","","-20","","Snow"
"-92.11","62.81","RANKIN INLET A","2303405","2022-12-30 10:00","2022","12","30","10:00","-14.1","","-15.8","","87","","","","7","","8","","16.1","","101.13","","","","-19","","Snow"
"-92.11","62.81","RANKIN INLET A","2303405","2022-12-30 11:00","2022","12","30","11:00","-14.2","","-15.8","","88","","","","8","","10","","6.4","","101.10","","","","-20","","Snow,Fog"
"-92.11","62.81","RANKIN INLET A","2303405","2022-12-30 12:00","2022","12","30","12:00","-14.2","","-15.8","","88","","","","7","","8","","6.4","","101.06","","","","-19","","Snow,Fog"
"-92.11","62.81","RANKIN INLET A","2303405","2022-12-30 13:00","2022","12","30","13:00","-14.0","","-15.6","","88","","","","6","","10","","8.1","","100.99","","","","-20","","Snow,Fog"
"-92.11","62.81","RANKIN INLET A","2303405","2022-12-30 14:00","2022","12","30","14:00","-13.8","","-15.3","","88","","","","6","","9","","12.9","","100.97","","","","-19","","Snow"
"-92.11","62.81","RANKIN INLET A","2303405","2022-12-30 15:00","2022","12","30","15:00","-13.7","","-15.2","","88","","","","7","","13","","6.4","","100.95","","","","-21","","Snow"
"-92.11","62.81","RANKIN INLET A","2303405","2022-12-30 16:00","2022","12","30","16:00","-13.6","","-15.1","","88","","","","7","","13","","8.1","","100.93","","","","-21","","Snow,Fog"
"-92.11","62.81","RANKIN INLET A","2303405","2022-12-30 17:00","2022","12","30","17:00","-13.6","","-15.1","","88","","","","8","","15","","6.4","","100.90","","","","-21","","Snow,Fog"
"-92.11","62.81","RANKIN INLET A","2303405","2022-12-30 18:00","2022","12","30","18:00","-13.7","","-15.3","","88","","","","9","","18","","8.1","","100.89","","","","-22","","Snow"
"-92.11","62.81","RANKIN INLET A","2303405","2022-12-30 19:00","2022","12","30","19:00","-13.9","","-15.5","","88","","","","9","","17","","12.9","","100.87","","","","-22","","Snow"
"-92.11","62.81","RANKIN INLET A","2303405","2022-12-30 20:00","2022","12","30","20:00","-14.2","","-15.9","","88","","","","9","","15","","16.1","","100.85","","","","-22","","Snow"
"-92.11","62.81","RANKIN INLET A","2303405","2022-12-30 21:00","2022","12","30","21:00","-14.7","","-16.4","","87","","","","9","","14","","16.1","","100.83","","","","-22","","Snow"
"-92.11","62.81","RANKIN INLET A","2303405","2022-12-30 22:00","2022","12","30","22:00","-15.0","","-16.7","","87","","","","8","","12","","24.1","","100.79","","","","-22","","Snow"
"-92.11","62.81","RANKIN INLET A","2303405","2022-12-30 23:00","2022","12","30","23:00","-15.0","","-16.7","","87","","","","9","","12","","24.1","","100.79","","","","-22","","Snow"
"-92.11","62.81","RANKIN INLET A","2303405","2022-12-31 00:00","2022","12","31","00:00","-15.3","","-17.1","","87","","","","8","","11","","24.1","","100.80","","","","-22","","Snow"
"-92.11","62.81","RANKIN INLET A","2303405","2022-12-31 01:00","2022","12","31","01:00","-15.5","","-17.3","","86","","","","8","","11","","24.1","","100.80","","","","-22","","Snow"
"-92.11","62.81","RANKIN INLET A","2303405","2022-12-31 02:00","2022","12","31","02:00","-15.5","","-17.3","","86","","","","8","","10","","24.1","","100.79","","","","-22","","Snow"
"-92.11","62.81","RANKIN INLET A","2303405","2022-12-31 03:00","2022","12","31","03:00","-15.2","","-17.0","","87","","","","7","","8","","24.1","","100.78","","","","-21","","Cloudy"
"-92.11","62.81","RANKIN INLET A","2303405","2022-12-31 04:00","2022","12","31","04:00","-15.0","","-16.7","","87","","","","7","","6","","24.1","","100.79","","","","-19","","Snow"
"-92.11","62.81","RANKIN INLET A","2303405","2022-12-31 05:00","2022","12","31","05:00","-15.4","","-17.2","","86","","","","6","","5","","24.1","","100.78","","","","-19","","Snow"
"-92.11","62.81","RANKIN INLET A","2303405","2022-12-31 06:00","2022","12","31","06:00","-15.4","","-17.2","","87","","","","4","","7","","24.1","","100.76","","","","-20","","Snow"
"-92.11","62.81","RANKIN INLET A","2303405","2022-12-31 07:00","2022","12","31","07:00","-15.5","","-17.2","","86","","","","3","","7","","24.1","","100.73","","","","-20","","Snow"
"-92.11","62.81","RANKIN INLET A","2303405","2022-12-31 08:00","2022","12","31","08:00","-15.2","","-16.9","","87","","","","4","","5","","24.1","","100.70","","","","-19","","Snow"
"-92.11","62.81","RANKIN INLET A","2303405","2022-12-31 09:00","2022","12","31","09:00","-15.0","","-16.7","","87","","","","6","","7","","12.9","","100.70","","","","-20","","Snow"
"-92.11","62.81","RANKIN INLET A","2303405","2022-12-31 10:00","2022","12","31","10:00","-15.3","","-17.0","","87","","","","4","","8","","12.9","","100.71","","","","-21","","Snow"
"-92.11","62.81","RANKIN INLET A","2303405","2022-12-31 11:00","2022","12","31","11:00","-14.2","","-15.8","","87","","","","9","","10","","12.9","","100.74","","","","-20","","Snow"
"-92.11","62.81","RANKIN INLET A","2303405","2022-12-31 12:00","2022","12","31","12:00","-14.0","","-15.6","","88","","","","9","","11","","12.9","","100.71","","","","-20","","Snow"
"-92.11","62.81","RANKIN INLET A","2303405","2022-12-31 13:00","2022","12","31","13:00","-14.2","","-15.8","","88","","","","9","","12","","12.9","","100.70","","","","-21","","Snow"
"-92.11","62.81","RANKIN INLET A","2303405","2022-12-31 14:00","2022","12","31","14:00","-14.2","","-15.8","","88","","","","11","","12","","16.1","","100.68","","","","-21","","Snow"
"-92.11","62.81","RANKIN INLET A","2303405","2022-12-31 15:00","2022","12","31","15:00","-14.3","","-16.0","","87","","","","10","","8","","1.2","","100.68","","","","-20","","Snow,Snow Showers,Fog"
"-92.11","62.81","RANKIN INLET A","2303405","2022-12-31 16:00","2022","12","31","16:00","-14.2","","-15.9","","88","","","","9","","10","","6.4","","100.67","","","","-20","","Snow"
"-92.11","62.81","RANKIN INLET A","2303405","2022-12-31 17:00","2022","12","31","17:00","-14.4","","-16.1","","87","","","","8","","8","","6.4","","100.69","","","","-20","","Snow"
"-92.11","62.81","RANKIN INLET A","2303405","2022-12-31 18:00","2022","12","31","18:00","-14.4","","-16.1","","87","","","","9","","9","","8.1","","100.70","","","","-20","","Snow"
"-92.11","62.81","RANKIN INLET A","2303405","2022-12-31 19:00","2022","12","31","19:00","-14.5","","-16.1","","87","","","","8","","11","","4.8","","100.65","","","","-21","","Snow"
"-92.11","62.81","RANKIN INLET A","2303405","2022-12-31 20:00","2022","12","31","20:00","-14.8","","-16.5","","87","","","","9","","9","","6.4","","100.62","","","","-21","","Snow"
"-92.11","62.81","RANKIN INLET A","2303405","2022-12-31 21:00","2022","12","31","21:00","-15.7","","-17.4","","86","","","","10","","11","","16.1","","100.59","","","","-22","","Snow"
"-92.11","62.81","RANKIN INLET A","2303405","2022-12-31 22:00","2022","12","31","22:00","-16.5","","-18.4","","86","","","","9","","10","","9.7","","100.58","","","","-23","","Snow"
"-92.11","62.81","RANKIN INLET A","2303405","2022-12-31 23:00","2022","12","31","23:00","-16.1","","-17.9","","86","","","","11","","9","","16.1","","100.56","","","","-22","","Snow"
