"Longitude (x)","Latitude (y)","Station Name","Climate ID","Date/Time (LST)","Year","Month","Day","Time (LST)","Temp (°C)","Temp Flag","Dew Point Temp (°C)","Dew Point Temp Flag","Rel Hum (%)","Rel Hum Flag","Precip. Amount (mm)","Precip. Amount Flag","Wind Dir (10s deg)","Wind Dir Flag","Wind Spd (km/h)","Wind Spd Flag","Visibility (km)","Visibility Flag","Stn Press (kPa)","Stn Press Flag","Hmdx","Hmdx Flag","Wind Chill","Wind Chill Flag","Weather"
"-59.96","43.93","SABLE ISLAND A","8204703","2018-07-01 00:00","2018","07","01","00:00","12.9","","12.8","","99","","0.0","","12","","17","","1.0","","101.66","","","","","","Rain,Fog"
"-59.96","43.93","SABLE ISLAND A","8204703","2018-07-01 01:00","2018","07","01","01:00","13.2","","13.1","","99","","0.0","","11","","13","","0.4","","101.63","","","","","","Rain,Fog"
"-59.96","43.93","SABLE ISLAND A","8204703","2018-07-01 02:00","2018","07","01","02:00","13.6","","13.5","","99","","0.0","","10","","13","","1.2","","101.62","","","","","","Fog"
"-59.96","43.93","SABLE ISLAND A","8204703","2018-07-01 03:00","2018","07","01","03:00","13.4","","13.3","","99","","0.2","","5","","8","","0.4","","101.60","","","","","","Rain,Fog"
"-59.96","43.93","SABLE ISLAND A","8204703","2018-07-01 04:00","2018","07","01","04:00","15.0","","14.9","","99","","0.2","","11","","5","","0.6","","101.61","","","","","","Rain,Fog"
"-59.96","43.93","SABLE ISLAND A","8204703","2018-07-01 05:00","2018","07","01","05:00","14.3","","14.2","","99","","0.0","","11","","8","","0.0","","101.60","","","","","","Rain,Fog"
"-59.96","43.93","SABLE ISLAND A","8204703","2018-07-01 06:00","2018","07","01","06:00","14.7","","14.6","","99","","0.0","","13","","5","","0.0","","101.63","","","","","","Rain,Fog"
"-59.96","43.93","SABLE ISLAND A","8204703","2018-07-01 07:00","2018","07","01","07:00","14.6","","14.5","","99","","0.0","","19","","8","","0.0","","101.65","","","","","","Rain,Fog"
"-59.96","43.93","SABLE ISLAND A","8204703","2018-07-01 08:00","2018","07","01","08:00","15.1","","15.0","","99","","0.0","","21","","5","","0.0","","101.73","","","","","","Fog"
"-59.96","43.93","SABLE ISLAND A","8204703","2018-07-01 09:00","2018","07","01","09:00","16.4","","16.3","","99","","0.0","","20","","8","","0.0","","101.72","","","","","","Fog"
"-59.96","43.93","SABLE ISLAND A","8204703","2018-07-01 10:00","2018","07","01","10:00","16.3","","16.2","","99","","0.0","","20","","11","","0.4","","101.71","","","","","","Fog"
"-59.96","43.93","SABLE ISLAND A","8204703","2018-07-01 11:00","2018","07","01","11:00","17.3","","16.7","","96","","0.0","","31","","8","","2.0","","101.76","","","","","","Fog"
"-59.96","43.93","SABLE ISLAND A","8204703","2018-07-01 12:00","2018","07","01","12:00","17.2","","15.5","","90","","0.0","","35","","11","","3.2","","101.79","","","","","","Fog"
"-59.96","43.93","SABLE ISLAND A","8204703","2018-07-01 13:00","2018","07","01","13:00","17.6","","15.5","","87","","0.0","","36","","11","","2.8","","101.74","","","","","","Fog"
"-59.96","43.93","SABLE ISLAND A","8204703","2018-07-01 14:00","2018","07","01","14:00","17.8","","16.3","","91","","0.0","","3","","5","","4.0","","101.83","","","","","","Fog"
"-59.96","43.93","SABLE ISLAND A","8204703","2018-07-01 15:00","2018","07","01","15:00","17.0","","15.3","","89","","0.0","","34","","13","","2.4","","101.70","","","","","","Fog"
"-59.96","43.93","SABLE ISLAND A","8204703","2018-07-01 16:00","2018","07","01","16:00","18.8","","17.7","","93","","0.0","","","M","4","","6.4","","101.85","","","","","","Fog"
"-59.96","43.93","SABLE ISLAND A","8204703","2018-07-01 17:00","2018","07","01","17:00","17.4","","16.1","","92","","0.0","","33","","4","","4.0","","101.72","","","","","","Fog"
"-59.96","43.93","SABLE ISLAND A","8204703","2018-07-01 18:00","2018","07","01","18:00","16.2","","15.9","","98","","0.0","","36","","5","","0.4","","101.73","","","","","","Fog"
"-59.96","43.93","SABLE ISLAND A","8204703","2018-07-01 19:00","2018","07","01","19:00","15.2","","15.1","","99","","0.0","","32","","4","","0.2","","101.73","","","","","","Fog"
"-59.96","43.93","SABLE ISLAND A","8204703","2018-07-01 20:00","2018","07","01","20:00","14.2","","14.1","","99","","0.0","","33","","8","","0.6","","101.76","","","","","","Fog"
"-59.96","43.93","SABLE ISLAND A","8204703","2018-07-01 21:00","2018","07","01","21:00","14.3","","14.2","","99","","0.0","","32","","5","","2.0","","101.85","","","","","","Fog"
"-59.96","43.93","SABLE ISLAND A","8204703","2018-07-01 22:00","2018","07","01","22:00","14.2","","14.1","","99","","0.0","","29","","4","","12.9","","101.89","","","","","","NA"
"-59.96","43.93","SABLE ISLAND A","8204703","2018-07-01 23:00","2018","07","01","23:00","14.3","","14.2","","99","","0.0","","25","","5","","4.0","","101.93","","","","","","Fog"
"-59.96","43.93","SABLE ISLAND A","8204703","2018-07-02 00:00","2018","07","02","00:00","13.7","","13.4","","98","","0.0","","24","","9","","2.0","","101.95","","","","","","Fog"
"-59.96","43.93","SABLE ISLAND A","8204703","2018-07-02 01:00","2018","07","02","01:00","14.4","","14.1","","98","","0.0","","27","","9","","12.9","","102.00","","","","","","NA"
"-59.96","43.93","SABLE ISLAND A","8204703","2018-07-02 02:00","2018","07","02","02:00","13.9","","13.6","","98","","0.0","","29","","15","","9.7","","101.97","","","","","","Fog"
"-59.96","43.93","SABLE ISLAND A","8204703","2018-07-02 03:00","2018","07","02","03:00","13.6","","13.3","","98","","0.0","","29","","9","","9.7","","101.99","","","","","","Fog"
"-59.96","43.93","SABLE ISLAND A","8204703","2018-07-02 04:00","2018","07","02","04:00","13.4","","13.3","","99","","0.0","","28","","9","","6.4","","102.03","","","","","","Fog"
"-59.96","43.93","SABLE ISLAND A","8204703","2018-07-02 05:00","2018","07","02","05:00","13.0","","12.9","","99","","0.0","","26","","8","","1.0","","102.07","","","","","","Fog"
"-59.96","43.93","SABLE ISLAND A","8204703","2018-07-02 06:00","2018","07","02","06:00","12.7","","12.4","","98","","0.0","","32","","13","","14.5","","102.11","","","","","","NA"
"-59.96","43.93","SABLE ISLAND A","8204703","2018-07-02 07:00","2018","07","02","07:00","12.9","","11.5","","91","","0.0","","1","","8","","16.1","","102.18","","","","","","NA"
"-59.96","43.93","SABLE ISLAND A","8204703","2018-07-02 08:00","2018","07","02","08:00","13.2","","11.3","","88","","0.0","","35","","13","","16.1","","102.15","","","","","","NA"
"-59.96","43.93","SABLE ISLAND A","8204703","2018-07-02 09:00","2018","07","02","09:00","13.3","","10.9","","85","","0.0","","1","","13","","16.1","","102.22","","","","","","NA"
"-59.96","43.93","SABLE ISLAND A","8204703","2018-07-02 10:00","2018","07","02","10:00","13.2","","10.7","","85","","0.0","","2","","11","","16.1","","102.26","","","","","","NA"
"-59.96","43.93","SABLE ISLAND A","8204703","2018-07-02 11:00","2018","07","02","11:00","14.4","","11.3","","81","","0.0","","3","","8","","16.1","","102.32","","","","","","NA"
"-59.96","43.93","SABLE ISLAND A","8204703","2018-07-02 12:00","2018","07","02","12:00","14.0","","11.5","","85","","0.0","","","M","4","","16.1","","102.36","","","","","","NA"
"-59.96","43.93","SABLE ISLAND A","8204703","2018-07-02 13:00","2018","07","02","13:00","15.5","","12.3","","81","","0.0","","","M","4","","16.1","","102.36","","","","","","NA"
"-59.96","43.93","SABLE ISLAND A","8204703","2018-07-02 14:00","2018","07","02","14:00","16.5","","12.9","","79","","0.0","","","","0","","16.1","","102.33","","","","","","NA"
"-59.96","43.93","SABLE ISLAND A","8204703","2018-07-02 15:00","2018","07","02","15:00","17.2","","13.8","","80","","0.0","","","M","4","","16.1","","102.32","","","","","","NA"
"-59.96","43.93","SABLE ISLAND A","8204703","2018-07-02 16:00","2018","07","02","16:00","17.1","","14.0","","82","","0.0","","21","","8","","16.1","","102.28","","","","","","NA"
"-59.96","43.93","SABLE ISLAND A","8204703","2018-07-02 17:00","2018","07","02","17:00","16.8","","14.0","","83","","0.0","","24","","9","","16.1","","102.25","","","","","","NA"
"-59.96","43.93","SABLE ISLAND A","8204703","2018-07-02 18:00","2018","07","02","18:00","15.8","","13.9","","89","","0.0","","23","","8","","14.5","","102.25","","","","","","NA"
"-59.96","43.93","SABLE ISLAND A","8204703","2018-07-02 19:00","2018","07","02","19:00","15.2","","13.9","","92","","0.0","","24","","5","","9.7","","102.22","","","","","","Fog"
"-59.96","43.93","SABLE ISLAND A","8204703","2018-07-02 20:00","2018","07","02","20:00","14.5","","13.6","","95","","0.0","","20","","5","","4.8","","102.21","","","","","","Fog"
"-59.96","43.93","SABLE ISLAND A","8204703","2018-07-02 21:00","2018","07","02","21:00","14.1","","13.5","","96","","0.0","","18","","5","","4.8","","102.31","","","","","","Fog"
"-59.96","43.93","SABLE ISLAND A","8204703","2018-07-02 22:00","2018","07","02","22:00","14.1","","13.6","","97","","0.0","","20","","5","","4.8","","102.34","","","","","","Fog"
"-59.96","43.93","SABLE ISLAND A","8204703","2018-07-02 23:00","2018","07","02","23:00","14.0","","13.7","","98","","0.0","","17","","8","","4.8","","102.36","","","","","","Fog"
"-59.96","43.93","SABLE ISLAND A","8204703","2018-07-03 00:00","2018","07","03","00:00","14.0","","13.7","","98","","0.0","","21","","5","","6.4","","102.36","","","","","","Fog"
"-59.96","43.93","SABLE ISLAND A","8204703","2018-07-03 01:00","2018","07","03","01:00","15.1","","14.8","","98","","0.0","","25","","5","","8.1","","102.40","","","","","","Fog"
"-59.96","43.93","SABLE ISLAND A","8204703","2018-07-03 02:00","2018","07","03","02:00","15.8","","15.0","","95","","0.0","","","","0","","11.3","","102.41","","","","","","NA"
"-59.96","43.93","SABLE ISLAND A","8204703","2018-07-03 03:00","2018","07","03","03:00","15.4","","14.5","","94","","0.0","","","M","4","","6.4","","102.39","","","","","","Fog"
"-59.96","43.93","SABLE ISLAND A","8204703","2018-07-03 04:00","2018","07","03","04:00","14.9","","14.4","","97","","0.0","","16","","9","","8.1","","102.32","","","","","","Fog"
"-59.96","43.93","SABLE ISLAND A","8204703","2018-07-03 05:00","2018","07","03","05:00","15.3","","15.0","","98","","0.0","","19","","8","","4.8","","102.35","","","","","","Fog"
"-59.96","43.93","SABLE ISLAND A","8204703","2018-07-03 06:00","2018","07","03","06:00","14.9","","14.7","","99","","0.0","","18","","15","","2.0","","102.34","","","","","","Fog"
"-59.96","43.93","SABLE ISLAND A","8204703","2018-07-03 07:00","2018","07","03","07:00","15.3","","15.0","","98","","0.0","","23","","18","","0.2","","102.38","","","","","","Rain,Fog"
"-59.96","43.93","SABLE ISLAND A","8204703","2018-07-03 08:00","2018","07","03","08:00","15.6","","15.1","","97","","0.0","","22","","17","","0.6","","102.42","","","","","","Rain,Fog"
"-59.96","43.93","SABLE ISLAND A","8204703","2018-07-03 09:00","2018","07","03","09:00","16.0","","15.0","","94","","0.0","","23","","15","","1.2","","102.41","","","","","","Rain,Fog"
"-59.96","43.93","SABLE ISLAND A","8204703","2018-07-03 10:00","2018","07","03","10:00","16.0","","15.0","","94","","0.0","","23","","15","","0.2","","102.37","","","","","","Fog"
"-59.96","43.93","SABLE ISLAND A","8204703","2018-07-03 11:00","2018","07","03","11:00","16.9","","15.0","","89","","0.0","","21","","11","","2.4","","102.41","","","","","","Fog"
"-59.96","43.93","SABLE ISLAND A","8204703","2018-07-03 12:00","2018","07","03","12:00","17.2","","15.5","","90","","0.0","","22","","15","","0.8","","102.40","","","","","","Fog"
"-59.96","43.93","SABLE ISLAND A","8204703","2018-07-03 13:00","2018","07","03","13:00","17.2","","15.8","","92","","0.0","","20","","17","","0.6","","102.34","","","","","","Fog"
"-59.96","43.93","SABLE ISLAND A","8204703","2018-07-03 14:00","2018","07","03","14:00","18.2","","16.7","","91","","0.0","","20","","21","","0.4","","102.34","","","","","","Rain,Fog"
"-59.96","43.93","SABLE ISLAND A","8204703","2018-07-03 15:00","2018","07","03","15:00","17.9","","16.8","","93","","0.0","","22","","22","","0.4","","102.28","","","","","","Fog"
"-59.96","43.93","SABLE ISLAND A","8204703","2018-07-03 16:00","2018","07","03","16:00","17.0","","15.8","","93","","0.0","","22","","22","","0.6","","102.25","","","","","","Fog"
"-59.96","43.93","SABLE ISLAND A","8204703","2018-07-03 17:00","2018","07","03","17:00","16.3","","15.5","","95","","0.0","","22","","24","","0.4","","102.25","","","","","","Rain,Fog"
"-59.96","43.93","SABLE ISLAND A","8204703","2018-07-03 18:00","2018","07","03","18:00","15.9","","15.4","","97","","0.0","","22","","24","","0.6","","102.22","","","","","","Rain,Fog"
"-59.96","43.93","SABLE ISLAND A","8204703","2018-07-03 19:00","2018","07","03","19:00","15.3","","15.0","","98","","0.0","","22","","26","","0.2","","102.22","","","","","","Rain,Fog"
"-59.96","43.93","SABLE ISLAND A","8204703","2018-07-03 20:00","2018","07","03","20:00","15.2","","15.1","","99","","0.0","","22","","28","","0.2","","102.24","","","","","","Rain,Fog"
"-59.96","43.93","SABLE ISLAND A","8204703","2018-07-03 21:00","2018","07","03","21:00","15.0","","14.9","","99","","0.0","","22","","26","","0.4","","102.30","","","","","","Rain,Fog"
"-59.96","43.93","SABLE ISLAND A","8204703","2018-07-03 22:00","2018","07","03","22:00","14.9","","14.8","","99","","0.0","","22","","26","","0.4","","102.29","","","","","","Rain,Fog"
"-59.96","43.93","SABLE ISLAND A","8204703","2018-07-03 23:00","2018","07","03","23:00","15.0","","14.9","","99","","0.2","","22","","32","","0.4","","102.27","","","","","","Rain,Fog"
"-59.96","43.93","SABLE ISLAND A","8204703","2018-07-04 00:00","2018","07","04","00:00","14.9","","14.8","","99","","0.0","","23","","32","","0.4","","102.21","","","","","","Rain,Fog"
"-59.96","43.93","SABLE ISLAND A","8204703","2018-07-04 01:00","2018","07","04","01:00","14.5","","14.4","","99","","0.0","","23","","32","","0.4","","102.16","","","","","","Rain,Fog"
"-59.96","43.93","SABLE ISLAND A","8204703","2018-07-04 02:00","2018","07","04","02:00","14.7","","14.6","","99","","0.0","","23","","32","","0.4","","102.17","","","","","","Rain,Fog"
"-59.96","43.93","SABLE ISLAND A","8204703","2018-07-04 03:00","2018","07","04","03:00","14.4","","14.3","","99","","0.0","","23","","32","","0.4","","102.15","","","","","","Rain,Fog"
"-59.96","43.93","SABLE ISLAND A","8204703","2018-07-04 04:00","2018","07","04","04:00","14.2","","14.1","","99","","0.2","","23","","32","","0.4","","102.15","","","","","","Rain,Fog"
"-59.96","43.93","SABLE ISLAND A","8204703","2018-07-04 05:00","2018","07","04","05:00","14.7","","14.6","","99","","0.0","","23","","34","","0.2","","102.18","","","","","","Rain,Fog"
"-59.96","43.93","SABLE ISLAND A","8204703","2018-07-04 06:00","2018","07","04","06:00","14.6","","14.5","","99","","0.0","","24","","30","","0.2","","102.19","","","","","","Rain,Fog"
"-59.96","43.93","SABLE ISLAND A","8204703","2018-07-04 07:00","2018","07","04","07:00","14.4","","14.3","","99","","0.0","","24","","30","","0.2","","102.23","","","","","","Rain,Fog"
"-59.96","43.93","SABLE ISLAND A","8204703","2018-07-04 08:00","2018","07","04","08:00","14.4","","14.2","","99","","0.0","","25","","26","","0.8","","102.25","","","","","","Rain,Fog"
"-59.96","43.93","SABLE ISLAND A","8204703","2018-07-04 09:00","2018","07","04","09:00","14.7","","14.1","","96","","0.0","","25","","28","","1.2","","102.26","","","","","","Rain,Fog"
"-59.96","43.93","SABLE ISLAND A","8204703","2018-07-04 10:00","2018","07","04","10:00","15.1","","13.7","","91","","0.0","","24","","24","","2.4","","102.28","","","","","","Rain,Fog"
"-59.96","43.93","SABLE ISLAND A","8204703","2018-07-04 11:00","2018","07","04","11:00","15.3","","13.9","","91","","0.0","","24","","22","","1.0","","102.28","","","","","","Rain,Fog"
"-59.96","43.93","SABLE ISLAND A","8204703","2018-07-04 12:00","2018","07","04","12:00","15.4","","13.7","","89","","0.0","","24","","24","","1.2","","102.23","","","","","","Fog"
"-59.96","43.93","SABLE ISLAND A","8204703","2018-07-04 13:00","2018","07","04","13:00","15.3","","13.5","","89","","0.0","","25","","24","","2.4","","102.22","","","","","","Fog"
"-59.96","43.93","SABLE ISLAND A","8204703","2018-07-04 14:00","2018","07","04","14:00","15.0","","13.5","","91","","0.0","","24","","22","","1.2","","102.17","","","","","","Fog"
"-59.96","43.93","SABLE ISLAND A","8204703","2018-07-04 15:00","2018","07","04","15:00","14.8","","13.4","","91","","0.0","","24","","24","","1.0","","102.19","","","","","","Rain,Fog"
"-59.96","43.93","SABLE ISLAND A","8204703","2018-07-04 16:00","2018","07","04","16:00","14.4","","13.3","","93","","0.0","","26","","26","","1.2","","102.21","","","","","","Rain,Fog"
"-59.96","43.93","SABLE ISLAND A","8204703","2018-07-04 17:00","2018","07","04","17:00","14.4","","13.1","","92","","0.0","","25","","15","","3.6","","102.18","","","","","","Fog"
"-59.96","43.93","SABLE ISLAND A","8204703","2018-07-04 18:00","2018","07","04","18:00","13.5","","13.0","","97","","0.0","","23","","15","","0.4","","102.17","","","","","","Rain,Fog"
"-59.96","43.93","SABLE ISLAND A","8204703","2018-07-04 19:00","2018","07","04","19:00","13.6","","12.7","","94","","0.0","","23","","15","","9.7","","102.21","","","","","","Fog"
"-59.96","43.93","SABLE ISLAND A","8204703","2018-07-04 20:00","2018","07","04","20:00","13.0","","12.4","","96","","0.0","","23","","13","","8.1","","102.21","","","","","","Fog"
"-59.96","43.93","SABLE ISLAND A","8204703","2018-07-04 21:00","2018","07","04","21:00","13.0","","12.5","","97","","0.0","","23","","11","","6.4","","102.28","","","","","","Fog"
"-59.96","43.93","SABLE ISLAND A","8204703","2018-07-04 22:00","2018","07","04","22:00","12.7","","12.2","","97","","0.0","","22","","11","","4.8","","102.29","","","","","","Fog"
"-59.96","43.93","SABLE ISLAND A","8204703","2018-07-04 23:00","2018","07","04","23:00","12.8","","12.3","","97","","0.0","","21","","18","","8.1","","102.26","","","","","","Fog"
"-59.96","43.93","SABLE ISLAND A","8204703","2018-07-05 00:00","2018","07","05","00:00","12.7","","12.4","","98","","0.0","","21","","21","","6.4","","102.22","","","","","","Fog"
"-59.96","43.93","SABLE ISLAND A","8204703","2018-07-05 01:00","2018","07","05","01:00","13.0","","12.4","","96","","0.0","","21","","18","","9.7","","102.20","","","","","","Fog"
"-59.96","43.93","SABLE ISLAND A","8204703","2018-07-05 02:00","2018","07","05","02:00","13.0","","12.4","","96","","0.0","","23","","15","","11.3","","102.17","","","","","","NA"
"-59.96","43.93","SABLE ISLAND A","8204703","2018-07-05 03:00","2018","07","05","03:00","13.3","","12.5","","95","","0.0","","25","","17","","12.9","","102.19","","","","","","NA"
"-59.96","43.93","SABLE ISLAND A","8204703","2018-07-05 04:00","2018","07","05","04:00","13.6","","12.5","","93","","0.0","","26","","15","","12.9","","102.18","","","","","","NA"
"-59.96","43.93","SABLE ISLAND A","8204703","2018-07-05 05:00","2018","07","05","05:00","13.8","","12.5","","92","","0.0","","27","","17","","14.5","","102.23","","","","","","NA"
"-59.96","43.93","SABLE ISLAND A","8204703","2018-07-05 06:00","2018","07","05","06:00","14.9","","12.8","","87","","0.0","","29","","13","","16.1","","102.27","","","","","","NA"
"-59.96","43.93","SABLE ISLAND A","8204703","2018-07-05 07:00","2018","07","05","07:00","14.1","","12.1","","88","","0.0","","32","","18","","16.1","","102.21","","","","","","NA"
"-59.96","43.93","SABLE ISLAND A","8204703","2018-07-05 08:00","2018","07","05","08:00","15.4","","12.4","","82","","0.0","","34","","15","","16.1","","102.29","","","","","","NA"
"-59.96","43.93","SABLE ISLAND A","8204703","2018-07-05 09:00","2018","07","05","09:00","16.0","","12.5","","80","","0.0","","36","","13","","16.1","","102.38","","","","","","NA"
"-59.96","43.93","SABLE ISLAND A","8204703","2018-07-05 10:00","2018","07","05","10:00","15.6","","12.3","","80","","0.0","","1","","17","","16.1","","102.37","","","","","","NA"
"-59.96","43.93","SABLE ISLAND A","8204703","2018-07-05 11:00","2018","07","05","11:00","16.3","","12.8","","79","","0.0","","4","","11","","16.1","","102.38","","","","","","NA"
"-59.96","43.93","SABLE ISLAND A","8204703","2018-07-05 12:00","2018","07","05","12:00","17.0","","13.6","","80","","0.0","","3","","13","","16.1","","102.38","","","","","","NA"
"-59.96","43.93","SABLE ISLAND A","8204703","2018-07-05 13:00","2018","07","05","13:00","18.8","","14.0","","73","","0.0","","4","","9","","16.1","","102.40","","","","","","NA"
"-59.96","43.93","SABLE ISLAND A","8204703","2018-07-05 14:00","2018","07","05","14:00","19.5","","14.6","","73","","0.0","","12","","11","","16.1","","102.30","","","","","","NA"
"-59.96","43.93","SABLE ISLAND A","8204703","2018-07-05 15:00","2018","07","05","15:00","19.4","","14.3","","72","","0.0","","12","","11","","16.1","","102.33","","","","","","NA"
"-59.96","43.93","SABLE ISLAND A","8204703","2018-07-05 16:00","2018","07","05","16:00","17.6","","14.3","","81","","0.0","","16","","8","","16.1","","102.38","","","","","","NA"
"-59.96","43.93","SABLE ISLAND A","8204703","2018-07-05 17:00","2018","07","05","17:00","17.3","","13.8","","80","","0.0","","15","","9","","16.1","","102.34","","","","","","NA"
"-59.96","43.93","SABLE ISLAND A","8204703","2018-07-05 18:00","2018","07","05","18:00","15.9","","13.5","","86","","0.0","","16","","11","","14.5","","102.29","","","","","","NA"
"-59.96","43.93","SABLE ISLAND A","8204703","2018-07-05 19:00","2018","07","05","19:00","14.7","","13.4","","92","","0.0","","16","","9","","14.5","","102.24","","","","","","NA"
"-59.96","43.93","SABLE ISLAND A","8204703","2018-07-05 20:00","2018","07","05","20:00","14.1","","13.0","","93","","0.0","","15","","9","","9.7","","102.24","","","","","","Fog"
"-59.96","43.93","SABLE ISLAND A","8204703","2018-07-05 21:00","2018","07","05","21:00","13.8","","13.0","","95","","0.0","","14","","15","","12.9","","102.24","","","","","","NA"
"-59.96","43.93","SABLE ISLAND A","8204703","2018-07-05 22:00","2018","07","05","22:00","13.9","","13.0","","94","","0.0","","18","","18","","14.5","","102.17","","","","","","NA"
"-59.96","43.93","SABLE ISLAND A","8204703","2018-07-05 23:00","2018","07","05","23:00","14.1","","13.5","","96","","0.0","","17","","18","","11.3","","102.12","","","","","","NA"
"-59.96","43.93","SABLE ISLAND A","8204703","2018-07-06 00:00","2018","07","06","00:00","14.3","","13.5","","95","","0.0","","19","","21","","9.7","","102.06","","","","","","Fog"
"-59.96","43.93","SABLE ISLAND A","8204703","2018-07-06 01:00","2018","07","06","01:00","14.4","","13.6","","95","","0.0","","20","","22","","9.7","","102.00","","","","","","Fog"
"-59.96","43.93","SABLE ISLAND A","8204703","2018-07-06 02:00","2018","07","06","02:00","14.2","","13.9","","98","","0.0","","22","","24","","1.2","","101.98","","","","","","Fog"
"-59.96","43.93","SABLE ISLAND A","8204703","2018-07-06 03:00","2018","07","06","03:00","14.0","","13.9","","99","","0.0","","23","","28","","0.6","","101.96","","","","","","Rain,Fog"
"-59.96","43.93","SABLE ISLAND A","8204703","2018-07-06 04:00","2018","07","06","04:00","14.2","","14.1","","99","","0.0","","23","","26","","0.4","","101.95","","","","","","Rain,Fog"
"-59.96","43.93","SABLE ISLAND A","8204703","2018-07-06 05:00","2018","07","06","05:00","14.5","","14.4","","99","","0.0","","22","","24","","0.2","","101.95","","","","","","Rain,Fog"
"-59.96","43.93","SABLE ISLAND A","8204703","2018-07-06 06:00","2018","07","06","06:00","14.5","","14.4","","99","","0.0","","21","","28","","0.2","","101.93","","","","","","Rain,Fog"
"-59.96","43.93","SABLE ISLAND A","8204703","2018-07-06 07:00","2018","07","06","07:00","15.0","","14.9","","99","","0.2","","21","","30","","0.2","","101.90","","","","","","Rain,Fog"
"-59.96","43.93","SABLE ISLAND A","8204703","2018-07-06 08:00","2018","07","06","08:00","15.5","","15.4","","99","","0.0","","20","","35","","0.2","","101.86","","","","","","Rain,Fog"
"-59.96","43.93","SABLE ISLAND A","8204703","2018-07-06 09:00","2018","07","06","09:00","16.0","","15.7","","98","","0.0","","20","","35","","0.2","","101.74","","","","","","Rain,Fog"
"-59.96","43.93","SABLE ISLAND A","8204703","2018-07-06 10:00","2018","07","06","10:00","16.6","","16.1","","97","","0.0","","20","","37","","0.4","","101.71","","","","","","Rain,Fog"
"-59.96","43.93","SABLE ISLAND A","8204703","2018-07-06 11:00","2018","07","06","11:00","17.1","","16.0","","93","","0.0","","20","","37","","0.4","","101.58","","","","","","Rain,Fog"
"-59.96","43.93","SABLE ISLAND A","8204703","2018-07-06 12:00","2018","07","06","12:00","17.5","","16.4","","93","","0.0","","21","","39","","0.8","","101.58","","","","","","Rain,Fog"
"-59.96","43.93","SABLE ISLAND A","8204703","2018-07-06 13:00","2018","07","06","13:00","17.9","","16.6","","92","","0.0","","21","","39","","0.6","","101.54","","","","","","Rain,Fog"
"-59.96","43.93","SABLE ISLAND A","8204703","2018-07-06 14:00","2018","07","06","14:00","17.4","","16.4","","94","","0.0","","21","","37","","0.4","","101.48","","","","","","Rain,Fog"
"-59.96","43.93","SABLE ISLAND A","8204703","2018-07-06 15:00","2018","07","06","15:00","17.6","","16.6","","94","","0.0","","21","","39","","0.4","","101.39","","","","","","Rain,Fog"
"-59.96","43.93","SABLE ISLAND A","8204703","2018-07-06 16:00","2018","07","06","16:00","17.3","","16.5","","95","","0.0","","21","","43","","0.6","","101.36","","","","","","Rain,Fog"
"-59.96","43.93","SABLE ISLAND A","8204703","2018-07-06 17:00","2018","07","06","17:00","17.1","","16.5","","96","","0.0","","21","","43","","0.6","","101.32","","","","","","Rain,Fog"
"-59.96","43.93","SABLE ISLAND A","8204703","2018-07-06 18:00","2018","07","06","18:00","17.1","","16.3","","95","","0.0","","21","","43","","3.6","","101.28","","","","","","Fog"
"-59.96","43.93","SABLE ISLAND A","8204703","2018-07-06 19:00","2018","07","06","19:00","16.8","","16.3","","97","","0.0","","21","","43","","2.8","","101.25","","","","","","Fog"
"-59.96","43.93","SABLE ISLAND A","8204703","2018-07-06 20:00","2018","07","06","20:00","16.5","","16.2","","98","","0.0","","21","","43","","2.0","","101.21","","","","","","Fog"
"-59.96","43.93","SABLE ISLAND A","8204703","2018-07-06 21:00","2018","07","06","21:00","16.1","","15.8","","98","","0.0","","21","","41","","2.0","","101.23","","","","","","Fog"
"-59.96","43.93","SABLE ISLAND A","8204703","2018-07-06 22:00","2018","07","06","22:00","16.3","","16.0","","98","","0.0","","21","","39","","2.0","","101.17","","","","","","Fog"
"-59.96","43.93","SABLE ISLAND A","8204703","2018-07-06 23:00","2018","07","06","23:00","16.0","","15.7","","98","","0.0","","21","","39","","2.0","","101.12","","","","","","Fog"
"-59.96","43.93","SABLE ISLAND A","8204703","2018-07-07 00:00","2018","07","07","00:00","16.2","","16.0","","99","","0.0","","21","","43","","2.0","","101.09","","","","","","Fog"
"-59.96","43.93","SABLE ISLAND A","8204703","2018-07-07 01:00","2018","07","07","01:00"
"-59.96","43.93","SABLE ISLAND A","8204703","2018-07-07 02:00","2018","07","07","02:00"
"-59.96","43.93","SABLE ISLAND A","8204703","2018-07-07 03:00","2018","07","07","03:00","13.6","","13.5","","99","","0.5","","24","","24","","1.6","","101.08","","","","","","Rain,Fog"
"-59.96","43.93","SABLE ISLAND A","8204703","2018-07-07 04:00","2018","07","07","04:00","13.4","","13.3","","99","","0.2","","25","","24","","0.8","","101.15","","","","","","Rain,Fog"
"-59.96","43.93","SABLE ISLAND A","8204703","2018-07-07 05:00","2018","07","07","05:00","13.1","","13.0","","99","","1.5","","30","","26","","4.8","","101.27","","","","","","Rain,Fog"
"-59.96","43.93","SABLE ISLAND A","8204703","2018-07-07 06:00","2018","07","07","06:00","13.0","","11.9","","93","","1.0","","31","","17","","16.1","","101.35","","","","","","Rain"
"-59.96","43.93","SABLE ISLAND A","8204703","2018-07-07 07:00","2018","07","07","07:00","13.1","","11.7","","91","","0.0","","30","","17","","16.1","","101.44","","","","","","NA"
"-59.96","43.93","SABLE ISLAND A","8204703","2018-07-07 08:00","2018","07","07","08:00","13.2","","11.8","","91","","0.0","","29","","17","","16.1","","101.52","","","","","","NA"
"-59.96","43.93","SABLE ISLAND A","8204703","2018-07-07 09:00","2018","07","07","09:00","14.9","","12.7","","86","","0.0","","30","","15","","16.1","","101.64","","","","","","NA"
"-59.96","43.93","SABLE ISLAND A","8204703","2018-07-07 10:00","2018","07","07","10:00","14.7","","12.3","","86","","0.0","","30","","22","","16.1","","101.70","","","","","","NA"
"-59.96","43.93","SABLE ISLAND A","8204703","2018-07-07 11:00","2018","07","07","11:00","15.6","","12.7","","83","","0.0","","30","","22","","16.1","","101.83","","","","","","NA"
"-59.96","43.93","SABLE ISLAND A","8204703","2018-07-07 12:00","2018","07","07","12:00","14.9","","11.6","","80","","0.0","","30","","15","","16.1","","101.87","","","","","","NA"
"-59.96","43.93","SABLE ISLAND A","8204703","2018-07-07 13:00","2018","07","07","13:00","16.3","","12.1","","76","","0.0","","28","","22","","16.1","","101.93","","","","","","NA"
"-59.96","43.93","SABLE ISLAND A","8204703","2018-07-07 14:00","2018","07","07","14:00","16.1","","11.6","","74","","0.0","","28","","21","","16.1","","101.99","","","","","","NA"
"-59.96","43.93","SABLE ISLAND A","8204703","2018-07-07 15:00","2018","07","07","15:00","16.2","","11.4","","73","","0.0","","28","","22","","16.1","","102.02","","","","","","NA"
"-59.96","43.93","SABLE ISLAND A","8204703","2018-07-07 16:00","2018","07","07","16:00","15.0","","11.5","","79","","0.0","","26","","18","","16.1","","102.10","","","","","","NA"
"-59.96","43.93","SABLE ISLAND A","8204703","2018-07-07 17:00","2018","07","07","17:00","15.6","","11.2","","75","","0.0","","27","","21","","16.1","","102.19","","","","","","NA"
"-59.96","43.93","SABLE ISLAND A","8204703","2018-07-07 18:00","2018","07","07","18:00","14.0","","11.1","","83","","0.0","","27","","17","","16.1","","102.19","","","","","","NA"
"-59.96","43.93","SABLE ISLAND A","8204703","2018-07-07 19:00","2018","07","07","19:00","14.6","","10.7","","77","","0.0","","27","","15","","16.1","","102.28","","","","","","NA"
"-59.96","43.93","SABLE ISLAND A","8204703","2018-07-07 20:00","2018","07","07","20:00","12.9","","10.6","","86","","0.0","","26","","11","","12.9","","102.32","","","","","","NA"
"-59.96","43.93","SABLE ISLAND A","8204703","2018-07-07 21:00","2018","07","07","21:00","11.7","","10.5","","92","","0.0","","23","","9","","4.0","","102.47","","","","","","Fog"
"-59.96","43.93","SABLE ISLAND A","8204703","2018-07-07 22:00","2018","07","07","22:00","11.4","","10.5","","94","","0.0","","23","","9","","4.0","","102.54","","","","","","Fog"
"-59.96","43.93","SABLE ISLAND A","8204703","2018-07-07 23:00","2018","07","07","23:00","11.5","","10.8","","95","","0.0","","22","","8","","4.0","","102.58","","","","","","Fog"
"-59.96","43.93","SABLE ISLAND A","8204703","2018-07-08 00:00","2018","07","08","00:00","11.3","","10.6","","95","","0.0","","23","","9","","4.8","","102.59","","","","","","Fog"
"-59.96","43.93","SABLE ISLAND A","8204703","2018-07-08 01:00","2018","07","08","01:00","11.1","","10.5","","96","","0.0","","20","","9","","4.0","","102.55","","","","","","Fog"
"-59.96","43.93","SABLE ISLAND A","8204703","2018-07-08 02:00","2018","07","08","02:00","11.7","","10.9","","95","","0.0","","20","","13","","8.1","","102.56","","","","","","Fog"
"-59.96","43.93","SABLE ISLAND A","8204703","2018-07-08 03:00","2018","07","08","03:00","12.0","","11.1","","94","","0.0","","20","","17","","11.3","","102.58","","","","","","NA"
"-59.96","43.93","SABLE ISLAND A","8204703","2018-07-08 04:00","2018","07","08","04:00","11.7","","10.8","","94","","0.0","","21","","15","","6.4","","102.60","","","","","","Fog"
"-59.96","43.93","SABLE ISLAND A","8204703","2018-07-08 05:00","2018","07","08","05:00","12.4","","11.0","","91","","0.0","","21","","18","","16.1","","102.68","","","","","","NA"
"-59.96","43.93","SABLE ISLAND A","8204703","2018-07-08 06:00","2018","07","08","06:00","13.1","","11.7","","91","","0.0","","20","","18","","11.3","","102.73","","","","","","NA"
"-59.96","43.93","SABLE ISLAND A","8204703","2018-07-08 07:00","2018","07","08","07:00","13.7","","12.3","","91","","0.0","","20","","22","","12.9","","102.77","","","","","","NA"
"-59.96","43.93","SABLE ISLAND A","8204703","2018-07-08 08:00","2018","07","08","08:00","14.5","","12.1","","85","","0.0","","22","","18","","12.9","","102.83","","","","","","NA"
"-59.96","43.93","SABLE ISLAND A","8204703","2018-07-08 09:00","2018","07","08","09:00","15.8","","12.5","","80","","0.0","","23","","17","","14.5","","102.88","","","","","","NA"
"-59.96","43.93","SABLE ISLAND A","8204703","2018-07-08 10:00","2018","07","08","10:00","15.7","","12.6","","82","","0.0","","22","","15","","16.1","","102.89","","","","","","NA"
"-59.96","43.93","SABLE ISLAND A","8204703","2018-07-08 11:00","2018","07","08","11:00","17.1","","12.7","","75","","0.0","","22","","22","","16.1","","102.85","","","","","","NA"
"-59.96","43.93","SABLE ISLAND A","8204703","2018-07-08 12:00","2018","07","08","12:00","16.5","","11.3","","71","","0.0","","22","","18","","16.1","","102.79","","","","","","NA"
"-59.96","43.93","SABLE ISLAND A","8204703","2018-07-08 13:00","2018","07","08","13:00","16.9","","11.7","","71","","0.0","","21","","22","","16.1","","102.75","","","","","","NA"
"-59.96","43.93","SABLE ISLAND A","8204703","2018-07-08 14:00","2018","07","08","14:00","17.1","","12.2","","73","","0.0","","21","","18","","16.1","","102.70","","","","","","NA"
"-59.96","43.93","SABLE ISLAND A","8204703","2018-07-08 15:00","2018","07","08","15:00","16.5","","12.4","","77","","0.0","","22","","18","","16.1","","102.67","","","","","","NA"
"-59.96","43.93","SABLE ISLAND A","8204703","2018-07-08 16:00","2018","07","08","16:00","16.9","","13.0","","77","","0.0","","21","","18","","16.1","","102.63","","","","","","NA"
"-59.96","43.93","SABLE ISLAND A","8204703","2018-07-08 17:00","2018","07","08","17:00","15.9","","12.0","","78","","0.0","","22","","18","","16.1","","102.58","","","","","","NA"
"-59.96","43.93","SABLE ISLAND A","8204703","2018-07-08 18:00","2018","07","08","18:00","15.1","","11.9","","81","","0.0","","22","","17","","16.1","","102.54","","","","","","NA"
"-59.96","43.93","SABLE ISLAND A","8204703","2018-07-08 19:00","2018","07","08","19:00","14.0","","11.9","","87","","0.0","","20","","22","","16.1","","102.52","","","","","","NA"
"-59.96","43.93","SABLE ISLAND A","8204703","2018-07-08 20:00","2018","07","08","20:00","13.3","","11.9","","91","","0.0","","21","","17","","16.1","","102.54","","","","","","NA"
"-59.96","43.93","SABLE ISLAND A","8204703","2018-07-08 21:00","2018","07","08","21:00","13.2","","11.9","","92","","0.0","","21","","17","","16.1","","102.58","","","","","","NA"
"-59.96","43.93","SABLE ISLAND A","8204703","2018-07-08 22:00","2018","07","08","22:00","12.9","","12.0","","94","","0.0","","22","","15","","16.1","","102.60","","","","","","NA"
"-59.96","43.93","SABLE ISLAND A","8204703","2018-07-08 23:00","2018","07","08","23:00","13.2","","11.9","","92","","0.0","","22","","17","","14.5","","102.58","","","","","","NA"
"-59.96","43.93","SABLE ISLAND A","8204703","2018-07-09 00:00","2018","07","09","00:00","12.8","","11.5","","92","","0.0","","22","","15","","14.5","","102.55","","","","","","NA"
"-59.96","43.93","SABLE ISLAND A","8204703","2018-07-09 01:00","2018","07","09","01:00","12.8","","11.5","","92","","0.0","","23","","13","","16.1","","102.56","","","","","","NA"
"-59.96","43.93","SABLE ISLAND A","8204703","2018-07-09 02:00","2018","07","09","02:00","12.7","","11.5","","92","","0.0","","22","","13","","16.1","","102.49","","","","","","NA"
"-59.96","43.93","SABLE ISLAND A","8204703","2018-07-09 03:00","2018","07","09","03:00","12.6","","11.4","","93","","0.0","","23","","11","","16.1","","102.46","","","","","","NA"
"-59.96","43.93","SABLE ISLAND A","8204703","2018-07-09 04:00","2018","07","09","04:00","12.6","","11.5","","93","","0.0","","21","","15","","16.1","","102.42","","","","","","NA"
"-59.96","43.93","SABLE ISLAND A","8204703","2018-07-09 05:00","2018","07","09","05:00","12.7","","11.6","","93","","0.0","","22","","15","","16.1","","102.41","","","","","","NA"
"-59.96","43.93","SABLE ISLAND A","8204703","2018-07-09 06:00","2018","07","09","06:00","13.5","","12.1","","91","","0.0","","21","","17","","16.1","","102.42","","","","","","NA"
"-59.96","43.93","SABLE ISLAND A","8204703","2018-07-09 07:00","2018","07","09","07:00","14.7","","12.4","","86","","0.0","","22","","22","","16.1","","102.41","","","","","","NA"
"-59.96","43.93","SABLE ISLAND A","8204703","2018-07-09 08:00","2018","07","09","08:00","15.5","","13.0","","85","","0.0","","21","","18","","16.1","","102.36","","","","","","NA"
"-59.96","43.93","SABLE ISLAND A","8204703","2018-07-09 09:00","2018","07","09","09:00","15.9","","13.2","","84","","0.0","","22","","15","","16.1","","102.40","","","","","","NA"
"-59.96","43.93","SABLE ISLAND A","8204703","2018-07-09 10:00","2018","07","09","10:00","15.7","","13.2","","85","","0.0","","20","","22","","16.1","","102.29","","","","","","NA"
"-59.96","43.93","SABLE ISLAND A","8204703","2018-07-09 11:00","2018","07","09","11:00","16.8","","13.9","","83","","0.0","","22","","17","","16.1","","102.31","","","","","","NA"
"-59.96","43.93","SABLE ISLAND A","8204703","2018-07-09 12:00","2018","07","09","12:00","16.8","","14.0","","83","","0.0","","21","","15","","16.1","","102.27","","","","","","NA"
"-59.96","43.93","SABLE ISLAND A","8204703","2018-07-09 13:00","2018","07","09","13:00","17.1","","13.7","","80","","0.0","","22","","18","","16.1","","102.20","","","","","","NA"
"-59.96","43.93","SABLE ISLAND A","8204703","2018-07-09 14:00","2018","07","09","14:00","17.0","","14.2","","83","","0.0","","20","","18","","16.1","","102.15","","","","","","NA"
"-59.96","43.93","SABLE ISLAND A","8204703","2018-07-09 15:00","2018","07","09","15:00","17.3","","14.1","","81","","0.0","","21","","17","","16.1","","102.10","","","","","","NA"
"-59.96","43.93","SABLE ISLAND A","8204703","2018-07-09 16:00","2018","07","09","16:00","17.2","","14.2","","82","","0.0","","21","","18","","16.1","","102.05","","","","","","NA"
"-59.96","43.93","SABLE ISLAND A","8204703","2018-07-09 17:00","2018","07","09","17:00","16.3","","14.1","","87","","0.0","","21","","13","","16.1","","101.96","","","","","","NA"
"-59.96","43.93","SABLE ISLAND A","8204703","2018-07-09 18:00","2018","07","09","18:00","15.5","","13.9","","90","","0.0","","22","","17","","16.1","","101.89","","","","","","NA"
"-59.96","43.93","SABLE ISLAND A","8204703","2018-07-09 19:00","2018","07","09","19:00","14.9","","13.8","","93","","0.0","","21","","21","","16.1","","101.86","","","","","","NA"
"-59.96","43.93","SABLE ISLAND A","8204703","2018-07-09 20:00","2018","07","09","20:00","14.3","","13.7","","96","","0.0","","20","","22","","16.1","","101.86","","","","","","NA"
"-59.96","43.93","SABLE ISLAND A","8204703","2018-07-09 21:00","2018","07","09","21:00","14.0","","13.4","","96","","0.0","","23","","15","","16.1","","101.95","","","","","","NA"
"-59.96","43.93","SABLE ISLAND A","8204703","2018-07-09 22:00","2018","07","09","22:00","13.5","","13.1","","98","","0.0","","21","","15","","12.9","","101.93","","","","","","NA"
"-59.96","43.93","SABLE ISLAND A","8204703","2018-07-09 23:00","2018","07","09","23:00","13.7","","13.4","","98","","0.0","","18","","18","","12.9","","101.89","","","","","","NA"
"-59.96","43.93","SABLE ISLAND A","8204703","2018-07-10 00:00","2018","07","10","00:00","14.1","","13.6","","97","","0.0","","19","","21","","14.5","","101.86","","","","","","NA"
"-59.96","43.93","SABLE ISLAND A","8204703","2018-07-10 01:00","2018","07","10","01:00","14.4","","14.1","","98","","0.0","","20","","22","","11.3","","101.78","","","","","","NA"
"-59.96","43.93","SABLE ISLAND A","8204703","2018-07-10 02:00","2018","07","10","02:00","14.3","","13.8","","97","","0.0","","20","","22","","16.1","","101.73","","","","","","NA"
"-59.96","43.93","SABLE ISLAND A","8204703","2018-07-10 03:00","2018","07","10","03:00","14.1","","13.5","","96","","0.0","","20","","15","","16.1","","101.70","","","","","","NA"
"-59.96","43.93","SABLE ISLAND A","8204703","2018-07-10 04:00","2018","07","10","04:00","14.2","","13.7","","97","","0.0","","22","","9","","14.5","","101.69","","","","","","NA"
"-59.96","43.93","SABLE ISLAND A","8204703","2018-07-10 05:00","2018","07","10","05:00","15.0","","14.7","","98","","0.0","","25","","9","","0.2","","101.71","","","","","","Fog"
"-59.96","43.93","SABLE ISLAND A","8204703","2018-07-10 06:00","2018","07","10","06:00","15.4","","15.2","","99","","0.0","","25","","8","","0.2","","101.69","","","","","","Fog"
"-59.96","43.93","SABLE ISLAND A","8204703","2018-07-10 07:00","2018","07","10","07:00","16.1","","16.0","","99","","0.0","","24","","9","","0.2","","101.68","","","","","","Fog"
"-59.96","43.93","SABLE ISLAND A","8204703","2018-07-10 08:00","2018","07","10","08:00","16.1","","16.0","","99","","0.0","","28","","9","","16.1","","101.66","","","","","","NA"
"-59.96","43.93","SABLE ISLAND A","8204703","2018-07-10 09:00","2018","07","10","09:00","18.2","","15.0","","81","","0.0","","25","","5","","16.1","","101.69","","","","","","NA"
"-59.96","43.93","SABLE ISLAND A","8204703","2018-07-10 10:00","2018","07","10","10:00","18.8","","15.2","","79","","0.0","","16","","5","","16.1","","101.57","","","","","","NA"
"-59.96","43.93","SABLE ISLAND A","8204703","2018-07-10 11:00","2018","07","10","11:00","20.0","","15.9","","77","","0.0","","","M","11","","16.1","","101.55","","25","","","","NA"
"-59.96","43.93","SABLE ISLAND A","8204703","2018-07-10 12:00","2018","07","10","12:00","18.3","","14.5","","78","","0.0","","31","","11","","16.1","","101.49","","","","","","NA"
"-59.96","43.93","SABLE ISLAND A","8204703","2018-07-10 13:00","2018","07","10","13:00","18.4","","15.1","","81","","0.0","","21","","8","","16.1","","101.47","","","","","","NA"
"-59.96","43.93","SABLE ISLAND A","8204703","2018-07-10 14:00","2018","07","10","14:00","19.1","","15.4","","79","","0.0","","23","","9","","16.1","","101.46","","","","","","NA"
"-59.96","43.93","SABLE ISLAND A","8204703","2018-07-10 15:00","2018","07","10","15:00","17.6","","15.4","","87","","0.0","","19","","9","","16.1","","101.38","","","","","","NA"
"-59.96","43.93","SABLE ISLAND A","8204703","2018-07-10 16:00","2018","07","10","16:00","17.1","","15.2","","89","","0.0","","19","","9","","16.1","","101.33","","","","","","NA"
"-59.96","43.93","SABLE ISLAND A","8204703","2018-07-10 17:00","2018","07","10","17:00","18.1","","15.5","","84","","0.0","","21","","11","","16.1","","101.38","","","","","","NA"
"-59.96","43.93","SABLE ISLAND A","8204703","2018-07-10 18:00","2018","07","10","18:00","17.1","","15.5","","90","","0.0","","22","","8","","16.1","","101.31","","","","","","NA"
"-59.96","43.93","SABLE ISLAND A","8204703","2018-07-10 19:00","2018","07","10","19:00","16.2","","15.1","","93","","0.0","","20","","5","","16.1","","101.42","","","","","","NA"
"-59.96","43.93","SABLE ISLAND A","8204703","2018-07-10 20:00","2018","07","10","20:00","15.6","","14.8","","95","","0.0","","20","","13","","14.5","","101.43","","","","","","NA"
"-59.96","43.93","SABLE ISLAND A","8204703","2018-07-10 21:00","2018","07","10","21:00","15.0","","14.4","","96","","0.0","","21","","11","","11.3","","101.50","","","","","","NA"
"-59.96","43.93","SABLE ISLAND A","8204703","2018-07-10 22:00","2018","07","10","22:00","15.0","","14.5","","97","","0.0","","20","","17","","9.7","","101.53","","","","","","Fog"
"-59.96","43.93","SABLE ISLAND A","8204703","2018-07-10 23:00","2018","07","10","23:00","15.0","","14.5","","97","","0.0","","20","","18","","8.1","","101.49","","","","","","Fog"
"-59.96","43.93","SABLE ISLAND A","8204703","2018-07-11 00:00","2018","07","11","00:00","14.7","","14.4","","98","","0.0","","19","","21","","6.4","","101.44","","","","","","Fog"
"-59.96","43.93","SABLE ISLAND A","8204703","2018-07-11 01:00","2018","07","11","01:00","15.6","","15.3","","98","","0.0","","21","","18","","4.8","","101.44","","","","","","Fog"
"-59.96","43.93","SABLE ISLAND A","8204703","2018-07-11 02:00","2018","07","11","02:00","14.5","","14.2","","98","","0.0","","19","","13","","4.8","","101.44","","","","","","Fog"
"-59.96","43.93","SABLE ISLAND A","8204703","2018-07-11 03:00","2018","07","11","03:00","14.7","","14.4","","98","","0.0","","18","","15","","4.8","","101.45","","","","","","Fog"
"-59.96","43.93","SABLE ISLAND A","8204703","2018-07-11 04:00","2018","07","11","04:00","15.7","","15.4","","98","","0.2","","19","","18","","6.4","","101.47","","","","","","Fog"
"-59.96","43.93","SABLE ISLAND A","8204703","2018-07-11 05:00","2018","07","11","05:00","15.4","","15.1","","98","","0.0","","17","","15","","6.4","","101.50","","","","","","Fog"
"-59.96","43.93","SABLE ISLAND A","8204703","2018-07-11 06:00","2018","07","11","06:00","16.0","","15.5","","97","","0.0","","16","","11","","6.4","","101.56","","","","","","Fog"
"-59.96","43.93","SABLE ISLAND A","8204703","2018-07-11 07:00","2018","07","11","07:00","16.6","","16.1","","97","","0.0","","16","","9","","2.0","","101.54","","","","","","Fog"
"-59.96","43.93","SABLE ISLAND A","8204703","2018-07-11 08:00","2018","07","11","08:00","17.6","","16.9","","95","","0.0","","15","","9","","1.6","","101.63","","","","","","Fog"
"-59.96","43.93","SABLE ISLAND A","8204703","2018-07-11 09:00","2018","07","11","09:00","18.2","","17.7","","97","","0.0","","15","","15","","0.8","","101.64","","","","","","Rain,Fog"
"-59.96","43.93","SABLE ISLAND A","8204703","2018-07-11 10:00","2018","07","11","10:00","17.4","","16.6","","95","","0.0","","15","","17","","1.6","","101.52","","","","","","Rain,Fog"
"-59.96","43.93","SABLE ISLAND A","8204703","2018-07-11 11:00","2018","07","11","11:00","17.7","","17.1","","96","","0.0","","16","","18","","0.8","","101.59","","","","","","Rain,Fog"
"-59.96","43.93","SABLE ISLAND A","8204703","2018-07-11 12:00","2018","07","11","12:00","18.1","","17.5","","96","","0.0","","16","","17","","0.4","","101.53","","","","","","Rain,Fog"
"-59.96","43.93","SABLE ISLAND A","8204703","2018-07-11 13:00","2018","07","11","13:00","18.0","","17.2","","95","","0.0","","16","","13","","0.6","","101.53","","","","","","Fog"
"-59.96","43.93","SABLE ISLAND A","8204703","2018-07-11 14:00","2018","07","11","14:00","18.6","","17.3","","92","","0.0","","15","","15","","2.0","","101.51","","","","","","Fog"
"-59.96","43.93","SABLE ISLAND A","8204703","2018-07-11 15:00","2018","07","11","15:00","18.7","","18.0","","95","","0.0","","16","","15","","0.4","","101.51","","","","","","Rain,Fog"
"-59.96","43.93","SABLE ISLAND A","8204703","2018-07-11 16:00","2018","07","11","16:00","18.1","","16.6","","91","","0.0","","15","","13","","6.4","","101.43","","","","","","Fog"
"-59.96","43.93","SABLE ISLAND A","8204703","2018-07-11 17:00","2018","07","11","17:00","17.8","","17.5","","98","","0.5","","14","","17","","3.6","","101.41","","","","","","Rain,Fog"
"-59.96","43.93","SABLE ISLAND A","8204703","2018-07-11 18:00","2018","07","11","18:00","19.3","","19.0","","98","","0.8","","","","0","","6.4","","101.44","","","","","","Fog"
"-59.96","43.93","SABLE ISLAND A","8204703","2018-07-11 19:00","2018","07","11","19:00","18.5","","18.2","","98","","0.2","","","","0","","6.4","","101.47","","","","","","Fog"
"-59.96","43.93","SABLE ISLAND A","8204703","2018-07-11 20:00","2018","07","11","20:00","18.8","","18.6","","99","","0.0","","","M","4","","0.2","","101.48","","","","","","Fog"
"-59.96","43.93","SABLE ISLAND A","8204703","2018-07-11 21:00","2018","07","11","21:00","16.8","","16.6","","99","","0.0","","20","","8","","0.6","","101.52","","","","","","Fog"
"-59.96","43.93","SABLE ISLAND A","8204703","2018-07-11 22:00","2018","07","11","22:00","16.4","","16.2","","99","","0.0","","20","","15","","0.6","","101.56","","","","","","Fog"
"-59.96","43.93","SABLE ISLAND A","8204703","2018-07-11 23:00","2018","07","11","23:00","16.4","","16.2","","99","","0.0","","25","","11","","0.2","","101.52","","","","","","Fog"
"-59.96","43.93","SABLE ISLAND A","8204703","2018-07-12 00:00","2018","07","12","00:00","16.4","","16.4","","100","","0.2","","18","","9","","0.4","","101.46","","","","","","Rain,Fog"
"-59.96","43.93","SABLE ISLAND A","8204703","2018-07-12 01:00","2018","07","12","01:00","16.3","","16.3","","100","","0.5","","","M","4","","0.6","","101.42","","","","","","Rain,Fog"
"-59.96","43.93","SABLE ISLAND A","8204703","2018-07-12 02:00","2018","07","12","02:00","16.5","","16.5","","100","","2.5","","","M","4","","1.2","","101.42","","","","","","Moderate Rain,Fog"
"-59.96","43.93","SABLE ISLAND A","8204703","2018-07-12 03:00","2018","07","12","03:00","15.7","","15.7","","100","","4.5","","3","","21","","1.2","","101.19","","","","","","Moderate Rain,Fog"
"-59.96","43.93","SABLE ISLAND A","8204703","2018-07-12 04:00","2018","07","12","04:00","15.3","","15.2","","99","","4.0","","4","","30","","1.6","","101.02","","","","","","Rain,Fog"
"-59.96","43.93","SABLE ISLAND A","8204703","2018-07-12 05:00","2018","07","12","05:00","15.3","","15.2","","99","","7.3","","3","","43","","1.6","","100.82","","","","","","Heavy Rain,Fog"
"-59.96","43.93","SABLE ISLAND A","8204703","2018-07-12 06:00","2018","07","12","06:00","15.0","","14.9","","99","","17.2","","3","","48","","0.8","","100.53","","","","","","Heavy Rain,Fog"
"-59.96","43.93","SABLE ISLAND A","8204703","2018-07-12 07:00","2018","07","12","07:00","13.8","","13.7","","99","","14.1","","","M","","M","1.0","","100.11","","","","","","Heavy Rain,Fog"
"-59.96","43.93","SABLE ISLAND A","8204703","2018-07-12 08:00","2018","07","12","08:00","14.5","","14.3","","99","","25.8","","","M","","M","0.6","","99.91","","","","","","Heavy Rain,Fog"
"-59.96","43.93","SABLE ISLAND A","8204703","2018-07-12 09:00","2018","07","12","09:00","14.1","","13.9","","99","","32.7","","","M","","M","0.6","","99.98","","","","","","Heavy Rain,Fog"
"-59.96","43.93","SABLE ISLAND A","8204703","2018-07-12 10:00","2018","07","12","10:00","14.8","","14.3","","97","","5.0","","","M","","M","2.8","","100.21","","","","","","Rain,Fog"
"-59.96","43.93","SABLE ISLAND A","8204703","2018-07-12 11:00","2018","07","12","11:00","14.9","","13.8","","93","","0.0","","","M","","M","4.0","","100.50","","","","","","Fog"
"-59.96","43.93","SABLE ISLAND A","8204703","2018-07-12 12:00","2018","07","12","12:00","14.4","","12.9","","91","","0.0","","","M","","M","2.8","","100.84","","","","","","Fog"
"-59.96","43.93","SABLE ISLAND A","8204703","2018-07-12 13:00","2018","07","12","13:00","15.9","","12.7","","81","","0.0","","","M","","M","4.8","","101.46","","","","","","Haze"
"-59.96","43.93","SABLE ISLAND A","8204703","2018-07-12 14:00","2018","07","12","14:00","15.2","","10.9","","75","","0.0","","","M","","M","6.4","","101.99","","","","","","Haze"
"-59.96","43.93","SABLE ISLAND A","8204703","2018-07-12 15:00","2018","07","12","15:00","15.2","","10.4","","73","","0.0","","","M","","M","8.1","","101.99","","","","","","Haze"
"-59.96","43.93","SABLE ISLAND A","8204703","2018-07-12 16:00","2018","07","12","16:00","15.6","","10.8","","73","","0.0","","","M","","M","4.8","","102.29","","","","","","Haze"
"-59.96","43.93","SABLE ISLAND A","8204703","2018-07-12 17:00","2018","07","12","17:00","15.9","","12.0","","77","","0.0","","","M","","M","2.4","","102.33","","","","","","Haze"
"-59.96","43.93","SABLE ISLAND A","8204703","2018-07-12 18:00","2018","07","12","18:00","15.7","","11.7","","77","","0.0","","","M","","M","4.8","","102.17","","","","","","Haze"
"-59.96","43.93","SABLE ISLAND A","8204703","2018-07-12 19:00","2018","07","12","19:00","14.5","","11.1","","80","","0.0","","","M","","M","4.0","","101.90","","","","","","Haze"
"-59.96","43.93","SABLE ISLAND A","8204703","2018-07-12 20:00","2018","07","12","20:00","12.9","","11.2","","90","","0.0","","","M","","M","1.6","","101.47","","","","","","Fog"
"-59.96","43.93","SABLE ISLAND A","8204703","2018-07-12 21:00","2018","07","12","21:00","12.7","","11.0","","89","","0.0","","30","","9","","4.8","","101.37","","","","","","Fog"
"-59.96","43.93","SABLE ISLAND A","8204703","2018-07-12 22:00","2018","07","12","22:00","12.7","","10.9","","88","","0.0","","30","","9","","3.2","","101.40","","","","","","Fog"
"-59.96","43.93","SABLE ISLAND A","8204703","2018-07-12 23:00","2018","07","12","23:00","11.0","","9.8","","92","","0.0","","33","","8","","3.2","","101.42","","","","","","Fog"
"-59.96","43.93","SABLE ISLAND A","8204703","2018-07-13 00:00","2018","07","13","00:00","12.0","","9.8","","87","","0.0","","","M","4","","9.7","","101.59","","","","","","Fog"
"-59.96","43.93","SABLE ISLAND A","8204703","2018-07-13 01:00","2018","07","13","01:00","11.0","","10.0","","94","","0.0","","6","","4","","6.4","","101.71","","","","","","Fog"
"-59.96","43.93","SABLE ISLAND A","8204703","2018-07-13 02:00","2018","07","13","02:00","10.8","","9.1","","89","","0.0","","","","0","","2.4","","101.70","","","","","","Fog"
"-59.96","43.93","SABLE ISLAND A","8204703","2018-07-13 03:00","2018","07","13","03:00","9.1","","8.8","","98","","0.0","","","","0","","1.6","","101.70","","","","","","Fog"
"-59.96","43.93","SABLE ISLAND A","8204703","2018-07-13 04:00","2018","07","13","04:00","9.3","","8.9","","97","","0.0","","","","0","","1.6","","101.78","","","","","","Fog"
"-59.96","43.93","SABLE ISLAND A","8204703","2018-07-13 05:00","2018","07","13","05:00","9.8","","9.5","","98","","0.0","","3","","5","","2.0","","101.92","","","","","","Fog"
"-59.96","43.93","SABLE ISLAND A","8204703","2018-07-13 06:00","2018","07","13","06:00","12.5","","11.1","","91","","0.0","","5","","8","","9.7","","102.52","","","","","","Fog"
"-59.96","43.93","SABLE ISLAND A","8204703","2018-07-13 07:00","2018","07","13","07:00","13.3","","11.4","","88","","0.0","","5","","9","","12.9","","102.89","","","","","","NA"
"-59.96","43.93","SABLE ISLAND A","8204703","2018-07-13 08:00","2018","07","13","08:00","15.9","","12.5","","80","","0.0","","8","","9","","6.4","","103.00","","","","","","Haze"
"-59.96","43.93","SABLE ISLAND A","8204703","2018-07-13 09:00","2018","07","13","09:00","16.4","","10.4","","67","","0.0","","9","","11","","9.7","","102.87","","","","","","Haze"
"-59.96","43.93","SABLE ISLAND A","8204703","2018-07-13 10:00","2018","07","13","10:00","16.5","","10.4","","67","","0.0","","10","","13","","12.9","","102.82","","","","","","NA"
"-59.96","43.93","SABLE ISLAND A","8204703","2018-07-13 11:00","2018","07","13","11:00","15.3","","12.1","","81","","0.0","","4","","11","","16.1","","102.73","","","","","","NA"
"-59.96","43.93","SABLE ISLAND A","8204703","2018-07-13 12:00","2018","07","13","12:00","15.3","","12.1","","81","","0.0","","5","","13","","16.1","","102.69","","","","","","NA"
"-59.96","43.93","SABLE ISLAND A","8204703","2018-07-13 13:00","2018","07","13","13:00","15.2","","11.9","","80","","0.0","","6","","13","","16.1","","102.64","","","","","","NA"
"-59.96","43.93","SABLE ISLAND A","8204703","2018-07-13 14:00","2018","07","13","14:00","17.0","","12.0","","72","","0.0","","8","","13","","16.1","","102.71","","","","","","NA"
"-59.96","43.93","SABLE ISLAND A","8204703","2018-07-13 15:00","2018","07","13","15:00","15.9","","11.6","","75","","0.0","","6","","17","","16.1","","102.60","","","","","","NA"
"-59.96","43.93","SABLE ISLAND A","8204703","2018-07-13 16:00","2018","07","13","16:00","15.7","","10.6","","71","","0.0","","6","","17","","16.1","","102.57","","","","","","NA"
"-59.96","43.93","SABLE ISLAND A","8204703","2018-07-13 17:00","2018","07","13","17:00","14.3","","10.6","","78","","0.0","","6","","17","","16.1","","102.52","","","","","","NA"
"-59.96","43.93","SABLE ISLAND A","8204703","2018-07-13 18:00","2018","07","13","18:00","14.9","","10.4","","74","","0.0","","9","","18","","16.1","","102.57","","","","","","NA"
"-59.96","43.93","SABLE ISLAND A","8204703","2018-07-13 19:00","2018","07","13","19:00","14.0","","10.3","","78","","0.0","","9","","18","","16.1","","102.56","","","","","","NA"
"-59.96","43.93","SABLE ISLAND A","8204703","2018-07-13 20:00","2018","07","13","20:00","13.2","","10.9","","86","","0.0","","10","","17","","16.1","","102.54","","","","","","NA"
"-59.96","43.93","SABLE ISLAND A","8204703","2018-07-13 21:00","2018","07","13","21:00","13.5","","11.0","","85","","0.0","","8","","13","","16.1","","102.61","","","","","","NA"
"-59.96","43.93","SABLE ISLAND A","8204703","2018-07-13 22:00","2018","07","13","22:00","13.4","","11.4","","88","","0.0","","6","","13","","16.1","","102.61","","","","","","NA"
"-59.96","43.93","SABLE ISLAND A","8204703","2018-07-13 23:00","2018","07","13","23:00","13.5","","11.3","","86","","0.0","","8","","17","","16.1","","102.60","","","","","","NA"
"-59.96","43.93","SABLE ISLAND A","8204703","2018-07-14 00:00","2018","07","14","00:00","13.3","","11.5","","89","","0.0","","5","","15","","16.1","","102.55","","","","","","NA"
"-59.96","43.93","SABLE ISLAND A","8204703","2018-07-14 01:00","2018","07","14","01:00","13.2","","11.8","","91","","0.0","","7","","15","","16.1","","102.48","","","","","","NA"
"-59.96","43.93","SABLE ISLAND A","8204703","2018-07-14 02:00","2018","07","14","02:00","12.9","","12.0","","94","","0.0","","5","","18","","16.1","","102.38","","","","","","NA"
"-59.96","43.93","SABLE ISLAND A","8204703","2018-07-14 03:00","2018","07","14","03:00","12.8","","11.9","","94","","0.0","","7","","18","","16.1","","102.34","","","","","","NA"
"-59.96","43.93","SABLE ISLAND A","8204703","2018-07-14 04:00","2018","07","14","04:00","13.1","","12.2","","94","","0.0","","8","","18","","16.1","","102.37","","","","","","NA"
"-59.96","43.93","SABLE ISLAND A","8204703","2018-07-14 05:00","2018","07","14","05:00","13.5","","12.7","","95","","0.0","","9","","18","","16.1","","102.38","","","","","","NA"
"-59.96","43.93","SABLE ISLAND A","8204703","2018-07-14 06:00","2018","07","14","06:00","13.4","","12.5","","94","","0.0","","9","","21","","11.3","","102.37","","","","","","NA"
"-59.96","43.93","SABLE ISLAND A","8204703","2018-07-14 07:00","2018","07","14","07:00","14.4","","13.8","","96","","0.0","","9","","22","","11.3","","102.43","","","","","","NA"
"-59.96","43.93","SABLE ISLAND A","8204703","2018-07-14 08:00","2018","07","14","08:00","14.4","","13.2","","92","","0.0","","6","","21","","14.5","","102.45","","","","","","NA"
"-59.96","43.93","SABLE ISLAND A","8204703","2018-07-14 09:00","2018","07","14","09:00","14.2","","13.5","","96","","0.0","","7","","18","","2.8","","102.39","","","","","","Fog"
"-59.96","43.93","SABLE ISLAND A","8204703","2018-07-14 10:00","2018","07","14","10:00","13.8","","13.1","","95","","0.0","","6","","22","","1.2","","102.30","","","","","","Fog"
"-59.96","43.93","SABLE ISLAND A","8204703","2018-07-14 11:00","2018","07","14","11:00","15.2","","13.9","","92","","0.0","","9","","22","","11.3","","102.25","","","","","","NA"
"-59.96","43.93","SABLE ISLAND A","8204703","2018-07-14 12:00","2018","07","14","12:00","16.5","","15.0","","91","","0.0","","8","","21","","16.1","","102.30","","","","","","NA"
"-59.96","43.93","SABLE ISLAND A","8204703","2018-07-14 13:00","2018","07","14","13:00","17.6","","15.9","","89","","0.0","","9","","24","","16.1","","102.29","","","","","","NA"
"-59.96","43.93","SABLE ISLAND A","8204703","2018-07-14 14:00","2018","07","14","14:00","15.1","","14.2","","94","","0.0","","11","","17","","1.0","","102.07","","","","","","Rain,Fog"
"-59.96","43.93","SABLE ISLAND A","8204703","2018-07-14 15:00","2018","07","14","15:00","16.7","","15.8","","94","","0.0","","9","","17","","3.6","","102.13","","","","","","Rain,Fog"
"-59.96","43.93","SABLE ISLAND A","8204703","2018-07-14 16:00","2018","07","14","16:00","16.8","","16.2","","96","","0.0","","10","","15","","1.2","","102.07","","","","","","Rain,Fog"
"-59.96","43.93","SABLE ISLAND A","8204703","2018-07-14 17:00","2018","07","14","17:00","16.2","","15.7","","97","","0.0","","10","","9","","0.6","","101.96","","","","","","Rain,Fog"
"-59.96","43.93","SABLE ISLAND A","8204703","2018-07-14 18:00","2018","07","14","18:00","15.0","","14.5","","97","","0.0","","11","","15","","3.2","","101.93","","","","","","Fog"
"-59.96","43.93","SABLE ISLAND A","8204703","2018-07-14 19:00","2018","07","14","19:00","15.0","","14.7","","98","","0.0","","12","","15","","1.6","","101.99","","","","","","Rain,Fog"
"-59.96","43.93","SABLE ISLAND A","8204703","2018-07-14 20:00","2018","07","14","20:00","15.3","","15.2","","99","","0.0","","13","","15","","0.6","","101.99","","","","","","Rain,Fog"
"-59.96","43.93","SABLE ISLAND A","8204703","2018-07-14 21:00","2018","07","14","21:00","15.4","","15.2","","99","","0.0","","15","","18","","0.8","","102.02","","","","","","Rain,Fog"
"-59.96","43.93","SABLE ISLAND A","8204703","2018-07-14 22:00","2018","07","14","22:00","15.4","","15.2","","99","","0.0","","16","","18","","0.6","","101.97","","","","","","Rain,Fog"
"-59.96","43.93","SABLE ISLAND A","8204703","2018-07-14 23:00","2018","07","14","23:00","15.2","","15.1","","99","","0.0","","16","","15","","0.6","","101.95","","","","","","Rain,Fog"
"-59.96","43.93","SABLE ISLAND A","8204703","2018-07-15 00:00","2018","07","15","00:00","15.2","","15.1","","99","","0.0","","15","","17","","0.6","","101.89","","","","","","Rain,Fog"
"-59.96","43.93","SABLE ISLAND A","8204703","2018-07-15 01:00","2018","07","15","01:00","15.3","","15.2","","99","","0.0","","15","","15","","0.4","","101.84","","","","","","Rain,Fog"
"-59.96","43.93","SABLE ISLAND A","8204703","2018-07-15 02:00","2018","07","15","02:00","15.8","","15.7","","99","","0.0","","15","","15","","2.0","","101.80","","","","","","Fog"
"-59.96","43.93","SABLE ISLAND A","8204703","2018-07-15 03:00","2018","07","15","03:00","15.6","","15.5","","99","","0.0","","15","","17","","1.0","","101.73","","","","","","Fog"
"-59.96","43.93","SABLE ISLAND A","8204703","2018-07-15 04:00","2018","07","15","04:00","16.0","","15.9","","99","","2.5","","15","","8","","0.8","","101.70","","","","","","Rain,Fog"
"-59.96","43.93","SABLE ISLAND A","8204703","2018-07-15 05:00","2018","07","15","05:00","15.2","","15.1","","99","","0.0","","14","","13","","0.2","","101.67","","","","","","Fog"
"-59.96","43.93","SABLE ISLAND A","8204703","2018-07-15 06:00","2018","07","15","06:00","15.3","","15.2","","99","","0.0","","16","","15","","0.2","","101.69","","","","","","Fog"
"-59.96","43.93","SABLE ISLAND A","8204703","2018-07-15 07:00","2018","07","15","07:00","15.5","","15.4","","99","","0.0","","15","","15","","0.2","","101.72","","","","","","Fog"
"-59.96","43.93","SABLE ISLAND A","8204703","2018-07-15 08:00","2018","07","15","08:00","16.4","","16.2","","99","","0.2","","17","","11","","0.2","","101.72","","","","","","Rain,Fog"
"-59.96","43.93","SABLE ISLAND A","8204703","2018-07-15 09:00","2018","07","15","09:00","16.7","","16.5","","99","","1.0","","16","","15","","0.4","","101.65","","","","","","Moderate Rain,Fog"
"-59.96","43.93","SABLE ISLAND A","8204703","2018-07-15 10:00","2018","07","15","10:00","16.4","","16.2","","99","","0.8","","13","","11","","0.2","","101.64","","","","","","Fog"
"-59.96","43.93","SABLE ISLAND A","8204703","2018-07-15 11:00","2018","07","15","11:00","16.6","","16.4","","99","","0.0","","15","","17","","0.4","","101.77","","","","","","Fog"
"-59.96","43.93","SABLE ISLAND A","8204703","2018-07-15 12:00","2018","07","15","12:00","16.6","","16.4","","99","","0.0","","16","","17","","0.2","","101.52","","","","","","Fog"
"-59.96","43.93","SABLE ISLAND A","8204703","2018-07-15 13:00","2018","07","15","13:00","17.2","","17.0","","99","","0.0","","19","","17","","0.0","","101.61","","","","","","Fog"
"-59.96","43.93","SABLE ISLAND A","8204703","2018-07-15 14:00","2018","07","15","14:00","17.6","","16.9","","96","","0.0","","19","","15","","1.2","","101.50","","","","","","Fog"
"-59.96","43.93","SABLE ISLAND A","8204703","2018-07-15 15:00","2018","07","15","15:00","19.1","","18.5","","96","","0.0","","18","","9","","1.2","","101.67","","","","","","Fog"
"-59.96","43.93","SABLE ISLAND A","8204703","2018-07-15 16:00","2018","07","15","16:00","17.9","","17.6","","98","","0.0","","15","","15","","0.2","","101.42","","","","","","Fog"
"-59.96","43.93","SABLE ISLAND A","8204703","2018-07-15 17:00","2018","07","15","17:00","17.1","","16.8","","98","","0.0","","16","","17","","0.8","","101.46","","","","","","Rain,Fog"
"-59.96","43.93","SABLE ISLAND A","8204703","2018-07-15 18:00","2018","07","15","18:00","16.5","","16.2","","98","","0.0","","16","","11","","0.2","","101.55","","","","","","Fog"
"-59.96","43.93","SABLE ISLAND A","8204703","2018-07-15 19:00","2018","07","15","19:00","15.4","","15.1","","98","","0.0","","15","","11","","0.2","","101.42","","","","","","Fog"
"-59.96","43.93","SABLE ISLAND A","8204703","2018-07-15 20:00","2018","07","15","20:00","15.7","","15.5","","99","","0.0","","17","","11","","0.0","","101.52","","","","","","Rain,Fog"
"-59.96","43.93","SABLE ISLAND A","8204703","2018-07-15 21:00","2018","07","15","21:00","15.0","","14.9","","99","","0.0","","15","","13","","0.4","","101.53","","","","","","Rain,Fog"
"-59.96","43.93","SABLE ISLAND A","8204703","2018-07-15 22:00","2018","07","15","22:00","15.1","","15.0","","99","","0.0","","16","","8","","0.2","","101.54","","","","","","Rain,Fog"
"-59.96","43.93","SABLE ISLAND A","8204703","2018-07-15 23:00","2018","07","15","23:00","15.1","","15.0","","99","","0.0","","14","","13","","0.4","","101.52","","","","","","Rain,Fog"
"-59.96","43.93","SABLE ISLAND A","8204703","2018-07-16 00:00","2018","07","16","00:00","15.0","","14.9","","100","","0.0","","13","","13","","0.4","","101.53","","","","","","Rain,Fog"
"-59.96","43.93","SABLE ISLAND A","8204703","2018-07-16 01:00","2018","07","16","01:00","15.3","","15.3","","100","","0.0","","13","","5","","0.4","","101.55","","","","","","Rain,Fog"
"-59.96","43.93","SABLE ISLAND A","8204703","2018-07-16 02:00","2018","07","16","02:00","15.6","","15.5","","99","","0.0","","12","","5","","0.4","","101.48","","","","","","Rain,Fog"
"-59.96","43.93","SABLE ISLAND A","8204703","2018-07-16 03:00","2018","07","16","03:00","16.2","","16.2","","100","","0.2","","12","","9","","0.2","","101.47","","","","","","Rain,Fog"
"-59.96","43.93","SABLE ISLAND A","8204703","2018-07-16 04:00","2018","07","16","04:00","15.4","","15.4","","100","","1.5","","12","","9","","0.8","","101.37","","","","","","Rain,Fog"
"-59.96","43.93","SABLE ISLAND A","8204703","2018-07-16 05:00","2018","07","16","05:00","15.1","","15.0","","99","","2.5","","35","","4","","0.4","","101.37","","","","","","Rain,Fog"
"-59.96","43.93","SABLE ISLAND A","8204703","2018-07-16 06:00","2018","07","16","06:00","16.3","","16.3","","100","","0.0","","8","","5","","0.2","","101.48","","","","","","Rain,Fog"
"-59.96","43.93","SABLE ISLAND A","8204703","2018-07-16 07:00","2018","07","16","07:00","17.4","","17.4","","100","","5.8","","13","","11","","0.4","","101.51","","","","","","Moderate Rain,Fog"
"-59.96","43.93","SABLE ISLAND A","8204703","2018-07-16 08:00","2018","07","16","08:00","16.7","","16.7","","100","","5.2","","35","","15","","0.6","","101.40","","","","","","Moderate Rain,Fog"
"-59.96","43.93","SABLE ISLAND A","8204703","2018-07-16 09:00","2018","07","16","09:00","16.9","","16.7","","99","","4.8","","1","","17","","1.2","","101.40","","","","","","Heavy Rain,Fog"
"-59.96","43.93","SABLE ISLAND A","8204703","2018-07-16 10:00","2018","07","16","10:00","17.4","","17.4","","100","","3.0","","5","","9","","1.6","","101.45","","","","","","Rain,Fog"
"-59.96","43.93","SABLE ISLAND A","8204703","2018-07-16 11:00","2018","07","16","11:00","17.3","","17.1","","99","","0.2","","10","","11","","9.7","","101.40","","","","","","Rain,Fog"
"-59.96","43.93","SABLE ISLAND A","8204703","2018-07-16 12:00","2018","07","16","12:00","16.3","","16.1","","99","","0.8","","21","","8","","1.6","","101.16","","","","","","Rain,Fog"
"-59.96","43.93","SABLE ISLAND A","8204703","2018-07-16 13:00","2018","07","16","13:00","17.0","","16.8","","99","","0.8","","15","","13","","0.2","","101.50","","","","","","Rain,Fog"
"-59.96","43.93","SABLE ISLAND A","8204703","2018-07-16 14:00","2018","07","16","14:00","17.2","","17.0","","99","","0.0","","24","","15","","0.4","","101.48","","","","","","Fog"
"-59.96","43.93","SABLE ISLAND A","8204703","2018-07-16 15:00","2018","07","16","15:00","16.2","","15.7","","97","","0.0","","31","","17","","2.4","","101.23","","","","","","Fog"
"-59.96","43.93","SABLE ISLAND A","8204703","2018-07-16 16:00","2018","07","16","16:00","15.5","","15.1","","98","","0.0","","33","","15","","0.4","","101.10","","","","","","Fog"
"-59.96","43.93","SABLE ISLAND A","8204703","2018-07-16 17:00","2018","07","16","17:00","15.4","","14.9","","97","","0.0","","2","","8","","1.2","","101.22","","","","","","Fog"
"-59.96","43.93","SABLE ISLAND A","8204703","2018-07-16 18:00","2018","07","16","18:00","15.6","","15.4","","99","","0.0","","35","","8","","0.2","","101.18","","","","","","Fog"
"-59.96","43.93","SABLE ISLAND A","8204703","2018-07-16 19:00","2018","07","16","19:00","15.5","","15.4","","99","","0.0","","26","","4","","1.6","","101.13","","","","","","Fog"
"-59.96","43.93","SABLE ISLAND A","8204703","2018-07-16 20:00","2018","07","16","20:00","14.9","","14.8","","99","","0.0","","26","","9","","0.2","","100.87","","","","","","Rain,Fog"
"-59.96","43.93","SABLE ISLAND A","8204703","2018-07-16 21:00","2018","07","16","21:00","14.4","","14.3","","99","","0.0","","25","","17","","0.4","","100.94","","","","","","Rain,Fog"
"-59.96","43.93","SABLE ISLAND A","8204703","2018-07-16 22:00","2018","07","16","22:00","14.7","","14.6","","99","","0.0","","26","","18","","0.4","","101.09","","","","","","Rain,Fog"
"-59.96","43.93","SABLE ISLAND A","8204703","2018-07-16 23:00","2018","07","16","23:00","14.6","","14.5","","99","","0.2","","26","","13","","0.6","","101.23","","","","","","Rain,Fog"
"-59.96","43.93","SABLE ISLAND A","8204703","2018-07-17 00:00","2018","07","17","00:00","14.9","","14.8","","99","","0.0","","26","","13","","1.6","","101.37","","","","","","Fog"
"-59.96","43.93","SABLE ISLAND A","8204703","2018-07-17 01:00","2018","07","17","01:00","14.3","","14.2","","99","","0.0","","24","","18","","1.6","","101.34","","","","","","Rain,Fog"
"-59.96","43.93","SABLE ISLAND A","8204703","2018-07-17 02:00","2018","07","17","02:00","14.3","","14.0","","98","","0.0","","24","","17","","2.8","","101.42","","","","","","Fog"
"-59.96","43.93","SABLE ISLAND A","8204703","2018-07-17 03:00","2018","07","17","03:00","14.1","","13.6","","97","","0.0","","23","","18","","3.6","","101.41","","","","","","Fog"
"-59.96","43.93","SABLE ISLAND A","8204703","2018-07-17 04:00","2018","07","17","04:00","14.1","","13.5","","96","","0.0","","23","","21","","4.0","","101.44","","","","","","Fog"
"-59.96","43.93","SABLE ISLAND A","8204703","2018-07-17 05:00","2018","07","17","05:00","14.2","","13.7","","97","","0.0","","23","","24","","4.0","","101.51","","","","","","Fog"
"-59.96","43.93","SABLE ISLAND A","8204703","2018-07-17 06:00","2018","07","17","06:00","14.3","","14.0","","98","","0.0","","23","","21","","4.0","","101.65","","","","","","Fog"
"-59.96","43.93","SABLE ISLAND A","8204703","2018-07-17 07:00","2018","07","17","07:00","14.1","","13.8","","98","","0.0","","23","","24","","0.4","","101.69","","","","","","Rain,Fog"
"-59.96","43.93","SABLE ISLAND A","8204703","2018-07-17 08:00","2018","07","17","08:00","14.2","","13.7","","97","","0.0","","23","","26","","0.4","","101.77","","","","","","Rain,Fog"
"-59.96","43.93","SABLE ISLAND A","8204703","2018-07-17 09:00","2018","07","17","09:00","14.7","","13.8","","95","","0.0","","23","","30","","1.2","","101.81","","","","","","Rain,Fog"
"-59.96","43.93","SABLE ISLAND A","8204703","2018-07-17 10:00","2018","07","17","10:00","15.6","","14.8","","95","","0.0","","24","","24","","0.4","","101.83","","","","","","Rain,Fog"
"-59.96","43.93","SABLE ISLAND A","8204703","2018-07-17 11:00","2018","07","17","11:00","16.4","","15.5","","95","","0.0","","23","","21","","0.8","","101.90","","","","","","Rain,Fog"
"-59.96","43.93","SABLE ISLAND A","8204703","2018-07-17 12:00","2018","07","17","12:00","16.1","","15.2","","94","","0.0","","22","","17","","2.8","","101.69","","","","","","Rain,Fog"
"-59.96","43.93","SABLE ISLAND A","8204703","2018-07-17 13:00","2018","07","17","13:00","17.0","","15.7","","92","","0.0","","21","","21","","0.6","","101.73","","","","","","Fog"
"-59.96","43.93","SABLE ISLAND A","8204703","2018-07-17 14:00","2018","07","17","14:00","17.3","","15.8","","91","","0.0","","19","","17","","4.8","","101.65","","","","","","Fog"
"-59.96","43.93","SABLE ISLAND A","8204703","2018-07-17 15:00","2018","07","17","15:00","16.4","","15.4","","94","","0.0","","18","","15","","4.8","","101.54","","","","","","Fog"
"-59.96","43.93","SABLE ISLAND A","8204703","2018-07-17 16:00","2018","07","17","16:00","16.4","","15.6","","95","","0.0","","17","","15","","4.8","","101.58","","","","","","Fog"
"-59.96","43.93","SABLE ISLAND A","8204703","2018-07-17 17:00","2018","07","17","17:00","16.6","","16.1","","97","","0.0","","17","","18","","1.0","","101.52","","","","","","Rain,Fog"
"-59.96","43.93","SABLE ISLAND A","8204703","2018-07-17 18:00","2018","07","17","18:00","16.4","","16.1","","98","","0.0","","19","","22","","0.4","","101.50","","","","","","Rain,Fog"
"-59.96","43.93","SABLE ISLAND A","8204703","2018-07-17 19:00","2018","07","17","19:00","16.3","","16.1","","99","","0.0","","20","","22","","0.2","","101.52","","","","","","Rain,Fog"
"-59.96","43.93","SABLE ISLAND A","8204703","2018-07-17 20:00","2018","07","17","20:00","16.0","","15.9","","99","","0.0","","20","","21","","0.2","","101.54","","","","","","Rain,Fog"
"-59.96","43.93","SABLE ISLAND A","8204703","2018-07-17 21:00","2018","07","17","21:00","15.9","","15.7","","99","","0.0","","19","","21","","0.4","","101.60","","","","","","Rain,Fog"
"-59.96","43.93","SABLE ISLAND A","8204703","2018-07-17 22:00","2018","07","17","22:00","16.2","","16.0","","99","","0.0","","20","","26","","0.4","","101.62","","","","","","Rain,Fog"
"-59.96","43.93","SABLE ISLAND A","8204703","2018-07-17 23:00","2018","07","17","23:00","16.3","","16.1","","99","","0.0","","21","","22","","0.4","","101.61","","","","","","Rain,Fog"
"-59.96","43.93","SABLE ISLAND A","8204703","2018-07-18 00:00","2018","07","18","00:00","16.1","","16.0","","99","","0.0","","20","","24","","0.4","","101.57","","","","","","Rain,Fog"
"-59.96","43.93","SABLE ISLAND A","8204703","2018-07-18 01:00","2018","07","18","01:00","16.3","","16.1","","99","","0.2","","20","","24","","0.4","","101.53","","","","","","Rain,Fog"
"-59.96","43.93","SABLE ISLAND A","8204703","2018-07-18 02:00","2018","07","18","02:00","15.8","","15.8","","100","","0.0","","19","","22","","0.4","","101.46","","","","","","Rain,Fog"
"-59.96","43.93","SABLE ISLAND A","8204703","2018-07-18 03:00","2018","07","18","03:00","16.3","","16.1","","99","","0.0","","19","","26","","0.4","","101.46","","","","","","Rain,Fog"
"-59.96","43.93","SABLE ISLAND A","8204703","2018-07-18 04:00","2018","07","18","04:00","16.6","","16.6","","100","","0.0","","19","","28","","0.4","","101.45","","","","","","Rain,Fog"
"-59.96","43.93","SABLE ISLAND A","8204703","2018-07-18 05:00","2018","07","18","05:00","15.8","","15.8","","100","","0.0","","19","","26","","0.2","","101.38","","","","","","Rain,Fog"
"-59.96","43.93","SABLE ISLAND A","8204703","2018-07-18 06:00","2018","07","18","06:00","16.0","","15.9","","99","","0.0","","18","","26","","0.2","","101.39","","","","","","Rain,Fog"
"-59.96","43.93","SABLE ISLAND A","8204703","2018-07-18 07:00","2018","07","18","07:00","16.6","","16.6","","100","","0.2","","19","","32","","0.2","","101.43","","","","","","Rain,Fog"
"-59.96","43.93","SABLE ISLAND A","8204703","2018-07-18 08:00","2018","07","18","08:00","16.7","","16.5","","99","","0.0","","18","","30","","0.2","","101.49","","","","","","Rain,Fog"
"-59.96","43.93","SABLE ISLAND A","8204703","2018-07-18 09:00","2018","07","18","09:00","17.3","","17.0","","98","","0.0","","16","","28","","0.4","","101.50","","","","","","Rain,Fog"
"-59.96","43.93","SABLE ISLAND A","8204703","2018-07-18 10:00","2018","07","18","10:00","17.3","","16.6","","95","","0.0","","17","","26","","0.8","","101.38","","","","","","Rain,Fog"
"-59.96","43.93","SABLE ISLAND A","8204703","2018-07-18 11:00","2018","07","18","11:00","17.8","","17.0","","95","","0.0","","17","","30","","2.0","","101.19","","","","","","Rain,Fog"
"-59.96","43.93","SABLE ISLAND A","8204703","2018-07-18 12:00","2018","07","18","12:00","17.8","","16.8","","94","","0.0","","17","","34","","4.8","","101.20","","","","","","Fog"
"-59.96","43.93","SABLE ISLAND A","8204703","2018-07-18 13:00","2018","07","18","13:00","18.1","","17.0","","93","","0.0","","17","","35","","4.0","","101.25","","","","","","Fog"
"-59.96","43.93","SABLE ISLAND A","8204703","2018-07-18 14:00","2018","07","18","14:00","17.5","","16.7","","95","","0.0","","18","","34","","3.6","","101.11","","","","","","Fog"
"-59.96","43.93","SABLE ISLAND A","8204703","2018-07-18 15:00","2018","07","18","15:00","18.1","","17.5","","96","","0.2","","18","","34","","1.6","","101.28","","","","","","Fog"
"-59.96","43.93","SABLE ISLAND A","8204703","2018-07-18 16:00","2018","07","18","16:00","16.5","","16.2","","98","","0.2","","18","","24","","0.6","","101.16","","","","","","Fog"
"-59.96","43.93","SABLE ISLAND A","8204703","2018-07-18 17:00","2018","07","18","17:00","16.4","","16.2","","99","","0.0","","18","","26","","0.4","","101.11","","","","","","Rain,Fog"
"-59.96","43.93","SABLE ISLAND A","8204703","2018-07-18 18:00","2018","07","18","18:00","16.6","","16.4","","99","","0.2","","18","","32","","0.4","","101.16","","","","","","Rain,Fog"
"-59.96","43.93","SABLE ISLAND A","8204703","2018-07-18 19:00","2018","07","18","19:00","16.9","","16.7","","99","","1.2","","19","","30","","0.4","","101.20","","","","","","Rain,Fog"
"-59.96","43.93","SABLE ISLAND A","8204703","2018-07-18 20:00","2018","07","18","20:00","15.4","","15.2","","99","","0.5","","19","","21","","0.4","","101.16","","","","","","Rain,Fog"
"-59.96","43.93","SABLE ISLAND A","8204703","2018-07-18 21:00","2018","07","18","21:00","16.1","","16.0","","99","","0.5","","18","","28","","1.2","","101.22","","","","","","Rain,Fog"
"-59.96","43.93","SABLE ISLAND A","8204703","2018-07-18 22:00","2018","07","18","22:00","16.3","","16.1","","99","","0.2","","17","","26","","1.2","","101.17","","","","","","Rain,Fog"
"-59.96","43.93","SABLE ISLAND A","8204703","2018-07-18 23:00","2018","07","18","23:00","17.1","","16.9","","99","","1.0","","17","","34","","0.6","","101.13","","","","","","Rain,Fog"
"-59.96","43.93","SABLE ISLAND A","8204703","2018-07-19 00:00","2018","07","19","00:00","16.9","","16.7","","99","","1.5","","18","","32","","0.6","","101.07","","","","","","Rain,Fog"
"-59.96","43.93","SABLE ISLAND A","8204703","2018-07-19 01:00","2018","07","19","01:00","17.2","","17.0","","99","","0.5","","18","","39","","0.6","","101.08","","","","","","Rain,Fog"
"-59.96","43.93","SABLE ISLAND A","8204703","2018-07-19 02:00","2018","07","19","02:00","16.7","","16.7","","100","","0.0","","19","","32","","0.4","","101.02","","","","","","Rain,Fog"
"-59.96","43.93","SABLE ISLAND A","8204703","2018-07-19 03:00","2018","07","19","03:00","16.4","","16.4","","100","","0.0","","19","","28","","0.4","","101.02","","","","","","Rain,Fog"
"-59.96","43.93","SABLE ISLAND A","8204703","2018-07-19 04:00","2018","07","19","04:00","16.7","","16.7","","100","","0.2","","20","","26","","0.4","","101.06","","","","","","Rain,Fog"
"-59.96","43.93","SABLE ISLAND A","8204703","2018-07-19 05:00","2018","07","19","05:00","15.7","","15.5","","99","","1.2","","22","","17","","0.4","","101.01","","","","","","Rain,Fog"
"-59.96","43.93","SABLE ISLAND A","8204703","2018-07-19 06:00","2018","07","19","06:00","15.5","","15.5","","100","","0.5","","22","","15","","0.2","","101.05","","","","","","Rain,Fog"
"-59.96","43.93","SABLE ISLAND A","8204703","2018-07-19 07:00","2018","07","19","07:00","15.4","","15.4","","100","","1.0","","21","","8","","0.4","","101.10","","","","","","Rain,Fog"
"-59.96","43.93","SABLE ISLAND A","8204703","2018-07-19 08:00","2018","07","19","08:00","15.8","","15.7","","100","","0.2","","15","","9","","0.4","","101.28","","","","","","Fog"
"-59.96","43.93","SABLE ISLAND A","8204703","2018-07-19 09:00","2018","07","19","09:00","15.8","","15.7","","100","","0.0","","24","","8","","0.4","","101.20","","","","","","Rain,Fog"
"-59.96","43.93","SABLE ISLAND A","8204703","2018-07-19 10:00","2018","07","19","10:00","17.3","","17.3","","100","","0.8","","","","0","","4.0","","101.54","","","","","","Fog"
"-59.96","43.93","SABLE ISLAND A","8204703","2018-07-19 11:00","2018","07","19","11:00","15.5","","15.4","","100","","0.0","","34","","15","","0.4","","101.26","","","","","","Fog"
"-59.96","43.93","SABLE ISLAND A","8204703","2018-07-19 12:00","2018","07","19","12:00","14.6","","14.5","","99","","0.0","","35","","13","","0.4","","101.22","","","","","","Fog"
"-59.96","43.93","SABLE ISLAND A","8204703","2018-07-19 13:00","2018","07","19","13:00","15.9","","15.5","","98","","0.2","","35","","8","","14.5","","101.59","","","","","","NA"
"-59.96","43.93","SABLE ISLAND A","8204703","2018-07-19 14:00","2018","07","19","14:00","16.2","","15.7","","97","","0.2","","4","","8","","16.1","","101.54","","","","","","NA"
"-59.96","43.93","SABLE ISLAND A","8204703","2018-07-19 15:00","2018","07","19","15:00","15.1","","14.8","","98","","0.2","","","M","4","","1.2","","101.27","","","","","","Rain,Fog"
"-59.96","43.93","SABLE ISLAND A","8204703","2018-07-19 16:00","2018","07","19","16:00","14.8","","14.7","","99","","3.5","","36","","8","","1.6","","101.30","","","","","","Rain,Fog"
"-59.96","43.93","SABLE ISLAND A","8204703","2018-07-19 17:00","2018","07","19","17:00","14.6","","14.5","","99","","0.5","","4","","9","","6.4","","101.41","","","","","","Fog"
"-59.96","43.93","SABLE ISLAND A","8204703","2018-07-19 18:00","2018","07","19","18:00","14.9","","14.8","","99","","0.0","","4","","15","","1.2","","101.58","","","","","","Fog"
"-59.96","43.93","SABLE ISLAND A","8204703","2018-07-19 19:00","2018","07","19","19:00","14.4","","14.3","","99","","0.0","","7","","13","","1.6","","101.49","","","","","","Fog"
"-59.96","43.93","SABLE ISLAND A","8204703","2018-07-19 20:00","2018","07","19","20:00","14.9","","14.8","","99","","0.0","","7","","11","","0.6","","101.62","","","","","","Fog"
"-59.96","43.93","SABLE ISLAND A","8204703","2018-07-19 21:00","2018","07","19","21:00","14.1","","14.0","","99","","0.0","","10","","15","","0.4","","101.57","","","","","","Fog"
"-59.96","43.93","SABLE ISLAND A","8204703","2018-07-19 22:00","2018","07","19","22:00","14.0","","13.9","","99","","0.0","","11","","9","","1.2","","101.70","","","","","","Fog"
"-59.96","43.93","SABLE ISLAND A","8204703","2018-07-19 23:00","2018","07","19","23:00","14.2","","14.1","","99","","0.0","","10","","5","","0.8","","101.78","","","","","","Fog"
"-59.96","43.93","SABLE ISLAND A","8204703","2018-07-20 00:00","2018","07","20","00:00","13.8","","13.7","","99","","0.0","","4","","11","","0.6","","101.73","","","","","","Fog"
"-59.96","43.93","SABLE ISLAND A","8204703","2018-07-20 01:00","2018","07","20","01:00","13.8","","13.8","","100","","0.0","","3","","11","","0.6","","101.77","","","","","","Fog"
"-59.96","43.93","SABLE ISLAND A","8204703","2018-07-20 02:00","2018","07","20","02:00","14.3","","14.3","","100","","0.0","","5","","9","","0.4","","101.84","","","","","","Fog"
"-59.96","43.93","SABLE ISLAND A","8204703","2018-07-20 03:00","2018","07","20","03:00","13.9","","13.9","","100","","0.0","","4","","9","","0.6","","101.86","","","","","","Fog"
"-59.96","43.93","SABLE ISLAND A","8204703","2018-07-20 04:00","2018","07","20","04:00","13.6","","13.6","","100","","0.0","","3","","11","","0.8","","101.86","","","","","","Fog"
"-59.96","43.93","SABLE ISLAND A","8204703","2018-07-20 05:00","2018","07","20","05:00","13.9","","13.9","","100","","0.0","","4","","11","","0.4","","101.95","","","","","","Fog"
"-59.96","43.93","SABLE ISLAND A","8204703","2018-07-20 06:00","2018","07","20","06:00","13.8","","13.8","","100","","0.0","","1","","11","","0.2","","102.06","","","","","","Fog"
"-59.96","43.93","SABLE ISLAND A","8204703","2018-07-20 07:00","2018","07","20","07:00","14.5","","14.5","","100","","0.2","","4","","9","","0.6","","102.20","","","","","","Fog"
"-59.96","43.93","SABLE ISLAND A","8204703","2018-07-20 08:00","2018","07","20","08:00","14.0","","13.9","","99","","0.0","","2","","15","","14.5","","102.19","","","","","","NA"
"-59.96","43.93","SABLE ISLAND A","8204703","2018-07-20 09:00","2018","07","20","09:00","14.6","","14.5","","99","","0.0","","3","","15","","16.1","","102.30","","","","","","NA"
"-59.96","43.93","SABLE ISLAND A","8204703","2018-07-20 10:00","2018","07","20","10:00","16.7","","15.2","","91","","0.0","","4","","11","","16.1","","102.54","","","","","","NA"
"-59.96","43.93","SABLE ISLAND A","8204703","2018-07-20 11:00","2018","07","20","11:00","16.7","","14.7","","88","","0.0","","6","","11","","16.1","","102.43","","","","","","NA"
"-59.96","43.93","SABLE ISLAND A","8204703","2018-07-20 12:00","2018","07","20","12:00","16.3","","14.1","","87","","0.0","","6","","15","","16.1","","102.27","","","","","","NA"
"-59.96","43.93","SABLE ISLAND A","8204703","2018-07-20 13:00","2018","07","20","13:00","16.6","","14.9","","90","","0.0","","5","","15","","16.1","","102.37","","","","","","NA"
"-59.96","43.93","SABLE ISLAND A","8204703","2018-07-20 14:00","2018","07","20","14:00","17.0","","15.2","","89","","0.0","","4","","11","","12.9","","102.39","","","","","","NA"
"-59.96","43.93","SABLE ISLAND A","8204703","2018-07-20 15:00","2018","07","20","15:00","15.7","","14.9","","95","","0.0","","5","","13","","1.6","","102.24","","","","","","Fog"
"-59.96","43.93","SABLE ISLAND A","8204703","2018-07-20 16:00","2018","07","20","16:00","15.8","","15.2","","96","","0.0","","5","","11","","2.0","","102.27","","","","","","Fog"
"-59.96","43.93","SABLE ISLAND A","8204703","2018-07-20 17:00","2018","07","20","17:00","15.9","","15.0","","94","","0.0","","11","","17","","4.8","","102.34","","","","","","Fog"
"-59.96","43.93","SABLE ISLAND A","8204703","2018-07-20 18:00","2018","07","20","18:00","14.6","","14.3","","98","","0.0","","11","","15","","0.2","","102.22","","","","","","Fog"
"-59.96","43.93","SABLE ISLAND A","8204703","2018-07-20 19:00","2018","07","20","19:00","14.4","","14.3","","99","","0.0","","11","","15","","0.2","","102.34","","","","","","Fog"
"-59.96","43.93","SABLE ISLAND A","8204703","2018-07-20 20:00","2018","07","20","20:00","14.3","","14.2","","99","","0.0","","11","","15","","0.6","","102.39","","","","","","Fog"
"-59.96","43.93","SABLE ISLAND A","8204703","2018-07-20 21:00","2018","07","20","21:00","14.5","","14.4","","99","","0.0","","12","","15","","1.6","","102.50","","","","","","Fog"
"-59.96","43.93","SABLE ISLAND A","8204703","2018-07-20 22:00","2018","07","20","22:00","14.8","","14.7","","99","","0.2","","10","","11","","0.8","","102.51","","","","","","Rain,Fog"
"-59.96","43.93","SABLE ISLAND A","8204703","2018-07-20 23:00","2018","07","20","23:00","14.4","","14.3","","99","","0.0","","12","","9","","1.2","","102.48","","","","","","Fog"
"-59.96","43.93","SABLE ISLAND A","8204703","2018-07-21 00:00","2018","07","21","00:00","14.2","","14.1","","99","","0.5","","11","","15","","1.2","","102.45","","","","","","Rain,Fog"
"-59.96","43.93","SABLE ISLAND A","8204703","2018-07-21 01:00","2018","07","21","01:00","14.4","","14.4","","100","","0.5","","10","","18","","1.6","","102.44","","","","","","Fog"
"-59.96","43.93","SABLE ISLAND A","8204703","2018-07-21 02:00","2018","07","21","02:00","15.1","","15.1","","100","","0.0","","9","","18","","3.6","","102.46","","","","","","Rain,Fog"
"-59.96","43.93","SABLE ISLAND A","8204703","2018-07-21 03:00","2018","07","21","03:00","15.2","","15.1","","99","","0.5","","9","","21","","4.8","","102.41","","","","","","Rain,Fog"
"-59.96","43.93","SABLE ISLAND A","8204703","2018-07-21 04:00","2018","07","21","04:00","15.2","","15.1","","99","","0.8","","10","","26","","4.0","","102.39","","","","","","Rain,Fog"
"-59.96","43.93","SABLE ISLAND A","8204703","2018-07-21 05:00","2018","07","21","05:00","15.0","","14.9","","99","","12.7","","10","","18","","2.0","","102.38","","","","","","Rain,Fog"
"-59.96","43.93","SABLE ISLAND A","8204703","2018-07-21 06:00","2018","07","21","06:00","15.3","","15.2","","99","","0.2","","11","","22","","1.0","","102.42","","","","","","Rain,Fog"
"-59.96","43.93","SABLE ISLAND A","8204703","2018-07-21 07:00","2018","07","21","07:00","15.7","","15.5","","99","","0.0","","12","","21","","0.4","","102.50","","","","","","Rain,Fog"
"-59.96","43.93","SABLE ISLAND A","8204703","2018-07-21 08:00","2018","07","21","08:00","16.7","","16.7","","100","","0.0","","12","","21","","0.4","","102.68","","","","","","Rain,Fog"
"-59.96","43.93","SABLE ISLAND A","8204703","2018-07-21 09:00","2018","07","21","09:00","16.9","","16.7","","99","","0.0","","13","","24","","0.4","","102.69","","","","","","Rain,Fog"
"-59.96","43.93","SABLE ISLAND A","8204703","2018-07-21 10:00","2018","07","21","10:00","17.9","","17.5","","97","","0.0","","14","","24","","1.2","","102.66","","","","","","Rain,Fog"
"-59.96","43.93","SABLE ISLAND A","8204703","2018-07-21 11:00","2018","07","21","11:00","18.2","","17.4","","95","","0.0","","14","","24","","2.0","","102.64","","","","","","Fog"
"-59.96","43.93","SABLE ISLAND A","8204703","2018-07-21 12:00","2018","07","21","12:00","17.8","","17.3","","97","","0.0","","14","","32","","1.6","","102.36","","","","","","Fog"
"-59.96","43.93","SABLE ISLAND A","8204703","2018-07-21 13:00","2018","07","21","13:00","17.8","","17.5","","98","","0.0","","14","","32","","1.0","","102.33","","","","","","Rain,Fog"
"-59.96","43.93","SABLE ISLAND A","8204703","2018-07-21 14:00","2018","07","21","14:00","17.5","","17.2","","98","","0.2","","15","","26","","1.2","","102.23","","","","","","Rain,Fog"
"-59.96","43.93","SABLE ISLAND A","8204703","2018-07-21 15:00","2018","07","21","15:00","18.0","","17.6","","98","","0.0","","17","","26","","4.0","","102.48","","","","","","Fog"
"-59.96","43.93","SABLE ISLAND A","8204703","2018-07-21 16:00","2018","07","21","16:00","17.0","","16.7","","98","","0.0","","16","","22","","0.4","","102.30","","","","","","Fog"
"-59.96","43.93","SABLE ISLAND A","8204703","2018-07-21 17:00","2018","07","21","17:00","17.1","","16.8","","98","","0.0","","17","","21","","2.0","","102.38","","","","","","Fog"
"-59.96","43.93","SABLE ISLAND A","8204703","2018-07-21 18:00","2018","07","21","18:00","17.4","","17.1","","98","","0.0","","17","","24","","1.2","","102.44","","","","","","Fog"
"-59.96","43.93","SABLE ISLAND A","8204703","2018-07-21 19:00","2018","07","21","19:00","16.9","","16.7","","99","","0.0","","17","","18","","0.4","","102.47","","","","","","Rain,Fog"
"-59.96","43.93","SABLE ISLAND A","8204703","2018-07-21 20:00","2018","07","21","20:00","17.1","","16.9","","99","","0.0","","16","","21","","0.6","","102.54","","","","","","Rain,Fog"
"-59.96","43.93","SABLE ISLAND A","8204703","2018-07-21 21:00","2018","07","21","21:00","16.8","","16.6","","99","","0.0","","16","","21","","0.6","","102.59","","","","","","Rain,Fog"
"-59.96","43.93","SABLE ISLAND A","8204703","2018-07-21 22:00","2018","07","21","22:00","16.7","","16.5","","99","","0.2","","15","","24","","0.6","","102.57","","","","","","Rain,Fog"
"-59.96","43.93","SABLE ISLAND A","8204703","2018-07-21 23:00","2018","07","21","23:00","16.8","","16.6","","99","","0.0","","16","","24","","0.6","","102.63","","","","","","Rain,Fog"
"-59.96","43.93","SABLE ISLAND A","8204703","2018-07-22 00:00","2018","07","22","00:00","17.3","","17.3","","100","","0.0","","17","","32","","0.6","","102.67","","","","","","Rain,Fog"
"-59.96","43.93","SABLE ISLAND A","8204703","2018-07-22 01:00","2018","07","22","01:00","16.9","","16.7","","99","","0.0","","17","","30","","0.8","","102.63","","","","","","Rain,Fog"
"-59.96","43.93","SABLE ISLAND A","8204703","2018-07-22 02:00","2018","07","22","02:00","16.5","","16.5","","100","","0.0","","17","","30","","0.4","","102.57","","","","","","Rain,Fog"
"-59.96","43.93","SABLE ISLAND A","8204703","2018-07-22 03:00","2018","07","22","03:00","16.4","","16.4","","100","","0.0","","18","","26","","0.6","","102.60","","","","","","Rain,Fog"
"-59.96","43.93","SABLE ISLAND A","8204703","2018-07-22 04:00","2018","07","22","04:00","16.6","","16.6","","100","","0.0","","18","","30","","0.6","","102.65","","","","","","Rain,Fog"
"-59.96","43.93","SABLE ISLAND A","8204703","2018-07-22 05:00","2018","07","22","05:00","16.4","","16.4","","100","","0.0","","18","","26","","0.4","","102.67","","","","","","Rain,Fog"
"-59.96","43.93","SABLE ISLAND A","8204703","2018-07-22 06:00","2018","07","22","06:00","17.1","","17.1","","100","","0.0","","18","","26","","0.4","","102.88","","","","","","Fog"
"-59.96","43.93","SABLE ISLAND A","8204703","2018-07-22 07:00","2018","07","22","07:00","17.1","","17.1","","100","","0.0","","19","","24","","0.2","","102.90","","","","","","Rain,Fog"
"-59.96","43.93","SABLE ISLAND A","8204703","2018-07-22 08:00","2018","07","22","08:00","17.1","","16.9","","99","","0.0","","18","","26","","0.8","","102.89","","","","","","Rain,Fog"
"-59.96","43.93","SABLE ISLAND A","8204703","2018-07-22 09:00","2018","07","22","09:00","18.0","","17.3","","95","","0.0","","18","","22","","1.2","","102.99","","","","","","Rain,Fog"
"-59.96","43.93","SABLE ISLAND A","8204703","2018-07-22 10:00","2018","07","22","10:00","18.3","","17.4","","95","","0.0","","18","","22","","1.6","","102.92","","","","","","Rain,Fog"
"-59.96","43.93","SABLE ISLAND A","8204703","2018-07-22 11:00","2018","07","22","11:00","18.3","","17.5","","95","","0.0","","18","","26","","1.6","","102.80","","","","","","Rain,Fog"
"-59.96","43.93","SABLE ISLAND A","8204703","2018-07-22 12:00","2018","07","22","12:00","18.5","","17.2","","92","","0.0","","18","","22","","1.0","","102.87","","","","","","Rain,Fog"
"-59.96","43.93","SABLE ISLAND A","8204703","2018-07-22 13:00","2018","07","22","13:00","18.8","","17.7","","93","","0.0","","19","","24","","1.6","","102.84","","","","","","Rain,Fog"
"-59.96","43.93","SABLE ISLAND A","8204703","2018-07-22 14:00","2018","07","22","14:00","18.8","","17.5","","92","","0.0","","18","","21","","1.6","","102.93","","","","","","Rain,Fog"
"-59.96","43.93","SABLE ISLAND A","8204703","2018-07-22 15:00","2018","07","22","15:00","18.5","","17.2","","92","","0.0","","18","","22","","2.4","","102.90","","","","","","Rain,Fog"
"-59.96","43.93","SABLE ISLAND A","8204703","2018-07-22 16:00","2018","07","22","16:00","18.8","","17.5","","92","","0.0","","18","","17","","2.8","","102.98","","","","","","Rain,Fog"
"-59.96","43.93","SABLE ISLAND A","8204703","2018-07-22 17:00","2018","07","22","17:00","18.5","","17.4","","93","","0.0","","18","","18","","1.6","","102.94","","","","","","Rain,Fog"
"-59.96","43.93","SABLE ISLAND A","8204703","2018-07-22 18:00","2018","07","22","18:00","17.8","","17.2","","96","","0.0","","18","","18","","1.6","","102.94","","","","","","Rain,Fog"
"-59.96","43.93","SABLE ISLAND A","8204703","2018-07-22 19:00","2018","07","22","19:00","17.4","","17.1","","98","","0.0","","19","","18","","0.4","","102.93","","","","","","Rain,Fog"
"-59.96","43.93","SABLE ISLAND A","8204703","2018-07-22 20:00","2018","07","22","20:00","16.8","","16.6","","99","","0.0","","19","","21","","0.2","","102.94","","","","","","Rain,Fog"
"-59.96","43.93","SABLE ISLAND A","8204703","2018-07-22 21:00","2018","07","22","21:00","16.6","","16.4","","99","","0.0","","19","","18","","0.2","","103.01","","","","","","Rain,Fog"
"-59.96","43.93","SABLE ISLAND A","8204703","2018-07-22 22:00","2018","07","22","22:00","16.5","","16.3","","99","","0.0","","19","","17","","0.2","","103.05","","","","","","Rain,Fog"
"-59.96","43.93","SABLE ISLAND A","8204703","2018-07-22 23:00","2018","07","22","23:00","16.5","","16.4","","99","","0.2","","19","","17","","0.2","","103.05","","","","","","Rain,Fog"
"-59.96","43.93","SABLE ISLAND A","8204703","2018-07-23 00:00","2018","07","23","00:00","16.3","","16.3","","100","","0.0","","20","","17","","0.2","","103.02","","","","","","Rain,Fog"
"-59.96","43.93","SABLE ISLAND A","8204703","2018-07-23 01:00","2018","07","23","01:00","16.1","","16.1","","100","","0.0","","19","","17","","0.2","","103.00","","","","","","Rain,Fog"
"-59.96","43.93","SABLE ISLAND A","8204703","2018-07-23 02:00","2018","07","23","02:00","15.9","","15.9","","100","","0.0","","20","","13","","0.2","","102.98","","","","","","Rain,Fog"
"-59.96","43.93","SABLE ISLAND A","8204703","2018-07-23 03:00","2018","07","23","03:00","15.8","","15.8","","100","","0.2","","20","","15","","0.2","","102.99","","","","","","Rain,Fog"
"-59.96","43.93","SABLE ISLAND A","8204703","2018-07-23 04:00","2018","07","23","04:00","15.7","","15.7","","100","","0.0","","20","","15","","0.2","","103.00","","","","","","Rain,Fog"
"-59.96","43.93","SABLE ISLAND A","8204703","2018-07-23 05:00","2018","07","23","05:00","15.6","","15.6","","100","","0.0","","19","","9","","0.2","","103.03","","","","","","Rain,Fog"
"-59.96","43.93","SABLE ISLAND A","8204703","2018-07-23 06:00","2018","07","23","06:00","16.1","","16.1","","100","","0.0","","19","","8","","0.2","","103.11","","","","","","Rain,Fog"
"-59.96","43.93","SABLE ISLAND A","8204703","2018-07-23 07:00","2018","07","23","07:00","16.4","","16.4","","100","","0.0","","18","","8","","0.2","","103.13","","","","","","Rain,Fog"
"-59.96","43.93","SABLE ISLAND A","8204703","2018-07-23 08:00","2018","07","23","08:00","17.2","","17.2","","100","","0.0","","19","","8","","0.0","","103.16","","","","","","Rain,Fog"
"-59.96","43.93","SABLE ISLAND A","8204703","2018-07-23 09:00","2018","07","23","09:00","17.4","","17.2","","99","","0.0","","19","","9","","0.6","","103.23","","","","","","Rain,Fog"
"-59.96","43.93","SABLE ISLAND A","8204703","2018-07-23 10:00","2018","07","23","10:00","18.4","","18.1","","98","","0.0","","19","","13","","0.6","","103.15","","","","","","Rain,Fog"
"-59.96","43.93","SABLE ISLAND A","8204703","2018-07-23 11:00","2018","07","23","11:00","18.7","","18.2","","97","","0.0","","19","","11","","1.2","","103.15","","","","","","Rain,Fog"
"-59.96","43.93","SABLE ISLAND A","8204703","2018-07-23 12:00","2018","07","23","12:00","19.4","","18.4","","94","","0.0","","20","","13","","1.2","","103.08","","","","","","Rain,Fog"
"-59.96","43.93","SABLE ISLAND A","8204703","2018-07-23 13:00","2018","07","23","13:00","19.5","","18.3","","93","","0.0","","20","","13","","0.8","","103.07","","","","","","Rain,Fog"
"-59.96","43.93","SABLE ISLAND A","8204703","2018-07-23 14:00","2018","07","23","14:00","19.9","","18.5","","92","","0.0","","20","","15","","1.0","","103.07","","","","","","Rain,Fog"
"-59.96","43.93","SABLE ISLAND A","8204703","2018-07-23 15:00","2018","07","23","15:00","20.0","","18.6","","92","","0.0","","20","","17","","1.2","","103.05","","26","","","","Rain,Fog"
"-59.96","43.93","SABLE ISLAND A","8204703","2018-07-23 16:00","2018","07","23","16:00","19.7","","18.3","","92","","0.0","","20","","15","","2.4","","103.04","","","","","","Rain,Fog"
"-59.96","43.93","SABLE ISLAND A","8204703","2018-07-23 17:00","2018","07","23","17:00","18.9","","18.1","","95","","0.0","","20","","15","","1.2","","102.99","","","","","","Rain,Fog"
"-59.96","43.93","SABLE ISLAND A","8204703","2018-07-23 18:00","2018","07","23","18:00","18.0","","17.7","","98","","0.0","","20","","15","","0.2","","102.95","","","","","","Rain,Fog"
"-59.96","43.93","SABLE ISLAND A","8204703","2018-07-23 19:00","2018","07","23","19:00","17.5","","17.3","","99","","0.0","","20","","17","","0.2","","103.01","","","","","","Rain,Fog"
"-59.96","43.93","SABLE ISLAND A","8204703","2018-07-23 20:00","2018","07","23","20:00","17.3","","17.1","","99","","0.0","","21","","13","","0.2","","103.08","","","","","","Rain,Fog"
"-59.96","43.93","SABLE ISLAND A","8204703","2018-07-23 21:00","2018","07","23","21:00","16.8","","16.6","","99","","0.0","","21","","11","","0.4","","103.13","","","","","","Rain,Fog"
"-59.96","43.93","SABLE ISLAND A","8204703","2018-07-23 22:00","2018","07","23","22:00","16.8","","16.8","","100","","0.0","","20","","13","","0.2","","103.10","","","","","","Rain,Fog"
"-59.96","43.93","SABLE ISLAND A","8204703","2018-07-23 23:00","2018","07","23","23:00","16.8","","16.8","","100","","0.0","","22","","11","","0.2","","103.11","","","","","","Rain,Fog"
"-59.96","43.93","SABLE ISLAND A","8204703","2018-07-24 00:00","2018","07","24","00:00","16.7","","16.7","","100","","0.2","","22","","13","","0.2","","103.08","","","","","","Rain,Fog"
"-59.96","43.93","SABLE ISLAND A","8204703","2018-07-24 01:00","2018","07","24","01:00","16.6","","16.6","","100","","0.0","","22","","15","","0.2","","103.05","","","","","","Rain,Fog"
"-59.96","43.93","SABLE ISLAND A","8204703","2018-07-24 02:00","2018","07","24","02:00","16.6","","16.6","","100","","0.0","","22","","15","","0.4","","103.04","","","","","","Rain,Fog"
"-59.96","43.93","SABLE ISLAND A","8204703","2018-07-24 03:00","2018","07","24","03:00","16.1","","16.1","","100","","0.0","","23","","9","","0.4","","103.01","","","","","","Rain,Fog"
"-59.96","43.93","SABLE ISLAND A","8204703","2018-07-24 04:00","2018","07","24","04:00","16.4","","16.4","","100","","0.0","","24","","13","","0.2","","103.05","","","","","","Rain,Fog"
"-59.96","43.93","SABLE ISLAND A","8204703","2018-07-24 05:00","2018","07","24","05:00","16.5","","16.5","","100","","0.2","","25","","9","","0.2","","103.08","","","","","","Rain,Fog"
"-59.96","43.93","SABLE ISLAND A","8204703","2018-07-24 06:00","2018","07","24","06:00","16.5","","16.5","","100","","0.0","","22","","9","","0.2","","103.11","","","","","","Rain,Fog"
"-59.96","43.93","SABLE ISLAND A","8204703","2018-07-24 07:00","2018","07","24","07:00","17.0","","17.0","","100","","0.0","","23","","9","","0.2","","103.13","","","","","","Rain,Fog"
"-59.96","43.93","SABLE ISLAND A","8204703","2018-07-24 08:00","2018","07","24","08:00","17.8","","17.8","","100","","0.0","","24","","9","","0.0","","103.16","","","","","","Rain,Fog"
"-59.96","43.93","SABLE ISLAND A","8204703","2018-07-24 09:00","2018","07","24","09:00","18.4","","18.4","","100","","0.0","","22","","5","","0.0","","103.18","","","","","","Rain,Fog"
"-59.96","43.93","SABLE ISLAND A","8204703","2018-07-24 10:00","2018","07","24","10:00","18.3","","18.3","","100","","0.0","","20","","13","","0.0","","103.11","","","","","","Rain,Fog"
"-59.96","43.93","SABLE ISLAND A","8204703","2018-07-24 11:00","2018","07","24","11:00","18.1","","17.7","","98","","0.0","","21","","15","","0.2","","103.07","","","","","","Rain,Fog"
"-59.96","43.93","SABLE ISLAND A","8204703","2018-07-24 12:00","2018","07","24","12:00","18.5","","17.9","","96","","0.0","","21","","13","","0.6","","103.05","","","","","","Rain,Fog"
"-59.96","43.93","SABLE ISLAND A","8204703","2018-07-24 13:00","2018","07","24","13:00","19.3","","18.0","","92","","0.0","","20","","15","","1.6","","102.99","","","","","","Fog"
"-59.96","43.93","SABLE ISLAND A","8204703","2018-07-24 14:00","2018","07","24","14:00","19.8","","18.5","","92","","0.0","","23","","11","","4.8","","103.01","","","","","","Fog"
"-59.96","43.93","SABLE ISLAND A","8204703","2018-07-24 15:00","2018","07","24","15:00","20.0","","19.1","","94","","0.0","","22","","15","","0.2","","102.97","","27","","","","Fog"
"-59.96","43.93","SABLE ISLAND A","8204703","2018-07-24 16:00","2018","07","24","16:00","19.8","","18.9","","95","","0.0","","20","","13","","0.4","","102.93","","","","","","Fog"
"-59.96","43.93","SABLE ISLAND A","8204703","2018-07-24 17:00","2018","07","24","17:00","19.5","","18.7","","95","","0.0","","21","","15","","0.6","","102.89","","","","","","Fog"
"-59.96","43.93","SABLE ISLAND A","8204703","2018-07-24 18:00","2018","07","24","18:00","18.8","","18.3","","97","","0.0","","21","","15","","0.6","","102.82","","","","","","Fog"
"-59.96","43.93","SABLE ISLAND A","8204703","2018-07-24 19:00","2018","07","24","19:00","18.1","","17.9","","99","","0.0","","22","","15","","0.0","","102.84","","","","","","Rain,Fog"
"-59.96","43.93","SABLE ISLAND A","8204703","2018-07-24 20:00","2018","07","24","20:00","17.4","","17.2","","99","","0.0","","21","","15","","0.0","","102.84","","","","","","Rain,Fog"
"-59.96","43.93","SABLE ISLAND A","8204703","2018-07-24 21:00","2018","07","24","21:00","17.2","","17.0","","99","","0.0","","21","","13","","0.4","","102.85","","","","","","Rain,Fog"
"-59.96","43.93","SABLE ISLAND A","8204703","2018-07-24 22:00","2018","07","24","22:00","17.3","","17.3","","100","","0.2","","21","","17","","0.4","","102.83","","","","","","Rain,Fog"
"-59.96","43.93","SABLE ISLAND A","8204703","2018-07-24 23:00","2018","07","24","23:00","17.1","","17.1","","100","","0.0","","21","","15","","0.4","","102.81","","","","","","Rain,Fog"
"-59.96","43.93","SABLE ISLAND A","8204703","2018-07-25 00:00","2018","07","25","00:00","17.2","","17.2","","100","","0.0","","21","","17","","0.4","","102.79","","","","","","Rain,Fog"
"-59.96","43.93","SABLE ISLAND A","8204703","2018-07-25 01:00","2018","07","25","01:00","17.3","","17.3","","100","","0.0","","21","","18","","0.4","","102.77","","","","","","Rain,Fog"
"-59.96","43.93","SABLE ISLAND A","8204703","2018-07-25 02:00","2018","07","25","02:00","17.2","","17.2","","100","","0.0","","22","","17","","0.6","","102.73","","","","","","Rain,Fog"
"-59.96","43.93","SABLE ISLAND A","8204703","2018-07-25 03:00","2018","07","25","03:00","17.1","","17.1","","100","","0.2","","22","","15","","0.4","","102.71","","","","","","Rain,Fog"
"-59.96","43.93","SABLE ISLAND A","8204703","2018-07-25 04:00","2018","07","25","04:00","16.9","","16.9","","100","","0.0","","23","","15","","0.4","","102.71","","","","","","Rain,Fog"
"-59.96","43.93","SABLE ISLAND A","8204703","2018-07-25 05:00","2018","07","25","05:00","17.0","","17.0","","100","","0.0","","23","","15","","0.2","","102.72","","","","","","Rain,Fog"
"-59.96","43.93","SABLE ISLAND A","8204703","2018-07-25 06:00","2018","07","25","06:00","17.2","","17.2","","100","","0.0","","22","","15","","0.2","","102.71","","","","","","Rain,Fog"
"-59.96","43.93","SABLE ISLAND A","8204703","2018-07-25 07:00","2018","07","25","07:00","17.2","","17.2","","100","","0.0","","22","","13","","0.2","","102.69","","","","","","Rain,Fog"
"-59.96","43.93","SABLE ISLAND A","8204703","2018-07-25 08:00","2018","07","25","08:00","18.7","","18.7","","100","","0.0","","21","","18","","0.2","","102.74","","","","","","Rain,Fog"
"-59.96","43.93","SABLE ISLAND A","8204703","2018-07-25 09:00","2018","07","25","09:00","19.0","","18.9","","99","","0.2","","21","","22","","0.4","","102.69","","","","","","Rain,Fog"
"-59.96","43.93","SABLE ISLAND A","8204703","2018-07-25 10:00","2018","07","25","10:00","19.2","","19.0","","98","","0.0","","20","","18","","0.8","","102.72","","","","","","Fog"
"-59.96","43.93","SABLE ISLAND A","8204703","2018-07-25 11:00","2018","07","25","11:00","19.5","","19.0","","97","","0.0","","20","","21","","0.4","","102.64","","","","","","Fog"
"-59.96","43.93","SABLE ISLAND A","8204703","2018-07-25 12:00","2018","07","25","12:00","20.3","","18.7","","91","","0.0","","20","","22","","1.2","","102.63","","27","","","","Rain,Fog"
"-59.96","43.93","SABLE ISLAND A","8204703","2018-07-25 13:00","2018","07","25","13:00","20.5","","18.9","","91","","0.0","","20","","22","","1.2","","102.58","","27","","","","Rain,Fog"
"-59.96","43.93","SABLE ISLAND A","8204703","2018-07-25 14:00","2018","07","25","14:00","21.0","","19.4","","90","","0.0","","19","","18","","1.6","","102.59","","28","","","","Rain,Fog"
"-59.96","43.93","SABLE ISLAND A","8204703","2018-07-25 15:00","2018","07","25","15:00","20.7","","19.2","","91","","0.0","","19","","21","","1.2","","102.51","","28","","","","Rain,Fog"
"-59.96","43.93","SABLE ISLAND A","8204703","2018-07-25 16:00","2018","07","25","16:00","20.4","","19.1","","92","","0.0","","19","","18","","1.2","","102.49","","27","","","","Rain,Fog"
"-59.96","43.93","SABLE ISLAND A","8204703","2018-07-25 17:00","2018","07","25","17:00","19.5","","18.9","","96","","0.0","","20","","22","","0.6","","102.41","","","","","","Rain,Fog"
"-59.96","43.93","SABLE ISLAND A","8204703","2018-07-25 18:00","2018","07","25","18:00","18.7","","18.4","","98","","0.0","","21","","17","","0.2","","102.42","","","","","","Rain,Fog"
"-59.96","43.93","SABLE ISLAND A","8204703","2018-07-25 19:00","2018","07","25","19:00","18.2","","18.0","","99","","0.0","","20","","17","","0.2","","102.44","","","","","","Rain,Fog"
"-59.96","43.93","SABLE ISLAND A","8204703","2018-07-25 20:00","2018","07","25","20:00","18.1","","17.9","","99","","0.0","","21","","18","","0.4","","102.45","","","","","","Rain,Fog"
"-59.96","43.93","SABLE ISLAND A","8204703","2018-07-25 21:00","2018","07","25","21:00","18.1","","17.9","","99","","0.0","","20","","21","","0.4","","102.47","","","","","","Rain,Fog"
"-59.96","43.93","SABLE ISLAND A","8204703","2018-07-25 22:00","2018","07","25","22:00","18.3","","18.3","","100","","0.0","","21","","22","","0.4","","102.47","","","","","","Rain,Fog"
"-59.96","43.93","SABLE ISLAND A","8204703","2018-07-25 23:00","2018","07","25","23:00","18.1","","18.1","","100","","0.0","","20","","22","","0.2","","102.45","","","","","","Rain,Fog"
"-59.96","43.93","SABLE ISLAND A","8204703","2018-07-26 00:00","2018","07","26","00:00","17.8","","17.8","","100","","0.0","","20","","18","","0.2","","102.43","","","","","","Rain,Fog"
"-59.96","43.93","SABLE ISLAND A","8204703","2018-07-26 01:00","2018","07","26","01:00","18.5","","18.5","","100","","0.2","","21","","22","","0.6","","102.40","","","","","","Rain,Fog"
"-59.96","43.93","SABLE ISLAND A","8204703","2018-07-26 02:00","2018","07","26","02:00","17.7","","17.7","","100","","0.0","","19","","21","","0.2","","102.37","","","","","","Rain,Fog"
"-59.96","43.93","SABLE ISLAND A","8204703","2018-07-26 03:00","2018","07","26","03:00","18.0","","18.0","","100","","0.0","","19","","21","","0.4","","102.36","","","","","","Rain,Fog"
"-59.96","43.93","SABLE ISLAND A","8204703","2018-07-26 04:00","2018","07","26","04:00","17.9","","17.9","","100","","0.0","","18","","22","","0.4","","102.31","","","","","","Rain,Fog"
"-59.96","43.93","SABLE ISLAND A","8204703","2018-07-26 05:00","2018","07","26","05:00","17.8","","17.8","","100","","0.0","","19","","24","","0.2","","102.30","","","","","","Rain,Fog"
"-59.96","43.93","SABLE ISLAND A","8204703","2018-07-26 06:00","2018","07","26","06:00","18.1","","18.1","","100","","0.2","","19","","21","","0.2","","102.34","","","","","","Rain,Fog"
"-59.96","43.93","SABLE ISLAND A","8204703","2018-07-26 07:00","2018","07","26","07:00","18.1","","18.1","","100","","0.0","","19","","22","","0.2","","102.31","","","","","","Rain,Fog"
"-59.96","43.93","SABLE ISLAND A","8204703","2018-07-26 08:00","2018","07","26","08:00","18.9","","18.7","","99","","0.0","","19","","22","","3.2","","102.35","","","","","","Fog"
"-59.96","43.93","SABLE ISLAND A","8204703","2018-07-26 09:00","2018","07","26","09:00","20.4","","19.0","","92","","0.0","","19","","24","","6.4","","102.33","","27","","","","Fog"
"-59.96","43.93","SABLE ISLAND A","8204703","2018-07-26 10:00","2018","07","26","10:00","20.8","","19.1","","90","","0.0","","19","","26","","6.4","","102.30","","28","","","","Fog"
"-59.96","43.93","SABLE ISLAND A","8204703","2018-07-26 11:00","2018","07","26","11:00","20.8","","19.1","","90","","0.0","","18","","26","","6.4","","102.34","","28","","","","Fog"
"-59.96","43.93","SABLE ISLAND A","8204703","2018-07-26 12:00","2018","07","26","12:00","20.2","","18.5","","90","","0.0","","18","","22","","6.4","","102.27","","27","","","","Fog"
"-59.96","43.93","SABLE ISLAND A","8204703","2018-07-26 13:00","2018","07","26","13:00","20.6","","19.0","","90","","0.0","","18","","22","","6.4","","102.20","","27","","","","Fog"
"-59.96","43.93","SABLE ISLAND A","8204703","2018-07-26 14:00","2018","07","26","14:00","20.6","","19.1","","91","","0.0","","18","","24","","6.4","","102.13","","27","","","","Fog"
"-59.96","43.93","SABLE ISLAND A","8204703","2018-07-26 15:00","2018","07","26","15:00","20.3","","19.1","","92","","0.0","","18","","26","","4.8","","102.21","","27","","","","Fog"
"-59.96","43.93","SABLE ISLAND A","8204703","2018-07-26 16:00","2018","07","26","16:00","20.4","","19.0","","92","","0.0","","18","","26","","4.8","","102.16","","27","","","","Fog"
"-59.96","43.93","SABLE ISLAND A","8204703","2018-07-26 17:00","2018","07","26","17:00","20.4","","18.9","","91","","0.0","","18","","26","","4.8","","102.15","","27","","","","Fog"
"-59.96","43.93","SABLE ISLAND A","8204703","2018-07-26 18:00","2018","07","26","18:00","19.9","","18.9","","94","","0.0","","18","","28","","4.8","","102.10","","","","","","Fog"
"-59.96","43.93","SABLE ISLAND A","8204703","2018-07-26 19:00","2018","07","26","19:00","19.1","","18.6","","97","","0.0","","18","","26","","4.8","","102.07","","","","","","Fog"
"-59.96","43.93","SABLE ISLAND A","8204703","2018-07-26 20:00","2018","07","26","20:00","19.0","","18.7","","98","","0.0","","18","","28","","4.0","","102.10","","","","","","Fog"
"-59.96","43.93","SABLE ISLAND A","8204703","2018-07-26 21:00","2018","07","26","21:00","19.0","","18.7","","98","","0.0","","18","","30","","4.0","","102.09","","","","","","Fog"
"-59.96","43.93","SABLE ISLAND A","8204703","2018-07-26 22:00","2018","07","26","22:00","19.1","","18.8","","98","","0.0","","18","","32","","3.6","","102.06","","","","","","Fog"
"-59.96","43.93","SABLE ISLAND A","8204703","2018-07-26 23:00","2018","07","26","23:00","19.0","","18.7","","98","","0.0","","18","","32","","2.8","","102.04","","","","","","Fog"
"-59.96","43.93","SABLE ISLAND A","8204703","2018-07-27 00:00","2018","07","27","00:00","18.7","","18.4","","98","","0.0","","19","","32","","2.4","","101.99","","","","","","Fog"
"-59.96","43.93","SABLE ISLAND A","8204703","2018-07-27 01:00","2018","07","27","01:00","18.7","","18.5","","99","","0.0","","18","","30","","2.4","","101.93","","","","","","Fog"
"-59.96","43.93","SABLE ISLAND A","8204703","2018-07-27 02:00","2018","07","27","02:00","18.9","","18.7","","99","","0.0","","18","","34","","2.0","","101.89","","","","","","Fog"
"-59.96","43.93","SABLE ISLAND A","8204703","2018-07-27 03:00","2018","07","27","03:00","18.8","","18.6","","99","","0.0","","19","","34","","2.0","","101.86","","","","","","Fog"
"-59.96","43.93","SABLE ISLAND A","8204703","2018-07-27 04:00","2018","07","27","04:00","19.1","","18.8","","98","","0.0","","19","","32","","2.8","","101.87","","","","","","Fog"
"-59.96","43.93","SABLE ISLAND A","8204703","2018-07-27 05:00","2018","07","27","05:00","18.9","","18.6","","98","","0.0","","20","","34","","2.4","","101.84","","","","","","Fog"
"-59.96","43.93","SABLE ISLAND A","8204703","2018-07-27 06:00","2018","07","27","06:00","18.7","","18.5","","99","","0.0","","19","","30","","1.6","","101.85","","","","","","Fog"
"-59.96","43.93","SABLE ISLAND A","8204703","2018-07-27 07:00","2018","07","27","07:00","19.0","","18.5","","97","","0.0","","20","","39","","2.8","","101.90","","","","","","Fog"
"-59.96","43.93","SABLE ISLAND A","8204703","2018-07-27 08:00","2018","07","27","08:00","19.6","","19.3","","98","","0.5","","20","","41","","1.6","","101.92","","","","","","Rain,Fog"
"-59.96","43.93","SABLE ISLAND A","8204703","2018-07-27 09:00","2018","07","27","09:00","20.0","","19.8","","99","","0.5","","20","","30","","1.6","","102.01","","27","","","","Fog"
"-59.96","43.93","SABLE ISLAND A","8204703","2018-07-27 10:00","2018","07","27","10:00","19.5","","19.2","","98","","0.2","","20","","32","","1.6","","101.89","","","","","","Fog"
"-59.96","43.93","SABLE ISLAND A","8204703","2018-07-27 11:00","2018","07","27","11:00","19.3","","19.1","","99","","0.2","","21","","32","","1.2","","101.94","","","","","","Fog"
"-59.96","43.93","SABLE ISLAND A","8204703","2018-07-27 12:00","2018","07","27","12:00","19.7","","19.0","","96","","0.0","","22","","28","","2.8","","101.99","","","","","","Fog"
"-59.96","43.93","SABLE ISLAND A","8204703","2018-07-27 13:00","2018","07","27","13:00","19.2","","19.0","","99","","0.2","","22","","22","","1.2","","101.95","","","","","","Rain,Fog"
"-59.96","43.93","SABLE ISLAND A","8204703","2018-07-27 14:00","2018","07","27","14:00","18.2","","18.0","","99","","0.2","","20","","21","","0.8","","101.93","","","","","","Rain,Fog"
"-59.96","43.93","SABLE ISLAND A","8204703","2018-07-27 15:00","2018","07","27","15:00","18.9","","18.7","","99","","0.2","","21","","26","","1.0","","101.96","","","","","","Fog"
"-59.96","43.93","SABLE ISLAND A","8204703","2018-07-27 16:00","2018","07","27","16:00","18.8","","18.6","","99","","0.0","","21","","24","","0.2","","101.96","","","","","","Rain,Fog"
"-59.96","43.93","SABLE ISLAND A","8204703","2018-07-27 17:00","2018","07","27","17:00","18.7","","18.5","","99","","0.0","","21","","26","","0.2","","101.98","","","","","","Rain,Fog"
"-59.96","43.93","SABLE ISLAND A","8204703","2018-07-27 18:00","2018","07","27","18:00","17.8","","17.6","","99","","0.0","","21","","21","","0.2","","101.95","","","","","","Rain,Fog"
"-59.96","43.93","SABLE ISLAND A","8204703","2018-07-27 19:00","2018","07","27","19:00","18.2","","18.1","","100","","0.0","","21","","24","","0.6","","101.99","","","","","","Rain,Fog"
"-59.96","43.93","SABLE ISLAND A","8204703","2018-07-27 20:00","2018","07","27","20:00","18.2","","18.2","","100","","0.0","","21","","24","","0.4","","102.03","","","","","","Rain,Fog"
"-59.96","43.93","SABLE ISLAND A","8204703","2018-07-27 21:00","2018","07","27","21:00","17.8","","17.8","","100","","0.0","","21","","22","","0.4","","102.06","","","","","","Rain,Fog"
"-59.96","43.93","SABLE ISLAND A","8204703","2018-07-27 22:00","2018","07","27","22:00","17.9","","17.9","","100","","0.0","","21","","24","","0.4","","102.10","","","","","","Rain,Fog"
"-59.96","43.93","SABLE ISLAND A","8204703","2018-07-27 23:00","2018","07","27","23:00","18.0","","18.0","","100","","0.0","","22","","21","","0.8","","102.13","","","","","","Rain,Fog"
"-59.96","43.93","SABLE ISLAND A","8204703","2018-07-28 00:00","2018","07","28","00:00","17.2","","17.2","","100","","0.2","","23","","13","","0.6","","102.11","","","","","","Fog"
"-59.96","43.93","SABLE ISLAND A","8204703","2018-07-28 01:00","2018","07","28","01:00","17.5","","17.5","","100","","0.0","","21","","15","","0.4","","102.10","","","","","","Fog"
"-59.96","43.93","SABLE ISLAND A","8204703","2018-07-28 02:00","2018","07","28","02:00","17.4","","17.4","","100","","0.0","","21","","13","","0.4","","102.06","","","","","","Rain,Fog"
"-59.96","43.93","SABLE ISLAND A","8204703","2018-07-28 03:00","2018","07","28","03:00","18.3","","18.3","","100","","0.2","","21","","18","","0.6","","102.06","","","","","","Rain,Fog"
"-59.96","43.93","SABLE ISLAND A","8204703","2018-07-28 04:00","2018","07","28","04:00","17.7","","17.7","","100","","0.0","","19","","21","","0.4","","102.00","","","","","","Rain,Fog"
"-59.96","43.93","SABLE ISLAND A","8204703","2018-07-28 05:00","2018","07","28","05:00","17.5","","17.5","","100","","0.0","","21","","17","","0.0","","102.01","","","","","","Rain,Fog"
"-59.96","43.93","SABLE ISLAND A","8204703","2018-07-28 06:00","2018","07","28","06:00","17.8","","17.8","","100","","0.0","","21","","21","","0.0","","102.06","","","","","","Rain,Fog"
"-59.96","43.93","SABLE ISLAND A","8204703","2018-07-28 07:00","2018","07","28","07:00","18.1","","18.1","","100","","0.0","","21","","21","","0.0","","102.08","","","","","","Rain,Fog"
"-59.96","43.93","SABLE ISLAND A","8204703","2018-07-28 08:00","2018","07","28","08:00","18.7","","18.7","","100","","0.0","","21","","17","","0.0","","102.09","","","","","","Rain,Fog"
"-59.96","43.93","SABLE ISLAND A","8204703","2018-07-28 09:00","2018","07","28","09:00","18.2","","18.0","","99","","0.0","","19","","15","","0.4","","102.09","","","","","","Rain,Fog"
"-59.96","43.93","SABLE ISLAND A","8204703","2018-07-28 10:00","2018","07","28","10:00","18.4","","18.4","","100","","0.0","","19","","11","","0.4","","102.15","","","","","","Rain,Fog"
"-59.96","43.93","SABLE ISLAND A","8204703","2018-07-28 11:00","2018","07","28","11:00","19.1","","19.1","","100","","0.0","","17","","15","","1.2","","102.19","","","","","","Fog"
"-59.96","43.93","SABLE ISLAND A","8204703","2018-07-28 12:00","2018","07","28","12:00","19.7","","19.4","","98","","0.0","","17","","11","","1.6","","102.18","","","","","","Fog"
"-59.96","43.93","SABLE ISLAND A","8204703","2018-07-28 13:00","2018","07","28","13:00","19.4","","18.9","","97","","0.0","","17","","15","","0.2","","101.98","","","","","","Fog"
"-59.96","43.93","SABLE ISLAND A","8204703","2018-07-28 14:00","2018","07","28","14:00","19.5","","19.0","","97","","0.0","","18","","15","","0.6","","102.01","","","","","","Fog"
"-59.96","43.93","SABLE ISLAND A","8204703","2018-07-28 15:00","2018","07","28","15:00","20.0","","19.2","","95","","0.0","","19","","22","","1.0","","101.89","","27","","","","Fog"
"-59.96","43.93","SABLE ISLAND A","8204703","2018-07-28 16:00","2018","07","28","16:00","20.1","","19.2","","94","","0.0","","19","","21","","1.6","","101.94","","27","","","","Rain,Fog"
"-59.96","43.93","SABLE ISLAND A","8204703","2018-07-28 17:00","2018","07","28","17:00","19.1","","18.7","","97","","0.0","","19","","13","","1.6","","101.96","","","","","","Rain,Fog"
"-59.96","43.93","SABLE ISLAND A","8204703","2018-07-28 18:00","2018","07","28","18:00","18.9","","18.6","","98","","0.0","","18","","17","","0.4","","101.91","","","","","","Rain,Fog"
"-59.96","43.93","SABLE ISLAND A","8204703","2018-07-28 19:00","2018","07","28","19:00","18.4","","18.2","","99","","0.0","","17","","18","","0.2","","101.91","","","","","","Rain,Fog"
"-59.96","43.93","SABLE ISLAND A","8204703","2018-07-28 20:00","2018","07","28","20:00","18.7","","18.7","","100","","0.0","","18","","22","","0.4","","101.98","","","","","","Rain,Fog"
"-59.96","43.93","SABLE ISLAND A","8204703","2018-07-28 21:00","2018","07","28","21:00","18.5","","18.4","","99","","0.0","","18","","18","","0.6","","102.00","","","","","","Rain,Fog"
"-59.96","43.93","SABLE ISLAND A","8204703","2018-07-28 22:00","2018","07","28","22:00","18.6","","18.6","","100","","0.0","","19","","18","","0.4","","101.97","","","","","","Rain,Fog"
"-59.96","43.93","SABLE ISLAND A","8204703","2018-07-28 23:00","2018","07","28","23:00","18.4","","18.4","","100","","0.0","","20","","24","","0.8","","101.98","","","","","","Rain,Fog"
"-59.96","43.93","SABLE ISLAND A","8204703","2018-07-29 00:00","2018","07","29","00:00","18.4","","18.4","","100","","0.0","","20","","21","","0.6","","101.98","","","","","","Rain,Fog"
"-59.96","43.93","SABLE ISLAND A","8204703","2018-07-29 01:00","2018","07","29","01:00","18.3","","18.3","","100","","0.0","","21","","17","","0.4","","101.94","","","","","","Rain,Fog"
"-59.96","43.93","SABLE ISLAND A","8204703","2018-07-29 02:00","2018","07","29","02:00","17.6","","17.6","","100","","0.0","","19","","15","","0.2","","101.89","","","","","","Rain,Fog"
"-59.96","43.93","SABLE ISLAND A","8204703","2018-07-29 03:00","2018","07","29","03:00","17.7","","17.7","","100","","0.0","","20","","15","","0.6","","101.88","","","","","","Rain,Fog"
"-59.96","43.93","SABLE ISLAND A","8204703","2018-07-29 04:00","2018","07","29","04:00","17.8","","17.8","","100","","0.2","","19","","15","","0.4","","101.83","","","","","","Rain,Fog"
"-59.96","43.93","SABLE ISLAND A","8204703","2018-07-29 05:00","2018","07","29","05:00","18.2","","18.2","","100","","0.2","","18","","17","","0.2","","101.81","","","","","","Rain,Fog"
"-59.96","43.93","SABLE ISLAND A","8204703","2018-07-29 06:00","2018","07","29","06:00","18.2","","18.2","","100","","0.5","","18","","21","","0.4","","101.81","","","","","","Rain,Fog"
"-59.96","43.93","SABLE ISLAND A","8204703","2018-07-29 07:00","2018","07","29","07:00","18.1","","18.1","","100","","0.5","","18","","18","","2.0","","101.75","","","","","","Rain,Fog"
"-59.96","43.93","SABLE ISLAND A","8204703","2018-07-29 08:00","2018","07","29","08:00","18.7","","18.7","","100","","3.5","","18","","17","","1.2","","101.75","","","","","","Rain,Fog"
"-59.96","43.93","SABLE ISLAND A","8204703","2018-07-29 09:00","2018","07","29","09:00","19.8","","19.8","","100","","0.0","","20","","35","","2.0","","101.72","","","","","","Fog"
"-59.96","43.93","SABLE ISLAND A","8204703","2018-07-29 10:00","2018","07","29","10:00","19.0","","18.8","","99","","0.2","","22","","26","","2.8","","101.71","","","","","","Fog"
"-59.96","43.93","SABLE ISLAND A","8204703","2018-07-29 11:00","2018","07","29","11:00","19.6","","19.3","","98","","0.0","","22","","26","","4.8","","101.69","","","","","","Fog"
"-59.96","43.93","SABLE ISLAND A","8204703","2018-07-29 12:00","2018","07","29","12:00","20.2","","19.6","","96","","0.0","","21","","21","","3.6","","101.80","","27","","","","Fog"
"-59.96","43.93","SABLE ISLAND A","8204703","2018-07-29 13:00","2018","07","29","13:00","20.5","","19.5","","94","","0.0","","22","","17","","4.8","","101.70","","28","","","","Fog"
"-59.96","43.93","SABLE ISLAND A","8204703","2018-07-29 14:00","2018","07","29","14:00","20.1","","19.0","","93","","0.0","","21","","13","","4.8","","101.67","","27","","","","Fog"
"-59.96","43.93","SABLE ISLAND A","8204703","2018-07-29 15:00","2018","07","29","15:00","20.4","","19.3","","93","","0.0","","19","","15","","6.4","","101.65","","27","","","","Fog"
"-59.96","43.93","SABLE ISLAND A","8204703","2018-07-29 16:00","2018","07","29","16:00","20.1","","19.0","","94","","0.0","","20","","22","","4.8","","101.56","","27","","","","Fog"
"-59.96","43.93","SABLE ISLAND A","8204703","2018-07-29 17:00","2018","07","29","17:00","20.0","","19.2","","95","","0.0","","21","","22","","4.8","","101.59","","27","","","","Fog"
"-59.96","43.93","SABLE ISLAND A","8204703","2018-07-29 18:00","2018","07","29","18:00","19.2","","18.7","","97","","0.0","","22","","22","","2.0","","101.63","","","","","","Fog"
"-59.96","43.93","SABLE ISLAND A","8204703","2018-07-29 19:00","2018","07","29","19:00","18.6","","18.4","","99","","0.0","","22","","26","","0.2","","101.61","","","","","","Rain,Fog"
"-59.96","43.93","SABLE ISLAND A","8204703","2018-07-29 20:00","2018","07","29","20:00","18.4","","18.2","","99","","0.0","","21","","26","","0.4","","101.65","","","","","","Rain,Fog"
"-59.96","43.93","SABLE ISLAND A","8204703","2018-07-29 21:00","2018","07","29","21:00","18.0","","17.9","","99","","0.0","","21","","24","","0.4","","101.66","","","","","","Rain,Fog"
"-59.96","43.93","SABLE ISLAND A","8204703","2018-07-29 22:00","2018","07","29","22:00","17.7","","17.7","","100","","0.2","","21","","24","","0.4","","101.65","","","","","","Rain,Fog"
"-59.96","43.93","SABLE ISLAND A","8204703","2018-07-29 23:00","2018","07","29","23:00","17.7","","17.7","","100","","0.0","","22","","22","","0.2","","101.65","","","","","","Rain,Fog"
"-59.96","43.93","SABLE ISLAND A","8204703","2018-07-30 00:00","2018","07","30","00:00","18.3","","18.3","","100","","0.0","","22","","22","","0.8","","101.67","","","","","","Rain,Fog"
"-59.96","43.93","SABLE ISLAND A","8204703","2018-07-30 01:00","2018","07","30","01:00","18.0","","18.0","","100","","0.0","","21","","18","","0.4","","101.59","","","","","","Rain,Fog"
"-59.96","43.93","SABLE ISLAND A","8204703","2018-07-30 02:00","2018","07","30","02:00","17.7","","17.7","","100","","0.0","","21","","15","","0.4","","101.57","","","","","","Rain,Fog"
"-59.96","43.93","SABLE ISLAND A","8204703","2018-07-30 03:00","2018","07","30","03:00","17.7","","17.7","","100","","0.2","","23","","13","","0.4","","101.56","","","","","","Rain,Fog"
"-59.96","43.93","SABLE ISLAND A","8204703","2018-07-30 04:00","2018","07","30","04:00","17.7","","17.7","","100","","0.0","","23","","13","","0.4","","101.55","","","","","","Rain,Fog"
"-59.96","43.93","SABLE ISLAND A","8204703","2018-07-30 05:00","2018","07","30","05:00","17.3","","17.3","","100","","0.0","","24","","15","","0.2","","101.58","","","","","","Rain,Fog"
"-59.96","43.93","SABLE ISLAND A","8204703","2018-07-30 06:00","2018","07","30","06:00","17.1","","17.1","","100","","0.0","","26","","13","","0.2","","101.59","","","","","","Rain,Fog"
"-59.96","43.93","SABLE ISLAND A","8204703","2018-07-30 07:00","2018","07","30","07:00","17.3","","17.3","","100","","0.0","","25","","17","","0.2","","101.63","","","","","","Rain,Fog"
"-59.96","43.93","SABLE ISLAND A","8204703","2018-07-30 08:00","2018","07","30","08:00","17.5","","17.5","","100","","0.0","","25","","18","","0.2","","101.64","","","","","","Rain,Fog"
"-59.96","43.93","SABLE ISLAND A","8204703","2018-07-30 09:00","2018","07","30","09:00","17.5","","17.5","","100","","0.0","","25","","21","","0.4","","101.61","","","","","","Rain,Fog"
"-59.96","43.93","SABLE ISLAND A","8204703","2018-07-30 10:00","2018","07","30","10:00","18.1","","17.9","","99","","0.0","","24","","24","","1.0","","101.68","","","","","","Rain,Fog"
"-59.96","43.93","SABLE ISLAND A","8204703","2018-07-30 11:00","2018","07","30","11:00","18.8","","18.3","","97","","0.0","","24","","24","","0.6","","101.69","","","","","","Rain,Fog"
"-59.96","43.93","SABLE ISLAND A","8204703","2018-07-30 12:00","2018","07","30","12:00","19.3","","17.8","","91","","0.0","","23","","21","","8.1","","101.65","","","","","","Fog"
"-59.96","43.93","SABLE ISLAND A","8204703","2018-07-30 13:00","2018","07","30","13:00","19.5","","17.6","","89","","0.0","","23","","18","","9.7","","101.67","","","","","","Fog"
"-59.96","43.93","SABLE ISLAND A","8204703","2018-07-30 14:00","2018","07","30","14:00","19.6","","17.6","","88","","0.0","","23","","22","","9.7","","101.67","","","","","","Fog"
"-59.96","43.93","SABLE ISLAND A","8204703","2018-07-30 15:00","2018","07","30","15:00","19.5","","17.7","","89","","0.0","","23","","22","","8.1","","101.69","","","","","","Fog"
"-59.96","43.93","SABLE ISLAND A","8204703","2018-07-30 16:00","2018","07","30","16:00","19.5","","17.8","","90","","0.0","","24","","22","","6.4","","101.68","","","","","","Fog"
"-59.96","43.93","SABLE ISLAND A","8204703","2018-07-30 17:00","2018","07","30","17:00","18.9","","17.4","","91","","0.0","","24","","22","","6.4","","101.70","","","","","","Fog"
"-59.96","43.93","SABLE ISLAND A","8204703","2018-07-30 18:00","2018","07","30","18:00","18.0","","16.9","","93","","0.0","","23","","21","","6.4","","101.67","","","","","","Fog"
"-59.96","43.93","SABLE ISLAND A","8204703","2018-07-30 19:00","2018","07","30","19:00","17.7","","16.6","","93","","0.0","","24","","18","","6.4","","101.70","","","","","","Fog"
"-59.96","43.93","SABLE ISLAND A","8204703","2018-07-30 20:00","2018","07","30","20:00","17.2","","16.6","","96","","0.0","","23","","21","","6.4","","101.75","","","","","","Fog"
"-59.96","43.93","SABLE ISLAND A","8204703","2018-07-30 21:00","2018","07","30","21:00","17.1","","16.5","","96","","0.0","","23","","21","","6.4","","101.81","","","","","","Fog"
"-59.96","43.93","SABLE ISLAND A","8204703","2018-07-30 22:00","2018","07","30","22:00","16.9","","16.3","","96","","0.0","","24","","18","","4.8","","101.82","","","","","","Fog"
"-59.96","43.93","SABLE ISLAND A","8204703","2018-07-30 23:00","2018","07","30","23:00","16.9","","16.3","","96","","0.0","","25","","17","","4.8","","101.82","","","","","","Fog"
"-59.96","43.93","SABLE ISLAND A","8204703","2018-07-31 00:00","2018","07","31","00:00","16.7","","16.2","","97","","0.0","","25","","17","","3.6","","101.82","","","","","","Fog"
"-59.96","43.93","SABLE ISLAND A","8204703","2018-07-31 01:00","2018","07","31","01:00","16.6","","16.0","","96","","0.0","","24","","17","","3.2","","101.81","","","","","","Fog"
"-59.96","43.93","SABLE ISLAND A","8204703","2018-07-31 02:00","2018","07","31","02:00","16.5","","16.0","","97","","0.0","","24","","15","","4.8","","101.81","","","","","","Fog"
"-59.96","43.93","SABLE ISLAND A","8204703","2018-07-31 03:00","2018","07","31","03:00","16.7","","16.2","","97","","0.0","","25","","15","","3.6","","101.80","","","","","","Fog"
"-59.96","43.93","SABLE ISLAND A","8204703","2018-07-31 04:00","2018","07","31","04:00","17.3","","16.5","","95","","0.0","","27","","11","","9.7","","101.79","","","","","","Fog"
"-59.96","43.93","SABLE ISLAND A","8204703","2018-07-31 05:00","2018","07","31","05:00","16.3","","15.8","","97","","0.0","","25","","13","","4.0","","101.84","","","","","","Fog"
"-59.96","43.93","SABLE ISLAND A","8204703","2018-07-31 06:00","2018","07","31","06:00","16.5","","15.7","","95","","0.0","","24","","15","","6.4","","101.92","","","","","","Fog"
"-59.96","43.93","SABLE ISLAND A","8204703","2018-07-31 07:00","2018","07","31","07:00","17.2","","15.9","","92","","0.0","","24","","13","","6.4","","101.96","","","","","","Fog"
"-59.96","43.93","SABLE ISLAND A","8204703","2018-07-31 08:00","2018","07","31","08:00","17.5","","16.3","","93","","0.0","","25","","15","","6.4","","101.97","","","","","","Fog"
"-59.96","43.93","SABLE ISLAND A","8204703","2018-07-31 09:00","2018","07","31","09:00","18.4","","16.5","","89","","0.0","","23","","15","","11.3","","101.99","","","","","","NA"
"-59.96","43.93","SABLE ISLAND A","8204703","2018-07-31 10:00","2018","07","31","10:00","19.6","","17.2","","86","","0.0","","25","","17","","14.5","","102.01","","","","","","NA"
"-59.96","43.93","SABLE ISLAND A","8204703","2018-07-31 11:00","2018","07","31","11:00","19.5","","17.3","","87","","0.0","","23","","17","","12.9","","102.00","","","","","","NA"
"-59.96","43.93","SABLE ISLAND A","8204703","2018-07-31 12:00","2018","07","31","12:00","20.4","","17.6","","84","","0.0","","24","","17","","14.5","","101.98","","26","","","","NA"
"-59.96","43.93","SABLE ISLAND A","8204703","2018-07-31 13:00","2018","07","31","13:00","20.5","","17.8","","84","","0.0","","24","","17","","14.5","","101.96","","26","","","","NA"
"-59.96","43.93","SABLE ISLAND A","8204703","2018-07-31 14:00","2018","07","31","14:00","20.4","","17.6","","84","","0.0","","24","","15","","16.1","","101.92","","26","","","","NA"
"-59.96","43.93","SABLE ISLAND A","8204703","2018-07-31 15:00","2018","07","31","15:00","19.7","","17.9","","89","","0.0","","23","","11","","12.9","","101.95","","","","","","NA"
"-59.96","43.93","SABLE ISLAND A","8204703","2018-07-31 16:00","2018","07","31","16:00","19.4","","17.7","","90","","0.0","","22","","15","","11.3","","101.96","","","","","","NA"
"-59.96","43.93","SABLE ISLAND A","8204703","2018-07-31 17:00","2018","07","31","17:00","18.7","","17.3","","91","","0.0","","22","","15","","8.1","","101.91","","","","","","Fog"
"-59.96","43.93","SABLE ISLAND A","8204703","2018-07-31 18:00","2018","07","31","18:00","17.5","","16.6","","94","","0.0","","21","","9","","6.4","","101.88","","","","","","Fog"
"-59.96","43.93","SABLE ISLAND A","8204703","2018-07-31 19:00","2018","07","31","19:00","17.3","","16.4","","95","","0.0","","23","","9","","4.8","","101.93","","","","","","Fog"
"-59.96","43.93","SABLE ISLAND A","8204703","2018-07-31 20:00","2018","07","31","20:00","16.6","","16.2","","97","","0.0","","22","","9","","4.8","","101.93","","","","","","Fog"
"-59.96","43.93","SABLE ISLAND A","8204703","2018-07-31 21:00","2018","07","31","21:00","16.6","","16.3","","98","","0.0","","22","","13","","8.1","","101.97","","","","","","Fog"
"-59.96","43.93","SABLE ISLAND A","8204703","2018-07-31 22:00","2018","07","31","22:00","16.3","","16.0","","98","","0.0","","22","","13","","4.0","","101.96","","","","","","Fog"
"-59.96","43.93","SABLE ISLAND A","8204703","2018-07-31 23:00","2018","07","31","23:00","16.3","","15.8","","97","","0.0","","25","","9","","4.8","","101.94","","","","","","Fog"
