"Longitude (x)","Latitude (y)","Station Name","Climate ID","Date/Time (LST)","Year","Month","Day","Time (LST)","Temp (°C)","Temp Flag","Dew Point Temp (°C)","Dew Point Temp Flag","Rel Hum (%)","Rel Hum Flag","Precip. Amount (mm)","Precip. Amount Flag","Wind Dir (10s deg)","Wind Dir Flag","Wind Spd (km/h)","Wind Spd Flag","Visibility (km)","Visibility Flag","Stn Press (kPa)","Stn Press Flag","Hmdx","Hmdx Flag","Wind Chill","Wind Chill Flag","Weather"
"-93.79","51.07","RED LAKE A","6016970","2021-11-01 00:00","2021","11","01","00:00"
"-93.79","51.07","RED LAKE A","6016970","2021-11-01 01:00","2021","11","01","01:00"
"-93.79","51.07","RED LAKE A","6016970","2021-11-01 02:00","2021","11","01","02:00"
"-93.79","51.07","RED LAKE A","6016970","2021-11-01 03:00","2021","11","01","03:00","-0.4","","-1.9","","90","","","","33","","18","","24.1","","97.16","","","","-5","","Snow"
"-93.79","51.07","RED LAKE A","6016970","2021-11-01 04:00","2021","11","01","04:00","-0.6","","-1.9","","91","","","","32","","13","","24.1","","97.20","","","","-5","","NA"
"-93.79","51.07","RED LAKE A","6016970","2021-11-01 05:00","2021","11","01","05:00","-0.6","","-1.9","","91","","","","31","","16","","24.1","","97.25","","","","-5","","NA"
"-93.79","51.07","RED LAKE A","6016970","2021-11-01 06:00","2021","11","01","06:00","-1.0","","-1.6","","96","","","","33","","13","","9.7","","97.27","","","","-5","","Snow"
"-93.79","51.07","RED LAKE A","6016970","2021-11-01 07:00","2021","11","01","07:00","-0.9","","-1.9","","93","","","","32","","12","","16.1","","97.29","","","","-5","","Snow"
"-93.79","51.07","RED LAKE A","6016970","2021-11-01 08:00","2021","11","01","08:00","-1.4","","-2.6","","92","","","","35","","22","","4.0","","97.35","","","","-7","","Snow"
"-93.79","51.07","RED LAKE A","6016970","2021-11-01 09:00","2021","11","01","09:00","-2.3","","-4.0","","88","","","","1","","20","","16.1","","97.43","","","","-8","","Snow"
"-93.79","51.07","RED LAKE A","6016970","2021-11-01 10:00","2021","11","01","10:00","-1.3","","-4.0","","82","","","","36","","16","","24.1","","97.48","","","","-6","","NA"
"-93.79","51.07","RED LAKE A","6016970","2021-11-01 11:00","2021","11","01","11:00","-1.6","","-4.5","","81","","","","34","","20","","24.1","","97.51","","","","-7","","NA"
"-93.79","51.07","RED LAKE A","6016970","2021-11-01 12:00","2021","11","01","12:00","-1.5","","-4.1","","82","","","","34","","22","","16.1","","97.55","","","","-7","","Snow Showers"
"-93.79","51.07","RED LAKE A","6016970","2021-11-01 13:00","2021","11","01","13:00","-1.0","","-4.4","","78","","","","34","","17","","24.1","","97.55","","","","-6","","NA"
"-93.79","51.07","RED LAKE A","6016970","2021-11-01 14:00","2021","11","01","14:00","-1.7","","-3.8","","86","","","","34","","18","","19.3","","97.57","","","","-7","","Snow Showers"
"-93.79","51.07","RED LAKE A","6016970","2021-11-01 15:00","2021","11","01","15:00","-1.3","","-4.0","","82","","","","35","","21","","16.1","","97.60","","","","-7","","Snow Showers"
"-93.79","51.07","RED LAKE A","6016970","2021-11-01 16:00","2021","11","01","16:00","-1.8","","-4.0","","85","","","","32","","17","","19.3","","97.62","","","","-7","","Snow Showers"
"-93.79","51.07","RED LAKE A","6016970","2021-11-01 17:00","2021","11","01","17:00","-2.3","","-4.7","","84","","","","34","","19","","24.1","","97.66","","","","-8","","NA"
"-93.79","51.07","RED LAKE A","6016970","2021-11-01 18:00","2021","11","01","18:00","-2.3","","-5.3","","80","","","","31","","15","","24.1","","97.69","","","","-7","","Mostly Cloudy"
"-93.79","51.07","RED LAKE A","6016970","2021-11-01 19:00","2021","11","01","19:00","-2.5","","-4.6","","85","","","","31","","13","","12.9","","97.71","","","","-7","","Snow"
"-93.79","51.07","RED LAKE A","6016970","2021-11-01 20:00","2021","11","01","20:00","-2.9","","-5.1","","85","","","","33","","16","","24.1","","97.73","","","","-8","","Snow,Blowing Snow"
"-93.79","51.07","RED LAKE A","6016970","2021-11-01 21:00","2021","11","01","21:00"
"-93.79","51.07","RED LAKE A","6016970","2021-11-01 22:00","2021","11","01","22:00"
"-93.79","51.07","RED LAKE A","6016970","2021-11-01 23:00","2021","11","01","23:00"
"-93.79","51.07","RED LAKE A","6016970","2021-11-02 00:00","2021","11","02","00:00"
"-93.79","51.07","RED LAKE A","6016970","2021-11-02 01:00","2021","11","02","01:00"
"-93.79","51.07","RED LAKE A","6016970","2021-11-02 02:00","2021","11","02","02:00"
"-93.79","51.07","RED LAKE A","6016970","2021-11-02 03:00","2021","11","02","03:00","-2.2","","-3.9","","88","","","","30","","13","","24.1","","97.69","","","","-7","","Cloudy"
"-93.79","51.07","RED LAKE A","6016970","2021-11-02 04:00","2021","11","02","04:00","-2.7","","-4.2","","90","","","","32","","10","","16.1","","97.72","","","","-7","","Snow"
"-93.79","51.07","RED LAKE A","6016970","2021-11-02 05:00","2021","11","02","05:00","-3.2","","-5.1","","87","","","","36","","13","","24.1","","97.74","","","","-8","","NA"
"-93.79","51.07","RED LAKE A","6016970","2021-11-02 06:00","2021","11","02","06:00","-3.3","","-5.3","","86","","","","35","","13","","24.1","","97.76","","","","-8","","Cloudy"
"-93.79","51.07","RED LAKE A","6016970","2021-11-02 07:00","2021","11","02","07:00","-3.5","","-5.3","","87","","","","36","","11","","24.1","","97.79","","","","-8","","NA"
"-93.79","51.07","RED LAKE A","6016970","2021-11-02 08:00","2021","11","02","08:00","-3.5","","-4.9","","90","","","","35","","14","","24.1","","97.81","","","","-9","","Freezing Drizzle"
"-93.79","51.07","RED LAKE A","6016970","2021-11-02 09:00","2021","11","02","09:00","-3.0","","-5.9","","81","","","","32","","13","","24.1","","97.84","","","","-8","","Mostly Cloudy"
"-93.79","51.07","RED LAKE A","6016970","2021-11-02 10:00","2021","11","02","10:00","-3.0","","-5.3","","84","","","","32","","11","","24.1","","97.87","","","","-7","","NA"
"-93.79","51.07","RED LAKE A","6016970","2021-11-02 11:00","2021","11","02","11:00","-2.3","","-5.6","","78","","","","30","","13","","24.1","","97.88","","","","-7","","NA"
"-93.79","51.07","RED LAKE A","6016970","2021-11-02 12:00","2021","11","02","12:00","-2.1","","-4.8","","82","","","","33","","10","","24.1","","97.88","","","","-6","","Mostly Cloudy"
"-93.79","51.07","RED LAKE A","6016970","2021-11-02 13:00","2021","11","02","13:00","-1.3","","-5.1","","75","","","","27","","14","","24.1","","97.85","","","","-6","","NA"
"-93.79","51.07","RED LAKE A","6016970","2021-11-02 14:00","2021","11","02","14:00","-1.0","","-6.5","","66","","","","32","","10","","24.1","","97.82","","","","-5","","NA"
"-93.79","51.07","RED LAKE A","6016970","2021-11-02 15:00","2021","11","02","15:00","-0.5","","-5.4","","69","","","","28","","14","","24.1","","97.80","","","","-5","","Mostly Cloudy"
"-93.79","51.07","RED LAKE A","6016970","2021-11-02 16:00","2021","11","02","16:00","-0.6","","-4.6","","74","","","","26","","14","","24.1","","97.80","","","","-5","","NA"
"-93.79","51.07","RED LAKE A","6016970","2021-11-02 17:00","2021","11","02","17:00","-0.1","","-5.2","","69","","","","29","","10","","24.1","","97.83","","","","-3","","NA"
"-93.79","51.07","RED LAKE A","6016970","2021-11-02 18:00","2021","11","02","18:00","-0.6","","-4.7","","74","","","","30","","8","","12.9","","97.83","","","","-3","","Snow"
"-93.79","51.07","RED LAKE A","6016970","2021-11-02 19:00","2021","11","02","19:00","-1.6","","-3.0","","90","","","","28","","5","","24.1","","97.82","","","","-3","","NA"
"-93.79","51.07","RED LAKE A","6016970","2021-11-02 20:00","2021","11","02","20:00","-1.0","","-3.0","","86","","","","29","","8","","24.1","","97.78","","","","-4","","Snow"
"-93.79","51.07","RED LAKE A","6016970","2021-11-02 21:00","2021","11","02","21:00"
"-93.79","51.07","RED LAKE A","6016970","2021-11-02 22:00","2021","11","02","22:00"
"-93.79","51.07","RED LAKE A","6016970","2021-11-02 23:00","2021","11","02","23:00"
"-93.79","51.07","RED LAKE A","6016970","2021-11-03 00:00","2021","11","03","00:00"
"-93.79","51.07","RED LAKE A","6016970","2021-11-03 01:00","2021","11","03","01:00"
"-93.79","51.07","RED LAKE A","6016970","2021-11-03 02:00","2021","11","03","02:00"
"-93.79","51.07","RED LAKE A","6016970","2021-11-03 03:00","2021","11","03","03:00","-1.2","","-4.2","","80","","","","21","","9","","24.1","","97.73","","","","-4","","Mostly Cloudy"
"-93.79","51.07","RED LAKE A","6016970","2021-11-03 04:00","2021","11","03","04:00","-1.6","","-4.0","","84","","","","21","","9","","24.1","","97.71","","","","-5","","NA"
"-93.79","51.07","RED LAKE A","6016970","2021-11-03 05:00","2021","11","03","05:00","-1.4","","-3.7","","85","","","","21","","8","","24.1","","97.68","","","","-4","","NA"
"-93.79","51.07","RED LAKE A","6016970","2021-11-03 06:00","2021","11","03","06:00","-1.2","","-3.5","","85","","","","23","","9","","22.5","","97.66","","","","-4","","Mostly Cloudy"
"-93.79","51.07","RED LAKE A","6016970","2021-11-03 07:00","2021","11","03","07:00","-1.2","","-3.6","","83","","","","22","","15","","24.1","","97.65","","","","-6","","NA"
"-93.79","51.07","RED LAKE A","6016970","2021-11-03 08:00","2021","11","03","08:00","-1.8","","-3.7","","87","","","","21","","7","","24.1","","97.63","","","","-4","","NA"
"-93.79","51.07","RED LAKE A","6016970","2021-11-03 09:00","2021","11","03","09:00","-0.8","","-3.4","","83","","","","23","","11","","24.1","","97.63","","","","-5","","Mostly Cloudy"
"-93.79","51.07","RED LAKE A","6016970","2021-11-03 10:00","2021","11","03","10:00","0.5","","-3.0","","78","","","","20","","11","","24.1","","97.63","","","","","","NA"
"-93.79","51.07","RED LAKE A","6016970","2021-11-03 11:00","2021","11","03","11:00","2.0","","-4.1","","64","","","","24","","12","","24.1","","97.63","","","","","","NA"
"-93.79","51.07","RED LAKE A","6016970","2021-11-03 12:00","2021","11","03","12:00","2.9","","-5.1","","56","","","","24","","21","","24.1","","97.53","","","","","","Clear"
"-93.79","51.07","RED LAKE A","6016970","2021-11-03 13:00","2021","11","03","13:00","3.9","","-4.7","","53","","","","24","","15","","24.1","","97.49","","","","","","NA"
"-93.79","51.07","RED LAKE A","6016970","2021-11-03 14:00","2021","11","03","14:00","4.3","","-4.8","","52","","","","23","","14","","24.1","","97.44","","","","","","NA"
"-93.79","51.07","RED LAKE A","6016970","2021-11-03 15:00","2021","11","03","15:00","4.3","","-4.8","","51","","","","24","","13","","24.1","","97.41","","","","","","Mostly Cloudy"
"-93.79","51.07","RED LAKE A","6016970","2021-11-03 16:00","2021","11","03","16:00","3.4","","-4.5","","56","","","","21","","13","","24.1","","97.37","","","","","","NA"
"-93.79","51.07","RED LAKE A","6016970","2021-11-03 17:00","2021","11","03","17:00","1.5","","-4.4","","65","","","","20","","7","","24.1","","97.36","","","","","","NA"
"-93.79","51.07","RED LAKE A","6016970","2021-11-03 18:00","2021","11","03","18:00","1.0","","-4.5","","67","","","","22","","7","","24.1","","97.36","","","","","","Mainly Clear"
"-93.79","51.07","RED LAKE A","6016970","2021-11-03 19:00","2021","11","03","19:00","0.1","","-4.6","","71","","","","21","","9","","24.1","","97.33","","","","","","NA"
"-93.79","51.07","RED LAKE A","6016970","2021-11-03 20:00","2021","11","03","20:00","-0.4","","-4.4","","74","","","","21","","8","","24.1","","97.30","","","","-3","","NA"
"-93.79","51.07","RED LAKE A","6016970","2021-11-03 21:00","2021","11","03","21:00"
"-93.79","51.07","RED LAKE A","6016970","2021-11-03 22:00","2021","11","03","22:00"
"-93.79","51.07","RED LAKE A","6016970","2021-11-03 23:00","2021","11","03","23:00"
"-93.79","51.07","RED LAKE A","6016970","2021-11-04 00:00","2021","11","04","00:00"
"-93.79","51.07","RED LAKE A","6016970","2021-11-04 01:00","2021","11","04","01:00"
"-93.79","51.07","RED LAKE A","6016970","2021-11-04 02:00","2021","11","04","02:00"
"-93.79","51.07","RED LAKE A","6016970","2021-11-04 03:00","2021","11","04","03:00","-1.9","","-3.8","","87","","","","21","","9","","19.3","","97.10","","","","-5","","Clear"
"-93.79","51.07","RED LAKE A","6016970","2021-11-04 04:00","2021","11","04","04:00","-2.1","","-3.5","","90","","","","20","","10","","24.1","","97.06","","","","-6","","NA"
"-93.79","51.07","RED LAKE A","6016970","2021-11-04 05:00","2021","11","04","05:00","-1.8","","-3.3","","90","","","","21","","12","","24.1","","97.05","","","","-6","","NA"
"-93.79","51.07","RED LAKE A","6016970","2021-11-04 06:00","2021","11","04","06:00","-1.7","","-3.1","","90","","","","20","","11","","24.1","","97.06","","","","-6","","Clear"
"-93.79","51.07","RED LAKE A","6016970","2021-11-04 07:00","2021","11","04","07:00","-1.8","","-3.0","","92","","","","21","","10","","24.1","","97.03","","","","-5","","NA"
"-93.79","51.07","RED LAKE A","6016970","2021-11-04 08:00","2021","11","04","08:00","-0.6","","-2.2","","89","","","","22","","12","","19.3","","97.01","","","","-5","","NA"
"-93.79","51.07","RED LAKE A","6016970","2021-11-04 09:00","2021","11","04","09:00","0.3","","-2.0","","84","","","","21","","12","","24.1","","96.97","","","","","","Clear"
"-93.79","51.07","RED LAKE A","6016970","2021-11-04 10:00","2021","11","04","10:00","2.0","","-1.5","","77","","","","21","","13","","24.1","","96.95","","","","","","NA"
"-93.79","51.07","RED LAKE A","6016970","2021-11-04 11:00","2021","11","04","11:00","4.6","","-1.2","","66","","","","22","","9","","24.1","","96.92","","","","","","NA"
"-93.79","51.07","RED LAKE A","6016970","2021-11-04 12:00","2021","11","04","12:00","6.7","","-2.2","","53","","","","23","","12","","24.1","","96.90","","","","","","Clear"
"-93.79","51.07","RED LAKE A","6016970","2021-11-04 13:00","2021","11","04","13:00","8.1","","-0.7","","53","","","","24","","12","","24.1","","96.90","","","","","","NA"
"-93.79","51.07","RED LAKE A","6016970","2021-11-04 14:00","2021","11","04","14:00","8.7","","-1.1","","50","","","","24","","14","","24.1","","96.82","","","","","","NA"
"-93.79","51.07","RED LAKE A","6016970","2021-11-04 15:00","2021","11","04","15:00","8.5","","-0.2","","54","","","","22","","12","","24.1","","96.79","","","","","","Mostly Cloudy"
"-93.79","51.07","RED LAKE A","6016970","2021-11-04 16:00","2021","11","04","16:00","7.1","","-0.1","","60","","","","20","","9","","24.1","","96.76","","","","","","NA"
"-93.79","51.07","RED LAKE A","6016970","2021-11-04 17:00","2021","11","04","17:00","5.9","","-0.9","","62","","","","20","","8","","24.1","","96.73","","","","","","NA"
"-93.79","51.07","RED LAKE A","6016970","2021-11-04 18:00","2021","11","04","18:00","5.0","","-0.7","","67","","","","17","","11","","24.1","","96.67","","","","","","Mainly Clear"
"-93.79","51.07","RED LAKE A","6016970","2021-11-04 19:00","2021","11","04","19:00","4.2","","-0.3","","73","","","","19","","10","","24.1","","96.63","","","","","","NA"
"-93.79","51.07","RED LAKE A","6016970","2021-11-04 20:00","2021","11","04","20:00","3.3","","-0.1","","78","","","","19","","9","","24.1","","96.60","","","","","","NA"
"-93.79","51.07","RED LAKE A","6016970","2021-11-04 21:00","2021","11","04","21:00"
"-93.79","51.07","RED LAKE A","6016970","2021-11-04 22:00","2021","11","04","22:00"
"-93.79","51.07","RED LAKE A","6016970","2021-11-04 23:00","2021","11","04","23:00"
"-93.79","51.07","RED LAKE A","6016970","2021-11-05 00:00","2021","11","05","00:00"
"-93.79","51.07","RED LAKE A","6016970","2021-11-05 01:00","2021","11","05","01:00"
"-93.79","51.07","RED LAKE A","6016970","2021-11-05 02:00","2021","11","05","02:00"
"-93.79","51.07","RED LAKE A","6016970","2021-11-05 03:00","2021","11","05","03:00","1.1","","-0.4","","90","","","","14","","9","","19.3","","96.38","","","","","","Clear"
"-93.79","51.07","RED LAKE A","6016970","2021-11-05 04:00","2021","11","05","04:00","1.4","","0.0","","90","","","","17","","10","","19.3","","96.33","","","","","","NA"
"-93.79","51.07","RED LAKE A","6016970","2021-11-05 05:00","2021","11","05","05:00","1.5","","0.4","","93","","","","17","","8","","16.1","","96.27","","","","","","NA"
"-93.79","51.07","RED LAKE A","6016970","2021-11-05 06:00","2021","11","05","06:00","1.1","","0.4","","95","","","","17","","9","","19.3","","96.21","","","","","","Mainly Clear"
"-93.79","51.07","RED LAKE A","6016970","2021-11-05 07:00","2021","11","05","07:00","1.2","","0.7","","97","","","","15","","9","","19.3","","96.18","","","","","","NA"
"-93.79","51.07","RED LAKE A","6016970","2021-11-05 08:00","2021","11","05","08:00","1.8","","1.1","","95","","","","17","","13","","12.9","","96.14","","","","","","NA"
"-93.79","51.07","RED LAKE A","6016970","2021-11-05 09:00","2021","11","05","09:00","3.5","","1.8","","89","","","","17","","14","","16.1","","96.09","","","","","","Mainly Clear"
"-93.79","51.07","RED LAKE A","6016970","2021-11-05 10:00","2021","11","05","10:00","5.5","","2.5","","81","","","","18","","18","","19.3","","96.04","","","","","","NA"
"-93.79","51.07","RED LAKE A","6016970","2021-11-05 11:00","2021","11","05","11:00","7.4","","3.1","","74","","","","18","","13","","24.1","","96.01","","","","","","NA"
"-93.79","51.07","RED LAKE A","6016970","2021-11-05 12:00","2021","11","05","12:00","9.8","","4.1","","67","","","","19","","18","","24.1","","95.92","","","","","","Mainly Clear"
"-93.79","51.07","RED LAKE A","6016970","2021-11-05 13:00","2021","11","05","13:00","11.4","","4.4","","62","","","","19","","12","","24.1","","95.87","","","","","","NA"
"-93.79","51.07","RED LAKE A","6016970","2021-11-05 14:00","2021","11","05","14:00","12.2","","4.4","","59","","","","18","","12","","24.1","","95.81","","","","","","NA"
"-93.79","51.07","RED LAKE A","6016970","2021-11-05 15:00","2021","11","05","15:00","12.4","","4.6","","59","","","","18","","12","","24.1","","95.78","","","","","","Mainly Clear"
"-93.79","51.07","RED LAKE A","6016970","2021-11-05 16:00","2021","11","05","16:00","10.4","","4.3","","66","","","","18","","13","","24.1","","95.80","","","","","","NA"
"-93.79","51.07","RED LAKE A","6016970","2021-11-05 17:00","2021","11","05","17:00","8.8","","4.2","","73","","","","17","","12","","24.1","","95.79","","","","","","NA"
"-93.79","51.07","RED LAKE A","6016970","2021-11-05 18:00","2021","11","05","18:00","8.1","","4.5","","78","","","","19","","19","","24.1","","95.83","","","","","","Mainly Clear"
"-93.79","51.07","RED LAKE A","6016970","2021-11-05 19:00","2021","11","05","19:00","7.3","","4.4","","81","","","","19","","14","","22.5","","95.84","","","","","","NA"
"-93.79","51.07","RED LAKE A","6016970","2021-11-05 20:00","2021","11","05","20:00","6.8","","4.2","","83","","","","20","","15","","24.1","","95.81","","","","","","NA"
"-93.79","51.07","RED LAKE A","6016970","2021-11-05 21:00","2021","11","05","21:00"
"-93.79","51.07","RED LAKE A","6016970","2021-11-05 22:00","2021","11","05","22:00"
"-93.79","51.07","RED LAKE A","6016970","2021-11-05 23:00","2021","11","05","23:00"
"-93.79","51.07","RED LAKE A","6016970","2021-11-06 00:00","2021","11","06","00:00"
"-93.79","51.07","RED LAKE A","6016970","2021-11-06 01:00","2021","11","06","01:00"
"-93.79","51.07","RED LAKE A","6016970","2021-11-06 02:00","2021","11","06","02:00"
"-93.79","51.07","RED LAKE A","6016970","2021-11-06 03:00","2021","11","06","03:00","5.3","","4.2","","92","","","","17","","7","","19.3","","95.79","","","","","","Cloudy"
"-93.79","51.07","RED LAKE A","6016970","2021-11-06 04:00","2021","11","06","04:00","5.5","","4.4","","93","","","","18","","6","","19.3","","95.82","","","","","","NA"
"-93.79","51.07","RED LAKE A","6016970","2021-11-06 05:00","2021","11","06","05:00","5.2","","4.2","","93","","","","20","","7","","19.3","","95.85","","","","","","NA"
"-93.79","51.07","RED LAKE A","6016970","2021-11-06 06:00","2021","11","06","06:00","4.5","","4.0","","97","","","","22","","5","","19.3","","95.83","","","","","","Mostly Cloudy"
"-93.79","51.07","RED LAKE A","6016970","2021-11-06 07:00","2021","11","06","07:00","2.4","","2.4","","100","","","","19","","5","","9.7","","95.84","","","","","","Fog"
"-93.79","51.07","RED LAKE A","6016970","2021-11-06 08:00","2021","11","06","08:00","4.8","","4.7","","99","","","","24","","14","","6.4","","95.92","","","","","","Fog"
"-93.79","51.07","RED LAKE A","6016970","2021-11-06 09:00","2021","11","06","09:00","5.4","","4.8","","96","","","","26","","8","","6.4","","95.96","","","","","","Fog"
"-93.79","51.07","RED LAKE A","6016970","2021-11-06 10:00","2021","11","06","10:00","4.8","","4.3","","97","","","","28","","16","","4.0","","96.04","","","","","","Fog"
"-93.79","51.07","RED LAKE A","6016970","2021-11-06 11:00","2021","11","06","11:00","6.1","","4.1","","87","","","","29","","10","","12.9","","96.08","","","","","","NA"
"-93.79","51.07","RED LAKE A","6016970","2021-11-06 12:00","2021","11","06","12:00","7.9","","4.5","","79","","","","27","","9","","24.1","","96.08","","","","","","Mainly Clear"
"-93.79","51.07","RED LAKE A","6016970","2021-11-06 13:00","2021","11","06","13:00","9.7","","4.2","","68","","","","25","","16","","24.1","","96.07","","","","","","NA"
"-93.79","51.07","RED LAKE A","6016970","2021-11-06 14:00","2021","11","06","14:00","10.2","","4.1","","66","","","","25","","19","","24.1","","96.12","","","","","","NA"
"-93.79","51.07","RED LAKE A","6016970","2021-11-06 15:00","2021","11","06","15:00","10.3","","4.2","","65","","","","26","","16","","24.1","","96.17","","","","","","Mainly Clear"
"-93.79","51.07","RED LAKE A","6016970","2021-11-06 16:00","2021","11","06","16:00","9.3","","4.5","","72","","","","25","","9","","24.1","","96.22","","","","","","NA"
"-93.79","51.07","RED LAKE A","6016970","2021-11-06 17:00","2021","11","06","17:00","8.1","","4.3","","77","","","","24","","11","","24.1","","96.24","","","","","","NA"
"-93.79","51.07","RED LAKE A","6016970","2021-11-06 18:00","2021","11","06","18:00","3.2","","2.6","","96","","","","36","","2","","24.1","","96.28","","","","","","Clear"
"-93.79","51.07","RED LAKE A","6016970","2021-11-06 19:00","2021","11","06","19:00","2.4","","2.2","","99","","","","20","","3","","24.1","","96.29","","","","","","NA"
"-93.79","51.07","RED LAKE A","6016970","2021-11-06 20:00","2021","11","06","20:00","0.0","","-0.1","","99","","","","11","","4","","24.1","","96.29","","","","-1","","NA"
"-93.79","51.07","RED LAKE A","6016970","2021-11-06 21:00","2021","11","06","21:00"
"-93.79","51.07","RED LAKE A","6016970","2021-11-06 22:00","2021","11","06","22:00"
"-93.79","51.07","RED LAKE A","6016970","2021-11-06 23:00","2021","11","06","23:00"
"-93.79","51.07","RED LAKE A","6016970","2021-11-07 00:00","2021","11","07","00:00"
"-93.79","51.07","RED LAKE A","6016970","2021-11-07 01:00","2021","11","07","01:00"
"-93.79","51.07","RED LAKE A","6016970","2021-11-07 02:00","2021","11","07","02:00"
"-93.79","51.07","RED LAKE A","6016970","2021-11-07 03:00","2021","11","07","03:00"
"-93.79","51.07","RED LAKE A","6016970","2021-11-07 04:00","2021","11","07","04:00","4.3","","2.3","","87","","","","23","","3","","24.1","","96.40","","","","","","NA"
"-93.79","51.07","RED LAKE A","6016970","2021-11-07 05:00","2021","11","07","05:00","3.6","","1.9","","89","","","","27","","5","","24.1","","96.41","","","","","","NA"
"-93.79","51.07","RED LAKE A","6016970","2021-11-07 06:00","2021","11","07","06:00","-0.1","","-0.4","","98","","","","27","","4","","24.1","","96.44","","","","-1","","Mainly Clear"
"-93.79","51.07","RED LAKE A","6016970","2021-11-07 07:00","2021","11","07","07:00","1.0","","0.8","","99","","","","29","","6","","24.1","","96.52","","","","","","NA"
"-93.79","51.07","RED LAKE A","6016970","2021-11-07 08:00","2021","11","07","08:00","1.3","","0.4","","94","","","","33","","4","","24.1","","96.56","","","","","","NA"
"-93.79","51.07","RED LAKE A","6016970","2021-11-07 09:00","2021","11","07","09:00","3.0","","1.7","","91","","","","2","","9","","24.1","","96.56","","","","","","Mostly Cloudy"
"-93.79","51.07","RED LAKE A","6016970","2021-11-07 10:00","2021","11","07","10:00","2.3","","1.9","","98","","","","2","","8","","16.1","","96.58","","","","","","NA"
"-93.79","51.07","RED LAKE A","6016970","2021-11-07 11:00","2021","11","07","11:00","3.5","","2.2","","91","","","","1","","6","","24.1","","96.57","","","","","","NA"
"-93.79","51.07","RED LAKE A","6016970","2021-11-07 12:00","2021","11","07","12:00","4.2","","2.1","","86","","","","2","","8","","24.1","","96.55","","","","","","Mainly Clear"
"-93.79","51.07","RED LAKE A","6016970","2021-11-07 13:00","2021","11","07","13:00","5.1","","2.5","","83","","","","1","","8","","24.1","","96.50","","","","","","NA"
"-93.79","51.07","RED LAKE A","6016970","2021-11-07 14:00","2021","11","07","14:00","4.5","","2.6","","88","","","","36","","10","","24.1","","96.48","","","","","","NA"
"-93.79","51.07","RED LAKE A","6016970","2021-11-07 15:00","2021","11","07","15:00","3.3","","2.2","","93","","","","1","","10","","24.1","","96.42","","","","","","Mainly Clear"
"-93.79","51.07","RED LAKE A","6016970","2021-11-07 16:00","2021","11","07","16:00","2.9","","2.2","","95","","","","36","","9","","24.1","","96.47","","","","","","NA"
"-93.79","51.07","RED LAKE A","6016970","2021-11-07 17:00","2021","11","07","17:00","2.1","","1.8","","98","","","","36","","7","","20.9","","96.45","","","","","","NA"
"-93.79","51.07","RED LAKE A","6016970","2021-11-07 18:00","2021","11","07","18:00","1.7","","1.6","","99","","","","3","","8","","1.6","","96.49","","","","","","Fog"
"-93.79","51.07","RED LAKE A","6016970","2021-11-07 19:00","2021","11","07","19:00","1.6","","1.6","","100","","","","36","","2","","0.8","","96.51","","","","","","Fog"
"-93.79","51.07","RED LAKE A","6016970","2021-11-07 20:00","2021","11","07","20:00","1.3","","1.3","","100","","","","7","","4","","0.8","","96.45","","","","","","Fog"
"-93.79","51.07","RED LAKE A","6016970","2021-11-07 21:00","2021","11","07","21:00","0.6","","0.6","","100","","","","12","","3","","0.4","","96.44","","","","","","Fog"
"-93.79","51.07","RED LAKE A","6016970","2021-11-07 22:00","2021","11","07","22:00"
"-93.79","51.07","RED LAKE A","6016970","2021-11-07 23:00","2021","11","07","23:00"
"-93.79","51.07","RED LAKE A","6016970","2021-11-08 00:00","2021","11","08","00:00"
"-93.79","51.07","RED LAKE A","6016970","2021-11-08 01:00","2021","11","08","01:00"
"-93.79","51.07","RED LAKE A","6016970","2021-11-08 02:00","2021","11","08","02:00"
"-93.79","51.07","RED LAKE A","6016970","2021-11-08 03:00","2021","11","08","03:00"
"-93.79","51.07","RED LAKE A","6016970","2021-11-08 04:00","2021","11","08","04:00","2.5","","2.5","","100","","","","23","","12","","24.1","","96.47","","","","","","NA"
"-93.79","51.07","RED LAKE A","6016970","2021-11-08 05:00","2021","11","08","05:00","2.5","","1.7","","95","","","","24","","13","","19.3","","96.50","","","","","","NA"
"-93.79","51.07","RED LAKE A","6016970","2021-11-08 06:00","2021","11","08","06:00","2.4","","0.8","","89","","","","24","","15","","24.1","","96.54","","","","","","Clear"
"-93.79","51.07","RED LAKE A","6016970","2021-11-08 07:00","2021","11","08","07:00","2.1","","0.2","","88","","","","24","","16","","24.1","","96.61","","","","","","NA"
"-93.79","51.07","RED LAKE A","6016970","2021-11-08 08:00","2021","11","08","08:00","2.2","","-0.4","","83","","","","25","","16","","24.1","","96.66","","","","","","NA"
"-93.79","51.07","RED LAKE A","6016970","2021-11-08 09:00","2021","11","08","09:00","2.8","","-0.6","","78","","","","25","","19","","24.1","","96.71","","","","","","Mainly Clear"
"-93.79","51.07","RED LAKE A","6016970","2021-11-08 10:00","2021","11","08","10:00","3.8","","-1.1","","70","","","","27","","20","","24.1","","96.79","","","","","","NA"
"-93.79","51.07","RED LAKE A","6016970","2021-11-08 11:00","2021","11","08","11:00","5.0","","-1.4","","63","","","","28","","22","","24.1","","96.87","","","","","","NA"
"-93.79","51.07","RED LAKE A","6016970","2021-11-08 12:00","2021","11","08","12:00","6.2","","-0.6","","62","","","","27","","19","","24.1","","96.94","","","","","","Mainly Clear"
"-93.79","51.07","RED LAKE A","6016970","2021-11-08 13:00","2021","11","08","13:00","6.5","","-0.6","","61","","","","27","","22","","24.1","","96.99","","","","","","NA"
"-93.79","51.07","RED LAKE A","6016970","2021-11-08 14:00","2021","11","08","14:00","6.6","","-0.8","","59","","","","30","","21","","24.1","","97.09","","","","","","NA"
"-93.79","51.07","RED LAKE A","6016970","2021-11-08 15:00","2021","11","08","15:00","6.5","","-0.8","","60","","","","28","","17","","24.1","","97.16","","","","","","Clear"
"-93.79","51.07","RED LAKE A","6016970","2021-11-08 16:00","2021","11","08","16:00","5.9","","-1.0","","61","","","","28","","16","","24.1","","97.22","","","","","","NA"
"-93.79","51.07","RED LAKE A","6016970","2021-11-08 17:00","2021","11","08","17:00","4.5","","-0.8","","68","","","","28","","8","","24.1","","97.25","","","","","","NA"
"-93.79","51.07","RED LAKE A","6016970","2021-11-08 18:00","2021","11","08","18:00","2.9","","-1.3","","74","","","","26","","6","","24.1","","97.29","","","","","","Clear"
"-93.79","51.07","RED LAKE A","6016970","2021-11-08 19:00","2021","11","08","19:00","2.8","","-0.2","","81","","","","25","","10","","24.1","","97.30","","","","","","NA"
"-93.79","51.07","RED LAKE A","6016970","2021-11-08 20:00","2021","11","08","20:00","-1.3","","-2.5","","91","","","","15","","3","","24.1","","97.27","","","","-2","","NA"
"-93.79","51.07","RED LAKE A","6016970","2021-11-08 21:00","2021","11","08","21:00","1.4","","-0.8","","85","","","","22","","13","","24.1","","97.26","","","","","","Clear"
"-93.79","51.07","RED LAKE A","6016970","2021-11-08 22:00","2021","11","08","22:00"
"-93.79","51.07","RED LAKE A","6016970","2021-11-08 23:00","2021","11","08","23:00"
"-93.79","51.07","RED LAKE A","6016970","2021-11-09 00:00","2021","11","09","00:00"
"-93.79","51.07","RED LAKE A","6016970","2021-11-09 01:00","2021","11","09","01:00"
"-93.79","51.07","RED LAKE A","6016970","2021-11-09 02:00","2021","11","09","02:00"
"-93.79","51.07","RED LAKE A","6016970","2021-11-09 03:00","2021","11","09","03:00"
"-93.79","51.07","RED LAKE A","6016970","2021-11-09 04:00","2021","11","09","04:00","2.6","","-3.6","","64","","","","22","","19","","24.1","","96.83","","","","","","NA"
"-93.79","51.07","RED LAKE A","6016970","2021-11-09 05:00","2021","11","09","05:00","2.7","","-3.8","","62","","","","24","","25","","24.1","","96.82","","","","","","NA"
"-93.79","51.07","RED LAKE A","6016970","2021-11-09 06:00","2021","11","09","06:00","2.1","","-4.3","","63","","","","25","","22","","24.1","","96.84","","","","","","Clear"
"-93.79","51.07","RED LAKE A","6016970","2021-11-09 07:00","2021","11","09","07:00","1.9","","-3.5","","67","","","","26","","16","","24.1","","96.87","","","","","","NA"
"-93.79","51.07","RED LAKE A","6016970","2021-11-09 08:00","2021","11","09","08:00","1.8","","-3.5","","68","","","","26","","18","","24.1","","96.94","","","","","","NA"
"-93.79","51.07","RED LAKE A","6016970","2021-11-09 09:00","2021","11","09","09:00","2.2","","-2.5","","71","","","","27","","21","","24.1","","97.01","","","","","","Clear"
"-93.79","51.07","RED LAKE A","6016970","2021-11-09 10:00","2021","11","09","10:00","3.2","","-2.1","","68","","","","28","","16","","24.1","","97.04","","","","","","NA"
"-93.79","51.07","RED LAKE A","6016970","2021-11-09 11:00","2021","11","09","11:00","4.1","","-3.0","","60","","","","27","","23","","24.1","","97.10","","","","","","NA"
"-93.79","51.07","RED LAKE A","6016970","2021-11-09 12:00","2021","11","09","12:00","4.4","","-3.8","","55","","","","27","","26","","24.1","","97.12","","","","","","Clear"
"-93.79","51.07","RED LAKE A","6016970","2021-11-09 13:00","2021","11","09","13:00","5.3","","-2.8","","56","","","","28","","22","","24.1","","97.13","","","","","","NA"
"-93.79","51.07","RED LAKE A","6016970","2021-11-09 14:00","2021","11","09","14:00","5.2","","-3.2","","55","","","","29","","17","","24.1","","97.16","","","","","","NA"
"-93.79","51.07","RED LAKE A","6016970","2021-11-09 15:00","2021","11","09","15:00","5.2","","-3.7","","52","","","","29","","18","","24.1","","97.20","","","","","","Mainly Clear"
"-93.79","51.07","RED LAKE A","6016970","2021-11-09 16:00","2021","11","09","16:00","4.6","","-4.5","","52","","","","29","","19","","24.1","","97.22","","","","","","NA"
"-93.79","51.07","RED LAKE A","6016970","2021-11-09 17:00","2021","11","09","17:00","3.1","","-4.4","","58","","","","28","","11","","24.1","","97.23","","","","","","NA"
"-93.79","51.07","RED LAKE A","6016970","2021-11-09 18:00","2021","11","09","18:00","2.6","","-4.5","","60","","","","27","","17","","24.1","","97.21","","","","","","Clear"
"-93.79","51.07","RED LAKE A","6016970","2021-11-09 19:00","2021","11","09","19:00","2.1","","-4.5","","62","","","","27","","17","","24.1","","97.20","","","","","","NA"
"-93.79","51.07","RED LAKE A","6016970","2021-11-09 20:00","2021","11","09","20:00","1.4","","-4.7","","64","","","","27","","12","","24.1","","97.21","","","","","","NA"
"-93.79","51.07","RED LAKE A","6016970","2021-11-09 21:00","2021","11","09","21:00","0.8","","-4.4","","68","","","","28","","8","","24.1","","97.23","","","","","","Clear"
"-93.79","51.07","RED LAKE A","6016970","2021-11-09 22:00","2021","11","09","22:00"
"-93.79","51.07","RED LAKE A","6016970","2021-11-09 23:00","2021","11","09","23:00"
"-93.79","51.07","RED LAKE A","6016970","2021-11-10 00:00","2021","11","10","00:00"
"-93.79","51.07","RED LAKE A","6016970","2021-11-10 01:00","2021","11","10","01:00"
"-93.79","51.07","RED LAKE A","6016970","2021-11-10 02:00","2021","11","10","02:00"
"-93.79","51.07","RED LAKE A","6016970","2021-11-10 03:00","2021","11","10","03:00"
"-93.79","51.07","RED LAKE A","6016970","2021-11-10 04:00","2021","11","10","04:00","-6.5","","-6.9","","97","","","","9","","7","","24.1","","97.37","","","","-10","","NA"
"-93.79","51.07","RED LAKE A","6016970","2021-11-10 05:00","2021","11","10","05:00","-6.3","","-6.7","","97","","","","9","","5","","24.1","","97.37","","","","-9","","NA"
"-93.79","51.07","RED LAKE A","6016970","2021-11-10 06:00","2021","11","10","06:00","-5.3","","-5.8","","96","","","","9","","6","","24.1","","97.35","","","","-8","","Clear"
"-93.79","51.07","RED LAKE A","6016970","2021-11-10 07:00","2021","11","10","07:00","-7.2","","-7.7","","96","","","","10","","9","","24.1","","97.39","","","","-12","","NA"
"-93.79","51.07","RED LAKE A","6016970","2021-11-10 08:00","2021","11","10","08:00","-6.6","","-7.1","","96","","","","8","","8","","24.1","","97.39","","","","-10","","NA"
"-93.79","51.07","RED LAKE A","6016970","2021-11-10 09:00","2021","11","10","09:00","-4.1","","-4.6","","96","","","","9","","10","","24.1","","97.41","","","","-8","","Mostly Cloudy"
"-93.79","51.07","RED LAKE A","6016970","2021-11-10 10:00","2021","11","10","10:00","-1.8","","-2.8","","93","","","","10","","16","","24.1","","97.35","","","","-7","","NA"
"-93.79","51.07","RED LAKE A","6016970","2021-11-10 11:00","2021","11","10","11:00","-0.7","","-2.2","","89","","","","10","","12","","24.1","","97.35","","","","-5","","NA"
"-93.79","51.07","RED LAKE A","6016970","2021-11-10 12:00","2021","11","10","12:00","0.2","","-3.0","","79","","","","11","","17","","24.1","","97.31","","","","","","Cloudy"
"-93.79","51.07","RED LAKE A","6016970","2021-11-10 13:00","2021","11","10","13:00","0.8","","-3.4","","74","","","","10","","19","","24.1","","97.22","","","","","","NA"
"-93.79","51.07","RED LAKE A","6016970","2021-11-10 14:00","2021","11","10","14:00","1.0","","-3.3","","73","","","","9","","17","","24.1","","97.13","","","","","","NA"
"-93.79","51.07","RED LAKE A","6016970","2021-11-10 15:00","2021","11","10","15:00","0.9","","-3.4","","73","","","","10","","17","","24.1","","97.12","","","","","","Cloudy"
"-93.79","51.07","RED LAKE A","6016970","2021-11-10 16:00","2021","11","10","16:00","0.7","","-3.3","","74","","","","9","","21","","24.1","","97.09","","","","","","NA"
"-93.79","51.07","RED LAKE A","6016970","2021-11-10 17:00","2021","11","10","17:00","0.5","","-3.4","","75","","","","9","","19","","24.1","","97.06","","","","","","NA"
"-93.79","51.07","RED LAKE A","6016970","2021-11-10 18:00","2021","11","10","18:00","0.5","","-3.7","","73","","","","9","","21","","24.1","","97.02","","","","","","Cloudy"
"-93.79","51.07","RED LAKE A","6016970","2021-11-10 19:00","2021","11","10","19:00","0.6","","-4.4","","70","","","","10","","21","","24.1","","96.99","","","","","","NA"
"-93.79","51.07","RED LAKE A","6016970","2021-11-10 20:00","2021","11","10","20:00","0.6","","-4.3","","70","","","","10","","27","","16.1","","96.92","","","","","","Snow Showers"
"-93.79","51.07","RED LAKE A","6016970","2021-11-10 21:00","2021","11","10","21:00","-0.1","","-2.8","","82","","","","9","","24","","6.4","","96.88","","","","-6","","Snow Showers"
"-93.79","51.07","RED LAKE A","6016970","2021-11-10 22:00","2021","11","10","22:00"
"-93.79","51.07","RED LAKE A","6016970","2021-11-10 23:00","2021","11","10","23:00"
"-93.79","51.07","RED LAKE A","6016970","2021-11-11 00:00","2021","11","11","00:00"
"-93.79","51.07","RED LAKE A","6016970","2021-11-11 01:00","2021","11","11","01:00"
"-93.79","51.07","RED LAKE A","6016970","2021-11-11 02:00","2021","11","11","02:00"
"-93.79","51.07","RED LAKE A","6016970","2021-11-11 03:00","2021","11","11","03:00"
"-93.79","51.07","RED LAKE A","6016970","2021-11-11 04:00","2021","11","11","04:00","-0.9","","-1.7","","95","","","","8","","22","","1.6","","96.49","","","","-7","","Snow"
"-93.79","51.07","RED LAKE A","6016970","2021-11-11 05:00","2021","11","11","05:00","-1.3","","-2.2","","94","","","","8","","28","","1.6","","96.50","","","","-8","","Snow"
"-93.79","51.07","RED LAKE A","6016970","2021-11-11 06:00","2021","11","11","06:00","-1.2","","-2.6","","90","","","","8","","21","","4.0","","96.45","","","","-7","","Snow"
"-93.79","51.07","RED LAKE A","6016970","2021-11-11 07:00","2021","11","11","07:00","-1.5","","-2.6","","92","","","","7","","15","","1.6","","96.43","","","","-6","","Snow"
"-93.79","51.07","RED LAKE A","6016970","2021-11-11 08:00","2021","11","11","08:00","-1.8","","-2.6","","94","","","","6","","18","","1.2","","96.43","","","","-7","","Snow"
"-93.79","51.07","RED LAKE A","6016970","2021-11-11 09:00","2021","11","11","09:00","-1.8","","-2.9","","93","","","","7","","19","","1.6","","96.38","","","","-7","","Snow"
"-93.79","51.07","RED LAKE A","6016970","2021-11-11 10:00","2021","11","11","10:00","-1.4","","-2.7","","91","","","","6","","15","","1.6","","96.34","","","","-6","","Snow"
"-93.79","51.07","RED LAKE A","6016970","2021-11-11 11:00","2021","11","11","11:00","-1.4","","-2.9","","89","","","","5","","22","","2.0","","96.28","","","","-7","","Snow"
"-93.79","51.07","RED LAKE A","6016970","2021-11-11 12:00","2021","11","11","12:00","-1.6","","-3.2","","89","","","","5","","19","","1.6","","96.18","","","","-7","","Snow"
"-93.79","51.07","RED LAKE A","6016970","2021-11-11 13:00","2021","11","11","13:00","-1.8","","-3.2","","90","","","","4","","23","","1.6","","96.09","","","","-8","","Snow"
"-93.79","51.07","RED LAKE A","6016970","2021-11-11 14:00","2021","11","11","14:00","-1.8","","-3.5","","88","","","","4","","23","","2.0","","96.03","","","","-8","","Snow,Blowing Snow"
"-93.79","51.07","RED LAKE A","6016970","2021-11-11 15:00","2021","11","11","15:00","-2.1","","-3.5","","91","","","","4","","22","","1.2","","95.97","","","","-8","","Snow,Blowing Snow"
"-93.79","51.07","RED LAKE A","6016970","2021-11-11 16:00","2021","11","11","16:00","-2.5","","-3.5","","93","","","","3","","28","","0.4","","95.98","","","","-10","","Heavy Snow,Blowing Snow"
"-93.79","51.07","RED LAKE A","6016970","2021-11-11 17:00","2021","11","11","17:00","-2.5","","-3.5","","93","","","","4","","23","","0.4","","96.05","","","","-9","","Moderate Snow,Blowing Snow"
"-93.79","51.07","RED LAKE A","6016970","2021-11-11 18:00","2021","11","11","18:00","-2.4","","-3.5","","92","","","","9","","18","","1.2","","96.05","","","","-8","","Snow,Blowing Snow"
"-93.79","51.07","RED LAKE A","6016970","2021-11-11 19:00","2021","11","11","19:00","-2.4","","-3.8","","90","","","","4","","17","","2.4","","96.08","","","","-8","","Snow,Blowing Snow"
"-93.79","51.07","RED LAKE A","6016970","2021-11-11 20:00","2021","11","11","20:00","-2.2","","-4.2","","86","","","","4","","31","","3.6","","96.06","","","","-9","","Snow,Blowing Snow"
"-93.79","51.07","RED LAKE A","6016970","2021-11-11 21:00","2021","11","11","21:00","-2.4","","-4.4","","86","","","","4","","30","","3.6","","96.09","","","","-10","","Snow Showers,Blowing Snow"
"-93.79","51.07","RED LAKE A","6016970","2021-11-11 22:00","2021","11","11","22:00"
"-93.79","51.07","RED LAKE A","6016970","2021-11-11 23:00","2021","11","11","23:00"
"-93.79","51.07","RED LAKE A","6016970","2021-11-12 00:00","2021","11","12","00:00"
"-93.79","51.07","RED LAKE A","6016970","2021-11-12 01:00","2021","11","12","01:00"
"-93.79","51.07","RED LAKE A","6016970","2021-11-12 02:00","2021","11","12","02:00"
"-93.79","51.07","RED LAKE A","6016970","2021-11-12 03:00","2021","11","12","03:00"
"-93.79","51.07","RED LAKE A","6016970","2021-11-12 04:00","2021","11","12","04:00","-2.8","","-4.9","","85","","","","2","","21","","24.1","","96.53","","","","-9","","Blowing Snow"
"-93.79","51.07","RED LAKE A","6016970","2021-11-12 05:00","2021","11","12","05:00","-2.7","","-5.0","","84","","","","2","","24","","6.4","","96.62","","","","-9","","Snow,Blowing Snow"
"-93.79","51.07","RED LAKE A","6016970","2021-11-12 06:00","2021","11","12","06:00","-2.5","","-4.6","","85","","","","2","","25","","16.1","","96.69","","","","-9","","Snow,Blowing Snow"
"-93.79","51.07","RED LAKE A","6016970","2021-11-12 07:00","2021","11","12","07:00","-2.5","","-4.5","","86","","","","2","","24","","16.1","","96.79","","","","-9","","Snow,Blowing Snow"
"-93.79","51.07","RED LAKE A","6016970","2021-11-12 08:00","2021","11","12","08:00","-2.6","","-4.3","","89","","","","2","","26","","4.8","","96.87","","","","-9","","Snow,Blowing Snow"
"-93.79","51.07","RED LAKE A","6016970","2021-11-12 09:00","2021","11","12","09:00","-2.4","","-4.4","","86","","","","2","","23","","4.8","","96.95","","","","-9","","Snow,Blowing Snow"
"-93.79","51.07","RED LAKE A","6016970","2021-11-12 10:00","2021","11","12","10:00","-2.4","","-4.7","","84","","","","2","","28","","4.8","","97.04","","","","-9","","Snow,Blowing Snow"
"-93.79","51.07","RED LAKE A","6016970","2021-11-12 11:00","2021","11","12","11:00","-2.0","","-5.4","","78","","","","1","","32","","9.7","","97.11","","","","-9","","Snow,Blowing Snow"
"-93.79","51.07","RED LAKE A","6016970","2021-11-12 12:00","2021","11","12","12:00","-2.0","","-4.9","","81","","","","1","","19","","4.8","","97.13","","","","-8","","Snow,Blowing Snow"
"-93.79","51.07","RED LAKE A","6016970","2021-11-12 13:00","2021","11","12","13:00","-1.2","","-5.3","","73","","","","2","","28","","24.1","","97.10","","","","-8","","Blowing Snow"
"-93.79","51.07","RED LAKE A","6016970","2021-11-12 14:00","2021","11","12","14:00","-1.4","","-4.7","","78","","","","2","","27","","24.1","","97.13","","","","-8","","Freezing Rain,Blowing Snow"
"-93.79","51.07","RED LAKE A","6016970","2021-11-12 15:00","2021","11","12","15:00","-1.4","","-4.7","","79","","","","1","","23","","24.1","","97.14","","","","-7","","Freezing Drizzle"
"-93.79","51.07","RED LAKE A","6016970","2021-11-12 16:00","2021","11","12","16:00","-1.6","","-5.0","","78","","","","1","","18","","24.1","","97.21","","","","-7","","Freezing Drizzle,Snow"
"-93.79","51.07","RED LAKE A","6016970","2021-11-12 17:00","2021","11","12","17:00","-1.8","","-4.6","","82","","","","35","","18","","24.1","","97.27","","","","-7","","Snow"
"-93.79","51.07","RED LAKE A","6016970","2021-11-12 18:00","2021","11","12","18:00","-2.2","","-4.5","","84","","","","36","","17","","24.1","","97.30","","","","-8","","Snow Showers"
"-93.79","51.07","RED LAKE A","6016970","2021-11-12 19:00","2021","11","12","19:00","-2.6","","-4.8","","85","","","","1","","14","","24.1","","97.23","","","","-7","","Snow"
"-93.79","51.07","RED LAKE A","6016970","2021-11-12 20:00","2021","11","12","20:00","-2.7","","-5.0","","84","","","","1","","10","","24.1","","97.20","","","","-7","","NA"
"-93.79","51.07","RED LAKE A","6016970","2021-11-12 21:00","2021","11","12","21:00","-2.6","","-4.8","","85","","","","35","","15","","24.1","","97.21","","","","-8","","Mostly Cloudy"
"-93.79","51.07","RED LAKE A","6016970","2021-11-12 22:00","2021","11","12","22:00"
"-93.79","51.07","RED LAKE A","6016970","2021-11-12 23:00","2021","11","12","23:00"
"-93.79","51.07","RED LAKE A","6016970","2021-11-13 00:00","2021","11","13","00:00"
"-93.79","51.07","RED LAKE A","6016970","2021-11-13 01:00","2021","11","13","01:00"
"-93.79","51.07","RED LAKE A","6016970","2021-11-13 02:00","2021","11","13","02:00"
"-93.79","51.07","RED LAKE A","6016970","2021-11-13 03:00","2021","11","13","03:00"
"-93.79","51.07","RED LAKE A","6016970","2021-11-13 04:00","2021","11","13","04:00","-4.1","","-5.2","","92","","","","1","","6","","24.1","","97.00","","","","-7","","NA"
"-93.79","51.07","RED LAKE A","6016970","2021-11-13 05:00","2021","11","13","05:00","-5.0","","-5.8","","94","","","","36","","7","","24.1","","96.95","","","","-8","","NA"
"-93.79","51.07","RED LAKE A","6016970","2021-11-13 06:00","2021","11","13","06:00","-5.4","","-5.9","","96","","","","1","","4","","24.1","","96.95","","","","-7","","Mostly Cloudy"
"-93.79","51.07","RED LAKE A","6016970","2021-11-13 07:00","2021","11","13","07:00","-5.4","","-6.0","","95","","","","1","","4","","24.1","","96.91","","","","-7","","NA"
"-93.79","51.07","RED LAKE A","6016970","2021-11-13 08:00","2021","11","13","08:00","-4.6","","-5.7","","93","","","","36","","4","","24.1","","96.87","","","","-6","","NA"
"-93.79","51.07","RED LAKE A","6016970","2021-11-13 09:00","2021","11","13","09:00","-3.9","","-6.0","","85","","","","36","","7","","24.1","","96.80","","","","-7","","Mostly Cloudy"
"-93.79","51.07","RED LAKE A","6016970","2021-11-13 10:00","2021","11","13","10:00","-3.3","","-6.7","","77","","","","1","","8","","24.1","","96.77","","","","-7","","NA"
"-93.79","51.07","RED LAKE A","6016970","2021-11-13 11:00","2021","11","13","11:00","-3.0","","-7.1","","74","","","","36","","6","","24.1","","96.74","","","","-5","","NA"
"-93.79","51.07","RED LAKE A","6016970","2021-11-13 12:00","2021","11","13","12:00","-2.5","","-6.9","","72","","","","2","","8","","24.1","","96.64","","","","-6","","Cloudy"
"-93.79","51.07","RED LAKE A","6016970","2021-11-13 13:00","2021","11","13","13:00","-2.9","","-7.2","","72","","","","36","","1","","19.3","","96.54","","","","-3","","Snow"
"-93.79","51.07","RED LAKE A","6016970","2021-11-13 14:00","2021","11","13","14:00","-3.1","","-5.9","","81","","","","36","","2","","19.3","","96.51","","","","-4","","Snow"
"-93.79","51.07","RED LAKE A","6016970","2021-11-13 15:00","2021","11","13","15:00","-2.9","","-6.1","","79","","","","32","","3","","24.1","","96.51","","","","-4","","Snow"
"-93.79","51.07","RED LAKE A","6016970","2021-11-13 16:00","2021","11","13","16:00","-3.0","","-7.8","","69","","","","2","","9","","24.1","","96.53","","","","-7","","Snow"
"-93.79","51.07","RED LAKE A","6016970","2021-11-13 17:00","2021","11","13","17:00","-3.8","","-5.6","","87","","","","3","","10","","1.2","","96.58","","","","-8","","Snow Showers"
"-93.79","51.07","RED LAKE A","6016970","2021-11-13 18:00","2021","11","13","18:00","-4.2","","-5.8","","89","","","","2","","9","","19.3","","96.59","","","","-8","","Snow Showers"
"-93.79","51.07","RED LAKE A","6016970","2021-11-13 19:00","2021","11","13","19:00","-4.1","","-6.5","","84","","","","3","","10","","24.1","","96.58","","","","-8","","NA"
"-93.79","51.07","RED LAKE A","6016970","2021-11-13 20:00","2021","11","13","20:00","-4.4","","-6.3","","86","","","","2","","13","","24.1","","96.63","","","","-9","","NA"
"-93.79","51.07","RED LAKE A","6016970","2021-11-13 21:00","2021","11","13","21:00","-5.0","","-7.1","","85","","","","4","","7","","24.1","","96.66","","","","-8","","Cloudy"
"-93.79","51.07","RED LAKE A","6016970","2021-11-13 22:00","2021","11","13","22:00"
"-93.79","51.07","RED LAKE A","6016970","2021-11-13 23:00","2021","11","13","23:00"
"-93.79","51.07","RED LAKE A","6016970","2021-11-14 00:00","2021","11","14","00:00"
"-93.79","51.07","RED LAKE A","6016970","2021-11-14 01:00","2021","11","14","01:00"
"-93.79","51.07","RED LAKE A","6016970","2021-11-14 02:00","2021","11","14","02:00"
"-93.79","51.07","RED LAKE A","6016970","2021-11-14 03:00","2021","11","14","03:00"
"-93.79","51.07","RED LAKE A","6016970","2021-11-14 04:00","2021","11","14","04:00","-5.9","","-8.4","","82","","","","36","","9","","24.1","","96.80","","","","-10","","NA"
"-93.79","51.07","RED LAKE A","6016970","2021-11-14 05:00","2021","11","14","05:00","-7.0","","-8.2","","91","","","","36","","8","","24.1","","96.84","","","","-11","","NA"
"-93.79","51.07","RED LAKE A","6016970","2021-11-14 06:00","2021","11","14","06:00","-7.8","","-8.6","","94","","","","33","","4","","24.1","","96.84","","","","-10","","Mainly Clear"
"-93.79","51.07","RED LAKE A","6016970","2021-11-14 07:00","2021","11","14","07:00","-7.6","","-8.3","","95","","","","1","","8","","24.1","","96.87","","","","-12","","NA"
"-93.79","51.07","RED LAKE A","6016970","2021-11-14 08:00","2021","11","14","08:00","-6.4","","-7.4","","92","","","","32","","13","","24.1","","96.90","","","","-12","","NA"
"-93.79","51.07","RED LAKE A","6016970","2021-11-14 09:00","2021","11","14","09:00","-5.5","","-7.2","","88","","","","33","","13","","24.1","","96.90","","","","-11","","Mostly Cloudy"
"-93.79","51.07","RED LAKE A","6016970","2021-11-14 10:00","2021","11","14","10:00","-5.3","","-7.7","","84","","","","34","","6","","24.1","","96.90","","","","-8","","NA"
"-93.79","51.07","RED LAKE A","6016970","2021-11-14 11:00","2021","11","14","11:00","-4.2","","-8.3","","73","","","","31","","10","","24.1","","96.87","","","","-8","","NA"
"-93.79","51.07","RED LAKE A","6016970","2021-11-14 12:00","2021","11","14","12:00","-3.1","","-9.0","","64","","","","36","","10","","24.1","","96.85","","","","-7","","Mainly Clear"
"-93.79","51.07","RED LAKE A","6016970","2021-11-14 13:00","2021","11","14","13:00","-2.2","","-9.2","","59","","","","33","","8","","24.1","","96.89","","","","-5","","NA"
"-93.79","51.07","RED LAKE A","6016970","2021-11-14 14:00","2021","11","14","14:00","-2.5","","-9.5","","59","","","","32","","9","","24.1","","96.87","","","","-6","","NA"
"-93.79","51.07","RED LAKE A","6016970","2021-11-14 15:00","2021","11","14","15:00","-2.2","","-9.1","","59","","","","27","","7","","24.1","","96.87","","","","-5","","Mainly Clear"
"-93.79","51.07","RED LAKE A","6016970","2021-11-14 16:00","2021","11","14","16:00","-2.3","","-9.4","","58","","","","27","","8","","24.1","","96.88","","","","-5","","NA"
"-93.79","51.07","RED LAKE A","6016970","2021-11-14 17:00","2021","11","14","17:00","-4.3","","-9.5","","67","","","","9","","4","","24.1","","96.88","","","","-6","","NA"
"-93.79","51.07","RED LAKE A","6016970","2021-11-14 18:00","2021","11","14","18:00","-8.2","","-9.4","","91","","","","36","","2","","24.1","","96.90","","","","-9","","Mainly Clear"
"-93.79","51.07","RED LAKE A","6016970","2021-11-14 19:00","2021","11","14","19:00","-4.8","","-9.2","","72","","","","33","","7","","24.1","","96.91","","","","-8","","NA"
"-93.79","51.07","RED LAKE A","6016970","2021-11-14 20:00","2021","11","14","20:00","-6.5","","-8.8","","84","","","","36","","3","","24.1","","96.92","","","","-8","","Snow"
"-93.79","51.07","RED LAKE A","6016970","2021-11-14 21:00","2021","11","14","21:00","-4.9","","-8.9","","74","","","","28","","5","","24.1","","96.90","","","","-7","","Snow"
"-93.79","51.07","RED LAKE A","6016970","2021-11-14 22:00","2021","11","14","22:00"
"-93.79","51.07","RED LAKE A","6016970","2021-11-14 23:00","2021","11","14","23:00"
"-93.79","51.07","RED LAKE A","6016970","2021-11-15 00:00","2021","11","15","00:00"
"-93.79","51.07","RED LAKE A","6016970","2021-11-15 01:00","2021","11","15","01:00"
"-93.79","51.07","RED LAKE A","6016970","2021-11-15 02:00","2021","11","15","02:00"
"-93.79","51.07","RED LAKE A","6016970","2021-11-15 03:00","2021","11","15","03:00"
"-93.79","51.07","RED LAKE A","6016970","2021-11-15 04:00","2021","11","15","04:00","-13.5","","-14.4","","93","","","","11","","3","","24.1","","97.01","","","","-16","","NA"
"-93.79","51.07","RED LAKE A","6016970","2021-11-15 05:00","2021","11","15","05:00","-12.2","","-12.6","","97","","","","36","","2","","24.1","","97.02","","","","-13","","NA"
"-93.79","51.07","RED LAKE A","6016970","2021-11-15 06:00","2021","11","15","06:00","-14.4","","-15.7","","90","","","","10","","3","","24.1","","97.03","","","","-17","","Clear"
"-93.79","51.07","RED LAKE A","6016970","2021-11-15 07:00","2021","11","15","07:00","-13.4","","-14.2","","94","","","","36","","1","","4.0","","97.07","","","","-14","","Fog"
"-93.79","51.07","RED LAKE A","6016970","2021-11-15 08:00","2021","11","15","08:00","-13.0","","-13.9","","93","","","","9","","4","","12.9","","97.10","","","","-16","","NA"
"-93.79","51.07","RED LAKE A","6016970","2021-11-15 09:00","2021","11","15","09:00","-9.2","","-9.9","","95","","","","8","","3","","24.1","","97.13","","","","-11","","Mostly Cloudy"
"-93.79","51.07","RED LAKE A","6016970","2021-11-15 10:00","2021","11","15","10:00","-7.0","","-8.0","","93","","","","9","","5","","24.1","","97.18","","","","-10","","NA"
"-93.79","51.07","RED LAKE A","6016970","2021-11-15 11:00","2021","11","15","11:00","-4.7","","-7.7","","80","","","","18","","6","","24.1","","97.21","","","","-7","","NA"
"-93.79","51.07","RED LAKE A","6016970","2021-11-15 12:00","2021","11","15","12:00","-3.2","","-6.8","","76","","","","19","","7","","24.1","","97.18","","","","-6","","Mostly Cloudy"
"-93.79","51.07","RED LAKE A","6016970","2021-11-15 13:00","2021","11","15","13:00","-2.7","","-6.3","","76","","","","19","","10","","24.1","","97.15","","","","-7","","NA"
"-93.79","51.07","RED LAKE A","6016970","2021-11-15 14:00","2021","11","15","14:00","-2.8","","-7.3","","71","","","","15","","8","","24.1","","97.09","","","","-6","","NA"
"-93.79","51.07","RED LAKE A","6016970","2021-11-15 15:00","2021","11","15","15:00","-2.7","","-7.9","","68","","","","16","","9","","24.1","","97.09","","","","-6","","Mostly Cloudy"
"-93.79","51.07","RED LAKE A","6016970","2021-11-15 16:00","2021","11","15","16:00","-2.9","","-8.5","","66","","","","20","","18","","24.1","","97.11","","","","-9","","NA"
"-93.79","51.07","RED LAKE A","6016970","2021-11-15 17:00","2021","11","15","17:00","-3.2","","-8.0","","69","","","","20","","10","","24.1","","97.08","","","","-7","","NA"
"-93.79","51.07","RED LAKE A","6016970","2021-11-15 18:00","2021","11","15","18:00","-4.3","","-8.5","","72","","","","17","","7","","24.1","","97.02","","","","-7","","Mainly Clear"
"-93.79","51.07","RED LAKE A","6016970","2021-11-15 19:00","2021","11","15","19:00","-6.3","","-8.6","","84","","","","16","","6","","24.1","","97.05","","","","-9","","NA"
"-93.79","51.07","RED LAKE A","6016970","2021-11-15 20:00","2021","11","15","20:00","-4.6","","-7.7","","79","","","","14","","8","","24.1","","97.02","","","","-8","","NA"
"-93.79","51.07","RED LAKE A","6016970","2021-11-15 21:00","2021","11","15","21:00","-4.2","","-8.3","","74","","","","16","","14","","24.1","","96.95","","","","-9","","Mostly Cloudy"
"-93.79","51.07","RED LAKE A","6016970","2021-11-15 22:00","2021","11","15","22:00"
"-93.79","51.07","RED LAKE A","6016970","2021-11-15 23:00","2021","11","15","23:00"
"-93.79","51.07","RED LAKE A","6016970","2021-11-16 00:00","2021","11","16","00:00"
"-93.79","51.07","RED LAKE A","6016970","2021-11-16 01:00","2021","11","16","01:00"
"-93.79","51.07","RED LAKE A","6016970","2021-11-16 02:00","2021","11","16","02:00"
"-93.79","51.07","RED LAKE A","6016970","2021-11-16 03:00","2021","11","16","03:00"
"-93.79","51.07","RED LAKE A","6016970","2021-11-16 04:00","2021","11","16","04:00","-3.8","","-6.9","","79","","","","14","","18","","24.1","","96.61","","","","-10","","NA"
"-93.79","51.07","RED LAKE A","6016970","2021-11-16 05:00","2021","11","16","05:00","-3.5","","-6.8","","78","","","","14","","17","","24.1","","96.47","","","","-9","","NA"
"-93.79","51.07","RED LAKE A","6016970","2021-11-16 06:00","2021","11","16","06:00","-3.3","","-6.7","","77","","","","14","","24","","24.1","","96.36","","","","-10","","Cloudy"
"-93.79","51.07","RED LAKE A","6016970","2021-11-16 07:00","2021","11","16","07:00","-3.3","","-6.1","","81","","","","14","","24","","16.1","","96.27","","","","-10","","Snow Showers,Blowing Snow"
"-93.79","51.07","RED LAKE A","6016970","2021-11-16 08:00","2021","11","16","08:00","-3.4","","-5.6","","85","","","","13","","28","","4.0","","96.19","","","","-11","","Snow Showers,Blowing Snow"
"-93.79","51.07","RED LAKE A","6016970","2021-11-16 09:00","2021","11","16","09:00","-3.1","","-4.5","","90","","","","12","","27","","1.6","","96.10","","","","-10","","Snow Showers,Blowing Snow"
"-93.79","51.07","RED LAKE A","6016970","2021-11-16 10:00","2021","11","16","10:00","-2.9","","-4.0","","92","","","","12","","24","","4.0","","95.96","","","","-10","","Snow Showers,Blowing Snow"
"-93.79","51.07","RED LAKE A","6016970","2021-11-16 11:00","2021","11","16","11:00","-2.9","","-4.2","","91","","","","12","","28","","9.7","","95.82","","","","-10","","Snow Showers,Blowing Snow"
"-93.79","51.07","RED LAKE A","6016970","2021-11-16 12:00","2021","11","16","12:00","-2.6","","-3.8","","92","","","","12","","30","","6.4","","95.71","","","","-10","","Freezing Rain,Ice Pellet Showers,Fog,Blowing Snow"
"-93.79","51.07","RED LAKE A","6016970","2021-11-16 13:00","2021","11","16","13:00","-2.8","","-3.9","","92","","","","13","","31","","2.4","","95.61","","","","-10","","Freezing Rain,Ice Pellets,Fog,Blowing Snow"
"-93.79","51.07","RED LAKE A","6016970","2021-11-16 14:00","2021","11","16","14:00","-2.4","","-3.4","","93","","","","13","","27","","3.2","","95.54","","","","-9","","Freezing Rain,Ice Pellets,Fog,Blowing Snow"
"-93.79","51.07","RED LAKE A","6016970","2021-11-16 15:00","2021","11","16","15:00","-1.8","","-2.6","","94","","","","13","","22","","3.2","","95.48","","","","-8","","Snow,Ice Pellets,Fog"
"-93.79","51.07","RED LAKE A","6016970","2021-11-16 16:00","2021","11","16","16:00","-1.0","","-2.2","","91","","","","13","","23","","16.1","","95.46","","","","-7","","Snow"
"-93.79","51.07","RED LAKE A","6016970","2021-11-16 17:00","2021","11","16","17:00","-0.6","","-1.8","","92","","","","14","","20","","19.3","","95.43","","","","-6","","Snow"
"-93.79","51.07","RED LAKE A","6016970","2021-11-16 18:00","2021","11","16","18:00","-0.5","","-1.1","","95","","","","14","","21","","9.7","","95.37","","","","-6","","Snow Showers,Blowing Snow"
"-93.79","51.07","RED LAKE A","6016970","2021-11-16 19:00","2021","11","16","19:00","-0.4","","-1.0","","95","","","","15","","23","","2.4","","95.35","","","","-6","","Snow Showers,Blowing Snow"
"-93.79","51.07","RED LAKE A","6016970","2021-11-16 20:00","2021","11","16","20:00","-0.2","","-0.8","","96","","","","14","","19","","3.2","","95.31","","","","-5","","Snow Showers,Blowing Snow"
"-93.79","51.07","RED LAKE A","6016970","2021-11-16 21:00","2021","11","16","21:00","-0.1","","-0.6","","96","","","","16","","18","","2.4","","95.26","","","","-5","","Snow Showers,Fog"
"-93.79","51.07","RED LAKE A","6016970","2021-11-16 22:00","2021","11","16","22:00"
"-93.79","51.07","RED LAKE A","6016970","2021-11-16 23:00","2021","11","16","23:00"
"-93.79","51.07","RED LAKE A","6016970","2021-11-17 00:00","2021","11","17","00:00"
"-93.79","51.07","RED LAKE A","6016970","2021-11-17 01:00","2021","11","17","01:00"
"-93.79","51.07","RED LAKE A","6016970","2021-11-17 02:00","2021","11","17","02:00"
"-93.79","51.07","RED LAKE A","6016970","2021-11-17 03:00","2021","11","17","03:00"
"-93.79","51.07","RED LAKE A","6016970","2021-11-17 04:00","2021","11","17","04:00","0.4","","-0.9","","91","","","","15","","16","","24.1","","94.91","","","","","","Snow"
"-93.79","51.07","RED LAKE A","6016970","2021-11-17 05:00","2021","11","17","05:00","0.0","","-3.5","","78","","","","18","","16","","24.1","","94.86","","","","-5","","NA"
"-93.79","51.07","RED LAKE A","6016970","2021-11-17 06:00","2021","11","17","06:00","-0.5","","-3.9","","78","","","","16","","17","","19.3","","94.82","","","","-5","","Snow"
"-93.79","51.07","RED LAKE A","6016970","2021-11-17 07:00","2021","11","17","07:00","-1.0","","-3.1","","86","","","","17","","21","","24.1","","94.77","","","","-7","","Freezing Rain,Snow"
"-93.79","51.07","RED LAKE A","6016970","2021-11-17 08:00","2021","11","17","08:00","-1.0","","-3.0","","87","","","","17","","17","","24.1","","94.77","","","","-6","","Snow"
"-93.79","51.07","RED LAKE A","6016970","2021-11-17 09:00","2021","11","17","09:00","-1.2","","-2.4","","92","","","","16","","17","","16.1","","94.74","","","","-6","","Freezing Drizzle,Snow"
"-93.79","51.07","RED LAKE A","6016970","2021-11-17 10:00","2021","11","17","10:00","-1.1","","-1.8","","95","","","","16","","11","","3.2","","94.74","","","","-5","","Freezing Drizzle,Snow Showers"
"-93.79","51.07","RED LAKE A","6016970","2021-11-17 11:00","2021","11","17","11:00","-0.8","","-1.7","","93","","","","17","","15","","1.2","","94.72","","","","-5","","Snow Showers"
"-93.79","51.07","RED LAKE A","6016970","2021-11-17 12:00","2021","11","17","12:00","-0.4","","-1.7","","91","","","","18","","15","","2.4","","94.69","","","","-5","","Snow Showers"
"-93.79","51.07","RED LAKE A","6016970","2021-11-17 13:00","2021","11","17","13:00","-0.3","","-1.4","","92","","","","18","","15","","3.2","","94.67","","","","-5","","Snow"
"-93.79","51.07","RED LAKE A","6016970","2021-11-17 14:00","2021","11","17","14:00","-0.4","","-1.2","","95","","","","19","","10","","3.2","","94.68","","","","-4","","Snow"
"-93.79","51.07","RED LAKE A","6016970","2021-11-17 15:00","2021","11","17","15:00","-0.1","","-0.5","","97","","","","23","","14","","2.4","","94.73","","","","-4","","Snow"
"-93.79","51.07","RED LAKE A","6016970","2021-11-17 16:00","2021","11","17","16:00","0.1","","-0.7","","94","","","","29","","15","","2.4","","94.87","","","","","","Snow"
"-93.79","51.07","RED LAKE A","6016970","2021-11-17 17:00","2021","11","17","17:00","0.0","","-1.0","","93","","","","29","","19","","4.0","","94.99","","","","-5","","Snow"
"-93.79","51.07","RED LAKE A","6016970","2021-11-17 18:00","2021","11","17","18:00","-0.2","","-1.1","","94","","","","31","","14","","9.7","","95.11","","","","-4","","Snow"
"-93.79","51.07","RED LAKE A","6016970","2021-11-17 19:00","2021","11","17","19:00","-0.3","","-1.4","","93","","","","31","","14","","16.1","","95.21","","","","-5","","Snow"
"-93.79","51.07","RED LAKE A","6016970","2021-11-17 20:00","2021","11","17","20:00","-1.7","","-3.1","","90","","","","32","","23","","4.0","","95.34","","","","-8","","Snow"
"-93.79","51.07","RED LAKE A","6016970","2021-11-17 21:00","2021","11","17","21:00","-3.1","","-5.1","","86","","","","32","","27","","16.1","","95.47","","","","-10","","Snow,Blowing Snow"
"-93.79","51.07","RED LAKE A","6016970","2021-11-17 22:00","2021","11","17","22:00"
"-93.79","51.07","RED LAKE A","6016970","2021-11-17 23:00","2021","11","17","23:00"
"-93.79","51.07","RED LAKE A","6016970","2021-11-18 00:00","2021","11","18","00:00"
"-93.79","51.07","RED LAKE A","6016970","2021-11-18 01:00","2021","11","18","01:00"
"-93.79","51.07","RED LAKE A","6016970","2021-11-18 02:00","2021","11","18","02:00"
"-93.79","51.07","RED LAKE A","6016970","2021-11-18 03:00","2021","11","18","03:00"
"-93.79","51.07","RED LAKE A","6016970","2021-11-18 04:00","2021","11","18","04:00","-5.7","","-8.0","","84","","","","33","","24","","24.1","","96.24","","","","-13","","Snow,Blowing Snow"
"-93.79","51.07","RED LAKE A","6016970","2021-11-18 05:00","2021","11","18","05:00","-5.5","","-7.4","","86","","","","31","","21","","19.3","","96.36","","","","-12","","Snow Showers,Blowing Snow"
"-93.79","51.07","RED LAKE A","6016970","2021-11-18 06:00","2021","11","18","06:00","-5.0","","-6.7","","88","","","","31","","19","","4.8","","96.46","","","","-11","","Snow Showers,Blowing Snow"
"-93.79","51.07","RED LAKE A","6016970","2021-11-18 07:00","2021","11","18","07:00","-4.7","","-6.7","","86","","","","31","","26","","16.1","","96.57","","","","-12","","Snow Showers,Blowing Snow"
"-93.79","51.07","RED LAKE A","6016970","2021-11-18 08:00","2021","11","18","08:00","-5.1","","-7.1","","86","","","","32","","30","","19.3","","96.70","","","","-13","","Snow,Blowing Snow"
"-93.79","51.07","RED LAKE A","6016970","2021-11-18 09:00","2021","11","18","09:00","-5.2","","-7.2","","86","","","","32","","24","","24.1","","96.81","","","","-12","","Snow Grains,Blowing Snow"
"-93.79","51.07","RED LAKE A","6016970","2021-11-18 10:00","2021","11","18","10:00","-5.0","","-7.1","","85","","","","32","","21","","24.1","","96.92","","","","-12","","Freezing Drizzle,Blowing Snow"
"-93.79","51.07","RED LAKE A","6016970","2021-11-18 11:00","2021","11","18","11:00","-5.0","","-7.9","","80","","","","33","","30","","24.1","","97.01","","","","-13","","Snow Grains,Blowing Snow"
"-93.79","51.07","RED LAKE A","6016970","2021-11-18 12:00","2021","11","18","12:00","-5.3","","-7.2","","87","","","","31","","27","","24.1","","97.10","","","","-13","","Freezing Drizzle,Snow Grains,Blowing Snow"
"-93.79","51.07","RED LAKE A","6016970","2021-11-18 13:00","2021","11","18","13:00","-5.1","","-7.9","","80","","","","33","","24","","24.1","","97.16","","","","-12","","Snow,Blowing Snow"
"-93.79","51.07","RED LAKE A","6016970","2021-11-18 14:00","2021","11","18","14:00","-5.0","","-7.5","","83","","","","31","","21","","24.1","","97.24","","","","-12","","Snow"
"-93.79","51.07","RED LAKE A","6016970","2021-11-18 15:00","2021","11","18","15:00","-5.1","","-7.8","","81","","","","32","","21","","24.1","","97.32","","","","-12","","Mostly Cloudy"
"-93.79","51.07","RED LAKE A","6016970","2021-11-18 16:00","2021","11","18","16:00","-5.0","","-7.2","","85","","","","34","","17","","24.1","","97.45","","","","-11","","Snow"
"-93.79","51.07","RED LAKE A","6016970","2021-11-18 17:00","2021","11","18","17:00","-5.3","","-8.1","","81","","","","33","","18","","24.1","","97.53","","","","-12","","Snow"
"-93.79","51.07","RED LAKE A","6016970","2021-11-18 18:00","2021","11","18","18:00","-5.3","","-7.6","","84","","","","31","","17","","24.1","","97.59","","","","-11","","Mostly Cloudy"
"-93.79","51.07","RED LAKE A","6016970","2021-11-18 19:00","2021","11","18","19:00","-5.6","","-7.8","","85","","","","33","","13","","24.1","","97.61","","","","-11","","NA"
"-93.79","51.07","RED LAKE A","6016970","2021-11-18 20:00","2021","11","18","20:00","-5.9","","-8.1","","84","","","","32","","13","","24.1","","97.64","","","","-11","","NA"
"-93.79","51.07","RED LAKE A","6016970","2021-11-18 21:00","2021","11","18","21:00","-6.1","","-7.7","","89","","","","25","","7","","24.1","","97.60","","","","-9","","Mostly Cloudy"
"-93.79","51.07","RED LAKE A","6016970","2021-11-18 22:00","2021","11","18","22:00"
"-93.79","51.07","RED LAKE A","6016970","2021-11-18 23:00","2021","11","18","23:00"
"-93.79","51.07","RED LAKE A","6016970","2021-11-19 00:00","2021","11","19","00:00"
"-93.79","51.07","RED LAKE A","6016970","2021-11-19 01:00","2021","11","19","01:00"
"-93.79","51.07","RED LAKE A","6016970","2021-11-19 02:00","2021","11","19","02:00"
"-93.79","51.07","RED LAKE A","6016970","2021-11-19 03:00","2021","11","19","03:00"
"-93.79","51.07","RED LAKE A","6016970","2021-11-19 04:00","2021","11","19","04:00","-7.4","","-7.8","","97","","","","18","","15","","9.7","","97.56","","","","-14","","Fog"
"-93.79","51.07","RED LAKE A","6016970","2021-11-19 05:00","2021","11","19","05:00","-7.4","","-8.2","","95","","","","15","","10","","19.3","","97.52","","","","-12","","NA"
"-93.79","51.07","RED LAKE A","6016970","2021-11-19 06:00","2021","11","19","06:00","-7.0","","-7.8","","94","","","","14","","10","","24.1","","97.43","","","","-12","","Cloudy"
"-93.79","51.07","RED LAKE A","6016970","2021-11-19 07:00","2021","11","19","07:00","-6.5","","-7.3","","94","","","","15","","11","","24.1","","97.32","","","","-11","","NA"
"-93.79","51.07","RED LAKE A","6016970","2021-11-19 08:00","2021","11","19","08:00","-6.0","","-7.1","","92","","","","15","","12","","4.0","","97.26","","","","-11","","Snow Showers"
"-93.79","51.07","RED LAKE A","6016970","2021-11-19 09:00","2021","11","19","09:00","-5.5","","-6.8","","90","","","","17","","15","","24.1","","97.25","","","","-11","","Cloudy"
"-93.79","51.07","RED LAKE A","6016970","2021-11-19 10:00","2021","11","19","10:00","-4.9","","-6.7","","88","","","","17","","21","","24.1","","97.16","","","","-12","","NA"
"-93.79","51.07","RED LAKE A","6016970","2021-11-19 11:00","2021","11","19","11:00","-4.7","","-6.8","","86","","","","16","","18","","24.1","","97.05","","","","-11","","NA"
"-93.79","51.07","RED LAKE A","6016970","2021-11-19 12:00","2021","11","19","12:00","-4.3","","-7.2","","80","","","","15","","24","","24.1","","96.89","","","","-11","","Cloudy"
"-93.79","51.07","RED LAKE A","6016970","2021-11-19 13:00","2021","11","19","13:00","-3.6","","-7.2","","76","","","","14","","22","","24.1","","96.73","","","","-10","","NA"
"-93.79","51.07","RED LAKE A","6016970","2021-11-19 14:00","2021","11","19","14:00","-3.2","","-6.4","","78","","","","16","","13","","24.1","","96.62","","","","-8","","NA"
"-93.79","51.07","RED LAKE A","6016970","2021-11-19 15:00","2021","11","19","15:00","-3.2","","-6.5","","78","","","","14","","17","","24.1","","96.56","","","","-9","","Mostly Cloudy"
"-93.79","51.07","RED LAKE A","6016970","2021-11-19 16:00","2021","11","19","16:00","-3.5","","-6.7","","79","","","","15","","16","","24.1","","96.52","","","","-9","","NA"
"-93.79","51.07","RED LAKE A","6016970","2021-11-19 17:00","2021","11","19","17:00","-4.2","","-6.6","","83","","","","15","","16","","24.1","","96.49","","","","-10","","NA"
"-93.79","51.07","RED LAKE A","6016970","2021-11-19 18:00","2021","11","19","18:00","-4.5","","-6.7","","85","","","","14","","17","","24.1","","96.44","","","","-10","","Clear"
"-93.79","51.07","RED LAKE A","6016970","2021-11-19 19:00","2021","11","19","19:00","-4.8","","-6.8","","86","","","","14","","16","","24.1","","96.40","","","","-11","","NA"
"-93.79","51.07","RED LAKE A","6016970","2021-11-19 20:00","2021","11","19","20:00","-4.5","","-6.3","","88","","","","15","","16","","24.1","","96.35","","","","-10","","NA"
"-93.79","51.07","RED LAKE A","6016970","2021-11-19 21:00","2021","11","19","21:00","-4.2","","-5.9","","88","","","","15","","18","","24.1","","96.29","","","","-10","","Mostly Cloudy"
"-93.79","51.07","RED LAKE A","6016970","2021-11-19 22:00","2021","11","19","22:00"
"-93.79","51.07","RED LAKE A","6016970","2021-11-19 23:00","2021","11","19","23:00"
"-93.79","51.07","RED LAKE A","6016970","2021-11-20 00:00","2021","11","20","00:00"
"-93.79","51.07","RED LAKE A","6016970","2021-11-20 01:00","2021","11","20","01:00"
"-93.79","51.07","RED LAKE A","6016970","2021-11-20 02:00","2021","11","20","02:00"
"-93.79","51.07","RED LAKE A","6016970","2021-11-20 03:00","2021","11","20","03:00"
"-93.79","51.07","RED LAKE A","6016970","2021-11-20 04:00","2021","11","20","04:00","-3.5","","-5.6","","86","","","","28","","17","","24.1","","96.34","","","","-9","","NA"
"-93.79","51.07","RED LAKE A","6016970","2021-11-20 05:00","2021","11","20","05:00","-4.1","","-6.3","","85","","","","32","","20","","24.1","","96.42","","","","-10","","NA"
"-93.79","51.07","RED LAKE A","6016970","2021-11-20 06:00","2021","11","20","06:00","-3.8","","-5.9","","85","","","","29","","11","","24.1","","96.44","","","","-8","","Cloudy"
"-93.79","51.07","RED LAKE A","6016970","2021-11-20 07:00","2021","11","20","07:00","-4.1","","-6.1","","86","","","","27","","13","","24.1","","96.49","","","","-9","","NA"
"-93.79","51.07","RED LAKE A","6016970","2021-11-20 08:00","2021","11","20","08:00","-4.6","","-6.2","","89","","","","26","","20","","24.1","","96.58","","","","-11","","NA"
"-93.79","51.07","RED LAKE A","6016970","2021-11-20 09:00","2021","11","20","09:00","-3.8","","-5.5","","88","","","","24","","21","","24.1","","96.62","","","","-10","","Mainly Clear"
"-93.79","51.07","RED LAKE A","6016970","2021-11-20 10:00","2021","11","20","10:00","-3.6","","-5.7","","85","","","","24","","25","","24.1","","96.67","","","","-11","","NA"
"-93.79","51.07","RED LAKE A","6016970","2021-11-20 11:00","2021","11","20","11:00","-2.7","","-5.2","","83","","","","26","","19","","24.1","","96.70","","","","-8","","NA"
"-93.79","51.07","RED LAKE A","6016970","2021-11-20 12:00","2021","11","20","12:00","-2.2","","-5.1","","81","","","","25","","25","","24.1","","96.68","","","","-9","","Mainly Clear"
"-93.79","51.07","RED LAKE A","6016970","2021-11-20 13:00","2021","11","20","13:00","-1.1","","-4.8","","76","","","","27","","20","","24.1","","96.70","","","","-7","","NA"
"-93.79","51.07","RED LAKE A","6016970","2021-11-20 14:00","2021","11","20","14:00","-0.8","","-4.8","","74","","","","27","","18","","24.1","","96.69","","","","-6","","NA"
"-93.79","51.07","RED LAKE A","6016970","2021-11-20 15:00","2021","11","20","15:00","-1.1","","-4.8","","76","","","","26","","23","","24.1","","96.72","","","","-7","","Mostly Cloudy"
"-93.79","51.07","RED LAKE A","6016970","2021-11-20 16:00","2021","11","20","16:00","-1.4","","-4.3","","80","","","","26","","17","","24.1","","96.76","","","","-7","","NA"
"-93.79","51.07","RED LAKE A","6016970","2021-11-20 17:00","2021","11","20","17:00","-1.4","","-4.3","","80","","","","24","","25","","24.1","","96.77","","","","-8","","NA"
"-93.79","51.07","RED LAKE A","6016970","2021-11-20 18:00","2021","11","20","18:00","-1.6","","-4.1","","83","","","","23","","16","","24.1","","96.75","","","","-7","","Mostly Cloudy"
"-93.79","51.07","RED LAKE A","6016970","2021-11-20 19:00","2021","11","20","19:00","-2.0","","-4.4","","84","","","","23","","14","","24.1","","96.71","","","","-7","","NA"
"-93.79","51.07","RED LAKE A","6016970","2021-11-20 20:00","2021","11","20","20:00","-2.0","","-4.6","","82","","","","22","","13","","24.1","","96.59","","","","-6","","NA"
"-93.79","51.07","RED LAKE A","6016970","2021-11-20 21:00","2021","11","20","21:00","-2.1","","-4.6","","83","","","","21","","16","","24.1","","96.46","","","","-7","","Cloudy"
"-93.79","51.07","RED LAKE A","6016970","2021-11-20 22:00","2021","11","20","22:00"
"-93.79","51.07","RED LAKE A","6016970","2021-11-20 23:00","2021","11","20","23:00"
"-93.79","51.07","RED LAKE A","6016970","2021-11-21 00:00","2021","11","21","00:00"
"-93.79","51.07","RED LAKE A","6016970","2021-11-21 01:00","2021","11","21","01:00"
"-93.79","51.07","RED LAKE A","6016970","2021-11-21 02:00","2021","11","21","02:00"
"-93.79","51.07","RED LAKE A","6016970","2021-11-21 03:00","2021","11","21","03:00"
"-93.79","51.07","RED LAKE A","6016970","2021-11-21 04:00","2021","11","21","04:00","-5.8","","-9.0","","79","","","","31","","34","","9.7","","96.20","","","","-15","","Snow,Blowing Snow"
"-93.79","51.07","RED LAKE A","6016970","2021-11-21 05:00","2021","11","21","05:00","-7.4","","-10.7","","77","","","","32","","27","","9.7","","96.33","","","","-16","","Snow,Blowing Snow"
"-93.79","51.07","RED LAKE A","6016970","2021-11-21 06:00","2021","11","21","06:00","-8.0","","-11.5","","76","","","","30","","26","","16.1","","96.42","","","","-16","","Snow,Blowing Snow"
"-93.79","51.07","RED LAKE A","6016970","2021-11-21 07:00","2021","11","21","07:00","-8.6","","-11.8","","78","","","","31","","25","","16.1","","96.53","","","","-17","","Snow,Blowing Snow"
"-93.79","51.07","RED LAKE A","6016970","2021-11-21 08:00","2021","11","21","08:00","-9.8","","-13.2","","76","","","","29","","19","","19.3","","96.62","","","","-17","","Snow,Blowing Snow"
"-93.79","51.07","RED LAKE A","6016970","2021-11-21 09:00","2021","11","21","09:00","-10.7","","-16.2","","64","","","","30","","40","","19.3","","96.68","","","","-22","","Blowing Snow"
"-93.79","51.07","RED LAKE A","6016970","2021-11-21 10:00","2021","11","21","10:00","-11.3","","-15.7","","70","","","","32","","26","","19.3","","96.75","","","","-21","","Blowing Snow"
"-93.79","51.07","RED LAKE A","6016970","2021-11-21 11:00","2021","11","21","11:00","-11.2","","-15.0","","74","","","","30","","26","","2.8","","96.80","","","","-20","","Snow,Blowing Snow"
"-93.79","51.07","RED LAKE A","6016970","2021-11-21 12:00","2021","11","21","12:00","-10.8","","-15.3","","70","","","","31","","24","","6.4","","96.80","","","","-20","","Snow,Blowing Snow"
"-93.79","51.07","RED LAKE A","6016970","2021-11-21 13:00","2021","11","21","13:00","-10.6","","-14.4","","74","","","","32","","27","","3.2","","96.78","","","","-20","","Snow,Blowing Snow"
"-93.79","51.07","RED LAKE A","6016970","2021-11-21 14:00","2021","11","21","14:00","-9.7","","-12.2","","82","","","","32","","18","","2.4","","96.75","","","","-17","","Snow Showers,Blowing Snow"
"-93.79","51.07","RED LAKE A","6016970","2021-11-21 15:00","2021","11","21","15:00","-8.3","","-10.8","","82","","","","30","","32","","2.0","","96.79","","","","-18","","Snow Showers,Blowing Snow,Blowing Sand"
"-93.79","51.07","RED LAKE A","6016970","2021-11-21 16:00","2021","11","21","16:00","-8.2","","-11.8","","76","","","","29","","27","","6.4","","96.88","","","","-17","","Snow Showers,Blowing Snow"
"-93.79","51.07","RED LAKE A","6016970","2021-11-21 17:00","2021","11","21","17:00","-9.3","","-12.8","","75","","","","30","","21","","24.1","","96.96","","","","-17","","Blowing Snow"
"-93.79","51.07","RED LAKE A","6016970","2021-11-21 18:00","2021","11","21","18:00","-9.8","","-13.3","","76","","","","29","","27","","24.1","","97.03","","","","-19","","Blowing Snow"
"-93.79","51.07","RED LAKE A","6016970","2021-11-21 19:00","2021","11","21","19:00","-10.1","","-13.5","","77","","","","29","","23","","24.1","","97.06","","","","-19","","Snow,Blowing Snow"
"-93.79","51.07","RED LAKE A","6016970","2021-11-21 20:00","2021","11","21","20:00","-10.3","","-13.5","","78","","","","29","","22","","24.1","","97.06","","","","-19","","Snow,Blowing Snow"
"-93.79","51.07","RED LAKE A","6016970","2021-11-21 21:00","2021","11","21","21:00","-10.7","","-13.8","","78","","","","31","","28","","24.1","","97.08","","","","-20","","Blowing Snow"
"-93.79","51.07","RED LAKE A","6016970","2021-11-21 22:00","2021","11","21","22:00"
"-93.79","51.07","RED LAKE A","6016970","2021-11-21 23:00","2021","11","21","23:00"
"-93.79","51.07","RED LAKE A","6016970","2021-11-22 00:00","2021","11","22","00:00"
"-93.79","51.07","RED LAKE A","6016970","2021-11-22 01:00","2021","11","22","01:00"
"-93.79","51.07","RED LAKE A","6016970","2021-11-22 02:00","2021","11","22","02:00"
"-93.79","51.07","RED LAKE A","6016970","2021-11-22 03:00","2021","11","22","03:00"
"-93.79","51.07","RED LAKE A","6016970","2021-11-22 04:00","2021","11","22","04:00","-12.0","","-14.1","","85","","","","31","","21","","19.3","","97.14","","","","-21","","Snow"
"-93.79","51.07","RED LAKE A","6016970","2021-11-22 05:00","2021","11","22","05:00","-12.3","","-14.1","","87","","","","33","","15","","16.1","","97.16","","","","-20","","Snow"
"-93.79","51.07","RED LAKE A","6016970","2021-11-22 06:00","2021","11","22","06:00","-12.2","","-13.9","","87","","","","34","","16","","16.1","","97.17","","","","-20","","Snow"
"-93.79","51.07","RED LAKE A","6016970","2021-11-22 07:00","2021","11","22","07:00","-12.1","","-13.2","","91","","","","33","","17","","19.3","","97.19","","","","-20","","Snow"
"-93.79","51.07","RED LAKE A","6016970","2021-11-22 08:00","2021","11","22","08:00","-11.6","","-13.2","","88","","","","31","","14","","2.4","","97.19","","","","-18","","Snow Showers"
"-93.79","51.07","RED LAKE A","6016970","2021-11-22 09:00","2021","11","22","09:00","-11.4","","-13.8","","83","","","","32","","15","","16.1","","97.19","","","","-18","","Snow"
"-93.79","51.07","RED LAKE A","6016970","2021-11-22 10:00","2021","11","22","10:00","-11.1","","-13.6","","82","","","","32","","14","","4.8","","97.22","","","","-18","","Snow Showers"
"-93.79","51.07","RED LAKE A","6016970","2021-11-22 11:00","2021","11","22","11:00","-10.8","","-14.6","","74","","","","31","","19","","19.3","","97.23","","","","-19","","Snow Showers"
"-93.79","51.07","RED LAKE A","6016970","2021-11-22 12:00","2021","11","22","12:00","-10.5","","-14.4","","73","","","","29","","14","","24.1","","97.21","","","","-17","","Snow"
"-93.79","51.07","RED LAKE A","6016970","2021-11-22 13:00","2021","11","22","13:00","-9.8","","-13.9","","72","","","","30","","13","","19.3","","97.17","","","","-16","","Snow Showers"
"-93.79","51.07","RED LAKE A","6016970","2021-11-22 14:00","2021","11","22","14:00","-10.2","","-14.5","","71","","","","31","","10","","24.1","","97.20","","","","-15","","NA"
"-93.79","51.07","RED LAKE A","6016970","2021-11-22 15:00","2021","11","22","15:00","-9.9","","-13.9","","73","","","","30","","11","","24.1","","97.19","","","","-15","","Snow Showers"
"-93.79","51.07","RED LAKE A","6016970","2021-11-22 16:00","2021","11","22","16:00","-10.5","","-14.1","","75","","","","31","","9","","24.1","","97.24","","","","-15","","Snow"
"-93.79","51.07","RED LAKE A","6016970","2021-11-22 17:00","2021","11","22","17:00","-11.3","","-13.8","","82","","","","32","","7","","24.1","","97.21","","","","-16","","Snow"
"-93.79","51.07","RED LAKE A","6016970","2021-11-22 18:00","2021","11","22","18:00","-11.1","","-13.8","","80","","","","31","","8","","24.1","","97.18","","","","-16","","Snow"
"-93.79","51.07","RED LAKE A","6016970","2021-11-22 19:00","2021","11","22","19:00","-13.1","","-14.8","","87","","","","11","","8","","24.1","","97.13","","","","-18","","Snow"
"-93.79","51.07","RED LAKE A","6016970","2021-11-22 20:00","2021","11","22","20:00","-13.5","","-15.2","","87","","","","11","","7","","24.1","","97.01","","","","-18","","Snow"
"-93.79","51.07","RED LAKE A","6016970","2021-11-22 21:00","2021","11","22","21:00","-15.7","","-16.8","","91","","","","11","","10","","24.1","","97.01","","","","-22","","Clear"
"-93.79","51.07","RED LAKE A","6016970","2021-11-22 22:00","2021","11","22","22:00"
"-93.79","51.07","RED LAKE A","6016970","2021-11-22 23:00","2021","11","22","23:00"
"-93.79","51.07","RED LAKE A","6016970","2021-11-23 00:00","2021","11","23","00:00"
"-93.79","51.07","RED LAKE A","6016970","2021-11-23 01:00","2021","11","23","01:00"
"-93.79","51.07","RED LAKE A","6016970","2021-11-23 02:00","2021","11","23","02:00"
"-93.79","51.07","RED LAKE A","6016970","2021-11-23 03:00","2021","11","23","03:00"
"-93.79","51.07","RED LAKE A","6016970","2021-11-23 04:00","2021","11","23","04:00","-8.4","","-11.2","","81","","","","14","","16","","24.1","","96.29","","","","-15","","NA"
"-93.79","51.07","RED LAKE A","6016970","2021-11-23 05:00","2021","11","23","05:00","-7.9","","-10.8","","80","","","","17","","15","","24.1","","96.10","","","","-14","","NA"
"-93.79","51.07","RED LAKE A","6016970","2021-11-23 06:00","2021","11","23","06:00","-7.7","","-10.6","","80","","","","15","","17","","24.1","","95.93","","","","-14","","Mainly Clear"
"-93.79","51.07","RED LAKE A","6016970","2021-11-23 07:00","2021","11","23","07:00","-7.3","","-10.5","","78","","","","15","","17","","24.1","","95.78","","","","-14","","NA"
"-93.79","51.07","RED LAKE A","6016970","2021-11-23 08:00","2021","11","23","08:00","-6.8","","-9.9","","79","","","","15","","25","","24.1","","95.59","","","","-15","","NA"
"-93.79","51.07","RED LAKE A","6016970","2021-11-23 09:00","2021","11","23","09:00","-5.7","","-9.2","","76","","","","16","","19","","24.1","","95.43","","","","-12","","Clear"
"-93.79","51.07","RED LAKE A","6016970","2021-11-23 10:00","2021","11","23","10:00","-3.8","","-8.1","","73","","","","18","","22","","24.1","","95.31","","","","-10","","NA"
"-93.79","51.07","RED LAKE A","6016970","2021-11-23 11:00","2021","11","23","11:00","-2.4","","-7.0","","71","","","","20","","22","","24.1","","95.28","","","","-9","","NA"
"-93.79","51.07","RED LAKE A","6016970","2021-11-23 12:00","2021","11","23","12:00","-1.1","","-6.0","","69","","","","22","","21","","24.1","","95.20","","","","-7","","Clear"
"-93.79","51.07","RED LAKE A","6016970","2021-11-23 13:00","2021","11","23","13:00","0.0","","-5.2","","68","","","","22","","15","","24.1","","95.18","","","","-4","","NA"
"-93.79","51.07","RED LAKE A","6016970","2021-11-23 14:00","2021","11","23","14:00","1.2","","-4.5","","66","","","","24","","17","","24.1","","95.23","","","","","","NA"
"-93.79","51.07","RED LAKE A","6016970","2021-11-23 15:00","2021","11","23","15:00","0.8","","-4.3","","69","","","","25","","13","","24.1","","95.28","","","","","","Mostly Cloudy"
"-93.79","51.07","RED LAKE A","6016970","2021-11-23 16:00","2021","11","23","16:00","0.4","","-4.1","","72","","","","25","","12","","24.1","","95.32","","","","","","NA"
"-93.79","51.07","RED LAKE A","6016970","2021-11-23 17:00","2021","11","23","17:00","-1.3","","-4.4","","80","","","","23","","7","","24.1","","95.33","","","","-4","","NA"
"-93.79","51.07","RED LAKE A","6016970","2021-11-23 18:00","2021","11","23","18:00","-0.8","","-4.1","","78","","","","24","","13","","24.1","","95.39","","","","-5","","Mostly Cloudy"
"-93.79","51.07","RED LAKE A","6016970","2021-11-23 19:00","2021","11","23","19:00","-1.4","","-4.0","","83","","","","28","","8","","24.1","","95.45","","","","-4","","NA"
"-93.79","51.07","RED LAKE A","6016970","2021-11-23 20:00","2021","11","23","20:00","-1.9","","-4.4","","83","","","","26","","12","","24.1","","95.53","","","","-6","","NA"
"-93.79","51.07","RED LAKE A","6016970","2021-11-23 21:00","2021","11","23","21:00","-2.2","","-4.5","","85","","","","31","","11","","24.1","","95.58","","","","-6","","Mainly Clear"
"-93.79","51.07","RED LAKE A","6016970","2021-11-23 22:00","2021","11","23","22:00"
"-93.79","51.07","RED LAKE A","6016970","2021-11-23 23:00","2021","11","23","23:00"
"-93.79","51.07","RED LAKE A","6016970","2021-11-24 00:00","2021","11","24","00:00"
"-93.79","51.07","RED LAKE A","6016970","2021-11-24 01:00","2021","11","24","01:00"
"-93.79","51.07","RED LAKE A","6016970","2021-11-24 02:00","2021","11","24","02:00"
"-93.79","51.07","RED LAKE A","6016970","2021-11-24 03:00","2021","11","24","03:00"
"-93.79","51.07","RED LAKE A","6016970","2021-11-24 04:00","2021","11","24","04:00","-4.3","","-6.5","","85","","","","34","","17","","24.1","","96.21","","","","-10","","NA"
"-93.79","51.07","RED LAKE A","6016970","2021-11-24 05:00","2021","11","24","05:00","-5.6","","-6.7","","92","","","","35","","19","","24.1","","96.30","","","","-12","","Freezing Drizzle"
"-93.79","51.07","RED LAKE A","6016970","2021-11-24 06:00","2021","11","24","06:00","-8.3","","-9.3","","92","","","","1","","24","","9.7","","96.43","","","","-16","","Freezing Drizzle,Snow"
"-93.79","51.07","RED LAKE A","6016970","2021-11-24 07:00","2021","11","24","07:00","-10.8","","-13.2","","83","","","","36","","25","","24.1","","96.63","","","","-20","","Snow"
"-93.79","51.07","RED LAKE A","6016970","2021-11-24 08:00","2021","11","24","08:00","-12.4","","-14.9","","81","","","","2","","24","","24.1","","96.78","","","","-22","","Snow"
"-93.79","51.07","RED LAKE A","6016970","2021-11-24 09:00","2021","11","24","09:00","-13.2","","-16.0","","80","","","","1","","19","","24.1","","96.93","","","","-22","","Snow"
"-93.79","51.07","RED LAKE A","6016970","2021-11-24 10:00","2021","11","24","10:00","-13.3","","-16.6","","77","","","","1","","18","","16.1","","97.09","","","","-22","","Snow"
"-93.79","51.07","RED LAKE A","6016970","2021-11-24 11:00","2021","11","24","11:00","-13.4","","-17.1","","74","","","","2","","14","","24.1","","97.18","","","","-21","","Snow"
"-93.79","51.07","RED LAKE A","6016970","2021-11-24 12:00","2021","11","24","12:00","-13.6","","-18.5","","67","","","","35","","14","","24.1","","97.20","","","","-21","","Mainly Clear"
"-93.79","51.07","RED LAKE A","6016970","2021-11-24 13:00","2021","11","24","13:00","-12.5","","-20.0","","54","","","","35","","14","","24.1","","97.25","","","","-20","","NA"
"-93.79","51.07","RED LAKE A","6016970","2021-11-24 14:00","2021","11","24","14:00","-12.0","","-20.6","","50","","","","34","","16","","24.1","","97.37","","","","-19","","NA"
"-93.79","51.07","RED LAKE A","6016970","2021-11-24 15:00","2021","11","24","15:00","-11.6","","-20.3","","49","","","","36","","16","","24.1","","97.46","","","","-19","","Mainly Clear"
"-93.79","51.07","RED LAKE A","6016970","2021-11-24 16:00","2021","11","24","16:00","-12.2","","-20.4","","51","","","","32","","12","","24.1","","97.58","","","","-19","","NA"
"-93.79","51.07","RED LAKE A","6016970","2021-11-24 17:00","2021","11","24","17:00","-13.1","","-20.2","","56","","","","32","","19","","24.1","","97.73","","","","-22","","NA"
"-93.79","51.07","RED LAKE A","6016970","2021-11-24 18:00","2021","11","24","18:00","-13.5","","-20.0","","58","","","","32","","17","","24.1","","97.80","","","","-22","","Clear"
"-93.79","51.07","RED LAKE A","6016970","2021-11-24 19:00","2021","11","24","19:00","-13.9","","-20.4","","59","","","","32","","13","","24.1","","97.87","","","","-21","","NA"
"-93.79","51.07","RED LAKE A","6016970","2021-11-24 20:00","2021","11","24","20:00","-14.1","","-20.3","","60","","","","32","","18","","24.1","","97.90","","","","-23","","NA"
"-93.79","51.07","RED LAKE A","6016970","2021-11-24 21:00","2021","11","24","21:00","-14.2","","-20.5","","60","","","","32","","18","","24.1","","97.96","","","","-23","","Clear"
"-93.79","51.07","RED LAKE A","6016970","2021-11-24 22:00","2021","11","24","22:00"
"-93.79","51.07","RED LAKE A","6016970","2021-11-24 23:00","2021","11","24","23:00"
"-93.79","51.07","RED LAKE A","6016970","2021-11-25 00:00","2021","11","25","00:00"
"-93.79","51.07","RED LAKE A","6016970","2021-11-25 01:00","2021","11","25","01:00"
"-93.79","51.07","RED LAKE A","6016970","2021-11-25 02:00","2021","11","25","02:00"
"-93.79","51.07","RED LAKE A","6016970","2021-11-25 03:00","2021","11","25","03:00"
"-93.79","51.07","RED LAKE A","6016970","2021-11-25 04:00","2021","11","25","04:00","-13.9","","-16.5","","81","","","","30","","15","","24.1","","98.11","","","","-22","","NA"
"-93.79","51.07","RED LAKE A","6016970","2021-11-25 05:00","2021","11","25","05:00","-13.8","","-16.7","","79","","","","32","","13","","24.1","","98.11","","","","-21","","NA"
"-93.79","51.07","RED LAKE A","6016970","2021-11-25 06:00","2021","11","25","06:00","-13.8","","-16.9","","78","","","","33","","18","","24.1","","98.11","","","","-22","","Snow"
"-93.79","51.07","RED LAKE A","6016970","2021-11-25 07:00","2021","11","25","07:00","-14.0","","-17.5","","75","","","","33","","13","","24.1","","98.10","","","","-21","","Snow"
"-93.79","51.07","RED LAKE A","6016970","2021-11-25 08:00","2021","11","25","08:00","-13.6","","-17.0","","76","","","","31","","10","","24.1","","98.11","","","","-20","","NA"
"-93.79","51.07","RED LAKE A","6016970","2021-11-25 09:00","2021","11","25","09:00","-13.6","","-17.2","","74","","","","26","","13","","24.1","","98.14","","","","-21","","Mostly Cloudy"
"-93.79","51.07","RED LAKE A","6016970","2021-11-25 10:00","2021","11","25","10:00","-13.1","","-16.8","","74","","","","32","","10","","24.1","","98.14","","","","-19","","Snow"
"-93.79","51.07","RED LAKE A","6016970","2021-11-25 11:00","2021","11","25","11:00","-13.3","","-17.0","","74","","","","30","","9","","24.1","","98.09","","","","-19","","Snow"
"-93.79","51.07","RED LAKE A","6016970","2021-11-25 12:00","2021","11","25","12:00","-13.0","","-17.1","","72","","","","27","","4","","24.1","","98.00","","","","-16","","Mostly Cloudy"
"-93.79","51.07","RED LAKE A","6016970","2021-11-25 13:00","2021","11","25","13:00","-11.8","","-16.6","","68","","","","29","","4","","24.1","","97.98","","","","-14","","NA"
"-93.79","51.07","RED LAKE A","6016970","2021-11-25 14:00","2021","11","25","14:00","-11.2","","-16.0","","68","","","","27","","6","","24.1","","97.90","","","","-15","","NA"
"-93.79","51.07","RED LAKE A","6016970","2021-11-25 15:00","2021","11","25","15:00","-10.8","","-16.7","","62","","","","23","","10","","24.1","","97.88","","","","-16","","Clear"
"-93.79","51.07","RED LAKE A","6016970","2021-11-25 16:00","2021","11","25","16:00","-11.2","","-16.6","","65","","","","26","","7","","24.1","","97.85","","","","-15","","NA"
"-93.79","51.07","RED LAKE A","6016970","2021-11-25 17:00","2021","11","25","17:00","-11.7","","-16.9","","66","","","","18","","11","","24.1","","97.80","","","","-18","","NA"
"-93.79","51.07","RED LAKE A","6016970","2021-11-25 18:00","2021","11","25","18:00","-11.7","","-16.3","","69","","","","19","","11","","24.1","","97.74","","","","-18","","Mostly Cloudy"
"-93.79","51.07","RED LAKE A","6016970","2021-11-25 19:00","2021","11","25","19:00","-12.9","","-16.4","","75","","","","17","","9","","24.1","","97.66","","","","-18","","NA"
"-93.79","51.07","RED LAKE A","6016970","2021-11-25 20:00","2021","11","25","20:00","-13.5","","-16.3","","79","","","","18","","9","","24.1","","97.61","","","","-19","","NA"
"-93.79","51.07","RED LAKE A","6016970","2021-11-25 21:00","2021","11","25","21:00","-13.9","","-16.5","","81","","","","15","","9","","24.1","","97.58","","","","-20","","Mainly Clear"
"-93.79","51.07","RED LAKE A","6016970","2021-11-25 22:00","2021","11","25","22:00"
"-93.79","51.07","RED LAKE A","6016970","2021-11-25 23:00","2021","11","25","23:00"
"-93.79","51.07","RED LAKE A","6016970","2021-11-26 00:00","2021","11","26","00:00"
"-93.79","51.07","RED LAKE A","6016970","2021-11-26 01:00","2021","11","26","01:00"
"-93.79","51.07","RED LAKE A","6016970","2021-11-26 02:00","2021","11","26","02:00"
"-93.79","51.07","RED LAKE A","6016970","2021-11-26 03:00","2021","11","26","03:00"
"-93.79","51.07","RED LAKE A","6016970","2021-11-26 04:00","2021","11","26","04:00","-10.8","","-16.2","","65","","","","14","","16","","16.1","","97.02","","","","-18","","Snow"
"-93.79","51.07","RED LAKE A","6016970","2021-11-26 05:00","2021","11","26","05:00","-10.6","","-14.8","","71","","","","16","","13","","16.1","","97.00","","","","-17","","Snow"
"-93.79","51.07","RED LAKE A","6016970","2021-11-26 06:00","2021","11","26","06:00","-10.6","","-13.1","","82","","","","14","","19","","4.8","","96.88","","","","-18","","Snow"
"-93.79","51.07","RED LAKE A","6016970","2021-11-26 07:00","2021","11","26","07:00","-10.5","","-12.5","","85","","","","13","","20","","3.2","","96.81","","","","-18","","Snow"
"-93.79","51.07","RED LAKE A","6016970","2021-11-26 08:00","2021","11","26","08:00","-10.4","","-12.4","","85","","","","14","","21","","16.1","","96.72","","","","-19","","Snow"
"-93.79","51.07","RED LAKE A","6016970","2021-11-26 09:00","2021","11","26","09:00","-9.7","","-12.7","","79","","","","14","","21","","24.1","","96.61","","","","-18","","Mostly Cloudy"
"-93.79","51.07","RED LAKE A","6016970","2021-11-26 10:00","2021","11","26","10:00","-8.9","","-12.5","","76","","","","14","","11","","24.1","","96.58","","","","-14","","NA"
"-93.79","51.07","RED LAKE A","6016970","2021-11-26 11:00","2021","11","26","11:00","-8.0","","-12.8","","69","","","","14","","12","","24.1","","96.54","","","","-13","","NA"
"-93.79","51.07","RED LAKE A","6016970","2021-11-26 12:00","2021","11","26","12:00","-7.2","","-12.9","","64","","","","15","","17","","24.1","","96.46","","","","-14","","Mostly Cloudy"
"-93.79","51.07","RED LAKE A","6016970","2021-11-26 13:00","2021","11","26","13:00","-6.3","","-12.9","","60","","","","14","","16","","24.1","","96.40","","","","-12","","NA"
"-93.79","51.07","RED LAKE A","6016970","2021-11-26 14:00","2021","11","26","14:00","-5.8","","-12.1","","62","","","","14","","12","","24.1","","96.30","","","","-11","","NA"
"-93.79","51.07","RED LAKE A","6016970","2021-11-26 15:00","2021","11","26","15:00","-5.9","","-12.3","","61","","","","13","","11","","24.1","","96.33","","","","-11","","Mostly Cloudy"
"-93.79","51.07","RED LAKE A","6016970","2021-11-26 16:00","2021","11","26","16:00","-6.1","","-12.0","","63","","","","14","","13","","24.1","","96.31","","","","-11","","NA"
"-93.79","51.07","RED LAKE A","6016970","2021-11-26 17:00","2021","11","26","17:00","-6.0","","-11.7","","65","","","","14","","10","","24.1","","96.32","","","","-10","","NA"
"-93.79","51.07","RED LAKE A","6016970","2021-11-26 18:00","2021","11","26","18:00","-6.4","","-11.9","","65","","","","16","","10","","24.1","","96.29","","","","-11","","Mostly Cloudy"
"-93.79","51.07","RED LAKE A","6016970","2021-11-26 19:00","2021","11","26","19:00","-6.3","","-11.8","","65","","","","14","","12","","24.1","","96.28","","","","-11","","NA"
"-93.79","51.07","RED LAKE A","6016970","2021-11-26 20:00","2021","11","26","20:00","-6.2","","-11.7","","65","","","","16","","12","","24.1","","96.29","","","","-11","","NA"
"-93.79","51.07","RED LAKE A","6016970","2021-11-26 21:00","2021","11","26","21:00","-6.2","","-11.4","","67","","","","14","","10","","24.1","","96.28","","","","-11","","Cloudy"
"-93.79","51.07","RED LAKE A","6016970","2021-11-26 22:00","2021","11","26","22:00"
"-93.79","51.07","RED LAKE A","6016970","2021-11-26 23:00","2021","11","26","23:00"
"-93.79","51.07","RED LAKE A","6016970","2021-11-27 00:00","2021","11","27","00:00"
"-93.79","51.07","RED LAKE A","6016970","2021-11-27 01:00","2021","11","27","01:00"
"-93.79","51.07","RED LAKE A","6016970","2021-11-27 02:00","2021","11","27","02:00"
"-93.79","51.07","RED LAKE A","6016970","2021-11-27 03:00","2021","11","27","03:00"
"-93.79","51.07","RED LAKE A","6016970","2021-11-27 04:00","2021","11","27","04:00","-6.2","","-7.2","","93","","","","17","","9","","3.6","","96.21","","","","-10","","Snow"
"-93.79","51.07","RED LAKE A","6016970","2021-11-27 05:00","2021","11","27","05:00","-5.8","","-6.8","","93","","","","19","","7","","16.1","","96.23","","","","-9","","Snow"
"-93.79","51.07","RED LAKE A","6016970","2021-11-27 06:00","2021","11","27","06:00","-5.5","","-6.7","","91","","","","18","","8","","24.1","","96.24","","","","-9","","Cloudy"
"-93.79","51.07","RED LAKE A","6016970","2021-11-27 07:00","2021","11","27","07:00","-5.3","","-6.4","","92","","","","21","","7","","24.1","","96.22","","","","-9","","NA"
"-93.79","51.07","RED LAKE A","6016970","2021-11-27 08:00","2021","11","27","08:00","-4.8","","-6.0","","91","","","","24","","14","","24.1","","96.24","","","","-10","","NA"
"-93.79","51.07","RED LAKE A","6016970","2021-11-27 09:00","2021","11","27","09:00","-4.0","","-5.3","","91","","","","24","","14","","24.1","","96.27","","","","-9","","Cloudy"
"-93.79","51.07","RED LAKE A","6016970","2021-11-27 10:00","2021","11","27","10:00","-3.5","","-5.4","","87","","","","25","","18","","24.1","","96.27","","","","-9","","NA"
"-93.79","51.07","RED LAKE A","6016970","2021-11-27 11:00","2021","11","27","11:00","-3.3","","-5.2","","87","","","","24","","15","","24.1","","96.25","","","","-8","","NA"
"-93.79","51.07","RED LAKE A","6016970","2021-11-27 12:00","2021","11","27","12:00","-2.6","","-4.6","","86","","","","26","","18","","24.1","","96.25","","","","-8","","Cloudy"
"-93.79","51.07","RED LAKE A","6016970","2021-11-27 13:00","2021","11","27","13:00","-2.5","","-4.4","","87","","","","28","","21","","24.1","","96.25","","","","-9","","NA"
"-93.79","51.07","RED LAKE A","6016970","2021-11-27 14:00","2021","11","27","14:00","-2.3","","-4.0","","88","","","","26","","18","","24.1","","96.25","","","","-8","","NA"
"-93.79","51.07","RED LAKE A","6016970","2021-11-27 15:00","2021","11","27","15:00","-2.3","","-4.0","","88","","","","30","","25","","24.1","","96.31","","","","-9","","Cloudy"
"-93.79","51.07","RED LAKE A","6016970","2021-11-27 16:00","2021","11","27","16:00","-1.8","","-4.0","","84","","","","27","","14","","24.1","","96.33","","","","-6","","NA"
"-93.79","51.07","RED LAKE A","6016970","2021-11-27 17:00","2021","11","27","17:00","-1.5","","-4.8","","78","","","","29","","22","","24.1","","96.37","","","","-7","","Snow"
"-93.79","51.07","RED LAKE A","6016970","2021-11-27 18:00","2021","11","27","18:00","-1.9","","-4.8","","81","","","","28","","21","","19.3","","96.41","","","","-8","","Snow"
"-93.79","51.07","RED LAKE A","6016970","2021-11-27 19:00","2021","11","27","19:00","-2.2","","-4.7","","83","","","","30","","27","","16.1","","96.42","","","","-9","","Snow Showers,Blowing Snow"
"-93.79","51.07","RED LAKE A","6016970","2021-11-27 20:00","2021","11","27","20:00","-2.4","","-4.6","","85","","","","30","","18","","19.3","","96.45","","","","-8","","Snow Showers"
"-93.79","51.07","RED LAKE A","6016970","2021-11-27 21:00","2021","11","27","21:00","-2.3","","-5.0","","81","","","","30","","22","","24.1","","96.48","","","","-8","","Snow"
"-93.79","51.07","RED LAKE A","6016970","2021-11-27 22:00","2021","11","27","22:00"
"-93.79","51.07","RED LAKE A","6016970","2021-11-27 23:00","2021","11","27","23:00"
"-93.79","51.07","RED LAKE A","6016970","2021-11-28 00:00","2021","11","28","00:00"
"-93.79","51.07","RED LAKE A","6016970","2021-11-28 01:00","2021","11","28","01:00"
"-93.79","51.07","RED LAKE A","6016970","2021-11-28 02:00","2021","11","28","02:00"
"-93.79","51.07","RED LAKE A","6016970","2021-11-28 03:00","2021","11","28","03:00"
"-93.79","51.07","RED LAKE A","6016970","2021-11-28 04:00","2021","11","28","04:00","-5.1","","-7.1","","86","","","","32","","18","","4.8","","96.80","","","","-11","","Snow"
"-93.79","51.07","RED LAKE A","6016970","2021-11-28 05:00","2021","11","28","05:00","-5.5","","-7.9","","84","","","","32","","17","","12.9","","96.80","","","","-12","","Snow"
"-93.79","51.07","RED LAKE A","6016970","2021-11-28 06:00","2021","11","28","06:00","-5.7","","-8.0","","84","","","","32","","13","","8.1","","96.88","","","","-11","","Snow"
"-93.79","51.07","RED LAKE A","6016970","2021-11-28 07:00","2021","11","28","07:00","-5.7","","-8.8","","79","","","","31","","14","","19.3","","96.92","","","","-11","","Snow"
"-93.79","51.07","RED LAKE A","6016970","2021-11-28 08:00","2021","11","28","08:00","-5.9","","-9.5","","76","","","","31","","21","","24.1","","96.97","","","","-13","","Snow"
"-93.79","51.07","RED LAKE A","6016970","2021-11-28 09:00","2021","11","28","09:00","-6.1","","-10.5","","71","","","","31","","14","","24.1","","96.97","","","","-12","","Snow"
"-93.79","51.07","RED LAKE A","6016970","2021-11-28 10:00","2021","11","28","10:00","-6.0","","-10.6","","70","","","","33","","4","","24.1","","96.97","","","","-8","","Snow"
"-93.79","51.07","RED LAKE A","6016970","2021-11-28 11:00","2021","11","28","11:00","-5.8","","-10.9","","67","","","","32","","8","","24.1","","97.05","","","","-10","","Snow"
"-93.79","51.07","RED LAKE A","6016970","2021-11-28 12:00","2021","11","28","12:00","-5.8","","-10.7","","69","","","","32","","10","","24.1","","97.05","","","","-10","","Snow"
"-93.79","51.07","RED LAKE A","6016970","2021-11-28 13:00","2021","11","28","13:00","-6.0","","-10.8","","69","","","","28","","9","","24.1","","97.02","","","","-10","","Snow"
"-93.79","51.07","RED LAKE A","6016970","2021-11-28 14:00","2021","11","28","14:00","-5.9","","-10.6","","70","","","","30","","11","","24.1","","97.06","","","","-11","","NA"
"-93.79","51.07","RED LAKE A","6016970","2021-11-28 15:00","2021","11","28","15:00","-5.7","","-10.6","","68","","","","33","","8","","24.1","","96.99","","","","-9","","Mostly Cloudy"
"-93.79","51.07","RED LAKE A","6016970","2021-11-28 16:00","2021","11","28","16:00","-8.0","","-11.4","","77","","","","3","","3","","24.1","","96.96","","","","-10","","NA"
"-93.79","51.07","RED LAKE A","6016970","2021-11-28 17:00","2021","11","28","17:00","-11.7","","-12.9","","91","","","","11","","4","","24.1","","96.95","","","","-14","","NA"
"-93.79","51.07","RED LAKE A","6016970","2021-11-28 18:00","2021","11","28","18:00","-13.0","","-14.2","","91","","","","9","","4","","24.1","","96.94","","","","-16","","Mostly Cloudy"
"-93.79","51.07","RED LAKE A","6016970","2021-11-28 19:00","2021","11","28","19:00","-9.4","","-11.3","","86","","","","11","","5","","24.1","","96.91","","","","-12","","NA"
"-93.79","51.07","RED LAKE A","6016970","2021-11-28 20:00","2021","11","28","20:00","-9.4","","-10.8","","90","","","","15","","5","","24.1","","96.87","","","","-12","","NA"
"-93.79","51.07","RED LAKE A","6016970","2021-11-28 21:00","2021","11","28","21:00","-13.3","","-14.6","","90","","","","13","","6","","24.1","","96.83","","","","-17","","Mainly Clear"
"-93.79","51.07","RED LAKE A","6016970","2021-11-28 22:00","2021","11","28","22:00"
"-93.79","51.07","RED LAKE A","6016970","2021-11-28 23:00","2021","11","28","23:00"
"-93.79","51.07","RED LAKE A","6016970","2021-11-29 00:00","2021","11","29","00:00"
"-93.79","51.07","RED LAKE A","6016970","2021-11-29 01:00","2021","11","29","01:00"
"-93.79","51.07","RED LAKE A","6016970","2021-11-29 02:00","2021","11","29","02:00"
"-93.79","51.07","RED LAKE A","6016970","2021-11-29 03:00","2021","11","29","03:00"
"-93.79","51.07","RED LAKE A","6016970","2021-11-29 04:00","2021","11","29","04:00","-8.0","","-9.1","","92","","","","13","","14","","19.3","","96.42","","","","-14","","NA"
"-93.79","51.07","RED LAKE A","6016970","2021-11-29 05:00","2021","11","29","05:00","-7.3","","-8.5","","92","","","","11","","10","","19.3","","96.39","","","","-12","","Snow"
"-93.79","51.07","RED LAKE A","6016970","2021-11-29 06:00","2021","11","29","06:00","-7.1","","-8.2","","92","","","","11","","15","","12.9","","96.33","","","","-13","","Snow"
"-93.79","51.07","RED LAKE A","6016970","2021-11-29 07:00","2021","11","29","07:00","-6.9","","-7.9","","93","","","","14","","11","","4.0","","96.27","","","","-12","","Snow Showers"
"-93.79","51.07","RED LAKE A","6016970","2021-11-29 08:00","2021","11","29","08:00","-6.4","","-7.4","","93","","","","13","","8","","6.4","","96.24","","","","-10","","Snow Showers"
"-93.79","51.07","RED LAKE A","6016970","2021-11-29 09:00","2021","11","29","09:00","-6.2","","-7.2","","93","","","","13","","7","","4.0","","96.18","","","","-10","","Freezing Rain,Snow Showers"
"-93.79","51.07","RED LAKE A","6016970","2021-11-29 10:00","2021","11","29","10:00","-5.9","","-6.9","","92","","","","12","","13","","24.1","","96.18","","","","-11","","Snow Grains"
"-93.79","51.07","RED LAKE A","6016970","2021-11-29 11:00","2021","11","29","11:00","-5.4","","-6.5","","92","","","","14","","10","","24.1","","96.15","","","","-10","","Snow"
"-93.79","51.07","RED LAKE A","6016970","2021-11-29 12:00","2021","11","29","12:00","-5.0","","-6.3","","90","","","","17","","11","","24.1","","96.10","","","","-10","","Cloudy"
"-93.79","51.07","RED LAKE A","6016970","2021-11-29 13:00","2021","11","29","13:00","-4.2","","-5.9","","88","","","","18","","8","","24.1","","96.04","","","","-8","","NA"
"-93.79","51.07","RED LAKE A","6016970","2021-11-29 14:00","2021","11","29","14:00","-3.7","","-5.4","","89","","","","18","","9","","24.1","","96.01","","","","-7","","NA"
"-93.79","51.07","RED LAKE A","6016970","2021-11-29 15:00","2021","11","29","15:00","-3.5","","-4.8","","91","","","","20","","10","","24.1","","96.03","","","","-7","","Cloudy"
"-93.79","51.07","RED LAKE A","6016970","2021-11-29 16:00","2021","11","29","16:00","-3.4","","-4.4","","93","","","","20","","7","","24.1","","96.05","","","","-6","","NA"
"-93.79","51.07","RED LAKE A","6016970","2021-11-29 17:00","2021","11","29","17:00","-3.3","","-4.2","","94","","","","21","","8","","24.1","","96.06","","","","-7","","NA"
"-93.79","51.07","RED LAKE A","6016970","2021-11-29 18:00","2021","11","29","18:00","-2.8","","-3.6","","94","","","","24","","19","","24.1","","96.08","","","","-9","","Cloudy"
"-93.79","51.07","RED LAKE A","6016970","2021-11-29 19:00","2021","11","29","19:00","-2.6","","-3.1","","96","","","","24","","18","","16.1","","96.07","","","","-8","","Freezing Drizzle"
"-93.79","51.07","RED LAKE A","6016970","2021-11-29 20:00","2021","11","29","20:00","-2.0","","-3.0","","93","","","","27","","21","","24.1","","96.09","","","","-8","","NA"
"-93.79","51.07","RED LAKE A","6016970","2021-11-29 21:00","2021","11","29","21:00","-1.8","","-3.2","","90","","","","27","","18","","24.1","","96.04","","","","-7","","Cloudy"
"-93.79","51.07","RED LAKE A","6016970","2021-11-29 22:00","2021","11","29","22:00"
"-93.79","51.07","RED LAKE A","6016970","2021-11-29 23:00","2021","11","29","23:00"
"-93.79","51.07","RED LAKE A","6016970","2021-11-30 00:00","2021","11","30","00:00"
"-93.79","51.07","RED LAKE A","6016970","2021-11-30 01:00","2021","11","30","01:00"
"-93.79","51.07","RED LAKE A","6016970","2021-11-30 02:00","2021","11","30","02:00"
"-93.79","51.07","RED LAKE A","6016970","2021-11-30 03:00","2021","11","30","03:00"
"-93.79","51.07","RED LAKE A","6016970","2021-11-30 04:00","2021","11","30","04:00","-1.5","","-4.6","","80","","","","30","","18","","24.1","","96.37","","","","-7","","NA"
"-93.79","51.07","RED LAKE A","6016970","2021-11-30 05:00","2021","11","30","05:00","-2.5","","-6.0","","76","","","","30","","20","","24.1","","96.47","","","","-8","","Blowing Snow"
"-93.79","51.07","RED LAKE A","6016970","2021-11-30 06:00","2021","11","30","06:00","-4.7","","-9.0","","72","","","","31","","23","","24.1","","96.60","","","","-12","","Blowing Snow"
"-93.79","51.07","RED LAKE A","6016970","2021-11-30 07:00","2021","11","30","07:00","-5.3","","-8.9","","76","","","","30","","22","","24.1","","96.70","","","","-12","","Blowing Snow"
"-93.79","51.07","RED LAKE A","6016970","2021-11-30 08:00","2021","11","30","08:00","-6.6","","-10.2","","75","","","","31","","21","","24.1","","96.81","","","","-14","","Blowing Snow"
"-93.79","51.07","RED LAKE A","6016970","2021-11-30 09:00","2021","11","30","09:00","-7.5","","-11.0","","76","","","","31","","20","","24.1","","96.86","","","","-15","","Blowing Snow"
"-93.79","51.07","RED LAKE A","6016970","2021-11-30 10:00","2021","11","30","10:00","-7.7","","-11.4","","75","","","","31","","16","","24.1","","96.95","","","","-14","","Blowing Snow"
"-93.79","51.07","RED LAKE A","6016970","2021-11-30 11:00","2021","11","30","11:00","-7.3","","-12.3","","67","","","","30","","14","","24.1","","97.00","","","","-13","","NA"
"-93.79","51.07","RED LAKE A","6016970","2021-11-30 12:00","2021","11","30","12:00","-6.3","","-13.2","","58","","","","31","","14","","24.1","","96.96","","","","-12","","Mainly Clear"
"-93.79","51.07","RED LAKE A","6016970","2021-11-30 13:00","2021","11","30","13:00","-5.8","","-13.9","","53","","","","29","","13","","24.1","","96.92","","","","-11","","NA"
"-93.79","51.07","RED LAKE A","6016970","2021-11-30 14:00","2021","11","30","14:00","-5.9","","-13.8","","54","","","","27","","7","","24.1","","96.88","","","","-9","","NA"
"-93.79","51.07","RED LAKE A","6016970","2021-11-30 15:00","2021","11","30","15:00","-6.3","","-13.1","","59","","","","27","","10","","24.1","","96.86","","","","-11","","Mainly Clear"
"-93.79","51.07","RED LAKE A","6016970","2021-11-30 16:00","2021","11","30","16:00","-8.3","","-13.8","","65","","","","19","","5","","24.1","","96.79","","","","-11","","NA"
"-93.79","51.07","RED LAKE A","6016970","2021-11-30 17:00","2021","11","30","17:00","-7.2","","-12.6","","66","","","","22","","10","","24.1","","96.76","","","","-12","","NA"
"-93.79","51.07","RED LAKE A","6016970","2021-11-30 18:00","2021","11","30","18:00","-8.4","","-12.8","","71","","","","18","","7","","24.1","","96.69","","","","-12","","Mainly Clear"
"-93.79","51.07","RED LAKE A","6016970","2021-11-30 19:00","2021","11","30","19:00","-9.3","","-12.6","","77","","","","20","","9","","24.1","","96.64","","","","-14","","NA"
"-93.79","51.07","RED LAKE A","6016970","2021-11-30 20:00","2021","11","30","20:00","-10.7","","-13.9","","77","","","","13","","7","","24.1","","96.55","","","","-15","","NA"
"-93.79","51.07","RED LAKE A","6016970","2021-11-30 21:00","2021","11","30","21:00","-9.7","","-12.6","","80","","","","12","","7","","24.1","","96.49","","","","-14","","Mainly Clear"
"-93.79","51.07","RED LAKE A","6016970","2021-11-30 22:00","2021","11","30","22:00"
"-93.79","51.07","RED LAKE A","6016970","2021-11-30 23:00","2021","11","30","23:00"
