"Longitude (x)","Latitude (y)","Station Name","Climate ID","Date/Time (LST)","Year","Month","Day","Time (LST)","Temp (°C)","Temp Flag","Dew Point Temp (°C)","Dew Point Temp Flag","Rel Hum (%)","Rel Hum Flag","Precip. Amount (mm)","Precip. Amount Flag","Wind Dir (10s deg)","Wind Dir Flag","Wind Spd (km/h)","Wind Spd Flag","Visibility (km)","Visibility Flag","Stn Press (kPa)","Stn Press Flag","Hmdx","Hmdx Flag","Wind Chill","Wind Chill Flag","Weather"
"-62.28","82.52","ALERT A","2400302","2019-10-01 00:00","2019","10","01","00:00","-7.6","","-8.0","","97","","","","30","","4","","24.1","","101.04","","","","-10","","Mostly Cloudy"
"-62.28","82.52","ALERT A","2400302","2019-10-01 01:00","2019","10","01","01:00","-8.8","","-9.4","","95","","","","2","","5","","9.7","","101.02","","","","-12","","Fog"
"-62.28","82.52","ALERT A","2400302","2019-10-01 02:00","2019","10","01","02:00","-9.0","","-9.6","","95","","","","33","","8","","8.1","","100.98","","","","-13","","Fog"
"-62.28","82.52","ALERT A","2400302","2019-10-01 03:00","2019","10","01","03:00","-9.2","","-9.9","","95","","","","30","","8","","8.1","","100.94","","","","-14","","Fog"
"-62.28","82.52","ALERT A","2400302","2019-10-01 04:00","2019","10","01","04:00","-9.6","","-10.3","","95","","","","29","","11","","14.5","","100.92","","","","-15","","Mostly Cloudy"
"-62.28","82.52","ALERT A","2400302","2019-10-01 05:00","2019","10","01","05:00","-7.8","","-8.4","","95","","","","27","","4","","24.1","","100.86","","","","-10","","Mostly Cloudy"
"-62.28","82.52","ALERT A","2400302","2019-10-01 06:00","2019","10","01","06:00","-0.2","","","M","99","","","","21","","35","","24.1","","100.79","","","","-7","","Mostly Cloudy"
"-62.28","82.52","ALERT A","2400302","2019-10-01 07:00","2019","10","01","07:00","1.4","","-1.7","","80","","","","22","","31","","24.1","","100.76","","","","","","Mostly Cloudy"
"-62.28","82.52","ALERT A","2400302","2019-10-01 08:00","2019","10","01","08:00","1.8","","-1.4","","79","","","","22","","21","","24.1","","100.75","","","","","","Mostly Cloudy"
"-62.28","82.52","ALERT A","2400302","2019-10-01 09:00","2019","10","01","09:00","2.8","","-0.7","","78","","","","21","","31","","24.1","","100.67","","","","","","Mostly Cloudy"
"-62.28","82.52","ALERT A","2400302","2019-10-01 10:00","2019","10","01","10:00","3.1","","-0.2","","79","","","","24","","30","","24.1","","100.63","","","","","","Mostly Cloudy"
"-62.28","82.52","ALERT A","2400302","2019-10-01 11:00","2019","10","01","11:00","3.3","","-0.7","","75","","","","22","","41","","24.1","","100.57","","","","","","Mostly Cloudy"
"-62.28","82.52","ALERT A","2400302","2019-10-01 12:00","2019","10","01","12:00","3.3","","-0.6","","76","","","","21","","35","","24.1","","100.53","","","","","","Mostly Cloudy"
"-62.28","82.52","ALERT A","2400302","2019-10-01 13:00","2019","10","01","13:00","3.4","","-0.6","","75","","","","22","","31","","24.1","","100.52","","","","","","Mostly Cloudy"
"-62.28","82.52","ALERT A","2400302","2019-10-01 14:00","2019","10","01","14:00","3.0","","-0.4","","78","","","","22","","28","","24.1","","100.52","","","","","","Mostly Cloudy"
"-62.28","82.52","ALERT A","2400302","2019-10-01 15:00","2019","10","01","15:00","3.5","","-0.6","","74","","","","23","","37","","24.1","","100.52","","","","","","Mostly Cloudy"
"-62.28","82.52","ALERT A","2400302","2019-10-01 16:00","2019","10","01","16:00","3.1","","-0.6","","77","","","","22","","41","","24.1","","100.51","","","","","","Cloudy"
"-62.28","82.52","ALERT A","2400302","2019-10-01 17:00","2019","10","01","17:00","3.5","","-0.6","","74","","","","23","","43","","24.1","","100.49","","","","","","Cloudy"
"-62.28","82.52","ALERT A","2400302","2019-10-01 18:00","2019","10","01","18:00","3.4","","-0.7","","74","","","","23","","39","","24.1","","100.51","","","","","","Cloudy"
"-62.28","82.52","ALERT A","2400302","2019-10-01 19:00","2019","10","01","19:00","3.7","","-0.7","","73","","","","23","","39","","24.1","","100.51","","","","","","Cloudy"
"-62.28","82.52","ALERT A","2400302","2019-10-01 20:00","2019","10","01","20:00","3.4","","-0.5","","76","","","","22","","39","","24.1","","100.53","","","","","","Snow"
"-62.28","82.52","ALERT A","2400302","2019-10-01 21:00","2019","10","01","21:00","2.9","","-0.2","","80","","","","21","","30","","24.1","","100.55","","","","","","Cloudy"
"-62.28","82.52","ALERT A","2400302","2019-10-01 22:00","2019","10","01","22:00","2.7","","-0.1","","82","","","","19","","21","","24.1","","100.56","","","","","","Cloudy"
"-62.28","82.52","ALERT A","2400302","2019-10-01 23:00","2019","10","01","23:00","3.1","","-0.3","","78","","","","21","","8","","24.1","","100.58","","","","","","Cloudy"
"-62.28","82.52","ALERT A","2400302","2019-10-02 00:00","2019","10","02","00:00","-4.1","","-5.4","","91","","","","32","","21","","24.1","","100.62","","","","-11","","Cloudy"
"-62.28","82.52","ALERT A","2400302","2019-10-02 01:00","2019","10","02","01:00","-4.8","","-6.0","","91","","","","31","","13","","24.1","","100.68","","","","-10","","Cloudy"
"-62.28","82.52","ALERT A","2400302","2019-10-02 02:00","2019","10","02","02:00","-5.0","","-6.2","","91","","","","13","","4","","24.1","","100.72","","","","-7","","Mostly Cloudy"
"-62.28","82.52","ALERT A","2400302","2019-10-02 03:00","2019","10","02","03:00","-5.5","","-6.3","","94","","","","7","","5","","24.1","","100.72","","","","-8","","Mostly Cloudy"
"-62.28","82.52","ALERT A","2400302","2019-10-02 04:00","2019","10","02","04:00","-6.3","","-6.9","","95","","","","10","","8","","24.1","","100.74","","","","-10","","Mainly Clear"
"-62.28","82.52","ALERT A","2400302","2019-10-02 05:00","2019","10","02","05:00","-6.2","","-6.6","","97","","","","","","0","","24.1","","100.77","","","","","","Mainly Clear"
"-62.28","82.52","ALERT A","2400302","2019-10-02 06:00","2019","10","02","06:00","-7.1","","-7.3","","98","","","","10","","8","","24.1","","100.77","","","","-11","","Mainly Clear"
"-62.28","82.52","ALERT A","2400302","2019-10-02 07:00","2019","10","02","07:00","-7.6","","-7.9","","98","","","","9","","8","","24.1","","100.76","","","","-12","","Mainly Clear"
"-62.28","82.52","ALERT A","2400302","2019-10-02 08:00","2019","10","02","08:00","-7.4","","-7.6","","98","","","","","","0","","19.3","","100.78","","","","","","Mostly Cloudy"
"-62.28","82.52","ALERT A","2400302","2019-10-02 09:00","2019","10","02","09:00","-7.2","","-7.6","","97","","","","15","","5","","14.5","","100.74","","","","-10","","Mostly Cloudy"
"-62.28","82.52","ALERT A","2400302","2019-10-02 10:00","2019","10","02","10:00","-7.1","","-7.6","","96","","","","12","","4","","9.7","","100.77","","","","-9","","Fog"
"-62.28","82.52","ALERT A","2400302","2019-10-02 11:00","2019","10","02","11:00","-8.5","","-9.0","","96","","","","12","","4","","1.6","","100.76","","","","-11","","Fog"
"-62.28","82.52","ALERT A","2400302","2019-10-02 12:00","2019","10","02","12:00","-7.8","","-8.4","","95","","","","","","0","","3.2","","100.75","","","","","","Fog"
"-62.28","82.52","ALERT A","2400302","2019-10-02 13:00","2019","10","02","13:00","-7.6","","-8.1","","96","","","","31","","4","","3.2","","100.76","","","","-10","","Fog"
"-62.28","82.52","ALERT A","2400302","2019-10-02 14:00","2019","10","02","14:00","-7.8","","-8.3","","96","","","","","","0","","8.1","","100.78","","","","","","Fog"
"-62.28","82.52","ALERT A","2400302","2019-10-02 15:00","2019","10","02","15:00","-8.9","","-9.6","","95","","","","","","0","","9.7","","100.80","","","","","","Fog"
"-62.28","82.52","ALERT A","2400302","2019-10-02 16:00","2019","10","02","16:00","-9.8","","-10.6","","94","","","","27","","4","","19.3","","100.81","","","","-12","","Mostly Cloudy"
"-62.28","82.52","ALERT A","2400302","2019-10-02 17:00","2019","10","02","17:00","-9.4","","-10.2","","94","","","","14","","5","","24.1","","100.81","","","","-12","","Mostly Cloudy"
"-62.28","82.52","ALERT A","2400302","2019-10-02 18:00","2019","10","02","18:00","-8.6","","-9.2","","95","","","","10","","5","","24.1","","100.82","","","","-11","","Mostly Cloudy"
"-62.28","82.52","ALERT A","2400302","2019-10-02 19:00","2019","10","02","19:00","-7.9","","-8.4","","96","","","","32","","4","","24.1","","100.83","","","","-10","","Mostly Cloudy"
"-62.28","82.52","ALERT A","2400302","2019-10-02 20:00","2019","10","02","20:00","-7.3","","-7.8","","96","","","","","","0","","24.1","","100.83","","","","","","Cloudy"
"-62.28","82.52","ALERT A","2400302","2019-10-02 21:00","2019","10","02","21:00","-7.2","","-7.6","","97","","","","","","0","","16.1","","100.82","","","","","","Cloudy"
"-62.28","82.52","ALERT A","2400302","2019-10-02 22:00","2019","10","02","22:00","-6.7","","-7.2","","96","","","","8","","4","","16.1","","100.84","","","","-9","","Snow"
"-62.28","82.52","ALERT A","2400302","2019-10-02 23:00","2019","10","02","23:00","-6.4","","-6.8","","97","","","","","","0","","16.1","","100.85","","","","","","Cloudy"
"-62.28","82.52","ALERT A","2400302","2019-10-03 00:00","2019","10","03","00:00","-6.1","","-6.5","","97","","","","","","0","","16.1","","100.84","","","","","","Cloudy"
"-62.28","82.52","ALERT A","2400302","2019-10-03 01:00","2019","10","03","01:00","-6.2","","-6.6","","97","","","","","","0","","16.1","","100.84","","","","","","Cloudy"
"-62.28","82.52","ALERT A","2400302","2019-10-03 02:00","2019","10","03","02:00","-5.9","","-6.2","","98","","","","","","0","","16.1","","100.86","","","","","","Snow"
"-62.28","82.52","ALERT A","2400302","2019-10-03 03:00","2019","10","03","03:00","-5.8","","-6.1","","98","","","","","","0","","16.1","","100.89","","","","","","Cloudy"
"-62.28","82.52","ALERT A","2400302","2019-10-03 04:00","2019","10","03","04:00","-5.6","","-5.9","","98","","","","29","","4","","16.1","","100.90","","","","-7","","Cloudy"
"-62.28","82.52","ALERT A","2400302","2019-10-03 05:00","2019","10","03","05:00","-5.4","","-5.7","","98","","","","18","","4","","16.1","","100.90","","","","-7","","Cloudy"
"-62.28","82.52","ALERT A","2400302","2019-10-03 06:00","2019","10","03","06:00","-5.4","","-5.6","","98","","","","31","","4","","16.1","","100.90","","","","-7","","Cloudy"
"-62.28","82.52","ALERT A","2400302","2019-10-03 07:00","2019","10","03","07:00","-5.5","","-5.8","","98","","","","32","","4","","16.1","","100.90","","","","-7","","Cloudy"
"-62.28","82.52","ALERT A","2400302","2019-10-03 08:00","2019","10","03","08:00","-5.3","","-5.6","","98","","","","","","0","","16.1","","100.92","","","","","","Cloudy"
"-62.28","82.52","ALERT A","2400302","2019-10-03 09:00","2019","10","03","09:00","-5.1","","-5.3","","98","","","","","","0","","16.1","","100.87","","","","","","Cloudy"
"-62.28","82.52","ALERT A","2400302","2019-10-03 10:00","2019","10","03","10:00","-5.1","","-5.3","","98","","","","33","","4","","16.1","","100.87","","","","-7","","Cloudy"
"-62.28","82.52","ALERT A","2400302","2019-10-03 11:00","2019","10","03","11:00","-5.2","","-5.4","","98","","","","29","","5","","11.3","","100.82","","","","-7","","Cloudy"
"-62.28","82.52","ALERT A","2400302","2019-10-03 12:00","2019","10","03","12:00","-4.9","","-5.2","","98","","","","34","","8","","0.6","","100.79","","","","-8","","Snow,Freezing Fog"
"-62.28","82.52","ALERT A","2400302","2019-10-03 13:00","2019","10","03","13:00","-5.3","","-5.6","","98","","","","34","","5","","0.2","","100.78","","","","-8","","Snow,Freezing Fog"
"-62.28","82.52","ALERT A","2400302","2019-10-03 14:00","2019","10","03","14:00","-5.7","","-6.0","","98","","","","35","","8","","0.2","","100.73","","","","-9","","Freezing Fog"
"-62.28","82.52","ALERT A","2400302","2019-10-03 15:00","2019","10","03","15:00","-6.1","","-6.4","","98","","","","35","","8","","0.2","","100.72","","","","-10","","Freezing Fog"
"-62.28","82.52","ALERT A","2400302","2019-10-03 16:00","2019","10","03","16:00","-6.6","","-7.0","","97","","","","33","","9","","0.2","","100.67","","","","-11","","Freezing Fog"
"-62.28","82.52","ALERT A","2400302","2019-10-03 17:00","2019","10","03","17:00","-6.9","","-7.3","","97","","","","31","","11","","3.2","","100.64","","","","-12","","Fog"
"-62.28","82.52","ALERT A","2400302","2019-10-03 18:00","2019","10","03","18:00","-6.9","","-7.3","","97","","","","30","","13","","11.3","","100.58","","","","-12","","Cloudy"
"-62.28","82.52","ALERT A","2400302","2019-10-03 19:00","2019","10","03","19:00","-6.8","","-7.3","","96","","","","31","","11","","16.1","","100.57","","","","-12","","Cloudy"
"-62.28","82.52","ALERT A","2400302","2019-10-03 20:00","2019","10","03","20:00","-6.6","","-7.0","","97","","","","32","","13","","19.3","","100.50","","","","-12","","Cloudy"
"-62.28","82.52","ALERT A","2400302","2019-10-03 21:00","2019","10","03","21:00","-6.4","","-6.8","","97","","","","31","","13","","24.1","","100.47","","","","-12","","Cloudy"
"-62.28","82.52","ALERT A","2400302","2019-10-03 22:00","2019","10","03","22:00","-6.2","","-6.6","","97","","","","31","","15","","24.1","","100.41","","","","-12","","Cloudy"
"-62.28","82.52","ALERT A","2400302","2019-10-03 23:00","2019","10","03","23:00","-6.1","","-6.4","","98","","","","32","","18","","24.1","","100.35","","","","-13","","Cloudy"
"-62.28","82.52","ALERT A","2400302","2019-10-04 00:00","2019","10","04","00:00","-6.4","","-6.8","","97","","","","34","","21","","8.1","","100.33","","","","-13","","Snow"
"-62.28","82.52","ALERT A","2400302","2019-10-04 01:00","2019","10","04","01:00","-6.7","","-7.1","","97","","","","34","","26","","4.8","","100.26","","","","-15","","Snow,Fog"
"-62.28","82.52","ALERT A","2400302","2019-10-04 02:00","2019","10","04","02:00","-6.7","","-7.1","","97","","","","33","","26","","2.4","","100.22","","","","-15","","Snow,Fog"
"-62.28","82.52","ALERT A","2400302","2019-10-04 03:00","2019","10","04","03:00","-8.0","","-8.5","","96","","","","36","","18","","2.4","","100.19","","","","-15","","Snow,Fog"
"-62.28","82.52","ALERT A","2400302","2019-10-04 04:00","2019","10","04","04:00","-8.3","","-8.9","","95","","","","35","","17","","2.4","","100.17","","","","-15","","Snow,Fog"
"-62.28","82.52","ALERT A","2400302","2019-10-04 05:00","2019","10","04","05:00","-9.0","","-9.7","","95","","","","36","","17","","2.4","","100.18","","","","-16","","Snow,Fog"
"-62.28","82.52","ALERT A","2400302","2019-10-04 06:00","2019","10","04","06:00","-9.4","","-10.1","","95","","","","32","","18","","3.2","","100.11","","","","-17","","Snow,Fog"
"-62.28","82.52","ALERT A","2400302","2019-10-04 07:00","2019","10","04","07:00","-9.7","","-10.5","","94","","","","34","","21","","2.4","","100.09","","","","-18","","Fog"
"-62.28","82.52","ALERT A","2400302","2019-10-04 08:00","2019","10","04","08:00","-10.1","","-10.9","","94","","","","34","","17","","3.2","","100.06","","","","-17","","Fog"
"-62.28","82.52","ALERT A","2400302","2019-10-04 09:00","2019","10","04","09:00","-10.4","","-11.2","","94","","","","33","","15","","4.8","","100.00","","","","-17","","Fog"
"-62.28","82.52","ALERT A","2400302","2019-10-04 10:00","2019","10","04","10:00","-10.8","","-11.7","","93","","","","34","","15","","8.1","","99.96","","","","-18","","Fog"
"-62.28","82.52","ALERT A","2400302","2019-10-04 11:00","2019","10","04","11:00","-11.1","","-12.0","","93","","","","34","","17","","11.3","","99.91","","","","-19","","Cloudy"
"-62.28","82.52","ALERT A","2400302","2019-10-04 12:00","2019","10","04","12:00","-11.2","","-12.2","","92","","","","33","","15","","11.3","","99.87","","","","-18","","Snow"
"-62.28","82.52","ALERT A","2400302","2019-10-04 13:00","2019","10","04","13:00","-11.3","","-12.2","","93","","","","32","","13","","11.3","","99.84","","","","-18","","Snow"
"-62.28","82.52","ALERT A","2400302","2019-10-04 14:00","2019","10","04","14:00","-11.0","","-11.9","","93","","","","32","","15","","8.1","","99.79","","","","-18","","Snow"
"-62.28","82.52","ALERT A","2400302","2019-10-04 15:00","2019","10","04","15:00","-10.8","","-11.7","","93","","","","31","","17","","4.8","","99.74","","","","-18","","Snow,Fog"
"-62.28","82.52","ALERT A","2400302","2019-10-04 16:00","2019","10","04","16:00","-10.9","","-11.8","","93","","","","29","","17","","11.3","","99.69","","","","-18","","Snow"
"-62.28","82.52","ALERT A","2400302","2019-10-04 17:00","2019","10","04","17:00","-10.8","","-11.6","","94","","","","31","","18","","11.3","","99.68","","","","-18","","Snow"
"-62.28","82.52","ALERT A","2400302","2019-10-04 18:00","2019","10","04","18:00"
"-62.28","82.52","ALERT A","2400302","2019-10-04 19:00","2019","10","04","19:00"
"-62.28","82.52","ALERT A","2400302","2019-10-04 20:00","2019","10","04","20:00"
"-62.28","82.52","ALERT A","2400302","2019-10-04 21:00","2019","10","04","21:00"
"-62.28","82.52","ALERT A","2400302","2019-10-04 22:00","2019","10","04","22:00"
"-62.28","82.52","ALERT A","2400302","2019-10-04 23:00","2019","10","04","23:00"
"-62.28","82.52","ALERT A","2400302","2019-10-05 00:00","2019","10","05","00:00"
"-62.28","82.52","ALERT A","2400302","2019-10-05 01:00","2019","10","05","01:00"
"-62.28","82.52","ALERT A","2400302","2019-10-05 02:00","2019","10","05","02:00"
"-62.28","82.52","ALERT A","2400302","2019-10-05 03:00","2019","10","05","03:00"
"-62.28","82.52","ALERT A","2400302","2019-10-05 04:00","2019","10","05","04:00"
"-62.28","82.52","ALERT A","2400302","2019-10-05 05:00","2019","10","05","05:00"
"-62.28","82.52","ALERT A","2400302","2019-10-05 06:00","2019","10","05","06:00"
"-62.28","82.52","ALERT A","2400302","2019-10-05 07:00","2019","10","05","07:00"
"-62.28","82.52","ALERT A","2400302","2019-10-05 08:00","2019","10","05","08:00"
"-62.28","82.52","ALERT A","2400302","2019-10-05 09:00","2019","10","05","09:00"
"-62.28","82.52","ALERT A","2400302","2019-10-05 10:00","2019","10","05","10:00"
"-62.28","82.52","ALERT A","2400302","2019-10-05 11:00","2019","10","05","11:00"
"-62.28","82.52","ALERT A","2400302","2019-10-05 12:00","2019","10","05","12:00"
"-62.28","82.52","ALERT A","2400302","2019-10-05 13:00","2019","10","05","13:00"
"-62.28","82.52","ALERT A","2400302","2019-10-05 14:00","2019","10","05","14:00"
"-62.28","82.52","ALERT A","2400302","2019-10-05 15:00","2019","10","05","15:00"
"-62.28","82.52","ALERT A","2400302","2019-10-05 16:00","2019","10","05","16:00"
"-62.28","82.52","ALERT A","2400302","2019-10-05 17:00","2019","10","05","17:00"
"-62.28","82.52","ALERT A","2400302","2019-10-05 18:00","2019","10","05","18:00"
"-62.28","82.52","ALERT A","2400302","2019-10-05 19:00","2019","10","05","19:00"
"-62.28","82.52","ALERT A","2400302","2019-10-05 20:00","2019","10","05","20:00"
"-62.28","82.52","ALERT A","2400302","2019-10-05 21:00","2019","10","05","21:00"
"-62.28","82.52","ALERT A","2400302","2019-10-05 22:00","2019","10","05","22:00"
"-62.28","82.52","ALERT A","2400302","2019-10-05 23:00","2019","10","05","23:00"
"-62.28","82.52","ALERT A","2400302","2019-10-06 00:00","2019","10","06","00:00"
"-62.28","82.52","ALERT A","2400302","2019-10-06 01:00","2019","10","06","01:00"
"-62.28","82.52","ALERT A","2400302","2019-10-06 02:00","2019","10","06","02:00"
"-62.28","82.52","ALERT A","2400302","2019-10-06 03:00","2019","10","06","03:00"
"-62.28","82.52","ALERT A","2400302","2019-10-06 04:00","2019","10","06","04:00"
"-62.28","82.52","ALERT A","2400302","2019-10-06 05:00","2019","10","06","05:00"
"-62.28","82.52","ALERT A","2400302","2019-10-06 06:00","2019","10","06","06:00"
"-62.28","82.52","ALERT A","2400302","2019-10-06 07:00","2019","10","06","07:00"
"-62.28","82.52","ALERT A","2400302","2019-10-06 08:00","2019","10","06","08:00"
"-62.28","82.52","ALERT A","2400302","2019-10-06 09:00","2019","10","06","09:00"
"-62.28","82.52","ALERT A","2400302","2019-10-06 10:00","2019","10","06","10:00"
"-62.28","82.52","ALERT A","2400302","2019-10-06 11:00","2019","10","06","11:00"
"-62.28","82.52","ALERT A","2400302","2019-10-06 12:00","2019","10","06","12:00"
"-62.28","82.52","ALERT A","2400302","2019-10-06 13:00","2019","10","06","13:00"
"-62.28","82.52","ALERT A","2400302","2019-10-06 14:00","2019","10","06","14:00"
"-62.28","82.52","ALERT A","2400302","2019-10-06 15:00","2019","10","06","15:00"
"-62.28","82.52","ALERT A","2400302","2019-10-06 16:00","2019","10","06","16:00"
"-62.28","82.52","ALERT A","2400302","2019-10-06 17:00","2019","10","06","17:00"
"-62.28","82.52","ALERT A","2400302","2019-10-06 18:00","2019","10","06","18:00"
"-62.28","82.52","ALERT A","2400302","2019-10-06 19:00","2019","10","06","19:00"
"-62.28","82.52","ALERT A","2400302","2019-10-06 20:00","2019","10","06","20:00"
"-62.28","82.52","ALERT A","2400302","2019-10-06 21:00","2019","10","06","21:00"
"-62.28","82.52","ALERT A","2400302","2019-10-06 22:00","2019","10","06","22:00"
"-62.28","82.52","ALERT A","2400302","2019-10-06 23:00","2019","10","06","23:00"
"-62.28","82.52","ALERT A","2400302","2019-10-07 00:00","2019","10","07","00:00"
"-62.28","82.52","ALERT A","2400302","2019-10-07 01:00","2019","10","07","01:00"
"-62.28","82.52","ALERT A","2400302","2019-10-07 02:00","2019","10","07","02:00"
"-62.28","82.52","ALERT A","2400302","2019-10-07 03:00","2019","10","07","03:00"
"-62.28","82.52","ALERT A","2400302","2019-10-07 04:00","2019","10","07","04:00"
"-62.28","82.52","ALERT A","2400302","2019-10-07 05:00","2019","10","07","05:00"
"-62.28","82.52","ALERT A","2400302","2019-10-07 06:00","2019","10","07","06:00"
"-62.28","82.52","ALERT A","2400302","2019-10-07 07:00","2019","10","07","07:00"
"-62.28","82.52","ALERT A","2400302","2019-10-07 08:00","2019","10","07","08:00","-6.7","","-12.8","","62","","","","27","","15","","24.1","","99.57","","","","-13","","Mainly Clear"
"-62.28","82.52","ALERT A","2400302","2019-10-07 09:00","2019","10","07","09:00","-6.4","","-12.0","","64","","","","19","","41","","24.1","","99.51","","","","-16","","Mainly Clear"
"-62.28","82.52","ALERT A","2400302","2019-10-07 10:00","2019","10","07","10:00","-5.9","","-11.7","","64","","","","20","","39","","24.1","","99.54","","","","-15","","Mostly Cloudy"
"-62.28","82.52","ALERT A","2400302","2019-10-07 11:00","2019","10","07","11:00","-7.6","","-11.8","","72","","","","23","","24","","24.1","","99.57","","","","-16","","Mainly Clear"
"-62.28","82.52","ALERT A","2400302","2019-10-07 12:00","2019","10","07","12:00","-5.2","","-11.7","","60","","","","18","","43","","24.1","","99.54","","","","-15","","Mostly Cloudy"
"-62.28","82.52","ALERT A","2400302","2019-10-07 13:00","2019","10","07","13:00","-5.5","","-11.6","","62","","","","18","","48","","24.1","","99.53","","","","-15","","Mostly Cloudy"
"-62.28","82.52","ALERT A","2400302","2019-10-07 14:00","2019","10","07","14:00","-5.4","","-11.0","","65","","","","18","","39","","24.1","","99.60","","","","-15","","Mostly Cloudy"
"-62.28","82.52","ALERT A","2400302","2019-10-07 15:00","2019","10","07","15:00","-4.9","","-10.5","","65","","","","18","","55","","24.1","","99.58","","","","-15","","Mostly Cloudy"
"-62.28","82.52","ALERT A","2400302","2019-10-07 16:00","2019","10","07","16:00","-5.4","","-10.4","","68","","","","19","","41","","24.1","","99.65","","","","-15","","Mostly Cloudy"
"-62.28","82.52","ALERT A","2400302","2019-10-07 17:00","2019","10","07","17:00"
"-62.28","82.52","ALERT A","2400302","2019-10-07 18:00","2019","10","07","18:00"
"-62.28","82.52","ALERT A","2400302","2019-10-07 19:00","2019","10","07","19:00"
"-62.28","82.52","ALERT A","2400302","2019-10-07 20:00","2019","10","07","20:00"
"-62.28","82.52","ALERT A","2400302","2019-10-07 21:00","2019","10","07","21:00"
"-62.28","82.52","ALERT A","2400302","2019-10-07 22:00","2019","10","07","22:00"
"-62.28","82.52","ALERT A","2400302","2019-10-07 23:00","2019","10","07","23:00"
"-62.28","82.52","ALERT A","2400302","2019-10-08 00:00","2019","10","08","00:00"
"-62.28","82.52","ALERT A","2400302","2019-10-08 01:00","2019","10","08","01:00"
"-62.28","82.52","ALERT A","2400302","2019-10-08 02:00","2019","10","08","02:00"
"-62.28","82.52","ALERT A","2400302","2019-10-08 03:00","2019","10","08","03:00"
"-62.28","82.52","ALERT A","2400302","2019-10-08 04:00","2019","10","08","04:00"
"-62.28","82.52","ALERT A","2400302","2019-10-08 05:00","2019","10","08","05:00"
"-62.28","82.52","ALERT A","2400302","2019-10-08 06:00","2019","10","08","06:00"
"-62.28","82.52","ALERT A","2400302","2019-10-08 07:00","2019","10","08","07:00"
"-62.28","82.52","ALERT A","2400302","2019-10-08 08:00","2019","10","08","08:00","-6.7","","-10.2","","76","","","","22","","43","","24.1","","100.11","","","","-17","","Cloudy"
"-62.28","82.52","ALERT A","2400302","2019-10-08 09:00","2019","10","08","09:00","-6.7","","-11.2","","70","","","","22","","41","","24.1","","100.15","","","","-16","","Cloudy"
"-62.28","82.52","ALERT A","2400302","2019-10-08 10:00","2019","10","08","10:00","-7.2","","-11.6","","71","","","","22","","37","","24.1","","100.18","","","","-17","","Mostly Cloudy"
"-62.28","82.52","ALERT A","2400302","2019-10-08 11:00","2019","10","08","11:00","-6.9","","-11.4","","70","","","","21","","31","","24.1","","100.18","","","","-16","","Mostly Cloudy"
"-62.28","82.52","ALERT A","2400302","2019-10-08 12:00","2019","10","08","12:00","-6.2","","-11.2","","68","","","","23","","50","","24.1","","100.16","","","","-17","","Mostly Cloudy"
"-62.28","82.52","ALERT A","2400302","2019-10-08 13:00","2019","10","08","13:00","-6.2","","-10.8","","70","","","","20","","37","","24.1","","100.22","","","","-15","","Mostly Cloudy"
"-62.28","82.52","ALERT A","2400302","2019-10-08 14:00","2019","10","08","14:00","-6.2","","-11.3","","67","","","","20","","21","","24.1","","100.30","","","","-13","","Mostly Cloudy"
"-62.28","82.52","ALERT A","2400302","2019-10-08 15:00","2019","10","08","15:00","-5.6","","-11.1","","65","","","","22","","31","","24.1","","100.29","","","","-14","","Mostly Cloudy"
"-62.28","82.52","ALERT A","2400302","2019-10-08 16:00","2019","10","08","16:00","-5.7","","-10.8","","67","","","","23","","39","","24.1","","100.26","","","","-15","","Mostly Cloudy"
"-62.28","82.52","ALERT A","2400302","2019-10-08 17:00","2019","10","08","17:00"
"-62.28","82.52","ALERT A","2400302","2019-10-08 18:00","2019","10","08","18:00"
"-62.28","82.52","ALERT A","2400302","2019-10-08 19:00","2019","10","08","19:00"
"-62.28","82.52","ALERT A","2400302","2019-10-08 20:00","2019","10","08","20:00"
"-62.28","82.52","ALERT A","2400302","2019-10-08 21:00","2019","10","08","21:00"
"-62.28","82.52","ALERT A","2400302","2019-10-08 22:00","2019","10","08","22:00"
"-62.28","82.52","ALERT A","2400302","2019-10-08 23:00","2019","10","08","23:00"
"-62.28","82.52","ALERT A","2400302","2019-10-09 00:00","2019","10","09","00:00"
"-62.28","82.52","ALERT A","2400302","2019-10-09 01:00","2019","10","09","01:00"
"-62.28","82.52","ALERT A","2400302","2019-10-09 02:00","2019","10","09","02:00"
"-62.28","82.52","ALERT A","2400302","2019-10-09 03:00","2019","10","09","03:00"
"-62.28","82.52","ALERT A","2400302","2019-10-09 04:00","2019","10","09","04:00"
"-62.28","82.52","ALERT A","2400302","2019-10-09 05:00","2019","10","09","05:00"
"-62.28","82.52","ALERT A","2400302","2019-10-09 06:00","2019","10","09","06:00"
"-62.28","82.52","ALERT A","2400302","2019-10-09 07:00","2019","10","09","07:00"
"-62.28","82.52","ALERT A","2400302","2019-10-09 08:00","2019","10","09","08:00","-7.1","","-13.2","","62","","","","23","","43","","24.1","","100.45","","","","-17","","Mostly Cloudy"
"-62.28","82.52","ALERT A","2400302","2019-10-09 09:00","2019","10","09","09:00","-7.0","","-13.2","","61","","","","20","","37","","24.1","","100.48","","","","-16","","Mainly Clear"
"-62.28","82.52","ALERT A","2400302","2019-10-09 10:00","2019","10","09","10:00","-6.7","","-12.0","","66","","","","23","","44","","24.1","","100.48","","","","-17","","Mostly Cloudy"
"-62.28","82.52","ALERT A","2400302","2019-10-09 11:00","2019","10","09","11:00","-6.0","","-12.6","","60","","","","23","","54","","24.1","","100.46","","","","-17","","Mostly Cloudy"
"-62.28","82.52","ALERT A","2400302","2019-10-09 12:00","2019","10","09","12:00","-5.9","","-13.1","","57","","","","22","","59","","24.1","","100.48","","","","-17","","Mainly Clear"
"-62.28","82.52","ALERT A","2400302","2019-10-09 13:00","2019","10","09","13:00","-6.3","","-12.7","","60","","","","22","","46","","24.1","","100.56","","","","-16","","Mainly Clear"
"-62.28","82.52","ALERT A","2400302","2019-10-09 14:00","2019","10","09","14:00","-6.6","","-12.3","","64","","","","22","","39","","24.1","","100.61","","","","-16","","Mainly Clear"
"-62.28","82.52","ALERT A","2400302","2019-10-09 15:00","2019","10","09","15:00","-6.5","","-12.4","","63","","","","21","","46","","24.1","","100.62","","","","-17","","Mainly Clear"
"-62.28","82.52","ALERT A","2400302","2019-10-09 16:00","2019","10","09","16:00","-6.6","","-12.6","","62","","","","21","","31","","24.1","","100.73","","","","-15","","Mainly Clear"
"-62.28","82.52","ALERT A","2400302","2019-10-09 17:00","2019","10","09","17:00"
"-62.28","82.52","ALERT A","2400302","2019-10-09 18:00","2019","10","09","18:00"
"-62.28","82.52","ALERT A","2400302","2019-10-09 19:00","2019","10","09","19:00"
"-62.28","82.52","ALERT A","2400302","2019-10-09 20:00","2019","10","09","20:00"
"-62.28","82.52","ALERT A","2400302","2019-10-09 21:00","2019","10","09","21:00"
"-62.28","82.52","ALERT A","2400302","2019-10-09 22:00","2019","10","09","22:00"
"-62.28","82.52","ALERT A","2400302","2019-10-09 23:00","2019","10","09","23:00"
"-62.28","82.52","ALERT A","2400302","2019-10-10 00:00","2019","10","10","00:00"
"-62.28","82.52","ALERT A","2400302","2019-10-10 01:00","2019","10","10","01:00","-4.8","","-8.8","","74","","","","8","","15","","24.1","","100.68","","","","-10","","Cloudy"
"-62.28","82.52","ALERT A","2400302","2019-10-10 02:00","2019","10","10","02:00","-4.1","","-9.2","","68","","","","17","","8","","24.1","","100.73","","","","-8","","Cloudy"
"-62.28","82.52","ALERT A","2400302","2019-10-10 03:00","2019","10","10","03:00","-3.2","","-8.2","","68","","","","22","","39","","24.1","","100.63","","","","-12","","Cloudy"
"-62.28","82.52","ALERT A","2400302","2019-10-10 04:00","2019","10","10","04:00","-3.3","","-7.8","","71","","","","20","","39","","24.1","","100.61","","","","-12","","Cloudy"
"-62.28","82.52","ALERT A","2400302","2019-10-10 05:00","2019","10","10","05:00","-3.0","","-7.8","","69","","","","22","","43","","24.1","","100.60","","","","-12","","Cloudy"
"-62.28","82.52","ALERT A","2400302","2019-10-10 06:00","2019","10","10","06:00","-3.9","","-8.1","","73","","","","21","","30","","24.1","","100.64","","","","-12","","Mostly Cloudy"
"-62.28","82.52","ALERT A","2400302","2019-10-10 07:00","2019","10","10","07:00","-3.5","","-8.1","","70","","","","11","","8","","24.1","","100.70","","","","-7","","Mostly Cloudy"
"-62.28","82.52","ALERT A","2400302","2019-10-10 08:00","2019","10","10","08:00","-2.9","","-7.9","","68","","","","20","","15","","24.1","","100.68","","","","-8","","Mostly Cloudy"
"-62.28","82.52","ALERT A","2400302","2019-10-10 09:00","2019","10","10","09:00","-3.9","","-7.9","","74","","","","22","","35","","24.1","","100.63","","","","-12","","Mostly Cloudy"
"-62.28","82.52","ALERT A","2400302","2019-10-10 10:00","2019","10","10","10:00","-3.2","","-7.8","","70","","","","22","","37","","24.1","","100.61","","","","-11","","Mostly Cloudy"
"-62.28","82.52","ALERT A","2400302","2019-10-10 11:00","2019","10","10","11:00","-3.3","","-7.9","","70","","","","20","","34","","24.1","","100.62","","","","-11","","Mostly Cloudy"
"-62.28","82.52","ALERT A","2400302","2019-10-10 12:00","2019","10","10","12:00","-3.2","","-7.2","","74","","","","21","","30","","24.1","","100.62","","","","-11","","Mostly Cloudy"
"-62.28","82.52","ALERT A","2400302","2019-10-10 13:00","2019","10","10","13:00","-2.9","","-7.0","","73","","","","22","","28","","24.1","","100.61","","","","-10","","Mostly Cloudy"
"-62.28","82.52","ALERT A","2400302","2019-10-10 14:00","2019","10","10","14:00","-2.8","","-7.0","","73","","","","23","","54","","24.1","","100.55","","","","-12","","Mostly Cloudy"
"-62.28","82.52","ALERT A","2400302","2019-10-10 15:00","2019","10","10","15:00","-3.3","","-7.5","","73","","","","23","","22","","24.1","","100.66","","","","-10","","Cloudy"
"-62.28","82.52","ALERT A","2400302","2019-10-10 16:00","2019","10","10","16:00","-3.7","","-7.8","","73","","","","22","","18","","24.1","","100.66","","","","-10","","Cloudy"
"-62.28","82.52","ALERT A","2400302","2019-10-10 17:00","2019","10","10","17:00"
"-62.28","82.52","ALERT A","2400302","2019-10-10 18:00","2019","10","10","18:00"
"-62.28","82.52","ALERT A","2400302","2019-10-10 19:00","2019","10","10","19:00"
"-62.28","82.52","ALERT A","2400302","2019-10-10 20:00","2019","10","10","20:00"
"-62.28","82.52","ALERT A","2400302","2019-10-10 21:00","2019","10","10","21:00"
"-62.28","82.52","ALERT A","2400302","2019-10-10 22:00","2019","10","10","22:00"
"-62.28","82.52","ALERT A","2400302","2019-10-10 23:00","2019","10","10","23:00"
"-62.28","82.52","ALERT A","2400302","2019-10-11 00:00","2019","10","11","00:00"
"-62.28","82.52","ALERT A","2400302","2019-10-11 01:00","2019","10","11","01:00"
"-62.28","82.52","ALERT A","2400302","2019-10-11 02:00","2019","10","11","02:00"
"-62.28","82.52","ALERT A","2400302","2019-10-11 03:00","2019","10","11","03:00"
"-62.28","82.52","ALERT A","2400302","2019-10-11 04:00","2019","10","11","04:00"
"-62.28","82.52","ALERT A","2400302","2019-10-11 05:00","2019","10","11","05:00"
"-62.28","82.52","ALERT A","2400302","2019-10-11 06:00","2019","10","11","06:00"
"-62.28","82.52","ALERT A","2400302","2019-10-11 07:00","2019","10","11","07:00","-9.0","","-9.8","","94","","","","28","","13","","24.1","","100.08","","","","-15","","Mostly Cloudy"
"-62.28","82.52","ALERT A","2400302","2019-10-11 08:00","2019","10","11","08:00","-8.6","","-9.5","","93","","","","18","","8","","24.1","","100.09","","","","-13","","Mostly Cloudy"
"-62.28","82.52","ALERT A","2400302","2019-10-11 09:00","2019","10","11","09:00","-6.9","","-8.4","","89","","","","","","0","","24.1","","100.06","","","","","","Mostly Cloudy"
"-62.28","82.52","ALERT A","2400302","2019-10-11 10:00","2019","10","11","10:00","-7.6","","-8.7","","92","","","","","","0","","24.1","","100.06","","","","","","Mostly Cloudy"
"-62.28","82.52","ALERT A","2400302","2019-10-11 11:00","2019","10","11","11:00","-7.5","","-8.0","","96","","","","32","","4","","24.1","","100.02","","","","-10","","Mostly Cloudy"
"-62.28","82.52","ALERT A","2400302","2019-10-11 12:00","2019","10","11","12:00","-8.2","","-8.4","","98","","","","","","0","","24.1","","100.01","","","","","","Cloudy"
"-62.28","82.52","ALERT A","2400302","2019-10-11 13:00","2019","10","11","13:00","-8.2","","-8.7","","96","","","","32","","4","","4.8","","99.99","","","","-10","","Fog"
"-62.28","82.52","ALERT A","2400302","2019-10-11 14:00","2019","10","11","14:00","-8.7","","-9.3","","95","","","","29","","5","","1.6","","99.95","","","","-11","","Fog"
"-62.28","82.52","ALERT A","2400302","2019-10-11 15:00","2019","10","11","15:00","-8.8","","-9.5","","95","","","","27","","5","","4.8","","99.98","","","","-12","","Fog"
"-62.28","82.52","ALERT A","2400302","2019-10-11 16:00","2019","10","11","16:00","-8.3","","-8.9","","95","","","","29","","4","","3.2","","99.98","","","","-10","","Fog"
"-62.28","82.52","ALERT A","2400302","2019-10-11 17:00","2019","10","11","17:00"
"-62.28","82.52","ALERT A","2400302","2019-10-11 18:00","2019","10","11","18:00"
"-62.28","82.52","ALERT A","2400302","2019-10-11 19:00","2019","10","11","19:00"
"-62.28","82.52","ALERT A","2400302","2019-10-11 20:00","2019","10","11","20:00"
"-62.28","82.52","ALERT A","2400302","2019-10-11 21:00","2019","10","11","21:00"
"-62.28","82.52","ALERT A","2400302","2019-10-11 22:00","2019","10","11","22:00"
"-62.28","82.52","ALERT A","2400302","2019-10-11 23:00","2019","10","11","23:00"
"-62.28","82.52","ALERT A","2400302","2019-10-12 00:00","2019","10","12","00:00"
"-62.28","82.52","ALERT A","2400302","2019-10-12 01:00","2019","10","12","01:00"
"-62.28","82.52","ALERT A","2400302","2019-10-12 02:00","2019","10","12","02:00"
"-62.28","82.52","ALERT A","2400302","2019-10-12 03:00","2019","10","12","03:00"
"-62.28","82.52","ALERT A","2400302","2019-10-12 04:00","2019","10","12","04:00"
"-62.28","82.52","ALERT A","2400302","2019-10-12 05:00","2019","10","12","05:00"
"-62.28","82.52","ALERT A","2400302","2019-10-12 06:00","2019","10","12","06:00"
"-62.28","82.52","ALERT A","2400302","2019-10-12 07:00","2019","10","12","07:00"
"-62.28","82.52","ALERT A","2400302","2019-10-12 08:00","2019","10","12","08:00"
"-62.28","82.52","ALERT A","2400302","2019-10-12 09:00","2019","10","12","09:00"
"-62.28","82.52","ALERT A","2400302","2019-10-12 10:00","2019","10","12","10:00"
"-62.28","82.52","ALERT A","2400302","2019-10-12 11:00","2019","10","12","11:00"
"-62.28","82.52","ALERT A","2400302","2019-10-12 12:00","2019","10","12","12:00"
"-62.28","82.52","ALERT A","2400302","2019-10-12 13:00","2019","10","12","13:00"
"-62.28","82.52","ALERT A","2400302","2019-10-12 14:00","2019","10","12","14:00"
"-62.28","82.52","ALERT A","2400302","2019-10-12 15:00","2019","10","12","15:00"
"-62.28","82.52","ALERT A","2400302","2019-10-12 16:00","2019","10","12","16:00"
"-62.28","82.52","ALERT A","2400302","2019-10-12 17:00","2019","10","12","17:00"
"-62.28","82.52","ALERT A","2400302","2019-10-12 18:00","2019","10","12","18:00"
"-62.28","82.52","ALERT A","2400302","2019-10-12 19:00","2019","10","12","19:00"
"-62.28","82.52","ALERT A","2400302","2019-10-12 20:00","2019","10","12","20:00"
"-62.28","82.52","ALERT A","2400302","2019-10-12 21:00","2019","10","12","21:00"
"-62.28","82.52","ALERT A","2400302","2019-10-12 22:00","2019","10","12","22:00"
"-62.28","82.52","ALERT A","2400302","2019-10-12 23:00","2019","10","12","23:00"
"-62.28","82.52","ALERT A","2400302","2019-10-13 00:00","2019","10","13","00:00"
"-62.28","82.52","ALERT A","2400302","2019-10-13 01:00","2019","10","13","01:00"
"-62.28","82.52","ALERT A","2400302","2019-10-13 02:00","2019","10","13","02:00"
"-62.28","82.52","ALERT A","2400302","2019-10-13 03:00","2019","10","13","03:00"
"-62.28","82.52","ALERT A","2400302","2019-10-13 04:00","2019","10","13","04:00"
"-62.28","82.52","ALERT A","2400302","2019-10-13 05:00","2019","10","13","05:00"
"-62.28","82.52","ALERT A","2400302","2019-10-13 06:00","2019","10","13","06:00"
"-62.28","82.52","ALERT A","2400302","2019-10-13 07:00","2019","10","13","07:00"
"-62.28","82.52","ALERT A","2400302","2019-10-13 08:00","2019","10","13","08:00"
"-62.28","82.52","ALERT A","2400302","2019-10-13 09:00","2019","10","13","09:00"
"-62.28","82.52","ALERT A","2400302","2019-10-13 10:00","2019","10","13","10:00"
"-62.28","82.52","ALERT A","2400302","2019-10-13 11:00","2019","10","13","11:00"
"-62.28","82.52","ALERT A","2400302","2019-10-13 12:00","2019","10","13","12:00"
"-62.28","82.52","ALERT A","2400302","2019-10-13 13:00","2019","10","13","13:00"
"-62.28","82.52","ALERT A","2400302","2019-10-13 14:00","2019","10","13","14:00"
"-62.28","82.52","ALERT A","2400302","2019-10-13 15:00","2019","10","13","15:00"
"-62.28","82.52","ALERT A","2400302","2019-10-13 16:00","2019","10","13","16:00"
"-62.28","82.52","ALERT A","2400302","2019-10-13 17:00","2019","10","13","17:00"
"-62.28","82.52","ALERT A","2400302","2019-10-13 18:00","2019","10","13","18:00"
"-62.28","82.52","ALERT A","2400302","2019-10-13 19:00","2019","10","13","19:00"
"-62.28","82.52","ALERT A","2400302","2019-10-13 20:00","2019","10","13","20:00"
"-62.28","82.52","ALERT A","2400302","2019-10-13 21:00","2019","10","13","21:00"
"-62.28","82.52","ALERT A","2400302","2019-10-13 22:00","2019","10","13","22:00"
"-62.28","82.52","ALERT A","2400302","2019-10-13 23:00","2019","10","13","23:00"
"-62.28","82.52","ALERT A","2400302","2019-10-14 00:00","2019","10","14","00:00"
"-62.28","82.52","ALERT A","2400302","2019-10-14 01:00","2019","10","14","01:00"
"-62.28","82.52","ALERT A","2400302","2019-10-14 02:00","2019","10","14","02:00"
"-62.28","82.52","ALERT A","2400302","2019-10-14 03:00","2019","10","14","03:00"
"-62.28","82.52","ALERT A","2400302","2019-10-14 04:00","2019","10","14","04:00"
"-62.28","82.52","ALERT A","2400302","2019-10-14 05:00","2019","10","14","05:00"
"-62.28","82.52","ALERT A","2400302","2019-10-14 06:00","2019","10","14","06:00"
"-62.28","82.52","ALERT A","2400302","2019-10-14 07:00","2019","10","14","07:00"
"-62.28","82.52","ALERT A","2400302","2019-10-14 08:00","2019","10","14","08:00"
"-62.28","82.52","ALERT A","2400302","2019-10-14 09:00","2019","10","14","09:00"
"-62.28","82.52","ALERT A","2400302","2019-10-14 10:00","2019","10","14","10:00"
"-62.28","82.52","ALERT A","2400302","2019-10-14 11:00","2019","10","14","11:00"
"-62.28","82.52","ALERT A","2400302","2019-10-14 12:00","2019","10","14","12:00"
"-62.28","82.52","ALERT A","2400302","2019-10-14 13:00","2019","10","14","13:00"
"-62.28","82.52","ALERT A","2400302","2019-10-14 14:00","2019","10","14","14:00"
"-62.28","82.52","ALERT A","2400302","2019-10-14 15:00","2019","10","14","15:00"
"-62.28","82.52","ALERT A","2400302","2019-10-14 16:00","2019","10","14","16:00"
"-62.28","82.52","ALERT A","2400302","2019-10-14 17:00","2019","10","14","17:00"
"-62.28","82.52","ALERT A","2400302","2019-10-14 18:00","2019","10","14","18:00"
"-62.28","82.52","ALERT A","2400302","2019-10-14 19:00","2019","10","14","19:00"
"-62.28","82.52","ALERT A","2400302","2019-10-14 20:00","2019","10","14","20:00"
"-62.28","82.52","ALERT A","2400302","2019-10-14 21:00","2019","10","14","21:00"
"-62.28","82.52","ALERT A","2400302","2019-10-14 22:00","2019","10","14","22:00"
"-62.28","82.52","ALERT A","2400302","2019-10-14 23:00","2019","10","14","23:00"
"-62.28","82.52","ALERT A","2400302","2019-10-15 00:00","2019","10","15","00:00"
"-62.28","82.52","ALERT A","2400302","2019-10-15 01:00","2019","10","15","01:00"
"-62.28","82.52","ALERT A","2400302","2019-10-15 02:00","2019","10","15","02:00"
"-62.28","82.52","ALERT A","2400302","2019-10-15 03:00","2019","10","15","03:00"
"-62.28","82.52","ALERT A","2400302","2019-10-15 04:00","2019","10","15","04:00"
"-62.28","82.52","ALERT A","2400302","2019-10-15 05:00","2019","10","15","05:00"
"-62.28","82.52","ALERT A","2400302","2019-10-15 06:00","2019","10","15","06:00"
"-62.28","82.52","ALERT A","2400302","2019-10-15 07:00","2019","10","15","07:00"
"-62.28","82.52","ALERT A","2400302","2019-10-15 08:00","2019","10","15","08:00","-6.2","","-11.5","","66","","","","28","","35","","24.1","","100.07","","","","-15","","Cloudy"
"-62.28","82.52","ALERT A","2400302","2019-10-15 09:00","2019","10","15","09:00","-5.7","","-10.6","","68","","","","27","","31","","24.1","","100.04","","","","-14","","Cloudy"
"-62.28","82.52","ALERT A","2400302","2019-10-15 10:00","2019","10","15","10:00","-5.9","","-10.7","","69","","","","27","","21","","24.1","","100.07","","","","-13","","Cloudy"
"-62.28","82.52","ALERT A","2400302","2019-10-15 11:00","2019","10","15","11:00","-5.4","","-10.2","","69","","","","28","","28","","24.1","","100.04","","","","-13","","Mostly Cloudy"
"-62.28","82.52","ALERT A","2400302","2019-10-15 12:00","2019","10","15","12:00","-6.0","","-11.0","","68","","","","33","","18","","24.1","","100.05","","","","-12","","Mostly Cloudy"
"-62.28","82.52","ALERT A","2400302","2019-10-15 13:00","2019","10","15","13:00","-6.3","","-10.9","","70","","","","28","","28","","24.1","","100.02","","","","-14","","Mostly Cloudy"
"-62.28","82.52","ALERT A","2400302","2019-10-15 14:00","2019","10","15","14:00","-8.9","","-12.6","","75","","","","33","","9","","24.1","","100.03","","","","-14","","Mostly Cloudy"
"-62.28","82.52","ALERT A","2400302","2019-10-15 15:00","2019","10","15","15:00","-10.6","","-13.0","","82","","","","6","","9","","24.1","","100.08","","","","-16","","Mostly Cloudy"
"-62.28","82.52","ALERT A","2400302","2019-10-15 16:00","2019","10","15","16:00","-11.4","","-13.9","","82","","","","3","","5","","24.1","","100.13","","","","-15","","Mostly Cloudy"
"-62.28","82.52","ALERT A","2400302","2019-10-15 17:00","2019","10","15","17:00"
"-62.28","82.52","ALERT A","2400302","2019-10-15 18:00","2019","10","15","18:00"
"-62.28","82.52","ALERT A","2400302","2019-10-15 19:00","2019","10","15","19:00"
"-62.28","82.52","ALERT A","2400302","2019-10-15 20:00","2019","10","15","20:00"
"-62.28","82.52","ALERT A","2400302","2019-10-15 21:00","2019","10","15","21:00"
"-62.28","82.52","ALERT A","2400302","2019-10-15 22:00","2019","10","15","22:00"
"-62.28","82.52","ALERT A","2400302","2019-10-15 23:00","2019","10","15","23:00"
"-62.28","82.52","ALERT A","2400302","2019-10-16 00:00","2019","10","16","00:00"
"-62.28","82.52","ALERT A","2400302","2019-10-16 01:00","2019","10","16","01:00","-13.6","","-14.8","","91","","","","2","","4","","14.5","","100.27","","","","-16","","Snow"
"-62.28","82.52","ALERT A","2400302","2019-10-16 02:00","2019","10","16","02:00","-13.4","","-14.6","","91","","","","1","","5","","14.5","","100.31","","","","-17","","Snow"
"-62.28","82.52","ALERT A","2400302","2019-10-16 03:00","2019","10","16","03:00","-13.7","","-14.9","","91","","","","32","","8","","19.3","","100.34","","","","-19","","Snow"
"-62.28","82.52","ALERT A","2400302","2019-10-16 04:00","2019","10","16","04:00","-13.6","","-14.8","","91","","","","35","","8","","19.3","","100.37","","","","-19","","Snow"
"-62.28","82.52","ALERT A","2400302","2019-10-16 05:00","2019","10","16","05:00","-14.4","","-15.8","","89","","","","33","","5","","19.3","","100.40","","","","-18","","Cloudy"
"-62.28","82.52","ALERT A","2400302","2019-10-16 06:00","2019","10","16","06:00","-14.2","","-15.6","","89","","","","32","","4","","19.3","","100.43","","","","-17","","Cloudy"
"-62.28","82.52","ALERT A","2400302","2019-10-16 07:00","2019","10","16","07:00","-13.1","","-14.3","","91","","","","21","","4","","19.3","","100.44","","","","-16","","Snow"
"-62.28","82.52","ALERT A","2400302","2019-10-16 08:00","2019","10","16","08:00","-13.2","","-14.4","","91","","","","24","","5","","16.1","","100.43","","","","-17","","Cloudy"
"-62.28","82.52","ALERT A","2400302","2019-10-16 09:00","2019","10","16","09:00","-13.8","","-15.1","","90","","","","19","","9","","9.7","","100.42","","","","-19","","Fog"
"-62.28","82.52","ALERT A","2400302","2019-10-16 10:00","2019","10","16","10:00","-12.8","","-14.0","","91","","","","16","","9","","9.7","","100.39","","","","-18","","Fog"
"-62.28","82.52","ALERT A","2400302","2019-10-16 11:00","2019","10","16","11:00","-11.4","","-12.6","","91","","","","27","","22","","19.3","","100.33","","","","-20","","Snow"
"-62.28","82.52","ALERT A","2400302","2019-10-16 12:00","2019","10","16","12:00","-10.7","","-12.8","","84","","","","29","","26","","19.3","","100.32","","","","-20","","Mostly Cloudy"
"-62.28","82.52","ALERT A","2400302","2019-10-16 13:00","2019","10","16","13:00","-10.6","","-14.0","","76","","","","27","","28","","24.1","","100.29","","","","-20","","Mostly Cloudy"
"-62.28","82.52","ALERT A","2400302","2019-10-16 14:00","2019","10","16","14:00","-10.9","","-14.8","","73","","","","29","","35","","24.1","","100.32","","","","-21","","Mostly Cloudy"
"-62.28","82.52","ALERT A","2400302","2019-10-16 15:00","2019","10","16","15:00","-11.3","","-15.4","","72","","","","31","","35","","24.1","","100.33","","","","-22","","Mainly Clear"
"-62.28","82.52","ALERT A","2400302","2019-10-16 16:00","2019","10","16","16:00","-10.8","","-14.6","","74","","","","27","","43","","24.1","","100.32","","","","-22","","Mainly Clear"
"-62.28","82.52","ALERT A","2400302","2019-10-16 17:00","2019","10","16","17:00"
"-62.28","82.52","ALERT A","2400302","2019-10-16 18:00","2019","10","16","18:00"
"-62.28","82.52","ALERT A","2400302","2019-10-16 19:00","2019","10","16","19:00"
"-62.28","82.52","ALERT A","2400302","2019-10-16 20:00","2019","10","16","20:00"
"-62.28","82.52","ALERT A","2400302","2019-10-16 21:00","2019","10","16","21:00"
"-62.28","82.52","ALERT A","2400302","2019-10-16 22:00","2019","10","16","22:00"
"-62.28","82.52","ALERT A","2400302","2019-10-16 23:00","2019","10","16","23:00"
"-62.28","82.52","ALERT A","2400302","2019-10-17 00:00","2019","10","17","00:00"
"-62.28","82.52","ALERT A","2400302","2019-10-17 01:00","2019","10","17","01:00"
"-62.28","82.52","ALERT A","2400302","2019-10-17 02:00","2019","10","17","02:00"
"-62.28","82.52","ALERT A","2400302","2019-10-17 03:00","2019","10","17","03:00","-15.7","","-17.3","","87","","","","9","","5","","24.1","","100.69","","","","-19","","Mainly Clear"
"-62.28","82.52","ALERT A","2400302","2019-10-17 04:00","2019","10","17","04:00","-15.4","","-16.9","","88","","","","1","","8","","24.1","","100.72","","","","-21","","Mainly Clear"
"-62.28","82.52","ALERT A","2400302","2019-10-17 05:00","2019","10","17","05:00","-15.6","","-17.0","","89","","","","36","","5","","24.1","","100.76","","","","-19","","Mainly Clear"
"-62.28","82.52","ALERT A","2400302","2019-10-17 06:00","2019","10","17","06:00","-15.6","","-17.1","","88","","","","5","","4","","19.3","","100.77","","","","-19","","Snow"
"-62.28","82.52","ALERT A","2400302","2019-10-17 07:00","2019","10","17","07:00","-16.6","","-18.2","","87","","","","36","","8","","19.3","","100.78","","","","-22","","Snow"
"-62.28","82.52","ALERT A","2400302","2019-10-17 08:00","2019","10","17","08:00","-16.8","","-18.5","","87","","","","36","","8","","3.2","","100.82","","","","-22","","Snow,Fog"
"-62.28","82.52","ALERT A","2400302","2019-10-17 09:00","2019","10","17","09:00","-16.4","","-18.0","","87","","","","","","0","","1.0","","100.83","","","","","","Snow,Fog"
"-62.28","82.52","ALERT A","2400302","2019-10-17 10:00","2019","10","17","10:00","-17.0","","-18.7","","87","","","","","","0","","1.2","","100.83","","","","","","Snow,Fog"
"-62.28","82.52","ALERT A","2400302","2019-10-17 11:00","2019","10","17","11:00","-17.6","","-19.4","","86","","","","","","0","","0.4","","100.87","","","","","","Freezing Fog"
"-62.28","82.52","ALERT A","2400302","2019-10-17 12:00","2019","10","17","12:00","-16.7","","-18.4","","87","","","","","","0","","1.6","","100.86","","","","","","Snow,Fog"
"-62.28","82.52","ALERT A","2400302","2019-10-17 13:00","2019","10","17","13:00","-16.6","","-18.2","","87","","","","","","0","","1.6","","100.89","","","","","","Snow,Fog"
"-62.28","82.52","ALERT A","2400302","2019-10-17 14:00","2019","10","17","14:00","-17.3","","-19.0","","87","","","","5","","4","","24.1","","100.88","","","","-20","","Mostly Cloudy"
"-62.28","82.52","ALERT A","2400302","2019-10-17 15:00","2019","10","17","15:00","-17.3","","-19.0","","87","","","","3","","5","","24.1","","100.89","","","","-21","","Mostly Cloudy"
"-62.28","82.52","ALERT A","2400302","2019-10-17 16:00","2019","10","17","16:00","-18.0","","-19.8","","86","","","","34","","5","","24.1","","100.91","","","","-22","","Mostly Cloudy"
"-62.28","82.52","ALERT A","2400302","2019-10-17 17:00","2019","10","17","17:00"
"-62.28","82.52","ALERT A","2400302","2019-10-17 18:00","2019","10","17","18:00"
"-62.28","82.52","ALERT A","2400302","2019-10-17 19:00","2019","10","17","19:00"
"-62.28","82.52","ALERT A","2400302","2019-10-17 20:00","2019","10","17","20:00"
"-62.28","82.52","ALERT A","2400302","2019-10-17 21:00","2019","10","17","21:00"
"-62.28","82.52","ALERT A","2400302","2019-10-17 22:00","2019","10","17","22:00"
"-62.28","82.52","ALERT A","2400302","2019-10-17 23:00","2019","10","17","23:00"
"-62.28","82.52","ALERT A","2400302","2019-10-18 00:00","2019","10","18","00:00"
"-62.28","82.52","ALERT A","2400302","2019-10-18 01:00","2019","10","18","01:00"
"-62.28","82.52","ALERT A","2400302","2019-10-18 02:00","2019","10","18","02:00"
"-62.28","82.52","ALERT A","2400302","2019-10-18 03:00","2019","10","18","03:00"
"-62.28","82.52","ALERT A","2400302","2019-10-18 04:00","2019","10","18","04:00"
"-62.28","82.52","ALERT A","2400302","2019-10-18 05:00","2019","10","18","05:00"
"-62.28","82.52","ALERT A","2400302","2019-10-18 06:00","2019","10","18","06:00"
"-62.28","82.52","ALERT A","2400302","2019-10-18 07:00","2019","10","18","07:00"
"-62.28","82.52","ALERT A","2400302","2019-10-18 08:00","2019","10","18","08:00","-15.7","","-17.2","","88","","","","2","","8","","6.4","","101.18","","","","-21","","Snow,Fog"
"-62.28","82.52","ALERT A","2400302","2019-10-18 09:00","2019","10","18","09:00","-15.7","","-17.2","","88","","","","3","","17","","6.4","","101.16","","","","-24","","Snow,Fog"
"-62.28","82.52","ALERT A","2400302","2019-10-18 10:00","2019","10","18","10:00","-16.0","","-17.6","","87","","","","3","","17","","3.2","","101.15","","","","-25","","Snow,Fog"
"-62.28","82.52","ALERT A","2400302","2019-10-18 11:00","2019","10","18","11:00","-16.5","","-18.1","","87","","","","2","","13","","3.2","","101.14","","","","-24","","Snow,Fog"
"-62.28","82.52","ALERT A","2400302","2019-10-18 12:00","2019","10","18","12:00","-16.9","","-18.6","","87","","","","36","","11","","3.2","","101.16","","","","-24","","Snow,Fog"
"-62.28","82.52","ALERT A","2400302","2019-10-18 13:00","2019","10","18","13:00","-16.4","","-18.0","","87","","","","36","","15","","8.1","","101.17","","","","-25","","Snow,Fog"
"-62.28","82.52","ALERT A","2400302","2019-10-18 14:00","2019","10","18","14:00","-16.3","","-17.8","","88","","","","1","","15","","8.1","","101.21","","","","-25","","Snow,Fog"
"-62.28","82.52","ALERT A","2400302","2019-10-18 15:00","2019","10","18","15:00","-15.9","","-17.4","","88","","","","35","","18","","8.1","","101.24","","","","-25","","Snow,Fog"
"-62.28","82.52","ALERT A","2400302","2019-10-18 16:00","2019","10","18","16:00","-15.9","","-17.4","","88","","","","31","","9","","8.1","","101.31","","","","-22","","Snow,Fog"
"-62.28","82.52","ALERT A","2400302","2019-10-18 17:00","2019","10","18","17:00"
"-62.28","82.52","ALERT A","2400302","2019-10-18 18:00","2019","10","18","18:00"
"-62.28","82.52","ALERT A","2400302","2019-10-18 19:00","2019","10","18","19:00"
"-62.28","82.52","ALERT A","2400302","2019-10-18 20:00","2019","10","18","20:00"
"-62.28","82.52","ALERT A","2400302","2019-10-18 21:00","2019","10","18","21:00"
"-62.28","82.52","ALERT A","2400302","2019-10-18 22:00","2019","10","18","22:00"
"-62.28","82.52","ALERT A","2400302","2019-10-18 23:00","2019","10","18","23:00"
"-62.28","82.52","ALERT A","2400302","2019-10-19 00:00","2019","10","19","00:00"
"-62.28","82.52","ALERT A","2400302","2019-10-19 01:00","2019","10","19","01:00"
"-62.28","82.52","ALERT A","2400302","2019-10-19 02:00","2019","10","19","02:00"
"-62.28","82.52","ALERT A","2400302","2019-10-19 03:00","2019","10","19","03:00"
"-62.28","82.52","ALERT A","2400302","2019-10-19 04:00","2019","10","19","04:00"
"-62.28","82.52","ALERT A","2400302","2019-10-19 05:00","2019","10","19","05:00"
"-62.28","82.52","ALERT A","2400302","2019-10-19 06:00","2019","10","19","06:00"
"-62.28","82.52","ALERT A","2400302","2019-10-19 07:00","2019","10","19","07:00"
"-62.28","82.52","ALERT A","2400302","2019-10-19 08:00","2019","10","19","08:00"
"-62.28","82.52","ALERT A","2400302","2019-10-19 09:00","2019","10","19","09:00"
"-62.28","82.52","ALERT A","2400302","2019-10-19 10:00","2019","10","19","10:00"
"-62.28","82.52","ALERT A","2400302","2019-10-19 11:00","2019","10","19","11:00"
"-62.28","82.52","ALERT A","2400302","2019-10-19 12:00","2019","10","19","12:00"
"-62.28","82.52","ALERT A","2400302","2019-10-19 13:00","2019","10","19","13:00"
"-62.28","82.52","ALERT A","2400302","2019-10-19 14:00","2019","10","19","14:00"
"-62.28","82.52","ALERT A","2400302","2019-10-19 15:00","2019","10","19","15:00"
"-62.28","82.52","ALERT A","2400302","2019-10-19 16:00","2019","10","19","16:00"
"-62.28","82.52","ALERT A","2400302","2019-10-19 17:00","2019","10","19","17:00"
"-62.28","82.52","ALERT A","2400302","2019-10-19 18:00","2019","10","19","18:00"
"-62.28","82.52","ALERT A","2400302","2019-10-19 19:00","2019","10","19","19:00"
"-62.28","82.52","ALERT A","2400302","2019-10-19 20:00","2019","10","19","20:00"
"-62.28","82.52","ALERT A","2400302","2019-10-19 21:00","2019","10","19","21:00"
"-62.28","82.52","ALERT A","2400302","2019-10-19 22:00","2019","10","19","22:00"
"-62.28","82.52","ALERT A","2400302","2019-10-19 23:00","2019","10","19","23:00"
"-62.28","82.52","ALERT A","2400302","2019-10-20 00:00","2019","10","20","00:00"
"-62.28","82.52","ALERT A","2400302","2019-10-20 01:00","2019","10","20","01:00"
"-62.28","82.52","ALERT A","2400302","2019-10-20 02:00","2019","10","20","02:00"
"-62.28","82.52","ALERT A","2400302","2019-10-20 03:00","2019","10","20","03:00"
"-62.28","82.52","ALERT A","2400302","2019-10-20 04:00","2019","10","20","04:00"
"-62.28","82.52","ALERT A","2400302","2019-10-20 05:00","2019","10","20","05:00"
"-62.28","82.52","ALERT A","2400302","2019-10-20 06:00","2019","10","20","06:00"
"-62.28","82.52","ALERT A","2400302","2019-10-20 07:00","2019","10","20","07:00"
"-62.28","82.52","ALERT A","2400302","2019-10-20 08:00","2019","10","20","08:00"
"-62.28","82.52","ALERT A","2400302","2019-10-20 09:00","2019","10","20","09:00"
"-62.28","82.52","ALERT A","2400302","2019-10-20 10:00","2019","10","20","10:00"
"-62.28","82.52","ALERT A","2400302","2019-10-20 11:00","2019","10","20","11:00"
"-62.28","82.52","ALERT A","2400302","2019-10-20 12:00","2019","10","20","12:00"
"-62.28","82.52","ALERT A","2400302","2019-10-20 13:00","2019","10","20","13:00"
"-62.28","82.52","ALERT A","2400302","2019-10-20 14:00","2019","10","20","14:00"
"-62.28","82.52","ALERT A","2400302","2019-10-20 15:00","2019","10","20","15:00"
"-62.28","82.52","ALERT A","2400302","2019-10-20 16:00","2019","10","20","16:00"
"-62.28","82.52","ALERT A","2400302","2019-10-20 17:00","2019","10","20","17:00"
"-62.28","82.52","ALERT A","2400302","2019-10-20 18:00","2019","10","20","18:00"
"-62.28","82.52","ALERT A","2400302","2019-10-20 19:00","2019","10","20","19:00"
"-62.28","82.52","ALERT A","2400302","2019-10-20 20:00","2019","10","20","20:00"
"-62.28","82.52","ALERT A","2400302","2019-10-20 21:00","2019","10","20","21:00"
"-62.28","82.52","ALERT A","2400302","2019-10-20 22:00","2019","10","20","22:00"
"-62.28","82.52","ALERT A","2400302","2019-10-20 23:00","2019","10","20","23:00"
"-62.28","82.52","ALERT A","2400302","2019-10-21 00:00","2019","10","21","00:00"
"-62.28","82.52","ALERT A","2400302","2019-10-21 01:00","2019","10","21","01:00"
"-62.28","82.52","ALERT A","2400302","2019-10-21 02:00","2019","10","21","02:00"
"-62.28","82.52","ALERT A","2400302","2019-10-21 03:00","2019","10","21","03:00"
"-62.28","82.52","ALERT A","2400302","2019-10-21 04:00","2019","10","21","04:00"
"-62.28","82.52","ALERT A","2400302","2019-10-21 05:00","2019","10","21","05:00"
"-62.28","82.52","ALERT A","2400302","2019-10-21 06:00","2019","10","21","06:00"
"-62.28","82.52","ALERT A","2400302","2019-10-21 07:00","2019","10","21","07:00"
"-62.28","82.52","ALERT A","2400302","2019-10-21 08:00","2019","10","21","08:00","-15.3","","-19.1","","73","","","","17","","5","","24.1","","102.80","","","","-19","","Mostly Cloudy"
"-62.28","82.52","ALERT A","2400302","2019-10-21 09:00","2019","10","21","09:00","-15.0","","-19.4","","69","","","","21","","5","","24.1","","102.80","","","","-19","","Cloudy"
"-62.28","82.52","ALERT A","2400302","2019-10-21 10:00","2019","10","21","10:00","-14.6","","-18.6","","72","","","","25","","5","","24.1","","102.80","","","","-18","","Cloudy"
"-62.28","82.52","ALERT A","2400302","2019-10-21 11:00","2019","10","21","11:00","-14.5","","-18.6","","71","","","","20","","4","","24.1","","102.81","","","","-17","","Cloudy"
"-62.28","82.52","ALERT A","2400302","2019-10-21 12:00","2019","10","21","12:00","-14.3","","-18.7","","69","","","","26","","8","","24.1","","102.76","","","","-20","","Cloudy"
"-62.28","82.52","ALERT A","2400302","2019-10-21 13:00","2019","10","21","13:00","-14.3","","-19.6","","64","","","","29","","15","","24.1","","102.70","","","","-22","","Mostly Cloudy"
"-62.28","82.52","ALERT A","2400302","2019-10-21 14:00","2019","10","21","14:00","-14.7","","-19.3","","68","","","","26","","15","","24.1","","102.71","","","","-23","","Mostly Cloudy"
"-62.28","82.52","ALERT A","2400302","2019-10-21 15:00","2019","10","21","15:00","-13.7","","-18.6","","66","","","","28","","24","","24.1","","102.71","","","","-23","","Mostly Cloudy"
"-62.28","82.52","ALERT A","2400302","2019-10-21 16:00","2019","10","21","16:00","-17.4","","-20.6","","76","","","","35","","9","","24.1","","102.73","","","","-24","","Mostly Cloudy"
"-62.28","82.52","ALERT A","2400302","2019-10-21 17:00","2019","10","21","17:00"
"-62.28","82.52","ALERT A","2400302","2019-10-21 18:00","2019","10","21","18:00"
"-62.28","82.52","ALERT A","2400302","2019-10-21 19:00","2019","10","21","19:00"
"-62.28","82.52","ALERT A","2400302","2019-10-21 20:00","2019","10","21","20:00"
"-62.28","82.52","ALERT A","2400302","2019-10-21 21:00","2019","10","21","21:00"
"-62.28","82.52","ALERT A","2400302","2019-10-21 22:00","2019","10","21","22:00"
"-62.28","82.52","ALERT A","2400302","2019-10-21 23:00","2019","10","21","23:00"
"-62.28","82.52","ALERT A","2400302","2019-10-22 00:00","2019","10","22","00:00"
"-62.28","82.52","ALERT A","2400302","2019-10-22 01:00","2019","10","22","01:00","-19.4","","-21.2","","86","","","","26","","4","","24.1","","102.60","","","","-23","","Clear"
"-62.28","82.52","ALERT A","2400302","2019-10-22 02:00","2019","10","22","02:00","-19.7","","-21.6","","85","","","","21","","5","","24.1","","102.55","","","","-24","","Clear"
"-62.28","82.52","ALERT A","2400302","2019-10-22 03:00","2019","10","22","03:00","-19.8","","-22.1","","82","","","","22","","4","","24.1","","102.52","","","","-23","","Clear"
"-62.28","82.52","ALERT A","2400302","2019-10-22 04:00","2019","10","22","04:00","-18.2","","-20.1","","85","","","","","","0","","24.1","","102.48","","","","","","Clear"
"-62.28","82.52","ALERT A","2400302","2019-10-22 05:00","2019","10","22","05:00","-18.9","","-20.6","","86","","","","","","0","","24.1","","102.43","","","","","","Clear"
"-62.28","82.52","ALERT A","2400302","2019-10-22 06:00","2019","10","22","06:00","-19.3","","-20.7","","89","","","","","","0","","24.1","","102.39","","","","","","Mainly Clear"
"-62.28","82.52","ALERT A","2400302","2019-10-22 07:00","2019","10","22","07:00","-19.8","","-21.6","","86","","","","","","0","","9.7","","102.35","","","","","","Fog"
"-62.28","82.52","ALERT A","2400302","2019-10-22 08:00","2019","10","22","08:00","-21.2","","-23.3","","83","","","","25","","4","","9.7","","102.30","","","","-25","","Fog"
"-62.28","82.52","ALERT A","2400302","2019-10-22 09:00","2019","10","22","09:00","-20.4","","-22.4","","84","","","","","","0","","9.7","","102.27","","","","","","Fog"
"-62.28","82.52","ALERT A","2400302","2019-10-22 10:00","2019","10","22","10:00","-19.9","","-22.4","","84","","","","","","0","","9.7","","102.21","","","","","","Fog"
"-62.28","82.52","ALERT A","2400302","2019-10-22 11:00","2019","10","22","11:00","-20.1","","-22.1","","84","","","","","","0","","9.7","","102.18","","","","","","Fog"
"-62.28","82.52","ALERT A","2400302","2019-10-22 12:00","2019","10","22","12:00","-19.7","","-21.7","","84","","","","34","","4","","24.1","","102.12","","","","-23","","Mainly Clear"
"-62.28","82.52","ALERT A","2400302","2019-10-22 13:00","2019","10","22","13:00","-20.1","","-22.2","","83","","","","23","","5","","24.1","","102.06","","","","-24","","Clear"
"-62.28","82.52","ALERT A","2400302","2019-10-22 14:00","2019","10","22","14:00","-20.3","","-22.4","","83","","","","22","","5","","24.1","","102.01","","","","-25","","Clear"
"-62.28","82.52","ALERT A","2400302","2019-10-22 15:00","2019","10","22","15:00","-19.0","","-21.0","","84","","","","24","","5","","24.1","","101.98","","","","-23","","Clear"
"-62.28","82.52","ALERT A","2400302","2019-10-22 16:00","2019","10","22","16:00","-18.9","","-20.8","","85","","","","25","","4","","24.1","","101.94","","","","-22","","Clear"
"-62.28","82.52","ALERT A","2400302","2019-10-22 17:00","2019","10","22","17:00"
"-62.28","82.52","ALERT A","2400302","2019-10-22 18:00","2019","10","22","18:00"
"-62.28","82.52","ALERT A","2400302","2019-10-22 19:00","2019","10","22","19:00"
"-62.28","82.52","ALERT A","2400302","2019-10-22 20:00","2019","10","22","20:00"
"-62.28","82.52","ALERT A","2400302","2019-10-22 21:00","2019","10","22","21:00"
"-62.28","82.52","ALERT A","2400302","2019-10-22 22:00","2019","10","22","22:00"
"-62.28","82.52","ALERT A","2400302","2019-10-22 23:00","2019","10","22","23:00"
"-62.28","82.52","ALERT A","2400302","2019-10-23 00:00","2019","10","23","00:00"
"-62.28","82.52","ALERT A","2400302","2019-10-23 01:00","2019","10","23","01:00","-11.4","","-17.4","","61","","","","27","","26","","24.1","","101.50","","","","-21","","Mainly Clear"
"-62.28","82.52","ALERT A","2400302","2019-10-23 02:00","2019","10","23","02:00","-11.6","","-17.4","","62","","","","26","","30","","24.1","","101.46","","","","-22","","Mainly Clear"
"-62.28","82.52","ALERT A","2400302","2019-10-23 03:00","2019","10","23","03:00","-12.2","","-18.0","","62","","","","27","","18","","24.1","","101.45","","","","-20","","Mainly Clear"
"-62.28","82.52","ALERT A","2400302","2019-10-23 04:00","2019","10","23","04:00","-11.2","","-17.4","","60","","","","26","","24","","24.1","","101.44","","","","-20","","Mainly Clear"
"-62.28","82.52","ALERT A","2400302","2019-10-23 05:00","2019","10","23","05:00","-12.1","","-17.7","","63","","","","27","","28","","24.1","","101.44","","","","-22","","Mainly Clear"
"-62.28","82.52","ALERT A","2400302","2019-10-23 06:00","2019","10","23","06:00","-11.8","","-18.0","","60","","","","27","","22","","24.1","","101.45","","","","-21","","Mainly Clear"
"-62.28","82.52","ALERT A","2400302","2019-10-23 07:00","2019","10","23","07:00","-10.9","","-17.7","","57","","","","29","","34","","24.1","","101.42","","","","-21","","Mostly Cloudy"
"-62.28","82.52","ALERT A","2400302","2019-10-23 08:00","2019","10","23","08:00","-10.6","","-17.5","","57","","","","28","","28","","24.1","","101.41","","","","-20","","Mostly Cloudy"
"-62.28","82.52","ALERT A","2400302","2019-10-23 09:00","2019","10","23","09:00","-10.4","","-17.3","","57","","","","28","","35","","24.1","","101.40","","","","-21","","Mostly Cloudy"
"-62.28","82.52","ALERT A","2400302","2019-10-23 10:00","2019","10","23","10:00","-10.3","","-17.9","","54","","","","27","","5","","24.1","","101.41","","","","-13","","Mostly Cloudy"
"-62.28","82.52","ALERT A","2400302","2019-10-23 11:00","2019","10","23","11:00","-10.6","","-17.1","","59","","","","29","","30","","24.1","","101.37","","","","-20","","Mostly Cloudy"
"-62.28","82.52","ALERT A","2400302","2019-10-23 12:00","2019","10","23","12:00","-10.4","","-16.0","","63","","","","28","","55","","24.1","","101.28","","","","-23","","Mostly Cloudy"
"-62.28","82.52","ALERT A","2400302","2019-10-23 13:00","2019","10","23","13:00","-10.8","","-16.3","","64","","","","28","","46","","24.1","","101.34","","","","-22","","Mostly Cloudy"
"-62.28","82.52","ALERT A","2400302","2019-10-23 14:00","2019","10","23","14:00","-10.2","","-16.8","","58","","","","28","","41","","24.1","","101.33","","","","-21","","Mostly Cloudy"
"-62.28","82.52","ALERT A","2400302","2019-10-23 15:00","2019","10","23","15:00","-9.0","","-16.6","","54","","","","28","","31","","24.1","","101.41","","","","-18","","Mostly Cloudy"
"-62.28","82.52","ALERT A","2400302","2019-10-23 16:00","2019","10","23","16:00","-8.8","","-15.1","","60","","","","28","","46","","24.1","","101.34","","","","-20","","Mostly Cloudy"
"-62.28","82.52","ALERT A","2400302","2019-10-23 17:00","2019","10","23","17:00"
"-62.28","82.52","ALERT A","2400302","2019-10-23 18:00","2019","10","23","18:00"
"-62.28","82.52","ALERT A","2400302","2019-10-23 19:00","2019","10","23","19:00"
"-62.28","82.52","ALERT A","2400302","2019-10-23 20:00","2019","10","23","20:00"
"-62.28","82.52","ALERT A","2400302","2019-10-23 21:00","2019","10","23","21:00"
"-62.28","82.52","ALERT A","2400302","2019-10-23 22:00","2019","10","23","22:00"
"-62.28","82.52","ALERT A","2400302","2019-10-23 23:00","2019","10","23","23:00"
"-62.28","82.52","ALERT A","2400302","2019-10-24 00:00","2019","10","24","00:00"
"-62.28","82.52","ALERT A","2400302","2019-10-24 01:00","2019","10","24","01:00"
"-62.28","82.52","ALERT A","2400302","2019-10-24 02:00","2019","10","24","02:00"
"-62.28","82.52","ALERT A","2400302","2019-10-24 03:00","2019","10","24","03:00","-7.8","","-12.6","","68","","","","29","","39","","24.1","","101.12","","","","-18","","Mostly Cloudy"
"-62.28","82.52","ALERT A","2400302","2019-10-24 04:00","2019","10","24","04:00","-8.1","","-12.6","","70","","","","29","","34","","24.1","","101.09","","","","-18","","Mainly Clear"
"-62.28","82.52","ALERT A","2400302","2019-10-24 05:00","2019","10","24","05:00","-7.1","","-11.8","","69","","","","27","","28","","24.1","","101.07","","","","-15","","Mainly Clear"
"-62.28","82.52","ALERT A","2400302","2019-10-24 06:00","2019","10","24","06:00","-6.7","","-11.8","","67","","","","28","","31","","24.1","","101.06","","","","-15","","Mainly Clear"
"-62.28","82.52","ALERT A","2400302","2019-10-24 07:00","2019","10","24","07:00","-6.8","","-11.6","","69","","","","26","","48","","24.1","","100.96","","","","-17","","Mostly Cloudy"
"-62.28","82.52","ALERT A","2400302","2019-10-24 08:00","2019","10","24","08:00","-6.7","","-12.6","","63","","","","28","","44","","24.1","","100.99","","","","-17","","Mostly Cloudy"
"-62.28","82.52","ALERT A","2400302","2019-10-24 09:00","2019","10","24","09:00","-6.8","","-11.1","","71","","","","28","","41","","24.1","","100.94","","","","-17","","Mostly Cloudy"
"-62.28","82.52","ALERT A","2400302","2019-10-24 10:00","2019","10","24","10:00","-5.5","","-10.4","","68","","","","28","","34","","24.1","","100.87","","","","-14","","Mostly Cloudy"
"-62.28","82.52","ALERT A","2400302","2019-10-24 11:00","2019","10","24","11:00","-5.1","","-9.0","","74","","","","28","","31","","24.1","","100.75","","","","-13","","Mostly Cloudy"
"-62.28","82.52","ALERT A","2400302","2019-10-24 12:00","2019","10","24","12:00","-5.2","","-10.2","","68","","","","28","","35","","24.1","","100.72","","","","-14","","Mostly Cloudy"
"-62.28","82.52","ALERT A","2400302","2019-10-24 13:00","2019","10","24","13:00","-5.4","","-9.4","","73","","","","28","","34","","24.1","","100.62","","","","-14","","Mostly Cloudy"
"-62.28","82.52","ALERT A","2400302","2019-10-24 14:00","2019","10","24","14:00","-5.1","","-9.0","","74","","","","28","","39","","24.1","","100.55","","","","-14","","Mostly Cloudy"
"-62.28","82.52","ALERT A","2400302","2019-10-24 15:00","2019","10","24","15:00","-4.6","","-8.6","","74","","","","28","","37","","24.1","","100.49","","","","-13","","Mostly Cloudy"
"-62.28","82.52","ALERT A","2400302","2019-10-24 16:00","2019","10","24","16:00","-4.7","","-9.1","","71","","","","28","","35","","24.1","","100.41","","","","-13","","Cloudy"
"-62.28","82.52","ALERT A","2400302","2019-10-24 17:00","2019","10","24","17:00","-6.2","","-9.8","","76","","","","28","","30","","24.1","","100.37","","","","-15","","Mostly Cloudy"
"-62.28","82.52","ALERT A","2400302","2019-10-24 18:00","2019","10","24","18:00"
"-62.28","82.52","ALERT A","2400302","2019-10-24 19:00","2019","10","24","19:00"
"-62.28","82.52","ALERT A","2400302","2019-10-24 20:00","2019","10","24","20:00"
"-62.28","82.52","ALERT A","2400302","2019-10-24 21:00","2019","10","24","21:00"
"-62.28","82.52","ALERT A","2400302","2019-10-24 22:00","2019","10","24","22:00"
"-62.28","82.52","ALERT A","2400302","2019-10-24 23:00","2019","10","24","23:00"
"-62.28","82.52","ALERT A","2400302","2019-10-25 00:00","2019","10","25","00:00"
"-62.28","82.52","ALERT A","2400302","2019-10-25 01:00","2019","10","25","01:00"
"-62.28","82.52","ALERT A","2400302","2019-10-25 02:00","2019","10","25","02:00"
"-62.28","82.52","ALERT A","2400302","2019-10-25 03:00","2019","10","25","03:00"
"-62.28","82.52","ALERT A","2400302","2019-10-25 04:00","2019","10","25","04:00"
"-62.28","82.52","ALERT A","2400302","2019-10-25 05:00","2019","10","25","05:00"
"-62.28","82.52","ALERT A","2400302","2019-10-25 06:00","2019","10","25","06:00"
"-62.28","82.52","ALERT A","2400302","2019-10-25 07:00","2019","10","25","07:00"
"-62.28","82.52","ALERT A","2400302","2019-10-25 08:00","2019","10","25","08:00","-6.8","","-7.6","","94","","","","22","","9","","24.1","","99.34","","","","-11","","Mostly Cloudy"
"-62.28","82.52","ALERT A","2400302","2019-10-25 09:00","2019","10","25","09:00","-7.1","","-8.2","","92","","","","25","","5","","24.1","","99.30","","","","-10","","Mostly Cloudy"
"-62.28","82.52","ALERT A","2400302","2019-10-25 10:00","2019","10","25","10:00","-5.3","","-7.9","","82","","","","28","","9","","24.1","","99.29","","","","-9","","Mostly Cloudy"
"-62.28","82.52","ALERT A","2400302","2019-10-25 11:00","2019","10","25","11:00","-6.0","","-8.4","","83","","","","30","","17","","24.1","","99.28","","","","-12","","Mostly Cloudy"
"-62.28","82.52","ALERT A","2400302","2019-10-25 12:00","2019","10","25","12:00","-5.6","","-8.1","","83","","","","33","","4","","24.1","","99.29","","","","-7","","Mostly Cloudy"
"-62.28","82.52","ALERT A","2400302","2019-10-25 13:00","2019","10","25","13:00","-6.9","","-9.8","","80","","","","1","","9","","24.1","","99.28","","","","-11","","Mainly Clear"
"-62.28","82.52","ALERT A","2400302","2019-10-25 14:00","2019","10","25","14:00","-11.6","","-12.6","","92","","","","2","","11","","24.1","","99.33","","","","-18","","Mainly Clear"
"-62.28","82.52","ALERT A","2400302","2019-10-25 15:00","2019","10","25","15:00","-12.8","","-13.8","","92","","","","2","","9","","24.1","","99.35","","","","-18","","Mainly Clear"
"-62.28","82.52","ALERT A","2400302","2019-10-25 16:00","2019","10","25","16:00","-13.0","","-14.0","","92","","","","1","","5","","24.1","","99.38","","","","-16","","Mainly Clear"
"-62.28","82.52","ALERT A","2400302","2019-10-25 17:00","2019","10","25","17:00"
"-62.28","82.52","ALERT A","2400302","2019-10-25 18:00","2019","10","25","18:00"
"-62.28","82.52","ALERT A","2400302","2019-10-25 19:00","2019","10","25","19:00"
"-62.28","82.52","ALERT A","2400302","2019-10-25 20:00","2019","10","25","20:00"
"-62.28","82.52","ALERT A","2400302","2019-10-25 21:00","2019","10","25","21:00"
"-62.28","82.52","ALERT A","2400302","2019-10-25 22:00","2019","10","25","22:00"
"-62.28","82.52","ALERT A","2400302","2019-10-25 23:00","2019","10","25","23:00"
"-62.28","82.52","ALERT A","2400302","2019-10-26 00:00","2019","10","26","00:00"
"-62.28","82.52","ALERT A","2400302","2019-10-26 01:00","2019","10","26","01:00"
"-62.28","82.52","ALERT A","2400302","2019-10-26 02:00","2019","10","26","02:00"
"-62.28","82.52","ALERT A","2400302","2019-10-26 03:00","2019","10","26","03:00"
"-62.28","82.52","ALERT A","2400302","2019-10-26 04:00","2019","10","26","04:00"
"-62.28","82.52","ALERT A","2400302","2019-10-26 05:00","2019","10","26","05:00"
"-62.28","82.52","ALERT A","2400302","2019-10-26 06:00","2019","10","26","06:00"
"-62.28","82.52","ALERT A","2400302","2019-10-26 07:00","2019","10","26","07:00"
"-62.28","82.52","ALERT A","2400302","2019-10-26 08:00","2019","10","26","08:00"
"-62.28","82.52","ALERT A","2400302","2019-10-26 09:00","2019","10","26","09:00"
"-62.28","82.52","ALERT A","2400302","2019-10-26 10:00","2019","10","26","10:00"
"-62.28","82.52","ALERT A","2400302","2019-10-26 11:00","2019","10","26","11:00"
"-62.28","82.52","ALERT A","2400302","2019-10-26 12:00","2019","10","26","12:00"
"-62.28","82.52","ALERT A","2400302","2019-10-26 13:00","2019","10","26","13:00"
"-62.28","82.52","ALERT A","2400302","2019-10-26 14:00","2019","10","26","14:00"
"-62.28","82.52","ALERT A","2400302","2019-10-26 15:00","2019","10","26","15:00"
"-62.28","82.52","ALERT A","2400302","2019-10-26 16:00","2019","10","26","16:00"
"-62.28","82.52","ALERT A","2400302","2019-10-26 17:00","2019","10","26","17:00"
"-62.28","82.52","ALERT A","2400302","2019-10-26 18:00","2019","10","26","18:00"
"-62.28","82.52","ALERT A","2400302","2019-10-26 19:00","2019","10","26","19:00"
"-62.28","82.52","ALERT A","2400302","2019-10-26 20:00","2019","10","26","20:00"
"-62.28","82.52","ALERT A","2400302","2019-10-26 21:00","2019","10","26","21:00"
"-62.28","82.52","ALERT A","2400302","2019-10-26 22:00","2019","10","26","22:00"
"-62.28","82.52","ALERT A","2400302","2019-10-26 23:00","2019","10","26","23:00"
"-62.28","82.52","ALERT A","2400302","2019-10-27 00:00","2019","10","27","00:00"
"-62.28","82.52","ALERT A","2400302","2019-10-27 01:00","2019","10","27","01:00"
"-62.28","82.52","ALERT A","2400302","2019-10-27 02:00","2019","10","27","02:00"
"-62.28","82.52","ALERT A","2400302","2019-10-27 03:00","2019","10","27","03:00"
"-62.28","82.52","ALERT A","2400302","2019-10-27 04:00","2019","10","27","04:00"
"-62.28","82.52","ALERT A","2400302","2019-10-27 05:00","2019","10","27","05:00"
"-62.28","82.52","ALERT A","2400302","2019-10-27 06:00","2019","10","27","06:00"
"-62.28","82.52","ALERT A","2400302","2019-10-27 07:00","2019","10","27","07:00"
"-62.28","82.52","ALERT A","2400302","2019-10-27 08:00","2019","10","27","08:00"
"-62.28","82.52","ALERT A","2400302","2019-10-27 09:00","2019","10","27","09:00"
"-62.28","82.52","ALERT A","2400302","2019-10-27 10:00","2019","10","27","10:00"
"-62.28","82.52","ALERT A","2400302","2019-10-27 11:00","2019","10","27","11:00"
"-62.28","82.52","ALERT A","2400302","2019-10-27 12:00","2019","10","27","12:00"
"-62.28","82.52","ALERT A","2400302","2019-10-27 13:00","2019","10","27","13:00"
"-62.28","82.52","ALERT A","2400302","2019-10-27 14:00","2019","10","27","14:00"
"-62.28","82.52","ALERT A","2400302","2019-10-27 15:00","2019","10","27","15:00"
"-62.28","82.52","ALERT A","2400302","2019-10-27 16:00","2019","10","27","16:00"
"-62.28","82.52","ALERT A","2400302","2019-10-27 17:00","2019","10","27","17:00"
"-62.28","82.52","ALERT A","2400302","2019-10-27 18:00","2019","10","27","18:00"
"-62.28","82.52","ALERT A","2400302","2019-10-27 19:00","2019","10","27","19:00"
"-62.28","82.52","ALERT A","2400302","2019-10-27 20:00","2019","10","27","20:00"
"-62.28","82.52","ALERT A","2400302","2019-10-27 21:00","2019","10","27","21:00"
"-62.28","82.52","ALERT A","2400302","2019-10-27 22:00","2019","10","27","22:00"
"-62.28","82.52","ALERT A","2400302","2019-10-27 23:00","2019","10","27","23:00"
"-62.28","82.52","ALERT A","2400302","2019-10-28 00:00","2019","10","28","00:00"
"-62.28","82.52","ALERT A","2400302","2019-10-28 01:00","2019","10","28","01:00"
"-62.28","82.52","ALERT A","2400302","2019-10-28 02:00","2019","10","28","02:00"
"-62.28","82.52","ALERT A","2400302","2019-10-28 03:00","2019","10","28","03:00"
"-62.28","82.52","ALERT A","2400302","2019-10-28 04:00","2019","10","28","04:00"
"-62.28","82.52","ALERT A","2400302","2019-10-28 05:00","2019","10","28","05:00"
"-62.28","82.52","ALERT A","2400302","2019-10-28 06:00","2019","10","28","06:00"
"-62.28","82.52","ALERT A","2400302","2019-10-28 07:00","2019","10","28","07:00"
"-62.28","82.52","ALERT A","2400302","2019-10-28 08:00","2019","10","28","08:00","-15.5","","-17.3","","86","","","","29","","5","","16.1","","102.56","","","","-19","","Snow"
"-62.28","82.52","ALERT A","2400302","2019-10-28 09:00","2019","10","28","09:00","-16.2","","-18.6","","82","","","","19","","5","","16.1","","102.59","","","","-20","","Snow"
"-62.28","82.52","ALERT A","2400302","2019-10-28 10:00","2019","10","28","10:00","-14.9","","-17.8","","79","","","","29","","17","","16.1","","102.59","","","","-23","","Snow"
"-62.28","82.52","ALERT A","2400302","2019-10-28 11:00","2019","10","28","11:00","-14.8","","-17.5","","80","","","","","","0","","4.8","","102.64","","","","","","Snow"
"-62.28","82.52","ALERT A","2400302","2019-10-28 12:00","2019","10","28","12:00","-15.2","","-16.9","","87","","","","22","","5","","4.8","","102.67","","","","-19","","Snow"
"-62.28","82.52","ALERT A","2400302","2019-10-28 13:00","2019","10","28","13:00","-14.7","","-17.8","","77","","","","36","","5","","4.8","","102.72","","","","-18","","Snow"
"-62.28","82.52","ALERT A","2400302","2019-10-28 14:00","2019","10","28","14:00","-15.3","","-17.3","","85","","","","","","0","","3.2","","102.75","","","","","","Snow"
"-62.28","82.52","ALERT A","2400302","2019-10-28 15:00","2019","10","28","15:00","-15.2","","-17.8","","80","","","","34","","4","","16.1","","102.80","","","","-18","","Snow"
"-62.28","82.52","ALERT A","2400302","2019-10-28 16:00","2019","10","28","16:00","-15.4","","-17.2","","86","","","","1","","13","","12.9","","102.88","","","","-23","","Snow"
"-62.28","82.52","ALERT A","2400302","2019-10-28 17:00","2019","10","28","17:00"
"-62.28","82.52","ALERT A","2400302","2019-10-28 18:00","2019","10","28","18:00"
"-62.28","82.52","ALERT A","2400302","2019-10-28 19:00","2019","10","28","19:00"
"-62.28","82.52","ALERT A","2400302","2019-10-28 20:00","2019","10","28","20:00"
"-62.28","82.52","ALERT A","2400302","2019-10-28 21:00","2019","10","28","21:00"
"-62.28","82.52","ALERT A","2400302","2019-10-28 22:00","2019","10","28","22:00"
"-62.28","82.52","ALERT A","2400302","2019-10-28 23:00","2019","10","28","23:00"
"-62.28","82.52","ALERT A","2400302","2019-10-29 00:00","2019","10","29","00:00"
"-62.28","82.52","ALERT A","2400302","2019-10-29 01:00","2019","10","29","01:00","-16.0","","-18.3","","82","","","","27","","5","","24.1","","102.91","","","","-20","","Mostly Cloudy"
"-62.28","82.52","ALERT A","2400302","2019-10-29 02:00","2019","10","29","02:00","-16.6","","-18.8","","83","","","","28","","9","","24.1","","102.86","","","","-23","","Mostly Cloudy"
"-62.28","82.52","ALERT A","2400302","2019-10-29 03:00","2019","10","29","03:00","-17.0","","-19.1","","84","","","","33","","11","","9.7","","102.86","","","","-24","","Snow"
"-62.28","82.52","ALERT A","2400302","2019-10-29 04:00","2019","10","29","04:00","-16.9","","-19.2","","82","","","","34","","11","","9.7","","102.85","","","","-24","","Snow"
"-62.28","82.52","ALERT A","2400302","2019-10-29 05:00","2019","10","29","05:00","-17.0","","-19.4","","82","","","","31","","5","","9.7","","102.82","","","","-21","","Snow"
"-62.28","82.52","ALERT A","2400302","2019-10-29 06:00","2019","10","29","06:00","-17.4","","-19.6","","83","","","","29","","9","","12.9","","102.79","","","","-24","","Snow"
"-62.28","82.52","ALERT A","2400302","2019-10-29 07:00","2019","10","29","07:00","-17.7","","-20.0","","82","","","","30","","11","","12.9","","102.75","","","","-25","","Snow"
"-62.28","82.52","ALERT A","2400302","2019-10-29 08:00","2019","10","29","08:00","-17.3","","-19.2","","85","","","","35","","8","","12.9","","102.74","","","","-23","","Snow"
"-62.28","82.52","ALERT A","2400302","2019-10-29 09:00","2019","10","29","09:00","-18.7","","-20.7","","84","","","","29","","5","","12.9","","102.71","","","","-23","","Snow"
"-62.28","82.52","ALERT A","2400302","2019-10-29 10:00","2019","10","29","10:00","-17.6","","-19.6","","84","","","","33","","5","","12.9","","102.67","","","","-22","","Snow"
"-62.28","82.52","ALERT A","2400302","2019-10-29 11:00","2019","10","29","11:00","-18.4","","-20.8","","81","","","","28","","9","","16.1","","102.62","","","","-25","","Snow"
"-62.28","82.52","ALERT A","2400302","2019-10-29 12:00","2019","10","29","12:00","-18.0","","-20.7","","79","","","","29","","9","","16.1","","102.57","","","","-24","","Snow"
"-62.28","82.52","ALERT A","2400302","2019-10-29 13:00","2019","10","29","13:00","-17.8","","-20.4","","80","","","","30","","11","","19.3","","102.54","","","","-25","","Mostly Cloudy"
"-62.28","82.52","ALERT A","2400302","2019-10-29 14:00","2019","10","29","14:00","-17.7","","-19.9","","83","","","","32","","8","","12.9","","102.53","","","","-24","","Snow"
"-62.28","82.52","ALERT A","2400302","2019-10-29 15:00","2019","10","29","15:00","-17.6","","-19.6","","84","","","","34","","4","","16.1","","102.50","","","","-21","","Snow"
"-62.28","82.52","ALERT A","2400302","2019-10-29 16:00","2019","10","29","16:00","-19.4","","-21.5","","83","","","","","","0","","9.7","","102.48","","","","","","Snow"
"-62.28","82.52","ALERT A","2400302","2019-10-29 17:00","2019","10","29","17:00"
"-62.28","82.52","ALERT A","2400302","2019-10-29 18:00","2019","10","29","18:00"
"-62.28","82.52","ALERT A","2400302","2019-10-29 19:00","2019","10","29","19:00"
"-62.28","82.52","ALERT A","2400302","2019-10-29 20:00","2019","10","29","20:00"
"-62.28","82.52","ALERT A","2400302","2019-10-29 21:00","2019","10","29","21:00"
"-62.28","82.52","ALERT A","2400302","2019-10-29 22:00","2019","10","29","22:00"
"-62.28","82.52","ALERT A","2400302","2019-10-29 23:00","2019","10","29","23:00"
"-62.28","82.52","ALERT A","2400302","2019-10-30 00:00","2019","10","30","00:00","-21.9","","-24.4","","80","","","","","","0","","24.1","","102.17","","","","","","Clear"
"-62.28","82.52","ALERT A","2400302","2019-10-30 01:00","2019","10","30","01:00","-22.7","","-25.3","","79","","","","","","0","","9.7","","102.12","","","","","","Ice Crystals"
"-62.28","82.52","ALERT A","2400302","2019-10-30 02:00","2019","10","30","02:00","-20.7","","-22.7","","84","","","","32","","4","","16.1","","102.07","","","","-24","","Snow"
"-62.28","82.52","ALERT A","2400302","2019-10-30 03:00","2019","10","30","03:00","-22.7","","-24.8","","83","","","","","","0","","16.1","","102.04","","","","","","Snow"
"-62.28","82.52","ALERT A","2400302","2019-10-30 04:00","2019","10","30","04:00","-21.6","","-23.6","","84","","","","34","","5","","16.1","","102.02","","","","-26","","Snow"
"-62.28","82.52","ALERT A","2400302","2019-10-30 05:00","2019","10","30","05:00","-20.4","","-22.1","","86","","","","33","","8","","16.1","","101.98","","","","-27","","Snow"
"-62.28","82.52","ALERT A","2400302","2019-10-30 06:00","2019","10","30","06:00","-21.8","","-24.1","","82","","","","32","","9","","8.1","","101.96","","","","-29","","Snow"
"-62.28","82.52","ALERT A","2400302","2019-10-30 07:00","2019","10","30","07:00","-20.2","","-22.4","","83","","","","33","","8","","8.1","","101.91","","","","-26","","Snow"
"-62.28","82.52","ALERT A","2400302","2019-10-30 08:00","2019","10","30","08:00","-21.6","","-23.8","","82","","","","26","","4","","11.3","","101.87","","","","-25","","Snow"
"-62.28","82.52","ALERT A","2400302","2019-10-30 09:00","2019","10","30","09:00","-20.9","","-23.2","","82","","","","3","","4","","12.9","","101.84","","","","-24","","Snow"
"-62.28","82.52","ALERT A","2400302","2019-10-30 10:00","2019","10","30","10:00","-20.9","","-23.0","","83","","","","","","0","","16.1","","101.77","","","","","","Snow"
"-62.28","82.52","ALERT A","2400302","2019-10-30 11:00","2019","10","30","11:00","-21.5","","-23.7","","82","","","","3","","4","","19.3","","101.74","","","","-25","","Snow"
"-62.28","82.52","ALERT A","2400302","2019-10-30 12:00","2019","10","30","12:00","-22.7","","-24.7","","84","","","","","","0","","19.3","","101.72","","","","","","Snow"
"-62.28","82.52","ALERT A","2400302","2019-10-30 13:00","2019","10","30","13:00","-23.9","","-26.3","","81","","","","","","0","","12.9","","101.70","","","","","","Snow"
"-62.28","82.52","ALERT A","2400302","2019-10-30 14:00","2019","10","30","14:00","-22.8","","-25.0","","82","","","","","","0","","12.9","","101.68","","","","","","Snow"
"-62.28","82.52","ALERT A","2400302","2019-10-30 15:00","2019","10","30","15:00","-22.2","","-24.4","","82","","","","23","","4","","19.3","","101.65","","","","-26","","Snow"
"-62.28","82.52","ALERT A","2400302","2019-10-30 16:00","2019","10","30","16:00","-23.4","","-25.7","","81","","","","3","","4","","12.9","","101.67","","","","-27","","Snow"
"-62.28","82.52","ALERT A","2400302","2019-10-30 17:00","2019","10","30","17:00"
"-62.28","82.52","ALERT A","2400302","2019-10-30 18:00","2019","10","30","18:00"
"-62.28","82.52","ALERT A","2400302","2019-10-30 19:00","2019","10","30","19:00"
"-62.28","82.52","ALERT A","2400302","2019-10-30 20:00","2019","10","30","20:00"
"-62.28","82.52","ALERT A","2400302","2019-10-30 21:00","2019","10","30","21:00"
"-62.28","82.52","ALERT A","2400302","2019-10-30 22:00","2019","10","30","22:00"
"-62.28","82.52","ALERT A","2400302","2019-10-30 23:00","2019","10","30","23:00"
"-62.28","82.52","ALERT A","2400302","2019-10-31 00:00","2019","10","31","00:00","-21.6","","-23.8","","82","","","","","","0","","19.3","","101.67","","","","","","Mainly Clear"
"-62.28","82.52","ALERT A","2400302","2019-10-31 01:00","2019","10","31","01:00","-22.1","","-24.3","","82","","","","","","0","","24.1","","101.68","","","","","","Mostly Cloudy"
"-62.28","82.52","ALERT A","2400302","2019-10-31 02:00","2019","10","31","02:00","-21.7","","-23.9","","82","","","","","","0","","24.1","","101.69","","","","","","Mostly Cloudy"
"-62.28","82.52","ALERT A","2400302","2019-10-31 03:00","2019","10","31","03:00","-21.1","","-23.3","","82","","","","33","","8","","24.1","","101.68","","","","-28","","Mostly Cloudy"
"-62.28","82.52","ALERT A","2400302","2019-10-31 04:00","2019","10","31","04:00","-21.6","","-23.7","","83","","","","30","","13","","19.3","","101.67","","","","-30","","Cloudy"
"-62.28","82.52","ALERT A","2400302","2019-10-31 05:00","2019","10","31","05:00","-21.5","","-23.7","","82","","","","29","","11","","19.3","","101.64","","","","-29","","Cloudy"
"-62.28","82.52","ALERT A","2400302","2019-10-31 06:00","2019","10","31","06:00","-22.7","","-25.0","","81","","","","3","","8","","19.3","","101.64","","","","-29","","Cloudy"
"-62.28","82.52","ALERT A","2400302","2019-10-31 07:00","2019","10","31","07:00","-23.4","","-25.8","","81","","","","4","","4","","19.3","","101.63","","","","-27","","Cloudy"
"-62.28","82.52","ALERT A","2400302","2019-10-31 08:00","2019","10","31","08:00","-22.9","","-25.8","","81","","","","","","0","","19.3","","101.64","","","","","","Cloudy"
"-62.28","82.52","ALERT A","2400302","2019-10-31 09:00","2019","10","31","09:00","-22.1","","-24.3","","82","","","","33","","9","","12.9","","101.62","","","","-29","","Cloudy"
"-62.28","82.52","ALERT A","2400302","2019-10-31 10:00","2019","10","31","10:00","-21.7","","-24.0","","82","","","","29","","8","","3.2","","101.59","","","","-28","","Snow,Fog"
"-62.28","82.52","ALERT A","2400302","2019-10-31 11:00","2019","10","31","11:00","-21.0","","-23.1","","83","","","","30","","9","","9.7","","101.57","","","","-28","","Snow,Fog"
"-62.28","82.52","ALERT A","2400302","2019-10-31 12:00","2019","10","31","12:00","-21.4","","-23.6","","82","","","","30","","15","","12.9","","101.54","","","","-31","","Snow"
"-62.28","82.52","ALERT A","2400302","2019-10-31 13:00","2019","10","31","13:00","-21.0","","-23.1","","83","","","","26","","5","","11.3","","101.53","","","","-25","","Snow"
"-62.28","82.52","ALERT A","2400302","2019-10-31 14:00","2019","10","31","14:00","-21.0","","-23.1","","83","","","","32","","9","","11.3","","101.50","","","","-28","","Snow"
"-62.28","82.52","ALERT A","2400302","2019-10-31 15:00","2019","10","31","15:00","-21.1","","-23.3","","82","","","","30","","11","","11.3","","101.49","","","","-29","","Snow"
"-62.28","82.52","ALERT A","2400302","2019-10-31 16:00","2019","10","31","16:00","-21.3","","-23.5","","82","","","","20","","4","","11.3","","101.50","","","","-25","","Snow"
"-62.28","82.52","ALERT A","2400302","2019-10-31 17:00","2019","10","31","17:00"
"-62.28","82.52","ALERT A","2400302","2019-10-31 18:00","2019","10","31","18:00"
"-62.28","82.52","ALERT A","2400302","2019-10-31 19:00","2019","10","31","19:00"
"-62.28","82.52","ALERT A","2400302","2019-10-31 20:00","2019","10","31","20:00"
"-62.28","82.52","ALERT A","2400302","2019-10-31 21:00","2019","10","31","21:00"
"-62.28","82.52","ALERT A","2400302","2019-10-31 22:00","2019","10","31","22:00"
"-62.28","82.52","ALERT A","2400302","2019-10-31 23:00","2019","10","31","23:00"
