"Longitude (x)","Latitude (y)","Station Name","Climate ID","Date/Time (LST)","Year","Month","Day","Time (LST)","Temp (°C)","Temp Flag","Dew Point Temp (°C)","Dew Point Temp Flag","Rel Hum (%)","Rel Hum Flag","Precip. Amount (mm)","Precip. Amount Flag","Wind Dir (10s deg)","Wind Dir Flag","Wind Spd (km/h)","Wind Spd Flag","Visibility (km)","Visibility Flag","Stn Press (kPa)","Stn Press Flag","Hmdx","Hmdx Flag","Wind Chill","Wind Chill Flag","Weather"
"-81.24","68.78","SANIRAJAK AIRPORT","2402356","2018-11-01 00:00","2018","11","01","00:00"
"-81.24","68.78","SANIRAJAK AIRPORT","2402356","2018-11-01 01:00","2018","11","01","01:00"
"-81.24","68.78","SANIRAJAK AIRPORT","2402356","2018-11-01 02:00","2018","11","01","02:00"
"-81.24","68.78","SANIRAJAK AIRPORT","2402356","2018-11-01 03:00","2018","11","01","03:00"
"-81.24","68.78","SANIRAJAK AIRPORT","2402356","2018-11-01 04:00","2018","11","01","04:00"
"-81.24","68.78","SANIRAJAK AIRPORT","2402356","2018-11-01 05:00","2018","11","01","05:00"
"-81.24","68.78","SANIRAJAK AIRPORT","2402356","2018-11-01 06:00","2018","11","01","06:00"
"-81.24","68.78","SANIRAJAK AIRPORT","2402356","2018-11-01 07:00","2018","11","01","07:00","-17.2","","-18.7","","88","","","","34","","19","","24.1","","101.92","","","","-27","","Mainly Clear"
"-81.24","68.78","SANIRAJAK AIRPORT","2402356","2018-11-01 08:00","2018","11","01","08:00","-17.5","","-19.2","","87","","","","32","","15","","24.1","","101.89","","","","-26","","NA"
"-81.24","68.78","SANIRAJAK AIRPORT","2402356","2018-11-01 09:00","2018","11","01","09:00","-16.9","","-18.6","","87","","","","33","","20","","24.1","","101.88","","","","-27","","NA"
"-81.24","68.78","SANIRAJAK AIRPORT","2402356","2018-11-01 10:00","2018","11","01","10:00","-15.7","","-17.0","","90","","","","32","","19","","24.1","","101.86","","","","-25","","Blowing Snow"
"-81.24","68.78","SANIRAJAK AIRPORT","2402356","2018-11-01 11:00","2018","11","01","11:00","-14.0","","-15.3","","90","","","","34","","15","","24.1","","101.83","","","","-22","","NA"
"-81.24","68.78","SANIRAJAK AIRPORT","2402356","2018-11-01 12:00","2018","11","01","12:00","-15.0","","-16.6","","88","","","","34","","19","","24.1","","101.81","","","","-24","","NA"
"-81.24","68.78","SANIRAJAK AIRPORT","2402356","2018-11-01 13:00","2018","11","01","13:00","-16.0","","-17.6","","88","","","","34","","18","","24.1","","101.80","","","","-25","","Ice Crystals"
"-81.24","68.78","SANIRAJAK AIRPORT","2402356","2018-11-01 14:00","2018","11","01","14:00","-15.8","","-17.1","","90","","","","35","","21","","24.1","","101.79","","","","-25","","Ice Crystals"
"-81.24","68.78","SANIRAJAK AIRPORT","2402356","2018-11-01 15:00","2018","11","01","15:00","-16.8","","-18.3","","88","","","","34","","16","","24.1","","101.81","","","","-25","","NA"
"-81.24","68.78","SANIRAJAK AIRPORT","2402356","2018-11-01 16:00","2018","11","01","16:00","-16.4","","-17.8","","89","","","","34","","15","","24.1","","101.82","","","","-25","","Snow"
"-81.24","68.78","SANIRAJAK AIRPORT","2402356","2018-11-01 17:00","2018","11","01","17:00","-12.0","","-12.9","","93","","","","3","","16","","24.1","","101.82","","","","-19","","Snow"
"-81.24","68.78","SANIRAJAK AIRPORT","2402356","2018-11-01 18:00","2018","11","01","18:00","-13.1","","-14.4","","90","","","","4","","14","","24.1","","101.82","","","","-20","","Snow"
"-81.24","68.78","SANIRAJAK AIRPORT","2402356","2018-11-01 19:00","2018","11","01","19:00","-15.0","","-16.4","","89","","","","4","","13","","24.1","","101.83","","","","-22","","Mainly Clear"
"-81.24","68.78","SANIRAJAK AIRPORT","2402356","2018-11-01 20:00","2018","11","01","20:00"
"-81.24","68.78","SANIRAJAK AIRPORT","2402356","2018-11-01 21:00","2018","11","01","21:00"
"-81.24","68.78","SANIRAJAK AIRPORT","2402356","2018-11-01 22:00","2018","11","01","22:00"
"-81.24","68.78","SANIRAJAK AIRPORT","2402356","2018-11-01 23:00","2018","11","01","23:00"
"-81.24","68.78","SANIRAJAK AIRPORT","2402356","2018-11-02 00:00","2018","11","02","00:00"
"-81.24","68.78","SANIRAJAK AIRPORT","2402356","2018-11-02 01:00","2018","11","02","01:00"
"-81.24","68.78","SANIRAJAK AIRPORT","2402356","2018-11-02 02:00","2018","11","02","02:00"
"-81.24","68.78","SANIRAJAK AIRPORT","2402356","2018-11-02 03:00","2018","11","02","03:00"
"-81.24","68.78","SANIRAJAK AIRPORT","2402356","2018-11-02 04:00","2018","11","02","04:00"
"-81.24","68.78","SANIRAJAK AIRPORT","2402356","2018-11-02 05:00","2018","11","02","05:00"
"-81.24","68.78","SANIRAJAK AIRPORT","2402356","2018-11-02 06:00","2018","11","02","06:00"
"-81.24","68.78","SANIRAJAK AIRPORT","2402356","2018-11-02 07:00","2018","11","02","07:00","-20.9","","-23.1","","83","","","","33","","17","","24.1","","101.66","","","","-31","","Clear"
"-81.24","68.78","SANIRAJAK AIRPORT","2402356","2018-11-02 08:00","2018","11","02","08:00","-21.8","","-23.9","","84","","","","32","","19","","24.1","","101.64","","","","-32","","NA"
"-81.24","68.78","SANIRAJAK AIRPORT","2402356","2018-11-02 09:00","2018","11","02","09:00","-20.9","","-22.9","","84","","","","31","","18","","24.1","","101.64","","","","-31","","NA"
"-81.24","68.78","SANIRAJAK AIRPORT","2402356","2018-11-02 10:00","2018","11","02","10:00","-20.4","","-22.4","","84","","","","31","","18","","24.1","","101.63","","","","-30","","Clear"
"-81.24","68.78","SANIRAJAK AIRPORT","2402356","2018-11-02 11:00","2018","11","02","11:00","-20.5","","-22.5","","84","","","","32","","18","","24.1","","101.63","","","","-31","","NA"
"-81.24","68.78","SANIRAJAK AIRPORT","2402356","2018-11-02 12:00","2018","11","02","12:00","-20.2","","-22.2","","84","","","","32","","14","","24.1","","101.63","","","","-29","","NA"
"-81.24","68.78","SANIRAJAK AIRPORT","2402356","2018-11-02 13:00","2018","11","02","13:00","-20.2","","-22.2","","84","","","","32","","16","","24.1","","101.63","","","","-30","","Mainly Clear"
"-81.24","68.78","SANIRAJAK AIRPORT","2402356","2018-11-02 14:00","2018","11","02","14:00","-18.0","","-19.7","","87","","","","31","","19","","24.1","","101.63","","","","-28","","NA"
"-81.24","68.78","SANIRAJAK AIRPORT","2402356","2018-11-02 15:00","2018","11","02","15:00","-16.6","","-18.1","","88","","","","32","","10","","24.1","","101.64","","","","-23","","NA"
"-81.24","68.78","SANIRAJAK AIRPORT","2402356","2018-11-02 16:00","2018","11","02","16:00","-14.9","","-16.3","","89","","","","31","","14","","24.1","","101.66","","","","-22","","Cloudy"
"-81.24","68.78","SANIRAJAK AIRPORT","2402356","2018-11-02 17:00","2018","11","02","17:00","-14.4","","-15.7","","90","","","","32","","23","","24.1","","101.65","","","","-24","","Snow"
"-81.24","68.78","SANIRAJAK AIRPORT","2402356","2018-11-02 18:00","2018","11","02","18:00","-14.7","","-16.0","","90","","","","32","","24","","24.1","","101.69","","","","-25","","Snow,Blowing Snow"
"-81.24","68.78","SANIRAJAK AIRPORT","2402356","2018-11-02 19:00","2018","11","02","19:00","-14.6","","-15.9","","90","","","","32","","28","","24.1","","101.70","","","","-25","","Snow,Blowing Snow"
"-81.24","68.78","SANIRAJAK AIRPORT","2402356","2018-11-02 20:00","2018","11","02","20:00"
"-81.24","68.78","SANIRAJAK AIRPORT","2402356","2018-11-02 21:00","2018","11","02","21:00"
"-81.24","68.78","SANIRAJAK AIRPORT","2402356","2018-11-02 22:00","2018","11","02","22:00"
"-81.24","68.78","SANIRAJAK AIRPORT","2402356","2018-11-02 23:00","2018","11","02","23:00"
"-81.24","68.78","SANIRAJAK AIRPORT","2402356","2018-11-03 00:00","2018","11","03","00:00"
"-81.24","68.78","SANIRAJAK AIRPORT","2402356","2018-11-03 01:00","2018","11","03","01:00"
"-81.24","68.78","SANIRAJAK AIRPORT","2402356","2018-11-03 02:00","2018","11","03","02:00"
"-81.24","68.78","SANIRAJAK AIRPORT","2402356","2018-11-03 03:00","2018","11","03","03:00"
"-81.24","68.78","SANIRAJAK AIRPORT","2402356","2018-11-03 04:00","2018","11","03","04:00"
"-81.24","68.78","SANIRAJAK AIRPORT","2402356","2018-11-03 05:00","2018","11","03","05:00"
"-81.24","68.78","SANIRAJAK AIRPORT","2402356","2018-11-03 06:00","2018","11","03","06:00"
"-81.24","68.78","SANIRAJAK AIRPORT","2402356","2018-11-03 07:00","2018","11","03","07:00","-21.7","","-23.9","","83","","","","31","","15","","24.1","","101.90","","","","-31","","Mainly Clear"
"-81.24","68.78","SANIRAJAK AIRPORT","2402356","2018-11-03 08:00","2018","11","03","08:00","-22.7","","-25.0","","82","","","","31","","14","","24.1","","101.90","","","","-32","","NA"
"-81.24","68.78","SANIRAJAK AIRPORT","2402356","2018-11-03 09:00","2018","11","03","09:00","-20.8","","-22.7","","85","","","","31","","13","","24.1","","101.92","","","","-29","","NA"
"-81.24","68.78","SANIRAJAK AIRPORT","2402356","2018-11-03 10:00","2018","11","03","10:00","-17.0","","-18.7","","87","","","","33","","18","","24.1","","101.93","","","","-26","","Snow"
"-81.24","68.78","SANIRAJAK AIRPORT","2402356","2018-11-03 11:00","2018","11","03","11:00","-17.7","","-19.4","","87","","","","32","","9","","24.1","","101.95","","","","-24","","NA"
"-81.24","68.78","SANIRAJAK AIRPORT","2402356","2018-11-03 12:00","2018","11","03","12:00","-18.4","","-20.3","","85","","","","31","","14","","24.1","","101.96","","","","-27","","NA"
"-81.24","68.78","SANIRAJAK AIRPORT","2402356","2018-11-03 13:00","2018","11","03","13:00","-21.0","","-23.2","","83","","","","29","","15","","24.1","","101.97","","","","-30","","Mainly Clear"
"-81.24","68.78","SANIRAJAK AIRPORT","2402356","2018-11-03 14:00","2018","11","03","14:00","-22.7","","-25.0","","82","","","","29","","9","","24.1","","101.97","","","","-30","","NA"
"-81.24","68.78","SANIRAJAK AIRPORT","2402356","2018-11-03 15:00","2018","11","03","15:00","-23.1","","-25.2","","83","","","","30","","20","","24.1","","101.95","","","","-34","","NA"
"-81.24","68.78","SANIRAJAK AIRPORT","2402356","2018-11-03 16:00","2018","11","03","16:00","-23.0","","-25.3","","82","","","","30","","18","","24.1","","101.97","","","","-34","","Mainly Clear"
"-81.24","68.78","SANIRAJAK AIRPORT","2402356","2018-11-03 17:00","2018","11","03","17:00","-22.1","","-24.1","","84","","","","31","","15","","24.1","","101.97","","","","-32","","NA"
"-81.24","68.78","SANIRAJAK AIRPORT","2402356","2018-11-03 18:00","2018","11","03","18:00","-21.0","","-23.0","","84","","","","30","","15","","24.1","","101.95","","","","-30","","NA"
"-81.24","68.78","SANIRAJAK AIRPORT","2402356","2018-11-03 19:00","2018","11","03","19:00","-20.3","","-22.3","","84","","","","30","","12","","24.1","","101.95","","","","-28","","Cloudy"
"-81.24","68.78","SANIRAJAK AIRPORT","2402356","2018-11-03 20:00","2018","11","03","20:00"
"-81.24","68.78","SANIRAJAK AIRPORT","2402356","2018-11-03 21:00","2018","11","03","21:00"
"-81.24","68.78","SANIRAJAK AIRPORT","2402356","2018-11-03 22:00","2018","11","03","22:00"
"-81.24","68.78","SANIRAJAK AIRPORT","2402356","2018-11-03 23:00","2018","11","03","23:00"
"-81.24","68.78","SANIRAJAK AIRPORT","2402356","2018-11-04 00:00","2018","11","04","00:00"
"-81.24","68.78","SANIRAJAK AIRPORT","2402356","2018-11-04 01:00","2018","11","04","01:00"
"-81.24","68.78","SANIRAJAK AIRPORT","2402356","2018-11-04 02:00","2018","11","04","02:00"
"-81.24","68.78","SANIRAJAK AIRPORT","2402356","2018-11-04 03:00","2018","11","04","03:00"
"-81.24","68.78","SANIRAJAK AIRPORT","2402356","2018-11-04 04:00","2018","11","04","04:00"
"-81.24","68.78","SANIRAJAK AIRPORT","2402356","2018-11-04 05:00","2018","11","04","05:00"
"-81.24","68.78","SANIRAJAK AIRPORT","2402356","2018-11-04 06:00","2018","11","04","06:00"
"-81.24","68.78","SANIRAJAK AIRPORT","2402356","2018-11-04 07:00","2018","11","04","07:00","-24.8","","-27.2","","81","","","","33","","15","","24.1","","101.76","","","","-35","","Mainly Clear"
"-81.24","68.78","SANIRAJAK AIRPORT","2402356","2018-11-04 08:00","2018","11","04","08:00","-24.6","","-27.1","","80","","","","32","","17","","24.1","","101.77","","","","-35","","NA"
"-81.24","68.78","SANIRAJAK AIRPORT","2402356","2018-11-04 09:00","2018","11","04","09:00","-22.1","","-24.2","","83","","","","31","","18","","3.2","","101.73","","","","-33","","Fog"
"-81.24","68.78","SANIRAJAK AIRPORT","2402356","2018-11-04 10:00","2018","11","04","10:00","-21.2","","-23.2","","84","","","","31","","17","","0.6","","101.72","","","","-31","","Freezing Fog"
"-81.24","68.78","SANIRAJAK AIRPORT","2402356","2018-11-04 11:00","2018","11","04","11:00","-20.7","","-22.7","","84","","","","30","","18","","0.8","","101.73","","","","-31","","Freezing Fog"
"-81.24","68.78","SANIRAJAK AIRPORT","2402356","2018-11-04 12:00","2018","11","04","12:00","-20.5","","-22.5","","84","","","","31","","19","","0.6","","101.73","","","","-31","","Freezing Fog"
"-81.24","68.78","SANIRAJAK AIRPORT","2402356","2018-11-04 13:00","2018","11","04","13:00","-20.3","","-22.3","","84","","","","31","","22","","1.2","","101.71","","","","-31","","Fog"
"-81.24","68.78","SANIRAJAK AIRPORT","2402356","2018-11-04 14:00","2018","11","04","14:00","-20.3","","-22.3","","84","","","","32","","21","","4.8","","101.72","","","","-31","","Fog"
"-81.24","68.78","SANIRAJAK AIRPORT","2402356","2018-11-04 15:00","2018","11","04","15:00","-20.4","","-22.4","","84","","","","32","","19","","16.1","","101.73","","","","-31","","NA"
"-81.24","68.78","SANIRAJAK AIRPORT","2402356","2018-11-04 16:00","2018","11","04","16:00","-20.8","","-22.8","","84","","","","31","","17","","4.8","","101.74","","","","-31","","Fog"
"-81.24","68.78","SANIRAJAK AIRPORT","2402356","2018-11-04 17:00","2018","11","04","17:00","-21.3","","-23.3","","84","","","","31","","21","","4.8","","101.75","","","","-32","","Fog"
"-81.24","68.78","SANIRAJAK AIRPORT","2402356","2018-11-04 18:00","2018","11","04","18:00","-21.1","","-23.1","","84","","","","31","","18","","4.0","","101.78","","","","-31","","Fog"
"-81.24","68.78","SANIRAJAK AIRPORT","2402356","2018-11-04 19:00","2018","11","04","19:00","-21.3","","-23.5","","83","","","","31","","20","","4.8","","101.77","","","","-32","","Fog"
"-81.24","68.78","SANIRAJAK AIRPORT","2402356","2018-11-04 20:00","2018","11","04","20:00"
"-81.24","68.78","SANIRAJAK AIRPORT","2402356","2018-11-04 21:00","2018","11","04","21:00"
"-81.24","68.78","SANIRAJAK AIRPORT","2402356","2018-11-04 22:00","2018","11","04","22:00"
"-81.24","68.78","SANIRAJAK AIRPORT","2402356","2018-11-04 23:00","2018","11","04","23:00"
"-81.24","68.78","SANIRAJAK AIRPORT","2402356","2018-11-05 00:00","2018","11","05","00:00"
"-81.24","68.78","SANIRAJAK AIRPORT","2402356","2018-11-05 01:00","2018","11","05","01:00"
"-81.24","68.78","SANIRAJAK AIRPORT","2402356","2018-11-05 02:00","2018","11","05","02:00"
"-81.24","68.78","SANIRAJAK AIRPORT","2402356","2018-11-05 03:00","2018","11","05","03:00"
"-81.24","68.78","SANIRAJAK AIRPORT","2402356","2018-11-05 04:00","2018","11","05","04:00"
"-81.24","68.78","SANIRAJAK AIRPORT","2402356","2018-11-05 05:00","2018","11","05","05:00"
"-81.24","68.78","SANIRAJAK AIRPORT","2402356","2018-11-05 06:00","2018","11","05","06:00"
"-81.24","68.78","SANIRAJAK AIRPORT","2402356","2018-11-05 07:00","2018","11","05","07:00","-27.4","","-30.2","","78","","","","32","","15","","24.1","","101.80","","","","-38","","Clear"
"-81.24","68.78","SANIRAJAK AIRPORT","2402356","2018-11-05 08:00","2018","11","05","08:00","-28.4","","-31.3","","77","","","","32","","15","","24.1","","101.78","","","","-39","","NA"
"-81.24","68.78","SANIRAJAK AIRPORT","2402356","2018-11-05 09:00","2018","11","05","09:00","-28.4","","-31.3","","77","","","","33","","15","","24.1","","101.78","","","","-39","","NA"
"-81.24","68.78","SANIRAJAK AIRPORT","2402356","2018-11-05 10:00","2018","11","05","10:00","-27.5","","-30.2","","78","","","","32","","14","","24.1","","101.78","","","","-38","","Mainly Clear"
"-81.24","68.78","SANIRAJAK AIRPORT","2402356","2018-11-05 11:00","2018","11","05","11:00","-27.5","","-30.4","","77","","","","32","","14","","24.1","","101.77","","","","-38","","Ice Crystals"
"-81.24","68.78","SANIRAJAK AIRPORT","2402356","2018-11-05 12:00","2018","11","05","12:00","-25.9","","-28.7","","78","","","","32","","11","","24.1","","101.78","","","","-35","","NA"
"-81.24","68.78","SANIRAJAK AIRPORT","2402356","2018-11-05 13:00","2018","11","05","13:00","-26.2","","-29.0","","78","","","","31","","14","","24.1","","101.78","","","","-36","","Mostly Cloudy"
"-81.24","68.78","SANIRAJAK AIRPORT","2402356","2018-11-05 14:00","2018","11","05","14:00","-25.8","","-28.6","","78","","","","32","","13","","24.1","","101.79","","","","-35","","NA"
"-81.24","68.78","SANIRAJAK AIRPORT","2402356","2018-11-05 15:00","2018","11","05","15:00","-27.1","","-30.0","","77","","","","32","","15","","24.1","","101.78","","","","-38","","NA"
"-81.24","68.78","SANIRAJAK AIRPORT","2402356","2018-11-05 16:00","2018","11","05","16:00","-27.0","","-29.5","","80","","","","32","","11","","6.4","","101.83","","","","-36","","Fog"
"-81.24","68.78","SANIRAJAK AIRPORT","2402356","2018-11-05 17:00","2018","11","05","17:00","-23.5","","-25.8","","82","","","","30","","10","","0.2","","101.82","","","","-31","","Freezing Fog"
"-81.24","68.78","SANIRAJAK AIRPORT","2402356","2018-11-05 18:00","2018","11","05","18:00","-22.9","","-25.2","","82","","","","29","","9","","0.6","","101.83","","","","-30","","Freezing Fog"
"-81.24","68.78","SANIRAJAK AIRPORT","2402356","2018-11-05 19:00","2018","11","05","19:00","-22.8","","-25.1","","82","","","","29","","8","","0.8","","101.83","","","","-30","","Freezing Fog"
"-81.24","68.78","SANIRAJAK AIRPORT","2402356","2018-11-05 20:00","2018","11","05","20:00"
"-81.24","68.78","SANIRAJAK AIRPORT","2402356","2018-11-05 21:00","2018","11","05","21:00"
"-81.24","68.78","SANIRAJAK AIRPORT","2402356","2018-11-05 22:00","2018","11","05","22:00"
"-81.24","68.78","SANIRAJAK AIRPORT","2402356","2018-11-05 23:00","2018","11","05","23:00"
"-81.24","68.78","SANIRAJAK AIRPORT","2402356","2018-11-06 00:00","2018","11","06","00:00"
"-81.24","68.78","SANIRAJAK AIRPORT","2402356","2018-11-06 01:00","2018","11","06","01:00"
"-81.24","68.78","SANIRAJAK AIRPORT","2402356","2018-11-06 02:00","2018","11","06","02:00"
"-81.24","68.78","SANIRAJAK AIRPORT","2402356","2018-11-06 03:00","2018","11","06","03:00"
"-81.24","68.78","SANIRAJAK AIRPORT","2402356","2018-11-06 04:00","2018","11","06","04:00"
"-81.24","68.78","SANIRAJAK AIRPORT","2402356","2018-11-06 05:00","2018","11","06","05:00"
"-81.24","68.78","SANIRAJAK AIRPORT","2402356","2018-11-06 06:00","2018","11","06","06:00"
"-81.24","68.78","SANIRAJAK AIRPORT","2402356","2018-11-06 07:00","2018","11","06","07:00","-18.6","","-20.5","","85","","","","9","","14","","24.1","","101.88","","","","-27","","Cloudy"
"-81.24","68.78","SANIRAJAK AIRPORT","2402356","2018-11-06 08:00","2018","11","06","08:00","-19.1","","-21.0","","85","","","","6","","12","","12.9","","101.88","","","","-27","","Snow"
"-81.24","68.78","SANIRAJAK AIRPORT","2402356","2018-11-06 09:00","2018","11","06","09:00","-19.3","","-21.2","","85","","","","5","","17","","16.1","","101.86","","","","-29","","Snow"
"-81.24","68.78","SANIRAJAK AIRPORT","2402356","2018-11-06 10:00","2018","11","06","10:00","-18.9","","-20.7","","86","","","","7","","17","","24.1","","101.86","","","","-28","","Cloudy"
"-81.24","68.78","SANIRAJAK AIRPORT","2402356","2018-11-06 11:00","2018","11","06","11:00","-18.5","","-20.4","","85","","","","8","","17","","16.1","","101.85","","","","-28","","NA"
"-81.24","68.78","SANIRAJAK AIRPORT","2402356","2018-11-06 12:00","2018","11","06","12:00","-19.0","","-20.8","","86","","","","7","","13","","24.1","","101.85","","","","-27","","Snow"
"-81.24","68.78","SANIRAJAK AIRPORT","2402356","2018-11-06 13:00","2018","11","06","13:00","-19.4","","-21.3","","85","","","","7","","15","","24.1","","101.83","","","","-28","","Mainly Clear"
"-81.24","68.78","SANIRAJAK AIRPORT","2402356","2018-11-06 14:00","2018","11","06","14:00","-18.6","","-20.5","","85","","","","6","","15","","19.3","","101.83","","","","-27","","NA"
"-81.24","68.78","SANIRAJAK AIRPORT","2402356","2018-11-06 15:00","2018","11","06","15:00","-18.4","","-20.1","","87","","","","6","","16","","16.1","","101.84","","","","-27","","NA"
"-81.24","68.78","SANIRAJAK AIRPORT","2402356","2018-11-06 16:00","2018","11","06","16:00","-18.2","","-20.0","","86","","","","7","","18","","19.3","","101.81","","","","-28","","Cloudy"
"-81.24","68.78","SANIRAJAK AIRPORT","2402356","2018-11-06 17:00","2018","11","06","17:00","-18.1","","-19.9","","86","","","","7","","21","","16.1","","101.79","","","","-28","","NA"
"-81.24","68.78","SANIRAJAK AIRPORT","2402356","2018-11-06 18:00","2018","11","06","18:00","-18.0","","-19.8","","86","","","","6","","18","","12.9","","101.78","","","","-27","","Snow"
"-81.24","68.78","SANIRAJAK AIRPORT","2402356","2018-11-06 19:00","2018","11","06","19:00","-18.3","","-20.1","","86","","","","7","","16","","19.3","","101.77","","","","-27","","Snow"
"-81.24","68.78","SANIRAJAK AIRPORT","2402356","2018-11-06 20:00","2018","11","06","20:00"
"-81.24","68.78","SANIRAJAK AIRPORT","2402356","2018-11-06 21:00","2018","11","06","21:00"
"-81.24","68.78","SANIRAJAK AIRPORT","2402356","2018-11-06 22:00","2018","11","06","22:00","-18.2","","-20.0","","86","","","","5","","20","","19.3","","101.68","","","","-28","","Snow,Blowing Snow"
"-81.24","68.78","SANIRAJAK AIRPORT","2402356","2018-11-06 23:00","2018","11","06","23:00","-17.9","","-19.6","","87","","","","5","","24","","11.3","","101.64","","","","-29","","Snow,Blowing Snow"
"-81.24","68.78","SANIRAJAK AIRPORT","2402356","2018-11-07 00:00","2018","11","07","00:00","-18.1","","-19.8","","87","","","","4","","27","","16.1","","101.60","","","","-30","","Snow,Blowing Snow"
"-81.24","68.78","SANIRAJAK AIRPORT","2402356","2018-11-07 01:00","2018","11","07","01:00","-17.9","","-19.6","","87","","","","7","","26","","6.4","","101.54","","","","-29","","Snow,Blowing Snow"
"-81.24","68.78","SANIRAJAK AIRPORT","2402356","2018-11-07 02:00","2018","11","07","02:00","-17.5","","-19.2","","87","","","","5","","27","","6.4","","101.53","","","","-29","","Snow,Blowing Snow"
"-81.24","68.78","SANIRAJAK AIRPORT","2402356","2018-11-07 03:00","2018","11","07","03:00","-17.9","","-19.7","","86","","","","3","","28","","12.9","","101.46","","","","-29","","Ice Crystals,Blowing Snow"
"-81.24","68.78","SANIRAJAK AIRPORT","2402356","2018-11-07 04:00","2018","11","07","04:00","-17.7","","-19.4","","87","","","","3","","34","","16.1","","101.40","","","","-30","","Ice Crystals,Blowing Snow"
"-81.24","68.78","SANIRAJAK AIRPORT","2402356","2018-11-07 05:00","2018","11","07","05:00","-17.1","","-18.8","","87","","","","3","","30","","19.3","","101.35","","","","-29","","Ice Crystals,Blowing Snow"
"-81.24","68.78","SANIRAJAK AIRPORT","2402356","2018-11-07 06:00","2018","11","07","06:00"
"-81.24","68.78","SANIRAJAK AIRPORT","2402356","2018-11-07 07:00","2018","11","07","07:00","-14.9","","-16.3","","89","","","","5","","34","","16.1","","101.22","","","","-27","","Ice Crystals,Blowing Snow"
"-81.24","68.78","SANIRAJAK AIRPORT","2402356","2018-11-07 08:00","2018","11","07","08:00","-14.5","","-15.8","","90","","","","5","","36","","3.2","","101.14","","","","-26","","Ice Crystals,Blowing Snow"
"-81.24","68.78","SANIRAJAK AIRPORT","2402356","2018-11-07 09:00","2018","11","07","09:00","-13.8","","-15.1","","90","","","","5","","36","","0.8","","101.08","","","","-25","","Snow,Blowing Snow"
"-81.24","68.78","SANIRAJAK AIRPORT","2402356","2018-11-07 10:00","2018","11","07","10:00","-13.1","","-14.3","","91","","","","5","","45","","0.6","","101.01","","","","-25","","Snow,Blowing Snow"
"-81.24","68.78","SANIRAJAK AIRPORT","2402356","2018-11-07 11:00","2018","11","07","11:00","-12.5","","-13.7","","91","","","","5","","45","","0.4","","100.91","","","","-25","","Snow,Blowing Snow"
"-81.24","68.78","SANIRAJAK AIRPORT","2402356","2018-11-07 12:00","2018","11","07","12:00","-10.9","","-11.8","","93","","","","5","","43","","0.4","","100.82","","","","-22","","Snow,Blowing Snow"
"-81.24","68.78","SANIRAJAK AIRPORT","2402356","2018-11-07 13:00","2018","11","07","13:00","-9.9","","-10.7","","94","","","","6","","46","","0.6","","100.73","","","","-21","","Snow,Blowing Snow"
"-81.24","68.78","SANIRAJAK AIRPORT","2402356","2018-11-07 14:00","2018","11","07","14:00"
"-81.24","68.78","SANIRAJAK AIRPORT","2402356","2018-11-07 15:00","2018","11","07","15:00","-7.0","","-7.4","","97","","","","8","","37","","0.8","","100.66","","","","-16","","Snow,Blowing Snow"
"-81.24","68.78","SANIRAJAK AIRPORT","2402356","2018-11-07 16:00","2018","11","07","16:00","-6.2","","-6.6","","97","","","","10","","34","","1.6","","100.67","","","","-15","","Snow,Blowing Snow"
"-81.24","68.78","SANIRAJAK AIRPORT","2402356","2018-11-07 17:00","2018","11","07","17:00","-6.2","","-6.7","","96","","","","10","","41","","1.6","","100.69","","","","-16","","Snow,Blowing Snow"
"-81.24","68.78","SANIRAJAK AIRPORT","2402356","2018-11-07 18:00","2018","11","07","18:00","-6.6","","-7.1","","96","","","","10","","39","","2.4","","100.73","","","","-16","","Snow,Blowing Snow"
"-81.24","68.78","SANIRAJAK AIRPORT","2402356","2018-11-07 19:00","2018","11","07","19:00","-6.7","","-7.2","","96","","","","10","","36","","1.6","","100.75","","","","-16","","Snow,Blowing Snow"
"-81.24","68.78","SANIRAJAK AIRPORT","2402356","2018-11-07 20:00","2018","11","07","20:00"
"-81.24","68.78","SANIRAJAK AIRPORT","2402356","2018-11-07 21:00","2018","11","07","21:00"
"-81.24","68.78","SANIRAJAK AIRPORT","2402356","2018-11-07 22:00","2018","11","07","22:00"
"-81.24","68.78","SANIRAJAK AIRPORT","2402356","2018-11-07 23:00","2018","11","07","23:00"
"-81.24","68.78","SANIRAJAK AIRPORT","2402356","2018-11-08 00:00","2018","11","08","00:00"
"-81.24","68.78","SANIRAJAK AIRPORT","2402356","2018-11-08 01:00","2018","11","08","01:00"
"-81.24","68.78","SANIRAJAK AIRPORT","2402356","2018-11-08 02:00","2018","11","08","02:00"
"-81.24","68.78","SANIRAJAK AIRPORT","2402356","2018-11-08 03:00","2018","11","08","03:00"
"-81.24","68.78","SANIRAJAK AIRPORT","2402356","2018-11-08 04:00","2018","11","08","04:00"
"-81.24","68.78","SANIRAJAK AIRPORT","2402356","2018-11-08 05:00","2018","11","08","05:00"
"-81.24","68.78","SANIRAJAK AIRPORT","2402356","2018-11-08 06:00","2018","11","08","06:00"
"-81.24","68.78","SANIRAJAK AIRPORT","2402356","2018-11-08 07:00","2018","11","08","07:00","-10.6","","-11.5","","93","","","","17","","25","","4.8","","101.08","","","","-20","","Ice Crystals,Blowing Snow"
"-81.24","68.78","SANIRAJAK AIRPORT","2402356","2018-11-08 08:00","2018","11","08","08:00","-13.5","","-14.7","","91","","","","16","","21","","24.1","","101.17","","","","-22","","Ice Crystals"
"-81.24","68.78","SANIRAJAK AIRPORT","2402356","2018-11-08 09:00","2018","11","08","09:00","-13.4","","-14.6","","91","","","","16","","21","","16.1","","101.21","","","","-22","","Ice Crystals"
"-81.24","68.78","SANIRAJAK AIRPORT","2402356","2018-11-08 10:00","2018","11","08","10:00","-13.9","","-15.2","","90","","","","15","","20","","24.1","","101.26","","","","-23","","Ice Crystals"
"-81.24","68.78","SANIRAJAK AIRPORT","2402356","2018-11-08 11:00","2018","11","08","11:00","-13.9","","-15.2","","90","","","","17","","20","","24.1","","101.32","","","","-23","","Ice Crystals"
"-81.24","68.78","SANIRAJAK AIRPORT","2402356","2018-11-08 12:00","2018","11","08","12:00","-14.4","","-15.7","","90","","","","16","","21","","24.1","","101.35","","","","-24","","Ice Crystals,Blowing Snow"
"-81.24","68.78","SANIRAJAK AIRPORT","2402356","2018-11-08 13:00","2018","11","08","13:00","-14.7","","-16.1","","89","","","","17","","16","","24.1","","101.40","","","","-23","","Ice Crystals"
"-81.24","68.78","SANIRAJAK AIRPORT","2402356","2018-11-08 14:00","2018","11","08","14:00","-15.9","","-17.4","","88","","","","16","","14","","24.1","","101.45","","","","-24","","Ice Crystals"
"-81.24","68.78","SANIRAJAK AIRPORT","2402356","2018-11-08 15:00","2018","11","08","15:00","-16.3","","-17.6","","90","","","","18","","9","","24.1","","101.47","","","","-22","","NA"
"-81.24","68.78","SANIRAJAK AIRPORT","2402356","2018-11-08 16:00","2018","11","08","16:00","-17.0","","-18.7","","87","","","","19","","5","","24.1","","101.51","","","","-21","","Clear"
"-81.24","68.78","SANIRAJAK AIRPORT","2402356","2018-11-08 17:00","2018","11","08","17:00","-19.7","","-21.2","","88","","","","25","","5","","6.4","","101.54","","","","-24","","Ice Crystals,Fog"
"-81.24","68.78","SANIRAJAK AIRPORT","2402356","2018-11-08 18:00","2018","11","08","18:00","-17.9","","-19.6","","87","","","","21","","3","","16.1","","101.55","","","","-20","","Ice Crystals"
"-81.24","68.78","SANIRAJAK AIRPORT","2402356","2018-11-08 19:00","2018","11","08","19:00","-21.9","","-23.8","","85","","","","2","","4","","3.2","","101.54","","","","-26","","Ice Crystals,Fog"
"-81.24","68.78","SANIRAJAK AIRPORT","2402356","2018-11-08 20:00","2018","11","08","20:00"
"-81.24","68.78","SANIRAJAK AIRPORT","2402356","2018-11-08 21:00","2018","11","08","21:00"
"-81.24","68.78","SANIRAJAK AIRPORT","2402356","2018-11-08 22:00","2018","11","08","22:00"
"-81.24","68.78","SANIRAJAK AIRPORT","2402356","2018-11-08 23:00","2018","11","08","23:00"
"-81.24","68.78","SANIRAJAK AIRPORT","2402356","2018-11-09 00:00","2018","11","09","00:00"
"-81.24","68.78","SANIRAJAK AIRPORT","2402356","2018-11-09 01:00","2018","11","09","01:00"
"-81.24","68.78","SANIRAJAK AIRPORT","2402356","2018-11-09 02:00","2018","11","09","02:00"
"-81.24","68.78","SANIRAJAK AIRPORT","2402356","2018-11-09 03:00","2018","11","09","03:00"
"-81.24","68.78","SANIRAJAK AIRPORT","2402356","2018-11-09 04:00","2018","11","09","04:00"
"-81.24","68.78","SANIRAJAK AIRPORT","2402356","2018-11-09 05:00","2018","11","09","05:00"
"-81.24","68.78","SANIRAJAK AIRPORT","2402356","2018-11-09 06:00","2018","11","09","06:00"
"-81.24","68.78","SANIRAJAK AIRPORT","2402356","2018-11-09 07:00","2018","11","09","07:00","-5.5","","-5.7","","98","","","","10","","14","","3.2","","101.20","","","","-11","","Snow"
"-81.24","68.78","SANIRAJAK AIRPORT","2402356","2018-11-09 08:00","2018","11","09","08:00","-5.4","","-5.7","","98","","","","11","","15","","4.8","","101.18","","","","-11","","Snow"
"-81.24","68.78","SANIRAJAK AIRPORT","2402356","2018-11-09 09:00","2018","11","09","09:00","-5.6","","-5.9","","98","","","","11","","21","","4.8","","101.15","","","","-12","","Snow,Heavy Ice Pellet Showers"
"-81.24","68.78","SANIRAJAK AIRPORT","2402356","2018-11-09 10:00","2018","11","09","10:00","-5.6","","-5.9","","98","","","","12","","18","","8.1","","101.12","","","","-12","","Snow"
"-81.24","68.78","SANIRAJAK AIRPORT","2402356","2018-11-09 11:00","2018","11","09","11:00","-5.5","","-5.8","","98","","","","12","","14","","16.1","","101.11","","","","-11","","Snow"
"-81.24","68.78","SANIRAJAK AIRPORT","2402356","2018-11-09 12:00","2018","11","09","12:00","-6.8","","-7.5","","95","","","","19","","3","","6.4","","101.12","","","","-8","","Snow,Fog"
"-81.24","68.78","SANIRAJAK AIRPORT","2402356","2018-11-09 13:00","2018","11","09","13:00","-13.3","","-14.8","","89","","","","26","","15","","0.8","","101.14","","","","-21","","Snow,Freezing Fog"
"-81.24","68.78","SANIRAJAK AIRPORT","2402356","2018-11-09 14:00","2018","11","09","14:00","-14.5","","-15.9","","89","","","","24","","15","","16.1","","101.18","","","","-22","","NA"
"-81.24","68.78","SANIRAJAK AIRPORT","2402356","2018-11-09 15:00","2018","11","09","15:00","-14.7","","-15.9","","91","","","","25","","22","","3.2","","101.21","","","","-24","","Snow,Fog"
"-81.24","68.78","SANIRAJAK AIRPORT","2402356","2018-11-09 16:00","2018","11","09","16:00","-14.2","","-15.9","","87","","","","22","","19","","1.6","","101.26","","","","-23","","Ice Crystals,Fog"
"-81.24","68.78","SANIRAJAK AIRPORT","2402356","2018-11-09 17:00","2018","11","09","17:00","-13.8","","-15.0","","91","","","","23","","17","","0.8","","101.29","","","","-22","","Ice Crystals,Freezing Fog"
"-81.24","68.78","SANIRAJAK AIRPORT","2402356","2018-11-09 18:00","2018","11","09","18:00","-16.8","","-18.5","","87","","","","23","","10","","0.2","","101.32","","","","-23","","Ice Crystals,Freezing Fog"
"-81.24","68.78","SANIRAJAK AIRPORT","2402356","2018-11-09 19:00","2018","11","09","19:00","-17.6","","-19.3","","87","","","","22","","13","","0.2","","101.35","","","","-25","","Ice Crystals,Freezing Fog"
"-81.24","68.78","SANIRAJAK AIRPORT","2402356","2018-11-09 20:00","2018","11","09","20:00"
"-81.24","68.78","SANIRAJAK AIRPORT","2402356","2018-11-09 21:00","2018","11","09","21:00"
"-81.24","68.78","SANIRAJAK AIRPORT","2402356","2018-11-09 22:00","2018","11","09","22:00"
"-81.24","68.78","SANIRAJAK AIRPORT","2402356","2018-11-09 23:00","2018","11","09","23:00"
"-81.24","68.78","SANIRAJAK AIRPORT","2402356","2018-11-10 00:00","2018","11","10","00:00"
"-81.24","68.78","SANIRAJAK AIRPORT","2402356","2018-11-10 01:00","2018","11","10","01:00"
"-81.24","68.78","SANIRAJAK AIRPORT","2402356","2018-11-10 02:00","2018","11","10","02:00"
"-81.24","68.78","SANIRAJAK AIRPORT","2402356","2018-11-10 03:00","2018","11","10","03:00"
"-81.24","68.78","SANIRAJAK AIRPORT","2402356","2018-11-10 04:00","2018","11","10","04:00"
"-81.24","68.78","SANIRAJAK AIRPORT","2402356","2018-11-10 05:00","2018","11","10","05:00"
"-81.24","68.78","SANIRAJAK AIRPORT","2402356","2018-11-10 06:00","2018","11","10","06:00"
"-81.24","68.78","SANIRAJAK AIRPORT","2402356","2018-11-10 07:00","2018","11","10","07:00","-17.1","","-18.8","","87","","","","21","","14","","4.8","","101.53","","","","-25","","Ice Crystals,Fog"
"-81.24","68.78","SANIRAJAK AIRPORT","2402356","2018-11-10 08:00","2018","11","10","08:00","-17.2","","-18.9","","87","","","","23","","17","","6.4","","101.52","","","","-26","","Ice Crystals,Fog"
"-81.24","68.78","SANIRAJAK AIRPORT","2402356","2018-11-10 09:00","2018","11","10","09:00","-17.2","","-18.9","","87","","","","23","","13","","16.1","","101.52","","","","-25","","NA"
"-81.24","68.78","SANIRAJAK AIRPORT","2402356","2018-11-10 10:00","2018","11","10","10:00","-17.2","","-18.9","","87","","","","19","","14","","24.1","","101.53","","","","-25","","Cloudy"
"-81.24","68.78","SANIRAJAK AIRPORT","2402356","2018-11-10 11:00","2018","11","10","11:00","-17.2","","-18.9","","87","","","","22","","15","","24.1","","101.55","","","","-26","","NA"
"-81.24","68.78","SANIRAJAK AIRPORT","2402356","2018-11-10 12:00","2018","11","10","12:00","-17.1","","-18.6","","88","","","","21","","14","","24.1","","101.59","","","","-25","","NA"
"-81.24","68.78","SANIRAJAK AIRPORT","2402356","2018-11-10 13:00","2018","11","10","13:00","-16.8","","-18.3","","88","","","","22","","12","","24.1","","101.61","","","","-24","","Cloudy"
"-81.24","68.78","SANIRAJAK AIRPORT","2402356","2018-11-10 14:00","2018","11","10","14:00","-16.5","","-18.1","","88","","","","24","","13","","24.1","","101.62","","","","-24","","NA"
"-81.24","68.78","SANIRAJAK AIRPORT","2402356","2018-11-10 15:00","2018","11","10","15:00","-16.6","","-18.1","","88","","","","24","","11","","24.1","","101.63","","","","-24","","NA"
"-81.24","68.78","SANIRAJAK AIRPORT","2402356","2018-11-10 16:00","2018","11","10","16:00","-16.5","","-18.1","","88","","","","24","","13","","24.1","","101.65","","","","-24","","Cloudy"
"-81.24","68.78","SANIRAJAK AIRPORT","2402356","2018-11-10 17:00","2018","11","10","17:00","-17.0","","-18.7","","87","","","","26","","10","","24.1","","101.65","","","","-24","","NA"
"-81.24","68.78","SANIRAJAK AIRPORT","2402356","2018-11-10 18:00","2018","11","10","18:00","-18.0","","-19.8","","86","","","","24","","7","","24.1","","101.65","","","","-23","","NA"
"-81.24","68.78","SANIRAJAK AIRPORT","2402356","2018-11-10 19:00","2018","11","10","19:00","-17.9","","-19.6","","87","","","","29","","8","","24.1","","101.63","","","","-24","","Cloudy"
"-81.24","68.78","SANIRAJAK AIRPORT","2402356","2018-11-10 20:00","2018","11","10","20:00"
"-81.24","68.78","SANIRAJAK AIRPORT","2402356","2018-11-10 21:00","2018","11","10","21:00"
"-81.24","68.78","SANIRAJAK AIRPORT","2402356","2018-11-10 22:00","2018","11","10","22:00"
"-81.24","68.78","SANIRAJAK AIRPORT","2402356","2018-11-10 23:00","2018","11","10","23:00"
"-81.24","68.78","SANIRAJAK AIRPORT","2402356","2018-11-11 00:00","2018","11","11","00:00"
"-81.24","68.78","SANIRAJAK AIRPORT","2402356","2018-11-11 01:00","2018","11","11","01:00"
"-81.24","68.78","SANIRAJAK AIRPORT","2402356","2018-11-11 02:00","2018","11","11","02:00"
"-81.24","68.78","SANIRAJAK AIRPORT","2402356","2018-11-11 03:00","2018","11","11","03:00"
"-81.24","68.78","SANIRAJAK AIRPORT","2402356","2018-11-11 04:00","2018","11","11","04:00"
"-81.24","68.78","SANIRAJAK AIRPORT","2402356","2018-11-11 05:00","2018","11","11","05:00"
"-81.24","68.78","SANIRAJAK AIRPORT","2402356","2018-11-11 06:00","2018","11","11","06:00"
"-81.24","68.78","SANIRAJAK AIRPORT","2402356","2018-11-11 07:00","2018","11","11","07:00","-23.6","","-25.9","","82","","","","34","","18","","24.1","","101.49","","","","-34","","Mainly Clear"
"-81.24","68.78","SANIRAJAK AIRPORT","2402356","2018-11-11 08:00","2018","11","11","08:00","-24.3","","-26.7","","81","","","","33","","19","","24.1","","101.48","","","","-36","","NA"
"-81.24","68.78","SANIRAJAK AIRPORT","2402356","2018-11-11 09:00","2018","11","11","09:00","-23.7","","-25.8","","83","","","","32","","26","","24.1","","101.48","","","","-37","","Blowing Snow"
"-81.24","68.78","SANIRAJAK AIRPORT","2402356","2018-11-11 10:00","2018","11","11","10:00","-23.4","","-25.7","","82","","","","34","","25","","24.1","","101.48","","","","-36","","Blowing Snow"
"-81.24","68.78","SANIRAJAK AIRPORT","2402356","2018-11-11 11:00","2018","11","11","11:00","-24.1","","-26.6","","80","","","","34","","20","","24.1","","101.49","","","","-36","","Blowing Snow"
"-81.24","68.78","SANIRAJAK AIRPORT","2402356","2018-11-11 12:00","2018","11","11","12:00","-24.0","","-26.4","","81","","","","33","","22","","24.1","","101.50","","","","-36","","Blowing Snow"
"-81.24","68.78","SANIRAJAK AIRPORT","2402356","2018-11-11 13:00","2018","11","11","13:00","-23.8","","-26.2","","81","","","","32","","24","","24.1","","101.51","","","","-36","","Blowing Snow"
"-81.24","68.78","SANIRAJAK AIRPORT","2402356","2018-11-11 14:00","2018","11","11","14:00","-23.0","","-25.4","","81","","","","33","","23","","24.1","","101.54","","","","-35","","Blowing Snow"
"-81.24","68.78","SANIRAJAK AIRPORT","2402356","2018-11-11 15:00","2018","11","11","15:00","-24.2","","-26.6","","81","","","","33","","26","","24.1","","101.57","","","","-37","","NA"
"-81.24","68.78","SANIRAJAK AIRPORT","2402356","2018-11-11 16:00","2018","11","11","16:00","-24.6","","-27.1","","80","","","","33","","21","","24.1","","101.62","","","","-37","","Ice Crystals"
"-81.24","68.78","SANIRAJAK AIRPORT","2402356","2018-11-11 17:00","2018","11","11","17:00","-25.8","","-28.4","","79","","","","32","","21","","24.1","","101.65","","","","-38","","Ice Crystals"
"-81.24","68.78","SANIRAJAK AIRPORT","2402356","2018-11-11 18:00","2018","11","11","18:00","-26.9","","-29.6","","78","","","","31","","25","","24.1","","101.65","","","","-40","","Ice Crystals,Blowing Snow"
"-81.24","68.78","SANIRAJAK AIRPORT","2402356","2018-11-11 19:00","2018","11","11","19:00","-26.2","","-29.0","","78","","","","31","","22","","24.1","","101.66","","","","-39","","Ice Crystals,Blowing Snow"
"-81.24","68.78","SANIRAJAK AIRPORT","2402356","2018-11-11 20:00","2018","11","11","20:00"
"-81.24","68.78","SANIRAJAK AIRPORT","2402356","2018-11-11 21:00","2018","11","11","21:00"
"-81.24","68.78","SANIRAJAK AIRPORT","2402356","2018-11-11 22:00","2018","11","11","22:00"
"-81.24","68.78","SANIRAJAK AIRPORT","2402356","2018-11-11 23:00","2018","11","11","23:00"
"-81.24","68.78","SANIRAJAK AIRPORT","2402356","2018-11-12 00:00","2018","11","12","00:00"
"-81.24","68.78","SANIRAJAK AIRPORT","2402356","2018-11-12 01:00","2018","11","12","01:00"
"-81.24","68.78","SANIRAJAK AIRPORT","2402356","2018-11-12 02:00","2018","11","12","02:00"
"-81.24","68.78","SANIRAJAK AIRPORT","2402356","2018-11-12 03:00","2018","11","12","03:00"
"-81.24","68.78","SANIRAJAK AIRPORT","2402356","2018-11-12 04:00","2018","11","12","04:00"
"-81.24","68.78","SANIRAJAK AIRPORT","2402356","2018-11-12 05:00","2018","11","12","05:00"
"-81.24","68.78","SANIRAJAK AIRPORT","2402356","2018-11-12 06:00","2018","11","12","06:00"
"-81.24","68.78","SANIRAJAK AIRPORT","2402356","2018-11-12 07:00","2018","11","12","07:00","-19.3","","-21.2","","85","","","","25","","6","","24.1","","101.87","","","","-24","","Cloudy"
"-81.24","68.78","SANIRAJAK AIRPORT","2402356","2018-11-12 08:00","2018","11","12","08:00","-19.0","","-20.8","","86","","","","27","","8","","24.1","","101.88","","","","-25","","NA"
"-81.24","68.78","SANIRAJAK AIRPORT","2402356","2018-11-12 09:00","2018","11","12","09:00","-19.1","","-20.9","","86","","","","27","","4","","24.1","","101.88","","","","-22","","NA"
"-81.24","68.78","SANIRAJAK AIRPORT","2402356","2018-11-12 10:00","2018","11","12","10:00","-19.1","","-21.0","","85","","","","22","","9","","24.1","","101.88","","","","-26","","Mostly Cloudy"
"-81.24","68.78","SANIRAJAK AIRPORT","2402356","2018-11-12 11:00","2018","11","12","11:00","-19.2","","-21.1","","85","","","","24","","9","","24.1","","101.90","","","","-26","","NA"
"-81.24","68.78","SANIRAJAK AIRPORT","2402356","2018-11-12 12:00","2018","11","12","12:00","-21.7","","-24.0","","82","","","","26","","14","","24.1","","101.91","","","","-31","","NA"
"-81.24","68.78","SANIRAJAK AIRPORT","2402356","2018-11-12 13:00","2018","11","12","13:00","-22.0","","-24.0","","84","","","","28","","7","","24.1","","101.94","","","","-28","","Cloudy"
"-81.24","68.78","SANIRAJAK AIRPORT","2402356","2018-11-12 14:00","2018","11","12","14:00","-20.4","","-22.2","","86","","","","28","","4","","24.1","","101.95","","","","-24","","NA"
"-81.24","68.78","SANIRAJAK AIRPORT","2402356","2018-11-12 15:00","2018","11","12","15:00","-23.1","","-25.4","","82","","","","28","","7","","24.1","","101.95","","","","-29","","NA"
"-81.24","68.78","SANIRAJAK AIRPORT","2402356","2018-11-12 16:00","2018","11","12","16:00","-23.4","","-25.5","","83","","","","28","","8","","24.1","","101.97","","","","-30","","Cloudy"
"-81.24","68.78","SANIRAJAK AIRPORT","2402356","2018-11-12 17:00","2018","11","12","17:00","-25.1","","-27.9","","78","","","","25","","12","","24.1","","101.97","","","","-34","","NA"
"-81.24","68.78","SANIRAJAK AIRPORT","2402356","2018-11-12 18:00","2018","11","12","18:00","-25.9","","-28.0","","83","","","","25","","7","","24.1","","102.01","","","","-33","","NA"
"-81.24","68.78","SANIRAJAK AIRPORT","2402356","2018-11-12 19:00","2018","11","12","19:00","-24.7","","-27.1","","81","","","","27","","9","","24.1","","102.00","","","","-32","","Cloudy"
"-81.24","68.78","SANIRAJAK AIRPORT","2402356","2018-11-12 20:00","2018","11","12","20:00"
"-81.24","68.78","SANIRAJAK AIRPORT","2402356","2018-11-12 21:00","2018","11","12","21:00"
"-81.24","68.78","SANIRAJAK AIRPORT","2402356","2018-11-12 22:00","2018","11","12","22:00"
"-81.24","68.78","SANIRAJAK AIRPORT","2402356","2018-11-12 23:00","2018","11","12","23:00"
"-81.24","68.78","SANIRAJAK AIRPORT","2402356","2018-11-13 00:00","2018","11","13","00:00"
"-81.24","68.78","SANIRAJAK AIRPORT","2402356","2018-11-13 01:00","2018","11","13","01:00"
"-81.24","68.78","SANIRAJAK AIRPORT","2402356","2018-11-13 02:00","2018","11","13","02:00"
"-81.24","68.78","SANIRAJAK AIRPORT","2402356","2018-11-13 03:00","2018","11","13","03:00"
"-81.24","68.78","SANIRAJAK AIRPORT","2402356","2018-11-13 04:00","2018","11","13","04:00"
"-81.24","68.78","SANIRAJAK AIRPORT","2402356","2018-11-13 05:00","2018","11","13","05:00"
"-81.24","68.78","SANIRAJAK AIRPORT","2402356","2018-11-13 06:00","2018","11","13","06:00"
"-81.24","68.78","SANIRAJAK AIRPORT","2402356","2018-11-13 07:00","2018","11","13","07:00","-17.8","","-19.5","","87","","","","34","","13","","12.9","","101.90","","","","-26","","Snow"
"-81.24","68.78","SANIRAJAK AIRPORT","2402356","2018-11-13 08:00","2018","11","13","08:00","-15.2","","-16.6","","89","","","","6","","14","","12.9","","101.86","","","","-23","","Snow"
"-81.24","68.78","SANIRAJAK AIRPORT","2402356","2018-11-13 09:00","2018","11","13","09:00","-15.1","","-16.5","","89","","","","6","","17","","16.1","","101.84","","","","-24","","Snow"
"-81.24","68.78","SANIRAJAK AIRPORT","2402356","2018-11-13 10:00","2018","11","13","10:00","-14.7","","-16.1","","89","","","","7","","22","","8.1","","101.80","","","","-24","","Snow"
"-81.24","68.78","SANIRAJAK AIRPORT","2402356","2018-11-13 11:00","2018","11","13","11:00","-14.7","","-16.0","","90","","","","6","","21","","16.1","","101.78","","","","-24","","Snow"
"-81.24","68.78","SANIRAJAK AIRPORT","2402356","2018-11-13 12:00","2018","11","13","12:00","-14.4","","-15.7","","90","","","","4","","24","","16.1","","101.78","","","","-24","","Snow"
"-81.24","68.78","SANIRAJAK AIRPORT","2402356","2018-11-13 13:00","2018","11","13","13:00","-14.4","","-15.7","","90","","","","4","","22","","12.9","","101.75","","","","-24","","Snow"
"-81.24","68.78","SANIRAJAK AIRPORT","2402356","2018-11-13 14:00","2018","11","13","14:00","-14.6","","-16.0","","89","","","","5","","23","","16.1","","101.74","","","","-24","","Snow"
"-81.24","68.78","SANIRAJAK AIRPORT","2402356","2018-11-13 15:00","2018","11","13","15:00","-14.8","","-16.1","","90","","","","5","","24","","16.1","","101.74","","","","-25","","Snow,Blowing Snow"
"-81.24","68.78","SANIRAJAK AIRPORT","2402356","2018-11-13 16:00","2018","11","13","16:00","-14.7","","-16.0","","90","","","","4","","19","","16.1","","101.73","","","","-24","","Snow"
"-81.24","68.78","SANIRAJAK AIRPORT","2402356","2018-11-13 17:00","2018","11","13","17:00","-14.7","","-16.0","","90","","","","2","","19","","19.3","","101.71","","","","-24","","Snow"
"-81.24","68.78","SANIRAJAK AIRPORT","2402356","2018-11-13 18:00","2018","11","13","18:00","-16.3","","-17.9","","88","","","","35","","17","","19.3","","101.71","","","","-25","","Snow"
"-81.24","68.78","SANIRAJAK AIRPORT","2402356","2018-11-13 19:00","2018","11","13","19:00","-16.0","","-17.6","","88","","","","34","","19","","16.1","","101.69","","","","-25","","Snow"
"-81.24","68.78","SANIRAJAK AIRPORT","2402356","2018-11-13 20:00","2018","11","13","20:00"
"-81.24","68.78","SANIRAJAK AIRPORT","2402356","2018-11-13 21:00","2018","11","13","21:00"
"-81.24","68.78","SANIRAJAK AIRPORT","2402356","2018-11-13 22:00","2018","11","13","22:00"
"-81.24","68.78","SANIRAJAK AIRPORT","2402356","2018-11-13 23:00","2018","11","13","23:00"
"-81.24","68.78","SANIRAJAK AIRPORT","2402356","2018-11-14 00:00","2018","11","14","00:00"
"-81.24","68.78","SANIRAJAK AIRPORT","2402356","2018-11-14 01:00","2018","11","14","01:00"
"-81.24","68.78","SANIRAJAK AIRPORT","2402356","2018-11-14 02:00","2018","11","14","02:00"
"-81.24","68.78","SANIRAJAK AIRPORT","2402356","2018-11-14 03:00","2018","11","14","03:00"
"-81.24","68.78","SANIRAJAK AIRPORT","2402356","2018-11-14 04:00","2018","11","14","04:00"
"-81.24","68.78","SANIRAJAK AIRPORT","2402356","2018-11-14 05:00","2018","11","14","05:00"
"-81.24","68.78","SANIRAJAK AIRPORT","2402356","2018-11-14 06:00","2018","11","14","06:00"
"-81.24","68.78","SANIRAJAK AIRPORT","2402356","2018-11-14 07:00","2018","11","14","07:00","-20.1","","-22.0","","85","","","","33","","26","","24.1","","101.66","","","","-32","","Blowing Snow"
"-81.24","68.78","SANIRAJAK AIRPORT","2402356","2018-11-14 08:00","2018","11","14","08:00","-20.5","","-22.5","","84","","","","34","","26","","24.1","","101.66","","","","-32","","Blowing Snow"
"-81.24","68.78","SANIRAJAK AIRPORT","2402356","2018-11-14 09:00","2018","11","14","09:00","-20.9","","-22.9","","84","","","","33","","26","","24.1","","101.65","","","","-33","","Blowing Snow"
"-81.24","68.78","SANIRAJAK AIRPORT","2402356","2018-11-14 10:00","2018","11","14","10:00","-21.3","","-23.3","","84","","","","33","","26","","24.1","","101.65","","","","-33","","Blowing Snow"
"-81.24","68.78","SANIRAJAK AIRPORT","2402356","2018-11-14 11:00","2018","11","14","11:00","-21.6","","-23.8","","83","","","","33","","28","","16.1","","101.63","","","","-34","","Blowing Snow"
"-81.24","68.78","SANIRAJAK AIRPORT","2402356","2018-11-14 12:00","2018","11","14","12:00","-21.9","","-24.1","","83","","","","33","","29","","16.1","","101.66","","","","-35","","Blowing Snow"
"-81.24","68.78","SANIRAJAK AIRPORT","2402356","2018-11-14 13:00","2018","11","14","13:00","-22.1","","-24.2","","83","","","","34","","23","","16.1","","101.66","","","","-34","","Blowing Snow"
"-81.24","68.78","SANIRAJAK AIRPORT","2402356","2018-11-14 14:00","2018","11","14","14:00","-22.2","","-24.4","","83","","","","33","","24","","16.1","","101.66","","","","-34","","NA"
"-81.24","68.78","SANIRAJAK AIRPORT","2402356","2018-11-14 15:00","2018","11","14","15:00","-22.2","","-24.4","","83","","","","32","","20","","16.1","","101.67","","","","-33","","Snow"
"-81.24","68.78","SANIRAJAK AIRPORT","2402356","2018-11-14 16:00","2018","11","14","16:00","-22.2","","-24.4","","82","","","","31","","19","","19.3","","101.68","","","","-33","","Snow"
"-81.24","68.78","SANIRAJAK AIRPORT","2402356","2018-11-14 17:00","2018","11","14","17:00","-22.0","","-24.1","","83","","","","31","","21","","19.3","","101.68","","","","-33","","Snow"
"-81.24","68.78","SANIRAJAK AIRPORT","2402356","2018-11-14 18:00","2018","11","14","18:00","-22.0","","-24.1","","83","","","","30","","18","","24.1","","101.68","","","","-32","","NA"
"-81.24","68.78","SANIRAJAK AIRPORT","2402356","2018-11-14 19:00","2018","11","14","19:00","-22.8","","-24.9","","83","","","","31","","14","","24.1","","101.67","","","","-32","","Cloudy"
"-81.24","68.78","SANIRAJAK AIRPORT","2402356","2018-11-14 20:00","2018","11","14","20:00"
"-81.24","68.78","SANIRAJAK AIRPORT","2402356","2018-11-14 21:00","2018","11","14","21:00"
"-81.24","68.78","SANIRAJAK AIRPORT","2402356","2018-11-14 22:00","2018","11","14","22:00"
"-81.24","68.78","SANIRAJAK AIRPORT","2402356","2018-11-14 23:00","2018","11","14","23:00"
"-81.24","68.78","SANIRAJAK AIRPORT","2402356","2018-11-15 00:00","2018","11","15","00:00"
"-81.24","68.78","SANIRAJAK AIRPORT","2402356","2018-11-15 01:00","2018","11","15","01:00"
"-81.24","68.78","SANIRAJAK AIRPORT","2402356","2018-11-15 02:00","2018","11","15","02:00"
"-81.24","68.78","SANIRAJAK AIRPORT","2402356","2018-11-15 03:00","2018","11","15","03:00"
"-81.24","68.78","SANIRAJAK AIRPORT","2402356","2018-11-15 04:00","2018","11","15","04:00"
"-81.24","68.78","SANIRAJAK AIRPORT","2402356","2018-11-15 05:00","2018","11","15","05:00"
"-81.24","68.78","SANIRAJAK AIRPORT","2402356","2018-11-15 06:00","2018","11","15","06:00"
"-81.24","68.78","SANIRAJAK AIRPORT","2402356","2018-11-15 07:00","2018","11","15","07:00","-29.7","","-32.7","","76","","","","32","","25","","12.9","","101.70","","","","-44","","Ice Crystals"
"-81.24","68.78","SANIRAJAK AIRPORT","2402356","2018-11-15 08:00","2018","11","15","08:00","-29.0","","-31.9","","77","","","","32","","25","","16.1","","101.69","","","","-43","","Ice Crystals"
"-81.24","68.78","SANIRAJAK AIRPORT","2402356","2018-11-15 09:00","2018","11","15","09:00","-29.3","","-32.3","","76","","","","31","","26","","24.1","","101.69","","","","-44","","Ice Crystals"
"-81.24","68.78","SANIRAJAK AIRPORT","2402356","2018-11-15 10:00","2018","11","15","10:00","-28.8","","-31.8","","76","","","","32","","27","","24.1","","101.67","","","","-43","","Ice Crystals,Blowing Snow"
"-81.24","68.78","SANIRAJAK AIRPORT","2402356","2018-11-15 11:00","2018","11","15","11:00","-28.5","","-31.5","","76","","","","32","","23","","24.1","","101.67","","","","-42","","Ice Crystals,Blowing Snow"
"-81.24","68.78","SANIRAJAK AIRPORT","2402356","2018-11-15 12:00","2018","11","15","12:00","-26.6","","-29.4","","78","","","","32","","26","","24.1","","101.64","","","","-40","","Blowing Snow"
"-81.24","68.78","SANIRAJAK AIRPORT","2402356","2018-11-15 13:00","2018","11","15","13:00","-27.5","","-30.4","","77","","","","31","","24","","24.1","","101.65","","","","-41","","Blowing Snow"
"-81.24","68.78","SANIRAJAK AIRPORT","2402356","2018-11-15 14:00","2018","11","15","14:00","-29.1","","-32.2","","75","","","","31","","27","","24.1","","101.67","","","","-44","","Blowing Snow"
"-81.24","68.78","SANIRAJAK AIRPORT","2402356","2018-11-15 15:00","2018","11","15","15:00","-29.8","","-32.9","","75","","","","31","","27","","19.3","","101.65","","","","-45","","Ice Crystals,Blowing Snow"
"-81.24","68.78","SANIRAJAK AIRPORT","2402356","2018-11-15 16:00","2018","11","15","16:00","-30.7","","-33.9","","74","","","","32","","25","","24.1","","101.64","","","","-45","","Ice Crystals,Blowing Snow"
"-81.24","68.78","SANIRAJAK AIRPORT","2402356","2018-11-15 17:00","2018","11","15","17:00","-30.8","","-34.0","","74","","","","31","","25","","24.1","","101.64","","","","-45","","Blowing Snow"
"-81.24","68.78","SANIRAJAK AIRPORT","2402356","2018-11-15 18:00","2018","11","15","18:00","-30.8","","-34.0","","74","","","","31","","26","","24.1","","101.59","","","","-46","","Blowing Snow"
"-81.24","68.78","SANIRAJAK AIRPORT","2402356","2018-11-15 19:00","2018","11","15","19:00","-30.4","","-33.6","","74","","","","31","","26","","24.1","","101.57","","","","-45","","Blowing Snow"
"-81.24","68.78","SANIRAJAK AIRPORT","2402356","2018-11-15 20:00","2018","11","15","20:00"
"-81.24","68.78","SANIRAJAK AIRPORT","2402356","2018-11-15 21:00","2018","11","15","21:00"
"-81.24","68.78","SANIRAJAK AIRPORT","2402356","2018-11-15 22:00","2018","11","15","22:00"
"-81.24","68.78","SANIRAJAK AIRPORT","2402356","2018-11-15 23:00","2018","11","15","23:00"
"-81.24","68.78","SANIRAJAK AIRPORT","2402356","2018-11-16 00:00","2018","11","16","00:00"
"-81.24","68.78","SANIRAJAK AIRPORT","2402356","2018-11-16 01:00","2018","11","16","01:00"
"-81.24","68.78","SANIRAJAK AIRPORT","2402356","2018-11-16 02:00","2018","11","16","02:00"
"-81.24","68.78","SANIRAJAK AIRPORT","2402356","2018-11-16 03:00","2018","11","16","03:00"
"-81.24","68.78","SANIRAJAK AIRPORT","2402356","2018-11-16 04:00","2018","11","16","04:00"
"-81.24","68.78","SANIRAJAK AIRPORT","2402356","2018-11-16 05:00","2018","11","16","05:00"
"-81.24","68.78","SANIRAJAK AIRPORT","2402356","2018-11-16 06:00","2018","11","16","06:00"
"-81.24","68.78","SANIRAJAK AIRPORT","2402356","2018-11-16 07:00","2018","11","16","07:00","-27.4","","-30.3","","77","","","","31","","25","","4.8","","101.46","","","","-41","","Ice Crystals,Blowing Snow"
"-81.24","68.78","SANIRAJAK AIRPORT","2402356","2018-11-16 08:00","2018","11","16","08:00","-28.0","","-31.0","","76","","","","31","","27","","16.1","","101.47","","","","-42","","Ice Crystals,Blowing Snow"
"-81.24","68.78","SANIRAJAK AIRPORT","2402356","2018-11-16 09:00","2018","11","16","09:00","-28.2","","-31.1","","77","","","","31","","26","","16.1","","101.46","","","","-42","","Ice Crystals,Blowing Snow"
"-81.24","68.78","SANIRAJAK AIRPORT","2402356","2018-11-16 10:00","2018","11","16","10:00","-27.0","","-29.8","","78","","","","32","","25","","4.8","","101.44","","","","-41","","Ice Crystals,Blowing Snow"
"-81.24","68.78","SANIRAJAK AIRPORT","2402356","2018-11-16 11:00","2018","11","16","11:00","-27.4","","-30.2","","78","","","","32","","26","","6.4","","101.42","","","","-41","","Ice Crystals,Blowing Snow"
"-81.24","68.78","SANIRAJAK AIRPORT","2402356","2018-11-16 12:00","2018","11","16","12:00","-27.2","","-29.9","","78","","","","32","","30","","4.8","","101.40","","","","-42","","Ice Crystals,Blowing Snow"
"-81.24","68.78","SANIRAJAK AIRPORT","2402356","2018-11-16 13:00","2018","11","16","13:00","-26.9","","-29.6","","78","","","","32","","25","","4.8","","101.41","","","","-40","","Ice Crystals,Blowing Snow"
"-81.24","68.78","SANIRAJAK AIRPORT","2402356","2018-11-16 14:00","2018","11","16","14:00","-26.7","","-29.5","","78","","","","32","","30","","2.4","","101.41","","","","-41","","Ice Crystals,Fog,Blowing Snow"
"-81.24","68.78","SANIRAJAK AIRPORT","2402356","2018-11-16 15:00","2018","11","16","15:00","-27.5","","-30.4","","77","","","","31","","21","","4.8","","101.44","","","","-40","","Snow,Fog,Blowing Snow"
"-81.24","68.78","SANIRAJAK AIRPORT","2402356","2018-11-16 16:00","2018","11","16","16:00","-28.1","","-31.0","","77","","","","31","","24","","4.8","","101.41","","","","-42","","Snow,Fog,Blowing Snow"
"-81.24","68.78","SANIRAJAK AIRPORT","2402356","2018-11-16 17:00","2018","11","16","17:00","-28.9","","-31.9","","76","","","","31","","21","","9.7","","101.42","","","","-42","","Snow,Fog,Blowing Snow"
"-81.24","68.78","SANIRAJAK AIRPORT","2402356","2018-11-16 18:00","2018","11","16","18:00","-28.3","","-31.2","","77","","","","31","","21","","16.1","","101.38","","","","-41","","Ice Crystals,Blowing Snow"
"-81.24","68.78","SANIRAJAK AIRPORT","2402356","2018-11-16 19:00","2018","11","16","19:00","-27.9","","-30.8","","77","","","","31","","22","","16.1","","101.37","","","","-41","","Ice Crystals,Blowing Snow"
"-81.24","68.78","SANIRAJAK AIRPORT","2402356","2018-11-16 20:00","2018","11","16","20:00"
"-81.24","68.78","SANIRAJAK AIRPORT","2402356","2018-11-16 21:00","2018","11","16","21:00"
"-81.24","68.78","SANIRAJAK AIRPORT","2402356","2018-11-16 22:00","2018","11","16","22:00"
"-81.24","68.78","SANIRAJAK AIRPORT","2402356","2018-11-16 23:00","2018","11","16","23:00"
"-81.24","68.78","SANIRAJAK AIRPORT","2402356","2018-11-17 00:00","2018","11","17","00:00"
"-81.24","68.78","SANIRAJAK AIRPORT","2402356","2018-11-17 01:00","2018","11","17","01:00"
"-81.24","68.78","SANIRAJAK AIRPORT","2402356","2018-11-17 02:00","2018","11","17","02:00"
"-81.24","68.78","SANIRAJAK AIRPORT","2402356","2018-11-17 03:00","2018","11","17","03:00"
"-81.24","68.78","SANIRAJAK AIRPORT","2402356","2018-11-17 04:00","2018","11","17","04:00"
"-81.24","68.78","SANIRAJAK AIRPORT","2402356","2018-11-17 05:00","2018","11","17","05:00"
"-81.24","68.78","SANIRAJAK AIRPORT","2402356","2018-11-17 06:00","2018","11","17","06:00"
"-81.24","68.78","SANIRAJAK AIRPORT","2402356","2018-11-17 07:00","2018","11","17","07:00","-30.3","","-33.4","","75","","","","32","","18","","24.1","","100.96","","","","-43","","Mostly Cloudy"
"-81.24","68.78","SANIRAJAK AIRPORT","2402356","2018-11-17 08:00","2018","11","17","08:00","-30.4","","-33.5","","75","","","","31","","17","","24.1","","100.95","","","","-43","","NA"
"-81.24","68.78","SANIRAJAK AIRPORT","2402356","2018-11-17 09:00","2018","11","17","09:00","-29.9","","-33.0","","75","","","","31","","19","","16.1","","100.93","","","","-43","","Ice Crystals"
"-81.24","68.78","SANIRAJAK AIRPORT","2402356","2018-11-17 10:00","2018","11","17","10:00","-30.4","","-33.6","","74","","","","31","","18","","16.1","","100.91","","","","-43","","Ice Crystals"
"-81.24","68.78","SANIRAJAK AIRPORT","2402356","2018-11-17 11:00","2018","11","17","11:00","-31.5","","-34.9","","73","","","","30","","17","","24.1","","100.91","","","","-44","","Ice Crystals"
"-81.24","68.78","SANIRAJAK AIRPORT","2402356","2018-11-17 12:00","2018","11","17","12:00","-31.8","","-35.1","","73","","","","31","","19","","24.1","","100.88","","","","-45","","Ice Crystals"
"-81.24","68.78","SANIRAJAK AIRPORT","2402356","2018-11-17 13:00","2018","11","17","13:00","-32.4","","-35.9","","72","","","","31","","21","","12.9","","100.87","","","","-46","","Ice Crystals"
"-81.24","68.78","SANIRAJAK AIRPORT","2402356","2018-11-17 14:00","2018","11","17","14:00","-33.1","","-36.7","","71","","","","30","","21","","19.3","","100.86","","","","-47","","Ice Crystals"
"-81.24","68.78","SANIRAJAK AIRPORT","2402356","2018-11-17 15:00","2018","11","17","15:00","-31.3","","-34.5","","74","","","","29","","19","","19.3","","100.85","","","","-44","","NA"
"-81.24","68.78","SANIRAJAK AIRPORT","2402356","2018-11-17 16:00","2018","11","17","16:00","-30.6","","-33.8","","74","","","","30","","20","","24.1","","100.83","","","","-44","","Cloudy"
"-81.24","68.78","SANIRAJAK AIRPORT","2402356","2018-11-17 17:00","2018","11","17","17:00","-31.9","","-35.4","","72","","","","30","","22","","24.1","","100.84","","","","-46","","Ice Crystals"
"-81.24","68.78","SANIRAJAK AIRPORT","2402356","2018-11-17 18:00","2018","11","17","18:00","-33.2","","-36.8","","71","","","","30","","25","","24.1","","100.81","","","","-49","","Ice Crystals,Blowing Snow"
"-81.24","68.78","SANIRAJAK AIRPORT","2402356","2018-11-17 19:00","2018","11","17","19:00","-33.8","","-37.4","","71","","","","31","","25","","24.1","","100.80","","","","-49","","Ice Crystals,Blowing Snow"
"-81.24","68.78","SANIRAJAK AIRPORT","2402356","2018-11-17 20:00","2018","11","17","20:00"
"-81.24","68.78","SANIRAJAK AIRPORT","2402356","2018-11-17 21:00","2018","11","17","21:00"
"-81.24","68.78","SANIRAJAK AIRPORT","2402356","2018-11-17 22:00","2018","11","17","22:00"
"-81.24","68.78","SANIRAJAK AIRPORT","2402356","2018-11-17 23:00","2018","11","17","23:00"
"-81.24","68.78","SANIRAJAK AIRPORT","2402356","2018-11-18 00:00","2018","11","18","00:00"
"-81.24","68.78","SANIRAJAK AIRPORT","2402356","2018-11-18 01:00","2018","11","18","01:00"
"-81.24","68.78","SANIRAJAK AIRPORT","2402356","2018-11-18 02:00","2018","11","18","02:00"
"-81.24","68.78","SANIRAJAK AIRPORT","2402356","2018-11-18 03:00","2018","11","18","03:00"
"-81.24","68.78","SANIRAJAK AIRPORT","2402356","2018-11-18 04:00","2018","11","18","04:00"
"-81.24","68.78","SANIRAJAK AIRPORT","2402356","2018-11-18 05:00","2018","11","18","05:00"
"-81.24","68.78","SANIRAJAK AIRPORT","2402356","2018-11-18 06:00","2018","11","18","06:00"
"-81.24","68.78","SANIRAJAK AIRPORT","2402356","2018-11-18 07:00","2018","11","18","07:00","-34.6","","-38.3","","70","","","","30","","18","","24.1","","100.98","","","","-48","","Clear"
"-81.24","68.78","SANIRAJAK AIRPORT","2402356","2018-11-18 08:00","2018","11","18","08:00","-34.3","","-38.0","","70","","","","29","","24","","24.1","","101.01","","","","-50","","NA"
"-81.24","68.78","SANIRAJAK AIRPORT","2402356","2018-11-18 09:00","2018","11","18","09:00","-34.0","","-37.6","","71","","","","29","","21","","24.1","","101.07","","","","-48","","NA"
"-81.24","68.78","SANIRAJAK AIRPORT","2402356","2018-11-18 10:00","2018","11","18","10:00","-33.8","","-37.5","","70","","","","30","","18","","24.1","","101.12","","","","-47","","Clear"
"-81.24","68.78","SANIRAJAK AIRPORT","2402356","2018-11-18 11:00","2018","11","18","11:00","-33.8","","-37.5","","70","","","","29","","18","","24.1","","101.18","","","","-47","","NA"
"-81.24","68.78","SANIRAJAK AIRPORT","2402356","2018-11-18 12:00","2018","11","18","12:00","-34.0","","-37.7","","70","","","","29","","19","","24.1","","101.21","","","","-48","","NA"
"-81.24","68.78","SANIRAJAK AIRPORT","2402356","2018-11-18 13:00","2018","11","18","13:00","-33.3","","-36.9","","71","","","","30","","21","","24.1","","101.27","","","","-48","","Clear"
"-81.24","68.78","SANIRAJAK AIRPORT","2402356","2018-11-18 14:00","2018","11","18","14:00","-33.8","","-37.5","","70","","","","31","","18","","24.1","","101.40","","","","-47","","NA"
"-81.24","68.78","SANIRAJAK AIRPORT","2402356","2018-11-18 15:00","2018","11","18","15:00","-34.0","","-37.7","","70","","","","32","","21","","24.1","","101.44","","","","-48","","NA"
"-81.24","68.78","SANIRAJAK AIRPORT","2402356","2018-11-18 16:00","2018","11","18","16:00","-34.4","","-38.1","","70","","","","32","","18","","24.1","","101.52","","","","-48","","Clear"
"-81.24","68.78","SANIRAJAK AIRPORT","2402356","2018-11-18 17:00","2018","11","18","17:00","-34.9","","-38.6","","70","","","","32","","17","","24.1","","101.58","","","","-48","","NA"
"-81.24","68.78","SANIRAJAK AIRPORT","2402356","2018-11-18 18:00","2018","11","18","18:00","-34.7","","-38.4","","70","","","","32","","22","","24.1","","101.68","","","","-50","","NA"
"-81.24","68.78","SANIRAJAK AIRPORT","2402356","2018-11-18 19:00","2018","11","18","19:00","-34.8","","-38.5","","70","","","","31","","21","","24.1","","101.71","","","","-49","","Clear"
"-81.24","68.78","SANIRAJAK AIRPORT","2402356","2018-11-18 20:00","2018","11","18","20:00"
"-81.24","68.78","SANIRAJAK AIRPORT","2402356","2018-11-18 21:00","2018","11","18","21:00"
"-81.24","68.78","SANIRAJAK AIRPORT","2402356","2018-11-18 22:00","2018","11","18","22:00"
"-81.24","68.78","SANIRAJAK AIRPORT","2402356","2018-11-18 23:00","2018","11","18","23:00"
"-81.24","68.78","SANIRAJAK AIRPORT","2402356","2018-11-19 00:00","2018","11","19","00:00"
"-81.24","68.78","SANIRAJAK AIRPORT","2402356","2018-11-19 01:00","2018","11","19","01:00","-35.1","","-38.9","","69","","","","33","","22","","24.1","","101.98","","","","-50","","Ice Crystals"
"-81.24","68.78","SANIRAJAK AIRPORT","2402356","2018-11-19 02:00","2018","11","19","02:00","-34.8","","-38.5","","70","","","","33","","22","","12.9","","102.02","","","","-50","","Ice Crystals"
"-81.24","68.78","SANIRAJAK AIRPORT","2402356","2018-11-19 03:00","2018","11","19","03:00","-34.6","","-38.4","","69","","","","33","","22","","12.9","","102.06","","","","-50","","Ice Crystals"
"-81.24","68.78","SANIRAJAK AIRPORT","2402356","2018-11-19 04:00","2018","11","19","04:00","-34.9","","-38.7","","69","","","","33","","22","","9.7","","102.15","","","","-50","","Ice Crystals"
"-81.24","68.78","SANIRAJAK AIRPORT","2402356","2018-11-19 05:00","2018","11","19","05:00","-34.9","","-38.7","","69","","","","33","","21","","6.4","","102.15","","","","-50","","Ice Crystals"
"-81.24","68.78","SANIRAJAK AIRPORT","2402356","2018-11-19 06:00","2018","11","19","06:00"
"-81.24","68.78","SANIRAJAK AIRPORT","2402356","2018-11-19 07:00","2018","11","19","07:00","-34.9","","-38.7","","69","","","","33","","23","","6.4","","102.19","","","","-50","","Ice Crystals"
"-81.24","68.78","SANIRAJAK AIRPORT","2402356","2018-11-19 08:00","2018","11","19","08:00","-34.9","","-38.7","","69","","","","33","","23","","8.1","","102.18","","","","-50","","Ice Crystals"
"-81.24","68.78","SANIRAJAK AIRPORT","2402356","2018-11-19 09:00","2018","11","19","09:00","-34.7","","-38.5","","69","","","","33","","26","","4.8","","102.22","","","","-51","","Ice Crystals"
"-81.24","68.78","SANIRAJAK AIRPORT","2402356","2018-11-19 10:00","2018","11","19","10:00","-34.5","","-38.2","","70","","","","33","","23","","4.8","","102.19","","","","-50","","Ice Crystals,Fog"
"-81.24","68.78","SANIRAJAK AIRPORT","2402356","2018-11-19 11:00","2018","11","19","11:00","-33.7","","-37.4","","70","","","","33","","27","","4.8","","102.15","","","","-50","","Ice Crystals,Fog,Blowing Snow"
"-81.24","68.78","SANIRAJAK AIRPORT","2402356","2018-11-19 12:00","2018","11","19","12:00","-34.2","","-37.9","","70","","","","34","","26","","2.4","","102.15","","","","-50","","Ice Crystals,Fog,Blowing Snow"
"-81.24","68.78","SANIRAJAK AIRPORT","2402356","2018-11-19 13:00","2018","11","19","13:00","-33.8","","-37.5","","70","","","","33","","28","","2.4","","102.17","","","","-50","","Ice Crystals,Fog,Blowing Snow"
"-81.24","68.78","SANIRAJAK AIRPORT","2402356","2018-11-19 14:00","2018","11","19","14:00","-33.7","","-37.3","","71","","","","33","","29","","4.0","","102.13","","","","-50","","Ice Crystals,Fog,Blowing Snow"
"-81.24","68.78","SANIRAJAK AIRPORT","2402356","2018-11-19 15:00","2018","11","19","15:00","-33.5","","-37.1","","71","","","","32","","31","","2.4","","102.10","","","","-50","","Ice Crystals,Fog,Blowing Snow"
"-81.24","68.78","SANIRAJAK AIRPORT","2402356","2018-11-19 16:00","2018","11","19","16:00","-33.1","","-36.7","","71","","","","33","","32","","1.6","","102.11","","","","-50","","Ice Crystals,Fog,Blowing Snow"
"-81.24","68.78","SANIRAJAK AIRPORT","2402356","2018-11-19 17:00","2018","11","19","17:00","-33.0","","-36.6","","71","","","","33","","33","","2.4","","102.07","","","","-50","","Ice Crystals,Fog,Blowing Snow"
"-81.24","68.78","SANIRAJAK AIRPORT","2402356","2018-11-19 18:00","2018","11","19","18:00","-32.7","","-36.2","","72","","","","33","","30","","2.0","","102.05","","","","-49","","Ice Crystals,Fog,Blowing Snow"
"-81.24","68.78","SANIRAJAK AIRPORT","2402356","2018-11-19 19:00","2018","11","19","19:00","-32.7","","-36.2","","72","","","","33","","30","","4.8","","101.99","","","","-49","","Ice Crystals,Fog,Blowing Snow"
"-81.24","68.78","SANIRAJAK AIRPORT","2402356","2018-11-19 20:00","2018","11","19","20:00"
"-81.24","68.78","SANIRAJAK AIRPORT","2402356","2018-11-19 21:00","2018","11","19","21:00"
"-81.24","68.78","SANIRAJAK AIRPORT","2402356","2018-11-19 22:00","2018","11","19","22:00"
"-81.24","68.78","SANIRAJAK AIRPORT","2402356","2018-11-19 23:00","2018","11","19","23:00"
"-81.24","68.78","SANIRAJAK AIRPORT","2402356","2018-11-20 00:00","2018","11","20","00:00"
"-81.24","68.78","SANIRAJAK AIRPORT","2402356","2018-11-20 01:00","2018","11","20","01:00"
"-81.24","68.78","SANIRAJAK AIRPORT","2402356","2018-11-20 02:00","2018","11","20","02:00"
"-81.24","68.78","SANIRAJAK AIRPORT","2402356","2018-11-20 03:00","2018","11","20","03:00"
"-81.24","68.78","SANIRAJAK AIRPORT","2402356","2018-11-20 04:00","2018","11","20","04:00"
"-81.24","68.78","SANIRAJAK AIRPORT","2402356","2018-11-20 05:00","2018","11","20","05:00"
"-81.24","68.78","SANIRAJAK AIRPORT","2402356","2018-11-20 06:00","2018","11","20","06:00"
"-81.24","68.78","SANIRAJAK AIRPORT","2402356","2018-11-20 07:00","2018","11","20","07:00","-30.0","","-33.1","","75","","","","32","","33","","6.4","","101.57","","","","-46","","Ice Crystals,Blowing Snow"
"-81.24","68.78","SANIRAJAK AIRPORT","2402356","2018-11-20 08:00","2018","11","20","08:00","-29.6","","-32.7","","75","","","","32","","32","","4.8","","101.51","","","","-46","","Ice Crystals,Blowing Snow"
"-81.24","68.78","SANIRAJAK AIRPORT","2402356","2018-11-20 09:00","2018","11","20","09:00","-29.6","","-32.7","","75","","","","32","","33","","3.2","","101.54","","","","-46","","Ice Crystals,Blowing Snow"
"-81.24","68.78","SANIRAJAK AIRPORT","2402356","2018-11-20 10:00","2018","11","20","10:00","-27.6","","-30.5","","77","","","","33","","34","","4.8","","101.40","","","","-43","","Ice Crystals,Blowing Snow"
"-81.24","68.78","SANIRAJAK AIRPORT","2402356","2018-11-20 11:00","2018","11","20","11:00","-26.9","","-29.6","","78","","","","33","","31","","6.4","","101.39","","","","-42","","Ice Crystals,Blowing Snow"
"-81.24","68.78","SANIRAJAK AIRPORT","2402356","2018-11-20 12:00","2018","11","20","12:00","-25.3","","-27.9","","79","","","","34","","42","","2.0","","101.36","","","","-42","","Ice Crystals,Blowing Snow"
"-81.24","68.78","SANIRAJAK AIRPORT","2402356","2018-11-20 13:00","2018","11","20","13:00","-25.2","","-27.9","","79","","","","34","","40","","3.2","","101.32","","","","-41","","Ice Crystals,Blowing Snow"
"-81.24","68.78","SANIRAJAK AIRPORT","2402356","2018-11-20 14:00","2018","11","20","14:00","-26.1","","-29.2","","76","","","","32","","35","","1.6","","101.28","","","","-41","","Ice Crystals,Blowing Snow"
"-81.24","68.78","SANIRAJAK AIRPORT","2402356","2018-11-20 15:00","2018","11","20","15:00","-26.8","","-29.6","","78","","","","32","","38","","1.6","","101.28","","","","-43","","Ice Crystals,Blowing Snow"
"-81.24","68.78","SANIRAJAK AIRPORT","2402356","2018-11-20 16:00","2018","11","20","16:00","-26.5","","-29.3","","78","","","","32","","38","","1.2","","101.18","","","","-43","","Ice Crystals,Blowing Snow"
"-81.24","68.78","SANIRAJAK AIRPORT","2402356","2018-11-20 17:00","2018","11","20","17:00","-23.8","","-26.2","","81","","","","34","","52","","0.2","","101.13","","","","-41","","Ice Crystals,Blowing Snow"
"-81.24","68.78","SANIRAJAK AIRPORT","2402356","2018-11-20 18:00","2018","11","20","18:00","-23.5","","-25.9","","81","","","","34","","48","","0.4","","101.07","","","","-40","","Ice Crystals,Blowing Snow"
"-81.24","68.78","SANIRAJAK AIRPORT","2402356","2018-11-20 19:00","2018","11","20","19:00","-22.9","","-25.2","","82","","","","33","","47","","0.4","","100.99","","","","-39","","Ice Crystals,Blowing Snow"
"-81.24","68.78","SANIRAJAK AIRPORT","2402356","2018-11-20 20:00","2018","11","20","20:00"
"-81.24","68.78","SANIRAJAK AIRPORT","2402356","2018-11-20 21:00","2018","11","20","21:00"
"-81.24","68.78","SANIRAJAK AIRPORT","2402356","2018-11-20 22:00","2018","11","20","22:00"
"-81.24","68.78","SANIRAJAK AIRPORT","2402356","2018-11-20 23:00","2018","11","20","23:00"
"-81.24","68.78","SANIRAJAK AIRPORT","2402356","2018-11-21 00:00","2018","11","21","00:00"
"-81.24","68.78","SANIRAJAK AIRPORT","2402356","2018-11-21 01:00","2018","11","21","01:00"
"-81.24","68.78","SANIRAJAK AIRPORT","2402356","2018-11-21 02:00","2018","11","21","02:00"
"-81.24","68.78","SANIRAJAK AIRPORT","2402356","2018-11-21 03:00","2018","11","21","03:00"
"-81.24","68.78","SANIRAJAK AIRPORT","2402356","2018-11-21 04:00","2018","11","21","04:00"
"-81.24","68.78","SANIRAJAK AIRPORT","2402356","2018-11-21 05:00","2018","11","21","05:00"
"-81.24","68.78","SANIRAJAK AIRPORT","2402356","2018-11-21 06:00","2018","11","21","06:00"
"-81.24","68.78","SANIRAJAK AIRPORT","2402356","2018-11-21 07:00","2018","11","21","07:00","-23.8","","-26.2","","81","","","","32","","52","","0.4","","100.47","","","","-41","","Ice Crystals,Blowing Snow"
"-81.24","68.78","SANIRAJAK AIRPORT","2402356","2018-11-21 08:00","2018","11","21","08:00","-23.9","","-26.3","","81","","","","33","","55","","0.4","","100.48","","","","-41","","Ice Crystals,Blowing Snow"
"-81.24","68.78","SANIRAJAK AIRPORT","2402356","2018-11-21 09:00","2018","11","21","09:00","-23.8","","-26.2","","81","","","","33","","46","","0.4","","100.50","","","","-40","","Ice Crystals,Blowing Snow"
"-81.24","68.78","SANIRAJAK AIRPORT","2402356","2018-11-21 10:00","2018","11","21","10:00","-23.5","","-25.8","","82","","","","33","","43","","0.4","","100.55","","","","-39","","Ice Crystals,Blowing Snow"
"-81.24","68.78","SANIRAJAK AIRPORT","2402356","2018-11-21 11:00","2018","11","21","11:00","-22.7","","-25.0","","82","","","","32","","45","","0.4","","100.55","","","","-38","","Ice Crystals,Blowing Snow"
"-81.24","68.78","SANIRAJAK AIRPORT","2402356","2018-11-21 12:00","2018","11","21","12:00","-23.0","","-25.4","","81","","","","33","","50","","0.2","","100.58","","","","-39","","Ice Crystals,Blowing Snow"
"-81.24","68.78","SANIRAJAK AIRPORT","2402356","2018-11-21 13:00","2018","11","21","13:00","-23.2","","-25.5","","82","","","","33","","45","","0.2","","100.61","","","","-39","","Ice Crystals,Blowing Snow"
"-81.24","68.78","SANIRAJAK AIRPORT","2402356","2018-11-21 14:00","2018","11","21","14:00","-23.5","","-25.9","","81","","","","32","","45","","0.2","","100.68","","","","-40","","Ice Crystals,Blowing Snow"
"-81.24","68.78","SANIRAJAK AIRPORT","2402356","2018-11-21 15:00","2018","11","21","15:00","-23.6","","-26.0","","81","","","","32","","48","","0.2","","100.73","","","","-40","","Ice Crystals,Blowing Snow"
"-81.24","68.78","SANIRAJAK AIRPORT","2402356","2018-11-21 16:00","2018","11","21","16:00","-23.8","","-26.2","","81","","","","32","","43","","0.4","","100.81","","","","-40","","Ice Crystals,Blowing Snow"
"-81.24","68.78","SANIRAJAK AIRPORT","2402356","2018-11-21 17:00","2018","11","21","17:00","-24.4","","-26.8","","81","","","","32","","45","","0.6","","100.87","","","","-41","","Ice Crystals,Blowing Snow"
"-81.24","68.78","SANIRAJAK AIRPORT","2402356","2018-11-21 18:00","2018","11","21","18:00","-24.9","","-27.4","","80","","","","32","","46","","0.4","","100.90","","","","-42","","Ice Crystals,Blowing Snow"
"-81.24","68.78","SANIRAJAK AIRPORT","2402356","2018-11-21 19:00","2018","11","21","19:00","-25.4","","-28.0","","79","","","","32","","46","","0.6","","100.95","","","","-42","","Ice Crystals,Blowing Snow"
"-81.24","68.78","SANIRAJAK AIRPORT","2402356","2018-11-21 20:00","2018","11","21","20:00"
"-81.24","68.78","SANIRAJAK AIRPORT","2402356","2018-11-21 21:00","2018","11","21","21:00"
"-81.24","68.78","SANIRAJAK AIRPORT","2402356","2018-11-21 22:00","2018","11","21","22:00"
"-81.24","68.78","SANIRAJAK AIRPORT","2402356","2018-11-21 23:00","2018","11","21","23:00"
"-81.24","68.78","SANIRAJAK AIRPORT","2402356","2018-11-22 00:00","2018","11","22","00:00"
"-81.24","68.78","SANIRAJAK AIRPORT","2402356","2018-11-22 01:00","2018","11","22","01:00"
"-81.24","68.78","SANIRAJAK AIRPORT","2402356","2018-11-22 02:00","2018","11","22","02:00"
"-81.24","68.78","SANIRAJAK AIRPORT","2402356","2018-11-22 03:00","2018","11","22","03:00"
"-81.24","68.78","SANIRAJAK AIRPORT","2402356","2018-11-22 04:00","2018","11","22","04:00"
"-81.24","68.78","SANIRAJAK AIRPORT","2402356","2018-11-22 05:00","2018","11","22","05:00"
"-81.24","68.78","SANIRAJAK AIRPORT","2402356","2018-11-22 06:00","2018","11","22","06:00"
"-81.24","68.78","SANIRAJAK AIRPORT","2402356","2018-11-22 07:00","2018","11","22","07:00","-29.9","","-33.0","","75","","","","30","","28","","24.1","","101.33","","","","-45","","Ice Crystals,Blowing Snow"
"-81.24","68.78","SANIRAJAK AIRPORT","2402356","2018-11-22 08:00","2018","11","22","08:00","-30.3","","-33.5","","74","","","","31","","18","","24.1","","101.32","","","","-43","","Ice Crystals"
"-81.24","68.78","SANIRAJAK AIRPORT","2402356","2018-11-22 09:00","2018","11","22","09:00","-31.0","","-34.2","","74","","","","28","","17","","24.1","","101.36","","","","-43","","NA"
"-81.24","68.78","SANIRAJAK AIRPORT","2402356","2018-11-22 10:00","2018","11","22","10:00","-31.2","","-34.5","","73","","","","30","","13","","24.1","","101.30","","","","-42","","Mainly Clear"
"-81.24","68.78","SANIRAJAK AIRPORT","2402356","2018-11-22 11:00","2018","11","22","11:00","-31.6","","-34.8","","74","","","","31","","10","","24.1","","101.30","","","","-41","","NA"
"-81.24","68.78","SANIRAJAK AIRPORT","2402356","2018-11-22 12:00","2018","11","22","12:00","-32.3","","-35.6","","73","","","","26","","9","","24.1","","101.33","","","","-41","","Ice Crystals"
"-81.24","68.78","SANIRAJAK AIRPORT","2402356","2018-11-22 13:00","2018","11","22","13:00","-32.1","","-35.5","","72","","","","29","","10","","24.1","","101.28","","","","-42","","Ice Crystals"
"-81.24","68.78","SANIRAJAK AIRPORT","2402356","2018-11-22 14:00","2018","11","22","14:00","-31.3","","-34.5","","74","","","","29","","8","","24.1","","101.29","","","","-40","","Ice Crystals"
"-81.24","68.78","SANIRAJAK AIRPORT","2402356","2018-11-22 15:00","2018","11","22","15:00","-31.9","","-35.1","","74","","","","27","","8","","24.1","","101.31","","","","-40","","Ice Crystals"
"-81.24","68.78","SANIRAJAK AIRPORT","2402356","2018-11-22 16:00","2018","11","22","16:00","-30.7","","-33.9","","74","","","","22","","5","","24.1","","101.29","","","","-36","","Ice Crystals"
"-81.24","68.78","SANIRAJAK AIRPORT","2402356","2018-11-22 17:00","2018","11","22","17:00","-30.5","","-33.7","","74","","","","24","","5","","24.1","","101.31","","","","-36","","Ice Crystals"
"-81.24","68.78","SANIRAJAK AIRPORT","2402356","2018-11-22 18:00","2018","11","22","18:00","-31.0","","-34.2","","74","","","","23","","6","","24.1","","101.25","","","","-38","","NA"
"-81.24","68.78","SANIRAJAK AIRPORT","2402356","2018-11-22 19:00","2018","11","22","19:00","-31.2","","-34.5","","73","","","","25","","7","","24.1","","101.24","","","","-39","","Clear"
"-81.24","68.78","SANIRAJAK AIRPORT","2402356","2018-11-22 20:00","2018","11","22","20:00"
"-81.24","68.78","SANIRAJAK AIRPORT","2402356","2018-11-22 21:00","2018","11","22","21:00"
"-81.24","68.78","SANIRAJAK AIRPORT","2402356","2018-11-22 22:00","2018","11","22","22:00"
"-81.24","68.78","SANIRAJAK AIRPORT","2402356","2018-11-22 23:00","2018","11","22","23:00"
"-81.24","68.78","SANIRAJAK AIRPORT","2402356","2018-11-23 00:00","2018","11","23","00:00"
"-81.24","68.78","SANIRAJAK AIRPORT","2402356","2018-11-23 01:00","2018","11","23","01:00"
"-81.24","68.78","SANIRAJAK AIRPORT","2402356","2018-11-23 02:00","2018","11","23","02:00"
"-81.24","68.78","SANIRAJAK AIRPORT","2402356","2018-11-23 03:00","2018","11","23","03:00"
"-81.24","68.78","SANIRAJAK AIRPORT","2402356","2018-11-23 04:00","2018","11","23","04:00"
"-81.24","68.78","SANIRAJAK AIRPORT","2402356","2018-11-23 05:00","2018","11","23","05:00"
"-81.24","68.78","SANIRAJAK AIRPORT","2402356","2018-11-23 06:00","2018","11","23","06:00"
"-81.24","68.78","SANIRAJAK AIRPORT","2402356","2018-11-23 07:00","2018","11","23","07:00","-33.3","","-36.8","","72","","","","30","","18","","24.1","","100.94","","","","-47","","Mainly Clear"
"-81.24","68.78","SANIRAJAK AIRPORT","2402356","2018-11-23 08:00","2018","11","23","08:00","-33.1","","-36.7","","71","","","","31","","21","","24.1","","101.00","","","","-47","","NA"
"-81.24","68.78","SANIRAJAK AIRPORT","2402356","2018-11-23 09:00","2018","11","23","09:00","-33.0","","-36.5","","72","","","","31","","19","","24.1","","100.97","","","","-47","","NA"
"-81.24","68.78","SANIRAJAK AIRPORT","2402356","2018-11-23 10:00","2018","11","23","10:00","-32.8","","-36.3","","72","","","","30","","20","","24.1","","100.95","","","","-47","","Clear"
"-81.24","68.78","SANIRAJAK AIRPORT","2402356","2018-11-23 11:00","2018","11","23","11:00","-33.1","","-36.7","","71","","","","30","","20","","24.1","","100.93","","","","-47","","NA"
"-81.24","68.78","SANIRAJAK AIRPORT","2402356","2018-11-23 12:00","2018","11","23","12:00","-32.6","","-36.2","","71","","","","31","","18","","24.1","","100.92","","","","-46","","NA"
"-81.24","68.78","SANIRAJAK AIRPORT","2402356","2018-11-23 13:00","2018","11","23","13:00","-32.7","","-36.2","","72","","","","31","","18","","24.1","","100.91","","","","-46","","Clear"
"-81.24","68.78","SANIRAJAK AIRPORT","2402356","2018-11-23 14:00","2018","11","23","14:00","-33.1","","-36.7","","71","","","","30","","17","","24.1","","100.96","","","","-46","","NA"
"-81.24","68.78","SANIRAJAK AIRPORT","2402356","2018-11-23 15:00","2018","11","23","15:00","-32.9","","-36.4","","72","","","","30","","15","","24.1","","101.05","","","","-45","","NA"
"-81.24","68.78","SANIRAJAK AIRPORT","2402356","2018-11-23 16:00","2018","11","23","16:00","-33.0","","-36.6","","71","","","","30","","18","","24.1","","101.08","","","","-46","","Clear"
"-81.24","68.78","SANIRAJAK AIRPORT","2402356","2018-11-23 17:00","2018","11","23","17:00","-33.1","","-36.7","","71","","","","31","","17","","24.1","","101.11","","","","-46","","NA"
"-81.24","68.78","SANIRAJAK AIRPORT","2402356","2018-11-23 18:00","2018","11","23","18:00","-33.3","","-36.9","","71","","","","29","","19","","24.1","","101.13","","","","-47","","NA"
"-81.24","68.78","SANIRAJAK AIRPORT","2402356","2018-11-23 19:00","2018","11","23","19:00","-32.6","","-36.1","","72","","","","29","","19","","24.1","","101.22","","","","-46","","Clear"
"-81.24","68.78","SANIRAJAK AIRPORT","2402356","2018-11-23 20:00","2018","11","23","20:00"
"-81.24","68.78","SANIRAJAK AIRPORT","2402356","2018-11-23 21:00","2018","11","23","21:00"
"-81.24","68.78","SANIRAJAK AIRPORT","2402356","2018-11-23 22:00","2018","11","23","22:00"
"-81.24","68.78","SANIRAJAK AIRPORT","2402356","2018-11-23 23:00","2018","11","23","23:00"
"-81.24","68.78","SANIRAJAK AIRPORT","2402356","2018-11-24 00:00","2018","11","24","00:00"
"-81.24","68.78","SANIRAJAK AIRPORT","2402356","2018-11-24 01:00","2018","11","24","01:00"
"-81.24","68.78","SANIRAJAK AIRPORT","2402356","2018-11-24 02:00","2018","11","24","02:00"
"-81.24","68.78","SANIRAJAK AIRPORT","2402356","2018-11-24 03:00","2018","11","24","03:00"
"-81.24","68.78","SANIRAJAK AIRPORT","2402356","2018-11-24 04:00","2018","11","24","04:00"
"-81.24","68.78","SANIRAJAK AIRPORT","2402356","2018-11-24 05:00","2018","11","24","05:00"
"-81.24","68.78","SANIRAJAK AIRPORT","2402356","2018-11-24 06:00","2018","11","24","06:00"
"-81.24","68.78","SANIRAJAK AIRPORT","2402356","2018-11-24 07:00","2018","11","24","07:00","-32.3","","-35.6","","73","","","","34","","9","","24.1","","101.90","","","","-41","","Clear"
"-81.24","68.78","SANIRAJAK AIRPORT","2402356","2018-11-24 08:00","2018","11","24","08:00","-33.2","","-36.7","","71","","","","33","","10","","24.1","","102.00","","","","-43","","NA"
"-81.24","68.78","SANIRAJAK AIRPORT","2402356","2018-11-24 09:00","2018","11","24","09:00","-33.4","","-36.9","","71","","","","34","","16","","24.1","","102.03","","","","-46","","NA"
"-81.24","68.78","SANIRAJAK AIRPORT","2402356","2018-11-24 10:00","2018","11","24","10:00","-33.3","","-36.9","","71","","","","32","","17","","24.1","","102.07","","","","-46","","Clear"
"-81.24","68.78","SANIRAJAK AIRPORT","2402356","2018-11-24 11:00","2018","11","24","11:00","-33.9","","-37.5","","71","","","","33","","13","","24.1","","102.16","","","","-45","","NA"
"-81.24","68.78","SANIRAJAK AIRPORT","2402356","2018-11-24 12:00","2018","11","24","12:00","-33.6","","-37.2","","71","","","","32","","15","","24.1","","102.19","","","","-46","","NA"
"-81.24","68.78","SANIRAJAK AIRPORT","2402356","2018-11-24 13:00","2018","11","24","13:00","-33.3","","-36.9","","71","","","","32","","17","","24.1","","102.26","","","","-46","","Clear"
"-81.24","68.78","SANIRAJAK AIRPORT","2402356","2018-11-24 14:00","2018","11","24","14:00","-33.6","","-37.2","","71","","","","31","","15","","24.1","","102.34","","","","-46","","NA"
"-81.24","68.78","SANIRAJAK AIRPORT","2402356","2018-11-24 15:00","2018","11","24","15:00","-33.6","","-37.2","","71","","","","32","","17","","24.1","","102.45","","","","-47","","NA"
"-81.24","68.78","SANIRAJAK AIRPORT","2402356","2018-11-24 16:00","2018","11","24","16:00","-33.1","","-36.6","","72","","","","31","","16","","24.1","","102.54","","","","-46","","Clear"
"-81.24","68.78","SANIRAJAK AIRPORT","2402356","2018-11-24 17:00","2018","11","24","17:00","-33.6","","-37.2","","71","","","","31","","14","","24.1","","102.63","","","","-45","","NA"
"-81.24","68.78","SANIRAJAK AIRPORT","2402356","2018-11-24 18:00","2018","11","24","18:00","-32.8","","-36.3","","72","","","","28","","10","","24.1","","102.70","","","","-42","","NA"
"-81.24","68.78","SANIRAJAK AIRPORT","2402356","2018-11-24 19:00","2018","11","24","19:00","-34.2","","-37.9","","70","","","","28","","15","","24.1","","102.79","","","","-47","","Clear"
"-81.24","68.78","SANIRAJAK AIRPORT","2402356","2018-11-24 20:00","2018","11","24","20:00"
"-81.24","68.78","SANIRAJAK AIRPORT","2402356","2018-11-24 21:00","2018","11","24","21:00"
"-81.24","68.78","SANIRAJAK AIRPORT","2402356","2018-11-24 22:00","2018","11","24","22:00"
"-81.24","68.78","SANIRAJAK AIRPORT","2402356","2018-11-24 23:00","2018","11","24","23:00"
"-81.24","68.78","SANIRAJAK AIRPORT","2402356","2018-11-25 00:00","2018","11","25","00:00"
"-81.24","68.78","SANIRAJAK AIRPORT","2402356","2018-11-25 01:00","2018","11","25","01:00"
"-81.24","68.78","SANIRAJAK AIRPORT","2402356","2018-11-25 02:00","2018","11","25","02:00"
"-81.24","68.78","SANIRAJAK AIRPORT","2402356","2018-11-25 03:00","2018","11","25","03:00"
"-81.24","68.78","SANIRAJAK AIRPORT","2402356","2018-11-25 04:00","2018","11","25","04:00"
"-81.24","68.78","SANIRAJAK AIRPORT","2402356","2018-11-25 05:00","2018","11","25","05:00"
"-81.24","68.78","SANIRAJAK AIRPORT","2402356","2018-11-25 06:00","2018","11","25","06:00"
"-81.24","68.78","SANIRAJAK AIRPORT","2402356","2018-11-25 07:00","2018","11","25","07:00","-31.6","","-35.0","","73","","","","32","","14","","24.1","","103.86","","","","-43","","Clear"
"-81.24","68.78","SANIRAJAK AIRPORT","2402356","2018-11-25 08:00","2018","11","25","08:00","-32.4","","-35.9","","72","","","","32","","12","","24.1","","103.94","","","","-43","","NA"
"-81.24","68.78","SANIRAJAK AIRPORT","2402356","2018-11-25 09:00","2018","11","25","09:00","-32.5","","-36.0","","72","","","","33","","12","","24.1","","103.99","","","","-43","","NA"
"-81.24","68.78","SANIRAJAK AIRPORT","2402356","2018-11-25 10:00","2018","11","25","10:00","-32.4","","-35.9","","72","","","","32","","18","","24.1","","103.99","","","","-45","","Clear"
"-81.24","68.78","SANIRAJAK AIRPORT","2402356","2018-11-25 11:00","2018","11","25","11:00","-32.1","","-35.6","","72","","","","32","","18","","24.1","","104.10","","","","-45","","NA"
"-81.24","68.78","SANIRAJAK AIRPORT","2402356","2018-11-25 12:00","2018","11","25","12:00","-31.9","","-35.4","","72","","","","31","","22","","24.1","","104.09","","","","-46","","NA"
"-81.24","68.78","SANIRAJAK AIRPORT","2402356","2018-11-25 13:00","2018","11","25","13:00","-32.0","","-35.5","","72","","","","33","","14","","24.1","","104.15","","","","-43","","Clear"
"-81.24","68.78","SANIRAJAK AIRPORT","2402356","2018-11-25 14:00","2018","11","25","14:00","-31.9","","-35.2","","73","","","","32","","20","","24.1","","104.17","","","","-45","","NA"
"-81.24","68.78","SANIRAJAK AIRPORT","2402356","2018-11-25 15:00","2018","11","25","15:00","-30.4","","-33.5","","75","","","","32","","19","","24.1","","104.20","","","","-43","","NA"
"-81.24","68.78","SANIRAJAK AIRPORT","2402356","2018-11-25 16:00","2018","11","25","16:00","-28.0","","-31.0","","76","","","","33","","23","","19.3","","104.18","","","","-41","","Snow,Blowing Snow"
"-81.24","68.78","SANIRAJAK AIRPORT","2402356","2018-11-25 17:00","2018","11","25","17:00","-28.1","","-31.1","","76","","","","34","","21","","19.3","","104.20","","","","-41","","Snow,Blowing Snow"
"-81.24","68.78","SANIRAJAK AIRPORT","2402356","2018-11-25 18:00","2018","11","25","18:00","-28.4","","-31.4","","76","","","","34","","21","","24.1","","104.18","","","","-41","","NA"
"-81.24","68.78","SANIRAJAK AIRPORT","2402356","2018-11-25 19:00","2018","11","25","19:00","-28.9","","-31.9","","76","","","","33","","21","","24.1","","104.15","","","","-42","","Mainly Clear"
"-81.24","68.78","SANIRAJAK AIRPORT","2402356","2018-11-25 20:00","2018","11","25","20:00"
"-81.24","68.78","SANIRAJAK AIRPORT","2402356","2018-11-25 21:00","2018","11","25","21:00"
"-81.24","68.78","SANIRAJAK AIRPORT","2402356","2018-11-25 22:00","2018","11","25","22:00"
"-81.24","68.78","SANIRAJAK AIRPORT","2402356","2018-11-25 23:00","2018","11","25","23:00"
"-81.24","68.78","SANIRAJAK AIRPORT","2402356","2018-11-26 00:00","2018","11","26","00:00"
"-81.24","68.78","SANIRAJAK AIRPORT","2402356","2018-11-26 01:00","2018","11","26","01:00"
"-81.24","68.78","SANIRAJAK AIRPORT","2402356","2018-11-26 02:00","2018","11","26","02:00"
"-81.24","68.78","SANIRAJAK AIRPORT","2402356","2018-11-26 03:00","2018","11","26","03:00"
"-81.24","68.78","SANIRAJAK AIRPORT","2402356","2018-11-26 04:00","2018","11","26","04:00"
"-81.24","68.78","SANIRAJAK AIRPORT","2402356","2018-11-26 05:00","2018","11","26","05:00"
"-81.24","68.78","SANIRAJAK AIRPORT","2402356","2018-11-26 06:00","2018","11","26","06:00"
"-81.24","68.78","SANIRAJAK AIRPORT","2402356","2018-11-26 07:00","2018","11","26","07:00","-27.6","","-30.5","","77","","","","33","","22","","24.1","","103.50","","","","-41","","Ice Crystals"
"-81.24","68.78","SANIRAJAK AIRPORT","2402356","2018-11-26 08:00","2018","11","26","08:00","-27.5","","-30.4","","77","","","","34","","18","","24.1","","103.48","","","","-39","","Ice Crystals"
"-81.24","68.78","SANIRAJAK AIRPORT","2402356","2018-11-26 09:00","2018","11","26","09:00","-28.0","","-31.0","","76","","","","34","","17","","24.1","","103.41","","","","-40","","Ice Crystals"
"-81.24","68.78","SANIRAJAK AIRPORT","2402356","2018-11-26 10:00","2018","11","26","10:00","-27.7","","-30.6","","77","","","","34","","17","","24.1","","103.35","","","","-39","","Ice Crystals"
"-81.24","68.78","SANIRAJAK AIRPORT","2402356","2018-11-26 11:00","2018","11","26","11:00","-27.8","","-30.7","","77","","","","35","","18","","24.1","","103.34","","","","-40","","NA"
"-81.24","68.78","SANIRAJAK AIRPORT","2402356","2018-11-26 12:00","2018","11","26","12:00","-27.2","","-29.9","","78","","","","36","","18","","24.1","","103.29","","","","-39","","NA"
"-81.24","68.78","SANIRAJAK AIRPORT","2402356","2018-11-26 13:00","2018","11","26","13:00","-26.4","","-29.2","","78","","","","36","","20","","24.1","","103.26","","","","-39","","Mainly Clear"
"-81.24","68.78","SANIRAJAK AIRPORT","2402356","2018-11-26 14:00","2018","11","26","14:00","-25.0","","-27.2","","82","","","","3","","14","","24.1","","103.22","","","","-35","","NA"
"-81.24","68.78","SANIRAJAK AIRPORT","2402356","2018-11-26 15:00","2018","11","26","15:00","-25.7","","-28.1","","81","","","","3","","12","","24.1","","103.18","","","","-35","","NA"
"-81.24","68.78","SANIRAJAK AIRPORT","2402356","2018-11-26 16:00","2018","11","26","16:00","-25.2","","-27.6","","81","","","","3","","14","","24.1","","103.13","","","","-35","","Mainly Clear"
"-81.24","68.78","SANIRAJAK AIRPORT","2402356","2018-11-26 17:00","2018","11","26","17:00","-25.6","","-28.4","","78","","","","2","","13","","24.1","","103.09","","","","-35","","NA"
"-81.24","68.78","SANIRAJAK AIRPORT","2402356","2018-11-26 18:00","2018","11","26","18:00","-25.7","","-28.3","","79","","","","3","","14","","16.1","","103.03","","","","-36","","NA"
"-81.24","68.78","SANIRAJAK AIRPORT","2402356","2018-11-26 19:00","2018","11","26","19:00","-19.8","","-21.7","","85","","","","4","","16","","24.1","","102.96","","","","-29","","Mainly Clear"
"-81.24","68.78","SANIRAJAK AIRPORT","2402356","2018-11-26 20:00","2018","11","26","20:00"
"-81.24","68.78","SANIRAJAK AIRPORT","2402356","2018-11-26 21:00","2018","11","26","21:00"
"-81.24","68.78","SANIRAJAK AIRPORT","2402356","2018-11-26 22:00","2018","11","26","22:00"
"-81.24","68.78","SANIRAJAK AIRPORT","2402356","2018-11-26 23:00","2018","11","26","23:00"
"-81.24","68.78","SANIRAJAK AIRPORT","2402356","2018-11-27 00:00","2018","11","27","00:00"
"-81.24","68.78","SANIRAJAK AIRPORT","2402356","2018-11-27 01:00","2018","11","27","01:00"
"-81.24","68.78","SANIRAJAK AIRPORT","2402356","2018-11-27 02:00","2018","11","27","02:00"
"-81.24","68.78","SANIRAJAK AIRPORT","2402356","2018-11-27 03:00","2018","11","27","03:00"
"-81.24","68.78","SANIRAJAK AIRPORT","2402356","2018-11-27 04:00","2018","11","27","04:00"
"-81.24","68.78","SANIRAJAK AIRPORT","2402356","2018-11-27 05:00","2018","11","27","05:00"
"-81.24","68.78","SANIRAJAK AIRPORT","2402356","2018-11-27 06:00","2018","11","27","06:00"
"-81.24","68.78","SANIRAJAK AIRPORT","2402356","2018-11-27 07:00","2018","11","27","07:00","-16.7","","-18.4","","87","","","","34","","19","","16.1","","102.19","","","","-26","","Snow"
"-81.24","68.78","SANIRAJAK AIRPORT","2402356","2018-11-27 08:00","2018","11","27","08:00","-16.6","","-18.3","","87","","","","34","","19","","12.9","","102.13","","","","-26","","Snow"
"-81.24","68.78","SANIRAJAK AIRPORT","2402356","2018-11-27 09:00","2018","11","27","09:00","-15.4","","-16.7","","90","","","","34","","16","","12.9","","102.05","","","","-24","","Snow"
"-81.24","68.78","SANIRAJAK AIRPORT","2402356","2018-11-27 10:00","2018","11","27","10:00","-16.2","","-17.7","","88","","","","34","","22","","16.1","","102.02","","","","-26","","Snow"
"-81.24","68.78","SANIRAJAK AIRPORT","2402356","2018-11-27 11:00","2018","11","27","11:00","-15.3","","-16.7","","89","","","","34","","18","","19.3","","101.97","","","","-24","","Snow"
"-81.24","68.78","SANIRAJAK AIRPORT","2402356","2018-11-27 12:00","2018","11","27","12:00","-15.1","","-16.5","","89","","","","34","","20","","24.1","","101.93","","","","-24","","Snow"
"-81.24","68.78","SANIRAJAK AIRPORT","2402356","2018-11-27 13:00","2018","11","27","13:00","-15.5","","-16.9","","89","","","","33","","18","","24.1","","101.91","","","","-24","","Snow"
"-81.24","68.78","SANIRAJAK AIRPORT","2402356","2018-11-27 14:00","2018","11","27","14:00","-15.7","","-17.3","","88","","","","33","","19","","24.1","","101.90","","","","-25","","Snow"
"-81.24","68.78","SANIRAJAK AIRPORT","2402356","2018-11-27 15:00","2018","11","27","15:00","-15.7","","-17.1","","89","","","","34","","17","","19.3","","101.93","","","","-24","","Snow"
"-81.24","68.78","SANIRAJAK AIRPORT","2402356","2018-11-27 16:00","2018","11","27","16:00","-15.7","","-17.1","","89","","","","33","","18","","9.7","","101.96","","","","-25","","Snow"
"-81.24","68.78","SANIRAJAK AIRPORT","2402356","2018-11-27 17:00","2018","11","27","17:00","-16.2","","-17.8","","88","","","","32","","15","","19.3","","101.97","","","","-24","","Snow"
"-81.24","68.78","SANIRAJAK AIRPORT","2402356","2018-11-27 18:00","2018","11","27","18:00","-15.8","","-17.4","","88","","","","31","","14","","19.3","","101.95","","","","-24","","Snow"
"-81.24","68.78","SANIRAJAK AIRPORT","2402356","2018-11-27 19:00","2018","11","27","19:00","-15.6","","-17.0","","89","","","","31","","12","","19.3","","101.96","","","","-23","","Snow"
"-81.24","68.78","SANIRAJAK AIRPORT","2402356","2018-11-27 20:00","2018","11","27","20:00"
"-81.24","68.78","SANIRAJAK AIRPORT","2402356","2018-11-27 21:00","2018","11","27","21:00"
"-81.24","68.78","SANIRAJAK AIRPORT","2402356","2018-11-27 22:00","2018","11","27","22:00"
"-81.24","68.78","SANIRAJAK AIRPORT","2402356","2018-11-27 23:00","2018","11","27","23:00"
"-81.24","68.78","SANIRAJAK AIRPORT","2402356","2018-11-28 00:00","2018","11","28","00:00"
"-81.24","68.78","SANIRAJAK AIRPORT","2402356","2018-11-28 01:00","2018","11","28","01:00"
"-81.24","68.78","SANIRAJAK AIRPORT","2402356","2018-11-28 02:00","2018","11","28","02:00"
"-81.24","68.78","SANIRAJAK AIRPORT","2402356","2018-11-28 03:00","2018","11","28","03:00"
"-81.24","68.78","SANIRAJAK AIRPORT","2402356","2018-11-28 04:00","2018","11","28","04:00"
"-81.24","68.78","SANIRAJAK AIRPORT","2402356","2018-11-28 05:00","2018","11","28","05:00"
"-81.24","68.78","SANIRAJAK AIRPORT","2402356","2018-11-28 06:00","2018","11","28","06:00"
"-81.24","68.78","SANIRAJAK AIRPORT","2402356","2018-11-28 07:00","2018","11","28","07:00","-23.1","","-25.4","","82","","","","23","","13","","24.1","","101.91","","","","-32","","Mainly Clear"
"-81.24","68.78","SANIRAJAK AIRPORT","2402356","2018-11-28 08:00","2018","11","28","08:00","-22.7","","-25.1","","81","","","","23","","14","","24.1","","101.86","","","","-32","","Ice Crystals"
"-81.24","68.78","SANIRAJAK AIRPORT","2402356","2018-11-28 09:00","2018","11","28","09:00","-20.8","","-22.8","","85","","","","21","","21","","24.1","","101.81","","","","-32","","Ice Crystals"
"-81.24","68.78","SANIRAJAK AIRPORT","2402356","2018-11-28 10:00","2018","11","28","10:00","-19.6","","-21.4","","86","","","","21","","18","","24.1","","101.79","","","","-29","","Mostly Cloudy"
"-81.24","68.78","SANIRAJAK AIRPORT","2402356","2018-11-28 11:00","2018","11","28","11:00","-20.3","","-22.5","","83","","","","23","","16","","24.1","","101.79","","","","-30","","NA"
"-81.24","68.78","SANIRAJAK AIRPORT","2402356","2018-11-28 12:00","2018","11","28","12:00","-19.5","","-21.1","","87","","","","21","","19","","24.1","","101.74","","","","-30","","NA"
"-81.24","68.78","SANIRAJAK AIRPORT","2402356","2018-11-28 13:00","2018","11","28","13:00","-18.3","","-20.2","","85","","","","21","","21","","24.1","","101.72","","","","-29","","Mainly Clear"
"-81.24","68.78","SANIRAJAK AIRPORT","2402356","2018-11-28 14:00","2018","11","28","14:00","-17.7","","-19.5","","86","","","","22","","21","","24.1","","101.70","","","","-28","","Blowing Snow"
"-81.24","68.78","SANIRAJAK AIRPORT","2402356","2018-11-28 15:00","2018","11","28","15:00","-19.1","","-20.9","","86","","","","23","","20","","24.1","","101.70","","","","-29","","NA"
"-81.24","68.78","SANIRAJAK AIRPORT","2402356","2018-11-28 16:00","2018","11","28","16:00","-19.6","","-21.4","","86","","","","25","","25","","24.1","","101.72","","","","-31","","Mostly Cloudy"
"-81.24","68.78","SANIRAJAK AIRPORT","2402356","2018-11-28 17:00","2018","11","28","17:00","-19.6","","-21.4","","86","","","","22","","15","","24.1","","101.77","","","","-29","","NA"
"-81.24","68.78","SANIRAJAK AIRPORT","2402356","2018-11-28 18:00","2018","11","28","18:00","-20.6","","-22.5","","85","","","","24","","16","","24.1","","101.76","","","","-30","","NA"
"-81.24","68.78","SANIRAJAK AIRPORT","2402356","2018-11-28 19:00","2018","11","28","19:00","-21.1","","-22.9","","86","","","","25","","15","","24.1","","101.75","","","","-30","","Mostly Cloudy"
"-81.24","68.78","SANIRAJAK AIRPORT","2402356","2018-11-28 20:00","2018","11","28","20:00"
"-81.24","68.78","SANIRAJAK AIRPORT","2402356","2018-11-28 21:00","2018","11","28","21:00"
"-81.24","68.78","SANIRAJAK AIRPORT","2402356","2018-11-28 22:00","2018","11","28","22:00"
"-81.24","68.78","SANIRAJAK AIRPORT","2402356","2018-11-28 23:00","2018","11","28","23:00"
"-81.24","68.78","SANIRAJAK AIRPORT","2402356","2018-11-29 00:00","2018","11","29","00:00"
"-81.24","68.78","SANIRAJAK AIRPORT","2402356","2018-11-29 01:00","2018","11","29","01:00"
"-81.24","68.78","SANIRAJAK AIRPORT","2402356","2018-11-29 02:00","2018","11","29","02:00"
"-81.24","68.78","SANIRAJAK AIRPORT","2402356","2018-11-29 03:00","2018","11","29","03:00"
"-81.24","68.78","SANIRAJAK AIRPORT","2402356","2018-11-29 04:00","2018","11","29","04:00"
"-81.24","68.78","SANIRAJAK AIRPORT","2402356","2018-11-29 05:00","2018","11","29","05:00"
"-81.24","68.78","SANIRAJAK AIRPORT","2402356","2018-11-29 06:00","2018","11","29","06:00"
"-81.24","68.78","SANIRAJAK AIRPORT","2402356","2018-11-29 07:00","2018","11","29","07:00","-14.9","","-16.2","","90","","","","29","","7","","24.1","","101.63","","","","-20","","Cloudy"
"-81.24","68.78","SANIRAJAK AIRPORT","2402356","2018-11-29 08:00","2018","11","29","08:00","-14.5","","-15.8","","90","","","","36","","3","","24.1","","101.58","","","","-17","","NA"
"-81.24","68.78","SANIRAJAK AIRPORT","2402356","2018-11-29 09:00","2018","11","29","09:00","-14.4","","-15.7","","90","","","","24","","12","","24.1","","101.58","","","","-21","","NA"
"-81.24","68.78","SANIRAJAK AIRPORT","2402356","2018-11-29 10:00","2018","11","29","10:00","-13.8","","-15.1","","90","","","","25","","13","","24.1","","101.58","","","","-21","","Mostly Cloudy"
"-81.24","68.78","SANIRAJAK AIRPORT","2402356","2018-11-29 11:00","2018","11","29","11:00","-14.0","","-15.3","","90","","","","25","","7","","24.1","","101.56","","","","-19","","NA"
"-81.24","68.78","SANIRAJAK AIRPORT","2402356","2018-11-29 12:00","2018","11","29","12:00","-16.1","","-17.7","","88","","","","19","","6","","24.1","","101.55","","","","-21","","NA"
"-81.24","68.78","SANIRAJAK AIRPORT","2402356","2018-11-29 13:00","2018","11","29","13:00","-15.5","","-16.9","","89","","","","26","","9","","24.1","","101.53","","","","-21","","Mostly Cloudy"
"-81.24","68.78","SANIRAJAK AIRPORT","2402356","2018-11-29 14:00","2018","11","29","14:00","-13.2","","-14.4","","91","","","","25","","10","","24.1","","101.51","","","","-19","","NA"
"-81.24","68.78","SANIRAJAK AIRPORT","2402356","2018-11-29 15:00","2018","11","29","15:00","-11.0","","-11.9","","93","","","","25","","20","","24.1","","101.52","","","","-19","","Snow"
"-81.24","68.78","SANIRAJAK AIRPORT","2402356","2018-11-29 16:00","2018","11","29","16:00","-10.6","","-11.5","","93","","","","25","","13","","24.1","","101.55","","","","-17","","Snow"
"-81.24","68.78","SANIRAJAK AIRPORT","2402356","2018-11-29 17:00","2018","11","29","17:00","-10.6","","-11.5","","93","","","","26","","10","","24.1","","101.54","","","","-16","","Snow"
"-81.24","68.78","SANIRAJAK AIRPORT","2402356","2018-11-29 18:00","2018","11","29","18:00","-10.2","","-11.1","","93","","","","24","","7","","24.1","","101.51","","","","-14","","Snow"
"-81.24","68.78","SANIRAJAK AIRPORT","2402356","2018-11-29 19:00","2018","11","29","19:00","-10.2","","-11.1","","93","","","","21","","13","","24.1","","101.47","","","","-16","","Snow"
"-81.24","68.78","SANIRAJAK AIRPORT","2402356","2018-11-29 20:00","2018","11","29","20:00"
"-81.24","68.78","SANIRAJAK AIRPORT","2402356","2018-11-29 21:00","2018","11","29","21:00"
"-81.24","68.78","SANIRAJAK AIRPORT","2402356","2018-11-29 22:00","2018","11","29","22:00"
"-81.24","68.78","SANIRAJAK AIRPORT","2402356","2018-11-29 23:00","2018","11","29","23:00"
"-81.24","68.78","SANIRAJAK AIRPORT","2402356","2018-11-30 00:00","2018","11","30","00:00"
"-81.24","68.78","SANIRAJAK AIRPORT","2402356","2018-11-30 01:00","2018","11","30","01:00"
"-81.24","68.78","SANIRAJAK AIRPORT","2402356","2018-11-30 02:00","2018","11","30","02:00"
"-81.24","68.78","SANIRAJAK AIRPORT","2402356","2018-11-30 03:00","2018","11","30","03:00"
"-81.24","68.78","SANIRAJAK AIRPORT","2402356","2018-11-30 04:00","2018","11","30","04:00"
"-81.24","68.78","SANIRAJAK AIRPORT","2402356","2018-11-30 05:00","2018","11","30","05:00"
"-81.24","68.78","SANIRAJAK AIRPORT","2402356","2018-11-30 06:00","2018","11","30","06:00"
"-81.24","68.78","SANIRAJAK AIRPORT","2402356","2018-11-30 07:00","2018","11","30","07:00","-11.0","","-11.9","","93","","","","25","","13","","24.1","","101.14","","","","-17","","Mostly Cloudy"
"-81.24","68.78","SANIRAJAK AIRPORT","2402356","2018-11-30 08:00","2018","11","30","08:00","-10.4","","-11.3","","93","","","","23","","12","","24.1","","101.12","","","","-16","","Snow"
"-81.24","68.78","SANIRAJAK AIRPORT","2402356","2018-11-30 09:00","2018","11","30","09:00","-10.0","","-10.9","","93","","","","23","","13","","24.1","","101.07","","","","-16","","Snow"
"-81.24","68.78","SANIRAJAK AIRPORT","2402356","2018-11-30 10:00","2018","11","30","10:00","-9.7","","-10.6","","93","","","","22","","12","","24.1","","101.03","","","","-16","","Mostly Cloudy"
"-81.24","68.78","SANIRAJAK AIRPORT","2402356","2018-11-30 11:00","2018","11","30","11:00","-9.5","","-10.3","","94","","","","22","","14","","24.1","","101.02","","","","-16","","Snow"
"-81.24","68.78","SANIRAJAK AIRPORT","2402356","2018-11-30 12:00","2018","11","30","12:00","-9.3","","-10.2","","93","","","","21","","13","","16.1","","100.99","","","","-15","","Snow"
"-81.24","68.78","SANIRAJAK AIRPORT","2402356","2018-11-30 13:00","2018","11","30","13:00","-9.3","","-10.1","","94","","","","21","","13","","24.1","","100.96","","","","-15","","Mostly Cloudy"
"-81.24","68.78","SANIRAJAK AIRPORT","2402356","2018-11-30 14:00","2018","11","30","14:00","-9.2","","-10.1","","93","","","","23","","17","","24.1","","100.95","","","","-16","","NA"
"-81.24","68.78","SANIRAJAK AIRPORT","2402356","2018-11-30 15:00","2018","11","30","15:00","-9.0","","-10.0","","93","","","","24","","16","","24.1","","100.95","","","","-16","","NA"
"-81.24","68.78","SANIRAJAK AIRPORT","2402356","2018-11-30 16:00","2018","11","30","16:00","-9.6","","-10.7","","92","","","","24","","11","","24.1","","100.93","","","","-15","","Cloudy"
"-81.24","68.78","SANIRAJAK AIRPORT","2402356","2018-11-30 17:00","2018","11","30","17:00","-11.2","","-12.1","","93","","","","22","","6","","24.1","","100.90","","","","-15","","NA"
"-81.24","68.78","SANIRAJAK AIRPORT","2402356","2018-11-30 18:00","2018","11","30","18:00","-10.1","","-10.9","","94","","","","21","","11","","19.3","","100.89","","","","-16","","Snow"
"-81.24","68.78","SANIRAJAK AIRPORT","2402356","2018-11-30 19:00","2018","11","30","19:00","-8.5","","-9.1","","96","","","","20","","17","","19.3","","100.84","","","","-15","","Snow"
"-81.24","68.78","SANIRAJAK AIRPORT","2402356","2018-11-30 20:00","2018","11","30","20:00"
"-81.24","68.78","SANIRAJAK AIRPORT","2402356","2018-11-30 21:00","2018","11","30","21:00"
"-81.24","68.78","SANIRAJAK AIRPORT","2402356","2018-11-30 22:00","2018","11","30","22:00"
"-81.24","68.78","SANIRAJAK AIRPORT","2402356","2018-11-30 23:00","2018","11","30","23:00"
