"Longitude (x)","Latitude (y)","Station Name","Climate ID","Date/Time (LST)","Year","Month","Day","Time (LST)","Temp (°C)","Temp Flag","Dew Point Temp (°C)","Dew Point Temp Flag","Rel Hum (%)","Rel Hum Flag","Precip. Amount (mm)","Precip. Amount Flag","Wind Dir (10s deg)","Wind Dir Flag","Wind Spd (km/h)","Wind Spd Flag","Visibility (km)","Visibility Flag","Stn Press (kPa)","Stn Press Flag","Hmdx","Hmdx Flag","Wind Chill","Wind Chill Flag","Weather"
"-115.14","67.82","KUGLUKTUK A","2300903","2019-12-01 00:00","2019","12","01","00:00","-14.2","","-17.0","","80","","","","1","","16","","24.1","","101.04","","","","-22","","NA"
"-115.14","67.82","KUGLUKTUK A","2300903","2019-12-01 01:00","2019","12","01","01:00","-15.9","","-18.2","","83","","","","23","","10","","24.1","","101.08","","","","-22","","NA"
"-115.14","67.82","KUGLUKTUK A","2300903","2019-12-01 02:00","2019","12","01","02:00","-17.1","","-19.3","","83","","","","21","","12","","24.1","","101.10","","","","-25","","Mostly Cloudy"
"-115.14","67.82","KUGLUKTUK A","2300903","2019-12-01 03:00","2019","12","01","03:00","-16.6","","-19.0","","82","","","","22","","18","","24.1","","101.11","","","","-26","","NA"
"-115.14","67.82","KUGLUKTUK A","2300903","2019-12-01 04:00","2019","12","01","04:00","-15.9","","-18.5","","81","","","","23","","20","","24.1","","101.14","","","","-25","","NA"
"-115.14","67.82","KUGLUKTUK A","2300903","2019-12-01 05:00","2019","12","01","05:00","-16.5","","-18.8","","82","","","","23","","24","","24.1","","101.11","","","","-27","","Cloudy"
"-115.14","67.82","KUGLUKTUK A","2300903","2019-12-01 06:00","2019","12","01","06:00","-16.1","","-18.7","","80","","","","24","","28","","12.9","","101.11","","","","-27","","Blowing Snow"
"-115.14","67.82","KUGLUKTUK A","2300903","2019-12-01 07:00","2019","12","01","07:00","-16.0","","-18.6","","81","","","","24","","26","","24.1","","101.10","","","","-27","","Blowing Snow"
"-115.14","67.82","KUGLUKTUK A","2300903","2019-12-01 08:00","2019","12","01","08:00","-15.2","","-18.1","","79","","","","24","","27","","6.4","","101.09","","","","-26","","Snow,Blowing Snow"
"-115.14","67.82","KUGLUKTUK A","2300903","2019-12-01 09:00","2019","12","01","09:00","-15.1","","-18.0","","79","","","","26","","25","","12.9","","101.11","","","","-25","","Snow,Blowing Snow"
"-115.14","67.82","KUGLUKTUK A","2300903","2019-12-01 10:00","2019","12","01","10:00","-15.1","","-18.0","","79","","","","24","","22","","16.1","","101.13","","","","-25","","Snow,Blowing Snow"
"-115.14","67.82","KUGLUKTUK A","2300903","2019-12-01 11:00","2019","12","01","11:00","-14.2","","-17.6","","76","","","","25","","24","","16.1","","101.12","","","","-24","","Snow,Blowing Snow"
"-115.14","67.82","KUGLUKTUK A","2300903","2019-12-01 12:00","2019","12","01","12:00","-14.1","","-17.1","","78","","","","25","","25","","12.9","","101.09","","","","-24","","Snow,Blowing Snow"
"-115.14","67.82","KUGLUKTUK A","2300903","2019-12-01 13:00","2019","12","01","13:00","-13.7","","-16.6","","79","","","","23","","22","","12.9","","101.08","","","","-23","","Snow"
"-115.14","67.82","KUGLUKTUK A","2300903","2019-12-01 14:00","2019","12","01","14:00","-13.3","","-16.2","","79","","","","22","","18","","16.1","","101.08","","","","-22","","Snow"
"-115.14","67.82","KUGLUKTUK A","2300903","2019-12-01 15:00","2019","12","01","15:00","-13.0","","-16.5","","76","","","","20","","17","","16.1","","101.10","","","","-21","","Snow"
"-115.14","67.82","KUGLUKTUK A","2300903","2019-12-01 16:00","2019","12","01","16:00","-13.1","","-16.1","","79","","","","24","","23","","16.1","","101.10","","","","-22","","Snow,Blowing Snow"
"-115.14","67.82","KUGLUKTUK A","2300903","2019-12-01 17:00","2019","12","01","17:00","-12.7","","-15.5","","80","","","","26","","20","","16.1","","101.09","","","","-21","","Snow"
"-115.14","67.82","KUGLUKTUK A","2300903","2019-12-01 18:00","2019","12","01","18:00","-13.0","","-15.7","","80","","","","26","","18","","19.3","","101.08","","","","-21","","Snow"
"-115.14","67.82","KUGLUKTUK A","2300903","2019-12-01 19:00","2019","12","01","19:00","-13.3","","-16.2","","79","","","","24","","16","","24.1","","101.07","","","","-21","","Snow"
"-115.14","67.82","KUGLUKTUK A","2300903","2019-12-01 20:00","2019","12","01","20:00","-12.8","","-15.6","","80","","","","26","","12","","24.1","","101.02","","","","-19","","Snow"
"-115.14","67.82","KUGLUKTUK A","2300903","2019-12-01 21:00","2019","12","01","21:00","-13.5","","-16.2","","81","","","","25","","13","","24.1","","101.00","","","","-20","","Snow"
"-115.14","67.82","KUGLUKTUK A","2300903","2019-12-01 22:00","2019","12","01","22:00","-13.8","","-16.3","","82","","","","21","","13","","24.1","","100.95","","","","-21","","Snow"
"-115.14","67.82","KUGLUKTUK A","2300903","2019-12-01 23:00","2019","12","01","23:00","-13.8","","-16.4","","80","","","","21","","19","","24.1","","100.92","","","","-22","","Cloudy"
"-115.14","67.82","KUGLUKTUK A","2300903","2019-12-02 00:00","2019","12","02","00:00","-15.2","","-18.1","","79","","","","23","","22","","24.1","","100.92","","","","-25","","Snow"
"-115.14","67.82","KUGLUKTUK A","2300903","2019-12-02 01:00","2019","12","02","01:00","-16.1","","-18.9","","79","","","","24","","17","","24.1","","100.88","","","","-25","","Snow"
"-115.14","67.82","KUGLUKTUK A","2300903","2019-12-02 02:00","2019","12","02","02:00","-17.9","","-20.6","","80","","","","24","","14","","24.1","","100.85","","","","-26","","Snow"
"-115.14","67.82","KUGLUKTUK A","2300903","2019-12-02 03:00","2019","12","02","03:00","-19.6","","-22.2","","80","","","","23","","21","","24.1","","100.80","","","","-30","","Snow"
"-115.14","67.82","KUGLUKTUK A","2300903","2019-12-02 04:00","2019","12","02","04:00","-19.9","","-22.4","","81","","","","24","","9","","24.1","","100.76","","","","-27","","Snow"
"-115.14","67.82","KUGLUKTUK A","2300903","2019-12-02 05:00","2019","12","02","05:00","-22.7","","-25.2","","81","","","","19","","7","","24.1","","100.67","","","","-29","","Ice Crystals"
"-115.14","67.82","KUGLUKTUK A","2300903","2019-12-02 06:00","2019","12","02","06:00","-23.2","","-25.4","","82","","","","18","","6","","24.1","","100.61","","","","-29","","Ice Crystals"
"-115.14","67.82","KUGLUKTUK A","2300903","2019-12-02 07:00","2019","12","02","07:00","-22.9","","-25.2","","81","","","","12","","8","","24.1","","100.54","","","","-30","","NA"
"-115.14","67.82","KUGLUKTUK A","2300903","2019-12-02 08:00","2019","12","02","08:00","-22.0","","-24.3","","82","","","","5","","4","","24.1","","100.48","","","","-26","","Ice Crystals"
"-115.14","67.82","KUGLUKTUK A","2300903","2019-12-02 09:00","2019","12","02","09:00","-20.6","","-23.0","","81","","","","27","","10","","24.1","","100.42","","","","-28","","Ice Crystals"
"-115.14","67.82","KUGLUKTUK A","2300903","2019-12-02 10:00","2019","12","02","10:00","-19.9","","-22.2","","82","","","","25","","9","","24.1","","100.36","","","","-27","","Ice Crystals"
"-115.14","67.82","KUGLUKTUK A","2300903","2019-12-02 11:00","2019","12","02","11:00","-19.6","","-22.1","","81","","","","32","","5","","24.1","","100.31","","","","-24","","Cloudy"
"-115.14","67.82","KUGLUKTUK A","2300903","2019-12-02 12:00","2019","12","02","12:00","-19.1","","-21.5","","82","","","","24","","3","","24.1","","100.29","","","","-22","","NA"
"-115.14","67.82","KUGLUKTUK A","2300903","2019-12-02 13:00","2019","12","02","13:00","-18.9","","-21.3","","81","","","","31","","6","","24.1","","100.24","","","","-24","","NA"
"-115.14","67.82","KUGLUKTUK A","2300903","2019-12-02 14:00","2019","12","02","14:00","-19.2","","-21.6","","82","","","","16","","3","","24.1","","100.17","","","","-22","","Ice Crystals"
"-115.14","67.82","KUGLUKTUK A","2300903","2019-12-02 15:00","2019","12","02","15:00","-19.4","","-21.8","","82","","","","25","","8","","24.1","","100.14","","","","-26","","Ice Crystals"
"-115.14","67.82","KUGLUKTUK A","2300903","2019-12-02 16:00","2019","12","02","16:00","-18.9","","-21.4","","81","","","","27","","4","","24.1","","100.09","","","","-22","","Ice Crystals"
"-115.14","67.82","KUGLUKTUK A","2300903","2019-12-02 17:00","2019","12","02","17:00","-18.6","","-21.0","","82","","","","21","","4","","24.1","","100.07","","","","-22","","Ice Crystals"
"-115.14","67.82","KUGLUKTUK A","2300903","2019-12-02 18:00","2019","12","02","18:00","-19.9","","-22.5","","80","","","","27","","11","","24.1","","100.05","","","","-28","","Ice Crystals"
"-115.14","67.82","KUGLUKTUK A","2300903","2019-12-02 19:00","2019","12","02","19:00","-19.4","","-22.1","","80","","","","23","","9","","24.1","","100.05","","","","-26","","Ice Crystals"
"-115.14","67.82","KUGLUKTUK A","2300903","2019-12-02 20:00","2019","12","02","20:00","-19.1","","-21.7","","80","","","","24","","13","","19.3","","100.05","","","","-27","","Snow Grains"
"-115.14","67.82","KUGLUKTUK A","2300903","2019-12-02 21:00","2019","12","02","21:00","-18.6","","-21.2","","80","","","","27","","10","","19.3","","100.04","","","","-26","","Snow Grains"
"-115.14","67.82","KUGLUKTUK A","2300903","2019-12-02 22:00","2019","12","02","22:00","-18.3","","-20.9","","80","","","","28","","13","","19.3","","100.06","","","","-26","","Snow Grains"
"-115.14","67.82","KUGLUKTUK A","2300903","2019-12-02 23:00","2019","12","02","23:00","-18.0","","-20.4","","81","","","","29","","11","","19.3","","100.08","","","","-25","","Snow Grains"
"-115.14","67.82","KUGLUKTUK A","2300903","2019-12-03 00:00","2019","12","03","00:00","-16.4","","-19.9","","75","","","","1","","21","","19.3","","100.09","","","","-26","","Snow Grains"
"-115.14","67.82","KUGLUKTUK A","2300903","2019-12-03 01:00","2019","12","03","01:00","-16.5","","-19.6","","78","","","","32","","30","","19.3","","100.13","","","","-28","","Snow Grains"
"-115.14","67.82","KUGLUKTUK A","2300903","2019-12-03 02:00","2019","12","03","02:00","-19.8","","-23.2","","75","","","","35","","41","","12.9","","100.21","","","","-34","","Snow Grains"
"-115.14","67.82","KUGLUKTUK A","2300903","2019-12-03 03:00","2019","12","03","03:00","-20.4","","-24.1","","73","","","","33","","29","","16.1","","100.28","","","","-33","","Snow"
"-115.14","67.82","KUGLUKTUK A","2300903","2019-12-03 04:00","2019","12","03","04:00","-21.4","","-25.0","","73","","","","34","","25","","19.3","","100.32","","","","-33","","Snow"
"-115.14","67.82","KUGLUKTUK A","2300903","2019-12-03 05:00","2019","12","03","05:00","-21.2","","-24.8","","73","","","","33","","25","","16.1","","100.39","","","","-33","","Snow"
"-115.14","67.82","KUGLUKTUK A","2300903","2019-12-03 06:00","2019","12","03","06:00","-22.1","","-25.8","","72","","","","29","","7","","24.1","","100.45","","","","-28","","NA"
"-115.14","67.82","KUGLUKTUK A","2300903","2019-12-03 07:00","2019","12","03","07:00","-23.4","","-27.4","","70","","","","31","","18","","24.1","","100.49","","","","-34","","NA"
"-115.14","67.82","KUGLUKTUK A","2300903","2019-12-03 08:00","2019","12","03","08:00","-22.7","","-27.9","","63","","","","28","","16","","24.1","","100.52","","","","-33","","Clear"
"-115.14","67.82","KUGLUKTUK A","2300903","2019-12-03 09:00","2019","12","03","09:00","-26.4","","-30.1","","71","","","","20","","9","","24.1","","100.58","","","","-34","","NA"
"-115.14","67.82","KUGLUKTUK A","2300903","2019-12-03 10:00","2019","12","03","10:00","-25.7","","-28.8","","76","","","","26","","21","","16.1","","100.61","","","","-38","","NA"
"-115.14","67.82","KUGLUKTUK A","2300903","2019-12-03 11:00","2019","12","03","11:00","-25.9","","-29.0","","75","","","","26","","30","","16.1","","100.64","","","","-40","","Blowing Snow"
"-115.14","67.82","KUGLUKTUK A","2300903","2019-12-03 12:00","2019","12","03","12:00","-24.9","","-28.3","","74","","","","26","","29","","24.1","","100.72","","","","-39","","Blowing Snow"
"-115.14","67.82","KUGLUKTUK A","2300903","2019-12-03 13:00","2019","12","03","13:00","-26.4","","-29.6","","75","","","","24","","27","","24.1","","100.76","","","","-40","","Blowing Snow"
"-115.14","67.82","KUGLUKTUK A","2300903","2019-12-03 14:00","2019","12","03","14:00","-25.5","","-28.7","","75","","","","25","","31","","24.1","","100.80","","","","-40","","Blowing Snow"
"-115.14","67.82","KUGLUKTUK A","2300903","2019-12-03 15:00","2019","12","03","15:00","-25.6","","-29.0","","73","","","","24","","31","","24.1","","100.82","","","","-40","","Blowing Snow"
"-115.14","67.82","KUGLUKTUK A","2300903","2019-12-03 16:00","2019","12","03","16:00","-25.2","","-28.9","","72","","","","24","","29","","24.1","","100.86","","","","-39","","Blowing Snow"
"-115.14","67.82","KUGLUKTUK A","2300903","2019-12-03 17:00","2019","12","03","17:00","-25.6","","-29.4","","71","","","","24","","31","","24.1","","100.86","","","","-40","","Blowing Snow"
"-115.14","67.82","KUGLUKTUK A","2300903","2019-12-03 18:00","2019","12","03","18:00","-26.4","","-30.5","","69","","","","23","","27","","24.1","","100.92","","","","-40","","Blowing Snow"
"-115.14","67.82","KUGLUKTUK A","2300903","2019-12-03 19:00","2019","12","03","19:00","-26.2","","-30.3","","69","","","","24","","29","","24.1","","100.92","","","","-40","","Blowing Snow"
"-115.14","67.82","KUGLUKTUK A","2300903","2019-12-03 20:00","2019","12","03","20:00","-25.7","","-29.6","","70","","","","24","","34","","24.1","","100.91","","","","-41","","Blowing Snow"
"-115.14","67.82","KUGLUKTUK A","2300903","2019-12-03 21:00","2019","12","03","21:00","-25.5","","-29.4","","70","","","","23","","29","","24.1","","100.95","","","","-40","","Blowing Snow"
"-115.14","67.82","KUGLUKTUK A","2300903","2019-12-03 22:00","2019","12","03","22:00","-25.3","","-29.2","","71","","","","23","","33","","24.1","","100.93","","","","-40","","Blowing Snow"
"-115.14","67.82","KUGLUKTUK A","2300903","2019-12-03 23:00","2019","12","03","23:00","-24.9","","-28.9","","70","","","","24","","34","","24.1","","100.96","","","","-40","","Ice Crystals,Blowing Snow"
"-115.14","67.82","KUGLUKTUK A","2300903","2019-12-04 00:00","2019","12","04","00:00","-25.0","","-29.2","","69","","","","24","","36","","24.1","","100.98","","","","-40","","Ice Crystals,Blowing Snow"
"-115.14","67.82","KUGLUKTUK A","2300903","2019-12-04 01:00","2019","12","04","01:00","-24.0","","-28.5","","67","","","","25","","35","","19.3","","101.03","","","","-39","","Snow Grains,Blowing Snow"
"-115.14","67.82","KUGLUKTUK A","2300903","2019-12-04 02:00","2019","12","04","02:00","-23.6","","-28.2","","66","","","","26","","36","","19.3","","101.03","","","","-38","","Snow Grains,Blowing Snow"
"-115.14","67.82","KUGLUKTUK A","2300903","2019-12-04 03:00","2019","12","04","03:00","-25.0","","-29.3","","68","","","","25","","34","","19.3","","101.06","","","","-40","","Snow Grains,Blowing Snow"
"-115.14","67.82","KUGLUKTUK A","2300903","2019-12-04 04:00","2019","12","04","04:00","-26.0","","-30.2","","69","","","","24","","28","","19.3","","101.08","","","","-40","","Snow Grains,Blowing Snow"
"-115.14","67.82","KUGLUKTUK A","2300903","2019-12-04 05:00","2019","12","04","05:00","-26.6","","-30.6","","70","","","","23","","25","","24.1","","101.09","","","","-40","","Ice Crystals,Blowing Snow"
"-115.14","67.82","KUGLUKTUK A","2300903","2019-12-04 06:00","2019","12","04","06:00","-26.5","","-30.6","","69","","","","24","","31","","24.1","","101.09","","","","-41","","Ice Crystals,Blowing Snow"
"-115.14","67.82","KUGLUKTUK A","2300903","2019-12-04 07:00","2019","12","04","07:00","-26.1","","-30.6","","67","","","","24","","32","","19.3","","101.10","","","","-41","","Snow,Blowing Snow"
"-115.14","67.82","KUGLUKTUK A","2300903","2019-12-04 08:00","2019","12","04","08:00","-25.8","","-30.2","","67","","","","25","","31","","24.1","","101.12","","","","-40","","Ice Crystals,Blowing Snow"
"-115.14","67.82","KUGLUKTUK A","2300903","2019-12-04 09:00","2019","12","04","09:00","-26.5","","-30.7","","68","","","","24","","25","","24.1","","101.12","","","","-40","","Blowing Snow"
"-115.14","67.82","KUGLUKTUK A","2300903","2019-12-04 10:00","2019","12","04","10:00","-26.8","","-31.0","","69","","","","23","","24","","24.1","","101.12","","","","-40","","Blowing Snow"
"-115.14","67.82","KUGLUKTUK A","2300903","2019-12-04 11:00","2019","12","04","11:00","-26.8","","-31.0","","68","","","","22","","30","","24.1","","101.12","","","","-41","","Blowing Snow"
"-115.14","67.82","KUGLUKTUK A","2300903","2019-12-04 12:00","2019","12","04","12:00","-27.1","","-31.4","","68","","","","23","","30","","24.1","","101.12","","","","-42","","Blowing Snow"
"-115.14","67.82","KUGLUKTUK A","2300903","2019-12-04 13:00","2019","12","04","13:00","-27.1","","-31.3","","68","","","","24","","36","","24.1","","101.12","","","","-43","","Blowing Snow"
"-115.14","67.82","KUGLUKTUK A","2300903","2019-12-04 14:00","2019","12","04","14:00","-28.0","","-31.9","","70","","","","23","","32","","24.1","","101.14","","","","-43","","Blowing Snow"
"-115.14","67.82","KUGLUKTUK A","2300903","2019-12-04 15:00","2019","12","04","15:00","-28.0","","-32.1","","69","","","","24","","36","","24.1","","101.15","","","","-44","","Blowing Snow"
"-115.14","67.82","KUGLUKTUK A","2300903","2019-12-04 16:00","2019","12","04","16:00","-28.2","","-32.3","","69","","","","24","","36","","24.1","","101.14","","","","-44","","Blowing Snow"
"-115.14","67.82","KUGLUKTUK A","2300903","2019-12-04 17:00","2019","12","04","17:00","-28.8","","-32.8","","69","","","","22","","27","","24.1","","101.14","","","","-43","","Blowing Snow"
"-115.14","67.82","KUGLUKTUK A","2300903","2019-12-04 18:00","2019","12","04","18:00","-28.3","","-32.5","","68","","","","23","","30","","24.1","","101.11","","","","-43","","Blowing Snow"
"-115.14","67.82","KUGLUKTUK A","2300903","2019-12-04 19:00","2019","12","04","19:00","-28.1","","-32.4","","68","","","","23","","32","","24.1","","101.09","","","","-44","","Blowing Snow"
"-115.14","67.82","KUGLUKTUK A","2300903","2019-12-04 20:00","2019","12","04","20:00","-28.8","","-33.0","","68","","","","22","","27","","24.1","","101.09","","","","-43","","Mainly Clear"
"-115.14","67.82","KUGLUKTUK A","2300903","2019-12-04 21:00","2019","12","04","21:00","-28.7","","-32.9","","68","","","","23","","29","","24.1","","101.05","","","","-44","","Blowing Snow"
"-115.14","67.82","KUGLUKTUK A","2300903","2019-12-04 22:00","2019","12","04","22:00","-28.6","","-32.7","","68","","","","23","","34","","24.1","","101.03","","","","-45","","Blowing Snow"
"-115.14","67.82","KUGLUKTUK A","2300903","2019-12-04 23:00","2019","12","04","23:00","-28.9","","-33.0","","69","","","","22","","28","","24.1","","101.06","","","","-44","","Blowing Snow"
"-115.14","67.82","KUGLUKTUK A","2300903","2019-12-05 00:00","2019","12","05","00:00","-29.0","","-33.0","","69","","","","23","","27","","24.1","","101.02","","","","-44","","Blowing Snow"
"-115.14","67.82","KUGLUKTUK A","2300903","2019-12-05 01:00","2019","12","05","01:00","-28.6","","-32.8","","68","","","","23","","27","","24.1","","101.02","","","","-43","","Blowing Snow"
"-115.14","67.82","KUGLUKTUK A","2300903","2019-12-05 02:00","2019","12","05","02:00","-28.2","","-32.4","","68","","","","23","","31","","24.1","","100.99","","","","-43","","Blowing Snow"
"-115.14","67.82","KUGLUKTUK A","2300903","2019-12-05 03:00","2019","12","05","03:00","-27.9","","-32.0","","68","","","","23","","28","","24.1","","100.95","","","","-42","","Ice Crystals,Blowing Snow"
"-115.14","67.82","KUGLUKTUK A","2300903","2019-12-05 04:00","2019","12","05","04:00","-27.5","","-31.8","","68","","","","24","","28","","24.1","","100.92","","","","-42","","Ice Crystals,Blowing Snow"
"-115.14","67.82","KUGLUKTUK A","2300903","2019-12-05 05:00","2019","12","05","05:00","-27.7","","-31.7","","70","","","","22","","25","","24.1","","100.86","","","","-42","","Ice Crystals,Blowing Snow"
"-115.14","67.82","KUGLUKTUK A","2300903","2019-12-05 06:00","2019","12","05","06:00","-27.1","","-30.8","","72","","","","24","","33","","24.1","","100.82","","","","-42","","Ice Crystals,Blowing Snow"
"-115.14","67.82","KUGLUKTUK A","2300903","2019-12-05 07:00","2019","12","05","07:00","-26.2","","-29.7","","73","","","","25","","36","","24.1","","100.77","","","","-42","","Ice Crystals,Blowing Snow"
"-115.14","67.82","KUGLUKTUK A","2300903","2019-12-05 08:00","2019","12","05","08:00","-26.0","","-29.6","","72","","","","24","","34","","24.1","","100.76","","","","-41","","Ice Crystals,Blowing Snow"
"-115.14","67.82","KUGLUKTUK A","2300903","2019-12-05 09:00","2019","12","05","09:00","-25.4","","-29.3","","71","","","","24","","31","","24.1","","100.74","","","","-40","","Ice Crystals,Blowing Snow"
"-115.14","67.82","KUGLUKTUK A","2300903","2019-12-05 10:00","2019","12","05","10:00","-24.9","","-28.7","","71","","","","24","","36","","19.3","","100.69","","","","-40","","Ice Crystals,Blowing Snow"
"-115.14","67.82","KUGLUKTUK A","2300903","2019-12-05 11:00","2019","12","05","11:00","-25.1","","-28.9","","71","","","","24","","33","","24.1","","100.68","","","","-40","","Ice Crystals,Blowing Snow"
"-115.14","67.82","KUGLUKTUK A","2300903","2019-12-05 12:00","2019","12","05","12:00","-25.1","","-29.4","","68","","","","25","","39","","24.1","","100.63","","","","-41","","Ice Crystals,Blowing Snow"
"-115.14","67.82","KUGLUKTUK A","2300903","2019-12-05 13:00","2019","12","05","13:00","-25.2","","-29.5","","68","","","","25","","39","","24.1","","100.62","","","","-41","","Ice Crystals,Blowing Snow"
"-115.14","67.82","KUGLUKTUK A","2300903","2019-12-05 14:00","2019","12","05","14:00","-25.3","","-29.5","","68","","","","24","","34","","24.1","","100.61","","","","-40","","Ice Crystals,Blowing Snow"
"-115.14","67.82","KUGLUKTUK A","2300903","2019-12-05 15:00","2019","12","05","15:00","-25.7","","-29.8","","69","","","","24","","34","","24.1","","100.58","","","","-41","","Blowing Snow"
"-115.14","67.82","KUGLUKTUK A","2300903","2019-12-05 16:00","2019","12","05","16:00","-25.7","","-30.0","","68","","","","24","","36","","24.1","","100.55","","","","-41","","Blowing Snow"
"-115.14","67.82","KUGLUKTUK A","2300903","2019-12-05 17:00","2019","12","05","17:00","-25.0","","-29.4","","68","","","","24","","35","","24.1","","100.50","","","","-40","","Blowing Snow"
"-115.14","67.82","KUGLUKTUK A","2300903","2019-12-05 18:00","2019","12","05","18:00","-24.6","","-29.0","","68","","","","25","","35","","24.1","","100.44","","","","-39","","Blowing Snow"
"-115.14","67.82","KUGLUKTUK A","2300903","2019-12-05 19:00","2019","12","05","19:00","-25.0","","-29.3","","68","","","","24","","28","","24.1","","100.43","","","","-39","","Blowing Snow"
"-115.14","67.82","KUGLUKTUK A","2300903","2019-12-05 20:00","2019","12","05","20:00","-24.3","","-28.6","","68","","","","24","","37","","24.1","","100.35","","","","-39","","Blowing Snow"
"-115.14","67.82","KUGLUKTUK A","2300903","2019-12-05 21:00","2019","12","05","21:00","-24.1","","-28.5","","67","","","","24","","32","","24.1","","100.30","","","","-38","","Blowing Snow"
"-115.14","67.82","KUGLUKTUK A","2300903","2019-12-05 22:00","2019","12","05","22:00","-23.4","","-27.7","","68","","","","24","","35","","12.9","","100.27","","","","-38","","Snow Grains,Blowing Snow"
"-115.14","67.82","KUGLUKTUK A","2300903","2019-12-05 23:00","2019","12","05","23:00","-22.6","","-26.6","","71","","","","24","","27","","16.1","","100.22","","","","-35","","Snow Grains,Blowing Snow"
"-115.14","67.82","KUGLUKTUK A","2300903","2019-12-06 00:00","2019","12","06","00:00","-21.7","","-24.9","","75","","","","24","","28","","12.9","","100.18","","","","-34","","Snow Grains"
"-115.14","67.82","KUGLUKTUK A","2300903","2019-12-06 01:00","2019","12","06","01:00","-21.1","","-24.2","","76","","","","24","","31","","9.7","","100.12","","","","-34","","Snow,Blowing Snow"
"-115.14","67.82","KUGLUKTUK A","2300903","2019-12-06 02:00","2019","12","06","02:00","-20.1","","-22.9","","78","","","","24","","30","","9.7","","100.10","","","","-33","","Snow,Blowing Snow"
"-115.14","67.82","KUGLUKTUK A","2300903","2019-12-06 03:00","2019","12","06","03:00","-19.2","","-22.0","","79","","","","26","","38","","6.4","","100.04","","","","-33","","Snow,Blowing Snow"
"-115.14","67.82","KUGLUKTUK A","2300903","2019-12-06 04:00","2019","12","06","04:00","-19.1","","-21.9","","79","","","","26","","37","","6.4","","99.98","","","","-33","","Snow,Blowing Snow"
"-115.14","67.82","KUGLUKTUK A","2300903","2019-12-06 05:00","2019","12","06","05:00","-19.0","","-21.8","","79","","","","27","","33","","6.4","","99.94","","","","-32","","Snow,Blowing Snow"
"-115.14","67.82","KUGLUKTUK A","2300903","2019-12-06 06:00","2019","12","06","06:00","-19.3","","-22.3","","77","","","","26","","25","","9.7","","99.91","","","","-31","","Snow,Blowing Snow"
"-115.14","67.82","KUGLUKTUK A","2300903","2019-12-06 07:00","2019","12","06","07:00","-19.5","","-22.4","","79","","","","26","","23","","9.7","","99.92","","","","-31","","Snow,Blowing Snow"
"-115.14","67.82","KUGLUKTUK A","2300903","2019-12-06 08:00","2019","12","06","08:00","-20.9","","-23.7","","79","","","","26","","25","","16.1","","99.95","","","","-33","","Snow"
"-115.14","67.82","KUGLUKTUK A","2300903","2019-12-06 09:00","2019","12","06","09:00","-22.0","","-24.9","","78","","","","27","","24","","16.1","","99.99","","","","-34","","Snow,Blowing Snow"
"-115.14","67.82","KUGLUKTUK A","2300903","2019-12-06 10:00","2019","12","06","10:00","-22.5","","-25.3","","78","","","","35","","35","","9.7","","100.12","","","","-37","","Snow,Blowing Snow"
"-115.14","67.82","KUGLUKTUK A","2300903","2019-12-06 11:00","2019","12","06","11:00","-24.2","","-27.1","","77","","","","35","","23","","4.8","","100.26","","","","-37","","Snow,Blowing Snow"
"-115.14","67.82","KUGLUKTUK A","2300903","2019-12-06 12:00","2019","12","06","12:00","-24.7","","-27.9","","75","","","","35","","28","","3.2","","100.40","","","","-38","","Snow,Blowing Snow"
"-115.14","67.82","KUGLUKTUK A","2300903","2019-12-06 13:00","2019","12","06","13:00","-26.4","","-29.8","","74","","","","36","","38","","3.2","","100.56","","","","-42","","Snow,Blowing Snow"
"-115.14","67.82","KUGLUKTUK A","2300903","2019-12-06 14:00","2019","12","06","14:00","-27.1","","-30.6","","73","","","","36","","37","","3.2","","100.69","","","","-43","","Snow,Blowing Snow"
"-115.14","67.82","KUGLUKTUK A","2300903","2019-12-06 15:00","2019","12","06","15:00","-28.3","","-31.9","","72","","","","36","","29","","12.9","","100.87","","","","-43","","Snow,Blowing Snow"
"-115.14","67.82","KUGLUKTUK A","2300903","2019-12-06 16:00","2019","12","06","16:00","-28.2","","-31.9","","71","","","","36","","21","","19.3","","100.98","","","","-41","","Blowing Snow"
"-115.14","67.82","KUGLUKTUK A","2300903","2019-12-06 17:00","2019","12","06","17:00","-28.4","","-32.1","","71","","","","36","","26","","16.1","","101.06","","","","-43","","Ice Crystals,Blowing Snow"
"-115.14","67.82","KUGLUKTUK A","2300903","2019-12-06 18:00","2019","12","06","18:00","-28.3","","-31.9","","72","","","","36","","23","","12.9","","101.15","","","","-42","","Ice Crystals,Blowing Snow"
"-115.14","67.82","KUGLUKTUK A","2300903","2019-12-06 19:00","2019","12","06","19:00","-28.4","","-32.3","","70","","","","35","","26","","12.9","","101.25","","","","-43","","Ice Crystals,Blowing Snow"
"-115.14","67.82","KUGLUKTUK A","2300903","2019-12-06 20:00","2019","12","06","20:00","-28.2","","-32.1","","70","","","","36","","23","","12.9","","101.30","","","","-42","","Ice Crystals,Blowing Snow"
"-115.14","67.82","KUGLUKTUK A","2300903","2019-12-06 21:00","2019","12","06","21:00","-28.4","","-32.2","","71","","","","35","","26","","12.9","","101.37","","","","-43","","Ice Crystals,Blowing Snow"
"-115.14","67.82","KUGLUKTUK A","2300903","2019-12-06 22:00","2019","12","06","22:00","-28.8","","-32.5","","71","","","","35","","15","","16.1","","101.46","","","","-40","","Ice Crystals"
"-115.14","67.82","KUGLUKTUK A","2300903","2019-12-06 23:00","2019","12","06","23:00","-29.0","","-32.8","","70","","","","34","","12","","19.3","","101.53","","","","-39","","Ice Crystals"
"-115.14","67.82","KUGLUKTUK A","2300903","2019-12-07 00:00","2019","12","07","00:00","-30.3","","-34.0","","71","","","","25","","16","","16.1","","101.60","","","","-42","","Ice Crystals"
"-115.14","67.82","KUGLUKTUK A","2300903","2019-12-07 01:00","2019","12","07","01:00","-31.4","","-35.0","","71","","","","25","","19","","19.3","","101.66","","","","-45","","Ice Crystals"
"-115.14","67.82","KUGLUKTUK A","2300903","2019-12-07 02:00","2019","12","07","02:00","-31.4","","-35.0","","71","","","","24","","22","","24.1","","101.69","","","","-45","","Clear"
"-115.14","67.82","KUGLUKTUK A","2300903","2019-12-07 03:00","2019","12","07","03:00","-31.7","","-35.1","","72","","","","23","","25","","24.1","","101.71","","","","-47","","NA"
"-115.14","67.82","KUGLUKTUK A","2300903","2019-12-07 04:00","2019","12","07","04:00","-31.3","","-34.9","","72","","","","23","","23","","24.1","","101.71","","","","-46","","Ice Crystals"
"-115.14","67.82","KUGLUKTUK A","2300903","2019-12-07 05:00","2019","12","07","05:00","-30.4","","-34.3","","70","","","","24","","24","","24.1","","101.68","","","","-45","","Ice Crystals"
"-115.14","67.82","KUGLUKTUK A","2300903","2019-12-07 06:00","2019","12","07","06:00","-28.5","","-32.2","","72","","","","26","","33","","16.1","","101.65","","","","-44","","Ice Crystals,Blowing Snow"
"-115.14","67.82","KUGLUKTUK A","2300903","2019-12-07 07:00","2019","12","07","07:00","-30.1","","-33.8","","71","","","","23","","24","","19.3","","101.63","","","","-44","","Ice Crystals,Blowing Snow"
"-115.14","67.82","KUGLUKTUK A","2300903","2019-12-07 08:00","2019","12","07","08:00","-30.1","","-33.8","","71","","","","23","","28","","19.3","","101.60","","","","-45","","Ice Crystals,Blowing Snow"
"-115.14","67.82","KUGLUKTUK A","2300903","2019-12-07 09:00","2019","12","07","09:00","-30.1","","-33.9","","70","","","","23","","26","","19.3","","101.58","","","","-45","","Ice Crystals,Blowing Snow"
"-115.14","67.82","KUGLUKTUK A","2300903","2019-12-07 10:00","2019","12","07","10:00","-29.1","","-33.2","","68","","","","22","","27","","19.3","","101.56","","","","-44","","Ice Crystals,Blowing Snow"
"-115.14","67.82","KUGLUKTUK A","2300903","2019-12-07 11:00","2019","12","07","11:00","-29.6","","-33.8","","68","","","","23","","27","","19.3","","101.53","","","","-44","","Ice Crystals,Blowing Snow"
"-115.14","67.82","KUGLUKTUK A","2300903","2019-12-07 12:00","2019","12","07","12:00","-28.4","","-32.6","","67","","","","23","","24","","19.3","","101.55","","","","-42","","Ice Crystals,Blowing Snow"
"-115.14","67.82","KUGLUKTUK A","2300903","2019-12-07 13:00","2019","12","07","13:00","-29.2","","-33.4","","68","","","","23","","29","","19.3","","101.56","","","","-44","","Ice Crystals,Blowing Snow"
"-115.14","67.82","KUGLUKTUK A","2300903","2019-12-07 14:00","2019","12","07","14:00","-29.4","","-33.5","","69","","","","23","","26","","19.3","","101.56","","","","-44","","Ice Crystals,Blowing Snow"
"-115.14","67.82","KUGLUKTUK A","2300903","2019-12-07 15:00","2019","12","07","15:00","-28.7","","-33.3","","66","","","","24","","32","","19.3","","101.57","","","","-44","","Ice Crystals,Blowing Snow"
"-115.14","67.82","KUGLUKTUK A","2300903","2019-12-07 16:00","2019","12","07","16:00","-28.1","","-32.6","","66","","","","24","","32","","19.3","","101.57","","","","-44","","Ice Crystals,Blowing Snow"
"-115.14","67.82","KUGLUKTUK A","2300903","2019-12-07 17:00","2019","12","07","17:00","-28.2","","-32.6","","67","","","","24","","27","","19.3","","101.56","","","","-43","","Ice Crystals,Blowing Snow"
"-115.14","67.82","KUGLUKTUK A","2300903","2019-12-07 18:00","2019","12","07","18:00","-28.3","","-32.8","","66","","","","23","","30","","19.3","","101.51","","","","-43","","Ice Crystals,Blowing Snow"
"-115.14","67.82","KUGLUKTUK A","2300903","2019-12-07 19:00","2019","12","07","19:00","-28.4","","-32.8","","67","","","","24","","30","","19.3","","101.50","","","","-44","","Ice Crystals,Blowing Snow"
"-115.14","67.82","KUGLUKTUK A","2300903","2019-12-07 20:00","2019","12","07","20:00","-28.1","","-32.7","","66","","","","24","","31","","24.1","","101.52","","","","-43","","Ice Crystals,Blowing Snow"
"-115.14","67.82","KUGLUKTUK A","2300903","2019-12-07 21:00","2019","12","07","21:00","-27.0","","-31.9","","64","","","","25","","32","","16.1","","101.55","","","","-42","","Ice Crystals,Blowing Snow"
"-115.14","67.82","KUGLUKTUK A","2300903","2019-12-07 22:00","2019","12","07","22:00","-28.8","","-33.1","","68","","","","23","","21","","19.3","","101.57","","","","-42","","Ice Crystals,Blowing Snow"
"-115.14","67.82","KUGLUKTUK A","2300903","2019-12-07 23:00","2019","12","07","23:00","-28.2","","-32.7","","67","","","","24","","28","","24.1","","101.57","","","","-43","","Ice Crystals,Blowing Snow"
"-115.14","67.82","KUGLUKTUK A","2300903","2019-12-08 00:00","2019","12","08","00:00","-29.0","","-33.3","","67","","","","24","","27","","19.3","","101.61","","","","-44","","Ice Crystals,Blowing Snow"
"-115.14","67.82","KUGLUKTUK A","2300903","2019-12-08 01:00","2019","12","08","01:00","-27.6","","-32.0","","67","","","","24","","19","","19.3","","101.65","","","","-40","","Ice Crystals"
"-115.14","67.82","KUGLUKTUK A","2300903","2019-12-08 02:00","2019","12","08","02:00","-27.9","","-32.0","","69","","","","23","","21","","16.1","","101.68","","","","-41","","Snow,Blowing Snow"
"-115.14","67.82","KUGLUKTUK A","2300903","2019-12-08 03:00","2019","12","08","03:00","-28.6","","-32.5","","70","","","","24","","25","","16.1","","101.70","","","","-43","","Snow,Blowing Snow"
"-115.14","67.82","KUGLUKTUK A","2300903","2019-12-08 04:00","2019","12","08","04:00","-29.1","","-32.9","","70","","","","23","","22","","19.3","","101.72","","","","-43","","Ice Crystals,Blowing Snow"
"-115.14","67.82","KUGLUKTUK A","2300903","2019-12-08 05:00","2019","12","08","05:00","-28.7","","-32.4","","71","","","","24","","21","","19.3","","101.77","","","","-42","","Ice Crystals"
"-115.14","67.82","KUGLUKTUK A","2300903","2019-12-08 06:00","2019","12","08","06:00","-29.5","","-33.4","","70","","","","24","","22","","19.3","","101.77","","","","-43","","Ice Crystals,Blowing Snow"
"-115.14","67.82","KUGLUKTUK A","2300903","2019-12-08 07:00","2019","12","08","07:00","-29.5","","-33.3","","71","","","","22","","17","","19.3","","101.80","","","","-42","","Ice Crystals"
"-115.14","67.82","KUGLUKTUK A","2300903","2019-12-08 08:00","2019","12","08","08:00","-28.9","","-32.6","","72","","","","23","","20","","12.9","","101.83","","","","-42","","Ice Crystals"
"-115.14","67.82","KUGLUKTUK A","2300903","2019-12-08 09:00","2019","12","08","09:00","-28.9","","-32.4","","72","","","","23","","21","","16.1","","101.84","","","","-42","","Ice Crystals"
"-115.14","67.82","KUGLUKTUK A","2300903","2019-12-08 10:00","2019","12","08","10:00","-29.1","","-32.6","","72","","","","22","","21","","19.3","","101.90","","","","-42","","Ice Crystals"
"-115.14","67.82","KUGLUKTUK A","2300903","2019-12-08 11:00","2019","12","08","11:00","-30.0","","-33.6","","72","","","","22","","18","","19.3","","101.94","","","","-42","","Ice Crystals"
"-115.14","67.82","KUGLUKTUK A","2300903","2019-12-08 12:00","2019","12","08","12:00","-30.2","","-33.8","","72","","","","23","","23","","19.3","","101.96","","","","-44","","Ice Crystals"
"-115.14","67.82","KUGLUKTUK A","2300903","2019-12-08 13:00","2019","12","08","13:00","-30.5","","-34.0","","72","","","","22","","22","","19.3","","102.01","","","","-44","","Ice Crystals"
"-115.14","67.82","KUGLUKTUK A","2300903","2019-12-08 14:00","2019","12","08","14:00","-29.8","","-33.4","","72","","","","23","","23","","19.3","","102.04","","","","-44","","Ice Crystals"
"-115.14","67.82","KUGLUKTUK A","2300903","2019-12-08 15:00","2019","12","08","15:00","-29.1","","-32.6","","72","","","","23","","24","","19.3","","102.08","","","","-43","","Ice Crystals"
"-115.14","67.82","KUGLUKTUK A","2300903","2019-12-08 16:00","2019","12","08","16:00","-29.0","","-32.3","","73","","","","23","","27","","19.3","","102.08","","","","-44","","Ice Crystals,Blowing Snow"
"-115.14","67.82","KUGLUKTUK A","2300903","2019-12-08 17:00","2019","12","08","17:00","-29.4","","-32.7","","74","","","","22","","23","","16.1","","102.10","","","","-43","","Ice Crystals"
"-115.14","67.82","KUGLUKTUK A","2300903","2019-12-08 18:00","2019","12","08","18:00","-29.3","","-32.6","","73","","","","22","","21","","19.3","","102.10","","","","-43","","Ice Crystals"
"-115.14","67.82","KUGLUKTUK A","2300903","2019-12-08 19:00","2019","12","08","19:00","-29.2","","-32.6","","73","","","","22","","18","","19.3","","102.08","","","","-41","","Ice Crystals"
"-115.14","67.82","KUGLUKTUK A","2300903","2019-12-08 20:00","2019","12","08","20:00","-28.7","","-32.2","","72","","","","23","","21","","19.3","","102.09","","","","-42","","Ice Crystals"
"-115.14","67.82","KUGLUKTUK A","2300903","2019-12-08 21:00","2019","12","08","21:00","-29.0","","-32.5","","72","","","","24","","25","","19.3","","102.08","","","","-43","","Ice Crystals"
"-115.14","67.82","KUGLUKTUK A","2300903","2019-12-08 22:00","2019","12","08","22:00","-28.2","","-31.6","","73","","","","24","","30","","24.1","","102.07","","","","-43","","Ice Crystals"
"-115.14","67.82","KUGLUKTUK A","2300903","2019-12-08 23:00","2019","12","08","23:00","-26.8","","-30.7","","70","","","","24","","30","","19.3","","102.08","","","","-41","","Ice Crystals,Blowing Snow"
"-115.14","67.82","KUGLUKTUK A","2300903","2019-12-09 00:00","2019","12","09","00:00","-26.2","","-30.2","","70","","","","23","","32","","16.1","","102.10","","","","-41","","Ice Crystals,Blowing Snow"
"-115.14","67.82","KUGLUKTUK A","2300903","2019-12-09 01:00","2019","12","09","01:00","-25.3","","-29.3","","70","","","","23","","25","","16.1","","102.14","","","","-38","","Ice Crystals,Blowing Snow"
"-115.14","67.82","KUGLUKTUK A","2300903","2019-12-09 02:00","2019","12","09","02:00","-24.6","","-29.1","","67","","","","25","","30","","19.3","","102.16","","","","-39","","Ice Crystals,Blowing Snow"
"-115.14","67.82","KUGLUKTUK A","2300903","2019-12-09 03:00","2019","12","09","03:00","-24.0","","-28.0","","70","","","","26","","28","","19.3","","102.19","","","","-37","","Ice Crystals,Blowing Snow"
"-115.14","67.82","KUGLUKTUK A","2300903","2019-12-09 04:00","2019","12","09","04:00","-23.8","","-27.7","","71","","","","26","","21","","19.3","","102.23","","","","-36","","Ice Crystals"
"-115.14","67.82","KUGLUKTUK A","2300903","2019-12-09 05:00","2019","12","09","05:00","-22.4","","-26.2","","72","","","","30","","27","","19.3","","102.23","","","","-35","","Ice Crystals"
"-115.14","67.82","KUGLUKTUK A","2300903","2019-12-09 06:00","2019","12","09","06:00","-23.0","","-26.7","","72","","","","28","","15","","24.1","","102.29","","","","-33","","Ice Crystals"
"-115.14","67.82","KUGLUKTUK A","2300903","2019-12-09 07:00","2019","12","09","07:00","-22.7","","-26.4","","72","","","","30","","24","","19.3","","102.33","","","","-35","","Ice Crystals,Blowing Snow"
"-115.14","67.82","KUGLUKTUK A","2300903","2019-12-09 08:00","2019","12","09","08:00","-22.6","","-26.2","","73","","","","30","","18","","16.1","","102.38","","","","-33","","Ice Crystals,Blowing Snow"
"-115.14","67.82","KUGLUKTUK A","2300903","2019-12-09 09:00","2019","12","09","09:00","-23.2","","-26.6","","74","","","","31","","18","","16.1","","102.42","","","","-34","","Ice Crystals,Blowing Snow"
"-115.14","67.82","KUGLUKTUK A","2300903","2019-12-09 10:00","2019","12","09","10:00","-23.8","","-27.0","","76","","","","32","","15","","19.3","","102.50","","","","-34","","Ice Crystals"
"-115.14","67.82","KUGLUKTUK A","2300903","2019-12-09 11:00","2019","12","09","11:00","-25.8","","-28.6","","78","","","","32","","8","","19.3","","102.57","","","","-33","","Ice Crystals"
"-115.14","67.82","KUGLUKTUK A","2300903","2019-12-09 12:00","2019","12","09","12:00","-25.0","","-28.1","","76","","","","1","","9","","19.3","","102.64","","","","-33","","Ice Crystals"
"-115.14","67.82","KUGLUKTUK A","2300903","2019-12-09 13:00","2019","12","09","13:00","-25.6","","-28.7","","76","","","","1","","9","","19.3","","102.70","","","","-33","","Ice Crystals"
"-115.14","67.82","KUGLUKTUK A","2300903","2019-12-09 14:00","2019","12","09","14:00","-26.2","","-29.3","","76","","","","3","","11","","19.3","","102.77","","","","-35","","Ice Crystals"
"-115.14","67.82","KUGLUKTUK A","2300903","2019-12-09 15:00","2019","12","09","15:00","-26.6","","-29.6","","76","","","","3","","8","","19.3","","102.87","","","","-34","","Ice Crystals"
"-115.14","67.82","KUGLUKTUK A","2300903","2019-12-09 16:00","2019","12","09","16:00","-26.8","","-29.8","","76","","","","34","","4","","19.3","","102.90","","","","-31","","Ice Crystals"
"-115.14","67.82","KUGLUKTUK A","2300903","2019-12-09 17:00","2019","12","09","17:00","-26.9","","-29.9","","76","","","","30","","3","","19.3","","102.93","","","","-30","","Ice Crystals"
"-115.14","67.82","KUGLUKTUK A","2300903","2019-12-09 18:00","2019","12","09","18:00","-27.5","","-30.5","","76","","","","30","","6","","19.3","","102.98","","","","-34","","Ice Crystals"
"-115.14","67.82","KUGLUKTUK A","2300903","2019-12-09 19:00","2019","12","09","19:00","-28.4","","-31.2","","77","","","","30","","5","","19.3","","102.98","","","","-34","","Ice Crystals"
"-115.14","67.82","KUGLUKTUK A","2300903","2019-12-09 20:00","2019","12","09","20:00","-30.8","","-33.7","","76","","","","24","","6","","19.3","","103.02","","","","-37","","Ice Crystals"
"-115.14","67.82","KUGLUKTUK A","2300903","2019-12-09 21:00","2019","12","09","21:00","-30.8","","-33.6","","77","","","","22","","11","","19.3","","103.07","","","","-41","","Ice Crystals"
"-115.14","67.82","KUGLUKTUK A","2300903","2019-12-09 22:00","2019","12","09","22:00","-31.2","","-34.2","","75","","","","22","","17","","19.3","","103.09","","","","-44","","Ice Crystals"
"-115.14","67.82","KUGLUKTUK A","2300903","2019-12-09 23:00","2019","12","09","23:00","-31.4","","-34.6","","75","","","","21","","14","","19.3","","103.10","","","","-43","","Ice Crystals"
"-115.14","67.82","KUGLUKTUK A","2300903","2019-12-10 00:00","2019","12","10","00:00","-31.1","","-34.4","","74","","","","22","","18","","19.3","","103.11","","","","-44","","Ice Crystals"
"-115.14","67.82","KUGLUKTUK A","2300903","2019-12-10 01:00","2019","12","10","01:00","-31.1","","-34.4","","74","","","","22","","16","","19.3","","103.12","","","","-43","","Ice Crystals"
"-115.14","67.82","KUGLUKTUK A","2300903","2019-12-10 02:00","2019","12","10","02:00","-31.1","","-34.4","","74","","","","21","","14","","24.1","","103.13","","","","-42","","Ice Crystals"
"-115.14","67.82","KUGLUKTUK A","2300903","2019-12-10 03:00","2019","12","10","03:00","-31.3","","-34.6","","73","","","","22","","18","","24.1","","103.11","","","","-44","","NA"
"-115.14","67.82","KUGLUKTUK A","2300903","2019-12-10 04:00","2019","12","10","04:00","-31.4","","-34.7","","73","","","","26","","4","","24.1","","103.12","","","","-36","","NA"
"-115.14","67.82","KUGLUKTUK A","2300903","2019-12-10 05:00","2019","12","10","05:00","-31.5","","-34.9","","73","","","","36","","2","","24.1","","103.11","","","","-34","","Clear"
"-115.14","67.82","KUGLUKTUK A","2300903","2019-12-10 06:00","2019","12","10","06:00","-32.6","","-36.1","","72","","","","21","","14","","24.1","","103.12","","","","-44","","NA"
"-115.14","67.82","KUGLUKTUK A","2300903","2019-12-10 07:00","2019","12","10","07:00","-31.8","","-35.2","","73","","","","23","","16","","24.1","","103.12","","","","-44","","NA"
"-115.14","67.82","KUGLUKTUK A","2300903","2019-12-10 08:00","2019","12","10","08:00","-32.6","","-36.0","","73","","","","23","","15","","24.1","","103.09","","","","-45","","Clear"
"-115.14","67.82","KUGLUKTUK A","2300903","2019-12-10 09:00","2019","12","10","09:00","-30.9","","-34.1","","74","","","","36","","2","","24.1","","103.13","","","","-33","","Ice Crystals"
"-115.14","67.82","KUGLUKTUK A","2300903","2019-12-10 10:00","2019","12","10","10:00","-31.7","","-35.0","","73","","","","24","","14","","24.1","","103.12","","","","-43","","Ice Crystals"
"-115.14","67.82","KUGLUKTUK A","2300903","2019-12-10 11:00","2019","12","10","11:00","-31.8","","-35.2","","73","","","","23","","13","","24.1","","103.14","","","","-43","","Clear"
"-115.14","67.82","KUGLUKTUK A","2300903","2019-12-10 12:00","2019","12","10","12:00","-29.8","","-33.0","","74","","","","23","","18","","24.1","","103.13","","","","-42","","NA"
"-115.14","67.82","KUGLUKTUK A","2300903","2019-12-10 13:00","2019","12","10","13:00","-30.6","","-33.9","","73","","","","23","","27","","24.1","","103.08","","","","-46","","NA"
"-115.14","67.82","KUGLUKTUK A","2300903","2019-12-10 14:00","2019","12","10","14:00","-29.5","","-32.9","","73","","","","28","","10","","24.1","","103.16","","","","-39","","Clear"
"-115.14","67.82","KUGLUKTUK A","2300903","2019-12-10 15:00","2019","12","10","15:00","-30.9","","-34.3","","73","","","","23","","17","","24.1","","103.14","","","","-43","","NA"
"-115.14","67.82","KUGLUKTUK A","2300903","2019-12-10 16:00","2019","12","10","16:00","-29.9","","-33.3","","73","","","","23","","14","","24.1","","103.16","","","","-41","","NA"
"-115.14","67.82","KUGLUKTUK A","2300903","2019-12-10 17:00","2019","12","10","17:00","-30.0","","-33.4","","73","","","","23","","14","","24.1","","103.16","","","","-41","","Clear"
"-115.14","67.82","KUGLUKTUK A","2300903","2019-12-10 18:00","2019","12","10","18:00","-30.7","","-34.2","","72","","","","20","","13","","24.1","","103.09","","","","-41","","NA"
"-115.14","67.82","KUGLUKTUK A","2300903","2019-12-10 19:00","2019","12","10","19:00","-30.4","","-33.9","","72","","","","15","","4","","24.1","","103.07","","","","-35","","Ice Crystals"
"-115.14","67.82","KUGLUKTUK A","2300903","2019-12-10 20:00","2019","12","10","20:00","-29.9","","-33.3","","73","","","","18","","3","","24.1","","103.07","","","","-33","","Clear"
"-115.14","67.82","KUGLUKTUK A","2300903","2019-12-10 21:00","2019","12","10","21:00","-30.1","","-33.4","","73","","","","23","","22","","24.1","","103.00","","","","-44","","NA"
"-115.14","67.82","KUGLUKTUK A","2300903","2019-12-10 22:00","2019","12","10","22:00","-30.3","","-33.7","","73","","","","22","","24","","24.1","","103.01","","","","-45","","NA"
"-115.14","67.82","KUGLUKTUK A","2300903","2019-12-10 23:00","2019","12","10","23:00","-30.0","","-33.4","","73","","","","23","","21","","24.1","","102.98","","","","-43","","Clear"
"-115.14","67.82","KUGLUKTUK A","2300903","2019-12-11 00:00","2019","12","11","00:00","-30.1","","-33.6","","73","","","","22","","20","","24.1","","102.96","","","","-43","","NA"
"-115.14","67.82","KUGLUKTUK A","2300903","2019-12-11 01:00","2019","12","11","01:00","-29.8","","-33.2","","73","","","","22","","20","","24.1","","102.93","","","","-43","","NA"
"-115.14","67.82","KUGLUKTUK A","2300903","2019-12-11 02:00","2019","12","11","02:00","-29.5","","-32.9","","73","","","","22","","21","","24.1","","102.88","","","","-43","","Mainly Clear"
"-115.14","67.82","KUGLUKTUK A","2300903","2019-12-11 03:00","2019","12","11","03:00","-28.9","","-32.4","","73","","","","23","","17","","24.1","","102.86","","","","-41","","NA"
"-115.14","67.82","KUGLUKTUK A","2300903","2019-12-11 04:00","2019","12","11","04:00","-29.5","","-33.0","","72","","","","36","","2","","24.1","","102.81","","","","-32","","NA"
"-115.14","67.82","KUGLUKTUK A","2300903","2019-12-11 05:00","2019","12","11","05:00","-27.8","","-31.2","","73","","","","24","","28","","24.1","","102.70","","","","-42","","Clear"
"-115.14","67.82","KUGLUKTUK A","2300903","2019-12-11 06:00","2019","12","11","06:00","-28.1","","-31.7","","72","","","","23","","8","","24.1","","102.69","","","","-36","","NA"
"-115.14","67.82","KUGLUKTUK A","2300903","2019-12-11 07:00","2019","12","11","07:00","-28.1","","-31.8","","71","","","","23","","27","","24.1","","102.62","","","","-42","","Blowing Snow"
"-115.14","67.82","KUGLUKTUK A","2300903","2019-12-11 08:00","2019","12","11","08:00","-28.0","","-31.9","","70","","","","23","","24","","24.1","","102.61","","","","-42","","Clear"
"-115.14","67.82","KUGLUKTUK A","2300903","2019-12-11 09:00","2019","12","11","09:00","-27.6","","-31.6","","69","","","","24","","23","","24.1","","102.60","","","","-41","","NA"
"-115.14","67.82","KUGLUKTUK A","2300903","2019-12-11 10:00","2019","12","11","10:00","-27.6","","-31.6","","69","","","","24","","28","","24.1","","102.56","","","","-42","","Ice Crystals"
"-115.14","67.82","KUGLUKTUK A","2300903","2019-12-11 11:00","2019","12","11","11:00","-27.6","","-31.4","","71","","","","24","","25","","24.1","","102.57","","","","-41","","Mainly Clear"
"-115.14","67.82","KUGLUKTUK A","2300903","2019-12-11 12:00","2019","12","11","12:00","-27.5","","-31.4","","70","","","","24","","22","","24.1","","102.56","","","","-40","","NA"
"-115.14","67.82","KUGLUKTUK A","2300903","2019-12-11 13:00","2019","12","11","13:00","-28.3","","-32.0","","71","","","","23","","19","","24.1","","102.55","","","","-41","","NA"
"-115.14","67.82","KUGLUKTUK A","2300903","2019-12-11 14:00","2019","12","11","14:00","-28.1","","-32.0","","70","","","","24","","22","","24.1","","102.52","","","","-41","","Clear"
"-115.14","67.82","KUGLUKTUK A","2300903","2019-12-11 15:00","2019","12","11","15:00","-28.3","","-31.9","","72","","","","24","","21","","24.1","","102.54","","","","-41","","NA"
"-115.14","67.82","KUGLUKTUK A","2300903","2019-12-11 16:00","2019","12","11","16:00","-28.4","","-31.9","","73","","","","22","","23","","24.1","","102.53","","","","-42","","NA"
"-115.14","67.82","KUGLUKTUK A","2300903","2019-12-11 17:00","2019","12","11","17:00","-27.7","","-31.1","","73","","","","24","","26","","24.1","","102.50","","","","-42","","Ice Crystals"
"-115.14","67.82","KUGLUKTUK A","2300903","2019-12-11 18:00","2019","12","11","18:00","-27.6","","-31.0","","73","","","","25","","21","","24.1","","102.49","","","","-40","","Ice Crystals"
"-115.14","67.82","KUGLUKTUK A","2300903","2019-12-11 19:00","2019","12","11","19:00","-27.7","","-31.2","","73","","","","25","","15","","24.1","","102.48","","","","-39","","Ice Crystals"
"-115.14","67.82","KUGLUKTUK A","2300903","2019-12-11 20:00","2019","12","11","20:00","-27.5","","-30.7","","74","","","","24","","21","","24.1","","102.45","","","","-40","","Ice Crystals"
"-115.14","67.82","KUGLUKTUK A","2300903","2019-12-11 21:00","2019","12","11","21:00","-27.5","","-30.8","","75","","","","24","","22","","24.1","","102.40","","","","-40","","NA"
"-115.14","67.82","KUGLUKTUK A","2300903","2019-12-11 22:00","2019","12","11","22:00","-27.4","","-30.7","","74","","","","23","","23","","24.1","","102.38","","","","-41","","NA"
"-115.14","67.82","KUGLUKTUK A","2300903","2019-12-11 23:00","2019","12","11","23:00","-26.8","","-30.1","","75","","","","23","","22","","24.1","","102.39","","","","-40","","Mostly Cloudy"
"-115.14","67.82","KUGLUKTUK A","2300903","2019-12-12 00:00","2019","12","12","00:00","-25.5","","-28.7","","75","","","","23","","26","","12.9","","102.39","","","","-39","","Snow Grains,Blowing Snow"
"-115.14","67.82","KUGLUKTUK A","2300903","2019-12-12 01:00","2019","12","12","01:00","-23.7","","-26.9","","76","","","","26","","23","","24.1","","102.36","","","","-36","","Ice Crystals,Blowing Snow"
"-115.14","67.82","KUGLUKTUK A","2300903","2019-12-12 02:00","2019","12","12","02:00","-24.2","","-27.4","","76","","","","25","","18","","24.1","","102.39","","","","-35","","Ice Crystals"
"-115.14","67.82","KUGLUKTUK A","2300903","2019-12-12 03:00","2019","12","12","03:00","-24.1","","-27.2","","75","","","","25","","20","","24.1","","102.41","","","","-36","","Ice Crystals"
"-115.14","67.82","KUGLUKTUK A","2300903","2019-12-12 04:00","2019","12","12","04:00","-23.9","","-27.1","","75","","","","25","","16","","24.1","","102.43","","","","-34","","Ice Crystals"
"-115.14","67.82","KUGLUKTUK A","2300903","2019-12-12 05:00","2019","12","12","05:00","-25.5","","-28.6","","75","","","","25","","18","","24.1","","102.42","","","","-37","","Ice Crystals"
"-115.14","67.82","KUGLUKTUK A","2300903","2019-12-12 06:00","2019","12","12","06:00","-25.9","","-29.0","","76","","","","23","","21","","24.1","","102.40","","","","-38","","Ice Crystals"
"-115.14","67.82","KUGLUKTUK A","2300903","2019-12-12 07:00","2019","12","12","07:00","-25.5","","-28.5","","77","","","","25","","18","","24.1","","102.44","","","","-37","","Ice Crystals"
"-115.14","67.82","KUGLUKTUK A","2300903","2019-12-12 08:00","2019","12","12","08:00","-26.6","","-29.7","","76","","","","22","","20","","24.1","","102.44","","","","-39","","Clear"
"-115.14","67.82","KUGLUKTUK A","2300903","2019-12-12 09:00","2019","12","12","09:00","-26.7","","-29.7","","76","","","","23","","25","","24.1","","102.42","","","","-40","","NA"
"-115.14","67.82","KUGLUKTUK A","2300903","2019-12-12 10:00","2019","12","12","10:00","-27.1","","-30.2","","76","","","","23","","20","","24.1","","102.47","","","","-39","","NA"
"-115.14","67.82","KUGLUKTUK A","2300903","2019-12-12 11:00","2019","12","12","11:00","-27.8","","-31.0","","75","","","","23","","21","","24.1","","102.53","","","","-41","","Clear"
"-115.14","67.82","KUGLUKTUK A","2300903","2019-12-12 12:00","2019","12","12","12:00","-28.1","","-31.3","","75","","","","22","","22","","24.1","","102.51","","","","-41","","NA"
"-115.14","67.82","KUGLUKTUK A","2300903","2019-12-12 13:00","2019","12","12","13:00","-27.5","","-30.5","","76","","","","23","","21","","24.1","","102.55","","","","-40","","NA"
"-115.14","67.82","KUGLUKTUK A","2300903","2019-12-12 14:00","2019","12","12","14:00","-27.9","","-31.0","","76","","","","22","","21","","24.1","","102.55","","","","-41","","Clear"
"-115.14","67.82","KUGLUKTUK A","2300903","2019-12-12 15:00","2019","12","12","15:00","-27.6","","-30.6","","76","","","","23","","23","","24.1","","102.53","","","","-41","","NA"
"-115.14","67.82","KUGLUKTUK A","2300903","2019-12-12 16:00","2019","12","12","16:00","-27.8","","-30.9","","76","","","","21","","15","","24.1","","102.55","","","","-39","","NA"
"-115.14","67.82","KUGLUKTUK A","2300903","2019-12-12 17:00","2019","12","12","17:00","-27.8","","-30.9","","75","","","","22","","23","","24.1","","102.54","","","","-41","","Ice Crystals"
"-115.14","67.82","KUGLUKTUK A","2300903","2019-12-12 18:00","2019","12","12","18:00","-27.4","","-30.5","","76","","","","22","","23","","24.1","","102.49","","","","-41","","Ice Crystals"
"-115.14","67.82","KUGLUKTUK A","2300903","2019-12-12 19:00","2019","12","12","19:00","-27.3","","-30.4","","76","","","","22","","24","","24.1","","102.47","","","","-41","","Ice Crystals"
"-115.14","67.82","KUGLUKTUK A","2300903","2019-12-12 20:00","2019","12","12","20:00","-27.2","","-30.2","","76","","","","22","","26","","24.1","","102.47","","","","-41","","Clear"
"-115.14","67.82","KUGLUKTUK A","2300903","2019-12-12 21:00","2019","12","12","21:00","-27.1","","-30.2","","76","","","","22","","22","","24.1","","102.45","","","","-40","","NA"
"-115.14","67.82","KUGLUKTUK A","2300903","2019-12-12 22:00","2019","12","12","22:00","-26.6","","-29.7","","76","","","","22","","26","","24.1","","102.43","","","","-40","","NA"
"-115.14","67.82","KUGLUKTUK A","2300903","2019-12-12 23:00","2019","12","12","23:00","-26.0","","-29.1","","76","","","","23","","30","","24.1","","102.35","","","","-40","","Blowing Snow"
"-115.14","67.82","KUGLUKTUK A","2300903","2019-12-13 00:00","2019","12","13","00:00","-25.9","","-29.0","","76","","","","22","","28","","24.1","","102.33","","","","-40","","Blowing Snow"
"-115.14","67.82","KUGLUKTUK A","2300903","2019-12-13 01:00","2019","12","13","01:00","-26.3","","-29.5","","75","","","","22","","24","","24.1","","102.30","","","","-39","","NA"
"-115.14","67.82","KUGLUKTUK A","2300903","2019-12-13 02:00","2019","12","13","02:00","-25.5","","-28.8","","75","","","","22","","24","","24.1","","102.28","","","","-38","","Clear"
"-115.14","67.82","KUGLUKTUK A","2300903","2019-12-13 03:00","2019","12","13","03:00","-25.7","","-29.0","","75","","","","22","","23","","24.1","","102.27","","","","-38","","NA"
"-115.14","67.82","KUGLUKTUK A","2300903","2019-12-13 04:00","2019","12","13","04:00","-24.7","","-28.0","","74","","","","22","","25","","24.1","","102.19","","","","-38","","NA"
"-115.14","67.82","KUGLUKTUK A","2300903","2019-12-13 05:00","2019","12","13","05:00","-25.2","","-28.5","","75","","","","23","","17","","24.1","","102.10","","","","-36","","Mainly Clear"
"-115.14","67.82","KUGLUKTUK A","2300903","2019-12-13 06:00","2019","12","13","06:00","-24.8","","-28.1","","74","","","","22","","22","","24.1","","102.00","","","","-37","","NA"
"-115.14","67.82","KUGLUKTUK A","2300903","2019-12-13 07:00","2019","12","13","07:00","-24.9","","-28.4","","74","","","","23","","30","","24.1","","101.91","","","","-39","","NA"
"-115.14","67.82","KUGLUKTUK A","2300903","2019-12-13 08:00","2019","12","13","08:00","-24.5","","-27.7","","75","","","","23","","28","","24.1","","101.86","","","","-38","","Clear"
"-115.14","67.82","KUGLUKTUK A","2300903","2019-12-13 09:00","2019","12","13","09:00","-24.2","","-27.7","","74","","","","23","","30","","24.1","","101.78","","","","-38","","Ice Crystals"
"-115.14","67.82","KUGLUKTUK A","2300903","2019-12-13 10:00","2019","12","13","10:00","-24.1","","-27.8","","72","","","","23","","26","","24.1","","101.72","","","","-37","","Ice Crystals"
"-115.14","67.82","KUGLUKTUK A","2300903","2019-12-13 11:00","2019","12","13","11:00","-23.2","","-27.1","","71","","","","23","","25","","24.1","","101.64","","","","-36","","Ice Crystals"
"-115.14","67.82","KUGLUKTUK A","2300903","2019-12-13 12:00","2019","12","13","12:00","-22.9","","-26.7","","71","","","","23","","32","","24.1","","101.53","","","","-37","","Ice Crystals,Blowing Snow"
"-115.14","67.82","KUGLUKTUK A","2300903","2019-12-13 13:00","2019","12","13","13:00","-23.8","","-27.5","","72","","","","23","","25","","24.1","","101.49","","","","-36","","Ice Crystals,Blowing Snow"
"-115.14","67.82","KUGLUKTUK A","2300903","2019-12-13 14:00","2019","12","13","14:00","-24.1","","-27.2","","75","","","","21","","27","","24.1","","101.41","","","","-37","","Ice Crystals,Blowing Snow"
"-115.14","67.82","KUGLUKTUK A","2300903","2019-12-13 15:00","2019","12","13","15:00","-22.9","","-26.4","","74","","","","23","","10","","24.1","","101.37","","","","-31","","Ice Crystals,Blowing Snow"
"-115.14","67.82","KUGLUKTUK A","2300903","2019-12-13 16:00","2019","12","13","16:00","-23.7","","-27.2","","73","","","","27","","22","","24.1","","101.34","","","","-36","","Ice Crystals"
"-115.14","67.82","KUGLUKTUK A","2300903","2019-12-13 17:00","2019","12","13","17:00","-23.5","","-27.2","","72","","","","24","","26","","24.1","","101.25","","","","-36","","Ice Crystals"
"-115.14","67.82","KUGLUKTUK A","2300903","2019-12-13 18:00","2019","12","13","18:00","-23.2","","-27.1","","71","","","","24","","30","","24.1","","101.15","","","","-37","","Ice Crystals,Blowing Snow"
"-115.14","67.82","KUGLUKTUK A","2300903","2019-12-13 19:00","2019","12","13","19:00","-22.5","","-26.7","","70","","","","24","","16","","24.1","","101.15","","","","-32","","Ice Crystals"
"-115.14","67.82","KUGLUKTUK A","2300903","2019-12-13 20:00","2019","12","13","20:00","-22.4","","-26.5","","70","","","","23","","17","","24.1","","101.06","","","","-33","","Ice Crystals"
"-115.14","67.82","KUGLUKTUK A","2300903","2019-12-13 21:00","2019","12","13","21:00","-21.5","","-25.9","","69","","","","25","","28","","24.1","","100.99","","","","-34","","Blowing Snow"
"-115.14","67.82","KUGLUKTUK A","2300903","2019-12-13 22:00","2019","12","13","22:00","-21.8","","-26.2","","68","","","","24","","25","","24.1","","100.94","","","","-34","","Ice Crystals,Blowing Snow"
"-115.14","67.82","KUGLUKTUK A","2300903","2019-12-13 23:00","2019","12","13","23:00","-22.1","","-26.7","","67","","","","23","","24","","24.1","","100.93","","","","-34","","Mainly Clear"
"-115.14","67.82","KUGLUKTUK A","2300903","2019-12-14 00:00","2019","12","14","00:00","-22.9","","-27.5","","67","","","","22","","22","","24.1","","100.92","","","","-35","","NA"
"-115.14","67.82","KUGLUKTUK A","2300903","2019-12-14 01:00","2019","12","14","01:00","-22.4","","-27.3","","65","","","","23","","28","","24.1","","100.92","","","","-35","","NA"
"-115.14","67.82","KUGLUKTUK A","2300903","2019-12-14 02:00","2019","12","14","02:00","-22.3","","-27.1","","66","","","","23","","35","","24.1","","100.87","","","","-36","","Blowing Snow"
"-115.14","67.82","KUGLUKTUK A","2300903","2019-12-14 03:00","2019","12","14","03:00","-22.7","","-27.6","","65","","","","24","","30","","24.1","","100.91","","","","-36","","Blowing Snow"
"-115.14","67.82","KUGLUKTUK A","2300903","2019-12-14 04:00","2019","12","14","04:00","-22.3","","-27.2","","65","","","","24","","33","","24.1","","100.90","","","","-36","","Blowing Snow"
"-115.14","67.82","KUGLUKTUK A","2300903","2019-12-14 05:00","2019","12","14","05:00","-21.4","","-26.4","","65","","","","26","","28","","24.1","","100.92","","","","-34","","Blowing Snow"
"-115.14","67.82","KUGLUKTUK A","2300903","2019-12-14 06:00","2019","12","14","06:00","-21.3","","-26.0","","66","","","","26","","28","","24.1","","100.93","","","","-34","","Snow,Blowing Snow"
"-115.14","67.82","KUGLUKTUK A","2300903","2019-12-14 07:00","2019","12","14","07:00","-20.8","","-25.0","","69","","","","25","","25","","16.1","","100.93","","","","-33","","Snow,Blowing Snow"
"-115.14","67.82","KUGLUKTUK A","2300903","2019-12-14 08:00","2019","12","14","08:00","-20.6","","-24.2","","73","","","","26","","26","","16.1","","100.92","","","","-33","","Snow,Blowing Snow"
"-115.14","67.82","KUGLUKTUK A","2300903","2019-12-14 09:00","2019","12","14","09:00","-20.1","","-23.5","","75","","","","26","","26","","16.1","","100.90","","","","-32","","Snow,Blowing Snow"
"-115.14","67.82","KUGLUKTUK A","2300903","2019-12-14 10:00","2019","12","14","10:00","-19.9","","-23.1","","76","","","","26","","20","","16.1","","100.91","","","","-30","","Snow,Blowing Snow"
"-115.14","67.82","KUGLUKTUK A","2300903","2019-12-14 11:00","2019","12","14","11:00","-20.5","","-23.4","","78","","","","27","","19","","19.3","","100.93","","","","-31","","Snow,Blowing Snow"
"-115.14","67.82","KUGLUKTUK A","2300903","2019-12-14 12:00","2019","12","14","12:00","-21.1","","-23.9","","78","","","","27","","21","","24.1","","100.94","","","","-32","","NA"
"-115.14","67.82","KUGLUKTUK A","2300903","2019-12-14 13:00","2019","12","14","13:00","-22.5","","-25.3","","78","","","","28","","21","","19.3","","100.95","","","","-34","","NA"
"-115.14","67.82","KUGLUKTUK A","2300903","2019-12-14 14:00","2019","12","14","14:00","-22.6","","-25.6","","76","","","","27","","25","","24.1","","100.96","","","","-35","","Mostly Cloudy"
"-115.14","67.82","KUGLUKTUK A","2300903","2019-12-14 15:00","2019","12","14","15:00","-22.3","","-25.3","","77","","","","27","","21","","24.1","","100.97","","","","-34","","Snow"
"-115.14","67.82","KUGLUKTUK A","2300903","2019-12-14 16:00","2019","12","14","16:00","-23.7","","-26.9","","76","","","","26","","24","","24.1","","100.99","","","","-36","","Snow"
"-115.14","67.82","KUGLUKTUK A","2300903","2019-12-14 17:00","2019","12","14","17:00","-23.6","","-26.9","","75","","","","27","","19","","24.1","","100.99","","","","-35","","Snow"
"-115.14","67.82","KUGLUKTUK A","2300903","2019-12-14 18:00","2019","12","14","18:00","-23.9","","-27.0","","76","","","","26","","19","","24.1","","100.97","","","","-35","","Snow"
"-115.14","67.82","KUGLUKTUK A","2300903","2019-12-14 19:00","2019","12","14","19:00","-24.2","","-27.4","","76","","","","27","","16","","19.3","","100.97","","","","-35","","Snow"
"-115.14","67.82","KUGLUKTUK A","2300903","2019-12-14 20:00","2019","12","14","20:00","-24.6","","-27.9","","75","","","","26","","17","","19.3","","100.94","","","","-35","","Snow"
"-115.14","67.82","KUGLUKTUK A","2300903","2019-12-14 21:00","2019","12","14","21:00","-25.4","","-28.5","","76","","","","27","","17","","19.3","","100.94","","","","-36","","Snow"
"-115.14","67.82","KUGLUKTUK A","2300903","2019-12-14 22:00","2019","12","14","22:00","-25.9","","-29.2","","75","","","","24","","15","","19.3","","100.94","","","","-36","","Snow"
"-115.14","67.82","KUGLUKTUK A","2300903","2019-12-14 23:00","2019","12","14","23:00","-26.7","","-29.9","","75","","","","23","","14","","19.3","","100.95","","","","-37","","Snow"
"-115.14","67.82","KUGLUKTUK A","2300903","2019-12-15 00:00","2019","12","15","00:00","-27.7","","-30.8","","75","","","","20","","14","","19.3","","100.94","","","","-38","","Snow"
"-115.14","67.82","KUGLUKTUK A","2300903","2019-12-15 01:00","2019","12","15","01:00","-27.7","","-30.8","","75","","","","22","","22","","19.3","","100.94","","","","-41","","Snow"
"-115.14","67.82","KUGLUKTUK A","2300903","2019-12-15 02:00","2019","12","15","02:00","-28.0","","-31.0","","76","","","","20","","9","","16.1","","100.97","","","","-36","","Snow"
"-115.14","67.82","KUGLUKTUK A","2300903","2019-12-15 03:00","2019","12","15","03:00","-28.2","","-31.3","","75","","","","25","","13","","19.3","","100.96","","","","-38","","NA"
"-115.14","67.82","KUGLUKTUK A","2300903","2019-12-15 04:00","2019","12","15","04:00","-29.0","","-32.0","","75","","","","21","","9","","19.3","","100.93","","","","-37","","Ice Crystals"
"-115.14","67.82","KUGLUKTUK A","2300903","2019-12-15 05:00","2019","12","15","05:00","-28.4","","-31.5","","76","","","","20","","8","","19.3","","100.94","","","","-36","","Ice Crystals"
"-115.14","67.82","KUGLUKTUK A","2300903","2019-12-15 06:00","2019","12","15","06:00","-27.3","","-30.4","","76","","","","21","","9","","19.3","","100.95","","","","-35","","Ice Crystals"
"-115.14","67.82","KUGLUKTUK A","2300903","2019-12-15 07:00","2019","12","15","07:00","-27.7","","-30.8","","76","","","","23","","9","","19.3","","100.95","","","","-36","","Ice Crystals"
"-115.14","67.82","KUGLUKTUK A","2300903","2019-12-15 08:00","2019","12","15","08:00","-29.0","","-32.2","","74","","","","23","","10","","19.3","","100.97","","","","-38","","Ice Crystals"
"-115.14","67.82","KUGLUKTUK A","2300903","2019-12-15 09:00","2019","12","15","09:00","-30.1","","-33.5","","73","","","","23","","12","","9.7","","101.03","","","","-40","","Ice Crystals"
"-115.14","67.82","KUGLUKTUK A","2300903","2019-12-15 10:00","2019","12","15","10:00","-29.7","","-32.8","","75","","","","36","","1","","12.9","","101.09","","","","-31","","Ice Crystals"
"-115.14","67.82","KUGLUKTUK A","2300903","2019-12-15 11:00","2019","12","15","11:00","-28.9","","-32.0","","75","","","","30","","12","","16.1","","101.14","","","","-39","","Ice Crystals"
"-115.14","67.82","KUGLUKTUK A","2300903","2019-12-15 12:00","2019","12","15","12:00","-31.3","","-34.5","","74","","","","27","","9","","16.1","","101.19","","","","-40","","Ice Crystals"
"-115.14","67.82","KUGLUKTUK A","2300903","2019-12-15 13:00","2019","12","15","13:00","-30.9","","-34.2","","74","","","","23","","18","","16.1","","101.25","","","","-44","","Ice Crystals"
"-115.14","67.82","KUGLUKTUK A","2300903","2019-12-15 14:00","2019","12","15","14:00","-31.7","","-35.0","","74","","","","23","","20","","16.1","","101.34","","","","-45","","Ice Crystals,Blowing Snow"
"-115.14","67.82","KUGLUKTUK A","2300903","2019-12-15 15:00","2019","12","15","15:00","-32.0","","-35.4","","73","","","","23","","22","","12.9","","101.38","","","","-46","","Ice Crystals"
"-115.14","67.82","KUGLUKTUK A","2300903","2019-12-15 16:00","2019","12","15","16:00","-31.9","","-35.4","","72","","","","24","","26","","12.9","","101.38","","","","-47","","Ice Crystals"
"-115.14","67.82","KUGLUKTUK A","2300903","2019-12-15 17:00","2019","12","15","17:00","-32.4","","-35.9","","72","","","","23","","23","","12.9","","101.44","","","","-47","","Ice Crystals,Blowing Snow"
"-115.14","67.82","KUGLUKTUK A","2300903","2019-12-15 18:00","2019","12","15","18:00","-32.2","","-35.7","","72","","","","23","","29","","16.1","","101.43","","","","-48","","Ice Crystals,Blowing Snow"
"-115.14","67.82","KUGLUKTUK A","2300903","2019-12-15 19:00","2019","12","15","19:00","-31.0","","-34.5","","72","","","","24","","33","","16.1","","101.43","","","","-48","","Ice Crystals,Blowing Snow"
"-115.14","67.82","KUGLUKTUK A","2300903","2019-12-15 20:00","2019","12","15","20:00","-30.8","","-34.5","","71","","","","24","","27","","16.1","","101.43","","","","-46","","Ice Crystals,Blowing Snow"
"-115.14","67.82","KUGLUKTUK A","2300903","2019-12-15 21:00","2019","12","15","21:00","-30.7","","-34.3","","72","","","","24","","29","","19.3","","101.37","","","","-46","","Ice Crystals,Blowing Snow"
"-115.14","67.82","KUGLUKTUK A","2300903","2019-12-15 22:00","2019","12","15","22:00","-30.3","","-34.0","","71","","","","25","","29","","19.3","","101.38","","","","-46","","Ice Crystals,Blowing Snow"
"-115.14","67.82","KUGLUKTUK A","2300903","2019-12-15 23:00","2019","12","15","23:00","-29.0","","-32.8","","71","","","","25","","34","","19.3","","101.37","","","","-45","","Ice Crystals,Blowing Snow"
"-115.14","67.82","KUGLUKTUK A","2300903","2019-12-16 00:00","2019","12","16","00:00","-28.5","","-32.5","","70","","","","24","","28","","19.3","","101.31","","","","-43","","Ice Crystals,Blowing Snow"
"-115.14","67.82","KUGLUKTUK A","2300903","2019-12-16 01:00","2019","12","16","01:00","-27.4","","-31.9","","66","","","","25","","33","","19.3","","101.30","","","","-43","","Ice Crystals,Blowing Snow"
"-115.14","67.82","KUGLUKTUK A","2300903","2019-12-16 02:00","2019","12","16","02:00","-29.1","","-33.5","","67","","","","23","","30","","19.3","","101.25","","","","-44","","Ice Crystals,Blowing Snow"
"-115.14","67.82","KUGLUKTUK A","2300903","2019-12-16 03:00","2019","12","16","03:00","-29.0","","-33.3","","67","","","","23","","28","","19.3","","101.21","","","","-44","","Ice Crystals,Blowing Snow"
"-115.14","67.82","KUGLUKTUK A","2300903","2019-12-16 04:00","2019","12","16","04:00","-28.8","","-32.9","","68","","","","22","","22","","19.3","","101.13","","","","-42","","Ice Crystals,Blowing Snow"
"-115.14","67.82","KUGLUKTUK A","2300903","2019-12-16 05:00","2019","12","16","05:00","-27.7","","-32.0","","68","","","","22","","20","","19.3","","101.03","","","","-40","","Ice Crystals"
"-115.14","67.82","KUGLUKTUK A","2300903","2019-12-16 06:00","2019","12","16","06:00","-26.9","","-31.1","","68","","","","25","","39","","19.3","","100.91","","","","-43","","Ice Crystals,Blowing Snow"
"-115.14","67.82","KUGLUKTUK A","2300903","2019-12-16 07:00","2019","12","16","07:00","-26.4","","-30.6","","68","","","","24","","37","","16.1","","100.80","","","","-42","","Ice Crystals,Blowing Snow"
"-115.14","67.82","KUGLUKTUK A","2300903","2019-12-16 08:00","2019","12","16","08:00","-25.3","","-29.7","","67","","","","24","","37","","19.3","","100.77","","","","-41","","Snow,Blowing Snow"
"-115.14","67.82","KUGLUKTUK A","2300903","2019-12-16 09:00","2019","12","16","09:00","-25.0","","-28.3","","74","","","","23","","27","","4.0","","100.77","","","","-38","","Snow,Blowing Snow"
"-115.14","67.82","KUGLUKTUK A","2300903","2019-12-16 10:00","2019","12","16","10:00","-24.1","","-27.4","","74","","","","24","","29","","4.8","","100.73","","","","-38","","Snow,Blowing Snow"
"-115.14","67.82","KUGLUKTUK A","2300903","2019-12-16 11:00","2019","12","16","11:00","-23.2","","-26.3","","76","","","","25","","30","","8.1","","100.68","","","","-37","","Snow,Blowing Snow"
"-115.14","67.82","KUGLUKTUK A","2300903","2019-12-16 12:00","2019","12","16","12:00","-22.3","","-25.4","","76","","","","30","","33","","2.4","","100.67","","","","-36","","Snow,Blowing Snow"
"-115.14","67.82","KUGLUKTUK A","2300903","2019-12-16 13:00","2019","12","16","13:00","-23.2","","-26.2","","77","","","","29","","26","","3.2","","100.68","","","","-36","","Snow,Blowing Snow"
"-115.14","67.82","KUGLUKTUK A","2300903","2019-12-16 14:00","2019","12","16","14:00","-23.6","","-28.1","","68","","","","28","","31","","12.9","","100.68","","","","-37","","Blowing Snow"
"-115.14","67.82","KUGLUKTUK A","2300903","2019-12-16 15:00","2019","12","16","15:00","-23.8","","-28.2","","67","","","","29","","37","","9.7","","100.70","","","","-39","","Snow,Blowing Snow"
"-115.14","67.82","KUGLUKTUK A","2300903","2019-12-16 16:00","2019","12","16","16:00","-24.9","","-29.1","","68","","","","31","","24","","16.1","","100.81","","","","-38","","Snow,Blowing Snow"
"-115.14","67.82","KUGLUKTUK A","2300903","2019-12-16 17:00","2019","12","16","17:00","-25.8","","-29.8","","70","","","","34","","27","","12.9","","100.80","","","","-40","","Snow,Blowing Snow"
"-115.14","67.82","KUGLUKTUK A","2300903","2019-12-16 18:00","2019","12","16","18:00","-26.1","","-29.8","","71","","","","33","","23","","12.9","","100.82","","","","-39","","Snow,Blowing Snow"
"-115.14","67.82","KUGLUKTUK A","2300903","2019-12-16 19:00","2019","12","16","19:00","-26.4","","-30.1","","72","","","","33","","29","","12.9","","100.82","","","","-41","","Snow,Blowing Snow"
"-115.14","67.82","KUGLUKTUK A","2300903","2019-12-16 20:00","2019","12","16","20:00","-26.9","","-30.4","","72","","","","33","","32","","12.9","","100.86","","","","-42","","Snow,Blowing Snow"
"-115.14","67.82","KUGLUKTUK A","2300903","2019-12-16 21:00","2019","12","16","21:00","-28.1","","-31.8","","71","","","","34","","20","","16.1","","100.95","","","","-41","","Snow,Blowing Snow"
"-115.14","67.82","KUGLUKTUK A","2300903","2019-12-16 22:00","2019","12","16","22:00","-28.7","","-32.4","","71","","","","35","","19","","11.3","","101.01","","","","-41","","Snow Grains,Blowing Snow"
"-115.14","67.82","KUGLUKTUK A","2300903","2019-12-16 23:00","2019","12","16","23:00","-29.5","","-33.3","","70","","","","34","","23","","16.1","","101.08","","","","-43","","Snow Grains,Blowing Snow"
"-115.14","67.82","KUGLUKTUK A","2300903","2019-12-17 00:00","2019","12","17","00:00","-30.5","","-34.3","","70","","","","34","","32","","19.3","","101.15","","","","-47","","Ice Crystals,Blowing Snow"
"-115.14","67.82","KUGLUKTUK A","2300903","2019-12-17 01:00","2019","12","17","01:00","-31.2","","-35.2","","69","","","","33","","25","","19.3","","101.22","","","","-46","","Ice Crystals,Blowing Snow"
"-115.14","67.82","KUGLUKTUK A","2300903","2019-12-17 02:00","2019","12","17","02:00","-31.6","","-35.7","","68","","","","33","","20","","19.3","","101.27","","","","-45","","Ice Crystals"
"-115.14","67.82","KUGLUKTUK A","2300903","2019-12-17 03:00","2019","12","17","03:00","-32.8","","-36.8","","68","","","","28","","17","","19.3","","101.31","","","","-46","","Ice Crystals"
"-115.14","67.82","KUGLUKTUK A","2300903","2019-12-17 04:00","2019","12","17","04:00","-33.3","","-37.4","","68","","","","26","","20","","19.3","","101.32","","","","-47","","Ice Crystals"
"-115.14","67.82","KUGLUKTUK A","2300903","2019-12-17 05:00","2019","12","17","05:00","-33.3","","-37.4","","67","","","","26","","23","","19.3","","101.33","","","","-48","","Ice Crystals"
"-115.14","67.82","KUGLUKTUK A","2300903","2019-12-17 06:00","2019","12","17","06:00","-33.9","","-37.8","","69","","","","26","","22","","19.3","","101.34","","","","-49","","Ice Crystals,Blowing Snow"
"-115.14","67.82","KUGLUKTUK A","2300903","2019-12-17 07:00","2019","12","17","07:00","-34.3","","-38.2","","69","","","","27","","23","","19.3","","101.35","","","","-49","","Ice Crystals,Blowing Snow"
"-115.14","67.82","KUGLUKTUK A","2300903","2019-12-17 08:00","2019","12","17","08:00","-34.1","","-37.9","","70","","","","26","","26","","19.3","","101.34","","","","-50","","Ice Crystals,Blowing Snow"
"-115.14","67.82","KUGLUKTUK A","2300903","2019-12-17 09:00","2019","12","17","09:00","-35.2","","-39.0","","70","","","","28","","23","","24.1","","101.33","","","","-51","","NA"
"-115.14","67.82","KUGLUKTUK A","2300903","2019-12-17 10:00","2019","12","17","10:00","-35.4","","-39.1","","69","","","","30","","15","","24.1","","101.36","","","","-48","","Ice Crystals"
"-115.14","67.82","KUGLUKTUK A","2300903","2019-12-17 11:00","2019","12","17","11:00","-33.8","","-37.8","","68","","","","34","","22","","24.1","","101.38","","","","-49","","Ice Crystals,Blowing Snow"
"-115.14","67.82","KUGLUKTUK A","2300903","2019-12-17 12:00","2019","12","17","12:00","-33.5","","-37.6","","68","","","","34","","17","","8.1","","101.41","","","","-46","","Ice Crystals,Blowing Snow"
"-115.14","67.82","KUGLUKTUK A","2300903","2019-12-17 13:00","2019","12","17","13:00","-33.4","","-37.4","","68","","","","34","","22","","9.7","","101.42","","","","-48","","Ice Crystals,Blowing Snow"
"-115.14","67.82","KUGLUKTUK A","2300903","2019-12-17 14:00","2019","12","17","14:00","-35.0","","-39.1","","67","","","","27","","13","","12.9","","101.46","","","","-47","","Ice Crystals"
"-115.14","67.82","KUGLUKTUK A","2300903","2019-12-17 15:00","2019","12","17","15:00","-34.8","","-38.6","","69","","","","25","","18","","9.7","","101.45","","","","-48","","Ice Crystals"
"-115.14","67.82","KUGLUKTUK A","2300903","2019-12-17 16:00","2019","12","17","16:00","-35.6","","-39.4","","69","","","","26","","16","","12.9","","101.47","","","","-49","","Ice Crystals"
"-115.14","67.82","KUGLUKTUK A","2300903","2019-12-17 17:00","2019","12","17","17:00","-36.1","","-39.8","","69","","","","25","","16","","12.9","","101.45","","","","-49","","Ice Crystals"
"-115.14","67.82","KUGLUKTUK A","2300903","2019-12-17 18:00","2019","12","17","18:00","-35.1","","-38.9","","69","","","","26","","23","","16.1","","101.43","","","","-50","","Ice Crystals,Blowing Snow"
"-115.14","67.82","KUGLUKTUK A","2300903","2019-12-17 19:00","2019","12","17","19:00","-34.6","","-38.4","","70","","","","26","","19","","12.9","","101.43","","","","-49","","Ice Crystals"
"-115.14","67.82","KUGLUKTUK A","2300903","2019-12-17 20:00","2019","12","17","20:00","-34.5","","-38.3","","69","","","","26","","19","","12.9","","101.40","","","","-48","","Ice Crystals"
"-115.14","67.82","KUGLUKTUK A","2300903","2019-12-17 21:00","2019","12","17","21:00","-34.2","","-38.0","","70","","","","26","","23","","16.1","","101.39","","","","-49","","Ice Crystals,Blowing Snow"
"-115.14","67.82","KUGLUKTUK A","2300903","2019-12-17 22:00","2019","12","17","22:00","-34.9","","-38.8","","69","","","","26","","20","","19.3","","101.41","","","","-49","","Ice Crystals"
"-115.14","67.82","KUGLUKTUK A","2300903","2019-12-17 23:00","2019","12","17","23:00","-34.9","","-39.0","","67","","","","25","","20","","19.3","","101.41","","","","-49","","Ice Crystals,Blowing Snow"
"-115.14","67.82","KUGLUKTUK A","2300903","2019-12-18 00:00","2019","12","18","00:00","-33.5","","-37.5","","68","","","","26","","25","","12.9","","101.42","","","","-49","","Ice Crystals,Blowing Snow"
"-115.14","67.82","KUGLUKTUK A","2300903","2019-12-18 01:00","2019","12","18","01:00","-33.3","","-37.2","","69","","","","26","","28","","16.1","","101.40","","","","-49","","Ice Crystals,Blowing Snow"
"-115.14","67.82","KUGLUKTUK A","2300903","2019-12-18 02:00","2019","12","18","02:00","-32.9","","-36.7","","69","","","","26","","26","","16.1","","101.41","","","","-48","","Ice Crystals,Blowing Snow"
"-115.14","67.82","KUGLUKTUK A","2300903","2019-12-18 03:00","2019","12","18","03:00","-32.8","","-36.7","","69","","","","26","","26","","19.3","","101.43","","","","-48","","Ice Crystals,Blowing Snow"
"-115.14","67.82","KUGLUKTUK A","2300903","2019-12-18 04:00","2019","12","18","04:00","-32.6","","-36.7","","68","","","","26","","26","","19.3","","101.42","","","","-48","","Ice Crystals,Blowing Snow"
"-115.14","67.82","KUGLUKTUK A","2300903","2019-12-18 05:00","2019","12","18","05:00","-31.7","","-35.7","","69","","","","27","","25","","19.3","","101.40","","","","-47","","Ice Crystals,Blowing Snow"
"-115.14","67.82","KUGLUKTUK A","2300903","2019-12-18 06:00","2019","12","18","06:00","-32.0","","-35.9","","69","","","","26","","28","","12.9","","101.39","","","","-48","","Snow,Blowing Snow"
"-115.14","67.82","KUGLUKTUK A","2300903","2019-12-18 07:00","2019","12","18","07:00","-32.3","","-36.3","","68","","","","27","","27","","16.1","","101.39","","","","-48","","Snow Grains,Blowing Snow"
"-115.14","67.82","KUGLUKTUK A","2300903","2019-12-18 08:00","2019","12","18","08:00","-31.9","","-35.8","","69","","","","26","","26","","9.7","","101.39","","","","-47","","Snow,Blowing Snow"
"-115.14","67.82","KUGLUKTUK A","2300903","2019-12-18 09:00","2019","12","18","09:00","-31.9","","-35.9","","69","","","","25","","27","","16.1","","101.39","","","","-47","","Ice Crystals,Blowing Snow"
"-115.14","67.82","KUGLUKTUK A","2300903","2019-12-18 10:00","2019","12","18","10:00","-31.6","","-35.5","","69","","","","25","","32","","4.8","","101.39","","","","-48","","Fog,Blowing Snow"
"-115.14","67.82","KUGLUKTUK A","2300903","2019-12-18 11:00","2019","12","18","11:00","-32.2","","-36.2","","68","","","","26","","27","","12.9","","101.41","","","","-48","","Ice Crystals,Blowing Snow"
"-115.14","67.82","KUGLUKTUK A","2300903","2019-12-18 12:00","2019","12","18","12:00","-31.8","","-35.7","","69","","","","27","","29","","16.1","","101.42","","","","-48","","Ice Crystals,Blowing Snow"
"-115.14","67.82","KUGLUKTUK A","2300903","2019-12-18 13:00","2019","12","18","13:00","-31.9","","-36.0","","68","","","","26","","22","","24.1","","101.44","","","","-46","","Ice Crystals,Blowing Snow"
"-115.14","67.82","KUGLUKTUK A","2300903","2019-12-18 14:00","2019","12","18","14:00","-31.9","","-35.6","","70","","","","25","","36","","2.4","","101.43","","","","-49","","Ice Crystals,Blowing Snow"
"-115.14","67.82","KUGLUKTUK A","2300903","2019-12-18 15:00","2019","12","18","15:00","-32.7","","-36.7","","69","","","","24","","28","","24.1","","101.46","","","","-49","","Blowing Snow"
"-115.14","67.82","KUGLUKTUK A","2300903","2019-12-18 16:00","2019","12","18","16:00","-33.8","","-37.9","","67","","","","23","","27","","24.1","","101.44","","","","-50","","Blowing Snow"
"-115.14","67.82","KUGLUKTUK A","2300903","2019-12-18 17:00","2019","12","18","17:00","-34.1","","-38.1","","68","","","","23","","28","","24.1","","101.45","","","","-50","","Blowing Snow"
"-115.14","67.82","KUGLUKTUK A","2300903","2019-12-18 18:00","2019","12","18","18:00","-34.5","","-38.5","","68","","","","23","","30","","24.1","","101.43","","","","-51","","Blowing Snow"
"-115.14","67.82","KUGLUKTUK A","2300903","2019-12-18 19:00","2019","12","18","19:00","-34.6","","-38.8","","67","","","","23","","26","","24.1","","101.41","","","","-51","","Blowing Snow"
"-115.14","67.82","KUGLUKTUK A","2300903","2019-12-18 20:00","2019","12","18","20:00","-34.9","","-39.1","","67","","","","23","","25","","24.1","","101.44","","","","-51","","Blowing Snow"
"-115.14","67.82","KUGLUKTUK A","2300903","2019-12-18 21:00","2019","12","18","21:00","-34.7","","-38.9","","66","","","","22","","26","","24.1","","101.42","","","","-51","","Ice Crystals,Blowing Snow"
"-115.14","67.82","KUGLUKTUK A","2300903","2019-12-18 22:00","2019","12","18","22:00","-34.1","","-38.3","","67","","","","22","","31","","24.1","","101.42","","","","-51","","Ice Crystals,Blowing Snow"
"-115.14","67.82","KUGLUKTUK A","2300903","2019-12-18 23:00","2019","12","18","23:00","-33.9","","-38.1","","67","","","","22","","28","","24.1","","101.44","","","","-50","","Ice Crystals,Blowing Snow"
"-115.14","67.82","KUGLUKTUK A","2300903","2019-12-19 00:00","2019","12","19","00:00","-33.5","","-37.5","","68","","","","22","","16","","24.1","","101.45","","","","-46","","Ice Crystals,Blowing Snow"
"-115.14","67.82","KUGLUKTUK A","2300903","2019-12-19 01:00","2019","12","19","01:00","-32.3","","-36.6","","67","","","","24","","30","","24.1","","101.45","","","","-49","","Ice Crystals,Blowing Snow"
"-115.14","67.82","KUGLUKTUK A","2300903","2019-12-19 02:00","2019","12","19","02:00","-31.3","","-35.5","","67","","","","24","","34","","24.1","","101.44","","","","-48","","Ice Crystals,Blowing Snow"
"-115.14","67.82","KUGLUKTUK A","2300903","2019-12-19 03:00","2019","12","19","03:00","-31.1","","-35.4","","67","","","","23","","27","","24.1","","101.43","","","","-46","","Ice Crystals,Blowing Snow"
"-115.14","67.82","KUGLUKTUK A","2300903","2019-12-19 04:00","2019","12","19","04:00","-31.8","","-35.9","","67","","","","23","","22","","24.1","","101.42","","","","-46","","Ice Crystals,Blowing Snow"
"-115.14","67.82","KUGLUKTUK A","2300903","2019-12-19 05:00","2019","12","19","05:00","-31.4","","-35.5","","68","","","","23","","25","","24.1","","101.42","","","","-46","","Ice Crystals,Blowing Snow"
"-115.14","67.82","KUGLUKTUK A","2300903","2019-12-19 06:00","2019","12","19","06:00","-30.5","","-34.7","","67","","","","22","","32","","24.1","","101.39","","","","-47","","Ice Crystals,Blowing Snow"
"-115.14","67.82","KUGLUKTUK A","2300903","2019-12-19 07:00","2019","12","19","07:00","-31.2","","-35.5","","67","","","","21","","22","","24.1","","101.40","","","","-45","","Ice Crystals,Blowing Snow"
"-115.14","67.82","KUGLUKTUK A","2300903","2019-12-19 08:00","2019","12","19","08:00","-30.9","","-35.5","","65","","","","22","","28","","24.1","","101.40","","","","-46","","Blowing Snow"
"-115.14","67.82","KUGLUKTUK A","2300903","2019-12-19 09:00","2019","12","19","09:00","-30.8","","-35.5","","64","","","","22","","27","","24.1","","101.41","","","","-46","","Blowing Snow"
"-115.14","67.82","KUGLUKTUK A","2300903","2019-12-19 10:00","2019","12","19","10:00","-30.8","","-35.5","","65","","","","22","","31","","24.1","","101.40","","","","-47","","NA"
"-115.14","67.82","KUGLUKTUK A","2300903","2019-12-19 11:00","2019","12","19","11:00","-30.7","","-35.4","","64","","","","22","","32","","24.1","","101.42","","","","-47","","Blowing Snow"
"-115.14","67.82","KUGLUKTUK A","2300903","2019-12-19 12:00","2019","12","19","12:00","-30.9","","-35.4","","65","","","","23","","29","","24.1","","101.39","","","","-47","","Blowing Snow"
"-115.14","67.82","KUGLUKTUK A","2300903","2019-12-19 13:00","2019","12","19","13:00","-30.8","","-35.6","","64","","","","22","","30","","24.1","","101.39","","","","-47","","Blowing Snow"
"-115.14","67.82","KUGLUKTUK A","2300903","2019-12-19 14:00","2019","12","19","14:00","-31.4","","-36.2","","64","","","","22","","25","","24.1","","101.34","","","","-46","","Blowing Snow"
"-115.14","67.82","KUGLUKTUK A","2300903","2019-12-19 15:00","2019","12","19","15:00","-30.8","","-35.8","","62","","","","22","","26","","24.1","","101.33","","","","-46","","NA"
"-115.14","67.82","KUGLUKTUK A","2300903","2019-12-19 16:00","2019","12","19","16:00","-31.0","","-36.1","","62","","","","22","","26","","24.1","","101.33","","","","-46","","NA"
"-115.14","67.82","KUGLUKTUK A","2300903","2019-12-19 17:00","2019","12","19","17:00","-30.9","","-35.8","","63","","","","23","","25","","24.1","","101.28","","","","-46","","Mainly Clear"
"-115.14","67.82","KUGLUKTUK A","2300903","2019-12-19 18:00","2019","12","19","18:00","-31.5","","-36.3","","63","","","","27","","7","","24.1","","101.29","","","","-39","","NA"
"-115.14","67.82","KUGLUKTUK A","2300903","2019-12-19 19:00","2019","12","19","19:00","-31.5","","-36.1","","64","","","","23","","16","","24.1","","101.23","","","","-44","","NA"
"-115.14","67.82","KUGLUKTUK A","2300903","2019-12-19 20:00","2019","12","19","20:00","-32.3","","-36.8","","66","","","","19","","10","","24.1","","101.20","","","","-42","","Mainly Clear"
"-115.14","67.82","KUGLUKTUK A","2300903","2019-12-19 21:00","2019","12","19","21:00","-32.7","","-37.2","","65","","","","23","","10","","24.1","","101.15","","","","-42","","NA"
"-115.14","67.82","KUGLUKTUK A","2300903","2019-12-19 22:00","2019","12","19","22:00","-33.6","","-37.8","","67","","","","22","","16","","24.1","","101.15","","","","-46","","NA"
"-115.14","67.82","KUGLUKTUK A","2300903","2019-12-19 23:00","2019","12","19","23:00","-32.3","","-36.6","","66","","","","25","","10","","24.1","","101.11","","","","-42","","Clear"
"-115.14","67.82","KUGLUKTUK A","2300903","2019-12-20 00:00","2019","12","20","00:00","-34.6","","-38.7","","67","","","","22","","15","","24.1","","101.07","","","","-47","","NA"
"-115.14","67.82","KUGLUKTUK A","2300903","2019-12-20 01:00","2019","12","20","01:00","-34.7","","-38.4","","70","","","","22","","23","","24.1","","101.07","","","","-50","","NA"
"-115.14","67.82","KUGLUKTUK A","2300903","2019-12-20 02:00","2019","12","20","02:00","-35.2","","-39.0","","69","","","","22","","21","","24.1","","101.03","","","","-50","","Clear"
"-115.14","67.82","KUGLUKTUK A","2300903","2019-12-20 03:00","2019","12","20","03:00","-34.7","","-38.6","","69","","","","22","","21","","24.1","","101.01","","","","-49","","NA"
"-115.14","67.82","KUGLUKTUK A","2300903","2019-12-20 04:00","2019","12","20","04:00","-34.0","","-38.4","","66","","","","21","","17","","24.1","","101.05","","","","-47","","NA"
"-115.14","67.82","KUGLUKTUK A","2300903","2019-12-20 05:00","2019","12","20","05:00","-34.9","","-39.2","","66","","","","20","","8","","24.1","","100.99","","","","-44","","Mainly Clear"
"-115.14","67.82","KUGLUKTUK A","2300903","2019-12-20 06:00","2019","12","20","06:00","-34.0","","-38.3","","66","","","","23","","21","","24.1","","100.96","","","","-48","","NA"
"-115.14","67.82","KUGLUKTUK A","2300903","2019-12-20 07:00","2019","12","20","07:00","-33.5","","-37.8","","66","","","","30","","4","","24.1","","100.94","","","","-38","","NA"
"-115.14","67.82","KUGLUKTUK A","2300903","2019-12-20 08:00","2019","12","20","08:00","-33.2","","-37.6","","65","","","","20","","10","","24.1","","100.92","","","","-43","","Mainly Clear"
"-115.14","67.82","KUGLUKTUK A","2300903","2019-12-20 09:00","2019","12","20","09:00","-33.8","","-38.1","","66","","","","21","","18","","24.1","","100.89","","","","-47","","NA"
"-115.14","67.82","KUGLUKTUK A","2300903","2019-12-20 10:00","2019","12","20","10:00","-33.3","","-37.8","","65","","","","21","","24","","24.1","","100.86","","","","-48","","NA"
"-115.14","67.82","KUGLUKTUK A","2300903","2019-12-20 11:00","2019","12","20","11:00","-33.6","","-38.1","","65","","","","27","","12","","24.1","","100.84","","","","-45","","Mainly Clear"
"-115.14","67.82","KUGLUKTUK A","2300903","2019-12-20 12:00","2019","12","20","12:00","-33.0","","-37.5","","65","","","","22","","29","","24.1","","100.83","","","","-49","","Blowing Snow"
"-115.14","67.82","KUGLUKTUK A","2300903","2019-12-20 13:00","2019","12","20","13:00","-32.2","","-36.7","","65","","","","22","","28","","24.1","","100.79","","","","-48","","NA"
"-115.14","67.82","KUGLUKTUK A","2300903","2019-12-20 14:00","2019","12","20","14:00","-32.0","","-36.2","","67","","","","22","","26","","24.1","","100.79","","","","-47","","Mainly Clear"
"-115.14","67.82","KUGLUKTUK A","2300903","2019-12-20 15:00","2019","12","20","15:00","-32.0","","-36.2","","67","","","","23","","25","","24.1","","100.81","","","","-47","","NA"
"-115.14","67.82","KUGLUKTUK A","2300903","2019-12-20 16:00","2019","12","20","16:00","-30.2","","-34.5","","67","","","","23","","28","","24.1","","100.82","","","","-45","","NA"
"-115.14","67.82","KUGLUKTUK A","2300903","2019-12-20 17:00","2019","12","20","17:00","-30.6","","-34.9","","67","","","","23","","34","","24.1","","100.81","","","","-47","","Blowing Snow"
"-115.14","67.82","KUGLUKTUK A","2300903","2019-12-20 18:00","2019","12","20","18:00","-29.9","","-34.3","","66","","","","23","","34","","24.1","","100.77","","","","-46","","Blowing Snow"
"-115.14","67.82","KUGLUKTUK A","2300903","2019-12-20 19:00","2019","12","20","19:00","-29.9","","-33.9","","69","","","","24","","36","","24.1","","100.72","","","","-47","","Blowing Snow"
"-115.14","67.82","KUGLUKTUK A","2300903","2019-12-20 20:00","2019","12","20","20:00","-29.2","","-33.1","","70","","","","24","","32","","24.1","","100.72","","","","-45","","Blowing Snow"
"-115.14","67.82","KUGLUKTUK A","2300903","2019-12-20 21:00","2019","12","20","21:00","-29.4","","-33.5","","69","","","","23","","34","","24.1","","100.72","","","","-46","","Blowing Snow"
"-115.14","67.82","KUGLUKTUK A","2300903","2019-12-20 22:00","2019","12","20","22:00","-29.2","","-33.1","","70","","","","23","","36","","24.1","","100.71","","","","-46","","Blowing Snow"
"-115.14","67.82","KUGLUKTUK A","2300903","2019-12-20 23:00","2019","12","20","23:00","-29.2","","-33.1","","70","","","","23","","40","","16.1","","100.67","","","","-46","","Ice Crystals,Blowing Snow"
"-115.14","67.82","KUGLUKTUK A","2300903","2019-12-21 00:00","2019","12","21","00:00","-28.8","","-32.7","","70","","","","23","","30","","19.3","","100.70","","","","-44","","Ice Crystals,Blowing Snow"
"-115.14","67.82","KUGLUKTUK A","2300903","2019-12-21 01:00","2019","12","21","01:00","-28.6","","-32.4","","70","","","","22","","37","","19.3","","100.69","","","","-45","","Ice Crystals,Blowing Snow"
"-115.14","67.82","KUGLUKTUK A","2300903","2019-12-21 02:00","2019","12","21","02:00","-28.1","","-32.0","","69","","","","23","","39","","16.1","","100.69","","","","-45","","Ice Crystals,Blowing Snow"
"-115.14","67.82","KUGLUKTUK A","2300903","2019-12-21 03:00","2019","12","21","03:00","-27.7","","-31.6","","70","","","","23","","46","","16.1","","100.65","","","","-45","","Ice Crystals,Blowing Snow"
"-115.14","67.82","KUGLUKTUK A","2300903","2019-12-21 04:00","2019","12","21","04:00","-27.2","","-31.0","","71","","","","23","","45","","16.1","","100.62","","","","-45","","Ice Crystals,Blowing Snow"
"-115.14","67.82","KUGLUKTUK A","2300903","2019-12-21 05:00","2019","12","21","05:00","-27.5","","-31.4","","70","","","","23","","36","","16.1","","100.64","","","","-43","","Ice Crystals,Blowing Snow"
"-115.14","67.82","KUGLUKTUK A","2300903","2019-12-21 06:00","2019","12","21","06:00","-27.0","","-31.0","","69","","","","23","","34","","19.3","","100.61","","","","-42","","Ice Crystals,Blowing Snow"
"-115.14","67.82","KUGLUKTUK A","2300903","2019-12-21 07:00","2019","12","21","07:00","-27.1","","-30.9","","71","","","","23","","47","","12.9","","100.58","","","","-45","","Ice Crystals,Blowing Snow"
"-115.14","67.82","KUGLUKTUK A","2300903","2019-12-21 08:00","2019","12","21","08:00","-27.2","","-31.1","","70","","","","23","","42","","16.1","","100.61","","","","-44","","Ice Crystals,Blowing Snow"
"-115.14","67.82","KUGLUKTUK A","2300903","2019-12-21 09:00","2019","12","21","09:00","-26.7","","-30.8","","69","","","","24","","45","","16.1","","100.57","","","","-44","","Blowing Snow"
"-115.14","67.82","KUGLUKTUK A","2300903","2019-12-21 10:00","2019","12","21","10:00","-26.7","","-30.9","","69","","","","23","","38","","24.1","","100.61","","","","-43","","Blowing Snow"
"-115.14","67.82","KUGLUKTUK A","2300903","2019-12-21 11:00","2019","12","21","11:00","-26.8","","-31.0","","68","","","","23","","28","","24.1","","100.65","","","","-41","","Blowing Snow"
"-115.14","67.82","KUGLUKTUK A","2300903","2019-12-21 12:00","2019","12","21","12:00","-27.5","","-31.8","","68","","","","22","","23","","24.1","","100.65","","","","-41","","Blowing Snow"
"-115.14","67.82","KUGLUKTUK A","2300903","2019-12-21 13:00","2019","12","21","13:00","-27.1","","-31.3","","68","","","","22","","26","","24.1","","100.62","","","","-41","","NA"
"-115.14","67.82","KUGLUKTUK A","2300903","2019-12-21 14:00","2019","12","21","14:00","-26.9","","-31.1","","68","","","","23","","28","","24.1","","100.61","","","","-41","","Mainly Clear"
"-115.14","67.82","KUGLUKTUK A","2300903","2019-12-21 15:00","2019","12","21","15:00","-26.6","","-30.9","","68","","","","23","","36","","24.1","","100.56","","","","-42","","Blowing Snow"
"-115.14","67.82","KUGLUKTUK A","2300903","2019-12-21 16:00","2019","12","21","16:00","-27.2","","-31.4","","68","","","","23","","37","","24.1","","100.55","","","","-43","","Blowing Snow"
"-115.14","67.82","KUGLUKTUK A","2300903","2019-12-21 17:00","2019","12","21","17:00","-26.6","","-31.1","","67","","","","22","","39","","24.1","","100.54","","","","-43","","Blowing Snow"
"-115.14","67.82","KUGLUKTUK A","2300903","2019-12-21 18:00","2019","12","21","18:00","-26.2","","-30.4","","68","","","","23","","35","","24.1","","100.57","","","","-42","","Blowing Snow"
"-115.14","67.82","KUGLUKTUK A","2300903","2019-12-21 19:00","2019","12","21","19:00","-26.1","","-30.4","","68","","","","23","","29","","24.1","","100.58","","","","-40","","Blowing Snow"
"-115.14","67.82","KUGLUKTUK A","2300903","2019-12-21 20:00","2019","12","21","20:00","-26.0","","-30.4","","67","","","","23","","34","","24.1","","100.60","","","","-41","","Ice Crystals,Blowing Snow"
"-115.14","67.82","KUGLUKTUK A","2300903","2019-12-21 21:00","2019","12","21","21:00","-26.7","","-30.8","","69","","","","24","","32","","24.1","","100.59","","","","-42","","Ice Crystals,Blowing Snow"
"-115.14","67.82","KUGLUKTUK A","2300903","2019-12-21 22:00","2019","12","21","22:00","-26.3","","-30.8","","67","","","","24","","32","","24.1","","100.64","","","","-41","","Ice Crystals,Blowing Snow"
"-115.14","67.82","KUGLUKTUK A","2300903","2019-12-21 23:00","2019","12","21","23:00","-26.6","","-31.1","","66","","","","24","","26","","24.1","","100.67","","","","-40","","Ice Crystals,Blowing Snow"
"-115.14","67.82","KUGLUKTUK A","2300903","2019-12-22 00:00","2019","12","22","00:00","-27.5","","-31.6","","69","","","","23","","12","","24.1","","100.71","","","","-37","","NA"
"-115.14","67.82","KUGLUKTUK A","2300903","2019-12-22 01:00","2019","12","22","01:00","-26.8","","-31.1","","68","","","","23","","26","","24.1","","100.75","","","","-41","","Ice Crystals"
"-115.14","67.82","KUGLUKTUK A","2300903","2019-12-22 02:00","2019","12","22","02:00","-26.9","","-31.2","","68","","","","22","","28","","24.1","","100.78","","","","-41","","Ice Crystals,Blowing Snow"
"-115.14","67.82","KUGLUKTUK A","2300903","2019-12-22 03:00","2019","12","22","03:00","-26.1","","-30.3","","68","","","","24","","32","","24.1","","100.81","","","","-41","","Ice Crystals,Blowing Snow"
"-115.14","67.82","KUGLUKTUK A","2300903","2019-12-22 04:00","2019","12","22","04:00","-26.5","","-30.7","","68","","","","23","","26","","24.1","","100.86","","","","-40","","Ice Crystals,Blowing Snow"
"-115.14","67.82","KUGLUKTUK A","2300903","2019-12-22 05:00","2019","12","22","05:00","-26.9","","-31.0","","69","","","","22","","27","","24.1","","100.86","","","","-41","","Ice Crystals,Blowing Snow"
"-115.14","67.82","KUGLUKTUK A","2300903","2019-12-22 06:00","2019","12","22","06:00","-26.8","","-30.9","","69","","","","22","","24","","24.1","","100.86","","","","-40","","Ice Crystals"
"-115.14","67.82","KUGLUKTUK A","2300903","2019-12-22 07:00","2019","12","22","07:00","-26.9","","-31.1","","68","","","","22","","24","","24.1","","100.87","","","","-40","","Ice Crystals"
"-115.14","67.82","KUGLUKTUK A","2300903","2019-12-22 08:00","2019","12","22","08:00","-27.6","","-32.0","","67","","","","23","","22","","24.1","","100.88","","","","-41","","Ice Crystals"
"-115.14","67.82","KUGLUKTUK A","2300903","2019-12-22 09:00","2019","12","22","09:00","-27.1","","-31.6","","66","","","","25","","23","","24.1","","100.88","","","","-40","","Ice Crystals,Blowing Snow"
"-115.14","67.82","KUGLUKTUK A","2300903","2019-12-22 10:00","2019","12","22","10:00","-27.4","","-31.8","","67","","","","23","","21","","24.1","","100.89","","","","-40","","Ice Crystals,Blowing Snow"
"-115.14","67.82","KUGLUKTUK A","2300903","2019-12-22 11:00","2019","12","22","11:00","-27.5","","-32.0","","66","","","","23","","27","","24.1","","100.86","","","","-42","","Ice Crystals,Blowing Snow"
"-115.14","67.82","KUGLUKTUK A","2300903","2019-12-22 12:00","2019","12","22","12:00","-27.0","","-31.2","","69","","","","23","","27","","24.1","","100.88","","","","-41","","Ice Crystals,Blowing Snow"
"-115.14","67.82","KUGLUKTUK A","2300903","2019-12-22 13:00","2019","12","22","13:00","-25.7","","-30.3","","66","","","","24","","26","","19.3","","100.90","","","","-39","","Ice Crystals,Blowing Snow"
"-115.14","67.82","KUGLUKTUK A","2300903","2019-12-22 14:00","2019","12","22","14:00","-26.1","","-29.7","","73","","","","20","","17","","12.9","","100.86","","","","-37","","Ice Crystals,Blowing Snow"
"-115.14","67.82","KUGLUKTUK A","2300903","2019-12-22 15:00","2019","12","22","15:00","-25.9","","-29.8","","71","","","","21","","23","","11.3","","100.85","","","","-39","","Ice Crystals,Blowing Snow"
"-115.14","67.82","KUGLUKTUK A","2300903","2019-12-22 16:00","2019","12","22","16:00","-25.4","","-28.7","","74","","","","22","","19","","12.9","","100.83","","","","-37","","Ice Crystals,Blowing Snow"
"-115.14","67.82","KUGLUKTUK A","2300903","2019-12-22 17:00","2019","12","22","17:00","-26.0","","-30.3","","68","","","","23","","23","","16.1","","100.80","","","","-39","","Ice Crystals,Blowing Snow"
"-115.14","67.82","KUGLUKTUK A","2300903","2019-12-22 18:00","2019","12","22","18:00","-27.2","","-31.7","","66","","","","23","","17","","19.3","","100.78","","","","-39","","Ice Crystals,Blowing Snow"
"-115.14","67.82","KUGLUKTUK A","2300903","2019-12-22 19:00","2019","12","22","19:00","-27.1","","-31.2","","68","","","","22","","21","","19.3","","100.74","","","","-40","","Ice Crystals,Blowing Snow"
"-115.14","67.82","KUGLUKTUK A","2300903","2019-12-22 20:00","2019","12","22","20:00","-27.7","","-31.7","","69","","","","21","","16","","24.1","","100.73","","","","-39","","Clear"
"-115.14","67.82","KUGLUKTUK A","2300903","2019-12-22 21:00","2019","12","22","21:00","-27.5","","-32.0","","67","","","","23","","20","","24.1","","100.67","","","","-40","","NA"
"-115.14","67.82","KUGLUKTUK A","2300903","2019-12-22 22:00","2019","12","22","22:00","-26.4","","-31.1","","65","","","","21","","24","","24.1","","100.65","","","","-40","","NA"
"-115.14","67.82","KUGLUKTUK A","2300903","2019-12-22 23:00","2019","12","22","23:00","-27.6","","-31.9","","67","","","","23","","21","","24.1","","100.63","","","","-40","","Mainly Clear"
"-115.14","67.82","KUGLUKTUK A","2300903","2019-12-23 00:00","2019","12","23","00:00","-27.3","","-31.4","","69","","","","24","","14","","24.1","","100.60","","","","-38","","NA"
"-115.14","67.82","KUGLUKTUK A","2300903","2019-12-23 01:00","2019","12","23","01:00","-26.5","","-31.1","","66","","","","26","","13","","24.1","","100.57","","","","-36","","NA"
"-115.14","67.82","KUGLUKTUK A","2300903","2019-12-23 02:00","2019","12","23","02:00","-24.9","","-29.9","","64","","","","21","","23","","24.1","","100.53","","","","-37","","Mostly Cloudy"
"-115.14","67.82","KUGLUKTUK A","2300903","2019-12-23 03:00","2019","12","23","03:00","-24.3","","-29.3","","64","","","","22","","23","","24.1","","100.48","","","","-37","","Ice Crystals"
"-115.14","67.82","KUGLUKTUK A","2300903","2019-12-23 04:00","2019","12","23","04:00","-24.1","","-28.8","","66","","","","20","","24","","24.1","","100.46","","","","-37","","Ice Crystals"
"-115.14","67.82","KUGLUKTUK A","2300903","2019-12-23 05:00","2019","12","23","05:00","-23.7","","-28.6","","64","","","","21","","29","","24.1","","100.38","","","","-37","","Ice Crystals"
"-115.14","67.82","KUGLUKTUK A","2300903","2019-12-23 06:00","2019","12","23","06:00","-23.9","","-28.8","","65","","","","24","","11","","24.1","","100.34","","","","-32","","NA"
"-115.14","67.82","KUGLUKTUK A","2300903","2019-12-23 07:00","2019","12","23","07:00","-23.2","","-28.4","","63","","","","19","","14","","24.1","","100.29","","","","-33","","NA"
"-115.14","67.82","KUGLUKTUK A","2300903","2019-12-23 08:00","2019","12","23","08:00","-23.7","","-28.4","","66","","","","15","","4","","24.1","","100.24","","","","-28","","Mostly Cloudy"
"-115.14","67.82","KUGLUKTUK A","2300903","2019-12-23 09:00","2019","12","23","09:00","-23.8","","-28.5","","66","","","","19","","20","","24.1","","100.16","","","","-35","","NA"
"-115.14","67.82","KUGLUKTUK A","2300903","2019-12-23 10:00","2019","12","23","10:00","-24.0","","-29.0","","64","","","","19","","21","","24.1","","100.09","","","","-36","","NA"
"-115.14","67.82","KUGLUKTUK A","2300903","2019-12-23 11:00","2019","12","23","11:00","-24.9","","-29.5","","66","","","","17","","21","","24.1","","100.04","","","","-37","","Cloudy"
"-115.14","67.82","KUGLUKTUK A","2300903","2019-12-23 12:00","2019","12","23","12:00","-25.7","","-29.9","","68","","","","21","","20","","24.1","","100.03","","","","-38","","NA"
"-115.14","67.82","KUGLUKTUK A","2300903","2019-12-23 13:00","2019","12","23","13:00","-24.0","","-28.4","","68","","","","22","","19","","24.1","","99.99","","","","-35","","NA"
"-115.14","67.82","KUGLUKTUK A","2300903","2019-12-23 14:00","2019","12","23","14:00","-27.5","","-31.0","","72","","","","26","","12","","24.1","","99.98","","","","-37","","Mostly Cloudy"
"-115.14","67.82","KUGLUKTUK A","2300903","2019-12-23 15:00","2019","12","23","15:00","-28.3","","-32.3","","69","","","","23","","17","","24.1","","99.98","","","","-40","","NA"
"-115.14","67.82","KUGLUKTUK A","2300903","2019-12-23 16:00","2019","12","23","16:00","-26.9","","-30.7","","71","","","","22","","18","","19.3","","99.97","","","","-39","","Snow"
"-115.14","67.82","KUGLUKTUK A","2300903","2019-12-23 17:00","2019","12","23","17:00","-26.7","","-30.5","","71","","","","28","","7","","19.3","","99.95","","","","-33","","Snow"
"-115.14","67.82","KUGLUKTUK A","2300903","2019-12-23 18:00","2019","12","23","18:00","-26.6","","-30.3","","71","","","","29","","8","","24.1","","99.92","","","","-34","","Snow"
"-115.14","67.82","KUGLUKTUK A","2300903","2019-12-23 19:00","2019","12","23","19:00","-25.6","","-29.4","","71","","","","32","","4","","24.1","","99.93","","","","-30","","Snow"
"-115.14","67.82","KUGLUKTUK A","2300903","2019-12-23 20:00","2019","12","23","20:00","-24.9","","-28.9","","71","","","","22","","4","","24.1","","99.92","","","","-29","","Snow"
"-115.14","67.82","KUGLUKTUK A","2300903","2019-12-23 21:00","2019","12","23","21:00","-24.5","","-28.1","","73","","","","19","","3","","24.1","","99.89","","","","-27","","Snow"
"-115.14","67.82","KUGLUKTUK A","2300903","2019-12-23 22:00","2019","12","23","22:00","-23.8","","-28.1","","68","","","","21","","12","","24.1","","99.87","","","","-33","","Snow"
"-115.14","67.82","KUGLUKTUK A","2300903","2019-12-23 23:00","2019","12","23","23:00","-25.7","","-29.6","","71","","","","22","","11","","24.1","","99.90","","","","-34","","Snow"
"-115.14","67.82","KUGLUKTUK A","2300903","2019-12-24 00:00","2019","12","24","00:00","-26.4","","-30.5","","69","","","","23","","8","","24.1","","99.89","","","","-34","","NA"
"-115.14","67.82","KUGLUKTUK A","2300903","2019-12-24 01:00","2019","12","24","01:00","-27.3","","-30.9","","72","","","","22","","5","","24.1","","99.85","","","","-33","","NA"
"-115.14","67.82","KUGLUKTUK A","2300903","2019-12-24 02:00","2019","12","24","02:00","-28.1","","-31.4","","74","","","","25","","6","","24.1","","99.91","","","","-34","","Mainly Clear"
"-115.14","67.82","KUGLUKTUK A","2300903","2019-12-24 03:00","2019","12","24","03:00","-27.3","","-30.7","","74","","","","24","","5","","24.1","","99.94","","","","-33","","NA"
"-115.14","67.82","KUGLUKTUK A","2300903","2019-12-24 04:00","2019","12","24","04:00","-29.2","","-32.5","","74","","","","36","","1","","24.1","","99.94","","","","-30","","NA"
"-115.14","67.82","KUGLUKTUK A","2300903","2019-12-24 05:00","2019","12","24","05:00","-29.7","","-33.2","","72","","","","0","","1","","24.1","","99.91","","","","-31","","Mainly Clear"
"-115.14","67.82","KUGLUKTUK A","2300903","2019-12-24 06:00","2019","12","24","06:00","-30.3","","-33.6","","73","","","","25","","5","","24.1","","99.90","","","","-36","","NA"
"-115.14","67.82","KUGLUKTUK A","2300903","2019-12-24 07:00","2019","12","24","07:00","-29.6","","-33.0","","73","","","","30","","7","","24.1","","99.90","","","","-37","","NA"
"-115.14","67.82","KUGLUKTUK A","2300903","2019-12-24 08:00","2019","12","24","08:00","-29.7","","-33.1","","73","","","","27","","13","","24.1","","99.91","","","","-40","","Cloudy"
"-115.14","67.82","KUGLUKTUK A","2300903","2019-12-24 09:00","2019","12","24","09:00","-29.5","","-32.9","","73","","","","27","","12","","24.1","","99.94","","","","-40","","NA"
"-115.14","67.82","KUGLUKTUK A","2300903","2019-12-24 10:00","2019","12","24","10:00","-28.8","","-32.1","","73","","","","24","","5","","24.1","","100.00","","","","-34","","NA"
"-115.14","67.82","KUGLUKTUK A","2300903","2019-12-24 11:00","2019","12","24","11:00","-29.1","","-32.5","","73","","","","28","","8","","24.1","","100.01","","","","-37","","Mostly Cloudy"
"-115.14","67.82","KUGLUKTUK A","2300903","2019-12-24 12:00","2019","12","24","12:00","-29.1","","-32.5","","73","","","","36","","3","","24.1","","100.01","","","","-32","","NA"
"-115.14","67.82","KUGLUKTUK A","2300903","2019-12-24 13:00","2019","12","24","13:00","-29.2","","-32.5","","74","","","","36","","2","","24.1","","100.04","","","","-31","","NA"
"-115.14","67.82","KUGLUKTUK A","2300903","2019-12-24 14:00","2019","12","24","14:00","-29.9","","-33.5","","72","","","","24","","9","","24.1","","100.09","","","","-38","","Mostly Cloudy"
"-115.14","67.82","KUGLUKTUK A","2300903","2019-12-24 15:00","2019","12","24","15:00","-30.1","","-33.7","","72","","","","22","","16","","24.1","","100.15","","","","-42","","NA"
"-115.14","67.82","KUGLUKTUK A","2300903","2019-12-24 16:00","2019","12","24","16:00","-29.7","","-33.1","","73","","","","24","","5","","24.1","","100.22","","","","-35","","NA"
"-115.14","67.82","KUGLUKTUK A","2300903","2019-12-24 17:00","2019","12","24","17:00","-29.9","","-33.5","","72","","","","23","","19","","19.3","","100.28","","","","-43","","Ice Crystals"
"-115.14","67.82","KUGLUKTUK A","2300903","2019-12-24 18:00","2019","12","24","18:00","-28.1","","-31.6","","73","","","","22","","14","","19.3","","100.33","","","","-39","","Ice Crystals"
"-115.14","67.82","KUGLUKTUK A","2300903","2019-12-24 19:00","2019","12","24","19:00","-26.9","","-30.2","","74","","","","23","","11","","19.3","","100.39","","","","-36","","Ice Crystals"
"-115.14","67.82","KUGLUKTUK A","2300903","2019-12-24 20:00","2019","12","24","20:00","-26.5","","-30.0","","73","","","","23","","14","","24.1","","100.46","","","","-37","","Ice Crystals"
"-115.14","67.82","KUGLUKTUK A","2300903","2019-12-24 21:00","2019","12","24","21:00","-25.4","","-28.7","","74","","","","25","","12","","16.1","","100.52","","","","-35","","Snow"
"-115.14","67.82","KUGLUKTUK A","2300903","2019-12-24 22:00","2019","12","24","22:00","-25.2","","-28.8","","72","","","","23","","9","","16.1","","100.57","","","","-33","","Snow"
"-115.14","67.82","KUGLUKTUK A","2300903","2019-12-24 23:00","2019","12","24","23:00","-24.5","","-28.1","","73","","","","26","","12","","16.1","","100.69","","","","-33","","Snow"
"-115.14","67.82","KUGLUKTUK A","2300903","2019-12-25 00:00","2019","12","25","00:00","-24.3","","-28.0","","72","","","","36","","3","","24.1","","100.71","","","","-27","","Ice Crystals"
"-115.14","67.82","KUGLUKTUK A","2300903","2019-12-25 01:00","2019","12","25","01:00","-24.0","","-27.4","","74","","","","29","","9","","16.1","","100.80","","","","-31","","Snow"
"-115.14","67.82","KUGLUKTUK A","2300903","2019-12-25 02:00","2019","12","25","02:00","-23.3","","-27.3","","70","","","","34","","13","","24.1","","100.88","","","","-32","","Snow"
"-115.14","67.82","KUGLUKTUK A","2300903","2019-12-25 03:00","2019","12","25","03:00","-23.1","","-27.7","","67","","","","1","","17","","24.1","","100.96","","","","-34","","Snow"
"-115.14","67.82","KUGLUKTUK A","2300903","2019-12-25 04:00","2019","12","25","04:00","-23.9","","-27.4","","73","","","","35","","20","","8.1","","101.03","","","","-35","","Snow,Blowing Snow"
"-115.14","67.82","KUGLUKTUK A","2300903","2019-12-25 05:00","2019","12","25","05:00","-24.3","","-27.9","","72","","","","35","","23","","12.9","","101.08","","","","-37","","Snow,Blowing Snow"
"-115.14","67.82","KUGLUKTUK A","2300903","2019-12-25 06:00","2019","12","25","06:00","-24.8","","-28.2","","74","","","","1","","18","","3.2","","101.10","","","","-36","","Snow"
"-115.14","67.82","KUGLUKTUK A","2300903","2019-12-25 07:00","2019","12","25","07:00","-25.1","","-28.6","","73","","","","36","","17","","6.4","","101.13","","","","-36","","Snow"
"-115.14","67.82","KUGLUKTUK A","2300903","2019-12-25 08:00","2019","12","25","08:00","-25.5","","-29.1","","73","","","","1","","19","","6.4","","101.14","","","","-37","","Snow,Blowing Snow"
"-115.14","67.82","KUGLUKTUK A","2300903","2019-12-25 09:00","2019","12","25","09:00","-26.2","","-29.9","","72","","","","36","","21","","9.7","","101.16","","","","-39","","Snow,Blowing Snow"
"-115.14","67.82","KUGLUKTUK A","2300903","2019-12-25 10:00","2019","12","25","10:00","-25.8","","-29.6","","71","","","","1","","14","","12.9","","101.18","","","","-36","","Ice Crystals,Blowing Snow"
"-115.14","67.82","KUGLUKTUK A","2300903","2019-12-25 11:00","2019","12","25","11:00","-27.1","","-30.6","","73","","","","2","","17","","19.3","","101.14","","","","-39","","Snow Grains"
"-115.14","67.82","KUGLUKTUK A","2300903","2019-12-25 12:00","2019","12","25","12:00","-28.1","","-31.8","","72","","","","4","","15","","19.3","","101.16","","","","-39","","Ice Crystals"
"-115.14","67.82","KUGLUKTUK A","2300903","2019-12-25 13:00","2019","12","25","13:00","-29.0","","-32.8","","70","","","","4","","14","","19.3","","101.11","","","","-40","","Ice Crystals"
"-115.14","67.82","KUGLUKTUK A","2300903","2019-12-25 14:00","2019","12","25","14:00","-29.3","","-33.0","","71","","","","3","","13","","19.3","","101.06","","","","-40","","Ice Crystals"
"-115.14","67.82","KUGLUKTUK A","2300903","2019-12-25 15:00","2019","12","25","15:00","-29.8","","-33.3","","72","","","","5","","8","","19.3","","101.01","","","","-38","","Ice Crystals"
"-115.14","67.82","KUGLUKTUK A","2300903","2019-12-25 16:00","2019","12","25","16:00","-29.1","","-32.6","","73","","","","4","","7","","19.3","","100.95","","","","-36","","Ice Crystals"
"-115.14","67.82","KUGLUKTUK A","2300903","2019-12-25 17:00","2019","12","25","17:00","-28.2","","-31.5","","74","","","","6","","11","","19.3","","100.83","","","","-38","","Ice Crystals"
"-115.14","67.82","KUGLUKTUK A","2300903","2019-12-25 18:00","2019","12","25","18:00","-27.6","","-30.8","","75","","","","8","","14","","12.9","","100.71","","","","-38","","Ice Crystals"
"-115.14","67.82","KUGLUKTUK A","2300903","2019-12-25 19:00","2019","12","25","19:00","-25.8","","-28.8","","77","","","","8","","22","","19.3","","100.56","","","","-38","","Ice Crystals"
"-115.14","67.82","KUGLUKTUK A","2300903","2019-12-25 20:00","2019","12","25","20:00","-24.9","","-27.9","","77","","","","8","","23","","12.9","","100.41","","","","-37","","Ice Crystals,Blowing Snow"
"-115.14","67.82","KUGLUKTUK A","2300903","2019-12-25 21:00","2019","12","25","21:00","-24.3","","-27.2","","77","","","","9","","17","","9.7","","100.27","","","","-35","","Ice Crystals,Blowing Snow"
"-115.14","67.82","KUGLUKTUK A","2300903","2019-12-25 22:00","2019","12","25","22:00","-24.1","","-27.0","","78","","","","9","","23","","24.1","","100.15","","","","-36","","Ice Crystals"
"-115.14","67.82","KUGLUKTUK A","2300903","2019-12-25 23:00","2019","12","25","23:00","-22.9","","-25.8","","78","","","","10","","23","","16.1","","100.09","","","","-35","","Ice Crystals"
"-115.14","67.82","KUGLUKTUK A","2300903","2019-12-26 00:00","2019","12","26","00:00","-21.6","","-24.5","","78","","","","14","","5","","24.1","","100.02","","","","-26","","NA"
"-115.14","67.82","KUGLUKTUK A","2300903","2019-12-26 01:00","2019","12","26","01:00","-24.3","","-27.3","","76","","","","27","","12","","24.1","","100.00","","","","-33","","NA"
"-115.14","67.82","KUGLUKTUK A","2300903","2019-12-26 02:00","2019","12","26","02:00","-26.3","","-29.4","","76","","","","24","","23","","24.1","","100.02","","","","-39","","Blowing Snow"
"-115.14","67.82","KUGLUKTUK A","2300903","2019-12-26 03:00","2019","12","26","03:00","-27.3","","-30.5","","75","","","","25","","18","","24.1","","100.12","","","","-39","","Blowing Snow"
"-115.14","67.82","KUGLUKTUK A","2300903","2019-12-26 04:00","2019","12","26","04:00","-28.2","","-31.6","","74","","","","21","","12","","24.1","","100.14","","","","-38","","NA"
"-115.14","67.82","KUGLUKTUK A","2300903","2019-12-26 05:00","2019","12","26","05:00","-28.5","","-32.0","","72","","","","23","","20","","24.1","","100.15","","","","-41","","Clear"
"-115.14","67.82","KUGLUKTUK A","2300903","2019-12-26 06:00","2019","12","26","06:00","-28.6","","-32.2","","72","","","","22","","19","","24.1","","100.15","","","","-41","","NA"
"-115.14","67.82","KUGLUKTUK A","2300903","2019-12-26 07:00","2019","12","26","07:00","-28.6","","-32.4","","71","","","","24","","8","","24.1","","100.18","","","","-36","","NA"
"-115.14","67.82","KUGLUKTUK A","2300903","2019-12-26 08:00","2019","12","26","08:00","-27.8","","-31.7","","70","","","","23","","5","","24.1","","100.21","","","","-33","","Clear"
"-115.14","67.82","KUGLUKTUK A","2300903","2019-12-26 09:00","2019","12","26","09:00","-27.5","","-31.5","","70","","","","21","","7","","24.1","","100.23","","","","-34","","NA"
"-115.14","67.82","KUGLUKTUK A","2300903","2019-12-26 10:00","2019","12","26","10:00","-27.2","","-31.0","","71","","","","22","","9","","24.1","","100.31","","","","-35","","Ice Crystals"
"-115.14","67.82","KUGLUKTUK A","2300903","2019-12-26 11:00","2019","12","26","11:00","-24.7","","-28.6","","71","","","","23","","8","","24.1","","100.32","","","","-32","","Ice Crystals"
"-115.14","67.82","KUGLUKTUK A","2300903","2019-12-26 12:00","2019","12","26","12:00","-25.1","","-28.8","","72","","","","27","","4","","24.1","","100.32","","","","-29","","NA"
"-115.14","67.82","KUGLUKTUK A","2300903","2019-12-26 13:00","2019","12","26","13:00","-24.9","","-28.6","","72","","","","22","","9","","24.1","","100.38","","","","-33","","NA"
"-115.14","67.82","KUGLUKTUK A","2300903","2019-12-26 14:00","2019","12","26","14:00","-25.2","","-28.9","","72","","","","20","","9","","24.1","","100.32","","","","-33","","Cloudy"
"-115.14","67.82","KUGLUKTUK A","2300903","2019-12-26 15:00","2019","12","26","15:00","-23.9","","-27.7","","72","","","","36","","2","","24.1","","100.33","","","","-26","","NA"
"-115.14","67.82","KUGLUKTUK A","2300903","2019-12-26 16:00","2019","12","26","16:00","-23.9","","-27.4","","74","","","","36","","1","","24.1","","100.31","","","","-25","","NA"
"-115.14","67.82","KUGLUKTUK A","2300903","2019-12-26 17:00","2019","12","26","17:00","-22.7","","-25.8","","76","","","","4","","7","","24.1","","100.27","","","","-29","","Snow"
"-115.14","67.82","KUGLUKTUK A","2300903","2019-12-26 18:00","2019","12","26","18:00","-22.8","","-25.6","","78","","","","2","","14","","24.1","","100.22","","","","-32","","Snow"
"-115.14","67.82","KUGLUKTUK A","2300903","2019-12-26 19:00","2019","12","26","19:00","-22.7","","-25.4","","79","","","","3","","19","","24.1","","100.14","","","","-34","","Snow"
"-115.14","67.82","KUGLUKTUK A","2300903","2019-12-26 20:00","2019","12","26","20:00","-22.1","","-24.9","","78","","","","5","","14","","16.1","","100.10","","","","-31","","Snow Grains"
"-115.14","67.82","KUGLUKTUK A","2300903","2019-12-26 21:00","2019","12","26","21:00","-21.8","","-24.6","","78","","","","4","","17","","12.9","","99.99","","","","-32","","Snow Grains"
"-115.14","67.82","KUGLUKTUK A","2300903","2019-12-26 22:00","2019","12","26","22:00","-21.5","","-24.4","","77","","","","5","","17","","16.1","","99.93","","","","-32","","Snow"
"-115.14","67.82","KUGLUKTUK A","2300903","2019-12-26 23:00","2019","12","26","23:00","-21.0","","-24.0","","77","","","","3","","15","","16.1","","99.87","","","","-30","","Snow"
"-115.14","67.82","KUGLUKTUK A","2300903","2019-12-27 00:00","2019","12","27","00:00","-20.7","","-23.8","","77","","","","36","","14","","16.1","","99.83","","","","-30","","Snow"
"-115.14","67.82","KUGLUKTUK A","2300903","2019-12-27 01:00","2019","12","27","01:00","-20.7","","-23.6","","78","","","","36","","16","","16.1","","99.76","","","","-30","","Snow"
"-115.14","67.82","KUGLUKTUK A","2300903","2019-12-27 02:00","2019","12","27","02:00","-20.8","","-23.4","","79","","","","32","","16","","16.1","","99.76","","","","-30","","Snow"
"-115.14","67.82","KUGLUKTUK A","2300903","2019-12-27 03:00","2019","12","27","03:00","-20.8","","-23.6","","78","","","","33","","12","","4.8","","99.75","","","","-29","","Snow"
"-115.14","67.82","KUGLUKTUK A","2300903","2019-12-27 04:00","2019","12","27","04:00","-21.2","","-24.1","","78","","","","27","","17","","3.2","","99.76","","","","-31","","Snow"
"-115.14","67.82","KUGLUKTUK A","2300903","2019-12-27 05:00","2019","12","27","05:00","-21.1","","-24.0","","78","","","","28","","15","","6.4","","99.78","","","","-30","","Snow"
"-115.14","67.82","KUGLUKTUK A","2300903","2019-12-27 06:00","2019","12","27","06:00","-20.9","","-23.7","","79","","","","30","","16","","6.4","","99.84","","","","-31","","Snow"
"-115.14","67.82","KUGLUKTUK A","2300903","2019-12-27 07:00","2019","12","27","07:00","-21.1","","-24.5","","75","","","","32","","18","","6.4","","99.93","","","","-31","","Snow"
"-115.14","67.82","KUGLUKTUK A","2300903","2019-12-27 08:00","2019","12","27","08:00","-21.7","","-25.0","","75","","","","32","","23","","6.4","","100.03","","","","-33","","Snow"
"-115.14","67.82","KUGLUKTUK A","2300903","2019-12-27 09:00","2019","12","27","09:00","-22.3","","-25.6","","75","","","","31","","29","","6.4","","100.17","","","","-35","","Snow"
"-115.14","67.82","KUGLUKTUK A","2300903","2019-12-27 10:00","2019","12","27","10:00","-23.0","","-26.6","","73","","","","32","","28","","9.7","","100.27","","","","-36","","Snow"
"-115.14","67.82","KUGLUKTUK A","2300903","2019-12-27 11:00","2019","12","27","11:00","-24.1","","-27.9","","72","","","","31","","25","","8.1","","100.34","","","","-37","","Snow"
"-115.14","67.82","KUGLUKTUK A","2300903","2019-12-27 12:00","2019","12","27","12:00","-26.4","","-30.1","","71","","","","27","","16","","24.1","","100.47","","","","-37","","NA"
"-115.14","67.82","KUGLUKTUK A","2300903","2019-12-27 13:00","2019","12","27","13:00","-25.3","","-29.4","","69","","","","30","","19","","24.1","","100.58","","","","-37","","NA"
"-115.14","67.82","KUGLUKTUK A","2300903","2019-12-27 14:00","2019","12","27","14:00","-26.0","","-30.1","","69","","","","30","","21","","24.1","","100.72","","","","-38","","Mostly Cloudy"
"-115.14","67.82","KUGLUKTUK A","2300903","2019-12-27 15:00","2019","12","27","15:00","-27.1","","-30.8","","72","","","","31","","16","","19.3","","100.84","","","","-38","","NA"
"-115.14","67.82","KUGLUKTUK A","2300903","2019-12-27 16:00","2019","12","27","16:00","-26.4","","-29.7","","74","","","","29","","12","","6.4","","100.97","","","","-36","","Snow"
"-115.14","67.82","KUGLUKTUK A","2300903","2019-12-27 17:00","2019","12","27","17:00","-27.5","","-31.0","","73","","","","32","","12","","9.7","","101.06","","","","-37","","Snow"
"-115.14","67.82","KUGLUKTUK A","2300903","2019-12-27 18:00","2019","12","27","18:00","-28.9","","-32.6","","71","","","","30","","10","","24.1","","101.12","","","","-38","","Ice Crystals"
"-115.14","67.82","KUGLUKTUK A","2300903","2019-12-27 19:00","2019","12","27","19:00","-30.0","","-34.0","","69","","","","30","","14","","24.1","","101.12","","","","-41","","Ice Crystals"
"-115.14","67.82","KUGLUKTUK A","2300903","2019-12-27 20:00","2019","12","27","20:00","-30.4","","-34.5","","68","","","","26","","15","","24.1","","101.21","","","","-42","","Clear"
"-115.14","67.82","KUGLUKTUK A","2300903","2019-12-27 21:00","2019","12","27","21:00","-28.5","","-32.6","","68","","","","27","","15","","24.1","","101.30","","","","-40","","NA"
"-115.14","67.82","KUGLUKTUK A","2300903","2019-12-27 22:00","2019","12","27","22:00","-27.3","","-32.0","","65","","","","32","","19","","24.1","","101.34","","","","-39","","Snow"
"-115.14","67.82","KUGLUKTUK A","2300903","2019-12-27 23:00","2019","12","27","23:00","-27.1","","-31.6","","67","","","","35","","14","","16.1","","101.42","","","","-37","","Snow"
"-115.14","67.82","KUGLUKTUK A","2300903","2019-12-28 00:00","2019","12","28","00:00","-27.4","","-32.3","","64","","","","32","","18","","16.1","","101.45","","","","-39","","Snow"
"-115.14","67.82","KUGLUKTUK A","2300903","2019-12-28 01:00","2019","12","28","01:00","-27.7","","-32.2","","66","","","","34","","20","","16.1","","101.47","","","","-40","","Snow"
"-115.14","67.82","KUGLUKTUK A","2300903","2019-12-28 02:00","2019","12","28","02:00","-27.3","","-31.2","","70","","","","33","","16","","6.4","","101.53","","","","-38","","Snow"
"-115.14","67.82","KUGLUKTUK A","2300903","2019-12-28 03:00","2019","12","28","03:00","-27.5","","-31.2","","71","","","","34","","17","","6.4","","101.47","","","","-39","","Snow"
"-115.14","67.82","KUGLUKTUK A","2300903","2019-12-28 04:00","2019","12","28","04:00","-27.4","","-31.1","","71","","","","34","","11","","6.4","","101.53","","","","-37","","Snow"
"-115.14","67.82","KUGLUKTUK A","2300903","2019-12-28 05:00","2019","12","28","05:00","-27.4","","-31.0","","72","","","","34","","10","","6.4","","101.50","","","","-36","","Snow"
"-115.14","67.82","KUGLUKTUK A","2300903","2019-12-28 06:00","2019","12","28","06:00","-28.2","","-32.0","","71","","","","27","","8","","24.1","","101.48","","","","-36","","Ice Crystals"
"-115.14","67.82","KUGLUKTUK A","2300903","2019-12-28 07:00","2019","12","28","07:00","-27.6","","-31.6","","69","","","","36","","2","","24.1","","101.43","","","","-30","","Ice Crystals"
"-115.14","67.82","KUGLUKTUK A","2300903","2019-12-28 08:00","2019","12","28","08:00","-27.4","","-31.9","","66","","","","35","","13","","19.3","","101.44","","","","-37","","Snow Grains,Ice Crystals"
"-115.14","67.82","KUGLUKTUK A","2300903","2019-12-28 09:00","2019","12","28","09:00","-27.6","","-32.3","","65","","","","35","","10","","19.3","","101.46","","","","-36","","Ice Crystals"
"-115.14","67.82","KUGLUKTUK A","2300903","2019-12-28 10:00","2019","12","28","10:00","-27.6","","-32.4","","64","","","","3","","10","","19.3","","101.37","","","","-36","","Ice Crystals"
"-115.14","67.82","KUGLUKTUK A","2300903","2019-12-28 11:00","2019","12","28","11:00","-27.9","","-32.2","","67","","","","3","","11","","19.3","","101.36","","","","-37","","Snow"
"-115.14","67.82","KUGLUKTUK A","2300903","2019-12-28 12:00","2019","12","28","12:00","-28.1","","-32.0","","70","","","","3","","15","","4.8","","101.28","","","","-39","","Snow,Fog"
"-115.14","67.82","KUGLUKTUK A","2300903","2019-12-28 13:00","2019","12","28","13:00","-28.2","","-32.3","","68","","","","2","","16","","9.7","","101.23","","","","-40","","Snow,Fog"
"-115.14","67.82","KUGLUKTUK A","2300903","2019-12-28 14:00","2019","12","28","14:00","-28.2","","-32.3","","69","","","","3","","14","","2.4","","101.19","","","","-39","","Snow,Fog"
"-115.14","67.82","KUGLUKTUK A","2300903","2019-12-28 15:00","2019","12","28","15:00","-28.0","","-31.7","","72","","","","5","","11","","2.4","","101.13","","","","-37","","Snow,Fog"
"-115.14","67.82","KUGLUKTUK A","2300903","2019-12-28 16:00","2019","12","28","16:00","-28.0","","-31.6","","72","","","","3","","14","","2.4","","101.07","","","","-39","","Snow,Fog"
"-115.14","67.82","KUGLUKTUK A","2300903","2019-12-28 17:00","2019","12","28","17:00","-27.9","","-31.5","","72","","","","2","","13","","2.4","","101.06","","","","-38","","Snow,Fog"
"-115.14","67.82","KUGLUKTUK A","2300903","2019-12-28 18:00","2019","12","28","18:00","-27.7","","-31.4","","72","","","","3","","18","","3.2","","100.97","","","","-40","","Snow,Fog"
"-115.14","67.82","KUGLUKTUK A","2300903","2019-12-28 19:00","2019","12","28","19:00","-27.6","","-31.4","","71","","","","1","","23","","3.2","","100.97","","","","-41","","Snow,Fog"
"-115.14","67.82","KUGLUKTUK A","2300903","2019-12-28 20:00","2019","12","28","20:00","-27.6","","-31.6","","70","","","","2","","19","","9.7","","100.92","","","","-40","","Snow"
"-115.14","67.82","KUGLUKTUK A","2300903","2019-12-28 21:00","2019","12","28","21:00","-27.4","","-31.3","","70","","","","36","","23","","8.1","","100.95","","","","-41","","Snow"
"-115.14","67.82","KUGLUKTUK A","2300903","2019-12-28 22:00","2019","12","28","22:00","-27.2","","-31.2","","70","","","","2","","24","","8.1","","100.91","","","","-41","","Snow"
"-115.14","67.82","KUGLUKTUK A","2300903","2019-12-28 23:00","2019","12","28","23:00","-27.0","","-30.8","","71","","","","36","","24","","8.1","","100.96","","","","-40","","Snow"
"-115.14","67.82","KUGLUKTUK A","2300903","2019-12-29 00:00","2019","12","29","00:00","-26.9","","-31.0","","69","","","","35","","20","","16.1","","101.04","","","","-39","","Snow"
"-115.14","67.82","KUGLUKTUK A","2300903","2019-12-29 01:00","2019","12","29","01:00","-27.3","","-31.2","","70","","","","34","","26","","12.9","","101.12","","","","-41","","Snow,Blowing Snow"
"-115.14","67.82","KUGLUKTUK A","2300903","2019-12-29 02:00","2019","12","29","02:00","-28.6","","-32.4","","70","","","","34","","23","","16.1","","101.20","","","","-42","","Ice Crystals"
"-115.14","67.82","KUGLUKTUK A","2300903","2019-12-29 03:00","2019","12","29","03:00","-28.8","","-32.8","","70","","","","33","","19","","24.1","","101.30","","","","-41","","Ice Crystals"
"-115.14","67.82","KUGLUKTUK A","2300903","2019-12-29 04:00","2019","12","29","04:00","-29.2","","-33.0","","70","","","","35","","19","","24.1","","101.37","","","","-42","","NA"
"-115.14","67.82","KUGLUKTUK A","2300903","2019-12-29 05:00","2019","12","29","05:00","-30.6","","-34.2","","71","","","","32","","13","","24.1","","101.48","","","","-41","","Clear"
"-115.14","67.82","KUGLUKTUK A","2300903","2019-12-29 06:00","2019","12","29","06:00","-32.6","","-36.5","","70","","","","22","","19","","24.1","","101.57","","","","-46","","NA"
"-115.14","67.82","KUGLUKTUK A","2300903","2019-12-29 07:00","2019","12","29","07:00","-33.9","","-37.5","","71","","","","23","","25","","24.1","","101.61","","","","-49","","NA"
"-115.14","67.82","KUGLUKTUK A","2300903","2019-12-29 08:00","2019","12","29","08:00","-35.0","","-38.6","","71","","","","22","","24","","24.1","","101.67","","","","-51","","Ice Crystals"
"-115.14","67.82","KUGLUKTUK A","2300903","2019-12-29 09:00","2019","12","29","09:00","-33.9","","-37.6","","70","","","","21","","20","","24.1","","101.73","","","","-48","","NA"
"-115.14","67.82","KUGLUKTUK A","2300903","2019-12-29 10:00","2019","12","29","10:00","-33.5","","-37.2","","70","","","","20","","18","","24.1","","101.76","","","","-47","","Ice Crystals"
"-115.14","67.82","KUGLUKTUK A","2300903","2019-12-29 11:00","2019","12","29","11:00","-33.6","","-37.7","","67","","","","20","","20","","24.1","","101.82","","","","-48","","Ice Crystals"
"-115.14","67.82","KUGLUKTUK A","2300903","2019-12-29 12:00","2019","12","29","12:00","-33.7","","-37.7","","68","","","","22","","23","","24.1","","101.83","","","","-49","","Ice Crystals"
"-115.14","67.82","KUGLUKTUK A","2300903","2019-12-29 13:00","2019","12","29","13:00","-34.2","","-38.2","","68","","","","22","","17","","24.1","","101.88","","","","-47","","NA"
"-115.14","67.82","KUGLUKTUK A","2300903","2019-12-29 14:00","2019","12","29","14:00","-34.0","","-38.1","","67","","","","22","","21","","24.1","","101.90","","","","-48","","Mainly Clear"
"-115.14","67.82","KUGLUKTUK A","2300903","2019-12-29 15:00","2019","12","29","15:00","-33.0","","-37.2","","67","","","","21","","21","","24.1","","101.90","","","","-47","","NA"
"-115.14","67.82","KUGLUKTUK A","2300903","2019-12-29 16:00","2019","12","29","16:00","-33.0","","-37.6","","64","","","","22","","22","","24.1","","101.92","","","","-47","","NA"
"-115.14","67.82","KUGLUKTUK A","2300903","2019-12-29 17:00","2019","12","29","17:00","-32.6","","-37.0","","66","","","","23","","24","","24.1","","101.92","","","","-48","","Clear"
"-115.14","67.82","KUGLUKTUK A","2300903","2019-12-29 18:00","2019","12","29","18:00","-32.8","","-37.3","","65","","","","22","","9","","24.1","","101.90","","","","-42","","NA"
"-115.14","67.82","KUGLUKTUK A","2300903","2019-12-29 19:00","2019","12","29","19:00","-29.9","","-34.9","","63","","","","22","","16","","24.1","","101.84","","","","-42","","NA"
"-115.14","67.82","KUGLUKTUK A","2300903","2019-12-29 20:00","2019","12","29","20:00","-30.5","","-35.4","","63","","","","36","","2","","24.1","","101.78","","","","-33","","Mostly Cloudy"
"-115.14","67.82","KUGLUKTUK A","2300903","2019-12-29 21:00","2019","12","29","21:00","-29.7","","-35.0","","61","","","","21","","26","","24.1","","101.79","","","","-44","","NA"
"-115.14","67.82","KUGLUKTUK A","2300903","2019-12-29 22:00","2019","12","29","22:00","-29.5","","-35.0","","60","","","","23","","27","","24.1","","101.75","","","","-44","","Blowing Snow"
"-115.14","67.82","KUGLUKTUK A","2300903","2019-12-29 23:00","2019","12","29","23:00","-29.4","","-34.6","","61","","","","21","","19","","24.1","","101.67","","","","-42","","Blowing Snow"
"-115.14","67.82","KUGLUKTUK A","2300903","2019-12-30 00:00","2019","12","30","00:00","-26.9","","-32.1","","62","","","","22","","20","","24.1","","101.66","","","","-39","","Blowing Snow"
"-115.14","67.82","KUGLUKTUK A","2300903","2019-12-30 01:00","2019","12","30","01:00","-27.0","","-32.1","","63","","","","22","","7","","24.1","","101.49","","","","-34","","NA"
"-115.14","67.82","KUGLUKTUK A","2300903","2019-12-30 02:00","2019","12","30","02:00","-26.0","","-31.1","","63","","","","18","","10","","24.1","","101.36","","","","-34","","Cloudy"
"-115.14","67.82","KUGLUKTUK A","2300903","2019-12-30 03:00","2019","12","30","03:00","-24.0","","-29.5","","61","","","","19","","17","","24.1","","101.18","","","","-35","","NA"
"-115.14","67.82","KUGLUKTUK A","2300903","2019-12-30 04:00","2019","12","30","04:00","-24.6","","-29.5","","65","","","","19","","7","","24.1","","101.02","","","","-31","","NA"
"-115.14","67.82","KUGLUKTUK A","2300903","2019-12-30 05:00","2019","12","30","05:00","-24.5","","-29.3","","65","","","","17","","16","","24.1","","100.81","","","","-35","","Mostly Cloudy"
"-115.14","67.82","KUGLUKTUK A","2300903","2019-12-30 06:00","2019","12","30","06:00","-24.0","","-28.8","","65","","","","18","","9","","24.1","","100.70","","","","-31","","Snow"
"-115.14","67.82","KUGLUKTUK A","2300903","2019-12-30 07:00","2019","12","30","07:00","-23.3","","-28.1","","66","","","","18","","17","","24.1","","100.48","","","","-34","","Snow"
"-115.14","67.82","KUGLUKTUK A","2300903","2019-12-30 08:00","2019","12","30","08:00","-23.2","","-27.7","","67","","","","23","","6","","24.1","","100.37","","","","-29","","Ice Crystals"
"-115.14","67.82","KUGLUKTUK A","2300903","2019-12-30 09:00","2019","12","30","09:00","-22.9","","-27.1","","69","","","","21","","23","","24.1","","100.24","","","","-35","","Ice Crystals"
"-115.14","67.82","KUGLUKTUK A","2300903","2019-12-30 10:00","2019","12","30","10:00","-23.2","","-27.4","","69","","","","21","","24","","24.1","","100.16","","","","-36","","Ice Crystals,Blowing Snow"
"-115.14","67.82","KUGLUKTUK A","2300903","2019-12-30 11:00","2019","12","30","11:00","-23.4","","-27.4","","70","","","","21","","18","","24.1","","100.04","","","","-34","","Ice Crystals,Blowing Snow"
"-115.14","67.82","KUGLUKTUK A","2300903","2019-12-30 12:00","2019","12","30","12:00","-23.3","","-27.3","","70","","","","22","","17","","24.1","","99.95","","","","-34","","NA"
"-115.14","67.82","KUGLUKTUK A","2300903","2019-12-30 13:00","2019","12","30","13:00","-23.2","","-27.3","","70","","","","24","","9","","24.1","","99.88","","","","-31","","NA"
"-115.14","67.82","KUGLUKTUK A","2300903","2019-12-30 14:00","2019","12","30","14:00","-23.6","","-27.4","","71","","","","31","","5","","24.1","","99.83","","","","-28","","Cloudy"
"-115.14","67.82","KUGLUKTUK A","2300903","2019-12-30 15:00","2019","12","30","15:00","-24.6","","-28.2","","73","","","","34","","6","","24.1","","99.82","","","","-30","","NA"
"-115.14","67.82","KUGLUKTUK A","2300903","2019-12-30 16:00","2019","12","30","16:00","-24.3","","-27.6","","74","","","","11","","5","","24.1","","99.77","","","","-29","","NA"
"-115.14","67.82","KUGLUKTUK A","2300903","2019-12-30 17:00","2019","12","30","17:00","-26.4","","-29.3","","77","","","","30","","7","","24.1","","99.77","","","","-33","","Mainly Clear"
"-115.14","67.82","KUGLUKTUK A","2300903","2019-12-30 18:00","2019","12","30","18:00","-26.8","","-29.6","","77","","","","33","","5","","24.1","","99.73","","","","-32","","Ice Crystals"
"-115.14","67.82","KUGLUKTUK A","2300903","2019-12-30 19:00","2019","12","30","19:00","-26.1","","-29.1","","77","","","","35","","3","","24.1","","99.71","","","","-29","","Ice Crystals"
"-115.14","67.82","KUGLUKTUK A","2300903","2019-12-30 20:00","2019","12","30","20:00","-26.5","","-29.3","","78","","","","32","","4","","24.1","","99.66","","","","-31","","Ice Crystals"
"-115.14","67.82","KUGLUKTUK A","2300903","2019-12-30 21:00","2019","12","30","21:00","-26.4","","-29.7","","74","","","","30","","5","","24.1","","99.65","","","","-32","","Ice Crystals"
"-115.14","67.82","KUGLUKTUK A","2300903","2019-12-30 22:00","2019","12","30","22:00","-28.1","","-31.3","","74","","","","29","","13","","24.1","","99.73","","","","-38","","Ice Crystals"
"-115.14","67.82","KUGLUKTUK A","2300903","2019-12-30 23:00","2019","12","30","23:00","-28.7","","-31.8","","75","","","","25","","7","","24.1","","99.71","","","","-36","","Ice Crystals"
"-115.14","67.82","KUGLUKTUK A","2300903","2019-12-31 00:00","2019","12","31","00:00","-28.5","","-31.6","","76","","","","23","","8","","24.1","","99.70","","","","-36","","Ice Crystals"
"-115.14","67.82","KUGLUKTUK A","2300903","2019-12-31 01:00","2019","12","31","01:00","-28.9","","-31.8","","76","","","","24","","7","","24.1","","99.72","","","","-36","","Ice Crystals"
"-115.14","67.82","KUGLUKTUK A","2300903","2019-12-31 02:00","2019","12","31","02:00","-27.8","","-30.9","","76","","","","28","","7","","24.1","","99.77","","","","-35","","Ice Crystals"
"-115.14","67.82","KUGLUKTUK A","2300903","2019-12-31 03:00","2019","12","31","03:00","-29.7","","-32.9","","74","","","","23","","9","","24.1","","99.81","","","","-38","","Ice Crystals"
"-115.14","67.82","KUGLUKTUK A","2300903","2019-12-31 04:00","2019","12","31","04:00","-29.7","","-33.0","","74","","","","23","","14","","24.1","","99.86","","","","-41","","Ice Crystals"
"-115.14","67.82","KUGLUKTUK A","2300903","2019-12-31 05:00","2019","12","31","05:00","-29.0","","-32.1","","75","","","","23","","10","","24.1","","99.83","","","","-38","","Ice Crystals"
"-115.14","67.82","KUGLUKTUK A","2300903","2019-12-31 06:00","2019","12","31","06:00","-29.5","","-32.5","","75","","","","22","","14","","24.1","","99.81","","","","-40","","Ice Crystals"
"-115.14","67.82","KUGLUKTUK A","2300903","2019-12-31 07:00","2019","12","31","07:00","-29.2","","-32.3","","75","","","","36","","2","","24.1","","99.83","","","","-31","","Ice Crystals"
"-115.14","67.82","KUGLUKTUK A","2300903","2019-12-31 08:00","2019","12","31","08:00","-28.3","","-31.6","","74","","","","28","","6","","19.3","","99.85","","","","-35","","Ice Crystals"
"-115.14","67.82","KUGLUKTUK A","2300903","2019-12-31 09:00","2019","12","31","09:00","-27.3","","-30.5","","75","","","","34","","4","","19.3","","99.88","","","","-32","","Snow"
"-115.14","67.82","KUGLUKTUK A","2300903","2019-12-31 10:00","2019","12","31","10:00","-27.0","","-30.1","","76","","","","12","","8","","19.3","","99.85","","","","-34","","Snow"
"-115.14","67.82","KUGLUKTUK A","2300903","2019-12-31 11:00","2019","12","31","11:00","-26.5","","-29.6","","75","","","","10","","8","","24.1","","99.83","","","","-34","","Snow"
"-115.14","67.82","KUGLUKTUK A","2300903","2019-12-31 12:00","2019","12","31","12:00","-25.6","","-28.8","","75","","","","6","","7","","24.1","","99.86","","","","-32","","Snow"
"-115.14","67.82","KUGLUKTUK A","2300903","2019-12-31 13:00","2019","12","31","13:00","-25.7","","-28.8","","76","","","","7","","4","","24.1","","99.87","","","","-30","","NA"
"-115.14","67.82","KUGLUKTUK A","2300903","2019-12-31 14:00","2019","12","31","14:00","-25.4","","-28.5","","76","","","","7","","4","","24.1","","99.86","","","","-29","","Mostly Cloudy"
"-115.14","67.82","KUGLUKTUK A","2300903","2019-12-31 15:00","2019","12","31","15:00","-25.4","","-28.4","","77","","","","10","","13","","24.1","","99.82","","","","-35","","NA"
"-115.14","67.82","KUGLUKTUK A","2300903","2019-12-31 16:00","2019","12","31","16:00","-25.4","","-28.3","","77","","","","11","","14","","24.1","","99.82","","","","-35","","NA"
"-115.14","67.82","KUGLUKTUK A","2300903","2019-12-31 17:00","2019","12","31","17:00","-26.0","","-28.8","","77","","","","5","","6","","24.1","","99.82","","","","-32","","Ice Crystals"
"-115.14","67.82","KUGLUKTUK A","2300903","2019-12-31 18:00","2019","12","31","18:00","-25.6","","-28.4","","78","","","","8","","6","","24.1","","99.78","","","","-31","","Ice Crystals"
"-115.14","67.82","KUGLUKTUK A","2300903","2019-12-31 19:00","2019","12","31","19:00","-27.3","","-30.3","","77","","","","17","","9","","24.1","","99.71","","","","-35","","Ice Crystals"
"-115.14","67.82","KUGLUKTUK A","2300903","2019-12-31 20:00","2019","12","31","20:00","-26.0","","-28.7","","79","","","","0","","1","","24.1","","99.68","","","","-27","","Ice Crystals"
"-115.14","67.82","KUGLUKTUK A","2300903","2019-12-31 21:00","2019","12","31","21:00","-25.4","","-28.0","","79","","","","36","","1","","24.1","","99.62","","","","-26","","Ice Crystals"
"-115.14","67.82","KUGLUKTUK A","2300903","2019-12-31 22:00","2019","12","31","22:00","-27.4","","-30.2","","77","","","","29","","7","","24.1","","99.63","","","","-34","","Ice Crystals"
"-115.14","67.82","KUGLUKTUK A","2300903","2019-12-31 23:00","2019","12","31","23:00","-27.1","","-30.0","","77","","","","27","","19","","24.1","","99.65","","","","-39","","Ice Crystals"
