"Longitude (x)","Latitude (y)","Station Name","Climate ID","Date/Time (LST)","Year","Month","Day","Time (LST)","Temp (°C)","Temp Flag","Dew Point Temp (°C)","Dew Point Temp Flag","Rel Hum (%)","Rel Hum Flag","Precip. Amount (mm)","Precip. Amount Flag","Wind Dir (10s deg)","Wind Dir Flag","Wind Spd (km/h)","Wind Spd Flag","Visibility (km)","Visibility Flag","Stn Press (kPa)","Stn Press Flag","Hmdx","Hmdx Flag","Wind Chill","Wind Chill Flag","Weather"
"-65.89","45.32","SAINT JOHN A","8104901","2023-05-01 00:00","2023","05","01","00:00","5.2","","-0.6","","66","","","","10","","41","","24.1","","100.05","","","","","","NA"
"-65.89","45.32","SAINT JOHN A","8104901","2023-05-01 01:00","2023","05","01","01:00","4.9","","-1.0","","66","","","","10","","35","","24.1","","99.94","","","","","","NA"
"-65.89","45.32","SAINT JOHN A","8104901","2023-05-01 02:00","2023","05","01","02:00","5.2","","-0.2","","68","","","","10","","39","","24.1","","99.83","","","","","","Cloudy"
"-65.89","45.32","SAINT JOHN A","8104901","2023-05-01 03:00","2023","05","01","03:00","5.1","","1.3","","76","","","","10","","40","","24.1","","99.66","","","","","","NA"
"-65.89","45.32","SAINT JOHN A","8104901","2023-05-01 04:00","2023","05","01","04:00","5.1","","1.6","","78","","","","11","","32","","24.1","","99.54","","","","","","NA"
"-65.89","45.32","SAINT JOHN A","8104901","2023-05-01 05:00","2023","05","01","05:00","5.2","","2.0","","80","","","","10","","44","","24.1","","99.40","","","","","","Cloudy"
"-65.89","45.32","SAINT JOHN A","8104901","2023-05-01 06:00","2023","05","01","06:00","5.3","","3.7","","89","","","","10","","51","","16.1","","99.22","","","","","","Rain"
"-65.89","45.32","SAINT JOHN A","8104901","2023-05-01 07:00","2023","05","01","07:00","5.4","","4.8","","96","","","","10","","49","","9.7","","99.14","","","","","","Rain"
"-65.89","45.32","SAINT JOHN A","8104901","2023-05-01 08:00","2023","05","01","08:00","6.2","","6.2","","100","","","","10","","46","","9.7","","99.02","","","","","","Rain"
"-65.89","45.32","SAINT JOHN A","8104901","2023-05-01 09:00","2023","05","01","09:00","6.9","","6.9","","100","","","","10","","48","","6.4","","98.86","","","","","","Moderate Rain"
"-65.89","45.32","SAINT JOHN A","8104901","2023-05-01 10:00","2023","05","01","10:00","7.4","","7.4","","100","","","","9","","42","","8.1","","98.82","","","","","","Moderate Rain"
"-65.89","45.32","SAINT JOHN A","8104901","2023-05-01 11:00","2023","05","01","11:00","8.2","","8.2","","100","","","","10","","46","","6.4","","98.75","","","","","","Moderate Rain"
"-65.89","45.32","SAINT JOHN A","8104901","2023-05-01 12:00","2023","05","01","12:00","8.4","","8.4","","100","","","","10","","40","","4.8","","98.72","","","","","","Moderate Rain"
"-65.89","45.32","SAINT JOHN A","8104901","2023-05-01 13:00","2023","05","01","13:00","9.3","","9.3","","100","","","","11","","27","","8.1","","98.65","","","","","","Moderate Rain"
"-65.89","45.32","SAINT JOHN A","8104901","2023-05-01 14:00","2023","05","01","14:00","9.1","","9.0","","99","","","","11","","38","","4.8","","98.65","","","","","","Rain"
"-65.89","45.32","SAINT JOHN A","8104901","2023-05-01 15:00","2023","05","01","15:00","9.3","","9.2","","99","","","","11","","26","","24.1","","98.68","","","","","","NA"
"-65.89","45.32","SAINT JOHN A","8104901","2023-05-01 16:00","2023","05","01","16:00","9.4","","8.8","","96","","","","11","","26","","2.4","","98.68","","","","","","Drizzle,Fog"
"-65.89","45.32","SAINT JOHN A","8104901","2023-05-01 17:00","2023","05","01","17:00","9.5","","9.0","","96","","","","11","","25","","3.2","","98.73","","","","","","Drizzle,Fog"
"-65.89","45.32","SAINT JOHN A","8104901","2023-05-01 18:00","2023","05","01","18:00","8.9","","8.2","","95","","","","10","","23","","16.1","","98.78","","","","","","NA"
"-65.89","45.32","SAINT JOHN A","8104901","2023-05-01 19:00","2023","05","01","19:00","8.7","","7.9","","95","","","","10","","23","","19.3","","98.82","","","","","","NA"
"-65.89","45.32","SAINT JOHN A","8104901","2023-05-01 20:00","2023","05","01","20:00","8.3","","7.7","","95","","","","11","","21","","19.3","","98.92","","","","","","Mostly Cloudy"
"-65.89","45.32","SAINT JOHN A","8104901","2023-05-01 21:00","2023","05","01","21:00","7.9","","7.5","","97","","","","11","","19","","4.8","","99.00","","","","","","Drizzle,Fog"
"-65.89","45.32","SAINT JOHN A","8104901","2023-05-01 22:00","2023","05","01","22:00","7.5","","7.5","","100","","","","11","","21","","4.8","","99.01","","","","","","Drizzle,Fog"
"-65.89","45.32","SAINT JOHN A","8104901","2023-05-01 23:00","2023","05","01","23:00","7.3","","7.3","","100","","","","13","","18","","8.1","","99.05","","","","","","Fog"
"-65.89","45.32","SAINT JOHN A","8104901","2023-05-02 00:00","2023","05","02","00:00","7.0","","7.0","","100","","","","13","","22","","9.7","","99.06","","","","","","Fog"
"-65.89","45.32","SAINT JOHN A","8104901","2023-05-02 01:00","2023","05","02","01:00","6.8","","6.8","","100","","","","11","","14","","4.8","","99.02","","","","","","Fog"
"-65.89","45.32","SAINT JOHN A","8104901","2023-05-02 02:00","2023","05","02","02:00","6.8","","6.8","","100","","","","13","","17","","4.8","","99.08","","","","","","Fog"
"-65.89","45.32","SAINT JOHN A","8104901","2023-05-02 03:00","2023","05","02","03:00","6.4","","6.4","","100","","","","9","","11","","6.4","","99.04","","","","","","Fog"
"-65.89","45.32","SAINT JOHN A","8104901","2023-05-02 04:00","2023","05","02","04:00","6.6","","6.6","","100","","","","11","","13","","6.4","","99.06","","","","","","Fog"
"-65.89","45.32","SAINT JOHN A","8104901","2023-05-02 05:00","2023","05","02","05:00","6.5","","6.5","","100","","","","11","","12","","4.8","","99.04","","","","","","Fog"
"-65.89","45.32","SAINT JOHN A","8104901","2023-05-02 06:00","2023","05","02","06:00","6.3","","6.3","","100","","","","9","","15","","2.4","","99.06","","","","","","Fog"
"-65.89","45.32","SAINT JOHN A","8104901","2023-05-02 07:00","2023","05","02","07:00","6.8","","6.8","","100","","","","9","","17","","6.4","","99.08","","","","","","Fog"
"-65.89","45.32","SAINT JOHN A","8104901","2023-05-02 08:00","2023","05","02","08:00","7.2","","7.2","","100","","","","8","","20","","8.1","","99.06","","","","","","Fog"
"-65.89","45.32","SAINT JOHN A","8104901","2023-05-02 09:00","2023","05","02","09:00","7.9","","7.1","","95","","","","9","","17","","19.3","","99.13","","","","","","NA"
"-65.89","45.32","SAINT JOHN A","8104901","2023-05-02 10:00","2023","05","02","10:00","7.8","","6.2","","90","","","","9","","21","","24.1","","99.18","","","","","","NA"
"-65.89","45.32","SAINT JOHN A","8104901","2023-05-02 11:00","2023","05","02","11:00","7.9","","6.0","","87","","","","9","","26","","24.1","","99.15","","","","","","Cloudy"
"-65.89","45.32","SAINT JOHN A","8104901","2023-05-02 12:00","2023","05","02","12:00","10.2","","6.9","","80","","","","9","","24","","24.1","","99.10","","","","","","NA"
"-65.89","45.32","SAINT JOHN A","8104901","2023-05-02 13:00","2023","05","02","13:00","11.1","","6.8","","75","","","","9","","21","","24.1","","99.00","","","","","","NA"
"-65.89","45.32","SAINT JOHN A","8104901","2023-05-02 14:00","2023","05","02","14:00","10.3","","6.8","","78","","","","10","","19","","24.1","","99.02","","","","","","Cloudy"
"-65.89","45.32","SAINT JOHN A","8104901","2023-05-02 15:00","2023","05","02","15:00","11.4","","6.7","","73","","","","10","","11","","24.1","","98.98","","","","","","NA"
"-65.89","45.32","SAINT JOHN A","8104901","2023-05-02 16:00","2023","05","02","16:00","11.1","","6.6","","74","","","","10","","21","","24.1","","98.92","","","","","","NA"
"-65.89","45.32","SAINT JOHN A","8104901","2023-05-02 17:00","2023","05","02","17:00","9.8","","6.1","","78","","","","11","","22","","24.1","","98.96","","","","","","Mostly Cloudy"
"-65.89","45.32","SAINT JOHN A","8104901","2023-05-02 18:00","2023","05","02","18:00","8.1","","5.8","","85","","","","9","","25","","24.1","","98.98","","","","","","NA"
"-65.89","45.32","SAINT JOHN A","8104901","2023-05-02 19:00","2023","05","02","19:00","6.8","","5.3","","90","","","","8","","21","","24.1","","99.01","","","","","","NA"
"-65.89","45.32","SAINT JOHN A","8104901","2023-05-02 20:00","2023","05","02","20:00","6.0","","4.9","","93","","","","8","","21","","16.1","","99.05","","","","","","Cloudy"
"-65.89","45.32","SAINT JOHN A","8104901","2023-05-02 21:00","2023","05","02","21:00","5.5","","4.8","","95","","","","8","","20","","9.7","","99.09","","","","","","Drizzle,Fog"
"-65.89","45.32","SAINT JOHN A","8104901","2023-05-02 22:00","2023","05","02","22:00","5.1","","4.3","","95","","","","7","","19","","9.7","","99.07","","","","","","Drizzle,Fog"
"-65.89","45.32","SAINT JOHN A","8104901","2023-05-02 23:00","2023","05","02","23:00","4.8","","4.4","","97","","","","7","","17","","9.7","","99.09","","","","","","Drizzle,Fog"
"-65.89","45.32","SAINT JOHN A","8104901","2023-05-03 00:00","2023","05","03","00:00","4.6","","4.6","","100","","","","7","","12","","4.0","","99.09","","","","","","Drizzle,Fog"
"-65.89","45.32","SAINT JOHN A","8104901","2023-05-03 01:00","2023","05","03","01:00","4.4","","4.4","","100","","","","8","","16","","4.8","","99.10","","","","","","Drizzle,Fog"
"-65.89","45.32","SAINT JOHN A","8104901","2023-05-03 02:00","2023","05","03","02:00","3.9","","3.9","","100","","","","7","","14","","12.9","","99.10","","","","","","Cloudy"
"-65.89","45.32","SAINT JOHN A","8104901","2023-05-03 03:00","2023","05","03","03:00","4.0","","4.0","","100","","","","6","","8","","12.9","","99.08","","","","","","NA"
"-65.89","45.32","SAINT JOHN A","8104901","2023-05-03 04:00","2023","05","03","04:00","3.9","","3.9","","100","","","","6","","17","","8.1","","99.09","","","","","","Drizzle,Fog"
"-65.89","45.32","SAINT JOHN A","8104901","2023-05-03 05:00","2023","05","03","05:00","3.6","","3.6","","100","","","","7","","17","","8.1","","99.10","","","","","","Drizzle,Fog"
"-65.89","45.32","SAINT JOHN A","8104901","2023-05-03 06:00","2023","05","03","06:00","3.6","","3.6","","100","","","","6","","18","","9.7","","99.14","","","","","","Drizzle,Fog"
"-65.89","45.32","SAINT JOHN A","8104901","2023-05-03 07:00","2023","05","03","07:00","4.0","","3.7","","98","","","","8","","17","","9.7","","99.17","","","","","","Drizzle,Fog"
"-65.89","45.32","SAINT JOHN A","8104901","2023-05-03 08:00","2023","05","03","08:00","4.4","","3.9","","97","","","","7","","23","","9.7","","99.21","","","","","","Drizzle,Fog"
"-65.89","45.32","SAINT JOHN A","8104901","2023-05-03 09:00","2023","05","03","09:00","4.8","","4.1","","95","","","","7","","24","","8.1","","99.26","","","","","","Drizzle,Fog"
"-65.89","45.32","SAINT JOHN A","8104901","2023-05-03 10:00","2023","05","03","10:00","4.9","","3.8","","93","","","","7","","27","","9.7","","99.34","","","","","","Drizzle,Fog"
"-65.89","45.32","SAINT JOHN A","8104901","2023-05-03 11:00","2023","05","03","11:00","6.1","","4.5","","89","","","","8","","23","","24.1","","99.38","","","","","","Cloudy"
"-65.89","45.32","SAINT JOHN A","8104901","2023-05-03 12:00","2023","05","03","12:00","6.4","","4.2","","85","","","","8","","19","","24.1","","99.38","","","","","","NA"
"-65.89","45.32","SAINT JOHN A","8104901","2023-05-03 13:00","2023","05","03","13:00","6.1","","4.4","","89","","","","9","","22","","8.1","","99.42","","","","","","Drizzle"
"-65.89","45.32","SAINT JOHN A","8104901","2023-05-03 14:00","2023","05","03","14:00","5.9","","3.8","","86","","","","9","","15","","16.1","","99.46","","","","","","Cloudy"
"-65.89","45.32","SAINT JOHN A","8104901","2023-05-03 15:00","2023","05","03","15:00","5.9","","3.0","","82","","","","7","","20","","24.1","","99.48","","","","","","NA"
"-65.89","45.32","SAINT JOHN A","8104901","2023-05-03 16:00","2023","05","03","16:00","6.9","","2.6","","74","","","","7","","21","","24.1","","99.45","","","","","","NA"
"-65.89","45.32","SAINT JOHN A","8104901","2023-05-03 17:00","2023","05","03","17:00","5.8","","2.1","","77","","","","9","","17","","24.1","","99.50","","","","","","Cloudy"
"-65.89","45.32","SAINT JOHN A","8104901","2023-05-03 18:00","2023","05","03","18:00","5.4","","1.9","","78","","","","7","","18","","24.1","","99.55","","","","","","NA"
"-65.89","45.32","SAINT JOHN A","8104901","2023-05-03 19:00","2023","05","03","19:00","4.5","","1.0","","78","","","","5","","23","","24.1","","99.61","","","","","","NA"
"-65.89","45.32","SAINT JOHN A","8104901","2023-05-03 20:00","2023","05","03","20:00","3.8","","1.3","","84","","","","3","","12","","24.1","","99.65","","","","","","Cloudy"
"-65.89","45.32","SAINT JOHN A","8104901","2023-05-03 21:00","2023","05","03","21:00","3.1","","1.4","","88","","","","3","","17","","24.1","","99.68","","","","","","NA"
"-65.89","45.32","SAINT JOHN A","8104901","2023-05-03 22:00","2023","05","03","22:00","2.8","","1.2","","89","","","","3","","17","","24.1","","99.69","","","","","","NA"
"-65.89","45.32","SAINT JOHN A","8104901","2023-05-03 23:00","2023","05","03","23:00","2.8","","1.1","","89","","","","4","","14","","24.1","","99.70","","","","","","Cloudy"
"-65.89","45.32","SAINT JOHN A","8104901","2023-05-04 00:00","2023","05","04","00:00","2.8","","1.2","","89","","","","3","","14","","24.1","","99.71","","","","","","NA"
"-65.89","45.32","SAINT JOHN A","8104901","2023-05-04 01:00","2023","05","04","01:00","2.8","","1.4","","90","","","","3","","13","","24.1","","99.69","","","","","","NA"
"-65.89","45.32","SAINT JOHN A","8104901","2023-05-04 02:00","2023","05","04","02:00","3.0","","1.6","","91","","","","3","","16","","24.1","","99.69","","","","","","Cloudy"
"-65.89","45.32","SAINT JOHN A","8104901","2023-05-04 03:00","2023","05","04","03:00","3.1","","1.6","","90","","","","3","","17","","24.1","","99.67","","","","","","NA"
"-65.89","45.32","SAINT JOHN A","8104901","2023-05-04 04:00","2023","05","04","04:00","3.4","","2.0","","90","","","","4","","21","","24.1","","99.65","","","","","","NA"
"-65.89","45.32","SAINT JOHN A","8104901","2023-05-04 05:00","2023","05","04","05:00","3.3","","2.1","","92","","","","4","","19","","24.1","","99.72","","","","","","Cloudy"
"-65.89","45.32","SAINT JOHN A","8104901","2023-05-04 06:00","2023","05","04","06:00","3.7","","2.4","","92","","","","2","","20","","24.1","","99.74","","","","","","NA"
"-65.89","45.32","SAINT JOHN A","8104901","2023-05-04 07:00","2023","05","04","07:00","4.3","","2.8","","90","","","","3","","21","","24.1","","99.77","","","","","","NA"
"-65.89","45.32","SAINT JOHN A","8104901","2023-05-04 08:00","2023","05","04","08:00","6.3","","3.8","","84","","","","2","","23","","24.1","","99.80","","","","","","Cloudy"
"-65.89","45.32","SAINT JOHN A","8104901","2023-05-04 09:00","2023","05","04","09:00","6.6","","3.3","","79","","","","2","","27","","24.1","","99.81","","","","","","NA"
"-65.89","45.32","SAINT JOHN A","8104901","2023-05-04 10:00","2023","05","04","10:00","6.2","","4.5","","89","","","","2","","25","","9.7","","99.82","","","","","","Rain"
"-65.89","45.32","SAINT JOHN A","8104901","2023-05-04 11:00","2023","05","04","11:00","6.2","","5.3","","94","","","","2","","17","","9.7","","99.84","","","","","","Rain"
"-65.89","45.32","SAINT JOHN A","8104901","2023-05-04 12:00","2023","05","04","12:00","7.8","","6.3","","90","","","","3","","27","","19.3","","99.81","","","","","","Rain"
"-65.89","45.32","SAINT JOHN A","8104901","2023-05-04 13:00","2023","05","04","13:00","7.9","","6.2","","89","","","","3","","28","","19.3","","99.82","","","","","","Rain"
"-65.89","45.32","SAINT JOHN A","8104901","2023-05-04 14:00","2023","05","04","14:00","7.9","","6.0","","88","","","","3","","34","","19.3","","99.86","","","","","","Rain"
"-65.89","45.32","SAINT JOHN A","8104901","2023-05-04 15:00","2023","05","04","15:00","7.4","","5.9","","91","","","","2","","32","","16.1","","99.87","","","","","","Rain"
"-65.89","45.32","SAINT JOHN A","8104901","2023-05-04 16:00","2023","05","04","16:00","6.9","","5.5","","91","","","","2","","31","","24.1","","99.90","","","","","","Rain"
"-65.89","45.32","SAINT JOHN A","8104901","2023-05-04 17:00","2023","05","04","17:00","6.3","","5.3","","93","","","","1","","30","","24.1","","99.96","","","","","","Rain"
"-65.89","45.32","SAINT JOHN A","8104901","2023-05-04 18:00","2023","05","04","18:00","5.8","","4.8","","93","","","","1","","34","","24.1","","100.02","","","","","","Rain"
"-65.89","45.32","SAINT JOHN A","8104901","2023-05-04 19:00","2023","05","04","19:00","5.0","","4.1","","94","","","","1","","32","","24.1","","100.09","","","","","","Rain"
"-65.89","45.32","SAINT JOHN A","8104901","2023-05-04 20:00","2023","05","04","20:00","4.5","","3.7","","95","","","","2","","31","","16.1","","100.18","","","","","","Rain"
"-65.89","45.32","SAINT JOHN A","8104901","2023-05-04 21:00","2023","05","04","21:00","4.3","","3.3","","94","","","","1","","30","","24.1","","100.24","","","","","","NA"
"-65.89","45.32","SAINT JOHN A","8104901","2023-05-04 22:00","2023","05","04","22:00","3.9","","3.2","","96","","","","36","","30","","24.1","","100.30","","","","","","NA"
"-65.89","45.32","SAINT JOHN A","8104901","2023-05-04 23:00","2023","05","04","23:00","4.0","","3.8","","99","","","","1","","33","","24.1","","100.34","","","","","","Cloudy"
"-65.89","45.32","SAINT JOHN A","8104901","2023-05-05 00:00","2023","05","05","00:00","4.2","","3.4","","94","","","","36","","28","","12.9","","100.38","","","","","","NA"
"-65.89","45.32","SAINT JOHN A","8104901","2023-05-05 01:00","2023","05","05","01:00","3.9","","2.9","","93","","","","36","","29","","24.1","","100.40","","","","","","NA"
"-65.89","45.32","SAINT JOHN A","8104901","2023-05-05 02:00","2023","05","05","02:00","3.7","","2.5","","92","","","","2","","22","","24.1","","100.46","","","","","","Cloudy"
"-65.89","45.32","SAINT JOHN A","8104901","2023-05-05 03:00","2023","05","05","03:00","3.7","","2.4","","91","","","","2","","23","","24.1","","100.47","","","","","","NA"
"-65.89","45.32","SAINT JOHN A","8104901","2023-05-05 04:00","2023","05","05","04:00","3.6","","2.0","","90","","","","2","","30","","24.1","","100.46","","","","","","NA"
"-65.89","45.32","SAINT JOHN A","8104901","2023-05-05 05:00","2023","05","05","05:00","3.3","","1.6","","88","","","","36","","44","","24.1","","100.45","","","","","","Cloudy"
"-65.89","45.32","SAINT JOHN A","8104901","2023-05-05 06:00","2023","05","05","06:00","3.3","","1.4","","87","","","","36","","34","","24.1","","100.52","","","","","","NA"
"-65.89","45.32","SAINT JOHN A","8104901","2023-05-05 07:00","2023","05","05","07:00","3.7","","0.8","","81","","","","1","","36","","24.1","","100.60","","","","","","NA"
"-65.89","45.32","SAINT JOHN A","8104901","2023-05-05 08:00","2023","05","05","08:00","5.1","","1.0","","74","","","","1","","31","","24.1","","100.66","","","","","","Mainly Clear"
"-65.89","45.32","SAINT JOHN A","8104901","2023-05-05 09:00","2023","05","05","09:00","6.1","","0.6","","68","","","","1","","39","","24.1","","100.65","","","","","","NA"
"-65.89","45.32","SAINT JOHN A","8104901","2023-05-05 10:00","2023","05","05","10:00","7.4","","1.1","","64","","","","2","","39","","24.1","","100.70","","","","","","NA"
"-65.89","45.32","SAINT JOHN A","8104901","2023-05-05 11:00","2023","05","05","11:00","8.9","","0.0","","53","","","","1","","40","","24.1","","100.68","","","","","","Mainly Clear"
"-65.89","45.32","SAINT JOHN A","8104901","2023-05-05 12:00","2023","05","05","12:00","10.8","","-0.4","","46","","","","2","","27","","24.1","","100.68","","","","","","NA"
"-65.89","45.32","SAINT JOHN A","8104901","2023-05-05 13:00","2023","05","05","13:00","12.5","","-1.5","","38","","","","3","","28","","24.1","","100.65","","","","","","NA"
"-65.89","45.32","SAINT JOHN A","8104901","2023-05-05 14:00","2023","05","05","14:00","13.4","","-2.3","","33","","","","36","","21","","24.1","","100.62","","","","","","Mainly Clear"
"-65.89","45.32","SAINT JOHN A","8104901","2023-05-05 15:00","2023","05","05","15:00","13.9","","-2.7","","32","","","","1","","22","","24.1","","100.58","","","","","","NA"
"-65.89","45.32","SAINT JOHN A","8104901","2023-05-05 16:00","2023","05","05","16:00","14.1","","-4.2","","28","","","","5","","25","","24.1","","100.56","","","","","","NA"
"-65.89","45.32","SAINT JOHN A","8104901","2023-05-05 17:00","2023","05","05","17:00","13.7","","-5.7","","25","","","","3","","21","","24.1","","100.56","","","","","","Mainly Clear"
"-65.89","45.32","SAINT JOHN A","8104901","2023-05-05 18:00","2023","05","05","18:00","13.0","","-4.8","","28","","","","1","","17","","24.1","","100.57","","","","","","NA"
"-65.89","45.32","SAINT JOHN A","8104901","2023-05-05 19:00","2023","05","05","19:00","7.9","","-0.5","","55","","","","20","","14","","24.1","","100.56","","","","","","NA"
"-65.89","45.32","SAINT JOHN A","8104901","2023-05-05 20:00","2023","05","05","20:00","5.4","","-0.2","","67","","","","23","","8","","24.1","","100.54","","","","","","Mainly Clear"
"-65.89","45.32","SAINT JOHN A","8104901","2023-05-05 21:00","2023","05","05","21:00","3.5","","-0.4","","75","","","","20","","4","","24.1","","100.53","","","","","","NA"
"-65.89","45.32","SAINT JOHN A","8104901","2023-05-05 22:00","2023","05","05","22:00","2.1","","-0.3","","84","","","","17","","4","","24.1","","100.51","","","","","","NA"
"-65.89","45.32","SAINT JOHN A","8104901","2023-05-05 23:00","2023","05","05","23:00","0.9","","-0.7","","89","","","","0","","1","","24.1","","100.48","","","","","","Mostly Cloudy"
"-65.89","45.32","SAINT JOHN A","8104901","2023-05-06 00:00","2023","05","06","00:00","0.4","","-0.7","","93","","","","20","","3","","24.1","","100.46","","","","","","NA"
"-65.89","45.32","SAINT JOHN A","8104901","2023-05-06 01:00","2023","05","06","01:00","-1.1","","-2.5","","90","","","","0","","1","","24.1","","100.42","","","","-1","","NA"
"-65.89","45.32","SAINT JOHN A","8104901","2023-05-06 02:00","2023","05","06","02:00","-1.2","","-1.9","","95","","","","4","","3","","24.1","","100.36","","","","-2","","Mostly Cloudy"
"-65.89","45.32","SAINT JOHN A","8104901","2023-05-06 03:00","2023","05","06","03:00","-1.8","","-1.9","","99","","","","36","","2","","24.1","","100.33","","","","-3","","NA"
"-65.89","45.32","SAINT JOHN A","8104901","2023-05-06 04:00","2023","05","06","04:00","-2.4","","-2.4","","100","","","","35","","3","","24.1","","100.29","","","","-4","","NA"
"-65.89","45.32","SAINT JOHN A","8104901","2023-05-06 05:00","2023","05","06","05:00","-2.7","","-2.7","","100","","","","4","","3","","24.1","","100.27","","","","-4","","Mainly Clear"
"-65.89","45.32","SAINT JOHN A","8104901","2023-05-06 06:00","2023","05","06","06:00","-0.1","","-0.1","","100","","","","36","","3","","24.1","","100.24","","","","-1","","NA"
"-65.89","45.32","SAINT JOHN A","8104901","2023-05-06 07:00","2023","05","06","07:00","6.2","","5.1","","93","","","","36","","2","","24.1","","100.23","","","","","","NA"
"-65.89","45.32","SAINT JOHN A","8104901","2023-05-06 08:00","2023","05","06","08:00","11.5","","2.5","","54","","","","25","","6","","24.1","","100.18","","","","","","Mostly Cloudy"
"-65.89","45.32","SAINT JOHN A","8104901","2023-05-06 09:00","2023","05","06","09:00","15.2","","1.8","","40","","","","30","","17","","24.1","","100.12","","","","","","NA"
"-65.89","45.32","SAINT JOHN A","8104901","2023-05-06 10:00","2023","05","06","10:00","17.3","","2.7","","37","","","","35","","20","","24.1","","100.12","","","","","","NA"
"-65.89","45.32","SAINT JOHN A","8104901","2023-05-06 11:00","2023","05","06","11:00","19.0","","3.8","","36","","","","36","","17","","24.1","","100.07","","","","","","Mostly Cloudy"
"-65.89","45.32","SAINT JOHN A","8104901","2023-05-06 12:00","2023","05","06","12:00","18.6","","3.0","","35","","","","3","","26","","24.1","","100.04","","","","","","NA"
"-65.89","45.32","SAINT JOHN A","8104901","2023-05-06 13:00","2023","05","06","13:00","19.9","","3.6","","34","","","","2","","28","","24.1","","100.02","","","","","","NA"
"-65.89","45.32","SAINT JOHN A","8104901","2023-05-06 14:00","2023","05","06","14:00","19.9","","3.4","","33","","","","5","","21","","24.1","","100.00","","","","","","Mainly Clear"
"-65.89","45.32","SAINT JOHN A","8104901","2023-05-06 15:00","2023","05","06","15:00","16.6","","4.2","","43","","","","12","","21","","24.1","","99.99","","","","","","NA"
"-65.89","45.32","SAINT JOHN A","8104901","2023-05-06 16:00","2023","05","06","16:00","14.3","","2.3","","44","","","","13","","28","","24.1","","99.99","","","","","","NA"
"-65.89","45.32","SAINT JOHN A","8104901","2023-05-06 17:00","2023","05","06","17:00","14.2","","1.8","","43","","","","10","","22","","24.1","","100.01","","","","","","Mainly Clear"
"-65.89","45.32","SAINT JOHN A","8104901","2023-05-06 18:00","2023","05","06","18:00","12.8","","0.8","","44","","","","10","","20","","24.1","","100.03","","","","","","NA"
"-65.89","45.32","SAINT JOHN A","8104901","2023-05-06 19:00","2023","05","06","19:00","11.2","","0.6","","48","","","","10","","17","","24.1","","100.07","","","","","","NA"
"-65.89","45.32","SAINT JOHN A","8104901","2023-05-06 20:00","2023","05","06","20:00","8.4","","1.2","","60","","","","10","","8","","24.1","","100.15","","","","","","Mainly Clear"
"-65.89","45.32","SAINT JOHN A","8104901","2023-05-06 21:00","2023","05","06","21:00","7.2","","0.5","","62","","","","9","","10","","24.1","","100.22","","","","","","NA"
"-65.89","45.32","SAINT JOHN A","8104901","2023-05-06 22:00","2023","05","06","22:00","7.3","","-0.2","","59","","","","9","","22","","24.1","","100.18","","","","","","NA"
"-65.89","45.32","SAINT JOHN A","8104901","2023-05-06 23:00","2023","05","06","23:00","6.4","","-0.4","","61","","","","11","","14","","24.1","","100.16","","","","","","Clear"
"-65.89","45.32","SAINT JOHN A","8104901","2023-05-07 00:00","2023","05","07","00:00","5.5","","-1.7","","60","","","","36","","2","","24.1","","100.12","","","","","","NA"
"-65.89","45.32","SAINT JOHN A","8104901","2023-05-07 01:00","2023","05","07","01:00","5.2","","-3.3","","54","","","","11","","5","","24.1","","100.06","","","","","","NA"
"-65.89","45.32","SAINT JOHN A","8104901","2023-05-07 02:00","2023","05","07","02:00","4.7","","-3.5","","55","","","","11","","6","","24.1","","100.03","","","","","","Clear"
"-65.89","45.32","SAINT JOHN A","8104901","2023-05-07 03:00","2023","05","07","03:00","1.6","","-1.7","","79","","","","36","","1","","24.1","","99.98","","","","","","NA"
"-65.89","45.32","SAINT JOHN A","8104901","2023-05-07 04:00","2023","05","07","04:00","0.7","","-2.0","","82","","","","36","","3","","24.1","","99.95","","","","","","NA"
"-65.89","45.32","SAINT JOHN A","8104901","2023-05-07 05:00","2023","05","07","05:00","0.3","","-1.6","","87","","","","36","","1","","24.1","","99.93","","","","","","Mainly Clear"
"-65.89","45.32","SAINT JOHN A","8104901","2023-05-07 06:00","2023","05","07","06:00","1.8","","-0.1","","87","","","","36","","1","","24.1","","99.92","","","","","","NA"
"-65.89","45.32","SAINT JOHN A","8104901","2023-05-07 07:00","2023","05","07","07:00","8.9","","2.0","","62","","","","21","","17","","24.1","","99.87","","","","","","NA"
"-65.89","45.32","SAINT JOHN A","8104901","2023-05-07 08:00","2023","05","07","08:00","10.8","","1.1","","51","","","","21","","22","","24.1","","99.82","","","","","","Mainly Clear"
"-65.89","45.32","SAINT JOHN A","8104901","2023-05-07 09:00","2023","05","07","09:00","11.6","","3.5","","58","","","","21","","26","","24.1","","99.72","","","","","","NA"
"-65.89","45.32","SAINT JOHN A","8104901","2023-05-07 10:00","2023","05","07","10:00","12.6","","4.8","","59","","","","22","","14","","24.1","","99.65","","","","","","NA"
"-65.89","45.32","SAINT JOHN A","8104901","2023-05-07 11:00","2023","05","07","11:00","15.5","","5.1","","50","","","","27","","12","","24.1","","99.53","","","","","","Clear"
"-65.89","45.32","SAINT JOHN A","8104901","2023-05-07 12:00","2023","05","07","12:00","17.5","","7.1","","50","","","","19","","17","","24.1","","99.45","","","","","","NA"
"-65.89","45.32","SAINT JOHN A","8104901","2023-05-07 13:00","2023","05","07","13:00","18.8","","5.7","","42","","","","21","","23","","24.1","","99.36","","","","","","NA"
"-65.89","45.32","SAINT JOHN A","8104901","2023-05-07 14:00","2023","05","07","14:00","19.1","","5.3","","40","","","","21","","27","","24.1","","99.31","","","","","","Mainly Clear"
"-65.89","45.32","SAINT JOHN A","8104901","2023-05-07 15:00","2023","05","07","15:00","17.2","","4.8","","44","","","","20","","26","","24.1","","99.25","","","","","","NA"
"-65.89","45.32","SAINT JOHN A","8104901","2023-05-07 16:00","2023","05","07","16:00","15.4","","3.9","","46","","","","22","","23","","24.1","","99.21","","","","","","NA"
"-65.89","45.32","SAINT JOHN A","8104901","2023-05-07 17:00","2023","05","07","17:00","16.2","","3.5","","42","","","","21","","29","","24.1","","99.11","","","","","","Mainly Clear"
"-65.89","45.32","SAINT JOHN A","8104901","2023-05-07 18:00","2023","05","07","18:00","13.8","","4.1","","52","","","","22","","24","","24.1","","99.05","","","","","","NA"
"-65.89","45.32","SAINT JOHN A","8104901","2023-05-07 19:00","2023","05","07","19:00","13.0","","3.9","","54","","","","23","","19","","24.1","","99.03","","","","","","NA"
"-65.89","45.32","SAINT JOHN A","8104901","2023-05-07 20:00","2023","05","07","20:00","11.7","","4.1","","59","","","","21","","15","","24.1","","99.01","","","","","","Mainly Clear"
"-65.89","45.32","SAINT JOHN A","8104901","2023-05-07 21:00","2023","05","07","21:00","10.7","","4.2","","64","","","","21","","11","","24.1","","99.01","","","","","","NA"
"-65.89","45.32","SAINT JOHN A","8104901","2023-05-07 22:00","2023","05","07","22:00","8.3","","4.3","","76","","","","0","","1","","24.1","","98.97","","","","","","NA"
"-65.89","45.32","SAINT JOHN A","8104901","2023-05-07 23:00","2023","05","07","23:00","6.7","","4.0","","83","","","","36","","2","","24.1","","98.91","","","","","","Mostly Cloudy"
"-65.89","45.32","SAINT JOHN A","8104901","2023-05-08 00:00","2023","05","08","00:00","3.9","","2.6","","91","","","","6","","8","","24.1","","98.88","","","","","","NA"
"-65.89","45.32","SAINT JOHN A","8104901","2023-05-08 01:00","2023","05","08","01:00","3.8","","2.4","","90","","","","36","","1","","24.1","","98.86","","","","","","NA"
"-65.89","45.32","SAINT JOHN A","8104901","2023-05-08 02:00","2023","05","08","02:00","4.4","","3.3","","93","","","","36","","3","","24.1","","98.82","","","","","","Mostly Cloudy"
"-65.89","45.32","SAINT JOHN A","8104901","2023-05-08 03:00","2023","05","08","03:00","3.5","","2.5","","93","","","","36","","2","","24.1","","98.79","","","","","","NA"
"-65.89","45.32","SAINT JOHN A","8104901","2023-05-08 04:00","2023","05","08","04:00","4.7","","3.5","","92","","","","18","","5","","24.1","","98.75","","","","","","NA"
"-65.89","45.32","SAINT JOHN A","8104901","2023-05-08 05:00","2023","05","08","05:00","5.4","","3.7","","89","","","","35","","3","","24.1","","98.72","","","","","","Cloudy"
"-65.89","45.32","SAINT JOHN A","8104901","2023-05-08 06:00","2023","05","08","06:00","7.2","","4.4","","82","","","","11","","3","","24.1","","98.74","","","","","","NA"
"-65.89","45.32","SAINT JOHN A","8104901","2023-05-08 07:00","2023","05","08","07:00","7.4","","5.2","","86","","","","3","","5","","24.1","","98.72","","","","","","NA"
"-65.89","45.32","SAINT JOHN A","8104901","2023-05-08 08:00","2023","05","08","08:00","13.7","","1.3","","43","","","","30","","21","","24.1","","98.72","","","","","","Mainly Clear"
"-65.89","45.32","SAINT JOHN A","8104901","2023-05-08 09:00","2023","05","08","09:00","15.8","","-1.0","","31","","","","32","","25","","24.1","","98.70","","","","","","NA"
"-65.89","45.32","SAINT JOHN A","8104901","2023-05-08 10:00","2023","05","08","10:00","16.9","","-2.2","","27","","","","33","","24","","24.1","","98.70","","","","","","NA"
"-65.89","45.32","SAINT JOHN A","8104901","2023-05-08 11:00","2023","05","08","11:00","16.6","","-2.8","","26","","","","32","","34","","24.1","","98.69","","","","","","Mainly Clear"
"-65.89","45.32","SAINT JOHN A","8104901","2023-05-08 12:00","2023","05","08","12:00","16.5","","-3.4","","25","","","","32","","36","","24.1","","98.72","","","","","","NA"
"-65.89","45.32","SAINT JOHN A","8104901","2023-05-08 13:00","2023","05","08","13:00","16.2","","-2.8","","27","","","","34","","28","","24.1","","98.70","","","","","","NA"
"-65.89","45.32","SAINT JOHN A","8104901","2023-05-08 14:00","2023","05","08","14:00","14.8","","-4.7","","26","","","","31","","38","","24.1","","98.78","","","","","","Mainly Clear"
"-65.89","45.32","SAINT JOHN A","8104901","2023-05-08 15:00","2023","05","08","15:00","15.5","","-6.0","","22","","","","31","","32","","24.1","","98.84","","","","","","NA"
"-65.89","45.32","SAINT JOHN A","8104901","2023-05-08 16:00","2023","05","08","16:00","13.8","","-5.8","","25","","","","33","","40","","24.1","","98.92","","","","","","NA"
"-65.89","45.32","SAINT JOHN A","8104901","2023-05-08 17:00","2023","05","08","17:00","11.6","","-1.1","","41","","","","34","","49","","24.1","","99.03","","","","","","Mostly Cloudy"
"-65.89","45.32","SAINT JOHN A","8104901","2023-05-08 18:00","2023","05","08","18:00","7.9","","1.2","","63","","","","34","","53","","24.1","","99.18","","","","","","NA"
"-65.89","45.32","SAINT JOHN A","8104901","2023-05-08 19:00","2023","05","08","19:00","5.6","","1.6","","75","","","","1","","21","","24.1","","99.34","","","","","","NA"
"-65.89","45.32","SAINT JOHN A","8104901","2023-05-08 20:00","2023","05","08","20:00","4.6","","0.5","","74","","","","36","","20","","24.1","","99.40","","","","","","Mainly Clear"
"-65.89","45.32","SAINT JOHN A","8104901","2023-05-08 21:00","2023","05","08","21:00","3.6","","0.8","","82","","","","36","","18","","24.1","","99.50","","","","","","NA"
"-65.89","45.32","SAINT JOHN A","8104901","2023-05-08 22:00","2023","05","08","22:00","2.3","","0.8","","90","","","","36","","13","","24.1","","99.52","","","","","","NA"
"-65.89","45.32","SAINT JOHN A","8104901","2023-05-08 23:00","2023","05","08","23:00","1.4","","0.0","","91","","","","34","","4","","24.1","","99.53","","","","","","Mainly Clear"
"-65.89","45.32","SAINT JOHN A","8104901","2023-05-09 00:00","2023","05","09","00:00","-0.4","","-1.2","","94","","","","36","","2","","24.1","","99.57","","","","-1","","NA"
"-65.89","45.32","SAINT JOHN A","8104901","2023-05-09 01:00","2023","05","09","01:00","-0.7","","-1.0","","98","","","","20","","7","","24.1","","99.57","","","","-3","","NA"
"-65.89","45.32","SAINT JOHN A","8104901","2023-05-09 02:00","2023","05","09","02:00","1.3","","1.2","","100","","","","26","","8","","24.1","","99.59","","","","","","Mostly Cloudy"
"-65.89","45.32","SAINT JOHN A","8104901","2023-05-09 03:00","2023","05","09","03:00","1.4","","0.3","","92","","","","30","","9","","24.1","","99.62","","","","","","NA"
"-65.89","45.32","SAINT JOHN A","8104901","2023-05-09 04:00","2023","05","09","04:00","1.0","","-1.8","","82","","","","32","","17","","24.1","","99.64","","","","","","NA"
"-65.89","45.32","SAINT JOHN A","8104901","2023-05-09 05:00","2023","05","09","05:00","0.9","","-2.3","","79","","","","30","","9","","24.1","","99.68","","","","","","Clear"
"-65.89","45.32","SAINT JOHN A","8104901","2023-05-09 06:00","2023","05","09","06:00","2.1","","-2.2","","73","","","","30","","13","","24.1","","99.76","","","","","","NA"
"-65.89","45.32","SAINT JOHN A","8104901","2023-05-09 07:00","2023","05","09","07:00","4.0","","-1.6","","67","","","","32","","22","","24.1","","99.82","","","","","","NA"
"-65.89","45.32","SAINT JOHN A","8104901","2023-05-09 08:00","2023","05","09","08:00","6.0","","-2.5","","55","","","","32","","21","","24.1","","99.87","","","","","","Clear"
"-65.89","45.32","SAINT JOHN A","8104901","2023-05-09 09:00","2023","05","09","09:00","8.3","","-4.2","","41","","","","32","","24","","24.1","","99.87","","","","","","NA"
"-65.89","45.32","SAINT JOHN A","8104901","2023-05-09 10:00","2023","05","09","10:00","9.1","","-6.9","","32","","","","32","","35","","24.1","","99.85","","","","","","NA"
"-65.89","45.32","SAINT JOHN A","8104901","2023-05-09 11:00","2023","05","09","11:00","10.2","","-7.0","","29","","","","31","","29","","24.1","","99.86","","","","","","Mainly Clear"
"-65.89","45.32","SAINT JOHN A","8104901","2023-05-09 12:00","2023","05","09","12:00","9.9","","-8.2","","27","","","","36","","39","","24.1","","99.89","","","","","","NA"
"-65.89","45.32","SAINT JOHN A","8104901","2023-05-09 13:00","2023","05","09","13:00","10.0","","-7.2","","29","","","","36","","22","","24.1","","99.91","","","","","","NA"
"-65.89","45.32","SAINT JOHN A","8104901","2023-05-09 14:00","2023","05","09","14:00","11.1","","-8.0","","25","","","","31","","21","","24.1","","99.93","","","","","","Mostly Cloudy"
"-65.89","45.32","SAINT JOHN A","8104901","2023-05-09 15:00","2023","05","09","15:00","10.3","","-6.2","","31","","","","35","","17","","24.1","","99.97","","","","","","NA"
"-65.89","45.32","SAINT JOHN A","8104901","2023-05-09 16:00","2023","05","09","16:00","10.3","","-5.5","","32","","","","33","","12","","24.1","","100.00","","","","","","NA"
"-65.89","45.32","SAINT JOHN A","8104901","2023-05-09 17:00","2023","05","09","17:00","10.7","","-6.2","","30","","","","32","","18","","24.1","","100.00","","","","","","Mostly Cloudy"
"-65.89","45.32","SAINT JOHN A","8104901","2023-05-09 18:00","2023","05","09","18:00","10.3","","-5.8","","32","","","","33","","19","","24.1","","100.03","","","","","","NA"
"-65.89","45.32","SAINT JOHN A","8104901","2023-05-09 19:00","2023","05","09","19:00","9.4","","-6.0","","33","","","","33","","18","","24.1","","100.08","","","","","","NA"
"-65.89","45.32","SAINT JOHN A","8104901","2023-05-09 20:00","2023","05","09","20:00","7.0","","-4.8","","43","","","","31","","9","","24.1","","100.13","","","","","","Mainly Clear"
"-65.89","45.32","SAINT JOHN A","8104901","2023-05-09 21:00","2023","05","09","21:00","3.9","","-3.6","","58","","","","36","","3","","24.1","","100.19","","","","","","NA"
"-65.89","45.32","SAINT JOHN A","8104901","2023-05-09 22:00","2023","05","09","22:00","1.3","","-3.7","","70","","","","19","","4","","24.1","","100.22","","","","","","NA"
"-65.89","45.32","SAINT JOHN A","8104901","2023-05-09 23:00","2023","05","09","23:00","-0.6","","-3.9","","78","","","","20","","7","","24.1","","100.20","","","","-3","","Clear"
"-65.89","45.32","SAINT JOHN A","8104901","2023-05-10 00:00","2023","05","10","00:00","-2.4","","-4.7","","84","","","","36","","1","","24.1","","100.21","","","","-3","","NA"
"-65.89","45.32","SAINT JOHN A","8104901","2023-05-10 01:00","2023","05","10","01:00","-3.1","","-4.9","","87","","","","0","","1","","24.1","","100.20","","","","-4","","NA"
"-65.89","45.32","SAINT JOHN A","8104901","2023-05-10 02:00","2023","05","10","02:00","-2.5","","-4.3","","87","","","","36","","3","","24.1","","100.16","","","","-4","","Clear"
"-65.89","45.32","SAINT JOHN A","8104901","2023-05-10 03:00","2023","05","10","03:00","0.7","","-1.2","","87","","","","27","","9","","24.1","","100.14","","","","","","NA"
"-65.89","45.32","SAINT JOHN A","8104901","2023-05-10 04:00","2023","05","10","04:00","-1.2","","-4.2","","80","","","","26","","7","","24.1","","100.14","","","","-4","","NA"
"-65.89","45.32","SAINT JOHN A","8104901","2023-05-10 05:00","2023","05","10","05:00","2.9","","-2.8","","66","","","","27","","9","","24.1","","100.10","","","","","","Mainly Clear"
"-65.89","45.32","SAINT JOHN A","8104901","2023-05-10 06:00","2023","05","10","06:00","2.3","","-3.0","","68","","","","30","","9","","24.1","","100.10","","","","","","NA"
"-65.89","45.32","SAINT JOHN A","8104901","2023-05-10 07:00","2023","05","10","07:00","8.2","","-3.8","","42","","","","25","","14","","24.1","","100.09","","","","","","NA"
"-65.89","45.32","SAINT JOHN A","8104901","2023-05-10 08:00","2023","05","10","08:00","10.2","","-5.2","","33","","","","29","","16","","24.1","","100.11","","","","","","Mostly Cloudy"
"-65.89","45.32","SAINT JOHN A","8104901","2023-05-10 09:00","2023","05","10","09:00","10.4","","-5.7","","32","","","","29","","21","","24.1","","100.11","","","","","","NA"
"-65.89","45.32","SAINT JOHN A","8104901","2023-05-10 10:00","2023","05","10","10:00","12.3","","-5.9","","28","","","","33","","24","","24.1","","100.09","","","","","","NA"
"-65.89","45.32","SAINT JOHN A","8104901","2023-05-10 11:00","2023","05","10","11:00","13.1","","-6.5","","25","","","","32","","30","","24.1","","100.06","","","","","","Mostly Cloudy"
"-65.89","45.32","SAINT JOHN A","8104901","2023-05-10 12:00","2023","05","10","12:00","13.6","","-7.3","","23","","","","31","","26","","24.1","","100.02","","","","","","NA"
"-65.89","45.32","SAINT JOHN A","8104901","2023-05-10 13:00","2023","05","10","13:00","13.4","","-7.3","","23","","","","27","","19","","24.1","","100.00","","","","","","NA"
"-65.89","45.32","SAINT JOHN A","8104901","2023-05-10 14:00","2023","05","10","14:00","14.7","","-6.9","","22","","","","32","","22","","24.1","","99.93","","","","","","Mostly Cloudy"
"-65.89","45.32","SAINT JOHN A","8104901","2023-05-10 15:00","2023","05","10","15:00","15.7","","-5.1","","23","","","","34","","13","","24.1","","99.86","","","","","","NA"
"-65.89","45.32","SAINT JOHN A","8104901","2023-05-10 16:00","2023","05","10","16:00","14.2","","-2.8","","31","","","","20","","20","","24.1","","99.84","","","","","","NA"
"-65.89","45.32","SAINT JOHN A","8104901","2023-05-10 17:00","2023","05","10","17:00","13.2","","-1.3","","37","","","","19","","10","","24.1","","99.87","","","","","","Mostly Cloudy"
"-65.89","45.32","SAINT JOHN A","8104901","2023-05-10 18:00","2023","05","10","18:00","12.1","","0.8","","46","","","","8","","11","","24.1","","99.90","","","","","","NA"
"-65.89","45.32","SAINT JOHN A","8104901","2023-05-10 19:00","2023","05","10","19:00","11.3","","-2.6","","38","","","","6","","6","","24.1","","99.94","","","","","","NA"
"-65.89","45.32","SAINT JOHN A","8104901","2023-05-10 20:00","2023","05","10","20:00","9.8","","-0.7","","48","","","","4","","7","","24.1","","99.99","","","","","","Mostly Cloudy"
"-65.89","45.32","SAINT JOHN A","8104901","2023-05-10 21:00","2023","05","10","21:00","8.9","","1.1","","58","","","","21","","8","","24.1","","100.04","","","","","","NA"
"-65.89","45.32","SAINT JOHN A","8104901","2023-05-10 22:00","2023","05","10","22:00","8.7","","2.3","","64","","","","19","","9","","24.1","","100.01","","","","","","NA"
"-65.89","45.32","SAINT JOHN A","8104901","2023-05-10 23:00","2023","05","10","23:00","7.4","","3.0","","74","","","","14","","5","","24.1","","100.00","","","","","","Cloudy"
"-65.89","45.32","SAINT JOHN A","8104901","2023-05-11 00:00","2023","05","11","00:00","6.8","","3.5","","79","","","","21","","7","","24.1","","100.02","","","","","","NA"
"-65.89","45.32","SAINT JOHN A","8104901","2023-05-11 01:00","2023","05","11","01:00","6.6","","3.9","","83","","","","9","","12","","24.1","","99.99","","","","","","NA"
"-65.89","45.32","SAINT JOHN A","8104901","2023-05-11 02:00","2023","05","11","02:00","6.6","","4.0","","83","","","","10","","8","","24.1","","99.96","","","","","","Cloudy"
"-65.89","45.32","SAINT JOHN A","8104901","2023-05-11 03:00","2023","05","11","03:00","7.1","","4.2","","82","","","","7","","3","","24.1","","99.96","","","","","","NA"
"-65.89","45.32","SAINT JOHN A","8104901","2023-05-11 04:00","2023","05","11","04:00","7.4","","4.2","","80","","","","20","","6","","24.1","","99.92","","","","","","NA"
"-65.89","45.32","SAINT JOHN A","8104901","2023-05-11 05:00","2023","05","11","05:00","5.5","","3.4","","86","","","","36","","1","","24.1","","99.93","","","","","","Mainly Clear"
"-65.89","45.32","SAINT JOHN A","8104901","2023-05-11 06:00","2023","05","11","06:00","4.1","","2.4","","89","","","","36","","2","","24.1","","99.98","","","","","","NA"
"-65.89","45.32","SAINT JOHN A","8104901","2023-05-11 07:00","2023","05","11","07:00","6.8","","4.7","","86","","","","36","","1","","24.1","","100.03","","","","","","NA"
"-65.89","45.32","SAINT JOHN A","8104901","2023-05-11 08:00","2023","05","11","08:00","10.6","","4.6","","66","","","","17","","7","","24.1","","100.09","","","","","","Cloudy"
"-65.89","45.32","SAINT JOHN A","8104901","2023-05-11 09:00","2023","05","11","09:00","12.6","","3.9","","55","","","","15","","9","","24.1","","100.11","","","","","","NA"
"-65.89","45.32","SAINT JOHN A","8104901","2023-05-11 10:00","2023","05","11","10:00","14.5","","3.2","","46","","","","16","","4","","24.1","","100.12","","","","","","NA"
"-65.89","45.32","SAINT JOHN A","8104901","2023-05-11 11:00","2023","05","11","11:00","16.4","","3.3","","41","","","","19","","5","","24.1","","100.10","","","","","","Cloudy"
"-65.89","45.32","SAINT JOHN A","8104901","2023-05-11 12:00","2023","05","11","12:00","17.4","","5.6","","46","","","","18","","4","","24.1","","100.07","","","","","","NA"
"-65.89","45.32","SAINT JOHN A","8104901","2023-05-11 13:00","2023","05","11","13:00","18.3","","5.0","","41","","","","26","","5","","24.1","","100.05","","","","","","NA"
"-65.89","45.32","SAINT JOHN A","8104901","2023-05-11 14:00","2023","05","11","14:00","20.3","","2.1","","30","","","","30","","5","","24.1","","100.01","","","","","","Mostly Cloudy"
"-65.89","45.32","SAINT JOHN A","8104901","2023-05-11 15:00","2023","05","11","15:00","18.3","","2.4","","34","","","","20","","19","","24.1","","100.01","","","","","","NA"
"-65.89","45.32","SAINT JOHN A","8104901","2023-05-11 16:00","2023","05","11","16:00","18.1","","3.8","","39","","","","19","","17","","24.1","","100.03","","","","","","NA"
"-65.89","45.32","SAINT JOHN A","8104901","2023-05-11 17:00","2023","05","11","17:00","19.4","","3.0","","33","","","","20","","17","","24.1","","100.05","","","","","","Cloudy"
"-65.89","45.32","SAINT JOHN A","8104901","2023-05-11 18:00","2023","05","11","18:00","15.7","","2.4","","41","","","","19","","11","","24.1","","100.09","","","","","","NA"
"-65.89","45.32","SAINT JOHN A","8104901","2023-05-11 19:00","2023","05","11","19:00","13.6","","2.8","","48","","","","22","","13","","24.1","","100.12","","","","","","NA"
"-65.89","45.32","SAINT JOHN A","8104901","2023-05-11 20:00","2023","05","11","20:00","10.4","","2.8","","59","","","","19","","7","","24.1","","100.19","","","","","","Cloudy"
"-65.89","45.32","SAINT JOHN A","8104901","2023-05-11 21:00","2023","05","11","21:00","7.7","","3.0","","72","","","","0","","1","","24.1","","100.23","","","","","","NA"
"-65.89","45.32","SAINT JOHN A","8104901","2023-05-11 22:00","2023","05","11","22:00","5.9","","2.3","","78","","","","36","","1","","24.1","","100.23","","","","","","NA"
"-65.89","45.32","SAINT JOHN A","8104901","2023-05-11 23:00","2023","05","11","23:00","5.5","","2.3","","80","","","","20","","4","","24.1","","100.20","","","","","","Clear"
"-65.89","45.32","SAINT JOHN A","8104901","2023-05-12 00:00","2023","05","12","00:00","6.8","","2.8","","76","","","","18","","8","","24.1","","100.20","","","","","","NA"
"-65.89","45.32","SAINT JOHN A","8104901","2023-05-12 01:00","2023","05","12","01:00","4.7","","2.7","","87","","","","24","","3","","24.1","","100.19","","","","","","NA"
"-65.89","45.32","SAINT JOHN A","8104901","2023-05-12 02:00","2023","05","12","02:00","4.6","","2.4","","86","","","","5","","4","","24.1","","100.19","","","","","","Mainly Clear"
"-65.89","45.32","SAINT JOHN A","8104901","2023-05-12 03:00","2023","05","12","03:00","3.0","","1.6","","91","","","","34","","3","","24.1","","100.18","","","","","","NA"
"-65.89","45.32","SAINT JOHN A","8104901","2023-05-12 04:00","2023","05","12","04:00","2.0","","1.1","","94","","","","0","","1","","24.1","","100.20","","","","","","NA"
"-65.89","45.32","SAINT JOHN A","8104901","2023-05-12 05:00","2023","05","12","05:00","1.4","","1.0","","97","","","","36","","1","","24.1","","100.22","","","","","","Mainly Clear"
"-65.89","45.32","SAINT JOHN A","8104901","2023-05-12 06:00","2023","05","12","06:00","4.0","","3.7","","98","","","","36","","3","","24.1","","100.24","","","","","","NA"
"-65.89","45.32","SAINT JOHN A","8104901","2023-05-12 07:00","2023","05","12","07:00","9.6","","5.7","","76","","","","21","","5","","24.1","","100.28","","","","","","NA"
"-65.89","45.32","SAINT JOHN A","8104901","2023-05-12 08:00","2023","05","12","08:00","11.8","","5.9","","67","","","","19","","10","","24.1","","100.29","","","","","","Mostly Cloudy"
"-65.89","45.32","SAINT JOHN A","8104901","2023-05-12 09:00","2023","05","12","09:00","13.7","","6.2","","60","","","","19","","10","","24.1","","100.26","","","","","","NA"
"-65.89","45.32","SAINT JOHN A","8104901","2023-05-12 10:00","2023","05","12","10:00","16.8","","7.7","","55","","","","23","","8","","24.1","","100.25","","","","","","NA"
"-65.89","45.32","SAINT JOHN A","8104901","2023-05-12 11:00","2023","05","12","11:00","17.8","","7.8","","51","","","","16","","9","","24.1","","100.23","","","","","","Mostly Cloudy"
"-65.89","45.32","SAINT JOHN A","8104901","2023-05-12 12:00","2023","05","12","12:00","19.1","","6.4","","43","","","","22","","11","","24.1","","100.19","","","","","","NA"
"-65.89","45.32","SAINT JOHN A","8104901","2023-05-12 13:00","2023","05","12","13:00","19.5","","8.1","","47","","","","21","","14","","24.1","","100.16","","","","","","NA"
"-65.89","45.32","SAINT JOHN A","8104901","2023-05-12 14:00","2023","05","12","14:00","20.2","","6.8","","41","","","","21","","19","","24.1","","100.10","","","","","","Mostly Cloudy"
"-65.89","45.32","SAINT JOHN A","8104901","2023-05-12 15:00","2023","05","12","15:00","19.9","","5.4","","38","","","","18","","19","","24.1","","100.04","","","","","","NA"
"-65.89","45.32","SAINT JOHN A","8104901","2023-05-12 16:00","2023","05","12","16:00","19.6","","5.3","","39","","","","22","","17","","24.1","","100.01","","","","","","NA"
"-65.89","45.32","SAINT JOHN A","8104901","2023-05-12 17:00","2023","05","12","17:00","20.0","","3.3","","33","","","","20","","20","","24.1","","99.99","","","","","","Mostly Cloudy"
"-65.89","45.32","SAINT JOHN A","8104901","2023-05-12 18:00","2023","05","12","18:00","15.1","","6.4","","56","","","","19","","17","","24.1","","100.00","","","","","","NA"
"-65.89","45.32","SAINT JOHN A","8104901","2023-05-12 19:00","2023","05","12","19:00","13.4","","6.9","","65","","","","20","","10","","24.1","","100.00","","","","","","NA"
"-65.89","45.32","SAINT JOHN A","8104901","2023-05-12 20:00","2023","05","12","20:00","10.9","","6.3","","73","","","","23","","3","","24.1","","99.97","","","","","","Mainly Clear"
"-65.89","45.32","SAINT JOHN A","8104901","2023-05-12 21:00","2023","05","12","21:00","10.0","","6.5","","79","","","","36","","1","","24.1","","99.98","","","","","","NA"
"-65.89","45.32","SAINT JOHN A","8104901","2023-05-12 22:00","2023","05","12","22:00","10.2","","7.0","","80","","","","19","","14","","24.1","","99.95","","","","","","NA"
"-65.89","45.32","SAINT JOHN A","8104901","2023-05-12 23:00","2023","05","12","23:00","9.2","","7.5","","89","","","","18","","8","","24.1","","99.90","","","","","","Mainly Clear"
"-65.89","45.32","SAINT JOHN A","8104901","2023-05-13 00:00","2023","05","13","00:00","9.3","","8.0","","91","","","","17","","12","","24.1","","99.87","","","","","","NA"
"-65.89","45.32","SAINT JOHN A","8104901","2023-05-13 01:00","2023","05","13","01:00","9.0","","7.9","","93","","","","19","","16","","24.1","","99.82","","","","","","NA"
"-65.89","45.32","SAINT JOHN A","8104901","2023-05-13 02:00","2023","05","13","02:00","8.7","","8.7","","100","","","","16","","20","","16.1","","99.69","","","","","","Rain"
"-65.89","45.32","SAINT JOHN A","8104901","2023-05-13 03:00","2023","05","13","03:00","8.3","","8.3","","100","","","","19","","14","","16.1","","99.69","","","","","","Rain"
"-65.89","45.32","SAINT JOHN A","8104901","2023-05-13 04:00","2023","05","13","04:00","7.4","","7.4","","100","","","","18","","9","","16.1","","99.69","","","","","","NA"
"-65.89","45.32","SAINT JOHN A","8104901","2023-05-13 05:00","2023","05","13","05:00","8.0","","8.0","","100","","","","24","","5","","1.6","","99.77","","","","","","Fog"
"-65.89","45.32","SAINT JOHN A","8104901","2023-05-13 06:00","2023","05","13","06:00","8.2","","8.2","","100","","","","9","","4","","12.9","","99.71","","","","","","NA"
"-65.89","45.32","SAINT JOHN A","8104901","2023-05-13 07:00","2023","05","13","07:00","9.5","","9.5","","100","","","","36","","2","","12.9","","99.78","","","","","","Rain Showers,Fog"
"-65.89","45.32","SAINT JOHN A","8104901","2023-05-13 08:00","2023","05","13","08:00","12.3","","11.4","","94","","","","30","","12","","24.1","","99.77","","","","","","Mainly Clear"
"-65.89","45.32","SAINT JOHN A","8104901","2023-05-13 09:00","2023","05","13","09:00","14.9","","10.5","","75","","","","31","","22","","24.1","","99.77","","","","","","NA"
"-65.89","45.32","SAINT JOHN A","8104901","2023-05-13 10:00","2023","05","13","10:00","15.8","","8.0","","60","","","","31","","22","","24.1","","99.75","","","","","","NA"
"-65.89","45.32","SAINT JOHN A","8104901","2023-05-13 11:00","2023","05","13","11:00","16.3","","5.9","","50","","","","32","","25","","24.1","","99.72","","","","","","Mainly Clear"
"-65.89","45.32","SAINT JOHN A","8104901","2023-05-13 12:00","2023","05","13","12:00","17.6","","4.8","","43","","","","29","","23","","24.1","","99.68","","","","","","NA"
"-65.89","45.32","SAINT JOHN A","8104901","2023-05-13 13:00","2023","05","13","13:00","17.8","","3.9","","40","","","","31","","22","","24.1","","99.64","","","","","","NA"
"-65.89","45.32","SAINT JOHN A","8104901","2023-05-13 14:00","2023","05","13","14:00","17.5","","3.5","","39","","","","31","","28","","24.1","","99.65","","","","","","Mainly Clear"
"-65.89","45.32","SAINT JOHN A","8104901","2023-05-13 15:00","2023","05","13","15:00","17.2","","3.4","","39","","","","33","","36","","24.1","","99.66","","","","","","NA"
"-65.89","45.32","SAINT JOHN A","8104901","2023-05-13 16:00","2023","05","13","16:00","16.6","","1.1","","35","","","","32","","37","","24.1","","99.69","","","","","","NA"
"-65.89","45.32","SAINT JOHN A","8104901","2023-05-13 17:00","2023","05","13","17:00","15.4","","1.2","","38","","","","31","","23","","24.1","","99.69","","","","","","Mostly Cloudy"
"-65.89","45.32","SAINT JOHN A","8104901","2023-05-13 18:00","2023","05","13","18:00","14.0","","1.1","","41","","","","32","","27","","24.1","","99.70","","","","","","NA"
"-65.89","45.32","SAINT JOHN A","8104901","2023-05-13 19:00","2023","05","13","19:00","12.2","","2.4","","51","","","","35","","24","","24.1","","99.79","","","","","","NA"
"-65.89","45.32","SAINT JOHN A","8104901","2023-05-13 20:00","2023","05","13","20:00","7.0","","5.5","","90","","","","33","","23","","6.4","","100.01","","","","","","Rain Showers,Fog"
"-65.89","45.32","SAINT JOHN A","8104901","2023-05-13 21:00","2023","05","13","21:00","5.6","","4.4","","92","","","","31","","37","","16.1","","100.10","","","","","","NA"
"-65.89","45.32","SAINT JOHN A","8104901","2023-05-13 22:00","2023","05","13","22:00","5.0","","3.1","","87","","","","30","","20","","12.9","","100.14","","","","","","NA"
"-65.89","45.32","SAINT JOHN A","8104901","2023-05-13 23:00","2023","05","13","23:00","4.6","","2.1","","84","","","","32","","26","","24.1","","100.14","","","","","","Mainly Clear"
"-65.89","45.32","SAINT JOHN A","8104901","2023-05-14 00:00","2023","05","14","00:00","5.1","","2.3","","82","","","","31","","18","","24.1","","100.16","","","","","","NA"
"-65.89","45.32","SAINT JOHN A","8104901","2023-05-14 01:00","2023","05","14","01:00","4.4","","1.6","","82","","","","28","","13","","24.1","","100.14","","","","","","NA"
"-65.89","45.32","SAINT JOHN A","8104901","2023-05-14 02:00","2023","05","14","02:00","4.3","","0.5","","77","","","","26","","12","","24.1","","100.15","","","","","","Mainly Clear"
"-65.89","45.32","SAINT JOHN A","8104901","2023-05-14 03:00","2023","05","14","03:00","4.2","","0.2","","75","","","","29","","16","","24.1","","100.15","","","","","","NA"
"-65.89","45.32","SAINT JOHN A","8104901","2023-05-14 04:00","2023","05","14","04:00","4.4","","-0.1","","73","","","","29","","16","","24.1","","100.12","","","","","","NA"
"-65.89","45.32","SAINT JOHN A","8104901","2023-05-14 05:00","2023","05","14","05:00","3.8","","-0.2","","75","","","","28","","13","","24.1","","100.14","","","","","","Mainly Clear"
"-65.89","45.32","SAINT JOHN A","8104901","2023-05-14 06:00","2023","05","14","06:00","4.5","","0.0","","73","","","","28","","17","","24.1","","100.16","","","","","","NA"
"-65.89","45.32","SAINT JOHN A","8104901","2023-05-14 07:00","2023","05","14","07:00","6.6","","0.2","","63","","","","30","","22","","24.1","","100.13","","","","","","NA"
"-65.89","45.32","SAINT JOHN A","8104901","2023-05-14 08:00","2023","05","14","08:00","8.3","","0.4","","58","","","","30","","25","","24.1","","100.11","","","","","","Mainly Clear"
"-65.89","45.32","SAINT JOHN A","8104901","2023-05-14 09:00","2023","05","14","09:00","9.4","","0.8","","55","","","","33","","27","","24.1","","100.10","","","","","","NA"
"-65.89","45.32","SAINT JOHN A","8104901","2023-05-14 10:00","2023","05","14","10:00","9.7","","0.3","","52","","","","32","","31","","24.1","","100.10","","","","","","NA"
"-65.89","45.32","SAINT JOHN A","8104901","2023-05-14 11:00","2023","05","14","11:00","10.8","","0.2","","48","","","","31","","33","","24.1","","100.12","","","","","","Mostly Cloudy"
"-65.89","45.32","SAINT JOHN A","8104901","2023-05-14 12:00","2023","05","14","12:00","13.3","","1.5","","44","","","","31","","29","","24.1","","100.09","","","","","","NA"
"-65.89","45.32","SAINT JOHN A","8104901","2023-05-14 13:00","2023","05","14","13:00","14.6","","1.9","","42","","","","35","","25","","24.1","","100.06","","","","","","NA"
"-65.89","45.32","SAINT JOHN A","8104901","2023-05-14 14:00","2023","05","14","14:00","15.0","","1.2","","39","","","","31","","21","","24.1","","100.03","","","","","","Mostly Cloudy"
"-65.89","45.32","SAINT JOHN A","8104901","2023-05-14 15:00","2023","05","14","15:00","15.9","","0.9","","36","","","","33","","31","","24.1","","100.04","","","","","","NA"
"-65.89","45.32","SAINT JOHN A","8104901","2023-05-14 16:00","2023","05","14","16:00","15.2","","-0.8","","33","","","","32","","33","","24.1","","100.07","","","","","","NA"
"-65.89","45.32","SAINT JOHN A","8104901","2023-05-14 17:00","2023","05","14","17:00","15.1","","-0.8","","34","","","","34","","27","","24.1","","100.11","","","","","","Mainly Clear"
"-65.89","45.32","SAINT JOHN A","8104901","2023-05-14 18:00","2023","05","14","18:00","14.0","","-0.3","","37","","","","35","","22","","24.1","","100.19","","","","","","NA"
"-65.89","45.32","SAINT JOHN A","8104901","2023-05-14 19:00","2023","05","14","19:00","12.9","","-0.3","","40","","","","33","","23","","24.1","","100.26","","","","","","NA"
"-65.89","45.32","SAINT JOHN A","8104901","2023-05-14 20:00","2023","05","14","20:00","10.9","","-0.8","","44","","","","32","","20","","24.1","","100.36","","","","","","Mainly Clear"
"-65.89","45.32","SAINT JOHN A","8104901","2023-05-14 21:00","2023","05","14","21:00","9.2","","-0.7","","50","","","","30","","8","","24.1","","100.40","","","","","","NA"
"-65.89","45.32","SAINT JOHN A","8104901","2023-05-14 22:00","2023","05","14","22:00","7.7","","0.2","","59","","","","31","","14","","24.1","","100.38","","","","","","NA"
"-65.89","45.32","SAINT JOHN A","8104901","2023-05-14 23:00","2023","05","14","23:00","6.0","","-0.4","","63","","","","29","","5","","24.1","","100.36","","","","","","Clear"
"-65.89","45.32","SAINT JOHN A","8104901","2023-05-15 00:00","2023","05","15","00:00","5.0","","0.1","","70","","","","36","","1","","24.1","","100.32","","","","","","NA"
"-65.89","45.32","SAINT JOHN A","8104901","2023-05-15 01:00","2023","05","15","01:00","0.4","","-2.3","","82","","","","18","","4","","24.1","","100.28","","","","","","NA"
"-65.89","45.32","SAINT JOHN A","8104901","2023-05-15 02:00","2023","05","15","02:00","-0.6","","-2.4","","88","","","","0","","1","","24.1","","100.24","","","","-1","","Clear"
"-65.89","45.32","SAINT JOHN A","8104901","2023-05-15 03:00","2023","05","15","03:00","5.8","","-1.8","","58","","","","27","","11","","24.1","","100.21","","","","","","NA"
"-65.89","45.32","SAINT JOHN A","8104901","2023-05-15 04:00","2023","05","15","04:00","6.1","","-2.4","","54","","","","31","","14","","24.1","","100.19","","","","","","NA"
"-65.89","45.32","SAINT JOHN A","8104901","2023-05-15 05:00","2023","05","15","05:00","7.3","","-2.8","","49","","","","29","","16","","24.1","","100.20","","","","","","Mainly Clear"
"-65.89","45.32","SAINT JOHN A","8104901","2023-05-15 06:00","2023","05","15","06:00","8.5","","-2.2","","47","","","","28","","16","","24.1","","100.19","","","","","","NA"
"-65.89","45.32","SAINT JOHN A","8104901","2023-05-15 07:00","2023","05","15","07:00","9.5","","-1.6","","46","","","","28","","17","","24.1","","100.17","","","","","","NA"
"-65.89","45.32","SAINT JOHN A","8104901","2023-05-15 08:00","2023","05","15","08:00","10.7","","-0.4","","46","","","","27","","15","","24.1","","100.14","","","","","","Mostly Cloudy"
"-65.89","45.32","SAINT JOHN A","8104901","2023-05-15 09:00","2023","05","15","09:00","14.5","","0.1","","37","","","","29","","18","","24.1","","100.07","","","","","","NA"
"-65.89","45.32","SAINT JOHN A","8104901","2023-05-15 10:00","2023","05","15","10:00","15.6","","0.7","","36","","","","26","","21","","24.1","","99.99","","","","","","NA"
"-65.89","45.32","SAINT JOHN A","8104901","2023-05-15 11:00","2023","05","15","11:00","17.1","","1.8","","35","","","","25","","20","","24.1","","99.89","","","","","","Mainly Clear"
"-65.89","45.32","SAINT JOHN A","8104901","2023-05-15 12:00","2023","05","15","12:00","16.8","","1.6","","36","","","","22","","32","","24.1","","99.73","","","","","","NA"
"-65.89","45.32","SAINT JOHN A","8104901","2023-05-15 13:00","2023","05","15","13:00","16.7","","1.3","","35","","","","23","","33","","24.1","","99.63","","","","","","NA"
"-65.89","45.32","SAINT JOHN A","8104901","2023-05-15 14:00","2023","05","15","14:00","16.1","","2.7","","40","","","","21","","34","","24.1","","99.51","","","","","","Mostly Cloudy"
"-65.89","45.32","SAINT JOHN A","8104901","2023-05-15 15:00","2023","05","15","15:00","16.5","","4.3","","44","","","","21","","32","","24.1","","99.35","","","","","","NA"
"-65.89","45.32","SAINT JOHN A","8104901","2023-05-15 16:00","2023","05","15","16:00","14.4","","3.7","","48","","","","22","","33","","24.1","","99.24","","","","","","NA"
"-65.89","45.32","SAINT JOHN A","8104901","2023-05-15 17:00","2023","05","15","17:00","12.9","","4.1","","55","","","","23","","24","","24.1","","99.19","","","","","","Cloudy"
"-65.89","45.32","SAINT JOHN A","8104901","2023-05-15 18:00","2023","05","15","18:00","11.9","","3.9","","58","","","","22","","22","","24.1","","99.12","","","","","","NA"
"-65.89","45.32","SAINT JOHN A","8104901","2023-05-15 19:00","2023","05","15","19:00","11.9","","3.7","","57","","","","23","","14","","24.1","","99.11","","","","","","NA"
"-65.89","45.32","SAINT JOHN A","8104901","2023-05-15 20:00","2023","05","15","20:00","12.7","","4.0","","55","","","","23","","12","","24.1","","99.13","","","","","","Cloudy"
"-65.89","45.32","SAINT JOHN A","8104901","2023-05-15 21:00","2023","05","15","21:00","15.1","","2.9","","44","","","","29","","22","","24.1","","99.14","","","","","","NA"
"-65.89","45.32","SAINT JOHN A","8104901","2023-05-15 22:00","2023","05","15","22:00","13.7","","3.5","","50","","","","27","","8","","24.1","","99.06","","","","","","NA"
"-65.89","45.32","SAINT JOHN A","8104901","2023-05-15 23:00","2023","05","15","23:00","14.2","","2.5","","45","","","","23","","16","","24.1","","99.02","","","","","","Mostly Cloudy"
"-65.89","45.32","SAINT JOHN A","8104901","2023-05-16 00:00","2023","05","16","00:00","12.5","","2.9","","52","","","","24","","8","","24.1","","98.96","","","","","","NA"
"-65.89","45.32","SAINT JOHN A","8104901","2023-05-16 01:00","2023","05","16","01:00","10.8","","3.8","","62","","","","21","","7","","24.1","","98.90","","","","","","NA"
"-65.89","45.32","SAINT JOHN A","8104901","2023-05-16 02:00","2023","05","16","02:00","10.2","","3.9","","65","","","","22","","8","","24.1","","98.86","","","","","","Cloudy"
"-65.89","45.32","SAINT JOHN A","8104901","2023-05-16 03:00","2023","05","16","03:00","10.7","","4.0","","63","","","","23","","8","","24.1","","98.86","","","","","","NA"
"-65.89","45.32","SAINT JOHN A","8104901","2023-05-16 04:00","2023","05","16","04:00","11.0","","4.0","","62","","","","24","","9","","24.1","","98.84","","","","","","NA"
"-65.89","45.32","SAINT JOHN A","8104901","2023-05-16 05:00","2023","05","16","05:00","7.8","","3.8","","76","","","","21","","9","","24.1","","98.87","","","","","","Mostly Cloudy"
"-65.89","45.32","SAINT JOHN A","8104901","2023-05-16 06:00","2023","05","16","06:00","10.5","","4.7","","67","","","","23","","8","","24.1","","98.88","","","","","","NA"
"-65.89","45.32","SAINT JOHN A","8104901","2023-05-16 07:00","2023","05","16","07:00","12.4","","4.7","","59","","","","24","","12","","24.1","","98.89","","","","","","NA"
"-65.89","45.32","SAINT JOHN A","8104901","2023-05-16 08:00","2023","05","16","08:00","14.5","","5.2","","54","","","","26","","17","","24.1","","98.87","","","","","","Mainly Clear"
"-65.89","45.32","SAINT JOHN A","8104901","2023-05-16 09:00","2023","05","16","09:00","16.4","","5.4","","48","","","","24","","15","","24.1","","98.84","","","","","","NA"
"-65.89","45.32","SAINT JOHN A","8104901","2023-05-16 10:00","2023","05","16","10:00","14.9","","5.5","","53","","","","26","","14","","24.1","","98.80","","","","","","NA"
"-65.89","45.32","SAINT JOHN A","8104901","2023-05-16 11:00","2023","05","16","11:00","15.1","","5.8","","53","","","","28","","16","","24.1","","98.76","","","","","","Cloudy"
"-65.89","45.32","SAINT JOHN A","8104901","2023-05-16 12:00","2023","05","16","12:00","13.1","","9.6","","79","","","","23","","8","","24.1","","98.72","","","","","","Rain"
"-65.89","45.32","SAINT JOHN A","8104901","2023-05-16 13:00","2023","05","16","13:00","12.8","","8.8","","76","","","","26","","9","","19.3","","98.67","","","","","","Rain"
"-65.89","45.32","SAINT JOHN A","8104901","2023-05-16 14:00","2023","05","16","14:00","11.7","","8.4","","80","","","","21","","12","","24.1","","98.58","","","","","","Cloudy"
"-65.89","45.32","SAINT JOHN A","8104901","2023-05-16 15:00","2023","05","16","15:00","11.5","","8.9","","84","","","","26","","4","","19.3","","98.43","","","","","","Rain"
"-65.89","45.32","SAINT JOHN A","8104901","2023-05-16 16:00","2023","05","16","16:00","12.0","","9.2","","83","","","","22","","4","","24.1","","98.40","","","","","","NA"
"-65.89","45.32","SAINT JOHN A","8104901","2023-05-16 17:00","2023","05","16","17:00","11.1","","7.9","","81","","","","20","","14","","24.1","","98.38","","","","","","Cloudy"
"-65.89","45.32","SAINT JOHN A","8104901","2023-05-16 18:00","2023","05","16","18:00","8.8","","7.6","","92","","","","25","","3","","19.3","","98.38","","","","","","Rain Showers"
"-65.89","45.32","SAINT JOHN A","8104901","2023-05-16 19:00","2023","05","16","19:00","9.1","","8.8","","98","","","","2","","7","","12.9","","98.36","","","","","","Rain"
"-65.89","45.32","SAINT JOHN A","8104901","2023-05-16 20:00","2023","05","16","20:00","8.9","","8.9","","100","","","","34","","10","","12.9","","98.42","","","","","","Rain"
"-65.89","45.32","SAINT JOHN A","8104901","2023-05-16 21:00","2023","05","16","21:00","8.1","","8.1","","100","","","","36","","9","","12.9","","98.48","","","","","","Rain"
"-65.89","45.32","SAINT JOHN A","8104901","2023-05-16 22:00","2023","05","16","22:00","7.9","","7.9","","100","","","","35","","12","","12.9","","98.44","","","","","","Rain"
"-65.89","45.32","SAINT JOHN A","8104901","2023-05-16 23:00","2023","05","16","23:00","7.1","","7.1","","100","","","","35","","21","","12.9","","98.43","","","","","","Rain"
"-65.89","45.32","SAINT JOHN A","8104901","2023-05-17 00:00","2023","05","17","00:00","6.6","","6.3","","98","","","","35","","17","","16.1","","98.46","","","","","","NA"
"-65.89","45.32","SAINT JOHN A","8104901","2023-05-17 01:00","2023","05","17","01:00","6.4","","5.8","","96","","","","34","","16","","16.1","","98.50","","","","","","NA"
"-65.89","45.32","SAINT JOHN A","8104901","2023-05-17 02:00","2023","05","17","02:00","5.9","","5.4","","97","","","","36","","21","","9.7","","98.48","","","","","","Fog"
"-65.89","45.32","SAINT JOHN A","8104901","2023-05-17 03:00","2023","05","17","03:00","5.1","","4.5","","95","","","","36","","21","","12.9","","98.55","","","","","","NA"
"-65.89","45.32","SAINT JOHN A","8104901","2023-05-17 04:00","2023","05","17","04:00","4.8","","4.2","","96","","","","3","","14","","16.1","","98.54","","","","","","NA"
"-65.89","45.32","SAINT JOHN A","8104901","2023-05-17 05:00","2023","05","17","05:00","4.7","","4.2","","97","","","","35","","10","","24.1","","98.57","","","","","","Mostly Cloudy"
"-65.89","45.32","SAINT JOHN A","8104901","2023-05-17 06:00","2023","05","17","06:00","4.5","","4.3","","99","","","","33","","15","","24.1","","98.64","","","","","","NA"
"-65.89","45.32","SAINT JOHN A","8104901","2023-05-17 07:00","2023","05","17","07:00","5.5","","4.9","","96","","","","1","","13","","24.1","","98.69","","","","","","NA"
"-65.89","45.32","SAINT JOHN A","8104901","2023-05-17 08:00","2023","05","17","08:00","7.0","","4.4","","83","","","","36","","12","","24.1","","98.72","","","","","","Mostly Cloudy"
"-65.89","45.32","SAINT JOHN A","8104901","2023-05-17 09:00","2023","05","17","09:00","8.4","","3.1","","69","","","","34","","20","","24.1","","98.73","","","","","","NA"
"-65.89","45.32","SAINT JOHN A","8104901","2023-05-17 10:00","2023","05","17","10:00","8.5","","1.3","","60","","","","34","","12","","24.1","","98.75","","","","","","NA"
"-65.89","45.32","SAINT JOHN A","8104901","2023-05-17 11:00","2023","05","17","11:00","9.1","","1.9","","61","","","","33","","17","","24.1","","98.75","","","","","","Mostly Cloudy"
"-65.89","45.32","SAINT JOHN A","8104901","2023-05-17 12:00","2023","05","17","12:00","9.7","","-2.2","","43","","","","30","","18","","24.1","","98.73","","","","","","NA"
"-65.89","45.32","SAINT JOHN A","8104901","2023-05-17 13:00","2023","05","17","13:00","9.4","","0.0","","52","","","","31","","32","","24.1","","98.73","","","","","","NA"
"-65.89","45.32","SAINT JOHN A","8104901","2023-05-17 14:00","2023","05","17","14:00","7.8","","1.0","","62","","","","33","","34","","24.1","","98.80","","","","","","Mostly Cloudy"
"-65.89","45.32","SAINT JOHN A","8104901","2023-05-17 15:00","2023","05","17","15:00","5.6","","0.8","","71","","","","34","","38","","19.3","","98.89","","","","","","Rain Showers"
"-65.89","45.32","SAINT JOHN A","8104901","2023-05-17 16:00","2023","05","17","16:00","8.4","","1.6","","62","","","","35","","26","","16.1","","98.90","","","","","","Rain Showers"
"-65.89","45.32","SAINT JOHN A","8104901","2023-05-17 17:00","2023","05","17","17:00","5.7","","2.6","","80","","","","34","","28","","24.1","","99.04","","","","","","Rain Showers"
"-65.89","45.32","SAINT JOHN A","8104901","2023-05-17 18:00","2023","05","17","18:00","3.1","","0.7","","84","","","","34","","38","","11.3","","99.20","","","","","","Rain Showers"
"-65.89","45.32","SAINT JOHN A","8104901","2023-05-17 19:00","2023","05","17","19:00","3.6","","1.4","","85","","","","36","","15","","24.1","","99.24","","","","","","NA"
"-65.89","45.32","SAINT JOHN A","8104901","2023-05-17 20:00","2023","05","17","20:00","3.4","","1.2","","85","","","","34","","10","","24.1","","99.34","","","","","","Mostly Cloudy"
"-65.89","45.32","SAINT JOHN A","8104901","2023-05-17 21:00","2023","05","17","21:00","2.2","","0.8","","90","","","","36","","2","","24.1","","99.45","","","","","","NA"
"-65.89","45.32","SAINT JOHN A","8104901","2023-05-17 22:00","2023","05","17","22:00","0.4","","0.4","","100","","","","36","","3","","24.1","","99.57","","","","","","NA"
"-65.89","45.32","SAINT JOHN A","8104901","2023-05-17 23:00","2023","05","17","23:00","1.0","","1.0","","100","","","","28","","12","","24.1","","99.63","","","","","","Mainly Clear"
"-65.89","45.32","SAINT JOHN A","8104901","2023-05-18 00:00","2023","05","18","00:00","1.6","","-2.4","","75","","","","30","","13","","24.1","","99.72","","","","","","NA"
"-65.89","45.32","SAINT JOHN A","8104901","2023-05-18 01:00","2023","05","18","01:00","1.3","","-3.9","","69","","","","30","","14","","24.1","","99.80","","","","","","NA"
"-65.89","45.32","SAINT JOHN A","8104901","2023-05-18 02:00","2023","05","18","02:00","1.2","","-3.6","","70","","","","29","","16","","24.1","","99.87","","","","","","Mainly Clear"
"-65.89","45.32","SAINT JOHN A","8104901","2023-05-18 03:00","2023","05","18","03:00","1.3","","-3.2","","72","","","","30","","21","","24.1","","99.92","","","","","","NA"
"-65.89","45.32","SAINT JOHN A","8104901","2023-05-18 04:00","2023","05","18","04:00","1.2","","-3.0","","73","","","","30","","19","","24.1","","100.02","","","","","","NA"
"-65.89","45.32","SAINT JOHN A","8104901","2023-05-18 05:00","2023","05","18","05:00","1.1","","-3.0","","74","","","","30","","18","","24.1","","100.15","","","","","","Clear"
"-65.89","45.32","SAINT JOHN A","8104901","2023-05-18 06:00","2023","05","18","06:00","1.9","","-2.6","","72","","","","31","","22","","24.1","","100.27","","","","","","NA"
"-65.89","45.32","SAINT JOHN A","8104901","2023-05-18 07:00","2023","05","18","07:00","3.5","","-2.2","","66","","","","31","","26","","24.1","","100.38","","","","","","NA"
"-65.89","45.32","SAINT JOHN A","8104901","2023-05-18 08:00","2023","05","18","08:00","5.0","","-1.5","","63","","","","34","","22","","24.1","","100.47","","","","","","Clear"
"-65.89","45.32","SAINT JOHN A","8104901","2023-05-18 09:00","2023","05","18","09:00","6.5","","-2.3","","53","","","","32","","22","","24.1","","100.53","","","","","","NA"
"-65.89","45.32","SAINT JOHN A","8104901","2023-05-18 10:00","2023","05","18","10:00","8.5","","-3.8","","42","","","","31","","29","","24.1","","100.56","","","","","","NA"
"-65.89","45.32","SAINT JOHN A","8104901","2023-05-18 11:00","2023","05","18","11:00","8.2","","-6.6","","34","","","","29","","20","","24.1","","100.63","","","","","","Mostly Cloudy"
"-65.89","45.32","SAINT JOHN A","8104901","2023-05-18 12:00","2023","05","18","12:00","9.1","","-6.5","","32","","","","32","","27","","24.1","","100.71","","","","","","NA"
"-65.89","45.32","SAINT JOHN A","8104901","2023-05-18 13:00","2023","05","18","13:00","10.6","","-6.0","","31","","","","28","","22","","24.1","","100.74","","","","","","NA"
"-65.89","45.32","SAINT JOHN A","8104901","2023-05-18 14:00","2023","05","18","14:00","10.6","","-6.0","","31","","","","27","","10","","24.1","","100.76","","","","","","Mainly Clear"
"-65.89","45.32","SAINT JOHN A","8104901","2023-05-18 15:00","2023","05","18","15:00","12.1","","-6.2","","27","","","","30","","16","","24.1","","100.78","","","","","","NA"
"-65.89","45.32","SAINT JOHN A","8104901","2023-05-18 16:00","2023","05","18","16:00","11.6","","-1.0","","41","","","","20","","25","","24.1","","100.83","","","","","","NA"
"-65.89","45.32","SAINT JOHN A","8104901","2023-05-18 17:00","2023","05","18","17:00","10.2","","-1.3","","44","","","","21","","31","","24.1","","100.90","","","","","","Clear"
"-65.89","45.32","SAINT JOHN A","8104901","2023-05-18 18:00","2023","05","18","18:00","9.5","","-0.9","","48","","","","22","","27","","24.1","","100.95","","","","","","NA"
"-65.89","45.32","SAINT JOHN A","8104901","2023-05-18 19:00","2023","05","18","19:00","7.7","","0.9","","62","","","","21","","28","","24.1","","101.02","","","","","","NA"
"-65.89","45.32","SAINT JOHN A","8104901","2023-05-18 20:00","2023","05","18","20:00","6.2","","2.1","","75","","","","23","","16","","24.1","","101.09","","","","","","Clear"
"-65.89","45.32","SAINT JOHN A","8104901","2023-05-18 21:00","2023","05","18","21:00","5.9","","1.5","","73","","","","23","","17","","24.1","","101.16","","","","","","NA"
"-65.89","45.32","SAINT JOHN A","8104901","2023-05-18 22:00","2023","05","18","22:00","5.7","","1.1","","72","","","","21","","18","","24.1","","101.24","","","","","","NA"
"-65.89","45.32","SAINT JOHN A","8104901","2023-05-18 23:00","2023","05","18","23:00","4.8","","1.8","","81","","","","21","","10","","24.1","","101.30","","","","","","Clear"
"-65.89","45.32","SAINT JOHN A","8104901","2023-05-19 00:00","2023","05","19","00:00","4.7","","2.9","","88","","","","21","","16","","24.1","","101.34","","","","","","NA"
"-65.89","45.32","SAINT JOHN A","8104901","2023-05-19 01:00","2023","05","19","01:00","4.7","","3.1","","89","","","","21","","13","","24.1","","101.37","","","","","","NA"
"-65.89","45.32","SAINT JOHN A","8104901","2023-05-19 02:00","2023","05","19","02:00","4.8","","3.4","","91","","","","21","","14","","24.1","","101.37","","","","","","Clear"
"-65.89","45.32","SAINT JOHN A","8104901","2023-05-19 03:00","2023","05","19","03:00","4.8","","4.3","","96","","","","21","","17","","24.1","","101.38","","","","","","NA"
"-65.89","45.32","SAINT JOHN A","8104901","2023-05-19 04:00","2023","05","19","04:00","4.8","","4.6","","98","","","","21","","13","","24.1","","101.41","","","","","","NA"
"-65.89","45.32","SAINT JOHN A","8104901","2023-05-19 05:00","2023","05","19","05:00","5.3","","5.3","","100","","","","22","","17","","12.9","","101.43","","","","","","Mostly Cloudy"
"-65.89","45.32","SAINT JOHN A","8104901","2023-05-19 06:00","2023","05","19","06:00","6.3","","6.3","","100","","","","21","","13","","24.1","","101.45","","","","","","NA"
"-65.89","45.32","SAINT JOHN A","8104901","2023-05-19 07:00","2023","05","19","07:00","7.9","","6.2","","89","","","","20","","32","","24.1","","101.48","","","","","","NA"
"-65.89","45.32","SAINT JOHN A","8104901","2023-05-19 08:00","2023","05","19","08:00","9.1","","6.3","","82","","","","21","","31","","24.1","","101.50","","","","","","Cloudy"
"-65.89","45.32","SAINT JOHN A","8104901","2023-05-19 09:00","2023","05","19","09:00","9.8","","6.5","","80","","","","20","","29","","24.1","","101.50","","","","","","NA"
"-65.89","45.32","SAINT JOHN A","8104901","2023-05-19 10:00","2023","05","19","10:00","10.3","","6.2","","76","","","","20","","37","","24.1","","101.52","","","","","","NA"
"-65.89","45.32","SAINT JOHN A","8104901","2023-05-19 11:00","2023","05","19","11:00","10.9","","5.9","","71","","","","19","","40","","24.1","","101.56","","","","","","Cloudy"
"-65.89","45.32","SAINT JOHN A","8104901","2023-05-19 12:00","2023","05","19","12:00","11.5","","5.2","","65","","","","21","","39","","24.1","","101.55","","","","","","Funnel Cloud"
"-65.89","45.32","SAINT JOHN A","8104901","2023-05-19 13:00","2023","05","19","13:00","11.8","","5.2","","64","","","","20","","39","","24.1","","101.52","","","","","","NA"
"-65.89","45.32","SAINT JOHN A","8104901","2023-05-19 14:00","2023","05","19","14:00","10.4","","5.2","","70","","","","20","","50","","24.1","","101.48","","","","","","Mostly Cloudy"
"-65.89","45.32","SAINT JOHN A","8104901","2023-05-19 15:00","2023","05","19","15:00","10.8","","5.6","","70","","","","21","","42","","24.1","","101.44","","","","","","NA"
"-65.89","45.32","SAINT JOHN A","8104901","2023-05-19 16:00","2023","05","19","16:00","10.5","","5.7","","72","","","","21","","35","","24.1","","101.36","","","","","","NA"
"-65.89","45.32","SAINT JOHN A","8104901","2023-05-19 17:00","2023","05","19","17:00","9.6","","4.9","","73","","","","20","","46","","24.1","","101.32","","","","","","Mainly Clear"
"-65.89","45.32","SAINT JOHN A","8104901","2023-05-19 18:00","2023","05","19","18:00","8.8","","5.0","","77","","","","21","","41","","24.1","","101.28","","","","","","NA"
"-65.89","45.32","SAINT JOHN A","8104901","2023-05-19 19:00","2023","05","19","19:00","7.8","","4.5","","80","","","","22","","39","","24.1","","101.25","","","","","","NA"
"-65.89","45.32","SAINT JOHN A","8104901","2023-05-19 20:00","2023","05","19","20:00","7.3","","4.1","","80","","","","20","","42","","24.1","","101.24","","","","","","Mostly Cloudy"
"-65.89","45.32","SAINT JOHN A","8104901","2023-05-19 21:00","2023","05","19","21:00","6.9","","4.3","","83","","","","21","","35","","24.1","","101.29","","","","","","NA"
"-65.89","45.32","SAINT JOHN A","8104901","2023-05-19 22:00","2023","05","19","22:00","6.8","","4.2","","84","","","","21","","28","","24.1","","101.25","","","","","","NA"
"-65.89","45.32","SAINT JOHN A","8104901","2023-05-19 23:00","2023","05","19","23:00","7.6","","4.5","","81","","","","21","","32","","24.1","","101.25","","","","","","Mostly Cloudy"
"-65.89","45.32","SAINT JOHN A","8104901","2023-05-20 00:00","2023","05","20","00:00","7.0","","4.6","","85","","","","21","","16","","24.1","","101.24","","","","","","NA"
"-65.89","45.32","SAINT JOHN A","8104901","2023-05-20 01:00","2023","05","20","01:00","7.5","","5.5","","87","","","","21","","26","","24.1","","101.20","","","","","","NA"
"-65.89","45.32","SAINT JOHN A","8104901","2023-05-20 02:00","2023","05","20","02:00","7.7","","6.3","","91","","","","21","","28","","24.1","","101.15","","","","","","Mostly Cloudy"
"-65.89","45.32","SAINT JOHN A","8104901","2023-05-20 03:00","2023","05","20","03:00","7.7","","6.9","","95","","","","20","","25","","12.9","","101.11","","","","","","NA"
"-65.89","45.32","SAINT JOHN A","8104901","2023-05-20 04:00","2023","05","20","04:00","8.4","","7.9","","96","","","","21","","27","","12.9","","101.09","","","","","","NA"
"-65.89","45.32","SAINT JOHN A","8104901","2023-05-20 05:00","2023","05","20","05:00","8.7","","7.8","","94","","","","21","","23","","11.3","","101.11","","","","","","Cloudy"
"-65.89","45.32","SAINT JOHN A","8104901","2023-05-20 06:00","2023","05","20","06:00","8.5","","8.0","","96","","","","21","","21","","3.2","","101.17","","","","","","Fog"
"-65.89","45.32","SAINT JOHN A","8104901","2023-05-20 07:00","2023","05","20","07:00","8.9","","8.9","","100","","","","22","","23","","3.2","","101.19","","","","","","Fog"
"-65.89","45.32","SAINT JOHN A","8104901","2023-05-20 08:00","2023","05","20","08:00","9.4","","9.4","","100","","","","22","","20","","1.6","","101.23","","","","","","Fog"
"-65.89","45.32","SAINT JOHN A","8104901","2023-05-20 09:00","2023","05","20","09:00","10.4","","10.4","","100","","","","22","","14","","3.2","","101.25","","","","","","Fog"
"-65.89","45.32","SAINT JOHN A","8104901","2023-05-20 10:00","2023","05","20","10:00","11.9","","10.2","","89","","","","20","","22","","16.1","","101.26","","","","","","NA"
"-65.89","45.32","SAINT JOHN A","8104901","2023-05-20 11:00","2023","05","20","11:00","12.4","","10.2","","86","","","","21","","20","","16.1","","101.26","","","","","","Cloudy"
"-65.89","45.32","SAINT JOHN A","8104901","2023-05-20 12:00","2023","05","20","12:00","14.2","","9.9","","75","","","","19","","19","","24.1","","101.25","","","","","","NA"
"-65.89","45.32","SAINT JOHN A","8104901","2023-05-20 13:00","2023","05","20","13:00","14.6","","9.6","","71","","","","18","","25","","24.1","","101.20","","","","","","NA"
"-65.89","45.32","SAINT JOHN A","8104901","2023-05-20 14:00","2023","05","20","14:00","14.4","","8.9","","69","","","","21","","27","","24.1","","101.17","","","","","","Mostly Cloudy"
"-65.89","45.32","SAINT JOHN A","8104901","2023-05-20 15:00","2023","05","20","15:00","14.7","","9.9","","73","","","","22","","26","","24.1","","101.13","","","","","","NA"
"-65.89","45.32","SAINT JOHN A","8104901","2023-05-20 16:00","2023","05","20","16:00","14.6","","10.1","","74","","","","21","","22","","24.1","","101.09","","","","","","NA"
"-65.89","45.32","SAINT JOHN A","8104901","2023-05-20 17:00","2023","05","20","17:00","15.1","","10.3","","73","","","","22","","17","","24.1","","101.03","","","","","","Mostly Cloudy"
"-65.89","45.32","SAINT JOHN A","8104901","2023-05-20 18:00","2023","05","20","18:00","12.9","","10.8","","87","","","","22","","17","","24.1","","101.01","","","","","","NA"
"-65.89","45.32","SAINT JOHN A","8104901","2023-05-20 19:00","2023","05","20","19:00","12.0","","10.7","","92","","","","23","","15","","19.3","","100.97","","","","","","NA"
"-65.89","45.32","SAINT JOHN A","8104901","2023-05-20 20:00","2023","05","20","20:00","11.5","","10.8","","95","","","","19","","16","","19.3","","100.89","","","","","","Cloudy"
"-65.89","45.32","SAINT JOHN A","8104901","2023-05-20 21:00","2023","05","20","21:00","11.6","","11.0","","96","","","","18","","17","","19.3","","100.83","","","","","","NA"
"-65.89","45.32","SAINT JOHN A","8104901","2023-05-20 22:00","2023","05","20","22:00","11.5","","11.4","","99","","","","18","","9","","12.9","","100.76","","","","","","Rain"
"-65.89","45.32","SAINT JOHN A","8104901","2023-05-20 23:00","2023","05","20","23:00","13.0","","12.5","","97","","","","18","","18","","3.2","","100.66","","","","","","Rain,Fog"
"-65.89","45.32","SAINT JOHN A","8104901","2023-05-21 00:00","2023","05","21","00:00","12.1","","12.1","","100","","","","15","","14","","4.8","","100.55","","","","","","Rain,Fog"
"-65.89","45.32","SAINT JOHN A","8104901","2023-05-21 01:00","2023","05","21","01:00","11.7","","11.7","","100","","","","14","","14","","6.4","","100.42","","","","","","Rain,Fog"
"-65.89","45.32","SAINT JOHN A","8104901","2023-05-21 02:00","2023","05","21","02:00","12.6","","12.6","","100","","","","16","","18","","4.8","","100.26","","","","","","Rain,Fog"
"-65.89","45.32","SAINT JOHN A","8104901","2023-05-21 03:00","2023","05","21","03:00","13.5","","13.5","","100","","","","17","","22","","3.2","","100.11","","","","","","Rain,Fog"
"-65.89","45.32","SAINT JOHN A","8104901","2023-05-21 04:00","2023","05","21","04:00","13.9","","13.9","","100","","","","16","","34","","9.7","","99.93","","","","","","Fog"
"-65.89","45.32","SAINT JOHN A","8104901","2023-05-21 05:00","2023","05","21","05:00","13.3","","12.4","","94","","","","17","","34","","9.7","","99.79","","","","","","Rain,Fog"
"-65.89","45.32","SAINT JOHN A","8104901","2023-05-21 06:00","2023","05","21","06:00","13.4","","12.9","","97","","","","18","","32","","3.2","","99.73","","","","","","Moderate Rain,Fog"
"-65.89","45.32","SAINT JOHN A","8104901","2023-05-21 07:00","2023","05","21","07:00","13.5","","13.5","","100","","","","17","","42","","9.7","","99.56","","","","","","Rain,Fog"
"-65.89","45.32","SAINT JOHN A","8104901","2023-05-21 08:00","2023","05","21","08:00","13.8","","13.8","","100","","","","19","","38","","3.2","","99.49","","","","","","Heavy Rain,Fog"
"-65.89","45.32","SAINT JOHN A","8104901","2023-05-21 09:00","2023","05","21","09:00","13.7","","13.7","","100","","","","20","","33","","2.4","","99.49","","","","","","Heavy Rain,Fog"
"-65.89","45.32","SAINT JOHN A","8104901","2023-05-21 10:00","2023","05","21","10:00","12.7","","12.7","","100","","","","20","","42","","2.4","","99.39","","","","","","Heavy Rain,Fog"
"-65.89","45.32","SAINT JOHN A","8104901","2023-05-21 11:00","2023","05","21","11:00","11.4","","11.4","","100","","","","21","","40","","1.2","","99.36","","","","","","Rain,Fog"
"-65.89","45.32","SAINT JOHN A","8104901","2023-05-21 12:00","2023","05","21","12:00","10.9","","10.9","","100","","","","21","","30","","0.8","","99.35","","","","","","Rain,Fog"
"-65.89","45.32","SAINT JOHN A","8104901","2023-05-21 13:00","2023","05","21","13:00","10.5","","10.5","","100","","","","22","","17","","0.4","","99.36","","","","","","Rain,Fog"
"-65.89","45.32","SAINT JOHN A","8104901","2023-05-21 14:00","2023","05","21","14:00","12.1","","12.1","","100","","","","20","","18","","0.8","","99.34","","","","","","Rain,Fog"
"-65.89","45.32","SAINT JOHN A","8104901","2023-05-21 15:00","2023","05","21","15:00","11.9","","11.9","","100","","","","20","","18","","1.0","","99.38","","","","","","Rain,Fog"
"-65.89","45.32","SAINT JOHN A","8104901","2023-05-21 16:00","2023","05","21","16:00","12.2","","12.2","","100","","","","19","","18","","1.6","","99.47","","","","","","Fog"
"-65.89","45.32","SAINT JOHN A","8104901","2023-05-21 17:00","2023","05","21","17:00","13.9","","13.2","","96","","","","22","","16","","19.3","","99.53","","","","","","Mostly Cloudy"
"-65.89","45.32","SAINT JOHN A","8104901","2023-05-21 18:00","2023","05","21","18:00","13.9","","12.7","","92","","","","19","","14","","24.1","","99.59","","","","","","NA"
"-65.89","45.32","SAINT JOHN A","8104901","2023-05-21 19:00","2023","05","21","19:00","13.0","","11.7","","92","","","","21","","8","","24.1","","99.73","","","","","","NA"
"-65.89","45.32","SAINT JOHN A","8104901","2023-05-21 20:00","2023","05","21","20:00","11.1","","10.5","","96","","","","21","","4","","24.1","","99.82","","","","","","Mostly Cloudy"
"-65.89","45.32","SAINT JOHN A","8104901","2023-05-21 21:00","2023","05","21","21:00","9.3","","9.3","","100","","","","36","","1","","24.1","","99.95","","","","","","NA"
"-65.89","45.32","SAINT JOHN A","8104901","2023-05-21 22:00","2023","05","21","22:00","7.6","","7.6","","100","","","","36","","2","","24.1","","100.03","","","","","","NA"
"-65.89","45.32","SAINT JOHN A","8104901","2023-05-21 23:00","2023","05","21","23:00","7.0","","7.0","","100","","","","36","","1","","19.3","","100.11","","","","","","Mainly Clear"
"-65.89","45.32","SAINT JOHN A","8104901","2023-05-22 00:00","2023","05","22","00:00","11.0","","11.0","","100","","","","35","","23","","24.1","","100.22","","","","","","NA"
"-65.89","45.32","SAINT JOHN A","8104901","2023-05-22 01:00","2023","05","22","01:00","9.0","","6.6","","85","","","","3","","10","","24.1","","100.34","","","","","","NA"
"-65.89","45.32","SAINT JOHN A","8104901","2023-05-22 02:00","2023","05","22","02:00","10.5","","7.0","","79","","","","1","","12","","24.1","","100.46","","","","","","Cloudy"
"-65.89","45.32","SAINT JOHN A","8104901","2023-05-22 03:00","2023","05","22","03:00","10.2","","5.1","","71","","","","35","","26","","24.1","","100.48","","","","","","NA"
"-65.89","45.32","SAINT JOHN A","8104901","2023-05-22 04:00","2023","05","22","04:00","9.2","","4.5","","72","","","","4","","12","","24.1","","100.64","","","","","","NA"
"-65.89","45.32","SAINT JOHN A","8104901","2023-05-22 05:00","2023","05","22","05:00","7.5","","1.9","","67","","","","2","","17","","24.1","","100.78","","","","","","Mostly Cloudy"
"-65.89","45.32","SAINT JOHN A","8104901","2023-05-22 06:00","2023","05","22","06:00","6.8","","0.9","","66","","","","36","","21","","24.1","","100.87","","","","","","NA"
"-65.89","45.32","SAINT JOHN A","8104901","2023-05-22 07:00","2023","05","22","07:00","7.0","","0.3","","62","","","","2","","24","","24.1","","100.96","","","","","","NA"
"-65.89","45.32","SAINT JOHN A","8104901","2023-05-22 08:00","2023","05","22","08:00","7.9","","-0.2","","56","","","","2","","23","","24.1","","101.04","","","","","","Mainly Clear"
"-65.89","45.32","SAINT JOHN A","8104901","2023-05-22 09:00","2023","05","22","09:00","9.8","","0.8","","53","","","","1","","16","","24.1","","101.08","","","","","","NA"
"-65.89","45.32","SAINT JOHN A","8104901","2023-05-22 10:00","2023","05","22","10:00","10.6","","-0.2","","47","","","","35","","18","","24.1","","101.11","","","","","","NA"
"-65.89","45.32","SAINT JOHN A","8104901","2023-05-22 11:00","2023","05","22","11:00","12.5","","0.2","","43","","","","1","","19","","24.1","","101.09","","","","","","Mainly Clear"
"-65.89","45.32","SAINT JOHN A","8104901","2023-05-22 12:00","2023","05","22","12:00","13.2","","-0.5","","39","","","","35","","11","","24.1","","101.07","","","","","","NA"
"-65.89","45.32","SAINT JOHN A","8104901","2023-05-22 13:00","2023","05","22","13:00","14.3","","-0.4","","36","","","","3","","15","","24.1","","101.03","","","","","","NA"
"-65.89","45.32","SAINT JOHN A","8104901","2023-05-22 14:00","2023","05","22","14:00","15.1","","2.9","","44","","","","15","","8","","24.1","","101.03","","","","","","Mainly Clear"
"-65.89","45.32","SAINT JOHN A","8104901","2023-05-22 15:00","2023","05","22","15:00","13.7","","3.0","","48","","","","15","","16","","19.3","","101.06","","","","","","NA"
"-65.89","45.32","SAINT JOHN A","8104901","2023-05-22 16:00","2023","05","22","16:00","13.5","","3.1","","49","","","","14","","15","","24.1","","101.05","","","","","","NA"
"-65.89","45.32","SAINT JOHN A","8104901","2023-05-22 17:00","2023","05","22","17:00","13.5","","2.1","","46","","","","13","","16","","24.1","","101.10","","","","","","Mainly Clear"
"-65.89","45.32","SAINT JOHN A","8104901","2023-05-22 18:00","2023","05","22","18:00","12.9","","2.1","","47","","","","12","","17","","24.1","","101.15","","","","","","NA"
"-65.89","45.32","SAINT JOHN A","8104901","2023-05-22 19:00","2023","05","22","19:00","10.8","","1.7","","53","","","","10","","21","","24.1","","101.23","","","","","","NA"
"-65.89","45.32","SAINT JOHN A","8104901","2023-05-22 20:00","2023","05","22","20:00","8.6","","0.6","","57","","","","10","","21","","24.1","","101.28","","","","","","Mainly Clear"
"-65.89","45.32","SAINT JOHN A","8104901","2023-05-22 21:00","2023","05","22","21:00","7.8","","1.6","","64","","","","10","","22","","24.1","","101.35","","","","","","NA"
"-65.89","45.32","SAINT JOHN A","8104901","2023-05-22 22:00","2023","05","22","22:00","7.2","","1.1","","65","","","","10","","16","","24.1","","101.39","","","","","","NA"
"-65.89","45.32","SAINT JOHN A","8104901","2023-05-22 23:00","2023","05","22","23:00","5.7","","1.6","","75","","","","10","","11","","24.1","","101.40","","","","","","Clear"
"-65.89","45.32","SAINT JOHN A","8104901","2023-05-23 00:00","2023","05","23","00:00","5.0","","1.5","","78","","","","10","","10","","24.1","","101.47","","","","","","NA"
"-65.89","45.32","SAINT JOHN A","8104901","2023-05-23 01:00","2023","05","23","01:00","4.6","","0.6","","75","","","","10","","10","","24.1","","101.48","","","","","","NA"
"-65.89","45.32","SAINT JOHN A","8104901","2023-05-23 02:00","2023","05","23","02:00","3.4","","0.0","","79","","","","36","","2","","24.1","","101.49","","","","","","Clear"
"-65.89","45.32","SAINT JOHN A","8104901","2023-05-23 03:00","2023","05","23","03:00","0.1","","-1.5","","89","","","","30","","5","","24.1","","101.53","","","","","","NA"
"-65.89","45.32","SAINT JOHN A","8104901","2023-05-23 04:00","2023","05","23","04:00","0.9","","0.0","","94","","","","36","","2","","24.1","","101.58","","","","","","NA"
"-65.89","45.32","SAINT JOHN A","8104901","2023-05-23 05:00","2023","05","23","05:00","-0.5","","-0.9","","98","","","","4","","5","","24.1","","101.62","","","","-2","","Clear"
"-65.89","45.32","SAINT JOHN A","8104901","2023-05-23 06:00","2023","05","23","06:00","2.5","","1.6","","93","","","","4","","6","","24.1","","101.64","","","","","","NA"
"-65.89","45.32","SAINT JOHN A","8104901","2023-05-23 07:00","2023","05","23","07:00","7.7","","1.6","","65","","","","6","","3","","24.1","","101.68","","","","","","NA"
"-65.89","45.32","SAINT JOHN A","8104901","2023-05-23 08:00","2023","05","23","08:00","10.8","","2.1","","55","","","","14","","5","","24.1","","101.69","","","","","","Mainly Clear"
"-65.89","45.32","SAINT JOHN A","8104901","2023-05-23 09:00","2023","05","23","09:00","12.9","","0.1","","41","","","","23","","4","","24.1","","101.68","","","","","","NA"
"-65.89","45.32","SAINT JOHN A","8104901","2023-05-23 10:00","2023","05","23","10:00","13.1","","2.2","","47","","","","15","","12","","24.1","","101.67","","","","","","NA"
"-65.89","45.32","SAINT JOHN A","8104901","2023-05-23 11:00","2023","05","23","11:00","13.7","","0.4","","40","","","","14","","14","","24.1","","101.65","","","","","","Clear"
"-65.89","45.32","SAINT JOHN A","8104901","2023-05-23 12:00","2023","05","23","12:00","14.1","","0.2","","38","","","","15","","16","","24.1","","101.64","","","","","","NA"
"-65.89","45.32","SAINT JOHN A","8104901","2023-05-23 13:00","2023","05","23","13:00","14.5","","0.2","","38","","","","19","","11","","24.1","","101.58","","","","","","NA"
"-65.89","45.32","SAINT JOHN A","8104901","2023-05-23 14:00","2023","05","23","14:00","15.2","","-0.6","","34","","","","14","","11","","24.1","","101.50","","","","","","Mainly Clear"
"-65.89","45.32","SAINT JOHN A","8104901","2023-05-23 15:00","2023","05","23","15:00","15.7","","-0.9","","32","","","","18","","14","","24.1","","101.43","","","","","","NA"
"-65.89","45.32","SAINT JOHN A","8104901","2023-05-23 16:00","2023","05","23","16:00","16.1","","-0.4","","32","","","","19","","11","","24.1","","101.37","","","","","","NA"
"-65.89","45.32","SAINT JOHN A","8104901","2023-05-23 17:00","2023","05","23","17:00","16.4","","-4.0","","24","","","","20","","17","","24.1","","101.29","","","","","","Mainly Clear"
"-65.89","45.32","SAINT JOHN A","8104901","2023-05-23 18:00","2023","05","23","18:00","14.7","","0.2","","37","","","","22","","16","","24.1","","101.26","","","","","","NA"
"-65.89","45.32","SAINT JOHN A","8104901","2023-05-23 19:00","2023","05","23","19:00","11.8","","3.1","","55","","","","20","","18","","24.1","","101.23","","","","","","NA"
"-65.89","45.32","SAINT JOHN A","8104901","2023-05-23 20:00","2023","05","23","20:00","8.4","","4.9","","79","","","","19","","14","","24.1","","101.25","","","","","","Mainly Clear"
"-65.89","45.32","SAINT JOHN A","8104901","2023-05-23 21:00","2023","05","23","21:00","7.3","","4.5","","82","","","","21","","15","","24.1","","101.25","","","","","","NA"
"-65.89","45.32","SAINT JOHN A","8104901","2023-05-23 22:00","2023","05","23","22:00","6.8","","4.5","","85","","","","22","","13","","24.1","","101.24","","","","","","NA"
"-65.89","45.32","SAINT JOHN A","8104901","2023-05-23 23:00","2023","05","23","23:00","6.5","","3.6","","82","","","","20","","8","","24.1","","101.20","","","","","","Clear"
"-65.89","45.32","SAINT JOHN A","8104901","2023-05-24 00:00","2023","05","24","00:00","5.0","","3.0","","87","","","","20","","8","","24.1","","101.15","","","","","","NA"
"-65.89","45.32","SAINT JOHN A","8104901","2023-05-24 01:00","2023","05","24","01:00","4.2","","3.0","","92","","","","20","","7","","24.1","","101.12","","","","","","NA"
"-65.89","45.32","SAINT JOHN A","8104901","2023-05-24 02:00","2023","05","24","02:00","3.5","","3.4","","99","","","","20","","7","","24.1","","101.06","","","","","","Clear"
"-65.89","45.32","SAINT JOHN A","8104901","2023-05-24 03:00","2023","05","24","03:00","3.2","","3.2","","100","","","","20","","8","","24.1","","101.00","","","","","","NA"
"-65.89","45.32","SAINT JOHN A","8104901","2023-05-24 04:00","2023","05","24","04:00","2.5","","1.5","","93","","","","20","","8","","24.1","","100.92","","","","","","NA"
"-65.89","45.32","SAINT JOHN A","8104901","2023-05-24 05:00","2023","05","24","05:00","3.4","","2.8","","96","","","","18","","7","","24.1","","100.91","","","","","","Mainly Clear"
"-65.89","45.32","SAINT JOHN A","8104901","2023-05-24 06:00","2023","05","24","06:00","5.9","","4.8","","93","","","","18","","13","","24.1","","100.87","","","","","","NA"
"-65.89","45.32","SAINT JOHN A","8104901","2023-05-24 07:00","2023","05","24","07:00","7.5","","3.9","","78","","","","19","","14","","24.1","","100.82","","","","","","NA"
"-65.89","45.32","SAINT JOHN A","8104901","2023-05-24 08:00","2023","05","24","08:00","8.6","","3.5","","70","","","","18","","18","","24.1","","100.78","","","","","","Mainly Clear"
"-65.89","45.32","SAINT JOHN A","8104901","2023-05-24 09:00","2023","05","24","09:00","9.4","","3.9","","68","","","","18","","16","","24.1","","100.74","","","","","","NA"
"-65.89","45.32","SAINT JOHN A","8104901","2023-05-24 10:00","2023","05","24","10:00","10.1","","3.7","","64","","","","20","","18","","24.1","","100.70","","","","","","NA"
"-65.89","45.32","SAINT JOHN A","8104901","2023-05-24 11:00","2023","05","24","11:00","10.8","","2.0","","54","","","","18","","23","","24.1","","100.63","","","","","","Mainly Clear"
"-65.89","45.32","SAINT JOHN A","8104901","2023-05-24 12:00","2023","05","24","12:00","12.5","","0.4","","43","","","","20","","19","","24.1","","100.55","","","","","","NA"
"-65.89","45.32","SAINT JOHN A","8104901","2023-05-24 13:00","2023","05","24","13:00","13.7","","0.1","","39","","","","25","","12","","24.1","","100.52","","","","","","NA"
"-65.89","45.32","SAINT JOHN A","8104901","2023-05-24 14:00","2023","05","24","14:00","13.9","","-4.3","","28","","","","20","","18","","24.1","","100.46","","","","","","Mostly Cloudy"
"-65.89","45.32","SAINT JOHN A","8104901","2023-05-24 15:00","2023","05","24","15:00","16.1","","-7.3","","19","","","","23","","19","","24.1","","100.38","","","","","","NA"
"-65.89","45.32","SAINT JOHN A","8104901","2023-05-24 16:00","2023","05","24","16:00","12.4","","4.5","","58","","","","21","","21","","24.1","","100.35","","","","","","NA"
"-65.89","45.32","SAINT JOHN A","8104901","2023-05-24 17:00","2023","05","24","17:00","10.4","","6.4","","76","","","","20","","17","","24.1","","100.35","","","","","","Mostly Cloudy"
"-65.89","45.32","SAINT JOHN A","8104901","2023-05-24 18:00","2023","05","24","18:00","9.5","","5.0","","73","","","","25","","16","","24.1","","100.33","","","","","","NA"
"-65.89","45.32","SAINT JOHN A","8104901","2023-05-24 19:00","2023","05","24","19:00","8.5","","5.8","","83","","","","18","","9","","24.1","","100.28","","","","","","NA"
"-65.89","45.32","SAINT JOHN A","8104901","2023-05-24 20:00","2023","05","24","20:00","8.2","","6.0","","86","","","","19","","6","","24.1","","100.28","","","","","","Cloudy"
"-65.89","45.32","SAINT JOHN A","8104901","2023-05-24 21:00","2023","05","24","21:00","7.2","","6.3","","94","","","","19","","8","","24.1","","100.31","","","","","","NA"
"-65.89","45.32","SAINT JOHN A","8104901","2023-05-24 22:00","2023","05","24","22:00","7.7","","6.7","","94","","","","19","","9","","24.1","","100.34","","","","","","NA"
"-65.89","45.32","SAINT JOHN A","8104901","2023-05-24 23:00","2023","05","24","23:00","7.9","","6.8","","93","","","","18","","11","","16.1","","100.29","","","","","","Cloudy"
"-65.89","45.32","SAINT JOHN A","8104901","2023-05-25 00:00","2023","05","25","00:00","7.8","","7.4","","98","","","","17","","8","","12.9","","100.23","","","","","","NA"
"-65.89","45.32","SAINT JOHN A","8104901","2023-05-25 01:00","2023","05","25","01:00","7.2","","7.2","","100","","","","15","","5","","2.0","","100.18","","","","","","Fog"
"-65.89","45.32","SAINT JOHN A","8104901","2023-05-25 02:00","2023","05","25","02:00","7.0","","7.0","","100","","","","11","","10","","1.6","","100.11","","","","","","Fog"
"-65.89","45.32","SAINT JOHN A","8104901","2023-05-25 03:00","2023","05","25","03:00","7.0","","7.0","","100","","","","15","","4","","0.8","","100.07","","","","","","Fog"
"-65.89","45.32","SAINT JOHN A","8104901","2023-05-25 04:00","2023","05","25","04:00","6.9","","6.9","","100","","","","11","","5","","4.0","","100.02","","","","","","Fog"
"-65.89","45.32","SAINT JOHN A","8104901","2023-05-25 05:00","2023","05","25","05:00","7.2","","7.2","","100","","","","36","","1","","2.4","","100.06","","","","","","Fog"
"-65.89","45.32","SAINT JOHN A","8104901","2023-05-25 06:00","2023","05","25","06:00","7.4","","7.4","","100","","","","0","","1","","1.6","","100.06","","","","","","Fog"
"-65.89","45.32","SAINT JOHN A","8104901","2023-05-25 07:00","2023","05","25","07:00","8.2","","8.2","","100","","","","36","","3","","24.1","","100.04","","","","","","NA"
"-65.89","45.32","SAINT JOHN A","8104901","2023-05-25 08:00","2023","05","25","08:00","9.2","","7.7","","90","","","","33","","7","","24.1","","100.05","","","","","","Cloudy"
"-65.89","45.32","SAINT JOHN A","8104901","2023-05-25 09:00","2023","05","25","09:00","10.1","","7.5","","84","","","","2","","11","","24.1","","100.05","","","","","","NA"
"-65.89","45.32","SAINT JOHN A","8104901","2023-05-25 10:00","2023","05","25","10:00","12.8","","8.1","","73","","","","2","","13","","24.1","","100.02","","","","","","NA"
"-65.89","45.32","SAINT JOHN A","8104901","2023-05-25 11:00","2023","05","25","11:00","14.3","","8.1","","66","","","","2","","10","","24.1","","99.99","","","","","","Cloudy"
"-65.89","45.32","SAINT JOHN A","8104901","2023-05-25 12:00","2023","05","25","12:00","14.5","","7.0","","60","","","","33","","23","","24.1","","99.97","","","","","","NA"
"-65.89","45.32","SAINT JOHN A","8104901","2023-05-25 13:00","2023","05","25","13:00","14.7","","7.4","","61","","","","33","","22","","24.1","","99.95","","","","","","NA"
"-65.89","45.32","SAINT JOHN A","8104901","2023-05-25 14:00","2023","05","25","14:00","13.7","","7.2","","64","","","","1","","18","","24.1","","100.00","","","","","","Cloudy"
"-65.89","45.32","SAINT JOHN A","8104901","2023-05-25 15:00","2023","05","25","15:00","13.8","","6.2","","60","","","","1","","23","","24.1","","100.03","","","","","","NA"
"-65.89","45.32","SAINT JOHN A","8104901","2023-05-25 16:00","2023","05","25","16:00","12.7","","7.5","","71","","","","32","","21","","24.1","","100.09","","","","","","NA"
"-65.89","45.32","SAINT JOHN A","8104901","2023-05-25 17:00","2023","05","25","17:00","12.1","","7.0","","71","","","","33","","28","","24.1","","100.13","","","","","","Cloudy"
"-65.89","45.32","SAINT JOHN A","8104901","2023-05-25 18:00","2023","05","25","18:00","11.2","","6.4","","72","","","","35","","22","","24.1","","100.19","","","","","","NA"
"-65.89","45.32","SAINT JOHN A","8104901","2023-05-25 19:00","2023","05","25","19:00","10.3","","5.9","","74","","","","2","","26","","24.1","","100.26","","","","","","NA"
"-65.89","45.32","SAINT JOHN A","8104901","2023-05-25 20:00","2023","05","25","20:00","7.9","","5.3","","84","","","","2","","26","","24.1","","100.36","","","","","","Cloudy"
"-65.89","45.32","SAINT JOHN A","8104901","2023-05-25 21:00","2023","05","25","21:00","7.2","","4.0","","80","","","","36","","18","","24.1","","100.42","","","","","","NA"
"-65.89","45.32","SAINT JOHN A","8104901","2023-05-25 22:00","2023","05","25","22:00","6.9","","4.0","","82","","","","35","","23","","24.1","","100.45","","","","","","NA"
"-65.89","45.32","SAINT JOHN A","8104901","2023-05-25 23:00","2023","05","25","23:00","6.6","","3.9","","83","","","","35","","19","","24.1","","100.45","","","","","","Cloudy"
"-65.89","45.32","SAINT JOHN A","8104901","2023-05-26 00:00","2023","05","26","00:00","5.7","","4.2","","90","","","","36","","21","","24.1","","100.46","","","","","","NA"
"-65.89","45.32","SAINT JOHN A","8104901","2023-05-26 01:00","2023","05","26","01:00","5.2","","4.0","","92","","","","36","","16","","24.1","","100.49","","","","","","NA"
"-65.89","45.32","SAINT JOHN A","8104901","2023-05-26 02:00","2023","05","26","02:00","5.3","","3.3","","87","","","","35","","17","","24.1","","100.50","","","","","","Cloudy"
"-65.89","45.32","SAINT JOHN A","8104901","2023-05-26 03:00","2023","05","26","03:00","5.2","","3.1","","86","","","","36","","15","","24.1","","100.50","","","","","","NA"
"-65.89","45.32","SAINT JOHN A","8104901","2023-05-26 04:00","2023","05","26","04:00","5.4","","3.3","","86","","","","34","","20","","24.1","","100.46","","","","","","NA"
"-65.89","45.32","SAINT JOHN A","8104901","2023-05-26 05:00","2023","05","26","05:00","5.5","","3.6","","87","","","","33","","19","","24.1","","100.50","","","","","","Cloudy"
"-65.89","45.32","SAINT JOHN A","8104901","2023-05-26 06:00","2023","05","26","06:00","5.8","","3.7","","87","","","","32","","15","","24.1","","100.56","","","","","","NA"
"-65.89","45.32","SAINT JOHN A","8104901","2023-05-26 07:00","2023","05","26","07:00","6.0","","4.0","","87","","","","32","","17","","24.1","","100.59","","","","","","NA"
"-65.89","45.32","SAINT JOHN A","8104901","2023-05-26 08:00","2023","05","26","08:00","6.3","","4.9","","91","","","","33","","25","","16.1","","100.64","","","","","","Rain"
"-65.89","45.32","SAINT JOHN A","8104901","2023-05-26 09:00","2023","05","26","09:00","6.9","","4.7","","85","","","","34","","26","","24.1","","100.65","","","","","","NA"
"-65.89","45.32","SAINT JOHN A","8104901","2023-05-26 10:00","2023","05","26","10:00","8.1","","4.1","","76","","","","35","","22","","24.1","","100.65","","","","","","NA"
"-65.89","45.32","SAINT JOHN A","8104901","2023-05-26 11:00","2023","05","26","11:00","9.4","","4.7","","72","","","","33","","16","","24.1","","100.66","","","","","","Cloudy"
"-65.89","45.32","SAINT JOHN A","8104901","2023-05-26 12:00","2023","05","26","12:00","8.3","","5.1","","80","","","","36","","20","","24.1","","100.65","","","","","","NA"
"-65.89","45.32","SAINT JOHN A","8104901","2023-05-26 13:00","2023","05","26","13:00","10.2","","4.4","","67","","","","34","","20","","24.1","","100.64","","","","","","NA"
"-65.89","45.32","SAINT JOHN A","8104901","2023-05-26 14:00","2023","05","26","14:00","11.0","","4.7","","65","","","","34","","18","","24.1","","100.63","","","","","","Cloudy"
"-65.89","45.32","SAINT JOHN A","8104901","2023-05-26 15:00","2023","05","26","15:00","10.1","","6.1","","76","","","","32","","27","","24.1","","100.67","","","","","","Rain Showers"
"-65.89","45.32","SAINT JOHN A","8104901","2023-05-26 16:00","2023","05","26","16:00","10.0","","5.3","","72","","","","33","","22","","24.1","","100.66","","","","","","Rain Showers"
"-65.89","45.32","SAINT JOHN A","8104901","2023-05-26 17:00","2023","05","26","17:00","10.2","","4.8","","69","","","","35","","23","","24.1","","100.69","","","","","","Rain Showers"
"-65.89","45.32","SAINT JOHN A","8104901","2023-05-26 18:00","2023","05","26","18:00","10.4","","5.3","","71","","","","33","","22","","24.1","","100.73","","","","","","Rain Showers"
"-65.89","45.32","SAINT JOHN A","8104901","2023-05-26 19:00","2023","05","26","19:00","9.3","","7.0","","86","","","","31","","14","","24.1","","100.76","","","","","","Rain Showers"
"-65.89","45.32","SAINT JOHN A","8104901","2023-05-26 20:00","2023","05","26","20:00","8.8","","6.5","","85","","","","29","","7","","24.1","","100.74","","","","","","Rain Showers"
"-65.89","45.32","SAINT JOHN A","8104901","2023-05-26 21:00","2023","05","26","21:00","6.7","","5.5","","92","","","","20","","5","","24.1","","100.74","","","","","","NA"
"-65.89","45.32","SAINT JOHN A","8104901","2023-05-26 22:00","2023","05","26","22:00","7.1","","6.1","","94","","","","36","","2","","24.1","","100.74","","","","","","NA"
"-65.89","45.32","SAINT JOHN A","8104901","2023-05-26 23:00","2023","05","26","23:00","7.9","","6.7","","92","","","","26","","10","","24.1","","100.73","","","","","","Mainly Clear"
"-65.89","45.32","SAINT JOHN A","8104901","2023-05-27 00:00","2023","05","27","00:00","7.6","","5.9","","89","","","","24","","9","","24.1","","100.70","","","","","","NA"
"-65.89","45.32","SAINT JOHN A","8104901","2023-05-27 01:00","2023","05","27","01:00","5.2","","4.6","","96","","","","19","","8","","24.1","","100.67","","","","","","NA"
"-65.89","45.32","SAINT JOHN A","8104901","2023-05-27 02:00","2023","05","27","02:00","5.2","","5.2","","100","","","","20","","9","","24.1","","100.61","","","","","","Mainly Clear"
"-65.89","45.32","SAINT JOHN A","8104901","2023-05-27 03:00","2023","05","27","03:00","3.5","","3.5","","100","","","","22","","9","","24.1","","100.61","","","","","","NA"
"-65.89","45.32","SAINT JOHN A","8104901","2023-05-27 04:00","2023","05","27","04:00","3.9","","3.9","","100","","","","5","","4","","24.1","","100.63","","","","","","NA"
"-65.89","45.32","SAINT JOHN A","8104901","2023-05-27 05:00","2023","05","27","05:00","2.1","","2.1","","100","","","","4","","5","","24.1","","100.68","","","","","","Clear"
"-65.89","45.32","SAINT JOHN A","8104901","2023-05-27 06:00","2023","05","27","06:00","6.6","","6.6","","100","","","","36","","3","","24.1","","100.72","","","","","","NA"
"-65.89","45.32","SAINT JOHN A","8104901","2023-05-27 07:00","2023","05","27","07:00","12.1","","6.5","","68","","","","31","","7","","24.1","","100.77","","","","","","NA"
"-65.89","45.32","SAINT JOHN A","8104901","2023-05-27 08:00","2023","05","27","08:00","14.8","","5.2","","52","","","","33","","21","","24.1","","100.80","","","","","","Clear"
"-65.89","45.32","SAINT JOHN A","8104901","2023-05-27 09:00","2023","05","27","09:00","17.3","","4.6","","43","","","","33","","22","","24.1","","100.80","","","","","","NA"
"-65.89","45.32","SAINT JOHN A","8104901","2023-05-27 10:00","2023","05","27","10:00","18.9","","4.5","","38","","","","32","","12","","24.1","","100.80","","","","","","NA"
"-65.89","45.32","SAINT JOHN A","8104901","2023-05-27 11:00","2023","05","27","11:00","21.1","","3.4","","31","","","","32","","21","","24.1","","100.79","","","","","","Clear"
"-65.89","45.32","SAINT JOHN A","8104901","2023-05-27 12:00","2023","05","27","12:00","21.5","","1.7","","27","","","","31","","13","","24.1","","100.76","","","","","","NA"
"-65.89","45.32","SAINT JOHN A","8104901","2023-05-27 13:00","2023","05","27","13:00","22.9","","1.4","","24","","","","30","","25","","24.1","","100.73","","","","","","NA"
"-65.89","45.32","SAINT JOHN A","8104901","2023-05-27 14:00","2023","05","27","14:00","23.2","","2.3","","25","","","","30","","16","","24.1","","100.70","","","","","","Clear"
"-65.89","45.32","SAINT JOHN A","8104901","2023-05-27 15:00","2023","05","27","15:00","23.9","","3.6","","26","","","","29","","24","","24.1","","100.68","","","","","","NA"
"-65.89","45.32","SAINT JOHN A","8104901","2023-05-27 16:00","2023","05","27","16:00","24.2","","4.5","","27","","","","27","","9","","24.1","","100.62","","","","","","NA"
"-65.89","45.32","SAINT JOHN A","8104901","2023-05-27 17:00","2023","05","27","17:00","24.1","","4.8","","28","","","","25","","12","","24.1","","100.62","","","","","","Clear"
"-65.89","45.32","SAINT JOHN A","8104901","2023-05-27 18:00","2023","05","27","18:00","20.8","","6.7","","40","","","","20","","21","","24.1","","100.60","","","","","","NA"
"-65.89","45.32","SAINT JOHN A","8104901","2023-05-27 19:00","2023","05","27","19:00","18.7","","6.9","","46","","","","19","","15","","24.1","","100.58","","","","","","NA"
"-65.89","45.32","SAINT JOHN A","8104901","2023-05-27 20:00","2023","05","27","20:00","14.3","","6.4","","58","","","","20","","12","","24.1","","100.60","","","","","","Clear"
"-65.89","45.32","SAINT JOHN A","8104901","2023-05-27 21:00","2023","05","27","21:00","12.5","","6.6","","67","","","","20","","9","","24.1","","100.62","","","","","","NA"
"-65.89","45.32","SAINT JOHN A","8104901","2023-05-27 22:00","2023","05","27","22:00","10.3","","5.6","","72","","","","36","","2","","24.1","","100.58","","","","","","NA"
"-65.89","45.32","SAINT JOHN A","8104901","2023-05-27 23:00","2023","05","27","23:00","9.4","","6.4","","81","","","","20","","10","","24.1","","100.56","","","","","","Clear"
"-65.89","45.32","SAINT JOHN A","8104901","2023-05-28 00:00","2023","05","28","00:00","9.1","","6.7","","85","","","","17","","5","","24.1","","100.55","","","","","","NA"
"-65.89","45.32","SAINT JOHN A","8104901","2023-05-28 01:00","2023","05","28","01:00","8.7","","6.8","","88","","","","20","","8","","24.1","","100.51","","","","","","NA"
"-65.89","45.32","SAINT JOHN A","8104901","2023-05-28 02:00","2023","05","28","02:00","6.7","","5.5","","92","","","","36","","2","","24.1","","100.42","","","","","","Mostly Cloudy"
"-65.89","45.32","SAINT JOHN A","8104901","2023-05-28 03:00","2023","05","28","03:00","8.8","","6.7","","86","","","","20","","14","","24.1","","100.35","","","","","","NA"
"-65.89","45.32","SAINT JOHN A","8104901","2023-05-28 04:00","2023","05","28","04:00","9.1","","6.5","","84","","","","21","","5","","24.1","","100.30","","","","","","NA"
"-65.89","45.32","SAINT JOHN A","8104901","2023-05-28 05:00","2023","05","28","05:00","8.6","","6.6","","87","","","","20","","7","","24.1","","100.25","","","","","","Mainly Clear"
"-65.89","45.32","SAINT JOHN A","8104901","2023-05-28 06:00","2023","05","28","06:00","10.3","","7.8","","84","","","","21","","4","","19.3","","100.20","","","","","","NA"
"-65.89","45.32","SAINT JOHN A","8104901","2023-05-28 07:00","2023","05","28","07:00","14.3","","8.7","","69","","","","20","","10","","24.1","","100.14","","","","","","NA"
"-65.89","45.32","SAINT JOHN A","8104901","2023-05-28 08:00","2023","05","28","08:00","16.9","","8.8","","58","","","","21","","19","","24.1","","100.08","","","","","","Clear"
"-65.89","45.32","SAINT JOHN A","8104901","2023-05-28 09:00","2023","05","28","09:00","19.5","","9.4","","52","","","","20","","19","","24.1","","99.97","","","","","","NA"
"-65.89","45.32","SAINT JOHN A","8104901","2023-05-28 10:00","2023","05","28","10:00","21.2","","10.1","","49","","","","20","","16","","24.1","","99.89","","","","","","NA"
"-65.89","45.32","SAINT JOHN A","8104901","2023-05-28 11:00","2023","05","28","11:00","24.1","","11.2","","44","","","","19","","21","","24.1","","99.80","","26","","","","Mainly Clear"
"-65.89","45.32","SAINT JOHN A","8104901","2023-05-28 12:00","2023","05","28","12:00","24.8","","11.2","","42","","","","20","","21","","24.1","","99.73","","27","","","","NA"
"-65.89","45.32","SAINT JOHN A","8104901","2023-05-28 13:00","2023","05","28","13:00","26.5","","10.4","","36","","","","20","","30","","24.1","","99.58","","28","","","","NA"
"-65.89","45.32","SAINT JOHN A","8104901","2023-05-28 14:00","2023","05","28","14:00","26.5","","8.7","","32","","","","22","","31","","24.1","","99.46","","27","","","","Mainly Clear"
"-65.89","45.32","SAINT JOHN A","8104901","2023-05-28 15:00","2023","05","28","15:00","25.8","","8.8","","34","","","","22","","27","","24.1","","99.39","","27","","","","NA"
"-65.89","45.32","SAINT JOHN A","8104901","2023-05-28 16:00","2023","05","28","16:00","24.9","","8.8","","35","","","","22","","38","","24.1","","99.31","","26","","","","NA"
"-65.89","45.32","SAINT JOHN A","8104901","2023-05-28 17:00","2023","05","28","17:00","22.1","","8.8","","42","","","","22","","30","","24.1","","99.28","","","","","","Mainly Clear"
"-65.89","45.32","SAINT JOHN A","8104901","2023-05-28 18:00","2023","05","28","18:00","20.1","","7.7","","44","","","","22","","24","","24.1","","99.27","","","","","","NA"
"-65.89","45.32","SAINT JOHN A","8104901","2023-05-28 19:00","2023","05","28","19:00","18.9","","8.3","","50","","","","21","","14","","24.1","","99.30","","","","","","NA"
"-65.89","45.32","SAINT JOHN A","8104901","2023-05-28 20:00","2023","05","28","20:00","17.3","","9.1","","58","","","","2","","3","","24.1","","99.46","","","","","","Mostly Cloudy"
"-65.89","45.32","SAINT JOHN A","8104901","2023-05-28 21:00","2023","05","28","21:00","23.7","","5.1","","30","","","","35","","25","","24.1","","99.60","","","","","","NA"
"-65.89","45.32","SAINT JOHN A","8104901","2023-05-28 22:00","2023","05","28","22:00","21.7","","2.8","","28","","","","35","","34","","24.1","","99.81","","","","","","NA"
"-65.89","45.32","SAINT JOHN A","8104901","2023-05-28 23:00","2023","05","28","23:00","18.7","","1.8","","32","","","","36","","24","","24.1","","99.91","","","","","","Mainly Clear"
"-65.89","45.32","SAINT JOHN A","8104901","2023-05-29 00:00","2023","05","29","00:00","16.2","","1.4","","36","","","","35","","16","","24.1","","100.00","","","","","","NA"
"-65.89","45.32","SAINT JOHN A","8104901","2023-05-29 01:00","2023","05","29","01:00","14.2","","1.9","","43","","","","34","","19","","24.1","","100.08","","","","","","NA"
"-65.89","45.32","SAINT JOHN A","8104901","2023-05-29 02:00","2023","05","29","02:00","12.3","","2.2","","50","","","","1","","8","","24.1","","100.14","","","","","","Mainly Clear"
"-65.89","45.32","SAINT JOHN A","8104901","2023-05-29 03:00","2023","05","29","03:00","12.2","","2.0","","50","","","","36","","16","","24.1","","100.21","","","","","","NA"
"-65.89","45.32","SAINT JOHN A","8104901","2023-05-29 04:00","2023","05","29","04:00","11.5","","2.1","","52","","","","36","","21","","24.1","","100.27","","","","","","NA"
"-65.89","45.32","SAINT JOHN A","8104901","2023-05-29 05:00","2023","05","29","05:00","10.4","","1.7","","55","","","","2","","31","","24.1","","100.39","","","","","","Mainly Clear"
"-65.89","45.32","SAINT JOHN A","8104901","2023-05-29 06:00","2023","05","29","06:00","10.2","","1.9","","56","","","","1","","20","","24.1","","100.49","","","","","","NA"
"-65.89","45.32","SAINT JOHN A","8104901","2023-05-29 07:00","2023","05","29","07:00","9.8","","-0.4","","49","","","","3","","25","","24.1","","100.60","","","","","","NA"
"-65.89","45.32","SAINT JOHN A","8104901","2023-05-29 08:00","2023","05","29","08:00","10.1","","-1.4","","45","","","","4","","27","","24.1","","100.65","","","","","","Mainly Clear"
"-65.89","45.32","SAINT JOHN A","8104901","2023-05-29 09:00","2023","05","29","09:00","10.9","","-0.6","","45","","","","3","","20","","24.1","","100.76","","","","","","NA"
"-65.89","45.32","SAINT JOHN A","8104901","2023-05-29 10:00","2023","05","29","10:00","11.8","","-1.0","","41","","","","7","","22","","24.1","","100.81","","","","","","NA"
"-65.89","45.32","SAINT JOHN A","8104901","2023-05-29 11:00","2023","05","29","11:00","13.2","","0.9","","43","","","","2","","23","","24.1","","100.83","","","","","","Mainly Clear"
"-65.89","45.32","SAINT JOHN A","8104901","2023-05-29 12:00","2023","05","29","12:00","14.2","","0.8","","40","","","","3","","18","","24.1","","100.84","","","","","","NA"
"-65.89","45.32","SAINT JOHN A","8104901","2023-05-29 13:00","2023","05","29","13:00","12.7","","2.6","","50","","","","14","","18","","24.1","","100.82","","","","","","NA"
"-65.89","45.32","SAINT JOHN A","8104901","2023-05-29 14:00","2023","05","29","14:00","13.8","","3.6","","50","","","","11","","15","","24.1","","100.82","","","","","","Mainly Clear"
"-65.89","45.32","SAINT JOHN A","8104901","2023-05-29 15:00","2023","05","29","15:00","13.3","","2.8","","49","","","","10","","23","","24.1","","100.81","","","","","","NA"
"-65.89","45.32","SAINT JOHN A","8104901","2023-05-29 16:00","2023","05","29","16:00","13.4","","2.4","","47","","","","13","","17","","24.1","","100.83","","","","","","NA"
"-65.89","45.32","SAINT JOHN A","8104901","2023-05-29 17:00","2023","05","29","17:00","13.6","","2.5","","47","","","","12","","17","","24.1","","100.82","","","","","","Mainly Clear"
"-65.89","45.32","SAINT JOHN A","8104901","2023-05-29 18:00","2023","05","29","18:00","12.5","","2.0","","48","","","","10","","20","","24.1","","100.84","","","","","","NA"
"-65.89","45.32","SAINT JOHN A","8104901","2023-05-29 19:00","2023","05","29","19:00","11.1","","0.7","","48","","","","10","","15","","24.1","","100.86","","","","","","NA"
"-65.89","45.32","SAINT JOHN A","8104901","2023-05-29 20:00","2023","05","29","20:00","9.3","","-0.5","","50","","","","14","","8","","24.1","","100.90","","","","","","Clear"
"-65.89","45.32","SAINT JOHN A","8104901","2023-05-29 21:00","2023","05","29","21:00","6.6","","1.2","","68","","","","16","","6","","24.1","","100.98","","","","","","NA"
"-65.89","45.32","SAINT JOHN A","8104901","2023-05-29 22:00","2023","05","29","22:00","3.8","","1.2","","83","","","","36","","1","","24.1","","100.99","","","","","","NA"
"-65.89","45.32","SAINT JOHN A","8104901","2023-05-29 23:00","2023","05","29","23:00","3.3","","0.9","","84","","","","15","","4","","24.1","","101.01","","","","","","Clear"
"-65.89","45.32","SAINT JOHN A","8104901","2023-05-30 00:00","2023","05","30","00:00","0.9","","-0.8","","89","","","","36","","2","","24.1","","101.01","","","","","","NA"
"-65.89","45.32","SAINT JOHN A","8104901","2023-05-30 01:00","2023","05","30","01:00"
"-65.89","45.32","SAINT JOHN A","8104901","2023-05-30 02:00","2023","05","30","02:00","0.2","","-0.8","","93","","","","36","","1","","24.1","","100.95","","","","","","Clear"
"-65.89","45.32","SAINT JOHN A","8104901","2023-05-30 03:00","2023","05","30","03:00","0.2","","-0.7","","94","","","","36","","2","","24.1","","100.97","","","","","","NA"
"-65.89","45.32","SAINT JOHN A","8104901","2023-05-30 04:00","2023","05","30","04:00","-0.6","","-1.4","","94","","","","36","","3","","24.1","","100.97","","","","-2","","NA"
"-65.89","45.32","SAINT JOHN A","8104901","2023-05-30 05:00","2023","05","30","05:00","-0.4","","-0.9","","96","","","","8","","3","","24.1","","101.01","","","","-1","","Mostly Cloudy"
"-65.89","45.32","SAINT JOHN A","8104901","2023-05-30 06:00","2023","05","30","06:00","3.0","","2.3","","95","","","","36","","2","","24.1","","101.02","","","","","","NA"
"-65.89","45.32","SAINT JOHN A","8104901","2023-05-30 07:00","2023","05","30","07:00","9.2","","5.3","","77","","","","20","","13","","24.1","","101.01","","","","","","NA"
"-65.89","45.32","SAINT JOHN A","8104901","2023-05-30 08:00","2023","05","30","08:00","12.5","","3.6","","54","","","","23","","15","","24.1","","101.05","","","","","","Mostly Cloudy"
"-65.89","45.32","SAINT JOHN A","8104901","2023-05-30 09:00","2023","05","30","09:00","14.0","","4.4","","52","","","","22","","14","","24.1","","101.03","","","","","","NA"
"-65.89","45.32","SAINT JOHN A","8104901","2023-05-30 10:00","2023","05","30","10:00","15.3","","5.9","","53","","","","20","","19","","24.1","","101.00","","","","","","NA"
"-65.89","45.32","SAINT JOHN A","8104901","2023-05-30 11:00","2023","05","30","11:00","16.3","","6.9","","53","","","","19","","18","","24.1","","100.97","","","","","","Mainly Clear"
"-65.89","45.32","SAINT JOHN A","8104901","2023-05-30 12:00","2023","05","30","12:00","17.2","","7.0","","51","","","","19","","22","","24.1","","100.92","","","","","","NA"
"-65.89","45.32","SAINT JOHN A","8104901","2023-05-30 13:00","2023","05","30","13:00","17.1","","7.4","","52","","","","19","","22","","24.1","","100.86","","","","","","NA"
"-65.89","45.32","SAINT JOHN A","8104901","2023-05-30 14:00","2023","05","30","14:00","17.4","","6.5","","49","","","","21","","25","","24.1","","100.81","","","","","","Mainly Clear"
"-65.89","45.32","SAINT JOHN A","8104901","2023-05-30 15:00","2023","05","30","15:00","17.1","","5.4","","46","","","","22","","30","","24.1","","100.78","","","","","","NA"
"-65.89","45.32","SAINT JOHN A","8104901","2023-05-30 16:00","2023","05","30","16:00","16.6","","5.3","","47","","","","22","","29","","24.1","","100.77","","","","","","NA"
"-65.89","45.32","SAINT JOHN A","8104901","2023-05-30 17:00","2023","05","30","17:00","15.1","","5.3","","52","","","","23","","21","","24.1","","100.75","","","","","","Mostly Cloudy"
"-65.89","45.32","SAINT JOHN A","8104901","2023-05-30 18:00","2023","05","30","18:00","13.7","","5.0","","55","","","","22","","21","","24.1","","100.76","","","","","","NA"
"-65.89","45.32","SAINT JOHN A","8104901","2023-05-30 19:00","2023","05","30","19:00","12.7","","4.1","","55","","","","22","","26","","24.1","","100.77","","","","","","NA"
"-65.89","45.32","SAINT JOHN A","8104901","2023-05-30 20:00","2023","05","30","20:00","10.3","","5.3","","71","","","","21","","19","","24.1","","100.77","","","","","","Mainly Clear"
"-65.89","45.32","SAINT JOHN A","8104901","2023-05-30 21:00","2023","05","30","21:00","9.4","","5.5","","77","","","","21","","17","","24.1","","100.81","","","","","","NA"
"-65.89","45.32","SAINT JOHN A","8104901","2023-05-30 22:00","2023","05","30","22:00","9.1","","4.7","","74","","","","22","","14","","24.1","","100.80","","","","","","NA"
"-65.89","45.32","SAINT JOHN A","8104901","2023-05-30 23:00","2023","05","30","23:00","8.9","","5.2","","78","","","","22","","18","","24.1","","100.82","","","","","","Clear"
"-65.89","45.32","SAINT JOHN A","8104901","2023-05-31 00:00","2023","05","31","00:00","8.6","","5.5","","81","","","","22","","14","","24.1","","100.82","","","","","","NA"
"-65.89","45.32","SAINT JOHN A","8104901","2023-05-31 01:00","2023","05","31","01:00","8.4","","5.8","","84","","","","21","","18","","24.1","","100.82","","","","","","NA"
"-65.89","45.32","SAINT JOHN A","8104901","2023-05-31 02:00","2023","05","31","02:00","8.3","","6.9","","90","","","","22","","22","","24.1","","100.80","","","","","","Mainly Clear"
"-65.89","45.32","SAINT JOHN A","8104901","2023-05-31 03:00","2023","05","31","03:00","8.3","","7.6","","96","","","","21","","21","","19.3","","100.77","","","","","","NA"
"-65.89","45.32","SAINT JOHN A","8104901","2023-05-31 04:00","2023","05","31","04:00","7.9","","7.6","","98","","","","22","","14","","24.1","","100.77","","","","","","NA"
"-65.89","45.32","SAINT JOHN A","8104901","2023-05-31 05:00","2023","05","31","05:00","7.9","","7.9","","100","","","","22","","22","","24.1","","100.76","","","","","","Mostly Cloudy"
"-65.89","45.32","SAINT JOHN A","8104901","2023-05-31 06:00","2023","05","31","06:00","8.2","","8.2","","100","","","","22","","16","","9.7","","100.79","","","","","","Fog"
"-65.89","45.32","SAINT JOHN A","8104901","2023-05-31 07:00","2023","05","31","07:00","9.1","","9.1","","100","","","","21","","16","","9.7","","100.79","","","","","","Fog"
"-65.89","45.32","SAINT JOHN A","8104901","2023-05-31 08:00","2023","05","31","08:00","10.1","","8.8","","92","","","","22","","16","","12.9","","100.80","","","","","","Cloudy"
"-65.89","45.32","SAINT JOHN A","8104901","2023-05-31 09:00","2023","05","31","09:00","10.5","","9.1","","91","","","","23","","18","","12.9","","100.82","","","","","","NA"
"-65.89","45.32","SAINT JOHN A","8104901","2023-05-31 10:00","2023","05","31","10:00","11.6","","9.3","","86","","","","20","","20","","19.3","","100.81","","","","","","NA"
"-65.89","45.32","SAINT JOHN A","8104901","2023-05-31 11:00","2023","05","31","11:00","13.7","","10.1","","78","","","","19","","21","","24.1","","100.77","","","","","","Mainly Clear"
"-65.89","45.32","SAINT JOHN A","8104901","2023-05-31 12:00","2023","05","31","12:00","15.2","","10.3","","72","","","","20","","23","","24.1","","100.72","","","","","","NA"
"-65.89","45.32","SAINT JOHN A","8104901","2023-05-31 13:00","2023","05","31","13:00","16.2","","10.9","","70","","","","18","","19","","24.1","","100.67","","","","","","NA"
"-65.89","45.32","SAINT JOHN A","8104901","2023-05-31 14:00","2023","05","31","14:00","16.6","","10.6","","67","","","","19","","24","","24.1","","100.63","","","","","","Mainly Clear"
"-65.89","45.32","SAINT JOHN A","8104901","2023-05-31 15:00","2023","05","31","15:00","16.2","","10.5","","69","","","","20","","23","","24.1","","100.59","","","","","","NA"
"-65.89","45.32","SAINT JOHN A","8104901","2023-05-31 16:00","2023","05","31","16:00","15.4","","10.1","","71","","","","19","","25","","24.1","","100.56","","","","","","NA"
"-65.89","45.32","SAINT JOHN A","8104901","2023-05-31 17:00","2023","05","31","17:00","15.4","","9.7","","69","","","","20","","23","","24.1","","100.53","","","","","","Mainly Clear"
"-65.89","45.32","SAINT JOHN A","8104901","2023-05-31 18:00","2023","05","31","18:00","13.8","","9.4","","74","","","","20","","21","","24.1","","100.51","","","","","","NA"
"-65.89","45.32","SAINT JOHN A","8104901","2023-05-31 19:00","2023","05","31","19:00","12.5","","8.4","","76","","","","21","","20","","24.1","","100.52","","","","","","NA"
"-65.89","45.32","SAINT JOHN A","8104901","2023-05-31 20:00","2023","05","31","20:00","10.6","","7.7","","82","","","","21","","16","","24.1","","100.50","","","","","","Mainly Clear"
"-65.89","45.32","SAINT JOHN A","8104901","2023-05-31 21:00","2023","05","31","21:00","9.0","","7.1","","88","","","","21","","9","","24.1","","100.52","","","","","","NA"
"-65.89","45.32","SAINT JOHN A","8104901","2023-05-31 22:00","2023","05","31","22:00","8.7","","6.9","","88","","","","21","","6","","24.1","","100.53","","","","","","NA"
"-65.89","45.32","SAINT JOHN A","8104901","2023-05-31 23:00","2023","05","31","23:00","8.0","","7.0","","93","","","","21","","7","","24.1","","100.51","","","","","","Clear"
