"Longitude (x)","Latitude (y)","Station Name","Climate ID","Date/Time (LST)","Year","Month","Day","Time (LST)","Temp (°C)","Temp Flag","Dew Point Temp (°C)","Dew Point Temp Flag","Rel Hum (%)","Rel Hum Flag","Precip. Amount (mm)","Precip. Amount Flag","Wind Dir (10s deg)","Wind Dir Flag","Wind Spd (km/h)","Wind Spd Flag","Visibility (km)","Visibility Flag","Stn Press (kPa)","Stn Press Flag","Hmdx","Hmdx Flag","Wind Chill","Wind Chill Flag","Weather"
"-96.06","50.18","PINAWA","503B1ER","2020-01-01 00:00","2020","01","01","00:00","-10.3","","","M","","M","0.0","","15","","9","","","","96.27","","","","-15","","NA"
"-96.06","50.18","PINAWA","503B1ER","2020-01-01 01:00","2020","01","01","01:00","-10.1","","","M","","M","0.0","","16","","11","","","","96.19","","","","-16","","NA"
"-96.06","50.18","PINAWA","503B1ER","2020-01-01 02:00","2020","01","01","02:00","-10.8","","","M","","M","0.0","","15","","7","","","","96.12","","","","-15","","NA"
"-96.06","50.18","PINAWA","503B1ER","2020-01-01 03:00","2020","01","01","03:00","-10.7","","","M","","M","0.0","","16","","10","","","","96.06","","","","-16","","NA"
"-96.06","50.18","PINAWA","503B1ER","2020-01-01 04:00","2020","01","01","04:00","-11.6","","","M","","M","0.0","","15","","6","","","","95.97","","","","-15","","NA"
"-96.06","50.18","PINAWA","503B1ER","2020-01-01 05:00","2020","01","01","05:00","-11.9","","","M","","M","0.0","","15","","8","","","","95.93","","","","-17","","NA"
"-96.06","50.18","PINAWA","503B1ER","2020-01-01 06:00","2020","01","01","06:00","-11.8","","","M","","M","0.0","","16","","8","","","","95.89","","","","-17","","NA"
"-96.06","50.18","PINAWA","503B1ER","2020-01-01 07:00","2020","01","01","07:00","-11.6","","","M","","M","0.0","","16","","9","","","","95.84","","","","-17","","NA"
"-96.06","50.18","PINAWA","503B1ER","2020-01-01 08:00","2020","01","01","08:00","-11.2","","","M","","M","0.0","","15","","6","","","","95.74","","","","-15","","NA"
"-96.06","50.18","PINAWA","503B1ER","2020-01-01 09:00","2020","01","01","09:00","-10.9","","","M","","M","0.0","","10","","4","","","","95.75","","","","-13","","NA"
"-96.06","50.18","PINAWA","503B1ER","2020-01-01 10:00","2020","01","01","10:00","-10.3","","","M","","M","0.0","","15","","10","","","","95.67","","","","-16","","NA"
"-96.06","50.18","PINAWA","503B1ER","2020-01-01 11:00","2020","01","01","11:00","-9.2","","","M","","M","0.0","","14","","9","","","","95.63","","","","-14","","NA"
"-96.06","50.18","PINAWA","503B1ER","2020-01-01 12:00","2020","01","01","12:00","-7.8","","","M","","M","0.0","","14","","9","","","","95.57","","","","-12","","NA"
"-96.06","50.18","PINAWA","503B1ER","2020-01-01 13:00","2020","01","01","13:00","-6.5","","","M","","M","0.0","","16","","9","","","","95.53","","","","-11","","NA"
"-96.06","50.18","PINAWA","503B1ER","2020-01-01 14:00","2020","01","01","14:00","-5.7","","","M","","M","0.0","","16","","9","","","","95.49","","","","-10","","NA"
"-96.06","50.18","PINAWA","503B1ER","2020-01-01 15:00","2020","01","01","15:00","-5.0","","","M","","M","0.0","","16","","6","","","","95.55","","","","-8","","NA"
"-96.06","50.18","PINAWA","503B1ER","2020-01-01 16:00","2020","01","01","16:00","-4.9","","","M","","M","0.0","","13","","6","","","","95.59","","","","-8","","NA"
"-96.06","50.18","PINAWA","503B1ER","2020-01-01 17:00","2020","01","01","17:00","-4.7","","","M","","M","0.0","","15","","6","","","","95.60","","","","-7","","NA"
"-96.06","50.18","PINAWA","503B1ER","2020-01-01 18:00","2020","01","01","18:00","-4.5","","","M","","M","0.0","","15","","7","","","","95.63","","","","-8","","NA"
"-96.06","50.18","PINAWA","503B1ER","2020-01-01 19:00","2020","01","01","19:00","-4.2","","","M","","M","0.0","","16","","7","","","","95.63","","","","-7","","NA"
"-96.06","50.18","PINAWA","503B1ER","2020-01-01 20:00","2020","01","01","20:00","-4.1","","","M","","M","0.0","","17","","3","","","","95.67","","","","-5","","NA"
"-96.06","50.18","PINAWA","503B1ER","2020-01-01 21:00","2020","01","01","21:00","-4.1","","","M","","M","0.0","","18","","3","","","","95.70","","","","-5","","NA"
"-96.06","50.18","PINAWA","503B1ER","2020-01-01 22:00","2020","01","01","22:00","-4.3","","","M","","M","0.0","","0","","1","","","","95.72","","","","-5","","NA"
"-96.06","50.18","PINAWA","503B1ER","2020-01-01 23:00","2020","01","01","23:00","-4.1","","","M","","M","0.0","","31","","9","","","","95.78","","","","-8","","NA"
"-96.06","50.18","PINAWA","503B1ER","2020-01-02 00:00","2020","01","02","00:00","-5.4","","","M","","M","0.0","","32","","13","","","","95.85","","","","-11","","NA"
"-96.06","50.18","PINAWA","503B1ER","2020-01-02 01:00","2020","01","02","01:00","-6.8","","","M","","M","0.0","","32","","15","","","","95.93","","","","-13","","NA"
"-96.06","50.18","PINAWA","503B1ER","2020-01-02 02:00","2020","01","02","02:00","-7.3","","","M","","M","0.0","","32","","14","","","","95.98","","","","-13","","NA"
"-96.06","50.18","PINAWA","503B1ER","2020-01-02 03:00","2020","01","02","03:00","-7.6","","","M","","M","0.0","","31","","12","","","","96.09","","","","-13","","NA"
"-96.06","50.18","PINAWA","503B1ER","2020-01-02 04:00","2020","01","02","04:00","-7.8","","","M","","M","0.0","","31","","12","","","","96.13","","","","-13","","NA"
"-96.06","50.18","PINAWA","503B1ER","2020-01-02 05:00","2020","01","02","05:00","-7.8","","","M","","M","0.0","","31","","11","","","","96.17","","","","-13","","NA"
"-96.06","50.18","PINAWA","503B1ER","2020-01-02 06:00","2020","01","02","06:00","-8.8","","","M","","M","0.0","","30","","12","","","","96.21","","","","-14","","NA"
"-96.06","50.18","PINAWA","503B1ER","2020-01-02 07:00","2020","01","02","07:00","-9.0","","","M","","M","0.0","","31","","17","","","","96.28","","","","-16","","NA"
"-96.06","50.18","PINAWA","503B1ER","2020-01-02 08:00","2020","01","02","08:00","-9.4","","","M","","M","0.0","","31","","7","","","","96.34","","","","-13","","NA"
"-96.06","50.18","PINAWA","503B1ER","2020-01-02 09:00","2020","01","02","09:00","-9.6","","","M","","M","0.0","","32","","13","","","","96.39","","","","-16","","NA"
"-96.06","50.18","PINAWA","503B1ER","2020-01-02 10:00","2020","01","02","10:00","-9.4","","","M","","M","0.0","","30","","13","","","","96.49","","","","-15","","NA"
"-96.06","50.18","PINAWA","503B1ER","2020-01-02 11:00","2020","01","02","11:00","-9.3","","","M","","M","0.0","","30","","19","","","","96.56","","","","-17","","NA"
"-96.06","50.18","PINAWA","503B1ER","2020-01-02 12:00","2020","01","02","12:00","-9.9","","","M","","M","0.0","","32","","16","","","","96.57","","","","-17","","NA"
"-96.06","50.18","PINAWA","503B1ER","2020-01-02 13:00","2020","01","02","13:00","-10.5","","","M","","M","0.0","","31","","19","","","","96.59","","","","-18","","NA"
"-96.06","50.18","PINAWA","503B1ER","2020-01-02 14:00","2020","01","02","14:00","-10.2","","","M","","M","0.0","","31","","17","","","","96.67","","","","-17","","NA"
"-96.06","50.18","PINAWA","503B1ER","2020-01-02 15:00","2020","01","02","15:00","-9.7","","","M","","M","0.0","","32","","15","","","","96.76","","","","-16","","NA"
"-96.06","50.18","PINAWA","503B1ER","2020-01-02 16:00","2020","01","02","16:00","-9.5","","","M","","M","0.0","","32","","13","","","","96.83","","","","-16","","NA"
"-96.06","50.18","PINAWA","503B1ER","2020-01-02 17:00","2020","01","02","17:00","-9.3","","","M","","M","0.0","","29","","6","","","","96.92","","","","-13","","NA"
"-96.06","50.18","PINAWA","503B1ER","2020-01-02 18:00","2020","01","02","18:00","-9.1","","","M","","M","0.0","","27","","7","","","","96.99","","","","-13","","NA"
"-96.06","50.18","PINAWA","503B1ER","2020-01-02 19:00","2020","01","02","19:00","-8.7","","","M","","M","0.0","","29","","9","","","","97.08","","","","-13","","NA"
"-96.06","50.18","PINAWA","503B1ER","2020-01-02 20:00","2020","01","02","20:00","-8.6","","","M","","M","0.0","","29","","7","","","","97.13","","","","-12","","NA"
"-96.06","50.18","PINAWA","503B1ER","2020-01-02 21:00","2020","01","02","21:00","-8.4","","","M","","M","0.0","","29","","6","","","","97.16","","","","-12","","NA"
"-96.06","50.18","PINAWA","503B1ER","2020-01-02 22:00","2020","01","02","22:00","-8.2","","","M","","M","0.0","","29","","8","","","","97.25","","","","-12","","NA"
"-96.06","50.18","PINAWA","503B1ER","2020-01-02 23:00","2020","01","02","23:00","-8.3","","","M","","M","0.0","","30","","8","","","","97.31","","","","-12","","NA"
"-96.06","50.18","PINAWA","503B1ER","2020-01-03 00:00","2020","01","03","00:00","-8.2","","","M","","M","0.0","","32","","6","","","","97.35","","","","-11","","NA"
"-96.06","50.18","PINAWA","503B1ER","2020-01-03 01:00","2020","01","03","01:00","-8.2","","","M","","M","0.0","","3","","2","","","","97.36","","","","-9","","NA"
"-96.06","50.18","PINAWA","503B1ER","2020-01-03 02:00","2020","01","03","02:00","-8.2","","","M","","M","0.0","","20","","2","","","","97.40","","","","-9","","NA"
"-96.06","50.18","PINAWA","503B1ER","2020-01-03 03:00","2020","01","03","03:00","-7.8","","","M","","M","0.0","","18","","4","","","","97.47","","","","-10","","NA"
"-96.06","50.18","PINAWA","503B1ER","2020-01-03 04:00","2020","01","03","04:00","-7.5","","","M","","M","0.0","","17","","3","","","","97.50","","","","-9","","NA"
"-96.06","50.18","PINAWA","503B1ER","2020-01-03 05:00","2020","01","03","05:00","-7.4","","","M","","M","0.0","","17","","4","","","","97.54","","","","-9","","NA"
"-96.06","50.18","PINAWA","503B1ER","2020-01-03 06:00","2020","01","03","06:00","-7.2","","","M","","M","0.0","","18","","4","","","","97.56","","","","-9","","NA"
"-96.06","50.18","PINAWA","503B1ER","2020-01-03 07:00","2020","01","03","07:00","-7.1","","","M","","M","0.0","","17","","3","","","","97.59","","","","-9","","NA"
"-96.06","50.18","PINAWA","503B1ER","2020-01-03 08:00","2020","01","03","08:00","-7.2","","","M","","M","0.0","","13","","2","","","","97.60","","","","-8","","NA"
"-96.06","50.18","PINAWA","503B1ER","2020-01-03 09:00","2020","01","03","09:00","-6.8","","","M","","M","0.0","","18","","3","","","","97.64","","","","-8","","NA"
"-96.06","50.18","PINAWA","503B1ER","2020-01-03 10:00","2020","01","03","10:00","-6.0","","","M","","M","0.0","","19","","3","","","","97.72","","","","-7","","NA"
"-96.06","50.18","PINAWA","503B1ER","2020-01-03 11:00","2020","01","03","11:00","-5.3","","","M","","M","0.0","","","","0","","","","97.78","","","","","","NA"
"-96.06","50.18","PINAWA","503B1ER","2020-01-03 12:00","2020","01","03","12:00","-4.2","","","M","","M","0.0","","22","","3","","","","97.78","","","","-5","","NA"
"-96.06","50.18","PINAWA","503B1ER","2020-01-03 13:00","2020","01","03","13:00","-3.2","","","M","","M","0.0","","24","","2","","","","97.79","","","","-4","","NA"
"-96.06","50.18","PINAWA","503B1ER","2020-01-03 14:00","2020","01","03","14:00","-2.6","","","M","","M","0.0","","24","","3","","","","97.83","","","","-4","","NA"
"-96.06","50.18","PINAWA","503B1ER","2020-01-03 15:00","2020","01","03","15:00","-2.5","","","M","","M","0.0","","17","","4","","","","97.86","","","","-4","","NA"
"-96.06","50.18","PINAWA","503B1ER","2020-01-03 16:00","2020","01","03","16:00","-2.4","","","M","","M","0.0","","","","0","","","","97.95","","","","","","NA"
"-96.06","50.18","PINAWA","503B1ER","2020-01-03 17:00","2020","01","03","17:00","-2.4","","","M","","M","0.0","","25","","4","","","","98.06","","","","-4","","NA"
"-96.06","50.18","PINAWA","503B1ER","2020-01-03 18:00","2020","01","03","18:00","-2.5","","","M","","M","0.0","","25","","3","","","","98.14","","","","-4","","NA"
"-96.06","50.18","PINAWA","503B1ER","2020-01-03 19:00","2020","01","03","19:00","-2.6","","","M","","M","0.0","","24","","4","","","","98.17","","","","-4","","NA"
"-96.06","50.18","PINAWA","503B1ER","2020-01-03 20:00","2020","01","03","20:00","-2.5","","","M","","M","0.0","","26","","4","","","","98.20","","","","-4","","NA"
"-96.06","50.18","PINAWA","503B1ER","2020-01-03 21:00","2020","01","03","21:00","-2.2","","","M","","M","0.0","","27","","5","","","","98.22","","","","-4","","NA"
"-96.06","50.18","PINAWA","503B1ER","2020-01-03 22:00","2020","01","03","22:00","-2.1","","","M","","M","0.0","","30","","10","","","","98.22","","","","-6","","NA"
"-96.06","50.18","PINAWA","503B1ER","2020-01-03 23:00","2020","01","03","23:00","-2.3","","","M","","M","0.0","","32","","10","","","","98.25","","","","-6","","NA"
"-96.06","50.18","PINAWA","503B1ER","2020-01-04 00:00","2020","01","04","00:00","-2.7","","","M","","M","0.0","","31","","8","","","","98.24","","","","-6","","NA"
"-96.06","50.18","PINAWA","503B1ER","2020-01-04 01:00","2020","01","04","01:00","-3.2","","","M","","M","0.0","","31","","9","","","","98.27","","","","-7","","NA"
"-96.06","50.18","PINAWA","503B1ER","2020-01-04 02:00","2020","01","04","02:00","-3.7","","","M","","M","0.0","","29","","2","","","","98.30","","","","-5","","NA"
"-96.06","50.18","PINAWA","503B1ER","2020-01-04 03:00","2020","01","04","03:00","-3.8","","","M","","M","0.0","","20","","1","","","","98.33","","","","-4","","NA"
"-96.06","50.18","PINAWA","503B1ER","2020-01-04 04:00","2020","01","04","04:00","-4.1","","","M","","M","0.0","","19","","1","","","","98.27","","","","-5","","NA"
"-96.06","50.18","PINAWA","503B1ER","2020-01-04 05:00","2020","01","04","05:00","-4.7","","","M","","M","0.0","","35","","3","","","","98.28","","","","-6","","NA"
"-96.06","50.18","PINAWA","503B1ER","2020-01-04 06:00","2020","01","04","06:00","-4.6","","","M","","M","0.0","","1","","2","","","","98.26","","","","-5","","NA"
"-96.06","50.18","PINAWA","503B1ER","2020-01-04 07:00","2020","01","04","07:00","-4.9","","","M","","M","0.0","","0","","1","","","","98.25","","","","-5","","NA"
"-96.06","50.18","PINAWA","503B1ER","2020-01-04 08:00","2020","01","04","08:00","-5.1","","","M","","M","0.0","","11","","1","","","","98.20","","","","-6","","NA"
"-96.06","50.18","PINAWA","503B1ER","2020-01-04 09:00","2020","01","04","09:00","-4.6","","","M","","M","0.0","","15","","4","","","","98.16","","","","-6","","NA"
"-96.06","50.18","PINAWA","503B1ER","2020-01-04 10:00","2020","01","04","10:00","-4.0","","","M","","M","0.0","","14","","5","","","","98.11","","","","-6","","NA"
"-96.06","50.18","PINAWA","503B1ER","2020-01-04 11:00","2020","01","04","11:00","-3.3","","","M","","M","0.0","","15","","6","","","","98.07","","","","-6","","NA"
"-96.06","50.18","PINAWA","503B1ER","2020-01-04 12:00","2020","01","04","12:00","-2.8","","","M","","M","0.0","","17","","9","","","","98.00","","","","-6","","NA"
"-96.06","50.18","PINAWA","503B1ER","2020-01-04 13:00","2020","01","04","13:00","-2.3","","","M","","M","0.0","","15","","8","","","","97.88","","","","-5","","NA"
"-96.06","50.18","PINAWA","503B1ER","2020-01-04 14:00","2020","01","04","14:00","-1.9","","","M","","M","0.0","","16","","10","","","","97.83","","","","-6","","NA"
"-96.06","50.18","PINAWA","503B1ER","2020-01-04 15:00","2020","01","04","15:00","-1.7","","","M","","M","0.0","","16","","12","","","","97.77","","","","-6","","NA"
"-96.06","50.18","PINAWA","503B1ER","2020-01-04 16:00","2020","01","04","16:00","-2.7","","","M","","M","0.0","","16","","12","","","","97.75","","","","-7","","NA"
"-96.06","50.18","PINAWA","503B1ER","2020-01-04 17:00","2020","01","04","17:00","-3.2","","","M","","M","0.3","","15","","9","","","","97.66","","","","-7","","NA"
"-96.06","50.18","PINAWA","503B1ER","2020-01-04 18:00","2020","01","04","18:00","-3.4","","","M","","M","0.3","","14","","10","","","","97.56","","","","-7","","NA"
"-96.06","50.18","PINAWA","503B1ER","2020-01-04 19:00","2020","01","04","19:00","-3.6","","","M","","M","0.2","","14","","12","","","","97.46","","","","-8","","NA"
"-96.06","50.18","PINAWA","503B1ER","2020-01-04 20:00","2020","01","04","20:00","-3.7","","","M","","M","0.0","","14","","14","","","","97.38","","","","-9","","NA"
"-96.06","50.18","PINAWA","503B1ER","2020-01-04 21:00","2020","01","04","21:00","-4.1","","","M","","M","0.0","","14","","9","","","","97.37","","","","-8","","NA"
"-96.06","50.18","PINAWA","503B1ER","2020-01-04 22:00","2020","01","04","22:00","-4.0","","","M","","M","0.0","","14","","10","","","","97.24","","","","-8","","NA"
"-96.06","50.18","PINAWA","503B1ER","2020-01-04 23:00","2020","01","04","23:00","-3.6","","","M","","M","0.0","","14","","14","","","","97.10","","","","-9","","NA"
"-96.06","50.18","PINAWA","503B1ER","2020-01-05 00:00","2020","01","05","00:00","-3.3","","","M","","M","0.0","","15","","15","","","","97.03","","","","-8","","NA"
"-96.06","50.18","PINAWA","503B1ER","2020-01-05 01:00","2020","01","05","01:00","-3.2","","","M","","M","0.0","","15","","16","","","","96.91","","","","-9","","NA"
"-96.06","50.18","PINAWA","503B1ER","2020-01-05 02:00","2020","01","05","02:00","-3.3","","","M","","M","0.0","","16","","15","","","","96.85","","","","-8","","NA"
"-96.06","50.18","PINAWA","503B1ER","2020-01-05 03:00","2020","01","05","03:00","-4.0","","","M","","M","0.0","","15","","13","","","","96.82","","","","-9","","NA"
"-96.06","50.18","PINAWA","503B1ER","2020-01-05 04:00","2020","01","05","04:00","-4.6","","","M","","M","0.0","","16","","12","","","","96.80","","","","-9","","NA"
"-96.06","50.18","PINAWA","503B1ER","2020-01-05 05:00","2020","01","05","05:00","-4.6","","","M","","M","0.0","","16","","8","","","","96.78","","","","-8","","NA"
"-96.06","50.18","PINAWA","503B1ER","2020-01-05 06:00","2020","01","05","06:00","-4.1","","","M","","M","0.0","","25","","8","","","","96.85","","","","-8","","NA"
"-96.06","50.18","PINAWA","503B1ER","2020-01-05 07:00","2020","01","05","07:00","-4.6","","","M","","M","0.0","","31","","23","","","","96.98","","","","-12","","NA"
"-96.06","50.18","PINAWA","503B1ER","2020-01-05 08:00","2020","01","05","08:00","-4.8","","","M","","M","0.2","","30","","27","","","","97.14","","","","-12","","NA"
"-96.06","50.18","PINAWA","503B1ER","2020-01-05 09:00","2020","01","05","09:00","-3.8","","","M","","M","0.0","","30","","27","","","","97.26","","","","-11","","NA"
"-96.06","50.18","PINAWA","503B1ER","2020-01-05 10:00","2020","01","05","10:00","-4.3","","","M","","M","0.0","","31","","35","","","","97.39","","","","-13","","NA"
"-96.06","50.18","PINAWA","503B1ER","2020-01-05 11:00","2020","01","05","11:00","-4.0","","","M","","M","0.0","","31","","26","","","","97.54","","","","-11","","NA"
"-96.06","50.18","PINAWA","503B1ER","2020-01-05 12:00","2020","01","05","12:00","-3.7","","","M","","M","0.0","","30","","32","","","","97.60","","","","-12","","NA"
"-96.06","50.18","PINAWA","503B1ER","2020-01-05 13:00","2020","01","05","13:00","-3.9","","","M","","M","0.0","","31","","40","","","","97.70","","","","-13","","NA"
"-96.06","50.18","PINAWA","503B1ER","2020-01-05 14:00","2020","01","05","14:00","-3.7","","","M","","M","0.0","","30","","27","","","","97.72","","","","-11","","NA"
"-96.06","50.18","PINAWA","503B1ER","2020-01-05 15:00","2020","01","05","15:00","-3.3","","","M","","M","0.0","","30","","22","","","","97.75","","","","-10","","NA"
"-96.06","50.18","PINAWA","503B1ER","2020-01-05 16:00","2020","01","05","16:00","-3.2","","","M","","M","0.0","","29","","13","","","","97.73","","","","-8","","NA"
"-96.06","50.18","PINAWA","503B1ER","2020-01-05 17:00","2020","01","05","17:00","-4.1","","","M","","M","0.0","","28","","17","","","","97.74","","","","-10","","NA"
"-96.06","50.18","PINAWA","503B1ER","2020-01-05 18:00","2020","01","05","18:00","-5.6","","","M","","M","0.0","","29","","16","","","","97.76","","","","-12","","NA"
"-96.06","50.18","PINAWA","503B1ER","2020-01-05 19:00","2020","01","05","19:00","-6.7","","","M","","M","0.0","","28","","11","","","","97.79","","","","-12","","NA"
"-96.06","50.18","PINAWA","503B1ER","2020-01-05 20:00","2020","01","05","20:00","-7.6","","","M","","M","0.0","","29","","13","","","","97.85","","","","-13","","NA"
"-96.06","50.18","PINAWA","503B1ER","2020-01-05 21:00","2020","01","05","21:00","-7.9","","","M","","M","0.0","","30","","13","","","","97.87","","","","-14","","NA"
"-96.06","50.18","PINAWA","503B1ER","2020-01-05 22:00","2020","01","05","22:00","-9.6","","","M","","M","0.0","","28","","8","","","","97.92","","","","-14","","NA"
"-96.06","50.18","PINAWA","503B1ER","2020-01-05 23:00","2020","01","05","23:00","-11.2","","","M","","M","0.0","","28","","8","","","","97.96","","","","-16","","NA"
"-96.06","50.18","PINAWA","503B1ER","2020-01-06 00:00","2020","01","06","00:00","-11.7","","","M","","M","0.0","","28","","9","","","","97.98","","","","-17","","NA"
"-96.06","50.18","PINAWA","503B1ER","2020-01-06 01:00","2020","01","06","01:00","-11.8","","","M","","M","0.0","","30","","12","","","","98.02","","","","-18","","NA"
"-96.06","50.18","PINAWA","503B1ER","2020-01-06 02:00","2020","01","06","02:00","-12.3","","","M","","M","0.0","","30","","8","","","","98.01","","","","-17","","NA"
"-96.06","50.18","PINAWA","503B1ER","2020-01-06 03:00","2020","01","06","03:00","-12.5","","","M","","M","0.0","","30","","4","","","","98.04","","","","-15","","NA"
"-96.06","50.18","PINAWA","503B1ER","2020-01-06 04:00","2020","01","06","04:00","-14.0","","","M","","M","0.0","","24","","1","","","","97.99","","","","-15","","NA"
"-96.06","50.18","PINAWA","503B1ER","2020-01-06 05:00","2020","01","06","05:00","-14.6","","","M","","M","0.0","","20","","4","","","","97.99","","","","-17","","NA"
"-96.06","50.18","PINAWA","503B1ER","2020-01-06 06:00","2020","01","06","06:00","-18.0","","","M","","M","0.0","","15","","1","","","","97.93","","","","-19","","NA"
"-96.06","50.18","PINAWA","503B1ER","2020-01-06 07:00","2020","01","06","07:00","-19.4","","","M","","M","0.0","","13","","3","","","","97.87","","","","-22","","NA"
"-96.06","50.18","PINAWA","503B1ER","2020-01-06 08:00","2020","01","06","08:00","-15.3","","","M","","M","0.0","","17","","5","","","","97.80","","","","-19","","NA"
"-96.06","50.18","PINAWA","503B1ER","2020-01-06 09:00","2020","01","06","09:00","-14.0","","","M","","M","0.0","","16","","8","","","","97.77","","","","-19","","NA"
"-96.06","50.18","PINAWA","503B1ER","2020-01-06 10:00","2020","01","06","10:00","-11.9","","","M","","M","0.0","","15","","10","","","","97.64","","","","-18","","NA"
"-96.06","50.18","PINAWA","503B1ER","2020-01-06 11:00","2020","01","06","11:00","-10.4","","","M","","M","0.0","","18","","12","","","","97.54","","","","-16","","NA"
"-96.06","50.18","PINAWA","503B1ER","2020-01-06 12:00","2020","01","06","12:00","-7.6","","","M","","M","0.0","","16","","12","","","","97.38","","","","-13","","NA"
"-96.06","50.18","PINAWA","503B1ER","2020-01-06 13:00","2020","01","06","13:00","-3.2","","","M","","M","0.0","","16","","9","","","","97.24","","","","-7","","NA"
"-96.06","50.18","PINAWA","503B1ER","2020-01-06 14:00","2020","01","06","14:00","-0.4","","","M","","M","0.0","","22","","10","","","","97.12","","","","-4","","NA"
"-96.06","50.18","PINAWA","503B1ER","2020-01-06 15:00","2020","01","06","15:00","-0.7","","","M","","M","0.0","","23","","11","","","","97.11","","","","-4","","NA"
"-96.06","50.18","PINAWA","503B1ER","2020-01-06 16:00","2020","01","06","16:00","-1.9","","","M","","M","0.0","","25","","10","","","","97.19","","","","-6","","NA"
"-96.06","50.18","PINAWA","503B1ER","2020-01-06 17:00","2020","01","06","17:00","-2.4","","","M","","M","0.0","","28","","15","","","","97.27","","","","-7","","NA"
"-96.06","50.18","PINAWA","503B1ER","2020-01-06 18:00","2020","01","06","18:00","-3.7","","","M","","M","0.0","","29","","21","","","","97.35","","","","-10","","NA"
"-96.06","50.18","PINAWA","503B1ER","2020-01-06 19:00","2020","01","06","19:00","-4.4","","","M","","M","0.0","","31","","19","","","","97.41","","","","-11","","NA"
"-96.06","50.18","PINAWA","503B1ER","2020-01-06 20:00","2020","01","06","20:00","-6.0","","","M","","M","0.0","","27","","5","","","","97.40","","","","-8","","NA"
"-96.06","50.18","PINAWA","503B1ER","2020-01-06 21:00","2020","01","06","21:00","-7.3","","","M","","M","0.0","","23","","5","","","","97.34","","","","-10","","NA"
"-96.06","50.18","PINAWA","503B1ER","2020-01-06 22:00","2020","01","06","22:00","-6.7","","","M","","M","0.0","","26","","13","","","","97.30","","","","-12","","NA"
"-96.06","50.18","PINAWA","503B1ER","2020-01-06 23:00","2020","01","06","23:00","-6.7","","","M","","M","0.0","","27","","15","","","","97.28","","","","-13","","NA"
"-96.06","50.18","PINAWA","503B1ER","2020-01-07 00:00","2020","01","07","00:00","-8.1","","","M","","M","0.0","","33","","28","","","","97.38","","","","-17","","NA"
"-96.06","50.18","PINAWA","503B1ER","2020-01-07 01:00","2020","01","07","01:00","-9.4","","","M","","M","0.0","","31","","24","","","","97.57","","","","-18","","NA"
"-96.06","50.18","PINAWA","503B1ER","2020-01-07 02:00","2020","01","07","02:00","-12.5","","","M","","M","0.2","","30","","26","","","","97.70","","","","-22","","NA"
"-96.06","50.18","PINAWA","503B1ER","2020-01-07 03:00","2020","01","07","03:00","-14.0","","","M","","M","0.0","","32","","24","","","","97.87","","","","-24","","NA"
"-96.06","50.18","PINAWA","503B1ER","2020-01-07 04:00","2020","01","07","04:00","-14.9","","","M","","M","0.0","","32","","21","","","","97.96","","","","-24","","NA"
"-96.06","50.18","PINAWA","503B1ER","2020-01-07 05:00","2020","01","07","05:00","-15.5","","","M","","M","0.0","","32","","19","","","","98.03","","","","-25","","NA"
"-96.06","50.18","PINAWA","503B1ER","2020-01-07 06:00","2020","01","07","06:00","-16.2","","","M","","M","0.0","","30","","20","","","","98.10","","","","-26","","NA"
"-96.06","50.18","PINAWA","503B1ER","2020-01-07 07:00","2020","01","07","07:00","-17.0","","","M","","M","0.0","","31","","22","","","","98.17","","","","-27","","NA"
"-96.06","50.18","PINAWA","503B1ER","2020-01-07 08:00","2020","01","07","08:00","-17.9","","","M","","M","0.0","","31","","21","","","","98.25","","","","-28","","NA"
"-96.06","50.18","PINAWA","503B1ER","2020-01-07 09:00","2020","01","07","09:00","-19.0","","","M","","M","0.0","","31","","19","","","","98.36","","","","-29","","NA"
"-96.06","50.18","PINAWA","503B1ER","2020-01-07 10:00","2020","01","07","10:00","-19.1","","","M","","M","0.0","","31","","22","","","","98.48","","","","-30","","NA"
"-96.06","50.18","PINAWA","503B1ER","2020-01-07 11:00","2020","01","07","11:00","-19.3","","","M","","M","0.0","","31","","28","","","","98.59","","","","-31","","NA"
"-96.06","50.18","PINAWA","503B1ER","2020-01-07 12:00","2020","01","07","12:00","-19.4","","","M","","M","0.0","","32","","23","","","","98.63","","","","-30","","NA"
"-96.06","50.18","PINAWA","503B1ER","2020-01-07 13:00","2020","01","07","13:00","-19.3","","","M","","M","0.0","","32","","26","","","","98.67","","","","-31","","NA"
"-96.06","50.18","PINAWA","503B1ER","2020-01-07 14:00","2020","01","07","14:00","-19.5","","","M","","M","0.0","","32","","22","","","","98.73","","","","-30","","NA"
"-96.06","50.18","PINAWA","503B1ER","2020-01-07 15:00","2020","01","07","15:00","-18.9","","","M","","M","0.0","","31","","21","","","","98.83","","","","-29","","NA"
"-96.06","50.18","PINAWA","503B1ER","2020-01-07 16:00","2020","01","07","16:00","-18.8","","","M","","M","0.0","","32","","18","","","","98.93","","","","-28","","NA"
"-96.06","50.18","PINAWA","503B1ER","2020-01-07 17:00","2020","01","07","17:00","-19.2","","","M","","M","0.0","","32","","16","","","","99.01","","","","-28","","NA"
"-96.06","50.18","PINAWA","503B1ER","2020-01-07 18:00","2020","01","07","18:00","-19.9","","","M","","M","0.0","","32","","14","","","","99.07","","","","-29","","NA"
"-96.06","50.18","PINAWA","503B1ER","2020-01-07 19:00","2020","01","07","19:00","-20.4","","","M","","M","0.0","","32","","14","","","","99.12","","","","-29","","NA"
"-96.06","50.18","PINAWA","503B1ER","2020-01-07 20:00","2020","01","07","20:00","-20.7","","","M","","M","0.0","","32","","16","","","","99.20","","","","-30","","NA"
"-96.06","50.18","PINAWA","503B1ER","2020-01-07 21:00","2020","01","07","21:00","-21.6","","","M","","M","0.0","","32","","9","","","","99.26","","","","-29","","NA"
"-96.06","50.18","PINAWA","503B1ER","2020-01-07 22:00","2020","01","07","22:00","-22.2","","","M","","M","0.0","","33","","5","","","","99.32","","","","-27","","NA"
"-96.06","50.18","PINAWA","503B1ER","2020-01-07 23:00","2020","01","07","23:00","-23.2","","","M","","M","0.0","","31","","5","","","","99.38","","","","-28","","NA"
"-96.06","50.18","PINAWA","503B1ER","2020-01-08 00:00","2020","01","08","00:00","-24.2","","","M","","M","0.0","","30","","2","","","","99.36","","","","-26","","NA"
"-96.06","50.18","PINAWA","503B1ER","2020-01-08 01:00","2020","01","08","01:00","-25.5","","","M","","M","0.0","","28","","1","","","","99.40","","","","-27","","NA"
"-96.06","50.18","PINAWA","503B1ER","2020-01-08 02:00","2020","01","08","02:00","-27.6","","","M","","M","0.0","","0","","1","","","","99.41","","","","-29","","NA"
"-96.06","50.18","PINAWA","503B1ER","2020-01-08 03:00","2020","01","08","03:00","-28.1","","","M","","M","0.2","","0","","1","","","","99.44","","","","-29","","NA"
"-96.06","50.18","PINAWA","503B1ER","2020-01-08 04:00","2020","01","08","04:00","-29.2","","","M","","M","0.0","","","","0","","","","99.47","","","","","","NA"
"-96.06","50.18","PINAWA","503B1ER","2020-01-08 05:00","2020","01","08","05:00","-30.0","","","M","","M","0.0","","0","","1","","","","99.46","","","","-31","","NA"
"-96.06","50.18","PINAWA","503B1ER","2020-01-08 06:00","2020","01","08","06:00","-30.3","","","M","","M","0.0","","10","","2","","","","99.44","","","","-33","","NA"
"-96.06","50.18","PINAWA","503B1ER","2020-01-08 07:00","2020","01","08","07:00","-30.1","","","M","","M","0.0","","","","0","","","","99.46","","","","","","NA"
"-96.06","50.18","PINAWA","503B1ER","2020-01-08 08:00","2020","01","08","08:00","-30.0","","","M","","M","0.0","","19","","3","","","","99.47","","","","-33","","NA"
"-96.06","50.18","PINAWA","503B1ER","2020-01-08 09:00","2020","01","08","09:00","-29.9","","","M","","M","0.0","","11","","4","","","","99.46","","","","-34","","NA"
"-96.06","50.18","PINAWA","503B1ER","2020-01-08 10:00","2020","01","08","10:00","-24.2","","","M","","M","0.0","","14","","5","","","","99.36","","","","-29","","NA"
"-96.06","50.18","PINAWA","503B1ER","2020-01-08 11:00","2020","01","08","11:00","-21.9","","","M","","M","0.0","","18","","3","","","","99.33","","","","-25","","NA"
"-96.06","50.18","PINAWA","503B1ER","2020-01-08 12:00","2020","01","08","12:00","-20.3","","","M","","M","0.0","","14","","10","","","","99.23","","","","-28","","NA"
"-96.06","50.18","PINAWA","503B1ER","2020-01-08 13:00","2020","01","08","13:00","-18.6","","","M","","M","0.0","","15","","9","","","","99.19","","","","-25","","NA"
"-96.06","50.18","PINAWA","503B1ER","2020-01-08 14:00","2020","01","08","14:00","-18.2","","","M","","M","0.0","","15","","7","","","","99.11","","","","-24","","NA"
"-96.06","50.18","PINAWA","503B1ER","2020-01-08 15:00","2020","01","08","15:00","-17.2","","","M","","M","0.0","","14","","7","","","","99.04","","","","-22","","NA"
"-96.06","50.18","PINAWA","503B1ER","2020-01-08 16:00","2020","01","08","16:00","-16.9","","","M","","M","0.0","","12","","12","","","","98.96","","","","-24","","NA"
"-96.06","50.18","PINAWA","503B1ER","2020-01-08 17:00","2020","01","08","17:00","-17.2","","","M","","M","0.0","","12","","15","","","","98.87","","","","-26","","NA"
"-96.06","50.18","PINAWA","503B1ER","2020-01-08 18:00","2020","01","08","18:00","-17.4","","","M","","M","0.0","","12","","14","","","","98.81","","","","-26","","NA"
"-96.06","50.18","PINAWA","503B1ER","2020-01-08 19:00","2020","01","08","19:00","-17.1","","","M","","M","0.0","","12","","16","","","","98.70","","","","-26","","NA"
"-96.06","50.18","PINAWA","503B1ER","2020-01-08 20:00","2020","01","08","20:00","-17.3","","","M","","M","0.0","","11","","16","","","","98.54","","","","-26","","NA"
"-96.06","50.18","PINAWA","503B1ER","2020-01-08 21:00","2020","01","08","21:00","-16.7","","","M","","M","0.3","","12","","14","","","","98.46","","","","-25","","NA"
"-96.06","50.18","PINAWA","503B1ER","2020-01-08 22:00","2020","01","08","22:00","-16.2","","","M","","M","0.5","","13","","13","","","","98.37","","","","-24","","NA"
"-96.06","50.18","PINAWA","503B1ER","2020-01-08 23:00","2020","01","08","23:00","-15.9","","","M","","M","0.6","","12","","16","","","","98.26","","","","-24","","NA"
"-96.06","50.18","PINAWA","503B1ER","2020-01-09 00:00","2020","01","09","00:00","-15.3","","","M","","M","0.2","","14","","15","","","","98.17","","","","-23","","NA"
"-96.06","50.18","PINAWA","503B1ER","2020-01-09 01:00","2020","01","09","01:00","-14.8","","","M","","M","0.0","","13","","11","","","","98.08","","","","-21","","NA"
"-96.06","50.18","PINAWA","503B1ER","2020-01-09 02:00","2020","01","09","02:00","-14.5","","","M","","M","1.2","","13","","11","","","","97.99","","","","-21","","NA"
"-96.06","50.18","PINAWA","503B1ER","2020-01-09 03:00","2020","01","09","03:00","-13.8","","","M","","M","0.4","","13","","11","","","","97.90","","","","-20","","NA"
"-96.06","50.18","PINAWA","503B1ER","2020-01-09 04:00","2020","01","09","04:00","-13.4","","","M","","M","0.0","","13","","10","","","","97.80","","","","-19","","NA"
"-96.06","50.18","PINAWA","503B1ER","2020-01-09 05:00","2020","01","09","05:00","-13.0","","","M","","M","0.0","","14","","8","","","","97.74","","","","-18","","NA"
"-96.06","50.18","PINAWA","503B1ER","2020-01-09 06:00","2020","01","09","06:00","-12.7","","","M","","M","0.0","","13","","8","","","","97.67","","","","-18","","NA"
"-96.06","50.18","PINAWA","503B1ER","2020-01-09 07:00","2020","01","09","07:00","-12.5","","","M","","M","0.0","","13","","8","","","","97.61","","","","-17","","NA"
"-96.06","50.18","PINAWA","503B1ER","2020-01-09 08:00","2020","01","09","08:00","-12.3","","","M","","M","0.2","","13","","6","","","","97.61","","","","-16","","NA"
"-96.06","50.18","PINAWA","503B1ER","2020-01-09 09:00","2020","01","09","09:00","-12.1","","","M","","M","0.0","","13","","3","","","","97.61","","","","-14","","NA"
"-96.06","50.18","PINAWA","503B1ER","2020-01-09 10:00","2020","01","09","10:00","-11.5","","","M","","M","0.0","","14","","6","","","","97.61","","","","-15","","NA"
"-96.06","50.18","PINAWA","503B1ER","2020-01-09 11:00","2020","01","09","11:00","-11.1","","","M","","M","0.0","","18","","6","","","","97.60","","","","-15","","NA"
"-96.06","50.18","PINAWA","503B1ER","2020-01-09 12:00","2020","01","09","12:00","-11.0","","","M","","M","0.2","","17","","7","","","","97.52","","","","-15","","NA"
"-96.06","50.18","PINAWA","503B1ER","2020-01-09 13:00","2020","01","09","13:00","-10.7","","","M","","M","0.0","","19","","4","","","","97.45","","","","-13","","NA"
"-96.06","50.18","PINAWA","503B1ER","2020-01-09 14:00","2020","01","09","14:00","-10.7","","","M","","M","0.2","","27","","7","","","","97.42","","","","-15","","NA"
"-96.06","50.18","PINAWA","503B1ER","2020-01-09 15:00","2020","01","09","15:00","-10.8","","","M","","M","0.0","","29","","11","","","","97.51","","","","-17","","NA"
"-96.06","50.18","PINAWA","503B1ER","2020-01-09 16:00","2020","01","09","16:00","-11.1","","","M","","M","0.0","","31","","12","","","","97.58","","","","-17","","NA"
"-96.06","50.18","PINAWA","503B1ER","2020-01-09 17:00","2020","01","09","17:00","-11.6","","","M","","M","0.2","","32","","8","","","","97.66","","","","-16","","NA"
"-96.06","50.18","PINAWA","503B1ER","2020-01-09 18:00","2020","01","09","18:00","-11.9","","","M","","M","0.0","","29","","10","","","","97.74","","","","-18","","NA"
"-96.06","50.18","PINAWA","503B1ER","2020-01-09 19:00","2020","01","09","19:00","-13.8","","","M","","M","0.0","","27","","5","","","","97.81","","","","-17","","NA"
"-96.06","50.18","PINAWA","503B1ER","2020-01-09 20:00","2020","01","09","20:00","-15.7","","","M","","M","0.0","","25","","4","","","","97.91","","","","-19","","NA"
"-96.06","50.18","PINAWA","503B1ER","2020-01-09 21:00","2020","01","09","21:00","-14.1","","","M","","M","0.0","","27","","8","","","","97.95","","","","-19","","NA"
"-96.06","50.18","PINAWA","503B1ER","2020-01-09 22:00","2020","01","09","22:00","-14.3","","","M","","M","0.0","","28","","11","","","","97.96","","","","-21","","NA"
"-96.06","50.18","PINAWA","503B1ER","2020-01-09 23:00","2020","01","09","23:00","-15.5","","","M","","M","0.0","","26","","8","","","","98.10","","","","-21","","NA"
"-96.06","50.18","PINAWA","503B1ER","2020-01-10 00:00","2020","01","10","00:00","-15.4","","","M","","M","0.0","","27","","8","","","","98.18","","","","-21","","NA"
"-96.06","50.18","PINAWA","503B1ER","2020-01-10 01:00","2020","01","10","01:00","-15.4","","","M","","M","0.0","","27","","8","","","","98.21","","","","-21","","NA"
"-96.06","50.18","PINAWA","503B1ER","2020-01-10 02:00","2020","01","10","02:00","-15.6","","","M","","M","0.0","","28","","10","","","","98.30","","","","-22","","NA"
"-96.06","50.18","PINAWA","503B1ER","2020-01-10 03:00","2020","01","10","03:00","-16.5","","","M","","M","0.0","","29","","14","","","","98.44","","","","-24","","NA"
"-96.06","50.18","PINAWA","503B1ER","2020-01-10 04:00","2020","01","10","04:00","-17.1","","","M","","M","0.0","","28","","10","","","","98.51","","","","-24","","NA"
"-96.06","50.18","PINAWA","503B1ER","2020-01-10 05:00","2020","01","10","05:00","-17.8","","","M","","M","0.0","","29","","14","","","","98.60","","","","-26","","NA"
"-96.06","50.18","PINAWA","503B1ER","2020-01-10 06:00","2020","01","10","06:00","-19.0","","","M","","M","0.2","","30","","19","","","","98.72","","","","-29","","NA"
"-96.06","50.18","PINAWA","503B1ER","2020-01-10 07:00","2020","01","10","07:00","-20.4","","","M","","M","0.0","","30","","15","","","","98.87","","","","-30","","NA"
"-96.06","50.18","PINAWA","503B1ER","2020-01-10 08:00","2020","01","10","08:00","-21.7","","","M","","M","0.0","","27","","11","","","","98.99","","","","-30","","NA"
"-96.06","50.18","PINAWA","503B1ER","2020-01-10 09:00","2020","01","10","09:00","-22.7","","","M","","M","0.0","","27","","11","","","","99.11","","","","-31","","NA"
"-96.06","50.18","PINAWA","503B1ER","2020-01-10 10:00","2020","01","10","10:00","-22.4","","","M","","M","0.0","","28","","15","","","","99.17","","","","-32","","NA"
"-96.06","50.18","PINAWA","503B1ER","2020-01-10 11:00","2020","01","10","11:00","-21.3","","","M","","M","0.0","","28","","15","","","","99.28","","","","-31","","NA"
"-96.06","50.18","PINAWA","503B1ER","2020-01-10 12:00","2020","01","10","12:00","-20.7","","","M","","M","0.0","","29","","20","","","","99.29","","","","-31","","NA"
"-96.06","50.18","PINAWA","503B1ER","2020-01-10 13:00","2020","01","10","13:00","-20.7","","","M","","M","0.0","","29","","21","","","","99.32","","","","-32","","NA"
"-96.06","50.18","PINAWA","503B1ER","2020-01-10 14:00","2020","01","10","14:00","-19.9","","","M","","M","0.0","","27","","9","","","","99.37","","","","-27","","NA"
"-96.06","50.18","PINAWA","503B1ER","2020-01-10 15:00","2020","01","10","15:00","-19.9","","","M","","M","0.0","","28","","11","","","","99.47","","","","-28","","NA"
"-96.06","50.18","PINAWA","503B1ER","2020-01-10 16:00","2020","01","10","16:00","-20.9","","","M","","M","0.0","","28","","12","","","","99.54","","","","-29","","NA"
"-96.06","50.18","PINAWA","503B1ER","2020-01-10 17:00","2020","01","10","17:00","-22.2","","","M","","M","0.0","","24","","4","","","","99.59","","","","-26","","NA"
"-96.06","50.18","PINAWA","503B1ER","2020-01-10 18:00","2020","01","10","18:00","-24.1","","","M","","M","0.0","","22","","3","","","","99.60","","","","-27","","NA"
"-96.06","50.18","PINAWA","503B1ER","2020-01-10 19:00","2020","01","10","19:00","-24.9","","","M","","M","0.0","","24","","4","","","","99.64","","","","-29","","NA"
"-96.06","50.18","PINAWA","503B1ER","2020-01-10 20:00","2020","01","10","20:00","-25.9","","","M","","M","0.0","","24","","2","","","","99.64","","","","-28","","NA"
"-96.06","50.18","PINAWA","503B1ER","2020-01-10 21:00","2020","01","10","21:00","-27.0","","","M","","M","0.0","","24","","2","","","","99.69","","","","-29","","NA"
"-96.06","50.18","PINAWA","503B1ER","2020-01-10 22:00","2020","01","10","22:00","-27.8","","","M","","M","0.0","","22","","2","","","","99.73","","","","-30","","NA"
"-96.06","50.18","PINAWA","503B1ER","2020-01-10 23:00","2020","01","10","23:00","-29.2","","","M","","M","0.0","","13","","2","","","","99.71","","","","-31","","NA"
"-96.06","50.18","PINAWA","503B1ER","2020-01-11 00:00","2020","01","11","00:00","-30.2","","","M","","M","0.0","","16","","2","","","","99.70","","","","-32","","NA"
"-96.06","50.18","PINAWA","503B1ER","2020-01-11 01:00","2020","01","11","01:00","-31.3","","","M","","M","0.2","","","","0","","","","99.71","","","","","","NA"
"-96.06","50.18","PINAWA","503B1ER","2020-01-11 02:00","2020","01","11","02:00","-31.9","","","M","","M","0.0","","10","","1","","","","99.64","","","","-33","","NA"
"-96.06","50.18","PINAWA","503B1ER","2020-01-11 03:00","2020","01","11","03:00","-31.9","","","M","","M","0.0","","13","","2","","","","99.63","","","","-34","","NA"
"-96.06","50.18","PINAWA","503B1ER","2020-01-11 04:00","2020","01","11","04:00","-31.9","","","M","","M","0.0","","","","0","","","","99.60","","","","","","NA"
"-96.06","50.18","PINAWA","503B1ER","2020-01-11 05:00","2020","01","11","05:00","-32.2","","","M","","M","0.0","","","","0","","","","99.59","","","","","","NA"
"-96.06","50.18","PINAWA","503B1ER","2020-01-11 06:00","2020","01","11","06:00","-32.3","","","M","","M","0.0","","","","0","","","","99.64","","","","","","NA"
"-96.06","50.18","PINAWA","503B1ER","2020-01-11 07:00","2020","01","11","07:00","-32.9","","","M","","M","0.0","","13","","1","","","","99.62","","","","-34","","NA"
"-96.06","50.18","PINAWA","503B1ER","2020-01-11 08:00","2020","01","11","08:00","-32.3","","","M","","M","0.0","","16","","2","","","","99.68","","","","-35","","NA"
"-96.06","50.18","PINAWA","503B1ER","2020-01-11 09:00","2020","01","11","09:00","-31.0","","","M","","M","0.0","","15","","2","","","","99.73","","","","-33","","NA"
"-96.06","50.18","PINAWA","503B1ER","2020-01-11 10:00","2020","01","11","10:00","-26.2","","","M","","M","0.0","","14","","4","","","","99.77","","","","-30","","NA"
"-96.06","50.18","PINAWA","503B1ER","2020-01-11 11:00","2020","01","11","11:00","-22.3","","","M","","M","0.0","","15","","6","","","","99.70","","","","-28","","NA"
"-96.06","50.18","PINAWA","503B1ER","2020-01-11 12:00","2020","01","11","12:00","-20.3","","","M","","M","0.0","","15","","7","","","","99.59","","","","-26","","NA"
"-96.06","50.18","PINAWA","503B1ER","2020-01-11 13:00","2020","01","11","13:00","-18.7","","","M","","M","0.0","","14","","5","","","","99.46","","","","-23","","NA"
"-96.06","50.18","PINAWA","503B1ER","2020-01-11 14:00","2020","01","11","14:00","-17.8","","","M","","M","0.0","","11","","7","","","","99.36","","","","-23","","NA"
"-96.06","50.18","PINAWA","503B1ER","2020-01-11 15:00","2020","01","11","15:00","-17.3","","","M","","M","0.0","","13","","8","","","","99.41","","","","-23","","NA"
"-96.06","50.18","PINAWA","503B1ER","2020-01-11 16:00","2020","01","11","16:00","-16.7","","","M","","M","0.0","","13","","6","","","","99.42","","","","-21","","NA"
"-96.06","50.18","PINAWA","503B1ER","2020-01-11 17:00","2020","01","11","17:00","-16.7","","","M","","M","0.0","","12","","10","","","","99.42","","","","-23","","NA"
"-96.06","50.18","PINAWA","503B1ER","2020-01-11 18:00","2020","01","11","18:00","-17.2","","","M","","M","0.0","","12","","8","","","","99.41","","","","-23","","NA"
"-96.06","50.18","PINAWA","503B1ER","2020-01-11 19:00","2020","01","11","19:00","-17.1","","","M","","M","0.0","","11","","9","","","","99.35","","","","-23","","NA"
"-96.06","50.18","PINAWA","503B1ER","2020-01-11 20:00","2020","01","11","20:00","-17.2","","","M","","M","0.0","","11","","10","","","","99.26","","","","-24","","NA"
"-96.06","50.18","PINAWA","503B1ER","2020-01-11 21:00","2020","01","11","21:00","-16.8","","","M","","M","0.0","","12","","8","","","","99.21","","","","-22","","NA"
"-96.06","50.18","PINAWA","503B1ER","2020-01-11 22:00","2020","01","11","22:00","-16.7","","","M","","M","0.0","","12","","9","","","","99.20","","","","-23","","NA"
"-96.06","50.18","PINAWA","503B1ER","2020-01-11 23:00","2020","01","11","23:00","-16.7","","","M","","M","0.0","","13","","9","","","","99.20","","","","-23","","NA"
"-96.06","50.18","PINAWA","503B1ER","2020-01-12 00:00","2020","01","12","00:00","-16.6","","","M","","M","0.0","","13","","9","","","","99.19","","","","-23","","NA"
"-96.06","50.18","PINAWA","503B1ER","2020-01-12 01:00","2020","01","12","01:00","-16.4","","","M","","M","0.0","","13","","9","","","","99.19","","","","-22","","NA"
"-96.06","50.18","PINAWA","503B1ER","2020-01-12 02:00","2020","01","12","02:00","-16.4","","","M","","M","0.0","","13","","9","","","","99.16","","","","-22","","NA"
"-96.06","50.18","PINAWA","503B1ER","2020-01-12 03:00","2020","01","12","03:00","-16.6","","","M","","M","0.0","","13","","10","","","","99.15","","","","-23","","NA"
"-96.06","50.18","PINAWA","503B1ER","2020-01-12 04:00","2020","01","12","04:00","-16.4","","","M","","M","0.0","","13","","9","","","","99.11","","","","-22","","NA"
"-96.06","50.18","PINAWA","503B1ER","2020-01-12 05:00","2020","01","12","05:00","-16.3","","","M","","M","0.0","","13","","8","","","","99.12","","","","-22","","NA"
"-96.06","50.18","PINAWA","503B1ER","2020-01-12 06:00","2020","01","12","06:00","-16.1","","","M","","M","0.0","","13","","9","","","","99.11","","","","-22","","NA"
"-96.06","50.18","PINAWA","503B1ER","2020-01-12 07:00","2020","01","12","07:00","-16.0","","","M","","M","0.0","","12","","10","","","","99.10","","","","-22","","NA"
"-96.06","50.18","PINAWA","503B1ER","2020-01-12 08:00","2020","01","12","08:00","-16.0","","","M","","M","0.0","","13","","10","","","","99.09","","","","-22","","NA"
"-96.06","50.18","PINAWA","503B1ER","2020-01-12 09:00","2020","01","12","09:00","-15.0","","","M","","M","0.0","","13","","12","","","","99.09","","","","-22","","NA"
"-96.06","50.18","PINAWA","503B1ER","2020-01-12 10:00","2020","01","12","10:00","-14.1","","","M","","M","0.0","","13","","12","","","","99.12","","","","-21","","NA"
"-96.06","50.18","PINAWA","503B1ER","2020-01-12 11:00","2020","01","12","11:00","-12.4","","","M","","M","0.0","","13","","14","","","","99.09","","","","-19","","NA"
"-96.06","50.18","PINAWA","503B1ER","2020-01-12 12:00","2020","01","12","12:00","-11.5","","","M","","M","0.0","","14","","15","","","","99.00","","","","-19","","NA"
"-96.06","50.18","PINAWA","503B1ER","2020-01-12 13:00","2020","01","12","13:00","-10.4","","","M","","M","0.0","","14","","14","","","","98.92","","","","-17","","NA"
"-96.06","50.18","PINAWA","503B1ER","2020-01-12 14:00","2020","01","12","14:00","-9.8","","","M","","M","0.0","","13","","14","","","","98.87","","","","-16","","NA"
"-96.06","50.18","PINAWA","503B1ER","2020-01-12 15:00","2020","01","12","15:00","-9.4","","","M","","M","0.0","","13","","13","","","","98.83","","","","-15","","NA"
"-96.06","50.18","PINAWA","503B1ER","2020-01-12 16:00","2020","01","12","16:00","-9.9","","","M","","M","0.0","","13","","12","","","","98.82","","","","-16","","NA"
"-96.06","50.18","PINAWA","503B1ER","2020-01-12 17:00","2020","01","12","17:00","-10.1","","","M","","M","0.0","","13","","13","","","","98.80","","","","-16","","NA"
"-96.06","50.18","PINAWA","503B1ER","2020-01-12 18:00","2020","01","12","18:00","-11.2","","","M","","M","0.0","","12","","11","","","","98.84","","","","-17","","NA"
"-96.06","50.18","PINAWA","503B1ER","2020-01-12 19:00","2020","01","12","19:00","-11.4","","","M","","M","0.0","","13","","12","","","","98.81","","","","-18","","NA"
"-96.06","50.18","PINAWA","503B1ER","2020-01-12 20:00","2020","01","12","20:00","-11.3","","","M","","M","0.0","","13","","11","","","","98.77","","","","-17","","NA"
"-96.06","50.18","PINAWA","503B1ER","2020-01-12 21:00","2020","01","12","21:00","-10.9","","","M","","M","0.0","","14","","10","","","","98.76","","","","-16","","NA"
"-96.06","50.18","PINAWA","503B1ER","2020-01-12 22:00","2020","01","12","22:00","-10.6","","","M","","M","0.0","","14","","9","","","","98.72","","","","-16","","NA"
"-96.06","50.18","PINAWA","503B1ER","2020-01-12 23:00","2020","01","12","23:00","-10.2","","","M","","M","0.0","","14","","11","","","","98.70","","","","-16","","NA"
"-96.06","50.18","PINAWA","503B1ER","2020-01-13 00:00","2020","01","13","00:00","-10.2","","","M","","M","0.0","","14","","11","","","","98.70","","","","-16","","NA"
"-96.06","50.18","PINAWA","503B1ER","2020-01-13 01:00","2020","01","13","01:00","-10.2","","","M","","M","0.0","","15","","10","","","","98.68","","","","-15","","NA"
"-96.06","50.18","PINAWA","503B1ER","2020-01-13 02:00","2020","01","13","02:00","-10.9","","","M","","M","0.0","","15","","11","","","","98.62","","","","-17","","NA"
"-96.06","50.18","PINAWA","503B1ER","2020-01-13 03:00","2020","01","13","03:00","-11.0","","","M","","M","0.0","","14","","8","","","","98.64","","","","-16","","NA"
"-96.06","50.18","PINAWA","503B1ER","2020-01-13 04:00","2020","01","13","04:00","-10.6","","","M","","M","0.0","","14","","10","","","","98.61","","","","-16","","NA"
"-96.06","50.18","PINAWA","503B1ER","2020-01-13 05:00","2020","01","13","05:00","-10.4","","","M","","M","0.0","","15","","9","","","","98.59","","","","-15","","NA"
"-96.06","50.18","PINAWA","503B1ER","2020-01-13 06:00","2020","01","13","06:00","-10.2","","","M","","M","0.0","","15","","8","","","","98.58","","","","-15","","NA"
"-96.06","50.18","PINAWA","503B1ER","2020-01-13 07:00","2020","01","13","07:00","-9.8","","","M","","M","0.0","","14","","8","","","","98.56","","","","-14","","NA"
"-96.06","50.18","PINAWA","503B1ER","2020-01-13 08:00","2020","01","13","08:00","-9.3","","","M","","M","0.0","","15","","10","","","","98.54","","","","-14","","NA"
"-96.06","50.18","PINAWA","503B1ER","2020-01-13 09:00","2020","01","13","09:00","-8.9","","","M","","M","0.0","","14","","10","","","","98.55","","","","-14","","NA"
"-96.06","50.18","PINAWA","503B1ER","2020-01-13 10:00","2020","01","13","10:00","-8.3","","","M","","M","0.0","","15","","8","","","","98.55","","","","-12","","NA"
"-96.06","50.18","PINAWA","503B1ER","2020-01-13 11:00","2020","01","13","11:00","-7.5","","","M","","M","0.0","","16","","13","","","","98.57","","","","-13","","NA"
"-96.06","50.18","PINAWA","503B1ER","2020-01-13 12:00","2020","01","13","12:00","-7.2","","","M","","M","0.0","","16","","11","","","","98.53","","","","-12","","NA"
"-96.06","50.18","PINAWA","503B1ER","2020-01-13 13:00","2020","01","13","13:00","-6.6","","","M","","M","0.0","","15","","10","","","","98.43","","","","-11","","NA"
"-96.06","50.18","PINAWA","503B1ER","2020-01-13 14:00","2020","01","13","14:00","-6.1","","","M","","M","0.0","","15","","7","","","","98.38","","","","-9","","NA"
"-96.06","50.18","PINAWA","503B1ER","2020-01-13 15:00","2020","01","13","15:00","-5.7","","","M","","M","0.2","","15","","7","","","","98.36","","","","-9","","NA"
"-96.06","50.18","PINAWA","503B1ER","2020-01-13 16:00","2020","01","13","16:00","-5.9","","","M","","M","0.2","","15","","5","","","","98.40","","","","-8","","NA"
"-96.06","50.18","PINAWA","503B1ER","2020-01-13 17:00","2020","01","13","17:00","-5.9","","","M","","M","0.0","","13","","4","","","","98.39","","","","-8","","NA"
"-96.06","50.18","PINAWA","503B1ER","2020-01-13 18:00","2020","01","13","18:00","-6.3","","","M","","M","0.0","","12","","3","","","","98.36","","","","-8","","NA"
"-96.06","50.18","PINAWA","503B1ER","2020-01-13 19:00","2020","01","13","19:00","-7.0","","","M","","M","0.0","","10","","3","","","","98.36","","","","-9","","NA"
"-96.06","50.18","PINAWA","503B1ER","2020-01-13 20:00","2020","01","13","20:00","-6.9","","","M","","M","0.2","","11","","4","","","","98.33","","","","-9","","NA"
"-96.06","50.18","PINAWA","503B1ER","2020-01-13 21:00","2020","01","13","21:00","-6.8","","","M","","M","0.2","","10","","5","","","","98.26","","","","-9","","NA"
"-96.06","50.18","PINAWA","503B1ER","2020-01-13 22:00","2020","01","13","22:00","-7.0","","","M","","M","0.2","","12","","3","","","","98.22","","","","-9","","NA"
"-96.06","50.18","PINAWA","503B1ER","2020-01-13 23:00","2020","01","13","23:00","-6.5","","","M","","M","0.2","","14","","3","","","","98.19","","","","-8","","NA"
"-96.06","50.18","PINAWA","503B1ER","2020-01-14 00:00","2020","01","14","00:00","-6.5","","","M","","M","0.0","","12","","2","","","","98.13","","","","-7","","NA"
"-96.06","50.18","PINAWA","503B1ER","2020-01-14 01:00","2020","01","14","01:00","-6.5","","","M","","M","0.3","","0","","1","","","","98.09","","","","-7","","NA"
"-96.06","50.18","PINAWA","503B1ER","2020-01-14 02:00","2020","01","14","02:00","-6.7","","","M","","M","0.0","","35","","3","","","","98.06","","","","-8","","NA"
"-96.06","50.18","PINAWA","503B1ER","2020-01-14 03:00","2020","01","14","03:00","-7.4","","","M","","M","0.2","","32","","2","","","","98.06","","","","-8","","NA"
"-96.06","50.18","PINAWA","503B1ER","2020-01-14 04:00","2020","01","14","04:00","-7.6","","","M","","M","0.0","","33","","4","","","","98.02","","","","-10","","NA"
"-96.06","50.18","PINAWA","503B1ER","2020-01-14 05:00","2020","01","14","05:00","-7.8","","","M","","M","0.0","","29","","5","","","","98.02","","","","-10","","NA"
"-96.06","50.18","PINAWA","503B1ER","2020-01-14 06:00","2020","01","14","06:00","-8.7","","","M","","M","0.0","","31","","15","","","","98.06","","","","-15","","NA"
"-96.06","50.18","PINAWA","503B1ER","2020-01-14 07:00","2020","01","14","07:00","-9.6","","","M","","M","0.0","","31","","17","","","","98.13","","","","-17","","NA"
"-96.06","50.18","PINAWA","503B1ER","2020-01-14 08:00","2020","01","14","08:00","-11.2","","","M","","M","0.0","","30","","19","","","","98.21","","","","-19","","NA"
"-96.06","50.18","PINAWA","503B1ER","2020-01-14 09:00","2020","01","14","09:00","-12.3","","","M","","M","0.0","","30","","16","","","","98.24","","","","-20","","NA"
"-96.06","50.18","PINAWA","503B1ER","2020-01-14 10:00","2020","01","14","10:00","-13.0","","","M","","M","0.0","","31","","17","","","","98.33","","","","-21","","NA"
"-96.06","50.18","PINAWA","503B1ER","2020-01-14 11:00","2020","01","14","11:00","-12.9","","","M","","M","0.0","","31","","16","","","","98.39","","","","-21","","NA"
"-96.06","50.18","PINAWA","503B1ER","2020-01-14 12:00","2020","01","14","12:00","-12.9","","","M","","M","0.0","","29","","15","","","","98.42","","","","-20","","NA"
"-96.06","50.18","PINAWA","503B1ER","2020-01-14 13:00","2020","01","14","13:00","-12.7","","","M","","M","0.0","","29","","18","","","","98.48","","","","-21","","NA"
"-96.06","50.18","PINAWA","503B1ER","2020-01-14 14:00","2020","01","14","14:00","-13.4","","","M","","M","0.0","","29","","19","","","","98.51","","","","-22","","NA"
"-96.06","50.18","PINAWA","503B1ER","2020-01-14 15:00","2020","01","14","15:00","-14.1","","","M","","M","0.0","","30","","18","","","","98.59","","","","-23","","NA"
"-96.06","50.18","PINAWA","503B1ER","2020-01-14 16:00","2020","01","14","16:00","-14.9","","","M","","M","0.0","","30","","12","","","","98.65","","","","-22","","NA"
"-96.06","50.18","PINAWA","503B1ER","2020-01-14 17:00","2020","01","14","17:00","-16.3","","","M","","M","0.0","","31","","8","","","","98.75","","","","-22","","NA"
"-96.06","50.18","PINAWA","503B1ER","2020-01-14 18:00","2020","01","14","18:00","-17.4","","","M","","M","0.0","","26","","5","","","","98.85","","","","-21","","NA"
"-96.06","50.18","PINAWA","503B1ER","2020-01-14 19:00","2020","01","14","19:00","-19.1","","","M","","M","0.2","","27","","5","","","","98.88","","","","-23","","NA"
"-96.06","50.18","PINAWA","503B1ER","2020-01-14 20:00","2020","01","14","20:00","-20.5","","","M","","M","0.0","","27","","4","","","","98.95","","","","-24","","NA"
"-96.06","50.18","PINAWA","503B1ER","2020-01-14 21:00","2020","01","14","21:00","-21.6","","","M","","M","0.0","","28","","3","","","","98.98","","","","-24","","NA"
"-96.06","50.18","PINAWA","503B1ER","2020-01-14 22:00","2020","01","14","22:00","-21.4","","","M","","M","0.0","","31","","5","","","","98.97","","","","-26","","NA"
"-96.06","50.18","PINAWA","503B1ER","2020-01-14 23:00","2020","01","14","23:00","-22.5","","","M","","M","0.0","","31","","6","","","","99.08","","","","-28","","NA"
"-96.06","50.18","PINAWA","503B1ER","2020-01-15 00:00","2020","01","15","00:00","-21.9","","","M","","M","0.0","","33","","4","","","","99.08","","","","-26","","NA"
"-96.06","50.18","PINAWA","503B1ER","2020-01-15 01:00","2020","01","15","01:00","-22.9","","","M","","M","0.0","","23","","2","","","","99.17","","","","-25","","NA"
"-96.06","50.18","PINAWA","503B1ER","2020-01-15 02:00","2020","01","15","02:00","-23.6","","","M","","M","0.0","","29","","4","","","","99.23","","","","-27","","NA"
"-96.06","50.18","PINAWA","503B1ER","2020-01-15 03:00","2020","01","15","03:00","-23.2","","","M","","M","0.0","","30","","3","","","","99.27","","","","-26","","NA"
"-96.06","50.18","PINAWA","503B1ER","2020-01-15 04:00","2020","01","15","04:00","-22.7","","","M","","M","0.0","","30","","4","","","","99.28","","","","-26","","NA"
"-96.06","50.18","PINAWA","503B1ER","2020-01-15 05:00","2020","01","15","05:00","-22.2","","","M","","M","0.0","","36","","6","","","","99.20","","","","-28","","NA"
"-96.06","50.18","PINAWA","503B1ER","2020-01-15 06:00","2020","01","15","06:00","-21.9","","","M","","M","0.0","","33","","9","","","","99.24","","","","-29","","NA"
"-96.06","50.18","PINAWA","503B1ER","2020-01-15 07:00","2020","01","15","07:00","-21.8","","","M","","M","0.0","","32","","10","","","","99.29","","","","-29","","NA"
"-96.06","50.18","PINAWA","503B1ER","2020-01-15 08:00","2020","01","15","08:00","-22.1","","","M","","M","0.2","","32","","10","","","","99.30","","","","-30","","NA"
"-96.06","50.18","PINAWA","503B1ER","2020-01-15 09:00","2020","01","15","09:00","-22.1","","","M","","M","0.2","","32","","12","","","","99.37","","","","-31","","NA"
"-96.06","50.18","PINAWA","503B1ER","2020-01-15 10:00","2020","01","15","10:00","-21.9","","","M","","M","0.0","","33","","9","","","","99.40","","","","-29","","NA"
"-96.06","50.18","PINAWA","503B1ER","2020-01-15 11:00","2020","01","15","11:00","-22.0","","","M","","M","0.2","","30","","10","","","","99.47","","","","-30","","NA"
"-96.06","50.18","PINAWA","503B1ER","2020-01-15 12:00","2020","01","15","12:00","-21.8","","","M","","M","0.3","","29","","14","","","","99.49","","","","-31","","NA"
"-96.06","50.18","PINAWA","503B1ER","2020-01-15 13:00","2020","01","15","13:00","-22.0","","","M","","M","0.2","","31","","18","","","","99.51","","","","-32","","NA"
"-96.06","50.18","PINAWA","503B1ER","2020-01-15 14:00","2020","01","15","14:00","-21.9","","","M","","M","0.2","","32","","13","","","","99.48","","","","-31","","NA"
"-96.06","50.18","PINAWA","503B1ER","2020-01-15 15:00","2020","01","15","15:00","-21.6","","","M","","M","0.2","","30","","13","","","","99.56","","","","-30","","NA"
"-96.06","50.18","PINAWA","503B1ER","2020-01-15 16:00","2020","01","15","16:00","-21.4","","","M","","M","0.0","","31","","13","","","","99.62","","","","-30","","NA"
"-96.06","50.18","PINAWA","503B1ER","2020-01-15 17:00","2020","01","15","17:00","-22.5","","","M","","M","0.0","","30","","12","","","","99.71","","","","-31","","NA"
"-96.06","50.18","PINAWA","503B1ER","2020-01-15 18:00","2020","01","15","18:00","-23.8","","","M","","M","0.0","","29","","11","","","","99.81","","","","-32","","NA"
"-96.06","50.18","PINAWA","503B1ER","2020-01-15 19:00","2020","01","15","19:00","-24.0","","","M","","M","0.2","","29","","9","","","","99.89","","","","-31","","NA"
"-96.06","50.18","PINAWA","503B1ER","2020-01-15 20:00","2020","01","15","20:00","-25.0","","","M","","M","0.0","","29","","11","","","","99.97","","","","-34","","NA"
"-96.06","50.18","PINAWA","503B1ER","2020-01-15 21:00","2020","01","15","21:00","-25.3","","","M","","M","0.0","","29","","12","","","","99.98","","","","-34","","NA"
"-96.06","50.18","PINAWA","503B1ER","2020-01-15 22:00","2020","01","15","22:00","-25.7","","","M","","M","0.0","","29","","11","","","","100.06","","","","-34","","NA"
"-96.06","50.18","PINAWA","503B1ER","2020-01-15 23:00","2020","01","15","23:00","-26.9","","","M","","M","0.0","","28","","7","","","","100.16","","","","-34","","NA"
"-96.06","50.18","PINAWA","503B1ER","2020-01-16 00:00","2020","01","16","00:00","-27.6","","","M","","M","0.0","","28","","5","","","","100.23","","","","-33","","NA"
"-96.06","50.18","PINAWA","503B1ER","2020-01-16 01:00","2020","01","16","01:00","-27.6","","","M","","M","0.0","","28","","11","","","","100.29","","","","-37","","NA"
"-96.06","50.18","PINAWA","503B1ER","2020-01-16 02:00","2020","01","16","02:00","-28.1","","","M","","M","0.0","","29","","10","","","","100.38","","","","-37","","NA"
"-96.06","50.18","PINAWA","503B1ER","2020-01-16 03:00","2020","01","16","03:00","-29.0","","","M","","M","0.0","","31","","4","","","","100.48","","","","-33","","NA"
"-96.06","50.18","PINAWA","503B1ER","2020-01-16 04:00","2020","01","16","04:00","-29.3","","","M","","M","0.0","","27","","2","","","","100.48","","","","-32","","NA"
"-96.06","50.18","PINAWA","503B1ER","2020-01-16 05:00","2020","01","16","05:00","-30.5","","","M","","M","0.0","","23","","2","","","","100.55","","","","-33","","NA"
"-96.06","50.18","PINAWA","503B1ER","2020-01-16 06:00","2020","01","16","06:00","-31.6","","","M","","M","0.0","","26","","2","","","","100.67","","","","-34","","NA"
"-96.06","50.18","PINAWA","503B1ER","2020-01-16 07:00","2020","01","16","07:00","-31.3","","","M","","M","0.0","","27","","4","","","","100.76","","","","-36","","NA"
"-96.06","50.18","PINAWA","503B1ER","2020-01-16 08:00","2020","01","16","08:00","-32.1","","","M","","M","0.0","","22","","5","","","","100.77","","","","-38","","NA"
"-96.06","50.18","PINAWA","503B1ER","2020-01-16 09:00","2020","01","16","09:00","-32.3","","","M","","M","0.0","","22","","3","","","","100.84","","","","-36","","NA"
"-96.06","50.18","PINAWA","503B1ER","2020-01-16 10:00","2020","01","16","10:00","-29.4","","","M","","M","0.0","","36","","3","","","","100.84","","","","-33","","NA"
"-96.06","50.18","PINAWA","503B1ER","2020-01-16 11:00","2020","01","16","11:00","-27.1","","","M","","M","0.0","","","","0","","","","100.91","","","","","","NA"
"-96.06","50.18","PINAWA","503B1ER","2020-01-16 12:00","2020","01","16","12:00","-23.4","","","M","","M","0.0","","21","","2","","","","100.92","","","","-25","","NA"
"-96.06","50.18","PINAWA","503B1ER","2020-01-16 13:00","2020","01","16","13:00","-22.7","","","M","","M","0.0","","17","","5","","","","100.86","","","","-27","","NA"
"-96.06","50.18","PINAWA","503B1ER","2020-01-16 14:00","2020","01","16","14:00","-21.8","","","M","","M","0.0","","15","","5","","","","100.85","","","","-26","","NA"
"-96.06","50.18","PINAWA","503B1ER","2020-01-16 15:00","2020","01","16","15:00","-21.1","","","M","","M","0.0","","20","","4","","","","100.84","","","","-25","","NA"
"-96.06","50.18","PINAWA","503B1ER","2020-01-16 16:00","2020","01","16","16:00","-22.1","","","M","","M","0.0","","0","","1","","","","100.79","","","","-23","","NA"
"-96.06","50.18","PINAWA","503B1ER","2020-01-16 17:00","2020","01","16","17:00","-24.9","","","M","","M","0.0","","1","","2","","","","100.78","","","","-27","","NA"
"-96.06","50.18","PINAWA","503B1ER","2020-01-16 18:00","2020","01","16","18:00","-26.0","","","M","","M","0.0","","","","0","","","","100.74","","","","","","NA"
"-96.06","50.18","PINAWA","503B1ER","2020-01-16 19:00","2020","01","16","19:00","-25.6","","","M","","M","0.0","","0","","1","","","","100.70","","","","-27","","NA"
"-96.06","50.18","PINAWA","503B1ER","2020-01-16 20:00","2020","01","16","20:00","-25.2","","","M","","M","0.0","","13","","3","","","","100.66","","","","-28","","NA"
"-96.06","50.18","PINAWA","503B1ER","2020-01-16 21:00","2020","01","16","21:00","-22.7","","","M","","M","0.0","","12","","7","","","","100.60","","","","-29","","NA"
"-96.06","50.18","PINAWA","503B1ER","2020-01-16 22:00","2020","01","16","22:00","-22.1","","","M","","M","0.0","","13","","9","","","","100.51","","","","-29","","NA"
"-96.06","50.18","PINAWA","503B1ER","2020-01-16 23:00","2020","01","16","23:00","-22.1","","","M","","M","0.0","","13","","8","","","","100.42","","","","-29","","NA"
"-96.06","50.18","PINAWA","503B1ER","2020-01-17 00:00","2020","01","17","00:00","-22.6","","","M","","M","0.0","","13","","7","","","","100.39","","","","-29","","NA"
"-96.06","50.18","PINAWA","503B1ER","2020-01-17 01:00","2020","01","17","01:00","-22.9","","","M","","M","0.0","","12","","11","","","","100.24","","","","-31","","NA"
"-96.06","50.18","PINAWA","503B1ER","2020-01-17 02:00","2020","01","17","02:00","-22.2","","","M","","M","0.0","","12","","14","","","","100.04","","","","-31","","NA"
"-96.06","50.18","PINAWA","503B1ER","2020-01-17 03:00","2020","01","17","03:00","-21.4","","","M","","M","0.0","","12","","14","","","","99.89","","","","-30","","NA"
"-96.06","50.18","PINAWA","503B1ER","2020-01-17 04:00","2020","01","17","04:00","-19.7","","","M","","M","0.0","","12","","15","","","","99.74","","","","-29","","NA"
"-96.06","50.18","PINAWA","503B1ER","2020-01-17 05:00","2020","01","17","05:00","-18.5","","","M","","M","0.0","","13","","13","","","","99.60","","","","-27","","NA"
"-96.06","50.18","PINAWA","503B1ER","2020-01-17 06:00","2020","01","17","06:00","-17.0","","","M","","M","0.0","","13","","14","","","","99.46","","","","-25","","NA"
"-96.06","50.18","PINAWA","503B1ER","2020-01-17 07:00","2020","01","17","07:00","-15.9","","","M","","M","0.0","","13","","15","","","","99.27","","","","-24","","NA"
"-96.06","50.18","PINAWA","503B1ER","2020-01-17 08:00","2020","01","17","08:00","-15.2","","","M","","M","0.0","","13","","15","","","","99.19","","","","-23","","NA"
"-96.06","50.18","PINAWA","503B1ER","2020-01-17 09:00","2020","01","17","09:00","-13.9","","","M","","M","0.0","","13","","10","","","","99.12","","","","-20","","NA"
"-96.06","50.18","PINAWA","503B1ER","2020-01-17 10:00","2020","01","17","10:00","-13.5","","","M","","M","0.0","","13","","17","","","","99.08","","","","-22","","NA"
"-96.06","50.18","PINAWA","503B1ER","2020-01-17 11:00","2020","01","17","11:00","-13.2","","","M","","M","0.0","","13","","14","","","","99.00","","","","-20","","NA"
"-96.06","50.18","PINAWA","503B1ER","2020-01-17 12:00","2020","01","17","12:00","-11.7","","","M","","M","0.0","","15","","16","","","","98.83","","","","-19","","NA"
"-96.06","50.18","PINAWA","503B1ER","2020-01-17 13:00","2020","01","17","13:00","-11.1","","","M","","M","0.3","","14","","15","","","","98.74","","","","-18","","NA"
"-96.06","50.18","PINAWA","503B1ER","2020-01-17 14:00","2020","01","17","14:00","-10.2","","","M","","M","0.6","","15","","13","","","","98.64","","","","-16","","NA"
"-96.06","50.18","PINAWA","503B1ER","2020-01-17 15:00","2020","01","17","15:00","-9.7","","","M","","M","0.7","","14","","15","","","","98.60","","","","-16","","NA"
"-96.06","50.18","PINAWA","503B1ER","2020-01-17 16:00","2020","01","17","16:00","-9.0","","","M","","M","0.3","","15","","14","","","","98.59","","","","-15","","NA"
"-96.06","50.18","PINAWA","503B1ER","2020-01-17 17:00","2020","01","17","17:00","-8.4","","","M","","M","0.2","","14","","16","","","","98.54","","","","-15","","NA"
"-96.06","50.18","PINAWA","503B1ER","2020-01-17 18:00","2020","01","17","18:00","-8.0","","","M","","M","0.2","","14","","17","","","","98.53","","","","-15","","NA"
"-96.06","50.18","PINAWA","503B1ER","2020-01-17 19:00","2020","01","17","19:00","-7.8","","","M","","M","0.3","","14","","13","","","","98.50","","","","-14","","NA"
"-96.06","50.18","PINAWA","503B1ER","2020-01-17 20:00","2020","01","17","20:00","-7.3","","","M","","M","0.3","","14","","12","","","","98.43","","","","-13","","NA"
"-96.06","50.18","PINAWA","503B1ER","2020-01-17 21:00","2020","01","17","21:00","-6.9","","","M","","M","0.3","","14","","11","","","","98.36","","","","-12","","NA"
"-96.06","50.18","PINAWA","503B1ER","2020-01-17 22:00","2020","01","17","22:00","-6.5","","","M","","M","0.2","","14","","10","","","","98.28","","","","-11","","NA"
"-96.06","50.18","PINAWA","503B1ER","2020-01-17 23:00","2020","01","17","23:00","-6.7","","","M","","M","0.0","","14","","11","","","","98.25","","","","-12","","NA"
"-96.06","50.18","PINAWA","503B1ER","2020-01-18 00:00","2020","01","18","00:00","-7.0","","","M","","M","0.3","","14","","11","","","","98.24","","","","-12","","NA"
"-96.06","50.18","PINAWA","503B1ER","2020-01-18 01:00","2020","01","18","01:00","-7.3","","","M","","M","0.9","","14","","9","","","","98.17","","","","-12","","NA"
"-96.06","50.18","PINAWA","503B1ER","2020-01-18 02:00","2020","01","18","02:00","-7.6","","","M","","M","0.7","","13","","7","","","","98.08","","","","-11","","NA"
"-96.06","50.18","PINAWA","503B1ER","2020-01-18 03:00","2020","01","18","03:00","-7.8","","","M","","M","0.2","","13","","8","","","","98.05","","","","-12","","NA"
"-96.06","50.18","PINAWA","503B1ER","2020-01-18 04:00","2020","01","18","04:00","-8.0","","","M","","M","0.4","","12","","4","","","","97.99","","","","-10","","NA"
"-96.06","50.18","PINAWA","503B1ER","2020-01-18 05:00","2020","01","18","05:00","-8.2","","","M","","M","0.5","","10","","2","","","","97.93","","","","-9","","NA"
"-96.06","50.18","PINAWA","503B1ER","2020-01-18 06:00","2020","01","18","06:00","-8.4","","","M","","M","0.3","","36","","1","","","","97.89","","","","-9","","NA"
"-96.06","50.18","PINAWA","503B1ER","2020-01-18 07:00","2020","01","18","07:00","-8.5","","","M","","M","0.2","","36","","4","","","","97.87","","","","-11","","NA"
"-96.06","50.18","PINAWA","503B1ER","2020-01-18 08:00","2020","01","18","08:00","-8.6","","","M","","M","0.0","","35","","5","","","","97.85","","","","-11","","NA"
"-96.06","50.18","PINAWA","503B1ER","2020-01-18 09:00","2020","01","18","09:00","-8.5","","","M","","M","0.2","","33","","5","","","","97.87","","","","-11","","NA"
"-96.06","50.18","PINAWA","503B1ER","2020-01-18 10:00","2020","01","18","10:00","-8.2","","","M","","M","0.2","","34","","6","","","","97.90","","","","-11","","NA"
"-96.06","50.18","PINAWA","503B1ER","2020-01-18 11:00","2020","01","18","11:00","-11.0","","","M","","M","0.2","","32","","22","","","","97.99","","","","-20","","NA"
"-96.06","50.18","PINAWA","503B1ER","2020-01-18 12:00","2020","01","18","12:00","-12.0","","","M","","M","0.0","","32","","23","","","","98.03","","","","-21","","NA"
"-96.06","50.18","PINAWA","503B1ER","2020-01-18 13:00","2020","01","18","13:00","-13.0","","","M","","M","0.0","","31","","24","","","","98.09","","","","-22","","NA"
"-96.06","50.18","PINAWA","503B1ER","2020-01-18 14:00","2020","01","18","14:00","-13.5","","","M","","M","0.2","","32","","24","","","","98.15","","","","-23","","NA"
"-96.06","50.18","PINAWA","503B1ER","2020-01-18 15:00","2020","01","18","15:00","-14.4","","","M","","M","0.0","","31","","28","","","","98.27","","","","-25","","NA"
"-96.06","50.18","PINAWA","503B1ER","2020-01-18 16:00","2020","01","18","16:00","-14.7","","","M","","M","0.0","","31","","24","","","","98.42","","","","-25","","NA"
"-96.06","50.18","PINAWA","503B1ER","2020-01-18 17:00","2020","01","18","17:00","-15.0","","","M","","M","0.0","","31","","21","","","","98.54","","","","-24","","NA"
"-96.06","50.18","PINAWA","503B1ER","2020-01-18 18:00","2020","01","18","18:00","-15.5","","","M","","M","0.3","","32","","23","","","","98.65","","","","-25","","NA"
"-96.06","50.18","PINAWA","503B1ER","2020-01-18 19:00","2020","01","18","19:00","-16.0","","","M","","M","0.0","","32","","23","","","","98.79","","","","-26","","NA"
"-96.06","50.18","PINAWA","503B1ER","2020-01-18 20:00","2020","01","18","20:00","-16.2","","","M","","M","0.0","","32","","20","","","","98.91","","","","-26","","NA"
"-96.06","50.18","PINAWA","503B1ER","2020-01-18 21:00","2020","01","18","21:00","-16.4","","","M","","M","0.0","","32","","18","","","","98.99","","","","-25","","NA"
"-96.06","50.18","PINAWA","503B1ER","2020-01-18 22:00","2020","01","18","22:00","-16.0","","","M","","M","0.0","","32","","17","","","","99.10","","","","-25","","NA"
"-96.06","50.18","PINAWA","503B1ER","2020-01-18 23:00","2020","01","18","23:00","-15.7","","","M","","M","0.0","","32","","18","","","","99.17","","","","-25","","NA"
"-96.06","50.18","PINAWA","503B1ER","2020-01-19 00:00","2020","01","19","00:00","-15.1","","","M","","M","0.0","","31","","14","","","","99.28","","","","-23","","NA"
"-96.06","50.18","PINAWA","503B1ER","2020-01-19 01:00","2020","01","19","01:00","-15.1","","","M","","M","0.0","","32","","15","","","","99.38","","","","-23","","NA"
"-96.06","50.18","PINAWA","503B1ER","2020-01-19 02:00","2020","01","19","02:00","-15.2","","","M","","M","0.0","","32","","15","","","","99.47","","","","-23","","NA"
"-96.06","50.18","PINAWA","503B1ER","2020-01-19 03:00","2020","01","19","03:00","-15.2","","","M","","M","0.0","","32","","11","","","","99.56","","","","-22","","NA"
"-96.06","50.18","PINAWA","503B1ER","2020-01-19 04:00","2020","01","19","04:00","-15.5","","","M","","M","0.2","","32","","12","","","","99.65","","","","-23","","NA"
"-96.06","50.18","PINAWA","503B1ER","2020-01-19 05:00","2020","01","19","05:00","-15.5","","","M","","M","0.0","","33","","7","","","","99.72","","","","-20","","NA"
"-96.06","50.18","PINAWA","503B1ER","2020-01-19 06:00","2020","01","19","06:00","-15.3","","","M","","M","0.0","","33","","7","","","","99.81","","","","-20","","NA"
"-96.06","50.18","PINAWA","503B1ER","2020-01-19 07:00","2020","01","19","07:00","-15.2","","","M","","M","0.2","","35","","8","","","","99.85","","","","-21","","NA"
"-96.06","50.18","PINAWA","503B1ER","2020-01-19 08:00","2020","01","19","08:00","-15.1","","","M","","M","0.2","","34","","7","","","","99.95","","","","-20","","NA"
"-96.06","50.18","PINAWA","503B1ER","2020-01-19 09:00","2020","01","19","09:00","-15.0","","","M","","M","0.2","","35","","8","","","","100.02","","","","-20","","NA"
"-96.06","50.18","PINAWA","503B1ER","2020-01-19 10:00","2020","01","19","10:00","-14.8","","","M","","M","0.2","","35","","8","","","","100.12","","","","-20","","NA"
"-96.06","50.18","PINAWA","503B1ER","2020-01-19 11:00","2020","01","19","11:00","-14.7","","","M","","M","0.2","","34","","9","","","","100.18","","","","-20","","NA"
"-96.06","50.18","PINAWA","503B1ER","2020-01-19 12:00","2020","01","19","12:00","-14.6","","","M","","M","0.0","","35","","8","","","","100.20","","","","-20","","NA"
"-96.06","50.18","PINAWA","503B1ER","2020-01-19 13:00","2020","01","19","13:00","-13.8","","","M","","M","0.0","","34","","8","","","","100.21","","","","-19","","NA"
"-96.06","50.18","PINAWA","503B1ER","2020-01-19 14:00","2020","01","19","14:00","-13.5","","","M","","M","0.0","","34","","9","","","","100.21","","","","-19","","NA"
"-96.06","50.18","PINAWA","503B1ER","2020-01-19 15:00","2020","01","19","15:00","-13.7","","","M","","M","0.0","","34","","5","","","","100.25","","","","-17","","NA"
"-96.06","50.18","PINAWA","503B1ER","2020-01-19 16:00","2020","01","19","16:00","-13.7","","","M","","M","0.2","","33","","3","","","","100.29","","","","-16","","NA"
"-96.06","50.18","PINAWA","503B1ER","2020-01-19 17:00","2020","01","19","17:00","-14.3","","","M","","M","0.0","","34","","5","","","","100.34","","","","-18","","NA"
"-96.06","50.18","PINAWA","503B1ER","2020-01-19 18:00","2020","01","19","18:00","-17.2","","","M","","M","0.0","","33","","4","","","","100.40","","","","-20","","NA"
"-96.06","50.18","PINAWA","503B1ER","2020-01-19 19:00","2020","01","19","19:00","-17.1","","","M","","M","0.0","","35","","6","","","","100.42","","","","-22","","NA"
"-96.06","50.18","PINAWA","503B1ER","2020-01-19 20:00","2020","01","19","20:00","-20.9","","","M","","M","0.0","","36","","3","","","","100.43","","","","-24","","NA"
"-96.06","50.18","PINAWA","503B1ER","2020-01-19 21:00","2020","01","19","21:00","-23.6","","","M","","M","0.0","","","","0","","","","100.43","","","","","","NA"
"-96.06","50.18","PINAWA","503B1ER","2020-01-19 22:00","2020","01","19","22:00","-26.0","","","M","","M","0.2","","","","0","","","","100.44","","","","","","NA"
"-96.06","50.18","PINAWA","503B1ER","2020-01-19 23:00","2020","01","19","23:00","-26.6","","","M","","M","0.0","","","","0","","","","100.44","","","","","","NA"
"-96.06","50.18","PINAWA","503B1ER","2020-01-20 00:00","2020","01","20","00:00","-27.7","","","M","","M","0.0","","","","0","","","","100.45","","","","","","NA"
"-96.06","50.18","PINAWA","503B1ER","2020-01-20 01:00","2020","01","20","01:00","-28.8","","","M","","M","0.0","","","","0","","","","100.44","","","","","","NA"
"-96.06","50.18","PINAWA","503B1ER","2020-01-20 02:00","2020","01","20","02:00","-29.5","","","M","","M","0.0","","","","0","","","","100.45","","","","","","NA"
"-96.06","50.18","PINAWA","503B1ER","2020-01-20 03:00","2020","01","20","03:00","-30.2","","","M","","M","0.0","","13","","2","","","","100.48","","","","-32","","NA"
"-96.06","50.18","PINAWA","503B1ER","2020-01-20 04:00","2020","01","20","04:00","-31.1","","","M","","M","0.0","","14","","2","","","","100.42","","","","-33","","NA"
"-96.06","50.18","PINAWA","503B1ER","2020-01-20 05:00","2020","01","20","05:00","-30.6","","","M","","M","0.0","","18","","2","","","","100.40","","","","-33","","NA"
"-96.06","50.18","PINAWA","503B1ER","2020-01-20 06:00","2020","01","20","06:00","-29.6","","","M","","M","0.0","","20","","3","","","","100.40","","","","-33","","NA"
"-96.06","50.18","PINAWA","503B1ER","2020-01-20 07:00","2020","01","20","07:00","-30.8","","","M","","M","0.0","","15","","4","","","","100.38","","","","-35","","NA"
"-96.06","50.18","PINAWA","503B1ER","2020-01-20 08:00","2020","01","20","08:00","-30.6","","","M","","M","0.0","","14","","3","","","","100.36","","","","-34","","NA"
"-96.06","50.18","PINAWA","503B1ER","2020-01-20 09:00","2020","01","20","09:00","-29.2","","","M","","M","0.0","","19","","2","","","","100.33","","","","-31","","NA"
"-96.06","50.18","PINAWA","503B1ER","2020-01-20 10:00","2020","01","20","10:00","-24.0","","","M","","M","0.0","","16","","9","","","","100.27","","","","-31","","NA"
"-96.06","50.18","PINAWA","503B1ER","2020-01-20 11:00","2020","01","20","11:00","-21.3","","","M","","M","0.0","","15","","6","","","","100.25","","","","-27","","NA"
"-96.06","50.18","PINAWA","503B1ER","2020-01-20 12:00","2020","01","20","12:00","-16.6","","","M","","M","0.0","","16","","9","","","","100.07","","","","-23","","NA"
"-96.06","50.18","PINAWA","503B1ER","2020-01-20 13:00","2020","01","20","13:00","-13.3","","","M","","M","0.0","","18","","9","","","","99.91","","","","-19","","NA"
"-96.06","50.18","PINAWA","503B1ER","2020-01-20 14:00","2020","01","20","14:00","-12.5","","","M","","M","0.0","","20","","12","","","","99.89","","","","-19","","NA"
"-96.06","50.18","PINAWA","503B1ER","2020-01-20 15:00","2020","01","20","15:00","-12.6","","","M","","M","0.0","","18","","12","","","","99.76","","","","-19","","NA"
"-96.06","50.18","PINAWA","503B1ER","2020-01-20 16:00","2020","01","20","16:00","-12.6","","","M","","M","0.0","","18","","13","","","","99.70","","","","-19","","NA"
"-96.06","50.18","PINAWA","503B1ER","2020-01-20 17:00","2020","01","20","17:00","-13.3","","","M","","M","0.0","","18","","12","","","","99.60","","","","-20","","NA"
"-96.06","50.18","PINAWA","503B1ER","2020-01-20 18:00","2020","01","20","18:00","-13.7","","","M","","M","0.0","","17","","12","","","","99.46","","","","-20","","NA"
"-96.06","50.18","PINAWA","503B1ER","2020-01-20 19:00","2020","01","20","19:00","-14.3","","","M","","M","0.0","","17","","12","","","","99.34","","","","-21","","NA"
"-96.06","50.18","PINAWA","503B1ER","2020-01-20 20:00","2020","01","20","20:00","-14.8","","","M","","M","0.0","","17","","9","","","","99.26","","","","-21","","NA"
"-96.06","50.18","PINAWA","503B1ER","2020-01-20 21:00","2020","01","20","21:00","-14.4","","","M","","M","0.0","","17","","12","","","","99.13","","","","-21","","NA"
"-96.06","50.18","PINAWA","503B1ER","2020-01-20 22:00","2020","01","20","22:00","-14.9","","","M","","M","0.0","","17","","13","","","","98.98","","","","-22","","NA"
"-96.06","50.18","PINAWA","503B1ER","2020-01-20 23:00","2020","01","20","23:00","-14.4","","","M","","M","0.0","","16","","10","","","","98.87","","","","-21","","NA"
"-96.06","50.18","PINAWA","503B1ER","2020-01-21 00:00","2020","01","21","00:00","-13.4","","","M","","M","0.0","","18","","10","","","","98.79","","","","-19","","NA"
"-96.06","50.18","PINAWA","503B1ER","2020-01-21 01:00","2020","01","21","01:00","-13.3","","","M","","M","0.0","","17","","11","","","","98.68","","","","-20","","NA"
"-96.06","50.18","PINAWA","503B1ER","2020-01-21 02:00","2020","01","21","02:00","-13.2","","","M","","M","0.0","","17","","13","","","","98.53","","","","-20","","NA"
"-96.06","50.18","PINAWA","503B1ER","2020-01-21 03:00","2020","01","21","03:00","-13.1","","","M","","M","0.0","","17","","11","","","","98.46","","","","-19","","NA"
"-96.06","50.18","PINAWA","503B1ER","2020-01-21 04:00","2020","01","21","04:00","-12.4","","","M","","M","0.0","","17","","12","","","","98.32","","","","-19","","NA"
"-96.06","50.18","PINAWA","503B1ER","2020-01-21 05:00","2020","01","21","05:00","-11.9","","","M","","M","0.0","","17","","11","","","","98.21","","","","-18","","NA"
"-96.06","50.18","PINAWA","503B1ER","2020-01-21 06:00","2020","01","21","06:00","-11.4","","","M","","M","0.0","","17","","11","","","","98.08","","","","-17","","NA"
"-96.06","50.18","PINAWA","503B1ER","2020-01-21 07:00","2020","01","21","07:00","-11.7","","","M","","M","0.0","","16","","12","","","","97.97","","","","-18","","NA"
"-96.06","50.18","PINAWA","503B1ER","2020-01-21 08:00","2020","01","21","08:00","-11.5","","","M","","M","0.0","","17","","13","","","","97.87","","","","-18","","NA"
"-96.06","50.18","PINAWA","503B1ER","2020-01-21 09:00","2020","01","21","09:00","-11.6","","","M","","M","0.0","","16","","14","","","","97.73","","","","-18","","NA"
"-96.06","50.18","PINAWA","503B1ER","2020-01-21 10:00","2020","01","21","10:00","-10.1","","","M","","M","0.0","","17","","13","","","","97.63","","","","-16","","NA"
"-96.06","50.18","PINAWA","503B1ER","2020-01-21 11:00","2020","01","21","11:00","-7.3","","","M","","M","0.0","","18","","11","","","","97.58","","","","-12","","NA"
"-96.06","50.18","PINAWA","503B1ER","2020-01-21 12:00","2020","01","21","12:00","-6.4","","","M","","M","0.0","","17","","14","","","","97.45","","","","-12","","NA"
"-96.06","50.18","PINAWA","503B1ER","2020-01-21 13:00","2020","01","21","13:00","-5.3","","","M","","M","0.0","","19","","8","","","","97.37","","","","-9","","NA"
"-96.06","50.18","PINAWA","503B1ER","2020-01-21 14:00","2020","01","21","14:00","-5.4","","","M","","M","0.0","","17","","13","","","","97.22","","","","-11","","NA"
"-96.06","50.18","PINAWA","503B1ER","2020-01-21 15:00","2020","01","21","15:00","-5.6","","","M","","M","0.0","","22","","8","","","","97.25","","","","-9","","NA"
"-96.06","50.18","PINAWA","503B1ER","2020-01-21 16:00","2020","01","21","16:00","-6.6","","","M","","M","0.0","","19","","10","","","","97.16","","","","-11","","NA"
"-96.06","50.18","PINAWA","503B1ER","2020-01-21 17:00","2020","01","21","17:00","-6.9","","","M","","M","0.0","","18","","10","","","","97.12","","","","-12","","NA"
"-96.06","50.18","PINAWA","503B1ER","2020-01-21 18:00","2020","01","21","18:00","-7.1","","","M","","M","0.0","","19","","7","","","","97.12","","","","-11","","NA"
"-96.06","50.18","PINAWA","503B1ER","2020-01-21 19:00","2020","01","21","19:00","-7.7","","","M","","M","0.0","","19","","6","","","","97.13","","","","-11","","NA"
"-96.06","50.18","PINAWA","503B1ER","2020-01-21 20:00","2020","01","21","20:00","-8.0","","","M","","M","0.0","","18","","5","","","","97.13","","","","-11","","NA"
"-96.06","50.18","PINAWA","503B1ER","2020-01-21 21:00","2020","01","21","21:00","-8.6","","","M","","M","0.0","","19","","4","","","","97.13","","","","-11","","NA"
"-96.06","50.18","PINAWA","503B1ER","2020-01-21 22:00","2020","01","21","22:00","-8.2","","","M","","M","0.0","","17","","5","","","","97.10","","","","-11","","NA"
"-96.06","50.18","PINAWA","503B1ER","2020-01-21 23:00","2020","01","21","23:00","-8.4","","","M","","M","0.0","","17","","7","","","","97.06","","","","-12","","NA"
"-96.06","50.18","PINAWA","503B1ER","2020-01-22 00:00","2020","01","22","00:00","-9.1","","","M","","M","0.0","","16","","5","","","","97.10","","","","-12","","NA"
"-96.06","50.18","PINAWA","503B1ER","2020-01-22 01:00","2020","01","22","01:00","-10.5","","","M","","M","0.0","","17","","5","","","","97.08","","","","-14","","NA"
"-96.06","50.18","PINAWA","503B1ER","2020-01-22 02:00","2020","01","22","02:00","-9.6","","","M","","M","0.0","","17","","4","","","","97.12","","","","-12","","NA"
"-96.06","50.18","PINAWA","503B1ER","2020-01-22 03:00","2020","01","22","03:00","-12.9","","","M","","M","0.0","","17","","4","","","","97.18","","","","-16","","NA"
"-96.06","50.18","PINAWA","503B1ER","2020-01-22 04:00","2020","01","22","04:00","-16.1","","","M","","M","0.0","","18","","3","","","","97.24","","","","-18","","NA"
"-96.06","50.18","PINAWA","503B1ER","2020-01-22 05:00","2020","01","22","05:00","-17.0","","","M","","M","0.0","","20","","3","","","","97.26","","","","-19","","NA"
"-96.06","50.18","PINAWA","503B1ER","2020-01-22 06:00","2020","01","22","06:00","-17.9","","","M","","M","0.0","","0","","1","","","","97.33","","","","-19","","NA"
"-96.06","50.18","PINAWA","503B1ER","2020-01-22 07:00","2020","01","22","07:00","-18.5","","","M","","M","0.0","","0","","1","","","","97.38","","","","-19","","NA"
"-96.06","50.18","PINAWA","503B1ER","2020-01-22 08:00","2020","01","22","08:00","-19.4","","","M","","M","0.0","","","","0","","","","97.45","","","","","","NA"
"-96.06","50.18","PINAWA","503B1ER","2020-01-22 09:00","2020","01","22","09:00","-18.8","","","M","","M","0.0","","","","0","","","","97.56","","","","","","NA"
"-96.06","50.18","PINAWA","503B1ER","2020-01-22 10:00","2020","01","22","10:00","-13.3","","","M","","M","0.0","","0","","1","","","","97.62","","","","-14","","NA"
"-96.06","50.18","PINAWA","503B1ER","2020-01-22 11:00","2020","01","22","11:00","-9.7","","","M","","M","0.0","","","","0","","","","97.70","","","","","","NA"
"-96.06","50.18","PINAWA","503B1ER","2020-01-22 12:00","2020","01","22","12:00","-6.8","","","M","","M","0.0","","","","0","","","","97.76","","","","","","NA"
"-96.06","50.18","PINAWA","503B1ER","2020-01-22 13:00","2020","01","22","13:00","-5.0","","","M","","M","0.0","","35","","4","","","","97.80","","","","-7","","NA"
"-96.06","50.18","PINAWA","503B1ER","2020-01-22 14:00","2020","01","22","14:00","-4.6","","","M","","M","0.0","","36","","5","","","","97.83","","","","-7","","NA"
"-96.06","50.18","PINAWA","503B1ER","2020-01-22 15:00","2020","01","22","15:00","-4.5","","","M","","M","0.0","","36","","7","","","","97.90","","","","-8","","NA"
"-96.06","50.18","PINAWA","503B1ER","2020-01-22 16:00","2020","01","22","16:00","-4.6","","","M","","M","0.0","","34","","6","","","","98.01","","","","-7","","NA"
"-96.06","50.18","PINAWA","503B1ER","2020-01-22 17:00","2020","01","22","17:00","-4.8","","","M","","M","0.0","","1","","5","","","","98.14","","","","-7","","NA"
"-96.06","50.18","PINAWA","503B1ER","2020-01-22 18:00","2020","01","22","18:00","-5.1","","","M","","M","0.0","","35","","10","","","","98.22","","","","-9","","NA"
"-96.06","50.18","PINAWA","503B1ER","2020-01-22 19:00","2020","01","22","19:00","-6.5","","","M","","M","0.0","","33","","9","","","","98.34","","","","-11","","NA"
"-96.06","50.18","PINAWA","503B1ER","2020-01-22 20:00","2020","01","22","20:00","-6.9","","","M","","M","0.0","","34","","7","","","","98.43","","","","-10","","NA"
"-96.06","50.18","PINAWA","503B1ER","2020-01-22 21:00","2020","01","22","21:00","-7.2","","","M","","M","0.0","","34","","6","","","","98.49","","","","-10","","NA"
"-96.06","50.18","PINAWA","503B1ER","2020-01-22 22:00","2020","01","22","22:00","-7.3","","","M","","M","0.0","","35","","6","","","","98.55","","","","-10","","NA"
"-96.06","50.18","PINAWA","503B1ER","2020-01-22 23:00","2020","01","22","23:00","-7.1","","","M","","M","0.0","","36","","7","","","","98.58","","","","-11","","NA"
"-96.06","50.18","PINAWA","503B1ER","2020-01-23 00:00","2020","01","23","00:00","-6.9","","","M","","M","0.0","","2","","3","","","","98.65","","","","-8","","NA"
"-96.06","50.18","PINAWA","503B1ER","2020-01-23 01:00","2020","01","23","01:00","-6.8","","","M","","M","0.0","","35","","4","","","","98.70","","","","-9","","NA"
"-96.06","50.18","PINAWA","503B1ER","2020-01-23 02:00","2020","01","23","02:00","-6.9","","","M","","M","0.0","","35","","5","","","","98.76","","","","-9","","NA"
"-96.06","50.18","PINAWA","503B1ER","2020-01-23 03:00","2020","01","23","03:00","-6.8","","","M","","M","0.0","","36","","5","","","","98.80","","","","-9","","NA"
"-96.06","50.18","PINAWA","503B1ER","2020-01-23 04:00","2020","01","23","04:00","-6.6","","","M","","M","0.0","","36","","4","","","","98.85","","","","-9","","NA"
"-96.06","50.18","PINAWA","503B1ER","2020-01-23 05:00","2020","01","23","05:00","-6.1","","","M","","M","0.0","","3","","6","","","","98.91","","","","-9","","NA"
"-96.06","50.18","PINAWA","503B1ER","2020-01-23 06:00","2020","01","23","06:00","-6.0","","","M","","M","0.0","","3","","4","","","","98.97","","","","-8","","NA"
"-96.06","50.18","PINAWA","503B1ER","2020-01-23 07:00","2020","01","23","07:00","-6.0","","","M","","M","0.0","","3","","4","","","","99.00","","","","-8","","NA"
"-96.06","50.18","PINAWA","503B1ER","2020-01-23 08:00","2020","01","23","08:00","-5.9","","","M","","M","0.0","","8","","5","","","","99.05","","","","-8","","NA"
"-96.06","50.18","PINAWA","503B1ER","2020-01-23 09:00","2020","01","23","09:00","-5.8","","","M","","M","0.0","","9","","6","","","","99.11","","","","-9","","NA"
"-96.06","50.18","PINAWA","503B1ER","2020-01-23 10:00","2020","01","23","10:00","-6.2","","","M","","M","0.0","","12","","7","","","","99.16","","","","-10","","NA"
"-96.06","50.18","PINAWA","503B1ER","2020-01-23 11:00","2020","01","23","11:00","-5.7","","","M","","M","0.0","","11","","8","","","","99.21","","","","-9","","NA"
"-96.06","50.18","PINAWA","503B1ER","2020-01-23 12:00","2020","01","23","12:00","-5.5","","","M","","M","0.0","","10","","9","","","","99.22","","","","-10","","NA"
"-96.06","50.18","PINAWA","503B1ER","2020-01-23 13:00","2020","01","23","13:00","-5.2","","","M","","M","0.0","","9","","6","","","","99.19","","","","-8","","NA"
"-96.06","50.18","PINAWA","503B1ER","2020-01-23 14:00","2020","01","23","14:00","-5.2","","","M","","M","0.0","","9","","7","","","","99.17","","","","-8","","NA"
"-96.06","50.18","PINAWA","503B1ER","2020-01-23 15:00","2020","01","23","15:00","-4.9","","","M","","M","0.0","","4","","4","","","","99.20","","","","-7","","NA"
"-96.06","50.18","PINAWA","503B1ER","2020-01-23 16:00","2020","01","23","16:00","-5.1","","","M","","M","0.0","","10","","7","","","","99.21","","","","-8","","NA"
"-96.06","50.18","PINAWA","503B1ER","2020-01-23 17:00","2020","01","23","17:00","-5.5","","","M","","M","0.0","","11","","7","","","","99.25","","","","-9","","NA"
"-96.06","50.18","PINAWA","503B1ER","2020-01-23 18:00","2020","01","23","18:00","-5.6","","","M","","M","0.0","","10","","7","","","","99.25","","","","-9","","NA"
"-96.06","50.18","PINAWA","503B1ER","2020-01-23 19:00","2020","01","23","19:00","-5.6","","","M","","M","0.0","","10","","6","","","","99.26","","","","-8","","NA"
"-96.06","50.18","PINAWA","503B1ER","2020-01-23 20:00","2020","01","23","20:00","-5.8","","","M","","M","0.0","","11","","6","","","","99.23","","","","-9","","NA"
"-96.06","50.18","PINAWA","503B1ER","2020-01-23 21:00","2020","01","23","21:00","-6.0","","","M","","M","0.0","","12","","3","","","","99.22","","","","-7","","NA"
"-96.06","50.18","PINAWA","503B1ER","2020-01-23 22:00","2020","01","23","22:00","-6.2","","","M","","M","0.0","","12","","6","","","","99.20","","","","-9","","NA"
"-96.06","50.18","PINAWA","503B1ER","2020-01-23 23:00","2020","01","23","23:00","-6.2","","","M","","M","0.0","","15","","3","","","","99.19","","","","-8","","NA"
"-96.06","50.18","PINAWA","503B1ER","2020-01-24 00:00","2020","01","24","00:00","-6.3","","","M","","M","0.0","","16","","5","","","","99.18","","","","-9","","NA"
"-96.06","50.18","PINAWA","503B1ER","2020-01-24 01:00","2020","01","24","01:00","-6.4","","","M","","M","0.0","","18","","4","","","","99.14","","","","-8","","NA"
"-96.06","50.18","PINAWA","503B1ER","2020-01-24 02:00","2020","01","24","02:00","-6.6","","","M","","M","0.0","","16","","5","","","","99.12","","","","-9","","NA"
"-96.06","50.18","PINAWA","503B1ER","2020-01-24 03:00","2020","01","24","03:00","-6.7","","","M","","M","0.0","","14","","6","","","","99.09","","","","-10","","NA"
"-96.06","50.18","PINAWA","503B1ER","2020-01-24 04:00","2020","01","24","04:00","-7.0","","","M","","M","0.0","","22","","4","","","","99.07","","","","-9","","NA"
"-96.06","50.18","PINAWA","503B1ER","2020-01-24 05:00","2020","01","24","05:00","-7.1","","","M","","M","0.0","","16","","5","","","","99.06","","","","-10","","NA"
"-96.06","50.18","PINAWA","503B1ER","2020-01-24 06:00","2020","01","24","06:00","-7.2","","","M","","M","0.0","","21","","3","","","","99.05","","","","-9","","NA"
"-96.06","50.18","PINAWA","503B1ER","2020-01-24 07:00","2020","01","24","07:00","-7.4","","","M","","M","0.0","","20","","2","","","","99.03","","","","-8","","NA"
"-96.06","50.18","PINAWA","503B1ER","2020-01-24 08:00","2020","01","24","08:00","-7.4","","","M","","M","0.0","","19","","5","","","","99.00","","","","-10","","NA"
"-96.06","50.18","PINAWA","503B1ER","2020-01-24 09:00","2020","01","24","09:00","-7.3","","","M","","M","0.0","","15","","4","","","","99.01","","","","-9","","NA"
"-96.06","50.18","PINAWA","503B1ER","2020-01-24 10:00","2020","01","24","10:00","-7.4","","","M","","M","0.0","","16","","3","","","","99.01","","","","-9","","NA"
"-96.06","50.18","PINAWA","503B1ER","2020-01-24 11:00","2020","01","24","11:00","-7.6","","","M","","M","0.0","","16","","7","","","","98.97","","","","-11","","NA"
"-96.06","50.18","PINAWA","503B1ER","2020-01-24 12:00","2020","01","24","12:00","-7.5","","","M","","M","0.0","","14","","5","","","","98.94","","","","-10","","NA"
"-96.06","50.18","PINAWA","503B1ER","2020-01-24 13:00","2020","01","24","13:00","-7.5","","","M","","M","0.0","","15","","4","","","","98.85","","","","-10","","NA"
"-96.06","50.18","PINAWA","503B1ER","2020-01-24 14:00","2020","01","24","14:00","-7.6","","","M","","M","0.0","","16","","8","","","","98.78","","","","-12","","NA"
"-96.06","50.18","PINAWA","503B1ER","2020-01-24 15:00","2020","01","24","15:00","-7.6","","","M","","M","0.0","","20","","4","","","","98.77","","","","-10","","NA"
"-96.06","50.18","PINAWA","503B1ER","2020-01-24 16:00","2020","01","24","16:00","-7.5","","","M","","M","0.0","","12","","4","","","","98.76","","","","-10","","NA"
"-96.06","50.18","PINAWA","503B1ER","2020-01-24 17:00","2020","01","24","17:00","-7.7","","","M","","M","0.0","","13","","7","","","","98.75","","","","-11","","NA"
"-96.06","50.18","PINAWA","503B1ER","2020-01-24 18:00","2020","01","24","18:00","-7.7","","","M","","M","0.0","","13","","6","","","","98.71","","","","-11","","NA"
"-96.06","50.18","PINAWA","503B1ER","2020-01-24 19:00","2020","01","24","19:00","-7.5","","","M","","M","0.0","","16","","3","","","","98.75","","","","-9","","NA"
"-96.06","50.18","PINAWA","503B1ER","2020-01-24 20:00","2020","01","24","20:00","-7.6","","","M","","M","0.0","","14","","6","","","","98.68","","","","-11","","NA"
"-96.06","50.18","PINAWA","503B1ER","2020-01-24 21:00","2020","01","24","21:00","-7.6","","","M","","M","0.0","","16","","7","","","","98.67","","","","-11","","NA"
"-96.06","50.18","PINAWA","503B1ER","2020-01-24 22:00","2020","01","24","22:00","-7.7","","","M","","M","0.0","","17","","7","","","","98.63","","","","-11","","NA"
"-96.06","50.18","PINAWA","503B1ER","2020-01-24 23:00","2020","01","24","23:00","-7.8","","","M","","M","0.0","","17","","7","","","","98.59","","","","-11","","NA"
"-96.06","50.18","PINAWA","503B1ER","2020-01-25 00:00","2020","01","25","00:00","-7.6","","","M","","M","0.0","","17","","7","","","","98.58","","","","-11","","NA"
"-96.06","50.18","PINAWA","503B1ER","2020-01-25 01:00","2020","01","25","01:00","-7.6","","","M","","M","0.0","","18","","5","","","","98.56","","","","-10","","NA"
"-96.06","50.18","PINAWA","503B1ER","2020-01-25 02:00","2020","01","25","02:00","-7.5","","","M","","M","0.0","","17","","4","","","","98.50","","","","-10","","NA"
"-96.06","50.18","PINAWA","503B1ER","2020-01-25 03:00","2020","01","25","03:00","-7.7","","","M","","M","0.0","","20","","5","","","","98.50","","","","-10","","NA"
"-96.06","50.18","PINAWA","503B1ER","2020-01-25 04:00","2020","01","25","04:00","-8.1","","","M","","M","0.0","","18","","6","","","","98.45","","","","-11","","NA"
"-96.06","50.18","PINAWA","503B1ER","2020-01-25 05:00","2020","01","25","05:00","-8.0","","","M","","M","0.0","","17","","6","","","","98.42","","","","-11","","NA"
"-96.06","50.18","PINAWA","503B1ER","2020-01-25 06:00","2020","01","25","06:00","-7.8","","","M","","M","0.0","","16","","7","","","","98.40","","","","-11","","NA"
"-96.06","50.18","PINAWA","503B1ER","2020-01-25 07:00","2020","01","25","07:00","-7.7","","","M","","M","0.0","","13","","4","","","","98.38","","","","-10","","NA"
"-96.06","50.18","PINAWA","503B1ER","2020-01-25 08:00","2020","01","25","08:00","-7.5","","","M","","M","0.0","","15","","4","","","","98.37","","","","-10","","NA"
"-96.06","50.18","PINAWA","503B1ER","2020-01-25 09:00","2020","01","25","09:00","-7.1","","","M","","M","0.0","","16","","7","","","","98.35","","","","-11","","NA"
"-96.06","50.18","PINAWA","503B1ER","2020-01-25 10:00","2020","01","25","10:00","-6.6","","","M","","M","0.0","","17","","8","","","","98.34","","","","-10","","NA"
"-96.06","50.18","PINAWA","503B1ER","2020-01-25 11:00","2020","01","25","11:00","-6.3","","","M","","M","0.0","","17","","10","","","","98.33","","","","-11","","NA"
"-96.06","50.18","PINAWA","503B1ER","2020-01-25 12:00","2020","01","25","12:00","-5.9","","","M","","M","0.0","","17","","6","","","","98.29","","","","-9","","NA"
"-96.06","50.18","PINAWA","503B1ER","2020-01-25 13:00","2020","01","25","13:00","-5.6","","","M","","M","0.0","","17","","7","","","","98.23","","","","-9","","NA"
"-96.06","50.18","PINAWA","503B1ER","2020-01-25 14:00","2020","01","25","14:00","-5.5","","","M","","M","0.0","","16","","7","","","","98.17","","","","-9","","NA"
"-96.06","50.18","PINAWA","503B1ER","2020-01-25 15:00","2020","01","25","15:00","-5.1","","","M","","M","0.0","","16","","8","","","","98.18","","","","-9","","NA"
"-96.06","50.18","PINAWA","503B1ER","2020-01-25 16:00","2020","01","25","16:00","-5.0","","","M","","M","0.0","","16","","5","","","","98.16","","","","-7","","NA"
"-96.06","50.18","PINAWA","503B1ER","2020-01-25 17:00","2020","01","25","17:00","-5.1","","","M","","M","0.0","","14","","5","","","","98.14","","","","-7","","NA"
"-96.06","50.18","PINAWA","503B1ER","2020-01-25 18:00","2020","01","25","18:00","-5.1","","","M","","M","0.0","","15","","6","","","","98.15","","","","-8","","NA"
"-96.06","50.18","PINAWA","503B1ER","2020-01-25 19:00","2020","01","25","19:00","-5.2","","","M","","M","0.0","","16","","6","","","","98.16","","","","-8","","NA"
"-96.06","50.18","PINAWA","503B1ER","2020-01-25 20:00","2020","01","25","20:00","-5.3","","","M","","M","0.0","","13","","7","","","","98.13","","","","-9","","NA"
"-96.06","50.18","PINAWA","503B1ER","2020-01-25 21:00","2020","01","25","21:00","-5.4","","","M","","M","0.0","","13","","6","","","","98.14","","","","-8","","NA"
"-96.06","50.18","PINAWA","503B1ER","2020-01-25 22:00","2020","01","25","22:00","-5.6","","","M","","M","0.0","","15","","7","","","","98.11","","","","-9","","NA"
"-96.06","50.18","PINAWA","503B1ER","2020-01-25 23:00","2020","01","25","23:00","-5.8","","","M","","M","0.0","","15","","5","","","","98.14","","","","-8","","NA"
"-96.06","50.18","PINAWA","503B1ER","2020-01-26 00:00","2020","01","26","00:00","-5.9","","","M","","M","0.0","","17","","6","","","","98.15","","","","-9","","NA"
"-96.06","50.18","PINAWA","503B1ER","2020-01-26 01:00","2020","01","26","01:00","-6.0","","","M","","M","0.0","","18","","2","","","","98.16","","","","-7","","NA"
"-96.06","50.18","PINAWA","503B1ER","2020-01-26 02:00","2020","01","26","02:00","-6.1","","","M","","M","0.0","","0","","1","","","","98.17","","","","-7","","NA"
"-96.06","50.18","PINAWA","503B1ER","2020-01-26 03:00","2020","01","26","03:00","-6.2","","","M","","M","0.0","","9","","4","","","","98.19","","","","-8","","NA"
"-96.06","50.18","PINAWA","503B1ER","2020-01-26 04:00","2020","01","26","04:00","-6.5","","","M","","M","0.0","","8","","5","","","","98.20","","","","-9","","NA"
"-96.06","50.18","PINAWA","503B1ER","2020-01-26 05:00","2020","01","26","05:00","-6.7","","","M","","M","0.0","","5","","6","","","","98.19","","","","-10","","NA"
"-96.06","50.18","PINAWA","503B1ER","2020-01-26 06:00","2020","01","26","06:00","-6.9","","","M","","M","0.0","","7","","5","","","","98.20","","","","-9","","NA"
"-96.06","50.18","PINAWA","503B1ER","2020-01-26 07:00","2020","01","26","07:00","-7.1","","","M","","M","0.0","","6","","1","","","","98.22","","","","-8","","NA"
"-96.06","50.18","PINAWA","503B1ER","2020-01-26 08:00","2020","01","26","08:00","-7.3","","","M","","M","0.0","","6","","3","","","","98.27","","","","-9","","NA"
"-96.06","50.18","PINAWA","503B1ER","2020-01-26 09:00","2020","01","26","09:00","-7.7","","","M","","M","0.0","","36","","4","","","","98.30","","","","-10","","NA"
"-96.06","50.18","PINAWA","503B1ER","2020-01-26 10:00","2020","01","26","10:00","-8.1","","","M","","M","0.0","","36","","6","","","","98.34","","","","-11","","NA"
"-96.06","50.18","PINAWA","503B1ER","2020-01-26 11:00","2020","01","26","11:00","-8.6","","","M","","M","0.0","","1","","7","","","","98.39","","","","-12","","NA"
"-96.06","50.18","PINAWA","503B1ER","2020-01-26 12:00","2020","01","26","12:00","-8.5","","","M","","M","0.0","","2","","7","","","","98.41","","","","-12","","NA"
"-96.06","50.18","PINAWA","503B1ER","2020-01-26 13:00","2020","01","26","13:00","-8.7","","","M","","M","0.0","","36","","7","","","","98.39","","","","-13","","NA"
"-96.06","50.18","PINAWA","503B1ER","2020-01-26 14:00","2020","01","26","14:00","-8.9","","","M","","M","0.0","","36","","9","","","","98.37","","","","-14","","NA"
"-96.06","50.18","PINAWA","503B1ER","2020-01-26 15:00","2020","01","26","15:00","-8.9","","","M","","M","0.0","","35","","9","","","","98.41","","","","-14","","NA"
"-96.06","50.18","PINAWA","503B1ER","2020-01-26 16:00","2020","01","26","16:00","-8.8","","","M","","M","0.0","","1","","6","","","","98.43","","","","-12","","NA"
"-96.06","50.18","PINAWA","503B1ER","2020-01-26 17:00","2020","01","26","17:00","-9.0","","","M","","M","0.0","","2","","7","","","","98.47","","","","-13","","NA"
"-96.06","50.18","PINAWA","503B1ER","2020-01-26 18:00","2020","01","26","18:00","-9.3","","","M","","M","0.0","","4","","8","","","","98.53","","","","-14","","NA"
"-96.06","50.18","PINAWA","503B1ER","2020-01-26 19:00","2020","01","26","19:00","-9.5","","","M","","M","0.0","","3","","7","","","","98.57","","","","-13","","NA"
"-96.06","50.18","PINAWA","503B1ER","2020-01-26 20:00","2020","01","26","20:00","-9.9","","","M","","M","0.0","","2","","8","","","","98.60","","","","-14","","NA"
"-96.06","50.18","PINAWA","503B1ER","2020-01-26 21:00","2020","01","26","21:00","-10.0","","","M","","M","0.0","","1","","5","","","","98.62","","","","-13","","NA"
"-96.06","50.18","PINAWA","503B1ER","2020-01-26 22:00","2020","01","26","22:00","-10.0","","","M","","M","0.0","","1","","3","","","","98.63","","","","-12","","NA"
"-96.06","50.18","PINAWA","503B1ER","2020-01-26 23:00","2020","01","26","23:00","-9.9","","","M","","M","0.0","","35","","5","","","","98.64","","","","-13","","NA"
"-96.06","50.18","PINAWA","503B1ER","2020-01-27 00:00","2020","01","27","00:00","-9.9","","","M","","M","0.0","","34","","5","","","","98.66","","","","-13","","NA"
"-96.06","50.18","PINAWA","503B1ER","2020-01-27 01:00","2020","01","27","01:00","-10.1","","","M","","M","0.0","","1","","5","","","","98.65","","","","-13","","NA"
"-96.06","50.18","PINAWA","503B1ER","2020-01-27 02:00","2020","01","27","02:00","-10.4","","","M","","M","0.0","","1","","3","","","","98.67","","","","-12","","NA"
"-96.06","50.18","PINAWA","503B1ER","2020-01-27 03:00","2020","01","27","03:00","-10.4","","","M","","M","0.0","","3","","6","","","","98.69","","","","-14","","NA"
"-96.06","50.18","PINAWA","503B1ER","2020-01-27 04:00","2020","01","27","04:00","-10.3","","","M","","M","0.0","","4","","5","","","","98.69","","","","-13","","NA"
"-96.06","50.18","PINAWA","503B1ER","2020-01-27 05:00","2020","01","27","05:00","-10.1","","","M","","M","0.0","","1","","5","","","","98.71","","","","-13","","NA"
"-96.06","50.18","PINAWA","503B1ER","2020-01-27 06:00","2020","01","27","06:00","-9.9","","","M","","M","0.0","","34","","6","","","","98.75","","","","-13","","NA"
"-96.06","50.18","PINAWA","503B1ER","2020-01-27 07:00","2020","01","27","07:00","-9.8","","","M","","M","0.0","","34","","4","","","","98.76","","","","-12","","NA"
"-96.06","50.18","PINAWA","503B1ER","2020-01-27 08:00","2020","01","27","08:00","-9.7","","","M","","M","0.0","","32","","6","","","","98.78","","","","-13","","NA"
"-96.06","50.18","PINAWA","503B1ER","2020-01-27 09:00","2020","01","27","09:00","-9.6","","","M","","M","0.0","","32","","3","","","","98.80","","","","-11","","NA"
"-96.06","50.18","PINAWA","503B1ER","2020-01-27 10:00","2020","01","27","10:00","-9.3","","","M","","M","0.0","","34","","4","","","","98.79","","","","-12","","NA"
"-96.06","50.18","PINAWA","503B1ER","2020-01-27 11:00","2020","01","27","11:00","-9.1","","","M","","M","0.0","","31","","4","","","","98.79","","","","-11","","NA"
"-96.06","50.18","PINAWA","503B1ER","2020-01-27 12:00","2020","01","27","12:00","-8.6","","","M","","M","0.0","","33","","7","","","","98.78","","","","-12","","NA"
"-96.06","50.18","PINAWA","503B1ER","2020-01-27 13:00","2020","01","27","13:00","-8.4","","","M","","M","0.0","","33","","3","","","","98.75","","","","-10","","NA"
"-96.06","50.18","PINAWA","503B1ER","2020-01-27 14:00","2020","01","27","14:00","-8.3","","","M","","M","0.0","","33","","5","","","","98.74","","","","-11","","NA"
"-96.06","50.18","PINAWA","503B1ER","2020-01-27 15:00","2020","01","27","15:00","-8.1","","","M","","M","0.0","","31","","7","","","","98.76","","","","-12","","NA"
"-96.06","50.18","PINAWA","503B1ER","2020-01-27 16:00","2020","01","27","16:00","-8.3","","","M","","M","0.0","","32","","7","","","","98.80","","","","-12","","NA"
"-96.06","50.18","PINAWA","503B1ER","2020-01-27 17:00","2020","01","27","17:00","-8.6","","","M","","M","0.0","","32","","8","","","","98.83","","","","-13","","NA"
"-96.06","50.18","PINAWA","503B1ER","2020-01-27 18:00","2020","01","27","18:00","-8.8","","","M","","M","0.0","","31","","7","","","","98.86","","","","-13","","NA"
"-96.06","50.18","PINAWA","503B1ER","2020-01-27 19:00","2020","01","27","19:00","-9.1","","","M","","M","0.0","","2","","3","","","","98.83","","","","-11","","NA"
"-96.06","50.18","PINAWA","503B1ER","2020-01-27 20:00","2020","01","27","20:00","-9.4","","","M","","M","0.0","","36","","5","","","","98.88","","","","-12","","NA"
"-96.06","50.18","PINAWA","503B1ER","2020-01-27 21:00","2020","01","27","21:00","-9.5","","","M","","M","0.0","","31","","3","","","","98.87","","","","-11","","NA"
"-96.06","50.18","PINAWA","503B1ER","2020-01-27 22:00","2020","01","27","22:00","-9.8","","","M","","M","0.0","","31","","2","","","","98.88","","","","-11","","NA"
"-96.06","50.18","PINAWA","503B1ER","2020-01-27 23:00","2020","01","27","23:00","-10.0","","","M","","M","0.0","","33","","1","","","","98.87","","","","-11","","NA"
"-96.06","50.18","PINAWA","503B1ER","2020-01-28 00:00","2020","01","28","00:00","-10.3","","","M","","M","0.0","","7","","3","","","","98.89","","","","-12","","NA"
"-96.06","50.18","PINAWA","503B1ER","2020-01-28 01:00","2020","01","28","01:00","-10.7","","","M","","M","0.0","","34","","3","","","","98.92","","","","-13","","NA"
"-96.06","50.18","PINAWA","503B1ER","2020-01-28 02:00","2020","01","28","02:00","-10.8","","","M","","M","0.0","","17","","1","","","","98.93","","","","-11","","NA"
"-96.06","50.18","PINAWA","503B1ER","2020-01-28 03:00","2020","01","28","03:00","-10.8","","","M","","M","0.0","","4","","1","","","","98.93","","","","-11","","NA"
"-96.06","50.18","PINAWA","503B1ER","2020-01-28 04:00","2020","01","28","04:00","-10.8","","","M","","M","0.0","","","","0","","","","98.91","","","","","","NA"
"-96.06","50.18","PINAWA","503B1ER","2020-01-28 05:00","2020","01","28","05:00","-10.8","","","M","","M","0.0","","16","","2","","","","98.92","","","","-12","","NA"
"-96.06","50.18","PINAWA","503B1ER","2020-01-28 06:00","2020","01","28","06:00","-10.9","","","M","","M","0.0","","","","0","","","","98.92","","","","","","NA"
"-96.06","50.18","PINAWA","503B1ER","2020-01-28 07:00","2020","01","28","07:00","-10.9","","","M","","M","0.0","","21","","1","","","","98.95","","","","-12","","NA"
"-96.06","50.18","PINAWA","503B1ER","2020-01-28 08:00","2020","01","28","08:00","-11.2","","","M","","M","0.0","","17","","4","","","","98.98","","","","-14","","NA"
"-96.06","50.18","PINAWA","503B1ER","2020-01-28 09:00","2020","01","28","09:00","-11.1","","","M","","M","0.0","","12","","5","","","","98.98","","","","-14","","NA"
"-96.06","50.18","PINAWA","503B1ER","2020-01-28 10:00","2020","01","28","10:00","-10.8","","","M","","M","0.0","","13","","4","","","","98.96","","","","-13","","NA"
"-96.06","50.18","PINAWA","503B1ER","2020-01-28 11:00","2020","01","28","11:00","-10.4","","","M","","M","0.0","","14","","5","","","","98.97","","","","-13","","NA"
"-96.06","50.18","PINAWA","503B1ER","2020-01-28 12:00","2020","01","28","12:00","-10.1","","","M","","M","0.0","","18","","3","","","","98.93","","","","-12","","NA"
"-96.06","50.18","PINAWA","503B1ER","2020-01-28 13:00","2020","01","28","13:00","-10.0","","","M","","M","0.0","","13","","5","","","","98.89","","","","-13","","NA"
"-96.06","50.18","PINAWA","503B1ER","2020-01-28 14:00","2020","01","28","14:00","-9.7","","","M","","M","0.0","","19","","4","","","","98.87","","","","-12","","NA"
"-96.06","50.18","PINAWA","503B1ER","2020-01-28 15:00","2020","01","28","15:00","-9.5","","","M","","M","0.0","","16","","4","","","","98.87","","","","-12","","NA"
"-96.06","50.18","PINAWA","503B1ER","2020-01-28 16:00","2020","01","28","16:00","-9.5","","","M","","M","0.0","","16","","4","","","","98.90","","","","-12","","NA"
"-96.06","50.18","PINAWA","503B1ER","2020-01-28 17:00","2020","01","28","17:00","-9.6","","","M","","M","0.0","","13","","5","","","","98.92","","","","-12","","NA"
"-96.06","50.18","PINAWA","503B1ER","2020-01-28 18:00","2020","01","28","18:00","-9.7","","","M","","M","0.0","","13","","4","","","","98.93","","","","-12","","NA"
"-96.06","50.18","PINAWA","503B1ER","2020-01-28 19:00","2020","01","28","19:00","-9.7","","","M","","M","0.0","","14","","4","","","","98.97","","","","-12","","NA"
"-96.06","50.18","PINAWA","503B1ER","2020-01-28 20:00","2020","01","28","20:00","-9.6","","","M","","M","0.0","","13","","6","","","","98.95","","","","-13","","NA"
"-96.06","50.18","PINAWA","503B1ER","2020-01-28 21:00","2020","01","28","21:00","-9.8","","","M","","M","0.0","","12","","7","","","","98.93","","","","-14","","NA"
"-96.06","50.18","PINAWA","503B1ER","2020-01-28 22:00","2020","01","28","22:00","-10.0","","","M","","M","0.0","","12","","9","","","","98.95","","","","-15","","NA"
"-96.06","50.18","PINAWA","503B1ER","2020-01-28 23:00","2020","01","28","23:00","-10.1","","","M","","M","0.0","","14","","6","","","","98.99","","","","-14","","NA"
"-96.06","50.18","PINAWA","503B1ER","2020-01-29 00:00","2020","01","29","00:00","-10.5","","","M","","M","0.0","","14","","6","","","","99.03","","","","-14","","NA"
"-96.06","50.18","PINAWA","503B1ER","2020-01-29 01:00","2020","01","29","01:00","-10.5","","","M","","M","0.0","","17","","6","","","","99.06","","","","-14","","NA"
"-96.06","50.18","PINAWA","503B1ER","2020-01-29 02:00","2020","01","29","02:00","-10.7","","","M","","M","0.0","","10","","3","","","","99.03","","","","-13","","NA"
"-96.06","50.18","PINAWA","503B1ER","2020-01-29 03:00","2020","01","29","03:00","-11.0","","","M","","M","0.0","","10","","5","","","","99.00","","","","-14","","NA"
"-96.06","50.18","PINAWA","503B1ER","2020-01-29 04:00","2020","01","29","04:00","-11.2","","","M","","M","0.0","","11","","3","","","","99.02","","","","-13","","NA"
"-96.06","50.18","PINAWA","503B1ER","2020-01-29 05:00","2020","01","29","05:00","-11.0","","","M","","M","0.0","","12","","5","","","","99.00","","","","-14","","NA"
"-96.06","50.18","PINAWA","503B1ER","2020-01-29 06:00","2020","01","29","06:00","-10.6","","","M","","M","0.0","","11","","6","","","","98.99","","","","-14","","NA"
"-96.06","50.18","PINAWA","503B1ER","2020-01-29 07:00","2020","01","29","07:00","-14.0","","","M","","M","0.0","","11","","3","","","","99.01","","","","-16","","NA"
"-96.06","50.18","PINAWA","503B1ER","2020-01-29 08:00","2020","01","29","08:00","-15.7","","","M","","M","0.0","","11","","2","","","","99.03","","","","-17","","NA"
"-96.06","50.18","PINAWA","503B1ER","2020-01-29 09:00","2020","01","29","09:00","-15.2","","","M","","M","0.0","","14","","2","","","","99.03","","","","-17","","NA"
"-96.06","50.18","PINAWA","503B1ER","2020-01-29 10:00","2020","01","29","10:00","-10.2","","","M","","M","0.0","","14","","8","","","","99.03","","","","-15","","NA"
"-96.06","50.18","PINAWA","503B1ER","2020-01-29 11:00","2020","01","29","11:00","-8.9","","","M","","M","0.0","","16","","8","","","","99.03","","","","-13","","NA"
"-96.06","50.18","PINAWA","503B1ER","2020-01-29 12:00","2020","01","29","12:00","-7.6","","","M","","M","0.0","","17","","8","","","","98.98","","","","-12","","NA"
"-96.06","50.18","PINAWA","503B1ER","2020-01-29 13:00","2020","01","29","13:00","-7.7","","","M","","M","0.0","","20","","6","","","","98.93","","","","-11","","NA"
"-96.06","50.18","PINAWA","503B1ER","2020-01-29 14:00","2020","01","29","14:00","-6.9","","","M","","M","0.0","","20","","6","","","","98.87","","","","-10","","NA"
"-96.06","50.18","PINAWA","503B1ER","2020-01-29 15:00","2020","01","29","15:00","-5.9","","","M","","M","0.0","","19","","6","","","","98.82","","","","-9","","NA"
"-96.06","50.18","PINAWA","503B1ER","2020-01-29 16:00","2020","01","29","16:00","-6.1","","","M","","M","0.0","","16","","6","","","","98.80","","","","-9","","NA"
"-96.06","50.18","PINAWA","503B1ER","2020-01-29 17:00","2020","01","29","17:00","-7.4","","","M","","M","0.0","","20","","4","","","","98.85","","","","-9","","NA"
"-96.06","50.18","PINAWA","503B1ER","2020-01-29 18:00","2020","01","29","18:00","-11.3","","","M","","M","0.0","","","","0","","","","98.88","","","","","","NA"
"-96.06","50.18","PINAWA","503B1ER","2020-01-29 19:00","2020","01","29","19:00","-14.4","","","M","","M","0.0","","","","0","","","","98.85","","","","","","NA"
"-96.06","50.18","PINAWA","503B1ER","2020-01-29 20:00","2020","01","29","20:00","-15.9","","","M","","M","0.0","","","","0","","","","98.83","","","","","","NA"
"-96.06","50.18","PINAWA","503B1ER","2020-01-29 21:00","2020","01","29","21:00","-16.8","","","M","","M","0.0","","","","0","","","","98.81","","","","","","NA"
"-96.06","50.18","PINAWA","503B1ER","2020-01-29 22:00","2020","01","29","22:00","-18.4","","","M","","M","0.0","","","","0","","","","98.74","","","","","","NA"
"-96.06","50.18","PINAWA","503B1ER","2020-01-29 23:00","2020","01","29","23:00","-18.7","","","M","","M","0.0","","","","0","","","","98.74","","","","","","NA"
"-96.06","50.18","PINAWA","503B1ER","2020-01-30 00:00","2020","01","30","00:00","-20.2","","","M","","M","0.0","","17","","2","","","","98.71","","","","-22","","NA"
"-96.06","50.18","PINAWA","503B1ER","2020-01-30 01:00","2020","01","30","01:00","-20.1","","","M","","M","0.0","","","","0","","","","98.70","","","","","","NA"
"-96.06","50.18","PINAWA","503B1ER","2020-01-30 02:00","2020","01","30","02:00","-20.7","","","M","","M","0.0","","0","","1","","","","98.66","","","","-22","","NA"
"-96.06","50.18","PINAWA","503B1ER","2020-01-30 03:00","2020","01","30","03:00","-20.5","","","M","","M","0.0","","","","0","","","","98.63","","","","","","NA"
"-96.06","50.18","PINAWA","503B1ER","2020-01-30 04:00","2020","01","30","04:00","-19.4","","","M","","M","0.0","","","","0","","","","98.57","","","","","","NA"
"-96.06","50.18","PINAWA","503B1ER","2020-01-30 05:00","2020","01","30","05:00","-19.6","","","M","","M","0.0","","30","","2","","","","98.56","","","","-21","","NA"
"-96.06","50.18","PINAWA","503B1ER","2020-01-30 06:00","2020","01","30","06:00","-16.8","","","M","","M","0.0","","","","0","","","","98.54","","","","","","NA"
"-96.06","50.18","PINAWA","503B1ER","2020-01-30 07:00","2020","01","30","07:00","-13.9","","","M","","M","0.0","","13","","3","","","","98.50","","","","-16","","NA"
"-96.06","50.18","PINAWA","503B1ER","2020-01-30 08:00","2020","01","30","08:00","-13.0","","","M","","M","0.0","","","","0","","","","98.49","","","","","","NA"
"-96.06","50.18","PINAWA","503B1ER","2020-01-30 09:00","2020","01","30","09:00","-12.1","","","M","","M","0.0","","0","","1","","","","98.49","","","","-13","","NA"
"-96.06","50.18","PINAWA","503B1ER","2020-01-30 10:00","2020","01","30","10:00","-10.2","","","M","","M","0.0","","","","0","","","","98.48","","","","","","NA"
"-96.06","50.18","PINAWA","503B1ER","2020-01-30 11:00","2020","01","30","11:00","-6.9","","","M","","M","0.0","","16","","5","","","","98.48","","","","-9","","NA"
"-96.06","50.18","PINAWA","503B1ER","2020-01-30 12:00","2020","01","30","12:00","-5.6","","","M","","M","0.0","","16","","9","","","","98.45","","","","-10","","NA"
"-96.06","50.18","PINAWA","503B1ER","2020-01-30 13:00","2020","01","30","13:00","-5.1","","","M","","M","0.0","","17","","7","","","","98.41","","","","-8","","NA"
"-96.06","50.18","PINAWA","503B1ER","2020-01-30 14:00","2020","01","30","14:00","-4.7","","","M","","M","0.0","","17","","7","","","","98.38","","","","-8","","NA"
"-96.06","50.18","PINAWA","503B1ER","2020-01-30 15:00","2020","01","30","15:00","-4.2","","","M","","M","0.0","","14","","5","","","","98.37","","","","-6","","NA"
"-96.06","50.18","PINAWA","503B1ER","2020-01-30 16:00","2020","01","30","16:00","-4.0","","","M","","M","0.0","","15","","5","","","","98.38","","","","-6","","NA"
"-96.06","50.18","PINAWA","503B1ER","2020-01-30 17:00","2020","01","30","17:00","-4.1","","","M","","M","0.0","","14","","5","","","","98.38","","","","-6","","NA"
"-96.06","50.18","PINAWA","503B1ER","2020-01-30 18:00","2020","01","30","18:00","-4.2","","","M","","M","0.0","","14","","3","","","","98.40","","","","-5","","NA"
"-96.06","50.18","PINAWA","503B1ER","2020-01-30 19:00","2020","01","30","19:00","-4.2","","","M","","M","0.0","","13","","6","","","","98.40","","","","-7","","NA"
"-96.06","50.18","PINAWA","503B1ER","2020-01-30 20:00","2020","01","30","20:00","-4.3","","","M","","M","0.0","","13","","5","","","","98.41","","","","-6","","NA"
"-96.06","50.18","PINAWA","503B1ER","2020-01-30 21:00","2020","01","30","21:00","-4.0","","","M","","M","0.0","","15","","4","","","","98.41","","","","-6","","NA"
"-96.06","50.18","PINAWA","503B1ER","2020-01-30 22:00","2020","01","30","22:00","-3.9","","","M","","M","0.0","","16","","7","","","","98.40","","","","-7","","NA"
"-96.06","50.18","PINAWA","503B1ER","2020-01-30 23:00","2020","01","30","23:00","-4.0","","","M","","M","0.0","","16","","8","","","","98.35","","","","-7","","NA"
"-96.06","50.18","PINAWA","503B1ER","2020-01-31 00:00","2020","01","31","00:00","-4.0","","","M","","M","0.0","","16","","7","","","","98.32","","","","-7","","NA"
"-96.06","50.18","PINAWA","503B1ER","2020-01-31 01:00","2020","01","31","01:00","-3.9","","","M","","M","0.0","","16","","5","","","","98.29","","","","-6","","NA"
"-96.06","50.18","PINAWA","503B1ER","2020-01-31 02:00","2020","01","31","02:00","-4.0","","","M","","M","0.0","","24","","6","","","","98.27","","","","-7","","NA"
"-96.06","50.18","PINAWA","503B1ER","2020-01-31 03:00","2020","01","31","03:00","-4.3","","","M","","M","0.0","","19","","2","","","","98.24","","","","-5","","NA"
"-96.06","50.18","PINAWA","503B1ER","2020-01-31 04:00","2020","01","31","04:00","-4.5","","","M","","M","0.0","","23","","3","","","","98.28","","","","-6","","NA"
"-96.06","50.18","PINAWA","503B1ER","2020-01-31 05:00","2020","01","31","05:00","-4.7","","","M","","M","0.0","","22","","3","","","","98.28","","","","-6","","NA"
"-96.06","50.18","PINAWA","503B1ER","2020-01-31 06:00","2020","01","31","06:00","-4.8","","","M","","M","0.0","","21","","4","","","","98.22","","","","-7","","NA"
"-96.06","50.18","PINAWA","503B1ER","2020-01-31 07:00","2020","01","31","07:00","-4.8","","","M","","M","0.0","","18","","6","","","","98.19","","","","-8","","NA"
"-96.06","50.18","PINAWA","503B1ER","2020-01-31 08:00","2020","01","31","08:00","-4.8","","","M","","M","0.0","","19","","5","","","","98.21","","","","-7","","NA"
"-96.06","50.18","PINAWA","503B1ER","2020-01-31 09:00","2020","01","31","09:00","-4.8","","","M","","M","0.0","","18","","9","","","","98.03","","","","-9","","NA"
"-96.06","50.18","PINAWA","503B1ER","2020-01-31 10:00","2020","01","31","10:00","-5.1","","","M","","M","0.0","","19","","9","","","","98.04","","","","-9","","NA"
"-96.06","50.18","PINAWA","503B1ER","2020-01-31 11:00","2020","01","31","11:00","-4.9","","","M","","M","0.0","","17","","11","","","","97.91","","","","-9","","NA"
"-96.06","50.18","PINAWA","503B1ER","2020-01-31 12:00","2020","01","31","12:00","-4.6","","","M","","M","0.0","","19","","11","","","","97.85","","","","-9","","NA"
"-96.06","50.18","PINAWA","503B1ER","2020-01-31 13:00","2020","01","31","13:00","-4.6","","","M","","M","0.0","","20","","12","","","","97.79","","","","-9","","NA"
"-96.06","50.18","PINAWA","503B1ER","2020-01-31 14:00","2020","01","31","14:00","-4.7","","","M","","M","0.0","","20","","10","","","","97.74","","","","-9","","NA"
"-96.06","50.18","PINAWA","503B1ER","2020-01-31 15:00","2020","01","31","15:00","-4.2","","","M","","M","0.0","","22","","12","","","","97.65","","","","-9","","NA"
"-96.06","50.18","PINAWA","503B1ER","2020-01-31 16:00","2020","01","31","16:00","-4.1","","","M","","M","0.0","","18","","14","","","","97.40","","","","-9","","NA"
"-96.06","50.18","PINAWA","503B1ER","2020-01-31 17:00","2020","01","31","17:00","-4.2","","","M","","M","0.0","","18","","9","","","","97.32","","","","-8","","NA"
"-96.06","50.18","PINAWA","503B1ER","2020-01-31 18:00","2020","01","31","18:00","-4.4","","","M","","M","0.0","","19","","12","","","","97.29","","","","-9","","NA"
"-96.06","50.18","PINAWA","503B1ER","2020-01-31 19:00","2020","01","31","19:00","-4.6","","","M","","M","0.0","","19","","10","","","","97.26","","","","-9","","NA"
"-96.06","50.18","PINAWA","503B1ER","2020-01-31 20:00","2020","01","31","20:00","-5.0","","","M","","M","0.0","","18","","6","","","","97.24","","","","-8","","NA"
"-96.06","50.18","PINAWA","503B1ER","2020-01-31 21:00","2020","01","31","21:00","-3.4","","","M","","M","0.0","","25","","10","","","","97.19","","","","-7","","NA"
"-96.06","50.18","PINAWA","503B1ER","2020-01-31 22:00","2020","01","31","22:00","-2.7","","","M","","M","0.0","","26","","12","","","","97.18","","","","-7","","NA"
"-96.06","50.18","PINAWA","503B1ER","2020-01-31 23:00","2020","01","31","23:00","-2.7","","","M","","M","0.0","","26","","10","","","","97.17","","","","-7","","NA"
