"Longitude (x)","Latitude (y)","Station Name","Climate ID","Date/Time (LST)","Year","Month","Day","Time (LST)","Temp (°C)","Temp Flag","Dew Point Temp (°C)","Dew Point Temp Flag","Rel Hum (%)","Rel Hum Flag","Precip. Amount (mm)","Precip. Amount Flag","Wind Dir (10s deg)","Wind Dir Flag","Wind Spd (km/h)","Wind Spd Flag","Visibility (km)","Visibility Flag","Stn Press (kPa)","Stn Press Flag","Hmdx","Hmdx Flag","Wind Chill","Wind Chill Flag","Weather"
"-96.06","50.18","PINAWA","503B1ER","2020-02-01 00:00","2020","02","01","00:00","-2.1","","","M","","M","0.0","","27","","14","","","","97.18","","","","-7","","NA"
"-96.06","50.18","PINAWA","503B1ER","2020-02-01 01:00","2020","02","01","01:00","-2.2","","","M","","M","0.0","","27","","13","","","","97.26","","","","-7","","NA"
"-96.06","50.18","PINAWA","503B1ER","2020-02-01 02:00","2020","02","01","02:00","-2.7","","","M","","M","0.0","","27","","13","","","","97.28","","","","-7","","NA"
"-96.06","50.18","PINAWA","503B1ER","2020-02-01 03:00","2020","02","01","03:00","-4.1","","","M","","M","0.0","","27","","10","","","","97.33","","","","-8","","NA"
"-96.06","50.18","PINAWA","503B1ER","2020-02-01 04:00","2020","02","01","04:00","-4.9","","","M","","M","0.0","","26","","10","","","","97.31","","","","-9","","NA"
"-96.06","50.18","PINAWA","503B1ER","2020-02-01 05:00","2020","02","01","05:00","-5.7","","","M","","M","0.0","","26","","9","","","","97.29","","","","-10","","NA"
"-96.06","50.18","PINAWA","503B1ER","2020-02-01 06:00","2020","02","01","06:00","-6.7","","","M","","M","0.0","","21","","4","","","","97.26","","","","-9","","NA"
"-96.06","50.18","PINAWA","503B1ER","2020-02-01 07:00","2020","02","01","07:00","-7.6","","","M","","M","0.0","","20","","4","","","","97.17","","","","-10","","NA"
"-96.06","50.18","PINAWA","503B1ER","2020-02-01 08:00","2020","02","01","08:00","-7.9","","","M","","M","0.0","","18","","5","","","","97.11","","","","-11","","NA"
"-96.06","50.18","PINAWA","503B1ER","2020-02-01 09:00","2020","02","01","09:00","-7.3","","","M","","M","0.0","","21","","6","","","","97.03","","","","-10","","NA"
"-96.06","50.18","PINAWA","503B1ER","2020-02-01 10:00","2020","02","01","10:00","-4.6","","","M","","M","0.0","","20","","5","","","","96.96","","","","-7","","NA"
"-96.06","50.18","PINAWA","503B1ER","2020-02-01 11:00","2020","02","01","11:00","-2.0","","","M","","M","0.0","","22","","6","","","","96.88","","","","-4","","NA"
"-96.06","50.18","PINAWA","503B1ER","2020-02-01 12:00","2020","02","01","12:00","0.0","","","M","","M","0.0","","19","","7","","","","96.71","","","","-2","","NA"
"-96.06","50.18","PINAWA","503B1ER","2020-02-01 13:00","2020","02","01","13:00","1.1","","","M","","M","0.0","","19","","9","","","","96.59","","","","","","NA"
"-96.06","50.18","PINAWA","503B1ER","2020-02-01 14:00","2020","02","01","14:00","1.5","","","M","","M","0.0","","19","","7","","","","96.46","","","","","","NA"
"-96.06","50.18","PINAWA","503B1ER","2020-02-01 15:00","2020","02","01","15:00","1.3","","","M","","M","0.0","","15","","6","","","","96.30","","","","","","NA"
"-96.06","50.18","PINAWA","503B1ER","2020-02-01 16:00","2020","02","01","16:00","1.1","","","M","","M","0.0","","14","","8","","","","96.13","","","","","","NA"
"-96.06","50.18","PINAWA","503B1ER","2020-02-01 17:00","2020","02","01","17:00","0.5","","","M","","M","0.0","","14","","9","","","","96.06","","","","","","NA"
"-96.06","50.18","PINAWA","503B1ER","2020-02-01 18:00","2020","02","01","18:00","0.0","","","M","","M","0.0","","13","","9","","","","96.04","","","","-3","","NA"
"-96.06","50.18","PINAWA","503B1ER","2020-02-01 19:00","2020","02","01","19:00","-0.1","","","M","","M","0.0","","11","","10","","","","95.88","","","","-3","","NA"
"-96.06","50.18","PINAWA","503B1ER","2020-02-01 20:00","2020","02","01","20:00","-0.5","","","M","","M","0.0","","12","","9","","","","95.83","","","","-4","","NA"
"-96.06","50.18","PINAWA","503B1ER","2020-02-01 21:00","2020","02","01","21:00","-0.8","","","M","","M","0.0","","9","","8","","","","95.87","","","","-4","","NA"
"-96.06","50.18","PINAWA","503B1ER","2020-02-01 22:00","2020","02","01","22:00","-1.1","","","M","","M","0.0","","10","","9","","","","95.84","","","","-4","","NA"
"-96.06","50.18","PINAWA","503B1ER","2020-02-01 23:00","2020","02","01","23:00","-1.4","","","M","","M","0.0","","9","","7","","","","95.79","","","","-4","","NA"
"-96.06","50.18","PINAWA","503B1ER","2020-02-02 00:00","2020","02","02","00:00","-1.5","","","M","","M","0.0","","8","","7","","","","95.80","","","","-4","","NA"
"-96.06","50.18","PINAWA","503B1ER","2020-02-02 01:00","2020","02","02","01:00","-1.6","","","M","","M","0.0","","8","","5","","","","95.84","","","","-3","","NA"
"-96.06","50.18","PINAWA","503B1ER","2020-02-02 02:00","2020","02","02","02:00","-1.7","","","M","","M","0.0","","32","","4","","","","95.95","","","","-3","","NA"
"-96.06","50.18","PINAWA","503B1ER","2020-02-02 03:00","2020","02","02","03:00","-1.9","","","M","","M","0.0","","36","","6","","","","95.97","","","","-4","","NA"
"-96.06","50.18","PINAWA","503B1ER","2020-02-02 04:00","2020","02","02","04:00","-2.0","","","M","","M","0.0","","35","","5","","","","96.06","","","","-4","","NA"
"-96.06","50.18","PINAWA","503B1ER","2020-02-02 05:00","2020","02","02","05:00","-2.2","","","M","","M","0.6","","36","","7","","","","96.12","","","","-5","","NA"
"-96.06","50.18","PINAWA","503B1ER","2020-02-02 06:00","2020","02","02","06:00","-2.1","","","M","","M","1.1","","34","","9","","","","96.29","","","","-6","","NA"
"-96.06","50.18","PINAWA","503B1ER","2020-02-02 07:00","2020","02","02","07:00","-1.8","","","M","","M","0.8","","35","","10","","","","96.41","","","","-5","","NA"
"-96.06","50.18","PINAWA","503B1ER","2020-02-02 08:00","2020","02","02","08:00","-2.3","","","M","","M","0.0","","36","","13","","","","96.51","","","","-7","","NA"
"-96.06","50.18","PINAWA","503B1ER","2020-02-02 09:00","2020","02","02","09:00","-2.5","","","M","","M","0.2","","32","","6","","","","96.62","","","","-5","","NA"
"-96.06","50.18","PINAWA","503B1ER","2020-02-02 10:00","2020","02","02","10:00","-2.9","","","M","","M","0.0","","32","","18","","","","96.78","","","","-9","","NA"
"-96.06","50.18","PINAWA","503B1ER","2020-02-02 11:00","2020","02","02","11:00","-3.2","","","M","","M","0.0","","32","","20","","","","96.91","","","","-9","","NA"
"-96.06","50.18","PINAWA","503B1ER","2020-02-02 12:00","2020","02","02","12:00","-2.3","","","M","","M","0.0","","30","","13","","","","96.94","","","","-7","","NA"
"-96.06","50.18","PINAWA","503B1ER","2020-02-02 13:00","2020","02","02","13:00","-2.3","","","M","","M","0.0","","28","","10","","","","96.95","","","","-6","","NA"
"-96.06","50.18","PINAWA","503B1ER","2020-02-02 14:00","2020","02","02","14:00","-1.6","","","M","","M","0.0","","26","","7","","","","96.93","","","","-4","","NA"
"-96.06","50.18","PINAWA","503B1ER","2020-02-02 15:00","2020","02","02","15:00","-1.4","","","M","","M","0.0","","23","","7","","","","96.95","","","","-4","","NA"
"-96.06","50.18","PINAWA","503B1ER","2020-02-02 16:00","2020","02","02","16:00","-1.0","","","M","","M","0.0","","22","","8","","","","96.96","","","","-4","","NA"
"-96.06","50.18","PINAWA","503B1ER","2020-02-02 17:00","2020","02","02","17:00","-0.8","","","M","","M","0.0","","23","","9","","","","96.93","","","","-4","","NA"
"-96.06","50.18","PINAWA","503B1ER","2020-02-02 18:00","2020","02","02","18:00","-1.6","","","M","","M","0.0","","24","","10","","","","96.96","","","","-5","","NA"
"-96.06","50.18","PINAWA","503B1ER","2020-02-02 19:00","2020","02","02","19:00","-2.9","","","M","","M","0.0","","25","","15","","","","97.02","","","","-8","","NA"
"-96.06","50.18","PINAWA","503B1ER","2020-02-02 20:00","2020","02","02","20:00","-3.1","","","M","","M","0.0","","27","","14","","","","97.05","","","","-8","","NA"
"-96.06","50.18","PINAWA","503B1ER","2020-02-02 21:00","2020","02","02","21:00","-4.0","","","M","","M","0.0","","28","","15","","","","97.09","","","","-9","","NA"
"-96.06","50.18","PINAWA","503B1ER","2020-02-02 22:00","2020","02","02","22:00","-4.2","","","M","","M","0.0","","29","","21","","","","97.16","","","","-11","","NA"
"-96.06","50.18","PINAWA","503B1ER","2020-02-02 23:00","2020","02","02","23:00","-5.8","","","M","","M","0.0","","31","","28","","","","97.28","","","","-14","","NA"
"-96.06","50.18","PINAWA","503B1ER","2020-02-03 00:00","2020","02","03","00:00","-7.6","","","M","","M","0.0","","30","","29","","","","97.41","","","","-16","","NA"
"-96.06","50.18","PINAWA","503B1ER","2020-02-03 01:00","2020","02","03","01:00","-9.6","","","M","","M","0.0","","30","","26","","","","97.60","","","","-18","","NA"
"-96.06","50.18","PINAWA","503B1ER","2020-02-03 02:00","2020","02","03","02:00","-10.7","","","M","","M","0.0","","31","","27","","","","97.68","","","","-20","","NA"
"-96.06","50.18","PINAWA","503B1ER","2020-02-03 03:00","2020","02","03","03:00","-11.5","","","M","","M","0.0","","30","","20","","","","97.81","","","","-20","","NA"
"-96.06","50.18","PINAWA","503B1ER","2020-02-03 04:00","2020","02","03","04:00","-12.9","","","M","","M","0.0","","30","","20","","","","97.93","","","","-22","","NA"
"-96.06","50.18","PINAWA","503B1ER","2020-02-03 05:00","2020","02","03","05:00","-14.2","","","M","","M","0.0","","32","","26","","","","97.95","","","","-24","","NA"
"-96.06","50.18","PINAWA","503B1ER","2020-02-03 06:00","2020","02","03","06:00","-15.6","","","M","","M","0.0","","32","","25","","","","98.02","","","","-26","","NA"
"-96.06","50.18","PINAWA","503B1ER","2020-02-03 07:00","2020","02","03","07:00","-16.7","","","M","","M","0.0","","32","","18","","","","98.15","","","","-26","","NA"
"-96.06","50.18","PINAWA","503B1ER","2020-02-03 08:00","2020","02","03","08:00","-17.1","","","M","","M","0.0","","31","","14","","","","98.34","","","","-25","","NA"
"-96.06","50.18","PINAWA","503B1ER","2020-02-03 09:00","2020","02","03","09:00","-16.6","","","M","","M","0.0","","32","","16","","","","98.44","","","","-25","","NA"
"-96.06","50.18","PINAWA","503B1ER","2020-02-03 10:00","2020","02","03","10:00","-16.1","","","M","","M","0.0","","31","","9","","","","98.56","","","","-22","","NA"
"-96.06","50.18","PINAWA","503B1ER","2020-02-03 11:00","2020","02","03","11:00","-14.9","","","M","","M","0.0","","32","","9","","","","98.61","","","","-21","","NA"
"-96.06","50.18","PINAWA","503B1ER","2020-02-03 12:00","2020","02","03","12:00","-14.0","","","M","","M","0.0","","29","","15","","","","98.60","","","","-22","","NA"
"-96.06","50.18","PINAWA","503B1ER","2020-02-03 13:00","2020","02","03","13:00","-13.4","","","M","","M","0.0","","30","","16","","","","98.58","","","","-21","","NA"
"-96.06","50.18","PINAWA","503B1ER","2020-02-03 14:00","2020","02","03","14:00","-13.6","","","M","","M","0.0","","29","","18","","","","98.59","","","","-22","","NA"
"-96.06","50.18","PINAWA","503B1ER","2020-02-03 15:00","2020","02","03","15:00","-13.8","","","M","","M","0.0","","31","","16","","","","98.62","","","","-22","","NA"
"-96.06","50.18","PINAWA","503B1ER","2020-02-03 16:00","2020","02","03","16:00","-14.7","","","M","","M","0.0","","32","","16","","","","98.69","","","","-23","","NA"
"-96.06","50.18","PINAWA","503B1ER","2020-02-03 17:00","2020","02","03","17:00","-15.2","","","M","","M","0.0","","33","","12","","","","98.72","","","","-22","","NA"
"-96.06","50.18","PINAWA","503B1ER","2020-02-03 18:00","2020","02","03","18:00","-16.5","","","M","","M","0.0","","29","","8","","","","98.81","","","","-22","","NA"
"-96.06","50.18","PINAWA","503B1ER","2020-02-03 19:00","2020","02","03","19:00","-18.2","","","M","","M","0.0","","27","","4","","","","98.84","","","","-21","","NA"
"-96.06","50.18","PINAWA","503B1ER","2020-02-03 20:00","2020","02","03","20:00","-19.1","","","M","","M","0.0","","28","","5","","","","98.91","","","","-23","","NA"
"-96.06","50.18","PINAWA","503B1ER","2020-02-03 21:00","2020","02","03","21:00","-20.0","","","M","","M","0.0","","28","","7","","","","98.97","","","","-26","","NA"
"-96.06","50.18","PINAWA","503B1ER","2020-02-03 22:00","2020","02","03","22:00","-18.9","","","M","","M","0.0","","27","","6","","","","99.02","","","","-24","","NA"
"-96.06","50.18","PINAWA","503B1ER","2020-02-03 23:00","2020","02","03","23:00","-17.8","","","M","","M","0.0","","29","","5","","","","99.01","","","","-22","","NA"
"-96.06","50.18","PINAWA","503B1ER","2020-02-04 00:00","2020","02","04","00:00","-18.1","","","M","","M","0.0","","29","","3","","","","99.01","","","","-21","","NA"
"-96.06","50.18","PINAWA","503B1ER","2020-02-04 01:00","2020","02","04","01:00","-19.6","","","M","","M","0.0","","24","","3","","","","99.04","","","","-22","","NA"
"-96.06","50.18","PINAWA","503B1ER","2020-02-04 02:00","2020","02","04","02:00","-21.1","","","M","","M","0.0","","26","","4","","","","99.07","","","","-25","","NA"
"-96.06","50.18","PINAWA","503B1ER","2020-02-04 03:00","2020","02","04","03:00","-21.8","","","M","","M","0.2","","28","","4","","","","99.12","","","","-25","","NA"
"-96.06","50.18","PINAWA","503B1ER","2020-02-04 04:00","2020","02","04","04:00","-23.5","","","M","","M","0.0","","22","","2","","","","99.13","","","","-25","","NA"
"-96.06","50.18","PINAWA","503B1ER","2020-02-04 05:00","2020","02","04","05:00","-25.2","","","M","","M","0.0","","21","","1","","","","99.16","","","","-26","","NA"
"-96.06","50.18","PINAWA","503B1ER","2020-02-04 06:00","2020","02","04","06:00","-20.9","","","M","","M","0.0","","28","","7","","","","99.19","","","","-27","","NA"
"-96.06","50.18","PINAWA","503B1ER","2020-02-04 07:00","2020","02","04","07:00","-19.2","","","M","","M","0.0","","29","","6","","","","99.19","","","","-24","","NA"
"-96.06","50.18","PINAWA","503B1ER","2020-02-04 08:00","2020","02","04","08:00","-18.9","","","M","","M","0.0","","28","","6","","","","99.26","","","","-24","","NA"
"-96.06","50.18","PINAWA","503B1ER","2020-02-04 09:00","2020","02","04","09:00","-18.4","","","M","","M","0.0","","23","","1","","","","99.24","","","","-19","","NA"
"-96.06","50.18","PINAWA","503B1ER","2020-02-04 10:00","2020","02","04","10:00","-17.1","","","M","","M","0.0","","20","","4","","","","99.22","","","","-20","","NA"
"-96.06","50.18","PINAWA","503B1ER","2020-02-04 11:00","2020","02","04","11:00","-15.6","","","M","","M","0.0","","28","","6","","","","99.23","","","","-20","","NA"
"-96.06","50.18","PINAWA","503B1ER","2020-02-04 12:00","2020","02","04","12:00","-14.3","","","M","","M","0.0","","23","","9","","","","99.15","","","","-20","","NA"
"-96.06","50.18","PINAWA","503B1ER","2020-02-04 13:00","2020","02","04","13:00","-13.2","","","M","","M","0.0","","25","","9","","","","99.08","","","","-19","","NA"
"-96.06","50.18","PINAWA","503B1ER","2020-02-04 14:00","2020","02","04","14:00","-13.5","","","M","","M","0.0","","24","","9","","","","99.00","","","","-19","","NA"
"-96.06","50.18","PINAWA","503B1ER","2020-02-04 15:00","2020","02","04","15:00","-12.3","","","M","","M","0.0","","24","","8","","","","98.92","","","","-17","","NA"
"-96.06","50.18","PINAWA","503B1ER","2020-02-04 16:00","2020","02","04","16:00","-12.9","","","M","","M","0.0","","21","","8","","","","98.86","","","","-18","","NA"
"-96.06","50.18","PINAWA","503B1ER","2020-02-04 17:00","2020","02","04","17:00","-14.4","","","M","","M","0.0","","21","","7","","","","98.78","","","","-19","","NA"
"-96.06","50.18","PINAWA","503B1ER","2020-02-04 18:00","2020","02","04","18:00","-15.9","","","M","","M","0.0","","18","","8","","","","98.69","","","","-21","","NA"
"-96.06","50.18","PINAWA","503B1ER","2020-02-04 19:00","2020","02","04","19:00","-16.4","","","M","","M","0.0","","18","","9","","","","98.59","","","","-22","","NA"
"-96.06","50.18","PINAWA","503B1ER","2020-02-04 20:00","2020","02","04","20:00","-16.4","","","M","","M","0.0","","17","","8","","","","98.45","","","","-22","","NA"
"-96.06","50.18","PINAWA","503B1ER","2020-02-04 21:00","2020","02","04","21:00","-16.4","","","M","","M","0.0","","17","","6","","","","98.40","","","","-21","","NA"
"-96.06","50.18","PINAWA","503B1ER","2020-02-04 22:00","2020","02","04","22:00","-15.2","","","M","","M","0.0","","18","","8","","","","98.32","","","","-21","","NA"
"-96.06","50.18","PINAWA","503B1ER","2020-02-04 23:00","2020","02","04","23:00","-14.9","","","M","","M","0.0","","18","","8","","","","98.20","","","","-20","","NA"
"-96.06","50.18","PINAWA","503B1ER","2020-02-05 00:00","2020","02","05","00:00","-14.9","","","M","","M","0.0","","17","","10","","","","98.09","","","","-21","","NA"
"-96.06","50.18","PINAWA","503B1ER","2020-02-05 01:00","2020","02","05","01:00","-15.9","","","M","","M","0.0","","16","","11","","","","97.97","","","","-23","","NA"
"-96.06","50.18","PINAWA","503B1ER","2020-02-05 02:00","2020","02","05","02:00","-14.5","","","M","","M","0.0","","16","","9","","","","97.85","","","","-20","","NA"
"-96.06","50.18","PINAWA","503B1ER","2020-02-05 03:00","2020","02","05","03:00","-12.1","","","M","","M","0.0","","21","","9","","","","97.75","","","","-17","","NA"
"-96.06","50.18","PINAWA","503B1ER","2020-02-05 04:00","2020","02","05","04:00","-12.0","","","M","","M","0.0","","21","","8","","","","97.66","","","","-17","","NA"
"-96.06","50.18","PINAWA","503B1ER","2020-02-05 05:00","2020","02","05","05:00","-12.2","","","M","","M","0.0","","21","","6","","","","97.59","","","","-16","","NA"
"-96.06","50.18","PINAWA","503B1ER","2020-02-05 06:00","2020","02","05","06:00","-12.1","","","M","","M","0.0","","20","","7","","","","97.56","","","","-16","","NA"
"-96.06","50.18","PINAWA","503B1ER","2020-02-05 07:00","2020","02","05","07:00","-12.5","","","M","","M","0.0","","23","","5","","","","97.53","","","","-16","","NA"
"-96.06","50.18","PINAWA","503B1ER","2020-02-05 08:00","2020","02","05","08:00","-12.6","","","M","","M","0.0","","20","","5","","","","97.48","","","","-16","","NA"
"-96.06","50.18","PINAWA","503B1ER","2020-02-05 09:00","2020","02","05","09:00","-10.4","","","M","","M","0.0","","23","","7","","","","97.50","","","","-14","","NA"
"-96.06","50.18","PINAWA","503B1ER","2020-02-05 10:00","2020","02","05","10:00","-7.7","","","M","","M","0.0","","26","","9","","","","97.56","","","","-12","","NA"
"-96.06","50.18","PINAWA","503B1ER","2020-02-05 11:00","2020","02","05","11:00","-6.2","","","M","","M","0.0","","27","","8","","","","97.58","","","","-10","","NA"
"-96.06","50.18","PINAWA","503B1ER","2020-02-05 12:00","2020","02","05","12:00","-6.6","","","M","","M","0.0","","28","","11","","","","97.59","","","","-12","","NA"
"-96.06","50.18","PINAWA","503B1ER","2020-02-05 13:00","2020","02","05","13:00","-5.1","","","M","","M","0.0","","26","","5","","","","97.50","","","","-7","","NA"
"-96.06","50.18","PINAWA","503B1ER","2020-02-05 14:00","2020","02","05","14:00","-6.9","","","M","","M","0.0","","36","","9","","","","97.52","","","","-11","","NA"
"-96.06","50.18","PINAWA","503B1ER","2020-02-05 15:00","2020","02","05","15:00","-6.9","","","M","","M","0.0","","1","","9","","","","97.49","","","","-11","","NA"
"-96.06","50.18","PINAWA","503B1ER","2020-02-05 16:00","2020","02","05","16:00","-7.0","","","M","","M","0.0","","35","","6","","","","97.51","","","","-10","","NA"
"-96.06","50.18","PINAWA","503B1ER","2020-02-05 17:00","2020","02","05","17:00","-7.4","","","M","","M","0.0","","35","","6","","","","97.52","","","","-11","","NA"
"-96.06","50.18","PINAWA","503B1ER","2020-02-05 18:00","2020","02","05","18:00","-8.0","","","M","","M","0.0","","36","","7","","","","97.54","","","","-12","","NA"
"-96.06","50.18","PINAWA","503B1ER","2020-02-05 19:00","2020","02","05","19:00","-9.3","","","M","","M","0.0","","35","","8","","","","97.53","","","","-14","","NA"
"-96.06","50.18","PINAWA","503B1ER","2020-02-05 20:00","2020","02","05","20:00","-10.6","","","M","","M","0.0","","35","","8","","","","97.53","","","","-15","","NA"
"-96.06","50.18","PINAWA","503B1ER","2020-02-05 21:00","2020","02","05","21:00","-10.9","","","M","","M","0.0","","36","","6","","","","97.48","","","","-15","","NA"
"-96.06","50.18","PINAWA","503B1ER","2020-02-05 22:00","2020","02","05","22:00","-10.9","","","M","","M","0.0","","36","","5","","","","97.47","","","","-14","","NA"
"-96.06","50.18","PINAWA","503B1ER","2020-02-05 23:00","2020","02","05","23:00","-10.7","","","M","","M","0.0","","36","","5","","","","97.47","","","","-14","","NA"
"-96.06","50.18","PINAWA","503B1ER","2020-02-06 00:00","2020","02","06","00:00","-11.0","","","M","","M","0.0","","4","","12","","","","97.47","","","","-17","","NA"
"-96.06","50.18","PINAWA","503B1ER","2020-02-06 01:00","2020","02","06","01:00","-11.8","","","M","","M","0.0","","5","","10","","","","97.43","","","","-17","","NA"
"-96.06","50.18","PINAWA","503B1ER","2020-02-06 02:00","2020","02","06","02:00","-12.2","","","M","","M","0.0","","3","","10","","","","97.39","","","","-18","","NA"
"-96.06","50.18","PINAWA","503B1ER","2020-02-06 03:00","2020","02","06","03:00","-12.5","","","M","","M","0.0","","3","","9","","","","97.39","","","","-18","","NA"
"-96.06","50.18","PINAWA","503B1ER","2020-02-06 04:00","2020","02","06","04:00","-13.0","","","M","","M","0.2","","4","","12","","","","97.36","","","","-20","","NA"
"-96.06","50.18","PINAWA","503B1ER","2020-02-06 05:00","2020","02","06","05:00","-13.5","","","M","","M","0.2","","5","","10","","","","97.38","","","","-19","","NA"
"-96.06","50.18","PINAWA","503B1ER","2020-02-06 06:00","2020","02","06","06:00","-14.1","","","M","","M","0.2","","4","","11","","","","97.39","","","","-21","","NA"
"-96.06","50.18","PINAWA","503B1ER","2020-02-06 07:00","2020","02","06","07:00","-14.9","","","M","","M","0.0","","5","","11","","","","97.44","","","","-21","","NA"
"-96.06","50.18","PINAWA","503B1ER","2020-02-06 08:00","2020","02","06","08:00","-15.3","","","M","","M","0.2","","5","","14","","","","97.47","","","","-23","","NA"
"-96.06","50.18","PINAWA","503B1ER","2020-02-06 09:00","2020","02","06","09:00","-16.0","","","M","","M","0.0","","4","","13","","","","97.51","","","","-24","","NA"
"-96.06","50.18","PINAWA","503B1ER","2020-02-06 10:00","2020","02","06","10:00","-15.5","","","M","","M","0.0","","4","","14","","","","97.54","","","","-23","","NA"
"-96.06","50.18","PINAWA","503B1ER","2020-02-06 11:00","2020","02","06","11:00","-14.6","","","M","","M","0.0","","4","","14","","","","97.60","","","","-22","","NA"
"-96.06","50.18","PINAWA","503B1ER","2020-02-06 12:00","2020","02","06","12:00","-12.9","","","M","","M","0.0","","3","","14","","","","97.59","","","","-20","","NA"
"-96.06","50.18","PINAWA","503B1ER","2020-02-06 13:00","2020","02","06","13:00","-12.1","","","M","","M","0.0","","4","","15","","","","97.60","","","","-19","","NA"
"-96.06","50.18","PINAWA","503B1ER","2020-02-06 14:00","2020","02","06","14:00","-11.2","","","M","","M","0.0","","3","","16","","","","97.60","","","","-18","","NA"
"-96.06","50.18","PINAWA","503B1ER","2020-02-06 15:00","2020","02","06","15:00","-11.0","","","M","","M","0.0","","2","","13","","","","97.62","","","","-17","","NA"
"-96.06","50.18","PINAWA","503B1ER","2020-02-06 16:00","2020","02","06","16:00","-11.2","","","M","","M","0.0","","2","","14","","","","97.70","","","","-18","","NA"
"-96.06","50.18","PINAWA","503B1ER","2020-02-06 17:00","2020","02","06","17:00","-12.5","","","M","","M","0.0","","4","","12","","","","97.79","","","","-19","","NA"
"-96.06","50.18","PINAWA","503B1ER","2020-02-06 18:00","2020","02","06","18:00","-14.6","","","M","","M","0.0","","2","","12","","","","97.88","","","","-21","","NA"
"-96.06","50.18","PINAWA","503B1ER","2020-02-06 19:00","2020","02","06","19:00","-16.2","","","M","","M","0.0","","3","","11","","","","97.94","","","","-23","","NA"
"-96.06","50.18","PINAWA","503B1ER","2020-02-06 20:00","2020","02","06","20:00","-17.9","","","M","","M","0.0","","1","","9","","","","98.00","","","","-24","","NA"
"-96.06","50.18","PINAWA","503B1ER","2020-02-06 21:00","2020","02","06","21:00","-19.4","","","M","","M","0.0","","1","","7","","","","98.07","","","","-25","","NA"
"-96.06","50.18","PINAWA","503B1ER","2020-02-06 22:00","2020","02","06","22:00","-20.7","","","M","","M","0.0","","1","","6","","","","98.12","","","","-26","","NA"
"-96.06","50.18","PINAWA","503B1ER","2020-02-06 23:00","2020","02","06","23:00","-22.2","","","M","","M","0.0","","35","","5","","","","98.17","","","","-27","","NA"
"-96.06","50.18","PINAWA","503B1ER","2020-02-07 00:00","2020","02","07","00:00","-23.3","","","M","","M","0.0","","36","","5","","","","98.23","","","","-28","","NA"
"-96.06","50.18","PINAWA","503B1ER","2020-02-07 01:00","2020","02","07","01:00","-24.0","","","M","","M","0.0","","1","","4","","","","98.27","","","","-28","","NA"
"-96.06","50.18","PINAWA","503B1ER","2020-02-07 02:00","2020","02","07","02:00","-24.5","","","M","","M","0.2","","1","","5","","","","98.28","","","","-29","","NA"
"-96.06","50.18","PINAWA","503B1ER","2020-02-07 03:00","2020","02","07","03:00","-25.6","","","M","","M","0.0","","35","","5","","","","98.30","","","","-31","","NA"
"-96.06","50.18","PINAWA","503B1ER","2020-02-07 04:00","2020","02","07","04:00","-27.8","","","M","","M","0.0","","35","","3","","","","98.31","","","","-31","","NA"
"-96.06","50.18","PINAWA","503B1ER","2020-02-07 05:00","2020","02","07","05:00","-28.6","","","M","","M","0.0","","34","","4","","","","98.32","","","","-33","","NA"
"-96.06","50.18","PINAWA","503B1ER","2020-02-07 06:00","2020","02","07","06:00","-29.9","","","M","","M","0.0","","2","","2","","","","98.36","","","","-32","","NA"
"-96.06","50.18","PINAWA","503B1ER","2020-02-07 07:00","2020","02","07","07:00","-31.5","","","M","","M","0.0","","","","0","","","","98.40","","","","","","NA"
"-96.06","50.18","PINAWA","503B1ER","2020-02-07 08:00","2020","02","07","08:00","-32.3","","","M","","M","0.0","","","","0","","","","98.45","","","","","","NA"
"-96.06","50.18","PINAWA","503B1ER","2020-02-07 09:00","2020","02","07","09:00","-29.5","","","M","","M","0.0","","36","","2","","","","98.47","","","","-32","","NA"
"-96.06","50.18","PINAWA","503B1ER","2020-02-07 10:00","2020","02","07","10:00","-26.4","","","M","","M","0.0","","30","","1","","","","98.49","","","","-27","","NA"
"-96.06","50.18","PINAWA","503B1ER","2020-02-07 11:00","2020","02","07","11:00","-22.2","","","M","","M","0.0","","25","","4","","","","98.44","","","","-26","","NA"
"-96.06","50.18","PINAWA","503B1ER","2020-02-07 12:00","2020","02","07","12:00","-18.1","","","M","","M","0.0","","23","","4","","","","98.41","","","","-21","","NA"
"-96.06","50.18","PINAWA","503B1ER","2020-02-07 13:00","2020","02","07","13:00","-16.9","","","M","","M","0.0","","22","","6","","","","98.37","","","","-21","","NA"
"-96.06","50.18","PINAWA","503B1ER","2020-02-07 14:00","2020","02","07","14:00","-16.0","","","M","","M","0.0","","20","","9","","","","98.32","","","","-22","","NA"
"-96.06","50.18","PINAWA","503B1ER","2020-02-07 15:00","2020","02","07","15:00","-15.2","","","M","","M","0.0","","19","","7","","","","98.28","","","","-20","","NA"
"-96.06","50.18","PINAWA","503B1ER","2020-02-07 16:00","2020","02","07","16:00","-14.6","","","M","","M","0.0","","16","","5","","","","98.30","","","","-18","","NA"
"-96.06","50.18","PINAWA","503B1ER","2020-02-07 17:00","2020","02","07","17:00","-15.5","","","M","","M","0.0","","19","","3","","","","98.28","","","","-18","","NA"
"-96.06","50.18","PINAWA","503B1ER","2020-02-07 18:00","2020","02","07","18:00","-18.1","","","M","","M","0.0","","27","","2","","","","98.29","","","","-20","","NA"
"-96.06","50.18","PINAWA","503B1ER","2020-02-07 19:00","2020","02","07","19:00","-19.5","","","M","","M","0.0","","18","","3","","","","98.26","","","","-22","","NA"
"-96.06","50.18","PINAWA","503B1ER","2020-02-07 20:00","2020","02","07","20:00","-20.8","","","M","","M","0.0","","18","","4","","","","98.21","","","","-24","","NA"
"-96.06","50.18","PINAWA","503B1ER","2020-02-07 21:00","2020","02","07","21:00","-19.4","","","M","","M","0.0","","19","","4","","","","98.16","","","","-23","","NA"
"-96.06","50.18","PINAWA","503B1ER","2020-02-07 22:00","2020","02","07","22:00","-18.4","","","M","","M","0.0","","16","","7","","","","98.11","","","","-24","","NA"
"-96.06","50.18","PINAWA","503B1ER","2020-02-07 23:00","2020","02","07","23:00","-17.7","","","M","","M","0.0","","17","","8","","","","98.08","","","","-24","","NA"
"-96.06","50.18","PINAWA","503B1ER","2020-02-08 00:00","2020","02","08","00:00","-17.2","","","M","","M","0.0","","17","","8","","","","98.05","","","","-23","","NA"
"-96.06","50.18","PINAWA","503B1ER","2020-02-08 01:00","2020","02","08","01:00","-17.1","","","M","","M","0.0","","17","","8","","","","97.97","","","","-23","","NA"
"-96.06","50.18","PINAWA","503B1ER","2020-02-08 02:00","2020","02","08","02:00","-17.0","","","M","","M","0.0","","17","","7","","","","97.94","","","","-22","","NA"
"-96.06","50.18","PINAWA","503B1ER","2020-02-08 03:00","2020","02","08","03:00","-17.0","","","M","","M","0.0","","15","","5","","","","97.94","","","","-21","","NA"
"-96.06","50.18","PINAWA","503B1ER","2020-02-08 04:00","2020","02","08","04:00","-16.6","","","M","","M","0.0","","17","","6","","","","97.91","","","","-21","","NA"
"-96.06","50.18","PINAWA","503B1ER","2020-02-08 05:00","2020","02","08","05:00","-16.3","","","M","","M","0.0","","17","","4","","","","97.91","","","","-19","","NA"
"-96.06","50.18","PINAWA","503B1ER","2020-02-08 06:00","2020","02","08","06:00","-16.2","","","M","","M","0.0","","19","","3","","","","97.93","","","","-18","","NA"
"-96.06","50.18","PINAWA","503B1ER","2020-02-08 07:00","2020","02","08","07:00","-15.8","","","M","","M","0.0","","17","","2","","","","97.92","","","","-17","","NA"
"-96.06","50.18","PINAWA","503B1ER","2020-02-08 08:00","2020","02","08","08:00","-15.6","","","M","","M","0.0","","21","","3","","","","97.93","","","","-18","","NA"
"-96.06","50.18","PINAWA","503B1ER","2020-02-08 09:00","2020","02","08","09:00","-15.3","","","M","","M","0.0","","23","","4","","","","97.98","","","","-18","","NA"
"-96.06","50.18","PINAWA","503B1ER","2020-02-08 10:00","2020","02","08","10:00","-14.5","","","M","","M","0.0","","24","","5","","","","97.99","","","","-18","","NA"
"-96.06","50.18","PINAWA","503B1ER","2020-02-08 11:00","2020","02","08","11:00","-13.8","","","M","","M","0.0","","25","","4","","","","98.06","","","","-17","","NA"
"-96.06","50.18","PINAWA","503B1ER","2020-02-08 12:00","2020","02","08","12:00","-13.3","","","M","","M","0.0","","28","","4","","","","98.08","","","","-16","","NA"
"-96.06","50.18","PINAWA","503B1ER","2020-02-08 13:00","2020","02","08","13:00","-13.0","","","M","","M","0.0","","29","","7","","","","98.09","","","","-18","","NA"
"-96.06","50.18","PINAWA","503B1ER","2020-02-08 14:00","2020","02","08","14:00","-12.5","","","M","","M","0.0","","29","","8","","","","98.08","","","","-17","","NA"
"-96.06","50.18","PINAWA","503B1ER","2020-02-08 15:00","2020","02","08","15:00","-12.4","","","M","","M","0.0","","33","","5","","","","98.10","","","","-16","","NA"
"-96.06","50.18","PINAWA","503B1ER","2020-02-08 16:00","2020","02","08","16:00","-12.5","","","M","","M","0.0","","33","","7","","","","98.16","","","","-17","","NA"
"-96.06","50.18","PINAWA","503B1ER","2020-02-08 17:00","2020","02","08","17:00","-12.6","","","M","","M","0.0","","32","","8","","","","98.21","","","","-18","","NA"
"-96.06","50.18","PINAWA","503B1ER","2020-02-08 18:00","2020","02","08","18:00","-12.9","","","M","","M","0.0","","29","","8","","","","98.28","","","","-18","","NA"
"-96.06","50.18","PINAWA","503B1ER","2020-02-08 19:00","2020","02","08","19:00","-13.0","","","M","","M","0.0","","30","","8","","","","98.38","","","","-18","","NA"
"-96.06","50.18","PINAWA","503B1ER","2020-02-08 20:00","2020","02","08","20:00","-13.0","","","M","","M","0.0","","27","","4","","","","98.40","","","","-16","","NA"
"-96.06","50.18","PINAWA","503B1ER","2020-02-08 21:00","2020","02","08","21:00","-12.9","","","M","","M","0.0","","28","","4","","","","98.43","","","","-16","","NA"
"-96.06","50.18","PINAWA","503B1ER","2020-02-08 22:00","2020","02","08","22:00","-12.8","","","M","","M","0.0","","26","","4","","","","98.49","","","","-15","","NA"
"-96.06","50.18","PINAWA","503B1ER","2020-02-08 23:00","2020","02","08","23:00","-12.5","","","M","","M","0.0","","26","","5","","","","98.54","","","","-16","","NA"
"-96.06","50.18","PINAWA","503B1ER","2020-02-09 00:00","2020","02","09","00:00","-12.3","","","M","","M","0.0","","27","","6","","","","98.60","","","","-16","","NA"
"-96.06","50.18","PINAWA","503B1ER","2020-02-09 01:00","2020","02","09","01:00","-12.1","","","M","","M","0.0","","29","","10","","","","98.63","","","","-18","","NA"
"-96.06","50.18","PINAWA","503B1ER","2020-02-09 02:00","2020","02","09","02:00","-12.1","","","M","","M","0.0","","26","","5","","","","98.65","","","","-15","","NA"
"-96.06","50.18","PINAWA","503B1ER","2020-02-09 03:00","2020","02","09","03:00","-11.8","","","M","","M","0.0","","28","","6","","","","98.68","","","","-16","","NA"
"-96.06","50.18","PINAWA","503B1ER","2020-02-09 04:00","2020","02","09","04:00","-11.9","","","M","","M","0.0","","23","","4","","","","98.67","","","","-14","","NA"
"-96.06","50.18","PINAWA","503B1ER","2020-02-09 05:00","2020","02","09","05:00","-12.0","","","M","","M","0.0","","23","","4","","","","98.65","","","","-15","","NA"
"-96.06","50.18","PINAWA","503B1ER","2020-02-09 06:00","2020","02","09","06:00","-11.8","","","M","","M","0.0","","23","","5","","","","98.65","","","","-15","","NA"
"-96.06","50.18","PINAWA","503B1ER","2020-02-09 07:00","2020","02","09","07:00","-11.7","","","M","","M","0.0","","23","","4","","","","98.66","","","","-14","","NA"
"-96.06","50.18","PINAWA","503B1ER","2020-02-09 08:00","2020","02","09","08:00","-11.9","","","M","","M","0.0","","20","","4","","","","98.65","","","","-14","","NA"
"-96.06","50.18","PINAWA","503B1ER","2020-02-09 09:00","2020","02","09","09:00","-11.5","","","M","","M","0.0","","20","","3","","","","98.70","","","","-13","","NA"
"-96.06","50.18","PINAWA","503B1ER","2020-02-09 10:00","2020","02","09","10:00","-10.3","","","M","","M","0.0","","18","","5","","","","98.70","","","","-13","","NA"
"-96.06","50.18","PINAWA","503B1ER","2020-02-09 11:00","2020","02","09","11:00","-8.2","","","M","","M","0.0","","20","","8","","","","98.67","","","","-12","","NA"
"-96.06","50.18","PINAWA","503B1ER","2020-02-09 12:00","2020","02","09","12:00","-6.3","","","M","","M","0.0","","20","","7","","","","98.60","","","","-10","","NA"
"-96.06","50.18","PINAWA","503B1ER","2020-02-09 13:00","2020","02","09","13:00","-5.4","","","M","","M","0.0","","23","","6","","","","98.49","","","","-8","","NA"
"-96.06","50.18","PINAWA","503B1ER","2020-02-09 14:00","2020","02","09","14:00","-4.6","","","M","","M","0.0","","21","","9","","","","98.38","","","","-8","","NA"
"-96.06","50.18","PINAWA","503B1ER","2020-02-09 15:00","2020","02","09","15:00","-3.9","","","M","","M","0.0","","21","","7","","","","98.27","","","","-7","","NA"
"-96.06","50.18","PINAWA","503B1ER","2020-02-09 16:00","2020","02","09","16:00","-4.5","","","M","","M","0.0","","22","","7","","","","98.22","","","","-8","","NA"
"-96.06","50.18","PINAWA","503B1ER","2020-02-09 17:00","2020","02","09","17:00","-5.4","","","M","","M","0.0","","22","","7","","","","98.16","","","","-9","","NA"
"-96.06","50.18","PINAWA","503B1ER","2020-02-09 18:00","2020","02","09","18:00","-6.9","","","M","","M","0.0","","20","","5","","","","98.12","","","","-9","","NA"
"-96.06","50.18","PINAWA","503B1ER","2020-02-09 19:00","2020","02","09","19:00","-7.9","","","M","","M","0.0","","19","","5","","","","98.06","","","","-11","","NA"
"-96.06","50.18","PINAWA","503B1ER","2020-02-09 20:00","2020","02","09","20:00","-8.6","","","M","","M","0.0","","17","","7","","","","98.00","","","","-12","","NA"
"-96.06","50.18","PINAWA","503B1ER","2020-02-09 21:00","2020","02","09","21:00","-9.0","","","M","","M","0.0","","17","","6","","","","97.96","","","","-12","","NA"
"-96.06","50.18","PINAWA","503B1ER","2020-02-09 22:00","2020","02","09","22:00","-9.9","","","M","","M","0.0","","16","","7","","","","97.90","","","","-14","","NA"
"-96.06","50.18","PINAWA","503B1ER","2020-02-09 23:00","2020","02","09","23:00","-10.6","","","M","","M","0.0","","16","","10","","","","97.86","","","","-16","","NA"
"-96.06","50.18","PINAWA","503B1ER","2020-02-10 00:00","2020","02","10","00:00","-11.4","","","M","","M","0.0","","16","","7","","","","97.80","","","","-16","","NA"
"-96.06","50.18","PINAWA","503B1ER","2020-02-10 01:00","2020","02","10","01:00","-11.3","","","M","","M","0.0","","17","","9","","","","97.74","","","","-16","","NA"
"-96.06","50.18","PINAWA","503B1ER","2020-02-10 02:00","2020","02","10","02:00","-11.1","","","M","","M","0.0","","16","","8","","","","97.69","","","","-16","","NA"
"-96.06","50.18","PINAWA","503B1ER","2020-02-10 03:00","2020","02","10","03:00","-10.4","","","M","","M","0.0","","16","","9","","","","97.62","","","","-15","","NA"
"-96.06","50.18","PINAWA","503B1ER","2020-02-10 04:00","2020","02","10","04:00","-10.3","","","M","","M","0.0","","15","","6","","","","97.54","","","","-14","","NA"
"-96.06","50.18","PINAWA","503B1ER","2020-02-10 05:00","2020","02","10","05:00","-11.3","","","M","","M","0.0","","15","","5","","","","97.52","","","","-14","","NA"
"-96.06","50.18","PINAWA","503B1ER","2020-02-10 06:00","2020","02","10","06:00","-12.7","","","M","","M","0.0","","13","","4","","","","97.49","","","","-15","","NA"
"-96.06","50.18","PINAWA","503B1ER","2020-02-10 07:00","2020","02","10","07:00","-10.2","","","M","","M","0.0","","14","","4","","","","97.50","","","","-13","","NA"
"-96.06","50.18","PINAWA","503B1ER","2020-02-10 08:00","2020","02","10","08:00","-9.6","","","M","","M","0.0","","16","","6","","","","97.51","","","","-13","","NA"
"-96.06","50.18","PINAWA","503B1ER","2020-02-10 09:00","2020","02","10","09:00","-9.4","","","M","","M","0.0","","17","","4","","","","97.57","","","","-12","","NA"
"-96.06","50.18","PINAWA","503B1ER","2020-02-10 10:00","2020","02","10","10:00","-8.8","","","M","","M","0.0","","19","","2","","","","97.63","","","","-10","","NA"
"-96.06","50.18","PINAWA","503B1ER","2020-02-10 11:00","2020","02","10","11:00","-8.2","","","M","","M","0.0","","33","","3","","","","97.70","","","","-10","","NA"
"-96.06","50.18","PINAWA","503B1ER","2020-02-10 12:00","2020","02","10","12:00","-7.6","","","M","","M","0.2","","33","","8","","","","97.74","","","","-12","","NA"
"-96.06","50.18","PINAWA","503B1ER","2020-02-10 13:00","2020","02","10","13:00","-6.7","","","M","","M","0.2","","34","","9","","","","97.80","","","","-11","","NA"
"-96.06","50.18","PINAWA","503B1ER","2020-02-10 14:00","2020","02","10","14:00","-6.5","","","M","","M","0.0","","31","","18","","","","97.86","","","","-13","","NA"
"-96.06","50.18","PINAWA","503B1ER","2020-02-10 15:00","2020","02","10","15:00","-6.1","","","M","","M","0.0","","32","","16","","","","97.93","","","","-12","","NA"
"-96.06","50.18","PINAWA","503B1ER","2020-02-10 16:00","2020","02","10","16:00","-6.4","","","M","","M","0.0","","32","","18","","","","98.00","","","","-13","","NA"
"-96.06","50.18","PINAWA","503B1ER","2020-02-10 17:00","2020","02","10","17:00","-6.8","","","M","","M","0.0","","31","","19","","","","98.09","","","","-14","","NA"
"-96.06","50.18","PINAWA","503B1ER","2020-02-10 18:00","2020","02","10","18:00","-7.6","","","M","","M","0.0","","30","","17","","","","98.18","","","","-14","","NA"
"-96.06","50.18","PINAWA","503B1ER","2020-02-10 19:00","2020","02","10","19:00","-10.3","","","M","","M","0.0","","29","","12","","","","98.26","","","","-16","","NA"
"-96.06","50.18","PINAWA","503B1ER","2020-02-10 20:00","2020","02","10","20:00","-12.7","","","M","","M","0.0","","27","","5","","","","98.30","","","","-16","","NA"
"-96.06","50.18","PINAWA","503B1ER","2020-02-10 21:00","2020","02","10","21:00","-14.2","","","M","","M","0.0","","22","","4","","","","98.32","","","","-17","","NA"
"-96.06","50.18","PINAWA","503B1ER","2020-02-10 22:00","2020","02","10","22:00","-16.2","","","M","","M","0.0","","26","","3","","","","98.33","","","","-18","","NA"
"-96.06","50.18","PINAWA","503B1ER","2020-02-10 23:00","2020","02","10","23:00","-15.2","","","M","","M","0.2","","23","","4","","","","98.34","","","","-18","","NA"
"-96.06","50.18","PINAWA","503B1ER","2020-02-11 00:00","2020","02","11","00:00","-17.6","","","M","","M","0.0","","19","","1","","","","98.31","","","","-18","","NA"
"-96.06","50.18","PINAWA","503B1ER","2020-02-11 01:00","2020","02","11","01:00","-16.7","","","M","","M","0.0","","20","","4","","","","98.29","","","","-20","","NA"
"-96.06","50.18","PINAWA","503B1ER","2020-02-11 02:00","2020","02","11","02:00","-12.4","","","M","","M","0.0","","22","","5","","","","98.24","","","","-16","","NA"
"-96.06","50.18","PINAWA","503B1ER","2020-02-11 03:00","2020","02","11","03:00","-13.9","","","M","","M","0.0","","20","","5","","","","98.15","","","","-17","","NA"
"-96.06","50.18","PINAWA","503B1ER","2020-02-11 04:00","2020","02","11","04:00","-14.6","","","M","","M","0.0","","20","","4","","","","98.06","","","","-17","","NA"
"-96.06","50.18","PINAWA","503B1ER","2020-02-11 05:00","2020","02","11","05:00","-14.6","","","M","","M","0.0","","21","","4","","","","97.98","","","","-17","","NA"
"-96.06","50.18","PINAWA","503B1ER","2020-02-11 06:00","2020","02","11","06:00","-13.0","","","M","","M","0.0","","19","","4","","","","97.88","","","","-16","","NA"
"-96.06","50.18","PINAWA","503B1ER","2020-02-11 07:00","2020","02","11","07:00","-12.8","","","M","","M","0.0","","17","","4","","","","97.82","","","","-15","","NA"
"-96.06","50.18","PINAWA","503B1ER","2020-02-11 08:00","2020","02","11","08:00","-12.0","","","M","","M","0.0","","18","","4","","","","97.72","","","","-15","","NA"
"-96.06","50.18","PINAWA","503B1ER","2020-02-11 09:00","2020","02","11","09:00","-10.4","","","M","","M","0.0","","19","","5","","","","97.60","","","","-13","","NA"
"-96.06","50.18","PINAWA","503B1ER","2020-02-11 10:00","2020","02","11","10:00","-7.6","","","M","","M","0.0","","21","","9","","","","97.49","","","","-12","","NA"
"-96.06","50.18","PINAWA","503B1ER","2020-02-11 11:00","2020","02","11","11:00","-5.6","","","M","","M","0.0","","22","","10","","","","97.40","","","","-10","","NA"
"-96.06","50.18","PINAWA","503B1ER","2020-02-11 12:00","2020","02","11","12:00","-4.8","","","M","","M","0.0","","21","","11","","","","97.28","","","","-9","","NA"
"-96.06","50.18","PINAWA","503B1ER","2020-02-11 13:00","2020","02","11","13:00","-2.4","","","M","","M","0.0","","24","","15","","","","97.19","","","","-7","","NA"
"-96.06","50.18","PINAWA","503B1ER","2020-02-11 14:00","2020","02","11","14:00","-3.0","","","M","","M","0.0","","25","","17","","","","97.15","","","","-9","","NA"
"-96.06","50.18","PINAWA","503B1ER","2020-02-11 15:00","2020","02","11","15:00","-2.7","","","M","","M","0.0","","25","","14","","","","97.06","","","","-8","","NA"
"-96.06","50.18","PINAWA","503B1ER","2020-02-11 16:00","2020","02","11","16:00","-2.4","","","M","","M","0.0","","24","","12","","","","97.04","","","","-7","","NA"
"-96.06","50.18","PINAWA","503B1ER","2020-02-11 17:00","2020","02","11","17:00","-2.5","","","M","","M","0.0","","24","","11","","","","97.02","","","","-7","","NA"
"-96.06","50.18","PINAWA","503B1ER","2020-02-11 18:00","2020","02","11","18:00","-2.9","","","M","","M","0.0","","23","","10","","","","97.03","","","","-7","","NA"
"-96.06","50.18","PINAWA","503B1ER","2020-02-11 19:00","2020","02","11","19:00","-2.9","","","M","","M","0.0","","24","","8","","","","97.05","","","","-6","","NA"
"-96.06","50.18","PINAWA","503B1ER","2020-02-11 20:00","2020","02","11","20:00","-3.3","","","M","","M","0.0","","24","","6","","","","97.08","","","","-6","","NA"
"-96.06","50.18","PINAWA","503B1ER","2020-02-11 21:00","2020","02","11","21:00","-3.4","","","M","","M","0.0","","27","","7","","","","97.12","","","","-6","","NA"
"-96.06","50.18","PINAWA","503B1ER","2020-02-11 22:00","2020","02","11","22:00","-7.8","","","M","","M","0.0","","34","","15","","","","97.23","","","","-14","","NA"
"-96.06","50.18","PINAWA","503B1ER","2020-02-11 23:00","2020","02","11","23:00","-10.0","","","M","","M","0.4","","35","","21","","","","97.37","","","","-18","","NA"
"-96.06","50.18","PINAWA","503B1ER","2020-02-12 00:00","2020","02","12","00:00","-11.2","","","M","","M","0.2","","35","","21","","","","97.49","","","","-20","","NA"
"-96.06","50.18","PINAWA","503B1ER","2020-02-12 01:00","2020","02","12","01:00","-13.6","","","M","","M","0.0","","36","","21","","","","97.71","","","","-23","","NA"
"-96.06","50.18","PINAWA","503B1ER","2020-02-12 02:00","2020","02","12","02:00","-18.1","","","M","","M","0.0","","36","","22","","","","97.97","","","","-29","","NA"
"-96.06","50.18","PINAWA","503B1ER","2020-02-12 03:00","2020","02","12","03:00","-21.0","","","M","","M","0.2","","36","","18","","","","98.20","","","","-31","","NA"
"-96.06","50.18","PINAWA","503B1ER","2020-02-12 04:00","2020","02","12","04:00","-22.7","","","M","","M","0.0","","36","","18","","","","98.40","","","","-33","","NA"
"-96.06","50.18","PINAWA","503B1ER","2020-02-12 05:00","2020","02","12","05:00","-24.3","","","M","","M","0.0","","36","","15","","","","98.56","","","","-34","","NA"
"-96.06","50.18","PINAWA","503B1ER","2020-02-12 06:00","2020","02","12","06:00","-26.7","","","M","","M","0.0","","35","","19","","","","98.76","","","","-39","","NA"
"-96.06","50.18","PINAWA","503B1ER","2020-02-12 07:00","2020","02","12","07:00","-28.6","","","M","","M","0.0","","35","","19","","","","98.96","","","","-41","","NA"
"-96.06","50.18","PINAWA","503B1ER","2020-02-12 08:00","2020","02","12","08:00","-29.8","","","M","","M","0.0","","36","","14","","","","99.14","","","","-41","","NA"
"-96.06","50.18","PINAWA","503B1ER","2020-02-12 09:00","2020","02","12","09:00","-29.9","","","M","","M","0.0","","35","","16","","","","99.29","","","","-42","","NA"
"-96.06","50.18","PINAWA","503B1ER","2020-02-12 10:00","2020","02","12","10:00","-29.6","","","M","","M","0.0","","35","","14","","","","99.41","","","","-41","","NA"
"-96.06","50.18","PINAWA","503B1ER","2020-02-12 11:00","2020","02","12","11:00","-28.4","","","M","","M","0.0","","35","","13","","","","99.47","","","","-39","","NA"
"-96.06","50.18","PINAWA","503B1ER","2020-02-12 12:00","2020","02","12","12:00","-27.9","","","M","","M","0.0","","33","","16","","","","99.54","","","","-39","","NA"
"-96.06","50.18","PINAWA","503B1ER","2020-02-12 13:00","2020","02","12","13:00","-27.2","","","M","","M","0.0","","32","","20","","","","99.56","","","","-40","","NA"
"-96.06","50.18","PINAWA","503B1ER","2020-02-12 14:00","2020","02","12","14:00","-26.5","","","M","","M","0.0","","31","","16","","","","99.60","","","","-37","","NA"
"-96.06","50.18","PINAWA","503B1ER","2020-02-12 15:00","2020","02","12","15:00","-26.4","","","M","","M","0.0","","31","","18","","","","99.60","","","","-38","","NA"
"-96.06","50.18","PINAWA","503B1ER","2020-02-12 16:00","2020","02","12","16:00","-26.6","","","M","","M","0.0","","31","","18","","","","99.63","","","","-38","","NA"
"-96.06","50.18","PINAWA","503B1ER","2020-02-12 17:00","2020","02","12","17:00","-27.0","","","M","","M","0.0","","30","","15","","","","99.62","","","","-38","","NA"
"-96.06","50.18","PINAWA","503B1ER","2020-02-12 18:00","2020","02","12","18:00","-27.8","","","M","","M","0.0","","29","","9","","","","99.63","","","","-36","","NA"
"-96.06","50.18","PINAWA","503B1ER","2020-02-12 19:00","2020","02","12","19:00","-29.3","","","M","","M","0.2","","25","","4","","","","99.61","","","","-34","","NA"
"-96.06","50.18","PINAWA","503B1ER","2020-02-12 20:00","2020","02","12","20:00","-29.6","","","M","","M","0.0","","28","","5","","","","99.60","","","","-35","","NA"
"-96.06","50.18","PINAWA","503B1ER","2020-02-12 21:00","2020","02","12","21:00","-30.0","","","M","","M","0.0","","27","","5","","","","99.56","","","","-36","","NA"
"-96.06","50.18","PINAWA","503B1ER","2020-02-12 22:00","2020","02","12","22:00","-29.7","","","M","","M","0.0","","28","","6","","","","99.55","","","","-36","","NA"
"-96.06","50.18","PINAWA","503B1ER","2020-02-12 23:00","2020","02","12","23:00","-30.6","","","M","","M","0.0","","23","","3","","","","99.52","","","","-34","","NA"
"-96.06","50.18","PINAWA","503B1ER","2020-02-13 00:00","2020","02","13","00:00","-30.3","","","M","","M","0.0","","23","","5","","","","99.52","","","","-36","","NA"
"-96.06","50.18","PINAWA","503B1ER","2020-02-13 01:00","2020","02","13","01:00","-29.4","","","M","","M","0.0","","23","","5","","","","99.52","","","","-35","","NA"
"-96.06","50.18","PINAWA","503B1ER","2020-02-13 02:00","2020","02","13","02:00","-28.7","","","M","","M","0.0","","24","","3","","","","99.48","","","","-32","","NA"
"-96.06","50.18","PINAWA","503B1ER","2020-02-13 03:00","2020","02","13","03:00","-27.2","","","M","","M","0.0","","27","","7","","","","99.46","","","","-34","","NA"
"-96.06","50.18","PINAWA","503B1ER","2020-02-13 04:00","2020","02","13","04:00","-26.2","","","M","","M","0.0","","28","","8","","","","99.42","","","","-34","","NA"
"-96.06","50.18","PINAWA","503B1ER","2020-02-13 05:00","2020","02","13","05:00","-25.8","","","M","","M","0.0","","27","","9","","","","99.41","","","","-34","","NA"
"-96.06","50.18","PINAWA","503B1ER","2020-02-13 06:00","2020","02","13","06:00","-25.8","","","M","","M","0.0","","27","","6","","","","99.42","","","","-32","","NA"
"-96.06","50.18","PINAWA","503B1ER","2020-02-13 07:00","2020","02","13","07:00","-27.3","","","M","","M","0.0","","26","","5","","","","99.42","","","","-33","","NA"
"-96.06","50.18","PINAWA","503B1ER","2020-02-13 08:00","2020","02","13","08:00","-27.5","","","M","","M","0.0","","24","","5","","","","99.45","","","","-33","","NA"
"-96.06","50.18","PINAWA","503B1ER","2020-02-13 09:00","2020","02","13","09:00","-24.5","","","M","","M","0.0","","28","","9","","","","99.46","","","","-32","","NA"
"-96.06","50.18","PINAWA","503B1ER","2020-02-13 10:00","2020","02","13","10:00","-23.1","","","M","","M","0.0","","29","","9","","","","99.45","","","","-30","","NA"
"-96.06","50.18","PINAWA","503B1ER","2020-02-13 11:00","2020","02","13","11:00","-21.3","","","M","","M","0.0","","26","","7","","","","99.45","","","","-27","","NA"
"-96.06","50.18","PINAWA","503B1ER","2020-02-13 12:00","2020","02","13","12:00","-20.2","","","M","","M","0.0","","28","","12","","","","99.46","","","","-28","","NA"
"-96.06","50.18","PINAWA","503B1ER","2020-02-13 13:00","2020","02","13","13:00","-19.7","","","M","","M","0.0","","28","","12","","","","99.40","","","","-28","","NA"
"-96.06","50.18","PINAWA","503B1ER","2020-02-13 14:00","2020","02","13","14:00","-19.2","","","M","","M","0.0","","30","","14","","","","99.37","","","","-28","","NA"
"-96.06","50.18","PINAWA","503B1ER","2020-02-13 15:00","2020","02","13","15:00","-19.1","","","M","","M","0.0","","30","","12","","","","99.33","","","","-27","","NA"
"-96.06","50.18","PINAWA","503B1ER","2020-02-13 16:00","2020","02","13","16:00","-18.6","","","M","","M","0.0","","27","","8","","","","99.34","","","","-25","","NA"
"-96.06","50.18","PINAWA","503B1ER","2020-02-13 17:00","2020","02","13","17:00","-19.7","","","M","","M","0.0","","26","","7","","","","99.30","","","","-25","","NA"
"-96.06","50.18","PINAWA","503B1ER","2020-02-13 18:00","2020","02","13","18:00","-21.6","","","M","","M","0.0","","23","","4","","","","99.26","","","","-25","","NA"
"-96.06","50.18","PINAWA","503B1ER","2020-02-13 19:00","2020","02","13","19:00","-24.3","","","M","","M","0.0","","22","","1","","","","99.27","","","","-25","","NA"
"-96.06","50.18","PINAWA","503B1ER","2020-02-13 20:00","2020","02","13","20:00","-23.7","","","M","","M","0.0","","19","","4","","","","99.22","","","","-28","","NA"
"-96.06","50.18","PINAWA","503B1ER","2020-02-13 21:00","2020","02","13","21:00","-24.0","","","M","","M","0.0","","20","","3","","","","99.17","","","","-27","","NA"
"-96.06","50.18","PINAWA","503B1ER","2020-02-13 22:00","2020","02","13","22:00","-24.1","","","M","","M","0.0","","18","","5","","","","99.13","","","","-29","","NA"
"-96.06","50.18","PINAWA","503B1ER","2020-02-13 23:00","2020","02","13","23:00","-24.6","","","M","","M","0.0","","16","","7","","","","99.02","","","","-31","","NA"
"-96.06","50.18","PINAWA","503B1ER","2020-02-14 00:00","2020","02","14","00:00","-25.0","","","M","","M","0.0","","16","","7","","","","98.91","","","","-31","","NA"
"-96.06","50.18","PINAWA","503B1ER","2020-02-14 01:00","2020","02","14","01:00","-25.6","","","M","","M","0.0","","17","","8","","","","98.91","","","","-33","","NA"
"-96.06","50.18","PINAWA","503B1ER","2020-02-14 02:00","2020","02","14","02:00","-24.8","","","M","","M","0.0","","16","","10","","","","98.76","","","","-33","","NA"
"-96.06","50.18","PINAWA","503B1ER","2020-02-14 03:00","2020","02","14","03:00","-24.2","","","M","","M","0.0","","16","","13","","","","98.65","","","","-34","","NA"
"-96.06","50.18","PINAWA","503B1ER","2020-02-14 04:00","2020","02","14","04:00","-23.5","","","M","","M","0.0","","16","","14","","","","98.52","","","","-33","","NA"
"-96.06","50.18","PINAWA","503B1ER","2020-02-14 05:00","2020","02","14","05:00","-22.7","","","M","","M","0.0","","16","","13","","","","98.39","","","","-32","","NA"
"-96.06","50.18","PINAWA","503B1ER","2020-02-14 06:00","2020","02","14","06:00","-21.6","","","M","","M","0.0","","16","","16","","","","98.30","","","","-31","","NA"
"-96.06","50.18","PINAWA","503B1ER","2020-02-14 07:00","2020","02","14","07:00","-20.5","","","M","","M","0.0","","16","","16","","","","98.09","","","","-30","","NA"
"-96.06","50.18","PINAWA","503B1ER","2020-02-14 08:00","2020","02","14","08:00","-19.6","","","M","","M","0.0","","16","","17","","","","97.97","","","","-29","","NA"
"-96.06","50.18","PINAWA","503B1ER","2020-02-14 09:00","2020","02","14","09:00","-18.8","","","M","","M","0.0","","15","","19","","","","97.83","","","","-29","","NA"
"-96.06","50.18","PINAWA","503B1ER","2020-02-14 10:00","2020","02","14","10:00","-16.9","","","M","","M","0.0","","16","","20","","","","97.61","","","","-27","","NA"
"-96.06","50.18","PINAWA","503B1ER","2020-02-14 11:00","2020","02","14","11:00","-14.3","","","M","","M","0.0","","16","","23","","","","97.42","","","","-24","","NA"
"-96.06","50.18","PINAWA","503B1ER","2020-02-14 12:00","2020","02","14","12:00","-12.2","","","M","","M","0.0","","16","","16","","","","97.27","","","","-20","","NA"
"-96.06","50.18","PINAWA","503B1ER","2020-02-14 13:00","2020","02","14","13:00","-9.5","","","M","","M","0.0","","16","","21","","","","97.08","","","","-17","","NA"
"-96.06","50.18","PINAWA","503B1ER","2020-02-14 14:00","2020","02","14","14:00","-8.3","","","M","","M","0.0","","17","","17","","","","97.00","","","","-15","","NA"
"-96.06","50.18","PINAWA","503B1ER","2020-02-14 15:00","2020","02","14","15:00","-7.3","","","M","","M","0.0","","21","","15","","","","96.98","","","","-13","","NA"
"-96.06","50.18","PINAWA","503B1ER","2020-02-14 16:00","2020","02","14","16:00","-8.1","","","M","","M","0.0","","19","","15","","","","96.96","","","","-14","","NA"
"-96.06","50.18","PINAWA","503B1ER","2020-02-14 17:00","2020","02","14","17:00","-8.6","","","M","","M","0.0","","20","","11","","","","97.02","","","","-14","","NA"
"-96.06","50.18","PINAWA","503B1ER","2020-02-14 18:00","2020","02","14","18:00","-8.9","","","M","","M","0.0","","20","","9","","","","97.06","","","","-14","","NA"
"-96.06","50.18","PINAWA","503B1ER","2020-02-14 19:00","2020","02","14","19:00","-8.5","","","M","","M","0.0","","20","","8","","","","97.12","","","","-13","","NA"
"-96.06","50.18","PINAWA","503B1ER","2020-02-14 20:00","2020","02","14","20:00","-8.1","","","M","","M","0.0","","19","","8","","","","97.11","","","","-12","","NA"
"-96.06","50.18","PINAWA","503B1ER","2020-02-14 21:00","2020","02","14","21:00","-7.9","","","M","","M","0.0","","20","","4","","","","97.07","","","","-10","","NA"
"-96.06","50.18","PINAWA","503B1ER","2020-02-14 22:00","2020","02","14","22:00","-7.7","","","M","","M","0.0","","20","","4","","","","97.05","","","","-10","","NA"
"-96.06","50.18","PINAWA","503B1ER","2020-02-14 23:00","2020","02","14","23:00","-8.2","","","M","","M","0.0","","20","","3","","","","97.07","","","","-10","","NA"
"-96.06","50.18","PINAWA","503B1ER","2020-02-15 00:00","2020","02","15","00:00","-7.9","","","M","","M","0.0","","20","","3","","","","97.05","","","","-9","","NA"
"-96.06","50.18","PINAWA","503B1ER","2020-02-15 01:00","2020","02","15","01:00","-7.7","","","M","","M","0.0","","22","","2","","","","97.07","","","","-9","","NA"
"-96.06","50.18","PINAWA","503B1ER","2020-02-15 02:00","2020","02","15","02:00","-7.6","","","M","","M","0.0","","26","","3","","","","97.08","","","","-9","","NA"
"-96.06","50.18","PINAWA","503B1ER","2020-02-15 03:00","2020","02","15","03:00","-7.4","","","M","","M","0.0","","27","","3","","","","97.12","","","","-9","","NA"
"-96.06","50.18","PINAWA","503B1ER","2020-02-15 04:00","2020","02","15","04:00","-7.6","","","M","","M","0.0","","0","","1","","","","97.10","","","","-8","","NA"
"-96.06","50.18","PINAWA","503B1ER","2020-02-15 05:00","2020","02","15","05:00","-7.6","","","M","","M","0.0","","24","","4","","","","97.11","","","","-10","","NA"
"-96.06","50.18","PINAWA","503B1ER","2020-02-15 06:00","2020","02","15","06:00","-7.3","","","M","","M","0.0","","29","","14","","","","97.19","","","","-13","","NA"
"-96.06","50.18","PINAWA","503B1ER","2020-02-15 07:00","2020","02","15","07:00","-7.6","","","M","","M","0.0","","28","","9","","","","97.25","","","","-12","","NA"
"-96.06","50.18","PINAWA","503B1ER","2020-02-15 08:00","2020","02","15","08:00","-7.7","","","M","","M","0.0","","28","","9","","","","97.26","","","","-12","","NA"
"-96.06","50.18","PINAWA","503B1ER","2020-02-15 09:00","2020","02","15","09:00","-11.9","","","M","","M","0.0","","33","","20","","","","97.38","","","","-20","","NA"
"-96.06","50.18","PINAWA","503B1ER","2020-02-15 10:00","2020","02","15","10:00","-13.6","","","M","","M","0.0","","34","","16","","","","97.53","","","","-21","","NA"
"-96.06","50.18","PINAWA","503B1ER","2020-02-15 11:00","2020","02","15","11:00","-14.3","","","M","","M","0.0","","32","","23","","","","97.64","","","","-24","","NA"
"-96.06","50.18","PINAWA","503B1ER","2020-02-15 12:00","2020","02","15","12:00","-15.5","","","M","","M","0.0","","34","","15","","","","97.73","","","","-24","","NA"
"-96.06","50.18","PINAWA","503B1ER","2020-02-15 13:00","2020","02","15","13:00","-16.7","","","M","","M","0.0","","31","","29","","","","97.81","","","","-28","","NA"
"-96.06","50.18","PINAWA","503B1ER","2020-02-15 14:00","2020","02","15","14:00","-16.7","","","M","","M","0.0","","32","","26","","","","97.85","","","","-28","","NA"
"-96.06","50.18","PINAWA","503B1ER","2020-02-15 15:00","2020","02","15","15:00","-17.0","","","M","","M","0.0","","32","","21","","","","97.93","","","","-27","","NA"
"-96.06","50.18","PINAWA","503B1ER","2020-02-15 16:00","2020","02","15","16:00","-17.3","","","M","","M","0.0","","33","","18","","","","98.01","","","","-27","","NA"
"-96.06","50.18","PINAWA","503B1ER","2020-02-15 17:00","2020","02","15","17:00","-18.1","","","M","","M","0.0","","32","","17","","","","98.10","","","","-27","","NA"
"-96.06","50.18","PINAWA","503B1ER","2020-02-15 18:00","2020","02","15","18:00","-19.3","","","M","","M","0.0","","31","","12","","","","98.20","","","","-27","","NA"
"-96.06","50.18","PINAWA","503B1ER","2020-02-15 19:00","2020","02","15","19:00","-20.7","","","M","","M","0.0","","28","","6","","","","98.27","","","","-26","","NA"
"-96.06","50.18","PINAWA","503B1ER","2020-02-15 20:00","2020","02","15","20:00","-21.7","","","M","","M","0.0","","28","","7","","","","98.36","","","","-28","","NA"
"-96.06","50.18","PINAWA","503B1ER","2020-02-15 21:00","2020","02","15","21:00","-22.2","","","M","","M","0.0","","28","","7","","","","98.43","","","","-28","","NA"
"-96.06","50.18","PINAWA","503B1ER","2020-02-15 22:00","2020","02","15","22:00","-23.4","","","M","","M","0.0","","27","","5","","","","98.49","","","","-28","","NA"
"-96.06","50.18","PINAWA","503B1ER","2020-02-15 23:00","2020","02","15","23:00","-25.7","","","M","","M","0.0","","27","","2","","","","98.54","","","","-28","","NA"
"-96.06","50.18","PINAWA","503B1ER","2020-02-16 00:00","2020","02","16","00:00","-27.5","","","M","","M","0.0","","24","","1","","","","98.56","","","","-29","","NA"
"-96.06","50.18","PINAWA","503B1ER","2020-02-16 01:00","2020","02","16","01:00","-28.9","","","M","","M","0.0","","25","","1","","","","98.58","","","","-30","","NA"
"-96.06","50.18","PINAWA","503B1ER","2020-02-16 02:00","2020","02","16","02:00","-30.1","","","M","","M","0.0","","","","0","","","","98.65","","","","","","NA"
"-96.06","50.18","PINAWA","503B1ER","2020-02-16 03:00","2020","02","16","03:00","-31.4","","","M","","M","0.0","","18","","2","","","","98.70","","","","-34","","NA"
"-96.06","50.18","PINAWA","503B1ER","2020-02-16 04:00","2020","02","16","04:00","-31.2","","","M","","M","0.0","","","","0","","","","98.68","","","","","","NA"
"-96.06","50.18","PINAWA","503B1ER","2020-02-16 05:00","2020","02","16","05:00","-32.2","","","M","","M","0.0","","","","0","","","","98.70","","","","","","NA"
"-96.06","50.18","PINAWA","503B1ER","2020-02-16 06:00","2020","02","16","06:00","-32.8","","","M","","M","0.0","","","","0","","","","98.69","","","","","","NA"
"-96.06","50.18","PINAWA","503B1ER","2020-02-16 07:00","2020","02","16","07:00","-32.8","","","M","","M","0.0","","18","","1","","","","98.69","","","","-34","","NA"
"-96.06","50.18","PINAWA","503B1ER","2020-02-16 08:00","2020","02","16","08:00","-32.6","","","M","","M","0.0","","12","","3","","","","98.72","","","","-36","","NA"
"-96.06","50.18","PINAWA","503B1ER","2020-02-16 09:00","2020","02","16","09:00","-28.6","","","M","","M","0.0","","18","","1","","","","98.74","","","","-30","","NA"
"-96.06","50.18","PINAWA","503B1ER","2020-02-16 10:00","2020","02","16","10:00","-22.3","","","M","","M","0.0","","16","","3","","","","98.73","","","","-25","","NA"
"-96.06","50.18","PINAWA","503B1ER","2020-02-16 11:00","2020","02","16","11:00","-17.7","","","M","","M","0.0","","14","","6","","","","98.72","","","","-22","","NA"
"-96.06","50.18","PINAWA","503B1ER","2020-02-16 12:00","2020","02","16","12:00","-15.6","","","M","","M","0.0","","16","","8","","","","98.68","","","","-21","","NA"
"-96.06","50.18","PINAWA","503B1ER","2020-02-16 13:00","2020","02","16","13:00","-14.3","","","M","","M","0.0","","16","","11","","","","98.57","","","","-21","","NA"
"-96.06","50.18","PINAWA","503B1ER","2020-02-16 14:00","2020","02","16","14:00","-13.3","","","M","","M","0.0","","16","","10","","","","98.51","","","","-19","","NA"
"-96.06","50.18","PINAWA","503B1ER","2020-02-16 15:00","2020","02","16","15:00","-11.9","","","M","","M","0.0","","14","","7","","","","98.44","","","","-16","","NA"
"-96.06","50.18","PINAWA","503B1ER","2020-02-16 16:00","2020","02","16","16:00","-11.2","","","M","","M","0.0","","15","","11","","","","98.41","","","","-17","","NA"
"-96.06","50.18","PINAWA","503B1ER","2020-02-16 17:00","2020","02","16","17:00","-11.6","","","M","","M","0.0","","14","","7","","","","98.36","","","","-16","","NA"
"-96.06","50.18","PINAWA","503B1ER","2020-02-16 18:00","2020","02","16","18:00","-11.4","","","M","","M","0.0","","15","","7","","","","98.34","","","","-16","","NA"
"-96.06","50.18","PINAWA","503B1ER","2020-02-16 19:00","2020","02","16","19:00","-11.6","","","M","","M","0.0","","16","","8","","","","98.34","","","","-16","","NA"
"-96.06","50.18","PINAWA","503B1ER","2020-02-16 20:00","2020","02","16","20:00","-11.8","","","M","","M","0.0","","16","","10","","","","98.30","","","","-17","","NA"
"-96.06","50.18","PINAWA","503B1ER","2020-02-16 21:00","2020","02","16","21:00","-12.6","","","M","","M","0.0","","15","","10","","","","98.27","","","","-18","","NA"
"-96.06","50.18","PINAWA","503B1ER","2020-02-16 22:00","2020","02","16","22:00","-12.7","","","M","","M","0.0","","14","","8","","","","98.21","","","","-18","","NA"
"-96.06","50.18","PINAWA","503B1ER","2020-02-16 23:00","2020","02","16","23:00","-12.5","","","M","","M","0.0","","16","","12","","","","98.18","","","","-19","","NA"
"-96.06","50.18","PINAWA","503B1ER","2020-02-17 00:00","2020","02","17","00:00","-12.3","","","M","","M","0.0","","15","","13","","","","98.13","","","","-19","","NA"
"-96.06","50.18","PINAWA","503B1ER","2020-02-17 01:00","2020","02","17","01:00","-12.1","","","M","","M","0.0","","16","","9","","","","98.10","","","","-17","","NA"
"-96.06","50.18","PINAWA","503B1ER","2020-02-17 02:00","2020","02","17","02:00","-11.5","","","M","","M","0.0","","16","","10","","","","98.07","","","","-17","","NA"
"-96.06","50.18","PINAWA","503B1ER","2020-02-17 03:00","2020","02","17","03:00","-11.7","","","M","","M","0.0","","16","","9","","","","98.03","","","","-17","","NA"
"-96.06","50.18","PINAWA","503B1ER","2020-02-17 04:00","2020","02","17","04:00","-11.9","","","M","","M","0.0","","17","","6","","","","98.03","","","","-16","","NA"
"-96.06","50.18","PINAWA","503B1ER","2020-02-17 05:00","2020","02","17","05:00","-11.9","","","M","","M","0.0","","17","","6","","","","98.02","","","","-16","","NA"
"-96.06","50.18","PINAWA","503B1ER","2020-02-17 06:00","2020","02","17","06:00","-11.8","","","M","","M","0.3","","21","","1","","","","98.07","","","","-12","","NA"
"-96.06","50.18","PINAWA","503B1ER","2020-02-17 07:00","2020","02","17","07:00","-11.8","","","M","","M","0.0","","0","","1","","","","98.07","","","","-12","","NA"
"-96.06","50.18","PINAWA","503B1ER","2020-02-17 08:00","2020","02","17","08:00","-11.6","","","M","","M","0.0","","18","","2","","","","98.08","","","","-13","","NA"
"-96.06","50.18","PINAWA","503B1ER","2020-02-17 09:00","2020","02","17","09:00","-11.0","","","M","","M","0.0","","30","","4","","","","98.14","","","","-13","","NA"
"-96.06","50.18","PINAWA","503B1ER","2020-02-17 10:00","2020","02","17","10:00","-10.7","","","M","","M","0.0","","31","","11","","","","98.18","","","","-16","","NA"
"-96.06","50.18","PINAWA","503B1ER","2020-02-17 11:00","2020","02","17","11:00","-10.4","","","M","","M","0.0","","32","","10","","","","98.22","","","","-16","","NA"
"-96.06","50.18","PINAWA","503B1ER","2020-02-17 12:00","2020","02","17","12:00","-10.6","","","M","","M","0.0","","32","","12","","","","98.29","","","","-17","","NA"
"-96.06","50.18","PINAWA","503B1ER","2020-02-17 13:00","2020","02","17","13:00","-10.5","","","M","","M","0.0","","33","","13","","","","98.29","","","","-17","","NA"
"-96.06","50.18","PINAWA","503B1ER","2020-02-17 14:00","2020","02","17","14:00","-10.1","","","M","","M","0.0","","32","","11","","","","98.30","","","","-16","","NA"
"-96.06","50.18","PINAWA","503B1ER","2020-02-17 15:00","2020","02","17","15:00","-9.9","","","M","","M","0.0","","32","","13","","","","98.35","","","","-16","","NA"
"-96.06","50.18","PINAWA","503B1ER","2020-02-17 16:00","2020","02","17","16:00","-10.1","","","M","","M","0.0","","33","","10","","","","98.40","","","","-15","","NA"
"-96.06","50.18","PINAWA","503B1ER","2020-02-17 17:00","2020","02","17","17:00","-10.9","","","M","","M","0.0","","32","","12","","","","98.44","","","","-17","","NA"
"-96.06","50.18","PINAWA","503B1ER","2020-02-17 18:00","2020","02","17","18:00","-11.9","","","M","","M","0.0","","30","","8","","","","98.51","","","","-17","","NA"
"-96.06","50.18","PINAWA","503B1ER","2020-02-17 19:00","2020","02","17","19:00","-12.1","","","M","","M","0.0","","32","","11","","","","98.57","","","","-18","","NA"
"-96.06","50.18","PINAWA","503B1ER","2020-02-17 20:00","2020","02","17","20:00","-12.1","","","M","","M","0.0","","32","","12","","","","98.61","","","","-18","","NA"
"-96.06","50.18","PINAWA","503B1ER","2020-02-17 21:00","2020","02","17","21:00","-13.1","","","M","","M","0.0","","33","","12","","","","98.65","","","","-20","","NA"
"-96.06","50.18","PINAWA","503B1ER","2020-02-17 22:00","2020","02","17","22:00","-13.6","","","M","","M","0.0","","34","","11","","","","98.69","","","","-20","","NA"
"-96.06","50.18","PINAWA","503B1ER","2020-02-17 23:00","2020","02","17","23:00","-14.0","","","M","","M","0.0","","33","","11","","","","98.74","","","","-20","","NA"
"-96.06","50.18","PINAWA","503B1ER","2020-02-18 00:00","2020","02","18","00:00","-14.6","","","M","","M","0.0","","32","","18","","","","98.79","","","","-23","","NA"
"-96.06","50.18","PINAWA","503B1ER","2020-02-18 01:00","2020","02","18","01:00","-14.8","","","M","","M","0.0","","34","","9","","","","98.79","","","","-21","","NA"
"-96.06","50.18","PINAWA","503B1ER","2020-02-18 02:00","2020","02","18","02:00","-15.0","","","M","","M","0.0","","33","","12","","","","98.81","","","","-22","","NA"
"-96.06","50.18","PINAWA","503B1ER","2020-02-18 03:00","2020","02","18","03:00","-15.4","","","M","","M","0.2","","33","","13","","","","98.86","","","","-23","","NA"
"-96.06","50.18","PINAWA","503B1ER","2020-02-18 04:00","2020","02","18","04:00","-15.8","","","M","","M","0.2","","33","","13","","","","98.91","","","","-23","","NA"
"-96.06","50.18","PINAWA","503B1ER","2020-02-18 05:00","2020","02","18","05:00","-16.0","","","M","","M","0.0","","32","","16","","","","98.98","","","","-24","","NA"
"-96.06","50.18","PINAWA","503B1ER","2020-02-18 06:00","2020","02","18","06:00","-16.3","","","M","","M","0.0","","33","","11","","","","99.07","","","","-23","","NA"
"-96.06","50.18","PINAWA","503B1ER","2020-02-18 07:00","2020","02","18","07:00","-17.9","","","M","","M","0.0","","32","","17","","","","99.16","","","","-27","","NA"
"-96.06","50.18","PINAWA","503B1ER","2020-02-18 08:00","2020","02","18","08:00","-19.1","","","M","","M","0.0","","32","","15","","","","99.26","","","","-28","","NA"
"-96.06","50.18","PINAWA","503B1ER","2020-02-18 09:00","2020","02","18","09:00","-19.9","","","M","","M","0.0","","33","","18","","","","99.39","","","","-30","","NA"
"-96.06","50.18","PINAWA","503B1ER","2020-02-18 10:00","2020","02","18","10:00","-20.1","","","M","","M","0.0","","32","","24","","","","99.48","","","","-32","","NA"
"-96.06","50.18","PINAWA","503B1ER","2020-02-18 11:00","2020","02","18","11:00","-19.8","","","M","","M","0.0","","32","","16","","","","99.52","","","","-29","","NA"
"-96.06","50.18","PINAWA","503B1ER","2020-02-18 12:00","2020","02","18","12:00","-19.4","","","M","","M","0.0","","32","","21","","","","99.55","","","","-30","","NA"
"-96.06","50.18","PINAWA","503B1ER","2020-02-18 13:00","2020","02","18","13:00","-19.4","","","M","","M","0.0","","31","","20","","","","99.57","","","","-30","","NA"
"-96.06","50.18","PINAWA","503B1ER","2020-02-18 14:00","2020","02","18","14:00","-19.1","","","M","","M","0.0","","30","","19","","","","99.60","","","","-29","","NA"
"-96.06","50.18","PINAWA","503B1ER","2020-02-18 15:00","2020","02","18","15:00","-19.1","","","M","","M","0.0","","30","","21","","","","99.63","","","","-30","","NA"
"-96.06","50.18","PINAWA","503B1ER","2020-02-18 16:00","2020","02","18","16:00","-18.8","","","M","","M","0.0","","31","","18","","","","99.65","","","","-28","","NA"
"-96.06","50.18","PINAWA","503B1ER","2020-02-18 17:00","2020","02","18","17:00","-18.9","","","M","","M","0.0","","29","","15","","","","99.67","","","","-28","","NA"
"-96.06","50.18","PINAWA","503B1ER","2020-02-18 18:00","2020","02","18","18:00","-20.2","","","M","","M","0.0","","29","","10","","","","99.74","","","","-27","","NA"
"-96.06","50.18","PINAWA","503B1ER","2020-02-18 19:00","2020","02","18","19:00","-22.1","","","M","","M","0.2","","26","","3","","","","99.79","","","","-25","","NA"
"-96.06","50.18","PINAWA","503B1ER","2020-02-18 20:00","2020","02","18","20:00","-22.1","","","M","","M","0.0","","29","","8","","","","99.80","","","","-29","","NA"
"-96.06","50.18","PINAWA","503B1ER","2020-02-18 21:00","2020","02","18","21:00","-22.4","","","M","","M","0.0","","28","","9","","","","99.83","","","","-30","","NA"
"-96.06","50.18","PINAWA","503B1ER","2020-02-18 22:00","2020","02","18","22:00","-24.6","","","M","","M","0.0","","27","","5","","","","99.91","","","","-29","","NA"
"-96.06","50.18","PINAWA","503B1ER","2020-02-18 23:00","2020","02","18","23:00","-26.1","","","M","","M","0.0","","28","","4","","","","99.96","","","","-30","","NA"
"-96.06","50.18","PINAWA","503B1ER","2020-02-19 00:00","2020","02","19","00:00","-26.7","","","M","","M","0.0","","0","","1","","","","100.00","","","","-28","","NA"
"-96.06","50.18","PINAWA","503B1ER","2020-02-19 01:00","2020","02","19","01:00","-26.2","","","M","","M","0.0","","25","","3","","","","100.06","","","","-29","","NA"
"-96.06","50.18","PINAWA","503B1ER","2020-02-19 02:00","2020","02","19","02:00","-26.6","","","M","","M","0.0","","27","","2","","","","100.08","","","","-29","","NA"
"-96.06","50.18","PINAWA","503B1ER","2020-02-19 03:00","2020","02","19","03:00","-26.7","","","M","","M","0.0","","23","","2","","","","100.14","","","","-29","","NA"
"-96.06","50.18","PINAWA","503B1ER","2020-02-19 04:00","2020","02","19","04:00","-27.3","","","M","","M","0.0","","26","","4","","","","100.16","","","","-32","","NA"
"-96.06","50.18","PINAWA","503B1ER","2020-02-19 05:00","2020","02","19","05:00","-26.8","","","M","","M","0.0","","25","","4","","","","100.20","","","","-31","","NA"
"-96.06","50.18","PINAWA","503B1ER","2020-02-19 06:00","2020","02","19","06:00","-26.7","","","M","","M","0.0","","26","","2","","","","100.25","","","","-29","","NA"
"-96.06","50.18","PINAWA","503B1ER","2020-02-19 07:00","2020","02","19","07:00","-28.2","","","M","","M","0.0","","27","","2","","","","100.28","","","","-30","","NA"
"-96.06","50.18","PINAWA","503B1ER","2020-02-19 08:00","2020","02","19","08:00","-27.5","","","M","","M","0.0","","27","","2","","","","100.34","","","","-30","","NA"
"-96.06","50.18","PINAWA","503B1ER","2020-02-19 09:00","2020","02","19","09:00","-24.8","","","M","","M","0.0","","28","","5","","","","100.46","","","","-30","","NA"
"-96.06","50.18","PINAWA","503B1ER","2020-02-19 10:00","2020","02","19","10:00","-22.7","","","M","","M","0.0","","32","","6","","","","100.50","","","","-28","","NA"
"-96.06","50.18","PINAWA","503B1ER","2020-02-19 11:00","2020","02","19","11:00","-21.0","","","M","","M","0.0","","33","","5","","","","100.55","","","","-25","","NA"
"-96.06","50.18","PINAWA","503B1ER","2020-02-19 12:00","2020","02","19","12:00","-19.2","","","M","","M","0.0","","35","","8","","","","100.57","","","","-25","","NA"
"-96.06","50.18","PINAWA","503B1ER","2020-02-19 13:00","2020","02","19","13:00","-18.3","","","M","","M","0.0","","33","","12","","","","100.53","","","","-26","","NA"
"-96.06","50.18","PINAWA","503B1ER","2020-02-19 14:00","2020","02","19","14:00","-17.2","","","M","","M","0.0","","30","","6","","","","100.48","","","","-22","","NA"
"-96.06","50.18","PINAWA","503B1ER","2020-02-19 15:00","2020","02","19","15:00","-17.7","","","M","","M","0.0","","30","","10","","","","100.51","","","","-24","","NA"
"-96.06","50.18","PINAWA","503B1ER","2020-02-19 16:00","2020","02","19","16:00","-17.0","","","M","","M","0.0","","28","","8","","","","100.51","","","","-23","","NA"
"-96.06","50.18","PINAWA","503B1ER","2020-02-19 17:00","2020","02","19","17:00","-17.9","","","M","","M","0.0","","27","","8","","","","100.53","","","","-24","","NA"
"-96.06","50.18","PINAWA","503B1ER","2020-02-19 18:00","2020","02","19","18:00","-19.6","","","M","","M","0.0","","24","","4","","","","100.51","","","","-23","","NA"
"-96.06","50.18","PINAWA","503B1ER","2020-02-19 19:00","2020","02","19","19:00","-22.5","","","M","","M","0.0","","20","","2","","","","100.50","","","","-24","","NA"
"-96.06","50.18","PINAWA","503B1ER","2020-02-19 20:00","2020","02","19","20:00","-24.6","","","M","","M","0.0","","19","","3","","","","100.45","","","","-28","","NA"
"-96.06","50.18","PINAWA","503B1ER","2020-02-19 21:00","2020","02","19","21:00","-22.7","","","M","","M","0.0","","20","","4","","","","100.39","","","","-26","","NA"
"-96.06","50.18","PINAWA","503B1ER","2020-02-19 22:00","2020","02","19","22:00","-22.6","","","M","","M","0.0","","19","","5","","","","100.34","","","","-27","","NA"
"-96.06","50.18","PINAWA","503B1ER","2020-02-19 23:00","2020","02","19","23:00","-22.5","","","M","","M","0.0","","19","","5","","","","100.34","","","","-27","","NA"
"-96.06","50.18","PINAWA","503B1ER","2020-02-20 00:00","2020","02","20","00:00","-22.4","","","M","","M","0.0","","20","","5","","","","100.28","","","","-27","","NA"
"-96.06","50.18","PINAWA","503B1ER","2020-02-20 01:00","2020","02","20","01:00","-22.4","","","M","","M","0.0","","18","","7","","","","100.16","","","","-28","","NA"
"-96.06","50.18","PINAWA","503B1ER","2020-02-20 02:00","2020","02","20","02:00","-22.1","","","M","","M","0.0","","18","","7","","","","100.10","","","","-28","","NA"
"-96.06","50.18","PINAWA","503B1ER","2020-02-20 03:00","2020","02","20","03:00","-20.8","","","M","","M","0.0","","19","","7","","","","100.04","","","","-27","","NA"
"-96.06","50.18","PINAWA","503B1ER","2020-02-20 04:00","2020","02","20","04:00","-20.2","","","M","","M","0.0","","19","","7","","","","99.91","","","","-26","","NA"
"-96.06","50.18","PINAWA","503B1ER","2020-02-20 05:00","2020","02","20","05:00","-19.2","","","M","","M","0.0","","21","","10","","","","99.77","","","","-26","","NA"
"-96.06","50.18","PINAWA","503B1ER","2020-02-20 06:00","2020","02","20","06:00","-18.7","","","M","","M","0.0","","21","","9","","","","99.69","","","","-25","","NA"
"-96.06","50.18","PINAWA","503B1ER","2020-02-20 07:00","2020","02","20","07:00","-19.3","","","M","","M","0.0","","19","","6","","","","99.63","","","","-24","","NA"
"-96.06","50.18","PINAWA","503B1ER","2020-02-20 08:00","2020","02","20","08:00","-18.9","","","M","","M","0.0","","18","","7","","","","99.61","","","","-24","","NA"
"-96.06","50.18","PINAWA","503B1ER","2020-02-20 09:00","2020","02","20","09:00","-17.0","","","M","","M","0.0","","18","","8","","","","99.52","","","","-23","","NA"
"-96.06","50.18","PINAWA","503B1ER","2020-02-20 10:00","2020","02","20","10:00","-13.2","","","M","","M","0.0","","20","","9","","","","99.49","","","","-19","","NA"
"-96.06","50.18","PINAWA","503B1ER","2020-02-20 11:00","2020","02","20","11:00","-10.3","","","M","","M","0.0","","20","","10","","","","99.40","","","","-16","","NA"
"-96.06","50.18","PINAWA","503B1ER","2020-02-20 12:00","2020","02","20","12:00","-8.5","","","M","","M","0.0","","21","","11","","","","99.33","","","","-14","","NA"
"-96.06","50.18","PINAWA","503B1ER","2020-02-20 13:00","2020","02","20","13:00","-6.9","","","M","","M","0.0","","23","","11","","","","99.27","","","","-12","","NA"
"-96.06","50.18","PINAWA","503B1ER","2020-02-20 14:00","2020","02","20","14:00","-6.3","","","M","","M","0.0","","21","","12","","","","99.18","","","","-11","","NA"
"-96.06","50.18","PINAWA","503B1ER","2020-02-20 15:00","2020","02","20","15:00","-5.8","","","M","","M","0.0","","21","","11","","","","99.13","","","","-11","","NA"
"-96.06","50.18","PINAWA","503B1ER","2020-02-20 16:00","2020","02","20","16:00","-5.6","","","M","","M","0.0","","21","","10","","","","99.07","","","","-10","","NA"
"-96.06","50.18","PINAWA","503B1ER","2020-02-20 17:00","2020","02","20","17:00","-6.2","","","M","","M","0.0","","19","","9","","","","99.01","","","","-10","","NA"
"-96.06","50.18","PINAWA","503B1ER","2020-02-20 18:00","2020","02","20","18:00","-7.3","","","M","","M","0.0","","20","","9","","","","98.92","","","","-12","","NA"
"-96.06","50.18","PINAWA","503B1ER","2020-02-20 19:00","2020","02","20","19:00","-8.2","","","M","","M","0.0","","18","","8","","","","98.86","","","","-12","","NA"
"-96.06","50.18","PINAWA","503B1ER","2020-02-20 20:00","2020","02","20","20:00","-8.4","","","M","","M","0.0","","18","","9","","","","98.75","","","","-13","","NA"
"-96.06","50.18","PINAWA","503B1ER","2020-02-20 21:00","2020","02","20","21:00","-7.9","","","M","","M","0.0","","18","","9","","","","98.65","","","","-12","","NA"
"-96.06","50.18","PINAWA","503B1ER","2020-02-20 22:00","2020","02","20","22:00","-7.5","","","M","","M","0.0","","18","","10","","","","98.53","","","","-12","","NA"
"-96.06","50.18","PINAWA","503B1ER","2020-02-20 23:00","2020","02","20","23:00","-7.7","","","M","","M","0.0","","19","","9","","","","98.41","","","","-12","","NA"
"-96.06","50.18","PINAWA","503B1ER","2020-02-21 00:00","2020","02","21","00:00","-7.2","","","M","","M","0.0","","19","","9","","","","98.28","","","","-12","","NA"
"-96.06","50.18","PINAWA","503B1ER","2020-02-21 01:00","2020","02","21","01:00","-7.1","","","M","","M","0.0","","18","","10","","","","98.09","","","","-12","","NA"
"-96.06","50.18","PINAWA","503B1ER","2020-02-21 02:00","2020","02","21","02:00","-6.2","","","M","","M","0.0","","20","","9","","","","97.93","","","","-10","","NA"
"-96.06","50.18","PINAWA","503B1ER","2020-02-21 03:00","2020","02","21","03:00","-6.1","","","M","","M","0.0","","20","","10","","","","97.82","","","","-11","","NA"
"-96.06","50.18","PINAWA","503B1ER","2020-02-21 04:00","2020","02","21","04:00","-6.2","","","M","","M","0.0","","21","","10","","","","97.74","","","","-11","","NA"
"-96.06","50.18","PINAWA","503B1ER","2020-02-21 05:00","2020","02","21","05:00","-6.9","","","M","","M","0.0","","22","","8","","","","97.69","","","","-11","","NA"
"-96.06","50.18","PINAWA","503B1ER","2020-02-21 06:00","2020","02","21","06:00","-6.2","","","M","","M","0.0","","23","","7","","","","97.68","","","","-10","","NA"
"-96.06","50.18","PINAWA","503B1ER","2020-02-21 07:00","2020","02","21","07:00","-6.2","","","M","","M","0.0","","24","","8","","","","97.70","","","","-10","","NA"
"-96.06","50.18","PINAWA","503B1ER","2020-02-21 08:00","2020","02","21","08:00","-6.4","","","M","","M","0.0","","24","","7","","","","97.78","","","","-10","","NA"
"-96.06","50.18","PINAWA","503B1ER","2020-02-21 09:00","2020","02","21","09:00","-4.7","","","M","","M","0.0","","26","","11","","","","97.86","","","","-9","","NA"
"-96.06","50.18","PINAWA","503B1ER","2020-02-21 10:00","2020","02","21","10:00","-2.8","","","M","","M","0.0","","28","","11","","","","97.95","","","","-7","","NA"
"-96.06","50.18","PINAWA","503B1ER","2020-02-21 11:00","2020","02","21","11:00","-1.6","","","M","","M","0.0","","28","","10","","","","98.01","","","","-5","","NA"
"-96.06","50.18","PINAWA","503B1ER","2020-02-21 12:00","2020","02","21","12:00","-0.6","","","M","","M","0.0","","29","","15","","","","98.05","","","","-5","","NA"
"-96.06","50.18","PINAWA","503B1ER","2020-02-21 13:00","2020","02","21","13:00","1.7","","","M","","M","0.0","","25","","7","","","","97.99","","","","","","NA"
"-96.06","50.18","PINAWA","503B1ER","2020-02-21 14:00","2020","02","21","14:00","2.2","","","M","","M","0.0","","24","","8","","","","97.97","","","","","","NA"
"-96.06","50.18","PINAWA","503B1ER","2020-02-21 15:00","2020","02","21","15:00","1.7","","","M","","M","0.0","","23","","8","","","","97.98","","","","","","NA"
"-96.06","50.18","PINAWA","503B1ER","2020-02-21 16:00","2020","02","21","16:00","1.5","","","M","","M","0.0","","23","","10","","","","97.95","","","","","","NA"
"-96.06","50.18","PINAWA","503B1ER","2020-02-21 17:00","2020","02","21","17:00","1.4","","","M","","M","0.0","","23","","6","","","","97.90","","","","","","NA"
"-96.06","50.18","PINAWA","503B1ER","2020-02-21 18:00","2020","02","21","18:00","-0.4","","","M","","M","0.0","","21","","5","","","","97.88","","","","-2","","NA"
"-96.06","50.18","PINAWA","503B1ER","2020-02-21 19:00","2020","02","21","19:00","-1.5","","","M","","M","0.0","","22","","6","","","","97.91","","","","-4","","NA"
"-96.06","50.18","PINAWA","503B1ER","2020-02-21 20:00","2020","02","21","20:00","-1.7","","","M","","M","0.0","","22","","8","","","","97.90","","","","-5","","NA"
"-96.06","50.18","PINAWA","503B1ER","2020-02-21 21:00","2020","02","21","21:00","-1.4","","","M","","M","0.0","","22","","6","","","","97.85","","","","-4","","NA"
"-96.06","50.18","PINAWA","503B1ER","2020-02-21 22:00","2020","02","21","22:00","-1.1","","","M","","M","0.0","","22","","6","","","","97.82","","","","-3","","NA"
"-96.06","50.18","PINAWA","503B1ER","2020-02-21 23:00","2020","02","21","23:00","-2.0","","","M","","M","0.0","","20","","7","","","","97.78","","","","-5","","NA"
"-96.06","50.18","PINAWA","503B1ER","2020-02-22 00:00","2020","02","22","00:00","-2.6","","","M","","M","0.0","","19","","6","","","","97.72","","","","-5","","NA"
"-96.06","50.18","PINAWA","503B1ER","2020-02-22 01:00","2020","02","22","01:00","-3.0","","","M","","M","0.0","","16","","6","","","","97.62","","","","-5","","NA"
"-96.06","50.18","PINAWA","503B1ER","2020-02-22 02:00","2020","02","22","02:00","-4.1","","","M","","M","0.0","","16","","8","","","","97.57","","","","-8","","NA"
"-96.06","50.18","PINAWA","503B1ER","2020-02-22 03:00","2020","02","22","03:00","-3.5","","","M","","M","0.0","","18","","7","","","","97.49","","","","-6","","NA"
"-96.06","50.18","PINAWA","503B1ER","2020-02-22 04:00","2020","02","22","04:00","-3.7","","","M","","M","0.0","","20","","6","","","","97.41","","","","-6","","NA"
"-96.06","50.18","PINAWA","503B1ER","2020-02-22 05:00","2020","02","22","05:00","-3.8","","","M","","M","0.0","","19","","5","","","","97.43","","","","-6","","NA"
"-96.06","50.18","PINAWA","503B1ER","2020-02-22 06:00","2020","02","22","06:00","-6.2","","","M","","M","0.0","","18","","4","","","","97.46","","","","-8","","NA"
"-96.06","50.18","PINAWA","503B1ER","2020-02-22 07:00","2020","02","22","07:00","-6.7","","","M","","M","0.0","","19","","3","","","","97.44","","","","-8","","NA"
"-96.06","50.18","PINAWA","503B1ER","2020-02-22 08:00","2020","02","22","08:00","-7.4","","","M","","M","0.0","","17","","5","","","","97.42","","","","-10","","NA"
"-96.06","50.18","PINAWA","503B1ER","2020-02-22 09:00","2020","02","22","09:00","-5.1","","","M","","M","0.0","","19","","5","","","","97.47","","","","-7","","NA"
"-96.06","50.18","PINAWA","503B1ER","2020-02-22 10:00","2020","02","22","10:00","-1.7","","","M","","M","0.0","","21","","4","","","","97.46","","","","-3","","NA"
"-96.06","50.18","PINAWA","503B1ER","2020-02-22 11:00","2020","02","22","11:00","0.0","","","M","","M","0.0","","23","","7","","","","97.46","","","","-2","","NA"
"-96.06","50.18","PINAWA","503B1ER","2020-02-22 12:00","2020","02","22","12:00","1.7","","","M","","M","0.0","","29","","7","","","","97.54","","","","","","NA"
"-96.06","50.18","PINAWA","503B1ER","2020-02-22 13:00","2020","02","22","13:00","2.3","","","M","","M","0.0","","31","","7","","","","97.53","","","","","","NA"
"-96.06","50.18","PINAWA","503B1ER","2020-02-22 14:00","2020","02","22","14:00","5.1","","","M","","M","0.0","","27","","2","","","","97.49","","","","","","NA"
"-96.06","50.18","PINAWA","503B1ER","2020-02-22 15:00","2020","02","22","15:00","5.7","","","M","","M","0.0","","25","","3","","","","97.45","","","","","","NA"
"-96.06","50.18","PINAWA","503B1ER","2020-02-22 16:00","2020","02","22","16:00","5.2","","","M","","M","0.0","","18","","6","","","","97.45","","","","","","NA"
"-96.06","50.18","PINAWA","503B1ER","2020-02-22 17:00","2020","02","22","17:00","5.1","","","M","","M","0.0","","27","","2","","","","97.43","","","","","","NA"
"-96.06","50.18","PINAWA","503B1ER","2020-02-22 18:00","2020","02","22","18:00","0.3","","","M","","M","0.0","","","","0","","","","97.41","","","","","","NA"
"-96.06","50.18","PINAWA","503B1ER","2020-02-22 19:00","2020","02","22","19:00","-2.4","","","M","","M","0.0","","31","","3","","","","97.43","","","","-4","","NA"
"-96.06","50.18","PINAWA","503B1ER","2020-02-22 20:00","2020","02","22","20:00","-5.1","","","M","","M","0.0","","7","","1","","","","97.39","","","","-6","","NA"
"-96.06","50.18","PINAWA","503B1ER","2020-02-22 21:00","2020","02","22","21:00","-6.7","","","M","","M","0.0","","17","","3","","","","97.35","","","","-8","","NA"
"-96.06","50.18","PINAWA","503B1ER","2020-02-22 22:00","2020","02","22","22:00","-5.9","","","M","","M","0.0","","20","","2","","","","97.35","","","","-7","","NA"
"-96.06","50.18","PINAWA","503B1ER","2020-02-22 23:00","2020","02","22","23:00","-5.4","","","M","","M","0.0","","15","","2","","","","97.31","","","","-6","","NA"
"-96.06","50.18","PINAWA","503B1ER","2020-02-23 00:00","2020","02","23","00:00","-5.8","","","M","","M","0.0","","13","","4","","","","97.22","","","","-8","","NA"
"-96.06","50.18","PINAWA","503B1ER","2020-02-23 01:00","2020","02","23","01:00","-5.2","","","M","","M","0.0","","14","","1","","","","97.16","","","","-6","","NA"
"-96.06","50.18","PINAWA","503B1ER","2020-02-23 02:00","2020","02","23","02:00","-5.6","","","M","","M","0.0","","15","","2","","","","97.06","","","","-7","","NA"
"-96.06","50.18","PINAWA","503B1ER","2020-02-23 03:00","2020","02","23","03:00","-5.5","","","M","","M","0.0","","18","","2","","","","97.02","","","","-6","","NA"
"-96.06","50.18","PINAWA","503B1ER","2020-02-23 04:00","2020","02","23","04:00","-6.1","","","M","","M","0.0","","13","","4","","","","96.98","","","","-8","","NA"
"-96.06","50.18","PINAWA","503B1ER","2020-02-23 05:00","2020","02","23","05:00","-6.7","","","M","","M","0.0","","23","","3","","","","96.99","","","","-8","","NA"
"-96.06","50.18","PINAWA","503B1ER","2020-02-23 06:00","2020","02","23","06:00","-8.7","","","M","","M","0.0","","19","","2","","","","97.00","","","","-10","","NA"
"-96.06","50.18","PINAWA","503B1ER","2020-02-23 07:00","2020","02","23","07:00","-10.7","","","M","","M","0.0","","23","","3","","","","97.00","","","","-13","","NA"
"-96.06","50.18","PINAWA","503B1ER","2020-02-23 08:00","2020","02","23","08:00","-6.9","","","M","","M","0.0","","26","","6","","","","97.05","","","","-10","","NA"
"-96.06","50.18","PINAWA","503B1ER","2020-02-23 09:00","2020","02","23","09:00","-4.5","","","M","","M","0.0","","28","","7","","","","97.13","","","","-8","","NA"
"-96.06","50.18","PINAWA","503B1ER","2020-02-23 10:00","2020","02","23","10:00","-2.7","","","M","","M","0.0","","30","","17","","","","97.26","","","","-8","","NA"
"-96.06","50.18","PINAWA","503B1ER","2020-02-23 11:00","2020","02","23","11:00","-1.3","","","M","","M","0.0","","29","","18","","","","97.32","","","","-7","","NA"
"-96.06","50.18","PINAWA","503B1ER","2020-02-23 12:00","2020","02","23","12:00","1.5","","","M","","M","0.0","","29","","25","","","","97.39","","","","","","NA"
"-96.06","50.18","PINAWA","503B1ER","2020-02-23 13:00","2020","02","23","13:00","2.7","","","M","","M","0.0","","30","","25","","","","97.44","","","","","","NA"
"-96.06","50.18","PINAWA","503B1ER","2020-02-23 14:00","2020","02","23","14:00","2.7","","","M","","M","0.0","","30","","25","","","","97.51","","","","","","NA"
"-96.06","50.18","PINAWA","503B1ER","2020-02-23 15:00","2020","02","23","15:00","2.7","","","M","","M","0.0","","30","","30","","","","97.59","","","","","","NA"
"-96.06","50.18","PINAWA","503B1ER","2020-02-23 16:00","2020","02","23","16:00","2.7","","","M","","M","0.0","","30","","19","","","","97.66","","","","","","NA"
"-96.06","50.18","PINAWA","503B1ER","2020-02-23 17:00","2020","02","23","17:00","2.4","","","M","","M","0.0","","29","","19","","","","97.75","","","","","","NA"
"-96.06","50.18","PINAWA","503B1ER","2020-02-23 18:00","2020","02","23","18:00","1.5","","","M","","M","0.0","","29","","17","","","","97.82","","","","","","NA"
"-96.06","50.18","PINAWA","503B1ER","2020-02-23 19:00","2020","02","23","19:00","-0.2","","","M","","M","0.0","","28","","9","","","","97.90","","","","-3","","NA"
"-96.06","50.18","PINAWA","503B1ER","2020-02-23 20:00","2020","02","23","20:00","-1.8","","","M","","M","0.0","","26","","6","","","","97.94","","","","-4","","NA"
"-96.06","50.18","PINAWA","503B1ER","2020-02-23 21:00","2020","02","23","21:00","-2.1","","","M","","M","0.0","","26","","8","","","","97.96","","","","-5","","NA"
"-96.06","50.18","PINAWA","503B1ER","2020-02-23 22:00","2020","02","23","22:00","-3.1","","","M","","M","0.0","","27","","8","","","","98.00","","","","-6","","NA"
"-96.06","50.18","PINAWA","503B1ER","2020-02-23 23:00","2020","02","23","23:00","-2.8","","","M","","M","0.0","","29","","11","","","","98.05","","","","-7","","NA"
"-96.06","50.18","PINAWA","503B1ER","2020-02-24 00:00","2020","02","24","00:00","-4.6","","","M","","M","0.0","","28","","6","","","","98.06","","","","-7","","NA"
"-96.06","50.18","PINAWA","503B1ER","2020-02-24 01:00","2020","02","24","01:00","-6.0","","","M","","M","0.0","","29","","2","","","","98.10","","","","-7","","NA"
"-96.06","50.18","PINAWA","503B1ER","2020-02-24 02:00","2020","02","24","02:00","-9.7","","","M","","M","0.0","","20","","2","","","","98.12","","","","-11","","NA"
"-96.06","50.18","PINAWA","503B1ER","2020-02-24 03:00","2020","02","24","03:00","-9.4","","","M","","M","0.0","","22","","3","","","","98.18","","","","-11","","NA"
"-96.06","50.18","PINAWA","503B1ER","2020-02-24 04:00","2020","02","24","04:00","-11.5","","","M","","M","0.0","","20","","3","","","","98.19","","","","-13","","NA"
"-96.06","50.18","PINAWA","503B1ER","2020-02-24 05:00","2020","02","24","05:00","-12.4","","","M","","M","0.0","","24","","3","","","","98.24","","","","-14","","NA"
"-96.06","50.18","PINAWA","503B1ER","2020-02-24 06:00","2020","02","24","06:00","-12.2","","","M","","M","0.0","","0","","1","","","","98.29","","","","-13","","NA"
"-96.06","50.18","PINAWA","503B1ER","2020-02-24 07:00","2020","02","24","07:00","-14.8","","","M","","M","0.0","","25","","1","","","","98.36","","","","-16","","NA"
"-96.06","50.18","PINAWA","503B1ER","2020-02-24 08:00","2020","02","24","08:00","-13.0","","","M","","M","0.0","","2","","1","","","","98.44","","","","-14","","NA"
"-96.06","50.18","PINAWA","503B1ER","2020-02-24 09:00","2020","02","24","09:00","-9.0","","","M","","M","0.0","","19","","3","","","","98.49","","","","-11","","NA"
"-96.06","50.18","PINAWA","503B1ER","2020-02-24 10:00","2020","02","24","10:00","-7.2","","","M","","M","0.0","","","","0","","","","98.57","","","","","","NA"
"-96.06","50.18","PINAWA","503B1ER","2020-02-24 11:00","2020","02","24","11:00","-5.4","","","M","","M","0.0","","30","","2","","","","98.60","","","","-6","","NA"
"-96.06","50.18","PINAWA","503B1ER","2020-02-24 12:00","2020","02","24","12:00","-3.2","","","M","","M","0.0","","31","","6","","","","98.63","","","","-6","","NA"
"-96.06","50.18","PINAWA","503B1ER","2020-02-24 13:00","2020","02","24","13:00","-1.7","","","M","","M","0.0","","33","","8","","","","98.63","","","","-5","","NA"
"-96.06","50.18","PINAWA","503B1ER","2020-02-24 14:00","2020","02","24","14:00","-0.6","","","M","","M","0.0","","33","","11","","","","98.62","","","","-4","","NA"
"-96.06","50.18","PINAWA","503B1ER","2020-02-24 15:00","2020","02","24","15:00","-0.5","","","M","","M","0.0","","33","","10","","","","98.67","","","","-4","","NA"
"-96.06","50.18","PINAWA","503B1ER","2020-02-24 16:00","2020","02","24","16:00","-0.4","","","M","","M","0.0","","33","","10","","","","98.73","","","","-4","","NA"
"-96.06","50.18","PINAWA","503B1ER","2020-02-24 17:00","2020","02","24","17:00","-0.5","","","M","","M","0.0","","32","","9","","","","98.82","","","","-4","","NA"
"-96.06","50.18","PINAWA","503B1ER","2020-02-24 18:00","2020","02","24","18:00","-2.0","","","M","","M","0.0","","32","","6","","","","98.87","","","","-4","","NA"
"-96.06","50.18","PINAWA","503B1ER","2020-02-24 19:00","2020","02","24","19:00","-3.2","","","M","","M","0.0","","33","","3","","","","98.98","","","","-4","","NA"
"-96.06","50.18","PINAWA","503B1ER","2020-02-24 20:00","2020","02","24","20:00","-3.5","","","M","","M","0.0","","34","","7","","","","99.02","","","","-6","","NA"
"-96.06","50.18","PINAWA","503B1ER","2020-02-24 21:00","2020","02","24","21:00","-4.7","","","M","","M","0.0","","35","","8","","","","99.11","","","","-8","","NA"
"-96.06","50.18","PINAWA","503B1ER","2020-02-24 22:00","2020","02","24","22:00","-4.8","","","M","","M","0.0","","33","","8","","","","99.18","","","","-8","","NA"
"-96.06","50.18","PINAWA","503B1ER","2020-02-24 23:00","2020","02","24","23:00","-6.3","","","M","","M","0.0","","33","","8","","","","99.23","","","","-10","","NA"
"-96.06","50.18","PINAWA","503B1ER","2020-02-25 00:00","2020","02","25","00:00","-6.0","","","M","","M","0.0","","35","","9","","","","99.29","","","","-10","","NA"
"-96.06","50.18","PINAWA","503B1ER","2020-02-25 01:00","2020","02","25","01:00","-6.9","","","M","","M","0.0","","33","","9","","","","99.40","","","","-11","","NA"
"-96.06","50.18","PINAWA","503B1ER","2020-02-25 02:00","2020","02","25","02:00","-8.8","","","M","","M","0.0","","34","","12","","","","99.49","","","","-14","","NA"
"-96.06","50.18","PINAWA","503B1ER","2020-02-25 03:00","2020","02","25","03:00","-11.5","","","M","","M","0.0","","33","","9","","","","99.56","","","","-17","","NA"
"-96.06","50.18","PINAWA","503B1ER","2020-02-25 04:00","2020","02","25","04:00","-12.6","","","M","","M","0.0","","32","","11","","","","99.60","","","","-19","","NA"
"-96.06","50.18","PINAWA","503B1ER","2020-02-25 05:00","2020","02","25","05:00","-13.0","","","M","","M","0.0","","33","","8","","","","99.66","","","","-18","","NA"
"-96.06","50.18","PINAWA","503B1ER","2020-02-25 06:00","2020","02","25","06:00","-14.0","","","M","","M","0.0","","32","","11","","","","99.74","","","","-20","","NA"
"-96.06","50.18","PINAWA","503B1ER","2020-02-25 07:00","2020","02","25","07:00","-15.2","","","M","","M","0.0","","33","","9","","","","99.81","","","","-21","","NA"
"-96.06","50.18","PINAWA","503B1ER","2020-02-25 08:00","2020","02","25","08:00","-15.8","","","M","","M","0.0","","33","","8","","","","99.90","","","","-21","","NA"
"-96.06","50.18","PINAWA","503B1ER","2020-02-25 09:00","2020","02","25","09:00","-15.3","","","M","","M","0.0","","34","","8","","","","99.97","","","","-21","","NA"
"-96.06","50.18","PINAWA","503B1ER","2020-02-25 10:00","2020","02","25","10:00","-14.2","","","M","","M","0.0","","33","","9","","","","100.02","","","","-20","","NA"
"-96.06","50.18","PINAWA","503B1ER","2020-02-25 11:00","2020","02","25","11:00","-13.1","","","M","","M","0.0","","36","","11","","","","100.05","","","","-19","","NA"
"-96.06","50.18","PINAWA","503B1ER","2020-02-25 12:00","2020","02","25","12:00","-11.7","","","M","","M","0.0","","35","","9","","","","100.07","","","","-17","","NA"
"-96.06","50.18","PINAWA","503B1ER","2020-02-25 13:00","2020","02","25","13:00","-10.9","","","M","","M","0.0","","32","","13","","","","100.06","","","","-17","","NA"
"-96.06","50.18","PINAWA","503B1ER","2020-02-25 14:00","2020","02","25","14:00","-10.3","","","M","","M","0.0","","33","","10","","","","100.01","","","","-16","","NA"
"-96.06","50.18","PINAWA","503B1ER","2020-02-25 15:00","2020","02","25","15:00","-9.2","","","M","","M","0.0","","33","","10","","","","100.02","","","","-14","","NA"
"-96.06","50.18","PINAWA","503B1ER","2020-02-25 16:00","2020","02","25","16:00","-9.6","","","M","","M","0.0","","30","","16","","","","100.03","","","","-16","","NA"
"-96.06","50.18","PINAWA","503B1ER","2020-02-25 17:00","2020","02","25","17:00","-10.2","","","M","","M","0.0","","30","","17","","","","100.04","","","","-17","","NA"
"-96.06","50.18","PINAWA","503B1ER","2020-02-25 18:00","2020","02","25","18:00","-12.0","","","M","","M","0.0","","32","","16","","","","100.07","","","","-19","","NA"
"-96.06","50.18","PINAWA","503B1ER","2020-02-25 19:00","2020","02","25","19:00","-13.5","","","M","","M","0.0","","33","","8","","","","100.10","","","","-19","","NA"
"-96.06","50.18","PINAWA","503B1ER","2020-02-25 20:00","2020","02","25","20:00","-14.4","","","M","","M","0.0","","34","","8","","","","100.09","","","","-20","","NA"
"-96.06","50.18","PINAWA","503B1ER","2020-02-25 21:00","2020","02","25","21:00","-14.6","","","M","","M","0.0","","34","","6","","","","100.06","","","","-19","","NA"
"-96.06","50.18","PINAWA","503B1ER","2020-02-25 22:00","2020","02","25","22:00","-14.2","","","M","","M","0.0","","34","","6","","","","100.07","","","","-18","","NA"
"-96.06","50.18","PINAWA","503B1ER","2020-02-25 23:00","2020","02","25","23:00","-14.4","","","M","","M","0.0","","35","","4","","","","100.05","","","","-17","","NA"
"-96.06","50.18","PINAWA","503B1ER","2020-02-26 00:00","2020","02","26","00:00","-14.4","","","M","","M","0.0","","33","","5","","","","100.01","","","","-18","","NA"
"-96.06","50.18","PINAWA","503B1ER","2020-02-26 01:00","2020","02","26","01:00","-14.6","","","M","","M","0.0","","35","","6","","","","100.00","","","","-19","","NA"
"-96.06","50.18","PINAWA","503B1ER","2020-02-26 02:00","2020","02","26","02:00","-14.8","","","M","","M","0.0","","35","","5","","","","99.97","","","","-18","","NA"
"-96.06","50.18","PINAWA","503B1ER","2020-02-26 03:00","2020","02","26","03:00","-15.1","","","M","","M","0.0","","34","","6","","","","99.94","","","","-19","","NA"
"-96.06","50.18","PINAWA","503B1ER","2020-02-26 04:00","2020","02","26","04:00","-15.4","","","M","","M","0.0","","35","","5","","","","99.92","","","","-19","","NA"
"-96.06","50.18","PINAWA","503B1ER","2020-02-26 05:00","2020","02","26","05:00","-16.4","","","M","","M","0.0","","33","","5","","","","99.91","","","","-20","","NA"
"-96.06","50.18","PINAWA","503B1ER","2020-02-26 06:00","2020","02","26","06:00","-17.4","","","M","","M","0.0","","35","","5","","","","99.87","","","","-21","","NA"
"-96.06","50.18","PINAWA","503B1ER","2020-02-26 07:00","2020","02","26","07:00","-18.1","","","M","","M","0.0","","1","","3","","","","99.84","","","","-21","","NA"
"-96.06","50.18","PINAWA","503B1ER","2020-02-26 08:00","2020","02","26","08:00","-18.8","","","M","","M","0.0","","35","","3","","","","99.84","","","","-21","","NA"
"-96.06","50.18","PINAWA","503B1ER","2020-02-26 09:00","2020","02","26","09:00","-18.9","","","M","","M","0.0","","32","","4","","","","99.79","","","","-22","","NA"
"-96.06","50.18","PINAWA","503B1ER","2020-02-26 10:00","2020","02","26","10:00","-17.2","","","M","","M","0.0","","33","","7","","","","99.78","","","","-22","","NA"
"-96.06","50.18","PINAWA","503B1ER","2020-02-26 11:00","2020","02","26","11:00","-15.0","","","M","","M","0.0","","32","","9","","","","99.72","","","","-21","","NA"
"-96.06","50.18","PINAWA","503B1ER","2020-02-26 12:00","2020","02","26","12:00","-13.2","","","M","","M","0.0","","32","","10","","","","99.66","","","","-19","","NA"
"-96.06","50.18","PINAWA","503B1ER","2020-02-26 13:00","2020","02","26","13:00","-11.9","","","M","","M","0.0","","32","","10","","","","99.55","","","","-18","","NA"
"-96.06","50.18","PINAWA","503B1ER","2020-02-26 14:00","2020","02","26","14:00","-10.8","","","M","","M","0.0","","34","","8","","","","99.47","","","","-15","","NA"
"-96.06","50.18","PINAWA","503B1ER","2020-02-26 15:00","2020","02","26","15:00","-9.8","","","M","","M","0.0","","34","","7","","","","99.42","","","","-14","","NA"
"-96.06","50.18","PINAWA","503B1ER","2020-02-26 16:00","2020","02","26","16:00","-10.1","","","M","","M","0.0","","33","","8","","","","99.36","","","","-15","","NA"
"-96.06","50.18","PINAWA","503B1ER","2020-02-26 17:00","2020","02","26","17:00","-10.2","","","M","","M","0.0","","33","","6","","","","99.32","","","","-14","","NA"
"-96.06","50.18","PINAWA","503B1ER","2020-02-26 18:00","2020","02","26","18:00","-11.6","","","M","","M","0.0","","35","","6","","","","99.29","","","","-15","","NA"
"-96.06","50.18","PINAWA","503B1ER","2020-02-26 19:00","2020","02","26","19:00","-13.3","","","M","","M","0.0","","30","","5","","","","99.29","","","","-17","","NA"
"-96.06","50.18","PINAWA","503B1ER","2020-02-26 20:00","2020","02","26","20:00","-14.7","","","M","","M","0.0","","32","","6","","","","99.27","","","","-19","","NA"
"-96.06","50.18","PINAWA","503B1ER","2020-02-26 21:00","2020","02","26","21:00","-15.4","","","M","","M","0.0","","34","","6","","","","99.26","","","","-20","","NA"
"-96.06","50.18","PINAWA","503B1ER","2020-02-26 22:00","2020","02","26","22:00","-17.2","","","M","","M","0.0","","31","","3","","","","99.26","","","","-20","","NA"
"-96.06","50.18","PINAWA","503B1ER","2020-02-26 23:00","2020","02","26","23:00","-19.1","","","M","","M","0.0","","1","","2","","","","99.22","","","","-21","","NA"
"-96.06","50.18","PINAWA","503B1ER","2020-02-27 00:00","2020","02","27","00:00","-19.6","","","M","","M","0.0","","","","0","","","","99.18","","","","","","NA"
"-96.06","50.18","PINAWA","503B1ER","2020-02-27 01:00","2020","02","27","01:00","-20.1","","","M","","M","0.0","","","","0","","","","99.14","","","","","","NA"
"-96.06","50.18","PINAWA","503B1ER","2020-02-27 02:00","2020","02","27","02:00","-20.3","","","M","","M","0.0","","","","0","","","","99.13","","","","","","NA"
"-96.06","50.18","PINAWA","503B1ER","2020-02-27 03:00","2020","02","27","03:00","-20.9","","","M","","M","0.0","","","","0","","","","99.10","","","","","","NA"
"-96.06","50.18","PINAWA","503B1ER","2020-02-27 04:00","2020","02","27","04:00","-22.0","","","M","","M","0.0","","","","0","","","","99.06","","","","","","NA"
"-96.06","50.18","PINAWA","503B1ER","2020-02-27 05:00","2020","02","27","05:00","-22.5","","","M","","M","0.0","","","","0","","","","99.03","","","","","","NA"
"-96.06","50.18","PINAWA","503B1ER","2020-02-27 06:00","2020","02","27","06:00","-22.7","","","M","","M","0.0","","0","","1","","","","99.02","","","","-24","","NA"
"-96.06","50.18","PINAWA","503B1ER","2020-02-27 07:00","2020","02","27","07:00","-22.9","","","M","","M","0.0","","","","0","","","","99.05","","","","","","NA"
"-96.06","50.18","PINAWA","503B1ER","2020-02-27 08:00","2020","02","27","08:00","-21.8","","","M","","M","0.0","","18","","1","","","","99.08","","","","-23","","NA"
"-96.06","50.18","PINAWA","503B1ER","2020-02-27 09:00","2020","02","27","09:00","-18.4","","","M","","M","0.0","","","","0","","","","99.06","","","","","","NA"
"-96.06","50.18","PINAWA","503B1ER","2020-02-27 10:00","2020","02","27","10:00","-15.2","","","M","","M","0.0","","21","","4","","","","99.04","","","","-18","","NA"
"-96.06","50.18","PINAWA","503B1ER","2020-02-27 11:00","2020","02","27","11:00","-12.5","","","M","","M","0.0","","20","","4","","","","99.01","","","","-15","","NA"
"-96.06","50.18","PINAWA","503B1ER","2020-02-27 12:00","2020","02","27","12:00","-9.9","","","M","","M","0.0","","20","","5","","","","98.99","","","","-13","","NA"
"-96.06","50.18","PINAWA","503B1ER","2020-02-27 13:00","2020","02","27","13:00","-9.3","","","M","","M","0.0","","16","","6","","","","98.92","","","","-13","","NA"
"-96.06","50.18","PINAWA","503B1ER","2020-02-27 14:00","2020","02","27","14:00","-8.9","","","M","","M","0.0","","15","","5","","","","98.87","","","","-12","","NA"
"-96.06","50.18","PINAWA","503B1ER","2020-02-27 15:00","2020","02","27","15:00","-8.7","","","M","","M","0.0","","15","","4","","","","98.84","","","","-11","","NA"
"-96.06","50.18","PINAWA","503B1ER","2020-02-27 16:00","2020","02","27","16:00","-8.6","","","M","","M","0.0","","17","","2","","","","98.82","","","","-10","","NA"
"-96.06","50.18","PINAWA","503B1ER","2020-02-27 17:00","2020","02","27","17:00","-9.8","","","M","","M","0.0","","35","","5","","","","98.82","","","","-13","","NA"
"-96.06","50.18","PINAWA","503B1ER","2020-02-27 18:00","2020","02","27","18:00","-12.1","","","M","","M","0.0","","31","","4","","","","98.83","","","","-15","","NA"
"-96.06","50.18","PINAWA","503B1ER","2020-02-27 19:00","2020","02","27","19:00","-15.3","","","M","","M","0.0","","","","0","","","","98.82","","","","","","NA"
"-96.06","50.18","PINAWA","503B1ER","2020-02-27 20:00","2020","02","27","20:00","-17.1","","","M","","M","0.0","","","","0","","","","98.81","","","","","","NA"
"-96.06","50.18","PINAWA","503B1ER","2020-02-27 21:00","2020","02","27","21:00","-19.1","","","M","","M","0.0","","0","","1","","","","98.77","","","","-20","","NA"
"-96.06","50.18","PINAWA","503B1ER","2020-02-27 22:00","2020","02","27","22:00","-20.3","","","M","","M","0.0","","8","","2","","","","98.77","","","","-22","","NA"
"-96.06","50.18","PINAWA","503B1ER","2020-02-27 23:00","2020","02","27","23:00","-21.1","","","M","","M","0.0","","","","0","","","","98.81","","","","","","NA"
"-96.06","50.18","PINAWA","503B1ER","2020-02-28 00:00","2020","02","28","00:00","-22.2","","","M","","M","0.0","","","","0","","","","98.83","","","","","","NA"
"-96.06","50.18","PINAWA","503B1ER","2020-02-28 01:00","2020","02","28","01:00","-23.4","","","M","","M","0.0","","0","","1","","","","98.81","","","","-24","","NA"
"-96.06","50.18","PINAWA","503B1ER","2020-02-28 02:00","2020","02","28","02:00","-23.6","","","M","","M","0.0","","","","0","","","","98.81","","","","","","NA"
"-96.06","50.18","PINAWA","503B1ER","2020-02-28 03:00","2020","02","28","03:00","-24.2","","","M","","M","0.0","","0","","1","","","","98.80","","","","-25","","NA"
"-96.06","50.18","PINAWA","503B1ER","2020-02-28 04:00","2020","02","28","04:00","-24.8","","","M","","M","0.0","","","","0","","","","98.78","","","","","","NA"
"-96.06","50.18","PINAWA","503B1ER","2020-02-28 05:00","2020","02","28","05:00","-24.9","","","M","","M","0.0","","","","0","","","","98.80","","","","","","NA"
"-96.06","50.18","PINAWA","503B1ER","2020-02-28 06:00","2020","02","28","06:00","-25.3","","","M","","M","0.0","","","","0","","","","98.85","","","","","","NA"
"-96.06","50.18","PINAWA","503B1ER","2020-02-28 07:00","2020","02","28","07:00","-25.9","","","M","","M","0.0","","14","","2","","","","98.88","","","","-28","","NA"
"-96.06","50.18","PINAWA","503B1ER","2020-02-28 08:00","2020","02","28","08:00","-23.9","","","M","","M","0.0","","11","","2","","","","98.90","","","","-26","","NA"
"-96.06","50.18","PINAWA","503B1ER","2020-02-28 09:00","2020","02","28","09:00","-19.7","","","M","","M","0.0","","19","","2","","","","98.92","","","","-21","","NA"
"-96.06","50.18","PINAWA","503B1ER","2020-02-28 10:00","2020","02","28","10:00","-13.2","","","M","","M","0.0","","18","","4","","","","98.94","","","","-16","","NA"
"-96.06","50.18","PINAWA","503B1ER","2020-02-28 11:00","2020","02","28","11:00","-9.6","","","M","","M","0.0","","17","","8","","","","98.94","","","","-14","","NA"
"-96.06","50.18","PINAWA","503B1ER","2020-02-28 12:00","2020","02","28","12:00","-7.3","","","M","","M","0.0","","17","","9","","","","98.88","","","","-12","","NA"
"-96.06","50.18","PINAWA","503B1ER","2020-02-28 13:00","2020","02","28","13:00","-6.1","","","M","","M","0.0","","16","","9","","","","98.85","","","","-10","","NA"
"-96.06","50.18","PINAWA","503B1ER","2020-02-28 14:00","2020","02","28","14:00","-4.6","","","M","","M","0.0","","17","","8","","","","98.82","","","","-8","","NA"
"-96.06","50.18","PINAWA","503B1ER","2020-02-28 15:00","2020","02","28","15:00","-3.8","","","M","","M","0.0","","16","","10","","","","98.71","","","","-8","","NA"
"-96.06","50.18","PINAWA","503B1ER","2020-02-28 16:00","2020","02","28","16:00","-3.9","","","M","","M","0.0","","22","","6","","","","98.66","","","","-7","","NA"
"-96.06","50.18","PINAWA","503B1ER","2020-02-28 17:00","2020","02","28","17:00","-4.0","","","M","","M","0.0","","19","","6","","","","98.64","","","","-7","","NA"
"-96.06","50.18","PINAWA","503B1ER","2020-02-28 18:00","2020","02","28","18:00","-4.6","","","M","","M","0.0","","18","","5","","","","98.53","","","","-7","","NA"
"-96.06","50.18","PINAWA","503B1ER","2020-02-28 19:00","2020","02","28","19:00","-4.9","","","M","","M","0.0","","19","","5","","","","98.53","","","","-7","","NA"
"-96.06","50.18","PINAWA","503B1ER","2020-02-28 20:00","2020","02","28","20:00","-5.3","","","M","","M","0.0","","18","","7","","","","98.48","","","","-9","","NA"
"-96.06","50.18","PINAWA","503B1ER","2020-02-28 21:00","2020","02","28","21:00","-5.5","","","M","","M","0.0","","17","","11","","","","98.34","","","","-10","","NA"
"-96.06","50.18","PINAWA","503B1ER","2020-02-28 22:00","2020","02","28","22:00","-6.2","","","M","","M","0.0","","18","","8","","","","98.28","","","","-10","","NA"
"-96.06","50.18","PINAWA","503B1ER","2020-02-28 23:00","2020","02","28","23:00","-6.8","","","M","","M","0.0","","18","","10","","","","98.24","","","","-11","","NA"
"-96.06","50.18","PINAWA","503B1ER","2020-02-29 00:00","2020","02","29","00:00","-7.3","","","M","","M","0.0","","17","","9","","","","98.11","","","","-12","","NA"
"-96.06","50.18","PINAWA","503B1ER","2020-02-29 01:00","2020","02","29","01:00","-7.3","","","M","","M","0.0","","16","","11","","","","97.97","","","","-12","","NA"
"-96.06","50.18","PINAWA","503B1ER","2020-02-29 02:00","2020","02","29","02:00","-7.5","","","M","","M","0.0","","16","","15","","","","97.84","","","","-14","","NA"
"-96.06","50.18","PINAWA","503B1ER","2020-02-29 03:00","2020","02","29","03:00","-7.6","","","M","","M","0.0","","16","","11","","","","97.75","","","","-13","","NA"
"-96.06","50.18","PINAWA","503B1ER","2020-02-29 04:00","2020","02","29","04:00","-7.0","","","M","","M","0.0","","14","","5","","","","97.74","","","","-10","","NA"
"-96.06","50.18","PINAWA","503B1ER","2020-02-29 05:00","2020","02","29","05:00","-6.4","","","M","","M","0.0","","16","","6","","","","97.70","","","","-9","","NA"
"-96.06","50.18","PINAWA","503B1ER","2020-02-29 06:00","2020","02","29","06:00","-6.3","","","M","","M","0.0","","13","","5","","","","97.70","","","","-9","","NA"
"-96.06","50.18","PINAWA","503B1ER","2020-02-29 07:00","2020","02","29","07:00","-6.3","","","M","","M","0.0","","14","","5","","","","97.67","","","","-9","","NA"
"-96.06","50.18","PINAWA","503B1ER","2020-02-29 08:00","2020","02","29","08:00","-6.0","","","M","","M","0.0","","14","","6","","","","97.63","","","","-9","","NA"
"-96.06","50.18","PINAWA","503B1ER","2020-02-29 09:00","2020","02","29","09:00","-5.6","","","M","","M","0.0","","16","","8","","","","97.64","","","","-9","","NA"
"-96.06","50.18","PINAWA","503B1ER","2020-02-29 10:00","2020","02","29","10:00","-5.0","","","M","","M","0.0","","16","","8","","","","97.59","","","","-9","","NA"
"-96.06","50.18","PINAWA","503B1ER","2020-02-29 11:00","2020","02","29","11:00","-4.5","","","M","","M","0.0","","15","","11","","","","97.54","","","","-9","","NA"
"-96.06","50.18","PINAWA","503B1ER","2020-02-29 12:00","2020","02","29","12:00","-4.0","","","M","","M","0.0","","16","","10","","","","97.50","","","","-8","","NA"
"-96.06","50.18","PINAWA","503B1ER","2020-02-29 13:00","2020","02","29","13:00","-2.8","","","M","","M","0.0","","15","","7","","","","97.39","","","","-6","","NA"
"-96.06","50.18","PINAWA","503B1ER","2020-02-29 14:00","2020","02","29","14:00","-1.1","","","M","","M","0.0","","17","","12","","","","97.34","","","","-5","","NA"
"-96.06","50.18","PINAWA","503B1ER","2020-02-29 15:00","2020","02","29","15:00","-0.8","","","M","","M","0.0","","17","","12","","","","97.28","","","","-5","","NA"
"-96.06","50.18","PINAWA","503B1ER","2020-02-29 16:00","2020","02","29","16:00","0.0","","","M","","M","0.0","","15","","11","","","","97.24","","","","-4","","NA"
"-96.06","50.18","PINAWA","503B1ER","2020-02-29 17:00","2020","02","29","17:00","0.0","","","M","","M","0.0","","13","","10","","","","97.16","","","","-3","","NA"
"-96.06","50.18","PINAWA","503B1ER","2020-02-29 18:00","2020","02","29","18:00","-1.0","","","M","","M","0.0","","12","","14","","","","97.17","","","","-5","","NA"
"-96.06","50.18","PINAWA","503B1ER","2020-02-29 19:00","2020","02","29","19:00","-2.4","","","M","","M","0.0","","13","","13","","","","97.13","","","","-7","","NA"
"-96.06","50.18","PINAWA","503B1ER","2020-02-29 20:00","2020","02","29","20:00","-2.5","","","M","","M","0.0","","13","","10","","","","97.06","","","","-6","","NA"
"-96.06","50.18","PINAWA","503B1ER","2020-02-29 21:00","2020","02","29","21:00","-2.2","","","M","","M","0.0","","14","","8","","","","97.01","","","","-5","","NA"
"-96.06","50.18","PINAWA","503B1ER","2020-02-29 22:00","2020","02","29","22:00","-2.1","","","M","","M","0.0","","14","","7","","","","96.94","","","","-5","","NA"
"-96.06","50.18","PINAWA","503B1ER","2020-02-29 23:00","2020","02","29","23:00","-1.3","","","M","","M","0.0","","15","","7","","","","96.84","","","","-4","","NA"
