"Longitude (x)","Latitude (y)","Station Name","Climate ID","Date/Time (LST)","Year","Month","Day","Time (LST)","Temp (°C)","Temp Flag","Dew Point Temp (°C)","Dew Point Temp Flag","Rel Hum (%)","Rel Hum Flag","Precip. Amount (mm)","Precip. Amount Flag","Wind Dir (10s deg)","Wind Dir Flag","Wind Spd (km/h)","Wind Spd Flag","Visibility (km)","Visibility Flag","Stn Press (kPa)","Stn Press Flag","Hmdx","Hmdx Flag","Wind Chill","Wind Chill Flag","Weather"
"-121.67","69.67","KEATS POINT","2202663","2021-02-01 00:00","2021","02","01","00:00"
"-121.67","69.67","KEATS POINT","2202663","2021-02-01 01:00","2021","02","01","01:00"
"-121.67","69.67","KEATS POINT","2202663","2021-02-01 02:00","2021","02","01","02:00"
"-121.67","69.67","KEATS POINT","2202663","2021-02-01 03:00","2021","02","01","03:00"
"-121.67","69.67","KEATS POINT","2202663","2021-02-01 04:00","2021","02","01","04:00"
"-121.67","69.67","KEATS POINT","2202663","2021-02-01 05:00","2021","02","01","05:00"
"-121.67","69.67","KEATS POINT","2202663","2021-02-01 06:00","2021","02","01","06:00"
"-121.67","69.67","KEATS POINT","2202663","2021-02-01 07:00","2021","02","01","07:00"
"-121.67","69.67","KEATS POINT","2202663","2021-02-01 08:00","2021","02","01","08:00"
"-121.67","69.67","KEATS POINT","2202663","2021-02-01 09:00","2021","02","01","09:00","-28.4","","-31.2","","76","","","","28","","21","","","M","99.28","","","","-41","","NA"
"-121.67","69.67","KEATS POINT","2202663","2021-02-01 10:00","2021","02","01","10:00","-27.8","","-30.6","","77","","","","28","","15","","","M","99.29","","","","-39","","NA"
"-121.67","69.67","KEATS POINT","2202663","2021-02-01 11:00","2021","02","01","11:00","-27.2","","-30.0","","77","","","","29","","13","","","M","99.30","","","","-37","","NA"
"-121.67","69.67","KEATS POINT","2202663","2021-02-01 12:00","2021","02","01","12:00","-26.9","","-29.7","","77","","","","26","","11","","","M","99.31","","","","-36","","NA"
"-121.67","69.67","KEATS POINT","2202663","2021-02-01 13:00","2021","02","01","13:00","-26.6","","-29.4","","77","","","","29","","15","","","M","99.30","","","","-37","","NA"
"-121.67","69.67","KEATS POINT","2202663","2021-02-01 14:00","2021","02","01","14:00","-26.8","","-29.5","","77","","","","28","","22","","","M","99.29","","","","-40","","NA"
"-121.67","69.67","KEATS POINT","2202663","2021-02-01 15:00","2021","02","01","15:00","-27.1","","-29.9","","77","","","","27","","26","","","M","99.30","","","","-41","","NA"
"-121.67","69.67","KEATS POINT","2202663","2021-02-01 16:00","2021","02","01","16:00","-26.8","","-29.6","","77","","","","28","","31","","","M","99.27","","","","-42","","NA"
"-121.67","69.67","KEATS POINT","2202663","2021-02-01 17:00","2021","02","01","17:00","-26.9","","-29.7","","77","","","","28","","26","","","M","99.27","","","","-41","","NA"
"-121.67","69.67","KEATS POINT","2202663","2021-02-01 18:00","2021","02","01","18:00","-26.2","","-28.9","","78","","","","27","","28","","","M","99.23","","","","-40","","NA"
"-121.67","69.67","KEATS POINT","2202663","2021-02-01 19:00","2021","02","01","19:00","-25.5","","-28.2","","78","","","","28","","22","","","M","99.21","","","","-38","","NA"
"-121.67","69.67","KEATS POINT","2202663","2021-02-01 20:00","2021","02","01","20:00","-25.2","","-27.8","","78","","","","27","","24","","","M","99.18","","","","-38","","NA"
"-121.67","69.67","KEATS POINT","2202663","2021-02-01 21:00","2021","02","01","21:00","-25.2","","-27.9","","78","","","","26","","22","","","M","99.13","","","","-38","","NA"
"-121.67","69.67","KEATS POINT","2202663","2021-02-01 22:00","2021","02","01","22:00","-25.1","","-27.7","","78","","","","26","","26","","","M","99.11","","","","-38","","NA"
"-121.67","69.67","KEATS POINT","2202663","2021-02-01 23:00","2021","02","01","23:00","-25.9","","-28.6","","78","","","","24","","28","","","M","99.09","","","","-40","","NA"
"-121.67","69.67","KEATS POINT","2202663","2021-02-02 00:00","2021","02","02","00:00","-26.2","","-28.9","","78","","","","24","","37","","","M","99.03","","","","-42","","NA"
"-121.67","69.67","KEATS POINT","2202663","2021-02-02 01:00","2021","02","02","01:00","-27.2","","-30.0","","77","","","","23","","37","","","M","99.01","","","","-43","","NA"
"-121.67","69.67","KEATS POINT","2202663","2021-02-02 02:00","2021","02","02","02:00","-28.0","","-30.8","","76","","","","24","","44","","","M","98.98","","","","-45","","NA"
"-121.67","69.67","KEATS POINT","2202663","2021-02-02 03:00","2021","02","02","03:00","-28.9","","-31.8","","76","","","","25","","44","","","M","98.98","","","","-47","","NA"
"-121.67","69.67","KEATS POINT","2202663","2021-02-02 04:00","2021","02","02","04:00","-29.8","","-32.8","","75","","","","25","","41","","","M","99.01","","","","-47","","NA"
"-121.67","69.67","KEATS POINT","2202663","2021-02-02 05:00","2021","02","02","05:00","-30.6","","-33.6","","75","","","","25","","44","","","M","98.98","","","","-49","","NA"
"-121.67","69.67","KEATS POINT","2202663","2021-02-02 06:00","2021","02","02","06:00"
"-121.67","69.67","KEATS POINT","2202663","2021-02-02 07:00","2021","02","02","07:00","-31.7","","-34.8","","74","","","","25","","39","","","M","98.97","","","","-50","","NA"
"-121.67","69.67","KEATS POINT","2202663","2021-02-02 08:00","2021","02","02","08:00","-32.2","","-35.3","","73","","","","25","","35","","","M","99.01","","","","-50","","NA"
"-121.67","69.67","KEATS POINT","2202663","2021-02-02 09:00","2021","02","02","09:00","-32.6","","-35.8","","73","","","","24","","39","","","M","98.99","","","","-51","","NA"
"-121.67","69.67","KEATS POINT","2202663","2021-02-02 10:00","2021","02","02","10:00","-33.3","","-36.6","","72","","","","24","","31","","","M","99.02","","","","-50","","NA"
"-121.67","69.67","KEATS POINT","2202663","2021-02-02 11:00","2021","02","02","11:00","-32.7","","-35.9","","73","","","","25","","35","","","M","99.05","","","","-50","","NA"
"-121.67","69.67","KEATS POINT","2202663","2021-02-02 12:00","2021","02","02","12:00","-33.2","","-36.4","","72","","","","23","","31","","","M","99.08","","","","-50","","NA"
"-121.67","69.67","KEATS POINT","2202663","2021-02-02 13:00","2021","02","02","13:00","-33.1","","-36.4","","72","","","","24","","37","","","M","99.08","","","","-51","","NA"
"-121.67","69.67","KEATS POINT","2202663","2021-02-02 14:00","2021","02","02","14:00","-33.1","","-36.3","","72","","","","24","","30","","","M","99.07","","","","-50","","NA"
"-121.67","69.67","KEATS POINT","2202663","2021-02-02 15:00","2021","02","02","15:00","-33.4","","-36.7","","72","","","","23","","30","","","M","99.07","","","","-50","","NA"
"-121.67","69.67","KEATS POINT","2202663","2021-02-02 16:00","2021","02","02","16:00","-32.6","","-35.8","","73","","","","24","","24","","","M","99.07","","","","-48","","NA"
"-121.67","69.67","KEATS POINT","2202663","2021-02-02 17:00","2021","02","02","17:00","-32.5","","-35.7","","73","","","","25","","30","","","M","99.04","","","","-49","","NA"
"-121.67","69.67","KEATS POINT","2202663","2021-02-02 18:00","2021","02","02","18:00","-32.1","","-35.3","","73","","","","24","","26","","","M","98.99","","","","-47","","NA"
"-121.67","69.67","KEATS POINT","2202663","2021-02-02 19:00","2021","02","02","19:00","-33.0","","-36.3","","72","","","","23","","34","","","M","98.95","","","","-50","","NA"
"-121.67","69.67","KEATS POINT","2202663","2021-02-02 20:00","2021","02","02","20:00","-33.5","","-36.8","","72","","","","23","","35","","","M","98.92","","","","-51","","NA"
"-121.67","69.67","KEATS POINT","2202663","2021-02-02 21:00","2021","02","02","21:00","-33.0","","-36.3","","72","","","","23","","31","","","M","98.90","","","","-50","","NA"
"-121.67","69.67","KEATS POINT","2202663","2021-02-02 22:00","2021","02","02","22:00","-33.8","","-37.1","","72","","","","24","","37","","","M","98.85","","","","-52","","NA"
"-121.67","69.67","KEATS POINT","2202663","2021-02-02 23:00","2021","02","02","23:00","-33.1","","-36.3","","72","","","","23","","37","","","M","98.81","","","","-51","","NA"
"-121.67","69.67","KEATS POINT","2202663","2021-02-03 00:00","2021","02","03","00:00","-32.9","","-36.1","","72","","","","24","","35","","","M","98.78","","","","-50","","NA"
"-121.67","69.67","KEATS POINT","2202663","2021-02-03 01:00","2021","02","03","01:00","-33.2","","-36.5","","72","","","","24","","37","","","M","98.76","","","","-51","","NA"
"-121.67","69.67","KEATS POINT","2202663","2021-02-03 02:00","2021","02","03","02:00","-33.0","","-36.2","","72","","","","24","","35","","","M","98.73","","","","-51","","NA"
"-121.67","69.67","KEATS POINT","2202663","2021-02-03 03:00","2021","02","03","03:00","-31.5","","-34.7","","74","","","","25","","34","","","M","98.71","","","","-48","","NA"
"-121.67","69.67","KEATS POINT","2202663","2021-02-03 04:00","2021","02","03","04:00","-31.6","","-34.8","","73","","","","24","","34","","","M","98.67","","","","-49","","NA"
"-121.67","69.67","KEATS POINT","2202663","2021-02-03 05:00","2021","02","03","05:00","-30.2","","-33.3","","74","","","","25","","30","","","M","98.63","","","","-46","","NA"
"-121.67","69.67","KEATS POINT","2202663","2021-02-03 06:00","2021","02","03","06:00","-30.2","","-33.3","","75","","","","25","","28","","","M","98.58","","","","-45","","NA"
"-121.67","69.67","KEATS POINT","2202663","2021-02-03 07:00","2021","02","03","07:00","-29.7","","-32.7","","75","","","","27","","34","","","M","98.54","","","","-46","","NA"
"-121.67","69.67","KEATS POINT","2202663","2021-02-03 08:00","2021","02","03","08:00","-29.4","","-32.4","","75","","","","26","","31","","","M","98.51","","","","-45","","NA"
"-121.67","69.67","KEATS POINT","2202663","2021-02-03 09:00","2021","02","03","09:00","-30.4","","-33.5","","74","","","","25","","34","","","M","98.48","","","","-47","","NA"
"-121.67","69.67","KEATS POINT","2202663","2021-02-03 10:00","2021","02","03","10:00","-31.0","","-34.1","","74","","","","25","","35","","","M","98.44","","","","-48","","NA"
"-121.67","69.67","KEATS POINT","2202663","2021-02-03 11:00","2021","02","03","11:00","-31.8","","-34.9","","73","","","","24","","39","","","M","98.41","","","","-50","","NA"
"-121.67","69.67","KEATS POINT","2202663","2021-02-03 12:00","2021","02","03","12:00","-30.4","","-33.5","","74","","","","25","","39","","","M","98.39","","","","-48","","NA"
"-121.67","69.67","KEATS POINT","2202663","2021-02-03 13:00","2021","02","03","13:00","-30.5","","-33.5","","74","","","","24","","39","","","M","98.35","","","","-48","","NA"
"-121.67","69.67","KEATS POINT","2202663","2021-02-03 14:00","2021","02","03","14:00","-31.4","","-34.5","","74","","","","24","","46","","","M","98.33","","","","-50","","NA"
"-121.67","69.67","KEATS POINT","2202663","2021-02-03 15:00","2021","02","03","15:00","-32.5","","-35.8","","73","","","","24","","50","","","M","98.31","","","","-52","","NA"
"-121.67","69.67","KEATS POINT","2202663","2021-02-03 16:00","2021","02","03","16:00","-32.7","","-35.9","","73","","","","24","","50","","","M","98.27","","","","-53","","NA"
"-121.67","69.67","KEATS POINT","2202663","2021-02-03 17:00","2021","02","03","17:00","-33.1","","-36.3","","72","","","","24","","50","","","M","98.25","","","","-53","","NA"
"-121.67","69.67","KEATS POINT","2202663","2021-02-03 18:00","2021","02","03","18:00","-34.6","","-38.0","","71","","","","23","","43","","","M","98.22","","","","-54","","NA"
"-121.67","69.67","KEATS POINT","2202663","2021-02-03 19:00","2021","02","03","19:00"
"-121.67","69.67","KEATS POINT","2202663","2021-02-03 20:00","2021","02","03","20:00","-34.1","","-37.4","","72","","","","24","","52","","","M","98.11","","","","-55","","NA"
"-121.67","69.67","KEATS POINT","2202663","2021-02-03 21:00","2021","02","03","21:00","-34.2","","-37.5","","71","","","","24","","52","","","M","98.08","","","","-55","","NA"
"-121.67","69.67","KEATS POINT","2202663","2021-02-03 22:00","2021","02","03","22:00","-34.0","","-37.4","","72","","","","23","","55","","","M","98.09","","","","-55","","NA"
"-121.67","69.67","KEATS POINT","2202663","2021-02-03 23:00","2021","02","03","23:00","-34.1","","-37.4","","71","","","","22","","55","","","M","98.05","","","","-55","","NA"
"-121.67","69.67","KEATS POINT","2202663","2021-02-04 00:00","2021","02","04","00:00","-34.3","","-37.6","","71","","","","24","","57","","","M","98.05","","","","-56","","NA"
"-121.67","69.67","KEATS POINT","2202663","2021-02-04 01:00","2021","02","04","01:00","-34.5","","-37.9","","71","","","","24","","54","","","M","98.06","","","","-56","","NA"
"-121.67","69.67","KEATS POINT","2202663","2021-02-04 02:00","2021","02","04","02:00","-35.3","","-38.7","","70","","","","25","","43","","","M","98.16","","","","-55","","NA"
"-121.67","69.67","KEATS POINT","2202663","2021-02-04 03:00","2021","02","04","03:00","-36.0","","-39.4","","70","","","","24","","43","","","M","98.10","","","","-56","","NA"
"-121.67","69.67","KEATS POINT","2202663","2021-02-04 04:00","2021","02","04","04:00","-36.4","","-40.0","","69","","","","25","","41","","","M","98.16","","","","-56","","NA"
"-121.67","69.67","KEATS POINT","2202663","2021-02-04 05:00","2021","02","04","05:00","-36.6","","-40.2","","69","","","","25","","35","","","M","98.16","","","","-55","","NA"
"-121.67","69.67","KEATS POINT","2202663","2021-02-04 06:00","2021","02","04","06:00","-37.0","","-40.5","","69","","","","24","","35","","","M","98.17","","","","-56","","NA"
"-121.67","69.67","KEATS POINT","2202663","2021-02-04 07:00","2021","02","04","07:00","-37.1","","-40.7","","69","","","","24","","28","","","M","98.19","","","","-54","","NA"
"-121.67","69.67","KEATS POINT","2202663","2021-02-04 08:00","2021","02","04","08:00","-36.8","","-40.4","","69","","","","24","","24","","","M","98.20","","","","-53","","NA"
"-121.67","69.67","KEATS POINT","2202663","2021-02-04 09:00","2021","02","04","09:00","-37.3","","-40.9","","69","","","","23","","24","","","M","98.21","","","","-54","","NA"
"-121.67","69.67","KEATS POINT","2202663","2021-02-04 10:00","2021","02","04","10:00","-37.3","","-40.9","","69","","","","23","","22","","","M","98.22","","","","-53","","NA"
"-121.67","69.67","KEATS POINT","2202663","2021-02-04 11:00","2021","02","04","11:00","-36.8","","-40.3","","69","","","","23","","18","","","M","98.26","","","","-51","","NA"
"-121.67","69.67","KEATS POINT","2202663","2021-02-04 12:00","2021","02","04","12:00","-36.5","","-40.1","","69","","","","23","","15","","","M","98.27","","","","-49","","NA"
"-121.67","69.67","KEATS POINT","2202663","2021-02-04 13:00","2021","02","04","13:00","-36.5","","-40.0","","69","","","","22","","17","","","M","98.30","","","","-50","","NA"
"-121.67","69.67","KEATS POINT","2202663","2021-02-04 14:00","2021","02","04","14:00","-36.2","","-39.7","","69","","","","25","","15","","","M","98.32","","","","-49","","NA"
"-121.67","69.67","KEATS POINT","2202663","2021-02-04 15:00","2021","02","04","15:00","-36.1","","-39.6","","70","","","","27","","8","","","M","98.34","","","","-45","","NA"
"-121.67","69.67","KEATS POINT","2202663","2021-02-04 16:00","2021","02","04","16:00","-36.1","","-39.6","","70","","","","27","","11","","","M","98.39","","","","-47","","NA"
"-121.67","69.67","KEATS POINT","2202663","2021-02-04 17:00","2021","02","04","17:00","-36.4","","-39.9","","69","","","","26","","11","","","M","98.42","","","","-47","","NA"
"-121.67","69.67","KEATS POINT","2202663","2021-02-04 18:00","2021","02","04","18:00","-36.4","","-40.0","","69","","","","28","","9","","","M","98.42","","","","-46","","NA"
"-121.67","69.67","KEATS POINT","2202663","2021-02-04 19:00","2021","02","04","19:00","-35.8","","-39.3","","70","","","","29","","13","","","M","98.44","","","","-48","","NA"
"-121.67","69.67","KEATS POINT","2202663","2021-02-04 20:00","2021","02","04","20:00","-35.6","","-39.0","","70","","","","29","","17","","","M","98.49","","","","-49","","NA"
"-121.67","69.67","KEATS POINT","2202663","2021-02-04 21:00","2021","02","04","21:00","-35.8","","-39.3","","70","","","","30","","17","","","M","98.53","","","","-49","","NA"
"-121.67","69.67","KEATS POINT","2202663","2021-02-04 22:00","2021","02","04","22:00","-35.9","","-39.4","","70","","","","30","","18","","","M","98.59","","","","-50","","NA"
"-121.67","69.67","KEATS POINT","2202663","2021-02-04 23:00","2021","02","04","23:00","-36.1","","-39.6","","69","","","","30","","21","","","M","98.63","","","","-51","","NA"
"-121.67","69.67","KEATS POINT","2202663","2021-02-05 00:00","2021","02","05","00:00","-36.4","","-40.0","","69","","","","28","","21","","","M","98.66","","","","-51","","NA"
"-121.67","69.67","KEATS POINT","2202663","2021-02-05 01:00","2021","02","05","01:00","-36.5","","-40.1","","69","","","","27","","18","","","M","98.73","","","","-51","","NA"
"-121.67","69.67","KEATS POINT","2202663","2021-02-05 02:00","2021","02","05","02:00","-36.6","","-40.2","","69","","","","27","","21","","","M","98.76","","","","-52","","NA"
"-121.67","69.67","KEATS POINT","2202663","2021-02-05 03:00","2021","02","05","03:00","-37.5","","-41.1","","68","","","","25","","22","","","M","98.79","","","","-53","","NA"
"-121.67","69.67","KEATS POINT","2202663","2021-02-05 04:00","2021","02","05","04:00","-37.4","","-41.0","","68","","","","25","","26","","","M","98.84","","","","-54","","NA"
"-121.67","69.67","KEATS POINT","2202663","2021-02-05 05:00","2021","02","05","05:00","-37.1","","-40.7","","69","","","","26","","30","","","M","98.87","","","","-55","","NA"
"-121.67","69.67","KEATS POINT","2202663","2021-02-05 06:00","2021","02","05","06:00","-37.0","","-40.7","","69","","","","25","","34","","","M","98.88","","","","-56","","NA"
"-121.67","69.67","KEATS POINT","2202663","2021-02-05 07:00","2021","02","05","07:00","-36.7","","-40.3","","69","","","","25","","34","","","M","98.87","","","","-55","","NA"
"-121.67","69.67","KEATS POINT","2202663","2021-02-05 08:00","2021","02","05","08:00","-36.9","","-40.5","","69","","","","25","","31","","","M","98.86","","","","-55","","NA"
"-121.67","69.67","KEATS POINT","2202663","2021-02-05 09:00","2021","02","05","09:00","-38.2","","-42.0","","68","","","","23","","41","","","M","98.85","","","","-59","","NA"
"-121.67","69.67","KEATS POINT","2202663","2021-02-05 10:00","2021","02","05","10:00","-38.7","","-42.4","","67","","","","24","","34","","","M","98.86","","","","-58","","NA"
"-121.67","69.67","KEATS POINT","2202663","2021-02-05 11:00","2021","02","05","11:00","-37.3","","-41.0","","68","","","","24","","43","","","M","98.88","","","","-58","","NA"
"-121.67","69.67","KEATS POINT","2202663","2021-02-05 12:00","2021","02","05","12:00","-38.2","","-41.9","","68","","","","24","","43","","","M","98.89","","","","-59","","NA"
"-121.67","69.67","KEATS POINT","2202663","2021-02-05 13:00","2021","02","05","13:00","-37.8","","-41.5","","68","","","","24","","46","","","M","98.88","","","","-59","","NA"
"-121.67","69.67","KEATS POINT","2202663","2021-02-05 14:00","2021","02","05","14:00","-37.1","","-40.8","","68","","","","24","","46","","","M","98.89","","","","-58","","NA"
"-121.67","69.67","KEATS POINT","2202663","2021-02-05 15:00","2021","02","05","15:00","-36.9","","-40.5","","69","","","","24","","44","","","M","98.84","","","","-57","","NA"
"-121.67","69.67","KEATS POINT","2202663","2021-02-05 16:00","2021","02","05","16:00"
"-121.67","69.67","KEATS POINT","2202663","2021-02-05 17:00","2021","02","05","17:00","-38.3","","-42.0","","68","","","","23","","41","","","M","98.85","","","","-59","","NA"
"-121.67","69.67","KEATS POINT","2202663","2021-02-05 18:00","2021","02","05","18:00","-37.6","","-41.3","","68","","","","23","","37","","","M","98.81","","","","-57","","NA"
"-121.67","69.67","KEATS POINT","2202663","2021-02-05 19:00","2021","02","05","19:00","-37.2","","-40.8","","68","","","","23","","35","","","M","98.78","","","","-56","","NA"
"-121.67","69.67","KEATS POINT","2202663","2021-02-05 20:00","2021","02","05","20:00","-36.6","","-40.2","","69","","","","22","","35","","","M","98.74","","","","-55","","NA"
"-121.67","69.67","KEATS POINT","2202663","2021-02-05 21:00","2021","02","05","21:00","-35.8","","-39.3","","70","","","","22","","30","","","M","98.70","","","","-53","","NA"
"-121.67","69.67","KEATS POINT","2202663","2021-02-05 22:00","2021","02","05","22:00","-35.8","","-39.4","","70","","","","22","","35","","","M","98.66","","","","-54","","NA"
"-121.67","69.67","KEATS POINT","2202663","2021-02-05 23:00","2021","02","05","23:00","-34.8","","-38.2","","70","","","","21","","22","","","M","98.63","","","","-50","","NA"
"-121.67","69.67","KEATS POINT","2202663","2021-02-06 00:00","2021","02","06","00:00","-33.3","","-36.6","","72","","","","22","","15","","","M","98.59","","","","-45","","NA"
"-121.67","69.67","KEATS POINT","2202663","2021-02-06 01:00","2021","02","06","01:00","-32.5","","-35.8","","72","","","","22","","15","","","M","98.53","","","","-44","","NA"
"-121.67","69.67","KEATS POINT","2202663","2021-02-06 02:00","2021","02","06","02:00","-32.2","","-35.4","","72","","","","7","","4","","","M","98.52","","","","-37","","NA"
"-121.67","69.67","KEATS POINT","2202663","2021-02-06 03:00","2021","02","06","03:00","-32.4","","-35.6","","73","","","","5","","5","","","M","98.48","","","","-38","","NA"
"-121.67","69.67","KEATS POINT","2202663","2021-02-06 04:00","2021","02","06","04:00","-32.1","","-35.2","","73","","","","25","","5","","","M","98.44","","","","-38","","NA"
"-121.67","69.67","KEATS POINT","2202663","2021-02-06 05:00","2021","02","06","05:00","-32.4","","-35.7","","73","","","","21","","37","","","M","98.34","","","","-50","","NA"
"-121.67","69.67","KEATS POINT","2202663","2021-02-06 06:00","2021","02","06","06:00","-33.1","","-36.5","","72","","","","4","","8","","","M","98.29","","","","-42","","NA"
"-121.67","69.67","KEATS POINT","2202663","2021-02-06 07:00","2021","02","06","07:00","-33.1","","-36.4","","72","","","","10","","9","","","M","98.25","","","","-42","","NA"
"-121.67","69.67","KEATS POINT","2202663","2021-02-06 08:00","2021","02","06","08:00","-30.1","","-33.1","","74","","","","18","","9","","","M","98.18","","","","-39","","NA"
"-121.67","69.67","KEATS POINT","2202663","2021-02-06 09:00","2021","02","06","09:00","-30.5","","-33.5","","74","","","","21","","37","","","M","98.07","","","","-48","","NA"
"-121.67","69.67","KEATS POINT","2202663","2021-02-06 10:00","2021","02","06","10:00","-29.8","","-32.9","","75","","","","22","","44","","","M","98.02","","","","-48","","NA"
"-121.67","69.67","KEATS POINT","2202663","2021-02-06 11:00","2021","02","06","11:00","-29.5","","-32.5","","75","","","","22","","35","","","M","98.01","","","","-46","","NA"
"-121.67","69.67","KEATS POINT","2202663","2021-02-06 12:00","2021","02","06","12:00","-28.4","","-31.3","","76","","","","20","","39","","","M","97.99","","","","-45","","NA"
"-121.67","69.67","KEATS POINT","2202663","2021-02-06 13:00","2021","02","06","13:00","-28.2","","-31.2","","76","","","","20","","34","","","M","97.96","","","","-44","","NA"
"-121.67","69.67","KEATS POINT","2202663","2021-02-06 14:00","2021","02","06","14:00","-27.9","","-30.7","","76","","","","21","","34","","","M","97.96","","","","-44","","NA"
"-121.67","69.67","KEATS POINT","2202663","2021-02-06 15:00","2021","02","06","15:00","-27.6","","-30.4","","76","","","","21","","35","","","M","97.93","","","","-43","","NA"
"-121.67","69.67","KEATS POINT","2202663","2021-02-06 16:00","2021","02","06","16:00","-27.4","","-30.2","","77","","","","20","","34","","","M","97.92","","","","-43","","NA"
"-121.67","69.67","KEATS POINT","2202663","2021-02-06 17:00","2021","02","06","17:00","-27.1","","-29.9","","77","","","","21","","34","","","M","97.92","","","","-43","","NA"
"-121.67","69.67","KEATS POINT","2202663","2021-02-06 18:00","2021","02","06","18:00","-26.6","","-29.4","","77","","","","8","","9","","","M","97.99","","","","-35","","NA"
"-121.67","69.67","KEATS POINT","2202663","2021-02-06 19:00","2021","02","06","19:00","-27.4","","-30.2","","77","","","","17","","8","","","M","98.02","","","","-35","","NA"
"-121.67","69.67","KEATS POINT","2202663","2021-02-06 20:00","2021","02","06","20:00","-28.7","","-31.6","","76","","","","5","","2","","","M","98.05","","","","-31","","NA"
"-121.67","69.67","KEATS POINT","2202663","2021-02-06 21:00","2021","02","06","21:00","-28.4","","-31.2","","76","","","","19","","8","","","M","98.08","","","","-36","","NA"
"-121.67","69.67","KEATS POINT","2202663","2021-02-06 22:00","2021","02","06","22:00","-28.9","","-31.9","","76","","","","27","","8","","","M","98.14","","","","-37","","NA"
"-121.67","69.67","KEATS POINT","2202663","2021-02-06 23:00","2021","02","06","23:00","-28.9","","-31.8","","76","","","","18","","5","","","M","98.20","","","","-34","","NA"
"-121.67","69.67","KEATS POINT","2202663","2021-02-07 00:00","2021","02","07","00:00","-29.4","","-32.3","","75","","","","15","","5","","","M","98.27","","","","-35","","NA"
"-121.67","69.67","KEATS POINT","2202663","2021-02-07 01:00","2021","02","07","01:00","-30.2","","-33.2","","75","","","","22","","30","","","M","98.28","","","","-46","","NA"
"-121.67","69.67","KEATS POINT","2202663","2021-02-07 02:00","2021","02","07","02:00","-30.4","","-33.4","","75","","","","21","","22","","","M","98.38","","","","-44","","NA"
"-121.67","69.67","KEATS POINT","2202663","2021-02-07 03:00","2021","02","07","03:00","-31.1","","-34.2","","74","","","","34","","5","","","M","98.46","","","","-37","","NA"
"-121.67","69.67","KEATS POINT","2202663","2021-02-07 04:00","2021","02","07","04:00","-30.3","","-33.3","","75","","","","7","","4","","","M","98.53","","","","-35","","NA"
"-121.67","69.67","KEATS POINT","2202663","2021-02-07 05:00","2021","02","07","05:00","-30.0","","-33.0","","75","","","","14","","4","","","M","98.61","","","","-35","","NA"
"-121.67","69.67","KEATS POINT","2202663","2021-02-07 06:00","2021","02","07","06:00","-30.3","","-33.3","","75","","","","7","","5","","","M","98.68","","","","-36","","NA"
"-121.67","69.67","KEATS POINT","2202663","2021-02-07 07:00","2021","02","07","07:00","-30.5","","-33.6","","74","","","","20","","4","","","M","98.77","","","","-35","","NA"
"-121.67","69.67","KEATS POINT","2202663","2021-02-07 08:00","2021","02","07","08:00","-31.5","","-34.7","","73","","","","27","","8","","","M","98.84","","","","-40","","NA"
"-121.67","69.67","KEATS POINT","2202663","2021-02-07 09:00","2021","02","07","09:00","-30.9","","-34.0","","74","","","","28","","5","","","M","98.90","","","","-37","","NA"
"-121.67","69.67","KEATS POINT","2202663","2021-02-07 10:00","2021","02","07","10:00","-31.6","","-34.7","","74","","","","30","","8","","","M","99.00","","","","-40","","NA"
"-121.67","69.67","KEATS POINT","2202663","2021-02-07 11:00","2021","02","07","11:00","-31.2","","-34.4","","74","","","","29","","2","","","M","99.08","","","","-34","","NA"
"-121.67","69.67","KEATS POINT","2202663","2021-02-07 12:00","2021","02","07","12:00","-31.2","","-34.3","","74","","","","29","","4","","","M","99.14","","","","-36","","NA"
"-121.67","69.67","KEATS POINT","2202663","2021-02-07 13:00","2021","02","07","13:00","-31.5","","-34.6","","74","","","","28","","2","","","M","99.22","","","","-34","","NA"
"-121.67","69.67","KEATS POINT","2202663","2021-02-07 14:00","2021","02","07","14:00","-31.1","","-34.2","","74","","","","35","","4","","","M","99.30","","","","-36","","NA"
"-121.67","69.67","KEATS POINT","2202663","2021-02-07 15:00","2021","02","07","15:00","-30.2","","-33.3","","75","","","","9","","2","","","M","99.41","","","","-32","","NA"
"-121.67","69.67","KEATS POINT","2202663","2021-02-07 16:00","2021","02","07","16:00","-30.8","","-33.8","","74","","","","5","","5","","","M","99.49","","","","-37","","NA"
"-121.67","69.67","KEATS POINT","2202663","2021-02-07 17:00","2021","02","07","17:00","-31.1","","-34.2","","74","","","","15","","4","","","M","99.56","","","","-36","","NA"
"-121.67","69.67","KEATS POINT","2202663","2021-02-07 18:00","2021","02","07","18:00","-31.0","","-34.1","","74","","","","4","","2","","","M","99.63","","","","-33","","NA"
"-121.67","69.67","KEATS POINT","2202663","2021-02-07 19:00","2021","02","07","19:00","-31.2","","-34.3","","74","","","","21","","2","","","M","99.68","","","","-34","","NA"
"-121.67","69.67","KEATS POINT","2202663","2021-02-07 20:00","2021","02","07","20:00","-31.7","","-34.8","","73","","","","25","","5","","","M","99.72","","","","-38","","NA"
"-121.67","69.67","KEATS POINT","2202663","2021-02-07 21:00","2021","02","07","21:00","-32.7","","-35.9","","73","","","","26","","8","","","M","99.79","","","","-41","","NA"
"-121.67","69.67","KEATS POINT","2202663","2021-02-07 22:00","2021","02","07","22:00","-33.5","","-36.8","","72","","","","30","","9","","","M","99.86","","","","-43","","NA"
"-121.67","69.67","KEATS POINT","2202663","2021-02-07 23:00","2021","02","07","23:00","-34.7","","-38.1","","71","","","","30","","9","","","M","99.94","","","","-44","","NA"
"-121.67","69.67","KEATS POINT","2202663","2021-02-08 00:00","2021","02","08","00:00","-34.6","","-38.0","","71","","","","28","","11","","","M","100.00","","","","-45","","NA"
"-121.67","69.67","KEATS POINT","2202663","2021-02-08 01:00","2021","02","08","01:00","-34.4","","-37.7","","71","","","","29","","11","","","M","100.07","","","","-45","","NA"
"-121.67","69.67","KEATS POINT","2202663","2021-02-08 02:00","2021","02","08","02:00","-34.9","","-38.3","","71","","","","29","","11","","","M","100.09","","","","-46","","NA"
"-121.67","69.67","KEATS POINT","2202663","2021-02-08 03:00","2021","02","08","03:00","-33.7","","-37.0","","72","","","","30","","15","","","M","100.14","","","","-46","","NA"
"-121.67","69.67","KEATS POINT","2202663","2021-02-08 04:00","2021","02","08","04:00","-33.1","","-36.4","","72","","","","28","","11","","","M","100.21","","","","-43","","NA"
"-121.67","69.67","KEATS POINT","2202663","2021-02-08 05:00","2021","02","08","05:00","-34.0","","-37.4","","71","","","","28","","13","","","M","100.26","","","","-45","","NA"
"-121.67","69.67","KEATS POINT","2202663","2021-02-08 06:00","2021","02","08","06:00","-33.9","","-37.2","","72","","","","29","","13","","","M","100.28","","","","-45","","NA"
"-121.67","69.67","KEATS POINT","2202663","2021-02-08 07:00","2021","02","08","07:00","-33.6","","-36.9","","72","","","","28","","11","","","M","100.29","","","","-44","","NA"
"-121.67","69.67","KEATS POINT","2202663","2021-02-08 08:00","2021","02","08","08:00","-32.6","","-35.8","","73","","","","29","","15","","","M","100.30","","","","-45","","NA"
"-121.67","69.67","KEATS POINT","2202663","2021-02-08 09:00","2021","02","08","09:00","-32.6","","-35.8","","73","","","","29","","17","","","M","100.31","","","","-45","","NA"
"-121.67","69.67","KEATS POINT","2202663","2021-02-08 10:00","2021","02","08","10:00","-32.7","","-35.9","","72","","","","29","","26","","","M","100.34","","","","-48","","NA"
"-121.67","69.67","KEATS POINT","2202663","2021-02-08 11:00","2021","02","08","11:00","-32.1","","-35.3","","73","","","","29","","22","","","M","100.36","","","","-46","","NA"
"-121.67","69.67","KEATS POINT","2202663","2021-02-08 12:00","2021","02","08","12:00","-32.0","","-35.2","","73","","","","27","","28","","","M","100.37","","","","-48","","NA"
"-121.67","69.67","KEATS POINT","2202663","2021-02-08 13:00","2021","02","08","13:00","-30.8","","-33.9","","74","","","","27","","35","","","M","100.35","","","","-48","","NA"
"-121.67","69.67","KEATS POINT","2202663","2021-02-08 14:00","2021","02","08","14:00","-31.1","","-34.1","","74","","","","26","","34","","","M","100.34","","","","-48","","NA"
"-121.67","69.67","KEATS POINT","2202663","2021-02-08 15:00","2021","02","08","15:00","-31.4","","-34.5","","74","","","","26","","39","","","M","100.39","","","","-49","","NA"
"-121.67","69.67","KEATS POINT","2202663","2021-02-08 16:00","2021","02","08","16:00","-31.0","","-34.1","","74","","","","25","","39","","","M","100.35","","","","-49","","NA"
"-121.67","69.67","KEATS POINT","2202663","2021-02-08 17:00","2021","02","08","17:00","-32.4","","-35.6","","73","","","","23","","41","","","M","100.35","","","","-51","","NA"
"-121.67","69.67","KEATS POINT","2202663","2021-02-08 18:00","2021","02","08","18:00","-31.0","","-34.1","","74","","","","24","","41","","","M","100.32","","","","-49","","NA"
"-121.67","69.67","KEATS POINT","2202663","2021-02-08 19:00","2021","02","08","19:00","-32.0","","-35.2","","73","","","","24","","39","","","M","100.31","","","","-50","","NA"
"-121.67","69.67","KEATS POINT","2202663","2021-02-08 20:00","2021","02","08","20:00","-33.1","","-36.4","","72","","","","24","","37","","","M","100.31","","","","-51","","NA"
"-121.67","69.67","KEATS POINT","2202663","2021-02-08 21:00","2021","02","08","21:00","-33.5","","-36.8","","72","","","","23","","43","","","M","100.28","","","","-53","","NA"
"-121.67","69.67","KEATS POINT","2202663","2021-02-08 22:00","2021","02","08","22:00","-33.1","","-36.4","","72","","","","22","","37","","","M","100.28","","","","-51","","NA"
"-121.67","69.67","KEATS POINT","2202663","2021-02-08 23:00","2021","02","08","23:00","-32.7","","-35.9","","72","","","","23","","34","","","M","100.31","","","","-50","","NA"
"-121.67","69.67","KEATS POINT","2202663","2021-02-09 00:00","2021","02","09","00:00","-32.4","","-35.6","","73","","","","23","","31","","","M","100.29","","","","-49","","NA"
"-121.67","69.67","KEATS POINT","2202663","2021-02-09 01:00","2021","02","09","01:00","-32.0","","-35.2","","73","","","","23","","35","","","M","100.29","","","","-49","","NA"
"-121.67","69.67","KEATS POINT","2202663","2021-02-09 02:00","2021","02","09","02:00","-31.1","","-34.3","","74","","","","23","","35","","","M","100.31","","","","-48","","NA"
"-121.67","69.67","KEATS POINT","2202663","2021-02-09 03:00","2021","02","09","03:00","-31.3","","-34.4","","74","","","","24","","31","","","M","100.34","","","","-48","","NA"
"-121.67","69.67","KEATS POINT","2202663","2021-02-09 04:00","2021","02","09","04:00","-31.4","","-34.5","","74","","","","23","","31","","","M","100.35","","","","-48","","NA"
"-121.67","69.67","KEATS POINT","2202663","2021-02-09 05:00","2021","02","09","05:00","-30.9","","-34.0","","74","","","","23","","34","","","M","100.38","","","","-48","","NA"
"-121.67","69.67","KEATS POINT","2202663","2021-02-09 06:00","2021","02","09","06:00","-30.9","","-33.9","","74","","","","23","","30","","","M","100.39","","","","-47","","NA"
"-121.67","69.67","KEATS POINT","2202663","2021-02-09 07:00","2021","02","09","07:00","-30.3","","-33.4","","74","","","","23","","26","","","M","100.39","","","","-45","","NA"
"-121.67","69.67","KEATS POINT","2202663","2021-02-09 08:00","2021","02","09","08:00","-29.2","","-32.2","","75","","","","24","","28","","","M","100.37","","","","-44","","NA"
"-121.67","69.67","KEATS POINT","2202663","2021-02-09 09:00","2021","02","09","09:00","-28.4","","-31.3","","76","","","","25","","30","","","M","100.36","","","","-44","","NA"
"-121.67","69.67","KEATS POINT","2202663","2021-02-09 10:00","2021","02","09","10:00","-27.8","","-30.6","","76","","","","25","","26","","","M","100.39","","","","-42","","NA"
"-121.67","69.67","KEATS POINT","2202663","2021-02-09 11:00","2021","02","09","11:00","-28.4","","-31.3","","76","","","","24","","28","","","M","100.42","","","","-43","","NA"
"-121.67","69.67","KEATS POINT","2202663","2021-02-09 12:00","2021","02","09","12:00","-28.8","","-31.7","","75","","","","24","","26","","","M","100.44","","","","-43","","NA"
"-121.67","69.67","KEATS POINT","2202663","2021-02-09 13:00","2021","02","09","13:00","-29.4","","-32.3","","75","","","","24","","26","","","M","100.49","","","","-44","","NA"
"-121.67","69.67","KEATS POINT","2202663","2021-02-09 14:00","2021","02","09","14:00","-28.9","","-31.8","","76","","","","23","","30","","","M","100.47","","","","-44","","NA"
"-121.67","69.67","KEATS POINT","2202663","2021-02-09 15:00","2021","02","09","15:00","-29.4","","-32.3","","75","","","","24","","30","","","M","100.52","","","","-45","","NA"
"-121.67","69.67","KEATS POINT","2202663","2021-02-09 16:00","2021","02","09","16:00","-29.0","","-31.9","","75","","","","24","","28","","","M","100.54","","","","-44","","NA"
"-121.67","69.67","KEATS POINT","2202663","2021-02-09 17:00","2021","02","09","17:00","-29.5","","-32.5","","75","","","","23","","26","","","M","100.59","","","","-44","","NA"
"-121.67","69.67","KEATS POINT","2202663","2021-02-09 18:00","2021","02","09","18:00","-28.9","","-31.8","","76","","","","24","","26","","","M","100.59","","","","-43","","NA"
"-121.67","69.67","KEATS POINT","2202663","2021-02-09 19:00","2021","02","09","19:00","-28.0","","-30.9","","76","","","","25","","22","","","M","100.58","","","","-41","","NA"
"-121.67","69.67","KEATS POINT","2202663","2021-02-09 20:00","2021","02","09","20:00","-27.7","","-30.6","","76","","","","24","","21","","","M","100.59","","","","-40","","NA"
"-121.67","69.67","KEATS POINT","2202663","2021-02-09 21:00","2021","02","09","21:00","-27.5","","-30.4","","77","","","","25","","18","","","M","100.60","","","","-39","","NA"
"-121.67","69.67","KEATS POINT","2202663","2021-02-09 22:00","2021","02","09","22:00","-27.1","","-29.9","","77","","","","28","","17","","","M","100.59","","","","-39","","NA"
"-121.67","69.67","KEATS POINT","2202663","2021-02-09 23:00","2021","02","09","23:00","-26.7","","-29.4","","77","","","","26","","17","","","M","100.61","","","","-38","","NA"
"-121.67","69.67","KEATS POINT","2202663","2021-02-10 00:00","2021","02","10","00:00","-26.5","","-29.3","","77","","","","29","","13","","","M","100.60","","","","-36","","NA"
"-121.67","69.67","KEATS POINT","2202663","2021-02-10 01:00","2021","02","10","01:00","-25.8","","-28.5","","78","","","","29","","17","","","M","100.60","","","","-37","","NA"
"-121.67","69.67","KEATS POINT","2202663","2021-02-10 02:00","2021","02","10","02:00","-26.0","","-28.8","","78","","","","30","","17","","","M","100.65","","","","-37","","NA"
"-121.67","69.67","KEATS POINT","2202663","2021-02-10 03:00","2021","02","10","03:00","-26.5","","-29.3","","77","","","","28","","21","","","M","100.62","","","","-39","","NA"
"-121.67","69.67","KEATS POINT","2202663","2021-02-10 04:00","2021","02","10","04:00","-26.7","","-29.4","","77","","","","30","","18","","","M","100.63","","","","-38","","NA"
"-121.67","69.67","KEATS POINT","2202663","2021-02-10 05:00","2021","02","10","05:00","-27.7","","-30.5","","77","","","","28","","13","","","M","100.61","","","","-38","","NA"
"-121.67","69.67","KEATS POINT","2202663","2021-02-10 06:00","2021","02","10","06:00","-27.6","","-30.4","","77","","","","29","","18","","","M","100.58","","","","-39","","NA"
"-121.67","69.67","KEATS POINT","2202663","2021-02-10 07:00","2021","02","10","07:00","-27.5","","-30.3","","77","","","","29","","15","","","M","100.62","","","","-38","","NA"
"-121.67","69.67","KEATS POINT","2202663","2021-02-10 08:00","2021","02","10","08:00","-27.5","","-30.3","","77","","","","30","","21","","","M","100.60","","","","-40","","NA"
"-121.67","69.67","KEATS POINT","2202663","2021-02-10 09:00","2021","02","10","09:00","-27.6","","-30.4","","77","","","","29","","13","","","M","100.55","","","","-38","","NA"
"-121.67","69.67","KEATS POINT","2202663","2021-02-10 10:00","2021","02","10","10:00","-28.2","","-31.1","","76","","","","29","","15","","","M","100.56","","","","-39","","NA"
"-121.67","69.67","KEATS POINT","2202663","2021-02-10 11:00","2021","02","10","11:00","-27.9","","-30.7","","76","","","","29","","8","","","M","100.56","","","","-36","","NA"
"-121.67","69.67","KEATS POINT","2202663","2021-02-10 12:00","2021","02","10","12:00","-27.5","","-30.4","","77","","","","31","","8","","","M","100.57","","","","-35","","NA"
"-121.67","69.67","KEATS POINT","2202663","2021-02-10 13:00","2021","02","10","13:00","-27.5","","-30.3","","77","","","","29","","5","","","M","100.58","","","","-33","","NA"
"-121.67","69.67","KEATS POINT","2202663","2021-02-10 14:00","2021","02","10","14:00","-27.7","","-30.5","","76","","","","26","","5","","","M","100.56","","","","-33","","NA"
"-121.67","69.67","KEATS POINT","2202663","2021-02-10 15:00","2021","02","10","15:00","-25.2","","-28.0","","78","","","","6","","4","","","M","100.59","","","","-29","","NA"
"-121.67","69.67","KEATS POINT","2202663","2021-02-10 16:00","2021","02","10","16:00","-25.6","","-28.3","","78","","","","19","","5","","","M","100.59","","","","-31","","NA"
"-121.67","69.67","KEATS POINT","2202663","2021-02-10 17:00","2021","02","10","17:00","-24.4","","-27.0","","79","","","","11","","9","","","M","100.58","","","","-32","","NA"
"-121.67","69.67","KEATS POINT","2202663","2021-02-10 18:00","2021","02","10","18:00","-23.8","","-26.3","","79","","","","13","","11","","","M","100.60","","","","-32","","NA"
"-121.67","69.67","KEATS POINT","2202663","2021-02-10 19:00","2021","02","10","19:00","-21.6","","-24.0","","81","","","","29","","5","","","M","100.59","","","","-26","","NA"
"-121.67","69.67","KEATS POINT","2202663","2021-02-10 20:00","2021","02","10","20:00","-21.8","","-24.2","","81","","","","31","","5","","","M","100.59","","","","-26","","NA"
"-121.67","69.67","KEATS POINT","2202663","2021-02-10 21:00","2021","02","10","21:00","-21.5","","-23.8","","81","","","","33","","2","","","M","100.57","","","","-23","","NA"
"-121.67","69.67","KEATS POINT","2202663","2021-02-10 22:00","2021","02","10","22:00","-22.7","","-25.1","","80","","","","35","","5","","","M","100.58","","","","-27","","NA"
"-121.67","69.67","KEATS POINT","2202663","2021-02-10 23:00","2021","02","10","23:00","-21.8","","-24.2","","81","","","","14","","4","","","M","100.58","","","","-25","","NA"
"-121.67","69.67","KEATS POINT","2202663","2021-02-11 00:00","2021","02","11","00:00","-21.2","","-23.5","","81","","","","6","","5","","","M","100.58","","","","-26","","NA"
"-121.67","69.67","KEATS POINT","2202663","2021-02-11 01:00","2021","02","11","01:00","-21.5","","-23.9","","81","","","","13","","4","","","M","100.55","","","","-25","","NA"
"-121.67","69.67","KEATS POINT","2202663","2021-02-11 02:00","2021","02","11","02:00","-21.8","","-24.2","","81","","","","10","","9","","","M","100.52","","","","-29","","NA"
"-121.67","69.67","KEATS POINT","2202663","2021-02-11 03:00","2021","02","11","03:00","-21.1","","-23.3","","82","","","","13","","5","","","M","100.48","","","","-26","","NA"
"-121.67","69.67","KEATS POINT","2202663","2021-02-11 04:00","2021","02","11","04:00","-21.5","","-23.9","","81","","","","12","","11","","","M","100.43","","","","-29","","NA"
"-121.67","69.67","KEATS POINT","2202663","2021-02-11 05:00","2021","02","11","05:00","-21.9","","-24.3","","81","","","","11","","13","","","M","100.41","","","","-31","","NA"
"-121.67","69.67","KEATS POINT","2202663","2021-02-11 06:00","2021","02","11","06:00","-21.0","","-23.3","","82","","","","13","","13","","","M","100.34","","","","-30","","NA"
"-121.67","69.67","KEATS POINT","2202663","2021-02-11 07:00","2021","02","11","07:00","-21.6","","-24.0","","81","","","","10","","13","","","M","100.29","","","","-30","","NA"
"-121.67","69.67","KEATS POINT","2202663","2021-02-11 08:00","2021","02","11","08:00","-19.4","","-21.6","","83","","","","12","","13","","","M","100.20","","","","-28","","NA"
"-121.67","69.67","KEATS POINT","2202663","2021-02-11 09:00","2021","02","11","09:00","-16.2","","-18.1","","86","","","","11","","4","","","M","100.11","","","","-19","","NA"
"-121.67","69.67","KEATS POINT","2202663","2021-02-11 10:00","2021","02","11","10:00","-14.0","","-15.6","","88","","","","36","","4","","","M","100.11","","","","-17","","NA"
"-121.67","69.67","KEATS POINT","2202663","2021-02-11 11:00","2021","02","11","11:00","-13.0","","-14.4","","89","","","","8","","9","","","M","100.01","","","","-18","","NA"
"-121.67","69.67","KEATS POINT","2202663","2021-02-11 12:00","2021","02","11","12:00","-13.0","","-14.4","","89","","","","16","","9","","","M","99.94","","","","-18","","NA"
"-121.67","69.67","KEATS POINT","2202663","2021-02-11 13:00","2021","02","11","13:00","-11.6","","-12.9","","90","","","","21","","4","","","M","99.91","","","","-14","","NA"
"-121.67","69.67","KEATS POINT","2202663","2021-02-11 14:00","2021","02","11","14:00","-10.9","","-12.0","","91","","","","26","","9","","","M","99.85","","","","-16","","NA"
"-121.67","69.67","KEATS POINT","2202663","2021-02-11 15:00","2021","02","11","15:00","-11.2","","-12.7","","89","","","","29","","8","","","M","99.84","","","","-16","","NA"
"-121.67","69.67","KEATS POINT","2202663","2021-02-11 16:00","2021","02","11","16:00","-10.3","","-11.9","","88","","","","30","","4","","","M","99.79","","","","-13","","NA"
"-121.67","69.67","KEATS POINT","2202663","2021-02-11 17:00","2021","02","11","17:00","-10.0","","-11.4","","89","","","","11","","5","","","M","99.73","","","","-13","","NA"
"-121.67","69.67","KEATS POINT","2202663","2021-02-11 18:00","2021","02","11","18:00","-8.7","","-11.1","","83","","","","3","","2","","","M","99.67","","","","-10","","NA"
"-121.67","69.67","KEATS POINT","2202663","2021-02-11 19:00","2021","02","11","19:00","-9.8","","-14.5","","68","","","","21","","5","","","M","99.64","","","","-13","","NA"
"-121.67","69.67","KEATS POINT","2202663","2021-02-11 20:00","2021","02","11","20:00","-8.6","","-13.9","","65","","","","12","","9","","","M","99.59","","","","-13","","NA"
"-121.67","69.67","KEATS POINT","2202663","2021-02-11 21:00","2021","02","11","21:00","-7.7","","-14.0","","61","","","","14","","8","","","M","99.52","","","","-12","","NA"
"-121.67","69.67","KEATS POINT","2202663","2021-02-11 22:00","2021","02","11","22:00","-6.6","","-14.2","","55","","","","13","","11","","","M","99.49","","","","-12","","NA"
"-121.67","69.67","KEATS POINT","2202663","2021-02-11 23:00","2021","02","11","23:00","-6.7","","-14.3","","54","","","","16","","9","","","M","99.43","","","","-11","","NA"
"-121.67","69.67","KEATS POINT","2202663","2021-02-12 00:00","2021","02","12","00:00","-6.2","","-15.0","","50","","","","3","","5","","","M","99.41","","","","-9","","NA"
"-121.67","69.67","KEATS POINT","2202663","2021-02-12 01:00","2021","02","12","01:00","-5.5","","-15.6","","45","","","","31","","5","","","M","99.36","","","","-8","","NA"
"-121.67","69.67","KEATS POINT","2202663","2021-02-12 02:00","2021","02","12","02:00","-5.5","","-15.2","","46","","","","32","","2","","","M","99.31","","","","-6","","NA"
"-121.67","69.67","KEATS POINT","2202663","2021-02-12 03:00","2021","02","12","03:00","-5.9","","-14.9","","49","","","","30","","5","","","M","99.26","","","","-8","","NA"
"-121.67","69.67","KEATS POINT","2202663","2021-02-12 04:00","2021","02","12","04:00","-5.4","","-14.6","","48","","","","25","","4","","","M","99.23","","","","-7","","NA"
"-121.67","69.67","KEATS POINT","2202663","2021-02-12 05:00","2021","02","12","05:00","-5.4","","-13.5","","53","","","","12","","4","","","M","99.19","","","","-7","","NA"
"-121.67","69.67","KEATS POINT","2202663","2021-02-12 06:00","2021","02","12","06:00","-5.1","","-13.8","","50","","","","8","","9","","","M","99.16","","","","-9","","NA"
"-121.67","69.67","KEATS POINT","2202663","2021-02-12 07:00","2021","02","12","07:00","-5.4","","-13.7","","52","","","","15","","11","","","M","99.10","","","","-10","","NA"
"-121.67","69.67","KEATS POINT","2202663","2021-02-12 08:00","2021","02","12","08:00","-5.6","","-14.3","","50","","","","17","","8","","","M","99.03","","","","-9","","NA"
"-121.67","69.67","KEATS POINT","2202663","2021-02-12 09:00","2021","02","12","09:00","-4.1","","-15.4","","41","","","","25","","5","","","M","99.01","","","","-6","","NA"
"-121.67","69.67","KEATS POINT","2202663","2021-02-12 10:00","2021","02","12","10:00","-5.0","","-15.2","","45","","","","24","","8","","","M","98.96","","","","-9","","NA"
"-121.67","69.67","KEATS POINT","2202663","2021-02-12 11:00","2021","02","12","11:00","-6.2","","-15.8","","47","","","","24","","9","","","M","98.92","","","","-10","","NA"
"-121.67","69.67","KEATS POINT","2202663","2021-02-12 12:00","2021","02","12","12:00","-4.5","","-15.3","","43","","","","27","","5","","","M","98.89","","","","-7","","NA"
"-121.67","69.67","KEATS POINT","2202663","2021-02-12 13:00","2021","02","12","13:00","-4.3","","-14.8","","43","","","","31","","2","","","M","98.87","","","","-5","","NA"
"-121.67","69.67","KEATS POINT","2202663","2021-02-12 14:00","2021","02","12","14:00","-4.5","","-14.5","","45","","","","5","","5","","","M","98.84","","","","-7","","NA"
"-121.67","69.67","KEATS POINT","2202663","2021-02-12 15:00","2021","02","12","15:00","-4.2","","-13.9","","47","","","","13","","2","","","M","98.81","","","","-5","","NA"
"-121.67","69.67","KEATS POINT","2202663","2021-02-12 16:00","2021","02","12","16:00","-6.9","","-14.8","","53","","","","16","","15","","","M","98.81","","","","-13","","NA"
"-121.67","69.67","KEATS POINT","2202663","2021-02-12 17:00","2021","02","12","17:00","-7.7","","-14.8","","57","","","","16","","15","","","M","98.79","","","","-14","","NA"
"-121.67","69.67","KEATS POINT","2202663","2021-02-12 18:00","2021","02","12","18:00","-5.6","","-14.0","","52","","","","15","","9","","","M","98.73","","","","-10","","NA"
"-121.67","69.67","KEATS POINT","2202663","2021-02-12 19:00","2021","02","12","19:00","-5.5","","-14.4","","50","","","","17","","11","","","M","98.70","","","","-10","","NA"
"-121.67","69.67","KEATS POINT","2202663","2021-02-12 20:00","2021","02","12","20:00","-7.9","","-15.9","","52","","","","17","","13","","","M","98.64","","","","-14","","NA"
"-121.67","69.67","KEATS POINT","2202663","2021-02-12 21:00","2021","02","12","21:00","-4.6","","-13.9","","48","","","","16","","34","","","M","98.56","","","","-13","","NA"
"-121.67","69.67","KEATS POINT","2202663","2021-02-12 22:00","2021","02","12","22:00","-1.6","","-16.0","","32","","","","20","","15","","","M","98.51","","","","-6","","NA"
"-121.67","69.67","KEATS POINT","2202663","2021-02-12 23:00","2021","02","12","23:00","-2.7","","-15.4","","37","","","","15","","13","","","M","98.51","","","","-7","","NA"
"-121.67","69.67","KEATS POINT","2202663","2021-02-13 00:00","2021","02","13","00:00","-6.5","","-15.2","","50","","","","21","","48","","","M","98.40","","","","-17","","NA"
"-121.67","69.67","KEATS POINT","2202663","2021-02-13 01:00","2021","02","13","01:00","-7.2","","-15.4","","52","","","","21","","48","","","M","98.37","","","","-18","","NA"
"-121.67","69.67","KEATS POINT","2202663","2021-02-13 02:00","2021","02","13","02:00","-7.7","","-16.0","","51","","","","21","","54","","","M","98.36","","","","-19","","NA"
"-121.67","69.67","KEATS POINT","2202663","2021-02-13 03:00","2021","02","13","03:00","-8.7","","-15.7","","57","","","","21","","57","","","M","98.31","","","","-21","","NA"
"-121.67","69.67","KEATS POINT","2202663","2021-02-13 04:00","2021","02","13","04:00","-8.1","","-15.2","","56","","","","20","","50","","","M","98.27","","","","-19","","NA"
"-121.67","69.67","KEATS POINT","2202663","2021-02-13 05:00","2021","02","13","05:00","-8.6","","-14.9","","60","","","","20","","50","","","M","98.22","","","","-20","","NA"
"-121.67","69.67","KEATS POINT","2202663","2021-02-13 06:00","2021","02","13","06:00","-9.0","","-15.3","","60","","","","20","","55","","","M","98.16","","","","-21","","NA"
"-121.67","69.67","KEATS POINT","2202663","2021-02-13 07:00","2021","02","13","07:00","-9.1","","-15.4","","61","","","","21","","52","","","M","98.15","","","","-21","","NA"
"-121.67","69.67","KEATS POINT","2202663","2021-02-13 08:00","2021","02","13","08:00","-9.2","","-15.6","","60","","","","21","","52","","","M","98.11","","","","-21","","NA"
"-121.67","69.67","KEATS POINT","2202663","2021-02-13 09:00","2021","02","13","09:00","-10.0","","-15.9","","62","","","","20","","50","","","M","98.07","","","","-22","","NA"
"-121.67","69.67","KEATS POINT","2202663","2021-02-13 10:00","2021","02","13","10:00","-10.0","","-16.1","","61","","","","21","","59","","","M","98.00","","","","-23","","NA"
"-121.67","69.67","KEATS POINT","2202663","2021-02-13 11:00","2021","02","13","11:00","-11.1","","-16.4","","64","","","","21","","63","","","M","97.95","","","","-24","","NA"
"-121.67","69.67","KEATS POINT","2202663","2021-02-13 12:00","2021","02","13","12:00","-12.1","","-16.1","","72","","","","24","","52","","","M","97.96","","","","-25","","NA"
"-121.67","69.67","KEATS POINT","2202663","2021-02-13 13:00","2021","02","13","13:00","-11.2","","-16.5","","65","","","","22","","65","","","M","97.87","","","","-25","","NA"
"-121.67","69.67","KEATS POINT","2202663","2021-02-13 14:00","2021","02","13","14:00","-11.5","","-17.1","","63","","","","21","","67","","","M","97.79","","","","-25","","NA"
"-121.67","69.67","KEATS POINT","2202663","2021-02-13 15:00","2021","02","13","15:00","-11.9","","-17.8","","61","","","","21","","70","","","M","97.73","","","","-26","","NA"
"-121.67","69.67","KEATS POINT","2202663","2021-02-13 16:00","2021","02","13","16:00","-11.8","","-18.0","","60","","","","21","","72","","","M","97.66","","","","-26","","NA"
"-121.67","69.67","KEATS POINT","2202663","2021-02-13 17:00","2021","02","13","17:00","-12.2","","-17.7","","64","","","","22","","67","","","M","97.59","","","","-26","","NA"
"-121.67","69.67","KEATS POINT","2202663","2021-02-13 18:00","2021","02","13","18:00","-12.4","","-18.0","","63","","","","21","","63","","","M","97.51","","","","-26","","NA"
"-121.67","69.67","KEATS POINT","2202663","2021-02-13 19:00","2021","02","13","19:00","-12.1","","-17.9","","62","","","","21","","72","","","M","97.42","","","","-26","","NA"
"-121.67","69.67","KEATS POINT","2202663","2021-02-13 20:00","2021","02","13","20:00","-10.4","","-18.1","","53","","","","8","","21","","","M","97.56","","","","-19","","NA"
"-121.67","69.67","KEATS POINT","2202663","2021-02-13 21:00","2021","02","13","21:00"
"-121.67","69.67","KEATS POINT","2202663","2021-02-13 22:00","2021","02","13","22:00","-13.4","","-21.1","","52","","","","23","","21","","","M","97.49","","","","-22","","NA"
"-121.67","69.67","KEATS POINT","2202663","2021-02-13 23:00","2021","02","13","23:00","-14.4","","-20.4","","59","","","","21","","46","","","M","97.40","","","","-27","","NA"
"-121.67","69.67","KEATS POINT","2202663","2021-02-14 00:00","2021","02","14","00:00","-16.7","","-21.7","","65","","","","21","","43","","","M","97.34","","","","-30","","NA"
"-121.67","69.67","KEATS POINT","2202663","2021-02-14 01:00","2021","02","14","01:00","-18.8","","-22.8","","70","","","","22","","54","","","M","97.27","","","","-34","","NA"
"-121.67","69.67","KEATS POINT","2202663","2021-02-14 02:00","2021","02","14","02:00","-18.7","","-22.8","","69","","","","20","","37","","","M","97.26","","","","-32","","NA"
"-121.67","69.67","KEATS POINT","2202663","2021-02-14 03:00","2021","02","14","03:00","-18.1","","-22.4","","70","","","","21","","28","","","M","97.23","","","","-30","","NA"
"-121.67","69.67","KEATS POINT","2202663","2021-02-14 04:00","2021","02","14","04:00","-19.4","","-23.6","","69","","","","21","","35","","","M","97.16","","","","-33","","NA"
"-121.67","69.67","KEATS POINT","2202663","2021-02-14 05:00","2021","02","14","05:00","-20.7","","-24.3","","72","","","","21","","34","","","M","97.16","","","","-34","","NA"
"-121.67","69.67","KEATS POINT","2202663","2021-02-14 06:00","2021","02","14","06:00","-21.6","","-24.9","","74","","","","22","","35","","","M","97.08","","","","-36","","NA"
"-121.67","69.67","KEATS POINT","2202663","2021-02-14 07:00","2021","02","14","07:00","-22.5","","-25.7","","75","","","","22","","57","","","M","96.93","","","","-40","","NA"
"-121.67","69.67","KEATS POINT","2202663","2021-02-14 08:00","2021","02","14","08:00","-23.0","","-26.2","","75","","","","22","","55","","","M","96.93","","","","-40","","NA"
"-121.67","69.67","KEATS POINT","2202663","2021-02-14 09:00","2021","02","14","09:00","-23.7","","-26.8","","76","","","","23","","44","","","M","96.94","","","","-40","","NA"
"-121.67","69.67","KEATS POINT","2202663","2021-02-14 10:00","2021","02","14","10:00","-24.4","","-27.5","","75","","","","22","","50","","","M","96.88","","","","-41","","NA"
"-121.67","69.67","KEATS POINT","2202663","2021-02-14 11:00","2021","02","14","11:00","-24.3","","-27.4","","76","","","","22","","44","","","M","96.85","","","","-40","","NA"
"-121.67","69.67","KEATS POINT","2202663","2021-02-14 12:00","2021","02","14","12:00","-24.2","","-27.5","","74","","","","22","","52","","","M","96.87","","","","-41","","NA"
"-121.67","69.67","KEATS POINT","2202663","2021-02-14 13:00","2021","02","14","13:00","-23.5","","-26.6","","75","","","","23","","44","","","M","96.90","","","","-39","","NA"
"-121.67","69.67","KEATS POINT","2202663","2021-02-14 14:00","2021","02","14","14:00","-23.0","","-26.0","","75","","","","24","","46","","","M","96.86","","","","-39","","NA"
"-121.67","69.67","KEATS POINT","2202663","2021-02-14 15:00","2021","02","14","15:00","-23.0","","-25.9","","77","","","","25","","39","","","M","96.88","","","","-38","","NA"
"-121.67","69.67","KEATS POINT","2202663","2021-02-14 16:00","2021","02","14","16:00","-22.7","","-25.4","","78","","","","25","","37","","","M","96.92","","","","-37","","NA"
"-121.67","69.67","KEATS POINT","2202663","2021-02-14 17:00","2021","02","14","17:00","-22.3","","-24.7","","80","","","","26","","35","","","M","96.93","","","","-36","","NA"
"-121.67","69.67","KEATS POINT","2202663","2021-02-14 18:00","2021","02","14","18:00","-22.8","","-25.3","","80","","","","25","","41","","","M","96.91","","","","-38","","NA"
"-121.67","69.67","KEATS POINT","2202663","2021-02-14 19:00","2021","02","14","19:00","-22.4","","-24.9","","80","","","","26","","43","","","M","96.91","","","","-38","","NA"
"-121.67","69.67","KEATS POINT","2202663","2021-02-14 20:00","2021","02","14","20:00","-22.8","","-25.2","","80","","","","26","","44","","","M","96.91","","","","-38","","NA"
"-121.67","69.67","KEATS POINT","2202663","2021-02-14 21:00","2021","02","14","21:00","-23.8","","-26.4","","79","","","","24","","48","","","M","96.88","","","","-40","","NA"
"-121.67","69.67","KEATS POINT","2202663","2021-02-14 22:00","2021","02","14","22:00","-25.2","","-27.8","","78","","","","24","","41","","","M","96.90","","","","-41","","NA"
"-121.67","69.67","KEATS POINT","2202663","2021-02-14 23:00","2021","02","14","23:00","-25.9","","-28.6","","78","","","","24","","44","","","M","96.89","","","","-43","","NA"
"-121.67","69.67","KEATS POINT","2202663","2021-02-15 00:00","2021","02","15","00:00","-26.8","","-29.7","","77","","","","22","","54","","","M","96.88","","","","-45","","NA"
"-121.67","69.67","KEATS POINT","2202663","2021-02-15 01:00","2021","02","15","01:00","-27.5","","-30.4","","76","","","","22","","48","","","M","96.87","","","","-45","","NA"
"-121.67","69.67","KEATS POINT","2202663","2021-02-15 02:00","2021","02","15","02:00","-27.6","","-30.5","","76","","","","22","","48","","","M","96.88","","","","-45","","NA"
"-121.67","69.67","KEATS POINT","2202663","2021-02-15 03:00","2021","02","15","03:00","-27.2","","-30.0","","77","","","","24","","52","","","M","96.84","","","","-45","","NA"
"-121.67","69.67","KEATS POINT","2202663","2021-02-15 04:00","2021","02","15","04:00","-27.3","","-30.1","","76","","","","24","","50","","","M","96.86","","","","-45","","NA"
"-121.67","69.67","KEATS POINT","2202663","2021-02-15 05:00","2021","02","15","05:00","-28.0","","-30.9","","76","","","","24","","46","","","M","96.89","","","","-46","","NA"
"-121.67","69.67","KEATS POINT","2202663","2021-02-15 06:00","2021","02","15","06:00","-28.2","","-31.1","","76","","","","22","","48","","","M","96.87","","","","-46","","NA"
"-121.67","69.67","KEATS POINT","2202663","2021-02-15 07:00","2021","02","15","07:00","-26.7","","-29.5","","76","","","","22","","61","","","M","96.82","","","","-46","","NA"
"-121.67","69.67","KEATS POINT","2202663","2021-02-15 08:00","2021","02","15","08:00","-27.2","","-30.2","","76","","","","22","","50","","","M","96.81","","","","-45","","NA"
"-121.67","69.67","KEATS POINT","2202663","2021-02-15 09:00","2021","02","15","09:00","-27.2","","-30.3","","74","","","","23","","50","","","M","96.82","","","","-45","","NA"
"-121.67","69.67","KEATS POINT","2202663","2021-02-15 10:00","2021","02","15","10:00","-27.5","","-30.6","","75","","","","24","","54","","","M","96.80","","","","-46","","NA"
"-121.67","69.67","KEATS POINT","2202663","2021-02-15 11:00","2021","02","15","11:00","-27.5","","-30.6","","75","","","","23","","57","","","M","96.76","","","","-47","","NA"
"-121.67","69.67","KEATS POINT","2202663","2021-02-15 12:00","2021","02","15","12:00","-27.8","","-30.7","","75","","","","23","","50","","","M","96.75","","","","-46","","NA"
"-121.67","69.67","KEATS POINT","2202663","2021-02-15 13:00","2021","02","15","13:00","-27.7","","-30.7","","76","","","","23","","50","","","M","96.77","","","","-46","","NA"
"-121.67","69.67","KEATS POINT","2202663","2021-02-15 14:00","2021","02","15","14:00","-28.0","","-30.9","","76","","","","24","","46","","","M","96.78","","","","-46","","NA"
"-121.67","69.67","KEATS POINT","2202663","2021-02-15 15:00","2021","02","15","15:00","-27.2","","-30.2","","76","","","","25","","50","","","M","96.76","","","","-45","","NA"
"-121.67","69.67","KEATS POINT","2202663","2021-02-15 16:00","2021","02","15","16:00","-28.0","","-30.9","","76","","","","24","","50","","","M","96.80","","","","-46","","NA"
"-121.67","69.67","KEATS POINT","2202663","2021-02-15 17:00","2021","02","15","17:00","-28.4","","-31.3","","75","","","","24","","43","","","M","96.87","","","","-46","","NA"
"-121.67","69.67","KEATS POINT","2202663","2021-02-15 18:00","2021","02","15","18:00","-28.8","","-31.9","","74","","","","24","","52","","","M","96.80","","","","-48","","NA"
"-121.67","69.67","KEATS POINT","2202663","2021-02-15 19:00","2021","02","15","19:00","-29.1","","-32.1","","75","","","","25","","50","","","M","96.84","","","","-48","","NA"
"-121.67","69.67","KEATS POINT","2202663","2021-02-15 20:00","2021","02","15","20:00","-29.6","","-32.6","","74","","","","24","","46","","","M","96.86","","","","-48","","NA"
"-121.67","69.67","KEATS POINT","2202663","2021-02-15 21:00","2021","02","15","21:00","-29.4","","-32.5","","74","","","","23","","41","","","M","96.85","","","","-47","","NA"
"-121.67","69.67","KEATS POINT","2202663","2021-02-15 22:00","2021","02","15","22:00","-28.4","","-31.7","","74","","","","24","","44","","","M","96.85","","","","-46","","NA"
"-121.67","69.67","KEATS POINT","2202663","2021-02-15 23:00","2021","02","15","23:00","-28.6","","-31.6","","75","","","","23","","30","","","M","96.87","","","","-44","","NA"
"-121.67","69.67","KEATS POINT","2202663","2021-02-16 00:00","2021","02","16","00:00","-27.1","","-30.0","","75","","","","23","","37","","","M","96.87","","","","-43","","NA"
"-121.67","69.67","KEATS POINT","2202663","2021-02-16 01:00","2021","02","16","01:00","-26.4","","-29.3","","76","","","","24","","37","","","M","96.88","","","","-42","","NA"
"-121.67","69.67","KEATS POINT","2202663","2021-02-16 02:00","2021","02","16","02:00","-27.5","","-30.3","","77","","","","24","","34","","","M","96.92","","","","-43","","NA"
"-121.67","69.67","KEATS POINT","2202663","2021-02-16 03:00","2021","02","16","03:00","-26.6","","-29.3","","77","","","","25","","41","","","M","96.92","","","","-43","","NA"
"-121.67","69.67","KEATS POINT","2202663","2021-02-16 04:00","2021","02","16","04:00","-26.8","","-29.6","","77","","","","25","","37","","","M","96.93","","","","-43","","NA"
"-121.67","69.67","KEATS POINT","2202663","2021-02-16 05:00","2021","02","16","05:00","-25.5","","-28.2","","78","","","","25","","37","","","M","96.93","","","","-41","","NA"
"-121.67","69.67","KEATS POINT","2202663","2021-02-16 06:00","2021","02","16","06:00","-24.8","","-27.5","","78","","","","26","","37","","","M","96.94","","","","-40","","NA"
"-121.67","69.67","KEATS POINT","2202663","2021-02-16 07:00","2021","02","16","07:00","-25.1","","-27.8","","78","","","","26","","41","","","M","96.94","","","","-41","","NA"
"-121.67","69.67","KEATS POINT","2202663","2021-02-16 08:00","2021","02","16","08:00","-25.3","","-28.0","","78","","","","26","","39","","","M","96.97","","","","-41","","NA"
"-121.67","69.67","KEATS POINT","2202663","2021-02-16 09:00","2021","02","16","09:00","-25.6","","-28.3","","78","","","","25","","37","","","M","97.00","","","","-41","","NA"
"-121.67","69.67","KEATS POINT","2202663","2021-02-16 10:00","2021","02","16","10:00","-24.3","","-26.9","","79","","","","25","","37","","","M","97.02","","","","-39","","NA"
"-121.67","69.67","KEATS POINT","2202663","2021-02-16 11:00","2021","02","16","11:00","-23.6","","-26.1","","79","","","","26","","43","","","M","97.01","","","","-39","","NA"
"-121.67","69.67","KEATS POINT","2202663","2021-02-16 12:00","2021","02","16","12:00","-23.9","","-26.6","","79","","","","25","","48","","","M","97.04","","","","-40","","NA"
"-121.67","69.67","KEATS POINT","2202663","2021-02-16 13:00","2021","02","16","13:00","-24.5","","-27.1","","79","","","","26","","46","","","M","97.07","","","","-41","","NA"
"-121.67","69.67","KEATS POINT","2202663","2021-02-16 14:00","2021","02","16","14:00","-24.5","","-27.3","","78","","","","26","","44","","","M","97.11","","","","-41","","NA"
"-121.67","69.67","KEATS POINT","2202663","2021-02-16 15:00","2021","02","16","15:00","-24.3","","-27.1","","78","","","","25","","43","","","M","97.15","","","","-40","","NA"
"-121.67","69.67","KEATS POINT","2202663","2021-02-16 16:00","2021","02","16","16:00","-23.9","","-26.7","","78","","","","26","","44","","","M","97.17","","","","-40","","NA"
"-121.67","69.67","KEATS POINT","2202663","2021-02-16 17:00","2021","02","16","17:00","-24.8","","-27.6","","77","","","","25","","46","","","M","97.21","","","","-41","","NA"
"-121.67","69.67","KEATS POINT","2202663","2021-02-16 18:00","2021","02","16","18:00","-25.0","","-27.8","","78","","","","25","","43","","","M","97.23","","","","-41","","NA"
"-121.67","69.67","KEATS POINT","2202663","2021-02-16 19:00","2021","02","16","19:00","-24.8","","-27.5","","78","","","","26","","43","","","M","97.25","","","","-41","","NA"
"-121.67","69.67","KEATS POINT","2202663","2021-02-16 20:00","2021","02","16","20:00","-24.8","","-27.6","","77","","","","26","","39","","","M","97.31","","","","-40","","NA"
"-121.67","69.67","KEATS POINT","2202663","2021-02-16 21:00","2021","02","16","21:00","-24.8","","-27.7","","77","","","","25","","31","","","M","97.34","","","","-39","","NA"
"-121.67","69.67","KEATS POINT","2202663","2021-02-16 22:00","2021","02","16","22:00","-24.9","","-27.8","","77","","","","24","","31","","","M","97.32","","","","-39","","NA"
"-121.67","69.67","KEATS POINT","2202663","2021-02-16 23:00","2021","02","16","23:00","-24.3","","-27.3","","76","","","","25","","30","","","M","97.34","","","","-38","","NA"
"-121.67","69.67","KEATS POINT","2202663","2021-02-17 00:00","2021","02","17","00:00","-24.1","","-27.1","","76","","","","25","","34","","","M","97.34","","","","-39","","NA"
"-121.67","69.67","KEATS POINT","2202663","2021-02-17 01:00","2021","02","17","01:00","-24.2","","-27.3","","75","","","","25","","35","","","M","97.34","","","","-39","","NA"
"-121.67","69.67","KEATS POINT","2202663","2021-02-17 02:00","2021","02","17","02:00","-24.7","","-27.7","","77","","","","25","","39","","","M","97.34","","","","-40","","NA"
"-121.67","69.67","KEATS POINT","2202663","2021-02-17 03:00","2021","02","17","03:00","-23.8","","-26.8","","76","","","","24","","37","","","M","97.36","","","","-39","","NA"
"-121.67","69.67","KEATS POINT","2202663","2021-02-17 04:00","2021","02","17","04:00","-24.5","","-27.2","","78","","","","24","","41","","","M","97.34","","","","-40","","NA"
"-121.67","69.67","KEATS POINT","2202663","2021-02-17 05:00","2021","02","17","05:00","-24.7","","-27.4","","78","","","","24","","48","","","M","97.32","","","","-42","","NA"
"-121.67","69.67","KEATS POINT","2202663","2021-02-17 06:00","2021","02","17","06:00","-25.2","","-27.9","","78","","","","23","","44","","","M","97.29","","","","-42","","NA"
"-121.67","69.67","KEATS POINT","2202663","2021-02-17 07:00","2021","02","17","07:00","-25.7","","-28.4","","78","","","","23","","39","","","M","97.25","","","","-42","","NA"
"-121.67","69.67","KEATS POINT","2202663","2021-02-17 08:00","2021","02","17","08:00","-25.7","","-28.4","","78","","","","22","","43","","","M","97.24","","","","-42","","NA"
"-121.67","69.67","KEATS POINT","2202663","2021-02-17 09:00","2021","02","17","09:00","-25.8","","-28.5","","78","","","","22","","39","","","M","97.23","","","","-42","","NA"
"-121.67","69.67","KEATS POINT","2202663","2021-02-17 10:00","2021","02","17","10:00","-26.2","","-29.1","","77","","","","22","","43","","","M","97.22","","","","-43","","NA"
"-121.67","69.67","KEATS POINT","2202663","2021-02-17 11:00","2021","02","17","11:00","-25.2","","-29.0","","70","","","","22","","48","","","M","78.66","","","","-42","","NA"
"-121.67","69.67","KEATS POINT","2202663","2021-02-17 12:00","2021","02","17","12:00","-26.5","","-29.7","","74","","","","22","","48","","","M","97.13","","","","-44","","NA"
"-121.67","69.67","KEATS POINT","2202663","2021-02-17 13:00","2021","02","17","13:00","-26.4","","-29.7","","74","","","","22","","50","","","M","97.10","","","","-44","","NA"
"-121.67","69.67","KEATS POINT","2202663","2021-02-17 14:00","2021","02","17","14:00","-26.9","","-30.4","","72","","","","22","","52","","","M","97.06","","","","-45","","NA"
"-121.67","69.67","KEATS POINT","2202663","2021-02-17 15:00","2021","02","17","15:00","-27.5","","-31.0","","72","","","","22","","54","","","M","97.04","","","","-46","","NA"
"-121.67","69.67","KEATS POINT","2202663","2021-02-17 16:00","2021","02","17","16:00","-27.6","","-31.2","","71","","","","22","","48","","","M","96.99","","","","-45","","NA"
"-121.67","69.67","KEATS POINT","2202663","2021-02-17 17:00","2021","02","17","17:00","-28.0","","-31.0","","75","","","","23","","48","","","M","96.94","","","","-46","","NA"
"-121.67","69.67","KEATS POINT","2202663","2021-02-17 18:00","2021","02","17","18:00","-28.6","","-31.7","","74","","","","22","","46","","","M","96.91","","","","-47","","NA"
"-121.67","69.67","KEATS POINT","2202663","2021-02-17 19:00","2021","02","17","19:00","-28.7","","-31.9","","74","","","","22","","46","","","M","96.88","","","","-47","","NA"
"-121.67","69.67","KEATS POINT","2202663","2021-02-17 20:00","2021","02","17","20:00","-28.9","","-32.2","","73","","","","22","","52","","","M","96.86","","","","-48","","NA"
"-121.67","69.67","KEATS POINT","2202663","2021-02-17 21:00","2021","02","17","21:00","-28.7","","-31.8","","74","","","","22","","48","","","M","96.80","","","","-47","","NA"
"-121.67","69.67","KEATS POINT","2202663","2021-02-17 22:00","2021","02","17","22:00","-28.6","","-31.8","","74","","","","22","","54","","","M","96.76","","","","-48","","NA"
"-121.67","69.67","KEATS POINT","2202663","2021-02-17 23:00","2021","02","17","23:00","-29.1","","-32.4","","73","","","","22","","46","","","M","96.75","","","","-47","","NA"
"-121.67","69.67","KEATS POINT","2202663","2021-02-18 00:00","2021","02","18","00:00","-28.9","","-32.0","","75","","","","23","","41","","","M","96.70","","","","-46","","NA"
"-121.67","69.67","KEATS POINT","2202663","2021-02-18 01:00","2021","02","18","01:00","-28.9","","-32.2","","72","","","","22","","54","","","M","96.65","","","","-48","","NA"
"-121.67","69.67","KEATS POINT","2202663","2021-02-18 02:00","2021","02","18","02:00","-29.0","","-32.4","","72","","","","22","","48","","","M","96.65","","","","-47","","NA"
"-121.67","69.67","KEATS POINT","2202663","2021-02-18 03:00","2021","02","18","03:00","-28.8","","-31.9","","74","","","","23","","43","","","M","96.63","","","","-46","","NA"
"-121.67","69.67","KEATS POINT","2202663","2021-02-18 04:00","2021","02","18","04:00","-28.9","","-31.9","","75","","","","23","","37","","","M","96.62","","","","-46","","NA"
"-121.67","69.67","KEATS POINT","2202663","2021-02-18 05:00","2021","02","18","05:00"
"-121.67","69.67","KEATS POINT","2202663","2021-02-18 06:00","2021","02","18","06:00","-28.2","","-31.1","","76","","","","23","","34","","","M","96.56","","","","-44","","NA"
"-121.67","69.67","KEATS POINT","2202663","2021-02-18 07:00","2021","02","18","07:00","-27.6","","-30.5","","76","","","","23","","30","","","M","96.49","","","","-42","","NA"
"-121.67","69.67","KEATS POINT","2202663","2021-02-18 08:00","2021","02","18","08:00","-28.9","","-31.9","","75","","","","21","","34","","","M","96.47","","","","-45","","NA"
"-121.67","69.67","KEATS POINT","2202663","2021-02-18 09:00","2021","02","18","09:00","-27.2","","-30.1","","76","","","","23","","26","","","M","96.45","","","","-41","","NA"
"-121.67","69.67","KEATS POINT","2202663","2021-02-18 10:00","2021","02","18","10:00","-27.0","","-30.0","","75","","","","22","","30","","","M","96.43","","","","-42","","NA"
"-121.67","69.67","KEATS POINT","2202663","2021-02-18 11:00","2021","02","18","11:00","-26.3","","-29.2","","76","","","","23","","22","","","M","96.38","","","","-39","","NA"
"-121.67","69.67","KEATS POINT","2202663","2021-02-18 12:00","2021","02","18","12:00","-25.8","","-29.0","","74","","","","24","","24","","","M","96.38","","","","-39","","NA"
"-121.67","69.67","KEATS POINT","2202663","2021-02-18 13:00","2021","02","18","13:00","-25.4","","-28.8","","73","","","","23","","22","","","M","96.31","","","","-38","","NA"
"-121.67","69.67","KEATS POINT","2202663","2021-02-18 14:00","2021","02","18","14:00","-24.6","","-28.2","","72","","","","24","","22","","","M","96.28","","","","-37","","NA"
"-121.67","69.67","KEATS POINT","2202663","2021-02-18 15:00","2021","02","18","15:00","-24.1","","-27.8","","71","","","","25","","13","","","M","96.26","","","","-33","","NA"
"-121.67","69.67","KEATS POINT","2202663","2021-02-18 16:00","2021","02","18","16:00","-26.6","","-29.7","","75","","","","4","","5","","","M","96.21","","","","-32","","NA"
"-121.67","69.67","KEATS POINT","2202663","2021-02-18 17:00","2021","02","18","17:00","-27.7","","-30.4","","77","","","","28","","5","","","M","96.20","","","","-33","","NA"
"-121.67","69.67","KEATS POINT","2202663","2021-02-18 18:00","2021","02","18","18:00","-27.6","","-30.4","","76","","","","17","","4","","","M","96.15","","","","-32","","NA"
"-121.67","69.67","KEATS POINT","2202663","2021-02-18 19:00","2021","02","18","19:00","-25.8","","-28.7","","76","","","","8","","5","","","M","96.13","","","","-31","","NA"
"-121.67","69.67","KEATS POINT","2202663","2021-02-18 20:00","2021","02","18","20:00","-27.1","","-29.9","","77","","","","30","","8","","","M","96.07","","","","-35","","NA"
"-121.67","69.67","KEATS POINT","2202663","2021-02-18 21:00","2021","02","18","21:00","-26.6","","-29.5","","76","","","","23","","2","","","M","96.05","","","","-29","","NA"
"-121.67","69.67","KEATS POINT","2202663","2021-02-18 22:00","2021","02","18","22:00","-27.6","","-30.4","","77","","","","4","","8","","","M","96.00","","","","-35","","NA"
"-121.67","69.67","KEATS POINT","2202663","2021-02-18 23:00","2021","02","18","23:00","-28.0","","-30.9","","76","","","","11","","4","","","M","95.97","","","","-32","","NA"
"-121.67","69.67","KEATS POINT","2202663","2021-02-19 00:00","2021","02","19","00:00","-27.7","","-30.5","","77","","","","11","","13","","","M","95.93","","","","-38","","NA"
"-121.67","69.67","KEATS POINT","2202663","2021-02-19 01:00","2021","02","19","01:00","-27.2","","-30.0","","77","","","","10","","11","","","M","95.89","","","","-36","","NA"
"-121.67","69.67","KEATS POINT","2202663","2021-02-19 02:00","2021","02","19","02:00","-28.1","","-30.9","","77","","","","9","","17","","","M","95.84","","","","-40","","NA"
"-121.67","69.67","KEATS POINT","2202663","2021-02-19 03:00","2021","02","19","03:00","-28.5","","-31.4","","76","","","","10","","15","","","M","95.84","","","","-40","","NA"
"-121.67","69.67","KEATS POINT","2202663","2021-02-19 04:00","2021","02","19","04:00","-28.8","","-31.8","","76","","","","10","","13","","","M","95.80","","","","-39","","NA"
"-121.67","69.67","KEATS POINT","2202663","2021-02-19 05:00","2021","02","19","05:00","-29.1","","-32.1","","75","","","","12","","18","","","M","95.73","","","","-41","","NA"
"-121.67","69.67","KEATS POINT","2202663","2021-02-19 06:00","2021","02","19","06:00","-28.7","","-31.6","","76","","","","10","","22","","","M","95.69","","","","-42","","NA"
"-121.67","69.67","KEATS POINT","2202663","2021-02-19 07:00","2021","02","19","07:00","-28.5","","-31.4","","76","","","","10","","26","","","M","95.62","","","","-43","","NA"
"-121.67","69.67","KEATS POINT","2202663","2021-02-19 08:00","2021","02","19","08:00","-28.2","","-31.1","","76","","","","10","","28","","","M","95.62","","","","-43","","NA"
"-121.67","69.67","KEATS POINT","2202663","2021-02-19 09:00","2021","02","19","09:00","-28.2","","-31.1","","76","","","","11","","26","","","M","95.58","","","","-42","","NA"
"-121.67","69.67","KEATS POINT","2202663","2021-02-19 10:00","2021","02","19","10:00","-27.9","","-30.7","","76","","","","10","","26","","","M","95.55","","","","-42","","NA"
"-121.67","69.67","KEATS POINT","2202663","2021-02-19 11:00","2021","02","19","11:00","-27.7","","-30.6","","76","","","","9","","26","","","M","95.55","","","","-42","","NA"
"-121.67","69.67","KEATS POINT","2202663","2021-02-19 12:00","2021","02","19","12:00","-27.5","","-30.4","","76","","","","10","","24","","","M","95.55","","","","-41","","NA"
"-121.67","69.67","KEATS POINT","2202663","2021-02-19 13:00","2021","02","19","13:00","-27.5","","-30.4","","76","","","","10","","21","","","M","95.57","","","","-40","","NA"
"-121.67","69.67","KEATS POINT","2202663","2021-02-19 14:00","2021","02","19","14:00","-27.4","","-30.2","","76","","","","10","","17","","","M","95.58","","","","-39","","NA"
"-121.67","69.67","KEATS POINT","2202663","2021-02-19 15:00","2021","02","19","15:00","-26.9","","-29.7","","77","","","","6","","9","","","M","95.61","","","","-35","","NA"
"-121.67","69.67","KEATS POINT","2202663","2021-02-19 16:00","2021","02","19","16:00","-27.1","","-29.9","","77","","","","6","","9","","","M","95.63","","","","-35","","NA"
"-121.67","69.67","KEATS POINT","2202663","2021-02-19 17:00","2021","02","19","17:00","-27.6","","-30.4","","76","","","","4","","5","","","M","95.65","","","","-33","","NA"
"-121.67","69.67","KEATS POINT","2202663","2021-02-19 18:00","2021","02","19","18:00","-28.2","","-31.1","","76","","","","35","","5","","","M","95.67","","","","-34","","NA"
"-121.67","69.67","KEATS POINT","2202663","2021-02-19 19:00","2021","02","19","19:00","-28.7","","-31.6","","76","","","","31","","11","","","M","95.68","","","","-38","","NA"
"-121.67","69.67","KEATS POINT","2202663","2021-02-19 20:00","2021","02","19","20:00","-30.2","","-33.2","","75","","","","29","","17","","","M","95.69","","","","-42","","NA"
"-121.67","69.67","KEATS POINT","2202663","2021-02-19 21:00","2021","02","19","21:00","-31.0","","-34.1","","74","","","","29","","21","","","M","95.71","","","","-45","","NA"
"-121.67","69.67","KEATS POINT","2202663","2021-02-19 22:00","2021","02","19","22:00","-31.3","","-34.4","","74","","","","29","","24","","","M","95.70","","","","-46","","NA"
"-121.67","69.67","KEATS POINT","2202663","2021-02-19 23:00","2021","02","19","23:00","-30.4","","-33.4","","74","","","","27","","26","","","M","95.73","","","","-45","","NA"
"-121.67","69.67","KEATS POINT","2202663","2021-02-20 00:00","2021","02","20","00:00","-31.2","","-34.3","","74","","","","24","","30","","","M","95.74","","","","-47","","NA"
"-121.67","69.67","KEATS POINT","2202663","2021-02-20 01:00","2021","02","20","01:00","-31.1","","-34.2","","74","","","","25","","28","","","M","95.73","","","","-47","","NA"
"-121.67","69.67","KEATS POINT","2202663","2021-02-20 02:00","2021","02","20","02:00","-32.7","","-35.9","","72","","","","23","","34","","","M","95.72","","","","-50","","NA"
"-121.67","69.67","KEATS POINT","2202663","2021-02-20 03:00","2021","02","20","03:00","-32.8","","-36.0","","72","","","","23","","34","","","M","95.71","","","","-50","","NA"
"-121.67","69.67","KEATS POINT","2202663","2021-02-20 04:00","2021","02","20","04:00","-32.0","","-35.2","","73","","","","24","","35","","","M","95.70","","","","-49","","NA"
"-121.67","69.67","KEATS POINT","2202663","2021-02-20 05:00","2021","02","20","05:00","-31.7","","-34.9","","73","","","","24","","34","","","M","95.67","","","","-49","","NA"
"-121.67","69.67","KEATS POINT","2202663","2021-02-20 06:00","2021","02","20","06:00","-32.7","","-35.9","","72","","","","24","","31","","","M","95.69","","","","-49","","NA"
"-121.67","69.67","KEATS POINT","2202663","2021-02-20 07:00","2021","02","20","07:00","-32.1","","-35.3","","73","","","","24","","26","","","M","95.66","","","","-47","","NA"
"-121.67","69.67","KEATS POINT","2202663","2021-02-20 08:00","2021","02","20","08:00","-32.1","","-35.3","","73","","","","23","","31","","","M","95.68","","","","-49","","NA"
"-121.67","69.67","KEATS POINT","2202663","2021-02-20 09:00","2021","02","20","09:00","-32.3","","-35.5","","73","","","","23","","24","","","M","95.67","","","","-47","","NA"
"-121.67","69.67","KEATS POINT","2202663","2021-02-20 10:00","2021","02","20","10:00","-32.0","","-35.2","","73","","","","22","","30","","","M","95.68","","","","-48","","NA"
"-121.67","69.67","KEATS POINT","2202663","2021-02-20 11:00","2021","02","20","11:00","-31.6","","-34.8","","73","","","","22","","31","","","M","95.65","","","","-48","","NA"
"-121.67","69.67","KEATS POINT","2202663","2021-02-20 12:00","2021","02","20","12:00","-31.0","","-34.2","","73","","","","22","","34","","","M","95.58","","","","-48","","NA"
"-121.67","69.67","KEATS POINT","2202663","2021-02-20 13:00","2021","02","20","13:00","-30.5","","-33.6","","74","","","","22","","46","","","M","95.54","","","","-49","","NA"
"-121.67","69.67","KEATS POINT","2202663","2021-02-20 14:00","2021","02","20","14:00","-30.4","","-33.5","","74","","","","22","","46","","","M","95.51","","","","-49","","NA"
"-121.67","69.67","KEATS POINT","2202663","2021-02-20 15:00","2021","02","20","15:00","-31.0","","-34.2","","73","","","","23","","37","","","M","95.53","","","","-48","","NA"
"-121.67","69.67","KEATS POINT","2202663","2021-02-20 16:00","2021","02","20","16:00","-31.1","","-34.3","","73","","","","22","","43","","","M","95.51","","","","-49","","NA"
"-121.67","69.67","KEATS POINT","2202663","2021-02-20 17:00","2021","02","20","17:00","-32.0","","-35.2","","73","","","","22","","37","","","M","95.50","","","","-50","","NA"
"-121.67","69.67","KEATS POINT","2202663","2021-02-20 18:00","2021","02","20","18:00","-31.7","","-34.9","","73","","","","22","","35","","","M","95.47","","","","-49","","NA"
"-121.67","69.67","KEATS POINT","2202663","2021-02-20 19:00","2021","02","20","19:00","-30.9","","-34.1","","74","","","","21","","48","","","M","95.38","","","","-50","","NA"
"-121.67","69.67","KEATS POINT","2202663","2021-02-20 20:00","2021","02","20","20:00","-30.3","","-33.5","","74","","","","21","","55","","","M","95.30","","","","-50","","NA"
"-121.67","69.67","KEATS POINT","2202663","2021-02-20 21:00","2021","02","20","21:00","-29.4","","-32.5","","74","","","","22","","54","","","M","95.27","","","","-49","","NA"
"-121.67","69.67","KEATS POINT","2202663","2021-02-20 22:00","2021","02","20","22:00","-29.4","","-32.4","","74","","","","21","","50","","","M","95.20","","","","-48","","NA"
"-121.67","69.67","KEATS POINT","2202663","2021-02-20 23:00","2021","02","20","23:00","-29.3","","-32.4","","74","","","","22","","57","","","M","95.14","","","","-49","","NA"
"-121.67","69.67","KEATS POINT","2202663","2021-02-21 00:00","2021","02","21","00:00","-29.3","","-32.7","","72","","","","21","","59","","","M","95.13","","","","-49","","NA"
"-121.67","69.67","KEATS POINT","2202663","2021-02-21 01:00","2021","02","21","01:00","-29.2","","-32.5","","73","","","","22","","52","","","M","95.10","","","","-48","","NA"
"-121.67","69.67","KEATS POINT","2202663","2021-02-21 02:00","2021","02","21","02:00","-29.1","","-32.5","","72","","","","22","","52","","","M","95.06","","","","-48","","NA"
"-121.67","69.67","KEATS POINT","2202663","2021-02-21 03:00","2021","02","21","03:00","-29.3","","-32.7","","72","","","","22","","48","","","M","95.03","","","","-48","","NA"
"-121.67","69.67","KEATS POINT","2202663","2021-02-21 04:00","2021","02","21","04:00","-29.5","","-33.1","","71","","","","21","","50","","","M","94.98","","","","-48","","NA"
"-121.67","69.67","KEATS POINT","2202663","2021-02-21 05:00","2021","02","21","05:00","-29.5","","-32.9","","72","","","","22","","59","","","M","94.89","","","","-50","","NA"
"-121.67","69.67","KEATS POINT","2202663","2021-02-21 06:00","2021","02","21","06:00"
"-121.67","69.67","KEATS POINT","2202663","2021-02-21 07:00","2021","02","21","07:00","-29.6","","-33.2","","71","","","","22","","50","","","M","94.87","","","","-48","","NA"
"-121.67","69.67","KEATS POINT","2202663","2021-02-21 08:00","2021","02","21","08:00","-29.6","","-33.3","","70","","","","21","","52","","","M","94.84","","","","-49","","NA"
"-121.67","69.67","KEATS POINT","2202663","2021-02-21 09:00","2021","02","21","09:00","-29.3","","-32.9","","71","","","","21","","54","","","M","94.77","","","","-49","","NA"
"-121.67","69.67","KEATS POINT","2202663","2021-02-21 10:00","2021","02","21","10:00","-29.4","","-33.0","","71","","","","21","","48","","","M","94.79","","","","-48","","NA"
"-121.67","69.67","KEATS POINT","2202663","2021-02-21 11:00","2021","02","21","11:00","-28.5","","-32.0","","71","","","","21","","50","","","M","94.73","","","","-47","","NA"
"-121.67","69.67","KEATS POINT","2202663","2021-02-21 12:00","2021","02","21","12:00","-28.3","","-31.9","","71","","","","22","","52","","","M","94.71","","","","-47","","NA"
"-121.67","69.67","KEATS POINT","2202663","2021-02-21 13:00","2021","02","21","13:00","-28.1","","-31.7","","71","","","","22","","57","","","M","94.68","","","","-47","","NA"
"-121.67","69.67","KEATS POINT","2202663","2021-02-21 14:00","2021","02","21","14:00","-28.3","","-31.8","","72","","","","23","","50","","","M","94.69","","","","-47","","NA"
"-121.67","69.67","KEATS POINT","2202663","2021-02-21 15:00","2021","02","21","15:00","-28.3","","-31.8","","71","","","","22","","52","","","M","94.69","","","","-47","","NA"
"-121.67","69.67","KEATS POINT","2202663","2021-02-21 16:00","2021","02","21","16:00","-28.6","","-32.0","","73","","","","22","","59","","","M","94.66","","","","-48","","NA"
"-121.67","69.67","KEATS POINT","2202663","2021-02-21 17:00","2021","02","21","17:00"
"-121.67","69.67","KEATS POINT","2202663","2021-02-21 18:00","2021","02","21","18:00","-29.0","","-32.1","","74","","","","23","","52","","","M","94.67","","","","-48","","NA"
"-121.67","69.67","KEATS POINT","2202663","2021-02-21 19:00","2021","02","21","19:00","-28.6","","-31.6","","75","","","","23","","54","","","M","94.64","","","","-48","","NA"
"-121.67","69.67","KEATS POINT","2202663","2021-02-21 20:00","2021","02","21","20:00","-29.0","","-32.0","","75","","","","23","","59","","","M","94.64","","","","-49","","NA"
"-121.67","69.67","KEATS POINT","2202663","2021-02-21 21:00","2021","02","21","21:00","-29.0","","-32.1","","75","","","","23","","57","","","M","94.64","","","","-49","","NA"
"-121.67","69.67","KEATS POINT","2202663","2021-02-21 22:00","2021","02","21","22:00","-28.6","","-31.7","","74","","","","22","","63","","","M","94.67","","","","-49","","NA"
"-121.67","69.67","KEATS POINT","2202663","2021-02-21 23:00","2021","02","21","23:00","-28.3","","-31.4","","74","","","","22","","67","","","M","94.66","","","","-49","","NA"
"-121.67","69.67","KEATS POINT","2202663","2021-02-22 00:00","2021","02","22","00:00","-28.6","","-31.8","","74","","","","22","","68","","","M","94.67","","","","-49","","NA"
"-121.67","69.67","KEATS POINT","2202663","2021-02-22 01:00","2021","02","22","01:00","-28.6","","-31.8","","73","","","","22","","72","","","M","94.67","","","","-50","","NA"
"-121.67","69.67","KEATS POINT","2202663","2021-02-22 02:00","2021","02","22","02:00","-28.1","","-31.4","","73","","","","22","","72","","","M","94.75","","","","-49","","NA"
"-121.67","69.67","KEATS POINT","2202663","2021-02-22 03:00","2021","02","22","03:00","-27.7","","-31.1","","73","","","","22","","67","","","M","94.88","","","","-48","","NA"
"-121.67","69.67","KEATS POINT","2202663","2021-02-22 04:00","2021","02","22","04:00","-28.2","","-31.4","","73","","","","23","","54","","","M","94.95","","","","-47","","NA"
"-121.67","69.67","KEATS POINT","2202663","2021-02-22 05:00","2021","02","22","05:00","-28.2","","-31.3","","75","","","","23","","48","","","M","95.03","","","","-46","","NA"
"-121.67","69.67","KEATS POINT","2202663","2021-02-22 06:00","2021","02","22","06:00","-28.1","","-31.1","","75","","","","23","","46","","","M","95.05","","","","-46","","NA"
"-121.67","69.67","KEATS POINT","2202663","2021-02-22 07:00","2021","02","22","07:00","-27.6","","-30.6","","76","","","","23","","46","","","M","95.11","","","","-45","","NA"
"-121.67","69.67","KEATS POINT","2202663","2021-02-22 08:00","2021","02","22","08:00","-27.5","","-30.4","","76","","","","23","","41","","","M","95.18","","","","-44","","NA"
"-121.67","69.67","KEATS POINT","2202663","2021-02-22 09:00","2021","02","22","09:00","-27.2","","-30.1","","76","","","","24","","52","","","M","95.17","","","","-45","","NA"
"-121.67","69.67","KEATS POINT","2202663","2021-02-22 10:00","2021","02","22","10:00","-26.5","","-29.4","","77","","","","25","","54","","","M","95.21","","","","-45","","NA"
"-121.67","69.67","KEATS POINT","2202663","2021-02-22 11:00","2021","02","22","11:00","-26.7","","-29.6","","76","","","","25","","50","","","M","95.30","","","","-45","","NA"
"-121.67","69.67","KEATS POINT","2202663","2021-02-22 12:00","2021","02","22","12:00","-26.3","","-29.1","","77","","","","25","","46","","","M","95.37","","","","-43","","NA"
"-121.67","69.67","KEATS POINT","2202663","2021-02-22 13:00","2021","02","22","13:00","-26.9","","-29.8","","76","","","","26","","46","","","M","95.43","","","","-44","","NA"
"-121.67","69.67","KEATS POINT","2202663","2021-02-22 14:00","2021","02","22","14:00","-26.5","","-29.4","","76","","","","26","","43","","","M","95.50","","","","-43","","NA"
"-121.67","69.67","KEATS POINT","2202663","2021-02-22 15:00","2021","02","22","15:00","-26.6","","-29.5","","76","","","","26","","44","","","M","95.55","","","","-44","","NA"
"-121.67","69.67","KEATS POINT","2202663","2021-02-22 16:00","2021","02","22","16:00","-26.7","","-29.7","","76","","","","26","","41","","","M","95.63","","","","-43","","NA"
"-121.67","69.67","KEATS POINT","2202663","2021-02-22 17:00","2021","02","22","17:00","-27.6","","-30.5","","76","","","","26","","35","","","M","95.70","","","","-43","","NA"
"-121.67","69.67","KEATS POINT","2202663","2021-02-22 18:00","2021","02","22","18:00","-28.0","","-31.1","","74","","","","25","","34","","","M","95.75","","","","-44","","NA"
"-121.67","69.67","KEATS POINT","2202663","2021-02-22 19:00","2021","02","22","19:00","-27.4","","-30.3","","76","","","","25","","37","","","M","95.78","","","","-44","","NA"
"-121.67","69.67","KEATS POINT","2202663","2021-02-22 20:00","2021","02","22","20:00","-27.9","","-30.9","","76","","","","25","","41","","","M","95.81","","","","-45","","NA"
"-121.67","69.67","KEATS POINT","2202663","2021-02-22 21:00","2021","02","22","21:00","-28.3","","-31.3","","75","","","","26","","35","","","M","95.88","","","","-44","","NA"
"-121.67","69.67","KEATS POINT","2202663","2021-02-22 22:00","2021","02","22","22:00","-29.5","","-32.5","","75","","","","27","","31","","","M","95.92","","","","-45","","NA"
"-121.67","69.67","KEATS POINT","2202663","2021-02-22 23:00","2021","02","22","23:00","-30.2","","-33.1","","75","","","","26","","35","","","M","95.96","","","","-47","","NA"
"-121.67","69.67","KEATS POINT","2202663","2021-02-23 00:00","2021","02","23","00:00","-31.2","","-34.3","","74","","","","25","","39","","","M","95.99","","","","-49","","NA"
"-121.67","69.67","KEATS POINT","2202663","2021-02-23 01:00","2021","02","23","01:00","-31.9","","-35.1","","73","","","","24","","41","","","M","96.02","","","","-50","","NA"
"-121.67","69.67","KEATS POINT","2202663","2021-02-23 02:00","2021","02","23","02:00","-32.0","","-35.3","","73","","","","24","","44","","","M","96.09","","","","-51","","NA"
"-121.67","69.67","KEATS POINT","2202663","2021-02-23 03:00","2021","02","23","03:00","-32.1","","-35.3","","73","","","","24","","43","","","M","96.12","","","","-51","","NA"
"-121.67","69.67","KEATS POINT","2202663","2021-02-23 04:00","2021","02","23","04:00","-31.8","","-35.1","","73","","","","24","","52","","","M","96.10","","","","-52","","NA"
"-121.67","69.67","KEATS POINT","2202663","2021-02-23 05:00","2021","02","23","05:00","-31.8","","-35.0","","73","","","","24","","50","","","M","96.16","","","","-51","","NA"
"-121.67","69.67","KEATS POINT","2202663","2021-02-23 06:00","2021","02","23","06:00","-30.8","","-33.9","","74","","","","24","","50","","","M","96.17","","","","-50","","NA"
"-121.67","69.67","KEATS POINT","2202663","2021-02-23 07:00","2021","02","23","07:00","-30.0","","-33.0","","74","","","","25","","46","","","M","96.21","","","","-48","","NA"
"-121.67","69.67","KEATS POINT","2202663","2021-02-23 08:00","2021","02","23","08:00","-30.0","","-33.0","","74","","","","26","","48","","","M","96.22","","","","-49","","NA"
"-121.67","69.67","KEATS POINT","2202663","2021-02-23 09:00","2021","02","23","09:00","-31.4","","-34.6","","73","","","","26","","50","","","M","96.26","","","","-51","","NA"
"-121.67","69.67","KEATS POINT","2202663","2021-02-23 10:00","2021","02","23","10:00","-32.1","","-35.3","","73","","","","26","","57","","","M","96.27","","","","-53","","NA"
"-121.67","69.67","KEATS POINT","2202663","2021-02-23 11:00","2021","02","23","11:00","-32.6","","-35.9","","72","","","","26","","55","","","M","96.32","","","","-53","","NA"
"-121.67","69.67","KEATS POINT","2202663","2021-02-23 12:00","2021","02","23","12:00","-32.9","","-36.2","","72","","","","26","","57","","","M","96.35","","","","-54","","NA"
"-121.67","69.67","KEATS POINT","2202663","2021-02-23 13:00","2021","02","23","13:00","-33.1","","-36.5","","72","","","","26","","59","","","M","96.41","","","","-54","","NA"
"-121.67","69.67","KEATS POINT","2202663","2021-02-23 14:00","2021","02","23","14:00","-33.4","","-36.8","","71","","","","25","","61","","","M","96.44","","","","-55","","NA"
"-121.67","69.67","KEATS POINT","2202663","2021-02-23 15:00","2021","02","23","15:00","-33.5","","-36.9","","71","","","","24","","61","","","M","96.46","","","","-55","","NA"
"-121.67","69.67","KEATS POINT","2202663","2021-02-23 16:00","2021","02","23","16:00","-32.8","","-36.1","","72","","","","25","","70","","","M","96.42","","","","-55","","NA"
"-121.67","69.67","KEATS POINT","2202663","2021-02-23 17:00","2021","02","23","17:00","-32.1","","-35.4","","73","","","","24","","74","","","M","96.42","","","","-55","","NA"
"-121.67","69.67","KEATS POINT","2202663","2021-02-23 18:00","2021","02","23","18:00","-31.8","","-35.0","","73","","","","26","","78","","","M","96.44","","","","-55","","NA"
"-121.67","69.67","KEATS POINT","2202663","2021-02-23 19:00","2021","02","23","19:00","-32.3","","-35.6","","72","","","","27","","74","","","M","96.46","","","","-55","","NA"
"-121.67","69.67","KEATS POINT","2202663","2021-02-23 20:00","2021","02","23","20:00","-32.0","","-35.2","","73","","","","27","","61","","","M","96.50","","","","-53","","NA"
"-121.67","69.67","KEATS POINT","2202663","2021-02-23 21:00","2021","02","23","21:00","-31.7","","-34.9","","73","","","","27","","54","","","M","96.53","","","","-52","","NA"
"-121.67","69.67","KEATS POINT","2202663","2021-02-23 22:00","2021","02","23","22:00","-31.2","","-34.3","","73","","","","27","","54","","","M","96.50","","","","-51","","NA"
"-121.67","69.67","KEATS POINT","2202663","2021-02-23 23:00","2021","02","23","23:00","-31.0","","-34.1","","74","","","","27","","59","","","M","96.45","","","","-52","","NA"
"-121.67","69.67","KEATS POINT","2202663","2021-02-24 00:00","2021","02","24","00:00","-30.7","","-33.9","","74","","","","27","","61","","","M","96.39","","","","-51","","NA"
"-121.67","69.67","KEATS POINT","2202663","2021-02-24 01:00","2021","02","24","01:00","-31.0","","-34.2","","74","","","","27","","54","","","M","96.43","","","","-51","","NA"
"-121.67","69.67","KEATS POINT","2202663","2021-02-24 02:00","2021","02","24","02:00","-31.8","","-35.0","","73","","","","28","","44","","","M","96.46","","","","-51","","NA"
"-121.67","69.67","KEATS POINT","2202663","2021-02-24 03:00","2021","02","24","03:00","-32.4","","-35.6","","73","","","","28","","50","","","M","96.45","","","","-52","","NA"
"-121.67","69.67","KEATS POINT","2202663","2021-02-24 04:00","2021","02","24","04:00","-33.4","","-36.8","","72","","","","28","","48","","","M","96.48","","","","-53","","NA"
"-121.67","69.67","KEATS POINT","2202663","2021-02-24 05:00","2021","02","24","05:00","-34.2","","-37.6","","71","","","","27","","46","","","M","96.45","","","","-54","","NA"
"-121.67","69.67","KEATS POINT","2202663","2021-02-24 06:00","2021","02","24","06:00","-34.6","","-38.0","","71","","","","27","","52","","","M","96.46","","","","-56","","NA"
"-121.67","69.67","KEATS POINT","2202663","2021-02-24 07:00","2021","02","24","07:00","-35.3","","-38.7","","70","","","","28","","52","","","M","96.50","","","","-57","","NA"
"-121.67","69.67","KEATS POINT","2202663","2021-02-24 08:00","2021","02","24","08:00","-36.4","","-39.9","","69","","","","28","","50","","","M","96.52","","","","-58","","NA"
"-121.67","69.67","KEATS POINT","2202663","2021-02-24 09:00","2021","02","24","09:00","-37.8","","-41.5","","68","","","","28","","46","","","M","96.58","","","","-59","","NA"
"-121.67","69.67","KEATS POINT","2202663","2021-02-24 10:00","2021","02","24","10:00","-38.7","","-42.4","","67","","","","28","","46","","","M","96.66","","","","-60","","NA"
"-121.67","69.67","KEATS POINT","2202663","2021-02-24 11:00","2021","02","24","11:00","-39.2","","-43.0","","67","","","","28","","48","","","M","96.71","","","","-61","","NA"
"-121.67","69.67","KEATS POINT","2202663","2021-02-24 12:00","2021","02","24","12:00","-39.6","","-43.4","","66","","","","27","","48","","","M","96.79","","","","-62","","NA"
"-121.67","69.67","KEATS POINT","2202663","2021-02-24 13:00","2021","02","24","13:00","-39.6","","-43.4","","66","","","","27","","44","","","M","96.89","","","","-61","","NA"
"-121.67","69.67","KEATS POINT","2202663","2021-02-24 14:00","2021","02","24","14:00","-39.9","","-43.8","","66","","","","25","","44","","","M","96.95","","","","-61","","NA"
"-121.67","69.67","KEATS POINT","2202663","2021-02-24 15:00","2021","02","24","15:00","-39.9","","-43.8","","66","","","","25","","44","","","M","97.03","","","","-61","","NA"
"-121.67","69.67","KEATS POINT","2202663","2021-02-24 16:00","2021","02","24","16:00","-39.7","","-43.6","","66","","","","26","","39","","","M","97.11","","","","-60","","NA"
"-121.67","69.67","KEATS POINT","2202663","2021-02-24 17:00","2021","02","24","17:00","-40.0","","-43.9","","66","","","","25","","43","","","M","97.18","","","","-61","","NA"
"-121.67","69.67","KEATS POINT","2202663","2021-02-24 18:00","2021","02","24","18:00","-39.9","","-43.8","","66","","","","25","","41","","","M","97.23","","","","-61","","NA"
"-121.67","69.67","KEATS POINT","2202663","2021-02-24 19:00","2021","02","24","19:00","-40.5","","-44.3","","66","","","","23","","43","","","M","97.26","","","","-62","","NA"
"-121.67","69.67","KEATS POINT","2202663","2021-02-24 20:00","2021","02","24","20:00","-40.7","","-44.7","","65","","","","22","","44","","","M","97.22","","","","-63","","NA"
"-121.67","69.67","KEATS POINT","2202663","2021-02-24 21:00","2021","02","24","21:00","-39.8","","-43.6","","66","","","","25","","46","","","M","97.22","","","","-62","","NA"
"-121.67","69.67","KEATS POINT","2202663","2021-02-24 22:00","2021","02","24","22:00","-40.7","","-44.8","","65","","","","23","","46","","","M","97.20","","","","-63","","NA"
"-121.67","69.67","KEATS POINT","2202663","2021-02-24 23:00","2021","02","24","23:00","-40.7","","-44.7","","65","","","","24","","39","","","M","97.19","","","","-62","","NA"
"-121.67","69.67","KEATS POINT","2202663","2021-02-25 00:00","2021","02","25","00:00","-39.2","","-43.0","","66","","","","25","","41","","","M","97.20","","","","-60","","NA"
"-121.67","69.67","KEATS POINT","2202663","2021-02-25 01:00","2021","02","25","01:00","-40.2","","-44.1","","66","","","","24","","43","","","M","97.17","","","","-62","","NA"
"-121.67","69.67","KEATS POINT","2202663","2021-02-25 02:00","2021","02","25","02:00","-40.6","","-44.6","","65","","","","23","","48","","","M","97.16","","","","-63","","NA"
"-121.67","69.67","KEATS POINT","2202663","2021-02-25 03:00","2021","02","25","03:00","-39.8","","-43.7","","66","","","","24","","44","","","M","97.13","","","","-61","","NA"
"-121.67","69.67","KEATS POINT","2202663","2021-02-25 04:00","2021","02","25","04:00","-38.6","","-42.5","","67","","","","23","","50","","","M","97.08","","","","-61","","NA"
"-121.67","69.67","KEATS POINT","2202663","2021-02-25 05:00","2021","02","25","05:00","-40.4","","-44.4","","65","","","","24","","44","","","M","97.06","","","","-62","","NA"
"-121.67","69.67","KEATS POINT","2202663","2021-02-25 06:00","2021","02","25","06:00","-40.0","","-43.9","","66","","","","23","","46","","","M","97.02","","","","-62","","NA"
"-121.67","69.67","KEATS POINT","2202663","2021-02-25 07:00","2021","02","25","07:00","-37.6","","-41.4","","68","","","","24","","52","","","M","96.98","","","","-60","","NA"
"-121.67","69.67","KEATS POINT","2202663","2021-02-25 08:00","2021","02","25","08:00","-39.3","","-43.2","","66","","","","23","","41","","","M","96.96","","","","-60","","NA"
"-121.67","69.67","KEATS POINT","2202663","2021-02-25 09:00","2021","02","25","09:00","-37.9","","-41.6","","67","","","","24","","55","","","M","96.90","","","","-61","","NA"
"-121.67","69.67","KEATS POINT","2202663","2021-02-25 10:00","2021","02","25","10:00","-37.7","","-41.5","","67","","","","24","","52","","","M","96.85","","","","-60","","NA"
"-121.67","69.67","KEATS POINT","2202663","2021-02-25 11:00","2021","02","25","11:00","-37.2","","-41.0","","68","","","","24","","54","","","M","96.81","","","","-59","","NA"
"-121.67","69.67","KEATS POINT","2202663","2021-02-25 12:00","2021","02","25","12:00","-36.6","","-40.3","","68","","","","24","","54","","","M","96.80","","","","-59","","NA"
"-121.67","69.67","KEATS POINT","2202663","2021-02-25 13:00","2021","02","25","13:00","-35.9","","-39.6","","69","","","","24","","55","","","M","96.76","","","","-58","","NA"
"-121.67","69.67","KEATS POINT","2202663","2021-02-25 14:00","2021","02","25","14:00","-34.8","","-38.4","","69","","","","25","","55","","","M","96.75","","","","-56","","NA"
"-121.67","69.67","KEATS POINT","2202663","2021-02-25 15:00","2021","02","25","15:00","-35.0","","-38.7","","69","","","","25","","59","","","M","96.73","","","","-57","","NA"
"-121.67","69.67","KEATS POINT","2202663","2021-02-25 16:00","2021","02","25","16:00","-34.9","","-38.5","","69","","","","24","","55","","","M","96.77","","","","-56","","NA"
"-121.67","69.67","KEATS POINT","2202663","2021-02-25 17:00","2021","02","25","17:00","-35.6","","-39.2","","69","","","","24","","57","","","M","96.73","","","","-58","","NA"
"-121.67","69.67","KEATS POINT","2202663","2021-02-25 18:00","2021","02","25","18:00","-35.9","","-39.5","","69","","","","24","","59","","","M","96.71","","","","-58","","NA"
"-121.67","69.67","KEATS POINT","2202663","2021-02-25 19:00","2021","02","25","19:00","-35.7","","-39.3","","69","","","","24","","63","","","M","96.68","","","","-59","","NA"
"-121.67","69.67","KEATS POINT","2202663","2021-02-25 20:00","2021","02","25","20:00","-35.1","","-38.6","","70","","","","25","","61","","","M","96.69","","","","-58","","NA"
"-121.67","69.67","KEATS POINT","2202663","2021-02-25 21:00","2021","02","25","21:00","-34.5","","-38.0","","70","","","","25","","72","","","M","96.65","","","","-58","","NA"
"-121.67","69.67","KEATS POINT","2202663","2021-02-25 22:00","2021","02","25","22:00","-34.6","","-38.1","","70","","","","25","","63","","","M","96.65","","","","-57","","NA"
"-121.67","69.67","KEATS POINT","2202663","2021-02-25 23:00","2021","02","25","23:00","-34.7","","-38.3","","70","","","","25","","74","","","M","96.60","","","","-58","","NA"
"-121.67","69.67","KEATS POINT","2202663","2021-02-26 00:00","2021","02","26","00:00","-34.9","","-38.4","","70","","","","24","","63","","","M","96.64","","","","-57","","NA"
"-121.67","69.67","KEATS POINT","2202663","2021-02-26 01:00","2021","02","26","01:00","-35.1","","-38.7","","70","","","","25","","63","","","M","96.70","","","","-58","","NA"
"-121.67","69.67","KEATS POINT","2202663","2021-02-26 02:00","2021","02","26","02:00","-35.2","","-38.8","","70","","","","24","","63","","","M","96.73","","","","-58","","NA"
"-121.67","69.67","KEATS POINT","2202663","2021-02-26 03:00","2021","02","26","03:00","-34.5","","-37.9","","70","","","","24","","57","","","M","96.76","","","","-56","","NA"
"-121.67","69.67","KEATS POINT","2202663","2021-02-26 04:00","2021","02","26","04:00","-34.5","","-38.0","","70","","","","24","","57","","","M","96.77","","","","-56","","NA"
"-121.67","69.67","KEATS POINT","2202663","2021-02-26 05:00","2021","02","26","05:00","-34.3","","-37.7","","71","","","","25","","68","","","M","96.71","","","","-57","","NA"
"-121.67","69.67","KEATS POINT","2202663","2021-02-26 06:00","2021","02","26","06:00","-33.8","","-37.2","","71","","","","24","","57","","","M","96.74","","","","-55","","NA"
"-121.67","69.67","KEATS POINT","2202663","2021-02-26 07:00","2021","02","26","07:00","-32.6","","-35.9","","72","","","","25","","57","","","M","96.70","","","","-54","","NA"
"-121.67","69.67","KEATS POINT","2202663","2021-02-26 08:00","2021","02","26","08:00","-33.5","","-36.9","","71","","","","24","","61","","","M","96.65","","","","-55","","NA"
"-121.67","69.67","KEATS POINT","2202663","2021-02-26 09:00","2021","02","26","09:00","-33.5","","-36.9","","71","","","","24","","59","","","M","96.63","","","","-55","","NA"
"-121.67","69.67","KEATS POINT","2202663","2021-02-26 10:00","2021","02","26","10:00","-34.4","","-37.8","","71","","","","23","","50","","","M","96.66","","","","-55","","NA"
"-121.67","69.67","KEATS POINT","2202663","2021-02-26 11:00","2021","02","26","11:00","-35.1","","-38.6","","70","","","","24","","59","","","M","96.67","","","","-57","","NA"
"-121.67","69.67","KEATS POINT","2202663","2021-02-26 12:00","2021","02","26","12:00","-35.4","","-39.0","","70","","","","24","","55","","","M","96.73","","","","-57","","NA"
"-121.67","69.67","KEATS POINT","2202663","2021-02-26 13:00","2021","02","26","13:00","-35.2","","-38.7","","70","","","","24","","48","","","M","96.80","","","","-56","","NA"
"-121.67","69.67","KEATS POINT","2202663","2021-02-26 14:00","2021","02","26","14:00","-35.2","","-38.8","","70","","","","25","","50","","","M","96.83","","","","-56","","NA"
"-121.67","69.67","KEATS POINT","2202663","2021-02-26 15:00","2021","02","26","15:00","-35.3","","-38.9","","70","","","","24","","46","","","M","96.90","","","","-56","","NA"
"-121.67","69.67","KEATS POINT","2202663","2021-02-26 16:00","2021","02","26","16:00","-35.7","","-39.3","","69","","","","26","","48","","","M","96.99","","","","-56","","NA"
"-121.67","69.67","KEATS POINT","2202663","2021-02-26 17:00","2021","02","26","17:00","-35.7","","-39.3","","69","","","","25","","39","","","M","97.10","","","","-55","","NA"
"-121.67","69.67","KEATS POINT","2202663","2021-02-26 18:00","2021","02","26","18:00","-36.1","","-39.8","","69","","","","24","","34","","","M","97.15","","","","-54","","NA"
"-121.67","69.67","KEATS POINT","2202663","2021-02-26 19:00","2021","02","26","19:00"
"-121.67","69.67","KEATS POINT","2202663","2021-02-26 20:00","2021","02","26","20:00","-36.8","","-40.6","","67","","","","22","","39","","","M","97.21","","","","-56","","NA"
"-121.67","69.67","KEATS POINT","2202663","2021-02-26 21:00","2021","02","26","21:00","-36.8","","-40.6","","67","","","","22","","34","","","M","97.29","","","","-55","","NA"
"-121.67","69.67","KEATS POINT","2202663","2021-02-26 22:00","2021","02","26","22:00","-36.3","","-40.1","","68","","","","22","","28","","","M","97.32","","","","-53","","NA"
"-121.67","69.67","KEATS POINT","2202663","2021-02-26 23:00","2021","02","26","23:00","-35.8","","-39.6","","68","","","","22","","17","","","M","97.37","","","","-49","","NA"
"-121.67","69.67","KEATS POINT","2202663","2021-02-27 00:00","2021","02","27","00:00","-35.6","","-39.5","","67","","","","18","","9","","","M","97.42","","","","-45","","NA"
"-121.67","69.67","KEATS POINT","2202663","2021-02-27 01:00","2021","02","27","01:00","-34.9","","-38.7","","68","","","","23","","9","","","M","97.42","","","","-44","","NA"
"-121.67","69.67","KEATS POINT","2202663","2021-02-27 02:00","2021","02","27","02:00","-35.1","","-39.2","","67","","","","21","","21","","","M","97.48","","","","-50","","NA"
"-121.67","69.67","KEATS POINT","2202663","2021-02-27 03:00","2021","02","27","03:00","-34.4","","-38.5","","66","","","","23","","8","","","M","97.51","","","","-43","","NA"
"-121.67","69.67","KEATS POINT","2202663","2021-02-27 04:00","2021","02","27","04:00","-34.6","","-38.6","","67","","","","20","","4","","","M","97.53","","","","-40","","NA"
"-121.67","69.67","KEATS POINT","2202663","2021-02-27 05:00","2021","02","27","05:00","-34.0","","-37.9","","67","","","","9","","11","","","M","97.55","","","","-44","","NA"
"-121.67","69.67","KEATS POINT","2202663","2021-02-27 06:00","2021","02","27","06:00","-33.7","","-37.7","","66","","","","24","","5","","","M","97.56","","","","-40","","NA"
"-121.67","69.67","KEATS POINT","2202663","2021-02-27 07:00","2021","02","27","07:00","-33.0","","-37.0","","67","","","","11","","8","","","M","97.58","","","","-41","","NA"
"-121.67","69.67","KEATS POINT","2202663","2021-02-27 08:00","2021","02","27","08:00","-33.5","","-37.5","","66","","","","25","","5","","","M","97.58","","","","-40","","NA"
"-121.67","69.67","KEATS POINT","2202663","2021-02-27 09:00","2021","02","27","09:00","-33.2","","-37.6","","67","","","","25","","13","","","M","97.58","","","","-44","","NA"
"-121.67","69.67","KEATS POINT","2202663","2021-02-27 10:00","2021","02","27","10:00","-32.9","","-37.1","","65","","","","4","","4","","","M","97.58","","","","-38","","NA"
"-121.67","69.67","KEATS POINT","2202663","2021-02-27 11:00","2021","02","27","11:00","-31.0","","-36.3","","59","","","","29","","8","","","M","97.58","","","","-39","","NA"
"-121.67","69.67","KEATS POINT","2202663","2021-02-27 12:00","2021","02","27","12:00","-29.9","","-35.2","","60","","","","24","","34","","","M","97.55","","","","-46","","NA"
"-121.67","69.67","KEATS POINT","2202663","2021-02-27 13:00","2021","02","27","13:00","-30.1","","-35.2","","60","","","","22","","34","","","M","97.51","","","","-47","","NA"
"-121.67","69.67","KEATS POINT","2202663","2021-02-27 14:00","2021","02","27","14:00","-30.5","","-35.1","","64","","","","22","","52","","","M","97.50","","","","-50","","NA"
"-121.67","69.67","KEATS POINT","2202663","2021-02-27 15:00","2021","02","27","15:00","-31.2","","-35.5","","65","","","","22","","59","","","M","97.50","","","","-52","","NA"
"-121.67","69.67","KEATS POINT","2202663","2021-02-27 16:00","2021","02","27","16:00","-30.8","","-35.0","","67","","","","22","","65","","","M","97.46","","","","-52","","NA"
"-121.67","69.67","KEATS POINT","2202663","2021-02-27 17:00","2021","02","27","17:00","-32.1","","-36.2","","66","","","","22","","68","","","M","97.45","","","","-54","","NA"
"-121.67","69.67","KEATS POINT","2202663","2021-02-27 18:00","2021","02","27","18:00","-31.6","","-35.6","","67","","","","22","","65","","","M","97.46","","","","-53","","NA"
"-121.67","69.67","KEATS POINT","2202663","2021-02-27 19:00","2021","02","27","19:00","-31.7","","-35.5","","68","","","","22","","59","","","M","97.47","","","","-53","","NA"
"-121.67","69.67","KEATS POINT","2202663","2021-02-27 20:00","2021","02","27","20:00","-31.6","","-35.5","","68","","","","22","","57","","","M","97.49","","","","-52","","NA"
"-121.67","69.67","KEATS POINT","2202663","2021-02-27 21:00","2021","02","27","21:00","-31.6","","-35.4","","69","","","","22","","59","","","M","97.47","","","","-52","","NA"
"-121.67","69.67","KEATS POINT","2202663","2021-02-27 22:00","2021","02","27","22:00","-31.5","","-35.4","","68","","","","22","","54","","","M","97.48","","","","-52","","NA"
"-121.67","69.67","KEATS POINT","2202663","2021-02-27 23:00","2021","02","27","23:00","-31.2","","-34.9","","70","","","","22","","46","","","M","97.50","","","","-50","","NA"
"-121.67","69.67","KEATS POINT","2202663","2021-02-28 00:00","2021","02","28","00:00","-31.6","","-35.2","","71","","","","23","","41","","","M","97.55","","","","-50","","NA"
"-121.67","69.67","KEATS POINT","2202663","2021-02-28 01:00","2021","02","28","01:00","-31.3","","-35.0","","70","","","","22","","50","","","M","97.53","","","","-51","","NA"
"-121.67","69.67","KEATS POINT","2202663","2021-02-28 02:00","2021","02","28","02:00","-31.6","","-35.2","","70","","","","22","","50","","","M","97.53","","","","-51","","NA"
"-121.67","69.67","KEATS POINT","2202663","2021-02-28 03:00","2021","02","28","03:00","-29.9","","-34.0","","68","","","","23","","35","","","M","97.55","","","","-46","","NA"
"-121.67","69.67","KEATS POINT","2202663","2021-02-28 04:00","2021","02","28","04:00","-28.5","","-32.5","","68","","","","23","","30","","","M","97.58","","","","-44","","NA"
"-121.67","69.67","KEATS POINT","2202663","2021-02-28 05:00","2021","02","28","05:00","-28.0","","-31.9","","69","","","","22","","34","","","M","97.60","","","","-44","","NA"
"-121.67","69.67","KEATS POINT","2202663","2021-02-28 06:00","2021","02","28","06:00","-27.3","","-31.6","","67","","","","22","","22","","","M","97.62","","","","-40","","NA"
"-121.67","69.67","KEATS POINT","2202663","2021-02-28 07:00","2021","02","28","07:00","-27.3","","-31.4","","68","","","","24","","21","","","M","97.60","","","","-40","","NA"
"-121.67","69.67","KEATS POINT","2202663","2021-02-28 08:00","2021","02","28","08:00","-26.5","","-30.8","","67","","","","24","","18","","","M","97.57","","","","-38","","NA"
"-121.67","69.67","KEATS POINT","2202663","2021-02-28 09:00","2021","02","28","09:00","-25.6","","-30.5","","64","","","","26","","13","","","M","97.59","","","","-35","","NA"
"-121.67","69.67","KEATS POINT","2202663","2021-02-28 10:00","2021","02","28","10:00","-26.0","","-29.9","","69","","","","22","","17","","","M","97.61","","","","-37","","NA"
"-121.67","69.67","KEATS POINT","2202663","2021-02-28 11:00","2021","02","28","11:00","-25.5","","-29.8","","67","","","","22","","21","","","M","97.63","","","","-38","","NA"
"-121.67","69.67","KEATS POINT","2202663","2021-02-28 12:00","2021","02","28","12:00","-24.7","","-29.7","","63","","","","23","","18","","","M","97.63","","","","-36","","NA"
"-121.67","69.67","KEATS POINT","2202663","2021-02-28 13:00","2021","02","28","13:00","-24.5","","-29.2","","64","","","","28","","11","","","M","97.61","","","","-33","","NA"
"-121.67","69.67","KEATS POINT","2202663","2021-02-28 14:00","2021","02","28","14:00","-25.3","","-29.4","","68","","","","32","","8","","","M","97.64","","","","-32","","NA"
"-121.67","69.67","KEATS POINT","2202663","2021-02-28 15:00","2021","02","28","15:00","-25.1","","-29.3","","68","","","","26","","5","","","M","97.65","","","","-30","","NA"
"-121.67","69.67","KEATS POINT","2202663","2021-02-28 16:00","2021","02","28","16:00","-25.7","","-29.7","","69","","","","28","","11","","","M","97.63","","","","-34","","NA"
"-121.67","69.67","KEATS POINT","2202663","2021-02-28 17:00","2021","02","28","17:00","-25.0","","-29.7","","65","","","","25","","8","","","M","97.65","","","","-32","","NA"
"-121.67","69.67","KEATS POINT","2202663","2021-02-28 18:00","2021","02","28","18:00","-25.1","","-29.3","","67","","","","26","","8","","","M","97.65","","","","-32","","NA"
"-121.67","69.67","KEATS POINT","2202663","2021-02-28 19:00","2021","02","28","19:00","-23.9","","-27.5","","72","","","","26","","8","","","M","97.64","","","","-31","","NA"
"-121.67","69.67","KEATS POINT","2202663","2021-02-28 20:00","2021","02","28","20:00","-25.3","","-28.4","","75","","","","28","","8","","","M","97.62","","","","-32","","NA"
"-121.67","69.67","KEATS POINT","2202663","2021-02-28 21:00","2021","02","28","21:00","-25.5","","-28.3","","77","","","","27","","5","","","M","97.64","","","","-31","","NA"
"-121.67","69.67","KEATS POINT","2202663","2021-02-28 22:00","2021","02","28","22:00","-27.2","","-30.8","","70","","","","29","","9","","","M","97.61","","","","-35","","NA"
"-121.67","69.67","KEATS POINT","2202663","2021-02-28 23:00","2021","02","28","23:00","-26.2","","-29.0","","77","","","","28","","8","","","M","97.60","","","","-34","","NA"
