"Longitude (x)","Latitude (y)","Station Name","Climate ID","Date/Time (LST)","Year","Month","Day","Time (LST)","Temp (°C)","Temp Flag","Dew Point Temp (°C)","Dew Point Temp Flag","Rel Hum (%)","Rel Hum Flag","Precip. Amount (mm)","Precip. Amount Flag","Wind Dir (10s deg)","Wind Dir Flag","Wind Spd (km/h)","Wind Spd Flag","Visibility (km)","Visibility Flag","Stn Press (kPa)","Stn Press Flag","Hmdx","Hmdx Flag","Wind Chill","Wind Chill Flag","Weather"
"-66.09","43.83","YARMOUTH A","8206495","2021-08-01 00:00","2021","08","01","00:00","13.1","","12.1","","94","","","","25","","12","","24.1","","100.75","","","","","","NA"
"-66.09","43.83","YARMOUTH A","8206495","2021-08-01 01:00","2021","08","01","01:00","13.1","","12.4","","95","","","","24","","11","","24.1","","100.76","","","","","","NA"
"-66.09","43.83","YARMOUTH A","8206495","2021-08-01 02:00","2021","08","01","02:00","14.2","","12.9","","92","","","","26","","19","","24.1","","100.74","","","","","","Mainly Clear"
"-66.09","43.83","YARMOUTH A","8206495","2021-08-01 03:00","2021","08","01","03:00","13.2","","12.4","","95","","","","25","","10","","24.1","","100.73","","","","","","NA"
"-66.09","43.83","YARMOUTH A","8206495","2021-08-01 04:00","2021","08","01","04:00","12.8","","12.2","","96","","","","20","","8","","24.1","","100.75","","","","","","NA"
"-66.09","43.83","YARMOUTH A","8206495","2021-08-01 05:00","2021","08","01","05:00","12.1","","11.9","","99","","","","20","","9","","24.1","","100.79","","","","","","Mainly Clear"
"-66.09","43.83","YARMOUTH A","8206495","2021-08-01 06:00","2021","08","01","06:00","12.4","","12.2","","99","","","","20","","5","","24.1","","100.84","","","","","","NA"
"-66.09","43.83","YARMOUTH A","8206495","2021-08-01 07:00","2021","08","01","07:00","15.3","","14.4","","95","","","","23","","14","","24.1","","100.90","","","","","","NA"
"-66.09","43.83","YARMOUTH A","8206495","2021-08-01 08:00","2021","08","01","08:00","16.6","","15.1","","91","","","","25","","13","","24.1","","100.96","","","","","","Mainly Clear"
"-66.09","43.83","YARMOUTH A","8206495","2021-08-01 09:00","2021","08","01","09:00","18.2","","14.6","","79","","","","28","","10","","24.1","","100.93","","","","","","NA"
"-66.09","43.83","YARMOUTH A","8206495","2021-08-01 10:00","2021","08","01","10:00","19.7","","12.1","","61","","","","24","","9","","24.1","","100.95","","","","","","NA"
"-66.09","43.83","YARMOUTH A","8206495","2021-08-01 11:00","2021","08","01","11:00","20.5","","13.9","","66","","","","27","","10","","24.1","","100.96","","","","","","Mainly Clear"
"-66.09","43.83","YARMOUTH A","8206495","2021-08-01 12:00","2021","08","01","12:00","21.4","","12.8","","57","","","","27","","10","","24.1","","100.93","","","","","","NA"
"-66.09","43.83","YARMOUTH A","8206495","2021-08-01 13:00","2021","08","01","13:00","21.5","","12.0","","54","","","","26","","12","","24.1","","100.94","","","","","","NA"
"-66.09","43.83","YARMOUTH A","8206495","2021-08-01 14:00","2021","08","01","14:00","21.2","","10.9","","51","","","","25","","14","","24.1","","100.93","","","","","","Clear"
"-66.09","43.83","YARMOUTH A","8206495","2021-08-01 15:00","2021","08","01","15:00","20.8","","10.5","","51","","","","25","","13","","24.1","","100.94","","","","","","NA"
"-66.09","43.83","YARMOUTH A","8206495","2021-08-01 16:00","2021","08","01","16:00","20.5","","9.3","","48","","","","26","","16","","24.1","","100.96","","","","","","NA"
"-66.09","43.83","YARMOUTH A","8206495","2021-08-01 17:00","2021","08","01","17:00","19.2","","9.8","","54","","","","26","","9","","24.1","","100.90","","","","","","Mainly Clear"
"-66.09","43.83","YARMOUTH A","8206495","2021-08-01 18:00","2021","08","01","18:00","18.6","","12.9","","69","","","","19","","8","","24.1","","100.92","","","","","","NA"
"-66.09","43.83","YARMOUTH A","8206495","2021-08-01 19:00","2021","08","01","19:00","16.1","","12.4","","78","","","","19","","8","","24.1","","100.92","","","","","","NA"
"-66.09","43.83","YARMOUTH A","8206495","2021-08-01 20:00","2021","08","01","20:00","15.3","","11.8","","80","","","","18","","7","","24.1","","100.94","","","","","","Mainly Clear"
"-66.09","43.83","YARMOUTH A","8206495","2021-08-01 21:00","2021","08","01","21:00","14.0","","12.6","","91","","","","17","","9","","24.1","","100.99","","","","","","NA"
"-66.09","43.83","YARMOUTH A","8206495","2021-08-01 22:00","2021","08","01","22:00","14.1","","14.0","","99","","","","17","","7","","0.6","","100.99","","","","","","Fog"
"-66.09","43.83","YARMOUTH A","8206495","2021-08-01 23:00","2021","08","01","23:00","14.6","","14.6","","100","","","","16","","8","","0.2","","100.96","","","","","","Fog"
"-66.09","43.83","YARMOUTH A","8206495","2021-08-02 00:00","2021","08","02","00:00","13.7","","13.7","","100","","","","12","","6","","0.2","","100.88","","","","","","Fog"
"-66.09","43.83","YARMOUTH A","8206495","2021-08-02 01:00","2021","08","02","01:00","13.7","","13.7","","100","","","","14","","12","","0.4","","100.80","","","","","","Fog"
"-66.09","43.83","YARMOUTH A","8206495","2021-08-02 02:00","2021","08","02","02:00","14.2","","14.2","","100","","","","11","","9","","0.4","","100.76","","","","","","Fog"
"-66.09","43.83","YARMOUTH A","8206495","2021-08-02 03:00","2021","08","02","03:00","13.9","","13.9","","100","","","","10","","12","","0.6","","100.69","","","","","","Fog"
"-66.09","43.83","YARMOUTH A","8206495","2021-08-02 04:00","2021","08","02","04:00","13.2","","13.2","","100","","","","8","","14","","4.8","","100.63","","","","","","Fog"
"-66.09","43.83","YARMOUTH A","8206495","2021-08-02 05:00","2021","08","02","05:00","13.4","","13.3","","100","","","","10","","13","","16.1","","100.60","","","","","","Rain"
"-66.09","43.83","YARMOUTH A","8206495","2021-08-02 06:00","2021","08","02","06:00","13.9","","13.4","","97","","","","10","","13","","19.3","","100.54","","","","","","Rain"
"-66.09","43.83","YARMOUTH A","8206495","2021-08-02 07:00","2021","08","02","07:00","14.2","","13.4","","95","","","","7","","11","","11.3","","100.48","","","","","","Rain"
"-66.09","43.83","YARMOUTH A","8206495","2021-08-02 08:00","2021","08","02","08:00","13.9","","13.4","","97","","","","35","","18","","2.0","","100.49","","","","","","Moderate Rain,Fog"
"-66.09","43.83","YARMOUTH A","8206495","2021-08-02 09:00","2021","08","02","09:00","13.3","","13.0","","98","","","","2","","25","","4.8","","100.44","","","","","","Rain"
"-66.09","43.83","YARMOUTH A","8206495","2021-08-02 10:00","2021","08","02","10:00","13.7","","12.9","","95","","","","2","","22","","14.5","","100.40","","","","","","Rain Showers"
"-66.09","43.83","YARMOUTH A","8206495","2021-08-02 11:00","2021","08","02","11:00","13.9","","13.6","","98","","","","5","","21","","8.1","","100.32","","","","","","Moderate Rain Showers"
"-66.09","43.83","YARMOUTH A","8206495","2021-08-02 12:00","2021","08","02","12:00","15.0","","14.8","","99","","","","6","","15","","8.1","","100.29","","","","","","Moderate Rain Showers"
"-66.09","43.83","YARMOUTH A","8206495","2021-08-02 13:00","2021","08","02","13:00","16.4","","16.2","","99","","","","4","","16","","11.3","","100.22","","","","","","Rain Showers"
"-66.09","43.83","YARMOUTH A","8206495","2021-08-02 14:00","2021","08","02","14:00","18.4","","17.0","","92","","","","36","","12","","19.3","","100.27","","","","","","Mostly Cloudy"
"-66.09","43.83","YARMOUTH A","8206495","2021-08-02 15:00","2021","08","02","15:00","17.6","","15.6","","88","","","","30","","24","","24.1","","100.33","","","","","","NA"
"-66.09","43.83","YARMOUTH A","8206495","2021-08-02 16:00","2021","08","02","16:00","16.4","","14.2","","87","","","","33","","28","","24.1","","100.42","","","","","","NA"
"-66.09","43.83","YARMOUTH A","8206495","2021-08-02 17:00","2021","08","02","17:00","16.4","","13.8","","84","","","","32","","22","","24.1","","100.53","","","","","","Mainly Clear"
"-66.09","43.83","YARMOUTH A","8206495","2021-08-02 18:00","2021","08","02","18:00","14.9","","13.2","","89","","","","31","","20","","24.1","","100.62","","","","","","NA"
"-66.09","43.83","YARMOUTH A","8206495","2021-08-02 19:00","2021","08","02","19:00","14.2","","13.1","","93","","","","30","","12","","24.1","","100.73","","","","","","NA"
"-66.09","43.83","YARMOUTH A","8206495","2021-08-02 20:00","2021","08","02","20:00","12.6","","12.0","","96","","","","30","","11","","24.1","","100.79","","","","","","Mainly Clear"
"-66.09","43.83","YARMOUTH A","8206495","2021-08-02 21:00","2021","08","02","21:00","12.6","","12.1","","97","","","","29","","12","","24.1","","100.89","","","","","","NA"
"-66.09","43.83","YARMOUTH A","8206495","2021-08-02 22:00","2021","08","02","22:00","12.0","","11.7","","98","","","","27","","13","","24.1","","100.93","","","","","","NA"
"-66.09","43.83","YARMOUTH A","8206495","2021-08-02 23:00","2021","08","02","23:00","12.8","","12.7","","99","","","","28","","13","","24.1","","100.97","","","","","","Clear"
"-66.09","43.83","YARMOUTH A","8206495","2021-08-03 00:00","2021","08","03","00:00","13.5","","13.3","","99","","","","28","","15","","24.1","","101.03","","","","","","NA"
"-66.09","43.83","YARMOUTH A","8206495","2021-08-03 01:00","2021","08","03","01:00","12.6","","12.6","","99","","","","26","","12","","24.1","","101.10","","","","","","NA"
"-66.09","43.83","YARMOUTH A","8206495","2021-08-03 02:00","2021","08","03","02:00","12.4","","12.4","","100","","","","24","","10","","3.2","","101.16","","","","","","Fog"
"-66.09","43.83","YARMOUTH A","8206495","2021-08-03 03:00","2021","08","03","03:00","13.4","","13.4","","100","","","","23","","8","","6.4","","101.20","","","","","","Fog"
"-66.09","43.83","YARMOUTH A","8206495","2021-08-03 04:00","2021","08","03","04:00","13.9","","13.8","","100","","","","22","","9","","6.4","","101.25","","","","","","Fog"
"-66.09","43.83","YARMOUTH A","8206495","2021-08-03 05:00","2021","08","03","05:00","14.6","","14.2","","97","","","","23","","12","","16.1","","101.31","","","","","","Mainly Clear"
"-66.09","43.83","YARMOUTH A","8206495","2021-08-03 06:00","2021","08","03","06:00","14.6","","14.1","","97","","","","26","","12","","24.1","","101.36","","","","","","NA"
"-66.09","43.83","YARMOUTH A","8206495","2021-08-03 07:00","2021","08","03","07:00","16.4","","15.4","","94","","","","27","","11","","24.1","","101.38","","","","","","NA"
"-66.09","43.83","YARMOUTH A","8206495","2021-08-03 08:00","2021","08","03","08:00","17.8","","15.9","","89","","","","27","","8","","24.1","","101.43","","","","","","Mainly Clear"
"-66.09","43.83","YARMOUTH A","8206495","2021-08-03 09:00","2021","08","03","09:00","19.1","","15.4","","79","","","","28","","10","","24.1","","101.46","","","","","","NA"
"-66.09","43.83","YARMOUTH A","8206495","2021-08-03 10:00","2021","08","03","10:00","19.5","","15.5","","77","","","","27","","9","","24.1","","101.49","","","","","","NA"
"-66.09","43.83","YARMOUTH A","8206495","2021-08-03 11:00","2021","08","03","11:00","21.6","","13.8","","61","","","","28","","9","","24.1","","101.50","","25","","","","Mostly Cloudy"
"-66.09","43.83","YARMOUTH A","8206495","2021-08-03 12:00","2021","08","03","12:00","21.7","","11.5","","52","","","","25","","15","","24.1","","101.52","","","","","","NA"
"-66.09","43.83","YARMOUTH A","8206495","2021-08-03 13:00","2021","08","03","13:00","22.0","","11.0","","49","","","","23","","16","","24.1","","101.52","","","","","","NA"
"-66.09","43.83","YARMOUTH A","8206495","2021-08-03 14:00","2021","08","03","14:00","22.3","","11.9","","51","","","","22","","16","","24.1","","101.48","","25","","","","Mostly Cloudy"
"-66.09","43.83","YARMOUTH A","8206495","2021-08-03 15:00","2021","08","03","15:00","21.1","","12.6","","58","","","","21","","15","","24.1","","101.49","","","","","","NA"
"-66.09","43.83","YARMOUTH A","8206495","2021-08-03 16:00","2021","08","03","16:00","19.9","","14.0","","68","","","","22","","15","","24.1","","101.49","","","","","","NA"
"-66.09","43.83","YARMOUTH A","8206495","2021-08-03 17:00","2021","08","03","17:00","19.1","","14.8","","76","","","","23","","17","","24.1","","101.47","","","","","","Cloudy"
"-66.09","43.83","YARMOUTH A","8206495","2021-08-03 18:00","2021","08","03","18:00","17.9","","15.7","","86","","","","21","","12","","24.1","","101.48","","","","","","NA"
"-66.09","43.83","YARMOUTH A","8206495","2021-08-03 19:00","2021","08","03","19:00","18.1","","15.5","","85","","","","23","","19","","19.3","","101.50","","","","","","NA"
"-66.09","43.83","YARMOUTH A","8206495","2021-08-03 20:00","2021","08","03","20:00","17.6","","15.7","","89","","","","22","","12","","24.1","","101.53","","","","","","Cloudy"
"-66.09","43.83","YARMOUTH A","8206495","2021-08-03 21:00","2021","08","03","21:00","17.4","","16.1","","92","","","","21","","17","","24.1","","101.56","","","","","","NA"
"-66.09","43.83","YARMOUTH A","8206495","2021-08-03 22:00","2021","08","03","22:00","17.3","","15.7","","90","","","","23","","16","","24.1","","101.56","","","","","","NA"
"-66.09","43.83","YARMOUTH A","8206495","2021-08-03 23:00","2021","08","03","23:00","17.1","","15.5","","90","","","","20","","14","","24.1","","101.57","","","","","","Cloudy"
"-66.09","43.83","YARMOUTH A","8206495","2021-08-04 00:00","2021","08","04","00:00","17.4","","15.6","","90","","","","22","","12","","24.1","","101.54","","","","","","NA"
"-66.09","43.83","YARMOUTH A","8206495","2021-08-04 01:00","2021","08","04","01:00","15.8","","15.1","","95","","","","15","","5","","24.1","","101.51","","","","","","NA"
"-66.09","43.83","YARMOUTH A","8206495","2021-08-04 02:00","2021","08","04","02:00","16.0","","15.0","","94","","","","15","","8","","24.1","","101.51","","","","","","Cloudy"
"-66.09","43.83","YARMOUTH A","8206495","2021-08-04 03:00","2021","08","04","03:00","15.6","","15.0","","96","","","","36","","1","","24.1","","101.49","","","","","","NA"
"-66.09","43.83","YARMOUTH A","8206495","2021-08-04 04:00","2021","08","04","04:00","14.9","","14.2","","95","","","","2","","3","","24.1","","101.48","","","","","","NA"
"-66.09","43.83","YARMOUTH A","8206495","2021-08-04 05:00","2021","08","04","05:00","15.8","","15.2","","96","","","","15","","4","","24.1","","101.50","","","","","","Cloudy"
"-66.09","43.83","YARMOUTH A","8206495","2021-08-04 06:00","2021","08","04","06:00","15.8","","15.2","","97","","","","8","","4","","19.3","","101.50","","","","","","NA"
"-66.09","43.83","YARMOUTH A","8206495","2021-08-04 07:00","2021","08","04","07:00","16.5","","15.7","","95","","","","15","","7","","24.1","","101.54","","","","","","NA"
"-66.09","43.83","YARMOUTH A","8206495","2021-08-04 08:00","2021","08","04","08:00","17.8","","16.2","","90","","","","17","","8","","24.1","","101.62","","","","","","Cloudy"
"-66.09","43.83","YARMOUTH A","8206495","2021-08-04 09:00","2021","08","04","09:00","19.9","","16.3","","79","","","","19","","12","","24.1","","101.67","","","","","","NA"
"-66.09","43.83","YARMOUTH A","8206495","2021-08-04 10:00","2021","08","04","10:00","20.4","","17.1","","81","","","","18","","13","","24.1","","101.72","","26","","","","NA"
"-66.09","43.83","YARMOUTH A","8206495","2021-08-04 11:00","2021","08","04","11:00","22.0","","17.7","","76","","","","17","","14","","24.1","","101.75","","28","","","","Mostly Cloudy"
"-66.09","43.83","YARMOUTH A","8206495","2021-08-04 12:00","2021","08","04","12:00","22.6","","17.4","","72","","","","22","","10","","24.1","","101.77","","28","","","","NA"
"-66.09","43.83","YARMOUTH A","8206495","2021-08-04 13:00","2021","08","04","13:00","21.4","","18.0","","81","","","","19","","17","","19.3","","101.84","","27","","","","NA"
"-66.09","43.83","YARMOUTH A","8206495","2021-08-04 14:00","2021","08","04","14:00","21.6","","17.0","","75","","","","19","","21","","24.1","","101.84","","27","","","","Mostly Cloudy"
"-66.09","43.83","YARMOUTH A","8206495","2021-08-04 15:00","2021","08","04","15:00","21.3","","16.2","","72","","","","19","","25","","24.1","","101.88","","26","","","","NA"
"-66.09","43.83","YARMOUTH A","8206495","2021-08-04 16:00","2021","08","04","16:00","19.9","","16.9","","82","","","","20","","16","","24.1","","101.90","","","","","","NA"
"-66.09","43.83","YARMOUTH A","8206495","2021-08-04 17:00","2021","08","04","17:00","18.6","","16.7","","88","","","","19","","13","","24.1","","101.92","","","","","","Rain Showers"
"-66.09","43.83","YARMOUTH A","8206495","2021-08-04 18:00","2021","08","04","18:00","18.1","","16.8","","92","","","","23","","5","","24.1","","101.93","","","","","","NA"
"-66.09","43.83","YARMOUTH A","8206495","2021-08-04 19:00","2021","08","04","19:00","17.0","","16.4","","96","","","","18","","8","","19.3","","101.92","","","","","","NA"
"-66.09","43.83","YARMOUTH A","8206495","2021-08-04 20:00","2021","08","04","20:00","17.0","","16.6","","97","","","","17","","7","","19.3","","101.99","","","","","","Cloudy"
"-66.09","43.83","YARMOUTH A","8206495","2021-08-04 21:00","2021","08","04","21:00","16.9","","16.6","","98","","","","16","","8","","19.3","","102.05","","","","","","NA"
"-66.09","43.83","YARMOUTH A","8206495","2021-08-04 22:00","2021","08","04","22:00","17.1","","16.6","","97","","","","14","","5","","19.3","","102.07","","","","","","NA"
"-66.09","43.83","YARMOUTH A","8206495","2021-08-04 23:00","2021","08","04","23:00","17.0","","16.5","","97","","","","11","","8","","14.5","","102.02","","","","","","Rain Showers"
"-66.09","43.83","YARMOUTH A","8206495","2021-08-05 00:00","2021","08","05","00:00","17.0","","16.6","","97","","","","11","","8","","14.5","","102.01","","","","","","Rain Showers"
"-66.09","43.83","YARMOUTH A","8206495","2021-08-05 01:00","2021","08","05","01:00","17.1","","16.7","","97","","","","9","","10","","14.5","","101.94","","","","","","Rain Showers"
"-66.09","43.83","YARMOUTH A","8206495","2021-08-05 02:00","2021","08","05","02:00","17.1","","16.7","","98","","","","7","","10","","14.5","","101.89","","","","","","Cloudy"
"-66.09","43.83","YARMOUTH A","8206495","2021-08-05 03:00","2021","08","05","03:00","17.1","","16.7","","97","","","","12","","12","","14.5","","101.87","","","","","","Rain Showers"
"-66.09","43.83","YARMOUTH A","8206495","2021-08-05 04:00","2021","08","05","04:00","17.1","","16.6","","97","","","","10","","13","","14.5","","101.79","","","","","","Rain Showers"
"-66.09","43.83","YARMOUTH A","8206495","2021-08-05 05:00","2021","08","05","05:00","17.1","","16.8","","98","","","","9","","17","","14.5","","101.72","","","","","","Rain Showers"
"-66.09","43.83","YARMOUTH A","8206495","2021-08-05 06:00","2021","08","05","06:00","17.6","","17.5","","99","","","","10","","20","","2.0","","101.70","","","","","","Rain Showers,Fog"
"-66.09","43.83","YARMOUTH A","8206495","2021-08-05 07:00","2021","08","05","07:00","18.8","","18.8","","100","","","","14","","17","","3.2","","101.67","","","","","","Rain,Fog"
"-66.09","43.83","YARMOUTH A","8206495","2021-08-05 08:00","2021","08","05","08:00","20.7","","20.7","","100","","","","19","","33","","0.8","","101.66","","29","","","","Fog"
"-66.09","43.83","YARMOUTH A","8206495","2021-08-05 09:00","2021","08","05","09:00","20.8","","20.6","","99","","","","20","","34","","3.2","","101.68","","29","","","","Fog"
"-66.09","43.83","YARMOUTH A","8206495","2021-08-05 10:00","2021","08","05","10:00","20.8","","20.5","","99","","","","19","","30","","3.2","","101.71","","29","","","","Fog"
"-66.09","43.83","YARMOUTH A","8206495","2021-08-05 11:00","2021","08","05","11:00","21.1","","20.4","","96","","","","19","","35","","4.8","","101.75","","29","","","","Fog"
"-66.09","43.83","YARMOUTH A","8206495","2021-08-05 12:00","2021","08","05","12:00","19.0","","18.7","","98","","","","23","","17","","0.8","","101.84","","","","","","Fog"
"-66.09","43.83","YARMOUTH A","8206495","2021-08-05 13:00","2021","08","05","13:00","23.1","","21.1","","88","","","","22","","23","","4.8","","101.77","","32","","","","Fog"
"-66.09","43.83","YARMOUTH A","8206495","2021-08-05 14:00","2021","08","05","14:00","21.3","","21.0","","98","","","","20","","15","","4.8","","101.73","","30","","","","Fog"
"-66.09","43.83","YARMOUTH A","8206495","2021-08-05 15:00","2021","08","05","15:00","20.3","","20.1","","99","","","","18","","19","","4.8","","101.74","","28","","","","Rain Showers,Fog"
"-66.09","43.83","YARMOUTH A","8206495","2021-08-05 16:00","2021","08","05","16:00","20.9","","20.9","","99","","","","20","","20","","1.6","","101.69","","29","","","","Rain Showers,Fog"
"-66.09","43.83","YARMOUTH A","8206495","2021-08-05 17:00","2021","08","05","17:00","20.8","","20.6","","99","","","","19","","26","","3.6","","101.67","","29","","","","Rain Showers,Fog"
"-66.09","43.83","YARMOUTH A","8206495","2021-08-05 18:00","2021","08","05","18:00","19.3","","19.1","","99","","","","20","","28","","4.0","","101.67","","","","","","Rain Showers,Fog"
"-66.09","43.83","YARMOUTH A","8206495","2021-08-05 19:00","2021","08","05","19:00","19.8","","19.8","","100","","","","20","","24","","4.0","","101.68","","","","","","Rain Showers,Fog"
"-66.09","43.83","YARMOUTH A","8206495","2021-08-05 20:00","2021","08","05","20:00","18.8","","18.7","","100","","","","18","","19","","8.1","","101.68","","","","","","Fog"
"-66.09","43.83","YARMOUTH A","8206495","2021-08-05 21:00","2021","08","05","21:00","18.9","","18.9","","100","","","","19","","23","","8.1","","101.70","","","","","","Fog"
"-66.09","43.83","YARMOUTH A","8206495","2021-08-05 22:00","2021","08","05","22:00","18.7","","18.5","","99","","","","19","","21","","14.5","","101.67","","","","","","NA"
"-66.09","43.83","YARMOUTH A","8206495","2021-08-05 23:00","2021","08","05","23:00","18.4","","18.3","","99","","","","18","","22","","9.7","","101.61","","","","","","Fog"
"-66.09","43.83","YARMOUTH A","8206495","2021-08-06 00:00","2021","08","06","00:00","18.8","","18.7","","100","","","","18","","23","","4.8","","101.57","","","","","","Rain Showers,Fog"
"-66.09","43.83","YARMOUTH A","8206495","2021-08-06 01:00","2021","08","06","01:00","18.8","","18.6","","99","","","","19","","28","","4.8","","101.56","","","","","","Rain Showers,Fog"
"-66.09","43.83","YARMOUTH A","8206495","2021-08-06 02:00","2021","08","06","02:00","18.8","","18.6","","99","","","","19","","30","","14.5","","101.54","","","","","","Mostly Cloudy"
"-66.09","43.83","YARMOUTH A","8206495","2021-08-06 03:00","2021","08","06","03:00","18.2","","18.0","","99","","","","18","","24","","3.2","","101.50","","","","","","Fog"
"-66.09","43.83","YARMOUTH A","8206495","2021-08-06 04:00","2021","08","06","04:00","18.3","","17.9","","98","","","","19","","32","","4.8","","101.45","","","","","","Rain Showers,Fog"
"-66.09","43.83","YARMOUTH A","8206495","2021-08-06 05:00","2021","08","06","05:00","18.5","","18.1","","98","","","","19","","31","","14.5","","101.45","","","","","","Rain Showers"
"-66.09","43.83","YARMOUTH A","8206495","2021-08-06 06:00","2021","08","06","06:00","18.4","","18.2","","98","","","","20","","31","","4.8","","101.45","","","","","","Rain Showers,Fog"
"-66.09","43.83","YARMOUTH A","8206495","2021-08-06 07:00","2021","08","06","07:00","17.8","","17.7","","99","","","","21","","25","","0.8","","101.48","","","","","","Fog"
"-66.09","43.83","YARMOUTH A","8206495","2021-08-06 08:00","2021","08","06","08:00","17.7","","17.7","","100","","","","20","","21","","0.8","","101.49","","","","","","Fog"
"-66.09","43.83","YARMOUTH A","8206495","2021-08-06 09:00","2021","08","06","09:00","17.5","","17.5","","100","","","","20","","21","","0.4","","101.54","","","","","","Fog"
"-66.09","43.83","YARMOUTH A","8206495","2021-08-06 10:00","2021","08","06","10:00","18.1","","18.0","","100","","","","22","","21","","0.2","","101.54","","","","","","Fog"
"-66.09","43.83","YARMOUTH A","8206495","2021-08-06 11:00","2021","08","06","11:00","17.8","","17.5","","98","","","","23","","21","","0.8","","101.58","","","","","","Fog"
"-66.09","43.83","YARMOUTH A","8206495","2021-08-06 12:00","2021","08","06","12:00","19.0","","18.0","","94","","","","23","","17","","0.6","","101.56","","","","","","Fog"
"-66.09","43.83","YARMOUTH A","8206495","2021-08-06 13:00","2021","08","06","13:00","17.9","","17.4","","97","","","","23","","15","","1.2","","101.55","","","","","","Fog"
"-66.09","43.83","YARMOUTH A","8206495","2021-08-06 14:00","2021","08","06","14:00","17.9","","17.3","","96","","","","23","","15","","3.2","","101.55","","","","","","Fog"
"-66.09","43.83","YARMOUTH A","8206495","2021-08-06 15:00","2021","08","06","15:00","17.4","","16.9","","97","","","","23","","16","","2.0","","101.58","","","","","","Fog"
"-66.09","43.83","YARMOUTH A","8206495","2021-08-06 16:00","2021","08","06","16:00","18.1","","17.7","","97","","","","23","","16","","1.2","","101.53","","","","","","Fog"
"-66.09","43.83","YARMOUTH A","8206495","2021-08-06 17:00","2021","08","06","17:00","18.2","","17.9","","98","","","","22","","15","","1.2","","101.54","","","","","","Fog"
"-66.09","43.83","YARMOUTH A","8206495","2021-08-06 18:00","2021","08","06","18:00","17.6","","17.5","","99","","","","23","","13","","0.6","","101.51","","","","","","Fog"
"-66.09","43.83","YARMOUTH A","8206495","2021-08-06 19:00","2021","08","06","19:00","16.9","","16.9","","100","","","","24","","19","","0.2","","101.51","","","","","","Fog"
"-66.09","43.83","YARMOUTH A","8206495","2021-08-06 20:00","2021","08","06","20:00","16.9","","16.9","","100","","","","24","","18","","0.4","","101.52","","","","","","Fog"
"-66.09","43.83","YARMOUTH A","8206495","2021-08-06 21:00","2021","08","06","21:00","16.7","","16.7","","100","","","","20","","12","","0.4","","101.54","","","","","","Fog"
"-66.09","43.83","YARMOUTH A","8206495","2021-08-06 22:00","2021","08","06","22:00","16.2","","16.2","","100","","","","21","","10","","0.4","","101.55","","","","","","Fog"
"-66.09","43.83","YARMOUTH A","8206495","2021-08-06 23:00","2021","08","06","23:00","16.5","","16.5","","100","","","","22","","10","","0.4","","101.53","","","","","","Fog"
"-66.09","43.83","YARMOUTH A","8206495","2021-08-07 00:00","2021","08","07","00:00","16.4","","16.4","","100","","","","19","","9","","0.4","","101.55","","","","","","Fog"
"-66.09","43.83","YARMOUTH A","8206495","2021-08-07 01:00","2021","08","07","01:00","15.9","","15.9","","100","","","","17","","12","","0.2","","101.56","","","","","","Fog"
"-66.09","43.83","YARMOUTH A","8206495","2021-08-07 02:00","2021","08","07","02:00","16.0","","16.0","","100","","","","18","","11","","0.2","","101.50","","","","","","Fog"
"-66.09","43.83","YARMOUTH A","8206495","2021-08-07 03:00","2021","08","07","03:00","15.9","","15.9","","100","","","","17","","8","","0.4","","101.47","","","","","","Fog"
"-66.09","43.83","YARMOUTH A","8206495","2021-08-07 04:00","2021","08","07","04:00","16.7","","16.7","","100","","","","17","","11","","0.4","","101.43","","","","","","Fog"
"-66.09","43.83","YARMOUTH A","8206495","2021-08-07 05:00","2021","08","07","05:00","16.6","","16.6","","100","","","","17","","8","","0.2","","101.43","","","","","","Fog"
"-66.09","43.83","YARMOUTH A","8206495","2021-08-07 06:00","2021","08","07","06:00","16.1","","16.1","","100","","","","17","","8","","0.2","","101.40","","","","","","Fog"
"-66.09","43.83","YARMOUTH A","8206495","2021-08-07 07:00","2021","08","07","07:00","16.4","","16.4","","100","","","","16","","12","","0.2","","101.41","","","","","","Fog"
"-66.09","43.83","YARMOUTH A","8206495","2021-08-07 08:00","2021","08","07","08:00","16.8","","16.8","","100","","","","18","","18","","0.2","","101.42","","","","","","Fog"
"-66.09","43.83","YARMOUTH A","8206495","2021-08-07 09:00","2021","08","07","09:00","17.2","","17.2","","100","","","","18","","20","","0.2","","101.40","","","","","","Fog"
"-66.09","43.83","YARMOUTH A","8206495","2021-08-07 10:00","2021","08","07","10:00","17.8","","17.8","","100","","","","18","","14","","0.4","","101.39","","","","","","Fog"
"-66.09","43.83","YARMOUTH A","8206495","2021-08-07 11:00","2021","08","07","11:00","19.2","","19.0","","99","","","","18","","18","","4.8","","101.36","","","","","","Fog"
"-66.09","43.83","YARMOUTH A","8206495","2021-08-07 12:00","2021","08","07","12:00","20.8","","19.3","","91","","","","17","","10","","11.3","","101.31","","28","","","","NA"
"-66.09","43.83","YARMOUTH A","8206495","2021-08-07 13:00","2021","08","07","13:00","21.6","","19.1","","86","","","","18","","11","","19.3","","101.26","","28","","","","NA"
"-66.09","43.83","YARMOUTH A","8206495","2021-08-07 14:00","2021","08","07","14:00","21.8","","19.1","","84","","","","24","","17","","24.1","","101.22","","29","","","","Mostly Cloudy"
"-66.09","43.83","YARMOUTH A","8206495","2021-08-07 15:00","2021","08","07","15:00","21.3","","18.6","","85","","","","22","","10","","24.1","","101.22","","28","","","","NA"
"-66.09","43.83","YARMOUTH A","8206495","2021-08-07 16:00","2021","08","07","16:00","21.2","","18.2","","83","","","","22","","19","","19.3","","101.19","","27","","","","NA"
"-66.09","43.83","YARMOUTH A","8206495","2021-08-07 17:00","2021","08","07","17:00","20.4","","18.4","","88","","","","18","","13","","19.3","","101.16","","27","","","","Cloudy"
"-66.09","43.83","YARMOUTH A","8206495","2021-08-07 18:00","2021","08","07","18:00","19.0","","17.7","","92","","","","17","","11","","19.3","","101.11","","","","","","NA"
"-66.09","43.83","YARMOUTH A","8206495","2021-08-07 19:00","2021","08","07","19:00","18.5","","17.4","","93","","","","18","","13","","19.3","","101.12","","","","","","NA"
"-66.09","43.83","YARMOUTH A","8206495","2021-08-07 20:00","2021","08","07","20:00","17.8","","17.1","","96","","","","20","","12","","19.3","","101.14","","","","","","Cloudy"
"-66.09","43.83","YARMOUTH A","8206495","2021-08-07 21:00","2021","08","07","21:00","18.0","","17.3","","96","","","","18","","8","","19.3","","101.20","","","","","","NA"
"-66.09","43.83","YARMOUTH A","8206495","2021-08-07 22:00","2021","08","07","22:00","17.4","","17.0","","97","","","","16","","10","","19.3","","101.18","","","","","","NA"
"-66.09","43.83","YARMOUTH A","8206495","2021-08-07 23:00","2021","08","07","23:00","17.4","","16.9","","96","","","","15","","6","","19.3","","101.17","","","","","","Mostly Cloudy"
"-66.09","43.83","YARMOUTH A","8206495","2021-08-08 00:00","2021","08","08","00:00","16.4","","16.0","","98","","","","16","","10","","19.3","","101.17","","","","","","NA"
"-66.09","43.83","YARMOUTH A","8206495","2021-08-08 01:00","2021","08","08","01:00","16.6","","16.4","","99","","","","17","","10","","19.3","","101.14","","","","","","NA"
"-66.09","43.83","YARMOUTH A","8206495","2021-08-08 02:00","2021","08","08","02:00","16.8","","16.5","","98","","","","17","","8","","19.3","","101.08","","","","","","Mostly Cloudy"
"-66.09","43.83","YARMOUTH A","8206495","2021-08-08 03:00","2021","08","08","03:00","16.5","","16.4","","99","","","","15","","5","","19.3","","101.04","","","","","","NA"
"-66.09","43.83","YARMOUTH A","8206495","2021-08-08 04:00","2021","08","08","04:00","16.6","","16.5","","99","","","","18","","10","","14.5","","101.03","","","","","","NA"
"-66.09","43.83","YARMOUTH A","8206495","2021-08-08 05:00","2021","08","08","05:00","16.2","","16.1","","99","","","","18","","7","","9.7","","101.06","","","","","","Fog"
"-66.09","43.83","YARMOUTH A","8206495","2021-08-08 06:00","2021","08","08","06:00","16.7","","16.6","","99","","","","19","","4","","4.8","","101.08","","","","","","Fog"
"-66.09","43.83","YARMOUTH A","8206495","2021-08-08 07:00","2021","08","08","07:00","17.9","","17.6","","98","","","","28","","3","","8.1","","101.12","","","","","","Fog"
"-66.09","43.83","YARMOUTH A","8206495","2021-08-08 08:00","2021","08","08","08:00","18.6","","18.1","","97","","","","28","","4","","6.4","","101.19","","","","","","Fog"
"-66.09","43.83","YARMOUTH A","8206495","2021-08-08 09:00","2021","08","08","09:00","19.0","","18.3","","96","","","","36","","2","","6.4","","101.19","","","","","","Fog"
"-66.09","43.83","YARMOUTH A","8206495","2021-08-08 10:00","2021","08","08","10:00","21.4","","19.7","","90","","","","9","","7","","9.7","","101.21","","29","","","","Fog"
"-66.09","43.83","YARMOUTH A","8206495","2021-08-08 11:00","2021","08","08","11:00","22.4","","20.0","","86","","","","10","","7","","12.9","","101.24","","30","","","","Cloudy"
"-66.09","43.83","YARMOUTH A","8206495","2021-08-08 12:00","2021","08","08","12:00","23.2","","20.7","","85","","","","15","","3","","16.1","","101.27","","31","","","","NA"
"-66.09","43.83","YARMOUTH A","8206495","2021-08-08 13:00","2021","08","08","13:00","20.0","","18.2","","89","","","","27","","12","","16.1","","101.30","","26","","","","NA"
"-66.09","43.83","YARMOUTH A","8206495","2021-08-08 14:00","2021","08","08","14:00","19.6","","17.9","","89","","","","29","","13","","19.3","","101.32","","","","","","Mostly Cloudy"
"-66.09","43.83","YARMOUTH A","8206495","2021-08-08 15:00","2021","08","08","15:00","21.8","","19.2","","85","","","","30","","13","","19.3","","101.31","","29","","","","NA"
"-66.09","43.83","YARMOUTH A","8206495","2021-08-08 16:00","2021","08","08","16:00","22.1","","19.1","","82","","","","30","","7","","19.3","","101.33","","29","","","","NA"
"-66.09","43.83","YARMOUTH A","8206495","2021-08-08 17:00","2021","08","08","17:00","22.8","","19.0","","79","","","","24","","7","","19.3","","101.38","","30","","","","Mainly Clear"
"-66.09","43.83","YARMOUTH A","8206495","2021-08-08 18:00","2021","08","08","18:00","21.1","","18.4","","84","","","","27","","4","","19.3","","101.39","","27","","","","NA"
"-66.09","43.83","YARMOUTH A","8206495","2021-08-08 19:00","2021","08","08","19:00","22.4","","20.1","","86","","","","36","","2","","19.3","","101.44","","30","","","","NA"
"-66.09","43.83","YARMOUTH A","8206495","2021-08-08 20:00","2021","08","08","20:00","19.0","","17.7","","92","","","","17","","7","","19.3","","101.50","","","","","","Mostly Cloudy"
"-66.09","43.83","YARMOUTH A","8206495","2021-08-08 21:00","2021","08","08","21:00","19.9","","18.9","","94","","","","11","","11","","19.3","","101.60","","","","","","NA"
"-66.09","43.83","YARMOUTH A","8206495","2021-08-08 22:00","2021","08","08","22:00","20.8","","19.8","","94","","","","9","","11","","19.3","","101.65","","28","","","","NA"
"-66.09","43.83","YARMOUTH A","8206495","2021-08-08 23:00","2021","08","08","23:00","20.5","","19.8","","96","","","","9","","10","","19.3","","101.65","","28","","","","Mostly Cloudy"
"-66.09","43.83","YARMOUTH A","8206495","2021-08-09 00:00","2021","08","09","00:00","20.4","","19.7","","96","","","","8","","10","","19.3","","101.67","","28","","","","NA"
"-66.09","43.83","YARMOUTH A","8206495","2021-08-09 01:00","2021","08","09","01:00","20.1","","19.0","","93","","","","8","","14","","19.3","","101.68","","27","","","","NA"
"-66.09","43.83","YARMOUTH A","8206495","2021-08-09 02:00","2021","08","09","02:00","19.3","","18.4","","94","","","","7","","16","","19.3","","101.69","","","","","","Mostly Cloudy"
"-66.09","43.83","YARMOUTH A","8206495","2021-08-09 03:00","2021","08","09","03:00","19.1","","18.0","","93","","","","8","","10","","19.3","","101.72","","","","","","NA"
"-66.09","43.83","YARMOUTH A","8206495","2021-08-09 04:00","2021","08","09","04:00","18.9","","17.4","","90","","","","9","","12","","19.3","","101.78","","","","","","NA"
"-66.09","43.83","YARMOUTH A","8206495","2021-08-09 05:00","2021","08","09","05:00","18.3","","16.8","","91","","","","8","","12","","19.3","","101.85","","","","","","Cloudy"
"-66.09","43.83","YARMOUTH A","8206495","2021-08-09 06:00","2021","08","09","06:00","17.8","","16.1","","90","","","","10","","14","","19.3","","101.86","","","","","","NA"
"-66.09","43.83","YARMOUTH A","8206495","2021-08-09 07:00","2021","08","09","07:00","18.4","","16.0","","85","","","","9","","15","","19.3","","101.91","","","","","","NA"
"-66.09","43.83","YARMOUTH A","8206495","2021-08-09 08:00","2021","08","09","08:00","19.4","","16.3","","82","","","","9","","20","","24.1","","101.90","","","","","","Mainly Clear"
"-66.09","43.83","YARMOUTH A","8206495","2021-08-09 09:00","2021","08","09","09:00","21.3","","17.4","","78","","","","8","","13","","24.1","","101.89","","27","","","","NA"
"-66.09","43.83","YARMOUTH A","8206495","2021-08-09 10:00","2021","08","09","10:00","23.2","","18.5","","75","","","","9","","11","","24.1","","101.92","","30","","","","NA"
"-66.09","43.83","YARMOUTH A","8206495","2021-08-09 11:00","2021","08","09","11:00","23.8","","18.8","","73","","","","11","","13","","24.1","","101.94","","30","","","","Mostly Cloudy"
"-66.09","43.83","YARMOUTH A","8206495","2021-08-09 12:00","2021","08","09","12:00","25.0","","19.6","","71","","","","6","","10","","24.1","","101.92","","32","","","","NA"
"-66.09","43.83","YARMOUTH A","8206495","2021-08-09 13:00","2021","08","09","13:00","21.8","","17.9","","78","","","","28","","16","","24.1","","101.90","","28","","","","NA"
"-66.09","43.83","YARMOUTH A","8206495","2021-08-09 14:00","2021","08","09","14:00","21.7","","18.8","","83","","","","28","","12","","24.1","","101.90","","28","","","","Mostly Cloudy"
"-66.09","43.83","YARMOUTH A","8206495","2021-08-09 15:00","2021","08","09","15:00","20.9","","17.9","","83","","","","32","","10","","24.1","","101.89","","27","","","","NA"
"-66.09","43.83","YARMOUTH A","8206495","2021-08-09 16:00","2021","08","09","16:00","21.9","","18.4","","80","","","","34","","8","","24.1","","101.86","","28","","","","NA"
"-66.09","43.83","YARMOUTH A","8206495","2021-08-09 17:00","2021","08","09","17:00","22.7","","18.9","","79","","","","12","","13","","24.1","","101.84","","29","","","","Mostly Cloudy"
"-66.09","43.83","YARMOUTH A","8206495","2021-08-09 18:00","2021","08","09","18:00","21.8","","18.4","","81","","","","10","","16","","24.1","","101.83","","28","","","","NA"
"-66.09","43.83","YARMOUTH A","8206495","2021-08-09 19:00","2021","08","09","19:00","20.6","","18.1","","86","","","","10","","10","","19.3","","101.88","","27","","","","NA"
"-66.09","43.83","YARMOUTH A","8206495","2021-08-09 20:00","2021","08","09","20:00","19.4","","17.8","","90","","","","10","","16","","16.1","","101.91","","","","","","Cloudy"
"-66.09","43.83","YARMOUTH A","8206495","2021-08-09 21:00","2021","08","09","21:00","19.0","","17.8","","93","","","","12","","8","","24.1","","101.95","","","","","","NA"
"-66.09","43.83","YARMOUTH A","8206495","2021-08-09 22:00","2021","08","09","22:00","18.6","","17.8","","95","","","","11","","16","","16.1","","101.93","","","","","","NA"
"-66.09","43.83","YARMOUTH A","8206495","2021-08-09 23:00","2021","08","09","23:00","18.5","","17.9","","96","","","","10","","10","","14.5","","101.91","","","","","","Cloudy"
"-66.09","43.83","YARMOUTH A","8206495","2021-08-10 00:00","2021","08","10","00:00","18.2","","17.9","","97","","","","12","","13","","4.8","","101.91","","","","","","Fog"
"-66.09","43.83","YARMOUTH A","8206495","2021-08-10 01:00","2021","08","10","01:00","18.2","","17.9","","99","","","","11","","10","","3.2","","101.91","","","","","","Fog"
"-66.09","43.83","YARMOUTH A","8206495","2021-08-10 02:00","2021","08","10","02:00","18.0","","17.9","","99","","","","11","","14","","2.4","","101.86","","","","","","Fog"
"-66.09","43.83","YARMOUTH A","8206495","2021-08-10 03:00","2021","08","10","03:00","18.2","","18.0","","99","","","","13","","13","","3.2","","101.83","","","","","","Fog"
"-66.09","43.83","YARMOUTH A","8206495","2021-08-10 04:00","2021","08","10","04:00","18.3","","18.0","","98","","","","10","","15","","4.0","","101.81","","","","","","Fog"
"-66.09","43.83","YARMOUTH A","8206495","2021-08-10 05:00","2021","08","10","05:00","18.5","","18.1","","98","","","","10","","16","","4.0","","101.79","","","","","","Fog"
"-66.09","43.83","YARMOUTH A","8206495","2021-08-10 06:00","2021","08","10","06:00","18.7","","18.2","","97","","","","10","","15","","4.8","","101.80","","","","","","Fog"
"-66.09","43.83","YARMOUTH A","8206495","2021-08-10 07:00","2021","08","10","07:00","18.9","","18.4","","96","","","","14","","17","","8.1","","101.79","","","","","","Fog"
"-66.09","43.83","YARMOUTH A","8206495","2021-08-10 08:00","2021","08","10","08:00","19.6","","18.7","","95","","","","9","","13","","14.5","","101.81","","","","","","Cloudy"
"-66.09","43.83","YARMOUTH A","8206495","2021-08-10 09:00","2021","08","10","09:00","20.6","","19.4","","93","","","","11","","9","","14.5","","101.79","","28","","","","NA"
"-66.09","43.83","YARMOUTH A","8206495","2021-08-10 10:00","2021","08","10","10:00","22.9","","20.1","","84","","","","11","","13","","19.3","","101.77","","31","","","","NA"
"-66.09","43.83","YARMOUTH A","8206495","2021-08-10 11:00","2021","08","10","11:00","25.2","","20.0","","73","","","","15","","18","","24.1","","101.73","","33","","","","Mostly Cloudy"
"-66.09","43.83","YARMOUTH A","8206495","2021-08-10 12:00","2021","08","10","12:00","25.6","","21.0","","75","","","","16","","13","","24.1","","101.69","","34","","","","NA"
"-66.09","43.83","YARMOUTH A","8206495","2021-08-10 13:00","2021","08","10","13:00","25.6","","21.2","","76","","","","17","","16","","24.1","","101.64","","34","","","","NA"
"-66.09","43.83","YARMOUTH A","8206495","2021-08-10 14:00","2021","08","10","14:00","24.2","","22.3","","89","","","","17","","14","","19.3","","101.60","","34","","","","Rain Showers"
"-66.09","43.83","YARMOUTH A","8206495","2021-08-10 15:00","2021","08","10","15:00","21.8","","21.6","","98","","","","19","","18","","2.0","","101.56","","31","","","","Rain Showers,Fog"
"-66.09","43.83","YARMOUTH A","8206495","2021-08-10 16:00","2021","08","10","16:00","20.8","","20.7","","99","","","","17","","21","","1.2","","101.55","","29","","","","Fog"
"-66.09","43.83","YARMOUTH A","8206495","2021-08-10 17:00","2021","08","10","17:00","20.7","","20.6","","100","","","","17","","16","","1.2","","101.52","","29","","","","Fog"
"-66.09","43.83","YARMOUTH A","8206495","2021-08-10 18:00","2021","08","10","18:00","20.3","","20.2","","99","","","","17","","14","","1.2","","101.51","","28","","","","Fog"
"-66.09","43.83","YARMOUTH A","8206495","2021-08-10 19:00","2021","08","10","19:00","19.4","","19.3","","100","","","","19","","7","","0.4","","101.51","","","","","","Fog"
"-66.09","43.83","YARMOUTH A","8206495","2021-08-10 20:00","2021","08","10","20:00","19.4","","19.4","","100","","","","14","","7","","0.6","","101.51","","","","","","Fog"
"-66.09","43.83","YARMOUTH A","8206495","2021-08-10 21:00","2021","08","10","21:00","18.9","","18.9","","100","","","","16","","8","","4.0","","101.50","","","","","","Fog"
"-66.09","43.83","YARMOUTH A","8206495","2021-08-10 22:00","2021","08","10","22:00","18.8","","18.8","","100","","","","13","","5","","4.8","","101.47","","","","","","Fog"
"-66.09","43.83","YARMOUTH A","8206495","2021-08-10 23:00","2021","08","10","23:00","19.0","","19.0","","100","","","","16","","12","","4.8","","101.48","","","","","","Fog"
"-66.09","43.83","YARMOUTH A","8206495","2021-08-11 00:00","2021","08","11","00:00","18.6","","18.6","","100","","","","17","","8","","0.6","","101.50","","","","","","Fog"
"-66.09","43.83","YARMOUTH A","8206495","2021-08-11 01:00","2021","08","11","01:00","17.8","","17.8","","100","","","","20","","9","","0.4","","101.48","","","","","","Fog"
"-66.09","43.83","YARMOUTH A","8206495","2021-08-11 02:00","2021","08","11","02:00","17.3","","17.3","","100","","","","20","","5","","0.8","","101.45","","","","","","Fog"
"-66.09","43.83","YARMOUTH A","8206495","2021-08-11 03:00","2021","08","11","03:00","17.0","","17.0","","100","","","","24","","5","","0.4","","101.44","","","","","","Fog"
"-66.09","43.83","YARMOUTH A","8206495","2021-08-11 04:00","2021","08","11","04:00","16.8","","16.8","","100","","","","29","","7","","0.2","","101.40","","","","","","Fog"
"-66.09","43.83","YARMOUTH A","8206495","2021-08-11 05:00","2021","08","11","05:00","16.9","","16.9","","100","","","","25","","8","","0.4","","101.41","","","","","","Fog"
"-66.09","43.83","YARMOUTH A","8206495","2021-08-11 06:00","2021","08","11","06:00","16.9","","16.9","","100","","","","25","","5","","0.2","","101.42","","","","","","Fog"
"-66.09","43.83","YARMOUTH A","8206495","2021-08-11 07:00","2021","08","11","07:00","17.8","","17.8","","100","","","","20","","5","","0.2","","101.41","","","","","","Fog"
"-66.09","43.83","YARMOUTH A","8206495","2021-08-11 08:00","2021","08","11","08:00","18.0","","18.0","","100","","","","17","","9","","0.4","","101.43","","","","","","Fog"
"-66.09","43.83","YARMOUTH A","8206495","2021-08-11 09:00","2021","08","11","09:00","18.7","","18.7","","100","","","","15","","9","","0.2","","101.44","","","","","","Fog"
"-66.09","43.83","YARMOUTH A","8206495","2021-08-11 10:00","2021","08","11","10:00","19.1","","19.1","","100","","","","17","","14","","0.8","","101.43","","","","","","Fog"
"-66.09","43.83","YARMOUTH A","8206495","2021-08-11 11:00","2021","08","11","11:00","19.1","","19.1","","100","","","","17","","13","","0.4","","101.39","","","","","","Fog"
"-66.09","43.83","YARMOUTH A","8206495","2021-08-11 12:00","2021","08","11","12:00","20.4","","20.4","","100","","","","18","","14","","1.2","","101.36","","28","","","","Fog"
"-66.09","43.83","YARMOUTH A","8206495","2021-08-11 13:00","2021","08","11","13:00","19.7","","19.7","","100","","","","19","","12","","1.6","","101.35","","","","","","Fog"
"-66.09","43.83","YARMOUTH A","8206495","2021-08-11 14:00","2021","08","11","14:00","20.6","","20.3","","98","","","","19","","13","","4.8","","101.30","","28","","","","Fog"
"-66.09","43.83","YARMOUTH A","8206495","2021-08-11 15:00","2021","08","11","15:00","19.8","","19.6","","99","","","","18","","13","","1.2","","101.28","","","","","","Fog"
"-66.09","43.83","YARMOUTH A","8206495","2021-08-11 16:00","2021","08","11","16:00","19.3","","19.3","","100","","","","17","","16","","0.4","","101.21","","","","","","Fog"
"-66.09","43.83","YARMOUTH A","8206495","2021-08-11 17:00","2021","08","11","17:00","19.2","","19.2","","100","","","","19","","17","","0.4","","101.20","","","","","","Fog"
"-66.09","43.83","YARMOUTH A","8206495","2021-08-11 18:00","2021","08","11","18:00","19.0","","19.0","","100","","","","20","","13","","0.2","","101.20","","","","","","Fog"
"-66.09","43.83","YARMOUTH A","8206495","2021-08-11 19:00","2021","08","11","19:00","19.1","","19.1","","100","","","","18","","15","","0.2","","101.18","","","","","","Fog"
"-66.09","43.83","YARMOUTH A","8206495","2021-08-11 20:00","2021","08","11","20:00","19.3","","19.3","","100","","","","21","","15","","0.8","","101.17","","","","","","Fog"
"-66.09","43.83","YARMOUTH A","8206495","2021-08-11 21:00","2021","08","11","21:00","19.1","","19.1","","100","","","","18","","13","","0.6","","101.17","","","","","","Fog"
"-66.09","43.83","YARMOUTH A","8206495","2021-08-11 22:00","2021","08","11","22:00","18.6","","18.6","","100","","","","18","","15","","0.6","","101.13","","","","","","Fog"
"-66.09","43.83","YARMOUTH A","8206495","2021-08-11 23:00","2021","08","11","23:00","18.5","","18.5","","100","","","","19","","14","","0.6","","101.14","","","","","","Fog"
"-66.09","43.83","YARMOUTH A","8206495","2021-08-12 00:00","2021","08","12","00:00","19.3","","19.3","","100","","","","20","","19","","0.6","","101.15","","","","","","Fog"
"-66.09","43.83","YARMOUTH A","8206495","2021-08-12 01:00","2021","08","12","01:00","19.0","","19.0","","100","","","","21","","19","","0.4","","101.12","","","","","","Fog"
"-66.09","43.83","YARMOUTH A","8206495","2021-08-12 02:00","2021","08","12","02:00","18.9","","18.9","","100","","","","23","","15","","0.4","","101.09","","","","","","Fog"
"-66.09","43.83","YARMOUTH A","8206495","2021-08-12 03:00","2021","08","12","03:00","19.0","","19.0","","100","","","","22","","12","","0.4","","101.07","","","","","","Fog"
"-66.09","43.83","YARMOUTH A","8206495","2021-08-12 04:00","2021","08","12","04:00","17.9","","17.9","","100","","","","18","","8","","0.2","","101.03","","","","","","Fog"
"-66.09","43.83","YARMOUTH A","8206495","2021-08-12 05:00","2021","08","12","05:00","17.6","","17.6","","100","","","","17","","9","","0.2","","101.02","","","","","","Fog"
"-66.09","43.83","YARMOUTH A","8206495","2021-08-12 06:00","2021","08","12","06:00","17.6","","17.6","","100","","","","17","","11","","0.2","","101.05","","","","","","Fog"
"-66.09","43.83","YARMOUTH A","8206495","2021-08-12 07:00","2021","08","12","07:00","18.0","","18.0","","100","","","","18","","11","","0.2","","101.10","","","","","","Fog"
"-66.09","43.83","YARMOUTH A","8206495","2021-08-12 08:00","2021","08","12","08:00","18.1","","18.1","","100","","","","17","","12","","0.2","","101.05","","","","","","Fog"
"-66.09","43.83","YARMOUTH A","8206495","2021-08-12 09:00","2021","08","12","09:00","19.2","","19.2","","100","","","","18","","13","","0.8","","101.07","","","","","","Fog"
"-66.09","43.83","YARMOUTH A","8206495","2021-08-12 10:00","2021","08","12","10:00","19.7","","19.7","","100","","","","20","","16","","0.8","","101.08","","","","","","Fog"
"-66.09","43.83","YARMOUTH A","8206495","2021-08-12 11:00","2021","08","12","11:00","20.0","","20.0","","100","","","","16","","7","","0.8","","101.06","","28","","","","Fog"
"-66.09","43.83","YARMOUTH A","8206495","2021-08-12 12:00","2021","08","12","12:00","20.0","","19.9","","99","","","","15","","11","","4.8","","101.04","","27","","","","Fog"
"-66.09","43.83","YARMOUTH A","8206495","2021-08-12 13:00","2021","08","12","13:00","20.2","","19.6","","96","","","","17","","13","","4.8","","101.04","","27","","","","Fog"
"-66.09","43.83","YARMOUTH A","8206495","2021-08-12 14:00","2021","08","12","14:00","20.6","","19.9","","96","","","","17","","9","","6.4","","101.02","","28","","","","Fog"
"-66.09","43.83","YARMOUTH A","8206495","2021-08-12 15:00","2021","08","12","15:00","20.5","","19.6","","95","","","","23","","13","","3.2","","101.02","","28","","","","Fog"
"-66.09","43.83","YARMOUTH A","8206495","2021-08-12 16:00","2021","08","12","16:00","19.7","","19.2","","97","","","","18","","8","","1.2","","100.97","","","","","","Fog"
"-66.09","43.83","YARMOUTH A","8206495","2021-08-12 17:00","2021","08","12","17:00","18.4","","18.2","","99","","","","17","","9","","0.2","","100.95","","","","","","Fog"
"-66.09","43.83","YARMOUTH A","8206495","2021-08-12 18:00","2021","08","12","18:00","18.0","","17.9","","99","","","","17","","15","","3.2","","100.89","","","","","","Fog"
"-66.09","43.83","YARMOUTH A","8206495","2021-08-12 19:00","2021","08","12","19:00","18.5","","18.3","","99","","","","15","","14","","4.8","","100.84","","","","","","Fog"
"-66.09","43.83","YARMOUTH A","8206495","2021-08-12 20:00","2021","08","12","20:00","18.6","","18.5","","99","","","","20","","14","","1.2","","100.92","","","","","","Fog"
"-66.09","43.83","YARMOUTH A","8206495","2021-08-12 21:00","2021","08","12","21:00","17.1","","17.1","","100","","","","17","","12","","0.4","","100.96","","","","","","Fog"
"-66.09","43.83","YARMOUTH A","8206495","2021-08-12 22:00","2021","08","12","22:00","17.1","","17.1","","100","","","","17","","12","","0.2","","100.92","","","","","","Fog"
"-66.09","43.83","YARMOUTH A","8206495","2021-08-12 23:00","2021","08","12","23:00","17.4","","17.4","","100","","","","17","","11","","0.2","","100.88","","","","","","Fog"
"-66.09","43.83","YARMOUTH A","8206495","2021-08-13 00:00","2021","08","13","00:00","17.2","","17.2","","100","","","","18","","14","","0.4","","100.92","","","","","","Fog"
"-66.09","43.83","YARMOUTH A","8206495","2021-08-13 01:00","2021","08","13","01:00","17.5","","17.5","","100","","","","18","","11","","0.4","","100.91","","","","","","Fog"
"-66.09","43.83","YARMOUTH A","8206495","2021-08-13 02:00","2021","08","13","02:00","17.2","","17.2","","100","","","","16","","12","","0.4","","100.88","","","","","","Fog"
"-66.09","43.83","YARMOUTH A","8206495","2021-08-13 03:00","2021","08","13","03:00","17.4","","17.4","","100","","","","15","","10","","1.0","","100.89","","","","","","Fog"
"-66.09","43.83","YARMOUTH A","8206495","2021-08-13 04:00","2021","08","13","04:00","17.2","","17.2","","100","","","","14","","7","","1.2","","100.90","","","","","","Fog"
"-66.09","43.83","YARMOUTH A","8206495","2021-08-13 05:00","2021","08","13","05:00","17.0","","17.0","","100","","","","15","","8","","0.6","","100.91","","","","","","Fog"
"-66.09","43.83","YARMOUTH A","8206495","2021-08-13 06:00","2021","08","13","06:00","17.0","","17.0","","100","","","","17","","7","","0.2","","100.93","","","","","","Fog"
"-66.09","43.83","YARMOUTH A","8206495","2021-08-13 07:00","2021","08","13","07:00","17.7","","17.7","","100","","","","12","","6","","0.6","","100.95","","","","","","Fog"
"-66.09","43.83","YARMOUTH A","8206495","2021-08-13 08:00","2021","08","13","08:00","18.9","","18.9","","100","","","","16","","6","","4.0","","100.99","","","","","","Fog"
"-66.09","43.83","YARMOUTH A","8206495","2021-08-13 09:00","2021","08","13","09:00","21.6","","20.2","","92","","","","13","","7","","1.0","","100.98","","29","","","","Fog"
"-66.09","43.83","YARMOUTH A","8206495","2021-08-13 10:00","2021","08","13","10:00","23.9","","21.1","","84","","","","15","","7","","12.9","","101.00","","32","","","","NA"
"-66.09","43.83","YARMOUTH A","8206495","2021-08-13 11:00","2021","08","13","11:00","23.1","","20.0","","82","","","","18","","13","","12.9","","101.01","","31","","","","Mostly Cloudy"
"-66.09","43.83","YARMOUTH A","8206495","2021-08-13 12:00","2021","08","13","12:00","24.0","","20.3","","79","","","","21","","16","","12.9","","101.06","","32","","","","NA"
"-66.09","43.83","YARMOUTH A","8206495","2021-08-13 13:00","2021","08","13","13:00","22.8","","19.9","","84","","","","27","","13","","12.9","","101.08","","30","","","","NA"
"-66.09","43.83","YARMOUTH A","8206495","2021-08-13 14:00","2021","08","13","14:00","24.3","","21.1","","82","","","","17","","12","","12.9","","101.06","","33","","","","Clear"
"-66.09","43.83","YARMOUTH A","8206495","2021-08-13 15:00","2021","08","13","15:00","23.8","","20.6","","82","","","","27","","12","","12.9","","101.07","","32","","","","NA"
"-66.09","43.83","YARMOUTH A","8206495","2021-08-13 16:00","2021","08","13","16:00","22.0","","19.5","","85","","","","29","","18","","12.9","","101.08","","29","","","","NA"
"-66.09","43.83","YARMOUTH A","8206495","2021-08-13 17:00","2021","08","13","17:00","21.9","","19.5","","86","","","","28","","17","","12.9","","101.07","","29","","","","Clear"
"-66.09","43.83","YARMOUTH A","8206495","2021-08-13 18:00","2021","08","13","18:00","21.1","","19.2","","89","","","","29","","9","","12.9","","101.08","","28","","","","NA"
"-66.09","43.83","YARMOUTH A","8206495","2021-08-13 19:00","2021","08","13","19:00","20.8","","19.4","","92","","","","23","","4","","12.9","","101.10","","28","","","","NA"
"-66.09","43.83","YARMOUTH A","8206495","2021-08-13 20:00","2021","08","13","20:00","19.5","","18.7","","95","","","","20","","6","","14.5","","101.10","","","","","","Clear"
"-66.09","43.83","YARMOUTH A","8206495","2021-08-13 21:00","2021","08","13","21:00","17.9","","17.7","","99","","","","17","","7","","1.6","","101.13","","","","","","Fog"
"-66.09","43.83","YARMOUTH A","8206495","2021-08-13 22:00","2021","08","13","22:00","17.8","","17.8","","100","","","","20","","4","","0.4","","101.15","","","","","","Fog"
"-66.09","43.83","YARMOUTH A","8206495","2021-08-13 23:00","2021","08","13","23:00","17.9","","17.9","","100","","","","12","","3","","0.2","","101.17","","","","","","Fog"
"-66.09","43.83","YARMOUTH A","8206495","2021-08-14 00:00","2021","08","14","00:00","17.8","","17.8","","100","","","","15","","6","","0.2","","101.16","","","","","","Fog"
"-66.09","43.83","YARMOUTH A","8206495","2021-08-14 01:00","2021","08","14","01:00","18.1","","18.1","","100","","","","12","","4","","0.2","","101.15","","","","","","Fog"
"-66.09","43.83","YARMOUTH A","8206495","2021-08-14 02:00","2021","08","14","02:00","17.1","","17.1","","100","","","","18","","8","","0.2","","101.14","","","","","","Fog"
"-66.09","43.83","YARMOUTH A","8206495","2021-08-14 03:00","2021","08","14","03:00","17.2","","17.2","","100","","","","16","","6","","0.2","","101.14","","","","","","Fog"
"-66.09","43.83","YARMOUTH A","8206495","2021-08-14 04:00","2021","08","14","04:00","17.4","","17.4","","100","","","","15","","5","","0.2","","101.13","","","","","","Fog"
"-66.09","43.83","YARMOUTH A","8206495","2021-08-14 05:00","2021","08","14","05:00","17.5","","17.5","","100","","","","13","","7","","0.2","","101.12","","","","","","Fog"
"-66.09","43.83","YARMOUTH A","8206495","2021-08-14 06:00","2021","08","14","06:00","17.6","","17.6","","100","","","","14","","7","","0.2","","101.15","","","","","","Fog"
"-66.09","43.83","YARMOUTH A","8206495","2021-08-14 07:00","2021","08","14","07:00","17.3","","17.3","","100","","","","15","","8","","0.2","","101.15","","","","","","Fog"
"-66.09","43.83","YARMOUTH A","8206495","2021-08-14 08:00","2021","08","14","08:00","18.0","","18.0","","100","","","","15","","10","","0.2","","101.17","","","","","","Fog"
"-66.09","43.83","YARMOUTH A","8206495","2021-08-14 09:00","2021","08","14","09:00","18.8","","18.8","","100","","","","17","","12","","0.2","","101.20","","","","","","Fog"
"-66.09","43.83","YARMOUTH A","8206495","2021-08-14 10:00","2021","08","14","10:00","19.8","","19.8","","100","","","","17","","12","","4.8","","101.18","","","","","","Fog"
"-66.09","43.83","YARMOUTH A","8206495","2021-08-14 11:00","2021","08","14","11:00","21.2","","20.6","","96","","","","16","","13","","8.1","","101.16","","29","","","","Fog"
"-66.09","43.83","YARMOUTH A","8206495","2021-08-14 12:00","2021","08","14","12:00","23.5","","22.1","","92","","","","17","","14","","12.9","","101.11","","33","","","","NA"
"-66.09","43.83","YARMOUTH A","8206495","2021-08-14 13:00","2021","08","14","13:00","24.3","","21.8","","85","","","","17","","14","","14.5","","101.09","","33","","","","NA"
"-66.09","43.83","YARMOUTH A","8206495","2021-08-14 14:00","2021","08","14","14:00","22.7","","20.5","","87","","","","18","","17","","14.5","","101.07","","31","","","","Mainly Clear"
"-66.09","43.83","YARMOUTH A","8206495","2021-08-14 15:00","2021","08","14","15:00","22.1","","20.0","","88","","","","20","","16","","12.9","","101.06","","30","","","","NA"
"-66.09","43.83","YARMOUTH A","8206495","2021-08-14 16:00","2021","08","14","16:00","21.2","","19.6","","90","","","","19","","16","","12.9","","101.01","","28","","","","NA"
"-66.09","43.83","YARMOUTH A","8206495","2021-08-14 17:00","2021","08","14","17:00","20.7","","19.4","","92","","","","19","","12","","9.7","","101.02","","28","","","","Fog"
"-66.09","43.83","YARMOUTH A","8206495","2021-08-14 18:00","2021","08","14","18:00","19.8","","19.0","","95","","","","21","","13","","6.4","","101.02","","","","","","Fog"
"-66.09","43.83","YARMOUTH A","8206495","2021-08-14 19:00","2021","08","14","19:00","19.5","","19.2","","98","","","","25","","12","","1.6","","101.05","","","","","","Fog"
"-66.09","43.83","YARMOUTH A","8206495","2021-08-14 20:00","2021","08","14","20:00","19.3","","19.1","","99","","","","20","","7","","0.4","","101.05","","","","","","Fog"
"-66.09","43.83","YARMOUTH A","8206495","2021-08-14 21:00","2021","08","14","21:00","18.3","","18.3","","100","","","","21","","5","","0.4","","101.08","","","","","","Fog"
"-66.09","43.83","YARMOUTH A","8206495","2021-08-14 22:00","2021","08","14","22:00","18.2","","18.2","","100","","","","25","","9","","0.4","","101.09","","","","","","Fog"
"-66.09","43.83","YARMOUTH A","8206495","2021-08-14 23:00","2021","08","14","23:00","17.8","","17.8","","100","","","","30","","8","","0.4","","101.10","","","","","","Fog"
"-66.09","43.83","YARMOUTH A","8206495","2021-08-15 00:00","2021","08","15","00:00","17.3","","17.3","","100","","","","31","","14","","1.6","","101.13","","","","","","Fog"
"-66.09","43.83","YARMOUTH A","8206495","2021-08-15 01:00","2021","08","15","01:00","17.9","","17.9","","100","","","","32","","13","","3.2","","101.14","","","","","","Fog"
"-66.09","43.83","YARMOUTH A","8206495","2021-08-15 02:00","2021","08","15","02:00","18.5","","18.5","","100","","","","32","","12","","9.7","","101.16","","","","","","Fog"
"-66.09","43.83","YARMOUTH A","8206495","2021-08-15 03:00","2021","08","15","03:00","18.1","","18.0","","100","","","","32","","10","","4.8","","101.13","","","","","","Fog"
"-66.09","43.83","YARMOUTH A","8206495","2021-08-15 04:00","2021","08","15","04:00","17.5","","17.5","","100","","","","32","","14","","3.2","","101.17","","","","","","Fog"
"-66.09","43.83","YARMOUTH A","8206495","2021-08-15 05:00","2021","08","15","05:00","17.0","","16.7","","98","","","","32","","11","","14.5","","101.19","","","","","","Mainly Clear"
"-66.09","43.83","YARMOUTH A","8206495","2021-08-15 06:00","2021","08","15","06:00","16.6","","15.8","","95","","","","33","","16","","24.1","","101.26","","","","","","NA"
"-66.09","43.83","YARMOUTH A","8206495","2021-08-15 07:00","2021","08","15","07:00","17.6","","15.8","","89","","","","33","","17","","24.1","","101.30","","","","","","NA"
"-66.09","43.83","YARMOUTH A","8206495","2021-08-15 08:00","2021","08","15","08:00","19.1","","15.9","","82","","","","33","","19","","24.1","","101.34","","","","","","Clear"
"-66.09","43.83","YARMOUTH A","8206495","2021-08-15 09:00","2021","08","15","09:00","20.6","","16.3","","76","","","","33","","19","","24.1","","101.36","","25","","","","NA"
"-66.09","43.83","YARMOUTH A","8206495","2021-08-15 10:00","2021","08","15","10:00","21.2","","15.7","","70","","","","31","","18","","24.1","","101.37","","26","","","","NA"
"-66.09","43.83","YARMOUTH A","8206495","2021-08-15 11:00","2021","08","15","11:00","22.2","","16.0","","68","","","","33","","17","","24.1","","101.37","","27","","","","Clear"
"-66.09","43.83","YARMOUTH A","8206495","2021-08-15 12:00","2021","08","15","12:00","22.6","","16.2","","66","","","","33","","18","","24.1","","101.37","","27","","","","NA"
"-66.09","43.83","YARMOUTH A","8206495","2021-08-15 13:00","2021","08","15","13:00","23.2","","15.2","","60","","","","33","","19","","24.1","","101.35","","27","","","","NA"
"-66.09","43.83","YARMOUTH A","8206495","2021-08-15 14:00","2021","08","15","14:00","23.6","","14.0","","54","","","","34","","27","","24.1","","101.35","","27","","","","Clear"
"-66.09","43.83","YARMOUTH A","8206495","2021-08-15 15:00","2021","08","15","15:00","23.3","","13.9","","55","","","","33","","25","","24.1","","101.35","","27","","","","NA"
"-66.09","43.83","YARMOUTH A","8206495","2021-08-15 16:00","2021","08","15","16:00","21.1","","15.0","","68","","","","31","","17","","24.1","","101.35","","25","","","","NA"
"-66.09","43.83","YARMOUTH A","8206495","2021-08-15 17:00","2021","08","15","17:00","21.2","","14.6","","66","","","","31","","16","","24.1","","101.34","","25","","","","Mainly Clear"
"-66.09","43.83","YARMOUTH A","8206495","2021-08-15 18:00","2021","08","15","18:00","19.6","","14.5","","72","","","","32","","17","","24.1","","101.36","","","","","","NA"
"-66.09","43.83","YARMOUTH A","8206495","2021-08-15 19:00","2021","08","15","19:00","17.6","","14.2","","80","","","","31","","10","","24.1","","101.41","","","","","","NA"
"-66.09","43.83","YARMOUTH A","8206495","2021-08-15 20:00","2021","08","15","20:00","15.7","","13.5","","87","","","","30","","10","","24.1","","101.46","","","","","","Mainly Clear"
"-66.09","43.83","YARMOUTH A","8206495","2021-08-15 21:00","2021","08","15","21:00","15.5","","12.7","","83","","","","31","","9","","24.1","","101.51","","","","","","NA"
"-66.09","43.83","YARMOUTH A","8206495","2021-08-15 22:00","2021","08","15","22:00","14.6","","12.5","","87","","","","33","","13","","24.1","","101.54","","","","","","NA"
"-66.09","43.83","YARMOUTH A","8206495","2021-08-15 23:00","2021","08","15","23:00","14.9","","12.8","","87","","","","32","","11","","24.1","","101.54","","","","","","Mainly Clear"
"-66.09","43.83","YARMOUTH A","8206495","2021-08-16 00:00","2021","08","16","00:00","14.7","","12.1","","84","","","","34","","13","","24.1","","101.55","","","","","","NA"
"-66.09","43.83","YARMOUTH A","8206495","2021-08-16 01:00","2021","08","16","01:00","14.9","","12.2","","84","","","","34","","13","","24.1","","101.57","","","","","","NA"
"-66.09","43.83","YARMOUTH A","8206495","2021-08-16 02:00","2021","08","16","02:00","14.3","","11.7","","84","","","","34","","12","","24.1","","101.57","","","","","","Clear"
"-66.09","43.83","YARMOUTH A","8206495","2021-08-16 03:00","2021","08","16","03:00","14.0","","11.7","","86","","","","34","","14","","24.1","","101.58","","","","","","NA"
"-66.09","43.83","YARMOUTH A","8206495","2021-08-16 04:00","2021","08","16","04:00","14.0","","11.9","","87","","","","34","","15","","24.1","","101.60","","","","","","NA"
"-66.09","43.83","YARMOUTH A","8206495","2021-08-16 05:00","2021","08","16","05:00","13.3","","11.6","","89","","","","34","","13","","24.1","","101.63","","","","","","Mainly Clear"
"-66.09","43.83","YARMOUTH A","8206495","2021-08-16 06:00","2021","08","16","06:00","13.4","","11.4","","88","","","","36","","13","","24.1","","101.68","","","","","","NA"
"-66.09","43.83","YARMOUTH A","8206495","2021-08-16 07:00","2021","08","16","07:00","15.4","","12.6","","83","","","","35","","18","","24.1","","101.72","","","","","","NA"
"-66.09","43.83","YARMOUTH A","8206495","2021-08-16 08:00","2021","08","16","08:00","17.5","","13.4","","77","","","","35","","14","","24.1","","101.74","","","","","","Clear"
"-66.09","43.83","YARMOUTH A","8206495","2021-08-16 09:00","2021","08","16","09:00","19.9","","12.1","","60","","","","35","","18","","24.1","","101.75","","","","","","NA"
"-66.09","43.83","YARMOUTH A","8206495","2021-08-16 10:00","2021","08","16","10:00","20.6","","14.1","","66","","","","31","","12","","24.1","","101.78","","","","","","NA"
"-66.09","43.83","YARMOUTH A","8206495","2021-08-16 11:00","2021","08","16","11:00","20.9","","14.3","","66","","","","30","","15","","24.1","","101.78","","","","","","Clear"
"-66.09","43.83","YARMOUTH A","8206495","2021-08-16 12:00","2021","08","16","12:00","21.9","","13.5","","58","","","","32","","16","","24.1","","101.74","","25","","","","NA"
"-66.09","43.83","YARMOUTH A","8206495","2021-08-16 13:00","2021","08","16","13:00","21.5","","13.5","","60","","","","30","","19","","24.1","","101.71","","25","","","","NA"
"-66.09","43.83","YARMOUTH A","8206495","2021-08-16 14:00","2021","08","16","14:00","21.8","","12.2","","54","","","","31","","20","","24.1","","101.70","","","","","","Clear"
"-66.09","43.83","YARMOUTH A","8206495","2021-08-16 15:00","2021","08","16","15:00","21.2","","11.5","","54","","","","32","","24","","24.1","","101.68","","","","","","NA"
"-66.09","43.83","YARMOUTH A","8206495","2021-08-16 16:00","2021","08","16","16:00","21.0","","12.1","","56","","","","32","","18","","24.1","","101.67","","","","","","NA"
"-66.09","43.83","YARMOUTH A","8206495","2021-08-16 17:00","2021","08","16","17:00","19.6","","10.5","","55","","","","32","","23","","24.1","","101.66","","","","","","Clear"
"-66.09","43.83","YARMOUTH A","8206495","2021-08-16 18:00","2021","08","16","18:00","18.4","","11.7","","65","","","","32","","16","","24.1","","101.63","","","","","","NA"
"-66.09","43.83","YARMOUTH A","8206495","2021-08-16 19:00","2021","08","16","19:00","17.0","","11.0","","67","","","","32","","17","","24.1","","101.66","","","","","","NA"
"-66.09","43.83","YARMOUTH A","8206495","2021-08-16 20:00","2021","08","16","20:00","15.3","","10.7","","74","","","","32","","16","","24.1","","101.69","","","","","","Clear"
"-66.09","43.83","YARMOUTH A","8206495","2021-08-16 21:00","2021","08","16","21:00","14.9","","11.6","","80","","","","32","","16","","24.1","","101.71","","","","","","NA"
"-66.09","43.83","YARMOUTH A","8206495","2021-08-16 22:00","2021","08","16","22:00","15.0","","13.3","","89","","","","31","","16","","24.1","","101.69","","","","","","NA"
"-66.09","43.83","YARMOUTH A","8206495","2021-08-16 23:00","2021","08","16","23:00","14.6","","13.1","","91","","","","31","","12","","24.1","","101.70","","","","","","Clear"
"-66.09","43.83","YARMOUTH A","8206495","2021-08-17 00:00","2021","08","17","00:00","14.8","","13.2","","90","","","","31","","9","","24.1","","101.72","","","","","","NA"
"-66.09","43.83","YARMOUTH A","8206495","2021-08-17 01:00","2021","08","17","01:00","14.3","","13.2","","93","","","","33","","9","","24.1","","101.75","","","","","","NA"
"-66.09","43.83","YARMOUTH A","8206495","2021-08-17 02:00","2021","08","17","02:00","13.5","","12.7","","94","","","","36","","3","","24.1","","101.75","","","","","","Clear"
"-66.09","43.83","YARMOUTH A","8206495","2021-08-17 03:00","2021","08","17","03:00","12.7","","12.2","","97","","","","30","","5","","24.1","","101.78","","","","","","NA"
"-66.09","43.83","YARMOUTH A","8206495","2021-08-17 04:00","2021","08","17","04:00","11.7","","11.1","","96","","","","20","","4","","24.1","","101.78","","","","","","NA"
"-66.09","43.83","YARMOUTH A","8206495","2021-08-17 05:00","2021","08","17","05:00"
"-66.09","43.83","YARMOUTH A","8206495","2021-08-17 06:00","2021","08","17","06:00","12.7","","12.7","","100","","","","25","","5","","16.1","","101.86","","","","","","NA"
"-66.09","43.83","YARMOUTH A","8206495","2021-08-17 07:00","2021","08","17","07:00","14.6","","14.4","","99","","","","21","","3","","24.1","","101.87","","","","","","NA"
"-66.09","43.83","YARMOUTH A","8206495","2021-08-17 08:00","2021","08","17","08:00","17.6","","16.1","","90","","","","24","","7","","24.1","","101.88","","","","","","Mostly Cloudy"
"-66.09","43.83","YARMOUTH A","8206495","2021-08-17 09:00","2021","08","17","09:00","19.6","","16.0","","80","","","","26","","9","","24.1","","101.88","","","","","","NA"
"-66.09","43.83","YARMOUTH A","8206495","2021-08-17 10:00","2021","08","17","10:00","19.7","","16.0","","79","","","","25","","9","","24.1","","101.90","","","","","","NA"
"-66.09","43.83","YARMOUTH A","8206495","2021-08-17 11:00","2021","08","17","11:00","20.4","","16.6","","79","","","","25","","15","","24.1","","101.86","","25","","","","Mostly Cloudy"
"-66.09","43.83","YARMOUTH A","8206495","2021-08-17 12:00","2021","08","17","12:00","20.6","","16.7","","78","","","","28","","18","","24.1","","101.85","","26","","","","NA"
"-66.09","43.83","YARMOUTH A","8206495","2021-08-17 13:00","2021","08","17","13:00","21.4","","16.2","","72","","","","26","","15","","24.1","","101.81","","26","","","","NA"
"-66.09","43.83","YARMOUTH A","8206495","2021-08-17 14:00","2021","08","17","14:00","21.6","","17.3","","76","","","","24","","14","","24.1","","101.83","","27","","","","Mostly Cloudy"
"-66.09","43.83","YARMOUTH A","8206495","2021-08-17 15:00","2021","08","17","15:00","21.2","","16.8","","76","","","","24","","18","","24.1","","101.83","","26","","","","NA"
"-66.09","43.83","YARMOUTH A","8206495","2021-08-17 16:00","2021","08","17","16:00","19.9","","16.7","","81","","","","24","","18","","24.1","","101.81","","","","","","NA"
"-66.09","43.83","YARMOUTH A","8206495","2021-08-17 17:00","2021","08","17","17:00","19.7","","16.7","","83","","","","24","","16","","24.1","","101.82","","","","","","Mostly Cloudy"
"-66.09","43.83","YARMOUTH A","8206495","2021-08-17 18:00","2021","08","17","18:00","19.2","","17.1","","87","","","","25","","13","","40.2","","101.79","","","","","","NA"
"-66.09","43.83","YARMOUTH A","8206495","2021-08-17 19:00","2021","08","17","19:00","17.0","","16.4","","96","","","","24","","12","","24.1","","101.81","","","","","","NA"
"-66.09","43.83","YARMOUTH A","8206495","2021-08-17 20:00","2021","08","17","20:00","16.3","","16.2","","99","","","","24","","11","","2.4","","101.84","","","","","","Fog"
"-66.09","43.83","YARMOUTH A","8206495","2021-08-17 21:00","2021","08","17","21:00","16.6","","16.5","","99","","","","22","","5","","1.2","","101.86","","","","","","Fog"
"-66.09","43.83","YARMOUTH A","8206495","2021-08-17 22:00","2021","08","17","22:00","16.6","","16.2","","98","","","","22","","9","","8.1","","101.86","","","","","","Fog"
"-66.09","43.83","YARMOUTH A","8206495","2021-08-17 23:00","2021","08","17","23:00","15.2","","14.8","","97","","","","17","","7","","24.1","","101.84","","","","","","Cloudy"
"-66.09","43.83","YARMOUTH A","8206495","2021-08-18 00:00","2021","08","18","00:00","15.2","","14.8","","97","","","","21","","6","","24.1","","101.85","","","","","","NA"
"-66.09","43.83","YARMOUTH A","8206495","2021-08-18 01:00","2021","08","18","01:00","15.6","","15.0","","96","","","","23","","9","","24.1","","101.85","","","","","","NA"
"-66.09","43.83","YARMOUTH A","8206495","2021-08-18 02:00","2021","08","18","02:00","15.9","","15.2","","96","","","","22","","8","","24.1","","101.82","","","","","","Cloudy"
"-66.09","43.83","YARMOUTH A","8206495","2021-08-18 03:00","2021","08","18","03:00","15.6","","14.9","","96","","","","17","","6","","24.1","","101.83","","","","","","NA"
"-66.09","43.83","YARMOUTH A","8206495","2021-08-18 04:00","2021","08","18","04:00","16.4","","15.7","","96","","","","17","","8","","24.1","","101.86","","","","","","NA"
"-66.09","43.83","YARMOUTH A","8206495","2021-08-18 05:00","2021","08","18","05:00","16.1","","15.5","","96","","","","17","","10","","24.1","","101.84","","","","","","Cloudy"
"-66.09","43.83","YARMOUTH A","8206495","2021-08-18 06:00","2021","08","18","06:00","16.2","","15.6","","96","","","","18","","10","","24.1","","101.88","","","","","","NA"
"-66.09","43.83","YARMOUTH A","8206495","2021-08-18 07:00","2021","08","18","07:00","16.4","","15.7","","95","","","","18","","10","","24.1","","101.93","","","","","","NA"
"-66.09","43.83","YARMOUTH A","8206495","2021-08-18 08:00","2021","08","18","08:00","18.0","","16.3","","90","","","","22","","14","","24.1","","101.96","","","","","","Mostly Cloudy"
"-66.09","43.83","YARMOUTH A","8206495","2021-08-18 09:00","2021","08","18","09:00","19.5","","16.9","","85","","","","22","","14","","24.1","","101.95","","","","","","NA"
"-66.09","43.83","YARMOUTH A","8206495","2021-08-18 10:00","2021","08","18","10:00","20.3","","16.9","","81","","","","23","","19","","24.1","","101.99","","26","","","","NA"
"-66.09","43.83","YARMOUTH A","8206495","2021-08-18 11:00","2021","08","18","11:00","20.5","","17.1","","80","","","","24","","20","","24.1","","101.96","","26","","","","Mostly Cloudy"
"-66.09","43.83","YARMOUTH A","8206495","2021-08-18 12:00","2021","08","18","12:00","20.8","","17.1","","79","","","","23","","24","","24.1","","101.94","","26","","","","NA"
"-66.09","43.83","YARMOUTH A","8206495","2021-08-18 13:00","2021","08","18","13:00","21.0","","17.4","","79","","","","24","","25","","24.1","","101.92","","27","","","","NA"
"-66.09","43.83","YARMOUTH A","8206495","2021-08-18 14:00","2021","08","18","14:00","20.1","","17.1","","83","","","","24","","22","","24.1","","101.90","","25","","","","Cloudy"
"-66.09","43.83","YARMOUTH A","8206495","2021-08-18 15:00","2021","08","18","15:00","20.0","","17.0","","83","","","","23","","18","","24.1","","101.85","","25","","","","NA"
"-66.09","43.83","YARMOUTH A","8206495","2021-08-18 16:00","2021","08","18","16:00","20.1","","16.4","","79","","","","24","","21","","24.1","","101.84","","25","","","","NA"
"-66.09","43.83","YARMOUTH A","8206495","2021-08-18 17:00","2021","08","18","17:00","20.7","","15.4","","72","","","","23","","20","","24.1","","101.79","","25","","","","Mostly Cloudy"
"-66.09","43.83","YARMOUTH A","8206495","2021-08-18 18:00","2021","08","18","18:00","19.5","","14.7","","73","","","","23","","17","","24.1","","101.76","","","","","","NA"
"-66.09","43.83","YARMOUTH A","8206495","2021-08-18 19:00","2021","08","18","19:00","18.7","","14.3","","75","","","","23","","14","","24.1","","101.74","","","","","","NA"
"-66.09","43.83","YARMOUTH A","8206495","2021-08-18 20:00","2021","08","18","20:00","18.2","","14.3","","78","","","","23","","15","","24.1","","101.76","","","","","","Mostly Cloudy"
"-66.09","43.83","YARMOUTH A","8206495","2021-08-18 21:00","2021","08","18","21:00","18.1","","14.0","","77","","","","21","","14","","24.1","","101.76","","","","","","NA"
"-66.09","43.83","YARMOUTH A","8206495","2021-08-18 22:00","2021","08","18","22:00","17.8","","14.2","","80","","","","22","","15","","24.1","","101.73","","","","","","NA"
"-66.09","43.83","YARMOUTH A","8206495","2021-08-18 23:00","2021","08","18","23:00","18.0","","14.1","","78","","","","21","","12","","24.1","","101.69","","","","","","Cloudy"
"-66.09","43.83","YARMOUTH A","8206495","2021-08-19 00:00","2021","08","19","00:00","17.9","","15.3","","85","","","","19","","12","","24.1","","101.66","","","","","","NA"
"-66.09","43.83","YARMOUTH A","8206495","2021-08-19 01:00","2021","08","19","01:00","17.3","","15.5","","89","","","","18","","10","","24.1","","101.59","","","","","","NA"
"-66.09","43.83","YARMOUTH A","8206495","2021-08-19 02:00","2021","08","19","02:00","16.7","","15.6","","93","","","","17","","9","","24.1","","101.53","","","","","","Cloudy"
"-66.09","43.83","YARMOUTH A","8206495","2021-08-19 03:00","2021","08","19","03:00","17.0","","16.2","","95","","","","18","","8","","24.1","","101.50","","","","","","NA"
"-66.09","43.83","YARMOUTH A","8206495","2021-08-19 04:00","2021","08","19","04:00","17.3","","17.0","","98","","","","19","","10","","16.1","","101.44","","","","","","Rain"
"-66.09","43.83","YARMOUTH A","8206495","2021-08-19 05:00","2021","08","19","05:00","17.8","","17.6","","98","","","","22","","12","","16.1","","101.42","","","","","","Cloudy"
"-66.09","43.83","YARMOUTH A","8206495","2021-08-19 06:00","2021","08","19","06:00","17.8","","17.6","","99","","","","23","","12","","11.3","","101.40","","","","","","Rain Showers"
"-66.09","43.83","YARMOUTH A","8206495","2021-08-19 07:00","2021","08","19","07:00","18.0","","17.8","","99","","","","23","","15","","4.8","","101.40","","","","","","Fog"
"-66.09","43.83","YARMOUTH A","8206495","2021-08-19 08:00","2021","08","19","08:00","18.3","","18.2","","99","","","","22","","12","","3.2","","101.39","","","","","","Fog"
"-66.09","43.83","YARMOUTH A","8206495","2021-08-19 09:00","2021","08","19","09:00","18.0","","17.9","","99","","","","25","","16","","3.2","","101.38","","","","","","Fog"
"-66.09","43.83","YARMOUTH A","8206495","2021-08-19 10:00","2021","08","19","10:00","18.9","","18.6","","98","","","","25","","14","","3.2","","101.37","","","","","","Fog"
"-66.09","43.83","YARMOUTH A","8206495","2021-08-19 11:00","2021","08","19","11:00","20.0","","19.1","","94","","","","26","","19","","4.8","","101.33","","27","","","","Fog"
"-66.09","43.83","YARMOUTH A","8206495","2021-08-19 12:00","2021","08","19","12:00","20.7","","19.5","","92","","","","26","","19","","3.2","","101.30","","28","","","","Fog"
"-66.09","43.83","YARMOUTH A","8206495","2021-08-19 13:00","2021","08","19","13:00","21.3","","19.7","","91","","","","26","","19","","4.8","","101.26","","29","","","","Fog"
"-66.09","43.83","YARMOUTH A","8206495","2021-08-19 14:00","2021","08","19","14:00","21.4","","19.9","","91","","","","25","","16","","9.7","","101.21","","29","","","","Fog"
"-66.09","43.83","YARMOUTH A","8206495","2021-08-19 15:00","2021","08","19","15:00","21.6","","19.6","","88","","","","25","","22","","19.3","","101.20","","29","","","","NA"
"-66.09","43.83","YARMOUTH A","8206495","2021-08-19 16:00","2021","08","19","16:00","21.8","","19.9","","89","","","","27","","14","","19.3","","101.15","","29","","","","NA"
"-66.09","43.83","YARMOUTH A","8206495","2021-08-19 17:00","2021","08","19","17:00","19.8","","18.8","","94","","","","25","","20","","4.8","","101.17","","","","","","Fog"
"-66.09","43.83","YARMOUTH A","8206495","2021-08-19 18:00","2021","08","19","18:00","19.3","","19.1","","99","","","","25","","6","","0.4","","101.10","","","","","","Fog"
"-66.09","43.83","YARMOUTH A","8206495","2021-08-19 19:00","2021","08","19","19:00","19.5","","19.5","","100","","","","22","","5","","0.8","","101.12","","","","","","Fog"
"-66.09","43.83","YARMOUTH A","8206495","2021-08-19 20:00","2021","08","19","20:00","18.7","","18.7","","100","","","","13","","4","","0.4","","101.08","","","","","","Fog"
"-66.09","43.83","YARMOUTH A","8206495","2021-08-19 21:00","2021","08","19","21:00","18.8","","18.8","","100","","","","15","","7","","0.8","","101.11","","","","","","Fog"
"-66.09","43.83","YARMOUTH A","8206495","2021-08-19 22:00","2021","08","19","22:00","18.5","","18.5","","100","","","","17","","8","","0.2","","101.11","","","","","","Fog"
"-66.09","43.83","YARMOUTH A","8206495","2021-08-19 23:00","2021","08","19","23:00","18.7","","18.7","","100","","","","12","","5","","0.4","","101.03","","","","","","Rain Showers,Fog"
"-66.09","43.83","YARMOUTH A","8206495","2021-08-20 00:00","2021","08","20","00:00","18.4","","18.4","","100","","","","12","","10","","0.8","","100.95","","","","","","Rain Showers,Fog"
"-66.09","43.83","YARMOUTH A","8206495","2021-08-20 01:00","2021","08","20","01:00","18.7","","18.7","","100","","","","13","","11","","1.2","","100.88","","","","","","Rain Showers,Fog"
"-66.09","43.83","YARMOUTH A","8206495","2021-08-20 02:00","2021","08","20","02:00","19.5","","19.5","","100","","","","19","","5","","1.6","","100.80","","","","","","Thunderstorms,Heavy Rain,Fog"
"-66.09","43.83","YARMOUTH A","8206495","2021-08-20 03:00","2021","08","20","03:00","20.7","","20.7","","100","","","","20","","14","","4.8","","100.74","","29","","","","Rain,Fog"
"-66.09","43.83","YARMOUTH A","8206495","2021-08-20 04:00","2021","08","20","04:00","19.8","","19.8","","100","","","","19","","13","","0.8","","100.67","","","","","","Fog"
"-66.09","43.83","YARMOUTH A","8206495","2021-08-20 05:00","2021","08","20","05:00","19.7","","19.7","","100","","","","19","","19","","0.6","","100.62","","","","","","Fog"
"-66.09","43.83","YARMOUTH A","8206495","2021-08-20 06:00","2021","08","20","06:00","20.0","","20.0","","100","","","","21","","18","","0.2","","100.60","","28","","","","Fog"
"-66.09","43.83","YARMOUTH A","8206495","2021-08-20 07:00","2021","08","20","07:00","20.5","","20.5","","100","","","","22","","24","","0.4","","100.57","","28","","","","Fog"
"-66.09","43.83","YARMOUTH A","8206495","2021-08-20 08:00","2021","08","20","08:00","20.4","","20.4","","100","","","","22","","25","","0.4","","100.54","","28","","","","Fog"
"-66.09","43.83","YARMOUTH A","8206495","2021-08-20 09:00","2021","08","20","09:00","20.0","","20.0","","100","","","","23","","23","","0.4","","100.52","","28","","","","Fog"
"-66.09","43.83","YARMOUTH A","8206495","2021-08-20 10:00","2021","08","20","10:00","19.7","","19.7","","100","","","","23","","17","","0.2","","100.54","","","","","","Fog"
"-66.09","43.83","YARMOUTH A","8206495","2021-08-20 11:00","2021","08","20","11:00","19.6","","19.6","","100","","","","23","","19","","1.2","","100.50","","","","","","Fog"
"-66.09","43.83","YARMOUTH A","8206495","2021-08-20 12:00","2021","08","20","12:00","18.9","","18.9","","100","","","","24","","25","","0.4","","100.50","","","","","","Fog"
"-66.09","43.83","YARMOUTH A","8206495","2021-08-20 13:00","2021","08","20","13:00","19.0","","19.0","","100","","","","25","","17","","0.4","","100.49","","","","","","Fog"
"-66.09","43.83","YARMOUTH A","8206495","2021-08-20 14:00","2021","08","20","14:00","19.5","","19.5","","100","","","","26","","16","","0.4","","100.47","","","","","","Fog"
"-66.09","43.83","YARMOUTH A","8206495","2021-08-20 15:00","2021","08","20","15:00","19.7","","19.6","","99","","","","25","","11","","1.6","","100.44","","","","","","Fog"
"-66.09","43.83","YARMOUTH A","8206495","2021-08-20 16:00","2021","08","20","16:00","17.9","","17.8","","99","","","","27","","14","","0.4","","100.49","","","","","","Fog"
"-66.09","43.83","YARMOUTH A","8206495","2021-08-20 17:00","2021","08","20","17:00","21.3","","20.4","","95","","","","21","","8","","6.4","","100.43","","29","","","","Fog"
"-66.09","43.83","YARMOUTH A","8206495","2021-08-20 18:00","2021","08","20","18:00","19.8","","19.2","","96","","","","31","","8","","4.8","","100.45","","","","","","Fog"
"-66.09","43.83","YARMOUTH A","8206495","2021-08-20 19:00","2021","08","20","19:00","17.5","","17.4","","99","","","","26","","5","","0.8","","100.49","","","","","","Fog"
"-66.09","43.83","YARMOUTH A","8206495","2021-08-20 20:00","2021","08","20","20:00","18.5","","18.5","","100","","","","3","","7","","0.2","","100.58","","","","","","Fog"
"-66.09","43.83","YARMOUTH A","8206495","2021-08-20 21:00","2021","08","20","21:00","18.2","","18.2","","100","","","","36","","1","","0.6","","100.66","","","","","","Fog"
"-66.09","43.83","YARMOUTH A","8206495","2021-08-20 22:00","2021","08","20","22:00","18.0","","18.0","","100","","","","29","","4","","0.4","","100.65","","","","","","Fog"
"-66.09","43.83","YARMOUTH A","8206495","2021-08-20 23:00","2021","08","20","23:00","16.7","","16.7","","100","","","","26","","7","","0.2","","100.68","","","","","","Fog"
"-66.09","43.83","YARMOUTH A","8206495","2021-08-21 00:00","2021","08","21","00:00","16.0","","16.0","","100","","","","36","","3","","0.4","","100.74","","","","","","Fog"
"-66.09","43.83","YARMOUTH A","8206495","2021-08-21 01:00","2021","08","21","01:00","15.7","","15.7","","100","","","","27","","4","","0.4","","100.78","","","","","","Fog"
"-66.09","43.83","YARMOUTH A","8206495","2021-08-21 02:00","2021","08","21","02:00","15.6","","15.6","","100","","","","26","","5","","0.6","","100.78","","","","","","Fog"
"-66.09","43.83","YARMOUTH A","8206495","2021-08-21 03:00","2021","08","21","03:00","16.4","","16.4","","100","","","","2","","7","","0.4","","100.82","","","","","","Fog"
"-66.09","43.83","YARMOUTH A","8206495","2021-08-21 04:00","2021","08","21","04:00","16.8","","16.8","","100","","","","35","","5","","0.2","","100.84","","","","","","Fog"
"-66.09","43.83","YARMOUTH A","8206495","2021-08-21 05:00","2021","08","21","05:00","16.7","","16.7","","100","","","","6","","3","","0.6","","100.90","","","","","","Fog"
"-66.09","43.83","YARMOUTH A","8206495","2021-08-21 06:00","2021","08","21","06:00","17.0","","17.0","","100","","","","5","","5","","0.2","","100.95","","","","","","Fog"
"-66.09","43.83","YARMOUTH A","8206495","2021-08-21 07:00","2021","08","21","07:00","18.5","","18.5","","100","","","","9","","5","","6.4","","100.98","","","","","","Fog"
"-66.09","43.83","YARMOUTH A","8206495","2021-08-21 08:00","2021","08","21","08:00","19.3","","19.3","","100","","","","5","","4","","3.2","","101.07","","","","","","Fog"
"-66.09","43.83","YARMOUTH A","8206495","2021-08-21 09:00","2021","08","21","09:00","20.6","","20.6","","100","","","","11","","8","","4.8","","101.09","","29","","","","Fog"
"-66.09","43.83","YARMOUTH A","8206495","2021-08-21 10:00","2021","08","21","10:00","22.2","","21.8","","97","","","","10","","10","","8.1","","101.11","","31","","","","Fog"
"-66.09","43.83","YARMOUTH A","8206495","2021-08-21 11:00","2021","08","21","11:00","23.2","","21.8","","92","","","","13","","11","","9.7","","101.12","","32","","","","Fog"
"-66.09","43.83","YARMOUTH A","8206495","2021-08-21 12:00","2021","08","21","12:00","23.6","","22.4","","93","","","","15","","12","","9.7","","101.11","","33","","","","Fog"
"-66.09","43.83","YARMOUTH A","8206495","2021-08-21 13:00","2021","08","21","13:00","21.7","","20.7","","94","","","","19","","14","","9.7","","101.14","","30","","","","Fog"
"-66.09","43.83","YARMOUTH A","8206495","2021-08-21 14:00","2021","08","21","14:00","21.8","","20.1","","90","","","","18","","14","","9.7","","101.17","","29","","","","Fog"
"-66.09","43.83","YARMOUTH A","8206495","2021-08-21 15:00","2021","08","21","15:00","21.9","","20.4","","91","","","","17","","10","","9.7","","101.20","","30","","","","Fog"
"-66.09","43.83","YARMOUTH A","8206495","2021-08-21 16:00","2021","08","21","16:00","21.7","","20.2","","91","","","","15","","6","","12.9","","101.22","","29","","","","NA"
"-66.09","43.83","YARMOUTH A","8206495","2021-08-21 17:00","2021","08","21","17:00","21.7","","19.9","","89","","","","16","","7","","12.9","","101.25","","29","","","","Cloudy"
"-66.09","43.83","YARMOUTH A","8206495","2021-08-21 18:00","2021","08","21","18:00","20.6","","19.3","","92","","","","27","","6","","12.9","","101.24","","28","","","","NA"
"-66.09","43.83","YARMOUTH A","8206495","2021-08-21 19:00","2021","08","21","19:00","19.1","","18.3","","95","","","","25","","5","","12.9","","101.25","","","","","","NA"
"-66.09","43.83","YARMOUTH A","8206495","2021-08-21 20:00","2021","08","21","20:00","17.6","","17.3","","98","","","","25","","3","","14.5","","101.29","","","","","","Mostly Cloudy"
"-66.09","43.83","YARMOUTH A","8206495","2021-08-21 21:00","2021","08","21","21:00","17.9","","17.7","","99","","","","15","","7","","14.5","","101.33","","","","","","NA"
"-66.09","43.83","YARMOUTH A","8206495","2021-08-21 22:00","2021","08","21","22:00","18.9","","18.5","","98","","","","16","","13","","14.5","","101.34","","","","","","NA"
"-66.09","43.83","YARMOUTH A","8206495","2021-08-21 23:00","2021","08","21","23:00","18.8","","18.5","","98","","","","11","","9","","3.2","","101.30","","","","","","Fog"
"-66.09","43.83","YARMOUTH A","8206495","2021-08-22 00:00","2021","08","22","00:00","18.7","","18.6","","99","","","","10","","9","","2.4","","101.33","","","","","","Fog"
"-66.09","43.83","YARMOUTH A","8206495","2021-08-22 01:00","2021","08","22","01:00","18.6","","18.6","","100","","","","11","","9","","1.6","","101.31","","","","","","Fog"
"-66.09","43.83","YARMOUTH A","8206495","2021-08-22 02:00","2021","08","22","02:00","18.1","","18.1","","100","","","","10","","10","","0.8","","101.30","","","","","","Fog"
"-66.09","43.83","YARMOUTH A","8206495","2021-08-22 03:00","2021","08","22","03:00","18.0","","18.0","","100","","","","11","","9","","0.8","","101.29","","","","","","Fog"
"-66.09","43.83","YARMOUTH A","8206495","2021-08-22 04:00","2021","08","22","04:00","18.0","","18.0","","100","","","","9","","12","","1.2","","101.28","","","","","","Fog"
"-66.09","43.83","YARMOUTH A","8206495","2021-08-22 05:00","2021","08","22","05:00","18.1","","18.1","","100","","","","10","","18","","2.4","","101.24","","","","","","Fog"
"-66.09","43.83","YARMOUTH A","8206495","2021-08-22 06:00","2021","08","22","06:00","18.2","","17.7","","97","","","","12","","13","","14.5","","101.30","","","","","","NA"
"-66.09","43.83","YARMOUTH A","8206495","2021-08-22 07:00","2021","08","22","07:00","18.6","","18.0","","96","","","","10","","13","","19.3","","101.36","","","","","","NA"
"-66.09","43.83","YARMOUTH A","8206495","2021-08-22 08:00","2021","08","22","08:00","19.3","","18.6","","96","","","","10","","17","","12.9","","101.33","","","","","","Cloudy"
"-66.09","43.83","YARMOUTH A","8206495","2021-08-22 09:00","2021","08","22","09:00","21.0","","19.5","","91","","","","11","","20","","16.1","","101.27","","28","","","","NA"
"-66.09","43.83","YARMOUTH A","8206495","2021-08-22 10:00","2021","08","22","10:00","23.1","","19.5","","80","","","","9","","27","","19.3","","101.25","","30","","","","NA"
"-66.09","43.83","YARMOUTH A","8206495","2021-08-22 11:00","2021","08","22","11:00","24.6","","19.7","","74","","","","14","","26","","19.3","","101.28","","32","","","","Mostly Cloudy"
"-66.09","43.83","YARMOUTH A","8206495","2021-08-22 12:00","2021","08","22","12:00","24.3","","20.0","","77","","","","14","","28","","19.3","","101.25","","32","","","","NA"
"-66.09","43.83","YARMOUTH A","8206495","2021-08-22 13:00","2021","08","22","13:00","24.4","","20.5","","79","","","","11","","20","","19.3","","101.24","","32","","","","NA"
"-66.09","43.83","YARMOUTH A","8206495","2021-08-22 14:00","2021","08","22","14:00","24.3","","20.2","","78","","","","12","","20","","19.3","","101.23","","32","","","","Cloudy"
"-66.09","43.83","YARMOUTH A","8206495","2021-08-22 15:00","2021","08","22","15:00","23.8","","19.8","","78","","","","12","","30","","19.3","","101.19","","31","","","","NA"
"-66.09","43.83","YARMOUTH A","8206495","2021-08-22 16:00","2021","08","22","16:00","23.5","","20.1","","81","","","","11","","22","","19.3","","101.17","","31","","","","NA"
"-66.09","43.83","YARMOUTH A","8206495","2021-08-22 17:00","2021","08","22","17:00","22.7","","19.9","","84","","","","11","","25","","24.1","","101.16","","30","","","","Cloudy"
"-66.09","43.83","YARMOUTH A","8206495","2021-08-22 18:00","2021","08","22","18:00","21.9","","19.2","","84","","","","11","","24","","24.1","","101.15","","29","","","","NA"
"-66.09","43.83","YARMOUTH A","8206495","2021-08-22 19:00","2021","08","22","19:00","21.4","","18.7","","85","","","","11","","25","","24.1","","101.15","","28","","","","NA"
"-66.09","43.83","YARMOUTH A","8206495","2021-08-22 20:00","2021","08","22","20:00","21.1","","18.6","","85","","","","11","","23","","24.1","","101.18","","28","","","","Cloudy"
"-66.09","43.83","YARMOUTH A","8206495","2021-08-22 21:00","2021","08","22","21:00","20.9","","18.2","","84","","","","11","","22","","14.5","","101.20","","27","","","","Rain Showers"
"-66.09","43.83","YARMOUTH A","8206495","2021-08-22 22:00","2021","08","22","22:00","19.7","","18.9","","95","","","","10","","16","","14.5","","101.20","","","","","","Rain Showers"
"-66.09","43.83","YARMOUTH A","8206495","2021-08-22 23:00","2021","08","22","23:00","19.5","","19.1","","98","","","","10","","14","","14.5","","101.18","","","","","","Rain Showers"
"-66.09","43.83","YARMOUTH A","8206495","2021-08-23 00:00","2021","08","23","00:00","19.7","","19.4","","98","","","","11","","15","","9.7","","101.16","","","","","","Rain Showers,Fog"
"-66.09","43.83","YARMOUTH A","8206495","2021-08-23 01:00","2021","08","23","01:00","19.8","","19.5","","98","","","","12","","10","","4.8","","101.19","","","","","","Rain Showers,Fog"
"-66.09","43.83","YARMOUTH A","8206495","2021-08-23 02:00","2021","08","23","02:00","19.7","","19.5","","99","","","","11","","13","","14.5","","101.13","","","","","","Cloudy"
"-66.09","43.83","YARMOUTH A","8206495","2021-08-23 03:00","2021","08","23","03:00","19.8","","19.7","","99","","","","10","","12","","4.8","","101.11","","","","","","Fog"
"-66.09","43.83","YARMOUTH A","8206495","2021-08-23 04:00","2021","08","23","04:00","19.8","","19.7","","99","","","","10","","10","","4.8","","101.11","","","","","","Fog"
"-66.09","43.83","YARMOUTH A","8206495","2021-08-23 05:00","2021","08","23","05:00","19.8","","19.8","","100","","","","11","","9","","0.8","","101.10","","","","","","Fog"
"-66.09","43.83","YARMOUTH A","8206495","2021-08-23 06:00","2021","08","23","06:00","20.1","","20.1","","100","","","","8","","9","","0.2","","101.10","","28","","","","Fog"
"-66.09","43.83","YARMOUTH A","8206495","2021-08-23 07:00","2021","08","23","07:00","20.3","","20.3","","100","","","","9","","14","","0.4","","101.09","","28","","","","Fog"
"-66.09","43.83","YARMOUTH A","8206495","2021-08-23 08:00","2021","08","23","08:00","20.9","","20.9","","100","","","","10","","10","","0.2","","101.11","","29","","","","Fog"
"-66.09","43.83","YARMOUTH A","8206495","2021-08-23 09:00","2021","08","23","09:00","21.6","","21.6","","100","","","","11","","17","","0.4","","101.10","","31","","","","Fog"
"-66.09","43.83","YARMOUTH A","8206495","2021-08-23 10:00","2021","08","23","10:00","22.4","","22.4","","100","","","","11","","13","","4.8","","101.12","","32","","","","Fog"
"-66.09","43.83","YARMOUTH A","8206495","2021-08-23 11:00","2021","08","23","11:00","23.8","","23.3","","97","","","","10","","14","","19.3","","101.11","","34","","","","Cloudy"
"-66.09","43.83","YARMOUTH A","8206495","2021-08-23 12:00","2021","08","23","12:00","24.5","","23.2","","92","","","","12","","18","","24.1","","101.07","","35","","","","NA"
"-66.09","43.83","YARMOUTH A","8206495","2021-08-23 13:00","2021","08","23","13:00","25.6","","23.2","","86","","","","12","","18","","24.1","","101.00","","36","","","","NA"
"-66.09","43.83","YARMOUTH A","8206495","2021-08-23 14:00","2021","08","23","14:00","26.1","","23.8","","87","","","","14","","20","","24.1","","100.96","","37","","","","Mostly Cloudy"
"-66.09","43.83","YARMOUTH A","8206495","2021-08-23 15:00","2021","08","23","15:00","26.0","","23.5","","86","","","","14","","19","","24.1","","100.88","","37","","","","NA"
"-66.09","43.83","YARMOUTH A","8206495","2021-08-23 16:00","2021","08","23","16:00","26.8","","23.6","","82","","","","14","","18","","24.1","","100.83","","38","","","","NA"
"-66.09","43.83","YARMOUTH A","8206495","2021-08-23 17:00","2021","08","23","17:00","25.8","","21.9","","79","","","","15","","21","","24.1","","100.80","","35","","","","Mostly Cloudy"
"-66.09","43.83","YARMOUTH A","8206495","2021-08-23 18:00","2021","08","23","18:00","23.7","","22.0","","90","","","","14","","19","","19.3","","100.76","","33","","","","Rain Showers"
"-66.09","43.83","YARMOUTH A","8206495","2021-08-23 19:00","2021","08","23","19:00","23.2","","21.7","","91","","","","14","","13","","19.3","","100.73","","32","","","","NA"
"-66.09","43.83","YARMOUTH A","8206495","2021-08-23 20:00","2021","08","23","20:00","22.7","","21.2","","91","","","","12","","13","","19.3","","100.69","","31","","","","Cloudy"
"-66.09","43.83","YARMOUTH A","8206495","2021-08-23 21:00","2021","08","23","21:00","22.4","","22.2","","99","","","","14","","16","","8.1","","100.67","","32","","","","Rain Showers,Fog"
"-66.09","43.83","YARMOUTH A","8206495","2021-08-23 22:00","2021","08","23","22:00","22.0","","21.9","","99","","","","17","","19","","4.8","","100.62","","31","","","","Fog"
"-66.09","43.83","YARMOUTH A","8206495","2021-08-23 23:00","2021","08","23","23:00","19.6","","19.6","","100","","","","19","","23","","0.8","","100.58","","","","","","Fog"
"-66.09","43.83","YARMOUTH A","8206495","2021-08-24 00:00","2021","08","24","00:00","19.0","","19.0","","100","","","","22","","17","","0.8","","100.55","","","","","","Fog"
"-66.09","43.83","YARMOUTH A","8206495","2021-08-24 01:00","2021","08","24","01:00","18.0","","18.0","","100","","","","22","","20","","0.4","","100.55","","","","","","Fog"
"-66.09","43.83","YARMOUTH A","8206495","2021-08-24 02:00","2021","08","24","02:00","17.2","","17.2","","100","","","","23","","22","","0.4","","100.58","","","","","","Fog"
"-66.09","43.83","YARMOUTH A","8206495","2021-08-24 03:00","2021","08","24","03:00","17.8","","17.8","","100","","","","23","","24","","0.4","","100.57","","","","","","Fog"
"-66.09","43.83","YARMOUTH A","8206495","2021-08-24 04:00","2021","08","24","04:00","17.5","","17.5","","100","","","","26","","16","","0.4","","100.59","","","","","","Fog"
"-66.09","43.83","YARMOUTH A","8206495","2021-08-24 05:00","2021","08","24","05:00","17.3","","17.3","","100","","","","21","","10","","0.2","","100.59","","","","","","Fog"
"-66.09","43.83","YARMOUTH A","8206495","2021-08-24 06:00","2021","08","24","06:00","17.2","","17.2","","100","","","","19","","7","","0.2","","100.59","","","","","","Fog"
"-66.09","43.83","YARMOUTH A","8206495","2021-08-24 07:00","2021","08","24","07:00","16.6","","16.6","","100","","","","17","","6","","0.2","","100.59","","","","","","Fog"
"-66.09","43.83","YARMOUTH A","8206495","2021-08-24 08:00","2021","08","24","08:00","17.6","","17.6","","100","","","","17","","11","","0.2","","100.60","","","","","","Fog"
"-66.09","43.83","YARMOUTH A","8206495","2021-08-24 09:00","2021","08","24","09:00","19.1","","19.1","","100","","","","17","","7","","0.2","","100.62","","","","","","Fog"
"-66.09","43.83","YARMOUTH A","8206495","2021-08-24 10:00","2021","08","24","10:00","19.9","","19.9","","100","","","","17","","8","","0.8","","100.64","","","","","","Fog"
"-66.09","43.83","YARMOUTH A","8206495","2021-08-24 11:00","2021","08","24","11:00","22.8","","22.4","","98","","","","16","","7","","16.1","","100.61","","32","","","","Mostly Cloudy"
"-66.09","43.83","YARMOUTH A","8206495","2021-08-24 12:00","2021","08","24","12:00","22.4","","21.5","","94","","","","15","","4","","19.3","","100.63","","31","","","","NA"
"-66.09","43.83","YARMOUTH A","8206495","2021-08-24 13:00","2021","08","24","13:00","23.3","","22.3","","94","","","","16","","10","","19.3","","100.59","","33","","","","NA"
"-66.09","43.83","YARMOUTH A","8206495","2021-08-24 14:00","2021","08","24","14:00","23.2","","21.8","","92","","","","17","","13","","19.3","","100.55","","32","","","","Mostly Cloudy"
"-66.09","43.83","YARMOUTH A","8206495","2021-08-24 15:00","2021","08","24","15:00","24.7","","22.3","","87","","","","16","","6","","24.1","","100.49","","34","","","","NA"
"-66.09","43.83","YARMOUTH A","8206495","2021-08-24 16:00","2021","08","24","16:00","22.3","","20.9","","92","","","","27","","10","","19.3","","100.52","","31","","","","NA"
"-66.09","43.83","YARMOUTH A","8206495","2021-08-24 17:00","2021","08","24","17:00","22.5","","21.7","","95","","","","17","","5","","16.1","","100.54","","32","","","","Mostly Cloudy"
"-66.09","43.83","YARMOUTH A","8206495","2021-08-24 18:00","2021","08","24","18:00","21.8","","20.9","","95","","","","28","","7","","16.1","","100.58","","30","","","","NA"
"-66.09","43.83","YARMOUTH A","8206495","2021-08-24 19:00","2021","08","24","19:00","19.1","","18.9","","99","","","","28","","7","","0.4","","100.65","","","","","","Fog"
"-66.09","43.83","YARMOUTH A","8206495","2021-08-24 20:00","2021","08","24","20:00","18.3","","18.3","","100","","","","31","","7","","0.4","","100.72","","","","","","Fog"
"-66.09","43.83","YARMOUTH A","8206495","2021-08-24 21:00","2021","08","24","21:00","18.1","","18.1","","100","","","","29","","6","","0.2","","100.79","","","","","","Fog"
"-66.09","43.83","YARMOUTH A","8206495","2021-08-24 22:00","2021","08","24","22:00","17.8","","17.8","","100","","","","30","","11","","0.2","","100.83","","","","","","Fog"
"-66.09","43.83","YARMOUTH A","8206495","2021-08-24 23:00","2021","08","24","23:00","17.4","","17.4","","100","","","","30","","16","","0.2","","100.90","","","","","","Fog"
"-66.09","43.83","YARMOUTH A","8206495","2021-08-25 00:00","2021","08","25","00:00","17.3","","17.3","","100","","","","31","","8","","0.2","","100.93","","","","","","Fog"
"-66.09","43.83","YARMOUTH A","8206495","2021-08-25 01:00","2021","08","25","01:00","17.1","","17.1","","100","","","","29","","11","","0.4","","100.95","","","","","","Fog"
"-66.09","43.83","YARMOUTH A","8206495","2021-08-25 02:00","2021","08","25","02:00","17.1","","17.1","","100","","","","29","","11","","0.4","","100.93","","","","","","Fog"
"-66.09","43.83","YARMOUTH A","8206495","2021-08-25 03:00","2021","08","25","03:00","16.5","","16.5","","100","","","","22","","3","","1.2","","100.97","","","","","","Fog"
"-66.09","43.83","YARMOUTH A","8206495","2021-08-25 04:00","2021","08","25","04:00","17.4","","17.4","","100","","","","27","","9","","2.4","","101.02","","","","","","Fog"
"-66.09","43.83","YARMOUTH A","8206495","2021-08-25 05:00","2021","08","25","05:00","17.4","","17.4","","100","","","","26","","9","","14.5","","101.03","","","","","","Clear"
"-66.09","43.83","YARMOUTH A","8206495","2021-08-25 06:00","2021","08","25","06:00","18.1","","18.1","","100","","","","25","","4","","14.5","","101.09","","","","","","NA"
"-66.09","43.83","YARMOUTH A","8206495","2021-08-25 07:00","2021","08","25","07:00","18.7","","18.7","","100","","","","23","","4","","8.1","","101.16","","","","","","Fog"
"-66.09","43.83","YARMOUTH A","8206495","2021-08-25 08:00","2021","08","25","08:00","19.1","","19.1","","100","","","","26","","5","","0.8","","101.19","","","","","","Fog"
"-66.09","43.83","YARMOUTH A","8206495","2021-08-25 09:00","2021","08","25","09:00","20.4","","20.1","","98","","","","25","","3","","12.9","","101.22","","28","","","","NA"
"-66.09","43.83","YARMOUTH A","8206495","2021-08-25 10:00","2021","08","25","10:00","23.7","","21.5","","87","","","","36","","3","","19.3","","101.24","","33","","","","NA"
"-66.09","43.83","YARMOUTH A","8206495","2021-08-25 11:00","2021","08","25","11:00","26.1","","22.5","","80","","","","26","","7","","19.3","","101.23","","36","","","","Mainly Clear"
"-66.09","43.83","YARMOUTH A","8206495","2021-08-25 12:00","2021","08","25","12:00","25.7","","21.8","","79","","","","28","","9","","19.3","","101.22","","35","","","","NA"
"-66.09","43.83","YARMOUTH A","8206495","2021-08-25 13:00","2021","08","25","13:00","24.4","","21.0","","81","","","","24","","14","","19.3","","101.24","","33","","","","NA"
"-66.09","43.83","YARMOUTH A","8206495","2021-08-25 14:00","2021","08","25","14:00","24.6","","20.9","","80","","","","26","","11","","16.1","","101.26","","33","","","","Cloudy"
"-66.09","43.83","YARMOUTH A","8206495","2021-08-25 15:00","2021","08","25","15:00","24.4","","21.1","","82","","","","27","","10","","16.1","","101.22","","33","","","","NA"
"-66.09","43.83","YARMOUTH A","8206495","2021-08-25 16:00","2021","08","25","16:00","24.5","","21.7","","84","","","","29","","9","","16.1","","101.22","","34","","","","NA"
"-66.09","43.83","YARMOUTH A","8206495","2021-08-25 17:00","2021","08","25","17:00","22.6","","20.6","","89","","","","28","","11","","16.1","","101.22","","31","","","","Cloudy"
"-66.09","43.83","YARMOUTH A","8206495","2021-08-25 18:00","2021","08","25","18:00","23.5","","20.9","","85","","","","31","","10","","19.3","","101.21","","32","","","","NA"
"-66.09","43.83","YARMOUTH A","8206495","2021-08-25 19:00","2021","08","25","19:00","20.7","","20.0","","96","","","","36","","2","","19.3","","101.23","","28","","","","NA"
"-66.09","43.83","YARMOUTH A","8206495","2021-08-25 20:00","2021","08","25","20:00","19.0","","18.3","","96","","","","17","","4","","19.3","","101.26","","","","","","Mostly Cloudy"
"-66.09","43.83","YARMOUTH A","8206495","2021-08-25 21:00","2021","08","25","21:00","18.2","","18.1","","99","","","","24","","4","","9.7","","101.29","","","","","","Fog"
"-66.09","43.83","YARMOUTH A","8206495","2021-08-25 22:00","2021","08","25","22:00","17.6","","17.5","","100","","","","25","","3","","14.5","","101.29","","","","","","NA"
"-66.09","43.83","YARMOUTH A","8206495","2021-08-25 23:00","2021","08","25","23:00","17.1","","17.1","","100","","","","36","","1","","1.6","","101.32","","","","","","Fog"
"-66.09","43.83","YARMOUTH A","8206495","2021-08-26 00:00","2021","08","26","00:00","17.0","","17.0","","100","","","","36","","1","","2.4","","101.34","","","","","","Fog"
"-66.09","43.83","YARMOUTH A","8206495","2021-08-26 01:00","2021","08","26","01:00","16.8","","16.8","","100","","","","27","","4","","0.6","","101.35","","","","","","Fog"
"-66.09","43.83","YARMOUTH A","8206495","2021-08-26 02:00","2021","08","26","02:00","16.2","","16.2","","100","","","","25","","4","","1.2","","101.34","","","","","","Fog"
"-66.09","43.83","YARMOUTH A","8206495","2021-08-26 03:00","2021","08","26","03:00","16.8","","16.8","","100","","","","21","","3","","11.3","","101.36","","","","","","NA"
"-66.09","43.83","YARMOUTH A","8206495","2021-08-26 04:00","2021","08","26","04:00","15.7","","15.7","","100","","","","36","","2","","0.8","","101.36","","","","","","Fog"
"-66.09","43.83","YARMOUTH A","8206495","2021-08-26 05:00","2021","08","26","05:00","14.8","","14.8","","100","","","","36","","3","","0.8","","101.35","","","","","","Fog"
"-66.09","43.83","YARMOUTH A","8206495","2021-08-26 06:00","2021","08","26","06:00","15.3","","15.3","","100","","","","13","","3","","8.1","","101.40","","","","","","Fog"
"-66.09","43.83","YARMOUTH A","8206495","2021-08-26 07:00","2021","08","26","07:00","17.8","","17.8","","100","","","","36","","2","","4.8","","101.43","","","","","","Fog"
"-66.09","43.83","YARMOUTH A","8206495","2021-08-26 08:00","2021","08","26","08:00","19.8","","19.6","","99","","","","36","","2","","9.7","","101.43","","","","","","Fog"
"-66.09","43.83","YARMOUTH A","8206495","2021-08-26 09:00","2021","08","26","09:00","22.2","","20.4","","90","","","","15","","3","","14.5","","101.41","","30","","","","NA"
"-66.09","43.83","YARMOUTH A","8206495","2021-08-26 10:00","2021","08","26","10:00","24.6","","20.9","","79","","","","16","","7","","16.1","","101.42","","33","","","","NA"
"-66.09","43.83","YARMOUTH A","8206495","2021-08-26 11:00","2021","08","26","11:00","24.4","","20.3","","77","","","","19","","11","","19.3","","101.43","","32","","","","Mainly Clear"
"-66.09","43.83","YARMOUTH A","8206495","2021-08-26 12:00","2021","08","26","12:00","24.5","","19.4","","73","","","","20","","11","","19.3","","101.40","","32","","","","NA"
"-66.09","43.83","YARMOUTH A","8206495","2021-08-26 13:00","2021","08","26","13:00","24.2","","20.3","","79","","","","19","","15","","19.3","","101.38","","32","","","","NA"
"-66.09","43.83","YARMOUTH A","8206495","2021-08-26 14:00","2021","08","26","14:00","23.9","","20.2","","80","","","","19","","16","","19.3","","101.32","","32","","","","Clear"
"-66.09","43.83","YARMOUTH A","8206495","2021-08-26 15:00","2021","08","26","15:00","23.3","","18.9","","76","","","","19","","18","","19.3","","101.27","","30","","","","NA"
"-66.09","43.83","YARMOUTH A","8206495","2021-08-26 16:00","2021","08","26","16:00","22.4","","19.8","","85","","","","17","","13","","16.1","","101.25","","30","","","","NA"
"-66.09","43.83","YARMOUTH A","8206495","2021-08-26 17:00","2021","08","26","17:00","21.7","","20.0","","89","","","","19","","12","","16.1","","101.22","","29","","","","Clear"
"-66.09","43.83","YARMOUTH A","8206495","2021-08-26 18:00","2021","08","26","18:00","19.1","","18.9","","99","","","","18","","14","","0.8","","101.19","","","","","","Fog"
"-66.09","43.83","YARMOUTH A","8206495","2021-08-26 19:00","2021","08","26","19:00","18.2","","18.1","","100","","","","17","","13","","0.4","","101.18","","","","","","Fog"
"-66.09","43.83","YARMOUTH A","8206495","2021-08-26 20:00","2021","08","26","20:00","18.2","","18.2","","100","","","","17","","12","","0.4","","101.15","","","","","","Fog"
"-66.09","43.83","YARMOUTH A","8206495","2021-08-26 21:00","2021","08","26","21:00","18.0","","18.0","","100","","","","18","","13","","0.2","","101.17","","","","","","Fog"
"-66.09","43.83","YARMOUTH A","8206495","2021-08-26 22:00","2021","08","26","22:00","16.9","","16.9","","100","","","","16","","9","","0.2","","101.18","","","","","","Fog"
"-66.09","43.83","YARMOUTH A","8206495","2021-08-26 23:00","2021","08","26","23:00","16.8","","16.8","","100","","","","16","","8","","0.6","","101.14","","","","","","Fog"
"-66.09","43.83","YARMOUTH A","8206495","2021-08-27 00:00","2021","08","27","00:00","16.8","","16.8","","100","","","","17","","11","","0.6","","101.12","","","","","","Fog"
"-66.09","43.83","YARMOUTH A","8206495","2021-08-27 01:00","2021","08","27","01:00","17.0","","17.0","","100","","","","18","","9","","11.3","","101.07","","","","","","NA"
"-66.09","43.83","YARMOUTH A","8206495","2021-08-27 02:00","2021","08","27","02:00","17.9","","17.9","","100","","","","20","","10","","12.9","","101.06","","","","","","Mainly Clear"
"-66.09","43.83","YARMOUTH A","8206495","2021-08-27 03:00","2021","08","27","03:00","17.8","","17.7","","100","","","","19","","7","","11.3","","101.01","","","","","","NA"
"-66.09","43.83","YARMOUTH A","8206495","2021-08-27 04:00","2021","08","27","04:00","17.9","","17.9","","100","","","","25","","8","","3.2","","101.03","","","","","","Fog"
"-66.09","43.83","YARMOUTH A","8206495","2021-08-27 05:00","2021","08","27","05:00","17.2","","17.2","","100","","","","23","","5","","0.6","","101.00","","","","","","Fog"
"-66.09","43.83","YARMOUTH A","8206495","2021-08-27 06:00","2021","08","27","06:00","17.4","","17.4","","100","","","","28","","12","","0.4","","101.03","","","","","","Fog"
"-66.09","43.83","YARMOUTH A","8206495","2021-08-27 07:00","2021","08","27","07:00","18.4","","18.4","","100","","","","29","","16","","1.6","","101.06","","","","","","Fog"
"-66.09","43.83","YARMOUTH A","8206495","2021-08-27 08:00","2021","08","27","08:00","19.6","","19.6","","99","","","","29","","8","","6.4","","101.03","","","","","","Fog"
"-66.09","43.83","YARMOUTH A","8206495","2021-08-27 09:00","2021","08","27","09:00","20.9","","19.6","","92","","","","30","","10","","14.5","","101.07","","28","","","","NA"
"-66.09","43.83","YARMOUTH A","8206495","2021-08-27 10:00","2021","08","27","10:00","23.2","","20.2","","83","","","","32","","15","","14.5","","101.07","","31","","","","NA"
"-66.09","43.83","YARMOUTH A","8206495","2021-08-27 11:00","2021","08","27","11:00","23.2","","20.3","","84","","","","31","","12","","19.3","","101.09","","31","","","","Mostly Cloudy"
"-66.09","43.83","YARMOUTH A","8206495","2021-08-27 12:00","2021","08","27","12:00","24.8","","20.2","","75","","","","31","","17","","19.3","","101.10","","33","","","","NA"
"-66.09","43.83","YARMOUTH A","8206495","2021-08-27 13:00","2021","08","27","13:00","24.9","","19.3","","71","","","","33","","22","","19.3","","101.11","","32","","","","NA"
"-66.09","43.83","YARMOUTH A","8206495","2021-08-27 14:00","2021","08","27","14:00","24.8","","16.8","","61","","","","33","","28","","19.3","","101.16","","30","","","","Mostly Cloudy"
"-66.09","43.83","YARMOUTH A","8206495","2021-08-27 15:00","2021","08","27","15:00","25.6","","17.6","","61","","","","33","","17","","24.1","","101.16","","31","","","","NA"
"-66.09","43.83","YARMOUTH A","8206495","2021-08-27 16:00","2021","08","27","16:00","24.9","","15.7","","56","","","","33","","22","","24.1","","101.19","","29","","","","NA"
"-66.09","43.83","YARMOUTH A","8206495","2021-08-27 17:00","2021","08","27","17:00","24.0","","15.1","","57","","","","34","","20","","24.1","","101.24","","28","","","","Mostly Cloudy"
"-66.09","43.83","YARMOUTH A","8206495","2021-08-27 18:00","2021","08","27","18:00","23.1","","13.8","","55","","","","1","","23","","24.1","","101.29","","26","","","","NA"
"-66.09","43.83","YARMOUTH A","8206495","2021-08-27 19:00","2021","08","27","19:00","21.0","","12.8","","59","","","","1","","23","","24.1","","101.38","","","","","","NA"
"-66.09","43.83","YARMOUTH A","8206495","2021-08-27 20:00","2021","08","27","20:00","19.0","","12.1","","64","","","","1","","21","","24.1","","101.51","","","","","","Mostly Cloudy"
"-66.09","43.83","YARMOUTH A","8206495","2021-08-27 21:00","2021","08","27","21:00","17.7","","11.8","","68","","","","36","","17","","24.1","","101.63","","","","","","NA"
"-66.09","43.83","YARMOUTH A","8206495","2021-08-27 22:00","2021","08","27","22:00","17.2","","11.9","","71","","","","1","","21","","24.1","","101.66","","","","","","NA"
"-66.09","43.83","YARMOUTH A","8206495","2021-08-27 23:00","2021","08","27","23:00","16.6","","11.9","","74","","","","2","","21","","24.1","","101.70","","","","","","Mainly Clear"
"-66.09","43.83","YARMOUTH A","8206495","2021-08-28 00:00","2021","08","28","00:00","15.7","","11.2","","74","","","","2","","17","","24.1","","101.78","","","","","","NA"
"-66.09","43.83","YARMOUTH A","8206495","2021-08-28 01:00","2021","08","28","01:00","14.8","","9.5","","70","","","","3","","19","","24.1","","101.85","","","","","","NA"
"-66.09","43.83","YARMOUTH A","8206495","2021-08-28 02:00","2021","08","28","02:00","13.1","","9.2","","77","","","","2","","15","","24.1","","101.88","","","","","","Clear"
"-66.09","43.83","YARMOUTH A","8206495","2021-08-28 03:00","2021","08","28","03:00","11.9","","9.0","","82","","","","1","","12","","24.1","","101.93","","","","","","NA"
"-66.09","43.83","YARMOUTH A","8206495","2021-08-28 04:00","2021","08","28","04:00","11.3","","9.3","","88","","","","36","","12","","24.1","","101.96","","","","","","NA"
"-66.09","43.83","YARMOUTH A","8206495","2021-08-28 05:00","2021","08","28","05:00","10.6","","9.0","","90","","","","1","","12","","24.1","","102.01","","","","","","Clear"
"-66.09","43.83","YARMOUTH A","8206495","2021-08-28 06:00","2021","08","28","06:00","11.3","","9.8","","90","","","","1","","14","","24.1","","102.09","","","","","","NA"
"-66.09","43.83","YARMOUTH A","8206495","2021-08-28 07:00","2021","08","28","07:00","13.5","","10.6","","83","","","","1","","16","","24.1","","102.13","","","","","","NA"
"-66.09","43.83","YARMOUTH A","8206495","2021-08-28 08:00","2021","08","28","08:00","16.0","","10.7","","71","","","","2","","13","","24.1","","102.16","","","","","","Mainly Clear"
"-66.09","43.83","YARMOUTH A","8206495","2021-08-28 09:00","2021","08","28","09:00","18.6","","9.1","","54","","","","5","","15","","24.1","","102.16","","","","","","NA"
"-66.09","43.83","YARMOUTH A","8206495","2021-08-28 10:00","2021","08","28","10:00","19.3","","9.2","","51","","","","2","","13","","24.1","","102.17","","","","","","NA"
"-66.09","43.83","YARMOUTH A","8206495","2021-08-28 11:00","2021","08","28","11:00","18.1","","12.3","","69","","","","31","","19","","24.1","","102.22","","","","","","Mostly Cloudy"
"-66.09","43.83","YARMOUTH A","8206495","2021-08-28 12:00","2021","08","28","12:00","18.8","","11.4","","62","","","","33","","17","","24.1","","102.18","","","","","","NA"
"-66.09","43.83","YARMOUTH A","8206495","2021-08-28 13:00","2021","08","28","13:00","19.2","","11.6","","61","","","","33","","21","","24.1","","102.17","","","","","","NA"
"-66.09","43.83","YARMOUTH A","8206495","2021-08-28 14:00","2021","08","28","14:00","19.7","","11.1","","57","","","","33","","20","","24.1","","102.15","","","","","","Mostly Cloudy"
"-66.09","43.83","YARMOUTH A","8206495","2021-08-28 15:00","2021","08","28","15:00","19.7","","10.4","","55","","","","34","","21","","24.1","","102.11","","","","","","NA"
"-66.09","43.83","YARMOUTH A","8206495","2021-08-28 16:00","2021","08","28","16:00","18.8","","8.4","","51","","","","35","","23","","24.1","","102.10","","","","","","NA"
"-66.09","43.83","YARMOUTH A","8206495","2021-08-28 17:00","2021","08","28","17:00","18.2","","7.2","","48","","","","36","","21","","24.1","","102.13","","","","","","Cloudy"
"-66.09","43.83","YARMOUTH A","8206495","2021-08-28 18:00","2021","08","28","18:00","17.2","","7.8","","54","","","","36","","14","","24.1","","102.13","","","","","","NA"
"-66.09","43.83","YARMOUTH A","8206495","2021-08-28 19:00","2021","08","28","19:00","14.4","","10.4","","77","","","","35","","11","","24.1","","102.07","","","","","","NA"
"-66.09","43.83","YARMOUTH A","8206495","2021-08-28 20:00","2021","08","28","20:00","14.3","","9.8","","74","","","","32","","8","","24.1","","102.13","","","","","","Cloudy"
"-66.09","43.83","YARMOUTH A","8206495","2021-08-28 21:00","2021","08","28","21:00","14.2","","8.9","","70","","","","1","","13","","24.1","","102.15","","","","","","NA"
"-66.09","43.83","YARMOUTH A","8206495","2021-08-28 22:00","2021","08","28","22:00","13.7","","8.4","","70","","","","35","","5","","24.1","","102.14","","","","","","NA"
"-66.09","43.83","YARMOUTH A","8206495","2021-08-28 23:00","2021","08","28","23:00","13.2","","7.8","","69","","","","35","","11","","24.1","","102.17","","","","","","Mainly Clear"
"-66.09","43.83","YARMOUTH A","8206495","2021-08-29 00:00","2021","08","29","00:00","12.5","","8.0","","74","","","","1","","10","","24.1","","102.13","","","","","","NA"
"-66.09","43.83","YARMOUTH A","8206495","2021-08-29 01:00","2021","08","29","01:00","12.1","","7.5","","73","","","","35","","8","","24.1","","102.14","","","","","","NA"
"-66.09","43.83","YARMOUTH A","8206495","2021-08-29 02:00","2021","08","29","02:00","12.0","","8.4","","79","","","","33","","5","","24.1","","102.13","","","","","","Mostly Cloudy"
"-66.09","43.83","YARMOUTH A","8206495","2021-08-29 03:00","2021","08","29","03:00","13.2","","7.6","","69","","","","32","","8","","24.1","","102.10","","","","","","NA"
"-66.09","43.83","YARMOUTH A","8206495","2021-08-29 04:00","2021","08","29","04:00","12.6","","8.8","","77","","","","36","","7","","24.1","","102.08","","","","","","NA"
"-66.09","43.83","YARMOUTH A","8206495","2021-08-29 05:00","2021","08","29","05:00","11.7","","8.7","","82","","","","36","","4","","24.1","","102.10","","","","","","Mostly Cloudy"
"-66.09","43.83","YARMOUTH A","8206495","2021-08-29 06:00","2021","08","29","06:00","10.6","","9.2","","91","","","","36","","2","","24.1","","102.09","","","","","","NA"
"-66.09","43.83","YARMOUTH A","8206495","2021-08-29 07:00","2021","08","29","07:00","13.0","","10.3","","83","","","","20","","3","","24.1","","102.06","","","","","","NA"
"-66.09","43.83","YARMOUTH A","8206495","2021-08-29 08:00","2021","08","29","08:00","16.3","","13.0","","81","","","","5","","8","","24.1","","102.03","","","","","","Cloudy"
"-66.09","43.83","YARMOUTH A","8206495","2021-08-29 09:00","2021","08","29","09:00","17.7","","13.3","","75","","","","34","","9","","24.1","","102.05","","","","","","NA"
"-66.09","43.83","YARMOUTH A","8206495","2021-08-29 10:00","2021","08","29","10:00","18.3","","12.2","","67","","","","11","","3","","24.1","","102.02","","","","","","NA"
"-66.09","43.83","YARMOUTH A","8206495","2021-08-29 11:00","2021","08","29","11:00","19.5","","12.6","","64","","","","32","","3","","24.1","","102.01","","","","","","Cloudy"
"-66.09","43.83","YARMOUTH A","8206495","2021-08-29 12:00","2021","08","29","12:00","19.6","","13.7","","68","","","","25","","13","","24.1","","101.94","","","","","","NA"
"-66.09","43.83","YARMOUTH A","8206495","2021-08-29 13:00","2021","08","29","13:00","20.3","","10.8","","54","","","","25","","13","","24.1","","101.92","","","","","","NA"
"-66.09","43.83","YARMOUTH A","8206495","2021-08-29 14:00","2021","08","29","14:00","20.1","","9.5","","50","","","","25","","11","","24.1","","101.89","","","","","","Cloudy"
"-66.09","43.83","YARMOUTH A","8206495","2021-08-29 15:00","2021","08","29","15:00","19.8","","10.7","","55","","","","24","","10","","24.1","","101.83","","","","","","NA"
"-66.09","43.83","YARMOUTH A","8206495","2021-08-29 16:00","2021","08","29","16:00","18.9","","10.1","","56","","","","22","","10","","24.1","","101.76","","","","","","NA"
"-66.09","43.83","YARMOUTH A","8206495","2021-08-29 17:00","2021","08","29","17:00","17.7","","8.6","","55","","","","23","","11","","24.1","","101.71","","","","","","Cloudy"
"-66.09","43.83","YARMOUTH A","8206495","2021-08-29 18:00","2021","08","29","18:00","16.6","","9.4","","62","","","","24","","8","","24.1","","101.66","","","","","","NA"
"-66.09","43.83","YARMOUTH A","8206495","2021-08-29 19:00","2021","08","29","19:00","15.9","","9.1","","64","","","","22","","5","","24.1","","101.62","","","","","","NA"
"-66.09","43.83","YARMOUTH A","8206495","2021-08-29 20:00","2021","08","29","20:00","15.6","","9.0","","64","","","","20","","7","","24.1","","101.60","","","","","","Cloudy"
"-66.09","43.83","YARMOUTH A","8206495","2021-08-29 21:00","2021","08","29","21:00","15.3","","11.4","","77","","","","16","","4","","24.1","","101.59","","","","","","NA"
"-66.09","43.83","YARMOUTH A","8206495","2021-08-29 22:00","2021","08","29","22:00","15.8","","13.1","","84","","","","21","","5","","24.1","","101.55","","","","","","NA"
"-66.09","43.83","YARMOUTH A","8206495","2021-08-29 23:00","2021","08","29","23:00","15.9","","14.2","","90","","","","23","","3","","24.1","","101.49","","","","","","Cloudy"
"-66.09","43.83","YARMOUTH A","8206495","2021-08-30 00:00","2021","08","30","00:00","16.4","","13.6","","83","","","","17","","10","","24.1","","101.42","","","","","","NA"
"-66.09","43.83","YARMOUTH A","8206495","2021-08-30 01:00","2021","08","30","01:00","16.4","","13.9","","85","","","","18","","11","","24.1","","101.37","","","","","","NA"
"-66.09","43.83","YARMOUTH A","8206495","2021-08-30 02:00","2021","08","30","02:00","16.0","","14.4","","90","","","","17","","8","","24.1","","101.30","","","","","","Cloudy"
"-66.09","43.83","YARMOUTH A","8206495","2021-08-30 03:00","2021","08","30","03:00","16.2","","14.7","","91","","","","18","","14","","14.5","","101.22","","","","","","NA"
"-66.09","43.83","YARMOUTH A","8206495","2021-08-30 04:00","2021","08","30","04:00","16.2","","16.1","","99","","","","20","","14","","4.8","","101.12","","","","","","Rain Showers,Fog"
"-66.09","43.83","YARMOUTH A","8206495","2021-08-30 05:00","2021","08","30","05:00","16.6","","16.6","","100","","","","21","","16","","3.2","","101.08","","","","","","Rain Showers,Fog"
"-66.09","43.83","YARMOUTH A","8206495","2021-08-30 06:00","2021","08","30","06:00","16.8","","16.8","","100","","","","21","","13","","1.6","","101.03","","","","","","Rain Showers,Fog"
"-66.09","43.83","YARMOUTH A","8206495","2021-08-30 07:00","2021","08","30","07:00","16.3","","16.3","","100","","","","19","","18","","2.4","","101.01","","","","","","Moderate Rain Showers,Fog"
"-66.09","43.83","YARMOUTH A","8206495","2021-08-30 08:00","2021","08","30","08:00","16.5","","16.5","","100","","","","18","","17","","4.0","","100.95","","","","","","Moderate Rain Showers,Fog"
"-66.09","43.83","YARMOUTH A","8206495","2021-08-30 09:00","2021","08","30","09:00","16.8","","16.8","","100","","","","19","","21","","0.6","","100.90","","","","","","Rain Showers,Fog"
"-66.09","43.83","YARMOUTH A","8206495","2021-08-30 10:00","2021","08","30","10:00","17.6","","17.4","","99","","","","20","","18","","6.4","","100.86","","","","","","Fog"
"-66.09","43.83","YARMOUTH A","8206495","2021-08-30 11:00","2021","08","30","11:00","17.4","","17.1","","98","","","","19","","16","","8.1","","100.79","","","","","","Fog"
"-66.09","43.83","YARMOUTH A","8206495","2021-08-30 12:00","2021","08","30","12:00","20.4","","19.1","","92","","","","19","","17","","12.9","","100.70","","27","","","","NA"
"-66.09","43.83","YARMOUTH A","8206495","2021-08-30 13:00","2021","08","30","13:00","21.2","","18.8","","86","","","","22","","25","","12.9","","100.66","","28","","","","NA"
"-66.09","43.83","YARMOUTH A","8206495","2021-08-30 14:00","2021","08","30","14:00","22.2","","19.6","","85","","","","22","","26","","12.9","","100.55","","29","","","","Cloudy"
"-66.09","43.83","YARMOUTH A","8206495","2021-08-30 15:00","2021","08","30","15:00","20.3","","18.9","","91","","","","22","","21","","14.5","","100.49","","27","","","","NA"
"-66.09","43.83","YARMOUTH A","8206495","2021-08-30 16:00","2021","08","30","16:00","19.8","","18.7","","93","","","","22","","24","","14.5","","100.44","","","","","","NA"
"-66.09","43.83","YARMOUTH A","8206495","2021-08-30 17:00","2021","08","30","17:00","21.3","","19.7","","90","","","","23","","21","","12.9","","100.39","","29","","","","Cloudy"
"-66.09","43.83","YARMOUTH A","8206495","2021-08-30 18:00","2021","08","30","18:00","21.1","","20.0","","94","","","","22","","20","","9.7","","100.34","","29","","","","Fog"
"-66.09","43.83","YARMOUTH A","8206495","2021-08-30 19:00","2021","08","30","19:00","18.2","","17.9","","98","","","","19","","19","","6.4","","100.31","","","","","","Fog"
"-66.09","43.83","YARMOUTH A","8206495","2021-08-30 20:00","2021","08","30","20:00","19.6","","19.2","","98","","","","21","","24","","14.5","","100.30","","","","","","Cloudy"
"-66.09","43.83","YARMOUTH A","8206495","2021-08-30 21:00","2021","08","30","21:00","19.0","","18.9","","99","","","","20","","18","","1.6","","100.26","","","","","","Rain Showers,Fog"
"-66.09","43.83","YARMOUTH A","8206495","2021-08-30 22:00","2021","08","30","22:00","19.0","","18.8","","99","","","","22","","23","","1.6","","100.23","","","","","","Fog"
"-66.09","43.83","YARMOUTH A","8206495","2021-08-30 23:00","2021","08","30","23:00","18.7","","18.7","","100","","","","22","","27","","0.4","","100.18","","","","","","Fog"
"-66.09","43.83","YARMOUTH A","8206495","2021-08-31 00:00","2021","08","31","00:00","18.7","","18.7","","100","","","","23","","31","","0.4","","100.15","","","","","","Fog"
"-66.09","43.83","YARMOUTH A","8206495","2021-08-31 01:00","2021","08","31","01:00","18.5","","18.5","","100","","","","23","","27","","0.4","","100.11","","","","","","Fog"
"-66.09","43.83","YARMOUTH A","8206495","2021-08-31 02:00","2021","08","31","02:00","17.9","","17.9","","100","","","","24","","23","","0.4","","100.07","","","","","","Fog"
"-66.09","43.83","YARMOUTH A","8206495","2021-08-31 03:00","2021","08","31","03:00","17.8","","17.8","","100","","","","25","","22","","0.4","","100.07","","","","","","Fog"
"-66.09","43.83","YARMOUTH A","8206495","2021-08-31 04:00","2021","08","31","04:00","17.1","","17.1","","100","","","","26","","17","","0.4","","100.05","","","","","","Fog"
"-66.09","43.83","YARMOUTH A","8206495","2021-08-31 05:00","2021","08","31","05:00","16.8","","16.8","","100","","","","25","","14","","0.4","","100.05","","","","","","Fog"
"-66.09","43.83","YARMOUTH A","8206495","2021-08-31 06:00","2021","08","31","06:00","16.5","","16.5","","100","","","","28","","13","","0.2","","100.04","","","","","","Fog"
"-66.09","43.83","YARMOUTH A","8206495","2021-08-31 07:00","2021","08","31","07:00","16.9","","16.9","","100","","","","29","","14","","0.4","","100.08","","","","","","Fog"
"-66.09","43.83","YARMOUTH A","8206495","2021-08-31 08:00","2021","08","31","08:00","17.6","","17.6","","100","","","","31","","7","","0.6","","100.11","","","","","","Fog"
"-66.09","43.83","YARMOUTH A","8206495","2021-08-31 09:00","2021","08","31","09:00","18.4","","18.4","","100","","","","32","","4","","2.0","","100.10","","","","","","Fog"
"-66.09","43.83","YARMOUTH A","8206495","2021-08-31 10:00","2021","08","31","10:00","21.0","","19.8","","93","","","","32","","8","","12.9","","100.09","","28","","","","NA"
"-66.09","43.83","YARMOUTH A","8206495","2021-08-31 11:00","2021","08","31","11:00","22.7","","19.2","","80","","","","29","","9","","19.3","","100.05","","30","","","","Mostly Cloudy"
"-66.09","43.83","YARMOUTH A","8206495","2021-08-31 12:00","2021","08","31","12:00","21.6","","18.1","","80","","","","29","","14","","24.1","","100.04","","28","","","","NA"
"-66.09","43.83","YARMOUTH A","8206495","2021-08-31 13:00","2021","08","31","13:00","21.8","","17.0","","74","","","","27","","10","","24.1","","100.04","","27","","","","NA"
"-66.09","43.83","YARMOUTH A","8206495","2021-08-31 14:00","2021","08","31","14:00","22.6","","17.7","","74","","","","24","","7","","24.1","","100.02","","28","","","","Mostly Cloudy"
"-66.09","43.83","YARMOUTH A","8206495","2021-08-31 15:00","2021","08","31","15:00","21.5","","18.0","","80","","","","26","","9","","24.1","","100.00","","28","","","","NA"
"-66.09","43.83","YARMOUTH A","8206495","2021-08-31 16:00","2021","08","31","16:00","20.5","","17.1","","80","","","","28","","14","","24.1","","100.00","","26","","","","NA"
"-66.09","43.83","YARMOUTH A","8206495","2021-08-31 17:00","2021","08","31","17:00","20.1","","17.5","","85","","","","27","","11","","24.1","","100.01","","26","","","","Mostly Cloudy"
"-66.09","43.83","YARMOUTH A","8206495","2021-08-31 18:00","2021","08","31","18:00","20.7","","17.1","","80","","","","25","","9","","24.1","","100.00","","26","","","","NA"
"-66.09","43.83","YARMOUTH A","8206495","2021-08-31 19:00","2021","08","31","19:00","18.7","","15.9","","84","","","","22","","7","","24.1","","99.99","","","","","","NA"
"-66.09","43.83","YARMOUTH A","8206495","2021-08-31 20:00","2021","08","31","20:00","16.4","","15.1","","92","","","","19","","7","","24.1","","100.03","","","","","","Mainly Clear"
"-66.09","43.83","YARMOUTH A","8206495","2021-08-31 21:00","2021","08","31","21:00","16.3","","15.5","","95","","","","19","","10","","24.1","","100.06","","","","","","NA"
"-66.09","43.83","YARMOUTH A","8206495","2021-08-31 22:00","2021","08","31","22:00","15.8","","14.8","","94","","","","25","","12","","24.1","","100.08","","","","","","NA"
"-66.09","43.83","YARMOUTH A","8206495","2021-08-31 23:00","2021","08","31","23:00","15.9","","15.3","","97","","","","25","","14","","24.1","","100.05","","","","","","Clear"
