"Longitude (x)","Latitude (y)","Station Name","Climate ID","Date/Time (LST)","Year","Month","Day","Time (LST)","Temp (°C)","Temp Flag","Dew Point Temp (°C)","Dew Point Temp Flag","Rel Hum (%)","Rel Hum Flag","Precip. Amount (mm)","Precip. Amount Flag","Wind Dir (10s deg)","Wind Dir Flag","Wind Spd (km/h)","Wind Spd Flag","Visibility (km)","Visibility Flag","Stn Press (kPa)","Stn Press Flag","Hmdx","Hmdx Flag","Wind Chill","Wind Chill Flag","Weather"
"-61.78","47.43","ILES DE LA MADELEINE A","7053250","2023-03-01 00:00","2023","03","01","00:00"
"-61.78","47.43","ILES DE LA MADELEINE A","7053250","2023-03-01 01:00","2023","03","01","01:00"
"-61.78","47.43","ILES DE LA MADELEINE A","7053250","2023-03-01 02:00","2023","03","01","02:00"
"-61.78","47.43","ILES DE LA MADELEINE A","7053250","2023-03-01 03:00","2023","03","01","03:00"
"-61.78","47.43","ILES DE LA MADELEINE A","7053250","2023-03-01 04:00","2023","03","01","04:00"
"-61.78","47.43","ILES DE LA MADELEINE A","7053250","2023-03-01 05:00","2023","03","01","05:00"
"-61.78","47.43","ILES DE LA MADELEINE A","7053250","2023-03-01 06:00","2023","03","01","06:00","-7.2","","-13.2","","63","","","","9","","9","","24.1","","102.06","","","","-12","","NA"
"-61.78","47.43","ILES DE LA MADELEINE A","7053250","2023-03-01 07:00","2023","03","01","07:00","-7.5","","-13.1","","64","","","","9","","8","","32.2","","102.09","","","","-12","","NA"
"-61.78","47.43","ILES DE LA MADELEINE A","7053250","2023-03-01 08:00","2023","03","01","08:00","-7.4","","-12.4","","68","","","","6","","7","","32.2","","102.10","","","","-11","","Cloudy"
"-61.78","47.43","ILES DE LA MADELEINE A","7053250","2023-03-01 09:00","2023","03","01","09:00","-6.4","","-12.8","","60","","","","7","","12","","32.2","","102.10","","","","-12","","NA"
"-61.78","47.43","ILES DE LA MADELEINE A","7053250","2023-03-01 10:00","2023","03","01","10:00","-6.0","","-12.4","","61","","","","7","","10","","32.2","","102.08","","","","-10","","NA"
"-61.78","47.43","ILES DE LA MADELEINE A","7053250","2023-03-01 11:00","2023","03","01","11:00","-5.7","","-12.7","","58","","","","6","","3","","32.2","","102.07","","","","-7","","Mostly Cloudy"
"-61.78","47.43","ILES DE LA MADELEINE A","7053250","2023-03-01 12:00","2023","03","01","12:00","-5.8","","-12.7","","58","","","","4","","9","","32.2","","102.04","","","","-10","","NA"
"-61.78","47.43","ILES DE LA MADELEINE A","7053250","2023-03-01 13:00","2023","03","01","13:00","-5.8","","-13.2","","56","","","","35","","10","","32.2","","102.01","","","","-10","","NA"
"-61.78","47.43","ILES DE LA MADELEINE A","7053250","2023-03-01 14:00","2023","03","01","14:00","-5.5","","-12.8","","57","","","","35","","12","","32.2","","101.98","","","","-10","","Mostly Cloudy"
"-61.78","47.43","ILES DE LA MADELEINE A","7053250","2023-03-01 15:00","2023","03","01","15:00","-5.4","","-12.7","","57","","","","34","","7","","32.2","","101.96","","","","-9","","NA"
"-61.78","47.43","ILES DE LA MADELEINE A","7053250","2023-03-01 16:00","2023","03","01","16:00","-5.9","","-13.3","","56","","","","35","","9","","32.2","","101.94","","","","-10","","NA"
"-61.78","47.43","ILES DE LA MADELEINE A","7053250","2023-03-01 17:00","2023","03","01","17:00","-7.0","","-13.3","","61","","","","36","","9","","32.2","","101.91","","","","-11","","Mainly Clear"
"-61.78","47.43","ILES DE LA MADELEINE A","7053250","2023-03-01 18:00","2023","03","01","18:00","-7.9","","-13.0","","67","","","","36","","5","","32.2","","101.92","","","","-11","","NA"
"-61.78","47.43","ILES DE LA MADELEINE A","7053250","2023-03-01 19:00","2023","03","01","19:00","-8.2","","-12.5","","71","","","","36","","1","","24.1","","101.90","","","","-9","","NA"
"-61.78","47.43","ILES DE LA MADELEINE A","7053250","2023-03-01 20:00","2023","03","01","20:00","-8.6","","-12.8","","72","","","","36","","2","","24.1","","101.90","","","","-10","","Clear"
"-61.78","47.43","ILES DE LA MADELEINE A","7053250","2023-03-01 21:00","2023","03","01","21:00","-8.2","","-12.8","","70","","","","36","","2","","24.1","","101.89","","","","-9","","NA"
"-61.78","47.43","ILES DE LA MADELEINE A","7053250","2023-03-01 22:00","2023","03","01","22:00","-9.9","","-13.7","","74","","","","","","0","","24.1","","101.88","","","","","","NA"
"-61.78","47.43","ILES DE LA MADELEINE A","7053250","2023-03-01 23:00","2023","03","01","23:00","-10.1","","-14.4","","71","","","","36","","1","","24.1","","101.85","","","","-11","","Clear"
"-61.78","47.43","ILES DE LA MADELEINE A","7053250","2023-03-02 00:00","2023","03","02","00:00"
"-61.78","47.43","ILES DE LA MADELEINE A","7053250","2023-03-02 01:00","2023","03","02","01:00"
"-61.78","47.43","ILES DE LA MADELEINE A","7053250","2023-03-02 02:00","2023","03","02","02:00"
"-61.78","47.43","ILES DE LA MADELEINE A","7053250","2023-03-02 03:00","2023","03","02","03:00"
"-61.78","47.43","ILES DE LA MADELEINE A","7053250","2023-03-02 04:00","2023","03","02","04:00"
"-61.78","47.43","ILES DE LA MADELEINE A","7053250","2023-03-02 05:00","2023","03","02","05:00"
"-61.78","47.43","ILES DE LA MADELEINE A","7053250","2023-03-02 06:00","2023","03","02","06:00","-7.4","","-9.4","","86","","","","25","","7","","24.1","","101.53","","","","-11","","Snow Showers"
"-61.78","47.43","ILES DE LA MADELEINE A","7053250","2023-03-02 07:00","2023","03","02","07:00","-6.9","","-9.1","","85","","","","21","","4","","32.2","","101.46","","","","-9","","Snow Showers"
"-61.78","47.43","ILES DE LA MADELEINE A","7053250","2023-03-02 08:00","2023","03","02","08:00","-6.2","","-8.2","","86","","","","24","","7","","32.2","","101.45","","","","-10","","Snow Showers"
"-61.78","47.43","ILES DE LA MADELEINE A","7053250","2023-03-02 09:00","2023","03","02","09:00","-5.4","","-9.2","","75","","","","31","","15","","32.2","","101.42","","","","-11","","NA"
"-61.78","47.43","ILES DE LA MADELEINE A","7053250","2023-03-02 10:00","2023","03","02","10:00","-5.1","","-9.4","","72","","","","29","","13","","32.2","","101.35","","","","-10","","NA"
"-61.78","47.43","ILES DE LA MADELEINE A","7053250","2023-03-02 11:00","2023","03","02","11:00","-4.8","","-8.4","","76","","","","30","","13","","32.2","","101.25","","","","-10","","Cloudy"
"-61.78","47.43","ILES DE LA MADELEINE A","7053250","2023-03-02 12:00","2023","03","02","12:00","-4.8","","-9.2","","71","","","","29","","6","","32.2","","101.17","","","","-8","","NA"
"-61.78","47.43","ILES DE LA MADELEINE A","7053250","2023-03-02 13:00","2023","03","02","13:00","-4.9","","-8.9","","74","","","","25","","10","","32.2","","101.07","","","","-9","","NA"
"-61.78","47.43","ILES DE LA MADELEINE A","7053250","2023-03-02 14:00","2023","03","02","14:00","-4.4","","-8.9","","71","","","","29","","16","","32.2","","100.99","","","","-10","","Mostly Cloudy"
"-61.78","47.43","ILES DE LA MADELEINE A","7053250","2023-03-02 15:00","2023","03","02","15:00","-4.8","","-9.1","","72","","","","30","","13","","32.2","","100.83","","","","-10","","NA"
"-61.78","47.43","ILES DE LA MADELEINE A","7053250","2023-03-02 16:00","2023","03","02","16:00","-5.0","","-8.3","","78","","","","29","","10","","32.2","","100.78","","","","-9","","NA"
"-61.78","47.43","ILES DE LA MADELEINE A","7053250","2023-03-02 17:00","2023","03","02","17:00","-6.0","","-9.1","","79","","","","31","","8","","32.2","","100.77","","","","-10","","Mainly Clear"
"-61.78","47.43","ILES DE LA MADELEINE A","7053250","2023-03-02 18:00","2023","03","02","18:00","-8.1","","-10.2","","85","","","","33","","4","","32.2","","100.73","","","","-10","","NA"
"-61.78","47.43","ILES DE LA MADELEINE A","7053250","2023-03-02 19:00","2023","03","02","19:00","-8.2","","-10.3","","85","","","","36","","5","","24.1","","100.66","","","","-11","","NA"
"-61.78","47.43","ILES DE LA MADELEINE A","7053250","2023-03-02 20:00","2023","03","02","20:00","-9.5","","-10.6","","92","","","","3","","11","","24.1","","100.51","","","","-15","","Mainly Clear"
"-61.78","47.43","ILES DE LA MADELEINE A","7053250","2023-03-02 21:00","2023","03","02","21:00","-9.4","","-10.7","","90","","","","4","","11","","24.1","","100.42","","","","-15","","NA"
"-61.78","47.43","ILES DE LA MADELEINE A","7053250","2023-03-02 22:00","2023","03","02","22:00","-9.0","","-10.8","","87","","","","4","","13","","24.1","","100.32","","","","-15","","NA"
"-61.78","47.43","ILES DE LA MADELEINE A","7053250","2023-03-02 23:00","2023","03","02","23:00","-5.7","","-8.0","","83","","","","5","","14","","24.1","","100.22","","","","-11","","Mostly Cloudy"
"-61.78","47.43","ILES DE LA MADELEINE A","7053250","2023-03-03 00:00","2023","03","03","00:00"
"-61.78","47.43","ILES DE LA MADELEINE A","7053250","2023-03-03 01:00","2023","03","03","01:00"
"-61.78","47.43","ILES DE LA MADELEINE A","7053250","2023-03-03 02:00","2023","03","03","02:00"
"-61.78","47.43","ILES DE LA MADELEINE A","7053250","2023-03-03 03:00","2023","03","03","03:00"
"-61.78","47.43","ILES DE LA MADELEINE A","7053250","2023-03-03 04:00","2023","03","03","04:00"
"-61.78","47.43","ILES DE LA MADELEINE A","7053250","2023-03-03 05:00","2023","03","03","05:00"
"-61.78","47.43","ILES DE LA MADELEINE A","7053250","2023-03-03 06:00","2023","03","03","06:00","-3.5","","-6.2","","82","","","","35","","27","","24.1","","100.09","","","","-11","","Snow Showers"
"-61.78","47.43","ILES DE LA MADELEINE A","7053250","2023-03-03 07:00","2023","03","03","07:00","-3.6","","-5.5","","87","","","","35","","29","","32.2","","100.15","","","","-11","","Blowing Snow"
"-61.78","47.43","ILES DE LA MADELEINE A","7053250","2023-03-03 08:00","2023","03","03","08:00","-3.6","","-5.7","","85","","","","34","","30","","32.2","","100.24","","","","-11","","Blowing Snow"
"-61.78","47.43","ILES DE LA MADELEINE A","7053250","2023-03-03 09:00","2023","03","03","09:00","-3.4","","-6.2","","81","","","","34","","32","","32.2","","100.30","","","","-11","","Blowing Snow"
"-61.78","47.43","ILES DE LA MADELEINE A","7053250","2023-03-03 10:00","2023","03","03","10:00","-3.3","","-6.8","","77","","","","33","","27","","32.2","","100.38","","","","-10","","Blowing Snow"
"-61.78","47.43","ILES DE LA MADELEINE A","7053250","2023-03-03 11:00","2023","03","03","11:00","-2.5","","-6.5","","74","","","","33","","20","","32.2","","100.40","","","","-8","","Cloudy"
"-61.78","47.43","ILES DE LA MADELEINE A","7053250","2023-03-03 12:00","2023","03","03","12:00","-2.0","","-5.9","","75","","","","33","","25","","32.2","","100.41","","","","-8","","NA"
"-61.78","47.43","ILES DE LA MADELEINE A","7053250","2023-03-03 13:00","2023","03","03","13:00","-1.8","","-5.5","","76","","","","32","","31","","32.2","","100.44","","","","-9","","NA"
"-61.78","47.43","ILES DE LA MADELEINE A","7053250","2023-03-03 14:00","2023","03","03","14:00","-2.4","","-5.6","","79","","","","32","","36","","32.2","","100.48","","","","-10","","Mostly Cloudy"
"-61.78","47.43","ILES DE LA MADELEINE A","7053250","2023-03-03 15:00","2023","03","03","15:00","-2.9","","-5.8","","80","","","","31","","36","","24.1","","100.55","","","","-11","","Snow Showers,Blowing Snow"
"-61.78","47.43","ILES DE LA MADELEINE A","7053250","2023-03-03 16:00","2023","03","03","16:00","-4.4","","-7.8","","78","","","","32","","40","","32.2","","100.62","","","","-13","","Snow Showers,Blowing Snow"
"-61.78","47.43","ILES DE LA MADELEINE A","7053250","2023-03-03 17:00","2023","03","03","17:00","-5.3","","-9.1","","75","","","","33","","45","","32.2","","100.70","","","","-15","","Blowing Snow"
"-61.78","47.43","ILES DE LA MADELEINE A","7053250","2023-03-03 18:00","2023","03","03","18:00","-6.2","","-9.9","","75","","","","33","","49","","24.1","","100.74","","","","-17","","Blowing Snow"
"-61.78","47.43","ILES DE LA MADELEINE A","7053250","2023-03-03 19:00","2023","03","03","19:00","-6.3","","-9.8","","76","","","","32","","39","","24.1","","100.80","","","","-16","","Blowing Snow"
"-61.78","47.43","ILES DE LA MADELEINE A","7053250","2023-03-03 20:00","2023","03","03","20:00","-6.2","","-10.3","","73","","","","33","","52","","24.1","","100.83","","","","-17","","Blowing Snow"
"-61.78","47.43","ILES DE LA MADELEINE A","7053250","2023-03-03 21:00","2023","03","03","21:00","-6.2","","-10.7","","70","","","","31","","48","","24.1","","100.86","","","","-16","","Snow Showers,Blowing Snow"
"-61.78","47.43","ILES DE LA MADELEINE A","7053250","2023-03-03 22:00","2023","03","03","22:00","-6.1","","-9.9","","74","","","","32","","49","","24.1","","100.82","","","","-16","","Snow Showers,Blowing Snow"
"-61.78","47.43","ILES DE LA MADELEINE A","7053250","2023-03-03 23:00","2023","03","03","23:00","-5.6","","-10.4","","69","","","","32","","42","","24.1","","100.82","","","","-15","","Snow Showers,Blowing Snow"
"-61.78","47.43","ILES DE LA MADELEINE A","7053250","2023-03-04 00:00","2023","03","04","00:00"
"-61.78","47.43","ILES DE LA MADELEINE A","7053250","2023-03-04 01:00","2023","03","04","01:00"
"-61.78","47.43","ILES DE LA MADELEINE A","7053250","2023-03-04 02:00","2023","03","04","02:00"
"-61.78","47.43","ILES DE LA MADELEINE A","7053250","2023-03-04 03:00","2023","03","04","03:00"
"-61.78","47.43","ILES DE LA MADELEINE A","7053250","2023-03-04 04:00","2023","03","04","04:00"
"-61.78","47.43","ILES DE LA MADELEINE A","7053250","2023-03-04 05:00","2023","03","04","05:00"
"-61.78","47.43","ILES DE LA MADELEINE A","7053250","2023-03-04 06:00","2023","03","04","06:00","-6.5","","-9.0","","82","","","","32","","24","","24.1","","101.03","","","","-14","","Snow Showers"
"-61.78","47.43","ILES DE LA MADELEINE A","7053250","2023-03-04 07:00","2023","03","04","07:00","-6.4","","-11.1","","70","","","","31","","30","","24.1","","101.01","","","","-15","","Snow Showers"
"-61.78","47.43","ILES DE LA MADELEINE A","7053250","2023-03-04 08:00","2023","03","04","08:00","-6.2","","-11.2","","68","","","","31","","22","","24.1","","101.07","","","","-13","","Snow Showers"
"-61.78","47.43","ILES DE LA MADELEINE A","7053250","2023-03-04 09:00","2023","03","04","09:00","-5.8","","-10.6","","69","","","","31","","23","","16.1","","101.00","","","","-13","","Snow Showers"
"-61.78","47.43","ILES DE LA MADELEINE A","7053250","2023-03-04 10:00","2023","03","04","10:00","-5.3","","-9.9","","70","","","","31","","27","","32.2","","100.96","","","","-13","","Snow Showers"
"-61.78","47.43","ILES DE LA MADELEINE A","7053250","2023-03-04 11:00","2023","03","04","11:00","-4.8","","-10.6","","64","","","","32","","24","","32.2","","100.91","","","","-12","","Mostly Cloudy"
"-61.78","47.43","ILES DE LA MADELEINE A","7053250","2023-03-04 12:00","2023","03","04","12:00","-5.2","","-10.5","","67","","","","31","","27","","32.2","","100.85","","","","-13","","NA"
"-61.78","47.43","ILES DE LA MADELEINE A","7053250","2023-03-04 13:00","2023","03","04","13:00","-5.2","","-10.2","","68","","","","30","","27","","32.2","","100.84","","","","-13","","Snow Showers"
"-61.78","47.43","ILES DE LA MADELEINE A","7053250","2023-03-04 14:00","2023","03","04","14:00","-5.0","","-10.1","","67","","","","30","","26","","32.2","","100.72","","","","-12","","Snow Showers"
"-61.78","47.43","ILES DE LA MADELEINE A","7053250","2023-03-04 15:00","2023","03","04","15:00","-5.1","","-9.6","","71","","","","32","","21","","32.2","","100.62","","","","-12","","NA"
"-61.78","47.43","ILES DE LA MADELEINE A","7053250","2023-03-04 16:00","2023","03","04","16:00","-5.4","","-9.6","","73","","","","31","","22","","32.2","","100.60","","","","-12","","NA"
"-61.78","47.43","ILES DE LA MADELEINE A","7053250","2023-03-04 17:00","2023","03","04","17:00","-6.2","","-10.4","","72","","","","32","","26","","32.2","","100.55","","","","-14","","Mainly Clear"
"-61.78","47.43","ILES DE LA MADELEINE A","7053250","2023-03-04 18:00","2023","03","04","18:00","-6.7","","-10.9","","72","","","","32","","23","","32.2","","100.52","","","","-14","","NA"
"-61.78","47.43","ILES DE LA MADELEINE A","7053250","2023-03-04 19:00","2023","03","04","19:00","-6.5","","-10.5","","73","","","","31","","25","","24.1","","100.51","","","","-14","","NA"
"-61.78","47.43","ILES DE LA MADELEINE A","7053250","2023-03-04 20:00","2023","03","04","20:00","-5.8","","-10.3","","71","","","","33","","34","","24.1","","100.50","","","","-15","","Mainly Clear"
"-61.78","47.43","ILES DE LA MADELEINE A","7053250","2023-03-04 21:00","2023","03","04","21:00","-5.8","","-10.3","","71","","","","33","","35","","24.1","","100.49","","","","-15","","NA"
"-61.78","47.43","ILES DE LA MADELEINE A","7053250","2023-03-04 22:00","2023","03","04","22:00","-5.3","","-9.6","","72","","","","35","","36","","24.1","","100.42","","","","-14","","NA"
"-61.78","47.43","ILES DE LA MADELEINE A","7053250","2023-03-04 23:00","2023","03","04","23:00","-5.6","","-10.4","","69","","","","34","","40","","24.1","","100.38","","","","-15","","Mainly Clear"
"-61.78","47.43","ILES DE LA MADELEINE A","7053250","2023-03-05 00:00","2023","03","05","00:00"
"-61.78","47.43","ILES DE LA MADELEINE A","7053250","2023-03-05 01:00","2023","03","05","01:00"
"-61.78","47.43","ILES DE LA MADELEINE A","7053250","2023-03-05 02:00","2023","03","05","02:00"
"-61.78","47.43","ILES DE LA MADELEINE A","7053250","2023-03-05 03:00","2023","03","05","03:00"
"-61.78","47.43","ILES DE LA MADELEINE A","7053250","2023-03-05 04:00","2023","03","05","04:00"
"-61.78","47.43","ILES DE LA MADELEINE A","7053250","2023-03-05 05:00","2023","03","05","05:00"
"-61.78","47.43","ILES DE LA MADELEINE A","7053250","2023-03-05 06:00","2023","03","05","06:00","-5.8","","-11.2","","66","","","","32","","34","","24.1","","100.08","","","","-15","","NA"
"-61.78","47.43","ILES DE LA MADELEINE A","7053250","2023-03-05 07:00","2023","03","05","07:00","-5.8","","-10.8","","68","","","","32","","31","","32.2","","100.03","","","","-14","","NA"
"-61.78","47.43","ILES DE LA MADELEINE A","7053250","2023-03-05 08:00","2023","03","05","08:00","-5.6","","-10.3","","70","","","","32","","39","","32.2","","99.98","","","","-15","","Mostly Cloudy"
"-61.78","47.43","ILES DE LA MADELEINE A","7053250","2023-03-05 09:00","2023","03","05","09:00","-4.8","","-9.7","","69","","","","32","","45","","32.2","","99.89","","","","-14","","NA"
"-61.78","47.43","ILES DE LA MADELEINE A","7053250","2023-03-05 10:00","2023","03","05","10:00","-4.7","","-9.1","","71","","","","31","","41","","32.2","","99.82","","","","-14","","NA"
"-61.78","47.43","ILES DE LA MADELEINE A","7053250","2023-03-05 11:00","2023","03","05","11:00","-4.2","","-8.3","","73","","","","30","","40","","32.2","","99.73","","","","-13","","Cloudy"
"-61.78","47.43","ILES DE LA MADELEINE A","7053250","2023-03-05 12:00","2023","03","05","12:00","-4.2","","-8.2","","74","","","","31","","42","","24.1","","99.66","","","","-13","","NA"
"-61.78","47.43","ILES DE LA MADELEINE A","7053250","2023-03-05 13:00","2023","03","05","13:00","-4.3","","-8.0","","76","","","","30","","43","","24.1","","99.60","","","","-13","","NA"
"-61.78","47.43","ILES DE LA MADELEINE A","7053250","2023-03-05 14:00","2023","03","05","14:00","-4.4","","-8.1","","76","","","","31","","46","","24.1","","99.55","","","","-14","","Cloudy"
"-61.78","47.43","ILES DE LA MADELEINE A","7053250","2023-03-05 15:00","2023","03","05","15:00","-4.5","","-8.3","","75","","","","31","","50","","24.1","","99.46","","","","-14","","Blowing Snow"
"-61.78","47.43","ILES DE LA MADELEINE A","7053250","2023-03-05 16:00","2023","03","05","16:00","-4.3","","-8.0","","76","","","","30","","48","","24.1","","99.41","","","","-14","","Blowing Snow"
"-61.78","47.43","ILES DE LA MADELEINE A","7053250","2023-03-05 17:00","2023","03","05","17:00","-4.0","","-6.5","","83","","","","31","","49","","11.3","","99.33","","","","-14","","Snow Showers,Blowing Snow"
"-61.78","47.43","ILES DE LA MADELEINE A","7053250","2023-03-05 18:00","2023","03","05","18:00","-3.8","","-5.3","","90","","","","31","","48","","2.4","","99.25","","","","-13","","Snow,Blowing Snow"
"-61.78","47.43","ILES DE LA MADELEINE A","7053250","2023-03-05 19:00","2023","03","05","19:00","-3.5","","-5.1","","89","","","","31","","49","","4.8","","99.17","","","","-13","","Snow,Blowing Snow"
"-61.78","47.43","ILES DE LA MADELEINE A","7053250","2023-03-05 20:00","2023","03","05","20:00","-3.3","","-4.7","","90","","","","31","","49","","3.2","","99.08","","","","-13","","Snow,Blowing Snow"
"-61.78","47.43","ILES DE LA MADELEINE A","7053250","2023-03-05 21:00","2023","03","05","21:00","-3.2","","-4.2","","93","","","","30","","46","","1.6","","98.93","","","","-12","","Snow,Blowing Snow"
"-61.78","47.43","ILES DE LA MADELEINE A","7053250","2023-03-05 22:00","2023","03","05","22:00","-3.2","","-4.2","","93","","","","31","","46","","1.6","","98.84","","","","-12","","Snow,Blowing Snow"
"-61.78","47.43","ILES DE LA MADELEINE A","7053250","2023-03-05 23:00","2023","03","05","23:00","-3.2","","-4.2","","93","","","","31","","45","","2.4","","98.75","","","","-12","","Snow,Blowing Snow"
"-61.78","47.43","ILES DE LA MADELEINE A","7053250","2023-03-06 00:00","2023","03","06","00:00"
"-61.78","47.43","ILES DE LA MADELEINE A","7053250","2023-03-06 01:00","2023","03","06","01:00"
"-61.78","47.43","ILES DE LA MADELEINE A","7053250","2023-03-06 02:00","2023","03","06","02:00"
"-61.78","47.43","ILES DE LA MADELEINE A","7053250","2023-03-06 03:00","2023","03","06","03:00"
"-61.78","47.43","ILES DE LA MADELEINE A","7053250","2023-03-06 04:00","2023","03","06","04:00"
"-61.78","47.43","ILES DE LA MADELEINE A","7053250","2023-03-06 05:00","2023","03","06","05:00"
"-61.78","47.43","ILES DE LA MADELEINE A","7053250","2023-03-06 06:00","2023","03","06","06:00","-2.9","","-3.6","","94","","","","34","","21","","24.1","","98.63","","","","-9","","Snow Showers"
"-61.78","47.43","ILES DE LA MADELEINE A","7053250","2023-03-06 07:00","2023","03","06","07:00","-2.5","","-3.9","","90","","","","34","","25","","24.1","","98.68","","","","-9","","Snow Showers"
"-61.78","47.43","ILES DE LA MADELEINE A","7053250","2023-03-06 08:00","2023","03","06","08:00","-2.3","","-3.8","","89","","","","32","","21","","24.1","","98.72","","","","-8","","Snow Showers"
"-61.78","47.43","ILES DE LA MADELEINE A","7053250","2023-03-06 09:00","2023","03","06","09:00","-2.1","","-3.5","","90","","","","32","","23","","24.1","","98.71","","","","-8","","Snow Showers"
"-61.78","47.43","ILES DE LA MADELEINE A","7053250","2023-03-06 10:00","2023","03","06","10:00","-1.2","","-2.6","","91","","","","31","","14","","24.1","","98.78","","","","-6","","Snow"
"-61.78","47.43","ILES DE LA MADELEINE A","7053250","2023-03-06 11:00","2023","03","06","11:00","-1.0","","-2.2","","92","","","","24","","8","","24.1","","98.78","","","","-4","","Snow"
"-61.78","47.43","ILES DE LA MADELEINE A","7053250","2023-03-06 12:00","2023","03","06","12:00","-0.4","","-2.7","","85","","","","9","","10","","24.1","","98.79","","","","-4","","Snow"
"-61.78","47.43","ILES DE LA MADELEINE A","7053250","2023-03-06 13:00","2023","03","06","13:00","-1.0","","-2.8","","88","","","","7","","20","","24.1","","98.88","","","","-7","","NA"
"-61.78","47.43","ILES DE LA MADELEINE A","7053250","2023-03-06 14:00","2023","03","06","14:00","-1.0","","-3.8","","82","","","","5","","19","","24.1","","98.92","","","","-6","","Mostly Cloudy"
"-61.78","47.43","ILES DE LA MADELEINE A","7053250","2023-03-06 15:00","2023","03","06","15:00","-1.5","","-2.6","","92","","","","7","","12","","4.8","","98.98","","","","-6","","Snow"
"-61.78","47.43","ILES DE LA MADELEINE A","7053250","2023-03-06 16:00","2023","03","06","16:00","-1.6","","-2.6","","93","","","","5","","20","","11.3","","99.07","","","","-7","","Snow"
"-61.78","47.43","ILES DE LA MADELEINE A","7053250","2023-03-06 17:00","2023","03","06","17:00","-1.4","","-2.6","","91","","","","5","","22","","24.1","","99.15","","","","-7","","Snow Showers"
"-61.78","47.43","ILES DE LA MADELEINE A","7053250","2023-03-06 18:00","2023","03","06","18:00","-1.5","","-2.6","","92","","","","5","","22","","24.1","","99.22","","","","-7","","NA"
"-61.78","47.43","ILES DE LA MADELEINE A","7053250","2023-03-06 19:00","2023","03","06","19:00","-1.6","","-2.5","","93","","","","3","","19","","24.1","","99.29","","","","-7","","NA"
"-61.78","47.43","ILES DE LA MADELEINE A","7053250","2023-03-06 20:00","2023","03","06","20:00","-1.7","","-2.6","","93","","","","4","","18","","16.1","","99.34","","","","-7","","Snow"
"-61.78","47.43","ILES DE LA MADELEINE A","7053250","2023-03-06 21:00","2023","03","06","21:00","-1.9","","-2.5","","96","","","","4","","15","","24.1","","99.39","","","","-7","","Snow"
"-61.78","47.43","ILES DE LA MADELEINE A","7053250","2023-03-06 22:00","2023","03","06","22:00","-1.6","","-2.0","","97","","","","4","","21","","16.1","","99.42","","","","-7","","Snow"
"-61.78","47.43","ILES DE LA MADELEINE A","7053250","2023-03-06 23:00","2023","03","06","23:00","-1.6","","-2.1","","97","","","","4","","14","","24.1","","99.48","","","","-6","","Snow"
"-61.78","47.43","ILES DE LA MADELEINE A","7053250","2023-03-07 00:00","2023","03","07","00:00"
"-61.78","47.43","ILES DE LA MADELEINE A","7053250","2023-03-07 01:00","2023","03","07","01:00"
"-61.78","47.43","ILES DE LA MADELEINE A","7053250","2023-03-07 02:00","2023","03","07","02:00"
"-61.78","47.43","ILES DE LA MADELEINE A","7053250","2023-03-07 03:00","2023","03","07","03:00"
"-61.78","47.43","ILES DE LA MADELEINE A","7053250","2023-03-07 04:00","2023","03","07","04:00"
"-61.78","47.43","ILES DE LA MADELEINE A","7053250","2023-03-07 05:00","2023","03","07","05:00"
"-61.78","47.43","ILES DE LA MADELEINE A","7053250","2023-03-07 06:00","2023","03","07","06:00","-4.5","","-5.2","","95","","","","3","","12","","24.1","","99.84","","","","-9","","NA"
"-61.78","47.43","ILES DE LA MADELEINE A","7053250","2023-03-07 07:00","2023","03","07","07:00","-2.8","","-3.8","","93","","","","3","","13","","32.2","","99.93","","","","-7","","NA"
"-61.78","47.43","ILES DE LA MADELEINE A","7053250","2023-03-07 08:00","2023","03","07","08:00","-2.2","","-3.6","","91","","","","3","","12","","32.2","","99.99","","","","-6","","Mostly Cloudy"
"-61.78","47.43","ILES DE LA MADELEINE A","7053250","2023-03-07 09:00","2023","03","07","09:00","-1.0","","-2.8","","87","","","","5","","16","","32.2","","100.05","","","","-6","","NA"
"-61.78","47.43","ILES DE LA MADELEINE A","7053250","2023-03-07 10:00","2023","03","07","10:00","0.0","","-3.0","","81","","","","6","","22","","32.2","","100.08","","","","-6","","NA"
"-61.78","47.43","ILES DE LA MADELEINE A","7053250","2023-03-07 11:00","2023","03","07","11:00","0.3","","-3.0","","78","","","","6","","23","","32.2","","100.13","","","","","","Mostly Cloudy"
"-61.78","47.43","ILES DE LA MADELEINE A","7053250","2023-03-07 12:00","2023","03","07","12:00","0.4","","-3.2","","77","","","","5","","23","","32.2","","100.16","","","","","","NA"
"-61.78","47.43","ILES DE LA MADELEINE A","7053250","2023-03-07 13:00","2023","03","07","13:00","0.2","","-3.7","","75","","","","5","","28","","32.2","","100.16","","","","","","NA"
"-61.78","47.43","ILES DE LA MADELEINE A","7053250","2023-03-07 14:00","2023","03","07","14:00","0.0","","-3.3","","78","","","","4","","25","","32.2","","100.24","","","","-6","","Mostly Cloudy"
"-61.78","47.43","ILES DE LA MADELEINE A","7053250","2023-03-07 15:00","2023","03","07","15:00","-0.1","","-3.3","","79","","","","4","","27","","32.2","","100.29","","","","-6","","NA"
"-61.78","47.43","ILES DE LA MADELEINE A","7053250","2023-03-07 16:00","2023","03","07","16:00","-0.7","","-3.2","","83","","","","4","","22","","32.2","","100.33","","","","-6","","NA"
"-61.78","47.43","ILES DE LA MADELEINE A","7053250","2023-03-07 17:00","2023","03","07","17:00","-1.4","","-2.9","","90","","","","3","","23","","8.1","","100.36","","","","-7","","Snow"
"-61.78","47.43","ILES DE LA MADELEINE A","7053250","2023-03-07 18:00","2023","03","07","18:00","-1.9","","-2.7","","94","","","","2","","32","","2.4","","100.37","","","","-9","","Snow"
"-61.78","47.43","ILES DE LA MADELEINE A","7053250","2023-03-07 19:00","2023","03","07","19:00","-2.0","","-2.8","","95","","","","36","","18","","4.0","","100.35","","","","-7","","Snow"
"-61.78","47.43","ILES DE LA MADELEINE A","7053250","2023-03-07 20:00","2023","03","07","20:00","-1.6","","-2.0","","97","","","","35","","26","","4.0","","100.32","","","","-8","","Snow"
"-61.78","47.43","ILES DE LA MADELEINE A","7053250","2023-03-07 21:00","2023","03","07","21:00","-1.0","","-1.2","","98","","","","1","","22","","1.0","","100.30","","","","-7","","Snow,Fog"
"-61.78","47.43","ILES DE LA MADELEINE A","7053250","2023-03-07 22:00","2023","03","07","22:00","0.1","","-0.2","","98","","","","4","","27","","11.3","","100.29","","","","","","NA"
"-61.78","47.43","ILES DE LA MADELEINE A","7053250","2023-03-07 23:00","2023","03","07","23:00","0.4","","-0.4","","94","","","","4","","31","","16.1","","100.33","","","","","","Cloudy"
"-61.78","47.43","ILES DE LA MADELEINE A","7053250","2023-03-08 00:00","2023","03","08","00:00"
"-61.78","47.43","ILES DE LA MADELEINE A","7053250","2023-03-08 01:00","2023","03","08","01:00"
"-61.78","47.43","ILES DE LA MADELEINE A","7053250","2023-03-08 02:00","2023","03","08","02:00"
"-61.78","47.43","ILES DE LA MADELEINE A","7053250","2023-03-08 03:00","2023","03","08","03:00"
"-61.78","47.43","ILES DE LA MADELEINE A","7053250","2023-03-08 04:00","2023","03","08","04:00"
"-61.78","47.43","ILES DE LA MADELEINE A","7053250","2023-03-08 05:00","2023","03","08","05:00"
"-61.78","47.43","ILES DE LA MADELEINE A","7053250","2023-03-08 06:00","2023","03","08","06:00","0.2","","-1.2","","90","","","","4","","44","","24.1","","100.70","","","","","","NA"
"-61.78","47.43","ILES DE LA MADELEINE A","7053250","2023-03-08 07:00","2023","03","08","07:00","0.2","","-1.2","","90","","","","3","","43","","24.1","","100.75","","","","","","NA"
"-61.78","47.43","ILES DE LA MADELEINE A","7053250","2023-03-08 08:00","2023","03","08","08:00","0.5","","-0.9","","90","","","","3","","43","","19.3","","100.79","","","","","","Cloudy"
"-61.78","47.43","ILES DE LA MADELEINE A","7053250","2023-03-08 09:00","2023","03","08","09:00","0.6","","-0.9","","89","","","","4","","48","","19.3","","100.83","","","","","","NA"
"-61.78","47.43","ILES DE LA MADELEINE A","7053250","2023-03-08 10:00","2023","03","08","10:00","0.9","","-0.9","","88","","","","3","","46","","19.3","","100.87","","","","","","NA"
"-61.78","47.43","ILES DE LA MADELEINE A","7053250","2023-03-08 11:00","2023","03","08","11:00","0.8","","-1.0","","88","","","","3","","43","","12.9","","100.93","","","","","","Cloudy"
"-61.78","47.43","ILES DE LA MADELEINE A","7053250","2023-03-08 12:00","2023","03","08","12:00","1.0","","-1.1","","86","","","","3","","41","","19.3","","100.95","","","","","","NA"
"-61.78","47.43","ILES DE LA MADELEINE A","7053250","2023-03-08 13:00","2023","03","08","13:00","0.9","","-1.2","","86","","","","2","","40","","16.1","","100.93","","","","","","NA"
"-61.78","47.43","ILES DE LA MADELEINE A","7053250","2023-03-08 14:00","2023","03","08","14:00","0.9","","-1.8","","82","","","","2","","40","","24.1","","100.92","","","","","","Mostly Cloudy"
"-61.78","47.43","ILES DE LA MADELEINE A","7053250","2023-03-08 15:00","2023","03","08","15:00","0.7","","-2.1","","82","","","","2","","39","","24.1","","100.94","","","","","","NA"
"-61.78","47.43","ILES DE LA MADELEINE A","7053250","2023-03-08 16:00","2023","03","08","16:00","0.6","","-2.0","","83","","","","2","","39","","24.1","","100.94","","","","","","NA"
"-61.78","47.43","ILES DE LA MADELEINE A","7053250","2023-03-08 17:00","2023","03","08","17:00","0.5","","-2.7","","79","","","","3","","43","","24.1","","100.93","","","","","","Clear"
"-61.78","47.43","ILES DE LA MADELEINE A","7053250","2023-03-08 18:00","2023","03","08","18:00","-0.5","","-2.5","","86","","","","1","","32","","24.1","","100.97","","","","-7","","NA"
"-61.78","47.43","ILES DE LA MADELEINE A","7053250","2023-03-08 19:00","2023","03","08","19:00","-0.6","","-2.6","","86","","","","1","","31","","24.1","","101.00","","","","-7","","NA"
"-61.78","47.43","ILES DE LA MADELEINE A","7053250","2023-03-08 20:00","2023","03","08","20:00","-0.5","","-2.7","","85","","","","1","","30","","24.1","","100.97","","","","-7","","Mainly Clear"
"-61.78","47.43","ILES DE LA MADELEINE A","7053250","2023-03-08 21:00","2023","03","08","21:00","-0.4","","-2.9","","84","","","","1","","32","","24.1","","100.94","","","","-7","","NA"
"-61.78","47.43","ILES DE LA MADELEINE A","7053250","2023-03-08 22:00","2023","03","08","22:00","-0.5","","-2.2","","88","","","","1","","30","","24.1","","100.94","","","","-7","","NA"
"-61.78","47.43","ILES DE LA MADELEINE A","7053250","2023-03-08 23:00","2023","03","08","23:00","0.2","","-1.4","","89","","","","2","","34","","24.1","","100.94","","","","","","Mostly Cloudy"
"-61.78","47.43","ILES DE LA MADELEINE A","7053250","2023-03-09 00:00","2023","03","09","00:00"
"-61.78","47.43","ILES DE LA MADELEINE A","7053250","2023-03-09 01:00","2023","03","09","01:00"
"-61.78","47.43","ILES DE LA MADELEINE A","7053250","2023-03-09 02:00","2023","03","09","02:00"
"-61.78","47.43","ILES DE LA MADELEINE A","7053250","2023-03-09 03:00","2023","03","09","03:00"
"-61.78","47.43","ILES DE LA MADELEINE A","7053250","2023-03-09 04:00","2023","03","09","04:00"
"-61.78","47.43","ILES DE LA MADELEINE A","7053250","2023-03-09 05:00","2023","03","09","05:00"
"-61.78","47.43","ILES DE LA MADELEINE A","7053250","2023-03-09 06:00","2023","03","09","06:00","-0.6","","-3.0","","84","","","","3","","43","","12.9","","101.06","","","","-8","","NA"
"-61.78","47.43","ILES DE LA MADELEINE A","7053250","2023-03-09 07:00","2023","03","09","07:00","-0.8","","-3.2","","84","","","","3","","35","","9.7","","101.10","","","","-8","","Fog"
"-61.78","47.43","ILES DE LA MADELEINE A","7053250","2023-03-09 08:00","2023","03","09","08:00","-0.5","","-2.8","","84","","","","2","","38","","12.9","","101.15","","","","-8","","Mostly Cloudy"
"-61.78","47.43","ILES DE LA MADELEINE A","7053250","2023-03-09 09:00","2023","03","09","09:00","-0.1","","-2.5","","84","","","","2","","42","","16.1","","101.19","","","","-8","","NA"
"-61.78","47.43","ILES DE LA MADELEINE A","7053250","2023-03-09 10:00","2023","03","09","10:00","0.1","","-2.4","","84","","","","2","","39","","12.9","","101.23","","","","","","NA"
"-61.78","47.43","ILES DE LA MADELEINE A","7053250","2023-03-09 11:00","2023","03","09","11:00","0.5","","-2.4","","81","","","","2","","43","","16.1","","101.23","","","","","","Mainly Clear"
"-61.78","47.43","ILES DE LA MADELEINE A","7053250","2023-03-09 12:00","2023","03","09","12:00","0.4","","-2.8","","79","","","","1","","42","","19.3","","101.23","","","","","","NA"
"-61.78","47.43","ILES DE LA MADELEINE A","7053250","2023-03-09 13:00","2023","03","09","13:00","0.7","","-2.8","","78","","","","1","","34","","16.1","","101.19","","","","","","NA"
"-61.78","47.43","ILES DE LA MADELEINE A","7053250","2023-03-09 14:00","2023","03","09","14:00","0.7","","-2.9","","77","","","","1","","33","","24.1","","101.16","","","","","","Mainly Clear"
"-61.78","47.43","ILES DE LA MADELEINE A","7053250","2023-03-09 15:00","2023","03","09","15:00","0.4","","-2.9","","79","","","","36","","28","","24.1","","101.17","","","","","","NA"
"-61.78","47.43","ILES DE LA MADELEINE A","7053250","2023-03-09 16:00","2023","03","09","16:00","0.2","","-2.7","","81","","","","35","","23","","24.1","","101.16","","","","","","NA"
"-61.78","47.43","ILES DE LA MADELEINE A","7053250","2023-03-09 17:00","2023","03","09","17:00","-0.3","","-2.9","","83","","","","34","","27","","24.1","","101.09","","","","-7","","Mainly Clear"
"-61.78","47.43","ILES DE LA MADELEINE A","7053250","2023-03-09 18:00","2023","03","09","18:00","-1.1","","-3.1","","86","","","","32","","24","","24.1","","101.09","","","","-7","","NA"
"-61.78","47.43","ILES DE LA MADELEINE A","7053250","2023-03-09 19:00","2023","03","09","19:00","-1.2","","-3.1","","87","","","","33","","30","","24.1","","101.05","","","","-8","","NA"
"-61.78","47.43","ILES DE LA MADELEINE A","7053250","2023-03-09 20:00","2023","03","09","20:00","-1.1","","-4.0","","81","","","","33","","32","","24.1","","100.97","","","","-8","","Mainly Clear"
"-61.78","47.43","ILES DE LA MADELEINE A","7053250","2023-03-09 21:00","2023","03","09","21:00","-1.2","","-4.0","","81","","","","32","","21","","24.1","","100.92","","","","-7","","NA"
"-61.78","47.43","ILES DE LA MADELEINE A","7053250","2023-03-09 22:00","2023","03","09","22:00","-1.4","","-3.6","","85","","","","31","","23","","24.1","","100.84","","","","-7","","NA"
"-61.78","47.43","ILES DE LA MADELEINE A","7053250","2023-03-09 23:00","2023","03","09","23:00","-1.4","","-3.4","","86","","","","31","","24","","24.1","","100.76","","","","-8","","Mainly Clear"
"-61.78","47.43","ILES DE LA MADELEINE A","7053250","2023-03-10 00:00","2023","03","10","00:00"
"-61.78","47.43","ILES DE LA MADELEINE A","7053250","2023-03-10 01:00","2023","03","10","01:00"
"-61.78","47.43","ILES DE LA MADELEINE A","7053250","2023-03-10 02:00","2023","03","10","02:00"
"-61.78","47.43","ILES DE LA MADELEINE A","7053250","2023-03-10 03:00","2023","03","10","03:00"
"-61.78","47.43","ILES DE LA MADELEINE A","7053250","2023-03-10 04:00","2023","03","10","04:00"
"-61.78","47.43","ILES DE LA MADELEINE A","7053250","2023-03-10 05:00","2023","03","10","05:00"
"-61.78","47.43","ILES DE LA MADELEINE A","7053250","2023-03-10 06:00","2023","03","10","06:00","-1.1","","-2.8","","88","","","","36","","20","","24.1","","100.62","","","","-7","","NA"
"-61.78","47.43","ILES DE LA MADELEINE A","7053250","2023-03-10 07:00","2023","03","10","07:00","-1.1","","-4.2","","79","","","","1","","23","","32.2","","100.64","","","","-7","","NA"
"-61.78","47.43","ILES DE LA MADELEINE A","7053250","2023-03-10 08:00","2023","03","10","08:00","-0.9","","-4.3","","78","","","","1","","26","","32.2","","100.68","","","","-7","","Mostly Cloudy"
"-61.78","47.43","ILES DE LA MADELEINE A","7053250","2023-03-10 09:00","2023","03","10","09:00","-0.7","","-4.2","","77","","","","1","","31","","32.2","","100.65","","","","-7","","NA"
"-61.78","47.43","ILES DE LA MADELEINE A","7053250","2023-03-10 10:00","2023","03","10","10:00","-0.8","","-4.0","","79","","","","36","","34","","9.7","","100.65","","","","-8","","Snow Showers"
"-61.78","47.43","ILES DE LA MADELEINE A","7053250","2023-03-10 11:00","2023","03","10","11:00","-0.8","","-3.6","","81","","","","35","","30","","19.3","","100.66","","","","-8","","Snow Showers"
"-61.78","47.43","ILES DE LA MADELEINE A","7053250","2023-03-10 12:00","2023","03","10","12:00","-0.6","","-3.9","","78","","","","36","","28","","24.1","","100.67","","","","-7","","NA"
"-61.78","47.43","ILES DE LA MADELEINE A","7053250","2023-03-10 13:00","2023","03","10","13:00","-0.9","","-3.8","","81","","","","35","","29","","32.2","","100.70","","","","-8","","Snow Showers"
"-61.78","47.43","ILES DE LA MADELEINE A","7053250","2023-03-10 14:00","2023","03","10","14:00","-0.4","","-3.7","","78","","","","35","","32","","32.2","","100.69","","","","-7","","Mostly Cloudy"
"-61.78","47.43","ILES DE LA MADELEINE A","7053250","2023-03-10 15:00","2023","03","10","15:00","-1.0","","-3.9","","81","","","","35","","27","","32.2","","100.71","","","","-7","","NA"
"-61.78","47.43","ILES DE LA MADELEINE A","7053250","2023-03-10 16:00","2023","03","10","16:00","-1.0","","-3.9","","81","","","","35","","31","","32.2","","100.71","","","","-8","","NA"
"-61.78","47.43","ILES DE LA MADELEINE A","7053250","2023-03-10 17:00","2023","03","10","17:00","-1.2","","-3.5","","84","","","","34","","25","","32.2","","100.75","","","","-7","","Mostly Cloudy"
"-61.78","47.43","ILES DE LA MADELEINE A","7053250","2023-03-10 18:00","2023","03","10","18:00","-1.9","","-3.7","","87","","","","33","","23","","32.2","","100.76","","","","-8","","NA"
"-61.78","47.43","ILES DE LA MADELEINE A","7053250","2023-03-10 19:00","2023","03","10","19:00","-2.0","","-3.7","","88","","","","33","","24","","24.1","","100.77","","","","-8","","NA"
"-61.78","47.43","ILES DE LA MADELEINE A","7053250","2023-03-10 20:00","2023","03","10","20:00","-2.0","","-4.1","","85","","","","32","","19","","24.1","","100.78","","","","-8","","Clear"
"-61.78","47.43","ILES DE LA MADELEINE A","7053250","2023-03-10 21:00","2023","03","10","21:00","-1.9","","-3.9","","86","","","","33","","24","","24.1","","100.76","","","","-8","","NA"
"-61.78","47.43","ILES DE LA MADELEINE A","7053250","2023-03-10 22:00","2023","03","10","22:00","-2.0","","-3.7","","89","","","","33","","20","","24.1","","100.74","","","","-8","","NA"
"-61.78","47.43","ILES DE LA MADELEINE A","7053250","2023-03-10 23:00","2023","03","10","23:00","-2.0","","-3.5","","89","","","","33","","24","","24.1","","100.71","","","","-8","","Clear"
"-61.78","47.43","ILES DE LA MADELEINE A","7053250","2023-03-11 00:00","2023","03","11","00:00"
"-61.78","47.43","ILES DE LA MADELEINE A","7053250","2023-03-11 01:00","2023","03","11","01:00"
"-61.78","47.43","ILES DE LA MADELEINE A","7053250","2023-03-11 02:00","2023","03","11","02:00"
"-61.78","47.43","ILES DE LA MADELEINE A","7053250","2023-03-11 03:00","2023","03","11","03:00","-2.1","","-4.0","","87","","","","33","","23","","24.1","","100.73","","","","-8","","NA"
"-61.78","47.43","ILES DE LA MADELEINE A","7053250","2023-03-11 04:00","2023","03","11","04:00"
"-61.78","47.43","ILES DE LA MADELEINE A","7053250","2023-03-11 05:00","2023","03","11","05:00"
"-61.78","47.43","ILES DE LA MADELEINE A","7053250","2023-03-11 06:00","2023","03","11","06:00","-2.3","","-4.6","","84","","","","36","","26","","24.1","","100.81","","","","-9","","NA"
"-61.78","47.43","ILES DE LA MADELEINE A","7053250","2023-03-11 07:00","2023","03","11","07:00","-1.7","","-4.0","","84","","","","35","","27","","32.2","","100.85","","","","-8","","NA"
"-61.78","47.43","ILES DE LA MADELEINE A","7053250","2023-03-11 08:00","2023","03","11","08:00","-1.3","","-3.3","","86","","","","36","","24","","32.2","","100.89","","","","-7","","Mostly Cloudy"
"-61.78","47.43","ILES DE LA MADELEINE A","7053250","2023-03-11 09:00","2023","03","11","09:00","-0.5","","-3.2","","82","","","","36","","30","","32.2","","100.91","","","","-7","","NA"
"-61.78","47.43","ILES DE LA MADELEINE A","7053250","2023-03-11 10:00","2023","03","11","10:00","-0.1","","-3.0","","81","","","","36","","30","","32.2","","100.92","","","","-7","","NA"
"-61.78","47.43","ILES DE LA MADELEINE A","7053250","2023-03-11 11:00","2023","03","11","11:00","0.1","","-2.5","","83","","","","1","","21","","32.2","","100.95","","","","","","Mostly Cloudy"
"-61.78","47.43","ILES DE LA MADELEINE A","7053250","2023-03-11 12:00","2023","03","11","12:00","0.4","","-2.6","","80","","","","1","","25","","32.2","","100.97","","","","","","NA"
"-61.78","47.43","ILES DE LA MADELEINE A","7053250","2023-03-11 13:00","2023","03","11","13:00","0.4","","-2.9","","79","","","","1","","27","","32.2","","101.00","","","","","","NA"
"-61.78","47.43","ILES DE LA MADELEINE A","7053250","2023-03-11 14:00","2023","03","11","14:00","1.0","","-2.3","","79","","","","1","","26","","32.2","","101.04","","","","","","Mostly Cloudy"
"-61.78","47.43","ILES DE LA MADELEINE A","7053250","2023-03-11 15:00","2023","03","11","15:00","0.6","","-2.3","","81","","","","2","","29","","32.2","","101.06","","","","","","NA"
"-61.78","47.43","ILES DE LA MADELEINE A","7053250","2023-03-11 16:00","2023","03","11","16:00","0.4","","-2.5","","81","","","","1","","30","","32.2","","101.09","","","","","","NA"
"-61.78","47.43","ILES DE LA MADELEINE A","7053250","2023-03-11 17:00","2023","03","11","17:00","0.0","","-2.8","","82","","","","2","","32","","32.2","","101.10","","","","-7","","Mainly Clear"
"-61.78","47.43","ILES DE LA MADELEINE A","7053250","2023-03-11 18:00","2023","03","11","18:00","0.0","","-3.2","","79","","","","1","","27","","32.2","","101.19","","","","-6","","NA"
"-61.78","47.43","ILES DE LA MADELEINE A","7053250","2023-03-11 19:00","2023","03","11","19:00","-0.5","","-3.0","","83","","","","1","","27","","24.1","","101.23","","","","-7","","NA"
"-61.78","47.43","ILES DE LA MADELEINE A","7053250","2023-03-11 20:00","2023","03","11","20:00","-0.6","","-2.9","","85","","","","2","","26","","24.1","","101.27","","","","-7","","Mainly Clear"
"-61.78","47.43","ILES DE LA MADELEINE A","7053250","2023-03-11 21:00","2023","03","11","21:00","-0.6","","-3.0","","84","","","","2","","28","","24.1","","101.30","","","","-7","","NA"
"-61.78","47.43","ILES DE LA MADELEINE A","7053250","2023-03-11 22:00","2023","03","11","22:00","-0.7","","-3.2","","83","","","","2","","25","","24.1","","101.30","","","","-7","","NA"
"-61.78","47.43","ILES DE LA MADELEINE A","7053250","2023-03-11 23:00","2023","03","11","23:00","-1.0","","-3.2","","85","","","","2","","22","","24.1","","101.30","","","","-7","","Clear"
"-61.78","47.43","ILES DE LA MADELEINE A","7053250","2023-03-12 00:00","2023","03","12","00:00"
"-61.78","47.43","ILES DE LA MADELEINE A","7053250","2023-03-12 01:00","2023","03","12","01:00"
"-61.78","47.43","ILES DE LA MADELEINE A","7053250","2023-03-12 02:00","2023","03","12","02:00"
"-61.78","47.43","ILES DE LA MADELEINE A","7053250","2023-03-12 03:00","2023","03","12","03:00"
"-61.78","47.43","ILES DE LA MADELEINE A","7053250","2023-03-12 04:00","2023","03","12","04:00"
"-61.78","47.43","ILES DE LA MADELEINE A","7053250","2023-03-12 05:00","2023","03","12","05:00","-1.9","","-3.2","","91","","","","4","","16","","24.1","","101.42","","","","-7","","Clear"
"-61.78","47.43","ILES DE LA MADELEINE A","7053250","2023-03-12 06:00","2023","03","12","06:00","-2.2","","-3.3","","93","","","","3","","16","","24.1","","101.45","","","","-7","","NA"
"-61.78","47.43","ILES DE LA MADELEINE A","7053250","2023-03-12 07:00","2023","03","12","07:00","-2.0","","-3.1","","93","","","","4","","17","","32.2","","101.50","","","","-7","","NA"
"-61.78","47.43","ILES DE LA MADELEINE A","7053250","2023-03-12 08:00","2023","03","12","08:00","-0.2","","-2.0","","87","","","","3","","17","","32.2","","101.53","","","","-5","","Clear"
"-61.78","47.43","ILES DE LA MADELEINE A","7053250","2023-03-12 09:00","2023","03","12","09:00","0.7","","-1.5","","85","","","","4","","21","","32.2","","101.56","","","","","","NA"
"-61.78","47.43","ILES DE LA MADELEINE A","7053250","2023-03-12 10:00","2023","03","12","10:00","1.2","","-1.7","","81","","","","6","","18","","32.2","","101.57","","","","","","NA"
"-61.78","47.43","ILES DE LA MADELEINE A","7053250","2023-03-12 11:00","2023","03","12","11:00","1.3","","-2.2","","78","","","","5","","23","","32.2","","101.58","","","","","","Clear"
"-61.78","47.43","ILES DE LA MADELEINE A","7053250","2023-03-12 12:00","2023","03","12","12:00","1.6","","-1.7","","79","","","","4","","24","","32.2","","101.59","","","","","","NA"
"-61.78","47.43","ILES DE LA MADELEINE A","7053250","2023-03-12 13:00","2023","03","12","13:00","1.5","","-1.7","","79","","","","5","","22","","32.2","","101.56","","","","","","NA"
"-61.78","47.43","ILES DE LA MADELEINE A","7053250","2023-03-12 14:00","2023","03","12","14:00","1.2","","-2.3","","77","","","","5","","30","","32.2","","101.54","","","","","","Clear"
"-61.78","47.43","ILES DE LA MADELEINE A","7053250","2023-03-12 15:00","2023","03","12","15:00","1.3","","-2.3","","77","","","","6","","16","","32.2","","101.55","","","","","","NA"
"-61.78","47.43","ILES DE LA MADELEINE A","7053250","2023-03-12 16:00","2023","03","12","16:00","1.6","","-3.2","","71","","","","4","","18","","32.2","","101.57","","","","","","NA"
"-61.78","47.43","ILES DE LA MADELEINE A","7053250","2023-03-12 17:00","2023","03","12","17:00","0.0","","-1.8","","88","","","","1","","13","","32.2","","101.59","","","","-4","","Mainly Clear"
"-61.78","47.43","ILES DE LA MADELEINE A","7053250","2023-03-12 18:00","2023","03","12","18:00","-1.2","","-2.7","","90","","","","2","","11","","32.2","","101.63","","","","-5","","NA"
"-61.78","47.43","ILES DE LA MADELEINE A","7053250","2023-03-12 19:00","2023","03","12","19:00","-2.5","","-3.3","","94","","","","36","","10","","24.1","","101.70","","","","-6","","NA"
"-61.78","47.43","ILES DE LA MADELEINE A","7053250","2023-03-12 20:00","2023","03","12","20:00","-2.3","","-3.1","","95","","","","2","","9","","24.1","","101.76","","","","-6","","Clear"
"-61.78","47.43","ILES DE LA MADELEINE A","7053250","2023-03-12 21:00","2023","03","12","21:00","-2.8","","-3.4","","96","","","","4","","5","","24.1","","101.78","","","","-5","","NA"
"-61.78","47.43","ILES DE LA MADELEINE A","7053250","2023-03-12 22:00","2023","03","12","22:00","-2.7","","-3.2","","96","","","","2","","7","","24.1","","101.75","","","","-6","","NA"
"-61.78","47.43","ILES DE LA MADELEINE A","7053250","2023-03-12 23:00","2023","03","12","23:00"
"-61.78","47.43","ILES DE LA MADELEINE A","7053250","2023-03-13 00:00","2023","03","13","00:00"
"-61.78","47.43","ILES DE LA MADELEINE A","7053250","2023-03-13 01:00","2023","03","13","01:00"
"-61.78","47.43","ILES DE LA MADELEINE A","7053250","2023-03-13 02:00","2023","03","13","02:00"
"-61.78","47.43","ILES DE LA MADELEINE A","7053250","2023-03-13 03:00","2023","03","13","03:00"
"-61.78","47.43","ILES DE LA MADELEINE A","7053250","2023-03-13 04:00","2023","03","13","04:00"
"-61.78","47.43","ILES DE LA MADELEINE A","7053250","2023-03-13 05:00","2023","03","13","05:00","-4.0","","-4.3","","98","","","","2","","10","","24.1","","101.81","","","","-8","","Clear"
"-61.78","47.43","ILES DE LA MADELEINE A","7053250","2023-03-13 06:00","2023","03","13","06:00","-4.4","","-4.9","","96","","","","4","","7","","32.2","","101.85","","","","-8","","NA"
"-61.78","47.43","ILES DE LA MADELEINE A","7053250","2023-03-13 07:00","2023","03","13","07:00","-3.4","","-3.8","","97","","","","7","","9","","32.2","","101.88","","","","-7","","NA"
"-61.78","47.43","ILES DE LA MADELEINE A","7053250","2023-03-13 08:00","2023","03","13","08:00","-1.4","","-2.4","","93","","","","6","","9","","32.2","","101.94","","","","-5","","Clear"
"-61.78","47.43","ILES DE LA MADELEINE A","7053250","2023-03-13 09:00","2023","03","13","09:00","-0.6","","-2.6","","87","","","","6","","9","","32.2","","101.96","","","","-4","","NA"
"-61.78","47.43","ILES DE LA MADELEINE A","7053250","2023-03-13 10:00","2023","03","13","10:00","-0.3","","-3.4","","79","","","","3","","10","","32.2","","101.99","","","","-4","","NA"
"-61.78","47.43","ILES DE LA MADELEINE A","7053250","2023-03-13 11:00","2023","03","13","11:00","0.3","","-2.8","","80","","","","1","","7","","32.2","","102.00","","","","","","Mainly Clear"
"-61.78","47.43","ILES DE LA MADELEINE A","7053250","2023-03-13 12:00","2023","03","13","12:00","0.0","","-3.0","","80","","","","34","","11","","32.2","","101.98","","","","-4","","NA"
"-61.78","47.43","ILES DE LA MADELEINE A","7053250","2023-03-13 13:00","2023","03","13","13:00","0.4","","-2.8","","79","","","","3","","5","","32.2","","101.95","","","","","","NA"
"-61.78","47.43","ILES DE LA MADELEINE A","7053250","2023-03-13 14:00","2023","03","13","14:00","0.5","","-2.5","","80","","","","11","","10","","32.2","","101.92","","","","","","Mainly Clear"
"-61.78","47.43","ILES DE LA MADELEINE A","7053250","2023-03-13 15:00","2023","03","13","15:00","-0.2","","-3.0","","82","","","","31","","10","","32.2","","101.94","","","","-4","","NA"
"-61.78","47.43","ILES DE LA MADELEINE A","7053250","2023-03-13 16:00","2023","03","13","16:00","0.0","","-2.9","","81","","","","34","","4","","32.2","","101.91","","","","-1","","NA"
"-61.78","47.43","ILES DE LA MADELEINE A","7053250","2023-03-13 17:00","2023","03","13","17:00","-0.4","","-2.8","","84","","","","13","","7","","32.2","","101.92","","","","-3","","Mostly Cloudy"
"-61.78","47.43","ILES DE LA MADELEINE A","7053250","2023-03-13 18:00","2023","03","13","18:00","-1.3","","-3.1","","88","","","","15","","4","","32.2","","101.91","","","","-3","","NA"
"-61.78","47.43","ILES DE LA MADELEINE A","7053250","2023-03-13 19:00","2023","03","13","19:00","-2.3","","-3.9","","89","","","","28","","3","","24.1","","101.94","","","","-3","","NA"
"-61.78","47.43","ILES DE LA MADELEINE A","7053250","2023-03-13 20:00","2023","03","13","20:00","-3.0","","-4.5","","90","","","","14","","3","","24.1","","101.93","","","","-4","","Mainly Clear"
"-61.78","47.43","ILES DE LA MADELEINE A","7053250","2023-03-13 21:00","2023","03","13","21:00","-2.8","","-3.9","","92","","","","14","","3","","24.1","","101.95","","","","-4","","NA"
"-61.78","47.43","ILES DE LA MADELEINE A","7053250","2023-03-13 22:00","2023","03","13","22:00","-3.2","","-4.3","","92","","","","12","","3","","24.1","","101.92","","","","-4","","NA"
"-61.78","47.43","ILES DE LA MADELEINE A","7053250","2023-03-13 23:00","2023","03","13","23:00"
"-61.78","47.43","ILES DE LA MADELEINE A","7053250","2023-03-14 00:00","2023","03","14","00:00"
"-61.78","47.43","ILES DE LA MADELEINE A","7053250","2023-03-14 01:00","2023","03","14","01:00"
"-61.78","47.43","ILES DE LA MADELEINE A","7053250","2023-03-14 02:00","2023","03","14","02:00"
"-61.78","47.43","ILES DE LA MADELEINE A","7053250","2023-03-14 03:00","2023","03","14","03:00"
"-61.78","47.43","ILES DE LA MADELEINE A","7053250","2023-03-14 04:00","2023","03","14","04:00"
"-61.78","47.43","ILES DE LA MADELEINE A","7053250","2023-03-14 05:00","2023","03","14","05:00","-3.4","","-3.7","","98","","","","13","","9","","0.8","","101.79","","","","-7","","Freezing Fog"
"-61.78","47.43","ILES DE LA MADELEINE A","7053250","2023-03-14 06:00","2023","03","14","06:00","-3.8","","-4.1","","98","","","","16","","9","","4.8","","101.84","","","","-8","","Fog"
"-61.78","47.43","ILES DE LA MADELEINE A","7053250","2023-03-14 07:00","2023","03","14","07:00","-4.1","","-4.5","","97","","","","9","","4","","32.2","","101.85","","","","-6","","NA"
"-61.78","47.43","ILES DE LA MADELEINE A","7053250","2023-03-14 08:00","2023","03","14","08:00","-1.4","","-1.7","","97","","","","12","","8","","32.2","","101.83","","","","-4","","Mainly Clear"
"-61.78","47.43","ILES DE LA MADELEINE A","7053250","2023-03-14 09:00","2023","03","14","09:00","-0.7","","-1.5","","94","","","","13","","18","","32.2","","101.81","","","","-6","","NA"
"-61.78","47.43","ILES DE LA MADELEINE A","7053250","2023-03-14 10:00","2023","03","14","10:00","-0.5","","-2.0","","90","","","","14","","19","","32.2","","101.82","","","","-6","","NA"
"-61.78","47.43","ILES DE LA MADELEINE A","7053250","2023-03-14 11:00","2023","03","14","11:00","0.4","","-1.7","","86","","","","13","","13","","32.2","","101.76","","","","","","Mainly Clear"
"-61.78","47.43","ILES DE LA MADELEINE A","7053250","2023-03-14 12:00","2023","03","14","12:00","0.2","","-2.3","","84","","","","10","","21","","32.2","","101.73","","","","","","NA"
"-61.78","47.43","ILES DE LA MADELEINE A","7053250","2023-03-14 13:00","2023","03","14","13:00","0.7","","-2.5","","79","","","","10","","22","","32.2","","101.67","","","","","","NA"
"-61.78","47.43","ILES DE LA MADELEINE A","7053250","2023-03-14 14:00","2023","03","14","14:00","0.6","","-2.9","","77","","","","8","","22","","32.2","","101.57","","","","","","Mostly Cloudy"
"-61.78","47.43","ILES DE LA MADELEINE A","7053250","2023-03-14 15:00","2023","03","14","15:00","0.9","","-2.3","","79","","","","10","","22","","32.2","","101.51","","","","","","NA"
"-61.78","47.43","ILES DE LA MADELEINE A","7053250","2023-03-14 16:00","2023","03","14","16:00","0.2","","-2.5","","82","","","","11","","27","","32.2","","101.45","","","","","","NA"
"-61.78","47.43","ILES DE LA MADELEINE A","7053250","2023-03-14 17:00","2023","03","14","17:00","-0.3","","-3.2","","81","","","","11","","33","","32.2","","101.35","","","","-7","","Mostly Cloudy"
"-61.78","47.43","ILES DE LA MADELEINE A","7053250","2023-03-14 18:00","2023","03","14","18:00","-0.4","","-3.1","","82","","","","11","","33","","32.2","","101.34","","","","-7","","NA"
"-61.78","47.43","ILES DE LA MADELEINE A","7053250","2023-03-14 19:00","2023","03","14","19:00","-0.4","","-2.4","","87","","","","11","","38","","24.1","","101.31","","","","-8","","NA"
"-61.78","47.43","ILES DE LA MADELEINE A","7053250","2023-03-14 20:00","2023","03","14","20:00","-0.5","","-2.4","","87","","","","10","","35","","24.1","","101.24","","","","-8","","Cloudy"
"-61.78","47.43","ILES DE LA MADELEINE A","7053250","2023-03-14 21:00","2023","03","14","21:00","-0.4","","-2.8","","84","","","","10","","44","","24.1","","101.10","","","","-8","","NA"
"-61.78","47.43","ILES DE LA MADELEINE A","7053250","2023-03-14 22:00","2023","03","14","22:00","-0.5","","-2.8","","84","","","","9","","43","","24.1","","101.03","","","","-8","","NA"
"-61.78","47.43","ILES DE LA MADELEINE A","7053250","2023-03-14 23:00","2023","03","14","23:00"
"-61.78","47.43","ILES DE LA MADELEINE A","7053250","2023-03-15 00:00","2023","03","15","00:00"
"-61.78","47.43","ILES DE LA MADELEINE A","7053250","2023-03-15 01:00","2023","03","15","01:00"
"-61.78","47.43","ILES DE LA MADELEINE A","7053250","2023-03-15 02:00","2023","03","15","02:00"
"-61.78","47.43","ILES DE LA MADELEINE A","7053250","2023-03-15 03:00","2023","03","15","03:00"
"-61.78","47.43","ILES DE LA MADELEINE A","7053250","2023-03-15 04:00","2023","03","15","04:00"
"-61.78","47.43","ILES DE LA MADELEINE A","7053250","2023-03-15 05:00","2023","03","15","05:00","-0.6","","-2.5","","87","","","","10","","54","","2.8","","100.37","","","","-9","","Snow,Blowing Snow"
"-61.78","47.43","ILES DE LA MADELEINE A","7053250","2023-03-15 06:00","2023","03","15","06:00","-0.9","","-2.2","","91","","","","10","","57","","2.8","","100.33","","","","-10","","Snow,Blowing Snow"
"-61.78","47.43","ILES DE LA MADELEINE A","7053250","2023-03-15 07:00","2023","03","15","07:00","-1.1","","-1.8","","95","","","","10","","45","","0.6","","100.29","","","","-9","","Snow,Blowing Snow"
"-61.78","47.43","ILES DE LA MADELEINE A","7053250","2023-03-15 08:00","2023","03","15","08:00","-1.0","","-1.7","","95","","","","10","","54","","1.2","","100.26","","","","-10","","Snow,Blowing Snow"
"-61.78","47.43","ILES DE LA MADELEINE A","7053250","2023-03-15 09:00","2023","03","15","09:00","-0.8","","-1.9","","92","","","","10","","50","","2.8","","100.26","","","","-9","","Snow,Blowing Snow"
"-61.78","47.43","ILES DE LA MADELEINE A","7053250","2023-03-15 10:00","2023","03","15","10:00","-0.7","","-2.2","","89","","","","9","","55","","4.0","","100.25","","","","-9","","Snow,Blowing Snow"
"-61.78","47.43","ILES DE LA MADELEINE A","7053250","2023-03-15 11:00","2023","03","15","11:00","-0.7","","-2.2","","89","","","","9","","49","","4.8","","100.23","","","","-9","","Snow,Blowing Snow"
"-61.78","47.43","ILES DE LA MADELEINE A","7053250","2023-03-15 12:00","2023","03","15","12:00","-0.7","","-2.2","","90","","","","9","","47","","4.8","","100.18","","","","-9","","Snow"
"-61.78","47.43","ILES DE LA MADELEINE A","7053250","2023-03-15 13:00","2023","03","15","13:00","-1.0","","-2.3","","91","","","","9","","48","","4.0","","100.15","","","","-9","","Snow"
"-61.78","47.43","ILES DE LA MADELEINE A","7053250","2023-03-15 14:00","2023","03","15","14:00","-0.6","","-2.0","","90","","","","9","","46","","4.8","","100.05","","","","-9","","Snow"
"-61.78","47.43","ILES DE LA MADELEINE A","7053250","2023-03-15 15:00","2023","03","15","15:00","-0.5","","-1.9","","90","","","","8","","36","","4.8","","100.05","","","","-8","","Snow"
"-61.78","47.43","ILES DE LA MADELEINE A","7053250","2023-03-15 16:00","2023","03","15","16:00","-0.8","","-2.3","","89","","","","9","","50","","9.7","","100.05","","","","-9","","Snow"
"-61.78","47.43","ILES DE LA MADELEINE A","7053250","2023-03-15 17:00","2023","03","15","17:00","-1.3","","-2.1","","94","","","","7","","36","","3.2","","100.04","","","","-9","","Snow,Blowing Snow"
"-61.78","47.43","ILES DE LA MADELEINE A","7053250","2023-03-15 18:00","2023","03","15","18:00","-1.5","","-2.1","","95","","","","7","","36","","2.4","","100.02","","","","-9","","Snow,Blowing Snow"
"-61.78","47.43","ILES DE LA MADELEINE A","7053250","2023-03-15 19:00","2023","03","15","19:00","-1.5","","-2.0","","96","","","","6","","38","","2.4","","100.03","","","","-9","","Snow,Blowing Snow"
"-61.78","47.43","ILES DE LA MADELEINE A","7053250","2023-03-15 20:00","2023","03","15","20:00","-1.2","","-2.3","","93","","","","6","","48","","3.2","","100.01","","","","-10","","Snow,Blowing Snow"
"-61.78","47.43","ILES DE LA MADELEINE A","7053250","2023-03-15 21:00","2023","03","15","21:00","-1.1","","-2.0","","93","","","","6","","37","","8.1","","100.01","","","","-9","","Snow,Blowing Snow"
"-61.78","47.43","ILES DE LA MADELEINE A","7053250","2023-03-15 22:00","2023","03","15","22:00","-1.4","","-2.1","","95","","","","5","","36","","6.4","","99.96","","","","-9","","Snow,Blowing Snow"
"-61.78","47.43","ILES DE LA MADELEINE A","7053250","2023-03-15 23:00","2023","03","15","23:00"
"-61.78","47.43","ILES DE LA MADELEINE A","7053250","2023-03-16 00:00","2023","03","16","00:00"
"-61.78","47.43","ILES DE LA MADELEINE A","7053250","2023-03-16 01:00","2023","03","16","01:00"
"-61.78","47.43","ILES DE LA MADELEINE A","7053250","2023-03-16 02:00","2023","03","16","02:00"
"-61.78","47.43","ILES DE LA MADELEINE A","7053250","2023-03-16 03:00","2023","03","16","03:00"
"-61.78","47.43","ILES DE LA MADELEINE A","7053250","2023-03-16 04:00","2023","03","16","04:00"
"-61.78","47.43","ILES DE LA MADELEINE A","7053250","2023-03-16 05:00","2023","03","16","05:00","-1.3","","-2.5","","92","","","","4","","34","","24.1","","99.78","","","","-9","","Snow"
"-61.78","47.43","ILES DE LA MADELEINE A","7053250","2023-03-16 06:00","2023","03","16","06:00","-1.3","","-2.4","","92","","","","4","","31","","11.3","","99.78","","","","-8","","Snow"
"-61.78","47.43","ILES DE LA MADELEINE A","7053250","2023-03-16 07:00","2023","03","16","07:00","-1.2","","-2.0","","94","","","","4","","28","","3.6","","99.80","","","","-8","","Snow"
"-61.78","47.43","ILES DE LA MADELEINE A","7053250","2023-03-16 08:00","2023","03","16","08:00","-0.8","","-1.6","","95","","","","5","","25","","6.4","","99.83","","","","-7","","Snow"
"-61.78","47.43","ILES DE LA MADELEINE A","7053250","2023-03-16 09:00","2023","03","16","09:00","-0.4","","-1.5","","93","","","","3","","26","","11.3","","99.81","","","","-7","","Snow"
"-61.78","47.43","ILES DE LA MADELEINE A","7053250","2023-03-16 10:00","2023","03","16","10:00","-0.3","","-1.2","","94","","","","3","","23","","3.6","","99.77","","","","-6","","Snow,Fog"
"-61.78","47.43","ILES DE LA MADELEINE A","7053250","2023-03-16 11:00","2023","03","16","11:00","0.0","","-0.9","","94","","","","2","","27","","2.8","","99.75","","","","-6","","Snow,Fog"
"-61.78","47.43","ILES DE LA MADELEINE A","7053250","2023-03-16 12:00","2023","03","16","12:00","0.1","","-0.8","","94","","","","2","","26","","2.8","","99.73","","","","","","Snow,Fog"
"-61.78","47.43","ILES DE LA MADELEINE A","7053250","2023-03-16 13:00","2023","03","16","13:00","0.1","","-0.6","","95","","","","1","","22","","2.4","","99.69","","","","","","Snow,Fog"
"-61.78","47.43","ILES DE LA MADELEINE A","7053250","2023-03-16 14:00","2023","03","16","14:00","-0.1","","-0.8","","95","","","","1","","26","","2.4","","99.67","","","","-6","","Snow,Fog"
"-61.78","47.43","ILES DE LA MADELEINE A","7053250","2023-03-16 15:00","2023","03","16","15:00","-0.1","","-0.8","","95","","","","1","","28","","2.4","","99.65","","","","-6","","Snow,Fog"
"-61.78","47.43","ILES DE LA MADELEINE A","7053250","2023-03-16 16:00","2023","03","16","16:00","-0.3","","-0.8","","96","","","","36","","27","","1.6","","99.64","","","","-7","","Snow,Fog"
"-61.78","47.43","ILES DE LA MADELEINE A","7053250","2023-03-16 17:00","2023","03","16","17:00","-0.4","","-0.8","","97","","","","36","","26","","2.0","","99.66","","","","-7","","Snow,Fog"
"-61.78","47.43","ILES DE LA MADELEINE A","7053250","2023-03-16 18:00","2023","03","16","18:00","-0.5","","-0.9","","97","","","","36","","30","","2.0","","99.69","","","","-7","","Snow,Fog"
"-61.78","47.43","ILES DE LA MADELEINE A","7053250","2023-03-16 19:00","2023","03","16","19:00","-0.4","","-0.8","","97","","","","36","","32","","3.2","","99.73","","","","-7","","Snow,Fog"
"-61.78","47.43","ILES DE LA MADELEINE A","7053250","2023-03-16 20:00","2023","03","16","20:00","-0.4","","-0.8","","98","","","","35","","32","","3.2","","99.75","","","","-7","","Snow,Fog"
"-61.78","47.43","ILES DE LA MADELEINE A","7053250","2023-03-16 21:00","2023","03","16","21:00","-0.6","","-0.9","","98","","","","35","","32","","4.8","","99.78","","","","-7","","Snow"
"-61.78","47.43","ILES DE LA MADELEINE A","7053250","2023-03-16 22:00","2023","03","16","22:00","-0.6","","-0.9","","98","","","","35","","37","","4.8","","99.80","","","","-8","","Snow"
"-61.78","47.43","ILES DE LA MADELEINE A","7053250","2023-03-16 23:00","2023","03","16","23:00"
"-61.78","47.43","ILES DE LA MADELEINE A","7053250","2023-03-17 00:00","2023","03","17","00:00","-0.6","","-1.0","","97","","","","35","","36","","8.1","","99.80","","","","-8","","Snow"
"-61.78","47.43","ILES DE LA MADELEINE A","7053250","2023-03-17 01:00","2023","03","17","01:00","-0.5","","-0.9","","97","","","","36","","31","","9.7","","99.83","","","","-7","","Snow"
"-61.78","47.43","ILES DE LA MADELEINE A","7053250","2023-03-17 02:00","2023","03","17","02:00","-0.5","","-0.9","","97","","","","36","","29","","11.3","","99.85","","","","-7","","Snow"
"-61.78","47.43","ILES DE LA MADELEINE A","7053250","2023-03-17 03:00","2023","03","17","03:00","-0.5","","-0.9","","98","","","","35","","30","","8.1","","99.87","","","","-7","","Snow"
"-61.78","47.43","ILES DE LA MADELEINE A","7053250","2023-03-17 04:00","2023","03","17","04:00"
"-61.78","47.43","ILES DE LA MADELEINE A","7053250","2023-03-17 05:00","2023","03","17","05:00","-0.4","","-0.7","","98","","","","35","","32","","6.4","","100.00","","","","-7","","Snow"
"-61.78","47.43","ILES DE LA MADELEINE A","7053250","2023-03-17 06:00","2023","03","17","06:00","-0.4","","-0.6","","98","","","","35","","32","","4.8","","100.10","","","","-7","","Snow"
"-61.78","47.43","ILES DE LA MADELEINE A","7053250","2023-03-17 07:00","2023","03","17","07:00","-0.3","","-0.6","","98","","","","35","","31","","4.8","","100.18","","","","-7","","Snow"
"-61.78","47.43","ILES DE LA MADELEINE A","7053250","2023-03-17 08:00","2023","03","17","08:00","-0.1","","-0.5","","97","","","","36","","28","","6.4","","100.26","","","","-6","","Snow"
"-61.78","47.43","ILES DE LA MADELEINE A","7053250","2023-03-17 09:00","2023","03","17","09:00","0.1","","-0.5","","96","","","","36","","25","","6.4","","100.29","","","","","","Snow"
"-61.78","47.43","ILES DE LA MADELEINE A","7053250","2023-03-17 10:00","2023","03","17","10:00","0.4","","-0.4","","94","","","","36","","24","","6.4","","100.38","","","","","","Snow"
"-61.78","47.43","ILES DE LA MADELEINE A","7053250","2023-03-17 11:00","2023","03","17","11:00","0.8","","-0.3","","92","","","","36","","25","","9.7","","100.37","","","","","","Snow"
"-61.78","47.43","ILES DE LA MADELEINE A","7053250","2023-03-17 12:00","2023","03","17","12:00","0.6","","-0.5","","93","","","","36","","24","","9.7","","100.44","","","","","","Snow"
"-61.78","47.43","ILES DE LA MADELEINE A","7053250","2023-03-17 13:00","2023","03","17","13:00","0.4","","-0.6","","93","","","","36","","27","","8.1","","100.48","","","","","","Snow"
"-61.78","47.43","ILES DE LA MADELEINE A","7053250","2023-03-17 14:00","2023","03","17","14:00","0.3","","-0.6","","94","","","","1","","21","","11.3","","100.48","","","","","","Cloudy"
"-61.78","47.43","ILES DE LA MADELEINE A","7053250","2023-03-17 15:00","2023","03","17","15:00","-0.1","","-0.8","","95","","","","1","","19","","8.1","","100.52","","","","-5","","Fog"
"-61.78","47.43","ILES DE LA MADELEINE A","7053250","2023-03-17 16:00","2023","03","17","16:00","-0.4","","-0.9","","97","","","","36","","19","","4.8","","100.51","","","","-6","","Fog"
"-61.78","47.43","ILES DE LA MADELEINE A","7053250","2023-03-17 17:00","2023","03","17","17:00","-1.0","","-1.4","","97","","","","36","","18","","2.4","","100.56","","","","-6","","Fog"
"-61.78","47.43","ILES DE LA MADELEINE A","7053250","2023-03-17 18:00","2023","03","17","18:00","-1.2","","-1.5","","98","","","","35","","16","","4.0","","100.64","","","","-6","","Fog"
"-61.78","47.43","ILES DE LA MADELEINE A","7053250","2023-03-17 19:00","2023","03","17","19:00","-1.3","","-1.6","","98","","","","1","","13","","3.2","","100.60","","","","-6","","Fog"
"-61.78","47.43","ILES DE LA MADELEINE A","7053250","2023-03-17 20:00","2023","03","17","20:00","-1.6","","-1.8","","98","","","","6","","6","","1.6","","100.63","","","","-4","","Fog"
"-61.78","47.43","ILES DE LA MADELEINE A","7053250","2023-03-17 21:00","2023","03","17","21:00","-2.0","","-2.2","","99","","","","6","","4","","1.2","","100.65","","","","-3","","Fog"
"-61.78","47.43","ILES DE LA MADELEINE A","7053250","2023-03-17 22:00","2023","03","17","22:00","-2.1","","-2.3","","99","","","","20","","5","","1.6","","100.66","","","","-4","","Fog"
"-61.78","47.43","ILES DE LA MADELEINE A","7053250","2023-03-17 23:00","2023","03","17","23:00"
"-61.78","47.43","ILES DE LA MADELEINE A","7053250","2023-03-18 00:00","2023","03","18","00:00"
"-61.78","47.43","ILES DE LA MADELEINE A","7053250","2023-03-18 01:00","2023","03","18","01:00"
"-61.78","47.43","ILES DE LA MADELEINE A","7053250","2023-03-18 02:00","2023","03","18","02:00"
"-61.78","47.43","ILES DE LA MADELEINE A","7053250","2023-03-18 03:00","2023","03","18","03:00"
"-61.78","47.43","ILES DE LA MADELEINE A","7053250","2023-03-18 04:00","2023","03","18","04:00"
"-61.78","47.43","ILES DE LA MADELEINE A","7053250","2023-03-18 05:00","2023","03","18","05:00","-1.6","","-2.2","","96","","","","17","","18","","4.8","","100.42","","","","-7","","Snow"
"-61.78","47.43","ILES DE LA MADELEINE A","7053250","2023-03-18 06:00","2023","03","18","06:00","-1.5","","-2.0","","96","","","","15","","14","","6.4","","100.40","","","","-6","","Snow"
"-61.78","47.43","ILES DE LA MADELEINE A","7053250","2023-03-18 07:00","2023","03","18","07:00","-1.3","","-1.7","","97","","","","14","","13","","4.8","","100.39","","","","-6","","Snow"
"-61.78","47.43","ILES DE LA MADELEINE A","7053250","2023-03-18 08:00","2023","03","18","08:00","-0.8","","-1.2","","97","","","","16","","12","","3.2","","100.40","","","","-5","","Snow"
"-61.78","47.43","ILES DE LA MADELEINE A","7053250","2023-03-18 09:00","2023","03","18","09:00","-0.5","","-0.9","","97","","","","16","","15","","2.4","","100.40","","","","-5","","Snow"
"-61.78","47.43","ILES DE LA MADELEINE A","7053250","2023-03-18 10:00","2023","03","18","10:00","-0.1","","-0.6","","97","","","","17","","14","","4.8","","100.39","","","","-4","","Snow"
"-61.78","47.43","ILES DE LA MADELEINE A","7053250","2023-03-18 11:00","2023","03","18","11:00","0.2","","-0.2","","97","","","","17","","18","","4.8","","100.37","","","","","","Snow,Fog"
"-61.78","47.43","ILES DE LA MADELEINE A","7053250","2023-03-18 12:00","2023","03","18","12:00","0.4","","-0.1","","96","","","","18","","21","","4.8","","100.37","","","","","","Rain,Snow,Fog"
"-61.78","47.43","ILES DE LA MADELEINE A","7053250","2023-03-18 13:00","2023","03","18","13:00","0.7","","0.2","","96","","","","15","","22","","12.9","","100.25","","","","","","NA"
"-61.78","47.43","ILES DE LA MADELEINE A","7053250","2023-03-18 14:00","2023","03","18","14:00","1.3","","0.4","","94","","","","15","","22","","24.1","","100.18","","","","","","Cloudy"
"-61.78","47.43","ILES DE LA MADELEINE A","7053250","2023-03-18 15:00","2023","03","18","15:00","1.1","","0.2","","94","","","","15","","22","","24.1","","100.17","","","","","","NA"
"-61.78","47.43","ILES DE LA MADELEINE A","7053250","2023-03-18 16:00","2023","03","18","16:00","0.5","","-0.1","","96","","","","14","","16","","32.2","","100.13","","","","","","NA"
"-61.78","47.43","ILES DE LA MADELEINE A","7053250","2023-03-18 17:00","2023","03","18","17:00","0.4","","-0.1","","96","","","","13","","14","","32.2","","100.09","","","","","","Cloudy"
"-61.78","47.43","ILES DE LA MADELEINE A","7053250","2023-03-18 18:00","2023","03","18","18:00","0.4","","-0.2","","95","","","","13","","13","","24.1","","100.07","","","","","","NA"
"-61.78","47.43","ILES DE LA MADELEINE A","7053250","2023-03-18 19:00","2023","03","18","19:00","0.8","","-0.1","","94","","","","14","","11","","24.1","","100.05","","","","","","Rain"
"-61.78","47.43","ILES DE LA MADELEINE A","7053250","2023-03-18 20:00","2023","03","18","20:00","0.4","","-0.4","","95","","","","13","","17","","24.1","","100.00","","","","","","Rain"
"-61.78","47.43","ILES DE LA MADELEINE A","7053250","2023-03-18 21:00","2023","03","18","21:00","0.4","","-0.2","","96","","","","10","","12","","24.1","","99.91","","","","","","Rain"
"-61.78","47.43","ILES DE LA MADELEINE A","7053250","2023-03-18 22:00","2023","03","18","22:00","0.2","","-0.2","","97","","","","11","","10","","16.1","","99.82","","","","","","Rain"
"-61.78","47.43","ILES DE LA MADELEINE A","7053250","2023-03-18 23:00","2023","03","18","23:00"
"-61.78","47.43","ILES DE LA MADELEINE A","7053250","2023-03-19 00:00","2023","03","19","00:00"
"-61.78","47.43","ILES DE LA MADELEINE A","7053250","2023-03-19 01:00","2023","03","19","01:00"
"-61.78","47.43","ILES DE LA MADELEINE A","7053250","2023-03-19 02:00","2023","03","19","02:00"
"-61.78","47.43","ILES DE LA MADELEINE A","7053250","2023-03-19 03:00","2023","03","19","03:00"
"-61.78","47.43","ILES DE LA MADELEINE A","7053250","2023-03-19 04:00","2023","03","19","04:00"
"-61.78","47.43","ILES DE LA MADELEINE A","7053250","2023-03-19 05:00","2023","03","19","05:00","0.4","","0.3","","99","","","","24","","12","","4.8","","99.29","","","","","","Fog"
"-61.78","47.43","ILES DE LA MADELEINE A","7053250","2023-03-19 06:00","2023","03","19","06:00","0.3","","0.2","","99","","","","25","","20","","12.9","","99.33","","","","","","Rain"
"-61.78","47.43","ILES DE LA MADELEINE A","7053250","2023-03-19 07:00","2023","03","19","07:00","0.2","","0.1","","99","","","","25","","23","","12.9","","99.30","","","","","","NA"
"-61.78","47.43","ILES DE LA MADELEINE A","7053250","2023-03-19 08:00","2023","03","19","08:00","0.0","","-0.1","","99","","","","25","","18","","9.7","","99.31","","","","-5","","Fog"
"-61.78","47.43","ILES DE LA MADELEINE A","7053250","2023-03-19 09:00","2023","03","19","09:00","0.4","","0.0","","98","","","","26","","35","","16.1","","99.38","","","","","","NA"
"-61.78","47.43","ILES DE LA MADELEINE A","7053250","2023-03-19 10:00","2023","03","19","10:00","0.5","","-1.2","","88","","","","25","","42","","32.2","","99.43","","","","","","NA"
"-61.78","47.43","ILES DE LA MADELEINE A","7053250","2023-03-19 11:00","2023","03","19","11:00","0.7","","-2.2","","81","","","","26","","46","","32.2","","99.47","","","","","","Mainly Clear"
"-61.78","47.43","ILES DE LA MADELEINE A","7053250","2023-03-19 12:00","2023","03","19","12:00","1.0","","-2.9","","75","","","","26","","47","","32.2","","99.51","","","","","","NA"
"-61.78","47.43","ILES DE LA MADELEINE A","7053250","2023-03-19 13:00","2023","03","19","13:00","1.0","","-3.4","","73","","","","25","","43","","32.2","","99.57","","","","","","NA"
"-61.78","47.43","ILES DE LA MADELEINE A","7053250","2023-03-19 14:00","2023","03","19","14:00","1.0","","-3.9","","70","","","","25","","39","","32.2","","99.60","","","","","","Clear"
"-61.78","47.43","ILES DE LA MADELEINE A","7053250","2023-03-19 15:00","2023","03","19","15:00","1.7","","-3.6","","68","","","","24","","30","","32.2","","99.63","","","","","","NA"
"-61.78","47.43","ILES DE LA MADELEINE A","7053250","2023-03-19 16:00","2023","03","19","16:00","1.4","","-4.3","","66","","","","25","","25","","32.2","","99.57","","","","","","NA"
"-61.78","47.43","ILES DE LA MADELEINE A","7053250","2023-03-19 17:00","2023","03","19","17:00","1.2","","-4.1","","68","","","","23","","16","","32.2","","99.55","","","","","","Mostly Cloudy"
"-61.78","47.43","ILES DE LA MADELEINE A","7053250","2023-03-19 18:00","2023","03","19","18:00","0.8","","-4.3","","69","","","","23","","26","","32.2","","99.55","","","","","","NA"
"-61.78","47.43","ILES DE LA MADELEINE A","7053250","2023-03-19 19:00","2023","03","19","19:00","-0.3","","-3.8","","77","","","","25","","28","","24.1","","99.56","","","","-7","","NA"
"-61.78","47.43","ILES DE LA MADELEINE A","7053250","2023-03-19 20:00","2023","03","19","20:00","-0.6","","-7.2","","61","","","","26","","35","","24.1","","99.61","","","","-8","","Mostly Cloudy"
"-61.78","47.43","ILES DE LA MADELEINE A","7053250","2023-03-19 21:00","2023","03","19","21:00","-1.0","","-7.5","","61","","","","26","","40","","24.1","","99.64","","","","-9","","NA"
"-61.78","47.43","ILES DE LA MADELEINE A","7053250","2023-03-19 22:00","2023","03","19","22:00","-1.3","","-6.9","","65","","","","26","","43","","24.1","","99.69","","","","-9","","NA"
"-61.78","47.43","ILES DE LA MADELEINE A","7053250","2023-03-19 23:00","2023","03","19","23:00"
"-61.78","47.43","ILES DE LA MADELEINE A","7053250","2023-03-20 00:00","2023","03","20","00:00"
"-61.78","47.43","ILES DE LA MADELEINE A","7053250","2023-03-20 01:00","2023","03","20","01:00"
"-61.78","47.43","ILES DE LA MADELEINE A","7053250","2023-03-20 02:00","2023","03","20","02:00","-2.1","","-7.7","","66","","","","27","","51","","24.1","","99.83","","","","-11","","Mainly Clear"
"-61.78","47.43","ILES DE LA MADELEINE A","7053250","2023-03-20 03:00","2023","03","20","03:00","-2.7","","-6.2","","77","","","","26","","54","","24.1","","99.88","","","","-12","","NA"
"-61.78","47.43","ILES DE LA MADELEINE A","7053250","2023-03-20 04:00","2023","03","20","04:00"
"-61.78","47.43","ILES DE LA MADELEINE A","7053250","2023-03-20 05:00","2023","03","20","05:00","-2.9","","-8.0","","68","","","","28","","53","","24.1","","99.98","","","","-12","","Snow Showers"
"-61.78","47.43","ILES DE LA MADELEINE A","7053250","2023-03-20 06:00","2023","03","20","06:00","-3.7","","-6.1","","84","","","","27","","58","","4.8","","100.08","","","","-14","","Snow Showers,Blowing Snow"
"-61.78","47.43","ILES DE LA MADELEINE A","7053250","2023-03-20 07:00","2023","03","20","07:00","-3.4","","-7.4","","74","","","","28","","53","","3.2","","100.19","","","","-13","","Snow Showers,Blowing Snow"
"-61.78","47.43","ILES DE LA MADELEINE A","7053250","2023-03-20 08:00","2023","03","20","08:00","-3.3","","-8.0","","70","","","","28","","53","","12.9","","100.31","","","","-13","","Snow Showers"
"-61.78","47.43","ILES DE LA MADELEINE A","7053250","2023-03-20 09:00","2023","03","20","09:00","-3.3","","-8.5","","67","","","","28","","61","","16.1","","100.41","","","","-13","","NA"
"-61.78","47.43","ILES DE LA MADELEINE A","7053250","2023-03-20 10:00","2023","03","20","10:00","-2.9","","-8.8","","64","","","","27","","61","","24.1","","100.46","","","","-13","","NA"
"-61.78","47.43","ILES DE LA MADELEINE A","7053250","2023-03-20 11:00","2023","03","20","11:00","-2.6","","-9.4","","60","","","","27","","62","","24.1","","100.53","","","","-12","","Mainly Clear"
"-61.78","47.43","ILES DE LA MADELEINE A","7053250","2023-03-20 12:00","2023","03","20","12:00","-2.8","","-9.7","","59","","","","27","","58","","32.2","","100.62","","","","-13","","NA"
"-61.78","47.43","ILES DE LA MADELEINE A","7053250","2023-03-20 13:00","2023","03","20","13:00","-2.3","","-8.3","","64","","","","27","","58","","32.2","","100.66","","","","-12","","NA"
"-61.78","47.43","ILES DE LA MADELEINE A","7053250","2023-03-20 14:00","2023","03","20","14:00","-2.5","","-9.9","","57","","","","28","","58","","32.2","","100.72","","","","-12","","Mainly Clear"
"-61.78","47.43","ILES DE LA MADELEINE A","7053250","2023-03-20 15:00","2023","03","20","15:00","-1.6","","-9.3","","56","","","","27","","49","","32.2","","100.77","","","","-10","","NA"
"-61.78","47.43","ILES DE LA MADELEINE A","7053250","2023-03-20 16:00","2023","03","20","16:00","-1.3","","-9.2","","55","","","","27","","57","","32.2","","100.82","","","","-10","","NA"
"-61.78","47.43","ILES DE LA MADELEINE A","7053250","2023-03-20 17:00","2023","03","20","17:00","-1.4","","-7.9","","62","","","","28","","42","","32.2","","100.89","","","","-9","","Clear"
"-61.78","47.43","ILES DE LA MADELEINE A","7053250","2023-03-20 18:00","2023","03","20","18:00","-1.9","","-7.1","","68","","","","28","","34","","32.2","","100.96","","","","-9","","NA"
"-61.78","47.43","ILES DE LA MADELEINE A","7053250","2023-03-20 19:00","2023","03","20","19:00","-1.9","","-7.4","","66","","","","28","","34","","24.1","","101.08","","","","-9","","NA"
"-61.78","47.43","ILES DE LA MADELEINE A","7053250","2023-03-20 20:00","2023","03","20","20:00","-1.6","","-6.9","","67","","","","28","","37","","24.1","","101.18","","","","-9","","Clear"
"-61.78","47.43","ILES DE LA MADELEINE A","7053250","2023-03-20 21:00","2023","03","20","21:00","-1.4","","-6.1","","70","","","","27","","33","","24.1","","101.28","","","","-9","","NA"
"-61.78","47.43","ILES DE LA MADELEINE A","7053250","2023-03-20 22:00","2023","03","20","22:00","-1.3","","-6.3","","69","","","","28","","34","","24.1","","101.37","","","","-9","","NA"
"-61.78","47.43","ILES DE LA MADELEINE A","7053250","2023-03-20 23:00","2023","03","20","23:00"
"-61.78","47.43","ILES DE LA MADELEINE A","7053250","2023-03-21 00:00","2023","03","21","00:00"
"-61.78","47.43","ILES DE LA MADELEINE A","7053250","2023-03-21 01:00","2023","03","21","01:00"
"-61.78","47.43","ILES DE LA MADELEINE A","7053250","2023-03-21 02:00","2023","03","21","02:00"
"-61.78","47.43","ILES DE LA MADELEINE A","7053250","2023-03-21 03:00","2023","03","21","03:00"
"-61.78","47.43","ILES DE LA MADELEINE A","7053250","2023-03-21 04:00","2023","03","21","04:00"
"-61.78","47.43","ILES DE LA MADELEINE A","7053250","2023-03-21 05:00","2023","03","21","05:00","-2.5","","-7.6","","68","","","","28","","31","","24.1","","101.73","","","","-10","","Mainly Clear"
"-61.78","47.43","ILES DE LA MADELEINE A","7053250","2023-03-21 06:00","2023","03","21","06:00","-2.6","","-8.3","","65","","","","29","","32","","32.2","","101.80","","","","-10","","NA"
"-61.78","47.43","ILES DE LA MADELEINE A","7053250","2023-03-21 07:00","2023","03","21","07:00","-2.3","","-8.5","","63","","","","29","","32","","32.2","","101.88","","","","-10","","NA"
"-61.78","47.43","ILES DE LA MADELEINE A","7053250","2023-03-21 08:00","2023","03","21","08:00","-1.8","","-7.9","","63","","","","28","","29","","32.2","","101.96","","","","-9","","Clear"
"-61.78","47.43","ILES DE LA MADELEINE A","7053250","2023-03-21 09:00","2023","03","21","09:00","-1.4","","-7.6","","62","","","","28","","32","","32.2","","102.02","","","","-9","","NA"
"-61.78","47.43","ILES DE LA MADELEINE A","7053250","2023-03-21 10:00","2023","03","21","10:00","-1.0","","-7.4","","62","","","","28","","32","","32.2","","102.06","","","","-8","","NA"
"-61.78","47.43","ILES DE LA MADELEINE A","7053250","2023-03-21 11:00","2023","03","21","11:00","-0.8","","-7.6","","60","","","","28","","32","","32.2","","102.10","","","","-8","","Clear"
"-61.78","47.43","ILES DE LA MADELEINE A","7053250","2023-03-21 12:00","2023","03","21","12:00","-0.4","","-7.3","","60","","","","27","","31","","32.2","","102.11","","","","-7","","NA"
"-61.78","47.43","ILES DE LA MADELEINE A","7053250","2023-03-21 13:00","2023","03","21","13:00","-0.4","","-7.2","","60","","","","27","","30","","32.2","","102.10","","","","-7","","NA"
"-61.78","47.43","ILES DE LA MADELEINE A","7053250","2023-03-21 14:00","2023","03","21","14:00","-0.6","","-7.4","","60","","","","28","","26","","32.2","","102.12","","","","-7","","Clear"
"-61.78","47.43","ILES DE LA MADELEINE A","7053250","2023-03-21 15:00","2023","03","21","15:00","-0.6","","-7.0","","62","","","","29","","22","","32.2","","102.12","","","","-6","","NA"
"-61.78","47.43","ILES DE LA MADELEINE A","7053250","2023-03-21 16:00","2023","03","21","16:00","-0.8","","-7.1","","63","","","","29","","19","","32.2","","102.13","","","","-6","","NA"
"-61.78","47.43","ILES DE LA MADELEINE A","7053250","2023-03-21 17:00","2023","03","21","17:00","-1.3","","-7.4","","63","","","","28","","14","","32.2","","102.14","","","","-6","","Clear"
"-61.78","47.43","ILES DE LA MADELEINE A","7053250","2023-03-21 18:00","2023","03","21","18:00","-2.1","","-7.4","","67","","","","24","","4","","32.2","","102.15","","","","-4","","NA"
"-61.78","47.43","ILES DE LA MADELEINE A","7053250","2023-03-21 19:00","2023","03","21","19:00","-2.2","","-7.1","","69","","","","17","","3","","24.1","","102.15","","","","-3","","NA"
"-61.78","47.43","ILES DE LA MADELEINE A","7053250","2023-03-21 20:00","2023","03","21","20:00","-2.2","","-7.0","","70","","","","20","","11","","24.1","","102.14","","","","-6","","Mainly Clear"
"-61.78","47.43","ILES DE LA MADELEINE A","7053250","2023-03-21 21:00","2023","03","21","21:00","-1.8","","-5.5","","75","","","","18","","12","","24.1","","102.15","","","","-6","","NA"
"-61.78","47.43","ILES DE LA MADELEINE A","7053250","2023-03-21 22:00","2023","03","21","22:00","-2.5","","-5.8","","78","","","","36","","3","","24.1","","102.12","","","","-4","","NA"
"-61.78","47.43","ILES DE LA MADELEINE A","7053250","2023-03-21 23:00","2023","03","21","23:00"
"-61.78","47.43","ILES DE LA MADELEINE A","7053250","2023-03-22 00:00","2023","03","22","00:00"
"-61.78","47.43","ILES DE LA MADELEINE A","7053250","2023-03-22 01:00","2023","03","22","01:00"
"-61.78","47.43","ILES DE LA MADELEINE A","7053250","2023-03-22 02:00","2023","03","22","02:00"
"-61.78","47.43","ILES DE LA MADELEINE A","7053250","2023-03-22 03:00","2023","03","22","03:00"
"-61.78","47.43","ILES DE LA MADELEINE A","7053250","2023-03-22 04:00","2023","03","22","04:00"
"-61.78","47.43","ILES DE LA MADELEINE A","7053250","2023-03-22 05:00","2023","03","22","05:00","-2.7","","-3.5","","94","","","","35","","10","","24.1","","102.18","","","","-7","","Snow"
"-61.78","47.43","ILES DE LA MADELEINE A","7053250","2023-03-22 06:00","2023","03","22","06:00","-3.7","","-5.8","","85","","","","34","","15","","32.2","","102.21","","","","-9","","NA"
"-61.78","47.43","ILES DE LA MADELEINE A","7053250","2023-03-22 07:00","2023","03","22","07:00","-2.8","","-6.6","","75","","","","31","","19","","32.2","","102.26","","","","-9","","NA"
"-61.78","47.43","ILES DE LA MADELEINE A","7053250","2023-03-22 08:00","2023","03","22","08:00","-2.3","","-7.6","","67","","","","30","","19","","32.2","","102.30","","","","-8","","Mainly Clear"
"-61.78","47.43","ILES DE LA MADELEINE A","7053250","2023-03-22 09:00","2023","03","22","09:00","-1.7","","-8.2","","61","","","","30","","24","","32.2","","102.33","","","","-8","","NA"
"-61.78","47.43","ILES DE LA MADELEINE A","7053250","2023-03-22 10:00","2023","03","22","10:00","-1.4","","-8.6","","58","","","","29","","27","","32.2","","102.34","","","","-8","","NA"
"-61.78","47.43","ILES DE LA MADELEINE A","7053250","2023-03-22 11:00","2023","03","22","11:00","-1.2","","-8.8","","56","","","","29","","28","","32.2","","102.32","","","","-8","","Mainly Clear"
"-61.78","47.43","ILES DE LA MADELEINE A","7053250","2023-03-22 12:00","2023","03","22","12:00","-1.8","","-8.1","","62","","","","29","","26","","32.2","","102.31","","","","-8","","NA"
"-61.78","47.43","ILES DE LA MADELEINE A","7053250","2023-03-22 13:00","2023","03","22","13:00","-1.6","","-9.3","","55","","","","29","","34","","32.2","","102.28","","","","-9","","NA"
"-61.78","47.43","ILES DE LA MADELEINE A","7053250","2023-03-22 14:00","2023","03","22","14:00","-2.4","","-8.5","","63","","","","29","","29","","32.2","","102.27","","","","-9","","Mainly Clear"
"-61.78","47.43","ILES DE LA MADELEINE A","7053250","2023-03-22 15:00","2023","03","22","15:00","-3.2","","-8.5","","67","","","","28","","30","","32.2","","102.28","","","","-11","","Snow Showers"
"-61.78","47.43","ILES DE LA MADELEINE A","7053250","2023-03-22 16:00","2023","03","22","16:00","-3.6","","-9.5","","64","","","","29","","27","","32.2","","102.28","","","","-11","","Snow Showers"
"-61.78","47.43","ILES DE LA MADELEINE A","7053250","2023-03-22 17:00","2023","03","22","17:00","-3.5","","-9.7","","62","","","","30","","28","","32.2","","102.29","","","","-11","","Mostly Cloudy"
"-61.78","47.43","ILES DE LA MADELEINE A","7053250","2023-03-22 18:00","2023","03","22","18:00","-3.7","","-10.2","","61","","","","30","","27","","32.2","","102.33","","","","-11","","NA"
"-61.78","47.43","ILES DE LA MADELEINE A","7053250","2023-03-22 19:00","2023","03","22","19:00","-3.6","","-9.4","","64","","","","29","","28","","24.1","","102.33","","","","-11","","NA"
"-61.78","47.43","ILES DE LA MADELEINE A","7053250","2023-03-22 20:00","2023","03","22","20:00","-3.4","","-8.7","","67","","","","30","","28","","24.1","","102.36","","","","-11","","Mainly Clear"
"-61.78","47.43","ILES DE LA MADELEINE A","7053250","2023-03-22 21:00","2023","03","22","21:00","-3.6","","-8.5","","69","","","","32","","25","","24.1","","102.39","","","","-11","","NA"
"-61.78","47.43","ILES DE LA MADELEINE A","7053250","2023-03-22 22:00","2023","03","22","22:00","-3.6","","-9.3","","65","","","","31","","24","","24.1","","102.37","","","","-10","","NA"
"-61.78","47.43","ILES DE LA MADELEINE A","7053250","2023-03-22 23:00","2023","03","22","23:00"
"-61.78","47.43","ILES DE LA MADELEINE A","7053250","2023-03-23 00:00","2023","03","23","00:00"
"-61.78","47.43","ILES DE LA MADELEINE A","7053250","2023-03-23 01:00","2023","03","23","01:00"
"-61.78","47.43","ILES DE LA MADELEINE A","7053250","2023-03-23 02:00","2023","03","23","02:00"
"-61.78","47.43","ILES DE LA MADELEINE A","7053250","2023-03-23 03:00","2023","03","23","03:00"
"-61.78","47.43","ILES DE LA MADELEINE A","7053250","2023-03-23 04:00","2023","03","23","04:00"
"-61.78","47.43","ILES DE LA MADELEINE A","7053250","2023-03-23 05:00","2023","03","23","05:00","-3.4","","-7.1","","75","","","","30","","18","","24.1","","102.39","","","","-9","","Mainly Clear"
"-61.78","47.43","ILES DE LA MADELEINE A","7053250","2023-03-23 06:00","2023","03","23","06:00","-3.7","","-7.3","","76","","","","31","","17","","32.2","","102.38","","","","-9","","NA"
"-61.78","47.43","ILES DE LA MADELEINE A","7053250","2023-03-23 07:00","2023","03","23","07:00","-3.0","","-6.8","","75","","","","33","","13","","32.2","","102.36","","","","-8","","NA"
"-61.78","47.43","ILES DE LA MADELEINE A","7053250","2023-03-23 08:00","2023","03","23","08:00","-2.0","","-6.2","","73","","","","34","","10","","32.2","","102.37","","","","-6","","Mostly Cloudy"
"-61.78","47.43","ILES DE LA MADELEINE A","7053250","2023-03-23 09:00","2023","03","23","09:00","-1.5","","-6.3","","70","","","","34","","8","","32.2","","102.33","","","","-5","","NA"
"-61.78","47.43","ILES DE LA MADELEINE A","7053250","2023-03-23 10:00","2023","03","23","10:00","-1.5","","-6.8","","67","","","","30","","7","","32.2","","102.34","","","","-4","","NA"
"-61.78","47.43","ILES DE LA MADELEINE A","7053250","2023-03-23 11:00","2023","03","23","11:00","-1.3","","-6.4","","68","","","","34","","6","","32.2","","102.31","","","","-4","","Mostly Cloudy"
"-61.78","47.43","ILES DE LA MADELEINE A","7053250","2023-03-23 12:00","2023","03","23","12:00","-0.6","","-6.4","","65","","","","19","","13","","32.2","","102.25","","","","-5","","NA"
"-61.78","47.43","ILES DE LA MADELEINE A","7053250","2023-03-23 13:00","2023","03","23","13:00","-0.5","","-6.2","","65","","","","19","","13","","32.2","","102.16","","","","-5","","NA"
"-61.78","47.43","ILES DE LA MADELEINE A","7053250","2023-03-23 14:00","2023","03","23","14:00","-0.6","","-6.2","","66","","","","16","","12","","32.2","","102.05","","","","-5","","Mostly Cloudy"
"-61.78","47.43","ILES DE LA MADELEINE A","7053250","2023-03-23 15:00","2023","03","23","15:00","-0.9","","-6.5","","66","","","","20","","11","","32.2","","102.04","","","","-5","","NA"
"-61.78","47.43","ILES DE LA MADELEINE A","7053250","2023-03-23 16:00","2023","03","23","16:00","-1.2","","-6.0","","70","","","","11","","17","","32.2","","101.86","","","","-6","","NA"
"-61.78","47.43","ILES DE LA MADELEINE A","7053250","2023-03-23 17:00","2023","03","23","17:00","-1.8","","-5.8","","74","","","","11","","24","","32.2","","101.72","","","","-8","","Mostly Cloudy"
"-61.78","47.43","ILES DE LA MADELEINE A","7053250","2023-03-23 18:00","2023","03","23","18:00","-1.7","","-4.9","","79","","","","12","","29","","32.2","","101.59","","","","-9","","NA"
"-61.78","47.43","ILES DE LA MADELEINE A","7053250","2023-03-23 19:00","2023","03","23","19:00","-1.4","","-3.8","","84","","","","11","","28","","32.2","","101.49","","","","-8","","NA"
"-61.78","47.43","ILES DE LA MADELEINE A","7053250","2023-03-23 20:00","2023","03","23","20:00","-0.7","","-3.3","","83","","","","12","","29","","24.1","","101.36","","","","-7","","Mostly Cloudy"
"-61.78","47.43","ILES DE LA MADELEINE A","7053250","2023-03-23 21:00","2023","03","23","21:00","-0.7","","-3.2","","83","","","","12","","29","","24.1","","101.18","","","","-7","","NA"
"-61.78","47.43","ILES DE LA MADELEINE A","7053250","2023-03-23 22:00","2023","03","23","22:00","-0.6","","-3.8","","79","","","","13","","29","","24.1","","100.99","","","","-7","","NA"
"-61.78","47.43","ILES DE LA MADELEINE A","7053250","2023-03-23 23:00","2023","03","23","23:00"
"-61.78","47.43","ILES DE LA MADELEINE A","7053250","2023-03-24 00:00","2023","03","24","00:00"
"-61.78","47.43","ILES DE LA MADELEINE A","7053250","2023-03-24 01:00","2023","03","24","01:00"
"-61.78","47.43","ILES DE LA MADELEINE A","7053250","2023-03-24 02:00","2023","03","24","02:00"
"-61.78","47.43","ILES DE LA MADELEINE A","7053250","2023-03-24 03:00","2023","03","24","03:00"
"-61.78","47.43","ILES DE LA MADELEINE A","7053250","2023-03-24 04:00","2023","03","24","04:00"
"-61.78","47.43","ILES DE LA MADELEINE A","7053250","2023-03-24 05:00","2023","03","24","05:00","-1.6","","-2.2","","96","","","","11","","48","","0.8","","99.89","","","","-10","","Moderate Snow,Blowing Snow"
"-61.78","47.43","ILES DE LA MADELEINE A","7053250","2023-03-24 06:00","2023","03","24","06:00","-1.4","","-2.1","","95","","","","11","","46","","0.8","","99.85","","","","-10","","Moderate Snow,Blowing Snow"
"-61.78","47.43","ILES DE LA MADELEINE A","7053250","2023-03-24 07:00","2023","03","24","07:00","-1.2","","-2.2","","93","","","","9","","40","","1.6","","99.81","","","","-9","","Snow,Blowing Snow"
"-61.78","47.43","ILES DE LA MADELEINE A","7053250","2023-03-24 08:00","2023","03","24","08:00","-1.0","","-2.1","","92","","","","9","","37","","2.4","","99.85","","","","-8","","Snow,Blowing Snow"
"-61.78","47.43","ILES DE LA MADELEINE A","7053250","2023-03-24 09:00","2023","03","24","09:00","-0.7","","-2.1","","90","","","","8","","40","","2.4","","99.81","","","","-8","","Snow,Blowing Snow"
"-61.78","47.43","ILES DE LA MADELEINE A","7053250","2023-03-24 10:00","2023","03","24","10:00","-0.8","","-2.2","","90","","","","8","","42","","2.4","","99.82","","","","-9","","Snow,Blowing Snow"
"-61.78","47.43","ILES DE LA MADELEINE A","7053250","2023-03-24 11:00","2023","03","24","11:00","-1.0","","-2.4","","90","","","","7","","45","","2.4","","99.89","","","","-9","","Snow,Blowing Snow"
"-61.78","47.43","ILES DE LA MADELEINE A","7053250","2023-03-24 12:00","2023","03","24","12:00","-1.4","","-2.6","","91","","","","5","","38","","2.4","","99.96","","","","-9","","Snow,Blowing Snow"
"-61.78","47.43","ILES DE LA MADELEINE A","7053250","2023-03-24 13:00","2023","03","24","13:00","-1.5","","-2.8","","91","","","","4","","45","","2.4","","100.01","","","","-10","","Snow,Blowing Snow"
"-61.78","47.43","ILES DE LA MADELEINE A","7053250","2023-03-24 14:00","2023","03","24","14:00","-1.8","","-3.3","","89","","","","4","","46","","2.8","","100.12","","","","-10","","Snow,Blowing Snow"
"-61.78","47.43","ILES DE LA MADELEINE A","7053250","2023-03-24 15:00","2023","03","24","15:00","-1.9","","-3.2","","91","","","","5","","41","","1.2","","100.23","","","","-10","","Snow,Blowing Snow"
"-61.78","47.43","ILES DE LA MADELEINE A","7053250","2023-03-24 16:00","2023","03","24","16:00","-1.9","","-3.1","","91","","","","4","","35","","2.0","","100.34","","","","-9","","Snow,Blowing Snow"
"-61.78","47.43","ILES DE LA MADELEINE A","7053250","2023-03-24 17:00","2023","03","24","17:00","-2.0","","-3.6","","89","","","","3","","37","","8.1","","100.47","","","","-10","","Snow"
"-61.78","47.43","ILES DE LA MADELEINE A","7053250","2023-03-24 18:00","2023","03","24","18:00","-2.0","","-4.1","","86","","","","3","","37","","24.1","","100.55","","","","-10","","NA"
"-61.78","47.43","ILES DE LA MADELEINE A","7053250","2023-03-24 19:00","2023","03","24","19:00","-2.1","","-3.6","","89","","","","3","","29","","24.1","","100.64","","","","-9","","Snow"
"-61.78","47.43","ILES DE LA MADELEINE A","7053250","2023-03-24 20:00","2023","03","24","20:00","-1.9","","-3.4","","90","","","","2","","27","","24.1","","100.71","","","","-9","","Snow"
"-61.78","47.43","ILES DE LA MADELEINE A","7053250","2023-03-24 21:00","2023","03","24","21:00","-1.8","","-3.0","","91","","","","1","","24","","9.7","","100.84","","","","-8","","Snow"
"-61.78","47.43","ILES DE LA MADELEINE A","7053250","2023-03-24 22:00","2023","03","24","22:00","-1.8","","-3.5","","88","","","","36","","35","","8.1","","100.88","","","","-9","","Snow"
"-61.78","47.43","ILES DE LA MADELEINE A","7053250","2023-03-24 23:00","2023","03","24","23:00"
"-61.78","47.43","ILES DE LA MADELEINE A","7053250","2023-03-25 00:00","2023","03","25","00:00"
"-61.78","47.43","ILES DE LA MADELEINE A","7053250","2023-03-25 01:00","2023","03","25","01:00"
"-61.78","47.43","ILES DE LA MADELEINE A","7053250","2023-03-25 02:00","2023","03","25","02:00"
"-61.78","47.43","ILES DE LA MADELEINE A","7053250","2023-03-25 03:00","2023","03","25","03:00"
"-61.78","47.43","ILES DE LA MADELEINE A","7053250","2023-03-25 04:00","2023","03","25","04:00"
"-61.78","47.43","ILES DE LA MADELEINE A","7053250","2023-03-25 05:00","2023","03","25","05:00","-1.2","","-3.5","","85","","","","35","","40","","24.1","","101.28","","","","-9","","Mostly Cloudy"
"-61.78","47.43","ILES DE LA MADELEINE A","7053250","2023-03-25 06:00","2023","03","25","06:00","-1.2","","-3.5","","85","","","","35","","32","","24.1","","101.40","","","","-8","","NA"
"-61.78","47.43","ILES DE LA MADELEINE A","7053250","2023-03-25 07:00","2023","03","25","07:00","-1.4","","-3.4","","86","","","","35","","30","","32.2","","101.53","","","","-8","","NA"
"-61.78","47.43","ILES DE LA MADELEINE A","7053250","2023-03-25 08:00","2023","03","25","08:00","-0.9","","-3.0","","86","","","","35","","33","","32.2","","101.68","","","","-8","","Mostly Cloudy"
"-61.78","47.43","ILES DE LA MADELEINE A","7053250","2023-03-25 09:00","2023","03","25","09:00","-0.4","","-2.8","","84","","","","35","","29","","32.2","","101.71","","","","-7","","NA"
"-61.78","47.43","ILES DE LA MADELEINE A","7053250","2023-03-25 10:00","2023","03","25","10:00","-0.1","","-2.3","","85","","","","34","","26","","32.2","","101.77","","","","-6","","NA"
"-61.78","47.43","ILES DE LA MADELEINE A","7053250","2023-03-25 11:00","2023","03","25","11:00","0.1","","-2.3","","84","","","","34","","28","","32.2","","101.83","","","","","","Mainly Clear"
"-61.78","47.43","ILES DE LA MADELEINE A","7053250","2023-03-25 12:00","2023","03","25","12:00","0.3","","-2.2","","84","","","","35","","26","","32.2","","101.84","","","","","","NA"
"-61.78","47.43","ILES DE LA MADELEINE A","7053250","2023-03-25 13:00","2023","03","25","13:00","0.2","","-2.2","","84","","","","34","","27","","32.2","","101.93","","","","","","NA"
"-61.78","47.43","ILES DE LA MADELEINE A","7053250","2023-03-25 14:00","2023","03","25","14:00","0.2","","-2.3","","83","","","","34","","30","","24.1","","101.93","","","","","","Mainly Clear"
"-61.78","47.43","ILES DE LA MADELEINE A","7053250","2023-03-25 15:00","2023","03","25","15:00","0.0","","-2.3","","84","","","","33","","27","","32.2","","101.96","","","","-6","","NA"
"-61.78","47.43","ILES DE LA MADELEINE A","7053250","2023-03-25 16:00","2023","03","25","16:00","0.0","","-2.3","","84","","","","34","","25","","32.2","","101.96","","","","-6","","NA"
"-61.78","47.43","ILES DE LA MADELEINE A","7053250","2023-03-25 17:00","2023","03","25","17:00","-0.3","","-2.3","","86","","","","33","","17","","32.2","","102.04","","","","-5","","Mainly Clear"
"-61.78","47.43","ILES DE LA MADELEINE A","7053250","2023-03-25 18:00","2023","03","25","18:00","-1.2","","-2.7","","90","","","","35","","14","","32.2","","101.99","","","","-6","","NA"
"-61.78","47.43","ILES DE LA MADELEINE A","7053250","2023-03-25 19:00","2023","03","25","19:00","-1.9","","-2.9","","93","","","","1","","13","","24.1","","101.97","","","","-6","","NA"
"-61.78","47.43","ILES DE LA MADELEINE A","7053250","2023-03-25 20:00","2023","03","25","20:00","-2.7","","-3.4","","95","","","","4","","7","","24.1","","101.96","","","","-6","","Clear"
"-61.78","47.43","ILES DE LA MADELEINE A","7053250","2023-03-25 21:00","2023","03","25","21:00","-2.8","","-3.4","","96","","","","4","","5","","24.1","","101.98","","","","-5","","NA"
"-61.78","47.43","ILES DE LA MADELEINE A","7053250","2023-03-25 22:00","2023","03","25","22:00","-2.5","","-3.0","","96","","","","27","","4","","24.1","","102.00","","","","-4","","NA"
"-61.78","47.43","ILES DE LA MADELEINE A","7053250","2023-03-25 23:00","2023","03","25","23:00"
"-61.78","47.43","ILES DE LA MADELEINE A","7053250","2023-03-26 00:00","2023","03","26","00:00"
"-61.78","47.43","ILES DE LA MADELEINE A","7053250","2023-03-26 01:00","2023","03","26","01:00"
"-61.78","47.43","ILES DE LA MADELEINE A","7053250","2023-03-26 02:00","2023","03","26","02:00"
"-61.78","47.43","ILES DE LA MADELEINE A","7053250","2023-03-26 03:00","2023","03","26","03:00"
"-61.78","47.43","ILES DE LA MADELEINE A","7053250","2023-03-26 04:00","2023","03","26","04:00"
"-61.78","47.43","ILES DE LA MADELEINE A","7053250","2023-03-26 05:00","2023","03","26","05:00","-4.2","","-4.5","","98","","","","36","","2","","24.1","","101.75","","","","-5","","Mostly Cloudy"
"-61.78","47.43","ILES DE LA MADELEINE A","7053250","2023-03-26 06:00","2023","03","26","06:00","-4.2","","-4.5","","97","","","","27","","4","","12.9","","101.78","","","","-6","","NA"
"-61.78","47.43","ILES DE LA MADELEINE A","7053250","2023-03-26 07:00","2023","03","26","07:00","-1.8","","-2.2","","97","","","","8","","12","","32.2","","101.58","","","","-6","","NA"
"-61.78","47.43","ILES DE LA MADELEINE A","7053250","2023-03-26 08:00","2023","03","26","08:00","-1.0","","-2.1","","93","","","","10","","17","","32.2","","101.54","","","","-6","","Mostly Cloudy"
"-61.78","47.43","ILES DE LA MADELEINE A","7053250","2023-03-26 09:00","2023","03","26","09:00","-0.4","","-1.7","","91","","","","10","","21","","32.2","","101.45","","","","-6","","NA"
"-61.78","47.43","ILES DE LA MADELEINE A","7053250","2023-03-26 10:00","2023","03","26","10:00","-0.1","","-1.8","","88","","","","11","","25","","32.2","","101.38","","","","-6","","NA"
"-61.78","47.43","ILES DE LA MADELEINE A","7053250","2023-03-26 11:00","2023","03","26","11:00","0.1","","-1.6","","88","","","","10","","27","","32.2","","101.33","","","","","","Snow"
"-61.78","47.43","ILES DE LA MADELEINE A","7053250","2023-03-26 12:00","2023","03","26","12:00","0.2","","-1.8","","87","","","","11","","26","","32.2","","101.26","","","","","","NA"
"-61.78","47.43","ILES DE LA MADELEINE A","7053250","2023-03-26 13:00","2023","03","26","13:00","0.7","","-1.9","","83","","","","11","","25","","32.2","","101.10","","","","","","NA"
"-61.78","47.43","ILES DE LA MADELEINE A","7053250","2023-03-26 14:00","2023","03","26","14:00","0.4","","-2.3","","83","","","","10","","26","","32.2","","100.98","","","","","","Cloudy"
"-61.78","47.43","ILES DE LA MADELEINE A","7053250","2023-03-26 15:00","2023","03","26","15:00","0.0","","-1.8","","88","","","","11","","25","","32.2","","100.95","","","","-6","","NA"
"-61.78","47.43","ILES DE LA MADELEINE A","7053250","2023-03-26 16:00","2023","03","26","16:00","-0.1","","-1.8","","88","","","","10","","23","","32.2","","100.89","","","","-6","","NA"
"-61.78","47.43","ILES DE LA MADELEINE A","7053250","2023-03-26 17:00","2023","03","26","17:00","-0.3","","-1.8","","89","","","","10","","31","","32.2","","100.81","","","","-7","","Cloudy"
"-61.78","47.43","ILES DE LA MADELEINE A","7053250","2023-03-26 18:00","2023","03","26","18:00","-0.4","","-1.9","","90","","","","10","","29","","32.2","","100.77","","","","-7","","NA"
"-61.78","47.43","ILES DE LA MADELEINE A","7053250","2023-03-26 19:00","2023","03","26","19:00","-0.5","","-1.9","","90","","","","10","","27","","24.1","","100.79","","","","-7","","NA"
"-61.78","47.43","ILES DE LA MADELEINE A","7053250","2023-03-26 20:00","2023","03","26","20:00","-0.6","","-1.8","","91","","","","9","","23","","24.1","","100.78","","","","-6","","Cloudy"
"-61.78","47.43","ILES DE LA MADELEINE A","7053250","2023-03-26 21:00","2023","03","26","21:00","-0.8","","-1.5","","95","","","","9","","22","","6.4","","100.75","","","","-7","","Snow"
"-61.78","47.43","ILES DE LA MADELEINE A","7053250","2023-03-26 22:00","2023","03","26","22:00","-0.8","","-1.6","","94","","","","8","","23","","9.7","","100.73","","","","-7","","Snow"
"-61.78","47.43","ILES DE LA MADELEINE A","7053250","2023-03-26 23:00","2023","03","26","23:00"
"-61.78","47.43","ILES DE LA MADELEINE A","7053250","2023-03-27 00:00","2023","03","27","00:00"
"-61.78","47.43","ILES DE LA MADELEINE A","7053250","2023-03-27 01:00","2023","03","27","01:00"
"-61.78","47.43","ILES DE LA MADELEINE A","7053250","2023-03-27 02:00","2023","03","27","02:00"
"-61.78","47.43","ILES DE LA MADELEINE A","7053250","2023-03-27 03:00","2023","03","27","03:00"
"-61.78","47.43","ILES DE LA MADELEINE A","7053250","2023-03-27 04:00","2023","03","27","04:00"
"-61.78","47.43","ILES DE LA MADELEINE A","7053250","2023-03-27 05:00","2023","03","27","05:00","-0.7","","-1.2","","96","","","","9","","18","","4.0","","100.84","","","","-6","","Snow"
"-61.78","47.43","ILES DE LA MADELEINE A","7053250","2023-03-27 06:00","2023","03","27","06:00","-0.6","","-1.1","","97","","","","9","","17","","1.6","","100.90","","","","-6","","Snow"
"-61.78","47.43","ILES DE LA MADELEINE A","7053250","2023-03-27 07:00","2023","03","27","07:00","-0.7","","-1.1","","97","","","","8","","16","","4.8","","100.96","","","","-5","","Snow"
"-61.78","47.43","ILES DE LA MADELEINE A","7053250","2023-03-27 08:00","2023","03","27","08:00","-0.7","","-1.2","","96","","","","11","","17","","2.8","","101.03","","","","-6","","Snow"
"-61.78","47.43","ILES DE LA MADELEINE A","7053250","2023-03-27 09:00","2023","03","27","09:00","-0.6","","-1.3","","95","","","","12","","11","","3.2","","101.08","","","","-4","","Snow"
"-61.78","47.43","ILES DE LA MADELEINE A","7053250","2023-03-27 10:00","2023","03","27","10:00","-0.5","","-1.5","","93","","","","7","","21","","4.8","","101.14","","","","-6","","Snow"
"-61.78","47.43","ILES DE LA MADELEINE A","7053250","2023-03-27 11:00","2023","03","27","11:00","-0.4","","-1.3","","94","","","","7","","22","","2.0","","101.16","","","","-6","","Snow"
"-61.78","47.43","ILES DE LA MADELEINE A","7053250","2023-03-27 12:00","2023","03","27","12:00","-0.2","","-1.9","","89","","","","9","","15","","6.4","","101.19","","","","-5","","Snow"
"-61.78","47.43","ILES DE LA MADELEINE A","7053250","2023-03-27 13:00","2023","03","27","13:00","0.3","","-1.7","","86","","","","4","","8","","32.2","","101.22","","","","","","NA"
"-61.78","47.43","ILES DE LA MADELEINE A","7053250","2023-03-27 14:00","2023","03","27","14:00","0.1","","-1.4","","89","","","","35","","13","","32.2","","101.26","","","","","","Mostly Cloudy"
"-61.78","47.43","ILES DE LA MADELEINE A","7053250","2023-03-27 15:00","2023","03","27","15:00","0.7","","-1.1","","87","","","","35","","19","","32.2","","101.26","","","","","","NA"
"-61.78","47.43","ILES DE LA MADELEINE A","7053250","2023-03-27 16:00","2023","03","27","16:00","0.4","","-3.4","","76","","","","3","","17","","32.2","","101.30","","","","","","NA"
"-61.78","47.43","ILES DE LA MADELEINE A","7053250","2023-03-27 17:00","2023","03","27","17:00","-0.1","","-2.7","","82","","","","1","","16","","32.2","","101.34","","","","-5","","Mostly Cloudy"
"-61.78","47.43","ILES DE LA MADELEINE A","7053250","2023-03-27 18:00","2023","03","27","18:00","-0.5","","-2.5","","86","","","","1","","15","","32.2","","101.41","","","","-5","","NA"
"-61.78","47.43","ILES DE LA MADELEINE A","7053250","2023-03-27 19:00","2023","03","27","19:00","-0.8","","-2.6","","87","","","","2","","11","","24.1","","101.50","","","","-5","","NA"
"-61.78","47.43","ILES DE LA MADELEINE A","7053250","2023-03-27 20:00","2023","03","27","20:00","-1.1","","-2.7","","89","","","","1","","10","","24.1","","101.53","","","","-5","","Mostly Cloudy"
"-61.78","47.43","ILES DE LA MADELEINE A","7053250","2023-03-27 21:00","2023","03","27","21:00","-1.5","","-2.9","","90","","","","34","","12","","24.1","","101.54","","","","-6","","NA"
"-61.78","47.43","ILES DE LA MADELEINE A","7053250","2023-03-27 22:00","2023","03","27","22:00","-1.7","","-3.0","","91","","","","33","","12","","24.1","","101.53","","","","-6","","NA"
"-61.78","47.43","ILES DE LA MADELEINE A","7053250","2023-03-27 23:00","2023","03","27","23:00"
"-61.78","47.43","ILES DE LA MADELEINE A","7053250","2023-03-28 00:00","2023","03","28","00:00"
"-61.78","47.43","ILES DE LA MADELEINE A","7053250","2023-03-28 01:00","2023","03","28","01:00"
"-61.78","47.43","ILES DE LA MADELEINE A","7053250","2023-03-28 02:00","2023","03","28","02:00"
"-61.78","47.43","ILES DE LA MADELEINE A","7053250","2023-03-28 03:00","2023","03","28","03:00"
"-61.78","47.43","ILES DE LA MADELEINE A","7053250","2023-03-28 04:00","2023","03","28","04:00"
"-61.78","47.43","ILES DE LA MADELEINE A","7053250","2023-03-28 05:00","2023","03","28","05:00","-1.1","","-1.6","","96","","","","34","","22","","24.1","","101.42","","","","-7","","Snow"
"-61.78","47.43","ILES DE LA MADELEINE A","7053250","2023-03-28 06:00","2023","03","28","06:00","-0.9","","-1.6","","96","","","","35","","21","","32.2","","101.43","","","","-7","","Snow"
"-61.78","47.43","ILES DE LA MADELEINE A","7053250","2023-03-28 07:00","2023","03","28","07:00","-0.8","","-1.5","","95","","","","36","","15","","8.1","","101.46","","","","-5","","Snow"
"-61.78","47.43","ILES DE LA MADELEINE A","7053250","2023-03-28 08:00","2023","03","28","08:00","-0.6","","-1.1","","96","","","","34","","17","","6.4","","101.45","","","","-6","","Snow"
"-61.78","47.43","ILES DE LA MADELEINE A","7053250","2023-03-28 09:00","2023","03","28","09:00","-0.4","","-1.0","","96","","","","35","","19","","4.8","","101.42","","","","-6","","Snow"
"-61.78","47.43","ILES DE LA MADELEINE A","7053250","2023-03-28 10:00","2023","03","28","10:00","-0.7","","-1.3","","96","","","","35","","21","","2.8","","101.40","","","","-6","","Snow"
"-61.78","47.43","ILES DE LA MADELEINE A","7053250","2023-03-28 11:00","2023","03","28","11:00","-0.2","","-1.0","","94","","","","35","","21","","4.8","","101.38","","","","-6","","Snow"
"-61.78","47.43","ILES DE LA MADELEINE A","7053250","2023-03-28 12:00","2023","03","28","12:00","0.0","","-0.8","","95","","","","35","","21","","3.2","","101.35","","","","-5","","Snow"
"-61.78","47.43","ILES DE LA MADELEINE A","7053250","2023-03-28 13:00","2023","03","28","13:00","0.2","","-0.5","","95","","","","35","","23","","4.8","","101.32","","","","","","Snow"
"-61.78","47.43","ILES DE LA MADELEINE A","7053250","2023-03-28 14:00","2023","03","28","14:00","0.0","","-0.6","","96","","","","35","","19","","4.0","","101.30","","","","-5","","Snow,Fog"
"-61.78","47.43","ILES DE LA MADELEINE A","7053250","2023-03-28 15:00","2023","03","28","15:00","0.3","","-0.2","","97","","","","36","","16","","9.7","","101.30","","","","","","Snow,Fog"
"-61.78","47.43","ILES DE LA MADELEINE A","7053250","2023-03-28 16:00","2023","03","28","16:00","0.4","","-0.2","","96","","","","1","","13","","4.8","","101.29","","","","","","Snow,Fog"
"-61.78","47.43","ILES DE LA MADELEINE A","7053250","2023-03-28 17:00","2023","03","28","17:00","0.0","","-0.4","","97","","","","1","","16","","4.8","","101.31","","","","-5","","Snow,Fog"
"-61.78","47.43","ILES DE LA MADELEINE A","7053250","2023-03-28 18:00","2023","03","28","18:00","-0.2","","-0.7","","96","","","","1","","16","","9.7","","101.31","","","","-5","","Fog"
"-61.78","47.43","ILES DE LA MADELEINE A","7053250","2023-03-28 19:00","2023","03","28","19:00","-0.5","","-0.9","","97","","","","36","","16","","11.3","","101.30","","","","-5","","NA"
"-61.78","47.43","ILES DE LA MADELEINE A","7053250","2023-03-28 20:00","2023","03","28","20:00","-0.5","","-0.8","","97","","","","2","","16","","6.4","","101.31","","","","-5","","Snow"
"-61.78","47.43","ILES DE LA MADELEINE A","7053250","2023-03-28 21:00","2023","03","28","21:00","-0.6","","-0.9","","98","","","","36","","12","","24.1","","101.32","","","","-5","","Snow"
"-61.78","47.43","ILES DE LA MADELEINE A","7053250","2023-03-28 22:00","2023","03","28","22:00","-0.7","","-1.1","","97","","","","36","","9","","24.1","","101.32","","","","-4","","NA"
"-61.78","47.43","ILES DE LA MADELEINE A","7053250","2023-03-28 23:00","2023","03","28","23:00"
"-61.78","47.43","ILES DE LA MADELEINE A","7053250","2023-03-29 00:00","2023","03","29","00:00"
"-61.78","47.43","ILES DE LA MADELEINE A","7053250","2023-03-29 01:00","2023","03","29","01:00"
"-61.78","47.43","ILES DE LA MADELEINE A","7053250","2023-03-29 02:00","2023","03","29","02:00"
"-61.78","47.43","ILES DE LA MADELEINE A","7053250","2023-03-29 03:00","2023","03","29","03:00"
"-61.78","47.43","ILES DE LA MADELEINE A","7053250","2023-03-29 04:00","2023","03","29","04:00"
"-61.78","47.43","ILES DE LA MADELEINE A","7053250","2023-03-29 05:00","2023","03","29","05:00","-0.7","","-1.0","","98","","","","2","","19","","24.1","","101.34","","","","-6","","Snow"
"-61.78","47.43","ILES DE LA MADELEINE A","7053250","2023-03-29 06:00","2023","03","29","06:00","-1.0","","-1.3","","98","","","","3","","17","","24.1","","101.36","","","","-6","","Snow"
"-61.78","47.43","ILES DE LA MADELEINE A","7053250","2023-03-29 07:00","2023","03","29","07:00","-0.4","","-0.8","","97","","","","1","","15","","24.1","","101.41","","","","-5","","Snow"
"-61.78","47.43","ILES DE LA MADELEINE A","7053250","2023-03-29 08:00","2023","03","29","08:00","0.2","","-0.5","","95","","","","2","","11","","24.1","","101.46","","","","","","Snow"
"-61.78","47.43","ILES DE LA MADELEINE A","7053250","2023-03-29 09:00","2023","03","29","09:00","0.5","","-0.3","","94","","","","35","","9","","24.1","","101.47","","","","","","Snow"
"-61.78","47.43","ILES DE LA MADELEINE A","7053250","2023-03-29 10:00","2023","03","29","10:00","1.0","","-0.3","","92","","","","34","","10","","24.1","","101.50","","","","","","Snow"
"-61.78","47.43","ILES DE LA MADELEINE A","7053250","2023-03-29 11:00","2023","03","29","11:00","1.1","","-0.4","","89","","","","30","","13","","24.1","","101.51","","","","","","Mostly Cloudy"
"-61.78","47.43","ILES DE LA MADELEINE A","7053250","2023-03-29 12:00","2023","03","29","12:00","0.2","","-0.8","","93","","","","30","","14","","2.0","","101.53","","","","","","Fog"
"-61.78","47.43","ILES DE LA MADELEINE A","7053250","2023-03-29 13:00","2023","03","29","13:00","-0.6","","-1.4","","95","","","","31","","13","","1.6","","101.53","","","","-5","","Fog"
"-61.78","47.43","ILES DE LA MADELEINE A","7053250","2023-03-29 14:00","2023","03","29","14:00","0.4","","-0.8","","91","","","","29","","13","","32.2","","101.52","","","","","","Mostly Cloudy"
"-61.78","47.43","ILES DE LA MADELEINE A","7053250","2023-03-29 15:00","2023","03","29","15:00","-0.8","","-1.6","","94","","","","28","","11","","1.6","","101.53","","","","-5","","Fog"
"-61.78","47.43","ILES DE LA MADELEINE A","7053250","2023-03-29 16:00","2023","03","29","16:00","-1.6","","-1.9","","97","","","","29","","14","","0.8","","101.56","","","","-6","","Freezing Fog"
"-61.78","47.43","ILES DE LA MADELEINE A","7053250","2023-03-29 17:00","2023","03","29","17:00","-1.9","","-2.2","","98","","","","31","","10","","0.6","","101.56","","","","-6","","Freezing Fog"
"-61.78","47.43","ILES DE LA MADELEINE A","7053250","2023-03-29 18:00","2023","03","29","18:00","-1.8","","-2.0","","99","","","","32","","11","","1.0","","101.57","","","","-6","","Fog"
"-61.78","47.43","ILES DE LA MADELEINE A","7053250","2023-03-29 19:00","2023","03","29","19:00","-2.2","","-2.4","","99","","","","33","","3","","1.2","","101.56","","","","-3","","Fog"
"-61.78","47.43","ILES DE LA MADELEINE A","7053250","2023-03-29 20:00","2023","03","29","20:00","-2.5","","-2.6","","99","","","","20","","7","","1.0","","101.60","","","","-5","","Fog"
"-61.78","47.43","ILES DE LA MADELEINE A","7053250","2023-03-29 21:00","2023","03","29","21:00","-2.3","","-2.4","","99","","","","20","","9","","1.6","","101.62","","","","-6","","Fog"
"-61.78","47.43","ILES DE LA MADELEINE A","7053250","2023-03-29 22:00","2023","03","29","22:00","-2.6","","-2.8","","99","","","","20","","10","","1.6","","101.63","","","","-6","","Fog"
"-61.78","47.43","ILES DE LA MADELEINE A","7053250","2023-03-29 23:00","2023","03","29","23:00"
"-61.78","47.43","ILES DE LA MADELEINE A","7053250","2023-03-30 00:00","2023","03","30","00:00"
"-61.78","47.43","ILES DE LA MADELEINE A","7053250","2023-03-30 01:00","2023","03","30","01:00"
"-61.78","47.43","ILES DE LA MADELEINE A","7053250","2023-03-30 02:00","2023","03","30","02:00"
"-61.78","47.43","ILES DE LA MADELEINE A","7053250","2023-03-30 03:00","2023","03","30","03:00"
"-61.78","47.43","ILES DE LA MADELEINE A","7053250","2023-03-30 04:00","2023","03","30","04:00"
"-61.78","47.43","ILES DE LA MADELEINE A","7053250","2023-03-30 05:00","2023","03","30","05:00","-2.9","","-3.2","","98","","","","18","","19","","2.4","","101.48","","","","-9","","Freezing Drizzle"
"-61.78","47.43","ILES DE LA MADELEINE A","7053250","2023-03-30 06:00","2023","03","30","06:00","-3.0","","-3.3","","98","","","","16","","12","","1.6","","101.47","","","","-7","","Fog"
"-61.78","47.43","ILES DE LA MADELEINE A","7053250","2023-03-30 07:00","2023","03","30","07:00","-2.9","","-3.1","","98","","","","14","","14","","1.2","","101.47","","","","-8","","Fog"
"-61.78","47.43","ILES DE LA MADELEINE A","7053250","2023-03-30 08:00","2023","03","30","08:00","-2.5","","-2.7","","98","","","","14","","15","","1.2","","101.43","","","","-7","","Fog"
"-61.78","47.43","ILES DE LA MADELEINE A","7053250","2023-03-30 09:00","2023","03","30","09:00","-2.2","","-2.5","","98","","","","13","","20","","1.2","","101.39","","","","-8","","Fog"
"-61.78","47.43","ILES DE LA MADELEINE A","7053250","2023-03-30 10:00","2023","03","30","10:00","-1.4","","-1.7","","98","","","","15","","25","","2.0","","101.34","","","","-8","","Fog"
"-61.78","47.43","ILES DE LA MADELEINE A","7053250","2023-03-30 11:00","2023","03","30","11:00","-0.9","","-1.2","","98","","","","16","","25","","4.8","","101.29","","","","-7","","Fog"
"-61.78","47.43","ILES DE LA MADELEINE A","7053250","2023-03-30 12:00","2023","03","30","12:00","-1.0","","-1.4","","98","","","","16","","21","","2.4","","101.27","","","","-7","","Fog"
"-61.78","47.43","ILES DE LA MADELEINE A","7053250","2023-03-30 13:00","2023","03","30","13:00","-0.1","","-0.7","","96","","","","18","","20","","16.1","","101.20","","","","-5","","NA"
"-61.78","47.43","ILES DE LA MADELEINE A","7053250","2023-03-30 14:00","2023","03","30","14:00","1.8","","-0.5","","85","","","","17","","20","","24.1","","101.11","","","","","","Mainly Clear"
"-61.78","47.43","ILES DE LA MADELEINE A","7053250","2023-03-30 15:00","2023","03","30","15:00","2.7","","-0.6","","79","","","","16","","24","","24.1","","101.05","","","","","","NA"
"-61.78","47.43","ILES DE LA MADELEINE A","7053250","2023-03-30 16:00","2023","03","30","16:00","2.8","","-1.4","","74","","","","16","","24","","32.2","","101.01","","","","","","NA"
"-61.78","47.43","ILES DE LA MADELEINE A","7053250","2023-03-30 17:00","2023","03","30","17:00","1.7","","-1.0","","82","","","","14","","22","","32.2","","100.97","","","","","","Mostly Cloudy"
"-61.78","47.43","ILES DE LA MADELEINE A","7053250","2023-03-30 18:00","2023","03","30","18:00","1.0","","-1.3","","84","","","","14","","22","","32.2","","100.94","","","","","","NA"
"-61.78","47.43","ILES DE LA MADELEINE A","7053250","2023-03-30 19:00","2023","03","30","19:00","0.8","","-1.7","","84","","","","13","","21","","24.1","","100.92","","","","","","NA"
"-61.78","47.43","ILES DE LA MADELEINE A","7053250","2023-03-30 20:00","2023","03","30","20:00","1.1","","-1.8","","81","","","","15","","23","","24.1","","100.94","","","","","","Mostly Cloudy"
"-61.78","47.43","ILES DE LA MADELEINE A","7053250","2023-03-30 21:00","2023","03","30","21:00","1.3","","-2.3","","77","","","","17","","27","","24.1","","100.98","","","","","","NA"
"-61.78","47.43","ILES DE LA MADELEINE A","7053250","2023-03-30 22:00","2023","03","30","22:00","-2.4","","-3.4","","93","","","","26","","20","","9.7","","101.04","","","","-8","","Snow"
"-61.78","47.43","ILES DE LA MADELEINE A","7053250","2023-03-30 23:00","2023","03","30","23:00"
"-61.78","47.43","ILES DE LA MADELEINE A","7053250","2023-03-31 00:00","2023","03","31","00:00"
"-61.78","47.43","ILES DE LA MADELEINE A","7053250","2023-03-31 01:00","2023","03","31","01:00"
"-61.78","47.43","ILES DE LA MADELEINE A","7053250","2023-03-31 02:00","2023","03","31","02:00"
"-61.78","47.43","ILES DE LA MADELEINE A","7053250","2023-03-31 03:00","2023","03","31","03:00"
"-61.78","47.43","ILES DE LA MADELEINE A","7053250","2023-03-31 04:00","2023","03","31","04:00"
"-61.78","47.43","ILES DE LA MADELEINE A","7053250","2023-03-31 05:00","2023","03","31","05:00","-2.9","","-4.2","","90","","","","33","","24","","24.1","","101.13","","","","-10","","Snow"
"-61.78","47.43","ILES DE LA MADELEINE A","7053250","2023-03-31 06:00","2023","03","31","06:00","-2.1","","-3.0","","93","","","","33","","26","","16.1","","101.17","","","","-9","","Snow"
"-61.78","47.43","ILES DE LA MADELEINE A","7053250","2023-03-31 07:00","2023","03","31","07:00","-0.8","","-1.7","","94","","","","36","","26","","12.9","","101.24","","","","-7","","Snow"
"-61.78","47.43","ILES DE LA MADELEINE A","7053250","2023-03-31 08:00","2023","03","31","08:00","0.0","","-1.1","","92","","","","4","","28","","4.8","","101.31","","","","-6","","Snow"
"-61.78","47.43","ILES DE LA MADELEINE A","7053250","2023-03-31 09:00","2023","03","31","09:00","0.4","","-0.6","","93","","","","5","","27","","9.7","","101.41","","","","","","Snow"
"-61.78","47.43","ILES DE LA MADELEINE A","7053250","2023-03-31 10:00","2023","03","31","10:00","0.8","","-0.8","","89","","","","5","","21","","24.1","","101.52","","","","","","Snow"
"-61.78","47.43","ILES DE LA MADELEINE A","7053250","2023-03-31 11:00","2023","03","31","11:00","0.9","","-0.4","","91","","","","4","","20","","6.4","","101.60","","","","","","Snow"
"-61.78","47.43","ILES DE LA MADELEINE A","7053250","2023-03-31 12:00","2023","03","31","12:00","2.4","","0.2","","85","","","","2","","17","","24.1","","101.68","","","","","","NA"
"-61.78","47.43","ILES DE LA MADELEINE A","7053250","2023-03-31 13:00","2023","03","31","13:00","3.0","","-2.2","","69","","","","4","","18","","32.2","","101.70","","","","","","NA"
"-61.78","47.43","ILES DE LA MADELEINE A","7053250","2023-03-31 14:00","2023","03","31","14:00","2.6","","-0.8","","78","","","","3","","12","","32.2","","101.81","","","","","","Mostly Cloudy"
"-61.78","47.43","ILES DE LA MADELEINE A","7053250","2023-03-31 15:00","2023","03","31","15:00","2.9","","-0.2","","80","","","","35","","9","","32.2","","101.83","","","","","","NA"
"-61.78","47.43","ILES DE LA MADELEINE A","7053250","2023-03-31 16:00","2023","03","31","16:00","1.6","","-0.6","","85","","","","34","","12","","32.2","","101.88","","","","","","NA"
"-61.78","47.43","ILES DE LA MADELEINE A","7053250","2023-03-31 17:00","2023","03","31","17:00","1.1","","-0.9","","86","","","","34","","7","","32.2","","101.86","","","","","","Mainly Clear"
"-61.78","47.43","ILES DE LA MADELEINE A","7053250","2023-03-31 18:00","2023","03","31","18:00","0.7","","-1.1","","87","","","","9","","8","","32.2","","101.82","","","","","","NA"
"-61.78","47.43","ILES DE LA MADELEINE A","7053250","2023-03-31 19:00","2023","03","31","19:00","-0.3","","-1.6","","91","","","","18","","5","","24.1","","101.89","","","","-2","","NA"
"-61.78","47.43","ILES DE LA MADELEINE A","7053250","2023-03-31 20:00","2023","03","31","20:00","-0.9","","-1.9","","93","","","","21","","8","","24.1","","101.98","","","","-4","","Mainly Clear"
"-61.78","47.43","ILES DE LA MADELEINE A","7053250","2023-03-31 21:00","2023","03","31","21:00","-0.9","","-1.7","","95","","","","19","","8","","24.1","","102.00","","","","-4","","NA"
"-61.78","47.43","ILES DE LA MADELEINE A","7053250","2023-03-31 22:00","2023","03","31","22:00","-1.1","","-1.7","","96","","","","20","","9","","24.1","","101.98","","","","-4","","NA"
"-61.78","47.43","ILES DE LA MADELEINE A","7053250","2023-03-31 23:00","2023","03","31","23:00"
