"Longitude (x)","Latitude (y)","Station Name","Climate ID","Date/Time (LST)","Year","Month","Day","Time (LST)","Temp (°C)","Temp Flag","Dew Point Temp (°C)","Dew Point Temp Flag","Rel Hum (%)","Rel Hum Flag","Precip. Amount (mm)","Precip. Amount Flag","Wind Dir (10s deg)","Wind Dir Flag","Wind Spd (km/h)","Wind Spd Flag","Visibility (km)","Visibility Flag","Stn Press (kPa)","Stn Press Flag","Hmdx","Hmdx Flag","Wind Chill","Wind Chill Flag","Weather"
"-57.10","51.02","FEROLLE POINT (AUT)","8401565","2022-11-01 00:30","2022","11","01","00:30","3.8","","-1.3","","69","","","M","1","","14","","","","101.56","","","","","","NA"
"-57.10","51.02","FEROLLE POINT (AUT)","8401565","2022-11-01 01:30","2022","11","01","01:30","3.7","","-1.7","","68","","","M","36","","6","","","","101.60","","","","","","NA"
"-57.10","51.02","FEROLLE POINT (AUT)","8401565","2022-11-01 02:30","2022","11","01","02:30","4.2","","-0.9","","69","","","M","34","","12","","","","101.67","","","","","","NA"
"-57.10","51.02","FEROLLE POINT (AUT)","8401565","2022-11-01 03:30","2022","11","01","03:30","3.9","","-1.6","","67","","","M","33","","5","","","","101.70","","","","","","NA"
"-57.10","51.02","FEROLLE POINT (AUT)","8401565","2022-11-01 04:30","2022","11","01","04:30","4.1","","-1.1","","69","","","M","31","","7","","","","101.68","","","","","","NA"
"-57.10","51.02","FEROLLE POINT (AUT)","8401565","2022-11-01 05:30","2022","11","01","05:30","3.9","","-1.0","","71","","","M","","","0","","","","101.67","","","","","","NA"
"-57.10","51.02","FEROLLE POINT (AUT)","8401565","2022-11-01 06:30","2022","11","01","06:30","1.7","","-2.1","","76","","","M","","","0","","","","101.71","","","","","","NA"
"-57.10","51.02","FEROLLE POINT (AUT)","8401565","2022-11-01 07:30","2022","11","01","07:30","2.2","","-0.5","","82","","","M","","","0","","","","101.72","","","","","","NA"
"-57.10","51.02","FEROLLE POINT (AUT)","8401565","2022-11-01 08:30","2022","11","01","08:30","3.8","","0.6","","80","","","M","11","","6","","","","101.75","","","","","","NA"
"-57.10","51.02","FEROLLE POINT (AUT)","8401565","2022-11-01 09:30","2022","11","01","09:30","4.8","","-0.1","","70","","","M","14","","12","","","","101.70","","","","","","NA"
"-57.10","51.02","FEROLLE POINT (AUT)","8401565","2022-11-01 10:30","2022","11","01","10:30","5.1","","0.1","","70","","","M","14","","4","","","","101.66","","","","","","NA"
"-57.10","51.02","FEROLLE POINT (AUT)","8401565","2022-11-01 11:30","2022","11","01","11:30","5.4","","0.4","","70","","","M","14","","6","","","","101.62","","","","","","NA"
"-57.10","51.02","FEROLLE POINT (AUT)","8401565","2022-11-01 12:30","2022","11","01","12:30","6.3","","0.8","","68","","","M","0","","1","","","","101.55","","","","","","NA"
"-57.10","51.02","FEROLLE POINT (AUT)","8401565","2022-11-01 13:30","2022","11","01","13:30","7.1","","1.3","","67","","","M","17","","6","","","","101.50","","","","","","NA"
"-57.10","51.02","FEROLLE POINT (AUT)","8401565","2022-11-01 14:30","2022","11","01","14:30","7.0","","1.6","","68","","","M","15","","5","","","","101.43","","","","","","NA"
"-57.10","51.02","FEROLLE POINT (AUT)","8401565","2022-11-01 15:30","2022","11","01","15:30","6.9","","1.5","","68","","","M","22","","12","","","","101.36","","","","","","NA"
"-57.10","51.02","FEROLLE POINT (AUT)","8401565","2022-11-01 16:30","2022","11","01","16:30","6.9","","2.1","","71","","","M","22","","15","","","","101.30","","","","","","NA"
"-57.10","51.02","FEROLLE POINT (AUT)","8401565","2022-11-01 17:30","2022","11","01","17:30","7.0","","2.5","","73","","","M","21","","16","","","","101.29","","","","","","NA"
"-57.10","51.02","FEROLLE POINT (AUT)","8401565","2022-11-01 18:30","2022","11","01","18:30","6.7","","2.9","","77","","","M","20","","18","","","","101.26","","","","","","NA"
"-57.10","51.02","FEROLLE POINT (AUT)","8401565","2022-11-01 19:30","2022","11","01","19:30","6.7","","2.6","","75","","","M","21","","20","","","","101.18","","","","","","NA"
"-57.10","51.02","FEROLLE POINT (AUT)","8401565","2022-11-01 20:30","2022","11","01","20:30","7.2","","3.6","","78","","","M","20","","19","","","","101.10","","","","","","NA"
"-57.10","51.02","FEROLLE POINT (AUT)","8401565","2022-11-01 21:30","2022","11","01","21:30","8.1","","4.4","","77","","","M","20","","21","","","","101.00","","","","","","NA"
"-57.10","51.02","FEROLLE POINT (AUT)","8401565","2022-11-01 22:30","2022","11","01","22:30","8.5","","4.7","","77","","","M","20","","19","","","","100.91","","","","","","NA"
"-57.10","51.02","FEROLLE POINT (AUT)","8401565","2022-11-01 23:30","2022","11","01","23:30","8.5","","5.0","","78","","","M","18","","16","","","","100.78","","","","","","NA"
"-57.10","51.02","FEROLLE POINT (AUT)","8401565","2022-11-02 00:30","2022","11","02","00:30","7.3","","4.7","","84","","","M","15","","12","","","","100.70","","","","","","NA"
"-57.10","51.02","FEROLLE POINT (AUT)","8401565","2022-11-02 01:30","2022","11","02","01:30","9.0","","6.1","","82","","","M","18","","16","","","","100.58","","","","","","NA"
"-57.10","51.02","FEROLLE POINT (AUT)","8401565","2022-11-02 02:30","2022","11","02","02:30","9.5","","6.8","","84","","","M","18","","12","","","","100.47","","","","","","NA"
"-57.10","51.02","FEROLLE POINT (AUT)","8401565","2022-11-02 03:30","2022","11","02","03:30","9.8","","6.5","","80","","","M","20","","26","","","","100.32","","","","","","NA"
"-57.10","51.02","FEROLLE POINT (AUT)","8401565","2022-11-02 04:30","2022","11","02","04:30","8.6","","8.2","","98","","","M","19","","18","","","","100.19","","","","","","NA"
"-57.10","51.02","FEROLLE POINT (AUT)","8401565","2022-11-02 05:30","2022","11","02","05:30","9.0","","8.6","","98","","","M","18","","28","","","","100.02","","","","","","NA"
"-57.10","51.02","FEROLLE POINT (AUT)","8401565","2022-11-02 06:30","2022","11","02","06:30","9.0","","9.0","","100","","","M","19","","27","","","","99.85","","","","","","NA"
"-57.10","51.02","FEROLLE POINT (AUT)","8401565","2022-11-02 07:30","2022","11","02","07:30","8.7","","8.6","","100","","","M","20","","30","","","","99.75","","","","","","NA"
"-57.10","51.02","FEROLLE POINT (AUT)","8401565","2022-11-02 08:30","2022","11","02","08:30","9.1","","9.0","","100","","","M","24","","23","","","","99.67","","","","","","NA"
"-57.10","51.02","FEROLLE POINT (AUT)","8401565","2022-11-02 09:30","2022","11","02","09:30","8.6","","8.6","","100","","","M","27","","25","","","","99.56","","","","","","NA"
"-57.10","51.02","FEROLLE POINT (AUT)","8401565","2022-11-02 10:30","2022","11","02","10:30","7.9","","7.9","","100","","","M","31","","35","","","","99.44","","","","","","NA"
"-57.10","51.02","FEROLLE POINT (AUT)","8401565","2022-11-02 11:30","2022","11","02","11:30","7.5","","5.4","","86","","","M","34","","45","","","","99.47","","","","","","NA"
"-57.10","51.02","FEROLLE POINT (AUT)","8401565","2022-11-02 12:30","2022","11","02","12:30","7.3","","4.1","","80","","","M","34","","54","","","","99.54","","","","","","NA"
"-57.10","51.02","FEROLLE POINT (AUT)","8401565","2022-11-02 13:30","2022","11","02","13:30","7.5","","3.9","","78","","","M","33","","48","","","","99.59","","","","","","NA"
"-57.10","51.02","FEROLLE POINT (AUT)","8401565","2022-11-02 14:30","2022","11","02","14:30","6.3","","3.4","","82","","","M","33","","58","","","","99.69","","","","","","NA"
"-57.10","51.02","FEROLLE POINT (AUT)","8401565","2022-11-02 15:30","2022","11","02","15:30","6.9","","2.2","","72","","","M","33","","48","","","","99.73","","","","","","NA"
"-57.10","51.02","FEROLLE POINT (AUT)","8401565","2022-11-02 16:30","2022","11","02","16:30","6.4","","1.5","","71","","","M","33","","52","","","","99.84","","","","","","NA"
"-57.10","51.02","FEROLLE POINT (AUT)","8401565","2022-11-02 17:30","2022","11","02","17:30","6.0","","0.5","","67","","","M","34","","65","","","","99.93","","","","","","NA"
"-57.10","51.02","FEROLLE POINT (AUT)","8401565","2022-11-02 18:30","2022","11","02","18:30","5.3","","-0.3","","67","","","M","33","","58","","","","100.08","","","","","","NA"
"-57.10","51.02","FEROLLE POINT (AUT)","8401565","2022-11-02 19:30","2022","11","02","19:30","4.8","","-1.4","","65","","","M","34","","58","","","","100.22","","","","","","NA"
"-57.10","51.02","FEROLLE POINT (AUT)","8401565","2022-11-02 20:30","2022","11","02","20:30","4.0","","-2.9","","61","","","M","33","","56","","","","100.30","","","","","","NA"
"-57.10","51.02","FEROLLE POINT (AUT)","8401565","2022-11-02 21:30","2022","11","02","21:30","3.0","","-4.1","","59","","","M","33","","56","","","","100.40","","","","","","NA"
"-57.10","51.02","FEROLLE POINT (AUT)","8401565","2022-11-02 22:30","2022","11","02","22:30","2.8","","-4.7","","58","","","M","34","","55","","","","100.44","","","","","","NA"
"-57.10","51.02","FEROLLE POINT (AUT)","8401565","2022-11-02 23:30","2022","11","02","23:30","2.9","","-3.1","","65","","","M","32","","49","","","","100.43","","","","","","NA"
"-57.10","51.02","FEROLLE POINT (AUT)","8401565","2022-11-03 00:30","2022","11","03","00:30","2.3","","-4.6","","60","","","M","33","","55","","","","100.48","","","","","","NA"
"-57.10","51.02","FEROLLE POINT (AUT)","8401565","2022-11-03 01:30","2022","11","03","01:30","2.2","","-4.8","","60","","","M","32","","51","","","","100.52","","","","","","NA"
"-57.10","51.02","FEROLLE POINT (AUT)","8401565","2022-11-03 02:30","2022","11","03","02:30","2.1","","-5.9","","56","","","M","33","","56","","","","100.56","","","","","","NA"
"-57.10","51.02","FEROLLE POINT (AUT)","8401565","2022-11-03 03:30","2022","11","03","03:30","2.1","","-4.9","","60","","","M","34","","52","","","","100.62","","","","","","NA"
"-57.10","51.02","FEROLLE POINT (AUT)","8401565","2022-11-03 04:30","2022","11","03","04:30","2.0","","-4.3","","63","","","M","34","","54","","","","100.70","","","","","","NA"
"-57.10","51.02","FEROLLE POINT (AUT)","8401565","2022-11-03 05:30","2022","11","03","05:30","2.0","","-4.8","","61","","","M","34","","49","","","","100.77","","","","","","NA"
"-57.10","51.02","FEROLLE POINT (AUT)","8401565","2022-11-03 06:30","2022","11","03","06:30","2.0","","-4.2","","63","","","M","33","","42","","","","100.85","","","","","","NA"
"-57.10","51.02","FEROLLE POINT (AUT)","8401565","2022-11-03 07:30","2022","11","03","07:30","1.6","","-4.7","","63","","","M","32","","42","","","","100.95","","","","","","NA"
"-57.10","51.02","FEROLLE POINT (AUT)","8401565","2022-11-03 08:30","2022","11","03","08:30","1.2","","-5.5","","61","","","M","32","","40","","","","101.01","","","","","","NA"
"-57.10","51.02","FEROLLE POINT (AUT)","8401565","2022-11-03 09:30","2022","11","03","09:30","0.8","","-5.3","","64","","","M","31","","37","","","","101.03","","","","","","NA"
"-57.10","51.02","FEROLLE POINT (AUT)","8401565","2022-11-03 10:30","2022","11","03","10:30","0.9","","-6.0","","60","","","M","30","","37","","","","101.06","","","","","","NA"
"-57.10","51.02","FEROLLE POINT (AUT)","8401565","2022-11-03 11:30","2022","11","03","11:30","1.2","","-6.7","","56","","","M","31","","34","","","","101.07","","","","","","NA"
"-57.10","51.02","FEROLLE POINT (AUT)","8401565","2022-11-03 12:30","2022","11","03","12:30","1.1","","-7.5","","53","","","M","29","","39","","","","101.03","","","","","","NA"
"-57.10","51.02","FEROLLE POINT (AUT)","8401565","2022-11-03 13:30","2022","11","03","13:30","2.1","","-7.1","","51","","","M","30","","42","","","","100.98","","","","","","NA"
"-57.10","51.02","FEROLLE POINT (AUT)","8401565","2022-11-03 14:30","2022","11","03","14:30","2.5","","-7.1","","49","","","M","28","","34","","","","100.98","","","","","","NA"
"-57.10","51.02","FEROLLE POINT (AUT)","8401565","2022-11-03 15:30","2022","11","03","15:30","3.1","","-5.8","","52","","","M","29","","40","","","","100.97","","","","","","NA"
"-57.10","51.02","FEROLLE POINT (AUT)","8401565","2022-11-03 16:30","2022","11","03","16:30","4.0","","-4.5","","54","","","M","29","","43","","","","101.01","","","","","","NA"
"-57.10","51.02","FEROLLE POINT (AUT)","8401565","2022-11-03 17:30","2022","11","03","17:30","4.4","","-6.1","","46","","","M","29","","45","","","","100.99","","","","","","NA"
"-57.10","51.02","FEROLLE POINT (AUT)","8401565","2022-11-03 18:30","2022","11","03","18:30","5.0","","-5.4","","47","","","M","30","","42","","","","101.01","","","","","","NA"
"-57.10","51.02","FEROLLE POINT (AUT)","8401565","2022-11-03 19:30","2022","11","03","19:30","5.4","","-4.1","","50","","","M","29","","36","","","","101.00","","","","","","NA"
"-57.10","51.02","FEROLLE POINT (AUT)","8401565","2022-11-03 20:30","2022","11","03","20:30","5.3","","-4.9","","48","","","M","30","","39","","","","100.97","","","","","","NA"
"-57.10","51.02","FEROLLE POINT (AUT)","8401565","2022-11-03 21:30","2022","11","03","21:30","5.4","","-4.0","","51","","","M","30","","36","","","","101.02","","","","","","NA"
"-57.10","51.02","FEROLLE POINT (AUT)","8401565","2022-11-03 22:30","2022","11","03","22:30","5.1","","-3.7","","53","","","M","30","","34","","","","101.04","","","","","","NA"
"-57.10","51.02","FEROLLE POINT (AUT)","8401565","2022-11-03 23:30","2022","11","03","23:30","5.0","","-3.1","","56","","","M","30","","34","","","","101.07","","","","","","NA"
"-57.10","51.02","FEROLLE POINT (AUT)","8401565","2022-11-04 00:30","2022","11","04","00:30","4.7","","-4.5","","51","","","M","30","","32","","","","101.08","","","","","","NA"
"-57.10","51.02","FEROLLE POINT (AUT)","8401565","2022-11-04 01:30","2022","11","04","01:30","4.7","","-2.4","","60","","","M","31","","32","","","","101.12","","","","","","NA"
"-57.10","51.02","FEROLLE POINT (AUT)","8401565","2022-11-04 02:30","2022","11","04","02:30","3.4","","-2.3","","66","","","M","30","","22","","","","101.11","","","","","","NA"
"-57.10","51.02","FEROLLE POINT (AUT)","8401565","2022-11-04 03:30","2022","11","04","03:30","3.4","","-1.6","","69","","","M","32","","18","","","","101.16","","","","","","NA"
"-57.10","51.02","FEROLLE POINT (AUT)","8401565","2022-11-04 04:30","2022","11","04","04:30","3.5","","-1.4","","70","","","M","31","","14","","","","101.17","","","","","","NA"
"-57.10","51.02","FEROLLE POINT (AUT)","8401565","2022-11-04 05:30","2022","11","04","05:30","3.5","","-1.5","","70","","","M","30","","13","","","","101.21","","","","","","NA"
"-57.10","51.02","FEROLLE POINT (AUT)","8401565","2022-11-04 06:30","2022","11","04","06:30","3.5","","-1.4","","70","","","M","28","","12","","","","101.25","","","","","","NA"
"-57.10","51.02","FEROLLE POINT (AUT)","8401565","2022-11-04 07:30","2022","11","04","07:30","3.5","","-1.3","","71","","","M","30","","11","","","","101.34","","","","","","NA"
"-57.10","51.02","FEROLLE POINT (AUT)","8401565","2022-11-04 08:30","2022","11","04","08:30","3.9","","-2.5","","63","","","M","33","","11","","","","101.44","","","","","","NA"
"-57.10","51.02","FEROLLE POINT (AUT)","8401565","2022-11-04 09:30","2022","11","04","09:30","4.1","","-3.1","","59","","","M","33","","12","","","","101.51","","","","","","NA"
"-57.10","51.02","FEROLLE POINT (AUT)","8401565","2022-11-04 10:30","2022","11","04","10:30","4.3","","-2.9","","59","","","M","34","","8","","","","101.53","","","","","","NA"
"-57.10","51.02","FEROLLE POINT (AUT)","8401565","2022-11-04 11:30","2022","11","04","11:30","4.2","","-2.3","","63","","","M","35","","3","","","","101.54","","","","","","NA"
"-57.10","51.02","FEROLLE POINT (AUT)","8401565","2022-11-04 12:30","2022","11","04","12:30","4.6","","-1.9","","63","","","M","23","","5","","","","101.50","","","","","","NA"
"-57.10","51.02","FEROLLE POINT (AUT)","8401565","2022-11-04 13:30","2022","11","04","13:30","4.8","","-1.4","","64","","","M","29","","6","","","","101.58","","","","","","NA"
"-57.10","51.02","FEROLLE POINT (AUT)","8401565","2022-11-04 14:30","2022","11","04","14:30","6.4","","1.3","","69","","","M","22","","15","","","","101.52","","","","","","NA"
"-57.10","51.02","FEROLLE POINT (AUT)","8401565","2022-11-04 15:30","2022","11","04","15:30","6.3","","0.6","","67","","","M","24","","15","","","","101.51","","","","","","NA"
"-57.10","51.02","FEROLLE POINT (AUT)","8401565","2022-11-04 16:30","2022","11","04","16:30","6.7","","2.4","","74","","","M","22","","19","","","","101.47","","","","","","NA"
"-57.10","51.02","FEROLLE POINT (AUT)","8401565","2022-11-04 17:30","2022","11","04","17:30","7.2","","3.7","","78","","","M","23","","22","","","","101.44","","","","","","NA"
"-57.10","51.02","FEROLLE POINT (AUT)","8401565","2022-11-04 18:30","2022","11","04","18:30","7.9","","4.9","","82","","","M","22","","23","","","","101.40","","","","","","NA"
"-57.10","51.02","FEROLLE POINT (AUT)","8401565","2022-11-04 19:30","2022","11","04","19:30","7.5","","5.6","","88","","","M","19","","21","","","","101.40","","","","","","NA"
"-57.10","51.02","FEROLLE POINT (AUT)","8401565","2022-11-04 20:30","2022","11","04","20:30","7.8","","6.2","","90","","","M","19","","32","","","","101.28","","","","","","NA"
"-57.10","51.02","FEROLLE POINT (AUT)","8401565","2022-11-04 21:30","2022","11","04","21:30","9.0","","7.5","","91","","","M","21","","40","","","","101.23","","","","","","NA"
"-57.10","51.02","FEROLLE POINT (AUT)","8401565","2022-11-04 22:30","2022","11","04","22:30","8.9","","7.4","","90","","","M","20","","42","","","","101.15","","","","","","NA"
"-57.10","51.02","FEROLLE POINT (AUT)","8401565","2022-11-04 23:30","2022","11","04","23:30","9.1","","7.5","","90","","","M","21","","41","","","","101.07","","","","","","NA"
"-57.10","51.02","FEROLLE POINT (AUT)","8401565","2022-11-05 00:30","2022","11","05","00:30","9.1","","7.5","","90","","","M","21","","52","","","","100.95","","","","","","NA"
"-57.10","51.02","FEROLLE POINT (AUT)","8401565","2022-11-05 01:30","2022","11","05","01:30","9.3","","7.4","","88","","","M","21","","47","","","","100.89","","","","","","NA"
"-57.10","51.02","FEROLLE POINT (AUT)","8401565","2022-11-05 02:30","2022","11","05","02:30","9.7","","7.4","","85","","","M","20","","50","","","","100.75","","","","","","NA"
"-57.10","51.02","FEROLLE POINT (AUT)","8401565","2022-11-05 03:30","2022","11","05","03:30","10.1","","7.9","","86","","","M","21","","50","","","","100.69","","","","","","NA"
"-57.10","51.02","FEROLLE POINT (AUT)","8401565","2022-11-05 04:30","2022","11","05","04:30","9.9","","8.1","","89","","","M","21","","52","","","","100.67","","","","","","NA"
"-57.10","51.02","FEROLLE POINT (AUT)","8401565","2022-11-05 05:30","2022","11","05","05:30","9.7","","8.1","","89","","","M","21","","52","","","","100.60","","","","","","NA"
"-57.10","51.02","FEROLLE POINT (AUT)","8401565","2022-11-05 06:30","2022","11","05","06:30","9.7","","8.1","","89","","","M","21","","54","","","","100.51","","","","","","NA"
"-57.10","51.02","FEROLLE POINT (AUT)","8401565","2022-11-05 07:30","2022","11","05","07:30","9.7","","8.0","","90","","","M","21","","50","","","","100.51","","","","","","NA"
"-57.10","51.02","FEROLLE POINT (AUT)","8401565","2022-11-05 08:30","2022","11","05","08:30","10.0","","8.0","","88","","","M","21","","48","","","","100.56","","","","","","NA"
"-57.10","51.02","FEROLLE POINT (AUT)","8401565","2022-11-05 09:30","2022","11","05","09:30","10.2","","8.1","","87","","","M","21","","52","","","","100.51","","","","","","NA"
"-57.10","51.02","FEROLLE POINT (AUT)","8401565","2022-11-05 10:30","2022","11","05","10:30","10.3","","8.1","","86","","","M","22","","55","","","","100.47","","","","","","NA"
"-57.10","51.02","FEROLLE POINT (AUT)","8401565","2022-11-05 11:30","2022","11","05","11:30","9.9","","8.2","","89","","","M","22","","52","","","","100.50","","","","","","NA"
"-57.10","51.02","FEROLLE POINT (AUT)","8401565","2022-11-05 12:30","2022","11","05","12:30","9.9","","8.2","","89","","","M","23","","48","","","","100.54","","","","","","NA"
"-57.10","51.02","FEROLLE POINT (AUT)","8401565","2022-11-05 13:30","2022","11","05","13:30","9.8","","8.1","","89","","","M","23","","43","","","","100.61","","","","","","NA"
"-57.10","51.02","FEROLLE POINT (AUT)","8401565","2022-11-05 14:30","2022","11","05","14:30","9.5","","8.4","","93","","","M","23","","40","","","","100.63","","","","","","NA"
"-57.10","51.02","FEROLLE POINT (AUT)","8401565","2022-11-05 15:30","2022","11","05","15:30","9.5","","8.5","","93","","","M","23","","39","","","","100.73","","","","","","NA"
"-57.10","51.02","FEROLLE POINT (AUT)","8401565","2022-11-05 16:30","2022","11","05","16:30","9.5","","8.4","","93","","","M","25","","25","","","","100.88","","","","","","NA"
"-57.10","51.02","FEROLLE POINT (AUT)","8401565","2022-11-05 17:30","2022","11","05","17:30","9.4","","8.8","","96","","","M","23","","24","","","","100.97","","","","","","NA"
"-57.10","51.02","FEROLLE POINT (AUT)","8401565","2022-11-05 18:30","2022","11","05","18:30","9.1","","8.6","","97","","","M","31","","16","","","","101.15","","","","","","NA"
"-57.10","51.02","FEROLLE POINT (AUT)","8401565","2022-11-05 19:30","2022","11","05","19:30","8.8","","7.9","","94","","","M","34","","9","","","","101.26","","","","","","NA"
"-57.10","51.02","FEROLLE POINT (AUT)","8401565","2022-11-05 20:30","2022","11","05","20:30","8.7","","7.5","","92","","","M","1","","12","","","","101.39","","","","","","NA"
"-57.10","51.02","FEROLLE POINT (AUT)","8401565","2022-11-05 21:30","2022","11","05","21:30","8.2","","4.0","","75","","","M","3","","31","","","","101.55","","","","","","NA"
"-57.10","51.02","FEROLLE POINT (AUT)","8401565","2022-11-05 22:30","2022","11","05","22:30","7.9","","2.8","","70","","","M","2","","22","","","","101.69","","","","","","NA"
"-57.10","51.02","FEROLLE POINT (AUT)","8401565","2022-11-05 23:30","2022","11","05","23:30","7.5","","2.7","","72","","","M","1","","16","","","","101.77","","","","","","NA"
"-57.10","51.02","FEROLLE POINT (AUT)","8401565","2022-11-06 00:30","2022","11","06","00:30","7.0","","2.6","","74","","","M","1","","19","","","","101.85","","","","","","NA"
"-57.10","51.02","FEROLLE POINT (AUT)","8401565","2022-11-06 01:30","2022","11","06","01:30","5.2","","3.3","","87","","","M","9","","25","","","","101.89","","","","","","NA"
"-57.10","51.02","FEROLLE POINT (AUT)","8401565","2022-11-06 02:30","2022","11","06","02:30","4.6","","0.7","","76","","","M","7","","25","","","","102.00","","","","","","NA"
"-57.10","51.02","FEROLLE POINT (AUT)","8401565","2022-11-06 03:30","2022","11","06","03:30","4.6","","0.1","","72","","","M","8","","20","","","","102.06","","","","","","NA"
"-57.10","51.02","FEROLLE POINT (AUT)","8401565","2022-11-06 04:30","2022","11","06","04:30","4.4","","0.1","","73","","","M","8","","21","","","","102.10","","","","","","NA"
"-57.10","51.02","FEROLLE POINT (AUT)","8401565","2022-11-06 05:30","2022","11","06","05:30","3.8","","0.3","","78","","","M","9","","19","","","","102.13","","","","","","NA"
"-57.10","51.02","FEROLLE POINT (AUT)","8401565","2022-11-06 06:30","2022","11","06","06:30","3.6","","-0.4","","75","","","M","9","","25","","","","102.15","","","","","","NA"
"-57.10","51.02","FEROLLE POINT (AUT)","8401565","2022-11-06 07:30","2022","11","06","07:30","3.5","","0.1","","79","","","M","8","","24","","","","102.10","","","","","","NA"
"-57.10","51.02","FEROLLE POINT (AUT)","8401565","2022-11-06 08:30","2022","11","06","08:30","3.6","","0.4","","79","","","M","8","","23","","","","102.13","","","","","","NA"
"-57.10","51.02","FEROLLE POINT (AUT)","8401565","2022-11-06 09:30","2022","11","06","09:30","3.9","","0.8","","80","","","M","10","","22","","","","102.12","","","","","","NA"
"-57.10","51.02","FEROLLE POINT (AUT)","8401565","2022-11-06 10:30","2022","11","06","10:30","3.5","","2.4","","93","","","M","9","","23","","","","102.05","","","","","","NA"
"-57.10","51.02","FEROLLE POINT (AUT)","8401565","2022-11-06 11:30","2022","11","06","11:30","3.4","","0.7","","82","","","M","11","","26","","","","101.96","","","","","","NA"
"-57.10","51.02","FEROLLE POINT (AUT)","8401565","2022-11-06 12:30","2022","11","06","12:30","4.1","","1.1","","81","","","M","12","","27","","","","101.79","","","","","","NA"
"-57.10","51.02","FEROLLE POINT (AUT)","8401565","2022-11-06 13:30","2022","11","06","13:30","5.2","","2.1","","81","","","M","11","","22","","","","101.65","","","","","","NA"
"-57.10","51.02","FEROLLE POINT (AUT)","8401565","2022-11-06 14:30","2022","11","06","14:30","5.7","","2.8","","81","","","M","12","","20","","","","101.43","","","","","","NA"
"-57.10","51.02","FEROLLE POINT (AUT)","8401565","2022-11-06 15:30","2022","11","06","15:30","5.5","","4.6","","93","","","M","13","","19","","","","101.32","","","","","","NA"
"-57.10","51.02","FEROLLE POINT (AUT)","8401565","2022-11-06 16:30","2022","11","06","16:30","5.5","","5.5","","100","","","M","12","","7","","","","101.25","","","","","","NA"
"-57.10","51.02","FEROLLE POINT (AUT)","8401565","2022-11-06 17:30","2022","11","06","17:30","6.7","","6.6","","100","","","M","14","","13","","","","101.14","","","","","","NA"
"-57.10","51.02","FEROLLE POINT (AUT)","8401565","2022-11-06 18:30","2022","11","06","18:30","9.7","","9.7","","100","","","M","19","","34","","","","101.01","","","","","","NA"
"-57.10","51.02","FEROLLE POINT (AUT)","8401565","2022-11-06 19:30","2022","11","06","19:30","10.1","","10.0","","100","","","M","21","","38","","","","100.92","","","","","","NA"
"-57.10","51.02","FEROLLE POINT (AUT)","8401565","2022-11-06 20:30","2022","11","06","20:30","9.9","","9.8","","100","","","M","21","","41","","","","100.86","","","","","","NA"
"-57.10","51.02","FEROLLE POINT (AUT)","8401565","2022-11-06 21:30","2022","11","06","21:30","9.6","","9.6","","100","","","M","21","","39","","","","100.88","","","","","","NA"
"-57.10","51.02","FEROLLE POINT (AUT)","8401565","2022-11-06 22:30","2022","11","06","22:30","9.6","","9.6","","100","","","M","22","","39","","","","100.80","","","","","","NA"
"-57.10","51.02","FEROLLE POINT (AUT)","8401565","2022-11-06 23:30","2022","11","06","23:30","9.7","","9.7","","100","","","M","21","","41","","","","100.78","","","","","","NA"
"-57.10","51.02","FEROLLE POINT (AUT)","8401565","2022-11-07 00:30","2022","11","07","00:30","9.9","","9.9","","100","","","M","21","","41","","","","100.69","","","","","","NA"
"-57.10","51.02","FEROLLE POINT (AUT)","8401565","2022-11-07 01:30","2022","11","07","01:30","10.1","","10.1","","100","","","M","20","","42","","","","100.60","","","","","","NA"
"-57.10","51.02","FEROLLE POINT (AUT)","8401565","2022-11-07 02:30","2022","11","07","02:30","10.2","","10.1","","100","","","M","20","","40","","","","100.55","","","","","","NA"
"-57.10","51.02","FEROLLE POINT (AUT)","8401565","2022-11-07 03:30","2022","11","07","03:30","10.2","","10.2","","100","","","M","21","","47","","","","100.51","","","","","","NA"
"-57.10","51.02","FEROLLE POINT (AUT)","8401565","2022-11-07 04:30","2022","11","07","04:30","10.0","","9.9","","100","","","M","22","","41","","","","100.51","","","","","","NA"
"-57.10","51.02","FEROLLE POINT (AUT)","8401565","2022-11-07 05:30","2022","11","07","05:30","9.7","","9.7","","100","","","M","22","","31","","","","100.49","","","","","","NA"
"-57.10","51.02","FEROLLE POINT (AUT)","8401565","2022-11-07 06:30","2022","11","07","06:30","9.6","","9.6","","100","","","M","22","","31","","","","100.51","","","","","","NA"
"-57.10","51.02","FEROLLE POINT (AUT)","8401565","2022-11-07 07:30","2022","11","07","07:30","9.7","","9.7","","100","","","M","23","","36","","","","100.49","","","","","","NA"
"-57.10","51.02","FEROLLE POINT (AUT)","8401565","2022-11-07 08:30","2022","11","07","08:30","9.6","","9.6","","100","","","M","25","","28","","","","100.49","","","","","","NA"
"-57.10","51.02","FEROLLE POINT (AUT)","8401565","2022-11-07 09:30","2022","11","07","09:30","9.4","","9.3","","100","","","M","23","","26","","","","100.40","","","","","","NA"
"-57.10","51.02","FEROLLE POINT (AUT)","8401565","2022-11-07 10:30","2022","11","07","10:30","9.5","","9.5","","100","","","M","22","","30","","","","100.36","","","","","","NA"
"-57.10","51.02","FEROLLE POINT (AUT)","8401565","2022-11-07 11:30","2022","11","07","11:30","9.7","","9.7","","100","","","M","23","","32","","","","100.35","","","","","","NA"
"-57.10","51.02","FEROLLE POINT (AUT)","8401565","2022-11-07 12:30","2022","11","07","12:30","9.5","","9.5","","100","","","M","22","","29","","","","100.25","","","","","","NA"
"-57.10","51.02","FEROLLE POINT (AUT)","8401565","2022-11-07 13:30","2022","11","07","13:30","9.4","","9.4","","100","","","M","21","","34","","","","100.08","","","","","","NA"
"-57.10","51.02","FEROLLE POINT (AUT)","8401565","2022-11-07 14:30","2022","11","07","14:30","9.5","","9.5","","100","","","M","21","","38","","","","100.00","","","","","","NA"
"-57.10","51.02","FEROLLE POINT (AUT)","8401565","2022-11-07 15:30","2022","11","07","15:30","9.5","","9.5","","100","","","M","20","","40","","","","99.90","","","","","","NA"
"-57.10","51.02","FEROLLE POINT (AUT)","8401565","2022-11-07 16:30","2022","11","07","16:30","9.9","","9.8","","100","","","M","20","","43","","","","99.73","","","","","","NA"
"-57.10","51.02","FEROLLE POINT (AUT)","8401565","2022-11-07 17:30","2022","11","07","17:30","10.1","","10.1","","100","","","M","20","","44","","","","99.59","","","","","","NA"
"-57.10","51.02","FEROLLE POINT (AUT)","8401565","2022-11-07 18:30","2022","11","07","18:30","10.0","","10.0","","100","","","M","20","","38","","","","99.36","","","","","","NA"
"-57.10","51.02","FEROLLE POINT (AUT)","8401565","2022-11-07 19:30","2022","11","07","19:30","10.3","","10.3","","100","","","M","20","","41","","","","99.20","","","","","","NA"
"-57.10","51.02","FEROLLE POINT (AUT)","8401565","2022-11-07 20:30","2022","11","07","20:30","9.8","","9.8","","100","","","M","21","","48","","","","99.02","","","","","","NA"
"-57.10","51.02","FEROLLE POINT (AUT)","8401565","2022-11-07 21:30","2022","11","07","21:30","8.8","","8.8","","100","","","M","21","","54","","","","98.83","","","","","","NA"
"-57.10","51.02","FEROLLE POINT (AUT)","8401565","2022-11-07 22:30","2022","11","07","22:30","8.8","","6.9","","88","","","M","23","","59","","","","98.76","","","","","","NA"
"-57.10","51.02","FEROLLE POINT (AUT)","8401565","2022-11-07 23:30","2022","11","07","23:30","8.0","","7.0","","94","","","M","23","","52","","","","98.73","","","","","","NA"
"-57.10","51.02","FEROLLE POINT (AUT)","8401565","2022-11-08 00:30","2022","11","08","00:30","8.3","","7.4","","94","","","M","25","","43","","","","98.67","","","","","","NA"
"-57.10","51.02","FEROLLE POINT (AUT)","8401565","2022-11-08 01:30","2022","11","08","01:30","8.1","","6.3","","89","","","M","25","","45","","","","98.57","","","","","","NA"
"-57.10","51.02","FEROLLE POINT (AUT)","8401565","2022-11-08 02:30","2022","11","08","02:30","7.8","","5.1","","83","","","M","26","","47","","","","98.55","","","","","","NA"
"-57.10","51.02","FEROLLE POINT (AUT)","8401565","2022-11-08 03:30","2022","11","08","03:30","7.5","","4.9","","83","","","M","27","","54","","","","98.61","","","","","","NA"
"-57.10","51.02","FEROLLE POINT (AUT)","8401565","2022-11-08 04:30","2022","11","08","04:30","7.0","","3.3","","78","","","M","29","","58","","","","98.68","","","","","","NA"
"-57.10","51.02","FEROLLE POINT (AUT)","8401565","2022-11-08 05:30","2022","11","08","05:30","6.1","","2.1","","76","","","M","28","","55","","","","98.75","","","","","","NA"
"-57.10","51.02","FEROLLE POINT (AUT)","8401565","2022-11-08 06:30","2022","11","08","06:30","6.0","","1.9","","75","","","M","28","","57","","","","98.74","","","","","","NA"
"-57.10","51.02","FEROLLE POINT (AUT)","8401565","2022-11-08 07:30","2022","11","08","07:30","6.0","","1.7","","74","","","M","28","","57","","","","98.80","","","","","","NA"
"-57.10","51.02","FEROLLE POINT (AUT)","8401565","2022-11-08 08:30","2022","11","08","08:30","5.5","","1.0","","73","","","M","29","","55","","","","98.81","","","","","","NA"
"-57.10","51.02","FEROLLE POINT (AUT)","8401565","2022-11-08 09:30","2022","11","08","09:30","4.6","","1.8","","82","","","M","29","","54","","","","98.85","","","","","","NA"
"-57.10","51.02","FEROLLE POINT (AUT)","8401565","2022-11-08 10:30","2022","11","08","10:30","4.6","","2.7","","88","","","M","29","","50","","","","98.86","","","","","","NA"
"-57.10","51.02","FEROLLE POINT (AUT)","8401565","2022-11-08 11:30","2022","11","08","11:30","5.5","","3.3","","86","","","M","31","","46","","","","98.92","","","","","","NA"
"-57.10","51.02","FEROLLE POINT (AUT)","8401565","2022-11-08 12:30","2022","11","08","12:30","5.7","","2.3","","79","","","M","32","","48","","","","99.00","","","","","","NA"
"-57.10","51.02","FEROLLE POINT (AUT)","8401565","2022-11-08 13:30","2022","11","08","13:30","5.9","","1.8","","75","","","M","34","","51","","","","99.16","","","","","","NA"
"-57.10","51.02","FEROLLE POINT (AUT)","8401565","2022-11-08 14:30","2022","11","08","14:30","5.9","","1.5","","73","","","M","35","","54","","","","99.31","","","","","","NA"
"-57.10","51.02","FEROLLE POINT (AUT)","8401565","2022-11-08 15:30","2022","11","08","15:30","5.6","","1.0","","72","","","M","35","","53","","","","99.50","","","","","","NA"
"-57.10","51.02","FEROLLE POINT (AUT)","8401565","2022-11-08 16:30","2022","11","08","16:30","4.8","","-0.5","","69","","","M","34","","57","","","","99.68","","","","","","NA"
"-57.10","51.02","FEROLLE POINT (AUT)","8401565","2022-11-08 17:30","2022","11","08","17:30","4.7","","-0.9","","67","","","M","35","","57","","","","99.85","","","","","","NA"
"-57.10","51.02","FEROLLE POINT (AUT)","8401565","2022-11-08 18:30","2022","11","08","18:30","4.3","","-1.0","","68","","","M","34","","51","","","","100.01","","","","","","NA"
"-57.10","51.02","FEROLLE POINT (AUT)","8401565","2022-11-08 19:30","2022","11","08","19:30","4.3","","-1.4","","66","","","M","35","","55","","","","100.11","","","","","","NA"
"-57.10","51.02","FEROLLE POINT (AUT)","8401565","2022-11-08 20:30","2022","11","08","20:30","4.0","","-0.9","","70","","","M","33","","49","","","","100.25","","","","","","NA"
"-57.10","51.02","FEROLLE POINT (AUT)","8401565","2022-11-08 21:30","2022","11","08","21:30","3.6","","-2.1","","66","","","M","34","","59","","","","100.32","","","","","","NA"
"-57.10","51.02","FEROLLE POINT (AUT)","8401565","2022-11-08 22:30","2022","11","08","22:30","3.5","","-1.4","","70","","","M","34","","52","","","","100.41","","","","","","NA"
"-57.10","51.02","FEROLLE POINT (AUT)","8401565","2022-11-08 23:30","2022","11","08","23:30","3.4","","-1.7","","69","","","M","33","","52","","","","100.49","","","","","","NA"
"-57.10","51.02","FEROLLE POINT (AUT)","8401565","2022-11-09 00:30","2022","11","09","00:30","3.3","","-2.2","","67","","","M","34","","51","","","","100.59","","","","","","NA"
"-57.10","51.02","FEROLLE POINT (AUT)","8401565","2022-11-09 01:30","2022","11","09","01:30","3.3","","-1.7","","70","","","M","34","","55","","","","100.67","","","","","","NA"
"-57.10","51.02","FEROLLE POINT (AUT)","8401565","2022-11-09 02:30","2022","11","09","02:30","2.9","","-3.0","","65","","","M","34","","52","","","","100.79","","","","","","NA"
"-57.10","51.02","FEROLLE POINT (AUT)","8401565","2022-11-09 03:30","2022","11","09","03:30","2.6","","-3.2","","65","","","M","34","","51","","","","100.91","","","","","","NA"
"-57.10","51.02","FEROLLE POINT (AUT)","8401565","2022-11-09 04:30","2022","11","09","04:30","2.5","","-3.3","","65","","","M","34","","56","","","","101.03","","","","","","NA"
"-57.10","51.02","FEROLLE POINT (AUT)","8401565","2022-11-09 05:30","2022","11","09","05:30","2.2","","-3.7","","65","","","M","34","","60","","","","101.12","","","","","","NA"
"-57.10","51.02","FEROLLE POINT (AUT)","8401565","2022-11-09 06:30","2022","11","09","06:30","2.1","","-4.5","","62","","","M","34","","55","","","","101.24","","","","","","NA"
"-57.10","51.02","FEROLLE POINT (AUT)","8401565","2022-11-09 07:30","2022","11","09","07:30","1.9","","-4.8","","61","","","M","34","","51","","","","101.38","","","","","","NA"
"-57.10","51.02","FEROLLE POINT (AUT)","8401565","2022-11-09 08:30","2022","11","09","08:30","2.1","","-4.1","","64","","","M","34","","50","","","","101.51","","","","","","NA"
"-57.10","51.02","FEROLLE POINT (AUT)","8401565","2022-11-09 09:30","2022","11","09","09:30","1.8","","-4.9","","61","","","M","34","","51","","","","101.56","","","","","","NA"
"-57.10","51.02","FEROLLE POINT (AUT)","8401565","2022-11-09 10:30","2022","11","09","10:30","1.6","","-5.6","","59","","","M","34","","49","","","","101.63","","","","","","NA"
"-57.10","51.02","FEROLLE POINT (AUT)","8401565","2022-11-09 11:30","2022","11","09","11:30","1.7","","-5.4","","59","","","M","34","","44","","","","101.67","","","","","","NA"
"-57.10","51.02","FEROLLE POINT (AUT)","8401565","2022-11-09 12:30","2022","11","09","12:30","1.5","","-5.3","","61","","","M","34","","45","","","","101.66","","","","","","NA"
"-57.10","51.02","FEROLLE POINT (AUT)","8401565","2022-11-09 13:30","2022","11","09","13:30","1.9","","-5.6","","58","","","M","34","","38","","","","101.70","","","","","","NA"
"-57.10","51.02","FEROLLE POINT (AUT)","8401565","2022-11-09 14:30","2022","11","09","14:30","1.7","","-5.5","","59","","","M","33","","38","","","","101.75","","","","","","NA"
"-57.10","51.02","FEROLLE POINT (AUT)","8401565","2022-11-09 15:30","2022","11","09","15:30","1.6","","-5.2","","60","","","M","34","","36","","","","101.83","","","","","","NA"
"-57.10","51.02","FEROLLE POINT (AUT)","8401565","2022-11-09 16:30","2022","11","09","16:30","1.2","","-5.6","","61","","","M","34","","37","","","","101.89","","","","","","NA"
"-57.10","51.02","FEROLLE POINT (AUT)","8401565","2022-11-09 17:30","2022","11","09","17:30","0.6","","-6.5","","59","","","M","33","","37","","","","101.94","","","","","","NA"
"-57.10","51.02","FEROLLE POINT (AUT)","8401565","2022-11-09 18:30","2022","11","09","18:30","0.4","","-6.5","","60","","","M","33","","36","","","","101.96","","","","","","NA"
"-57.10","51.02","FEROLLE POINT (AUT)","8401565","2022-11-09 19:30","2022","11","09","19:30","-0.2","","-6.5","","62","","","M","34","","37","","","","101.98","","","","-7","","NA"
"-57.10","51.02","FEROLLE POINT (AUT)","8401565","2022-11-09 20:30","2022","11","09","20:30","-0.5","","-6.5","","64","","","M","33","","24","","","","101.95","","","","-6","","NA"
"-57.10","51.02","FEROLLE POINT (AUT)","8401565","2022-11-09 21:30","2022","11","09","21:30","-0.9","","-6.5","","65","","","M","32","","31","","","","101.90","","","","-8","","NA"
"-57.10","51.02","FEROLLE POINT (AUT)","8401565","2022-11-09 22:30","2022","11","09","22:30","-1.4","","-7.5","","64","","","M","33","","32","","","","101.86","","","","-9","","NA"
"-57.10","51.02","FEROLLE POINT (AUT)","8401565","2022-11-09 23:30","2022","11","09","23:30","-1.7","","-7.2","","66","","","M","32","","23","","","","101.82","","","","-8","","NA"
"-57.10","51.02","FEROLLE POINT (AUT)","8401565","2022-11-10 00:30","2022","11","10","00:30","-1.7","","-7.0","","67","","","M","31","","17","","","","101.79","","","","-7","","NA"
"-57.10","51.02","FEROLLE POINT (AUT)","8401565","2022-11-10 01:30","2022","11","10","01:30","-1.6","","-7.4","","65","","","M","28","","15","","","","101.71","","","","-6","","NA"
"-57.10","51.02","FEROLLE POINT (AUT)","8401565","2022-11-10 02:30","2022","11","10","02:30","-1.3","","-6.6","","67","","","M","26","","24","","","","101.63","","","","-7","","NA"
"-57.10","51.02","FEROLLE POINT (AUT)","8401565","2022-11-10 03:30","2022","11","10","03:30","-1.4","","-6.2","","70","","","M","25","","22","","","","101.47","","","","-7","","NA"
"-57.10","51.02","FEROLLE POINT (AUT)","8401565","2022-11-10 04:30","2022","11","10","04:30","-0.5","","-5.5","","69","","","M","25","","24","","","","101.29","","","","-6","","NA"
"-57.10","51.02","FEROLLE POINT (AUT)","8401565","2022-11-10 05:30","2022","11","10","05:30","-0.1","","-5.6","","66","","","M","26","","29","","","","101.18","","","","-6","","NA"
"-57.10","51.02","FEROLLE POINT (AUT)","8401565","2022-11-10 06:30","2022","11","10","06:30","-0.6","","-3.8","","79","","","M","25","","31","","","","101.05","","","","-7","","NA"
"-57.10","51.02","FEROLLE POINT (AUT)","8401565","2022-11-10 07:30","2022","11","10","07:30","0.4","","0.4","","100","","","M","23","","35","","","","100.87","","","","","","NA"
"-57.10","51.02","FEROLLE POINT (AUT)","8401565","2022-11-10 08:30","2022","11","10","08:30","2.4","","2.4","","100","","","M","25","","38","","","","100.72","","","","","","NA"
"-57.10","51.02","FEROLLE POINT (AUT)","8401565","2022-11-10 09:30","2022","11","10","09:30","2.3","","2.3","","100","","","M","27","","31","","","","100.60","","","","","","NA"
"-57.10","51.02","FEROLLE POINT (AUT)","8401565","2022-11-10 10:30","2022","11","10","10:30","2.0","","0.2","","88","","","M","30","","40","","","","100.51","","","","","","NA"
"-57.10","51.02","FEROLLE POINT (AUT)","8401565","2022-11-10 11:30","2022","11","10","11:30","2.4","","-0.9","","79","","","M","31","","39","","","","100.49","","","","","","NA"
"-57.10","51.02","FEROLLE POINT (AUT)","8401565","2022-11-10 12:30","2022","11","10","12:30","1.9","","-1.3","","79","","","M","32","","31","","","","100.47","","","","","","NA"
"-57.10","51.02","FEROLLE POINT (AUT)","8401565","2022-11-10 13:30","2022","11","10","13:30","1.9","","-1.4","","78","","","M","32","","28","","","","100.49","","","","","","NA"
"-57.10","51.02","FEROLLE POINT (AUT)","8401565","2022-11-10 14:30","2022","11","10","14:30","1.6","","-2.2","","76","","","M","32","","28","","","","100.49","","","","","","NA"
"-57.10","51.02","FEROLLE POINT (AUT)","8401565","2022-11-10 15:30","2022","11","10","15:30","2.0","","-2.5","","72","","","M","30","","23","","","","100.55","","","","","","NA"
"-57.10","51.02","FEROLLE POINT (AUT)","8401565","2022-11-10 16:30","2022","11","10","16:30","2.8","","-2.2","","70","","","M","31","","26","","","","100.61","","","","","","NA"
"-57.10","51.02","FEROLLE POINT (AUT)","8401565","2022-11-10 17:30","2022","11","10","17:30","3.2","","-2.2","","68","","","M","31","","27","","","","100.59","","","","","","NA"
"-57.10","51.02","FEROLLE POINT (AUT)","8401565","2022-11-10 18:30","2022","11","10","18:30","3.1","","-2.0","","70","","","M","32","","25","","","","100.61","","","","","","NA"
"-57.10","51.02","FEROLLE POINT (AUT)","8401565","2022-11-10 19:30","2022","11","10","19:30","3.5","","-1.4","","70","","","M","30","","13","","","","100.60","","","","","","NA"
"-57.10","51.02","FEROLLE POINT (AUT)","8401565","2022-11-10 20:30","2022","11","10","20:30","4.2","","-1.9","","65","","","M","31","","21","","","","100.57","","","","","","NA"
"-57.10","51.02","FEROLLE POINT (AUT)","8401565","2022-11-10 21:30","2022","11","10","21:30","4.7","","-1.3","","65","","","M","29","","24","","","","100.52","","","","","","NA"
"-57.10","51.02","FEROLLE POINT (AUT)","8401565","2022-11-10 22:30","2022","11","10","22:30","4.5","","-1.0","","67","","","M","27","","23","","","","100.51","","","","","","NA"
"-57.10","51.02","FEROLLE POINT (AUT)","8401565","2022-11-10 23:30","2022","11","10","23:30","5.0","","0.3","","72","","","M","28","","27","","","","100.50","","","","","","NA"
"-57.10","51.02","FEROLLE POINT (AUT)","8401565","2022-11-11 00:30","2022","11","11","00:30","5.1","","1.0","","74","","","M","28","","33","","","","100.50","","","","","","NA"
"-57.10","51.02","FEROLLE POINT (AUT)","8401565","2022-11-11 01:30","2022","11","11","01:30","2.3","","1.5","","94","","","M","1","","27","","","","100.59","","","","","","NA"
"-57.10","51.02","FEROLLE POINT (AUT)","8401565","2022-11-11 02:30","2022","11","11","02:30","-0.2","","-0.2","","100","","","M","6","","24","","","","100.69","","","","-6","","NA"
"-57.10","51.02","FEROLLE POINT (AUT)","8401565","2022-11-11 03:30","2022","11","11","03:30","-0.4","","-1.7","","91","","","M","7","","21","","","","100.81","","","","-6","","NA"
"-57.10","51.02","FEROLLE POINT (AUT)","8401565","2022-11-11 04:30","2022","11","11","04:30","-0.4","","-1.3","","94","","","M","5","","23","","","","100.93","","","","-6","","NA"
"-57.10","51.02","FEROLLE POINT (AUT)","8401565","2022-11-11 05:30","2022","11","11","05:30","-0.3","","-3.7","","78","","","M","2","","32","","","","101.05","","","","-7","","NA"
"-57.10","51.02","FEROLLE POINT (AUT)","8401565","2022-11-11 06:30","2022","11","11","06:30","-1.0","","-4.9","","75","","","M","2","","26","","","","101.16","","","","-7","","NA"
"-57.10","51.02","FEROLLE POINT (AUT)","8401565","2022-11-11 07:30","2022","11","11","07:30","-1.6","","-5.6","","74","","","M","1","","30","","","","101.28","","","","-9","","NA"
"-57.10","51.02","FEROLLE POINT (AUT)","8401565","2022-11-11 08:30","2022","11","11","08:30","-1.4","","-5.1","","76","","","M","1","","32","","","","101.37","","","","-9","","NA"
"-57.10","51.02","FEROLLE POINT (AUT)","8401565","2022-11-11 09:30","2022","11","11","09:30","-1.7","","-6.6","","69","","","M","36","","31","","","","101.48","","","","-9","","NA"
"-57.10","51.02","FEROLLE POINT (AUT)","8401565","2022-11-11 10:30","2022","11","11","10:30","-1.7","","-6.8","","68","","","M","1","","26","","","","101.55","","","","-8","","NA"
"-57.10","51.02","FEROLLE POINT (AUT)","8401565","2022-11-11 11:30","2022","11","11","11:30","-1.4","","-6.5","","68","","","M","35","","17","","","","101.59","","","","-7","","NA"
"-57.10","51.02","FEROLLE POINT (AUT)","8401565","2022-11-11 12:30","2022","11","11","12:30","-1.3","","-5.9","","71","","","M","34","","14","","","","101.61","","","","-6","","NA"
"-57.10","51.02","FEROLLE POINT (AUT)","8401565","2022-11-11 13:30","2022","11","11","13:30","-1.0","","-7.3","","62","","","M","32","","14","","","","101.66","","","","-5","","NA"
"-57.10","51.02","FEROLLE POINT (AUT)","8401565","2022-11-11 14:30","2022","11","11","14:30","-1.1","","-6.9","","65","","","M","32","","16","","","","101.69","","","","-6","","NA"
"-57.10","51.02","FEROLLE POINT (AUT)","8401565","2022-11-11 15:30","2022","11","11","15:30","-1.3","","-7.0","","65","","","M","31","","16","","","","101.75","","","","-6","","NA"
"-57.10","51.02","FEROLLE POINT (AUT)","8401565","2022-11-11 16:30","2022","11","11","16:30","-1.1","","-6.6","","66","","","M","32","","16","","","","101.78","","","","-6","","NA"
"-57.10","51.02","FEROLLE POINT (AUT)","8401565","2022-11-11 17:30","2022","11","11","17:30","-0.8","","-6.4","","66","","","M","32","","17","","","","101.86","","","","-6","","NA"
"-57.10","51.02","FEROLLE POINT (AUT)","8401565","2022-11-11 18:30","2022","11","11","18:30","-0.8","","-6.9","","63","","","M","34","","22","","","","101.90","","","","-7","","NA"
"-57.10","51.02","FEROLLE POINT (AUT)","8401565","2022-11-11 19:30","2022","11","11","19:30","-1.4","","-7.8","","62","","","M","36","","26","","","","101.96","","","","-8","","NA"
"-57.10","51.02","FEROLLE POINT (AUT)","8401565","2022-11-11 20:30","2022","11","11","20:30","-2.1","","-8.5","","61","","","M","1","","32","","","","102.00","","","","-9","","NA"
"-57.10","51.02","FEROLLE POINT (AUT)","8401565","2022-11-11 21:30","2022","11","11","21:30","-2.8","","-9.4","","60","","","M","1","","34","","","","102.01","","","","-11","","NA"
"-57.10","51.02","FEROLLE POINT (AUT)","8401565","2022-11-11 22:30","2022","11","11","22:30","-2.8","","-9.7","","59","","","M","1","","24","","","","102.03","","","","-9","","NA"
"-57.10","51.02","FEROLLE POINT (AUT)","8401565","2022-11-11 23:30","2022","11","11","23:30","-2.9","","-9.6","","60","","","M","1","","25","","","","102.05","","","","-10","","NA"
"-57.10","51.02","FEROLLE POINT (AUT)","8401565","2022-11-12 00:30","2022","11","12","00:30","-3.1","","-9.8","","60","","","M","1","","18","","","","102.06","","","","-9","","NA"
"-57.10","51.02","FEROLLE POINT (AUT)","8401565","2022-11-12 01:30","2022","11","12","01:30","-3.2","","-9.9","","60","","","M","1","","19","","","","102.02","","","","-9","","NA"
"-57.10","51.02","FEROLLE POINT (AUT)","8401565","2022-11-12 02:30","2022","11","12","02:30","-3.2","","-9.5","","61","","","M","36","","13","","","","102.05","","","","-8","","NA"
"-57.10","51.02","FEROLLE POINT (AUT)","8401565","2022-11-12 03:30","2022","11","12","03:30","-3.2","","-10.1","","59","","","M","1","","11","","","","102.04","","","","-7","","NA"
"-57.10","51.02","FEROLLE POINT (AUT)","8401565","2022-11-12 04:30","2022","11","12","04:30","-4.0","","-9.1","","68","","","M","","","0","","","","102.00","","","","","","NA"
"-57.10","51.02","FEROLLE POINT (AUT)","8401565","2022-11-12 05:30","2022","11","12","05:30","-4.2","","-8.9","","69","","","M","","","0","","","","101.99","","","","","","NA"
"-57.10","51.02","FEROLLE POINT (AUT)","8401565","2022-11-12 06:30","2022","11","12","06:30","-4.2","","-8.9","","70","","","M","","","0","","","","101.98","","","","","","NA"
"-57.10","51.02","FEROLLE POINT (AUT)","8401565","2022-11-12 07:30","2022","11","12","07:30","-3.1","","-8.0","","69","","","M","6","","12","","","","101.95","","","","-8","","NA"
"-57.10","51.02","FEROLLE POINT (AUT)","8401565","2022-11-12 08:30","2022","11","12","08:30","-3.7","","-8.8","","68","","","M","8","","8","","","","101.89","","","","-7","","NA"
"-57.10","51.02","FEROLLE POINT (AUT)","8401565","2022-11-12 09:30","2022","11","12","09:30","-3.8","","-9.2","","66","","","M","8","","14","","","","101.79","","","","-9","","NA"
"-57.10","51.02","FEROLLE POINT (AUT)","8401565","2022-11-12 10:30","2022","11","12","10:30","-3.6","","-9.9","","61","","","M","8","","17","","","","101.69","","","","-9","","NA"
"-57.10","51.02","FEROLLE POINT (AUT)","8401565","2022-11-12 11:30","2022","11","12","11:30","-3.7","","-8.7","","69","","","M","9","","17","","","","101.62","","","","-9","","NA"
"-57.10","51.02","FEROLLE POINT (AUT)","8401565","2022-11-12 12:30","2022","11","12","12:30","-4.5","","-6.4","","87","","","M","7","","18","","","","101.51","","","","-11","","NA"
"-57.10","51.02","FEROLLE POINT (AUT)","8401565","2022-11-12 13:30","2022","11","12","13:30","-4.3","","-5.0","","95","","","M","7","","28","","","","101.37","","","","-12","","NA"
"-57.10","51.02","FEROLLE POINT (AUT)","8401565","2022-11-12 14:30","2022","11","12","14:30","-4.3","","-4.6","","98","","","M","7","","34","","","","101.21","","","","-13","","NA"
"-57.10","51.02","FEROLLE POINT (AUT)","8401565","2022-11-12 15:30","2022","11","12","15:30","-3.8","","-4.5","","95","","","M","8","","33","","","","101.14","","","","-12","","NA"
"-57.10","51.02","FEROLLE POINT (AUT)","8401565","2022-11-12 16:30","2022","11","12","16:30","-3.9","","-4.3","","97","","","M","7","","35","","","","101.07","","","","-12","","NA"
"-57.10","51.02","FEROLLE POINT (AUT)","8401565","2022-11-12 17:30","2022","11","12","17:30","-4.0","","-4.2","","99","","","M","7","","43","","","","100.98","","","","-13","","NA"
"-57.10","51.02","FEROLLE POINT (AUT)","8401565","2022-11-12 18:30","2022","11","12","18:30","-4.1","","-4.3","","98","","","M","6","","45","","","","100.92","","","","-13","","NA"
"-57.10","51.02","FEROLLE POINT (AUT)","8401565","2022-11-12 19:30","2022","11","12","19:30","-4.1","","-4.7","","96","","","M","6","","49","","","","100.81","","","","-14","","NA"
"-57.10","51.02","FEROLLE POINT (AUT)","8401565","2022-11-12 20:30","2022","11","12","20:30","-3.8","","-4.5","","95","","","M","6","","50","","","","100.70","","","","-13","","NA"
"-57.10","51.02","FEROLLE POINT (AUT)","8401565","2022-11-12 21:30","2022","11","12","21:30","-3.7","","-4.5","","94","","","M","6","","49","","","","100.72","","","","-13","","NA"
"-57.10","51.02","FEROLLE POINT (AUT)","8401565","2022-11-12 22:30","2022","11","12","22:30","-3.5","","-3.8","","97","","","M","6","","49","","","","100.59","","","","-13","","NA"
"-57.10","51.02","FEROLLE POINT (AUT)","8401565","2022-11-12 23:30","2022","11","12","23:30","-2.8","","-4.3","","89","","","M","6","","42","","","","100.63","","","","-11","","NA"
"-57.10","51.02","FEROLLE POINT (AUT)","8401565","2022-11-13 00:30","2022","11","13","00:30","-2.6","","-5.4","","81","","","M","6","","45","","","","100.62","","","","-11","","NA"
"-57.10","51.02","FEROLLE POINT (AUT)","8401565","2022-11-13 01:30","2022","11","13","01:30","-2.0","","-4.5","","83","","","M","6","","41","","","","100.68","","","","-10","","NA"
"-57.10","51.02","FEROLLE POINT (AUT)","8401565","2022-11-13 02:30","2022","11","13","02:30","-1.6","","-5.6","","74","","","M","6","","45","","","","100.77","","","","-10","","NA"
"-57.10","51.02","FEROLLE POINT (AUT)","8401565","2022-11-13 03:30","2022","11","13","03:30","-1.6","","-6.7","","68","","","M","5","","42","","","","100.87","","","","-10","","NA"
"-57.10","51.02","FEROLLE POINT (AUT)","8401565","2022-11-13 04:30","2022","11","13","04:30","-1.7","","-6.5","","70","","","M","6","","36","","","","100.91","","","","-9","","NA"
"-57.10","51.02","FEROLLE POINT (AUT)","8401565","2022-11-13 05:30","2022","11","13","05:30","-1.7","","-6.4","","70","","","M","5","","34","","","","101.01","","","","-9","","NA"
"-57.10","51.02","FEROLLE POINT (AUT)","8401565","2022-11-13 06:30","2022","11","13","06:30","-1.6","","-5.8","","73","","","M","5","","34","","","","101.02","","","","-9","","NA"
"-57.10","51.02","FEROLLE POINT (AUT)","8401565","2022-11-13 07:30","2022","11","13","07:30","-1.9","","-7.0","","68","","","M","5","","20","","","","101.22","","","","-8","","NA"
"-57.10","51.02","FEROLLE POINT (AUT)","8401565","2022-11-13 08:30","2022","11","13","08:30","-2.1","","-7.0","","69","","","M","7","","18","","","","101.26","","","","-8","","NA"
"-57.10","51.02","FEROLLE POINT (AUT)","8401565","2022-11-13 09:30","2022","11","13","09:30","-1.6","","-6.3","","70","","","M","6","","10","","","","101.35","","","","-5","","NA"
"-57.10","51.02","FEROLLE POINT (AUT)","8401565","2022-11-13 10:30","2022","11","13","10:30","-1.8","","-6.3","","71","","","M","4","","16","","","","101.45","","","","-7","","NA"
"-57.10","51.02","FEROLLE POINT (AUT)","8401565","2022-11-13 11:30","2022","11","13","11:30","-1.6","","-6.6","","69","","","M","","","0","","","","101.42","","","","","","NA"
"-57.10","51.02","FEROLLE POINT (AUT)","8401565","2022-11-13 12:30","2022","11","13","12:30","-1.5","","-7.2","","65","","","M","","","0","","","","101.44","","","","","","NA"
"-57.10","51.02","FEROLLE POINT (AUT)","8401565","2022-11-13 13:30","2022","11","13","13:30","-1.5","","-7.2","","65","","","M","","","0","","","","101.46","","","","","","NA"
"-57.10","51.02","FEROLLE POINT (AUT)","8401565","2022-11-13 14:30","2022","11","13","14:30","-1.5","","-7.2","","65","","","M","","","0","","","","101.50","","","","","","NA"
"-57.10","51.02","FEROLLE POINT (AUT)","8401565","2022-11-13 15:30","2022","11","13","15:30","-1.5","","-6.4","","69","","","M","33","","12","","","","101.54","","","","-6","","NA"
"-57.10","51.02","FEROLLE POINT (AUT)","8401565","2022-11-13 16:30","2022","11","13","16:30","-1.8","","-7.0","","68","","","M","32","","7","","","","101.56","","","","-4","","NA"
"-57.10","51.02","FEROLLE POINT (AUT)","8401565","2022-11-13 17:30","2022","11","13","17:30","-1.4","","-7.5","","63","","","M","32","","9","","","","101.58","","","","-5","","NA"
"-57.10","51.02","FEROLLE POINT (AUT)","8401565","2022-11-13 18:30","2022","11","13","18:30","-1.4","","-8.4","","59","","","M","35","","12","","","","101.61","","","","-5","","NA"
"-57.10","51.02","FEROLLE POINT (AUT)","8401565","2022-11-13 19:30","2022","11","13","19:30","-1.4","","-8.3","","59","","","M","1","","12","","","","101.60","","","","-5","","NA"
"-57.10","51.02","FEROLLE POINT (AUT)","8401565","2022-11-13 20:30","2022","11","13","20:30","-1.4","","-9.3","","55","","","M","1","","16","","","","101.60","","","","-6","","NA"
"-57.10","51.02","FEROLLE POINT (AUT)","8401565","2022-11-13 21:30","2022","11","13","21:30","-1.9","","-10.0","","54","","","M","3","","11","","","","101.65","","","","-6","","NA"
"-57.10","51.02","FEROLLE POINT (AUT)","8401565","2022-11-13 22:30","2022","11","13","22:30","-2.3","","-8.7","","61","","","M","5","","12","","","","101.60","","","","-7","","NA"
"-57.10","51.02","FEROLLE POINT (AUT)","8401565","2022-11-13 23:30","2022","11","13","23:30","-3.7","","-9.2","","65","","","M","8","","12","","","","101.65","","","","-8","","NA"
"-57.10","51.02","FEROLLE POINT (AUT)","8401565","2022-11-14 00:30","2022","11","14","00:30","-4.0","","-8.9","","69","","","M","8","","10","","","","101.60","","","","-8","","NA"
"-57.10","51.02","FEROLLE POINT (AUT)","8401565","2022-11-14 01:30","2022","11","14","01:30","-4.5","","-8.9","","72","","","M","10","","7","","","","101.52","","","","-8","","NA"
"-57.10","51.02","FEROLLE POINT (AUT)","8401565","2022-11-14 02:30","2022","11","14","02:30","-3.9","","-8.5","","70","","","M","8","","17","","","","101.44","","","","-10","","NA"
"-57.10","51.02","FEROLLE POINT (AUT)","8401565","2022-11-14 03:30","2022","11","14","03:30","-3.8","","-7.9","","73","","","M","9","","17","","","","101.46","","","","-10","","NA"
"-57.10","51.02","FEROLLE POINT (AUT)","8401565","2022-11-14 04:30","2022","11","14","04:30","-3.5","","-7.4","","75","","","M","9","","17","","","","101.40","","","","-9","","NA"
"-57.10","51.02","FEROLLE POINT (AUT)","8401565","2022-11-14 05:30","2022","11","14","05:30","-3.3","","-6.9","","76","","","M","8","","23","","","","101.34","","","","-10","","NA"
"-57.10","51.02","FEROLLE POINT (AUT)","8401565","2022-11-14 06:30","2022","11","14","06:30","-3.1","","-6.4","","78","","","M","8","","31","","","","101.24","","","","-11","","NA"
"-57.10","51.02","FEROLLE POINT (AUT)","8401565","2022-11-14 07:30","2022","11","14","07:30","-2.9","","-5.8","","80","","","M","8","","24","","","","101.26","","","","-10","","NA"
"-57.10","51.02","FEROLLE POINT (AUT)","8401565","2022-11-14 08:30","2022","11","14","08:30","-2.4","","-5.4","","80","","","M","7","","30","","","","101.14","","","","-10","","NA"
"-57.10","51.02","FEROLLE POINT (AUT)","8401565","2022-11-14 09:30","2022","11","14","09:30","-2.0","","-5.1","","79","","","M","7","","30","","","","101.02","","","","-9","","NA"
"-57.10","51.02","FEROLLE POINT (AUT)","8401565","2022-11-14 10:30","2022","11","14","10:30","-1.8","","-4.6","","81","","","M","8","","39","","","","100.82","","","","-10","","NA"
"-57.10","51.02","FEROLLE POINT (AUT)","8401565","2022-11-14 11:30","2022","11","14","11:30","-1.7","","-4.3","","82","","","M","7","","42","","","","100.60","","","","-10","","NA"
"-57.10","51.02","FEROLLE POINT (AUT)","8401565","2022-11-14 12:30","2022","11","14","12:30","-1.4","","-4.2","","81","","","M","8","","37","","","","100.50","","","","-9","","NA"
"-57.10","51.02","FEROLLE POINT (AUT)","8401565","2022-11-14 13:30","2022","11","14","13:30","-2.2","","-2.2","","100","","","M","7","","41","","","","100.29","","","","-10","","NA"
"-57.10","51.02","FEROLLE POINT (AUT)","8401565","2022-11-14 14:30","2022","11","14","14:30","-2.2","","-2.2","","100","","","M","7","","37","","","","100.24","","","","-10","","NA"
"-57.10","51.02","FEROLLE POINT (AUT)","8401565","2022-11-14 15:30","2022","11","14","15:30","-2.0","","-2.0","","100","","","M","7","","37","","","","100.16","","","","-10","","NA"
"-57.10","51.02","FEROLLE POINT (AUT)","8401565","2022-11-14 16:30","2022","11","14","16:30","-1.9","","-1.9","","100","","","M","7","","43","","","","100.05","","","","-10","","NA"
"-57.10","51.02","FEROLLE POINT (AUT)","8401565","2022-11-14 17:30","2022","11","14","17:30","-1.3","","-1.4","","100","","","M","7","","42","","","","99.98","","","","-9","","NA"
"-57.10","51.02","FEROLLE POINT (AUT)","8401565","2022-11-14 18:30","2022","11","14","18:30","-1.0","","-1.0","","100","","","M","7","","41","","","","99.99","","","","-9","","NA"
"-57.10","51.02","FEROLLE POINT (AUT)","8401565","2022-11-14 19:30","2022","11","14","19:30","-1.0","","-1.0","","100","","","M","5","","47","","","","99.98","","","","-9","","NA"
"-57.10","51.02","FEROLLE POINT (AUT)","8401565","2022-11-14 20:30","2022","11","14","20:30","-0.8","","-0.8","","100","","","M","6","","47","","","","100.01","","","","-9","","NA"
"-57.10","51.02","FEROLLE POINT (AUT)","8401565","2022-11-14 21:30","2022","11","14","21:30","-0.4","","-0.6","","99","","","M","5","","42","","","","100.09","","","","-8","","NA"
"-57.10","51.02","FEROLLE POINT (AUT)","8401565","2022-11-14 22:30","2022","11","14","22:30","-0.1","","-0.7","","96","","","M","5","","41","","","","100.17","","","","-8","","NA"
"-57.10","51.02","FEROLLE POINT (AUT)","8401565","2022-11-14 23:30","2022","11","14","23:30","0.1","","-0.5","","96","","","M","4","","36","","","","100.25","","","","","","NA"
"-57.10","51.02","FEROLLE POINT (AUT)","8401565","2022-11-15 00:30","2022","11","15","00:30","-0.2","","-1.6","","90","","","M","2","","43","","","","100.37","","","","-8","","NA"
"-57.10","51.02","FEROLLE POINT (AUT)","8401565","2022-11-15 01:30","2022","11","15","01:30","0.0","","-2.4","","84","","","M","1","","39","","","","100.54","","","","-7","","NA"
"-57.10","51.02","FEROLLE POINT (AUT)","8401565","2022-11-15 02:30","2022","11","15","02:30","-0.2","","-2.6","","84","","","M","1","","42","","","","100.69","","","","-8","","NA"
"-57.10","51.02","FEROLLE POINT (AUT)","8401565","2022-11-15 03:30","2022","11","15","03:30","-0.4","","-2.9","","83","","","M","36","","40","","","","100.88","","","","-8","","NA"
"-57.10","51.02","FEROLLE POINT (AUT)","8401565","2022-11-15 04:30","2022","11","15","04:30","-0.3","","-3.3","","80","","","M","36","","39","","","","101.02","","","","-8","","NA"
"-57.10","51.02","FEROLLE POINT (AUT)","8401565","2022-11-15 05:30","2022","11","15","05:30","-0.2","","-3.5","","79","","","M","36","","35","","","","101.14","","","","-7","","NA"
"-57.10","51.02","FEROLLE POINT (AUT)","8401565","2022-11-15 06:30","2022","11","15","06:30","-0.4","","-4.0","","77","","","M","1","","28","","","","101.24","","","","-7","","NA"
"-57.10","51.02","FEROLLE POINT (AUT)","8401565","2022-11-15 07:30","2022","11","15","07:30","-0.5","","-4.2","","76","","","M","36","","31","","","","101.35","","","","-7","","NA"
"-57.10","51.02","FEROLLE POINT (AUT)","8401565","2022-11-15 08:30","2022","11","15","08:30","-0.9","","-4.3","","78","","","M","36","","26","","","","101.47","","","","-7","","NA"
"-57.10","51.02","FEROLLE POINT (AUT)","8401565","2022-11-15 09:30","2022","11","15","09:30","-0.8","","-4.1","","78","","","M","1","","19","","","","101.53","","","","-6","","NA"
"-57.10","51.02","FEROLLE POINT (AUT)","8401565","2022-11-15 10:30","2022","11","15","10:30","-1.1","","-4.3","","79","","","M","36","","23","","","","101.63","","","","-7","","NA"
"-57.10","51.02","FEROLLE POINT (AUT)","8401565","2022-11-15 11:30","2022","11","15","11:30","-1.2","","-4.3","","79","","","M","32","","14","","","","101.70","","","","-6","","NA"
"-57.10","51.02","FEROLLE POINT (AUT)","8401565","2022-11-15 12:30","2022","11","15","12:30","-1.2","","-4.5","","78","","","M","32","","11","","","","101.70","","","","-5","","NA"
"-57.10","51.02","FEROLLE POINT (AUT)","8401565","2022-11-15 13:30","2022","11","15","13:30","-1.4","","-4.6","","79","","","M","31","","11","","","","101.74","","","","-5","","NA"
"-57.10","51.02","FEROLLE POINT (AUT)","8401565","2022-11-15 14:30","2022","11","15","14:30","-1.3","","-4.7","","78","","","M","31","","18","","","","101.78","","","","-7","","NA"
"-57.10","51.02","FEROLLE POINT (AUT)","8401565","2022-11-15 15:30","2022","11","15","15:30","-1.4","","-4.6","","79","","","M","31","","15","","","","101.80","","","","-6","","NA"
"-57.10","51.02","FEROLLE POINT (AUT)","8401565","2022-11-15 16:30","2022","11","15","16:30","-1.6","","-5.1","","77","","","M","32","","11","","","","101.85","","","","-5","","NA"
"-57.10","51.02","FEROLLE POINT (AUT)","8401565","2022-11-15 17:30","2022","11","15","17:30","-1.5","","-4.8","","78","","","M","32","","19","","","","101.89","","","","-7","","NA"
"-57.10","51.02","FEROLLE POINT (AUT)","8401565","2022-11-15 18:30","2022","11","15","18:30","-1.5","","-5.0","","77","","","M","33","","21","","","","101.96","","","","-7","","NA"
"-57.10","51.02","FEROLLE POINT (AUT)","8401565","2022-11-15 19:30","2022","11","15","19:30","-3.0","","-6.0","","80","","","M","34","","32","","","","102.02","","","","-11","","NA"
"-57.10","51.02","FEROLLE POINT (AUT)","8401565","2022-11-15 20:30","2022","11","15","20:30","-3.4","","-7.5","","73","","","M","32","","26","","","","102.09","","","","-10","","NA"
"-57.10","51.02","FEROLLE POINT (AUT)","8401565","2022-11-15 21:30","2022","11","15","21:30","-3.5","","-8.2","","70","","","M","34","","16","","","","102.12","","","","-9","","NA"
"-57.10","51.02","FEROLLE POINT (AUT)","8401565","2022-11-15 22:30","2022","11","15","22:30","-3.3","","-7.5","","73","","","M","31","","17","","","","102.11","","","","-9","","NA"
"-57.10","51.02","FEROLLE POINT (AUT)","8401565","2022-11-15 23:30","2022","11","15","23:30","-3.9","","-8.4","","71","","","M","31","","18","","","","102.11","","","","-10","","NA"
"-57.10","51.02","FEROLLE POINT (AUT)","8401565","2022-11-16 00:30","2022","11","16","00:30","-3.9","","-9.0","","68","","","M","33","","14","","","","102.11","","","","-9","","NA"
"-57.10","51.02","FEROLLE POINT (AUT)","8401565","2022-11-16 01:30","2022","11","16","01:30","-3.4","","-8.9","","66","","","M","33","","19","","","","102.12","","","","-9","","NA"
"-57.10","51.02","FEROLLE POINT (AUT)","8401565","2022-11-16 02:30","2022","11","16","02:30","-3.3","","-8.4","","68","","","M","31","","18","","","","102.16","","","","-9","","NA"
"-57.10","51.02","FEROLLE POINT (AUT)","8401565","2022-11-16 03:30","2022","11","16","03:30","-3.4","","-8.4","","68","","","M","29","","23","","","","102.17","","","","-10","","NA"
"-57.10","51.02","FEROLLE POINT (AUT)","8401565","2022-11-16 04:30","2022","11","16","04:30","-3.7","","-8.5","","69","","","M","30","","22","","","","102.18","","","","-10","","NA"
"-57.10","51.02","FEROLLE POINT (AUT)","8401565","2022-11-16 05:30","2022","11","16","05:30","-3.6","","-8.6","","68","","","M","31","","22","","","","102.16","","","","-10","","NA"
"-57.10","51.02","FEROLLE POINT (AUT)","8401565","2022-11-16 06:30","2022","11","16","06:30","-3.0","","-7.7","","70","","","M","30","","19","","","","102.13","","","","-9","","NA"
"-57.10","51.02","FEROLLE POINT (AUT)","8401565","2022-11-16 07:30","2022","11","16","07:30","-2.4","","-7.2","","69","","","M","33","","22","","","","102.17","","","","-9","","NA"
"-57.10","51.02","FEROLLE POINT (AUT)","8401565","2022-11-16 08:30","2022","11","16","08:30","-2.0","","-6.6","","71","","","M","32","","21","","","","102.18","","","","-8","","NA"
"-57.10","51.02","FEROLLE POINT (AUT)","8401565","2022-11-16 09:30","2022","11","16","09:30","-2.0","","-6.6","","71","","","M","33","","24","","","","102.13","","","","-8","","NA"
"-57.10","51.02","FEROLLE POINT (AUT)","8401565","2022-11-16 10:30","2022","11","16","10:30","-2.1","","-7.5","","67","","","M","35","","21","","","","102.13","","","","-8","","NA"
"-57.10","51.02","FEROLLE POINT (AUT)","8401565","2022-11-16 11:30","2022","11","16","11:30","-2.0","","-7.6","","66","","","M","32","","18","","","","102.13","","","","-7","","NA"
"-57.10","51.02","FEROLLE POINT (AUT)","8401565","2022-11-16 12:30","2022","11","16","12:30","-1.5","","-7.5","","64","","","M","30","","17","","","","102.07","","","","-7","","NA"
"-57.10","51.02","FEROLLE POINT (AUT)","8401565","2022-11-16 13:30","2022","11","16","13:30","-1.4","","-7.2","","65","","","M","30","","14","","","","102.00","","","","-6","","NA"
"-57.10","51.02","FEROLLE POINT (AUT)","8401565","2022-11-16 14:30","2022","11","16","14:30","-1.4","","-7.7","","62","","","M","34","","14","","","","101.94","","","","-6","","NA"
"-57.10","51.02","FEROLLE POINT (AUT)","8401565","2022-11-16 15:30","2022","11","16","15:30","-1.6","","-7.4","","65","","","M","32","","7","","","","101.97","","","","-4","","NA"
"-57.10","51.02","FEROLLE POINT (AUT)","8401565","2022-11-16 16:30","2022","11","16","16:30","-1.6","","-7.3","","65","","","M","","","0","","","","102.01","","","","","","NA"
"-57.10","51.02","FEROLLE POINT (AUT)","8401565","2022-11-16 17:30","2022","11","16","17:30","-1.2","","-6.3","","68","","","M","29","","11","","","","101.97","","","","-5","","NA"
"-57.10","51.02","FEROLLE POINT (AUT)","8401565","2022-11-16 18:30","2022","11","16","18:30","-1.0","","-6.5","","66","","","M","28","","14","","","","101.91","","","","-5","","NA"
"-57.10","51.02","FEROLLE POINT (AUT)","8401565","2022-11-16 19:30","2022","11","16","19:30","-1.0","","-6.8","","65","","","M","31","","15","","","","101.85","","","","-6","","NA"
"-57.10","51.02","FEROLLE POINT (AUT)","8401565","2022-11-16 20:30","2022","11","16","20:30","-0.9","","-6.4","","66","","","M","30","","11","","","","101.80","","","","-5","","NA"
"-57.10","51.02","FEROLLE POINT (AUT)","8401565","2022-11-16 21:30","2022","11","16","21:30","-1.1","","-6.6","","66","","","M","","","0","","","","101.75","","","","","","NA"
"-57.10","51.02","FEROLLE POINT (AUT)","8401565","2022-11-16 22:30","2022","11","16","22:30","-1.4","","-6.4","","69","","","M","","","0","","","","101.63","","","","","","NA"
"-57.10","51.02","FEROLLE POINT (AUT)","8401565","2022-11-16 23:30","2022","11","16","23:30","-2.1","","-6.2","","73","","","M","","","0","","","","101.55","","","","","","NA"
"-57.10","51.02","FEROLLE POINT (AUT)","8401565","2022-11-17 00:30","2022","11","17","00:30","-2.2","","-5.7","","77","","","M","","","0","","","","101.40","","","","","","NA"
"-57.10","51.02","FEROLLE POINT (AUT)","8401565","2022-11-17 01:30","2022","11","17","01:30","-2.2","","-5.6","","78","","","M","","","0","","","","101.29","","","","","","NA"
"-57.10","51.02","FEROLLE POINT (AUT)","8401565","2022-11-17 02:30","2022","11","17","02:30","-2.4","","-5.8","","77","","","M","13","","12","","","","101.13","","","","-7","","NA"
"-57.10","51.02","FEROLLE POINT (AUT)","8401565","2022-11-17 03:30","2022","11","17","03:30","-2.7","","-5.9","","79","","","M","11","","12","","","","101.03","","","","-7","","NA"
"-57.10","51.02","FEROLLE POINT (AUT)","8401565","2022-11-17 04:30","2022","11","17","04:30","-3.4","","-4.0","","96","","","M","10","","12","","","","100.87","","","","-8","","NA"
"-57.10","51.02","FEROLLE POINT (AUT)","8401565","2022-11-17 05:30","2022","11","17","05:30","-3.3","","-3.3","","100","","","M","8","","22","","","","100.67","","","","-10","","NA"
"-57.10","51.02","FEROLLE POINT (AUT)","8401565","2022-11-17 06:30","2022","11","17","06:30","-2.9","","-3.0","","100","","","M","7","","31","","","","100.43","","","","-10","","NA"
"-57.10","51.02","FEROLLE POINT (AUT)","8401565","2022-11-17 07:30","2022","11","17","07:30","-2.4","","-3.1","","95","","","M","7","","34","","","","100.20","","","","-10","","NA"
"-57.10","51.02","FEROLLE POINT (AUT)","8401565","2022-11-17 08:30","2022","11","17","08:30","-2.1","","-2.8","","95","","","M","7","","36","","","","99.94","","","","-10","","NA"
"-57.10","51.02","FEROLLE POINT (AUT)","8401565","2022-11-17 09:30","2022","11","17","09:30","-1.6","","-2.1","","97","","","M","7","","40","","","","99.69","","","","-10","","NA"
"-57.10","51.02","FEROLLE POINT (AUT)","8401565","2022-11-17 10:30","2022","11","17","10:30","-1.2","","-1.6","","97","","","M","7","","44","","","","99.49","","","","-9","","NA"
"-57.10","51.02","FEROLLE POINT (AUT)","8401565","2022-11-17 11:30","2022","11","17","11:30","-0.6","","-0.8","","98","","","M","6","","41","","","","99.32","","","","-8","","NA"
"-57.10","51.02","FEROLLE POINT (AUT)","8401565","2022-11-17 12:30","2022","11","17","12:30","-0.2","","-0.6","","97","","","M","7","","44","","","","99.05","","","","-8","","NA"
"-57.10","51.02","FEROLLE POINT (AUT)","8401565","2022-11-17 13:30","2022","11","17","13:30","-0.1","","-1.0","","93","","","M","7","","39","","","","98.95","","","","-7","","NA"
"-57.10","51.02","FEROLLE POINT (AUT)","8401565","2022-11-17 14:30","2022","11","17","14:30","0.2","","-1.0","","92","","","M","7","","41","","","","98.85","","","","","","NA"
"-57.10","51.02","FEROLLE POINT (AUT)","8401565","2022-11-17 15:30","2022","11","17","15:30","0.1","","-0.6","","95","","","M","7","","40","","","","98.76","","","","","","NA"
"-57.10","51.02","FEROLLE POINT (AUT)","8401565","2022-11-17 16:30","2022","11","17","16:30","-0.2","","-0.5","","97","","","M","6","","41","","","","98.68","","","","-8","","NA"
"-57.10","51.02","FEROLLE POINT (AUT)","8401565","2022-11-17 17:30","2022","11","17","17:30","-0.4","","-1.1","","95","","","M","6","","40","","","","98.64","","","","-8","","NA"
"-57.10","51.02","FEROLLE POINT (AUT)","8401565","2022-11-17 18:30","2022","11","17","18:30","-0.4","","-0.8","","97","","","M","6","","42","","","","98.56","","","","-8","","NA"
"-57.10","51.02","FEROLLE POINT (AUT)","8401565","2022-11-17 19:30","2022","11","17","19:30","-0.2","","-1.0","","94","","","M","7","","39","","","","98.50","","","","-8","","NA"
"-57.10","51.02","FEROLLE POINT (AUT)","8401565","2022-11-17 20:30","2022","11","17","20:30","-0.1","","-0.5","","97","","","M","8","","36","","","","98.40","","","","-7","","NA"
"-57.10","51.02","FEROLLE POINT (AUT)","8401565","2022-11-17 21:30","2022","11","17","21:30","-0.2","","-0.6","","97","","","M","9","","35","","","","98.35","","","","-7","","NA"
"-57.10","51.02","FEROLLE POINT (AUT)","8401565","2022-11-17 22:30","2022","11","17","22:30","0.0","","0.0","","100","","","M","9","","26","","","","98.31","","","","-6","","NA"
"-57.10","51.02","FEROLLE POINT (AUT)","8401565","2022-11-17 23:30","2022","11","17","23:30","-0.1","","-0.1","","100","","","M","9","","32","","","","98.14","","","","-7","","NA"
"-57.10","51.02","FEROLLE POINT (AUT)","8401565","2022-11-18 00:30","2022","11","18","00:30","1.1","","1.1","","100","","","M","13","","37","","","","98.00","","","","","","NA"
"-57.10","51.02","FEROLLE POINT (AUT)","8401565","2022-11-18 01:30","2022","11","18","01:30","2.2","","1.4","","94","","","M","18","","56","","","","97.75","","","","","","NA"
"-57.10","51.02","FEROLLE POINT (AUT)","8401565","2022-11-18 02:30","2022","11","18","02:30","1.0","","0.7","","97","","","M","4","","42","","","","97.58","","","","","","NA"
"-57.10","51.02","FEROLLE POINT (AUT)","8401565","2022-11-18 03:30","2022","11","18","03:30","0.5","","0.4","","100","","","M","2","","59","","","","98.12","","","","","","NA"
"-57.10","51.02","FEROLLE POINT (AUT)","8401565","2022-11-18 04:30","2022","11","18","04:30","0.2","","0.2","","100","","","M","1","","44","","","","98.49","","","","","","NA"
"-57.10","51.02","FEROLLE POINT (AUT)","8401565","2022-11-18 05:30","2022","11","18","05:30","-0.2","","-0.3","","100","","","M","1","","32","","","","98.74","","","","-7","","NA"
"-57.10","51.02","FEROLLE POINT (AUT)","8401565","2022-11-18 06:30","2022","11","18","06:30","-0.5","","-0.5","","100","","","M","1","","30","","","","98.94","","","","-7","","NA"
"-57.10","51.02","FEROLLE POINT (AUT)","8401565","2022-11-18 07:30","2022","11","18","07:30","-1.0","","-1.0","","100","","","M","35","","19","","","","99.16","","","","-6","","NA"
"-57.10","51.02","FEROLLE POINT (AUT)","8401565","2022-11-18 08:30","2022","11","18","08:30","-1.0","","-1.0","","100","","","M","34","","19","","","","99.31","","","","-6","","NA"
"-57.10","51.02","FEROLLE POINT (AUT)","8401565","2022-11-18 09:30","2022","11","18","09:30","-1.1","","-1.1","","100","","","M","35","","19","","","","99.40","","","","-6","","NA"
"-57.10","51.02","FEROLLE POINT (AUT)","8401565","2022-11-18 10:30","2022","11","18","10:30","-0.9","","-0.9","","100","","","M","1","","18","","","","99.49","","","","-6","","NA"
"-57.10","51.02","FEROLLE POINT (AUT)","8401565","2022-11-18 11:30","2022","11","18","11:30","-0.8","","-0.8","","100","","","M","2","","16","","","","99.57","","","","-6","","NA"
"-57.10","51.02","FEROLLE POINT (AUT)","8401565","2022-11-18 12:30","2022","11","18","12:30","-0.8","","-0.9","","100","","","M","2","","14","","","","99.61","","","","-5","","NA"
"-57.10","51.02","FEROLLE POINT (AUT)","8401565","2022-11-18 13:30","2022","11","18","13:30","-0.9","","-1.2","","98","","","M","3","","13","","","","99.66","","","","-5","","NA"
"-57.10","51.02","FEROLLE POINT (AUT)","8401565","2022-11-18 14:30","2022","11","18","14:30","-1.0","","-1.2","","98","","","M","4","","13","","","","99.72","","","","-5","","NA"
"-57.10","51.02","FEROLLE POINT (AUT)","8401565","2022-11-18 15:30","2022","11","18","15:30","-1.1","","-1.6","","97","","","M","5","","12","","","","99.80","","","","-5","","NA"
"-57.10","51.02","FEROLLE POINT (AUT)","8401565","2022-11-18 16:30","2022","11","18","16:30","-1.4","","-1.4","","100","","","M","","","0","","","","99.89","","","","","","NA"
"-57.10","51.02","FEROLLE POINT (AUT)","8401565","2022-11-18 17:30","2022","11","18","17:30","-1.7","","-1.7","","100","","","M","","","0","","","","99.92","","","","","","NA"
"-57.10","51.02","FEROLLE POINT (AUT)","8401565","2022-11-18 18:30","2022","11","18","18:30","-1.6","","-1.6","","100","","","M","","","0","","","","99.98","","","","","","NA"
"-57.10","51.02","FEROLLE POINT (AUT)","8401565","2022-11-18 19:30","2022","11","18","19:30","-1.5","","-1.5","","100","","","M","","","0","","","","100.03","","","","","","NA"
"-57.10","51.02","FEROLLE POINT (AUT)","8401565","2022-11-18 20:30","2022","11","18","20:30","-1.8","","-1.8","","100","","","M","","","0","","","","100.09","","","","","","NA"
"-57.10","51.02","FEROLLE POINT (AUT)","8401565","2022-11-18 21:30","2022","11","18","21:30","-1.9","","-1.9","","100","","","M","","","0","","","","100.15","","","","","","NA"
"-57.10","51.02","FEROLLE POINT (AUT)","8401565","2022-11-18 22:30","2022","11","18","22:30","-1.7","","-1.8","","100","","","M","","","0","","","","100.22","","","","","","NA"
"-57.10","51.02","FEROLLE POINT (AUT)","8401565","2022-11-18 23:30","2022","11","18","23:30","-1.6","","-1.6","","100","","","M","","","0","","","","100.25","","","","","","NA"
"-57.10","51.02","FEROLLE POINT (AUT)","8401565","2022-11-19 00:30","2022","11","19","00:30","-1.6","","-1.6","","100","","","M","","","0","","","","100.30","","","","","","NA"
"-57.10","51.02","FEROLLE POINT (AUT)","8401565","2022-11-19 01:30","2022","11","19","01:30","-1.5","","-1.5","","100","","","M","","","0","","","","100.32","","","","","","NA"
"-57.10","51.02","FEROLLE POINT (AUT)","8401565","2022-11-19 02:30","2022","11","19","02:30","-1.5","","-1.5","","100","","","M","","","0","","","","100.41","","","","","","NA"
"-57.10","51.02","FEROLLE POINT (AUT)","8401565","2022-11-19 03:30","2022","11","19","03:30","-1.5","","-1.5","","100","","","M","","","0","","","","100.48","","","","","","NA"
"-57.10","51.02","FEROLLE POINT (AUT)","8401565","2022-11-19 04:30","2022","11","19","04:30","-1.4","","-1.4","","100","","","M","","","","M","","","100.54","","","","","","NA"
"-57.10","51.02","FEROLLE POINT (AUT)","8401565","2022-11-19 05:30","2022","11","19","05:30","-1.7","","-1.7","","100","","","M","","","","M","","","100.61","","","","","","NA"
"-57.10","51.02","FEROLLE POINT (AUT)","8401565","2022-11-19 06:30","2022","11","19","06:30","-2.2","","-2.2","","100","","","M","","","","M","","","100.66","","","","","","NA"
"-57.10","51.02","FEROLLE POINT (AUT)","8401565","2022-11-19 07:30","2022","11","19","07:30","-2.3","","-2.4","","100","","","M","","","","M","","","100.70","","","","","","NA"
"-57.10","51.02","FEROLLE POINT (AUT)","8401565","2022-11-19 08:30","2022","11","19","08:30","-1.1","","-1.3","","99","","","M","","","","M","","","100.74","","","","","","NA"
"-57.10","51.02","FEROLLE POINT (AUT)","8401565","2022-11-19 09:30","2022","11","19","09:30","-0.8","","-2.7","","87","","","M","28","","22","","","","100.74","","","","-7","","NA"
"-57.10","51.02","FEROLLE POINT (AUT)","8401565","2022-11-19 10:30","2022","11","19","10:30","-0.6","","-3.8","","79","","","M","28","","26","","","","100.78","","","","-7","","NA"
"-57.10","51.02","FEROLLE POINT (AUT)","8401565","2022-11-19 11:30","2022","11","19","11:30","-0.5","","-4.4","","75","","","M","28","","27","","","","100.80","","","","-7","","NA"
"-57.10","51.02","FEROLLE POINT (AUT)","8401565","2022-11-19 12:30","2022","11","19","12:30","-0.7","","-4.3","","76","","","M","28","","28","","","","100.81","","","","-7","","NA"
"-57.10","51.02","FEROLLE POINT (AUT)","8401565","2022-11-19 13:30","2022","11","19","13:30","-0.6","","-5.3","","71","","","M","26","","26","","","","100.81","","","","-7","","NA"
"-57.10","51.02","FEROLLE POINT (AUT)","8401565","2022-11-19 14:30","2022","11","19","14:30","-0.6","","-5.7","","68","","","M","28","","25","","","","100.84","","","","-7","","NA"
"-57.10","51.02","FEROLLE POINT (AUT)","8401565","2022-11-19 15:30","2022","11","19","15:30","-0.6","","-7.0","","62","","","M","28","","32","","","","100.86","","","","-7","","NA"
"-57.10","51.02","FEROLLE POINT (AUT)","8401565","2022-11-19 16:30","2022","11","19","16:30","-0.5","","-5.7","","68","","","M","28","","31","","","","100.90","","","","-7","","NA"
"-57.10","51.02","FEROLLE POINT (AUT)","8401565","2022-11-19 17:30","2022","11","19","17:30","-0.4","","-5.3","","70","","","M","28","","26","","","","100.92","","","","-7","","NA"
"-57.10","51.02","FEROLLE POINT (AUT)","8401565","2022-11-19 18:30","2022","11","19","18:30","-0.4","","-5.6","","68","","","M","28","","33","","","","100.95","","","","-7","","NA"
"-57.10","51.02","FEROLLE POINT (AUT)","8401565","2022-11-19 19:30","2022","11","19","19:30","-1.9","","-3.8","","87","","","M","30","","31","","","","101.01","","","","-9","","NA"
"-57.10","51.02","FEROLLE POINT (AUT)","8401565","2022-11-19 20:30","2022","11","19","20:30","-1.2","","-5.4","","73","","","M","31","","37","","","","101.10","","","","-9","","NA"
"-57.10","51.02","FEROLLE POINT (AUT)","8401565","2022-11-19 21:30","2022","11","19","21:30","-1.7","","-6.1","","72","","","M","30","","32","","","","101.20","","","","-9","","NA"
"-57.10","51.02","FEROLLE POINT (AUT)","8401565","2022-11-19 22:30","2022","11","19","22:30","-2.0","","-6.6","","71","","","M","30","","31","","","","101.27","","","","-9","","NA"
"-57.10","51.02","FEROLLE POINT (AUT)","8401565","2022-11-19 23:30","2022","11","19","23:30","-2.7","","-7.4","","70","","","M","29","","29","","","","101.33","","","","-10","","NA"
"-57.10","51.02","FEROLLE POINT (AUT)","8401565","2022-11-20 00:30","2022","11","20","00:30","-2.9","","-6.9","","73","","","M","29","","28","","","","101.39","","","","-10","","NA"
"-57.10","51.02","FEROLLE POINT (AUT)","8401565","2022-11-20 01:30","2022","11","20","01:30","-2.6","","-7.1","","71","","","M","29","","31","","","","101.39","","","","-10","","NA"
"-57.10","51.02","FEROLLE POINT (AUT)","8401565","2022-11-20 02:30","2022","11","20","02:30","-3.6","","-8.4","","69","","","M","29","","31","","","","101.48","","","","-11","","NA"
"-57.10","51.02","FEROLLE POINT (AUT)","8401565","2022-11-20 03:30","2022","11","20","03:30","-4.1","","-8.9","","69","","","M","29","","23","","","","101.54","","","","-11","","NA"
"-57.10","51.02","FEROLLE POINT (AUT)","8401565","2022-11-20 04:30","2022","11","20","04:30","-3.8","","-7.9","","73","","","M","29","","25","","","","101.56","","","","-11","","NA"
"-57.10","51.02","FEROLLE POINT (AUT)","8401565","2022-11-20 05:30","2022","11","20","05:30","-4.1","","-8.7","","70","","","M","28","","19","","","","101.55","","","","-10","","NA"
"-57.10","51.02","FEROLLE POINT (AUT)","8401565","2022-11-20 06:30","2022","11","20","06:30","-3.8","","-8.1","","72","","","M","28","","21","","","","101.51","","","","-10","","NA"
"-57.10","51.02","FEROLLE POINT (AUT)","8401565","2022-11-20 07:30","2022","11","20","07:30","-3.8","","-8.3","","71","","","M","28","","20","","","","101.54","","","","-10","","NA"
"-57.10","51.02","FEROLLE POINT (AUT)","8401565","2022-11-20 08:30","2022","11","20","08:30","-4.0","","-9.3","","66","","","M","29","","14","","","","101.57","","","","-9","","NA"
"-57.10","51.02","FEROLLE POINT (AUT)","8401565","2022-11-20 09:30","2022","11","20","09:30","-3.4","","-9.4","","63","","","M","29","","17","","","","101.52","","","","-9","","NA"
"-57.10","51.02","FEROLLE POINT (AUT)","8401565","2022-11-20 10:30","2022","11","20","10:30","-3.2","","-8.8","","65","","","M","30","","12","","","","101.47","","","","-8","","NA"
"-57.10","51.02","FEROLLE POINT (AUT)","8401565","2022-11-20 11:30","2022","11","20","11:30","-2.7","","-8.4","","65","","","M","28","","3","","","","101.38","","","","-4","","NA"
"-57.10","51.02","FEROLLE POINT (AUT)","8401565","2022-11-20 12:30","2022","11","20","12:30","-3.4","","-9.3","","64","","","M","9","","6","","","","101.24","","","","-6","","NA"
"-57.10","51.02","FEROLLE POINT (AUT)","8401565","2022-11-20 13:30","2022","11","20","13:30","-3.7","","-7.5","","75","","","M","11","","15","","","","101.09","","","","-9","","NA"
"-57.10","51.02","FEROLLE POINT (AUT)","8401565","2022-11-20 14:30","2022","11","20","14:30","-3.1","","-6.5","","77","","","M","9","","14","","","","100.96","","","","-8","","NA"
"-57.10","51.02","FEROLLE POINT (AUT)","8401565","2022-11-20 15:30","2022","11","20","15:30","-2.6","","-5.4","","81","","","M","9","","17","","","","100.80","","","","-8","","NA"
"-57.10","51.02","FEROLLE POINT (AUT)","8401565","2022-11-20 16:30","2022","11","20","16:30","-2.5","","-4.5","","86","","","M","8","","21","","","","100.60","","","","-9","","NA"
"-57.10","51.02","FEROLLE POINT (AUT)","8401565","2022-11-20 17:30","2022","11","20","17:30","-2.6","","-2.8","","98","","","M","8","","24","","","","100.40","","","","-9","","NA"
"-57.10","51.02","FEROLLE POINT (AUT)","8401565","2022-11-20 18:30","2022","11","20","18:30","-2.7","","-2.8","","100","","","M","7","","32","","","","100.17","","","","-10","","NA"
"-57.10","51.02","FEROLLE POINT (AUT)","8401565","2022-11-20 19:30","2022","11","20","19:30","-2.0","","-2.0","","100","","","M","9","","37","","","","99.85","","","","-10","","NA"
"-57.10","51.02","FEROLLE POINT (AUT)","8401565","2022-11-20 20:30","2022","11","20","20:30","-1.5","","-1.6","","100","","","M","8","","38","","","","99.58","","","","-9","","NA"
"-57.10","51.02","FEROLLE POINT (AUT)","8401565","2022-11-20 21:30","2022","11","20","21:30","-0.2","","-0.2","","100","","","M","9","","34","","","","99.38","","","","-7","","NA"
"-57.10","51.02","FEROLLE POINT (AUT)","8401565","2022-11-20 22:30","2022","11","20","22:30","0.2","","0.2","","100","","","M","10","","34","","","","99.17","","","","","","NA"
"-57.10","51.02","FEROLLE POINT (AUT)","8401565","2022-11-20 23:30","2022","11","20","23:30","0.4","","-0.5","","94","","","M","11","","35","","","","98.91","","","","","","NA"
"-57.10","51.02","FEROLLE POINT (AUT)","8401565","2022-11-21 00:30","2022","11","21","00:30","0.6","","-0.9","","90","","","M","11","","29","","","","98.73","","","","","","NA"
"-57.10","51.02","FEROLLE POINT (AUT)","8401565","2022-11-21 01:30","2022","11","21","01:30","0.3","","0.1","","98","","","M","9","","26","","","","98.53","","","","","","NA"
"-57.10","51.02","FEROLLE POINT (AUT)","8401565","2022-11-21 02:30","2022","11","21","02:30","0.2","","0.2","","100","","","M","7","","25","","","","98.33","","","","","","NA"
"-57.10","51.02","FEROLLE POINT (AUT)","8401565","2022-11-21 03:30","2022","11","21","03:30","0.3","","0.3","","100","","","M","5","","28","","","","98.19","","","","","","NA"
"-57.10","51.02","FEROLLE POINT (AUT)","8401565","2022-11-21 04:30","2022","11","21","04:30","0.3","","0.2","","100","","","M","6","","40","","","","98.04","","","","","","NA"
"-57.10","51.02","FEROLLE POINT (AUT)","8401565","2022-11-21 05:30","2022","11","21","05:30","0.3","","0.2","","100","","","M","4","","44","","","","97.97","","","","","","NA"
"-57.10","51.02","FEROLLE POINT (AUT)","8401565","2022-11-21 06:30","2022","11","21","06:30","-0.1","","-0.1","","100","","","M","5","","61","","","","97.93","","","","-9","","NA"
"-57.10","51.02","FEROLLE POINT (AUT)","8401565","2022-11-21 07:30","2022","11","21","07:30","-0.1","","-0.1","","100","","","M","4","","69","","","","98.06","","","","-9","","NA"
"-57.10","51.02","FEROLLE POINT (AUT)","8401565","2022-11-21 08:30","2022","11","21","08:30","-0.4","","-0.6","","99","","","M","3","","69","","","","98.26","","","","-10","","NA"
"-57.10","51.02","FEROLLE POINT (AUT)","8401565","2022-11-21 09:30","2022","11","21","09:30","-0.5","","-2.2","","89","","","M","2","","63","","","","98.48","","","","-10","","NA"
"-57.10","51.02","FEROLLE POINT (AUT)","8401565","2022-11-21 10:30","2022","11","21","10:30","-0.9","","-3.9","","80","","","M","1","","60","","","","98.71","","","","-10","","NA"
"-57.10","51.02","FEROLLE POINT (AUT)","8401565","2022-11-21 11:30","2022","11","21","11:30","-1.4","","-4.7","","78","","","M","36","","62","","","","98.96","","","","-11","","NA"
"-57.10","51.02","FEROLLE POINT (AUT)","8401565","2022-11-21 12:30","2022","11","21","12:30","-1.2","","-4.2","","80","","","M","35","","57","","","","99.16","","","","-10","","NA"
"-57.10","51.02","FEROLLE POINT (AUT)","8401565","2022-11-21 13:30","2022","11","21","13:30","-1.5","","-5.7","","73","","","M","34","","53","","","","99.40","","","","-10","","NA"
"-57.10","51.02","FEROLLE POINT (AUT)","8401565","2022-11-21 14:30","2022","11","21","14:30","-1.6","","-4.7","","79","","","M","33","","55","","","","99.61","","","","-11","","NA"
"-57.10","51.02","FEROLLE POINT (AUT)","8401565","2022-11-21 15:30","2022","11","21","15:30","-1.8","","-5.3","","77","","","M","33","","54","","","","99.86","","","","-11","","NA"
"-57.10","51.02","FEROLLE POINT (AUT)","8401565","2022-11-21 16:30","2022","11","21","16:30","-1.8","","-4.9","","79","","","M","33","","48","","","","100.06","","","","-10","","NA"
"-57.10","51.02","FEROLLE POINT (AUT)","8401565","2022-11-21 17:30","2022","11","21","17:30","-2.3","","-7.0","","70","","","M","33","","46","","","","100.28","","","","-11","","NA"
"-57.10","51.02","FEROLLE POINT (AUT)","8401565","2022-11-21 18:30","2022","11","21","18:30","-2.5","","-7.2","","70","","","M","31","","41","","","","100.43","","","","-11","","NA"
"-57.10","51.02","FEROLLE POINT (AUT)","8401565","2022-11-21 19:30","2022","11","21","19:30","-3.2","","-7.4","","73","","","M","31","","42","","","","100.56","","","","-12","","NA"
"-57.10","51.02","FEROLLE POINT (AUT)","8401565","2022-11-21 20:30","2022","11","21","20:30","-3.7","","-7.9","","73","","","M","31","","37","","","","100.67","","","","-12","","NA"
"-57.10","51.02","FEROLLE POINT (AUT)","8401565","2022-11-21 21:30","2022","11","21","21:30","-4.0","","-8.1","","73","","","M","31","","36","","","","100.77","","","","-12","","NA"
"-57.10","51.02","FEROLLE POINT (AUT)","8401565","2022-11-21 22:30","2022","11","21","22:30","-3.8","","-7.8","","73","","","M","31","","35","","","","100.83","","","","-12","","NA"
"-57.10","51.02","FEROLLE POINT (AUT)","8401565","2022-11-21 23:30","2022","11","21","23:30","-3.7","","-7.7","","74","","","M","30","","33","","","","100.88","","","","-12","","NA"
"-57.10","51.02","FEROLLE POINT (AUT)","8401565","2022-11-22 00:30","2022","11","22","00:30","-3.9","","-8.0","","73","","","M","30","","29","","","","100.90","","","","-11","","NA"
"-57.10","51.02","FEROLLE POINT (AUT)","8401565","2022-11-22 01:30","2022","11","22","01:30","-4.0","","-7.7","","76","","","M","30","","26","","","","100.90","","","","-11","","NA"
"-57.10","51.02","FEROLLE POINT (AUT)","8401565","2022-11-22 02:30","2022","11","22","02:30","-4.1","","-7.3","","78","","","M","29","","22","","","","100.92","","","","-11","","NA"
"-57.10","51.02","FEROLLE POINT (AUT)","8401565","2022-11-22 03:30","2022","11","22","03:30","-3.9","","-7.1","","78","","","M","28","","22","","","","100.90","","","","-10","","NA"
"-57.10","51.02","FEROLLE POINT (AUT)","8401565","2022-11-22 04:30","2022","11","22","04:30","-3.8","","-7.0","","79","","","M","28","","16","","","","100.88","","","","-9","","NA"
"-57.10","51.02","FEROLLE POINT (AUT)","8401565","2022-11-22 05:30","2022","11","22","05:30","-3.8","","-7.9","","73","","","M","24","","14","","","","100.84","","","","-9","","NA"
"-57.10","51.02","FEROLLE POINT (AUT)","8401565","2022-11-22 06:30","2022","11","22","06:30","-3.3","","-6.9","","76","","","M","","","0","","","","100.78","","","","","","NA"
"-57.10","51.02","FEROLLE POINT (AUT)","8401565","2022-11-22 07:30","2022","11","22","07:30","-3.2","","-7.1","","74","","","M","","","0","","","","100.70","","","","","","NA"
"-57.10","51.02","FEROLLE POINT (AUT)","8401565","2022-11-22 08:30","2022","11","22","08:30","-4.7","","-7.0","","84","","","M","","","0","","","","100.68","","","","","","NA"
"-57.10","51.02","FEROLLE POINT (AUT)","8401565","2022-11-22 09:30","2022","11","22","09:30","-4.3","","-6.1","","87","","","M","","","0","","","","100.67","","","","","","NA"
"-57.10","51.02","FEROLLE POINT (AUT)","8401565","2022-11-22 10:30","2022","11","22","10:30","-3.5","","-4.8","","91","","","M","","","0","","","","100.56","","","","","","NA"
"-57.10","51.02","FEROLLE POINT (AUT)","8401565","2022-11-22 11:30","2022","11","22","11:30","-3.1","","-5.3","","85","","","M","10","","14","","","","100.45","","","","-8","","NA"
"-57.10","51.02","FEROLLE POINT (AUT)","8401565","2022-11-22 12:30","2022","11","22","12:30","-2.5","","-4.8","","85","","","M","7","","18","","","","100.33","","","","-8","","NA"
"-57.10","51.02","FEROLLE POINT (AUT)","8401565","2022-11-22 13:30","2022","11","22","13:30","-2.1","","-4.1","","87","","","M","6","","22","","","","100.24","","","","-8","","NA"
"-57.10","51.02","FEROLLE POINT (AUT)","8401565","2022-11-22 14:30","2022","11","22","14:30","-2.4","","-3.9","","89","","","M","6","","22","","","","100.26","","","","-9","","NA"
"-57.10","51.02","FEROLLE POINT (AUT)","8401565","2022-11-22 15:30","2022","11","22","15:30","-2.5","","-2.6","","99","","","M","4","","22","","","","100.33","","","","-9","","NA"
"-57.10","51.02","FEROLLE POINT (AUT)","8401565","2022-11-22 16:30","2022","11","22","16:30","-2.6","","-2.8","","99","","","M","2","","25","","","","100.43","","","","-9","","NA"
"-57.10","51.02","FEROLLE POINT (AUT)","8401565","2022-11-22 17:30","2022","11","22","17:30","-2.6","","-4.2","","89","","","M","36","","18","","","","100.55","","","","-8","","NA"
"-57.10","51.02","FEROLLE POINT (AUT)","8401565","2022-11-22 18:30","2022","11","22","18:30","-2.1","","-4.6","","83","","","M","32","","13","","","","100.61","","","","-7","","NA"
"-57.10","51.02","FEROLLE POINT (AUT)","8401565","2022-11-22 19:30","2022","11","22","19:30","-2.4","","-5.5","","80","","","M","29","","37","","","","100.63","","","","-10","","NA"
"-57.10","51.02","FEROLLE POINT (AUT)","8401565","2022-11-22 20:30","2022","11","22","20:30","-2.9","","-5.8","","80","","","M","29","","39","","","","100.70","","","","-11","","NA"
"-57.10","51.02","FEROLLE POINT (AUT)","8401565","2022-11-22 21:30","2022","11","22","21:30","-2.1","","-5.4","","78","","","M","30","","34","","","","100.74","","","","-10","","NA"
"-57.10","51.02","FEROLLE POINT (AUT)","8401565","2022-11-22 22:30","2022","11","22","22:30","-2.3","","-6.5","","73","","","M","30","","40","","","","100.80","","","","-10","","NA"
"-57.10","51.02","FEROLLE POINT (AUT)","8401565","2022-11-22 23:30","2022","11","22","23:30","-3.4","","-8.7","","67","","","M","30","","42","","","","100.89","","","","-12","","NA"
"-57.10","51.02","FEROLLE POINT (AUT)","8401565","2022-11-23 00:30","2022","11","23","00:30","-4.2","","-10.1","","63","","","M","30","","39","","","","100.96","","","","-13","","NA"
"-57.10","51.02","FEROLLE POINT (AUT)","8401565","2022-11-23 01:30","2022","11","23","01:30","-4.4","","-11.1","","60","","","M","29","","28","","","","100.97","","","","-12","","NA"
"-57.10","51.02","FEROLLE POINT (AUT)","8401565","2022-11-23 02:30","2022","11","23","02:30","-4.3","","-9.8","","65","","","M","30","","26","","","","100.97","","","","-12","","NA"
"-57.10","51.02","FEROLLE POINT (AUT)","8401565","2022-11-23 03:30","2022","11","23","03:30","-4.3","","-10.0","","64","","","M","28","","22","","","","100.98","","","","-11","","NA"
"-57.10","51.02","FEROLLE POINT (AUT)","8401565","2022-11-23 04:30","2022","11","23","04:30","-5.3","","-7.1","","87","","","M","30","","19","","","","100.95","","","","-12","","NA"
"-57.10","51.02","FEROLLE POINT (AUT)","8401565","2022-11-23 05:30","2022","11","23","05:30","-4.7","","-7.4","","82","","","M","30","","14","","","","100.88","","","","-10","","NA"
"-57.10","51.02","FEROLLE POINT (AUT)","8401565","2022-11-23 06:30","2022","11","23","06:30","-5.0","","-7.3","","84","","","M","32","","14","","","","100.86","","","","-10","","NA"
"-57.10","51.02","FEROLLE POINT (AUT)","8401565","2022-11-23 07:30","2022","11","23","07:30","-5.4","","-7.9","","83","","","M","32","","22","","","","100.84","","","","-12","","NA"
"-57.10","51.02","FEROLLE POINT (AUT)","8401565","2022-11-23 08:30","2022","11","23","08:30","-5.5","","-7.5","","86","","","M","32","","24","","","","100.85","","","","-13","","NA"
"-57.10","51.02","FEROLLE POINT (AUT)","8401565","2022-11-23 09:30","2022","11","23","09:30","-5.5","","-9.4","","74","","","M","32","","21","","","","100.82","","","","-12","","NA"
"-57.10","51.02","FEROLLE POINT (AUT)","8401565","2022-11-23 10:30","2022","11","23","10:30","-6.3","","-10.4","","73","","","M","33","","17","","","","100.78","","","","-13","","NA"
"-57.10","51.02","FEROLLE POINT (AUT)","8401565","2022-11-23 11:30","2022","11","23","11:30","-6.8","","-12.4","","64","","","M","35","","15","","","","100.73","","","","-13","","NA"
"-57.10","51.02","FEROLLE POINT (AUT)","8401565","2022-11-23 12:30","2022","11","23","12:30","-7.0","","-13.3","","61","","","M","34","","11","","","","100.67","","","","-12","","NA"
"-57.10","51.02","FEROLLE POINT (AUT)","8401565","2022-11-23 13:30","2022","11","23","13:30","-7.1","","-14.8","","54","","","M","34","","10","","","","100.59","","","","-12","","NA"
"-57.10","51.02","FEROLLE POINT (AUT)","8401565","2022-11-23 14:30","2022","11","23","14:30","-7.1","","-15.4","","52","","","M","34","","8","","","","100.52","","","","-11","","NA"
"-57.10","51.02","FEROLLE POINT (AUT)","8401565","2022-11-23 15:30","2022","11","23","15:30","-7.2","","-17.1","","45","","","M","","","0","","","","100.47","","","","","","NA"
"-57.10","51.02","FEROLLE POINT (AUT)","8401565","2022-11-23 16:30","2022","11","23","16:30","-7.2","","-17.0","","46","","","M","","","0","","","","100.41","","","","","","NA"
"-57.10","51.02","FEROLLE POINT (AUT)","8401565","2022-11-23 17:30","2022","11","23","17:30","-7.1","","-14.7","","54","","","M","","","0","","","","100.38","","","","","","NA"
"-57.10","51.02","FEROLLE POINT (AUT)","8401565","2022-11-23 18:30","2022","11","23","18:30","-6.8","","-13.5","","59","","","M","","","0","","","","100.35","","","","","","NA"
"-57.10","51.02","FEROLLE POINT (AUT)","8401565","2022-11-23 19:30","2022","11","23","19:30","-6.8","","-13.2","","60","","","M","","","0","","","","100.29","","","","","","NA"
"-57.10","51.02","FEROLLE POINT (AUT)","8401565","2022-11-23 20:30","2022","11","23","20:30","-6.9","","-13.6","","59","","","M","0","","1","","","","100.25","","","","-7","","NA"
"-57.10","51.02","FEROLLE POINT (AUT)","8401565","2022-11-23 21:30","2022","11","23","21:30","-7.4","","-13.1","","64","","","M","31","","2","","","","100.20","","","","-8","","NA"
"-57.10","51.02","FEROLLE POINT (AUT)","8401565","2022-11-23 22:30","2022","11","23","22:30","-7.4","","-12.9","","65","","","M","0","","1","","","","100.13","","","","-8","","NA"
"-57.10","51.02","FEROLLE POINT (AUT)","8401565","2022-11-23 23:30","2022","11","23","23:30","-7.2","","-12.0","","68","","","M","29","","3","","","","99.98","","","","-9","","NA"
"-57.10","51.02","FEROLLE POINT (AUT)","8401565","2022-11-24 00:30","2022","11","24","00:30","-7.7","","-13.5","","63","","","M","29","","26","","","","99.89","","","","-16","","NA"
"-57.10","51.02","FEROLLE POINT (AUT)","8401565","2022-11-24 01:30","2022","11","24","01:30","-8.1","","-12.5","","71","","","M","29","","37","","","","99.75","","","","-18","","NA"
"-57.10","51.02","FEROLLE POINT (AUT)","8401565","2022-11-24 02:30","2022","11","24","02:30","-8.4","","-10.5","","85","","","M","29","","30","","","","99.64","","","","-17","","NA"
"-57.10","51.02","FEROLLE POINT (AUT)","8401565","2022-11-24 03:30","2022","11","24","03:30","-7.8","","-9.9","","85","","","M","31","","35","","","","99.52","","","","-17","","NA"
"-57.10","51.02","FEROLLE POINT (AUT)","8401565","2022-11-24 04:30","2022","11","24","04:30","-7.8","","-9.7","","87","","","M","33","","34","","","","99.47","","","","-17","","NA"
"-57.10","51.02","FEROLLE POINT (AUT)","8401565","2022-11-24 05:30","2022","11","24","05:30","-7.8","","-9.9","","84","","","M","34","","32","","","","99.44","","","","-17","","NA"
"-57.10","51.02","FEROLLE POINT (AUT)","8401565","2022-11-24 06:30","2022","11","24","06:30","-7.6","","-9.9","","83","","","M","33","","24","","","","99.43","","","","-16","","NA"
"-57.10","51.02","FEROLLE POINT (AUT)","8401565","2022-11-24 07:30","2022","11","24","07:30","-6.7","","-8.7","","86","","","M","34","","27","","","","99.37","","","","-15","","NA"
"-57.10","51.02","FEROLLE POINT (AUT)","8401565","2022-11-24 08:30","2022","11","24","08:30","-5.0","","-8.3","","78","","","M","32","","39","","","","99.33","","","","-14","","NA"
"-57.10","51.02","FEROLLE POINT (AUT)","8401565","2022-11-24 09:30","2022","11","24","09:30","-4.0","","-8.5","","71","","","M","32","","46","","","","99.27","","","","-13","","NA"
"-57.10","51.02","FEROLLE POINT (AUT)","8401565","2022-11-24 10:30","2022","11","24","10:30","-4.1","","-8.6","","71","","","M","31","","41","","","","99.27","","","","-13","","NA"
"-57.10","51.02","FEROLLE POINT (AUT)","8401565","2022-11-24 11:30","2022","11","24","11:30","-4.1","","-8.0","","74","","","M","32","","38","","","","99.21","","","","-13","","NA"
"-57.10","51.02","FEROLLE POINT (AUT)","8401565","2022-11-24 12:30","2022","11","24","12:30","-5.6","","-7.7","","85","","","M","4","","29","","","","99.25","","","","-14","","NA"
"-57.10","51.02","FEROLLE POINT (AUT)","8401565","2022-11-24 13:30","2022","11","24","13:30","-6.8","","-8.8","","86","","","M","5","","23","","","","99.36","","","","-14","","NA"
"-57.10","51.02","FEROLLE POINT (AUT)","8401565","2022-11-24 14:30","2022","11","24","14:30","-6.7","","-9.0","","84","","","M","2","","25","","","","99.49","","","","-15","","NA"
"-57.10","51.02","FEROLLE POINT (AUT)","8401565","2022-11-24 15:30","2022","11","24","15:30","-6.1","","-12.3","","62","","","M","36","","45","","","","99.59","","","","-16","","NA"
"-57.10","51.02","FEROLLE POINT (AUT)","8401565","2022-11-24 16:30","2022","11","24","16:30","-5.6","","-9.6","","73","","","M","33","","49","","","","99.70","","","","-16","","NA"
"-57.10","51.02","FEROLLE POINT (AUT)","8401565","2022-11-24 17:30","2022","11","24","17:30","-4.0","","-7.9","","74","","","M","34","","52","","","","99.71","","","","-14","","NA"
"-57.10","51.02","FEROLLE POINT (AUT)","8401565","2022-11-24 18:30","2022","11","24","18:30","-3.8","","-7.7","","74","","","M","33","","68","","","","99.68","","","","-15","","NA"
"-57.10","51.02","FEROLLE POINT (AUT)","8401565","2022-11-24 19:30","2022","11","24","19:30","-3.1","","-7.9","","69","","","M","34","","71","","","","99.75","","","","-14","","NA"
"-57.10","51.02","FEROLLE POINT (AUT)","8401565","2022-11-24 20:30","2022","11","24","20:30","-2.7","","-6.2","","77","","","M","33","","69","","","","99.82","","","","-13","","NA"
"-57.10","51.02","FEROLLE POINT (AUT)","8401565","2022-11-24 21:30","2022","11","24","21:30","-2.0","","-5.2","","79","","","M","34","","71","","","","99.81","","","","-12","","NA"
"-57.10","51.02","FEROLLE POINT (AUT)","8401565","2022-11-24 22:30","2022","11","24","22:30","-1.4","","-4.6","","79","","","M","33","","66","","","","99.96","","","","-11","","NA"
"-57.10","51.02","FEROLLE POINT (AUT)","8401565","2022-11-24 23:30","2022","11","24","23:30","-0.7","","-3.9","","79","","","M","34","","67","","","","99.98","","","","-10","","NA"
"-57.10","51.02","FEROLLE POINT (AUT)","8401565","2022-11-25 00:30","2022","11","25","00:30","-0.1","","-3.2","","80","","","M","34","","53","","","","100.14","","","","-8","","NA"
"-57.10","51.02","FEROLLE POINT (AUT)","8401565","2022-11-25 01:30","2022","11","25","01:30","0.1","","-3.2","","79","","","M","34","","49","","","","100.29","","","","","","NA"
"-57.10","51.02","FEROLLE POINT (AUT)","8401565","2022-11-25 02:30","2022","11","25","02:30","0.3","","-2.9","","79","","","M","34","","46","","","","100.37","","","","","","NA"
"-57.10","51.02","FEROLLE POINT (AUT)","8401565","2022-11-25 03:30","2022","11","25","03:30","0.5","","-2.6","","80","","","M","34","","49","","","","100.45","","","","","","NA"
"-57.10","51.02","FEROLLE POINT (AUT)","8401565","2022-11-25 04:30","2022","11","25","04:30","0.5","","-2.4","","81","","","M","35","","42","","","","100.54","","","","","","NA"
"-57.10","51.02","FEROLLE POINT (AUT)","8401565","2022-11-25 05:30","2022","11","25","05:30","1.2","","-1.9","","80","","","M","36","","33","","","","100.64","","","","","","NA"
"-57.10","51.02","FEROLLE POINT (AUT)","8401565","2022-11-25 06:30","2022","11","25","06:30","0.5","","-2.0","","83","","","M","34","","28","","","","100.73","","","","","","NA"
"-57.10","51.02","FEROLLE POINT (AUT)","8401565","2022-11-25 07:30","2022","11","25","07:30","0.5","","-2.1","","83","","","M","33","","23","","","","100.86","","","","","","NA"
"-57.10","51.02","FEROLLE POINT (AUT)","8401565","2022-11-25 08:30","2022","11","25","08:30","0.4","","-2.4","","82","","","M","36","","15","","","","100.91","","","","","","NA"
"-57.10","51.02","FEROLLE POINT (AUT)","8401565","2022-11-25 09:30","2022","11","25","09:30","0.6","","-2.5","","80","","","M","34","","16","","","","100.95","","","","","","NA"
"-57.10","51.02","FEROLLE POINT (AUT)","8401565","2022-11-25 10:30","2022","11","25","10:30","0.3","","-2.5","","82","","","M","31","","15","","","","101.00","","","","","","NA"
"-57.10","51.02","FEROLLE POINT (AUT)","8401565","2022-11-25 11:30","2022","11","25","11:30","0.1","","-3.1","","79","","","M","29","","13","","","","100.98","","","","","","NA"
"-57.10","51.02","FEROLLE POINT (AUT)","8401565","2022-11-25 12:30","2022","11","25","12:30","0.2","","-2.6","","82","","","M","25","","17","","","","100.91","","","","","","NA"
"-57.10","51.02","FEROLLE POINT (AUT)","8401565","2022-11-25 13:30","2022","11","25","13:30","0.8","","-2.6","","78","","","M","28","","18","","","","100.86","","","","","","NA"
"-57.10","51.02","FEROLLE POINT (AUT)","8401565","2022-11-25 14:30","2022","11","25","14:30","0.3","","-2.5","","81","","","M","25","","18","","","","100.90","","","","","","NA"
"-57.10","51.02","FEROLLE POINT (AUT)","8401565","2022-11-25 15:30","2022","11","25","15:30","0.0","","-2.1","","85","","","M","24","","24","","","","100.94","","","","-6","","NA"
"-57.10","51.02","FEROLLE POINT (AUT)","8401565","2022-11-25 16:30","2022","11","25","16:30","-0.4","","-2.4","","86","","","M","25","","24","","","","100.92","","","","-6","","NA"
"-57.10","51.02","FEROLLE POINT (AUT)","8401565","2022-11-25 17:30","2022","11","25","17:30","0.1","","-1.6","","88","","","M","25","","23","","","","100.86","","","","","","NA"
"-57.10","51.02","FEROLLE POINT (AUT)","8401565","2022-11-25 18:30","2022","11","25","18:30","0.1","","-2.1","","85","","","M","24","","20","","","","100.82","","","","","","NA"
"-57.10","51.02","FEROLLE POINT (AUT)","8401565","2022-11-25 19:30","2022","11","25","19:30","-0.4","","-1.5","","92","","","M","24","","14","","","","100.77","","","","-5","","NA"
"-57.10","51.02","FEROLLE POINT (AUT)","8401565","2022-11-25 20:30","2022","11","25","20:30","0.1","","-2.3","","84","","","M","23","","16","","","","100.71","","","","","","NA"
"-57.10","51.02","FEROLLE POINT (AUT)","8401565","2022-11-25 21:30","2022","11","25","21:30","0.2","","-1.4","","89","","","M","22","","24","","","","100.72","","","","","","NA"
"-57.10","51.02","FEROLLE POINT (AUT)","8401565","2022-11-25 22:30","2022","11","25","22:30","0.0","","-0.7","","95","","","M","20","","22","","","","100.72","","","","-6","","NA"
"-57.10","51.02","FEROLLE POINT (AUT)","8401565","2022-11-25 23:30","2022","11","25","23:30","-0.2","","-0.2","","100","","","M","19","","22","","","","100.68","","","","-6","","NA"
"-57.10","51.02","FEROLLE POINT (AUT)","8401565","2022-11-26 00:30","2022","11","26","00:30","0.1","","-0.3","","98","","","M","19","","22","","","","100.62","","","","","","NA"
"-57.10","51.02","FEROLLE POINT (AUT)","8401565","2022-11-26 01:30","2022","11","26","01:30","0.1","","-1.0","","92","","","M","18","","14","","","","100.57","","","","","","NA"
"-57.10","51.02","FEROLLE POINT (AUT)","8401565","2022-11-26 02:30","2022","11","26","02:30","-1.0","","-2.8","","88","","","M","","","0","","","","100.53","","","","","","NA"
"-57.10","51.02","FEROLLE POINT (AUT)","8401565","2022-11-26 03:30","2022","11","26","03:30","-2.4","","-3.5","","92","","","M","","","0","","","","100.52","","","","","","NA"
"-57.10","51.02","FEROLLE POINT (AUT)","8401565","2022-11-26 04:30","2022","11","26","04:30","-3.1","","-4.1","","93","","","M","","","0","","","","100.45","","","","","","NA"
"-57.10","51.02","FEROLLE POINT (AUT)","8401565","2022-11-26 05:30","2022","11","26","05:30","-3.3","","-4.4","","92","","","M","","","0","","","","100.39","","","","","","NA"
"-57.10","51.02","FEROLLE POINT (AUT)","8401565","2022-11-26 06:30","2022","11","26","06:30","-2.1","","-4.2","","86","","","M","","","0","","","","100.31","","","","","","NA"
"-57.10","51.02","FEROLLE POINT (AUT)","8401565","2022-11-26 07:30","2022","11","26","07:30","-2.3","","-4.5","","85","","","M","","","0","","","","100.32","","","","","","NA"
"-57.10","51.02","FEROLLE POINT (AUT)","8401565","2022-11-26 08:30","2022","11","26","08:30","-2.1","","-4.4","","85","","","M","","","0","","","","100.34","","","","","","NA"
"-57.10","51.02","FEROLLE POINT (AUT)","8401565","2022-11-26 09:30","2022","11","26","09:30","-1.4","","-3.7","","84","","","M","","","0","","","","100.35","","","","","","NA"
"-57.10","51.02","FEROLLE POINT (AUT)","8401565","2022-11-26 10:30","2022","11","26","10:30","-0.8","","-3.4","","83","","","M","","","0","","","","100.31","","","","","","NA"
"-57.10","51.02","FEROLLE POINT (AUT)","8401565","2022-11-26 11:30","2022","11","26","11:30","-0.5","","-2.9","","84","","","M","11","","18","","","","100.20","","","","-6","","NA"
"-57.10","51.02","FEROLLE POINT (AUT)","8401565","2022-11-26 12:30","2022","11","26","12:30","0.1","","-2.4","","84","","","M","10","","16","","","","100.17","","","","","","NA"
"-57.10","51.02","FEROLLE POINT (AUT)","8401565","2022-11-26 13:30","2022","11","26","13:30","0.6","","-1.8","","84","","","M","12","","17","","","","100.13","","","","","","NA"
"-57.10","51.02","FEROLLE POINT (AUT)","8401565","2022-11-26 14:30","2022","11","26","14:30","0.9","","-1.1","","87","","","M","12","","24","","","","100.10","","","","","","NA"
"-57.10","51.02","FEROLLE POINT (AUT)","8401565","2022-11-26 15:30","2022","11","26","15:30","0.7","","0.0","","95","","","M","9","","18","","","","100.09","","","","","","NA"
"-57.10","51.02","FEROLLE POINT (AUT)","8401565","2022-11-26 16:30","2022","11","26","16:30","0.9","","0.0","","94","","","M","9","","21","","","","100.10","","","","","","NA"
"-57.10","51.02","FEROLLE POINT (AUT)","8401565","2022-11-26 17:30","2022","11","26","17:30","1.1","","-0.5","","89","","","M","9","","20","","","","100.12","","","","","","NA"
"-57.10","51.02","FEROLLE POINT (AUT)","8401565","2022-11-26 18:30","2022","11","26","18:30","1.0","","0.0","","93","","","M","8","","19","","","","100.10","","","","","","NA"
"-57.10","51.02","FEROLLE POINT (AUT)","8401565","2022-11-26 19:30","2022","11","26","19:30","1.0","","0.3","","95","","","M","8","","20","","","","100.09","","","","","","NA"
"-57.10","51.02","FEROLLE POINT (AUT)","8401565","2022-11-26 20:30","2022","11","26","20:30","1.2","","0.1","","92","","","M","9","","21","","","","100.07","","","","","","NA"
"-57.10","51.02","FEROLLE POINT (AUT)","8401565","2022-11-26 21:30","2022","11","26","21:30","1.4","","0.3","","92","","","M","8","","19","","","","100.03","","","","","","NA"
"-57.10","51.02","FEROLLE POINT (AUT)","8401565","2022-11-26 22:30","2022","11","26","22:30","1.4","","0.4","","93","","","M","9","","22","","","","100.01","","","","","","NA"
"-57.10","51.02","FEROLLE POINT (AUT)","8401565","2022-11-26 23:30","2022","11","26","23:30","1.4","","0.3","","92","","","M","9","","24","","","","100.01","","","","","","NA"
"-57.10","51.02","FEROLLE POINT (AUT)","8401565","2022-11-27 00:30","2022","11","27","00:30","1.2","","0.2","","94","","","M","8","","18","","","","100.01","","","","","","NA"
"-57.10","51.02","FEROLLE POINT (AUT)","8401565","2022-11-27 01:30","2022","11","27","01:30","1.0","","0.5","","97","","","M","8","","17","","","","99.98","","","","","","NA"
"-57.10","51.02","FEROLLE POINT (AUT)","8401565","2022-11-27 02:30","2022","11","27","02:30","1.2","","0.3","","94","","","M","11","","17","","","","100.02","","","","","","NA"
"-57.10","51.02","FEROLLE POINT (AUT)","8401565","2022-11-27 03:30","2022","11","27","03:30","1.1","","0.6","","97","","","M","12","","15","","","","99.99","","","","","","NA"
"-57.10","51.02","FEROLLE POINT (AUT)","8401565","2022-11-27 04:30","2022","11","27","04:30","1.0","","0.7","","98","","","M","9","","9","","","","99.98","","","","","","NA"
"-57.10","51.02","FEROLLE POINT (AUT)","8401565","2022-11-27 05:30","2022","11","27","05:30","1.0","","0.8","","99","","","M","7","","13","","","","99.98","","","","","","NA"
"-57.10","51.02","FEROLLE POINT (AUT)","8401565","2022-11-27 06:30","2022","11","27","06:30","1.1","","0.7","","97","","","M","11","","16","","","","99.91","","","","","","NA"
"-57.10","51.02","FEROLLE POINT (AUT)","8401565","2022-11-27 07:30","2022","11","27","07:30","1.0","","0.8","","98","","","M","8","","9","","","","99.90","","","","","","NA"
"-57.10","51.02","FEROLLE POINT (AUT)","8401565","2022-11-27 08:30","2022","11","27","08:30","1.2","","0.7","","97","","","M","6","","8","","","","99.91","","","","","","NA"
"-57.10","51.02","FEROLLE POINT (AUT)","8401565","2022-11-27 09:30","2022","11","27","09:30","1.2","","1.2","","100","","","M","6","","10","","","","99.89","","","","","","NA"
"-57.10","51.02","FEROLLE POINT (AUT)","8401565","2022-11-27 10:30","2022","11","27","10:30","1.9","","1.8","","99","","","M","13","","12","","","","99.78","","","","","","NA"
"-57.10","51.02","FEROLLE POINT (AUT)","8401565","2022-11-27 11:30","2022","11","27","11:30","2.2","","1.7","","97","","","M","15","","4","","","","99.80","","","","","","NA"
"-57.10","51.02","FEROLLE POINT (AUT)","8401565","2022-11-27 12:30","2022","11","27","12:30","2.3","","2.3","","100","","","M","23","","10","","","","99.71","","","","","","NA"
"-57.10","51.02","FEROLLE POINT (AUT)","8401565","2022-11-27 13:30","2022","11","27","13:30","2.2","","2.1","","100","","","M","20","","20","","","","99.66","","","","","","NA"
"-57.10","51.02","FEROLLE POINT (AUT)","8401565","2022-11-27 14:30","2022","11","27","14:30","2.4","","2.4","","100","","","M","19","","26","","","","99.60","","","","","","NA"
"-57.10","51.02","FEROLLE POINT (AUT)","8401565","2022-11-27 15:30","2022","11","27","15:30","2.6","","2.5","","100","","","M","24","","24","","","","99.57","","","","","","NA"
"-57.10","51.02","FEROLLE POINT (AUT)","8401565","2022-11-27 16:30","2022","11","27","16:30","2.4","","2.4","","100","","","M","23","","35","","","","99.55","","","","","","NA"
"-57.10","51.02","FEROLLE POINT (AUT)","8401565","2022-11-27 17:30","2022","11","27","17:30","2.0","","0.8","","92","","","M","25","","32","","","","99.58","","","","","","NA"
"-57.10","51.02","FEROLLE POINT (AUT)","8401565","2022-11-27 18:30","2022","11","27","18:30","1.8","","-0.5","","85","","","M","24","","35","","","","99.51","","","","","","NA"
"-57.10","51.02","FEROLLE POINT (AUT)","8401565","2022-11-27 19:30","2022","11","27","19:30","2.0","","-0.5","","84","","","M","24","","35","","","","99.54","","","","","","NA"
"-57.10","51.02","FEROLLE POINT (AUT)","8401565","2022-11-27 20:30","2022","11","27","20:30","2.3","","-0.1","","85","","","M","26","","34","","","","99.57","","","","","","NA"
"-57.10","51.02","FEROLLE POINT (AUT)","8401565","2022-11-27 21:30","2022","11","27","21:30","2.5","","0.3","","86","","","M","26","","36","","","","99.53","","","","","","NA"
"-57.10","51.02","FEROLLE POINT (AUT)","8401565","2022-11-27 22:30","2022","11","27","22:30","2.6","","0.4","","86","","","M","27","","35","","","","99.54","","","","","","NA"
"-57.10","51.02","FEROLLE POINT (AUT)","8401565","2022-11-27 23:30","2022","11","27","23:30","2.5","","0.3","","85","","","M","28","","33","","","","99.55","","","","","","NA"
"-57.10","51.02","FEROLLE POINT (AUT)","8401565","2022-11-28 00:30","2022","11","28","00:30","2.2","","0.3","","87","","","M","28","","27","","","","99.57","","","","","","NA"
"-57.10","51.02","FEROLLE POINT (AUT)","8401565","2022-11-28 01:30","2022","11","28","01:30","2.4","","-1.0","","78","","","M","30","","32","","","","99.55","","","","","","NA"
"-57.10","51.02","FEROLLE POINT (AUT)","8401565","2022-11-28 02:30","2022","11","28","02:30","2.2","","-1.8","","74","","","M","29","","20","","","","99.60","","","","","","NA"
"-57.10","51.02","FEROLLE POINT (AUT)","8401565","2022-11-28 03:30","2022","11","28","03:30","2.2","","-0.8","","80","","","M","28","","20","","","","99.59","","","","","","NA"
"-57.10","51.02","FEROLLE POINT (AUT)","8401565","2022-11-28 04:30","2022","11","28","04:30","2.2","","-0.6","","82","","","M","29","","13","","","","99.57","","","","","","NA"
"-57.10","51.02","FEROLLE POINT (AUT)","8401565","2022-11-28 05:30","2022","11","28","05:30","2.1","","-0.1","","85","","","M","29","","13","","","","99.55","","","","","","NA"
"-57.10","51.02","FEROLLE POINT (AUT)","8401565","2022-11-28 06:30","2022","11","28","06:30","2.0","","-0.2","","86","","","M","28","","10","","","","99.52","","","","","","NA"
"-57.10","51.02","FEROLLE POINT (AUT)","8401565","2022-11-28 07:30","2022","11","28","07:30","1.9","","-1.9","","76","","","M","30","","8","","","","99.53","","","","","","NA"
"-57.10","51.02","FEROLLE POINT (AUT)","8401565","2022-11-28 08:30","2022","11","28","08:30","1.9","","-0.8","","83","","","M","31","","10","","","","99.54","","","","","","NA"
"-57.10","51.02","FEROLLE POINT (AUT)","8401565","2022-11-28 09:30","2022","11","28","09:30","1.7","","-0.9","","83","","","M","36","","9","","","","99.47","","","","","","NA"
"-57.10","51.02","FEROLLE POINT (AUT)","8401565","2022-11-28 10:30","2022","11","28","10:30","1.5","","-0.7","","85","","","M","4","","15","","","","99.42","","","","","","NA"
"-57.10","51.02","FEROLLE POINT (AUT)","8401565","2022-11-28 11:30","2022","11","28","11:30","1.0","","-1.2","","85","","","M","6","","17","","","","99.34","","","","","","NA"
"-57.10","51.02","FEROLLE POINT (AUT)","8401565","2022-11-28 12:30","2022","11","28","12:30","0.8","","-0.3","","92","","","M","7","","19","","","","99.23","","","","","","NA"
"-57.10","51.02","FEROLLE POINT (AUT)","8401565","2022-11-28 13:30","2022","11","28","13:30","-0.1","","-0.2","","99","","","M","6","","25","","","","99.14","","","","-6","","NA"
"-57.10","51.02","FEROLLE POINT (AUT)","8401565","2022-11-28 14:30","2022","11","28","14:30","-0.5","","-0.5","","100","","","M","7","","25","","","","99.10","","","","-7","","NA"
"-57.10","51.02","FEROLLE POINT (AUT)","8401565","2022-11-28 15:30","2022","11","28","15:30","-0.7","","-0.7","","100","","","M","6","","27","","","","99.07","","","","-7","","NA"
"-57.10","51.02","FEROLLE POINT (AUT)","8401565","2022-11-28 16:30","2022","11","28","16:30","-0.6","","-0.6","","100","","","M","6","","32","","","","99.02","","","","-7","","NA"
"-57.10","51.02","FEROLLE POINT (AUT)","8401565","2022-11-28 17:30","2022","11","28","17:30","-0.7","","-0.7","","100","","","M","6","","33","","","","98.95","","","","-8","","NA"
"-57.10","51.02","FEROLLE POINT (AUT)","8401565","2022-11-28 18:30","2022","11","28","18:30","-0.8","","-0.8","","100","","","M","5","","32","","","","98.97","","","","-8","","NA"
"-57.10","51.02","FEROLLE POINT (AUT)","8401565","2022-11-28 19:30","2022","11","28","19:30","-0.7","","-0.7","","100","","","M","5","","34","","","","99.01","","","","-8","","NA"
"-57.10","51.02","FEROLLE POINT (AUT)","8401565","2022-11-28 20:30","2022","11","28","20:30","-0.4","","-0.4","","100","","","M","4","","37","","","","99.02","","","","-8","","NA"
"-57.10","51.02","FEROLLE POINT (AUT)","8401565","2022-11-28 21:30","2022","11","28","21:30","-0.7","","-0.7","","100","","","M","2","","41","","","","99.02","","","","-8","","NA"
"-57.10","51.02","FEROLLE POINT (AUT)","8401565","2022-11-28 22:30","2022","11","28","22:30","-0.9","","-0.9","","100","","","M","2","","44","","","","99.03","","","","-9","","NA"
"-57.10","51.02","FEROLLE POINT (AUT)","8401565","2022-11-28 23:30","2022","11","28","23:30","-0.8","","-0.8","","100","","","M","2","","44","","","","99.07","","","","-9","","NA"
"-57.10","51.02","FEROLLE POINT (AUT)","8401565","2022-11-29 00:30","2022","11","29","00:30","-1.2","","-1.2","","100","","","M","1","","45","","","","99.17","","","","-9","","NA"
"-57.10","51.02","FEROLLE POINT (AUT)","8401565","2022-11-29 01:30","2022","11","29","01:30","-1.4","","-1.5","","100","","","M","36","","47","","","","99.27","","","","-10","","NA"
"-57.10","51.02","FEROLLE POINT (AUT)","8401565","2022-11-29 02:30","2022","11","29","02:30","-1.6","","-1.6","","100","","","M","35","","46","","","","99.42","","","","-10","","NA"
"-57.10","51.02","FEROLLE POINT (AUT)","8401565","2022-11-29 03:30","2022","11","29","03:30","-1.8","","-1.8","","100","","","M","35","","46","","","","99.56","","","","-10","","NA"
"-57.10","51.02","FEROLLE POINT (AUT)","8401565","2022-11-29 04:30","2022","11","29","04:30","-2.5","","-2.5","","100","","","M","34","","43","","","","99.69","","","","-11","","NA"
"-57.10","51.02","FEROLLE POINT (AUT)","8401565","2022-11-29 05:30","2022","11","29","05:30","-3.8","","-4.5","","95","","","M","33","","46","","","","99.86","","","","-13","","NA"
"-57.10","51.02","FEROLLE POINT (AUT)","8401565","2022-11-29 06:30","2022","11","29","06:30","-4.5","","-4.8","","98","","","M","34","","43","","","","99.97","","","","-14","","NA"
"-57.10","51.02","FEROLLE POINT (AUT)","8401565","2022-11-29 07:30","2022","11","29","07:30","-5.3","","-6.9","","88","","","M","33","","41","","","","100.09","","","","-15","","NA"
"-57.10","51.02","FEROLLE POINT (AUT)","8401565","2022-11-29 08:30","2022","11","29","08:30","-5.4","","-7.8","","83","","","M","35","","33","","","","100.28","","","","-14","","NA"
"-57.10","51.02","FEROLLE POINT (AUT)","8401565","2022-11-29 09:30","2022","11","29","09:30","-5.7","","-8.7","","80","","","M","34","","32","","","","100.41","","","","-14","","NA"
"-57.10","51.02","FEROLLE POINT (AUT)","8401565","2022-11-29 10:30","2022","11","29","10:30","-5.3","","-8.1","","81","","","M","34","","37","","","","100.52","","","","-14","","NA"
"-57.10","51.02","FEROLLE POINT (AUT)","8401565","2022-11-29 11:30","2022","11","29","11:30","-5.6","","-9.0","","77","","","M","32","","35","","","","100.60","","","","-14","","NA"
"-57.10","51.02","FEROLLE POINT (AUT)","8401565","2022-11-29 12:30","2022","11","29","12:30","-5.6","","-9.5","","74","","","M","31","","35","","","","100.69","","","","-14","","NA"
"-57.10","51.02","FEROLLE POINT (AUT)","8401565","2022-11-29 13:30","2022","11","29","13:30","-5.7","","-8.8","","78","","","M","32","","38","","","","100.78","","","","-15","","NA"
"-57.10","51.02","FEROLLE POINT (AUT)","8401565","2022-11-29 14:30","2022","11","29","14:30","-5.6","","-9.1","","76","","","M","30","","36","","","","100.85","","","","-14","","NA"
"-57.10","51.02","FEROLLE POINT (AUT)","8401565","2022-11-29 15:30","2022","11","29","15:30","-5.8","","-10.1","","72","","","M","32","","40","","","","100.94","","","","-15","","NA"
"-57.10","51.02","FEROLLE POINT (AUT)","8401565","2022-11-29 16:30","2022","11","29","16:30","-5.6","","-9.2","","75","","","M","31","","34","","","","101.02","","","","-14","","NA"
"-57.10","51.02","FEROLLE POINT (AUT)","8401565","2022-11-29 17:30","2022","11","29","17:30","-5.8","","-9.8","","73","","","M","32","","38","","","","101.15","","","","-15","","NA"
"-57.10","51.02","FEROLLE POINT (AUT)","8401565","2022-11-29 18:30","2022","11","29","18:30","-6.8","","-10.6","","75","","","M","32","","41","","","","101.31","","","","-17","","NA"
"-57.10","51.02","FEROLLE POINT (AUT)","8401565","2022-11-29 19:30","2022","11","29","19:30","-7.7","","-11.0","","77","","","M","32","","36","","","","101.40","","","","-17","","NA"
"-57.10","51.02","FEROLLE POINT (AUT)","8401565","2022-11-29 20:30","2022","11","29","20:30","-7.8","","-11.0","","77","","","M","31","","27","","","","101.48","","","","-16","","NA"
"-57.10","51.02","FEROLLE POINT (AUT)","8401565","2022-11-29 21:30","2022","11","29","21:30","-7.7","","-11.7","","73","","","M","31","","26","","","","101.54","","","","-16","","NA"
"-57.10","51.02","FEROLLE POINT (AUT)","8401565","2022-11-29 22:30","2022","11","29","22:30","-7.8","","-11.8","","73","","","M","32","","27","","","","101.61","","","","-16","","NA"
"-57.10","51.02","FEROLLE POINT (AUT)","8401565","2022-11-29 23:30","2022","11","29","23:30","-7.2","","-10.7","","76","","","M","31","","26","","","","101.68","","","","-15","","NA"
"-57.10","51.02","FEROLLE POINT (AUT)","8401565","2022-11-30 00:30","2022","11","30","00:30","-7.3","","-11.3","","73","","","M","32","","29","","","","101.74","","","","-16","","NA"
"-57.10","51.02","FEROLLE POINT (AUT)","8401565","2022-11-30 01:30","2022","11","30","01:30","-7.0","","-10.5","","76","","","M","31","","27","","","","101.83","","","","-15","","NA"
"-57.10","51.02","FEROLLE POINT (AUT)","8401565","2022-11-30 02:30","2022","11","30","02:30","-6.9","","-10.4","","76","","","M","30","","31","","","","101.94","","","","-16","","NA"
"-57.10","51.02","FEROLLE POINT (AUT)","8401565","2022-11-30 03:30","2022","11","30","03:30","-6.6","","-10.2","","76","","","M","31","","25","","","","102.05","","","","-14","","NA"
"-57.10","51.02","FEROLLE POINT (AUT)","8401565","2022-11-30 04:30","2022","11","30","04:30","-6.8","","-10.4","","76","","","M","30","","24","","","","102.19","","","","-14","","NA"
"-57.10","51.02","FEROLLE POINT (AUT)","8401565","2022-11-30 05:30","2022","11","30","05:30","-6.9","","-10.7","","74","","","M","30","","19","","","","102.31","","","","-14","","NA"
"-57.10","51.02","FEROLLE POINT (AUT)","8401565","2022-11-30 06:30","2022","11","30","06:30","-6.6","","-10.0","","76","","","M","29","","22","","","","102.40","","","","-14","","NA"
"-57.10","51.02","FEROLLE POINT (AUT)","8401565","2022-11-30 07:30","2022","11","30","07:30","-6.3","","-9.3","","79","","","M","28","","23","","","","102.43","","","","-14","","NA"
"-57.10","51.02","FEROLLE POINT (AUT)","8401565","2022-11-30 08:30","2022","11","30","08:30","-6.4","","-9.9","","76","","","M","28","","20","","","","102.52","","","","-13","","NA"
"-57.10","51.02","FEROLLE POINT (AUT)","8401565","2022-11-30 09:30","2022","11","30","09:30","-6.5","","-9.9","","76","","","M","26","","13","","","","102.59","","","","-12","","NA"
"-57.10","51.02","FEROLLE POINT (AUT)","8401565","2022-11-30 10:30","2022","11","30","10:30","-6.2","","-9.6","","77","","","M","25","","16","","","","102.68","","","","-12","","NA"
"-57.10","51.02","FEROLLE POINT (AUT)","8401565","2022-11-30 11:30","2022","11","30","11:30","-5.9","","-9.1","","78","","","M","26","","17","","","","102.70","","","","-12","","NA"
"-57.10","51.02","FEROLLE POINT (AUT)","8401565","2022-11-30 12:30","2022","11","30","12:30","-5.8","","-8.8","","79","","","M","26","","23","","","","102.73","","","","-13","","NA"
"-57.10","51.02","FEROLLE POINT (AUT)","8401565","2022-11-30 13:30","2022","11","30","13:30","-5.9","","-9.3","","77","","","M","25","","23","","","","102.77","","","","-13","","NA"
"-57.10","51.02","FEROLLE POINT (AUT)","8401565","2022-11-30 14:30","2022","11","30","14:30","-5.2","","-8.3","","78","","","M","23","","20","","","","102.78","","","","-12","","NA"
"-57.10","51.02","FEROLLE POINT (AUT)","8401565","2022-11-30 15:30","2022","11","30","15:30","-4.8","","-7.5","","81","","","M","23","","20","","","","102.80","","","","-11","","NA"
"-57.10","51.02","FEROLLE POINT (AUT)","8401565","2022-11-30 16:30","2022","11","30","16:30","-4.5","","-7.8","","78","","","M","22","","20","","","","102.80","","","","-11","","NA"
"-57.10","51.02","FEROLLE POINT (AUT)","8401565","2022-11-30 17:30","2022","11","30","17:30","-4.1","","-7.4","","78","","","M","24","","18","","","","102.84","","","","-10","","NA"
"-57.10","51.02","FEROLLE POINT (AUT)","8401565","2022-11-30 18:30","2022","11","30","18:30","-3.4","","-6.6","","79","","","M","25","","23","","","","102.83","","","","-10","","NA"
"-57.10","51.02","FEROLLE POINT (AUT)","8401565","2022-11-30 19:30","2022","11","30","19:30","-3.6","","-6.8","","79","","","M","24","","20","","","","102.81","","","","-10","","NA"
"-57.10","51.02","FEROLLE POINT (AUT)","8401565","2022-11-30 20:30","2022","11","30","20:30","-3.4","","-6.4","","79","","","M","19","","18","","","","102.72","","","","-9","","NA"
"-57.10","51.02","FEROLLE POINT (AUT)","8401565","2022-11-30 21:30","2022","11","30","21:30","-3.3","","-6.3","","80","","","M","23","","19","","","","102.71","","","","-9","","NA"
"-57.10","51.02","FEROLLE POINT (AUT)","8401565","2022-11-30 22:30","2022","11","30","22:30","-3.3","","-5.9","","82","","","M","18","","17","","","","102.65","","","","-9","","NA"
"-57.10","51.02","FEROLLE POINT (AUT)","8401565","2022-11-30 23:30","2022","11","30","23:30","-4.6","","-6.8","","85","","","M","13","","14","","","","102.61","","","","-10","","NA"
