"Longitude (x)","Latitude (y)","Station Name","Climate ID","Date/Time (LST)","Year","Month","Day","Time (LST)","Temp (°C)","Temp Flag","Dew Point Temp (°C)","Dew Point Temp Flag","Rel Hum (%)","Rel Hum Flag","Precip. Amount (mm)","Precip. Amount Flag","Wind Dir (10s deg)","Wind Dir Flag","Wind Spd (km/h)","Wind Spd Flag","Visibility (km)","Visibility Flag","Stn Press (kPa)","Stn Press Flag","Hmdx","Hmdx Flag","Wind Chill","Wind Chill Flag","Weather"
"-94.07","58.74","CHURCHILL A","5060605","2021-01-01 00:00","2021","01","01","00:00","-20.4","","-22.7","","82","","","","33","","21","","8.1","","101.20","","","","-31","","Snow,Blowing Snow"
"-94.07","58.74","CHURCHILL A","5060605","2021-01-01 01:00","2021","01","01","01:00","-22.4","","-25.2","","78","","","","30","","21","","19.3","","101.29","","","","-34","","Snow,Blowing Snow"
"-94.07","58.74","CHURCHILL A","5060605","2021-01-01 02:00","2021","01","01","02:00","-24.3","","-27.3","","77","","","","29","","17","","24.1","","101.36","","","","-35","","Ice Crystals"
"-94.07","58.74","CHURCHILL A","5060605","2021-01-01 03:00","2021","01","01","03:00","-25.8","","-28.6","","78","","","","28","","17","","24.1","","101.45","","","","-37","","Clear"
"-94.07","58.74","CHURCHILL A","5060605","2021-01-01 04:00","2021","01","01","04:00","-26.5","","-29.3","","78","","","","29","","13","","24.1","","101.50","","","","-36","","NA"
"-94.07","58.74","CHURCHILL A","5060605","2021-01-01 05:00","2021","01","01","05:00","-27.4","","-30.1","","78","","","","27","","11","","24.1","","101.47","","","","-37","","NA"
"-94.07","58.74","CHURCHILL A","5060605","2021-01-01 06:00","2021","01","01","06:00","-28.4","","-31.0","","79","","","","22","","8","","24.1","","101.48","","","","-36","","Clear"
"-94.07","58.74","CHURCHILL A","5060605","2021-01-01 07:00","2021","01","01","07:00","-28.6","","-31.3","","78","","","","25","","8","","24.1","","101.48","","","","-36","","NA"
"-94.07","58.74","CHURCHILL A","5060605","2021-01-01 08:00","2021","01","01","08:00","-30.8","","-33.6","","77","","","","22","","10","","24.1","","101.50","","","","-40","","NA"
"-94.07","58.74","CHURCHILL A","5060605","2021-01-01 09:00","2021","01","01","09:00","-31.1","","-33.8","","78","","","","23","","11","","24.1","","101.46","","","","-41","","Mainly Clear"
"-94.07","58.74","CHURCHILL A","5060605","2021-01-01 10:00","2021","01","01","10:00","-31.5","","-34.3","","77","","","","20","","12","","24.1","","101.38","","","","-42","","NA"
"-94.07","58.74","CHURCHILL A","5060605","2021-01-01 11:00","2021","01","01","11:00","-28.0","","-30.9","","77","","","","23","","17","","24.1","","101.38","","","","-40","","NA"
"-94.07","58.74","CHURCHILL A","5060605","2021-01-01 12:00","2021","01","01","12:00","-27.2","","-30.1","","77","","","","23","","14","","24.1","","101.33","","","","-38","","Cloudy"
"-94.07","58.74","CHURCHILL A","5060605","2021-01-01 13:00","2021","01","01","13:00","-25.0","","-27.6","","79","","","","25","","8","","24.1","","101.24","","","","-32","","NA"
"-94.07","58.74","CHURCHILL A","5060605","2021-01-01 14:00","2021","01","01","14:00","-23.9","","-26.4","","80","","","","26","","9","","24.1","","101.18","","","","-31","","NA"
"-94.07","58.74","CHURCHILL A","5060605","2021-01-01 15:00","2021","01","01","15:00","-23.3","","-25.9","","80","","","","19","","13","","24.1","","101.10","","","","-32","","Mostly Cloudy"
"-94.07","58.74","CHURCHILL A","5060605","2021-01-01 16:00","2021","01","01","16:00","-24.9","","-27.2","","82","","","","19","","9","","24.1","","101.05","","","","-33","","NA"
"-94.07","58.74","CHURCHILL A","5060605","2021-01-01 17:00","2021","01","01","17:00","-26.1","","-28.4","","81","","","","20","","11","","24.1","","101.03","","","","-35","","NA"
"-94.07","58.74","CHURCHILL A","5060605","2021-01-01 18:00","2021","01","01","18:00","-25.9","","-28.1","","82","","","","18","","10","","24.1","","100.97","","","","-34","","Mainly Clear"
"-94.07","58.74","CHURCHILL A","5060605","2021-01-01 19:00","2021","01","01","19:00","-24.6","","-26.7","","83","","","","20","","8","","24.1","","100.87","","","","-32","","NA"
"-94.07","58.74","CHURCHILL A","5060605","2021-01-01 20:00","2021","01","01","20:00","-22.2","","-24.2","","84","","","","19","","5","","24.1","","100.74","","","","-27","","NA"
"-94.07","58.74","CHURCHILL A","5060605","2021-01-01 21:00","2021","01","01","21:00","-22.5","","-24.6","","83","","","","23","","5","","24.1","","100.67","","","","-27","","Cloudy"
"-94.07","58.74","CHURCHILL A","5060605","2021-01-01 22:00","2021","01","01","22:00","-22.1","","-24.3","","83","","","","28","","4","","24.1","","100.59","","","","-26","","Snow"
"-94.07","58.74","CHURCHILL A","5060605","2021-01-01 23:00","2021","01","01","23:00","-21.5","","-23.7","","83","","","","28","","9","","24.1","","100.59","","","","-29","","Snow"
"-94.07","58.74","CHURCHILL A","5060605","2021-01-02 00:00","2021","01","02","00:00","-21.1","","-23.3","","83","","","","27","","8","","19.3","","100.54","","","","-28","","Snow"
"-94.07","58.74","CHURCHILL A","5060605","2021-01-02 01:00","2021","01","02","01:00","-20.7","","-22.9","","83","","","","29","","10","","24.1","","100.42","","","","-28","","Snow"
"-94.07","58.74","CHURCHILL A","5060605","2021-01-02 02:00","2021","01","02","02:00","-20.5","","-22.7","","83","","","","28","","14","","19.3","","100.44","","","","-29","","Snow"
"-94.07","58.74","CHURCHILL A","5060605","2021-01-02 03:00","2021","01","02","03:00","-19.7","","-21.9","","83","","","","29","","19","","16.1","","100.47","","","","-30","","Snow"
"-94.07","58.74","CHURCHILL A","5060605","2021-01-02 04:00","2021","01","02","04:00","-19.4","","-21.5","","84","","","","30","","14","","24.1","","100.44","","","","-28","","Snow"
"-94.07","58.74","CHURCHILL A","5060605","2021-01-02 05:00","2021","01","02","05:00","-20.5","","-22.8","","82","","","","30","","19","","24.1","","100.51","","","","-31","","Snow"
"-94.07","58.74","CHURCHILL A","5060605","2021-01-02 06:00","2021","01","02","06:00","-20.3","","-22.9","","80","","","","34","","31","","24.1","","100.51","","","","-33","","Snow"
"-94.07","58.74","CHURCHILL A","5060605","2021-01-02 07:00","2021","01","02","07:00","-20.4","","-23.8","","75","","","","33","","27","","24.1","","100.53","","","","-33","","Ice Crystals"
"-94.07","58.74","CHURCHILL A","5060605","2021-01-02 08:00","2021","01","02","08:00","-23.2","","-26.3","","76","","","","31","","17","","24.1","","100.55","","","","-34","","Ice Crystals"
"-94.07","58.74","CHURCHILL A","5060605","2021-01-02 09:00","2021","01","02","09:00","-25.1","","-27.9","","78","","","","28","","10","","24.1","","100.55","","","","-33","","Ice Crystals"
"-94.07","58.74","CHURCHILL A","5060605","2021-01-02 10:00","2021","01","02","10:00","-27.1","","-29.7","","79","","","","28","","10","","24.1","","100.55","","","","-36","","NA"
"-94.07","58.74","CHURCHILL A","5060605","2021-01-02 11:00","2021","01","02","11:00","-27.0","","-29.9","","77","","","","28","","13","","24.1","","100.54","","","","-37","","NA"
"-94.07","58.74","CHURCHILL A","5060605","2021-01-02 12:00","2021","01","02","12:00","-27.4","","-30.4","","77","","","","26","","10","","24.1","","100.55","","","","-36","","Mostly Cloudy"
"-94.07","58.74","CHURCHILL A","5060605","2021-01-02 13:00","2021","01","02","13:00","-27.1","","-30.3","","75","","","","28","","12","","24.1","","100.56","","","","-37","","NA"
"-94.07","58.74","CHURCHILL A","5060605","2021-01-02 14:00","2021","01","02","14:00","-26.9","","-29.9","","76","","","","28","","14","","24.1","","100.53","","","","-37","","NA"
"-94.07","58.74","CHURCHILL A","5060605","2021-01-02 15:00","2021","01","02","15:00","-27.0","","-30.2","","75","","","","26","","9","","24.1","","100.53","","","","-35","","Mostly Cloudy"
"-94.07","58.74","CHURCHILL A","5060605","2021-01-02 16:00","2021","01","02","16:00","-27.7","","-30.9","","75","","","","27","","8","","24.1","","100.57","","","","-35","","NA"
"-94.07","58.74","CHURCHILL A","5060605","2021-01-02 17:00","2021","01","02","17:00","-27.4","","-31.0","","72","","","","28","","9","","24.1","","100.45","","","","-36","","NA"
"-94.07","58.74","CHURCHILL A","5060605","2021-01-02 18:00","2021","01","02","18:00","-26.9","","-30.4","","73","","","","29","","8","","24.1","","100.37","","","","-34","","Mostly Cloudy"
"-94.07","58.74","CHURCHILL A","5060605","2021-01-02 19:00","2021","01","02","19:00","-26.2","","-29.2","","76","","","","28","","9","","24.1","","100.40","","","","-34","","NA"
"-94.07","58.74","CHURCHILL A","5060605","2021-01-02 20:00","2021","01","02","20:00","-25.7","","-28.3","","79","","","","29","","8","","24.1","","100.30","","","","-33","","NA"
"-94.07","58.74","CHURCHILL A","5060605","2021-01-02 21:00","2021","01","02","21:00","-25.2","","-27.7","","80","","","","29","","7","","24.1","","100.25","","","","-32","","Mostly Cloudy"
"-94.07","58.74","CHURCHILL A","5060605","2021-01-02 22:00","2021","01","02","22:00","-24.9","","-27.3","","81","","","","29","","8","","24.1","","100.25","","","","-32","","NA"
"-94.07","58.74","CHURCHILL A","5060605","2021-01-02 23:00","2021","01","02","23:00","-24.6","","-27.0","","81","","","","26","","8","","24.1","","100.21","","","","-32","","NA"
"-94.07","58.74","CHURCHILL A","5060605","2021-01-03 00:00","2021","01","03","00:00","-24.6","","-27.1","","80","","","","28","","8","","24.1","","100.18","","","","-32","","Mostly Cloudy"
"-94.07","58.74","CHURCHILL A","5060605","2021-01-03 01:00","2021","01","03","01:00","-24.2","","-26.6","","81","","","","33","","8","","24.1","","100.17","","","","-31","","NA"
"-94.07","58.74","CHURCHILL A","5060605","2021-01-03 02:00","2021","01","03","02:00","-22.9","","-25.2","","82","","","","34","","8","","19.3","","100.14","","","","-30","","Snow"
"-94.07","58.74","CHURCHILL A","5060605","2021-01-03 03:00","2021","01","03","03:00","-22.8","","-25.0","","82","","","","34","","9","","19.3","","100.13","","","","-30","","Snow"
"-94.07","58.74","CHURCHILL A","5060605","2021-01-03 04:00","2021","01","03","04:00","-23.4","","-25.7","","82","","","","29","","7","","24.1","","100.17","","","","-30","","Snow"
"-94.07","58.74","CHURCHILL A","5060605","2021-01-03 05:00","2021","01","03","05:00","-23.6","","-26.0","","81","","","","28","","10","","16.1","","100.20","","","","-32","","Snow"
"-94.07","58.74","CHURCHILL A","5060605","2021-01-03 06:00","2021","01","03","06:00","-24.1","","-26.5","","81","","","","31","","10","","19.3","","100.16","","","","-32","","Snow"
"-94.07","58.74","CHURCHILL A","5060605","2021-01-03 07:00","2021","01","03","07:00","-24.5","","-26.9","","81","","","","36","","8","","24.1","","100.14","","","","-32","","Snow"
"-94.07","58.74","CHURCHILL A","5060605","2021-01-03 08:00","2021","01","03","08:00","-20.8","","-22.9","","84","","","","6","","12","","24.1","","100.16","","","","-29","","Ice Crystals"
"-94.07","58.74","CHURCHILL A","5060605","2021-01-03 09:00","2021","01","03","09:00","-20.7","","-22.7","","84","","","","6","","14","","24.1","","100.16","","","","-30","","Mostly Cloudy"
"-94.07","58.74","CHURCHILL A","5060605","2021-01-03 10:00","2021","01","03","10:00","-19.8","","-21.8","","85","","","","8","","12","","24.1","","100.18","","","","-28","","NA"
"-94.07","58.74","CHURCHILL A","5060605","2021-01-03 11:00","2021","01","03","11:00","-19.3","","-21.4","","84","","","","8","","12","","24.1","","100.16","","","","-27","","NA"
"-94.07","58.74","CHURCHILL A","5060605","2021-01-03 12:00","2021","01","03","12:00","-18.8","","-20.7","","85","","","","8","","14","","24.1","","100.14","","","","-27","","Mostly Cloudy"
"-94.07","58.74","CHURCHILL A","5060605","2021-01-03 13:00","2021","01","03","13:00","-19.3","","-21.4","","84","","","","10","","13","","24.1","","100.14","","","","-28","","NA"
"-94.07","58.74","CHURCHILL A","5060605","2021-01-03 14:00","2021","01","03","14:00","-20.1","","-22.1","","84","","","","9","","12","","24.1","","100.15","","","","-28","","NA"
"-94.07","58.74","CHURCHILL A","5060605","2021-01-03 15:00","2021","01","03","15:00","-20.7","","-22.7","","84","","","","8","","17","","24.1","","100.17","","","","-31","","Mostly Cloudy"
"-94.07","58.74","CHURCHILL A","5060605","2021-01-03 16:00","2021","01","03","16:00","-19.7","","-21.8","","84","","","","8","","22","","24.1","","100.14","","","","-31","","NA"
"-94.07","58.74","CHURCHILL A","5060605","2021-01-03 17:00","2021","01","03","17:00","-19.3","","-21.4","","84","","","","9","","26","","24.1","","100.12","","","","-31","","NA"
"-94.07","58.74","CHURCHILL A","5060605","2021-01-03 18:00","2021","01","03","18:00","-19.2","","-21.3","","84","","","","9","","27","","24.1","","100.13","","","","-31","","Cloudy"
"-94.07","58.74","CHURCHILL A","5060605","2021-01-03 19:00","2021","01","03","19:00","-19.0","","-21.1","","84","","","","10","","23","","24.1","","100.16","","","","-30","","Blowing Snow"
"-94.07","58.74","CHURCHILL A","5060605","2021-01-03 20:00","2021","01","03","20:00","-18.7","","-20.8","","84","","","","9","","27","","4.0","","100.08","","","","-30","","Snow"
"-94.07","58.74","CHURCHILL A","5060605","2021-01-03 21:00","2021","01","03","21:00","-18.7","","-20.8","","84","","","","9","","27","","3.2","","100.09","","","","-30","","Snow"
"-94.07","58.74","CHURCHILL A","5060605","2021-01-03 22:00","2021","01","03","22:00","-18.7","","-20.8","","84","","","","8","","30","","4.8","","100.00","","","","-31","","Snow,Blowing Snow"
"-94.07","58.74","CHURCHILL A","5060605","2021-01-03 23:00","2021","01","03","23:00","-18.4","","-20.6","","83","","","","9","","28","","6.4","","99.97","","","","-30","","Snow,Blowing Snow"
"-94.07","58.74","CHURCHILL A","5060605","2021-01-04 00:00","2021","01","04","00:00","-18.3","","-20.5","","83","","","","8","","26","","9.7","","99.99","","","","-30","","Snow,Blowing Snow"
"-94.07","58.74","CHURCHILL A","5060605","2021-01-04 01:00","2021","01","04","01:00","-18.3","","-20.7","","82","","","","7","","29","","4.8","","99.98","","","","-30","","Snow,Blowing Snow"
"-94.07","58.74","CHURCHILL A","5060605","2021-01-04 02:00","2021","01","04","02:00","-18.6","","-20.8","","83","","","","7","","29","","2.4","","99.99","","","","-31","","Snow,Blowing Snow"
"-94.07","58.74","CHURCHILL A","5060605","2021-01-04 03:00","2021","01","04","03:00","-18.6","","-20.8","","83","","","","6","","31","","2.4","","100.04","","","","-31","","Snow,Blowing Snow"
"-94.07","58.74","CHURCHILL A","5060605","2021-01-04 04:00","2021","01","04","04:00","-18.8","","-21.0","","83","","","","7","","33","","2.0","","100.02","","","","-32","","Snow,Blowing Snow"
"-94.07","58.74","CHURCHILL A","5060605","2021-01-04 05:00","2021","01","04","05:00","-18.8","","-21.0","","83","","","","6","","32","","3.2","","100.06","","","","-31","","Snow,Blowing Snow"
"-94.07","58.74","CHURCHILL A","5060605","2021-01-04 06:00","2021","01","04","06:00","-18.8","","-21.1","","82","","","","6","","31","","6.4","","100.10","","","","-31","","Snow,Blowing Snow"
"-94.07","58.74","CHURCHILL A","5060605","2021-01-04 07:00","2021","01","04","07:00","-18.7","","-21.1","","82","","","","6","","33","","8.1","","100.15","","","","-31","","Snow,Blowing Snow"
"-94.07","58.74","CHURCHILL A","5060605","2021-01-04 08:00","2021","01","04","08:00","-18.7","","-21.1","","82","","","","6","","34","","6.4","","100.18","","","","-32","","Snow,Blowing Snow"
"-94.07","58.74","CHURCHILL A","5060605","2021-01-04 09:00","2021","01","04","09:00","-18.7","","-21.1","","82","","","","6","","32","","4.8","","100.22","","","","-31","","Snow,Blowing Snow"
"-94.07","58.74","CHURCHILL A","5060605","2021-01-04 10:00","2021","01","04","10:00","-18.6","","-20.9","","82","","","","6","","28","","4.0","","100.25","","","","-30","","Snow,Blowing Snow"
"-94.07","58.74","CHURCHILL A","5060605","2021-01-04 11:00","2021","01","04","11:00","-18.4","","-20.8","","82","","","","6","","26","","2.8","","100.29","","","","-30","","Snow,Blowing Snow"
"-94.07","58.74","CHURCHILL A","5060605","2021-01-04 12:00","2021","01","04","12:00","-18.4","","-20.9","","81","","","","5","","30","","4.0","","100.29","","","","-30","","Snow,Blowing Snow"
"-94.07","58.74","CHURCHILL A","5060605","2021-01-04 13:00","2021","01","04","13:00","-18.7","","-21.3","","80","","","","5","","19","","6.4","","100.35","","","","-29","","Ice Crystals,Blowing Snow"
"-94.07","58.74","CHURCHILL A","5060605","2021-01-04 14:00","2021","01","04","14:00","-19.1","","-21.6","","81","","","","3","","20","","6.4","","100.41","","","","-29","","Ice Crystals"
"-94.07","58.74","CHURCHILL A","5060605","2021-01-04 15:00","2021","01","04","15:00","-19.7","","-22.0","","82","","","","4","","20","","12.9","","100.48","","","","-30","","Ice Crystals"
"-94.07","58.74","CHURCHILL A","5060605","2021-01-04 16:00","2021","01","04","16:00","-20.8","","-23.0","","83","","","","5","","10","","24.1","","100.62","","","","-28","","NA"
"-94.07","58.74","CHURCHILL A","5060605","2021-01-04 17:00","2021","01","04","17:00","-20.3","","-22.6","","82","","","","2","","19","","24.1","","100.73","","","","-31","","NA"
"-94.07","58.74","CHURCHILL A","5060605","2021-01-04 18:00","2021","01","04","18:00","-21.0","","-23.2","","83","","","","3","","16","","19.3","","100.75","","","","-31","","Mostly Cloudy"
"-94.07","58.74","CHURCHILL A","5060605","2021-01-04 19:00","2021","01","04","19:00","-21.1","","-23.4","","82","","","","2","","15","","24.1","","100.77","","","","-30","","NA"
"-94.07","58.74","CHURCHILL A","5060605","2021-01-04 20:00","2021","01","04","20:00","-21.6","","-23.8","","83","","","","3","","15","","24.1","","100.75","","","","-31","","NA"
"-94.07","58.74","CHURCHILL A","5060605","2021-01-04 21:00","2021","01","04","21:00","-21.6","","-23.5","","85","","","","36","","7","","24.1","","100.79","","","","-28","","Clear"
"-94.07","58.74","CHURCHILL A","5060605","2021-01-04 22:00","2021","01","04","22:00","-23.5","","-25.6","","83","","","","29","","8","","24.1","","100.81","","","","-30","","NA"
"-94.07","58.74","CHURCHILL A","5060605","2021-01-04 23:00","2021","01","04","23:00","-22.4","","-24.7","","82","","","","25","","7","","24.1","","100.86","","","","-28","","NA"
"-94.07","58.74","CHURCHILL A","5060605","2021-01-05 00:00","2021","01","05","00:00","-22.0","","-24.1","","83","","","","29","","9","","24.1","","100.92","","","","-29","","Cloudy"
"-94.07","58.74","CHURCHILL A","5060605","2021-01-05 01:00","2021","01","05","01:00","-21.6","","-23.8","","83","","","","22","","8","","24.1","","100.92","","","","-28","","NA"
"-94.07","58.74","CHURCHILL A","5060605","2021-01-05 02:00","2021","01","05","02:00","-21.2","","-23.4","","83","","","","26","","9","","24.1","","101.02","","","","-28","","NA"
"-94.07","58.74","CHURCHILL A","5060605","2021-01-05 03:00","2021","01","05","03:00","-21.0","","-23.2","","83","","","","20","","4","","24.1","","101.10","","","","-25","","Cloudy"
"-94.07","58.74","CHURCHILL A","5060605","2021-01-05 04:00","2021","01","05","04:00","-21.0","","-23.2","","83","","","","17","","10","","24.1","","101.09","","","","-28","","Snow"
"-94.07","58.74","CHURCHILL A","5060605","2021-01-05 05:00","2021","01","05","05:00","-20.7","","-22.9","","83","","","","22","","5","","24.1","","101.11","","","","-25","","Snow"
"-94.07","58.74","CHURCHILL A","5060605","2021-01-05 06:00","2021","01","05","06:00","-20.5","","-22.7","","83","","","","17","","10","","24.1","","101.09","","","","-28","","Snow"
"-94.07","58.74","CHURCHILL A","5060605","2021-01-05 07:00","2021","01","05","07:00","-20.1","","-22.3","","83","","","","17","","10","","24.1","","101.12","","","","-27","","Snow"
"-94.07","58.74","CHURCHILL A","5060605","2021-01-05 08:00","2021","01","05","08:00","-19.8","","-22.0","","83","","","","19","","10","","24.1","","101.21","","","","-27","","Snow"
"-94.07","58.74","CHURCHILL A","5060605","2021-01-05 09:00","2021","01","05","09:00","-19.4","","-21.6","","83","","","","19","","10","","19.3","","101.27","","","","-26","","Snow"
"-94.07","58.74","CHURCHILL A","5060605","2021-01-05 10:00","2021","01","05","10:00","-19.0","","-21.2","","83","","","","21","","9","","19.3","","101.34","","","","-26","","Snow"
"-94.07","58.74","CHURCHILL A","5060605","2021-01-05 11:00","2021","01","05","11:00","-18.4","","-20.8","","82","","","","22","","9","","16.1","","101.41","","","","-25","","Snow"
"-94.07","58.74","CHURCHILL A","5060605","2021-01-05 12:00","2021","01","05","12:00","-17.9","","-20.6","","80","","","","23","","5","","16.1","","101.43","","","","-22","","Snow"
"-94.07","58.74","CHURCHILL A","5060605","2021-01-05 13:00","2021","01","05","13:00","-17.5","","-20.2","","80","","","","26","","7","","6.4","","101.54","","","","-23","","Snow"
"-94.07","58.74","CHURCHILL A","5060605","2021-01-05 14:00","2021","01","05","14:00","-17.4","","-19.9","","81","","","","28","","8","","12.9","","101.64","","","","-23","","Snow"
"-94.07","58.74","CHURCHILL A","5060605","2021-01-05 15:00","2021","01","05","15:00","-17.4","","-19.7","","82","","","","28","","9","","19.3","","101.76","","","","-24","","Snow"
"-94.07","58.74","CHURCHILL A","5060605","2021-01-05 16:00","2021","01","05","16:00","-17.2","","-19.4","","83","","","","34","","9","","19.3","","101.88","","","","-23","","Snow"
"-94.07","58.74","CHURCHILL A","5060605","2021-01-05 17:00","2021","01","05","17:00","-17.8","","-20.2","","82","","","","2","","9","","24.1","","101.99","","","","-24","","Snow"
"-94.07","58.74","CHURCHILL A","5060605","2021-01-05 18:00","2021","01","05","18:00","-18.7","","-20.7","","85","","","","36","","10","","24.1","","102.08","","","","-26","","Snow"
"-94.07","58.74","CHURCHILL A","5060605","2021-01-05 19:00","2021","01","05","19:00","-19.8","","-21.7","","85","","","","1","","13","","24.1","","102.15","","","","-28","","Snow"
"-94.07","58.74","CHURCHILL A","5060605","2021-01-05 20:00","2021","01","05","20:00","-18.5","","-20.4","","85","","","","1","","9","","24.1","","102.22","","","","-25","","NA"
"-94.07","58.74","CHURCHILL A","5060605","2021-01-05 21:00","2021","01","05","21:00","-21.0","","-22.8","","86","","","","33","","3","","24.1","","102.24","","","","-24","","Mainly Clear"
"-94.07","58.74","CHURCHILL A","5060605","2021-01-05 22:00","2021","01","05","22:00","-21.8","","-23.7","","85","","","","28","","3","","24.1","","102.29","","","","-25","","NA"
"-94.07","58.74","CHURCHILL A","5060605","2021-01-05 23:00","2021","01","05","23:00","-22.0","","-23.9","","85","","","","28","","6","","24.1","","102.34","","","","-27","","NA"
"-94.07","58.74","CHURCHILL A","5060605","2021-01-06 00:00","2021","01","06","00:00","-22.3","","-24.2","","85","","","","30","","10","","24.1","","102.40","","","","-30","","Mostly Cloudy"
"-94.07","58.74","CHURCHILL A","5060605","2021-01-06 01:00","2021","01","06","01:00","-20.8","","-22.7","","85","","","","8","","6","","24.1","","102.40","","","","-26","","NA"
"-94.07","58.74","CHURCHILL A","5060605","2021-01-06 02:00","2021","01","06","02:00","-21.3","","-23.2","","85","","","","12","","8","","24.1","","102.46","","","","-28","","NA"
"-94.07","58.74","CHURCHILL A","5060605","2021-01-06 03:00","2021","01","06","03:00","-20.7","","-22.6","","85","","","","13","","12","","24.1","","102.46","","","","-29","","Cloudy"
"-94.07","58.74","CHURCHILL A","5060605","2021-01-06 04:00","2021","01","06","04:00","-19.3","","-21.2","","85","","","","12","","11","","24.1","","102.46","","","","-27","","NA"
"-94.07","58.74","CHURCHILL A","5060605","2021-01-06 05:00","2021","01","06","05:00","-18.3","","-20.2","","85","","","","10","","12","","24.1","","102.49","","","","-26","","NA"
"-94.07","58.74","CHURCHILL A","5060605","2021-01-06 06:00","2021","01","06","06:00","-17.6","","-19.4","","86","","","","11","","12","","24.1","","102.48","","","","-25","","Cloudy"
"-94.07","58.74","CHURCHILL A","5060605","2021-01-06 07:00","2021","01","06","07:00","-16.9","","-18.7","","86","","","","11","","15","","4.0","","102.43","","","","-25","","Snow"
"-94.07","58.74","CHURCHILL A","5060605","2021-01-06 08:00","2021","01","06","08:00","-16.3","","-18.0","","87","","","","11","","16","","4.8","","102.39","","","","-25","","Snow"
"-94.07","58.74","CHURCHILL A","5060605","2021-01-06 09:00","2021","01","06","09:00","-15.6","","-17.3","","87","","","","11","","19","","1.6","","102.31","","","","-25","","Snow"
"-94.07","58.74","CHURCHILL A","5060605","2021-01-06 10:00","2021","01","06","10:00","-14.9","","-16.5","","88","","","","12","","22","","6.4","","102.26","","","","-24","","Snow"
"-94.07","58.74","CHURCHILL A","5060605","2021-01-06 11:00","2021","01","06","11:00","-13.9","","-15.5","","88","","","","12","","24","","4.8","","102.16","","","","-24","","Snow"
"-94.07","58.74","CHURCHILL A","5060605","2021-01-06 12:00","2021","01","06","12:00","-13.6","","-15.2","","88","","","","12","","26","","12.9","","102.09","","","","-24","","Snow"
"-94.07","58.74","CHURCHILL A","5060605","2021-01-06 13:00","2021","01","06","13:00","-13.2","","-14.8","","88","","","","13","","31","","19.3","","102.02","","","","-24","","Snow"
"-94.07","58.74","CHURCHILL A","5060605","2021-01-06 14:00","2021","01","06","14:00","-12.7","","-14.2","","89","","","","12","","30","","24.1","","101.92","","","","-23","","Snow"
"-94.07","58.74","CHURCHILL A","5060605","2021-01-06 15:00","2021","01","06","15:00","-12.2","","-13.7","","89","","","","13","","33","","16.1","","101.87","","","","-23","","Snow"
"-94.07","58.74","CHURCHILL A","5060605","2021-01-06 16:00","2021","01","06","16:00","-11.8","","-13.3","","89","","","","13","","29","","24.1","","101.86","","","","-22","","Blowing Snow"
"-94.07","58.74","CHURCHILL A","5060605","2021-01-06 17:00","2021","01","06","17:00","-11.6","","-12.9","","90","","","","13","","29","","16.1","","101.76","","","","-21","","Snow,Blowing Snow"
"-94.07","58.74","CHURCHILL A","5060605","2021-01-06 18:00","2021","01","06","18:00","-11.6","","-12.9","","90","","","","14","","26","","16.1","","101.74","","","","-21","","Snow,Blowing Snow"
"-94.07","58.74","CHURCHILL A","5060605","2021-01-06 19:00","2021","01","06","19:00","-11.3","","-12.5","","91","","","","14","","28","","8.1","","101.58","","","","-21","","Snow,Blowing Snow"
"-94.07","58.74","CHURCHILL A","5060605","2021-01-06 20:00","2021","01","06","20:00","-10.8","","-12.0","","91","","","","16","","26","","19.3","","101.56","","","","-20","","Snow,Blowing Snow"
"-94.07","58.74","CHURCHILL A","5060605","2021-01-06 21:00","2021","01","06","21:00","-10.6","","-11.7","","92","","","","15","","18","","8.1","","101.44","","","","-18","","Snow,Blowing Snow"
"-94.07","58.74","CHURCHILL A","5060605","2021-01-06 22:00","2021","01","06","22:00","-10.1","","-11.0","","93","","","","16","","18","","19.3","","101.36","","","","-18","","Snow,Blowing Snow"
"-94.07","58.74","CHURCHILL A","5060605","2021-01-06 23:00","2021","01","06","23:00","-9.7","","-10.6","","93","","","","17","","19","","16.1","","101.24","","","","-17","","Snow,Blowing Snow"
"-94.07","58.74","CHURCHILL A","5060605","2021-01-07 00:00","2021","01","07","00:00","-9.2","","-10.1","","93","","","","18","","20","","19.3","","101.21","","","","-17","","Snow,Blowing Snow"
"-94.07","58.74","CHURCHILL A","5060605","2021-01-07 01:00","2021","01","07","01:00","-8.8","","-9.7","","93","","","","17","","21","","24.1","","101.13","","","","-17","","Snow"
"-94.07","58.74","CHURCHILL A","5060605","2021-01-07 02:00","2021","01","07","02:00","-8.3","","-9.1","","94","","","","16","","21","","24.1","","101.10","","","","-16","","NA"
"-94.07","58.74","CHURCHILL A","5060605","2021-01-07 03:00","2021","01","07","03:00","-7.7","","-8.5","","94","","","","16","","22","","4.8","","101.00","","","","-15","","Snow"
"-94.07","58.74","CHURCHILL A","5060605","2021-01-07 04:00","2021","01","07","04:00","-7.1","","-7.9","","94","","","","16","","21","","12.9","","100.95","","","","-14","","Snow"
"-94.07","58.74","CHURCHILL A","5060605","2021-01-07 05:00","2021","01","07","05:00","-6.1","","-6.8","","95","","","","18","","19","","6.4","","100.90","","","","-13","","Snow"
"-94.07","58.74","CHURCHILL A","5060605","2021-01-07 06:00","2021","01","07","06:00","-4.6","","-5.4","","94","","","","18","","22","","19.3","","100.81","","","","-11","","Snow"
"-94.07","58.74","CHURCHILL A","5060605","2021-01-07 07:00","2021","01","07","07:00","-3.9","","-4.6","","95","","","","20","","18","","19.3","","100.81","","","","-10","","Snow"
"-94.07","58.74","CHURCHILL A","5060605","2021-01-07 08:00","2021","01","07","08:00","-3.3","","-3.9","","96","","","","20","","18","","19.3","","100.77","","","","-9","","Snow"
"-94.07","58.74","CHURCHILL A","5060605","2021-01-07 09:00","2021","01","07","09:00","-2.6","","-3.4","","94","","","","21","","19","","24.1","","100.77","","","","-8","","Cloudy"
"-94.07","58.74","CHURCHILL A","5060605","2021-01-07 10:00","2021","01","07","10:00","-2.1","","-3.1","","93","","","","22","","20","","24.1","","100.76","","","","-8","","NA"
"-94.07","58.74","CHURCHILL A","5060605","2021-01-07 11:00","2021","01","07","11:00","-1.9","","-3.3","","90","","","","25","","18","","24.1","","100.78","","","","-7","","NA"
"-94.07","58.74","CHURCHILL A","5060605","2021-01-07 12:00","2021","01","07","12:00","-1.8","","-3.4","","89","","","","24","","16","","24.1","","100.78","","","","-7","","Cloudy"
"-94.07","58.74","CHURCHILL A","5060605","2021-01-07 13:00","2021","01","07","13:00","-2.0","","-3.6","","89","","","","25","","19","","24.1","","100.82","","","","-8","","NA"
"-94.07","58.74","CHURCHILL A","5060605","2021-01-07 14:00","2021","01","07","14:00","-2.5","","-4.0","","90","","","","27","","20","","24.1","","100.89","","","","-8","","NA"
"-94.07","58.74","CHURCHILL A","5060605","2021-01-07 15:00","2021","01","07","15:00","-2.8","","-4.1","","91","","","","26","","14","","24.1","","100.96","","","","-8","","Cloudy"
"-94.07","58.74","CHURCHILL A","5060605","2021-01-07 16:00","2021","01","07","16:00","-3.0","","-4.3","","91","","","","27","","24","","24.1","","101.01","","","","-10","","NA"
"-94.07","58.74","CHURCHILL A","5060605","2021-01-07 17:00","2021","01","07","17:00","-3.2","","-4.3","","92","","","","27","","17","","24.1","","101.05","","","","-9","","NA"
"-94.07","58.74","CHURCHILL A","5060605","2021-01-07 18:00","2021","01","07","18:00","-3.1","","-4.4","","91","","","","26","","20","","24.1","","101.06","","","","-9","","Cloudy"
"-94.07","58.74","CHURCHILL A","5060605","2021-01-07 19:00","2021","01","07","19:00","-3.2","","-4.3","","92","","","","26","","20","","24.1","","101.07","","","","-9","","NA"
"-94.07","58.74","CHURCHILL A","5060605","2021-01-07 20:00","2021","01","07","20:00","-3.5","","-4.8","","91","","","","28","","25","","24.1","","101.10","","","","-10","","NA"
"-94.07","58.74","CHURCHILL A","5060605","2021-01-07 21:00","2021","01","07","21:00","-3.6","","-4.9","","91","","","","28","","26","","24.1","","101.13","","","","-11","","Cloudy"
"-94.07","58.74","CHURCHILL A","5060605","2021-01-07 22:00","2021","01","07","22:00","-3.9","","-5.0","","92","","","","26","","12","","24.1","","101.09","","","","-9","","NA"
"-94.07","58.74","CHURCHILL A","5060605","2021-01-07 23:00","2021","01","07","23:00","-4.9","","-5.9","","93","","","","28","","20","","24.1","","101.16","","","","-11","","NA"
"-94.07","58.74","CHURCHILL A","5060605","2021-01-08 00:00","2021","01","08","00:00","-5.0","","-6.0","","93","","","","26","","17","","24.1","","101.17","","","","-11","","Cloudy"
"-94.07","58.74","CHURCHILL A","5060605","2021-01-08 01:00","2021","01","08","01:00","-4.6","","-5.6","","93","","","","27","","17","","24.1","","101.18","","","","-10","","NA"
"-94.07","58.74","CHURCHILL A","5060605","2021-01-08 02:00","2021","01","08","02:00","-4.1","","-5.2","","92","","","","26","","16","","24.1","","101.20","","","","-10","","NA"
"-94.07","58.74","CHURCHILL A","5060605","2021-01-08 03:00","2021","01","08","03:00","-3.5","","-4.6","","92","","","","23","","13","","24.1","","101.19","","","","-8","","Cloudy"
"-94.07","58.74","CHURCHILL A","5060605","2021-01-08 04:00","2021","01","08","04:00","-4.2","","-5.6","","90","","","","27","","21","","24.1","","101.21","","","","-11","","NA"
"-94.07","58.74","CHURCHILL A","5060605","2021-01-08 05:00","2021","01","08","05:00","-4.4","","-5.8","","90","","","","26","","17","","24.1","","101.20","","","","-10","","NA"
"-94.07","58.74","CHURCHILL A","5060605","2021-01-08 06:00","2021","01","08","06:00","-4.2","","-5.8","","89","","","","26","","21","","24.1","","101.22","","","","-11","","Cloudy"
"-94.07","58.74","CHURCHILL A","5060605","2021-01-08 07:00","2021","01","08","07:00","-4.1","","-5.8","","88","","","","27","","23","","24.1","","101.24","","","","-11","","NA"
"-94.07","58.74","CHURCHILL A","5060605","2021-01-08 08:00","2021","01","08","08:00","-4.3","","-5.8","","89","","","","27","","24","","24.1","","101.31","","","","-11","","NA"
"-94.07","58.74","CHURCHILL A","5060605","2021-01-08 09:00","2021","01","08","09:00","-4.2","","-5.9","","88","","","","27","","23","","24.1","","101.34","","","","-11","","Cloudy"
"-94.07","58.74","CHURCHILL A","5060605","2021-01-08 10:00","2021","01","08","10:00","-4.6","","-6.3","","88","","","","29","","18","","24.1","","101.39","","","","-11","","NA"
"-94.07","58.74","CHURCHILL A","5060605","2021-01-08 11:00","2021","01","08","11:00","-4.9","","-6.9","","86","","","","34","","18","","24.1","","101.44","","","","-11","","NA"
"-94.07","58.74","CHURCHILL A","5060605","2021-01-08 12:00","2021","01","08","12:00","-5.3","","-7.8","","83","","","","34","","26","","24.1","","101.49","","","","-13","","Cloudy"
"-94.07","58.74","CHURCHILL A","5060605","2021-01-08 13:00","2021","01","08","13:00","-6.5","","-8.4","","87","","","","34","","26","","24.1","","101.57","","","","-14","","NA"
"-94.07","58.74","CHURCHILL A","5060605","2021-01-08 14:00","2021","01","08","14:00","-7.3","","-10.2","","80","","","","34","","19","","24.1","","101.61","","","","-14","","NA"
"-94.07","58.74","CHURCHILL A","5060605","2021-01-08 15:00","2021","01","08","15:00","-7.1","","-10.0","","80","","","","32","","21","","24.1","","101.67","","","","-14","","Mostly Cloudy"
"-94.07","58.74","CHURCHILL A","5060605","2021-01-08 16:00","2021","01","08","16:00","-7.3","","-9.9","","82","","","","30","","10","","24.1","","101.70","","","","-12","","NA"
"-94.07","58.74","CHURCHILL A","5060605","2021-01-08 17:00","2021","01","08","17:00","-7.9","","-10.8","","80","","","","33","","27","","24.1","","101.78","","","","-16","","NA"
"-94.07","58.74","CHURCHILL A","5060605","2021-01-08 18:00","2021","01","08","18:00","-10.1","","-13.4","","77","","","","33","","27","","24.1","","101.86","","","","-19","","Mostly Cloudy"
"-94.07","58.74","CHURCHILL A","5060605","2021-01-08 19:00","2021","01","08","19:00","-10.8","","-13.9","","78","","","","32","","22","","24.1","","101.91","","","","-19","","NA"
"-94.07","58.74","CHURCHILL A","5060605","2021-01-08 20:00","2021","01","08","20:00","-12.3","","-15.3","","78","","","","31","","22","","24.1","","101.94","","","","-21","","NA"
"-94.07","58.74","CHURCHILL A","5060605","2021-01-08 21:00","2021","01","08","21:00","-13.2","","-15.8","","81","","","","32","","22","","24.1","","101.92","","","","-22","","Mainly Clear"
"-94.07","58.74","CHURCHILL A","5060605","2021-01-08 22:00","2021","01","08","22:00","-15.0","","-17.4","","82","","","","29","","14","","24.1","","101.94","","","","-23","","NA"
"-94.07","58.74","CHURCHILL A","5060605","2021-01-08 23:00","2021","01","08","23:00","-17.4","","-19.4","","85","","","","27","","11","","24.1","","101.91","","","","-25","","NA"
"-94.07","58.74","CHURCHILL A","5060605","2021-01-09 00:00","2021","01","09","00:00","-18.3","","-20.2","","85","","","","29","","15","","24.1","","101.94","","","","-27","","Clear"
"-94.07","58.74","CHURCHILL A","5060605","2021-01-09 01:00","2021","01","09","01:00","-18.1","","-20.5","","82","","","","29","","13","","24.1","","101.95","","","","-26","","NA"
"-94.07","58.74","CHURCHILL A","5060605","2021-01-09 02:00","2021","01","09","02:00","-19.5","","-21.4","","85","","","","29","","12","","24.1","","101.96","","","","-27","","NA"
"-94.07","58.74","CHURCHILL A","5060605","2021-01-09 03:00","2021","01","09","03:00","-19.6","","-21.2","","87","","","","28","","9","","24.1","","101.98","","","","-26","","Clear"
"-94.07","58.74","CHURCHILL A","5060605","2021-01-09 04:00","2021","01","09","04:00","-19.9","","-21.5","","87","","","","28","","16","","24.1","","101.95","","","","-29","","NA"
"-94.07","58.74","CHURCHILL A","5060605","2021-01-09 05:00","2021","01","09","05:00","-19.9","","-21.4","","88","","","","28","","12","","24.1","","101.94","","","","-28","","NA"
"-94.07","58.74","CHURCHILL A","5060605","2021-01-09 06:00","2021","01","09","06:00","-20.7","","-22.3","","87","","","","28","","11","","24.1","","101.97","","","","-28","","Clear"
"-94.07","58.74","CHURCHILL A","5060605","2021-01-09 07:00","2021","01","09","07:00","-20.1","","-21.9","","86","","","","27","","15","","24.1","","101.93","","","","-29","","NA"
"-94.07","58.74","CHURCHILL A","5060605","2021-01-09 08:00","2021","01","09","08:00","-18.7","","-20.5","","86","","","","27","","20","","24.1","","101.90","","","","-29","","NA"
"-94.07","58.74","CHURCHILL A","5060605","2021-01-09 09:00","2021","01","09","09:00","-18.0","","-19.5","","88","","","","26","","20","","16.1","","101.83","","","","-28","","Clear"
"-94.07","58.74","CHURCHILL A","5060605","2021-01-09 10:00","2021","01","09","10:00","-17.4","","-18.8","","89","","","","26","","17","","16.1","","101.79","","","","-26","","NA"
"-94.07","58.74","CHURCHILL A","5060605","2021-01-09 11:00","2021","01","09","11:00","-14.8","","-16.1","","90","","","","26","","12","","3.2","","101.77","","","","-22","","Ice Crystals,Fog"
"-94.07","58.74","CHURCHILL A","5060605","2021-01-09 12:00","2021","01","09","12:00","-13.3","","-14.8","","89","","","","25","","18","","24.1","","101.67","","","","-22","","Mainly Clear"
"-94.07","58.74","CHURCHILL A","5060605","2021-01-09 13:00","2021","01","09","13:00","-12.5","","-13.9","","89","","","","24","","13","","24.1","","101.61","","","","-19","","NA"
"-94.07","58.74","CHURCHILL A","5060605","2021-01-09 14:00","2021","01","09","14:00","-12.5","","-14.1","","88","","","","24","","16","","24.1","","101.51","","","","-20","","NA"
"-94.07","58.74","CHURCHILL A","5060605","2021-01-09 15:00","2021","01","09","15:00","-13.5","","-14.9","","89","","","","25","","18","","24.1","","101.46","","","","-22","","Mainly Clear"
"-94.07","58.74","CHURCHILL A","5060605","2021-01-09 16:00","2021","01","09","16:00","-14.1","","-15.7","","88","","","","22","","14","","24.1","","101.40","","","","-22","","NA"
"-94.07","58.74","CHURCHILL A","5060605","2021-01-09 17:00","2021","01","09","17:00","-14.7","","-16.3","","88","","","","22","","12","","24.1","","101.34","","","","-22","","NA"
"-94.07","58.74","CHURCHILL A","5060605","2021-01-09 18:00","2021","01","09","18:00","-14.5","","-16.0","","88","","","","24","","14","","24.1","","101.24","","","","-22","","Mainly Clear"
"-94.07","58.74","CHURCHILL A","5060605","2021-01-09 19:00","2021","01","09","19:00","-14.0","","-15.6","","88","","","","23","","22","","24.1","","101.13","","","","-23","","NA"
"-94.07","58.74","CHURCHILL A","5060605","2021-01-09 20:00","2021","01","09","20:00","-14.2","","-15.8","","88","","","","24","","18","","24.1","","101.10","","","","-23","","NA"
"-94.07","58.74","CHURCHILL A","5060605","2021-01-09 21:00","2021","01","09","21:00","-14.0","","-15.7","","87","","","","22","","19","","24.1","","101.04","","","","-23","","Mainly Clear"
"-94.07","58.74","CHURCHILL A","5060605","2021-01-09 22:00","2021","01","09","22:00","-15.2","","-16.8","","88","","","","22","","15","","24.1","","100.91","","","","-23","","NA"
"-94.07","58.74","CHURCHILL A","5060605","2021-01-09 23:00","2021","01","09","23:00","-15.5","","-17.1","","88","","","","22","","15","","24.1","","100.81","","","","-24","","NA"
"-94.07","58.74","CHURCHILL A","5060605","2021-01-10 00:00","2021","01","10","00:00","-15.7","","-17.3","","88","","","","21","","12","","24.1","","100.70","","","","-23","","Clear"
"-94.07","58.74","CHURCHILL A","5060605","2021-01-10 01:00","2021","01","10","01:00","-17.5","","-19.0","","88","","","","21","","16","","24.1","","100.61","","","","-26","","NA"
"-94.07","58.74","CHURCHILL A","5060605","2021-01-10 02:00","2021","01","10","02:00","-16.8","","-18.5","","87","","","","22","","14","","24.1","","100.56","","","","-25","","NA"
"-94.07","58.74","CHURCHILL A","5060605","2021-01-10 03:00","2021","01","10","03:00","-17.8","","-19.5","","87","","","","21","","15","","24.1","","100.46","","","","-26","","Mainly Clear"
"-94.07","58.74","CHURCHILL A","5060605","2021-01-10 04:00","2021","01","10","04:00","-16.5","","-18.2","","87","","","","23","","13","","24.1","","100.37","","","","-24","","NA"
"-94.07","58.74","CHURCHILL A","5060605","2021-01-10 05:00","2021","01","10","05:00","-16.0","","-17.6","","88","","","","24","","12","","24.1","","100.33","","","","-23","","NA"
"-94.07","58.74","CHURCHILL A","5060605","2021-01-10 06:00","2021","01","10","06:00","-15.6","","-17.0","","89","","","","24","","8","","24.1","","100.27","","","","-21","","Cloudy"
"-94.07","58.74","CHURCHILL A","5060605","2021-01-10 07:00","2021","01","10","07:00","-14.4","","-15.4","","92","","","","24","","8","","2.4","","100.23","","","","-20","","Fog"
"-94.07","58.74","CHURCHILL A","5060605","2021-01-10 08:00","2021","01","10","08:00","-13.4","","-14.7","","90","","","","24","","8","","19.3","","100.20","","","","-18","","NA"
"-94.07","58.74","CHURCHILL A","5060605","2021-01-10 09:00","2021","01","10","09:00","-11.1","","-12.2","","92","","","","26","","14","","8.1","","100.16","","","","-18","","Snow"
"-94.07","58.74","CHURCHILL A","5060605","2021-01-10 10:00","2021","01","10","10:00","-10.4","","-11.5","","92","","","","27","","14","","4.8","","100.15","","","","-17","","Snow,Fog"
"-94.07","58.74","CHURCHILL A","5060605","2021-01-10 11:00","2021","01","10","11:00","-10.0","","-10.9","","93","","","","28","","14","","2.4","","100.15","","","","-16","","Snow,Fog"
"-94.07","58.74","CHURCHILL A","5060605","2021-01-10 12:00","2021","01","10","12:00","-9.8","","-10.7","","93","","","","28","","11","","2.4","","100.12","","","","-15","","Snow,Fog"
"-94.07","58.74","CHURCHILL A","5060605","2021-01-10 13:00","2021","01","10","13:00","-10.4","","-11.5","","92","","","","4","","9","","4.0","","100.12","","","","-15","","Snow,Fog"
"-94.07","58.74","CHURCHILL A","5060605","2021-01-10 14:00","2021","01","10","14:00","-9.8","","-10.9","","92","","","","26","","6","","8.1","","100.09","","","","-13","","Snow,Fog"
"-94.07","58.74","CHURCHILL A","5060605","2021-01-10 15:00","2021","01","10","15:00","-9.6","","-10.5","","93","","","","28","","14","","9.7","","100.13","","","","-16","","Snow,Fog"
"-94.07","58.74","CHURCHILL A","5060605","2021-01-10 16:00","2021","01","10","16:00","-9.6","","-10.5","","93","","","","28","","14","","9.7","","100.17","","","","-16","","Snow"
"-94.07","58.74","CHURCHILL A","5060605","2021-01-10 17:00","2021","01","10","17:00","-9.7","","-10.8","","92","","","","27","","10","","9.7","","100.21","","","","-15","","Snow"
"-94.07","58.74","CHURCHILL A","5060605","2021-01-10 18:00","2021","01","10","18:00","-9.9","","-11.0","","92","","","","28","","10","","8.1","","100.22","","","","-15","","Snow"
"-94.07","58.74","CHURCHILL A","5060605","2021-01-10 19:00","2021","01","10","19:00","-10.3","","-11.4","","92","","","","35","","18","","4.0","","100.21","","","","-18","","Snow"
"-94.07","58.74","CHURCHILL A","5060605","2021-01-10 20:00","2021","01","10","20:00","-11.3","","-12.5","","91","","","","30","","19","","6.4","","100.25","","","","-19","","Snow"
"-94.07","58.74","CHURCHILL A","5060605","2021-01-10 21:00","2021","01","10","21:00","-12.8","","-14.1","","90","","","","31","","19","","4.8","","100.25","","","","-21","","Snow"
"-94.07","58.74","CHURCHILL A","5060605","2021-01-10 22:00","2021","01","10","22:00","-13.3","","-14.6","","90","","","","29","","11","","6.4","","100.26","","","","-20","","Snow"
"-94.07","58.74","CHURCHILL A","5060605","2021-01-10 23:00","2021","01","10","23:00","-14.6","","-16.2","","88","","","","29","","18","","2.4","","100.26","","","","-23","","Snow,Fog"
"-94.07","58.74","CHURCHILL A","5060605","2021-01-11 00:00","2021","01","11","00:00","-15.0","","-16.6","","88","","","","30","","13","","4.8","","100.25","","","","-22","","Snow,Fog"
"-94.07","58.74","CHURCHILL A","5060605","2021-01-11 01:00","2021","01","11","01:00","-14.1","","-15.5","","89","","","","32","","14","","4.0","","100.24","","","","-22","","Snow,Fog"
"-94.07","58.74","CHURCHILL A","5060605","2021-01-11 02:00","2021","01","11","02:00","-13.8","","-15.2","","89","","","","32","","6","","4.8","","100.24","","","","-18","","Snow,Fog"
"-94.07","58.74","CHURCHILL A","5060605","2021-01-11 03:00","2021","01","11","03:00","-15.8","","-17.4","","88","","","","30","","19","","6.4","","100.27","","","","-25","","Snow,Fog"
"-94.07","58.74","CHURCHILL A","5060605","2021-01-11 04:00","2021","01","11","04:00","-16.0","","-17.7","","87","","","","30","","15","","4.8","","100.24","","","","-24","","Snow,Fog"
"-94.07","58.74","CHURCHILL A","5060605","2021-01-11 05:00","2021","01","11","05:00","-15.9","","-17.6","","87","","","","27","","4","","19.3","","100.23","","","","-19","","Snow"
"-94.07","58.74","CHURCHILL A","5060605","2021-01-11 06:00","2021","01","11","06:00","-15.6","","-17.2","","88","","","","28","","7","","24.1","","100.21","","","","-21","","Cloudy"
"-94.07","58.74","CHURCHILL A","5060605","2021-01-11 07:00","2021","01","11","07:00","-15.9","","-17.6","","87","","","","29","","11","","6.4","","100.22","","","","-23","","Snow"
"-94.07","58.74","CHURCHILL A","5060605","2021-01-11 08:00","2021","01","11","08:00","-16.0","","-17.7","","87","","","","28","","10","","8.1","","100.20","","","","-22","","Snow"
"-94.07","58.74","CHURCHILL A","5060605","2021-01-11 09:00","2021","01","11","09:00","-15.7","","-17.3","","88","","","","27","","8","","3.2","","100.19","","","","-21","","Snow,Fog"
"-94.07","58.74","CHURCHILL A","5060605","2021-01-11 10:00","2021","01","11","10:00","-15.4","","-17.0","","88","","","","26","","7","","3.2","","100.20","","","","-20","","Snow,Fog"
"-94.07","58.74","CHURCHILL A","5060605","2021-01-11 11:00","2021","01","11","11:00","-15.2","","-16.8","","88","","","","27","","9","","4.0","","100.20","","","","-21","","Snow,Fog"
"-94.07","58.74","CHURCHILL A","5060605","2021-01-11 12:00","2021","01","11","12:00","-14.7","","-16.3","","88","","","","28","","9","","4.0","","100.18","","","","-20","","Snow,Fog"
"-94.07","58.74","CHURCHILL A","5060605","2021-01-11 13:00","2021","01","11","13:00","-14.4","","-16.0","","88","","","","29","","4","","4.8","","100.13","","","","-17","","Snow,Fog"
"-94.07","58.74","CHURCHILL A","5060605","2021-01-11 14:00","2021","01","11","14:00","-13.9","","-15.3","","89","","","","29","","7","","9.7","","100.13","","","","-19","","Snow,Fog"
"-94.07","58.74","CHURCHILL A","5060605","2021-01-11 15:00","2021","01","11","15:00","-13.9","","-15.3","","89","","","","30","","8","","8.1","","100.15","","","","-19","","Snow,Fog"
"-94.07","58.74","CHURCHILL A","5060605","2021-01-11 16:00","2021","01","11","16:00","-14.1","","-15.5","","89","","","","30","","9","","4.8","","100.18","","","","-20","","Snow,Fog"
"-94.07","58.74","CHURCHILL A","5060605","2021-01-11 17:00","2021","01","11","17:00","-14.1","","-15.5","","89","","","","30","","4","","8.1","","100.21","","","","-17","","Snow"
"-94.07","58.74","CHURCHILL A","5060605","2021-01-11 18:00","2021","01","11","18:00","-14.3","","-15.7","","89","","","","28","","10","","24.1","","100.24","","","","-20","","Snow"
"-94.07","58.74","CHURCHILL A","5060605","2021-01-11 19:00","2021","01","11","19:00","-14.3","","-15.7","","89","","","","30","","7","","12.9","","100.20","","","","-19","","Snow"
"-94.07","58.74","CHURCHILL A","5060605","2021-01-11 20:00","2021","01","11","20:00","-14.3","","-15.7","","89","","","","29","","5","","19.3","","100.20","","","","-18","","Snow"
"-94.07","58.74","CHURCHILL A","5060605","2021-01-11 21:00","2021","01","11","21:00","-14.5","","-16.1","","88","","","","25","","3","","24.1","","100.16","","","","-17","","Snow"
"-94.07","58.74","CHURCHILL A","5060605","2021-01-11 22:00","2021","01","11","22:00","-14.2","","-15.6","","89","","","","26","","8","","24.1","","100.17","","","","-19","","Snow"
"-94.07","58.74","CHURCHILL A","5060605","2021-01-11 23:00","2021","01","11","23:00","-14.4","","-15.8","","89","","","","24","","5","","24.1","","100.11","","","","-18","","NA"
"-94.07","58.74","CHURCHILL A","5060605","2021-01-12 00:00","2021","01","12","00:00","-14.5","","-16.0","","89","","","","26","","4","","24.1","","100.05","","","","-17","","Cloudy"
"-94.07","58.74","CHURCHILL A","5060605","2021-01-12 01:00","2021","01","12","01:00","-14.6","","-16.2","","88","","","","27","","3","","19.3","","100.09","","","","-17","","Snow"
"-94.07","58.74","CHURCHILL A","5060605","2021-01-12 02:00","2021","01","12","02:00","-14.6","","-16.2","","88","","","","36","","3","","19.3","","100.05","","","","-17","","Snow"
"-94.07","58.74","CHURCHILL A","5060605","2021-01-12 03:00","2021","01","12","03:00","-14.6","","-16.2","","88","","","","36","","1","","19.3","","100.00","","","","-15","","Snow"
"-94.07","58.74","CHURCHILL A","5060605","2021-01-12 04:00","2021","01","12","04:00","-14.8","","-16.4","","88","","","","17","","5","","19.3","","99.95","","","","-18","","NA"
"-94.07","58.74","CHURCHILL A","5060605","2021-01-12 05:00","2021","01","12","05:00","-14.8","","-16.4","","88","","","","14","","11","","19.3","","99.89","","","","-21","","NA"
"-94.07","58.74","CHURCHILL A","5060605","2021-01-12 06:00","2021","01","12","06:00","-14.9","","-16.5","","88","","","","19","","12","","19.3","","99.89","","","","-22","","Snow"
"-94.07","58.74","CHURCHILL A","5060605","2021-01-12 07:00","2021","01","12","07:00","-14.7","","-16.3","","88","","","","15","","10","","19.3","","99.81","","","","-21","","Snow"
"-94.07","58.74","CHURCHILL A","5060605","2021-01-12 08:00","2021","01","12","08:00","-14.7","","-16.3","","88","","","","15","","12","","8.1","","99.72","","","","-22","","Snow"
"-94.07","58.74","CHURCHILL A","5060605","2021-01-12 09:00","2021","01","12","09:00","-14.4","","-15.8","","89","","","","16","","12","","3.2","","99.71","","","","-21","","Snow,Fog"
"-94.07","58.74","CHURCHILL A","5060605","2021-01-12 10:00","2021","01","12","10:00","-14.1","","-15.5","","89","","","","15","","18","","3.2","","99.58","","","","-23","","Snow,Fog"
"-94.07","58.74","CHURCHILL A","5060605","2021-01-12 11:00","2021","01","12","11:00","-13.7","","-15.1","","89","","","","16","","15","","9.7","","99.51","","","","-21","","Snow"
"-94.07","58.74","CHURCHILL A","5060605","2021-01-12 12:00","2021","01","12","12:00","-13.1","","-14.4","","90","","","","16","","17","","19.3","","99.43","","","","-21","","Snow"
"-94.07","58.74","CHURCHILL A","5060605","2021-01-12 13:00","2021","01","12","13:00","-12.6","","-13.9","","90","","","","14","","15","","19.3","","99.37","","","","-20","","Snow"
"-94.07","58.74","CHURCHILL A","5060605","2021-01-12 14:00","2021","01","12","14:00","-13.2","","-14.6","","89","","","","17","","20","","19.3","","99.36","","","","-22","","Snow"
"-94.07","58.74","CHURCHILL A","5060605","2021-01-12 15:00","2021","01","12","15:00","-13.1","","-14.4","","90","","","","10","","12","","24.1","","99.35","","","","-20","","Cloudy"
"-94.07","58.74","CHURCHILL A","5060605","2021-01-12 16:00","2021","01","12","16:00","-12.8","","-14.1","","90","","","","15","","13","","24.1","","99.35","","","","-20","","NA"
"-94.07","58.74","CHURCHILL A","5060605","2021-01-12 17:00","2021","01","12","17:00","-12.8","","-14.1","","90","","","","13","","9","","24.1","","99.39","","","","-18","","NA"
"-94.07","58.74","CHURCHILL A","5060605","2021-01-12 18:00","2021","01","12","18:00","-12.7","","-14.0","","90","","","","15","","6","","24.1","","99.42","","","","-17","","Cloudy"
"-94.07","58.74","CHURCHILL A","5060605","2021-01-12 19:00","2021","01","12","19:00","-12.5","","-13.8","","90","","","","36","","1","","24.1","","99.47","","","","-13","","NA"
"-94.07","58.74","CHURCHILL A","5060605","2021-01-12 20:00","2021","01","12","20:00","-12.5","","-13.8","","90","","","","9","","4","","24.1","","99.47","","","","-15","","NA"
"-94.07","58.74","CHURCHILL A","5060605","2021-01-12 21:00","2021","01","12","21:00","-12.3","","-13.6","","90","","","","12","","4","","24.1","","99.47","","","","-15","","Cloudy"
"-94.07","58.74","CHURCHILL A","5060605","2021-01-12 22:00","2021","01","12","22:00","-12.1","","-13.3","","91","","","","36","","2","","24.1","","99.48","","","","-13","","NA"
"-94.07","58.74","CHURCHILL A","5060605","2021-01-12 23:00","2021","01","12","23:00","-12.0","","-13.2","","91","","","","0","","1","","24.1","","99.49","","","","-13","","NA"
"-94.07","58.74","CHURCHILL A","5060605","2021-01-13 00:00","2021","01","13","00:00","-12.1","","-13.3","","91","","","","36","","2","","24.1","","99.46","","","","-13","","Cloudy"
"-94.07","58.74","CHURCHILL A","5060605","2021-01-13 01:00","2021","01","13","01:00","-11.9","","-13.1","","91","","","","22","","4","","24.1","","99.49","","","","-14","","NA"
"-94.07","58.74","CHURCHILL A","5060605","2021-01-13 02:00","2021","01","13","02:00","-12.2","","-13.5","","90","","","","27","","14","","24.1","","99.54","","","","-19","","NA"
"-94.07","58.74","CHURCHILL A","5060605","2021-01-13 03:00","2021","01","13","03:00","-12.4","","-13.7","","90","","","","26","","5","","24.1","","99.55","","","","-16","","Cloudy"
"-94.07","58.74","CHURCHILL A","5060605","2021-01-13 04:00","2021","01","13","04:00","-12.2","","-13.5","","90","","","","25","","7","","24.1","","99.52","","","","-17","","NA"
"-94.07","58.74","CHURCHILL A","5060605","2021-01-13 05:00","2021","01","13","05:00","-11.9","","-13.1","","91","","","","25","","7","","24.1","","99.50","","","","-16","","NA"
"-94.07","58.74","CHURCHILL A","5060605","2021-01-13 06:00","2021","01","13","06:00","-11.7","","-12.9","","91","","","","21","","10","","24.1","","99.44","","","","-17","","Cloudy"
"-94.07","58.74","CHURCHILL A","5060605","2021-01-13 07:00","2021","01","13","07:00","-11.4","","-12.6","","91","","","","22","","5","","24.1","","99.43","","","","-15","","NA"
"-94.07","58.74","CHURCHILL A","5060605","2021-01-13 08:00","2021","01","13","08:00","-11.1","","-12.3","","91","","","","19","","5","","6.4","","99.38","","","","-14","","Snow"
"-94.07","58.74","CHURCHILL A","5060605","2021-01-13 09:00","2021","01","13","09:00","-11.1","","-12.2","","92","","","","20","","7","","12.9","","99.40","","","","-15","","Snow"
"-94.07","58.74","CHURCHILL A","5060605","2021-01-13 10:00","2021","01","13","10:00","-9.6","","-10.5","","93","","","","19","","9","","19.3","","99.36","","","","-14","","Snow"
"-94.07","58.74","CHURCHILL A","5060605","2021-01-13 11:00","2021","01","13","11:00","-8.5","","-9.3","","94","","","","18","","12","","19.3","","99.30","","","","-14","","Snow"
"-94.07","58.74","CHURCHILL A","5060605","2021-01-13 12:00","2021","01","13","12:00","-7.2","","-7.9","","95","","","","21","","9","","19.3","","99.30","","","","-12","","Snow"
"-94.07","58.74","CHURCHILL A","5060605","2021-01-13 13:00","2021","01","13","13:00","-6.2","","-6.9","","95","","","","19","","10","","16.1","","99.26","","","","-11","","Snow"
"-94.07","58.74","CHURCHILL A","5060605","2021-01-13 14:00","2021","01","13","14:00","-5.7","","-6.2","","96","","","","20","","8","","24.1","","99.22","","","","-9","","NA"
"-94.07","58.74","CHURCHILL A","5060605","2021-01-13 15:00","2021","01","13","15:00","-5.2","","-5.6","","97","","","","16","","10","","24.1","","99.20","","","","-10","","Cloudy"
"-94.07","58.74","CHURCHILL A","5060605","2021-01-13 16:00","2021","01","13","16:00","-5.0","","-5.4","","97","","","","18","","9","","9.7","","99.24","","","","-9","","Snow"
"-94.07","58.74","CHURCHILL A","5060605","2021-01-13 17:00","2021","01","13","17:00","-4.5","","-4.9","","97","","","","17","","7","","12.9","","99.26","","","","-8","","Snow"
"-94.07","58.74","CHURCHILL A","5060605","2021-01-13 18:00","2021","01","13","18:00","-4.3","","-4.7","","97","","","","16","","8","","16.1","","99.25","","","","-8","","Snow"
"-94.07","58.74","CHURCHILL A","5060605","2021-01-13 19:00","2021","01","13","19:00","-3.9","","-4.2","","98","","","","19","","10","","19.3","","99.25","","","","-8","","Snow"
"-94.07","58.74","CHURCHILL A","5060605","2021-01-13 20:00","2021","01","13","20:00","-4.0","","-4.3","","98","","","","19","","10","","24.1","","99.29","","","","-8","","NA"
"-94.07","58.74","CHURCHILL A","5060605","2021-01-13 21:00","2021","01","13","21:00","-3.8","","-4.1","","98","","","","17","","9","","24.1","","99.25","","","","-8","","Cloudy"
"-94.07","58.74","CHURCHILL A","5060605","2021-01-13 22:00","2021","01","13","22:00","-3.6","","-3.9","","98","","","","15","","9","","24.1","","99.25","","","","-7","","Snow"
"-94.07","58.74","CHURCHILL A","5060605","2021-01-13 23:00","2021","01","13","23:00","-3.7","","-4.0","","98","","","","14","","11","","9.7","","99.26","","","","-8","","Snow"
"-94.07","58.74","CHURCHILL A","5060605","2021-01-14 00:00","2021","01","14","00:00","-3.7","","-4.0","","98","","","","13","","5","","12.9","","99.31","","","","-6","","Snow"
"-94.07","58.74","CHURCHILL A","5060605","2021-01-14 01:00","2021","01","14","01:00","-3.9","","-4.2","","98","","","","15","","7","","8.1","","99.35","","","","-7","","Snow"
"-94.07","58.74","CHURCHILL A","5060605","2021-01-14 02:00","2021","01","14","02:00","-3.9","","-4.2","","98","","","","17","","9","","19.3","","99.39","","","","-8","","Snow"
"-94.07","58.74","CHURCHILL A","5060605","2021-01-14 03:00","2021","01","14","03:00","-3.4","","-3.7","","98","","","","18","","6","","24.1","","99.47","","","","-6","","Snow"
"-94.07","58.74","CHURCHILL A","5060605","2021-01-14 04:00","2021","01","14","04:00","-4.3","","-4.7","","97","","","","13","","6","","24.1","","99.51","","","","-7","","NA"
"-94.07","58.74","CHURCHILL A","5060605","2021-01-14 05:00","2021","01","14","05:00","-4.2","","-4.5","","98","","","","9","","4","","24.1","","99.54","","","","-6","","NA"
"-94.07","58.74","CHURCHILL A","5060605","2021-01-14 06:00","2021","01","14","06:00","-4.0","","-4.3","","98","","","","7","","6","","24.1","","99.61","","","","-7","","Cloudy"
"-94.07","58.74","CHURCHILL A","5060605","2021-01-14 07:00","2021","01","14","07:00","-3.8","","-4.1","","98","","","","9","","5","","24.1","","99.68","","","","-6","","NA"
"-94.07","58.74","CHURCHILL A","5060605","2021-01-14 08:00","2021","01","14","08:00","-3.8","","-4.1","","98","","","","3","","5","","4.8","","99.80","","","","-6","","Snow"
"-94.07","58.74","CHURCHILL A","5060605","2021-01-14 09:00","2021","01","14","09:00","-3.4","","-3.7","","98","","","","2","","11","","12.9","","99.92","","","","-8","","Snow"
"-94.07","58.74","CHURCHILL A","5060605","2021-01-14 10:00","2021","01","14","10:00","-3.2","","-3.5","","98","","","","4","","17","","19.3","","100.03","","","","-9","","Snow"
"-94.07","58.74","CHURCHILL A","5060605","2021-01-14 11:00","2021","01","14","11:00","-4.4","","-4.8","","97","","","","3","","28","","9.7","","100.12","","","","-12","","Snow"
"-94.07","58.74","CHURCHILL A","5060605","2021-01-14 12:00","2021","01","14","12:00","-6.0","","-6.5","","96","","","","3","","41","","6.4","","100.23","","","","-16","","Snow,Blowing Snow"
"-94.07","58.74","CHURCHILL A","5060605","2021-01-14 13:00","2021","01","14","13:00","-9.4","","-10.3","","93","","","","2","","42","","4.8","","100.39","","","","-20","","Snow,Blowing Snow"
"-94.07","58.74","CHURCHILL A","5060605","2021-01-14 14:00","2021","01","14","14:00","-12.0","","-13.3","","90","","","","2","","41","","1.6","","100.58","","","","-24","","Snow,Blowing Snow"
"-94.07","58.74","CHURCHILL A","5060605","2021-01-14 15:00","2021","01","14","15:00","-13.3","","-14.6","","90","","","","2","","41","","1.6","","100.78","","","","-25","","Snow,Blowing Snow"
"-94.07","58.74","CHURCHILL A","5060605","2021-01-14 16:00","2021","01","14","16:00","-14.0","","-15.4","","89","","","","2","","41","","2.4","","100.99","","","","-26","","Snow,Blowing Snow"
"-94.07","58.74","CHURCHILL A","5060605","2021-01-14 17:00","2021","01","14","17:00","-14.6","","-16.0","","89","","","","1","","40","","6.4","","101.14","","","","-27","","Snow,Blowing Snow"
"-94.07","58.74","CHURCHILL A","5060605","2021-01-14 18:00","2021","01","14","18:00","-15.2","","-16.8","","88","","","","1","","38","","12.9","","101.26","","","","-27","","Snow"
"-94.07","58.74","CHURCHILL A","5060605","2021-01-14 19:00","2021","01","14","19:00","-15.5","","-17.1","","88","","","","36","","41","","12.9","","101.42","","","","-28","","Snow"
"-94.07","58.74","CHURCHILL A","5060605","2021-01-14 20:00","2021","01","14","20:00","-15.4","","-17.0","","88","","","","36","","38","","8.1","","101.53","","","","-28","","Snow,Blowing Snow"
"-94.07","58.74","CHURCHILL A","5060605","2021-01-14 21:00","2021","01","14","21:00","-16.0","","-17.7","","87","","","","1","","40","","16.1","","101.58","","","","-29","","Snow,Blowing Snow"
"-94.07","58.74","CHURCHILL A","5060605","2021-01-14 22:00","2021","01","14","22:00","-16.3","","-18.0","","87","","","","36","","38","","16.1","","101.62","","","","-29","","Blowing Snow"
"-94.07","58.74","CHURCHILL A","5060605","2021-01-14 23:00","2021","01","14","23:00","-16.4","","-18.1","","87","","","","36","","30","","24.1","","101.68","","","","-28","","Blowing Snow"
"-94.07","58.74","CHURCHILL A","5060605","2021-01-15 00:00","2021","01","15","00:00","-16.8","","-18.5","","87","","","","35","","32","","24.1","","101.75","","","","-29","","Blowing Snow"
"-94.07","58.74","CHURCHILL A","5060605","2021-01-15 01:00","2021","01","15","01:00","-17.3","","-19.1","","86","","","","35","","28","","24.1","","101.80","","","","-29","","Snow,Blowing Snow"
"-94.07","58.74","CHURCHILL A","5060605","2021-01-15 02:00","2021","01","15","02:00","-18.0","","-19.9","","85","","","","35","","26","","24.1","","101.83","","","","-29","","NA"
"-94.07","58.74","CHURCHILL A","5060605","2021-01-15 03:00","2021","01","15","03:00","-19.4","","-21.5","","84","","","","34","","23","","24.1","","101.86","","","","-30","","Blowing Snow"
"-94.07","58.74","CHURCHILL A","5060605","2021-01-15 04:00","2021","01","15","04:00","-19.7","","-21.8","","84","","","","34","","21","","24.1","","101.86","","","","-30","","NA"
"-94.07","58.74","CHURCHILL A","5060605","2021-01-15 05:00","2021","01","15","05:00","-19.2","","-21.1","","85","","","","31","","14","","24.1","","101.84","","","","-28","","NA"
"-94.07","58.74","CHURCHILL A","5060605","2021-01-15 06:00","2021","01","15","06:00","-19.7","","-21.8","","84","","","","27","","15","","24.1","","101.80","","","","-29","","Snow"
"-94.07","58.74","CHURCHILL A","5060605","2021-01-15 07:00","2021","01","15","07:00","-19.5","","-21.6","","84","","","","29","","17","","24.1","","101.77","","","","-29","","Snow"
"-94.07","58.74","CHURCHILL A","5060605","2021-01-15 08:00","2021","01","15","08:00","-19.4","","-21.5","","84","","","","28","","15","","24.1","","101.71","","","","-28","","Snow"
"-94.07","58.74","CHURCHILL A","5060605","2021-01-15 09:00","2021","01","15","09:00","-19.1","","-21.2","","84","","","","27","","16","","24.1","","101.68","","","","-28","","Cloudy"
"-94.07","58.74","CHURCHILL A","5060605","2021-01-15 10:00","2021","01","15","10:00","-18.6","","-20.8","","83","","","","27","","17","","24.1","","101.60","","","","-28","","NA"
"-94.07","58.74","CHURCHILL A","5060605","2021-01-15 11:00","2021","01","15","11:00","-18.1","","-20.3","","83","","","","26","","16","","19.3","","101.53","","","","-27","","Snow"
"-94.07","58.74","CHURCHILL A","5060605","2021-01-15 12:00","2021","01","15","12:00","-17.4","","-20.1","","80","","","","26","","14","","24.1","","101.43","","","","-26","","Mostly Cloudy"
"-94.07","58.74","CHURCHILL A","5060605","2021-01-15 13:00","2021","01","15","13:00","-16.8","","-19.6","","79","","","","27","","20","","24.1","","101.36","","","","-26","","NA"
"-94.07","58.74","CHURCHILL A","5060605","2021-01-15 14:00","2021","01","15","14:00","-16.1","","-18.9","","79","","","","26","","12","","24.1","","101.33","","","","-23","","NA"
"-94.07","58.74","CHURCHILL A","5060605","2021-01-15 15:00","2021","01","15","15:00","-15.7","","-18.4","","80","","","","28","","16","","24.1","","101.33","","","","-24","","Cloudy"
"-94.07","58.74","CHURCHILL A","5060605","2021-01-15 16:00","2021","01","15","16:00","-14.9","","-17.5","","81","","","","29","","14","","24.1","","101.33","","","","-22","","NA"
"-94.07","58.74","CHURCHILL A","5060605","2021-01-15 17:00","2021","01","15","17:00","-14.6","","-17.1","","82","","","","30","","16","","24.1","","101.33","","","","-23","","NA"
"-94.07","58.74","CHURCHILL A","5060605","2021-01-15 18:00","2021","01","15","18:00","-15.0","","-17.4","","82","","","","29","","15","","24.1","","101.31","","","","-23","","Cloudy"
"-94.07","58.74","CHURCHILL A","5060605","2021-01-15 19:00","2021","01","15","19:00","-14.8","","-17.1","","83","","","","30","","14","","24.1","","101.25","","","","-22","","NA"
"-94.07","58.74","CHURCHILL A","5060605","2021-01-15 20:00","2021","01","15","20:00","-14.7","","-16.9","","84","","","","29","","13","","24.1","","101.22","","","","-22","","NA"
"-94.07","58.74","CHURCHILL A","5060605","2021-01-15 21:00","2021","01","15","21:00","-15.1","","-17.2","","84","","","","29","","9","","24.1","","101.16","","","","-21","","Cloudy"
"-94.07","58.74","CHURCHILL A","5060605","2021-01-15 22:00","2021","01","15","22:00","-15.6","","-17.6","","85","","","","29","","14","","19.3","","101.16","","","","-23","","Snow"
"-94.07","58.74","CHURCHILL A","5060605","2021-01-15 23:00","2021","01","15","23:00","-15.0","","-16.8","","86","","","","5","","13","","24.1","","101.14","","","","-22","","Snow"
"-94.07","58.74","CHURCHILL A","5060605","2021-01-16 00:00","2021","01","16","00:00","-15.8","","-17.6","","86","","","","5","","13","","24.1","","101.14","","","","-23","","Snow"
"-94.07","58.74","CHURCHILL A","5060605","2021-01-16 01:00","2021","01","16","01:00","-16.3","","-18.1","","86","","","","8","","9","","24.1","","101.15","","","","-22","","Snow"
"-94.07","58.74","CHURCHILL A","5060605","2021-01-16 02:00","2021","01","16","02:00","-16.8","","-18.6","","86","","","","8","","13","","12.9","","101.13","","","","-25","","Snow"
"-94.07","58.74","CHURCHILL A","5060605","2021-01-16 03:00","2021","01","16","03:00","-17.2","","-19.1","","85","","","","8","","14","","4.8","","101.09","","","","-25","","Snow"
"-94.07","58.74","CHURCHILL A","5060605","2021-01-16 04:00","2021","01","16","04:00","-17.3","","-19.1","","86","","","","8","","14","","8.1","","101.06","","","","-25","","Snow"
"-94.07","58.74","CHURCHILL A","5060605","2021-01-16 05:00","2021","01","16","05:00","-17.5","","-19.4","","85","","","","8","","19","","8.1","","101.03","","","","-27","","Snow"
"-94.07","58.74","CHURCHILL A","5060605","2021-01-16 06:00","2021","01","16","06:00","-17.7","","-19.8","","84","","","","9","","18","","8.1","","101.02","","","","-27","","Snow"
"-94.07","58.74","CHURCHILL A","5060605","2021-01-16 07:00","2021","01","16","07:00","-17.7","","-19.6","","85","","","","9","","16","","6.4","","101.00","","","","-27","","Snow"
"-94.07","58.74","CHURCHILL A","5060605","2021-01-16 08:00","2021","01","16","08:00","-17.9","","-20.1","","83","","","","8","","17","","9.7","","100.99","","","","-27","","Snow"
"-94.07","58.74","CHURCHILL A","5060605","2021-01-16 09:00","2021","01","16","09:00","-18.1","","-20.2","","84","","","","7","","17","","6.4","","101.02","","","","-27","","Snow"
"-94.07","58.74","CHURCHILL A","5060605","2021-01-16 10:00","2021","01","16","10:00","-18.4","","-20.5","","84","","","","6","","20","","4.8","","101.01","","","","-28","","Snow"
"-94.07","58.74","CHURCHILL A","5060605","2021-01-16 11:00","2021","01","16","11:00","-18.4","","-20.8","","82","","","","7","","21","","3.2","","101.06","","","","-29","","Snow"
"-94.07","58.74","CHURCHILL A","5060605","2021-01-16 12:00","2021","01","16","12:00","-18.4","","-20.6","","83","","","","6","","23","","4.0","","101.07","","","","-29","","Snow"
"-94.07","58.74","CHURCHILL A","5060605","2021-01-16 13:00","2021","01","16","13:00","-18.4","","-20.8","","82","","","","5","","25","","4.8","","101.09","","","","-30","","Snow"
"-94.07","58.74","CHURCHILL A","5060605","2021-01-16 14:00","2021","01","16","14:00","-18.4","","-20.7","","82","","","","5","","24","","4.8","","101.11","","","","-29","","Snow"
"-94.07","58.74","CHURCHILL A","5060605","2021-01-16 15:00","2021","01","16","15:00","-18.2","","-20.4","","83","","","","4","","22","","3.2","","101.14","","","","-29","","Snow"
"-94.07","58.74","CHURCHILL A","5060605","2021-01-16 16:00","2021","01","16","16:00","-18.2","","-20.3","","84","","","","3","","24","","4.0","","101.21","","","","-29","","Snow"
"-94.07","58.74","CHURCHILL A","5060605","2021-01-16 17:00","2021","01","16","17:00","-19.6","","-21.5","","85","","","","3","","22","","6.4","","101.29","","","","-30","","Ice Crystals"
"-94.07","58.74","CHURCHILL A","5060605","2021-01-16 18:00","2021","01","16","18:00","-20.1","","-22.0","","85","","","","2","","22","","6.4","","101.35","","","","-31","","Ice Crystals"
"-94.07","58.74","CHURCHILL A","5060605","2021-01-16 19:00","2021","01","16","19:00","-20.4","","-22.4","","84","","","","2","","19","","12.9","","101.41","","","","-31","","Ice Crystals"
"-94.07","58.74","CHURCHILL A","5060605","2021-01-16 20:00","2021","01","16","20:00","-20.9","","-22.9","","84","","","","2","","18","","24.1","","101.46","","","","-31","","Ice Crystals"
"-94.07","58.74","CHURCHILL A","5060605","2021-01-16 21:00","2021","01","16","21:00","-21.1","","-23.2","","84","","","","2","","23","","24.1","","101.48","","","","-33","","Ice Crystals"
"-94.07","58.74","CHURCHILL A","5060605","2021-01-16 22:00","2021","01","16","22:00","-21.5","","-23.7","","83","","","","1","","19","","24.1","","101.50","","","","-32","","Ice Crystals"
"-94.07","58.74","CHURCHILL A","5060605","2021-01-16 23:00","2021","01","16","23:00","-21.5","","-23.7","","83","","","","1","","21","","24.1","","101.53","","","","-33","","Ice Crystals"
"-94.07","58.74","CHURCHILL A","5060605","2021-01-17 00:00","2021","01","17","00:00","-21.4","","-23.6","","83","","","","36","","21","","24.1","","101.57","","","","-32","","Ice Crystals"
"-94.07","58.74","CHURCHILL A","5060605","2021-01-17 01:00","2021","01","17","01:00","-20.7","","-22.7","","84","","","","1","","23","","24.1","","101.60","","","","-32","","Ice Crystals"
"-94.07","58.74","CHURCHILL A","5060605","2021-01-17 02:00","2021","01","17","02:00","-21.8","","-24.0","","83","","","","35","","18","","24.1","","101.66","","","","-32","","Ice Crystals"
"-94.07","58.74","CHURCHILL A","5060605","2021-01-17 03:00","2021","01","17","03:00","-24.4","","-26.8","","81","","","","31","","10","","9.7","","101.67","","","","-32","","Ice Crystals"
"-94.07","58.74","CHURCHILL A","5060605","2021-01-17 04:00","2021","01","17","04:00","-25.2","","-27.6","","81","","","","30","","10","","24.1","","101.67","","","","-33","","Ice Crystals"
"-94.07","58.74","CHURCHILL A","5060605","2021-01-17 05:00","2021","01","17","05:00","-19.8","","-21.9","","84","","","","34","","26","","24.1","","101.68","","","","-32","","Ice Crystals"
"-94.07","58.74","CHURCHILL A","5060605","2021-01-17 06:00","2021","01","17","06:00","-19.7","","-21.9","","83","","","","36","","35","","8.1","","101.67","","","","-33","","Snow,Blowing Snow"
"-94.07","58.74","CHURCHILL A","5060605","2021-01-17 07:00","2021","01","17","07:00","-20.1","","-22.4","","82","","","","35","","32","","9.7","","101.67","","","","-33","","Snow,Blowing Snow"
"-94.07","58.74","CHURCHILL A","5060605","2021-01-17 08:00","2021","01","17","08:00","-20.9","","-23.7","","78","","","","35","","30","","19.3","","101.69","","","","-34","","Snow,Blowing Snow"
"-94.07","58.74","CHURCHILL A","5060605","2021-01-17 09:00","2021","01","17","09:00","-20.6","","-23.9","","75","","","","36","","30","","24.1","","101.69","","","","-33","","Blowing Snow"
"-94.07","58.74","CHURCHILL A","5060605","2021-01-17 10:00","2021","01","17","10:00","-20.3","","-23.5","","76","","","","35","","28","","24.1","","101.68","","","","-33","","Blowing Snow"
"-94.07","58.74","CHURCHILL A","5060605","2021-01-17 11:00","2021","01","17","11:00","-20.0","","-23.3","","75","","","","34","","26","","24.1","","101.66","","","","-32","","Blowing Snow"
"-94.07","58.74","CHURCHILL A","5060605","2021-01-17 12:00","2021","01","17","12:00","-19.7","","-23.1","","75","","","","34","","25","","24.1","","101.62","","","","-31","","Blowing Snow"
"-94.07","58.74","CHURCHILL A","5060605","2021-01-17 13:00","2021","01","17","13:00","-19.7","","-23.5","","72","","","","35","","23","","24.1","","101.61","","","","-31","","Snow,Blowing Snow"
"-94.07","58.74","CHURCHILL A","5060605","2021-01-17 14:00","2021","01","17","14:00","-19.6","","-23.3","","73","","","","35","","21","","24.1","","101.62","","","","-30","","Snow,Blowing Snow"
"-94.07","58.74","CHURCHILL A","5060605","2021-01-17 15:00","2021","01","17","15:00","-19.6","","-23.1","","74","","","","35","","26","","19.3","","101.64","","","","-31","","Snow,Blowing Snow"
"-94.07","58.74","CHURCHILL A","5060605","2021-01-17 16:00","2021","01","17","16:00","-19.6","","-23.0","","75","","","","35","","21","","16.1","","101.63","","","","-30","","Snow,Blowing Snow"
"-94.07","58.74","CHURCHILL A","5060605","2021-01-17 17:00","2021","01","17","17:00","-19.3","","-22.8","","74","","","","36","","26","","24.1","","101.66","","","","-31","","NA"
"-94.07","58.74","CHURCHILL A","5060605","2021-01-17 18:00","2021","01","17","18:00","-19.0","","-22.5","","74","","","","36","","20","","24.1","","101.67","","","","-29","","Cloudy"
"-94.07","58.74","CHURCHILL A","5060605","2021-01-17 19:00","2021","01","17","19:00","-19.0","","-22.2","","76","","","","35","","17","","24.1","","101.65","","","","-28","","Snow"
"-94.07","58.74","CHURCHILL A","5060605","2021-01-17 20:00","2021","01","17","20:00","-19.0","","-22.7","","73","","","","34","","22","","24.1","","101.64","","","","-30","","Snow"
"-94.07","58.74","CHURCHILL A","5060605","2021-01-17 21:00","2021","01","17","21:00","-19.0","","-22.2","","76","","","","35","","14","","24.1","","101.65","","","","-28","","Snow"
"-94.07","58.74","CHURCHILL A","5060605","2021-01-17 22:00","2021","01","17","22:00","-19.1","","-22.3","","76","","","","34","","12","","19.3","","101.64","","","","-27","","Snow"
"-94.07","58.74","CHURCHILL A","5060605","2021-01-17 23:00","2021","01","17","23:00","-19.5","","-22.1","","80","","","","30","","10","","19.3","","101.64","","","","-27","","Snow"
"-94.07","58.74","CHURCHILL A","5060605","2021-01-18 00:00","2021","01","18","00:00","-19.5","","-22.0","","81","","","","30","","10","","19.3","","101.66","","","","-27","","Snow"
"-94.07","58.74","CHURCHILL A","5060605","2021-01-18 01:00","2021","01","18","01:00","-19.7","","-22.2","","81","","","","30","","7","","19.3","","101.68","","","","-25","","Snow"
"-94.07","58.74","CHURCHILL A","5060605","2021-01-18 02:00","2021","01","18","02:00","-19.7","","-22.0","","82","","","","28","","9","","19.3","","101.70","","","","-26","","Snow"
"-94.07","58.74","CHURCHILL A","5060605","2021-01-18 03:00","2021","01","18","03:00","-19.7","","-22.2","","81","","","","29","","11","","19.3","","101.70","","","","-27","","Snow"
"-94.07","58.74","CHURCHILL A","5060605","2021-01-18 04:00","2021","01","18","04:00","-19.6","","-22.1","","81","","","","29","","10","","24.1","","101.70","","","","-27","","Snow"
"-94.07","58.74","CHURCHILL A","5060605","2021-01-18 05:00","2021","01","18","05:00","-19.8","","-22.4","","80","","","","29","","11","","19.3","","101.70","","","","-27","","Snow"
"-94.07","58.74","CHURCHILL A","5060605","2021-01-18 06:00","2021","01","18","06:00","-19.9","","-22.7","","79","","","","28","","13","","24.1","","101.69","","","","-28","","Snow"
"-94.07","58.74","CHURCHILL A","5060605","2021-01-18 07:00","2021","01","18","07:00","-20.0","","-22.6","","80","","","","29","","12","","19.3","","101.67","","","","-28","","Snow"
"-94.07","58.74","CHURCHILL A","5060605","2021-01-18 08:00","2021","01","18","08:00","-20.0","","-22.5","","81","","","","29","","9","","19.3","","101.67","","","","-27","","Snow"
"-94.07","58.74","CHURCHILL A","5060605","2021-01-18 09:00","2021","01","18","09:00","-20.0","","-22.5","","81","","","","29","","10","","24.1","","101.67","","","","-27","","Snow"
"-94.07","58.74","CHURCHILL A","5060605","2021-01-18 10:00","2021","01","18","10:00","-19.6","","-22.2","","80","","","","30","","10","","24.1","","101.71","","","","-27","","Snow"
"-94.07","58.74","CHURCHILL A","5060605","2021-01-18 11:00","2021","01","18","11:00","-19.2","","-22.4","","76","","","","1","","23","","24.1","","101.74","","","","-30","","Snow"
"-94.07","58.74","CHURCHILL A","5060605","2021-01-18 12:00","2021","01","18","12:00","-19.4","","-23.4","","71","","","","35","","18","","24.1","","101.77","","","","-29","","Snow"
"-94.07","58.74","CHURCHILL A","5060605","2021-01-18 13:00","2021","01","18","13:00","-19.4","","-23.2","","72","","","","33","","22","","24.1","","101.82","","","","-30","","NA"
"-94.07","58.74","CHURCHILL A","5060605","2021-01-18 14:00","2021","01","18","14:00","-20.2","","-22.8","","80","","","","35","","32","","4.0","","101.86","","","","-33","","Snow,Blowing Snow"
"-94.07","58.74","CHURCHILL A","5060605","2021-01-18 15:00","2021","01","18","15:00","-21.4","","-24.6","","76","","","","35","","33","","9.7","","101.92","","","","-35","","Snow"
"-94.07","58.74","CHURCHILL A","5060605","2021-01-18 16:00","2021","01","18","16:00","-23.0","","-26.3","","75","","","","34","","35","","16.1","","101.97","","","","-37","","Blowing Snow"
"-94.07","58.74","CHURCHILL A","5060605","2021-01-18 17:00","2021","01","18","17:00","-23.3","","-26.6","","75","","","","33","","27","","19.3","","102.01","","","","-36","","Blowing Snow"
"-94.07","58.74","CHURCHILL A","5060605","2021-01-18 18:00","2021","01","18","18:00","-23.6","","-26.9","","75","","","","34","","29","","19.3","","102.00","","","","-37","","Ice Crystals,Blowing Snow"
"-94.07","58.74","CHURCHILL A","5060605","2021-01-18 19:00","2021","01","18","19:00","-24.0","","-27.1","","76","","","","34","","34","","12.9","","101.99","","","","-39","","Ice Crystals,Blowing Snow"
"-94.07","58.74","CHURCHILL A","5060605","2021-01-18 20:00","2021","01","18","20:00","-24.5","","-27.6","","76","","","","33","","32","","19.3","","101.97","","","","-39","","Ice Crystals,Blowing Snow"
"-94.07","58.74","CHURCHILL A","5060605","2021-01-18 21:00","2021","01","18","21:00","-24.8","","-28.0","","75","","","","34","","32","","19.3","","101.96","","","","-39","","Ice Crystals,Blowing Snow"
"-94.07","58.74","CHURCHILL A","5060605","2021-01-18 22:00","2021","01","18","22:00","-25.7","","-28.8","","76","","","","31","","29","","19.3","","101.98","","","","-40","","Ice Crystals,Blowing Snow"
"-94.07","58.74","CHURCHILL A","5060605","2021-01-18 23:00","2021","01","18","23:00","-25.8","","-28.9","","76","","","","32","","26","","19.3","","101.92","","","","-39","","Ice Crystals,Blowing Snow"
"-94.07","58.74","CHURCHILL A","5060605","2021-01-19 00:00","2021","01","19","00:00","-26.3","","-29.4","","76","","","","31","","28","","19.3","","101.89","","","","-40","","Ice Crystals,Blowing Snow"
"-94.07","58.74","CHURCHILL A","5060605","2021-01-19 01:00","2021","01","19","01:00","-26.8","","-30.0","","75","","","","31","","27","","24.1","","101.88","","","","-41","","Ice Crystals"
"-94.07","58.74","CHURCHILL A","5060605","2021-01-19 02:00","2021","01","19","02:00","-27.0","","-30.0","","76","","","","31","","28","","24.1","","101.86","","","","-41","","Ice Crystals"
"-94.07","58.74","CHURCHILL A","5060605","2021-01-19 03:00","2021","01","19","03:00","-27.2","","-30.2","","76","","","","31","","29","","19.3","","101.82","","","","-42","","Ice Crystals,Blowing Snow"
"-94.07","58.74","CHURCHILL A","5060605","2021-01-19 04:00","2021","01","19","04:00","-27.0","","-29.9","","77","","","","31","","29","","19.3","","101.76","","","","-41","","Ice Crystals,Blowing Snow"
"-94.07","58.74","CHURCHILL A","5060605","2021-01-19 05:00","2021","01","19","05:00","-27.1","","-30.1","","76","","","","31","","25","","12.9","","101.68","","","","-41","","Ice Crystals,Blowing Snow"
"-94.07","58.74","CHURCHILL A","5060605","2021-01-19 06:00","2021","01","19","06:00","-26.8","","-29.8","","76","","","","31","","32","","16.1","","101.64","","","","-42","","Ice Crystals,Blowing Snow"
"-94.07","58.74","CHURCHILL A","5060605","2021-01-19 07:00","2021","01","19","07:00","-26.6","","-29.6","","76","","","","32","","34","","19.3","","101.61","","","","-42","","Ice Crystals,Blowing Snow"
"-94.07","58.74","CHURCHILL A","5060605","2021-01-19 08:00","2021","01","19","08:00","-26.8","","-29.9","","75","","","","30","","30","","19.3","","101.53","","","","-41","","Ice Crystals,Blowing Snow"
"-94.07","58.74","CHURCHILL A","5060605","2021-01-19 09:00","2021","01","19","09:00","-26.7","","-29.9","","75","","","","31","","25","","19.3","","101.45","","","","-40","","Ice Crystals,Blowing Snow"
"-94.07","58.74","CHURCHILL A","5060605","2021-01-19 10:00","2021","01","19","10:00","-26.7","","-30.0","","74","","","","30","","24","","19.3","","101.37","","","","-40","","Ice Crystals,Blowing Snow"
"-94.07","58.74","CHURCHILL A","5060605","2021-01-19 11:00","2021","01","19","11:00","-27.2","","-30.5","","74","","","","30","","24","","24.1","","101.30","","","","-41","","Blowing Snow"
"-94.07","58.74","CHURCHILL A","5060605","2021-01-19 12:00","2021","01","19","12:00","-27.3","","-30.8","","73","","","","29","","22","","24.1","","101.18","","","","-40","","Blowing Snow"
"-94.07","58.74","CHURCHILL A","5060605","2021-01-19 13:00","2021","01","19","13:00","-27.4","","-31.0","","72","","","","29","","18","","24.1","","101.03","","","","-39","","Blowing Snow"
"-94.07","58.74","CHURCHILL A","5060605","2021-01-19 14:00","2021","01","19","14:00","-27.2","","-30.8","","72","","","","29","","14","","24.1","","100.99","","","","-38","","NA"
"-94.07","58.74","CHURCHILL A","5060605","2021-01-19 15:00","2021","01","19","15:00","-27.6","","-30.9","","74","","","","28","","10","","24.1","","100.89","","","","-36","","Mostly Cloudy"
"-94.07","58.74","CHURCHILL A","5060605","2021-01-19 16:00","2021","01","19","16:00","-28.5","","-31.8","","74","","","","24","","10","","24.1","","100.80","","","","-37","","NA"
"-94.07","58.74","CHURCHILL A","5060605","2021-01-19 17:00","2021","01","19","17:00","-29.8","","-32.5","","78","","","","24","","10","","24.1","","100.71","","","","-39","","NA"
"-94.07","58.74","CHURCHILL A","5060605","2021-01-19 18:00","2021","01","19","18:00","-30.1","","-32.6","","79","","","","18","","11","","24.1","","100.58","","","","-40","","Mainly Clear"
"-94.07","58.74","CHURCHILL A","5060605","2021-01-19 19:00","2021","01","19","19:00","-30.5","","-33.0","","79","","","","18","","10","","24.1","","100.44","","","","-40","","NA"
"-94.07","58.74","CHURCHILL A","5060605","2021-01-19 20:00","2021","01","19","20:00","-29.4","","-32.1","","78","","","","17","","13","","24.1","","100.26","","","","-40","","NA"
"-94.07","58.74","CHURCHILL A","5060605","2021-01-19 21:00","2021","01","19","21:00","-30.1","","-32.9","","77","","","","15","","15","","24.1","","100.11","","","","-42","","Mainly Clear"
"-94.07","58.74","CHURCHILL A","5060605","2021-01-19 22:00","2021","01","19","22:00","-30.5","","-33.3","","77","","","","13","","17","","24.1","","99.98","","","","-43","","NA"
"-94.07","58.74","CHURCHILL A","5060605","2021-01-19 23:00","2021","01","19","23:00","-30.3","","-33.1","","77","","","","14","","18","","24.1","","99.89","","","","-43","","NA"
"-94.07","58.74","CHURCHILL A","5060605","2021-01-20 00:00","2021","01","20","00:00","-29.7","","-32.5","","77","","","","12","","18","","24.1","","99.77","","","","-42","","Cloudy"
"-94.07","58.74","CHURCHILL A","5060605","2021-01-20 01:00","2021","01","20","01:00","-29.8","","-32.5","","78","","","","11","","20","","24.1","","99.65","","","","-43","","NA"
"-94.07","58.74","CHURCHILL A","5060605","2021-01-20 02:00","2021","01","20","02:00","-28.1","","-30.6","","80","","","","13","","20","","24.1","","99.63","","","","-41","","NA"
"-94.07","58.74","CHURCHILL A","5060605","2021-01-20 03:00","2021","01","20","03:00","-25.8","","-28.3","","80","","","","13","","18","","24.1","","99.58","","","","-37","","Cloudy"
"-94.07","58.74","CHURCHILL A","5060605","2021-01-20 04:00","2021","01","20","04:00","-24.2","","-26.6","","81","","","","12","","21","","24.1","","99.50","","","","-36","","Snow"
"-94.07","58.74","CHURCHILL A","5060605","2021-01-20 05:00","2021","01","20","05:00","-22.3","","-24.6","","82","","","","10","","21","","24.1","","99.43","","","","-34","","Snow"
"-94.07","58.74","CHURCHILL A","5060605","2021-01-20 06:00","2021","01","20","06:00","-20.7","","-22.9","","83","","","","11","","26","","24.1","","99.43","","","","-33","","Snow"
"-94.07","58.74","CHURCHILL A","5060605","2021-01-20 07:00","2021","01","20","07:00","-20.8","","-23.1","","82","","","","10","","27","","12.9","","99.45","","","","-33","","Snow"
"-94.07","58.74","CHURCHILL A","5060605","2021-01-20 08:00","2021","01","20","08:00","-20.3","","-22.5","","83","","","","10","","22","","12.9","","99.50","","","","-31","","Snow,Blowing Snow"
"-94.07","58.74","CHURCHILL A","5060605","2021-01-20 09:00","2021","01","20","09:00","-19.6","","-21.6","","84","","","","10","","27","","12.9","","99.51","","","","-31","","Snow"
"-94.07","58.74","CHURCHILL A","5060605","2021-01-20 10:00","2021","01","20","10:00","-19.1","","-21.2","","84","","","","9","","20","","12.9","","99.58","","","","-29","","Snow"
"-94.07","58.74","CHURCHILL A","5060605","2021-01-20 11:00","2021","01","20","11:00","-19.2","","-21.3","","84","","","","9","","30","","12.9","","99.65","","","","-32","","Snow,Blowing Snow"
"-94.07","58.74","CHURCHILL A","5060605","2021-01-20 12:00","2021","01","20","12:00","-20.1","","-22.3","","83","","","","9","","23","","24.1","","99.74","","","","-31","","Mostly Cloudy"
"-94.07","58.74","CHURCHILL A","5060605","2021-01-20 13:00","2021","01","20","13:00","-21.0","","-23.2","","83","","","","9","","17","","24.1","","99.83","","","","-31","","NA"
"-94.07","58.74","CHURCHILL A","5060605","2021-01-20 14:00","2021","01","20","14:00","-20.5","","-22.8","","82","","","","8","","21","","24.1","","99.88","","","","-31","","NA"
"-94.07","58.74","CHURCHILL A","5060605","2021-01-20 15:00","2021","01","20","15:00","-20.1","","-22.1","","84","","","","7","","24","","24.1","","100.00","","","","-32","","Cloudy"
"-94.07","58.74","CHURCHILL A","5060605","2021-01-20 16:00","2021","01","20","16:00","-20.2","","-22.2","","84","","","","7","","21","","16.1","","100.13","","","","-31","","NA"
"-94.07","58.74","CHURCHILL A","5060605","2021-01-20 17:00","2021","01","20","17:00","-20.7","","-22.9","","83","","","","6","","22","","24.1","","100.26","","","","-32","","NA"
"-94.07","58.74","CHURCHILL A","5060605","2021-01-20 18:00","2021","01","20","18:00","-21.2","","-23.4","","83","","","","6","","17","","24.1","","100.37","","","","-31","","Cloudy"
"-94.07","58.74","CHURCHILL A","5060605","2021-01-20 19:00","2021","01","20","19:00","-22.6","","-24.7","","83","","","","6","","17","","24.1","","100.48","","","","-33","","NA"
"-94.07","58.74","CHURCHILL A","5060605","2021-01-20 20:00","2021","01","20","20:00","-23.4","","-25.5","","83","","","","5","","16","","24.1","","100.58","","","","-34","","NA"
"-94.07","58.74","CHURCHILL A","5060605","2021-01-20 21:00","2021","01","20","21:00","-22.5","","-24.6","","83","","","","5","","15","","24.1","","100.66","","","","-32","","Cloudy"
"-94.07","58.74","CHURCHILL A","5060605","2021-01-20 22:00","2021","01","20","22:00","-22.3","","-24.4","","83","","","","5","","12","","24.1","","100.73","","","","-31","","NA"
"-94.07","58.74","CHURCHILL A","5060605","2021-01-20 23:00","2021","01","20","23:00","-21.6","","-23.6","","84","","","","2","","21","","24.1","","100.81","","","","-33","","NA"
"-94.07","58.74","CHURCHILL A","5060605","2021-01-21 00:00","2021","01","21","00:00","-22.4","","-24.6","","83","","","","2","","17","","24.1","","100.89","","","","-33","","Cloudy"
"-94.07","58.74","CHURCHILL A","5060605","2021-01-21 01:00","2021","01","21","01:00","-23.0","","-25.3","","82","","","","1","","19","","24.1","","100.96","","","","-34","","NA"
"-94.07","58.74","CHURCHILL A","5060605","2021-01-21 02:00","2021","01","21","02:00","-22.6","","-24.7","","83","","","","1","","14","","24.1","","101.04","","","","-32","","NA"
"-94.07","58.74","CHURCHILL A","5060605","2021-01-21 03:00","2021","01","21","03:00","-21.8","","-24.1","","82","","","","2","","17","","24.1","","101.12","","","","-32","","Snow"
"-94.07","58.74","CHURCHILL A","5060605","2021-01-21 04:00","2021","01","21","04:00","-21.5","","-23.8","","82","","","","35","","17","","19.3","","101.19","","","","-32","","Snow"
"-94.07","58.74","CHURCHILL A","5060605","2021-01-21 05:00","2021","01","21","05:00","-21.2","","-23.4","","83","","","","35","","23","","4.8","","101.21","","","","-33","","Snow"
"-94.07","58.74","CHURCHILL A","5060605","2021-01-21 06:00","2021","01","21","06:00","-21.9","","-24.2","","82","","","","34","","21","","12.9","","101.27","","","","-33","","Snow"
"-94.07","58.74","CHURCHILL A","5060605","2021-01-21 07:00","2021","01","21","07:00","-22.4","","-24.7","","82","","","","34","","21","","8.1","","101.31","","","","-34","","Snow,Blowing Snow"
"-94.07","58.74","CHURCHILL A","5060605","2021-01-21 08:00","2021","01","21","08:00","-23.9","","-26.3","","81","","","","32","","21","","4.8","","101.34","","","","-36","","Snow,Blowing Snow"
"-94.07","58.74","CHURCHILL A","5060605","2021-01-21 09:00","2021","01","21","09:00","-25.0","","-27.5","","80","","","","31","","22","","6.4","","101.39","","","","-37","","Snow,Blowing Snow"
"-94.07","58.74","CHURCHILL A","5060605","2021-01-21 10:00","2021","01","21","10:00","-25.2","","-27.7","","80","","","","30","","16","","24.1","","101.41","","","","-36","","Blowing Snow"
"-94.07","58.74","CHURCHILL A","5060605","2021-01-21 11:00","2021","01","21","11:00","-24.8","","-27.2","","81","","","","30","","12","","24.1","","101.42","","","","-34","","NA"
"-94.07","58.74","CHURCHILL A","5060605","2021-01-21 12:00","2021","01","21","12:00","-25.2","","-27.7","","80","","","","29","","14","","24.1","","101.44","","","","-35","","Cloudy"
"-94.07","58.74","CHURCHILL A","5060605","2021-01-21 13:00","2021","01","21","13:00","-24.6","","-27.1","","80","","","","28","","13","","24.1","","101.43","","","","-34","","NA"
"-94.07","58.74","CHURCHILL A","5060605","2021-01-21 14:00","2021","01","21","14:00","-24.6","","-27.0","","81","","","","29","","11","","24.1","","101.44","","","","-33","","NA"
"-94.07","58.74","CHURCHILL A","5060605","2021-01-21 15:00","2021","01","21","15:00","-25.6","","-28.0","","81","","","","27","","9","","24.1","","101.48","","","","-33","","Mainly Clear"
"-94.07","58.74","CHURCHILL A","5060605","2021-01-21 16:00","2021","01","21","16:00","-25.7","","-28.3","","79","","","","26","","7","","24.1","","101.50","","","","-32","","NA"
"-94.07","58.74","CHURCHILL A","5060605","2021-01-21 17:00","2021","01","21","17:00","-26.1","","-28.7","","79","","","","26","","9","","24.1","","101.51","","","","-34","","NA"
"-94.07","58.74","CHURCHILL A","5060605","2021-01-21 18:00","2021","01","21","18:00","-26.7","","-29.5","","78","","","","28","","8","","24.1","","101.50","","","","-34","","Cloudy"
"-94.07","58.74","CHURCHILL A","5060605","2021-01-21 19:00","2021","01","21","19:00","-27.3","","-30.0","","78","","","","25","","8","","24.1","","101.50","","","","-35","","NA"
"-94.07","58.74","CHURCHILL A","5060605","2021-01-21 20:00","2021","01","21","20:00","-27.9","","-30.6","","78","","","","22","","8","","24.1","","101.50","","","","-36","","NA"
"-94.07","58.74","CHURCHILL A","5060605","2021-01-21 21:00","2021","01","21","21:00","-28.1","","-30.8","","78","","","","22","","6","","24.1","","101.45","","","","-34","","Mainly Clear"
"-94.07","58.74","CHURCHILL A","5060605","2021-01-21 22:00","2021","01","21","22:00","-28.8","","-31.5","","78","","","","25","","8","","24.1","","101.45","","","","-37","","NA"
"-94.07","58.74","CHURCHILL A","5060605","2021-01-21 23:00","2021","01","21","23:00","-29.2","","-31.9","","78","","","","25","","9","","24.1","","101.42","","","","-38","","NA"
"-94.07","58.74","CHURCHILL A","5060605","2021-01-22 00:00","2021","01","22","00:00","-29.9","","-32.7","","77","","","","26","","9","","24.1","","101.40","","","","-38","","Mainly Clear"
"-94.07","58.74","CHURCHILL A","5060605","2021-01-22 01:00","2021","01","22","01:00","-30.5","","-33.3","","77","","","","27","","8","","24.1","","101.40","","","","-39","","NA"
"-94.07","58.74","CHURCHILL A","5060605","2021-01-22 02:00","2021","01","22","02:00","-30.8","","-33.6","","77","","","","28","","8","","24.1","","101.38","","","","-39","","NA"
"-94.07","58.74","CHURCHILL A","5060605","2021-01-22 03:00","2021","01","22","03:00","-31.1","","-34.0","","76","","","","27","","9","","24.1","","101.34","","","","-40","","Cloudy"
"-94.07","58.74","CHURCHILL A","5060605","2021-01-22 04:00","2021","01","22","04:00","-31.2","","-34.1","","76","","","","26","","12","","24.1","","101.34","","","","-42","","NA"
"-94.07","58.74","CHURCHILL A","5060605","2021-01-22 05:00","2021","01","22","05:00","-31.6","","-34.5","","76","","","","27","","13","","24.1","","101.33","","","","-43","","NA"
"-94.07","58.74","CHURCHILL A","5060605","2021-01-22 06:00","2021","01","22","06:00","-32.2","","-35.1","","76","","","","27","","11","","24.1","","101.29","","","","-42","","Clear"
"-94.07","58.74","CHURCHILL A","5060605","2021-01-22 07:00","2021","01","22","07:00","-32.8","","-35.8","","75","","","","28","","13","","24.1","","101.29","","","","-44","","NA"
"-94.07","58.74","CHURCHILL A","5060605","2021-01-22 08:00","2021","01","22","08:00","-33.2","","-36.2","","75","","","","28","","12","","24.1","","101.29","","","","-44","","NA"
"-94.07","58.74","CHURCHILL A","5060605","2021-01-22 09:00","2021","01","22","09:00","-33.5","","-36.5","","75","","","","29","","13","","24.1","","101.31","","","","-45","","Clear"
"-94.07","58.74","CHURCHILL A","5060605","2021-01-22 10:00","2021","01","22","10:00","-33.0","","-36.0","","75","","","","28","","14","","24.1","","101.31","","","","-45","","NA"
"-94.07","58.74","CHURCHILL A","5060605","2021-01-22 11:00","2021","01","22","11:00","-32.3","","-35.3","","75","","","","28","","13","","24.1","","101.30","","","","-43","","NA"
"-94.07","58.74","CHURCHILL A","5060605","2021-01-22 12:00","2021","01","22","12:00","-31.0","","-33.9","","76","","","","27","","8","","24.1","","101.31","","","","-39","","Clear"
"-94.07","58.74","CHURCHILL A","5060605","2021-01-22 13:00","2021","01","22","13:00","-29.9","","-32.9","","76","","","","27","","8","","24.1","","101.30","","","","-38","","NA"
"-94.07","58.74","CHURCHILL A","5060605","2021-01-22 14:00","2021","01","22","14:00","-29.0","","-31.9","","77","","","","27","","10","","24.1","","101.32","","","","-38","","NA"
"-94.07","58.74","CHURCHILL A","5060605","2021-01-22 15:00","2021","01","22","15:00","-29.0","","-32.0","","76","","","","28","","9","","24.1","","101.36","","","","-37","","Mostly Cloudy"
"-94.07","58.74","CHURCHILL A","5060605","2021-01-22 16:00","2021","01","22","16:00","-29.8","","-32.8","","76","","","","26","","8","","24.1","","101.41","","","","-38","","NA"
"-94.07","58.74","CHURCHILL A","5060605","2021-01-22 17:00","2021","01","22","17:00","-30.7","","-33.6","","76","","","","25","","10","","24.1","","101.44","","","","-40","","NA"
"-94.07","58.74","CHURCHILL A","5060605","2021-01-22 18:00","2021","01","22","18:00","-31.2","","-34.1","","76","","","","26","","10","","24.1","","101.47","","","","-41","","Mainly Clear"
"-94.07","58.74","CHURCHILL A","5060605","2021-01-22 19:00","2021","01","22","19:00","-32.1","","-35.0","","76","","","","25","","12","","24.1","","101.51","","","","-43","","NA"
"-94.07","58.74","CHURCHILL A","5060605","2021-01-22 20:00","2021","01","22","20:00","-32.1","","-35.0","","76","","","","25","","10","","24.1","","101.54","","","","-42","","NA"
"-94.07","58.74","CHURCHILL A","5060605","2021-01-22 21:00","2021","01","22","21:00","-31.1","","-33.9","","77","","","","24","","10","","24.1","","101.59","","","","-40","","Cloudy"
"-94.07","58.74","CHURCHILL A","5060605","2021-01-22 22:00","2021","01","22","22:00","-30.6","","-33.4","","77","","","","25","","10","","24.1","","101.62","","","","-40","","NA"
"-94.07","58.74","CHURCHILL A","5060605","2021-01-22 23:00","2021","01","22","23:00","-29.8","","-32.6","","77","","","","27","","10","","24.1","","101.65","","","","-39","","NA"
"-94.07","58.74","CHURCHILL A","5060605","2021-01-23 00:00","2021","01","23","00:00","-30.0","","-32.8","","77","","","","26","","12","","12.9","","101.70","","","","-40","","Cloudy"
"-94.07","58.74","CHURCHILL A","5060605","2021-01-23 01:00","2021","01","23","01:00","-32.2","","-35.2","","75","","","","25","","11","","16.1","","101.76","","","","-42","","NA"
"-94.07","58.74","CHURCHILL A","5060605","2021-01-23 02:00","2021","01","23","02:00","-33.9","","-37.0","","74","","","","26","","13","","24.1","","101.82","","","","-45","","NA"
"-94.07","58.74","CHURCHILL A","5060605","2021-01-23 03:00","2021","01","23","03:00","-34.9","","-38.2","","73","","","","26","","11","","24.1","","101.90","","","","-46","","Clear"
"-94.07","58.74","CHURCHILL A","5060605","2021-01-23 04:00","2021","01","23","04:00","-35.4","","-38.6","","73","","","","23","","9","","24.1","","101.98","","","","-45","","NA"
"-94.07","58.74","CHURCHILL A","5060605","2021-01-23 05:00","2021","01","23","05:00","-36.1","","-39.5","","72","","","","25","","9","","24.1","","102.03","","","","-46","","NA"
"-94.07","58.74","CHURCHILL A","5060605","2021-01-23 06:00","2021","01","23","06:00","-35.6","","-38.8","","73","","","","27","","7","","24.1","","102.09","","","","-44","","Cloudy"
"-94.07","58.74","CHURCHILL A","5060605","2021-01-23 07:00","2021","01","23","07:00","-34.3","","-37.6","","73","","","","24","","5","","24.1","","102.13","","","","-41","","NA"
"-94.07","58.74","CHURCHILL A","5060605","2021-01-23 08:00","2021","01","23","08:00","-33.8","","-37.0","","74","","","","27","","8","","24.1","","102.17","","","","-42","","NA"
"-94.07","58.74","CHURCHILL A","5060605","2021-01-23 09:00","2021","01","23","09:00","-33.0","","-36.2","","74","","","","29","","6","","24.1","","102.23","","","","-40","","Mostly Cloudy"
"-94.07","58.74","CHURCHILL A","5060605","2021-01-23 10:00","2021","01","23","10:00","-32.2","","-35.4","","74","","","","26","","7","","24.1","","102.31","","","","-40","","NA"
"-94.07","58.74","CHURCHILL A","5060605","2021-01-23 11:00","2021","01","23","11:00","-31.3","","-34.4","","75","","","","29","","7","","24.1","","102.35","","","","-39","","NA"
"-94.07","58.74","CHURCHILL A","5060605","2021-01-23 12:00","2021","01","23","12:00","-30.7","","-33.8","","75","","","","28","","7","","24.1","","102.39","","","","-38","","Mainly Clear"
"-94.07","58.74","CHURCHILL A","5060605","2021-01-23 13:00","2021","01","23","13:00","-30.4","","-33.5","","75","","","","30","","7","","24.1","","102.39","","","","-38","","NA"
"-94.07","58.74","CHURCHILL A","5060605","2021-01-23 14:00","2021","01","23","14:00","-29.6","","-32.6","","76","","","","29","","7","","24.1","","102.47","","","","-37","","NA"
"-94.07","58.74","CHURCHILL A","5060605","2021-01-23 15:00","2021","01","23","15:00","-30.1","","-33.1","","75","","","","28","","6","","24.1","","102.48","","","","-37","","Mainly Clear"
"-94.07","58.74","CHURCHILL A","5060605","2021-01-23 16:00","2021","01","23","16:00","-30.1","","-33.2","","75","","","","36","","3","","24.1","","102.53","","","","-33","","NA"
"-94.07","58.74","CHURCHILL A","5060605","2021-01-23 17:00","2021","01","23","17:00","-29.0","","-31.7","","78","","","","7","","8","","3.2","","102.54","","","","-37","","Fog"
"-94.07","58.74","CHURCHILL A","5060605","2021-01-23 18:00","2021","01","23","18:00","-30.0","","-32.8","","77","","","","36","","3","","0.8","","102.57","","","","-33","","Freezing Fog"
"-94.07","58.74","CHURCHILL A","5060605","2021-01-23 19:00","2021","01","23","19:00","-30.2","","-33.2","","76","","","","9","","9","","2.4","","102.61","","","","-39","","Fog"
"-94.07","58.74","CHURCHILL A","5060605","2021-01-23 20:00","2021","01","23","20:00","-29.3","","-32.1","","77","","","","8","","8","","9.7","","102.62","","","","-37","","Fog"
"-94.07","58.74","CHURCHILL A","5060605","2021-01-23 21:00","2021","01","23","21:00","-31.1","","-34.2","","75","","","","36","","2","","1.6","","102.63","","","","-33","","Fog"
"-94.07","58.74","CHURCHILL A","5060605","2021-01-23 22:00","2021","01","23","22:00","-29.8","","-32.8","","76","","","","35","","6","","4.8","","102.62","","","","-36","","Fog"
"-94.07","58.74","CHURCHILL A","5060605","2021-01-23 23:00","2021","01","23","23:00","-28.2","","-30.9","","78","","","","4","","8","","24.1","","102.63","","","","-36","","NA"
"-94.07","58.74","CHURCHILL A","5060605","2021-01-24 00:00","2021","01","24","00:00","-27.2","","-29.9","","78","","","","7","","13","","24.1","","102.63","","","","-37","","Mostly Cloudy"
"-94.07","58.74","CHURCHILL A","5060605","2021-01-24 01:00","2021","01","24","01:00","-28.0","","-30.9","","77","","","","9","","10","","24.1","","102.65","","","","-37","","NA"
"-94.07","58.74","CHURCHILL A","5060605","2021-01-24 02:00","2021","01","24","02:00","-28.6","","-31.4","","77","","","","9","","10","","24.1","","102.64","","","","-37","","NA"
"-94.07","58.74","CHURCHILL A","5060605","2021-01-24 03:00","2021","01","24","03:00","-28.7","","-31.6","","77","","","","10","","10","","24.1","","102.67","","","","-38","","Clear"
"-94.07","58.74","CHURCHILL A","5060605","2021-01-24 04:00","2021","01","24","04:00","-29.2","","-32.0","","77","","","","10","","14","","24.1","","102.66","","","","-40","","NA"
"-94.07","58.74","CHURCHILL A","5060605","2021-01-24 05:00","2021","01","24","05:00","-29.5","","-32.4","","77","","","","8","","17","","24.1","","102.67","","","","-42","","NA"
"-94.07","58.74","CHURCHILL A","5060605","2021-01-24 06:00","2021","01","24","06:00","-29.1","","-31.9","","77","","","","8","","15","","24.1","","102.68","","","","-40","","Clear"
"-94.07","58.74","CHURCHILL A","5060605","2021-01-24 07:00","2021","01","24","07:00","-29.3","","-32.1","","77","","","","7","","14","","24.1","","102.68","","","","-40","","NA"
"-94.07","58.74","CHURCHILL A","5060605","2021-01-24 08:00","2021","01","24","08:00","-28.7","","-31.6","","77","","","","9","","15","","24.1","","102.70","","","","-40","","NA"
"-94.07","58.74","CHURCHILL A","5060605","2021-01-24 09:00","2021","01","24","09:00","-27.4","","-30.1","","78","","","","8","","12","","24.1","","102.73","","","","-37","","Cloudy"
"-94.07","58.74","CHURCHILL A","5060605","2021-01-24 10:00","2021","01","24","10:00","-26.1","","-28.7","","79","","","","7","","9","","24.1","","102.71","","","","-34","","NA"
"-94.07","58.74","CHURCHILL A","5060605","2021-01-24 11:00","2021","01","24","11:00","-25.7","","-28.3","","79","","","","11","","8","","24.1","","102.74","","","","-33","","NA"
"-94.07","58.74","CHURCHILL A","5060605","2021-01-24 12:00","2021","01","24","12:00","-25.2","","-27.9","","79","","","","8","","7","","24.1","","102.72","","","","-32","","Mostly Cloudy"
"-94.07","58.74","CHURCHILL A","5060605","2021-01-24 13:00","2021","01","24","13:00","-25.0","","-27.6","","79","","","","6","","5","","24.1","","102.71","","","","-30","","NA"
"-94.07","58.74","CHURCHILL A","5060605","2021-01-24 14:00","2021","01","24","14:00","-24.8","","-27.3","","80","","","","1","","4","","24.1","","102.71","","","","-29","","NA"
"-94.07","58.74","CHURCHILL A","5060605","2021-01-24 15:00","2021","01","24","15:00","-24.6","","-27.1","","80","","","","3","","13","","24.1","","102.70","","","","-34","","Mostly Cloudy"
"-94.07","58.74","CHURCHILL A","5060605","2021-01-24 16:00","2021","01","24","16:00","-24.3","","-26.8","","80","","","","3","","14","","24.1","","102.69","","","","-34","","NA"
"-94.07","58.74","CHURCHILL A","5060605","2021-01-24 17:00","2021","01","24","17:00","-23.2","","-25.6","","81","","","","3","","12","","24.1","","102.68","","","","-32","","NA"
"-94.07","58.74","CHURCHILL A","5060605","2021-01-24 18:00","2021","01","24","18:00","-22.5","","-24.8","","82","","","","3","","13","","24.1","","102.67","","","","-31","","Cloudy"
"-94.07","58.74","CHURCHILL A","5060605","2021-01-24 19:00","2021","01","24","19:00","-23.4","","-25.8","","81","","","","2","","13","","24.1","","102.67","","","","-33","","NA"
"-94.07","58.74","CHURCHILL A","5060605","2021-01-24 20:00","2021","01","24","20:00","-24.9","","-27.4","","80","","","","36","","13","","24.1","","102.69","","","","-34","","NA"
"-94.07","58.74","CHURCHILL A","5060605","2021-01-24 21:00","2021","01","24","21:00","-24.9","","-27.4","","80","","","","36","","15","","24.1","","102.67","","","","-35","","Clear"
"-94.07","58.74","CHURCHILL A","5060605","2021-01-24 22:00","2021","01","24","22:00","-24.8","","-27.3","","80","","","","36","","16","","24.1","","102.64","","","","-35","","NA"
"-94.07","58.74","CHURCHILL A","5060605","2021-01-24 23:00","2021","01","24","23:00","-23.7","","-26.1","","81","","","","36","","15","","24.1","","102.66","","","","-34","","NA"
"-94.07","58.74","CHURCHILL A","5060605","2021-01-25 00:00","2021","01","25","00:00","-21.2","","-23.4","","83","","","","3","","13","","24.1","","102.64","","","","-30","","Cloudy"
"-94.07","58.74","CHURCHILL A","5060605","2021-01-25 01:00","2021","01","25","01:00","-19.9","","-21.9","","84","","","","1","","11","","24.1","","102.63","","","","-28","","NA"
"-94.07","58.74","CHURCHILL A","5060605","2021-01-25 02:00","2021","01","25","02:00","-19.5","","-21.6","","84","","","","35","","14","","24.1","","102.64","","","","-28","","NA"
"-94.07","58.74","CHURCHILL A","5060605","2021-01-25 03:00","2021","01","25","03:00","-21.4","","-23.6","","83","","","","29","","11","","24.1","","102.63","","","","-29","","Cloudy"
"-94.07","58.74","CHURCHILL A","5060605","2021-01-25 04:00","2021","01","25","04:00","-19.3","","-21.4","","84","","","","32","","13","","24.1","","102.62","","","","-28","","NA"
"-94.07","58.74","CHURCHILL A","5060605","2021-01-25 05:00","2021","01","25","05:00","-18.8","","-20.7","","85","","","","34","","21","","4.8","","102.58","","","","-29","","Fog"
"-94.07","58.74","CHURCHILL A","5060605","2021-01-25 06:00","2021","01","25","06:00","-18.3","","-20.2","","85","","","","34","","25","","4.8","","102.53","","","","-29","","Fog"
"-94.07","58.74","CHURCHILL A","5060605","2021-01-25 07:00","2021","01","25","07:00","-18.0","","-19.9","","85","","","","34","","25","","8.1","","102.54","","","","-29","","Fog"
"-94.07","58.74","CHURCHILL A","5060605","2021-01-25 08:00","2021","01","25","08:00","-18.7","","-20.6","","85","","","","34","","25","","12.9","","102.55","","","","-30","","Fog"
"-94.07","58.74","CHURCHILL A","5060605","2021-01-25 09:00","2021","01","25","09:00","-20.6","","-22.8","","83","","","","34","","21","","24.1","","102.58","","","","-31","","Ice Crystals"
"-94.07","58.74","CHURCHILL A","5060605","2021-01-25 10:00","2021","01","25","10:00","-21.4","","-23.6","","83","","","","32","","17","","19.3","","102.58","","","","-31","","Ice Crystals"
"-94.07","58.74","CHURCHILL A","5060605","2021-01-25 11:00","2021","01","25","11:00","-21.3","","-23.5","","83","","","","31","","16","","24.1","","102.57","","","","-31","","Ice Crystals"
"-94.07","58.74","CHURCHILL A","5060605","2021-01-25 12:00","2021","01","25","12:00","-20.8","","-23.0","","83","","","","31","","18","","19.3","","102.55","","","","-31","","Ice Crystals,Blowing Snow"
"-94.07","58.74","CHURCHILL A","5060605","2021-01-25 13:00","2021","01","25","13:00","-20.9","","-23.1","","83","","","","33","","23","","4.8","","102.51","","","","-32","","Snow,Blowing Snow"
"-94.07","58.74","CHURCHILL A","5060605","2021-01-25 14:00","2021","01","25","14:00","-21.2","","-23.4","","83","","","","33","","22","","19.3","","102.51","","","","-32","","Snow,Blowing Snow"
"-94.07","58.74","CHURCHILL A","5060605","2021-01-25 15:00","2021","01","25","15:00","-21.3","","-23.5","","83","","","","33","","26","","19.3","","102.50","","","","-33","","Snow,Blowing Snow"
"-94.07","58.74","CHURCHILL A","5060605","2021-01-25 16:00","2021","01","25","16:00","-21.3","","-23.5","","83","","","","33","","27","","16.1","","102.48","","","","-34","","Snow,Blowing Snow"
"-94.07","58.74","CHURCHILL A","5060605","2021-01-25 17:00","2021","01","25","17:00","-21.4","","-23.6","","83","","","","32","","23","","4.8","","102.47","","","","-33","","Snow,Blowing Snow"
"-94.07","58.74","CHURCHILL A","5060605","2021-01-25 18:00","2021","01","25","18:00","-21.7","","-23.9","","83","","","","32","","26","","4.8","","102.48","","","","-34","","Snow,Blowing Snow"
"-94.07","58.74","CHURCHILL A","5060605","2021-01-25 19:00","2021","01","25","19:00","-21.6","","-23.8","","83","","","","32","","26","","4.8","","102.43","","","","-34","","Snow,Blowing Snow"
"-94.07","58.74","CHURCHILL A","5060605","2021-01-25 20:00","2021","01","25","20:00","-21.2","","-23.4","","83","","","","33","","22","","6.4","","102.42","","","","-32","","Snow,Blowing Snow"
"-94.07","58.74","CHURCHILL A","5060605","2021-01-25 21:00","2021","01","25","21:00","-20.9","","-23.1","","83","","","","33","","20","","16.1","","102.36","","","","-32","","Snow,Blowing Snow"
"-94.07","58.74","CHURCHILL A","5060605","2021-01-25 22:00","2021","01","25","22:00","-20.9","","-23.1","","83","","","","32","","22","","16.1","","102.32","","","","-32","","Snow,Blowing Snow"
"-94.07","58.74","CHURCHILL A","5060605","2021-01-25 23:00","2021","01","25","23:00","-20.9","","-23.1","","83","","","","32","","22","","6.4","","102.31","","","","-32","","Snow,Blowing Snow"
"-94.07","58.74","CHURCHILL A","5060605","2021-01-26 00:00","2021","01","26","00:00","-20.8","","-23.0","","83","","","","33","","21","","8.1","","102.31","","","","-32","","Snow,Blowing Snow"
"-94.07","58.74","CHURCHILL A","5060605","2021-01-26 01:00","2021","01","26","01:00","-21.0","","-23.2","","83","","","","33","","24","","6.4","","102.30","","","","-33","","Snow,Blowing Snow"
"-94.07","58.74","CHURCHILL A","5060605","2021-01-26 02:00","2021","01","26","02:00","-21.2","","-23.4","","83","","","","32","","19","","6.4","","102.35","","","","-32","","Snow,Blowing Snow"
"-94.07","58.74","CHURCHILL A","5060605","2021-01-26 03:00","2021","01","26","03:00","-21.3","","-23.5","","83","","","","31","","16","","8.1","","102.35","","","","-31","","Snow,Blowing Snow"
"-94.07","58.74","CHURCHILL A","5060605","2021-01-26 04:00","2021","01","26","04:00","-21.7","","-23.9","","83","","","","31","","15","","12.9","","102.36","","","","-31","","Snow,Blowing Snow"
"-94.07","58.74","CHURCHILL A","5060605","2021-01-26 05:00","2021","01","26","05:00","-22.4","","-24.7","","82","","","","31","","14","","19.3","","102.36","","","","-32","","Snow"
"-94.07","58.74","CHURCHILL A","5060605","2021-01-26 06:00","2021","01","26","06:00","-23.8","","-26.2","","81","","","","29","","10","","24.1","","102.36","","","","-32","","Snow"
"-94.07","58.74","CHURCHILL A","5060605","2021-01-26 07:00","2021","01","26","07:00","-24.4","","-26.8","","81","","","","27","","9","","24.1","","102.37","","","","-32","","NA"
"-94.07","58.74","CHURCHILL A","5060605","2021-01-26 08:00","2021","01","26","08:00","-24.9","","-27.4","","80","","","","25","","6","","24.1","","102.42","","","","-31","","NA"
"-94.07","58.74","CHURCHILL A","5060605","2021-01-26 09:00","2021","01","26","09:00","-26.0","","-28.6","","79","","","","26","","7","","24.1","","102.42","","","","-33","","Mainly Clear"
"-94.07","58.74","CHURCHILL A","5060605","2021-01-26 10:00","2021","01","26","10:00","-26.2","","-28.8","","79","","","","26","","8","","24.1","","102.47","","","","-34","","NA"
"-94.07","58.74","CHURCHILL A","5060605","2021-01-26 11:00","2021","01","26","11:00","-24.8","","-27.3","","80","","","","26","","7","","24.1","","102.48","","","","-31","","NA"
"-94.07","58.74","CHURCHILL A","5060605","2021-01-26 12:00","2021","01","26","12:00","-24.2","","-26.7","","80","","","","28","","7","","24.1","","102.49","","","","-31","","Mainly Clear"
"-94.07","58.74","CHURCHILL A","5060605","2021-01-26 13:00","2021","01","26","13:00","-22.9","","-25.3","","81","","","","27","","9","","24.1","","102.52","","","","-30","","NA"
"-94.07","58.74","CHURCHILL A","5060605","2021-01-26 14:00","2021","01","26","14:00","-22.5","","-24.8","","82","","","","28","","8","","24.1","","102.54","","","","-29","","NA"
"-94.07","58.74","CHURCHILL A","5060605","2021-01-26 15:00","2021","01","26","15:00","-22.7","","-25.0","","82","","","","27","","8","","24.1","","102.56","","","","-29","","Mainly Clear"
"-94.07","58.74","CHURCHILL A","5060605","2021-01-26 16:00","2021","01","26","16:00","-24.0","","-26.4","","81","","","","28","","10","","24.1","","102.61","","","","-32","","NA"
"-94.07","58.74","CHURCHILL A","5060605","2021-01-26 17:00","2021","01","26","17:00","-24.9","","-27.4","","80","","","","26","","9","","24.1","","102.66","","","","-33","","NA"
"-94.07","58.74","CHURCHILL A","5060605","2021-01-26 18:00","2021","01","26","18:00","-25.7","","-28.2","","80","","","","27","","9","","24.1","","102.69","","","","-33","","Mainly Clear"
"-94.07","58.74","CHURCHILL A","5060605","2021-01-26 19:00","2021","01","26","19:00","-26.1","","-28.7","","79","","","","25","","8","","24.1","","102.71","","","","-33","","NA"
"-94.07","58.74","CHURCHILL A","5060605","2021-01-26 20:00","2021","01","26","20:00","-26.7","","-29.3","","79","","","","24","","8","","24.1","","102.71","","","","-34","","NA"
"-94.07","58.74","CHURCHILL A","5060605","2021-01-26 21:00","2021","01","26","21:00","-27.0","","-29.6","","79","","","","24","","7","","24.1","","102.73","","","","-34","","Cloudy"
"-94.07","58.74","CHURCHILL A","5060605","2021-01-26 22:00","2021","01","26","22:00","-27.2","","-29.9","","78","","","","24","","8","","24.1","","102.72","","","","-35","","NA"
"-94.07","58.74","CHURCHILL A","5060605","2021-01-26 23:00","2021","01","26","23:00","-26.2","","-28.8","","79","","","","26","","5","","24.1","","102.74","","","","-31","","NA"
"-94.07","58.74","CHURCHILL A","5060605","2021-01-27 00:00","2021","01","27","00:00","-25.9","","-28.5","","79","","","","26","","11","","24.1","","102.77","","","","-35","","Cloudy"
"-94.07","58.74","CHURCHILL A","5060605","2021-01-27 01:00","2021","01","27","01:00","-26.7","","-29.3","","79","","","","26","","9","","24.1","","102.79","","","","-35","","NA"
"-94.07","58.74","CHURCHILL A","5060605","2021-01-27 02:00","2021","01","27","02:00","-28.1","","-30.8","","78","","","","26","","9","","24.1","","102.81","","","","-36","","NA"
"-94.07","58.74","CHURCHILL A","5060605","2021-01-27 03:00","2021","01","27","03:00","-28.9","","-31.8","","77","","","","25","","9","","24.1","","102.80","","","","-37","","Mainly Clear"
"-94.07","58.74","CHURCHILL A","5060605","2021-01-27 04:00","2021","01","27","04:00","-29.8","","-32.6","","77","","","","26","","9","","24.1","","102.82","","","","-38","","NA"
"-94.07","58.74","CHURCHILL A","5060605","2021-01-27 05:00","2021","01","27","05:00","-29.8","","-32.6","","77","","","","27","","10","","24.1","","102.83","","","","-39","","NA"
"-94.07","58.74","CHURCHILL A","5060605","2021-01-27 06:00","2021","01","27","06:00","-30.5","","-33.5","","76","","","","26","","10","","24.1","","102.84","","","","-40","","Mainly Clear"
"-94.07","58.74","CHURCHILL A","5060605","2021-01-27 07:00","2021","01","27","07:00","-30.8","","-33.7","","76","","","","28","","11","","24.1","","102.87","","","","-41","","NA"
"-94.07","58.74","CHURCHILL A","5060605","2021-01-27 08:00","2021","01","27","08:00","-30.7","","-33.6","","76","","","","27","","9","","24.1","","102.90","","","","-39","","NA"
"-94.07","58.74","CHURCHILL A","5060605","2021-01-27 09:00","2021","01","27","09:00","-30.6","","-33.5","","76","","","","27","","11","","24.1","","102.91","","","","-40","","Mainly Clear"
"-94.07","58.74","CHURCHILL A","5060605","2021-01-27 10:00","2021","01","27","10:00","-29.6","","-32.4","","77","","","","28","","11","","24.1","","102.94","","","","-39","","NA"
"-94.07","58.74","CHURCHILL A","5060605","2021-01-27 11:00","2021","01","27","11:00","-28.1","","-30.9","","78","","","","29","","10","","24.1","","102.95","","","","-37","","NA"
"-94.07","58.74","CHURCHILL A","5060605","2021-01-27 12:00","2021","01","27","12:00","-26.7","","-29.5","","78","","","","28","","10","","24.1","","102.96","","","","-35","","Clear"
"-94.07","58.74","CHURCHILL A","5060605","2021-01-27 13:00","2021","01","27","13:00","-25.1","","-27.6","","80","","","","30","","7","","24.1","","102.95","","","","-32","","NA"
"-94.07","58.74","CHURCHILL A","5060605","2021-01-27 14:00","2021","01","27","14:00","-24.0","","-26.5","","80","","","","30","","9","","24.1","","102.97","","","","-31","","NA"
"-94.07","58.74","CHURCHILL A","5060605","2021-01-27 15:00","2021","01","27","15:00","-23.9","","-26.4","","80","","","","30","","12","","24.1","","102.97","","","","-33","","Mainly Clear"
"-94.07","58.74","CHURCHILL A","5060605","2021-01-27 16:00","2021","01","27","16:00","-23.4","","-25.8","","81","","","","30","","10","","24.1","","103.08","","","","-31","","NA"
"-94.07","58.74","CHURCHILL A","5060605","2021-01-27 17:00","2021","01","27","17:00","-24.3","","-26.8","","80","","","","29","","9","","24.1","","103.11","","","","-32","","NA"
"-94.07","58.74","CHURCHILL A","5060605","2021-01-27 18:00","2021","01","27","18:00","-24.5","","-27.0","","80","","","","29","","10","","24.1","","103.14","","","","-33","","Mainly Clear"
"-94.07","58.74","CHURCHILL A","5060605","2021-01-27 19:00","2021","01","27","19:00","-24.9","","-27.4","","80","","","","27","","8","","24.1","","103.19","","","","-32","","NA"
"-94.07","58.74","CHURCHILL A","5060605","2021-01-27 20:00","2021","01","27","20:00","-24.8","","-27.3","","80","","","","28","","8","","24.1","","103.19","","","","-32","","NA"
"-94.07","58.74","CHURCHILL A","5060605","2021-01-27 21:00","2021","01","27","21:00","-25.1","","-27.6","","80","","","","29","","9","","24.1","","103.21","","","","-33","","Mainly Clear"
"-94.07","58.74","CHURCHILL A","5060605","2021-01-27 22:00","2021","01","27","22:00","-25.7","","-28.2","","80","","","","29","","12","","24.1","","103.23","","","","-35","","NA"
"-94.07","58.74","CHURCHILL A","5060605","2021-01-27 23:00","2021","01","27","23:00","-26.0","","-28.6","","79","","","","30","","12","","24.1","","103.22","","","","-35","","NA"
"-94.07","58.74","CHURCHILL A","5060605","2021-01-28 00:00","2021","01","28","00:00","-26.1","","-28.7","","79","","","","30","","12","","24.1","","103.25","","","","-35","","Mainly Clear"
"-94.07","58.74","CHURCHILL A","5060605","2021-01-28 01:00","2021","01","28","01:00","-26.6","","-29.2","","79","","","","28","","12","","24.1","","103.30","","","","-36","","NA"
"-94.07","58.74","CHURCHILL A","5060605","2021-01-28 02:00","2021","01","28","02:00","-27.4","","-30.1","","78","","","","28","","9","","24.1","","103.32","","","","-36","","NA"
"-94.07","58.74","CHURCHILL A","5060605","2021-01-28 03:00","2021","01","28","03:00","-27.5","","-30.2","","78","","","","27","","10","","24.1","","103.35","","","","-36","","Mainly Clear"
"-94.07","58.74","CHURCHILL A","5060605","2021-01-28 04:00","2021","01","28","04:00","-27.4","","-30.1","","78","","","","29","","10","","24.1","","103.36","","","","-36","","NA"
"-94.07","58.74","CHURCHILL A","5060605","2021-01-28 05:00","2021","01","28","05:00","-27.9","","-30.6","","78","","","","28","","13","","24.1","","103.40","","","","-38","","NA"
"-94.07","58.74","CHURCHILL A","5060605","2021-01-28 06:00","2021","01","28","06:00","-29.0","","-31.9","","77","","","","28","","10","","24.1","","103.44","","","","-38","","Clear"
"-94.07","58.74","CHURCHILL A","5060605","2021-01-28 07:00","2021","01","28","07:00","-28.9","","-31.8","","77","","","","28","","10","","24.1","","103.46","","","","-38","","NA"
"-94.07","58.74","CHURCHILL A","5060605","2021-01-28 08:00","2021","01","28","08:00","-29.2","","-32.0","","77","","","","26","","10","","24.1","","103.50","","","","-38","","NA"
"-94.07","58.74","CHURCHILL A","5060605","2021-01-28 09:00","2021","01","28","09:00","-29.5","","-32.3","","77","","","","25","","10","","24.1","","103.50","","","","-39","","Mainly Clear"
"-94.07","58.74","CHURCHILL A","5060605","2021-01-28 10:00","2021","01","28","10:00","-29.1","","-31.9","","77","","","","26","","9","","24.1","","103.47","","","","-38","","NA"
"-94.07","58.74","CHURCHILL A","5060605","2021-01-28 11:00","2021","01","28","11:00","-26.6","","-29.2","","79","","","","25","","6","","24.1","","103.43","","","","-33","","NA"
"-94.07","58.74","CHURCHILL A","5060605","2021-01-28 12:00","2021","01","28","12:00","-24.0","","-26.4","","81","","","","25","","7","","24.1","","103.41","","","","-30","","Clear"
"-94.07","58.74","CHURCHILL A","5060605","2021-01-28 13:00","2021","01","28","13:00","-22.9","","-25.5","","80","","","","24","","4","","24.1","","103.39","","","","-27","","NA"
"-94.07","58.74","CHURCHILL A","5060605","2021-01-28 14:00","2021","01","28","14:00","-21.2","","-23.5","","82","","","","21","","5","","24.1","","103.41","","","","-26","","NA"
"-94.07","58.74","CHURCHILL A","5060605","2021-01-28 15:00","2021","01","28","15:00","-22.0","","-24.3","","82","","","","23","","6","","24.1","","103.42","","","","-27","","Clear"
"-94.07","58.74","CHURCHILL A","5060605","2021-01-28 16:00","2021","01","28","16:00","-22.9","","-25.3","","81","","","","24","","7","","24.1","","103.43","","","","-29","","NA"
"-94.07","58.74","CHURCHILL A","5060605","2021-01-28 17:00","2021","01","28","17:00","-23.2","","-25.6","","81","","","","18","","10","","24.1","","103.39","","","","-31","","NA"
"-94.07","58.74","CHURCHILL A","5060605","2021-01-28 18:00","2021","01","28","18:00","-24.7","","-27.2","","80","","","","17","","14","","24.1","","103.37","","","","-35","","Mainly Clear"
"-94.07","58.74","CHURCHILL A","5060605","2021-01-28 19:00","2021","01","28","19:00","-25.9","","-28.5","","79","","","","17","","16","","24.1","","103.32","","","","-37","","NA"
"-94.07","58.74","CHURCHILL A","5060605","2021-01-28 20:00","2021","01","28","20:00","-27.1","","-29.9","","78","","","","18","","14","","24.1","","103.28","","","","-37","","NA"
"-94.07","58.74","CHURCHILL A","5060605","2021-01-28 21:00","2021","01","28","21:00","-27.8","","-30.5","","78","","","","18","","14","","24.1","","103.24","","","","-38","","Clear"
"-94.07","58.74","CHURCHILL A","5060605","2021-01-28 22:00","2021","01","28","22:00","-29.0","","-31.9","","77","","","","18","","13","","24.1","","103.20","","","","-39","","NA"
"-94.07","58.74","CHURCHILL A","5060605","2021-01-28 23:00","2021","01","28","23:00","-29.3","","-32.1","","77","","","","18","","16","","24.1","","103.16","","","","-41","","NA"
"-94.07","58.74","CHURCHILL A","5060605","2021-01-29 00:00","2021","01","29","00:00","-29.6","","-32.4","","77","","","","17","","15","","24.1","","103.14","","","","-41","","Mainly Clear"
"-94.07","58.74","CHURCHILL A","5060605","2021-01-29 01:00","2021","01","29","01:00","-29.6","","-32.5","","77","","","","18","","12","","24.1","","103.11","","","","-40","","NA"
"-94.07","58.74","CHURCHILL A","5060605","2021-01-29 02:00","2021","01","29","02:00","-28.9","","-31.8","","77","","","","17","","13","","24.1","","103.08","","","","-39","","NA"
"-94.07","58.74","CHURCHILL A","5060605","2021-01-29 03:00","2021","01","29","03:00","-28.8","","-31.6","","77","","","","16","","16","","24.1","","103.06","","","","-40","","Mainly Clear"
"-94.07","58.74","CHURCHILL A","5060605","2021-01-29 04:00","2021","01","29","04:00","-28.0","","-30.7","","78","","","","16","","17","","24.1","","102.98","","","","-40","","NA"
"-94.07","58.74","CHURCHILL A","5060605","2021-01-29 05:00","2021","01","29","05:00","-29.0","","-31.9","","77","","","","17","","12","","24.1","","102.97","","","","-39","","NA"
"-94.07","58.74","CHURCHILL A","5060605","2021-01-29 06:00","2021","01","29","06:00","-29.3","","-32.1","","77","","","","17","","14","","24.1","","102.93","","","","-40","","Mainly Clear"
"-94.07","58.74","CHURCHILL A","5060605","2021-01-29 07:00","2021","01","29","07:00","-28.4","","-31.3","","77","","","","17","","14","","24.1","","102.88","","","","-39","","NA"
"-94.07","58.74","CHURCHILL A","5060605","2021-01-29 08:00","2021","01","29","08:00","-28.0","","-30.7","","78","","","","17","","17","","24.1","","102.82","","","","-40","","NA"
"-94.07","58.74","CHURCHILL A","5060605","2021-01-29 09:00","2021","01","29","09:00","-27.6","","-30.3","","78","","","","16","","17","","24.1","","102.79","","","","-39","","Mainly Clear"
"-94.07","58.74","CHURCHILL A","5060605","2021-01-29 10:00","2021","01","29","10:00","-26.2","","-28.8","","79","","","","17","","14","","24.1","","102.75","","","","-36","","NA"
"-94.07","58.74","CHURCHILL A","5060605","2021-01-29 11:00","2021","01","29","11:00","-22.9","","-25.3","","81","","","","16","","20","","24.1","","102.66","","","","-34","","NA"
"-94.07","58.74","CHURCHILL A","5060605","2021-01-29 12:00","2021","01","29","12:00","-20.4","","-22.6","","83","","","","17","","21","","24.1","","102.61","","","","-31","","Mainly Clear"
"-94.07","58.74","CHURCHILL A","5060605","2021-01-29 13:00","2021","01","29","13:00","-19.5","","-21.6","","84","","","","17","","21","","24.1","","102.52","","","","-30","","NA"
"-94.07","58.74","CHURCHILL A","5060605","2021-01-29 14:00","2021","01","29","14:00","-18.4","","-20.3","","85","","","","16","","24","","24.1","","102.44","","","","-29","","NA"
"-94.07","58.74","CHURCHILL A","5060605","2021-01-29 15:00","2021","01","29","15:00","-19.0","","-21.1","","84","","","","16","","24","","24.1","","102.39","","","","-30","","Mostly Cloudy"
"-94.07","58.74","CHURCHILL A","5060605","2021-01-29 16:00","2021","01","29","16:00","-19.5","","-21.6","","84","","","","15","","23","","24.1","","102.37","","","","-31","","NA"
"-94.07","58.74","CHURCHILL A","5060605","2021-01-29 17:00","2021","01","29","17:00","-19.4","","-21.5","","84","","","","16","","23","","24.1","","102.33","","","","-30","","NA"
"-94.07","58.74","CHURCHILL A","5060605","2021-01-29 18:00","2021","01","29","18:00","-19.5","","-21.6","","84","","","","16","","24","","24.1","","102.28","","","","-31","","Mostly Cloudy"
"-94.07","58.74","CHURCHILL A","5060605","2021-01-29 19:00","2021","01","29","19:00","-18.5","","-20.6","","84","","","","17","","24","","24.1","","102.25","","","","-29","","NA"
"-94.07","58.74","CHURCHILL A","5060605","2021-01-29 20:00","2021","01","29","20:00","-18.3","","-20.4","","84","","","","17","","27","","24.1","","102.19","","","","-30","","Snow"
"-94.07","58.74","CHURCHILL A","5060605","2021-01-29 21:00","2021","01","29","21:00","-17.6","","-19.7","","84","","","","16","","30","","24.1","","102.14","","","","-29","","Snow"
"-94.07","58.74","CHURCHILL A","5060605","2021-01-29 22:00","2021","01","29","22:00","-16.9","","-19.1","","83","","","","17","","27","","24.1","","102.08","","","","-28","","NA"
"-94.07","58.74","CHURCHILL A","5060605","2021-01-29 23:00","2021","01","29","23:00","-16.3","","-18.7","","82","","","","17","","23","","24.1","","102.06","","","","-26","","NA"
"-94.07","58.74","CHURCHILL A","5060605","2021-01-30 00:00","2021","01","30","00:00","-16.2","","-18.8","","81","","","","17","","24","","24.1","","102.05","","","","-27","","Mostly Cloudy"
"-94.07","58.74","CHURCHILL A","5060605","2021-01-30 01:00","2021","01","30","01:00","-16.4","","-18.9","","81","","","","18","","21","","24.1","","102.06","","","","-26","","NA"
"-94.07","58.74","CHURCHILL A","5060605","2021-01-30 02:00","2021","01","30","02:00","-16.2","","-19.0","","79","","","","17","","20","","24.1","","102.05","","","","-26","","NA"
"-94.07","58.74","CHURCHILL A","5060605","2021-01-30 03:00","2021","01","30","03:00","-17.0","","-19.7","","80","","","","17","","21","","24.1","","102.02","","","","-27","","Mostly Cloudy"
"-94.07","58.74","CHURCHILL A","5060605","2021-01-30 04:00","2021","01","30","04:00","-17.6","","-20.3","","80","","","","17","","16","","24.1","","102.02","","","","-26","","NA"
"-94.07","58.74","CHURCHILL A","5060605","2021-01-30 05:00","2021","01","30","05:00","-17.8","","-20.3","","81","","","","18","","16","","24.1","","102.01","","","","-27","","NA"
"-94.07","58.74","CHURCHILL A","5060605","2021-01-30 06:00","2021","01","30","06:00","-17.8","","-20.3","","81","","","","17","","15","","24.1","","102.00","","","","-26","","Mostly Cloudy"
"-94.07","58.74","CHURCHILL A","5060605","2021-01-30 07:00","2021","01","30","07:00","-18.3","","-20.7","","82","","","","18","","13","","24.1","","102.02","","","","-26","","NA"
"-94.07","58.74","CHURCHILL A","5060605","2021-01-30 08:00","2021","01","30","08:00","-19.2","","-21.4","","83","","","","17","","15","","24.1","","102.02","","","","-28","","NA"
"-94.07","58.74","CHURCHILL A","5060605","2021-01-30 09:00","2021","01","30","09:00","-20.0","","-22.1","","84","","","","17","","13","","24.1","","102.04","","","","-28","","Mainly Clear"
"-94.07","58.74","CHURCHILL A","5060605","2021-01-30 10:00","2021","01","30","10:00","-19.7","","-21.9","","83","","","","18","","10","","24.1","","102.06","","","","-27","","NA"
"-94.07","58.74","CHURCHILL A","5060605","2021-01-30 11:00","2021","01","30","11:00","-17.6","","-20.6","","78","","","","18","","14","","24.1","","102.07","","","","-26","","NA"
"-94.07","58.74","CHURCHILL A","5060605","2021-01-30 12:00","2021","01","30","12:00","-16.3","","-19.8","","75","","","","18","","10","","24.1","","102.05","","","","-23","","Mainly Clear"
"-94.07","58.74","CHURCHILL A","5060605","2021-01-30 13:00","2021","01","30","13:00","-16.0","","-19.9","","72","","","","17","","7","","24.1","","102.06","","","","-21","","NA"
"-94.07","58.74","CHURCHILL A","5060605","2021-01-30 14:00","2021","01","30","14:00","-16.4","","-20.0","","74","","","","15","","10","","24.1","","102.04","","","","-23","","NA"
"-94.07","58.74","CHURCHILL A","5060605","2021-01-30 15:00","2021","01","30","15:00","-15.3","","-19.4","","71","","","","16","","8","","24.1","","102.07","","","","-21","","Mainly Clear"
"-94.07","58.74","CHURCHILL A","5060605","2021-01-30 16:00","2021","01","30","16:00","-16.5","","-19.6","","77","","","","14","","11","","24.1","","102.09","","","","-23","","NA"
"-94.07","58.74","CHURCHILL A","5060605","2021-01-30 17:00","2021","01","30","17:00","-16.5","","-19.5","","78","","","","14","","7","","24.1","","102.14","","","","-22","","NA"
"-94.07","58.74","CHURCHILL A","5060605","2021-01-30 18:00","2021","01","30","18:00","-17.2","","-20.0","","79","","","","16","","12","","24.1","","102.15","","","","-25","","Mostly Cloudy"
"-94.07","58.74","CHURCHILL A","5060605","2021-01-30 19:00","2021","01","30","19:00","-17.7","","-20.1","","82","","","","18","","7","","24.1","","102.15","","","","-23","","NA"
"-94.07","58.74","CHURCHILL A","5060605","2021-01-30 20:00","2021","01","30","20:00","-18.2","","-20.3","","84","","","","17","","10","","24.1","","102.16","","","","-25","","NA"
"-94.07","58.74","CHURCHILL A","5060605","2021-01-30 21:00","2021","01","30","21:00","-17.6","","-19.8","","83","","","","20","","4","","24.1","","102.18","","","","-21","","Cloudy"
"-94.07","58.74","CHURCHILL A","5060605","2021-01-30 22:00","2021","01","30","22:00","-17.9","","-20.0","","84","","","","21","","4","","24.1","","102.17","","","","-21","","NA"
"-94.07","58.74","CHURCHILL A","5060605","2021-01-30 23:00","2021","01","30","23:00","-17.8","","-19.9","","84","","","","36","","3","","24.1","","102.14","","","","-20","","NA"
"-94.07","58.74","CHURCHILL A","5060605","2021-01-31 00:00","2021","01","31","00:00","-17.1","","-19.3","","83","","","","20","","4","","24.1","","102.18","","","","-20","","Cloudy"
"-94.07","58.74","CHURCHILL A","5060605","2021-01-31 01:00","2021","01","31","01:00","-16.8","","-19.2","","82","","","","15","","5","","24.1","","102.17","","","","-21","","NA"
"-94.07","58.74","CHURCHILL A","5060605","2021-01-31 02:00","2021","01","31","02:00","-16.4","","-18.9","","81","","","","21","","7","","24.1","","102.21","","","","-21","","NA"
"-94.07","58.74","CHURCHILL A","5060605","2021-01-31 03:00","2021","01","31","03:00","-16.2","","-18.4","","83","","","","27","","7","","24.1","","102.24","","","","-21","","Cloudy"
"-94.07","58.74","CHURCHILL A","5060605","2021-01-31 04:00","2021","01","31","04:00","-15.9","","-17.7","","86","","","","29","","8","","24.1","","102.26","","","","-21","","NA"
"-94.07","58.74","CHURCHILL A","5060605","2021-01-31 05:00","2021","01","31","05:00","-15.3","","-17.0","","87","","","","27","","7","","16.1","","102.28","","","","-20","","Snow"
"-94.07","58.74","CHURCHILL A","5060605","2021-01-31 06:00","2021","01","31","06:00","-13.8","","-15.2","","89","","","","35","","11","","19.3","","102.29","","","","-20","","Snow"
"-94.07","58.74","CHURCHILL A","5060605","2021-01-31 07:00","2021","01","31","07:00","-12.8","","-14.4","","88","","","","36","","14","","12.9","","102.32","","","","-20","","Snow"
"-94.07","58.74","CHURCHILL A","5060605","2021-01-31 08:00","2021","01","31","08:00","-12.9","","-14.5","","88","","","","36","","19","","12.9","","102.34","","","","-21","","Snow"
"-94.07","58.74","CHURCHILL A","5060605","2021-01-31 09:00","2021","01","31","09:00","-13.0","","-14.6","","88","","","","36","","13","","9.7","","102.36","","","","-20","","Snow"
"-94.07","58.74","CHURCHILL A","5060605","2021-01-31 10:00","2021","01","31","10:00","-12.9","","-14.5","","88","","","","36","","14","","8.1","","102.37","","","","-20","","Snow"
"-94.07","58.74","CHURCHILL A","5060605","2021-01-31 11:00","2021","01","31","11:00","-12.9","","-14.6","","87","","","","36","","13","","8.1","","102.39","","","","-20","","Snow"
"-94.07","58.74","CHURCHILL A","5060605","2021-01-31 12:00","2021","01","31","12:00","-13.1","","-15.1","","85","","","","34","","17","","6.4","","102.39","","","","-21","","Snow"
"-94.07","58.74","CHURCHILL A","5060605","2021-01-31 13:00","2021","01","31","13:00","-13.3","","-15.2","","86","","","","35","","17","","8.1","","102.39","","","","-21","","Snow"
"-94.07","58.74","CHURCHILL A","5060605","2021-01-31 14:00","2021","01","31","14:00","-13.5","","-15.4","","86","","","","35","","18","","9.7","","102.41","","","","-22","","Snow"
"-94.07","58.74","CHURCHILL A","5060605","2021-01-31 15:00","2021","01","31","15:00","-13.5","","-15.4","","86","","","","35","","17","","9.7","","102.43","","","","-22","","Snow"
"-94.07","58.74","CHURCHILL A","5060605","2021-01-31 16:00","2021","01","31","16:00","-13.5","","-15.4","","86","","","","36","","14","","12.9","","102.45","","","","-21","","Snow"
"-94.07","58.74","CHURCHILL A","5060605","2021-01-31 17:00","2021","01","31","17:00","-13.8","","-15.8","","85","","","","36","","18","","16.1","","102.47","","","","-22","","Snow"
"-94.07","58.74","CHURCHILL A","5060605","2021-01-31 18:00","2021","01","31","18:00","-13.9","","-15.6","","87","","","","36","","13","","12.9","","102.49","","","","-21","","Snow"
"-94.07","58.74","CHURCHILL A","5060605","2021-01-31 19:00","2021","01","31","19:00","-13.9","","-15.6","","87","","","","35","","12","","16.1","","102.49","","","","-21","","Snow"
"-94.07","58.74","CHURCHILL A","5060605","2021-01-31 20:00","2021","01","31","20:00","-14.3","","-15.9","","88","","","","35","","16","","16.1","","102.49","","","","-22","","Snow"
"-94.07","58.74","CHURCHILL A","5060605","2021-01-31 21:00","2021","01","31","21:00","-14.6","","-16.2","","88","","","","35","","14","","16.1","","102.48","","","","-22","","Snow"
"-94.07","58.74","CHURCHILL A","5060605","2021-01-31 22:00","2021","01","31","22:00","-14.8","","-16.5","","87","","","","36","","14","","19.3","","102.48","","","","-22","","Snow"
"-94.07","58.74","CHURCHILL A","5060605","2021-01-31 23:00","2021","01","31","23:00","-15.1","","-16.8","","87","","","","36","","16","","19.3","","102.47","","","","-23","","Snow"
