"Longitude (x)","Latitude (y)","Station Name","Climate ID","Date/Time (LST)","Year","Month","Day","Time (LST)","Temp (°C)","Temp Flag","Dew Point Temp (°C)","Dew Point Temp Flag","Rel Hum (%)","Rel Hum Flag","Precip. Amount (mm)","Precip. Amount Flag","Wind Dir (10s deg)","Wind Dir Flag","Wind Spd (km/h)","Wind Spd Flag","Visibility (km)","Visibility Flag","Stn Press (kPa)","Stn Press Flag","Hmdx","Hmdx Flag","Wind Chill","Wind Chill Flag","Weather"
"-94.07","58.74","CHURCHILL A","5060605","2021-03-01 00:00","2021","03","01","00:00","-30.0","","-33.7","","71","","","","29","","20","","24.1","","101.27","","","","-43","","Ice Crystals"
"-94.07","58.74","CHURCHILL A","5060605","2021-03-01 01:00","2021","03","01","01:00","-30.3","","-34.6","","67","","","","28","","15","","24.1","","101.28","","","","-42","","Ice Crystals"
"-94.07","58.74","CHURCHILL A","5060605","2021-03-01 02:00","2021","03","01","02:00","-30.8","","-35.1","","67","","","","28","","15","","24.1","","101.32","","","","-42","","Ice Crystals"
"-94.07","58.74","CHURCHILL A","5060605","2021-03-01 03:00","2021","03","01","03:00","-29.9","","-34.5","","65","","","","29","","8","","24.1","","101.33","","","","-38","","Ice Crystals"
"-94.07","58.74","CHURCHILL A","5060605","2021-03-01 04:00","2021","03","01","04:00","-28.7","","-33.9","","62","","","","29","","12","","24.1","","101.31","","","","-39","","Ice Crystals"
"-94.07","58.74","CHURCHILL A","5060605","2021-03-01 05:00","2021","03","01","05:00","-28.8","","-33.8","","63","","","","30","","18","","24.1","","101.30","","","","-41","","Ice Crystals"
"-94.07","58.74","CHURCHILL A","5060605","2021-03-01 06:00","2021","03","01","06:00","-29.2","","-33.7","","66","","","","29","","18","","24.1","","101.30","","","","-41","","Clear"
"-94.07","58.74","CHURCHILL A","5060605","2021-03-01 07:00","2021","03","01","07:00","-29.7","","-34.3","","65","","","","27","","19","","24.1","","101.27","","","","-42","","NA"
"-94.07","58.74","CHURCHILL A","5060605","2021-03-01 08:00","2021","03","01","08:00","-28.6","","-33.6","","63","","","","27","","20","","24.1","","101.26","","","","-41","","NA"
"-94.07","58.74","CHURCHILL A","5060605","2021-03-01 09:00","2021","03","01","09:00","-28.1","","-33.5","","61","","","","27","","20","","24.1","","101.20","","","","-41","","Mainly Clear"
"-94.07","58.74","CHURCHILL A","5060605","2021-03-01 10:00","2021","03","01","10:00","-26.4","","-31.8","","61","","","","27","","16","","24.1","","101.20","","","","-37","","NA"
"-94.07","58.74","CHURCHILL A","5060605","2021-03-01 11:00","2021","03","01","11:00","-24.5","","-30.4","","59","","","","28","","21","","24.1","","101.16","","","","-36","","NA"
"-94.07","58.74","CHURCHILL A","5060605","2021-03-01 12:00","2021","03","01","12:00","-23.0","","-29.3","","57","","","","26","","23","","24.1","","101.11","","","","-35","","Mostly Cloudy"
"-94.07","58.74","CHURCHILL A","5060605","2021-03-01 13:00","2021","03","01","13:00","-22.0","","-28.4","","57","","","","26","","24","","24.1","","101.10","","","","-34","","NA"
"-94.07","58.74","CHURCHILL A","5060605","2021-03-01 14:00","2021","03","01","14:00","-21.0","","-27.3","","58","","","","26","","26","","24.1","","101.06","","","","-33","","NA"
"-94.07","58.74","CHURCHILL A","5060605","2021-03-01 15:00","2021","03","01","15:00","-20.1","","-26.6","","57","","","","26","","22","","24.1","","101.00","","","","-31","","Mostly Cloudy"
"-94.07","58.74","CHURCHILL A","5060605","2021-03-01 16:00","2021","03","01","16:00","-20.0","","-27.1","","54","","","","26","","17","","24.1","","100.95","","","","-30","","NA"
"-94.07","58.74","CHURCHILL A","5060605","2021-03-01 17:00","2021","03","01","17:00","-20.4","","-27.1","","56","","","","26","","11","","24.1","","100.94","","","","-28","","NA"
"-94.07","58.74","CHURCHILL A","5060605","2021-03-01 18:00","2021","03","01","18:00","-21.9","","-27.7","","60","","","","26","","10","","24.1","","100.88","","","","-29","","Mainly Clear"
"-94.07","58.74","CHURCHILL A","5060605","2021-03-01 19:00","2021","03","01","19:00","-22.0","","-28.0","","59","","","","24","","8","","24.1","","100.86","","","","-29","","NA"
"-94.07","58.74","CHURCHILL A","5060605","2021-03-01 20:00","2021","03","01","20:00","-22.6","","-29.1","","56","","","","24","","10","","24.1","","100.78","","","","-30","","NA"
"-94.07","58.74","CHURCHILL A","5060605","2021-03-01 21:00","2021","03","01","21:00","-22.3","","-29.7","","52","","","","22","","9","","24.1","","100.68","","","","-29","","Cloudy"
"-94.07","58.74","CHURCHILL A","5060605","2021-03-01 22:00","2021","03","01","22:00","-22.4","","-29.8","","52","","","","25","","7","","24.1","","100.63","","","","-28","","NA"
"-94.07","58.74","CHURCHILL A","5060605","2021-03-01 23:00","2021","03","01","23:00","-22.9","","-30.0","","53","","","","20","","5","","24.1","","100.57","","","","-28","","NA"
"-94.07","58.74","CHURCHILL A","5060605","2021-03-02 00:00","2021","03","02","00:00","-20.1","","-26.7","","57","","","","36","","2","","24.1","","100.54","","","","-22","","Mostly Cloudy"
"-94.07","58.74","CHURCHILL A","5060605","2021-03-02 01:00","2021","03","02","01:00","-20.6","","-30.7","","41","","","","32","","7","","24.1","","100.49","","","","-26","","NA"
"-94.07","58.74","CHURCHILL A","5060605","2021-03-02 02:00","2021","03","02","02:00","-22.2","","-29.4","","53","","","","32","","10","","24.1","","100.48","","","","-30","","NA"
"-94.07","58.74","CHURCHILL A","5060605","2021-03-02 03:00","2021","03","02","03:00","-24.5","","-29.5","","64","","","","26","","5","","24.1","","100.47","","","","-29","","Mainly Clear"
"-94.07","58.74","CHURCHILL A","5060605","2021-03-02 04:00","2021","03","02","04:00","-24.5","","-28.5","","70","","","","29","","9","","24.1","","100.47","","","","-32","","NA"
"-94.07","58.74","CHURCHILL A","5060605","2021-03-02 05:00","2021","03","02","05:00","-24.7","","-26.9","","82","","","","36","","2","","24.1","","100.49","","","","-27","","NA"
"-94.07","58.74","CHURCHILL A","5060605","2021-03-02 06:00","2021","03","02","06:00","-24.4","","-26.8","","81","","","","35","","7","","19.3","","100.55","","","","-31","","Snow"
"-94.07","58.74","CHURCHILL A","5060605","2021-03-02 07:00","2021","03","02","07:00","-24.6","","-27.1","","80","","","","26","","5","","24.1","","100.62","","","","-29","","NA"
"-94.07","58.74","CHURCHILL A","5060605","2021-03-02 08:00","2021","03","02","08:00","-23.3","","-25.7","","81","","","","30","","9","","19.3","","100.66","","","","-31","","Snow"
"-94.07","58.74","CHURCHILL A","5060605","2021-03-02 09:00","2021","03","02","09:00","-21.7","","-24.1","","81","","","","26","","4","","19.3","","100.72","","","","-25","","Snow"
"-94.07","58.74","CHURCHILL A","5060605","2021-03-02 10:00","2021","03","02","10:00","-18.5","","-21.6","","77","","","","3","","11","","19.3","","100.80","","","","-26","","Snow"
"-94.07","58.74","CHURCHILL A","5060605","2021-03-02 11:00","2021","03","02","11:00","-18.1","","-21.4","","76","","","","4","","10","","12.9","","100.87","","","","-25","","Snow"
"-94.07","58.74","CHURCHILL A","5060605","2021-03-02 12:00","2021","03","02","12:00","-19.0","","-21.6","","80","","","","35","","26","","6.4","","100.96","","","","-31","","Snow"
"-94.07","58.74","CHURCHILL A","5060605","2021-03-02 13:00","2021","03","02","13:00","-20.0","","-22.2","","83","","","","34","","24","","8.1","","101.03","","","","-31","","Snow,Blowing Snow"
"-94.07","58.74","CHURCHILL A","5060605","2021-03-02 14:00","2021","03","02","14:00","-20.2","","-22.5","","82","","","","35","","21","","8.1","","101.09","","","","-31","","Snow,Blowing Snow"
"-94.07","58.74","CHURCHILL A","5060605","2021-03-02 15:00","2021","03","02","15:00","-20.5","","-22.7","","83","","","","34","","15","","12.9","","101.16","","","","-30","","Snow,Blowing Snow"
"-94.07","58.74","CHURCHILL A","5060605","2021-03-02 16:00","2021","03","02","16:00","-20.4","","-22.7","","82","","","","34","","18","","8.1","","101.30","","","","-30","","Snow"
"-94.07","58.74","CHURCHILL A","5060605","2021-03-02 17:00","2021","03","02","17:00","-21.3","","-23.3","","84","","","","34","","16","","16.1","","101.40","","","","-31","","Snow"
"-94.07","58.74","CHURCHILL A","5060605","2021-03-02 18:00","2021","03","02","18:00","-21.8","","-23.8","","84","","","","34","","15","","24.1","","101.45","","","","-31","","Cloudy"
"-94.07","58.74","CHURCHILL A","5060605","2021-03-02 19:00","2021","03","02","19:00","-22.3","","-24.3","","84","","","","34","","10","","24.1","","101.50","","","","-30","","NA"
"-94.07","58.74","CHURCHILL A","5060605","2021-03-02 20:00","2021","03","02","20:00","-22.2","","-24.2","","84","","","","1","","4","","24.1","","101.49","","","","-26","","Snow"
"-94.07","58.74","CHURCHILL A","5060605","2021-03-02 21:00","2021","03","02","21:00","-22.0","","-24.1","","83","","","","34","","8","","24.1","","101.54","","","","-29","","Snow"
"-94.07","58.74","CHURCHILL A","5060605","2021-03-02 22:00","2021","03","02","22:00","-21.9","","-24.1","","83","","","","1","","3","","24.1","","101.57","","","","-25","","Snow"
"-94.07","58.74","CHURCHILL A","5060605","2021-03-02 23:00","2021","03","02","23:00","-21.8","","-24.0","","83","","","","11","","7","","24.1","","101.60","","","","-28","","Snow"
"-94.07","58.74","CHURCHILL A","5060605","2021-03-03 00:00","2021","03","03","00:00","-22.0","","-24.2","","83","","","","13","","10","","24.1","","101.63","","","","-30","","Snow"
"-94.07","58.74","CHURCHILL A","5060605","2021-03-03 01:00","2021","03","03","01:00","-21.8","","-24.0","","83","","","","13","","10","","24.1","","101.67","","","","-29","","Snow"
"-94.07","58.74","CHURCHILL A","5060605","2021-03-03 02:00","2021","03","03","02:00","-21.5","","-23.7","","83","","","","13","","11","","24.1","","101.70","","","","-29","","Snow"
"-94.07","58.74","CHURCHILL A","5060605","2021-03-03 03:00","2021","03","03","03:00","-20.9","","-23.1","","83","","","","14","","13","","24.1","","101.74","","","","-30","","Snow"
"-94.07","58.74","CHURCHILL A","5060605","2021-03-03 04:00","2021","03","03","04:00","-20.1","","-22.3","","83","","","","15","","17","","24.1","","101.75","","","","-30","","Snow"
"-94.07","58.74","CHURCHILL A","5060605","2021-03-03 05:00","2021","03","03","05:00","-19.5","","-21.8","","82","","","","15","","21","","24.1","","101.75","","","","-30","","Snow"
"-94.07","58.74","CHURCHILL A","5060605","2021-03-03 06:00","2021","03","03","06:00","-19.3","","-21.5","","83","","","","16","","21","","24.1","","101.78","","","","-30","","Snow"
"-94.07","58.74","CHURCHILL A","5060605","2021-03-03 07:00","2021","03","03","07:00","-19.9","","-21.9","","84","","","","15","","23","","24.1","","101.83","","","","-31","","Blowing Snow"
"-94.07","58.74","CHURCHILL A","5060605","2021-03-03 08:00","2021","03","03","08:00","-19.8","","-21.9","","84","","","","16","","26","","24.1","","101.82","","","","-32","","Ice Crystals,Blowing Snow"
"-94.07","58.74","CHURCHILL A","5060605","2021-03-03 09:00","2021","03","03","09:00","-19.3","","-21.6","","82","","","","16","","32","","24.1","","101.86","","","","-32","","Ice Crystals,Blowing Snow"
"-94.07","58.74","CHURCHILL A","5060605","2021-03-03 10:00","2021","03","03","10:00","-18.9","","-21.7","","79","","","","16","","34","","24.1","","101.82","","","","-32","","Ice Crystals,Blowing Snow"
"-94.07","58.74","CHURCHILL A","5060605","2021-03-03 11:00","2021","03","03","11:00","-18.0","","-21.4","","75","","","","16","","32","","24.1","","101.84","","","","-30","","Ice Crystals,Blowing Snow"
"-94.07","58.74","CHURCHILL A","5060605","2021-03-03 12:00","2021","03","03","12:00","-17.3","","-20.6","","76","","","","16","","31","","24.1","","101.83","","","","-29","","Ice Crystals,Blowing Snow"
"-94.07","58.74","CHURCHILL A","5060605","2021-03-03 13:00","2021","03","03","13:00","-16.1","","-19.7","","74","","","","16","","28","","24.1","","101.82","","","","-27","","Ice Crystals"
"-94.07","58.74","CHURCHILL A","5060605","2021-03-03 14:00","2021","03","03","14:00","-15.9","","-19.5","","74","","","","16","","27","","24.1","","101.78","","","","-27","","NA"
"-94.07","58.74","CHURCHILL A","5060605","2021-03-03 15:00","2021","03","03","15:00","-15.4","","-19.2","","73","","","","16","","32","","24.1","","101.75","","","","-27","","Mainly Clear"
"-94.07","58.74","CHURCHILL A","5060605","2021-03-03 16:00","2021","03","03","16:00","-15.0","","-18.7","","74","","","","16","","30","","24.1","","101.79","","","","-26","","NA"
"-94.07","58.74","CHURCHILL A","5060605","2021-03-03 17:00","2021","03","03","17:00","-15.3","","-18.8","","75","","","","17","","34","","24.1","","101.83","","","","-27","","NA"
"-94.07","58.74","CHURCHILL A","5060605","2021-03-03 18:00","2021","03","03","18:00","-14.9","","-18.4","","75","","","","16","","29","","24.1","","101.87","","","","-26","","Cloudy"
"-94.07","58.74","CHURCHILL A","5060605","2021-03-03 19:00","2021","03","03","19:00","-14.2","","-17.9","","74","","","","17","","27","","24.1","","101.91","","","","-25","","NA"
"-94.07","58.74","CHURCHILL A","5060605","2021-03-03 20:00","2021","03","03","20:00","-13.9","","-17.8","","73","","","","17","","24","","24.1","","101.97","","","","-24","","NA"
"-94.07","58.74","CHURCHILL A","5060605","2021-03-03 21:00","2021","03","03","21:00","-13.2","","-17.2","","72","","","","18","","26","","24.1","","101.98","","","","-23","","Cloudy"
"-94.07","58.74","CHURCHILL A","5060605","2021-03-03 22:00","2021","03","03","22:00","-13.4","","-17.3","","73","","","","18","","23","","24.1","","102.01","","","","-23","","NA"
"-94.07","58.74","CHURCHILL A","5060605","2021-03-03 23:00","2021","03","03","23:00","-13.4","","-16.9","","75","","","","17","","18","","24.1","","102.08","","","","-22","","NA"
"-94.07","58.74","CHURCHILL A","5060605","2021-03-04 00:00","2021","03","04","00:00","-13.0","","-16.6","","75","","","","16","","18","","24.1","","102.14","","","","-21","","Cloudy"
"-94.07","58.74","CHURCHILL A","5060605","2021-03-04 01:00","2021","03","04","01:00","-12.9","","-16.3","","76","","","","17","","16","","24.1","","102.18","","","","-21","","NA"
"-94.07","58.74","CHURCHILL A","5060605","2021-03-04 02:00","2021","03","04","02:00","-12.5","","-15.9","","76","","","","18","","16","","24.1","","102.18","","","","-20","","NA"
"-94.07","58.74","CHURCHILL A","5060605","2021-03-04 03:00","2021","03","04","03:00","-12.4","","-15.6","","77","","","","18","","14","","24.1","","102.23","","","","-19","","Cloudy"
"-94.07","58.74","CHURCHILL A","5060605","2021-03-04 04:00","2021","03","04","04:00","-12.3","","-15.2","","79","","","","19","","10","","24.1","","102.30","","","","-18","","NA"
"-94.07","58.74","CHURCHILL A","5060605","2021-03-04 05:00","2021","03","04","05:00","-12.2","","-15.1","","79","","","","18","","10","","24.1","","102.35","","","","-18","","NA"
"-94.07","58.74","CHURCHILL A","5060605","2021-03-04 06:00","2021","03","04","06:00","-12.1","","-14.7","","81","","","","17","","10","","24.1","","102.44","","","","-18","","Cloudy"
"-94.07","58.74","CHURCHILL A","5060605","2021-03-04 07:00","2021","03","04","07:00","-11.9","","-14.7","","80","","","","19","","6","","24.1","","102.52","","","","-16","","NA"
"-94.07","58.74","CHURCHILL A","5060605","2021-03-04 08:00","2021","03","04","08:00","-11.7","","-14.3","","81","","","","21","","6","","24.1","","102.58","","","","-15","","NA"
"-94.07","58.74","CHURCHILL A","5060605","2021-03-04 09:00","2021","03","04","09:00","-10.9","","-14.0","","78","","","","24","","3","","24.1","","102.62","","","","-13","","Cloudy"
"-94.07","58.74","CHURCHILL A","5060605","2021-03-04 10:00","2021","03","04","10:00","-10.6","","-13.3","","81","","","","29","","5","","24.1","","102.66","","","","-14","","Snow"
"-94.07","58.74","CHURCHILL A","5060605","2021-03-04 11:00","2021","03","04","11:00","-10.1","","-12.6","","82","","","","32","","8","","16.1","","102.76","","","","-15","","Snow"
"-94.07","58.74","CHURCHILL A","5060605","2021-03-04 12:00","2021","03","04","12:00","-9.8","","-11.9","","85","","","","29","","7","","9.7","","102.81","","","","-14","","Snow"
"-94.07","58.74","CHURCHILL A","5060605","2021-03-04 13:00","2021","03","04","13:00","-9.7","","-11.5","","87","","","","29","","7","","12.9","","102.88","","","","-14","","Snow"
"-94.07","58.74","CHURCHILL A","5060605","2021-03-04 14:00","2021","03","04","14:00","-9.7","","-11.0","","90","","","","31","","18","","12.9","","102.95","","","","-17","","Snow"
"-94.07","58.74","CHURCHILL A","5060605","2021-03-04 15:00","2021","03","04","15:00","-9.3","","-10.5","","91","","","","36","","32","","9.7","","103.04","","","","-19","","Snow"
"-94.07","58.74","CHURCHILL A","5060605","2021-03-04 16:00","2021","03","04","16:00","-11.0","","-12.5","","89","","","","35","","31","","6.4","","103.16","","","","-21","","Snow"
"-94.07","58.74","CHURCHILL A","5060605","2021-03-04 17:00","2021","03","04","17:00","-12.2","","-13.8","","88","","","","35","","27","","4.0","","103.26","","","","-22","","Snow"
"-94.07","58.74","CHURCHILL A","5060605","2021-03-04 18:00","2021","03","04","18:00","-13.4","","-15.0","","88","","","","36","","29","","6.4","","103.35","","","","-24","","Snow"
"-94.07","58.74","CHURCHILL A","5060605","2021-03-04 19:00","2021","03","04","19:00","-14.3","","-16.0","","87","","","","36","","26","","8.1","","103.43","","","","-24","","Snow"
"-94.07","58.74","CHURCHILL A","5060605","2021-03-04 20:00","2021","03","04","20:00","-15.2","","-17.2","","85","","","","35","","27","","4.8","","103.49","","","","-26","","Snow"
"-94.07","58.74","CHURCHILL A","5060605","2021-03-04 21:00","2021","03","04","21:00","-16.2","","-18.0","","86","","","","36","","32","","9.7","","103.53","","","","-28","","Snow,Blowing Snow"
"-94.07","58.74","CHURCHILL A","5060605","2021-03-04 22:00","2021","03","04","22:00","-17.4","","-19.2","","86","","","","34","","28","","9.7","","103.60","","","","-29","","Snow,Blowing Snow"
"-94.07","58.74","CHURCHILL A","5060605","2021-03-04 23:00","2021","03","04","23:00","-18.5","","-20.3","","86","","","","35","","27","","8.1","","103.63","","","","-30","","Snow,Blowing Snow"
"-94.07","58.74","CHURCHILL A","5060605","2021-03-05 00:00","2021","03","05","00:00","-22.5","","-24.8","","82","","","","31","","24","","4.8","","103.66","","","","-35","","Snow,Blowing Snow"
"-94.07","58.74","CHURCHILL A","5060605","2021-03-05 01:00","2021","03","05","01:00","-23.5","","-25.8","","82","","","","30","","25","","4.8","","103.71","","","","-36","","Snow,Blowing Snow"
"-94.07","58.74","CHURCHILL A","5060605","2021-03-05 02:00","2021","03","05","02:00","-24.0","","-26.4","","81","","","","30","","23","","4.8","","103.77","","","","-36","","Snow,Blowing Snow"
"-94.07","58.74","CHURCHILL A","5060605","2021-03-05 03:00","2021","03","05","03:00","-24.3","","-26.7","","81","","","","30","","24","","4.8","","103.80","","","","-37","","Snow,Blowing Snow"
"-94.07","58.74","CHURCHILL A","5060605","2021-03-05 04:00","2021","03","05","04:00","-24.7","","-27.1","","81","","","","30","","24","","4.8","","103.83","","","","-37","","Snow,Blowing Snow"
"-94.07","58.74","CHURCHILL A","5060605","2021-03-05 05:00","2021","03","05","05:00","-24.7","","-27.1","","81","","","","30","","23","","8.1","","103.85","","","","-37","","Snow,Blowing Snow"
"-94.07","58.74","CHURCHILL A","5060605","2021-03-05 06:00","2021","03","05","06:00","-24.6","","-27.0","","81","","","","30","","23","","8.1","","103.88","","","","-37","","Snow,Blowing Snow"
"-94.07","58.74","CHURCHILL A","5060605","2021-03-05 07:00","2021","03","05","07:00","-24.4","","-26.8","","81","","","","30","","26","","12.9","","103.92","","","","-37","","Snow,Blowing Snow"
"-94.07","58.74","CHURCHILL A","5060605","2021-03-05 08:00","2021","03","05","08:00","-24.8","","-27.3","","80","","","","30","","27","","9.7","","103.95","","","","-38","","Snow,Blowing Snow"
"-94.07","58.74","CHURCHILL A","5060605","2021-03-05 09:00","2021","03","05","09:00","-24.4","","-26.8","","81","","","","31","","21","","12.9","","103.93","","","","-36","","Snow,Blowing Snow"
"-94.07","58.74","CHURCHILL A","5060605","2021-03-05 10:00","2021","03","05","10:00","-24.2","","-26.6","","81","","","","31","","21","","16.1","","103.91","","","","-36","","Snow"
"-94.07","58.74","CHURCHILL A","5060605","2021-03-05 11:00","2021","03","05","11:00","-23.4","","-25.8","","81","","","","30","","17","","19.3","","103.88","","","","-34","","Snow"
"-94.07","58.74","CHURCHILL A","5060605","2021-03-05 12:00","2021","03","05","12:00","-23.2","","-25.6","","81","","","","31","","18","","19.3","","103.88","","","","-34","","Snow"
"-94.07","58.74","CHURCHILL A","5060605","2021-03-05 13:00","2021","03","05","13:00","-22.5","","-24.9","","81","","","","30","","16","","24.1","","103.85","","","","-32","","NA"
"-94.07","58.74","CHURCHILL A","5060605","2021-03-05 14:00","2021","03","05","14:00","-22.4","","-24.7","","82","","","","30","","18","","24.1","","103.83","","","","-33","","NA"
"-94.07","58.74","CHURCHILL A","5060605","2021-03-05 15:00","2021","03","05","15:00","-22.2","","-24.5","","82","","","","31","","16","","24.1","","103.80","","","","-32","","Mainly Clear"
"-94.07","58.74","CHURCHILL A","5060605","2021-03-05 16:00","2021","03","05","16:00","-22.1","","-24.4","","82","","","","30","","12","","24.1","","103.78","","","","-31","","NA"
"-94.07","58.74","CHURCHILL A","5060605","2021-03-05 17:00","2021","03","05","17:00","-22.2","","-24.4","","83","","","","30","","12","","24.1","","103.76","","","","-31","","NA"
"-94.07","58.74","CHURCHILL A","5060605","2021-03-05 18:00","2021","03","05","18:00","-22.9","","-25.2","","82","","","","29","","10","","24.1","","103.68","","","","-31","","Mainly Clear"
"-94.07","58.74","CHURCHILL A","5060605","2021-03-05 19:00","2021","03","05","19:00","-23.1","","-25.4","","82","","","","29","","7","","24.1","","103.61","","","","-29","","NA"
"-94.07","58.74","CHURCHILL A","5060605","2021-03-05 20:00","2021","03","05","20:00","-23.5","","-25.8","","82","","","","27","","7","","24.1","","103.55","","","","-30","","NA"
"-94.07","58.74","CHURCHILL A","5060605","2021-03-05 21:00","2021","03","05","21:00","-24.0","","-26.4","","81","","","","24","","7","","24.1","","103.50","","","","-30","","Mostly Cloudy"
"-94.07","58.74","CHURCHILL A","5060605","2021-03-05 22:00","2021","03","05","22:00","-24.2","","-26.5","","81","","","","36","","2","","19.3","","103.43","","","","-26","","NA"
"-94.07","58.74","CHURCHILL A","5060605","2021-03-05 23:00","2021","03","05","23:00","-25.9","","-28.4","","80","","","","23","","9","","3.2","","103.39","","","","-34","","Fog"
"-94.07","58.74","CHURCHILL A","5060605","2021-03-06 00:00","2021","03","06","00:00","-26.3","","-28.9","","79","","","","19","","12","","4.8","","103.27","","","","-36","","Fog"
"-94.07","58.74","CHURCHILL A","5060605","2021-03-06 01:00","2021","03","06","01:00","-25.3","","-27.8","","80","","","","19","","9","","1.6","","103.27","","","","-33","","Fog"
"-94.07","58.74","CHURCHILL A","5060605","2021-03-06 02:00","2021","03","06","02:00","-23.4","","-25.8","","81","","","","18","","10","","3.2","","103.16","","","","-31","","Fog"
"-94.07","58.74","CHURCHILL A","5060605","2021-03-06 03:00","2021","03","06","03:00","-21.8","","-24.1","","82","","","","18","","13","","4.8","","103.11","","","","-31","","Fog"
"-94.07","58.74","CHURCHILL A","5060605","2021-03-06 04:00","2021","03","06","04:00","-21.3","","-23.5","","83","","","","17","","22","","6.4","","102.99","","","","-33","","Fog"
"-94.07","58.74","CHURCHILL A","5060605","2021-03-06 05:00","2021","03","06","05:00","-21.8","","-24.1","","82","","","","17","","22","","19.3","","102.86","","","","-33","","NA"
"-94.07","58.74","CHURCHILL A","5060605","2021-03-06 06:00","2021","03","06","06:00","-21.6","","-23.8","","83","","","","15","","26","","4.8","","102.74","","","","-34","","Snow"
"-94.07","58.74","CHURCHILL A","5060605","2021-03-06 07:00","2021","03","06","07:00","-19.9","","-21.9","","84","","","","16","","25","","4.8","","102.64","","","","-31","","Snow"
"-94.07","58.74","CHURCHILL A","5060605","2021-03-06 08:00","2021","03","06","08:00","-19.3","","-21.4","","84","","","","16","","34","","12.9","","102.53","","","","-32","","Snow,Blowing Snow"
"-94.07","58.74","CHURCHILL A","5060605","2021-03-06 09:00","2021","03","06","09:00","-18.7","","-20.6","","85","","","","15","","35","","16.1","","102.40","","","","-32","","Snow,Blowing Snow"
"-94.07","58.74","CHURCHILL A","5060605","2021-03-06 10:00","2021","03","06","10:00","-17.2","","-19.0","","86","","","","16","","37","","19.3","","102.35","","","","-30","","Blowing Snow"
"-94.07","58.74","CHURCHILL A","5060605","2021-03-06 11:00","2021","03","06","11:00","-16.4","","-18.1","","87","","","","16","","39","","16.1","","102.18","","","","-29","","Blowing Snow"
"-94.07","58.74","CHURCHILL A","5060605","2021-03-06 12:00","2021","03","06","12:00","-15.3","","-17.0","","87","","","","16","","41","","12.9","","101.94","","","","-28","","Blowing Snow"
"-94.07","58.74","CHURCHILL A","5060605","2021-03-06 13:00","2021","03","06","13:00","-14.4","","-16.0","","88","","","","15","","46","","16.1","","101.77","","","","-27","","Blowing Snow"
"-94.07","58.74","CHURCHILL A","5060605","2021-03-06 14:00","2021","03","06","14:00","-13.4","","-15.1","","87","","","","15","","35","","24.1","","101.59","","","","-25","","Blowing Snow"
"-94.07","58.74","CHURCHILL A","5060605","2021-03-06 15:00","2021","03","06","15:00","-12.2","","-16.6","","70","","","","15","","46","","24.1","","101.41","","","","-24","","Blowing Snow"
"-94.07","58.74","CHURCHILL A","5060605","2021-03-06 16:00","2021","03","06","16:00","-11.7","","-17.0","","65","","","","16","","49","","24.1","","101.20","","","","-24","","Blowing Snow"
"-94.07","58.74","CHURCHILL A","5060605","2021-03-06 17:00","2021","03","06","17:00","-11.3","","-16.3","","67","","","","16","","49","","24.1","","101.03","","","","-23","","Blowing Snow"
"-94.07","58.74","CHURCHILL A","5060605","2021-03-06 18:00","2021","03","06","18:00","-10.3","","-15.5","","66","","","","16","","46","","24.1","","100.87","","","","-22","","Blowing Snow"
"-94.07","58.74","CHURCHILL A","5060605","2021-03-06 19:00","2021","03","06","19:00","-9.2","","-14.4","","66","","","","17","","41","","24.1","","100.91","","","","-20","","Blowing Snow"
"-94.07","58.74","CHURCHILL A","5060605","2021-03-06 20:00","2021","03","06","20:00","-9.2","","-14.2","","67","","","","17","","42","","16.1","","100.79","","","","-20","","Blowing Snow"
"-94.07","58.74","CHURCHILL A","5060605","2021-03-06 21:00","2021","03","06","21:00","-9.4","","-14.2","","69","","","","17","","44","","24.1","","100.69","","","","-20","","Blowing Snow"
"-94.07","58.74","CHURCHILL A","5060605","2021-03-06 22:00","2021","03","06","22:00","-9.3","","-14.0","","69","","","","17","","42","","24.1","","100.60","","","","-20","","Blowing Snow"
"-94.07","58.74","CHURCHILL A","5060605","2021-03-06 23:00","2021","03","06","23:00","-8.8","","-13.5","","69","","","","17","","39","","24.1","","100.48","","","","-19","","NA"
"-94.07","58.74","CHURCHILL A","5060605","2021-03-07 00:00","2021","03","07","00:00","-8.0","","-12.7","","69","","","","17","","39","","24.1","","100.36","","","","-18","","Mostly Cloudy"
"-94.07","58.74","CHURCHILL A","5060605","2021-03-07 01:00","2021","03","07","01:00","-7.4","","-12.3","","68","","","","17","","34","","24.1","","100.27","","","","-17","","NA"
"-94.07","58.74","CHURCHILL A","5060605","2021-03-07 02:00","2021","03","07","02:00","-7.0","","-11.8","","69","","","","18","","37","","24.1","","100.18","","","","-16","","NA"
"-94.07","58.74","CHURCHILL A","5060605","2021-03-07 03:00","2021","03","07","03:00","-6.4","","-11.2","","69","","","","18","","34","","24.1","","100.08","","","","-15","","Blowing Snow"
"-94.07","58.74","CHURCHILL A","5060605","2021-03-07 04:00","2021","03","07","04:00","-6.2","","-10.5","","72","","","","18","","27","","24.1","","100.00","","","","-14","","Blowing Snow"
"-94.07","58.74","CHURCHILL A","5060605","2021-03-07 05:00","2021","03","07","05:00","-5.3","","-9.2","","74","","","","18","","22","","24.1","","99.97","","","","-12","","Blowing Snow"
"-94.07","58.74","CHURCHILL A","5060605","2021-03-07 06:00","2021","03","07","06:00","-4.6","","-8.4","","75","","","","19","","21","","24.1","","99.89","","","","-11","","Blowing Snow"
"-94.07","58.74","CHURCHILL A","5060605","2021-03-07 07:00","2021","03","07","07:00","-4.3","","-7.8","","77","","","","18","","21","","24.1","","99.84","","","","-11","","NA"
"-94.07","58.74","CHURCHILL A","5060605","2021-03-07 08:00","2021","03","07","08:00","-4.3","","-7.6","","78","","","","18","","21","","24.1","","99.79","","","","-11","","NA"
"-94.07","58.74","CHURCHILL A","5060605","2021-03-07 09:00","2021","03","07","09:00","-3.0","","-6.7","","76","","","","20","","21","","24.1","","99.76","","","","-9","","Cloudy"
"-94.07","58.74","CHURCHILL A","5060605","2021-03-07 10:00","2021","03","07","10:00","-1.1","","-5.5","","72","","","","20","","19","","24.1","","99.72","","","","-6","","NA"
"-94.07","58.74","CHURCHILL A","5060605","2021-03-07 11:00","2021","03","07","11:00","-0.3","","-4.7","","73","","","","22","","18","","24.1","","99.72","","","","-5","","NA"
"-94.07","58.74","CHURCHILL A","5060605","2021-03-07 12:00","2021","03","07","12:00","0.4","","-3.9","","73","","","","22","","16","","24.1","","99.71","","","","","","Cloudy"
"-94.07","58.74","CHURCHILL A","5060605","2021-03-07 13:00","2021","03","07","13:00","1.4","","-2.7","","74","","","","26","","11","","24.1","","99.70","","","","","","NA"
"-94.07","58.74","CHURCHILL A","5060605","2021-03-07 14:00","2021","03","07","14:00","0.4","","-2.5","","81","","","","32","","18","","24.1","","99.74","","","","","","NA"
"-94.07","58.74","CHURCHILL A","5060605","2021-03-07 15:00","2021","03","07","15:00","-0.5","","-3.0","","83","","","","32","","18","","24.1","","99.82","","","","-6","","Cloudy"
"-94.07","58.74","CHURCHILL A","5060605","2021-03-07 16:00","2021","03","07","16:00","-1.1","","-3.3","","85","","","","34","","20","","24.1","","99.88","","","","-7","","NA"
"-94.07","58.74","CHURCHILL A","5060605","2021-03-07 17:00","2021","03","07","17:00","-1.1","","-3.0","","87","","","","34","","18","","24.1","","99.92","","","","-6","","NA"
"-94.07","58.74","CHURCHILL A","5060605","2021-03-07 18:00","2021","03","07","18:00","-1.4","","-3.4","","86","","","","33","","16","","24.1","","100.01","","","","-6","","Cloudy"
"-94.07","58.74","CHURCHILL A","5060605","2021-03-07 19:00","2021","03","07","19:00","-1.4","","-4.2","","82","","","","31","","20","","24.1","","100.08","","","","-7","","NA"
"-94.07","58.74","CHURCHILL A","5060605","2021-03-07 20:00","2021","03","07","20:00","-1.4","","-4.3","","81","","","","34","","23","","24.1","","100.13","","","","-7","","NA"
"-94.07","58.74","CHURCHILL A","5060605","2021-03-07 21:00","2021","03","07","21:00","-2.4","","-4.4","","86","","","","35","","24","","24.1","","100.19","","","","-9","","Cloudy"
"-94.07","58.74","CHURCHILL A","5060605","2021-03-07 22:00","2021","03","07","22:00","-3.9","","-6.5","","82","","","","34","","34","","24.1","","100.26","","","","-12","","NA"
"-94.07","58.74","CHURCHILL A","5060605","2021-03-07 23:00","2021","03","07","23:00","-5.1","","-8.0","","80","","","","35","","29","","24.1","","100.34","","","","-13","","NA"
"-94.07","58.74","CHURCHILL A","5060605","2021-03-08 00:00","2021","03","08","00:00","-5.8","","-8.9","","79","","","","33","","26","","24.1","","100.39","","","","-14","","Cloudy"
"-94.07","58.74","CHURCHILL A","5060605","2021-03-08 01:00","2021","03","08","01:00","-7.2","","-10.9","","75","","","","34","","30","","24.1","","100.45","","","","-16","","NA"
"-94.07","58.74","CHURCHILL A","5060605","2021-03-08 02:00","2021","03","08","02:00","-8.2","","-11.1","","80","","","","33","","18","","24.1","","100.51","","","","-15","","NA"
"-94.07","58.74","CHURCHILL A","5060605","2021-03-08 03:00","2021","03","08","03:00","-9.7","","-12.7","","79","","","","31","","14","","24.1","","100.56","","","","-16","","Mainly Clear"
"-94.07","58.74","CHURCHILL A","5060605","2021-03-08 04:00","2021","03","08","04:00","-9.1","","-11.8","","81","","","","30","","12","","24.1","","100.59","","","","-15","","NA"
"-94.07","58.74","CHURCHILL A","5060605","2021-03-08 05:00","2021","03","08","05:00","-9.9","","-12.6","","81","","","","29","","11","","24.1","","100.63","","","","-15","","NA"
"-94.07","58.74","CHURCHILL A","5060605","2021-03-08 06:00","2021","03","08","06:00","-10.2","","-12.7","","82","","","","30","","8","","24.1","","100.62","","","","-15","","Cloudy"
"-94.07","58.74","CHURCHILL A","5060605","2021-03-08 07:00","2021","03","08","07:00","-10.4","","-12.9","","82","","","","30","","15","","24.1","","100.69","","","","-17","","NA"
"-94.07","58.74","CHURCHILL A","5060605","2021-03-08 08:00","2021","03","08","08:00","-10.4","","-12.6","","84","","","","30","","10","","24.1","","100.70","","","","-16","","NA"
"-94.07","58.74","CHURCHILL A","5060605","2021-03-08 09:00","2021","03","08","09:00","-10.0","","-11.9","","86","","","","31","","12","","2.8","","100.72","","","","-16","","Snow"
"-94.07","58.74","CHURCHILL A","5060605","2021-03-08 10:00","2021","03","08","10:00","-10.1","","-11.4","","90","","","","32","","14","","1.6","","100.76","","","","-17","","Snow"
"-94.07","58.74","CHURCHILL A","5060605","2021-03-08 11:00","2021","03","08","11:00","-9.8","","-11.3","","89","","","","31","","14","","1.2","","100.81","","","","-16","","Snow"
"-94.07","58.74","CHURCHILL A","5060605","2021-03-08 12:00","2021","03","08","12:00","-9.7","","-11.9","","84","","","","31","","19","","6.4","","100.88","","","","-17","","Snow"
"-94.07","58.74","CHURCHILL A","5060605","2021-03-08 13:00","2021","03","08","13:00","-9.4","","-11.5","","85","","","","31","","18","","4.8","","100.93","","","","-17","","Snow"
"-94.07","58.74","CHURCHILL A","5060605","2021-03-08 14:00","2021","03","08","14:00","-10.8","","-14.1","","77","","","","31","","28","","24.1","","101.05","","","","-20","","NA"
"-94.07","58.74","CHURCHILL A","5060605","2021-03-08 15:00","2021","03","08","15:00","-12.8","","-16.0","","77","","","","32","","35","","24.1","","101.15","","","","-24","","Blowing Snow"
"-94.07","58.74","CHURCHILL A","5060605","2021-03-08 16:00","2021","03","08","16:00","-13.4","","-17.0","","75","","","","31","","30","","19.3","","101.27","","","","-24","","Blowing Snow"
"-94.07","58.74","CHURCHILL A","5060605","2021-03-08 17:00","2021","03","08","17:00","-13.9","","-17.4","","75","","","","31","","30","","19.3","","101.34","","","","-25","","Blowing Snow"
"-94.07","58.74","CHURCHILL A","5060605","2021-03-08 18:00","2021","03","08","18:00","-14.8","","-19.1","","70","","","","31","","28","","24.1","","101.44","","","","-25","","Blowing Snow"
"-94.07","58.74","CHURCHILL A","5060605","2021-03-08 19:00","2021","03","08","19:00","-15.9","","-20.4","","69","","","","30","","17","","24.1","","101.49","","","","-25","","Blowing Snow"
"-94.07","58.74","CHURCHILL A","5060605","2021-03-08 20:00","2021","03","08","20:00","-17.4","","-20.8","","75","","","","27","","13","","24.1","","101.50","","","","-25","","Blowing Snow"
"-94.07","58.74","CHURCHILL A","5060605","2021-03-08 21:00","2021","03","08","21:00","-16.9","","-20.8","","72","","","","26","","8","","24.1","","101.51","","","","-23","","Blowing Snow"
"-94.07","58.74","CHURCHILL A","5060605","2021-03-08 22:00","2021","03","08","22:00","-16.3","","-20.1","","73","","","","26","","9","","24.1","","101.52","","","","-22","","Blowing Snow"
"-94.07","58.74","CHURCHILL A","5060605","2021-03-08 23:00","2021","03","08","23:00","-16.9","","-21.7","","67","","","","31","","35","","19.3","","101.63","","","","-29","","Blowing Snow"
"-94.07","58.74","CHURCHILL A","5060605","2021-03-09 00:00","2021","03","09","00:00","-18.8","","-24.0","","64","","","","31","","27","","24.1","","101.70","","","","-30","","Blowing Snow"
"-94.07","58.74","CHURCHILL A","5060605","2021-03-09 01:00","2021","03","09","01:00","-19.9","","-25.1","","64","","","","31","","31","","24.1","","101.75","","","","-33","","Blowing Snow"
"-94.07","58.74","CHURCHILL A","5060605","2021-03-09 02:00","2021","03","09","02:00","-21.3","","-25.7","","68","","","","30","","22","","24.1","","101.79","","","","-33","","Blowing Snow"
"-94.07","58.74","CHURCHILL A","5060605","2021-03-09 03:00","2021","03","09","03:00","-22.3","","-26.9","","67","","","","29","","21","","24.1","","101.83","","","","-34","","Blowing Snow"
"-94.07","58.74","CHURCHILL A","5060605","2021-03-09 04:00","2021","03","09","04:00","-22.6","","-27.3","","66","","","","28","","18","","24.1","","101.88","","","","-33","","Blowing Snow"
"-94.07","58.74","CHURCHILL A","5060605","2021-03-09 05:00","2021","03","09","05:00","-22.9","","-27.8","","65","","","","29","","16","","24.1","","101.90","","","","-33","","Blowing Snow"
"-94.07","58.74","CHURCHILL A","5060605","2021-03-09 06:00","2021","03","09","06:00","-23.5","","-28.0","","67","","","","27","","15","","24.1","","101.89","","","","-33","","Blowing Snow"
"-94.07","58.74","CHURCHILL A","5060605","2021-03-09 07:00","2021","03","09","07:00","-24.3","","-28.3","","70","","","","26","","8","","24.1","","101.88","","","","-31","","NA"
"-94.07","58.74","CHURCHILL A","5060605","2021-03-09 08:00","2021","03","09","08:00","-23.8","","-28.4","","66","","","","22","","8","","24.1","","101.82","","","","-31","","NA"
"-94.07","58.74","CHURCHILL A","5060605","2021-03-09 09:00","2021","03","09","09:00","-22.3","","-27.7","","62","","","","22","","10","","24.1","","101.79","","","","-30","","Clear"
"-94.07","58.74","CHURCHILL A","5060605","2021-03-09 10:00","2021","03","09","10:00","-19.8","","-25.7","","60","","","","23","","17","","24.1","","101.77","","","","-29","","NA"
"-94.07","58.74","CHURCHILL A","5060605","2021-03-09 11:00","2021","03","09","11:00","-17.7","","-23.1","","63","","","","27","","25","","24.1","","101.72","","","","-29","","NA"
"-94.07","58.74","CHURCHILL A","5060605","2021-03-09 12:00","2021","03","09","12:00","-16.6","","-22.9","","59","","","","28","","20","","24.1","","101.71","","","","-26","","Mostly Cloudy"
"-94.07","58.74","CHURCHILL A","5060605","2021-03-09 13:00","2021","03","09","13:00","-15.6","","-22.5","","56","","","","27","","18","","24.1","","101.69","","","","-24","","NA"
"-94.07","58.74","CHURCHILL A","5060605","2021-03-09 14:00","2021","03","09","14:00","-14.9","","-21.9","","56","","","","32","","11","","24.1","","101.69","","","","-21","","NA"
"-94.07","58.74","CHURCHILL A","5060605","2021-03-09 15:00","2021","03","09","15:00","-14.9","","-21.4","","58","","","","1","","8","","24.1","","101.62","","","","-20","","Mainly Clear"
"-94.07","58.74","CHURCHILL A","5060605","2021-03-09 16:00","2021","03","09","16:00","-15.1","","-21.0","","61","","","","2","","11","","24.1","","101.57","","","","-22","","NA"
"-94.07","58.74","CHURCHILL A","5060605","2021-03-09 17:00","2021","03","09","17:00","-15.7","","-19.8","","71","","","","5","","10","","24.1","","101.54","","","","-22","","NA"
"-94.07","58.74","CHURCHILL A","5060605","2021-03-09 18:00","2021","03","09","18:00","-17.1","","-20.0","","78","","","","6","","9","","24.1","","101.55","","","","-23","","Clear"
"-94.07","58.74","CHURCHILL A","5060605","2021-03-09 19:00","2021","03","09","19:00","-18.0","","-20.7","","80","","","","8","","7","","24.1","","101.61","","","","-23","","NA"
"-94.07","58.74","CHURCHILL A","5060605","2021-03-09 20:00","2021","03","09","20:00","-18.9","","-21.2","","82","","","","11","","10","","24.1","","101.67","","","","-26","","NA"
"-94.07","58.74","CHURCHILL A","5060605","2021-03-09 21:00","2021","03","09","21:00","-18.8","","-21.3","","81","","","","10","","9","","24.1","","101.57","","","","-25","","Mostly Cloudy"
"-94.07","58.74","CHURCHILL A","5060605","2021-03-09 22:00","2021","03","09","22:00","-18.3","","-21.2","","78","","","","5","","10","","24.1","","101.53","","","","-25","","NA"
"-94.07","58.74","CHURCHILL A","5060605","2021-03-09 23:00","2021","03","09","23:00","-16.8","","-21.8","","66","","","","2","","16","","24.1","","101.51","","","","-25","","NA"
"-94.07","58.74","CHURCHILL A","5060605","2021-03-10 00:00","2021","03","10","00:00","-17.4","","-20.8","","75","","","","1","","17","","24.1","","101.52","","","","-26","","Clear"
"-94.07","58.74","CHURCHILL A","5060605","2021-03-10 01:00","2021","03","10","01:00","-18.4","","-22.0","","74","","","","1","","14","","24.1","","101.53","","","","-27","","NA"
"-94.07","58.74","CHURCHILL A","5060605","2021-03-10 02:00","2021","03","10","02:00","-18.4","","-22.5","","71","","","","1","","13","","24.1","","101.51","","","","-26","","Snow"
"-94.07","58.74","CHURCHILL A","5060605","2021-03-10 03:00","2021","03","10","03:00","-19.2","","-23.4","","70","","","","1","","10","","24.1","","101.47","","","","-26","","Mainly Clear"
"-94.07","58.74","CHURCHILL A","5060605","2021-03-10 04:00","2021","03","10","04:00","-21.1","","-24.1","","77","","","","28","","8","","24.1","","101.43","","","","-28","","NA"
"-94.07","58.74","CHURCHILL A","5060605","2021-03-10 05:00","2021","03","10","05:00","-21.8","","-24.8","","77","","","","29","","12","","24.1","","101.44","","","","-30","","NA"
"-94.07","58.74","CHURCHILL A","5060605","2021-03-10 06:00","2021","03","10","06:00","-21.9","","-24.8","","78","","","","29","","10","","24.1","","101.42","","","","-29","","Mostly Cloudy"
"-94.07","58.74","CHURCHILL A","5060605","2021-03-10 07:00","2021","03","10","07:00","-20.7","","-23.0","","82","","","","33","","9","","4.8","","101.41","","","","-28","","Snow"
"-94.07","58.74","CHURCHILL A","5060605","2021-03-10 08:00","2021","03","10","08:00","-19.2","","-21.5","","82","","","","9","","7","","4.8","","101.34","","","","-25","","Snow"
"-94.07","58.74","CHURCHILL A","5060605","2021-03-10 09:00","2021","03","10","09:00","-18.8","","-21.1","","82","","","","10","","5","","19.3","","101.33","","","","-23","","Snow"
"-94.07","58.74","CHURCHILL A","5060605","2021-03-10 10:00","2021","03","10","10:00","-17.9","","-20.5","","80","","","","9","","10","","24.1","","101.27","","","","-25","","Snow"
"-94.07","58.74","CHURCHILL A","5060605","2021-03-10 11:00","2021","03","10","11:00","-17.2","","-20.2","","78","","","","9","","14","","24.1","","101.21","","","","-25","","Snow"
"-94.07","58.74","CHURCHILL A","5060605","2021-03-10 12:00","2021","03","10","12:00","-17.0","","-19.5","","81","","","","9","","18","","24.1","","101.10","","","","-26","","Snow"
"-94.07","58.74","CHURCHILL A","5060605","2021-03-10 13:00","2021","03","10","13:00","-16.3","","-18.8","","81","","","","7","","16","","24.1","","101.06","","","","-25","","Snow"
"-94.07","58.74","CHURCHILL A","5060605","2021-03-10 14:00","2021","03","10","14:00","-15.5","","-17.6","","84","","","","3","","19","","3.2","","101.01","","","","-25","","Snow"
"-94.07","58.74","CHURCHILL A","5060605","2021-03-10 15:00","2021","03","10","15:00","-16.2","","-18.6","","82","","","","2","","30","","1.6","","101.02","","","","-28","","Snow"
"-94.07","58.74","CHURCHILL A","5060605","2021-03-10 16:00","2021","03","10","16:00","-16.6","","-19.1","","81","","","","3","","30","","4.8","","101.07","","","","-28","","Snow"
"-94.07","58.74","CHURCHILL A","5060605","2021-03-10 17:00","2021","03","10","17:00","-17.6","","-20.3","","80","","","","1","","28","","4.8","","101.14","","","","-29","","Snow,Blowing Snow"
"-94.07","58.74","CHURCHILL A","5060605","2021-03-10 18:00","2021","03","10","18:00","-18.6","","-21.4","","79","","","","36","","25","","19.3","","101.21","","","","-30","","Snow,Blowing Snow"
"-94.07","58.74","CHURCHILL A","5060605","2021-03-10 19:00","2021","03","10","19:00","-20.5","","-22.8","","82","","","","34","","26","","24.1","","101.30","","","","-32","","Blowing Snow"
"-94.07","58.74","CHURCHILL A","5060605","2021-03-10 20:00","2021","03","10","20:00","-21.4","","-24.4","","77","","","","34","","23","","24.1","","101.35","","","","-33","","Blowing Snow"
"-94.07","58.74","CHURCHILL A","5060605","2021-03-10 21:00","2021","03","10","21:00","-22.1","","-25.3","","76","","","","34","","22","","24.1","","101.37","","","","-34","","Blowing Snow"
"-94.07","58.74","CHURCHILL A","5060605","2021-03-10 22:00","2021","03","10","22:00","-22.6","","-25.9","","75","","","","33","","24","","24.1","","101.39","","","","-35","","Blowing Snow"
"-94.07","58.74","CHURCHILL A","5060605","2021-03-10 23:00","2021","03","10","23:00","-25.0","","-28.2","","75","","","","31","","22","","24.1","","101.41","","","","-37","","NA"
"-94.07","58.74","CHURCHILL A","5060605","2021-03-11 00:00","2021","03","11","00:00","-26.4","","-29.7","","74","","","","31","","19","","19.3","","101.45","","","","-38","","Ice Crystals"
"-94.07","58.74","CHURCHILL A","5060605","2021-03-11 01:00","2021","03","11","01:00","-27.1","","-30.4","","74","","","","31","","21","","24.1","","101.45","","","","-40","","Ice Crystals"
"-94.07","58.74","CHURCHILL A","5060605","2021-03-11 02:00","2021","03","11","02:00","-27.9","","-31.2","","74","","","","30","","17","","24.1","","101.44","","","","-40","","Ice Crystals"
"-94.07","58.74","CHURCHILL A","5060605","2021-03-11 03:00","2021","03","11","03:00","-28.6","","-32.0","","73","","","","30","","17","","24.1","","101.44","","","","-40","","Ice Crystals"
"-94.07","58.74","CHURCHILL A","5060605","2021-03-11 04:00","2021","03","11","04:00","-29.2","","-32.5","","74","","","","30","","19","","24.1","","101.44","","","","-42","","Ice Crystals"
"-94.07","58.74","CHURCHILL A","5060605","2021-03-11 05:00","2021","03","11","05:00","-29.2","","-32.5","","74","","","","30","","18","","24.1","","101.44","","","","-41","","NA"
"-94.07","58.74","CHURCHILL A","5060605","2021-03-11 06:00","2021","03","11","06:00","-29.5","","-32.8","","74","","","","30","","20","","24.1","","101.48","","","","-42","","Clear"
"-94.07","58.74","CHURCHILL A","5060605","2021-03-11 07:00","2021","03","11","07:00","-29.8","","-33.0","","74","","","","30","","15","","24.1","","101.47","","","","-41","","NA"
"-94.07","58.74","CHURCHILL A","5060605","2021-03-11 08:00","2021","03","11","08:00","-29.3","","-32.7","","73","","","","30","","18","","24.1","","101.48","","","","-42","","NA"
"-94.07","58.74","CHURCHILL A","5060605","2021-03-11 09:00","2021","03","11","09:00","-28.6","","-32.2","","72","","","","30","","16","","24.1","","101.49","","","","-40","","Mainly Clear"
"-94.07","58.74","CHURCHILL A","5060605","2021-03-11 10:00","2021","03","11","10:00","-27.4","","-31.2","","71","","","","30","","21","","24.1","","101.50","","","","-40","","Blowing Snow"
"-94.07","58.74","CHURCHILL A","5060605","2021-03-11 11:00","2021","03","11","11:00","-25.5","","-29.5","","70","","","","30","","19","","24.1","","101.48","","","","-37","","Blowing Snow"
"-94.07","58.74","CHURCHILL A","5060605","2021-03-11 12:00","2021","03","11","12:00","-24.8","","-29.0","","69","","","","31","","22","","24.1","","101.47","","","","-37","","Blowing Snow"
"-94.07","58.74","CHURCHILL A","5060605","2021-03-11 13:00","2021","03","11","13:00","-24.6","","-28.6","","70","","","","31","","25","","24.1","","101.50","","","","-38","","Blowing Snow"
"-94.07","58.74","CHURCHILL A","5060605","2021-03-11 14:00","2021","03","11","14:00","-23.9","","-28.2","","68","","","","31","","24","","24.1","","101.52","","","","-36","","Blowing Snow"
"-94.07","58.74","CHURCHILL A","5060605","2021-03-11 15:00","2021","03","11","15:00","-23.2","","-27.7","","67","","","","32","","21","","24.1","","101.51","","","","-35","","Blowing Snow"
"-94.07","58.74","CHURCHILL A","5060605","2021-03-11 16:00","2021","03","11","16:00","-22.8","","-27.2","","68","","","","32","","25","","24.1","","101.53","","","","-35","","Blowing Snow"
"-94.07","58.74","CHURCHILL A","5060605","2021-03-11 17:00","2021","03","11","17:00","-23.0","","-27.2","","69","","","","32","","21","","24.1","","101.56","","","","-35","","Blowing Snow"
"-94.07","58.74","CHURCHILL A","5060605","2021-03-11 18:00","2021","03","11","18:00","-23.4","","-27.4","","70","","","","31","","18","","24.1","","101.58","","","","-34","","Blowing Snow"
"-94.07","58.74","CHURCHILL A","5060605","2021-03-11 19:00","2021","03","11","19:00","-24.1","","-28.0","","71","","","","31","","15","","24.1","","101.61","","","","-34","","Blowing Snow"
"-94.07","58.74","CHURCHILL A","5060605","2021-03-11 20:00","2021","03","11","20:00","-24.1","","-28.0","","71","","","","31","","16","","24.1","","101.63","","","","-34","","Blowing Snow"
"-94.07","58.74","CHURCHILL A","5060605","2021-03-11 21:00","2021","03","11","21:00","-24.7","","-28.6","","71","","","","32","","17","","24.1","","101.64","","","","-36","","Clear"
"-94.07","58.74","CHURCHILL A","5060605","2021-03-11 22:00","2021","03","11","22:00","-25.3","","-29.1","","71","","","","30","","16","","24.1","","101.63","","","","-36","","NA"
"-94.07","58.74","CHURCHILL A","5060605","2021-03-11 23:00","2021","03","11","23:00","-26.7","","-29.9","","75","","","","28","","10","","24.1","","101.63","","","","-35","","NA"
"-94.07","58.74","CHURCHILL A","5060605","2021-03-12 00:00","2021","03","12","00:00","-27.3","","-30.2","","77","","","","27","","10","","24.1","","101.60","","","","-36","","Clear"
"-94.07","58.74","CHURCHILL A","5060605","2021-03-12 01:00","2021","03","12","01:00","-28.0","","-30.9","","77","","","","24","","10","","24.1","","101.63","","","","-37","","NA"
"-94.07","58.74","CHURCHILL A","5060605","2021-03-12 02:00","2021","03","12","02:00","-27.7","","-30.6","","77","","","","26","","10","","24.1","","101.67","","","","-36","","NA"
"-94.07","58.74","CHURCHILL A","5060605","2021-03-12 03:00","2021","03","12","03:00","-29.2","","-32.0","","77","","","","24","","9","","24.1","","101.66","","","","-38","","Clear"
"-94.07","58.74","CHURCHILL A","5060605","2021-03-12 04:00","2021","03","12","04:00","-29.8","","-32.5","","78","","","","22","","11","","24.1","","101.66","","","","-39","","NA"
"-94.07","58.74","CHURCHILL A","5060605","2021-03-12 05:00","2021","03","12","05:00","-29.7","","-32.4","","78","","","","22","","13","","24.1","","101.65","","","","-40","","NA"
"-94.07","58.74","CHURCHILL A","5060605","2021-03-12 06:00","2021","03","12","06:00","-31.1","","-33.9","","77","","","","21","","12","","24.1","","101.62","","","","-41","","Clear"
"-94.07","58.74","CHURCHILL A","5060605","2021-03-12 07:00","2021","03","12","07:00","-30.8","","-33.6","","77","","","","22","","13","","24.1","","101.58","","","","-42","","NA"
"-94.07","58.74","CHURCHILL A","5060605","2021-03-12 08:00","2021","03","12","08:00","-28.6","","-31.4","","77","","","","22","","11","","24.1","","101.51","","","","-38","","NA"
"-94.07","58.74","CHURCHILL A","5060605","2021-03-12 09:00","2021","03","12","09:00","-25.4","","-28.9","","73","","","","22","","10","","24.1","","101.50","","","","-34","","Mainly Clear"
"-94.07","58.74","CHURCHILL A","5060605","2021-03-12 10:00","2021","03","12","10:00","-20.9","","-26.2","","63","","","","21","","10","","24.1","","101.49","","","","-28","","NA"
"-94.07","58.74","CHURCHILL A","5060605","2021-03-12 11:00","2021","03","12","11:00","-18.5","","-24.4","","60","","","","18","","6","","24.1","","101.43","","","","-23","","NA"
"-94.07","58.74","CHURCHILL A","5060605","2021-03-12 12:00","2021","03","12","12:00","-15.4","","-22.9","","53","","","","20","","8","","24.1","","101.34","","","","-21","","Mainly Clear"
"-94.07","58.74","CHURCHILL A","5060605","2021-03-12 13:00","2021","03","12","13:00","-14.4","","-22.5","","51","","","","18","","15","","24.1","","101.23","","","","-22","","NA"
"-94.07","58.74","CHURCHILL A","5060605","2021-03-12 14:00","2021","03","12","14:00","-12.9","","-21.2","","50","","","","21","","16","","24.1","","101.20","","","","-21","","NA"
"-94.07","58.74","CHURCHILL A","5060605","2021-03-12 15:00","2021","03","12","15:00","-11.9","","-19.9","","52","","","","18","","12","","24.1","","101.15","","","","-18","","Mostly Cloudy"
"-94.07","58.74","CHURCHILL A","5060605","2021-03-12 16:00","2021","03","12","16:00","-12.2","","-19.3","","56","","","","18","","15","","24.1","","101.08","","","","-19","","NA"
"-94.07","58.74","CHURCHILL A","5060605","2021-03-12 17:00","2021","03","12","17:00","-12.9","","-19.3","","59","","","","17","","16","","24.1","","101.04","","","","-21","","NA"
"-94.07","58.74","CHURCHILL A","5060605","2021-03-12 18:00","2021","03","12","18:00","-13.7","","-19.3","","63","","","","16","","13","","24.1","","101.02","","","","-21","","Mostly Cloudy"
"-94.07","58.74","CHURCHILL A","5060605","2021-03-12 19:00","2021","03","12","19:00","-15.4","","-20.1","","68","","","","15","","14","","24.1","","101.03","","","","-23","","NA"
"-94.07","58.74","CHURCHILL A","5060605","2021-03-12 20:00","2021","03","12","20:00","-15.4","","-19.6","","71","","","","15","","12","","24.1","","101.00","","","","-22","","NA"
"-94.07","58.74","CHURCHILL A","5060605","2021-03-12 21:00","2021","03","12","21:00","-16.1","","-20.2","","71","","","","17","","12","","24.1","","100.96","","","","-23","","Mostly Cloudy"
"-94.07","58.74","CHURCHILL A","5060605","2021-03-12 22:00","2021","03","12","22:00","-16.8","","-20.5","","73","","","","11","","9","","24.1","","100.90","","","","-23","","NA"
"-94.07","58.74","CHURCHILL A","5060605","2021-03-12 23:00","2021","03","12","23:00","-17.8","","-21.1","","76","","","","4","","17","","24.1","","100.92","","","","-27","","NA"
"-94.07","58.74","CHURCHILL A","5060605","2021-03-13 00:00","2021","03","13","00:00","-17.7","","-21.1","","75","","","","7","","13","","24.1","","100.95","","","","-26","","Mostly Cloudy"
"-94.07","58.74","CHURCHILL A","5060605","2021-03-13 01:00","2021","03","13","01:00","-16.2","","-19.4","","77","","","","6","","13","","24.1","","101.01","","","","-24","","NA"
"-94.07","58.74","CHURCHILL A","5060605","2021-03-13 02:00","2021","03","13","02:00","-15.1","","-18.3","","77","","","","4","","17","","24.1","","101.12","","","","-24","","NA"
"-94.07","58.74","CHURCHILL A","5060605","2021-03-13 03:00","2021","03","13","03:00","-15.4","","-18.1","","80","","","","3","","20","","24.1","","101.25","","","","-25","","Mostly Cloudy"
"-94.07","58.74","CHURCHILL A","5060605","2021-03-13 04:00","2021","03","13","04:00","-14.9","","-17.6","","80","","","","1","","23","","24.1","","101.38","","","","-25","","NA"
"-94.07","58.74","CHURCHILL A","5060605","2021-03-13 05:00","2021","03","13","05:00","-15.8","","-18.5","","80","","","","1","","26","","24.1","","101.50","","","","-26","","NA"
"-94.07","58.74","CHURCHILL A","5060605","2021-03-13 06:00","2021","03","13","06:00","-17.2","","-19.0","","86","","","","35","","30","","24.1","","101.63","","","","-29","","Blowing Snow"
"-94.07","58.74","CHURCHILL A","5060605","2021-03-13 07:00","2021","03","13","07:00","-19.1","","-21.3","","83","","","","34","","33","","24.1","","101.75","","","","-32","","Blowing Snow"
"-94.07","58.74","CHURCHILL A","5060605","2021-03-13 08:00","2021","03","13","08:00","-20.7","","-23.5","","78","","","","34","","29","","24.1","","101.89","","","","-33","","Blowing Snow"
"-94.07","58.74","CHURCHILL A","5060605","2021-03-13 09:00","2021","03","13","09:00","-22.7","","-26.1","","74","","","","31","","27","","24.1","","102.04","","","","-36","","Blowing Snow"
"-94.07","58.74","CHURCHILL A","5060605","2021-03-13 10:00","2021","03","13","10:00","-22.0","","-25.2","","76","","","","32","","32","","19.3","","102.17","","","","-36","","Blowing Snow"
"-94.07","58.74","CHURCHILL A","5060605","2021-03-13 11:00","2021","03","13","11:00","-22.3","","-25.8","","74","","","","31","","32","","19.3","","102.31","","","","-36","","Blowing Snow"
"-94.07","58.74","CHURCHILL A","5060605","2021-03-13 12:00","2021","03","13","12:00","-22.3","","-25.8","","74","","","","31","","33","","12.9","","102.43","","","","-36","","Blowing Snow"
"-94.07","58.74","CHURCHILL A","5060605","2021-03-13 13:00","2021","03","13","13:00","-21.3","","-24.3","","77","","","","31","","32","","3.2","","102.52","","","","-35","","Blowing Snow"
"-94.07","58.74","CHURCHILL A","5060605","2021-03-13 14:00","2021","03","13","14:00","-21.4","","-24.7","","75","","","","32","","39","","2.4","","102.66","","","","-36","","Blowing Snow"
"-94.07","58.74","CHURCHILL A","5060605","2021-03-13 15:00","2021","03","13","15:00","-21.2","","-24.7","","74","","","","33","","42","","6.4","","102.79","","","","-36","","Blowing Snow"
"-94.07","58.74","CHURCHILL A","5060605","2021-03-13 16:00","2021","03","13","16:00","-21.5","","-24.8","","75","","","","33","","34","","2.0","","102.94","","","","-35","","Blowing Snow"
"-94.07","58.74","CHURCHILL A","5060605","2021-03-13 17:00","2021","03","13","17:00","-21.2","","-24.2","","77","","","","34","","37","","4.8","","103.06","","","","-35","","Blowing Snow"
"-94.07","58.74","CHURCHILL A","5060605","2021-03-13 18:00","2021","03","13","18:00","-21.5","","-24.2","","79","","","","33","","33","","4.8","","103.17","","","","-35","","Ice Crystals,Blowing Snow"
"-94.07","58.74","CHURCHILL A","5060605","2021-03-13 19:00","2021","03","13","19:00","-21.9","","-24.8","","78","","","","31","","28","","16.1","","103.29","","","","-35","","Ice Crystals,Blowing Snow"
"-94.07","58.74","CHURCHILL A","5060605","2021-03-13 20:00","2021","03","13","20:00","-21.7","","-24.4","","79","","","","33","","26","","24.1","","103.31","","","","-34","","Ice Crystals,Blowing Snow"
"-94.07","58.74","CHURCHILL A","5060605","2021-03-13 21:00","2021","03","13","21:00","-20.9","","-23.5","","80","","","","34","","36","","24.1","","103.37","","","","-35","","Ice Crystals,Blowing Snow"
"-94.07","58.74","CHURCHILL A","5060605","2021-03-13 22:00","2021","03","13","22:00","-20.8","","-23.5","","79","","","","34","","30","","24.1","","103.41","","","","-34","","Ice Crystals,Blowing Snow"
"-94.07","58.74","CHURCHILL A","5060605","2021-03-13 23:00","2021","03","13","23:00","-23.3","","-26.3","","77","","","","31","","25","","24.1","","103.47","","","","-36","","Ice Crystals,Blowing Snow"
"-94.07","58.74","CHURCHILL A","5060605","2021-03-14 00:00","2021","03","14","00:00","-24.2","","-27.1","","77","","","","31","","22","","24.1","","103.52","","","","-36","","Ice Crystals,Blowing Snow"
"-94.07","58.74","CHURCHILL A","5060605","2021-03-14 01:00","2021","03","14","01:00","-24.5","","-28.0","","73","","","","31","","26","","24.1","","103.65","","","","-38","","Ice Crystals,Blowing Snow"
"-94.07","58.74","CHURCHILL A","5060605","2021-03-14 02:00","2021","03","14","02:00","-25.0","","-28.4","","74","","","","32","","23","","24.1","","103.64","","","","-38","","Ice Crystals"
"-94.07","58.74","CHURCHILL A","5060605","2021-03-14 03:00","2021","03","14","03:00","-25.0","","-27.8","","78","","","","33","","14","","24.1","","103.53","","","","-35","","Ice Crystals"
"-94.07","58.74","CHURCHILL A","5060605","2021-03-14 04:00","2021","03","14","04:00","-25.8","","-28.6","","78","","","","31","","14","","24.1","","103.61","","","","-36","","Ice Crystals"
"-94.07","58.74","CHURCHILL A","5060605","2021-03-14 05:00","2021","03","14","05:00","-26.4","","-29.7","","74","","","","29","","21","","24.1","","103.75","","","","-39","","Ice Crystals"
"-94.07","58.74","CHURCHILL A","5060605","2021-03-14 06:00","2021","03","14","06:00","-26.3","","-29.8","","73","","","","30","","18","","24.1","","103.79","","","","-38","","Mostly Cloudy"
"-94.07","58.74","CHURCHILL A","5060605","2021-03-14 07:00","2021","03","14","07:00","-26.1","","-29.6","","73","","","","30","","18","","24.1","","103.77","","","","-38","","NA"
"-94.07","58.74","CHURCHILL A","5060605","2021-03-14 08:00","2021","03","14","08:00","-25.1","","-28.6","","73","","","","29","","14","","24.1","","103.72","","","","-35","","NA"
"-94.07","58.74","CHURCHILL A","5060605","2021-03-14 09:00","2021","03","14","09:00","-24.1","","-28.0","","71","","","","28","","15","","24.1","","103.69","","","","-34","","Cloudy"
"-94.07","58.74","CHURCHILL A","5060605","2021-03-14 10:00","2021","03","14","10:00","-23.2","","-27.2","","70","","","","29","","10","","24.1","","103.64","","","","-31","","NA"
"-94.07","58.74","CHURCHILL A","5060605","2021-03-14 11:00","2021","03","14","11:00","-21.7","","-26.3","","67","","","","27","","10","","24.1","","103.60","","","","-29","","NA"
"-94.07","58.74","CHURCHILL A","5060605","2021-03-14 12:00","2021","03","14","12:00","-20.7","","-25.9","","64","","","","31","","3","","24.1","","103.53","","","","-23","","Cloudy"
"-94.07","58.74","CHURCHILL A","5060605","2021-03-14 13:00","2021","03","14","13:00","-18.3","","-24.7","","58","","","","16","","7","","24.1","","103.43","","","","-24","","NA"
"-94.07","58.74","CHURCHILL A","5060605","2021-03-14 14:00","2021","03","14","14:00","-16.4","","-23.5","","55","","","","17","","12","","24.1","","103.32","","","","-24","","NA"
"-94.07","58.74","CHURCHILL A","5060605","2021-03-14 15:00","2021","03","14","15:00","-16.5","","-22.2","","62","","","","18","","12","","4.8","","103.28","","","","-24","","Snow"
"-94.07","58.74","CHURCHILL A","5060605","2021-03-14 16:00","2021","03","14","16:00","-16.4","","-19.7","","76","","","","15","","19","","4.8","","103.07","","","","-26","","Snow"
"-94.07","58.74","CHURCHILL A","5060605","2021-03-14 17:00","2021","03","14","17:00","-16.6","","-18.9","","83","","","","14","","22","","2.4","","102.82","","","","-27","","Snow,Blowing Snow"
"-94.07","58.74","CHURCHILL A","5060605","2021-03-14 18:00","2021","03","14","18:00","-16.2","","-18.3","","84","","","","14","","29","","4.8","","102.62","","","","-27","","Snow,Blowing Snow"
"-94.07","58.74","CHURCHILL A","5060605","2021-03-14 19:00","2021","03","14","19:00","-15.8","","-18.1","","83","","","","14","","33","","12.9","","102.40","","","","-28","","Snow,Blowing Snow"
"-94.07","58.74","CHURCHILL A","5060605","2021-03-14 20:00","2021","03","14","20:00","-15.3","","-17.6","","83","","","","14","","34","","16.1","","102.31","","","","-27","","Snow,Blowing Snow"
"-94.07","58.74","CHURCHILL A","5060605","2021-03-14 21:00","2021","03","14","21:00","-14.9","","-17.2","","83","","","","14","","30","","16.1","","102.21","","","","-26","","Snow,Blowing Snow"
"-94.07","58.74","CHURCHILL A","5060605","2021-03-14 22:00","2021","03","14","22:00","-13.7","","-16.0","","83","","","","15","","40","","12.9","","102.06","","","","-26","","Snow,Blowing Snow"
"-94.07","58.74","CHURCHILL A","5060605","2021-03-14 23:00","2021","03","14","23:00","-12.6","","-14.9","","83","","","","15","","39","","12.9","","101.89","","","","-24","","Snow,Blowing Snow"
"-94.07","58.74","CHURCHILL A","5060605","2021-03-15 00:00","2021","03","15","00:00","-12.5","","-14.8","","83","","","","14","","32","","19.3","","101.73","","","","-23","","Snow,Blowing Snow"
"-94.07","58.74","CHURCHILL A","5060605","2021-03-15 01:00","2021","03","15","01:00","-12.0","","-14.6","","81","","","","14","","34","","19.3","","101.54","","","","-23","","Snow,Blowing Snow"
"-94.07","58.74","CHURCHILL A","5060605","2021-03-15 02:00","2021","03","15","02:00","-11.8","","-14.6","","80","","","","14","","31","","24.1","","101.37","","","","-22","","Blowing Snow"
"-94.07","58.74","CHURCHILL A","5060605","2021-03-15 03:00","2021","03","15","03:00","-11.4","","-14.7","","77","","","","15","","27","","24.1","","101.24","","","","-21","","Blowing Snow"
"-94.07","58.74","CHURCHILL A","5060605","2021-03-15 04:00","2021","03","15","04:00","-11.3","","-14.9","","75","","","","15","","22","","24.1","","101.16","","","","-20","","Blowing Snow"
"-94.07","58.74","CHURCHILL A","5060605","2021-03-15 05:00","2021","03","15","05:00","-11.5","","-15.2","","74","","","","14","","17","","24.1","","101.04","","","","-19","","NA"
"-94.07","58.74","CHURCHILL A","5060605","2021-03-15 06:00","2021","03","15","06:00","-12.9","","-14.8","","86","","","","9","","21","","24.1","","101.03","","","","-22","","Mostly Cloudy"
"-94.07","58.74","CHURCHILL A","5060605","2021-03-15 07:00","2021","03","15","07:00","-11.9","","-14.1","","84","","","","10","","28","","24.1","","100.96","","","","-22","","NA"
"-94.07","58.74","CHURCHILL A","5060605","2021-03-15 08:00","2021","03","15","08:00","-11.8","","-13.8","","85","","","","11","","28","","24.1","","100.91","","","","-22","","Blowing Snow"
"-94.07","58.74","CHURCHILL A","5060605","2021-03-15 09:00","2021","03","15","09:00","-11.3","","-13.2","","86","","","","11","","32","","24.1","","100.82","","","","-22","","Blowing Snow"
"-94.07","58.74","CHURCHILL A","5060605","2021-03-15 10:00","2021","03","15","10:00","-10.3","","-12.8","","82","","","","11","","27","","24.1","","100.78","","","","-19","","Blowing Snow"
"-94.07","58.74","CHURCHILL A","5060605","2021-03-15 11:00","2021","03","15","11:00","-10.1","","-12.6","","82","","","","11","","32","","24.1","","100.72","","","","-20","","Blowing Snow"
"-94.07","58.74","CHURCHILL A","5060605","2021-03-15 12:00","2021","03","15","12:00","-9.6","","-12.6","","79","","","","11","","37","","24.1","","100.62","","","","-20","","Blowing Snow"
"-94.07","58.74","CHURCHILL A","5060605","2021-03-15 13:00","2021","03","15","13:00","-9.2","","-12.2","","79","","","","11","","32","","24.1","","100.54","","","","-19","","Blowing Snow"
"-94.07","58.74","CHURCHILL A","5060605","2021-03-15 14:00","2021","03","15","14:00","-9.3","","-12.3","","79","","","","11","","36","","24.1","","100.45","","","","-19","","Blowing Snow"
"-94.07","58.74","CHURCHILL A","5060605","2021-03-15 15:00","2021","03","15","15:00","-9.4","","-12.1","","81","","","","12","","30","","24.1","","100.40","","","","-19","","Blowing Snow"
"-94.07","58.74","CHURCHILL A","5060605","2021-03-15 16:00","2021","03","15","16:00","-9.2","","-12.4","","78","","","","13","","38","","24.1","","100.33","","","","-19","","Blowing Snow"
"-94.07","58.74","CHURCHILL A","5060605","2021-03-15 17:00","2021","03","15","17:00","-9.4","","-12.7","","77","","","","13","","36","","24.1","","100.25","","","","-20","","Blowing Snow"
"-94.07","58.74","CHURCHILL A","5060605","2021-03-15 18:00","2021","03","15","18:00","-10.2","","-12.9","","81","","","","13","","24","","24.1","","100.20","","","","-19","","Blowing Snow"
"-94.07","58.74","CHURCHILL A","5060605","2021-03-15 19:00","2021","03","15","19:00","-10.1","","-12.3","","84","","","","13","","31","","24.1","","100.10","","","","-20","","Blowing Snow"
"-94.07","58.74","CHURCHILL A","5060605","2021-03-15 20:00","2021","03","15","20:00","-10.1","","-12.1","","85","","","","14","","28","","24.1","","100.04","","","","-19","","Blowing Snow"
"-94.07","58.74","CHURCHILL A","5060605","2021-03-15 21:00","2021","03","15","21:00","-9.9","","-11.8","","86","","","","14","","16","","24.1","","100.01","","","","-17","","Cloudy"
"-94.07","58.74","CHURCHILL A","5060605","2021-03-15 22:00","2021","03","15","22:00","-9.6","","-11.5","","86","","","","31","","16","","24.1","","100.13","","","","-16","","NA"
"-94.07","58.74","CHURCHILL A","5060605","2021-03-15 23:00","2021","03","15","23:00","-9.7","","-11.0","","90","","","","31","","21","","6.4","","100.14","","","","-18","","Snow,Blowing Snow"
"-94.07","58.74","CHURCHILL A","5060605","2021-03-16 00:00","2021","03","16","00:00","-9.3","","-10.5","","91","","","","30","","33","","9.7","","100.22","","","","-19","","Snow,Blowing Snow"
"-94.07","58.74","CHURCHILL A","5060605","2021-03-16 01:00","2021","03","16","01:00","-11.7","","-13.7","","85","","","","32","","41","","4.8","","100.35","","","","-23","","Blowing Snow"
"-94.07","58.74","CHURCHILL A","5060605","2021-03-16 02:00","2021","03","16","02:00","-13.7","","-16.1","","82","","","","32","","42","","6.4","","100.50","","","","-26","","Blowing Snow"
"-94.07","58.74","CHURCHILL A","5060605","2021-03-16 03:00","2021","03","16","03:00","-14.5","","-17.9","","76","","","","31","","47","","12.9","","100.62","","","","-28","","Blowing Snow"
"-94.07","58.74","CHURCHILL A","5060605","2021-03-16 04:00","2021","03","16","04:00","-15.4","","-19.2","","73","","","","31","","40","","12.9","","100.71","","","","-28","","Blowing Snow"
"-94.07","58.74","CHURCHILL A","5060605","2021-03-16 05:00","2021","03","16","05:00","-15.7","","-19.8","","71","","","","31","","35","","19.3","","100.75","","","","-28","","Blowing Snow"
"-94.07","58.74","CHURCHILL A","5060605","2021-03-16 06:00","2021","03","16","06:00","-16.1","","-20.6","","69","","","","30","","28","","24.1","","100.84","","","","-27","","Blowing Snow"
"-94.07","58.74","CHURCHILL A","5060605","2021-03-16 07:00","2021","03","16","07:00","-16.2","","-21.2","","66","","","","29","","25","","24.1","","100.87","","","","-27","","Blowing Snow"
"-94.07","58.74","CHURCHILL A","5060605","2021-03-16 08:00","2021","03","16","08:00","-16.4","","-21.0","","68","","","","28","","21","","24.1","","100.85","","","","-26","","Blowing Snow"
"-94.07","58.74","CHURCHILL A","5060605","2021-03-16 09:00","2021","03","16","09:00","-15.2","","-20.9","","62","","","","27","","22","","24.1","","100.86","","","","-25","","Clear"
"-94.07","58.74","CHURCHILL A","5060605","2021-03-16 10:00","2021","03","16","10:00","-14.0","","-20.4","","59","","","","27","","24","","24.1","","100.84","","","","-24","","NA"
"-94.07","58.74","CHURCHILL A","5060605","2021-03-16 11:00","2021","03","16","11:00","-12.3","","-19.6","","55","","","","26","","19","","24.1","","100.82","","","","-21","","NA"
"-94.07","58.74","CHURCHILL A","5060605","2021-03-16 12:00","2021","03","16","12:00","-9.9","","-19.7","","45","","","","24","","24","","24.1","","100.75","","","","-18","","Mainly Clear"
"-94.07","58.74","CHURCHILL A","5060605","2021-03-16 13:00","2021","03","16","13:00","-8.7","","-17.8","","48","","","","22","","28","","24.1","","100.65","","","","-18","","NA"
"-94.07","58.74","CHURCHILL A","5060605","2021-03-16 14:00","2021","03","16","14:00","-7.7","","-16.6","","50","","","","23","","29","","24.1","","100.54","","","","-16","","NA"
"-94.07","58.74","CHURCHILL A","5060605","2021-03-16 15:00","2021","03","16","15:00","-5.9","","-15.3","","48","","","","24","","29","","24.1","","100.47","","","","-14","","Mostly Cloudy"
"-94.07","58.74","CHURCHILL A","5060605","2021-03-16 16:00","2021","03","16","16:00","-5.1","","-13.9","","50","","","","24","","22","","24.1","","100.41","","","","-12","","NA"
"-94.07","58.74","CHURCHILL A","5060605","2021-03-16 17:00","2021","03","16","17:00","-4.7","","-13.6","","50","","","","25","","23","","24.1","","100.37","","","","-12","","NA"
"-94.07","58.74","CHURCHILL A","5060605","2021-03-16 18:00","2021","03","16","18:00","-6.3","","-12.6","","61","","","","28","","11","","24.1","","100.40","","","","-11","","Mostly Cloudy"
"-94.07","58.74","CHURCHILL A","5060605","2021-03-16 19:00","2021","03","16","19:00","-7.6","","-12.2","","70","","","","2","","18","","24.1","","100.42","","","","-14","","NA"
"-94.07","58.74","CHURCHILL A","5060605","2021-03-16 20:00","2021","03","16","20:00","-8.4","","-12.6","","72","","","","36","","20","","24.1","","100.51","","","","-16","","NA"
"-94.07","58.74","CHURCHILL A","5060605","2021-03-16 21:00","2021","03","16","21:00","-9.0","","-13.9","","68","","","","36","","19","","24.1","","100.55","","","","-16","","Cloudy"
"-94.07","58.74","CHURCHILL A","5060605","2021-03-16 22:00","2021","03","16","22:00","-9.6","","-16.5","","57","","","","34","","25","","24.1","","100.58","","","","-18","","NA"
"-94.07","58.74","CHURCHILL A","5060605","2021-03-16 23:00","2021","03","16","23:00","-12.5","","-16.8","","71","","","","34","","41","","24.1","","100.69","","","","-24","","NA"
"-94.07","58.74","CHURCHILL A","5060605","2021-03-17 00:00","2021","03","17","00:00","-15.4","","-20.1","","68","","","","32","","37","","24.1","","100.79","","","","-28","","Clear"
"-94.07","58.74","CHURCHILL A","5060605","2021-03-17 01:00","2021","03","17","01:00","-16.9","","-21.8","","66","","","","31","","30","","24.1","","100.85","","","","-29","","NA"
"-94.07","58.74","CHURCHILL A","5060605","2021-03-17 02:00","2021","03","17","02:00","-18.1","","-22.1","","71","","","","30","","26","","24.1","","100.93","","","","-29","","NA"
"-94.07","58.74","CHURCHILL A","5060605","2021-03-17 03:00","2021","03","17","03:00","-19.5","","-23.0","","74","","","","31","","32","","24.1","","101.01","","","","-32","","Clear"
"-94.07","58.74","CHURCHILL A","5060605","2021-03-17 04:00","2021","03","17","04:00","-20.6","","-23.8","","76","","","","32","","41","","24.1","","101.09","","","","-35","","NA"
"-94.07","58.74","CHURCHILL A","5060605","2021-03-17 05:00","2021","03","17","05:00","-21.7","","-24.7","","77","","","","31","","33","","24.1","","101.17","","","","-35","","Ice Crystals"
"-94.07","58.74","CHURCHILL A","5060605","2021-03-17 06:00","2021","03","17","06:00","-22.1","","-25.1","","77","","","","31","","33","","9.7","","101.31","","","","-36","","Ice Crystals"
"-94.07","58.74","CHURCHILL A","5060605","2021-03-17 07:00","2021","03","17","07:00","-22.5","","-25.4","","78","","","","31","","30","","9.7","","101.45","","","","-36","","Ice Crystals"
"-94.07","58.74","CHURCHILL A","5060605","2021-03-17 08:00","2021","03","17","08:00","-22.3","","-25.4","","76","","","","31","","27","","16.1","","101.59","","","","-35","","Ice Crystals"
"-94.07","58.74","CHURCHILL A","5060605","2021-03-17 09:00","2021","03","17","09:00","-21.3","","-24.5","","76","","","","31","","30","","24.1","","101.68","","","","-34","","Ice Crystals"
"-94.07","58.74","CHURCHILL A","5060605","2021-03-17 10:00","2021","03","17","10:00","-21.4","","-25.2","","72","","","","31","","30","","24.1","","101.82","","","","-34","","Ice Crystals"
"-94.07","58.74","CHURCHILL A","5060605","2021-03-17 11:00","2021","03","17","11:00","-20.3","","-24.0","","73","","","","31","","27","","24.1","","101.86","","","","-32","","Ice Crystals"
"-94.07","58.74","CHURCHILL A","5060605","2021-03-17 12:00","2021","03","17","12:00","-19.2","","-22.9","","73","","","","31","","21","","24.1","","101.93","","","","-30","","Ice Crystals"
"-94.07","58.74","CHURCHILL A","5060605","2021-03-17 13:00","2021","03","17","13:00","-17.8","","-21.9","","71","","","","31","","22","","24.1","","101.99","","","","-28","","Ice Crystals"
"-94.07","58.74","CHURCHILL A","5060605","2021-03-17 14:00","2021","03","17","14:00","-16.8","","-21.6","","67","","","","32","","23","","24.1","","102.01","","","","-27","","Ice Crystals"
"-94.07","58.74","CHURCHILL A","5060605","2021-03-17 15:00","2021","03","17","15:00","-16.0","","-21.0","","66","","","","30","","22","","24.1","","102.04","","","","-26","","Ice Crystals"
"-94.07","58.74","CHURCHILL A","5060605","2021-03-17 16:00","2021","03","17","16:00","-15.9","","-20.7","","67","","","","31","","14","","24.1","","102.05","","","","-24","","Ice Crystals"
"-94.07","58.74","CHURCHILL A","5060605","2021-03-17 17:00","2021","03","17","17:00","-16.3","","-20.8","","69","","","","30","","10","","24.1","","102.07","","","","-23","","Ice Crystals"
"-94.07","58.74","CHURCHILL A","5060605","2021-03-17 18:00","2021","03","17","18:00","-16.9","","-21.0","","71","","","","26","","6","","24.1","","102.07","","","","-21","","Ice Crystals"
"-94.07","58.74","CHURCHILL A","5060605","2021-03-17 19:00","2021","03","17","19:00","-16.8","","-21.4","","68","","","","16","","4","","24.1","","102.01","","","","-20","","Ice Crystals"
"-94.07","58.74","CHURCHILL A","5060605","2021-03-17 20:00","2021","03","17","20:00","-17.5","","-21.9","","69","","","","18","","11","","24.1","","102.00","","","","-25","","NA"
"-94.07","58.74","CHURCHILL A","5060605","2021-03-17 21:00","2021","03","17","21:00","-17.8","","-22.0","","70","","","","19","","11","","24.1","","101.98","","","","-25","","Cloudy"
"-94.07","58.74","CHURCHILL A","5060605","2021-03-17 22:00","2021","03","17","22:00","-17.4","","-21.6","","70","","","","17","","10","","24.1","","101.92","","","","-24","","NA"
"-94.07","58.74","CHURCHILL A","5060605","2021-03-17 23:00","2021","03","17","23:00","-17.2","","-21.4","","70","","","","18","","13","","24.1","","101.85","","","","-25","","NA"
"-94.07","58.74","CHURCHILL A","5060605","2021-03-18 00:00","2021","03","18","00:00","-17.4","","-21.5","","71","","","","18","","13","","24.1","","101.78","","","","-25","","Mostly Cloudy"
"-94.07","58.74","CHURCHILL A","5060605","2021-03-18 01:00","2021","03","18","01:00","-17.5","","-20.5","","78","","","","18","","14","","24.1","","101.73","","","","-26","","Snow"
"-94.07","58.74","CHURCHILL A","5060605","2021-03-18 02:00","2021","03","18","02:00","-17.4","","-19.4","","85","","","","16","","15","","24.1","","101.68","","","","-26","","Snow"
"-94.07","58.74","CHURCHILL A","5060605","2021-03-18 03:00","2021","03","18","03:00","-16.0","","-18.0","","85","","","","14","","13","","24.1","","101.66","","","","-24","","Cloudy"
"-94.07","58.74","CHURCHILL A","5060605","2021-03-18 04:00","2021","03","18","04:00","-17.2","","-18.9","","87","","","","14","","15","","24.1","","101.60","","","","-26","","NA"
"-94.07","58.74","CHURCHILL A","5060605","2021-03-18 05:00","2021","03","18","05:00","-17.0","","-18.5","","88","","","","14","","16","","24.1","","101.57","","","","-26","","NA"
"-94.07","58.74","CHURCHILL A","5060605","2021-03-18 06:00","2021","03","18","06:00","-16.7","","-18.5","","86","","","","16","","16","","24.1","","101.52","","","","-25","","Mainly Clear"
"-94.07","58.74","CHURCHILL A","5060605","2021-03-18 07:00","2021","03","18","07:00","-16.8","","-18.9","","84","","","","16","","15","","24.1","","101.47","","","","-25","","Ice Crystals"
"-94.07","58.74","CHURCHILL A","5060605","2021-03-18 08:00","2021","03","18","08:00","-16.7","","-19.1","","82","","","","17","","15","","24.1","","101.37","","","","-25","","Ice Crystals"
"-94.07","58.74","CHURCHILL A","5060605","2021-03-18 09:00","2021","03","18","09:00","-14.7","","-18.0","","76","","","","16","","14","","24.1","","101.28","","","","-22","","Ice Crystals"
"-94.07","58.74","CHURCHILL A","5060605","2021-03-18 10:00","2021","03","18","10:00","-12.1","","-17.2","","66","","","","17","","16","","24.1","","101.13","","","","-20","","NA"
"-94.07","58.74","CHURCHILL A","5060605","2021-03-18 11:00","2021","03","18","11:00","-9.2","","-15.9","","58","","","","16","","19","","24.1","","101.05","","","","-17","","NA"
"-94.07","58.74","CHURCHILL A","5060605","2021-03-18 12:00","2021","03","18","12:00","-6.4","","-13.5","","58","","","","18","","19","","24.1","","100.94","","","","-13","","Mostly Cloudy"
"-94.07","58.74","CHURCHILL A","5060605","2021-03-18 13:00","2021","03","18","13:00","-5.0","","-11.2","","62","","","","19","","21","","24.1","","100.79","","","","-12","","NA"
"-94.07","58.74","CHURCHILL A","5060605","2021-03-18 14:00","2021","03","18","14:00","-3.5","","-9.2","","65","","","","19","","24","","24.1","","100.65","","","","-10","","NA"
"-94.07","58.74","CHURCHILL A","5060605","2021-03-18 15:00","2021","03","18","15:00","-2.8","","-8.1","","67","","","","19","","19","","24.1","","100.56","","","","-9","","Mostly Cloudy"
"-94.07","58.74","CHURCHILL A","5060605","2021-03-18 16:00","2021","03","18","16:00","1.0","","-5.3","","63","","","","21","","21","","24.1","","100.45","","","","","","NA"
"-94.07","58.74","CHURCHILL A","5060605","2021-03-18 17:00","2021","03","18","17:00","4.4","","-3.0","","58","","","","23","","21","","24.1","","100.46","","","","","","NA"
"-94.07","58.74","CHURCHILL A","5060605","2021-03-18 18:00","2021","03","18","18:00","4.9","","-2.7","","58","","","","26","","19","","24.1","","100.53","","","","","","Mostly Cloudy"
"-94.07","58.74","CHURCHILL A","5060605","2021-03-18 19:00","2021","03","18","19:00","1.9","","-3.0","","70","","","","27","","14","","24.1","","100.62","","","","","","NA"
"-94.07","58.74","CHURCHILL A","5060605","2021-03-18 20:00","2021","03","18","20:00","1.4","","-3.1","","72","","","","25","","10","","24.1","","100.64","","","","","","NA"
"-94.07","58.74","CHURCHILL A","5060605","2021-03-18 21:00","2021","03","18","21:00","0.8","","-3.3","","74","","","","27","","12","","24.1","","100.66","","","","","","Mainly Clear"
"-94.07","58.74","CHURCHILL A","5060605","2021-03-18 22:00","2021","03","18","22:00","-0.2","","-4.1","","75","","","","26","","11","","24.1","","100.69","","","","-4","","NA"
"-94.07","58.74","CHURCHILL A","5060605","2021-03-18 23:00","2021","03","18","23:00","0.2","","-3.9","","74","","","","23","","10","","24.1","","100.71","","","","","","NA"
"-94.07","58.74","CHURCHILL A","5060605","2021-03-19 00:00","2021","03","19","00:00","-2.7","","-5.2","","83","","","","21","","12","","24.1","","100.74","","","","-7","","Mostly Cloudy"
"-94.07","58.74","CHURCHILL A","5060605","2021-03-19 01:00","2021","03","19","01:00","-2.0","","-5.0","","80","","","","26","","9","","24.1","","100.77","","","","-5","","NA"
"-94.07","58.74","CHURCHILL A","5060605","2021-03-19 02:00","2021","03","19","02:00","-0.6","","-4.5","","75","","","","29","","9","","24.1","","100.74","","","","-4","","NA"
"-94.07","58.74","CHURCHILL A","5060605","2021-03-19 03:00","2021","03","19","03:00","-7.2","","-8.4","","91","","","","8","","8","","24.1","","100.76","","","","-11","","Clear"
"-94.07","58.74","CHURCHILL A","5060605","2021-03-19 04:00","2021","03","19","04:00","-7.5","","-8.5","","93","","","","17","","5","","24.1","","100.80","","","","-10","","NA"
"-94.07","58.74","CHURCHILL A","5060605","2021-03-19 05:00","2021","03","19","05:00","-8.0","","-8.8","","94","","","","17","","5","","24.1","","100.81","","","","-11","","NA"
"-94.07","58.74","CHURCHILL A","5060605","2021-03-19 06:00","2021","03","19","06:00","-9.2","","-9.9","","94","","","","15","","9","","24.1","","100.82","","","","-14","","Mostly Cloudy"
"-94.07","58.74","CHURCHILL A","5060605","2021-03-19 07:00","2021","03","19","07:00","-10.3","","-11.1","","94","","","","12","","5","","24.1","","100.81","","","","-13","","NA"
"-94.07","58.74","CHURCHILL A","5060605","2021-03-19 08:00","2021","03","19","08:00","-9.1","","-10.0","","93","","","","16","","9","","24.1","","100.82","","","","-14","","NA"
"-94.07","58.74","CHURCHILL A","5060605","2021-03-19 09:00","2021","03","19","09:00","-8.2","","-9.7","","89","","","","12","","10","","24.1","","100.79","","","","-13","","Mainly Clear"
"-94.07","58.74","CHURCHILL A","5060605","2021-03-19 10:00","2021","03","19","10:00","-5.7","","-8.3","","82","","","","9","","14","","24.1","","100.76","","","","-11","","NA"
"-94.07","58.74","CHURCHILL A","5060605","2021-03-19 11:00","2021","03","19","11:00","-2.3","","-5.6","","78","","","","15","","10","","24.1","","100.73","","","","-6","","NA"
"-94.07","58.74","CHURCHILL A","5060605","2021-03-19 12:00","2021","03","19","12:00","1.4","","-3.3","","71","","","","15","","12","","24.1","","100.64","","","","","","Mostly Cloudy"
"-94.07","58.74","CHURCHILL A","5060605","2021-03-19 13:00","2021","03","19","13:00","1.6","","-2.7","","73","","","","14","","17","","24.1","","100.56","","","","","","NA"
"-94.07","58.74","CHURCHILL A","5060605","2021-03-19 14:00","2021","03","19","14:00","3.1","","-2.2","","68","","","","13","","14","","24.1","","100.48","","","","","","NA"
"-94.07","58.74","CHURCHILL A","5060605","2021-03-19 15:00","2021","03","19","15:00","3.1","","-2.2","","68","","","","14","","17","","24.1","","100.43","","","","","","Mostly Cloudy"
"-94.07","58.74","CHURCHILL A","5060605","2021-03-19 16:00","2021","03","19","16:00","2.4","","-2.7","","69","","","","15","","19","","24.1","","100.37","","","","","","NA"
"-94.07","58.74","CHURCHILL A","5060605","2021-03-19 17:00","2021","03","19","17:00","2.3","","-2.8","","69","","","","15","","20","","24.1","","100.29","","","","","","NA"
"-94.07","58.74","CHURCHILL A","5060605","2021-03-19 18:00","2021","03","19","18:00","-0.2","","-3.2","","80","","","","13","","22","","24.1","","100.23","","","","-6","","Mostly Cloudy"
"-94.07","58.74","CHURCHILL A","5060605","2021-03-19 19:00","2021","03","19","19:00","-1.6","","-4.0","","84","","","","14","","23","","24.1","","100.16","","","","-8","","NA"
"-94.07","58.74","CHURCHILL A","5060605","2021-03-19 20:00","2021","03","19","20:00","-2.6","","-4.7","","85","","","","14","","16","","24.1","","100.13","","","","-8","","NA"
"-94.07","58.74","CHURCHILL A","5060605","2021-03-19 21:00","2021","03","19","21:00","-3.1","","-5.0","","87","","","","14","","17","","24.1","","100.07","","","","-9","","Mainly Clear"
"-94.07","58.74","CHURCHILL A","5060605","2021-03-19 22:00","2021","03","19","22:00","-2.7","","-4.9","","85","","","","15","","16","","24.1","","99.97","","","","-8","","NA"
"-94.07","58.74","CHURCHILL A","5060605","2021-03-19 23:00","2021","03","19","23:00","-2.7","","-4.9","","85","","","","16","","16","","24.1","","99.92","","","","-8","","NA"
"-94.07","58.74","CHURCHILL A","5060605","2021-03-20 00:00","2021","03","20","00:00","-3.4","","-5.3","","87","","","","17","","15","","24.1","","99.86","","","","-9","","Clear"
"-94.07","58.74","CHURCHILL A","5060605","2021-03-20 01:00","2021","03","20","01:00","-3.7","","-5.4","","88","","","","17","","15","","24.1","","99.82","","","","-9","","NA"
"-94.07","58.74","CHURCHILL A","5060605","2021-03-20 02:00","2021","03","20","02:00","-4.4","","-5.7","","91","","","","17","","13","","24.1","","99.78","","","","-9","","NA"
"-94.07","58.74","CHURCHILL A","5060605","2021-03-20 03:00","2021","03","20","03:00","-4.8","","-5.9","","92","","","","18","","13","","24.1","","99.74","","","","-10","","Clear"
"-94.07","58.74","CHURCHILL A","5060605","2021-03-20 04:00","2021","03","20","04:00","-5.0","","-6.1","","92","","","","18","","15","","24.1","","99.69","","","","-11","","NA"
"-94.07","58.74","CHURCHILL A","5060605","2021-03-20 05:00","2021","03","20","05:00","-4.5","","-5.8","","91","","","","17","","14","","24.1","","99.63","","","","-10","","NA"
"-94.07","58.74","CHURCHILL A","5060605","2021-03-20 06:00","2021","03","20","06:00","-4.0","","-5.5","","89","","","","17","","10","","24.1","","99.59","","","","-8","","Mostly Cloudy"
"-94.07","58.74","CHURCHILL A","5060605","2021-03-20 07:00","2021","03","20","07:00","-3.3","","-5.0","","88","","","","17","","13","","24.1","","99.53","","","","-8","","NA"
"-94.07","58.74","CHURCHILL A","5060605","2021-03-20 08:00","2021","03","20","08:00","-2.7","","-4.3","","89","","","","15","","13","","24.1","","99.44","","","","-7","","NA"
"-94.07","58.74","CHURCHILL A","5060605","2021-03-20 09:00","2021","03","20","09:00","-1.0","","-3.2","","85","","","","28","","13","","24.1","","99.47","","","","-5","","Cloudy"
"-94.07","58.74","CHURCHILL A","5060605","2021-03-20 10:00","2021","03","20","10:00","0.0","","-2.2","","85","","","","16","","11","","24.1","","99.35","","","","-4","","NA"
"-94.07","58.74","CHURCHILL A","5060605","2021-03-20 11:00","2021","03","20","11:00","1.4","","-1.0","","84","","","","15","","9","","24.1","","99.28","","","","","","NA"
"-94.07","58.74","CHURCHILL A","5060605","2021-03-20 12:00","2021","03","20","12:00","4.0","","-1.0","","70","","","","25","","13","","24.1","","99.31","","","","","","Mainly Clear"
"-94.07","58.74","CHURCHILL A","5060605","2021-03-20 13:00","2021","03","20","13:00","4.0","","-1.0","","70","","","","27","","21","","24.1","","99.29","","","","","","NA"
"-94.07","58.74","CHURCHILL A","5060605","2021-03-20 14:00","2021","03","20","14:00","3.1","","-2.0","","69","","","","28","","18","","24.1","","99.34","","","","","","NA"
"-94.07","58.74","CHURCHILL A","5060605","2021-03-20 15:00","2021","03","20","15:00","2.3","","-1.9","","74","","","","29","","13","","24.1","","99.38","","","","","","Clear"
"-94.07","58.74","CHURCHILL A","5060605","2021-03-20 16:00","2021","03","20","16:00","1.5","","-2.5","","75","","","","32","","9","","24.1","","99.42","","","","","","NA"
"-94.07","58.74","CHURCHILL A","5060605","2021-03-20 17:00","2021","03","20","17:00","-0.2","","-3.1","","81","","","","34","","13","","24.1","","99.46","","","","-4","","NA"
"-94.07","58.74","CHURCHILL A","5060605","2021-03-20 18:00","2021","03","20","18:00","-1.2","","-2.9","","88","","","","36","","17","","24.1","","99.52","","","","-6","","Mainly Clear"
"-94.07","58.74","CHURCHILL A","5060605","2021-03-20 19:00","2021","03","20","19:00","-2.2","","-3.5","","91","","","","1","","20","","24.1","","99.59","","","","-8","","NA"
"-94.07","58.74","CHURCHILL A","5060605","2021-03-20 20:00","2021","03","20","20:00","-3.4","","-4.4","","93","","","","36","","3","","24.1","","99.70","","","","-5","","NA"
"-94.07","58.74","CHURCHILL A","5060605","2021-03-20 21:00","2021","03","20","21:00","-4.4","","-5.4","","93","","","","36","","12","","24.1","","99.76","","","","-9","","Clear"
"-94.07","58.74","CHURCHILL A","5060605","2021-03-20 22:00","2021","03","20","22:00","-4.6","","-5.8","","91","","","","35","","11","","24.1","","99.78","","","","-9","","NA"
"-94.07","58.74","CHURCHILL A","5060605","2021-03-20 23:00","2021","03","20","23:00","-4.9","","-5.6","","95","","","","34","","9","","24.1","","99.83","","","","-9","","NA"
"-94.07","58.74","CHURCHILL A","5060605","2021-03-21 00:00","2021","03","21","00:00","-6.2","","-6.5","","98","","","","23","","10","","24.1","","99.87","","","","-11","","Clear"
"-94.07","58.74","CHURCHILL A","5060605","2021-03-21 01:00","2021","03","21","01:00","-6.9","","-7.3","","97","","","","24","","10","","24.1","","99.93","","","","-12","","NA"
"-94.07","58.74","CHURCHILL A","5060605","2021-03-21 02:00","2021","03","21","02:00","-7.1","","-7.6","","96","","","","26","","10","","24.1","","99.95","","","","-12","","NA"
"-94.07","58.74","CHURCHILL A","5060605","2021-03-21 03:00","2021","03","21","03:00","-7.6","","-8.1","","96","","","","29","","9","","24.1","","99.96","","","","-12","","Clear"
"-94.07","58.74","CHURCHILL A","5060605","2021-03-21 04:00","2021","03","21","04:00","-7.5","","-8.0","","96","","","","26","","9","","24.1","","99.98","","","","-12","","NA"
"-94.07","58.74","CHURCHILL A","5060605","2021-03-21 05:00","2021","03","21","05:00","-7.7","","-8.2","","96","","","","29","","7","","24.1","","100.01","","","","-11","","NA"
"-94.07","58.74","CHURCHILL A","5060605","2021-03-21 06:00","2021","03","21","06:00","-8.3","","-8.8","","96","","","","27","","8","","24.1","","100.04","","","","-12","","Mostly Cloudy"
"-94.07","58.74","CHURCHILL A","5060605","2021-03-21 07:00","2021","03","21","07:00","-8.3","","-9.0","","95","","","","32","","10","","24.1","","100.06","","","","-13","","NA"
"-94.07","58.74","CHURCHILL A","5060605","2021-03-21 08:00","2021","03","21","08:00","-7.9","","-8.7","","94","","","","28","","7","","24.1","","100.07","","","","-12","","NA"
"-94.07","58.74","CHURCHILL A","5060605","2021-03-21 09:00","2021","03","21","09:00","-6.7","","-7.7","","93","","","","32","","7","","24.1","","100.06","","","","-10","","Mainly Clear"
"-94.07","58.74","CHURCHILL A","5060605","2021-03-21 10:00","2021","03","21","10:00","-5.3","","-6.9","","88","","","","1","","10","","24.1","","100.08","","","","-10","","NA"
"-94.07","58.74","CHURCHILL A","5060605","2021-03-21 11:00","2021","03","21","11:00","-5.0","","-7.5","","83","","","","6","","14","","24.1","","99.99","","","","-10","","NA"
"-94.07","58.74","CHURCHILL A","5060605","2021-03-21 12:00","2021","03","21","12:00","-4.8","","-7.6","","81","","","","9","","15","","24.1","","99.93","","","","-10","","Cloudy"
"-94.07","58.74","CHURCHILL A","5060605","2021-03-21 13:00","2021","03","21","13:00","-4.3","","-7.0","","82","","","","7","","21","","24.1","","99.83","","","","-11","","NA"
"-94.07","58.74","CHURCHILL A","5060605","2021-03-21 14:00","2021","03","21","14:00","-4.7","","-7.2","","82","","","","9","","25","","24.1","","99.76","","","","-12","","NA"
"-94.07","58.74","CHURCHILL A","5060605","2021-03-21 15:00","2021","03","21","15:00","-4.7","","-7.0","","84","","","","9","","30","","24.1","","99.68","","","","-13","","Mostly Cloudy"
"-94.07","58.74","CHURCHILL A","5060605","2021-03-21 16:00","2021","03","21","16:00","-4.7","","-6.4","","88","","","","10","","32","","24.1","","99.58","","","","-13","","NA"
"-94.07","58.74","CHURCHILL A","5060605","2021-03-21 17:00","2021","03","21","17:00","-5.2","","-6.6","","90","","","","11","","28","","24.1","","99.54","","","","-13","","NA"
"-94.07","58.74","CHURCHILL A","5060605","2021-03-21 18:00","2021","03","21","18:00","-5.1","","-6.6","","89","","","","11","","27","","24.1","","99.48","","","","-13","","Cloudy"
"-94.07","58.74","CHURCHILL A","5060605","2021-03-21 19:00","2021","03","21","19:00","-6.2","","-7.3","","92","","","","10","","15","","12.9","","99.51","","","","-12","","NA"
"-94.07","58.74","CHURCHILL A","5060605","2021-03-21 20:00","2021","03","21","20:00","-5.9","","-6.8","","93","","","","7","","18","","16.1","","99.50","","","","-12","","NA"
"-94.07","58.74","CHURCHILL A","5060605","2021-03-21 21:00","2021","03","21","21:00","-6.3","","-7.1","","94","","","","6","","21","","24.1","","99.42","","","","-13","","Cloudy"
"-94.07","58.74","CHURCHILL A","5060605","2021-03-21 22:00","2021","03","21","22:00","-6.3","","-7.2","","93","","","","2","","26","","6.4","","99.46","","","","-14","","Snow"
"-94.07","58.74","CHURCHILL A","5060605","2021-03-21 23:00","2021","03","21","23:00","-8.0","","-9.2","","91","","","","33","","38","","3.2","","99.59","","","","-18","","Snow,Blowing Snow"
"-94.07","58.74","CHURCHILL A","5060605","2021-03-22 00:00","2021","03","22","00:00","-11.4","","-12.6","","91","","","","31","","46","","0.6","","99.78","","","","-23","","Snow,Blowing Snow"
"-94.07","58.74","CHURCHILL A","5060605","2021-03-22 01:00","2021","03","22","01:00","-13.2","","-14.8","","88","","","","30","","47","","0.6","","99.89","","","","-26","","Snow,Blowing Snow"
"-94.07","58.74","CHURCHILL A","5060605","2021-03-22 02:00","2021","03","22","02:00","-14.1","","-16.2","","84","","","","30","","46","","1.0","","99.93","","","","-27","","Snow,Blowing Snow"
"-94.07","58.74","CHURCHILL A","5060605","2021-03-22 03:00","2021","03","22","03:00","-16.1","","-18.5","","82","","","","29","","39","","4.8","","100.01","","","","-29","","Snow,Blowing Snow"
"-94.07","58.74","CHURCHILL A","5060605","2021-03-22 04:00","2021","03","22","04:00","-16.7","","-19.4","","80","","","","30","","36","","9.7","","100.10","","","","-29","","Ice Crystals,Blowing Snow"
"-94.07","58.74","CHURCHILL A","5060605","2021-03-22 05:00","2021","03","22","05:00","-17.1","","-20.2","","77","","","","28","","30","","12.9","","100.13","","","","-29","","Ice Crystals,Blowing Snow"
"-94.07","58.74","CHURCHILL A","5060605","2021-03-22 06:00","2021","03","22","06:00","-18.0","","-21.3","","76","","","","28","","31","","24.1","","100.17","","","","-30","","Ice Crystals,Blowing Snow"
"-94.07","58.74","CHURCHILL A","5060605","2021-03-22 07:00","2021","03","22","07:00","-18.6","","-22.1","","74","","","","27","","35","","24.1","","100.18","","","","-32","","Ice Crystals,Blowing Snow"
"-94.07","58.74","CHURCHILL A","5060605","2021-03-22 08:00","2021","03","22","08:00","-18.8","","-22.7","","72","","","","27","","37","","24.1","","100.22","","","","-32","","Blowing Snow"
"-94.07","58.74","CHURCHILL A","5060605","2021-03-22 09:00","2021","03","22","09:00","-18.5","","-22.5","","71","","","","27","","35","","19.3","","100.26","","","","-31","","Blowing Snow"
"-94.07","58.74","CHURCHILL A","5060605","2021-03-22 10:00","2021","03","22","10:00","-17.8","","-22.1","","70","","","","27","","36","","16.1","","100.27","","","","-31","","Blowing Snow"
"-94.07","58.74","CHURCHILL A","5060605","2021-03-22 11:00","2021","03","22","11:00","-17.0","","-21.6","","68","","","","26","","39","","12.9","","100.32","","","","-30","","Blowing Snow"
"-94.07","58.74","CHURCHILL A","5060605","2021-03-22 12:00","2021","03","22","12:00","-16.9","","-21.3","","69","","","","26","","42","","8.1","","100.33","","","","-30","","Blowing Snow"
"-94.07","58.74","CHURCHILL A","5060605","2021-03-22 13:00","2021","03","22","13:00","-16.6","","-20.9","","70","","","","27","","44","","6.4","","100.39","","","","-30","","Blowing Snow"
"-94.07","58.74","CHURCHILL A","5060605","2021-03-22 14:00","2021","03","22","14:00","-16.5","","-19.8","","76","","","","28","","47","","1.6","","100.50","","","","-30","","Blowing Snow"
"-94.07","58.74","CHURCHILL A","5060605","2021-03-22 15:00","2021","03","22","15:00","-15.9","","-19.1","","77","","","","28","","48","","1.6","","100.62","","","","-30","","Blowing Snow"
"-94.07","58.74","CHURCHILL A","5060605","2021-03-22 16:00","2021","03","22","16:00","-15.5","","-18.6","","78","","","","29","","41","","6.4","","100.78","","","","-28","","Blowing Snow"
"-94.07","58.74","CHURCHILL A","5060605","2021-03-22 17:00","2021","03","22","17:00","-16.5","","-19.7","","77","","","","31","","47","","4.8","","100.94","","","","-30","","Blowing Snow"
"-94.07","58.74","CHURCHILL A","5060605","2021-03-22 18:00","2021","03","22","18:00","-17.7","","-20.5","","79","","","","31","","34","","6.4","","101.11","","","","-30","","Blowing Snow"
"-94.07","58.74","CHURCHILL A","5060605","2021-03-22 19:00","2021","03","22","19:00","-19.1","","-22.0","","78","","","","31","","39","","8.1","","101.23","","","","-33","","Ice Crystals,Blowing Snow"
"-94.07","58.74","CHURCHILL A","5060605","2021-03-22 20:00","2021","03","22","20:00","-19.6","","-22.5","","78","","","","31","","34","","9.7","","101.35","","","","-33","","Ice Crystals,Blowing Snow"
"-94.07","58.74","CHURCHILL A","5060605","2021-03-22 21:00","2021","03","22","21:00","-19.9","","-22.5","","80","","","","31","","35","","9.7","","101.42","","","","-33","","Ice Crystals,Blowing Snow"
"-94.07","58.74","CHURCHILL A","5060605","2021-03-22 22:00","2021","03","22","22:00","-19.6","","-22.2","","80","","","","31","","35","","9.7","","101.50","","","","-33","","Ice Crystals,Blowing Snow"
"-94.07","58.74","CHURCHILL A","5060605","2021-03-22 23:00","2021","03","22","23:00","-20.0","","-22.6","","80","","","","31","","35","","9.7","","101.61","","","","-33","","Ice Crystals,Blowing Snow"
"-94.07","58.74","CHURCHILL A","5060605","2021-03-23 00:00","2021","03","23","00:00","-19.8","","-22.0","","83","","","","31","","32","","0.6","","101.71","","","","-33","","Snow,Blowing Snow"
"-94.07","58.74","CHURCHILL A","5060605","2021-03-23 01:00","2021","03","23","01:00","-17.1","","-19.6","","81","","","","36","","33","","2.4","","101.82","","","","-29","","Snow,Blowing Snow"
"-94.07","58.74","CHURCHILL A","5060605","2021-03-23 02:00","2021","03","23","02:00","-17.4","","-20.1","","80","","","","36","","37","","4.0","","101.94","","","","-30","","Snow,Blowing Snow"
"-94.07","58.74","CHURCHILL A","5060605","2021-03-23 03:00","2021","03","23","03:00","-18.0","","-20.8","","79","","","","36","","40","","4.0","","102.07","","","","-31","","Snow,Blowing Snow"
"-94.07","58.74","CHURCHILL A","5060605","2021-03-23 04:00","2021","03","23","04:00","-18.8","","-21.4","","80","","","","36","","36","","4.0","","102.24","","","","-32","","Snow,Blowing Snow"
"-94.07","58.74","CHURCHILL A","5060605","2021-03-23 05:00","2021","03","23","05:00","-19.7","","-22.5","","79","","","","36","","38","","4.0","","102.39","","","","-33","","Snow,Blowing Snow"
"-94.07","58.74","CHURCHILL A","5060605","2021-03-23 06:00","2021","03","23","06:00","-20.3","","-22.7","","82","","","","34","","32","","2.4","","102.53","","","","-33","","Snow,Blowing Snow"
"-94.07","58.74","CHURCHILL A","5060605","2021-03-23 07:00","2021","03","23","07:00","-21.4","","-24.1","","79","","","","33","","31","","3.2","","102.63","","","","-35","","Blowing Snow"
"-94.07","58.74","CHURCHILL A","5060605","2021-03-23 08:00","2021","03","23","08:00","-23.8","","-26.6","","78","","","","31","","30","","2.4","","102.75","","","","-38","","Blowing Snow"
"-94.07","58.74","CHURCHILL A","5060605","2021-03-23 09:00","2021","03","23","09:00","-24.0","","-26.7","","79","","","","31","","27","","3.2","","102.86","","","","-37","","Blowing Snow"
"-94.07","58.74","CHURCHILL A","5060605","2021-03-23 10:00","2021","03","23","10:00","-23.7","","-26.5","","78","","","","31","","23","","2.8","","102.96","","","","-36","","Blowing Snow"
"-94.07","58.74","CHURCHILL A","5060605","2021-03-23 11:00","2021","03","23","11:00","-23.7","","-26.6","","78","","","","31","","31","","2.0","","103.04","","","","-38","","Blowing Snow"
"-94.07","58.74","CHURCHILL A","5060605","2021-03-23 12:00","2021","03","23","12:00","-22.7","","-25.6","","78","","","","31","","31","","3.2","","103.13","","","","-36","","Ice Crystals,Blowing Snow"
"-94.07","58.74","CHURCHILL A","5060605","2021-03-23 13:00","2021","03","23","13:00","-22.1","","-25.0","","78","","","","31","","22","","3.2","","103.18","","","","-34","","Ice Crystals,Blowing Snow"
"-94.07","58.74","CHURCHILL A","5060605","2021-03-23 14:00","2021","03","23","14:00","-21.3","","-24.0","","79","","","","31","","25","","4.8","","103.22","","","","-33","","Ice Crystals,Blowing Snow"
"-94.07","58.74","CHURCHILL A","5060605","2021-03-23 15:00","2021","03","23","15:00","-21.2","","-23.9","","79","","","","31","","28","","4.8","","103.26","","","","-34","","Ice Crystals,Blowing Snow"
"-94.07","58.74","CHURCHILL A","5060605","2021-03-23 16:00","2021","03","23","16:00","-20.9","","-23.5","","80","","","","31","","20","","4.8","","103.28","","","","-32","","Ice Crystals,Blowing Snow"
"-94.07","58.74","CHURCHILL A","5060605","2021-03-23 17:00","2021","03","23","17:00","-21.1","","-23.7","","80","","","","31","","18","","6.4","","103.28","","","","-31","","Ice Crystals,Blowing Snow"
"-94.07","58.74","CHURCHILL A","5060605","2021-03-23 18:00","2021","03","23","18:00","-21.1","","-23.4","","82","","","","31","","18","","9.7","","103.26","","","","-31","","Ice Crystals"
"-94.07","58.74","CHURCHILL A","5060605","2021-03-23 19:00","2021","03","23","19:00","-22.2","","-24.8","","80","","","","32","","17","","12.9","","103.24","","","","-32","","Ice Crystals"
"-94.07","58.74","CHURCHILL A","5060605","2021-03-23 20:00","2021","03","23","20:00","-23.1","","-25.8","","79","","","","29","","10","","16.1","","103.24","","","","-31","","Ice Crystals"
"-94.07","58.74","CHURCHILL A","5060605","2021-03-23 21:00","2021","03","23","21:00","-23.6","","-26.3","","79","","","","31","","10","","19.3","","103.23","","","","-32","","Ice Crystals"
"-94.07","58.74","CHURCHILL A","5060605","2021-03-23 22:00","2021","03","23","22:00","-23.7","","-26.4","","79","","","","32","","11","","12.9","","103.20","","","","-32","","Ice Crystals"
"-94.07","58.74","CHURCHILL A","5060605","2021-03-23 23:00","2021","03","23","23:00","-24.7","","-27.2","","80","","","","30","","10","","24.1","","103.18","","","","-33","","Ice Crystals"
"-94.07","58.74","CHURCHILL A","5060605","2021-03-24 00:00","2021","03","24","00:00","-25.5","","-28.0","","80","","","","30","","9","","24.1","","103.17","","","","-33","","Ice Crystals"
"-94.07","58.74","CHURCHILL A","5060605","2021-03-24 01:00","2021","03","24","01:00","-26.3","","-28.8","","80","","","","28","","12","","24.1","","103.17","","","","-36","","Ice Crystals"
"-94.07","58.74","CHURCHILL A","5060605","2021-03-24 02:00","2021","03","24","02:00","-26.7","","-29.2","","80","","","","30","","13","","24.1","","103.13","","","","-37","","Ice Crystals"
"-94.07","58.74","CHURCHILL A","5060605","2021-03-24 03:00","2021","03","24","03:00","-27.0","","-29.6","","79","","","","30","","11","","24.1","","103.11","","","","-36","","Ice Crystals"
"-94.07","58.74","CHURCHILL A","5060605","2021-03-24 04:00","2021","03","24","04:00","-27.6","","-30.2","","79","","","","27","","10","","24.1","","103.07","","","","-36","","Ice Crystals"
"-94.07","58.74","CHURCHILL A","5060605","2021-03-24 05:00","2021","03","24","05:00","-27.2","","-29.7","","80","","","","28","","11","","24.1","","103.05","","","","-36","","Ice Crystals"
"-94.07","58.74","CHURCHILL A","5060605","2021-03-24 06:00","2021","03","24","06:00","-27.4","","-30.0","","79","","","","31","","12","","19.3","","103.05","","","","-37","","Ice Crystals"
"-94.07","58.74","CHURCHILL A","5060605","2021-03-24 07:00","2021","03","24","07:00","-27.9","","-30.5","","79","","","","30","","8","","24.1","","103.01","","","","-36","","Ice Crystals"
"-94.07","58.74","CHURCHILL A","5060605","2021-03-24 08:00","2021","03","24","08:00","-26.2","","-28.7","","80","","","","33","","4","","24.1","","102.99","","","","-30","","NA"
"-94.07","58.74","CHURCHILL A","5060605","2021-03-24 09:00","2021","03","24","09:00","-24.9","","-27.6","","79","","","","36","","2","","24.1","","102.99","","","","-27","","Mainly Clear"
"-94.07","58.74","CHURCHILL A","5060605","2021-03-24 10:00","2021","03","24","10:00","-22.2","","-24.8","","80","","","","15","","3","","24.1","","102.99","","","","-25","","NA"
"-94.07","58.74","CHURCHILL A","5060605","2021-03-24 11:00","2021","03","24","11:00","-21.4","","-24.3","","78","","","","8","","5","","24.1","","102.98","","","","-26","","NA"
"-94.07","58.74","CHURCHILL A","5060605","2021-03-24 12:00","2021","03","24","12:00","-20.8","","-23.7","","78","","","","8","","6","","24.1","","102.95","","","","-26","","Mainly Clear"
"-94.07","58.74","CHURCHILL A","5060605","2021-03-24 13:00","2021","03","24","13:00","-20.1","","-23.0","","78","","","","6","","12","","24.1","","102.92","","","","-28","","NA"
"-94.07","58.74","CHURCHILL A","5060605","2021-03-24 14:00","2021","03","24","14:00","-19.7","","-23.2","","74","","","","6","","13","","24.1","","102.86","","","","-28","","NA"
"-94.07","58.74","CHURCHILL A","5060605","2021-03-24 15:00","2021","03","24","15:00","-19.6","","-23.1","","74","","","","8","","13","","24.1","","102.81","","","","-28","","Clear"
"-94.07","58.74","CHURCHILL A","5060605","2021-03-24 16:00","2021","03","24","16:00","-19.6","","-22.5","","78","","","","9","","13","","24.1","","102.80","","","","-28","","NA"
"-94.07","58.74","CHURCHILL A","5060605","2021-03-24 17:00","2021","03","24","17:00","-19.7","","-22.6","","78","","","","8","","14","","24.1","","102.76","","","","-28","","NA"
"-94.07","58.74","CHURCHILL A","5060605","2021-03-24 18:00","2021","03","24","18:00","-20.4","","-23.0","","80","","","","7","","12","","24.1","","102.77","","","","-29","","Mainly Clear"
"-94.07","58.74","CHURCHILL A","5060605","2021-03-24 19:00","2021","03","24","19:00","-21.7","","-23.9","","83","","","","7","","14","","24.1","","102.74","","","","-31","","NA"
"-94.07","58.74","CHURCHILL A","5060605","2021-03-24 20:00","2021","03","24","20:00","-22.8","","-24.8","","84","","","","9","","13","","24.1","","102.74","","","","-32","","NA"
"-94.07","58.74","CHURCHILL A","5060605","2021-03-24 21:00","2021","03","24","21:00","-23.3","","-25.3","","84","","","","8","","16","","24.1","","102.73","","","","-33","","Mainly Clear"
"-94.07","58.74","CHURCHILL A","5060605","2021-03-24 22:00","2021","03","24","22:00","-23.8","","-25.9","","83","","","","9","","16","","24.1","","102.75","","","","-34","","NA"
"-94.07","58.74","CHURCHILL A","5060605","2021-03-24 23:00","2021","03","24","23:00","-24.2","","-26.3","","83","","","","9","","16","","24.1","","102.76","","","","-35","","NA"
"-94.07","58.74","CHURCHILL A","5060605","2021-03-25 00:00","2021","03","25","00:00","-24.5","","-26.6","","83","","","","9","","16","","24.1","","102.74","","","","-35","","Clear"
"-94.07","58.74","CHURCHILL A","5060605","2021-03-25 01:00","2021","03","25","01:00","-24.9","","-27.1","","82","","","","9","","16","","24.1","","102.73","","","","-35","","NA"
"-94.07","58.74","CHURCHILL A","5060605","2021-03-25 02:00","2021","03","25","02:00","-25.2","","-27.4","","82","","","","9","","16","","24.1","","102.73","","","","-36","","NA"
"-94.07","58.74","CHURCHILL A","5060605","2021-03-25 03:00","2021","03","25","03:00","-25.2","","-27.4","","82","","","","9","","16","","24.1","","102.75","","","","-36","","Clear"
"-94.07","58.74","CHURCHILL A","5060605","2021-03-25 04:00","2021","03","25","04:00","-25.6","","-27.8","","82","","","","8","","15","","24.1","","102.75","","","","-36","","NA"
"-94.07","58.74","CHURCHILL A","5060605","2021-03-25 05:00","2021","03","25","05:00","-25.2","","-27.6","","81","","","","8","","16","","24.1","","102.75","","","","-36","","NA"
"-94.07","58.74","CHURCHILL A","5060605","2021-03-25 06:00","2021","03","25","06:00","-24.4","","-26.8","","81","","","","9","","13","","24.1","","102.77","","","","-34","","Mainly Clear"
"-94.07","58.74","CHURCHILL A","5060605","2021-03-25 07:00","2021","03","25","07:00","-23.5","","-25.9","","81","","","","9","","13","","24.1","","102.79","","","","-33","","NA"
"-94.07","58.74","CHURCHILL A","5060605","2021-03-25 08:00","2021","03","25","08:00","-22.4","","-24.8","","81","","","","10","","17","","24.1","","102.76","","","","-33","","NA"
"-94.07","58.74","CHURCHILL A","5060605","2021-03-25 09:00","2021","03","25","09:00","-20.8","","-23.4","","80","","","","10","","21","","24.1","","102.75","","","","-32","","Mostly Cloudy"
"-94.07","58.74","CHURCHILL A","5060605","2021-03-25 10:00","2021","03","25","10:00","-19.4","","-23.1","","73","","","","12","","21","","24.1","","102.80","","","","-30","","NA"
"-94.07","58.74","CHURCHILL A","5060605","2021-03-25 11:00","2021","03","25","11:00","-17.7","","-24.1","","58","","","","12","","21","","24.1","","102.78","","","","-28","","NA"
"-94.07","58.74","CHURCHILL A","5060605","2021-03-25 12:00","2021","03","25","12:00","-16.8","","-23.3","","58","","","","12","","21","","24.1","","102.76","","","","-27","","Cloudy"
"-94.07","58.74","CHURCHILL A","5060605","2021-03-25 13:00","2021","03","25","13:00","-15.7","","-22.8","","55","","","","12","","25","","24.1","","102.70","","","","-26","","NA"
"-94.07","58.74","CHURCHILL A","5060605","2021-03-25 14:00","2021","03","25","14:00","-15.1","","-21.8","","57","","","","12","","26","","24.1","","102.65","","","","-25","","NA"
"-94.07","58.74","CHURCHILL A","5060605","2021-03-25 15:00","2021","03","25","15:00","-15.1","","-21.2","","60","","","","12","","27","","24.1","","102.61","","","","-26","","Cloudy"
"-94.07","58.74","CHURCHILL A","5060605","2021-03-25 16:00","2021","03","25","16:00","-15.3","","-21.2","","61","","","","12","","25","","24.1","","102.56","","","","-26","","NA"
"-94.07","58.74","CHURCHILL A","5060605","2021-03-25 17:00","2021","03","25","17:00","-15.9","","-20.9","","66","","","","12","","30","","24.1","","102.44","","","","-27","","NA"
"-94.07","58.74","CHURCHILL A","5060605","2021-03-25 18:00","2021","03","25","18:00","-16.6","","-20.5","","72","","","","12","","37","","24.1","","102.32","","","","-29","","Blowing Snow"
"-94.07","58.74","CHURCHILL A","5060605","2021-03-25 19:00","2021","03","25","19:00","-17.2","","-20.6","","75","","","","13","","33","","24.1","","102.28","","","","-29","","Blowing Snow"
"-94.07","58.74","CHURCHILL A","5060605","2021-03-25 20:00","2021","03","25","20:00","-17.5","","-20.8","","76","","","","13","","36","","24.1","","102.21","","","","-30","","Blowing Snow"
"-94.07","58.74","CHURCHILL A","5060605","2021-03-25 21:00","2021","03","25","21:00","-17.1","","-20.2","","77","","","","13","","39","","24.1","","102.14","","","","-30","","Blowing Snow"
"-94.07","58.74","CHURCHILL A","5060605","2021-03-25 22:00","2021","03","25","22:00","-16.7","","-19.7","","78","","","","15","","31","","24.1","","102.14","","","","-28","","Blowing Snow"
"-94.07","58.74","CHURCHILL A","5060605","2021-03-25 23:00","2021","03","25","23:00","-15.6","","-18.5","","79","","","","14","","35","","24.1","","102.05","","","","-28","","Blowing Snow"
"-94.07","58.74","CHURCHILL A","5060605","2021-03-26 00:00","2021","03","26","00:00","-14.6","","-17.9","","76","","","","15","","39","","24.1","","101.96","","","","-27","","Ice Crystals,Blowing Snow"
"-94.07","58.74","CHURCHILL A","5060605","2021-03-26 01:00","2021","03","26","01:00","-14.5","","-18.4","","73","","","","15","","40","","24.1","","101.92","","","","-27","","Ice Crystals,Blowing Snow"
"-94.07","58.74","CHURCHILL A","5060605","2021-03-26 02:00","2021","03","26","02:00","-14.2","","-18.6","","70","","","","16","","35","","24.1","","101.88","","","","-26","","Ice Crystals,Blowing Snow"
"-94.07","58.74","CHURCHILL A","5060605","2021-03-26 03:00","2021","03","26","03:00","-14.1","","-18.6","","69","","","","15","","34","","24.1","","101.81","","","","-25","","Ice Crystals,Blowing Snow"
"-94.07","58.74","CHURCHILL A","5060605","2021-03-26 04:00","2021","03","26","04:00","-14.4","","-18.9","","69","","","","15","","34","","16.1","","101.70","","","","-26","","Ice Crystals,Blowing Snow"
"-94.07","58.74","CHURCHILL A","5060605","2021-03-26 05:00","2021","03","26","05:00","-14.4","","-18.9","","69","","","","15","","35","","24.1","","101.63","","","","-26","","Blowing Snow"
"-94.07","58.74","CHURCHILL A","5060605","2021-03-26 06:00","2021","03","26","06:00","-14.4","","-18.8","","69","","","","15","","34","","24.1","","101.57","","","","-26","","Blowing Snow"
"-94.07","58.74","CHURCHILL A","5060605","2021-03-26 07:00","2021","03","26","07:00","-14.3","","-19.0","","68","","","","15","","32","","24.1","","101.49","","","","-25","","NA"
"-94.07","58.74","CHURCHILL A","5060605","2021-03-26 08:00","2021","03","26","08:00","-13.9","","-19.2","","64","","","","16","","37","","24.1","","101.39","","","","-26","","NA"
"-94.07","58.74","CHURCHILL A","5060605","2021-03-26 09:00","2021","03","26","09:00","-13.4","","-18.9","","64","","","","15","","39","","24.1","","101.28","","","","-25","","Cloudy"
"-94.07","58.74","CHURCHILL A","5060605","2021-03-26 10:00","2021","03","26","10:00","-12.6","","-18.5","","62","","","","16","","36","","24.1","","101.23","","","","-24","","NA"
"-94.07","58.74","CHURCHILL A","5060605","2021-03-26 11:00","2021","03","26","11:00","-11.8","","-17.7","","62","","","","16","","34","","24.1","","101.12","","","","-22","","NA"
"-94.07","58.74","CHURCHILL A","5060605","2021-03-26 12:00","2021","03","26","12:00","-11.0","","-16.6","","64","","","","16","","41","","24.1","","101.00","","","","-22","","Blowing Snow"
"-94.07","58.74","CHURCHILL A","5060605","2021-03-26 13:00","2021","03","26","13:00","-10.0","","-16.3","","60","","","","16","","34","","24.1","","100.85","","","","-20","","Blowing Snow"
"-94.07","58.74","CHURCHILL A","5060605","2021-03-26 14:00","2021","03","26","14:00","-8.8","","-14.8","","62","","","","16","","37","","24.1","","100.75","","","","-19","","Blowing Snow"
"-94.07","58.74","CHURCHILL A","5060605","2021-03-26 15:00","2021","03","26","15:00","-9.2","","-11.8","","81","","","","18","","32","","1.6","","100.73","","","","-19","","Snow,Blowing Snow"
"-94.07","58.74","CHURCHILL A","5060605","2021-03-26 16:00","2021","03","26","16:00","-9.3","","-10.8","","89","","","","17","","23","","1.6","","100.67","","","","-18","","Snow,Blowing Snow"
"-94.07","58.74","CHURCHILL A","5060605","2021-03-26 17:00","2021","03","26","17:00","-8.9","","-10.2","","90","","","","18","","22","","1.2","","100.62","","","","-17","","Snow,Blowing Snow"
"-94.07","58.74","CHURCHILL A","5060605","2021-03-26 18:00","2021","03","26","18:00","-8.8","","-10.2","","90","","","","19","","18","","3.2","","100.59","","","","-16","","Snow,Blowing Snow"
"-94.07","58.74","CHURCHILL A","5060605","2021-03-26 19:00","2021","03","26","19:00","-8.8","","-10.2","","89","","","","20","","17","","4.0","","100.57","","","","-16","","Snow"
"-94.07","58.74","CHURCHILL A","5060605","2021-03-26 20:00","2021","03","26","20:00","-9.0","","-10.3","","90","","","","21","","12","","6.4","","100.56","","","","-15","","Snow"
"-94.07","58.74","CHURCHILL A","5060605","2021-03-26 21:00","2021","03","26","21:00","-9.3","","-10.4","","92","","","","23","","11","","4.8","","100.54","","","","-15","","Snow"
"-94.07","58.74","CHURCHILL A","5060605","2021-03-26 22:00","2021","03","26","22:00","-10.2","","-11.3","","92","","","","25","","10","","9.7","","100.50","","","","-15","","Snow"
"-94.07","58.74","CHURCHILL A","5060605","2021-03-26 23:00","2021","03","26","23:00","-10.8","","-12.3","","89","","","","30","","16","","16.1","","100.51","","","","-18","","Snow"
"-94.07","58.74","CHURCHILL A","5060605","2021-03-27 00:00","2021","03","27","00:00","-11.6","","-13.6","","85","","","","30","","16","","24.1","","100.52","","","","-19","","Cloudy"
"-94.07","58.74","CHURCHILL A","5060605","2021-03-27 01:00","2021","03","27","01:00","-13.5","","-15.9","","82","","","","30","","17","","24.1","","100.53","","","","-22","","NA"
"-94.07","58.74","CHURCHILL A","5060605","2021-03-27 02:00","2021","03","27","02:00","-16.6","","-18.4","","86","","","","28","","16","","24.1","","100.55","","","","-25","","NA"
"-94.07","58.74","CHURCHILL A","5060605","2021-03-27 03:00","2021","03","27","03:00","-17.5","","-19.2","","87","","","","27","","15","","24.1","","100.57","","","","-26","","Mainly Clear"
"-94.07","58.74","CHURCHILL A","5060605","2021-03-27 04:00","2021","03","27","04:00","-18.6","","-20.4","","86","","","","27","","17","","24.1","","100.58","","","","-28","","NA"
"-94.07","58.74","CHURCHILL A","5060605","2021-03-27 05:00","2021","03","27","05:00","-19.3","","-21.2","","85","","","","27","","17","","24.1","","100.60","","","","-29","","NA"
"-94.07","58.74","CHURCHILL A","5060605","2021-03-27 06:00","2021","03","27","06:00","-20.0","","-22.1","","84","","","","27","","16","","24.1","","100.62","","","","-29","","Clear"
"-94.07","58.74","CHURCHILL A","5060605","2021-03-27 07:00","2021","03","27","07:00","-20.1","","-22.3","","83","","","","27","","13","","24.1","","100.66","","","","-29","","NA"
"-94.07","58.74","CHURCHILL A","5060605","2021-03-27 08:00","2021","03","27","08:00","-18.9","","-21.5","","80","","","","28","","20","","24.1","","100.68","","","","-29","","NA"
"-94.07","58.74","CHURCHILL A","5060605","2021-03-27 09:00","2021","03","27","09:00","-17.3","","-20.6","","76","","","","29","","22","","24.1","","100.69","","","","-28","","Clear"
"-94.07","58.74","CHURCHILL A","5060605","2021-03-27 10:00","2021","03","27","10:00","-16.7","","-20.5","","73","","","","29","","25","","24.1","","100.72","","","","-27","","NA"
"-94.07","58.74","CHURCHILL A","5060605","2021-03-27 11:00","2021","03","27","11:00","-16.2","","-20.4","","71","","","","29","","26","","24.1","","100.75","","","","-27","","NA"
"-94.07","58.74","CHURCHILL A","5060605","2021-03-27 12:00","2021","03","27","12:00","-15.7","","-19.9","","71","","","","29","","27","","24.1","","100.78","","","","-26","","Clear"
"-94.07","58.74","CHURCHILL A","5060605","2021-03-27 13:00","2021","03","27","13:00","-14.8","","-19.1","","70","","","","30","","29","","24.1","","100.84","","","","-26","","Blowing Snow"
"-94.07","58.74","CHURCHILL A","5060605","2021-03-27 14:00","2021","03","27","14:00","-14.2","","-18.7","","69","","","","30","","28","","24.1","","100.86","","","","-25","","Blowing Snow"
"-94.07","58.74","CHURCHILL A","5060605","2021-03-27 15:00","2021","03","27","15:00","-13.7","","-18.1","","70","","","","31","","20","","24.1","","100.93","","","","-23","","Blowing Snow"
"-94.07","58.74","CHURCHILL A","5060605","2021-03-27 16:00","2021","03","27","16:00","-13.0","","-17.2","","71","","","","30","","22","","24.1","","100.96","","","","-22","","Blowing Snow"
"-94.07","58.74","CHURCHILL A","5060605","2021-03-27 17:00","2021","03","27","17:00","-12.6","","-16.7","","72","","","","31","","18","","24.1","","100.98","","","","-21","","Blowing Snow"
"-94.07","58.74","CHURCHILL A","5060605","2021-03-27 18:00","2021","03","27","18:00","-13.7","","-17.2","","75","","","","30","","15","","24.1","","101.04","","","","-21","","Mainly Clear"
"-94.07","58.74","CHURCHILL A","5060605","2021-03-27 19:00","2021","03","27","19:00","-12.5","","-15.5","","78","","","","32","","21","","12.9","","101.07","","","","-21","","NA"
"-94.07","58.74","CHURCHILL A","5060605","2021-03-27 20:00","2021","03","27","20:00","-12.4","","-15.8","","76","","","","31","","30","","16.1","","101.09","","","","-23","","Snow"
"-94.07","58.74","CHURCHILL A","5060605","2021-03-27 21:00","2021","03","27","21:00","-13.7","","-17.4","","74","","","","32","","32","","16.1","","101.10","","","","-25","","Snow"
"-94.07","58.74","CHURCHILL A","5060605","2021-03-27 22:00","2021","03","27","22:00","-14.7","","-17.9","","77","","","","32","","30","","12.9","","101.13","","","","-26","","Snow"
"-94.07","58.74","CHURCHILL A","5060605","2021-03-27 23:00","2021","03","27","23:00","-16.5","","-19.6","","77","","","","31","","24","","24.1","","101.15","","","","-27","","Blowing Snow"
"-94.07","58.74","CHURCHILL A","5060605","2021-03-28 00:00","2021","03","28","00:00","-17.8","","-20.8","","78","","","","31","","26","","24.1","","101.16","","","","-29","","Blowing Snow"
"-94.07","58.74","CHURCHILL A","5060605","2021-03-28 01:00","2021","03","28","01:00","-18.7","","-21.8","","77","","","","31","","26","","24.1","","101.17","","","","-30","","NA"
"-94.07","58.74","CHURCHILL A","5060605","2021-03-28 02:00","2021","03","28","02:00","-20.0","","-22.9","","78","","","","30","","22","","24.1","","101.18","","","","-31","","NA"
"-94.07","58.74","CHURCHILL A","5060605","2021-03-28 03:00","2021","03","28","03:00","-21.2","","-24.1","","78","","","","30","","21","","24.1","","101.22","","","","-32","","Ice Crystals"
"-94.07","58.74","CHURCHILL A","5060605","2021-03-28 04:00","2021","03","28","04:00","-22.5","","-25.2","","79","","","","29","","16","","24.1","","101.26","","","","-32","","Ice Crystals"
"-94.07","58.74","CHURCHILL A","5060605","2021-03-28 05:00","2021","03","28","05:00","-22.6","","-25.6","","77","","","","30","","22","","24.1","","101.28","","","","-34","","Ice Crystals"
"-94.07","58.74","CHURCHILL A","5060605","2021-03-28 06:00","2021","03","28","06:00","-23.6","","-26.4","","78","","","","30","","18","","24.1","","101.31","","","","-34","","Clear"
"-94.07","58.74","CHURCHILL A","5060605","2021-03-28 07:00","2021","03","28","07:00","-23.7","","-26.7","","77","","","","29","","20","","24.1","","101.34","","","","-35","","Ice Crystals"
"-94.07","58.74","CHURCHILL A","5060605","2021-03-28 08:00","2021","03","28","08:00","-23.5","","-26.8","","75","","","","30","","22","","24.1","","101.40","","","","-35","","Ice Crystals"
"-94.07","58.74","CHURCHILL A","5060605","2021-03-28 09:00","2021","03","28","09:00","-22.8","","-26.2","","74","","","","31","","24","","24.1","","101.38","","","","-35","","Ice Crystals"
"-94.07","58.74","CHURCHILL A","5060605","2021-03-28 10:00","2021","03","28","10:00","-22.0","","-25.3","","75","","","","30","","21","","24.1","","101.37","","","","-33","","Ice Crystals"
"-94.07","58.74","CHURCHILL A","5060605","2021-03-28 11:00","2021","03","28","11:00","-21.6","","-25.4","","72","","","","30","","24","","24.1","","101.38","","","","-33","","Ice Crystals"
"-94.07","58.74","CHURCHILL A","5060605","2021-03-28 12:00","2021","03","28","12:00","-20.6","","-23.9","","75","","","","31","","19","","24.1","","101.34","","","","-31","","Ice Crystals"
"-94.07","58.74","CHURCHILL A","5060605","2021-03-28 13:00","2021","03","28","13:00","-19.8","","-23.6","","72","","","","30","","22","","24.1","","101.40","","","","-31","","Ice Crystals"
"-94.07","58.74","CHURCHILL A","5060605","2021-03-28 14:00","2021","03","28","14:00","-19.0","","-22.9","","72","","","","30","","17","","24.1","","101.36","","","","-28","","Ice Crystals"
"-94.07","58.74","CHURCHILL A","5060605","2021-03-28 15:00","2021","03","28","15:00","-18.6","","-22.6","","71","","","","30","","16","","24.1","","101.38","","","","-28","","Ice Crystals"
"-94.07","58.74","CHURCHILL A","5060605","2021-03-28 16:00","2021","03","28","16:00","-18.7","","-22.4","","73","","","","32","","16","","24.1","","101.35","","","","-28","","Ice Crystals"
"-94.07","58.74","CHURCHILL A","5060605","2021-03-28 17:00","2021","03","28","17:00","-19.4","","-22.5","","77","","","","29","","15","","9.7","","101.40","","","","-28","","Ice Crystals"
"-94.07","58.74","CHURCHILL A","5060605","2021-03-28 18:00","2021","03","28","18:00","-20.5","","-23.2","","79","","","","30","","8","","9.7","","101.40","","","","-27","","Ice Crystals"
"-94.07","58.74","CHURCHILL A","5060605","2021-03-28 19:00","2021","03","28","19:00","-20.9","","-23.4","","81","","","","33","","12","","19.3","","101.40","","","","-29","","Ice Crystals"
"-94.07","58.74","CHURCHILL A","5060605","2021-03-28 20:00","2021","03","28","20:00","-19.6","","-21.6","","84","","","","1","","9","","24.1","","101.42","","","","-26","","Ice Crystals"
"-94.07","58.74","CHURCHILL A","5060605","2021-03-28 21:00","2021","03","28","21:00","-19.9","","-22.2","","82","","","","3","","18","","24.1","","101.40","","","","-30","","Ice Crystals"
"-94.07","58.74","CHURCHILL A","5060605","2021-03-28 22:00","2021","03","28","22:00","-19.8","","-22.0","","83","","","","3","","20","","24.1","","101.38","","","","-30","","Ice Crystals"
"-94.07","58.74","CHURCHILL A","5060605","2021-03-28 23:00","2021","03","28","23:00","-19.9","","-21.9","","84","","","","4","","18","","24.1","","101.34","","","","-30","","Ice Crystals"
"-94.07","58.74","CHURCHILL A","5060605","2021-03-29 00:00","2021","03","29","00:00","-20.0","","-21.9","","85","","","","3","","16","","24.1","","101.34","","","","-29","","Ice Crystals"
"-94.07","58.74","CHURCHILL A","5060605","2021-03-29 01:00","2021","03","29","01:00","-20.2","","-22.0","","86","","","","4","","13","","24.1","","101.34","","","","-29","","Ice Crystals"
"-94.07","58.74","CHURCHILL A","5060605","2021-03-29 02:00","2021","03","29","02:00","-21.6","","-23.2","","87","","","","6","","12","","24.1","","101.31","","","","-30","","Ice Crystals"
"-94.07","58.74","CHURCHILL A","5060605","2021-03-29 03:00","2021","03","29","03:00","-21.5","","-23.4","","85","","","","7","","11","","24.1","","101.33","","","","-29","","Ice Crystals"
"-94.07","58.74","CHURCHILL A","5060605","2021-03-29 04:00","2021","03","29","04:00","-21.6","","-23.5","","85","","","","5","","15","","24.1","","101.33","","","","-31","","NA"
"-94.07","58.74","CHURCHILL A","5060605","2021-03-29 05:00","2021","03","29","05:00","-21.3","","-23.5","","83","","","","4","","13","","24.1","","101.41","","","","-30","","NA"
"-94.07","58.74","CHURCHILL A","5060605","2021-03-29 06:00","2021","03","29","06:00","-21.5","","-23.5","","84","","","","4","","16","","24.1","","101.38","","","","-31","","Mainly Clear"
"-94.07","58.74","CHURCHILL A","5060605","2021-03-29 07:00","2021","03","29","07:00","-21.4","","-23.4","","84","","","","4","","12","","24.1","","101.48","","","","-30","","NA"
"-94.07","58.74","CHURCHILL A","5060605","2021-03-29 08:00","2021","03","29","08:00","-20.8","","-23.0","","83","","","","5","","13","","24.1","","101.51","","","","-29","","NA"
"-94.07","58.74","CHURCHILL A","5060605","2021-03-29 09:00","2021","03","29","09:00","-20.0","","-22.2","","83","","","","7","","13","","24.1","","101.54","","","","-28","","Mainly Clear"
"-94.07","58.74","CHURCHILL A","5060605","2021-03-29 10:00","2021","03","29","10:00","-19.1","","-21.4","","82","","","","5","","18","","24.1","","101.52","","","","-29","","NA"
"-94.07","58.74","CHURCHILL A","5060605","2021-03-29 11:00","2021","03","29","11:00","-18.5","","-21.1","","80","","","","6","","16","","24.1","","101.53","","","","-28","","NA"
"-94.07","58.74","CHURCHILL A","5060605","2021-03-29 12:00","2021","03","29","12:00","-18.1","","-21.5","","75","","","","6","","20","","24.1","","101.53","","","","-28","","Mainly Clear"
"-94.07","58.74","CHURCHILL A","5060605","2021-03-29 13:00","2021","03","29","13:00","-17.6","","-21.2","","74","","","","6","","18","","24.1","","101.55","","","","-27","","NA"
"-94.07","58.74","CHURCHILL A","5060605","2021-03-29 14:00","2021","03","29","14:00","-17.3","","-20.9","","74","","","","5","","19","","24.1","","101.49","","","","-27","","NA"
"-94.07","58.74","CHURCHILL A","5060605","2021-03-29 15:00","2021","03","29","15:00","-17.0","","-20.9","","72","","","","5","","28","","24.1","","101.44","","","","-28","","Mostly Cloudy"
"-94.07","58.74","CHURCHILL A","5060605","2021-03-29 16:00","2021","03","29","16:00","-17.1","","-20.7","","74","","","","5","","24","","24.1","","101.47","","","","-28","","NA"
"-94.07","58.74","CHURCHILL A","5060605","2021-03-29 17:00","2021","03","29","17:00","-17.5","","-20.6","","77","","","","5","","21","","24.1","","101.55","","","","-28","","Ice Crystals"
"-94.07","58.74","CHURCHILL A","5060605","2021-03-29 18:00","2021","03","29","18:00","-18.0","","-20.8","","79","","","","5","","25","","24.1","","101.54","","","","-29","","Ice Crystals"
"-94.07","58.74","CHURCHILL A","5060605","2021-03-29 19:00","2021","03","29","19:00","-18.4","","-21.2","","79","","","","5","","23","","24.1","","101.58","","","","-29","","NA"
"-94.07","58.74","CHURCHILL A","5060605","2021-03-29 20:00","2021","03","29","20:00","-18.6","","-21.1","","81","","","","5","","30","","24.1","","101.54","","","","-31","","NA"
"-94.07","58.74","CHURCHILL A","5060605","2021-03-29 21:00","2021","03","29","21:00","-19.1","","-21.4","","82","","","","5","","19","","24.1","","101.60","","","","-29","","Cloudy"
"-94.07","58.74","CHURCHILL A","5060605","2021-03-29 22:00","2021","03","29","22:00","-19.9","","-22.1","","83","","","","5","","18","","24.1","","101.62","","","","-30","","NA"
"-94.07","58.74","CHURCHILL A","5060605","2021-03-29 23:00","2021","03","29","23:00","-19.6","","-22.2","","80","","","","5","","21","","24.1","","101.60","","","","-30","","NA"
"-94.07","58.74","CHURCHILL A","5060605","2021-03-30 00:00","2021","03","30","00:00","-19.9","","-22.4","","81","","","","5","","24","","24.1","","101.51","","","","-31","","Cloudy"
"-94.07","58.74","CHURCHILL A","5060605","2021-03-30 01:00","2021","03","30","01:00","-19.7","","-22.3","","80","","","","5","","30","","24.1","","101.40","","","","-32","","NA"
"-94.07","58.74","CHURCHILL A","5060605","2021-03-30 02:00","2021","03","30","02:00","-19.9","","-22.5","","80","","","","5","","27","","24.1","","101.35","","","","-32","","NA"
"-94.07","58.74","CHURCHILL A","5060605","2021-03-30 03:00","2021","03","30","03:00","-20.3","","-22.8","","81","","","","6","","26","","24.1","","101.29","","","","-32","","Mostly Cloudy"
"-94.07","58.74","CHURCHILL A","5060605","2021-03-30 04:00","2021","03","30","04:00","-20.3","","-22.6","","82","","","","5","","30","","24.1","","101.26","","","","-33","","NA"
"-94.07","58.74","CHURCHILL A","5060605","2021-03-30 05:00","2021","03","30","05:00","-20.5","","-23.0","","81","","","","5","","26","","24.1","","101.33","","","","-32","","NA"
"-94.07","58.74","CHURCHILL A","5060605","2021-03-30 06:00","2021","03","30","06:00","-20.7","","-22.9","","83","","","","4","","30","","24.1","","101.35","","","","-33","","Mostly Cloudy"
"-94.07","58.74","CHURCHILL A","5060605","2021-03-30 07:00","2021","03","30","07:00","-20.6","","-22.9","","82","","","","4","","32","","24.1","","101.33","","","","-34","","NA"
"-94.07","58.74","CHURCHILL A","5060605","2021-03-30 08:00","2021","03","30","08:00","-20.4","","-22.9","","81","","","","4","","33","","24.1","","101.31","","","","-34","","NA"
"-94.07","58.74","CHURCHILL A","5060605","2021-03-30 09:00","2021","03","30","09:00","-19.7","","-22.6","","78","","","","3","","33","","24.1","","101.34","","","","-33","","Mostly Cloudy"
"-94.07","58.74","CHURCHILL A","5060605","2021-03-30 10:00","2021","03","30","10:00","-19.5","","-22.6","","77","","","","3","","38","","24.1","","101.34","","","","-33","","NA"
"-94.07","58.74","CHURCHILL A","5060605","2021-03-30 11:00","2021","03","30","11:00","-18.8","","-22.0","","76","","","","3","","32","","24.1","","101.36","","","","-31","","NA"
"-94.07","58.74","CHURCHILL A","5060605","2021-03-30 12:00","2021","03","30","12:00","-18.3","","-21.8","","75","","","","2","","32","","24.1","","101.37","","","","-31","","Mostly Cloudy"
"-94.07","58.74","CHURCHILL A","5060605","2021-03-30 13:00","2021","03","30","13:00","-18.1","","-21.4","","76","","","","1","","30","","24.1","","101.40","","","","-30","","NA"
"-94.07","58.74","CHURCHILL A","5060605","2021-03-30 14:00","2021","03","30","14:00","-17.7","","-21.4","","73","","","","1","","30","","24.1","","101.43","","","","-30","","NA"
"-94.07","58.74","CHURCHILL A","5060605","2021-03-30 15:00","2021","03","30","15:00","-17.9","","-21.3","","75","","","","1","","29","","24.1","","101.48","","","","-30","","Mostly Cloudy"
"-94.07","58.74","CHURCHILL A","5060605","2021-03-30 16:00","2021","03","30","16:00","-18.1","","-21.7","","74","","","","36","","27","","24.1","","101.56","","","","-30","","NA"
"-94.07","58.74","CHURCHILL A","5060605","2021-03-30 17:00","2021","03","30","17:00","-19.4","","-21.7","","82","","","","35","","28","","16.1","","101.63","","","","-31","","NA"
"-94.07","58.74","CHURCHILL A","5060605","2021-03-30 18:00","2021","03","30","18:00","-19.8","","-22.3","","81","","","","35","","27","","24.1","","101.72","","","","-32","","Mostly Cloudy"
"-94.07","58.74","CHURCHILL A","5060605","2021-03-30 19:00","2021","03","30","19:00","-20.7","","-23.0","","82","","","","34","","20","","24.1","","101.77","","","","-31","","NA"
"-94.07","58.74","CHURCHILL A","5060605","2021-03-30 20:00","2021","03","30","20:00","-21.4","","-23.7","","82","","","","34","","19","","24.1","","101.81","","","","-32","","NA"
"-94.07","58.74","CHURCHILL A","5060605","2021-03-30 21:00","2021","03","30","21:00","-22.0","","-24.1","","83","","","","34","","15","","24.1","","101.85","","","","-32","","Mainly Clear"
"-94.07","58.74","CHURCHILL A","5060605","2021-03-30 22:00","2021","03","30","22:00","-23.2","","-25.6","","81","","","","30","","9","","19.3","","101.85","","","","-31","","Snow"
"-94.07","58.74","CHURCHILL A","5060605","2021-03-30 23:00","2021","03","30","23:00","-24.1","","-26.6","","80","","","","29","","8","","24.1","","101.87","","","","-31","","Snow"
"-94.07","58.74","CHURCHILL A","5060605","2021-03-31 00:00","2021","03","31","00:00","-24.8","","-27.5","","79","","","","29","","8","","24.1","","101.90","","","","-32","","Mainly Clear"
"-94.07","58.74","CHURCHILL A","5060605","2021-03-31 01:00","2021","03","31","01:00","-25.4","","-27.9","","80","","","","27","","9","","24.1","","101.91","","","","-33","","NA"
"-94.07","58.74","CHURCHILL A","5060605","2021-03-31 02:00","2021","03","31","02:00","-25.3","","-27.9","","79","","","","26","","8","","24.1","","101.92","","","","-32","","NA"
"-94.07","58.74","CHURCHILL A","5060605","2021-03-31 03:00","2021","03","31","03:00","-26.3","","-28.8","","80","","","","22","","9","","24.1","","101.93","","","","-34","","Mainly Clear"
"-94.07","58.74","CHURCHILL A","5060605","2021-03-31 04:00","2021","03","31","04:00","-26.2","","-28.8","","79","","","","25","","7","","11.3","","101.97","","","","-33","","Ice Crystals"
"-94.07","58.74","CHURCHILL A","5060605","2021-03-31 05:00","2021","03","31","05:00","-24.8","","-27.3","","80","","","","22","","9","","19.3","","101.98","","","","-32","","Ice Crystals"
"-94.07","58.74","CHURCHILL A","5060605","2021-03-31 06:00","2021","03","31","06:00","-25.3","","-27.8","","80","","","","17","","11","","19.3","","101.97","","","","-34","","Ice Crystals"
"-94.07","58.74","CHURCHILL A","5060605","2021-03-31 07:00","2021","03","31","07:00","-23.7","","-26.2","","80","","","","18","","14","","24.1","","101.92","","","","-33","","Ice Crystals"
"-94.07","58.74","CHURCHILL A","5060605","2021-03-31 08:00","2021","03","31","08:00","-21.6","","-24.5","","78","","","","18","","14","","24.1","","101.87","","","","-31","","Ice Crystals"
"-94.07","58.74","CHURCHILL A","5060605","2021-03-31 09:00","2021","03","31","09:00","-17.6","","-23.1","","63","","","","20","","13","","24.1","","101.79","","","","-25","","Ice Crystals"
"-94.07","58.74","CHURCHILL A","5060605","2021-03-31 10:00","2021","03","31","10:00","-15.5","","-22.6","","55","","","","20","","16","","24.1","","101.74","","","","-24","","Ice Crystals"
"-94.07","58.74","CHURCHILL A","5060605","2021-03-31 11:00","2021","03","31","11:00","-13.6","","-22.1","","49","","","","21","","16","","24.1","","101.69","","","","-21","","Ice Crystals"
"-94.07","58.74","CHURCHILL A","5060605","2021-03-31 12:00","2021","03","31","12:00","-11.7","","-20.9","","47","","","","21","","23","","24.1","","101.65","","","","-21","","Mostly Cloudy"
"-94.07","58.74","CHURCHILL A","5060605","2021-03-31 13:00","2021","03","31","13:00","-10.3","","-19.6","","47","","","","23","","20","","24.1","","101.61","","","","-18","","NA"
"-94.07","58.74","CHURCHILL A","5060605","2021-03-31 14:00","2021","03","31","14:00","-9.4","","-18.6","","48","","","","27","","14","","24.1","","101.63","","","","-16","","NA"
"-94.07","58.74","CHURCHILL A","5060605","2021-03-31 15:00","2021","03","31","15:00","-9.1","","-17.7","","50","","","","28","","10","","24.1","","101.65","","","","-14","","Clear"
"-94.07","58.74","CHURCHILL A","5060605","2021-03-31 16:00","2021","03","31","16:00","-8.7","","-17.9","","48","","","","29","","7","","24.1","","101.64","","","","-13","","NA"
"-94.07","58.74","CHURCHILL A","5060605","2021-03-31 17:00","2021","03","31","17:00","-8.8","","-17.8","","49","","","","7","","5","","24.1","","101.62","","","","-12","","NA"
"-94.07","58.74","CHURCHILL A","5060605","2021-03-31 18:00","2021","03","31","18:00","-10.9","","-18.1","","56","","","","9","","8","","24.1","","101.61","","","","-16","","Clear"
"-94.07","58.74","CHURCHILL A","5060605","2021-03-31 19:00","2021","03","31","19:00","-12.4","","-18.7","","60","","","","12","","10","","24.1","","101.60","","","","-18","","NA"
"-94.07","58.74","CHURCHILL A","5060605","2021-03-31 20:00","2021","03","31","20:00","-12.9","","-18.8","","62","","","","12","","10","","24.1","","101.58","","","","-19","","NA"
"-94.07","58.74","CHURCHILL A","5060605","2021-03-31 21:00","2021","03","31","21:00","-13.3","","-18.8","","64","","","","13","","10","","24.1","","101.55","","","","-19","","Mostly Cloudy"
"-94.07","58.74","CHURCHILL A","5060605","2021-03-31 22:00","2021","03","31","22:00","-13.9","","-19.0","","66","","","","14","","13","","24.1","","101.50","","","","-21","","NA"
"-94.07","58.74","CHURCHILL A","5060605","2021-03-31 23:00","2021","03","31","23:00","-14.9","","-19.5","","69","","","","15","","13","","24.1","","101.43","","","","-22","","NA"
