"Longitude (x)","Latitude (y)","Station Name","Climate ID","Date/Time (LST)","Year","Month","Day","Time (LST)","Temp (°C)","Temp Flag","Dew Point Temp (°C)","Dew Point Temp Flag","Rel Hum (%)","Rel Hum Flag","Precip. Amount (mm)","Precip. Amount Flag","Wind Dir (10s deg)","Wind Dir Flag","Wind Spd (km/h)","Wind Spd Flag","Visibility (km)","Visibility Flag","Stn Press (kPa)","Stn Press Flag","Hmdx","Hmdx Flag","Wind Chill","Wind Chill Flag","Weather"
"-105.14","69.11","CAMBRIDGE BAY A","2400601","2018-10-01 00:00","2018","10","01","00:00","-5.7","","-7.7","","86","","","","1","","29","","12.9","","100.67","","","","-14","","Snow,Blowing Snow"
"-105.14","69.11","CAMBRIDGE BAY A","2400601","2018-10-01 01:00","2018","10","01","01:00","-5.7","","-7.7","","86","","","","1","","22","","16.1","","100.72","","","","-13","","Snow,Blowing Snow"
"-105.14","69.11","CAMBRIDGE BAY A","2400601","2018-10-01 02:00","2018","10","01","02:00","-5.3","","-7.4","","86","","","","36","","23","","19.3","","100.78","","","","-12","","Snow,Blowing Snow"
"-105.14","69.11","CAMBRIDGE BAY A","2400601","2018-10-01 03:00","2018","10","01","03:00","-5.3","","-7.6","","84","","","","36","","24","","19.3","","100.82","","","","-13","","Snow,Blowing Snow"
"-105.14","69.11","CAMBRIDGE BAY A","2400601","2018-10-01 04:00","2018","10","01","04:00","-5.5","","-7.7","","84","","","","36","","24","","16.1","","100.86","","","","-13","","Snow,Blowing Snow"
"-105.14","69.11","CAMBRIDGE BAY A","2400601","2018-10-01 05:00","2018","10","01","05:00","-6.0","","-8.8","","81","","","","36","","24","","19.3","","100.90","","","","-13","","Snow,Blowing Snow"
"-105.14","69.11","CAMBRIDGE BAY A","2400601","2018-10-01 06:00","2018","10","01","06:00","-7.8","","-10.5","","82","","","","34","","25","","24.1","","100.90","","","","-16","","Blowing Snow"
"-105.14","69.11","CAMBRIDGE BAY A","2400601","2018-10-01 07:00","2018","10","01","07:00","-7.6","","-10.3","","81","","","","34","","19","","24.1","","100.86","","","","-15","","Blowing Snow"
"-105.14","69.11","CAMBRIDGE BAY A","2400601","2018-10-01 08:00","2018","10","01","08:00","-8.3","","-10.8","","83","","","","29","","18","","24.1","","100.79","","","","-15","","Mostly Cloudy"
"-105.14","69.11","CAMBRIDGE BAY A","2400601","2018-10-01 09:00","2018","10","01","09:00","-7.5","","-9.8","","84","","","","30","","25","","24.1","","100.71","","","","-16","","NA"
"-105.14","69.11","CAMBRIDGE BAY A","2400601","2018-10-01 10:00","2018","10","01","10:00","-6.0","","-7.6","","88","","","","27","","20","","24.1","","100.56","","","","-13","","NA"
"-105.14","69.11","CAMBRIDGE BAY A","2400601","2018-10-01 11:00","2018","10","01","11:00","-4.4","","-6.3","","87","","","","28","","30","","6.4","","100.38","","","","-12","","Snow,Blowing Snow"
"-105.14","69.11","CAMBRIDGE BAY A","2400601","2018-10-01 12:00","2018","10","01","12:00","-3.5","","-4.8","","91","","","","26","","33","","1.6","","100.18","","","","-11","","Snow,Blowing Snow"
"-105.14","69.11","CAMBRIDGE BAY A","2400601","2018-10-01 13:00","2018","10","01","13:00","-3.4","","-4.9","","90","","","","26","","42","","1.2","","99.98","","","","-12","","Snow,Blowing Snow"
"-105.14","69.11","CAMBRIDGE BAY A","2400601","2018-10-01 14:00","2018","10","01","14:00","-3.3","","-4.7","","90","","","","27","","34","","1.6","","99.81","","","","-11","","Snow,Blowing Snow"
"-105.14","69.11","CAMBRIDGE BAY A","2400601","2018-10-01 15:00","2018","10","01","15:00","-3.6","","-5.1","","90","","","","30","","20","","2.4","","99.66","","","","-10","","Snow,Blowing Snow"
"-105.14","69.11","CAMBRIDGE BAY A","2400601","2018-10-01 16:00","2018","10","01","16:00","-4.1","","-5.5","","90","","","","33","","15","","3.6","","99.54","","","","-9","","Snow"
"-105.14","69.11","CAMBRIDGE BAY A","2400601","2018-10-01 17:00","2018","10","01","17:00","-4.5","","-6.1","","89","","","","34","","14","","6.4","","99.46","","","","-10","","Snow"
"-105.14","69.11","CAMBRIDGE BAY A","2400601","2018-10-01 18:00","2018","10","01","18:00","-4.8","","-6.4","","88","","","","35","","14","","6.4","","99.40","","","","-10","","Snow"
"-105.14","69.11","CAMBRIDGE BAY A","2400601","2018-10-01 19:00","2018","10","01","19:00","-5.0","","-6.5","","89","","","","1","","17","","4.8","","99.37","","","","-11","","Snow"
"-105.14","69.11","CAMBRIDGE BAY A","2400601","2018-10-01 20:00","2018","10","01","20:00","-5.2","","-6.5","","90","","","","4","","22","","6.4","","99.37","","","","-12","","Snow"
"-105.14","69.11","CAMBRIDGE BAY A","2400601","2018-10-01 21:00","2018","10","01","21:00","-6.1","","-7.5","","90","","","","4","","24","","4.8","","99.43","","","","-14","","Snow"
"-105.14","69.11","CAMBRIDGE BAY A","2400601","2018-10-01 22:00","2018","10","01","22:00","-5.4","","-6.8","","90","","","","7","","33","","4.8","","99.54","","","","-14","","Snow,Blowing Snow"
"-105.14","69.11","CAMBRIDGE BAY A","2400601","2018-10-01 23:00","2018","10","01","23:00","-5.7","","-7.1","","90","","","","7","","39","","4.0","","99.72","","","","-15","","Snow,Blowing Snow"
"-105.14","69.11","CAMBRIDGE BAY A","2400601","2018-10-02 00:00","2018","10","02","00:00","-6.5","","-8.4","","86","","","","6","","39","","6.4","","99.90","","","","-16","","Snow,Blowing Snow"
"-105.14","69.11","CAMBRIDGE BAY A","2400601","2018-10-02 01:00","2018","10","02","01:00","-5.3","","-7.5","","85","","","","5","","35","","8.1","","100.05","","","","-14","","Snow,Blowing Snow"
"-105.14","69.11","CAMBRIDGE BAY A","2400601","2018-10-02 02:00","2018","10","02","02:00","-5.4","","-7.6","","84","","","","6","","40","","8.1","","100.21","","","","-15","","Snow,Blowing Snow"
"-105.14","69.11","CAMBRIDGE BAY A","2400601","2018-10-02 03:00","2018","10","02","03:00","-7.1","","-9.0","","86","","","","4","","29","","8.1","","100.35","","","","-16","","Snow,Blowing Snow"
"-105.14","69.11","CAMBRIDGE BAY A","2400601","2018-10-02 04:00","2018","10","02","04:00","-5.4","","-7.3","","87","","","","5","","32","","9.7","","100.48","","","","-14","","Snow,Blowing Snow"
"-105.14","69.11","CAMBRIDGE BAY A","2400601","2018-10-02 05:00","2018","10","02","05:00","-7.1","","-8.7","","89","","","","4","","48","","3.2","","100.63","","","","-18","","Snow,Blowing Snow"
"-105.14","69.11","CAMBRIDGE BAY A","2400601","2018-10-02 06:00","2018","10","02","06:00","-8.0","","-9.7","","87","","","","5","","44","","2.0","","100.74","","","","-18","","Snow,Blowing Snow"
"-105.14","69.11","CAMBRIDGE BAY A","2400601","2018-10-02 07:00","2018","10","02","07:00","-8.7","","-10.7","","86","","","","3","","41","","12.9","","100.85","","","","-19","","Snow,Blowing Snow"
"-105.14","69.11","CAMBRIDGE BAY A","2400601","2018-10-02 08:00","2018","10","02","08:00","-9.2","","-11.5","","84","","","","4","","41","","16.1","","100.92","","","","-20","","Blowing Snow"
"-105.14","69.11","CAMBRIDGE BAY A","2400601","2018-10-02 09:00","2018","10","02","09:00","-8.1","","-10.1","","85","","","","4","","43","","11.3","","101.01","","","","-19","","Blowing Snow"
"-105.14","69.11","CAMBRIDGE BAY A","2400601","2018-10-02 10:00","2018","10","02","10:00","-7.5","","-9.6","","85","","","","4","","40","","17.7","","101.07","","","","-17","","Blowing Snow"
"-105.14","69.11","CAMBRIDGE BAY A","2400601","2018-10-02 11:00","2018","10","02","11:00","-7.4","","-9.9","","82","","","","3","","34","","24.1","","101.13","","","","-17","","Blowing Snow"
"-105.14","69.11","CAMBRIDGE BAY A","2400601","2018-10-02 12:00","2018","10","02","12:00","-7.4","","-10.1","","82","","","","4","","36","","24.1","","101.19","","","","-17","","Blowing Snow"
"-105.14","69.11","CAMBRIDGE BAY A","2400601","2018-10-02 13:00","2018","10","02","13:00","-7.6","","-10.3","","81","","","","3","","31","","24.1","","101.23","","","","-17","","NA"
"-105.14","69.11","CAMBRIDGE BAY A","2400601","2018-10-02 14:00","2018","10","02","14:00","-7.8","","-10.6","","80","","","","4","","29","","19.3","","101.25","","","","-17","","Blowing Snow"
"-105.14","69.11","CAMBRIDGE BAY A","2400601","2018-10-02 15:00","2018","10","02","15:00","-7.8","","-10.1","","84","","","","3","","35","","14.5","","101.27","","","","-17","","Blowing Snow"
"-105.14","69.11","CAMBRIDGE BAY A","2400601","2018-10-02 16:00","2018","10","02","16:00","-7.8","","-10.5","","81","","","","2","","25","","16.1","","101.32","","","","-16","","Blowing Snow"
"-105.14","69.11","CAMBRIDGE BAY A","2400601","2018-10-02 17:00","2018","10","02","17:00","-8.3","","-10.8","","83","","","","2","","29","","16.1","","101.35","","","","-17","","Blowing Snow"
"-105.14","69.11","CAMBRIDGE BAY A","2400601","2018-10-02 18:00","2018","10","02","18:00","-8.7","","-10.7","","85","","","","3","","23","","19.3","","101.38","","","","-17","","Blowing Snow"
"-105.14","69.11","CAMBRIDGE BAY A","2400601","2018-10-02 19:00","2018","10","02","19:00","-8.4","","-10.6","","84","","","","1","","20","","19.3","","101.38","","","","-16","","Blowing Snow"
"-105.14","69.11","CAMBRIDGE BAY A","2400601","2018-10-02 20:00","2018","10","02","20:00","-8.4","","-10.7","","84","","","","1","","26","","16.1","","101.38","","","","-17","","Snow,Blowing Snow"
"-105.14","69.11","CAMBRIDGE BAY A","2400601","2018-10-02 21:00","2018","10","02","21:00","-8.3","","-10.6","","84","","","","1","","21","","16.1","","101.38","","","","-16","","Snow,Blowing Snow"
"-105.14","69.11","CAMBRIDGE BAY A","2400601","2018-10-02 22:00","2018","10","02","22:00","-8.7","","-11.0","","83","","","","1","","26","","12.9","","101.36","","","","-17","","Snow,Blowing Snow"
"-105.14","69.11","CAMBRIDGE BAY A","2400601","2018-10-02 23:00","2018","10","02","23:00","-8.4","","-10.7","","84","","","","1","","22","","16.1","","101.36","","","","-16","","Snow"
"-105.14","69.11","CAMBRIDGE BAY A","2400601","2018-10-03 00:00","2018","10","03","00:00","-8.2","","-10.5","","84","","","","1","","24","","12.9","","101.34","","","","-16","","Snow,Blowing Snow"
"-105.14","69.11","CAMBRIDGE BAY A","2400601","2018-10-03 01:00","2018","10","03","01:00","-7.9","","-10.0","","85","","","","2","","25","","12.9","","101.36","","","","-16","","Snow,Blowing Snow"
"-105.14","69.11","CAMBRIDGE BAY A","2400601","2018-10-03 02:00","2018","10","03","02:00","-7.7","","-9.7","","86","","","","2","","31","","9.7","","101.34","","","","-17","","Snow,Blowing Snow"
"-105.14","69.11","CAMBRIDGE BAY A","2400601","2018-10-03 03:00","2018","10","03","03:00","-7.3","","-9.2","","86","","","","2","","35","","9.7","","101.38","","","","-17","","Snow,Blowing Snow"
"-105.14","69.11","CAMBRIDGE BAY A","2400601","2018-10-03 04:00","2018","10","03","04:00","-7.9","","-9.8","","86","","","","1","","27","","16.1","","101.40","","","","-16","","Snow,Blowing Snow"
"-105.14","69.11","CAMBRIDGE BAY A","2400601","2018-10-03 05:00","2018","10","03","05:00","-7.4","","-9.5","","84","","","","1","","25","","16.1","","101.45","","","","-15","","Blowing Snow"
"-105.14","69.11","CAMBRIDGE BAY A","2400601","2018-10-03 06:00","2018","10","03","06:00","-7.1","","-9.2","","85","","","","2","","37","","9.7","","101.44","","","","-17","","Blowing Snow"
"-105.14","69.11","CAMBRIDGE BAY A","2400601","2018-10-03 07:00","2018","10","03","07:00","-6.5","","-8.7","","84","","","","3","","35","","16.1","","101.45","","","","-16","","Blowing Snow"
"-105.14","69.11","CAMBRIDGE BAY A","2400601","2018-10-03 08:00","2018","10","03","08:00","-7.2","","-9.3","","85","","","","1","","34","","11.3","","101.50","","","","-16","","Blowing Snow"
"-105.14","69.11","CAMBRIDGE BAY A","2400601","2018-10-03 09:00","2018","10","03","09:00","-7.2","","-9.3","","85","","","","1","","26","","11.3","","101.53","","","","-15","","Blowing Snow"
"-105.14","69.11","CAMBRIDGE BAY A","2400601","2018-10-03 10:00","2018","10","03","10:00","-7.0","","-9.1","","86","","","","1","","32","","4.8","","101.51","","","","-16","","Snow,Blowing Snow"
"-105.14","69.11","CAMBRIDGE BAY A","2400601","2018-10-03 11:00","2018","10","03","11:00","-7.0","","-9.0","","85","","","","1","","35","","4.8","","101.52","","","","-16","","Snow,Blowing Snow"
"-105.14","69.11","CAMBRIDGE BAY A","2400601","2018-10-03 12:00","2018","10","03","12:00","-7.4","","-9.7","","84","","","","36","","30","","6.4","","101.55","","","","-16","","Snow,Blowing Snow"
"-105.14","69.11","CAMBRIDGE BAY A","2400601","2018-10-03 13:00","2018","10","03","13:00","-7.7","","-10.0","","83","","","","35","","21","","6.4","","101.57","","","","-15","","Snow,Blowing Snow"
"-105.14","69.11","CAMBRIDGE BAY A","2400601","2018-10-03 14:00","2018","10","03","14:00","-7.6","","-9.9","","83","","","","1","","25","","4.8","","101.57","","","","-16","","Snow,Blowing Snow"
"-105.14","69.11","CAMBRIDGE BAY A","2400601","2018-10-03 15:00","2018","10","03","15:00","-7.5","","-9.8","","84","","","","1","","25","","6.4","","101.58","","","","-16","","Snow,Blowing Snow"
"-105.14","69.11","CAMBRIDGE BAY A","2400601","2018-10-03 16:00","2018","10","03","16:00","-7.4","","-9.7","","84","","","","36","","20","","6.4","","101.58","","","","-15","","Snow,Blowing Snow"
"-105.14","69.11","CAMBRIDGE BAY A","2400601","2018-10-03 17:00","2018","10","03","17:00","-8.2","","-10.6","","83","","","","36","","23","","9.7","","101.59","","","","-16","","Snow,Blowing Snow"
"-105.14","69.11","CAMBRIDGE BAY A","2400601","2018-10-03 18:00","2018","10","03","18:00","-8.8","","-11.0","","84","","","","36","","22","","9.7","","101.61","","","","-17","","Snow,Blowing Snow"
"-105.14","69.11","CAMBRIDGE BAY A","2400601","2018-10-03 19:00","2018","10","03","19:00","-9.3","","-11.9","","81","","","","36","","23","","16.1","","101.59","","","","-18","","Snow,Blowing Snow"
"-105.14","69.11","CAMBRIDGE BAY A","2400601","2018-10-03 20:00","2018","10","03","20:00","-10.3","","-13.0","","81","","","","36","","18","","16.1","","101.57","","","","-18","","Snow,Blowing Snow"
"-105.14","69.11","CAMBRIDGE BAY A","2400601","2018-10-03 21:00","2018","10","03","21:00","-9.7","","-11.9","","84","","","","1","","18","","16.1","","101.55","","","","-17","","Snow,Blowing Snow"
"-105.14","69.11","CAMBRIDGE BAY A","2400601","2018-10-03 22:00","2018","10","03","22:00","-8.9","","-11.0","","85","","","","36","","17","","16.1","","101.53","","","","-16","","Snow,Blowing Snow"
"-105.14","69.11","CAMBRIDGE BAY A","2400601","2018-10-03 23:00","2018","10","03","23:00","-8.3","","-10.2","","86","","","","36","","17","","16.1","","101.51","","","","-15","","Snow"
"-105.14","69.11","CAMBRIDGE BAY A","2400601","2018-10-04 00:00","2018","10","04","00:00","-7.5","","-9.4","","87","","","","36","","8","","16.1","","101.50","","","","-12","","Snow"
"-105.14","69.11","CAMBRIDGE BAY A","2400601","2018-10-04 01:00","2018","10","04","01:00","-7.0","","-8.7","","87","","","","3","","11","","9.7","","101.48","","","","-12","","Snow,Fog"
"-105.14","69.11","CAMBRIDGE BAY A","2400601","2018-10-04 02:00","2018","10","04","02:00","-6.4","","-8.4","","86","","","","5","","15","","8.1","","101.48","","","","-12","","Snow,Fog"
"-105.14","69.11","CAMBRIDGE BAY A","2400601","2018-10-04 03:00","2018","10","04","03:00","-6.4","","-8.1","","88","","","","1","","10","","8.1","","101.48","","","","-11","","Snow,Fog"
"-105.14","69.11","CAMBRIDGE BAY A","2400601","2018-10-04 04:00","2018","10","04","04:00","-5.7","","-7.4","","88","","","","2","","14","","8.1","","101.47","","","","-11","","Snow,Fog"
"-105.14","69.11","CAMBRIDGE BAY A","2400601","2018-10-04 05:00","2018","10","04","05:00","-5.8","","-7.0","","92","","","","4","","16","","9.7","","101.48","","","","-12","","Snow,Fog"
"-105.14","69.11","CAMBRIDGE BAY A","2400601","2018-10-04 06:00","2018","10","04","06:00","-5.0","","-6.1","","92","","","","2","","25","","3.2","","101.47","","","","-12","","Snow,Fog"
"-105.14","69.11","CAMBRIDGE BAY A","2400601","2018-10-04 07:00","2018","10","04","07:00","-4.8","","-6.0","","91","","","","2","","25","","4.8","","101.48","","","","-12","","Snow,Fog,Blowing Snow"
"-105.14","69.11","CAMBRIDGE BAY A","2400601","2018-10-04 08:00","2018","10","04","08:00","-5.7","","-7.1","","90","","","","2","","27","","6.4","","101.50","","","","-14","","Snow,Fog,Blowing Snow"
"-105.14","69.11","CAMBRIDGE BAY A","2400601","2018-10-04 09:00","2018","10","04","09:00","-5.3","","-6.6","","90","","","","3","","23","","4.8","","101.50","","","","-12","","Snow,Fog,Blowing Snow"
"-105.14","69.11","CAMBRIDGE BAY A","2400601","2018-10-04 10:00","2018","10","04","10:00","-5.4","","-7.0","","89","","","","6","","24","","19.3","","101.53","","","","-13","","Snow"
"-105.14","69.11","CAMBRIDGE BAY A","2400601","2018-10-04 11:00","2018","10","04","11:00","-5.6","","-7.9","","84","","","","5","","21","","24.1","","101.55","","","","-12","","Mostly Cloudy"
"-105.14","69.11","CAMBRIDGE BAY A","2400601","2018-10-04 12:00","2018","10","04","12:00","-5.9","","-8.0","","85","","","","2","","25","","24.1","","101.57","","","","-13","","NA"
"-105.14","69.11","CAMBRIDGE BAY A","2400601","2018-10-04 13:00","2018","10","04","13:00","-6.5","","-9.1","","82","","","","2","","18","","24.1","","101.57","","","","-13","","NA"
"-105.14","69.11","CAMBRIDGE BAY A","2400601","2018-10-04 14:00","2018","10","04","14:00","-6.2","","-8.3","","86","","","","2","","17","","24.1","","101.58","","","","-12","","Cloudy"
"-105.14","69.11","CAMBRIDGE BAY A","2400601","2018-10-04 15:00","2018","10","04","15:00","-6.8","","-8.7","","87","","","","4","","18","","24.1","","101.61","","","","-13","","NA"
"-105.14","69.11","CAMBRIDGE BAY A","2400601","2018-10-04 16:00","2018","10","04","16:00","-7.4","","-9.2","","87","","","","4","","11","","24.1","","101.64","","","","-12","","NA"
"-105.14","69.11","CAMBRIDGE BAY A","2400601","2018-10-04 17:00","2018","10","04","17:00","-8.2","","-9.7","","89","","","","4","","14","","24.1","","101.68","","","","-14","","Cloudy"
"-105.14","69.11","CAMBRIDGE BAY A","2400601","2018-10-04 18:00","2018","10","04","18:00","-8.8","","-10.2","","90","","","","4","","12","","16.1","","101.71","","","","-14","","Snow"
"-105.14","69.11","CAMBRIDGE BAY A","2400601","2018-10-04 19:00","2018","10","04","19:00","-9.7","","-11.2","","89","","","","4","","13","","12.9","","101.73","","","","-16","","Snow Grains"
"-105.14","69.11","CAMBRIDGE BAY A","2400601","2018-10-04 20:00","2018","10","04","20:00","-8.9","","-10.3","","90","","","","3","","15","","9.7","","101.72","","","","-15","","Fog"
"-105.14","69.11","CAMBRIDGE BAY A","2400601","2018-10-04 21:00","2018","10","04","21:00","-9.1","","-10.7","","88","","","","5","","17","","8.1","","101.74","","","","-16","","Snow Grains"
"-105.14","69.11","CAMBRIDGE BAY A","2400601","2018-10-04 22:00","2018","10","04","22:00","-9.3","","-10.8","","89","","","","5","","10","","8.1","","101.76","","","","-14","","Snow Grains"
"-105.14","69.11","CAMBRIDGE BAY A","2400601","2018-10-04 23:00","2018","10","04","23:00","-8.5","","-9.9","","90","","","","32","","7","","9.7","","101.76","","","","-12","","Snow Grains"
"-105.14","69.11","CAMBRIDGE BAY A","2400601","2018-10-05 00:00","2018","10","05","00:00","-7.1","","-8.6","","90","","","","4","","17","","16.1","","101.78","","","","-14","","Snow Grains"
"-105.14","69.11","CAMBRIDGE BAY A","2400601","2018-10-05 01:00","2018","10","05","01:00","-6.8","","-8.2","","90","","","","1","","15","","19.3","","101.78","","","","-13","","NA"
"-105.14","69.11","CAMBRIDGE BAY A","2400601","2018-10-05 02:00","2018","10","05","02:00","-6.9","","-8.4","","89","","","","2","","17","","14.5","","101.82","","","","-13","","Snow"
"-105.14","69.11","CAMBRIDGE BAY A","2400601","2018-10-05 03:00","2018","10","05","03:00","-6.6","","-8.0","","90","","","","3","","21","","16.1","","101.86","","","","-14","","Snow"
"-105.14","69.11","CAMBRIDGE BAY A","2400601","2018-10-05 04:00","2018","10","05","04:00","-6.9","","-8.2","","90","","","","2","","24","","6.4","","101.88","","","","-15","","Snow"
"-105.14","69.11","CAMBRIDGE BAY A","2400601","2018-10-05 05:00","2018","10","05","05:00","-7.0","","-8.5","","89","","","","3","","26","","8.1","","101.91","","","","-15","","Snow"
"-105.14","69.11","CAMBRIDGE BAY A","2400601","2018-10-05 06:00","2018","10","05","06:00","-7.2","","-8.7","","89","","","","4","","34","","16.1","","101.92","","","","-16","","Snow"
"-105.14","69.11","CAMBRIDGE BAY A","2400601","2018-10-05 07:00","2018","10","05","07:00","-7.2","","-8.8","","88","","","","4","","22","","24.1","","101.97","","","","-15","","Snow"
"-105.14","69.11","CAMBRIDGE BAY A","2400601","2018-10-05 08:00","2018","10","05","08:00","-7.0","","-8.7","","88","","","","3","","26","","24.1","","101.97","","","","-15","","Mostly Cloudy"
"-105.14","69.11","CAMBRIDGE BAY A","2400601","2018-10-05 09:00","2018","10","05","09:00","-6.8","","-8.5","","88","","","","3","","22","","24.1","","102.03","","","","-14","","NA"
"-105.14","69.11","CAMBRIDGE BAY A","2400601","2018-10-05 10:00","2018","10","05","10:00","-6.5","","-8.3","","87","","","","3","","21","","24.1","","102.04","","","","-14","","NA"
"-105.14","69.11","CAMBRIDGE BAY A","2400601","2018-10-05 11:00","2018","10","05","11:00","-6.1","","-8.0","","86","","","","4","","20","","24.1","","102.08","","","","-13","","Cloudy"
"-105.14","69.11","CAMBRIDGE BAY A","2400601","2018-10-05 12:00","2018","10","05","12:00","-6.2","","-8.8","","82","","","","4","","23","","24.1","","102.11","","","","-14","","NA"
"-105.14","69.11","CAMBRIDGE BAY A","2400601","2018-10-05 13:00","2018","10","05","13:00","-6.5","","-8.5","","86","","","","3","","24","","24.1","","102.14","","","","-14","","NA"
"-105.14","69.11","CAMBRIDGE BAY A","2400601","2018-10-05 14:00","2018","10","05","14:00","-7.0","","-8.9","","86","","","","3","","19","","24.1","","102.21","","","","-14","","Mostly Cloudy"
"-105.14","69.11","CAMBRIDGE BAY A","2400601","2018-10-05 15:00","2018","10","05","15:00","-7.2","","-9.1","","87","","","","3","","14","","24.1","","102.25","","","","-13","","NA"
"-105.14","69.11","CAMBRIDGE BAY A","2400601","2018-10-05 16:00","2018","10","05","16:00","-7.8","","-9.3","","89","","","","2","","15","","24.1","","102.28","","","","-14","","NA"
"-105.14","69.11","CAMBRIDGE BAY A","2400601","2018-10-05 17:00","2018","10","05","17:00","-8.7","","-10.1","","90","","","","1","","14","","24.1","","102.33","","","","-15","","Cloudy"
"-105.14","69.11","CAMBRIDGE BAY A","2400601","2018-10-05 18:00","2018","10","05","18:00","-9.7","","-11.5","","87","","","","1","","10","","24.1","","102.34","","","","-15","","NA"
"-105.14","69.11","CAMBRIDGE BAY A","2400601","2018-10-05 19:00","2018","10","05","19:00","-10.7","","-12.7","","85","","","","1","","13","","24.1","","102.36","","","","-17","","NA"
"-105.14","69.11","CAMBRIDGE BAY A","2400601","2018-10-05 20:00","2018","10","05","20:00","-11.3","","-13.4","","85","","","","36","","13","","24.1","","102.37","","","","-18","","Mainly Clear"
"-105.14","69.11","CAMBRIDGE BAY A","2400601","2018-10-05 21:00","2018","10","05","21:00","-11.5","","-13.8","","83","","","","35","","11","","24.1","","102.37","","","","-17","","NA"
"-105.14","69.11","CAMBRIDGE BAY A","2400601","2018-10-05 22:00","2018","10","05","22:00","-13.0","","-15.1","","85","","","","31","","10","","24.1","","102.39","","","","-19","","NA"
"-105.14","69.11","CAMBRIDGE BAY A","2400601","2018-10-05 23:00","2018","10","05","23:00","-12.8","","-14.8","","86","","","","31","","13","","24.1","","102.42","","","","-20","","Clear"
"-105.14","69.11","CAMBRIDGE BAY A","2400601","2018-10-06 00:00","2018","10","06","00:00","-13.0","","-15.0","","85","","","","32","","18","","16.1","","102.41","","","","-21","","NA"
"-105.14","69.11","CAMBRIDGE BAY A","2400601","2018-10-06 01:00","2018","10","06","01:00","-13.2","","-15.4","","84","","","","31","","20","","16.1","","102.43","","","","-22","","NA"
"-105.14","69.11","CAMBRIDGE BAY A","2400601","2018-10-06 02:00","2018","10","06","02:00","-13.5","","-15.8","","83","","","","31","","22","","24.1","","102.43","","","","-23","","Clear"
"-105.14","69.11","CAMBRIDGE BAY A","2400601","2018-10-06 03:00","2018","10","06","03:00","-13.7","","-16.0","","83","","","","32","","26","","24.1","","102.42","","","","-24","","NA"
"-105.14","69.11","CAMBRIDGE BAY A","2400601","2018-10-06 04:00","2018","10","06","04:00","-13.5","","-15.7","","83","","","","32","","21","","4.8","","102.41","","","","-22","","Ice Crystals"
"-105.14","69.11","CAMBRIDGE BAY A","2400601","2018-10-06 05:00","2018","10","06","05:00","-13.4","","-15.6","","83","","","","31","","26","","12.9","","102.41","","","","-23","","Ice Crystals"
"-105.14","69.11","CAMBRIDGE BAY A","2400601","2018-10-06 06:00","2018","10","06","06:00","-12.6","","-14.9","","83","","","","31","","31","","16.1","","102.36","","","","-23","","Ice Crystals,Blowing Snow"
"-105.14","69.11","CAMBRIDGE BAY A","2400601","2018-10-06 07:00","2018","10","06","07:00","-12.0","","-14.4","","82","","","","29","","27","","24.1","","102.35","","","","-22","","Blowing Snow"
"-105.14","69.11","CAMBRIDGE BAY A","2400601","2018-10-06 08:00","2018","10","06","08:00","-11.1","","-13.7","","82","","","","29","","26","","24.1","","102.33","","","","-20","","Blowing Snow"
"-105.14","69.11","CAMBRIDGE BAY A","2400601","2018-10-06 09:00","2018","10","06","09:00","-10.1","","-12.6","","82","","","","30","","39","","24.1","","102.27","","","","-21","","Blowing Snow"
"-105.14","69.11","CAMBRIDGE BAY A","2400601","2018-10-06 10:00","2018","10","06","10:00","-9.7","","-12.2","","82","","","","30","","42","","24.1","","102.22","","","","-21","","Blowing Snow"
"-105.14","69.11","CAMBRIDGE BAY A","2400601","2018-10-06 11:00","2018","10","06","11:00","-8.9","","-11.2","","84","","","","30","","45","","4.8","","102.16","","","","-20","","Blowing Snow"
"-105.14","69.11","CAMBRIDGE BAY A","2400601","2018-10-06 12:00","2018","10","06","12:00","-8.1","","-10.4","","84","","","","30","","41","","4.8","","102.13","","","","-18","","Blowing Snow"
"-105.14","69.11","CAMBRIDGE BAY A","2400601","2018-10-06 13:00","2018","10","06","13:00","-7.3","","-9.6","","84","","","","29","","44","","9.7","","102.06","","","","-18","","Blowing Snow"
"-105.14","69.11","CAMBRIDGE BAY A","2400601","2018-10-06 14:00","2018","10","06","14:00","-7.0","","-9.3","","84","","","","30","","39","","16.1","","102.03","","","","-17","","Blowing Snow"
"-105.14","69.11","CAMBRIDGE BAY A","2400601","2018-10-06 15:00","2018","10","06","15:00","-6.2","","-8.5","","84","","","","30","","46","","12.9","","101.97","","","","-16","","Blowing Snow"
"-105.14","69.11","CAMBRIDGE BAY A","2400601","2018-10-06 16:00","2018","10","06","16:00","-6.5","","-9.0","","83","","","","30","","46","","12.9","","101.96","","","","-17","","Blowing Snow"
"-105.14","69.11","CAMBRIDGE BAY A","2400601","2018-10-06 17:00","2018","10","06","17:00","-6.7","","-9.1","","83","","","","30","","40","","16.1","","101.93","","","","-16","","Blowing Snow"
"-105.14","69.11","CAMBRIDGE BAY A","2400601","2018-10-06 18:00","2018","10","06","18:00","-6.2","","-8.3","","85","","","","29","","43","","11.3","","101.88","","","","-16","","Blowing Snow"
"-105.14","69.11","CAMBRIDGE BAY A","2400601","2018-10-06 19:00","2018","10","06","19:00","-5.9","","-7.8","","86","","","","30","","46","","4.8","","101.78","","","","-16","","Snow,Blowing Snow"
"-105.14","69.11","CAMBRIDGE BAY A","2400601","2018-10-06 20:00","2018","10","06","20:00","-6.0","","-7.8","","87","","","","30","","46","","4.8","","101.68","","","","-16","","Snow,Blowing Snow"
"-105.14","69.11","CAMBRIDGE BAY A","2400601","2018-10-06 21:00","2018","10","06","21:00","-5.6","","-7.4","","87","","","","30","","45","","4.8","","101.60","","","","-15","","Snow,Blowing Snow"
"-105.14","69.11","CAMBRIDGE BAY A","2400601","2018-10-06 22:00","2018","10","06","22:00","-5.4","","-7.4","","86","","","","30","","52","","4.8","","101.54","","","","-16","","Snow,Blowing Snow"
"-105.14","69.11","CAMBRIDGE BAY A","2400601","2018-10-06 23:00","2018","10","06","23:00","-5.3","","-7.2","","86","","","","30","","45","","4.8","","101.50","","","","-15","","Snow,Blowing Snow"
"-105.14","69.11","CAMBRIDGE BAY A","2400601","2018-10-07 00:00","2018","10","07","00:00","-5.2","","-7.1","","86","","","","30","","43","","6.4","","101.48","","","","-15","","Snow,Blowing Snow"
"-105.14","69.11","CAMBRIDGE BAY A","2400601","2018-10-07 01:00","2018","10","07","01:00","-5.0","","-6.7","","87","","","","29","","38","","6.4","","101.44","","","","-14","","Snow,Blowing Snow"
"-105.14","69.11","CAMBRIDGE BAY A","2400601","2018-10-07 02:00","2018","10","07","02:00","-4.6","","-6.0","","90","","","","31","","44","","4.8","","101.36","","","","-14","","Snow,Blowing Snow"
"-105.14","69.11","CAMBRIDGE BAY A","2400601","2018-10-07 03:00","2018","10","07","03:00","-4.4","","-5.7","","91","","","","30","","48","","2.4","","101.29","","","","-14","","Snow,Blowing Snow"
"-105.14","69.11","CAMBRIDGE BAY A","2400601","2018-10-07 04:00","2018","10","07","04:00","-4.3","","-5.8","","90","","","","30","","42","","2.4","","101.28","","","","-13","","Snow,Blowing Snow"
"-105.14","69.11","CAMBRIDGE BAY A","2400601","2018-10-07 05:00","2018","10","07","05:00","-4.5","","-6.1","","88","","","","31","","44","","2.4","","101.24","","","","-14","","Snow,Blowing Snow"
"-105.14","69.11","CAMBRIDGE BAY A","2400601","2018-10-07 06:00","2018","10","07","06:00","-4.4","","-6.3","","87","","","","31","","35","","4.8","","101.28","","","","-13","","Snow,Blowing Snow"
"-105.14","69.11","CAMBRIDGE BAY A","2400601","2018-10-07 07:00","2018","10","07","07:00","-3.8","","-5.5","","88","","","","34","","43","","2.0","","101.27","","","","-13","","Snow,Blowing Snow"
"-105.14","69.11","CAMBRIDGE BAY A","2400601","2018-10-07 08:00","2018","10","07","08:00","-3.6","","-5.4","","88","","","","34","","45","","4.8","","101.26","","","","-13","","Snow,Blowing Snow"
"-105.14","69.11","CAMBRIDGE BAY A","2400601","2018-10-07 09:00","2018","10","07","09:00","-3.9","","-6.1","","85","","","","33","","47","","1.6","","101.30","","","","-13","","Snow,Blowing Snow"
"-105.14","69.11","CAMBRIDGE BAY A","2400601","2018-10-07 10:00","2018","10","07","10:00","-4.2","","-6.6","","84","","","","33","","35","","16.1","","101.34","","","","-13","","Blowing Snow"
"-105.14","69.11","CAMBRIDGE BAY A","2400601","2018-10-07 11:00","2018","10","07","11:00","-4.2","","-6.6","","83","","","","33","","39","","14.5","","101.36","","","","-13","","Blowing Snow"
"-105.14","69.11","CAMBRIDGE BAY A","2400601","2018-10-07 12:00","2018","10","07","12:00","-4.7","","-7.3","","82","","","","35","","31","","16.1","","101.39","","","","-13","","Blowing Snow"
"-105.14","69.11","CAMBRIDGE BAY A","2400601","2018-10-07 13:00","2018","10","07","13:00","-4.6","","-7.3","","82","","","","34","","41","","19.3","","101.42","","","","-14","","Blowing Snow"
"-105.14","69.11","CAMBRIDGE BAY A","2400601","2018-10-07 14:00","2018","10","07","14:00","-4.8","","-7.5","","82","","","","33","","28","","19.3","","101.47","","","","-12","","Blowing Snow"
"-105.14","69.11","CAMBRIDGE BAY A","2400601","2018-10-07 15:00","2018","10","07","15:00","-5.5","","-7.9","","83","","","","32","","28","","24.1","","101.48","","","","-13","","NA"
"-105.14","69.11","CAMBRIDGE BAY A","2400601","2018-10-07 16:00","2018","10","07","16:00","-5.5","","-7.6","","85","","","","32","","46","","19.3","","101.43","","","","-15","","Blowing Snow"
"-105.14","69.11","CAMBRIDGE BAY A","2400601","2018-10-07 17:00","2018","10","07","17:00","-6.1","","-8.3","","85","","","","33","","39","","19.3","","101.44","","","","-15","","Blowing Snow"
"-105.14","69.11","CAMBRIDGE BAY A","2400601","2018-10-07 18:00","2018","10","07","18:00","-6.8","","-8.9","","85","","","","32","","31","","24.1","","101.46","","","","-15","","Blowing Snow"
"-105.14","69.11","CAMBRIDGE BAY A","2400601","2018-10-07 19:00","2018","10","07","19:00","-6.7","","-8.8","","85","","","","32","","37","","16.1","","101.40","","","","-16","","Blowing Snow"
"-105.14","69.11","CAMBRIDGE BAY A","2400601","2018-10-07 20:00","2018","10","07","20:00","-6.3","","-8.4","","85","","","","33","","19","","24.1","","101.43","","","","-13","","Blowing Snow"
"-105.14","69.11","CAMBRIDGE BAY A","2400601","2018-10-07 21:00","2018","10","07","21:00","-5.9","","-8.3","","84","","","","33","","36","","19.3","","101.36","","","","-15","","Blowing Snow"
"-105.14","69.11","CAMBRIDGE BAY A","2400601","2018-10-07 22:00","2018","10","07","22:00","-5.8","","-8.1","","83","","","","33","","39","","17.7","","101.36","","","","-15","","Snow,Blowing Snow"
"-105.14","69.11","CAMBRIDGE BAY A","2400601","2018-10-07 23:00","2018","10","07","23:00","-5.4","","-7.8","","83","","","","33","","31","","16.1","","101.41","","","","-14","","Snow,Blowing Snow"
"-105.14","69.11","CAMBRIDGE BAY A","2400601","2018-10-08 00:00","2018","10","08","00:00","-5.3","","-7.8","","83","","","","33","","31","","16.1","","101.43","","","","-14","","Snow,Blowing Snow"
"-105.14","69.11","CAMBRIDGE BAY A","2400601","2018-10-08 01:00","2018","10","08","01:00","-5.2","","-7.6","","83","","","","34","","30","","16.1","","101.47","","","","-13","","Snow,Blowing Snow"
"-105.14","69.11","CAMBRIDGE BAY A","2400601","2018-10-08 02:00","2018","10","08","02:00","-5.4","","-7.7","","83","","","","34","","28","","16.1","","101.50","","","","-13","","Blowing Snow"
"-105.14","69.11","CAMBRIDGE BAY A","2400601","2018-10-08 03:00","2018","10","08","03:00","-5.4","","-7.7","","84","","","","33","","29","","16.1","","101.56","","","","-13","","Snow,Blowing Snow"
"-105.14","69.11","CAMBRIDGE BAY A","2400601","2018-10-08 04:00","2018","10","08","04:00","-5.5","","-7.8","","84","","","","34","","27","","19.3","","101.60","","","","-13","","Snow,Blowing Snow"
"-105.14","69.11","CAMBRIDGE BAY A","2400601","2018-10-08 05:00","2018","10","08","05:00","-5.4","","-7.8","","84","","","","34","","31","","19.3","","101.58","","","","-14","","Snow,Blowing Snow"
"-105.14","69.11","CAMBRIDGE BAY A","2400601","2018-10-08 06:00","2018","10","08","06:00","-5.4","","-7.8","","83","","","","33","","33","","19.3","","101.65","","","","-14","","Snow,Blowing Snow"
"-105.14","69.11","CAMBRIDGE BAY A","2400601","2018-10-08 07:00","2018","10","08","07:00","-5.4","","-7.8","","84","","","","32","","32","","20.9","","101.68","","","","-14","","Snow,Blowing Snow"
"-105.14","69.11","CAMBRIDGE BAY A","2400601","2018-10-08 08:00","2018","10","08","08:00","-5.5","","-8.0","","83","","","","33","","35","","24.1","","101.72","","","","-14","","Blowing Snow"
"-105.14","69.11","CAMBRIDGE BAY A","2400601","2018-10-08 09:00","2018","10","08","09:00","-5.4","","-8.0","","82","","","","33","","30","","24.1","","101.73","","","","-14","","Blowing Snow"
"-105.14","69.11","CAMBRIDGE BAY A","2400601","2018-10-08 10:00","2018","10","08","10:00","-5.3","","-7.9","","82","","","","34","","36","","19.3","","101.75","","","","-14","","Blowing Snow"
"-105.14","69.11","CAMBRIDGE BAY A","2400601","2018-10-08 11:00","2018","10","08","11:00","-5.4","","-8.2","","81","","","","35","","25","","19.3","","101.76","","","","-13","","Blowing Snow"
"-105.14","69.11","CAMBRIDGE BAY A","2400601","2018-10-08 12:00","2018","10","08","12:00","-5.5","","-8.5","","79","","","","36","","32","","16.1","","101.80","","","","-14","","Blowing Snow"
"-105.14","69.11","CAMBRIDGE BAY A","2400601","2018-10-08 13:00","2018","10","08","13:00","-5.3","","-8.2","","80","","","","35","","30","","19.3","","101.80","","","","-13","","Blowing Snow"
"-105.14","69.11","CAMBRIDGE BAY A","2400601","2018-10-08 14:00","2018","10","08","14:00","-5.0","","-7.9","","80","","","","34","","34","","19.3","","101.86","","","","-13","","Blowing Snow"
"-105.14","69.11","CAMBRIDGE BAY A","2400601","2018-10-08 15:00","2018","10","08","15:00","-6.2","","-9.2","","79","","","","33","","34","","19.3","","101.90","","","","-15","","Blowing Snow"
"-105.14","69.11","CAMBRIDGE BAY A","2400601","2018-10-08 16:00","2018","10","08","16:00","-6.3","","-9.9","","76","","","","32","","40","","19.3","","101.98","","","","-16","","Blowing Snow"
"-105.14","69.11","CAMBRIDGE BAY A","2400601","2018-10-08 17:00","2018","10","08","17:00","-7.2","","-10.9","","75","","","","33","","19","","19.3","","102.03","","","","-14","","Blowing Snow"
"-105.14","69.11","CAMBRIDGE BAY A","2400601","2018-10-08 18:00","2018","10","08","18:00","-7.6","","-11.4","","74","","","","32","","31","","24.1","","102.05","","","","-17","","Blowing Snow"
"-105.14","69.11","CAMBRIDGE BAY A","2400601","2018-10-08 19:00","2018","10","08","19:00","-7.2","","-11.0","","74","","","","33","","32","","24.1","","102.07","","","","-16","","Blowing Snow"
"-105.14","69.11","CAMBRIDGE BAY A","2400601","2018-10-08 20:00","2018","10","08","20:00","-8.5","","-12.1","","76","","","","30","","29","","19.3","","102.11","","","","-17","","Blowing Snow"
"-105.14","69.11","CAMBRIDGE BAY A","2400601","2018-10-08 21:00","2018","10","08","21:00","-8.6","","-12.3","","75","","","","31","","34","","19.3","","102.08","","","","-18","","Blowing Snow"
"-105.14","69.11","CAMBRIDGE BAY A","2400601","2018-10-08 22:00","2018","10","08","22:00","-8.5","","-12.9","","71","","","","31","","28","","19.3","","102.08","","","","-17","","Blowing Snow"
"-105.14","69.11","CAMBRIDGE BAY A","2400601","2018-10-08 23:00","2018","10","08","23:00","-8.2","","-12.8","","70","","","","31","","29","","19.3","","102.08","","","","-17","","Blowing Snow"
"-105.14","69.11","CAMBRIDGE BAY A","2400601","2018-10-09 00:00","2018","10","09","00:00","-8.1","","-11.7","","75","","","","31","","33","","19.3","","102.08","","","","-17","","Blowing Snow"
"-105.14","69.11","CAMBRIDGE BAY A","2400601","2018-10-09 01:00","2018","10","09","01:00","-8.2","","-12.5","","71","","","","31","","30","","19.3","","102.05","","","","-17","","Blowing Snow"
"-105.14","69.11","CAMBRIDGE BAY A","2400601","2018-10-09 02:00","2018","10","09","02:00","-7.7","","-10.3","","81","","","","30","","36","","19.3","","102.06","","","","-17","","Blowing Snow"
"-105.14","69.11","CAMBRIDGE BAY A","2400601","2018-10-09 03:00","2018","10","09","03:00","-7.0","","-8.8","","87","","","","27","","25","","16.1","","102.10","","","","-15","","Blowing Snow"
"-105.14","69.11","CAMBRIDGE BAY A","2400601","2018-10-09 04:00","2018","10","09","04:00","-7.1","","-8.5","","90","","","","28","","29","","24.1","","102.09","","","","-16","","Blowing Snow"
"-105.14","69.11","CAMBRIDGE BAY A","2400601","2018-10-09 05:00","2018","10","09","05:00","-6.1","","-7.5","","90","","","","28","","27","","24.1","","102.07","","","","-14","","Ice Crystals"
"-105.14","69.11","CAMBRIDGE BAY A","2400601","2018-10-09 06:00","2018","10","09","06:00","-6.1","","-8.3","","85","","","","29","","32","","24.1","","101.99","","","","-15","","Ice Crystals"
"-105.14","69.11","CAMBRIDGE BAY A","2400601","2018-10-09 07:00","2018","10","09","07:00","-5.3","","-8.0","","82","","","","27","","24","","24.1","","102.02","","","","-13","","Ice Crystals"
"-105.14","69.11","CAMBRIDGE BAY A","2400601","2018-10-09 08:00","2018","10","09","08:00","-4.0","","-8.2","","73","","","","27","","22","","24.1","","102.01","","","","-11","","Mainly Clear"
"-105.14","69.11","CAMBRIDGE BAY A","2400601","2018-10-09 09:00","2018","10","09","09:00","-5.4","","-9.4","","73","","","","30","","19","","24.1","","101.98","","","","-12","","NA"
"-105.14","69.11","CAMBRIDGE BAY A","2400601","2018-10-09 10:00","2018","10","09","10:00","-3.9","","-6.9","","80","","","","28","","30","","24.1","","101.90","","","","-12","","Blowing Snow"
"-105.14","69.11","CAMBRIDGE BAY A","2400601","2018-10-09 11:00","2018","10","09","11:00","-3.5","","-6.1","","82","","","","28","","34","","24.1","","101.91","","","","-11","","Blowing Snow"
"-105.14","69.11","CAMBRIDGE BAY A","2400601","2018-10-09 12:00","2018","10","09","12:00","-3.9","","-6.9","","79","","","","28","","33","","24.1","","101.89","","","","-12","","Blowing Snow"
"-105.14","69.11","CAMBRIDGE BAY A","2400601","2018-10-09 13:00","2018","10","09","13:00","-4.2","","-7.2","","80","","","","28","","24","","24.1","","101.92","","","","-11","","NA"
"-105.14","69.11","CAMBRIDGE BAY A","2400601","2018-10-09 14:00","2018","10","09","14:00","-3.9","","-6.9","","80","","","","29","","23","","24.1","","101.90","","","","-11","","Clear"
"-105.14","69.11","CAMBRIDGE BAY A","2400601","2018-10-09 15:00","2018","10","09","15:00","-3.6","","-6.3","","82","","","","28","","25","","24.1","","101.89","","","","-11","","NA"
"-105.14","69.11","CAMBRIDGE BAY A","2400601","2018-10-09 16:00","2018","10","09","16:00","-3.3","","-5.7","","84","","","","27","","24","","24.1","","101.85","","","","-10","","NA"
"-105.14","69.11","CAMBRIDGE BAY A","2400601","2018-10-09 17:00","2018","10","09","17:00","-3.4","","-5.5","","85","","","","26","","22","","24.1","","101.86","","","","-10","","Clear"
"-105.14","69.11","CAMBRIDGE BAY A","2400601","2018-10-09 18:00","2018","10","09","18:00","-3.3","","-5.3","","86","","","","27","","21","","24.1","","101.82","","","","-10","","NA"
"-105.14","69.11","CAMBRIDGE BAY A","2400601","2018-10-09 19:00","2018","10","09","19:00","-3.2","","-5.2","","86","","","","27","","24","","24.1","","101.81","","","","-10","","NA"
"-105.14","69.11","CAMBRIDGE BAY A","2400601","2018-10-09 20:00","2018","10","09","20:00","-3.6","","-5.3","","88","","","","28","","20","","19.3","","101.79","","","","-10","","Mainly Clear"
"-105.14","69.11","CAMBRIDGE BAY A","2400601","2018-10-09 21:00","2018","10","09","21:00","-4.1","","-5.6","","89","","","","27","","16","","19.3","","101.79","","","","-10","","NA"
"-105.14","69.11","CAMBRIDGE BAY A","2400601","2018-10-09 22:00","2018","10","09","22:00","-5.2","","-7.0","","87","","","","28","","14","","19.3","","101.75","","","","-11","","NA"
"-105.14","69.11","CAMBRIDGE BAY A","2400601","2018-10-09 23:00","2018","10","09","23:00","-4.6","","-6.1","","89","","","","29","","9","","24.1","","101.74","","","","-8","","Clear"
"-105.14","69.11","CAMBRIDGE BAY A","2400601","2018-10-10 00:00","2018","10","10","00:00","-4.2","","-6.2","","86","","","","27","","22","","24.1","","101.72","","","","-11","","NA"
"-105.14","69.11","CAMBRIDGE BAY A","2400601","2018-10-10 01:00","2018","10","10","01:00","-5.4","","-7.5","","85","","","","29","","18","","24.1","","101.71","","","","-12","","NA"
"-105.14","69.11","CAMBRIDGE BAY A","2400601","2018-10-10 02:00","2018","10","10","02:00","-6.8","","-8.6","","87","","","","29","","12","","24.1","","101.68","","","","-12","","Clear"
"-105.14","69.11","CAMBRIDGE BAY A","2400601","2018-10-10 03:00","2018","10","10","03:00","-5.8","","-7.8","","86","","","","29","","11","","24.1","","101.66","","","","-11","","NA"
"-105.14","69.11","CAMBRIDGE BAY A","2400601","2018-10-10 04:00","2018","10","10","04:00","-4.4","","-6.0","","89","","","","25","","13","","24.1","","101.64","","","","-9","","NA"
"-105.14","69.11","CAMBRIDGE BAY A","2400601","2018-10-10 05:00","2018","10","10","05:00","-3.5","","-5.2","","88","","","","24","","20","","24.1","","101.58","","","","-10","","Mainly Clear"
"-105.14","69.11","CAMBRIDGE BAY A","2400601","2018-10-10 06:00","2018","10","10","06:00","-2.9","","-5.1","","85","","","","24","","20","","24.1","","101.54","","","","-9","","NA"
"-105.14","69.11","CAMBRIDGE BAY A","2400601","2018-10-10 07:00","2018","10","10","07:00","-4.0","","-6.0","","86","","","","27","","14","","24.1","","101.55","","","","-9","","NA"
"-105.14","69.11","CAMBRIDGE BAY A","2400601","2018-10-10 08:00","2018","10","10","08:00","-4.2","","-6.0","","88","","","","28","","7","","24.1","","101.52","","","","-7","","Mainly Clear"
"-105.14","69.11","CAMBRIDGE BAY A","2400601","2018-10-10 09:00","2018","10","10","09:00","-3.2","","-5.3","","86","","","","26","","17","","24.1","","101.49","","","","-9","","NA"
"-105.14","69.11","CAMBRIDGE BAY A","2400601","2018-10-10 10:00","2018","10","10","10:00","-2.7","","-5.1","","84","","","","25","","18","","24.1","","101.48","","","","-8","","NA"
"-105.14","69.11","CAMBRIDGE BAY A","2400601","2018-10-10 11:00","2018","10","10","11:00","-2.3","","-4.8","","83","","","","24","","18","","24.1","","101.46","","","","-8","","Mainly Clear"
"-105.14","69.11","CAMBRIDGE BAY A","2400601","2018-10-10 12:00","2018","10","10","12:00","-2.8","","-4.8","","86","","","","26","","12","","24.1","","101.43","","","","-7","","NA"
"-105.14","69.11","CAMBRIDGE BAY A","2400601","2018-10-10 13:00","2018","10","10","13:00","-2.3","","-4.6","","84","","","","23","","13","","24.1","","101.41","","","","-7","","NA"
"-105.14","69.11","CAMBRIDGE BAY A","2400601","2018-10-10 14:00","2018","10","10","14:00","-2.3","","-4.9","","83","","","","24","","10","","24.1","","101.38","","","","-6","","Mostly Cloudy"
"-105.14","69.11","CAMBRIDGE BAY A","2400601","2018-10-10 15:00","2018","10","10","15:00","-2.7","","-4.9","","85","","","","23","","7","","24.1","","101.33","","","","-6","","NA"
"-105.14","69.11","CAMBRIDGE BAY A","2400601","2018-10-10 16:00","2018","10","10","16:00","-3.1","","-5.1","","86","","","","25","","7","","24.1","","101.28","","","","-6","","NA"
"-105.14","69.11","CAMBRIDGE BAY A","2400601","2018-10-10 17:00","2018","10","10","17:00","-4.8","","-6.0","","92","","","","","","0","","24.1","","101.26","","","","","","Mostly Cloudy"
"-105.14","69.11","CAMBRIDGE BAY A","2400601","2018-10-10 18:00","2018","10","10","18:00","-6.5","","-7.6","","92","","","","15","","4","","24.1","","101.23","","","","-8","","NA"
"-105.14","69.11","CAMBRIDGE BAY A","2400601","2018-10-10 19:00","2018","10","10","19:00","-5.9","","-7.0","","92","","","","12","","4","","16.1","","101.16","","","","-8","","NA"
"-105.14","69.11","CAMBRIDGE BAY A","2400601","2018-10-10 20:00","2018","10","10","20:00","-6.0","","-7.2","","92","","","","31","","7","","16.1","","101.12","","","","-9","","Mostly Cloudy"
"-105.14","69.11","CAMBRIDGE BAY A","2400601","2018-10-10 21:00","2018","10","10","21:00","-3.9","","-5.0","","92","","","","26","","6","","16.1","","101.09","","","","-7","","NA"
"-105.14","69.11","CAMBRIDGE BAY A","2400601","2018-10-10 22:00","2018","10","10","22:00","-3.9","","-4.9","","93","","","","29","","8","","19.3","","101.07","","","","-7","","NA"
"-105.14","69.11","CAMBRIDGE BAY A","2400601","2018-10-10 23:00","2018","10","10","23:00","-3.6","","-4.6","","92","","","","31","","3","","19.3","","101.01","","","","-5","","Cloudy"
"-105.14","69.11","CAMBRIDGE BAY A","2400601","2018-10-11 00:00","2018","10","11","00:00","-4.0","","-5.0","","93","","","","36","","2","","4.8","","100.97","","","","-5","","Fog"
"-105.14","69.11","CAMBRIDGE BAY A","2400601","2018-10-11 01:00","2018","10","11","01:00","-4.1","","-5.0","","94","","","","26","","3","","1.2","","100.95","","","","-5","","Fog"
"-105.14","69.11","CAMBRIDGE BAY A","2400601","2018-10-11 02:00","2018","10","11","02:00","-4.6","","-5.5","","93","","","","0","","1","","1.0","","100.93","","","","-5","","Fog"
"-105.14","69.11","CAMBRIDGE BAY A","2400601","2018-10-11 03:00","2018","10","11","03:00","-4.6","","-5.6","","93","","","","23","","8","","1.2","","100.88","","","","-8","","Fog"
"-105.14","69.11","CAMBRIDGE BAY A","2400601","2018-10-11 04:00","2018","10","11","04:00","-4.7","","-5.6","","93","","","","26","","5","","2.0","","100.88","","","","-7","","Fog"
"-105.14","69.11","CAMBRIDGE BAY A","2400601","2018-10-11 05:00","2018","10","11","05:00","-4.8","","-5.8","","93","","","","36","","9","","0.6","","100.80","","","","-9","","Freezing Fog"
"-105.14","69.11","CAMBRIDGE BAY A","2400601","2018-10-11 06:00","2018","10","11","06:00","-5.5","","-6.5","","93","","","","36","","2","","0.4","","100.75","","","","-6","","Freezing Fog"
"-105.14","69.11","CAMBRIDGE BAY A","2400601","2018-10-11 07:00","2018","10","11","07:00","-5.1","","-6.1","","93","","","","15","","8","","0.2","","100.72","","","","-9","","Freezing Fog"
"-105.14","69.11","CAMBRIDGE BAY A","2400601","2018-10-11 08:00","2018","10","11","08:00","-4.5","","-5.5","","93","","","","16","","3","","0.2","","100.72","","","","-6","","Freezing Fog"
"-105.14","69.11","CAMBRIDGE BAY A","2400601","2018-10-11 09:00","2018","10","11","09:00","-4.0","","-4.9","","93","","","","36","","2","","0.4","","100.69","","","","-5","","Snow,Freezing Fog"
"-105.14","69.11","CAMBRIDGE BAY A","2400601","2018-10-11 10:00","2018","10","11","10:00","-5.0","","-6.0","","93","","","","36","","15","","8.1","","100.67","","","","-11","","Fog"
"-105.14","69.11","CAMBRIDGE BAY A","2400601","2018-10-11 11:00","2018","10","11","11:00","-5.7","","-6.8","","92","","","","4","","15","","12.9","","100.68","","","","-11","","Cloudy"
"-105.14","69.11","CAMBRIDGE BAY A","2400601","2018-10-11 12:00","2018","10","11","12:00","-5.7","","-6.9","","92","","","","2","","12","","19.3","","100.67","","","","-11","","NA"
"-105.14","69.11","CAMBRIDGE BAY A","2400601","2018-10-11 13:00","2018","10","11","13:00","-5.8","","-6.9","","91","","","","2","","12","","19.3","","100.64","","","","-11","","NA"
"-105.14","69.11","CAMBRIDGE BAY A","2400601","2018-10-11 14:00","2018","10","11","14:00","-5.2","","-6.3","","92","","","","36","","9","","19.3","","100.61","","","","-9","","Cloudy"
"-105.14","69.11","CAMBRIDGE BAY A","2400601","2018-10-11 15:00","2018","10","11","15:00","-5.1","","-6.4","","91","","","","32","","16","","19.3","","100.61","","","","-11","","NA"
"-105.14","69.11","CAMBRIDGE BAY A","2400601","2018-10-11 16:00","2018","10","11","16:00","-4.9","","-6.3","","90","","","","32","","9","","19.3","","100.59","","","","-9","","NA"
"-105.14","69.11","CAMBRIDGE BAY A","2400601","2018-10-11 17:00","2018","10","11","17:00","-5.5","","-6.9","","90","","","","32","","17","","19.3","","100.57","","","","-12","","Cloudy"
"-105.14","69.11","CAMBRIDGE BAY A","2400601","2018-10-11 18:00","2018","10","11","18:00","-6.6","","-7.9","","91","","","","30","","17","","11.3","","100.56","","","","-13","","NA"
"-105.14","69.11","CAMBRIDGE BAY A","2400601","2018-10-11 19:00","2018","10","11","19:00","-6.8","","-8.0","","91","","","","30","","16","","9.7","","100.56","","","","-13","","Fog"
"-105.14","69.11","CAMBRIDGE BAY A","2400601","2018-10-11 20:00","2018","10","11","20:00","-6.9","","-8.2","","91","","","","29","","12","","9.7","","100.55","","","","-12","","Fog"
"-105.14","69.11","CAMBRIDGE BAY A","2400601","2018-10-11 21:00","2018","10","11","21:00","-7.1","","-8.5","","90","","","","3","","7","","19.3","","100.53","","","","-11","","NA"
"-105.14","69.11","CAMBRIDGE BAY A","2400601","2018-10-11 22:00","2018","10","11","22:00","-7.5","","-9.1","","89","","","","36","","10","","24.1","","100.54","","","","-12","","NA"
"-105.14","69.11","CAMBRIDGE BAY A","2400601","2018-10-11 23:00","2018","10","11","23:00","-7.4","","-9.3","","86","","","","3","","9","","24.1","","100.57","","","","-12","","Cloudy"
"-105.14","69.11","CAMBRIDGE BAY A","2400601","2018-10-12 00:00","2018","10","12","00:00","-7.4","","-9.4","","86","","","","2","","13","","19.3","","100.59","","","","-13","","Snow"
"-105.14","69.11","CAMBRIDGE BAY A","2400601","2018-10-12 01:00","2018","10","12","01:00","-6.9","","-8.7","","87","","","","1","","10","","8.1","","100.60","","","","-12","","Snow"
"-105.14","69.11","CAMBRIDGE BAY A","2400601","2018-10-12 02:00","2018","10","12","02:00","-6.5","","-8.4","","87","","","","34","","10","","9.7","","100.63","","","","-11","","Snow,Fog"
"-105.14","69.11","CAMBRIDGE BAY A","2400601","2018-10-12 03:00","2018","10","12","03:00","-6.7","","-8.6","","86","","","","1","","10","","9.7","","100.64","","","","-11","","Snow,Fog"
"-105.14","69.11","CAMBRIDGE BAY A","2400601","2018-10-12 04:00","2018","10","12","04:00","-6.4","","-8.3","","87","","","","34","","9","","12.9","","100.67","","","","-11","","Snow"
"-105.14","69.11","CAMBRIDGE BAY A","2400601","2018-10-12 05:00","2018","10","12","05:00","-6.0","","-7.8","","87","","","","34","","7","","19.3","","100.70","","","","-9","","Snow"
"-105.14","69.11","CAMBRIDGE BAY A","2400601","2018-10-12 06:00","2018","10","12","06:00","-6.1","","-7.8","","88","","","","31","","10","","19.3","","100.72","","","","-11","","Snow"
"-105.14","69.11","CAMBRIDGE BAY A","2400601","2018-10-12 07:00","2018","10","12","07:00","-5.9","","-7.8","","87","","","","35","","10","","16.1","","100.75","","","","-10","","Snow"
"-105.14","69.11","CAMBRIDGE BAY A","2400601","2018-10-12 08:00","2018","10","12","08:00","-6.4","","-8.2","","87","","","","32","","9","","19.3","","100.79","","","","-11","","Snow"
"-105.14","69.11","CAMBRIDGE BAY A","2400601","2018-10-12 09:00","2018","10","12","09:00","-6.0","","-7.8","","87","","","","33","","12","","19.3","","100.82","","","","-11","","Snow"
"-105.14","69.11","CAMBRIDGE BAY A","2400601","2018-10-12 10:00","2018","10","12","10:00","-5.8","","-7.6","","87","","","","33","","13","","19.3","","100.84","","","","-11","","Snow"
"-105.14","69.11","CAMBRIDGE BAY A","2400601","2018-10-12 11:00","2018","10","12","11:00","-5.9","","-7.6","","87","","","","31","","7","","16.1","","100.88","","","","-9","","Snow"
"-105.14","69.11","CAMBRIDGE BAY A","2400601","2018-10-12 12:00","2018","10","12","12:00","-5.5","","-7.4","","87","","","","32","","17","","16.1","","100.91","","","","-12","","Snow"
"-105.14","69.11","CAMBRIDGE BAY A","2400601","2018-10-12 13:00","2018","10","12","13:00","-5.4","","-7.5","","86","","","","32","","14","","16.1","","100.93","","","","-11","","Snow"
"-105.14","69.11","CAMBRIDGE BAY A","2400601","2018-10-12 14:00","2018","10","12","14:00","-5.5","","-8.8","","78","","","","32","","20","","19.3","","100.96","","","","-12","","Snow"
"-105.14","69.11","CAMBRIDGE BAY A","2400601","2018-10-12 15:00","2018","10","12","15:00","-6.8","","-9.3","","82","","","","32","","18","","19.3","","101.00","","","","-13","","Snow"
"-105.14","69.11","CAMBRIDGE BAY A","2400601","2018-10-12 16:00","2018","10","12","16:00","-7.4","","-9.9","","82","","","","32","","14","","19.3","","101.02","","","","-13","","Snow"
"-105.14","69.11","CAMBRIDGE BAY A","2400601","2018-10-12 17:00","2018","10","12","17:00","-9.4","","-11.6","","84","","","","31","","13","","19.3","","101.06","","","","-15","","Snow"
"-105.14","69.11","CAMBRIDGE BAY A","2400601","2018-10-12 18:00","2018","10","12","18:00","-10.8","","-12.6","","86","","","","31","","15","","24.1","","101.10","","","","-18","","NA"
"-105.14","69.11","CAMBRIDGE BAY A","2400601","2018-10-12 19:00","2018","10","12","19:00","-10.9","","-12.8","","86","","","","30","","14","","24.1","","101.12","","","","-18","","NA"
"-105.14","69.11","CAMBRIDGE BAY A","2400601","2018-10-12 20:00","2018","10","12","20:00","-12.0","","-13.8","","87","","","","31","","15","","24.1","","101.12","","","","-19","","Mainly Clear"
"-105.14","69.11","CAMBRIDGE BAY A","2400601","2018-10-12 21:00","2018","10","12","21:00","-10.0","","-12.9","","79","","","","32","","12","","19.3","","101.15","","","","-16","","Snow"
"-105.14","69.11","CAMBRIDGE BAY A","2400601","2018-10-12 22:00","2018","10","12","22:00","-10.1","","-13.2","","78","","","","36","","12","","12.9","","101.17","","","","-16","","Snow"
"-105.14","69.11","CAMBRIDGE BAY A","2400601","2018-10-12 23:00","2018","10","12","23:00","-10.3","","-13.6","","77","","","","32","","17","","16.1","","101.19","","","","-18","","Snow"
"-105.14","69.11","CAMBRIDGE BAY A","2400601","2018-10-13 00:00","2018","10","13","00:00","-10.2","","-12.9","","80","","","","2","","8","","16.1","","101.19","","","","-15","","Snow"
"-105.14","69.11","CAMBRIDGE BAY A","2400601","2018-10-13 01:00","2018","10","13","01:00","-11.2","","-13.8","","82","","","","35","","8","","19.3","","101.21","","","","-16","","Snow"
"-105.14","69.11","CAMBRIDGE BAY A","2400601","2018-10-13 02:00","2018","10","13","02:00","-11.0","","-14.2","","78","","","","36","","14","","6.4","","101.21","","","","-18","","Snow"
"-105.14","69.11","CAMBRIDGE BAY A","2400601","2018-10-13 03:00","2018","10","13","03:00","-11.2","","-14.1","","80","","","","33","","7","","12.9","","101.21","","","","-15","","Snow"
"-105.14","69.11","CAMBRIDGE BAY A","2400601","2018-10-13 04:00","2018","10","13","04:00","-11.2","","-14.1","","80","","","","33","","12","","19.3","","101.24","","","","-17","","Snow"
"-105.14","69.11","CAMBRIDGE BAY A","2400601","2018-10-13 05:00","2018","10","13","05:00","-12.9","","-15.8","","79","","","","33","","13","","19.3","","101.24","","","","-20","","Snow"
"-105.14","69.11","CAMBRIDGE BAY A","2400601","2018-10-13 06:00","2018","10","13","06:00","-14.7","","-17.6","","79","","","","33","","14","","24.1","","101.25","","","","-22","","NA"
"-105.14","69.11","CAMBRIDGE BAY A","2400601","2018-10-13 07:00","2018","10","13","07:00","-12.7","","-15.7","","79","","","","35","","9","","24.1","","101.25","","","","-18","","Snow"
"-105.14","69.11","CAMBRIDGE BAY A","2400601","2018-10-13 08:00","2018","10","13","08:00","-14.6","","-17.3","","80","","","","32","","14","","24.1","","101.24","","","","-22","","Snow"
"-105.14","69.11","CAMBRIDGE BAY A","2400601","2018-10-13 09:00","2018","10","13","09:00","-15.8","","-18.5","","80","","","","32","","13","","24.1","","101.26","","","","-23","","NA"
"-105.14","69.11","CAMBRIDGE BAY A","2400601","2018-10-13 10:00","2018","10","13","10:00","-13.4","","-16.5","","78","","","","34","","13","","19.3","","101.30","","","","-20","","Snow"
"-105.14","69.11","CAMBRIDGE BAY A","2400601","2018-10-13 11:00","2018","10","13","11:00","-12.7","","-15.8","","78","","","","34","","11","","24.1","","101.34","","","","-19","","Mostly Cloudy"
"-105.14","69.11","CAMBRIDGE BAY A","2400601","2018-10-13 12:00","2018","10","13","12:00","-11.9","","-14.9","","78","","","","33","","14","","24.1","","101.34","","","","-19","","NA"
"-105.14","69.11","CAMBRIDGE BAY A","2400601","2018-10-13 13:00","2018","10","13","13:00","-12.5","","-15.3","","80","","","","32","","13","","24.1","","101.36","","","","-19","","NA"
"-105.14","69.11","CAMBRIDGE BAY A","2400601","2018-10-13 14:00","2018","10","13","14:00","-12.9","","-15.6","","81","","","","31","","10","","80.5","","101.39","","","","-19","","Mostly Cloudy"
"-105.14","69.11","CAMBRIDGE BAY A","2400601","2018-10-13 15:00","2018","10","13","15:00","-13.2","","-15.8","","81","","","","32","","12","","24.1","","101.40","","","","-20","","NA"
"-105.14","69.11","CAMBRIDGE BAY A","2400601","2018-10-13 16:00","2018","10","13","16:00","-15.2","","-17.9","","80","","","","31","","13","","24.1","","101.42","","","","-23","","NA"
"-105.14","69.11","CAMBRIDGE BAY A","2400601","2018-10-13 17:00","2018","10","13","17:00","-17.2","","-19.8","","80","","","","30","","16","","24.1","","101.44","","","","-26","","Mainly Clear"
"-105.14","69.11","CAMBRIDGE BAY A","2400601","2018-10-13 18:00","2018","10","13","18:00","-16.9","","-19.5","","81","","","","31","","16","","24.1","","101.44","","","","-26","","NA"
"-105.14","69.11","CAMBRIDGE BAY A","2400601","2018-10-13 19:00","2018","10","13","19:00","-18.0","","-20.8","","79","","","","30","","16","","24.1","","101.45","","","","-27","","NA"
"-105.14","69.11","CAMBRIDGE BAY A","2400601","2018-10-13 20:00","2018","10","13","20:00","-17.6","","-20.4","","79","","","","31","","17","","24.1","","101.47","","","","-27","","Mainly Clear"
"-105.14","69.11","CAMBRIDGE BAY A","2400601","2018-10-13 21:00","2018","10","13","21:00","-17.5","","-20.2","","79","","","","31","","18","","24.1","","101.47","","","","-27","","NA"
"-105.14","69.11","CAMBRIDGE BAY A","2400601","2018-10-13 22:00","2018","10","13","22:00","-18.1","","-20.8","","80","","","","31","","15","","24.1","","101.48","","","","-27","","Ice Crystals"
"-105.14","69.11","CAMBRIDGE BAY A","2400601","2018-10-13 23:00","2018","10","13","23:00","-17.6","","-20.1","","81","","","","32","","21","","24.1","","101.45","","","","-28","","Ice Crystals"
"-105.14","69.11","CAMBRIDGE BAY A","2400601","2018-10-14 00:00","2018","10","14","00:00","-17.9","","-20.5","","80","","","","31","","23","","24.1","","101.47","","","","-29","","Ice Crystals"
"-105.14","69.11","CAMBRIDGE BAY A","2400601","2018-10-14 01:00","2018","10","14","01:00","-18.0","","-20.7","","80","","","","32","","23","","24.1","","101.43","","","","-29","","Ice Crystals"
"-105.14","69.11","CAMBRIDGE BAY A","2400601","2018-10-14 02:00","2018","10","14","02:00","-18.6","","-21.4","","79","","","","32","","18","","24.1","","101.43","","","","-28","","Ice Crystals"
"-105.14","69.11","CAMBRIDGE BAY A","2400601","2018-10-14 03:00","2018","10","14","03:00","-18.6","","-21.5","","79","","","","29","","12","","24.1","","101.43","","","","-26","","Ice Crystals"
"-105.14","69.11","CAMBRIDGE BAY A","2400601","2018-10-14 04:00","2018","10","14","04:00","-18.8","","-21.6","","79","","","","30","","16","","24.1","","101.43","","","","-28","","Ice Crystals"
"-105.14","69.11","CAMBRIDGE BAY A","2400601","2018-10-14 05:00","2018","10","14","05:00","-18.2","","-20.9","","80","","","","32","","17","","24.1","","101.41","","","","-27","","Ice Crystals"
"-105.14","69.11","CAMBRIDGE BAY A","2400601","2018-10-14 06:00","2018","10","14","06:00","-18.7","","-21.4","","80","","","","36","","4","","24.1","","101.34","","","","-22","","Ice Crystals"
"-105.14","69.11","CAMBRIDGE BAY A","2400601","2018-10-14 07:00","2018","10","14","07:00","-18.3","","-20.9","","80","","","","36","","6","","24.1","","101.28","","","","-23","","Ice Crystals"
"-105.14","69.11","CAMBRIDGE BAY A","2400601","2018-10-14 08:00","2018","10","14","08:00","-19.2","","-22.0","","79","","","","30","","3","","24.1","","101.25","","","","-22","","Ice Crystals"
"-105.14","69.11","CAMBRIDGE BAY A","2400601","2018-10-14 09:00","2018","10","14","09:00","-16.7","","-19.2","","82","","","","36","","2","","24.1","","101.19","","","","-18","","Ice Crystals"
"-105.14","69.11","CAMBRIDGE BAY A","2400601","2018-10-14 10:00","2018","10","14","10:00","-15.9","","-18.4","","81","","","","4","","4","","24.1","","101.19","","","","-19","","Ice Crystals"
"-105.14","69.11","CAMBRIDGE BAY A","2400601","2018-10-14 11:00","2018","10","14","11:00","-16.8","","-19.5","","80","","","","1","","3","","24.1","","101.16","","","","-19","","Ice Crystals"
"-105.14","69.11","CAMBRIDGE BAY A","2400601","2018-10-14 12:00","2018","10","14","12:00","-15.3","","-17.7","","82","","","","4","","9","","24.1","","101.10","","","","-21","","Ice Crystals"
"-105.14","69.11","CAMBRIDGE BAY A","2400601","2018-10-14 13:00","2018","10","14","13:00","-13.4","","-15.7","","83","","","","2","","6","","24.1","","101.07","","","","-17","","NA"
"-105.14","69.11","CAMBRIDGE BAY A","2400601","2018-10-14 14:00","2018","10","14","14:00","-12.8","","-15.1","","83","","","","4","","9","","24.1","","101.03","","","","-18","","Cloudy"
"-105.14","69.11","CAMBRIDGE BAY A","2400601","2018-10-14 15:00","2018","10","14","15:00","-11.9","","-14.0","","85","","","","3","","9","","24.1","","100.99","","","","-17","","NA"
"-105.14","69.11","CAMBRIDGE BAY A","2400601","2018-10-14 16:00","2018","10","14","16:00","-11.0","","-12.7","","87","","","","3","","4","","24.1","","100.96","","","","-13","","NA"
"-105.14","69.11","CAMBRIDGE BAY A","2400601","2018-10-14 17:00","2018","10","14","17:00","-10.5","","-12.0","","88","","","","11","","8","","24.1","","100.92","","","","-15","","Mostly Cloudy"
"-105.14","69.11","CAMBRIDGE BAY A","2400601","2018-10-14 18:00","2018","10","14","18:00","-10.4","","-12.0","","88","","","","8","","9","","16.1","","100.90","","","","-15","","NA"
"-105.14","69.11","CAMBRIDGE BAY A","2400601","2018-10-14 19:00","2018","10","14","19:00","-10.6","","-12.3","","88","","","","7","","10","","6.4","","100.87","","","","-16","","Snow,Fog"
"-105.14","69.11","CAMBRIDGE BAY A","2400601","2018-10-14 20:00","2018","10","14","20:00","-10.8","","-12.5","","87","","","","4","","9","","4.8","","100.85","","","","-16","","Snow,Fog"
"-105.14","69.11","CAMBRIDGE BAY A","2400601","2018-10-14 21:00","2018","10","14","21:00","-11.6","","-13.5","","86","","","","4","","10","","3.2","","100.86","","","","-17","","Snow,Fog"
"-105.14","69.11","CAMBRIDGE BAY A","2400601","2018-10-14 22:00","2018","10","14","22:00","-12.5","","-14.5","","85","","","","2","","13","","1.0","","100.88","","","","-19","","Snow,Fog"
"-105.14","69.11","CAMBRIDGE BAY A","2400601","2018-10-14 23:00","2018","10","14","23:00","-15.1","","-17.4","","83","","","","4","","13","","6.4","","100.90","","","","-22","","Snow,Fog"
"-105.14","69.11","CAMBRIDGE BAY A","2400601","2018-10-15 00:00","2018","10","15","00:00","-16.7","","-19.2","","81","","","","4","","15","","11.3","","100.91","","","","-25","","Snow"
"-105.14","69.11","CAMBRIDGE BAY A","2400601","2018-10-15 01:00","2018","10","15","01:00","-17.5","","-20.1","","80","","","","2","","16","","24.1","","100.92","","","","-26","","NA"
"-105.14","69.11","CAMBRIDGE BAY A","2400601","2018-10-15 02:00","2018","10","15","02:00","-16.8","","-19.4","","81","","","","1","","12","","24.1","","100.91","","","","-24","","Mainly Clear"
"-105.14","69.11","CAMBRIDGE BAY A","2400601","2018-10-15 03:00","2018","10","15","03:00","-17.0","","-19.5","","81","","","","1","","14","","24.1","","100.94","","","","-25","","NA"
"-105.14","69.11","CAMBRIDGE BAY A","2400601","2018-10-15 04:00","2018","10","15","04:00","-17.7","","-20.3","","80","","","","1","","11","","24.1","","100.99","","","","-25","","NA"
"-105.14","69.11","CAMBRIDGE BAY A","2400601","2018-10-15 05:00","2018","10","15","05:00","-17.8","","-20.4","","80","","","","36","","11","","24.1","","101.02","","","","-25","","Mainly Clear"
"-105.14","69.11","CAMBRIDGE BAY A","2400601","2018-10-15 06:00","2018","10","15","06:00","-18.0","","-20.7","","80","","","","36","","13","","24.1","","101.04","","","","-26","","NA"
"-105.14","69.11","CAMBRIDGE BAY A","2400601","2018-10-15 07:00","2018","10","15","07:00","-18.7","","-21.5","","79","","","","32","","11","","24.1","","101.05","","","","-26","","NA"
"-105.14","69.11","CAMBRIDGE BAY A","2400601","2018-10-15 08:00","2018","10","15","08:00","-20.2","","-23.1","","78","","","","31","","20","","24.1","","101.08","","","","-31","","Mainly Clear"
"-105.14","69.11","CAMBRIDGE BAY A","2400601","2018-10-15 09:00","2018","10","15","09:00","-20.1","","-23.1","","78","","","","31","","23","","24.1","","101.11","","","","-31","","NA"
"-105.14","69.11","CAMBRIDGE BAY A","2400601","2018-10-15 10:00","2018","10","15","10:00","-19.3","","-22.1","","78","","","","30","","22","","24.1","","101.14","","","","-30","","NA"
"-105.14","69.11","CAMBRIDGE BAY A","2400601","2018-10-15 11:00","2018","10","15","11:00","-18.4","","-21.2","","79","","","","32","","16","","24.1","","101.13","","","","-27","","Mainly Clear"
"-105.14","69.11","CAMBRIDGE BAY A","2400601","2018-10-15 12:00","2018","10","15","12:00","-18.3","","-21.0","","79","","","","31","","24","","24.1","","101.14","","","","-29","","NA"
"-105.14","69.11","CAMBRIDGE BAY A","2400601","2018-10-15 13:00","2018","10","15","13:00","-16.8","","-19.4","","81","","","","30","","25","","24.1","","101.13","","","","-27","","NA"
"-105.14","69.11","CAMBRIDGE BAY A","2400601","2018-10-15 14:00","2018","10","15","14:00","-14.9","","-17.3","","82","","","","30","","28","","19.3","","101.13","","","","-26","","Snow,Blowing Snow"
"-105.14","69.11","CAMBRIDGE BAY A","2400601","2018-10-15 15:00","2018","10","15","15:00","-15.7","","-18.2","","82","","","","30","","21","","24.1","","101.12","","","","-25","","NA"
"-105.14","69.11","CAMBRIDGE BAY A","2400601","2018-10-15 16:00","2018","10","15","16:00","-14.6","","-17.0","","83","","","","29","","24","","24.1","","101.12","","","","-24","","Snow"
"-105.14","69.11","CAMBRIDGE BAY A","2400601","2018-10-15 17:00","2018","10","15","17:00","-14.1","","-16.4","","83","","","","31","","20","","16.1","","101.13","","","","-23","","Snow,Blowing Snow"
"-105.14","69.11","CAMBRIDGE BAY A","2400601","2018-10-15 18:00","2018","10","15","18:00","-14.9","","-17.3","","82","","","","29","","14","","16.1","","101.13","","","","-22","","Ice Crystals"
"-105.14","69.11","CAMBRIDGE BAY A","2400601","2018-10-15 19:00","2018","10","15","19:00","-12.7","","-14.8","","84","","","","30","","25","","16.1","","101.08","","","","-22","","Ice Crystals"
"-105.14","69.11","CAMBRIDGE BAY A","2400601","2018-10-15 20:00","2018","10","15","20:00","-12.4","","-14.5","","85","","","","31","","27","","16.1","","101.05","","","","-22","","Ice Crystals,Blowing Snow"
"-105.14","69.11","CAMBRIDGE BAY A","2400601","2018-10-15 21:00","2018","10","15","21:00","-12.2","","-14.3","","85","","","","31","","30","","6.4","","101.03","","","","-22","","Snow,Blowing Snow"
"-105.14","69.11","CAMBRIDGE BAY A","2400601","2018-10-15 22:00","2018","10","15","22:00","-12.3","","-14.4","","84","","","","32","","31","","6.4","","101.02","","","","-23","","Snow,Blowing Snow"
"-105.14","69.11","CAMBRIDGE BAY A","2400601","2018-10-15 23:00","2018","10","15","23:00","-12.5","","-14.6","","84","","","","32","","32","","8.1","","101.08","","","","-23","","Snow,Blowing Snow"
"-105.14","69.11","CAMBRIDGE BAY A","2400601","2018-10-16 00:00","2018","10","16","00:00","-12.4","","-14.6","","84","","","","31","","28","","9.7","","101.11","","","","-22","","Snow,Blowing Snow"
"-105.14","69.11","CAMBRIDGE BAY A","2400601","2018-10-16 01:00","2018","10","16","01:00","-11.8","","-13.9","","85","","","","32","","27","","6.4","","101.11","","","","-21","","Snow,Blowing Snow"
"-105.14","69.11","CAMBRIDGE BAY A","2400601","2018-10-16 02:00","2018","10","16","02:00","-11.5","","-13.7","","84","","","","32","","31","","8.1","","101.16","","","","-22","","Snow,Blowing Snow"
"-105.14","69.11","CAMBRIDGE BAY A","2400601","2018-10-16 03:00","2018","10","16","03:00","-11.6","","-13.9","","83","","","","33","","33","","12.9","","101.17","","","","-22","","Snow,Blowing Snow"
"-105.14","69.11","CAMBRIDGE BAY A","2400601","2018-10-16 04:00","2018","10","16","04:00","-11.7","","-14.2","","82","","","","32","","29","","14.5","","101.18","","","","-22","","Snow,Blowing Snow"
"-105.14","69.11","CAMBRIDGE BAY A","2400601","2018-10-16 05:00","2018","10","16","05:00","-11.3","","-13.9","","81","","","","32","","34","","16.1","","101.19","","","","-22","","Snow,Blowing Snow"
"-105.14","69.11","CAMBRIDGE BAY A","2400601","2018-10-16 06:00","2018","10","16","06:00","-11.3","","-13.8","","82","","","","33","","26","","12.9","","101.21","","","","-21","","Snow,Blowing Snow"
"-105.14","69.11","CAMBRIDGE BAY A","2400601","2018-10-16 07:00","2018","10","16","07:00","-12.5","","-15.2","","80","","","","30","","23","","19.3","","101.27","","","","-22","","Ice Crystals,Blowing Snow"
"-105.14","69.11","CAMBRIDGE BAY A","2400601","2018-10-16 08:00","2018","10","16","08:00","-13.3","","-16.2","","79","","","","31","","27","","19.3","","101.25","","","","-23","","Ice Crystals,Blowing Snow"
"-105.14","69.11","CAMBRIDGE BAY A","2400601","2018-10-16 09:00","2018","10","16","09:00","-14.1","","-17.2","","78","","","","31","","29","","12.9","","101.23","","","","-25","","Ice Crystals,Blowing Snow"
"-105.14","69.11","CAMBRIDGE BAY A","2400601","2018-10-16 10:00","2018","10","16","10:00","-13.9","","-17.0","","78","","","","30","","27","","16.1","","101.24","","","","-24","","Ice Crystals,Blowing Snow"
"-105.14","69.11","CAMBRIDGE BAY A","2400601","2018-10-16 11:00","2018","10","16","11:00","-13.2","","-16.4","","77","","","","31","","30","","16.1","","101.25","","","","-24","","Ice Crystals,Blowing Snow"
"-105.14","69.11","CAMBRIDGE BAY A","2400601","2018-10-16 12:00","2018","10","16","12:00","-13.4","","-16.4","","78","","","","32","","32","","24.1","","101.22","","","","-24","","Blowing Snow"
"-105.14","69.11","CAMBRIDGE BAY A","2400601","2018-10-16 13:00","2018","10","16","13:00","-12.8","","-16.0","","77","","","","31","","28","","24.1","","101.22","","","","-23","","Blowing Snow"
"-105.14","69.11","CAMBRIDGE BAY A","2400601","2018-10-16 14:00","2018","10","16","14:00","-12.7","","-15.8","","77","","","","31","","23","","24.1","","101.21","","","","-22","","Blowing Snow"
"-105.14","69.11","CAMBRIDGE BAY A","2400601","2018-10-16 15:00","2018","10","16","15:00","-12.7","","-15.9","","77","","","","31","","22","","24.1","","101.17","","","","-22","","NA"
"-105.14","69.11","CAMBRIDGE BAY A","2400601","2018-10-16 16:00","2018","10","16","16:00","-12.9","","-16.1","","77","","","","31","","24","","24.1","","101.15","","","","-22","","Blowing Snow"
"-105.14","69.11","CAMBRIDGE BAY A","2400601","2018-10-16 17:00","2018","10","16","17:00","-13.1","","-15.9","","79","","","","30","","25","","24.1","","101.14","","","","-23","","Mainly Clear"
"-105.14","69.11","CAMBRIDGE BAY A","2400601","2018-10-16 18:00","2018","10","16","18:00","-13.4","","-16.5","","78","","","","30","","28","","24.1","","101.15","","","","-24","","Blowing Snow"
"-105.14","69.11","CAMBRIDGE BAY A","2400601","2018-10-16 19:00","2018","10","16","19:00","-13.7","","-16.7","","78","","","","30","","33","","19.3","","101.12","","","","-25","","Blowing Snow"
"-105.14","69.11","CAMBRIDGE BAY A","2400601","2018-10-16 20:00","2018","10","16","20:00","-13.8","","-16.9","","78","","","","31","","22","","24.1","","101.07","","","","-23","","Blowing Snow"
"-105.14","69.11","CAMBRIDGE BAY A","2400601","2018-10-16 21:00","2018","10","16","21:00","-13.2","","-16.2","","79","","","","31","","23","","24.1","","101.01","","","","-23","","NA"
"-105.14","69.11","CAMBRIDGE BAY A","2400601","2018-10-16 22:00","2018","10","16","22:00","-14.0","","-16.9","","79","","","","31","","25","","24.1","","100.98","","","","-24","","NA"
"-105.14","69.11","CAMBRIDGE BAY A","2400601","2018-10-16 23:00","2018","10","16","23:00","-14.5","","-17.5","","78","","","","28","","10","","24.1","","100.96","","","","-21","","Mainly Clear"
"-105.14","69.11","CAMBRIDGE BAY A","2400601","2018-10-17 00:00","2018","10","17","00:00","-14.2","","-17.2","","79","","","","29","","19","","24.1","","100.94","","","","-23","","NA"
"-105.14","69.11","CAMBRIDGE BAY A","2400601","2018-10-17 01:00","2018","10","17","01:00","-14.4","","-17.3","","79","","","","30","","21","","24.1","","100.92","","","","-24","","NA"
"-105.14","69.11","CAMBRIDGE BAY A","2400601","2018-10-17 02:00","2018","10","17","02:00","-14.9","","-17.8","","79","","","","30","","22","","24.1","","100.89","","","","-24","","Mainly Clear"
"-105.14","69.11","CAMBRIDGE BAY A","2400601","2018-10-17 03:00","2018","10","17","03:00","-15.1","","-18.1","","79","","","","30","","29","","24.1","","100.82","","","","-26","","NA"
"-105.14","69.11","CAMBRIDGE BAY A","2400601","2018-10-17 04:00","2018","10","17","04:00","-14.4","","-17.5","","78","","","","30","","19","","24.1","","100.81","","","","-23","","NA"
"-105.14","69.11","CAMBRIDGE BAY A","2400601","2018-10-17 05:00","2018","10","17","05:00","-13.9","","-16.8","","79","","","","28","","18","","24.1","","100.72","","","","-22","","Mostly Cloudy"
"-105.14","69.11","CAMBRIDGE BAY A","2400601","2018-10-17 06:00","2018","10","17","06:00","-13.9","","-16.9","","79","","","","28","","19","","24.1","","100.69","","","","-23","","NA"
"-105.14","69.11","CAMBRIDGE BAY A","2400601","2018-10-17 07:00","2018","10","17","07:00","-13.9","","-16.6","","80","","","","30","","19","","24.1","","100.60","","","","-23","","NA"
"-105.14","69.11","CAMBRIDGE BAY A","2400601","2018-10-17 08:00","2018","10","17","08:00","-14.8","","-17.2","","82","","","","29","","22","","24.1","","100.51","","","","-24","","Mainly Clear"
"-105.14","69.11","CAMBRIDGE BAY A","2400601","2018-10-17 09:00","2018","10","17","09:00","-14.9","","-17.6","","80","","","","26","","15","","24.1","","100.49","","","","-23","","NA"
"-105.14","69.11","CAMBRIDGE BAY A","2400601","2018-10-17 10:00","2018","10","17","10:00","-14.4","","-17.4","","79","","","","31","","19","","24.1","","100.48","","","","-23","","NA"
"-105.14","69.11","CAMBRIDGE BAY A","2400601","2018-10-17 11:00","2018","10","17","11:00","-14.8","","-17.8","","78","","","","30","","19","","24.1","","100.41","","","","-24","","Mainly Clear"
"-105.14","69.11","CAMBRIDGE BAY A","2400601","2018-10-17 12:00","2018","10","17","12:00","-14.8","","-17.6","","80","","","","35","","11","","24.1","","100.37","","","","-21","","NA"
"-105.14","69.11","CAMBRIDGE BAY A","2400601","2018-10-17 13:00","2018","10","17","13:00","-14.9","","-17.5","","81","","","","35","","8","","24.1","","100.32","","","","-20","","NA"
"-105.14","69.11","CAMBRIDGE BAY A","2400601","2018-10-17 14:00","2018","10","17","14:00","-14.9","","-17.6","","80","","","","36","","12","","24.1","","100.27","","","","-22","","Mainly Clear"
"-105.14","69.11","CAMBRIDGE BAY A","2400601","2018-10-17 15:00","2018","10","17","15:00","-14.8","","-17.4","","81","","","","35","","10","","24.1","","100.23","","","","-21","","NA"
"-105.14","69.11","CAMBRIDGE BAY A","2400601","2018-10-17 16:00","2018","10","17","16:00","-16.3","","-19.0","","80","","","","15","","8","","24.1","","100.20","","","","-22","","NA"
"-105.14","69.11","CAMBRIDGE BAY A","2400601","2018-10-17 17:00","2018","10","17","17:00","-15.2","","-17.8","","81","","","","36","","2","","24.1","","100.18","","","","-17","","Mainly Clear"
"-105.14","69.11","CAMBRIDGE BAY A","2400601","2018-10-17 18:00","2018","10","17","18:00","-16.4","","-18.9","","81","","","","4","","4","","24.1","","100.13","","","","-19","","NA"
"-105.14","69.11","CAMBRIDGE BAY A","2400601","2018-10-17 19:00","2018","10","17","19:00","-17.7","","-20.1","","82","","","","2","","10","","24.1","","100.04","","","","-24","","Ice Crystals"
"-105.14","69.11","CAMBRIDGE BAY A","2400601","2018-10-17 20:00","2018","10","17","20:00","-18.2","","-20.7","","81","","","","4","","10","","24.1","","100.04","","","","-25","","Ice Crystals"
"-105.14","69.11","CAMBRIDGE BAY A","2400601","2018-10-17 21:00","2018","10","17","21:00","-18.0","","-20.6","","81","","","","2","","9","","24.1","","100.02","","","","-24","","Ice Crystals"
"-105.14","69.11","CAMBRIDGE BAY A","2400601","2018-10-17 22:00","2018","10","17","22:00","-18.3","","-20.8","","81","","","","3","","10","","19.3","","99.98","","","","-25","","Ice Crystals"
"-105.14","69.11","CAMBRIDGE BAY A","2400601","2018-10-17 23:00","2018","10","17","23:00","-17.9","","-20.4","","81","","","","3","","9","","19.3","","99.98","","","","-24","","Ice Crystals"
"-105.14","69.11","CAMBRIDGE BAY A","2400601","2018-10-18 00:00","2018","10","18","00:00","-18.8","","-21.3","","81","","","","2","","12","","19.3","","99.94","","","","-27","","Ice Crystals"
"-105.14","69.11","CAMBRIDGE BAY A","2400601","2018-10-18 01:00","2018","10","18","01:00","-18.2","","-20.7","","81","","","","3","","15","","19.3","","99.89","","","","-27","","Ice Crystals"
"-105.14","69.11","CAMBRIDGE BAY A","2400601","2018-10-18 02:00","2018","10","18","02:00","-16.8","","-19.1","","82","","","","2","","15","","19.3","","99.91","","","","-25","","Ice Crystals"
"-105.14","69.11","CAMBRIDGE BAY A","2400601","2018-10-18 03:00","2018","10","18","03:00","-16.2","","-18.7","","82","","","","2","","17","","19.3","","99.88","","","","-25","","Ice Crystals"
"-105.14","69.11","CAMBRIDGE BAY A","2400601","2018-10-18 04:00","2018","10","18","04:00","-15.1","","-17.5","","82","","","","3","","16","","19.3","","99.92","","","","-23","","Ice Crystals"
"-105.14","69.11","CAMBRIDGE BAY A","2400601","2018-10-18 05:00","2018","10","18","05:00","-14.6","","-17.0","","82","","","","2","","12","","19.3","","99.94","","","","-21","","Ice Crystals"
"-105.14","69.11","CAMBRIDGE BAY A","2400601","2018-10-18 06:00","2018","10","18","06:00","-13.7","","-16.1","","83","","","","3","","11","","24.1","","99.94","","","","-20","","NA"
"-105.14","69.11","CAMBRIDGE BAY A","2400601","2018-10-18 07:00","2018","10","18","07:00","-12.8","","-15.1","","83","","","","2","","10","","19.3","","99.95","","","","-19","","Snow"
"-105.14","69.11","CAMBRIDGE BAY A","2400601","2018-10-18 08:00","2018","10","18","08:00","-11.7","","-14.1","","83","","","","1","","18","","19.3","","99.98","","","","-20","","Snow"
"-105.14","69.11","CAMBRIDGE BAY A","2400601","2018-10-18 09:00","2018","10","18","09:00","-11.8","","-14.4","","81","","","","1","","15","","19.3","","100.02","","","","-19","","Snow"
"-105.14","69.11","CAMBRIDGE BAY A","2400601","2018-10-18 10:00","2018","10","18","10:00","-11.4","","-14.2","","80","","","","1","","17","","19.3","","100.07","","","","-19","","Snow"
"-105.14","69.11","CAMBRIDGE BAY A","2400601","2018-10-18 11:00","2018","10","18","11:00","-11.0","","-13.7","","80","","","","1","","19","","19.3","","100.11","","","","-19","","Snow"
"-105.14","69.11","CAMBRIDGE BAY A","2400601","2018-10-18 12:00","2018","10","18","12:00","-10.2","","-13.0","","80","","","","36","","16","","24.1","","100.17","","","","-17","","NA"
"-105.14","69.11","CAMBRIDGE BAY A","2400601","2018-10-18 13:00","2018","10","18","13:00","-9.8","","-12.5","","80","","","","34","","14","","24.1","","100.23","","","","-16","","NA"
"-105.14","69.11","CAMBRIDGE BAY A","2400601","2018-10-18 14:00","2018","10","18","14:00","-8.9","","-11.6","","81","","","","36","","19","","19.3","","100.27","","","","-16","","Snow"
"-105.14","69.11","CAMBRIDGE BAY A","2400601","2018-10-18 15:00","2018","10","18","15:00","-9.1","","-11.6","","82","","","","34","","21","","19.3","","100.37","","","","-17","","Snow"
"-105.14","69.11","CAMBRIDGE BAY A","2400601","2018-10-18 16:00","2018","10","18","16:00","-9.0","","-11.6","","82","","","","36","","25","","19.3","","100.45","","","","-17","","Snow"
"-105.14","69.11","CAMBRIDGE BAY A","2400601","2018-10-18 17:00","2018","10","18","17:00","-8.9","","-11.2","","83","","","","35","","15","","19.3","","100.53","","","","-15","","Snow"
"-105.14","69.11","CAMBRIDGE BAY A","2400601","2018-10-18 18:00","2018","10","18","18:00","-8.9","","-11.4","","82","","","","34","","21","","19.3","","100.63","","","","-17","","Snow"
"-105.14","69.11","CAMBRIDGE BAY A","2400601","2018-10-18 19:00","2018","10","18","19:00","-9.2","","-11.7","","82","","","","36","","23","","16.1","","100.67","","","","-17","","Snow,Blowing Snow"
"-105.14","69.11","CAMBRIDGE BAY A","2400601","2018-10-18 20:00","2018","10","18","20:00","-10.5","","-13.3","","80","","","","35","","19","","19.3","","100.75","","","","-18","","Snow,Blowing Snow"
"-105.14","69.11","CAMBRIDGE BAY A","2400601","2018-10-18 21:00","2018","10","18","21:00","-10.9","","-13.5","","81","","","","33","","26","","19.3","","100.82","","","","-20","","Snow,Blowing Snow"
"-105.14","69.11","CAMBRIDGE BAY A","2400601","2018-10-18 22:00","2018","10","18","22:00","-9.9","","-12.5","","81","","","","34","","28","","16.1","","100.90","","","","-19","","Snow,Blowing Snow"
"-105.14","69.11","CAMBRIDGE BAY A","2400601","2018-10-18 23:00","2018","10","18","23:00","-10.0","","-12.6","","81","","","","34","","29","","9.7","","101.01","","","","-19","","Snow,Blowing Snow"
"-105.14","69.11","CAMBRIDGE BAY A","2400601","2018-10-19 00:00","2018","10","19","00:00","-10.5","","-13.5","","79","","","","35","","27","","12.9","","101.11","","","","-20","","Snow,Blowing Snow"
"-105.14","69.11","CAMBRIDGE BAY A","2400601","2018-10-19 01:00","2018","10","19","01:00","-12.3","","-15.4","","78","","","","33","","30","","16.1","","101.17","","","","-23","","Snow,Blowing Snow"
"-105.14","69.11","CAMBRIDGE BAY A","2400601","2018-10-19 02:00","2018","10","19","02:00","-11.9","","-15.1","","77","","","","33","","29","","19.3","","101.24","","","","-22","","Snow,Blowing Snow"
"-105.14","69.11","CAMBRIDGE BAY A","2400601","2018-10-19 03:00","2018","10","19","03:00","-11.2","","-14.2","","79","","","","35","","22","","19.3","","101.35","","","","-20","","Snow,Blowing Snow"
"-105.14","69.11","CAMBRIDGE BAY A","2400601","2018-10-19 04:00","2018","10","19","04:00","-11.6","","-14.5","","79","","","","34","","19","","19.3","","101.44","","","","-20","","Snow,Blowing Snow"
"-105.14","69.11","CAMBRIDGE BAY A","2400601","2018-10-19 05:00","2018","10","19","05:00","-11.7","","-14.6","","79","","","","35","","20","","19.3","","101.54","","","","-20","","Snow,Blowing Snow"
"-105.14","69.11","CAMBRIDGE BAY A","2400601","2018-10-19 06:00","2018","10","19","06:00","-11.5","","-14.4","","79","","","","35","","20","","19.3","","101.62","","","","-20","","Snow,Blowing Snow"
"-105.14","69.11","CAMBRIDGE BAY A","2400601","2018-10-19 07:00","2018","10","19","07:00","-11.8","","-14.6","","80","","","","31","","16","","19.3","","101.68","","","","-19","","Snow"
"-105.14","69.11","CAMBRIDGE BAY A","2400601","2018-10-19 08:00","2018","10","19","08:00","-13.0","","-15.6","","81","","","","34","","16","","24.1","","101.71","","","","-21","","Mainly Clear"
"-105.14","69.11","CAMBRIDGE BAY A","2400601","2018-10-19 09:00","2018","10","19","09:00","-14.4","","-17.2","","80","","","","33","","16","","19.3","","101.74","","","","-22","","NA"
"-105.14","69.11","CAMBRIDGE BAY A","2400601","2018-10-19 10:00","2018","10","19","10:00","-14.2","","-16.9","","80","","","","32","","22","","24.1","","101.80","","","","-24","","NA"
"-105.14","69.11","CAMBRIDGE BAY A","2400601","2018-10-19 11:00","2018","10","19","11:00","-13.8","","-16.6","","80","","","","32","","17","","24.1","","101.82","","","","-22","","Mainly Clear"
"-105.14","69.11","CAMBRIDGE BAY A","2400601","2018-10-19 12:00","2018","10","19","12:00","-13.4","","-16.3","","79","","","","29","","11","","24.1","","101.85","","","","-20","","NA"
"-105.14","69.11","CAMBRIDGE BAY A","2400601","2018-10-19 13:00","2018","10","19","13:00","-13.5","","-16.1","","81","","","","33","","18","","24.1","","101.81","","","","-22","","NA"
"-105.14","69.11","CAMBRIDGE BAY A","2400601","2018-10-19 14:00","2018","10","19","14:00","-13.3","","-15.9","","81","","","","32","","14","","24.1","","101.82","","","","-21","","Mainly Clear"
"-105.14","69.11","CAMBRIDGE BAY A","2400601","2018-10-19 15:00","2018","10","19","15:00","-13.8","","-16.4","","81","","","","30","","11","","24.1","","101.82","","","","-20","","NA"
"-105.14","69.11","CAMBRIDGE BAY A","2400601","2018-10-19 16:00","2018","10","19","16:00","-14.3","","-16.7","","82","","","","30","","17","","24.1","","101.81","","","","-23","","NA"
"-105.14","69.11","CAMBRIDGE BAY A","2400601","2018-10-19 17:00","2018","10","19","17:00","-13.7","","-16.0","","83","","","","30","","10","","24.1","","101.78","","","","-20","","Cloudy"
"-105.14","69.11","CAMBRIDGE BAY A","2400601","2018-10-19 18:00","2018","10","19","18:00","-11.9","","-13.8","","86","","","","25","","4","","24.1","","101.69","","","","-14","","NA"
"-105.14","69.11","CAMBRIDGE BAY A","2400601","2018-10-19 19:00","2018","10","19","19:00","-11.5","","-13.5","","85","","","","26","","7","","24.1","","101.62","","","","-16","","NA"
"-105.14","69.11","CAMBRIDGE BAY A","2400601","2018-10-19 20:00","2018","10","19","20:00","-11.0","","-12.9","","86","","","","18","","5","","24.1","","101.54","","","","-14","","Cloudy"
"-105.14","69.11","CAMBRIDGE BAY A","2400601","2018-10-19 21:00","2018","10","19","21:00","-11.3","","-13.1","","87","","","","14","","3","","24.1","","101.46","","","","-13","","NA"
"-105.14","69.11","CAMBRIDGE BAY A","2400601","2018-10-19 22:00","2018","10","19","22:00","-11.2","","-13.0","","87","","","","16","","4","","24.1","","101.39","","","","-14","","NA"
"-105.14","69.11","CAMBRIDGE BAY A","2400601","2018-10-19 23:00","2018","10","19","23:00","-11.4","","-12.9","","89","","","","9","","7","","4.8","","101.30","","","","-16","","Fog"
"-105.14","69.11","CAMBRIDGE BAY A","2400601","2018-10-20 00:00","2018","10","20","00:00","-12.1","","-13.8","","87","","","","15","","7","","1.0","","101.28","","","","-16","","Fog"
"-105.14","69.11","CAMBRIDGE BAY A","2400601","2018-10-20 01:00","2018","10","20","01:00","-12.5","","-14.5","","86","","","","7","","9","","0.6","","101.18","","","","-18","","Freezing Fog"
"-105.14","69.11","CAMBRIDGE BAY A","2400601","2018-10-20 02:00","2018","10","20","02:00","-12.0","","-14.0","","86","","","","11","","10","","0.6","","101.10","","","","-18","","Freezing Fog"
"-105.14","69.11","CAMBRIDGE BAY A","2400601","2018-10-20 03:00","2018","10","20","03:00","-11.5","","-13.4","","86","","","","11","","13","","2.0","","101.00","","","","-18","","Fog"
"-105.14","69.11","CAMBRIDGE BAY A","2400601","2018-10-20 04:00","2018","10","20","04:00","-12.3","","-14.3","","85","","","","9","","17","","1.6","","100.89","","","","-20","","Fog"
"-105.14","69.11","CAMBRIDGE BAY A","2400601","2018-10-20 05:00","2018","10","20","05:00","-11.8","","-13.8","","85","","","","10","","15","","1.6","","100.77","","","","-19","","Fog"
"-105.14","69.11","CAMBRIDGE BAY A","2400601","2018-10-20 06:00","2018","10","20","06:00","-11.0","","-12.9","","86","","","","11","","19","","0.8","","100.67","","","","-19","","Freezing Fog"
"-105.14","69.11","CAMBRIDGE BAY A","2400601","2018-10-20 07:00","2018","10","20","07:00","-10.6","","-12.4","","87","","","","11","","21","","1.6","","100.59","","","","-19","","Fog"
"-105.14","69.11","CAMBRIDGE BAY A","2400601","2018-10-20 08:00","2018","10","20","08:00","-10.2","","-11.9","","87","","","","10","","16","","2.0","","100.49","","","","-17","","Fog"
"-105.14","69.11","CAMBRIDGE BAY A","2400601","2018-10-20 09:00","2018","10","20","09:00","-10.2","","-11.9","","87","","","","12","","18","","4.8","","100.38","","","","-18","","Fog"
"-105.14","69.11","CAMBRIDGE BAY A","2400601","2018-10-20 10:00","2018","10","20","10:00","-9.2","","-10.9","","88","","","","12","","21","","1.6","","100.33","","","","-17","","Fog"
"-105.14","69.11","CAMBRIDGE BAY A","2400601","2018-10-20 11:00","2018","10","20","11:00","-8.9","","-10.5","","88","","","","11","","31","","4.8","","100.24","","","","-18","","Fog"
"-105.14","69.11","CAMBRIDGE BAY A","2400601","2018-10-20 12:00","2018","10","20","12:00","-10.1","","-11.8","","87","","","","10","","18","","19.3","","100.20","","","","-18","","NA"
"-105.14","69.11","CAMBRIDGE BAY A","2400601","2018-10-20 13:00","2018","10","20","13:00","-10.7","","-12.6","","87","","","","9","","19","","24.1","","100.14","","","","-19","","NA"
"-105.14","69.11","CAMBRIDGE BAY A","2400601","2018-10-20 14:00","2018","10","20","14:00","-10.0","","-11.7","","87","","","","10","","19","","24.1","","100.12","","","","-18","","Mostly Cloudy"
"-105.14","69.11","CAMBRIDGE BAY A","2400601","2018-10-20 15:00","2018","10","20","15:00","-9.2","","-10.9","","88","","","","10","","26","","24.1","","100.11","","","","-18","","NA"
"-105.14","69.11","CAMBRIDGE BAY A","2400601","2018-10-20 16:00","2018","10","20","16:00","-9.5","","-11.1","","88","","","","10","","25","","24.1","","100.11","","","","-18","","NA"
"-105.14","69.11","CAMBRIDGE BAY A","2400601","2018-10-20 17:00","2018","10","20","17:00","-10.3","","-12.0","","87","","","","8","","23","","2.4","","100.13","","","","-19","","Fog"
"-105.14","69.11","CAMBRIDGE BAY A","2400601","2018-10-20 18:00","2018","10","20","18:00","-9.5","","-11.1","","88","","","","7","","17","","1.6","","100.14","","","","-17","","Fog"
"-105.14","69.11","CAMBRIDGE BAY A","2400601","2018-10-20 19:00","2018","10","20","19:00","-9.3","","-11.0","","88","","","","9","","27","","1.6","","100.13","","","","-18","","Fog"
"-105.14","69.11","CAMBRIDGE BAY A","2400601","2018-10-20 20:00","2018","10","20","20:00","-10.1","","-11.8","","87","","","","7","","22","","1.6","","100.17","","","","-18","","Fog"
"-105.14","69.11","CAMBRIDGE BAY A","2400601","2018-10-20 21:00","2018","10","20","21:00","-10.3","","-12.1","","87","","","","6","","22","","1.6","","100.21","","","","-19","","Fog"
"-105.14","69.11","CAMBRIDGE BAY A","2400601","2018-10-20 22:00","2018","10","20","22:00","-11.4","","-13.3","","86","","","","6","","20","","1.6","","100.26","","","","-20","","Fog"
"-105.14","69.11","CAMBRIDGE BAY A","2400601","2018-10-20 23:00","2018","10","20","23:00","-10.3","","-12.1","","87","","","","7","","19","","2.4","","100.32","","","","-18","","Fog"
"-105.14","69.11","CAMBRIDGE BAY A","2400601","2018-10-21 00:00","2018","10","21","00:00","-11.9","","-13.9","","85","","","","6","","22","","4.0","","100.38","","","","-21","","Fog"
"-105.14","69.11","CAMBRIDGE BAY A","2400601","2018-10-21 01:00","2018","10","21","01:00","-12.5","","-14.5","","85","","","","4","","21","","3.2","","100.47","","","","-21","","Fog"
"-105.14","69.11","CAMBRIDGE BAY A","2400601","2018-10-21 02:00","2018","10","21","02:00","-11.7","","-13.7","","86","","","","5","","14","","3.2","","100.55","","","","-19","","Fog"
"-105.14","69.11","CAMBRIDGE BAY A","2400601","2018-10-21 03:00","2018","10","21","03:00","-12.3","","-14.3","","85","","","","3","","20","","1.2","","100.65","","","","-21","","Fog"
"-105.14","69.11","CAMBRIDGE BAY A","2400601","2018-10-21 04:00","2018","10","21","04:00","-14.2","","-16.4","","83","","","","2","","18","","4.0","","100.74","","","","-23","","Fog"
"-105.14","69.11","CAMBRIDGE BAY A","2400601","2018-10-21 05:00","2018","10","21","05:00","-13.9","","-16.1","","83","","","","4","","21","","8.1","","100.79","","","","-23","","Fog"
"-105.14","69.11","CAMBRIDGE BAY A","2400601","2018-10-21 06:00","2018","10","21","06:00","-13.9","","-16.1","","84","","","","3","","19","","19.3","","100.87","","","","-23","","NA"
"-105.14","69.11","CAMBRIDGE BAY A","2400601","2018-10-21 07:00","2018","10","21","07:00","-14.4","","-16.7","","83","","","","3","","20","","24.1","","100.94","","","","-23","","NA"
"-105.14","69.11","CAMBRIDGE BAY A","2400601","2018-10-21 08:00","2018","10","21","08:00","-14.7","","-17.0","","83","","","","2","","14","","24.1","","100.98","","","","-22","","Mainly Clear"
"-105.14","69.11","CAMBRIDGE BAY A","2400601","2018-10-21 09:00","2018","10","21","09:00","-13.5","","-15.7","","84","","","","1","","13","","16.1","","101.04","","","","-20","","Ice Crystals"
"-105.14","69.11","CAMBRIDGE BAY A","2400601","2018-10-21 10:00","2018","10","21","10:00","-12.7","","-14.8","","85","","","","36","","18","","16.1","","101.13","","","","-21","","Ice Crystals"
"-105.14","69.11","CAMBRIDGE BAY A","2400601","2018-10-21 11:00","2018","10","21","11:00","-13.7","","-16.0","","84","","","","1","","18","","16.1","","101.19","","","","-22","","Mainly Clear"
"-105.14","69.11","CAMBRIDGE BAY A","2400601","2018-10-21 12:00","2018","10","21","12:00","-14.2","","-16.4","","83","","","","3","","14","","16.1","","101.24","","","","-22","","Ice Crystals"
"-105.14","69.11","CAMBRIDGE BAY A","2400601","2018-10-21 13:00","2018","10","21","13:00","-13.1","","-15.3","","84","","","","2","","22","","24.1","","101.29","","","","-22","","NA"
"-105.14","69.11","CAMBRIDGE BAY A","2400601","2018-10-21 14:00","2018","10","21","14:00","-12.7","","-14.7","","85","","","","3","","20","","24.1","","101.35","","","","-21","","Mostly Cloudy"
"-105.14","69.11","CAMBRIDGE BAY A","2400601","2018-10-21 15:00","2018","10","21","15:00","-12.3","","-14.3","","85","","","","1","","16","","8.1","","101.43","","","","-20","","Snow"
"-105.14","69.11","CAMBRIDGE BAY A","2400601","2018-10-21 16:00","2018","10","21","16:00","-12.8","","-14.9","","84","","","","1","","22","","6.4","","101.52","","","","-22","","Snow"
"-105.14","69.11","CAMBRIDGE BAY A","2400601","2018-10-21 17:00","2018","10","21","17:00","-15.6","","-18.0","","82","","","","2","","21","","9.7","","101.59","","","","-25","","Snow"
"-105.14","69.11","CAMBRIDGE BAY A","2400601","2018-10-21 18:00","2018","10","21","18:00","-17.4","","-20.0","","80","","","","3","","19","","19.3","","101.65","","","","-27","","NA"
"-105.14","69.11","CAMBRIDGE BAY A","2400601","2018-10-21 19:00","2018","10","21","19:00","-18.4","","-21.1","","80","","","","2","","8","","24.1","","101.72","","","","-24","","NA"
"-105.14","69.11","CAMBRIDGE BAY A","2400601","2018-10-21 20:00","2018","10","21","20:00","-19.3","","-22.1","","79","","","","2","","5","","16.1","","101.77","","","","-23","","Ice Crystals"
"-105.14","69.11","CAMBRIDGE BAY A","2400601","2018-10-21 21:00","2018","10","21","21:00","-19.0","","-21.8","","79","","","","6","","5","","19.3","","101.79","","","","-23","","Ice Crystals"
"-105.14","69.11","CAMBRIDGE BAY A","2400601","2018-10-21 22:00","2018","10","21","22:00","-19.4","","-22.2","","79","","","","1","","18","","19.3","","101.82","","","","-29","","Ice Crystals"
"-105.14","69.11","CAMBRIDGE BAY A","2400601","2018-10-21 23:00","2018","10","21","23:00","-19.9","","-22.8","","78","","","","36","","16","","19.3","","101.86","","","","-29","","Ice Crystals"
"-105.14","69.11","CAMBRIDGE BAY A","2400601","2018-10-22 00:00","2018","10","22","00:00","-19.9","","-22.8","","78","","","","36","","15","","19.3","","101.92","","","","-29","","Ice Crystals"
"-105.14","69.11","CAMBRIDGE BAY A","2400601","2018-10-22 01:00","2018","10","22","01:00","-20.5","","-23.5","","77","","","","1","","13","","19.3","","101.97","","","","-29","","Ice Crystals"
"-105.14","69.11","CAMBRIDGE BAY A","2400601","2018-10-22 02:00","2018","10","22","02:00","-20.1","","-23.1","","78","","","","36","","5","","19.3","","102.03","","","","-24","","Ice Crystals"
"-105.14","69.11","CAMBRIDGE BAY A","2400601","2018-10-22 03:00","2018","10","22","03:00","-20.5","","-23.5","","78","","","","35","","6","","24.1","","102.10","","","","-26","","Ice Crystals"
"-105.14","69.11","CAMBRIDGE BAY A","2400601","2018-10-22 04:00","2018","10","22","04:00","-21.1","","-24.1","","77","","","","2","","13","","24.1","","102.14","","","","-30","","Ice Crystals"
"-105.14","69.11","CAMBRIDGE BAY A","2400601","2018-10-22 05:00","2018","10","22","05:00","-20.4","","-23.3","","78","","","","1","","14","","19.3","","102.16","","","","-29","","Ice Crystals"
"-105.14","69.11","CAMBRIDGE BAY A","2400601","2018-10-22 06:00","2018","10","22","06:00","-20.3","","-23.3","","78","","","","2","","11","","19.3","","102.22","","","","-28","","Ice Crystals"
"-105.14","69.11","CAMBRIDGE BAY A","2400601","2018-10-22 07:00","2018","10","22","07:00","-19.5","","-22.4","","78","","","","2","","14","","1.6","","102.25","","","","-28","","Fog"
"-105.14","69.11","CAMBRIDGE BAY A","2400601","2018-10-22 08:00","2018","10","22","08:00","-17.6","","-20.2","","80","","","","4","","21","","2.4","","102.23","","","","-28","","Fog"
"-105.14","69.11","CAMBRIDGE BAY A","2400601","2018-10-22 09:00","2018","10","22","09:00","-17.3","","-20.0","","80","","","","5","","14","","8.1","","102.28","","","","-25","","Fog"
"-105.14","69.11","CAMBRIDGE BAY A","2400601","2018-10-22 10:00","2018","10","22","10:00","-17.2","","-19.8","","80","","","","4","","14","","2.8","","102.34","","","","-25","","Fog"
"-105.14","69.11","CAMBRIDGE BAY A","2400601","2018-10-22 11:00","2018","10","22","11:00","-17.1","","-19.8","","80","","","","4","","24","","4.0","","102.36","","","","-28","","Fog"
"-105.14","69.11","CAMBRIDGE BAY A","2400601","2018-10-22 12:00","2018","10","22","12:00","-17.9","","-20.6","","80","","","","4","","19","","1.0","","102.40","","","","-28","","Fog"
"-105.14","69.11","CAMBRIDGE BAY A","2400601","2018-10-22 13:00","2018","10","22","13:00","-17.3","","-19.9","","80","","","","4","","23","","8.1","","102.41","","","","-28","","Fog"
"-105.14","69.11","CAMBRIDGE BAY A","2400601","2018-10-22 14:00","2018","10","22","14:00","-16.9","","-19.5","","81","","","","5","","21","","4.8","","102.45","","","","-27","","Fog"
"-105.14","69.11","CAMBRIDGE BAY A","2400601","2018-10-22 15:00","2018","10","22","15:00","-17.1","","-19.8","","80","","","","4","","17","","2.8","","102.49","","","","-26","","Fog"
"-105.14","69.11","CAMBRIDGE BAY A","2400601","2018-10-22 16:00","2018","10","22","16:00","-16.4","","-19.0","","81","","","","4","","17","","0.8","","102.51","","","","-25","","Freezing Fog"
"-105.14","69.11","CAMBRIDGE BAY A","2400601","2018-10-22 17:00","2018","10","22","17:00","-16.8","","-19.3","","81","","","","6","","9","","0.8","","102.51","","","","-23","","Freezing Fog"
"-105.14","69.11","CAMBRIDGE BAY A","2400601","2018-10-22 18:00","2018","10","22","18:00","-17.1","","-19.7","","80","","","","8","","16","","6.4","","102.53","","","","-26","","Fog"
"-105.14","69.11","CAMBRIDGE BAY A","2400601","2018-10-22 19:00","2018","10","22","19:00","-18.1","","-20.8","","80","","","","8","","14","","8.1","","102.54","","","","-26","","Ice Crystals,Fog"
"-105.14","69.11","CAMBRIDGE BAY A","2400601","2018-10-22 20:00","2018","10","22","20:00","-18.9","","-21.7","","79","","","","8","","13","","8.1","","102.57","","","","-27","","Ice Crystals,Fog"
"-105.14","69.11","CAMBRIDGE BAY A","2400601","2018-10-22 21:00","2018","10","22","21:00","-19.1","","-22.0","","79","","","","8","","16","","6.4","","102.59","","","","-28","","Ice Crystals,Fog"
"-105.14","69.11","CAMBRIDGE BAY A","2400601","2018-10-22 22:00","2018","10","22","22:00","-19.8","","-22.8","","78","","","","8","","10","","4.8","","102.59","","","","-27","","Snow,Fog"
"-105.14","69.11","CAMBRIDGE BAY A","2400601","2018-10-22 23:00","2018","10","22","23:00","-20.4","","-23.3","","78","","","","9","","19","","4.8","","102.64","","","","-31","","Snow,Fog"
"-105.14","69.11","CAMBRIDGE BAY A","2400601","2018-10-23 00:00","2018","10","23","00:00","-20.0","","-23.0","","78","","","","7","","9","","4.8","","102.64","","","","-27","","Snow,Fog"
"-105.14","69.11","CAMBRIDGE BAY A","2400601","2018-10-23 01:00","2018","10","23","01:00","-19.4","","-22.2","","78","","","","6","","8","","4.8","","102.65","","","","-26","","Snow,Fog"
"-105.14","69.11","CAMBRIDGE BAY A","2400601","2018-10-23 02:00","2018","10","23","02:00","-18.4","","-21.2","","79","","","","8","","14","","4.8","","102.67","","","","-27","","Snow,Fog"
"-105.14","69.11","CAMBRIDGE BAY A","2400601","2018-10-23 03:00","2018","10","23","03:00","-18.2","","-20.9","","79","","","","7","","7","","4.8","","102.69","","","","-24","","Snow,Fog"
"-105.14","69.11","CAMBRIDGE BAY A","2400601","2018-10-23 04:00","2018","10","23","04:00","-18.2","","-20.9","","79","","","","8","","12","","1.6","","102.71","","","","-26","","Snow,Fog"
"-105.14","69.11","CAMBRIDGE BAY A","2400601","2018-10-23 05:00","2018","10","23","05:00","-17.9","","-20.6","","80","","","","7","","10","","1.6","","102.68","","","","-25","","Snow,Fog"
"-105.14","69.11","CAMBRIDGE BAY A","2400601","2018-10-23 06:00","2018","10","23","06:00","-18.1","","-20.8","","79","","","","8","","14","","1.6","","102.70","","","","-26","","Snow,Fog"
"-105.14","69.11","CAMBRIDGE BAY A","2400601","2018-10-23 07:00","2018","10","23","07:00","-19.0","","-21.9","","79","","","","8","","18","","1.6","","102.72","","","","-29","","Snow,Fog"
"-105.14","69.11","CAMBRIDGE BAY A","2400601","2018-10-23 08:00","2018","10","23","08:00","-19.8","","-22.8","","78","","","","8","","15","","1.6","","102.74","","","","-29","","Fog"
"-105.14","69.11","CAMBRIDGE BAY A","2400601","2018-10-23 09:00","2018","10","23","09:00","-19.8","","-22.7","","78","","","","9","","19","","8.1","","102.76","","","","-30","","Fog"
"-105.14","69.11","CAMBRIDGE BAY A","2400601","2018-10-23 10:00","2018","10","23","10:00","-18.9","","-21.8","","79","","","","9","","20","","0.8","","102.76","","","","-29","","Freezing Fog"
"-105.14","69.11","CAMBRIDGE BAY A","2400601","2018-10-23 11:00","2018","10","23","11:00","-17.0","","-19.6","","80","","","","8","","12","","0.6","","102.74","","","","-24","","Freezing Fog"
"-105.14","69.11","CAMBRIDGE BAY A","2400601","2018-10-23 12:00","2018","10","23","12:00","-16.6","","-19.2","","81","","","","9","","18","","0.6","","102.71","","","","-26","","Freezing Fog"
"-105.14","69.11","CAMBRIDGE BAY A","2400601","2018-10-23 13:00","2018","10","23","13:00","-16.4","","-18.9","","81","","","","8","","16","","3.2","","102.71","","","","-25","","Fog"
"-105.14","69.11","CAMBRIDGE BAY A","2400601","2018-10-23 14:00","2018","10","23","14:00","-16.9","","-19.5","","80","","","","8","","13","","6.4","","102.72","","","","-25","","Fog"
"-105.14","69.11","CAMBRIDGE BAY A","2400601","2018-10-23 15:00","2018","10","23","15:00","-17.1","","-19.8","","80","","","","8","","17","","1.6","","102.71","","","","-26","","Fog"
"-105.14","69.11","CAMBRIDGE BAY A","2400601","2018-10-23 16:00","2018","10","23","16:00","-17.1","","-19.7","","80","","","","9","","14","","1.0","","102.73","","","","-25","","Fog"
"-105.14","69.11","CAMBRIDGE BAY A","2400601","2018-10-23 17:00","2018","10","23","17:00","-17.2","","-19.9","","80","","","","9","","18","","1.0","","102.72","","","","-26","","Fog"
"-105.14","69.11","CAMBRIDGE BAY A","2400601","2018-10-23 18:00","2018","10","23","18:00","-17.0","","-19.6","","80","","","","8","","15","","1.2","","102.74","","","","-25","","Fog"
"-105.14","69.11","CAMBRIDGE BAY A","2400601","2018-10-23 19:00","2018","10","23","19:00","-16.9","","-19.4","","81","","","","9","","12","","6.4","","102.71","","","","-24","","Fog"
"-105.14","69.11","CAMBRIDGE BAY A","2400601","2018-10-23 20:00","2018","10","23","20:00","-17.3","","-19.9","","80","","","","9","","13","","8.1","","102.69","","","","-25","","Ice Crystals,Fog"
"-105.14","69.11","CAMBRIDGE BAY A","2400601","2018-10-23 21:00","2018","10","23","21:00","-17.0","","-19.7","","80","","","","9","","13","","16.1","","102.69","","","","-25","","Ice Crystals"
"-105.14","69.11","CAMBRIDGE BAY A","2400601","2018-10-23 22:00","2018","10","23","22:00","-16.7","","-19.3","","81","","","","12","","23","","4.8","","102.69","","","","-27","","Ice Crystals"
"-105.14","69.11","CAMBRIDGE BAY A","2400601","2018-10-23 23:00","2018","10","23","23:00","-16.0","","-18.5","","81","","","","12","","22","","4.8","","102.75","","","","-26","","Ice Crystals"
"-105.14","69.11","CAMBRIDGE BAY A","2400601","2018-10-24 00:00","2018","10","24","00:00","-16.4","","-18.9","","81","","","","11","","22","","2.4","","102.74","","","","-26","","Snow,Fog"
"-105.14","69.11","CAMBRIDGE BAY A","2400601","2018-10-24 01:00","2018","10","24","01:00","-16.7","","-19.3","","81","","","","12","","16","","4.0","","102.74","","","","-25","","Snow,Fog"
"-105.14","69.11","CAMBRIDGE BAY A","2400601","2018-10-24 02:00","2018","10","24","02:00","-17.4","","-20.0","","80","","","","11","","19","","6.4","","102.72","","","","-27","","Ice Crystals"
"-105.14","69.11","CAMBRIDGE BAY A","2400601","2018-10-24 03:00","2018","10","24","03:00","-17.2","","-19.9","","80","","","","11","","18","","19.3","","102.72","","","","-26","","Ice Crystals"
"-105.14","69.11","CAMBRIDGE BAY A","2400601","2018-10-24 04:00","2018","10","24","04:00","-17.4","","-20.0","","80","","","","11","","21","","12.9","","102.73","","","","-27","","Ice Crystals"
"-105.14","69.11","CAMBRIDGE BAY A","2400601","2018-10-24 05:00","2018","10","24","05:00","-18.0","","-20.7","","80","","","","11","","17","","16.1","","102.70","","","","-27","","Ice Crystals"
"-105.14","69.11","CAMBRIDGE BAY A","2400601","2018-10-24 06:00","2018","10","24","06:00","-18.0","","-20.7","","79","","","","11","","18","","19.3","","102.70","","","","-27","","Ice Crystals"
"-105.14","69.11","CAMBRIDGE BAY A","2400601","2018-10-24 07:00","2018","10","24","07:00","-18.6","","-21.3","","79","","","","12","","17","","19.3","","102.69","","","","-28","","Ice Crystals"
"-105.14","69.11","CAMBRIDGE BAY A","2400601","2018-10-24 08:00","2018","10","24","08:00","-18.6","","-21.4","","79","","","","12","","25","","19.3","","102.69","","","","-30","","Ice Crystals"
"-105.14","69.11","CAMBRIDGE BAY A","2400601","2018-10-24 09:00","2018","10","24","09:00","-18.1","","-20.9","","79","","","","12","","23","","19.3","","102.67","","","","-29","","Ice Crystals"
"-105.14","69.11","CAMBRIDGE BAY A","2400601","2018-10-24 10:00","2018","10","24","10:00","-17.2","","-19.9","","80","","","","12","","25","","19.3","","102.61","","","","-28","","Ice Crystals"
"-105.14","69.11","CAMBRIDGE BAY A","2400601","2018-10-24 11:00","2018","10","24","11:00","-16.7","","-19.4","","80","","","","12","","28","","19.3","","102.59","","","","-28","","Ice Crystals"
"-105.14","69.11","CAMBRIDGE BAY A","2400601","2018-10-24 12:00","2018","10","24","12:00","-16.1","","-18.7","","81","","","","13","","29","","19.3","","102.60","","","","-27","","Ice Crystals,Blowing Snow"
"-105.14","69.11","CAMBRIDGE BAY A","2400601","2018-10-24 13:00","2018","10","24","13:00","-15.8","","-18.3","","81","","","","13","","30","","19.3","","102.55","","","","-27","","Ice Crystals,Blowing Snow"
"-105.14","69.11","CAMBRIDGE BAY A","2400601","2018-10-24 14:00","2018","10","24","14:00","-16.0","","-18.6","","81","","","","13","","25","","16.1","","102.51","","","","-26","","Ice Crystals,Blowing Snow"
"-105.14","69.11","CAMBRIDGE BAY A","2400601","2018-10-24 15:00","2018","10","24","15:00","-15.9","","-18.4","","81","","","","14","","34","","19.3","","102.44","","","","-28","","Ice Crystals,Blowing Snow"
"-105.14","69.11","CAMBRIDGE BAY A","2400601","2018-10-24 16:00","2018","10","24","16:00","-15.8","","-18.3","","81","","","","13","","32","","19.3","","102.39","","","","-27","","Ice Crystals,Blowing Snow"
"-105.14","69.11","CAMBRIDGE BAY A","2400601","2018-10-24 17:00","2018","10","24","17:00","-15.8","","-18.3","","81","","","","13","","31","","19.3","","102.31","","","","-27","","Ice Crystals,Blowing Snow"
"-105.14","69.11","CAMBRIDGE BAY A","2400601","2018-10-24 18:00","2018","10","24","18:00","-15.4","","-17.8","","82","","","","12","","36","","4.8","","102.24","","","","-27","","Ice Crystals,Blowing Snow"
"-105.14","69.11","CAMBRIDGE BAY A","2400601","2018-10-24 19:00","2018","10","24","19:00","-14.0","","-16.3","","83","","","","13","","42","","4.8","","102.15","","","","-26","","Ice Crystals,Blowing Snow"
"-105.14","69.11","CAMBRIDGE BAY A","2400601","2018-10-24 20:00","2018","10","24","20:00","-13.5","","-15.7","","84","","","","13","","35","","4.8","","102.11","","","","-25","","Ice Crystals,Blowing Snow"
"-105.14","69.11","CAMBRIDGE BAY A","2400601","2018-10-24 21:00","2018","10","24","21:00","-12.0","","-14.0","","85","","","","13","","43","","4.8","","102.04","","","","-24","","Ice Crystals,Blowing Snow"
"-105.14","69.11","CAMBRIDGE BAY A","2400601","2018-10-24 22:00","2018","10","24","22:00","-11.6","","-13.6","","85","","","","13","","47","","4.8","","101.95","","","","-24","","Ice Crystals,Blowing Snow"
"-105.14","69.11","CAMBRIDGE BAY A","2400601","2018-10-24 23:00","2018","10","24","23:00","-10.9","","-12.8","","86","","","","14","","44","","6.4","","101.93","","","","-22","","Ice Crystals,Blowing Snow"
"-105.14","69.11","CAMBRIDGE BAY A","2400601","2018-10-25 00:00","2018","10","25","00:00","-10.9","","-12.8","","86","","","","13","","43","","4.8","","101.87","","","","-22","","Ice Crystals,Blowing Snow"
"-105.14","69.11","CAMBRIDGE BAY A","2400601","2018-10-25 01:00","2018","10","25","01:00","-10.7","","-12.6","","86","","","","13","","43","","6.4","","101.78","","","","-22","","Ice Crystals,Blowing Snow"
"-105.14","69.11","CAMBRIDGE BAY A","2400601","2018-10-25 02:00","2018","10","25","02:00","-10.1","","-11.7","","88","","","","14","","46","","4.8","","101.74","","","","-22","","Blowing Snow"
"-105.14","69.11","CAMBRIDGE BAY A","2400601","2018-10-25 03:00","2018","10","25","03:00","-10.4","","-12.2","","87","","","","14","","50","","4.8","","101.65","","","","-22","","Blowing Snow"
"-105.14","69.11","CAMBRIDGE BAY A","2400601","2018-10-25 04:00","2018","10","25","04:00","-10.7","","-12.5","","86","","","","14","","45","","4.8","","101.56","","","","-22","","Blowing Snow"
"-105.14","69.11","CAMBRIDGE BAY A","2400601","2018-10-25 05:00","2018","10","25","05:00","-10.5","","-12.4","","87","","","","14","","45","","4.8","","101.47","","","","-22","","Blowing Snow"
"-105.14","69.11","CAMBRIDGE BAY A","2400601","2018-10-25 06:00","2018","10","25","06:00","-10.6","","-12.4","","87","","","","14","","50","","3.2","","101.42","","","","-23","","Snow,Blowing Snow"
"-105.14","69.11","CAMBRIDGE BAY A","2400601","2018-10-25 07:00","2018","10","25","07:00","-10.1","","-11.8","","87","","","","14","","44","","3.2","","101.35","","","","-21","","Snow,Blowing Snow"
"-105.14","69.11","CAMBRIDGE BAY A","2400601","2018-10-25 08:00","2018","10","25","08:00","-9.8","","-11.5","","87","","","","14","","52","","2.4","","101.23","","","","-22","","Snow,Blowing Snow"
"-105.14","69.11","CAMBRIDGE BAY A","2400601","2018-10-25 09:00","2018","10","25","09:00","-9.1","","-10.7","","88","","","","14","","52","","1.0","","101.16","","","","-21","","Snow,Blowing Snow"
"-105.14","69.11","CAMBRIDGE BAY A","2400601","2018-10-25 10:00","2018","10","25","10:00","-8.6","","-10.1","","88","","","","14","","51","","1.0","","101.07","","","","-20","","Snow,Blowing Snow"
"-105.14","69.11","CAMBRIDGE BAY A","2400601","2018-10-25 11:00","2018","10","25","11:00","-8.0","","-9.4","","89","","","","15","","46","","3.2","","101.08","","","","-19","","Fog,Blowing Snow"
"-105.14","69.11","CAMBRIDGE BAY A","2400601","2018-10-25 12:00","2018","10","25","12:00","-7.6","","-9.0","","89","","","","15","","53","","2.8","","100.97","","","","-19","","Blowing Snow"
"-105.14","69.11","CAMBRIDGE BAY A","2400601","2018-10-25 13:00","2018","10","25","13:00","-7.2","","-8.6","","90","","","","14","","49","","4.8","","100.92","","","","-18","","Blowing Snow"
"-105.14","69.11","CAMBRIDGE BAY A","2400601","2018-10-25 14:00","2018","10","25","14:00","-6.9","","-8.3","","90","","","","14","","48","","6.4","","100.83","","","","-17","","Fog,Blowing Snow"
"-105.14","69.11","CAMBRIDGE BAY A","2400601","2018-10-25 15:00","2018","10","25","15:00","-6.5","","-7.8","","91","","","","14","","46","","6.4","","100.75","","","","-17","","Fog,Blowing Snow"
"-105.14","69.11","CAMBRIDGE BAY A","2400601","2018-10-25 16:00","2018","10","25","16:00","-6.2","","-7.4","","91","","","","15","","46","","8.1","","100.67","","","","-16","","Fog,Blowing Snow"
"-105.14","69.11","CAMBRIDGE BAY A","2400601","2018-10-25 17:00","2018","10","25","17:00","-6.0","","-7.2","","91","","","","15","","48","","4.8","","100.62","","","","-16","","Fog,Blowing Snow"
"-105.14","69.11","CAMBRIDGE BAY A","2400601","2018-10-25 18:00","2018","10","25","18:00","-5.9","","-7.1","","91","","","","14","","41","","4.8","","100.59","","","","-15","","Ice Crystals,Blowing Snow"
"-105.14","69.11","CAMBRIDGE BAY A","2400601","2018-10-25 19:00","2018","10","25","19:00","-6.0","","-7.2","","91","","","","14","","40","","4.0","","100.54","","","","-15","","Ice Crystals,Blowing Snow"
"-105.14","69.11","CAMBRIDGE BAY A","2400601","2018-10-25 20:00","2018","10","25","20:00","-5.7","","-6.9","","91","","","","14","","39","","4.0","","100.49","","","","-15","","Ice Crystals,Blowing Snow"
"-105.14","69.11","CAMBRIDGE BAY A","2400601","2018-10-25 21:00","2018","10","25","21:00","-5.5","","-6.7","","92","","","","14","","41","","4.0","","100.45","","","","-15","","Ice Crystals,Blowing Snow"
"-105.14","69.11","CAMBRIDGE BAY A","2400601","2018-10-25 22:00","2018","10","25","22:00","-5.6","","-6.7","","92","","","","14","","37","","4.8","","100.42","","","","-15","","Snow,Blowing Snow"
"-105.14","69.11","CAMBRIDGE BAY A","2400601","2018-10-25 23:00","2018","10","25","23:00","-5.4","","-6.5","","92","","","","14","","36","","4.8","","100.38","","","","-14","","Snow,Blowing Snow"
"-105.14","69.11","CAMBRIDGE BAY A","2400601","2018-10-26 00:00","2018","10","26","00:00","-5.2","","-6.3","","92","","","","14","","37","","4.8","","100.34","","","","-14","","Snow,Blowing Snow"
"-105.14","69.11","CAMBRIDGE BAY A","2400601","2018-10-26 01:00","2018","10","26","01:00","-5.0","","-6.1","","92","","","","14","","33","","6.4","","100.32","","","","-13","","Snow,Blowing Snow"
"-105.14","69.11","CAMBRIDGE BAY A","2400601","2018-10-26 02:00","2018","10","26","02:00","-4.9","","-5.9","","92","","","","13","","31","","9.7","","100.30","","","","-13","","Snow,Blowing Snow"
"-105.14","69.11","CAMBRIDGE BAY A","2400601","2018-10-26 03:00","2018","10","26","03:00","-4.8","","-5.8","","92","","","","13","","29","","6.4","","100.26","","","","-13","","Snow,Blowing Snow"
"-105.14","69.11","CAMBRIDGE BAY A","2400601","2018-10-26 04:00","2018","10","26","04:00","-4.6","","-5.6","","93","","","","13","","26","","6.4","","100.21","","","","-12","","Snow,Blowing Snow"
"-105.14","69.11","CAMBRIDGE BAY A","2400601","2018-10-26 05:00","2018","10","26","05:00","-4.5","","-5.5","","93","","","","12","","27","","6.4","","100.18","","","","-12","","Snow,Blowing Snow"
"-105.14","69.11","CAMBRIDGE BAY A","2400601","2018-10-26 06:00","2018","10","26","06:00","-4.5","","-5.5","","93","","","","12","","26","","6.4","","100.16","","","","-12","","Snow,Blowing Snow"
"-105.14","69.11","CAMBRIDGE BAY A","2400601","2018-10-26 07:00","2018","10","26","07:00","-4.5","","-5.5","","93","","","","11","","24","","4.8","","100.13","","","","-12","","Snow,Blowing Snow"
"-105.14","69.11","CAMBRIDGE BAY A","2400601","2018-10-26 08:00","2018","10","26","08:00","-4.4","","-5.4","","93","","","","12","","26","","4.8","","100.09","","","","-12","","Snow,Blowing Snow"
"-105.14","69.11","CAMBRIDGE BAY A","2400601","2018-10-26 09:00","2018","10","26","09:00","-4.3","","-5.3","","93","","","","12","","24","","6.4","","100.06","","","","-11","","Snow,Blowing Snow"
"-105.14","69.11","CAMBRIDGE BAY A","2400601","2018-10-26 10:00","2018","10","26","10:00","-4.3","","-5.2","","93","","","","10","","25","","4.8","","100.04","","","","-11","","Snow,Fog,Blowing Snow"
"-105.14","69.11","CAMBRIDGE BAY A","2400601","2018-10-26 11:00","2018","10","26","11:00","-4.1","","-5.0","","93","","","","11","","26","","4.8","","99.99","","","","-11","","Snow,Fog,Blowing Snow"
"-105.14","69.11","CAMBRIDGE BAY A","2400601","2018-10-26 12:00","2018","10","26","12:00","-4.2","","-5.2","","93","","","","10","","31","","6.4","","99.95","","","","-12","","Snow,Fog,Blowing Snow"
"-105.14","69.11","CAMBRIDGE BAY A","2400601","2018-10-26 13:00","2018","10","26","13:00","-4.2","","-5.1","","93","","","","10","","27","","6.4","","99.92","","","","-12","","Snow,Fog,Blowing Snow"
"-105.14","69.11","CAMBRIDGE BAY A","2400601","2018-10-26 14:00","2018","10","26","14:00","-4.1","","-5.1","","93","","","","9","","23","","6.4","","99.86","","","","-11","","Snow,Fog,Blowing Snow"
"-105.14","69.11","CAMBRIDGE BAY A","2400601","2018-10-26 15:00","2018","10","26","15:00","-4.5","","-5.5","","93","","","","9","","27","","6.4","","99.82","","","","-12","","Snow,Fog,Blowing Snow"
"-105.14","69.11","CAMBRIDGE BAY A","2400601","2018-10-26 16:00","2018","10","26","16:00","-4.5","","-5.5","","93","","","","9","","30","","4.0","","99.80","","","","-12","","Snow,Fog,Blowing Snow"
"-105.14","69.11","CAMBRIDGE BAY A","2400601","2018-10-26 17:00","2018","10","26","17:00","-4.5","","-5.5","","93","","","","8","","27","","4.0","","99.76","","","","-12","","Snow,Fog,Blowing Snow"
"-105.14","69.11","CAMBRIDGE BAY A","2400601","2018-10-26 18:00","2018","10","26","18:00","-4.3","","-5.3","","93","","","","9","","26","","4.0","","99.70","","","","-12","","Snow,Fog,Blowing Snow"
"-105.14","69.11","CAMBRIDGE BAY A","2400601","2018-10-26 19:00","2018","10","26","19:00","-4.2","","-5.2","","93","","","","9","","26","","4.0","","99.67","","","","-11","","Snow,Fog,Blowing Snow"
"-105.14","69.11","CAMBRIDGE BAY A","2400601","2018-10-26 20:00","2018","10","26","20:00","-4.2","","-5.1","","93","","","","8","","26","","4.0","","99.62","","","","-11","","Snow,Fog,Blowing Snow"
"-105.14","69.11","CAMBRIDGE BAY A","2400601","2018-10-26 21:00","2018","10","26","21:00","-4.4","","-5.3","","93","","","","7","","29","","4.0","","99.62","","","","-12","","Snow,Fog,Blowing Snow"
"-105.14","69.11","CAMBRIDGE BAY A","2400601","2018-10-26 22:00","2018","10","26","22:00","-4.4","","-5.4","","93","","","","8","","30","","4.0","","99.62","","","","-12","","Snow,Fog,Blowing Snow"
"-105.14","69.11","CAMBRIDGE BAY A","2400601","2018-10-26 23:00","2018","10","26","23:00","-4.7","","-5.7","","93","","","","8","","27","","4.0","","99.62","","","","-12","","Snow,Fog,Blowing Snow"
"-105.14","69.11","CAMBRIDGE BAY A","2400601","2018-10-27 00:00","2018","10","27","00:00","-5.2","","-6.2","","92","","","","7","","27","","4.0","","99.59","","","","-13","","Snow,Fog,Blowing Snow"
"-105.14","69.11","CAMBRIDGE BAY A","2400601","2018-10-27 01:00","2018","10","27","01:00","-5.3","","-6.3","","92","","","","7","","25","","4.0","","99.63","","","","-13","","Snow,Fog,Blowing Snow"
"-105.14","69.11","CAMBRIDGE BAY A","2400601","2018-10-27 02:00","2018","10","27","02:00","-5.5","","-6.6","","92","","","","6","","27","","4.0","","99.66","","","","-13","","Snow,Fog,Blowing Snow"
"-105.14","69.11","CAMBRIDGE BAY A","2400601","2018-10-27 03:00","2018","10","27","03:00","-5.6","","-6.7","","92","","","","5","","26","","9.7","","99.68","","","","-13","","Snow,Blowing Snow"
"-105.14","69.11","CAMBRIDGE BAY A","2400601","2018-10-27 04:00","2018","10","27","04:00","-5.8","","-7.0","","92","","","","6","","27","","9.7","","99.70","","","","-14","","Snow,Blowing Snow"
"-105.14","69.11","CAMBRIDGE BAY A","2400601","2018-10-27 05:00","2018","10","27","05:00","-5.8","","-7.0","","91","","","","5","","27","","12.9","","99.73","","","","-14","","Snow,Blowing Snow"
"-105.14","69.11","CAMBRIDGE BAY A","2400601","2018-10-27 06:00","2018","10","27","06:00","-5.9","","-7.1","","91","","","","5","","24","","12.9","","99.75","","","","-13","","Snow,Blowing Snow"
"-105.14","69.11","CAMBRIDGE BAY A","2400601","2018-10-27 07:00","2018","10","27","07:00","-5.9","","-7.1","","91","","","","5","","25","","19.3","","99.78","","","","-13","","NA"
"-105.14","69.11","CAMBRIDGE BAY A","2400601","2018-10-27 08:00","2018","10","27","08:00","-6.0","","-7.2","","91","","","","4","","27","","16.1","","99.84","","","","-14","","Cloudy"
"-105.14","69.11","CAMBRIDGE BAY A","2400601","2018-10-27 09:00","2018","10","27","09:00","-5.8","","-7.0","","91","","","","5","","23","","12.9","","99.91","","","","-13","","NA"
"-105.14","69.11","CAMBRIDGE BAY A","2400601","2018-10-27 10:00","2018","10","27","10:00","-5.7","","-6.9","","91","","","","6","","26","","12.9","","99.97","","","","-13","","NA"
"-105.14","69.11","CAMBRIDGE BAY A","2400601","2018-10-27 11:00","2018","10","27","11:00","-5.7","","-6.8","","91","","","","6","","32","","16.1","","100.02","","","","-14","","Cloudy"
"-105.14","69.11","CAMBRIDGE BAY A","2400601","2018-10-27 12:00","2018","10","27","12:00","-5.9","","-7.1","","91","","","","5","","21","","16.1","","100.09","","","","-13","","NA"
"-105.14","69.11","CAMBRIDGE BAY A","2400601","2018-10-27 13:00","2018","10","27","13:00","-6.3","","-7.7","","90","","","","5","","25","","16.1","","100.17","","","","-14","","NA"
"-105.14","69.11","CAMBRIDGE BAY A","2400601","2018-10-27 14:00","2018","10","27","14:00","-7.0","","-8.4","","89","","","","5","","23","","16.1","","100.26","","","","-15","","Cloudy"
"-105.14","69.11","CAMBRIDGE BAY A","2400601","2018-10-27 15:00","2018","10","27","15:00","-7.5","","-9.0","","89","","","","4","","25","","14.5","","100.33","","","","-16","","NA"
"-105.14","69.11","CAMBRIDGE BAY A","2400601","2018-10-27 16:00","2018","10","27","16:00","-7.7","","-9.3","","88","","","","6","","28","","14.5","","100.41","","","","-16","","NA"
"-105.14","69.11","CAMBRIDGE BAY A","2400601","2018-10-27 17:00","2018","10","27","17:00","-7.9","","-9.6","","88","","","","6","","30","","14.5","","100.48","","","","-17","","Cloudy"
"-105.14","69.11","CAMBRIDGE BAY A","2400601","2018-10-27 18:00","2018","10","27","18:00","-8.1","","-9.8","","88","","","","6","","23","","16.1","","100.55","","","","-16","","NA"
"-105.14","69.11","CAMBRIDGE BAY A","2400601","2018-10-27 19:00","2018","10","27","19:00","-8.1","","-9.6","","88","","","","6","","27","","4.8","","100.60","","","","-17","","Snow,Fog"
"-105.14","69.11","CAMBRIDGE BAY A","2400601","2018-10-27 20:00","2018","10","27","20:00","-7.9","","-9.6","","88","","","","6","","28","","8.1","","100.65","","","","-17","","Snow,Fog,Blowing Snow"
"-105.14","69.11","CAMBRIDGE BAY A","2400601","2018-10-27 21:00","2018","10","27","21:00","-7.9","","-9.6","","88","","","","5","","28","","9.7","","100.71","","","","-17","","Snow,Blowing Snow"
"-105.14","69.11","CAMBRIDGE BAY A","2400601","2018-10-27 22:00","2018","10","27","22:00","-8.2","","-10.0","","87","","","","5","","28","","12.9","","100.76","","","","-17","","Snow,Blowing Snow"
"-105.14","69.11","CAMBRIDGE BAY A","2400601","2018-10-27 23:00","2018","10","27","23:00","-8.9","","-10.7","","87","","","","5","","23","","16.1","","100.82","","","","-17","","Snow,Blowing Snow"
"-105.14","69.11","CAMBRIDGE BAY A","2400601","2018-10-28 00:00","2018","10","28","00:00","-8.7","","-10.5","","87","","","","5","","19","","19.3","","100.86","","","","-16","","NA"
"-105.14","69.11","CAMBRIDGE BAY A","2400601","2018-10-28 01:00","2018","10","28","01:00","-9.8","","-11.5","","87","","","","2","","20","","24.1","","100.91","","","","-18","","NA"
"-105.14","69.11","CAMBRIDGE BAY A","2400601","2018-10-28 02:00","2018","10","28","02:00","-9.7","","-11.3","","89","","","","2","","17","","19.3","","100.96","","","","-17","","Cloudy"
"-105.14","69.11","CAMBRIDGE BAY A","2400601","2018-10-28 03:00","2018","10","28","03:00","-9.5","","-11.1","","89","","","","2","","17","","19.3","","100.99","","","","-17","","NA"
"-105.14","69.11","CAMBRIDGE BAY A","2400601","2018-10-28 04:00","2018","10","28","04:00","-9.2","","-10.7","","89","","","","2","","19","","12.9","","101.04","","","","-17","","NA"
"-105.14","69.11","CAMBRIDGE BAY A","2400601","2018-10-28 05:00","2018","10","28","05:00","-8.9","","-10.3","","89","","","","5","","21","","4.8","","101.07","","","","-17","","Fog"
"-105.14","69.11","CAMBRIDGE BAY A","2400601","2018-10-28 06:00","2018","10","28","06:00","-9.0","","-10.6","","88","","","","7","","19","","4.8","","101.09","","","","-16","","Fog"
"-105.14","69.11","CAMBRIDGE BAY A","2400601","2018-10-28 07:00","2018","10","28","07:00","-9.6","","-11.3","","88","","","","6","","16","","9.7","","101.14","","","","-16","","Fog"
"-105.14","69.11","CAMBRIDGE BAY A","2400601","2018-10-28 08:00","2018","10","28","08:00","-10.2","","-11.9","","87","","","","6","","19","","9.7","","101.19","","","","-18","","Fog"
"-105.14","69.11","CAMBRIDGE BAY A","2400601","2018-10-28 09:00","2018","10","28","09:00","-10.4","","-12.1","","87","","","","4","","15","","9.7","","101.21","","","","-17","","Fog"
"-105.14","69.11","CAMBRIDGE BAY A","2400601","2018-10-28 10:00","2018","10","28","10:00","-10.2","","-11.9","","88","","","","5","","16","","9.7","","101.23","","","","-17","","Fog"
"-105.14","69.11","CAMBRIDGE BAY A","2400601","2018-10-28 11:00","2018","10","28","11:00","-9.8","","-11.3","","88","","","","7","","17","","6.4","","101.23","","","","-17","","Fog"
"-105.14","69.11","CAMBRIDGE BAY A","2400601","2018-10-28 12:00","2018","10","28","12:00","-10.8","","-12.5","","87","","","","8","","15","","8.1","","101.29","","","","-18","","Fog"
"-105.14","69.11","CAMBRIDGE BAY A","2400601","2018-10-28 13:00","2018","10","28","13:00","-10.3","","-12.0","","88","","","","8","","10","","4.0","","101.30","","","","-16","","Fog"
"-105.14","69.11","CAMBRIDGE BAY A","2400601","2018-10-28 14:00","2018","10","28","14:00","-11.1","","-12.8","","87","","","","8","","11","","1.0","","101.31","","","","-17","","Fog"
"-105.14","69.11","CAMBRIDGE BAY A","2400601","2018-10-28 15:00","2018","10","28","15:00","-11.6","","-13.4","","87","","","","17","","6","","0.6","","101.34","","","","-15","","Freezing Fog"
"-105.14","69.11","CAMBRIDGE BAY A","2400601","2018-10-28 16:00","2018","10","28","16:00","-11.2","","-13.0","","87","","","","36","","3","","0.6","","101.34","","","","-13","","Freezing Fog"
"-105.14","69.11","CAMBRIDGE BAY A","2400601","2018-10-28 17:00","2018","10","28","17:00","-10.8","","-12.6","","87","","","","7","","7","","0.6","","101.36","","","","-15","","Freezing Fog"
"-105.14","69.11","CAMBRIDGE BAY A","2400601","2018-10-28 18:00","2018","10","28","18:00","-9.6","","-11.3","","88","","","","12","","11","","1.0","","101.36","","","","-15","","Fog"
"-105.14","69.11","CAMBRIDGE BAY A","2400601","2018-10-28 19:00","2018","10","28","19:00","-10.1","","-11.8","","87","","","","11","","7","","4.0","","101.40","","","","-14","","Fog"
"-105.14","69.11","CAMBRIDGE BAY A","2400601","2018-10-28 20:00","2018","10","28","20:00","-12.2","","-14.2","","85","","","","9","","14","","6.4","","101.42","","","","-19","","Fog"
"-105.14","69.11","CAMBRIDGE BAY A","2400601","2018-10-28 21:00","2018","10","28","21:00","-12.3","","-14.3","","85","","","","6","","10","","1.6","","101.42","","","","-18","","Fog"
"-105.14","69.11","CAMBRIDGE BAY A","2400601","2018-10-28 22:00","2018","10","28","22:00","-9.6","","-11.3","","88","","","","9","","13","","3.2","","101.41","","","","-16","","Fog"
"-105.14","69.11","CAMBRIDGE BAY A","2400601","2018-10-28 23:00","2018","10","28","23:00","-9.5","","-11.2","","88","","","","8","","15","","1.6","","101.42","","","","-16","","Fog"
"-105.14","69.11","CAMBRIDGE BAY A","2400601","2018-10-29 00:00","2018","10","29","00:00","-9.6","","-11.2","","88","","","","8","","13","","1.6","","101.42","","","","-16","","Fog"
"-105.14","69.11","CAMBRIDGE BAY A","2400601","2018-10-29 01:00","2018","10","29","01:00","-9.4","","-11.1","","88","","","","8","","14","","1.0","","101.42","","","","-16","","Fog"
"-105.14","69.11","CAMBRIDGE BAY A","2400601","2018-10-29 02:00","2018","10","29","02:00","-11.0","","-12.9","","86","","","","8","","16","","9.7","","101.44","","","","-18","","Fog"
"-105.14","69.11","CAMBRIDGE BAY A","2400601","2018-10-29 03:00","2018","10","29","03:00","-11.6","","-13.5","","86","","","","9","","14","","2.0","","101.47","","","","-18","","Fog"
"-105.14","69.11","CAMBRIDGE BAY A","2400601","2018-10-29 04:00","2018","10","29","04:00","-10.5","","-12.2","","87","","","","7","","10","","2.0","","101.48","","","","-16","","Fog"
"-105.14","69.11","CAMBRIDGE BAY A","2400601","2018-10-29 05:00","2018","10","29","05:00","-9.5","","-11.2","","88","","","","8","","13","","3.2","","101.49","","","","-16","","Fog"
"-105.14","69.11","CAMBRIDGE BAY A","2400601","2018-10-29 06:00","2018","10","29","06:00","-9.8","","-11.6","","87","","","","7","","9","","1.2","","101.52","","","","-15","","Fog"
"-105.14","69.11","CAMBRIDGE BAY A","2400601","2018-10-29 07:00","2018","10","29","07:00","-10.7","","-12.5","","87","","","","9","","18","","1.2","","101.53","","","","-18","","Fog"
"-105.14","69.11","CAMBRIDGE BAY A","2400601","2018-10-29 08:00","2018","10","29","08:00","-12.9","","-15.0","","85","","","","9","","18","","16.1","","101.53","","","","-21","","Mostly Cloudy"
"-105.14","69.11","CAMBRIDGE BAY A","2400601","2018-10-29 09:00","2018","10","29","09:00","-13.9","","-16.1","","84","","","","5","","12","","16.1","","101.57","","","","-21","","NA"
"-105.14","69.11","CAMBRIDGE BAY A","2400601","2018-10-29 10:00","2018","10","29","10:00","-14.0","","-16.2","","83","","","","4","","11","","16.1","","101.60","","","","-20","","Ice Crystals"
"-105.14","69.11","CAMBRIDGE BAY A","2400601","2018-10-29 11:00","2018","10","29","11:00","-14.7","","-17.0","","83","","","","4","","16","","19.3","","101.62","","","","-23","","Ice Crystals"
"-105.14","69.11","CAMBRIDGE BAY A","2400601","2018-10-29 12:00","2018","10","29","12:00","-14.4","","-16.7","","83","","","","3","","19","","19.3","","101.63","","","","-23","","Ice Crystals"
"-105.14","69.11","CAMBRIDGE BAY A","2400601","2018-10-29 13:00","2018","10","29","13:00","-15.0","","-17.4","","82","","","","7","","9","","14.5","","101.61","","","","-21","","Ice Crystals"
"-105.14","69.11","CAMBRIDGE BAY A","2400601","2018-10-29 14:00","2018","10","29","14:00","-14.8","","-17.1","","83","","","","5","","14","","19.3","","101.64","","","","-22","","Ice Crystals"
"-105.14","69.11","CAMBRIDGE BAY A","2400601","2018-10-29 15:00","2018","10","29","15:00","-15.2","","-17.6","","82","","","","5","","15","","12.9","","101.69","","","","-23","","Ice Crystals"
"-105.14","69.11","CAMBRIDGE BAY A","2400601","2018-10-29 16:00","2018","10","29","16:00","-15.0","","-17.3","","83","","","","4","","16","","12.9","","101.72","","","","-23","","Ice Crystals"
"-105.14","69.11","CAMBRIDGE BAY A","2400601","2018-10-29 17:00","2018","10","29","17:00","-13.6","","-15.8","","84","","","","3","","21","","12.9","","101.72","","","","-23","","Ice Crystals"
"-105.14","69.11","CAMBRIDGE BAY A","2400601","2018-10-29 18:00","2018","10","29","18:00","-13.1","","-15.3","","84","","","","3","","21","","12.9","","101.75","","","","-22","","Ice Crystals"
"-105.14","69.11","CAMBRIDGE BAY A","2400601","2018-10-29 19:00","2018","10","29","19:00","-12.7","","-14.8","","85","","","","3","","17","","12.9","","101.75","","","","-21","","Ice Crystals"
"-105.14","69.11","CAMBRIDGE BAY A","2400601","2018-10-29 20:00","2018","10","29","20:00","-11.9","","-13.9","","85","","","","3","","19","","12.9","","101.75","","","","-20","","Ice Crystals"
"-105.14","69.11","CAMBRIDGE BAY A","2400601","2018-10-29 21:00","2018","10","29","21:00","-11.4","","-13.3","","86","","","","3","","16","","12.9","","101.77","","","","-19","","Ice Crystals"
"-105.14","69.11","CAMBRIDGE BAY A","2400601","2018-10-29 22:00","2018","10","29","22:00","-11.1","","-13.0","","86","","","","3","","18","","12.9","","101.76","","","","-19","","Ice Crystals"
"-105.14","69.11","CAMBRIDGE BAY A","2400601","2018-10-29 23:00","2018","10","29","23:00","-10.8","","-12.6","","86","","","","3","","11","","14.5","","101.77","","","","-17","","Ice Crystals"
"-105.14","69.11","CAMBRIDGE BAY A","2400601","2018-10-30 00:00","2018","10","30","00:00","-10.7","","-12.5","","87","","","","2","","10","","14.5","","101.80","","","","-16","","Ice Crystals"
"-105.14","69.11","CAMBRIDGE BAY A","2400601","2018-10-30 01:00","2018","10","30","01:00","-10.1","","-11.9","","87","","","","2","","8","","12.9","","101.80","","","","-15","","Ice Crystals"
"-105.14","69.11","CAMBRIDGE BAY A","2400601","2018-10-30 02:00","2018","10","30","02:00","-10.0","","-11.7","","87","","","","3","","11","","12.9","","101.81","","","","-16","","Ice Crystals"
"-105.14","69.11","CAMBRIDGE BAY A","2400601","2018-10-30 03:00","2018","10","30","03:00","-10.1","","-11.8","","87","","","","3","","21","","12.9","","101.82","","","","-18","","Ice Crystals"
"-105.14","69.11","CAMBRIDGE BAY A","2400601","2018-10-30 04:00","2018","10","30","04:00","-10.7","","-12.5","","87","","","","4","","15","","16.1","","101.81","","","","-18","","Ice Crystals"
"-105.14","69.11","CAMBRIDGE BAY A","2400601","2018-10-30 05:00","2018","10","30","05:00","-9.4","","-11.1","","88","","","","4","","19","","19.3","","101.82","","","","-17","","Mainly Clear"
"-105.14","69.11","CAMBRIDGE BAY A","2400601","2018-10-30 06:00","2018","10","30","06:00","-9.6","","-11.3","","88","","","","5","","14","","24.1","","101.81","","","","-16","","NA"
"-105.14","69.11","CAMBRIDGE BAY A","2400601","2018-10-30 07:00","2018","10","30","07:00","-8.9","","-10.5","","88","","","","36","","3","","19.3","","101.82","","","","-11","","NA"
"-105.14","69.11","CAMBRIDGE BAY A","2400601","2018-10-30 08:00","2018","10","30","08:00","-8.6","","-10.2","","89","","","","5","","11","","24.1","","101.84","","","","-14","","Mostly Cloudy"
"-105.14","69.11","CAMBRIDGE BAY A","2400601","2018-10-30 09:00","2018","10","30","09:00","-8.8","","-10.3","","88","","","","5","","11","","24.1","","101.84","","","","-14","","NA"
"-105.14","69.11","CAMBRIDGE BAY A","2400601","2018-10-30 10:00","2018","10","30","10:00","-8.5","","-10.1","","89","","","","5","","19","","24.1","","101.84","","","","-16","","NA"
"-105.14","69.11","CAMBRIDGE BAY A","2400601","2018-10-30 11:00","2018","10","30","11:00","-8.5","","-10.1","","89","","","","5","","18","","24.1","","101.87","","","","-16","","Mostly Cloudy"
"-105.14","69.11","CAMBRIDGE BAY A","2400601","2018-10-30 12:00","2018","10","30","12:00","-8.7","","-10.3","","89","","","","4","","10","","24.1","","101.86","","","","-14","","NA"
"-105.14","69.11","CAMBRIDGE BAY A","2400601","2018-10-30 13:00","2018","10","30","13:00","-9.7","","-11.4","","88","","","","6","","13","","24.1","","101.87","","","","-16","","NA"
"-105.14","69.11","CAMBRIDGE BAY A","2400601","2018-10-30 14:00","2018","10","30","14:00","-11.1","","-13.0","","86","","","","4","","16","","24.1","","101.89","","","","-18","","Mostly Cloudy"
"-105.14","69.11","CAMBRIDGE BAY A","2400601","2018-10-30 15:00","2018","10","30","15:00","-13.2","","-15.3","","84","","","","4","","15","","16.1","","101.89","","","","-21","","NA"
"-105.14","69.11","CAMBRIDGE BAY A","2400601","2018-10-30 16:00","2018","10","30","16:00","-14.1","","-16.3","","84","","","","3","","17","","24.1","","101.90","","","","-22","","NA"
"-105.14","69.11","CAMBRIDGE BAY A","2400601","2018-10-30 17:00","2018","10","30","17:00","-12.9","","-14.9","","85","","","","2","","17","","2.0","","101.90","","","","-21","","Ice Crystals"
"-105.14","69.11","CAMBRIDGE BAY A","2400601","2018-10-30 18:00","2018","10","30","18:00","-11.8","","-13.8","","86","","","","4","","19","","6.4","","101.85","","","","-20","","Snow,Fog"
"-105.14","69.11","CAMBRIDGE BAY A","2400601","2018-10-30 19:00","2018","10","30","19:00","-10.5","","-12.3","","87","","","","5","","12","","3.6","","101.88","","","","-17","","Fog"
"-105.14","69.11","CAMBRIDGE BAY A","2400601","2018-10-30 20:00","2018","10","30","20:00","-10.6","","-12.4","","87","","","","7","","10","","1.6","","101.88","","","","-16","","Fog"
"-105.14","69.11","CAMBRIDGE BAY A","2400601","2018-10-30 21:00","2018","10","30","21:00","-10.5","","-12.3","","87","","","","6","","14","","1.6","","101.85","","","","-17","","Fog"
"-105.14","69.11","CAMBRIDGE BAY A","2400601","2018-10-30 22:00","2018","10","30","22:00","-9.5","","-11.2","","88","","","","5","","14","","2.0","","101.86","","","","-16","","Fog"
"-105.14","69.11","CAMBRIDGE BAY A","2400601","2018-10-30 23:00","2018","10","30","23:00","-8.7","","-10.2","","89","","","","8","","10","","2.8","","101.87","","","","-14","","Fog"
"-105.14","69.11","CAMBRIDGE BAY A","2400601","2018-10-31 00:00","2018","10","31","00:00","-8.9","","-10.6","","88","","","","6","","8","","2.8","","101.88","","","","-13","","Fog"
"-105.14","69.11","CAMBRIDGE BAY A","2400601","2018-10-31 01:00","2018","10","31","01:00","-8.2","","-9.7","","89","","","","8","","10","","3.2","","101.89","","","","-13","","Fog"
"-105.14","69.11","CAMBRIDGE BAY A","2400601","2018-10-31 02:00","2018","10","31","02:00","-9.4","","-11.0","","88","","","","8","","18","","4.0","","101.87","","","","-17","","Fog"
"-105.14","69.11","CAMBRIDGE BAY A","2400601","2018-10-31 03:00","2018","10","31","03:00","-10.6","","-12.3","","87","","","","5","","13","","4.0","","101.87","","","","-17","","Fog"
"-105.14","69.11","CAMBRIDGE BAY A","2400601","2018-10-31 04:00","2018","10","31","04:00","-9.9","","-11.6","","87","","","","5","","14","","3.6","","101.86","","","","-16","","Fog"
"-105.14","69.11","CAMBRIDGE BAY A","2400601","2018-10-31 05:00","2018","10","31","05:00","-10.4","","-12.1","","87","","","","6","","10","","4.0","","101.88","","","","-16","","Fog"
"-105.14","69.11","CAMBRIDGE BAY A","2400601","2018-10-31 06:00","2018","10","31","06:00","-11.8","","-13.7","","86","","","","5","","18","","8.1","","101.85","","","","-20","","Fog"
"-105.14","69.11","CAMBRIDGE BAY A","2400601","2018-10-31 07:00","2018","10","31","07:00","-12.0","","-13.9","","86","","","","2","","17","","11.3","","101.85","","","","-20","","NA"
"-105.14","69.11","CAMBRIDGE BAY A","2400601","2018-10-31 08:00","2018","10","31","08:00","-10.6","","-12.4","","87","","","","2","","14","","12.9","","101.85","","","","-17","","Cloudy"
"-105.14","69.11","CAMBRIDGE BAY A","2400601","2018-10-31 09:00","2018","10","31","09:00","-9.3","","-11.0","","88","","","","5","","16","","12.9","","101.86","","","","-16","","NA"
"-105.14","69.11","CAMBRIDGE BAY A","2400601","2018-10-31 10:00","2018","10","31","10:00","-9.2","","-10.8","","88","","","","3","","15","","16.1","","101.88","","","","-16","","NA"
"-105.14","69.11","CAMBRIDGE BAY A","2400601","2018-10-31 11:00","2018","10","31","11:00","-8.9","","-10.5","","88","","","","4","","18","","16.1","","101.89","","","","-16","","Cloudy"
"-105.14","69.11","CAMBRIDGE BAY A","2400601","2018-10-31 12:00","2018","10","31","12:00","-8.4","","-9.9","","89","","","","5","","14","","16.1","","101.91","","","","-15","","NA"
"-105.14","69.11","CAMBRIDGE BAY A","2400601","2018-10-31 13:00","2018","10","31","13:00","-8.1","","-9.6","","89","","","","5","","21","","16.1","","101.92","","","","-16","","Snow"
"-105.14","69.11","CAMBRIDGE BAY A","2400601","2018-10-31 14:00","2018","10","31","14:00","-7.9","","-9.4","","89","","","","5","","22","","16.1","","101.94","","","","-16","","Snow"
"-105.14","69.11","CAMBRIDGE BAY A","2400601","2018-10-31 15:00","2018","10","31","15:00","-7.7","","-9.2","","89","","","","7","","11","","16.1","","101.97","","","","-13","","Snow"
"-105.14","69.11","CAMBRIDGE BAY A","2400601","2018-10-31 16:00","2018","10","31","16:00","-7.7","","-9.1","","90","","","","7","","9","","16.1","","102.00","","","","-12","","Snow"
"-105.14","69.11","CAMBRIDGE BAY A","2400601","2018-10-31 17:00","2018","10","31","17:00","-7.8","","-9.3","","89","","","","8","","16","","16.1","","102.02","","","","-14","","Snow"
"-105.14","69.11","CAMBRIDGE BAY A","2400601","2018-10-31 18:00","2018","10","31","18:00","-8.0","","-9.5","","89","","","","9","","21","","16.1","","102.04","","","","-16","","Snow"
"-105.14","69.11","CAMBRIDGE BAY A","2400601","2018-10-31 19:00","2018","10","31","19:00","-8.1","","-9.6","","89","","","","9","","18","","16.1","","102.03","","","","-15","","Snow"
"-105.14","69.11","CAMBRIDGE BAY A","2400601","2018-10-31 20:00","2018","10","31","20:00","-8.0","","-9.5","","89","","","","8","","10","","16.1","","102.07","","","","-13","","Snow"
"-105.14","69.11","CAMBRIDGE BAY A","2400601","2018-10-31 21:00","2018","10","31","21:00","-8.3","","-9.8","","89","","","","8","","12","","12.9","","102.07","","","","-14","","Snow"
"-105.14","69.11","CAMBRIDGE BAY A","2400601","2018-10-31 22:00","2018","10","31","22:00","-10.3","","-12.0","","87","","","","6","","12","","12.9","","102.08","","","","-16","","Snow"
"-105.14","69.11","CAMBRIDGE BAY A","2400601","2018-10-31 23:00","2018","10","31","23:00","-7.9","","-9.4","","89","","","","8","","10","","9.7","","102.13","","","","-13","","Snow"
