"Longitude (x)","Latitude (y)","Station Name","Climate ID","Date/Time (LST)","Year","Month","Day","Time (LST)","Temp (°C)","Temp Flag","Dew Point Temp (°C)","Dew Point Temp Flag","Rel Hum (%)","Rel Hum Flag","Precip. Amount (mm)","Precip. Amount Flag","Wind Dir (10s deg)","Wind Dir Flag","Wind Spd (km/h)","Wind Spd Flag","Visibility (km)","Visibility Flag","Stn Press (kPa)","Stn Press Flag","Hmdx","Hmdx Flag","Wind Chill","Wind Chill Flag","Weather"
"-119.60","49.46","PENTICTON A","1126146","2020-01-01 00:00","2020","01","01","00:00","3.8","","2.0","","88","","","","17","","23","","24.1","","95.69","","","","","","NA"
"-119.60","49.46","PENTICTON A","1126146","2020-01-01 01:00","2020","01","01","01:00","3.8","","2.0","","88","","","","16","","28","","24.1","","95.65","","","","","","Mostly Cloudy"
"-119.60","49.46","PENTICTON A","1126146","2020-01-01 02:00","2020","01","01","02:00","4.1","","1.9","","86","","","","18","","34","","24.1","","95.65","","","","","","NA"
"-119.60","49.46","PENTICTON A","1126146","2020-01-01 03:00","2020","01","01","03:00","4.4","","1.9","","84","","","","18","","37","","24.1","","95.67","","","","","","NA"
"-119.60","49.46","PENTICTON A","1126146","2020-01-01 04:00","2020","01","01","04:00","4.3","","1.8","","84","","","","17","","33","","24.1","","95.63","","","","","","Cloudy"
"-119.60","49.46","PENTICTON A","1126146","2020-01-01 05:00","2020","01","01","05:00","5.2","","2.0","","80","","","","16","","21","","24.1","","95.65","","","","","","NA"
"-119.60","49.46","PENTICTON A","1126146","2020-01-01 06:00","2020","01","01","06:00","5.1","","2.0","","80","","","","13","","19","","24.1","","95.70","","","","","","NA"
"-119.60","49.46","PENTICTON A","1126146","2020-01-01 07:00","2020","01","01","07:00","5.0","","2.2","","82","","","","15","","23","","24.1","","95.72","","","","","","Cloudy"
"-119.60","49.46","PENTICTON A","1126146","2020-01-01 08:00","2020","01","01","08:00","4.6","","2.3","","85","","","","15","","18","","24.1","","95.81","","","","","","NA"
"-119.60","49.46","PENTICTON A","1126146","2020-01-01 09:00","2020","01","01","09:00","5.1","","2.2","","82","","","","16","","16","","24.1","","95.90","","","","","","NA"
"-119.60","49.46","PENTICTON A","1126146","2020-01-01 10:00","2020","01","01","10:00","5.5","","2.3","","80","","","","15","","21","","24.1","","96.00","","","","","","Mostly Cloudy"
"-119.60","49.46","PENTICTON A","1126146","2020-01-01 11:00","2020","01","01","11:00","6.9","","2.3","","73","","","","17","","5","","24.1","","96.07","","","","","","NA"
"-119.60","49.46","PENTICTON A","1126146","2020-01-01 12:00","2020","01","01","12:00","6.5","","2.7","","77","","","","20","","13","","24.1","","96.14","","","","","","NA"
"-119.60","49.46","PENTICTON A","1126146","2020-01-01 13:00","2020","01","01","13:00","7.4","","2.8","","73","","","","17","","14","","24.1","","96.15","","","","","","Mostly Cloudy"
"-119.60","49.46","PENTICTON A","1126146","2020-01-01 14:00","2020","01","01","14:00","7.9","","3.0","","71","","","","17","","14","","24.1","","96.22","","","","","","NA"
"-119.60","49.46","PENTICTON A","1126146","2020-01-01 15:00","2020","01","01","15:00","6.8","","2.7","","75","","","","16","","20","","24.1","","96.27","","","","","","NA"
"-119.60","49.46","PENTICTON A","1126146","2020-01-01 16:00","2020","01","01","16:00","6.4","","1.3","","70","","","","11","","11","","24.1","","96.34","","","","","","Mainly Clear"
"-119.60","49.46","PENTICTON A","1126146","2020-01-01 17:00","2020","01","01","17:00","5.5","","2.3","","80","","","","17","","13","","24.1","","96.39","","","","","","NA"
"-119.60","49.46","PENTICTON A","1126146","2020-01-01 18:00","2020","01","01","18:00","5.0","","2.0","","81","","","","18","","10","","24.1","","96.31","","","","","","NA"
"-119.60","49.46","PENTICTON A","1126146","2020-01-01 19:00","2020","01","01","19:00","4.1","","1.4","","82","","","","15","","14","","24.1","","96.34","","","","","","Mainly Clear"
"-119.60","49.46","PENTICTON A","1126146","2020-01-01 20:00","2020","01","01","20:00","4.6","","1.5","","80","","","","21","","10","","24.1","","96.28","","","","","","NA"
"-119.60","49.46","PENTICTON A","1126146","2020-01-01 21:00","2020","01","01","21:00","5.3","","1.6","","77","","","","16","","14","","24.1","","96.40","","","","","","NA"
"-119.60","49.46","PENTICTON A","1126146","2020-01-01 22:00","2020","01","01","22:00","5.5","","1.1","","73","","","","17","","20","","24.1","","96.43","","","","","","Mainly Clear"
"-119.60","49.46","PENTICTON A","1126146","2020-01-01 23:00","2020","01","01","23:00","5.3","","0.9","","73","","","","16","","18","","24.1","","96.52","","","","","","NA"
"-119.60","49.46","PENTICTON A","1126146","2020-01-02 00:00","2020","01","02","00:00","5.6","","0.4","","69","","","","21","","14","","24.1","","96.58","","","","","","NA"
"-119.60","49.46","PENTICTON A","1126146","2020-01-02 01:00","2020","01","02","01:00","4.9","","-1.0","","66","","","","35","","14","","24.1","","96.64","","","","","","Mainly Clear"
"-119.60","49.46","PENTICTON A","1126146","2020-01-02 02:00","2020","01","02","02:00","5.7","","-4.1","","49","","","","2","","20","","24.1","","96.85","","","","","","NA"
"-119.60","49.46","PENTICTON A","1126146","2020-01-02 03:00","2020","01","02","03:00","3.7","","-0.6","","73","","","","2","","16","","24.1","","97.12","","","","","","NA"
"-119.60","49.46","PENTICTON A","1126146","2020-01-02 04:00","2020","01","02","04:00","2.9","","-0.2","","80","","","","5","","14","","24.1","","97.26","","","","","","Cloudy"
"-119.60","49.46","PENTICTON A","1126146","2020-01-02 05:00","2020","01","02","05:00","2.2","","0.1","","86","","","","4","","10","","24.1","","97.34","","","","","","NA"
"-119.60","49.46","PENTICTON A","1126146","2020-01-02 06:00","2020","01","02","06:00","1.7","","-0.1","","88","","","","36","","1","","24.1","","97.38","","","","","","NA"
"-119.60","49.46","PENTICTON A","1126146","2020-01-02 07:00","2020","01","02","07:00","0.7","","-0.9","","89","","","","35","","11","","24.1","","97.44","","","","","","Mostly Cloudy"
"-119.60","49.46","PENTICTON A","1126146","2020-01-02 08:00","2020","01","02","08:00","0.1","","-1.6","","88","","","","36","","7","","24.1","","97.45","","","","","","NA"
"-119.60","49.46","PENTICTON A","1126146","2020-01-02 09:00","2020","01","02","09:00","1.2","","-1.3","","84","","","","35","","11","","24.1","","97.49","","","","","","NA"
"-119.60","49.46","PENTICTON A","1126146","2020-01-02 10:00","2020","01","02","10:00","2.5","","0.0","","83","","","","36","","9","","24.1","","97.55","","","","","","Mostly Cloudy"
"-119.60","49.46","PENTICTON A","1126146","2020-01-02 11:00","2020","01","02","11:00","3.7","","-0.8","","72","","","","2","","9","","24.1","","97.56","","","","","","NA"
"-119.60","49.46","PENTICTON A","1126146","2020-01-02 12:00","2020","01","02","12:00","4.0","","0.0","","75","","","","35","","12","","24.1","","97.52","","","","","","NA"
"-119.60","49.46","PENTICTON A","1126146","2020-01-02 13:00","2020","01","02","13:00","4.0","","-0.8","","71","","","","36","","12","","24.1","","97.49","","","","","","Mostly Cloudy"
"-119.60","49.46","PENTICTON A","1126146","2020-01-02 14:00","2020","01","02","14:00","4.2","","-1.0","","69","","","","36","","12","","24.1","","97.50","","","","","","NA"
"-119.60","49.46","PENTICTON A","1126146","2020-01-02 15:00","2020","01","02","15:00","3.4","","-0.9","","73","","","","36","","10","","24.1","","97.50","","","","","","NA"
"-119.60","49.46","PENTICTON A","1126146","2020-01-02 16:00","2020","01","02","16:00","2.9","","-0.9","","76","","","","32","","4","","24.1","","97.59","","","","","","Cloudy"
"-119.60","49.46","PENTICTON A","1126146","2020-01-02 17:00","2020","01","02","17:00","2.8","","-1.1","","76","","","","26","","5","","24.1","","97.54","","","","","","NA"
"-119.60","49.46","PENTICTON A","1126146","2020-01-02 18:00","2020","01","02","18:00","1.9","","-0.7","","83","","","","16","","5","","24.1","","97.53","","","","","","NA"
"-119.60","49.46","PENTICTON A","1126146","2020-01-02 19:00","2020","01","02","19:00","1.5","","-0.3","","88","","","","17","","16","","12.9","","97.54","","","","","","Snow"
"-119.60","49.46","PENTICTON A","1126146","2020-01-02 20:00","2020","01","02","20:00","0.6","","0.1","","96","","","","15","","19","","6.4","","97.47","","","","","","Snow,Fog"
"-119.60","49.46","PENTICTON A","1126146","2020-01-02 21:00","2020","01","02","21:00","1.2","","0.5","","95","","","","14","","21","","12.9","","97.37","","","","","","Rain,Snow"
"-119.60","49.46","PENTICTON A","1126146","2020-01-02 22:00","2020","01","02","22:00","1.8","","0.5","","91","","","","15","","16","","16.1","","97.34","","","","","","Rain"
"-119.60","49.46","PENTICTON A","1126146","2020-01-02 23:00","2020","01","02","23:00","3.1","","0.1","","81","","","","17","","20","","16.1","","97.25","","","","","","Rain"
"-119.60","49.46","PENTICTON A","1126146","2020-01-03 00:00","2020","01","03","00:00","2.7","","0.5","","85","","","","16","","20","","16.1","","97.18","","","","","","NA"
"-119.60","49.46","PENTICTON A","1126146","2020-01-03 01:00","2020","01","03","01:00","3.0","","0.4","","83","","","","16","","23","","24.1","","97.19","","","","","","Cloudy"
"-119.60","49.46","PENTICTON A","1126146","2020-01-03 02:00","2020","01","03","02:00","3.4","","0.4","","80","","","","17","","26","","24.1","","97.14","","","","","","NA"
"-119.60","49.46","PENTICTON A","1126146","2020-01-03 03:00","2020","01","03","03:00","3.3","","0.6","","83","","","","17","","27","","24.1","","97.12","","","","","","Rain"
"-119.60","49.46","PENTICTON A","1126146","2020-01-03 04:00","2020","01","03","04:00","3.2","","0.9","","85","","","","16","","22","","24.1","","97.08","","","","","","Rain"
"-119.60","49.46","PENTICTON A","1126146","2020-01-03 05:00","2020","01","03","05:00","3.4","","1.2","","85","","","","17","","28","","24.1","","97.06","","","","","","Rain"
"-119.60","49.46","PENTICTON A","1126146","2020-01-03 06:00","2020","01","03","06:00","3.7","","1.6","","86","","","","17","","22","","24.1","","97.04","","","","","","Rain"
"-119.60","49.46","PENTICTON A","1126146","2020-01-03 07:00","2020","01","03","07:00","4.0","","1.6","","84","","","","17","","20","","24.1","","97.02","","","","","","Rain"
"-119.60","49.46","PENTICTON A","1126146","2020-01-03 08:00","2020","01","03","08:00","3.9","","1.7","","86","","","","18","","29","","24.1","","97.11","","","","","","Rain"
"-119.60","49.46","PENTICTON A","1126146","2020-01-03 09:00","2020","01","03","09:00","4.3","","2.0","","85","","","","17","","21","","24.1","","97.17","","","","","","Rain"
"-119.60","49.46","PENTICTON A","1126146","2020-01-03 10:00","2020","01","03","10:00","4.8","","2.1","","83","","","","17","","31","","24.1","","97.14","","","","","","Mostly Cloudy"
"-119.60","49.46","PENTICTON A","1126146","2020-01-03 11:00","2020","01","03","11:00","5.7","","2.6","","80","","","","17","","23","","24.1","","97.06","","","","","","NA"
"-119.60","49.46","PENTICTON A","1126146","2020-01-03 12:00","2020","01","03","12:00","6.1","","2.8","","79","","","","17","","31","","24.1","","97.08","","","","","","NA"
"-119.60","49.46","PENTICTON A","1126146","2020-01-03 13:00","2020","01","03","13:00","6.7","","3.1","","78","","","","18","","29","","24.1","","97.02","","","","","","Cloudy"
"-119.60","49.46","PENTICTON A","1126146","2020-01-03 14:00","2020","01","03","14:00","7.1","","3.2","","76","","","","18","","32","","24.1","","96.98","","","","","","NA"
"-119.60","49.46","PENTICTON A","1126146","2020-01-03 15:00","2020","01","03","15:00","7.1","","3.2","","76","","","","19","","34","","24.1","","96.91","","","","","","NA"
"-119.60","49.46","PENTICTON A","1126146","2020-01-03 16:00","2020","01","03","16:00","6.9","","3.2","","77","","","","18","","24","","24.1","","96.89","","","","","","Mostly Cloudy"
"-119.60","49.46","PENTICTON A","1126146","2020-01-03 17:00","2020","01","03","17:00","7.5","","3.0","","73","","","","20","","26","","24.1","","96.87","","","","","","NA"
"-119.60","49.46","PENTICTON A","1126146","2020-01-03 18:00","2020","01","03","18:00","7.9","","2.4","","68","","","","18","","37","","24.1","","96.73","","","","","","NA"
"-119.60","49.46","PENTICTON A","1126146","2020-01-03 19:00","2020","01","03","19:00","8.0","","2.0","","66","","","","18","","33","","24.1","","96.63","","","","","","Mostly Cloudy"
"-119.60","49.46","PENTICTON A","1126146","2020-01-03 20:00","2020","01","03","20:00","8.2","","1.3","","62","","","","18","","36","","24.1","","96.54","","","","","","NA"
"-119.60","49.46","PENTICTON A","1126146","2020-01-03 21:00","2020","01","03","21:00","7.8","","0.9","","61","","","","17","","30","","24.1","","96.46","","","","","","NA"
"-119.60","49.46","PENTICTON A","1126146","2020-01-03 22:00","2020","01","03","22:00","9.2","","-1.2","","48","","","","19","","57","","24.1","","96.29","","","","","","Mostly Cloudy"
"-119.60","49.46","PENTICTON A","1126146","2020-01-03 23:00","2020","01","03","23:00","9.3","","-2.0","","45","","","","19","","50","","24.1","","96.20","","","","","","NA"
"-119.60","49.46","PENTICTON A","1126146","2020-01-04 00:00","2020","01","04","00:00","9.5","","-2.7","","42","","","","19","","52","","24.1","","96.14","","","","","","NA"
"-119.60","49.46","PENTICTON A","1126146","2020-01-04 01:00","2020","01","04","01:00","9.2","","-2.5","","44","","","","19","","37","","24.1","","96.10","","","","","","Mostly Cloudy"
"-119.60","49.46","PENTICTON A","1126146","2020-01-04 02:00","2020","01","04","02:00","9.1","","-2.1","","45","","","","19","","34","","24.1","","96.14","","","","","","NA"
"-119.60","49.46","PENTICTON A","1126146","2020-01-04 03:00","2020","01","04","03:00","8.9","","-1.7","","47","","","","20","","28","","24.1","","96.16","","","","","","NA"
"-119.60","49.46","PENTICTON A","1126146","2020-01-04 04:00","2020","01","04","04:00","7.6","","-1.4","","53","","","","36","","2","","24.1","","96.23","","","","","","Mostly Cloudy"
"-119.60","49.46","PENTICTON A","1126146","2020-01-04 05:00","2020","01","04","05:00","8.6","","-0.9","","51","","","","28","","10","","24.1","","96.51","","","","","","NA"
"-119.60","49.46","PENTICTON A","1126146","2020-01-04 06:00","2020","01","04","06:00","8.3","","-5.4","","37","","","","18","","18","","24.1","","96.57","","","","","","NA"
"-119.60","49.46","PENTICTON A","1126146","2020-01-04 07:00","2020","01","04","07:00","7.7","","-6.8","","35","","","","22","","13","","24.1","","96.91","","","","","","Mainly Clear"
"-119.60","49.46","PENTICTON A","1126146","2020-01-04 08:00","2020","01","04","08:00","7.1","","-10.9","","26","","","","26","","12","","24.1","","97.06","","","","","","NA"
"-119.60","49.46","PENTICTON A","1126146","2020-01-04 09:00","2020","01","04","09:00","7.2","","-10.0","","28","","","","22","","32","","24.1","","97.30","","","","","","NA"
"-119.60","49.46","PENTICTON A","1126146","2020-01-04 10:00","2020","01","04","10:00","6.7","","-7.8","","35","","","","23","","28","","24.1","","97.49","","","","","","Mainly Clear"
"-119.60","49.46","PENTICTON A","1126146","2020-01-04 11:00","2020","01","04","11:00","7.5","","-8.9","","30","","","","18","","19","","24.1","","97.62","","","","","","NA"
"-119.60","49.46","PENTICTON A","1126146","2020-01-04 12:00","2020","01","04","12:00","8.8","","-8.9","","28","","","","23","","10","","24.1","","97.70","","","","","","NA"
"-119.60","49.46","PENTICTON A","1126146","2020-01-04 13:00","2020","01","04","13:00","9.1","","-8.8","","27","","","","34","","8","","24.1","","97.76","","","","","","Mainly Clear"
"-119.60","49.46","PENTICTON A","1126146","2020-01-04 14:00","2020","01","04","14:00","9.0","","-9.2","","27","","","","5","","6","","24.1","","97.90","","","","","","NA"
"-119.60","49.46","PENTICTON A","1126146","2020-01-04 15:00","2020","01","04","15:00","7.0","","-6.2","","38","","","","20","","8","","24.1","","98.01","","","","","","NA"
"-119.60","49.46","PENTICTON A","1126146","2020-01-04 16:00","2020","01","04","16:00","5.7","","-6.1","","42","","","","20","","13","","24.1","","98.08","","","","","","Mainly Clear"
"-119.60","49.46","PENTICTON A","1126146","2020-01-04 17:00","2020","01","04","17:00","5.5","","-5.6","","45","","","","19","","4","","24.1","","98.11","","","","","","NA"
"-119.60","49.46","PENTICTON A","1126146","2020-01-04 18:00","2020","01","04","18:00","5.2","","-4.7","","49","","","","15","","11","","24.1","","98.15","","","","","","NA"
"-119.60","49.46","PENTICTON A","1126146","2020-01-04 19:00","2020","01","04","19:00","5.4","","-5.0","","47","","","","16","","16","","24.1","","98.17","","","","","","Mostly Cloudy"
"-119.60","49.46","PENTICTON A","1126146","2020-01-04 20:00","2020","01","04","20:00","4.8","","-4.6","","50","","","","15","","13","","24.1","","98.24","","","","","","NA"
"-119.60","49.46","PENTICTON A","1126146","2020-01-04 21:00","2020","01","04","21:00","4.8","","-5.2","","49","","","","15","","17","","24.1","","98.29","","","","","","NA"
"-119.60","49.46","PENTICTON A","1126146","2020-01-04 22:00","2020","01","04","22:00","4.8","","-4.8","","50","","","","19","","24","","24.1","","98.33","","","","","","Mostly Cloudy"
"-119.60","49.46","PENTICTON A","1126146","2020-01-04 23:00","2020","01","04","23:00","4.7","","-3.9","","54","","","","18","","25","","24.1","","98.37","","","","","","NA"
"-119.60","49.46","PENTICTON A","1126146","2020-01-05 00:00","2020","01","05","00:00","4.7","","-3.8","","54","","","","19","","31","","24.1","","98.32","","","","","","NA"
"-119.60","49.46","PENTICTON A","1126146","2020-01-05 01:00","2020","01","05","01:00","4.3","","-3.5","","57","","","","19","","35","","24.1","","98.28","","","","","","Mostly Cloudy"
"-119.60","49.46","PENTICTON A","1126146","2020-01-05 02:00","2020","01","05","02:00","4.3","","-3.5","","57","","","","19","","32","","24.1","","98.27","","","","","","NA"
"-119.60","49.46","PENTICTON A","1126146","2020-01-05 03:00","2020","01","05","03:00","3.9","","-3.6","","58","","","","19","","35","","24.1","","98.24","","","","","","NA"
"-119.60","49.46","PENTICTON A","1126146","2020-01-05 04:00","2020","01","05","04:00","3.8","","-3.9","","57","","","","19","","33","","24.1","","98.22","","","","","","Mostly Cloudy"
"-119.60","49.46","PENTICTON A","1126146","2020-01-05 05:00","2020","01","05","05:00","3.4","","-4.0","","58","","","","20","","38","","24.1","","98.15","","","","","","NA"
"-119.60","49.46","PENTICTON A","1126146","2020-01-05 06:00","2020","01","05","06:00","3.2","","-3.8","","60","","","","18","","33","","24.1","","98.12","","","","","","NA"
"-119.60","49.46","PENTICTON A","1126146","2020-01-05 07:00","2020","01","05","07:00","2.9","","-3.1","","65","","","","18","","23","","24.1","","98.10","","","","","","Mostly Cloudy"
"-119.60","49.46","PENTICTON A","1126146","2020-01-05 08:00","2020","01","05","08:00","3.1","","-3.3","","63","","","","17","","26","","24.1","","98.04","","","","","","NA"
"-119.60","49.46","PENTICTON A","1126146","2020-01-05 09:00","2020","01","05","09:00","3.3","","-2.8","","64","","","","17","","25","","24.1","","98.01","","","","","","NA"
"-119.60","49.46","PENTICTON A","1126146","2020-01-05 10:00","2020","01","05","10:00","4.0","","-1.4","","68","","","","18","","27","","24.1","","97.93","","","","","","Mostly Cloudy"
"-119.60","49.46","PENTICTON A","1126146","2020-01-05 11:00","2020","01","05","11:00","4.5","","-1.4","","66","","","","19","","50","","24.1","","97.81","","","","","","NA"
"-119.60","49.46","PENTICTON A","1126146","2020-01-05 12:00","2020","01","05","12:00","4.6","","-0.6","","69","","","","18","","49","","24.1","","97.68","","","","","","NA"
"-119.60","49.46","PENTICTON A","1126146","2020-01-05 13:00","2020","01","05","13:00","4.7","","-0.3","","70","","","","18","","43","","24.1","","97.56","","","","","","Mostly Cloudy"
"-119.60","49.46","PENTICTON A","1126146","2020-01-05 14:00","2020","01","05","14:00","4.9","","-0.4","","68","","","","18","","44","","24.1","","97.53","","","","","","NA"
"-119.60","49.46","PENTICTON A","1126146","2020-01-05 15:00","2020","01","05","15:00","4.5","","-0.2","","72","","","","17","","46","","24.1","","97.56","","","","","","NA"
"-119.60","49.46","PENTICTON A","1126146","2020-01-05 16:00","2020","01","05","16:00","4.2","","-0.4","","72","","","","18","","37","","24.1","","97.59","","","","","","Mainly Clear"
"-119.60","49.46","PENTICTON A","1126146","2020-01-05 17:00","2020","01","05","17:00","3.5","","-0.3","","76","","","","19","","36","","24.1","","97.65","","","","","","NA"
"-119.60","49.46","PENTICTON A","1126146","2020-01-05 18:00","2020","01","05","18:00","3.4","","-0.9","","73","","","","20","","30","","24.1","","97.72","","","","","","NA"
"-119.60","49.46","PENTICTON A","1126146","2020-01-05 19:00","2020","01","05","19:00","3.3","","-1.3","","72","","","","19","","23","","24.1","","97.85","","","","","","Mainly Clear"
"-119.60","49.46","PENTICTON A","1126146","2020-01-05 20:00","2020","01","05","20:00","3.7","","-4.0","","57","","","","17","","18","","24.1","","97.92","","","","","","NA"
"-119.60","49.46","PENTICTON A","1126146","2020-01-05 21:00","2020","01","05","21:00","5.1","","-8.3","","37","","","","20","","22","","24.1","","98.03","","","","","","NA"
"-119.60","49.46","PENTICTON A","1126146","2020-01-05 22:00","2020","01","05","22:00","4.4","","-8.6","","38","","","","12","","11","","24.1","","98.08","","","","","","Mainly Clear"
"-119.60","49.46","PENTICTON A","1126146","2020-01-05 23:00","2020","01","05","23:00","2.5","","-7.5","","48","","","","10","","12","","24.1","","98.12","","","","","","NA"
"-119.60","49.46","PENTICTON A","1126146","2020-01-06 00:00","2020","01","06","00:00","3.6","","-4.4","","56","","","","19","","21","","24.1","","98.16","","","","","","NA"
"-119.60","49.46","PENTICTON A","1126146","2020-01-06 01:00","2020","01","06","01:00","3.2","","-3.5","","61","","","","19","","19","","24.1","","98.20","","","","","","Cloudy"
"-119.60","49.46","PENTICTON A","1126146","2020-01-06 02:00","2020","01","06","02:00","3.4","","-3.0","","63","","","","16","","20","","24.1","","98.20","","","","","","NA"
"-119.60","49.46","PENTICTON A","1126146","2020-01-06 03:00","2020","01","06","03:00","3.0","","-3.3","","63","","","","17","","21","","24.1","","98.20","","","","","","NA"
"-119.60","49.46","PENTICTON A","1126146","2020-01-06 04:00","2020","01","06","04:00","2.9","","-2.3","","69","","","","16","","18","","24.1","","98.15","","","","","","Cloudy"
"-119.60","49.46","PENTICTON A","1126146","2020-01-06 05:00","2020","01","06","05:00","2.8","","-3.1","","65","","","","18","","25","","24.1","","98.10","","","","","","NA"
"-119.60","49.46","PENTICTON A","1126146","2020-01-06 06:00","2020","01","06","06:00","2.8","","-2.8","","67","","","","17","","19","","16.1","","98.09","","","","","","Snow"
"-119.60","49.46","PENTICTON A","1126146","2020-01-06 07:00","2020","01","06","07:00","0.7","","-0.5","","92","","","","15","","14","","6.4","","98.04","","","","","","Snow,Fog"
"-119.60","49.46","PENTICTON A","1126146","2020-01-06 08:00","2020","01","06","08:00","0.4","","-0.1","","96","","","","15","","13","","2.4","","97.98","","","","","","Snow"
"-119.60","49.46","PENTICTON A","1126146","2020-01-06 09:00","2020","01","06","09:00","0.3","","-0.1","","97","","","","15","","10","","1.2","","97.94","","","","","","Snow"
"-119.60","49.46","PENTICTON A","1126146","2020-01-06 10:00","2020","01","06","10:00","0.3","","0.0","","98","","","","18","","9","","1.2","","97.91","","","","","","Snow"
"-119.60","49.46","PENTICTON A","1126146","2020-01-06 11:00","2020","01","06","11:00","0.5","","0.2","","98","","","","16","","9","","2.4","","97.83","","","","","","Snow"
"-119.60","49.46","PENTICTON A","1126146","2020-01-06 12:00","2020","01","06","12:00","0.7","","0.2","","96","","","","15","","10","","2.4","","97.76","","","","","","Snow"
"-119.60","49.46","PENTICTON A","1126146","2020-01-06 13:00","2020","01","06","13:00","0.5","","0.1","","97","","","","0","","1","","3.2","","97.67","","","","","","Snow"
"-119.60","49.46","PENTICTON A","1126146","2020-01-06 14:00","2020","01","06","14:00","0.2","","-0.1","","98","","","","35","","7","","2.4","","97.69","","","","","","Snow"
"-119.60","49.46","PENTICTON A","1126146","2020-01-06 15:00","2020","01","06","15:00","0.2","","0.0","","98","","","","36","","2","","2.0","","97.67","","","","","","Snow"
"-119.60","49.46","PENTICTON A","1126146","2020-01-06 16:00","2020","01","06","16:00","0.3","","0.1","","98","","","","36","","3","","4.8","","97.70","","","","","","Snow"
"-119.60","49.46","PENTICTON A","1126146","2020-01-06 17:00","2020","01","06","17:00","0.3","","0.1","","99","","","","4","","4","","1.6","","97.73","","","","","","Snow"
"-119.60","49.46","PENTICTON A","1126146","2020-01-06 18:00","2020","01","06","18:00","0.2","","0.0","","99","","","","36","","1","","3.2","","97.71","","","","","","Snow"
"-119.60","49.46","PENTICTON A","1126146","2020-01-06 19:00","2020","01","06","19:00","0.2","","0.0","","99","","","","","","0","","3.2","","97.78","","","","","","Snow"
"-119.60","49.46","PENTICTON A","1126146","2020-01-06 20:00","2020","01","06","20:00","0.3","","0.1","","99","","","","9","","4","","3.2","","97.75","","","","","","Snow"
"-119.60","49.46","PENTICTON A","1126146","2020-01-06 21:00","2020","01","06","21:00","0.3","","0.2","","99","","","","30","","4","","3.2","","97.76","","","","","","Snow"
"-119.60","49.46","PENTICTON A","1126146","2020-01-06 22:00","2020","01","06","22:00","0.3","","0.1","","99","","","","","","0","","4.8","","97.78","","","","","","Snow"
"-119.60","49.46","PENTICTON A","1126146","2020-01-06 23:00","2020","01","06","23:00","0.3","","0.2","","99","","","","1","","5","","8.1","","97.77","","","","","","Snow"
"-119.60","49.46","PENTICTON A","1126146","2020-01-07 00:00","2020","01","07","00:00","0.4","","0.2","","99","","","","5","","5","","8.1","","97.69","","","","","","Snow,Fog"
"-119.60","49.46","PENTICTON A","1126146","2020-01-07 01:00","2020","01","07","01:00","0.5","","0.3","","99","","","","24","","3","","48.3","","97.67","","","","","","Snow,Fog"
"-119.60","49.46","PENTICTON A","1126146","2020-01-07 02:00","2020","01","07","02:00","0.2","","0.1","","99","","","","36","","2","","4.0","","97.60","","","","","","Snow,Fog"
"-119.60","49.46","PENTICTON A","1126146","2020-01-07 03:00","2020","01","07","03:00","0.1","","0.0","","99","","","","36","","1","","1.6","","97.57","","","","","","Snow,Fog"
"-119.60","49.46","PENTICTON A","1126146","2020-01-07 04:00","2020","01","07","04:00","0.1","","0.0","","99","","","","36","","1","","1.6","","97.49","","","","","","Snow,Fog"
"-119.60","49.46","PENTICTON A","1126146","2020-01-07 05:00","2020","01","07","05:00","0.1","","-0.1","","99","","","","36","","1","","2.4","","97.41","","","","","","Snow,Fog"
"-119.60","49.46","PENTICTON A","1126146","2020-01-07 06:00","2020","01","07","06:00","0.0","","-0.1","","99","","","","36","","2","","3.2","","97.35","","","","-1","","Snow,Fog"
"-119.60","49.46","PENTICTON A","1126146","2020-01-07 07:00","2020","01","07","07:00","0.1","","0.0","","99","","","","36","","1","","3.2","","97.28","","","","","","Snow,Fog"
"-119.60","49.46","PENTICTON A","1126146","2020-01-07 08:00","2020","01","07","08:00","0.2","","0.1","","99","","","","21","","4","","2.8","","97.25","","","","","","Fog"
"-119.60","49.46","PENTICTON A","1126146","2020-01-07 09:00","2020","01","07","09:00","0.2","","0.1","","99","","","","16","","3","","2.8","","97.22","","","","","","Fog"
"-119.60","49.46","PENTICTON A","1126146","2020-01-07 10:00","2020","01","07","10:00","0.3","","0.2","","99","","","","22","","4","","16.1","","97.15","","","","","","Cloudy"
"-119.60","49.46","PENTICTON A","1126146","2020-01-07 11:00","2020","01","07","11:00","0.4","","0.3","","99","","","","9","","5","","24.1","","97.02","","","","","","NA"
"-119.60","49.46","PENTICTON A","1126146","2020-01-07 12:00","2020","01","07","12:00","2.5","","2.4","","99","","","","15","","21","","24.1","","96.77","","","","","","NA"
"-119.60","49.46","PENTICTON A","1126146","2020-01-07 13:00","2020","01","07","13:00","3.9","","1.7","","85","","","","16","","27","","19.3","","96.59","","","","","","Cloudy"
"-119.60","49.46","PENTICTON A","1126146","2020-01-07 14:00","2020","01","07","14:00","4.2","","2.2","","86","","","","16","","26","","24.1","","96.52","","","","","","NA"
"-119.60","49.46","PENTICTON A","1126146","2020-01-07 15:00","2020","01","07","15:00","6.0","","2.2","","79","","","","18","","24","","24.1","","96.46","","","","","","NA"
"-119.60","49.46","PENTICTON A","1126146","2020-01-07 16:00","2020","01","07","16:00","6.2","","2.8","","78","","","","20","","32","","24.1","","96.41","","","","","","Cloudy"
"-119.60","49.46","PENTICTON A","1126146","2020-01-07 17:00","2020","01","07","17:00","6.8","","3.0","","77","","","","20","","26","","24.1","","96.34","","","","","","NA"
"-119.60","49.46","PENTICTON A","1126146","2020-01-07 18:00","2020","01","07","18:00","7.0","","3.3","","77","","","","20","","22","","24.1","","96.22","","","","","","NA"
"-119.60","49.46","PENTICTON A","1126146","2020-01-07 19:00","2020","01","07","19:00","7.3","","3.4","","76","","","","20","","32","","24.1","","96.11","","","","","","Cloudy"
"-119.60","49.46","PENTICTON A","1126146","2020-01-07 20:00","2020","01","07","20:00","7.4","","3.4","","76","","","","20","","34","","24.1","","96.04","","","","","","NA"
"-119.60","49.46","PENTICTON A","1126146","2020-01-07 21:00","2020","01","07","21:00","7.6","","3.5","","75","","","","20","","28","","24.1","","96.01","","","","","","NA"
"-119.60","49.46","PENTICTON A","1126146","2020-01-07 22:00","2020","01","07","22:00","7.5","","3.5","","76","","","","20","","26","","24.1","","95.96","","","","","","Mostly Cloudy"
"-119.60","49.46","PENTICTON A","1126146","2020-01-07 23:00","2020","01","07","23:00","7.6","","3.1","","74","","","","21","","25","","24.1","","95.93","","","","","","NA"
"-119.60","49.46","PENTICTON A","1126146","2020-01-08 00:00","2020","01","08","00:00","6.8","","2.9","","76","","","","19","","27","","24.1","","95.88","","","","","","NA"
"-119.60","49.46","PENTICTON A","1126146","2020-01-08 01:00","2020","01","08","01:00","6.5","","2.8","","77","","","","17","","21","","24.1","","95.86","","","","","","Mostly Cloudy"
"-119.60","49.46","PENTICTON A","1126146","2020-01-08 02:00","2020","01","08","02:00","6.8","","2.6","","74","","","","18","","22","","24.1","","95.86","","","","","","NA"
"-119.60","49.46","PENTICTON A","1126146","2020-01-08 03:00","2020","01","08","03:00","6.8","","2.5","","74","","","","16","","22","","24.1","","95.90","","","","","","NA"
"-119.60","49.46","PENTICTON A","1126146","2020-01-08 04:00","2020","01","08","04:00","6.5","","2.4","","75","","","","16","","17","","24.1","","95.96","","","","","","Mostly Cloudy"
"-119.60","49.46","PENTICTON A","1126146","2020-01-08 05:00","2020","01","08","05:00","6.1","","2.3","","77","","","","17","","21","","24.1","","95.99","","","","","","NA"
"-119.60","49.46","PENTICTON A","1126146","2020-01-08 06:00","2020","01","08","06:00","5.8","","2.1","","77","","","","18","","23","","24.1","","96.04","","","","","","NA"
"-119.60","49.46","PENTICTON A","1126146","2020-01-08 07:00","2020","01","08","07:00","5.1","","1.8","","79","","","","20","","13","","24.1","","96.07","","","","","","Mostly Cloudy"
"-119.60","49.46","PENTICTON A","1126146","2020-01-08 08:00","2020","01","08","08:00","5.5","","0.1","","68","","","","18","","15","","24.1","","96.14","","","","","","NA"
"-119.60","49.46","PENTICTON A","1126146","2020-01-08 09:00","2020","01","08","09:00","3.9","","0.1","","76","","","","35","","4","","24.1","","96.28","","","","","","NA"
"-119.60","49.46","PENTICTON A","1126146","2020-01-08 10:00","2020","01","08","10:00","4.6","","-2.2","","61","","","","36","","22","","24.1","","96.38","","","","","","Mostly Cloudy"
"-119.60","49.46","PENTICTON A","1126146","2020-01-08 11:00","2020","01","08","11:00","3.2","","-1.2","","73","","","","3","","21","","24.1","","96.50","","","","","","NA"
"-119.60","49.46","PENTICTON A","1126146","2020-01-08 12:00","2020","01","08","12:00","2.7","","","M","","M","","","","","","M","24.1","","96.59","","","","","","NA"
"-119.60","49.46","PENTICTON A","1126146","2020-01-08 13:00","2020","01","08","13:00","3.4","","","M","","M","","","","","","M","24.1","","96.64","","","","","","Mostly Cloudy"
"-119.60","49.46","PENTICTON A","1126146","2020-01-08 14:00","2020","01","08","14:00","3.4","","-6.5","","48","","","","35","","16","","24.1","","96.69","","","","","","NA"
"-119.60","49.46","PENTICTON A","1126146","2020-01-08 15:00","2020","01","08","15:00","3.0","","-7.9","","44","","","","32","","27","","24.1","","96.72","","","","","","NA"
"-119.60","49.46","PENTICTON A","1126146","2020-01-08 16:00","2020","01","08","16:00","2.6","","-9.1","","42","","","","33","","16","","24.1","","96.81","","","","","","Mostly Cloudy"
"-119.60","49.46","PENTICTON A","1126146","2020-01-08 17:00","2020","01","08","17:00","1.0","","-8.6","","49","","","","3","","10","","24.1","","96.87","","","","","","NA"
"-119.60","49.46","PENTICTON A","1126146","2020-01-08 18:00","2020","01","08","18:00","1.0","","-9.1","","47","","","","4","","9","","24.1","","96.95","","","","","","NA"
"-119.60","49.46","PENTICTON A","1126146","2020-01-08 19:00","2020","01","08","19:00","-1.5","","-8.2","","60","","","","33","","7","","24.1","","96.98","","","","-4","","Mostly Cloudy"
"-119.60","49.46","PENTICTON A","1126146","2020-01-08 20:00","2020","01","08","20:00","-2.6","","-7.7","","68","","","","36","","9","","24.1","","97.03","","","","-6","","NA"
"-119.60","49.46","PENTICTON A","1126146","2020-01-08 21:00","2020","01","08","21:00","-1.9","","-9.0","","58","","","","3","","9","","24.1","","97.09","","","","-5","","NA"
"-119.60","49.46","PENTICTON A","1126146","2020-01-08 22:00","2020","01","08","22:00","-3.7","","-9.0","","67","","","","1","","12","","24.1","","97.14","","","","-8","","Mainly Clear"
"-119.60","49.46","PENTICTON A","1126146","2020-01-08 23:00","2020","01","08","23:00","-3.3","","-9.1","","65","","","","34","","10","","24.1","","97.18","","","","-7","","NA"
"-119.60","49.46","PENTICTON A","1126146","2020-01-09 00:00","2020","01","09","00:00","-3.6","","-10.0","","61","","","","36","","12","","24.1","","97.22","","","","-8","","NA"
"-119.60","49.46","PENTICTON A","1126146","2020-01-09 01:00","2020","01","09","01:00","-4.6","","-9.6","","68","","","","1","","16","","24.1","","97.28","","","","-10","","Clear"
"-119.60","49.46","PENTICTON A","1126146","2020-01-09 02:00","2020","01","09","02:00","-6.3","","-9.9","","75","","","","35","","13","","24.1","","97.35","","","","-12","","NA"
"-119.60","49.46","PENTICTON A","1126146","2020-01-09 03:00","2020","01","09","03:00","-6.3","","-10.4","","73","","","","35","","12","","24.1","","97.41","","","","-11","","NA"
"-119.60","49.46","PENTICTON A","1126146","2020-01-09 04:00","2020","01","09","04:00","-5.8","","-9.8","","74","","","","36","","11","","24.1","","97.42","","","","-11","","Mostly Cloudy"
"-119.60","49.46","PENTICTON A","1126146","2020-01-09 05:00","2020","01","09","05:00","-5.3","","-9.6","","72","","","","34","","8","","24.1","","97.46","","","","-9","","NA"
"-119.60","49.46","PENTICTON A","1126146","2020-01-09 06:00","2020","01","09","06:00","-4.3","","-8.5","","73","","","","1","","5","","24.1","","97.56","","","","-6","","NA"
"-119.60","49.46","PENTICTON A","1126146","2020-01-09 07:00","2020","01","09","07:00","-3.6","","-8.0","","72","","","","34","","7","","24.1","","97.68","","","","-7","","Snow"
"-119.60","49.46","PENTICTON A","1126146","2020-01-09 08:00","2020","01","09","08:00","-3.5","","-7.1","","76","","","","27","","3","","24.1","","97.70","","","","-5","","NA"
"-119.60","49.46","PENTICTON A","1126146","2020-01-09 09:00","2020","01","09","09:00","-3.7","","-6.5","","81","","","","34","","7","","24.1","","97.76","","","","-7","","NA"
"-119.60","49.46","PENTICTON A","1126146","2020-01-09 10:00","2020","01","09","10:00","-2.4","","-6.9","","71","","","","33","","3","","24.1","","97.84","","","","-4","","Mostly Cloudy"
"-119.60","49.46","PENTICTON A","1126146","2020-01-09 11:00","2020","01","09","11:00","-1.5","","-6.7","","68","","","","36","","1","","24.1","","97.86","","","","-2","","NA"
"-119.60","49.46","PENTICTON A","1126146","2020-01-09 12:00","2020","01","09","12:00","-0.9","","-6.8","","64","","","","36","","1","","24.1","","97.80","","","","-1","","NA"
"-119.60","49.46","PENTICTON A","1126146","2020-01-09 13:00","2020","01","09","13:00","-0.3","","-6.6","","63","","","","17","","5","","24.1","","97.78","","","","-2","","Mainly Clear"
"-119.60","49.46","PENTICTON A","1126146","2020-01-09 14:00","2020","01","09","14:00","-0.5","","-6.6","","63","","","","19","","4","","24.1","","97.81","","","","-2","","NA"
"-119.60","49.46","PENTICTON A","1126146","2020-01-09 15:00","2020","01","09","15:00","-0.2","","-6.4","","63","","","","15","","4","","24.1","","97.83","","","","-1","","NA"
"-119.60","49.46","PENTICTON A","1126146","2020-01-09 16:00","2020","01","09","16:00","-1.6","","-6.3","","70","","","","1","","5","","24.1","","97.89","","","","-3","","Mostly Cloudy"
"-119.60","49.46","PENTICTON A","1126146","2020-01-09 17:00","2020","01","09","17:00","-2.9","","-6.2","","78","","","","3","","4","","24.1","","97.94","","","","-4","","NA"
"-119.60","49.46","PENTICTON A","1126146","2020-01-09 18:00","2020","01","09","18:00","-4.5","","-7.2","","82","","","","36","","1","","24.1","","97.94","","","","-5","","NA"
"-119.60","49.46","PENTICTON A","1126146","2020-01-09 19:00","2020","01","09","19:00","-5.8","","-7.9","","85","","","","36","","9","","24.1","","97.97","","","","-10","","Mainly Clear"
"-119.60","49.46","PENTICTON A","1126146","2020-01-09 20:00","2020","01","09","20:00","-5.2","","-8.0","","81","","","","36","","5","","24.1","","98.00","","","","-7","","NA"
"-119.60","49.46","PENTICTON A","1126146","2020-01-09 21:00","2020","01","09","21:00","-5.9","","-8.0","","85","","","","36","","2","","24.1","","98.04","","","","-7","","NA"
"-119.60","49.46","PENTICTON A","1126146","2020-01-09 22:00","2020","01","09","22:00","-6.5","","-8.2","","88","","","","4","","6","","24.1","","98.04","","","","-9","","Mostly Cloudy"
"-119.60","49.46","PENTICTON A","1126146","2020-01-09 23:00","2020","01","09","23:00","-5.9","","-8.5","","81","","","","6","","5","","24.1","","98.02","","","","-8","","NA"
"-119.60","49.46","PENTICTON A","1126146","2020-01-10 00:00","2020","01","10","00:00","-5.5","","-8.2","","81","","","","36","","11","","24.1","","97.98","","","","-10","","NA"
"-119.60","49.46","PENTICTON A","1126146","2020-01-10 01:00","2020","01","10","01:00","-4.7","","-7.8","","79","","","","36","","4","","24.1","","97.93","","","","-6","","Mostly Cloudy"
"-119.60","49.46","PENTICTON A","1126146","2020-01-10 02:00","2020","01","10","02:00","-2.2","","-6.4","","73","","","","11","","4","","24.1","","97.89","","","","-4","","NA"
"-119.60","49.46","PENTICTON A","1126146","2020-01-10 03:00","2020","01","10","03:00","-1.8","","-6.9","","68","","","","17","","18","","24.1","","97.80","","","","-7","","NA"
"-119.60","49.46","PENTICTON A","1126146","2020-01-10 04:00","2020","01","10","04:00","-1.6","","-6.1","","72","","","","17","","17","","24.1","","97.74","","","","-7","","Cloudy"
"-119.60","49.46","PENTICTON A","1126146","2020-01-10 05:00","2020","01","10","05:00","-1.4","","-7.1","","65","","","","16","","21","","8.1","","97.72","","","","-7","","Snow"
"-119.60","49.46","PENTICTON A","1126146","2020-01-10 06:00","2020","01","10","06:00","-2.7","","-3.8","","92","","","","15","","24","","1.2","","97.63","","","","-9","","Snow"
"-119.60","49.46","PENTICTON A","1126146","2020-01-10 07:00","2020","01","10","07:00","-2.0","","-3.4","","90","","","","15","","20","","3.2","","97.48","","","","-8","","Snow"
"-119.60","49.46","PENTICTON A","1126146","2020-01-10 08:00","2020","01","10","08:00","-1.0","","-3.6","","82","","","","18","","29","","16.1","","97.30","","","","-8","","NA"
"-119.60","49.46","PENTICTON A","1126146","2020-01-10 09:00","2020","01","10","09:00","-0.3","","-3.4","","80","","","","18","","30","","16.1","","97.20","","","","-7","","Snow,Blowing Snow"
"-119.60","49.46","PENTICTON A","1126146","2020-01-10 10:00","2020","01","10","10:00","0.2","","-3.8","","75","","","","17","","36","","11.3","","97.12","","","","","","Snow,Blowing Snow"
"-119.60","49.46","PENTICTON A","1126146","2020-01-10 11:00","2020","01","10","11:00","0.2","","-3.2","","78","","","","19","","45","","4.8","","96.97","","","","","","Snow,Blowing Snow"
"-119.60","49.46","PENTICTON A","1126146","2020-01-10 12:00","2020","01","10","12:00","0.5","","-3.3","","76","","","","18","","27","","16.1","","96.84","","","","","","Snow"
"-119.60","49.46","PENTICTON A","1126146","2020-01-10 13:00","2020","01","10","13:00","1.0","","-2.7","","77","","","","17","","30","","24.1","","96.65","","","","","","Snow"
"-119.60","49.46","PENTICTON A","1126146","2020-01-10 14:00","2020","01","10","14:00","1.3","","-2.6","","75","","","","16","","23","","24.1","","96.62","","","","","","Snow"
"-119.60","49.46","PENTICTON A","1126146","2020-01-10 15:00","2020","01","10","15:00","0.6","","-1.8","","84","","","","16","","19","","3.2","","96.60","","","","","","Snow"
"-119.60","49.46","PENTICTON A","1126146","2020-01-10 16:00","2020","01","10","16:00","0.7","","-1.5","","85","","","","17","","24","","12.9","","96.52","","","","","","Snow"
"-119.60","49.46","PENTICTON A","1126146","2020-01-10 17:00","2020","01","10","17:00","1.0","","-1.7","","82","","","","18","","30","","8.1","","96.46","","","","","","Snow"
"-119.60","49.46","PENTICTON A","1126146","2020-01-10 18:00","2020","01","10","18:00","1.6","","-2.5","","74","","","","20","","31","","16.1","","96.39","","","","","","Snow"
"-119.60","49.46","PENTICTON A","1126146","2020-01-10 19:00","2020","01","10","19:00","1.6","","-1.8","","78","","","","12","","13","","24.1","","96.43","","","","","","Mostly Cloudy"
"-119.60","49.46","PENTICTON A","1126146","2020-01-10 20:00","2020","01","10","20:00","1.7","","-1.6","","78","","","","17","","18","","24.1","","96.42","","","","","","NA"
"-119.60","49.46","PENTICTON A","1126146","2020-01-10 21:00","2020","01","10","21:00","1.8","","-1.3","","80","","","","16","","23","","24.1","","96.40","","","","","","NA"
"-119.60","49.46","PENTICTON A","1126146","2020-01-10 22:00","2020","01","10","22:00","1.5","","-0.9","","84","","","","15","","18","","24.1","","96.40","","","","","","Cloudy"
"-119.60","49.46","PENTICTON A","1126146","2020-01-10 23:00","2020","01","10","23:00","1.6","","-0.9","","84","","","","14","","17","","24.1","","96.35","","","","","","NA"
"-119.60","49.46","PENTICTON A","1126146","2020-01-11 00:00","2020","01","11","00:00","1.6","","-1.1","","82","","","","15","","15","","24.1","","96.33","","","","","","NA"
"-119.60","49.46","PENTICTON A","1126146","2020-01-11 01:00","2020","01","11","01:00","1.5","","-1.1","","83","","","","13","","13","","24.1","","96.25","","","","","","Cloudy"
"-119.60","49.46","PENTICTON A","1126146","2020-01-11 02:00","2020","01","11","02:00","0.8","","-0.8","","89","","","","1","","12","","16.1","","96.26","","","","","","Snow Showers"
"-119.60","49.46","PENTICTON A","1126146","2020-01-11 03:00","2020","01","11","03:00","0.4","","-0.5","","94","","","","1","","15","","4.8","","96.30","","","","","","Snow Showers"
"-119.60","49.46","PENTICTON A","1126146","2020-01-11 04:00","2020","01","11","04:00","0.0","","-1.0","","93","","","","1","","9","","3.2","","96.30","","","","-3","","Snow"
"-119.60","49.46","PENTICTON A","1126146","2020-01-11 05:00","2020","01","11","05:00","0.1","","-1.3","","90","","","","35","","13","","8.1","","96.31","","","","","","Snow"
"-119.60","49.46","PENTICTON A","1126146","2020-01-11 06:00","2020","01","11","06:00","0.2","","-1.6","","88","","","","35","","8","","12.9","","96.33","","","","","","Snow"
"-119.60","49.46","PENTICTON A","1126146","2020-01-11 07:00","2020","01","11","07:00","0.0","","-1.4","","90","","","","1","","8","","19.3","","96.36","","","","-3","","Snow"
"-119.60","49.46","PENTICTON A","1126146","2020-01-11 08:00","2020","01","11","08:00","-0.3","","-1.3","","93","","","","31","","3","","3.2","","96.41","","","","-1","","Snow"
"-119.60","49.46","PENTICTON A","1126146","2020-01-11 09:00","2020","01","11","09:00","-0.1","","-1.1","","93","","","","36","","2","","19.3","","96.48","","","","-1","","Snow"
"-119.60","49.46","PENTICTON A","1126146","2020-01-11 10:00","2020","01","11","10:00","0.1","","-1.2","","91","","","","36","","1","","24.1","","96.53","","","","","","Snow"
"-119.60","49.46","PENTICTON A","1126146","2020-01-11 11:00","2020","01","11","11:00","0.5","","-1.5","","86","","","","31","","4","","24.1","","96.50","","","","","","Snow"
"-119.60","49.46","PENTICTON A","1126146","2020-01-11 12:00","2020","01","11","12:00","0.8","","-1.6","","84","","","","34","","3","","24.1","","96.47","","","","","","Snow"
"-119.60","49.46","PENTICTON A","1126146","2020-01-11 13:00","2020","01","11","13:00","0.8","","-1.4","","85","","","","31","","3","","24.1","","96.45","","","","","","Snow"
"-119.60","49.46","PENTICTON A","1126146","2020-01-11 14:00","2020","01","11","14:00","1.1","","-1.4","","83","","","","15","","3","","24.1","","96.45","","","","","","NA"
"-119.60","49.46","PENTICTON A","1126146","2020-01-11 15:00","2020","01","11","15:00","0.9","","-1.5","","84","","","","36","","3","","24.1","","96.44","","","","","","NA"
"-119.60","49.46","PENTICTON A","1126146","2020-01-11 16:00","2020","01","11","16:00","1.8","","-0.6","","84","","","","16","","21","","24.1","","96.51","","","","","","Mostly Cloudy"
"-119.60","49.46","PENTICTON A","1126146","2020-01-11 17:00","2020","01","11","17:00","0.4","","-1.4","","88","","","","34","","8","","24.1","","96.59","","","","","","NA"
"-119.60","49.46","PENTICTON A","1126146","2020-01-11 18:00","2020","01","11","18:00","1.3","","-0.9","","85","","","","11","","9","","24.1","","96.56","","","","","","NA"
"-119.60","49.46","PENTICTON A","1126146","2020-01-11 19:00","2020","01","11","19:00","1.5","","-0.6","","86","","","","17","","23","","24.1","","96.53","","","","","","Mostly Cloudy"
"-119.60","49.46","PENTICTON A","1126146","2020-01-11 20:00","2020","01","11","20:00","1.9","","-0.8","","83","","","","17","","27","","24.1","","96.58","","","","","","NA"
"-119.60","49.46","PENTICTON A","1126146","2020-01-11 21:00","2020","01","11","21:00","1.8","","-0.8","","82","","","","17","","18","","24.1","","96.66","","","","","","NA"
"-119.60","49.46","PENTICTON A","1126146","2020-01-11 22:00","2020","01","11","22:00","1.6","","-0.8","","84","","","","17","","25","","24.1","","96.65","","","","","","Mostly Cloudy"
"-119.60","49.46","PENTICTON A","1126146","2020-01-11 23:00","2020","01","11","23:00","1.4","","-0.8","","85","","","","16","","21","","24.1","","96.68","","","","","","NA"
"-119.60","49.46","PENTICTON A","1126146","2020-01-12 00:00","2020","01","12","00:00","1.6","","-1.1","","82","","","","18","","19","","24.1","","96.62","","","","","","NA"
"-119.60","49.46","PENTICTON A","1126146","2020-01-12 01:00","2020","01","12","01:00","1.4","","-1.2","","83","","","","17","","20","","24.1","","96.56","","","","","","Cloudy"
"-119.60","49.46","PENTICTON A","1126146","2020-01-12 02:00","2020","01","12","02:00","1.0","","-1.0","","87","","","","15","","18","","24.1","","96.54","","","","","","NA"
"-119.60","49.46","PENTICTON A","1126146","2020-01-12 03:00","2020","01","12","03:00","1.1","","-1.2","","85","","","","17","","17","","24.1","","96.49","","","","","","NA"
"-119.60","49.46","PENTICTON A","1126146","2020-01-12 04:00","2020","01","12","04:00","0.7","","-1.3","","86","","","","17","","21","","24.1","","96.42","","","","","","Cloudy"
"-119.60","49.46","PENTICTON A","1126146","2020-01-12 05:00","2020","01","12","05:00","0.6","","-1.4","","87","","","","18","","21","","24.1","","96.29","","","","","","NA"
"-119.60","49.46","PENTICTON A","1126146","2020-01-12 06:00","2020","01","12","06:00","0.8","","-1.5","","84","","","","17","","22","","24.1","","96.18","","","","","","NA"
"-119.60","49.46","PENTICTON A","1126146","2020-01-12 07:00","2020","01","12","07:00","0.8","","-1.7","","83","","","","17","","19","","24.1","","96.08","","","","","","Mostly Cloudy"
"-119.60","49.46","PENTICTON A","1126146","2020-01-12 08:00","2020","01","12","08:00","1.0","","-2.2","","80","","","","16","","19","","24.1","","96.00","","","","","","NA"
"-119.60","49.46","PENTICTON A","1126146","2020-01-12 09:00","2020","01","12","09:00","1.5","","-2.8","","73","","","","18","","35","","24.1","","95.90","","","","","","NA"
"-119.60","49.46","PENTICTON A","1126146","2020-01-12 10:00","2020","01","12","10:00","1.5","","-1.9","","78","","","","18","","32","","24.1","","95.83","","","","","","Cloudy"
"-119.60","49.46","PENTICTON A","1126146","2020-01-12 11:00","2020","01","12","11:00","2.1","","-1.8","","75","","","","18","","32","","24.1","","95.75","","","","","","NA"
"-119.60","49.46","PENTICTON A","1126146","2020-01-12 12:00","2020","01","12","12:00","2.0","","-1.7","","76","","","","18","","30","","24.1","","95.65","","","","","","NA"
"-119.60","49.46","PENTICTON A","1126146","2020-01-12 13:00","2020","01","12","13:00","1.7","","-1.4","","80","","","","20","","27","","16.1","","95.57","","","","","","Snow"
"-119.60","49.46","PENTICTON A","1126146","2020-01-12 14:00","2020","01","12","14:00","2.2","","-1.1","","79","","","","18","","26","","16.1","","95.50","","","","","","Snow"
"-119.60","49.46","PENTICTON A","1126146","2020-01-12 15:00","2020","01","12","15:00","2.4","","-0.8","","79","","","","18","","21","","24.1","","95.48","","","","","","Snow"
"-119.60","49.46","PENTICTON A","1126146","2020-01-12 16:00","2020","01","12","16:00","2.4","","-0.7","","80","","","","4","","17","","22.5","","95.59","","","","","","Snow"
"-119.60","49.46","PENTICTON A","1126146","2020-01-12 17:00","2020","01","12","17:00","-2.1","","-7.7","","66","","","","3","","28","","24.1","","95.77","","","","-9","","Snow,Blowing Snow"
"-119.60","49.46","PENTICTON A","1126146","2020-01-12 18:00","2020","01","12","18:00","-4.0","","-9.6","","65","","","","2","","30","","8.1","","96.03","","","","-12","","Snow,Blowing Snow"
"-119.60","49.46","PENTICTON A","1126146","2020-01-12 19:00","2020","01","12","19:00","-6.7","","-12.0","","66","","","","36","","37","","16.1","","96.31","","","","-16","","Snow,Blowing Snow"
"-119.60","49.46","PENTICTON A","1126146","2020-01-12 20:00","2020","01","12","20:00","-8.8","","-14.8","","62","","","","35","","37","","16.1","","96.56","","","","-19","","Snow,Blowing Snow"
"-119.60","49.46","PENTICTON A","1126146","2020-01-12 21:00","2020","01","12","21:00","-10.2","","-17.9","","54","","","","35","","37","","24.1","","96.78","","","","-21","","Snow,Blowing Snow"
"-119.60","49.46","PENTICTON A","1126146","2020-01-12 22:00","2020","01","12","22:00","-11.2","","-18.8","","54","","","","34","","35","","24.1","","96.96","","","","-22","","Snow,Blowing Snow"
"-119.60","49.46","PENTICTON A","1126146","2020-01-12 23:00","2020","01","12","23:00","-12.0","","-20.6","","49","","","","34","","37","","24.1","","97.13","","","","-23","","Snow,Blowing Snow"
"-119.60","49.46","PENTICTON A","1126146","2020-01-13 00:00","2020","01","13","00:00","-12.7","","-21.4","","49","","","","34","","36","","24.1","","97.26","","","","-24","","Snow,Blowing Snow"
"-119.60","49.46","PENTICTON A","1126146","2020-01-13 01:00","2020","01","13","01:00","-13.4","","-22.7","","46","","","","34","","39","","24.1","","97.37","","","","-25","","Blowing Snow"
"-119.60","49.46","PENTICTON A","1126146","2020-01-13 02:00","2020","01","13","02:00","-13.8","","-23.6","","44","","","","34","","29","","24.1","","97.49","","","","-24","","NA"
"-119.60","49.46","PENTICTON A","1126146","2020-01-13 03:00","2020","01","13","03:00","-14.4","","-23.6","","46","","","","35","","29","","24.1","","97.61","","","","-25","","NA"
"-119.60","49.46","PENTICTON A","1126146","2020-01-13 04:00","2020","01","13","04:00","-14.7","","-23.4","","48","","","","35","","34","","24.1","","97.68","","","","-26","","Mostly Cloudy"
"-119.60","49.46","PENTICTON A","1126146","2020-01-13 05:00","2020","01","13","05:00","-14.7","","-23.2","","49","","","","36","","29","","24.1","","97.74","","","","-25","","NA"
"-119.60","49.46","PENTICTON A","1126146","2020-01-13 06:00","2020","01","13","06:00","-14.9","","-23.0","","51","","","","35","","27","","24.1","","97.80","","","","-25","","NA"
"-119.60","49.46","PENTICTON A","1126146","2020-01-13 07:00","2020","01","13","07:00","-14.7","","-23.2","","49","","","","36","","28","","24.1","","97.83","","","","-25","","Mostly Cloudy"
"-119.60","49.46","PENTICTON A","1126146","2020-01-13 08:00","2020","01","13","08:00","-15.0","","-23.6","","48","","","","35","","27","","24.1","","97.86","","","","-26","","NA"
"-119.60","49.46","PENTICTON A","1126146","2020-01-13 09:00","2020","01","13","09:00","-14.7","","-22.1","","54","","","","34","","24","","24.1","","97.93","","","","-25","","NA"
"-119.60","49.46","PENTICTON A","1126146","2020-01-13 10:00","2020","01","13","10:00","-14.5","","-22.9","","50","","","","34","","26","","24.1","","97.97","","","","-25","","Mostly Cloudy"
"-119.60","49.46","PENTICTON A","1126146","2020-01-13 11:00","2020","01","13","11:00","-14.1","","-22.9","","48","","","","35","","27","","24.1","","98.01","","","","-24","","NA"
"-119.60","49.46","PENTICTON A","1126146","2020-01-13 12:00","2020","01","13","12:00","-14.2","","-22.9","","48","","","","36","","30","","24.1","","97.95","","","","-25","","NA"
"-119.60","49.46","PENTICTON A","1126146","2020-01-13 13:00","2020","01","13","13:00","-14.1","","-23.5","","45","","","","33","","19","","24.1","","97.93","","","","-23","","Cloudy"
"-119.60","49.46","PENTICTON A","1126146","2020-01-13 14:00","2020","01","13","14:00","-13.9","","-22.5","","49","","","","33","","21","","24.1","","97.90","","","","-23","","NA"
"-119.60","49.46","PENTICTON A","1126146","2020-01-13 15:00","2020","01","13","15:00","-14.2","","-21.9","","53","","","","32","","25","","16.1","","97.87","","","","-24","","Snow"
"-119.60","49.46","PENTICTON A","1126146","2020-01-13 16:00","2020","01","13","16:00","-14.1","","-21.8","","53","","","","34","","25","","24.1","","97.85","","","","-24","","Snow"
"-119.60","49.46","PENTICTON A","1126146","2020-01-13 17:00","2020","01","13","17:00","-14.4","","-21.7","","54","","","","32","","24","","24.1","","97.84","","","","-24","","Snow"
"-119.60","49.46","PENTICTON A","1126146","2020-01-13 18:00","2020","01","13","18:00","-14.4","","-21.7","","55","","","","32","","28","","24.1","","97.82","","","","-25","","Snow"
"-119.60","49.46","PENTICTON A","1126146","2020-01-13 19:00","2020","01","13","19:00","-14.5","","-21.2","","57","","","","32","","30","","24.1","","97.79","","","","-25","","Snow"
"-119.60","49.46","PENTICTON A","1126146","2020-01-13 20:00","2020","01","13","20:00","-14.4","","-21.4","","56","","","","33","","26","","24.1","","97.76","","","","-25","","Snow"
"-119.60","49.46","PENTICTON A","1126146","2020-01-13 21:00","2020","01","13","21:00","-14.5","","-21.5","","56","","","","33","","29","","24.1","","97.74","","","","-25","","Snow"
"-119.60","49.46","PENTICTON A","1126146","2020-01-13 22:00","2020","01","13","22:00","-14.7","","-21.3","","57","","","","33","","29","","24.1","","97.70","","","","-25","","Snow"
"-119.60","49.46","PENTICTON A","1126146","2020-01-13 23:00","2020","01","13","23:00","-14.6","","-21.3","","57","","","","34","","28","","24.1","","97.69","","","","-25","","Snow"
"-119.60","49.46","PENTICTON A","1126146","2020-01-14 00:00","2020","01","14","00:00","-14.8","","-21.4","","58","","","","34","","30","","24.1","","97.69","","","","-26","","Snow"
"-119.60","49.46","PENTICTON A","1126146","2020-01-14 01:00","2020","01","14","01:00","-14.8","","-21.4","","58","","","","33","","27","","24.1","","97.67","","","","-25","","Snow"
"-119.60","49.46","PENTICTON A","1126146","2020-01-14 02:00","2020","01","14","02:00","-14.9","","-21.3","","59","","","","33","","28","","24.1","","97.66","","","","-26","","Snow"
"-119.60","49.46","PENTICTON A","1126146","2020-01-14 03:00","2020","01","14","03:00","-14.8","","-21.5","","57","","","","33","","29","","24.1","","97.63","","","","-26","","Snow"
"-119.60","49.46","PENTICTON A","1126146","2020-01-14 04:00","2020","01","14","04:00","-15.0","","-21.5","","58","","","","34","","26","","24.1","","97.64","","","","-25","","Snow"
"-119.60","49.46","PENTICTON A","1126146","2020-01-14 05:00","2020","01","14","05:00","-15.1","","-21.0","","61","","","","33","","18","","24.1","","97.62","","","","-24","","Snow"
"-119.60","49.46","PENTICTON A","1126146","2020-01-14 06:00","2020","01","14","06:00","-14.9","","-21.6","","57","","","","32","","26","","24.1","","97.65","","","","-25","","NA"
"-119.60","49.46","PENTICTON A","1126146","2020-01-14 07:00","2020","01","14","07:00","-15.0","","-21.3","","59","","","","33","","27","","24.1","","97.68","","","","-26","","Cloudy"
"-119.60","49.46","PENTICTON A","1126146","2020-01-14 08:00","2020","01","14","08:00","-15.1","","-21.7","","58","","","","33","","26","","24.1","","97.69","","","","-25","","NA"
"-119.60","49.46","PENTICTON A","1126146","2020-01-14 09:00","2020","01","14","09:00","-14.9","","-21.3","","59","","","","32","","26","","24.1","","97.74","","","","-25","","NA"
"-119.60","49.46","PENTICTON A","1126146","2020-01-14 10:00","2020","01","14","10:00","-14.7","","-21.3","","58","","","","33","","24","","24.1","","97.79","","","","-25","","Cloudy"
"-119.60","49.46","PENTICTON A","1126146","2020-01-14 11:00","2020","01","14","11:00","-14.4","","-21.8","","54","","","","35","","27","","24.1","","97.78","","","","-25","","Snow,Blowing Snow"
"-119.60","49.46","PENTICTON A","1126146","2020-01-14 12:00","2020","01","14","12:00","-13.8","","-21.3","","54","","","","33","","28","","24.1","","97.75","","","","-24","","NA"
"-119.60","49.46","PENTICTON A","1126146","2020-01-14 13:00","2020","01","14","13:00","-14.0","","-21.2","","55","","","","33","","22","","24.1","","97.73","","","","-23","","Cloudy"
"-119.60","49.46","PENTICTON A","1126146","2020-01-14 14:00","2020","01","14","14:00","-14.1","","-20.1","","61","","","","34","","21","","16.1","","97.76","","","","-23","","Snow,Blowing Snow"
"-119.60","49.46","PENTICTON A","1126146","2020-01-14 15:00","2020","01","14","15:00","-14.1","","-21.5","","54","","","","33","","25","","24.1","","97.81","","","","-24","","Snow"
"-119.60","49.46","PENTICTON A","1126146","2020-01-14 16:00","2020","01","14","16:00","-14.2","","-21.3","","55","","","","33","","20","","24.1","","97.84","","","","-23","","Mostly Cloudy"
"-119.60","49.46","PENTICTON A","1126146","2020-01-14 17:00","2020","01","14","17:00","-14.3","","-21.2","","56","","","","32","","20","","24.1","","97.89","","","","-23","","NA"
"-119.60","49.46","PENTICTON A","1126146","2020-01-14 18:00","2020","01","14","18:00","-14.7","","-20.7","","61","","","","32","","20","","16.1","","97.93","","","","-24","","Snow"
"-119.60","49.46","PENTICTON A","1126146","2020-01-14 19:00","2020","01","14","19:00","-14.3","","-21.0","","58","","","","32","","18","","19.3","","97.99","","","","-23","","Snow"
"-119.60","49.46","PENTICTON A","1126146","2020-01-14 20:00","2020","01","14","20:00","-14.3","","-21.3","","56","","","","34","","15","","16.1","","98.02","","","","-22","","Snow"
"-119.60","49.46","PENTICTON A","1126146","2020-01-14 21:00","2020","01","14","21:00","-14.5","","-21.4","","56","","","","32","","9","","24.1","","98.08","","","","-20","","NA"
"-119.60","49.46","PENTICTON A","1126146","2020-01-14 22:00","2020","01","14","22:00","-14.5","","-20.5","","61","","","","36","","6","","16.1","","98.16","","","","-19","","Snow"
"-119.60","49.46","PENTICTON A","1126146","2020-01-14 23:00","2020","01","14","23:00","-14.4","","-21.3","","57","","","","33","","7","","16.1","","98.17","","","","-19","","Snow"
"-119.60","49.46","PENTICTON A","1126146","2020-01-15 00:00","2020","01","15","00:00","-14.7","","-18.7","","72","","","","3","","5","","9.7","","98.17","","","","-18","","Snow"
"-119.60","49.46","PENTICTON A","1126146","2020-01-15 01:00","2020","01","15","01:00","-14.9","","-19.0","","72","","","","34","","11","","4.8","","98.15","","","","-21","","Snow"
"-119.60","49.46","PENTICTON A","1126146","2020-01-15 02:00","2020","01","15","02:00","-14.7","","-19.4","","68","","","","32","","5","","4.8","","98.13","","","","-18","","Snow"
"-119.60","49.46","PENTICTON A","1126146","2020-01-15 03:00","2020","01","15","03:00","-15.0","","-18.7","","73","","","","35","","8","","3.2","","98.17","","","","-20","","Snow"
"-119.60","49.46","PENTICTON A","1126146","2020-01-15 04:00","2020","01","15","04:00","-15.1","","-19.0","","73","","","","33","","13","","4.8","","98.16","","","","-22","","Snow"
"-119.60","49.46","PENTICTON A","1126146","2020-01-15 05:00","2020","01","15","05:00","-15.0","","-19.7","","67","","","","32","","14","","12.9","","98.15","","","","-23","","Snow"
"-119.60","49.46","PENTICTON A","1126146","2020-01-15 06:00","2020","01","15","06:00","-14.8","","-20.4","","63","","","","33","","11","","16.1","","98.15","","","","-21","","Snow"
"-119.60","49.46","PENTICTON A","1126146","2020-01-15 07:00","2020","01","15","07:00","-14.7","","-19.9","","65","","","","34","","7","","16.1","","98.15","","","","-19","","Snow"
"-119.60","49.46","PENTICTON A","1126146","2020-01-15 08:00","2020","01","15","08:00","-14.4","","-18.9","","69","","","","36","","5","","24.1","","98.16","","","","-18","","Snow"
"-119.60","49.46","PENTICTON A","1126146","2020-01-15 09:00","2020","01","15","09:00","-14.3","","-19.8","","63","","","","35","","6","","24.1","","98.17","","","","-18","","Snow"
"-119.60","49.46","PENTICTON A","1126146","2020-01-15 10:00","2020","01","15","10:00","-14.1","","-19.4","","65","","","","32","","8","","16.1","","98.18","","","","-19","","Snow"
"-119.60","49.46","PENTICTON A","1126146","2020-01-15 11:00","2020","01","15","11:00","-13.9","","-19.2","","65","","","","35","","9","","12.9","","98.13","","","","-20","","Snow"
"-119.60","49.46","PENTICTON A","1126146","2020-01-15 12:00","2020","01","15","12:00","-13.9","","-18.2","","71","","","","33","","9","","4.8","","98.01","","","","-20","","Snow"
"-119.60","49.46","PENTICTON A","1126146","2020-01-15 13:00","2020","01","15","13:00","-13.8","","-17.8","","72","","","","32","","10","","4.8","","97.88","","","","-20","","Snow"
"-119.60","49.46","PENTICTON A","1126146","2020-01-15 14:00","2020","01","15","14:00","-13.5","","-18.0","","69","","","","33","","9","","8.1","","97.76","","","","-19","","Snow"
"-119.60","49.46","PENTICTON A","1126146","2020-01-15 15:00","2020","01","15","15:00","-13.7","","-17.5","","73","","","","32","","10","","3.2","","97.67","","","","-20","","Snow"
"-119.60","49.46","PENTICTON A","1126146","2020-01-15 16:00","2020","01","15","16:00","-13.6","","-17.4","","73","","","","33","","9","","2.4","","97.56","","","","-19","","Snow"
"-119.60","49.46","PENTICTON A","1126146","2020-01-15 17:00","2020","01","15","17:00","-13.6","","-17.3","","74","","","","32","","8","","2.4","","97.45","","","","-19","","Snow"
"-119.60","49.46","PENTICTON A","1126146","2020-01-15 18:00","2020","01","15","18:00","-13.8","","-16.3","","82","","","","34","","6","","1.6","","97.32","","","","-18","","Snow"
"-119.60","49.46","PENTICTON A","1126146","2020-01-15 19:00","2020","01","15","19:00","-13.8","","-16.3","","82","","","","1","","6","","2.4","","97.19","","","","-18","","Snow"
"-119.60","49.46","PENTICTON A","1126146","2020-01-15 20:00","2020","01","15","20:00","-13.7","","-16.1","","82","","","","34","","5","","3.2","","97.08","","","","-17","","Snow"
"-119.60","49.46","PENTICTON A","1126146","2020-01-15 21:00","2020","01","15","21:00","-13.8","","-16.0","","83","","","","35","","7","","4.0","","97.01","","","","-18","","Snow"
"-119.60","49.46","PENTICTON A","1126146","2020-01-15 22:00","2020","01","15","22:00","-13.4","","-16.0","","81","","","","35","","7","","2.4","","96.96","","","","-18","","Snow"
"-119.60","49.46","PENTICTON A","1126146","2020-01-15 23:00","2020","01","15","23:00","-13.2","","-15.9","","80","","","","2","","10","","2.4","","96.94","","","","-19","","Snow"
"-119.60","49.46","PENTICTON A","1126146","2020-01-16 00:00","2020","01","16","00:00","-12.8","","-15.0","","83","","","","2","","10","","2.4","","96.94","","","","-19","","Snow"
"-119.60","49.46","PENTICTON A","1126146","2020-01-16 01:00","2020","01","16","01:00","-12.4","","-14.5","","84","","","","33","","8","","2.4","","96.86","","","","-17","","Snow"
"-119.60","49.46","PENTICTON A","1126146","2020-01-16 02:00","2020","01","16","02:00","-11.9","","-14.3","","82","","","","1","","9","","4.8","","96.87","","","","-17","","Snow"
"-119.60","49.46","PENTICTON A","1126146","2020-01-16 03:00","2020","01","16","03:00","-11.9","","-14.2","","83","","","","36","","8","","2.4","","96.83","","","","-17","","Snow"
"-119.60","49.46","PENTICTON A","1126146","2020-01-16 04:00","2020","01","16","04:00","-11.4","","-13.7","","84","","","","1","","10","","2.4","","96.75","","","","-17","","Snow"
"-119.60","49.46","PENTICTON A","1126146","2020-01-16 05:00","2020","01","16","05:00","-11.2","","-13.6","","83","","","","35","","9","","8.1","","96.73","","","","-16","","Snow"
"-119.60","49.46","PENTICTON A","1126146","2020-01-16 06:00","2020","01","16","06:00","-10.7","","-13.1","","82","","","","35","","9","","8.1","","96.71","","","","-16","","Snow"
"-119.60","49.46","PENTICTON A","1126146","2020-01-16 07:00","2020","01","16","07:00","-10.6","","-12.7","","85","","","","32","","10","","3.2","","96.72","","","","-16","","Snow"
"-119.60","49.46","PENTICTON A","1126146","2020-01-16 08:00","2020","01","16","08:00","-10.0","","-12.3","","83","","","","33","","10","","4.8","","96.72","","","","-15","","Snow"
"-119.60","49.46","PENTICTON A","1126146","2020-01-16 09:00","2020","01","16","09:00","-9.6","","-11.7","","85","","","","33","","13","","3.2","","96.71","","","","-16","","Snow"
"-119.60","49.46","PENTICTON A","1126146","2020-01-16 10:00","2020","01","16","10:00","-8.8","","-11.0","","84","","","","32","","8","","16.1","","96.75","","","","-13","","Snow"
"-119.60","49.46","PENTICTON A","1126146","2020-01-16 11:00","2020","01","16","11:00","-7.8","","-10.9","","79","","","","35","","13","","16.1","","96.69","","","","-14","","Snow"
"-119.60","49.46","PENTICTON A","1126146","2020-01-16 12:00","2020","01","16","12:00","-7.7","","-10.1","","83","","","","35","","10","","3.2","","96.68","","","","-13","","Snow"
"-119.60","49.46","PENTICTON A","1126146","2020-01-16 13:00","2020","01","16","13:00","-7.6","","-9.7","","85","","","","33","","9","","1.6","","96.63","","","","-12","","Snow"
"-119.60","49.46","PENTICTON A","1126146","2020-01-16 14:00","2020","01","16","14:00","-7.0","","-9.0","","86","","","","35","","9","","4.0","","96.55","","","","-11","","Snow"
"-119.60","49.46","PENTICTON A","1126146","2020-01-16 15:00","2020","01","16","15:00","-6.7","","-9.0","","84","","","","32","","8","","9.7","","96.58","","","","-11","","Snow"
"-119.60","49.46","PENTICTON A","1126146","2020-01-16 16:00","2020","01","16","16:00","-6.6","","-9.3","","81","","","","35","","7","","16.1","","96.62","","","","-10","","Snow"
"-119.60","49.46","PENTICTON A","1126146","2020-01-16 17:00","2020","01","16","17:00","-6.6","","-9.1","","82","","","","2","","4","","9.7","","96.64","","","","-9","","Snow"
"-119.60","49.46","PENTICTON A","1126146","2020-01-16 18:00","2020","01","16","18:00","-7.5","","-9.2","","87","","","","4","","4","","12.9","","96.66","","","","-10","","Snow"
"-119.60","49.46","PENTICTON A","1126146","2020-01-16 19:00","2020","01","16","19:00","-8.5","","-10.1","","88","","","","4","","4","","16.1","","96.70","","","","-11","","Cloudy"
"-119.60","49.46","PENTICTON A","1126146","2020-01-16 20:00","2020","01","16","20:00","-9.3","","-11.3","","86","","","","3","","7","","16.1","","96.77","","","","-13","","NA"
"-119.60","49.46","PENTICTON A","1126146","2020-01-16 21:00","2020","01","16","21:00","-10.0","","-11.8","","87","","","","8","","9","","16.1","","96.82","","","","-15","","NA"
"-119.60","49.46","PENTICTON A","1126146","2020-01-16 22:00","2020","01","16","22:00","-10.3","","-12.6","","83","","","","36","","4","","16.1","","96.88","","","","-13","","Mostly Cloudy"
"-119.60","49.46","PENTICTON A","1126146","2020-01-16 23:00","2020","01","16","23:00","-10.0","","-12.3","","83","","","","36","","2","","16.1","","96.93","","","","-11","","NA"
"-119.60","49.46","PENTICTON A","1126146","2020-01-17 00:00","2020","01","17","00:00","-9.2","","-11.5","","84","","","","36","","2","","24.1","","97.05","","","","-10","","NA"
"-119.60","49.46","PENTICTON A","1126146","2020-01-17 01:00","2020","01","17","01:00","-8.3","","-10.5","","85","","","","33","","3","","24.1","","97.14","","","","-10","","Cloudy"
"-119.60","49.46","PENTICTON A","1126146","2020-01-17 02:00","2020","01","17","02:00","-8.5","","-10.6","","85","","","","35","","7","","24.1","","97.23","","","","-12","","NA"
"-119.60","49.46","PENTICTON A","1126146","2020-01-17 03:00","2020","01","17","03:00","-8.4","","-10.6","","84","","","","35","","8","","24.1","","97.37","","","","-13","","NA"
"-119.60","49.46","PENTICTON A","1126146","2020-01-17 04:00","2020","01","17","04:00","-8.4","","-10.4","","86","","","","36","","3","","24.1","","97.45","","","","-10","","Cloudy"
"-119.60","49.46","PENTICTON A","1126146","2020-01-17 05:00","2020","01","17","05:00","-8.2","","-10.2","","86","","","","6","","4","","24.1","","97.56","","","","-10","","NA"
"-119.60","49.46","PENTICTON A","1126146","2020-01-17 06:00","2020","01","17","06:00","-9.1","","-11.4","","84","","","","36","","2","","24.1","","97.68","","","","-10","","NA"
"-119.60","49.46","PENTICTON A","1126146","2020-01-17 07:00","2020","01","17","07:00","-9.0","","-11.1","","85","","","","36","","6","","24.1","","97.83","","","","-12","","Cloudy"
"-119.60","49.46","PENTICTON A","1126146","2020-01-17 08:00","2020","01","17","08:00","-9.2","","-11.2","","85","","","","2","","5","","24.1","","97.93","","","","-12","","NA"
"-119.60","49.46","PENTICTON A","1126146","2020-01-17 09:00","2020","01","17","09:00","-8.5","","-10.7","","84","","","","34","","4","","24.1","","98.07","","","","-11","","NA"
"-119.60","49.46","PENTICTON A","1126146","2020-01-17 10:00","2020","01","17","10:00","-6.8","","-8.8","","86","","","","19","","8","","19.3","","98.19","","","","-11","","Cloudy"
"-119.60","49.46","PENTICTON A","1126146","2020-01-17 11:00","2020","01","17","11:00","-6.3","","-8.9","","82","","","","19","","3","","19.3","","98.27","","","","-8","","NA"
"-119.60","49.46","PENTICTON A","1126146","2020-01-17 12:00","2020","01","17","12:00","-5.7","","-8.8","","79","","","","36","","3","","24.1","","98.28","","","","-7","","NA"
"-119.60","49.46","PENTICTON A","1126146","2020-01-17 13:00","2020","01","17","13:00","-5.4","","-8.3","","80","","","","18","","7","","19.3","","98.31","","","","-9","","Cloudy"
"-119.60","49.46","PENTICTON A","1126146","2020-01-17 14:00","2020","01","17","14:00","-4.9","","-8.1","","78","","","","17","","4","","19.3","","98.35","","","","-7","","NA"
"-119.60","49.46","PENTICTON A","1126146","2020-01-17 15:00","2020","01","17","15:00","-4.7","","-7.8","","79","","","","17","","4","","19.3","","98.40","","","","-6","","NA"
"-119.60","49.46","PENTICTON A","1126146","2020-01-17 16:00","2020","01","17","16:00","-4.5","","-7.6","","79","","","","16","","4","","19.3","","98.45","","","","-6","","Mostly Cloudy"
"-119.60","49.46","PENTICTON A","1126146","2020-01-17 17:00","2020","01","17","17:00","-4.6","","-7.5","","80","","","","17","","10","","19.3","","98.50","","","","-9","","NA"
"-119.60","49.46","PENTICTON A","1126146","2020-01-17 18:00","2020","01","17","18:00","-4.8","","-7.4","","82","","","","36","","3","","24.1","","98.51","","","","-6","","NA"
"-119.60","49.46","PENTICTON A","1126146","2020-01-17 19:00","2020","01","17","19:00","-4.7","","-7.2","","83","","","","18","","13","","24.1","","98.55","","","","-10","","Cloudy"
"-119.60","49.46","PENTICTON A","1126146","2020-01-17 20:00","2020","01","17","20:00","-5.0","","-7.7","","81","","","","16","","10","","24.1","","98.54","","","","-9","","NA"
"-119.60","49.46","PENTICTON A","1126146","2020-01-17 21:00","2020","01","17","21:00","-5.1","","-7.8","","82","","","","18","","14","","24.1","","98.56","","","","-10","","NA"
"-119.60","49.46","PENTICTON A","1126146","2020-01-17 22:00","2020","01","17","22:00","-5.0","","-7.6","","82","","","","17","","11","","24.1","","98.58","","","","-10","","Cloudy"
"-119.60","49.46","PENTICTON A","1126146","2020-01-17 23:00","2020","01","17","23:00","-5.3","","-7.9","","82","","","","17","","14","","16.1","","98.63","","","","-11","","NA"
"-119.60","49.46","PENTICTON A","1126146","2020-01-18 00:00","2020","01","18","00:00","-5.5","","-7.9","","83","","","","18","","19","","16.1","","98.63","","","","-12","","Snow"
"-119.60","49.46","PENTICTON A","1126146","2020-01-18 01:00","2020","01","18","01:00","-5.7","","-8.1","","83","","","","19","","14","","16.1","","98.57","","","","-11","","Snow"
"-119.60","49.46","PENTICTON A","1126146","2020-01-18 02:00","2020","01","18","02:00","-5.5","","-7.6","","85","","","","17","","12","","11.3","","98.58","","","","-10","","Snow"
"-119.60","49.46","PENTICTON A","1126146","2020-01-18 03:00","2020","01","18","03:00","-5.7","","-7.5","","87","","","","17","","7","","16.1","","98.53","","","","-9","","Snow"
"-119.60","49.46","PENTICTON A","1126146","2020-01-18 04:00","2020","01","18","04:00","-5.4","","-7.5","","86","","","","18","","8","","16.1","","98.51","","","","-9","","Snow"
"-119.60","49.46","PENTICTON A","1126146","2020-01-18 05:00","2020","01","18","05:00","-5.4","","-7.8","","83","","","","18","","9","","6.4","","98.50","","","","-9","","Snow"
"-119.60","49.46","PENTICTON A","1126146","2020-01-18 06:00","2020","01","18","06:00","-5.6","","-7.3","","88","","","","17","","11","","4.8","","98.43","","","","-10","","Snow"
"-119.60","49.46","PENTICTON A","1126146","2020-01-18 07:00","2020","01","18","07:00","-5.5","","-7.7","","85","","","","17","","9","","11.3","","98.39","","","","-10","","Snow"
"-119.60","49.46","PENTICTON A","1126146","2020-01-18 08:00","2020","01","18","08:00","-5.6","","-7.7","","85","","","","36","","2","","24.1","","98.40","","","","-7","","Snow"
"-119.60","49.46","PENTICTON A","1126146","2020-01-18 09:00","2020","01","18","09:00","-5.5","","-7.5","","86","","","","22","","6","","19.3","","98.40","","","","-8","","Snow"
"-119.60","49.46","PENTICTON A","1126146","2020-01-18 10:00","2020","01","18","10:00","-5.2","","-7.4","","85","","","","20","","5","","19.3","","98.44","","","","-7","","Snow"
"-119.60","49.46","PENTICTON A","1126146","2020-01-18 11:00","2020","01","18","11:00","-4.8","","-7.4","","82","","","","36","","1","","19.3","","98.46","","","","-5","","Snow"
"-119.60","49.46","PENTICTON A","1126146","2020-01-18 12:00","2020","01","18","12:00","-4.4","","-7.3","","80","","","","36","","1","","19.3","","98.42","","","","-5","","NA"
"-119.60","49.46","PENTICTON A","1126146","2020-01-18 13:00","2020","01","18","13:00","-3.8","","-6.5","","81","","","","1","","7","","24.1","","98.41","","","","-7","","Cloudy"
"-119.60","49.46","PENTICTON A","1126146","2020-01-18 14:00","2020","01","18","14:00","-3.2","","-6.3","","80","","","","0","","1","","24.1","","98.42","","","","-4","","NA"
"-119.60","49.46","PENTICTON A","1126146","2020-01-18 15:00","2020","01","18","15:00","-2.8","","-5.5","","82","","","","36","","1","","","M","98.49","","","","-3","","NA"
"-119.60","49.46","PENTICTON A","1126146","2020-01-18 16:00","2020","01","18","16:00","-2.3","","-4.6","","84","","","","35","","6","","24.1","","98.54","","","","-5","","Cloudy"
"-119.60","49.46","PENTICTON A","1126146","2020-01-18 17:00","2020","01","18","17:00","-1.9","","-3.8","","87","","","","33","","9","","8.1","","98.63","","","","-5","","Snow"
"-119.60","49.46","PENTICTON A","1126146","2020-01-18 18:00","2020","01","18","18:00","-0.8","","-2.0","","92","","","","2","","6","","8.1","","98.63","","","","-3","","Snow"
"-119.60","49.46","PENTICTON A","1126146","2020-01-18 19:00","2020","01","18","19:00","0.4","","-1.1","","89","","","","15","","21","","12.9","","98.63","","","","","","Snow"
"-119.60","49.46","PENTICTON A","1126146","2020-01-18 20:00","2020","01","18","20:00","0.5","","-1.1","","89","","","","14","","19","","16.1","","98.71","","","","","","Snow"
"-119.60","49.46","PENTICTON A","1126146","2020-01-18 21:00","2020","01","18","21:00","0.6","","-1.5","","86","","","","15","","23","","24.1","","98.71","","","","","","NA"
"-119.60","49.46","PENTICTON A","1126146","2020-01-18 22:00","2020","01","18","22:00","0.6","","-1.5","","86","","","","13","","23","","24.1","","98.73","","","","","","Cloudy"
"-119.60","49.46","PENTICTON A","1126146","2020-01-18 23:00","2020","01","18","23:00","0.8","","-1.4","","86","","","","14","","22","","24.1","","98.75","","","","","","NA"
"-119.60","49.46","PENTICTON A","1126146","2020-01-19 00:00","2020","01","19","00:00","0.8","","-1.8","","83","","","","14","","29","","24.1","","98.72","","","","","","NA"
"-119.60","49.46","PENTICTON A","1126146","2020-01-19 01:00","2020","01","19","01:00","1.6","","-1.2","","82","","","","15","","20","","24.1","","98.76","","","","","","Cloudy"
"-119.60","49.46","PENTICTON A","1126146","2020-01-19 02:00","2020","01","19","02:00","1.7","","-1.2","","81","","","","15","","19","","24.1","","98.77","","","","","","NA"
"-119.60","49.46","PENTICTON A","1126146","2020-01-19 03:00","2020","01","19","03:00","1.6","","-0.9","","84","","","","15","","22","","24.1","","98.79","","","","","","NA"
"-119.60","49.46","PENTICTON A","1126146","2020-01-19 04:00","2020","01","19","04:00","1.6","","-0.5","","86","","","","14","","21","","24.1","","98.77","","","","","","Cloudy"
"-119.60","49.46","PENTICTON A","1126146","2020-01-19 05:00","2020","01","19","05:00","1.8","","-0.4","","85","","","","16","","23","","24.1","","98.75","","","","","","NA"
"-119.60","49.46","PENTICTON A","1126146","2020-01-19 06:00","2020","01","19","06:00","1.9","","-0.5","","84","","","","16","","21","","24.1","","98.74","","","","","","NA"
"-119.60","49.46","PENTICTON A","1126146","2020-01-19 07:00","2020","01","19","07:00","2.0","","-0.3","","85","","","","16","","23","","24.1","","98.74","","","","","","Rain"
"-119.60","49.46","PENTICTON A","1126146","2020-01-19 08:00","2020","01","19","08:00","2.2","","0.0","","86","","","","16","","25","","24.1","","98.74","","","","","","NA"
"-119.60","49.46","PENTICTON A","1126146","2020-01-19 09:00","2020","01","19","09:00","1.9","","0.2","","89","","","","14","","19","","24.1","","98.73","","","","","","Rain"
"-119.60","49.46","PENTICTON A","1126146","2020-01-19 10:00","2020","01","19","10:00","2.9","","0.3","","83","","","","15","","21","","24.1","","98.75","","","","","","Cloudy"
"-119.60","49.46","PENTICTON A","1126146","2020-01-19 11:00","2020","01","19","11:00","2.8","","0.6","","86","","","","16","","21","","24.1","","98.74","","","","","","Rain"
"-119.60","49.46","PENTICTON A","1126146","2020-01-19 12:00","2020","01","19","12:00","3.1","","0.9","","86","","","","16","","18","","24.1","","98.70","","","","","","Rain"
"-119.60","49.46","PENTICTON A","1126146","2020-01-19 13:00","2020","01","19","13:00","3.2","","1.2","","87","","","","15","","16","","16.1","","98.62","","","","","","Rain"
"-119.60","49.46","PENTICTON A","1126146","2020-01-19 14:00","2020","01","19","14:00","3.6","","1.1","","84","","","","16","","19","","24.1","","98.59","","","","","","NA"
"-119.60","49.46","PENTICTON A","1126146","2020-01-19 15:00","2020","01","19","15:00","3.2","","1.0","","85","","","","18","","21","","24.1","","98.57","","","","","","NA"
"-119.60","49.46","PENTICTON A","1126146","2020-01-19 16:00","2020","01","19","16:00","3.7","","0.8","","82","","","","16","","21","","24.1","","98.56","","","","","","Cloudy"
"-119.60","49.46","PENTICTON A","1126146","2020-01-19 17:00","2020","01","19","17:00","3.5","","0.9","","83","","","","17","","16","","24.1","","98.54","","","","","","NA"
"-119.60","49.46","PENTICTON A","1126146","2020-01-19 18:00","2020","01","19","18:00","3.4","","1.0","","85","","","","17","","16","","24.1","","98.53","","","","","","NA"
"-119.60","49.46","PENTICTON A","1126146","2020-01-19 19:00","2020","01","19","19:00","3.2","","1.4","","87","","","","15","","18","","24.1","","98.46","","","","","","Mostly Cloudy"
"-119.60","49.46","PENTICTON A","1126146","2020-01-19 20:00","2020","01","19","20:00","3.3","","1.4","","87","","","","14","","18","","24.1","","98.40","","","","","","NA"
"-119.60","49.46","PENTICTON A","1126146","2020-01-19 21:00","2020","01","19","21:00","3.8","","1.6","","86","","","","15","","21","","24.1","","98.31","","","","","","NA"
"-119.60","49.46","PENTICTON A","1126146","2020-01-19 22:00","2020","01","19","22:00","3.2","","1.4","","88","","","","14","","22","","24.1","","98.24","","","","","","Cloudy"
"-119.60","49.46","PENTICTON A","1126146","2020-01-19 23:00","2020","01","19","23:00","3.4","","1.6","","88","","","","15","","20","","24.1","","98.15","","","","","","NA"
"-119.60","49.46","PENTICTON A","1126146","2020-01-20 00:00","2020","01","20","00:00","3.3","","1.3","","87","","","","36","","2","","24.1","","98.07","","","","","","NA"
"-119.60","49.46","PENTICTON A","1126146","2020-01-20 01:00","2020","01","20","01:00","2.5","","0.9","","89","","","","4","","4","","24.1","","98.02","","","","","","Mostly Cloudy"
"-119.60","49.46","PENTICTON A","1126146","2020-01-20 02:00","2020","01","20","02:00","1.3","","0.4","","93","","","","35","","4","","24.1","","97.97","","","","","","NA"
"-119.60","49.46","PENTICTON A","1126146","2020-01-20 03:00","2020","01","20","03:00","1.6","","0.6","","94","","","","6","","4","","24.1","","97.89","","","","","","NA"
"-119.60","49.46","PENTICTON A","1126146","2020-01-20 04:00","2020","01","20","04:00","1.4","","0.8","","96","","","","34","","5","","24.1","","97.86","","","","","","Cloudy"
"-119.60","49.46","PENTICTON A","1126146","2020-01-20 05:00","2020","01","20","05:00","1.6","","1.0","","96","","","","8","","4","","24.1","","97.78","","","","","","NA"
"-119.60","49.46","PENTICTON A","1126146","2020-01-20 06:00","2020","01","20","06:00","2.5","","0.7","","88","","","","19","","7","","24.1","","97.73","","","","","","NA"
"-119.60","49.46","PENTICTON A","1126146","2020-01-20 07:00","2020","01","20","07:00","2.8","","0.4","","84","","","","29","","9","","24.1","","97.71","","","","","","Mostly Cloudy"
"-119.60","49.46","PENTICTON A","1126146","2020-01-20 08:00","2020","01","20","08:00","3.3","","0.4","","82","","","","15","","19","","24.1","","97.64","","","","","","NA"
"-119.60","49.46","PENTICTON A","1126146","2020-01-20 09:00","2020","01","20","09:00","2.9","","0.1","","82","","","","15","","15","","24.1","","97.60","","","","","","NA"
"-119.60","49.46","PENTICTON A","1126146","2020-01-20 10:00","2020","01","20","10:00","2.9","","0.1","","82","","","","21","","10","","24.1","","97.64","","","","","","Cloudy"
"-119.60","49.46","PENTICTON A","1126146","2020-01-20 11:00","2020","01","20","11:00","3.3","","0.3","","81","","","","15","","17","","24.1","","97.61","","","","","","NA"
"-119.60","49.46","PENTICTON A","1126146","2020-01-20 12:00","2020","01","20","12:00","3.9","","0.3","","77","","","","16","","22","","24.1","","97.53","","","","","","NA"
"-119.60","49.46","PENTICTON A","1126146","2020-01-20 13:00","2020","01","20","13:00","4.5","","0.4","","75","","","","15","","21","","24.1","","97.45","","","","","","Cloudy"
"-119.60","49.46","PENTICTON A","1126146","2020-01-20 14:00","2020","01","20","14:00","5.1","","0.4","","71","","","","17","","22","","24.1","","97.43","","","","","","NA"
"-119.60","49.46","PENTICTON A","1126146","2020-01-20 15:00","2020","01","20","15:00","4.6","","0.7","","76","","","","18","","21","","24.1","","97.39","","","","","","NA"
"-119.60","49.46","PENTICTON A","1126146","2020-01-20 16:00","2020","01","20","16:00","4.5","","0.2","","74","","","","15","","21","","24.1","","97.35","","","","","","Mostly Cloudy"
"-119.60","49.46","PENTICTON A","1126146","2020-01-20 17:00","2020","01","20","17:00","4.2","","0.2","","75","","","","18","","14","","24.1","","97.34","","","","","","NA"
"-119.60","49.46","PENTICTON A","1126146","2020-01-20 18:00","2020","01","20","18:00","4.0","","0.2","","76","","","","17","","16","","24.1","","97.34","","","","","","NA"
"-119.60","49.46","PENTICTON A","1126146","2020-01-20 19:00","2020","01","20","19:00","4.2","","0.1","","75","","","","17","","15","","24.1","","97.31","","","","","","Mostly Cloudy"
"-119.60","49.46","PENTICTON A","1126146","2020-01-20 20:00","2020","01","20","20:00","3.8","","0.3","","78","","","","15","","18","","24.1","","97.25","","","","","","NA"
"-119.60","49.46","PENTICTON A","1126146","2020-01-20 21:00","2020","01","20","21:00","3.8","","0.1","","77","","","","18","","18","","24.1","","97.22","","","","","","NA"
"-119.60","49.46","PENTICTON A","1126146","2020-01-20 22:00","2020","01","20","22:00","3.5","","0.0","","78","","","","18","","17","","24.1","","97.19","","","","","","Mostly Cloudy"
"-119.60","49.46","PENTICTON A","1126146","2020-01-20 23:00","2020","01","20","23:00","3.5","","0.1","","78","","","","18","","10","","24.1","","97.16","","","","","","NA"
"-119.60","49.46","PENTICTON A","1126146","2020-01-21 00:00","2020","01","21","00:00","3.3","","-0.1","","79","","","","16","","19","","24.1","","97.10","","","","","","NA"
"-119.60","49.46","PENTICTON A","1126146","2020-01-21 01:00","2020","01","21","01:00","3.2","","-0.1","","79","","","","18","","16","","24.1","","97.05","","","","","","Mostly Cloudy"
"-119.60","49.46","PENTICTON A","1126146","2020-01-21 02:00","2020","01","21","02:00","2.6","","-0.3","","81","","","","20","","15","","24.1","","97.03","","","","","","NA"
"-119.60","49.46","PENTICTON A","1126146","2020-01-21 03:00","2020","01","21","03:00","2.2","","-0.5","","82","","","","17","","3","","24.1","","96.97","","","","","","NA"
"-119.60","49.46","PENTICTON A","1126146","2020-01-21 04:00","2020","01","21","04:00","0.2","","-1.4","","89","","","","15","","3","","24.1","","96.90","","","","","","Mostly Cloudy"
"-119.60","49.46","PENTICTON A","1126146","2020-01-21 05:00","2020","01","21","05:00","1.0","","-0.2","","92","","","","20","","11","","24.1","","96.86","","","","","","NA"
"-119.60","49.46","PENTICTON A","1126146","2020-01-21 06:00","2020","01","21","06:00","1.7","","-0.6","","85","","","","19","","9","","24.1","","96.76","","","","","","NA"
"-119.60","49.46","PENTICTON A","1126146","2020-01-21 07:00","2020","01","21","07:00","1.4","","-0.4","","88","","","","10","","10","","24.1","","96.68","","","","","","Mostly Cloudy"
"-119.60","49.46","PENTICTON A","1126146","2020-01-21 08:00","2020","01","21","08:00","1.5","","-0.3","","88","","","","18","","7","","24.1","","96.68","","","","","","NA"
"-119.60","49.46","PENTICTON A","1126146","2020-01-21 09:00","2020","01","21","09:00","1.7","","-0.2","","87","","","","12","","5","","19.3","","96.62","","","","","","Rain"
"-119.60","49.46","PENTICTON A","1126146","2020-01-21 10:00","2020","01","21","10:00","1.2","","0.0","","91","","","","13","","4","","6.4","","96.64","","","","","","Rain,Snow,Fog"
"-119.60","49.46","PENTICTON A","1126146","2020-01-21 11:00","2020","01","21","11:00","1.6","","0.8","","94","","","","14","","18","","16.1","","96.59","","","","","","Rain,Snow"
"-119.60","49.46","PENTICTON A","1126146","2020-01-21 12:00","2020","01","21","12:00","2.0","","0.9","","93","","","","15","","19","","24.1","","96.57","","","","","","Rain"
"-119.60","49.46","PENTICTON A","1126146","2020-01-21 13:00","2020","01","21","13:00","2.4","","1.1","","91","","","","15","","23","","24.1","","96.56","","","","","","Rain"
"-119.60","49.46","PENTICTON A","1126146","2020-01-21 14:00","2020","01","21","14:00","2.9","","1.3","","89","","","","15","","21","","24.1","","96.51","","","","","","NA"
"-119.60","49.46","PENTICTON A","1126146","2020-01-21 15:00","2020","01","21","15:00","3.5","","1.3","","85","","","","17","","28","","24.1","","96.57","","","","","","NA"
"-119.60","49.46","PENTICTON A","1126146","2020-01-21 16:00","2020","01","21","16:00","3.4","","1.3","","86","","","","17","","23","","24.1","","96.60","","","","","","Mostly Cloudy"
"-119.60","49.46","PENTICTON A","1126146","2020-01-21 17:00","2020","01","21","17:00","4.0","","1.0","","81","","","","18","","36","","24.1","","96.69","","","","","","NA"
"-119.60","49.46","PENTICTON A","1126146","2020-01-21 18:00","2020","01","21","18:00","4.1","","0.7","","78","","","","18","","37","","24.1","","96.73","","","","","","NA"
"-119.60","49.46","PENTICTON A","1126146","2020-01-21 19:00","2020","01","21","19:00","3.8","","0.5","","79","","","","18","","25","","24.1","","96.80","","","","","","Clear"
"-119.60","49.46","PENTICTON A","1126146","2020-01-21 20:00","2020","01","21","20:00","3.8","","0.7","","80","","","","18","","24","","24.1","","96.84","","","","","","NA"
"-119.60","49.46","PENTICTON A","1126146","2020-01-21 21:00","2020","01","21","21:00","3.7","","0.5","","80","","","","19","","33","","24.1","","96.88","","","","","","NA"
"-119.60","49.46","PENTICTON A","1126146","2020-01-21 22:00","2020","01","21","22:00","3.5","","0.5","","81","","","","16","","19","","24.1","","96.93","","","","","","Cloudy"
"-119.60","49.46","PENTICTON A","1126146","2020-01-21 23:00","2020","01","21","23:00","3.5","","0.3","","80","","","","18","","29","","24.1","","96.98","","","","","","NA"
"-119.60","49.46","PENTICTON A","1126146","2020-01-22 00:00","2020","01","22","00:00","3.5","","0.5","","81","","","","18","","25","","24.1","","97.01","","","","","","NA"
"-119.60","49.46","PENTICTON A","1126146","2020-01-22 01:00","2020","01","22","01:00","3.1","","0.9","","86","","","","18","","22","","24.1","","97.07","","","","","","Cloudy"
"-119.60","49.46","PENTICTON A","1126146","2020-01-22 02:00","2020","01","22","02:00","3.3","","0.9","","84","","","","16","","14","","24.1","","97.12","","","","","","NA"
"-119.60","49.46","PENTICTON A","1126146","2020-01-22 03:00","2020","01","22","03:00","3.6","","0.7","","81","","","","17","","18","","24.1","","97.19","","","","","","NA"
"-119.60","49.46","PENTICTON A","1126146","2020-01-22 04:00","2020","01","22","04:00","3.3","","1.1","","86","","","","17","","20","","16.1","","97.22","","","","","","Rain"
"-119.60","49.46","PENTICTON A","1126146","2020-01-22 05:00","2020","01","22","05:00","3.3","","0.9","","84","","","","17","","15","","24.1","","97.27","","","","","","Rain"
"-119.60","49.46","PENTICTON A","1126146","2020-01-22 06:00","2020","01","22","06:00","3.7","","0.6","","80","","","","17","","22","","24.1","","97.34","","","","","","NA"
"-119.60","49.46","PENTICTON A","1126146","2020-01-22 07:00","2020","01","22","07:00","3.1","","0.4","","82","","","","17","","22","","24.1","","97.41","","","","","","Mostly Cloudy"
"-119.60","49.46","PENTICTON A","1126146","2020-01-22 08:00","2020","01","22","08:00","3.0","","0.5","","83","","","","17","","15","","24.1","","97.48","","","","","","NA"
"-119.60","49.46","PENTICTON A","1126146","2020-01-22 09:00","2020","01","22","09:00","3.5","","0.3","","80","","","","17","","19","","24.1","","97.57","","","","","","NA"
"-119.60","49.46","PENTICTON A","1126146","2020-01-22 10:00","2020","01","22","10:00","4.1","","0.8","","79","","","","18","","23","","24.1","","97.59","","","","","","Mostly Cloudy"
"-119.60","49.46","PENTICTON A","1126146","2020-01-22 11:00","2020","01","22","11:00","4.1","","0.3","","76","","","","17","","23","","24.1","","97.63","","","","","","NA"
"-119.60","49.46","PENTICTON A","1126146","2020-01-22 12:00","2020","01","22","12:00","4.3","","0.1","","74","","","","16","","27","","24.1","","97.62","","","","","","NA"
"-119.60","49.46","PENTICTON A","1126146","2020-01-22 13:00","2020","01","22","13:00","4.3","","-0.2","","73","","","","17","","25","","24.1","","97.60","","","","","","Mostly Cloudy"
"-119.60","49.46","PENTICTON A","1126146","2020-01-22 14:00","2020","01","22","14:00","4.0","","-0.3","","74","","","","17","","23","","24.1","","97.60","","","","","","NA"
"-119.60","49.46","PENTICTON A","1126146","2020-01-22 15:00","2020","01","22","15:00","3.7","","-0.4","","74","","","","17","","22","","24.1","","97.65","","","","","","NA"
"-119.60","49.46","PENTICTON A","1126146","2020-01-22 16:00","2020","01","22","16:00","3.3","","-0.4","","77","","","","17","","20","","24.1","","97.66","","","","","","Cloudy"
"-119.60","49.46","PENTICTON A","1126146","2020-01-22 17:00","2020","01","22","17:00","2.4","","0.3","","86","","","","17","","26","","12.9","","97.71","","","","","","Rain"
"-119.60","49.46","PENTICTON A","1126146","2020-01-22 18:00","2020","01","22","18:00","0.9","","0.2","","95","","","","15","","21","","4.0","","97.74","","","","","","Rain,Snow"
"-119.60","49.46","PENTICTON A","1126146","2020-01-22 19:00","2020","01","22","19:00","1.0","","0.5","","96","","","","14","","21","","6.4","","97.72","","","","","","Rain,Snow"
"-119.60","49.46","PENTICTON A","1126146","2020-01-22 20:00","2020","01","22","20:00","1.4","","0.7","","95","","","","16","","21","","12.9","","97.73","","","","","","Rain"
"-119.60","49.46","PENTICTON A","1126146","2020-01-22 21:00","2020","01","22","21:00","1.8","","0.8","","93","","","","15","","27","","12.9","","97.72","","","","","","NA"
"-119.60","49.46","PENTICTON A","1126146","2020-01-22 22:00","2020","01","22","22:00","1.9","","0.9","","93","","","","15","","21","","19.3","","97.73","","","","","","Cloudy"
"-119.60","49.46","PENTICTON A","1126146","2020-01-22 23:00","2020","01","22","23:00","2.3","","0.9","","90","","","","16","","24","","19.3","","97.74","","","","","","NA"
"-119.60","49.46","PENTICTON A","1126146","2020-01-23 00:00","2020","01","23","00:00","2.4","","1.0","","90","","","","16","","24","","24.1","","97.74","","","","","","NA"
"-119.60","49.46","PENTICTON A","1126146","2020-01-23 01:00","2020","01","23","01:00","2.6","","1.3","","91","","","","15","","27","","24.1","","97.69","","","","","","Cloudy"
"-119.60","49.46","PENTICTON A","1126146","2020-01-23 02:00","2020","01","23","02:00","2.8","","1.4","","91","","","","16","","22","","24.1","","97.68","","","","","","NA"
"-119.60","49.46","PENTICTON A","1126146","2020-01-23 03:00","2020","01","23","03:00","3.2","","1.6","","90","","","","16","","26","","24.1","","97.64","","","","","","NA"
"-119.60","49.46","PENTICTON A","1126146","2020-01-23 04:00","2020","01","23","04:00","3.2","","1.6","","90","","","","14","","21","","24.1","","97.63","","","","","","Cloudy"
"-119.60","49.46","PENTICTON A","1126146","2020-01-23 05:00","2020","01","23","05:00","3.3","","1.6","","89","","","","17","","23","","24.1","","97.59","","","","","","NA"
"-119.60","49.46","PENTICTON A","1126146","2020-01-23 06:00","2020","01","23","06:00","3.6","","1.8","","88","","","","16","","27","","24.1","","97.57","","","","","","Rain"
"-119.60","49.46","PENTICTON A","1126146","2020-01-23 07:00","2020","01","23","07:00","3.7","","2.0","","88","","","","16","","30","","24.1","","97.56","","","","","","Rain"
"-119.60","49.46","PENTICTON A","1126146","2020-01-23 08:00","2020","01","23","08:00","3.6","","2.0","","89","","","","17","","30","","24.1","","97.55","","","","","","NA"
"-119.60","49.46","PENTICTON A","1126146","2020-01-23 09:00","2020","01","23","09:00","3.9","","2.0","","87","","","","16","","26","","19.3","","97.55","","","","","","NA"
"-119.60","49.46","PENTICTON A","1126146","2020-01-23 10:00","2020","01","23","10:00","4.4","","2.5","","87","","","","16","","23","","19.3","","97.64","","","","","","Cloudy"
"-119.60","49.46","PENTICTON A","1126146","2020-01-23 11:00","2020","01","23","11:00","4.6","","2.5","","86","","","","16","","28","","24.1","","97.66","","","","","","NA"
"-119.60","49.46","PENTICTON A","1126146","2020-01-23 12:00","2020","01","23","12:00","4.7","","2.5","","86","","","","15","","29","","24.1","","97.54","","","","","","NA"
"-119.60","49.46","PENTICTON A","1126146","2020-01-23 13:00","2020","01","23","13:00","4.4","","2.9","","90","","","","17","","20","","24.1","","97.51","","","","","","Rain"
"-119.60","49.46","PENTICTON A","1126146","2020-01-23 14:00","2020","01","23","14:00","4.7","","3.0","","89","","","","15","","23","","19.3","","97.45","","","","","","NA"
"-119.60","49.46","PENTICTON A","1126146","2020-01-23 15:00","2020","01","23","15:00","4.8","","3.0","","88","","","","16","","25","","16.1","","97.42","","","","","","NA"
"-119.60","49.46","PENTICTON A","1126146","2020-01-23 16:00","2020","01","23","16:00","4.7","","2.9","","88","","","","15","","26","","24.1","","97.43","","","","","","Cloudy"
"-119.60","49.46","PENTICTON A","1126146","2020-01-23 17:00","2020","01","23","17:00","4.4","","2.9","","90","","","","17","","22","","24.1","","97.40","","","","","","Rain"
"-119.60","49.46","PENTICTON A","1126146","2020-01-23 18:00","2020","01","23","18:00","4.5","","2.7","","88","","","","15","","18","","24.1","","97.37","","","","","","Rain"
"-119.60","49.46","PENTICTON A","1126146","2020-01-23 19:00","2020","01","23","19:00","4.5","","2.6","","88","","","","17","","17","","24.1","","97.36","","","","","","Rain"
"-119.60","49.46","PENTICTON A","1126146","2020-01-23 20:00","2020","01","23","20:00","4.5","","2.6","","88","","","","18","","26","","24.1","","97.33","","","","","","NA"
"-119.60","49.46","PENTICTON A","1126146","2020-01-23 21:00","2020","01","23","21:00","4.3","","2.6","","89","","","","16","","25","","24.1","","97.24","","","","","","NA"
"-119.60","49.46","PENTICTON A","1126146","2020-01-23 22:00","2020","01","23","22:00","4.5","","2.7","","88","","","","15","","21","","24.1","","97.17","","","","","","Cloudy"
"-119.60","49.46","PENTICTON A","1126146","2020-01-23 23:00","2020","01","23","23:00","4.6","","2.7","","88","","","","14","","26","","24.1","","97.15","","","","","","NA"
"-119.60","49.46","PENTICTON A","1126146","2020-01-24 00:00","2020","01","24","00:00","4.8","","2.8","","87","","","","16","","20","","24.1","","97.08","","","","","","NA"
"-119.60","49.46","PENTICTON A","1126146","2020-01-24 01:00","2020","01","24","01:00","4.0","","2.7","","91","","","","15","","12","","24.1","","97.05","","","","","","Cloudy"
"-119.60","49.46","PENTICTON A","1126146","2020-01-24 02:00","2020","01","24","02:00","4.3","","2.9","","91","","","","18","","20","","24.1","","97.03","","","","","","NA"
"-119.60","49.46","PENTICTON A","1126146","2020-01-24 03:00","2020","01","24","03:00","4.0","","2.9","","93","","","","18","","15","","24.1","","97.01","","","","","","Rain"
"-119.60","49.46","PENTICTON A","1126146","2020-01-24 04:00","2020","01","24","04:00","4.1","","3.1","","93","","","","16","","22","","24.1","","96.96","","","","","","Rain"
"-119.60","49.46","PENTICTON A","1126146","2020-01-24 05:00","2020","01","24","05:00","3.5","","2.8","","95","","","","14","","23","","24.1","","96.93","","","","","","Rain"
"-119.60","49.46","PENTICTON A","1126146","2020-01-24 06:00","2020","01","24","06:00","3.6","","3.0","","96","","","","19","","17","","24.1","","96.92","","","","","","Rain"
"-119.60","49.46","PENTICTON A","1126146","2020-01-24 07:00","2020","01","24","07:00","3.7","","3.0","","95","","","","15","","24","","24.1","","96.91","","","","","","Rain"
"-119.60","49.46","PENTICTON A","1126146","2020-01-24 08:00","2020","01","24","08:00","4.0","","3.5","","97","","","","19","","29","","24.1","","96.91","","","","","","Rain"
"-119.60","49.46","PENTICTON A","1126146","2020-01-24 09:00","2020","01","24","09:00","5.2","","4.0","","92","","","","17","","29","","24.1","","96.93","","","","","","NA"
"-119.60","49.46","PENTICTON A","1126146","2020-01-24 10:00","2020","01","24","10:00","4.7","","3.4","","91","","","","16","","25","","24.1","","97.03","","","","","","Mostly Cloudy"
"-119.60","49.46","PENTICTON A","1126146","2020-01-24 11:00","2020","01","24","11:00","5.4","","3.8","","89","","","","17","","28","","24.1","","97.08","","","","","","NA"
"-119.60","49.46","PENTICTON A","1126146","2020-01-24 12:00","2020","01","24","12:00","5.4","","3.4","","87","","","","17","","28","","24.1","","97.04","","","","","","NA"
"-119.60","49.46","PENTICTON A","1126146","2020-01-24 13:00","2020","01","24","13:00","6.1","","3.2","","82","","","","16","","31","","24.1","","97.05","","","","","","Mainly Clear"
"-119.60","49.46","PENTICTON A","1126146","2020-01-24 14:00","2020","01","24","14:00","5.3","","2.9","","84","","","","18","","32","","24.1","","97.07","","","","","","NA"
"-119.60","49.46","PENTICTON A","1126146","2020-01-24 15:00","2020","01","24","15:00","5.2","","2.7","","84","","","","17","","31","","24.1","","97.13","","","","","","NA"
"-119.60","49.46","PENTICTON A","1126146","2020-01-24 16:00","2020","01","24","16:00","4.6","","2.7","","88","","","","20","","26","","24.1","","97.22","","","","","","Mostly Cloudy"
"-119.60","49.46","PENTICTON A","1126146","2020-01-24 17:00","2020","01","24","17:00","4.3","","2.2","","86","","","","18","","25","","24.1","","97.25","","","","","","NA"
"-119.60","49.46","PENTICTON A","1126146","2020-01-24 18:00","2020","01","24","18:00","3.9","","2.1","","88","","","","18","","21","","24.1","","97.29","","","","","","NA"
"-119.60","49.46","PENTICTON A","1126146","2020-01-24 19:00","2020","01","24","19:00","4.1","","2.0","","87","","","","17","","22","","24.1","","97.35","","","","","","Mostly Cloudy"
"-119.60","49.46","PENTICTON A","1126146","2020-01-24 20:00","2020","01","24","20:00","3.7","","2.0","","88","","","","19","","27","","24.1","","97.38","","","","","","NA"
"-119.60","49.46","PENTICTON A","1126146","2020-01-24 21:00","2020","01","24","21:00","4.2","","2.0","","86","","","","18","","27","","24.1","","97.47","","","","","","NA"
"-119.60","49.46","PENTICTON A","1126146","2020-01-24 22:00","2020","01","24","22:00","4.3","","1.7","","83","","","","18","","19","","24.1","","97.52","","","","","","Mostly Cloudy"
"-119.60","49.46","PENTICTON A","1126146","2020-01-24 23:00","2020","01","24","23:00","4.1","","1.8","","85","","","","17","","22","","24.1","","97.55","","","","","","NA"
"-119.60","49.46","PENTICTON A","1126146","2020-01-25 00:00","2020","01","25","00:00","3.3","","1.7","","89","","","","15","","14","","24.1","","97.54","","","","","","NA"
"-119.60","49.46","PENTICTON A","1126146","2020-01-25 01:00","2020","01","25","01:00","3.9","","1.7","","85","","","","18","","22","","24.1","","97.57","","","","","","Mostly Cloudy"
"-119.60","49.46","PENTICTON A","1126146","2020-01-25 02:00","2020","01","25","02:00","3.4","","1.8","","89","","","","15","","15","","24.1","","97.59","","","","","","NA"
"-119.60","49.46","PENTICTON A","1126146","2020-01-25 03:00","2020","01","25","03:00","3.2","","1.7","","90","","","","16","","17","","24.1","","97.57","","","","","","NA"
"-119.60","49.46","PENTICTON A","1126146","2020-01-25 04:00","2020","01","25","04:00","0.7","","-0.3","","93","","","","3","","6","","24.1","","97.54","","","","","","Cloudy"
"-119.60","49.46","PENTICTON A","1126146","2020-01-25 05:00","2020","01","25","05:00","3.1","","1.5","","90","","","","12","","10","","24.1","","97.55","","","","","","NA"
"-119.60","49.46","PENTICTON A","1126146","2020-01-25 06:00","2020","01","25","06:00","2.0","","0.7","","91","","","","1","","7","","24.1","","97.52","","","","","","NA"
"-119.60","49.46","PENTICTON A","1126146","2020-01-25 07:00","2020","01","25","07:00","1.6","","-0.2","","88","","","","2","","5","","24.1","","97.55","","","","","","Mostly Cloudy"
"-119.60","49.46","PENTICTON A","1126146","2020-01-25 08:00","2020","01","25","08:00","1.5","","-0.1","","89","","","","33","","3","","24.1","","97.61","","","","","","NA"
"-119.60","49.46","PENTICTON A","1126146","2020-01-25 09:00","2020","01","25","09:00","2.3","","0.8","","90","","","","12","","5","","24.1","","97.66","","","","","","Rain"
"-119.60","49.46","PENTICTON A","1126146","2020-01-25 10:00","2020","01","25","10:00","2.7","","1.6","","92","","","","36","","1","","24.1","","97.70","","","","","","Rain"
"-119.60","49.46","PENTICTON A","1126146","2020-01-25 11:00","2020","01","25","11:00","2.9","","1.7","","92","","","","22","","5","","24.1","","97.70","","","","","","Rain"
"-119.60","49.46","PENTICTON A","1126146","2020-01-25 12:00","2020","01","25","12:00","2.9","","1.8","","93","","","","19","","4","","24.1","","97.72","","","","","","Rain"
"-119.60","49.46","PENTICTON A","1126146","2020-01-25 13:00","2020","01","25","13:00","3.1","","1.3","","88","","","","21","","4","","24.1","","97.69","","","","","","Rain"
"-119.60","49.46","PENTICTON A","1126146","2020-01-25 14:00","2020","01","25","14:00","3.1","","1.8","","91","","","","16","","5","","24.1","","97.69","","","","","","Rain"
"-119.60","49.46","PENTICTON A","1126146","2020-01-25 15:00","2020","01","25","15:00","2.7","","2.1","","95","","","","18","","4","","12.9","","97.71","","","","","","Rain"
"-119.60","49.46","PENTICTON A","1126146","2020-01-25 16:00","2020","01","25","16:00","2.9","","1.9","","93","","","","36","","3","","24.1","","97.72","","","","","","Cloudy"
"-119.60","49.46","PENTICTON A","1126146","2020-01-25 17:00","2020","01","25","17:00","2.7","","2.0","","95","","","","36","","2","","24.1","","97.76","","","","","","NA"
"-119.60","49.46","PENTICTON A","1126146","2020-01-25 18:00","2020","01","25","18:00","2.5","","1.7","","94","","","","18","","4","","24.1","","97.80","","","","","","NA"
"-119.60","49.46","PENTICTON A","1126146","2020-01-25 19:00","2020","01","25","19:00","2.6","","1.8","","94","","","","22","","9","","24.1","","97.80","","","","","","Cloudy"
"-119.60","49.46","PENTICTON A","1126146","2020-01-25 20:00","2020","01","25","20:00","2.2","","1.6","","96","","","","12","","4","","24.1","","97.75","","","","","","NA"
"-119.60","49.46","PENTICTON A","1126146","2020-01-25 21:00","2020","01","25","21:00","2.0","","1.5","","96","","","","31","","5","","24.1","","97.75","","","","","","NA"
"-119.60","49.46","PENTICTON A","1126146","2020-01-25 22:00","2020","01","25","22:00","1.9","","1.5","","97","","","","8","","3","","24.1","","97.72","","","","","","Cloudy"
"-119.60","49.46","PENTICTON A","1126146","2020-01-25 23:00","2020","01","25","23:00","2.4","","2.0","","97","","","","17","","10","","24.1","","97.73","","","","","","NA"
"-119.60","49.46","PENTICTON A","1126146","2020-01-26 00:00","2020","01","26","00:00","2.2","","1.5","","95","","","","20","","11","","24.1","","97.65","","","","","","NA"
"-119.60","49.46","PENTICTON A","1126146","2020-01-26 01:00","2020","01","26","01:00","2.3","","1.5","","95","","","","17","","16","","24.1","","97.63","","","","","","Cloudy"
"-119.60","49.46","PENTICTON A","1126146","2020-01-26 02:00","2020","01","26","02:00","2.2","","1.5","","95","","","","25","","6","","24.1","","97.58","","","","","","NA"
"-119.60","49.46","PENTICTON A","1126146","2020-01-26 03:00","2020","01","26","03:00","2.0","","1.5","","96","","","","20","","17","","24.1","","97.49","","","","","","NA"
"-119.60","49.46","PENTICTON A","1126146","2020-01-26 04:00","2020","01","26","04:00","1.6","","1.0","","96","","","","8","","4","","24.1","","97.40","","","","","","Cloudy"
"-119.60","49.46","PENTICTON A","1126146","2020-01-26 05:00","2020","01","26","05:00","1.6","","1.2","","97","","","","16","","3","","24.1","","97.33","","","","","","NA"
"-119.60","49.46","PENTICTON A","1126146","2020-01-26 06:00","2020","01","26","06:00","1.6","","1.3","","98","","","","18","","3","","24.1","","97.31","","","","","","Rain"
"-119.60","49.46","PENTICTON A","1126146","2020-01-26 07:00","2020","01","26","07:00","1.8","","1.5","","98","","","","18","","6","","16.1","","97.31","","","","","","Rain"
"-119.60","49.46","PENTICTON A","1126146","2020-01-26 08:00","2020","01","26","08:00","1.8","","1.5","","98","","","","21","","10","","4.8","","97.32","","","","","","Rain,Fog"
"-119.60","49.46","PENTICTON A","1126146","2020-01-26 09:00","2020","01","26","09:00","2.0","","1.7","","98","","","","35","","8","","24.1","","97.30","","","","","","NA"
"-119.60","49.46","PENTICTON A","1126146","2020-01-26 10:00","2020","01","26","10:00","2.8","","2.1","","95","","","","36","","3","","24.1","","97.35","","","","","","Mostly Cloudy"
"-119.60","49.46","PENTICTON A","1126146","2020-01-26 11:00","2020","01","26","11:00","4.4","","2.4","","87","","","","17","","22","","24.1","","97.33","","","","","","NA"
"-119.60","49.46","PENTICTON A","1126146","2020-01-26 12:00","2020","01","26","12:00","4.7","","2.5","","85","","","","18","","22","","24.1","","97.30","","","","","","NA"
"-119.60","49.46","PENTICTON A","1126146","2020-01-26 13:00","2020","01","26","13:00","5.1","","2.4","","83","","","","18","","33","","24.1","","97.30","","","","","","Mostly Cloudy"
"-119.60","49.46","PENTICTON A","1126146","2020-01-26 14:00","2020","01","26","14:00","5.8","","2.5","","80","","","","17","","27","","24.1","","97.31","","","","","","NA"
"-119.60","49.46","PENTICTON A","1126146","2020-01-26 15:00","2020","01","26","15:00","5.5","","2.7","","82","","","","16","","22","","24.1","","97.33","","","","","","NA"
"-119.60","49.46","PENTICTON A","1126146","2020-01-26 16:00","2020","01","26","16:00","5.2","","2.6","","83","","","","16","","21","","24.1","","97.37","","","","","","Mostly Cloudy"
"-119.60","49.46","PENTICTON A","1126146","2020-01-26 17:00","2020","01","26","17:00","5.1","","2.6","","84","","","","16","","19","","24.1","","97.42","","","","","","NA"
"-119.60","49.46","PENTICTON A","1126146","2020-01-26 18:00","2020","01","26","18:00","4.5","","2.6","","87","","","","15","","16","","24.1","","97.46","","","","","","NA"
"-119.60","49.46","PENTICTON A","1126146","2020-01-26 19:00","2020","01","26","19:00","4.3","","2.6","","88","","","","16","","17","","24.1","","97.51","","","","","","Cloudy"
"-119.60","49.46","PENTICTON A","1126146","2020-01-26 20:00","2020","01","26","20:00","4.2","","2.3","","87","","","","16","","18","","24.1","","97.51","","","","","","NA"
"-119.60","49.46","PENTICTON A","1126146","2020-01-26 21:00","2020","01","26","21:00","4.5","","2.6","","87","","","","16","","21","","24.1","","97.55","","","","","","NA"
"-119.60","49.46","PENTICTON A","1126146","2020-01-26 22:00","2020","01","26","22:00","4.5","","2.4","","86","","","","16","","19","","24.1","","97.58","","","","","","Mostly Cloudy"
"-119.60","49.46","PENTICTON A","1126146","2020-01-26 23:00","2020","01","26","23:00","4.4","","2.0","","85","","","","16","","17","","24.1","","97.62","","","","","","NA"
"-119.60","49.46","PENTICTON A","1126146","2020-01-27 00:00","2020","01","27","00:00","4.3","","2.0","","85","","","","16","","17","","24.1","","97.61","","","","","","NA"
"-119.60","49.46","PENTICTON A","1126146","2020-01-27 01:00","2020","01","27","01:00","4.1","","2.0","","86","","","","17","","22","","24.1","","97.59","","","","","","Mostly Cloudy"
"-119.60","49.46","PENTICTON A","1126146","2020-01-27 02:00","2020","01","27","02:00","4.2","","1.7","","84","","","","17","","21","","24.1","","97.59","","","","","","NA"
"-119.60","49.46","PENTICTON A","1126146","2020-01-27 03:00","2020","01","27","03:00","4.1","","1.5","","83","","","","17","","22","","24.1","","97.59","","","","","","NA"
"-119.60","49.46","PENTICTON A","1126146","2020-01-27 04:00","2020","01","27","04:00","4.2","","1.5","","83","","","","18","","25","","24.1","","97.61","","","","","","Cloudy"
"-119.60","49.46","PENTICTON A","1126146","2020-01-27 05:00","2020","01","27","05:00","4.4","","1.4","","81","","","","17","","18","","24.1","","97.66","","","","","","NA"
"-119.60","49.46","PENTICTON A","1126146","2020-01-27 06:00","2020","01","27","06:00","4.2","","1.5","","83","","","","17","","12","","24.1","","97.70","","","","","","NA"
"-119.60","49.46","PENTICTON A","1126146","2020-01-27 07:00","2020","01","27","07:00","3.9","","1.4","","84","","","","18","","16","","24.1","","97.74","","","","","","Mostly Cloudy"
"-119.60","49.46","PENTICTON A","1126146","2020-01-27 08:00","2020","01","27","08:00","3.8","","1.4","","84","","","","17","","15","","24.1","","97.76","","","","","","NA"
"-119.60","49.46","PENTICTON A","1126146","2020-01-27 09:00","2020","01","27","09:00","4.1","","1.8","","85","","","","17","","15","","24.1","","97.81","","","","","","NA"
"-119.60","49.46","PENTICTON A","1126146","2020-01-27 10:00","2020","01","27","10:00","5.5","","2.4","","80","","","","17","","22","","24.1","","97.89","","","","","","Mostly Cloudy"
"-119.60","49.46","PENTICTON A","1126146","2020-01-27 11:00","2020","01","27","11:00","5.7","","2.2","","78","","","","17","","22","","24.1","","97.93","","","","","","NA"
"-119.60","49.46","PENTICTON A","1126146","2020-01-27 12:00","2020","01","27","12:00","6.3","","1.8","","73","","","","16","","24","","24.1","","97.92","","","","","","NA"
"-119.60","49.46","PENTICTON A","1126146","2020-01-27 13:00","2020","01","27","13:00","6.3","","1.3","","70","","","","17","","26","","24.1","","97.88","","","","","","Mainly Clear"
"-119.60","49.46","PENTICTON A","1126146","2020-01-27 14:00","2020","01","27","14:00","5.8","","0.9","","71","","","","17","","26","","24.1","","97.85","","","","","","NA"
"-119.60","49.46","PENTICTON A","1126146","2020-01-27 15:00","2020","01","27","15:00","5.9","","0.7","","69","","","","17","","27","","24.1","","97.85","","","","","","NA"
"-119.60","49.46","PENTICTON A","1126146","2020-01-27 16:00","2020","01","27","16:00","4.6","","0.5","","75","","","","17","","27","","24.1","","97.87","","","","","","Mostly Cloudy"
"-119.60","49.46","PENTICTON A","1126146","2020-01-27 17:00","2020","01","27","17:00","4.0","","0.6","","78","","","","16","","19","","24.1","","97.82","","","","","","NA"
"-119.60","49.46","PENTICTON A","1126146","2020-01-27 18:00","2020","01","27","18:00","3.7","","0.6","","80","","","","17","","20","","24.1","","97.83","","","","","","NA"
"-119.60","49.46","PENTICTON A","1126146","2020-01-27 19:00","2020","01","27","19:00","3.7","","0.3","","79","","","","18","","23","","24.1","","97.73","","","","","","Cloudy"
"-119.60","49.46","PENTICTON A","1126146","2020-01-27 20:00","2020","01","27","20:00","3.8","","0.1","","77","","","","17","","18","","24.1","","97.66","","","","","","NA"
"-119.60","49.46","PENTICTON A","1126146","2020-01-27 21:00","2020","01","27","21:00","3.4","","1.0","","84","","","","19","","32","","24.1","","97.64","","","","","","Rain"
"-119.60","49.46","PENTICTON A","1126146","2020-01-27 22:00","2020","01","27","22:00","3.6","","1.2","","85","","","","15","","16","","24.1","","97.59","","","","","","Rain"
"-119.60","49.46","PENTICTON A","1126146","2020-01-27 23:00","2020","01","27","23:00","3.0","","1.5","","90","","","","16","","19","","12.9","","97.54","","","","","","Rain"
"-119.60","49.46","PENTICTON A","1126146","2020-01-28 00:00","2020","01","28","00:00","2.7","","1.6","","92","","","","13","","16","","12.9","","97.48","","","","","","Rain"
"-119.60","49.46","PENTICTON A","1126146","2020-01-28 01:00","2020","01","28","01:00","2.7","","1.7","","93","","","","16","","19","","16.1","","97.47","","","","","","Rain"
"-119.60","49.46","PENTICTON A","1126146","2020-01-28 02:00","2020","01","28","02:00","2.6","","1.5","","92","","","","14","","20","","24.1","","97.38","","","","","","Rain"
"-119.60","49.46","PENTICTON A","1126146","2020-01-28 03:00","2020","01","28","03:00","2.8","","1.5","","91","","","","15","","25","","24.1","","97.31","","","","","","NA"
"-119.60","49.46","PENTICTON A","1126146","2020-01-28 04:00","2020","01","28","04:00","3.3","","1.4","","88","","","","15","","22","","24.1","","97.32","","","","","","Cloudy"
"-119.60","49.46","PENTICTON A","1126146","2020-01-28 05:00","2020","01","28","05:00","3.1","","1.2","","87","","","","16","","18","","24.1","","97.33","","","","","","NA"
"-119.60","49.46","PENTICTON A","1126146","2020-01-28 06:00","2020","01","28","06:00","2.7","","1.1","","89","","","","18","","27","","24.1","","97.31","","","","","","NA"
"-119.60","49.46","PENTICTON A","1126146","2020-01-28 07:00","2020","01","28","07:00","2.8","","1.0","","87","","","","14","","27","","24.1","","97.35","","","","","","Mostly Cloudy"
"-119.60","49.46","PENTICTON A","1126146","2020-01-28 08:00","2020","01","28","08:00","2.9","","1.3","","89","","","","20","","22","","24.1","","97.40","","","","","","NA"
"-119.60","49.46","PENTICTON A","1126146","2020-01-28 09:00","2020","01","28","09:00","3.5","","1.6","","87","","","","17","","11","","24.1","","97.46","","","","","","NA"
"-119.60","49.46","PENTICTON A","1126146","2020-01-28 10:00","2020","01","28","10:00","4.5","","1.9","","83","","","","18","","13","","24.1","","97.51","","","","","","Mostly Cloudy"
"-119.60","49.46","PENTICTON A","1126146","2020-01-28 11:00","2020","01","28","11:00","5.0","","2.0","","81","","","","2","","13","","24.1","","97.57","","","","","","NA"
"-119.60","49.46","PENTICTON A","1126146","2020-01-28 12:00","2020","01","28","12:00","5.3","","1.9","","79","","","","24","","6","","24.1","","97.59","","","","","","NA"
"-119.60","49.46","PENTICTON A","1126146","2020-01-28 13:00","2020","01","28","13:00","6.1","","1.9","","75","","","","35","","8","","24.1","","97.57","","","","","","Mostly Cloudy"
"-119.60","49.46","PENTICTON A","1126146","2020-01-28 14:00","2020","01","28","14:00","6.3","","2.0","","74","","","","19","","7","","24.1","","97.58","","","","","","NA"
"-119.60","49.46","PENTICTON A","1126146","2020-01-28 15:00","2020","01","28","15:00","6.2","","1.8","","73","","","","17","","4","","24.1","","97.61","","","","","","NA"
"-119.60","49.46","PENTICTON A","1126146","2020-01-28 16:00","2020","01","28","16:00","4.4","","2.0","","84","","","","36","","17","","24.1","","97.75","","","","","","Mainly Clear"
"-119.60","49.46","PENTICTON A","1126146","2020-01-28 17:00","2020","01","28","17:00","4.4","","2.3","","86","","","","32","","9","","24.1","","97.89","","","","","","NA"
"-119.60","49.46","PENTICTON A","1126146","2020-01-28 18:00","2020","01","28","18:00","4.4","","2.0","","85","","","","34","","7","","24.1","","97.89","","","","","","NA"
"-119.60","49.46","PENTICTON A","1126146","2020-01-28 19:00","2020","01","28","19:00","3.9","","2.2","","88","","","","23","","5","","24.1","","97.96","","","","","","Cloudy"
"-119.60","49.46","PENTICTON A","1126146","2020-01-28 20:00","2020","01","28","20:00","3.6","","2.0","","89","","","","19","","3","","24.1","","98.09","","","","","","NA"
"-119.60","49.46","PENTICTON A","1126146","2020-01-28 21:00","2020","01","28","21:00","3.6","","2.1","","90","","","","22","","10","","24.1","","98.09","","","","","","NA"
"-119.60","49.46","PENTICTON A","1126146","2020-01-28 22:00","2020","01","28","22:00","3.9","","2.2","","88","","","","21","","9","","24.1","","98.14","","","","","","Cloudy"
"-119.60","49.46","PENTICTON A","1126146","2020-01-28 23:00","2020","01","28","23:00","4.1","","2.1","","87","","","","15","","18","","24.1","","98.15","","","","","","NA"
"-119.60","49.46","PENTICTON A","1126146","2020-01-29 00:00","2020","01","29","00:00","4.0","","2.2","","88","","","","15","","18","","24.1","","98.15","","","","","","Drizzle"
"-119.60","49.46","PENTICTON A","1126146","2020-01-29 01:00","2020","01","29","01:00","3.8","","2.1","","89","","","","16","","18","","24.1","","98.17","","","","","","Drizzle"
"-119.60","49.46","PENTICTON A","1126146","2020-01-29 02:00","2020","01","29","02:00","3.4","","2.1","","91","","","","14","","14","","24.1","","98.16","","","","","","Rain"
"-119.60","49.46","PENTICTON A","1126146","2020-01-29 03:00","2020","01","29","03:00","3.2","","1.8","","90","","","","15","","17","","24.1","","98.10","","","","","","NA"
"-119.60","49.46","PENTICTON A","1126146","2020-01-29 04:00","2020","01","29","04:00","3.3","","1.7","","89","","","","16","","22","","24.1","","98.07","","","","","","Mostly Cloudy"
"-119.60","49.46","PENTICTON A","1126146","2020-01-29 05:00","2020","01","29","05:00","3.5","","1.8","","89","","","","15","","22","","24.1","","98.03","","","","","","Rain"
"-119.60","49.46","PENTICTON A","1126146","2020-01-29 06:00","2020","01","29","06:00","4.2","","1.3","","82","","","","16","","20","","24.1","","97.93","","","","","","Rain"
"-119.60","49.46","PENTICTON A","1126146","2020-01-29 07:00","2020","01","29","07:00","3.7","","1.7","","87","","","","18","","30","","24.1","","97.88","","","","","","Rain"
"-119.60","49.46","PENTICTON A","1126146","2020-01-29 08:00","2020","01","29","08:00","3.9","","1.6","","85","","","","17","","27","","24.1","","97.84","","","","","","Rain"
"-119.60","49.46","PENTICTON A","1126146","2020-01-29 09:00","2020","01","29","09:00","4.3","","2.0","","85","","","","20","","48","","16.1","","97.73","","","","","","Rain"
"-119.60","49.46","PENTICTON A","1126146","2020-01-29 10:00","2020","01","29","10:00","4.7","","2.1","","83","","","","19","","44","","24.1","","97.69","","","","","","Rain"
"-119.60","49.46","PENTICTON A","1126146","2020-01-29 11:00","2020","01","29","11:00","5.0","","1.7","","79","","","","19","","45","","24.1","","97.67","","","","","","Rain"
"-119.60","49.46","PENTICTON A","1126146","2020-01-29 12:00","2020","01","29","12:00","5.5","","1.8","","77","","","","20","","39","","24.1","","97.62","","","","","","NA"
"-119.60","49.46","PENTICTON A","1126146","2020-01-29 13:00","2020","01","29","13:00","5.5","","1.7","","77","","","","20","","34","","24.1","","97.53","","","","","","Cloudy"
"-119.60","49.46","PENTICTON A","1126146","2020-01-29 14:00","2020","01","29","14:00","5.5","","1.7","","77","","","","19","","35","","24.1","","97.46","","","","","","NA"
"-119.60","49.46","PENTICTON A","1126146","2020-01-29 15:00","2020","01","29","15:00","5.3","","1.9","","78","","","","19","","39","","24.1","","97.48","","","","","","NA"
"-119.60","49.46","PENTICTON A","1126146","2020-01-29 16:00","2020","01","29","16:00","5.0","","1.8","","80","","","","18","","40","","24.1","","97.47","","","","","","Mostly Cloudy"
"-119.60","49.46","PENTICTON A","1126146","2020-01-29 17:00","2020","01","29","17:00","5.0","","2.0","","81","","","","17","","30","","24.1","","97.56","","","","","","NA"
"-119.60","49.46","PENTICTON A","1126146","2020-01-29 18:00","2020","01","29","18:00","4.7","","2.2","","84","","","","18","","29","","24.1","","97.70","","","","","","NA"
"-119.60","49.46","PENTICTON A","1126146","2020-01-29 19:00","2020","01","29","19:00","4.9","","2.2","","83","","","","18","","30","","24.1","","97.78","","","","","","Mainly Clear"
"-119.60","49.46","PENTICTON A","1126146","2020-01-29 20:00","2020","01","29","20:00","4.5","","1.7","","82","","","","19","","28","","24.1","","97.78","","","","","","NA"
"-119.60","49.46","PENTICTON A","1126146","2020-01-29 21:00","2020","01","29","21:00","4.3","","1.3","","81","","","","17","","19","","24.1","","97.89","","","","","","NA"
"-119.60","49.46","PENTICTON A","1126146","2020-01-29 22:00","2020","01","29","22:00","3.6","","1.6","","87","","","","18","","23","","24.1","","98.01","","","","","","Clear"
"-119.60","49.46","PENTICTON A","1126146","2020-01-29 23:00","2020","01","29","23:00","3.9","","1.6","","85","","","","17","","26","","24.1","","98.09","","","","","","NA"
"-119.60","49.46","PENTICTON A","1126146","2020-01-30 00:00","2020","01","30","00:00","3.7","","1.4","","85","","","","17","","26","","24.1","","98.13","","","","","","NA"
"-119.60","49.46","PENTICTON A","1126146","2020-01-30 01:00","2020","01","30","01:00","3.0","","0.9","","86","","","","19","","26","","24.1","","98.26","","","","","","Clear"
"-119.60","49.46","PENTICTON A","1126146","2020-01-30 02:00","2020","01","30","02:00","2.6","","0.7","","87","","","","14","","15","","24.1","","98.29","","","","","","NA"
"-119.60","49.46","PENTICTON A","1126146","2020-01-30 03:00","2020","01","30","03:00","1.9","","-0.3","","86","","","","19","","16","","24.1","","98.39","","","","","","NA"
"-119.60","49.46","PENTICTON A","1126146","2020-01-30 04:00","2020","01","30","04:00","1.6","","-1.4","","80","","","","15","","12","","24.1","","98.46","","","","","","Clear"
"-119.60","49.46","PENTICTON A","1126146","2020-01-30 05:00","2020","01","30","05:00","1.6","","-1.0","","83","","","","13","","15","","24.1","","98.50","","","","","","NA"
"-119.60","49.46","PENTICTON A","1126146","2020-01-30 06:00","2020","01","30","06:00","1.7","","-0.9","","82","","","","13","","16","","24.1","","98.45","","","","","","NA"
"-119.60","49.46","PENTICTON A","1126146","2020-01-30 07:00","2020","01","30","07:00","1.9","","-0.4","","85","","","","18","","8","","24.1","","98.53","","","","","","Mostly Cloudy"
"-119.60","49.46","PENTICTON A","1126146","2020-01-30 08:00","2020","01","30","08:00","1.6","","-0.8","","84","","","","16","","11","","24.1","","98.45","","","","","","NA"
"-119.60","49.46","PENTICTON A","1126146","2020-01-30 09:00","2020","01","30","09:00","2.1","","-0.5","","83","","","","18","","14","","24.1","","98.46","","","","","","NA"
"-119.60","49.46","PENTICTON A","1126146","2020-01-30 10:00","2020","01","30","10:00","2.7","","-0.2","","81","","","","19","","23","","24.1","","98.61","","","","","","Cloudy"
"-119.60","49.46","PENTICTON A","1126146","2020-01-30 11:00","2020","01","30","11:00","2.9","","-0.4","","79","","","","17","","22","","24.1","","98.61","","","","","","NA"
"-119.60","49.46","PENTICTON A","1126146","2020-01-30 12:00","2020","01","30","12:00","3.3","","-0.7","","75","","","","16","","22","","24.1","","98.57","","","","","","NA"
"-119.60","49.46","PENTICTON A","1126146","2020-01-30 13:00","2020","01","30","13:00","3.3","","-0.5","","76","","","","17","","29","","24.1","","98.34","","","","","","Mostly Cloudy"
"-119.60","49.46","PENTICTON A","1126146","2020-01-30 14:00","2020","01","30","14:00","4.1","","-0.6","","71","","","","17","","33","","24.1","","98.18","","","","","","NA"
"-119.60","49.46","PENTICTON A","1126146","2020-01-30 15:00","2020","01","30","15:00","4.5","","-0.8","","69","","","","17","","37","","24.1","","98.07","","","","","","NA"
"-119.60","49.46","PENTICTON A","1126146","2020-01-30 16:00","2020","01","30","16:00","4.1","","-0.6","","72","","","","18","","37","","24.1","","97.99","","","","","","Mostly Cloudy"
"-119.60","49.46","PENTICTON A","1126146","2020-01-30 17:00","2020","01","30","17:00","4.2","","-0.3","","73","","","","20","","34","","24.1","","97.91","","","","","","NA"
"-119.60","49.46","PENTICTON A","1126146","2020-01-30 18:00","2020","01","30","18:00","4.2","","0.3","","76","","","","20","","31","","24.1","","97.89","","","","","","Rain"
"-119.60","49.46","PENTICTON A","1126146","2020-01-30 19:00","2020","01","30","19:00","4.1","","0.8","","79","","","","19","","34","","24.1","","97.78","","","","","","Rain"
"-119.60","49.46","PENTICTON A","1126146","2020-01-30 20:00","2020","01","30","20:00","4.5","","1.1","","78","","","","20","","35","","24.1","","97.71","","","","","","NA"
"-119.60","49.46","PENTICTON A","1126146","2020-01-30 21:00","2020","01","30","21:00","4.6","","1.2","","79","","","","19","","35","","24.1","","97.69","","","","","","NA"
"-119.60","49.46","PENTICTON A","1126146","2020-01-30 22:00","2020","01","30","22:00","4.2","","1.6","","84","","","","19","","32","","24.1","","97.65","","","","","","Rain"
"-119.60","49.46","PENTICTON A","1126146","2020-01-30 23:00","2020","01","30","23:00","4.1","","1.7","","84","","","","19","","33","","24.1","","97.60","","","","","","NA"
"-119.60","49.46","PENTICTON A","1126146","2020-01-31 00:00","2020","01","31","00:00","4.4","","1.6","","82","","","","19","","40","","24.1","","97.60","","","","","","NA"
"-119.60","49.46","PENTICTON A","1126146","2020-01-31 01:00","2020","01","31","01:00","4.5","","1.6","","81","","","","19","","36","","24.1","","97.67","","","","","","Cloudy"
"-119.60","49.46","PENTICTON A","1126146","2020-01-31 02:00","2020","01","31","02:00","4.1","","1.5","","83","","","","16","","26","","24.1","","97.70","","","","","","NA"
"-119.60","49.46","PENTICTON A","1126146","2020-01-31 03:00","2020","01","31","03:00","3.9","","1.4","","84","","","","16","","28","","24.1","","97.73","","","","","","NA"
"-119.60","49.46","PENTICTON A","1126146","2020-01-31 04:00","2020","01","31","04:00","3.9","","1.5","","84","","","","17","","26","","24.1","","97.73","","","","","","Cloudy"
"-119.60","49.46","PENTICTON A","1126146","2020-01-31 05:00","2020","01","31","05:00","3.8","","1.8","","87","","","","17","","26","","24.1","","97.78","","","","","","NA"
"-119.60","49.46","PENTICTON A","1126146","2020-01-31 06:00","2020","01","31","06:00","3.6","","2.0","","89","","","","18","","27","","24.1","","97.74","","","","","","Rain"
"-119.60","49.46","PENTICTON A","1126146","2020-01-31 07:00","2020","01","31","07:00","3.7","","2.0","","88","","","","17","","24","","24.1","","97.76","","","","","","Cloudy"
"-119.60","49.46","PENTICTON A","1126146","2020-01-31 08:00","2020","01","31","08:00","3.6","","2.0","","89","","","","15","","23","","24.1","","97.73","","","","","","NA"
"-119.60","49.46","PENTICTON A","1126146","2020-01-31 09:00","2020","01","31","09:00","3.6","","2.3","","91","","","","17","","23","","24.1","","97.68","","","","","","Rain"
"-119.60","49.46","PENTICTON A","1126146","2020-01-31 10:00","2020","01","31","10:00","4.1","","2.7","","91","","","","16","","24","","19.3","","97.62","","","","","","Rain"
"-119.60","49.46","PENTICTON A","1126146","2020-01-31 11:00","2020","01","31","11:00","4.8","","2.5","","86","","","","17","","33","","24.1","","97.46","","","","","","NA"
"-119.60","49.46","PENTICTON A","1126146","2020-01-31 12:00","2020","01","31","12:00","5.5","","2.7","","82","","","","16","","29","","24.1","","97.37","","","","","","NA"
"-119.60","49.46","PENTICTON A","1126146","2020-01-31 13:00","2020","01","31","13:00","5.1","","3.2","","87","","","","16","","21","","24.1","","97.32","","","","","","Rain Showers"
"-119.60","49.46","PENTICTON A","1126146","2020-01-31 14:00","2020","01","31","14:00","5.4","","3.5","","88","","","","17","","25","","12.9","","97.25","","","","","","Rain Showers"
"-119.60","49.46","PENTICTON A","1126146","2020-01-31 15:00","2020","01","31","15:00","5.1","","3.7","","91","","","","17","","32","","16.1","","97.14","","","","","","Rain Showers"
"-119.60","49.46","PENTICTON A","1126146","2020-01-31 16:00","2020","01","31","16:00","5.1","","3.8","","91","","","","17","","31","","16.1","","97.01","","","","","","Rain Showers"
"-119.60","49.46","PENTICTON A","1126146","2020-01-31 17:00","2020","01","31","17:00","5.4","","3.7","","89","","","","17","","18","","16.1","","97.04","","","","","","Rain Showers"
"-119.60","49.46","PENTICTON A","1126146","2020-01-31 18:00","2020","01","31","18:00","5.6","","3.6","","87","","","","15","","22","","19.3","","96.96","","","","","","Rain Showers"
"-119.60","49.46","PENTICTON A","1126146","2020-01-31 19:00","2020","01","31","19:00","5.8","","4.0","","88","","","","16","","28","","24.1","","96.78","","","","","","Mostly Cloudy"
"-119.60","49.46","PENTICTON A","1126146","2020-01-31 20:00","2020","01","31","20:00","6.3","","4.2","","86","","","","18","","27","","24.1","","96.78","","","","","","NA"
"-119.60","49.46","PENTICTON A","1126146","2020-01-31 21:00","2020","01","31","21:00","7.6","","4.3","","80","","","","18","","31","","24.1","","96.68","","","","","","NA"
"-119.60","49.46","PENTICTON A","1126146","2020-01-31 22:00","2020","01","31","22:00","6.1","","4.0","","86","","","","15","","19","","24.1","","96.75","","","","","","Mostly Cloudy"
"-119.60","49.46","PENTICTON A","1126146","2020-01-31 23:00","2020","01","31","23:00","6.7","","4.7","","87","","","","18","","23","","24.1","","96.69","","","","","","NA"
