"Longitude (x)","Latitude (y)","Station Name","Climate ID","Date/Time (LST)","Year","Month","Day","Time (LST)","Temp (°C)","Temp Flag","Dew Point Temp (°C)","Dew Point Temp Flag","Rel Hum (%)","Rel Hum Flag","Precip. Amount (mm)","Precip. Amount Flag","Wind Dir (10s deg)","Wind Dir Flag","Wind Spd (km/h)","Wind Spd Flag","Visibility (km)","Visibility Flag","Stn Press (kPa)","Stn Press Flag","Hmdx","Hmdx Flag","Wind Chill","Wind Chill Flag","Weather"
"-61.05","46.55","GRAND ETANG","8201969","2022-08-01 00:00","2022","08","01","00:00","20.0","","15.9","","77","","","","17","","14","","","","101.34","","25","","","","NA"
"-61.05","46.55","GRAND ETANG","8201969","2022-08-01 01:00","2022","08","01","01:00","19.8","","16.0","","79","","","","16","","13","","","","101.37","","","","","","NA"
"-61.05","46.55","GRAND ETANG","8201969","2022-08-01 02:00","2022","08","01","02:00","19.9","","16.3","","80","","","","17","","14","","","","101.37","","","","","","NA"
"-61.05","46.55","GRAND ETANG","8201969","2022-08-01 03:00","2022","08","01","03:00","19.6","","16.3","","81","","","","16","","14","","","","101.35","","","","","","NA"
"-61.05","46.55","GRAND ETANG","8201969","2022-08-01 04:00","2022","08","01","04:00","19.4","","16.2","","82","","","","16","","14","","","","101.35","","","","","","NA"
"-61.05","46.55","GRAND ETANG","8201969","2022-08-01 05:00","2022","08","01","05:00","18.8","","16.1","","84","","","","16","","11","","","","101.39","","","","","","NA"
"-61.05","46.55","GRAND ETANG","8201969","2022-08-01 06:00","2022","08","01","06:00","20.4","","16.4","","78","","","","16","","13","","","","101.39","","25","","","","NA"
"-61.05","46.55","GRAND ETANG","8201969","2022-08-01 07:00","2022","08","01","07:00","21.8","","16.8","","73","","","","17","","11","","","","101.39","","27","","","","NA"
"-61.05","46.55","GRAND ETANG","8201969","2022-08-01 08:00","2022","08","01","08:00","22.6","","17.3","","72","","","","19","","11","","","","101.41","","28","","","","NA"
"-61.05","46.55","GRAND ETANG","8201969","2022-08-01 09:00","2022","08","01","09:00","25.0","","18.1","","66","","","","21","","12","","","","101.35","","31","","","","NA"
"-61.05","46.55","GRAND ETANG","8201969","2022-08-01 10:00","2022","08","01","10:00","24.0","","18.3","","71","","","","23","","18","","","","101.37","","30","","","","NA"
"-61.05","46.55","GRAND ETANG","8201969","2022-08-01 11:00","2022","08","01","11:00","24.2","","18.9","","72","","","","23","","16","","","","101.28","","31","","","","NA"
"-61.05","46.55","GRAND ETANG","8201969","2022-08-01 12:00","2022","08","01","12:00","25.0","","18.1","","66","","","","22","","19","","","","101.31","","31","","","","NA"
"-61.05","46.55","GRAND ETANG","8201969","2022-08-01 13:00","2022","08","01","13:00","26.2","","17.8","","60","","","","23","","18","","","","101.30","","32","","","","NA"
"-61.05","46.55","GRAND ETANG","8201969","2022-08-01 14:00","2022","08","01","14:00","26.0","","16.3","","55","","","","21","","16","","","","101.26","","31","","","","NA"
"-61.05","46.55","GRAND ETANG","8201969","2022-08-01 15:00","2022","08","01","15:00","26.5","","16.6","","54","","","","19","","12","","","","101.24","","32","","","","NA"
"-61.05","46.55","GRAND ETANG","8201969","2022-08-01 16:00","2022","08","01","16:00","25.9","","17.3","","59","","","","21","","8","","","","101.21","","31","","","","NA"
"-61.05","46.55","GRAND ETANG","8201969","2022-08-01 17:00","2022","08","01","17:00","24.1","","18.3","","70","","","","15","","7","","","","101.17","","30","","","","NA"
"-61.05","46.55","GRAND ETANG","8201969","2022-08-01 18:00","2022","08","01","18:00","24.2","","17.4","","66","","","","17","","8","","","","101.16","","30","","","","NA"
"-61.05","46.55","GRAND ETANG","8201969","2022-08-01 19:00","2022","08","01","19:00","23.4","","16.9","","67","","","","18","","9","","","","101.13","","29","","","","NA"
"-61.05","46.55","GRAND ETANG","8201969","2022-08-01 20:00","2022","08","01","20:00","22.1","","15.3","","66","","","","17","","9","","","","101.17","","26","","","","NA"
"-61.05","46.55","GRAND ETANG","8201969","2022-08-01 21:00","2022","08","01","21:00","21.1","","15.7","","71","","","","17","","10","","","","101.18","","26","","","","NA"
"-61.05","46.55","GRAND ETANG","8201969","2022-08-01 22:00","2022","08","01","22:00","20.1","","15.4","","74","","","","16","","10","","","","101.17","","","","","","NA"
"-61.05","46.55","GRAND ETANG","8201969","2022-08-01 23:00","2022","08","01","23:00","19.4","","15.3","","77","","","","15","","12","","","","101.13","","","","","","NA"
"-61.05","46.55","GRAND ETANG","8201969","2022-08-02 00:00","2022","08","02","00:00","19.5","","15.3","","77","","","","16","","13","","","","101.10","","","","","","NA"
"-61.05","46.55","GRAND ETANG","8201969","2022-08-02 01:00","2022","08","02","01:00","19.2","","15.8","","80","","","","15","","13","","","","101.09","","","","","","NA"
"-61.05","46.55","GRAND ETANG","8201969","2022-08-02 02:00","2022","08","02","02:00","19.6","","16.2","","81","","","","17","","14","","","","101.07","","","","","","NA"
"-61.05","46.55","GRAND ETANG","8201969","2022-08-02 03:00","2022","08","02","03:00","19.7","","16.6","","82","","","","16","","13","","","","101.06","","","","","","NA"
"-61.05","46.55","GRAND ETANG","8201969","2022-08-02 04:00","2022","08","02","04:00","18.7","","16.6","","87","","","","15","","13","","","","101.07","","","","","","NA"
"-61.05","46.55","GRAND ETANG","8201969","2022-08-02 05:00","2022","08","02","05:00","19.1","","16.7","","86","","","","15","","14","","","","101.09","","","","","","NA"
"-61.05","46.55","GRAND ETANG","8201969","2022-08-02 06:00","2022","08","02","06:00","19.5","","17.0","","85","","","","15","","15","","","","101.12","","","","","","NA"
"-61.05","46.55","GRAND ETANG","8201969","2022-08-02 07:00","2022","08","02","07:00","21.8","","17.3","","76","","","","16","","13","","","","101.12","","27","","","","NA"
"-61.05","46.55","GRAND ETANG","8201969","2022-08-02 08:00","2022","08","02","08:00","23.3","","17.5","","70","","","","16","","12","","","","101.10","","29","","","","NA"
"-61.05","46.55","GRAND ETANG","8201969","2022-08-02 09:00","2022","08","02","09:00","24.0","","19.2","","75","","","","23","","20","","","","101.05","","31","","","","NA"
"-61.05","46.55","GRAND ETANG","8201969","2022-08-02 10:00","2022","08","02","10:00","23.4","","19.2","","78","","","","24","","16","","","","101.03","","30","","","","NA"
"-61.05","46.55","GRAND ETANG","8201969","2022-08-02 11:00","2022","08","02","11:00","25.2","","19.4","","70","","","","23","","21","","","","100.98","","32","","","","NA"
"-61.05","46.55","GRAND ETANG","8201969","2022-08-02 12:00","2022","08","02","12:00","23.3","","18.8","","76","","","","22","","17","","","","100.96","","30","","","","NA"
"-61.05","46.55","GRAND ETANG","8201969","2022-08-02 13:00","2022","08","02","13:00","25.2","","18.1","","65","","","","23","","13","","","","100.89","","31","","","","NA"
"-61.05","46.55","GRAND ETANG","8201969","2022-08-02 14:00","2022","08","02","14:00","27.1","","18.5","","59","","","","16","","24","","","","100.85","","33","","","","NA"
"-61.05","46.55","GRAND ETANG","8201969","2022-08-02 15:00","2022","08","02","15:00","25.8","","17.9","","62","","","","16","","24","","","","100.80","","32","","","","NA"
"-61.05","46.55","GRAND ETANG","8201969","2022-08-02 16:00","2022","08","02","16:00","24.8","","16.6","","60","","","","15","","30","","","","100.73","","30","","","","NA"
"-61.05","46.55","GRAND ETANG","8201969","2022-08-02 17:00","2022","08","02","17:00","25.5","","18.5","","66","","","","15","","18","","","","100.68","","32","","","","NA"
"-61.05","46.55","GRAND ETANG","8201969","2022-08-02 18:00","2022","08","02","18:00","24.5","","18.6","","70","","","","18","","24","","","","100.65","","31","","","","NA"
"-61.05","46.55","GRAND ETANG","8201969","2022-08-02 19:00","2022","08","02","19:00","23.8","","19.1","","75","","","","18","","15","","","","100.61","","31","","","","NA"
"-61.05","46.55","GRAND ETANG","8201969","2022-08-02 20:00","2022","08","02","20:00","23.0","","19.4","","80","","","","18","","16","","","","100.62","","30","","","","NA"
"-61.05","46.55","GRAND ETANG","8201969","2022-08-02 21:00","2022","08","02","21:00","22.3","","19.7","","85","","","","19","","9","","","","100.58","","30","","","","NA"
"-61.05","46.55","GRAND ETANG","8201969","2022-08-02 22:00","2022","08","02","22:00","21.5","","19.4","","88","","","","17","","9","","","","100.58","","29","","","","NA"
"-61.05","46.55","GRAND ETANG","8201969","2022-08-02 23:00","2022","08","02","23:00","21.4","","19.7","","90","","","","21","","7","","","","100.56","","29","","","","NA"
"-61.05","46.55","GRAND ETANG","8201969","2022-08-03 00:00","2022","08","03","00:00","20.9","","19.7","","93","","","","19","","8","","","","100.56","","28","","","","NA"
"-61.05","46.55","GRAND ETANG","8201969","2022-08-03 01:00","2022","08","03","01:00","21.1","","19.7","","92","","","","19","","8","","","","100.59","","28","","","","NA"
"-61.05","46.55","GRAND ETANG","8201969","2022-08-03 02:00","2022","08","03","02:00","21.2","","20.1","","94","","","","20","","13","","","","100.62","","29","","","","NA"
"-61.05","46.55","GRAND ETANG","8201969","2022-08-03 03:00","2022","08","03","03:00","21.2","","20.3","","95","","","","21","","18","","","","100.61","","29","","","","NA"
"-61.05","46.55","GRAND ETANG","8201969","2022-08-03 04:00","2022","08","03","04:00","21.2","","20.4","","95","","","","20","","13","","","","100.63","","29","","","","NA"
"-61.05","46.55","GRAND ETANG","8201969","2022-08-03 05:00","2022","08","03","05:00","21.0","","20.0","","94","","","","21","","16","","","","100.69","","29","","","","NA"
"-61.05","46.55","GRAND ETANG","8201969","2022-08-03 06:00","2022","08","03","06:00","21.0","","20.0","","94","","","","23","","24","","","","100.79","","29","","","","NA"
"-61.05","46.55","GRAND ETANG","8201969","2022-08-03 07:00","2022","08","03","07:00","20.6","","19.3","","92","","","","24","","34","","","","100.90","","28","","","","NA"
"-61.05","46.55","GRAND ETANG","8201969","2022-08-03 08:00","2022","08","03","08:00","20.3","","18.9","","92","","","","22","","19","","","","100.91","","27","","","","NA"
"-61.05","46.55","GRAND ETANG","8201969","2022-08-03 09:00","2022","08","03","09:00","20.1","","18.7","","91","","","","18","","13","","","","100.93","","27","","","","NA"
"-61.05","46.55","GRAND ETANG","8201969","2022-08-03 10:00","2022","08","03","10:00","20.3","","19.5","","95","","","","23","","24","","","","100.96","","27","","","","NA"
"-61.05","46.55","GRAND ETANG","8201969","2022-08-03 11:00","2022","08","03","11:00","20.4","","19.6","","95","","","","22","","20","","","","100.99","","28","","","","NA"
"-61.05","46.55","GRAND ETANG","8201969","2022-08-03 12:00","2022","08","03","12:00","20.6","","19.9","","96","","","","24","","21","","","","101.06","","28","","","","NA"
"-61.05","46.55","GRAND ETANG","8201969","2022-08-03 13:00","2022","08","03","13:00","21.0","","20.1","","94","","","","26","","17","","","","101.08","","29","","","","NA"
"-61.05","46.55","GRAND ETANG","8201969","2022-08-03 14:00","2022","08","03","14:00","22.9","","20.8","","88","","","","26","","10","","","","101.13","","31","","","","NA"
"-61.05","46.55","GRAND ETANG","8201969","2022-08-03 15:00","2022","08","03","15:00","21.4","","19.2","","87","","","","25","","12","","","","101.20","","28","","","","NA"
"-61.05","46.55","GRAND ETANG","8201969","2022-08-03 16:00","2022","08","03","16:00","20.3","","18.3","","88","","","","31","","16","","","","101.30","","27","","","","NA"
"-61.05","46.55","GRAND ETANG","8201969","2022-08-03 17:00","2022","08","03","17:00","21.6","","18.5","","82","","","","30","","6","","","","101.31","","28","","","","NA"
"-61.05","46.55","GRAND ETANG","8201969","2022-08-03 18:00","2022","08","03","18:00","22.6","","18.2","","76","","","","25","","4","","","","101.32","","29","","","","NA"
"-61.05","46.55","GRAND ETANG","8201969","2022-08-03 19:00","2022","08","03","19:00","20.3","","17.5","","84","","","","28","","2","","","","101.36","","26","","","","NA"
"-61.05","46.55","GRAND ETANG","8201969","2022-08-03 20:00","2022","08","03","20:00","16.9","","15.6","","92","","","","12","","4","","","","101.39","","","","","","NA"
"-61.05","46.55","GRAND ETANG","8201969","2022-08-03 21:00","2022","08","03","21:00","16.5","","15.6","","94","","","","15","","8","","","","101.40","","","","","","NA"
"-61.05","46.55","GRAND ETANG","8201969","2022-08-03 22:00","2022","08","03","22:00","15.9","","14.9","","93","","","","13","","10","","","","101.44","","","","","","NA"
"-61.05","46.55","GRAND ETANG","8201969","2022-08-03 23:00","2022","08","03","23:00","16.0","","14.6","","91","","","","14","","9","","","","101.48","","","","","","NA"
"-61.05","46.55","GRAND ETANG","8201969","2022-08-04 00:00","2022","08","04","00:00","16.9","","14.2","","84","","","","15","","9","","","","101.48","","","","","","NA"
"-61.05","46.55","GRAND ETANG","8201969","2022-08-04 01:00","2022","08","04","01:00","17.7","","14.8","","83","","","","14","","19","","","","101.45","","","","","","NA"
"-61.05","46.55","GRAND ETANG","8201969","2022-08-04 02:00","2022","08","04","02:00","17.8","","14.1","","79","","","","13","","17","","","","101.44","","","","","","NA"
"-61.05","46.55","GRAND ETANG","8201969","2022-08-04 03:00","2022","08","04","03:00","18.3","","13.9","","75","","","","16","","5","","","","101.48","","","","","","NA"
"-61.05","46.55","GRAND ETANG","8201969","2022-08-04 04:00","2022","08","04","04:00","18.8","","14.1","","74","","","","14","","16","","","","101.49","","","","","","NA"
"-61.05","46.55","GRAND ETANG","8201969","2022-08-04 05:00","2022","08","04","05:00","18.8","","15.4","","80","","","","26","","4","","","","101.56","","","","","","NA"
"-61.05","46.55","GRAND ETANG","8201969","2022-08-04 06:00","2022","08","04","06:00","20.3","","18.0","","87","","","","18","","10","","","","101.58","","26","","","","NA"
"-61.05","46.55","GRAND ETANG","8201969","2022-08-04 07:00","2022","08","04","07:00","21.4","","18.3","","83","","","","18","","13","","","","101.58","","28","","","","NA"
"-61.05","46.55","GRAND ETANG","8201969","2022-08-04 08:00","2022","08","04","08:00","21.3","","17.8","","81","","","","22","","19","","","","101.61","","27","","","","NA"
"-61.05","46.55","GRAND ETANG","8201969","2022-08-04 09:00","2022","08","04","09:00","22.6","","18.3","","77","","","","22","","17","","","","101.59","","29","","","","NA"
"-61.05","46.55","GRAND ETANG","8201969","2022-08-04 10:00","2022","08","04","10:00","24.1","","17.5","","67","","","","22","","17","","","","101.60","","30","","","","NA"
"-61.05","46.55","GRAND ETANG","8201969","2022-08-04 11:00","2022","08","04","11:00","24.1","","18.0","","69","","","","23","","22","","","","101.58","","30","","","","NA"
"-61.05","46.55","GRAND ETANG","8201969","2022-08-04 12:00","2022","08","04","12:00","25.7","","16.7","","58","","","","22","","21","","","","101.58","","31","","","","NA"
"-61.05","46.55","GRAND ETANG","8201969","2022-08-04 13:00","2022","08","04","13:00","26.2","","16.3","","54","","","","22","","22","","","","101.58","","31","","","","NA"
"-61.05","46.55","GRAND ETANG","8201969","2022-08-04 14:00","2022","08","04","14:00","26.8","","14.6","","47","","","","22","","22","","","","101.59","","31","","","","NA"
"-61.05","46.55","GRAND ETANG","8201969","2022-08-04 15:00","2022","08","04","15:00","27.4","","15.4","","48","","","","22","","18","","","","101.59","","32","","","","NA"
"-61.05","46.55","GRAND ETANG","8201969","2022-08-04 16:00","2022","08","04","16:00","27.9","","14.9","","45","","","","22","","18","","","","101.56","","32","","","","NA"
"-61.05","46.55","GRAND ETANG","8201969","2022-08-04 17:00","2022","08","04","17:00","27.0","","12.8","","41","","","","19","","17","","","","101.53","","30","","","","NA"
"-61.05","46.55","GRAND ETANG","8201969","2022-08-04 18:00","2022","08","04","18:00","27.3","","12.8","","41","","","","19","","14","","","","101.51","","30","","","","NA"
"-61.05","46.55","GRAND ETANG","8201969","2022-08-04 19:00","2022","08","04","19:00","25.3","","14.3","","51","","","","16","","12","","","","101.48","","29","","","","NA"
"-61.05","46.55","GRAND ETANG","8201969","2022-08-04 20:00","2022","08","04","20:00","24.2","","14.2","","54","","","","16","","13","","","","101.51","","28","","","","NA"
"-61.05","46.55","GRAND ETANG","8201969","2022-08-04 21:00","2022","08","04","21:00","24.3","","15.4","","57","","","","18","","14","","","","101.53","","29","","","","NA"
"-61.05","46.55","GRAND ETANG","8201969","2022-08-04 22:00","2022","08","04","22:00","23.8","","17.2","","66","","","","17","","13","","","","101.56","","29","","","","NA"
"-61.05","46.55","GRAND ETANG","8201969","2022-08-04 23:00","2022","08","04","23:00","24.1","","17.6","","67","","","","16","","17","","","","101.57","","30","","","","NA"
"-61.05","46.55","GRAND ETANG","8201969","2022-08-05 00:00","2022","08","05","00:00","23.8","","18.1","","70","","","","17","","15","","","","101.57","","30","","","","NA"
"-61.05","46.55","GRAND ETANG","8201969","2022-08-05 01:00","2022","08","05","01:00","23.1","","18.1","","74","","","","18","","13","","","","101.59","","29","","","","NA"
"-61.05","46.55","GRAND ETANG","8201969","2022-08-05 02:00","2022","08","05","02:00","22.5","","17.6","","74","","","","17","","12","","","","101.59","","28","","","","NA"
"-61.05","46.55","GRAND ETANG","8201969","2022-08-05 03:00","2022","08","05","03:00","21.4","","17.4","","78","","","","18","","13","","","","101.57","","27","","","","NA"
"-61.05","46.55","GRAND ETANG","8201969","2022-08-05 04:00","2022","08","05","04:00","21.6","","17.4","","77","","","","17","","11","","","","101.56","","27","","","","NA"
"-61.05","46.55","GRAND ETANG","8201969","2022-08-05 05:00","2022","08","05","05:00","21.5","","17.1","","76","","","","16","","13","","","","101.58","","27","","","","NA"
"-61.05","46.55","GRAND ETANG","8201969","2022-08-05 06:00","2022","08","05","06:00","23.3","","17.2","","69","","","","17","","15","","","","101.60","","29","","","","NA"
"-61.05","46.55","GRAND ETANG","8201969","2022-08-05 07:00","2022","08","05","07:00","24.6","","17.5","","65","","","","18","","17","","","","101.59","","30","","","","NA"
"-61.05","46.55","GRAND ETANG","8201969","2022-08-05 08:00","2022","08","05","08:00","25.8","","18.0","","62","","","","19","","16","","","","101.62","","32","","","","NA"
"-61.05","46.55","GRAND ETANG","8201969","2022-08-05 09:00","2022","08","05","09:00","25.6","","19.1","","67","","","","23","","14","","","","101.57","","32","","","","NA"
"-61.05","46.55","GRAND ETANG","8201969","2022-08-05 10:00","2022","08","05","10:00","25.4","","19.6","","70","","","","22","","20","","","","101.59","","33","","","","NA"
"-61.05","46.55","GRAND ETANG","8201969","2022-08-05 11:00","2022","08","05","11:00","26.1","","19.6","","68","","","","22","","26","","","","101.62","","33","","","","NA"
"-61.05","46.55","GRAND ETANG","8201969","2022-08-05 12:00","2022","08","05","12:00","26.5","","19.8","","66","","","","22","","30","","","","101.61","","34","","","","NA"
"-61.05","46.55","GRAND ETANG","8201969","2022-08-05 13:00","2022","08","05","13:00","27.0","","20.1","","66","","","","21","","24","","","","101.63","","35","","","","NA"
"-61.05","46.55","GRAND ETANG","8201969","2022-08-05 14:00","2022","08","05","14:00","27.5","","20.5","","66","","","","23","","20","","","","101.64","","35","","","","NA"
"-61.05","46.55","GRAND ETANG","8201969","2022-08-05 15:00","2022","08","05","15:00","25.6","","20.4","","73","","","","26","","9","","","","101.67","","34","","","","NA"
"-61.05","46.55","GRAND ETANG","8201969","2022-08-05 16:00","2022","08","05","16:00","24.8","","20.3","","76","","","","29","","2","","","","101.66","","33","","","","NA"
"-61.05","46.55","GRAND ETANG","8201969","2022-08-05 17:00","2022","08","05","17:00","24.5","","20.4","","78","","","","27","","3","","","","101.65","","32","","","","NA"
"-61.05","46.55","GRAND ETANG","8201969","2022-08-05 18:00","2022","08","05","18:00","23.9","","20.7","","83","","","","28","","9","","","","101.71","","32","","","","NA"
"-61.05","46.55","GRAND ETANG","8201969","2022-08-05 19:00","2022","08","05","19:00","22.6","","20.6","","89","","","","32","","9","","","","101.72","","31","","","","NA"
"-61.05","46.55","GRAND ETANG","8201969","2022-08-05 20:00","2022","08","05","20:00","21.9","","20.6","","92","","","","36","","9","","","","101.77","","30","","","","NA"
"-61.05","46.55","GRAND ETANG","8201969","2022-08-05 21:00","2022","08","05","21:00","21.3","","20.0","","92","","","","3","","8","","","","101.80","","29","","","","NA"
"-61.05","46.55","GRAND ETANG","8201969","2022-08-05 22:00","2022","08","05","22:00","21.4","","20.2","","93","","","","36","","20","","","","101.85","","29","","","","NA"
"-61.05","46.55","GRAND ETANG","8201969","2022-08-05 23:00","2022","08","05","23:00","20.8","","19.2","","91","","","","1","","11","","","","101.87","","28","","","","NA"
"-61.05","46.55","GRAND ETANG","8201969","2022-08-06 00:00","2022","08","06","00:00","20.7","","18.6","","88","","","","1","","16","","","","101.89","","27","","","","NA"
"-61.05","46.55","GRAND ETANG","8201969","2022-08-06 01:00","2022","08","06","01:00","20.6","","17.6","","83","","","","36","","18","","","","101.94","","26","","","","NA"
"-61.05","46.55","GRAND ETANG","8201969","2022-08-06 02:00","2022","08","06","02:00","18.7","","16.6","","88","","","","3","","11","","","","101.98","","","","","","NA"
"-61.05","46.55","GRAND ETANG","8201969","2022-08-06 03:00","2022","08","06","03:00","17.8","","16.1","","89","","","","9","","5","","","","102.04","","","","","","NA"
"-61.05","46.55","GRAND ETANG","8201969","2022-08-06 04:00","2022","08","06","04:00","17.0","","14.4","","85","","","","8","","8","","","","102.09","","","","","","NA"
"-61.05","46.55","GRAND ETANG","8201969","2022-08-06 05:00","2022","08","06","05:00","16.7","","13.5","","82","","","","9","","9","","","","102.14","","","","","","NA"
"-61.05","46.55","GRAND ETANG","8201969","2022-08-06 06:00","2022","08","06","06:00","18.8","","14.2","","75","","","","8","","7","","","","102.18","","","","","","NA"
"-61.05","46.55","GRAND ETANG","8201969","2022-08-06 07:00","2022","08","06","07:00","20.9","","14.8","","68","","","","5","","6","","","","102.18","","25","","","","NA"
"-61.05","46.55","GRAND ETANG","8201969","2022-08-06 08:00","2022","08","06","08:00","21.2","","15.0","","68","","","","33","","4","","","","102.19","","25","","","","NA"
"-61.05","46.55","GRAND ETANG","8201969","2022-08-06 09:00","2022","08","06","09:00","22.9","","15.3","","62","","","","29","","6","","","","102.20","","27","","","","NA"
"-61.05","46.55","GRAND ETANG","8201969","2022-08-06 10:00","2022","08","06","10:00","23.7","","15.6","","60","","","","29","","7","","","","102.21","","28","","","","NA"
"-61.05","46.55","GRAND ETANG","8201969","2022-08-06 11:00","2022","08","06","11:00","24.3","","16.1","","60","","","","30","","7","","","","102.17","","29","","","","NA"
"-61.05","46.55","GRAND ETANG","8201969","2022-08-06 12:00","2022","08","06","12:00","25.0","","16.0","","57","","","","29","","7","","","","102.14","","30","","","","NA"
"-61.05","46.55","GRAND ETANG","8201969","2022-08-06 13:00","2022","08","06","13:00","24.5","","15.4","","57","","","","31","","9","","","","102.14","","29","","","","NA"
"-61.05","46.55","GRAND ETANG","8201969","2022-08-06 14:00","2022","08","06","14:00","24.5","","14.5","","54","","","","34","","10","","","","102.14","","28","","","","NA"
"-61.05","46.55","GRAND ETANG","8201969","2022-08-06 15:00","2022","08","06","15:00","24.8","","16.2","","59","","","","33","","11","","","","102.06","","30","","","","NA"
"-61.05","46.55","GRAND ETANG","8201969","2022-08-06 16:00","2022","08","06","16:00","25.2","","16.4","","58","","","","33","","9","","","","102.00","","30","","","","NA"
"-61.05","46.55","GRAND ETANG","8201969","2022-08-06 17:00","2022","08","06","17:00","25.2","","17.2","","61","","","","33","","7","","","","101.91","","31","","","","NA"
"-61.05","46.55","GRAND ETANG","8201969","2022-08-06 18:00","2022","08","06","18:00","24.9","","16.3","","59","","","","1","","3","","","","101.85","","30","","","","NA"
"-61.05","46.55","GRAND ETANG","8201969","2022-08-06 19:00","2022","08","06","19:00","24.1","","18.3","","70","","","","15","","3","","","","101.79","","30","","","","NA"
"-61.05","46.55","GRAND ETANG","8201969","2022-08-06 20:00","2022","08","06","20:00","23.5","","18.9","","76","","","","15","","12","","","","101.78","","30","","","","NA"
"-61.05","46.55","GRAND ETANG","8201969","2022-08-06 21:00","2022","08","06","21:00","23.7","","19.2","","76","","","","16","","15","","","","101.80","","31","","","","NA"
"-61.05","46.55","GRAND ETANG","8201969","2022-08-06 22:00","2022","08","06","22:00","24.1","","19.5","","76","","","","18","","14","","","","101.80","","31","","","","NA"
"-61.05","46.55","GRAND ETANG","8201969","2022-08-06 23:00","2022","08","06","23:00","23.8","","20.1","","80","","","","18","","16","","","","101.75","","31","","","","NA"
"-61.05","46.55","GRAND ETANG","8201969","2022-08-07 00:00","2022","08","07","00:00","23.7","","20.5","","82","","","","18","","18","","","","101.72","","32","","","","NA"
"-61.05","46.55","GRAND ETANG","8201969","2022-08-07 01:00","2022","08","07","01:00","23.5","","20.5","","83","","","","18","","19","","","","101.70","","31","","","","NA"
"-61.05","46.55","GRAND ETANG","8201969","2022-08-07 02:00","2022","08","07","02:00","23.5","","20.6","","84","","","","18","","15","","","","101.67","","32","","","","NA"
"-61.05","46.55","GRAND ETANG","8201969","2022-08-07 03:00","2022","08","07","03:00","23.4","","20.6","","85","","","","18","","15","","","","101.60","","31","","","","NA"
"-61.05","46.55","GRAND ETANG","8201969","2022-08-07 04:00","2022","08","07","04:00","23.7","","20.5","","82","","","","19","","15","","","","101.55","","32","","","","NA"
"-61.05","46.55","GRAND ETANG","8201969","2022-08-07 05:00","2022","08","07","05:00","23.6","","20.2","","81","","","","18","","17","","","","101.51","","31","","","","NA"
"-61.05","46.55","GRAND ETANG","8201969","2022-08-07 06:00","2022","08","07","06:00","23.8","","20.0","","79","","","","19","","17","","","","101.50","","31","","","","NA"
"-61.05","46.55","GRAND ETANG","8201969","2022-08-07 07:00","2022","08","07","07:00","24.7","","20.0","","75","","","","20","","23","","","","101.45","","32","","","","NA"
"-61.05","46.55","GRAND ETANG","8201969","2022-08-07 08:00","2022","08","07","08:00","25.2","","20.2","","73","","","","21","","26","","","","101.42","","33","","","","NA"
"-61.05","46.55","GRAND ETANG","8201969","2022-08-07 09:00","2022","08","07","09:00","26.2","","21.1","","73","","","","21","","27","","","","101.36","","35","","","","NA"
"-61.05","46.55","GRAND ETANG","8201969","2022-08-07 10:00","2022","08","07","10:00","26.9","","21.0","","70","","","","20","","26","","","","101.30","","35","","","","NA"
"-61.05","46.55","GRAND ETANG","8201969","2022-08-07 11:00","2022","08","07","11:00","28.1","","21.2","","66","","","","21","","28","","","","101.21","","37","","","","NA"
"-61.05","46.55","GRAND ETANG","8201969","2022-08-07 12:00","2022","08","07","12:00","28.5","","21.3","","65","","","","20","","28","","","","101.15","","37","","","","NA"
"-61.05","46.55","GRAND ETANG","8201969","2022-08-07 13:00","2022","08","07","13:00","29.3","","21.5","","63","","","","21","","25","","","","101.08","","38","","","","NA"
"-61.05","46.55","GRAND ETANG","8201969","2022-08-07 14:00","2022","08","07","14:00","29.7","","21.4","","61","","","","21","","27","","","","101.05","","38","","","","NA"
"-61.05","46.55","GRAND ETANG","8201969","2022-08-07 15:00","2022","08","07","15:00","29.5","","21.8","","63","","","","21","","26","","","","100.98","","39","","","","NA"
"-61.05","46.55","GRAND ETANG","8201969","2022-08-07 16:00","2022","08","07","16:00","29.7","","22.1","","64","","","","20","","24","","","","100.91","","39","","","","NA"
"-61.05","46.55","GRAND ETANG","8201969","2022-08-07 17:00","2022","08","07","17:00","27.9","","21.7","","69","","","","20","","22","","","","100.88","","37","","","","NA"
"-61.05","46.55","GRAND ETANG","8201969","2022-08-07 18:00","2022","08","07","18:00","27.1","","21.6","","72","","","","19","","20","","","","100.87","","36","","","","NA"
"-61.05","46.55","GRAND ETANG","8201969","2022-08-07 19:00","2022","08","07","19:00","26.8","","21.2","","71","","","","19","","20","","","","100.87","","35","","","","NA"
"-61.05","46.55","GRAND ETANG","8201969","2022-08-07 20:00","2022","08","07","20:00","24.9","","21.5","","81","","","","24","","18","","","","100.96","","34","","","","NA"
"-61.05","46.55","GRAND ETANG","8201969","2022-08-07 21:00","2022","08","07","21:00","24.3","","18.9","","72","","","","30","","5","","","","101.00","","31","","","","NA"
"-61.05","46.55","GRAND ETANG","8201969","2022-08-07 22:00","2022","08","07","22:00","24.0","","19.4","","75","","","","33","","4","","","","100.97","","31","","","","NA"
"-61.05","46.55","GRAND ETANG","8201969","2022-08-07 23:00","2022","08","07","23:00","23.0","","18.6","","76","","","","35","","2","","","","100.95","","29","","","","NA"
"-61.05","46.55","GRAND ETANG","8201969","2022-08-08 00:00","2022","08","08","00:00","22.3","","19.6","","85","","","","31","","4","","","","100.97","","30","","","","NA"
"-61.05","46.55","GRAND ETANG","8201969","2022-08-08 01:00","2022","08","08","01:00","21.7","","19.4","","87","","","","30","","16","","","","101.07","","29","","","","NA"
"-61.05","46.55","GRAND ETANG","8201969","2022-08-08 02:00","2022","08","08","02:00","18.4","","17.2","","93","","","","3","","24","","","","101.03","","","","","","NA"
"-61.05","46.55","GRAND ETANG","8201969","2022-08-08 03:00","2022","08","08","03:00","17.3","","15.8","","91","","","","4","","12","","","","101.11","","","","","","NA"
"-61.05","46.55","GRAND ETANG","8201969","2022-08-08 04:00","2022","08","08","04:00","17.5","","15.2","","86","","","","5","","10","","","","101.13","","","","","","NA"
"-61.05","46.55","GRAND ETANG","8201969","2022-08-08 05:00","2022","08","08","05:00","17.1","","15.0","","87","","","","5","","7","","","","101.15","","","","","","NA"
"-61.05","46.55","GRAND ETANG","8201969","2022-08-08 06:00","2022","08","08","06:00","19.5","","13.4","","68","","","","34","","24","","","","101.19","","","","","","NA"
"-61.05","46.55","GRAND ETANG","8201969","2022-08-08 07:00","2022","08","08","07:00","19.6","","13.5","","68","","","","34","","24","","","","101.23","","","","","","NA"
"-61.05","46.55","GRAND ETANG","8201969","2022-08-08 08:00","2022","08","08","08:00","19.5","","12.8","","65","","","","34","","23","","","","101.27","","","","","","NA"
"-61.05","46.55","GRAND ETANG","8201969","2022-08-08 09:00","2022","08","08","09:00","19.7","","13.2","","66","","","","33","","20","","","","101.31","","","","","","NA"
"-61.05","46.55","GRAND ETANG","8201969","2022-08-08 10:00","2022","08","08","10:00","18.9","","13.2","","69","","","","31","","21","","","","101.35","","","","","","NA"
"-61.05","46.55","GRAND ETANG","8201969","2022-08-08 11:00","2022","08","08","11:00","20.7","","13.5","","63","","","","31","","18","","","","101.36","","","","","","NA"
"-61.05","46.55","GRAND ETANG","8201969","2022-08-08 12:00","2022","08","08","12:00","21.2","","13.7","","63","","","","30","","19","","","","101.42","","","","","","NA"
"-61.05","46.55","GRAND ETANG","8201969","2022-08-08 13:00","2022","08","08","13:00","20.6","","13.6","","64","","","","32","","19","","","","101.45","","","","","","NA"
"-61.05","46.55","GRAND ETANG","8201969","2022-08-08 14:00","2022","08","08","14:00","19.9","","12.6","","63","","","","32","","14","","","","101.43","","","","","","NA"
"-61.05","46.55","GRAND ETANG","8201969","2022-08-08 15:00","2022","08","08","15:00","19.9","","13.0","","65","","","","34","","16","","","","101.43","","","","","","NA"
"-61.05","46.55","GRAND ETANG","8201969","2022-08-08 16:00","2022","08","08","16:00","20.7","","12.5","","59","","","","32","","13","","","","101.42","","","","","","NA"
"-61.05","46.55","GRAND ETANG","8201969","2022-08-08 17:00","2022","08","08","17:00","19.5","","12.2","","63","","","","35","","10","","","","101.43","","","","","","NA"
"-61.05","46.55","GRAND ETANG","8201969","2022-08-08 18:00","2022","08","08","18:00","18.7","","12.3","","66","","","","34","","11","","","","101.44","","","","","","NA"
"-61.05","46.55","GRAND ETANG","8201969","2022-08-08 19:00","2022","08","08","19:00","17.9","","12.5","","71","","","","9","","5","","","","101.47","","","","","","NA"
"-61.05","46.55","GRAND ETANG","8201969","2022-08-08 20:00","2022","08","08","20:00","16.2","","13.8","","86","","","","14","","8","","","","101.48","","","","","","NA"
"-61.05","46.55","GRAND ETANG","8201969","2022-08-08 21:00","2022","08","08","21:00","15.6","","14.2","","91","","","","13","","8","","","","101.50","","","","","","NA"
"-61.05","46.55","GRAND ETANG","8201969","2022-08-08 22:00","2022","08","08","22:00","14.6","","12.8","","89","","","","16","","10","","","","101.50","","","","","","NA"
"-61.05","46.55","GRAND ETANG","8201969","2022-08-08 23:00","2022","08","08","23:00","13.7","","10.9","","83","","","","14","","16","","","","101.42","","","","","","NA"
"-61.05","46.55","GRAND ETANG","8201969","2022-08-09 00:00","2022","08","09","00:00","14.1","","12.5","","90","","","","13","","16","","","","101.37","","","","","","NA"
"-61.05","46.55","GRAND ETANG","8201969","2022-08-09 01:00","2022","08","09","01:00","14.4","","13.1","","92","","","","2","","5","","","","101.37","","","","","","NA"
"-61.05","46.55","GRAND ETANG","8201969","2022-08-09 02:00","2022","08","09","02:00","14.2","","13.3","","95","","","","7","","5","","","","101.34","","","","","","NA"
"-61.05","46.55","GRAND ETANG","8201969","2022-08-09 03:00","2022","08","09","03:00","15.1","","13.7","","91","","","","2","","11","","","","101.22","","","","","","NA"
"-61.05","46.55","GRAND ETANG","8201969","2022-08-09 04:00","2022","08","09","04:00","14.7","","13.6","","94","","","","1","","25","","","","101.26","","","","","","NA"
"-61.05","46.55","GRAND ETANG","8201969","2022-08-09 05:00","2022","08","09","05:00","14.6","","13.5","","93","","","","2","","19","","","","101.15","","","","","","NA"
"-61.05","46.55","GRAND ETANG","8201969","2022-08-09 06:00","2022","08","09","06:00","14.6","","12.5","","87","","","","3","","17","","","","101.04","","","","","","NA"
"-61.05","46.55","GRAND ETANG","8201969","2022-08-09 07:00","2022","08","09","07:00","15.8","","13.2","","85","","","","11","","39","","","","100.87","","","","","","NA"
"-61.05","46.55","GRAND ETANG","8201969","2022-08-09 08:00","2022","08","09","08:00","15.6","","13.2","","85","","","","12","","51","","","","100.70","","","","","","NA"
"-61.05","46.55","GRAND ETANG","8201969","2022-08-09 09:00","2022","08","09","09:00","15.8","","13.5","","86","","","","12","","52","","","","100.57","","","","","","NA"
"-61.05","46.55","GRAND ETANG","8201969","2022-08-09 10:00","2022","08","09","10:00","16.3","","14.0","","87","","","","11","","41","","","","100.63","","","","","","NA"
"-61.05","46.55","GRAND ETANG","8201969","2022-08-09 11:00","2022","08","09","11:00","16.9","","14.4","","85","","","","12","","37","","","","100.69","","","","","","NA"
"-61.05","46.55","GRAND ETANG","8201969","2022-08-09 12:00","2022","08","09","12:00","18.2","","15.2","","83","","","","27","","9","","","","100.72","","","","","","NA"
"-61.05","46.55","GRAND ETANG","8201969","2022-08-09 13:00","2022","08","09","13:00","18.7","","15.4","","81","","","","12","","8","","","","100.69","","","","","","NA"
"-61.05","46.55","GRAND ETANG","8201969","2022-08-09 14:00","2022","08","09","14:00","18.8","","16.1","","84","","","","9","","18","","","","100.72","","","","","","NA"
"-61.05","46.55","GRAND ETANG","8201969","2022-08-09 15:00","2022","08","09","15:00","18.2","","16.3","","89","","","","3","","12","","","","100.83","","","","","","NA"
"-61.05","46.55","GRAND ETANG","8201969","2022-08-09 16:00","2022","08","09","16:00","19.5","","15.7","","79","","","","4","","7","","","","100.85","","","","","","NA"
"-61.05","46.55","GRAND ETANG","8201969","2022-08-09 17:00","2022","08","09","17:00","20.1","","16.0","","77","","","","2","","10","","","","100.89","","25","","","","NA"
"-61.05","46.55","GRAND ETANG","8201969","2022-08-09 18:00","2022","08","09","18:00","18.8","","15.9","","83","","","","3","","17","","","","100.97","","","","","","NA"
"-61.05","46.55","GRAND ETANG","8201969","2022-08-09 19:00","2022","08","09","19:00","18.5","","16.1","","86","","","","2","","16","","","","101.06","","","","","","NA"
"-61.05","46.55","GRAND ETANG","8201969","2022-08-09 20:00","2022","08","09","20:00","17.5","","15.5","","88","","","","4","","8","","","","101.15","","","","","","NA"
"-61.05","46.55","GRAND ETANG","8201969","2022-08-09 21:00","2022","08","09","21:00","16.8","","14.9","","89","","","","5","","8","","","","101.22","","","","","","NA"
"-61.05","46.55","GRAND ETANG","8201969","2022-08-09 22:00","2022","08","09","22:00","16.6","","14.5","","87","","","","6","","7","","","","101.27","","","","","","NA"
"-61.05","46.55","GRAND ETANG","8201969","2022-08-09 23:00","2022","08","09","23:00","16.9","","14.2","","84","","","","7","","10","","","","101.29","","","","","","NA"
"-61.05","46.55","GRAND ETANG","8201969","2022-08-10 00:00","2022","08","10","00:00","17.0","","13.7","","81","","","","5","","14","","","","101.32","","","","","","NA"
"-61.05","46.55","GRAND ETANG","8201969","2022-08-10 01:00","2022","08","10","01:00","17.1","","13.4","","79","","","","2","","15","","","","101.40","","","","","","NA"
"-61.05","46.55","GRAND ETANG","8201969","2022-08-10 02:00","2022","08","10","02:00","16.5","","13.3","","82","","","","4","","13","","","","101.41","","","","","","NA"
"-61.05","46.55","GRAND ETANG","8201969","2022-08-10 03:00","2022","08","10","03:00","15.9","","13.5","","86","","","","7","","9","","","","101.46","","","","","","NA"
"-61.05","46.55","GRAND ETANG","8201969","2022-08-10 04:00","2022","08","10","04:00","15.3","","13.2","","87","","","","5","","11","","","","101.50","","","","","","NA"
"-61.05","46.55","GRAND ETANG","8201969","2022-08-10 05:00","2022","08","10","05:00","15.4","","13.0","","85","","","","6","","10","","","","101.56","","","","","","NA"
"-61.05","46.55","GRAND ETANG","8201969","2022-08-10 06:00","2022","08","10","06:00","15.9","","13.5","","86","","","","8","","7","","","","101.63","","","","","","NA"
"-61.05","46.55","GRAND ETANG","8201969","2022-08-10 07:00","2022","08","10","07:00","17.0","","13.6","","80","","","","3","","8","","","","101.65","","","","","","NA"
"-61.05","46.55","GRAND ETANG","8201969","2022-08-10 08:00","2022","08","10","08:00","17.7","","14.0","","79","","","","3","","10","","","","101.68","","","","","","NA"
"-61.05","46.55","GRAND ETANG","8201969","2022-08-10 09:00","2022","08","10","09:00","18.2","","14.0","","77","","","","4","","13","","","","101.68","","","","","","NA"
"-61.05","46.55","GRAND ETANG","8201969","2022-08-10 10:00","2022","08","10","10:00","18.2","","14.8","","80","","","","1","","16","","","","101.68","","","","","","NA"
"-61.05","46.55","GRAND ETANG","8201969","2022-08-10 11:00","2022","08","10","11:00","18.8","","14.3","","75","","","","5","","14","","","","101.68","","","","","","NA"
"-61.05","46.55","GRAND ETANG","8201969","2022-08-10 12:00","2022","08","10","12:00","20.1","","15.2","","74","","","","27","","3","","","","101.66","","","","","","NA"
"-61.05","46.55","GRAND ETANG","8201969","2022-08-10 13:00","2022","08","10","13:00","20.0","","14.2","","69","","","","1","","9","","","","101.64","","","","","","NA"
"-61.05","46.55","GRAND ETANG","8201969","2022-08-10 14:00","2022","08","10","14:00","20.7","","14.8","","69","","","","11","","16","","","","101.61","","25","","","","NA"
"-61.05","46.55","GRAND ETANG","8201969","2022-08-10 15:00","2022","08","10","15:00","20.3","","14.8","","71","","","","12","","16","","","","101.58","","","","","","NA"
"-61.05","46.55","GRAND ETANG","8201969","2022-08-10 16:00","2022","08","10","16:00","19.7","","14.3","","71","","","","13","","12","","","","101.60","","","","","","NA"
"-61.05","46.55","GRAND ETANG","8201969","2022-08-10 17:00","2022","08","10","17:00","19.7","","14.6","","72","","","","12","","11","","","","101.59","","","","","","NA"
"-61.05","46.55","GRAND ETANG","8201969","2022-08-10 18:00","2022","08","10","18:00","18.8","","14.4","","75","","","","13","","16","","","","101.58","","","","","","NA"
"-61.05","46.55","GRAND ETANG","8201969","2022-08-10 19:00","2022","08","10","19:00","17.8","","13.9","","78","","","","13","","15","","","","101.58","","","","","","NA"
"-61.05","46.55","GRAND ETANG","8201969","2022-08-10 20:00","2022","08","10","20:00","17.4","","14.1","","81","","","","13","","17","","","","101.58","","","","","","NA"
"-61.05","46.55","GRAND ETANG","8201969","2022-08-10 21:00","2022","08","10","21:00","17.1","","13.6","","80","","","","14","","21","","","","101.57","","","","","","NA"
"-61.05","46.55","GRAND ETANG","8201969","2022-08-10 22:00","2022","08","10","22:00","17.1","","13.3","","79","","","","14","","24","","","","101.53","","","","","","NA"
"-61.05","46.55","GRAND ETANG","8201969","2022-08-10 23:00","2022","08","10","23:00","17.0","","13.3","","79","","","","13","","29","","","","101.49","","","","","","NA"
"-61.05","46.55","GRAND ETANG","8201969","2022-08-11 00:00","2022","08","11","00:00","17.0","","13.4","","80","","","","13","","25","","","","101.47","","","","","","NA"
"-61.05","46.55","GRAND ETANG","8201969","2022-08-11 01:00","2022","08","11","01:00","17.1","","13.5","","79","","","","17","","9","","","","101.48","","","","","","NA"
"-61.05","46.55","GRAND ETANG","8201969","2022-08-11 02:00","2022","08","11","02:00","16.7","","13.5","","82","","","","16","","10","","","","101.49","","","","","","NA"
"-61.05","46.55","GRAND ETANG","8201969","2022-08-11 03:00","2022","08","11","03:00","16.9","","13.5","","81","","","","30","","7","","","","101.45","","","","","","NA"
"-61.05","46.55","GRAND ETANG","8201969","2022-08-11 04:00","2022","08","11","04:00","16.2","","13.4","","84","","","","14","","7","","","","101.47","","","","","","NA"
"-61.05","46.55","GRAND ETANG","8201969","2022-08-11 05:00","2022","08","11","05:00","16.5","","13.4","","82","","","","18","","8","","","","101.43","","","","","","NA"
"-61.05","46.55","GRAND ETANG","8201969","2022-08-11 06:00","2022","08","11","06:00","17.5","","14.0","","80","","","","15","","6","","","","101.40","","","","","","NA"
"-61.05","46.55","GRAND ETANG","8201969","2022-08-11 07:00","2022","08","11","07:00","18.0","","14.2","","78","","","","14","","14","","","","101.39","","","","","","NA"
"-61.05","46.55","GRAND ETANG","8201969","2022-08-11 08:00","2022","08","11","08:00","19.1","","14.8","","76","","","","14","","14","","","","101.39","","","","","","NA"
"-61.05","46.55","GRAND ETANG","8201969","2022-08-11 09:00","2022","08","11","09:00","20.6","","14.4","","68","","","","15","","18","","","","101.34","","","","","","NA"
"-61.05","46.55","GRAND ETANG","8201969","2022-08-11 10:00","2022","08","11","10:00","21.3","","15.0","","67","","","","18","","10","","","","101.33","","25","","","","NA"
"-61.05","46.55","GRAND ETANG","8201969","2022-08-11 11:00","2022","08","11","11:00","21.6","","16.9","","75","","","","21","","17","","","","101.27","","27","","","","NA"
"-61.05","46.55","GRAND ETANG","8201969","2022-08-11 12:00","2022","08","11","12:00","23.1","","15.3","","62","","","","17","","8","","","","101.25","","27","","","","NA"
"-61.05","46.55","GRAND ETANG","8201969","2022-08-11 13:00","2022","08","11","13:00","22.9","","16.5","","67","","","","24","","13","","","","101.21","","28","","","","NA"
"-61.05","46.55","GRAND ETANG","8201969","2022-08-11 14:00","2022","08","11","14:00","22.2","","17.9","","77","","","","25","","22","","","","101.21","","28","","","","NA"
"-61.05","46.55","GRAND ETANG","8201969","2022-08-11 15:00","2022","08","11","15:00","24.8","","18.7","","69","","","","25","","13","","","","101.23","","31","","","","NA"
"-61.05","46.55","GRAND ETANG","8201969","2022-08-11 16:00","2022","08","11","16:00","23.4","","18.4","","73","","","","29","","6","","","","101.21","","30","","","","NA"
"-61.05","46.55","GRAND ETANG","8201969","2022-08-11 17:00","2022","08","11","17:00","21.1","","17.5","","80","","","","35","","6","","","","101.19","","27","","","","NA"
"-61.05","46.55","GRAND ETANG","8201969","2022-08-11 18:00","2022","08","11","18:00","22.1","","18.1","","78","","","","36","","10","","","","101.17","","28","","","","NA"
"-61.05","46.55","GRAND ETANG","8201969","2022-08-11 19:00","2022","08","11","19:00","20.4","","16.8","","80","","","","12","","4","","","","101.16","","26","","","","NA"
"-61.05","46.55","GRAND ETANG","8201969","2022-08-11 20:00","2022","08","11","20:00","19.5","","16.0","","80","","","","13","","22","","","","101.16","","","","","","NA"
"-61.05","46.55","GRAND ETANG","8201969","2022-08-11 21:00","2022","08","11","21:00","19.2","","15.6","","80","","","","13","","33","","","","101.19","","","","","","NA"
"-61.05","46.55","GRAND ETANG","8201969","2022-08-11 22:00","2022","08","11","22:00","19.0","","15.2","","79","","","","13","","28","","","","101.20","","","","","","NA"
"-61.05","46.55","GRAND ETANG","8201969","2022-08-11 23:00","2022","08","11","23:00","18.9","","14.4","","75","","","","13","","32","","","","101.19","","","","","","NA"
"-61.05","46.55","GRAND ETANG","8201969","2022-08-12 00:00","2022","08","12","00:00","18.8","","13.7","","72","","","","13","","29","","","","101.17","","","","","","NA"
"-61.05","46.55","GRAND ETANG","8201969","2022-08-12 01:00","2022","08","12","01:00","19.0","","14.2","","74","","","","13","","21","","","","101.17","","","","","","NA"
"-61.05","46.55","GRAND ETANG","8201969","2022-08-12 02:00","2022","08","12","02:00","19.3","","14.2","","72","","","","12","","16","","","","101.12","","","","","","NA"
"-61.05","46.55","GRAND ETANG","8201969","2022-08-12 03:00","2022","08","12","03:00","19.1","","13.9","","72","","","","13","","16","","","","101.09","","","","","","NA"
"-61.05","46.55","GRAND ETANG","8201969","2022-08-12 04:00","2022","08","12","04:00","19.2","","13.4","","69","","","","12","","17","","","","101.09","","","","","","NA"
"-61.05","46.55","GRAND ETANG","8201969","2022-08-12 05:00","2022","08","12","05:00","19.0","","14.0","","73","","","","12","","18","","","","101.12","","","","","","NA"
"-61.05","46.55","GRAND ETANG","8201969","2022-08-12 06:00","2022","08","12","06:00","19.5","","15.2","","76","","","","32","","7","","","","101.14","","","","","","NA"
"-61.05","46.55","GRAND ETANG","8201969","2022-08-12 07:00","2022","08","12","07:00","19.5","","15.3","","77","","","","11","","3","","","","101.15","","","","","","NA"
"-61.05","46.55","GRAND ETANG","8201969","2022-08-12 08:00","2022","08","12","08:00","20.9","","16.4","","76","","","","29","","3","","","","101.16","","26","","","","NA"
"-61.05","46.55","GRAND ETANG","8201969","2022-08-12 09:00","2022","08","12","09:00","21.3","","16.7","","75","","","","35","","3","","","","101.18","","26","","","","NA"
"-61.05","46.55","GRAND ETANG","8201969","2022-08-12 10:00","2022","08","12","10:00","22.5","","17.3","","72","","","","28","","10","","","","101.19","","28","","","","NA"
"-61.05","46.55","GRAND ETANG","8201969","2022-08-12 11:00","2022","08","12","11:00","22.6","","18.1","","76","","","","31","","19","","","","101.17","","29","","","","NA"
"-61.05","46.55","GRAND ETANG","8201969","2022-08-12 12:00","2022","08","12","12:00","21.9","","18.2","","80","","","","33","","21","","","","101.14","","28","","","","NA"
"-61.05","46.55","GRAND ETANG","8201969","2022-08-12 13:00","2022","08","12","13:00","21.3","","17.7","","80","","","","34","","21","","","","101.16","","27","","","","NA"
"-61.05","46.55","GRAND ETANG","8201969","2022-08-12 14:00","2022","08","12","14:00","20.8","","17.7","","83","","","","35","","20","","","","101.16","","27","","","","NA"
"-61.05","46.55","GRAND ETANG","8201969","2022-08-12 15:00","2022","08","12","15:00","20.5","","17.7","","84","","","","1","","19","","","","101.16","","26","","","","NA"
"-61.05","46.55","GRAND ETANG","8201969","2022-08-12 16:00","2022","08","12","16:00","21.4","","18.2","","82","","","","36","","13","","","","101.16","","28","","","","NA"
"-61.05","46.55","GRAND ETANG","8201969","2022-08-12 17:00","2022","08","12","17:00","21.2","","18.5","","85","","","","33","","15","","","","101.14","","28","","","","NA"
"-61.05","46.55","GRAND ETANG","8201969","2022-08-12 18:00","2022","08","12","18:00","21.0","","18.6","","86","","","","34","","11","","","","101.16","","27","","","","NA"
"-61.05","46.55","GRAND ETANG","8201969","2022-08-12 19:00","2022","08","12","19:00","20.6","","18.5","","88","","","","35","","1","","","","101.19","","27","","","","NA"
"-61.05","46.55","GRAND ETANG","8201969","2022-08-12 20:00","2022","08","12","20:00","20.4","","18.8","","90","","","","22","","2","","","","101.19","","27","","","","NA"
"-61.05","46.55","GRAND ETANG","8201969","2022-08-12 21:00","2022","08","12","21:00","20.1","","18.1","","89","","","","0","","1","","","","101.23","","26","","","","NA"
"-61.05","46.55","GRAND ETANG","8201969","2022-08-12 22:00","2022","08","12","22:00","19.7","","17.4","","87","","","","14","","6","","","","101.25","","","","","","NA"
"-61.05","46.55","GRAND ETANG","8201969","2022-08-12 23:00","2022","08","12","23:00","19.5","","17.4","","88","","","","16","","5","","","","101.29","","","","","","NA"
"-61.05","46.55","GRAND ETANG","8201969","2022-08-13 00:00","2022","08","13","00:00","18.5","","17.0","","91","","","","14","","8","","","","101.27","","","","","","NA"
"-61.05","46.55","GRAND ETANG","8201969","2022-08-13 01:00","2022","08","13","01:00","19.0","","16.8","","87","","","","16","","7","","","","101.28","","","","","","NA"
"-61.05","46.55","GRAND ETANG","8201969","2022-08-13 02:00","2022","08","13","02:00","19.0","","16.8","","87","","","","12","","5","","","","101.27","","","","","","NA"
"-61.05","46.55","GRAND ETANG","8201969","2022-08-13 03:00","2022","08","13","03:00","19.0","","17.0","","88","","","","10","","6","","","","101.29","","","","","","NA"
"-61.05","46.55","GRAND ETANG","8201969","2022-08-13 04:00","2022","08","13","04:00","18.4","","16.7","","90","","","","15","","4","","","","101.33","","","","","","NA"
"-61.05","46.55","GRAND ETANG","8201969","2022-08-13 05:00","2022","08","13","05:00","17.8","","16.4","","91","","","","13","","7","","","","101.37","","","","","","NA"
"-61.05","46.55","GRAND ETANG","8201969","2022-08-13 06:00","2022","08","13","06:00","19.3","","17.2","","88","","","","14","","7","","","","101.42","","","","","","NA"
"-61.05","46.55","GRAND ETANG","8201969","2022-08-13 07:00","2022","08","13","07:00","20.2","","17.5","","85","","","","14","","7","","","","101.40","","26","","","","NA"
"-61.05","46.55","GRAND ETANG","8201969","2022-08-13 08:00","2022","08","13","08:00","22.1","","18.2","","78","","","","31","","5","","","","101.46","","28","","","","NA"
"-61.05","46.55","GRAND ETANG","8201969","2022-08-13 09:00","2022","08","13","09:00","21.4","","17.9","","80","","","","34","","6","","","","101.52","","27","","","","NA"
"-61.05","46.55","GRAND ETANG","8201969","2022-08-13 10:00","2022","08","13","10:00","22.4","","18.5","","79","","","","36","","13","","","","101.50","","29","","","","NA"
"-61.05","46.55","GRAND ETANG","8201969","2022-08-13 11:00","2022","08","13","11:00","23.0","","18.6","","76","","","","33","","16","","","","101.48","","29","","","","NA"
"-61.05","46.55","GRAND ETANG","8201969","2022-08-13 12:00","2022","08","13","12:00","23.3","","18.7","","75","","","","33","","13","","","","101.49","","30","","","","NA"
"-61.05","46.55","GRAND ETANG","8201969","2022-08-13 13:00","2022","08","13","13:00","24.0","","19.8","","77","","","","36","","20","","","","101.47","","31","","","","NA"
"-61.05","46.55","GRAND ETANG","8201969","2022-08-13 14:00","2022","08","13","14:00","23.5","","19.1","","77","","","","1","","22","","","","101.47","","30","","","","NA"
"-61.05","46.55","GRAND ETANG","8201969","2022-08-13 15:00","2022","08","13","15:00","22.2","","18.5","","80","","","","1","","23","","","","101.47","","29","","","","NA"
"-61.05","46.55","GRAND ETANG","8201969","2022-08-13 16:00","2022","08","13","16:00","22.1","","18.9","","82","","","","36","","24","","","","101.47","","29","","","","NA"
"-61.05","46.55","GRAND ETANG","8201969","2022-08-13 17:00","2022","08","13","17:00","22.7","","19.4","","82","","","","1","","11","","","","101.44","","30","","","","NA"
"-61.05","46.55","GRAND ETANG","8201969","2022-08-13 18:00","2022","08","13","18:00","22.2","","19.2","","83","","","","1","","12","","","","101.41","","29","","","","NA"
"-61.05","46.55","GRAND ETANG","8201969","2022-08-13 19:00","2022","08","13","19:00","20.8","","18.8","","88","","","","17","","9","","","","101.44","","27","","","","NA"
"-61.05","46.55","GRAND ETANG","8201969","2022-08-13 20:00","2022","08","13","20:00","19.3","","15.9","","81","","","","14","","6","","","","101.49","","","","","","NA"
"-61.05","46.55","GRAND ETANG","8201969","2022-08-13 21:00","2022","08","13","21:00","18.7","","15.7","","83","","","","13","","4","","","","101.46","","","","","","NA"
"-61.05","46.55","GRAND ETANG","8201969","2022-08-13 22:00","2022","08","13","22:00","18.1","","15.5","","85","","","","2","","8","","","","101.41","","","","","","NA"
"-61.05","46.55","GRAND ETANG","8201969","2022-08-13 23:00","2022","08","13","23:00","18.5","","15.2","","81","","","","5","","9","","","","101.40","","","","","","NA"
"-61.05","46.55","GRAND ETANG","8201969","2022-08-14 00:00","2022","08","14","00:00","18.1","","15.2","","83","","","","2","","7","","","","101.38","","","","","","NA"
"-61.05","46.55","GRAND ETANG","8201969","2022-08-14 01:00","2022","08","14","01:00","17.8","","15.6","","87","","","","10","","6","","","","101.31","","","","","","NA"
"-61.05","46.55","GRAND ETANG","8201969","2022-08-14 02:00","2022","08","14","02:00","18.6","","16.4","","87","","","","26","","8","","","","101.31","","","","","","NA"
"-61.05","46.55","GRAND ETANG","8201969","2022-08-14 03:00","2022","08","14","03:00","17.7","","15.9","","89","","","","13","","2","","","","101.27","","","","","","NA"
"-61.05","46.55","GRAND ETANG","8201969","2022-08-14 04:00","2022","08","14","04:00","17.6","","16.0","","90","","","","16","","2","","","","101.17","","","","","","NA"
"-61.05","46.55","GRAND ETANG","8201969","2022-08-14 05:00","2022","08","14","05:00","18.6","","17.1","","91","","","","25","","9","","","","101.16","","","","","","NA"
"-61.05","46.55","GRAND ETANG","8201969","2022-08-14 06:00","2022","08","14","06:00","18.0","","16.7","","92","","","","14","","8","","","","101.18","","","","","","NA"
"-61.05","46.55","GRAND ETANG","8201969","2022-08-14 07:00","2022","08","14","07:00","18.9","","17.3","","90","","","","18","","4","","","","101.18","","","","","","NA"
"-61.05","46.55","GRAND ETANG","8201969","2022-08-14 08:00","2022","08","14","08:00","20.6","","17.5","","83","","","","26","","2","","","","101.12","","26","","","","NA"
"-61.05","46.55","GRAND ETANG","8201969","2022-08-14 09:00","2022","08","14","09:00","20.5","","17.6","","83","","","","33","","2","","","","101.10","","26","","","","NA"
"-61.05","46.55","GRAND ETANG","8201969","2022-08-14 10:00","2022","08","14","10:00","20.7","","18.4","","87","","","","34","","6","","","","101.07","","27","","","","NA"
"-61.05","46.55","GRAND ETANG","8201969","2022-08-14 11:00","2022","08","14","11:00","20.2","","18.1","","88","","","","32","","9","","","","101.03","","26","","","","NA"
"-61.05","46.55","GRAND ETANG","8201969","2022-08-14 12:00","2022","08","14","12:00","20.3","","19.0","","92","","","","36","","12","","","","100.96","","27","","","","NA"
"-61.05","46.55","GRAND ETANG","8201969","2022-08-14 13:00","2022","08","14","13:00","20.7","","19.7","","94","","","","36","","15","","","","100.89","","28","","","","NA"
"-61.05","46.55","GRAND ETANG","8201969","2022-08-14 14:00","2022","08","14","14:00","20.7","","19.6","","93","","","","1","","21","","","","100.84","","28","","","","NA"
"-61.05","46.55","GRAND ETANG","8201969","2022-08-14 15:00","2022","08","14","15:00","21.2","","19.8","","92","","","","36","","18","","","","100.78","","29","","","","NA"
"-61.05","46.55","GRAND ETANG","8201969","2022-08-14 16:00","2022","08","14","16:00","20.9","","19.8","","93","","","","35","","18","","","","100.75","","28","","","","NA"
"-61.05","46.55","GRAND ETANG","8201969","2022-08-14 17:00","2022","08","14","17:00","20.5","","19.9","","96","","","","33","","17","","","","100.75","","28","","","","NA"
"-61.05","46.55","GRAND ETANG","8201969","2022-08-14 18:00","2022","08","14","18:00","20.6","","20.0","","97","","","","35","","4","","","","100.78","","28","","","","NA"
"-61.05","46.55","GRAND ETANG","8201969","2022-08-14 19:00","2022","08","14","19:00","19.7","","19.1","","96","","","","29","","14","","","","100.85","","","","","","NA"
"-61.05","46.55","GRAND ETANG","8201969","2022-08-14 20:00","2022","08","14","20:00","20.0","","19.1","","95","","","","26","","18","","","","100.93","","27","","","","NA"
"-61.05","46.55","GRAND ETANG","8201969","2022-08-14 21:00","2022","08","14","21:00","20.1","","18.8","","92","","","","25","","21","","","","100.97","","27","","","","NA"
"-61.05","46.55","GRAND ETANG","8201969","2022-08-14 22:00","2022","08","14","22:00","19.8","","18.8","","94","","","","25","","7","","","","100.97","","","","","","NA"
"-61.05","46.55","GRAND ETANG","8201969","2022-08-14 23:00","2022","08","14","23:00","19.0","","18.0","","94","","","","28","","43","","","","101.02","","","","","","NA"
"-61.05","46.55","GRAND ETANG","8201969","2022-08-15 00:00","2022","08","15","00:00","18.6","","17.3","","93","","","","28","","30","","","","101.13","","","","","","NA"
"-61.05","46.55","GRAND ETANG","8201969","2022-08-15 01:00","2022","08","15","01:00","18.8","","17.2","","91","","","","28","","22","","","","101.13","","","","","","NA"
"-61.05","46.55","GRAND ETANG","8201969","2022-08-15 02:00","2022","08","15","02:00","18.1","","16.8","","92","","","","29","","38","","","","101.12","","","","","","NA"
"-61.05","46.55","GRAND ETANG","8201969","2022-08-15 03:00","2022","08","15","03:00","18.7","","15.9","","84","","","","29","","32","","","","101.16","","","","","","NA"
"-61.05","46.55","GRAND ETANG","8201969","2022-08-15 04:00","2022","08","15","04:00","18.9","","16.6","","87","","","","28","","27","","","","101.19","","","","","","NA"
"-61.05","46.55","GRAND ETANG","8201969","2022-08-15 05:00","2022","08","15","05:00","18.9","","16.8","","88","","","","28","","26","","","","101.21","","","","","","NA"
"-61.05","46.55","GRAND ETANG","8201969","2022-08-15 06:00","2022","08","15","06:00","19.0","","16.6","","86","","","","30","","33","","","","101.22","","","","","","NA"
"-61.05","46.55","GRAND ETANG","8201969","2022-08-15 07:00","2022","08","15","07:00","18.3","","16.7","","90","","","","31","","33","","","","101.29","","","","","","NA"
"-61.05","46.55","GRAND ETANG","8201969","2022-08-15 08:00","2022","08","15","08:00","19.4","","16.3","","82","","","","29","","28","","","","101.34","","","","","","NA"
"-61.05","46.55","GRAND ETANG","8201969","2022-08-15 09:00","2022","08","15","09:00","19.4","","16.1","","81","","","","29","","26","","","","101.36","","","","","","NA"
"-61.05","46.55","GRAND ETANG","8201969","2022-08-15 10:00","2022","08","15","10:00","19.7","","16.4","","81","","","","29","","25","","","","101.38","","","","","","NA"
"-61.05","46.55","GRAND ETANG","8201969","2022-08-15 11:00","2022","08","15","11:00","20.1","","15.7","","76","","","","29","","27","","","","101.43","","25","","","","NA"
"-61.05","46.55","GRAND ETANG","8201969","2022-08-15 12:00","2022","08","15","12:00","20.9","","16.2","","75","","","","29","","28","","","","101.44","","26","","","","NA"
"-61.05","46.55","GRAND ETANG","8201969","2022-08-15 13:00","2022","08","15","13:00","21.8","","16.2","","71","","","","29","","20","","","","101.46","","27","","","","NA"
"-61.05","46.55","GRAND ETANG","8201969","2022-08-15 14:00","2022","08","15","14:00","22.3","","16.5","","70","","","","30","","17","","","","101.49","","27","","","","NA"
"-61.05","46.55","GRAND ETANG","8201969","2022-08-15 15:00","2022","08","15","15:00","22.1","","16.5","","70","","","","29","","20","","","","101.50","","27","","","","NA"
"-61.05","46.55","GRAND ETANG","8201969","2022-08-15 16:00","2022","08","15","16:00","22.2","","17.4","","74","","","","28","","18","","","","101.54","","28","","","","NA"
"-61.05","46.55","GRAND ETANG","8201969","2022-08-15 17:00","2022","08","15","17:00","22.2","","17.6","","75","","","","29","","13","","","","101.56","","28","","","","NA"
"-61.05","46.55","GRAND ETANG","8201969","2022-08-15 18:00","2022","08","15","18:00","21.6","","17.4","","77","","","","31","","6","","","","101.57","","27","","","","NA"
"-61.05","46.55","GRAND ETANG","8201969","2022-08-15 19:00","2022","08","15","19:00","19.0","","15.6","","81","","","","16","","3","","","","101.64","","","","","","NA"
"-61.05","46.55","GRAND ETANG","8201969","2022-08-15 20:00","2022","08","15","20:00","16.5","","15.0","","90","","","","14","","13","","","","101.67","","","","","","NA"
"-61.05","46.55","GRAND ETANG","8201969","2022-08-15 21:00","2022","08","15","21:00","16.4","","14.0","","86","","","","14","","14","","","","101.70","","","","","","NA"
"-61.05","46.55","GRAND ETANG","8201969","2022-08-15 22:00","2022","08","15","22:00","15.0","","12.6","","86","","","","13","","13","","","","101.71","","","","","","NA"
"-61.05","46.55","GRAND ETANG","8201969","2022-08-15 23:00","2022","08","15","23:00","14.3","","12.1","","87","","","","13","","11","","","","101.72","","","","","","NA"
"-61.05","46.55","GRAND ETANG","8201969","2022-08-16 00:00","2022","08","16","00:00","13.7","","12.0","","89","","","","13","","11","","","","101.71","","","","","","NA"
"-61.05","46.55","GRAND ETANG","8201969","2022-08-16 01:00","2022","08","16","01:00","14.2","","11.7","","85","","","","14","","14","","","","101.71","","","","","","NA"
"-61.05","46.55","GRAND ETANG","8201969","2022-08-16 02:00","2022","08","16","02:00","14.0","","11.5","","85","","","","13","","12","","","","101.74","","","","","","NA"
"-61.05","46.55","GRAND ETANG","8201969","2022-08-16 03:00","2022","08","16","03:00","14.0","","11.2","","83","","","","14","","13","","","","101.75","","","","","","NA"
"-61.05","46.55","GRAND ETANG","8201969","2022-08-16 04:00","2022","08","16","04:00","14.2","","11.1","","81","","","","14","","10","","","","101.78","","","","","","NA"
"-61.05","46.55","GRAND ETANG","8201969","2022-08-16 05:00","2022","08","16","05:00","13.5","","10.8","","84","","","","15","","9","","","","101.83","","","","","","NA"
"-61.05","46.55","GRAND ETANG","8201969","2022-08-16 06:00","2022","08","16","06:00","14.3","","11.4","","82","","","","10","","7","","","","101.89","","","","","","NA"
"-61.05","46.55","GRAND ETANG","8201969","2022-08-16 07:00","2022","08","16","07:00","16.1","","13.0","","82","","","","14","","9","","","","101.95","","","","","","NA"
"-61.05","46.55","GRAND ETANG","8201969","2022-08-16 08:00","2022","08","16","08:00","21.7","","12.5","","56","","","","0","","1","","","","101.98","","","","","","NA"
"-61.05","46.55","GRAND ETANG","8201969","2022-08-16 09:00","2022","08","16","09:00","20.2","","13.8","","67","","","","35","","2","","","","101.98","","","","","","NA"
"-61.05","46.55","GRAND ETANG","8201969","2022-08-16 10:00","2022","08","16","10:00","21.3","","15.0","","67","","","","34","","8","","","","101.98","","25","","","","NA"
"-61.05","46.55","GRAND ETANG","8201969","2022-08-16 11:00","2022","08","16","11:00","22.6","","16.8","","70","","","","31","","10","","","","101.99","","28","","","","NA"
"-61.05","46.55","GRAND ETANG","8201969","2022-08-16 12:00","2022","08","16","12:00","21.9","","17.4","","76","","","","33","","15","","","","101.96","","27","","","","NA"
"-61.05","46.55","GRAND ETANG","8201969","2022-08-16 13:00","2022","08","16","13:00","22.1","","16.0","","68","","","","36","","19","","","","101.97","","27","","","","NA"
"-61.05","46.55","GRAND ETANG","8201969","2022-08-16 14:00","2022","08","16","14:00","23.6","","16.8","","66","","","","36","","18","","","","101.94","","29","","","","NA"
"-61.05","46.55","GRAND ETANG","8201969","2022-08-16 15:00","2022","08","16","15:00","22.5","","18.4","","77","","","","1","","20","","","","101.93","","29","","","","NA"
"-61.05","46.55","GRAND ETANG","8201969","2022-08-16 16:00","2022","08","16","16:00","23.4","","19.0","","76","","","","1","","22","","","","101.92","","30","","","","NA"
"-61.05","46.55","GRAND ETANG","8201969","2022-08-16 17:00","2022","08","16","17:00","24.0","","18.3","","71","","","","36","","23","","","","101.90","","30","","","","NA"
"-61.05","46.55","GRAND ETANG","8201969","2022-08-16 18:00","2022","08","16","18:00","23.2","","12.9","","52","","","","7","","20","","","","101.92","","26","","","","NA"
"-61.05","46.55","GRAND ETANG","8201969","2022-08-16 19:00","2022","08","16","19:00","21.5","","14.1","","62","","","","7","","9","","","","101.96","","25","","","","NA"
"-61.05","46.55","GRAND ETANG","8201969","2022-08-16 20:00","2022","08","16","20:00","19.6","","14.0","","70","","","","4","","5","","","","101.96","","","","","","NA"
"-61.05","46.55","GRAND ETANG","8201969","2022-08-16 21:00","2022","08","16","21:00","19.7","","13.4","","67","","","","7","","17","","","","101.90","","","","","","NA"
"-61.05","46.55","GRAND ETANG","8201969","2022-08-16 22:00","2022","08","16","22:00","19.1","","14.6","","75","","","","27","","7","","","","101.91","","","","","","NA"
"-61.05","46.55","GRAND ETANG","8201969","2022-08-16 23:00","2022","08","16","23:00","19.1","","14.8","","76","","","","4","","14","","","","101.88","","","","","","NA"
"-61.05","46.55","GRAND ETANG","8201969","2022-08-17 00:00","2022","08","17","00:00","19.1","","15.0","","77","","","","4","","8","","","","101.87","","","","","","NA"
"-61.05","46.55","GRAND ETANG","8201969","2022-08-17 01:00","2022","08","17","01:00","19.4","","14.9","","75","","","","4","","10","","","","101.82","","","","","","NA"
"-61.05","46.55","GRAND ETANG","8201969","2022-08-17 02:00","2022","08","17","02:00","19.3","","14.9","","76","","","","2","","16","","","","101.74","","","","","","NA"
"-61.05","46.55","GRAND ETANG","8201969","2022-08-17 03:00","2022","08","17","03:00","19.3","","15.1","","77","","","","2","","17","","","","101.69","","","","","","NA"
"-61.05","46.55","GRAND ETANG","8201969","2022-08-17 04:00","2022","08","17","04:00","19.3","","15.2","","77","","","","3","","9","","","","101.71","","","","","","NA"
"-61.05","46.55","GRAND ETANG","8201969","2022-08-17 05:00","2022","08","17","05:00","18.5","","15.7","","84","","","","3","","10","","","","101.71","","","","","","NA"
"-61.05","46.55","GRAND ETANG","8201969","2022-08-17 06:00","2022","08","17","06:00","18.6","","15.9","","84","","","","1","","20","","","","101.69","","","","","","NA"
"-61.05","46.55","GRAND ETANG","8201969","2022-08-17 07:00","2022","08","17","07:00","18.5","","16.1","","86","","","","3","","13","","","","101.71","","","","","","NA"
"-61.05","46.55","GRAND ETANG","8201969","2022-08-17 08:00","2022","08","17","08:00","18.8","","16.2","","85","","","","1","","18","","","","101.68","","","","","","NA"
"-61.05","46.55","GRAND ETANG","8201969","2022-08-17 09:00","2022","08","17","09:00","19.7","","16.1","","80","","","","6","","29","","","","101.65","","","","","","NA"
"-61.05","46.55","GRAND ETANG","8201969","2022-08-17 10:00","2022","08","17","10:00","20.2","","15.8","","76","","","","7","","26","","","","101.61","","25","","","","NA"
"-61.05","46.55","GRAND ETANG","8201969","2022-08-17 11:00","2022","08","17","11:00","19.2","","15.6","","80","","","","10","","61","","","","101.34","","","","","","NA"
"-61.05","46.55","GRAND ETANG","8201969","2022-08-17 12:00","2022","08","17","12:00","19.6","","13.6","","68","","","","10","","71","","","","101.29","","","","","","NA"
"-61.05","46.55","GRAND ETANG","8201969","2022-08-17 13:00","2022","08","17","13:00","20.7","","14.5","","67","","","","9","","65","","","","101.28","","","","","","NA"
"-61.05","46.55","GRAND ETANG","8201969","2022-08-17 14:00","2022","08","17","14:00","20.5","","14.8","","70","","","","10","","60","","","","101.26","","","","","","NA"
"-61.05","46.55","GRAND ETANG","8201969","2022-08-17 15:00","2022","08","17","15:00","20.0","","15.0","","73","","","","10","","60","","","","101.22","","","","","","NA"
"-61.05","46.55","GRAND ETANG","8201969","2022-08-17 16:00","2022","08","17","16:00","19.1","","14.9","","77","","","","10","","58","","","","101.20","","","","","","NA"
"-61.05","46.55","GRAND ETANG","8201969","2022-08-17 17:00","2022","08","17","17:00","19.8","","15.2","","75","","","","10","","60","","","","101.10","","","","","","NA"
"-61.05","46.55","GRAND ETANG","8201969","2022-08-17 18:00","2022","08","17","18:00","19.4","","15.3","","77","","","","10","","60","","","","101.08","","","","","","NA"
"-61.05","46.55","GRAND ETANG","8201969","2022-08-17 19:00","2022","08","17","19:00","19.9","","15.7","","77","","","","10","","62","","","","101.10","","","","","","NA"
"-61.05","46.55","GRAND ETANG","8201969","2022-08-17 20:00","2022","08","17","20:00","20.2","","16.0","","76","","","","10","","54","","","","101.11","","25","","","","NA"
"-61.05","46.55","GRAND ETANG","8201969","2022-08-17 21:00","2022","08","17","21:00","20.9","","16.1","","74","","","","11","","53","","","","101.10","","26","","","","NA"
"-61.05","46.55","GRAND ETANG","8201969","2022-08-17 22:00","2022","08","17","22:00","20.7","","16.7","","78","","","","13","","26","","","","101.20","","26","","","","NA"
"-61.05","46.55","GRAND ETANG","8201969","2022-08-17 23:00","2022","08","17","23:00","21.0","","17.0","","78","","","","11","","28","","","","101.08","","26","","","","NA"
"-61.05","46.55","GRAND ETANG","8201969","2022-08-18 00:00","2022","08","18","00:00","20.3","","17.2","","82","","","","12","","35","","","","101.10","","26","","","","NA"
"-61.05","46.55","GRAND ETANG","8201969","2022-08-18 01:00","2022","08","18","01:00","20.9","","17.6","","81","","","","11","","40","","","","100.99","","27","","","","NA"
"-61.05","46.55","GRAND ETANG","8201969","2022-08-18 02:00","2022","08","18","02:00","20.0","","17.9","","88","","","","12","","37","","","","100.97","","26","","","","NA"
"-61.05","46.55","GRAND ETANG","8201969","2022-08-18 03:00","2022","08","18","03:00","20.2","","17.7","","86","","","","13","","36","","","","100.98","","26","","","","NA"
"-61.05","46.55","GRAND ETANG","8201969","2022-08-18 04:00","2022","08","18","04:00","21.3","","18.2","","82","","","","13","","36","","","","100.92","","27","","","","NA"
"-61.05","46.55","GRAND ETANG","8201969","2022-08-18 05:00","2022","08","18","05:00","21.5","","18.2","","81","","","","13","","34","","","","100.88","","28","","","","NA"
"-61.05","46.55","GRAND ETANG","8201969","2022-08-18 06:00","2022","08","18","06:00","20.7","","17.8","","83","","","","13","","33","","","","100.94","","27","","","","NA"
"-61.05","46.55","GRAND ETANG","8201969","2022-08-18 07:00","2022","08","18","07:00","21.6","","18.3","","82","","","","12","","26","","","","100.96","","28","","","","NA"
"-61.05","46.55","GRAND ETANG","8201969","2022-08-18 08:00","2022","08","18","08:00","22.7","","17.7","","73","","","","13","","33","","","","100.99","","28","","","","NA"
"-61.05","46.55","GRAND ETANG","8201969","2022-08-18 09:00","2022","08","18","09:00","25.2","","19.8","","72","","","","13","","34","","","","100.91","","33","","","","NA"
"-61.05","46.55","GRAND ETANG","8201969","2022-08-18 10:00","2022","08","18","10:00","27.7","","21.2","","68","","","","14","","20","","","","100.90","","36","","","","NA"
"-61.05","46.55","GRAND ETANG","8201969","2022-08-18 11:00","2022","08","18","11:00","26.9","","20.7","","69","","","","16","","23","","","","100.88","","35","","","","NA"
"-61.05","46.55","GRAND ETANG","8201969","2022-08-18 12:00","2022","08","18","12:00","27.1","","20.1","","66","","","","16","","25","","","","100.91","","35","","","","NA"
"-61.05","46.55","GRAND ETANG","8201969","2022-08-18 13:00","2022","08","18","13:00","26.9","","20.6","","69","","","","17","","21","","","","100.90","","35","","","","NA"
"-61.05","46.55","GRAND ETANG","8201969","2022-08-18 14:00","2022","08","18","14:00","25.9","","20.4","","72","","","","18","","23","","","","100.83","","34","","","","NA"
"-61.05","46.55","GRAND ETANG","8201969","2022-08-18 15:00","2022","08","18","15:00","22.8","","19.5","","82","","","","22","","17","","","","100.88","","30","","","","NA"
"-61.05","46.55","GRAND ETANG","8201969","2022-08-18 16:00","2022","08","18","16:00","22.8","","19.5","","82","","","","22","","13","","","","100.86","","30","","","","NA"
"-61.05","46.55","GRAND ETANG","8201969","2022-08-18 17:00","2022","08","18","17:00","22.9","","19.2","","80","","","","23","","10","","","","100.86","","30","","","","NA"
"-61.05","46.55","GRAND ETANG","8201969","2022-08-18 18:00","2022","08","18","18:00","21.9","","18.6","","82","","","","22","","8","","","","100.85","","28","","","","NA"
"-61.05","46.55","GRAND ETANG","8201969","2022-08-18 19:00","2022","08","18","19:00","21.2","","18.1","","83","","","","17","","5","","","","100.85","","27","","","","NA"
"-61.05","46.55","GRAND ETANG","8201969","2022-08-18 20:00","2022","08","18","20:00","20.3","","17.7","","85","","","","18","","6","","","","100.87","","26","","","","NA"
"-61.05","46.55","GRAND ETANG","8201969","2022-08-18 21:00","2022","08","18","21:00","19.1","","16.9","","87","","","","18","","9","","","","100.88","","","","","","NA"
"-61.05","46.55","GRAND ETANG","8201969","2022-08-18 22:00","2022","08","18","22:00","18.8","","15.0","","78","","","","17","","12","","","","100.88","","","","","","NA"
"-61.05","46.55","GRAND ETANG","8201969","2022-08-18 23:00","2022","08","18","23:00","18.3","","14.4","","78","","","","18","","13","","","","100.85","","","","","","NA"
"-61.05","46.55","GRAND ETANG","8201969","2022-08-19 00:00","2022","08","19","00:00","17.7","","13.4","","76","","","","17","","11","","","","100.81","","","","","","NA"
"-61.05","46.55","GRAND ETANG","8201969","2022-08-19 01:00","2022","08","19","01:00","17.4","","13.3","","77","","","","18","","15","","","","100.77","","","","","","NA"
"-61.05","46.55","GRAND ETANG","8201969","2022-08-19 02:00","2022","08","19","02:00","17.6","","14.2","","81","","","","17","","18","","","","100.74","","","","","","NA"
"-61.05","46.55","GRAND ETANG","8201969","2022-08-19 03:00","2022","08","19","03:00","18.2","","14.3","","78","","","","17","","19","","","","100.73","","","","","","NA"
"-61.05","46.55","GRAND ETANG","8201969","2022-08-19 04:00","2022","08","19","04:00","18.3","","14.1","","76","","","","17","","19","","","","100.70","","","","","","NA"
"-61.05","46.55","GRAND ETANG","8201969","2022-08-19 05:00","2022","08","19","05:00","18.2","","14.6","","80","","","","17","","17","","","","100.70","","","","","","NA"
"-61.05","46.55","GRAND ETANG","8201969","2022-08-19 06:00","2022","08","19","06:00","18.1","","15.1","","82","","","","18","","18","","","","100.68","","","","","","NA"
"-61.05","46.55","GRAND ETANG","8201969","2022-08-19 07:00","2022","08","19","07:00","18.9","","15.4","","80","","","","18","","20","","","","100.66","","","","","","NA"
"-61.05","46.55","GRAND ETANG","8201969","2022-08-19 08:00","2022","08","19","08:00","19.2","","15.6","","79","","","","19","","18","","","","100.65","","","","","","NA"
"-61.05","46.55","GRAND ETANG","8201969","2022-08-19 09:00","2022","08","19","09:00","18.9","","16.7","","87","","","","22","","32","","","","100.67","","","","","","NA"
"-61.05","46.55","GRAND ETANG","8201969","2022-08-19 10:00","2022","08","19","10:00","18.5","","16.6","","89","","","","21","","26","","","","100.67","","","","","","NA"
"-61.05","46.55","GRAND ETANG","8201969","2022-08-19 11:00","2022","08","19","11:00","19.0","","16.8","","87","","","","23","","39","","","","100.70","","","","","","NA"
"-61.05","46.55","GRAND ETANG","8201969","2022-08-19 12:00","2022","08","19","12:00","19.8","","17.0","","84","","","","23","","39","","","","100.71","","","","","","NA"
"-61.05","46.55","GRAND ETANG","8201969","2022-08-19 13:00","2022","08","19","13:00","20.6","","17.1","","80","","","","24","","35","","","","100.73","","26","","","","NA"
"-61.05","46.55","GRAND ETANG","8201969","2022-08-19 14:00","2022","08","19","14:00","20.8","","17.2","","80","","","","24","","34","","","","100.76","","26","","","","NA"
"-61.05","46.55","GRAND ETANG","8201969","2022-08-19 15:00","2022","08","19","15:00","21.9","","17.0","","74","","","","25","","31","","","","100.78","","27","","","","NA"
"-61.05","46.55","GRAND ETANG","8201969","2022-08-19 16:00","2022","08","19","16:00","20.8","","17.2","","79","","","","22","","22","","","","100.81","","26","","","","NA"
"-61.05","46.55","GRAND ETANG","8201969","2022-08-19 17:00","2022","08","19","17:00","20.6","","16.9","","80","","","","22","","18","","","","100.83","","26","","","","NA"
"-61.05","46.55","GRAND ETANG","8201969","2022-08-19 18:00","2022","08","19","18:00","19.8","","17.0","","84","","","","17","","10","","","","100.84","","","","","","NA"
"-61.05","46.55","GRAND ETANG","8201969","2022-08-19 19:00","2022","08","19","19:00","19.9","","17.7","","87","","","","18","","13","","","","100.86","","","","","","NA"
"-61.05","46.55","GRAND ETANG","8201969","2022-08-19 20:00","2022","08","19","20:00","19.4","","18.3","","93","","","","26","","37","","","","100.94","","","","","","NA"
"-61.05","46.55","GRAND ETANG","8201969","2022-08-19 21:00","2022","08","19","21:00","19.5","","18.6","","95","","","","23","","17","","","","101.03","","","","","","NA"
"-61.05","46.55","GRAND ETANG","8201969","2022-08-19 22:00","2022","08","19","22:00","19.7","","18.6","","93","","","","24","","17","","","","101.09","","","","","","NA"
"-61.05","46.55","GRAND ETANG","8201969","2022-08-19 23:00","2022","08","19","23:00","19.2","","18.2","","94","","","","18","","7","","","","101.09","","","","","","NA"
"-61.05","46.55","GRAND ETANG","8201969","2022-08-20 00:00","2022","08","20","00:00","19.2","","18.1","","93","","","","17","","11","","","","101.10","","","","","","NA"
"-61.05","46.55","GRAND ETANG","8201969","2022-08-20 01:00","2022","08","20","01:00","19.7","","18.4","","92","","","","22","","18","","","","101.12","","","","","","NA"
"-61.05","46.55","GRAND ETANG","8201969","2022-08-20 02:00","2022","08","20","02:00","19.6","","18.2","","91","","","","22","","16","","","","101.16","","","","","","NA"
"-61.05","46.55","GRAND ETANG","8201969","2022-08-20 03:00","2022","08","20","03:00","19.6","","18.2","","91","","","","24","","20","","","","101.21","","","","","","NA"
"-61.05","46.55","GRAND ETANG","8201969","2022-08-20 04:00","2022","08","20","04:00","19.1","","18.0","","93","","","","18","","7","","","","101.24","","","","","","NA"
"-61.05","46.55","GRAND ETANG","8201969","2022-08-20 05:00","2022","08","20","05:00","19.0","","18.1","","95","","","","19","","7","","","","101.30","","","","","","NA"
"-61.05","46.55","GRAND ETANG","8201969","2022-08-20 06:00","2022","08","20","06:00","19.6","","18.6","","94","","","","23","","15","","","","101.37","","","","","","NA"
"-61.05","46.55","GRAND ETANG","8201969","2022-08-20 07:00","2022","08","20","07:00","19.9","","18.6","","93","","","","26","","14","","","","101.41","","","","","","NA"
"-61.05","46.55","GRAND ETANG","8201969","2022-08-20 08:00","2022","08","20","08:00","20.6","","19.1","","91","","","","25","","12","","","","101.49","","27","","","","NA"
"-61.05","46.55","GRAND ETANG","8201969","2022-08-20 09:00","2022","08","20","09:00","22.1","","19.2","","84","","","","27","","12","","","","101.53","","29","","","","NA"
"-61.05","46.55","GRAND ETANG","8201969","2022-08-20 10:00","2022","08","20","10:00","23.7","","19.7","","78","","","","26","","11","","","","101.57","","31","","","","NA"
"-61.05","46.55","GRAND ETANG","8201969","2022-08-20 11:00","2022","08","20","11:00","23.7","","19.9","","79","","","","25","","12","","","","101.62","","31","","","","NA"
"-61.05","46.55","GRAND ETANG","8201969","2022-08-20 12:00","2022","08","20","12:00","24.4","","19.9","","76","","","","25","","10","","","","101.64","","32","","","","NA"
"-61.05","46.55","GRAND ETANG","8201969","2022-08-20 13:00","2022","08","20","13:00","24.1","","19.7","","77","","","","24","","13","","","","101.67","","31","","","","NA"
"-61.05","46.55","GRAND ETANG","8201969","2022-08-20 14:00","2022","08","20","14:00","24.3","","19.5","","75","","","","24","","13","","","","101.74","","31","","","","NA"
"-61.05","46.55","GRAND ETANG","8201969","2022-08-20 15:00","2022","08","20","15:00","23.5","","18.4","","73","","","","22","","11","","","","101.74","","30","","","","NA"
"-61.05","46.55","GRAND ETANG","8201969","2022-08-20 16:00","2022","08","20","16:00","24.0","","18.8","","73","","","","23","","8","","","","101.76","","31","","","","NA"
"-61.05","46.55","GRAND ETANG","8201969","2022-08-20 17:00","2022","08","20","17:00","24.0","","19.1","","74","","","","24","","6","","","","101.79","","31","","","","NA"
"-61.05","46.55","GRAND ETANG","8201969","2022-08-20 18:00","2022","08","20","18:00","22.4","","18.7","","79","","","","24","","5","","","","101.78","","29","","","","NA"
"-61.05","46.55","GRAND ETANG","8201969","2022-08-20 19:00","2022","08","20","19:00","20.1","","17.7","","86","","","","20","","6","","","","101.84","","26","","","","NA"
"-61.05","46.55","GRAND ETANG","8201969","2022-08-20 20:00","2022","08","20","20:00","17.4","","16.3","","94","","","","14","","10","","","","101.89","","","","","","NA"
"-61.05","46.55","GRAND ETANG","8201969","2022-08-20 21:00","2022","08","20","21:00","17.1","","16.2","","94","","","","14","","12","","","","101.90","","","","","","NA"
"-61.05","46.55","GRAND ETANG","8201969","2022-08-20 22:00","2022","08","20","22:00","16.0","","14.7","","92","","","","13","","11","","","","101.91","","","","","","NA"
"-61.05","46.55","GRAND ETANG","8201969","2022-08-20 23:00","2022","08","20","23:00","15.3","","14.1","","92","","","","13","","11","","","","101.94","","","","","","NA"
"-61.05","46.55","GRAND ETANG","8201969","2022-08-21 00:00","2022","08","21","00:00","14.8","","13.5","","92","","","","13","","9","","","","101.97","","","","","","NA"
"-61.05","46.55","GRAND ETANG","8201969","2022-08-21 01:00","2022","08","21","01:00","14.8","","12.0","","83","","","","14","","10","","","","101.96","","","","","","NA"
"-61.05","46.55","GRAND ETANG","8201969","2022-08-21 02:00","2022","08","21","02:00","14.2","","12.4","","89","","","","13","","14","","","","102.00","","","","","","NA"
"-61.05","46.55","GRAND ETANG","8201969","2022-08-21 03:00","2022","08","21","03:00","14.8","","12.0","","83","","","","11","","6","","","","101.96","","","","","","NA"
"-61.05","46.55","GRAND ETANG","8201969","2022-08-21 04:00","2022","08","21","04:00","13.8","","11.8","","88","","","","10","","6","","","","101.99","","","","","","NA"
"-61.05","46.55","GRAND ETANG","8201969","2022-08-21 05:00","2022","08","21","05:00","15.8","","11.1","","74","","","","14","","9","","","","102.03","","","","","","NA"
"-61.05","46.55","GRAND ETANG","8201969","2022-08-21 06:00","2022","08","21","06:00","16.3","","11.8","","75","","","","0","","1","","","","102.06","","","","","","NA"
"-61.05","46.55","GRAND ETANG","8201969","2022-08-21 07:00","2022","08","21","07:00","19.6","","14.1","","71","","","","9","","4","","","","102.07","","","","","","NA"
"-61.05","46.55","GRAND ETANG","8201969","2022-08-21 08:00","2022","08","21","08:00","21.2","","15.6","","70","","","","30","","5","","","","102.09","","26","","","","NA"
"-61.05","46.55","GRAND ETANG","8201969","2022-08-21 09:00","2022","08","21","09:00","21.6","","16.0","","70","","","","23","","20","","","","102.13","","26","","","","NA"
"-61.05","46.55","GRAND ETANG","8201969","2022-08-21 10:00","2022","08","21","10:00","23.6","","18.1","","72","","","","23","","9","","","","102.17","","30","","","","NA"
"-61.05","46.55","GRAND ETANG","8201969","2022-08-21 11:00","2022","08","21","11:00","25.0","","18.2","","66","","","","29","","5","","","","102.15","","31","","","","NA"
"-61.05","46.55","GRAND ETANG","8201969","2022-08-21 12:00","2022","08","21","12:00","24.2","","17.2","","65","","","","32","","4","","","","102.12","","30","","","","NA"
"-61.05","46.55","GRAND ETANG","8201969","2022-08-21 13:00","2022","08","21","13:00","27.0","","19.6","","64","","","","25","","12","","","","102.11","","34","","","","NA"
"-61.05","46.55","GRAND ETANG","8201969","2022-08-21 14:00","2022","08","21","14:00","28.0","","19.3","","59","","","","25","","10","","","","102.06","","35","","","","NA"
"-61.05","46.55","GRAND ETANG","8201969","2022-08-21 15:00","2022","08","21","15:00","27.6","","18.3","","57","","","","23","","12","","","","102.05","","34","","","","NA"
"-61.05","46.55","GRAND ETANG","8201969","2022-08-21 16:00","2022","08","21","16:00","27.5","","17.2","","53","","","","21","","9","","","","102.01","","33","","","","NA"
"-61.05","46.55","GRAND ETANG","8201969","2022-08-21 17:00","2022","08","21","17:00","27.3","","16.0","","50","","","","19","","9","","","","101.99","","32","","","","NA"
"-61.05","46.55","GRAND ETANG","8201969","2022-08-21 18:00","2022","08","21","18:00","25.6","","15.7","","54","","","","15","","16","","","","101.99","","30","","","","NA"
"-61.05","46.55","GRAND ETANG","8201969","2022-08-21 19:00","2022","08","21","19:00","23.0","","15.3","","62","","","","14","","20","","","","101.98","","27","","","","NA"
"-61.05","46.55","GRAND ETANG","8201969","2022-08-21 20:00","2022","08","21","20:00","22.1","","13.4","","57","","","","14","","21","","","","102.02","","25","","","","NA"
"-61.05","46.55","GRAND ETANG","8201969","2022-08-21 21:00","2022","08","21","21:00","21.4","","12.8","","58","","","","15","","22","","","","102.07","","","","","","NA"
"-61.05","46.55","GRAND ETANG","8201969","2022-08-21 22:00","2022","08","21","22:00","20.6","","12.2","","59","","","","16","","14","","","","102.07","","","","","","NA"
"-61.05","46.55","GRAND ETANG","8201969","2022-08-21 23:00","2022","08","21","23:00","20.5","","13.5","","64","","","","14","","23","","","","102.04","","","","","","NA"
"-61.05","46.55","GRAND ETANG","8201969","2022-08-22 00:00","2022","08","22","00:00","20.1","","13.6","","66","","","","15","","18","","","","102.04","","","","","","NA"
"-61.05","46.55","GRAND ETANG","8201969","2022-08-22 01:00","2022","08","22","01:00","20.1","","13.4","","65","","","","16","","14","","","","102.04","","","","","","NA"
"-61.05","46.55","GRAND ETANG","8201969","2022-08-22 02:00","2022","08","22","02:00","19.4","","13.3","","68","","","","15","","16","","","","102.03","","","","","","NA"
"-61.05","46.55","GRAND ETANG","8201969","2022-08-22 03:00","2022","08","22","03:00","19.8","","13.3","","66","","","","16","","15","","","","102.01","","","","","","NA"
"-61.05","46.55","GRAND ETANG","8201969","2022-08-22 04:00","2022","08","22","04:00","19.8","","13.4","","66","","","","15","","15","","","","101.99","","","","","","NA"
"-61.05","46.55","GRAND ETANG","8201969","2022-08-22 05:00","2022","08","22","05:00","19.4","","13.4","","68","","","","14","","20","","","","101.97","","","","","","NA"
"-61.05","46.55","GRAND ETANG","8201969","2022-08-22 06:00","2022","08","22","06:00","19.4","","13.6","","69","","","","14","","18","","","","101.99","","","","","","NA"
"-61.05","46.55","GRAND ETANG","8201969","2022-08-22 07:00","2022","08","22","07:00","21.2","","14.6","","66","","","","16","","13","","","","102.00","","25","","","","NA"
"-61.05","46.55","GRAND ETANG","8201969","2022-08-22 08:00","2022","08","22","08:00","23.0","","15.1","","61","","","","17","","17","","","","101.99","","27","","","","NA"
"-61.05","46.55","GRAND ETANG","8201969","2022-08-22 09:00","2022","08","22","09:00","23.9","","15.7","","60","","","","16","","14","","","","101.96","","28","","","","NA"
"-61.05","46.55","GRAND ETANG","8201969","2022-08-22 10:00","2022","08","22","10:00","26.1","","15.4","","51","","","","19","","17","","","","101.95","","30","","","","NA"
"-61.05","46.55","GRAND ETANG","8201969","2022-08-22 11:00","2022","08","22","11:00","24.6","","19.2","","72","","","","24","","17","","","","101.92","","32","","","","NA"
"-61.05","46.55","GRAND ETANG","8201969","2022-08-22 12:00","2022","08","22","12:00","25.0","","19.4","","71","","","","23","","14","","","","101.91","","32","","","","NA"
"-61.05","46.55","GRAND ETANG","8201969","2022-08-22 13:00","2022","08","22","13:00","25.5","","19.6","","70","","","","24","","14","","","","101.88","","33","","","","NA"
"-61.05","46.55","GRAND ETANG","8201969","2022-08-22 14:00","2022","08","22","14:00","26.3","","20.2","","69","","","","24","","10","","","","101.83","","34","","","","NA"
"-61.05","46.55","GRAND ETANG","8201969","2022-08-22 15:00","2022","08","22","15:00","25.7","","19.1","","67","","","","22","","18","","","","101.80","","33","","","","NA"
"-61.05","46.55","GRAND ETANG","8201969","2022-08-22 16:00","2022","08","22","16:00","25.3","","18.2","","65","","","","20","","14","","","","101.78","","31","","","","NA"
"-61.05","46.55","GRAND ETANG","8201969","2022-08-22 17:00","2022","08","22","17:00","25.4","","17.9","","63","","","","16","","16","","","","101.71","","31","","","","NA"
"-61.05","46.55","GRAND ETANG","8201969","2022-08-22 18:00","2022","08","22","18:00","23.6","","17.1","","67","","","","15","","20","","","","101.68","","29","","","","NA"
"-61.05","46.55","GRAND ETANG","8201969","2022-08-22 19:00","2022","08","22","19:00","21.2","","16.6","","75","","","","14","","19","","","","101.69","","26","","","","NA"
"-61.05","46.55","GRAND ETANG","8201969","2022-08-22 20:00","2022","08","22","20:00","20.5","","15.6","","74","","","","14","","24","","","","101.71","","25","","","","NA"
"-61.05","46.55","GRAND ETANG","8201969","2022-08-22 21:00","2022","08","22","21:00","19.5","","16.0","","80","","","","20","","14","","","","101.75","","","","","","NA"
"-61.05","46.55","GRAND ETANG","8201969","2022-08-22 22:00","2022","08","22","22:00","19.0","","15.9","","82","","","","19","","13","","","","101.73","","","","","","NA"
"-61.05","46.55","GRAND ETANG","8201969","2022-08-22 23:00","2022","08","22","23:00","18.9","","15.9","","83","","","","20","","12","","","","101.70","","","","","","NA"
"-61.05","46.55","GRAND ETANG","8201969","2022-08-23 00:00","2022","08","23","00:00","18.9","","15.9","","83","","","","19","","11","","","","101.71","","","","","","NA"
"-61.05","46.55","GRAND ETANG","8201969","2022-08-23 01:00","2022","08","23","01:00","19.2","","16.3","","83","","","","18","","12","","","","101.67","","","","","","NA"
"-61.05","46.55","GRAND ETANG","8201969","2022-08-23 02:00","2022","08","23","02:00","19.0","","16.1","","83","","","","16","","17","","","","101.64","","","","","","NA"
"-61.05","46.55","GRAND ETANG","8201969","2022-08-23 03:00","2022","08","23","03:00","19.2","","16.4","","84","","","","15","","20","","","","101.62","","","","","","NA"
"-61.05","46.55","GRAND ETANG","8201969","2022-08-23 04:00","2022","08","23","04:00","19.8","","16.3","","80","","","","14","","27","","","","101.57","","","","","","NA"
"-61.05","46.55","GRAND ETANG","8201969","2022-08-23 05:00","2022","08","23","05:00","19.9","","16.4","","80","","","","14","","21","","","","101.50","","","","","","NA"
"-61.05","46.55","GRAND ETANG","8201969","2022-08-23 06:00","2022","08","23","06:00","20.1","","16.4","","79","","","","14","","23","","","","101.50","","25","","","","NA"
"-61.05","46.55","GRAND ETANG","8201969","2022-08-23 07:00","2022","08","23","07:00","20.2","","16.3","","78","","","","13","","28","","","","101.48","","25","","","","NA"
"-61.05","46.55","GRAND ETANG","8201969","2022-08-23 08:00","2022","08","23","08:00","20.3","","16.4","","79","","","","13","","31","","","","101.48","","25","","","","NA"
"-61.05","46.55","GRAND ETANG","8201969","2022-08-23 09:00","2022","08","23","09:00","19.8","","16.9","","84","","","","13","","24","","","","101.47","","","","","","NA"
"-61.05","46.55","GRAND ETANG","8201969","2022-08-23 10:00","2022","08","23","10:00","19.6","","17.1","","86","","","","12","","33","","","","101.36","","","","","","NA"
"-61.05","46.55","GRAND ETANG","8201969","2022-08-23 11:00","2022","08","23","11:00","20.6","","17.2","","81","","","","16","","10","","","","101.32","","26","","","","NA"
"-61.05","46.55","GRAND ETANG","8201969","2022-08-23 12:00","2022","08","23","12:00","21.2","","17.5","","80","","","","23","","6","","","","101.35","","27","","","","NA"
"-61.05","46.55","GRAND ETANG","8201969","2022-08-23 13:00","2022","08","23","13:00","20.5","","17.3","","82","","","","9","","21","","","","101.24","","26","","","","NA"
"-61.05","46.55","GRAND ETANG","8201969","2022-08-23 14:00","2022","08","23","14:00","19.0","","15.7","","81","","","","9","","35","","","","101.11","","","","","","NA"
"-61.05","46.55","GRAND ETANG","8201969","2022-08-23 15:00","2022","08","23","15:00","20.2","","16.3","","78","","","","30","","10","","","","101.06","","25","","","","NA"
"-61.05","46.55","GRAND ETANG","8201969","2022-08-23 16:00","2022","08","23","16:00","20.3","","15.6","","74","","","","12","","35","","","","100.97","","25","","","","NA"
"-61.05","46.55","GRAND ETANG","8201969","2022-08-23 17:00","2022","08","23","17:00","21.0","","17.1","","78","","","","13","","19","","","","101.01","","26","","","","NA"
"-61.05","46.55","GRAND ETANG","8201969","2022-08-23 18:00","2022","08","23","18:00","20.8","","17.1","","80","","","","13","","24","","","","101.01","","26","","","","NA"
"-61.05","46.55","GRAND ETANG","8201969","2022-08-23 19:00","2022","08","23","19:00","20.1","","17.2","","83","","","","14","","18","","","","101.00","","26","","","","NA"
"-61.05","46.55","GRAND ETANG","8201969","2022-08-23 20:00","2022","08","23","20:00","20.3","","17.6","","84","","","","14","","20","","","","101.02","","26","","","","NA"
"-61.05","46.55","GRAND ETANG","8201969","2022-08-23 21:00","2022","08","23","21:00","21.0","","18.6","","86","","","","14","","15","","","","101.01","","27","","","","NA"
"-61.05","46.55","GRAND ETANG","8201969","2022-08-23 22:00","2022","08","23","22:00","21.5","","19.1","","86","","","","16","","15","","","","100.97","","28","","","","NA"
"-61.05","46.55","GRAND ETANG","8201969","2022-08-23 23:00","2022","08","23","23:00","21.4","","19.2","","87","","","","16","","15","","","","100.92","","28","","","","NA"
"-61.05","46.55","GRAND ETANG","8201969","2022-08-24 00:00","2022","08","24","00:00","21.7","","19.0","","85","","","","17","","15","","","","100.89","","28","","","","NA"
"-61.05","46.55","GRAND ETANG","8201969","2022-08-24 01:00","2022","08","24","01:00","21.7","","19.4","","87","","","","18","","14","","","","100.88","","29","","","","NA"
"-61.05","46.55","GRAND ETANG","8201969","2022-08-24 02:00","2022","08","24","02:00","21.9","","19.7","","87","","","","18","","15","","","","100.86","","29","","","","NA"
"-61.05","46.55","GRAND ETANG","8201969","2022-08-24 03:00","2022","08","24","03:00","21.9","","19.8","","88","","","","18","","13","","","","100.85","","29","","","","NA"
"-61.05","46.55","GRAND ETANG","8201969","2022-08-24 04:00","2022","08","24","04:00","21.9","","19.8","","88","","","","18","","13","","","","100.85","","29","","","","NA"
"-61.05","46.55","GRAND ETANG","8201969","2022-08-24 05:00","2022","08","24","05:00","21.9","","19.9","","88","","","","20","","15","","","","100.88","","29","","","","NA"
"-61.05","46.55","GRAND ETANG","8201969","2022-08-24 06:00","2022","08","24","06:00","21.8","","19.8","","89","","","","20","","22","","","","100.91","","29","","","","NA"
"-61.05","46.55","GRAND ETANG","8201969","2022-08-24 07:00","2022","08","24","07:00","21.8","","19.7","","88","","","","21","","23","","","","100.96","","29","","","","NA"
"-61.05","46.55","GRAND ETANG","8201969","2022-08-24 08:00","2022","08","24","08:00","20.3","","18.2","","87","","","","24","","35","","","","100.99","","26","","","","NA"
"-61.05","46.55","GRAND ETANG","8201969","2022-08-24 09:00","2022","08","24","09:00","20.4","","18.1","","86","","","","22","","26","","","","101.03","","26","","","","NA"
"-61.05","46.55","GRAND ETANG","8201969","2022-08-24 10:00","2022","08","24","10:00","20.6","","18.1","","86","","","","22","","26","","","","101.03","","27","","","","NA"
"-61.05","46.55","GRAND ETANG","8201969","2022-08-24 11:00","2022","08","24","11:00","20.3","","18.0","","86","","","","22","","24","","","","101.08","","26","","","","NA"
"-61.05","46.55","GRAND ETANG","8201969","2022-08-24 12:00","2022","08","24","12:00","21.4","","18.1","","82","","","","22","","25","","","","101.06","","27","","","","NA"
"-61.05","46.55","GRAND ETANG","8201969","2022-08-24 13:00","2022","08","24","13:00","21.1","","18.1","","83","","","","21","","23","","","","101.10","","27","","","","NA"
"-61.05","46.55","GRAND ETANG","8201969","2022-08-24 14:00","2022","08","24","14:00","21.8","","18.1","","79","","","","20","","22","","","","101.12","","28","","","","NA"
"-61.05","46.55","GRAND ETANG","8201969","2022-08-24 15:00","2022","08","24","15:00","22.6","","17.8","","74","","","","21","","24","","","","101.15","","28","","","","NA"
"-61.05","46.55","GRAND ETANG","8201969","2022-08-24 16:00","2022","08","24","16:00","22.2","","18.3","","78","","","","21","","15","","","","101.13","","28","","","","NA"
"-61.05","46.55","GRAND ETANG","8201969","2022-08-24 17:00","2022","08","24","17:00","22.0","","18.3","","79","","","","21","","13","","","","101.13","","28","","","","NA"
"-61.05","46.55","GRAND ETANG","8201969","2022-08-24 18:00","2022","08","24","18:00","21.6","","18.8","","84","","","","22","","14","","","","101.13","","28","","","","NA"
"-61.05","46.55","GRAND ETANG","8201969","2022-08-24 19:00","2022","08","24","19:00","20.1","","18.4","","90","","","","20","","9","","","","101.14","","26","","","","NA"
"-61.05","46.55","GRAND ETANG","8201969","2022-08-24 20:00","2022","08","24","20:00","18.6","","17.7","","94","","","","17","","6","","","","101.15","","","","","","NA"
"-61.05","46.55","GRAND ETANG","8201969","2022-08-24 21:00","2022","08","24","21:00","17.9","","17.0","","95","","","","15","","8","","","","101.15","","","","","","NA"
"-61.05","46.55","GRAND ETANG","8201969","2022-08-24 22:00","2022","08","24","22:00","17.7","","16.7","","94","","","","13","","8","","","","101.15","","","","","","NA"
"-61.05","46.55","GRAND ETANG","8201969","2022-08-24 23:00","2022","08","24","23:00","18.7","","17.5","","93","","","","14","","10","","","","101.13","","","","","","NA"
"-61.05","46.55","GRAND ETANG","8201969","2022-08-25 00:00","2022","08","25","00:00","19.0","","17.8","","93","","","","14","","11","","","","101.14","","","","","","NA"
"-61.05","46.55","GRAND ETANG","8201969","2022-08-25 01:00","2022","08","25","01:00","19.4","","17.9","","91","","","","15","","9","","","","101.15","","","","","","NA"
"-61.05","46.55","GRAND ETANG","8201969","2022-08-25 02:00","2022","08","25","02:00","19.5","","18.2","","92","","","","14","","9","","","","101.13","","","","","","NA"
"-61.05","46.55","GRAND ETANG","8201969","2022-08-25 03:00","2022","08","25","03:00","19.4","","18.2","","93","","","","13","","7","","","","101.12","","","","","","NA"
"-61.05","46.55","GRAND ETANG","8201969","2022-08-25 04:00","2022","08","25","04:00","19.6","","18.5","","94","","","","16","","4","","","","101.12","","","","","","NA"
"-61.05","46.55","GRAND ETANG","8201969","2022-08-25 05:00","2022","08","25","05:00","19.1","","18.1","","94","","","","15","","7","","","","101.09","","","","","","NA"
"-61.05","46.55","GRAND ETANG","8201969","2022-08-25 06:00","2022","08","25","06:00","19.8","","18.8","","94","","","","19","","7","","","","101.10","","","","","","NA"
"-61.05","46.55","GRAND ETANG","8201969","2022-08-25 07:00","2022","08","25","07:00","20.7","","19.7","","94","","","","23","","19","","","","101.15","","28","","","","NA"
"-61.05","46.55","GRAND ETANG","8201969","2022-08-25 08:00","2022","08","25","08:00","20.7","","19.0","","90","","","","20","","16","","","","101.18","","27","","","","NA"
"-61.05","46.55","GRAND ETANG","8201969","2022-08-25 09:00","2022","08","25","09:00","21.2","","19.2","","89","","","","20","","13","","","","101.16","","28","","","","NA"
"-61.05","46.55","GRAND ETANG","8201969","2022-08-25 10:00","2022","08","25","10:00","21.9","","19.5","","86","","","","22","","16","","","","101.20","","29","","","","NA"
"-61.05","46.55","GRAND ETANG","8201969","2022-08-25 11:00","2022","08","25","11:00","22.5","","19.4","","83","","","","23","","20","","","","101.20","","30","","","","NA"
"-61.05","46.55","GRAND ETANG","8201969","2022-08-25 12:00","2022","08","25","12:00","23.9","","19.9","","78","","","","23","","17","","","","101.22","","31","","","","NA"
"-61.05","46.55","GRAND ETANG","8201969","2022-08-25 13:00","2022","08","25","13:00","24.6","","19.7","","74","","","","23","","14","","","","101.20","","32","","","","NA"
"-61.05","46.55","GRAND ETANG","8201969","2022-08-25 14:00","2022","08","25","14:00","24.9","","20.1","","75","","","","24","","12","","","","101.24","","33","","","","NA"
"-61.05","46.55","GRAND ETANG","8201969","2022-08-25 15:00","2022","08","25","15:00","23.0","","19.4","","80","","","","24","","8","","","","101.22","","30","","","","NA"
"-61.05","46.55","GRAND ETANG","8201969","2022-08-25 16:00","2022","08","25","16:00","25.4","","19.5","","70","","","","25","","2","","","","101.19","","33","","","","NA"
"-61.05","46.55","GRAND ETANG","8201969","2022-08-25 17:00","2022","08","25","17:00","22.5","","18.2","","77","","","","26","","5","","","","101.21","","29","","","","NA"
"-61.05","46.55","GRAND ETANG","8201969","2022-08-25 18:00","2022","08","25","18:00","22.4","","18.8","","80","","","","27","","3","","","","101.23","","29","","","","NA"
"-61.05","46.55","GRAND ETANG","8201969","2022-08-25 19:00","2022","08","25","19:00","21.4","","19.2","","87","","","","25","","6","","","","101.30","","28","","","","NA"
"-61.05","46.55","GRAND ETANG","8201969","2022-08-25 20:00","2022","08","25","20:00","21.1","","19.4","","90","","","","28","","11","","","","101.33","","28","","","","NA"
"-61.05","46.55","GRAND ETANG","8201969","2022-08-25 21:00","2022","08","25","21:00","20.7","","18.4","","87","","","","32","","18","","","","101.38","","27","","","","NA"
"-61.05","46.55","GRAND ETANG","8201969","2022-08-25 22:00","2022","08","25","22:00","20.2","","18.2","","88","","","","30","","16","","","","101.40","","26","","","","NA"
"-61.05","46.55","GRAND ETANG","8201969","2022-08-25 23:00","2022","08","25","23:00","20.0","","18.0","","88","","","","31","","14","","","","101.42","","26","","","","NA"
"-61.05","46.55","GRAND ETANG","8201969","2022-08-26 00:00","2022","08","26","00:00","19.8","","17.5","","87","","","","32","","17","","","","101.46","","","","","","NA"
"-61.05","46.55","GRAND ETANG","8201969","2022-08-26 01:00","2022","08","26","01:00","19.1","","16.7","","86","","","","35","","10","","","","101.45","","","","","","NA"
"-61.05","46.55","GRAND ETANG","8201969","2022-08-26 02:00","2022","08","26","02:00","19.0","","16.7","","86","","","","34","","10","","","","101.50","","","","","","NA"
"-61.05","46.55","GRAND ETANG","8201969","2022-08-26 03:00","2022","08","26","03:00","17.5","","15.6","","89","","","","7","","5","","","","101.52","","","","","","NA"
"-61.05","46.55","GRAND ETANG","8201969","2022-08-26 04:00","2022","08","26","04:00","15.9","","15.0","","95","","","","13","","6","","","","101.53","","","","","","NA"
"-61.05","46.55","GRAND ETANG","8201969","2022-08-26 05:00","2022","08","26","05:00","14.7","","13.9","","95","","","","13","","10","","","","101.55","","","","","","NA"
"-61.05","46.55","GRAND ETANG","8201969","2022-08-26 06:00","2022","08","26","06:00","15.2","","14.2","","94","","","","13","","11","","","","101.58","","","","","","NA"
"-61.05","46.55","GRAND ETANG","8201969","2022-08-26 07:00","2022","08","26","07:00","17.8","","15.7","","87","","","","13","","8","","","","101.58","","","","","","NA"
"-61.05","46.55","GRAND ETANG","8201969","2022-08-26 08:00","2022","08","26","08:00","21.0","","14.9","","68","","","","19","","2","","","","101.60","","25","","","","NA"
"-61.05","46.55","GRAND ETANG","8201969","2022-08-26 09:00","2022","08","26","09:00","22.6","","15.7","","65","","","","26","","6","","","","101.62","","27","","","","NA"
"-61.05","46.55","GRAND ETANG","8201969","2022-08-26 10:00","2022","08","26","10:00","23.0","","15.6","","63","","","","26","","9","","","","101.61","","27","","","","NA"
"-61.05","46.55","GRAND ETANG","8201969","2022-08-26 11:00","2022","08","26","11:00","23.5","","16.1","","63","","","","27","","8","","","","101.61","","28","","","","NA"
"-61.05","46.55","GRAND ETANG","8201969","2022-08-26 12:00","2022","08","26","12:00","23.0","","15.5","","63","","","","26","","9","","","","101.57","","27","","","","NA"
"-61.05","46.55","GRAND ETANG","8201969","2022-08-26 13:00","2022","08","26","13:00","23.5","","14.9","","59","","","","26","","6","","","","101.55","","27","","","","NA"
"-61.05","46.55","GRAND ETANG","8201969","2022-08-26 14:00","2022","08","26","14:00","22.8","","14.9","","61","","","","25","","9","","","","101.52","","27","","","","NA"
"-61.05","46.55","GRAND ETANG","8201969","2022-08-26 15:00","2022","08","26","15:00","23.0","","14.2","","58","","","","25","","5","","","","101.45","","26","","","","NA"
"-61.05","46.55","GRAND ETANG","8201969","2022-08-26 16:00","2022","08","26","16:00","22.9","","14.8","","60","","","","4","","1","","","","101.40","","27","","","","NA"
"-61.05","46.55","GRAND ETANG","8201969","2022-08-26 17:00","2022","08","26","17:00","22.3","","14.9","","63","","","","22","","9","","","","101.39","","26","","","","NA"
"-61.05","46.55","GRAND ETANG","8201969","2022-08-26 18:00","2022","08","26","18:00","21.1","","16.2","","73","","","","12","","7","","","","101.32","","26","","","","NA"
"-61.05","46.55","GRAND ETANG","8201969","2022-08-26 19:00","2022","08","26","19:00","20.5","","16.3","","77","","","","14","","4","","","","101.32","","25","","","","NA"
"-61.05","46.55","GRAND ETANG","8201969","2022-08-26 20:00","2022","08","26","20:00","20.2","","15.2","","73","","","","14","","14","","","","101.32","","","","","","NA"
"-61.05","46.55","GRAND ETANG","8201969","2022-08-26 21:00","2022","08","26","21:00","20.9","","15.3","","71","","","","14","","27","","","","101.24","","25","","","","NA"
"-61.05","46.55","GRAND ETANG","8201969","2022-08-26 22:00","2022","08","26","22:00","20.2","","16.2","","78","","","","14","","27","","","","101.17","","25","","","","NA"
"-61.05","46.55","GRAND ETANG","8201969","2022-08-26 23:00","2022","08","26","23:00","20.3","","16.9","","81","","","","16","","28","","","","101.11","","26","","","","NA"
"-61.05","46.55","GRAND ETANG","8201969","2022-08-27 00:00","2022","08","27","00:00","20.3","","16.7","","79","","","","16","","31","","","","101.07","","25","","","","NA"
"-61.05","46.55","GRAND ETANG","8201969","2022-08-27 01:00","2022","08","27","01:00","20.5","","16.1","","76","","","","18","","24","","","","101.09","","25","","","","NA"
"-61.05","46.55","GRAND ETANG","8201969","2022-08-27 02:00","2022","08","27","02:00","20.6","","15.9","","75","","","","18","","24","","","","101.09","","25","","","","NA"
"-61.05","46.55","GRAND ETANG","8201969","2022-08-27 03:00","2022","08","27","03:00","19.6","","16.7","","83","","","","18","","16","","","","101.06","","","","","","NA"
"-61.05","46.55","GRAND ETANG","8201969","2022-08-27 04:00","2022","08","27","04:00","19.7","","16.3","","81","","","","18","","17","","","","101.04","","","","","","NA"
"-61.05","46.55","GRAND ETANG","8201969","2022-08-27 05:00","2022","08","27","05:00","19.6","","16.7","","83","","","","18","","13","","","","101.03","","","","","","NA"
"-61.05","46.55","GRAND ETANG","8201969","2022-08-27 06:00","2022","08","27","06:00","19.6","","17.6","","88","","","","19","","12","","","","101.05","","","","","","NA"
"-61.05","46.55","GRAND ETANG","8201969","2022-08-27 07:00","2022","08","27","07:00","20.2","","18.2","","88","","","","22","","28","","","","101.07","","26","","","","NA"
"-61.05","46.55","GRAND ETANG","8201969","2022-08-27 08:00","2022","08","27","08:00","20.3","","18.6","","90","","","","23","","35","","","","101.09","","27","","","","NA"
"-61.05","46.55","GRAND ETANG","8201969","2022-08-27 09:00","2022","08","27","09:00","18.4","","16.5","","89","","","","34","","20","","","","101.18","","","","","","NA"
"-61.05","46.55","GRAND ETANG","8201969","2022-08-27 10:00","2022","08","27","10:00","18.3","","15.9","","86","","","","1","","14","","","","101.23","","","","","","NA"
"-61.05","46.55","GRAND ETANG","8201969","2022-08-27 11:00","2022","08","27","11:00","18.3","","16.1","","87","","","","35","","16","","","","101.29","","","","","","NA"
"-61.05","46.55","GRAND ETANG","8201969","2022-08-27 12:00","2022","08","27","12:00","18.6","","15.8","","84","","","","34","","21","","","","101.29","","","","","","NA"
"-61.05","46.55","GRAND ETANG","8201969","2022-08-27 13:00","2022","08","27","13:00","19.1","","15.2","","78","","","","33","","19","","","","101.31","","","","","","NA"
"-61.05","46.55","GRAND ETANG","8201969","2022-08-27 14:00","2022","08","27","14:00","19.1","","14.5","","75","","","","33","","21","","","","101.36","","","","","","NA"
"-61.05","46.55","GRAND ETANG","8201969","2022-08-27 15:00","2022","08","27","15:00","19.2","","14.8","","76","","","","33","","23","","","","101.40","","","","","","NA"
"-61.05","46.55","GRAND ETANG","8201969","2022-08-27 16:00","2022","08","27","16:00","18.9","","14.3","","75","","","","34","","26","","","","101.41","","","","","","NA"
"-61.05","46.55","GRAND ETANG","8201969","2022-08-27 17:00","2022","08","27","17:00","19.2","","13.7","","71","","","","34","","23","","","","101.44","","","","","","NA"
"-61.05","46.55","GRAND ETANG","8201969","2022-08-27 18:00","2022","08","27","18:00","18.1","","12.7","","71","","","","35","","21","","","","101.48","","","","","","NA"
"-61.05","46.55","GRAND ETANG","8201969","2022-08-27 19:00","2022","08","27","19:00","17.5","","11.8","","69","","","","36","","20","","","","101.53","","","","","","NA"
"-61.05","46.55","GRAND ETANG","8201969","2022-08-27 20:00","2022","08","27","20:00","15.1","","11.6","","80","","","","6","","10","","","","101.61","","","","","","NA"
"-61.05","46.55","GRAND ETANG","8201969","2022-08-27 21:00","2022","08","27","21:00","15.0","","11.5","","80","","","","8","","7","","","","101.71","","","","","","NA"
"-61.05","46.55","GRAND ETANG","8201969","2022-08-27 22:00","2022","08","27","22:00","13.5","","10.9","","84","","","","7","","8","","","","101.75","","","","","","NA"
"-61.05","46.55","GRAND ETANG","8201969","2022-08-27 23:00","2022","08","27","23:00","12.8","","11.2","","90","","","","8","","8","","","","101.76","","","","","","NA"
"-61.05","46.55","GRAND ETANG","8201969","2022-08-28 00:00","2022","08","28","00:00","12.8","","10.7","","87","","","","9","","8","","","","101.79","","","","","","NA"
"-61.05","46.55","GRAND ETANG","8201969","2022-08-28 01:00","2022","08","28","01:00","11.9","","10.5","","91","","","","13","","11","","","","101.81","","","","","","NA"
"-61.05","46.55","GRAND ETANG","8201969","2022-08-28 02:00","2022","08","28","02:00","11.8","","10.2","","90","","","","13","","11","","","","101.84","","","","","","NA"
"-61.05","46.55","GRAND ETANG","8201969","2022-08-28 03:00","2022","08","28","03:00","12.5","","10.9","","90","","","","14","","14","","","","101.87","","","","","","NA"
"-61.05","46.55","GRAND ETANG","8201969","2022-08-28 04:00","2022","08","28","04:00","12.3","","10.9","","91","","","","13","","14","","","","101.91","","","","","","NA"
"-61.05","46.55","GRAND ETANG","8201969","2022-08-28 05:00","2022","08","28","05:00","12.5","","10.9","","90","","","","13","","15","","","","101.95","","","","","","NA"
"-61.05","46.55","GRAND ETANG","8201969","2022-08-28 06:00","2022","08","28","06:00","13.0","","11.4","","90","","","","13","","14","","","","102.02","","","","","","NA"
"-61.05","46.55","GRAND ETANG","8201969","2022-08-28 07:00","2022","08","28","07:00","16.0","","13.1","","83","","","","14","","10","","","","102.05","","","","","","NA"
"-61.05","46.55","GRAND ETANG","8201969","2022-08-28 08:00","2022","08","28","08:00","18.4","","13.8","","75","","","","18","","9","","","","102.09","","","","","","NA"
"-61.05","46.55","GRAND ETANG","8201969","2022-08-28 09:00","2022","08","28","09:00","19.7","","13.3","","66","","","","22","","11","","","","102.11","","","","","","NA"
"-61.05","46.55","GRAND ETANG","8201969","2022-08-28 10:00","2022","08","28","10:00","20.3","","13.3","","64","","","","23","","14","","","","102.15","","","","","","NA"
"-61.05","46.55","GRAND ETANG","8201969","2022-08-28 11:00","2022","08","28","11:00","20.8","","14.3","","66","","","","22","","18","","","","102.12","","","","","","NA"
"-61.05","46.55","GRAND ETANG","8201969","2022-08-28 12:00","2022","08","28","12:00","21.1","","14.5","","66","","","","23","","19","","","","102.12","","25","","","","NA"
"-61.05","46.55","GRAND ETANG","8201969","2022-08-28 13:00","2022","08","28","13:00","21.6","","14.3","","63","","","","22","","21","","","","102.11","","25","","","","NA"
"-61.05","46.55","GRAND ETANG","8201969","2022-08-28 14:00","2022","08","28","14:00","22.1","","14.0","","60","","","","23","","18","","","","102.06","","25","","","","NA"
"-61.05","46.55","GRAND ETANG","8201969","2022-08-28 15:00","2022","08","28","15:00","22.5","","13.5","","57","","","","23","","15","","","","102.02","","26","","","","NA"
"-61.05","46.55","GRAND ETANG","8201969","2022-08-28 16:00","2022","08","28","16:00","22.0","","12.1","","53","","","","23","","14","","","","101.97","","","","","","NA"
"-61.05","46.55","GRAND ETANG","8201969","2022-08-28 17:00","2022","08","28","17:00","21.3","","13.0","","59","","","","22","","14","","","","101.93","","","","","","NA"
"-61.05","46.55","GRAND ETANG","8201969","2022-08-28 18:00","2022","08","28","18:00","20.2","","12.4","","61","","","","21","","12","","","","101.91","","","","","","NA"
"-61.05","46.55","GRAND ETANG","8201969","2022-08-28 19:00","2022","08","28","19:00","15.9","","12.5","","80","","","","14","","12","","","","101.86","","","","","","NA"
"-61.05","46.55","GRAND ETANG","8201969","2022-08-28 20:00","2022","08","28","20:00","15.9","","11.4","","75","","","","15","","16","","","","101.90","","","","","","NA"
"-61.05","46.55","GRAND ETANG","8201969","2022-08-28 21:00","2022","08","28","21:00","15.6","","11.1","","74","","","","15","","15","","","","101.89","","","","","","NA"
"-61.05","46.55","GRAND ETANG","8201969","2022-08-28 22:00","2022","08","28","22:00","15.9","","11.2","","74","","","","16","","14","","","","101.89","","","","","","NA"
"-61.05","46.55","GRAND ETANG","8201969","2022-08-28 23:00","2022","08","28","23:00","16.9","","12.3","","74","","","","17","","14","","","","101.86","","","","","","NA"
"-61.05","46.55","GRAND ETANG","8201969","2022-08-29 00:00","2022","08","29","00:00","16.8","","12.5","","75","","","","17","","16","","","","101.81","","","","","","NA"
"-61.05","46.55","GRAND ETANG","8201969","2022-08-29 01:00","2022","08","29","01:00","16.7","","13.0","","79","","","","17","","15","","","","101.81","","","","","","NA"
"-61.05","46.55","GRAND ETANG","8201969","2022-08-29 02:00","2022","08","29","02:00","17.3","","14.0","","81","","","","17","","16","","","","101.78","","","","","","NA"
"-61.05","46.55","GRAND ETANG","8201969","2022-08-29 03:00","2022","08","29","03:00","17.4","","14.7","","84","","","","17","","17","","","","101.74","","","","","","NA"
"-61.05","46.55","GRAND ETANG","8201969","2022-08-29 04:00","2022","08","29","04:00","17.1","","15.0","","87","","","","18","","15","","","","101.76","","","","","","NA"
"-61.05","46.55","GRAND ETANG","8201969","2022-08-29 05:00","2022","08","29","05:00","17.3","","15.5","","89","","","","18","","15","","","","101.77","","","","","","NA"
"-61.05","46.55","GRAND ETANG","8201969","2022-08-29 06:00","2022","08","29","06:00","17.5","","15.7","","89","","","","17","","16","","","","101.77","","","","","","NA"
"-61.05","46.55","GRAND ETANG","8201969","2022-08-29 07:00","2022","08","29","07:00","18.8","","16.3","","85","","","","18","","15","","","","101.77","","","","","","NA"
"-61.05","46.55","GRAND ETANG","8201969","2022-08-29 08:00","2022","08","29","08:00","20.2","","16.7","","80","","","","20","","17","","","","101.72","","25","","","","NA"
"-61.05","46.55","GRAND ETANG","8201969","2022-08-29 09:00","2022","08","29","09:00","20.8","","17.0","","79","","","","20","","22","","","","101.70","","26","","","","NA"
"-61.05","46.55","GRAND ETANG","8201969","2022-08-29 10:00","2022","08","29","10:00","21.3","","16.9","","76","","","","22","","23","","","","101.70","","27","","","","NA"
"-61.05","46.55","GRAND ETANG","8201969","2022-08-29 11:00","2022","08","29","11:00","21.9","","15.8","","68","","","","21","","23","","","","101.67","","26","","","","NA"
"-61.05","46.55","GRAND ETANG","8201969","2022-08-29 12:00","2022","08","29","12:00","22.4","","15.7","","66","","","","21","","23","","","","101.61","","27","","","","NA"
"-61.05","46.55","GRAND ETANG","8201969","2022-08-29 13:00","2022","08","29","13:00","22.2","","13.7","","59","","","","21","","21","","","","101.55","","25","","","","NA"
"-61.05","46.55","GRAND ETANG","8201969","2022-08-29 14:00","2022","08","29","14:00","22.1","","14.0","","60","","","","20","","19","","","","101.50","","25","","","","NA"
"-61.05","46.55","GRAND ETANG","8201969","2022-08-29 15:00","2022","08","29","15:00","22.9","","14.3","","58","","","","20","","18","","","","101.47","","26","","","","NA"
"-61.05","46.55","GRAND ETANG","8201969","2022-08-29 16:00","2022","08","29","16:00","23.3","","15.3","","61","","","","20","","17","","","","101.40","","27","","","","NA"
"-61.05","46.55","GRAND ETANG","8201969","2022-08-29 17:00","2022","08","29","17:00","23.4","","14.0","","56","","","","20","","17","","","","101.34","","27","","","","NA"
"-61.05","46.55","GRAND ETANG","8201969","2022-08-29 18:00","2022","08","29","18:00","22.4","","14.7","","62","","","","20","","12","","","","101.35","","26","","","","NA"
"-61.05","46.55","GRAND ETANG","8201969","2022-08-29 19:00","2022","08","29","19:00","20.0","","13.9","","68","","","","16","","14","","","","101.32","","","","","","NA"
"-61.05","46.55","GRAND ETANG","8201969","2022-08-29 20:00","2022","08","29","20:00","20.3","","14.2","","68","","","","16","","15","","","","101.35","","","","","","NA"
"-61.05","46.55","GRAND ETANG","8201969","2022-08-29 21:00","2022","08","29","21:00","20.8","","14.6","","68","","","","17","","15","","","","101.35","","25","","","","NA"
"-61.05","46.55","GRAND ETANG","8201969","2022-08-29 22:00","2022","08","29","22:00","20.9","","15.2","","70","","","","17","","15","","","","101.31","","25","","","","NA"
"-61.05","46.55","GRAND ETANG","8201969","2022-08-29 23:00","2022","08","29","23:00","21.1","","15.7","","71","","","","17","","15","","","","101.30","","26","","","","NA"
"-61.05","46.55","GRAND ETANG","8201969","2022-08-30 00:00","2022","08","30","00:00","20.8","","16.0","","74","","","","17","","16","","","","101.29","","25","","","","NA"
"-61.05","46.55","GRAND ETANG","8201969","2022-08-30 01:00","2022","08","30","01:00","19.9","","16.2","","79","","","","17","","15","","","","101.27","","","","","","NA"
"-61.05","46.55","GRAND ETANG","8201969","2022-08-30 02:00","2022","08","30","02:00","19.9","","16.4","","80","","","","18","","14","","","","101.26","","","","","","NA"
"-61.05","46.55","GRAND ETANG","8201969","2022-08-30 03:00","2022","08","30","03:00","19.9","","15.9","","78","","","","18","","15","","","","101.25","","","","","","NA"
"-61.05","46.55","GRAND ETANG","8201969","2022-08-30 04:00","2022","08","30","04:00","19.6","","16.0","","80","","","","17","","14","","","","101.20","","","","","","NA"
"-61.05","46.55","GRAND ETANG","8201969","2022-08-30 05:00","2022","08","30","05:00","19.0","","16.0","","83","","","","17","","12","","","","101.20","","","","","","NA"
"-61.05","46.55","GRAND ETANG","8201969","2022-08-30 06:00","2022","08","30","06:00","19.6","","16.5","","82","","","","18","","11","","","","101.16","","","","","","NA"
"-61.05","46.55","GRAND ETANG","8201969","2022-08-30 07:00","2022","08","30","07:00","20.6","","16.9","","79","","","","18","","14","","","","101.17","","26","","","","NA"
"-61.05","46.55","GRAND ETANG","8201969","2022-08-30 08:00","2022","08","30","08:00","22.0","","17.1","","74","","","","19","","15","","","","101.16","","27","","","","NA"
"-61.05","46.55","GRAND ETANG","8201969","2022-08-30 09:00","2022","08","30","09:00","22.8","","17.4","","72","","","","21","","17","","","","101.16","","28","","","","NA"
"-61.05","46.55","GRAND ETANG","8201969","2022-08-30 10:00","2022","08","30","10:00","24.7","","17.7","","65","","","","21","","23","","","","101.15","","30","","","","NA"
"-61.05","46.55","GRAND ETANG","8201969","2022-08-30 11:00","2022","08","30","11:00","24.3","","17.9","","67","","","","22","","23","","","","101.17","","30","","","","NA"
"-61.05","46.55","GRAND ETANG","8201969","2022-08-30 12:00","2022","08","30","12:00","26.2","","18.1","","61","","","","22","","25","","","","101.12","","32","","","","NA"
"-61.05","46.55","GRAND ETANG","8201969","2022-08-30 13:00","2022","08","30","13:00","27.0","","18.3","","59","","","","20","","23","","","","101.09","","33","","","","NA"
"-61.05","46.55","GRAND ETANG","8201969","2022-08-30 14:00","2022","08","30","14:00","27.1","","19.6","","64","","","","22","","23","","","","101.04","","34","","","","NA"
"-61.05","46.55","GRAND ETANG","8201969","2022-08-30 15:00","2022","08","30","15:00","26.8","","19.3","","64","","","","22","","21","","","","101.00","","34","","","","NA"
"-61.05","46.55","GRAND ETANG","8201969","2022-08-30 16:00","2022","08","30","16:00","27.0","","19.5","","64","","","","20","","15","","","","100.97","","34","","","","NA"
"-61.05","46.55","GRAND ETANG","8201969","2022-08-30 17:00","2022","08","30","17:00","27.6","","19.4","","61","","","","22","","17","","","","100.96","","35","","","","NA"
"-61.05","46.55","GRAND ETANG","8201969","2022-08-30 18:00","2022","08","30","18:00","26.9","","19.5","","64","","","","17","","14","","","","100.96","","34","","","","NA"
"-61.05","46.55","GRAND ETANG","8201969","2022-08-30 19:00","2022","08","30","19:00","24.6","","19.4","","73","","","","16","","15","","","","101.00","","32","","","","NA"
"-61.05","46.55","GRAND ETANG","8201969","2022-08-30 20:00","2022","08","30","20:00","23.9","","17.0","","65","","","","15","","21","","","","101.04","","29","","","","NA"
"-61.05","46.55","GRAND ETANG","8201969","2022-08-30 21:00","2022","08","30","21:00","23.2","","16.6","","66","","","","16","","16","","","","101.08","","28","","","","NA"
"-61.05","46.55","GRAND ETANG","8201969","2022-08-30 22:00","2022","08","30","22:00","22.4","","16.5","","69","","","","17","","17","","","","101.14","","27","","","","NA"
"-61.05","46.55","GRAND ETANG","8201969","2022-08-30 23:00","2022","08","30","23:00","21.2","","16.6","","75","","","","16","","15","","","","101.16","","26","","","","NA"
"-61.05","46.55","GRAND ETANG","8201969","2022-08-31 00:00","2022","08","31","00:00","20.5","","17.1","","81","","","","15","","19","","","","101.14","","26","","","","NA"
"-61.05","46.55","GRAND ETANG","8201969","2022-08-31 01:00","2022","08","31","01:00","20.3","","17.3","","83","","","","15","","22","","","","101.14","","26","","","","NA"
"-61.05","46.55","GRAND ETANG","8201969","2022-08-31 02:00","2022","08","31","02:00","20.3","","17.9","","86","","","","15","","21","","","","101.15","","26","","","","NA"
"-61.05","46.55","GRAND ETANG","8201969","2022-08-31 03:00","2022","08","31","03:00","20.9","","18.2","","84","","","","16","","18","","","","101.18","","27","","","","NA"
"-61.05","46.55","GRAND ETANG","8201969","2022-08-31 04:00","2022","08","31","04:00","21.0","","17.9","","82","","","","16","","17","","","","101.17","","27","","","","NA"
"-61.05","46.55","GRAND ETANG","8201969","2022-08-31 05:00","2022","08","31","05:00","20.4","","17.7","","85","","","","20","","15","","","","101.20","","26","","","","NA"
"-61.05","46.55","GRAND ETANG","8201969","2022-08-31 06:00","2022","08","31","06:00","20.8","","17.7","","83","","","","17","","16","","","","101.26","","27","","","","NA"
"-61.05","46.55","GRAND ETANG","8201969","2022-08-31 07:00","2022","08","31","07:00","21.4","","17.7","","79","","","","17","","20","","","","101.27","","27","","","","NA"
"-61.05","46.55","GRAND ETANG","8201969","2022-08-31 08:00","2022","08","31","08:00","22.9","","17.4","","71","","","","16","","26","","","","101.26","","28","","","","NA"
"-61.05","46.55","GRAND ETANG","8201969","2022-08-31 09:00","2022","08","31","09:00","24.8","","17.8","","65","","","","17","","19","","","","101.23","","31","","","","NA"
"-61.05","46.55","GRAND ETANG","8201969","2022-08-31 10:00","2022","08","31","10:00","25.9","","18.4","","64","","","","18","","19","","","","101.20","","32","","","","NA"
"-61.05","46.55","GRAND ETANG","8201969","2022-08-31 11:00","2022","08","31","11:00","26.5","","18.3","","61","","","","18","","21","","","","101.16","","33","","","","NA"
"-61.05","46.55","GRAND ETANG","8201969","2022-08-31 12:00","2022","08","31","12:00","26.8","","18.4","","60","","","","16","","25","","","","101.11","","33","","","","NA"
"-61.05","46.55","GRAND ETANG","8201969","2022-08-31 13:00","2022","08","31","13:00","26.6","","17.4","","57","","","","16","","26","","","","101.08","","32","","","","NA"
"-61.05","46.55","GRAND ETANG","8201969","2022-08-31 14:00","2022","08","31","14:00","26.7","","16.6","","54","","","","17","","25","","","","101.02","","32","","","","NA"
"-61.05","46.55","GRAND ETANG","8201969","2022-08-31 15:00","2022","08","31","15:00","26.1","","15.3","","51","","","","16","","32","","","","100.98","","30","","","","NA"
"-61.05","46.55","GRAND ETANG","8201969","2022-08-31 16:00","2022","08","31","16:00","25.8","","15.1","","52","","","","16","","31","","","","100.95","","30","","","","NA"
"-61.05","46.55","GRAND ETANG","8201969","2022-08-31 17:00","2022","08","31","17:00","24.4","","15.9","","59","","","","16","","22","","","","100.92","","29","","","","NA"
"-61.05","46.55","GRAND ETANG","8201969","2022-08-31 18:00","2022","08","31","18:00","23.9","","18.3","","71","","","","16","","12","","","","100.84","","30","","","","NA"
"-61.05","46.55","GRAND ETANG","8201969","2022-08-31 19:00","2022","08","31","19:00","22.8","","18.9","","78","","","","14","","11","","","","100.78","","29","","","","NA"
"-61.05","46.55","GRAND ETANG","8201969","2022-08-31 20:00","2022","08","31","20:00","23.3","","19.5","","80","","","","14","","28","","","","100.61","","30","","","","NA"
"-61.05","46.55","GRAND ETANG","8201969","2022-08-31 21:00","2022","08","31","21:00","23.8","","19.4","","76","","","","15","","34","","","","100.60","","31","","","","NA"
"-61.05","46.55","GRAND ETANG","8201969","2022-08-31 22:00","2022","08","31","22:00","24.5","","19.9","","76","","","","16","","31","","","","100.59","","32","","","","NA"
"-61.05","46.55","GRAND ETANG","8201969","2022-08-31 23:00","2022","08","31","23:00","24.6","","19.2","","72","","","","15","","48","","","","100.46","","32","","","","NA"
