"Longitude (x)","Latitude (y)","Station Name","Climate ID","Date/Time (LST)","Year","Month","Day","Time (LST)","Temp (°C)","Temp Flag","Dew Point Temp (°C)","Dew Point Temp Flag","Rel Hum (%)","Rel Hum Flag","Precip. Amount (mm)","Precip. Amount Flag","Wind Dir (10s deg)","Wind Dir Flag","Wind Spd (km/h)","Wind Spd Flag","Visibility (km)","Visibility Flag","Stn Press (kPa)","Stn Press Flag","Hmdx","Hmdx Flag","Wind Chill","Wind Chill Flag","Weather"
"-117.16","58.62","HIGH LEVEL A","3073141","2022-02-01 00:00","2022","02","01","00:00"
"-117.16","58.62","HIGH LEVEL A","3073141","2022-02-01 01:00","2022","02","01","01:00"
"-117.16","58.62","HIGH LEVEL A","3073141","2022-02-01 02:00","2022","02","01","02:00"
"-117.16","58.62","HIGH LEVEL A","3073141","2022-02-01 03:00","2022","02","01","03:00"
"-117.16","58.62","HIGH LEVEL A","3073141","2022-02-01 04:00","2022","02","01","04:00"
"-117.16","58.62","HIGH LEVEL A","3073141","2022-02-01 05:00","2022","02","01","05:00"
"-117.16","58.62","HIGH LEVEL A","3073141","2022-02-01 06:00","2022","02","01","06:00"
"-117.16","58.62","HIGH LEVEL A","3073141","2022-02-01 07:00","2022","02","01","07:00","-20.3","","-24.1","","72","","","","32","","14","","16.1","","99.20","","","","-29","","Ice Crystals"
"-117.16","58.62","HIGH LEVEL A","3073141","2022-02-01 08:00","2022","02","01","08:00","-20.6","","-24.3","","73","","","","33","","13","","16.1","","99.24","","","","-29","","Ice Crystals"
"-117.16","58.62","HIGH LEVEL A","3073141","2022-02-01 09:00","2022","02","01","09:00","-20.8","","-24.3","","74","","","","32","","21","","24.1","","99.30","","","","-32","","NA"
"-117.16","58.62","HIGH LEVEL A","3073141","2022-02-01 10:00","2022","02","01","10:00","-21.4","","-25.1","","73","","","","33","","17","","24.1","","99.39","","","","-31","","Blowing Snow"
"-117.16","58.62","HIGH LEVEL A","3073141","2022-02-01 11:00","2022","02","01","11:00","-21.8","","-25.7","","71","","","","33","","16","","24.1","","99.50","","","","-32","","Blowing Snow"
"-117.16","58.62","HIGH LEVEL A","3073141","2022-02-01 12:00","2022","02","01","12:00","-21.1","","-25.4","","69","","","","35","","19","","24.1","","99.59","","","","-32","","Blowing Snow"
"-117.16","58.62","HIGH LEVEL A","3073141","2022-02-01 13:00","2022","02","01","13:00","-20.9","","-25.5","","67","","","","33","","21","","24.1","","99.68","","","","-32","","Blowing Snow"
"-117.16","58.62","HIGH LEVEL A","3073141","2022-02-01 14:00","2022","02","01","14:00","-21.0","","-25.6","","67","","","","34","","15","","24.1","","99.73","","","","-30","","Blowing Snow"
"-117.16","58.62","HIGH LEVEL A","3073141","2022-02-01 15:00","2022","02","01","15:00","-20.7","","-26.0","","63","","","","35","","19","","24.1","","99.82","","","","-31","","Blowing Snow"
"-117.16","58.62","HIGH LEVEL A","3073141","2022-02-01 16:00","2022","02","01","16:00","-21.1","","-26.3","","63","","","","36","","14","","24.1","","99.87","","","","-30","","NA"
"-117.16","58.62","HIGH LEVEL A","3073141","2022-02-01 17:00","2022","02","01","17:00","-22.7","","-27.0","","68","","","","33","","7","","24.1","","99.89","","","","-29","","Mainly Clear"
"-117.16","58.62","HIGH LEVEL A","3073141","2022-02-01 18:00","2022","02","01","18:00","-25.6","","-28.5","","77","","","","36","","2","","24.1","","99.87","","","","-28","","NA"
"-117.16","58.62","HIGH LEVEL A","3073141","2022-02-01 19:00","2022","02","01","19:00"
"-117.16","58.62","HIGH LEVEL A","3073141","2022-02-01 20:00","2022","02","01","20:00"
"-117.16","58.62","HIGH LEVEL A","3073141","2022-02-01 21:00","2022","02","01","21:00"
"-117.16","58.62","HIGH LEVEL A","3073141","2022-02-01 22:00","2022","02","01","22:00"
"-117.16","58.62","HIGH LEVEL A","3073141","2022-02-01 23:00","2022","02","01","23:00"
"-117.16","58.62","HIGH LEVEL A","3073141","2022-02-02 00:00","2022","02","02","00:00"
"-117.16","58.62","HIGH LEVEL A","3073141","2022-02-02 01:00","2022","02","02","01:00"
"-117.16","58.62","HIGH LEVEL A","3073141","2022-02-02 02:00","2022","02","02","02:00"
"-117.16","58.62","HIGH LEVEL A","3073141","2022-02-02 03:00","2022","02","02","03:00"
"-117.16","58.62","HIGH LEVEL A","3073141","2022-02-02 04:00","2022","02","02","04:00"
"-117.16","58.62","HIGH LEVEL A","3073141","2022-02-02 05:00","2022","02","02","05:00"
"-117.16","58.62","HIGH LEVEL A","3073141","2022-02-02 06:00","2022","02","02","06:00"
"-117.16","58.62","HIGH LEVEL A","3073141","2022-02-02 07:00","2022","02","02","07:00","-37.8","","-41.5","","69","","","","36","","3","","16.1","","98.91","","","","-42","","NA"
"-117.16","58.62","HIGH LEVEL A","3073141","2022-02-02 08:00","2022","02","02","08:00","-37.2","","-40.8","","70","","","","30","","3","","16.1","","98.76","","","","-41","","Ice Crystals"
"-117.16","58.62","HIGH LEVEL A","3073141","2022-02-02 09:00","2022","02","02","09:00","-38.3","","-42.2","","68","","","","36","","1","","24.1","","98.65","","","","-40","","Ice Crystals"
"-117.16","58.62","HIGH LEVEL A","3073141","2022-02-02 10:00","2022","02","02","10:00","-35.5","","-38.9","","72","","","","27","","4","","24.1","","98.56","","","","-41","","Ice Crystals"
"-117.16","58.62","HIGH LEVEL A","3073141","2022-02-02 11:00","2022","02","02","11:00","-32.4","","-35.5","","75","","","","25","","5","","24.1","","98.48","","","","-38","","Ice Crystals"
"-117.16","58.62","HIGH LEVEL A","3073141","2022-02-02 12:00","2022","02","02","12:00","-29.3","","-32.1","","77","","","","25","","3","","24.1","","98.39","","","","-33","","Ice Crystals"
"-117.16","58.62","HIGH LEVEL A","3073141","2022-02-02 13:00","2022","02","02","13:00","-26.0","","-28.7","","78","","","","23","","5","","24.1","","98.26","","","","-31","","NA"
"-117.16","58.62","HIGH LEVEL A","3073141","2022-02-02 14:00","2022","02","02","14:00","-24.4","","-27.2","","78","","","","21","","10","","24.1","","98.15","","","","-32","","Mainly Clear"
"-117.16","58.62","HIGH LEVEL A","3073141","2022-02-02 15:00","2022","02","02","15:00","-23.2","","-26.6","","74","","","","24","","5","","24.1","","98.10","","","","-28","","NA"
"-117.16","58.62","HIGH LEVEL A","3073141","2022-02-02 16:00","2022","02","02","16:00","-24.2","","-27.3","","76","","","","27","","3","","24.1","","98.11","","","","-27","","NA"
"-117.16","58.62","HIGH LEVEL A","3073141","2022-02-02 17:00","2022","02","02","17:00","-27.0","","-29.1","","83","","","","35","","5","","24.1","","98.13","","","","-32","","Mainly Clear"
"-117.16","58.62","HIGH LEVEL A","3073141","2022-02-02 18:00","2022","02","02","18:00","-29.8","","-32.4","","79","","","","2","","5","","24.1","","98.16","","","","-35","","NA"
"-117.16","58.62","HIGH LEVEL A","3073141","2022-02-02 19:00","2022","02","02","19:00","-30.7","","-33.5","","77","","","","36","","8","","24.1","","98.21","","","","-39","","NA"
"-117.16","58.62","HIGH LEVEL A","3073141","2022-02-02 20:00","2022","02","02","20:00","-25.5","","-27.9","","81","","","","35","","12","","24.1","","98.26","","","","-35","","Clear"
"-117.16","58.62","HIGH LEVEL A","3073141","2022-02-02 21:00","2022","02","02","21:00","-25.0","","-27.4","","81","","","","36","","15","","24.1","","98.31","","","","-35","","NA"
"-117.16","58.62","HIGH LEVEL A","3073141","2022-02-02 22:00","2022","02","02","22:00","-25.5","","-27.6","","83","","","","34","","17","","24.1","","98.36","","","","-37","","NA"
"-117.16","58.62","HIGH LEVEL A","3073141","2022-02-02 23:00","2022","02","02","23:00"
"-117.16","58.62","HIGH LEVEL A","3073141","2022-02-03 00:00","2022","02","03","00:00"
"-117.16","58.62","HIGH LEVEL A","3073141","2022-02-03 01:00","2022","02","03","01:00"
"-117.16","58.62","HIGH LEVEL A","3073141","2022-02-03 02:00","2022","02","03","02:00"
"-117.16","58.62","HIGH LEVEL A","3073141","2022-02-03 03:00","2022","02","03","03:00"
"-117.16","58.62","HIGH LEVEL A","3073141","2022-02-03 04:00","2022","02","03","04:00"
"-117.16","58.62","HIGH LEVEL A","3073141","2022-02-03 05:00","2022","02","03","05:00"
"-117.16","58.62","HIGH LEVEL A","3073141","2022-02-03 06:00","2022","02","03","06:00"
"-117.16","58.62","HIGH LEVEL A","3073141","2022-02-03 07:00","2022","02","03","07:00","-29.4","","-32.5","","76","","","","33","","7","","24.1","","99.06","","","","-37","","NA"
"-117.16","58.62","HIGH LEVEL A","3073141","2022-02-03 08:00","2022","02","03","08:00","-29.6","","-32.5","","76","","","","33","","12","","24.1","","99.11","","","","-40","","Mainly Clear"
"-117.16","58.62","HIGH LEVEL A","3073141","2022-02-03 09:00","2022","02","03","09:00","-28.9","","-31.9","","76","","","","35","","18","","24.1","","99.13","","","","-41","","NA"
"-117.16","58.62","HIGH LEVEL A","3073141","2022-02-03 10:00","2022","02","03","10:00","-28.4","","-31.3","","77","","","","35","","9","","24.1","","99.14","","","","-37","","NA"
"-117.16","58.62","HIGH LEVEL A","3073141","2022-02-03 11:00","2022","02","03","11:00","-27.5","","-30.5","","76","","","","34","","10","","24.1","","99.21","","","","-36","","Mainly Clear"
"-117.16","58.62","HIGH LEVEL A","3073141","2022-02-03 12:00","2022","02","03","12:00","-26.4","","-29.7","","74","","","","34","","7","","24.1","","99.26","","","","-33","","NA"
"-117.16","58.62","HIGH LEVEL A","3073141","2022-02-03 13:00","2022","02","03","13:00","-24.4","","-28.2","","71","","","","36","","2","","24.1","","99.31","","","","-26","","NA"
"-117.16","58.62","HIGH LEVEL A","3073141","2022-02-03 14:00","2022","02","03","14:00","-24.0","","-28.0","","70","","","","36","","1","","24.1","","99.21","","","","-25","","Mainly Clear"
"-117.16","58.62","HIGH LEVEL A","3073141","2022-02-03 15:00","2022","02","03","15:00","-23.8","","-27.6","","71","","","","14","","5","","24.1","","99.20","","","","-29","","NA"
"-117.16","58.62","HIGH LEVEL A","3073141","2022-02-03 16:00","2022","02","03","16:00","-23.7","","-28.0","","69","","","","15","","8","","24.1","","99.18","","","","-31","","NA"
"-117.16","58.62","HIGH LEVEL A","3073141","2022-02-03 17:00","2022","02","03","17:00","-24.9","","-28.4","","73","","","","17","","8","","24.1","","99.12","","","","-32","","Mostly Cloudy"
"-117.16","58.62","HIGH LEVEL A","3073141","2022-02-03 18:00","2022","02","03","18:00","-25.5","","-28.5","","77","","","","14","","7","","24.1","","99.09","","","","-32","","NA"
"-117.16","58.62","HIGH LEVEL A","3073141","2022-02-03 19:00","2022","02","03","19:00","-26.1","","-28.9","","78","","","","15","","5","","16.1","","99.05","","","","-31","","NA"
"-117.16","58.62","HIGH LEVEL A","3073141","2022-02-03 20:00","2022","02","03","20:00","-25.5","","-28.5","","77","","","","13","","9","","16.1","","98.95","","","","-33","","Mostly Cloudy"
"-117.16","58.62","HIGH LEVEL A","3073141","2022-02-03 21:00","2022","02","03","21:00","-25.9","","-28.8","","77","","","","12","","7","","16.1","","98.90","","","","-33","","NA"
"-117.16","58.62","HIGH LEVEL A","3073141","2022-02-03 22:00","2022","02","03","22:00","-26.1","","-29.0","","77","","","","13","","10","","16.1","","98.77","","","","-34","","NA"
"-117.16","58.62","HIGH LEVEL A","3073141","2022-02-03 23:00","2022","02","03","23:00"
"-117.16","58.62","HIGH LEVEL A","3073141","2022-02-04 00:00","2022","02","04","00:00"
"-117.16","58.62","HIGH LEVEL A","3073141","2022-02-04 01:00","2022","02","04","01:00"
"-117.16","58.62","HIGH LEVEL A","3073141","2022-02-04 02:00","2022","02","04","02:00"
"-117.16","58.62","HIGH LEVEL A","3073141","2022-02-04 03:00","2022","02","04","03:00"
"-117.16","58.62","HIGH LEVEL A","3073141","2022-02-04 04:00","2022","02","04","04:00"
"-117.16","58.62","HIGH LEVEL A","3073141","2022-02-04 05:00","2022","02","04","05:00"
"-117.16","58.62","HIGH LEVEL A","3073141","2022-02-04 06:00","2022","02","04","06:00"
"-117.16","58.62","HIGH LEVEL A","3073141","2022-02-04 07:00","2022","02","04","07:00","-21.3","","-23.8","","81","","","","8","","5","","2.4","","97.71","","","","-26","","Snow"
"-117.16","58.62","HIGH LEVEL A","3073141","2022-02-04 08:00","2022","02","04","08:00","-20.9","","-23.2","","82","","","","35","","3","","2.4","","97.63","","","","-24","","Snow"
"-117.16","58.62","HIGH LEVEL A","3073141","2022-02-04 09:00","2022","02","04","09:00","-20.6","","-23.1","","81","","","","32","","3","","3.2","","97.55","","","","-23","","Snow"
"-117.16","58.62","HIGH LEVEL A","3073141","2022-02-04 10:00","2022","02","04","10:00","-20.5","","-23.0","","81","","","","36","","1","","3.2","","97.47","","","","-21","","Snow"
"-117.16","58.62","HIGH LEVEL A","3073141","2022-02-04 11:00","2022","02","04","11:00"
"-117.16","58.62","HIGH LEVEL A","3073141","2022-02-04 12:00","2022","02","04","12:00","-19.6","","-22.5","","78","","","","11","","15","","3.2","","97.40","","","","-29","","Snow,Blowing Snow"
"-117.16","58.62","HIGH LEVEL A","3073141","2022-02-04 13:00","2022","02","04","13:00","-18.8","","-21.4","","80","","","","10","","17","","2.4","","97.32","","","","-28","","Snow,Blowing Snow"
"-117.16","58.62","HIGH LEVEL A","3073141","2022-02-04 14:00","2022","02","04","14:00","-18.4","","-21.6","","76","","","","11","","9","","6.4","","97.23","","","","-25","","Snow"
"-117.16","58.62","HIGH LEVEL A","3073141","2022-02-04 15:00","2022","02","04","15:00","-18.1","","-21.2","","77","","","","11","","10","","4.8","","97.19","","","","-25","","Snow"
"-117.16","58.62","HIGH LEVEL A","3073141","2022-02-04 16:00","2022","02","04","16:00","-18.3","","-21.0","","80","","","","13","","13","","3.2","","97.17","","","","-26","","Snow"
"-117.16","58.62","HIGH LEVEL A","3073141","2022-02-04 17:00","2022","02","04","17:00","-18.5","","-20.9","","82","","","","11","","8","","1.6","","97.12","","","","-24","","Snow"
"-117.16","58.62","HIGH LEVEL A","3073141","2022-02-04 18:00","2022","02","04","18:00","-18.6","","-20.9","","82","","","","11","","9","","1.6","","97.08","","","","-25","","Snow"
"-117.16","58.62","HIGH LEVEL A","3073141","2022-02-04 19:00","2022","02","04","19:00","-18.7","","-20.9","","83","","","","10","","6","","2.4","","97.04","","","","-24","","Snow"
"-117.16","58.62","HIGH LEVEL A","3073141","2022-02-04 20:00","2022","02","04","20:00","-19.0","","-21.4","","82","","","","12","","12","","1.6","","96.99","","","","-27","","Snow"
"-117.16","58.62","HIGH LEVEL A","3073141","2022-02-04 21:00","2022","02","04","21:00","-19.8","","-22.4","","80","","","","12","","14","","1.6","","96.99","","","","-29","","Snow"
"-117.16","58.62","HIGH LEVEL A","3073141","2022-02-04 22:00","2022","02","04","22:00","-20.9","","-23.5","","80","","","","14","","18","","3.2","","96.98","","","","-31","","Snow,Blowing Snow"
"-117.16","58.62","HIGH LEVEL A","3073141","2022-02-04 23:00","2022","02","04","23:00"
"-117.16","58.62","HIGH LEVEL A","3073141","2022-02-05 00:00","2022","02","05","00:00"
"-117.16","58.62","HIGH LEVEL A","3073141","2022-02-05 01:00","2022","02","05","01:00"
"-117.16","58.62","HIGH LEVEL A","3073141","2022-02-05 02:00","2022","02","05","02:00"
"-117.16","58.62","HIGH LEVEL A","3073141","2022-02-05 03:00","2022","02","05","03:00"
"-117.16","58.62","HIGH LEVEL A","3073141","2022-02-05 04:00","2022","02","05","04:00"
"-117.16","58.62","HIGH LEVEL A","3073141","2022-02-05 05:00","2022","02","05","05:00"
"-117.16","58.62","HIGH LEVEL A","3073141","2022-02-05 06:00","2022","02","05","06:00"
"-117.16","58.62","HIGH LEVEL A","3073141","2022-02-05 07:00","2022","02","05","07:00","-22.2","","-24.8","","80","","","","17","","7","","16.1","","97.18","","","","-28","","Snow"
"-117.16","58.62","HIGH LEVEL A","3073141","2022-02-05 08:00","2022","02","05","08:00","-22.4","","-24.8","","81","","","","19","","5","","16.1","","97.25","","","","-27","","Snow"
"-117.16","58.62","HIGH LEVEL A","3073141","2022-02-05 09:00","2022","02","05","09:00","-23.6","","-25.8","","82","","","","21","","6","","24.1","","97.33","","","","-29","","NA"
"-117.16","58.62","HIGH LEVEL A","3073141","2022-02-05 10:00","2022","02","05","10:00","-23.0","","-25.1","","83","","","","18","","5","","24.1","","97.39","","","","-28","","NA"
"-117.16","58.62","HIGH LEVEL A","3073141","2022-02-05 11:00","2022","02","05","11:00","-22.4","","-25.2","","79","","","","36","","2","","24.1","","97.49","","","","-24","","Mainly Clear"
"-117.16","58.62","HIGH LEVEL A","3073141","2022-02-05 12:00","2022","02","05","12:00","-19.5","","-23.2","","73","","","","20","","6","","24.1","","97.51","","","","-24","","NA"
"-117.16","58.62","HIGH LEVEL A","3073141","2022-02-05 13:00","2022","02","05","13:00","-19.2","","-22.9","","73","","","","11","","7","","24.1","","97.51","","","","-25","","NA"
"-117.16","58.62","HIGH LEVEL A","3073141","2022-02-05 14:00","2022","02","05","14:00","-17.8","","-22.0","","70","","","","9","","7","","24.1","","97.46","","","","-23","","Mainly Clear"
"-117.16","58.62","HIGH LEVEL A","3073141","2022-02-05 15:00","2022","02","05","15:00","-17.6","","-22.4","","67","","","","11","","5","","24.1","","97.54","","","","-22","","NA"
"-117.16","58.62","HIGH LEVEL A","3073141","2022-02-05 16:00","2022","02","05","16:00","-18.2","","-22.2","","71","","","","14","","8","","24.1","","97.51","","","","-24","","NA"
"-117.16","58.62","HIGH LEVEL A","3073141","2022-02-05 17:00","2022","02","05","17:00","-19.2","","-22.7","","74","","","","15","","12","","24.1","","97.52","","","","-27","","Mostly Cloudy"
"-117.16","58.62","HIGH LEVEL A","3073141","2022-02-05 18:00","2022","02","05","18:00","-19.4","","-22.7","","76","","","","13","","7","","24.1","","97.55","","","","-25","","NA"
"-117.16","58.62","HIGH LEVEL A","3073141","2022-02-05 19:00","2022","02","05","19:00","-20.4","","-23.1","","80","","","","13","","4","","16.1","","97.51","","","","-24","","NA"
"-117.16","58.62","HIGH LEVEL A","3073141","2022-02-05 20:00","2022","02","05","20:00","-21.5","","-23.7","","83","","","","18","","9","","16.1","","97.44","","","","-29","","Mainly Clear"
"-117.16","58.62","HIGH LEVEL A","3073141","2022-02-05 21:00","2022","02","05","21:00","-22.1","","-24.4","","82","","","","15","","8","","16.1","","97.41","","","","-29","","NA"
"-117.16","58.62","HIGH LEVEL A","3073141","2022-02-05 22:00","2022","02","05","22:00","-23.0","","-25.2","","83","","","","18","","7","","16.1","","97.34","","","","-29","","NA"
"-117.16","58.62","HIGH LEVEL A","3073141","2022-02-05 23:00","2022","02","05","23:00"
"-117.16","58.62","HIGH LEVEL A","3073141","2022-02-06 00:00","2022","02","06","00:00"
"-117.16","58.62","HIGH LEVEL A","3073141","2022-02-06 01:00","2022","02","06","01:00"
"-117.16","58.62","HIGH LEVEL A","3073141","2022-02-06 02:00","2022","02","06","02:00"
"-117.16","58.62","HIGH LEVEL A","3073141","2022-02-06 03:00","2022","02","06","03:00"
"-117.16","58.62","HIGH LEVEL A","3073141","2022-02-06 04:00","2022","02","06","04:00"
"-117.16","58.62","HIGH LEVEL A","3073141","2022-02-06 05:00","2022","02","06","05:00"
"-117.16","58.62","HIGH LEVEL A","3073141","2022-02-06 06:00","2022","02","06","06:00"
"-117.16","58.62","HIGH LEVEL A","3073141","2022-02-06 07:00","2022","02","06","07:00","-18.7","","-21.0","","82","","","","17","","8","","6.4","","96.46","","","","-25","","Snow"
"-117.16","58.62","HIGH LEVEL A","3073141","2022-02-06 08:00","2022","02","06","08:00","-18.1","","-20.3","","83","","","","14","","10","","8.1","","96.29","","","","-25","","Snow Showers"
"-117.16","58.62","HIGH LEVEL A","3073141","2022-02-06 09:00","2022","02","06","09:00","-18.5","","-20.4","","85","","","","19","","5","","12.9","","96.21","","","","-23","","Snow Showers"
"-117.16","58.62","HIGH LEVEL A","3073141","2022-02-06 10:00","2022","02","06","10:00","-18.3","","-20.2","","85","","","","18","","5","","12.9","","96.17","","","","-22","","Snow"
"-117.16","58.62","HIGH LEVEL A","3073141","2022-02-06 11:00","2022","02","06","11:00","-17.6","","-19.1","","88","","","","16","","12","","12.9","","96.06","","","","-25","","Snow"
"-117.16","58.62","HIGH LEVEL A","3073141","2022-02-06 12:00","2022","02","06","12:00","-16.4","","-18.4","","85","","","","15","","13","","24.1","","95.99","","","","-24","","Snow"
"-117.16","58.62","HIGH LEVEL A","3073141","2022-02-06 13:00","2022","02","06","13:00","-14.0","","-16.7","","80","","","","14","","13","","24.1","","95.92","","","","-21","","NA"
"-117.16","58.62","HIGH LEVEL A","3073141","2022-02-06 14:00","2022","02","06","14:00","-13.1","","-15.6","","82","","","","16","","17","","24.1","","95.88","","","","-21","","Mostly Cloudy"
"-117.16","58.62","HIGH LEVEL A","3073141","2022-02-06 15:00","2022","02","06","15:00","-11.2","","-14.0","","80","","","","15","","17","","24.1","","95.88","","","","-19","","NA"
"-117.16","58.62","HIGH LEVEL A","3073141","2022-02-06 16:00","2022","02","06","16:00","-9.0","","-11.6","","81","","","","20","","10","","24.1","","95.88","","","","-14","","NA"
"-117.16","58.62","HIGH LEVEL A","3073141","2022-02-06 17:00","2022","02","06","17:00","-7.4","","-9.5","","85","","","","22","","12","","24.1","","95.89","","","","-13","","Mostly Cloudy"
"-117.16","58.62","HIGH LEVEL A","3073141","2022-02-06 18:00","2022","02","06","18:00","-0.4","","-3.1","","82","","","","24","","12","","24.1","","95.91","","","","-4","","NA"
"-117.16","58.62","HIGH LEVEL A","3073141","2022-02-06 19:00","2022","02","06","19:00","1.0","","-2.1","","80","","","","24","","12","","24.1","","95.89","","","","","","NA"
"-117.16","58.62","HIGH LEVEL A","3073141","2022-02-06 20:00","2022","02","06","20:00","0.7","","-2.3","","80","","","","23","","8","","24.1","","95.89","","","","","","Mainly Clear"
"-117.16","58.62","HIGH LEVEL A","3073141","2022-02-06 21:00","2022","02","06","21:00","-3.4","","-4.4","","93","","","","17","","8","","24.1","","95.87","","","","-7","","NA"
"-117.16","58.62","HIGH LEVEL A","3073141","2022-02-06 22:00","2022","02","06","22:00","-5.2","","-5.4","","99","","","","16","","10","","24.1","","95.88","","","","-10","","NA"
"-117.16","58.62","HIGH LEVEL A","3073141","2022-02-06 23:00","2022","02","06","23:00"
"-117.16","58.62","HIGH LEVEL A","3073141","2022-02-07 00:00","2022","02","07","00:00"
"-117.16","58.62","HIGH LEVEL A","3073141","2022-02-07 01:00","2022","02","07","01:00"
"-117.16","58.62","HIGH LEVEL A","3073141","2022-02-07 02:00","2022","02","07","02:00"
"-117.16","58.62","HIGH LEVEL A","3073141","2022-02-07 03:00","2022","02","07","03:00"
"-117.16","58.62","HIGH LEVEL A","3073141","2022-02-07 04:00","2022","02","07","04:00"
"-117.16","58.62","HIGH LEVEL A","3073141","2022-02-07 05:00","2022","02","07","05:00"
"-117.16","58.62","HIGH LEVEL A","3073141","2022-02-07 06:00","2022","02","07","06:00"
"-117.16","58.62","HIGH LEVEL A","3073141","2022-02-07 07:00","2022","02","07","07:00","2.4","","-1.7","","74","","","","16","","12","","24.1","","95.08","","","","","","NA"
"-117.16","58.62","HIGH LEVEL A","3073141","2022-02-07 08:00","2022","02","07","08:00","2.3","","-0.4","","82","","","","10","","5","","24.1","","94.92","","","","","","Rain"
"-117.16","58.62","HIGH LEVEL A","3073141","2022-02-07 09:00","2022","02","07","09:00","0.9","","-0.4","","91","","","","9","","3","","24.1","","94.84","","","","","","NA"
"-117.16","58.62","HIGH LEVEL A","3073141","2022-02-07 10:00","2022","02","07","10:00","-0.3","","-1.1","","95","","","","1","","4","","24.1","","94.81","","","","-2","","NA"
"-117.16","58.62","HIGH LEVEL A","3073141","2022-02-07 11:00","2022","02","07","11:00","3.9","","1.4","","84","","","","29","","7","","24.1","","94.84","","","","","","Rain"
"-117.16","58.62","HIGH LEVEL A","3073141","2022-02-07 12:00","2022","02","07","12:00","3.5","","1.6","","87","","","","27","","14","","24.1","","94.93","","","","","","Rain"
"-117.16","58.62","HIGH LEVEL A","3073141","2022-02-07 13:00","2022","02","07","13:00","1.3","","0.6","","95","","","","33","","21","","6.4","","95.08","","","","","","Rain,Snow"
"-117.16","58.62","HIGH LEVEL A","3073141","2022-02-07 14:00","2022","02","07","14:00","-7.6","","-9.0","","90","","","","35","","34","","1.6","","95.43","","","","-17","","Snow,Blowing Snow"
"-117.16","58.62","HIGH LEVEL A","3073141","2022-02-07 15:00","2022","02","07","15:00","-9.4","","-11.3","","86","","","","35","","36","","3.2","","95.67","","","","-20","","Snow,Blowing Snow"
"-117.16","58.62","HIGH LEVEL A","3073141","2022-02-07 16:00","2022","02","07","16:00","-10.6","","-12.3","","88","","","","33","","18","","9.7","","95.95","","","","-18","","Snow,Blowing Snow"
"-117.16","58.62","HIGH LEVEL A","3073141","2022-02-07 17:00","2022","02","07","17:00","-11.2","","-13.3","","84","","","","35","","31","","4.8","","96.18","","","","-21","","Snow,Blowing Snow"
"-117.16","58.62","HIGH LEVEL A","3073141","2022-02-07 18:00","2022","02","07","18:00","-11.7","","-13.8","","85","","","","33","","27","","9.7","","96.38","","","","-21","","Snow,Blowing Snow"
"-117.16","58.62","HIGH LEVEL A","3073141","2022-02-07 19:00","2022","02","07","19:00","-12.4","","-14.8","","82","","","","34","","23","","16.1","","96.50","","","","-21","","Snow,Blowing Snow"
"-117.16","58.62","HIGH LEVEL A","3073141","2022-02-07 20:00","2022","02","07","20:00","-12.9","","-15.4","","82","","","","35","","21","","16.1","","96.63","","","","-22","","Snow,Blowing Snow"
"-117.16","58.62","HIGH LEVEL A","3073141","2022-02-07 21:00","2022","02","07","21:00","-13.8","","-15.7","","86","","","","36","","20","","16.1","","96.72","","","","-23","","Snow,Blowing Snow"
"-117.16","58.62","HIGH LEVEL A","3073141","2022-02-07 22:00","2022","02","07","22:00","-13.9","","-15.8","","86","","","","35","","21","","16.1","","96.85","","","","-23","","Snow,Blowing Snow"
"-117.16","58.62","HIGH LEVEL A","3073141","2022-02-07 23:00","2022","02","07","23:00"
"-117.16","58.62","HIGH LEVEL A","3073141","2022-02-08 00:00","2022","02","08","00:00"
"-117.16","58.62","HIGH LEVEL A","3073141","2022-02-08 01:00","2022","02","08","01:00"
"-117.16","58.62","HIGH LEVEL A","3073141","2022-02-08 02:00","2022","02","08","02:00"
"-117.16","58.62","HIGH LEVEL A","3073141","2022-02-08 03:00","2022","02","08","03:00"
"-117.16","58.62","HIGH LEVEL A","3073141","2022-02-08 04:00","2022","02","08","04:00"
"-117.16","58.62","HIGH LEVEL A","3073141","2022-02-08 05:00","2022","02","08","05:00"
"-117.16","58.62","HIGH LEVEL A","3073141","2022-02-08 06:00","2022","02","08","06:00"
"-117.16","58.62","HIGH LEVEL A","3073141","2022-02-08 07:00","2022","02","08","07:00","-17.4","","-19.6","","83","","","","36","","10","","24.1","","97.40","","","","-24","","Snow"
"-117.16","58.62","HIGH LEVEL A","3073141","2022-02-08 08:00","2022","02","08","08:00","-17.5","","-19.6","","84","","","","36","","10","","24.1","","97.41","","","","-24","","Snow"
"-117.16","58.62","HIGH LEVEL A","3073141","2022-02-08 09:00","2022","02","08","09:00","-17.5","","-19.7","","84","","","","1","","11","","12.9","","97.39","","","","-25","","Snow"
"-117.16","58.62","HIGH LEVEL A","3073141","2022-02-08 10:00","2022","02","08","10:00","-17.1","","-19.2","","84","","","","34","","9","","16.1","","97.43","","","","-23","","Snow"
"-117.16","58.62","HIGH LEVEL A","3073141","2022-02-08 11:00","2022","02","08","11:00","-16.6","","-18.9","","82","","","","1","","10","","24.1","","97.38","","","","-23","","Snow"
"-117.16","58.62","HIGH LEVEL A","3073141","2022-02-08 12:00","2022","02","08","12:00","-15.7","","-18.3","","80","","","","36","","14","","24.1","","97.41","","","","-23","","Snow"
"-117.16","58.62","HIGH LEVEL A","3073141","2022-02-08 13:00","2022","02","08","13:00","-14.9","","-17.6","","80","","","","4","","5","","24.1","","97.36","","","","-18","","NA"
"-117.16","58.62","HIGH LEVEL A","3073141","2022-02-08 14:00","2022","02","08","14:00","-14.3","","-17.0","","80","","","","5","","5","","24.1","","97.36","","","","-18","","Cloudy"
"-117.16","58.62","HIGH LEVEL A","3073141","2022-02-08 15:00","2022","02","08","15:00","-13.6","","-16.4","","80","","","","36","","2","","12.9","","97.36","","","","-15","","NA"
"-117.16","58.62","HIGH LEVEL A","3073141","2022-02-08 16:00","2022","02","08","16:00","-13.0","","-15.5","","82","","","","14","","9","","16.1","","97.33","","","","-18","","NA"
"-117.16","58.62","HIGH LEVEL A","3073141","2022-02-08 17:00","2022","02","08","17:00","-13.1","","-15.1","","85","","","","14","","9","","16.1","","97.39","","","","-19","","Snow"
"-117.16","58.62","HIGH LEVEL A","3073141","2022-02-08 18:00","2022","02","08","18:00","-13.2","","-14.8","","88","","","","12","","5","","16.1","","97.35","","","","-17","","Snow"
"-117.16","58.62","HIGH LEVEL A","3073141","2022-02-08 19:00","2022","02","08","19:00","-13.2","","-14.8","","88","","","","13","","11","","16.1","","97.27","","","","-19","","Snow"
"-117.16","58.62","HIGH LEVEL A","3073141","2022-02-08 20:00","2022","02","08","20:00","-13.5","","-15.9","","82","","","","10","","8","","16.1","","97.24","","","","-19","","Snow"
"-117.16","58.62","HIGH LEVEL A","3073141","2022-02-08 21:00","2022","02","08","21:00","-13.7","","-16.1","","82","","","","36","","3","","16.1","","97.26","","","","-16","","Snow"
"-117.16","58.62","HIGH LEVEL A","3073141","2022-02-08 22:00","2022","02","08","22:00","-14.0","","-16.1","","84","","","","14","","4","","16.1","","97.16","","","","-17","","Snow"
"-117.16","58.62","HIGH LEVEL A","3073141","2022-02-08 23:00","2022","02","08","23:00"
"-117.16","58.62","HIGH LEVEL A","3073141","2022-02-09 00:00","2022","02","09","00:00"
"-117.16","58.62","HIGH LEVEL A","3073141","2022-02-09 01:00","2022","02","09","01:00"
"-117.16","58.62","HIGH LEVEL A","3073141","2022-02-09 02:00","2022","02","09","02:00"
"-117.16","58.62","HIGH LEVEL A","3073141","2022-02-09 03:00","2022","02","09","03:00"
"-117.16","58.62","HIGH LEVEL A","3073141","2022-02-09 04:00","2022","02","09","04:00"
"-117.16","58.62","HIGH LEVEL A","3073141","2022-02-09 05:00","2022","02","09","05:00"
"-117.16","58.62","HIGH LEVEL A","3073141","2022-02-09 06:00","2022","02","09","06:00"
"-117.16","58.62","HIGH LEVEL A","3073141","2022-02-09 07:00","2022","02","09","07:00","-15.2","","-16.4","","91","","","","14","","4","","16.1","","97.32","","","","-18","","Snow"
"-117.16","58.62","HIGH LEVEL A","3073141","2022-02-09 08:00","2022","02","09","08:00","-15.4","","-16.2","","94","","","","13","","4","","8.1","","97.29","","","","-18","","Snow"
"-117.16","58.62","HIGH LEVEL A","3073141","2022-02-09 09:00","2022","02","09","09:00","-15.5","","-16.5","","92","","","","15","","11","","9.7","","97.24","","","","-22","","Snow"
"-117.16","58.62","HIGH LEVEL A","3073141","2022-02-09 10:00","2022","02","09","10:00","-15.7","","-16.9","","91","","","","14","","17","","16.1","","97.17","","","","-24","","Snow"
"-117.16","58.62","HIGH LEVEL A","3073141","2022-02-09 11:00","2022","02","09","11:00","-15.5","","-16.6","","91","","","","13","","9","","16.1","","97.08","","","","-21","","Snow"
"-117.16","58.62","HIGH LEVEL A","3073141","2022-02-09 12:00","2022","02","09","12:00","-15.4","","-16.6","","91","","","","14","","11","","24.1","","97.04","","","","-22","","Snow"
"-117.16","58.62","HIGH LEVEL A","3073141","2022-02-09 13:00","2022","02","09","13:00","-14.9","","-16.1","","91","","","","13","","13","","24.1","","96.81","","","","-22","","NA"
"-117.16","58.62","HIGH LEVEL A","3073141","2022-02-09 14:00","2022","02","09","14:00","-14.4","","-15.4","","92","","","","15","","13","","19.3","","96.65","","","","-22","","Cloudy"
"-117.16","58.62","HIGH LEVEL A","3073141","2022-02-09 15:00","2022","02","09","15:00","-14.1","","-15.3","","91","","","","14","","19","","24.1","","96.51","","","","-23","","NA"
"-117.16","58.62","HIGH LEVEL A","3073141","2022-02-09 16:00","2022","02","09","16:00","-14.2","","-15.5","","90","","","","16","","26","","16.1","","96.24","","","","-24","","Snow"
"-117.16","58.62","HIGH LEVEL A","3073141","2022-02-09 17:00","2022","02","09","17:00","-14.1","","-15.4","","90","","","","17","","7","","16.1","","96.08","","","","-19","","Snow"
"-117.16","58.62","HIGH LEVEL A","3073141","2022-02-09 18:00","2022","02","09","18:00","-13.9","","-15.3","","89","","","","14","","12","","16.1","","95.98","","","","-21","","Snow"
"-117.16","58.62","HIGH LEVEL A","3073141","2022-02-09 19:00","2022","02","09","19:00","-14.1","","-15.4","","90","","","","15","","10","","16.1","","95.86","","","","-20","","Snow"
"-117.16","58.62","HIGH LEVEL A","3073141","2022-02-09 20:00","2022","02","09","20:00","-14.2","","-15.5","","90","","","","14","","8","","16.1","","95.81","","","","-19","","Snow"
"-117.16","58.62","HIGH LEVEL A","3073141","2022-02-09 21:00","2022","02","09","21:00","-14.6","","-15.9","","90","","","","16","","7","","16.1","","95.70","","","","-19","","Snow"
"-117.16","58.62","HIGH LEVEL A","3073141","2022-02-09 22:00","2022","02","09","22:00","-14.2","","-15.4","","91","","","","36","","2","","8.1","","95.63","","","","-16","","Snow,Ice Pellets"
"-117.16","58.62","HIGH LEVEL A","3073141","2022-02-09 23:00","2022","02","09","23:00"
"-117.16","58.62","HIGH LEVEL A","3073141","2022-02-10 00:00","2022","02","10","00:00"
"-117.16","58.62","HIGH LEVEL A","3073141","2022-02-10 01:00","2022","02","10","01:00"
"-117.16","58.62","HIGH LEVEL A","3073141","2022-02-10 02:00","2022","02","10","02:00"
"-117.16","58.62","HIGH LEVEL A","3073141","2022-02-10 03:00","2022","02","10","03:00"
"-117.16","58.62","HIGH LEVEL A","3073141","2022-02-10 04:00","2022","02","10","04:00"
"-117.16","58.62","HIGH LEVEL A","3073141","2022-02-10 05:00","2022","02","10","05:00"
"-117.16","58.62","HIGH LEVEL A","3073141","2022-02-10 06:00","2022","02","10","06:00"
"-117.16","58.62","HIGH LEVEL A","3073141","2022-02-10 07:00","2022","02","10","07:00","-16.1","","-18.1","","85","","","","35","","24","","12.9","","96.66","","","","-26","","NA"
"-117.16","58.62","HIGH LEVEL A","3073141","2022-02-10 08:00","2022","02","10","08:00","-16.7","","-19.1","","82","","","","36","","14","","12.9","","96.79","","","","-25","","Freezing Rain,Snow"
"-117.16","58.62","HIGH LEVEL A","3073141","2022-02-10 09:00","2022","02","10","09:00","-17.0","","-19.4","","82","","","","35","","16","","12.9","","96.90","","","","-26","","Snow"
"-117.16","58.62","HIGH LEVEL A","3073141","2022-02-10 10:00","2022","02","10","10:00","-16.7","","-19.1","","82","","","","34","","22","","12.9","","96.97","","","","-27","","Snow"
"-117.16","58.62","HIGH LEVEL A","3073141","2022-02-10 11:00","2022","02","10","11:00","-16.5","","-19.0","","81","","","","35","","15","","9.7","","97.04","","","","-25","","Snow"
"-117.16","58.62","HIGH LEVEL A","3073141","2022-02-10 12:00","2022","02","10","12:00","-16.0","","-18.4","","82","","","","36","","17","","9.7","","97.16","","","","-25","","Snow"
"-117.16","58.62","HIGH LEVEL A","3073141","2022-02-10 13:00","2022","02","10","13:00","-15.7","","-18.0","","83","","","","1","","12","","4.8","","97.24","","","","-23","","Snow"
"-117.16","58.62","HIGH LEVEL A","3073141","2022-02-10 14:00","2022","02","10","14:00","-15.3","","-17.4","","84","","","","35","","12","","3.2","","97.29","","","","-22","","Snow"
"-117.16","58.62","HIGH LEVEL A","3073141","2022-02-10 15:00","2022","02","10","15:00","-14.8","","-17.4","","81","","","","2","","7","","24.1","","97.36","","","","-20","","Snow"
"-117.16","58.62","HIGH LEVEL A","3073141","2022-02-10 16:00","2022","02","10","16:00","-14.4","","-17.1","","80","","","","36","","2","","24.1","","97.46","","","","-16","","Snow"
"-117.16","58.62","HIGH LEVEL A","3073141","2022-02-10 17:00","2022","02","10","17:00","-14.3","","-16.3","","85","","","","1","","3","","3.2","","97.59","","","","-16","","Snow"
"-117.16","58.62","HIGH LEVEL A","3073141","2022-02-10 18:00","2022","02","10","18:00","-14.1","","-15.7","","88","","","","36","","2","","3.2","","97.66","","","","-15","","Snow"
"-117.16","58.62","HIGH LEVEL A","3073141","2022-02-10 19:00","2022","02","10","19:00","-14.1","","-15.4","","90","","","","1","","4","","3.2","","97.72","","","","-17","","Snow"
"-117.16","58.62","HIGH LEVEL A","3073141","2022-02-10 20:00","2022","02","10","20:00","-14.0","","-15.3","","90","","","","31","","7","","2.4","","97.94","","","","-19","","Snow"
"-117.16","58.62","HIGH LEVEL A","3073141","2022-02-10 21:00","2022","02","10","21:00","-14.1","","-15.7","","88","","","","34","","14","","2.4","","98.10","","","","-22","","Snow"
"-117.16","58.62","HIGH LEVEL A","3073141","2022-02-10 22:00","2022","02","10","22:00","-15.7","","-17.9","","83","","","","34","","18","","3.2","","98.36","","","","-25","","Snow"
"-117.16","58.62","HIGH LEVEL A","3073141","2022-02-10 23:00","2022","02","10","23:00"
"-117.16","58.62","HIGH LEVEL A","3073141","2022-02-11 00:00","2022","02","11","00:00"
"-117.16","58.62","HIGH LEVEL A","3073141","2022-02-11 01:00","2022","02","11","01:00"
"-117.16","58.62","HIGH LEVEL A","3073141","2022-02-11 02:00","2022","02","11","02:00"
"-117.16","58.62","HIGH LEVEL A","3073141","2022-02-11 03:00","2022","02","11","03:00"
"-117.16","58.62","HIGH LEVEL A","3073141","2022-02-11 04:00","2022","02","11","04:00"
"-117.16","58.62","HIGH LEVEL A","3073141","2022-02-11 05:00","2022","02","11","05:00"
"-117.16","58.62","HIGH LEVEL A","3073141","2022-02-11 06:00","2022","02","11","06:00"
"-117.16","58.62","HIGH LEVEL A","3073141","2022-02-11 07:00","2022","02","11","07:00","-26.9","","-28.9","","83","","","","21","","8","","24.1","","99.35","","","","-34","","NA"
"-117.16","58.62","HIGH LEVEL A","3073141","2022-02-11 08:00","2022","02","11","08:00","-23.7","","-25.9","","83","","","","30","","3","","24.1","","99.36","","","","-27","","Mainly Clear"
"-117.16","58.62","HIGH LEVEL A","3073141","2022-02-11 09:00","2022","02","11","09:00","-26.3","","-28.4","","83","","","","12","","5","","24.1","","99.31","","","","-31","","NA"
"-117.16","58.62","HIGH LEVEL A","3073141","2022-02-11 10:00","2022","02","11","10:00","-25.8","","-27.9","","83","","","","17","","3","","24.1","","99.24","","","","-29","","NA"
"-117.16","58.62","HIGH LEVEL A","3073141","2022-02-11 11:00","2022","02","11","11:00","-22.4","","-24.3","","85","","","","15","","5","","24.1","","99.15","","","","-27","","Mostly Cloudy"
"-117.16","58.62","HIGH LEVEL A","3073141","2022-02-11 12:00","2022","02","11","12:00","-19.6","","-22.1","","81","","","","15","","9","","24.1","","99.06","","","","-26","","NA"
"-117.16","58.62","HIGH LEVEL A","3073141","2022-02-11 13:00","2022","02","11","13:00","-17.5","","-21.5","","72","","","","16","","10","","24.1","","98.92","","","","-24","","NA"
"-117.16","58.62","HIGH LEVEL A","3073141","2022-02-11 14:00","2022","02","11","14:00","-17.2","","-21.1","","72","","","","13","","12","","24.1","","98.82","","","","-25","","Mostly Cloudy"
"-117.16","58.62","HIGH LEVEL A","3073141","2022-02-11 15:00","2022","02","11","15:00","-15.9","","-20.6","","68","","","","15","","9","","24.1","","98.73","","","","-22","","NA"
"-117.16","58.62","HIGH LEVEL A","3073141","2022-02-11 16:00","2022","02","11","16:00","-16.3","","-20.3","","71","","","","16","","14","","24.1","","98.69","","","","-24","","NA"
"-117.16","58.62","HIGH LEVEL A","3073141","2022-02-11 17:00","2022","02","11","17:00","-16.6","","-21.2","","68","","","","14","","14","","24.1","","98.66","","","","-25","","Mostly Cloudy"
"-117.16","58.62","HIGH LEVEL A","3073141","2022-02-11 18:00","2022","02","11","18:00","-17.6","","-21.8","","71","","","","13","","10","","24.1","","98.62","","","","-24","","NA"
"-117.16","58.62","HIGH LEVEL A","3073141","2022-02-11 19:00","2022","02","11","19:00","-19.3","","-22.2","","78","","","","19","","3","","24.1","","98.57","","","","-22","","NA"
"-117.16","58.62","HIGH LEVEL A","3073141","2022-02-11 20:00","2022","02","11","20:00","-20.5","","-22.5","","84","","","","27","","3","","24.1","","98.55","","","","-23","","Clear"
"-117.16","58.62","HIGH LEVEL A","3073141","2022-02-11 21:00","2022","02","11","21:00","-22.2","","-24.2","","84","","","","36","","3","","24.1","","98.55","","","","-25","","NA"
"-117.16","58.62","HIGH LEVEL A","3073141","2022-02-11 22:00","2022","02","11","22:00","-23.5","","-25.4","","85","","","","36","","1","","24.1","","98.55","","","","-24","","NA"
"-117.16","58.62","HIGH LEVEL A","3073141","2022-02-11 23:00","2022","02","11","23:00"
"-117.16","58.62","HIGH LEVEL A","3073141","2022-02-12 00:00","2022","02","12","00:00"
"-117.16","58.62","HIGH LEVEL A","3073141","2022-02-12 01:00","2022","02","12","01:00"
"-117.16","58.62","HIGH LEVEL A","3073141","2022-02-12 02:00","2022","02","12","02:00"
"-117.16","58.62","HIGH LEVEL A","3073141","2022-02-12 03:00","2022","02","12","03:00"
"-117.16","58.62","HIGH LEVEL A","3073141","2022-02-12 04:00","2022","02","12","04:00"
"-117.16","58.62","HIGH LEVEL A","3073141","2022-02-12 05:00","2022","02","12","05:00"
"-117.16","58.62","HIGH LEVEL A","3073141","2022-02-12 06:00","2022","02","12","06:00"
"-117.16","58.62","HIGH LEVEL A","3073141","2022-02-12 07:00","2022","02","12","07:00","-26.7","","-29.2","","80","","","","36","","2","","24.1","","98.58","","","","-29","","NA"
"-117.16","58.62","HIGH LEVEL A","3073141","2022-02-12 08:00","2022","02","12","08:00","-23.0","","-25.0","","84","","","","36","","3","","24.1","","98.53","","","","-26","","Cloudy"
"-117.16","58.62","HIGH LEVEL A","3073141","2022-02-12 09:00","2022","02","12","09:00","-21.0","","-23.0","","84","","","","36","","3","","24.1","","98.46","","","","-24","","NA"
"-117.16","58.62","HIGH LEVEL A","3073141","2022-02-12 10:00","2022","02","12","10:00","-19.2","","-21.3","","83","","","","12","","9","","24.1","","98.32","","","","-26","","NA"
"-117.16","58.62","HIGH LEVEL A","3073141","2022-02-12 11:00","2022","02","12","11:00","-18.2","","-20.8","","80","","","","16","","12","","24.1","","98.22","","","","-26","","Snow"
"-117.16","58.62","HIGH LEVEL A","3073141","2022-02-12 12:00","2022","02","12","12:00","-16.6","","-19.9","","76","","","","14","","25","","6.4","","98.06","","","","-27","","Snow"
"-117.16","58.62","HIGH LEVEL A","3073141","2022-02-12 13:00","2022","02","12","13:00","-15.9","","-18.6","","80","","","","13","","18","","4.8","","97.87","","","","-25","","Snow"
"-117.16","58.62","HIGH LEVEL A","3073141","2022-02-12 14:00","2022","02","12","14:00","-15.1","","-17.2","","84","","","","13","","16","","2.8","","97.67","","","","-23","","Snow"
"-117.16","58.62","HIGH LEVEL A","3073141","2022-02-12 15:00","2022","02","12","15:00","-14.7","","-17.0","","83","","","","15","","16","","24.1","","97.46","","","","-23","","Snow"
"-117.16","58.62","HIGH LEVEL A","3073141","2022-02-12 16:00","2022","02","12","16:00","-14.6","","-16.7","","84","","","","14","","21","","24.1","","97.34","","","","-24","","Snow"
"-117.16","58.62","HIGH LEVEL A","3073141","2022-02-12 17:00","2022","02","12","17:00","-14.3","","-16.1","","86","","","","17","","10","","24.1","","97.26","","","","-20","","Snow"
"-117.16","58.62","HIGH LEVEL A","3073141","2022-02-12 18:00","2022","02","12","18:00","-14.0","","-15.7","","87","","","","16","","12","","24.1","","97.14","","","","-21","","Snow"
"-117.16","58.62","HIGH LEVEL A","3073141","2022-02-12 19:00","2022","02","12","19:00","-13.9","","-15.6","","87","","","","27","","5","","16.1","","97.17","","","","-17","","Snow"
"-117.16","58.62","HIGH LEVEL A","3073141","2022-02-12 20:00","2022","02","12","20:00","-14.2","","-15.8","","88","","","","22","","7","","16.1","","97.11","","","","-19","","Snow"
"-117.16","58.62","HIGH LEVEL A","3073141","2022-02-12 21:00","2022","02","12","21:00","-14.1","","-15.8","","87","","","","36","","3","","16.1","","97.07","","","","-16","","NA"
"-117.16","58.62","HIGH LEVEL A","3073141","2022-02-12 22:00","2022","02","12","22:00","-14.0","","-15.8","","86","","","","2","","3","","24.1","","97.11","","","","-16","","NA"
"-117.16","58.62","HIGH LEVEL A","3073141","2022-02-12 23:00","2022","02","12","23:00"
"-117.16","58.62","HIGH LEVEL A","3073141","2022-02-13 00:00","2022","02","13","00:00"
"-117.16","58.62","HIGH LEVEL A","3073141","2022-02-13 01:00","2022","02","13","01:00"
"-117.16","58.62","HIGH LEVEL A","3073141","2022-02-13 02:00","2022","02","13","02:00"
"-117.16","58.62","HIGH LEVEL A","3073141","2022-02-13 03:00","2022","02","13","03:00"
"-117.16","58.62","HIGH LEVEL A","3073141","2022-02-13 04:00","2022","02","13","04:00"
"-117.16","58.62","HIGH LEVEL A","3073141","2022-02-13 05:00","2022","02","13","05:00"
"-117.16","58.62","HIGH LEVEL A","3073141","2022-02-13 06:00","2022","02","13","06:00"
"-117.16","58.62","HIGH LEVEL A","3073141","2022-02-13 07:00","2022","02","13","07:00","-19.0","","-21.5","","81","","","","33","","19","","24.1","","98.35","","","","-29","","NA"
"-117.16","58.62","HIGH LEVEL A","3073141","2022-02-13 08:00","2022","02","13","08:00","-19.9","","-22.4","","81","","","","36","","20","","24.1","","98.38","","","","-30","","Clear"
"-117.16","58.62","HIGH LEVEL A","3073141","2022-02-13 09:00","2022","02","13","09:00","-20.7","","-23.2","","81","","","","35","","18","","24.1","","98.43","","","","-31","","NA"
"-117.16","58.62","HIGH LEVEL A","3073141","2022-02-13 10:00","2022","02","13","10:00","-20.4","","-23.1","","79","","","","34","","17","","24.1","","98.49","","","","-30","","NA"
"-117.16","58.62","HIGH LEVEL A","3073141","2022-02-13 11:00","2022","02","13","11:00","-19.7","","-22.9","","76","","","","34","","11","","24.1","","98.54","","","","-27","","Clear"
"-117.16","58.62","HIGH LEVEL A","3073141","2022-02-13 12:00","2022","02","13","12:00","-18.0","","-21.9","","72","","","","1","","13","","24.1","","98.54","","","","-26","","NA"
"-117.16","58.62","HIGH LEVEL A","3073141","2022-02-13 13:00","2022","02","13","13:00","-17.2","","-20.9","","73","","","","36","","7","","24.1","","98.56","","","","-22","","NA"
"-117.16","58.62","HIGH LEVEL A","3073141","2022-02-13 14:00","2022","02","13","14:00","-16.2","","-20.0","","73","","","","15","","3","","24.1","","98.53","","","","-18","","Mostly Cloudy"
"-117.16","58.62","HIGH LEVEL A","3073141","2022-02-13 15:00","2022","02","13","15:00","-15.5","","-19.3","","73","","","","24","","3","","24.1","","98.48","","","","-18","","NA"
"-117.16","58.62","HIGH LEVEL A","3073141","2022-02-13 16:00","2022","02","13","16:00","-15.2","","-19.0","","73","","","","24","","4","","24.1","","98.46","","","","-18","","NA"
"-117.16","58.62","HIGH LEVEL A","3073141","2022-02-13 17:00","2022","02","13","17:00","-15.7","","-19.8","","71","","","","12","","7","","24.1","","98.44","","","","-21","","Mostly Cloudy"
"-117.16","58.62","HIGH LEVEL A","3073141","2022-02-13 18:00","2022","02","13","18:00","-15.8","","-19.8","","72","","","","11","","9","","24.1","","98.39","","","","-22","","NA"
"-117.16","58.62","HIGH LEVEL A","3073141","2022-02-13 19:00","2022","02","13","19:00","-15.8","","-19.4","","74","","","","15","","11","","24.1","","98.37","","","","-23","","NA"
"-117.16","58.62","HIGH LEVEL A","3073141","2022-02-13 20:00","2022","02","13","20:00","-15.7","","-19.3","","74","","","","36","","2","","24.1","","98.31","","","","-17","","Snow"
"-117.16","58.62","HIGH LEVEL A","3073141","2022-02-13 21:00","2022","02","13","21:00","-16.5","","-19.6","","77","","","","27","","4","","24.1","","98.23","","","","-20","","Snow"
"-117.16","58.62","HIGH LEVEL A","3073141","2022-02-13 22:00","2022","02","13","22:00","-17.5","","-19.4","","85","","","","36","","2","","24.1","","98.18","","","","-19","","NA"
"-117.16","58.62","HIGH LEVEL A","3073141","2022-02-13 23:00","2022","02","13","23:00"
"-117.16","58.62","HIGH LEVEL A","3073141","2022-02-14 00:00","2022","02","14","00:00"
"-117.16","58.62","HIGH LEVEL A","3073141","2022-02-14 01:00","2022","02","14","01:00"
"-117.16","58.62","HIGH LEVEL A","3073141","2022-02-14 02:00","2022","02","14","02:00"
"-117.16","58.62","HIGH LEVEL A","3073141","2022-02-14 03:00","2022","02","14","03:00"
"-117.16","58.62","HIGH LEVEL A","3073141","2022-02-14 04:00","2022","02","14","04:00"
"-117.16","58.62","HIGH LEVEL A","3073141","2022-02-14 05:00","2022","02","14","05:00"
"-117.16","58.62","HIGH LEVEL A","3073141","2022-02-14 06:00","2022","02","14","06:00"
"-117.16","58.62","HIGH LEVEL A","3073141","2022-02-14 07:00","2022","02","14","07:00","-20.3","","-21.9","","88","","","","22","","3","","24.1","","97.80","","","","-23","","NA"
"-117.16","58.62","HIGH LEVEL A","3073141","2022-02-14 08:00","2022","02","14","08:00","-20.1","","-21.7","","87","","","","25","","4","","24.1","","97.77","","","","-24","","Mostly Cloudy"
"-117.16","58.62","HIGH LEVEL A","3073141","2022-02-14 09:00","2022","02","14","09:00","-20.0","","-21.7","","87","","","","22","","5","","24.1","","97.72","","","","-24","","NA"
"-117.16","58.62","HIGH LEVEL A","3073141","2022-02-14 10:00","2022","02","14","10:00","-18.8","","-20.3","","88","","","","22","","5","","24.1","","97.69","","","","-23","","NA"
"-117.16","58.62","HIGH LEVEL A","3073141","2022-02-14 11:00","2022","02","14","11:00","-16.3","","-18.0","","87","","","","15","","8","","24.1","","97.67","","","","-22","","Mostly Cloudy"
"-117.16","58.62","HIGH LEVEL A","3073141","2022-02-14 12:00","2022","02","14","12:00","-15.6","","-17.6","","85","","","","15","","11","","24.1","","97.62","","","","-22","","NA"
"-117.16","58.62","HIGH LEVEL A","3073141","2022-02-14 13:00","2022","02","14","13:00","-14.5","","-17.0","","81","","","","17","","9","","24.1","","97.52","","","","-20","","NA"
"-117.16","58.62","HIGH LEVEL A","3073141","2022-02-14 14:00","2022","02","14","14:00","-13.8","","-16.4","","81","","","","16","","12","","24.1","","97.45","","","","-21","","Mostly Cloudy"
"-117.16","58.62","HIGH LEVEL A","3073141","2022-02-14 15:00","2022","02","14","15:00","-13.3","","-16.0","","80","","","","16","","10","","24.1","","97.42","","","","-19","","NA"
"-117.16","58.62","HIGH LEVEL A","3073141","2022-02-14 16:00","2022","02","14","16:00","-13.1","","-15.9","","80","","","","18","","4","","24.1","","97.39","","","","-16","","NA"
"-117.16","58.62","HIGH LEVEL A","3073141","2022-02-14 17:00","2022","02","14","17:00","-13.1","","-15.8","","81","","","","16","","5","","24.1","","97.35","","","","-16","","Cloudy"
"-117.16","58.62","HIGH LEVEL A","3073141","2022-02-14 18:00","2022","02","14","18:00","-12.9","","-15.5","","81","","","","36","","2","","24.1","","97.36","","","","-14","","NA"
"-117.16","58.62","HIGH LEVEL A","3073141","2022-02-14 19:00","2022","02","14","19:00","-13.4","","-15.4","","85","","","","34","","8","","24.1","","97.37","","","","-18","","NA"
"-117.16","58.62","HIGH LEVEL A","3073141","2022-02-14 20:00","2022","02","14","20:00","-12.6","","-14.2","","88","","","","34","","12","","24.1","","97.41","","","","-19","","Snow"
"-117.16","58.62","HIGH LEVEL A","3073141","2022-02-14 21:00","2022","02","14","21:00","-12.9","","-14.9","","85","","","","32","","19","","9.7","","97.46","","","","-21","","Snow"
"-117.16","58.62","HIGH LEVEL A","3073141","2022-02-14 22:00","2022","02","14","22:00","-13.1","","-15.3","","84","","","","32","","18","","14.5","","97.53","","","","-21","","Snow"
"-117.16","58.62","HIGH LEVEL A","3073141","2022-02-14 23:00","2022","02","14","23:00"
"-117.16","58.62","HIGH LEVEL A","3073141","2022-02-15 00:00","2022","02","15","00:00"
"-117.16","58.62","HIGH LEVEL A","3073141","2022-02-15 01:00","2022","02","15","01:00"
"-117.16","58.62","HIGH LEVEL A","3073141","2022-02-15 02:00","2022","02","15","02:00"
"-117.16","58.62","HIGH LEVEL A","3073141","2022-02-15 03:00","2022","02","15","03:00"
"-117.16","58.62","HIGH LEVEL A","3073141","2022-02-15 04:00","2022","02","15","04:00"
"-117.16","58.62","HIGH LEVEL A","3073141","2022-02-15 05:00","2022","02","15","05:00"
"-117.16","58.62","HIGH LEVEL A","3073141","2022-02-15 06:00","2022","02","15","06:00"
"-117.16","58.62","HIGH LEVEL A","3073141","2022-02-15 07:00","2022","02","15","07:00","-24.3","","-27.4","","76","","","","30","","7","","24.1","","98.24","","","","-31","","NA"
"-117.16","58.62","HIGH LEVEL A","3073141","2022-02-15 08:00","2022","02","15","08:00","-25.4","","-28.2","","78","","","","31","","8","","24.1","","98.25","","","","-33","","Mostly Cloudy"
"-117.16","58.62","HIGH LEVEL A","3073141","2022-02-15 09:00","2022","02","15","09:00","-25.7","","-28.3","","79","","","","29","","3","","24.1","","98.22","","","","-29","","NA"
"-117.16","58.62","HIGH LEVEL A","3073141","2022-02-15 10:00","2022","02","15","10:00","-25.5","","-29.0","","73","","","","34","","12","","24.1","","98.25","","","","-35","","NA"
"-117.16","58.62","HIGH LEVEL A","3073141","2022-02-15 11:00","2022","02","15","11:00","-23.7","","-27.7","","70","","","","35","","14","","24.1","","98.23","","","","-33","","Mainly Clear"
"-117.16","58.62","HIGH LEVEL A","3073141","2022-02-15 12:00","2022","02","15","12:00","-22.8","","-27.2","","68","","","","36","","7","","24.1","","98.22","","","","-29","","NA"
"-117.16","58.62","HIGH LEVEL A","3073141","2022-02-15 13:00","2022","02","15","13:00","-21.5","","-26.4","","65","","","","35","","10","","24.1","","98.18","","","","-29","","NA"
"-117.16","58.62","HIGH LEVEL A","3073141","2022-02-15 14:00","2022","02","15","14:00","-20.6","","-25.8","","64","","","","34","","11","","24.1","","98.12","","","","-28","","Mainly Clear"
"-117.16","58.62","HIGH LEVEL A","3073141","2022-02-15 15:00","2022","02","15","15:00","-20.1","","-25.3","","64","","","","34","","11","","24.1","","98.09","","","","-28","","NA"
"-117.16","58.62","HIGH LEVEL A","3073141","2022-02-15 16:00","2022","02","15","16:00","-19.6","","-24.6","","65","","","","33","","13","","24.1","","98.10","","","","-28","","NA"
"-117.16","58.62","HIGH LEVEL A","3073141","2022-02-15 17:00","2022","02","15","17:00","-19.7","","-24.1","","69","","","","35","","13","","24.1","","98.16","","","","-28","","Mostly Cloudy"
"-117.16","58.62","HIGH LEVEL A","3073141","2022-02-15 18:00","2022","02","15","18:00","-20.4","","-24.4","","71","","","","1","","14","","24.1","","98.17","","","","-29","","NA"
"-117.16","58.62","HIGH LEVEL A","3073141","2022-02-15 19:00","2022","02","15","19:00","-21.2","","-25.0","","72","","","","36","","16","","24.1","","98.23","","","","-31","","NA"
"-117.16","58.62","HIGH LEVEL A","3073141","2022-02-15 20:00","2022","02","15","20:00","-21.6","","-24.9","","75","","","","35","","14","","24.1","","98.30","","","","-31","","Cloudy"
"-117.16","58.62","HIGH LEVEL A","3073141","2022-02-15 21:00","2022","02","15","21:00","-22.2","","-25.6","","75","","","","35","","17","","24.1","","98.31","","","","-32","","NA"
"-117.16","58.62","HIGH LEVEL A","3073141","2022-02-15 22:00","2022","02","15","22:00","-22.3","","-25.8","","74","","","","35","","22","","24.1","","98.37","","","","-34","","NA"
"-117.16","58.62","HIGH LEVEL A","3073141","2022-02-15 23:00","2022","02","15","23:00"
"-117.16","58.62","HIGH LEVEL A","3073141","2022-02-16 00:00","2022","02","16","00:00"
"-117.16","58.62","HIGH LEVEL A","3073141","2022-02-16 01:00","2022","02","16","01:00"
"-117.16","58.62","HIGH LEVEL A","3073141","2022-02-16 02:00","2022","02","16","02:00"
"-117.16","58.62","HIGH LEVEL A","3073141","2022-02-16 03:00","2022","02","16","03:00"
"-117.16","58.62","HIGH LEVEL A","3073141","2022-02-16 04:00","2022","02","16","04:00"
"-117.16","58.62","HIGH LEVEL A","3073141","2022-02-16 05:00","2022","02","16","05:00"
"-117.16","58.62","HIGH LEVEL A","3073141","2022-02-16 06:00","2022","02","16","06:00"
"-117.16","58.62","HIGH LEVEL A","3073141","2022-02-16 07:00","2022","02","16","07:00","-26.8","","-29.4","","79","","","","1","","7","","24.1","","98.72","","","","-34","","NA"
"-117.16","58.62","HIGH LEVEL A","3073141","2022-02-16 08:00","2022","02","16","08:00","-28.7","","-31.1","","80","","","","6","","6","","24.1","","98.73","","","","-35","","Mainly Clear"
"-117.16","58.62","HIGH LEVEL A","3073141","2022-02-16 09:00","2022","02","16","09:00","-28.9","","-31.3","","80","","","","36","","2","","24.1","","98.77","","","","-31","","NA"
"-117.16","58.62","HIGH LEVEL A","3073141","2022-02-16 10:00","2022","02","16","10:00","-27.4","","-30.3","","77","","","","36","","1","","24.1","","98.81","","","","-28","","NA"
"-117.16","58.62","HIGH LEVEL A","3073141","2022-02-16 11:00","2022","02","16","11:00","-25.4","","-29.1","","72","","","","36","","1","","24.1","","98.83","","","","-26","","Mainly Clear"
"-117.16","58.62","HIGH LEVEL A","3073141","2022-02-16 12:00","2022","02","16","12:00","-24.1","","-28.5","","68","","","","11","","4","","24.1","","98.78","","","","-28","","NA"
"-117.16","58.62","HIGH LEVEL A","3073141","2022-02-16 13:00","2022","02","16","13:00","-22.6","","-27.3","","66","","","","15","","8","","24.1","","98.72","","","","-29","","NA"
"-117.16","58.62","HIGH LEVEL A","3073141","2022-02-16 14:00","2022","02","16","14:00","-21.8","","-26.6","","66","","","","16","","9","","24.1","","98.66","","","","-29","","Mainly Clear"
"-117.16","58.62","HIGH LEVEL A","3073141","2022-02-16 15:00","2022","02","16","15:00","-21.3","","-25.4","","70","","","","15","","11","","24.1","","98.62","","","","-29","","NA"
"-117.16","58.62","HIGH LEVEL A","3073141","2022-02-16 16:00","2022","02","16","16:00","-20.9","","-25.9","","65","","","","14","","10","","24.1","","98.47","","","","-28","","NA"
"-117.16","58.62","HIGH LEVEL A","3073141","2022-02-16 17:00","2022","02","16","17:00","-21.5","","-25.7","","70","","","","13","","12","","24.1","","98.35","","","","-30","","Mainly Clear"
"-117.16","58.62","HIGH LEVEL A","3073141","2022-02-16 18:00","2022","02","16","18:00","-22.5","","-27.2","","66","","","","13","","10","","24.1","","98.26","","","","-30","","NA"
"-117.16","58.62","HIGH LEVEL A","3073141","2022-02-16 19:00","2022","02","16","19:00","-23.4","","-27.7","","68","","","","13","","14","","24.1","","98.11","","","","-33","","NA"
"-117.16","58.62","HIGH LEVEL A","3073141","2022-02-16 20:00","2022","02","16","20:00","-23.5","","-27.2","","72","","","","14","","12","","24.1","","97.90","","","","-32","","Clear"
"-117.16","58.62","HIGH LEVEL A","3073141","2022-02-16 21:00","2022","02","16","21:00","-22.0","","-26.6","","67","","","","14","","17","","24.1","","97.67","","","","-32","","NA"
"-117.16","58.62","HIGH LEVEL A","3073141","2022-02-16 22:00","2022","02","16","22:00","-21.2","","-25.7","","68","","","","13","","18","","24.1","","97.49","","","","-31","","NA"
"-117.16","58.62","HIGH LEVEL A","3073141","2022-02-16 23:00","2022","02","16","23:00"
"-117.16","58.62","HIGH LEVEL A","3073141","2022-02-17 00:00","2022","02","17","00:00"
"-117.16","58.62","HIGH LEVEL A","3073141","2022-02-17 01:00","2022","02","17","01:00"
"-117.16","58.62","HIGH LEVEL A","3073141","2022-02-17 02:00","2022","02","17","02:00"
"-117.16","58.62","HIGH LEVEL A","3073141","2022-02-17 03:00","2022","02","17","03:00"
"-117.16","58.62","HIGH LEVEL A","3073141","2022-02-17 04:00","2022","02","17","04:00"
"-117.16","58.62","HIGH LEVEL A","3073141","2022-02-17 05:00","2022","02","17","05:00"
"-117.16","58.62","HIGH LEVEL A","3073141","2022-02-17 06:00","2022","02","17","06:00"
"-117.16","58.62","HIGH LEVEL A","3073141","2022-02-17 07:00","2022","02","17","07:00","-17.1","","-18.9","","86","","","","32","","6","","12.9","","96.56","","","","-22","","Snow"
"-117.16","58.62","HIGH LEVEL A","3073141","2022-02-17 08:00","2022","02","17","08:00","-16.6","","-18.6","","85","","","","36","","9","","19.3","","96.63","","","","-23","","Snow"
"-117.16","58.62","HIGH LEVEL A","3073141","2022-02-17 09:00","2022","02","17","09:00","-16.3","","-18.3","","85","","","","34","","10","","12.9","","96.73","","","","-23","","Snow"
"-117.16","58.62","HIGH LEVEL A","3073141","2022-02-17 10:00","2022","02","17","10:00","-16.1","","-18.1","","84","","","","35","","10","","6.4","","96.80","","","","-23","","Snow"
"-117.16","58.62","HIGH LEVEL A","3073141","2022-02-17 11:00","2022","02","17","11:00","-15.7","","-17.5","","86","","","","36","","13","","1.2","","96.95","","","","-23","","Snow"
"-117.16","58.62","HIGH LEVEL A","3073141","2022-02-17 12:00","2022","02","17","12:00","-15.4","","-17.8","","82","","","","32","","15","","2.4","","97.00","","","","-23","","Snow,Blowing Snow"
"-117.16","58.62","HIGH LEVEL A","3073141","2022-02-17 13:00","2022","02","17","13:00","-14.3","","-17.1","","80","","","","31","","17","","4.8","","97.08","","","","-23","","Snow,Blowing Snow"
"-117.16","58.62","HIGH LEVEL A","3073141","2022-02-17 14:00","2022","02","17","14:00","-13.9","","-16.8","","79","","","","34","","14","","4.8","","97.19","","","","-21","","Snow,Blowing Snow"
"-117.16","58.62","HIGH LEVEL A","3073141","2022-02-17 15:00","2022","02","17","15:00","-13.9","","-16.9","","78","","","","33","","21","","24.1","","97.34","","","","-23","","NA"
"-117.16","58.62","HIGH LEVEL A","3073141","2022-02-17 16:00","2022","02","17","16:00","-13.4","","-16.4","","78","","","","33","","24","","16.1","","97.46","","","","-23","","Snow,Blowing Snow"
"-117.16","58.62","HIGH LEVEL A","3073141","2022-02-17 17:00","2022","02","17","17:00","-16.0","","-19.0","","78","","","","35","","23","","16.1","","97.72","","","","-26","","Snow,Blowing Snow"
"-117.16","58.62","HIGH LEVEL A","3073141","2022-02-17 18:00","2022","02","17","18:00","-18.0","","-20.9","","78","","","","36","","21","","16.1","","97.98","","","","-28","","Snow"
"-117.16","58.62","HIGH LEVEL A","3073141","2022-02-17 19:00","2022","02","17","19:00","-19.6","","-22.8","","76","","","","36","","21","","16.1","","98.23","","","","-30","","Snow"
"-117.16","58.62","HIGH LEVEL A","3073141","2022-02-17 20:00","2022","02","17","20:00","-20.8","","-24.1","","75","","","","36","","17","","16.1","","98.41","","","","-31","","Snow"
"-117.16","58.62","HIGH LEVEL A","3073141","2022-02-17 21:00","2022","02","17","21:00","-21.7","","-24.6","","78","","","","1","","17","","16.1","","98.54","","","","-32","","Snow"
"-117.16","58.62","HIGH LEVEL A","3073141","2022-02-17 22:00","2022","02","17","22:00","-22.6","","-25.1","","80","","","","34","","18","","24.1","","98.67","","","","-33","","Snow"
"-117.16","58.62","HIGH LEVEL A","3073141","2022-02-17 23:00","2022","02","17","23:00"
"-117.16","58.62","HIGH LEVEL A","3073141","2022-02-18 00:00","2022","02","18","00:00"
"-117.16","58.62","HIGH LEVEL A","3073141","2022-02-18 01:00","2022","02","18","01:00"
"-117.16","58.62","HIGH LEVEL A","3073141","2022-02-18 02:00","2022","02","18","02:00"
"-117.16","58.62","HIGH LEVEL A","3073141","2022-02-18 03:00","2022","02","18","03:00"
"-117.16","58.62","HIGH LEVEL A","3073141","2022-02-18 04:00","2022","02","18","04:00"
"-117.16","58.62","HIGH LEVEL A","3073141","2022-02-18 05:00","2022","02","18","05:00"
"-117.16","58.62","HIGH LEVEL A","3073141","2022-02-18 06:00","2022","02","18","06:00"
"-117.16","58.62","HIGH LEVEL A","3073141","2022-02-18 07:00","2022","02","18","07:00","-30.5","","-33.0","","79","","","","36","","2","","24.1","","98.83","","","","-33","","NA"
"-117.16","58.62","HIGH LEVEL A","3073141","2022-02-18 08:00","2022","02","18","08:00","-29.5","","-32.2","","78","","","","36","","2","","24.1","","98.79","","","","-32","","Mostly Cloudy"
"-117.16","58.62","HIGH LEVEL A","3073141","2022-02-18 09:00","2022","02","18","09:00","-28.3","","-31.0","","78","","","","36","","3","","24.1","","98.69","","","","-32","","NA"
"-117.16","58.62","HIGH LEVEL A","3073141","2022-02-18 10:00","2022","02","18","10:00","-27.0","","-29.3","","81","","","","36","","3","","24.1","","98.59","","","","-30","","NA"
"-117.16","58.62","HIGH LEVEL A","3073141","2022-02-18 11:00","2022","02","18","11:00","-24.9","","-27.4","","80","","","","14","","5","","24.1","","98.46","","","","-30","","Mostly Cloudy"
"-117.16","58.62","HIGH LEVEL A","3073141","2022-02-18 12:00","2022","02","18","12:00","-22.1","","-26.0","","71","","","","15","","14","","24.1","","98.25","","","","-31","","NA"
"-117.16","58.62","HIGH LEVEL A","3073141","2022-02-18 13:00","2022","02","18","13:00","-20.6","","-25.5","","66","","","","15","","16","","24.1","","98.13","","","","-30","","NA"
"-117.16","58.62","HIGH LEVEL A","3073141","2022-02-18 14:00","2022","02","18","14:00","-20.4","","-25.2","","66","","","","11","","16","","24.1","","97.92","","","","-30","","Cloudy"
"-117.16","58.62","HIGH LEVEL A","3073141","2022-02-18 15:00","2022","02","18","15:00","-20.4","","-24.1","","73","","","","12","","15","","4.8","","97.70","","","","-30","","Snow"
"-117.16","58.62","HIGH LEVEL A","3073141","2022-02-18 16:00","2022","02","18","16:00","-20.5","","-23.6","","77","","","","13","","16","","8.1","","97.43","","","","-30","","Snow"
"-117.16","58.62","HIGH LEVEL A","3073141","2022-02-18 17:00","2022","02","18","17:00","-21.1","","-24.1","","77","","","","13","","21","","6.4","","97.26","","","","-32","","Snow"
"-117.16","58.62","HIGH LEVEL A","3073141","2022-02-18 18:00","2022","02","18","18:00","-21.0","","-23.7","","79","","","","13","","20","","4.8","","96.97","","","","-32","","Snow"
"-117.16","58.62","HIGH LEVEL A","3073141","2022-02-18 19:00","2022","02","18","19:00","-20.6","","-23.1","","81","","","","14","","16","","6.4","","96.73","","","","-30","","Snow"
"-117.16","58.62","HIGH LEVEL A","3073141","2022-02-18 20:00","2022","02","18","20:00","-19.8","","-22.1","","82","","","","13","","23","","6.4","","96.46","","","","-31","","Snow"
"-117.16","58.62","HIGH LEVEL A","3073141","2022-02-18 21:00","2022","02","18","21:00","-19.1","","-21.3","","83","","","","14","","14","","2.0","","96.16","","","","-28","","Snow"
"-117.16","58.62","HIGH LEVEL A","3073141","2022-02-18 22:00","2022","02","18","22:00","-18.7","","-20.8","","84","","","","14","","15","","3.2","","96.00","","","","-27","","Snow"
"-117.16","58.62","HIGH LEVEL A","3073141","2022-02-18 23:00","2022","02","18","23:00"
"-117.16","58.62","HIGH LEVEL A","3073141","2022-02-19 00:00","2022","02","19","00:00"
"-117.16","58.62","HIGH LEVEL A","3073141","2022-02-19 01:00","2022","02","19","01:00"
"-117.16","58.62","HIGH LEVEL A","3073141","2022-02-19 02:00","2022","02","19","02:00"
"-117.16","58.62","HIGH LEVEL A","3073141","2022-02-19 03:00","2022","02","19","03:00"
"-117.16","58.62","HIGH LEVEL A","3073141","2022-02-19 04:00","2022","02","19","04:00"
"-117.16","58.62","HIGH LEVEL A","3073141","2022-02-19 05:00","2022","02","19","05:00"
"-117.16","58.62","HIGH LEVEL A","3073141","2022-02-19 06:00","2022","02","19","06:00"
"-117.16","58.62","HIGH LEVEL A","3073141","2022-02-19 07:00","2022","02","19","07:00","-21.5","","-24.1","","80","","","","34","","23","","24.1","","96.49","","","","-33","","Snow,Blowing Snow"
"-117.16","58.62","HIGH LEVEL A","3073141","2022-02-19 08:00","2022","02","19","08:00","-22.4","","-25.0","","80","","","","34","","27","","16.1","","96.64","","","","-35","","Snow,Blowing Snow"
"-117.16","58.62","HIGH LEVEL A","3073141","2022-02-19 09:00","2022","02","19","09:00","-22.7","","-25.4","","79","","","","35","","33","","19.3","","96.73","","","","-37","","Blowing Snow"
"-117.16","58.62","HIGH LEVEL A","3073141","2022-02-19 10:00","2022","02","19","10:00","-22.1","","-25.3","","76","","","","35","","25","","19.3","","96.87","","","","-34","","Blowing Snow"
"-117.16","58.62","HIGH LEVEL A","3073141","2022-02-19 11:00","2022","02","19","11:00","-21.2","","-24.7","","74","","","","35","","34","","24.1","","96.96","","","","-35","","Blowing Snow"
"-117.16","58.62","HIGH LEVEL A","3073141","2022-02-19 12:00","2022","02","19","12:00","-19.8","","-23.5","","73","","","","36","","34","","24.1","","97.08","","","","-33","","Blowing Snow"
"-117.16","58.62","HIGH LEVEL A","3073141","2022-02-19 13:00","2022","02","19","13:00","-18.6","","-22.6","","71","","","","35","","32","","24.1","","97.22","","","","-31","","NA"
"-117.16","58.62","HIGH LEVEL A","3073141","2022-02-19 14:00","2022","02","19","14:00","-17.9","","-22.2","","70","","","","36","","31","","24.1","","97.30","","","","-30","","Mainly Clear"
"-117.16","58.62","HIGH LEVEL A","3073141","2022-02-19 15:00","2022","02","19","15:00","-19.0","","-22.5","","74","","","","35","","23","","24.1","","97.37","","","","-30","","Blowing Snow"
"-117.16","58.62","HIGH LEVEL A","3073141","2022-02-19 16:00","2022","02","19","16:00","-18.7","","-22.4","","73","","","","34","","28","","24.1","","97.49","","","","-31","","Blowing Snow"
"-117.16","58.62","HIGH LEVEL A","3073141","2022-02-19 17:00","2022","02","19","17:00","-19.4","","-23.1","","73","","","","34","","27","","24.1","","97.58","","","","-31","","Blowing Snow"
"-117.16","58.62","HIGH LEVEL A","3073141","2022-02-19 18:00","2022","02","19","18:00","-20.4","","-24.1","","73","","","","36","","27","","24.1","","97.71","","","","-33","","Blowing Snow"
"-117.16","58.62","HIGH LEVEL A","3073141","2022-02-19 19:00","2022","02","19","19:00","-21.8","","-25.1","","75","","","","36","","25","","24.1","","97.82","","","","-34","","NA"
"-117.16","58.62","HIGH LEVEL A","3073141","2022-02-19 20:00","2022","02","19","20:00","-22.7","","-26.1","","74","","","","36","","24","","24.1","","97.94","","","","-35","","Clear"
"-117.16","58.62","HIGH LEVEL A","3073141","2022-02-19 21:00","2022","02","19","21:00","-23.6","","-26.9","","75","","","","35","","19","","24.1","","98.08","","","","-35","","NA"
"-117.16","58.62","HIGH LEVEL A","3073141","2022-02-19 22:00","2022","02","19","22:00","-24.1","","-27.4","","75","","","","36","","25","","24.1","","98.16","","","","-37","","NA"
"-117.16","58.62","HIGH LEVEL A","3073141","2022-02-19 23:00","2022","02","19","23:00"
"-117.16","58.62","HIGH LEVEL A","3073141","2022-02-20 00:00","2022","02","20","00:00"
"-117.16","58.62","HIGH LEVEL A","3073141","2022-02-20 01:00","2022","02","20","01:00"
"-117.16","58.62","HIGH LEVEL A","3073141","2022-02-20 02:00","2022","02","20","02:00"
"-117.16","58.62","HIGH LEVEL A","3073141","2022-02-20 03:00","2022","02","20","03:00"
"-117.16","58.62","HIGH LEVEL A","3073141","2022-02-20 04:00","2022","02","20","04:00"
"-117.16","58.62","HIGH LEVEL A","3073141","2022-02-20 05:00","2022","02","20","05:00"
"-117.16","58.62","HIGH LEVEL A","3073141","2022-02-20 06:00","2022","02","20","06:00"
"-117.16","58.62","HIGH LEVEL A","3073141","2022-02-20 07:00","2022","02","20","07:00","-26.2","","-29.0","","78","","","","35","","21","","24.1","","98.78","","","","-39","","Snow"
"-117.16","58.62","HIGH LEVEL A","3073141","2022-02-20 08:00","2022","02","20","08:00","-27.0","","-29.7","","78","","","","34","","14","","24.1","","98.87","","","","-37","","Snow"
"-117.16","58.62","HIGH LEVEL A","3073141","2022-02-20 09:00","2022","02","20","09:00","-27.0","","-29.6","","79","","","","35","","11","","24.1","","98.92","","","","-36","","NA"
"-117.16","58.62","HIGH LEVEL A","3073141","2022-02-20 10:00","2022","02","20","10:00","-25.4","","-28.4","","77","","","","35","","13","","24.1","","98.99","","","","-35","","NA"
"-117.16","58.62","HIGH LEVEL A","3073141","2022-02-20 11:00","2022","02","20","11:00","-23.9","","-27.8","","71","","","","36","","11","","24.1","","99.03","","","","-32","","Mainly Clear"
"-117.16","58.62","HIGH LEVEL A","3073141","2022-02-20 12:00","2022","02","20","12:00","-22.7","","-27.1","","68","","","","36","","10","","24.1","","99.05","","","","-30","","NA"
"-117.16","58.62","HIGH LEVEL A","3073141","2022-02-20 13:00","2022","02","20","13:00","-21.6","","-26.8","","64","","","","36","","9","","24.1","","99.06","","","","-29","","NA"
"-117.16","58.62","HIGH LEVEL A","3073141","2022-02-20 14:00","2022","02","20","14:00","-20.9","","-25.9","","65","","","","36","","11","","24.1","","99.08","","","","-29","","Mainly Clear"
"-117.16","58.62","HIGH LEVEL A","3073141","2022-02-20 15:00","2022","02","20","15:00","-20.3","","-25.5","","64","","","","34","","17","","24.1","","99.06","","","","-30","","NA"
"-117.16","58.62","HIGH LEVEL A","3073141","2022-02-20 16:00","2022","02","20","16:00","-21.1","","-25.8","","67","","","","34","","20","","24.1","","99.12","","","","-32","","NA"
"-117.16","58.62","HIGH LEVEL A","3073141","2022-02-20 17:00","2022","02","20","17:00","-21.9","","-26.2","","69","","","","32","","13","","24.1","","99.18","","","","-31","","Mainly Clear"
"-117.16","58.62","HIGH LEVEL A","3073141","2022-02-20 18:00","2022","02","20","18:00","-24.2","","-27.4","","75","","","","33","","7","","24.1","","99.23","","","","-31","","NA"
"-117.16","58.62","HIGH LEVEL A","3073141","2022-02-20 19:00","2022","02","20","19:00","-24.9","","-28.0","","76","","","","36","","2","","24.1","","99.27","","","","-27","","NA"
"-117.16","58.62","HIGH LEVEL A","3073141","2022-02-20 20:00","2022","02","20","20:00","-27.6","","-29.9","","81","","","","36","","1","","24.1","","99.31","","","","-29","","Clear"
"-117.16","58.62","HIGH LEVEL A","3073141","2022-02-20 21:00","2022","02","20","21:00","-28.5","","-30.6","","83","","","","24","","4","","24.1","","99.30","","","","-33","","NA"
"-117.16","58.62","HIGH LEVEL A","3073141","2022-02-20 22:00","2022","02","20","22:00","-30.1","","-32.3","","82","","","","15","","3","","24.1","","99.33","","","","-33","","NA"
"-117.16","58.62","HIGH LEVEL A","3073141","2022-02-20 23:00","2022","02","20","23:00"
"-117.16","58.62","HIGH LEVEL A","3073141","2022-02-21 00:00","2022","02","21","00:00"
"-117.16","58.62","HIGH LEVEL A","3073141","2022-02-21 01:00","2022","02","21","01:00"
"-117.16","58.62","HIGH LEVEL A","3073141","2022-02-21 02:00","2022","02","21","02:00"
"-117.16","58.62","HIGH LEVEL A","3073141","2022-02-21 03:00","2022","02","21","03:00"
"-117.16","58.62","HIGH LEVEL A","3073141","2022-02-21 04:00","2022","02","21","04:00"
"-117.16","58.62","HIGH LEVEL A","3073141","2022-02-21 05:00","2022","02","21","05:00"
"-117.16","58.62","HIGH LEVEL A","3073141","2022-02-21 06:00","2022","02","21","06:00"
"-117.16","58.62","HIGH LEVEL A","3073141","2022-02-21 07:00","2022","02","21","07:00","-34.8","","-37.8","","75","","","","28","","6","","24.1","","99.52","","","","-42","","NA"
"-117.16","58.62","HIGH LEVEL A","3073141","2022-02-21 08:00","2022","02","21","08:00","-35.7","","-39.2","","71","","","","15","","4","","24.1","","99.55","","","","-41","","Clear"
"-117.16","58.62","HIGH LEVEL A","3073141","2022-02-21 09:00","2022","02","21","09:00","-34.6","","-38.2","","71","","","","11","","4","","24.1","","99.58","","","","-40","","NA"
"-117.16","58.62","HIGH LEVEL A","3073141","2022-02-21 10:00","2022","02","21","10:00","-29.1","","-31.5","","80","","","","14","","8","","24.1","","99.65","","","","-37","","NA"
"-117.16","58.62","HIGH LEVEL A","3073141","2022-02-21 11:00","2022","02","21","11:00","-25.2","","-27.5","","81","","","","36","","3","","24.1","","99.67","","","","-28","","Mainly Clear"
"-117.16","58.62","HIGH LEVEL A","3073141","2022-02-21 12:00","2022","02","21","12:00","-21.6","","-24.6","","77","","","","35","","18","","24.1","","99.70","","","","-32","","NA"
"-117.16","58.62","HIGH LEVEL A","3073141","2022-02-21 13:00","2022","02","21","13:00","-20.5","","-25.1","","67","","","","34","","14","","24.1","","99.70","","","","-29","","NA"
"-117.16","58.62","HIGH LEVEL A","3073141","2022-02-21 14:00","2022","02","21","14:00","-20.0","","-25.0","","65","","","","31","","12","","24.1","","99.73","","","","-28","","Mainly Clear"
"-117.16","58.62","HIGH LEVEL A","3073141","2022-02-21 15:00","2022","02","21","15:00","-19.4","","-24.6","","64","","","","31","","14","","24.1","","99.75","","","","-28","","NA"
"-117.16","58.62","HIGH LEVEL A","3073141","2022-02-21 16:00","2022","02","21","16:00","-19.5","","-24.1","","68","","","","33","","14","","24.1","","99.74","","","","-28","","NA"
"-117.16","58.62","HIGH LEVEL A","3073141","2022-02-21 17:00","2022","02","21","17:00","-20.2","","-24.8","","68","","","","34","","10","","24.1","","99.79","","","","-27","","Mainly Clear"
"-117.16","58.62","HIGH LEVEL A","3073141","2022-02-21 18:00","2022","02","21","18:00","-20.7","","-24.5","","72","","","","32","","5","","24.1","","99.83","","","","-25","","NA"
"-117.16","58.62","HIGH LEVEL A","3073141","2022-02-21 19:00","2022","02","21","19:00","-25.0","","-26.8","","85","","","","36","","2","","24.1","","99.84","","","","-27","","NA"
"-117.16","58.62","HIGH LEVEL A","3073141","2022-02-21 20:00","2022","02","21","20:00","-26.0","","-27.9","","85","","","","36","","2","","24.1","","99.84","","","","-28","","Clear"
"-117.16","58.62","HIGH LEVEL A","3073141","2022-02-21 21:00","2022","02","21","21:00","-30.4","","-33.2","","77","","","","36","","1","","24.1","","99.86","","","","-32","","NA"
"-117.16","58.62","HIGH LEVEL A","3073141","2022-02-21 22:00","2022","02","21","22:00","-30.6","","-33.4","","77","","","","0","","1","","24.1","","99.86","","","","-32","","NA"
"-117.16","58.62","HIGH LEVEL A","3073141","2022-02-21 23:00","2022","02","21","23:00"
"-117.16","58.62","HIGH LEVEL A","3073141","2022-02-22 00:00","2022","02","22","00:00"
"-117.16","58.62","HIGH LEVEL A","3073141","2022-02-22 01:00","2022","02","22","01:00"
"-117.16","58.62","HIGH LEVEL A","3073141","2022-02-22 02:00","2022","02","22","02:00"
"-117.16","58.62","HIGH LEVEL A","3073141","2022-02-22 03:00","2022","02","22","03:00"
"-117.16","58.62","HIGH LEVEL A","3073141","2022-02-22 04:00","2022","02","22","04:00"
"-117.16","58.62","HIGH LEVEL A","3073141","2022-02-22 05:00","2022","02","22","05:00"
"-117.16","58.62","HIGH LEVEL A","3073141","2022-02-22 06:00","2022","02","22","06:00"
"-117.16","58.62","HIGH LEVEL A","3073141","2022-02-22 07:00","2022","02","22","07:00","-38.1","","-42.0","","68","","","","36","","3","","12.9","","99.88","","","","-42","","NA"
"-117.16","58.62","HIGH LEVEL A","3073141","2022-02-22 08:00","2022","02","22","08:00","-37.6","","-41.4","","68","","","","36","","1","","24.1","","99.87","","","","-39","","Mainly Clear"
"-117.16","58.62","HIGH LEVEL A","3073141","2022-02-22 09:00","2022","02","22","09:00","-37.1","","-40.9","","69","","","","","","0","","24.1","","99.83","","","","","","NA"
"-117.16","58.62","HIGH LEVEL A","3073141","2022-02-22 10:00","2022","02","22","10:00","-33.9","","-37.2","","73","","","","0","","1","","9.7","","99.79","","","","-35","","Fog"
"-117.16","58.62","HIGH LEVEL A","3073141","2022-02-22 11:00","2022","02","22","11:00","-29.1","","-31.8","","78","","","","10","","8","","24.1","","99.77","","","","-37","","Mainly Clear"
"-117.16","58.62","HIGH LEVEL A","3073141","2022-02-22 12:00","2022","02","22","12:00","-24.2","","-26.6","","81","","","","12","","4","","24.1","","99.69","","","","-28","","NA"
"-117.16","58.62","HIGH LEVEL A","3073141","2022-02-22 13:00","2022","02","22","13:00","-21.0","","-24.0","","77","","","","16","","9","","24.1","","99.59","","","","-28","","NA"
"-117.16","58.62","HIGH LEVEL A","3073141","2022-02-22 14:00","2022","02","22","14:00","-18.4","","-22.5","","71","","","","14","","10","","24.1","","99.52","","","","-25","","Clear"
"-117.16","58.62","HIGH LEVEL A","3073141","2022-02-22 15:00","2022","02","22","15:00","-16.8","","-21.0","","70","","","","16","","15","","24.1","","99.36","","","","-25","","NA"
"-117.16","58.62","HIGH LEVEL A","3073141","2022-02-22 16:00","2022","02","22","16:00","-17.4","","-22.7","","64","","","","13","","16","","24.1","","99.24","","","","-26","","NA"
"-117.16","58.62","HIGH LEVEL A","3073141","2022-02-22 17:00","2022","02","22","17:00","-18.0","","-23.3","","64","","","","13","","13","","24.1","","99.11","","","","-26","","Mainly Clear"
"-117.16","58.62","HIGH LEVEL A","3073141","2022-02-22 18:00","2022","02","22","18:00","-19.1","","-23.1","","71","","","","12","","10","","24.1","","99.03","","","","-26","","NA"
"-117.16","58.62","HIGH LEVEL A","3073141","2022-02-22 19:00","2022","02","22","19:00","-20.2","","-23.3","","77","","","","13","","18","","24.1","","98.88","","","","-30","","NA"
"-117.16","58.62","HIGH LEVEL A","3073141","2022-02-22 20:00","2022","02","22","20:00","-21.0","","-23.6","","80","","","","13","","9","","24.1","","98.73","","","","-28","","Clear"
"-117.16","58.62","HIGH LEVEL A","3073141","2022-02-22 21:00","2022","02","22","21:00","-20.8","","-23.7","","78","","","","14","","4","","24.1","","98.56","","","","-24","","NA"
"-117.16","58.62","HIGH LEVEL A","3073141","2022-02-22 22:00","2022","02","22","22:00","-20.3","","-23.5","","76","","","","14","","15","","24.1","","98.44","","","","-29","","NA"
"-117.16","58.62","HIGH LEVEL A","3073141","2022-02-22 23:00","2022","02","22","23:00"
"-117.16","58.62","HIGH LEVEL A","3073141","2022-02-23 00:00","2022","02","23","00:00"
"-117.16","58.62","HIGH LEVEL A","3073141","2022-02-23 01:00","2022","02","23","01:00"
"-117.16","58.62","HIGH LEVEL A","3073141","2022-02-23 02:00","2022","02","23","02:00"
"-117.16","58.62","HIGH LEVEL A","3073141","2022-02-23 03:00","2022","02","23","03:00"
"-117.16","58.62","HIGH LEVEL A","3073141","2022-02-23 04:00","2022","02","23","04:00"
"-117.16","58.62","HIGH LEVEL A","3073141","2022-02-23 05:00","2022","02","23","05:00"
"-117.16","58.62","HIGH LEVEL A","3073141","2022-02-23 06:00","2022","02","23","06:00"
"-117.16","58.62","HIGH LEVEL A","3073141","2022-02-23 07:00","2022","02","23","07:00","-17.8","","-20.2","","82","","","","15","","8","","6.4","","97.49","","","","-24","","Snow"
"-117.16","58.62","HIGH LEVEL A","3073141","2022-02-23 08:00","2022","02","23","08:00","-17.7","","-20.1","","82","","","","16","","10","","9.7","","97.45","","","","-24","","Snow"
"-117.16","58.62","HIGH LEVEL A","3073141","2022-02-23 09:00","2022","02","23","09:00","-17.4","","-19.5","","84","","","","17","","7","","4.8","","97.44","","","","-23","","Snow"
"-117.16","58.62","HIGH LEVEL A","3073141","2022-02-23 10:00","2022","02","23","10:00","-17.2","","-19.4","","83","","","","16","","6","","16.1","","97.47","","","","-22","","NA"
"-117.16","58.62","HIGH LEVEL A","3073141","2022-02-23 11:00","2022","02","23","11:00","-16.1","","-18.6","","81","","","","14","","5","","11.3","","97.49","","","","-20","","Mostly Cloudy"
"-117.16","58.62","HIGH LEVEL A","3073141","2022-02-23 12:00","2022","02","23","12:00","-15.5","","-18.1","","81","","","","11","","4","","16.1","","97.51","","","","-18","","Snow"
"-117.16","58.62","HIGH LEVEL A","3073141","2022-02-23 13:00","2022","02","23","13:00","-13.8","","-17.2","","76","","","","12","","7","","24.1","","97.50","","","","-18","","NA"
"-117.16","58.62","HIGH LEVEL A","3073141","2022-02-23 14:00","2022","02","23","14:00","-11.9","","-15.6","","74","","","","14","","11","","24.1","","97.49","","","","-18","","Mostly Cloudy"
"-117.16","58.62","HIGH LEVEL A","3073141","2022-02-23 15:00","2022","02","23","15:00","-10.0","","-14.6","","69","","","","13","","6","","24.1","","97.47","","","","-14","","NA"
"-117.16","58.62","HIGH LEVEL A","3073141","2022-02-23 16:00","2022","02","23","16:00","-9.2","","-13.2","","73","","","","8","","6","","24.1","","97.46","","","","-13","","NA"
"-117.16","58.62","HIGH LEVEL A","3073141","2022-02-23 17:00","2022","02","23","17:00","-9.0","","-10.6","","88","","","","9","","8","","8.1","","97.49","","","","-13","","Snow"
"-117.16","58.62","HIGH LEVEL A","3073141","2022-02-23 18:00","2022","02","23","18:00","-9.1","","-9.9","","94","","","","5","","8","","1.2","","97.55","","","","-13","","Snow"
"-117.16","58.62","HIGH LEVEL A","3073141","2022-02-23 19:00","2022","02","23","19:00","-9.0","","-9.7","","95","","","","29","","7","","11.3","","97.59","","","","-13","","Snow"
"-117.16","58.62","HIGH LEVEL A","3073141","2022-02-23 20:00","2022","02","23","20:00","-7.4","","-8.6","","91","","","","33","","13","","6.4","","97.67","","","","-13","","Snow"
"-117.16","58.62","HIGH LEVEL A","3073141","2022-02-23 21:00","2022","02","23","21:00","-7.6","","-10.0","","83","","","","34","","16","","24.1","","97.74","","","","-14","","Snow"
"-117.16","58.62","HIGH LEVEL A","3073141","2022-02-23 22:00","2022","02","23","22:00","-8.1","","-11.4","","77","","","","34","","14","","24.1","","97.81","","","","-14","","Snow"
"-117.16","58.62","HIGH LEVEL A","3073141","2022-02-23 23:00","2022","02","23","23:00"
"-117.16","58.62","HIGH LEVEL A","3073141","2022-02-24 00:00","2022","02","24","00:00"
"-117.16","58.62","HIGH LEVEL A","3073141","2022-02-24 01:00","2022","02","24","01:00"
"-117.16","58.62","HIGH LEVEL A","3073141","2022-02-24 02:00","2022","02","24","02:00"
"-117.16","58.62","HIGH LEVEL A","3073141","2022-02-24 03:00","2022","02","24","03:00"
"-117.16","58.62","HIGH LEVEL A","3073141","2022-02-24 04:00","2022","02","24","04:00"
"-117.16","58.62","HIGH LEVEL A","3073141","2022-02-24 05:00","2022","02","24","05:00"
"-117.16","58.62","HIGH LEVEL A","3073141","2022-02-24 06:00","2022","02","24","06:00"
"-117.16","58.62","HIGH LEVEL A","3073141","2022-02-24 07:00","2022","02","24","07:00","-9.2","","-10.7","","89","","","","36","","3","","24.1","","98.03","","","","-11","","Snow"
"-117.16","58.62","HIGH LEVEL A","3073141","2022-02-24 08:00","2022","02","24","08:00","-9.3","","-10.6","","90","","","","36","","1","","24.1","","98.03","","","","-10","","Snow"
"-117.16","58.62","HIGH LEVEL A","3073141","2022-02-24 09:00","2022","02","24","09:00","-8.8","","-10.4","","88","","","","0","","1","","24.1","","98.03","","","","-9","","Snow"
"-117.16","58.62","HIGH LEVEL A","3073141","2022-02-24 10:00","2022","02","24","10:00","-7.7","","-9.7","","86","","","","23","","5","","24.1","","98.01","","","","-10","","NA"
"-117.16","58.62","HIGH LEVEL A","3073141","2022-02-24 11:00","2022","02","24","11:00","-6.8","","-9.7","","80","","","","20","","7","","24.1","","97.99","","","","-10","","Mainly Clear"
"-117.16","58.62","HIGH LEVEL A","3073141","2022-02-24 12:00","2022","02","24","12:00","-6.0","","-9.3","","77","","","","18","","9","","24.1","","97.97","","","","-10","","NA"
"-117.16","58.62","HIGH LEVEL A","3073141","2022-02-24 13:00","2022","02","24","13:00","-5.2","","-9.2","","74","","","","15","","9","","24.1","","97.96","","","","-9","","NA"
"-117.16","58.62","HIGH LEVEL A","3073141","2022-02-24 14:00","2022","02","24","14:00","-4.0","","-8.7","","70","","","","15","","10","","24.1","","97.94","","","","-8","","Mainly Clear"
"-117.16","58.62","HIGH LEVEL A","3073141","2022-02-24 15:00","2022","02","24","15:00","-3.5","","-8.8","","67","","","","14","","15","","24.1","","97.88","","","","-9","","NA"
"-117.16","58.62","HIGH LEVEL A","3073141","2022-02-24 16:00","2022","02","24","16:00","-3.3","","-8.6","","67","","","","17","","9","","24.1","","97.83","","","","-7","","NA"
"-117.16","58.62","HIGH LEVEL A","3073141","2022-02-24 17:00","2022","02","24","17:00","-3.6","","-8.8","","67","","","","19","","9","","24.1","","97.79","","","","-7","","Clear"
"-117.16","58.62","HIGH LEVEL A","3073141","2022-02-24 18:00","2022","02","24","18:00","-4.2","","-9.1","","69","","","","15","","9","","24.1","","97.70","","","","-8","","NA"
"-117.16","58.62","HIGH LEVEL A","3073141","2022-02-24 19:00","2022","02","24","19:00","-9.2","","-11.5","","84","","","","13","","3","","24.1","","97.66","","","","-11","","NA"
"-117.16","58.62","HIGH LEVEL A","3073141","2022-02-24 20:00","2022","02","24","20:00","-10.3","","-11.7","","90","","","","8","","3","","24.1","","97.63","","","","-12","","Clear"
"-117.16","58.62","HIGH LEVEL A","3073141","2022-02-24 21:00","2022","02","24","21:00","-13.3","","-14.2","","93","","","","8","","3","","24.1","","97.60","","","","-15","","NA"
"-117.16","58.62","HIGH LEVEL A","3073141","2022-02-24 22:00","2022","02","24","22:00","-13.0","","-13.8","","94","","","","17","","10","","24.1","","97.52","","","","-19","","NA"
"-117.16","58.62","HIGH LEVEL A","3073141","2022-02-24 23:00","2022","02","24","23:00"
"-117.16","58.62","HIGH LEVEL A","3073141","2022-02-25 00:00","2022","02","25","00:00"
"-117.16","58.62","HIGH LEVEL A","3073141","2022-02-25 01:00","2022","02","25","01:00"
"-117.16","58.62","HIGH LEVEL A","3073141","2022-02-25 02:00","2022","02","25","02:00"
"-117.16","58.62","HIGH LEVEL A","3073141","2022-02-25 03:00","2022","02","25","03:00"
"-117.16","58.62","HIGH LEVEL A","3073141","2022-02-25 04:00","2022","02","25","04:00"
"-117.16","58.62","HIGH LEVEL A","3073141","2022-02-25 05:00","2022","02","25","05:00"
"-117.16","58.62","HIGH LEVEL A","3073141","2022-02-25 06:00","2022","02","25","06:00"
"-117.16","58.62","HIGH LEVEL A","3073141","2022-02-25 07:00","2022","02","25","07:00","-13.8","","-14.9","","91","","","","12","","5","","24.1","","97.08","","","","-17","","NA"
"-117.16","58.62","HIGH LEVEL A","3073141","2022-02-25 08:00","2022","02","25","08:00","-14.1","","-15.0","","93","","","","35","","7","","24.1","","97.06","","","","-19","","Mostly Cloudy"
"-117.16","58.62","HIGH LEVEL A","3073141","2022-02-25 09:00","2022","02","25","09:00","-13.1","","-14.0","","93","","","","36","","3","","24.1","","97.09","","","","-15","","NA"
"-117.16","58.62","HIGH LEVEL A","3073141","2022-02-25 10:00","2022","02","25","10:00","-10.9","","-11.6","","95","","","","36","","6","","24.1","","97.12","","","","-15","","NA"
"-117.16","58.62","HIGH LEVEL A","3073141","2022-02-25 11:00","2022","02","25","11:00","-5.3","","-8.7","","77","","","","36","","5","","24.1","","97.19","","","","-8","","Mostly Cloudy"
"-117.16","58.62","HIGH LEVEL A","3073141","2022-02-25 12:00","2022","02","25","12:00","-4.1","","-8.2","","74","","","","34","","14","","24.1","","97.25","","","","-9","","NA"
"-117.16","58.62","HIGH LEVEL A","3073141","2022-02-25 13:00","2022","02","25","13:00","-2.8","","-7.3","","71","","","","32","","12","","24.1","","97.30","","","","-7","","NA"
"-117.16","58.62","HIGH LEVEL A","3073141","2022-02-25 14:00","2022","02","25","14:00","-2.4","","-7.3","","69","","","","35","","16","","24.1","","97.32","","","","-8","","Mostly Cloudy"
"-117.16","58.62","HIGH LEVEL A","3073141","2022-02-25 15:00","2022","02","25","15:00","-2.5","","-6.8","","72","","","","34","","9","","24.1","","97.35","","","","-6","","NA"
"-117.16","58.62","HIGH LEVEL A","3073141","2022-02-25 16:00","2022","02","25","16:00","-1.5","","-6.1","","71","","","","33","","6","","24.1","","97.41","","","","-4","","NA"
"-117.16","58.62","HIGH LEVEL A","3073141","2022-02-25 17:00","2022","02","25","17:00","-1.6","","-6.0","","72","","","","31","","7","","24.1","","97.46","","","","-4","","Mostly Cloudy"
"-117.16","58.62","HIGH LEVEL A","3073141","2022-02-25 18:00","2022","02","25","18:00","-1.9","","-6.7","","70","","","","1","","10","","24.1","","97.46","","","","-6","","NA"
"-117.16","58.62","HIGH LEVEL A","3073141","2022-02-25 19:00","2022","02","25","19:00","-2.5","","-5.5","","80","","","","36","","13","","24.1","","97.47","","","","-7","","NA"
"-117.16","58.62","HIGH LEVEL A","3073141","2022-02-25 20:00","2022","02","25","20:00","-3.4","","-5.6","","85","","","","2","","12","","24.1","","97.50","","","","-8","","Cloudy"
"-117.16","58.62","HIGH LEVEL A","3073141","2022-02-25 21:00","2022","02","25","21:00","-4.3","","-6.7","","83","","","","3","","13","","24.1","","97.50","","","","-9","","NA"
"-117.16","58.62","HIGH LEVEL A","3073141","2022-02-25 22:00","2022","02","25","22:00","-5.8","","-8.7","","80","","","","1","","10","","24.1","","97.54","","","","-10","","NA"
"-117.16","58.62","HIGH LEVEL A","3073141","2022-02-25 23:00","2022","02","25","23:00"
"-117.16","58.62","HIGH LEVEL A","3073141","2022-02-26 00:00","2022","02","26","00:00"
"-117.16","58.62","HIGH LEVEL A","3073141","2022-02-26 01:00","2022","02","26","01:00"
"-117.16","58.62","HIGH LEVEL A","3073141","2022-02-26 02:00","2022","02","26","02:00"
"-117.16","58.62","HIGH LEVEL A","3073141","2022-02-26 03:00","2022","02","26","03:00"
"-117.16","58.62","HIGH LEVEL A","3073141","2022-02-26 04:00","2022","02","26","04:00"
"-117.16","58.62","HIGH LEVEL A","3073141","2022-02-26 05:00","2022","02","26","05:00"
"-117.16","58.62","HIGH LEVEL A","3073141","2022-02-26 06:00","2022","02","26","06:00"
"-117.16","58.62","HIGH LEVEL A","3073141","2022-02-26 07:00","2022","02","26","07:00","-10.5","","-11.7","","91","","","","1","","13","","2.0","","97.76","","","","-17","","Snow"
"-117.16","58.62","HIGH LEVEL A","3073141","2022-02-26 08:00","2022","02","26","08:00","-10.7","","-11.9","","91","","","","2","","12","","3.2","","97.76","","","","-17","","Snow"
"-117.16","58.62","HIGH LEVEL A","3073141","2022-02-26 09:00","2022","02","26","09:00","-10.6","","-12.1","","89","","","","2","","12","","3.2","","97.79","","","","-17","","Snow"
"-117.16","58.62","HIGH LEVEL A","3073141","2022-02-26 10:00","2022","02","26","10:00","-10.4","","-12.2","","87","","","","2","","10","","3.2","","97.85","","","","-16","","Snow"
"-117.16","58.62","HIGH LEVEL A","3073141","2022-02-26 11:00","2022","02","26","11:00","-9.8","","-11.6","","87","","","","4","","11","","2.0","","97.85","","","","-15","","Snow"
"-117.16","58.62","HIGH LEVEL A","3073141","2022-02-26 12:00","2022","02","26","12:00","-9.6","","-12.0","","83","","","","9","","9","","2.0","","97.83","","","","-14","","Snow"
"-117.16","58.62","HIGH LEVEL A","3073141","2022-02-26 13:00","2022","02","26","13:00","-9.3","","-12.2","","80","","","","4","","13","","8.1","","97.88","","","","-15","","Snow"
"-117.16","58.62","HIGH LEVEL A","3073141","2022-02-26 14:00","2022","02","26","14:00","-10.5","","-11.8","","90","","","","2","","12","","0.4","","97.90","","","","-17","","Heavy Snow"
"-117.16","58.62","HIGH LEVEL A","3073141","2022-02-26 15:00","2022","02","26","15:00","-10.9","","-12.6","","88","","","","1","","12","","1.0","","97.94","","","","-17","","Snow"
"-117.16","58.62","HIGH LEVEL A","3073141","2022-02-26 16:00","2022","02","26","16:00","-11.6","","-13.8","","84","","","","1","","15","","1.6","","97.99","","","","-19","","Snow"
"-117.16","58.62","HIGH LEVEL A","3073141","2022-02-26 17:00","2022","02","26","17:00","-12.6","","-14.8","","84","","","","1","","13","","4.8","","98.02","","","","-19","","Snow"
"-117.16","58.62","HIGH LEVEL A","3073141","2022-02-26 18:00","2022","02","26","18:00","-13.6","","-15.5","","86","","","","2","","14","","3.2","","98.05","","","","-21","","Snow"
"-117.16","58.62","HIGH LEVEL A","3073141","2022-02-26 19:00","2022","02","26","19:00","-14.5","","-16.2","","87","","","","36","","18","","2.0","","98.07","","","","-23","","Snow"
"-117.16","58.62","HIGH LEVEL A","3073141","2022-02-26 20:00","2022","02","26","20:00","-15.2","","-17.3","","84","","","","36","","12","","3.2","","98.12","","","","-22","","Snow"
"-117.16","58.62","HIGH LEVEL A","3073141","2022-02-26 21:00","2022","02","26","21:00","-15.7","","-17.8","","84","","","","36","","18","","4.8","","98.19","","","","-25","","Snow"
"-117.16","58.62","HIGH LEVEL A","3073141","2022-02-26 22:00","2022","02","26","22:00","-16.3","","-18.3","","85","","","","35","","19","","3.6","","98.23","","","","-26","","Snow"
"-117.16","58.62","HIGH LEVEL A","3073141","2022-02-26 23:00","2022","02","26","23:00"
"-117.16","58.62","HIGH LEVEL A","3073141","2022-02-27 00:00","2022","02","27","00:00"
"-117.16","58.62","HIGH LEVEL A","3073141","2022-02-27 01:00","2022","02","27","01:00"
"-117.16","58.62","HIGH LEVEL A","3073141","2022-02-27 02:00","2022","02","27","02:00"
"-117.16","58.62","HIGH LEVEL A","3073141","2022-02-27 03:00","2022","02","27","03:00"
"-117.16","58.62","HIGH LEVEL A","3073141","2022-02-27 04:00","2022","02","27","04:00"
"-117.16","58.62","HIGH LEVEL A","3073141","2022-02-27 05:00","2022","02","27","05:00"
"-117.16","58.62","HIGH LEVEL A","3073141","2022-02-27 06:00","2022","02","27","06:00"
"-117.16","58.62","HIGH LEVEL A","3073141","2022-02-27 07:00","2022","02","27","07:00","-17.3","","-20.1","","79","","","","11","","9","","24.1","","98.24","","","","-24","","Snow"
"-117.16","58.62","HIGH LEVEL A","3073141","2022-02-27 08:00","2022","02","27","08:00","-17.8","","-20.6","","79","","","","11","","15","","24.1","","98.21","","","","-26","","Snow"
"-117.16","58.62","HIGH LEVEL A","3073141","2022-02-27 09:00","2022","02","27","09:00","-18.0","","-21.3","","76","","","","11","","17","","24.1","","98.20","","","","-27","","Snow"
"-117.16","58.62","HIGH LEVEL A","3073141","2022-02-27 10:00","2022","02","27","10:00","-17.9","","-21.3","","75","","","","13","","10","","24.1","","98.19","","","","-25","","Snow"
"-117.16","58.62","HIGH LEVEL A","3073141","2022-02-27 11:00","2022","02","27","11:00","-17.7","","-21.3","","74","","","","14","","14","","16.1","","98.18","","","","-26","","Snow"
"-117.16","58.62","HIGH LEVEL A","3073141","2022-02-27 12:00","2022","02","27","12:00","-17.6","","-21.1","","75","","","","12","","10","","16.1","","98.15","","","","-24","","Snow"
"-117.16","58.62","HIGH LEVEL A","3073141","2022-02-27 13:00","2022","02","27","13:00","-17.1","","-20.4","","76","","","","15","","13","","9.7","","98.12","","","","-25","","Snow"
"-117.16","58.62","HIGH LEVEL A","3073141","2022-02-27 14:00","2022","02","27","14:00","-16.4","","-19.8","","76","","","","10","","8","","9.7","","97.99","","","","-22","","Snow"
"-117.16","58.62","HIGH LEVEL A","3073141","2022-02-27 15:00","2022","02","27","15:00","-14.9","","-18.4","","75","","","","9","","10","","16.1","","97.95","","","","-21","","Snow"
"-117.16","58.62","HIGH LEVEL A","3073141","2022-02-27 16:00","2022","02","27","16:00","-15.3","","-18.0","","80","","","","16","","8","","4.8","","97.94","","","","-21","","Snow"
"-117.16","58.62","HIGH LEVEL A","3073141","2022-02-27 17:00","2022","02","27","17:00","-15.6","","-18.2","","81","","","","17","","8","","16.1","","97.91","","","","-21","","Cloudy"
"-117.16","58.62","HIGH LEVEL A","3073141","2022-02-27 18:00","2022","02","27","18:00","-15.6","","-17.9","","83","","","","28","","3","","24.1","","97.90","","","","-18","","Snow"
"-117.16","58.62","HIGH LEVEL A","3073141","2022-02-27 19:00","2022","02","27","19:00","-15.7","","-17.5","","86","","","","15","","7","","6.4","","97.90","","","","-21","","Snow"
"-117.16","58.62","HIGH LEVEL A","3073141","2022-02-27 20:00","2022","02","27","20:00","-15.8","","-18.2","","82","","","","12","","17","","16.1","","97.90","","","","-24","","Snow"
"-117.16","58.62","HIGH LEVEL A","3073141","2022-02-27 21:00","2022","02","27","21:00","-16.1","","-18.5","","82","","","","12","","8","","16.1","","97.89","","","","-22","","Snow"
"-117.16","58.62","HIGH LEVEL A","3073141","2022-02-27 22:00","2022","02","27","22:00","-16.3","","-18.6","","83","","","","11","","10","","16.1","","97.87","","","","-23","","Snow"
"-117.16","58.62","HIGH LEVEL A","3073141","2022-02-27 23:00","2022","02","27","23:00"
"-117.16","58.62","HIGH LEVEL A","3073141","2022-02-28 00:00","2022","02","28","00:00"
"-117.16","58.62","HIGH LEVEL A","3073141","2022-02-28 01:00","2022","02","28","01:00"
"-117.16","58.62","HIGH LEVEL A","3073141","2022-02-28 02:00","2022","02","28","02:00"
"-117.16","58.62","HIGH LEVEL A","3073141","2022-02-28 03:00","2022","02","28","03:00"
"-117.16","58.62","HIGH LEVEL A","3073141","2022-02-28 04:00","2022","02","28","04:00"
"-117.16","58.62","HIGH LEVEL A","3073141","2022-02-28 05:00","2022","02","28","05:00"
"-117.16","58.62","HIGH LEVEL A","3073141","2022-02-28 06:00","2022","02","28","06:00"
"-117.16","58.62","HIGH LEVEL A","3073141","2022-02-28 07:00","2022","02","28","07:00","-17.1","","-19.1","","85","","","","36","","1","","4.8","","97.80","","","","-18","","Snow"
"-117.16","58.62","HIGH LEVEL A","3073141","2022-02-28 08:00","2022","02","28","08:00","-17.1","","-19.5","","82","","","","10","","6","","9.7","","97.77","","","","-22","","Snow"
"-117.16","58.62","HIGH LEVEL A","3073141","2022-02-28 09:00","2022","02","28","09:00","-16.7","","-19.2","","81","","","","8","","7","","19.3","","97.77","","","","-22","","Snow"
"-117.16","58.62","HIGH LEVEL A","3073141","2022-02-28 10:00","2022","02","28","10:00","-16.3","","-18.7","","82","","","","10","","5","","2.4","","97.79","","","","-20","","Snow"
"-117.16","58.62","HIGH LEVEL A","3073141","2022-02-28 11:00","2022","02","28","11:00","-15.9","","-18.8","","79","","","","11","","7","","2.8","","97.76","","","","-21","","Snow"
"-117.16","58.62","HIGH LEVEL A","3073141","2022-02-28 12:00","2022","02","28","12:00","-15.0","","-17.6","","81","","","","22","","5","","4.8","","97.78","","","","-19","","Snow"
"-117.16","58.62","HIGH LEVEL A","3073141","2022-02-28 13:00","2022","02","28","13:00","-14.3","","-17.4","","77","","","","18","","3","","12.9","","97.80","","","","-16","","Snow"
"-117.16","58.62","HIGH LEVEL A","3073141","2022-02-28 14:00","2022","02","28","14:00","-14.2","","-17.6","","76","","","","16","","8","","16.1","","97.77","","","","-19","","Snow"
"-117.16","58.62","HIGH LEVEL A","3073141","2022-02-28 15:00","2022","02","28","15:00","-13.8","","-16.9","","78","","","","21","","4","","11.3","","97.77","","","","-17","","Snow"
"-117.16","58.62","HIGH LEVEL A","3073141","2022-02-28 16:00","2022","02","28","16:00","-13.4","","-16.5","","78","","","","22","","8","","16.1","","97.73","","","","-18","","Snow"
"-117.16","58.62","HIGH LEVEL A","3073141","2022-02-28 17:00","2022","02","28","17:00","-13.1","","-16.2","","78","","","","20","","4","","24.1","","97.74","","","","-16","","Mostly Cloudy"
"-117.16","58.62","HIGH LEVEL A","3073141","2022-02-28 18:00","2022","02","28","18:00","-13.5","","-16.3","","80","","","","19","","5","","24.1","","97.72","","","","-17","","NA"
"-117.16","58.62","HIGH LEVEL A","3073141","2022-02-28 19:00","2022","02","28","19:00","-14.0","","-16.7","","80","","","","14","","5","","24.1","","97.71","","","","-17","","Snow"
"-117.16","58.62","HIGH LEVEL A","3073141","2022-02-28 20:00","2022","02","28","20:00","-15.3","","-17.1","","86","","","","10","","4","","16.1","","97.73","","","","-18","","Snow"
"-117.16","58.62","HIGH LEVEL A","3073141","2022-02-28 21:00","2022","02","28","21:00","-14.6","","-16.6","","85","","","","13","","4","","24.1","","97.77","","","","-17","","Snow"
"-117.16","58.62","HIGH LEVEL A","3073141","2022-02-28 22:00","2022","02","28","22:00","-14.3","","-16.4","","84","","","","12","","4","","24.1","","97.79","","","","-17","","Snow"
"-117.16","58.62","HIGH LEVEL A","3073141","2022-02-28 23:00","2022","02","28","23:00"
