"Longitude (x)","Latitude (y)","Station Name","Climate ID","Date/Time (LST)","Year","Month","Day","Time (LST)","Temp (°C)","Temp Flag","Dew Point Temp (°C)","Dew Point Temp Flag","Rel Hum (%)","Rel Hum Flag","Precip. Amount (mm)","Precip. Amount Flag","Wind Dir (10s deg)","Wind Dir Flag","Wind Spd (km/h)","Wind Spd Flag","Visibility (km)","Visibility Flag","Stn Press (kPa)","Stn Press Flag","Hmdx","Hmdx Flag","Wind Chill","Wind Chill Flag","Weather"
"-61.68","56.55","NAIN A","8502801","2019-06-01 00:00","2019","06","01","00:00"
"-61.68","56.55","NAIN A","8502801","2019-06-01 01:00","2019","06","01","01:00"
"-61.68","56.55","NAIN A","8502801","2019-06-01 02:00","2019","06","01","02:00"
"-61.68","56.55","NAIN A","8502801","2019-06-01 03:00","2019","06","01","03:00"
"-61.68","56.55","NAIN A","8502801","2019-06-01 04:00","2019","06","01","04:00","0.0","","-0.4","","97","","","","9","","25","","4.0","","101.05","","","","-6","","Snow"
"-61.68","56.55","NAIN A","8502801","2019-06-01 05:00","2019","06","01","05:00","0.1","","-0.3","","97","","","","10","","27","","4.0","","101.06","","","","","","Snow"
"-61.68","56.55","NAIN A","8502801","2019-06-01 06:00","2019","06","01","06:00","0.1","","-0.3","","97","","","","9","","32","","2.0","","101.05","","","","","","Snow"
"-61.68","56.55","NAIN A","8502801","2019-06-01 07:00","2019","06","01","07:00","0.2","","-0.3","","97","","","","10","","37","","3.2","","101.04","","","","","","Snow"
"-61.68","56.55","NAIN A","8502801","2019-06-01 08:00","2019","06","01","08:00","0.1","","-0.4","","97","","","","10","","34","","4.8","","101.04","","","","","","Snow"
"-61.68","56.55","NAIN A","8502801","2019-06-01 09:00","2019","06","01","09:00","0.3","","-0.2","","97","","","","10","","29","","9.7","","101.05","","","","","","Snow,Fog"
"-61.68","56.55","NAIN A","8502801","2019-06-01 10:00","2019","06","01","10:00","0.2","","-0.3","","97","","","","8","","19","","12.9","","101.06","","","","","","NA"
"-61.68","56.55","NAIN A","8502801","2019-06-01 11:00","2019","06","01","11:00","0.3","","-0.1","","97","","","","7","","25","","17.7","","101.06","","","","","","Drizzle"
"-61.68","56.55","NAIN A","8502801","2019-06-01 12:00","2019","06","01","12:00","0.5","","0.1","","97","","","","7","","26","","19.3","","101.04","","","","","","NA"
"-61.68","56.55","NAIN A","8502801","2019-06-01 13:00","2019","06","01","13:00","0.7","","0.3","","97","","","","8","","30","","17.7","","101.06","","","","","","NA"
"-61.68","56.55","NAIN A","8502801","2019-06-01 14:00","2019","06","01","14:00","0.9","","0.4","","97","","","","8","","27","","4.0","","101.08","","","","","","Fog"
"-61.68","56.55","NAIN A","8502801","2019-06-01 15:00","2019","06","01","15:00","0.6","","0.2","","97","","","","7","","20","","2.4","","101.11","","","","","","Fog"
"-61.68","56.55","NAIN A","8502801","2019-06-01 16:00","2019","06","01","16:00","0.7","","0.3","","97","","","","8","","14","","4.0","","101.15","","","","","","Fog"
"-61.68","56.55","NAIN A","8502801","2019-06-01 17:00","2019","06","01","17:00","0.6","","0.2","","97","","","","9","","18","","4.0","","101.20","","","","","","Fog"
"-61.68","56.55","NAIN A","8502801","2019-06-01 18:00","2019","06","01","18:00","0.2","","-0.2","","97","","","","9","","21","","4.0","","101.25","","","","","","Fog"
"-61.68","56.55","NAIN A","8502801","2019-06-01 19:00","2019","06","01","19:00","0.0","","-0.3","","98","","","","8","","14","","4.8","","101.30","","","","-4","","Fog"
"-61.68","56.55","NAIN A","8502801","2019-06-01 20:00","2019","06","01","20:00"
"-61.68","56.55","NAIN A","8502801","2019-06-01 21:00","2019","06","01","21:00"
"-61.68","56.55","NAIN A","8502801","2019-06-01 22:00","2019","06","01","22:00"
"-61.68","56.55","NAIN A","8502801","2019-06-01 23:00","2019","06","01","23:00"
"-61.68","56.55","NAIN A","8502801","2019-06-02 00:00","2019","06","02","00:00"
"-61.68","56.55","NAIN A","8502801","2019-06-02 01:00","2019","06","02","01:00"
"-61.68","56.55","NAIN A","8502801","2019-06-02 02:00","2019","06","02","02:00"
"-61.68","56.55","NAIN A","8502801","2019-06-02 03:00","2019","06","02","03:00"
"-61.68","56.55","NAIN A","8502801","2019-06-02 04:00","2019","06","02","04:00","-0.5","","-0.7","","98","","","","7","","6","","4.0","","101.60","","","","-3","","Snow"
"-61.68","56.55","NAIN A","8502801","2019-06-02 05:00","2019","06","02","05:00","-0.2","","-0.4","","98","","","","36","","3","","4.8","","101.63","","","","-1","","Snow"
"-61.68","56.55","NAIN A","8502801","2019-06-02 06:00","2019","06","02","06:00","0.0","","-0.2","","98","","","","11","","6","","24.1","","101.67","","","","-2","","NA"
"-61.68","56.55","NAIN A","8502801","2019-06-02 07:00","2019","06","02","07:00","-0.3","","-0.6","","98","","","","6","","13","","1.2","","101.68","","","","-4","","Freezing Rain,Fog"
"-61.68","56.55","NAIN A","8502801","2019-06-02 08:00","2019","06","02","08:00","0.0","","-0.3","","98","","","","10","","15","","24.1","","101.77","","","","-4","","Freezing Drizzle"
"-61.68","56.55","NAIN A","8502801","2019-06-02 09:00","2019","06","02","09:00","0.3","","-0.2","","96","","","","9","","11","","24.1","","101.82","","","","","","Rain Showers"
"-61.68","56.55","NAIN A","8502801","2019-06-02 10:00","2019","06","02","10:00","0.6","","0.0","","96","","","","6","","7","","24.1","","101.85","","","","","","Rain Showers"
"-61.68","56.55","NAIN A","8502801","2019-06-02 11:00","2019","06","02","11:00","1.7","","0.5","","92","","","","7","","4","","24.1","","101.91","","","","","","Cloudy"
"-61.68","56.55","NAIN A","8502801","2019-06-02 12:00","2019","06","02","12:00","1.7","","0.1","","89","","","","7","","12","","24.1","","101.90","","","","","","NA"
"-61.68","56.55","NAIN A","8502801","2019-06-02 13:00","2019","06","02","13:00","2.6","","0.8","","88","","","","10","","8","","24.1","","101.95","","","","","","NA"
"-61.68","56.55","NAIN A","8502801","2019-06-02 14:00","2019","06","02","14:00","2.2","","0.6","","89","","","","9","","14","","24.1","","101.97","","","","","","Cloudy"
"-61.68","56.55","NAIN A","8502801","2019-06-02 15:00","2019","06","02","15:00","3.1","","1.1","","87","","","","11","","10","","24.1","","102.00","","","","","","NA"
"-61.68","56.55","NAIN A","8502801","2019-06-02 16:00","2019","06","02","16:00","3.3","","1.5","","87","","","","10","","15","","24.1","","102.02","","","","","","NA"
"-61.68","56.55","NAIN A","8502801","2019-06-02 17:00","2019","06","02","17:00","2.0","","0.7","","91","","","","9","","21","","24.1","","102.06","","","","","","Mostly Cloudy"
"-61.68","56.55","NAIN A","8502801","2019-06-02 18:00","2019","06","02","18:00","0.6","","0.0","","95","","","","8","","13","","24.1","","102.10","","","","","","NA"
"-61.68","56.55","NAIN A","8502801","2019-06-02 19:00","2019","06","02","19:00","0.2","","-0.3","","97","","","","7","","13","","6.4","","102.14","","","","","","Fog"
"-61.68","56.55","NAIN A","8502801","2019-06-02 20:00","2019","06","02","20:00"
"-61.68","56.55","NAIN A","8502801","2019-06-02 21:00","2019","06","02","21:00"
"-61.68","56.55","NAIN A","8502801","2019-06-02 22:00","2019","06","02","22:00"
"-61.68","56.55","NAIN A","8502801","2019-06-02 23:00","2019","06","02","23:00"
"-61.68","56.55","NAIN A","8502801","2019-06-03 00:00","2019","06","03","00:00"
"-61.68","56.55","NAIN A","8502801","2019-06-03 01:00","2019","06","03","01:00"
"-61.68","56.55","NAIN A","8502801","2019-06-03 02:00","2019","06","03","02:00"
"-61.68","56.55","NAIN A","8502801","2019-06-03 03:00","2019","06","03","03:00"
"-61.68","56.55","NAIN A","8502801","2019-06-03 04:00","2019","06","03","04:00","-1.6","","-1.9","","98","","","","6","","22","","4.8","","102.13","","","","-8","","Fog"
"-61.68","56.55","NAIN A","8502801","2019-06-03 05:00","2019","06","03","05:00","-1.3","","-1.5","","98","","","","6","","23","","9.7","","102.11","","","","-7","","Fog"
"-61.68","56.55","NAIN A","8502801","2019-06-03 06:00","2019","06","03","06:00","-0.9","","-1.1","","98","","","","5","","20","","4.8","","102.11","","","","-6","","Fog"
"-61.68","56.55","NAIN A","8502801","2019-06-03 07:00","2019","06","03","07:00","-0.7","","-1.0","","98","","","","6","","23","","9.7","","102.11","","","","-7","","Fog"
"-61.68","56.55","NAIN A","8502801","2019-06-03 08:00","2019","06","03","08:00","-0.5","","-0.8","","98","","","","6","","23","","11.3","","102.11","","","","-6","","Cloudy"
"-61.68","56.55","NAIN A","8502801","2019-06-03 09:00","2019","06","03","09:00","-0.1","","-0.4","","98","","","","6","","22","","11.3","","102.08","","","","-6","","NA"
"-61.68","56.55","NAIN A","8502801","2019-06-03 10:00","2019","06","03","10:00","0.5","","0.0","","96","","","","6","","22","","12.9","","102.05","","","","","","NA"
"-61.68","56.55","NAIN A","8502801","2019-06-03 11:00","2019","06","03","11:00","1.0","","-0.1","","92","","","","6","","25","","19.3","","102.00","","","","","","Cloudy"
"-61.68","56.55","NAIN A","8502801","2019-06-03 12:00","2019","06","03","12:00","1.3","","0.1","","92","","","","7","","25","","22.5","","101.94","","","","","","NA"
"-61.68","56.55","NAIN A","8502801","2019-06-03 13:00","2019","06","03","13:00","1.7","","-0.1","","88","","","","8","","26","","24.1","","101.88","","","","","","NA"
"-61.68","56.55","NAIN A","8502801","2019-06-03 14:00","2019","06","03","14:00","1.6","","0.1","","89","","","","8","","26","","24.1","","101.86","","","","","","Cloudy"
"-61.68","56.55","NAIN A","8502801","2019-06-03 15:00","2019","06","03","15:00","1.4","","-0.1","","90","","","","7","","20","","24.1","","101.84","","","","","","NA"
"-61.68","56.55","NAIN A","8502801","2019-06-03 16:00","2019","06","03","16:00","1.4","","0.1","","91","","","","8","","27","","24.1","","101.81","","","","","","NA"
"-61.68","56.55","NAIN A","8502801","2019-06-03 17:00","2019","06","03","17:00","0.9","","-0.2","","93","","","","10","","26","","20.9","","101.77","","","","","","Rain Showers"
"-61.68","56.55","NAIN A","8502801","2019-06-03 18:00","2019","06","03","18:00","0.6","","0.0","","95","","","","10","","22","","20.9","","101.80","","","","","","Rain Showers"
"-61.68","56.55","NAIN A","8502801","2019-06-03 19:00","2019","06","03","19:00","0.3","","-0.2","","96","","","","9","","19","","11.3","","101.76","","","","","","Rain Showers,Snow Showers"
"-61.68","56.55","NAIN A","8502801","2019-06-03 20:00","2019","06","03","20:00"
"-61.68","56.55","NAIN A","8502801","2019-06-03 21:00","2019","06","03","21:00"
"-61.68","56.55","NAIN A","8502801","2019-06-03 22:00","2019","06","03","22:00"
"-61.68","56.55","NAIN A","8502801","2019-06-03 23:00","2019","06","03","23:00"
"-61.68","56.55","NAIN A","8502801","2019-06-04 00:00","2019","06","04","00:00"
"-61.68","56.55","NAIN A","8502801","2019-06-04 01:00","2019","06","04","01:00"
"-61.68","56.55","NAIN A","8502801","2019-06-04 02:00","2019","06","04","02:00"
"-61.68","56.55","NAIN A","8502801","2019-06-04 03:00","2019","06","04","03:00"
"-61.68","56.55","NAIN A","8502801","2019-06-04 04:00","2019","06","04","04:00","0.8","","0.5","","98","","","","11","","16","","6.4","","101.40","","","","","","Moderate Drizzle,Fog"
"-61.68","56.55","NAIN A","8502801","2019-06-04 05:00","2019","06","04","05:00","0.8","","0.6","","98","","","","10","","21","","4.8","","101.38","","","","","","Moderate Drizzle,Fog"
"-61.68","56.55","NAIN A","8502801","2019-06-04 06:00","2019","06","04","06:00","1.1","","0.8","","98","","","","11","","31","","3.2","","101.28","","","","","","Moderate Drizzle,Fog"
"-61.68","56.55","NAIN A","8502801","2019-06-04 07:00","2019","06","04","07:00","1.2","","1.0","","98","","","","10","","32","","3.2","","101.23","","","","","","Moderate Drizzle,Fog"
"-61.68","56.55","NAIN A","8502801","2019-06-04 08:00","2019","06","04","08:00","1.1","","0.9","","98","","","","10","","31","","2.4","","101.16","","","","","","Rain,Moderate Drizzle,Fog"
"-61.68","56.55","NAIN A","8502801","2019-06-04 09:00","2019","06","04","09:00","1.1","","0.9","","98","","","","10","","27","","8.1","","101.10","","","","","","Moderate Rain,Fog"
"-61.68","56.55","NAIN A","8502801","2019-06-04 10:00","2019","06","04","10:00","1.5","","1.2","","98","","","","10","","32","","8.1","","101.02","","","","","","Moderate Rain,Fog"
"-61.68","56.55","NAIN A","8502801","2019-06-04 11:00","2019","06","04","11:00","1.9","","1.6","","98","","","","10","","35","","8.1","","100.91","","","","","","Moderate Rain,Snow Showers,Fog"
"-61.68","56.55","NAIN A","8502801","2019-06-04 12:00","2019","06","04","12:00","1.9","","1.6","","98","","","","9","","30","","4.8","","100.81","","","","","","Rain,Fog"
"-61.68","56.55","NAIN A","8502801","2019-06-04 13:00","2019","06","04","13:00","1.9","","1.5","","97","","","","9","","34","","17.7","","100.70","","","","","","Rain"
"-61.68","56.55","NAIN A","8502801","2019-06-04 14:00","2019","06","04","14:00","1.2","","0.8","","97","","","","8","","34","","8.1","","100.61","","","","","","Rain,Fog"
"-61.68","56.55","NAIN A","8502801","2019-06-04 15:00","2019","06","04","15:00","1.1","","0.8","","98","","","","8","","20","","9.7","","100.61","","","","","","Rain,Fog"
"-61.68","56.55","NAIN A","8502801","2019-06-04 16:00","2019","06","04","16:00","0.9","","0.6","","98","","","","8","","18","","4.8","","100.60","","","","","","Fog"
"-61.68","56.55","NAIN A","8502801","2019-06-04 17:00","2019","06","04","17:00","0.7","","0.4","","98","","","","8","","16","","0.8","","100.58","","","","","","Fog"
"-61.68","56.55","NAIN A","8502801","2019-06-04 18:00","2019","06","04","18:00","0.5","","0.3","","98","","","","9","","8","","0.4","","100.57","","","","","","Fog"
"-61.68","56.55","NAIN A","8502801","2019-06-04 19:00","2019","06","04","19:00","0.4","","0.2","","98","","","","33","","3","","0.4","","100.52","","","","","","Fog"
"-61.68","56.55","NAIN A","8502801","2019-06-04 20:00","2019","06","04","20:00"
"-61.68","56.55","NAIN A","8502801","2019-06-04 21:00","2019","06","04","21:00"
"-61.68","56.55","NAIN A","8502801","2019-06-04 22:00","2019","06","04","22:00"
"-61.68","56.55","NAIN A","8502801","2019-06-04 23:00","2019","06","04","23:00"
"-61.68","56.55","NAIN A","8502801","2019-06-05 00:00","2019","06","05","00:00"
"-61.68","56.55","NAIN A","8502801","2019-06-05 01:00","2019","06","05","01:00"
"-61.68","56.55","NAIN A","8502801","2019-06-05 02:00","2019","06","05","02:00"
"-61.68","56.55","NAIN A","8502801","2019-06-05 03:00","2019","06","05","03:00"
"-61.68","56.55","NAIN A","8502801","2019-06-05 04:00","2019","06","05","04:00","1.5","","1.3","","99","","","","27","","6","","3.2","","100.21","","","","","","Fog"
"-61.68","56.55","NAIN A","8502801","2019-06-05 05:00","2019","06","05","05:00","1.4","","1.2","","99","","","","36","","1","","2.0","","100.13","","","","","","Fog"
"-61.68","56.55","NAIN A","8502801","2019-06-05 06:00","2019","06","05","06:00","1.2","","1.0","","99","","","","15","","4","","0.8","","100.12","","","","","","Fog"
"-61.68","56.55","NAIN A","8502801","2019-06-05 07:00","2019","06","05","07:00","1.2","","1.0","","98","","","","27","","3","","16.1","","100.07","","","","","","NA"
"-61.68","56.55","NAIN A","8502801","2019-06-05 08:00","2019","06","05","08:00","2.1","","1.9","","99","","","","6","","4","","19.3","","100.05","","","","","","Cloudy"
"-61.68","56.55","NAIN A","8502801","2019-06-05 09:00","2019","06","05","09:00","2.9","","2.7","","99","","","","13","","9","","24.1","","100.01","","","","","","NA"
"-61.68","56.55","NAIN A","8502801","2019-06-05 10:00","2019","06","05","10:00","4.5","","4.0","","96","","","","36","","1","","24.1","","100.01","","","","","","NA"
"-61.68","56.55","NAIN A","8502801","2019-06-05 11:00","2019","06","05","11:00","6.0","","2.8","","80","","","","16","","12","","24.1","","100.00","","","","","","Mostly Cloudy"
"-61.68","56.55","NAIN A","8502801","2019-06-05 12:00","2019","06","05","12:00","5.4","","2.9","","84","","","","12","","22","","24.1","","99.94","","","","","","NA"
"-61.68","56.55","NAIN A","8502801","2019-06-05 13:00","2019","06","05","13:00","7.5","","3.9","","78","","","","12","","22","","24.1","","99.91","","","","","","NA"
"-61.68","56.55","NAIN A","8502801","2019-06-05 14:00","2019","06","05","14:00","5.6","","2.8","","82","","","","11","","21","","24.1","","99.88","","","","","","Mainly Clear"
"-61.68","56.55","NAIN A","8502801","2019-06-05 15:00","2019","06","05","15:00","5.6","","2.6","","81","","","","11","","20","","24.1","","99.87","","","","","","NA"
"-61.68","56.55","NAIN A","8502801","2019-06-05 16:00","2019","06","05","16:00","5.7","","3.0","","83","","","","34","","4","","24.1","","99.87","","","","","","NA"
"-61.68","56.55","NAIN A","8502801","2019-06-05 17:00","2019","06","05","17:00","4.6","","2.0","","83","","","","2","","4","","24.1","","99.88","","","","","","Mostly Cloudy"
"-61.68","56.55","NAIN A","8502801","2019-06-05 18:00","2019","06","05","18:00","3.4","","1.7","","88","","","","7","","9","","24.1","","99.89","","","","","","NA"
"-61.68","56.55","NAIN A","8502801","2019-06-05 19:00","2019","06","05","19:00","2.2","","0.9","","91","","","","36","","2","","24.1","","99.93","","","","","","NA"
"-61.68","56.55","NAIN A","8502801","2019-06-05 20:00","2019","06","05","20:00"
"-61.68","56.55","NAIN A","8502801","2019-06-05 21:00","2019","06","05","21:00"
"-61.68","56.55","NAIN A","8502801","2019-06-05 22:00","2019","06","05","22:00"
"-61.68","56.55","NAIN A","8502801","2019-06-05 23:00","2019","06","05","23:00"
"-61.68","56.55","NAIN A","8502801","2019-06-06 00:00","2019","06","06","00:00"
"-61.68","56.55","NAIN A","8502801","2019-06-06 01:00","2019","06","06","01:00"
"-61.68","56.55","NAIN A","8502801","2019-06-06 02:00","2019","06","06","02:00"
"-61.68","56.55","NAIN A","8502801","2019-06-06 03:00","2019","06","06","03:00"
"-61.68","56.55","NAIN A","8502801","2019-06-06 04:00","2019","06","06","04:00","0.5","","0.1","","97","","","","9","","5","","24.1","","99.99","","","","","","NA"
"-61.68","56.55","NAIN A","8502801","2019-06-06 05:00","2019","06","06","05:00","0.7","","0.3","","97","","","","33","","5","","24.1","","100.02","","","","","","Mostly Cloudy"
"-61.68","56.55","NAIN A","8502801","2019-06-06 06:00","2019","06","06","06:00","1.4","","0.9","","97","","","","28","","3","","24.1","","100.04","","","","","","NA"
"-61.68","56.55","NAIN A","8502801","2019-06-06 07:00","2019","06","06","07:00","1.3","","0.6","","95","","","","6","","4","","24.1","","100.04","","","","","","NA"
"-61.68","56.55","NAIN A","8502801","2019-06-06 08:00","2019","06","06","08:00","2.0","","0.6","","90","","","","3","","5","","24.1","","100.04","","","","","","Mainly Clear"
"-61.68","56.55","NAIN A","8502801","2019-06-06 09:00","2019","06","06","09:00","3.7","","1.6","","86","","","","9","","5","","24.1","","100.02","","","","","","NA"
"-61.68","56.55","NAIN A","8502801","2019-06-06 10:00","2019","06","06","10:00","3.3","","1.0","","85","","","","3","","3","","24.1","","100.03","","","","","","NA"
"-61.68","56.55","NAIN A","8502801","2019-06-06 11:00","2019","06","06","11:00","4.9","","1.9","","81","","","","8","","24","","24.1","","100.02","","","","","","Mostly Cloudy"
"-61.68","56.55","NAIN A","8502801","2019-06-06 12:00","2019","06","06","12:00","4.8","","1.6","","80","","","","8","","11","","24.1","","99.98","","","","","","NA"
"-61.68","56.55","NAIN A","8502801","2019-06-06 13:00","2019","06","06","13:00","4.1","","1.2","","81","","","","7","","15","","24.1","","99.99","","","","","","NA"
"-61.68","56.55","NAIN A","8502801","2019-06-06 14:00","2019","06","06","14:00","6.0","","2.3","","77","","","","6","","4","","24.1","","100.00","","","","","","Mostly Cloudy"
"-61.68","56.55","NAIN A","8502801","2019-06-06 15:00","2019","06","06","15:00","5.3","","1.9","","79","","","","8","","7","","24.1","","100.00","","","","","","NA"
"-61.68","56.55","NAIN A","8502801","2019-06-06 16:00","2019","06","06","16:00","5.0","","1.4","","77","","","","33","","6","","24.1","","100.04","","","","","","NA"
"-61.68","56.55","NAIN A","8502801","2019-06-06 17:00","2019","06","06","17:00","2.7","","0.8","","87","","","","8","","9","","24.1","","100.07","","","","","","Cloudy"
"-61.68","56.55","NAIN A","8502801","2019-06-06 18:00","2019","06","06","18:00","1.9","","1.0","","94","","","","30","","9","","24.1","","100.11","","","","","","Rain Showers"
"-61.68","56.55","NAIN A","8502801","2019-06-06 19:00","2019","06","06","19:00","2.3","","1.6","","96","","","","32","","9","","24.1","","100.10","","","","","","Rain Showers"
"-61.68","56.55","NAIN A","8502801","2019-06-06 20:00","2019","06","06","20:00"
"-61.68","56.55","NAIN A","8502801","2019-06-06 21:00","2019","06","06","21:00"
"-61.68","56.55","NAIN A","8502801","2019-06-06 22:00","2019","06","06","22:00"
"-61.68","56.55","NAIN A","8502801","2019-06-06 23:00","2019","06","06","23:00"
"-61.68","56.55","NAIN A","8502801","2019-06-07 00:00","2019","06","07","00:00"
"-61.68","56.55","NAIN A","8502801","2019-06-07 01:00","2019","06","07","01:00"
"-61.68","56.55","NAIN A","8502801","2019-06-07 02:00","2019","06","07","02:00"
"-61.68","56.55","NAIN A","8502801","2019-06-07 03:00","2019","06","07","03:00"
"-61.68","56.55","NAIN A","8502801","2019-06-07 04:00","2019","06","07","04:00","0.4","","0.1","","98","","","","36","","2","","24.1","","100.24","","","","","","NA"
"-61.68","56.55","NAIN A","8502801","2019-06-07 05:00","2019","06","07","05:00","0.9","","0.6","","98","","","","28","","7","","20.9","","100.26","","","","","","Cloudy"
"-61.68","56.55","NAIN A","8502801","2019-06-07 06:00","2019","06","07","06:00","1.9","","1.6","","98","","","","19","","5","","24.1","","100.29","","","","","","NA"
"-61.68","56.55","NAIN A","8502801","2019-06-07 07:00","2019","06","07","07:00","0.9","","0.6","","98","","","","8","","12","","24.1","","100.33","","","","","","NA"
"-61.68","56.55","NAIN A","8502801","2019-06-07 08:00","2019","06","07","08:00","2.6","","2.2","","97","","","","32","","3","","24.1","","100.34","","","","","","Cloudy"
"-61.68","56.55","NAIN A","8502801","2019-06-07 09:00","2019","06","07","09:00","3.5","","2.8","","95","","","","16","","5","","24.1","","100.37","","","","","","NA"
"-61.68","56.55","NAIN A","8502801","2019-06-07 10:00","2019","06","07","10:00","2.0","","1.1","","94","","","","10","","7","","24.1","","100.39","","","","","","NA"
"-61.68","56.55","NAIN A","8502801","2019-06-07 11:00","2019","06","07","11:00","2.1","","1.0","","92","","","","7","","9","","24.1","","100.40","","","","","","Cloudy"
"-61.68","56.55","NAIN A","8502801","2019-06-07 12:00","2019","06","07","12:00","2.9","","1.8","","93","","","","9","","7","","24.1","","100.41","","","","","","NA"
"-61.68","56.55","NAIN A","8502801","2019-06-07 13:00","2019","06","07","13:00","4.0","","2.1","","87","","","","12","","4","","24.1","","100.41","","","","","","NA"
"-61.68","56.55","NAIN A","8502801","2019-06-07 14:00","2019","06","07","14:00","5.0","","2.7","","85","","","","9","","14","","24.1","","100.44","","","","","","Mostly Cloudy"
"-61.68","56.55","NAIN A","8502801","2019-06-07 15:00","2019","06","07","15:00","4.7","","2.4","","85","","","","8","","23","","24.1","","100.47","","","","","","NA"
"-61.68","56.55","NAIN A","8502801","2019-06-07 16:00","2019","06","07","16:00","5.5","","3.1","","84","","","","9","","13","","24.1","","100.50","","","","","","NA"
"-61.68","56.55","NAIN A","8502801","2019-06-07 17:00","2019","06","07","17:00","4.0","","1.6","","85","","","","7","","6","","24.1","","100.54","","","","","","Mostly Cloudy"
"-61.68","56.55","NAIN A","8502801","2019-06-07 18:00","2019","06","07","18:00","3.4","","1.4","","87","","","","8","","25","","24.1","","100.60","","","","","","NA"
"-61.68","56.55","NAIN A","8502801","2019-06-07 19:00","2019","06","07","19:00","2.6","","1.1","","90","","","","8","","21","","24.1","","100.66","","","","","","NA"
"-61.68","56.55","NAIN A","8502801","2019-06-07 20:00","2019","06","07","20:00"
"-61.68","56.55","NAIN A","8502801","2019-06-07 21:00","2019","06","07","21:00"
"-61.68","56.55","NAIN A","8502801","2019-06-07 22:00","2019","06","07","22:00"
"-61.68","56.55","NAIN A","8502801","2019-06-07 23:00","2019","06","07","23:00"
"-61.68","56.55","NAIN A","8502801","2019-06-08 00:00","2019","06","08","00:00"
"-61.68","56.55","NAIN A","8502801","2019-06-08 01:00","2019","06","08","01:00"
"-61.68","56.55","NAIN A","8502801","2019-06-08 02:00","2019","06","08","02:00"
"-61.68","56.55","NAIN A","8502801","2019-06-08 03:00","2019","06","08","03:00"
"-61.68","56.55","NAIN A","8502801","2019-06-08 04:00","2019","06","08","04:00","3.6","","1.5","","86","","","","33","","16","","24.1","","100.97","","","","","","NA"
"-61.68","56.55","NAIN A","8502801","2019-06-08 05:00","2019","06","08","05:00","4.0","","1.4","","83","","","","31","","19","","24.1","","101.01","","","","","","Cloudy"
"-61.68","56.55","NAIN A","8502801","2019-06-08 06:00","2019","06","08","06:00","4.9","","1.5","","79","","","","32","","21","","24.1","","101.06","","","","","","NA"
"-61.68","56.55","NAIN A","8502801","2019-06-08 07:00","2019","06","08","07:00","5.2","","1.7","","78","","","","32","","20","","24.1","","101.12","","","","","","NA"
"-61.68","56.55","NAIN A","8502801","2019-06-08 08:00","2019","06","08","08:00","4.8","","1.4","","79","","","","33","","13","","24.1","","101.16","","","","","","Cloudy"
"-61.68","56.55","NAIN A","8502801","2019-06-08 09:00","2019","06","08","09:00","6.1","","2.0","","75","","","","31","","24","","24.1","","101.18","","","","","","NA"
"-61.68","56.55","NAIN A","8502801","2019-06-08 10:00","2019","06","08","10:00","5.2","","1.8","","79","","","","34","","14","","24.1","","101.22","","","","","","NA"
"-61.68","56.55","NAIN A","8502801","2019-06-08 11:00","2019","06","08","11:00","6.4","","2.2","","74","","","","35","","4","","24.1","","101.25","","","","","","Cloudy"
"-61.68","56.55","NAIN A","8502801","2019-06-08 12:00","2019","06","08","12:00","7.2","","2.4","","71","","","","12","","5","","24.1","","101.25","","","","","","NA"
"-61.68","56.55","NAIN A","8502801","2019-06-08 13:00","2019","06","08","13:00","8.6","","3.5","","70","","","","9","","7","","24.1","","101.25","","","","","","NA"
"-61.68","56.55","NAIN A","8502801","2019-06-08 14:00","2019","06","08","14:00","4.4","","2.5","","87","","","","34","","13","","24.1","","101.33","","","","","","Rain Showers"
"-61.68","56.55","NAIN A","8502801","2019-06-08 15:00","2019","06","08","15:00","3.6","","1.4","","85","","","","33","","17","","24.1","","101.38","","","","","","Rain Showers"
"-61.68","56.55","NAIN A","8502801","2019-06-08 16:00","2019","06","08","16:00","5.1","","2.1","","81","","","","31","","15","","24.1","","101.46","","","","","","Rain Showers"
"-61.68","56.55","NAIN A","8502801","2019-06-08 17:00","2019","06","08","17:00","4.6","","1.6","","81","","","","33","","28","","24.1","","101.52","","","","","","Rain Showers"
"-61.68","56.55","NAIN A","8502801","2019-06-08 18:00","2019","06","08","18:00","4.5","","1.7","","82","","","","32","","30","","24.1","","101.58","","","","","","NA"
"-61.68","56.55","NAIN A","8502801","2019-06-08 19:00","2019","06","08","19:00","4.1","","1.4","","83","","","","31","","26","","24.1","","101.64","","","","","","Rain Showers"
"-61.68","56.55","NAIN A","8502801","2019-06-08 20:00","2019","06","08","20:00"
"-61.68","56.55","NAIN A","8502801","2019-06-08 21:00","2019","06","08","21:00"
"-61.68","56.55","NAIN A","8502801","2019-06-08 22:00","2019","06","08","22:00"
"-61.68","56.55","NAIN A","8502801","2019-06-08 23:00","2019","06","08","23:00"
"-61.68","56.55","NAIN A","8502801","2019-06-09 00:00","2019","06","09","00:00"
"-61.68","56.55","NAIN A","8502801","2019-06-09 01:00","2019","06","09","01:00"
"-61.68","56.55","NAIN A","8502801","2019-06-09 02:00","2019","06","09","02:00"
"-61.68","56.55","NAIN A","8502801","2019-06-09 03:00","2019","06","09","03:00"
"-61.68","56.55","NAIN A","8502801","2019-06-09 04:00","2019","06","09","04:00","3.8","","1.3","","84","","","","33","","40","","24.1","","102.05","","","","","","NA"
"-61.68","56.55","NAIN A","8502801","2019-06-09 05:00","2019","06","09","05:00","3.6","","1.0","","83","","","","33","","31","","24.1","","102.11","","","","","","Cloudy"
"-61.68","56.55","NAIN A","8502801","2019-06-09 06:00","2019","06","09","06:00","3.9","","1.1","","82","","","","31","","36","","24.1","","102.19","","","","","","NA"
"-61.68","56.55","NAIN A","8502801","2019-06-09 07:00","2019","06","09","07:00","3.8","","1.0","","82","","","","33","","25","","24.1","","102.27","","","","","","NA"
"-61.68","56.55","NAIN A","8502801","2019-06-09 08:00","2019","06","09","08:00","5.1","","1.5","","78","","","","33","","23","","24.1","","102.33","","","","","","Cloudy"
"-61.68","56.55","NAIN A","8502801","2019-06-09 09:00","2019","06","09","09:00","5.3","","1.8","","78","","","","32","","24","","24.1","","102.37","","","","","","NA"
"-61.68","56.55","NAIN A","8502801","2019-06-09 10:00","2019","06","09","10:00","5.4","","1.8","","77","","","","33","","21","","24.1","","102.42","","","","","","NA"
"-61.68","56.55","NAIN A","8502801","2019-06-09 11:00","2019","06","09","11:00","4.1","","1.8","","85","","","","34","","13","","24.1","","102.48","","","","","","Rain Showers"
"-61.68","56.55","NAIN A","8502801","2019-06-09 12:00","2019","06","09","12:00","3.7","","1.9","","88","","","","36","","21","","19.3","","102.51","","","","","","Rain Showers"
"-61.68","56.55","NAIN A","8502801","2019-06-09 13:00","2019","06","09","13:00","4.6","","2.2","","84","","","","33","","14","","24.1","","102.57","","","","","","Rain Showers"
"-61.68","56.55","NAIN A","8502801","2019-06-09 14:00","2019","06","09","14:00","5.7","","2.1","","78","","","","2","","27","","24.1","","102.59","","","","","","Mostly Cloudy"
"-61.68","56.55","NAIN A","8502801","2019-06-09 15:00","2019","06","09","15:00","5.6","","2.3","","79","","","","3","","23","","24.1","","102.62","","","","","","NA"
"-61.68","56.55","NAIN A","8502801","2019-06-09 16:00","2019","06","09","16:00","7.0","","2.8","","74","","","","34","","8","","24.1","","102.64","","","","","","NA"
"-61.68","56.55","NAIN A","8502801","2019-06-09 17:00","2019","06","09","17:00","5.5","","1.8","","77","","","","4","","15","","24.1","","102.67","","","","","","Cloudy"
"-61.68","56.55","NAIN A","8502801","2019-06-09 18:00","2019","06","09","18:00","5.1","","1.5","","77","","","","34","","5","","24.1","","102.72","","","","","","NA"
"-61.68","56.55","NAIN A","8502801","2019-06-09 19:00","2019","06","09","19:00","6.7","","2.0","","72","","","","36","","1","","24.1","","102.77","","","","","","NA"
"-61.68","56.55","NAIN A","8502801","2019-06-09 20:00","2019","06","09","20:00"
"-61.68","56.55","NAIN A","8502801","2019-06-09 21:00","2019","06","09","21:00"
"-61.68","56.55","NAIN A","8502801","2019-06-09 22:00","2019","06","09","22:00"
"-61.68","56.55","NAIN A","8502801","2019-06-09 23:00","2019","06","09","23:00"
"-61.68","56.55","NAIN A","8502801","2019-06-10 00:00","2019","06","10","00:00"
"-61.68","56.55","NAIN A","8502801","2019-06-10 01:00","2019","06","10","01:00"
"-61.68","56.55","NAIN A","8502801","2019-06-10 02:00","2019","06","10","02:00"
"-61.68","56.55","NAIN A","8502801","2019-06-10 03:00","2019","06","10","03:00"
"-61.68","56.55","NAIN A","8502801","2019-06-10 04:00","2019","06","10","04:00","-0.2","","-0.5","","98","","","","0","","1","","0.4","","102.79","","","","-1","","Freezing Fog"
"-61.68","56.55","NAIN A","8502801","2019-06-10 05:00","2019","06","10","05:00","-0.8","","-1.0","","98","","","","33","","3","","0.8","","102.78","","","","-2","","Mainly Clear"
"-61.68","56.55","NAIN A","8502801","2019-06-10 06:00","2019","06","10","06:00","-0.8","","-1.0","","98","","","","2","","4","","0.8","","102.76","","","","-2","","NA"
"-61.68","56.55","NAIN A","8502801","2019-06-10 07:00","2019","06","10","07:00","0.0","","-0.2","","98","","","","5","","3","","24.1","","102.70","","","","-1","","NA"
"-61.68","56.55","NAIN A","8502801","2019-06-10 08:00","2019","06","10","08:00","1.8","","1.3","","96","","","","4","","4","","24.1","","102.63","","","","","","Clear"
"-61.68","56.55","NAIN A","8502801","2019-06-10 09:00","2019","06","10","09:00","4.5","","3.2","","92","","","","12","","5","","24.1","","102.59","","","","","","NA"
"-61.68","56.55","NAIN A","8502801","2019-06-10 10:00","2019","06","10","10:00","6.8","","2.6","","74","","","","12","","5","","24.1","","102.50","","","","","","NA"
"-61.68","56.55","NAIN A","8502801","2019-06-10 11:00","2019","06","10","11:00","9.9","","3.7","","65","","","","13","","6","","24.1","","102.43","","","","","","Clear"
"-61.68","56.55","NAIN A","8502801","2019-06-10 12:00","2019","06","10","12:00","7.0","","1.9","","70","","","","9","","7","","24.1","","102.35","","","","","","NA"
"-61.68","56.55","NAIN A","8502801","2019-06-10 13:00","2019","06","10","13:00","9.7","","2.8","","62","","","","36","","3","","24.1","","102.24","","","","","","NA"
"-61.68","56.55","NAIN A","8502801","2019-06-10 14:00","2019","06","10","14:00","8.0","","2.8","","69","","","","9","","27","","24.1","","102.18","","","","","","Clear"
"-61.68","56.55","NAIN A","8502801","2019-06-10 15:00","2019","06","10","15:00","6.8","","2.5","","74","","","","9","","23","","24.1","","102.14","","","","","","NA"
"-61.68","56.55","NAIN A","8502801","2019-06-10 16:00","2019","06","10","16:00","7.1","","2.1","","70","","","","8","","24","","24.1","","102.10","","","","","","NA"
"-61.68","56.55","NAIN A","8502801","2019-06-10 17:00","2019","06","10","17:00","6.3","","1.7","","72","","","","7","","13","","24.1","","102.07","","","","","","Clear"
"-61.68","56.55","NAIN A","8502801","2019-06-10 18:00","2019","06","10","18:00","6.6","","1.4","","69","","","","8","","19","","24.1","","102.02","","","","","","NA"
"-61.68","56.55","NAIN A","8502801","2019-06-10 19:00","2019","06","10","19:00","4.9","","1.1","","76","","","","9","","23","","24.1","","102.00","","","","","","NA"
"-61.68","56.55","NAIN A","8502801","2019-06-10 20:00","2019","06","10","20:00"
"-61.68","56.55","NAIN A","8502801","2019-06-10 21:00","2019","06","10","21:00"
"-61.68","56.55","NAIN A","8502801","2019-06-10 22:00","2019","06","10","22:00"
"-61.68","56.55","NAIN A","8502801","2019-06-10 23:00","2019","06","10","23:00"
"-61.68","56.55","NAIN A","8502801","2019-06-11 00:00","2019","06","11","00:00"
"-61.68","56.55","NAIN A","8502801","2019-06-11 01:00","2019","06","11","01:00"
"-61.68","56.55","NAIN A","8502801","2019-06-11 02:00","2019","06","11","02:00"
"-61.68","56.55","NAIN A","8502801","2019-06-11 03:00","2019","06","11","03:00"
"-61.68","56.55","NAIN A","8502801","2019-06-11 04:00","2019","06","11","04:00","0.2","","-0.7","","94","","","","36","","3","","24.1","","101.59","","","","","","NA"
"-61.68","56.55","NAIN A","8502801","2019-06-11 05:00","2019","06","11","05:00","0.7","","-0.2","","93","","","","29","","4","","24.1","","101.57","","","","","","Clear"
"-61.68","56.55","NAIN A","8502801","2019-06-11 06:00","2019","06","11","06:00","1.8","","0.2","","89","","","","36","","3","","24.1","","101.52","","","","","","NA"
"-61.68","56.55","NAIN A","8502801","2019-06-11 07:00","2019","06","11","07:00","2.8","","0.5","","85","","","","36","","2","","24.1","","101.47","","","","","","NA"
"-61.68","56.55","NAIN A","8502801","2019-06-11 08:00","2019","06","11","08:00","5.5","","1.0","","73","","","","36","","3","","24.1","","101.40","","","","","","Clear"
"-61.68","56.55","NAIN A","8502801","2019-06-11 09:00","2019","06","11","09:00","7.1","","2.0","","70","","","","16","","5","","24.1","","101.32","","","","","","NA"
"-61.68","56.55","NAIN A","8502801","2019-06-11 10:00","2019","06","11","10:00","7.6","","2.8","","72","","","","10","","5","","24.1","","101.24","","","","","","NA"
"-61.68","56.55","NAIN A","8502801","2019-06-11 11:00","2019","06","11","11:00","6.3","","2.6","","77","","","","8","","22","","24.1","","101.15","","","","","","Clear"
"-61.68","56.55","NAIN A","8502801","2019-06-11 12:00","2019","06","11","12:00","6.5","","2.7","","77","","","","7","","20","","24.1","","101.05","","","","","","NA"
"-61.68","56.55","NAIN A","8502801","2019-06-11 13:00","2019","06","11","13:00","4.8","","1.5","","79","","","","7","","24","","24.1","","100.95","","","","","","NA"
"-61.68","56.55","NAIN A","8502801","2019-06-11 14:00","2019","06","11","14:00","6.1","","2.1","","75","","","","7","","30","","24.1","","100.87","","","","","","Clear"
"-61.68","56.55","NAIN A","8502801","2019-06-11 15:00","2019","06","11","15:00","5.8","","2.0","","77","","","","9","","33","","24.1","","100.86","","","","","","NA"
"-61.68","56.55","NAIN A","8502801","2019-06-11 16:00","2019","06","11","16:00","4.8","","-1.0","","66","","","","8","","31","","24.1","","100.82","","","","","","NA"
"-61.68","56.55","NAIN A","8502801","2019-06-11 17:00","2019","06","11","17:00","4.0","","-1.4","","68","","","","9","","31","","24.1","","100.79","","","","","","Mostly Cloudy"
"-61.68","56.55","NAIN A","8502801","2019-06-11 18:00","2019","06","11","18:00","4.4","","-1.8","","64","","","","8","","22","","24.1","","100.77","","","","","","NA"
"-61.68","56.55","NAIN A","8502801","2019-06-11 19:00","2019","06","11","19:00","4.4","","-1.3","","66","","","","9","","24","","24.1","","100.77","","","","","","NA"
"-61.68","56.55","NAIN A","8502801","2019-06-11 20:00","2019","06","11","20:00"
"-61.68","56.55","NAIN A","8502801","2019-06-11 21:00","2019","06","11","21:00"
"-61.68","56.55","NAIN A","8502801","2019-06-11 22:00","2019","06","11","22:00"
"-61.68","56.55","NAIN A","8502801","2019-06-11 23:00","2019","06","11","23:00"
"-61.68","56.55","NAIN A","8502801","2019-06-12 00:00","2019","06","12","00:00"
"-61.68","56.55","NAIN A","8502801","2019-06-12 01:00","2019","06","12","01:00"
"-61.68","56.55","NAIN A","8502801","2019-06-12 02:00","2019","06","12","02:00"
"-61.68","56.55","NAIN A","8502801","2019-06-12 03:00","2019","06","12","03:00"
"-61.68","56.55","NAIN A","8502801","2019-06-12 04:00","2019","06","12","04:00","0.6","","0.4","","98","","","","9","","26","","1.6","","100.49","","","","","","Fog"
"-61.68","56.55","NAIN A","8502801","2019-06-12 05:00","2019","06","12","05:00","0.7","","0.4","","98","","","","9","","25","","1.6","","100.45","","","","","","Drizzle,Fog"
"-61.68","56.55","NAIN A","8502801","2019-06-12 06:00","2019","06","12","06:00","0.5","","0.2","","98","","","","9","","25","","2.0","","100.41","","","","","","Rain,Drizzle,Fog"
"-61.68","56.55","NAIN A","8502801","2019-06-12 07:00","2019","06","12","07:00","0.5","","0.2","","98","","","","9","","24","","2.0","","100.41","","","","","","Rain Showers,Drizzle,Fog"
"-61.68","56.55","NAIN A","8502801","2019-06-12 08:00","2019","06","12","08:00","0.4","","0.2","","98","","","","9","","24","","4.8","","100.38","","","","","","Rain Showers,Snow Grains,Fog"
"-61.68","56.55","NAIN A","8502801","2019-06-12 09:00","2019","06","12","09:00","0.6","","0.4","","98","","","","8","","22","","1.6","","100.31","","","","","","Rain Showers,Snow Pellets,Hail,Fog"
"-61.68","56.55","NAIN A","8502801","2019-06-12 10:00","2019","06","12","10:00","0.5","","0.3","","98","","","","9","","29","","4.8","","100.25","","","","","","Fog"
"-61.68","56.55","NAIN A","8502801","2019-06-12 11:00","2019","06","12","11:00","0.8","","0.5","","98","","","","9","","30","","8.1","","100.23","","","","","","Snow Pellets,Fog"
"-61.68","56.55","NAIN A","8502801","2019-06-12 12:00","2019","06","12","12:00","1.0","","0.4","","96","","","","8","","28","","24.1","","100.18","","","","","","NA"
"-61.68","56.55","NAIN A","8502801","2019-06-12 13:00","2019","06","12","13:00","1.3","","0.4","","94","","","","10","","25","","24.1","","100.21","","","","","","NA"
"-61.68","56.55","NAIN A","8502801","2019-06-12 14:00","2019","06","12","14:00","0.9","","-0.2","","93","","","","9","","19","","24.1","","100.19","","","","","","Cloudy"
"-61.68","56.55","NAIN A","8502801","2019-06-12 15:00","2019","06","12","15:00","0.9","","-0.1","","93","","","","7","","12","","24.1","","100.19","","","","","","NA"
"-61.68","56.55","NAIN A","8502801","2019-06-12 16:00","2019","06","12","16:00","1.4","","0.2","","92","","","","6","","19","","24.1","","100.20","","","","","","NA"
"-61.68","56.55","NAIN A","8502801","2019-06-12 17:00","2019","06","12","17:00","1.4","","0.5","","93","","","","6","","16","","24.1","","100.22","","","","","","Cloudy"
"-61.68","56.55","NAIN A","8502801","2019-06-12 18:00","2019","06","12","18:00","1.3","","0.7","","95","","","","5","","18","","24.1","","100.27","","","","","","NA"
"-61.68","56.55","NAIN A","8502801","2019-06-12 19:00","2019","06","12","19:00","1.2","","0.6","","96","","","","4","","10","","24.1","","100.32","","","","","","NA"
"-61.68","56.55","NAIN A","8502801","2019-06-12 20:00","2019","06","12","20:00"
"-61.68","56.55","NAIN A","8502801","2019-06-12 21:00","2019","06","12","21:00"
"-61.68","56.55","NAIN A","8502801","2019-06-12 22:00","2019","06","12","22:00"
"-61.68","56.55","NAIN A","8502801","2019-06-12 23:00","2019","06","12","23:00"
"-61.68","56.55","NAIN A","8502801","2019-06-13 00:00","2019","06","13","00:00"
"-61.68","56.55","NAIN A","8502801","2019-06-13 01:00","2019","06","13","01:00"
"-61.68","56.55","NAIN A","8502801","2019-06-13 02:00","2019","06","13","02:00"
"-61.68","56.55","NAIN A","8502801","2019-06-13 03:00","2019","06","13","03:00"
"-61.68","56.55","NAIN A","8502801","2019-06-13 04:00","2019","06","13","04:00","3.5","","2.0","","90","","","","28","","14","","24.1","","100.97","","","","","","Rain Showers"
"-61.68","56.55","NAIN A","8502801","2019-06-13 05:00","2019","06","13","05:00","3.4","","1.4","","87","","","","29","","12","","24.1","","101.07","","","","","","Cloudy"
"-61.68","56.55","NAIN A","8502801","2019-06-13 06:00","2019","06","13","06:00","5.1","","2.5","","83","","","","28","","13","","24.1","","101.16","","","","","","Rain Showers"
"-61.68","56.55","NAIN A","8502801","2019-06-13 07:00","2019","06","13","07:00","5.8","","1.6","","75","","","","29","","25","","24.1","","101.24","","","","","","NA"
"-61.68","56.55","NAIN A","8502801","2019-06-13 08:00","2019","06","13","08:00","7.0","","1.2","","66","","","","30","","32","","24.1","","101.31","","","","","","Mostly Cloudy"
"-61.68","56.55","NAIN A","8502801","2019-06-13 09:00","2019","06","13","09:00","7.6","","1.1","","63","","","","30","","30","","24.1","","101.40","","","","","","NA"
"-61.68","56.55","NAIN A","8502801","2019-06-13 10:00","2019","06","13","10:00","9.2","","1.3","","58","","","","30","","23","","24.1","","101.46","","","","","","NA"
"-61.68","56.55","NAIN A","8502801","2019-06-13 11:00","2019","06","13","11:00","10.6","","1.4","","53","","","","29","","26","","24.1","","101.53","","","","","","Mostly Cloudy"
"-61.68","56.55","NAIN A","8502801","2019-06-13 12:00","2019","06","13","12:00","11.1","","1.8","","53","","","","32","","24","","24.1","","101.59","","","","","","NA"
"-61.68","56.55","NAIN A","8502801","2019-06-13 13:00","2019","06","13","13:00","11.7","","1.7","","50","","","","34","","19","","24.1","","101.64","","","","","","NA"
"-61.68","56.55","NAIN A","8502801","2019-06-13 14:00","2019","06","13","14:00","13.0","","1.8","","46","","","","36","","13","","24.1","","101.67","","","","","","Clear"
"-61.68","56.55","NAIN A","8502801","2019-06-13 15:00","2019","06","13","15:00","12.9","","1.6","","46","","","","8","","7","","24.1","","101.72","","","","","","NA"
"-61.68","56.55","NAIN A","8502801","2019-06-13 16:00","2019","06","13","16:00","12.9","","2.6","","49","","","","10","","11","","24.1","","101.78","","","","","","NA"
"-61.68","56.55","NAIN A","8502801","2019-06-13 17:00","2019","06","13","17:00","5.8","","1.4","","73","","","","35","","7","","24.1","","101.87","","","","","","Clear"
"-61.68","56.55","NAIN A","8502801","2019-06-13 18:00","2019","06","13","18:00","8.4","","1.7","","63","","","","11","","20","","24.1","","101.90","","","","","","NA"
"-61.68","56.55","NAIN A","8502801","2019-06-13 19:00","2019","06","13","19:00","6.8","","1.1","","67","","","","9","","21","","24.1","","102.01","","","","","","NA"
"-61.68","56.55","NAIN A","8502801","2019-06-13 20:00","2019","06","13","20:00"
"-61.68","56.55","NAIN A","8502801","2019-06-13 21:00","2019","06","13","21:00"
"-61.68","56.55","NAIN A","8502801","2019-06-13 22:00","2019","06","13","22:00"
"-61.68","56.55","NAIN A","8502801","2019-06-13 23:00","2019","06","13","23:00"
"-61.68","56.55","NAIN A","8502801","2019-06-14 00:00","2019","06","14","00:00"
"-61.68","56.55","NAIN A","8502801","2019-06-14 01:00","2019","06","14","01:00"
"-61.68","56.55","NAIN A","8502801","2019-06-14 02:00","2019","06","14","02:00"
"-61.68","56.55","NAIN A","8502801","2019-06-14 03:00","2019","06","14","03:00"
"-61.68","56.55","NAIN A","8502801","2019-06-14 04:00","2019","06","14","04:00","1.4","","0.4","","93","","","","20","","7","","24.1","","102.32","","","","","","NA"
"-61.68","56.55","NAIN A","8502801","2019-06-14 05:00","2019","06","14","05:00","0.9","","-0.3","","92","","","","13","","4","","24.1","","102.32","","","","","","Mostly Cloudy"
"-61.68","56.55","NAIN A","8502801","2019-06-14 06:00","2019","06","14","06:00","1.0","","-0.3","","91","","","","9","","7","","24.1","","102.31","","","","","","NA"
"-61.68","56.55","NAIN A","8502801","2019-06-14 07:00","2019","06","14","07:00","1.3","","-0.2","","90","","","","9","","14","","24.1","","102.31","","","","","","NA"
"-61.68","56.55","NAIN A","8502801","2019-06-14 08:00","2019","06","14","08:00","1.2","","0.4","","95","","","","8","","26","","14.5","","102.31","","","","","","Cloudy"
"-61.68","56.55","NAIN A","8502801","2019-06-14 09:00","2019","06","14","09:00","2.0","","1.1","","94","","","","7","","17","","16.1","","102.30","","","","","","Drizzle"
"-61.68","56.55","NAIN A","8502801","2019-06-14 10:00","2019","06","14","10:00","2.5","","1.5","","94","","","","8","","20","","16.1","","102.26","","","","","","Drizzle"
"-61.68","56.55","NAIN A","8502801","2019-06-14 11:00","2019","06","14","11:00","2.0","","1.4","","96","","","","8","","27","","12.9","","102.25","","","","","","Drizzle"
"-61.68","56.55","NAIN A","8502801","2019-06-14 12:00","2019","06","14","12:00","1.8","","1.2","","96","","","","7","","26","","11.3","","102.22","","","","","","Drizzle"
"-61.68","56.55","NAIN A","8502801","2019-06-14 13:00","2019","06","14","13:00","2.4","","1.8","","96","","","","9","","29","","12.9","","102.14","","","","","","Drizzle"
"-61.68","56.55","NAIN A","8502801","2019-06-14 14:00","2019","06","14","14:00","2.0","","1.4","","96","","","","7","","23","","14.5","","102.14","","","","","","Drizzle"
"-61.68","56.55","NAIN A","8502801","2019-06-14 15:00","2019","06","14","15:00","1.9","","1.4","","96","","","","8","","27","","24.1","","102.10","","","","","","NA"
"-61.68","56.55","NAIN A","8502801","2019-06-14 16:00","2019","06","14","16:00","1.7","","1.0","","95","","","","7","","29","","24.1","","102.07","","","","","","NA"
"-61.68","56.55","NAIN A","8502801","2019-06-14 17:00","2019","06","14","17:00","1.6","","1.1","","97","","","","6","","20","","2.4","","101.99","","","","","","Fog"
"-61.68","56.55","NAIN A","8502801","2019-06-14 18:00","2019","06","14","18:00","1.9","","1.4","","97","","","","8","","28","","14.5","","101.97","","","","","","NA"
"-61.68","56.55","NAIN A","8502801","2019-06-14 19:00","2019","06","14","19:00","1.5","","1.1","","97","","","","10","","29","","1.6","","101.96","","","","","","Fog"
"-61.68","56.55","NAIN A","8502801","2019-06-14 20:00","2019","06","14","20:00"
"-61.68","56.55","NAIN A","8502801","2019-06-14 21:00","2019","06","14","21:00"
"-61.68","56.55","NAIN A","8502801","2019-06-14 22:00","2019","06","14","22:00"
"-61.68","56.55","NAIN A","8502801","2019-06-14 23:00","2019","06","14","23:00"
"-61.68","56.55","NAIN A","8502801","2019-06-15 00:00","2019","06","15","00:00"
"-61.68","56.55","NAIN A","8502801","2019-06-15 01:00","2019","06","15","01:00"
"-61.68","56.55","NAIN A","8502801","2019-06-15 02:00","2019","06","15","02:00"
"-61.68","56.55","NAIN A","8502801","2019-06-15 03:00","2019","06","15","03:00"
"-61.68","56.55","NAIN A","8502801","2019-06-15 04:00","2019","06","15","04:00","0.6","","0.4","","98","","","","7","","16","","0.4","","101.53","","","","","","Drizzle,Fog"
"-61.68","56.55","NAIN A","8502801","2019-06-15 05:00","2019","06","15","05:00","0.7","","0.5","","99","","","","6","","16","","0.4","","101.50","","","","","","Drizzle,Fog"
"-61.68","56.55","NAIN A","8502801","2019-06-15 06:00","2019","06","15","06:00","0.7","","0.5","","99","","","","6","","9","","0.6","","101.52","","","","","","Rain Showers,Fog"
"-61.68","56.55","NAIN A","8502801","2019-06-15 07:00","2019","06","15","07:00","0.6","","0.4","","99","","","","7","","9","","1.2","","101.51","","","","","","Rain Showers,Fog"
"-61.68","56.55","NAIN A","8502801","2019-06-15 08:00","2019","06","15","08:00","1.1","","0.9","","99","","","","7","","9","","6.4","","101.47","","","","","","Rain Showers,Fog"
"-61.68","56.55","NAIN A","8502801","2019-06-15 09:00","2019","06","15","09:00","1.2","","1.0","","99","","","","8","","10","","24.1","","101.45","","","","","","Rain Showers"
"-61.68","56.55","NAIN A","8502801","2019-06-15 10:00","2019","06","15","10:00","1.1","","1.0","","99","","","","7","","16","","24.1","","101.43","","","","","","NA"
"-61.68","56.55","NAIN A","8502801","2019-06-15 11:00","2019","06","15","11:00","1.7","","1.4","","98","","","","7","","7","","24.1","","101.44","","","","","","Cloudy"
"-61.68","56.55","NAIN A","8502801","2019-06-15 12:00","2019","06","15","12:00","1.4","","1.1","","98","","","","8","","13","","24.1","","101.36","","","","","","NA"
"-61.68","56.55","NAIN A","8502801","2019-06-15 13:00","2019","06","15","13:00","2.0","","1.5","","97","","","","7","","12","","24.1","","101.28","","","","","","NA"
"-61.68","56.55","NAIN A","8502801","2019-06-15 14:00","2019","06","15","14:00","1.8","","1.0","","95","","","","7","","20","","24.1","","101.31","","","","","","Cloudy"
"-61.68","56.55","NAIN A","8502801","2019-06-15 15:00","2019","06","15","15:00","1.8","","1.0","","94","","","","8","","16","","24.1","","101.30","","","","","","NA"
"-61.68","56.55","NAIN A","8502801","2019-06-15 16:00","2019","06","15","16:00","1.4","","0.8","","96","","","","8","","11","","17.7","","101.27","","","","","","Rain Showers"
"-61.68","56.55","NAIN A","8502801","2019-06-15 17:00","2019","06","15","17:00","1.2","","0.9","","98","","","","7","","20","","2.4","","101.27","","","","","","Rain Showers,Fog"
"-61.68","56.55","NAIN A","8502801","2019-06-15 18:00","2019","06","15","18:00","1.2","","0.9","","98","","","","6","","9","","4.8","","101.23","","","","","","Rain Showers,Fog"
"-61.68","56.55","NAIN A","8502801","2019-06-15 19:00","2019","06","15","19:00","1.0","","0.8","","98","","","","6","","11","","0.8","","101.21","","","","","","Rain Showers,Fog"
"-61.68","56.55","NAIN A","8502801","2019-06-15 20:00","2019","06","15","20:00"
"-61.68","56.55","NAIN A","8502801","2019-06-15 21:00","2019","06","15","21:00"
"-61.68","56.55","NAIN A","8502801","2019-06-15 22:00","2019","06","15","22:00"
"-61.68","56.55","NAIN A","8502801","2019-06-15 23:00","2019","06","15","23:00"
"-61.68","56.55","NAIN A","8502801","2019-06-16 00:00","2019","06","16","00:00"
"-61.68","56.55","NAIN A","8502801","2019-06-16 01:00","2019","06","16","01:00"
"-61.68","56.55","NAIN A","8502801","2019-06-16 02:00","2019","06","16","02:00"
"-61.68","56.55","NAIN A","8502801","2019-06-16 03:00","2019","06","16","03:00"
"-61.68","56.55","NAIN A","8502801","2019-06-16 04:00","2019","06","16","04:00","1.6","","1.4","","99","","","","31","","7","","0.4","","101.15","","","","","","Fog"
"-61.68","56.55","NAIN A","8502801","2019-06-16 05:00","2019","06","16","05:00","1.4","","1.2","","99","","","","36","","3","","0.4","","101.17","","","","","","Fog"
"-61.68","56.55","NAIN A","8502801","2019-06-16 06:00","2019","06","16","06:00","1.7","","1.5","","99","","","","1","","7","","2.0","","101.15","","","","","","Fog"
"-61.68","56.55","NAIN A","8502801","2019-06-16 07:00","2019","06","16","07:00","1.4","","1.2","","99","","","","7","","7","","4.8","","101.19","","","","","","Fog"
"-61.68","56.55","NAIN A","8502801","2019-06-16 08:00","2019","06","16","08:00","1.6","","1.4","","99","","","","6","","16","","4.8","","101.19","","","","","","Fog"
"-61.68","56.55","NAIN A","8502801","2019-06-16 09:00","2019","06","16","09:00","1.8","","1.6","","99","","","","8","","14","","6.4","","101.19","","","","","","Fog"
"-61.68","56.55","NAIN A","8502801","2019-06-16 10:00","2019","06","16","10:00","1.8","","1.6","","99","","","","7","","14","","11.3","","101.20","","","","","","NA"
"-61.68","56.55","NAIN A","8502801","2019-06-16 11:00","2019","06","16","11:00","2.7","","2.5","","99","","","","6","","3","","24.1","","101.17","","","","","","Cloudy"
"-61.68","56.55","NAIN A","8502801","2019-06-16 12:00","2019","06","16","12:00","3.5","","3.0","","97","","","","7","","19","","24.1","","101.12","","","","","","NA"
"-61.68","56.55","NAIN A","8502801","2019-06-16 13:00","2019","06","16","13:00","3.9","","2.5","","90","","","","7","","27","","24.1","","101.12","","","","","","NA"
"-61.68","56.55","NAIN A","8502801","2019-06-16 14:00","2019","06","16","14:00","3.9","","1.7","","85","","","","8","","27","","24.1","","101.14","","","","","","Mostly Cloudy"
"-61.68","56.55","NAIN A","8502801","2019-06-16 15:00","2019","06","16","15:00","3.1","","1.3","","88","","","","8","","30","","24.1","","101.12","","","","","","NA"
"-61.68","56.55","NAIN A","8502801","2019-06-16 16:00","2019","06","16","16:00","2.6","","1.0","","89","","","","9","","31","","24.1","","101.11","","","","","","NA"
"-61.68","56.55","NAIN A","8502801","2019-06-16 17:00","2019","06","16","17:00","2.0","","1.0","","94","","","","9","","23","","24.1","","101.10","","","","","","Cloudy"
"-61.68","56.55","NAIN A","8502801","2019-06-16 18:00","2019","06","16","18:00","1.6","","0.8","","94","","","","8","","19","","24.1","","101.10","","","","","","NA"
"-61.68","56.55","NAIN A","8502801","2019-06-16 19:00","2019","06","16","19:00","1.1","","0.5","","96","","","","8","","26","","24.1","","101.11","","","","","","NA"
"-61.68","56.55","NAIN A","8502801","2019-06-16 20:00","2019","06","16","20:00"
"-61.68","56.55","NAIN A","8502801","2019-06-16 21:00","2019","06","16","21:00"
"-61.68","56.55","NAIN A","8502801","2019-06-16 22:00","2019","06","16","22:00"
"-61.68","56.55","NAIN A","8502801","2019-06-16 23:00","2019","06","16","23:00"
"-61.68","56.55","NAIN A","8502801","2019-06-17 00:00","2019","06","17","00:00"
"-61.68","56.55","NAIN A","8502801","2019-06-17 01:00","2019","06","17","01:00"
"-61.68","56.55","NAIN A","8502801","2019-06-17 02:00","2019","06","17","02:00"
"-61.68","56.55","NAIN A","8502801","2019-06-17 03:00","2019","06","17","03:00"
"-61.68","56.55","NAIN A","8502801","2019-06-17 04:00","2019","06","17","04:00","0.7","","0.5","","98","","","","5","","15","","2.4","","101.13","","","","","","Fog"
"-61.68","56.55","NAIN A","8502801","2019-06-17 05:00","2019","06","17","05:00","0.7","","0.5","","99","","","","5","","14","","1.2","","101.13","","","","","","Fog"
"-61.68","56.55","NAIN A","8502801","2019-06-17 06:00","2019","06","17","06:00","1.0","","0.8","","99","","","","4","","10","","1.2","","101.15","","","","","","Drizzle,Fog"
"-61.68","56.55","NAIN A","8502801","2019-06-17 07:00","2019","06","17","07:00","1.1","","0.9","","99","","","","5","","14","","1.6","","101.15","","","","","","Drizzle,Fog"
"-61.68","56.55","NAIN A","8502801","2019-06-17 08:00","2019","06","17","08:00","1.1","","0.9","","99","","","","1","","6","","2.4","","101.17","","","","","","Fog"
"-61.68","56.55","NAIN A","8502801","2019-06-17 09:00","2019","06","17","09:00","1.1","","0.9","","99","","","","7","","6","","4.8","","101.17","","","","","","Fog"
"-61.68","56.55","NAIN A","8502801","2019-06-17 10:00","2019","06","17","10:00","1.6","","1.4","","98","","","","2","","6","","24.1","","101.16","","","","","","NA"
"-61.68","56.55","NAIN A","8502801","2019-06-17 11:00","2019","06","17","11:00","2.2","","1.8","","98","","","","5","","9","","24.1","","101.12","","","","","","Drizzle"
"-61.68","56.55","NAIN A","8502801","2019-06-17 12:00","2019","06","17","12:00","1.7","","1.4","","98","","","","4","","5","","6.4","","101.13","","","","","","Drizzle,Fog"
"-61.68","56.55","NAIN A","8502801","2019-06-17 13:00","2019","06","17","13:00","2.2","","1.9","","98","","","","8","","11","","14.5","","101.13","","","","","","Drizzle"
"-61.68","56.55","NAIN A","8502801","2019-06-17 14:00","2019","06","17","14:00","2.4","","2.1","","98","","","","6","","11","","24.1","","101.12","","","","","","Drizzle"
"-61.68","56.55","NAIN A","8502801","2019-06-17 15:00","2019","06","17","15:00","3.0","","2.1","","94","","","","32","","5","","24.1","","101.13","","","","","","NA"
"-61.68","56.55","NAIN A","8502801","2019-06-17 16:00","2019","06","17","16:00","3.6","","1.8","","88","","","","35","","5","","24.1","","101.10","","","","","","NA"
"-61.68","56.55","NAIN A","8502801","2019-06-17 17:00","2019","06","17","17:00","2.8","","1.2","","89","","","","5","","7","","24.1","","101.10","","","","","","Cloudy"
"-61.68","56.55","NAIN A","8502801","2019-06-17 18:00","2019","06","17","18:00","3.2","","1.4","","88","","","","8","","10","","24.1","","101.10","","","","","","NA"
"-61.68","56.55","NAIN A","8502801","2019-06-17 19:00","2019","06","17","19:00","2.5","","1.4","","92","","","","7","","10","","24.1","","101.10","","","","","","NA"
"-61.68","56.55","NAIN A","8502801","2019-06-17 20:00","2019","06","17","20:00"
"-61.68","56.55","NAIN A","8502801","2019-06-17 21:00","2019","06","17","21:00"
"-61.68","56.55","NAIN A","8502801","2019-06-17 22:00","2019","06","17","22:00"
"-61.68","56.55","NAIN A","8502801","2019-06-17 23:00","2019","06","17","23:00"
"-61.68","56.55","NAIN A","8502801","2019-06-18 00:00","2019","06","18","00:00"
"-61.68","56.55","NAIN A","8502801","2019-06-18 01:00","2019","06","18","01:00"
"-61.68","56.55","NAIN A","8502801","2019-06-18 02:00","2019","06","18","02:00"
"-61.68","56.55","NAIN A","8502801","2019-06-18 03:00","2019","06","18","03:00"
"-61.68","56.55","NAIN A","8502801","2019-06-18 04:00","2019","06","18","04:00","2.0","","1.7","","98","","","","4","","9","","1.0","","101.08","","","","","","Fog"
"-61.68","56.55","NAIN A","8502801","2019-06-18 05:00","2019","06","18","05:00","2.1","","1.8","","98","","","","4","","9","","1.2","","101.08","","","","","","Fog"
"-61.68","56.55","NAIN A","8502801","2019-06-18 06:00","2019","06","18","06:00","2.1","","1.9","","98","","","","35","","3","","2.4","","101.08","","","","","","Fog"
"-61.68","56.55","NAIN A","8502801","2019-06-18 07:00","2019","06","18","07:00","2.5","","2.3","","98","","","","30","","4","","4.8","","101.09","","","","","","Fog"
"-61.68","56.55","NAIN A","8502801","2019-06-18 08:00","2019","06","18","08:00","2.9","","2.7","","99","","","","32","","12","","1.2","","101.08","","","","","","Fog"
"-61.68","56.55","NAIN A","8502801","2019-06-18 09:00","2019","06","18","09:00","3.4","","3.2","","99","","","","33","","5","","1.6","","101.09","","","","","","Fog"
"-61.68","56.55","NAIN A","8502801","2019-06-18 10:00","2019","06","18","10:00","3.6","","3.4","","99","","","","34","","6","","2.4","","101.09","","","","","","Drizzle,Fog"
"-61.68","56.55","NAIN A","8502801","2019-06-18 11:00","2019","06","18","11:00","3.0","","2.8","","99","","","","9","","14","","6.4","","101.09","","","","","","Fog"
"-61.68","56.55","NAIN A","8502801","2019-06-18 12:00","2019","06","18","12:00","3.0","","2.8","","99","","","","7","","7","","24.1","","101.09","","","","","","Rain"
"-61.68","56.55","NAIN A","8502801","2019-06-18 13:00","2019","06","18","13:00","3.4","","3.2","","98","","","","7","","8","","24.1","","101.07","","","","","","Drizzle"
"-61.68","56.55","NAIN A","8502801","2019-06-18 14:00","2019","06","18","14:00","3.7","","3.4","","98","","","","8","","12","","24.1","","101.06","","","","","","Cloudy"
"-61.68","56.55","NAIN A","8502801","2019-06-18 15:00","2019","06","18","15:00","4.2","","3.6","","96","","","","7","","9","","24.1","","101.04","","","","","","Drizzle"
"-61.68","56.55","NAIN A","8502801","2019-06-18 16:00","2019","06","18","16:00","3.5","","3.1","","97","","","","36","","3","","24.1","","101.05","","","","","","NA"
"-61.68","56.55","NAIN A","8502801","2019-06-18 17:00","2019","06","18","17:00","3.5","","3.0","","97","","","","5","","10","","24.1","","101.05","","","","","","Drizzle"
"-61.68","56.55","NAIN A","8502801","2019-06-18 18:00","2019","06","18","18:00","3.3","","2.9","","97","","","","2","","3","","24.1","","101.06","","","","","","Drizzle"
"-61.68","56.55","NAIN A","8502801","2019-06-18 19:00","2019","06","18","19:00","3.3","","2.9","","97","","","","24","","3","","24.1","","101.09","","","","","","Rain,Drizzle"
"-61.68","56.55","NAIN A","8502801","2019-06-18 20:00","2019","06","18","20:00"
"-61.68","56.55","NAIN A","8502801","2019-06-18 21:00","2019","06","18","21:00"
"-61.68","56.55","NAIN A","8502801","2019-06-18 22:00","2019","06","18","22:00"
"-61.68","56.55","NAIN A","8502801","2019-06-18 23:00","2019","06","18","23:00"
"-61.68","56.55","NAIN A","8502801","2019-06-19 00:00","2019","06","19","00:00"
"-61.68","56.55","NAIN A","8502801","2019-06-19 01:00","2019","06","19","01:00"
"-61.68","56.55","NAIN A","8502801","2019-06-19 02:00","2019","06","19","02:00"
"-61.68","56.55","NAIN A","8502801","2019-06-19 03:00","2019","06","19","03:00"
"-61.68","56.55","NAIN A","8502801","2019-06-19 04:00","2019","06","19","04:00","1.6","","1.4","","99","","","","36","","1","","1.2","","101.05","","","","","","Drizzle,Fog"
"-61.68","56.55","NAIN A","8502801","2019-06-19 05:00","2019","06","19","05:00","1.5","","1.3","","99","","","","8","","12","","0.6","","101.07","","","","","","Drizzle,Fog"
"-61.68","56.55","NAIN A","8502801","2019-06-19 06:00","2019","06","19","06:00","1.6","","1.4","","99","","","","0","","1","","0.8","","101.07","","","","","","Drizzle,Fog"
"-61.68","56.55","NAIN A","8502801","2019-06-19 07:00","2019","06","19","07:00","1.8","","1.6","","99","","","","36","","2","","0.8","","101.09","","","","","","Drizzle,Fog"
"-61.68","56.55","NAIN A","8502801","2019-06-19 08:00","2019","06","19","08:00","2.0","","1.8","","99","","","","36","","1","","1.2","","101.11","","","","","","Drizzle,Fog"
"-61.68","56.55","NAIN A","8502801","2019-06-19 09:00","2019","06","19","09:00","2.1","","1.9","","99","","","","5","","7","","4.8","","101.12","","","","","","Drizzle,Fog"
"-61.68","56.55","NAIN A","8502801","2019-06-19 10:00","2019","06","19","10:00","2.2","","2.1","","99","","","","32","","5","","6.4","","101.13","","","","","","Drizzle,Fog"
"-61.68","56.55","NAIN A","8502801","2019-06-19 11:00","2019","06","19","11:00","2.7","","2.5","","99","","","","35","","4","","24.1","","101.12","","","","","","Drizzle"
"-61.68","56.55","NAIN A","8502801","2019-06-19 12:00","2019","06","19","12:00","3.4","","3.1","","98","","","","7","","4","","24.1","","101.11","","","","","","NA"
"-61.68","56.55","NAIN A","8502801","2019-06-19 13:00","2019","06","19","13:00","4.0","","3.7","","98","","","","2","","3","","24.1","","101.09","","","","","","NA"
"-61.68","56.55","NAIN A","8502801","2019-06-19 14:00","2019","06","19","14:00","4.6","","4.0","","96","","","","35","","3","","24.1","","101.08","","","","","","Cloudy"
"-61.68","56.55","NAIN A","8502801","2019-06-19 15:00","2019","06","19","15:00","5.4","","4.6","","95","","","","10","","4","","24.1","","101.10","","","","","","NA"
"-61.68","56.55","NAIN A","8502801","2019-06-19 16:00","2019","06","19","16:00","6.0","","4.7","","91","","","","6","","4","","24.1","","101.08","","","","","","NA"
"-61.68","56.55","NAIN A","8502801","2019-06-19 17:00","2019","06","19","17:00","4.2","","3.4","","94","","","","15","","4","","24.1","","101.10","","","","","","Cloudy"
"-61.68","56.55","NAIN A","8502801","2019-06-19 18:00","2019","06","19","18:00","4.2","","3.4","","94","","","","5","","4","","24.1","","101.10","","","","","","NA"
"-61.68","56.55","NAIN A","8502801","2019-06-19 19:00","2019","06","19","19:00","4.6","","3.6","","93","","","","36","","2","","24.1","","101.10","","","","","","NA"
"-61.68","56.55","NAIN A","8502801","2019-06-19 20:00","2019","06","19","20:00"
"-61.68","56.55","NAIN A","8502801","2019-06-19 21:00","2019","06","19","21:00"
"-61.68","56.55","NAIN A","8502801","2019-06-19 22:00","2019","06","19","22:00"
"-61.68","56.55","NAIN A","8502801","2019-06-19 23:00","2019","06","19","23:00"
"-61.68","56.55","NAIN A","8502801","2019-06-20 00:00","2019","06","20","00:00"
"-61.68","56.55","NAIN A","8502801","2019-06-20 01:00","2019","06","20","01:00"
"-61.68","56.55","NAIN A","8502801","2019-06-20 02:00","2019","06","20","02:00"
"-61.68","56.55","NAIN A","8502801","2019-06-20 03:00","2019","06","20","03:00"
"-61.68","56.55","NAIN A","8502801","2019-06-20 04:00","2019","06","20","04:00","3.4","","3.2","","99","","","","36","","2","","24.1","","101.06","","","","","","NA"
"-61.68","56.55","NAIN A","8502801","2019-06-20 05:00","2019","06","20","05:00","3.4","","3.2","","99","","","","0","","1","","1.6","","101.06","","","","","","Fog"
"-61.68","56.55","NAIN A","8502801","2019-06-20 06:00","2019","06","20","06:00","3.3","","3.1","","99","","","","12","","8","","24.1","","101.07","","","","","","NA"
"-61.68","56.55","NAIN A","8502801","2019-06-20 07:00","2019","06","20","07:00","4.2","","4.0","","99","","","","31","","3","","24.1","","101.07","","","","","","NA"
"-61.68","56.55","NAIN A","8502801","2019-06-20 08:00","2019","06","20","08:00","4.2","","3.9","","98","","","","3","","4","","24.1","","101.07","","","","","","Cloudy"
"-61.68","56.55","NAIN A","8502801","2019-06-20 09:00","2019","06","20","09:00","5.2","","4.5","","96","","","","33","","3","","24.1","","101.06","","","","","","Rain Showers"
"-61.68","56.55","NAIN A","8502801","2019-06-20 10:00","2019","06","20","10:00","5.6","","4.3","","92","","","","4","","3","","24.1","","101.05","","","","","","NA"
"-61.68","56.55","NAIN A","8502801","2019-06-20 11:00","2019","06","20","11:00","7.7","","4.7","","81","","","","5","","4","","24.1","","101.02","","","","","","Mostly Cloudy"
"-61.68","56.55","NAIN A","8502801","2019-06-20 12:00","2019","06","20","12:00","5.8","","3.9","","87","","","","8","","10","","24.1","","100.99","","","","","","NA"
"-61.68","56.55","NAIN A","8502801","2019-06-20 13:00","2019","06","20","13:00","6.5","","3.9","","83","","","","8","","20","","24.1","","100.97","","","","","","NA"
"-61.68","56.55","NAIN A","8502801","2019-06-20 14:00","2019","06","20","14:00","6.7","","3.9","","82","","","","8","","24","","24.1","","100.95","","","","","","Mainly Clear"
"-61.68","56.55","NAIN A","8502801","2019-06-20 15:00","2019","06","20","15:00","5.8","","3.4","","84","","","","7","","20","","24.1","","100.93","","","","","","NA"
"-61.68","56.55","NAIN A","8502801","2019-06-20 16:00","2019","06","20","16:00","6.7","","4.0","","83","","","","8","","27","","24.1","","100.94","","","","","","NA"
"-61.68","56.55","NAIN A","8502801","2019-06-20 17:00","2019","06","20","17:00","6.5","","3.5","","81","","","","7","","22","","24.1","","100.95","","","","","","Mainly Clear"
"-61.68","56.55","NAIN A","8502801","2019-06-20 18:00","2019","06","20","18:00","5.7","","3.0","","83","","","","8","","20","","24.1","","100.96","","","","","","NA"
"-61.68","56.55","NAIN A","8502801","2019-06-20 19:00","2019","06","20","19:00","5.3","","3.2","","86","","","","34","","4","","24.1","","101.00","","","","","","NA"
"-61.68","56.55","NAIN A","8502801","2019-06-20 20:00","2019","06","20","20:00"
"-61.68","56.55","NAIN A","8502801","2019-06-20 21:00","2019","06","20","21:00"
"-61.68","56.55","NAIN A","8502801","2019-06-20 22:00","2019","06","20","22:00"
"-61.68","56.55","NAIN A","8502801","2019-06-20 23:00","2019","06","20","23:00"
"-61.68","56.55","NAIN A","8502801","2019-06-21 00:00","2019","06","21","00:00"
"-61.68","56.55","NAIN A","8502801","2019-06-21 01:00","2019","06","21","01:00"
"-61.68","56.55","NAIN A","8502801","2019-06-21 02:00","2019","06","21","02:00"
"-61.68","56.55","NAIN A","8502801","2019-06-21 03:00","2019","06","21","03:00"
"-61.68","56.55","NAIN A","8502801","2019-06-21 04:00","2019","06","21","04:00","3.9","","3.4","","96","","","","29","","4","","24.1","","101.00","","","","","","NA"
"-61.68","56.55","NAIN A","8502801","2019-06-21 05:00","2019","06","21","05:00","4.0","","3.3","","95","","","","15","","7","","24.1","","101.03","","","","","","Cloudy"
"-61.68","56.55","NAIN A","8502801","2019-06-21 06:00","2019","06","21","06:00","4.0","","3.2","","95","","","","36","","3","","24.1","","101.07","","","","","","NA"
"-61.68","56.55","NAIN A","8502801","2019-06-21 07:00","2019","06","21","07:00","5.0","","3.6","","90","","","","3","","5","","24.1","","101.07","","","","","","NA"
"-61.68","56.55","NAIN A","8502801","2019-06-21 08:00","2019","06","21","08:00","5.6","","3.8","","89","","","","8","","5","","24.1","","101.08","","","","","","Cloudy"
"-61.68","56.55","NAIN A","8502801","2019-06-21 09:00","2019","06","21","09:00","6.4","","4.2","","86","","","","6","","5","","24.1","","101.07","","","","","","NA"
"-61.68","56.55","NAIN A","8502801","2019-06-21 10:00","2019","06","21","10:00","7.1","","4.9","","86","","","","36","","2","","24.1","","101.07","","","","","","NA"
"-61.68","56.55","NAIN A","8502801","2019-06-21 11:00","2019","06","21","11:00","7.1","","4.4","","83","","","","9","","11","","24.1","","101.09","","","","","","Cloudy"
"-61.68","56.55","NAIN A","8502801","2019-06-21 12:00","2019","06","21","12:00","7.0","","4.8","","86","","","","9","","23","","24.1","","101.09","","","","","","NA"
"-61.68","56.55","NAIN A","8502801","2019-06-21 13:00","2019","06","21","13:00","6.7","","4.9","","89","","","","9","","19","","24.1","","101.09","","","","","","NA"
"-61.68","56.55","NAIN A","8502801","2019-06-21 14:00","2019","06","21","14:00","6.7","","4.5","","86","","","","8","","18","","24.1","","101.08","","","","","","Cloudy"
"-61.68","56.55","NAIN A","8502801","2019-06-21 15:00","2019","06","21","15:00","7.9","","4.9","","81","","","","10","","11","","24.1","","101.09","","","","","","NA"
"-61.68","56.55","NAIN A","8502801","2019-06-21 16:00","2019","06","21","16:00","8.1","","4.8","","80","","","","14","","6","","24.1","","101.10","","","","","","NA"
"-61.68","56.55","NAIN A","8502801","2019-06-21 17:00","2019","06","21","17:00","6.5","","4.5","","87","","","","9","","16","","24.1","","101.11","","","","","","Mostly Cloudy"
"-61.68","56.55","NAIN A","8502801","2019-06-21 18:00","2019","06","21","18:00","6.5","","5.0","","90","","","","29","","6","","24.1","","101.11","","","","","","NA"
"-61.68","56.55","NAIN A","8502801","2019-06-21 19:00","2019","06","21","19:00","6.3","","5.2","","93","","","","34","","7","","22.5","","101.12","","","","","","Drizzle"
"-61.68","56.55","NAIN A","8502801","2019-06-21 20:00","2019","06","21","20:00"
"-61.68","56.55","NAIN A","8502801","2019-06-21 21:00","2019","06","21","21:00"
"-61.68","56.55","NAIN A","8502801","2019-06-21 22:00","2019","06","21","22:00"
"-61.68","56.55","NAIN A","8502801","2019-06-21 23:00","2019","06","21","23:00"
"-61.68","56.55","NAIN A","8502801","2019-06-22 00:00","2019","06","22","00:00"
"-61.68","56.55","NAIN A","8502801","2019-06-22 01:00","2019","06","22","01:00"
"-61.68","56.55","NAIN A","8502801","2019-06-22 02:00","2019","06","22","02:00"
"-61.68","56.55","NAIN A","8502801","2019-06-22 03:00","2019","06","22","03:00"
"-61.68","56.55","NAIN A","8502801","2019-06-22 04:00","2019","06","22","04:00","5.5","","5.2","","98","","","","32","","5","","24.1","","100.96","","","","","","NA"
"-61.68","56.55","NAIN A","8502801","2019-06-22 05:00","2019","06","22","05:00","5.2","","4.9","","98","","","","32","","8","","24.1","","100.97","","","","","","Cloudy"
"-61.68","56.55","NAIN A","8502801","2019-06-22 06:00","2019","06","22","06:00","5.7","","5.3","","98","","","","36","","2","","24.1","","100.94","","","","","","NA"
"-61.68","56.55","NAIN A","8502801","2019-06-22 07:00","2019","06","22","07:00","4.5","","4.1","","97","","","","36","","2","","24.1","","100.95","","","","","","NA"
"-61.68","56.55","NAIN A","8502801","2019-06-22 08:00","2019","06","22","08:00","5.9","","5.3","","96","","","","31","","5","","19.3","","100.93","","","","","","Cloudy"
"-61.68","56.55","NAIN A","8502801","2019-06-22 09:00","2019","06","22","09:00","5.9","","5.0","","94","","","","6","","8","","24.1","","100.91","","","","","","NA"
"-61.68","56.55","NAIN A","8502801","2019-06-22 10:00","2019","06","22","10:00","7.8","","6.1","","89","","","","11","","8","","24.1","","100.87","","","","","","NA"
"-61.68","56.55","NAIN A","8502801","2019-06-22 11:00","2019","06","22","11:00","10.1","","7.0","","81","","","","10","","8","","24.1","","100.82","","","","","","Mostly Cloudy"
"-61.68","56.55","NAIN A","8502801","2019-06-22 12:00","2019","06","22","12:00","8.7","","5.6","","81","","","","9","","17","","24.1","","100.76","","","","","","NA"
"-61.68","56.55","NAIN A","8502801","2019-06-22 13:00","2019","06","22","13:00","7.7","","4.9","","83","","","","7","","19","","24.1","","100.70","","","","","","NA"
"-61.68","56.55","NAIN A","8502801","2019-06-22 14:00","2019","06","22","14:00","8.0","","5.3","","83","","","","8","","22","","24.1","","100.67","","","","","","Mostly Cloudy"
"-61.68","56.55","NAIN A","8502801","2019-06-22 15:00","2019","06","22","15:00","8.0","","5.4","","84","","","","9","","23","","24.1","","100.63","","","","","","NA"
"-61.68","56.55","NAIN A","8502801","2019-06-22 16:00","2019","06","22","16:00","7.8","","4.9","","82","","","","9","","29","","24.1","","100.62","","","","","","NA"
"-61.68","56.55","NAIN A","8502801","2019-06-22 17:00","2019","06","22","17:00","6.3","","4.3","","87","","","","8","","19","","24.1","","100.63","","","","","","Mostly Cloudy"
"-61.68","56.55","NAIN A","8502801","2019-06-22 18:00","2019","06","22","18:00","5.7","","4.3","","91","","","","9","","6","","24.1","","100.64","","","","","","NA"
"-61.68","56.55","NAIN A","8502801","2019-06-22 19:00","2019","06","22","19:00","5.0","","3.8","","92","","","","7","","3","","24.1","","100.66","","","","","","NA"
"-61.68","56.55","NAIN A","8502801","2019-06-22 20:00","2019","06","22","20:00"
"-61.68","56.55","NAIN A","8502801","2019-06-22 21:00","2019","06","22","21:00"
"-61.68","56.55","NAIN A","8502801","2019-06-22 22:00","2019","06","22","22:00"
"-61.68","56.55","NAIN A","8502801","2019-06-22 23:00","2019","06","22","23:00"
"-61.68","56.55","NAIN A","8502801","2019-06-23 00:00","2019","06","23","00:00"
"-61.68","56.55","NAIN A","8502801","2019-06-23 01:00","2019","06","23","01:00"
"-61.68","56.55","NAIN A","8502801","2019-06-23 02:00","2019","06","23","02:00"
"-61.68","56.55","NAIN A","8502801","2019-06-23 03:00","2019","06","23","03:00"
"-61.68","56.55","NAIN A","8502801","2019-06-23 04:00","2019","06","23","04:00","5.7","","3.4","","85","","","","32","","25","","24.1","","100.53","","","","","","NA"
"-61.68","56.55","NAIN A","8502801","2019-06-23 05:00","2019","06","23","05:00","5.5","","2.8","","83","","","","32","","24","","24.1","","100.53","","","","","","Cloudy"
"-61.68","56.55","NAIN A","8502801","2019-06-23 06:00","2019","06","23","06:00","5.4","","3.0","","85","","","","32","","36","","24.1","","100.52","","","","","","NA"
"-61.68","56.55","NAIN A","8502801","2019-06-23 07:00","2019","06","23","07:00","5.3","","2.7","","84","","","","33","","28","","24.1","","100.54","","","","","","NA"
"-61.68","56.55","NAIN A","8502801","2019-06-23 08:00","2019","06","23","08:00","5.5","","2.4","","80","","","","32","","27","","24.1","","100.50","","","","","","Cloudy"
"-61.68","56.55","NAIN A","8502801","2019-06-23 09:00","2019","06","23","09:00","5.4","","2.3","","80","","","","33","","31","","24.1","","100.50","","","","","","NA"
"-61.68","56.55","NAIN A","8502801","2019-06-23 10:00","2019","06","23","10:00","5.7","","2.4","","79","","","","34","","36","","24.1","","100.46","","","","","","NA"
"-61.68","56.55","NAIN A","8502801","2019-06-23 11:00","2019","06","23","11:00","5.6","","2.4","","80","","","","34","","33","","24.1","","100.42","","","","","","Cloudy"
"-61.68","56.55","NAIN A","8502801","2019-06-23 12:00","2019","06","23","12:00","5.8","","2.6","","80","","","","34","","31","","24.1","","100.36","","","","","","NA"
"-61.68","56.55","NAIN A","8502801","2019-06-23 13:00","2019","06","23","13:00","6.0","","3.0","","81","","","","36","","35","","24.1","","100.33","","","","","","Rain Showers"
"-61.68","56.55","NAIN A","8502801","2019-06-23 14:00","2019","06","23","14:00","5.3","","3.1","","86","","","","34","","35","","24.1","","100.34","","","","","","Rain Showers"
"-61.68","56.55","NAIN A","8502801","2019-06-23 15:00","2019","06","23","15:00","5.5","","3.1","","84","","","","35","","36","","24.1","","100.29","","","","","","Rain"
"-61.68","56.55","NAIN A","8502801","2019-06-23 16:00","2019","06","23","16:00","5.5","","2.9","","83","","","","33","","34","","24.1","","100.26","","","","","","Rain"
"-61.68","56.55","NAIN A","8502801","2019-06-23 17:00","2019","06","23","17:00","5.2","","3.0","","86","","","","34","","44","","24.1","","100.26","","","","","","Rain"
"-61.68","56.55","NAIN A","8502801","2019-06-23 18:00","2019","06","23","18:00","5.2","","3.3","","88","","","","33","","46","","24.1","","100.22","","","","","","Rain"
"-61.68","56.55","NAIN A","8502801","2019-06-23 19:00","2019","06","23","19:00","5.0","","3.0","","87","","","","34","","47","","24.1","","100.23","","","","","","Rain"
"-61.68","56.55","NAIN A","8502801","2019-06-23 20:00","2019","06","23","20:00"
"-61.68","56.55","NAIN A","8502801","2019-06-23 21:00","2019","06","23","21:00"
"-61.68","56.55","NAIN A","8502801","2019-06-23 22:00","2019","06","23","22:00"
"-61.68","56.55","NAIN A","8502801","2019-06-23 23:00","2019","06","23","23:00"
"-61.68","56.55","NAIN A","8502801","2019-06-24 00:00","2019","06","24","00:00"
"-61.68","56.55","NAIN A","8502801","2019-06-24 01:00","2019","06","24","01:00"
"-61.68","56.55","NAIN A","8502801","2019-06-24 02:00","2019","06","24","02:00"
"-61.68","56.55","NAIN A","8502801","2019-06-24 03:00","2019","06","24","03:00"
"-61.68","56.55","NAIN A","8502801","2019-06-24 04:00","2019","06","24","04:00","3.7","","2.8","","94","","","","33","","45","","22.5","","100.04","","","","","","Rain"
"-61.68","56.55","NAIN A","8502801","2019-06-24 05:00","2019","06","24","05:00","3.5","","2.5","","93","","","","33","","43","","24.1","","100.07","","","","","","Rain"
"-61.68","56.55","NAIN A","8502801","2019-06-24 06:00","2019","06","24","06:00","4.1","","2.0","","86","","","","33","","51","","24.1","","100.07","","","","","","Rain"
"-61.68","56.55","NAIN A","8502801","2019-06-24 07:00","2019","06","24","07:00","4.4","","1.6","","82","","","","33","","52","","24.1","","100.16","","","","","","Rain"
"-61.68","56.55","NAIN A","8502801","2019-06-24 08:00","2019","06","24","08:00","4.5","","1.5","","81","","","","33","","43","","24.1","","100.19","","","","","","Rain Showers"
"-61.68","56.55","NAIN A","8502801","2019-06-24 09:00","2019","06","24","09:00","4.7","","1.7","","81","","","","32","","47","","24.1","","100.22","","","","","","Rain Showers"
"-61.68","56.55","NAIN A","8502801","2019-06-24 10:00","2019","06","24","10:00","5.1","","2.1","","81","","","","31","","48","","24.1","","100.27","","","","","","NA"
"-61.68","56.55","NAIN A","8502801","2019-06-24 11:00","2019","06","24","11:00","5.3","","1.9","","78","","","","32","","48","","24.1","","100.34","","","","","","Cloudy"
"-61.68","56.55","NAIN A","8502801","2019-06-24 12:00","2019","06","24","12:00","5.8","","1.9","","76","","","","32","","45","","24.1","","100.39","","","","","","NA"
"-61.68","56.55","NAIN A","8502801","2019-06-24 13:00","2019","06","24","13:00","5.9","","1.9","","76","","","","32","","39","","24.1","","100.46","","","","","","NA"
"-61.68","56.55","NAIN A","8502801","2019-06-24 14:00","2019","06","24","14:00","6.1","","1.6","","73","","","","32","","33","","24.1","","100.51","","","","","","Cloudy"
"-61.68","56.55","NAIN A","8502801","2019-06-24 15:00","2019","06","24","15:00","6.7","","1.5","","69","","","","32","","39","","24.1","","100.47","","","","","","Rain Showers"
"-61.68","56.55","NAIN A","8502801","2019-06-24 16:00","2019","06","24","16:00","7.1","","2.4","","72","","","","31","","36","","24.1","","100.52","","","","","","Rain Showers"
"-61.68","56.55","NAIN A","8502801","2019-06-24 17:00","2019","06","24","17:00","7.3","","3.5","","77","","","","33","","37","","24.1","","100.56","","","","","","Rain Showers"
"-61.68","56.55","NAIN A","8502801","2019-06-24 18:00","2019","06","24","18:00","7.4","","3.4","","76","","","","33","","29","","24.1","","100.63","","","","","","NA"
"-61.68","56.55","NAIN A","8502801","2019-06-24 19:00","2019","06","24","19:00","7.5","","3.2","","74","","","","32","","40","","24.1","","100.67","","","","","","NA"
"-61.68","56.55","NAIN A","8502801","2019-06-24 20:00","2019","06","24","20:00"
"-61.68","56.55","NAIN A","8502801","2019-06-24 21:00","2019","06","24","21:00"
"-61.68","56.55","NAIN A","8502801","2019-06-24 22:00","2019","06","24","22:00"
"-61.68","56.55","NAIN A","8502801","2019-06-24 23:00","2019","06","24","23:00"
"-61.68","56.55","NAIN A","8502801","2019-06-25 00:00","2019","06","25","00:00"
"-61.68","56.55","NAIN A","8502801","2019-06-25 01:00","2019","06","25","01:00"
"-61.68","56.55","NAIN A","8502801","2019-06-25 02:00","2019","06","25","02:00"
"-61.68","56.55","NAIN A","8502801","2019-06-25 03:00","2019","06","25","03:00"
"-61.68","56.55","NAIN A","8502801","2019-06-25 04:00","2019","06","25","04:00","7.0","","2.8","","75","","","","33","","17","","24.1","","100.98","","","","","","NA"
"-61.68","56.55","NAIN A","8502801","2019-06-25 05:00","2019","06","25","05:00","6.8","","3.1","","77","","","","30","","30","","24.1","","101.01","","","","","","Rain Showers"
"-61.68","56.55","NAIN A","8502801","2019-06-25 06:00","2019","06","25","06:00","7.0","","3.1","","76","","","","32","","30","","24.1","","101.07","","","","","","Rain Showers"
"-61.68","56.55","NAIN A","8502801","2019-06-25 07:00","2019","06","25","07:00","7.9","","3.0","","71","","","","31","","22","","24.1","","101.14","","","","","","NA"
"-61.68","56.55","NAIN A","8502801","2019-06-25 08:00","2019","06","25","08:00","7.5","","3.1","","74","","","","32","","41","","24.1","","101.18","","","","","","Cloudy"
"-61.68","56.55","NAIN A","8502801","2019-06-25 09:00","2019","06","25","09:00","7.8","","3.0","","72","","","","33","","23","","24.1","","101.21","","","","","","NA"
"-61.68","56.55","NAIN A","8502801","2019-06-25 10:00","2019","06","25","10:00","8.4","","3.4","","71","","","","30","","13","","24.1","","101.23","","","","","","NA"
"-61.68","56.55","NAIN A","8502801","2019-06-25 11:00","2019","06","25","11:00","8.3","","3.5","","72","","","","31","","24","","24.1","","101.24","","","","","","Cloudy"
"-61.68","56.55","NAIN A","8502801","2019-06-25 12:00","2019","06","25","12:00","9.0","","3.8","","70","","","","33","","14","","24.1","","101.25","","","","","","NA"
"-61.68","56.55","NAIN A","8502801","2019-06-25 13:00","2019","06","25","13:00","7.6","","3.7","","76","","","","35","","10","","24.1","","101.29","","","","","","NA"
"-61.68","56.55","NAIN A","8502801","2019-06-25 14:00","2019","06","25","14:00","8.3","","4.4","","76","","","","33","","13","","24.1","","101.32","","","","","","Cloudy"
"-61.68","56.55","NAIN A","8502801","2019-06-25 15:00","2019","06","25","15:00","8.2","","3.9","","74","","","","34","","21","","24.1","","101.32","","","","","","NA"
"-61.68","56.55","NAIN A","8502801","2019-06-25 16:00","2019","06","25","16:00","7.2","","3.8","","79","","","","32","","6","","24.1","","101.37","","","","","","NA"
"-61.68","56.55","NAIN A","8502801","2019-06-25 17:00","2019","06","25","17:00","7.2","","3.6","","78","","","","36","","26","","24.1","","101.38","","","","","","Cloudy"
"-61.68","56.55","NAIN A","8502801","2019-06-25 18:00","2019","06","25","18:00","5.9","","3.5","","85","","","","36","","20","","24.1","","101.44","","","","","","NA"
"-61.68","56.55","NAIN A","8502801","2019-06-25 19:00","2019","06","25","19:00","6.9","","3.7","","80","","","","34","","16","","24.1","","101.43","","","","","","NA"
"-61.68","56.55","NAIN A","8502801","2019-06-25 20:00","2019","06","25","20:00"
"-61.68","56.55","NAIN A","8502801","2019-06-25 21:00","2019","06","25","21:00"
"-61.68","56.55","NAIN A","8502801","2019-06-25 22:00","2019","06","25","22:00"
"-61.68","56.55","NAIN A","8502801","2019-06-25 23:00","2019","06","25","23:00"
"-61.68","56.55","NAIN A","8502801","2019-06-26 00:00","2019","06","26","00:00"
"-61.68","56.55","NAIN A","8502801","2019-06-26 01:00","2019","06","26","01:00"
"-61.68","56.55","NAIN A","8502801","2019-06-26 02:00","2019","06","26","02:00"
"-61.68","56.55","NAIN A","8502801","2019-06-26 03:00","2019","06","26","03:00"
"-61.68","56.55","NAIN A","8502801","2019-06-26 04:00","2019","06","26","04:00","5.5","","3.1","","84","","","","33","","10","","24.1","","101.65","","","","","","NA"
"-61.68","56.55","NAIN A","8502801","2019-06-26 05:00","2019","06","26","05:00","5.8","","3.2","","83","","","","2","","7","","24.1","","101.71","","","","","","Cloudy"
"-61.68","56.55","NAIN A","8502801","2019-06-26 06:00","2019","06","26","06:00","6.5","","3.5","","81","","","","33","","9","","24.1","","101.76","","","","","","NA"
"-61.68","56.55","NAIN A","8502801","2019-06-26 07:00","2019","06","26","07:00","6.8","","3.6","","80","","","","36","","3","","24.1","","101.80","","","","","","NA"
"-61.68","56.55","NAIN A","8502801","2019-06-26 08:00","2019","06","26","08:00","6.8","","3.7","","80","","","","35","","5","","24.1","","101.80","","","","","","Cloudy"
"-61.68","56.55","NAIN A","8502801","2019-06-26 09:00","2019","06","26","09:00","7.7","","4.1","","78","","","","36","","1","","24.1","","101.79","","","","","","NA"
"-61.68","56.55","NAIN A","8502801","2019-06-26 10:00","2019","06","26","10:00","8.8","","4.7","","75","","","","10","","7","","24.1","","101.81","","","","","","NA"
"-61.68","56.55","NAIN A","8502801","2019-06-26 11:00","2019","06","26","11:00","7.1","","4.4","","83","","","","9","","26","","24.1","","101.82","","","","","","Mainly Clear"
"-61.68","56.55","NAIN A","8502801","2019-06-26 12:00","2019","06","26","12:00","7.7","","4.6","","81","","","","8","","23","","24.1","","101.83","","","","","","NA"
"-61.68","56.55","NAIN A","8502801","2019-06-26 13:00","2019","06","26","13:00","7.0","","3.9","","81","","","","9","","25","","24.1","","101.86","","","","","","NA"
"-61.68","56.55","NAIN A","8502801","2019-06-26 14:00","2019","06","26","14:00","7.2","","4.2","","81","","","","9","","25","","24.1","","101.87","","","","","","Mostly Cloudy"
"-61.68","56.55","NAIN A","8502801","2019-06-26 15:00","2019","06","26","15:00","7.0","","4.0","","82","","","","9","","29","","24.1","","101.88","","","","","","NA"
"-61.68","56.55","NAIN A","8502801","2019-06-26 16:00","2019","06","26","16:00","7.1","","3.8","","80","","","","7","","27","","24.1","","101.89","","","","","","NA"
"-61.68","56.55","NAIN A","8502801","2019-06-26 17:00","2019","06","26","17:00","5.9","","3.6","","85","","","","8","","26","","24.1","","101.95","","","","","","Mostly Cloudy"
"-61.68","56.55","NAIN A","8502801","2019-06-26 18:00","2019","06","26","18:00","5.1","","3.4","","89","","","","9","","25","","24.1","","102.01","","","","","","NA"
"-61.68","56.55","NAIN A","8502801","2019-06-26 19:00","2019","06","26","19:00","4.6","","3.0","","89","","","","8","","27","","24.1","","102.06","","","","","","NA"
"-61.68","56.55","NAIN A","8502801","2019-06-26 20:00","2019","06","26","20:00"
"-61.68","56.55","NAIN A","8502801","2019-06-26 21:00","2019","06","26","21:00"
"-61.68","56.55","NAIN A","8502801","2019-06-26 22:00","2019","06","26","22:00"
"-61.68","56.55","NAIN A","8502801","2019-06-26 23:00","2019","06","26","23:00"
"-61.68","56.55","NAIN A","8502801","2019-06-27 00:00","2019","06","27","00:00"
"-61.68","56.55","NAIN A","8502801","2019-06-27 01:00","2019","06","27","01:00"
"-61.68","56.55","NAIN A","8502801","2019-06-27 02:00","2019","06","27","02:00"
"-61.68","56.55","NAIN A","8502801","2019-06-27 03:00","2019","06","27","03:00"
"-61.68","56.55","NAIN A","8502801","2019-06-27 04:00","2019","06","27","04:00","2.4","","2.0","","97","","","","8","","7","","24.1","","102.28","","","","","","Rain Showers"
"-61.68","56.55","NAIN A","8502801","2019-06-27 05:00","2019","06","27","05:00","2.4","","2.0","","97","","","","7","","10","","24.1","","102.32","","","","","","Rain Showers"
"-61.68","56.55","NAIN A","8502801","2019-06-27 06:00","2019","06","27","06:00","2.7","","2.3","","97","","","","9","","12","","24.1","","102.36","","","","","","Rain Showers"
"-61.68","56.55","NAIN A","8502801","2019-06-27 07:00","2019","06","27","07:00","2.2","","1.8","","97","","","","6","","15","","8.1","","102.37","","","","","","Rain Showers,Fog"
"-61.68","56.55","NAIN A","8502801","2019-06-27 08:00","2019","06","27","08:00","2.1","","1.8","","98","","","","7","","18","","11.3","","102.40","","","","","","Rain Showers"
"-61.68","56.55","NAIN A","8502801","2019-06-27 09:00","2019","06","27","09:00","2.2","","1.9","","98","","","","8","","20","","24.1","","102.40","","","","","","Rain Showers"
"-61.68","56.55","NAIN A","8502801","2019-06-27 10:00","2019","06","27","10:00","2.4","","2.0","","98","","","","7","","18","","24.1","","102.41","","","","","","Rain Showers"
"-61.68","56.55","NAIN A","8502801","2019-06-27 11:00","2019","06","27","11:00","2.6","","2.2","","97","","","","3","","8","","24.1","","102.43","","","","","","Cloudy"
"-61.68","56.55","NAIN A","8502801","2019-06-27 12:00","2019","06","27","12:00","3.2","","2.7","","96","","","","7","","13","","24.1","","102.42","","","","","","NA"
"-61.68","56.55","NAIN A","8502801","2019-06-27 13:00","2019","06","27","13:00","4.8","","3.6","","92","","","","8","","19","","24.1","","102.39","","","","","","NA"
"-61.68","56.55","NAIN A","8502801","2019-06-27 14:00","2019","06","27","14:00","4.8","","2.9","","87","","","","7","","19","","24.1","","102.38","","","","","","Mostly Cloudy"
"-61.68","56.55","NAIN A","8502801","2019-06-27 15:00","2019","06","27","15:00","5.6","","3.5","","86","","","","8","","23","","24.1","","102.37","","","","","","NA"
"-61.68","56.55","NAIN A","8502801","2019-06-27 16:00","2019","06","27","16:00","5.3","","2.7","","83","","","","8","","25","","24.1","","102.36","","","","","","NA"
"-61.68","56.55","NAIN A","8502801","2019-06-27 17:00","2019","06","27","17:00","5.8","","2.9","","82","","","","9","","24","","24.1","","102.35","","","","","","Mostly Cloudy"
"-61.68","56.55","NAIN A","8502801","2019-06-27 18:00","2019","06","27","18:00","5.1","","2.8","","85","","","","9","","21","","24.1","","102.36","","","","","","NA"
"-61.68","56.55","NAIN A","8502801","2019-06-27 19:00","2019","06","27","19:00","4.6","","2.6","","87","","","","8","","18","","24.1","","102.41","","","","","","NA"
"-61.68","56.55","NAIN A","8502801","2019-06-27 20:00","2019","06","27","20:00"
"-61.68","56.55","NAIN A","8502801","2019-06-27 21:00","2019","06","27","21:00"
"-61.68","56.55","NAIN A","8502801","2019-06-27 22:00","2019","06","27","22:00"
"-61.68","56.55","NAIN A","8502801","2019-06-27 23:00","2019","06","27","23:00"
"-61.68","56.55","NAIN A","8502801","2019-06-28 00:00","2019","06","28","00:00"
"-61.68","56.55","NAIN A","8502801","2019-06-28 01:00","2019","06","28","01:00"
"-61.68","56.55","NAIN A","8502801","2019-06-28 02:00","2019","06","28","02:00"
"-61.68","56.55","NAIN A","8502801","2019-06-28 03:00","2019","06","28","03:00"
"-61.68","56.55","NAIN A","8502801","2019-06-28 04:00","2019","06","28","04:00","2.7","","2.5","","98","","","","6","","7","","4.8","","102.23","","","","","","Fog"
"-61.68","56.55","NAIN A","8502801","2019-06-28 05:00","2019","06","28","05:00","2.9","","2.7","","98","","","","6","","5","","19.3","","102.21","","","","","","Cloudy"
"-61.68","56.55","NAIN A","8502801","2019-06-28 06:00","2019","06","28","06:00","3.2","","3.0","","98","","","","6","","4","","24.1","","102.20","","","","","","NA"
"-61.68","56.55","NAIN A","8502801","2019-06-28 07:00","2019","06","28","07:00","3.4","","3.1","","98","","","","8","","11","","24.1","","102.20","","","","","","NA"
"-61.68","56.55","NAIN A","8502801","2019-06-28 08:00","2019","06","28","08:00","3.4","","2.9","","97","","","","6","","11","","24.1","","102.20","","","","","","Cloudy"
"-61.68","56.55","NAIN A","8502801","2019-06-28 09:00","2019","06","28","09:00","3.8","","3.4","","97","","","","8","","12","","24.1","","102.17","","","","","","NA"
"-61.68","56.55","NAIN A","8502801","2019-06-28 10:00","2019","06","28","10:00","4.6","","3.7","","94","","","","9","","13","","24.1","","102.16","","","","","","NA"
"-61.68","56.55","NAIN A","8502801","2019-06-28 11:00","2019","06","28","11:00","4.9","","3.7","","92","","","","9","","16","","24.1","","102.10","","","","","","Cloudy"
"-61.68","56.55","NAIN A","8502801","2019-06-28 12:00","2019","06","28","12:00","5.0","","3.5","","90","","","","9","","16","","24.1","","102.07","","","","","","NA"
"-61.68","56.55","NAIN A","8502801","2019-06-28 13:00","2019","06","28","13:00","4.9","","3.4","","90","","","","8","","19","","24.1","","102.01","","","","","","NA"
"-61.68","56.55","NAIN A","8502801","2019-06-28 14:00","2019","06","28","14:00","5.1","","3.0","","86","","","","9","","17","","24.1","","101.98","","","","","","Cloudy"
"-61.68","56.55","NAIN A","8502801","2019-06-28 15:00","2019","06","28","15:00","6.6","","3.9","","83","","","","11","","17","","24.1","","101.94","","","","","","NA"
"-61.68","56.55","NAIN A","8502801","2019-06-28 16:00","2019","06","28","16:00","6.0","","3.6","","84","","","","10","","20","","24.1","","101.89","","","","","","NA"
"-61.68","56.55","NAIN A","8502801","2019-06-28 17:00","2019","06","28","17:00","5.3","","3.3","","87","","","","10","","21","","24.1","","101.85","","","","","","Cloudy"
"-61.68","56.55","NAIN A","8502801","2019-06-28 18:00","2019","06","28","18:00","4.6","","3.3","","91","","","","8","","20","","24.1","","101.83","","","","","","NA"
"-61.68","56.55","NAIN A","8502801","2019-06-28 19:00","2019","06","28","19:00","4.0","","2.7","","91","","","","7","","14","","24.1","","101.82","","","","","","NA"
"-61.68","56.55","NAIN A","8502801","2019-06-28 20:00","2019","06","28","20:00"
"-61.68","56.55","NAIN A","8502801","2019-06-28 21:00","2019","06","28","21:00"
"-61.68","56.55","NAIN A","8502801","2019-06-28 22:00","2019","06","28","22:00"
"-61.68","56.55","NAIN A","8502801","2019-06-28 23:00","2019","06","28","23:00"
"-61.68","56.55","NAIN A","8502801","2019-06-29 00:00","2019","06","29","00:00"
"-61.68","56.55","NAIN A","8502801","2019-06-29 01:00","2019","06","29","01:00"
"-61.68","56.55","NAIN A","8502801","2019-06-29 02:00","2019","06","29","02:00"
"-61.68","56.55","NAIN A","8502801","2019-06-29 03:00","2019","06","29","03:00"
"-61.68","56.55","NAIN A","8502801","2019-06-29 04:00","2019","06","29","04:00","3.2","","2.7","","97","","","","33","","4","","24.1","","101.56","","","","","","NA"
"-61.68","56.55","NAIN A","8502801","2019-06-29 05:00","2019","06","29","05:00","3.4","","2.8","","96","","","","11","","4","","24.1","","101.53","","","","","","Cloudy"
"-61.68","56.55","NAIN A","8502801","2019-06-29 06:00","2019","06","29","06:00","3.5","","2.9","","96","","","","5","","4","","24.1","","101.52","","","","","","NA"
"-61.68","56.55","NAIN A","8502801","2019-06-29 07:00","2019","06","29","07:00","4.0","","3.0","","93","","","","8","","4","","24.1","","101.52","","","","","","NA"
"-61.68","56.55","NAIN A","8502801","2019-06-29 08:00","2019","06","29","08:00","4.5","","3.3","","92","","","","7","","4","","24.1","","101.51","","","","","","Cloudy"
"-61.68","56.55","NAIN A","8502801","2019-06-29 09:00","2019","06","29","09:00","4.8","","3.2","","90","","","","7","","4","","24.1","","101.52","","","","","","NA"
"-61.68","56.55","NAIN A","8502801","2019-06-29 10:00","2019","06","29","10:00","4.7","","3.2","","91","","","","8","","7","","24.1","","101.51","","","","","","NA"
"-61.68","56.55","NAIN A","8502801","2019-06-29 11:00","2019","06","29","11:00","4.8","","3.6","","92","","","","6","","6","","24.1","","101.50","","","","","","Cloudy"
"-61.68","56.55","NAIN A","8502801","2019-06-29 12:00","2019","06","29","12:00","4.9","","3.5","","91","","","","8","","20","","24.1","","101.49","","","","","","NA"
"-61.68","56.55","NAIN A","8502801","2019-06-29 13:00","2019","06","29","13:00","4.6","","3.3","","91","","","","7","","20","","24.1","","101.49","","","","","","NA"
"-61.68","56.55","NAIN A","8502801","2019-06-29 14:00","2019","06","29","14:00","4.9","","3.8","","92","","","","8","","9","","24.1","","101.49","","","","","","Cloudy"
"-61.68","56.55","NAIN A","8502801","2019-06-29 15:00","2019","06","29","15:00","5.5","","3.9","","89","","","","8","","13","","24.1","","101.48","","","","","","NA"
"-61.68","56.55","NAIN A","8502801","2019-06-29 16:00","2019","06","29","16:00","5.8","","4.2","","90","","","","9","","21","","24.1","","101.49","","","","","","NA"
"-61.68","56.55","NAIN A","8502801","2019-06-29 17:00","2019","06","29","17:00","6.4","","4.7","","89","","","","8","","26","","24.1","","101.49","","","","","","Mostly Cloudy"
"-61.68","56.55","NAIN A","8502801","2019-06-29 18:00","2019","06","29","18:00","5.1","","4.0","","93","","","","8","","23","","24.1","","101.51","","","","","","NA"
"-61.68","56.55","NAIN A","8502801","2019-06-29 19:00","2019","06","29","19:00","4.2","","3.5","","96","","","","8","","22","","24.1","","101.57","","","","","","NA"
"-61.68","56.55","NAIN A","8502801","2019-06-29 20:00","2019","06","29","20:00"
"-61.68","56.55","NAIN A","8502801","2019-06-29 21:00","2019","06","29","21:00"
"-61.68","56.55","NAIN A","8502801","2019-06-29 22:00","2019","06","29","22:00"
"-61.68","56.55","NAIN A","8502801","2019-06-29 23:00","2019","06","29","23:00"
"-61.68","56.55","NAIN A","8502801","2019-06-30 00:00","2019","06","30","00:00"
"-61.68","56.55","NAIN A","8502801","2019-06-30 01:00","2019","06","30","01:00"
"-61.68","56.55","NAIN A","8502801","2019-06-30 02:00","2019","06","30","02:00"
"-61.68","56.55","NAIN A","8502801","2019-06-30 03:00","2019","06","30","03:00"
"-61.68","56.55","NAIN A","8502801","2019-06-30 04:00","2019","06","30","04:00","4.8","","4.5","","98","","","","31","","7","","6.4","","101.64","","","","","","Fog"
"-61.68","56.55","NAIN A","8502801","2019-06-30 05:00","2019","06","30","05:00","4.6","","4.4","","98","","","","1","","4","","4.8","","101.67","","","","","","Fog"
"-61.68","56.55","NAIN A","8502801","2019-06-30 06:00","2019","06","30","06:00","4.7","","4.5","","99","","","","36","","1","","4.0","","101.68","","","","","","Drizzle,Fog"
"-61.68","56.55","NAIN A","8502801","2019-06-30 07:00","2019","06","30","07:00","4.6","","4.4","","99","","","","3","","3","","8.1","","101.71","","","","","","Drizzle,Fog"
"-61.68","56.55","NAIN A","8502801","2019-06-30 08:00","2019","06","30","08:00","5.3","","5.1","","99","","","","36","","2","","4.8","","101.73","","","","","","Drizzle,Fog"
"-61.68","56.55","NAIN A","8502801","2019-06-30 09:00","2019","06","30","09:00","4.8","","4.6","","99","","","","9","","6","","9.7","","101.73","","","","","","Drizzle,Fog"
"-61.68","56.55","NAIN A","8502801","2019-06-30 10:00","2019","06","30","10:00","5.9","","5.6","","98","","","","8","","4","","16.1","","101.73","","","","","","NA"
"-61.68","56.55","NAIN A","8502801","2019-06-30 11:00","2019","06","30","11:00","5.7","","5.2","","97","","","","7","","3","","17.7","","101.71","","","","","","Cloudy"
"-61.68","56.55","NAIN A","8502801","2019-06-30 12:00","2019","06","30","12:00","6.5","","5.3","","92","","","","8","","17","","20.9","","101.67","","","","","","NA"
"-61.68","56.55","NAIN A","8502801","2019-06-30 13:00","2019","06","30","13:00","5.8","","4.8","","93","","","","7","","19","","22.5","","101.66","","","","","","NA"
"-61.68","56.55","NAIN A","8502801","2019-06-30 14:00","2019","06","30","14:00","6.6","","5.0","","90","","","","7","","18","","24.1","","101.65","","","","","","Cloudy"
"-61.68","56.55","NAIN A","8502801","2019-06-30 15:00","2019","06","30","15:00","6.4","","5.0","","91","","","","9","","20","","24.1","","101.65","","","","","","NA"
"-61.68","56.55","NAIN A","8502801","2019-06-30 16:00","2019","06","30","16:00","6.3","","5.1","","92","","","","9","","20","","24.1","","101.65","","","","","","NA"
"-61.68","56.55","NAIN A","8502801","2019-06-30 17:00","2019","06","30","17:00","6.6","","5.9","","95","","","","9","","14","","24.1","","101.61","","","","","","Mostly Cloudy"
"-61.68","56.55","NAIN A","8502801","2019-06-30 18:00","2019","06","30","18:00","5.5","","4.8","","95","","","","8","","22","","24.1","","101.63","","","","","","NA"
"-61.68","56.55","NAIN A","8502801","2019-06-30 19:00","2019","06","30","19:00","4.9","","4.3","","96","","","","8","","21","","24.1","","101.58","","","","","","NA"
"-61.68","56.55","NAIN A","8502801","2019-06-30 20:00","2019","06","30","20:00"
"-61.68","56.55","NAIN A","8502801","2019-06-30 21:00","2019","06","30","21:00"
"-61.68","56.55","NAIN A","8502801","2019-06-30 22:00","2019","06","30","22:00"
"-61.68","56.55","NAIN A","8502801","2019-06-30 23:00","2019","06","30","23:00"
