"Longitude (x)","Latitude (y)","Station Name","Climate ID","Date/Time (LST)","Year","Month","Day","Time (LST)","Temp (°C)","Temp Flag","Dew Point Temp (°C)","Dew Point Temp Flag","Rel Hum (%)","Rel Hum Flag","Precip. Amount (mm)","Precip. Amount Flag","Wind Dir (10s deg)","Wind Dir Flag","Wind Spd (km/h)","Wind Spd Flag","Visibility (km)","Visibility Flag","Stn Press (kPa)","Stn Press Flag","Hmdx","Hmdx Flag","Wind Chill","Wind Chill Flag","Weather"
"-105.27","55.15","LA RONGE A","4064155","2018-10-01 00:00","2018","10","01","00:00","-2.6","","-7.9","","67","","","","21","","8","","24.1","","97.68","","","","-6","","Clear"
"-105.27","55.15","LA RONGE A","4064155","2018-10-01 01:00","2018","10","01","01:00","-3.7","","-8.1","","72","","","","19","","9","","24.1","","97.61","","","","-7","","NA"
"-105.27","55.15","LA RONGE A","4064155","2018-10-01 02:00","2018","10","01","02:00","-4.0","","-8.6","","71","","","","21","","9","","24.1","","97.57","","","","-8","","NA"
"-105.27","55.15","LA RONGE A","4064155","2018-10-01 03:00","2018","10","01","03:00","-4.5","","-8.5","","74","","","","21","","12","","24.1","","97.53","","","","-9","","Mainly Clear"
"-105.27","55.15","LA RONGE A","4064155","2018-10-01 04:00","2018","10","01","04:00","-4.7","","-8.6","","74","","","","21","","10","","24.1","","97.48","","","","-9","","NA"
"-105.27","55.15","LA RONGE A","4064155","2018-10-01 05:00","2018","10","01","05:00","-4.5","","-7.9","","77","","","","20","","7","","24.1","","97.44","","","","-8","","NA"
"-105.27","55.15","LA RONGE A","4064155","2018-10-01 06:00","2018","10","01","06:00","-4.0","","-7.5","","77","","","","22","","8","","24.1","","97.38","","","","-7","","Mostly Cloudy"
"-105.27","55.15","LA RONGE A","4064155","2018-10-01 07:00","2018","10","01","07:00","-4.1","","-6.9","","81","","","","18","","5","","24.1","","97.33","","","","-6","","NA"
"-105.27","55.15","LA RONGE A","4064155","2018-10-01 08:00","2018","10","01","08:00","-3.3","","-6.5","","79","","","","36","","1","","24.1","","97.32","","","","-4","","NA"
"-105.27","55.15","LA RONGE A","4064155","2018-10-01 09:00","2018","10","01","09:00","-2.6","","-5.5","","80","","","","22","","4","","24.1","","97.31","","","","-4","","Cloudy"
"-105.27","55.15","LA RONGE A","4064155","2018-10-01 10:00","2018","10","01","10:00","-1.5","","-4.9","","78","","","","21","","8","","24.1","","97.28","","","","-5","","NA"
"-105.27","55.15","LA RONGE A","4064155","2018-10-01 11:00","2018","10","01","11:00","0.4","","-4.5","","70","","","","22","","9","","24.1","","97.27","","","","","","NA"
"-105.27","55.15","LA RONGE A","4064155","2018-10-01 12:00","2018","10","01","12:00","1.9","","-5.2","","59","","","","23","","10","","24.1","","97.25","","","","","","Cloudy"
"-105.27","55.15","LA RONGE A","4064155","2018-10-01 13:00","2018","10","01","13:00","2.6","","-5.1","","57","","","","21","","10","","24.1","","97.21","","","","","","NA"
"-105.27","55.15","LA RONGE A","4064155","2018-10-01 14:00","2018","10","01","14:00","3.0","","-5.4","","54","","","","28","","10","","24.1","","97.17","","","","","","NA"
"-105.27","55.15","LA RONGE A","4064155","2018-10-01 15:00","2018","10","01","15:00","3.5","","-5.9","","50","","","","27","","11","","24.1","","97.13","","","","","","Cloudy"
"-105.27","55.15","LA RONGE A","4064155","2018-10-01 16:00","2018","10","01","16:00","2.1","","-5.4","","57","","","","31","","13","","24.1","","97.13","","","","","","NA"
"-105.27","55.15","LA RONGE A","4064155","2018-10-01 17:00","2018","10","01","17:00","3.2","","-7.6","","45","","","","32","","9","","24.1","","97.12","","","","","","NA"
"-105.27","55.15","LA RONGE A","4064155","2018-10-01 18:00","2018","10","01","18:00","1.7","","-7.9","","49","","","","29","","6","","24.1","","97.15","","","","","","Mostly Cloudy"
"-105.27","55.15","LA RONGE A","4064155","2018-10-01 19:00","2018","10","01","19:00","-0.5","","-6.1","","66","","","","23","","4","","24.1","","97.19","","","","-2","","NA"
"-105.27","55.15","LA RONGE A","4064155","2018-10-01 20:00","2018","10","01","20:00","-2.2","","-6.1","","75","","","","36","","1","","24.1","","97.21","","","","-3","","NA"
"-105.27","55.15","LA RONGE A","4064155","2018-10-01 21:00","2018","10","01","21:00","-1.6","","-5.2","","77","","","","23","","3","","24.1","","97.22","","","","-3","","Mostly Cloudy"
"-105.27","55.15","LA RONGE A","4064155","2018-10-01 22:00","2018","10","01","22:00","-1.4","","-5.2","","76","","","","25","","4","","24.1","","97.22","","","","-3","","NA"
"-105.27","55.15","LA RONGE A","4064155","2018-10-01 23:00","2018","10","01","23:00","-0.2","","-5.8","","66","","","","25","","6","","24.1","","97.22","","","","-2","","NA"
"-105.27","55.15","LA RONGE A","4064155","2018-10-02 00:00","2018","10","02","00:00","-0.4","","-5.5","","68","","","","25","","5","","24.1","","97.21","","","","-2","","Cloudy"
"-105.27","55.15","LA RONGE A","4064155","2018-10-02 01:00","2018","10","02","01:00","-1.1","","-6.0","","69","","","","24","","6","","24.1","","97.19","","","","-3","","NA"
"-105.27","55.15","LA RONGE A","4064155","2018-10-02 02:00","2018","10","02","02:00","-1.9","","-6.4","","71","","","","25","","8","","24.1","","97.20","","","","-5","","NA"
"-105.27","55.15","LA RONGE A","4064155","2018-10-02 03:00","2018","10","02","03:00","-2.5","","-6.0","","77","","","","26","","6","","24.1","","97.19","","","","-5","","Mainly Clear"
"-105.27","55.15","LA RONGE A","4064155","2018-10-02 04:00","2018","10","02","04:00","-1.9","","-5.8","","75","","","","27","","12","","24.1","","97.17","","","","-6","","NA"
"-105.27","55.15","LA RONGE A","4064155","2018-10-02 05:00","2018","10","02","05:00","-2.3","","-5.2","","80","","","","27","","10","","24.1","","97.16","","","","-6","","NA"
"-105.27","55.15","LA RONGE A","4064155","2018-10-02 06:00","2018","10","02","06:00","-3.1","","-5.1","","86","","","","25","","7","","24.1","","97.16","","","","-6","","Mainly Clear"
"-105.27","55.15","LA RONGE A","4064155","2018-10-02 07:00","2018","10","02","07:00","-3.5","","-5.3","","87","","","","26","","4","","24.1","","97.16","","","","-5","","NA"
"-105.27","55.15","LA RONGE A","4064155","2018-10-02 08:00","2018","10","02","08:00","-2.6","","-4.7","","86","","","","23","","9","","24.1","","97.15","","","","-6","","NA"
"-105.27","55.15","LA RONGE A","4064155","2018-10-02 09:00","2018","10","02","09:00","-1.0","","-3.9","","81","","","","26","","12","","24.1","","97.18","","","","-5","","Mostly Cloudy"
"-105.27","55.15","LA RONGE A","4064155","2018-10-02 10:00","2018","10","02","10:00","0.8","","-5.8","","61","","","","27","","22","","24.1","","97.11","","","","","","NA"
"-105.27","55.15","LA RONGE A","4064155","2018-10-02 11:00","2018","10","02","11:00","1.0","","-5.6","","62","","","","26","","17","","24.1","","97.07","","","","","","NA"
"-105.27","55.15","LA RONGE A","4064155","2018-10-02 12:00","2018","10","02","12:00","0.6","","-7.0","","57","","","","29","","22","","24.1","","97.03","","","","","","Mostly Cloudy"
"-105.27","55.15","LA RONGE A","4064155","2018-10-02 13:00","2018","10","02","13:00","2.1","","-7.4","","49","","","","26","","26","","24.1","","96.94","","","","","","NA"
"-105.27","55.15","LA RONGE A","4064155","2018-10-02 14:00","2018","10","02","14:00","2.8","","-8.3","","44","","","","28","","21","","24.1","","96.83","","","","","","NA"
"-105.27","55.15","LA RONGE A","4064155","2018-10-02 15:00","2018","10","02","15:00","3.4","","-8.3","","42","","","","24","","20","","24.1","","96.74","","","","","","Mainly Clear"
"-105.27","55.15","LA RONGE A","4064155","2018-10-02 16:00","2018","10","02","16:00","3.2","","-10.5","","36","","","","26","","19","","24.1","","96.66","","","","","","NA"
"-105.27","55.15","LA RONGE A","4064155","2018-10-02 17:00","2018","10","02","17:00","3.1","","-9.8","","38","","","","25","","18","","24.1","","96.60","","","","","","NA"
"-105.27","55.15","LA RONGE A","4064155","2018-10-02 18:00","2018","10","02","18:00","1.7","","-9.2","","44","","","","26","","11","","24.1","","96.56","","","","","","Mainly Clear"
"-105.27","55.15","LA RONGE A","4064155","2018-10-02 19:00","2018","10","02","19:00","0.5","","-8.8","","50","","","","25","","7","","24.1","","96.52","","","","","","NA"
"-105.27","55.15","LA RONGE A","4064155","2018-10-02 20:00","2018","10","02","20:00","-0.6","","-8.2","","57","","","","21","","8","","24.1","","96.48","","","","-3","","NA"
"-105.27","55.15","LA RONGE A","4064155","2018-10-02 21:00","2018","10","02","21:00","-0.5","","-7.2","","61","","","","24","","10","","24.1","","96.45","","","","-4","","Clear"
"-105.27","55.15","LA RONGE A","4064155","2018-10-02 22:00","2018","10","02","22:00","-1.1","","-7.4","","63","","","","25","","8","","24.1","","96.40","","","","-4","","NA"
"-105.27","55.15","LA RONGE A","4064155","2018-10-02 23:00","2018","10","02","23:00","-0.9","","-8.5","","57","","","","26","","10","","24.1","","96.38","","","","-4","","NA"
"-105.27","55.15","LA RONGE A","4064155","2018-10-03 00:00","2018","10","03","00:00","-0.8","","-8.1","","58","","","","24","","8","","24.1","","96.33","","","","-4","","Cloudy"
"-105.27","55.15","LA RONGE A","4064155","2018-10-03 01:00","2018","10","03","01:00","-0.6","","-7.5","","60","","","","25","","10","","24.1","","96.32","","","","-4","","NA"
"-105.27","55.15","LA RONGE A","4064155","2018-10-03 02:00","2018","10","03","02:00","-1.5","","-8.1","","61","","","","26","","9","","24.1","","96.32","","","","-5","","NA"
"-105.27","55.15","LA RONGE A","4064155","2018-10-03 03:00","2018","10","03","03:00","-3.6","","-8.2","","71","","","","28","","10","","24.1","","96.30","","","","-8","","Mainly Clear"
"-105.27","55.15","LA RONGE A","4064155","2018-10-03 04:00","2018","10","03","04:00","-3.1","","-7.5","","72","","","","25","","9","","24.1","","96.32","","","","-7","","NA"
"-105.27","55.15","LA RONGE A","4064155","2018-10-03 05:00","2018","10","03","05:00","-3.5","","-7.5","","74","","","","25","","8","","24.1","","96.34","","","","-7","","NA"
"-105.27","55.15","LA RONGE A","4064155","2018-10-03 06:00","2018","10","03","06:00","-2.3","","-6.2","","75","","","","27","","11","","24.1","","96.37","","","","-6","","Mostly Cloudy"
"-105.27","55.15","LA RONGE A","4064155","2018-10-03 07:00","2018","10","03","07:00","-2.8","","-5.7","","81","","","","25","","7","","24.1","","96.39","","","","-6","","NA"
"-105.27","55.15","LA RONGE A","4064155","2018-10-03 08:00","2018","10","03","08:00","-2.0","","-5.0","","80","","","","28","","13","","12.9","","96.44","","","","-6","","Snow Showers"
"-105.27","55.15","LA RONGE A","4064155","2018-10-03 09:00","2018","10","03","09:00","-0.7","","-5.7","","69","","","","30","","23","","16.1","","96.51","","","","-7","","Snow Showers"
"-105.27","55.15","LA RONGE A","4064155","2018-10-03 10:00","2018","10","03","10:00","-0.4","","-8.6","","54","","","","30","","26","","19.3","","96.60","","","","-7","","Snow Showers"
"-105.27","55.15","LA RONGE A","4064155","2018-10-03 11:00","2018","10","03","11:00","-1.2","","-8.9","","56","","","","33","","18","","24.1","","96.72","","","","-6","","NA"
"-105.27","55.15","LA RONGE A","4064155","2018-10-03 12:00","2018","10","03","12:00","-0.5","","-9.1","","52","","","","30","","25","","24.1","","96.78","","","","-7","","Mostly Cloudy"
"-105.27","55.15","LA RONGE A","4064155","2018-10-03 13:00","2018","10","03","13:00","0.5","","-9.7","","47","","","","31","","20","","24.1","","96.84","","","","","","NA"
"-105.27","55.15","LA RONGE A","4064155","2018-10-03 14:00","2018","10","03","14:00","0.2","","-9.5","","48","","","","28","","25","","24.1","","96.89","","","","","","NA"
"-105.27","55.15","LA RONGE A","4064155","2018-10-03 15:00","2018","10","03","15:00","1.1","","-10.1","","43","","","","30","","21","","24.1","","96.94","","","","","","Mostly Cloudy"
"-105.27","55.15","LA RONGE A","4064155","2018-10-03 16:00","2018","10","03","16:00","0.6","","-10.0","","45","","","","29","","27","","24.1","","97.00","","","","","","NA"
"-105.27","55.15","LA RONGE A","4064155","2018-10-03 17:00","2018","10","03","17:00","0.2","","-9.1","","50","","","","30","","21","","24.1","","97.08","","","","","","NA"
"-105.27","55.15","LA RONGE A","4064155","2018-10-03 18:00","2018","10","03","18:00","-1.2","","-7.8","","61","","","","28","","20","","24.1","","97.16","","","","-7","","Mainly Clear"
"-105.27","55.15","LA RONGE A","4064155","2018-10-03 19:00","2018","10","03","19:00","-2.2","","-8.5","","62","","","","29","","14","","24.1","","97.24","","","","-7","","NA"
"-105.27","55.15","LA RONGE A","4064155","2018-10-03 20:00","2018","10","03","20:00","-2.3","","-7.8","","66","","","","31","","18","","24.1","","97.31","","","","-8","","NA"
"-105.27","55.15","LA RONGE A","4064155","2018-10-03 21:00","2018","10","03","21:00","-3.4","","-7.3","","74","","","","30","","13","","24.1","","97.38","","","","-8","","Mainly Clear"
"-105.27","55.15","LA RONGE A","4064155","2018-10-03 22:00","2018","10","03","22:00","-3.9","","-7.2","","78","","","","29","","12","","24.1","","97.41","","","","-9","","NA"
"-105.27","55.15","LA RONGE A","4064155","2018-10-03 23:00","2018","10","03","23:00","-4.7","","-7.3","","82","","","","31","","9","","24.1","","97.44","","","","-9","","NA"
"-105.27","55.15","LA RONGE A","4064155","2018-10-04 00:00","2018","10","04","00:00","-5.2","","-7.3","","85","","","","27","","8","","24.1","","97.49","","","","-9","","Clear"
"-105.27","55.15","LA RONGE A","4064155","2018-10-04 01:00","2018","10","04","01:00","-5.7","","-7.3","","89","","","","28","","8","","24.1","","97.52","","","","-9","","NA"
"-105.27","55.15","LA RONGE A","4064155","2018-10-04 02:00","2018","10","04","02:00","-7.5","","-8.8","","91","","","","27","","4","","24.1","","97.56","","","","-10","","NA"
"-105.27","55.15","LA RONGE A","4064155","2018-10-04 03:00","2018","10","04","03:00","-6.8","","-7.9","","92","","","","26","","4","","24.1","","97.60","","","","-9","","Clear"
"-105.27","55.15","LA RONGE A","4064155","2018-10-04 04:00","2018","10","04","04:00","-8.7","","-10.1","","90","","","","36","","3","","24.1","","97.63","","","","-10","","NA"
"-105.27","55.15","LA RONGE A","4064155","2018-10-04 05:00","2018","10","04","05:00","-8.6","","-9.6","","92","","","","22","","4","","24.1","","97.67","","","","-11","","NA"
"-105.27","55.15","LA RONGE A","4064155","2018-10-04 06:00","2018","10","04","06:00","-9.2","","-10.2","","92","","","","19","","3","","24.1","","97.69","","","","-11","","Mainly Clear"
"-105.27","55.15","LA RONGE A","4064155","2018-10-04 07:00","2018","10","04","07:00","-10.3","","-11.5","","91","","","","36","","2","","24.1","","97.70","","","","-11","","NA"
"-105.27","55.15","LA RONGE A","4064155","2018-10-04 08:00","2018","10","04","08:00","-6.6","","-7.5","","93","","","","25","","7","","24.1","","97.73","","","","-10","","NA"
"-105.27","55.15","LA RONGE A","4064155","2018-10-04 09:00","2018","10","04","09:00","-4.3","","-5.7","","90","","","","25","","5","","24.1","","97.74","","","","-6","","Mainly Clear"
"-105.27","55.15","LA RONGE A","4064155","2018-10-04 10:00","2018","10","04","10:00","-3.1","","-5.7","","82","","","","25","","5","","24.1","","97.74","","","","-5","","NA"
"-105.27","55.15","LA RONGE A","4064155","2018-10-04 11:00","2018","10","04","11:00","-1.4","","-5.9","","72","","","","36","","1","","24.1","","97.72","","","","-2","","NA"
"-105.27","55.15","LA RONGE A","4064155","2018-10-04 12:00","2018","10","04","12:00","1.2","","-6.5","","57","","","","33","","12","","24.1","","97.67","","","","","","Mostly Cloudy"
"-105.27","55.15","LA RONGE A","4064155","2018-10-04 13:00","2018","10","04","13:00","1.7","","-8.3","","47","","","","33","","7","","24.1","","97.63","","","","","","NA"
"-105.27","55.15","LA RONGE A","4064155","2018-10-04 14:00","2018","10","04","14:00","1.0","","-9.5","","45","","","","19","","7","","24.1","","97.57","","","","","","NA"
"-105.27","55.15","LA RONGE A","4064155","2018-10-04 15:00","2018","10","04","15:00","1.2","","-9.0","","47","","","","19","","8","","24.1","","97.53","","","","","","Mostly Cloudy"
"-105.27","55.15","LA RONGE A","4064155","2018-10-04 16:00","2018","10","04","16:00","0.7","","-8.3","","51","","","","12","","8","","24.1","","97.47","","","","","","NA"
"-105.27","55.15","LA RONGE A","4064155","2018-10-04 17:00","2018","10","04","17:00","0.5","","-8.5","","51","","","","8","","4","","24.1","","97.43","","","","","","NA"
"-105.27","55.15","LA RONGE A","4064155","2018-10-04 18:00","2018","10","04","18:00","0.2","","-8.2","","53","","","","8","","7","","24.1","","97.40","","","","","","Mainly Clear"
"-105.27","55.15","LA RONGE A","4064155","2018-10-04 19:00","2018","10","04","19:00","-1.3","","-7.9","","61","","","","9","","5","","24.1","","97.40","","","","-3","","NA"
"-105.27","55.15","LA RONGE A","4064155","2018-10-04 20:00","2018","10","04","20:00","-2.5","","-7.6","","69","","","","7","","7","","24.1","","97.39","","","","-5","","NA"
"-105.27","55.15","LA RONGE A","4064155","2018-10-04 21:00","2018","10","04","21:00","-3.5","","-7.5","","74","","","","8","","8","","24.1","","97.38","","","","-7","","Clear"
"-105.27","55.15","LA RONGE A","4064155","2018-10-04 22:00","2018","10","04","22:00","-2.0","","-7.0","","69","","","","8","","8","","24.1","","97.34","","","","-5","","NA"
"-105.27","55.15","LA RONGE A","4064155","2018-10-04 23:00","2018","10","04","23:00","-2.3","","-6.8","","71","","","","9","","8","","24.1","","97.30","","","","-5","","NA"
"-105.27","55.15","LA RONGE A","4064155","2018-10-05 00:00","2018","10","05","00:00","-3.2","","-6.6","","77","","","","6","","6","","24.1","","97.29","","","","-6","","Clear"
"-105.27","55.15","LA RONGE A","4064155","2018-10-05 01:00","2018","10","05","01:00","-3.8","","-6.3","","83","","","","36","","1","","24.1","","97.26","","","","-4","","NA"
"-105.27","55.15","LA RONGE A","4064155","2018-10-05 02:00","2018","10","05","02:00","-2.3","","-5.5","","79","","","","18","","4","","24.1","","97.24","","","","-4","","NA"
"-105.27","55.15","LA RONGE A","4064155","2018-10-05 03:00","2018","10","05","03:00","-1.8","","-5.8","","74","","","","36","","3","","24.1","","97.20","","","","-3","","Mostly Cloudy"
"-105.27","55.15","LA RONGE A","4064155","2018-10-05 04:00","2018","10","05","04:00","-0.2","","-5.5","","67","","","","15","","12","","24.1","","97.15","","","","-4","","NA"
"-105.27","55.15","LA RONGE A","4064155","2018-10-05 05:00","2018","10","05","05:00","-0.5","","-5.7","","68","","","","15","","10","","24.1","","97.15","","","","-4","","NA"
"-105.27","55.15","LA RONGE A","4064155","2018-10-05 06:00","2018","10","05","06:00","-0.8","","-5.6","","70","","","","15","","14","","24.1","","97.12","","","","-5","","Cloudy"
"-105.27","55.15","LA RONGE A","4064155","2018-10-05 07:00","2018","10","05","07:00","-0.9","","-5.9","","69","","","","15","","13","","24.1","","97.07","","","","-5","","NA"
"-105.27","55.15","LA RONGE A","4064155","2018-10-05 08:00","2018","10","05","08:00","-0.5","","-5.2","","71","","","","15","","16","","24.1","","97.03","","","","-5","","NA"
"-105.27","55.15","LA RONGE A","4064155","2018-10-05 09:00","2018","10","05","09:00","-0.1","","-5.2","","69","","","","16","","17","","24.1","","97.00","","","","-5","","Mostly Cloudy"
"-105.27","55.15","LA RONGE A","4064155","2018-10-05 10:00","2018","10","05","10:00","0.5","","-5.2","","66","","","","16","","14","","24.1","","96.97","","","","","","NA"
"-105.27","55.15","LA RONGE A","4064155","2018-10-05 11:00","2018","10","05","11:00","3.9","","-4.4","","55","","","","18","","19","","24.1","","96.89","","","","","","NA"
"-105.27","55.15","LA RONGE A","4064155","2018-10-05 12:00","2018","10","05","12:00","6.7","","-4.1","","46","","","","17","","25","","24.1","","96.84","","","","","","Mostly Cloudy"
"-105.27","55.15","LA RONGE A","4064155","2018-10-05 13:00","2018","10","05","13:00","6.4","","-4.3","","46","","","","19","","23","","24.1","","96.78","","","","","","NA"
"-105.27","55.15","LA RONGE A","4064155","2018-10-05 14:00","2018","10","05","14:00","6.2","","-4.6","","46","","","","22","","12","","24.1","","96.74","","","","","","NA"
"-105.27","55.15","LA RONGE A","4064155","2018-10-05 15:00","2018","10","05","15:00","3.8","","-0.6","","73","","","","24","","7","","24.1","","96.76","","","","","","Cloudy"
"-105.27","55.15","LA RONGE A","4064155","2018-10-05 16:00","2018","10","05","16:00","2.0","","0.4","","89","","","","28","","14","","9.7","","96.81","","","","","","Rain,Fog"
"-105.27","55.15","LA RONGE A","4064155","2018-10-05 17:00","2018","10","05","17:00","1.3","","0.6","","95","","","","28","","14","","9.7","","96.85","","","","","","Rain,Snow,Fog"
"-105.27","55.15","LA RONGE A","4064155","2018-10-05 18:00","2018","10","05","18:00","1.5","","0.5","","93","","","","27","","10","","19.3","","96.91","","","","","","Mostly Cloudy"
"-105.27","55.15","LA RONGE A","4064155","2018-10-05 19:00","2018","10","05","19:00","1.1","","0.0","","92","","","","28","","15","","24.1","","96.98","","","","","","NA"
"-105.27","55.15","LA RONGE A","4064155","2018-10-05 20:00","2018","10","05","20:00","0.4","","-1.0","","90","","","","29","","19","","24.1","","97.03","","","","","","Snow"
"-105.27","55.15","LA RONGE A","4064155","2018-10-05 21:00","2018","10","05","21:00","-0.1","","-2.1","","86","","","","30","","19","","19.3","","97.08","","","","-5","","Snow"
"-105.27","55.15","LA RONGE A","4064155","2018-10-05 22:00","2018","10","05","22:00","-0.3","","-3.1","","81","","","","30","","16","","24.1","","97.13","","","","-5","","NA"
"-105.27","55.15","LA RONGE A","4064155","2018-10-05 23:00","2018","10","05","23:00","-1.0","","-4.7","","76","","","","29","","17","","24.1","","97.17","","","","-6","","NA"
"-105.27","55.15","LA RONGE A","4064155","2018-10-06 00:00","2018","10","06","00:00","-1.1","","-4.7","","77","","","","30","","16","","24.1","","97.16","","","","-6","","Cloudy"
"-105.27","55.15","LA RONGE A","4064155","2018-10-06 01:00","2018","10","06","01:00","-1.4","","-4.6","","79","","","","34","","15","","24.1","","97.19","","","","-6","","NA"
"-105.27","55.15","LA RONGE A","4064155","2018-10-06 02:00","2018","10","06","02:00","-1.9","","-5.3","","78","","","","30","","13","","24.1","","97.25","","","","-6","","NA"
"-105.27","55.15","LA RONGE A","4064155","2018-10-06 03:00","2018","10","06","03:00","-2.2","","-5.8","","76","","","","30","","11","","24.1","","97.29","","","","-6","","Cloudy"
"-105.27","55.15","LA RONGE A","4064155","2018-10-06 04:00","2018","10","06","04:00","-2.2","","-5.5","","78","","","","31","","13","","24.1","","97.33","","","","-7","","NA"
"-105.27","55.15","LA RONGE A","4064155","2018-10-06 05:00","2018","10","06","05:00","-2.4","","-5.1","","82","","","","29","","10","","24.1","","97.39","","","","-6","","NA"
"-105.27","55.15","LA RONGE A","4064155","2018-10-06 06:00","2018","10","06","06:00","-2.5","","-5.1","","82","","","","33","","10","","24.1","","97.44","","","","-6","","Cloudy"
"-105.27","55.15","LA RONGE A","4064155","2018-10-06 07:00","2018","10","06","07:00","-2.4","","-6.3","","75","","","","31","","7","","24.1","","97.49","","","","-5","","NA"
"-105.27","55.15","LA RONGE A","4064155","2018-10-06 08:00","2018","10","06","08:00","-2.2","","-6.6","","72","","","","36","","7","","24.1","","97.52","","","","-5","","NA"
"-105.27","55.15","LA RONGE A","4064155","2018-10-06 09:00","2018","10","06","09:00","-2.0","","-6.5","","72","","","","35","","9","","24.1","","97.57","","","","-5","","Cloudy"
"-105.27","55.15","LA RONGE A","4064155","2018-10-06 10:00","2018","10","06","10:00","-1.8","","-6.8","","69","","","","36","","2","","24.1","","97.62","","","","-3","","NA"
"-105.27","55.15","LA RONGE A","4064155","2018-10-06 11:00","2018","10","06","11:00","-1.6","","-5.6","","75","","","","36","","10","","24.1","","97.66","","","","-5","","NA"
"-105.27","55.15","LA RONGE A","4064155","2018-10-06 12:00","2018","10","06","12:00","-1.4","","-6.1","","70","","","","34","","5","","24.1","","97.69","","","","-3","","Cloudy"
"-105.27","55.15","LA RONGE A","4064155","2018-10-06 13:00","2018","10","06","13:00","-0.9","","-6.5","","66","","","","26","","6","","24.1","","97.70","","","","-3","","NA"
"-105.27","55.15","LA RONGE A","4064155","2018-10-06 14:00","2018","10","06","14:00","-0.7","","-6.6","","65","","","","21","","5","","24.1","","97.72","","","","-2","","NA"
"-105.27","55.15","LA RONGE A","4064155","2018-10-06 15:00","2018","10","06","15:00","0.2","","-5.8","","64","","","","36","","4","","24.1","","97.69","","","","","","Mostly Cloudy"
"-105.27","55.15","LA RONGE A","4064155","2018-10-06 16:00","2018","10","06","16:00","0.3","","-5.2","","67","","","","6","","11","","24.1","","97.70","","","","","","NA"
"-105.27","55.15","LA RONGE A","4064155","2018-10-06 17:00","2018","10","06","17:00","-0.2","","-5.0","","70","","","","9","","11","","24.1","","97.72","","","","-4","","NA"
"-105.27","55.15","LA RONGE A","4064155","2018-10-06 18:00","2018","10","06","18:00","-0.2","","-4.8","","71","","","","8","","13","","19.3","","97.70","","","","-4","","Snow"
"-105.27","55.15","LA RONGE A","4064155","2018-10-06 19:00","2018","10","06","19:00","-0.7","","-3.7","","80","","","","9","","15","","4.8","","97.72","","","","-5","","Snow"
"-105.27","55.15","LA RONGE A","4064155","2018-10-06 20:00","2018","10","06","20:00","-1.2","","-2.7","","90","","","","9","","16","","2.4","","97.72","","","","-6","","Snow"
"-105.27","55.15","LA RONGE A","4064155","2018-10-06 21:00","2018","10","06","21:00","-1.7","","-2.8","","92","","","","9","","20","","1.6","","97.74","","","","-7","","Snow"
"-105.27","55.15","LA RONGE A","4064155","2018-10-06 22:00","2018","10","06","22:00","-1.8","","-2.8","","93","","","","9","","13","","1.6","","97.73","","","","-6","","Snow"
"-105.27","55.15","LA RONGE A","4064155","2018-10-06 23:00","2018","10","06","23:00","-1.9","","-2.7","","94","","","","8","","19","","0.8","","97.74","","","","-7","","Moderate Snow"
"-105.27","55.15","LA RONGE A","4064155","2018-10-07 00:00","2018","10","07","00:00","-1.9","","-2.7","","94","","","","7","","19","","1.6","","97.78","","","","-7","","Snow"
"-105.27","55.15","LA RONGE A","4064155","2018-10-07 01:00","2018","10","07","01:00","-1.9","","-2.8","","93","","","","8","","21","","4.8","","97.75","","","","-8","","Snow"
"-105.27","55.15","LA RONGE A","4064155","2018-10-07 02:00","2018","10","07","02:00","-1.8","","-3.0","","91","","","","9","","21","","4.8","","97.77","","","","-8","","Snow"
"-105.27","55.15","LA RONGE A","4064155","2018-10-07 03:00","2018","10","07","03:00","-1.8","","-2.9","","92","","","","8","","22","","9.7","","97.78","","","","-8","","Snow"
"-105.27","55.15","LA RONGE A","4064155","2018-10-07 04:00","2018","10","07","04:00","-1.8","","-3.2","","90","","","","8","","19","","24.1","","97.81","","","","-7","","Snow"
"-105.27","55.15","LA RONGE A","4064155","2018-10-07 05:00","2018","10","07","05:00","-1.7","","-3.5","","87","","","","8","","18","","19.3","","97.84","","","","-7","","Snow"
"-105.27","55.15","LA RONGE A","4064155","2018-10-07 06:00","2018","10","07","06:00","-1.5","","-3.5","","86","","","","7","","17","","19.3","","97.85","","","","-7","","Snow"
"-105.27","55.15","LA RONGE A","4064155","2018-10-07 07:00","2018","10","07","07:00","-1.6","","-3.8","","85","","","","7","","22","","19.3","","97.90","","","","-8","","Snow"
"-105.27","55.15","LA RONGE A","4064155","2018-10-07 08:00","2018","10","07","08:00","-1.8","","-3.5","","89","","","","5","","18","","24.1","","97.96","","","","-7","","Snow"
"-105.27","55.15","LA RONGE A","4064155","2018-10-07 09:00","2018","10","07","09:00","-2.4","","-3.9","","89","","","","2","","18","","24.1","","98.02","","","","-8","","Snow"
"-105.27","55.15","LA RONGE A","4064155","2018-10-07 10:00","2018","10","07","10:00","-2.5","","-4.2","","88","","","","2","","19","","24.1","","98.07","","","","-8","","Snow"
"-105.27","55.15","LA RONGE A","4064155","2018-10-07 11:00","2018","10","07","11:00","-2.2","","-4.2","","86","","","","3","","18","","24.1","","98.07","","","","-8","","Snow"
"-105.27","55.15","LA RONGE A","4064155","2018-10-07 12:00","2018","10","07","12:00","-1.9","","-4.3","","83","","","","4","","15","","24.1","","98.12","","","","-7","","Snow"
"-105.27","55.15","LA RONGE A","4064155","2018-10-07 13:00","2018","10","07","13:00","-1.8","","-4.3","","83","","","","2","","13","","24.1","","98.12","","","","-6","","Snow"
"-105.27","55.15","LA RONGE A","4064155","2018-10-07 14:00","2018","10","07","14:00","-1.8","","-4.8","","80","","","","3","","16","","24.1","","98.15","","","","-7","","Snow"
"-105.27","55.15","LA RONGE A","4064155","2018-10-07 15:00","2018","10","07","15:00","-1.6","","-5.2","","77","","","","3","","15","","24.1","","98.18","","","","-6","","Cloudy"
"-105.27","55.15","LA RONGE A","4064155","2018-10-07 16:00","2018","10","07","16:00","-1.6","","-5.2","","77","","","","3","","17","","24.1","","98.21","","","","-7","","NA"
"-105.27","55.15","LA RONGE A","4064155","2018-10-07 17:00","2018","10","07","17:00","-1.8","","-5.3","","77","","","","1","","19","","24.1","","98.24","","","","-7","","NA"
"-105.27","55.15","LA RONGE A","4064155","2018-10-07 18:00","2018","10","07","18:00","-1.9","","-5.4","","77","","","","1","","18","","24.1","","98.25","","","","-7","","Cloudy"
"-105.27","55.15","LA RONGE A","4064155","2018-10-07 19:00","2018","10","07","19:00","-1.8","","-5.7","","75","","","","4","","16","","24.1","","98.28","","","","-7","","NA"
"-105.27","55.15","LA RONGE A","4064155","2018-10-07 20:00","2018","10","07","20:00","-1.9","","-5.6","","76","","","","3","","16","","24.1","","98.27","","","","-7","","NA"
"-105.27","55.15","LA RONGE A","4064155","2018-10-07 21:00","2018","10","07","21:00","-2.2","","-6.4","","73","","","","4","","20","","24.1","","98.30","","","","-8","","Cloudy"
"-105.27","55.15","LA RONGE A","4064155","2018-10-07 22:00","2018","10","07","22:00","-2.2","","-6.3","","74","","","","4","","16","","24.1","","98.33","","","","-7","","NA"
"-105.27","55.15","LA RONGE A","4064155","2018-10-07 23:00","2018","10","07","23:00","-2.6","","-6.4","","75","","","","4","","18","","24.1","","98.36","","","","-8","","NA"
"-105.27","55.15","LA RONGE A","4064155","2018-10-08 00:00","2018","10","08","00:00","-3.2","","-7.7","","71","","","","4","","21","","24.1","","98.39","","","","-9","","Cloudy"
"-105.27","55.15","LA RONGE A","4064155","2018-10-08 01:00","2018","10","08","01:00","-3.7","","-7.9","","73","","","","2","","20","","24.1","","98.40","","","","-10","","NA"
"-105.27","55.15","LA RONGE A","4064155","2018-10-08 02:00","2018","10","08","02:00","-3.6","","-8.0","","72","","","","2","","19","","24.1","","98.42","","","","-10","","NA"
"-105.27","55.15","LA RONGE A","4064155","2018-10-08 03:00","2018","10","08","03:00","-3.8","","-8.1","","72","","","","2","","21","","24.1","","98.40","","","","-10","","Cloudy"
"-105.27","55.15","LA RONGE A","4064155","2018-10-08 04:00","2018","10","08","04:00","-4.0","","-8.6","","71","","","","3","","19","","24.1","","98.42","","","","-10","","NA"
"-105.27","55.15","LA RONGE A","4064155","2018-10-08 05:00","2018","10","08","05:00","-4.3","","-8.7","","71","","","","36","","19","","24.1","","98.42","","","","-10","","NA"
"-105.27","55.15","LA RONGE A","4064155","2018-10-08 06:00","2018","10","08","06:00","-4.7","","-8.7","","74","","","","35","","14","","24.1","","98.46","","","","-10","","Cloudy"
"-105.27","55.15","LA RONGE A","4064155","2018-10-08 07:00","2018","10","08","07:00","-5.0","","-8.7","","76","","","","34","","11","","24.1","","98.51","","","","-10","","NA"
"-105.27","55.15","LA RONGE A","4064155","2018-10-08 08:00","2018","10","08","08:00","-5.7","","-8.3","","82","","","","34","","11","","24.1","","98.54","","","","-10","","NA"
"-105.27","55.15","LA RONGE A","4064155","2018-10-08 09:00","2018","10","08","09:00","-4.8","","-7.8","","80","","","","35","","10","","24.1","","98.55","","","","-9","","Cloudy"
"-105.27","55.15","LA RONGE A","4064155","2018-10-08 10:00","2018","10","08","10:00","-3.8","","-8.6","","70","","","","1","","17","","24.1","","98.56","","","","-10","","NA"
"-105.27","55.15","LA RONGE A","4064155","2018-10-08 11:00","2018","10","08","11:00","-3.1","","-9.0","","64","","","","1","","14","","24.1","","98.56","","","","-8","","NA"
"-105.27","55.15","LA RONGE A","4064155","2018-10-08 12:00","2018","10","08","12:00","-2.1","","-8.5","","62","","","","33","","9","","24.1","","98.54","","","","-6","","Mainly Clear"
"-105.27","55.15","LA RONGE A","4064155","2018-10-08 13:00","2018","10","08","13:00","-1.4","","-9.4","","54","","","","31","","8","","24.1","","98.50","","","","-4","","NA"
"-105.27","55.15","LA RONGE A","4064155","2018-10-08 14:00","2018","10","08","14:00","-0.9","","-9.8","","51","","","","33","","13","","24.1","","98.45","","","","-5","","NA"
"-105.27","55.15","LA RONGE A","4064155","2018-10-08 15:00","2018","10","08","15:00","-0.8","","-10.2","","49","","","","3","","9","","24.1","","98.42","","","","-4","","Clear"
"-105.27","55.15","LA RONGE A","4064155","2018-10-08 16:00","2018","10","08","16:00","0.4","","-10.7","","43","","","","36","","1","","24.1","","98.38","","","","","","NA"
"-105.27","55.15","LA RONGE A","4064155","2018-10-08 17:00","2018","10","08","17:00","-0.1","","-11.1","","44","","","","28","","4","","24.1","","98.38","","","","-1","","NA"
"-105.27","55.15","LA RONGE A","4064155","2018-10-08 18:00","2018","10","08","18:00","-2.2","","-11.1","","51","","","","29","","8","","24.1","","98.38","","","","-5","","Clear"
"-105.27","55.15","LA RONGE A","4064155","2018-10-08 19:00","2018","10","08","19:00","-5.5","","-9.0","","77","","","","27","","5","","24.1","","98.38","","","","-8","","NA"
"-105.27","55.15","LA RONGE A","4064155","2018-10-08 20:00","2018","10","08","20:00","-6.9","","-9.3","","83","","","","24","","3","","24.1","","98.38","","","","-8","","NA"
"-105.27","55.15","LA RONGE A","4064155","2018-10-08 21:00","2018","10","08","21:00","-7.3","","-10.0","","81","","","","28","","9","","24.1","","98.38","","","","-12","","Clear"
"-105.27","55.15","LA RONGE A","4064155","2018-10-08 22:00","2018","10","08","22:00","-8.2","","-10.6","","83","","","","27","","7","","24.1","","98.40","","","","-12","","NA"
"-105.27","55.15","LA RONGE A","4064155","2018-10-08 23:00","2018","10","08","23:00","-7.3","","-10.2","","80","","","","28","","8","","24.1","","98.42","","","","-11","","NA"
"-105.27","55.15","LA RONGE A","4064155","2018-10-09 00:00","2018","10","09","00:00","-8.3","","-10.8","","82","","","","29","","7","","24.1","","98.44","","","","-12","","Clear"
"-105.27","55.15","LA RONGE A","4064155","2018-10-09 01:00","2018","10","09","01:00","-11.0","","-12.7","","87","","","","24","","4","","24.1","","98.45","","","","-13","","NA"
"-105.27","55.15","LA RONGE A","4064155","2018-10-09 02:00","2018","10","09","02:00","-10.1","","-11.2","","91","","","","29","","7","","24.1","","98.46","","","","-14","","NA"
"-105.27","55.15","LA RONGE A","4064155","2018-10-09 03:00","2018","10","09","03:00","-9.5","","-10.9","","90","","","","36","","2","","24.1","","98.49","","","","-11","","Clear"
"-105.27","55.15","LA RONGE A","4064155","2018-10-09 04:00","2018","10","09","04:00","-11.2","","-12.3","","92","","","","24","","4","","24.1","","98.50","","","","-14","","NA"
"-105.27","55.15","LA RONGE A","4064155","2018-10-09 05:00","2018","10","09","05:00","-11.8","","-13.0","","91","","","","36","","2","","24.1","","98.53","","","","-13","","NA"
"-105.27","55.15","LA RONGE A","4064155","2018-10-09 06:00","2018","10","09","06:00","-11.0","","-12.4","","90","","","","29","","6","","24.1","","98.53","","","","-15","","Clear"
"-105.27","55.15","LA RONGE A","4064155","2018-10-09 07:00","2018","10","09","07:00","-10.8","","-12.2","","89","","","","29","","8","","24.1","","98.56","","","","-15","","NA"
"-105.27","55.15","LA RONGE A","4064155","2018-10-09 08:00","2018","10","09","08:00","-8.8","","-10.1","","91","","","","20","","4","","24.1","","98.60","","","","-11","","NA"
"-105.27","55.15","LA RONGE A","4064155","2018-10-09 09:00","2018","10","09","09:00","-5.1","","-6.4","","91","","","","27","","8","","24.1","","98.62","","","","-9","","Mostly Cloudy"
"-105.27","55.15","LA RONGE A","4064155","2018-10-09 10:00","2018","10","09","10:00","-3.3","","-5.5","","85","","","","29","","14","","24.1","","98.64","","","","-8","","NA"
"-105.27","55.15","LA RONGE A","4064155","2018-10-09 11:00","2018","10","09","11:00","-2.1","","-5.3","","79","","","","29","","11","","24.1","","98.66","","","","-6","","NA"
"-105.27","55.15","LA RONGE A","4064155","2018-10-09 12:00","2018","10","09","12:00","0.1","","-6.0","","64","","","","30","","11","","24.1","","98.66","","","","","","Mainly Clear"
"-105.27","55.15","LA RONGE A","4064155","2018-10-09 13:00","2018","10","09","13:00","0.7","","-5.7","","62","","","","30","","9","","24.1","","98.65","","","","","","NA"
"-105.27","55.15","LA RONGE A","4064155","2018-10-09 14:00","2018","10","09","14:00","1.2","","-6.4","","57","","","","32","","10","","24.1","","98.62","","","","","","NA"
"-105.27","55.15","LA RONGE A","4064155","2018-10-09 15:00","2018","10","09","15:00","1.8","","-5.7","","57","","","","32","","12","","24.1","","98.60","","","","","","Clear"
"-105.27","55.15","LA RONGE A","4064155","2018-10-09 16:00","2018","10","09","16:00","2.5","","-5.8","","55","","","","30","","5","","24.1","","98.61","","","","","","NA"
"-105.27","55.15","LA RONGE A","4064155","2018-10-09 17:00","2018","10","09","17:00","2.1","","-6.4","","54","","","","30","","10","","24.1","","98.60","","","","","","NA"
"-105.27","55.15","LA RONGE A","4064155","2018-10-09 18:00","2018","10","09","18:00","0.5","","-6.5","","59","","","","28","","6","","24.1","","98.62","","","","","","Clear"
"-105.27","55.15","LA RONGE A","4064155","2018-10-09 19:00","2018","10","09","19:00","-3.1","","-6.0","","80","","","","36","","2","","24.1","","98.62","","","","-4","","NA"
"-105.27","55.15","LA RONGE A","4064155","2018-10-09 20:00","2018","10","09","20:00","-4.9","","-7.0","","85","","","","26","","5","","24.1","","98.62","","","","-7","","NA"
"-105.27","55.15","LA RONGE A","4064155","2018-10-09 21:00","2018","10","09","21:00","-6.7","","-8.3","","88","","","","25","","4","","24.1","","98.65","","","","-9","","Clear"
"-105.27","55.15","LA RONGE A","4064155","2018-10-09 22:00","2018","10","09","22:00","-6.6","","-7.8","","92","","","","36","","2","","24.1","","98.62","","","","-8","","NA"
"-105.27","55.15","LA RONGE A","4064155","2018-10-09 23:00","2018","10","09","23:00","-6.9","","-8.1","","91","","","","36","","2","","24.1","","98.61","","","","-8","","NA"
"-105.27","55.15","LA RONGE A","4064155","2018-10-10 00:00","2018","10","10","00:00","-8.3","","-9.5","","91","","","","36","","2","","24.1","","98.61","","","","-9","","Clear"
"-105.27","55.15","LA RONGE A","4064155","2018-10-10 01:00","2018","10","10","01:00","-8.9","","-10.0","","92","","","","36","","2","","24.1","","98.59","","","","-10","","NA"
"-105.27","55.15","LA RONGE A","4064155","2018-10-10 02:00","2018","10","10","02:00","-9.1","","-10.2","","92","","","","36","","2","","24.1","","98.58","","","","-10","","NA"
"-105.27","55.15","LA RONGE A","4064155","2018-10-10 03:00","2018","10","10","03:00","-10.1","","-11.3","","91","","","","27","","4","","24.1","","98.56","","","","-12","","Clear"
"-105.27","55.15","LA RONGE A","4064155","2018-10-10 04:00","2018","10","10","04:00","-11.0","","-12.3","","90","","","","27","","4","","24.1","","98.56","","","","-13","","NA"
"-105.27","55.15","LA RONGE A","4064155","2018-10-10 05:00","2018","10","10","05:00","-10.7","","-12.1","","90","","","","26","","3","","24.1","","98.55","","","","-13","","NA"
"-105.27","55.15","LA RONGE A","4064155","2018-10-10 06:00","2018","10","10","06:00","-11.4","","-12.7","","90","","","","36","","2","","24.1","","98.52","","","","-13","","Clear"
"-105.27","55.15","LA RONGE A","4064155","2018-10-10 07:00","2018","10","10","07:00","-10.7","","-12.2","","89","","","","36","","2","","24.1","","98.51","","","","-12","","NA"
"-105.27","55.15","LA RONGE A","4064155","2018-10-10 08:00","2018","10","10","08:00","-10.2","","-11.5","","90","","","","36","","2","","24.1","","98.48","","","","-11","","NA"
"-105.27","55.15","LA RONGE A","4064155","2018-10-10 09:00","2018","10","10","09:00","-6.5","","-7.7","","91","","","","36","","2","","1.6","","98.48","","","","-7","","Fog"
"-105.27","55.15","LA RONGE A","4064155","2018-10-10 10:00","2018","10","10","10:00","-3.4","","-3.8","","97","","","","19","","4","","0.8","","98.44","","","","-5","","Freezing Fog"
"-105.27","55.15","LA RONGE A","4064155","2018-10-10 11:00","2018","10","10","11:00","-0.5","","-2.0","","89","","","","13","","10","","24.1","","98.42","","","","-4","","NA"
"-105.27","55.15","LA RONGE A","4064155","2018-10-10 12:00","2018","10","10","12:00","0.9","","-2.8","","77","","","","15","","7","","24.1","","98.37","","","","","","Mainly Clear"
"-105.27","55.15","LA RONGE A","4064155","2018-10-10 13:00","2018","10","10","13:00","0.3","","-3.7","","74","","","","5","","9","","24.1","","98.30","","","","","","NA"
"-105.27","55.15","LA RONGE A","4064155","2018-10-10 14:00","2018","10","10","14:00","1.3","","-4.0","","68","","","","5","","9","","24.1","","98.23","","","","","","NA"
"-105.27","55.15","LA RONGE A","4064155","2018-10-10 15:00","2018","10","10","15:00","1.6","","-4.0","","67","","","","9","","4","","24.1","","98.17","","","","","","Clear"
"-105.27","55.15","LA RONGE A","4064155","2018-10-10 16:00","2018","10","10","16:00","2.0","","-4.5","","62","","","","4","","4","","24.1","","98.11","","","","","","NA"
"-105.27","55.15","LA RONGE A","4064155","2018-10-10 17:00","2018","10","10","17:00","1.9","","-4.4","","63","","","","4","","3","","24.1","","98.05","","","","","","NA"
"-105.27","55.15","LA RONGE A","4064155","2018-10-10 18:00","2018","10","10","18:00","0.1","","-4.4","","72","","","","11","","8","","24.1","","98.03","","","","","","Clear"
"-105.27","55.15","LA RONGE A","4064155","2018-10-10 19:00","2018","10","10","19:00","-3.3","","-4.8","","89","","","","36","","2","","24.1","","98.01","","","","-4","","NA"
"-105.27","55.15","LA RONGE A","4064155","2018-10-10 20:00","2018","10","10","20:00","-4.3","","-5.9","","88","","","","36","","2","","24.1","","97.96","","","","-5","","NA"
"-105.27","55.15","LA RONGE A","4064155","2018-10-10 21:00","2018","10","10","21:00","-5.8","","-7.1","","91","","","","36","","1","","24.1","","97.92","","","","-6","","Clear"
"-105.27","55.15","LA RONGE A","4064155","2018-10-10 22:00","2018","10","10","22:00","-6.7","","-7.7","","92","","","","","","0","","24.1","","97.88","","","","","","NA"
"-105.27","55.15","LA RONGE A","4064155","2018-10-10 23:00","2018","10","10","23:00","-7.3","","-8.4","","92","","","","36","","2","","24.1","","97.82","","","","-8","","NA"
"-105.27","55.15","LA RONGE A","4064155","2018-10-11 00:00","2018","10","11","00:00","-7.9","","-9.3","","90","","","","27","","4","","24.1","","97.80","","","","-10","","Clear"
"-105.27","55.15","LA RONGE A","4064155","2018-10-11 01:00","2018","10","11","01:00","-8.9","","-10.1","","91","","","","36","","3","","24.1","","97.76","","","","-11","","NA"
"-105.27","55.15","LA RONGE A","4064155","2018-10-11 02:00","2018","10","11","02:00","-9.2","","-10.6","","90","","","","22","","3","","24.1","","97.71","","","","-11","","NA"
"-105.27","55.15","LA RONGE A","4064155","2018-10-11 03:00","2018","10","11","03:00","-10.5","","-11.8","","90","","","","","","0","","24.1","","97.66","","","","","","Clear"
"-105.27","55.15","LA RONGE A","4064155","2018-10-11 04:00","2018","10","11","04:00","-10.1","","-11.5","","90","","","","36","","1","","24.1","","97.61","","","","-11","","NA"
"-105.27","55.15","LA RONGE A","4064155","2018-10-11 05:00","2018","10","11","05:00","-10.6","","-12.0","","90","","","","36","","1","","24.1","","97.58","","","","-11","","NA"
"-105.27","55.15","LA RONGE A","4064155","2018-10-11 06:00","2018","10","11","06:00","-11.3","","-12.6","","90","","","","17","","3","","24.1","","97.56","","","","-13","","Clear"
"-105.27","55.15","LA RONGE A","4064155","2018-10-11 07:00","2018","10","11","07:00","-10.8","","-12.1","","90","","","","36","","1","","24.1","","97.52","","","","-11","","NA"
"-105.27","55.15","LA RONGE A","4064155","2018-10-11 08:00","2018","10","11","08:00","-11.1","","-12.5","","89","","","","25","","3","","16.1","","97.49","","","","-13","","NA"
"-105.27","55.15","LA RONGE A","4064155","2018-10-11 09:00","2018","10","11","09:00","-6.2","","-7.4","","92","","","","36","","2","","24.1","","97.46","","","","-7","","Clear"
"-105.27","55.15","LA RONGE A","4064155","2018-10-11 10:00","2018","10","11","10:00","-2.5","","-4.5","","86","","","","16","","4","","24.1","","97.41","","","","-4","","NA"
"-105.27","55.15","LA RONGE A","4064155","2018-10-11 11:00","2018","10","11","11:00","0.8","","-3.7","","72","","","","16","","4","","24.1","","97.36","","","","","","NA"
"-105.27","55.15","LA RONGE A","4064155","2018-10-11 12:00","2018","10","11","12:00","2.5","","-5.8","","54","","","","22","","13","","24.1","","97.30","","","","","","Clear"
"-105.27","55.15","LA RONGE A","4064155","2018-10-11 13:00","2018","10","11","13:00","4.2","","-5.5","","49","","","","26","","8","","24.1","","97.23","","","","","","NA"
"-105.27","55.15","LA RONGE A","4064155","2018-10-11 14:00","2018","10","11","14:00","5.0","","-5.8","","45","","","","24","","8","","24.1","","97.12","","","","","","NA"
"-105.27","55.15","LA RONGE A","4064155","2018-10-11 15:00","2018","10","11","15:00","5.5","","-6.4","","42","","","","27","","9","","24.1","","97.03","","","","","","Mainly Clear"
"-105.27","55.15","LA RONGE A","4064155","2018-10-11 16:00","2018","10","11","16:00","5.2","","-4.4","","50","","","","16","","10","","24.1","","96.96","","","","","","NA"
"-105.27","55.15","LA RONGE A","4064155","2018-10-11 17:00","2018","10","11","17:00","4.5","","-4.3","","53","","","","14","","10","","24.1","","96.89","","","","","","NA"
"-105.27","55.15","LA RONGE A","4064155","2018-10-11 18:00","2018","10","11","18:00","3.3","","-4.3","","57","","","","15","","8","","24.1","","96.84","","","","","","Mainly Clear"
"-105.27","55.15","LA RONGE A","4064155","2018-10-11 19:00","2018","10","11","19:00","-1.4","","-5.0","","76","","","","19","","6","","24.1","","96.76","","","","-4","","NA"
"-105.27","55.15","LA RONGE A","4064155","2018-10-11 20:00","2018","10","11","20:00","0.5","","-3.8","","72","","","","15","","8","","24.1","","96.67","","","","","","NA"
"-105.27","55.15","LA RONGE A","4064155","2018-10-11 21:00","2018","10","11","21:00","-1.2","","-3.6","","84","","","","19","","7","","24.1","","96.59","","","","-4","","Mainly Clear"
"-105.27","55.15","LA RONGE A","4064155","2018-10-11 22:00","2018","10","11","22:00","-0.2","","-5.6","","67","","","","22","","10","","24.1","","96.55","","","","-4","","NA"
"-105.27","55.15","LA RONGE A","4064155","2018-10-11 23:00","2018","10","11","23:00","-0.8","","-5.0","","74","","","","23","","6","","24.1","","96.51","","","","-3","","NA"
"-105.27","55.15","LA RONGE A","4064155","2018-10-12 00:00","2018","10","12","00:00","-1.4","","-5.1","","76","","","","19","","8","","24.1","","96.43","","","","-4","","Mostly Cloudy"
"-105.27","55.15","LA RONGE A","4064155","2018-10-12 01:00","2018","10","12","01:00","-0.6","","-4.8","","73","","","","19","","12","","24.1","","96.34","","","","-5","","NA"
"-105.27","55.15","LA RONGE A","4064155","2018-10-12 02:00","2018","10","12","02:00","-0.6","","-4.7","","74","","","","19","","12","","24.1","","96.23","","","","-5","","NA"
"-105.27","55.15","LA RONGE A","4064155","2018-10-12 03:00","2018","10","12","03:00","-0.5","","-4.5","","75","","","","19","","11","","24.1","","96.11","","","","-4","","Cloudy"
"-105.27","55.15","LA RONGE A","4064155","2018-10-12 04:00","2018","10","12","04:00","-0.3","","-3.6","","78","","","","19","","11","","24.1","","96.00","","","","-4","","NA"
"-105.27","55.15","LA RONGE A","4064155","2018-10-12 05:00","2018","10","12","05:00","0.0","","-3.4","","78","","","","19","","9","","24.1","","95.87","","","","-3","","NA"
"-105.27","55.15","LA RONGE A","4064155","2018-10-12 06:00","2018","10","12","06:00","0.3","","-3.2","","78","","","","22","","6","","24.1","","95.79","","","","","","Cloudy"
"-105.27","55.15","LA RONGE A","4064155","2018-10-12 07:00","2018","10","12","07:00","0.3","","-2.8","","80","","","","20","","8","","24.1","","95.69","","","","","","NA"
"-105.27","55.15","LA RONGE A","4064155","2018-10-12 08:00","2018","10","12","08:00","0.6","","-2.7","","78","","","","19","","8","","24.1","","95.60","","","","","","NA"
"-105.27","55.15","LA RONGE A","4064155","2018-10-12 09:00","2018","10","12","09:00","0.8","","-2.6","","78","","","","20","","8","","24.1","","95.55","","","","","","Cloudy"
"-105.27","55.15","LA RONGE A","4064155","2018-10-12 10:00","2018","10","12","10:00","1.9","","-1.8","","76","","","","24","","11","","24.1","","95.53","","","","","","NA"
"-105.27","55.15","LA RONGE A","4064155","2018-10-12 11:00","2018","10","12","11:00","1.5","","-0.7","","85","","","","24","","12","","24.1","","95.53","","","","","","NA"
"-105.27","55.15","LA RONGE A","4064155","2018-10-12 12:00","2018","10","12","12:00","2.4","","-0.4","","82","","","","26","","8","","24.1","","95.49","","","","","","Cloudy"
"-105.27","55.15","LA RONGE A","4064155","2018-10-12 13:00","2018","10","12","13:00","2.7","","-0.5","","79","","","","29","","18","","24.1","","95.48","","","","","","NA"
"-105.27","55.15","LA RONGE A","4064155","2018-10-12 14:00","2018","10","12","14:00","3.0","","-0.6","","77","","","","30","","16","","19.3","","95.48","","","","","","NA"
"-105.27","55.15","LA RONGE A","4064155","2018-10-12 15:00","2018","10","12","15:00","3.1","","-0.6","","77","","","","31","","22","","12.9","","95.51","","","","","","Rain,Snow"
"-105.27","55.15","LA RONGE A","4064155","2018-10-12 16:00","2018","10","12","16:00","2.9","","-1.2","","75","","","","32","","20","","24.1","","95.56","","","","","","Rain,Snow"
"-105.27","55.15","LA RONGE A","4064155","2018-10-12 17:00","2018","10","12","17:00","2.1","","-2.6","","71","","","","33","","32","","24.1","","95.66","","","","","","NA"
"-105.27","55.15","LA RONGE A","4064155","2018-10-12 18:00","2018","10","12","18:00","1.4","","-5.3","","61","","","","32","","28","","24.1","","95.81","","","","","","Cloudy"
"-105.27","55.15","LA RONGE A","4064155","2018-10-12 19:00","2018","10","12","19:00","0.5","","-6.4","","60","","","","32","","26","","24.1","","95.92","","","","","","NA"
"-105.27","55.15","LA RONGE A","4064155","2018-10-12 20:00","2018","10","12","20:00","-0.4","","-8.0","","57","","","","33","","17","","24.1","","96.02","","","","-5","","NA"
"-105.27","55.15","LA RONGE A","4064155","2018-10-12 21:00","2018","10","12","21:00","-1.8","","-9.2","","57","","","","33","","20","","24.1","","96.15","","","","-8","","Mostly Cloudy"
"-105.27","55.15","LA RONGE A","4064155","2018-10-12 22:00","2018","10","12","22:00","-2.3","","-9.5","","58","","","","32","","24","","24.1","","96.22","","","","-9","","NA"
"-105.27","55.15","LA RONGE A","4064155","2018-10-12 23:00","2018","10","12","23:00","-2.4","","-8.5","","63","","","","30","","28","","24.1","","96.26","","","","-9","","NA"
"-105.27","55.15","LA RONGE A","4064155","2018-10-13 00:00","2018","10","13","00:00","-2.2","","-7.6","","67","","","","29","","32","","24.1","","96.27","","","","-10","","Snow"
"-105.27","55.15","LA RONGE A","4064155","2018-10-13 01:00","2018","10","13","01:00","-2.1","","-6.6","","71","","","","30","","38","","24.1","","96.27","","","","-10","","Snow"
"-105.27","55.15","LA RONGE A","4064155","2018-10-13 02:00","2018","10","13","02:00","-1.8","","-6.0","","73","","","","30","","28","","24.1","","96.33","","","","-9","","Snow"
"-105.27","55.15","LA RONGE A","4064155","2018-10-13 03:00","2018","10","13","03:00","-1.4","","-6.0","","71","","","","31","","33","","24.1","","96.37","","","","-9","","Snow"
"-105.27","55.15","LA RONGE A","4064155","2018-10-13 04:00","2018","10","13","04:00","-1.9","","-6.8","","69","","","","32","","42","","19.3","","96.47","","","","-10","","Snow"
"-105.27","55.15","LA RONGE A","4064155","2018-10-13 05:00","2018","10","13","05:00","-2.3","","-7.7","","66","","","","32","","35","","24.1","","96.58","","","","-10","","Snow"
"-105.27","55.15","LA RONGE A","4064155","2018-10-13 06:00","2018","10","13","06:00","-2.4","","-8.2","","64","","","","33","","30","","19.3","","96.66","","","","-10","","Snow"
"-105.27","55.15","LA RONGE A","4064155","2018-10-13 07:00","2018","10","13","07:00","-3.1","","-8.7","","65","","","","33","","27","","24.1","","96.76","","","","-10","","Snow"
"-105.27","55.15","LA RONGE A","4064155","2018-10-13 08:00","2018","10","13","08:00","-3.5","","-8.7","","67","","","","33","","35","","24.1","","96.85","","","","-12","","NA"
"-105.27","55.15","LA RONGE A","4064155","2018-10-13 09:00","2018","10","13","09:00","-3.1","","-8.0","","69","","","","32","","28","","24.1","","96.92","","","","-10","","Mostly Cloudy"
"-105.27","55.15","LA RONGE A","4064155","2018-10-13 10:00","2018","10","13","10:00","-2.5","","-8.3","","65","","","","33","","32","","24.1","","97.01","","","","-10","","NA"
"-105.27","55.15","LA RONGE A","4064155","2018-10-13 11:00","2018","10","13","11:00","-2.6","","-7.7","","68","","","","33","","26","","24.1","","97.11","","","","-9","","NA"
"-105.27","55.15","LA RONGE A","4064155","2018-10-13 12:00","2018","10","13","12:00","-2.8","","-7.8","","68","","","","33","","24","","24.1","","97.19","","","","-9","","Cloudy"
"-105.27","55.15","LA RONGE A","4064155","2018-10-13 13:00","2018","10","13","13:00","-2.5","","-8.1","","66","","","","34","","28","","24.1","","97.26","","","","-10","","NA"
"-105.27","55.15","LA RONGE A","4064155","2018-10-13 14:00","2018","10","13","14:00","-2.2","","-8.5","","62","","","","35","","32","","24.1","","97.32","","","","-10","","NA"
"-105.27","55.15","LA RONGE A","4064155","2018-10-13 15:00","2018","10","13","15:00","-2.2","","-8.3","","63","","","","33","","27","","24.1","","97.41","","","","-9","","Cloudy"
"-105.27","55.15","LA RONGE A","4064155","2018-10-13 16:00","2018","10","13","16:00","-1.9","","-8.2","","62","","","","35","","19","","24.1","","97.48","","","","-7","","NA"
"-105.27","55.15","LA RONGE A","4064155","2018-10-13 17:00","2018","10","13","17:00","-2.4","","-8.8","","61","","","","34","","25","","24.1","","97.57","","","","-9","","NA"
"-105.27","55.15","LA RONGE A","4064155","2018-10-13 18:00","2018","10","13","18:00","-2.9","","-8.2","","67","","","","32","","19","","24.1","","97.64","","","","-9","","Cloudy"
"-105.27","55.15","LA RONGE A","4064155","2018-10-13 19:00","2018","10","13","19:00","-3.2","","-8.9","","65","","","","34","","17","","24.1","","97.71","","","","-9","","NA"
"-105.27","55.15","LA RONGE A","4064155","2018-10-13 20:00","2018","10","13","20:00","-4.5","","-9.6","","68","","","","35","","12","","24.1","","97.77","","","","-9","","NA"
"-105.27","55.15","LA RONGE A","4064155","2018-10-13 21:00","2018","10","13","21:00","-4.2","","-9.2","","69","","","","35","","13","","24.1","","97.82","","","","-9","","Mostly Cloudy"
"-105.27","55.15","LA RONGE A","4064155","2018-10-13 22:00","2018","10","13","22:00","-4.2","","-9.2","","69","","","","35","","16","","24.1","","97.87","","","","-10","","NA"
"-105.27","55.15","LA RONGE A","4064155","2018-10-13 23:00","2018","10","13","23:00","-4.7","","-9.7","","68","","","","36","","16","","24.1","","97.92","","","","-10","","NA"
"-105.27","55.15","LA RONGE A","4064155","2018-10-14 00:00","2018","10","14","00:00","-5.0","","-9.3","","72","","","","32","","8","","24.1","","97.92","","","","-9","","Cloudy"
"-105.27","55.15","LA RONGE A","4064155","2018-10-14 01:00","2018","10","14","01:00","-5.1","","-9.4","","72","","","","34","","9","","24.1","","97.91","","","","-9","","NA"
"-105.27","55.15","LA RONGE A","4064155","2018-10-14 02:00","2018","10","14","02:00","-5.3","","-9.7","","72","","","","36","","9","","24.1","","97.92","","","","-9","","NA"
"-105.27","55.15","LA RONGE A","4064155","2018-10-14 03:00","2018","10","14","03:00","-5.4","","-9.3","","74","","","","31","","8","","24.1","","97.92","","","","-9","","Cloudy"
"-105.27","55.15","LA RONGE A","4064155","2018-10-14 04:00","2018","10","14","04:00","-5.5","","-9.5","","74","","","","29","","10","","24.1","","97.91","","","","-10","","NA"
"-105.27","55.15","LA RONGE A","4064155","2018-10-14 05:00","2018","10","14","05:00","-5.7","","-9.6","","74","","","","30","","5","","24.1","","97.91","","","","-8","","NA"
"-105.27","55.15","LA RONGE A","4064155","2018-10-14 06:00","2018","10","14","06:00","-5.7","","-9.7","","74","","","","34","","3","","24.1","","97.91","","","","-7","","Cloudy"
"-105.27","55.15","LA RONGE A","4064155","2018-10-14 07:00","2018","10","14","07:00","-5.5","","-9.5","","74","","","","36","","3","","24.1","","97.89","","","","-7","","NA"
"-105.27","55.15","LA RONGE A","4064155","2018-10-14 08:00","2018","10","14","08:00","-5.6","","-9.4","","75","","","","22","","5","","24.1","","97.87","","","","-8","","NA"
"-105.27","55.15","LA RONGE A","4064155","2018-10-14 09:00","2018","10","14","09:00","-5.0","","-9.4","","72","","","","20","","6","","24.1","","97.85","","","","-8","","Cloudy"
"-105.27","55.15","LA RONGE A","4064155","2018-10-14 10:00","2018","10","14","10:00","-4.1","","-9.2","","68","","","","21","","6","","24.1","","97.82","","","","-7","","NA"
"-105.27","55.15","LA RONGE A","4064155","2018-10-14 11:00","2018","10","14","11:00","-3.4","","-9.3","","64","","","","19","","5","","24.1","","97.77","","","","-5","","NA"
"-105.27","55.15","LA RONGE A","4064155","2018-10-14 12:00","2018","10","14","12:00","-2.1","","-8.6","","62","","","","16","","12","","24.1","","97.71","","","","-6","","Mainly Clear"
"-105.27","55.15","LA RONGE A","4064155","2018-10-14 13:00","2018","10","14","13:00","-0.9","","-7.0","","64","","","","13","","9","","24.1","","97.65","","","","-4","","NA"
"-105.27","55.15","LA RONGE A","4064155","2018-10-14 14:00","2018","10","14","14:00","-1.0","","-7.2","","63","","","","12","","13","","24.1","","97.51","","","","-5","","NA"
"-105.27","55.15","LA RONGE A","4064155","2018-10-14 15:00","2018","10","14","15:00","0.2","","-6.5","","61","","","","13","","13","","24.1","","97.41","","","","","","Mainly Clear"
"-105.27","55.15","LA RONGE A","4064155","2018-10-14 16:00","2018","10","14","16:00","0.9","","-5.5","","62","","","","12","","13","","24.1","","97.33","","","","","","NA"
"-105.27","55.15","LA RONGE A","4064155","2018-10-14 17:00","2018","10","14","17:00","0.3","","-5.1","","67","","","","12","","12","","24.1","","97.25","","","","","","NA"
"-105.27","55.15","LA RONGE A","4064155","2018-10-14 18:00","2018","10","14","18:00","0.6","","-3.8","","72","","","","12","","4","","24.1","","97.14","","","","","","Mostly Cloudy"
"-105.27","55.15","LA RONGE A","4064155","2018-10-14 19:00","2018","10","14","19:00","1.7","","-5.1","","60","","","","18","","13","","24.1","","97.05","","","","","","NA"
"-105.27","55.15","LA RONGE A","4064155","2018-10-14 20:00","2018","10","14","20:00","1.9","","-5.7","","57","","","","18","","15","","24.1","","96.94","","","","","","NA"
"-105.27","55.15","LA RONGE A","4064155","2018-10-14 21:00","2018","10","14","21:00","1.9","","-5.5","","58","","","","18","","15","","24.1","","96.80","","","","","","Cloudy"
"-105.27","55.15","LA RONGE A","4064155","2018-10-14 22:00","2018","10","14","22:00","2.1","","-5.1","","59","","","","17","","19","","24.1","","96.64","","","","","","NA"
"-105.27","55.15","LA RONGE A","4064155","2018-10-14 23:00","2018","10","14","23:00","2.5","","-4.8","","59","","","","19","","17","","24.1","","96.52","","","","","","NA"
"-105.27","55.15","LA RONGE A","4064155","2018-10-15 00:00","2018","10","15","00:00","2.6","","-4.8","","58","","","","19","","20","","24.1","","96.35","","","","","","Cloudy"
"-105.27","55.15","LA RONGE A","4064155","2018-10-15 01:00","2018","10","15","01:00","2.8","","-4.5","","59","","","","20","","16","","24.1","","96.17","","","","","","NA"
"-105.27","55.15","LA RONGE A","4064155","2018-10-15 02:00","2018","10","15","02:00","2.6","","-3.6","","64","","","","20","","15","","24.1","","96.08","","","","","","Rain,Snow"
"-105.27","55.15","LA RONGE A","4064155","2018-10-15 03:00","2018","10","15","03:00","2.9","","-2.2","","69","","","","22","","12","","24.1","","95.97","","","","","","Cloudy"
"-105.27","55.15","LA RONGE A","4064155","2018-10-15 04:00","2018","10","15","04:00","3.6","","-1.5","","70","","","","24","","16","","24.1","","95.89","","","","","","NA"
"-105.27","55.15","LA RONGE A","4064155","2018-10-15 05:00","2018","10","15","05:00","4.3","","-0.9","","69","","","","26","","16","","24.1","","95.85","","","","","","NA"
"-105.27","55.15","LA RONGE A","4064155","2018-10-15 06:00","2018","10","15","06:00","4.8","","-0.6","","68","","","","27","","19","","24.1","","95.85","","","","","","Mostly Cloudy"
"-105.27","55.15","LA RONGE A","4064155","2018-10-15 07:00","2018","10","15","07:00","5.3","","-0.2","","67","","","","28","","23","","24.1","","95.85","","","","","","NA"
"-105.27","55.15","LA RONGE A","4064155","2018-10-15 08:00","2018","10","15","08:00","5.6","","0.3","","69","","","","28","","32","","24.1","","95.92","","","","","","NA"
"-105.27","55.15","LA RONGE A","4064155","2018-10-15 09:00","2018","10","15","09:00","6.0","","0.6","","68","","","","29","","34","","24.1","","95.96","","","","","","Mostly Cloudy"
"-105.27","55.15","LA RONGE A","4064155","2018-10-15 10:00","2018","10","15","10:00","6.0","","0.4","","67","","","","30","","25","","24.1","","96.02","","","","","","NA"
"-105.27","55.15","LA RONGE A","4064155","2018-10-15 11:00","2018","10","15","11:00","7.4","","0.5","","62","","","","30","","23","","24.1","","96.08","","","","","","NA"
"-105.27","55.15","LA RONGE A","4064155","2018-10-15 12:00","2018","10","15","12:00","7.3","","-0.8","","56","","","","30","","35","","24.1","","96.13","","","","","","Mostly Cloudy"
"-105.27","55.15","LA RONGE A","4064155","2018-10-15 13:00","2018","10","15","13:00","6.3","","-1.3","","58","","","","30","","36","","24.1","","96.22","","","","","","NA"
"-105.27","55.15","LA RONGE A","4064155","2018-10-15 14:00","2018","10","15","14:00","6.4","","-1.8","","56","","","","31","","37","","24.1","","96.30","","","","","","NA"
"-105.27","55.15","LA RONGE A","4064155","2018-10-15 15:00","2018","10","15","15:00","7.1","","-3.1","","48","","","","30","","34","","24.1","","96.41","","","","","","Mostly Cloudy"
"-105.27","55.15","LA RONGE A","4064155","2018-10-15 16:00","2018","10","15","16:00","5.1","","-2.8","","57","","","","33","","27","","24.1","","96.55","","","","","","NA"
"-105.27","55.15","LA RONGE A","4064155","2018-10-15 17:00","2018","10","15","17:00","4.4","","-2.8","","59","","","","32","","31","","24.1","","96.64","","","","","","NA"
"-105.27","55.15","LA RONGE A","4064155","2018-10-15 18:00","2018","10","15","18:00","3.5","","-3.1","","62","","","","31","","26","","24.1","","96.76","","","","","","Mostly Cloudy"
"-105.27","55.15","LA RONGE A","4064155","2018-10-15 19:00","2018","10","15","19:00","3.2","","-3.1","","63","","","","30","","18","","24.1","","96.86","","","","","","NA"
"-105.27","55.15","LA RONGE A","4064155","2018-10-15 20:00","2018","10","15","20:00","3.1","","-3.6","","62","","","","32","","30","","24.1","","96.90","","","","","","NA"
"-105.27","55.15","LA RONGE A","4064155","2018-10-15 21:00","2018","10","15","21:00","2.7","","-3.4","","64","","","","32","","18","","24.1","","96.95","","","","","","Cloudy"
"-105.27","55.15","LA RONGE A","4064155","2018-10-15 22:00","2018","10","15","22:00","2.6","","-3.5","","64","","","","31","","22","","24.1","","97.02","","","","","","NA"
"-105.27","55.15","LA RONGE A","4064155","2018-10-15 23:00","2018","10","15","23:00","2.5","","-3.5","","65","","","","31","","26","","24.1","","97.07","","","","","","NA"
"-105.27","55.15","LA RONGE A","4064155","2018-10-16 00:00","2018","10","16","00:00","2.1","","-3.5","","67","","","","30","","21","","24.1","","97.13","","","","","","Cloudy"
"-105.27","55.15","LA RONGE A","4064155","2018-10-16 01:00","2018","10","16","01:00","2.0","","-3.1","","69","","","","32","","16","","24.1","","97.18","","","","","","NA"
"-105.27","55.15","LA RONGE A","4064155","2018-10-16 02:00","2018","10","16","02:00","1.7","","-2.8","","72","","","","31","","14","","24.1","","97.24","","","","","","NA"
"-105.27","55.15","LA RONGE A","4064155","2018-10-16 03:00","2018","10","16","03:00","1.7","","-2.5","","74","","","","29","","16","","24.1","","97.29","","","","","","Cloudy"
"-105.27","55.15","LA RONGE A","4064155","2018-10-16 04:00","2018","10","16","04:00","1.7","","-1.9","","77","","","","28","","16","","24.1","","97.33","","","","","","NA"
"-105.27","55.15","LA RONGE A","4064155","2018-10-16 05:00","2018","10","16","05:00","1.6","","-1.8","","78","","","","26","","11","","24.1","","97.33","","","","","","NA"
"-105.27","55.15","LA RONGE A","4064155","2018-10-16 06:00","2018","10","16","06:00","1.8","","-3.0","","71","","","","30","","23","","24.1","","97.39","","","","","","Cloudy"
"-105.27","55.15","LA RONGE A","4064155","2018-10-16 07:00","2018","10","16","07:00","1.5","","-3.7","","68","","","","31","","19","","24.1","","97.43","","","","","","NA"
"-105.27","55.15","LA RONGE A","4064155","2018-10-16 08:00","2018","10","16","08:00","1.3","","-3.3","","71","","","","30","","16","","24.1","","97.46","","","","","","NA"
"-105.27","55.15","LA RONGE A","4064155","2018-10-16 09:00","2018","10","16","09:00","1.2","","-4.6","","65","","","","32","","16","","24.1","","97.53","","","","","","Cloudy"
"-105.27","55.15","LA RONGE A","4064155","2018-10-16 10:00","2018","10","16","10:00","1.7","","-4.5","","63","","","","31","","19","","24.1","","97.57","","","","","","NA"
"-105.27","55.15","LA RONGE A","4064155","2018-10-16 11:00","2018","10","16","11:00","1.9","","-4.3","","63","","","","34","","19","","24.1","","97.61","","","","","","NA"
"-105.27","55.15","LA RONGE A","4064155","2018-10-16 12:00","2018","10","16","12:00","1.8","","-1.8","","77","","","","29","","15","","24.1","","97.68","","","","","","Snow"
"-105.27","55.15","LA RONGE A","4064155","2018-10-16 13:00","2018","10","16","13:00","2.0","","-3.6","","67","","","","31","","16","","24.1","","97.72","","","","","","Snow"
"-105.27","55.15","LA RONGE A","4064155","2018-10-16 14:00","2018","10","16","14:00","2.6","","-4.0","","62","","","","28","","18","","24.1","","97.72","","","","","","NA"
"-105.27","55.15","LA RONGE A","4064155","2018-10-16 15:00","2018","10","16","15:00","2.1","","-4.6","","61","","","","31","","15","","24.1","","97.74","","","","","","Mostly Cloudy"
"-105.27","55.15","LA RONGE A","4064155","2018-10-16 16:00","2018","10","16","16:00","2.2","","-5.5","","57","","","","31","","13","","24.1","","97.75","","","","","","NA"
"-105.27","55.15","LA RONGE A","4064155","2018-10-16 17:00","2018","10","16","17:00","1.2","","-6.1","","58","","","","36","","14","","24.1","","97.79","","","","","","NA"
"-105.27","55.15","LA RONGE A","4064155","2018-10-16 18:00","2018","10","16","18:00","-0.8","","-6.4","","66","","","","1","","10","","24.1","","97.81","","","","-4","","Mainly Clear"
"-105.27","55.15","LA RONGE A","4064155","2018-10-16 19:00","2018","10","16","19:00","-2.0","","-6.0","","74","","","","36","","4","","24.1","","97.82","","","","-3","","NA"
"-105.27","55.15","LA RONGE A","4064155","2018-10-16 20:00","2018","10","16","20:00","-3.3","","-6.4","","80","","","","26","","3","","24.1","","97.82","","","","-5","","NA"
"-105.27","55.15","LA RONGE A","4064155","2018-10-16 21:00","2018","10","16","21:00","-4.4","","-6.4","","87","","","","0","","1","","24.1","","97.82","","","","-5","","Mainly Clear"
"-105.27","55.15","LA RONGE A","4064155","2018-10-16 22:00","2018","10","16","22:00","-4.8","","-7.1","","84","","","","11","","6","","24.1","","97.80","","","","-8","","NA"
"-105.27","55.15","LA RONGE A","4064155","2018-10-16 23:00","2018","10","16","23:00","-1.9","","-5.4","","77","","","","13","","9","","24.1","","97.76","","","","-5","","NA"
"-105.27","55.15","LA RONGE A","4064155","2018-10-17 00:00","2018","10","17","00:00","-0.9","","-4.8","","75","","","","15","","8","","24.1","","97.78","","","","-4","","Mostly Cloudy"
"-105.27","55.15","LA RONGE A","4064155","2018-10-17 01:00","2018","10","17","01:00","-0.8","","-4.3","","78","","","","15","","19","","24.1","","97.77","","","","-6","","NA"
"-105.27","55.15","LA RONGE A","4064155","2018-10-17 02:00","2018","10","17","02:00","-0.7","","-4.1","","78","","","","16","","21","","24.1","","97.68","","","","-6","","NA"
"-105.27","55.15","LA RONGE A","4064155","2018-10-17 03:00","2018","10","17","03:00","-0.8","","-4.0","","79","","","","16","","21","","24.1","","97.60","","","","-6","","Cloudy"
"-105.27","55.15","LA RONGE A","4064155","2018-10-17 04:00","2018","10","17","04:00","-0.8","","-3.6","","81","","","","16","","23","","24.1","","97.55","","","","-7","","Snow"
"-105.27","55.15","LA RONGE A","4064155","2018-10-17 05:00","2018","10","17","05:00","-0.1","","-3.7","","77","","","","16","","23","","24.1","","97.44","","","","-6","","Snow"
"-105.27","55.15","LA RONGE A","4064155","2018-10-17 06:00","2018","10","17","06:00","0.1","","-3.5","","77","","","","16","","21","","24.1","","97.34","","","","","","Cloudy"
"-105.27","55.15","LA RONGE A","4064155","2018-10-17 07:00","2018","10","17","07:00","0.2","","-3.2","","77","","","","14","","17","","24.1","","97.22","","","","","","NA"
"-105.27","55.15","LA RONGE A","4064155","2018-10-17 08:00","2018","10","17","08:00","1.5","","-2.6","","74","","","","15","","25","","24.1","","97.09","","","","","","NA"
"-105.27","55.15","LA RONGE A","4064155","2018-10-17 09:00","2018","10","17","09:00","1.1","","-2.7","","76","","","","16","","24","","24.1","","97.00","","","","","","Mostly Cloudy"
"-105.27","55.15","LA RONGE A","4064155","2018-10-17 10:00","2018","10","17","10:00","1.8","","-2.1","","75","","","","16","","22","","24.1","","96.90","","","","","","NA"
"-105.27","55.15","LA RONGE A","4064155","2018-10-17 11:00","2018","10","17","11:00","3.4","","-1.4","","71","","","","15","","13","","24.1","","96.83","","","","","","NA"
"-105.27","55.15","LA RONGE A","4064155","2018-10-17 12:00","2018","10","17","12:00","5.8","","-0.4","","64","","","","18","","8","","24.1","","96.74","","","","","","Mostly Cloudy"
"-105.27","55.15","LA RONGE A","4064155","2018-10-17 13:00","2018","10","17","13:00","10.4","","0.6","","51","","","","25","","13","","24.1","","96.66","","","","","","NA"
"-105.27","55.15","LA RONGE A","4064155","2018-10-17 14:00","2018","10","17","14:00","12.8","","0.5","","43","","","","25","","14","","24.1","","96.61","","","","","","NA"
"-105.27","55.15","LA RONGE A","4064155","2018-10-17 15:00","2018","10","17","15:00","14.0","","0.6","","40","","","","24","","11","","24.1","","96.55","","","","","","Mainly Clear"
"-105.27","55.15","LA RONGE A","4064155","2018-10-17 16:00","2018","10","17","16:00","14.0","","0.4","","39","","","","24","","16","","24.1","","96.48","","","","","","NA"
"-105.27","55.15","LA RONGE A","4064155","2018-10-17 17:00","2018","10","17","17:00","13.4","","-0.3","","39","","","","26","","10","","24.1","","96.46","","","","","","NA"
"-105.27","55.15","LA RONGE A","4064155","2018-10-17 18:00","2018","10","17","18:00","10.8","","-0.5","","45","","","","20","","7","","24.1","","96.43","","","","","","Mainly Clear"
"-105.27","55.15","LA RONGE A","4064155","2018-10-17 19:00","2018","10","17","19:00","10.1","","-1.0","","46","","","","20","","9","","24.1","","96.35","","","","","","NA"
"-105.27","55.15","LA RONGE A","4064155","2018-10-17 20:00","2018","10","17","20:00","9.1","","-1.5","","47","","","","21","","13","","24.1","","96.30","","","","","","NA"
"-105.27","55.15","LA RONGE A","4064155","2018-10-17 21:00","2018","10","17","21:00","6.3","","-1.8","","56","","","","22","","6","","24.1","","96.24","","","","","","Mainly Clear"
"-105.27","55.15","LA RONGE A","4064155","2018-10-17 22:00","2018","10","17","22:00","9.0","","-1.6","","47","","","","23","","12","","24.1","","96.20","","","","","","NA"
"-105.27","55.15","LA RONGE A","4064155","2018-10-17 23:00","2018","10","17","23:00","10.3","","-2.0","","42","","","","24","","11","","24.1","","96.17","","","","","","NA"
"-105.27","55.15","LA RONGE A","4064155","2018-10-18 00:00","2018","10","18","00:00","10.6","","-1.9","","42","","","","25","","13","","24.1","","96.15","","","","","","Mostly Cloudy"
"-105.27","55.15","LA RONGE A","4064155","2018-10-18 01:00","2018","10","18","01:00","9.9","","-2.1","","43","","","","24","","12","","24.1","","96.14","","","","","","NA"
"-105.27","55.15","LA RONGE A","4064155","2018-10-18 02:00","2018","10","18","02:00","9.3","","-2.5","","43","","","","24","","11","","24.1","","96.13","","","","","","NA"
"-105.27","55.15","LA RONGE A","4064155","2018-10-18 03:00","2018","10","18","03:00","8.2","","-2.6","","47","","","","23","","10","","24.1","","96.11","","","","","","Mainly Clear"
"-105.27","55.15","LA RONGE A","4064155","2018-10-18 04:00","2018","10","18","04:00","8.4","","-2.5","","46","","","","24","","11","","24.1","","96.10","","","","","","NA"
"-105.27","55.15","LA RONGE A","4064155","2018-10-18 05:00","2018","10","18","05:00","7.9","","-2.5","","48","","","","24","","9","","24.1","","96.11","","","","","","NA"
"-105.27","55.15","LA RONGE A","4064155","2018-10-18 06:00","2018","10","18","06:00","7.7","","-2.7","","48","","","","23","","6","","24.1","","96.10","","","","","","Mostly Cloudy"
"-105.27","55.15","LA RONGE A","4064155","2018-10-18 07:00","2018","10","18","07:00","6.8","","-2.5","","52","","","","23","","8","","24.1","","96.11","","","","","","NA"
"-105.27","55.15","LA RONGE A","4064155","2018-10-18 08:00","2018","10","18","08:00","6.0","","-2.5","","54","","","","27","","4","","24.1","","96.14","","","","","","NA"
"-105.27","55.15","LA RONGE A","4064155","2018-10-18 09:00","2018","10","18","09:00","7.8","","-2.0","","50","","","","24","","9","","24.1","","96.11","","","","","","Mostly Cloudy"
"-105.27","55.15","LA RONGE A","4064155","2018-10-18 10:00","2018","10","18","10:00","9.2","","-1.8","","46","","","","27","","13","","24.1","","96.13","","","","","","NA"
"-105.27","55.15","LA RONGE A","4064155","2018-10-18 11:00","2018","10","18","11:00","11.8","","-1.5","","39","","","","28","","13","","24.1","","96.11","","","","","","NA"
"-105.27","55.15","LA RONGE A","4064155","2018-10-18 12:00","2018","10","18","12:00","12.8","","-0.9","","39","","","","28","","25","","24.1","","96.17","","","","","","Cloudy"
"-105.27","55.15","LA RONGE A","4064155","2018-10-18 13:00","2018","10","18","13:00","13.7","","0.2","","40","","","","29","","25","","24.1","","96.15","","","","","","NA"
"-105.27","55.15","LA RONGE A","4064155","2018-10-18 14:00","2018","10","18","14:00","12.9","","1.0","","44","","","","29","","27","","24.1","","96.20","","","","","","NA"
"-105.27","55.15","LA RONGE A","4064155","2018-10-18 15:00","2018","10","18","15:00","13.9","","1.2","","42","","","","28","","30","","24.1","","96.20","","","","","","Mainly Clear"
"-105.27","55.15","LA RONGE A","4064155","2018-10-18 16:00","2018","10","18","16:00","13.8","","0.6","","41","","","","28","","28","","24.1","","96.24","","","","","","NA"
"-105.27","55.15","LA RONGE A","4064155","2018-10-18 17:00","2018","10","18","17:00","12.6","","0.6","","43","","","","29","","24","","24.1","","96.29","","","","","","NA"
"-105.27","55.15","LA RONGE A","4064155","2018-10-18 18:00","2018","10","18","18:00","9.9","","0.2","","51","","","","27","","8","","24.1","","96.33","","","","","","Mainly Clear"
"-105.27","55.15","LA RONGE A","4064155","2018-10-18 19:00","2018","10","18","19:00","9.4","","-0.7","","49","","","","28","","14","","24.1","","96.37","","","","","","NA"
"-105.27","55.15","LA RONGE A","4064155","2018-10-18 20:00","2018","10","18","20:00","9.7","","-0.6","","48","","","","28","","21","","24.1","","96.39","","","","","","NA"
"-105.27","55.15","LA RONGE A","4064155","2018-10-18 21:00","2018","10","18","21:00","8.6","","-0.2","","54","","","","29","","22","","24.1","","96.46","","","","","","Mainly Clear"
"-105.27","55.15","LA RONGE A","4064155","2018-10-18 22:00","2018","10","18","22:00","8.3","","1.3","","61","","","","30","","30","","24.1","","96.53","","","","","","NA"
"-105.27","55.15","LA RONGE A","4064155","2018-10-18 23:00","2018","10","18","23:00","7.1","","1.7","","68","","","","30","","21","","24.1","","96.63","","","","","","NA"
"-105.27","55.15","LA RONGE A","4064155","2018-10-19 00:00","2018","10","19","00:00","6.8","","1.9","","71","","","","31","","22","","24.1","","96.75","","","","","","Mostly Cloudy"
"-105.27","55.15","LA RONGE A","4064155","2018-10-19 01:00","2018","10","19","01:00","6.4","","1.1","","69","","","","31","","25","","24.1","","96.87","","","","","","NA"
"-105.27","55.15","LA RONGE A","4064155","2018-10-19 02:00","2018","10","19","02:00","5.1","","0.3","","71","","","","30","","24","","24.1","","96.97","","","","","","NA"
"-105.27","55.15","LA RONGE A","4064155","2018-10-19 03:00","2018","10","19","03:00","5.3","","0.6","","71","","","","26","","10","","24.1","","97.01","","","","","","Cloudy"
"-105.27","55.15","LA RONGE A","4064155","2018-10-19 04:00","2018","10","19","04:00","5.3","","0.9","","73","","","","27","","18","","24.1","","97.04","","","","","","NA"
"-105.27","55.15","LA RONGE A","4064155","2018-10-19 05:00","2018","10","19","05:00","4.9","","0.9","","75","","","","28","","28","","24.1","","97.10","","","","","","NA"
"-105.27","55.15","LA RONGE A","4064155","2018-10-19 06:00","2018","10","19","06:00","4.6","","0.8","","76","","","","29","","18","","24.1","","97.11","","","","","","Cloudy"
"-105.27","55.15","LA RONGE A","4064155","2018-10-19 07:00","2018","10","19","07:00","4.8","","1.6","","80","","","","28","","27","","24.1","","97.16","","","","","","NA"
"-105.27","55.15","LA RONGE A","4064155","2018-10-19 08:00","2018","10","19","08:00","2.1","","1.2","","93","","","","31","","15","","24.1","","97.27","","","","","","Rain"
"-105.27","55.15","LA RONGE A","4064155","2018-10-19 09:00","2018","10","19","09:00","1.2","","-4.6","","65","","","","32","","27","","24.1","","97.34","","","","","","Mainly Clear"
"-105.27","55.15","LA RONGE A","4064155","2018-10-19 10:00","2018","10","19","10:00","1.2","","-5.1","","63","","","","32","","32","","24.1","","97.47","","","","","","NA"
"-105.27","55.15","LA RONGE A","4064155","2018-10-19 11:00","2018","10","19","11:00","1.1","","-5.7","","60","","","","34","","26","","24.1","","97.57","","","","","","NA"
"-105.27","55.15","LA RONGE A","4064155","2018-10-19 12:00","2018","10","19","12:00","2.1","","-5.7","","56","","","","31","","34","","24.1","","97.67","","","","","","Mostly Cloudy"
"-105.27","55.15","LA RONGE A","4064155","2018-10-19 13:00","2018","10","19","13:00","1.9","","-6.7","","53","","","","32","","22","","24.1","","97.75","","","","","","NA"
"-105.27","55.15","LA RONGE A","4064155","2018-10-19 14:00","2018","10","19","14:00","2.5","","-7.2","","49","","","","32","","17","","24.1","","97.82","","","","","","NA"
"-105.27","55.15","LA RONGE A","4064155","2018-10-19 15:00","2018","10","19","15:00","1.5","","-9.4","","44","","","","34","","23","","24.1","","97.91","","","","","","Mainly Clear"
"-105.27","55.15","LA RONGE A","4064155","2018-10-19 16:00","2018","10","19","16:00","1.4","","-8.4","","48","","","","32","","30","","24.1","","97.99","","","","","","NA"
"-105.27","55.15","LA RONGE A","4064155","2018-10-19 17:00","2018","10","19","17:00","0.5","","-8.9","","50","","","","32","","22","","24.1","","98.05","","","","","","NA"
"-105.27","55.15","LA RONGE A","4064155","2018-10-19 18:00","2018","10","19","18:00","-1.1","","-8.9","","55","","","","32","","16","","24.1","","98.10","","","","-6","","Mainly Clear"
"-105.27","55.15","LA RONGE A","4064155","2018-10-19 19:00","2018","10","19","19:00","-1.8","","-8.6","","60","","","","31","","16","","24.1","","98.09","","","","-7","","NA"
"-105.27","55.15","LA RONGE A","4064155","2018-10-19 20:00","2018","10","19","20:00","-3.4","","-8.8","","66","","","","30","","9","","24.1","","98.10","","","","-7","","NA"
"-105.27","55.15","LA RONGE A","4064155","2018-10-19 21:00","2018","10","19","21:00","-3.6","","-8.5","","69","","","","29","","8","","24.1","","98.11","","","","-7","","Mainly Clear"
"-105.27","55.15","LA RONGE A","4064155","2018-10-19 22:00","2018","10","19","22:00","-4.6","","-9.1","","71","","","","31","","10","","24.1","","98.15","","","","-9","","NA"
"-105.27","55.15","LA RONGE A","4064155","2018-10-19 23:00","2018","10","19","23:00","-3.8","","-8.1","","72","","","","33","","8","","24.1","","98.17","","","","-7","","NA"
"-105.27","55.15","LA RONGE A","4064155","2018-10-20 00:00","2018","10","20","00:00","-4.5","","-8.7","","72","","","","32","","7","","24.1","","98.17","","","","-8","","Clear"
"-105.27","55.15","LA RONGE A","4064155","2018-10-20 01:00","2018","10","20","01:00","-6.5","","-8.6","","85","","","","36","","2","","24.1","","98.18","","","","-7","","NA"
"-105.27","55.15","LA RONGE A","4064155","2018-10-20 02:00","2018","10","20","02:00","-6.9","","-8.8","","87","","","","20","","3","","24.1","","98.13","","","","-8","","NA"
"-105.27","55.15","LA RONGE A","4064155","2018-10-20 03:00","2018","10","20","03:00","-7.9","","-9.4","","89","","","","19","","4","","24.1","","98.08","","","","-10","","Mainly Clear"
"-105.27","55.15","LA RONGE A","4064155","2018-10-20 04:00","2018","10","20","04:00","-6.8","","-8.5","","88","","","","36","","2","","24.1","","98.07","","","","-8","","NA"
"-105.27","55.15","LA RONGE A","4064155","2018-10-20 05:00","2018","10","20","05:00","-4.0","","-7.0","","80","","","","21","","7","","24.1","","98.03","","","","-7","","NA"
"-105.27","55.15","LA RONGE A","4064155","2018-10-20 06:00","2018","10","20","06:00","-3.8","","-7.1","","78","","","","18","","10","","24.1","","97.94","","","","-8","","Mostly Cloudy"
"-105.27","55.15","LA RONGE A","4064155","2018-10-20 07:00","2018","10","20","07:00","-2.9","","-7.0","","74","","","","18","","9","","24.1","","97.85","","","","-6","","NA"
"-105.27","55.15","LA RONGE A","4064155","2018-10-20 08:00","2018","10","20","08:00","-2.3","","-6.7","","72","","","","18","","15","","24.1","","97.79","","","","-7","","NA"
"-105.27","55.15","LA RONGE A","4064155","2018-10-20 09:00","2018","10","20","09:00","-1.5","","-6.7","","68","","","","17","","26","","24.1","","97.60","","","","-8","","Cloudy"
"-105.27","55.15","LA RONGE A","4064155","2018-10-20 10:00","2018","10","20","10:00","-1.3","","-7.0","","65","","","","18","","17","","24.1","","97.51","","","","-6","","NA"
"-105.27","55.15","LA RONGE A","4064155","2018-10-20 11:00","2018","10","20","11:00","-0.3","","-7.6","","58","","","","18","","18","","24.1","","97.36","","","","-5","","NA"
"-105.27","55.15","LA RONGE A","4064155","2018-10-20 12:00","2018","10","20","12:00","0.5","","-8.0","","53","","","","18","","24","","24.1","","97.18","","","","","","Cloudy"
"-105.27","55.15","LA RONGE A","4064155","2018-10-20 13:00","2018","10","20","13:00","1.5","","-8.2","","49","","","","18","","21","","24.1","","97.01","","","","","","NA"
"-105.27","55.15","LA RONGE A","4064155","2018-10-20 14:00","2018","10","20","14:00","1.9","","-7.6","","49","","","","19","","14","","24.1","","96.88","","","","","","NA"
"-105.27","55.15","LA RONGE A","4064155","2018-10-20 15:00","2018","10","20","15:00","1.8","","-4.3","","64","","","","18","","17","","24.1","","96.70","","","","","","Rain"
"-105.27","55.15","LA RONGE A","4064155","2018-10-20 16:00","2018","10","20","16:00","3.0","","-4.8","","57","","","","19","","15","","24.1","","96.60","","","","","","NA"
"-105.27","55.15","LA RONGE A","4064155","2018-10-20 17:00","2018","10","20","17:00","3.5","","-3.6","","59","","","","18","","16","","24.1","","96.45","","","","","","NA"
"-105.27","55.15","LA RONGE A","4064155","2018-10-20 18:00","2018","10","20","18:00","2.8","","-4.7","","58","","","","19","","11","","24.1","","96.51","","","","","","Mainly Clear"
"-105.27","55.15","LA RONGE A","4064155","2018-10-20 19:00","2018","10","20","19:00","1.5","","-4.8","","63","","","","19","","9","","24.1","","96.46","","","","","","NA"
"-105.27","55.15","LA RONGE A","4064155","2018-10-20 20:00","2018","10","20","20:00","0.9","","-4.9","","65","","","","19","","10","","24.1","","96.40","","","","","","NA"
"-105.27","55.15","LA RONGE A","4064155","2018-10-20 21:00","2018","10","20","21:00","-1.4","","-4.7","","78","","","","25","","4","","24.1","","96.43","","","","-3","","Mainly Clear"
"-105.27","55.15","LA RONGE A","4064155","2018-10-20 22:00","2018","10","20","22:00","3.4","","-1.7","","69","","","","28","","19","","24.1","","96.45","","","","","","NA"
"-105.27","55.15","LA RONGE A","4064155","2018-10-20 23:00","2018","10","20","23:00","8.1","","0.4","","58","","","","25","","16","","24.1","","96.37","","","","","","NA"
"-105.27","55.15","LA RONGE A","4064155","2018-10-21 00:00","2018","10","21","00:00","4.0","","1.1","","81","","","","23","","14","","24.1","","96.43","","","","","","Mainly Clear"
"-105.27","55.15","LA RONGE A","4064155","2018-10-21 01:00","2018","10","21","01:00","3.9","","-0.5","","73","","","","23","","14","","24.1","","96.43","","","","","","NA"
"-105.27","55.15","LA RONGE A","4064155","2018-10-21 02:00","2018","10","21","02:00","3.6","","-1.1","","71","","","","24","","14","","24.1","","96.43","","","","","","NA"
"-105.27","55.15","LA RONGE A","4064155","2018-10-21 03:00","2018","10","21","03:00","4.6","","-1.4","","65","","","","26","","14","","24.1","","96.44","","","","","","Mainly Clear"
"-105.27","55.15","LA RONGE A","4064155","2018-10-21 04:00","2018","10","21","04:00","4.0","","-1.9","","66","","","","25","","12","","24.1","","96.43","","","","","","NA"
"-105.27","55.15","LA RONGE A","4064155","2018-10-21 05:00","2018","10","21","05:00","3.3","","-2.0","","68","","","","25","","11","","24.1","","96.45","","","","","","NA"
"-105.27","55.15","LA RONGE A","4064155","2018-10-21 06:00","2018","10","21","06:00","3.4","","-2.5","","65","","","","25","","16","","24.1","","96.45","","","","","","Clear"
"-105.27","55.15","LA RONGE A","4064155","2018-10-21 07:00","2018","10","21","07:00","3.4","","-2.5","","65","","","","25","","15","","24.1","","96.48","","","","","","NA"
"-105.27","55.15","LA RONGE A","4064155","2018-10-21 08:00","2018","10","21","08:00","3.2","","-2.4","","67","","","","25","","13","","24.1","","96.50","","","","","","NA"
"-105.27","55.15","LA RONGE A","4064155","2018-10-21 09:00","2018","10","21","09:00","4.6","","-2.2","","61","","","","25","","12","","24.1","","96.47","","","","","","Mainly Clear"
"-105.27","55.15","LA RONGE A","4064155","2018-10-21 10:00","2018","10","21","10:00","6.8","","-2.3","","53","","","","26","","17","","24.1","","96.49","","","","","","NA"
"-105.27","55.15","LA RONGE A","4064155","2018-10-21 11:00","2018","10","21","11:00","9.2","","-2.5","","44","","","","27","","25","","24.1","","96.48","","","","","","NA"
"-105.27","55.15","LA RONGE A","4064155","2018-10-21 12:00","2018","10","21","12:00","10.0","","-2.5","","41","","","","27","","32","","24.1","","96.44","","","","","","Clear"
"-105.27","55.15","LA RONGE A","4064155","2018-10-21 13:00","2018","10","21","13:00","11.1","","-2.1","","40","","","","28","","32","","24.1","","96.45","","","","","","NA"
"-105.27","55.15","LA RONGE A","4064155","2018-10-21 14:00","2018","10","21","14:00","10.9","","-2.8","","38","","","","28","","42","","24.1","","96.49","","","","","","NA"
"-105.27","55.15","LA RONGE A","4064155","2018-10-21 15:00","2018","10","21","15:00","10.7","","-3.1","","38","","","","29","","34","","24.1","","96.58","","","","","","Mainly Clear"
"-105.27","55.15","LA RONGE A","4064155","2018-10-21 16:00","2018","10","21","16:00","10.0","","-2.9","","40","","","","29","","34","","24.1","","96.67","","","","","","NA"
"-105.27","55.15","LA RONGE A","4064155","2018-10-21 17:00","2018","10","21","17:00","8.5","","-3.0","","44","","","","32","","27","","24.1","","96.78","","","","","","NA"
"-105.27","55.15","LA RONGE A","4064155","2018-10-21 18:00","2018","10","21","18:00","6.6","","-3.5","","48","","","","30","","31","","24.1","","96.87","","","","","","Mainly Clear"
"-105.27","55.15","LA RONGE A","4064155","2018-10-21 19:00","2018","10","21","19:00","3.8","","-3.0","","61","","","","33","","14","","24.1","","96.98","","","","","","NA"
"-105.27","55.15","LA RONGE A","4064155","2018-10-21 20:00","2018","10","21","20:00","2.7","","-3.7","","63","","","","34","","17","","24.1","","97.07","","","","","","NA"
"-105.27","55.15","LA RONGE A","4064155","2018-10-21 21:00","2018","10","21","21:00","1.7","","-4.0","","66","","","","32","","24","","24.1","","97.19","","","","","","Mainly Clear"
"-105.27","55.15","LA RONGE A","4064155","2018-10-21 22:00","2018","10","21","22:00","1.2","","-4.8","","64","","","","31","","26","","24.1","","97.29","","","","","","NA"
"-105.27","55.15","LA RONGE A","4064155","2018-10-21 23:00","2018","10","21","23:00","1.1","","-4.7","","65","","","","31","","22","","24.1","","97.33","","","","","","NA"
"-105.27","55.15","LA RONGE A","4064155","2018-10-22 00:00","2018","10","22","00:00","0.2","","-5.2","","68","","","","32","","22","","24.1","","97.41","","","","","","Mostly Cloudy"
"-105.27","55.15","LA RONGE A","4064155","2018-10-22 01:00","2018","10","22","01:00","-1.4","","-5.2","","76","","","","28","","9","","24.1","","97.51","","","","-5","","NA"
"-105.27","55.15","LA RONGE A","4064155","2018-10-22 02:00","2018","10","22","02:00","-1.1","","-5.1","","74","","","","31","","14","","24.1","","97.58","","","","-6","","NA"
"-105.27","55.15","LA RONGE A","4064155","2018-10-22 03:00","2018","10","22","03:00","-2.6","","-5.6","","80","","","","29","","9","","24.1","","97.66","","","","-6","","Mostly Cloudy"
"-105.27","55.15","LA RONGE A","4064155","2018-10-22 04:00","2018","10","22","04:00","-1.2","","-4.7","","77","","","","30","","11","","24.1","","97.73","","","","-5","","NA"
"-105.27","55.15","LA RONGE A","4064155","2018-10-22 05:00","2018","10","22","05:00","-1.7","","-5.3","","76","","","","32","","13","","24.1","","97.79","","","","-6","","NA"
"-105.27","55.15","LA RONGE A","4064155","2018-10-22 06:00","2018","10","22","06:00","-3.4","","-6.4","","80","","","","32","","9","","24.1","","97.80","","","","-7","","Mostly Cloudy"
"-105.27","55.15","LA RONGE A","4064155","2018-10-22 07:00","2018","10","22","07:00","-3.3","","-5.5","","85","","","","29","","8","","24.1","","97.89","","","","-7","","NA"
"-105.27","55.15","LA RONGE A","4064155","2018-10-22 08:00","2018","10","22","08:00","-3.0","","-5.3","","84","","","","25","","7","","24.1","","97.94","","","","-6","","NA"
"-105.27","55.15","LA RONGE A","4064155","2018-10-22 09:00","2018","10","22","09:00","-2.3","","-4.8","","83","","","","27","","8","","24.1","","97.98","","","","-5","","Mainly Clear"
"-105.27","55.15","LA RONGE A","4064155","2018-10-22 10:00","2018","10","22","10:00","-0.4","","-4.5","","74","","","","26","","8","","24.1","","98.05","","","","-3","","NA"
"-105.27","55.15","LA RONGE A","4064155","2018-10-22 11:00","2018","10","22","11:00","1.1","","-4.1","","68","","","","30","","10","","24.1","","98.09","","","","","","NA"
"-105.27","55.15","LA RONGE A","4064155","2018-10-22 12:00","2018","10","22","12:00","1.8","","-4.7","","62","","","","21","","4","","24.1","","98.11","","","","","","Mainly Clear"
"-105.27","55.15","LA RONGE A","4064155","2018-10-22 13:00","2018","10","22","13:00","3.2","","-4.6","","57","","","","28","","5","","24.1","","98.14","","","","","","NA"
"-105.27","55.15","LA RONGE A","4064155","2018-10-22 14:00","2018","10","22","14:00","3.6","","-5.7","","51","","","","24","","4","","24.1","","98.12","","","","","","NA"
"-105.27","55.15","LA RONGE A","4064155","2018-10-22 15:00","2018","10","22","15:00","4.4","","-4.2","","53","","","","23","","4","","24.1","","98.10","","","","","","Mainly Clear"
"-105.27","55.15","LA RONGE A","4064155","2018-10-22 16:00","2018","10","22","16:00","3.6","","-3.2","","61","","","","11","","8","","24.1","","98.07","","","","","","NA"
"-105.27","55.15","LA RONGE A","4064155","2018-10-22 17:00","2018","10","22","17:00","2.6","","-3.2","","66","","","","15","","10","","24.1","","98.08","","","","","","NA"
"-105.27","55.15","LA RONGE A","4064155","2018-10-22 18:00","2018","10","22","18:00","0.2","","-3.4","","77","","","","12","","8","","24.1","","98.05","","","","","","Mainly Clear"
"-105.27","55.15","LA RONGE A","4064155","2018-10-22 19:00","2018","10","22","19:00","-0.7","","-4.6","","75","","","","9","","7","","24.1","","98.03","","","","-3","","NA"
"-105.27","55.15","LA RONGE A","4064155","2018-10-22 20:00","2018","10","22","20:00","-0.9","","-3.6","","82","","","","6","","5","","24.1","","98.05","","","","-3","","NA"
"-105.27","55.15","LA RONGE A","4064155","2018-10-22 21:00","2018","10","22","21:00","-1.6","","-4.1","","83","","","","14","","3","","24.1","","98.03","","","","-3","","Mainly Clear"
"-105.27","55.15","LA RONGE A","4064155","2018-10-22 22:00","2018","10","22","22:00","0.3","","-2.2","","84","","","","14","","12","","24.1","","98.01","","","","","","NA"
"-105.27","55.15","LA RONGE A","4064155","2018-10-22 23:00","2018","10","22","23:00","0.4","","-3.4","","76","","","","15","","15","","24.1","","97.96","","","","","","NA"
"-105.27","55.15","LA RONGE A","4064155","2018-10-23 00:00","2018","10","23","00:00","-0.2","","-4.0","","76","","","","16","","13","","24.1","","97.96","","","","-4","","Clear"
"-105.27","55.15","LA RONGE A","4064155","2018-10-23 01:00","2018","10","23","01:00","0.3","","-4.8","","68","","","","16","","12","","24.1","","97.96","","","","","","NA"
"-105.27","55.15","LA RONGE A","4064155","2018-10-23 02:00","2018","10","23","02:00","0.1","","-5.1","","68","","","","16","","15","","24.1","","97.97","","","","","","NA"
"-105.27","55.15","LA RONGE A","4064155","2018-10-23 03:00","2018","10","23","03:00","-0.2","","-5.4","","68","","","","16","","17","","24.1","","97.93","","","","-5","","Clear"
"-105.27","55.15","LA RONGE A","4064155","2018-10-23 04:00","2018","10","23","04:00","-1.5","","-5.5","","74","","","","17","","13","","24.1","","97.87","","","","-6","","NA"
"-105.27","55.15","LA RONGE A","4064155","2018-10-23 05:00","2018","10","23","05:00","-0.9","","-5.5","","71","","","","18","","11","","24.1","","97.81","","","","-5","","NA"
"-105.27","55.15","LA RONGE A","4064155","2018-10-23 06:00","2018","10","23","06:00","-0.8","","-5.0","","73","","","","17","","13","","24.1","","97.77","","","","-5","","Clear"
"-105.27","55.15","LA RONGE A","4064155","2018-10-23 07:00","2018","10","23","07:00","-1.6","","-5.1","","77","","","","16","","10","","24.1","","97.75","","","","-5","","NA"
"-105.27","55.15","LA RONGE A","4064155","2018-10-23 08:00","2018","10","23","08:00","-0.8","","-4.5","","76","","","","17","","15","","24.1","","97.71","","","","-5","","NA"
"-105.27","55.15","LA RONGE A","4064155","2018-10-23 09:00","2018","10","23","09:00","1.0","","-4.5","","67","","","","17","","17","","24.1","","97.69","","","","","","Mainly Clear"
"-105.27","55.15","LA RONGE A","4064155","2018-10-23 10:00","2018","10","23","10:00","2.2","","-4.6","","61","","","","16","","16","","24.1","","97.65","","","","","","NA"
"-105.27","55.15","LA RONGE A","4064155","2018-10-23 11:00","2018","10","23","11:00","5.1","","-4.8","","49","","","","16","","18","","24.1","","97.59","","","","","","NA"
"-105.27","55.15","LA RONGE A","4064155","2018-10-23 12:00","2018","10","23","12:00","7.8","","-5.0","","40","","","","17","","14","","24.1","","97.53","","","","","","Mainly Clear"
"-105.27","55.15","LA RONGE A","4064155","2018-10-23 13:00","2018","10","23","13:00","9.1","","-3.7","","40","","","","16","","17","","24.1","","97.44","","","","","","NA"
"-105.27","55.15","LA RONGE A","4064155","2018-10-23 14:00","2018","10","23","14:00","11.3","","-5.3","","31","","","","18","","21","","24.1","","97.36","","","","","","NA"
"-105.27","55.15","LA RONGE A","4064155","2018-10-23 15:00","2018","10","23","15:00","12.1","","-4.2","","32","","","","17","","18","","24.1","","97.27","","","","","","Clear"
"-105.27","55.15","LA RONGE A","4064155","2018-10-23 16:00","2018","10","23","16:00","11.8","","-4.4","","32","","","","17","","16","","24.1","","97.25","","","","","","NA"
"-105.27","55.15","LA RONGE A","4064155","2018-10-23 17:00","2018","10","23","17:00","10.7","","-4.2","","35","","","","17","","14","","24.1","","97.18","","","","","","NA"
"-105.27","55.15","LA RONGE A","4064155","2018-10-23 18:00","2018","10","23","18:00","8.0","","-4.2","","42","","","","17","","11","","24.1","","97.18","","","","","","Mainly Clear"
"-105.27","55.15","LA RONGE A","4064155","2018-10-23 19:00","2018","10","23","19:00","6.2","","-4.1","","47","","","","17","","12","","24.1","","97.10","","","","","","NA"
"-105.27","55.15","LA RONGE A","4064155","2018-10-23 20:00","2018","10","23","20:00","5.8","","-3.9","","50","","","","17","","15","","24.1","","97.07","","","","","","NA"
"-105.27","55.15","LA RONGE A","4064155","2018-10-23 21:00","2018","10","23","21:00","4.7","","-2.9","","58","","","","15","","10","","24.1","","97.06","","","","","","Clear"
"-105.27","55.15","LA RONGE A","4064155","2018-10-23 22:00","2018","10","23","22:00","3.8","","-2.5","","63","","","","17","","11","","24.1","","97.01","","","","","","NA"
"-105.27","55.15","LA RONGE A","4064155","2018-10-23 23:00","2018","10","23","23:00","3.7","","-2.8","","62","","","","17","","9","","24.1","","96.99","","","","","","NA"
"-105.27","55.15","LA RONGE A","4064155","2018-10-24 00:00","2018","10","24","00:00","3.3","","-5.0","","55","","","","18","","10","","24.1","","96.96","","","","","","Clear"
"-105.27","55.15","LA RONGE A","4064155","2018-10-24 01:00","2018","10","24","01:00","0.3","","-5.6","","65","","","","12","","4","","24.1","","96.96","","","","","","NA"
"-105.27","55.15","LA RONGE A","4064155","2018-10-24 02:00","2018","10","24","02:00","0.8","","-5.3","","64","","","","36","","3","","24.1","","96.90","","","","","","NA"
"-105.27","55.15","LA RONGE A","4064155","2018-10-24 03:00","2018","10","24","03:00","-2.1","","-5.9","","76","","","","5","","5","","24.1","","96.86","","","","-4","","Clear"
"-105.27","55.15","LA RONGE A","4064155","2018-10-24 04:00","2018","10","24","04:00","-3.2","","-6.8","","76","","","","7","","4","","24.1","","96.85","","","","-5","","NA"
"-105.27","55.15","LA RONGE A","4064155","2018-10-24 05:00","2018","10","24","05:00","-3.1","","-6.2","","79","","","","36","","3","","24.1","","96.82","","","","-4","","NA"
"-105.27","55.15","LA RONGE A","4064155","2018-10-24 06:00","2018","10","24","06:00","-4.1","","-6.5","","84","","","","36","","2","","24.1","","96.79","","","","-5","","Clear"
"-105.27","55.15","LA RONGE A","4064155","2018-10-24 07:00","2018","10","24","07:00","-4.0","","-6.2","","84","","","","36","","3","","24.1","","96.77","","","","-5","","NA"
"-105.27","55.15","LA RONGE A","4064155","2018-10-24 08:00","2018","10","24","08:00","-2.9","","-4.5","","89","","","","36","","1","","24.1","","96.78","","","","-3","","NA"
"-105.27","55.15","LA RONGE A","4064155","2018-10-24 09:00","2018","10","24","09:00","0.8","","-2.5","","79","","","","17","","3","","24.1","","96.77","","","","","","Clear"
"-105.27","55.15","LA RONGE A","4064155","2018-10-24 10:00","2018","10","24","10:00","3.3","","-2.7","","65","","","","14","","13","","24.1","","96.77","","","","","","NA"
"-105.27","55.15","LA RONGE A","4064155","2018-10-24 11:00","2018","10","24","11:00","4.7","","-2.2","","61","","","","13","","7","","19.3","","96.75","","","","","","NA"
"-105.27","55.15","LA RONGE A","4064155","2018-10-24 12:00","2018","10","24","12:00","6.8","","-1.2","","57","","","","4","","8","","19.3","","96.72","","","","","","Clear"
"-105.27","55.15","LA RONGE A","4064155","2018-10-24 13:00","2018","10","24","13:00","7.5","","-1.5","","53","","","","5","","10","","24.1","","96.67","","","","","","NA"
"-105.27","55.15","LA RONGE A","4064155","2018-10-24 14:00","2018","10","24","14:00","8.4","","-1.9","","48","","","","4","","13","","24.1","","96.65","","","","","","NA"
"-105.27","55.15","LA RONGE A","4064155","2018-10-24 15:00","2018","10","24","15:00","9.5","","-1.8","","45","","","","4","","10","","24.1","","96.63","","","","","","Clear"
"-105.27","55.15","LA RONGE A","4064155","2018-10-24 16:00","2018","10","24","16:00","9.8","","-1.6","","45","","","","5","","11","","24.1","","96.61","","","","","","NA"
"-105.27","55.15","LA RONGE A","4064155","2018-10-24 17:00","2018","10","24","17:00","8.2","","1.0","","60","","","","5","","14","","24.1","","96.60","","","","","","NA"
"-105.27","55.15","LA RONGE A","4064155","2018-10-24 18:00","2018","10","24","18:00","6.2","","1.4","","71","","","","5","","13","","24.1","","96.63","","","","","","Clear"
"-105.27","55.15","LA RONGE A","4064155","2018-10-24 19:00","2018","10","24","19:00","6.2","","0.4","","66","","","","6","","14","","24.1","","96.64","","","","","","NA"
"-105.27","55.15","LA RONGE A","4064155","2018-10-24 20:00","2018","10","24","20:00","5.7","","-0.5","","64","","","","6","","15","","24.1","","96.69","","","","","","NA"
"-105.27","55.15","LA RONGE A","4064155","2018-10-24 21:00","2018","10","24","21:00","5.2","","-1.4","","63","","","","7","","14","","24.1","","96.71","","","","","","Clear"
"-105.27","55.15","LA RONGE A","4064155","2018-10-24 22:00","2018","10","24","22:00","4.9","","-1.2","","64","","","","6","","17","","24.1","","96.75","","","","","","NA"
"-105.27","55.15","LA RONGE A","4064155","2018-10-24 23:00","2018","10","24","23:00","4.3","","-1.2","","67","","","","6","","21","","24.1","","96.76","","","","","","NA"
"-105.27","55.15","LA RONGE A","4064155","2018-10-25 00:00","2018","10","25","00:00","3.5","","-1.3","","71","","","","7","","17","","24.1","","96.80","","","","","","Clear"
"-105.27","55.15","LA RONGE A","4064155","2018-10-25 01:00","2018","10","25","01:00","2.8","","-1.5","","74","","","","7","","16","","24.1","","96.84","","","","","","NA"
"-105.27","55.15","LA RONGE A","4064155","2018-10-25 02:00","2018","10","25","02:00","2.5","","-1.3","","76","","","","7","","23","","24.1","","96.85","","","","","","NA"
"-105.27","55.15","LA RONGE A","4064155","2018-10-25 03:00","2018","10","25","03:00","1.6","","-1.4","","81","","","","7","","17","","24.1","","96.85","","","","","","Clear"
"-105.27","55.15","LA RONGE A","4064155","2018-10-25 04:00","2018","10","25","04:00","0.6","","-1.5","","86","","","","7","","22","","24.1","","96.85","","","","","","NA"
"-105.27","55.15","LA RONGE A","4064155","2018-10-25 05:00","2018","10","25","05:00","0.3","","-1.6","","87","","","","8","","26","","24.1","","96.83","","","","","","NA"
"-105.27","55.15","LA RONGE A","4064155","2018-10-25 06:00","2018","10","25","06:00","-0.2","","-2.0","","87","","","","8","","25","","24.1","","96.85","","","","-6","","Mainly Clear"
"-105.27","55.15","LA RONGE A","4064155","2018-10-25 07:00","2018","10","25","07:00","-0.3","","-2.1","","88","","","","8","","22","","24.1","","96.84","","","","-6","","NA"
"-105.27","55.15","LA RONGE A","4064155","2018-10-25 08:00","2018","10","25","08:00","-0.3","","-2.1","","88","","","","8","","22","","24.1","","96.86","","","","-6","","NA"
"-105.27","55.15","LA RONGE A","4064155","2018-10-25 09:00","2018","10","25","09:00","-0.1","","-2.1","","86","","","","8","","21","","24.1","","96.88","","","","-6","","Mostly Cloudy"
"-105.27","55.15","LA RONGE A","4064155","2018-10-25 10:00","2018","10","25","10:00","0.5","","-1.8","","85","","","","11","","23","","24.1","","96.91","","","","","","NA"
"-105.27","55.15","LA RONGE A","4064155","2018-10-25 11:00","2018","10","25","11:00","1.1","","-1.6","","82","","","","10","","24","","24.1","","96.92","","","","","","NA"
"-105.27","55.15","LA RONGE A","4064155","2018-10-25 12:00","2018","10","25","12:00","1.1","","-1.8","","81","","","","10","","23","","22.5","","96.92","","","","","","Mostly Cloudy"
"-105.27","55.15","LA RONGE A","4064155","2018-10-25 13:00","2018","10","25","13:00","2.4","","-1.3","","76","","","","9","","17","","24.1","","96.91","","","","","","NA"
"-105.27","55.15","LA RONGE A","4064155","2018-10-25 14:00","2018","10","25","14:00","2.8","","-1.2","","75","","","","7","","25","","24.1","","96.87","","","","","","NA"
"-105.27","55.15","LA RONGE A","4064155","2018-10-25 15:00","2018","10","25","15:00","3.1","","-1.3","","73","","","","9","","19","","24.1","","96.81","","","","","","Mostly Cloudy"
"-105.27","55.15","LA RONGE A","4064155","2018-10-25 16:00","2018","10","25","16:00","2.3","","-1.4","","77","","","","8","","22","","24.1","","96.80","","","","","","NA"
"-105.27","55.15","LA RONGE A","4064155","2018-10-25 17:00","2018","10","25","17:00","1.6","","-1.5","","80","","","","11","","20","","24.1","","96.80","","","","","","NA"
"-105.27","55.15","LA RONGE A","4064155","2018-10-25 18:00","2018","10","25","18:00","1.3","","-1.5","","81","","","","11","","18","","24.1","","96.79","","","","","","Cloudy"
"-105.27","55.15","LA RONGE A","4064155","2018-10-25 19:00","2018","10","25","19:00","1.1","","-1.4","","83","","","","11","","21","","24.1","","96.81","","","","","","NA"
"-105.27","55.15","LA RONGE A","4064155","2018-10-25 20:00","2018","10","25","20:00","1.2","","-1.6","","81","","","","10","","17","","24.1","","96.78","","","","","","NA"
"-105.27","55.15","LA RONGE A","4064155","2018-10-25 21:00","2018","10","25","21:00","1.7","","-1.4","","80","","","","9","","19","","24.1","","96.72","","","","","","Mostly Cloudy"
"-105.27","55.15","LA RONGE A","4064155","2018-10-25 22:00","2018","10","25","22:00","1.6","","-1.3","","81","","","","9","","14","","24.1","","96.71","","","","","","NA"
"-105.27","55.15","LA RONGE A","4064155","2018-10-25 23:00","2018","10","25","23:00","1.3","","-1.5","","82","","","","10","","9","","24.1","","96.70","","","","","","NA"
"-105.27","55.15","LA RONGE A","4064155","2018-10-26 00:00","2018","10","26","00:00","0.9","","-1.6","","83","","","","9","","11","","24.1","","96.72","","","","","","Cloudy"
"-105.27","55.15","LA RONGE A","4064155","2018-10-26 01:00","2018","10","26","01:00","0.7","","-1.5","","85","","","","10","","10","","24.1","","96.70","","","","","","NA"
"-105.27","55.15","LA RONGE A","4064155","2018-10-26 02:00","2018","10","26","02:00","0.7","","-1.4","","86","","","","9","","9","","24.1","","96.66","","","","","","NA"
"-105.27","55.15","LA RONGE A","4064155","2018-10-26 03:00","2018","10","26","03:00","0.6","","-1.5","","86","","","","9","","8","","24.1","","96.63","","","","","","Cloudy"
"-105.27","55.15","LA RONGE A","4064155","2018-10-26 04:00","2018","10","26","04:00","0.6","","-1.4","","86","","","","7","","9","","24.1","","96.59","","","","","","NA"
"-105.27","55.15","LA RONGE A","4064155","2018-10-26 05:00","2018","10","26","05:00","0.8","","-1.3","","86","","","","11","","13","","24.1","","96.56","","","","","","NA"
"-105.27","55.15","LA RONGE A","4064155","2018-10-26 06:00","2018","10","26","06:00","0.2","","-1.7","","87","","","","10","","9","","24.1","","96.52","","","","","","Cloudy"
"-105.27","55.15","LA RONGE A","4064155","2018-10-26 07:00","2018","10","26","07:00","0.2","","-1.8","","87","","","","10","","12","","24.1","","96.49","","","","","","NA"
"-105.27","55.15","LA RONGE A","4064155","2018-10-26 08:00","2018","10","26","08:00","0.0","","-1.5","","90","","","","12","","7","","12.9","","96.49","","","","-2","","Snow"
"-105.27","55.15","LA RONGE A","4064155","2018-10-26 09:00","2018","10","26","09:00","-0.1","","-0.8","","95","","","","9","","7","","12.9","","96.45","","","","-3","","Snow"
"-105.27","55.15","LA RONGE A","4064155","2018-10-26 10:00","2018","10","26","10:00","-0.1","","-0.8","","95","","","","9","","7","","12.9","","96.44","","","","-3","","Snow"
"-105.27","55.15","LA RONGE A","4064155","2018-10-26 11:00","2018","10","26","11:00","0.0","","-0.6","","96","","","","12","","4","","12.9","","96.43","","","","-1","","Snow"
"-105.27","55.15","LA RONGE A","4064155","2018-10-26 12:00","2018","10","26","12:00","0.0","","-1.0","","93","","","","13","","5","","8.1","","96.38","","","","-2","","Snow"
"-105.27","55.15","LA RONGE A","4064155","2018-10-26 13:00","2018","10","26","13:00","-0.2","","-0.9","","95","","","","17","","5","","2.4","","96.35","","","","-2","","Snow"
"-105.27","55.15","LA RONGE A","4064155","2018-10-26 14:00","2018","10","26","14:00","-0.2","","-0.9","","95","","","","15","","7","","3.2","","96.30","","","","-3","","Snow"
"-105.27","55.15","LA RONGE A","4064155","2018-10-26 15:00","2018","10","26","15:00","-0.1","","-0.8","","95","","","","15","","5","","9.7","","96.26","","","","-2","","Snow"
"-105.27","55.15","LA RONGE A","4064155","2018-10-26 16:00","2018","10","26","16:00","0.0","","-0.7","","95","","","","15","","4","","9.7","","96.23","","","","-1","","Snow"
"-105.27","55.15","LA RONGE A","4064155","2018-10-26 17:00","2018","10","26","17:00","0.0","","-0.7","","95","","","","11","","4","","19.3","","96.21","","","","-1","","Snow"
"-105.27","55.15","LA RONGE A","4064155","2018-10-26 18:00","2018","10","26","18:00","-0.1","","-0.6","","96","","","","8","","3","","12.9","","96.19","","","","-1","","Cloudy"
"-105.27","55.15","LA RONGE A","4064155","2018-10-26 19:00","2018","10","26","19:00","-0.2","","-0.6","","97","","","","4","","4","","4.8","","96.16","","","","-1","","Snow,Fog"
"-105.27","55.15","LA RONGE A","4064155","2018-10-26 20:00","2018","10","26","20:00","-0.1","","-0.4","","98","","","","6","","5","","4.0","","96.11","","","","-2","","Snow,Fog"
"-105.27","55.15","LA RONGE A","4064155","2018-10-26 21:00","2018","10","26","21:00","-0.1","","-0.3","","98","","","","7","","5","","4.8","","96.07","","","","-2","","Snow,Fog"
"-105.27","55.15","LA RONGE A","4064155","2018-10-26 22:00","2018","10","26","22:00","0.0","","-0.3","","98","","","","8","","4","","4.8","","96.07","","","","-1","","Snow,Fog"
"-105.27","55.15","LA RONGE A","4064155","2018-10-26 23:00","2018","10","26","23:00","0.0","","-0.2","","98","","","","7","","3","","8.1","","96.04","","","","-1","","Snow,Fog"
"-105.27","55.15","LA RONGE A","4064155","2018-10-27 00:00","2018","10","27","00:00","0.0","","-0.2","","98","","","","7","","5","","19.3","","96.02","","","","-2","","Snow"
"-105.27","55.15","LA RONGE A","4064155","2018-10-27 01:00","2018","10","27","01:00","0.0","","-0.3","","97","","","","36","","3","","19.3","","96.03","","","","-1","","Snow"
"-105.27","55.15","LA RONGE A","4064155","2018-10-27 02:00","2018","10","27","02:00","0.1","","-0.3","","98","","","","6","","4","","19.3","","95.98","","","","","","Snow"
"-105.27","55.15","LA RONGE A","4064155","2018-10-27 03:00","2018","10","27","03:00","0.1","","-0.3","","98","","","","8","","4","","8.1","","95.97","","","","","","Snow"
"-105.27","55.15","LA RONGE A","4064155","2018-10-27 04:00","2018","10","27","04:00","0.1","","-0.2","","98","","","","6","","4","","3.2","","95.96","","","","","","Snow"
"-105.27","55.15","LA RONGE A","4064155","2018-10-27 05:00","2018","10","27","05:00","0.0","","-0.3","","98","","","","8","","5","","12.9","","95.94","","","","-2","","Snow"
"-105.27","55.15","LA RONGE A","4064155","2018-10-27 06:00","2018","10","27","06:00","0.0","","-0.3","","98","","","","26","","3","","19.3","","95.95","","","","-1","","Snow"
"-105.27","55.15","LA RONGE A","4064155","2018-10-27 07:00","2018","10","27","07:00","0.0","","-0.3","","98","","","","32","","4","","9.7","","95.97","","","","-1","","Snow"
"-105.27","55.15","LA RONGE A","4064155","2018-10-27 08:00","2018","10","27","08:00","-0.1","","-0.3","","98","","","","2","","5","","4.8","","95.96","","","","-2","","Snow"
"-105.27","55.15","LA RONGE A","4064155","2018-10-27 09:00","2018","10","27","09:00","0.1","","-0.1","","98","","","","36","","2","","6.4","","95.98","","","","","","Snow"
"-105.27","55.15","LA RONGE A","4064155","2018-10-27 10:00","2018","10","27","10:00","0.0","","-0.2","","98","","","","36","","3","","3.2","","96.01","","","","-1","","Snow"
"-105.27","55.15","LA RONGE A","4064155","2018-10-27 11:00","2018","10","27","11:00","0.1","","-0.2","","98","","","","29","","3","","3.2","","96.05","","","","","","Snow"
"-105.27","55.15","LA RONGE A","4064155","2018-10-27 12:00","2018","10","27","12:00","0.1","","-0.2","","98","","","","36","","1","","2.4","","96.06","","","","","","Snow"
"-105.27","55.15","LA RONGE A","4064155","2018-10-27 13:00","2018","10","27","13:00","0.4","","0.0","","98","","","","36","","2","","2.4","","96.09","","","","","","Snow"
"-105.27","55.15","LA RONGE A","4064155","2018-10-27 14:00","2018","10","27","14:00","0.7","","0.2","","97","","","","29","","6","","8.1","","96.10","","","","","","Snow"
"-105.27","55.15","LA RONGE A","4064155","2018-10-27 15:00","2018","10","27","15:00","0.8","","0.3","","97","","","","29","","3","","12.9","","96.13","","","","","","Rain,Snow"
"-105.27","55.15","LA RONGE A","4064155","2018-10-27 16:00","2018","10","27","16:00","0.8","","0.4","","97","","","","27","","9","","16.1","","96.19","","","","","","Rain"
"-105.27","55.15","LA RONGE A","4064155","2018-10-27 17:00","2018","10","27","17:00","0.8","","0.4","","98","","","","27","","10","","1.6","","96.24","","","","","","Rain,Fog"
"-105.27","55.15","LA RONGE A","4064155","2018-10-27 18:00","2018","10","27","18:00","0.8","","0.4","","98","","","","29","","11","","9.7","","96.28","","","","","","Fog"
"-105.27","55.15","LA RONGE A","4064155","2018-10-27 19:00","2018","10","27","19:00","0.9","","0.4","","97","","","","27","","10","","9.7","","96.33","","","","","","Fog"
"-105.27","55.15","LA RONGE A","4064155","2018-10-27 20:00","2018","10","27","20:00","1.1","","0.5","","96","","","","30","","12","","24.1","","96.37","","","","","","NA"
"-105.27","55.15","LA RONGE A","4064155","2018-10-27 21:00","2018","10","27","21:00","0.8","","0.1","","95","","","","29","","10","","24.1","","96.41","","","","","","Mainly Clear"
"-105.27","55.15","LA RONGE A","4064155","2018-10-27 22:00","2018","10","27","22:00","0.2","","-0.3","","96","","","","26","","5","","24.1","","96.47","","","","","","NA"
"-105.27","55.15","LA RONGE A","4064155","2018-10-27 23:00","2018","10","27","23:00","-0.3","","-0.8","","97","","","","28","","9","","24.1","","96.51","","","","-3","","NA"
"-105.27","55.15","LA RONGE A","4064155","2018-10-28 00:00","2018","10","28","00:00","-0.6","","-0.9","","98","","","","28","","11","","24.1","","96.55","","","","-4","","Clear"
"-105.27","55.15","LA RONGE A","4064155","2018-10-28 01:00","2018","10","28","01:00","-0.2","","-0.4","","98","","","","30","","12","","0.8","","96.63","","","","-4","","Freezing Fog"
"-105.27","55.15","LA RONGE A","4064155","2018-10-28 02:00","2018","10","28","02:00","0.0","","-0.2","","99","","","","28","","15","","0.8","","96.68","","","","-4","","Fog"
"-105.27","55.15","LA RONGE A","4064155","2018-10-28 03:00","2018","10","28","03:00","-0.1","","-0.3","","99","","","","30","","10","","0.6","","96.73","","","","-3","","Freezing Fog"
"-105.27","55.15","LA RONGE A","4064155","2018-10-28 04:00","2018","10","28","04:00","-0.4","","-0.6","","99","","","","31","","11","","0.6","","96.72","","","","-4","","Freezing Fog"
"-105.27","55.15","LA RONGE A","4064155","2018-10-28 05:00","2018","10","28","05:00","-1.0","","-1.1","","99","","","","27","","8","","0.6","","96.76","","","","-4","","Freezing Fog"
"-105.27","55.15","LA RONGE A","4064155","2018-10-28 06:00","2018","10","28","06:00","-0.9","","-1.0","","99","","","","28","","11","","0.8","","96.87","","","","-5","","Freezing Fog"
"-105.27","55.15","LA RONGE A","4064155","2018-10-28 07:00","2018","10","28","07:00","-1.3","","-1.4","","99","","","","27","","13","","0.6","","96.90","","","","-6","","Freezing Drizzle,Freezing Fog"
"-105.27","55.15","LA RONGE A","4064155","2018-10-28 08:00","2018","10","28","08:00","-1.5","","-1.7","","99","","","","30","","9","","0.6","","96.95","","","","-5","","Freezing Drizzle"
"-105.27","55.15","LA RONGE A","4064155","2018-10-28 09:00","2018","10","28","09:00","-1.8","","-2.0","","98","","","","36","","2","","0.4","","96.97","","","","-3","","Freezing Fog"
"-105.27","55.15","LA RONGE A","4064155","2018-10-28 10:00","2018","10","28","10:00","-1.5","","-1.7","","98","","","","20","","4","","0.4","","96.93","","","","-3","","Freezing Fog"
"-105.27","55.15","LA RONGE A","4064155","2018-10-28 11:00","2018","10","28","11:00","-0.7","","-0.9","","99","","","","20","","6","","0.4","","96.92","","","","-3","","Freezing Fog"
"-105.27","55.15","LA RONGE A","4064155","2018-10-28 12:00","2018","10","28","12:00","-0.5","","-0.7","","99","","","","26","","3","","0.4","","96.97","","","","-1","","Freezing Fog"
"-105.27","55.15","LA RONGE A","4064155","2018-10-28 13:00","2018","10","28","13:00","-0.5","","-0.6","","99","","","","25","","3","","0.4","","97.01","","","","-1","","Freezing Fog"
"-105.27","55.15","LA RONGE A","4064155","2018-10-28 14:00","2018","10","28","14:00","-0.2","","-0.3","","99","","","","17","","8","","0.2","","96.94","","","","-3","","Freezing Fog"
"-105.27","55.15","LA RONGE A","4064155","2018-10-28 15:00","2018","10","28","15:00","-0.1","","-0.2","","99","","","","25","","3","","0.2","","96.98","","","","-1","","Freezing Fog"
"-105.27","55.15","LA RONGE A","4064155","2018-10-28 16:00","2018","10","28","16:00","-0.1","","-0.2","","99","","","","7","","6","","0.2","","96.93","","","","-2","","Freezing Fog"
"-105.27","55.15","LA RONGE A","4064155","2018-10-28 17:00","2018","10","28","17:00","0.0","","-0.1","","99","","","","10","","9","","0.2","","96.85","","","","-3","","Fog"
"-105.27","55.15","LA RONGE A","4064155","2018-10-28 18:00","2018","10","28","18:00","-0.1","","-0.2","","99","","","","11","","8","","0.2","","96.84","","","","-3","","Freezing Fog"
"-105.27","55.15","LA RONGE A","4064155","2018-10-28 19:00","2018","10","28","19:00","0.0","","0.0","","99","","","","8","","8","","0.2","","96.83","","","","-3","","Fog"
"-105.27","55.15","LA RONGE A","4064155","2018-10-28 20:00","2018","10","28","20:00","0.4","","0.3","","99","","","","10","","7","","0.2","","96.79","","","","","","Fog"
"-105.27","55.15","LA RONGE A","4064155","2018-10-28 21:00","2018","10","28","21:00","0.6","","0.6","","99","","","","9","","8","","0.4","","96.78","","","","","","Fog"
"-105.27","55.15","LA RONGE A","4064155","2018-10-28 22:00","2018","10","28","22:00","0.5","","0.4","","99","","","","9","","10","","0.6","","96.73","","","","","","Fog"
"-105.27","55.15","LA RONGE A","4064155","2018-10-28 23:00","2018","10","28","23:00","0.4","","0.4","","99","","","","8","","9","","1.2","","96.65","","","","","","Fog"
"-105.27","55.15","LA RONGE A","4064155","2018-10-29 00:00","2018","10","29","00:00","0.6","","0.5","","99","","","","8","","10","","1.6","","96.64","","","","","","Fog"
"-105.27","55.15","LA RONGE A","4064155","2018-10-29 01:00","2018","10","29","01:00","0.5","","0.4","","99","","","","9","","9","","1.6","","96.59","","","","","","Fog"
"-105.27","55.15","LA RONGE A","4064155","2018-10-29 02:00","2018","10","29","02:00","0.3","","0.2","","99","","","","7","","11","","1.6","","96.51","","","","","","Fog"
"-105.27","55.15","LA RONGE A","4064155","2018-10-29 03:00","2018","10","29","03:00","0.6","","0.5","","99","","","","6","","14","","3.2","","96.43","","","","","","Fog"
"-105.27","55.15","LA RONGE A","4064155","2018-10-29 04:00","2018","10","29","04:00","0.3","","0.2","","99","","","","7","","15","","8.1","","96.36","","","","","","Fog"
"-105.27","55.15","LA RONGE A","4064155","2018-10-29 05:00","2018","10","29","05:00","0.3","","0.2","","99","","","","7","","17","","12.9","","96.28","","","","","","NA"
"-105.27","55.15","LA RONGE A","4064155","2018-10-29 06:00","2018","10","29","06:00","0.5","","0.2","","98","","","","6","","20","","9.7","","96.22","","","","","","Rain"
"-105.27","55.15","LA RONGE A","4064155","2018-10-29 07:00","2018","10","29","07:00","0.4","","-0.2","","95","","","","6","","26","","12.9","","96.12","","","","","","Rain"
"-105.27","55.15","LA RONGE A","4064155","2018-10-29 08:00","2018","10","29","08:00","0.3","","-0.5","","95","","","","9","","20","","24.1","","96.10","","","","","","Rain"
"-105.27","55.15","LA RONGE A","4064155","2018-10-29 09:00","2018","10","29","09:00","0.1","","-0.4","","96","","","","7","","19","","0.8","","96.04","","","","","","Moderate Snow"
"-105.27","55.15","LA RONGE A","4064155","2018-10-29 10:00","2018","10","29","10:00","0.1","","-0.4","","97","","","","7","","18","","0.8","","96.00","","","","","","Moderate Snow"
"-105.27","55.15","LA RONGE A","4064155","2018-10-29 11:00","2018","10","29","11:00","0.2","","-0.2","","97","","","","7","","15","","0.8","","95.97","","","","","","Moderate Snow,Moderate Snow Showers"
"-105.27","55.15","LA RONGE A","4064155","2018-10-29 12:00","2018","10","29","12:00","0.2","","-0.2","","97","","","","7","","18","","0.8","","95.94","","","","","","Moderate Snow"
"-105.27","55.15","LA RONGE A","4064155","2018-10-29 13:00","2018","10","29","13:00","0.4","","-0.2","","95","","","","7","","15","","6.4","","95.93","","","","","","Snow"
"-105.27","55.15","LA RONGE A","4064155","2018-10-29 14:00","2018","10","29","14:00","0.7","","-0.2","","94","","","","6","","17","","24.1","","95.92","","","","","","Snow"
"-105.27","55.15","LA RONGE A","4064155","2018-10-29 15:00","2018","10","29","15:00","0.8","","-0.2","","94","","","","6","","13","","24.1","","95.93","","","","","","Cloudy"
"-105.27","55.15","LA RONGE A","4064155","2018-10-29 16:00","2018","10","29","16:00","0.7","","-0.3","","93","","","","4","","17","","19.3","","95.97","","","","","","Snow"
"-105.27","55.15","LA RONGE A","4064155","2018-10-29 17:00","2018","10","29","17:00","0.3","","-0.4","","95","","","","1","","15","","12.9","","96.02","","","","","","Rain,Snow,Fog"
"-105.27","55.15","LA RONGE A","4064155","2018-10-29 18:00","2018","10","29","18:00","0.1","","-0.4","","96","","","","35","","13","","12.9","","96.04","","","","","","Rain,Snow"
"-105.27","55.15","LA RONGE A","4064155","2018-10-29 19:00","2018","10","29","19:00","0.1","","-0.4","","96","","","","34","","11","","12.9","","96.07","","","","","","Rain,Snow"
"-105.27","55.15","LA RONGE A","4064155","2018-10-29 20:00","2018","10","29","20:00","0.2","","-0.3","","96","","","","35","","13","","12.9","","96.09","","","","","","Rain,Snow"
"-105.27","55.15","LA RONGE A","4064155","2018-10-29 21:00","2018","10","29","21:00","0.3","","-0.3","","96","","","","35","","13","","4.0","","96.12","","","","","","Rain,Fog"
"-105.27","55.15","LA RONGE A","4064155","2018-10-29 22:00","2018","10","29","22:00","0.3","","-0.3","","96","","","","34","","15","","4.0","","96.14","","","","","","Rain,Fog"
"-105.27","55.15","LA RONGE A","4064155","2018-10-29 23:00","2018","10","29","23:00","0.2","","-0.6","","94","","","","35","","14","","4.8","","96.18","","","","","","Rain,Fog"
"-105.27","55.15","LA RONGE A","4064155","2018-10-30 00:00","2018","10","30","00:00","0.0","","-0.8","","94","","","","34","","13","","9.7","","96.20","","","","-4","","Rain,Snow"
"-105.27","55.15","LA RONGE A","4064155","2018-10-30 01:00","2018","10","30","01:00","-0.3","","-0.9","","95","","","","34","","14","","4.8","","96.25","","","","-5","","Snow"
"-105.27","55.15","LA RONGE A","4064155","2018-10-30 02:00","2018","10","30","02:00","-0.3","","-1.1","","94","","","","35","","17","","6.4","","96.29","","","","-5","","Freezing Drizzle,Snow"
"-105.27","55.15","LA RONGE A","4064155","2018-10-30 03:00","2018","10","30","03:00","-0.4","","-1.1","","95","","","","35","","16","","4.8","","96.34","","","","-5","","Freezing Drizzle,Snow"
"-105.27","55.15","LA RONGE A","4064155","2018-10-30 04:00","2018","10","30","04:00","-0.2","","-0.9","","95","","","","35","","13","","4.8","","96.38","","","","-4","","Snow"
"-105.27","55.15","LA RONGE A","4064155","2018-10-30 05:00","2018","10","30","05:00","-0.3","","-1.2","","93","","","","34","","13","","6.4","","96.42","","","","-4","","Snow"
"-105.27","55.15","LA RONGE A","4064155","2018-10-30 06:00","2018","10","30","06:00","-0.6","","-1.5","","94","","","","34","","12","","6.4","","96.48","","","","-5","","Snow"
"-105.27","55.15","LA RONGE A","4064155","2018-10-30 07:00","2018","10","30","07:00","-0.8","","-1.6","","94","","","","34","","12","","3.2","","96.52","","","","-5","","Snow"
"-105.27","55.15","LA RONGE A","4064155","2018-10-30 08:00","2018","10","30","08:00","-0.9","","-1.8","","94","","","","34","","12","","2.4","","96.57","","","","-5","","Snow"
"-105.27","55.15","LA RONGE A","4064155","2018-10-30 09:00","2018","10","30","09:00","-1.0","","-1.9","","93","","","","33","","10","","4.8","","96.61","","","","-5","","Snow"
"-105.27","55.15","LA RONGE A","4064155","2018-10-30 10:00","2018","10","30","10:00","-0.9","","-2.1","","91","","","","34","","16","","8.1","","96.67","","","","-6","","Snow"
"-105.27","55.15","LA RONGE A","4064155","2018-10-30 11:00","2018","10","30","11:00","-0.8","","-2.5","","89","","","","33","","14","","24.1","","96.73","","","","-5","","Snow"
"-105.27","55.15","LA RONGE A","4064155","2018-10-30 12:00","2018","10","30","12:00","-0.8","","-2.1","","91","","","","33","","12","","24.1","","96.77","","","","-5","","Snow"
"-105.27","55.15","LA RONGE A","4064155","2018-10-30 13:00","2018","10","30","13:00","-0.4","","-2.4","","87","","","","33","","14","","24.1","","96.78","","","","-5","","Snow"
"-105.27","55.15","LA RONGE A","4064155","2018-10-30 14:00","2018","10","30","14:00","-0.3","","-2.6","","84","","","","34","","9","","24.1","","96.82","","","","-3","","Snow"
"-105.27","55.15","LA RONGE A","4064155","2018-10-30 15:00","2018","10","30","15:00","-0.8","","-2.9","","86","","","","33","","13","","24.1","","96.83","","","","-5","","Snow"
"-105.27","55.15","LA RONGE A","4064155","2018-10-30 16:00","2018","10","30","16:00","-0.8","","-3.4","","83","","","","35","","12","","24.1","","96.85","","","","-5","","Snow"
"-105.27","55.15","LA RONGE A","4064155","2018-10-30 17:00","2018","10","30","17:00","-1.2","","-2.4","","91","","","","33","","8","","24.1","","96.87","","","","-4","","Snow"
"-105.27","55.15","LA RONGE A","4064155","2018-10-30 18:00","2018","10","30","18:00","-1.4","","-2.8","","90","","","","35","","4","","24.1","","96.86","","","","-3","","Snow"
"-105.27","55.15","LA RONGE A","4064155","2018-10-30 19:00","2018","10","30","19:00","-1.5","","-3.0","","89","","","","29","","6","","24.1","","96.89","","","","-4","","Snow"
"-105.27","55.15","LA RONGE A","4064155","2018-10-30 20:00","2018","10","30","20:00","-1.7","","-2.6","","93","","","","36","","7","","24.1","","96.89","","","","-4","","Snow"
"-105.27","55.15","LA RONGE A","4064155","2018-10-30 21:00","2018","10","30","21:00","-2.0","","-2.5","","96","","","","36","","2","","24.1","","96.90","","","","-3","","Snow"
"-105.27","55.15","LA RONGE A","4064155","2018-10-30 22:00","2018","10","30","22:00","-1.8","","-2.5","","95","","","","36","","1","","24.1","","96.87","","","","-2","","Snow"
"-105.27","55.15","LA RONGE A","4064155","2018-10-30 23:00","2018","10","30","23:00","-2.0","","-2.6","","96","","","","36","","1","","24.1","","96.84","","","","-2","","Snow"
"-105.27","55.15","LA RONGE A","4064155","2018-10-31 00:00","2018","10","31","00:00","-1.9","","-2.5","","96","","","","29","","4","","24.1","","96.84","","","","-3","","Snow"
"-105.27","55.15","LA RONGE A","4064155","2018-10-31 01:00","2018","10","31","01:00","-1.9","","-2.5","","96","","","","34","","4","","24.1","","96.85","","","","-3","","Snow"
"-105.27","55.15","LA RONGE A","4064155","2018-10-31 02:00","2018","10","31","02:00","-1.9","","-2.7","","94","","","","2","","5","","24.1","","96.85","","","","-4","","NA"
"-105.27","55.15","LA RONGE A","4064155","2018-10-31 03:00","2018","10","31","03:00","-2.1","","-3.0","","93","","","","34","","5","","24.1","","96.87","","","","-4","","Snow"
"-105.27","55.15","LA RONGE A","4064155","2018-10-31 04:00","2018","10","31","04:00","-2.3","","-2.9","","96","","","","36","","3","","24.1","","96.85","","","","-3","","Snow"
"-105.27","55.15","LA RONGE A","4064155","2018-10-31 05:00","2018","10","31","05:00","-2.2","","-3.1","","93","","","","3","","8","","24.1","","96.80","","","","-5","","Snow"
"-105.27","55.15","LA RONGE A","4064155","2018-10-31 06:00","2018","10","31","06:00","-2.2","","-3.2","","93","","","","7","","5","","24.1","","96.79","","","","-4","","Snow"
"-105.27","55.15","LA RONGE A","4064155","2018-10-31 07:00","2018","10","31","07:00","-2.8","","-3.5","","94","","","","3","","7","","4.8","","96.77","","","","-6","","Snow"
"-105.27","55.15","LA RONGE A","4064155","2018-10-31 08:00","2018","10","31","08:00","-2.5","","-3.2","","95","","","","9","","5","","24.1","","96.75","","","","-4","","Snow"
"-105.27","55.15","LA RONGE A","4064155","2018-10-31 09:00","2018","10","31","09:00","-2.2","","-3.0","","94","","","","9","","5","","16.1","","96.69","","","","-4","","Snow"
"-105.27","55.15","LA RONGE A","4064155","2018-10-31 10:00","2018","10","31","10:00","-1.6","","-2.5","","94","","","","13","","9","","16.1","","96.65","","","","-5","","Snow"
"-105.27","55.15","LA RONGE A","4064155","2018-10-31 11:00","2018","10","31","11:00","-1.4","","-2.7","","91","","","","13","","11","","9.7","","96.64","","","","-5","","Snow"
"-105.27","55.15","LA RONGE A","4064155","2018-10-31 12:00","2018","10","31","12:00","-1.2","","-2.0","","94","","","","11","","8","","9.7","","96.64","","","","-4","","Snow"
"-105.27","55.15","LA RONGE A","4064155","2018-10-31 13:00","2018","10","31","13:00","-0.5","","-2.5","","87","","","","14","","14","","24.1","","96.58","","","","-5","","Snow"
"-105.27","55.15","LA RONGE A","4064155","2018-10-31 14:00","2018","10","31","14:00","-0.2","","-1.7","","90","","","","13","","13","","24.1","","96.54","","","","-4","","Snow"
"-105.27","55.15","LA RONGE A","4064155","2018-10-31 15:00","2018","10","31","15:00","-0.1","","-1.4","","90","","","","8","","6","","24.1","","96.50","","","","-2","","Snow"
"-105.27","55.15","LA RONGE A","4064155","2018-10-31 16:00","2018","10","31","16:00","0.1","","-1.3","","90","","","","11","","4","","24.1","","96.48","","","","","","Snow"
"-105.27","55.15","LA RONGE A","4064155","2018-10-31 17:00","2018","10","31","17:00","0.1","","-1.9","","87","","","","13","","8","","24.1","","96.48","","","","","","NA"
"-105.27","55.15","LA RONGE A","4064155","2018-10-31 18:00","2018","10","31","18:00","-0.3","","-1.7","","90","","","","9","","8","","6.4","","96.46","","","","-3","","Snow"
"-105.27","55.15","LA RONGE A","4064155","2018-10-31 19:00","2018","10","31","19:00","-0.6","","-1.4","","94","","","","10","","8","","3.2","","96.46","","","","-3","","Snow"
"-105.27","55.15","LA RONGE A","4064155","2018-10-31 20:00","2018","10","31","20:00","-0.7","","-1.4","","94","","","","8","","10","","16.1","","96.43","","","","-4","","Snow"
"-105.27","55.15","LA RONGE A","4064155","2018-10-31 21:00","2018","10","31","21:00","-0.7","","-1.4","","95","","","","8","","12","","16.1","","96.42","","","","-5","","Snow"
"-105.27","55.15","LA RONGE A","4064155","2018-10-31 22:00","2018","10","31","22:00","-0.7","","-1.5","","95","","","","9","","12","","16.1","","96.40","","","","-5","","Snow"
"-105.27","55.15","LA RONGE A","4064155","2018-10-31 23:00","2018","10","31","23:00","-0.8","","-1.6","","95","","","","9","","10","","16.1","","96.40","","","","-4","","NA"
