"Longitude (x)","Latitude (y)","Station Name","Climate ID","Date/Time (LST)","Year","Month","Day","Time (LST)","Temp (°C)","Temp Flag","Dew Point Temp (°C)","Dew Point Temp Flag","Rel Hum (%)","Rel Hum Flag","Precip. Amount (mm)","Precip. Amount Flag","Wind Dir (10s deg)","Wind Dir Flag","Wind Spd (km/h)","Wind Spd Flag","Visibility (km)","Visibility Flag","Stn Press (kPa)","Stn Press Flag","Hmdx","Hmdx Flag","Wind Chill","Wind Chill Flag","Weather"
"-53.58","49.11","POOLS ISLAND","840BR7C","2020-03-01 00:30","2020","03","01","00:30","-8.0","","-11.6","","75","","","","29","","14","","","","101.07","","","","-14","","NA"
"-53.58","49.11","POOLS ISLAND","840BR7C","2020-03-01 01:30","2020","03","01","01:30","-8.7","","-11.8","","78","","","","29","","16","","","","101.07","","","","-15","","NA"
"-53.58","49.11","POOLS ISLAND","840BR7C","2020-03-01 02:30","2020","03","01","02:30","-8.2","","-11.3","","78","","","","28","","20","","","","101.01","","","","-16","","NA"
"-53.58","49.11","POOLS ISLAND","840BR7C","2020-03-01 03:30","2020","03","01","03:30","-8.4","","-11.4","","79","","","","29","","18","","","","100.98","","","","-15","","NA"
"-53.58","49.11","POOLS ISLAND","840BR7C","2020-03-01 04:30","2020","03","01","04:30","-8.7","","-10.9","","84","","","","27","","18","","","","101.08","","","","-16","","NA"
"-53.58","49.11","POOLS ISLAND","840BR7C","2020-03-01 05:30","2020","03","01","05:30","-9.1","","-11.0","","86","","","","27","","15","","","","101.11","","","","-16","","NA"
"-53.58","49.11","POOLS ISLAND","840BR7C","2020-03-01 06:30","2020","03","01","06:30","-9.5","","-11.5","","85","","","","27","","15","","","","101.11","","","","-16","","NA"
"-53.58","49.11","POOLS ISLAND","840BR7C","2020-03-01 07:30","2020","03","01","07:30","-8.5","","-10.6","","85","","","","30","","10","","","","101.16","","","","-13","","NA"
"-53.58","49.11","POOLS ISLAND","840BR7C","2020-03-01 08:30","2020","03","01","08:30","-8.0","","-9.0","","93","","","","31","","19","","","","101.09","","","","-15","","NA"
"-53.58","49.11","POOLS ISLAND","840BR7C","2020-03-01 09:30","2020","03","01","09:30","-4.8","","-5.8","","93","","","","31","","12","","","","101.00","","","","-10","","NA"
"-53.58","49.11","POOLS ISLAND","840BR7C","2020-03-01 10:30","2020","03","01","10:30","-2.1","","-3.5","","90","","","","34","","13","","","","100.95","","","","-7","","NA"
"-53.58","49.11","POOLS ISLAND","840BR7C","2020-03-01 11:30","2020","03","01","11:30","-2.0","","-4.1","","86","","","","36","","23","","","","100.90","","","","-8","","NA"
"-53.58","49.11","POOLS ISLAND","840BR7C","2020-03-01 12:30","2020","03","01","12:30","-1.8","","-5.0","","79","","","","3","","29","","","","100.81","","","","-9","","NA"
"-53.58","49.11","POOLS ISLAND","840BR7C","2020-03-01 13:30","2020","03","01","13:30","-2.5","","-4.5","","86","","","","4","","37","","","","100.73","","","","-10","","NA"
"-53.58","49.11","POOLS ISLAND","840BR7C","2020-03-01 14:30","2020","03","01","14:30","-2.7","","-4.6","","87","","","","4","","42","","","","100.59","","","","-11","","NA"
"-53.58","49.11","POOLS ISLAND","840BR7C","2020-03-01 15:30","2020","03","01","15:30","-2.5","","-3.4","","94","","","","5","","40","","","","100.58","","","","-11","","NA"
"-53.58","49.11","POOLS ISLAND","840BR7C","2020-03-01 16:30","2020","03","01","16:30","-2.7","","-3.8","","92","","","","5","","44","","","","100.50","","","","-11","","NA"
"-53.58","49.11","POOLS ISLAND","840BR7C","2020-03-01 17:30","2020","03","01","17:30","-2.4","","-4.5","","86","","","","5","","48","","","","100.53","","","","-11","","NA"
"-53.58","49.11","POOLS ISLAND","840BR7C","2020-03-01 18:30","2020","03","01","18:30","-2.5","","-4.7","","85","","","","5","","46","","","","100.57","","","","-11","","NA"
"-53.58","49.11","POOLS ISLAND","840BR7C","2020-03-01 19:30","2020","03","01","19:30","-2.6","","-5.0","","84","","","","5","","48","","","","100.50","","","","-12","","NA"
"-53.58","49.11","POOLS ISLAND","840BR7C","2020-03-01 20:30","2020","03","01","20:30","-3.0","","-4.9","","86","","","","5","","48","","","","100.43","","","","-12","","NA"
"-53.58","49.11","POOLS ISLAND","840BR7C","2020-03-01 21:30","2020","03","01","21:30","-3.0","","-4.8","","88","","","","5","","51","","","","100.36","","","","-12","","NA"
"-53.58","49.11","POOLS ISLAND","840BR7C","2020-03-01 22:30","2020","03","01","22:30","-3.1","","-4.8","","88","","","","5","","47","","","","100.38","","","","-12","","NA"
"-53.58","49.11","POOLS ISLAND","840BR7C","2020-03-01 23:30","2020","03","01","23:30","-3.2","","-4.2","","93","","","","4","","39","","","","100.42","","","","-12","","NA"
"-53.58","49.11","POOLS ISLAND","840BR7C","2020-03-02 00:30","2020","03","02","00:30","-3.1","","-3.8","","95","","","","4","","33","","","","100.45","","","","-11","","NA"
"-53.58","49.11","POOLS ISLAND","840BR7C","2020-03-02 01:30","2020","03","02","01:30","-3.0","","-3.6","","95","","","","3","","37","","","","100.45","","","","-11","","NA"
"-53.58","49.11","POOLS ISLAND","840BR7C","2020-03-02 02:30","2020","03","02","02:30","-2.9","","-3.6","","95","","","","3","","39","","","","100.41","","","","-11","","NA"
"-53.58","49.11","POOLS ISLAND","840BR7C","2020-03-02 03:30","2020","03","02","03:30","-2.9","","-3.8","","94","","","","3","","46","","","","100.37","","","","-12","","NA"
"-53.58","49.11","POOLS ISLAND","840BR7C","2020-03-02 04:30","2020","03","02","04:30","-2.9","","-4.0","","93","","","","3","","50","","","","100.38","","","","-12","","NA"
"-53.58","49.11","POOLS ISLAND","840BR7C","2020-03-02 05:30","2020","03","02","05:30","-3.0","","-4.3","","91","","","","3","","50","","","","100.43","","","","-12","","NA"
"-53.58","49.11","POOLS ISLAND","840BR7C","2020-03-02 06:30","2020","03","02","06:30","-3.5","","-5.0","","89","","","","3","","56","","","","100.48","","","","-13","","NA"
"-53.58","49.11","POOLS ISLAND","840BR7C","2020-03-02 07:30","2020","03","02","07:30","-3.8","","-5.2","","90","","","","2","","46","","","","100.62","","","","-13","","NA"
"-53.58","49.11","POOLS ISLAND","840BR7C","2020-03-02 08:30","2020","03","02","08:30","-3.8","","-5.4","","89","","","","2","","42","","","","100.71","","","","-13","","NA"
"-53.58","49.11","POOLS ISLAND","840BR7C","2020-03-02 09:30","2020","03","02","09:30","-3.9","","-5.9","","86","","","","2","","36","","","","100.80","","","","-12","","NA"
"-53.58","49.11","POOLS ISLAND","840BR7C","2020-03-02 10:30","2020","03","02","10:30","-3.6","","-6.4","","81","","","","1","","36","","","","100.84","","","","-12","","NA"
"-53.58","49.11","POOLS ISLAND","840BR7C","2020-03-02 11:30","2020","03","02","11:30","-3.4","","-6.2","","81","","","","1","","32","","","","100.90","","","","-11","","NA"
"-53.58","49.11","POOLS ISLAND","840BR7C","2020-03-02 12:30","2020","03","02","12:30","-3.4","","-6.7","","78","","","","1","","37","","","","100.90","","","","-12","","NA"
"-53.58","49.11","POOLS ISLAND","840BR7C","2020-03-02 13:30","2020","03","02","13:30","-3.9","","-7.6","","76","","","","36","","36","","","","100.95","","","","-12","","NA"
"-53.58","49.11","POOLS ISLAND","840BR7C","2020-03-02 14:30","2020","03","02","14:30","-4.1","","-7.8","","76","","","","36","","40","","","","101.00","","","","-13","","NA"
"-53.58","49.11","POOLS ISLAND","840BR7C","2020-03-02 15:30","2020","03","02","15:30","-4.7","","-8.5","","75","","","","36","","41","","","","101.03","","","","-14","","NA"
"-53.58","49.11","POOLS ISLAND","840BR7C","2020-03-02 16:30","2020","03","02","16:30","-5.4","","-8.3","","80","","","","35","","34","","","","101.09","","","","-14","","NA"
"-53.58","49.11","POOLS ISLAND","840BR7C","2020-03-02 17:30","2020","03","02","17:30","-5.9","","-9.1","","78","","","","35","","32","","","","101.21","","","","-14","","NA"
"-53.58","49.11","POOLS ISLAND","840BR7C","2020-03-02 18:30","2020","03","02","18:30","-7.4","","-10.1","","81","","","","34","","19","","","","101.27","","","","-14","","NA"
"-53.58","49.11","POOLS ISLAND","840BR7C","2020-03-02 19:30","2020","03","02","19:30","-8.2","","-10.6","","83","","","","33","","23","","","","101.33","","","","-16","","NA"
"-53.58","49.11","POOLS ISLAND","840BR7C","2020-03-02 20:30","2020","03","02","20:30","-8.9","","-10.9","","85","","","","33","","22","","","","101.41","","","","-17","","NA"
"-53.58","49.11","POOLS ISLAND","840BR7C","2020-03-02 21:30","2020","03","02","21:30","-10.8","","-12.7","","86","","","","31","","18","","","","101.46","","","","-18","","NA"
"-53.58","49.11","POOLS ISLAND","840BR7C","2020-03-02 22:30","2020","03","02","22:30","-10.6","","-12.5","","86","","","","32","","22","","","","101.44","","","","-19","","NA"
"-53.58","49.11","POOLS ISLAND","840BR7C","2020-03-02 23:30","2020","03","02","23:30","-10.9","","-12.7","","86","","","","32","","23","","","","101.45","","","","-20","","NA"
"-53.58","49.11","POOLS ISLAND","840BR7C","2020-03-03 00:30","2020","03","03","00:30","-11.5","","-13.0","","89","","","","32","","17","","","","101.46","","","","-19","","NA"
"-53.58","49.11","POOLS ISLAND","840BR7C","2020-03-03 01:30","2020","03","03","01:30","-11.5","","-12.7","","91","","","","29","","15","","","","101.48","","","","-19","","NA"
"-53.58","49.11","POOLS ISLAND","840BR7C","2020-03-03 02:30","2020","03","03","02:30","-12.0","","-13.6","","88","","","","29","","19","","","","101.52","","","","-20","","NA"
"-53.58","49.11","POOLS ISLAND","840BR7C","2020-03-03 03:30","2020","03","03","03:30","-13.2","","-14.8","","88","","","","29","","17","","","","101.57","","","","-21","","NA"
"-53.58","49.11","POOLS ISLAND","840BR7C","2020-03-03 04:30","2020","03","03","04:30","-12.5","","-14.4","","86","","","","29","","16","","","","101.58","","","","-20","","NA"
"-53.58","49.11","POOLS ISLAND","840BR7C","2020-03-03 05:30","2020","03","03","05:30","-11.2","","-13.5","","83","","","","29","","18","","","","101.60","","","","-19","","NA"
"-53.58","49.11","POOLS ISLAND","840BR7C","2020-03-03 06:30","2020","03","03","06:30","-9.6","","-12.6","","78","","","","25","","15","","","","101.58","","","","-16","","NA"
"-53.58","49.11","POOLS ISLAND","840BR7C","2020-03-03 07:30","2020","03","03","07:30","-7.6","","-9.5","","86","","","","24","","16","","","","101.53","","","","-14","","NA"
"-53.58","49.11","POOLS ISLAND","840BR7C","2020-03-03 08:30","2020","03","03","08:30","-6.4","","-10.0","","76","","","","22","","30","","","","101.44","","","","-15","","NA"
"-53.58","49.11","POOLS ISLAND","840BR7C","2020-03-03 09:30","2020","03","03","09:30","-5.1","","-8.3","","79","","","","23","","32","","","","101.36","","","","-13","","NA"
"-53.58","49.11","POOLS ISLAND","840BR7C","2020-03-03 10:30","2020","03","03","10:30","-4.4","","-8.4","","73","","","","22","","39","","","","101.26","","","","-13","","NA"
"-53.58","49.11","POOLS ISLAND","840BR7C","2020-03-03 11:30","2020","03","03","11:30","-4.6","","-6.0","","90","","","","23","","31","","","","101.18","","","","-13","","NA"
"-53.58","49.11","POOLS ISLAND","840BR7C","2020-03-03 12:30","2020","03","03","12:30","-3.2","","-5.2","","86","","","","21","","41","","","","100.98","","","","-12","","NA"
"-53.58","49.11","POOLS ISLAND","840BR7C","2020-03-03 13:30","2020","03","03","13:30","-2.2","","-4.6","","84","","","","21","","39","","","","100.84","","","","-10","","NA"
"-53.58","49.11","POOLS ISLAND","840BR7C","2020-03-03 14:30","2020","03","03","14:30","-1.3","","-3.2","","87","","","","21","","37","","","","100.64","","","","-9","","NA"
"-53.58","49.11","POOLS ISLAND","840BR7C","2020-03-03 15:30","2020","03","03","15:30","-0.8","","-2.2","","90","","","","23","","42","","","","100.51","","","","-9","","NA"
"-53.58","49.11","POOLS ISLAND","840BR7C","2020-03-03 16:30","2020","03","03","16:30","0.0","","-1.4","","90","","","","23","","41","","","","100.40","","","","-7","","NA"
"-53.58","49.11","POOLS ISLAND","840BR7C","2020-03-03 17:30","2020","03","03","17:30","0.0","","-1.2","","92","","","","24","","30","","","","100.39","","","","-6","","NA"
"-53.58","49.11","POOLS ISLAND","840BR7C","2020-03-03 18:30","2020","03","03","18:30","0.3","","-0.8","","92","","","","23","","30","","","","100.36","","","","","","NA"
"-53.58","49.11","POOLS ISLAND","840BR7C","2020-03-03 19:30","2020","03","03","19:30","1.4","","0.3","","92","","","","25","","26","","","","100.37","","","","","","NA"
"-53.58","49.11","POOLS ISLAND","840BR7C","2020-03-03 20:30","2020","03","03","20:30","1.6","","0.5","","93","","","","26","","12","","","","100.44","","","","","","NA"
"-53.58","49.11","POOLS ISLAND","840BR7C","2020-03-03 21:30","2020","03","03","21:30","2.1","","0.3","","88","","","","27","","17","","","","100.49","","","","","","NA"
"-53.58","49.11","POOLS ISLAND","840BR7C","2020-03-03 22:30","2020","03","03","22:30","1.3","","-0.5","","88","","","","28","","18","","","","100.49","","","","","","NA"
"-53.58","49.11","POOLS ISLAND","840BR7C","2020-03-03 23:30","2020","03","03","23:30","-0.1","","-1.5","","90","","","","30","","15","","","","100.49","","","","-5","","NA"
"-53.58","49.11","POOLS ISLAND","840BR7C","2020-03-04 00:30","2020","03","04","00:30","-0.4","","-1.8","","90","","","","28","","15","","","","100.59","","","","-5","","NA"
"-53.58","49.11","POOLS ISLAND","840BR7C","2020-03-04 01:30","2020","03","04","01:30","-1.1","","-2.3","","92","","","","28","","11","","","","100.74","","","","-5","","NA"
"-53.58","49.11","POOLS ISLAND","840BR7C","2020-03-04 02:30","2020","03","04","02:30","-2.3","","-3.1","","94","","","","32","","15","","","","100.73","","","","-7","","NA"
"-53.58","49.11","POOLS ISLAND","840BR7C","2020-03-04 03:30","2020","03","04","03:30","-3.2","","-4.2","","93","","","","34","","13","","","","100.74","","","","-8","","NA"
"-53.58","49.11","POOLS ISLAND","840BR7C","2020-03-04 04:30","2020","03","04","04:30","-3.4","","-4.2","","94","","","","31","","10","","","","100.80","","","","-7","","NA"
"-53.58","49.11","POOLS ISLAND","840BR7C","2020-03-04 05:30","2020","03","04","05:30","-3.6","","-4.5","","94","","","","36","","4","","","","100.76","","","","-5","","NA"
"-53.58","49.11","POOLS ISLAND","840BR7C","2020-03-04 06:30","2020","03","04","06:30","-3.9","","-4.6","","95","","","","25","","7","","","","100.83","","","","-7","","NA"
"-53.58","49.11","POOLS ISLAND","840BR7C","2020-03-04 07:30","2020","03","04","07:30","-4.1","","-5.0","","94","","","","26","","3","","","","100.86","","","","-5","","NA"
"-53.58","49.11","POOLS ISLAND","840BR7C","2020-03-04 08:30","2020","03","04","08:30","-3.0","","-4.0","","93","","","","18","","4","","","","100.89","","","","-5","","NA"
"-53.58","49.11","POOLS ISLAND","840BR7C","2020-03-04 09:30","2020","03","04","09:30","-2.4","","-3.4","","93","","","","14","","11","","","","100.88","","","","-6","","NA"
"-53.58","49.11","POOLS ISLAND","840BR7C","2020-03-04 10:30","2020","03","04","10:30","-1.1","","-2.3","","91","","","","16","","21","","","","100.79","","","","-7","","NA"
"-53.58","49.11","POOLS ISLAND","840BR7C","2020-03-04 11:30","2020","03","04","11:30","-0.8","","-2.3","","89","","","","15","","29","","","","100.62","","","","-7","","NA"
"-53.58","49.11","POOLS ISLAND","840BR7C","2020-03-04 12:30","2020","03","04","12:30","-1.0","","-2.6","","89","","","","15","","32","","","","100.41","","","","-8","","NA"
"-53.58","49.11","POOLS ISLAND","840BR7C","2020-03-04 13:30","2020","03","04","13:30","-0.6","","-1.4","","94","","","","15","","39","","","","100.18","","","","-8","","NA"
"-53.58","49.11","POOLS ISLAND","840BR7C","2020-03-04 14:30","2020","03","04","14:30","-0.4","","-1.0","","95","","","","15","","23","","","","99.96","","","","-6","","NA"
"-53.58","49.11","POOLS ISLAND","840BR7C","2020-03-04 15:30","2020","03","04","15:30","-0.2","","-0.8","","96","","","","15","","15","","","","99.54","","","","-5","","NA"
"-53.58","49.11","POOLS ISLAND","840BR7C","2020-03-04 16:30","2020","03","04","16:30","-0.1","","-0.7","","96","","","","14","","14","","","","99.08","","","","-4","","NA"
"-53.58","49.11","POOLS ISLAND","840BR7C","2020-03-04 17:30","2020","03","04","17:30","1.2","","0.7","","96","","","","16","","63","","","","98.77","","","","","","NA"
"-53.58","49.11","POOLS ISLAND","840BR7C","2020-03-04 18:30","2020","03","04","18:30","1.1","","0.6","","97","","","","19","","52","","","","98.60","","","","","","NA"
"-53.58","49.11","POOLS ISLAND","840BR7C","2020-03-04 19:30","2020","03","04","19:30","1.9","","1.4","","97","","","","21","","44","","","","98.41","","","","","","NA"
"-53.58","49.11","POOLS ISLAND","840BR7C","2020-03-04 20:30","2020","03","04","20:30","3.2","","2.6","","96","","","","22","","48","","","","98.38","","","","","","NA"
"-53.58","49.11","POOLS ISLAND","840BR7C","2020-03-04 21:30","2020","03","04","21:30","3.6","","1.9","","89","","","","25","","58","","","","98.38","","","","","","NA"
"-53.58","49.11","POOLS ISLAND","840BR7C","2020-03-04 22:30","2020","03","04","22:30","2.5","","0.5","","87","","","","23","","54","","","","98.40","","","","","","NA"
"-53.58","49.11","POOLS ISLAND","840BR7C","2020-03-04 23:30","2020","03","04","23:30","2.4","","0.0","","84","","","","24","","56","","","","98.31","","","","","","NA"
"-53.58","49.11","POOLS ISLAND","840BR7C","2020-03-05 00:30","2020","03","05","00:30","2.5","","-0.2","","83","","","","24","","62","","","","98.23","","","","","","NA"
"-53.58","49.11","POOLS ISLAND","840BR7C","2020-03-05 01:30","2020","03","05","01:30","2.3","","-0.4","","82","","","","24","","61","","","","98.16","","","","","","NA"
"-53.58","49.11","POOLS ISLAND","840BR7C","2020-03-05 02:30","2020","03","05","02:30","2.5","","-0.9","","78","","","","24","","65","","","","98.08","","","","","","NA"
"-53.58","49.11","POOLS ISLAND","840BR7C","2020-03-05 03:30","2020","03","05","03:30","2.3","","-1.4","","76","","","","24","","65","","","","98.03","","","","","","NA"
"-53.58","49.11","POOLS ISLAND","840BR7C","2020-03-05 04:30","2020","03","05","04:30","2.2","","-1.5","","76","","","","24","","61","","","","97.98","","","","","","NA"
"-53.58","49.11","POOLS ISLAND","840BR7C","2020-03-05 05:30","2020","03","05","05:30","1.9","","-1.6","","78","","","","24","","59","","","","97.93","","","","","","NA"
"-53.58","49.11","POOLS ISLAND","840BR7C","2020-03-05 06:30","2020","03","05","06:30","1.7","","-1.9","","77","","","","24","","49","","","","97.94","","","","","","NA"
"-53.58","49.11","POOLS ISLAND","840BR7C","2020-03-05 07:30","2020","03","05","07:30","2.1","","-2.5","","71","","","","25","","54","","","","97.87","","","","","","NA"
"-53.58","49.11","POOLS ISLAND","840BR7C","2020-03-05 08:30","2020","03","05","08:30","2.2","","-3.3","","67","","","","25","","63","","","","97.84","","","","","","NA"
"-53.58","49.11","POOLS ISLAND","840BR7C","2020-03-05 09:30","2020","03","05","09:30","1.9","","-3.1","","69","","","","26","","56","","","","97.85","","","","","","NA"
"-53.58","49.11","POOLS ISLAND","840BR7C","2020-03-05 10:30","2020","03","05","10:30","2.0","","-3.4","","67","","","","26","","53","","","","97.84","","","","","","NA"
"-53.58","49.11","POOLS ISLAND","840BR7C","2020-03-05 11:30","2020","03","05","11:30","2.2","","-3.9","","64","","","","26","","52","","","","97.79","","","","","","NA"
"-53.58","49.11","POOLS ISLAND","840BR7C","2020-03-05 12:30","2020","03","05","12:30","2.3","","-4.0","","63","","","","26","","59","","","","97.72","","","","","","NA"
"-53.58","49.11","POOLS ISLAND","840BR7C","2020-03-05 13:30","2020","03","05","13:30","2.3","","-4.1","","62","","","","27","","52","","","","97.76","","","","","","NA"
"-53.58","49.11","POOLS ISLAND","840BR7C","2020-03-05 14:30","2020","03","05","14:30","1.7","","-3.4","","69","","","","27","","42","","","","97.77","","","","","","NA"
"-53.58","49.11","POOLS ISLAND","840BR7C","2020-03-05 15:30","2020","03","05","15:30","-0.2","","-3.4","","79","","","","28","","50","","","","97.82","","","","-8","","NA"
"-53.58","49.11","POOLS ISLAND","840BR7C","2020-03-05 16:30","2020","03","05","16:30","0.0","","-2.7","","82","","","","28","","35","","","","97.90","","","","-7","","NA"
"-53.58","49.11","POOLS ISLAND","840BR7C","2020-03-05 17:30","2020","03","05","17:30","0.2","","-3.2","","78","","","","29","","42","","","","97.96","","","","","","NA"
"-53.58","49.11","POOLS ISLAND","840BR7C","2020-03-05 18:30","2020","03","05","18:30","-0.1","","-4.0","","74","","","","30","","42","","","","98.07","","","","-8","","NA"
"-53.58","49.11","POOLS ISLAND","840BR7C","2020-03-05 19:30","2020","03","05","19:30","-0.2","","-4.1","","75","","","","30","","37","","","","98.13","","","","-7","","NA"
"-53.58","49.11","POOLS ISLAND","840BR7C","2020-03-05 20:30","2020","03","05","20:30","-0.3","","-3.6","","78","","","","30","","42","","","","98.19","","","","-8","","NA"
"-53.58","49.11","POOLS ISLAND","840BR7C","2020-03-05 21:30","2020","03","05","21:30","-0.5","","-2.5","","86","","","","31","","44","","","","98.31","","","","-8","","NA"
"-53.58","49.11","POOLS ISLAND","840BR7C","2020-03-05 22:30","2020","03","05","22:30","-0.1","","-1.9","","88","","","","32","","45","","","","98.40","","","","-8","","NA"
"-53.58","49.11","POOLS ISLAND","840BR7C","2020-03-05 23:30","2020","03","05","23:30","-0.2","","-1.8","","89","","","","33","","42","","","","98.56","","","","-8","","NA"
"-53.58","49.11","POOLS ISLAND","840BR7C","2020-03-06 00:30","2020","03","06","00:30","-0.3","","-3.2","","80","","","","33","","50","","","","98.69","","","","-9","","NA"
"-53.58","49.11","POOLS ISLAND","840BR7C","2020-03-06 01:30","2020","03","06","01:30","-0.5","","-4.3","","76","","","","33","","52","","","","98.79","","","","-9","","NA"
"-53.58","49.11","POOLS ISLAND","840BR7C","2020-03-06 02:30","2020","03","06","02:30","-1.2","","-3.9","","82","","","","32","","39","","","","99.00","","","","-9","","NA"
"-53.58","49.11","POOLS ISLAND","840BR7C","2020-03-06 03:30","2020","03","06","03:30","-1.2","","-5.2","","74","","","","33","","43","","","","99.09","","","","-9","","NA"
"-53.58","49.11","POOLS ISLAND","840BR7C","2020-03-06 04:30","2020","03","06","04:30","-1.6","","-5.4","","76","","","","33","","48","","","","99.21","","","","-10","","NA"
"-53.58","49.11","POOLS ISLAND","840BR7C","2020-03-06 05:30","2020","03","06","05:30","-1.8","","-5.5","","76","","","","32","","42","","","","99.37","","","","-10","","NA"
"-53.58","49.11","POOLS ISLAND","840BR7C","2020-03-06 06:30","2020","03","06","06:30","-2.0","","-5.8","","75","","","","32","","48","","","","99.49","","","","-11","","NA"
"-53.58","49.11","POOLS ISLAND","840BR7C","2020-03-06 07:30","2020","03","06","07:30","-2.1","","-6.0","","75","","","","32","","42","","","","99.62","","","","-10","","NA"
"-53.58","49.11","POOLS ISLAND","840BR7C","2020-03-06 08:30","2020","03","06","08:30","-2.7","","-5.4","","82","","","","32","","39","","","","99.73","","","","-11","","NA"
"-53.58","49.11","POOLS ISLAND","840BR7C","2020-03-06 09:30","2020","03","06","09:30","-1.9","","-6.8","","69","","","","33","","43","","","","99.81","","","","-10","","NA"
"-53.58","49.11","POOLS ISLAND","840BR7C","2020-03-06 10:30","2020","03","06","10:30","-1.7","","-6.8","","68","","","","32","","44","","","","99.88","","","","-10","","NA"
"-53.58","49.11","POOLS ISLAND","840BR7C","2020-03-06 11:30","2020","03","06","11:30","-1.8","","-7.1","","67","","","","32","","46","","","","99.99","","","","-10","","NA"
"-53.58","49.11","POOLS ISLAND","840BR7C","2020-03-06 12:30","2020","03","06","12:30","-0.7","","-6.5","","65","","","","32","","45","","","","100.03","","","","-9","","NA"
"-53.58","49.11","POOLS ISLAND","840BR7C","2020-03-06 13:30","2020","03","06","13:30","-0.6","","-6.9","","62","","","","31","","42","","","","100.09","","","","-8","","NA"
"-53.58","49.11","POOLS ISLAND","840BR7C","2020-03-06 14:30","2020","03","06","14:30","-0.1","","-7.2","","59","","","","31","","44","","","","100.14","","","","-8","","NA"
"-53.58","49.11","POOLS ISLAND","840BR7C","2020-03-06 15:30","2020","03","06","15:30","0.4","","-6.9","","58","","","","32","","39","","","","100.22","","","","","","NA"
"-53.58","49.11","POOLS ISLAND","840BR7C","2020-03-06 16:30","2020","03","06","16:30","0.2","","-8.3","","53","","","","33","","45","","","","100.30","","","","","","NA"
"-53.58","49.11","POOLS ISLAND","840BR7C","2020-03-06 17:30","2020","03","06","17:30","-0.5","","-7.9","","57","","","","32","","43","","","","100.43","","","","-8","","NA"
"-53.58","49.11","POOLS ISLAND","840BR7C","2020-03-06 18:30","2020","03","06","18:30","-1.7","","-8.0","","62","","","","31","","35","","","","100.52","","","","-9","","NA"
"-53.58","49.11","POOLS ISLAND","840BR7C","2020-03-06 19:30","2020","03","06","19:30","-3.4","","-8.7","","67","","","","31","","29","","","","100.65","","","","-11","","NA"
"-53.58","49.11","POOLS ISLAND","840BR7C","2020-03-06 20:30","2020","03","06","20:30","-4.6","","-10.1","","65","","","","31","","41","","","","100.77","","","","-14","","NA"
"-53.58","49.11","POOLS ISLAND","840BR7C","2020-03-06 21:30","2020","03","06","21:30","-5.9","","-10.7","","69","","","","31","","42","","","","100.91","","","","-15","","NA"
"-53.58","49.11","POOLS ISLAND","840BR7C","2020-03-06 22:30","2020","03","06","22:30","-6.9","","-11.4","","70","","","","31","","32","","","","100.94","","","","-16","","NA"
"-53.58","49.11","POOLS ISLAND","840BR7C","2020-03-06 23:30","2020","03","06","23:30","-7.5","","-11.7","","72","","","","31","","31","","","","100.88","","","","-16","","NA"
"-53.58","49.11","POOLS ISLAND","840BR7C","2020-03-07 00:30","2020","03","07","00:30","-7.8","","-11.9","","72","","","","32","","30","","","","100.96","","","","-17","","NA"
"-53.58","49.11","POOLS ISLAND","840BR7C","2020-03-07 01:30","2020","03","07","01:30","-8.2","","-11.9","","75","","","","31","","26","","","","101.05","","","","-17","","NA"
"-53.58","49.11","POOLS ISLAND","840BR7C","2020-03-07 02:30","2020","03","07","02:30","-8.3","","-11.6","","77","","","","32","","28","","","","100.99","","","","-17","","NA"
"-53.58","49.11","POOLS ISLAND","840BR7C","2020-03-07 03:30","2020","03","07","03:30","-8.7","","-11.8","","78","","","","31","","19","","","","101.11","","","","-16","","NA"
"-53.58","49.11","POOLS ISLAND","840BR7C","2020-03-07 04:30","2020","03","07","04:30","-8.4","","-11.2","","80","","","","31","","18","","","","101.20","","","","-15","","NA"
"-53.58","49.11","POOLS ISLAND","840BR7C","2020-03-07 05:30","2020","03","07","05:30","-7.6","","-10.3","","81","","","","33","","25","","","","101.18","","","","-16","","NA"
"-53.58","49.11","POOLS ISLAND","840BR7C","2020-03-07 06:30","2020","03","07","06:30","-6.3","","-8.4","","85","","","","35","","17","","","","101.25","","","","-13","","NA"
"-53.58","49.11","POOLS ISLAND","840BR7C","2020-03-07 07:30","2020","03","07","07:30","-6.2","","-7.3","","92","","","","35","","18","","","","101.30","","","","-13","","NA"
"-53.58","49.11","POOLS ISLAND","840BR7C","2020-03-07 08:30","2020","03","07","08:30","-5.1","","-7.1","","86","","","","1","","27","","","","101.28","","","","-13","","NA"
"-53.58","49.11","POOLS ISLAND","840BR7C","2020-03-07 09:30","2020","03","07","09:30","-4.5","","-6.5","","86","","","","1","","33","","","","101.22","","","","-13","","NA"
"-53.58","49.11","POOLS ISLAND","840BR7C","2020-03-07 10:30","2020","03","07","10:30","-3.8","","-6.7","","80","","","","2","","31","","","","101.25","","","","-12","","NA"
"-53.58","49.11","POOLS ISLAND","840BR7C","2020-03-07 11:30","2020","03","07","11:30","-3.6","","-6.1","","83","","","","2","","36","","","","101.18","","","","-12","","NA"
"-53.58","49.11","POOLS ISLAND","840BR7C","2020-03-07 12:30","2020","03","07","12:30","-3.8","","-5.9","","86","","","","2","","35","","","","101.13","","","","-12","","NA"
"-53.58","49.11","POOLS ISLAND","840BR7C","2020-03-07 13:30","2020","03","07","13:30","-4.0","","-5.4","","91","","","","2","","35","","","","101.08","","","","-12","","NA"
"-53.58","49.11","POOLS ISLAND","840BR7C","2020-03-07 14:30","2020","03","07","14:30","-4.0","","-5.0","","92","","","","2","","34","","","","101.01","","","","-12","","NA"
"-53.58","49.11","POOLS ISLAND","840BR7C","2020-03-07 15:30","2020","03","07","15:30","-2.9","","-4.2","","91","","","","3","","36","","","","100.86","","","","-11","","NA"
"-53.58","49.11","POOLS ISLAND","840BR7C","2020-03-07 16:30","2020","03","07","16:30","-2.5","","-4.0","","90","","","","4","","43","","","","100.75","","","","-11","","NA"
"-53.58","49.11","POOLS ISLAND","840BR7C","2020-03-07 17:30","2020","03","07","17:30","-2.4","","-3.2","","94","","","","4","","19","","","","100.59","","","","-8","","NA"
"-53.58","49.11","POOLS ISLAND","840BR7C","2020-03-07 18:30","2020","03","07","18:30","-2.4","","-3.2","","94","","","","4","","10","","","","100.45","","","","-6","","NA"
"-53.58","49.11","POOLS ISLAND","840BR7C","2020-03-07 19:30","2020","03","07","19:30","-2.3","","-2.9","","96","","","","5","","9","","","","100.24","","","","-6","","NA"
"-53.58","49.11","POOLS ISLAND","840BR7C","2020-03-07 20:30","2020","03","07","20:30","-2.1","","-2.6","","96","","","","5","","10","","","","100.09","","","","-6","","NA"
"-53.58","49.11","POOLS ISLAND","840BR7C","2020-03-07 21:30","2020","03","07","21:30","-2.0","","-2.5","","96","","","","5","","11","","","","99.88","","","","-6","","NA"
"-53.58","49.11","POOLS ISLAND","840BR7C","2020-03-07 22:30","2020","03","07","22:30","-2.0","","-2.5","","96","","","","5","","10","","","","99.86","","","","-6","","NA"
"-53.58","49.11","POOLS ISLAND","840BR7C","2020-03-07 23:30","2020","03","07","23:30","-2.0","","-2.5","","96","","","","5","","9","","","","99.68","","","","-5","","NA"
"-53.58","49.11","POOLS ISLAND","840BR7C","2020-03-08 00:30","2020","03","08","00:30","-1.8","","-2.3","","96","","","","5","","51","","","","99.61","","","","-11","","NA"
"-53.58","49.11","POOLS ISLAND","840BR7C","2020-03-08 01:30","2020","03","08","01:30","-2.2","","-2.7","","97","","","","5","","31","","","","99.62","","","","-9","","NA"
"-53.58","49.11","POOLS ISLAND","840BR7C","2020-03-08 02:30","2020","03","08","02:30","-1.9","","-2.4","","97","","","","4","","40","","","","99.47","","","","-10","","NA"
"-53.58","49.11","POOLS ISLAND","840BR7C","2020-03-08 03:30","2020","03","08","03:30","-2.0","","-2.6","","96","","","","3","","54","","","","99.31","","","","-11","","NA"
"-53.58","49.11","POOLS ISLAND","840BR7C","2020-03-08 04:30","2020","03","08","04:30","-2.1","","-2.7","","96","","","","3","","57","","","","99.24","","","","-11","","NA"
"-53.58","49.11","POOLS ISLAND","840BR7C","2020-03-08 05:30","2020","03","08","05:30","-2.1","","-2.8","","95","","","","3","","63","","","","99.18","","","","-12","","NA"
"-53.58","49.11","POOLS ISLAND","840BR7C","2020-03-08 06:30","2020","03","08","06:30","-2.2","","-2.9","","95","","","","3","","63","","","","99.22","","","","-12","","NA"
"-53.58","49.11","POOLS ISLAND","840BR7C","2020-03-08 07:30","2020","03","08","07:30","-2.3","","-3.0","","95","","","","2","","58","","","","99.29","","","","-12","","NA"
"-53.58","49.11","POOLS ISLAND","840BR7C","2020-03-08 08:30","2020","03","08","08:30","-2.3","","-2.9","","95","","","","2","","63","","","","99.40","","","","-12","","NA"
"-53.58","49.11","POOLS ISLAND","840BR7C","2020-03-08 09:30","2020","03","08","09:30","-2.2","","-2.9","","95","","","","2","","53","","","","99.52","","","","-11","","NA"
"-53.58","49.11","POOLS ISLAND","840BR7C","2020-03-08 10:30","2020","03","08","10:30","-1.8","","-3.0","","91","","","","1","","55","","","","99.60","","","","-11","","NA"
"-53.58","49.11","POOLS ISLAND","840BR7C","2020-03-08 11:30","2020","03","08","11:30","-1.7","","-3.6","","87","","","","1","","53","","","","99.71","","","","-11","","NA"
"-53.58","49.11","POOLS ISLAND","840BR7C","2020-03-08 12:30","2020","03","08","12:30","-2.2","","-4.0","","88","","","","36","","55","","","","99.76","","","","-11","","NA"
"-53.58","49.11","POOLS ISLAND","840BR7C","2020-03-08 13:30","2020","03","08","13:30","-2.9","","-4.5","","89","","","","36","","50","","","","99.90","","","","-12","","NA"
"-53.58","49.11","POOLS ISLAND","840BR7C","2020-03-08 14:30","2020","03","08","14:30","-3.5","","-5.3","","88","","","","36","","47","","","","100.00","","","","-13","","NA"
"-53.58","49.11","POOLS ISLAND","840BR7C","2020-03-08 15:30","2020","03","08","15:30","-4.1","","-5.8","","88","","","","35","","40","","","","100.13","","","","-13","","NA"
"-53.58","49.11","POOLS ISLAND","840BR7C","2020-03-08 16:30","2020","03","08","16:30","-4.4","","-6.1","","88","","","","34","","34","","","","100.27","","","","-13","","NA"
"-53.58","49.11","POOLS ISLAND","840BR7C","2020-03-08 17:30","2020","03","08","17:30","-4.6","","-6.4","","87","","","","34","","42","","","","100.38","","","","-14","","NA"
"-53.58","49.11","POOLS ISLAND","840BR7C","2020-03-08 18:30","2020","03","08","18:30","-5.1","","-6.9","","87","","","","33","","32","","","","100.49","","","","-13","","NA"
"-53.58","49.11","POOLS ISLAND","840BR7C","2020-03-08 19:30","2020","03","08","19:30","-6.2","","-7.8","","89","","","","32","","14","","","","100.62","","","","-12","","NA"
"-53.58","49.11","POOLS ISLAND","840BR7C","2020-03-08 20:30","2020","03","08","20:30","-7.0","","-8.2","","91","","","","30","","11","","","","100.74","","","","-12","","NA"
"-53.58","49.11","POOLS ISLAND","840BR7C","2020-03-08 21:30","2020","03","08","21:30","-6.8","","-8.3","","89","","","","31","","10","","","","100.77","","","","-11","","NA"
"-53.58","49.11","POOLS ISLAND","840BR7C","2020-03-08 22:30","2020","03","08","22:30","-7.0","","-8.7","","87","","","","29","","16","","","","100.76","","","","-13","","NA"
"-53.58","49.11","POOLS ISLAND","840BR7C","2020-03-08 23:30","2020","03","08","23:30","-7.7","","-10.9","","78","","","","30","","20","","","","100.74","","","","-15","","NA"
"-53.58","49.11","POOLS ISLAND","840BR7C","2020-03-09 00:30","2020","03","09","00:30","-8.9","","-12.3","","76","","","","30","","12","","","","100.74","","","","-15","","NA"
"-53.58","49.11","POOLS ISLAND","840BR7C","2020-03-09 01:30","2020","03","09","01:30","-8.8","","-12.3","","76","","","","29","","26","","","","100.75","","","","-17","","NA"
"-53.58","49.11","POOLS ISLAND","840BR7C","2020-03-09 02:30","2020","03","09","02:30","-8.8","","-11.7","","80","","","","30","","27","","","","100.73","","","","-18","","NA"
"-53.58","49.11","POOLS ISLAND","840BR7C","2020-03-09 03:30","2020","03","09","03:30","-8.8","","-11.5","","81","","","","29","","26","","","","100.77","","","","-17","","NA"
"-53.58","49.11","POOLS ISLAND","840BR7C","2020-03-09 04:30","2020","03","09","04:30","-8.8","","-11.1","","83","","","","30","","25","","","","100.85","","","","-17","","NA"
"-53.58","49.11","POOLS ISLAND","840BR7C","2020-03-09 05:30","2020","03","09","05:30","-8.4","","-10.5","","85","","","","32","","34","","","","100.92","","","","-18","","NA"
"-53.58","49.11","POOLS ISLAND","840BR7C","2020-03-09 06:30","2020","03","09","06:30","-9.4","","-11.5","","85","","","","35","","41","","","","101.07","","","","-20","","NA"
"-53.58","49.11","POOLS ISLAND","840BR7C","2020-03-09 07:30","2020","03","09","07:30","-10.2","","-12.7","","82","","","","35","","31","","","","101.21","","","","-20","","NA"
"-53.58","49.11","POOLS ISLAND","840BR7C","2020-03-09 08:30","2020","03","09","08:30","-10.8","","-13.8","","78","","","","35","","33","","","","101.30","","","","-21","","NA"
"-53.58","49.11","POOLS ISLAND","840BR7C","2020-03-09 09:30","2020","03","09","09:30","-11.4","","-15.4","","72","","","","34","","39","","","","101.36","","","","-23","","NA"
"-53.58","49.11","POOLS ISLAND","840BR7C","2020-03-09 10:30","2020","03","09","10:30","-11.6","","-16.4","","68","","","","33","","41","","","","101.42","","","","-23","","NA"
"-53.58","49.11","POOLS ISLAND","840BR7C","2020-03-09 11:30","2020","03","09","11:30","-11.9","","-18.8","","57","","","","33","","43","","","","101.45","","","","-24","","NA"
"-53.58","49.11","POOLS ISLAND","840BR7C","2020-03-09 12:30","2020","03","09","12:30","-12.0","","-19.0","","56","","","","34","","44","","","","101.45","","","","-24","","NA"
"-53.58","49.11","POOLS ISLAND","840BR7C","2020-03-09 13:30","2020","03","09","13:30","-11.5","","-17.9","","59","","","","33","","39","","","","101.51","","","","-23","","NA"
"-53.58","49.11","POOLS ISLAND","840BR7C","2020-03-09 14:30","2020","03","09","14:30","-11.3","","-18.8","","54","","","","33","","37","","","","101.55","","","","-22","","NA"
"-53.58","49.11","POOLS ISLAND","840BR7C","2020-03-09 15:30","2020","03","09","15:30","-11.0","","-19.6","","49","","","","32","","39","","","","101.53","","","","-22","","NA"
"-53.58","49.11","POOLS ISLAND","840BR7C","2020-03-09 16:30","2020","03","09","16:30","-10.8","","-20.2","","46","","","","32","","37","","","","101.55","","","","-21","","NA"
"-53.58","49.11","POOLS ISLAND","840BR7C","2020-03-09 17:30","2020","03","09","17:30","-11.4","","-20.9","","45","","","","32","","31","","","","101.62","","","","-21","","NA"
"-53.58","49.11","POOLS ISLAND","840BR7C","2020-03-09 18:30","2020","03","09","18:30","-12.5","","-20.7","","50","","","","31","","20","","","","101.72","","","","-21","","NA"
"-53.58","49.11","POOLS ISLAND","840BR7C","2020-03-09 19:30","2020","03","09","19:30","-13.7","","-19.9","","59","","","","29","","20","","","","101.79","","","","-23","","NA"
"-53.58","49.11","POOLS ISLAND","840BR7C","2020-03-09 20:30","2020","03","09","20:30","-14.4","","-20.5","","60","","","","30","","30","","","","101.87","","","","-25","","NA"
"-53.58","49.11","POOLS ISLAND","840BR7C","2020-03-09 21:30","2020","03","09","21:30","-15.1","","-20.7","","62","","","","30","","29","","","","101.95","","","","-26","","NA"
"-53.58","49.11","POOLS ISLAND","840BR7C","2020-03-09 22:30","2020","03","09","22:30","-15.5","","-21.0","","63","","","","31","","33","","","","101.99","","","","-27","","NA"
"-53.58","49.11","POOLS ISLAND","840BR7C","2020-03-09 23:30","2020","03","09","23:30","-15.9","","-21.0","","65","","","","29","","25","","","","102.03","","","","-26","","NA"
"-53.58","49.11","POOLS ISLAND","840BR7C","2020-03-10 00:30","2020","03","10","00:30","-16.3","","-21.3","","65","","","","29","","31","","","","102.02","","","","-28","","NA"
"-53.58","49.11","POOLS ISLAND","840BR7C","2020-03-10 01:30","2020","03","10","01:30","-16.4","","-21.1","","67","","","","29","","33","","","","102.01","","","","-28","","NA"
"-53.58","49.11","POOLS ISLAND","840BR7C","2020-03-10 02:30","2020","03","10","02:30","-16.4","","-20.9","","68","","","","30","","29","","","","102.03","","","","-28","","NA"
"-53.58","49.11","POOLS ISLAND","840BR7C","2020-03-10 03:30","2020","03","10","03:30","-16.5","","-21.1","","67","","","","29","","30","","","","102.05","","","","-28","","NA"
"-53.58","49.11","POOLS ISLAND","840BR7C","2020-03-10 04:30","2020","03","10","04:30","-16.8","","-21.3","","68","","","","30","","27","","","","102.11","","","","-28","","NA"
"-53.58","49.11","POOLS ISLAND","840BR7C","2020-03-10 05:30","2020","03","10","05:30","-16.0","","-21.1","","65","","","","32","","23","","","","102.13","","","","-26","","NA"
"-53.58","49.11","POOLS ISLAND","840BR7C","2020-03-10 06:30","2020","03","10","06:30","-16.6","","-21.9","","64","","","","32","","25","","","","102.19","","","","-27","","NA"
"-53.58","49.11","POOLS ISLAND","840BR7C","2020-03-10 07:30","2020","03","10","07:30","-15.0","","-21.6","","57","","","","31","","24","","","","102.27","","","","-25","","NA"
"-53.58","49.11","POOLS ISLAND","840BR7C","2020-03-10 08:30","2020","03","10","08:30","-13.8","","-21.3","","53","","","","31","","35","","","","102.20","","","","-25","","NA"
"-53.58","49.11","POOLS ISLAND","840BR7C","2020-03-10 09:30","2020","03","10","09:30","-12.6","","-19.7","","55","","","","31","","28","","","","102.25","","","","-23","","NA"
"-53.58","49.11","POOLS ISLAND","840BR7C","2020-03-10 10:30","2020","03","10","10:30","-12.0","","-19.3","","55","","","","31","","29","","","","102.24","","","","-22","","NA"
"-53.58","49.11","POOLS ISLAND","840BR7C","2020-03-10 11:30","2020","03","10","11:30","-10.8","","-19.1","","51","","","","32","","30","","","","102.24","","","","-21","","NA"
"-53.58","49.11","POOLS ISLAND","840BR7C","2020-03-10 12:30","2020","03","10","12:30","-9.9","","-19.6","","45","","","","34","","31","","","","102.23","","","","-20","","NA"
"-53.58","49.11","POOLS ISLAND","840BR7C","2020-03-10 13:30","2020","03","10","13:30","-9.7","","-19.0","","46","","","","31","","21","","","","102.23","","","","-18","","NA"
"-53.58","49.11","POOLS ISLAND","840BR7C","2020-03-10 14:30","2020","03","10","14:30","-8.9","","-19.4","","42","","","","32","","19","","","","102.26","","","","-16","","NA"
"-53.58","49.11","POOLS ISLAND","840BR7C","2020-03-10 15:30","2020","03","10","15:30","-9.1","","-20.1","","41","","","","32","","21","","","","102.29","","","","-17","","NA"
"-53.58","49.11","POOLS ISLAND","840BR7C","2020-03-10 16:30","2020","03","10","16:30","-8.5","","-19.5","","41","","","","34","","13","","","","102.21","","","","-14","","NA"
"-53.58","49.11","POOLS ISLAND","840BR7C","2020-03-10 17:30","2020","03","10","17:30","-8.9","","-19.4","","42","","","","32","","9","","","","102.23","","","","-14","","NA"
"-53.58","49.11","POOLS ISLAND","840BR7C","2020-03-10 18:30","2020","03","10","18:30","-9.0","","-19.3","","43","","","","34","","2","","","","102.21","","","","-10","","NA"
"-53.58","49.11","POOLS ISLAND","840BR7C","2020-03-10 19:30","2020","03","10","19:30","-8.6","","-20.7","","37","","","","","","0","","","","102.22","","","","","","NA"
"-53.58","49.11","POOLS ISLAND","840BR7C","2020-03-10 20:30","2020","03","10","20:30","-8.1","","-18.5","","43","","","","19","","6","","","","102.20","","","","-11","","NA"
"-53.58","49.11","POOLS ISLAND","840BR7C","2020-03-10 21:30","2020","03","10","21:30","-9.2","","-15.7","","59","","","","0","","1","","","","102.18","","","","-10","","NA"
"-53.58","49.11","POOLS ISLAND","840BR7C","2020-03-10 22:30","2020","03","10","22:30","-7.3","","-14.3","","58","","","","17","","13","","","","102.09","","","","-13","","NA"
"-53.58","49.11","POOLS ISLAND","840BR7C","2020-03-10 23:30","2020","03","10","23:30","-9.2","","-13.4","","72","","","","30","","13","","","","102.05","","","","-15","","NA"
"-53.58","49.11","POOLS ISLAND","840BR7C","2020-03-11 00:30","2020","03","11","00:30","-9.0","","-10.9","","86","","","","35","","6","","","","101.99","","","","-12","","NA"
"-53.58","49.11","POOLS ISLAND","840BR7C","2020-03-11 01:30","2020","03","11","01:30","-7.7","","-9.4","","87","","","","12","","7","","","","101.91","","","","-11","","NA"
"-53.58","49.11","POOLS ISLAND","840BR7C","2020-03-11 02:30","2020","03","11","02:30","-7.3","","-8.8","","89","","","","15","","24","","","","101.75","","","","-15","","NA"
"-53.58","49.11","POOLS ISLAND","840BR7C","2020-03-11 03:30","2020","03","11","03:30","-7.0","","-8.3","","90","","","","14","","28","","","","101.66","","","","-15","","NA"
"-53.58","49.11","POOLS ISLAND","840BR7C","2020-03-11 04:30","2020","03","11","04:30","-6.5","","-7.7","","91","","","","13","","37","","","","101.49","","","","-16","","NA"
"-53.58","49.11","POOLS ISLAND","840BR7C","2020-03-11 05:30","2020","03","11","05:30","-6.1","","-7.0","","93","","","","13","","39","","","","101.35","","","","-15","","NA"
"-53.58","49.11","POOLS ISLAND","840BR7C","2020-03-11 06:30","2020","03","11","06:30","-5.5","","-6.5","","93","","","","13","","40","","","","101.23","","","","-15","","NA"
"-53.58","49.11","POOLS ISLAND","840BR7C","2020-03-11 07:30","2020","03","11","07:30","-4.5","","-5.4","","94","","","","13","","40","","","","101.03","","","","-13","","NA"
"-53.58","49.11","POOLS ISLAND","840BR7C","2020-03-11 08:30","2020","03","11","08:30","-3.7","","-4.5","","94","","","","15","","37","","","","100.94","","","","-12","","NA"
"-53.58","49.11","POOLS ISLAND","840BR7C","2020-03-11 09:30","2020","03","11","09:30","-3.3","","-4.0","","95","","","","14","","34","","","","100.81","","","","-11","","NA"
"-53.58","49.11","POOLS ISLAND","840BR7C","2020-03-11 10:30","2020","03","11","10:30","-2.9","","-3.6","","94","","","","14","","31","","","","100.71","","","","-10","","NA"
"-53.58","49.11","POOLS ISLAND","840BR7C","2020-03-11 11:30","2020","03","11","11:30","-2.6","","-3.4","","95","","","","13","","26","","","","100.55","","","","-9","","NA"
"-53.58","49.11","POOLS ISLAND","840BR7C","2020-03-11 12:30","2020","03","11","12:30","-2.4","","-3.2","","95","","","","12","","28","","","","100.46","","","","-9","","NA"
"-53.58","49.11","POOLS ISLAND","840BR7C","2020-03-11 13:30","2020","03","11","13:30","-2.5","","-3.2","","95","","","","9","","19","","","","100.46","","","","-8","","NA"
"-53.58","49.11","POOLS ISLAND","840BR7C","2020-03-11 14:30","2020","03","11","14:30","-2.4","","-3.1","","95","","","","10","","17","","","","100.44","","","","-8","","NA"
"-53.58","49.11","POOLS ISLAND","840BR7C","2020-03-11 15:30","2020","03","11","15:30","-2.4","","-3.1","","95","","","","6","","16","","","","100.41","","","","-8","","NA"
"-53.58","49.11","POOLS ISLAND","840BR7C","2020-03-11 16:30","2020","03","11","16:30","-2.5","","-3.3","","94","","","","5","","12","","","","100.50","","","","-7","","NA"
"-53.58","49.11","POOLS ISLAND","840BR7C","2020-03-11 17:30","2020","03","11","17:30","-2.7","","-3.6","","94","","","","3","","16","","","","100.57","","","","-8","","NA"
"-53.58","49.11","POOLS ISLAND","840BR7C","2020-03-11 18:30","2020","03","11","18:30","-2.9","","-3.8","","93","","","","1","","14","","","","100.65","","","","-8","","NA"
"-53.58","49.11","POOLS ISLAND","840BR7C","2020-03-11 19:30","2020","03","11","19:30","-2.9","","-3.8","","93","","","","1","","16","","","","100.71","","","","-8","","NA"
"-53.58","49.11","POOLS ISLAND","840BR7C","2020-03-11 20:30","2020","03","11","20:30","-2.8","","-3.7","","93","","","","35","","20","","","","100.83","","","","-9","","NA"
"-53.58","49.11","POOLS ISLAND","840BR7C","2020-03-11 21:30","2020","03","11","21:30","-2.8","","-3.7","","94","","","","35","","18","","","","100.94","","","","-8","","NA"
"-53.58","49.11","POOLS ISLAND","840BR7C","2020-03-11 22:30","2020","03","11","22:30","-2.9","","-3.7","","94","","","","34","","18","","","","101.06","","","","-9","","NA"
"-53.58","49.11","POOLS ISLAND","840BR7C","2020-03-11 23:30","2020","03","11","23:30","-3.0","","-3.7","","95","","","","34","","16","","","","101.13","","","","-8","","NA"
"-53.58","49.11","POOLS ISLAND","840BR7C","2020-03-12 00:30","2020","03","12","00:30","-3.1","","-3.7","","96","","","","35","","13","","","","101.19","","","","-8","","NA"
"-53.58","49.11","POOLS ISLAND","840BR7C","2020-03-12 01:30","2020","03","12","01:30","-3.3","","-3.9","","95","","","","1","","15","","","","101.27","","","","-8","","NA"
"-53.58","49.11","POOLS ISLAND","840BR7C","2020-03-12 02:30","2020","03","12","02:30","-3.6","","-4.2","","95","","","","36","","11","","","","101.39","","","","-8","","NA"
"-53.58","49.11","POOLS ISLAND","840BR7C","2020-03-12 03:30","2020","03","12","03:30","-3.7","","-4.4","","95","","","","1","","8","","","","101.43","","","","-7","","NA"
"-53.58","49.11","POOLS ISLAND","840BR7C","2020-03-12 04:30","2020","03","12","04:30","-3.6","","-4.2","","96","","","","33","","14","","","","101.49","","","","-9","","NA"
"-53.58","49.11","POOLS ISLAND","840BR7C","2020-03-12 05:30","2020","03","12","05:30","-3.9","","-4.7","","94","","","","34","","12","","","","101.53","","","","-9","","NA"
"-53.58","49.11","POOLS ISLAND","840BR7C","2020-03-12 06:30","2020","03","12","06:30","-4.2","","-5.0","","94","","","","32","","13","","","","101.62","","","","-9","","NA"
"-53.58","49.11","POOLS ISLAND","840BR7C","2020-03-12 07:30","2020","03","12","07:30","-4.3","","-5.2","","94","","","","32","","13","","","","101.68","","","","-9","","NA"
"-53.58","49.11","POOLS ISLAND","840BR7C","2020-03-12 08:30","2020","03","12","08:30","-4.0","","-5.2","","92","","","","32","","14","","","","101.73","","","","-9","","NA"
"-53.58","49.11","POOLS ISLAND","840BR7C","2020-03-12 09:30","2020","03","12","09:30","-3.5","","-5.0","","89","","","","32","","13","","","","101.72","","","","-8","","NA"
"-53.58","49.11","POOLS ISLAND","840BR7C","2020-03-12 10:30","2020","03","12","10:30","-3.2","","-5.1","","87","","","","32","","10","","","","101.73","","","","-7","","NA"
"-53.58","49.11","POOLS ISLAND","840BR7C","2020-03-12 11:30","2020","03","12","11:30","-2.7","","-5.5","","81","","","","32","","8","","","","101.73","","","","-6","","NA"
"-53.58","49.11","POOLS ISLAND","840BR7C","2020-03-12 12:30","2020","03","12","12:30","-2.9","","-5.3","","83","","","","1","","8","","","","101.59","","","","-6","","NA"
"-53.58","49.11","POOLS ISLAND","840BR7C","2020-03-12 13:30","2020","03","12","13:30","-3.1","","-5.3","","85","","","","34","","8","","","","101.58","","","","-6","","NA"
"-53.58","49.11","POOLS ISLAND","840BR7C","2020-03-12 14:30","2020","03","12","14:30","-3.2","","-5.3","","86","","","","30","","11","","","","101.60","","","","-7","","NA"
"-53.58","49.11","POOLS ISLAND","840BR7C","2020-03-12 15:30","2020","03","12","15:30","-3.2","","-5.4","","85","","","","32","","9","","","","101.64","","","","-7","","NA"
"-53.58","49.11","POOLS ISLAND","840BR7C","2020-03-12 16:30","2020","03","12","16:30","-3.3","","-5.7","","83","","","","32","","15","","","","101.63","","","","-8","","NA"
"-53.58","49.11","POOLS ISLAND","840BR7C","2020-03-12 17:30","2020","03","12","17:30","-3.9","","-5.7","","87","","","","35","","9","","","","101.70","","","","-8","","NA"
"-53.58","49.11","POOLS ISLAND","840BR7C","2020-03-12 18:30","2020","03","12","18:30","-4.9","","-6.6","","88","","","","36","","21","","","","101.79","","","","-12","","NA"
"-53.58","49.11","POOLS ISLAND","840BR7C","2020-03-12 19:30","2020","03","12","19:30","-5.9","","-7.6","","88","","","","35","","19","","","","101.88","","","","-13","","NA"
"-53.58","49.11","POOLS ISLAND","840BR7C","2020-03-12 20:30","2020","03","12","20:30","-6.1","","-7.9","","88","","","","35","","16","","","","101.92","","","","-12","","NA"
"-53.58","49.11","POOLS ISLAND","840BR7C","2020-03-12 21:30","2020","03","12","21:30","-6.4","","-8.5","","85","","","","34","","14","","","","101.95","","","","-12","","NA"
"-53.58","49.11","POOLS ISLAND","840BR7C","2020-03-12 22:30","2020","03","12","22:30","-7.6","","-9.4","","87","","","","33","","12","","","","101.98","","","","-13","","NA"
"-53.58","49.11","POOLS ISLAND","840BR7C","2020-03-12 23:30","2020","03","12","23:30","-6.7","","-8.5","","87","","","","30","","15","","","","102.01","","","","-13","","NA"
"-53.58","49.11","POOLS ISLAND","840BR7C","2020-03-13 00:30","2020","03","13","00:30","-7.2","","-8.8","","88","","","","28","","16","","","","102.06","","","","-14","","NA"
"-53.58","49.11","POOLS ISLAND","840BR7C","2020-03-13 01:30","2020","03","13","01:30","-7.7","","-9.0","","90","","","","29","","19","","","","102.09","","","","-15","","NA"
"-53.58","49.11","POOLS ISLAND","840BR7C","2020-03-13 02:30","2020","03","13","02:30","-9.1","","-10.8","","87","","","","30","","13","","","","102.16","","","","-15","","NA"
"-53.58","49.11","POOLS ISLAND","840BR7C","2020-03-13 03:30","2020","03","13","03:30","-9.2","","-11.6","","83","","","","29","","18","","","","102.21","","","","-16","","NA"
"-53.58","49.11","POOLS ISLAND","840BR7C","2020-03-13 04:30","2020","03","13","04:30","-9.9","","-11.8","","86","","","","31","","13","","","","102.29","","","","-16","","NA"
"-53.58","49.11","POOLS ISLAND","840BR7C","2020-03-13 05:30","2020","03","13","05:30","-9.6","","-11.9","","83","","","","32","","18","","","","102.36","","","","-17","","NA"
"-53.58","49.11","POOLS ISLAND","840BR7C","2020-03-13 06:30","2020","03","13","06:30","-9.6","","-11.9","","83","","","","32","","17","","","","102.43","","","","-17","","NA"
"-53.58","49.11","POOLS ISLAND","840BR7C","2020-03-13 07:30","2020","03","13","07:30","-8.3","","-11.2","","79","","","","31","","21","","","","102.52","","","","-16","","NA"
"-53.58","49.11","POOLS ISLAND","840BR7C","2020-03-13 08:30","2020","03","13","08:30","-7.1","","-10.3","","78","","","","31","","28","","","","102.62","","","","-15","","NA"
"-53.58","49.11","POOLS ISLAND","840BR7C","2020-03-13 09:30","2020","03","13","09:30","-5.2","","-10.3","","67","","","","31","","28","","","","102.68","","","","-13","","NA"
"-53.58","49.11","POOLS ISLAND","840BR7C","2020-03-13 10:30","2020","03","13","10:30","-5.0","","-13.8","","50","","","","31","","34","","","","102.70","","","","-13","","NA"
"-53.58","49.11","POOLS ISLAND","840BR7C","2020-03-13 11:30","2020","03","13","11:30","-5.0","","-13.2","","53","","","","32","","34","","","","102.74","","","","-13","","NA"
"-53.58","49.11","POOLS ISLAND","840BR7C","2020-03-13 12:30","2020","03","13","12:30","-4.5","","-13.4","","50","","","","32","","29","","","","102.76","","","","-12","","NA"
"-53.58","49.11","POOLS ISLAND","840BR7C","2020-03-13 13:30","2020","03","13","13:30","-3.9","","-13.4","","48","","","","31","","26","","","","102.78","","","","-11","","NA"
"-53.58","49.11","POOLS ISLAND","840BR7C","2020-03-13 14:30","2020","03","13","14:30","-3.6","","-14.4","","43","","","","32","","25","","","","102.80","","","","-11","","NA"
"-53.58","49.11","POOLS ISLAND","840BR7C","2020-03-13 15:30","2020","03","13","15:30","-3.5","","-14.3","","43","","","","32","","24","","","","102.84","","","","-10","","NA"
"-53.58","49.11","POOLS ISLAND","840BR7C","2020-03-13 16:30","2020","03","13","16:30","-3.2","","-15.6","","38","","","","34","","27","","","","102.85","","","","-10","","NA"
"-53.58","49.11","POOLS ISLAND","840BR7C","2020-03-13 17:30","2020","03","13","17:30","-4.2","","-14.5","","45","","","","1","","15","","","","102.94","","","","-10","","NA"
"-53.58","49.11","POOLS ISLAND","840BR7C","2020-03-13 18:30","2020","03","13","18:30","-6.3","","-13.0","","59","","","","3","","9","","","","103.02","","","","-11","","NA"
"-53.58","49.11","POOLS ISLAND","840BR7C","2020-03-13 19:30","2020","03","13","19:30","-6.8","","-12.5","","64","","","","4","","12","","","","103.02","","","","-12","","NA"
"-53.58","49.11","POOLS ISLAND","840BR7C","2020-03-13 20:30","2020","03","13","20:30","-8.6","","-13.2","","69","","","","3","","8","","","","103.01","","","","-13","","NA"
"-53.58","49.11","POOLS ISLAND","840BR7C","2020-03-13 21:30","2020","03","13","21:30","-7.7","","-10.7","","79","","","","6","","8","","","","102.91","","","","-12","","NA"
"-53.58","49.11","POOLS ISLAND","840BR7C","2020-03-13 22:30","2020","03","13","22:30","-6.0","","-11.1","","67","","","","13","","18","","","","102.80","","","","-12","","NA"
"-53.58","49.11","POOLS ISLAND","840BR7C","2020-03-13 23:30","2020","03","13","23:30","-5.7","","-10.2","","71","","","","16","","27","","","","102.64","","","","-14","","NA"
"-53.58","49.11","POOLS ISLAND","840BR7C","2020-03-14 00:30","2020","03","14","00:30","-5.0","","-9.5","","71","","","","17","","39","","","","102.47","","","","-14","","NA"
"-53.58","49.11","POOLS ISLAND","840BR7C","2020-03-14 01:30","2020","03","14","01:30","-4.5","","-8.7","","73","","","","18","","40","","","","102.36","","","","-13","","NA"
"-53.58","49.11","POOLS ISLAND","840BR7C","2020-03-14 02:30","2020","03","14","02:30","-3.9","","-7.1","","78","","","","16","","53","","","","102.07","","","","-14","","NA"
"-53.58","49.11","POOLS ISLAND","840BR7C","2020-03-14 03:30","2020","03","14","03:30","-3.2","","-5.7","","82","","","","14","","59","","","","101.73","","","","-13","","NA"
"-53.58","49.11","POOLS ISLAND","840BR7C","2020-03-14 04:30","2020","03","14","04:30","-2.9","","-5.8","","81","","","","16","","55","","","","101.54","","","","-12","","NA"
"-53.58","49.11","POOLS ISLAND","840BR7C","2020-03-14 05:30","2020","03","14","05:30","-2.7","","-5.2","","83","","","","15","","65","","","","101.25","","","","-13","","NA"
"-53.58","49.11","POOLS ISLAND","840BR7C","2020-03-14 06:30","2020","03","14","06:30","-2.9","","-4.0","","92","","","","15","","66","","","","100.97","","","","-13","","NA"
"-53.58","49.11","POOLS ISLAND","840BR7C","2020-03-14 07:30","2020","03","14","07:30","-2.6","","-3.8","","92","","","","15","","63","","","","100.70","","","","-13","","NA"
"-53.58","49.11","POOLS ISLAND","840BR7C","2020-03-14 08:30","2020","03","14","08:30","-2.3","","-3.1","","95","","","","15","","54","","","","100.47","","","","-12","","NA"
"-53.58","49.11","POOLS ISLAND","840BR7C","2020-03-14 09:30","2020","03","14","09:30","-2.1","","-2.8","","94","","","","16","","57","","","","100.13","","","","-11","","NA"
"-53.58","49.11","POOLS ISLAND","840BR7C","2020-03-14 10:30","2020","03","14","10:30","-1.6","","-2.3","","95","","","","16","","60","","","","99.69","","","","-11","","NA"
"-53.58","49.11","POOLS ISLAND","840BR7C","2020-03-14 11:30","2020","03","14","11:30","-1.0","","-1.8","","95","","","","20","","46","","","","99.58","","","","-9","","NA"
"-53.58","49.11","POOLS ISLAND","840BR7C","2020-03-14 12:30","2020","03","14","12:30","-0.2","","-1.0","","94","","","","22","","39","","","","99.39","","","","-8","","NA"
"-53.58","49.11","POOLS ISLAND","840BR7C","2020-03-14 13:30","2020","03","14","13:30","2.5","","1.4","","92","","","","23","","29","","","","99.28","","","","","","NA"
"-53.58","49.11","POOLS ISLAND","840BR7C","2020-03-14 14:30","2020","03","14","14:30","5.5","","0.2","","69","","","","28","","39","","","","99.24","","","","","","NA"
"-53.58","49.11","POOLS ISLAND","840BR7C","2020-03-14 15:30","2020","03","14","15:30","5.7","","-1.5","","60","","","","29","","41","","","","99.22","","","","","","NA"
"-53.58","49.11","POOLS ISLAND","840BR7C","2020-03-14 16:30","2020","03","14","16:30","5.4","","-1.9","","59","","","","29","","32","","","","99.26","","","","","","NA"
"-53.58","49.11","POOLS ISLAND","840BR7C","2020-03-14 17:30","2020","03","14","17:30","4.4","","-1.5","","66","","","","27","","37","","","","99.30","","","","","","NA"
"-53.58","49.11","POOLS ISLAND","840BR7C","2020-03-14 18:30","2020","03","14","18:30","2.7","","-1.6","","73","","","","26","","32","","","","99.37","","","","","","NA"
"-53.58","49.11","POOLS ISLAND","840BR7C","2020-03-14 19:30","2020","03","14","19:30","2.2","","-1.8","","75","","","","26","","39","","","","99.37","","","","","","NA"
"-53.58","49.11","POOLS ISLAND","840BR7C","2020-03-14 20:30","2020","03","14","20:30","1.8","","-2.2","","75","","","","27","","36","","","","99.36","","","","","","NA"
"-53.58","49.11","POOLS ISLAND","840BR7C","2020-03-14 21:30","2020","03","14","21:30","1.6","","-2.5","","74","","","","27","","35","","","","99.35","","","","","","NA"
"-53.58","49.11","POOLS ISLAND","840BR7C","2020-03-14 22:30","2020","03","14","22:30","1.4","","-2.9","","73","","","","28","","32","","","","99.35","","","","","","NA"
"-53.58","49.11","POOLS ISLAND","840BR7C","2020-03-14 23:30","2020","03","14","23:30","1.1","","-3.5","","71","","","","29","","34","","","","99.32","","","","","","NA"
"-53.58","49.11","POOLS ISLAND","840BR7C","2020-03-15 00:30","2020","03","15","00:30","0.4","","-4.1","","72","","","","29","","40","","","","99.32","","","","","","NA"
"-53.58","49.11","POOLS ISLAND","840BR7C","2020-03-15 01:30","2020","03","15","01:30","-0.2","","-5.1","","69","","","","28","","33","","","","99.35","","","","-7","","NA"
"-53.58","49.11","POOLS ISLAND","840BR7C","2020-03-15 02:30","2020","03","15","02:30","-0.3","","-5.6","","67","","","","29","","36","","","","99.38","","","","-7","","NA"
"-53.58","49.11","POOLS ISLAND","840BR7C","2020-03-15 03:30","2020","03","15","03:30","-0.7","","-5.8","","68","","","","29","","35","","","","99.35","","","","-8","","NA"
"-53.58","49.11","POOLS ISLAND","840BR7C","2020-03-15 04:30","2020","03","15","04:30","-0.7","","-5.9","","68","","","","29","","40","","","","99.40","","","","-8","","NA"
"-53.58","49.11","POOLS ISLAND","840BR7C","2020-03-15 05:30","2020","03","15","05:30","-2.0","","-8.3","","62","","","","30","","44","","","","99.50","","","","-10","","NA"
"-53.58","49.11","POOLS ISLAND","840BR7C","2020-03-15 06:30","2020","03","15","06:30","-2.9","","-9.2","","62","","","","30","","38","","","","99.66","","","","-11","","NA"
"-53.58","49.11","POOLS ISLAND","840BR7C","2020-03-15 07:30","2020","03","15","07:30","-2.5","","-8.9","","62","","","","30","","40","","","","99.66","","","","-11","","NA"
"-53.58","49.11","POOLS ISLAND","840BR7C","2020-03-15 08:30","2020","03","15","08:30","-1.9","","-8.2","","62","","","","30","","56","","","","99.75","","","","-11","","NA"
"-53.58","49.11","POOLS ISLAND","840BR7C","2020-03-15 09:30","2020","03","15","09:30","-2.1","","-6.6","","72","","","","31","","51","","","","99.88","","","","-11","","NA"
"-53.58","49.11","POOLS ISLAND","840BR7C","2020-03-15 10:30","2020","03","15","10:30","-2.1","","-4.1","","86","","","","34","","42","","","","100.05","","","","-10","","NA"
"-53.58","49.11","POOLS ISLAND","840BR7C","2020-03-15 11:30","2020","03","15","11:30","-0.9","","-5.0","","74","","","","36","","45","","","","100.25","","","","-9","","NA"
"-53.58","49.11","POOLS ISLAND","840BR7C","2020-03-15 12:30","2020","03","15","12:30","-0.8","","-5.9","","68","","","","1","","56","","","","100.48","","","","-10","","NA"
"-53.58","49.11","POOLS ISLAND","840BR7C","2020-03-15 13:30","2020","03","15","13:30","-0.8","","-5.6","","70","","","","1","","55","","","","100.67","","","","-10","","NA"
"-53.58","49.11","POOLS ISLAND","840BR7C","2020-03-15 14:30","2020","03","15","14:30","-1.4","","-6.5","","68","","","","1","","60","","","","100.88","","","","-11","","NA"
"-53.58","49.11","POOLS ISLAND","840BR7C","2020-03-15 15:30","2020","03","15","15:30","-1.8","","-6.3","","71","","","","36","","53","","","","101.07","","","","-11","","NA"
"-53.58","49.11","POOLS ISLAND","840BR7C","2020-03-15 16:30","2020","03","15","16:30","-3.0","","-7.6","","71","","","","36","","53","","","","101.30","","","","-12","","NA"
"-53.58","49.11","POOLS ISLAND","840BR7C","2020-03-15 17:30","2020","03","15","17:30","-3.3","","-8.3","","68","","","","1","","48","","","","101.47","","","","-12","","NA"
"-53.58","49.11","POOLS ISLAND","840BR7C","2020-03-15 18:30","2020","03","15","18:30","-3.5","","-9.4","","64","","","","1","","40","","","","101.61","","","","-12","","NA"
"-53.58","49.11","POOLS ISLAND","840BR7C","2020-03-15 19:30","2020","03","15","19:30","-4.5","","-8.9","","71","","","","36","","22","","","","101.80","","","","-11","","NA"
"-53.58","49.11","POOLS ISLAND","840BR7C","2020-03-15 20:30","2020","03","15","20:30","-5.3","","-8.9","","76","","","","1","","18","","","","101.91","","","","-12","","NA"
"-53.58","49.11","POOLS ISLAND","840BR7C","2020-03-15 21:30","2020","03","15","21:30","-5.8","","-8.9","","79","","","","34","","12","","","","102.01","","","","-11","","NA"
"-53.58","49.11","POOLS ISLAND","840BR7C","2020-03-15 22:30","2020","03","15","22:30","-7.1","","-10.0","","80","","","","33","","16","","","","102.06","","","","-13","","NA"
"-53.58","49.11","POOLS ISLAND","840BR7C","2020-03-15 23:30","2020","03","15","23:30","-7.8","","-10.8","","79","","","","33","","16","","","","102.14","","","","-14","","NA"
"-53.58","49.11","POOLS ISLAND","840BR7C","2020-03-16 00:30","2020","03","16","00:30","-7.7","","-10.5","","81","","","","34","","21","","","","102.17","","","","-15","","NA"
"-53.58","49.11","POOLS ISLAND","840BR7C","2020-03-16 01:30","2020","03","16","01:30","-8.2","","-10.5","","83","","","","33","","12","","","","102.29","","","","-14","","NA"
"-53.58","49.11","POOLS ISLAND","840BR7C","2020-03-16 02:30","2020","03","16","02:30","-8.5","","-10.6","","85","","","","34","","13","","","","102.32","","","","-14","","NA"
"-53.58","49.11","POOLS ISLAND","840BR7C","2020-03-16 03:30","2020","03","16","03:30","-10.2","","-12.1","","87","","","","32","","12","","","","102.36","","","","-16","","NA"
"-53.58","49.11","POOLS ISLAND","840BR7C","2020-03-16 04:30","2020","03","16","04:30","-11.4","","-13.4","","85","","","","32","","15","","","","102.44","","","","-18","","NA"
"-53.58","49.11","POOLS ISLAND","840BR7C","2020-03-16 05:30","2020","03","16","05:30","-11.5","","-13.3","","86","","","","31","","14","","","","102.51","","","","-18","","NA"
"-53.58","49.11","POOLS ISLAND","840BR7C","2020-03-16 06:30","2020","03","16","06:30","-11.1","","-13.0","","86","","","","34","","17","","","","102.58","","","","-19","","NA"
"-53.58","49.11","POOLS ISLAND","840BR7C","2020-03-16 07:30","2020","03","16","07:30","-9.1","","-11.6","","82","","","","35","","15","","","","102.67","","","","-16","","NA"
"-53.58","49.11","POOLS ISLAND","840BR7C","2020-03-16 08:30","2020","03","16","08:30","-7.6","","-11.7","","72","","","","35","","17","","","","102.71","","","","-14","","NA"
"-53.58","49.11","POOLS ISLAND","840BR7C","2020-03-16 09:30","2020","03","16","09:30","-6.5","","-11.8","","66","","","","36","","19","","","","102.74","","","","-13","","NA"
"-53.58","49.11","POOLS ISLAND","840BR7C","2020-03-16 10:30","2020","03","16","10:30","-6.6","","-13.1","","60","","","","1","","22","","","","102.80","","","","-14","","NA"
"-53.58","49.11","POOLS ISLAND","840BR7C","2020-03-16 11:30","2020","03","16","11:30","-6.0","","-14.0","","53","","","","1","","20","","","","102.80","","","","-13","","NA"
"-53.58","49.11","POOLS ISLAND","840BR7C","2020-03-16 12:30","2020","03","16","12:30","-5.5","","-13.9","","52","","","","1","","22","","","","102.79","","","","-13","","NA"
"-53.58","49.11","POOLS ISLAND","840BR7C","2020-03-16 13:30","2020","03","16","13:30","-5.1","","-16.6","","40","","","","36","","18","","","","102.79","","","","-11","","NA"
"-53.58","49.11","POOLS ISLAND","840BR7C","2020-03-16 14:30","2020","03","16","14:30","-5.1","","-15.6","","43","","","","1","","20","","","","102.81","","","","-12","","NA"
"-53.58","49.11","POOLS ISLAND","840BR7C","2020-03-16 15:30","2020","03","16","15:30","-4.8","","-17.8","","35","","","","35","","24","","","","102.82","","","","-12","","NA"
"-53.58","49.11","POOLS ISLAND","840BR7C","2020-03-16 16:30","2020","03","16","16:30","-5.3","","-18.0","","36","","","","36","","23","","","","102.87","","","","-12","","NA"
"-53.58","49.11","POOLS ISLAND","840BR7C","2020-03-16 17:30","2020","03","16","17:30","-6.1","","-20.5","","31","","","","34","","16","","","","102.94","","","","-12","","NA"
"-53.58","49.11","POOLS ISLAND","840BR7C","2020-03-16 18:30","2020","03","16","18:30","-7.5","","-19.5","","38","","","","36","","9","","","","103.03","","","","-12","","NA"
"-53.58","49.11","POOLS ISLAND","840BR7C","2020-03-16 19:30","2020","03","16","19:30","-8.9","","-16.2","","56","","","","34","","10","","","","103.07","","","","-14","","NA"
"-53.58","49.11","POOLS ISLAND","840BR7C","2020-03-16 20:30","2020","03","16","20:30","-10.5","","-17.3","","58","","","","30","","9","","","","103.12","","","","-15","","NA"
"-53.58","49.11","POOLS ISLAND","840BR7C","2020-03-16 21:30","2020","03","16","21:30","-11.3","","-19.5","","51","","","","30","","8","","","","103.14","","","","-16","","NA"
"-53.58","49.11","POOLS ISLAND","840BR7C","2020-03-16 22:30","2020","03","16","22:30","-11.8","","-18.8","","56","","","","32","","11","","","","103.16","","","","-18","","NA"
"-53.58","49.11","POOLS ISLAND","840BR7C","2020-03-16 23:30","2020","03","16","23:30","-13.0","","-18.7","","63","","","","30","","15","","","","103.18","","","","-20","","NA"
"-53.58","49.11","POOLS ISLAND","840BR7C","2020-03-17 00:30","2020","03","17","00:30","-12.7","","-19.5","","57","","","","30","","17","","","","103.18","","","","-21","","NA"
"-53.58","49.11","POOLS ISLAND","840BR7C","2020-03-17 01:30","2020","03","17","01:30","-13.8","","-19.7","","61","","","","29","","19","","","","103.20","","","","-22","","NA"
"-53.58","49.11","POOLS ISLAND","840BR7C","2020-03-17 02:30","2020","03","17","02:30","-14.2","","-20.2","","60","","","","28","","9","","","","103.21","","","","-20","","NA"
"-53.58","49.11","POOLS ISLAND","840BR7C","2020-03-17 03:30","2020","03","17","03:30","-13.7","","-20.6","","56","","","","28","","11","","","","103.23","","","","-20","","NA"
"-53.58","49.11","POOLS ISLAND","840BR7C","2020-03-17 04:30","2020","03","17","04:30","-12.4","","-20.6","","50","","","","27","","10","","","","103.28","","","","-18","","NA"
"-53.58","49.11","POOLS ISLAND","840BR7C","2020-03-17 05:30","2020","03","17","05:30","-13.7","","-22.0","","50","","","","27","","12","","","","103.31","","","","-20","","NA"
"-53.58","49.11","POOLS ISLAND","840BR7C","2020-03-17 06:30","2020","03","17","06:30","-11.7","","-19.6","","52","","","","27","","8","","","","103.34","","","","-16","","NA"
"-53.58","49.11","POOLS ISLAND","840BR7C","2020-03-17 07:30","2020","03","17","07:30","-10.8","","-17.0","","60","","","","26","","8","","","","103.38","","","","-15","","NA"
"-53.58","49.11","POOLS ISLAND","840BR7C","2020-03-17 08:30","2020","03","17","08:30","-7.5","","-14.3","","59","","","","24","","12","","","","103.39","","","","-13","","NA"
"-53.58","49.11","POOLS ISLAND","840BR7C","2020-03-17 09:30","2020","03","17","09:30","-4.9","","-13.9","","49","","","","24","","12","","","","103.39","","","","-10","","NA"
"-53.58","49.11","POOLS ISLAND","840BR7C","2020-03-17 10:30","2020","03","17","10:30","-4.4","","-16.3","","39","","","","24","","22","","","","103.35","","","","-11","","NA"
"-53.58","49.11","POOLS ISLAND","840BR7C","2020-03-17 11:30","2020","03","17","11:30","-3.2","","-12.5","","48","","","","24","","27","","","","103.31","","","","-10","","NA"
"-53.58","49.11","POOLS ISLAND","840BR7C","2020-03-17 12:30","2020","03","17","12:30","-2.4","","-11.9","","48","","","","22","","27","","","","103.26","","","","-9","","NA"
"-53.58","49.11","POOLS ISLAND","840BR7C","2020-03-17 13:30","2020","03","17","13:30","-1.5","","-9.4","","55","","","","20","","20","","","","103.21","","","","-7","","NA"
"-53.58","49.11","POOLS ISLAND","840BR7C","2020-03-17 14:30","2020","03","17","14:30","-0.2","","-11.6","","42","","","","23","","28","","","","103.10","","","","-7","","NA"
"-53.58","49.11","POOLS ISLAND","840BR7C","2020-03-17 15:30","2020","03","17","15:30","-0.2","","-10.2","","47","","","","25","","33","","","","103.11","","","","-7","","NA"
"-53.58","49.11","POOLS ISLAND","840BR7C","2020-03-17 16:30","2020","03","17","16:30","-0.5","","-7.3","","60","","","","22","","37","","","","103.04","","","","-8","","NA"
"-53.58","49.11","POOLS ISLAND","840BR7C","2020-03-17 17:30","2020","03","17","17:30","-0.8","","-8.2","","57","","","","22","","40","","","","103.01","","","","-8","","NA"
"-53.58","49.11","POOLS ISLAND","840BR7C","2020-03-17 18:30","2020","03","17","18:30","-0.9","","-9.4","","53","","","","23","","44","","","","102.96","","","","-9","","NA"
"-53.58","49.11","POOLS ISLAND","840BR7C","2020-03-17 19:30","2020","03","17","19:30","-1.2","","-7.2","","64","","","","23","","35","","","","102.89","","","","-9","","NA"
"-53.58","49.11","POOLS ISLAND","840BR7C","2020-03-17 20:30","2020","03","17","20:30","-1.3","","-6.4","","68","","","","22","","41","","","","102.82","","","","-9","","NA"
"-53.58","49.11","POOLS ISLAND","840BR7C","2020-03-17 21:30","2020","03","17","21:30","-1.8","","-6.3","","72","","","","21","","39","","","","102.77","","","","-10","","NA"
"-53.58","49.11","POOLS ISLAND","840BR7C","2020-03-17 22:30","2020","03","17","22:30","-1.9","","-7.0","","68","","","","22","","41","","","","102.68","","","","-10","","NA"
"-53.58","49.11","POOLS ISLAND","840BR7C","2020-03-17 23:30","2020","03","17","23:30","-1.8","","-7.4","","66","","","","21","","43","","","","102.51","","","","-10","","NA"
"-53.58","49.11","POOLS ISLAND","840BR7C","2020-03-18 00:30","2020","03","18","00:30","-1.8","","-6.0","","73","","","","20","","52","","","","102.30","","","","-11","","NA"
"-53.58","49.11","POOLS ISLAND","840BR7C","2020-03-18 01:30","2020","03","18","01:30","-1.4","","-5.7","","73","","","","21","","50","","","","102.15","","","","-10","","NA"
"-53.58","49.11","POOLS ISLAND","840BR7C","2020-03-18 02:30","2020","03","18","02:30","-1.1","","-5.6","","71","","","","22","","55","","","","102.05","","","","-10","","NA"
"-53.58","49.11","POOLS ISLAND","840BR7C","2020-03-18 03:30","2020","03","18","03:30","-0.9","","-4.8","","75","","","","21","","39","","","","101.97","","","","-9","","NA"
"-53.58","49.11","POOLS ISLAND","840BR7C","2020-03-18 04:30","2020","03","18","04:30","-1.6","","-3.0","","91","","","","21","","44","","","","101.84","","","","-10","","NA"
"-53.58","49.11","POOLS ISLAND","840BR7C","2020-03-18 05:30","2020","03","18","05:30","-1.4","","-2.2","","94","","","","21","","38","","","","101.67","","","","-9","","NA"
"-53.58","49.11","POOLS ISLAND","840BR7C","2020-03-18 06:30","2020","03","18","06:30","-1.4","","-2.0","","96","","","","20","","32","","","","101.53","","","","-9","","NA"
"-53.58","49.11","POOLS ISLAND","840BR7C","2020-03-18 07:30","2020","03","18","07:30","-1.0","","-1.5","","96","","","","21","","39","","","","101.35","","","","-9","","NA"
"-53.58","49.11","POOLS ISLAND","840BR7C","2020-03-18 08:30","2020","03","18","08:30","-0.5","","-0.9","","97","","","","22","","42","","","","101.23","","","","-8","","NA"
"-53.58","49.11","POOLS ISLAND","840BR7C","2020-03-18 09:30","2020","03","18","09:30","-0.2","","-0.7","","97","","","","21","","49","","","","100.98","","","","-8","","NA"
"-53.58","49.11","POOLS ISLAND","840BR7C","2020-03-18 10:30","2020","03","18","10:30","-0.3","","-0.7","","97","","","","21","","48","","","","100.77","","","","-8","","NA"
"-53.58","49.11","POOLS ISLAND","840BR7C","2020-03-18 11:30","2020","03","18","11:30","0.4","","-0.1","","97","","","","23","","55","","","","100.63","","","","","","NA"
"-53.58","49.11","POOLS ISLAND","840BR7C","2020-03-18 12:30","2020","03","18","12:30","1.7","","0.7","","93","","","","23","","45","","","","100.55","","","","","","NA"
"-53.58","49.11","POOLS ISLAND","840BR7C","2020-03-18 13:30","2020","03","18","13:30","2.5","","1.5","","93","","","","26","","36","","","","100.54","","","","","","NA"
"-53.58","49.11","POOLS ISLAND","840BR7C","2020-03-18 14:30","2020","03","18","14:30","3.9","","-0.1","","75","","","","30","","31","","","","100.58","","","","","","NA"
"-53.58","49.11","POOLS ISLAND","840BR7C","2020-03-18 15:30","2020","03","18","15:30","3.2","","-1.6","","71","","","","31","","46","","","","100.67","","","","","","NA"
"-53.58","49.11","POOLS ISLAND","840BR7C","2020-03-18 16:30","2020","03","18","16:30","2.8","","-9.5","","40","","","","31","","49","","","","100.76","","","","","","NA"
"-53.58","49.11","POOLS ISLAND","840BR7C","2020-03-18 17:30","2020","03","18","17:30","1.6","","-9.0","","45","","","","31","","45","","","","100.92","","","","","","NA"
"-53.58","49.11","POOLS ISLAND","840BR7C","2020-03-18 18:30","2020","03","18","18:30","0.0","","-7.7","","56","","","","30","","44","","","","101.18","","","","-8","","NA"
"-53.58","49.11","POOLS ISLAND","840BR7C","2020-03-18 19:30","2020","03","18","19:30","-1.0","","-7.2","","63","","","","30","","39","","","","101.35","","","","-9","","NA"
"-53.58","49.11","POOLS ISLAND","840BR7C","2020-03-18 20:30","2020","03","18","20:30","-1.2","","-6.8","","66","","","","31","","41","","","","101.51","","","","-9","","NA"
"-53.58","49.11","POOLS ISLAND","840BR7C","2020-03-18 21:30","2020","03","18","21:30","-1.7","","-7.8","","63","","","","33","","46","","","","101.69","","","","-10","","NA"
"-53.58","49.11","POOLS ISLAND","840BR7C","2020-03-18 22:30","2020","03","18","22:30","-2.6","","-9.2","","61","","","","33","","36","","","","101.86","","","","-10","","NA"
"-53.58","49.11","POOLS ISLAND","840BR7C","2020-03-18 23:30","2020","03","18","23:30","-3.3","","-9.6","","61","","","","35","","33","","","","102.02","","","","-11","","NA"
"-53.58","49.11","POOLS ISLAND","840BR7C","2020-03-19 00:30","2020","03","19","00:30","-4.8","","-9.9","","67","","","","33","","14","","","","102.20","","","","-10","","NA"
"-53.58","49.11","POOLS ISLAND","840BR7C","2020-03-19 01:30","2020","03","19","01:30","-5.7","","-10.5","","69","","","","28","","6","","","","102.31","","","","-9","","NA"
"-53.58","49.11","POOLS ISLAND","840BR7C","2020-03-19 02:30","2020","03","19","02:30","-6.4","","-10.4","","73","","","","29","","16","","","","102.39","","","","-13","","NA"
"-53.58","49.11","POOLS ISLAND","840BR7C","2020-03-19 03:30","2020","03","19","03:30","-6.1","","-9.5","","77","","","","30","","17","","","","102.49","","","","-12","","NA"
"-53.58","49.11","POOLS ISLAND","840BR7C","2020-03-19 04:30","2020","03","19","04:30","-6.5","","-9.8","","77","","","","29","","22","","","","102.58","","","","-14","","NA"
"-53.58","49.11","POOLS ISLAND","840BR7C","2020-03-19 05:30","2020","03","19","05:30","-6.8","","-10.0","","78","","","","30","","20","","","","102.66","","","","-14","","NA"
"-53.58","49.11","POOLS ISLAND","840BR7C","2020-03-19 06:30","2020","03","19","06:30","-6.5","","-9.7","","78","","","","29","","17","","","","102.72","","","","-13","","NA"
"-53.58","49.11","POOLS ISLAND","840BR7C","2020-03-19 07:30","2020","03","19","07:30","-4.9","","-8.7","","75","","","","30","","22","","","","102.81","","","","-12","","NA"
"-53.58","49.11","POOLS ISLAND","840BR7C","2020-03-19 08:30","2020","03","19","08:30","-3.4","","-8.2","","69","","","","30","","25","","","","102.88","","","","-10","","NA"
"-53.58","49.11","POOLS ISLAND","840BR7C","2020-03-19 09:30","2020","03","19","09:30","-2.8","","-8.0","","67","","","","31","","31","","","","102.95","","","","-10","","NA"
"-53.58","49.11","POOLS ISLAND","840BR7C","2020-03-19 10:30","2020","03","19","10:30","-2.0","","-7.2","","67","","","","32","","29","","","","103.03","","","","-9","","NA"
"-53.58","49.11","POOLS ISLAND","840BR7C","2020-03-19 11:30","2020","03","19","11:30","-1.7","","-8.2","","61","","","","32","","27","","","","103.06","","","","-8","","NA"
"-53.58","49.11","POOLS ISLAND","840BR7C","2020-03-19 12:30","2020","03","19","12:30","-1.9","","-9.2","","57","","","","33","","31","","","","103.09","","","","-9","","NA"
"-53.58","49.11","POOLS ISLAND","840BR7C","2020-03-19 13:30","2020","03","19","13:30","-2.1","","-11.9","","47","","","","33","","24","","","","103.09","","","","-8","","NA"
"-53.58","49.11","POOLS ISLAND","840BR7C","2020-03-19 14:30","2020","03","19","14:30","-2.2","","-13.9","","40","","","","33","","32","","","","103.14","","","","-10","","NA"
"-53.58","49.11","POOLS ISLAND","840BR7C","2020-03-19 15:30","2020","03","19","15:30","-2.1","","-13.8","","40","","","","32","","24","","","","103.17","","","","-8","","NA"
"-53.58","49.11","POOLS ISLAND","840BR7C","2020-03-19 16:30","2020","03","19","16:30","-2.2","","-13.5","","42","","","","32","","28","","","","103.20","","","","-9","","NA"
"-53.58","49.11","POOLS ISLAND","840BR7C","2020-03-19 17:30","2020","03","19","17:30","-2.2","","-13.2","","43","","","","31","","16","","","","103.25","","","","-7","","NA"
"-53.58","49.11","POOLS ISLAND","840BR7C","2020-03-19 18:30","2020","03","19","18:30","-3.2","","-12.7","","48","","","","28","","17","","","","103.28","","","","-9","","NA"
"-53.58","49.11","POOLS ISLAND","840BR7C","2020-03-19 19:30","2020","03","19","19:30","-4.2","","-12.5","","53","","","","29","","14","","","","103.35","","","","-9","","NA"
"-53.58","49.11","POOLS ISLAND","840BR7C","2020-03-19 20:30","2020","03","19","20:30","-4.9","","-12.6","","55","","","","29","","9","","","","103.36","","","","-9","","NA"
"-53.58","49.11","POOLS ISLAND","840BR7C","2020-03-19 21:30","2020","03","19","21:30","-5.0","","-12.4","","56","","","","28","","17","","","","103.39","","","","-11","","NA"
"-53.58","49.11","POOLS ISLAND","840BR7C","2020-03-19 22:30","2020","03","19","22:30","-6.3","","-12.2","","63","","","","30","","14","","","","103.49","","","","-12","","NA"
"-53.58","49.11","POOLS ISLAND","840BR7C","2020-03-19 23:30","2020","03","19","23:30","-6.1","","-12.9","","58","","","","27","","8","","","","103.48","","","","-10","","NA"
"-53.58","49.11","POOLS ISLAND","840BR7C","2020-03-20 00:30","2020","03","20","00:30","-6.7","","-12.9","","61","","","","28","","13","","","","103.43","","","","-12","","NA"
"-53.58","49.11","POOLS ISLAND","840BR7C","2020-03-20 01:30","2020","03","20","01:30","-6.9","","-12.5","","64","","","","28","","15","","","","103.47","","","","-13","","NA"
"-53.58","49.11","POOLS ISLAND","840BR7C","2020-03-20 02:30","2020","03","20","02:30","-7.8","","-12.4","","70","","","","31","","9","","","","103.44","","","","-12","","NA"
"-53.58","49.11","POOLS ISLAND","840BR7C","2020-03-20 03:30","2020","03","20","03:30","-7.5","","-12.1","","69","","","","29","","13","","","","103.41","","","","-13","","NA"
"-53.58","49.11","POOLS ISLAND","840BR7C","2020-03-20 04:30","2020","03","20","04:30","-7.4","","-12.0","","69","","","","28","","16","","","","103.40","","","","-14","","NA"
"-53.58","49.11","POOLS ISLAND","840BR7C","2020-03-20 05:30","2020","03","20","05:30","-7.9","","-11.9","","73","","","","31","","10","","","","103.40","","","","-13","","NA"
"-53.58","49.11","POOLS ISLAND","840BR7C","2020-03-20 06:30","2020","03","20","06:30","-6.4","","-11.1","","69","","","","29","","14","","","","103.40","","","","-12","","NA"
"-53.58","49.11","POOLS ISLAND","840BR7C","2020-03-20 07:30","2020","03","20","07:30","-4.3","","-9.9","","65","","","","28","","10","","","","103.40","","","","-8","","NA"
"-53.58","49.11","POOLS ISLAND","840BR7C","2020-03-20 08:30","2020","03","20","08:30","-3.0","","-8.0","","68","","","","24","","17","","","","103.37","","","","-9","","NA"
"-53.58","49.11","POOLS ISLAND","840BR7C","2020-03-20 09:30","2020","03","20","09:30","-2.1","","-7.2","","68","","","","24","","20","","","","103.27","","","","-8","","NA"
"-53.58","49.11","POOLS ISLAND","840BR7C","2020-03-20 10:30","2020","03","20","10:30","-2.9","","-7.8","","69","","","","22","","23","","","","103.22","","","","-9","","NA"
"-53.58","49.11","POOLS ISLAND","840BR7C","2020-03-20 11:30","2020","03","20","11:30","-2.2","","-7.0","","69","","","","22","","26","","","","103.08","","","","-9","","NA"
"-53.58","49.11","POOLS ISLAND","840BR7C","2020-03-20 12:30","2020","03","20","12:30","-1.3","","-6.3","","69","","","","21","","30","","","","102.91","","","","-8","","NA"
"-53.58","49.11","POOLS ISLAND","840BR7C","2020-03-20 13:30","2020","03","20","13:30","-1.1","","-5.5","","72","","","","22","","35","","","","102.80","","","","-8","","NA"
"-53.58","49.11","POOLS ISLAND","840BR7C","2020-03-20 14:30","2020","03","20","14:30","-1.1","","-4.3","","79","","","","20","","31","","","","102.63","","","","-8","","NA"
"-53.58","49.11","POOLS ISLAND","840BR7C","2020-03-20 15:30","2020","03","20","15:30","-2.0","","-3.0","","93","","","","21","","40","","","","102.44","","","","-10","","NA"
"-53.58","49.11","POOLS ISLAND","840BR7C","2020-03-20 16:30","2020","03","20","16:30","-1.6","","-3.4","","87","","","","19","","33","","","","102.29","","","","-9","","NA"
"-53.58","49.11","POOLS ISLAND","840BR7C","2020-03-20 17:30","2020","03","20","17:30","-2.0","","-3.1","","93","","","","19","","49","","","","101.96","","","","-11","","NA"
"-53.58","49.11","POOLS ISLAND","840BR7C","2020-03-20 18:30","2020","03","20","18:30","-1.4","","-4.1","","82","","","","18","","54","","","","101.52","","","","-10","","NA"
"-53.58","49.11","POOLS ISLAND","840BR7C","2020-03-20 19:30","2020","03","20","19:30","-1.6","","-2.7","","92","","","","19","","66","","","","101.14","","","","-11","","NA"
"-53.58","49.11","POOLS ISLAND","840BR7C","2020-03-20 20:30","2020","03","20","20:30","-0.8","","-2.0","","92","","","","20","","66","","","","100.77","","","","-10","","NA"
"-53.58","49.11","POOLS ISLAND","840BR7C","2020-03-20 21:30","2020","03","20","21:30","-0.2","","-1.2","","93","","","","21","","50","","","","100.48","","","","-8","","NA"
"-53.58","49.11","POOLS ISLAND","840BR7C","2020-03-20 22:30","2020","03","20","22:30","0.3","","-0.7","","93","","","","22","","64","","","","100.15","","","","","","NA"
"-53.58","49.11","POOLS ISLAND","840BR7C","2020-03-20 23:30","2020","03","20","23:30","1.1","","0.2","","94","","","","22","","63","","","","99.81","","","","","","NA"
"-53.58","49.11","POOLS ISLAND","840BR7C","2020-03-21 00:30","2020","03","21","00:30","1.8","","0.6","","92","","","","22","","61","","","","99.38","","","","","","NA"
"-53.58","49.11","POOLS ISLAND","840BR7C","2020-03-21 01:30","2020","03","21","01:30","4.1","","2.3","","89","","","","23","","82","","","","99.02","","","","","","NA"
"-53.58","49.11","POOLS ISLAND","840BR7C","2020-03-21 02:30","2020","03","21","02:30","3.1","","1.5","","89","","","","23","","70","","","","98.68","","","","","","NA"
"-53.58","49.11","POOLS ISLAND","840BR7C","2020-03-21 03:30","2020","03","21","03:30","3.9","","2.5","","91","","","","24","","55","","","","98.54","","","","","","NA"
"-53.58","49.11","POOLS ISLAND","840BR7C","2020-03-21 04:30","2020","03","21","04:30","5.2","","3.5","","89","","","","26","","50","","","","98.51","","","","","","NA"
"-53.58","49.11","POOLS ISLAND","840BR7C","2020-03-21 05:30","2020","03","21","05:30","4.9","","3.4","","90","","","","26","","41","","","","98.51","","","","","","NA"
"-53.58","49.11","POOLS ISLAND","840BR7C","2020-03-21 06:30","2020","03","21","06:30","4.5","","3.1","","90","","","","25","","40","","","","98.42","","","","","","NA"
"-53.58","49.11","POOLS ISLAND","840BR7C","2020-03-21 07:30","2020","03","21","07:30","5.2","","3.5","","89","","","","26","","44","","","","98.39","","","","","","NA"
"-53.58","49.11","POOLS ISLAND","840BR7C","2020-03-21 08:30","2020","03","21","08:30","5.4","","2.8","","84","","","","27","","52","","","","98.37","","","","","","NA"
"-53.58","49.11","POOLS ISLAND","840BR7C","2020-03-21 09:30","2020","03","21","09:30","6.2","","2.1","","75","","","","27","","57","","","","98.43","","","","","","NA"
"-53.58","49.11","POOLS ISLAND","840BR7C","2020-03-21 10:30","2020","03","21","10:30","6.7","","0.4","","64","","","","28","","59","","","","98.47","","","","","","NA"
"-53.58","49.11","POOLS ISLAND","840BR7C","2020-03-21 11:30","2020","03","21","11:30","5.3","","-2.1","","59","","","","29","","66","","","","98.60","","","","","","NA"
"-53.58","49.11","POOLS ISLAND","840BR7C","2020-03-21 12:30","2020","03","21","12:30","4.9","","-4.6","","50","","","","30","","66","","","","98.65","","","","","","NA"
"-53.58","49.11","POOLS ISLAND","840BR7C","2020-03-21 13:30","2020","03","21","13:30","4.4","","-6.0","","47","","","","29","","67","","","","98.79","","","","","","NA"
"-53.58","49.11","POOLS ISLAND","840BR7C","2020-03-21 14:30","2020","03","21","14:30","3.8","","-6.2","","48","","","","30","","68","","","","98.96","","","","","","NA"
"-53.58","49.11","POOLS ISLAND","840BR7C","2020-03-21 15:30","2020","03","21","15:30","2.2","","-8.5","","45","","","","31","","66","","","","99.13","","","","","","NA"
"-53.58","49.11","POOLS ISLAND","840BR7C","2020-03-21 16:30","2020","03","21","16:30","1.0","","-8.8","","48","","","","31","","59","","","","99.42","","","","","","NA"
"-53.58","49.11","POOLS ISLAND","840BR7C","2020-03-21 17:30","2020","03","21","17:30","-1.2","","-9.9","","52","","","","31","","69","","","","99.63","","","","-11","","NA"
"-53.58","49.11","POOLS ISLAND","840BR7C","2020-03-21 18:30","2020","03","21","18:30","-2.6","","-9.8","","58","","","","30","","60","","","","99.88","","","","-12","","NA"
"-53.58","49.11","POOLS ISLAND","840BR7C","2020-03-21 19:30","2020","03","21","19:30","-3.8","","-10.0","","62","","","","30","","52","","","","100.08","","","","-13","","NA"
"-53.58","49.11","POOLS ISLAND","840BR7C","2020-03-21 20:30","2020","03","21","20:30","-4.3","","-10.7","","61","","","","30","","45","","","","100.23","","","","-14","","NA"
"-53.58","49.11","POOLS ISLAND","840BR7C","2020-03-21 21:30","2020","03","21","21:30","-4.6","","-10.5","","63","","","","30","","42","","","","100.45","","","","-14","","NA"
"-53.58","49.11","POOLS ISLAND","840BR7C","2020-03-21 22:30","2020","03","21","22:30","-4.7","","-10.7","","63","","","","31","","42","","","","100.52","","","","-14","","NA"
"-53.58","49.11","POOLS ISLAND","840BR7C","2020-03-21 23:30","2020","03","21","23:30","-4.7","","-10.7","","63","","","","31","","45","","","","100.57","","","","-14","","NA"
"-53.58","49.11","POOLS ISLAND","840BR7C","2020-03-22 00:30","2020","03","22","00:30","-4.9","","-10.9","","63","","","","32","","44","","","","100.65","","","","-14","","NA"
"-53.58","49.11","POOLS ISLAND","840BR7C","2020-03-22 01:30","2020","03","22","01:30","-5.4","","-11.1","","64","","","","31","","34","","","","100.77","","","","-14","","NA"
"-53.58","49.11","POOLS ISLAND","840BR7C","2020-03-22 02:30","2020","03","22","02:30","-6.0","","-11.5","","65","","","","31","","29","","","","100.85","","","","-14","","NA"
"-53.58","49.11","POOLS ISLAND","840BR7C","2020-03-22 03:30","2020","03","22","03:30","-6.4","","-11.7","","66","","","","31","","32","","","","100.93","","","","-15","","NA"
"-53.58","49.11","POOLS ISLAND","840BR7C","2020-03-22 04:30","2020","03","22","04:30","-6.7","","-11.4","","69","","","","30","","31","","","","101.04","","","","-15","","NA"
"-53.58","49.11","POOLS ISLAND","840BR7C","2020-03-22 05:30","2020","03","22","05:30","-6.7","","-11.5","","69","","","","30","","23","","","","101.18","","","","-14","","NA"
"-53.58","49.11","POOLS ISLAND","840BR7C","2020-03-22 06:30","2020","03","22","06:30","-6.7","","-11.7","","68","","","","29","","26","","","","101.27","","","","-15","","NA"
"-53.58","49.11","POOLS ISLAND","840BR7C","2020-03-22 07:30","2020","03","22","07:30","-6.8","","-11.9","","67","","","","30","","29","","","","101.37","","","","-15","","NA"
"-53.58","49.11","POOLS ISLAND","840BR7C","2020-03-22 08:30","2020","03","22","08:30","-6.8","","-12.3","","65","","","","30","","27","","","","101.44","","","","-15","","NA"
"-53.58","49.11","POOLS ISLAND","840BR7C","2020-03-22 09:30","2020","03","22","09:30","-6.6","","-12.0","","65","","","","30","","29","","","","101.52","","","","-15","","NA"
"-53.58","49.11","POOLS ISLAND","840BR7C","2020-03-22 10:30","2020","03","22","10:30","-6.3","","-12.2","","63","","","","31","","31","","","","101.52","","","","-15","","NA"
"-53.58","49.11","POOLS ISLAND","840BR7C","2020-03-22 11:30","2020","03","22","11:30","-5.6","","-11.5","","63","","","","32","","28","","","","101.56","","","","-14","","NA"
"-53.58","49.11","POOLS ISLAND","840BR7C","2020-03-22 12:30","2020","03","22","12:30","-6.1","","-12.4","","61","","","","31","","29","","","","101.60","","","","-14","","NA"
"-53.58","49.11","POOLS ISLAND","840BR7C","2020-03-22 13:30","2020","03","22","13:30","-5.7","","-12.6","","59","","","","33","","24","","","","101.64","","","","-13","","NA"
"-53.58","49.11","POOLS ISLAND","840BR7C","2020-03-22 14:30","2020","03","22","14:30","-5.8","","-11.6","","64","","","","34","","28","","","","101.66","","","","-14","","NA"
"-53.58","49.11","POOLS ISLAND","840BR7C","2020-03-22 15:30","2020","03","22","15:30","-6.1","","-11.3","","67","","","","34","","29","","","","101.73","","","","-14","","NA"
"-53.58","49.11","POOLS ISLAND","840BR7C","2020-03-22 16:30","2020","03","22","16:30","-6.5","","-11.6","","67","","","","35","","30","","","","101.82","","","","-15","","NA"
"-53.58","49.11","POOLS ISLAND","840BR7C","2020-03-22 17:30","2020","03","22","17:30","-6.9","","-10.9","","73","","","","35","","26","","","","101.91","","","","-15","","NA"
"-53.58","49.11","POOLS ISLAND","840BR7C","2020-03-22 18:30","2020","03","22","18:30","-7.5","","-10.4","","80","","","","34","","28","","","","102.00","","","","-16","","NA"
"-53.58","49.11","POOLS ISLAND","840BR7C","2020-03-22 19:30","2020","03","22","19:30","-7.2","","-10.5","","77","","","","34","","31","","","","102.12","","","","-16","","NA"
"-53.58","49.11","POOLS ISLAND","840BR7C","2020-03-22 20:30","2020","03","22","20:30","-7.1","","-10.8","","75","","","","34","","32","","","","102.18","","","","-16","","NA"
"-53.58","49.11","POOLS ISLAND","840BR7C","2020-03-22 21:30","2020","03","22","21:30","-7.1","","-10.5","","76","","","","34","","24","","","","102.26","","","","-15","","NA"
"-53.58","49.11","POOLS ISLAND","840BR7C","2020-03-22 22:30","2020","03","22","22:30","-7.1","","-10.5","","77","","","","34","","23","","","","102.36","","","","-15","","NA"
"-53.58","49.11","POOLS ISLAND","840BR7C","2020-03-22 23:30","2020","03","22","23:30","-7.2","","-11.2","","73","","","","33","","28","","","","102.39","","","","-16","","NA"
"-53.58","49.11","POOLS ISLAND","840BR7C","2020-03-23 00:30","2020","03","23","00:30","-7.8","","-11.7","","74","","","","33","","35","","","","102.44","","","","-17","","NA"
"-53.58","49.11","POOLS ISLAND","840BR7C","2020-03-23 01:30","2020","03","23","01:30","-8.5","","-12.0","","76","","","","32","","31","","","","102.48","","","","-18","","NA"
"-53.58","49.11","POOLS ISLAND","840BR7C","2020-03-23 02:30","2020","03","23","02:30","-10.2","","-13.5","","77","","","","32","","32","","","","102.53","","","","-20","","NA"
"-53.58","49.11","POOLS ISLAND","840BR7C","2020-03-23 03:30","2020","03","23","03:30","-10.5","","-13.6","","78","","","","32","","29","","","","102.59","","","","-20","","NA"
"-53.58","49.11","POOLS ISLAND","840BR7C","2020-03-23 04:30","2020","03","23","04:30","-10.7","","-13.7","","78","","","","32","","37","","","","102.64","","","","-21","","NA"
"-53.58","49.11","POOLS ISLAND","840BR7C","2020-03-23 05:30","2020","03","23","05:30","-10.6","","-13.7","","78","","","","31","","27","","","","102.72","","","","-20","","NA"
"-53.58","49.11","POOLS ISLAND","840BR7C","2020-03-23 06:30","2020","03","23","06:30","-9.8","","-13.4","","75","","","","31","","27","","","","102.80","","","","-19","","NA"
"-53.58","49.11","POOLS ISLAND","840BR7C","2020-03-23 07:30","2020","03","23","07:30","-8.1","","-13.1","","67","","","","31","","35","","","","102.84","","","","-18","","NA"
"-53.58","49.11","POOLS ISLAND","840BR7C","2020-03-23 08:30","2020","03","23","08:30","-6.6","","-12.4","","64","","","","31","","30","","","","102.86","","","","-15","","NA"
"-53.58","49.11","POOLS ISLAND","840BR7C","2020-03-23 09:30","2020","03","23","09:30","-5.4","","-12.5","","57","","","","31","","41","","","","102.88","","","","-15","","NA"
"-53.58","49.11","POOLS ISLAND","840BR7C","2020-03-23 10:30","2020","03","23","10:30","-3.2","","-12.6","","48","","","","32","","35","","","","102.88","","","","-11","","NA"
"-53.58","49.11","POOLS ISLAND","840BR7C","2020-03-23 11:30","2020","03","23","11:30","-1.1","","-13.8","","38","","","","33","","45","","","","102.83","","","","-9","","NA"
"-53.58","49.11","POOLS ISLAND","840BR7C","2020-03-23 12:30","2020","03","23","12:30","0.0","","-14.3","","33","","","","33","","41","","","","102.90","","","","-7","","NA"
"-53.58","49.11","POOLS ISLAND","840BR7C","2020-03-23 13:30","2020","03","23","13:30","0.4","","-14.8","","31","","","","33","","46","","","","102.85","","","","","","NA"
"-53.58","49.11","POOLS ISLAND","840BR7C","2020-03-23 14:30","2020","03","23","14:30","1.0","","-16.2","","26","","","","32","","42","","","","102.86","","","","","","NA"
"-53.58","49.11","POOLS ISLAND","840BR7C","2020-03-23 15:30","2020","03","23","15:30","0.8","","-17.8","","23","","","","33","","48","","","","102.84","","","","","","NA"
"-53.58","49.11","POOLS ISLAND","840BR7C","2020-03-23 16:30","2020","03","23","16:30","1.0","","-15.5","","28","","","","33","","33","","","","102.89","","","","","","NA"
"-53.58","49.11","POOLS ISLAND","840BR7C","2020-03-23 17:30","2020","03","23","17:30","0.4","","-14.3","","32","","","","32","","31","","","","102.93","","","","","","NA"
"-53.58","49.11","POOLS ISLAND","840BR7C","2020-03-23 18:30","2020","03","23","18:30","-0.6","","-14.7","","34","","","","31","","21","","","","103.02","","","","-6","","NA"
"-53.58","49.11","POOLS ISLAND","840BR7C","2020-03-23 19:30","2020","03","23","19:30","-2.3","","-14.1","","40","","","","30","","20","","","","103.08","","","","-8","","NA"
"-53.58","49.11","POOLS ISLAND","840BR7C","2020-03-23 20:30","2020","03","23","20:30","-2.4","","-12.7","","45","","","","29","","20","","","","103.10","","","","-8","","NA"
"-53.58","49.11","POOLS ISLAND","840BR7C","2020-03-23 21:30","2020","03","23","21:30","-2.8","","-12.4","","48","","","","29","","19","","","","103.05","","","","-9","","NA"
"-53.58","49.11","POOLS ISLAND","840BR7C","2020-03-23 22:30","2020","03","23","22:30","-3.4","","-12.7","","48","","","","29","","23","","","","102.98","","","","-10","","NA"
"-53.58","49.11","POOLS ISLAND","840BR7C","2020-03-23 23:30","2020","03","23","23:30","-4.0","","-12.4","","52","","","","28","","23","","","","102.98","","","","-11","","NA"
"-53.58","49.11","POOLS ISLAND","840BR7C","2020-03-24 00:30","2020","03","24","00:30","-4.3","","-12.8","","52","","","","27","","22","","","","102.97","","","","-11","","NA"
"-53.58","49.11","POOLS ISLAND","840BR7C","2020-03-24 01:30","2020","03","24","01:30","-4.3","","-13.2","","50","","","","26","","21","","","","102.97","","","","-11","","NA"
"-53.58","49.11","POOLS ISLAND","840BR7C","2020-03-24 02:30","2020","03","24","02:30","-4.9","","-12.5","","55","","","","26","","17","","","","102.92","","","","-11","","NA"
"-53.58","49.11","POOLS ISLAND","840BR7C","2020-03-24 03:30","2020","03","24","03:30","-5.6","","-13.4","","54","","","","27","","8","","","","102.86","","","","-9","","NA"
"-53.58","49.11","POOLS ISLAND","840BR7C","2020-03-24 04:30","2020","03","24","04:30","-5.2","","-12.3","","58","","","","26","","25","","","","102.77","","","","-13","","NA"
"-53.58","49.11","POOLS ISLAND","840BR7C","2020-03-24 05:30","2020","03","24","05:30","-5.4","","-11.1","","64","","","","25","","25","","","","102.76","","","","-13","","NA"
"-53.58","49.11","POOLS ISLAND","840BR7C","2020-03-24 06:30","2020","03","24","06:30","-4.9","","-8.9","","74","","","","26","","15","","","","102.71","","","","-10","","NA"
"-53.58","49.11","POOLS ISLAND","840BR7C","2020-03-24 07:30","2020","03","24","07:30","-3.1","","-6.6","","77","","","","26","","25","","","","102.61","","","","-10","","NA"
"-53.58","49.11","POOLS ISLAND","840BR7C","2020-03-24 08:30","2020","03","24","08:30","-2.5","","-6.5","","74","","","","26","","22","","","","102.55","","","","-9","","NA"
"-53.58","49.11","POOLS ISLAND","840BR7C","2020-03-24 09:30","2020","03","24","09:30","-1.9","","-6.1","","73","","","","26","","35","","","","102.52","","","","-9","","NA"
"-53.58","49.11","POOLS ISLAND","840BR7C","2020-03-24 10:30","2020","03","24","10:30","-1.8","","-6.4","","71","","","","26","","29","","","","102.41","","","","-9","","NA"
"-53.58","49.11","POOLS ISLAND","840BR7C","2020-03-24 11:30","2020","03","24","11:30","-1.7","","-6.5","","69","","","","25","","44","","","","102.28","","","","-10","","NA"
"-53.58","49.11","POOLS ISLAND","840BR7C","2020-03-24 12:30","2020","03","24","12:30","-0.9","","-6.7","","65","","","","26","","37","","","","102.22","","","","-8","","NA"
"-53.58","49.11","POOLS ISLAND","840BR7C","2020-03-24 13:30","2020","03","24","13:30","-0.6","","-6.3","","65","","","","26","","26","","","","102.21","","","","-7","","NA"
"-53.58","49.11","POOLS ISLAND","840BR7C","2020-03-24 14:30","2020","03","24","14:30","-0.6","","-5.8","","68","","","","25","","35","","","","102.12","","","","-8","","NA"
"-53.58","49.11","POOLS ISLAND","840BR7C","2020-03-24 15:30","2020","03","24","15:30","-0.7","","-5.1","","72","","","","25","","31","","","","102.05","","","","-7","","NA"
"-53.58","49.11","POOLS ISLAND","840BR7C","2020-03-24 16:30","2020","03","24","16:30","-1.8","","-2.9","","93","","","","24","","19","","","","101.96","","","","-7","","NA"
"-53.58","49.11","POOLS ISLAND","840BR7C","2020-03-24 17:30","2020","03","24","17:30","-1.9","","-2.8","","94","","","","22","","12","","","","101.86","","","","-6","","NA"
"-53.58","49.11","POOLS ISLAND","840BR7C","2020-03-24 18:30","2020","03","24","18:30","-1.7","","-2.3","","96","","","","18","","12","","","","101.73","","","","-6","","NA"
"-53.58","49.11","POOLS ISLAND","840BR7C","2020-03-24 19:30","2020","03","24","19:30","-1.8","","-2.3","","96","","","","16","","19","","","","101.69","","","","-7","","NA"
"-53.58","49.11","POOLS ISLAND","840BR7C","2020-03-24 20:30","2020","03","24","20:30","-1.8","","-2.3","","96","","","","14","","26","","","","101.52","","","","-8","","NA"
"-53.58","49.11","POOLS ISLAND","840BR7C","2020-03-24 21:30","2020","03","24","21:30","-1.7","","-2.2","","97","","","","14","","28","","","","101.41","","","","-8","","NA"
"-53.58","49.11","POOLS ISLAND","840BR7C","2020-03-24 22:30","2020","03","24","22:30","-1.7","","-2.1","","97","","","","13","","29","","","","101.27","","","","-9","","NA"
"-53.58","49.11","POOLS ISLAND","840BR7C","2020-03-24 23:30","2020","03","24","23:30","-1.6","","-2.1","","97","","","","11","","37","","","","101.03","","","","-9","","NA"
"-53.58","49.11","POOLS ISLAND","840BR7C","2020-03-25 00:30","2020","03","25","00:30","-1.6","","-2.1","","97","","","","10","","38","","","","100.93","","","","-9","","NA"
"-53.58","49.11","POOLS ISLAND","840BR7C","2020-03-25 01:30","2020","03","25","01:30","-1.7","","-2.1","","97","","","","9","","43","","","","100.71","","","","-10","","NA"
"-53.58","49.11","POOLS ISLAND","840BR7C","2020-03-25 02:30","2020","03","25","02:30","-1.8","","-2.2","","97","","","","8","","55","","","","100.46","","","","-11","","NA"
"-53.58","49.11","POOLS ISLAND","840BR7C","2020-03-25 03:30","2020","03","25","03:30","-1.8","","-2.2","","97","","","","7","","60","","","","100.34","","","","-11","","NA"
"-53.58","49.11","POOLS ISLAND","840BR7C","2020-03-25 04:30","2020","03","25","04:30","-1.7","","-2.1","","97","","","","6","","63","","","","100.23","","","","-11","","NA"
"-53.58","49.11","POOLS ISLAND","840BR7C","2020-03-25 05:30","2020","03","25","05:30","-1.8","","-2.3","","96","","","","5","","64","","","","100.20","","","","-12","","NA"
"-53.58","49.11","POOLS ISLAND","840BR7C","2020-03-25 06:30","2020","03","25","06:30","-1.8","","-2.3","","96","","","","4","","63","","","","100.19","","","","-11","","NA"
"-53.58","49.11","POOLS ISLAND","840BR7C","2020-03-25 07:30","2020","03","25","07:30","-1.6","","-2.2","","96","","","","4","","60","","","","100.25","","","","-11","","NA"
"-53.58","49.11","POOLS ISLAND","840BR7C","2020-03-25 08:30","2020","03","25","08:30","-1.5","","-2.2","","95","","","","4","","59","","","","100.27","","","","-11","","NA"
"-53.58","49.11","POOLS ISLAND","840BR7C","2020-03-25 09:30","2020","03","25","09:30","-1.6","","-2.3","","94","","","","3","","60","","","","100.32","","","","-11","","NA"
"-53.58","49.11","POOLS ISLAND","840BR7C","2020-03-25 10:30","2020","03","25","10:30","-1.7","","-2.5","","94","","","","2","","55","","","","100.46","","","","-11","","NA"
"-53.58","49.11","POOLS ISLAND","840BR7C","2020-03-25 11:30","2020","03","25","11:30","-1.7","","-2.7","","93","","","","2","","58","","","","100.53","","","","-11","","NA"
"-53.58","49.11","POOLS ISLAND","840BR7C","2020-03-25 12:30","2020","03","25","12:30","-1.6","","-2.9","","90","","","","2","","63","","","","100.62","","","","-11","","NA"
"-53.58","49.11","POOLS ISLAND","840BR7C","2020-03-25 13:30","2020","03","25","13:30","-1.4","","-3.4","","86","","","","2","","60","","","","100.72","","","","-11","","NA"
"-53.58","49.11","POOLS ISLAND","840BR7C","2020-03-25 14:30","2020","03","25","14:30","-1.1","","-3.7","","82","","","","1","","63","","","","100.90","","","","-10","","NA"
"-53.58","49.11","POOLS ISLAND","840BR7C","2020-03-25 15:30","2020","03","25","15:30","-1.0","","-3.8","","82","","","","1","","59","","","","101.05","","","","-10","","NA"
"-53.58","49.11","POOLS ISLAND","840BR7C","2020-03-25 16:30","2020","03","25","16:30","-0.9","","-3.9","","80","","","","1","","62","","","","101.22","","","","-10","","NA"
"-53.58","49.11","POOLS ISLAND","840BR7C","2020-03-25 17:30","2020","03","25","17:30","-1.0","","-4.1","","80","","","","1","","54","","","","101.40","","","","-10","","NA"
"-53.58","49.11","POOLS ISLAND","840BR7C","2020-03-25 18:30","2020","03","25","18:30","-2.0","","-4.3","","84","","","","1","","47","","","","101.60","","","","-11","","NA"
"-53.58","49.11","POOLS ISLAND","840BR7C","2020-03-25 19:30","2020","03","25","19:30","-2.4","","-4.5","","85","","","","36","","42","","","","101.74","","","","-11","","NA"
"-53.58","49.11","POOLS ISLAND","840BR7C","2020-03-25 20:30","2020","03","25","20:30","-2.6","","-5.0","","84","","","","1","","41","","","","101.83","","","","-11","","NA"
"-53.58","49.11","POOLS ISLAND","840BR7C","2020-03-25 21:30","2020","03","25","21:30","-2.6","","-5.5","","80","","","","1","","40","","","","101.86","","","","-11","","NA"
"-53.58","49.11","POOLS ISLAND","840BR7C","2020-03-25 22:30","2020","03","25","22:30","-3.3","","-6.5","","79","","","","35","","24","","","","102.01","","","","-10","","NA"
"-53.58","49.11","POOLS ISLAND","840BR7C","2020-03-25 23:30","2020","03","25","23:30","-4.3","","-7.0","","81","","","","34","","25","","","","102.08","","","","-11","","NA"
"-53.58","49.11","POOLS ISLAND","840BR7C","2020-03-26 00:30","2020","03","26","00:30","-5.6","","-7.8","","85","","","","33","","23","","","","102.16","","","","-13","","NA"
"-53.58","49.11","POOLS ISLAND","840BR7C","2020-03-26 01:30","2020","03","26","01:30","-6.0","","-8.2","","85","","","","34","","24","","","","102.19","","","","-13","","NA"
"-53.58","49.11","POOLS ISLAND","840BR7C","2020-03-26 02:30","2020","03","26","02:30","-6.4","","-8.2","","87","","","","33","","25","","","","102.26","","","","-14","","NA"
"-53.58","49.11","POOLS ISLAND","840BR7C","2020-03-26 03:30","2020","03","26","03:30","-7.4","","-9.1","","88","","","","35","","23","","","","102.22","","","","-15","","NA"
"-53.58","49.11","POOLS ISLAND","840BR7C","2020-03-26 04:30","2020","03","26","04:30","-7.6","","-9.3","","88","","","","34","","20","","","","102.32","","","","-15","","NA"
"-53.58","49.11","POOLS ISLAND","840BR7C","2020-03-26 05:30","2020","03","26","05:30","-7.5","","-8.9","","90","","","","32","","18","","","","102.40","","","","-14","","NA"
"-53.58","49.11","POOLS ISLAND","840BR7C","2020-03-26 06:30","2020","03","26","06:30","-7.1","","-8.4","","91","","","","33","","17","","","","102.44","","","","-14","","NA"
"-53.58","49.11","POOLS ISLAND","840BR7C","2020-03-26 07:30","2020","03","26","07:30","-4.7","","-6.2","","89","","","","34","","21","","","","102.45","","","","-11","","NA"
"-53.58","49.11","POOLS ISLAND","840BR7C","2020-03-26 08:30","2020","03","26","08:30","-2.1","","-4.4","","85","","","","36","","19","","","","102.46","","","","-8","","NA"
"-53.58","49.11","POOLS ISLAND","840BR7C","2020-03-26 09:30","2020","03","26","09:30","0.3","","-2.8","","80","","","","36","","13","","","","102.49","","","","","","NA"
"-53.58","49.11","POOLS ISLAND","840BR7C","2020-03-26 10:30","2020","03","26","10:30","0.4","","-3.7","","74","","","","2","","20","","","","102.56","","","","","","NA"
"-53.58","49.11","POOLS ISLAND","840BR7C","2020-03-26 11:30","2020","03","26","11:30","0.8","","-3.4","","74","","","","3","","19","","","","102.55","","","","","","NA"
"-53.58","49.11","POOLS ISLAND","840BR7C","2020-03-26 12:30","2020","03","26","12:30","0.4","","-3.6","","75","","","","3","","20","","","","102.47","","","","","","NA"
"-53.58","49.11","POOLS ISLAND","840BR7C","2020-03-26 13:30","2020","03","26","13:30","0.5","","-3.9","","72","","","","3","","18","","","","102.42","","","","","","NA"
"-53.58","49.11","POOLS ISLAND","840BR7C","2020-03-26 14:30","2020","03","26","14:30","-0.1","","-4.5","","72","","","","3","","16","","","","102.39","","","","-5","","NA"
"-53.58","49.11","POOLS ISLAND","840BR7C","2020-03-26 15:30","2020","03","26","15:30","-1.0","","-4.4","","77","","","","6","","15","","","","102.30","","","","-6","","NA"
"-53.58","49.11","POOLS ISLAND","840BR7C","2020-03-26 16:30","2020","03","26","16:30","-1.6","","-3.8","","84","","","","8","","14","","","","102.24","","","","-6","","NA"
"-53.58","49.11","POOLS ISLAND","840BR7C","2020-03-26 17:30","2020","03","26","17:30","-1.9","","-3.4","","89","","","","9","","14","","","","102.21","","","","-7","","NA"
"-53.58","49.11","POOLS ISLAND","840BR7C","2020-03-26 18:30","2020","03","26","18:30","-1.9","","-3.1","","92","","","","10","","14","","","","102.20","","","","-7","","NA"
"-53.58","49.11","POOLS ISLAND","840BR7C","2020-03-26 19:30","2020","03","26","19:30","-1.9","","-2.8","","93","","","","11","","16","","","","102.17","","","","-7","","NA"
"-53.58","49.11","POOLS ISLAND","840BR7C","2020-03-26 20:30","2020","03","26","20:30","-1.8","","-2.7","","94","","","","12","","19","","","","102.10","","","","-7","","NA"
"-53.58","49.11","POOLS ISLAND","840BR7C","2020-03-26 21:30","2020","03","26","21:30","-1.8","","-2.6","","94","","","","14","","15","","","","102.04","","","","-7","","NA"
"-53.58","49.11","POOLS ISLAND","840BR7C","2020-03-26 22:30","2020","03","26","22:30","-1.8","","-2.6","","94","","","","14","","17","","","","101.94","","","","-7","","NA"
"-53.58","49.11","POOLS ISLAND","840BR7C","2020-03-26 23:30","2020","03","26","23:30","-1.7","","-2.4","","95","","","","12","","19","","","","101.86","","","","-7","","NA"
"-53.58","49.11","POOLS ISLAND","840BR7C","2020-03-27 00:30","2020","03","27","00:30","-1.6","","-2.4","","95","","","","12","","19","","","","101.77","","","","-7","","NA"
"-53.58","49.11","POOLS ISLAND","840BR7C","2020-03-27 01:30","2020","03","27","01:30","-1.3","","-2.1","","95","","","","13","","27","","","","101.65","","","","-8","","NA"
"-53.58","49.11","POOLS ISLAND","840BR7C","2020-03-27 02:30","2020","03","27","02:30","-1.1","","-2.0","","94","","","","14","","38","","","","101.48","","","","-9","","NA"
"-53.58","49.11","POOLS ISLAND","840BR7C","2020-03-27 03:30","2020","03","27","03:30","-1.2","","-1.8","","96","","","","13","","43","","","","101.25","","","","-9","","NA"
"-53.58","49.11","POOLS ISLAND","840BR7C","2020-03-27 04:30","2020","03","27","04:30","-1.1","","-1.5","","97","","","","12","","40","","","","101.11","","","","-9","","NA"
"-53.58","49.11","POOLS ISLAND","840BR7C","2020-03-27 05:30","2020","03","27","05:30","-1.0","","-1.4","","97","","","","12","","40","","","","100.93","","","","-9","","NA"
"-53.58","49.11","POOLS ISLAND","840BR7C","2020-03-27 06:30","2020","03","27","06:30","-0.2","","-0.7","","97","","","","13","","49","","","","100.82","","","","-8","","NA"
"-53.58","49.11","POOLS ISLAND","840BR7C","2020-03-27 07:30","2020","03","27","07:30","-0.3","","-0.7","","97","","","","14","","47","","","","100.61","","","","-8","","NA"
"-53.58","49.11","POOLS ISLAND","840BR7C","2020-03-27 08:30","2020","03","27","08:30","-0.4","","-0.9","","96","","","","14","","32","","","","100.36","","","","-7","","NA"
"-53.58","49.11","POOLS ISLAND","840BR7C","2020-03-27 09:30","2020","03","27","09:30","-0.2","","-0.7","","96","","","","14","","19","","","","100.22","","","","-5","","NA"
"-53.58","49.11","POOLS ISLAND","840BR7C","2020-03-27 10:30","2020","03","27","10:30","0.0","","-0.5","","97","","","","14","","13","","","","100.04","","","","-4","","NA"
"-53.58","49.11","POOLS ISLAND","840BR7C","2020-03-27 11:30","2020","03","27","11:30","0.0","","-0.5","","97","","","","14","","57","","","","99.77","","","","-9","","NA"
"-53.58","49.11","POOLS ISLAND","840BR7C","2020-03-27 12:30","2020","03","27","12:30","0.0","","-0.4","","97","","","","16","","48","","","","99.69","","","","-8","","NA"
"-53.58","49.11","POOLS ISLAND","840BR7C","2020-03-27 13:30","2020","03","27","13:30","0.0","","-0.4","","97","","","","16","","43","","","","99.47","","","","-8","","NA"
"-53.58","49.11","POOLS ISLAND","840BR7C","2020-03-27 14:30","2020","03","27","14:30","0.0","","-0.4","","97","","","","16","","49","","","","99.19","","","","-8","","NA"
"-53.58","49.11","POOLS ISLAND","840BR7C","2020-03-27 15:30","2020","03","27","15:30","0.2","","-0.3","","97","","","","15","","50","","","","99.03","","","","","","NA"
"-53.58","49.11","POOLS ISLAND","840BR7C","2020-03-27 16:30","2020","03","27","16:30","0.8","","0.4","","97","","","","15","","57","","","","98.82","","","","","","NA"
"-53.58","49.11","POOLS ISLAND","840BR7C","2020-03-27 17:30","2020","03","27","17:30","1.1","","0.7","","97","","","","15","","60","","","","98.71","","","","","","NA"
"-53.58","49.11","POOLS ISLAND","840BR7C","2020-03-27 18:30","2020","03","27","18:30","0.6","","0.2","","97","","","","17","","42","","","","98.69","","","","","","NA"
"-53.58","49.11","POOLS ISLAND","840BR7C","2020-03-27 19:30","2020","03","27","19:30","1.6","","1.2","","97","","","","20","","55","","","","98.68","","","","","","NA"
"-53.58","49.11","POOLS ISLAND","840BR7C","2020-03-27 20:30","2020","03","27","20:30","0.9","","0.5","","97","","","","21","","55","","","","98.84","","","","","","NA"
"-53.58","49.11","POOLS ISLAND","840BR7C","2020-03-27 21:30","2020","03","27","21:30","0.9","","-0.3","","92","","","","22","","60","","","","98.94","","","","","","NA"
"-53.58","49.11","POOLS ISLAND","840BR7C","2020-03-27 22:30","2020","03","27","22:30","1.2","","-0.5","","88","","","","24","","51","","","","99.10","","","","","","NA"
"-53.58","49.11","POOLS ISLAND","840BR7C","2020-03-27 23:30","2020","03","27","23:30","0.7","","-1.4","","86","","","","24","","69","","","","99.15","","","","","","NA"
"-53.58","49.11","POOLS ISLAND","840BR7C","2020-03-28 00:30","2020","03","28","00:30","0.5","","-1.5","","86","","","","24","","61","","","","99.36","","","","","","NA"
"-53.58","49.11","POOLS ISLAND","840BR7C","2020-03-28 01:30","2020","03","28","01:30","0.2","","-1.6","","87","","","","23","","57","","","","99.57","","","","","","NA"
"-53.58","49.11","POOLS ISLAND","840BR7C","2020-03-28 02:30","2020","03","28","02:30","0.5","","-2.3","","81","","","","23","","62","","","","99.70","","","","","","NA"
"-53.58","49.11","POOLS ISLAND","840BR7C","2020-03-28 03:30","2020","03","28","03:30","0.3","","-2.8","","80","","","","24","","52","","","","99.77","","","","","","NA"
"-53.58","49.11","POOLS ISLAND","840BR7C","2020-03-28 04:30","2020","03","28","04:30","0.0","","-2.8","","82","","","","24","","48","","","","99.86","","","","-8","","NA"
"-53.58","49.11","POOLS ISLAND","840BR7C","2020-03-28 05:30","2020","03","28","05:30","-0.2","","-2.8","","82","","","","24","","47","","","","99.97","","","","-8","","NA"
"-53.58","49.11","POOLS ISLAND","840BR7C","2020-03-28 06:30","2020","03","28","06:30","0.0","","-2.8","","81","","","","24","","39","","","","100.12","","","","-7","","NA"
"-53.58","49.11","POOLS ISLAND","840BR7C","2020-03-28 07:30","2020","03","28","07:30","0.6","","-2.7","","78","","","","23","","48","","","","100.25","","","","","","NA"
"-53.58","49.11","POOLS ISLAND","840BR7C","2020-03-28 08:30","2020","03","28","08:30","1.5","","-1.8","","79","","","","24","","37","","","","100.33","","","","","","NA"
"-53.58","49.11","POOLS ISLAND","840BR7C","2020-03-28 09:30","2020","03","28","09:30","2.1","","-1.9","","75","","","","23","","34","","","","100.43","","","","","","NA"
"-53.58","49.11","POOLS ISLAND","840BR7C","2020-03-28 10:30","2020","03","28","10:30","1.2","","-1.6","","82","","","","21","","31","","","","100.46","","","","","","NA"
"-53.58","49.11","POOLS ISLAND","840BR7C","2020-03-28 11:30","2020","03","28","11:30","1.5","","-1.7","","80","","","","23","","31","","","","100.51","","","","","","NA"
"-53.58","49.11","POOLS ISLAND","840BR7C","2020-03-28 12:30","2020","03","28","12:30","3.1","","-2.3","","68","","","","25","","21","","","","100.57","","","","","","NA"
"-53.58","49.11","POOLS ISLAND","840BR7C","2020-03-28 13:30","2020","03","28","13:30","3.3","","-3.0","","64","","","","25","","33","","","","100.57","","","","","","NA"
"-53.58","49.11","POOLS ISLAND","840BR7C","2020-03-28 14:30","2020","03","28","14:30","3.0","","-2.8","","66","","","","25","","28","","","","100.68","","","","","","NA"
"-53.58","49.11","POOLS ISLAND","840BR7C","2020-03-28 15:30","2020","03","28","15:30","2.8","","-2.3","","69","","","","24","","21","","","","100.74","","","","","","NA"
"-53.58","49.11","POOLS ISLAND","840BR7C","2020-03-28 16:30","2020","03","28","16:30","3.3","","-2.7","","65","","","","25","","18","","","","100.77","","","","","","NA"
"-53.58","49.11","POOLS ISLAND","840BR7C","2020-03-28 17:30","2020","03","28","17:30","2.7","","-2.3","","70","","","","24","","13","","","","100.89","","","","","","NA"
"-53.58","49.11","POOLS ISLAND","840BR7C","2020-03-28 18:30","2020","03","28","18:30","2.9","","-2.6","","67","","","","27","","11","","","","100.95","","","","","","NA"
"-53.58","49.11","POOLS ISLAND","840BR7C","2020-03-28 19:30","2020","03","28","19:30","2.1","","-2.9","","70","","","","31","","11","","","","101.03","","","","","","NA"
"-53.58","49.11","POOLS ISLAND","840BR7C","2020-03-28 20:30","2020","03","28","20:30","1.8","","-2.8","","72","","","","32","","11","","","","101.13","","","","","","NA"
"-53.58","49.11","POOLS ISLAND","840BR7C","2020-03-28 21:30","2020","03","28","21:30","1.2","","-3.9","","69","","","","2","","22","","","","101.21","","","","","","NA"
"-53.58","49.11","POOLS ISLAND","840BR7C","2020-03-28 22:30","2020","03","28","22:30","0.7","","-3.7","","72","","","","1","","21","","","","101.26","","","","","","NA"
"-53.58","49.11","POOLS ISLAND","840BR7C","2020-03-28 23:30","2020","03","28","23:30","0.4","","-3.8","","73","","","","1","","27","","","","101.23","","","","","","NA"
"-53.58","49.11","POOLS ISLAND","840BR7C","2020-03-29 00:30","2020","03","29","00:30","0.3","","-3.9","","73","","","","1","","19","","","","101.31","","","","","","NA"
"-53.58","49.11","POOLS ISLAND","840BR7C","2020-03-29 01:30","2020","03","29","01:30","0.0","","-3.8","","75","","","","1","","26","","","","101.27","","","","-6","","NA"
"-53.58","49.11","POOLS ISLAND","840BR7C","2020-03-29 02:30","2020","03","29","02:30","-0.2","","-3.7","","77","","","","1","","26","","","","101.25","","","","-6","","NA"
"-53.58","49.11","POOLS ISLAND","840BR7C","2020-03-29 03:30","2020","03","29","03:30","-0.6","","-3.5","","81","","","","36","","31","","","","101.26","","","","-7","","NA"
"-53.58","49.11","POOLS ISLAND","840BR7C","2020-03-29 04:30","2020","03","29","04:30","-0.8","","-2.7","","87","","","","1","","28","","","","101.38","","","","-7","","NA"
"-53.58","49.11","POOLS ISLAND","840BR7C","2020-03-29 05:30","2020","03","29","05:30","-1.1","","-2.2","","92","","","","2","","34","","","","101.44","","","","-8","","NA"
"-53.58","49.11","POOLS ISLAND","840BR7C","2020-03-29 06:30","2020","03","29","06:30","-1.4","","-2.2","","95","","","","1","","33","","","","101.52","","","","-9","","NA"
"-53.58","49.11","POOLS ISLAND","840BR7C","2020-03-29 07:30","2020","03","29","07:30","-1.3","","-1.9","","96","","","","1","","40","","","","101.56","","","","-9","","NA"
"-53.58","49.11","POOLS ISLAND","840BR7C","2020-03-29 08:30","2020","03","29","08:30","-1.1","","-2.2","","92","","","","2","","48","","","","101.56","","","","-9","","NA"
"-53.58","49.11","POOLS ISLAND","840BR7C","2020-03-29 09:30","2020","03","29","09:30","-1.3","","-2.6","","91","","","","1","","51","","","","101.64","","","","-10","","NA"
"-53.58","49.11","POOLS ISLAND","840BR7C","2020-03-29 10:30","2020","03","29","10:30","-1.4","","-2.8","","90","","","","2","","47","","","","101.66","","","","-10","","NA"
"-53.58","49.11","POOLS ISLAND","840BR7C","2020-03-29 11:30","2020","03","29","11:30","-1.8","","-3.2","","90","","","","2","","49","","","","101.68","","","","-11","","NA"
"-53.58","49.11","POOLS ISLAND","840BR7C","2020-03-29 12:30","2020","03","29","12:30","-2.0","","-4.2","","85","","","","2","","50","","","","101.73","","","","-11","","NA"
"-53.58","49.11","POOLS ISLAND","840BR7C","2020-03-29 13:30","2020","03","29","13:30","-2.6","","-4.1","","90","","","","2","","45","","","","101.82","","","","-11","","NA"
"-53.58","49.11","POOLS ISLAND","840BR7C","2020-03-29 14:30","2020","03","29","14:30","-2.6","","-3.5","","93","","","","2","","44","","","","101.85","","","","-11","","NA"
"-53.58","49.11","POOLS ISLAND","840BR7C","2020-03-29 15:30","2020","03","29","15:30","-2.5","","-3.5","","92","","","","2","","48","","","","101.82","","","","-11","","NA"
"-53.58","49.11","POOLS ISLAND","840BR7C","2020-03-29 16:30","2020","03","29","16:30","-2.3","","-3.9","","89","","","","2","","45","","","","101.90","","","","-11","","NA"
"-53.58","49.11","POOLS ISLAND","840BR7C","2020-03-29 17:30","2020","03","29","17:30","-2.5","","-4.0","","89","","","","2","","49","","","","101.86","","","","-11","","NA"
"-53.58","49.11","POOLS ISLAND","840BR7C","2020-03-29 18:30","2020","03","29","18:30","-2.5","","-4.1","","88","","","","2","","44","","","","101.99","","","","-11","","NA"
"-53.58","49.11","POOLS ISLAND","840BR7C","2020-03-29 19:30","2020","03","29","19:30","-2.2","","-3.7","","89","","","","2","","40","","","","101.97","","","","-10","","NA"
"-53.58","49.11","POOLS ISLAND","840BR7C","2020-03-29 20:30","2020","03","29","20:30","-2.0","","-3.6","","89","","","","2","","47","","","","101.94","","","","-11","","NA"
"-53.58","49.11","POOLS ISLAND","840BR7C","2020-03-29 21:30","2020","03","29","21:30","-2.1","","-3.6","","89","","","","2","","48","","","","101.90","","","","-11","","NA"
"-53.58","49.11","POOLS ISLAND","840BR7C","2020-03-29 22:30","2020","03","29","22:30","-2.3","","-3.5","","92","","","","2","","49","","","","101.93","","","","-11","","NA"
"-53.58","49.11","POOLS ISLAND","840BR7C","2020-03-29 23:30","2020","03","29","23:30","-2.3","","-3.3","","93","","","","2","","45","","","","101.90","","","","-11","","NA"
"-53.58","49.11","POOLS ISLAND","840BR7C","2020-03-30 00:30","2020","03","30","00:30","-2.3","","-3.3","","93","","","","1","","49","","","","101.81","","","","-11","","NA"
"-53.58","49.11","POOLS ISLAND","840BR7C","2020-03-30 01:30","2020","03","30","01:30","-2.3","","-3.3","","94","","","","1","","52","","","","101.77","","","","-11","","NA"
"-53.58","49.11","POOLS ISLAND","840BR7C","2020-03-30 02:30","2020","03","30","02:30","-2.3","","-3.3","","93","","","","1","","52","","","","101.78","","","","-11","","NA"
"-53.58","49.11","POOLS ISLAND","840BR7C","2020-03-30 03:30","2020","03","30","03:30","-2.3","","-3.3","","93","","","","1","","52","","","","101.70","","","","-11","","NA"
"-53.58","49.11","POOLS ISLAND","840BR7C","2020-03-30 04:30","2020","03","30","04:30","-2.2","","-3.0","","94","","","","1","","52","","","","101.68","","","","-11","","NA"
"-53.58","49.11","POOLS ISLAND","840BR7C","2020-03-30 05:30","2020","03","30","05:30","-2.0","","-2.7","","95","","","","1","","50","","","","101.66","","","","-11","","NA"
"-53.58","49.11","POOLS ISLAND","840BR7C","2020-03-30 06:30","2020","03","30","06:30","-1.8","","-2.6","","94","","","","1","","50","","","","101.68","","","","-11","","NA"
"-53.58","49.11","POOLS ISLAND","840BR7C","2020-03-30 07:30","2020","03","30","07:30","-1.5","","-2.3","","94","","","","2","","52","","","","101.62","","","","-10","","NA"
"-53.58","49.11","POOLS ISLAND","840BR7C","2020-03-30 08:30","2020","03","30","08:30","-1.2","","-2.1","","93","","","","2","","52","","","","101.55","","","","-10","","NA"
"-53.58","49.11","POOLS ISLAND","840BR7C","2020-03-30 09:30","2020","03","30","09:30","-0.9","","-1.9","","93","","","","2","","48","","","","101.53","","","","-9","","NA"
"-53.58","49.11","POOLS ISLAND","840BR7C","2020-03-30 10:30","2020","03","30","10:30","-0.7","","-1.6","","94","","","","2","","46","","","","101.52","","","","-9","","NA"
"-53.58","49.11","POOLS ISLAND","840BR7C","2020-03-30 11:30","2020","03","30","11:30","-0.5","","-1.4","","94","","","","2","","47","","","","101.43","","","","-9","","NA"
"-53.58","49.11","POOLS ISLAND","840BR7C","2020-03-30 12:30","2020","03","30","12:30","-0.5","","-1.3","","94","","","","2","","41","","","","101.39","","","","-8","","NA"
"-53.58","49.11","POOLS ISLAND","840BR7C","2020-03-30 13:30","2020","03","30","13:30","-0.3","","-1.3","","93","","","","2","","49","","","","101.34","","","","-8","","NA"
"-53.58","49.11","POOLS ISLAND","840BR7C","2020-03-30 14:30","2020","03","30","14:30","-0.2","","-1.2","","93","","","","2","","51","","","","101.29","","","","-8","","NA"
"-53.58","49.11","POOLS ISLAND","840BR7C","2020-03-30 15:30","2020","03","30","15:30","-0.2","","-1.0","","94","","","","2","","47","","","","101.28","","","","-8","","NA"
"-53.58","49.11","POOLS ISLAND","840BR7C","2020-03-30 16:30","2020","03","30","16:30","-0.4","","-1.0","","95","","","","2","","40","","","","101.30","","","","-8","","NA"
"-53.58","49.11","POOLS ISLAND","840BR7C","2020-03-30 17:30","2020","03","30","17:30","-0.3","","-0.9","","95","","","","2","","31","","","","101.33","","","","-7","","NA"
"-53.58","49.11","POOLS ISLAND","840BR7C","2020-03-30 18:30","2020","03","30","18:30","-0.4","","-1.1","","95","","","","3","","22","","","","101.24","","","","-6","","NA"
"-53.58","49.11","POOLS ISLAND","840BR7C","2020-03-30 19:30","2020","03","30","19:30","-0.3","","-1.0","","95","","","","3","","11","","","","101.34","","","","-4","","NA"
"-53.58","49.11","POOLS ISLAND","840BR7C","2020-03-30 20:30","2020","03","30","20:30","-0.3","","-0.9","","96","","","","3","","7","","","","101.37","","","","-3","","NA"
"-53.58","49.11","POOLS ISLAND","840BR7C","2020-03-30 21:30","2020","03","30","21:30","-0.3","","-0.9","","96","","","","3","","33","","","","101.34","","","","-7","","NA"
"-53.58","49.11","POOLS ISLAND","840BR7C","2020-03-30 22:30","2020","03","30","22:30","-0.3","","-0.8","","96","","","","4","","17","","","","101.30","","","","-5","","NA"
"-53.58","49.11","POOLS ISLAND","840BR7C","2020-03-30 23:30","2020","03","30","23:30","-0.4","","-0.9","","96","","","","4","","10","","","","101.26","","","","-4","","NA"
"-53.58","49.11","POOLS ISLAND","840BR7C","2020-03-31 00:30","2020","03","31","00:30","-0.3","","-0.8","","97","","","","5","","8","","","","101.24","","","","-3","","NA"
"-53.58","49.11","POOLS ISLAND","840BR7C","2020-03-31 01:30","2020","03","31","01:30","-0.4","","-0.8","","97","","","","4","","6","","","","101.22","","","","-2","","NA"
"-53.58","49.11","POOLS ISLAND","840BR7C","2020-03-31 02:30","2020","03","31","02:30","-0.4","","-0.8","","97","","","","4","","4","","","","101.23","","","","-2","","NA"
"-53.58","49.11","POOLS ISLAND","840BR7C","2020-03-31 03:30","2020","03","31","03:30","-0.4","","-0.9","","97","","","","4","","3","","","","101.20","","","","-1","","NA"
"-53.58","49.11","POOLS ISLAND","840BR7C","2020-03-31 04:30","2020","03","31","04:30","-0.5","","-0.9","","97","","","","4","","3","","","","101.19","","","","-1","","NA"
"-53.58","49.11","POOLS ISLAND","840BR7C","2020-03-31 05:30","2020","03","31","05:30","-0.5","","-0.9","","97","","","","4","","2","","","","101.23","","","","-1","","NA"
"-53.58","49.11","POOLS ISLAND","840BR7C","2020-03-31 06:30","2020","03","31","06:30","-0.4","","-0.8","","97","","","","4","","2","","","","101.28","","","","-1","","NA"
"-53.58","49.11","POOLS ISLAND","840BR7C","2020-03-31 07:30","2020","03","31","07:30","0.0","","-0.4","","97","","","","4","","1","","","","101.33","","","","0","","NA"
"-53.58","49.11","POOLS ISLAND","840BR7C","2020-03-31 08:30","2020","03","31","08:30","0.7","","0.2","","97","","","","4","","2","","","","101.34","","","","","","NA"
"-53.58","49.11","POOLS ISLAND","840BR7C","2020-03-31 09:30","2020","03","31","09:30","1.1","","0.7","","97","","","","4","","2","","","","101.35","","","","","","NA"
"-53.58","49.11","POOLS ISLAND","840BR7C","2020-03-31 10:30","2020","03","31","10:30","1.3","","0.8","","97","","","","3","","3","","","","101.39","","","","","","NA"
"-53.58","49.11","POOLS ISLAND","840BR7C","2020-03-31 11:30","2020","03","31","11:30","1.1","","0.7","","97","","","","1","","3","","","","101.32","","","","","","NA"
"-53.58","49.11","POOLS ISLAND","840BR7C","2020-03-31 12:30","2020","03","31","12:30","1.7","","1.2","","96","","","","","","","M","","","101.30","","","","","","NA"
"-53.58","49.11","POOLS ISLAND","840BR7C","2020-03-31 13:30","2020","03","31","13:30","0.5","","0.0","","97","","","","","","","M","","","101.34","","","","","","NA"
"-53.58","49.11","POOLS ISLAND","840BR7C","2020-03-31 14:30","2020","03","31","14:30","1.0","","0.5","","97","","","","","","","M","","","101.35","","","","","","NA"
"-53.58","49.11","POOLS ISLAND","840BR7C","2020-03-31 15:30","2020","03","31","15:30","0.8","","0.3","","96","","","","","","","M","","","101.38","","","","","","NA"
"-53.58","49.11","POOLS ISLAND","840BR7C","2020-03-31 16:30","2020","03","31","16:30","0.1","","-0.3","","97","","","","","","","M","","","101.45","","","","","","NA"
"-53.58","49.11","POOLS ISLAND","840BR7C","2020-03-31 17:30","2020","03","31","17:30","0.2","","-0.2","","97","","","","","","","M","","","101.49","","","","","","NA"
"-53.58","49.11","POOLS ISLAND","840BR7C","2020-03-31 18:30","2020","03","31","18:30","-0.2","","-0.6","","97","","","","","","","M","","","101.54","","","","","","NA"
"-53.58","49.11","POOLS ISLAND","840BR7C","2020-03-31 19:30","2020","03","31","19:30","-0.1","","-0.5","","97","","","","","","","M","","","101.60","","","","","","NA"
"-53.58","49.11","POOLS ISLAND","840BR7C","2020-03-31 20:30","2020","03","31","20:30","-0.1","","-0.4","","97","","","","","","","M","","","101.63","","","","","","NA"
"-53.58","49.11","POOLS ISLAND","840BR7C","2020-03-31 21:30","2020","03","31","21:30","0.2","","-0.2","","97","","","","","","","M","","","101.67","","","","","","NA"
"-53.58","49.11","POOLS ISLAND","840BR7C","2020-03-31 22:30","2020","03","31","22:30","0.5","","0.1","","97","","","","","","","M","","","101.70","","","","","","NA"
"-53.58","49.11","POOLS ISLAND","840BR7C","2020-03-31 23:30","2020","03","31","23:30","0.6","","0.2","","97","","","","","","","M","","","101.72","","","","","","NA"
