"Longitude (x)","Latitude (y)","Station Name","Climate ID","Date/Time (LST)","Year","Month","Day","Time (LST)","Temp (°C)","Temp Flag","Dew Point Temp (°C)","Dew Point Temp Flag","Rel Hum (%)","Rel Hum Flag","Precip. Amount (mm)","Precip. Amount Flag","Wind Dir (10s deg)","Wind Dir Flag","Wind Spd (km/h)","Wind Spd Flag","Visibility (km)","Visibility Flag","Stn Press (kPa)","Stn Press Flag","Hmdx","Hmdx Flag","Wind Chill","Wind Chill Flag","Weather"
"-67.38","49.32","POINTE-DES-MONTS","704F0PN","2021-02-01 00:00","2021","02","01","00:00","-8.3","","-10.4","","84","","0.0","","31","","9","","","","102.63","","","","-13","","NA"
"-67.38","49.32","POINTE-DES-MONTS","704F0PN","2021-02-01 01:00","2021","02","01","01:00","-9.4","","-12.1","","81","","0.0","","33","","9","","","","102.67","","","","-14","","NA"
"-67.38","49.32","POINTE-DES-MONTS","704F0PN","2021-02-01 02:00","2021","02","01","02:00","-9.9","","-13.1","","77","","0.0","","34","","11","","","","102.72","","","","-15","","NA"
"-67.38","49.32","POINTE-DES-MONTS","704F0PN","2021-02-01 03:00","2021","02","01","03:00","-9.9","","-13.9","","73","","0.0","","34","","12","","","","102.73","","","","-16","","NA"
"-67.38","49.32","POINTE-DES-MONTS","704F0PN","2021-02-01 04:00","2021","02","01","04:00","-11.0","","-14.9","","73","","0.0","","34","","10","","","","102.75","","","","-16","","NA"
"-67.38","49.32","POINTE-DES-MONTS","704F0PN","2021-02-01 05:00","2021","02","01","05:00","-11.2","","-15.6","","70","","0.0","","35","","11","","","","102.74","","","","-17","","NA"
"-67.38","49.32","POINTE-DES-MONTS","704F0PN","2021-02-01 06:00","2021","02","01","06:00","-11.6","","-16.0","","70","","0.0","","34","","12","","","","102.77","","","","-18","","NA"
"-67.38","49.32","POINTE-DES-MONTS","704F0PN","2021-02-01 07:00","2021","02","01","07:00","-11.6","","-16.4","","68","","0.0","","35","","12","","","","102.81","","","","-18","","NA"
"-67.38","49.32","POINTE-DES-MONTS","704F0PN","2021-02-01 08:00","2021","02","01","08:00","-10.5","","-16.0","","64","","0.0","","34","","11","","","","102.85","","","","-16","","NA"
"-67.38","49.32","POINTE-DES-MONTS","704F0PN","2021-02-01 09:00","2021","02","01","09:00","-6.7","","-14.1","","56","","0.0","","35","","5","","","","102.85","","","","-9","","NA"
"-67.38","49.32","POINTE-DES-MONTS","704F0PN","2021-02-01 10:00","2021","02","01","10:00","-4.7","","-14.2","","47","","0.0","","7","","6","","","","102.88","","","","-7","","NA"
"-67.38","49.32","POINTE-DES-MONTS","704F0PN","2021-02-01 11:00","2021","02","01","11:00","-4.2","","-14.1","","46","","0.0","","10","","6","","","","102.87","","","","-7","","NA"
"-67.38","49.32","POINTE-DES-MONTS","704F0PN","2021-02-01 12:00","2021","02","01","12:00","-4.2","","-12.9","","51","","0.0","","21","","7","","","","102.84","","","","-7","","NA"
"-67.38","49.32","POINTE-DES-MONTS","704F0PN","2021-02-01 13:00","2021","02","01","13:00","-4.6","","-10.4","","64","","0.0","","23","","12","","","","102.84","","","","-9","","NA"
"-67.38","49.32","POINTE-DES-MONTS","704F0PN","2021-02-01 14:00","2021","02","01","14:00","-4.5","","-9.4","","69","","0.0","","22","","10","","","","102.82","","","","-9","","NA"
"-67.38","49.32","POINTE-DES-MONTS","704F0PN","2021-02-01 15:00","2021","02","01","15:00","-4.6","","-8.9","","72","","0.1","","22","","10","","","","102.83","","","","-9","","NA"
"-67.38","49.32","POINTE-DES-MONTS","704F0PN","2021-02-01 16:00","2021","02","01","16:00","-4.9","","-9.0","","73","","0.0","","24","","6","","","","102.80","","","","-8","","NA"
"-67.38","49.32","POINTE-DES-MONTS","704F0PN","2021-02-01 17:00","2021","02","01","17:00","-6.6","","-9.4","","81","","0.0","","","","0","","","","102.81","","","","","","NA"
"-67.38","49.32","POINTE-DES-MONTS","704F0PN","2021-02-01 18:00","2021","02","01","18:00","-7.9","","-10.0","","84","","0.0","","32","","2","","","","102.81","","","","-9","","NA"
"-67.38","49.32","POINTE-DES-MONTS","704F0PN","2021-02-01 19:00","2021","02","01","19:00","-8.7","","-10.6","","86","","0.0","","30","","2","","","","102.91","","","","-10","","NA"
"-67.38","49.32","POINTE-DES-MONTS","704F0PN","2021-02-01 20:00","2021","02","01","20:00","-8.4","","-10.3","","86","","0.0","","34","","7","","","","102.92","","","","-12","","NA"
"-67.38","49.32","POINTE-DES-MONTS","704F0PN","2021-02-01 21:00","2021","02","01","21:00","-9.6","","-11.8","","84","","0.0","","34","","10","","","","102.87","","","","-15","","NA"
"-67.38","49.32","POINTE-DES-MONTS","704F0PN","2021-02-01 22:00","2021","02","01","22:00","-9.3","","-11.8","","82","","0.0","","35","","13","","","","102.84","","","","-15","","NA"
"-67.38","49.32","POINTE-DES-MONTS","704F0PN","2021-02-01 23:00","2021","02","01","23:00","-8.9","","-11.0","","85","","0.0","","36","","13","","","","102.80","","","","-15","","NA"
"-67.38","49.32","POINTE-DES-MONTS","704F0PN","2021-02-02 00:00","2021","02","02","00:00","-8.9","","-12.4","","75","","0.0","","1","","13","","","","102.78","","","","-15","","NA"
"-67.38","49.32","POINTE-DES-MONTS","704F0PN","2021-02-02 01:00","2021","02","02","01:00","-8.4","","-13.2","","68","","0.0","","1","","14","","","","102.78","","","","-15","","NA"
"-67.38","49.32","POINTE-DES-MONTS","704F0PN","2021-02-02 02:00","2021","02","02","02:00","-7.9","","-13.1","","66","","0.0","","2","","13","","","","102.78","","","","-14","","NA"
"-67.38","49.32","POINTE-DES-MONTS","704F0PN","2021-02-02 03:00","2021","02","02","03:00","-7.6","","-12.2","","70","","0.0","","2","","16","","","","102.75","","","","-14","","NA"
"-67.38","49.32","POINTE-DES-MONTS","704F0PN","2021-02-02 04:00","2021","02","02","04:00","-7.2","","-10.6","","77","","0.0","","3","","20","","","","102.69","","","","-14","","NA"
"-67.38","49.32","POINTE-DES-MONTS","704F0PN","2021-02-02 05:00","2021","02","02","05:00","-6.7","","-9.4","","81","","0.0","","2","","17","","","","102.67","","","","-13","","NA"
"-67.38","49.32","POINTE-DES-MONTS","704F0PN","2021-02-02 06:00","2021","02","02","06:00","-6.1","","-8.7","","82","","0.0","","3","","22","","","","102.66","","","","-13","","NA"
"-67.38","49.32","POINTE-DES-MONTS","704F0PN","2021-02-02 07:00","2021","02","02","07:00","-6.3","","-9.1","","81","","0.0","","3","","20","","","","102.64","","","","-13","","NA"
"-67.38","49.32","POINTE-DES-MONTS","704F0PN","2021-02-02 08:00","2021","02","02","08:00","-5.4","","-8.7","","77","","0.0","","3","","27","","","","102.61","","","","-13","","NA"
"-67.38","49.32","POINTE-DES-MONTS","704F0PN","2021-02-02 09:00","2021","02","02","09:00","-4.3","","-8.8","","71","","0.0","","3","","28","","","","102.60","","","","-12","","NA"
"-67.38","49.32","POINTE-DES-MONTS","704F0PN","2021-02-02 10:00","2021","02","02","10:00","-3.9","","-8.0","","73","","0.0","","4","","31","","","","102.50","","","","-12","","NA"
"-67.38","49.32","POINTE-DES-MONTS","704F0PN","2021-02-02 11:00","2021","02","02","11:00","-3.3","","-7.1","","75","","0.0","","4","","38","","","","102.42","","","","-12","","NA"
"-67.38","49.32","POINTE-DES-MONTS","704F0PN","2021-02-02 12:00","2021","02","02","12:00","-2.5","","-5.9","","77","","0.0","","4","","43","","","","102.29","","","","-11","","NA"
"-67.38","49.32","POINTE-DES-MONTS","704F0PN","2021-02-02 13:00","2021","02","02","13:00","-2.9","","-5.8","","80","","0.0","","4","","42","","","","102.18","","","","-11","","NA"
"-67.38","49.32","POINTE-DES-MONTS","704F0PN","2021-02-02 14:00","2021","02","02","14:00","-2.9","","-5.2","","84","","0.0","","4","","37","","","","102.15","","","","-11","","NA"
"-67.38","49.32","POINTE-DES-MONTS","704F0PN","2021-02-02 15:00","2021","02","02","15:00","-2.3","","-4.4","","86","","0.0","","4","","49","","","","102.07","","","","-11","","NA"
"-67.38","49.32","POINTE-DES-MONTS","704F0PN","2021-02-02 16:00","2021","02","02","16:00","-2.3","","-4.1","","87","","0.0","","4","","53","","","","102.00","","","","-11","","NA"
"-67.38","49.32","POINTE-DES-MONTS","704F0PN","2021-02-02 17:00","2021","02","02","17:00","-2.1","","-3.9","","88","","0.0","","4","","52","","","","101.87","","","","-11","","NA"
"-67.38","49.32","POINTE-DES-MONTS","704F0PN","2021-02-02 18:00","2021","02","02","18:00","-2.8","","-3.3","","96","","0.3","","4","","46","","","","101.76","","","","-12","","NA"
"-67.38","49.32","POINTE-DES-MONTS","704F0PN","2021-02-02 19:00","2021","02","02","19:00","-2.4","","-2.7","","98","","0.9","","4","","48","","","","101.63","","","","-11","","NA"
"-67.38","49.32","POINTE-DES-MONTS","704F0PN","2021-02-02 20:00","2021","02","02","20:00","-2.5","","-2.8","","98","","1.7","","4","","51","","","","101.55","","","","-12","","NA"
"-67.38","49.32","POINTE-DES-MONTS","704F0PN","2021-02-02 21:00","2021","02","02","21:00","-3.1","","-3.4","","98","","2.4","","4","","48","","","","101.39","","","","-12","","NA"
"-67.38","49.32","POINTE-DES-MONTS","704F0PN","2021-02-02 22:00","2021","02","02","22:00","-3.4","","-3.8","","97","","3.7","","4","","45","","","","101.15","","","","-12","","NA"
"-67.38","49.32","POINTE-DES-MONTS","704F0PN","2021-02-02 23:00","2021","02","02","23:00","-3.0","","-3.3","","98","","1.9","","4","","54","","","","100.95","","","","-13","","NA"
"-67.38","49.32","POINTE-DES-MONTS","704F0PN","2021-02-03 00:00","2021","02","03","00:00","-2.9","","-3.2","","98","","3.0","","4","","50","","","","100.72","","","","-12","","NA"
"-67.38","49.32","POINTE-DES-MONTS","704F0PN","2021-02-03 01:00","2021","02","03","01:00","-1.9","","-2.1","","99","","3.3","","5","","64","","","","100.69","","","","-12","","NA"
"-67.38","49.32","POINTE-DES-MONTS","704F0PN","2021-02-03 02:00","2021","02","03","02:00","-2.0","","-2.2","","99","","1.1","","5","","62","","","","100.53","","","","-12","","NA"
"-67.38","49.32","POINTE-DES-MONTS","704F0PN","2021-02-03 03:00","2021","02","03","03:00","-2.0","","-2.2","","99","","2.0","","4","","60","","","","100.36","","","","-12","","NA"
"-67.38","49.32","POINTE-DES-MONTS","704F0PN","2021-02-03 04:00","2021","02","03","04:00","-1.6","","-1.7","","99","","0.9","","4","","56","","","","100.21","","","","-11","","NA"
"-67.38","49.32","POINTE-DES-MONTS","704F0PN","2021-02-03 05:00","2021","02","03","05:00","-1.4","","-1.5","","99","","1.0","","4","","65","","","","100.04","","","","-11","","NA"
"-67.38","49.32","POINTE-DES-MONTS","704F0PN","2021-02-03 06:00","2021","02","03","06:00","-1.3","","-1.4","","99","","1.3","","5","","64","","","","99.99","","","","-11","","NA"
"-67.38","49.32","POINTE-DES-MONTS","704F0PN","2021-02-03 07:00","2021","02","03","07:00","-1.3","","-1.3","","99","","1.5","","4","","52","","","","99.91","","","","-10","","NA"
"-67.38","49.32","POINTE-DES-MONTS","704F0PN","2021-02-03 08:00","2021","02","03","08:00","-1.2","","-1.3","","99","","1.5","","4","","46","","","","99.84","","","","-9","","NA"
"-67.38","49.32","POINTE-DES-MONTS","704F0PN","2021-02-03 09:00","2021","02","03","09:00","-1.2","","-1.3","","99","","1.3","","4","","38","","","","99.77","","","","-9","","NA"
"-67.38","49.32","POINTE-DES-MONTS","704F0PN","2021-02-03 10:00","2021","02","03","10:00","-1.1","","-1.3","","99","","1.5","","4","","37","","","","99.73","","","","-9","","NA"
"-67.38","49.32","POINTE-DES-MONTS","704F0PN","2021-02-03 11:00","2021","02","03","11:00","-1.2","","-1.4","","99","","0.8","","4","","32","","","","99.65","","","","-8","","NA"
"-67.38","49.32","POINTE-DES-MONTS","704F0PN","2021-02-03 12:00","2021","02","03","12:00","-1.3","","-1.5","","99","","1.0","","3","","29","","","","99.57","","","","-8","","NA"
"-67.38","49.32","POINTE-DES-MONTS","704F0PN","2021-02-03 13:00","2021","02","03","13:00","-1.3","","-1.4","","99","","1.1","","3","","26","","","","99.53","","","","-8","","NA"
"-67.38","49.32","POINTE-DES-MONTS","704F0PN","2021-02-03 14:00","2021","02","03","14:00","-1.1","","-1.3","","98","","0.6","","2","","23","","","","99.57","","","","-7","","NA"
"-67.38","49.32","POINTE-DES-MONTS","704F0PN","2021-02-03 15:00","2021","02","03","15:00","-1.1","","-1.3","","99","","0.2","","2","","22","","","","99.66","","","","-7","","NA"
"-67.38","49.32","POINTE-DES-MONTS","704F0PN","2021-02-03 16:00","2021","02","03","16:00","-1.2","","-1.3","","99","","0.1","","2","","20","","","","99.72","","","","-7","","NA"
"-67.38","49.32","POINTE-DES-MONTS","704F0PN","2021-02-03 17:00","2021","02","03","17:00","-1.4","","-1.6","","99","","0.1","","2","","18","","","","99.77","","","","-7","","NA"
"-67.38","49.32","POINTE-DES-MONTS","704F0PN","2021-02-03 18:00","2021","02","03","18:00","-1.6","","-1.8","","99","","0.0","","3","","16","","","","99.79","","","","-7","","NA"
"-67.38","49.32","POINTE-DES-MONTS","704F0PN","2021-02-03 19:00","2021","02","03","19:00","-1.9","","-2.1","","99","","0.0","","2","","17","","","","99.81","","","","-7","","NA"
"-67.38","49.32","POINTE-DES-MONTS","704F0PN","2021-02-03 20:00","2021","02","03","20:00","-2.2","","-2.4","","99","","0.1","","2","","12","","","","99.83","","","","-6","","NA"
"-67.38","49.32","POINTE-DES-MONTS","704F0PN","2021-02-03 21:00","2021","02","03","21:00","-2.4","","-2.7","","98","","0.1","","3","","11","","","","99.84","","","","-6","","NA"
"-67.38","49.32","POINTE-DES-MONTS","704F0PN","2021-02-03 22:00","2021","02","03","22:00","-2.5","","-2.8","","98","","0.0","","2","","12","","","","99.87","","","","-7","","NA"
"-67.38","49.32","POINTE-DES-MONTS","704F0PN","2021-02-03 23:00","2021","02","03","23:00","-2.7","","-2.9","","98","","0.0","","2","","10","","","","99.90","","","","-7","","NA"
"-67.38","49.32","POINTE-DES-MONTS","704F0PN","2021-02-04 00:00","2021","02","04","00:00","-2.8","","-3.1","","98","","0.0","","2","","10","","","","99.91","","","","-7","","NA"
"-67.38","49.32","POINTE-DES-MONTS","704F0PN","2021-02-04 01:00","2021","02","04","01:00","-3.0","","-3.4","","97","","0.0","","2","","8","","","","99.95","","","","-6","","NA"
"-67.38","49.32","POINTE-DES-MONTS","704F0PN","2021-02-04 02:00","2021","02","04","02:00","-3.1","","-3.5","","97","","0.0","","1","","6","","","","100.01","","","","-6","","NA"
"-67.38","49.32","POINTE-DES-MONTS","704F0PN","2021-02-04 03:00","2021","02","04","03:00","-3.3","","-3.7","","97","","0.2","","2","","8","","","","100.05","","","","-7","","NA"
"-67.38","49.32","POINTE-DES-MONTS","704F0PN","2021-02-04 04:00","2021","02","04","04:00","-3.6","","-4.0","","97","","0.1","","2","","9","","","","100.10","","","","-7","","NA"
"-67.38","49.32","POINTE-DES-MONTS","704F0PN","2021-02-04 05:00","2021","02","04","05:00","-3.8","","-4.2","","97","","0.0","","2","","7","","","","100.16","","","","-7","","NA"
"-67.38","49.32","POINTE-DES-MONTS","704F0PN","2021-02-04 06:00","2021","02","04","06:00","-4.0","","-4.5","","96","","0.0","","1","","7","","","","100.23","","","","-7","","NA"
"-67.38","49.32","POINTE-DES-MONTS","704F0PN","2021-02-04 07:00","2021","02","04","07:00","-4.2","","-4.8","","96","","0.0","","36","","5","","","","100.28","","","","-6","","NA"
"-67.38","49.32","POINTE-DES-MONTS","704F0PN","2021-02-04 08:00","2021","02","04","08:00","-4.2","","-4.9","","95","","0.0","","36","","8","","","","100.33","","","","-8","","NA"
"-67.38","49.32","POINTE-DES-MONTS","704F0PN","2021-02-04 09:00","2021","02","04","09:00","-3.5","","-4.4","","94","","0.0","","1","","8","","","","100.37","","","","-7","","NA"
"-67.38","49.32","POINTE-DES-MONTS","704F0PN","2021-02-04 10:00","2021","02","04","10:00","-2.9","","-3.9","","93","","0.0","","2","","12","","","","100.43","","","","-7","","NA"
"-67.38","49.32","POINTE-DES-MONTS","704F0PN","2021-02-04 11:00","2021","02","04","11:00","-2.3","","-3.6","","91","","0.0","","4","","14","","","","100.45","","","","-7","","NA"
"-67.38","49.32","POINTE-DES-MONTS","704F0PN","2021-02-04 12:00","2021","02","04","12:00","-1.4","","-2.9","","90","","0.0","","3","","10","","","","100.44","","","","-5","","NA"
"-67.38","49.32","POINTE-DES-MONTS","704F0PN","2021-02-04 13:00","2021","02","04","13:00","-1.7","","-3.4","","88","","0.0","","5","","16","","","","100.45","","","","-7","","NA"
"-67.38","49.32","POINTE-DES-MONTS","704F0PN","2021-02-04 14:00","2021","02","04","14:00","-1.6","","-3.6","","86","","0.0","","5","","14","","","","100.50","","","","-6","","NA"
"-67.38","49.32","POINTE-DES-MONTS","704F0PN","2021-02-04 15:00","2021","02","04","15:00","-1.4","","-3.2","","87","","0.0","","6","","12","","","","100.53","","","","-5","","NA"
"-67.38","49.32","POINTE-DES-MONTS","704F0PN","2021-02-04 16:00","2021","02","04","16:00","-1.7","","-2.8","","92","","0.0","","34","","2","","","","100.58","","","","-2","","NA"
"-67.38","49.32","POINTE-DES-MONTS","704F0PN","2021-02-04 17:00","2021","02","04","17:00","-1.8","","-2.6","","94","","0.0","","27","","7","","","","100.64","","","","-4","","NA"
"-67.38","49.32","POINTE-DES-MONTS","704F0PN","2021-02-04 18:00","2021","02","04","18:00","-1.7","","-2.8","","92","","0.0","","25","","16","","","","100.63","","","","-7","","NA"
"-67.38","49.32","POINTE-DES-MONTS","704F0PN","2021-02-04 19:00","2021","02","04","19:00","-1.6","","-2.7","","92","","0.0","","25","","17","","","","100.63","","","","-7","","NA"
"-67.38","49.32","POINTE-DES-MONTS","704F0PN","2021-02-04 20:00","2021","02","04","20:00","-1.6","","-2.5","","94","","0.0","","26","","11","","","","100.62","","","","-5","","NA"
"-67.38","49.32","POINTE-DES-MONTS","704F0PN","2021-02-04 21:00","2021","02","04","21:00","-2.1","","-3.1","","93","","0.0","","28","","7","","","","100.60","","","","-5","","NA"
"-67.38","49.32","POINTE-DES-MONTS","704F0PN","2021-02-04 22:00","2021","02","04","22:00","-2.5","","-3.5","","93","","0.0","","28","","4","","","","100.58","","","","-4","","NA"
"-67.38","49.32","POINTE-DES-MONTS","704F0PN","2021-02-04 23:00","2021","02","04","23:00","-2.7","","-3.6","","94","","0.0","","36","","3","","","","100.57","","","","-4","","NA"
"-67.38","49.32","POINTE-DES-MONTS","704F0PN","2021-02-05 00:00","2021","02","05","00:00","-2.2","","-3.2","","93","","0.0","","34","","8","","","","100.56","","","","-5","","NA"
"-67.38","49.32","POINTE-DES-MONTS","704F0PN","2021-02-05 01:00","2021","02","05","01:00","-2.1","","-2.9","","94","","0.0","","33","","6","","","","100.56","","","","-4","","NA"
"-67.38","49.32","POINTE-DES-MONTS","704F0PN","2021-02-05 02:00","2021","02","05","02:00","-1.9","","-2.4","","96","","0.0","","33","","6","","","","100.57","","","","-4","","NA"
"-67.38","49.32","POINTE-DES-MONTS","704F0PN","2021-02-05 03:00","2021","02","05","03:00","-1.8","","-2.4","","96","","0.0","","33","","6","","","","100.54","","","","-4","","NA"
"-67.38","49.32","POINTE-DES-MONTS","704F0PN","2021-02-05 04:00","2021","02","05","04:00","-1.6","","-2.1","","97","","0.0","","32","","6","","","","100.55","","","","-4","","NA"
"-67.38","49.32","POINTE-DES-MONTS","704F0PN","2021-02-05 05:00","2021","02","05","05:00","-1.4","","-1.9","","97","","0.0","","26","","10","","","","100.56","","","","-5","","NA"
"-67.38","49.32","POINTE-DES-MONTS","704F0PN","2021-02-05 06:00","2021","02","05","06:00","-1.3","","-1.5","","98","","0.2","","26","","11","","","","100.57","","","","-5","","NA"
"-67.38","49.32","POINTE-DES-MONTS","704F0PN","2021-02-05 07:00","2021","02","05","07:00","-1.7","","-1.9","","98","","0.1","","27","","7","","","","100.58","","","","-4","","NA"
"-67.38","49.32","POINTE-DES-MONTS","704F0PN","2021-02-05 08:00","2021","02","05","08:00","-1.4","","-1.7","","97","","0.0","","27","","7","","","","100.59","","","","-4","","NA"
"-67.38","49.32","POINTE-DES-MONTS","704F0PN","2021-02-05 09:00","2021","02","05","09:00","-1.2","","-1.6","","97","","0.0","","25","","10","","","","100.59","","","","-5","","NA"
"-67.38","49.32","POINTE-DES-MONTS","704F0PN","2021-02-05 10:00","2021","02","05","10:00","-1.3","","-1.7","","97","","0.0","","24","","14","","","","100.60","","","","-6","","NA"
"-67.38","49.32","POINTE-DES-MONTS","704F0PN","2021-02-05 11:00","2021","02","05","11:00","-1.6","","-2.1","","96","","0.1","","23","","17","","","","100.57","","","","-7","","NA"
"-67.38","49.32","POINTE-DES-MONTS","704F0PN","2021-02-05 12:00","2021","02","05","12:00","-1.5","","-2.4","","93","","0.0","","26","","14","","","","100.53","","","","-6","","NA"
"-67.38","49.32","POINTE-DES-MONTS","704F0PN","2021-02-05 13:00","2021","02","05","13:00","-1.5","","-2.5","","93","","0.0","","24","","14","","","","100.51","","","","-6","","NA"
"-67.38","49.32","POINTE-DES-MONTS","704F0PN","2021-02-05 14:00","2021","02","05","14:00","-1.3","","-2.5","","92","","0.0","","24","","9","","","","100.53","","","","-5","","NA"
"-67.38","49.32","POINTE-DES-MONTS","704F0PN","2021-02-05 15:00","2021","02","05","15:00","-1.5","","-2.6","","93","","0.0","","25","","8","","","","100.57","","","","-5","","NA"
"-67.38","49.32","POINTE-DES-MONTS","704F0PN","2021-02-05 16:00","2021","02","05","16:00","-1.1","","-1.7","","95","","0.0","","4","","10","","","","100.50","","","","-5","","NA"
"-67.38","49.32","POINTE-DES-MONTS","704F0PN","2021-02-05 17:00","2021","02","05","17:00","-1.1","","-1.6","","96","","0.0","","4","","14","","","","100.52","","","","-6","","NA"
"-67.38","49.32","POINTE-DES-MONTS","704F0PN","2021-02-05 18:00","2021","02","05","18:00","-1.0","","-1.2","","98","","0.0","","4","","12","","","","100.55","","","","-5","","NA"
"-67.38","49.32","POINTE-DES-MONTS","704F0PN","2021-02-05 19:00","2021","02","05","19:00","-0.9","","-1.0","","99","","0.0","","6","","14","","","","100.57","","","","-5","","NA"
"-67.38","49.32","POINTE-DES-MONTS","704F0PN","2021-02-05 20:00","2021","02","05","20:00","-1.1","","-1.4","","98","","0.0","","8","","11","","","","100.58","","","","-5","","NA"
"-67.38","49.32","POINTE-DES-MONTS","704F0PN","2021-02-05 21:00","2021","02","05","21:00","-1.3","","-1.6","","98","","0.0","","5","","8","","","","100.55","","","","-4","","NA"
"-67.38","49.32","POINTE-DES-MONTS","704F0PN","2021-02-05 22:00","2021","02","05","22:00","-1.3","","-2.0","","95","","0.1","","20","","13","","","","100.56","","","","-6","","NA"
"-67.38","49.32","POINTE-DES-MONTS","704F0PN","2021-02-05 23:00","2021","02","05","23:00","-1.5","","-2.0","","96","","0.1","","26","","5","","","","100.54","","","","-3","","NA"
"-67.38","49.32","POINTE-DES-MONTS","704F0PN","2021-02-06 00:00","2021","02","06","00:00","-1.7","","-2.2","","96","","0.0","","28","","1","","","","100.50","","","","-2","","NA"
"-67.38","49.32","POINTE-DES-MONTS","704F0PN","2021-02-06 01:00","2021","02","06","01:00","-1.8","","-2.3","","96","","0.0","","3","","8","","","","100.46","","","","-5","","NA"
"-67.38","49.32","POINTE-DES-MONTS","704F0PN","2021-02-06 02:00","2021","02","06","02:00","-1.9","","-2.5","","96","","0.0","","1","","9","","","","100.42","","","","-5","","NA"
"-67.38","49.32","POINTE-DES-MONTS","704F0PN","2021-02-06 03:00","2021","02","06","03:00","-1.9","","-2.6","","95","","0.0","","1","","9","","","","100.36","","","","-5","","NA"
"-67.38","49.32","POINTE-DES-MONTS","704F0PN","2021-02-06 04:00","2021","02","06","04:00","-1.8","","-2.4","","96","","0.0","","2","","12","","","","100.27","","","","-6","","NA"
"-67.38","49.32","POINTE-DES-MONTS","704F0PN","2021-02-06 05:00","2021","02","06","05:00","-1.6","","-2.2","","96","","0.0","","1","","10","","","","100.20","","","","-5","","NA"
"-67.38","49.32","POINTE-DES-MONTS","704F0PN","2021-02-06 06:00","2021","02","06","06:00","-1.4","","-2.0","","96","","0.0","","2","","13","","","","100.15","","","","-6","","NA"
"-67.38","49.32","POINTE-DES-MONTS","704F0PN","2021-02-06 07:00","2021","02","06","07:00","-1.1","","-1.6","","96","","0.0","","1","","11","","","","100.08","","","","-5","","NA"
"-67.38","49.32","POINTE-DES-MONTS","704F0PN","2021-02-06 08:00","2021","02","06","08:00","-0.8","","-1.4","","96","","0.0","","2","","9","","","","100.03","","","","-4","","NA"
"-67.38","49.32","POINTE-DES-MONTS","704F0PN","2021-02-06 09:00","2021","02","06","09:00","-0.7","","-1.1","","97","","0.3","","3","","5","","","","99.99","","","","-2","","NA"
"-67.38","49.32","POINTE-DES-MONTS","704F0PN","2021-02-06 10:00","2021","02","06","10:00","-0.7","","-1.1","","97","","1.3","","4","","2","","","","99.94","","","","-1","","NA"
"-67.38","49.32","POINTE-DES-MONTS","704F0PN","2021-02-06 11:00","2021","02","06","11:00","-1.1","","-1.4","","98","","1.7","","26","","16","","","","99.90","","","","-6","","NA"
"-67.38","49.32","POINTE-DES-MONTS","704F0PN","2021-02-06 12:00","2021","02","06","12:00","-1.2","","-1.4","","98","","0.8","","25","","34","","","","99.82","","","","-8","","NA"
"-67.38","49.32","POINTE-DES-MONTS","704F0PN","2021-02-06 13:00","2021","02","06","13:00","-2.8","","-3.1","","97","","0.4","","25","","60","","","","99.80","","","","-13","","NA"
"-67.38","49.32","POINTE-DES-MONTS","704F0PN","2021-02-06 14:00","2021","02","06","14:00","-2.7","","-3.3","","95","","0.0","","25","","56","","","","99.85","","","","-12","","NA"
"-67.38","49.32","POINTE-DES-MONTS","704F0PN","2021-02-06 15:00","2021","02","06","15:00","-2.4","","-4.5","","86","","0.0","","24","","59","","","","99.89","","","","-12","","NA"
"-67.38","49.32","POINTE-DES-MONTS","704F0PN","2021-02-06 16:00","2021","02","06","16:00","-2.5","","-5.6","","79","","0.0","","25","","61","","","","99.92","","","","-12","","NA"
"-67.38","49.32","POINTE-DES-MONTS","704F0PN","2021-02-06 17:00","2021","02","06","17:00","-1.9","","-5.8","","75","","0.0","","25","","56","","","","99.99","","","","-11","","NA"
"-67.38","49.32","POINTE-DES-MONTS","704F0PN","2021-02-06 18:00","2021","02","06","18:00","-2.6","","-6.6","","74","","0.0","","26","","60","","","","100.09","","","","-12","","NA"
"-67.38","49.32","POINTE-DES-MONTS","704F0PN","2021-02-06 19:00","2021","02","06","19:00","-2.7","","-7.2","","71","","0.0","","26","","62","","","","100.18","","","","-13","","NA"
"-67.38","49.32","POINTE-DES-MONTS","704F0PN","2021-02-06 20:00","2021","02","06","20:00","-3.4","","-7.4","","74","","0.0","","26","","68","","","","100.24","","","","-14","","NA"
"-67.38","49.32","POINTE-DES-MONTS","704F0PN","2021-02-06 21:00","2021","02","06","21:00","-3.8","","-7.7","","74","","0.0","","26","","61","","","","100.33","","","","-14","","NA"
"-67.38","49.32","POINTE-DES-MONTS","704F0PN","2021-02-06 22:00","2021","02","06","22:00","-4.2","","-8.1","","74","","0.0","","26","","56","","","","100.39","","","","-14","","NA"
"-67.38","49.32","POINTE-DES-MONTS","704F0PN","2021-02-06 23:00","2021","02","06","23:00","-4.4","","-8.6","","72","","0.0","","26","","60","","","","100.50","","","","-15","","NA"
"-67.38","49.32","POINTE-DES-MONTS","704F0PN","2021-02-07 00:00","2021","02","07","00:00","-4.7","","-8.7","","73","","0.0","","26","","57","","","","100.67","","","","-15","","NA"
"-67.38","49.32","POINTE-DES-MONTS","704F0PN","2021-02-07 01:00","2021","02","07","01:00","-4.7","","-8.6","","74","","0.0","","27","","48","","","","100.82","","","","-14","","NA"
"-67.38","49.32","POINTE-DES-MONTS","704F0PN","2021-02-07 02:00","2021","02","07","02:00","-4.8","","-9.2","","71","","0.0","","26","","58","","","","100.96","","","","-15","","NA"
"-67.38","49.32","POINTE-DES-MONTS","704F0PN","2021-02-07 03:00","2021","02","07","03:00","-5.1","","-9.4","","72","","0.0","","26","","58","","","","101.10","","","","-16","","NA"
"-67.38","49.32","POINTE-DES-MONTS","704F0PN","2021-02-07 04:00","2021","02","07","04:00","-5.4","","-10.1","","69","","0.0","","26","","62","","","","101.24","","","","-16","","NA"
"-67.38","49.32","POINTE-DES-MONTS","704F0PN","2021-02-07 05:00","2021","02","07","05:00","-5.9","","-11.7","","64","","0.0","","26","","61","","","","101.41","","","","-17","","NA"
"-67.38","49.32","POINTE-DES-MONTS","704F0PN","2021-02-07 06:00","2021","02","07","06:00","-6.3","","-11.4","","67","","0.0","","26","","54","","","","101.53","","","","-17","","NA"
"-67.38","49.32","POINTE-DES-MONTS","704F0PN","2021-02-07 07:00","2021","02","07","07:00","-6.4","","-11.6","","66","","0.0","","26","","48","","","","101.66","","","","-17","","NA"
"-67.38","49.32","POINTE-DES-MONTS","704F0PN","2021-02-07 08:00","2021","02","07","08:00","-6.7","","-11.8","","67","","0.0","","26","","42","","","","101.74","","","","-17","","NA"
"-67.38","49.32","POINTE-DES-MONTS","704F0PN","2021-02-07 09:00","2021","02","07","09:00","-7.0","","-13.3","","60","","0.0","","27","","28","","","","101.78","","","","-15","","NA"
"-67.38","49.32","POINTE-DES-MONTS","704F0PN","2021-02-07 10:00","2021","02","07","10:00","-6.4","","-12.8","","61","","0.0","","26","","28","","","","101.84","","","","-15","","NA"
"-67.38","49.32","POINTE-DES-MONTS","704F0PN","2021-02-07 11:00","2021","02","07","11:00","-6.0","","-12.5","","60","","0.0","","25","","26","","","","101.81","","","","-14","","NA"
"-67.38","49.32","POINTE-DES-MONTS","704F0PN","2021-02-07 12:00","2021","02","07","12:00","-5.6","","-12.8","","57","","0.0","","26","","20","","","","101.70","","","","-12","","NA"
"-67.38","49.32","POINTE-DES-MONTS","704F0PN","2021-02-07 13:00","2021","02","07","13:00","-5.1","","-12.4","","56","","0.0","","25","","22","","","","101.68","","","","-12","","NA"
"-67.38","49.32","POINTE-DES-MONTS","704F0PN","2021-02-07 14:00","2021","02","07","14:00","-5.2","","-12.5","","56","","0.0","","24","","16","","","","101.58","","","","-11","","NA"
"-67.38","49.32","POINTE-DES-MONTS","704F0PN","2021-02-07 15:00","2021","02","07","15:00","-5.2","","-12.0","","59","","0.0","","27","","12","","","","101.56","","","","-10","","NA"
"-67.38","49.32","POINTE-DES-MONTS","704F0PN","2021-02-07 16:00","2021","02","07","16:00","-5.5","","-11.3","","63","","0.0","","33","","3","","","","101.48","","","","-7","","NA"
"-67.38","49.32","POINTE-DES-MONTS","704F0PN","2021-02-07 17:00","2021","02","07","17:00","-7.1","","-12.3","","66","","0.0","","34","","5","","","","101.50","","","","-10","","NA"
"-67.38","49.32","POINTE-DES-MONTS","704F0PN","2021-02-07 18:00","2021","02","07","18:00","-7.3","","-12.5","","67","","0.0","","3","","9","","","","101.42","","","","-12","","NA"
"-67.38","49.32","POINTE-DES-MONTS","704F0PN","2021-02-07 19:00","2021","02","07","19:00","-7.9","","-12.3","","71","","0.0","","36","","9","","","","101.38","","","","-12","","NA"
"-67.38","49.32","POINTE-DES-MONTS","704F0PN","2021-02-07 20:00","2021","02","07","20:00","-7.6","","-12.5","","68","","0.0","","1","","10","","","","101.38","","","","-12","","NA"
"-67.38","49.32","POINTE-DES-MONTS","704F0PN","2021-02-07 21:00","2021","02","07","21:00","-6.9","","-11.4","","71","","0.0","","1","","14","","","","101.27","","","","-13","","NA"
"-67.38","49.32","POINTE-DES-MONTS","704F0PN","2021-02-07 22:00","2021","02","07","22:00","-6.9","","-10.5","","75","","0.0","","36","","11","","","","101.24","","","","-12","","NA"
"-67.38","49.32","POINTE-DES-MONTS","704F0PN","2021-02-07 23:00","2021","02","07","23:00","-6.6","","-9.5","","79","","0.0","","1","","11","","","","101.16","","","","-12","","NA"
"-67.38","49.32","POINTE-DES-MONTS","704F0PN","2021-02-08 00:00","2021","02","08","00:00","-6.3","","-7.9","","88","","0.0","","1","","10","","","","101.13","","","","-11","","NA"
"-67.38","49.32","POINTE-DES-MONTS","704F0PN","2021-02-08 01:00","2021","02","08","01:00","-6.4","","-7.6","","91","","0.3","","2","","12","","","","101.09","","","","-12","","NA"
"-67.38","49.32","POINTE-DES-MONTS","704F0PN","2021-02-08 02:00","2021","02","08","02:00","-6.3","","-7.4","","92","","0.4","","36","","9","","","","101.09","","","","-11","","NA"
"-67.38","49.32","POINTE-DES-MONTS","704F0PN","2021-02-08 03:00","2021","02","08","03:00","-6.4","","-7.5","","92","","0.4","","1","","10","","","","101.09","","","","-11","","NA"
"-67.38","49.32","POINTE-DES-MONTS","704F0PN","2021-02-08 04:00","2021","02","08","04:00","-6.2","","-7.4","","91","","0.2","","36","","8","","","","101.09","","","","-10","","NA"
"-67.38","49.32","POINTE-DES-MONTS","704F0PN","2021-02-08 05:00","2021","02","08","05:00","-6.5","","-7.7","","91","","0.3","","35","","7","","","","101.11","","","","-10","","NA"
"-67.38","49.32","POINTE-DES-MONTS","704F0PN","2021-02-08 06:00","2021","02","08","06:00","-6.7","","-8.2","","90","","0.1","","35","","7","","","","101.12","","","","-10","","NA"
"-67.38","49.32","POINTE-DES-MONTS","704F0PN","2021-02-08 07:00","2021","02","08","07:00","-6.8","","-8.4","","88","","0.0","","33","","7","","","","101.18","","","","-10","","NA"
"-67.38","49.32","POINTE-DES-MONTS","704F0PN","2021-02-08 08:00","2021","02","08","08:00","-6.2","","-8.0","","87","","0.0","","32","","7","","","","101.25","","","","-10","","NA"
"-67.38","49.32","POINTE-DES-MONTS","704F0PN","2021-02-08 09:00","2021","02","08","09:00","-5.3","","-7.8","","82","","0.0","","32","","8","","","","101.26","","","","-9","","NA"
"-67.38","49.32","POINTE-DES-MONTS","704F0PN","2021-02-08 10:00","2021","02","08","10:00","-4.0","","-9.0","","68","","0.0","","30","","11","","","","101.32","","","","-8","","NA"
"-67.38","49.32","POINTE-DES-MONTS","704F0PN","2021-02-08 11:00","2021","02","08","11:00","-3.3","","-9.0","","65","","0.0","","31","","12","","","","101.33","","","","-8","","NA"
"-67.38","49.32","POINTE-DES-MONTS","704F0PN","2021-02-08 12:00","2021","02","08","12:00","-3.4","","-9.6","","62","","0.0","","28","","21","","","","101.37","","","","-10","","NA"
"-67.38","49.32","POINTE-DES-MONTS","704F0PN","2021-02-08 13:00","2021","02","08","13:00","-3.6","","-9.9","","61","","0.0","","27","","28","","","","101.45","","","","-11","","NA"
"-67.38","49.32","POINTE-DES-MONTS","704F0PN","2021-02-08 14:00","2021","02","08","14:00","-4.4","","-11.3","","58","","0.0","","28","","29","","","","101.51","","","","-12","","NA"
"-67.38","49.32","POINTE-DES-MONTS","704F0PN","2021-02-08 15:00","2021","02","08","15:00","-5.4","","-11.9","","60","","0.0","","28","","28","","","","101.64","","","","-13","","NA"
"-67.38","49.32","POINTE-DES-MONTS","704F0PN","2021-02-08 16:00","2021","02","08","16:00","-6.6","","-13.6","","58","","0.0","","28","","21","","","","101.78","","","","-14","","NA"
"-67.38","49.32","POINTE-DES-MONTS","704F0PN","2021-02-08 17:00","2021","02","08","17:00","-8.6","","-15.1","","59","","0.0","","28","","22","","","","101.88","","","","-16","","NA"
"-67.38","49.32","POINTE-DES-MONTS","704F0PN","2021-02-08 18:00","2021","02","08","18:00","-9.5","","-16.3","","58","","0.0","","27","","34","","","","101.97","","","","-19","","NA"
"-67.38","49.32","POINTE-DES-MONTS","704F0PN","2021-02-08 19:00","2021","02","08","19:00","-10.7","","-16.8","","61","","0.0","","27","","31","","","","102.03","","","","-21","","NA"
"-67.38","49.32","POINTE-DES-MONTS","704F0PN","2021-02-08 20:00","2021","02","08","20:00","-11.5","","-18.1","","58","","0.0","","27","","29","","","","102.15","","","","-21","","NA"
"-67.38","49.32","POINTE-DES-MONTS","704F0PN","2021-02-08 21:00","2021","02","08","21:00","-12.1","","-18.3","","60","","0.0","","27","","29","","","","102.24","","","","-22","","NA"
"-67.38","49.32","POINTE-DES-MONTS","704F0PN","2021-02-08 22:00","2021","02","08","22:00","-13.1","","-19.0","","61","","0.0","","28","","23","","","","102.27","","","","-22","","NA"
"-67.38","49.32","POINTE-DES-MONTS","704F0PN","2021-02-08 23:00","2021","02","08","23:00","-13.7","","-19.5","","62","","0.0","","28","","19","","","","102.31","","","","-22","","NA"
"-67.38","49.32","POINTE-DES-MONTS","704F0PN","2021-02-09 00:00","2021","02","09","00:00","-13.8","","-19.3","","63","","0.0","","27","","29","","","","102.34","","","","-24","","NA"
"-67.38","49.32","POINTE-DES-MONTS","704F0PN","2021-02-09 01:00","2021","02","09","01:00","-14.9","","-20.8","","61","","0.0","","30","","25","","","","102.33","","","","-25","","NA"
"-67.38","49.32","POINTE-DES-MONTS","704F0PN","2021-02-09 02:00","2021","02","09","02:00","-15.0","","-21.1","","60","","0.0","","29","","21","","","","102.43","","","","-24","","NA"
"-67.38","49.32","POINTE-DES-MONTS","704F0PN","2021-02-09 03:00","2021","02","09","03:00","-15.2","","-21.3","","60","","0.0","","28","","22","","","","102.44","","","","-25","","NA"
"-67.38","49.32","POINTE-DES-MONTS","704F0PN","2021-02-09 04:00","2021","02","09","04:00","-15.6","","-21.9","","58","","0.0","","28","","15","","","","102.43","","","","-24","","NA"
"-67.38","49.32","POINTE-DES-MONTS","704F0PN","2021-02-09 05:00","2021","02","09","05:00","-15.8","","-21.8","","60","","0.0","","28","","12","","","","102.53","","","","-23","","NA"
"-67.38","49.32","POINTE-DES-MONTS","704F0PN","2021-02-09 06:00","2021","02","09","06:00","-16.0","","-21.9","","61","","0.0","","28","","16","","","","102.56","","","","-24","","NA"
"-67.38","49.32","POINTE-DES-MONTS","704F0PN","2021-02-09 07:00","2021","02","09","07:00","-16.6","","-23.0","","58","","0.0","","30","","7","","","","102.56","","","","-22","","NA"
"-67.38","49.32","POINTE-DES-MONTS","704F0PN","2021-02-09 08:00","2021","02","09","08:00","-15.1","","-23.1","","50","","0.0","","27","","11","","","","102.53","","","","-22","","NA"
"-67.38","49.32","POINTE-DES-MONTS","704F0PN","2021-02-09 09:00","2021","02","09","09:00","-14.1","","-21.8","","52","","0.0","","25","","17","","","","102.52","","","","-22","","NA"
"-67.38","49.32","POINTE-DES-MONTS","704F0PN","2021-02-09 10:00","2021","02","09","10:00","-12.4","","-21.7","","46","","0.0","","27","","10","","","","102.48","","","","-18","","NA"
"-67.38","49.32","POINTE-DES-MONTS","704F0PN","2021-02-09 11:00","2021","02","09","11:00","-10.6","","-20.7","","44","","0.0","","26","","14","","","","102.38","","","","-17","","NA"
"-67.38","49.32","POINTE-DES-MONTS","704F0PN","2021-02-09 12:00","2021","02","09","12:00","-9.7","","-20.9","","40","","0.0","","27","","21","","","","102.33","","","","-18","","NA"
"-67.38","49.32","POINTE-DES-MONTS","704F0PN","2021-02-09 13:00","2021","02","09","13:00","-9.2","","-20.4","","40","","0.0","","28","","19","","","","102.28","","","","-17","","NA"
"-67.38","49.32","POINTE-DES-MONTS","704F0PN","2021-02-09 14:00","2021","02","09","14:00","-8.7","","-18.8","","44","","0.0","","27","","20","","","","102.22","","","","-16","","NA"
"-67.38","49.32","POINTE-DES-MONTS","704F0PN","2021-02-09 15:00","2021","02","09","15:00","-8.8","","-19.7","","41","","0.0","","28","","23","","","","102.19","","","","-17","","NA"
"-67.38","49.32","POINTE-DES-MONTS","704F0PN","2021-02-09 16:00","2021","02","09","16:00","-9.0","","-19.8","","41","","0.0","","28","","18","","","","102.20","","","","-16","","NA"
"-67.38","49.32","POINTE-DES-MONTS","704F0PN","2021-02-09 17:00","2021","02","09","17:00","-10.5","","-20.7","","43","","0.0","","28","","6","","","","102.20","","","","-14","","NA"
"-67.38","49.32","POINTE-DES-MONTS","704F0PN","2021-02-09 18:00","2021","02","09","18:00","-11.3","","-20.4","","47","","0.0","","29","","11","","","","102.18","","","","-17","","NA"
"-67.38","49.32","POINTE-DES-MONTS","704F0PN","2021-02-09 19:00","2021","02","09","19:00","-10.5","","-19.3","","49","","0.0","","27","","15","","","","102.17","","","","-17","","NA"
"-67.38","49.32","POINTE-DES-MONTS","704F0PN","2021-02-09 20:00","2021","02","09","20:00","-13.1","","-20.1","","55","","0.0","","29","","9","","","","102.18","","","","-19","","NA"
"-67.38","49.32","POINTE-DES-MONTS","704F0PN","2021-02-09 21:00","2021","02","09","21:00","-14.0","","-21.2","","54","","0.0","","32","","9","","","","102.13","","","","-20","","NA"
"-67.38","49.32","POINTE-DES-MONTS","704F0PN","2021-02-09 22:00","2021","02","09","22:00","-14.8","","-21.5","","56","","0.0","","33","","8","","","","102.13","","","","-20","","NA"
"-67.38","49.32","POINTE-DES-MONTS","704F0PN","2021-02-09 23:00","2021","02","09","23:00","-15.2","","-21.9","","57","","0.0","","33","","9","","","","102.11","","","","-21","","NA"
"-67.38","49.32","POINTE-DES-MONTS","704F0PN","2021-02-10 00:00","2021","02","10","00:00","-15.5","","-22.2","","57","","0.0","","33","","12","","","","102.07","","","","-23","","NA"
"-67.38","49.32","POINTE-DES-MONTS","704F0PN","2021-02-10 01:00","2021","02","10","01:00","-15.4","","-22.1","","56","","0.0","","33","","11","","","","102.06","","","","-22","","NA"
"-67.38","49.32","POINTE-DES-MONTS","704F0PN","2021-02-10 02:00","2021","02","10","02:00","-16.0","","-22.3","","58","","0.0","","33","","11","","","","102.03","","","","-23","","NA"
"-67.38","49.32","POINTE-DES-MONTS","704F0PN","2021-02-10 03:00","2021","02","10","03:00","-16.1","","-22.7","","57","","0.0","","32","","9","","","","101.98","","","","-22","","NA"
"-67.38","49.32","POINTE-DES-MONTS","704F0PN","2021-02-10 04:00","2021","02","10","04:00","-16.3","","-22.8","","57","","0.0","","32","","9","","","","101.94","","","","-22","","NA"
"-67.38","49.32","POINTE-DES-MONTS","704F0PN","2021-02-10 05:00","2021","02","10","05:00","-17.0","","-22.5","","63","","0.0","","26","","3","","","","101.94","","","","-19","","NA"
"-67.38","49.32","POINTE-DES-MONTS","704F0PN","2021-02-10 06:00","2021","02","10","06:00","-16.7","","-23.0","","58","","0.0","","2","","2","","","","101.88","","","","-18","","NA"
"-67.38","49.32","POINTE-DES-MONTS","704F0PN","2021-02-10 07:00","2021","02","10","07:00","-17.5","","-23.4","","60","","0.0","","3","","8","","","","101.90","","","","-23","","NA"
"-67.38","49.32","POINTE-DES-MONTS","704F0PN","2021-02-10 08:00","2021","02","10","08:00","-15.2","","-21.8","","57","","0.0","","28","","6","","","","101.91","","","","-19","","NA"
"-67.38","49.32","POINTE-DES-MONTS","704F0PN","2021-02-10 09:00","2021","02","10","09:00","-13.2","","-21.4","","50","","0.0","","30","","9","","","","101.86","","","","-19","","NA"
"-67.38","49.32","POINTE-DES-MONTS","704F0PN","2021-02-10 10:00","2021","02","10","10:00","-12.0","","-19.7","","53","","0.0","","25","","13","","","","101.80","","","","-19","","NA"
"-67.38","49.32","POINTE-DES-MONTS","704F0PN","2021-02-10 11:00","2021","02","10","11:00","-10.9","","-17.8","","57","","0.0","","25","","18","","","","101.75","","","","-19","","NA"
"-67.38","49.32","POINTE-DES-MONTS","704F0PN","2021-02-10 12:00","2021","02","10","12:00","-9.2","","-15.6","","60","","0.0","","25","","21","","","","101.66","","","","-17","","NA"
"-67.38","49.32","POINTE-DES-MONTS","704F0PN","2021-02-10 13:00","2021","02","10","13:00","-7.7","","-13.9","","61","","0.0","","25","","22","","","","101.58","","","","-15","","NA"
"-67.38","49.32","POINTE-DES-MONTS","704F0PN","2021-02-10 14:00","2021","02","10","14:00","-7.1","","-18.8","","39","","0.0","","28","","19","","","","101.53","","","","-14","","NA"
"-67.38","49.32","POINTE-DES-MONTS","704F0PN","2021-02-10 15:00","2021","02","10","15:00","-7.8","","-18.4","","42","","0.0","","28","","30","","","","101.52","","","","-17","","NA"
"-67.38","49.32","POINTE-DES-MONTS","704F0PN","2021-02-10 16:00","2021","02","10","16:00","-8.9","","-18.2","","47","","0.0","","30","","10","","","","101.54","","","","-14","","NA"
"-67.38","49.32","POINTE-DES-MONTS","704F0PN","2021-02-10 17:00","2021","02","10","17:00","-10.8","","-17.7","","57","","0.0","","30","","8","","","","101.57","","","","-15","","NA"
"-67.38","49.32","POINTE-DES-MONTS","704F0PN","2021-02-10 18:00","2021","02","10","18:00","-10.9","","-17.5","","58","","0.0","","28","","20","","","","101.60","","","","-19","","NA"
"-67.38","49.32","POINTE-DES-MONTS","704F0PN","2021-02-10 19:00","2021","02","10","19:00","-11.2","","-20.1","","48","","0.0","","27","","25","","","","101.58","","","","-20","","NA"
"-67.38","49.32","POINTE-DES-MONTS","704F0PN","2021-02-10 20:00","2021","02","10","20:00","-11.6","","-20.4","","48","","0.0","","28","","24","","","","101.55","","","","-21","","NA"
"-67.38","49.32","POINTE-DES-MONTS","704F0PN","2021-02-10 21:00","2021","02","10","21:00","-12.3","","-20.7","","50","","0.0","","28","","25","","","","101.56","","","","-22","","NA"
"-67.38","49.32","POINTE-DES-MONTS","704F0PN","2021-02-10 22:00","2021","02","10","22:00","-13.0","","-21.4","","49","","0.0","","28","","26","","","","101.53","","","","-23","","NA"
"-67.38","49.32","POINTE-DES-MONTS","704F0PN","2021-02-10 23:00","2021","02","10","23:00","-13.5","","-21.8","","50","","0.0","","28","","32","","","","101.50","","","","-24","","NA"
"-67.38","49.32","POINTE-DES-MONTS","704F0PN","2021-02-11 00:00","2021","02","11","00:00","-14.3","","-22.2","","51","","0.0","","27","","29","","","","101.50","","","","-25","","NA"
"-67.38","49.32","POINTE-DES-MONTS","704F0PN","2021-02-11 01:00","2021","02","11","01:00","-14.8","","-22.2","","53","","0.0","","27","","28","","","","101.48","","","","-25","","NA"
"-67.38","49.32","POINTE-DES-MONTS","704F0PN","2021-02-11 02:00","2021","02","11","02:00","-14.2","","-20.4","","59","","0.0","","27","","35","","","","101.43","","","","-26","","NA"
"-67.38","49.32","POINTE-DES-MONTS","704F0PN","2021-02-11 03:00","2021","02","11","03:00","-14.5","","-20.1","","62","","0.0","","27","","33","","","","101.40","","","","-26","","NA"
"-67.38","49.32","POINTE-DES-MONTS","704F0PN","2021-02-11 04:00","2021","02","11","04:00","-14.9","","-20.8","","61","","0.0","","27","","36","","","","101.36","","","","-27","","NA"
"-67.38","49.32","POINTE-DES-MONTS","704F0PN","2021-02-11 05:00","2021","02","11","05:00","-15.0","","-20.5","","63","","0.0","","27","","33","","","","101.30","","","","-27","","NA"
"-67.38","49.32","POINTE-DES-MONTS","704F0PN","2021-02-11 06:00","2021","02","11","06:00","-14.9","","-20.0","","65","","0.0","","26","","33","","","","101.27","","","","-26","","NA"
"-67.38","49.32","POINTE-DES-MONTS","704F0PN","2021-02-11 07:00","2021","02","11","07:00","-15.3","","-21.2","","61","","0.0","","27","","30","","","","101.25","","","","-26","","NA"
"-67.38","49.32","POINTE-DES-MONTS","704F0PN","2021-02-11 08:00","2021","02","11","08:00","-15.3","","-21.6","","58","","0.0","","27","","29","","","","101.19","","","","-26","","NA"
"-67.38","49.32","POINTE-DES-MONTS","704F0PN","2021-02-11 09:00","2021","02","11","09:00","-14.4","","-21.6","","54","","0.0","","28","","30","","","","101.11","","","","-25","","NA"
"-67.38","49.32","POINTE-DES-MONTS","704F0PN","2021-02-11 10:00","2021","02","11","10:00","-13.6","","-21.7","","51","","0.0","","28","","28","","","","101.04","","","","-24","","NA"
"-67.38","49.32","POINTE-DES-MONTS","704F0PN","2021-02-11 11:00","2021","02","11","11:00","-12.6","","-20.1","","53","","0.0","","27","","34","","","","100.99","","","","-23","","NA"
"-67.38","49.32","POINTE-DES-MONTS","704F0PN","2021-02-11 12:00","2021","02","11","12:00","-13.2","","-18.0","","67","","0.0","","27","","35","","","","100.97","","","","-24","","NA"
"-67.38","49.32","POINTE-DES-MONTS","704F0PN","2021-02-11 13:00","2021","02","11","13:00","-12.4","","-16.5","","71","","0.0","","27","","35","","","","100.96","","","","-23","","NA"
"-67.38","49.32","POINTE-DES-MONTS","704F0PN","2021-02-11 14:00","2021","02","11","14:00","-12.0","","-15.6","","75","","0.0","","26","","40","","","","100.96","","","","-23","","NA"
"-67.38","49.32","POINTE-DES-MONTS","704F0PN","2021-02-11 15:00","2021","02","11","15:00","-12.2","","-14.3","","84","","0.0","","26","","40","","","","100.98","","","","-24","","NA"
"-67.38","49.32","POINTE-DES-MONTS","704F0PN","2021-02-11 16:00","2021","02","11","16:00","-12.2","","-14.0","","86","","0.4","","26","","46","","","","100.96","","","","-24","","NA"
"-67.38","49.32","POINTE-DES-MONTS","704F0PN","2021-02-11 17:00","2021","02","11","17:00","-12.0","","-13.6","","88","","0.0","","26","","45","","","","100.98","","","","-24","","NA"
"-67.38","49.32","POINTE-DES-MONTS","704F0PN","2021-02-11 18:00","2021","02","11","18:00","-11.6","","-13.0","","89","","0.3","","26","","43","","","","101.00","","","","-23","","NA"
"-67.38","49.32","POINTE-DES-MONTS","704F0PN","2021-02-11 19:00","2021","02","11","19:00","-11.3","","-12.9","","88","","0.2","","26","","36","","","","100.99","","","","-22","","NA"
"-67.38","49.32","POINTE-DES-MONTS","704F0PN","2021-02-11 20:00","2021","02","11","20:00","-10.9","","-12.7","","87","","0.2","","26","","31","","","","101.01","","","","-21","","NA"
"-67.38","49.32","POINTE-DES-MONTS","704F0PN","2021-02-11 21:00","2021","02","11","21:00","-10.3","","-11.7","","90","","0.5","","26","","28","","","","101.04","","","","-20","","NA"
"-67.38","49.32","POINTE-DES-MONTS","704F0PN","2021-02-11 22:00","2021","02","11","22:00","-9.8","","-11.2","","89","","0.3","","26","","26","","","","101.07","","","","-19","","NA"
"-67.38","49.32","POINTE-DES-MONTS","704F0PN","2021-02-11 23:00","2021","02","11","23:00","-9.0","","-10.5","","89","","0.3","","26","","24","","","","101.15","","","","-17","","NA"
"-67.38","49.32","POINTE-DES-MONTS","704F0PN","2021-02-12 00:00","2021","02","12","00:00","-8.3","","-9.6","","91","","0.3","","26","","24","","","","101.24","","","","-16","","NA"
"-67.38","49.32","POINTE-DES-MONTS","704F0PN","2021-02-12 01:00","2021","02","12","01:00","-7.7","","-9.1","","90","","0.1","","26","","22","","","","101.30","","","","-15","","NA"
"-67.38","49.32","POINTE-DES-MONTS","704F0PN","2021-02-12 02:00","2021","02","12","02:00","-6.6","","-8.4","","87","","0.0","","26","","16","","","","101.38","","","","-13","","NA"
"-67.38","49.32","POINTE-DES-MONTS","704F0PN","2021-02-12 03:00","2021","02","12","03:00","-7.0","","-9.0","","86","","0.0","","31","","7","","","","101.45","","","","-11","","NA"
"-67.38","49.32","POINTE-DES-MONTS","704F0PN","2021-02-12 04:00","2021","02","12","04:00","-6.1","","-8.3","","85","","0.0","","34","","4","","","","101.55","","","","-8","","NA"
"-67.38","49.32","POINTE-DES-MONTS","704F0PN","2021-02-12 05:00","2021","02","12","05:00","-6.3","","-8.5","","84","","0.0","","30","","4","","","","101.62","","","","-8","","NA"
"-67.38","49.32","POINTE-DES-MONTS","704F0PN","2021-02-12 06:00","2021","02","12","06:00","-7.5","","-10.4","","80","","0.0","","33","","8","","","","101.71","","","","-12","","NA"
"-67.38","49.32","POINTE-DES-MONTS","704F0PN","2021-02-12 07:00","2021","02","12","07:00","-8.0","","-11.3","","77","","0.0","","33","","10","","","","101.78","","","","-13","","NA"
"-67.38","49.32","POINTE-DES-MONTS","704F0PN","2021-02-12 08:00","2021","02","12","08:00","-6.3","","-10.8","","70","","0.0","","32","","10","","","","101.85","","","","-11","","NA"
"-67.38","49.32","POINTE-DES-MONTS","704F0PN","2021-02-12 09:00","2021","02","12","09:00","-4.5","","-10.3","","64","","0.0","","33","","13","","","","101.87","","","","-10","","NA"
"-67.38","49.32","POINTE-DES-MONTS","704F0PN","2021-02-12 10:00","2021","02","12","10:00","-3.3","","-10.1","","59","","0.0","","32","","11","","","","101.90","","","","-8","","NA"
"-67.38","49.32","POINTE-DES-MONTS","704F0PN","2021-02-12 11:00","2021","02","12","11:00","-2.7","","-9.8","","58","","0.0","","32","","8","","","","101.91","","","","-6","","NA"
"-67.38","49.32","POINTE-DES-MONTS","704F0PN","2021-02-12 12:00","2021","02","12","12:00","-3.2","","-10.6","","57","","0.0","","28","","11","","","","101.91","","","","-7","","NA"
"-67.38","49.32","POINTE-DES-MONTS","704F0PN","2021-02-12 13:00","2021","02","12","13:00","-3.3","","-10.3","","59","","0.0","","25","","15","","","","101.90","","","","-8","","NA"
"-67.38","49.32","POINTE-DES-MONTS","704F0PN","2021-02-12 14:00","2021","02","12","14:00","-3.6","","-9.9","","62","","0.0","","25","","22","","","","101.90","","","","-10","","NA"
"-67.38","49.32","POINTE-DES-MONTS","704F0PN","2021-02-12 15:00","2021","02","12","15:00","-3.6","","-10.3","","60","","0.0","","30","","7","","","","101.91","","","","-7","","NA"
"-67.38","49.32","POINTE-DES-MONTS","704F0PN","2021-02-12 16:00","2021","02","12","16:00","-4.2","","-10.9","","59","","0.0","","30","","7","","","","101.92","","","","-7","","NA"
"-67.38","49.32","POINTE-DES-MONTS","704F0PN","2021-02-12 17:00","2021","02","12","17:00","-4.8","","-10.8","","62","","0.0","","28","","15","","","","101.96","","","","-10","","NA"
"-67.38","49.32","POINTE-DES-MONTS","704F0PN","2021-02-12 18:00","2021","02","12","18:00","-5.5","","-11.0","","65","","0.0","","29","","6","","","","102.02","","","","-8","","NA"
"-67.38","49.32","POINTE-DES-MONTS","704F0PN","2021-02-12 19:00","2021","02","12","19:00","-6.1","","-11.3","","67","","0.0","","31","","7","","","","102.05","","","","-9","","NA"
"-67.38","49.32","POINTE-DES-MONTS","704F0PN","2021-02-12 20:00","2021","02","12","20:00","-6.9","","-12.3","","66","","0.0","","35","","6","","","","102.03","","","","-10","","NA"
"-67.38","49.32","POINTE-DES-MONTS","704F0PN","2021-02-12 21:00","2021","02","12","21:00","-7.4","","-12.3","","68","","0.0","","34","","5","","","","101.99","","","","-10","","NA"
"-67.38","49.32","POINTE-DES-MONTS","704F0PN","2021-02-12 22:00","2021","02","12","22:00","-7.8","","-12.4","","70","","0.0","","29","","6","","","","101.96","","","","-11","","NA"
"-67.38","49.32","POINTE-DES-MONTS","704F0PN","2021-02-12 23:00","2021","02","12","23:00","-7.9","","-13.0","","67","","0.0","","34","","4","","","","101.93","","","","-10","","NA"
"-67.38","49.32","POINTE-DES-MONTS","704F0PN","2021-02-13 00:00","2021","02","13","00:00","-7.9","","-12.8","","68","","0.0","","29","","5","","","","101.92","","","","-11","","NA"
"-67.38","49.32","POINTE-DES-MONTS","704F0PN","2021-02-13 01:00","2021","02","13","01:00","-8.0","","-12.5","","70","","0.0","","30","","5","","","","101.93","","","","-11","","NA"
"-67.38","49.32","POINTE-DES-MONTS","704F0PN","2021-02-13 02:00","2021","02","13","02:00","-7.5","","-12.4","","68","","0.0","","28","","5","","","","101.94","","","","-10","","NA"
"-67.38","49.32","POINTE-DES-MONTS","704F0PN","2021-02-13 03:00","2021","02","13","03:00","-7.7","","-12.6","","68","","0.0","","31","","6","","","","101.94","","","","-11","","NA"
"-67.38","49.32","POINTE-DES-MONTS","704F0PN","2021-02-13 04:00","2021","02","13","04:00","-7.8","","-12.4","","70","","0.0","","33","","5","","","","101.94","","","","-10","","NA"
"-67.38","49.32","POINTE-DES-MONTS","704F0PN","2021-02-13 05:00","2021","02","13","05:00","-8.4","","-12.9","","70","","0.0","","32","","13","","","","101.98","","","","-14","","NA"
"-67.38","49.32","POINTE-DES-MONTS","704F0PN","2021-02-13 06:00","2021","02","13","06:00","-9.5","","-14.3","","68","","0.0","","32","","16","","","","101.99","","","","-16","","NA"
"-67.38","49.32","POINTE-DES-MONTS","704F0PN","2021-02-13 07:00","2021","02","13","07:00","-10.8","","-15.5","","68","","0.0","","31","","16","","","","102.06","","","","-18","","NA"
"-67.38","49.32","POINTE-DES-MONTS","704F0PN","2021-02-13 08:00","2021","02","13","08:00","-10.9","","-16.0","","66","","0.0","","32","","12","","","","102.17","","","","-17","","NA"
"-67.38","49.32","POINTE-DES-MONTS","704F0PN","2021-02-13 09:00","2021","02","13","09:00","-10.1","","-16.2","","61","","0.0","","29","","18","","","","102.24","","","","-18","","NA"
"-67.38","49.32","POINTE-DES-MONTS","704F0PN","2021-02-13 10:00","2021","02","13","10:00","-9.7","","-15.5","","63","","0.0","","28","","17","","","","102.24","","","","-17","","NA"
"-67.38","49.32","POINTE-DES-MONTS","704F0PN","2021-02-13 11:00","2021","02","13","11:00","-8.4","","-14.5","","61","","0.0","","27","","18","","","","102.24","","","","-15","","NA"
"-67.38","49.32","POINTE-DES-MONTS","704F0PN","2021-02-13 12:00","2021","02","13","12:00","-7.2","","-15.6","","51","","0.0","","28","","12","","","","102.21","","","","-13","","NA"
"-67.38","49.32","POINTE-DES-MONTS","704F0PN","2021-02-13 13:00","2021","02","13","13:00","-7.3","","-13.8","","60","","0.0","","25","","25","","","","102.24","","","","-15","","NA"
"-67.38","49.32","POINTE-DES-MONTS","704F0PN","2021-02-13 14:00","2021","02","13","14:00","-6.5","","-14.8","","52","","0.0","","26","","23","","","","102.26","","","","-14","","NA"
"-67.38","49.32","POINTE-DES-MONTS","704F0PN","2021-02-13 15:00","2021","02","13","15:00","-6.4","","-15.6","","48","","0.0","","28","","19","","","","102.34","","","","-13","","NA"
"-67.38","49.32","POINTE-DES-MONTS","704F0PN","2021-02-13 16:00","2021","02","13","16:00","-6.5","","-14.9","","52","","0.0","","28","","17","","","","102.38","","","","-13","","NA"
"-67.38","49.32","POINTE-DES-MONTS","704F0PN","2021-02-13 17:00","2021","02","13","17:00","-8.1","","-15.1","","57","","0.0","","28","","10","","","","102.43","","","","-13","","NA"
"-67.38","49.32","POINTE-DES-MONTS","704F0PN","2021-02-13 18:00","2021","02","13","18:00","-10.3","","-16.4","","61","","0.0","","30","","6","","","","102.50","","","","-14","","NA"
"-67.38","49.32","POINTE-DES-MONTS","704F0PN","2021-02-13 19:00","2021","02","13","19:00","-11.5","","-16.7","","65","","0.0","","30","","6","","","","102.56","","","","-15","","NA"
"-67.38","49.32","POINTE-DES-MONTS","704F0PN","2021-02-13 20:00","2021","02","13","20:00","-12.3","","-17.3","","66","","0.0","","34","","2","","","","102.59","","","","-14","","NA"
"-67.38","49.32","POINTE-DES-MONTS","704F0PN","2021-02-13 21:00","2021","02","13","21:00","-12.9","","-17.4","","69","","0.0","","6","","3","","","","102.60","","","","-15","","NA"
"-67.38","49.32","POINTE-DES-MONTS","704F0PN","2021-02-13 22:00","2021","02","13","22:00","-13.3","","-17.6","","70","","0.0","","6","","4","","","","102.58","","","","-16","","NA"
"-67.38","49.32","POINTE-DES-MONTS","704F0PN","2021-02-13 23:00","2021","02","13","23:00","-13.8","","-17.9","","71","","0.0","","3","","4","","","","102.56","","","","-17","","NA"
"-67.38","49.32","POINTE-DES-MONTS","704F0PN","2021-02-14 00:00","2021","02","14","00:00","-13.8","","-18.0","","71","","0.0","","33","","12","","","","102.55","","","","-21","","NA"
"-67.38","49.32","POINTE-DES-MONTS","704F0PN","2021-02-14 01:00","2021","02","14","01:00","-13.7","","-18.0","","70","","0.0","","33","","12","","","","102.56","","","","-20","","NA"
"-67.38","49.32","POINTE-DES-MONTS","704F0PN","2021-02-14 02:00","2021","02","14","02:00","-13.7","","-17.9","","71","","0.0","","33","","11","","","","102.53","","","","-20","","NA"
"-67.38","49.32","POINTE-DES-MONTS","704F0PN","2021-02-14 03:00","2021","02","14","03:00","-13.7","","-17.8","","71","","0.0","","34","","11","","","","102.50","","","","-20","","NA"
"-67.38","49.32","POINTE-DES-MONTS","704F0PN","2021-02-14 04:00","2021","02","14","04:00","-13.2","","-17.4","","70","","0.0","","34","","10","","","","102.51","","","","-19","","NA"
"-67.38","49.32","POINTE-DES-MONTS","704F0PN","2021-02-14 05:00","2021","02","14","05:00","-12.7","","-17.0","","70","","0.0","","35","","10","","","","102.44","","","","-18","","NA"
"-67.38","49.32","POINTE-DES-MONTS","704F0PN","2021-02-14 06:00","2021","02","14","06:00","-12.3","","-16.7","","70","","0.0","","34","","8","","","","102.43","","","","-17","","NA"
"-67.38","49.32","POINTE-DES-MONTS","704F0PN","2021-02-14 07:00","2021","02","14","07:00","-12.3","","-16.6","","70","","0.0","","35","","10","","","","102.46","","","","-18","","NA"
"-67.38","49.32","POINTE-DES-MONTS","704F0PN","2021-02-14 08:00","2021","02","14","08:00","-11.6","","-15.3","","74","","0.0","","35","","8","","","","102.42","","","","-16","","NA"
"-67.38","49.32","POINTE-DES-MONTS","704F0PN","2021-02-14 09:00","2021","02","14","09:00","-11.1","","-13.6","","82","","0.2","","1","","8","","","","102.37","","","","-16","","NA"
"-67.38","49.32","POINTE-DES-MONTS","704F0PN","2021-02-14 10:00","2021","02","14","10:00","-9.4","","-12.0","","81","","0.2","","2","","6","","","","102.34","","","","-13","","NA"
"-67.38","49.32","POINTE-DES-MONTS","704F0PN","2021-02-14 11:00","2021","02","14","11:00","-8.0","","-11.1","","79","","0.0","","6","","4","","","","102.29","","","","-10","","NA"
"-67.38","49.32","POINTE-DES-MONTS","704F0PN","2021-02-14 12:00","2021","02","14","12:00","-8.3","","-10.6","","83","","0.0","","24","","14","","","","102.22","","","","-14","","NA"
"-67.38","49.32","POINTE-DES-MONTS","704F0PN","2021-02-14 13:00","2021","02","14","13:00","-7.5","","-11.5","","73","","0.0","","24","","26","","","","102.16","","","","-16","","NA"
"-67.38","49.32","POINTE-DES-MONTS","704F0PN","2021-02-14 14:00","2021","02","14","14:00","-7.4","","-11.2","","74","","0.0","","23","","29","","","","102.14","","","","-16","","NA"
"-67.38","49.32","POINTE-DES-MONTS","704F0PN","2021-02-14 15:00","2021","02","14","15:00","-7.1","","-11.0","","74","","0.0","","24","","32","","","","102.14","","","","-16","","NA"
"-67.38","49.32","POINTE-DES-MONTS","704F0PN","2021-02-14 16:00","2021","02","14","16:00","-7.0","","-10.5","","76","","0.0","","24","","29","","","","102.12","","","","-15","","NA"
"-67.38","49.32","POINTE-DES-MONTS","704F0PN","2021-02-14 17:00","2021","02","14","17:00","-6.8","","-10.6","","74","","0.0","","24","","25","","","","102.11","","","","-15","","NA"
"-67.38","49.32","POINTE-DES-MONTS","704F0PN","2021-02-14 18:00","2021","02","14","18:00","-6.3","","-10.2","","74","","0.0","","25","","24","","","","102.18","","","","-14","","NA"
"-67.38","49.32","POINTE-DES-MONTS","704F0PN","2021-02-14 19:00","2021","02","14","19:00","-7.4","","-11.4","","73","","0.0","","31","","7","","","","102.16","","","","-11","","NA"
"-67.38","49.32","POINTE-DES-MONTS","704F0PN","2021-02-14 20:00","2021","02","14","20:00","-8.5","","-12.5","","73","","0.0","","32","","8","","","","102.23","","","","-13","","NA"
"-67.38","49.32","POINTE-DES-MONTS","704F0PN","2021-02-14 21:00","2021","02","14","21:00","-10.1","","-13.2","","78","","0.0","","27","","8","","","","102.29","","","","-15","","NA"
"-67.38","49.32","POINTE-DES-MONTS","704F0PN","2021-02-14 22:00","2021","02","14","22:00","-9.9","","-13.9","","73","","0.0","","27","","11","","","","102.31","","","","-15","","NA"
"-67.38","49.32","POINTE-DES-MONTS","704F0PN","2021-02-14 23:00","2021","02","14","23:00","-10.9","","-15.7","","67","","0.0","","30","","8","","","","102.32","","","","-16","","NA"
"-67.38","49.32","POINTE-DES-MONTS","704F0PN","2021-02-15 00:00","2021","02","15","00:00","-11.2","","-16.1","","67","","0.0","","31","","8","","","","102.33","","","","-16","","NA"
"-67.38","49.32","POINTE-DES-MONTS","704F0PN","2021-02-15 01:00","2021","02","15","01:00","-10.9","","-16.0","","66","","0.0","","27","","10","","","","102.31","","","","-16","","NA"
"-67.38","49.32","POINTE-DES-MONTS","704F0PN","2021-02-15 02:00","2021","02","15","02:00","-11.2","","-16.4","","66","","0.0","","27","","11","","","","102.36","","","","-17","","NA"
"-67.38","49.32","POINTE-DES-MONTS","704F0PN","2021-02-15 03:00","2021","02","15","03:00","-12.7","","-16.6","","73","","0.0","","29","","9","","","","102.42","","","","-18","","NA"
"-67.38","49.32","POINTE-DES-MONTS","704F0PN","2021-02-15 04:00","2021","02","15","04:00","-12.8","","-17.5","","68","","0.0","","29","","12","","","","102.43","","","","-19","","NA"
"-67.38","49.32","POINTE-DES-MONTS","704F0PN","2021-02-15 05:00","2021","02","15","05:00","-13.6","","-18.3","","68","","0.0","","29","","12","","","","102.44","","","","-20","","NA"
"-67.38","49.32","POINTE-DES-MONTS","704F0PN","2021-02-15 06:00","2021","02","15","06:00","-13.9","","-18.3","","69","","0.0","","29","","11","","","","102.46","","","","-20","","NA"
"-67.38","49.32","POINTE-DES-MONTS","704F0PN","2021-02-15 07:00","2021","02","15","07:00","-13.1","","-17.5","","69","","0.0","","28","","13","","","","102.48","","","","-20","","NA"
"-67.38","49.32","POINTE-DES-MONTS","704F0PN","2021-02-15 08:00","2021","02","15","08:00","-12.8","","-18.2","","64","","0.0","","28","","17","","","","102.50","","","","-21","","NA"
"-67.38","49.32","POINTE-DES-MONTS","704F0PN","2021-02-15 09:00","2021","02","15","09:00","-11.3","","-18.0","","58","","0.0","","28","","11","","","","102.49","","","","-17","","NA"
"-67.38","49.32","POINTE-DES-MONTS","704F0PN","2021-02-15 10:00","2021","02","15","10:00","-9.9","","-17.3","","55","","0.0","","26","","11","","","","102.47","","","","-15","","NA"
"-67.38","49.32","POINTE-DES-MONTS","704F0PN","2021-02-15 11:00","2021","02","15","11:00","-9.5","","-16.2","","58","","0.0","","25","","14","","","","102.46","","","","-16","","NA"
"-67.38","49.32","POINTE-DES-MONTS","704F0PN","2021-02-15 12:00","2021","02","15","12:00","-8.3","","-15.4","","57","","0.0","","24","","17","","","","102.37","","","","-15","","NA"
"-67.38","49.32","POINTE-DES-MONTS","704F0PN","2021-02-15 13:00","2021","02","15","13:00","-7.6","","-13.2","","64","","0.0","","23","","21","","","","102.30","","","","-15","","NA"
"-67.38","49.32","POINTE-DES-MONTS","704F0PN","2021-02-15 14:00","2021","02","15","14:00","-6.6","","-14.7","","52","","0.0","","26","","23","","","","102.26","","","","-14","","NA"
"-67.38","49.32","POINTE-DES-MONTS","704F0PN","2021-02-15 15:00","2021","02","15","15:00","-6.8","","-15.2","","51","","0.0","","27","","23","","","","102.30","","","","-14","","NA"
"-67.38","49.32","POINTE-DES-MONTS","704F0PN","2021-02-15 16:00","2021","02","15","16:00","-7.0","","-15.5","","51","","0.0","","29","","11","","","","102.31","","","","-12","","NA"
"-67.38","49.32","POINTE-DES-MONTS","704F0PN","2021-02-15 17:00","2021","02","15","17:00","-7.3","","-15.1","","53","","0.0","","28","","13","","","","102.26","","","","-13","","NA"
"-67.38","49.32","POINTE-DES-MONTS","704F0PN","2021-02-15 18:00","2021","02","15","18:00","-7.1","","-14.8","","54","","0.0","","28","","16","","","","102.39","","","","-13","","NA"
"-67.38","49.32","POINTE-DES-MONTS","704F0PN","2021-02-15 19:00","2021","02","15","19:00","-7.8","","-15.3","","55","","0.0","","29","","6","","","","102.35","","","","-11","","NA"
"-67.38","49.32","POINTE-DES-MONTS","704F0PN","2021-02-15 20:00","2021","02","15","20:00","-9.2","","-16.1","","57","","0.0","","32","","5","","","","102.38","","","","-12","","NA"
"-67.38","49.32","POINTE-DES-MONTS","704F0PN","2021-02-15 21:00","2021","02","15","21:00","-10.3","","-16.8","","59","","0.0","","33","","7","","","","102.37","","","","-14","","NA"
"-67.38","49.32","POINTE-DES-MONTS","704F0PN","2021-02-15 22:00","2021","02","15","22:00","-10.8","","-17.3","","59","","0.0","","33","","10","","","","102.34","","","","-16","","NA"
"-67.38","49.32","POINTE-DES-MONTS","704F0PN","2021-02-15 23:00","2021","02","15","23:00","-11.2","","-17.6","","59","","0.0","","33","","10","","","","102.34","","","","-17","","NA"
"-67.38","49.32","POINTE-DES-MONTS","704F0PN","2021-02-16 00:00","2021","02","16","00:00","-11.6","","-18.0","","59","","0.0","","33","","10","","","","102.27","","","","-17","","NA"
"-67.38","49.32","POINTE-DES-MONTS","704F0PN","2021-02-16 01:00","2021","02","16","01:00","-12.2","","-18.3","","61","","0.0","","33","","11","","","","102.33","","","","-18","","NA"
"-67.38","49.32","POINTE-DES-MONTS","704F0PN","2021-02-16 02:00","2021","02","16","02:00","-12.7","","-18.3","","63","","0.0","","33","","10","","","","102.32","","","","-18","","NA"
"-67.38","49.32","POINTE-DES-MONTS","704F0PN","2021-02-16 03:00","2021","02","16","03:00","-12.7","","-18.4","","62","","0.0","","34","","11","","","","102.28","","","","-19","","NA"
"-67.38","49.32","POINTE-DES-MONTS","704F0PN","2021-02-16 04:00","2021","02","16","04:00","-12.6","","-18.2","","63","","0.0","","1","","11","","","","102.25","","","","-19","","NA"
"-67.38","49.32","POINTE-DES-MONTS","704F0PN","2021-02-16 05:00","2021","02","16","05:00","-11.8","","-16.1","","71","","0.0","","2","","14","","","","102.29","","","","-19","","NA"
"-67.38","49.32","POINTE-DES-MONTS","704F0PN","2021-02-16 06:00","2021","02","16","06:00","-11.7","","-16.5","","68","","0.0","","2","","15","","","","102.28","","","","-19","","NA"
"-67.38","49.32","POINTE-DES-MONTS","704F0PN","2021-02-16 07:00","2021","02","16","07:00","-12.0","","-16.4","","70","","0.0","","2","","16","","","","102.25","","","","-19","","NA"
"-67.38","49.32","POINTE-DES-MONTS","704F0PN","2021-02-16 08:00","2021","02","16","08:00","-12.0","","-15.4","","76","","0.0","","1","","16","","","","102.17","","","","-19","","NA"
"-67.38","49.32","POINTE-DES-MONTS","704F0PN","2021-02-16 09:00","2021","02","16","09:00","-11.6","","-14.0","","82","","0.2","","2","","18","","","","102.05","","","","-19","","NA"
"-67.38","49.32","POINTE-DES-MONTS","704F0PN","2021-02-16 10:00","2021","02","16","10:00","-10.1","","-12.0","","85","","0.3","","2","","22","","","","102.00","","","","-18","","NA"
"-67.38","49.32","POINTE-DES-MONTS","704F0PN","2021-02-16 11:00","2021","02","16","11:00","-9.5","","-11.4","","86","","0.0","","4","","22","","","","101.89","","","","-18","","NA"
"-67.38","49.32","POINTE-DES-MONTS","704F0PN","2021-02-16 12:00","2021","02","16","12:00","-7.3","","-8.6","","90","","0.5","","7","","46","","","","101.71","","","","-18","","NA"
"-67.38","49.32","POINTE-DES-MONTS","704F0PN","2021-02-16 13:00","2021","02","16","13:00","-6.9","","-8.6","","87","","0.0","","6","","49","","","","101.54","","","","-17","","NA"
"-67.38","49.32","POINTE-DES-MONTS","704F0PN","2021-02-16 14:00","2021","02","16","14:00","-6.8","","-9.0","","85","","0.0","","6","","51","","","","101.36","","","","-17","","NA"
"-67.38","49.32","POINTE-DES-MONTS","704F0PN","2021-02-16 15:00","2021","02","16","15:00","-6.8","","-8.1","","90","","0.0","","6","","48","","","","101.29","","","","-17","","NA"
"-67.38","49.32","POINTE-DES-MONTS","704F0PN","2021-02-16 16:00","2021","02","16","16:00","-6.6","","-8.6","","86","","0.0","","5","","52","","","","101.13","","","","-17","","NA"
"-67.38","49.32","POINTE-DES-MONTS","704F0PN","2021-02-16 17:00","2021","02","16","17:00","-6.7","","-8.9","","84","","0.0","","5","","55","","","","100.99","","","","-18","","NA"
"-67.38","49.32","POINTE-DES-MONTS","704F0PN","2021-02-16 18:00","2021","02","16","18:00","-7.1","","-8.2","","91","","0.0","","5","","54","","","","100.89","","","","-18","","NA"
"-67.38","49.32","POINTE-DES-MONTS","704F0PN","2021-02-16 19:00","2021","02","16","19:00","-7.2","","-8.1","","93","","0.0","","5","","49","","","","100.72","","","","-18","","NA"
"-67.38","49.32","POINTE-DES-MONTS","704F0PN","2021-02-16 20:00","2021","02","16","20:00","-6.9","","-7.8","","93","","0.0","","5","","51","","","","100.59","","","","-18","","NA"
"-67.38","49.32","POINTE-DES-MONTS","704F0PN","2021-02-16 21:00","2021","02","16","21:00","-7.4","","-8.8","","90","","0.3","","5","","44","","","","100.47","","","","-18","","NA"
"-67.38","49.32","POINTE-DES-MONTS","704F0PN","2021-02-16 22:00","2021","02","16","22:00","-7.0","","-8.6","","88","","0.0","","5","","45","","","","100.41","","","","-17","","NA"
"-67.38","49.32","POINTE-DES-MONTS","704F0PN","2021-02-16 23:00","2021","02","16","23:00","-7.3","","-8.3","","92","","0.2","","4","","34","","","","100.34","","","","-16","","NA"
"-67.38","49.32","POINTE-DES-MONTS","704F0PN","2021-02-17 00:00","2021","02","17","00:00","-8.9","","-10.2","","90","","0.5","","2","","21","","","","100.30","","","","-17","","NA"
"-67.38","49.32","POINTE-DES-MONTS","704F0PN","2021-02-17 01:00","2021","02","17","01:00","-10.0","","-11.5","","89","","0.4","","1","","15","","","","100.37","","","","-17","","NA"
"-67.38","49.32","POINTE-DES-MONTS","704F0PN","2021-02-17 02:00","2021","02","17","02:00","-10.4","","-12.0","","88","","0.5","","1","","11","","","","100.39","","","","-16","","NA"
"-67.38","49.32","POINTE-DES-MONTS","704F0PN","2021-02-17 03:00","2021","02","17","03:00","-10.4","","-12.2","","87","","0.3","","35","","9","","","","100.39","","","","-15","","NA"
"-67.38","49.32","POINTE-DES-MONTS","704F0PN","2021-02-17 04:00","2021","02","17","04:00","-10.6","","-12.8","","83","","0.0","","33","","11","","","","100.47","","","","-16","","NA"
"-67.38","49.32","POINTE-DES-MONTS","704F0PN","2021-02-17 05:00","2021","02","17","05:00","-10.8","","-13.3","","82","","0.0","","32","","12","","","","100.57","","","","-17","","NA"
"-67.38","49.32","POINTE-DES-MONTS","704F0PN","2021-02-17 06:00","2021","02","17","06:00","-11.2","","-14.2","","79","","0.0","","32","","16","","","","100.68","","","","-18","","NA"
"-67.38","49.32","POINTE-DES-MONTS","704F0PN","2021-02-17 07:00","2021","02","17","07:00","-11.5","","-14.5","","79","","0.0","","29","","14","","","","100.82","","","","-18","","NA"
"-67.38","49.32","POINTE-DES-MONTS","704F0PN","2021-02-17 08:00","2021","02","17","08:00","-10.4","","-14.9","","69","","0.0","","29","","10","","","","100.92","","","","-16","","NA"
"-67.38","49.32","POINTE-DES-MONTS","704F0PN","2021-02-17 09:00","2021","02","17","09:00","-9.4","","-13.8","","70","","0.0","","27","","25","","","","101.01","","","","-18","","NA"
"-67.38","49.32","POINTE-DES-MONTS","704F0PN","2021-02-17 10:00","2021","02","17","10:00","-8.3","","-14.3","","62","","0.0","","27","","28","","","","101.10","","","","-17","","NA"
"-67.38","49.32","POINTE-DES-MONTS","704F0PN","2021-02-17 11:00","2021","02","17","11:00","-7.4","","-14.1","","59","","0.0","","28","","27","","","","101.20","","","","-16","","NA"
"-67.38","49.32","POINTE-DES-MONTS","704F0PN","2021-02-17 12:00","2021","02","17","12:00","-6.0","","-14.1","","53","","0.0","","28","","24","","","","101.23","","","","-13","","NA"
"-67.38","49.32","POINTE-DES-MONTS","704F0PN","2021-02-17 13:00","2021","02","17","13:00","-5.5","","-13.2","","55","","0.0","","27","","34","","","","101.27","","","","-14","","NA"
"-67.38","49.32","POINTE-DES-MONTS","704F0PN","2021-02-17 14:00","2021","02","17","14:00","-5.3","","-13.1","","54","","0.0","","26","","38","","","","101.32","","","","-14","","NA"
"-67.38","49.32","POINTE-DES-MONTS","704F0PN","2021-02-17 15:00","2021","02","17","15:00","-5.3","","-11.9","","60","","0.0","","26","","43","","","","101.41","","","","-15","","NA"
"-67.38","49.32","POINTE-DES-MONTS","704F0PN","2021-02-17 16:00","2021","02","17","16:00","-5.5","","-12.1","","60","","0.0","","27","","34","","","","101.52","","","","-14","","NA"
"-67.38","49.32","POINTE-DES-MONTS","704F0PN","2021-02-17 17:00","2021","02","17","17:00","-6.2","","-12.6","","60","","0.0","","27","","30","","","","101.63","","","","-15","","NA"
"-67.38","49.32","POINTE-DES-MONTS","704F0PN","2021-02-17 18:00","2021","02","17","18:00","-6.6","","-12.5","","63","","0.0","","26","","41","","","","101.77","","","","-16","","NA"
"-67.38","49.32","POINTE-DES-MONTS","704F0PN","2021-02-17 19:00","2021","02","17","19:00","-7.9","","-12.8","","68","","0.0","","26","","41","","","","101.92","","","","-18","","NA"
"-67.38","49.32","POINTE-DES-MONTS","704F0PN","2021-02-17 20:00","2021","02","17","20:00","-9.0","","-14.7","","63","","0.0","","27","","28","","","","102.03","","","","-18","","NA"
"-67.38","49.32","POINTE-DES-MONTS","704F0PN","2021-02-17 21:00","2021","02","17","21:00","-10.0","","-16.2","","61","","0.0","","28","","25","","","","102.15","","","","-19","","NA"
"-67.38","49.32","POINTE-DES-MONTS","704F0PN","2021-02-17 22:00","2021","02","17","22:00","-10.7","","-16.3","","63","","0.0","","28","","31","","","","102.21","","","","-21","","NA"
"-67.38","49.32","POINTE-DES-MONTS","704F0PN","2021-02-17 23:00","2021","02","17","23:00","-11.6","","-17.5","","62","","0.0","","28","","38","","","","102.24","","","","-23","","NA"
"-67.38","49.32","POINTE-DES-MONTS","704F0PN","2021-02-18 00:00","2021","02","18","00:00","-12.2","","-17.8","","63","","0.0","","27","","42","","","","102.27","","","","-24","","NA"
"-67.38","49.32","POINTE-DES-MONTS","704F0PN","2021-02-18 01:00","2021","02","18","01:00","-12.8","","-18.8","","61","","0.0","","27","","34","","","","102.38","","","","-24","","NA"
"-67.38","49.32","POINTE-DES-MONTS","704F0PN","2021-02-18 02:00","2021","02","18","02:00","-13.1","","-18.9","","62","","0.0","","28","","28","","","","102.45","","","","-23","","NA"
"-67.38","49.32","POINTE-DES-MONTS","704F0PN","2021-02-18 03:00","2021","02","18","03:00","-13.7","","-19.8","","60","","0.0","","27","","24","","","","102.47","","","","-23","","NA"
"-67.38","49.32","POINTE-DES-MONTS","704F0PN","2021-02-18 04:00","2021","02","18","04:00","-13.9","","-19.9","","61","","0.0","","28","","20","","","","102.54","","","","-23","","NA"
"-67.38","49.32","POINTE-DES-MONTS","704F0PN","2021-02-18 05:00","2021","02","18","05:00","-13.4","","-18.5","","65","","0.0","","26","","31","","","","102.56","","","","-24","","NA"
"-67.38","49.32","POINTE-DES-MONTS","704F0PN","2021-02-18 06:00","2021","02","18","06:00","-14.1","","-19.5","","63","","0.0","","27","","26","","","","102.60","","","","-24","","NA"
"-67.38","49.32","POINTE-DES-MONTS","704F0PN","2021-02-18 07:00","2021","02","18","07:00","-14.2","","-19.4","","65","","0.0","","27","","24","","","","102.69","","","","-24","","NA"
"-67.38","49.32","POINTE-DES-MONTS","704F0PN","2021-02-18 08:00","2021","02","18","08:00","-13.7","","-20.2","","58","","0.0","","27","","26","","","","102.77","","","","-24","","NA"
"-67.38","49.32","POINTE-DES-MONTS","704F0PN","2021-02-18 09:00","2021","02","18","09:00","-12.6","","-20.7","","51","","0.0","","28","","15","","","","102.76","","","","-20","","NA"
"-67.38","49.32","POINTE-DES-MONTS","704F0PN","2021-02-18 10:00","2021","02","18","10:00","-11.7","","-20.5","","48","","0.0","","28","","23","","","","102.75","","","","-21","","NA"
"-67.38","49.32","POINTE-DES-MONTS","704F0PN","2021-02-18 11:00","2021","02","18","11:00","-10.1","","-19.8","","45","","0.0","","27","","24","","","","102.76","","","","-19","","NA"
"-67.38","49.32","POINTE-DES-MONTS","704F0PN","2021-02-18 12:00","2021","02","18","12:00","-9.4","","-19.7","","43","","0.0","","26","","26","","","","102.65","","","","-18","","NA"
"-67.38","49.32","POINTE-DES-MONTS","704F0PN","2021-02-18 13:00","2021","02","18","13:00","-8.3","","-18.0","","45","","0.0","","26","","24","","","","102.69","","","","-16","","NA"
"-67.38","49.32","POINTE-DES-MONTS","704F0PN","2021-02-18 14:00","2021","02","18","14:00","-7.7","","-16.9","","48","","0.0","","25","","30","","","","102.63","","","","-17","","NA"
"-67.38","49.32","POINTE-DES-MONTS","704F0PN","2021-02-18 15:00","2021","02","18","15:00","-7.1","","-19.1","","38","","0.0","","29","","15","","","","102.55","","","","-13","","NA"
"-67.38","49.32","POINTE-DES-MONTS","704F0PN","2021-02-18 16:00","2021","02","18","16:00","-7.2","","-18.0","","42","","0.0","","28","","10","","","","102.64","","","","-12","","NA"
"-67.38","49.32","POINTE-DES-MONTS","704F0PN","2021-02-18 17:00","2021","02","18","17:00","-8.4","","-18.2","","45","","0.0","","28","","12","","","","102.70","","","","-14","","NA"
"-67.38","49.32","POINTE-DES-MONTS","704F0PN","2021-02-18 18:00","2021","02","18","18:00","-8.9","","-17.3","","50","","0.0","","28","","13","","","","102.77","","","","-15","","NA"
"-67.38","49.32","POINTE-DES-MONTS","704F0PN","2021-02-18 19:00","2021","02","18","19:00","-9.7","","-16.9","","56","","0.0","","28","","12","","","","102.79","","","","-16","","NA"
"-67.38","49.32","POINTE-DES-MONTS","704F0PN","2021-02-18 20:00","2021","02","18","20:00","-10.4","","-18.4","","52","","0.0","","29","","11","","","","102.78","","","","-16","","NA"
"-67.38","49.32","POINTE-DES-MONTS","704F0PN","2021-02-18 21:00","2021","02","18","21:00","-11.9","","-19.1","","55","","0.0","","32","","12","","","","102.70","","","","-18","","NA"
"-67.38","49.32","POINTE-DES-MONTS","704F0PN","2021-02-18 22:00","2021","02","18","22:00","-12.2","","-19.0","","57","","0.0","","32","","11","","","","102.70","","","","-18","","NA"
"-67.38","49.32","POINTE-DES-MONTS","704F0PN","2021-02-18 23:00","2021","02","18","23:00","-13.4","","-19.7","","59","","0.0","","31","","9","","","","102.66","","","","-19","","NA"
"-67.38","49.32","POINTE-DES-MONTS","704F0PN","2021-02-19 00:00","2021","02","19","00:00","-14.6","","-20.0","","64","","0.0","","31","","10","","","","102.69","","","","-21","","NA"
"-67.38","49.32","POINTE-DES-MONTS","704F0PN","2021-02-19 01:00","2021","02","19","01:00","-14.4","","-20.2","","62","","0.0","","32","","12","","","","102.68","","","","-21","","NA"
"-67.38","49.32","POINTE-DES-MONTS","704F0PN","2021-02-19 02:00","2021","02","19","02:00","-14.4","","-20.2","","61","","0.0","","32","","13","","","","102.68","","","","-22","","NA"
"-67.38","49.32","POINTE-DES-MONTS","704F0PN","2021-02-19 03:00","2021","02","19","03:00","-14.6","","-20.3","","62","","0.0","","32","","13","","","","102.64","","","","-22","","NA"
"-67.38","49.32","POINTE-DES-MONTS","704F0PN","2021-02-19 04:00","2021","02","19","04:00","-14.8","","-20.3","","63","","0.0","","32","","12","","","","102.62","","","","-22","","NA"
"-67.38","49.32","POINTE-DES-MONTS","704F0PN","2021-02-19 05:00","2021","02","19","05:00","-14.8","","-20.4","","63","","0.0","","33","","12","","","","102.59","","","","-22","","NA"
"-67.38","49.32","POINTE-DES-MONTS","704F0PN","2021-02-19 06:00","2021","02","19","06:00","-15.2","","-20.6","","63","","0.0","","33","","12","","","","102.59","","","","-22","","NA"
"-67.38","49.32","POINTE-DES-MONTS","704F0PN","2021-02-19 07:00","2021","02","19","07:00","-15.4","","-21.0","","62","","0.0","","33","","13","","","","102.62","","","","-23","","NA"
"-67.38","49.32","POINTE-DES-MONTS","704F0PN","2021-02-19 08:00","2021","02","19","08:00","-12.5","","-19.9","","54","","0.0","","33","","9","","","","102.63","","","","-18","","NA"
"-67.38","49.32","POINTE-DES-MONTS","704F0PN","2021-02-19 09:00","2021","02","19","09:00","-8.6","","-18.9","","43","","0.0","","36","","3","","","","102.63","","","","-10","","NA"
"-67.38","49.32","POINTE-DES-MONTS","704F0PN","2021-02-19 10:00","2021","02","19","10:00","-8.1","","-18.1","","45","","0.0","","7","","8","","","","102.57","","","","-12","","NA"
"-67.38","49.32","POINTE-DES-MONTS","704F0PN","2021-02-19 11:00","2021","02","19","11:00","-7.5","","-16.7","","48","","0.0","","18","","7","","","","102.55","","","","-11","","NA"
"-67.38","49.32","POINTE-DES-MONTS","704F0PN","2021-02-19 12:00","2021","02","19","12:00","-7.4","","-14.1","","59","","0.0","","19","","9","","","","102.50","","","","-12","","NA"
"-67.38","49.32","POINTE-DES-MONTS","704F0PN","2021-02-19 13:00","2021","02","19","13:00","-7.9","","-12.9","","67","","0.0","","20","","18","","","","102.43","","","","-15","","NA"
"-67.38","49.32","POINTE-DES-MONTS","704F0PN","2021-02-19 14:00","2021","02","19","14:00","-7.6","","-13.1","","65","","0.0","","22","","19","","","","102.35","","","","-15","","NA"
"-67.38","49.32","POINTE-DES-MONTS","704F0PN","2021-02-19 15:00","2021","02","19","15:00","-7.9","","-13.2","","66","","0.0","","25","","22","","","","102.32","","","","-16","","NA"
"-67.38","49.32","POINTE-DES-MONTS","704F0PN","2021-02-19 16:00","2021","02","19","16:00","-7.8","","-13.0","","66","","0.0","","25","","21","","","","102.25","","","","-15","","NA"
"-67.38","49.32","POINTE-DES-MONTS","704F0PN","2021-02-19 17:00","2021","02","19","17:00","-8.0","","-12.5","","70","","0.0","","25","","16","","","","102.17","","","","-15","","NA"
"-67.38","49.32","POINTE-DES-MONTS","704F0PN","2021-02-19 18:00","2021","02","19","18:00","-8.8","","-12.8","","73","","0.0","","28","","12","","","","102.17","","","","-14","","NA"
"-67.38","49.32","POINTE-DES-MONTS","704F0PN","2021-02-19 19:00","2021","02","19","19:00","-8.1","","-11.5","","76","","0.0","","27","","16","","","","102.17","","","","-15","","NA"
"-67.38","49.32","POINTE-DES-MONTS","704F0PN","2021-02-19 20:00","2021","02","19","20:00","-9.9","","-13.2","","77","","0.0","","30","","8","","","","102.10","","","","-14","","NA"
"-67.38","49.32","POINTE-DES-MONTS","704F0PN","2021-02-19 21:00","2021","02","19","21:00","-9.9","","-13.5","","75","","0.0","","28","","5","","","","102.03","","","","-13","","NA"
"-67.38","49.32","POINTE-DES-MONTS","704F0PN","2021-02-19 22:00","2021","02","19","22:00","-11.3","","-14.7","","76","","0.0","","35","","1","","","","101.98","","","","-12","","NA"
"-67.38","49.32","POINTE-DES-MONTS","704F0PN","2021-02-19 23:00","2021","02","19","23:00","-11.7","","-16.1","","70","","0.0","","36","","2","","","","101.93","","","","-13","","NA"
"-67.38","49.32","POINTE-DES-MONTS","704F0PN","2021-02-20 00:00","2021","02","20","00:00","-10.8","","-16.0","","65","","0.0","","4","","5","","","","101.91","","","","-14","","NA"
"-67.38","49.32","POINTE-DES-MONTS","704F0PN","2021-02-20 01:00","2021","02","20","01:00","-10.6","","-16.6","","61","","0.0","","35","","9","","","","101.85","","","","-16","","NA"
"-67.38","49.32","POINTE-DES-MONTS","704F0PN","2021-02-20 02:00","2021","02","20","02:00","-9.9","","-16.8","","57","","0.0","","36","","11","","","","101.81","","","","-15","","NA"
"-67.38","49.32","POINTE-DES-MONTS","704F0PN","2021-02-20 03:00","2021","02","20","03:00","-9.9","","-16.8","","57","","0.0","","1","","13","","","","101.75","","","","-16","","NA"
"-67.38","49.32","POINTE-DES-MONTS","704F0PN","2021-02-20 04:00","2021","02","20","04:00","-10.0","","-16.1","","61","","0.0","","36","","9","","","","101.74","","","","-15","","NA"
"-67.38","49.32","POINTE-DES-MONTS","704F0PN","2021-02-20 05:00","2021","02","20","05:00","-10.0","","-16.0","","62","","0.0","","36","","10","","","","101.70","","","","-15","","NA"
"-67.38","49.32","POINTE-DES-MONTS","704F0PN","2021-02-20 06:00","2021","02","20","06:00","-9.7","","-16.3","","59","","0.0","","1","","12","","","","101.68","","","","-16","","NA"
"-67.38","49.32","POINTE-DES-MONTS","704F0PN","2021-02-20 07:00","2021","02","20","07:00","-9.7","","-16.7","","56","","0.0","","1","","11","","","","101.70","","","","-15","","NA"
"-67.38","49.32","POINTE-DES-MONTS","704F0PN","2021-02-20 08:00","2021","02","20","08:00","-9.0","","-16.5","","54","","0.0","","2","","14","","","","101.69","","","","-15","","NA"
"-67.38","49.32","POINTE-DES-MONTS","704F0PN","2021-02-20 09:00","2021","02","20","09:00","-8.2","","-15.8","","54","","0.0","","3","","14","","","","101.68","","","","-14","","NA"
"-67.38","49.32","POINTE-DES-MONTS","704F0PN","2021-02-20 10:00","2021","02","20","10:00","-6.5","","-14.9","","52","","0.0","","3","","19","","","","101.64","","","","-13","","NA"
"-67.38","49.32","POINTE-DES-MONTS","704F0PN","2021-02-20 11:00","2021","02","20","11:00","-5.5","","-13.9","","52","","0.0","","3","","19","","","","101.64","","","","-12","","NA"
"-67.38","49.32","POINTE-DES-MONTS","704F0PN","2021-02-20 12:00","2021","02","20","12:00","-4.9","","-15.5","","43","","0.0","","2","","15","","","","101.60","","","","-10","","NA"
"-67.38","49.32","POINTE-DES-MONTS","704F0PN","2021-02-20 13:00","2021","02","20","13:00","-5.0","","-13.4","","52","","0.0","","5","","28","","","","101.56","","","","-13","","NA"
"-67.38","49.32","POINTE-DES-MONTS","704F0PN","2021-02-20 14:00","2021","02","20","14:00","-5.1","","-14.8","","46","","0.0","","5","","26","","","","101.56","","","","-13","","NA"
"-67.38","49.32","POINTE-DES-MONTS","704F0PN","2021-02-20 15:00","2021","02","20","15:00","-5.2","","-13.3","","53","","0.0","","5","","21","","","","101.56","","","","-12","","NA"
"-67.38","49.32","POINTE-DES-MONTS","704F0PN","2021-02-20 16:00","2021","02","20","16:00","-5.2","","-12.4","","57","","0.0","","5","","16","","","","101.58","","","","-11","","NA"
"-67.38","49.32","POINTE-DES-MONTS","704F0PN","2021-02-20 17:00","2021","02","20","17:00","-6.0","","-13.2","","57","","0.0","","4","","8","","","","101.61","","","","-10","","NA"
"-67.38","49.32","POINTE-DES-MONTS","704F0PN","2021-02-20 18:00","2021","02","20","18:00","-6.8","","-14.2","","56","","0.0","","36","","7","","","","101.69","","","","-10","","NA"
"-67.38","49.32","POINTE-DES-MONTS","704F0PN","2021-02-20 19:00","2021","02","20","19:00","-8.0","","-15.4","","55","","0.0","","32","","6","","","","101.75","","","","-11","","NA"
"-67.38","49.32","POINTE-DES-MONTS","704F0PN","2021-02-20 20:00","2021","02","20","20:00","-9.1","","-17.2","","52","","0.0","","33","","8","","","","101.77","","","","-13","","NA"
"-67.38","49.32","POINTE-DES-MONTS","704F0PN","2021-02-20 21:00","2021","02","20","21:00","-9.2","","-17.5","","51","","0.0","","33","","8","","","","101.81","","","","-14","","NA"
"-67.38","49.32","POINTE-DES-MONTS","704F0PN","2021-02-20 22:00","2021","02","20","22:00","-9.5","","-17.7","","51","","0.0","","33","","9","","","","101.84","","","","-14","","NA"
"-67.38","49.32","POINTE-DES-MONTS","704F0PN","2021-02-20 23:00","2021","02","20","23:00","-9.5","","-17.7","","52","","0.0","","33","","10","","","","101.86","","","","-15","","NA"
"-67.38","49.32","POINTE-DES-MONTS","704F0PN","2021-02-21 00:00","2021","02","21","00:00","-9.8","","-17.8","","52","","0.0","","32","","10","","","","101.89","","","","-15","","NA"
"-67.38","49.32","POINTE-DES-MONTS","704F0PN","2021-02-21 01:00","2021","02","21","01:00","-9.6","","-17.5","","52","","0.0","","33","","11","","","","101.92","","","","-15","","NA"
"-67.38","49.32","POINTE-DES-MONTS","704F0PN","2021-02-21 02:00","2021","02","21","02:00","-9.3","","-17.5","","51","","0.0","","32","","11","","","","101.97","","","","-15","","NA"
"-67.38","49.32","POINTE-DES-MONTS","704F0PN","2021-02-21 03:00","2021","02","21","03:00","-9.4","","-17.6","","51","","0.0","","32","","13","","","","101.99","","","","-15","","NA"
"-67.38","49.32","POINTE-DES-MONTS","704F0PN","2021-02-21 04:00","2021","02","21","04:00","-10.1","","-17.7","","54","","0.0","","31","","13","","","","102.08","","","","-16","","NA"
"-67.38","49.32","POINTE-DES-MONTS","704F0PN","2021-02-21 05:00","2021","02","21","05:00","-10.5","","-17.6","","56","","0.0","","36","","5","","","","102.18","","","","-14","","NA"
"-67.38","49.32","POINTE-DES-MONTS","704F0PN","2021-02-21 06:00","2021","02","21","06:00","-10.8","","-17.5","","58","","0.0","","16","","2","","","","102.24","","","","-12","","NA"
"-67.38","49.32","POINTE-DES-MONTS","704F0PN","2021-02-21 07:00","2021","02","21","07:00","-9.3","","-16.9","","54","","0.0","","6","","6","","","","102.31","","","","-13","","NA"
"-67.38","49.32","POINTE-DES-MONTS","704F0PN","2021-02-21 08:00","2021","02","21","08:00","-7.9","","-17.2","","47","","0.0","","27","","4","","","","102.37","","","","-10","","NA"
"-67.38","49.32","POINTE-DES-MONTS","704F0PN","2021-02-21 09:00","2021","02","21","09:00","-7.3","","-16.3","","49","","0.0","","24","","15","","","","102.37","","","","-13","","NA"
"-67.38","49.32","POINTE-DES-MONTS","704F0PN","2021-02-21 10:00","2021","02","21","10:00","-6.3","","-14.4","","52","","0.0","","25","","28","","","","102.37","","","","-14","","NA"
"-67.38","49.32","POINTE-DES-MONTS","704F0PN","2021-02-21 11:00","2021","02","21","11:00","-5.5","","-12.0","","60","","0.0","","25","","34","","","","102.31","","","","-14","","NA"
"-67.38","49.32","POINTE-DES-MONTS","704F0PN","2021-02-21 12:00","2021","02","21","12:00","-5.3","","-10.9","","65","","0.0","","24","","43","","","","102.26","","","","-15","","NA"
"-67.38","49.32","POINTE-DES-MONTS","704F0PN","2021-02-21 13:00","2021","02","21","13:00","-4.4","","-9.2","","69","","0.0","","24","","52","","","","102.15","","","","-14","","NA"
"-67.38","49.32","POINTE-DES-MONTS","704F0PN","2021-02-21 14:00","2021","02","21","14:00","-3.7","","-8.7","","68","","0.0","","24","","48","","","","102.12","","","","-13","","NA"
"-67.38","49.32","POINTE-DES-MONTS","704F0PN","2021-02-21 15:00","2021","02","21","15:00","-3.4","","-7.5","","73","","0.0","","24","","54","","","","102.07","","","","-13","","NA"
"-67.38","49.32","POINTE-DES-MONTS","704F0PN","2021-02-21 16:00","2021","02","21","16:00","-3.2","","-7.7","","71","","0.0","","24","","51","","","","102.05","","","","-13","","NA"
"-67.38","49.32","POINTE-DES-MONTS","704F0PN","2021-02-21 17:00","2021","02","21","17:00","-3.1","","-7.1","","74","","0.0","","24","","48","","","","102.04","","","","-12","","NA"
"-67.38","49.32","POINTE-DES-MONTS","704F0PN","2021-02-21 18:00","2021","02","21","18:00","-2.7","","-7.0","","72","","0.0","","24","","47","","","","102.08","","","","-12","","NA"
"-67.38","49.32","POINTE-DES-MONTS","704F0PN","2021-02-21 19:00","2021","02","21","19:00","-3.2","","-15.3","","39","","0.0","","28","","32","","","","102.09","","","","-11","","NA"
"-67.38","49.32","POINTE-DES-MONTS","704F0PN","2021-02-21 20:00","2021","02","21","20:00","-3.9","","-12.4","","52","","0.0","","27","","33","","","","102.09","","","","-12","","NA"
"-67.38","49.32","POINTE-DES-MONTS","704F0PN","2021-02-21 21:00","2021","02","21","21:00","-4.1","","-11.5","","57","","0.0","","26","","33","","","","102.09","","","","-12","","NA"
"-67.38","49.32","POINTE-DES-MONTS","704F0PN","2021-02-21 22:00","2021","02","21","22:00","-4.5","","-11.7","","57","","0.0","","26","","37","","","","102.06","","","","-13","","NA"
"-67.38","49.32","POINTE-DES-MONTS","704F0PN","2021-02-21 23:00","2021","02","21","23:00","-4.5","","-10.1","","65","","0.0","","26","","39","","","","102.04","","","","-13","","NA"
"-67.38","49.32","POINTE-DES-MONTS","704F0PN","2021-02-22 00:00","2021","02","22","00:00","-4.9","","-10.4","","66","","0.0","","26","","35","","","","102.07","","","","-13","","NA"
"-67.38","49.32","POINTE-DES-MONTS","704F0PN","2021-02-22 01:00","2021","02","22","01:00","-5.6","","-11.1","","65","","0.0","","27","","28","","","","102.06","","","","-14","","NA"
"-67.38","49.32","POINTE-DES-MONTS","704F0PN","2021-02-22 02:00","2021","02","22","02:00","-5.5","","-10.6","","68","","0.0","","27","","35","","","","102.00","","","","-14","","NA"
"-67.38","49.32","POINTE-DES-MONTS","704F0PN","2021-02-22 03:00","2021","02","22","03:00","-5.6","","-10.5","","68","","0.0","","26","","32","","","","101.94","","","","-14","","NA"
"-67.38","49.32","POINTE-DES-MONTS","704F0PN","2021-02-22 04:00","2021","02","22","04:00","-5.5","","-9.9","","71","","0.0","","26","","32","","","","101.94","","","","-14","","NA"
"-67.38","49.32","POINTE-DES-MONTS","704F0PN","2021-02-22 05:00","2021","02","22","05:00","-5.8","","-10.3","","71","","0.0","","26","","31","","","","101.93","","","","-14","","NA"
"-67.38","49.32","POINTE-DES-MONTS","704F0PN","2021-02-22 06:00","2021","02","22","06:00","-5.4","","-9.5","","73","","0.0","","26","","29","","","","101.88","","","","-13","","NA"
"-67.38","49.32","POINTE-DES-MONTS","704F0PN","2021-02-22 07:00","2021","02","22","07:00","-5.7","","-9.8","","73","","0.0","","26","","28","","","","101.84","","","","-14","","NA"
"-67.38","49.32","POINTE-DES-MONTS","704F0PN","2021-02-22 08:00","2021","02","22","08:00","-5.3","","-9.3","","73","","0.0","","26","","30","","","","101.78","","","","-13","","NA"
"-67.38","49.32","POINTE-DES-MONTS","704F0PN","2021-02-22 09:00","2021","02","22","09:00","-4.6","","-7.7","","79","","0.0","","25","","35","","","","101.71","","","","-13","","NA"
"-67.38","49.32","POINTE-DES-MONTS","704F0PN","2021-02-22 10:00","2021","02","22","10:00","-4.2","","-7.3","","79","","0.0","","25","","34","","","","101.64","","","","-12","","NA"
"-67.38","49.32","POINTE-DES-MONTS","704F0PN","2021-02-22 11:00","2021","02","22","11:00","-4.0","","-5.9","","87","","0.0","","23","","39","","","","101.57","","","","-13","","NA"
"-67.38","49.32","POINTE-DES-MONTS","704F0PN","2021-02-22 12:00","2021","02","22","12:00","-3.8","","-6.0","","85","","0.0","","24","","38","","","","101.46","","","","-12","","NA"
"-67.38","49.32","POINTE-DES-MONTS","704F0PN","2021-02-22 13:00","2021","02","22","13:00","-3.9","","-6.8","","81","","0.0","","24","","30","","","","101.30","","","","-12","","NA"
"-67.38","49.32","POINTE-DES-MONTS","704F0PN","2021-02-22 14:00","2021","02","22","14:00","-4.0","","-7.1","","79","","0.0","","25","","25","","","","101.16","","","","-11","","NA"
"-67.38","49.32","POINTE-DES-MONTS","704F0PN","2021-02-22 15:00","2021","02","22","15:00","-3.7","","-7.7","","74","","0.0","","25","","23","","","","101.10","","","","-10","","NA"
"-67.38","49.32","POINTE-DES-MONTS","704F0PN","2021-02-22 16:00","2021","02","22","16:00","-3.6","","-7.5","","74","","0.0","","25","","21","","","","101.03","","","","-10","","NA"
"-67.38","49.32","POINTE-DES-MONTS","704F0PN","2021-02-22 17:00","2021","02","22","17:00","-3.5","","-7.4","","74","","0.0","","25","","18","","","","100.94","","","","-9","","NA"
"-67.38","49.32","POINTE-DES-MONTS","704F0PN","2021-02-22 18:00","2021","02","22","18:00","-3.1","","-8.3","","67","","0.0","","24","","16","","","","100.90","","","","-8","","NA"
"-67.38","49.32","POINTE-DES-MONTS","704F0PN","2021-02-22 19:00","2021","02","22","19:00","-2.6","","-7.3","","70","","0.0","","20","","19","","","","100.86","","","","-8","","NA"
"-67.38","49.32","POINTE-DES-MONTS","704F0PN","2021-02-22 20:00","2021","02","22","20:00","-3.6","","-5.8","","85","","0.1","","19","","33","","","","100.77","","","","-12","","NA"
"-67.38","49.32","POINTE-DES-MONTS","704F0PN","2021-02-22 21:00","2021","02","22","21:00","-3.5","","-6.8","","78","","0.0","","20","","29","","","","100.69","","","","-11","","NA"
"-67.38","49.32","POINTE-DES-MONTS","704F0PN","2021-02-22 22:00","2021","02","22","22:00","-3.3","","-6.1","","80","","0.0","","20","","26","","","","100.61","","","","-10","","NA"
"-67.38","49.32","POINTE-DES-MONTS","704F0PN","2021-02-22 23:00","2021","02","22","23:00","-3.3","","-5.6","","84","","0.0","","21","","19","","","","100.49","","","","-9","","NA"
"-67.38","49.32","POINTE-DES-MONTS","704F0PN","2021-02-23 00:00","2021","02","23","00:00","-3.5","","-5.1","","89","","0.0","","21","","15","","","","100.38","","","","-9","","NA"
"-67.38","49.32","POINTE-DES-MONTS","704F0PN","2021-02-23 01:00","2021","02","23","01:00","-4.0","","-5.6","","88","","0.0","","34","","4","","","","100.31","","","","-6","","NA"
"-67.38","49.32","POINTE-DES-MONTS","704F0PN","2021-02-23 02:00","2021","02","23","02:00","-4.8","","-6.1","","91","","0.0","","3","","9","","","","100.25","","","","-9","","NA"
"-67.38","49.32","POINTE-DES-MONTS","704F0PN","2021-02-23 03:00","2021","02","23","03:00","-4.9","","-6.0","","92","","0.1","","1","","10","","","","100.14","","","","-9","","NA"
"-67.38","49.32","POINTE-DES-MONTS","704F0PN","2021-02-23 04:00","2021","02","23","04:00","-4.7","","-5.8","","92","","0.0","","3","","12","","","","100.07","","","","-9","","NA"
"-67.38","49.32","POINTE-DES-MONTS","704F0PN","2021-02-23 05:00","2021","02","23","05:00","-2.9","","-5.0","","86","","0.0","","6","","30","","","","99.98","","","","-10","","NA"
"-67.38","49.32","POINTE-DES-MONTS","704F0PN","2021-02-23 06:00","2021","02","23","06:00","-2.5","","-5.0","","83","","0.0","","6","","29","","","","99.93","","","","-10","","NA"
"-67.38","49.32","POINTE-DES-MONTS","704F0PN","2021-02-23 07:00","2021","02","23","07:00","-2.4","","-5.1","","82","","0.0","","5","","30","","","","99.90","","","","-10","","NA"
"-67.38","49.32","POINTE-DES-MONTS","704F0PN","2021-02-23 08:00","2021","02","23","08:00","-2.3","","-5.1","","82","","0.0","","5","","30","","","","99.86","","","","-9","","NA"
"-67.38","49.32","POINTE-DES-MONTS","704F0PN","2021-02-23 09:00","2021","02","23","09:00","-2.8","","-5.2","","83","","0.0","","3","","16","","","","99.86","","","","-8","","NA"
"-67.38","49.32","POINTE-DES-MONTS","704F0PN","2021-02-23 10:00","2021","02","23","10:00","-2.4","","-4.6","","85","","0.0","","3","","13","","","","99.85","","","","-7","","NA"
"-67.38","49.32","POINTE-DES-MONTS","704F0PN","2021-02-23 11:00","2021","02","23","11:00","-2.2","","-4.1","","87","","0.0","","4","","24","","","","99.80","","","","-9","","NA"
"-67.38","49.32","POINTE-DES-MONTS","704F0PN","2021-02-23 12:00","2021","02","23","12:00","-1.9","","-3.8","","87","","0.0","","4","","21","","","","99.75","","","","-8","","NA"
"-67.38","49.32","POINTE-DES-MONTS","704F0PN","2021-02-23 13:00","2021","02","23","13:00","-1.5","","-4.1","","82","","0.0","","2","","13","","","","99.70","","","","-6","","NA"
"-67.38","49.32","POINTE-DES-MONTS","704F0PN","2021-02-23 14:00","2021","02","23","14:00","-1.3","","-3.9","","82","","0.0","","2","","11","","","","99.68","","","","-5","","NA"
"-67.38","49.32","POINTE-DES-MONTS","704F0PN","2021-02-23 15:00","2021","02","23","15:00","-1.3","","-3.9","","82","","0.0","","3","","13","","","","99.66","","","","-6","","NA"
"-67.38","49.32","POINTE-DES-MONTS","704F0PN","2021-02-23 16:00","2021","02","23","16:00","-1.5","","-4.0","","83","","0.0","","1","","11","","","","99.67","","","","-5","","NA"
"-67.38","49.32","POINTE-DES-MONTS","704F0PN","2021-02-23 17:00","2021","02","23","17:00","-1.7","","-3.9","","85","","0.0","","1","","7","","","","99.72","","","","-4","","NA"
"-67.38","49.32","POINTE-DES-MONTS","704F0PN","2021-02-23 18:00","2021","02","23","18:00","-1.9","","-3.9","","86","","0.0","","35","","4","","","","99.78","","","","-3","","NA"
"-67.38","49.32","POINTE-DES-MONTS","704F0PN","2021-02-23 19:00","2021","02","23","19:00","-1.9","","-3.9","","86","","0.0","","34","","4","","","","99.83","","","","-3","","NA"
"-67.38","49.32","POINTE-DES-MONTS","704F0PN","2021-02-23 20:00","2021","02","23","20:00","-2.1","","-4.0","","86","","0.0","","28","","1","","","","99.84","","","","-2","","NA"
"-67.38","49.32","POINTE-DES-MONTS","704F0PN","2021-02-23 21:00","2021","02","23","21:00","-1.9","","-3.7","","88","","0.0","","27","","6","","","","99.88","","","","-4","","NA"
"-67.38","49.32","POINTE-DES-MONTS","704F0PN","2021-02-23 22:00","2021","02","23","22:00","-2.3","","-4.2","","86","","0.0","","29","","5","","","","99.88","","","","-4","","NA"
"-67.38","49.32","POINTE-DES-MONTS","704F0PN","2021-02-23 23:00","2021","02","23","23:00","-2.7","","-4.7","","86","","0.0","","28","","7","","","","99.90","","","","-6","","NA"
"-67.38","49.32","POINTE-DES-MONTS","704F0PN","2021-02-24 00:00","2021","02","24","00:00","-2.5","","-4.3","","88","","0.0","","28","","9","","","","99.90","","","","-6","","NA"
"-67.38","49.32","POINTE-DES-MONTS","704F0PN","2021-02-24 01:00","2021","02","24","01:00","-2.0","","-3.8","","88","","0.0","","28","","9","","","","99.93","","","","-5","","NA"
"-67.38","49.32","POINTE-DES-MONTS","704F0PN","2021-02-24 02:00","2021","02","24","02:00","-2.7","","-4.6","","86","","0.0","","30","","5","","","","99.93","","","","-5","","NA"
"-67.38","49.32","POINTE-DES-MONTS","704F0PN","2021-02-24 03:00","2021","02","24","03:00","-3.1","","-4.9","","87","","0.0","","29","","5","","","","99.95","","","","-5","","NA"
"-67.38","49.32","POINTE-DES-MONTS","704F0PN","2021-02-24 04:00","2021","02","24","04:00","-2.1","","-4.0","","87","","0.0","","24","","14","","","","99.99","","","","-7","","NA"
"-67.38","49.32","POINTE-DES-MONTS","704F0PN","2021-02-24 05:00","2021","02","24","05:00","-1.8","","-3.0","","92","","0.0","","23","","20","","","","100.02","","","","-8","","NA"
"-67.38","49.32","POINTE-DES-MONTS","704F0PN","2021-02-24 06:00","2021","02","24","06:00","-2.0","","-3.3","","91","","0.0","","24","","27","","","","100.03","","","","-9","","NA"
"-67.38","49.32","POINTE-DES-MONTS","704F0PN","2021-02-24 07:00","2021","02","24","07:00","-1.8","","-3.0","","92","","0.0","","24","","24","","","","100.09","","","","-8","","NA"
"-67.38","49.32","POINTE-DES-MONTS","704F0PN","2021-02-24 08:00","2021","02","24","08:00","-1.6","","-2.6","","93","","0.0","","23","","23","","","","100.14","","","","-8","","NA"
"-67.38","49.32","POINTE-DES-MONTS","704F0PN","2021-02-24 09:00","2021","02","24","09:00","-1.4","","-2.2","","94","","0.0","","24","","26","","","","100.14","","","","-8","","NA"
"-67.38","49.32","POINTE-DES-MONTS","704F0PN","2021-02-24 10:00","2021","02","24","10:00","-1.4","","-2.5","","92","","0.0","","25","","19","","","","100.15","","","","-7","","NA"
"-67.38","49.32","POINTE-DES-MONTS","704F0PN","2021-02-24 11:00","2021","02","24","11:00","-0.9","","-3.2","","84","","0.0","","24","","24","","","","100.13","","","","-7","","NA"
"-67.38","49.32","POINTE-DES-MONTS","704F0PN","2021-02-24 12:00","2021","02","24","12:00","-0.9","","-2.7","","87","","0.0","","25","","26","","","","100.14","","","","-7","","NA"
"-67.38","49.32","POINTE-DES-MONTS","704F0PN","2021-02-24 13:00","2021","02","24","13:00","-0.3","","-1.6","","91","","0.0","","25","","24","","","","100.13","","","","-6","","NA"
"-67.38","49.32","POINTE-DES-MONTS","704F0PN","2021-02-24 14:00","2021","02","24","14:00","-0.1","","-1.6","","90","","0.0","","24","","21","","","","100.11","","","","-6","","NA"
"-67.38","49.32","POINTE-DES-MONTS","704F0PN","2021-02-24 15:00","2021","02","24","15:00","0.7","","-3.0","","76","","0.0","","25","","44","","","","100.14","","","","","","NA"
"-67.38","49.32","POINTE-DES-MONTS","704F0PN","2021-02-24 16:00","2021","02","24","16:00","0.3","","-3.6","","75","","0.0","","25","","43","","","","100.19","","","","","","NA"
"-67.38","49.32","POINTE-DES-MONTS","704F0PN","2021-02-24 17:00","2021","02","24","17:00","-0.4","","-3.3","","81","","0.0","","25","","30","","","","100.25","","","","-7","","NA"
"-67.38","49.32","POINTE-DES-MONTS","704F0PN","2021-02-24 18:00","2021","02","24","18:00","-1.0","","-4.5","","77","","0.0","","25","","39","","","","100.28","","","","-9","","NA"
"-67.38","49.32","POINTE-DES-MONTS","704F0PN","2021-02-24 19:00","2021","02","24","19:00","-1.5","","-5.3","","75","","0.0","","25","","44","","","","100.31","","","","-10","","NA"
"-67.38","49.32","POINTE-DES-MONTS","704F0PN","2021-02-24 20:00","2021","02","24","20:00","-2.3","","-6.9","","71","","0.0","","27","","37","","","","100.28","","","","-10","","NA"
"-67.38","49.32","POINTE-DES-MONTS","704F0PN","2021-02-24 21:00","2021","02","24","21:00","-2.8","","-7.0","","73","","0.0","","26","","30","","","","100.28","","","","-10","","NA"
"-67.38","49.32","POINTE-DES-MONTS","704F0PN","2021-02-24 22:00","2021","02","24","22:00","-3.1","","-6.7","","76","","0.1","","26","","32","","","","100.24","","","","-11","","NA"
"-67.38","49.32","POINTE-DES-MONTS","704F0PN","2021-02-24 23:00","2021","02","24","23:00","-3.9","","-8.3","","72","","0.0","","26","","18","","","","100.19","","","","-10","","NA"
"-67.38","49.32","POINTE-DES-MONTS","704F0PN","2021-02-25 00:00","2021","02","25","00:00","-4.5","","-9.3","","70","","0.0","","29","","2","","","","100.15","","","","-5","","NA"
"-67.38","49.32","POINTE-DES-MONTS","704F0PN","2021-02-25 01:00","2021","02","25","01:00","-4.6","","-9.3","","70","","0.0","","27","","9","","","","100.11","","","","-8","","NA"
"-67.38","49.32","POINTE-DES-MONTS","704F0PN","2021-02-25 02:00","2021","02","25","02:00","-5.5","","-9.9","","71","","0.0","","28","","9","","","","100.09","","","","-10","","NA"
"-67.38","49.32","POINTE-DES-MONTS","704F0PN","2021-02-25 03:00","2021","02","25","03:00","-6.5","","-10.7","","72","","0.0","","28","","8","","","","100.04","","","","-10","","NA"
"-67.38","49.32","POINTE-DES-MONTS","704F0PN","2021-02-25 04:00","2021","02","25","04:00","-7.6","","-12.0","","71","","0.0","","32","","10","","","","100.00","","","","-12","","NA"
"-67.38","49.32","POINTE-DES-MONTS","704F0PN","2021-02-25 05:00","2021","02","25","05:00","-7.9","","-12.3","","71","","0.0","","32","","11","","","","99.99","","","","-13","","NA"
"-67.38","49.32","POINTE-DES-MONTS","704F0PN","2021-02-25 06:00","2021","02","25","06:00","-8.0","","-12.5","","70","","0.0","","32","","12","","","","99.98","","","","-13","","NA"
"-67.38","49.32","POINTE-DES-MONTS","704F0PN","2021-02-25 07:00","2021","02","25","07:00","-8.6","","-13.5","","67","","0.0","","32","","15","","","","100.04","","","","-15","","NA"
"-67.38","49.32","POINTE-DES-MONTS","704F0PN","2021-02-25 08:00","2021","02","25","08:00","-8.2","","-14.2","","62","","0.0","","32","","19","","","","100.12","","","","-15","","NA"
"-67.38","49.32","POINTE-DES-MONTS","704F0PN","2021-02-25 09:00","2021","02","25","09:00","-8.3","","-14.8","","60","","0.0","","32","","15","","","","100.16","","","","-15","","NA"
"-67.38","49.32","POINTE-DES-MONTS","704F0PN","2021-02-25 10:00","2021","02","25","10:00","-7.1","","-15.2","","53","","0.0","","32","","16","","","","100.26","","","","-13","","NA"
"-67.38","49.32","POINTE-DES-MONTS","704F0PN","2021-02-25 11:00","2021","02","25","11:00","-6.3","","-15.9","","47","","0.0","","31","","15","","","","100.30","","","","-12","","NA"
"-67.38","49.32","POINTE-DES-MONTS","704F0PN","2021-02-25 12:00","2021","02","25","12:00","-5.8","","-15.8","","45","","0.0","","29","","18","","","","100.30","","","","-12","","NA"
"-67.38","49.32","POINTE-DES-MONTS","704F0PN","2021-02-25 13:00","2021","02","25","13:00","-5.3","","-16.6","","41","","0.0","","28","","21","","","","100.32","","","","-12","","NA"
"-67.38","49.32","POINTE-DES-MONTS","704F0PN","2021-02-25 14:00","2021","02","25","14:00","-5.9","","-14.6","","50","","0.2","","27","","33","","","","100.36","","","","-15","","NA"
"-67.38","49.32","POINTE-DES-MONTS","704F0PN","2021-02-25 15:00","2021","02","25","15:00","-6.4","","-16.7","","44","","0.0","","27","","33","","","","100.46","","","","-15","","NA"
"-67.38","49.32","POINTE-DES-MONTS","704F0PN","2021-02-25 16:00","2021","02","25","16:00","-7.1","","-17.7","","43","","0.0","","29","","23","","","","100.59","","","","-15","","NA"
"-67.38","49.32","POINTE-DES-MONTS","704F0PN","2021-02-25 17:00","2021","02","25","17:00","-9.1","","-18.7","","46","","0.0","","28","","30","","","","100.73","","","","-18","","NA"
"-67.38","49.32","POINTE-DES-MONTS","704F0PN","2021-02-25 18:00","2021","02","25","18:00","-10.7","","-18.7","","52","","0.0","","28","","20","","","","100.92","","","","-19","","NA"
"-67.38","49.32","POINTE-DES-MONTS","704F0PN","2021-02-25 19:00","2021","02","25","19:00","-11.2","","-18.4","","55","","0.0","","27","","29","","","","101.04","","","","-21","","NA"
"-67.38","49.32","POINTE-DES-MONTS","704F0PN","2021-02-25 20:00","2021","02","25","20:00","-12.1","","-19.6","","53","","0.0","","27","","23","","","","101.17","","","","-21","","NA"
"-67.38","49.32","POINTE-DES-MONTS","704F0PN","2021-02-25 21:00","2021","02","25","21:00","-12.4","","-18.7","","60","","0.0","","27","","28","","","","101.24","","","","-22","","NA"
"-67.38","49.32","POINTE-DES-MONTS","704F0PN","2021-02-25 22:00","2021","02","25","22:00","-13.5","","-20.2","","57","","0.0","","27","","29","","","","101.32","","","","-24","","NA"
"-67.38","49.32","POINTE-DES-MONTS","704F0PN","2021-02-25 23:00","2021","02","25","23:00","-14.0","","-20.8","","57","","0.0","","27","","31","","","","101.38","","","","-25","","NA"
"-67.38","49.32","POINTE-DES-MONTS","704F0PN","2021-02-26 00:00","2021","02","26","00:00","-14.7","","-21.3","","57","","0.0","","28","","41","","","","101.37","","","","-27","","NA"
"-67.38","49.32","POINTE-DES-MONTS","704F0PN","2021-02-26 01:00","2021","02","26","01:00","-15.5","","-21.7","","59","","0.0","","28","","39","","","","101.47","","","","-28","","NA"
"-67.38","49.32","POINTE-DES-MONTS","704F0PN","2021-02-26 02:00","2021","02","26","02:00","-16.5","","-23.0","","57","","0.0","","27","","11","","","","101.58","","","","-23","","NA"
"-67.38","49.32","POINTE-DES-MONTS","704F0PN","2021-02-26 03:00","2021","02","26","03:00","-16.6","","-22.8","","59","","0.0","","25","","16","","","","101.67","","","","-25","","NA"
"-67.38","49.32","POINTE-DES-MONTS","704F0PN","2021-02-26 04:00","2021","02","26","04:00","-17.0","","-23.5","","57","","0.0","","30","","16","","","","101.73","","","","-26","","NA"
"-67.38","49.32","POINTE-DES-MONTS","704F0PN","2021-02-26 05:00","2021","02","26","05:00","-17.2","","-23.8","","56","","0.0","","28","","19","","","","101.88","","","","-27","","NA"
"-67.38","49.32","POINTE-DES-MONTS","704F0PN","2021-02-26 06:00","2021","02","26","06:00","-17.8","","-24.3","","57","","0.0","","28","","13","","","","101.98","","","","-26","","NA"
"-67.38","49.32","POINTE-DES-MONTS","704F0PN","2021-02-26 07:00","2021","02","26","07:00","-17.2","","-24.8","","52","","0.0","","28","","10","","","","102.09","","","","-24","","NA"
"-67.38","49.32","POINTE-DES-MONTS","704F0PN","2021-02-26 08:00","2021","02","26","08:00","-16.4","","-25.7","","45","","0.0","","30","","10","","","","102.22","","","","-23","","NA"
"-67.38","49.32","POINTE-DES-MONTS","704F0PN","2021-02-26 09:00","2021","02","26","09:00","-15.5","","-24.7","","45","","0.0","","28","","14","","","","102.28","","","","-23","","NA"
"-67.38","49.32","POINTE-DES-MONTS","704F0PN","2021-02-26 10:00","2021","02","26","10:00","-13.6","","-23.3","","44","","0.0","","27","","25","","","","102.33","","","","-23","","NA"
"-67.38","49.32","POINTE-DES-MONTS","704F0PN","2021-02-26 11:00","2021","02","26","11:00","-12.4","","-21.6","","46","","0.0","","26","","28","","","","102.37","","","","-22","","NA"
"-67.38","49.32","POINTE-DES-MONTS","704F0PN","2021-02-26 12:00","2021","02","26","12:00","-10.8","","-19.3","","49","","0.0","","25","","28","","","","102.38","","","","-20","","NA"
"-67.38","49.32","POINTE-DES-MONTS","704F0PN","2021-02-26 13:00","2021","02","26","13:00","-9.5","","-17.9","","50","","0.0","","25","","33","","","","102.37","","","","-19","","NA"
"-67.38","49.32","POINTE-DES-MONTS","704F0PN","2021-02-26 14:00","2021","02","26","14:00","-8.4","","-16.8","","51","","0.0","","25","","38","","","","102.36","","","","-18","","NA"
"-67.38","49.32","POINTE-DES-MONTS","704F0PN","2021-02-26 15:00","2021","02","26","15:00","-7.5","","-16.4","","49","","0.0","","25","","35","","","","102.35","","","","-17","","NA"
"-67.38","49.32","POINTE-DES-MONTS","704F0PN","2021-02-26 16:00","2021","02","26","16:00","-7.0","","-13.7","","59","","0.0","","24","","35","","","","102.47","","","","-16","","NA"
"-67.38","49.32","POINTE-DES-MONTS","704F0PN","2021-02-26 17:00","2021","02","26","17:00","-7.0","","-14.4","","55","","0.0","","25","","32","","","","102.57","","","","-16","","NA"
"-67.38","49.32","POINTE-DES-MONTS","704F0PN","2021-02-26 18:00","2021","02","26","18:00","-6.3","","-13.1","","59","","0.0","","24","","39","","","","102.57","","","","-16","","NA"
"-67.38","49.32","POINTE-DES-MONTS","704F0PN","2021-02-26 19:00","2021","02","26","19:00","-5.7","","-13.5","","54","","0.0","","24","","41","","","","102.52","","","","-15","","NA"
"-67.38","49.32","POINTE-DES-MONTS","704F0PN","2021-02-26 20:00","2021","02","26","20:00","-4.8","","-9.6","","69","","0.0","","24","","52","","","","102.49","","","","-15","","NA"
"-67.38","49.32","POINTE-DES-MONTS","704F0PN","2021-02-26 21:00","2021","02","26","21:00","-4.7","","-10.7","","63","","0.0","","25","","49","","","","102.46","","","","-14","","NA"
"-67.38","49.32","POINTE-DES-MONTS","704F0PN","2021-02-26 22:00","2021","02","26","22:00","-4.5","","-8.0","","77","","0.0","","23","","50","","","","102.36","","","","-14","","NA"
"-67.38","49.32","POINTE-DES-MONTS","704F0PN","2021-02-26 23:00","2021","02","26","23:00","-5.0","","-9.5","","71","","0.0","","22","","47","","","","102.28","","","","-15","","NA"
"-67.38","49.32","POINTE-DES-MONTS","704F0PN","2021-02-27 00:00","2021","02","27","00:00","-5.6","","-10.3","","70","","0.0","","22","","44","","","","102.27","","","","-15","","NA"
"-67.38","49.32","POINTE-DES-MONTS","704F0PN","2021-02-27 01:00","2021","02","27","01:00","-4.3","","-7.6","","78","","0.0","","23","","43","","","","102.34","","","","-13","","NA"
"-67.38","49.32","POINTE-DES-MONTS","704F0PN","2021-02-27 02:00","2021","02","27","02:00","-4.4","","-7.7","","78","","0.0","","24","","51","","","","102.38","","","","-14","","NA"
"-67.38","49.32","POINTE-DES-MONTS","704F0PN","2021-02-27 03:00","2021","02","27","03:00","-4.9","","-8.5","","76","","0.0","","23","","44","","","","102.39","","","","-14","","NA"
"-67.38","49.32","POINTE-DES-MONTS","704F0PN","2021-02-27 04:00","2021","02","27","04:00","-5.2","","-8.5","","77","","0.0","","22","","40","","","","102.33","","","","-14","","NA"
"-67.38","49.32","POINTE-DES-MONTS","704F0PN","2021-02-27 05:00","2021","02","27","05:00","-5.1","","-8.4","","77","","0.0","","21","","38","","","","102.28","","","","-14","","NA"
"-67.38","49.32","POINTE-DES-MONTS","704F0PN","2021-02-27 06:00","2021","02","27","06:00","-5.1","","-9.0","","75","","0.0","","21","","33","","","","102.24","","","","-13","","NA"
"-67.38","49.32","POINTE-DES-MONTS","704F0PN","2021-02-27 07:00","2021","02","27","07:00","-5.0","","-8.5","","76","","0.0","","22","","37","","","","102.24","","","","-14","","NA"
"-67.38","49.32","POINTE-DES-MONTS","704F0PN","2021-02-27 08:00","2021","02","27","08:00","-4.2","","-8.1","","74","","0.0","","23","","29","","","","102.22","","","","-12","","NA"
"-67.38","49.32","POINTE-DES-MONTS","704F0PN","2021-02-27 09:00","2021","02","27","09:00","-3.2","","-7.6","","72","","0.0","","23","","35","","","","102.09","","","","-11","","NA"
"-67.38","49.32","POINTE-DES-MONTS","704F0PN","2021-02-27 10:00","2021","02","27","10:00","-3.0","","-7.7","","70","","0.0","","22","","33","","","","102.02","","","","-11","","NA"
"-67.38","49.32","POINTE-DES-MONTS","704F0PN","2021-02-27 11:00","2021","02","27","11:00","-2.5","","-7.7","","67","","0.0","","22","","34","","","","101.94","","","","-10","","NA"
"-67.38","49.32","POINTE-DES-MONTS","704F0PN","2021-02-27 12:00","2021","02","27","12:00","-1.9","","-8.3","","62","","0.0","","23","","35","","","","101.85","","","","-9","","NA"
"-67.38","49.32","POINTE-DES-MONTS","704F0PN","2021-02-27 13:00","2021","02","27","13:00","-1.3","","-8.0","","60","","0.0","","24","","22","","","","101.68","","","","-7","","NA"
"-67.38","49.32","POINTE-DES-MONTS","704F0PN","2021-02-27 14:00","2021","02","27","14:00","-1.3","","-8.1","","60","","0.0","","26","","16","","","","101.48","","","","-6","","NA"
"-67.38","49.32","POINTE-DES-MONTS","704F0PN","2021-02-27 15:00","2021","02","27","15:00","-0.7","","-9.1","","53","","0.0","","27","","11","","","","101.38","","","","-4","","NA"
"-67.38","49.32","POINTE-DES-MONTS","704F0PN","2021-02-27 16:00","2021","02","27","16:00","-0.6","","-8.5","","55","","0.0","","27","","7","","","","101.30","","","","-3","","NA"
"-67.38","49.32","POINTE-DES-MONTS","704F0PN","2021-02-27 17:00","2021","02","27","17:00","-0.4","","-7.2","","60","","0.0","","23","","5","","","","101.31","","","","-2","","NA"
"-67.38","49.32","POINTE-DES-MONTS","704F0PN","2021-02-27 18:00","2021","02","27","18:00","-1.7","","-2.4","","95","","0.2","","24","","17","","","","101.28","","","","-7","","NA"
"-67.38","49.32","POINTE-DES-MONTS","704F0PN","2021-02-27 19:00","2021","02","27","19:00","-1.9","","-2.3","","97","","1.6","","32","","3","","","","101.11","","","","-3","","NA"
"-67.38","49.32","POINTE-DES-MONTS","704F0PN","2021-02-27 20:00","2021","02","27","20:00","-1.6","","-2.0","","97","","0.9","","36","","8","","","","101.02","","","","-5","","NA"
"-67.38","49.32","POINTE-DES-MONTS","704F0PN","2021-02-27 21:00","2021","02","27","21:00","-1.6","","-2.0","","97","","0.7","","1","","9","","","","100.96","","","","-5","","NA"
"-67.38","49.32","POINTE-DES-MONTS","704F0PN","2021-02-27 22:00","2021","02","27","22:00","-1.8","","-2.2","","97","","1.0","","2","","12","","","","100.93","","","","-6","","NA"
"-67.38","49.32","POINTE-DES-MONTS","704F0PN","2021-02-27 23:00","2021","02","27","23:00","-2.0","","-2.5","","96","","0.4","","2","","11","","","","100.93","","","","-6","","NA"
"-67.38","49.32","POINTE-DES-MONTS","704F0PN","2021-02-28 00:00","2021","02","28","00:00","-2.1","","-2.7","","95","","0.2","","1","","9","","","","101.00","","","","-6","","NA"
"-67.38","49.32","POINTE-DES-MONTS","704F0PN","2021-02-28 01:00","2021","02","28","01:00","-2.4","","-3.3","","93","","0.0","","1","","8","","","","101.09","","","","-6","","NA"
"-67.38","49.32","POINTE-DES-MONTS","704F0PN","2021-02-28 02:00","2021","02","28","02:00","-2.4","","-3.2","","94","","0.0","","2","","2","","","","101.23","","","","-3","","NA"
"-67.38","49.32","POINTE-DES-MONTS","704F0PN","2021-02-28 03:00","2021","02","28","03:00","-3.5","","-4.3","","94","","0.0","","27","","9","","","","101.34","","","","-7","","NA"
"-67.38","49.32","POINTE-DES-MONTS","704F0PN","2021-02-28 04:00","2021","02","28","04:00","-2.9","","-4.4","","89","","0.0","","27","","20","","","","101.47","","","","-9","","NA"
"-67.38","49.32","POINTE-DES-MONTS","704F0PN","2021-02-28 05:00","2021","02","28","05:00","-4.5","","-5.9","","89","","0.0","","25","","5","","","","101.61","","","","-7","","NA"
"-67.38","49.32","POINTE-DES-MONTS","704F0PN","2021-02-28 06:00","2021","02","28","06:00","-4.4","","-6.1","","88","","0.0","","25","","12","","","","101.67","","","","-9","","NA"
"-67.38","49.32","POINTE-DES-MONTS","704F0PN","2021-02-28 07:00","2021","02","28","07:00","-4.1","","-6.3","","85","","0.0","","31","","13","","","","101.77","","","","-9","","NA"
"-67.38","49.32","POINTE-DES-MONTS","704F0PN","2021-02-28 08:00","2021","02","28","08:00","-2.9","","-5.6","","81","","0.0","","31","","14","","","","101.87","","","","-8","","NA"
"-67.38","49.32","POINTE-DES-MONTS","704F0PN","2021-02-28 09:00","2021","02","28","09:00","-0.1","","-4.6","","72","","0.0","","32","","11","","","","101.88","","","","-4","","NA"
"-67.38","49.32","POINTE-DES-MONTS","704F0PN","2021-02-28 10:00","2021","02","28","10:00","0.4","","-5.6","","64","","0.0","","26","","16","","","","102.00","","","","","","NA"
"-67.38","49.32","POINTE-DES-MONTS","704F0PN","2021-02-28 11:00","2021","02","28","11:00","0.0","","-3.7","","76","","0.0","","25","","21","","","","101.99","","","","-5","","NA"
"-67.38","49.32","POINTE-DES-MONTS","704F0PN","2021-02-28 12:00","2021","02","28","12:00","-0.2","","-3.3","","80","","0.0","","23","","23","","","","101.96","","","","-6","","NA"
"-67.38","49.32","POINTE-DES-MONTS","704F0PN","2021-02-28 13:00","2021","02","28","13:00","0.5","","-4.9","","67","","0.0","","26","","18","","","","102.02","","","","","","NA"
"-67.38","49.32","POINTE-DES-MONTS","704F0PN","2021-02-28 14:00","2021","02","28","14:00","0.5","","-5.8","","63","","0.0","","29","","13","","","","102.04","","","","","","NA"
"-67.38","49.32","POINTE-DES-MONTS","704F0PN","2021-02-28 15:00","2021","02","28","15:00","1.5","","-6.3","","56","","0.0","","31","","7","","","","102.03","","","","","","NA"
"-67.38","49.32","POINTE-DES-MONTS","704F0PN","2021-02-28 16:00","2021","02","28","16:00","0.3","","-3.8","","74","","0.0","","24","","10","","","","102.10","","","","","","NA"
"-67.38","49.32","POINTE-DES-MONTS","704F0PN","2021-02-28 17:00","2021","02","28","17:00","-0.9","","-3.8","","81","","0.0","","23","","17","","","","102.14","","","","-6","","NA"
"-67.38","49.32","POINTE-DES-MONTS","704F0PN","2021-02-28 18:00","2021","02","28","18:00","-1.2","","-3.7","","83","","0.0","","22","","15","","","","102.17","","","","-6","","NA"
"-67.38","49.32","POINTE-DES-MONTS","704F0PN","2021-02-28 19:00","2021","02","28","19:00","-2.3","","-4.2","","87","","0.0","","27","","9","","","","102.19","","","","-6","","NA"
"-67.38","49.32","POINTE-DES-MONTS","704F0PN","2021-02-28 20:00","2021","02","28","20:00","-3.1","","-4.5","","90","","0.0","","33","","2","","","","102.10","","","","-4","","NA"
"-67.38","49.32","POINTE-DES-MONTS","704F0PN","2021-02-28 21:00","2021","02","28","21:00","-3.2","","-5.1","","87","","0.0","","4","","8","","","","102.03","","","","-6","","NA"
"-67.38","49.32","POINTE-DES-MONTS","704F0PN","2021-02-28 22:00","2021","02","28","22:00","-2.9","","-4.7","","87","","0.0","","5","","4","","","","101.96","","","","-4","","NA"
"-67.38","49.32","POINTE-DES-MONTS","704F0PN","2021-02-28 23:00","2021","02","28","23:00","-3.6","","-5.7","","85","","0.0","","5","","9","","","","101.81","","","","-7","","NA"
