"Longitude (x)","Latitude (y)","Station Name","Climate ID","Date/Time (LST)","Year","Month","Day","Time (LST)","Temp (°C)","Temp Flag","Dew Point Temp (°C)","Dew Point Temp Flag","Rel Hum (%)","Rel Hum Flag","Precip. Amount (mm)","Precip. Amount Flag","Wind Dir (10s deg)","Wind Dir Flag","Wind Spd (km/h)","Wind Spd Flag","Visibility (km)","Visibility Flag","Stn Press (kPa)","Stn Press Flag","Hmdx","Hmdx Flag","Wind Chill","Wind Chill Flag","Weather"
"-122.60","58.84","FORT NELSON A","1192946","2021-05-01 00:00","2021","05","01","00:00","7.7","","-4.1","","43","","","M","27","","13","","24.1","","95.91","","","","","","NA"
"-122.60","58.84","FORT NELSON A","1192946","2021-05-01 01:00","2021","05","01","01:00","7.5","","-3.7","","45","","","M","27","","12","","24.1","","95.96","","","","","","Mainly Clear"
"-122.60","58.84","FORT NELSON A","1192946","2021-05-01 02:00","2021","05","01","02:00","6.7","","-3.0","","50","","","M","28","","8","","24.1","","96.03","","","","","","NA"
"-122.60","58.84","FORT NELSON A","1192946","2021-05-01 03:00","2021","05","01","03:00","6.5","","-2.6","","52","","","M","30","","7","","24.1","","96.09","","","","","","NA"
"-122.60","58.84","FORT NELSON A","1192946","2021-05-01 04:00","2021","05","01","04:00","2.4","","-2.9","","68","","","M","14","","4","","48.3","","96.19","","","","","","Mainly Clear"
"-122.60","58.84","FORT NELSON A","1192946","2021-05-01 05:00","2021","05","01","05:00","3.2","","-1.9","","69","","","M","36","","10","","32.2","","96.27","","","","","","NA"
"-122.60","58.84","FORT NELSON A","1192946","2021-05-01 06:00","2021","05","01","06:00","4.5","","-2.1","","62","","","M","33","","8","","48.3","","96.36","","","","","","NA"
"-122.60","58.84","FORT NELSON A","1192946","2021-05-01 07:00","2021","05","01","07:00","5.1","","-1.1","","64","","","M","3","","9","","48.3","","96.41","","","","","","Mostly Cloudy"
"-122.60","58.84","FORT NELSON A","1192946","2021-05-01 08:00","2021","05","01","08:00","6.5","","-1.2","","58","","","M","4","","5","","48.3","","96.47","","","","","","NA"
"-122.60","58.84","FORT NELSON A","1192946","2021-05-01 09:00","2021","05","01","09:00","7.9","","-1.6","","51","","","M","8","","7","","48.3","","96.50","","","","","","NA"
"-122.60","58.84","FORT NELSON A","1192946","2021-05-01 10:00","2021","05","01","10:00","8.8","","-0.2","","53","","","M","2","","17","","48.3","","96.55","","","","","","Mostly Cloudy"
"-122.60","58.84","FORT NELSON A","1192946","2021-05-01 11:00","2021","05","01","11:00","9.9","","0.0","","50","","","M","2","","16","","32.2","","96.56","","","","","","NA"
"-122.60","58.84","FORT NELSON A","1192946","2021-05-01 12:00","2021","05","01","12:00","11.7","","-0.4","","43","","","M","34","","16","","32.2","","96.57","","","","","","NA"
"-122.60","58.84","FORT NELSON A","1192946","2021-05-01 13:00","2021","05","01","13:00","11.5","","-0.6","","43","","","M","35","","18","","48.3","","96.62","","","","","","Mostly Cloudy"
"-122.60","58.84","FORT NELSON A","1192946","2021-05-01 14:00","2021","05","01","14:00","12.5","","-1.4","","38","","","M","1","","19","","32.2","","96.62","","","","","","NA"
"-122.60","58.84","FORT NELSON A","1192946","2021-05-01 15:00","2021","05","01","15:00","13.2","","-0.8","","38","","","M","36","","1","","48.3","","96.66","","","","","","NA"
"-122.60","58.84","FORT NELSON A","1192946","2021-05-01 16:00","2021","05","01","16:00","13.1","","-0.8","","38","","","M","2","","8","","32.2","","96.69","","","","","","Mostly Cloudy"
"-122.60","58.84","FORT NELSON A","1192946","2021-05-01 17:00","2021","05","01","17:00","13.0","","-0.6","","39","","","M","1","","11","","48.3","","96.75","","","","","","NA"
"-122.60","58.84","FORT NELSON A","1192946","2021-05-01 18:00","2021","05","01","18:00","12.3","","-1.6","","38","","","M","34","","15","","48.3","","96.81","","","","","","NA"
"-122.60","58.84","FORT NELSON A","1192946","2021-05-01 19:00","2021","05","01","19:00","11.0","","-1.4","","42","","","M","1","","11","","48.3","","96.88","","","","","","Mostly Cloudy"
"-122.60","58.84","FORT NELSON A","1192946","2021-05-01 20:00","2021","05","01","20:00","8.8","","-1.9","","47","","","M","34","","7","","48.3","","96.94","","","","","","NA"
"-122.60","58.84","FORT NELSON A","1192946","2021-05-01 21:00","2021","05","01","21:00","7.6","","-1.6","","52","","","M","36","","8","","24.1","","97.01","","","","","","NA"
"-122.60","58.84","FORT NELSON A","1192946","2021-05-01 22:00","2021","05","01","22:00","7.3","","-0.9","","56","","","M","6","","5","","24.1","","97.09","","","","","","Mostly Cloudy"
"-122.60","58.84","FORT NELSON A","1192946","2021-05-01 23:00","2021","05","01","23:00","6.6","","-1.8","","55","","","M","36","","3","","24.1","","97.14","","","","","","NA"
"-122.60","58.84","FORT NELSON A","1192946","2021-05-02 00:00","2021","05","02","00:00","4.6","","-1.2","","66","","","M","16","","4","","24.1","","97.18","","","","","","NA"
"-122.60","58.84","FORT NELSON A","1192946","2021-05-02 01:00","2021","05","02","01:00","4.3","","-0.7","","70","","","M","32","","7","","24.1","","97.29","","","","","","Cloudy"
"-122.60","58.84","FORT NELSON A","1192946","2021-05-02 02:00","2021","05","02","02:00","5.5","","-3.1","","54","","","M","9","","16","","24.1","","97.32","","","","","","NA"
"-122.60","58.84","FORT NELSON A","1192946","2021-05-02 03:00","2021","05","02","03:00","4.6","","-2.5","","60","","","M","2","","5","","24.1","","97.38","","","","","","NA"
"-122.60","58.84","FORT NELSON A","1192946","2021-05-02 04:00","2021","05","02","04:00","4.5","","-2.4","","61","","","M","8","","8","","24.1","","97.40","","","","","","Mostly Cloudy"
"-122.60","58.84","FORT NELSON A","1192946","2021-05-02 05:00","2021","05","02","05:00","3.8","","-1.6","","68","","","M","36","","2","","48.3","","97.47","","","","","","NA"
"-122.60","58.84","FORT NELSON A","1192946","2021-05-02 06:00","2021","05","02","06:00","4.5","","-2.6","","60","","","M","36","","1","","48.3","","97.51","","","","","","NA"
"-122.60","58.84","FORT NELSON A","1192946","2021-05-02 07:00","2021","05","02","07:00","5.5","","-2.1","","58","","","M","16","","4","","48.3","","97.52","","","","","","Mainly Clear"
"-122.60","58.84","FORT NELSON A","1192946","2021-05-02 08:00","2021","05","02","08:00","7.2","","-2.3","","51","","","M","19","","7","","48.3","","97.51","","","","","","NA"
"-122.60","58.84","FORT NELSON A","1192946","2021-05-02 09:00","2021","05","02","09:00","8.6","","-2.1","","47","","","M","6","","9","","48.3","","97.53","","","","","","NA"
"-122.60","58.84","FORT NELSON A","1192946","2021-05-02 10:00","2021","05","02","10:00","9.7","","-2.6","","42","","","M","9","","9","","48.3","","97.51","","","","","","Mainly Clear"
"-122.60","58.84","FORT NELSON A","1192946","2021-05-02 11:00","2021","05","02","11:00","10.8","","-2.2","","40","","","M","8","","18","","48.3","","97.48","","","","","","NA"
"-122.60","58.84","FORT NELSON A","1192946","2021-05-02 12:00","2021","05","02","12:00","11.7","","-2.5","","37","","","M","11","","7","","48.3","","97.46","","","","","","NA"
"-122.60","58.84","FORT NELSON A","1192946","2021-05-02 13:00","2021","05","02","13:00","12.9","","-2.8","","33","","","M","12","","16","","","M","","M","","","","","Mainly Clear"
"-122.60","58.84","FORT NELSON A","1192946","2021-05-02 14:00","2021","05","02","14:00","13.9","","-2.0","","33","","","M","9","","17","","48.3","","97.37","","","","","","NA"
"-122.60","58.84","FORT NELSON A","1192946","2021-05-02 15:00","2021","05","02","15:00","12.7","","-4.4","","30","","","M","22","","3","","48.3","","97.34","","","","","","NA"
"-122.60","58.84","FORT NELSON A","1192946","2021-05-02 16:00","2021","05","02","16:00","12.9","","-4.2","","30","","","M","7","","14","","48.3","","97.31","","","","","","Mostly Cloudy"
"-122.60","58.84","FORT NELSON A","1192946","2021-05-02 17:00","2021","05","02","17:00","13.1","","-3.6","","31","","","M","8","","11","","48.3","","97.29","","","","","","NA"
"-122.60","58.84","FORT NELSON A","1192946","2021-05-02 18:00","2021","05","02","18:00","13.4","","-3.0","","32","","","M","9","","14","","","M","","M","","","","","NA"
"-122.60","58.84","FORT NELSON A","1192946","2021-05-02 19:00","2021","05","02","19:00","11.2","","-0.3","","45","","","M","18","","6","","48.3","","97.28","","","","","","Mostly Cloudy"
"-122.60","58.84","FORT NELSON A","1192946","2021-05-02 20:00","2021","05","02","20:00","10.7","","-0.7","","45","","","M","13","","4","","48.3","","97.30","","","","","","NA"
"-122.60","58.84","FORT NELSON A","1192946","2021-05-02 21:00","2021","05","02","21:00","8.9","","-3.0","","43","","","M","14","","12","","32.2","","97.35","","","","","","NA"
"-122.60","58.84","FORT NELSON A","1192946","2021-05-02 22:00","2021","05","02","22:00","7.7","","-4.1","","43","","","M","14","","8","","24.1","","97.35","","","","","","Mainly Clear"
"-122.60","58.84","FORT NELSON A","1192946","2021-05-02 23:00","2021","05","02","23:00","7.2","","-6.5","","37","","","M","12","","10","","","M","","M","","","","","NA"
"-122.60","58.84","FORT NELSON A","1192946","2021-05-03 00:00","2021","05","03","00:00","5.8","","-7.1","","39","","","M","10","","3","","24.1","","97.36","","","","","","NA"
"-122.60","58.84","FORT NELSON A","1192946","2021-05-03 01:00","2021","05","03","01:00","4.8","","-6.2","","45","","","M","10","","10","","24.1","","97.33","","","","","","Mainly Clear"
"-122.60","58.84","FORT NELSON A","1192946","2021-05-03 02:00","2021","05","03","02:00","3.9","","-5.3","","51","","","M","10","","11","","24.1","","97.32","","","","","","NA"
"-122.60","58.84","FORT NELSON A","1192946","2021-05-03 03:00","2021","05","03","03:00","3.2","","-5.2","","54","","","M","13","","7","","24.1","","97.29","","","","","","NA"
"-122.60","58.84","FORT NELSON A","1192946","2021-05-03 04:00","2021","05","03","04:00","2.7","","-5.2","","56","","","M","12","","9","","24.1","","97.28","","","","","","Mainly Clear"
"-122.60","58.84","FORT NELSON A","1192946","2021-05-03 05:00","2021","05","03","05:00","2.7","","-5.0","","57","","","M","10","","11","","","M","","M","","","","","NA"
"-122.60","58.84","FORT NELSON A","1192946","2021-05-03 06:00","2021","05","03","06:00","2.5","","-4.9","","58","","","M","11","","13","","48.3","","97.25","","","","","","NA"
"-122.60","58.84","FORT NELSON A","1192946","2021-05-03 07:00","2021","05","03","07:00","3.7","","-4.8","","54","","","M","9","","9","","48.3","","97.19","","","","","","Mostly Cloudy"
"-122.60","58.84","FORT NELSON A","1192946","2021-05-03 08:00","2021","05","03","08:00","5.6","","-4.3","","49","","","M","8","","10","","48.3","","97.14","","","","","","NA"
"-122.60","58.84","FORT NELSON A","1192946","2021-05-03 09:00","2021","05","03","09:00","8.0","","-3.8","","43","","","M","11","","11","","48.3","","97.08","","","","","","NA"
"-122.60","58.84","FORT NELSON A","1192946","2021-05-03 10:00","2021","05","03","10:00","9.4","","-3.5","","40","","","M","7","","16","","48.3","","97.01","","","","","","Mostly Cloudy"
"-122.60","58.84","FORT NELSON A","1192946","2021-05-03 11:00","2021","05","03","11:00","10.3","","-2.0","","42","","","M","13","","12","","48.3","","96.95","","","","","","NA"
"-122.60","58.84","FORT NELSON A","1192946","2021-05-03 12:00","2021","05","03","12:00","11.8","","0.0","","44","","","M","13","","12","","48.3","","96.88","","","","","","NA"
"-122.60","58.84","FORT NELSON A","1192946","2021-05-03 13:00","2021","05","03","13:00","13.4","","-0.2","","39","","","M","11","","16","","48.3","","96.81","","","","","","Mainly Clear"
"-122.60","58.84","FORT NELSON A","1192946","2021-05-03 14:00","2021","05","03","14:00","14.5","","0.4","","38","","","M","12","","19","","48.3","","96.75","","","","","","NA"
"-122.60","58.84","FORT NELSON A","1192946","2021-05-03 15:00","2021","05","03","15:00","13.9","","-0.5","","37","","","M","11","","14","","48.3","","96.70","","","","","","NA"
"-122.60","58.84","FORT NELSON A","1192946","2021-05-03 16:00","2021","05","03","16:00","13.5","","0.6","","41","","","M","11","","14","","48.3","","96.70","","","","","","Rain Showers"
"-122.60","58.84","FORT NELSON A","1192946","2021-05-03 17:00","2021","05","03","17:00","13.4","","0.8","","42","","","M","13","","11","","48.3","","96.68","","","","","","NA"
"-122.60","58.84","FORT NELSON A","1192946","2021-05-03 18:00","2021","05","03","18:00","11.1","","3.2","","58","","","M","14","","12","","48.3","","96.73","","","","","","Rain"
"-122.60","58.84","FORT NELSON A","1192946","2021-05-03 19:00","2021","05","03","19:00","10.1","","4.1","","66","","","M","21","","8","","48.3","","96.71","","","","","","Rain"
"-122.60","58.84","FORT NELSON A","1192946","2021-05-03 20:00","2021","05","03","20:00","9.3","","4.5","","72","","","M","10","","8","","19.3","","96.74","","","","","","Rain"
"-122.60","58.84","FORT NELSON A","1192946","2021-05-03 21:00","2021","05","03","21:00","8.0","","5.5","","84","","","M","2","","8","","24.1","","96.73","","","","","","Rain"
"-122.60","58.84","FORT NELSON A","1192946","2021-05-03 22:00","2021","05","03","22:00","7.8","","6.1","","89","","","M","36","","2","","24.1","","96.77","","","","","","Rain"
"-122.60","58.84","FORT NELSON A","1192946","2021-05-03 23:00","2021","05","03","23:00","8.0","","3.9","","75","","","M","5","","7","","24.1","","96.76","","","","","","Rain"
"-122.60","58.84","FORT NELSON A","1192946","2021-05-04 00:00","2021","05","04","00:00","7.0","","3.8","","80","","","M","33","","8","","24.1","","96.77","","","","","","Rain"
"-122.60","58.84","FORT NELSON A","1192946","2021-05-04 01:00","2021","05","04","01:00","6.4","","2.9","","78","","","M","33","","8","","24.1","","96.79","","","","","","Rain"
"-122.60","58.84","FORT NELSON A","1192946","2021-05-04 02:00","2021","05","04","02:00","6.2","","2.5","","77","","","M","33","","12","","24.1","","96.83","","","","","","NA"
"-122.60","58.84","FORT NELSON A","1192946","2021-05-04 03:00","2021","05","04","03:00","5.7","","2.5","","80","","","M","33","","8","","24.1","","96.88","","","","","","NA"
"-122.60","58.84","FORT NELSON A","1192946","2021-05-04 04:00","2021","05","04","04:00","5.1","","2.6","","84","","","M","36","","1","","24.1","","96.94","","","","","","Cloudy"
"-122.60","58.84","FORT NELSON A","1192946","2021-05-04 05:00","2021","05","04","05:00","5.2","","2.2","","81","","","M","30","","5","","24.1","","96.98","","","","","","NA"
"-122.60","58.84","FORT NELSON A","1192946","2021-05-04 06:00","2021","05","04","06:00","5.4","","2.8","","83","","","M","2","","4","","24.1","","97.06","","","","","","NA"
"-122.60","58.84","FORT NELSON A","1192946","2021-05-04 07:00","2021","05","04","07:00","5.6","","3.6","","87","","","M","29","","9","","16.1","","97.11","","","","","","Rain"
"-122.60","58.84","FORT NELSON A","1192946","2021-05-04 08:00","2021","05","04","08:00","5.8","","4.3","","90","","","M","26","","8","","16.1","","97.16","","","","","","Rain"
"-122.60","58.84","FORT NELSON A","1192946","2021-05-04 09:00","2021","05","04","09:00","5.4","","3.7","","89","","","M","34","","9","","12.9","","97.22","","","","","","Rain"
"-122.60","58.84","FORT NELSON A","1192946","2021-05-04 10:00","2021","05","04","10:00","5.6","","3.8","","88","","","M","28","","14","","16.1","","97.25","","","","","","Rain"
"-122.60","58.84","FORT NELSON A","1192946","2021-05-04 11:00","2021","05","04","11:00","6.3","","4.0","","85","","","M","30","","15","","19.3","","97.29","","","","","","Rain"
"-122.60","58.84","FORT NELSON A","1192946","2021-05-04 12:00","2021","05","04","12:00","7.1","","4.9","","86","","","M","36","","9","","19.3","","97.31","","","","","","Rain"
"-122.60","58.84","FORT NELSON A","1192946","2021-05-04 13:00","2021","05","04","13:00","7.5","","5.5","","87","","","M","2","","12","","24.1","","97.33","","","","","","Rain"
"-122.60","58.84","FORT NELSON A","1192946","2021-05-04 14:00","2021","05","04","14:00","8.3","","6.1","","86","","","M","5","","13","","24.1","","97.35","","","","","","Rain"
"-122.60","58.84","FORT NELSON A","1192946","2021-05-04 15:00","2021","05","04","15:00","9.3","","5.7","","78","","","M","5","","6","","48.3","","97.35","","","","","","NA"
"-122.60","58.84","FORT NELSON A","1192946","2021-05-04 16:00","2021","05","04","16:00","10.5","","5.7","","72","","","M","7","","12","","48.3","","97.34","","","","","","Mostly Cloudy"
"-122.60","58.84","FORT NELSON A","1192946","2021-05-04 17:00","2021","05","04","17:00","10.9","","5.9","","71","","","M","9","","5","","48.3","","97.36","","","","","","NA"
"-122.60","58.84","FORT NELSON A","1192946","2021-05-04 18:00","2021","05","04","18:00","11.0","","4.9","","66","","","M","7","","6","","48.3","","97.37","","","","","","NA"
"-122.60","58.84","FORT NELSON A","1192946","2021-05-04 19:00","2021","05","04","19:00","10.7","","5.1","","68","","","M","8","","7","","48.3","","","M","","","","","Mostly Cloudy"
"-122.60","58.84","FORT NELSON A","1192946","2021-05-04 20:00","2021","05","04","20:00","9.3","","4.9","","74","","","M","15","","4","","48.3","","97.41","","","","","","NA"
"-122.60","58.84","FORT NELSON A","1192946","2021-05-04 21:00","2021","05","04","21:00","5.2","","3.5","","89","","","M","21","","3","","48.3","","97.45","","","","","","NA"
"-122.60","58.84","FORT NELSON A","1192946","2021-05-04 22:00","2021","05","04","22:00","2.8","","1.9","","94","","","M","24","","3","","24.1","","97.47","","","","","","Mainly Clear"
"-122.60","58.84","FORT NELSON A","1192946","2021-05-04 23:00","2021","05","04","23:00","2.2","","1.0","","92","","","M","36","","3","","24.1","","97.48","","","","","","NA"
"-122.60","58.84","FORT NELSON A","1192946","2021-05-05 00:00","2021","05","05","00:00","0.9","","0.0","","94","","","M","26","","5","","24.1","","97.48","","","","","","NA"
"-122.60","58.84","FORT NELSON A","1192946","2021-05-05 01:00","2021","05","05","01:00","0.5","","-0.1","","96","","","M","9","","3","","24.1","","97.52","","","","","","Clear"
"-122.60","58.84","FORT NELSON A","1192946","2021-05-05 02:00","2021","05","05","02:00","0.6","","0.2","","97","","","M","17","","4","","24.1","","97.56","","","","","","NA"
"-122.60","58.84","FORT NELSON A","1192946","2021-05-05 03:00","2021","05","05","03:00","1.9","","1.5","","97","","","M","18","","10","","8.1","","97.58","","","","","","Fog"
"-122.60","58.84","FORT NELSON A","1192946","2021-05-05 04:00","2021","05","05","04:00","1.2","","0.8","","97","","","M","18","","11","","8.1","","97.61","","","","","","Fog"
"-122.60","58.84","FORT NELSON A","1192946","2021-05-05 05:00","2021","05","05","05:00","1.3","","0.6","","95","","","M","17","","5","","48.3","","97.62","","","","","","NA"
"-122.60","58.84","FORT NELSON A","1192946","2021-05-05 06:00","2021","05","05","06:00","2.1","","0.8","","91","","","M","18","","8","","48.3","","97.63","","","","","","NA"
"-122.60","58.84","FORT NELSON A","1192946","2021-05-05 07:00","2021","05","05","07:00","4.2","","1.4","","82","","","M","18","","13","","48.3","","97.67","","","","","","Mainly Clear"
"-122.60","58.84","FORT NELSON A","1192946","2021-05-05 08:00","2021","05","05","08:00","6.9","","2.0","","71","","","M","17","","5","","48.3","","97.67","","","","","","NA"
"-122.60","58.84","FORT NELSON A","1192946","2021-05-05 09:00","2021","05","05","09:00","9.8","","2.0","","58","","","M","13","","6","","48.3","","97.67","","","","","","NA"
"-122.60","58.84","FORT NELSON A","1192946","2021-05-05 10:00","2021","05","05","10:00","12.4","","-0.1","","42","","","M","35","","4","","48.3","","97.63","","","","","","Mainly Clear"
"-122.60","58.84","FORT NELSON A","1192946","2021-05-05 11:00","2021","05","05","11:00","14.0","","-2.8","","31","","","M","7","","10","","48.3","","97.57","","","","","","NA"
"-122.60","58.84","FORT NELSON A","1192946","2021-05-05 12:00","2021","05","05","12:00","15.4","","-2.0","","30","","","M","7","","10","","48.3","","97.51","","","","","","NA"
"-122.60","58.84","FORT NELSON A","1192946","2021-05-05 13:00","2021","05","05","13:00","16.2","","-3.8","","25","","","M","5","","7","","48.3","","97.45","","","","","","Mainly Clear"
"-122.60","58.84","FORT NELSON A","1192946","2021-05-05 14:00","2021","05","05","14:00","16.7","","-3.3","","25","","","M","36","","1","","48.3","","97.43","","","","","","NA"
"-122.60","58.84","FORT NELSON A","1192946","2021-05-05 15:00","2021","05","05","15:00","16.3","","-2.6","","27","","","M","14","","10","","48.3","","97.39","","","","","","NA"
"-122.60","58.84","FORT NELSON A","1192946","2021-05-05 16:00","2021","05","05","16:00","17.1","","-3.5","","24","","","M","6","","3","","48.3","","97.33","","","","","","Clear"
"-122.60","58.84","FORT NELSON A","1192946","2021-05-05 17:00","2021","05","05","17:00","17.1","","-3.6","","24","","","M","9","","9","","48.3","","97.29","","","","","","NA"
"-122.60","58.84","FORT NELSON A","1192946","2021-05-05 18:00","2021","05","05","18:00","16.9","","-2.6","","26","","","M","9","","13","","48.3","","97.25","","","","","","NA"
"-122.60","58.84","FORT NELSON A","1192946","2021-05-05 19:00","2021","05","05","19:00","15.8","","-3.1","","27","","","M","8","","11","","48.3","","97.23","","","","","","Cloudy"
"-122.60","58.84","FORT NELSON A","1192946","2021-05-05 20:00","2021","05","05","20:00","14.5","","-2.4","","31","","","M","8","","13","","48.3","","97.22","","","","","","NA"
"-122.60","58.84","FORT NELSON A","1192946","2021-05-05 21:00","2021","05","05","21:00","13.7","","-2.2","","33","","","M","9","","14","","48.3","","97.25","","","","","","NA"
"-122.60","58.84","FORT NELSON A","1192946","2021-05-05 22:00","2021","05","05","22:00","13.1","","-2.0","","35","","","M","8","","14","","24.1","","97.24","","","","","","Mostly Cloudy"
"-122.60","58.84","FORT NELSON A","1192946","2021-05-05 23:00","2021","05","05","23:00","11.6","","-1.2","","41","","","M","9","","8","","24.1","","97.22","","","","","","NA"
"-122.60","58.84","FORT NELSON A","1192946","2021-05-06 00:00","2021","05","06","00:00","8.1","","-1.2","","52","","","M","32","","4","","24.1","","97.22","","","","","","NA"
"-122.60","58.84","FORT NELSON A","1192946","2021-05-06 01:00","2021","05","06","01:00","10.5","","-0.6","","46","","","M","10","","16","","24.1","","97.22","","","","","","Mainly Clear"
"-122.60","58.84","FORT NELSON A","1192946","2021-05-06 02:00","2021","05","06","02:00","9.2","","-0.9","","49","","","M","13","","10","","24.1","","97.22","","","","","","NA"
"-122.60","58.84","FORT NELSON A","1192946","2021-05-06 03:00","2021","05","06","03:00","7.4","","-1.0","","55","","","M","36","","2","","24.1","","97.20","","","","","","NA"
"-122.60","58.84","FORT NELSON A","1192946","2021-05-06 04:00","2021","05","06","04:00","6.4","","-1.3","","58","","","M","12","","7","","48.3","","97.21","","","","","","Mainly Clear"
"-122.60","58.84","FORT NELSON A","1192946","2021-05-06 05:00","2021","05","06","05:00","5.2","","-0.4","","67","","","M","9","","3","","48.3","","97.19","","","","","","NA"
"-122.60","58.84","FORT NELSON A","1192946","2021-05-06 06:00","2021","05","06","06:00","7.9","","-0.6","","55","","","M","10","","3","","48.3","","97.20","","","","","","NA"
"-122.60","58.84","FORT NELSON A","1192946","2021-05-06 07:00","2021","05","06","07:00","9.8","","-0.1","","50","","","M","9","","4","","48.3","","97.19","","","","","","Mostly Cloudy"
"-122.60","58.84","FORT NELSON A","1192946","2021-05-06 08:00","2021","05","06","08:00","12.2","","-0.3","","42","","","M","10","","12","","48.3","","97.16","","","","","","NA"
"-122.60","58.84","FORT NELSON A","1192946","2021-05-06 09:00","2021","05","06","09:00","14.9","","-0.4","","35","","","M","12","","13","","48.3","","97.09","","","","","","NA"
"-122.60","58.84","FORT NELSON A","1192946","2021-05-06 10:00","2021","05","06","10:00","15.9","","0.2","","34","","","M","10","","17","","48.3","","97.05","","","","","","Mostly Cloudy"
"-122.60","58.84","FORT NELSON A","1192946","2021-05-06 11:00","2021","05","06","11:00","18.1","","-2.1","","25","","","M","12","","22","","48.3","","96.95","","","","","","NA"
"-122.60","58.84","FORT NELSON A","1192946","2021-05-06 12:00","2021","05","06","12:00","18.6","","-2.2","","24","","","M","9","","29","","48.3","","96.88","","","","","","NA"
"-122.60","58.84","FORT NELSON A","1192946","2021-05-06 13:00","2021","05","06","13:00","19.7","","-1.3","","24","","","M","8","","28","","48.3","","96.78","","","","","","Mostly Cloudy"
"-122.60","58.84","FORT NELSON A","1192946","2021-05-06 14:00","2021","05","06","14:00","19.9","","-1.1","","24","","","M","9","","26","","48.3","","96.70","","","","","","NA"
"-122.60","58.84","FORT NELSON A","1192946","2021-05-06 15:00","2021","05","06","15:00","19.9","","-1.7","","23","","","M","6","","21","","48.3","","96.63","","","","","","NA"
"-122.60","58.84","FORT NELSON A","1192946","2021-05-06 16:00","2021","05","06","16:00","19.4","","-1.0","","25","","","M","6","","21","","48.3","","96.60","","","","","","Clear"
"-122.60","58.84","FORT NELSON A","1192946","2021-05-06 17:00","2021","05","06","17:00","18.8","","-1.5","","25","","","M","7","","27","","48.3","","96.54","","","","","","NA"
"-122.60","58.84","FORT NELSON A","1192946","2021-05-06 18:00","2021","05","06","18:00","18.2","","-1.5","","26","","","M","7","","27","","48.3","","96.48","","","","","","NA"
"-122.60","58.84","FORT NELSON A","1192946","2021-05-06 19:00","2021","05","06","19:00","17.5","","-1.1","","28","","","M","7","","27","","48.3","","96.46","","","","","","Cloudy"
"-122.60","58.84","FORT NELSON A","1192946","2021-05-06 20:00","2021","05","06","20:00","16.9","","-1.2","","29","","","M","8","","24","","48.3","","96.46","","","","","","NA"
"-122.60","58.84","FORT NELSON A","1192946","2021-05-06 21:00","2021","05","06","21:00","16.2","","-1.3","","30","","","M","7","","17","","48.3","","96.45","","","","","","NA"
"-122.60","58.84","FORT NELSON A","1192946","2021-05-06 22:00","2021","05","06","22:00","15.6","","-1.4","","31","","","M","7","","18","","24.1","","96.41","","","","","","Cloudy"
"-122.60","58.84","FORT NELSON A","1192946","2021-05-06 23:00","2021","05","06","23:00","15.0","","-1.5","","32","","","M","8","","20","","24.1","","96.34","","","","","","NA"
"-122.60","58.84","FORT NELSON A","1192946","2021-05-07 00:00","2021","05","07","00:00","14.0","","-1.6","","34","","","M","7","","18","","24.1","","96.31","","","","","","NA"
"-122.60","58.84","FORT NELSON A","1192946","2021-05-07 01:00","2021","05","07","01:00","12.9","","-1.4","","37","","","M","4","","9","","24.1","","96.29","","","","","","Mostly Cloudy"
"-122.60","58.84","FORT NELSON A","1192946","2021-05-07 02:00","2021","05","07","02:00","12.3","","-1.6","","38","","","M","3","","9","","24.1","","96.28","","","","","","NA"
"-122.60","58.84","FORT NELSON A","1192946","2021-05-07 03:00","2021","05","07","03:00","12.4","","-1.8","","37","","","M","5","","15","","24.1","","96.26","","","","","","NA"
"-122.60","58.84","FORT NELSON A","1192946","2021-05-07 04:00","2021","05","07","04:00","12.0","","-1.5","","39","","","M","7","","5","","48.3","","96.31","","","","","","Cloudy"
"-122.60","58.84","FORT NELSON A","1192946","2021-05-07 05:00","2021","05","07","05:00","10.5","","0.0","","48","","","M","1","","8","","24.1","","96.30","","","","","","Rain"
"-122.60","58.84","FORT NELSON A","1192946","2021-05-07 06:00","2021","05","07","06:00","10.2","","2.1","","57","","","M","4","","6","","19.3","","96.34","","","","","","Rain"
"-122.60","58.84","FORT NELSON A","1192946","2021-05-07 07:00","2021","05","07","07:00","7.4","","4.2","","80","","","M","7","","4","","24.1","","96.38","","","","","","Rain"
"-122.60","58.84","FORT NELSON A","1192946","2021-05-07 08:00","2021","05","07","08:00","7.0","","5.8","","92","","","M","28","","6","","32.2","","96.38","","","","","","Rain"
"-122.60","58.84","FORT NELSON A","1192946","2021-05-07 09:00","2021","05","07","09:00","7.9","","5.7","","86","","","M","34","","6","","24.1","","96.39","","","","","","Rain"
"-122.60","58.84","FORT NELSON A","1192946","2021-05-07 10:00","2021","05","07","10:00","8.6","","5.7","","82","","","M","28","","10","","24.1","","96.38","","","","","","Rain"
"-122.60","58.84","FORT NELSON A","1192946","2021-05-07 11:00","2021","05","07","11:00","9.3","","5.9","","79","","","M","34","","6","","24.1","","96.46","","","","","","Rain"
"-122.60","58.84","FORT NELSON A","1192946","2021-05-07 12:00","2021","05","07","12:00","9.2","","6.0","","80","","","M","33","","9","","24.1","","96.49","","","","","","Rain"
"-122.60","58.84","FORT NELSON A","1192946","2021-05-07 13:00","2021","05","07","13:00","10.2","","5.6","","73","","","M","33","","11","","24.1","","96.48","","","","","","Cloudy"
"-122.60","58.84","FORT NELSON A","1192946","2021-05-07 14:00","2021","05","07","14:00","10.3","","4.3","","66","","","M","34","","7","","32.2","","96.52","","","","","","NA"
"-122.60","58.84","FORT NELSON A","1192946","2021-05-07 15:00","2021","05","07","15:00","9.3","","3.5","","67","","","M","11","","13","","8.1","","96.58","","","","","","Rain"
"-122.60","58.84","FORT NELSON A","1192946","2021-05-07 16:00","2021","05","07","16:00","8.4","","4.6","","77","","","M","36","","7","","24.1","","96.60","","","","","","Cloudy"
"-122.60","58.84","FORT NELSON A","1192946","2021-05-07 17:00","2021","05","07","17:00","8.6","","4.8","","77","","","M","36","","8","","32.2","","96.63","","","","","","NA"
"-122.60","58.84","FORT NELSON A","1192946","2021-05-07 18:00","2021","05","07","18:00","8.4","","5.3","","81","","","M","32","","9","","48.3","","96.64","","","","","","NA"
"-122.60","58.84","FORT NELSON A","1192946","2021-05-07 19:00","2021","05","07","19:00","8.0","","5.1","","82","","","M","30","","8","","48.3","","96.68","","","","","","Cloudy"
"-122.60","58.84","FORT NELSON A","1192946","2021-05-07 20:00","2021","05","07","20:00","7.7","","5.0","","83","","","M","31","","8","","48.3","","96.69","","","","","","NA"
"-122.60","58.84","FORT NELSON A","1192946","2021-05-07 21:00","2021","05","07","21:00","7.1","","4.9","","86","","","M","32","","8","","24.1","","96.69","","","","","","NA"
"-122.60","58.84","FORT NELSON A","1192946","2021-05-07 22:00","2021","05","07","22:00","6.5","","4.3","","86","","","M","29","","4","","24.1","","96.71","","","","","","Mostly Cloudy"
"-122.60","58.84","FORT NELSON A","1192946","2021-05-07 23:00","2021","05","07","23:00","5.7","","3.9","","88","","","M","32","","5","","24.1","","96.70","","","","","","NA"
"-122.60","58.84","FORT NELSON A","1192946","2021-05-08 00:00","2021","05","08","00:00","5.3","","3.5","","88","","","M","28","","5","","24.1","","96.72","","","","","","NA"
"-122.60","58.84","FORT NELSON A","1192946","2021-05-08 01:00","2021","05","08","01:00","5.1","","3.4","","89","","","M","36","","3","","24.1","","96.77","","","","","","Cloudy"
"-122.60","58.84","FORT NELSON A","1192946","2021-05-08 02:00","2021","05","08","02:00","4.5","","3.2","","91","","","M","23","","6","","24.1","","96.80","","","","","","NA"
"-122.60","58.84","FORT NELSON A","1192946","2021-05-08 03:00","2021","05","08","03:00","4.1","","3.5","","96","","","M","19","","4","","24.1","","96.81","","","","","","NA"
"-122.60","58.84","FORT NELSON A","1192946","2021-05-08 04:00","2021","05","08","04:00","4.1","","3.7","","97","","","M","14","","4","","48.3","","96.84","","","","","","Rain"
"-122.60","58.84","FORT NELSON A","1192946","2021-05-08 05:00","2021","05","08","05:00","4.8","","4.1","","95","","","M","28","","3","","48.3","","96.85","","","","","","NA"
"-122.60","58.84","FORT NELSON A","1192946","2021-05-08 06:00","2021","05","08","06:00","5.4","","4.4","","93","","","M","16","","4","","48.3","","96.90","","","","","","NA"
"-122.60","58.84","FORT NELSON A","1192946","2021-05-08 07:00","2021","05","08","07:00","5.5","","4.3","","92","","","M","16","","3","","48.3","","96.96","","","","","","Cloudy"
"-122.60","58.84","FORT NELSON A","1192946","2021-05-08 08:00","2021","05","08","08:00","6.3","","4.6","","89","","","M","36","","3","","32.2","","96.95","","","","","","NA"
"-122.60","58.84","FORT NELSON A","1192946","2021-05-08 09:00","2021","05","08","09:00","7.7","","4.7","","81","","","M","10","","8","","32.2","","96.99","","","","","","NA"
"-122.60","58.84","FORT NELSON A","1192946","2021-05-08 10:00","2021","05","08","10:00","10.2","","4.4","","67","","","M","35","","4","","48.3","","96.99","","","","","","Mostly Cloudy"
"-122.60","58.84","FORT NELSON A","1192946","2021-05-08 11:00","2021","05","08","11:00","12.0","","4.8","","61","","","M","16","","6","","48.3","","96.98","","","","","","NA"
"-122.60","58.84","FORT NELSON A","1192946","2021-05-08 12:00","2021","05","08","12:00","12.0","","4.0","","58","","","M","36","","3","","48.3","","96.98","","","","","","NA"
"-122.60","58.84","FORT NELSON A","1192946","2021-05-08 13:00","2021","05","08","13:00","13.0","","2.9","","50","","","M","36","","2","","32.2","","96.98","","","","","","Mostly Cloudy"
"-122.60","58.84","FORT NELSON A","1192946","2021-05-08 14:00","2021","05","08","14:00","13.8","","3.3","","49","","","M","36","","1","","48.3","","96.98","","","","","","NA"
"-122.60","58.84","FORT NELSON A","1192946","2021-05-08 15:00","2021","05","08","15:00","14.0","","3.5","","49","","","M","10","","3","","48.3","","96.97","","","","","","NA"
"-122.60","58.84","FORT NELSON A","1192946","2021-05-08 16:00","2021","05","08","16:00","13.8","","2.8","","47","","","M","0","","1","","48.3","","96.96","","","","","","Cloudy"
"-122.60","58.84","FORT NELSON A","1192946","2021-05-08 17:00","2021","05","08","17:00","13.3","","3.4","","51","","","M","30","","7","","48.3","","96.96","","","","","","NA"
"-122.60","58.84","FORT NELSON A","1192946","2021-05-08 18:00","2021","05","08","18:00","13.8","","3.3","","49","","","M","2","","4","","48.3","","96.95","","","","","","NA"
"-122.60","58.84","FORT NELSON A","1192946","2021-05-08 19:00","2021","05","08","19:00","12.9","","4.6","","57","","","M","35","","4","","48.3","","97.04","","","","","","Cloudy"
"-122.60","58.84","FORT NELSON A","1192946","2021-05-08 20:00","2021","05","08","20:00","12.0","","5.9","","66","","","M","36","","3","","32.2","","97.00","","","","","","NA"
"-122.60","58.84","FORT NELSON A","1192946","2021-05-08 21:00","2021","05","08","21:00","11.4","","5.5","","67","","","M","21","","7","","48.3","","97.04","","","","","","NA"
"-122.60","58.84","FORT NELSON A","1192946","2021-05-08 22:00","2021","05","08","22:00","9.6","","6.0","","78","","","M","15","","6","","48.3","","97.05","","","","","","Cloudy"
"-122.60","58.84","FORT NELSON A","1192946","2021-05-08 23:00","2021","05","08","23:00","8.3","","7.1","","92","","","M","26","","5","","19.3","","97.04","","","","","","Moderate Rain"
"-122.60","58.84","FORT NELSON A","1192946","2021-05-09 00:00","2021","05","09","00:00","8.2","","7.0","","92","","","M","23","","11","","9.7","","97.04","","","","","","Moderate Rain,Fog"
"-122.60","58.84","FORT NELSON A","1192946","2021-05-09 01:00","2021","05","09","01:00","7.7","","7.3","","97","","","M","16","","7","","16.1","","97.03","","","","","","Rain"
"-122.60","58.84","FORT NELSON A","1192946","2021-05-09 02:00","2021","05","09","02:00","7.2","","6.6","","96","","","M","22","","8","","16.1","","97.02","","","","","","Rain"
"-122.60","58.84","FORT NELSON A","1192946","2021-05-09 03:00","2021","05","09","03:00","6.7","","6.0","","95","","","M","24","","12","","16.1","","96.99","","","","","","Rain"
"-122.60","58.84","FORT NELSON A","1192946","2021-05-09 04:00","2021","05","09","04:00","6.4","","5.7","","95","","","M","22","","8","","8.1","","96.98","","","","","","Rain,Fog"
"-122.60","58.84","FORT NELSON A","1192946","2021-05-09 05:00","2021","05","09","05:00","5.8","","5.5","","98","","","M","18","","11","","4.8","","97.00","","","","","","Rain,Fog"
"-122.60","58.84","FORT NELSON A","1192946","2021-05-09 06:00","2021","05","09","06:00","5.6","","5.0","","96","","","M","19","","8","","6.4","","97.02","","","","","","Rain,Fog"
"-122.60","58.84","FORT NELSON A","1192946","2021-05-09 07:00","2021","05","09","07:00","6.0","","5.4","","96","","","M","21","","9","","12.9","","97.04","","","","","","Rain"
"-122.60","58.84","FORT NELSON A","1192946","2021-05-09 08:00","2021","05","09","08:00","6.5","","5.6","","94","","","M","19","","8","","16.1","","97.07","","","","","","Rain"
"-122.60","58.84","FORT NELSON A","1192946","2021-05-09 09:00","2021","05","09","09:00","8.1","","5.2","","82","","","M","26","","14","","24.1","","97.10","","","","","","Rain"
"-122.60","58.84","FORT NELSON A","1192946","2021-05-09 10:00","2021","05","09","10:00","10.4","","7.5","","82","","","M","19","","8","","48.3","","97.07","","","","","","Mostly Cloudy"
"-122.60","58.84","FORT NELSON A","1192946","2021-05-09 11:00","2021","05","09","11:00","12.8","","2.7","","50","","","M","24","","23","","48.3","","97.05","","","","","","NA"
"-122.60","58.84","FORT NELSON A","1192946","2021-05-09 12:00","2021","05","09","12:00","12.8","","1.8","","47","","","M","30","","21","","48.3","","97.05","","","","","","NA"
"-122.60","58.84","FORT NELSON A","1192946","2021-05-09 13:00","2021","05","09","13:00","12.0","","3.0","","54","","","M","32","","9","","48.3","","97.03","","","","","","Rain Showers"
"-122.60","58.84","FORT NELSON A","1192946","2021-05-09 14:00","2021","05","09","14:00","9.6","","4.8","","72","","","M","19","","12","","48.3","","97.10","","","","","","Rain Showers"
"-122.60","58.84","FORT NELSON A","1192946","2021-05-09 15:00","2021","05","09","15:00","11.2","","6.4","","72","","","M","3","","12","","48.3","","97.08","","","","","","NA"
"-122.60","58.84","FORT NELSON A","1192946","2021-05-09 16:00","2021","05","09","16:00","11.8","","3.2","","55","","","M","6","","9","","","M","","M","","","","","Mostly Cloudy"
"-122.60","58.84","FORT NELSON A","1192946","2021-05-09 17:00","2021","05","09","17:00","11.6","","3.7","","58","","","M","32","","14","","48.3","","97.11","","","","","","NA"
"-122.60","58.84","FORT NELSON A","1192946","2021-05-09 18:00","2021","05","09","18:00","11.7","","4.1","","59","","","M","8","","6","","","M","","M","","","","","NA"
"-122.60","58.84","FORT NELSON A","1192946","2021-05-09 19:00","2021","05","09","19:00","11.1","","4.8","","65","","","M","35","","5","","48.3","","97.12","","","","","","Mostly Cloudy"
"-122.60","58.84","FORT NELSON A","1192946","2021-05-09 20:00","2021","05","09","20:00","8.8","","5.6","","80","","","M","36","","2","","48.3","","97.13","","","","","","NA"
"-122.60","58.84","FORT NELSON A","1192946","2021-05-09 21:00","2021","05","09","21:00","5.3","","4.3","","93","","","M","36","","2","","48.3","","97.15","","","","","","NA"
"-122.60","58.84","FORT NELSON A","1192946","2021-05-09 22:00","2021","05","09","22:00","5.2","","3.1","","86","","","M","0","","1","","24.1","","97.18","","","","","","Mainly Clear"
"-122.60","58.84","FORT NELSON A","1192946","2021-05-09 23:00","2021","05","09","23:00","4.8","","3.2","","89","","","M","26","","5","","","M","","M","","","","","NA"
"-122.60","58.84","FORT NELSON A","1192946","2021-05-10 00:00","2021","05","10","00:00","6.4","","2.3","","75","","","M","21","","8","","24.1","","97.24","","","","","","NA"
"-122.60","58.84","FORT NELSON A","1192946","2021-05-10 01:00","2021","05","10","01:00","4.9","","3.1","","88","","","M","28","","5","","24.1","","97.26","","","","","","Cloudy"
"-122.60","58.84","FORT NELSON A","1192946","2021-05-10 02:00","2021","05","10","02:00","5.0","","3.7","","91","","","M","36","","3","","24.1","","97.27","","","","","","NA"
"-122.60","58.84","FORT NELSON A","1192946","2021-05-10 03:00","2021","05","10","03:00","5.1","","3.4","","89","","","M","1","","1","","","M","","M","","","","","NA"
"-122.60","58.84","FORT NELSON A","1192946","2021-05-10 04:00","2021","05","10","04:00","4.4","","3.2","","92","","","M","35","","4","","48.3","","97.35","","","","","","Cloudy"
"-122.60","58.84","FORT NELSON A","1192946","2021-05-10 05:00","2021","05","10","05:00","6.0","","3.7","","85","","","M","30","","6","","48.3","","97.39","","","","","","Rain"
"-122.60","58.84","FORT NELSON A","1192946","2021-05-10 06:00","2021","05","10","06:00","6.9","","4.1","","82","","","M","29","","15","","48.3","","97.41","","","","","","Rain"
"-122.60","58.84","FORT NELSON A","1192946","2021-05-10 07:00","2021","05","10","07:00","6.6","","4.9","","89","","","M","34","","17","","24.1","","97.48","","","","","","Rain"
"-122.60","58.84","FORT NELSON A","1192946","2021-05-10 08:00","2021","05","10","08:00","6.6","","4.1","","84","","","M","34","","16","","19.3","","97.54","","","","","","Rain"
"-122.60","58.84","FORT NELSON A","1192946","2021-05-10 09:00","2021","05","10","09:00","6.5","","4.9","","90","","","M","33","","10","","","M","","M","","","","","Rain"
"-122.60","58.84","FORT NELSON A","1192946","2021-05-10 10:00","2021","05","10","10:00","7.2","","4.7","","84","","","M","33","","15","","24.1","","97.62","","","","","","Rain"
"-122.60","58.84","FORT NELSON A","1192946","2021-05-10 11:00","2021","05","10","11:00","8.1","","3.8","","74","","","M","31","","16","","32.2","","97.63","","","","","","NA"
"-122.60","58.84","FORT NELSON A","1192946","2021-05-10 12:00","2021","05","10","12:00","8.8","","3.2","","68","","","M","32","","15","","48.3","","97.63","","","","","","NA"
"-122.60","58.84","FORT NELSON A","1192946","2021-05-10 13:00","2021","05","10","13:00","9.8","","3.5","","64","","","M","32","","14","","48.3","","97.62","","","","","","Mostly Cloudy"
"-122.60","58.84","FORT NELSON A","1192946","2021-05-10 14:00","2021","05","10","14:00","10.5","","2.8","","59","","","M","36","","13","","48.3","","97.62","","","","","","NA"
"-122.60","58.84","FORT NELSON A","1192946","2021-05-10 15:00","2021","05","10","15:00","11.9","","2.1","","51","","","M","34","","11","","48.3","","97.62","","","","","","NA"
"-122.60","58.84","FORT NELSON A","1192946","2021-05-10 16:00","2021","05","10","16:00","11.5","","1.9","","52","","","M","5","","9","","48.3","","97.62","","","","","","Mostly Cloudy"
"-122.60","58.84","FORT NELSON A","1192946","2021-05-10 17:00","2021","05","10","17:00","11.8","","2.7","","54","","","M","2","","13","","48.3","","97.62","","","","","","NA"
"-122.60","58.84","FORT NELSON A","1192946","2021-05-10 18:00","2021","05","10","18:00","11.6","","1.8","","51","","","M","35","","10","","48.3","","97.61","","","","","","NA"
"-122.60","58.84","FORT NELSON A","1192946","2021-05-10 19:00","2021","05","10","19:00","11.1","","1.7","","52","","","M","36","","10","","48.3","","97.64","","","","","","Mainly Clear"
"-122.60","58.84","FORT NELSON A","1192946","2021-05-10 20:00","2021","05","10","20:00","9.9","","2.0","","58","","","M","5","","6","","48.3","","97.65","","","","","","NA"
"-122.60","58.84","FORT NELSON A","1192946","2021-05-10 21:00","2021","05","10","21:00","6.5","","3.0","","78","","","M","36","","2","","48.3","","97.67","","","","","","NA"
"-122.60","58.84","FORT NELSON A","1192946","2021-05-10 22:00","2021","05","10","22:00","5.5","","3.2","","85","","","M","36","","2","","24.1","","97.68","","","","","","Mostly Cloudy"
"-122.60","58.84","FORT NELSON A","1192946","2021-05-10 23:00","2021","05","10","23:00","6.0","","2.7","","79","","","M","36","","1","","24.1","","97.70","","","","","","NA"
"-122.60","58.84","FORT NELSON A","1192946","2021-05-11 00:00","2021","05","11","00:00","7.3","","2.3","","71","","","M","9","","7","","24.1","","97.73","","","","","","NA"
"-122.60","58.84","FORT NELSON A","1192946","2021-05-11 01:00","2021","05","11","01:00","6.5","","1.8","","72","","","M","9","","5","","24.1","","97.72","","","","","","Mostly Cloudy"
"-122.60","58.84","FORT NELSON A","1192946","2021-05-11 02:00","2021","05","11","02:00","6.0","","1.4","","72","","","M","15","","6","","24.1","","97.72","","","","","","NA"
"-122.60","58.84","FORT NELSON A","1192946","2021-05-11 03:00","2021","05","11","03:00","4.0","","1.3","","83","","","M","10","","4","","32.2","","97.72","","","","","","NA"
"-122.60","58.84","FORT NELSON A","1192946","2021-05-11 04:00","2021","05","11","04:00","4.8","","0.9","","76","","","M","13","","7","","48.3","","97.71","","","","","","Mostly Cloudy"
"-122.60","58.84","FORT NELSON A","1192946","2021-05-11 05:00","2021","05","11","05:00","4.1","","0.7","","79","","","M","13","","8","","48.3","","97.71","","","","","","NA"
"-122.60","58.84","FORT NELSON A","1192946","2021-05-11 06:00","2021","05","11","06:00","5.0","","1.1","","76","","","M","11","","5","","48.3","","97.70","","","","","","NA"
"-122.60","58.84","FORT NELSON A","1192946","2021-05-11 07:00","2021","05","11","07:00","6.9","","1.9","","70","","","M","14","","8","","48.3","","97.69","","","","","","Mainly Clear"
"-122.60","58.84","FORT NELSON A","1192946","2021-05-11 08:00","2021","05","11","08:00","8.6","","1.9","","62","","","M","9","","4","","48.3","","97.65","","","","","","NA"
"-122.60","58.84","FORT NELSON A","1192946","2021-05-11 09:00","2021","05","11","09:00","11.4","","3.1","","56","","","M","13","","13","","48.3","","97.58","","","","","","NA"
"-122.60","58.84","FORT NELSON A","1192946","2021-05-11 10:00","2021","05","11","10:00","12.7","","3.1","","52","","","M","11","","9","","48.3","","97.52","","","","","","Mainly Clear"
"-122.60","58.84","FORT NELSON A","1192946","2021-05-11 11:00","2021","05","11","11:00","14.4","","2.3","","44","","","M","13","","8","","48.3","","97.47","","","","","","NA"
"-122.60","58.84","FORT NELSON A","1192946","2021-05-11 12:00","2021","05","11","12:00","15.4","","1.4","","39","","","M","12","","5","","48.3","","97.40","","","","","","NA"
"-122.60","58.84","FORT NELSON A","1192946","2021-05-11 13:00","2021","05","11","13:00","14.7","","1.5","","41","","","M","17","","10","","48.3","","97.38","","","","","","Mostly Cloudy"
"-122.60","58.84","FORT NELSON A","1192946","2021-05-11 14:00","2021","05","11","14:00","15.2","","0.9","","38","","","M","20","","8","","48.3","","97.36","","","","","","NA"
"-122.60","58.84","FORT NELSON A","1192946","2021-05-11 15:00","2021","05","11","15:00","15.5","","-0.3","","34","","","M","19","","11","","48.3","","97.32","","","","","","NA"
"-122.60","58.84","FORT NELSON A","1192946","2021-05-11 16:00","2021","05","11","16:00","15.9","","0.6","","35","","","M","10","","9","","48.3","","97.29","","","","","","Mostly Cloudy"
"-122.60","58.84","FORT NELSON A","1192946","2021-05-11 17:00","2021","05","11","17:00","16.5","","-1.5","","29","","","M","10","","5","","48.3","","97.26","","","","","","NA"
"-122.60","58.84","FORT NELSON A","1192946","2021-05-11 18:00","2021","05","11","18:00","16.3","","-1.6","","29","","","M","8","","7","","48.3","","97.21","","","","","","NA"
"-122.60","58.84","FORT NELSON A","1192946","2021-05-11 19:00","2021","05","11","19:00","15.7","","-1.9","","30","","","M","36","","2","","48.3","","97.18","","","","","","Mostly Cloudy"
"-122.60","58.84","FORT NELSON A","1192946","2021-05-11 20:00","2021","05","11","20:00","12.9","","2.4","","49","","","M","36","","4","","48.3","","97.17","","","","","","NA"
"-122.60","58.84","FORT NELSON A","1192946","2021-05-11 21:00","2021","05","11","21:00","10.7","","4.2","","64","","","M","24","","3","","32.2","","97.17","","","","","","NA"
"-122.60","58.84","FORT NELSON A","1192946","2021-05-11 22:00","2021","05","11","22:00","10.6","","2.5","","57","","","M","12","","5","","24.1","","97.15","","","","","","Mostly Cloudy"
"-122.60","58.84","FORT NELSON A","1192946","2021-05-11 23:00","2021","05","11","23:00","9.0","","4.2","","72","","","M","27","","5","","24.1","","97.12","","","","","","NA"
"-122.60","58.84","FORT NELSON A","1192946","2021-05-12 00:00","2021","05","12","00:00","7.8","","3.5","","75","","","M","32","","6","","24.1","","97.11","","","","","","NA"
"-122.60","58.84","FORT NELSON A","1192946","2021-05-12 01:00","2021","05","12","01:00","5.9","","2.9","","81","","","M","30","","4","","24.1","","97.09","","","","","","Mostly Cloudy"
"-122.60","58.84","FORT NELSON A","1192946","2021-05-12 02:00","2021","05","12","02:00","7.1","","2.4","","72","","","M","32","","6","","24.1","","97.12","","","","","","NA"
"-122.60","58.84","FORT NELSON A","1192946","2021-05-12 03:00","2021","05","12","03:00","5.4","","2.5","","82","","","M","34","","5","","24.1","","97.10","","","","","","NA"
"-122.60","58.84","FORT NELSON A","1192946","2021-05-12 04:00","2021","05","12","04:00","5.8","","2.4","","79","","","M","23","","4","","24.1","","97.09","","","","","","Mostly Cloudy"
"-122.60","58.84","FORT NELSON A","1192946","2021-05-12 05:00","2021","05","12","05:00","5.6","","2.9","","83","","","M","18","","4","","48.3","","97.10","","","","","","NA"
"-122.60","58.84","FORT NELSON A","1192946","2021-05-12 06:00","2021","05","12","06:00","6.7","","3.3","","79","","","M","2","","4","","48.3","","97.10","","","","","","NA"
"-122.60","58.84","FORT NELSON A","1192946","2021-05-12 07:00","2021","05","12","07:00","7.2","","3.8","","79","","","M","36","","2","","48.3","","97.11","","","","","","Mostly Cloudy"
"-122.60","58.84","FORT NELSON A","1192946","2021-05-12 08:00","2021","05","12","08:00","8.8","","4.0","","72","","","M","8","","5","","48.3","","97.13","","","","","","NA"
"-122.60","58.84","FORT NELSON A","1192946","2021-05-12 09:00","2021","05","12","09:00","9.2","","5.4","","77","","","M","18","","5","","48.3","","97.16","","","","","","Rain Showers"
"-122.60","58.84","FORT NELSON A","1192946","2021-05-12 10:00","2021","05","12","10:00","11.0","","6.9","","76","","","M","28","","7","","24.1","","97.13","","","","","","Rain Showers"
"-122.60","58.84","FORT NELSON A","1192946","2021-05-12 11:00","2021","05","12","11:00","11.8","","4.8","","62","","","M","7","","17","","32.2","","97.09","","","","","","NA"
"-122.60","58.84","FORT NELSON A","1192946","2021-05-12 12:00","2021","05","12","12:00","14.7","","2.3","","43","","","M","9","","10","","48.3","","97.08","","","","","","NA"
"-122.60","58.84","FORT NELSON A","1192946","2021-05-12 13:00","2021","05","12","13:00","15.8","","-0.2","","33","","","M","34","","13","","24.1","","97.07","","","","","","Mainly Clear"
"-122.60","58.84","FORT NELSON A","1192946","2021-05-12 14:00","2021","05","12","14:00","14.7","","2.9","","45","","","M","25","","16","","48.3","","97.09","","","","","","NA"
"-122.60","58.84","FORT NELSON A","1192946","2021-05-12 15:00","2021","05","12","15:00","17.0","","2.6","","38","","","M","21","","9","","48.3","","97.03","","","","","","NA"
"-122.60","58.84","FORT NELSON A","1192946","2021-05-12 16:00","2021","05","12","16:00","17.2","","1.6","","35","","","M","3","","5","","48.3","","97.00","","","","","","Mainly Clear"
"-122.60","58.84","FORT NELSON A","1192946","2021-05-12 17:00","2021","05","12","17:00","15.4","","1.2","","38","","","M","1","","13","","48.3","","97.07","","","","","","Rain Showers"
"-122.60","58.84","FORT NELSON A","1192946","2021-05-12 18:00","2021","05","12","18:00","15.8","","0.6","","35","","","M","24","","9","","48.3","","97.05","","","","","","NA"
"-122.60","58.84","FORT NELSON A","1192946","2021-05-12 19:00","2021","05","12","19:00","16.0","","-0.3","","33","","","M","30","","15","","48.3","","97.07","","","","","","Mostly Cloudy"
"-122.60","58.84","FORT NELSON A","1192946","2021-05-12 20:00","2021","05","12","20:00","14.1","","0.6","","39","","","M","30","","10","","48.3","","97.12","","","","","","NA"
"-122.60","58.84","FORT NELSON A","1192946","2021-05-12 21:00","2021","05","12","21:00","9.2","","2.7","","64","","","M","27","","7","","48.3","","97.15","","","","","","NA"
"-122.60","58.84","FORT NELSON A","1192946","2021-05-12 22:00","2021","05","12","22:00","7.3","","2.2","","70","","","M","28","","9","","24.1","","97.18","","","","","","Mainly Clear"
"-122.60","58.84","FORT NELSON A","1192946","2021-05-12 23:00","2021","05","12","23:00","6.9","","1.8","","70","","","M","36","","2","","24.1","","97.21","","","","","","NA"
"-122.60","58.84","FORT NELSON A","1192946","2021-05-13 00:00","2021","05","13","00:00","5.3","","1.2","","74","","","M","18","","4","","24.1","","97.25","","","","","","NA"
"-122.60","58.84","FORT NELSON A","1192946","2021-05-13 01:00","2021","05","13","01:00","3.9","","0.7","","79","","","M","17","","3","","24.1","","97.29","","","","","","Mainly Clear"
"-122.60","58.84","FORT NELSON A","1192946","2021-05-13 02:00","2021","05","13","02:00","2.7","","0.4","","84","","","M","0","","1","","24.1","","97.34","","","","","","NA"
"-122.60","58.84","FORT NELSON A","1192946","2021-05-13 03:00","2021","05","13","03:00","3.3","","0.4","","81","","","M","36","","2","","24.1","","97.38","","","","","","NA"
"-122.60","58.84","FORT NELSON A","1192946","2021-05-13 04:00","2021","05","13","04:00","2.4","","0.4","","87","","","M","36","","1","","48.3","","97.44","","","","","","Mostly Cloudy"
"-122.60","58.84","FORT NELSON A","1192946","2021-05-13 05:00","2021","05","13","05:00","4.2","","2.2","","87","","","M","15","","4","","48.3","","97.50","","","","","","NA"
"-122.60","58.84","FORT NELSON A","1192946","2021-05-13 06:00","2021","05","13","06:00","5.7","","2.2","","78","","","M","19","","5","","48.3","","97.54","","","","","","NA"
"-122.60","58.84","FORT NELSON A","1192946","2021-05-13 07:00","2021","05","13","07:00","6.7","","2.9","","77","","","M","11","","3","","48.3","","97.58","","","","","","Mostly Cloudy"
"-122.60","58.84","FORT NELSON A","1192946","2021-05-13 08:00","2021","05","13","08:00","8.5","","2.8","","68","","","M","3","","4","","48.3","","97.62","","","","","","NA"
"-122.60","58.84","FORT NELSON A","1192946","2021-05-13 09:00","2021","05","13","09:00","9.0","","3.0","","66","","","M","9","","7","","48.3","","97.65","","","","","","NA"
"-122.60","58.84","FORT NELSON A","1192946","2021-05-13 10:00","2021","05","13","10:00","10.6","","2.6","","58","","","M","35","","8","","48.3","","97.68","","","","","","Mostly Cloudy"
"-122.60","58.84","FORT NELSON A","1192946","2021-05-13 11:00","2021","05","13","11:00","11.7","","3.1","","55","","","M","0","","1","","48.3","","97.68","","","","","","NA"
"-122.60","58.84","FORT NELSON A","1192946","2021-05-13 12:00","2021","05","13","12:00","13.8","","3.2","","48","","","M","36","","2","","48.3","","97.65","","","","","","NA"
"-122.60","58.84","FORT NELSON A","1192946","2021-05-13 13:00","2021","05","13","13:00","15.5","","0.7","","36","","","M","34","","3","","48.3","","97.62","","","","","","Mostly Cloudy"
"-122.60","58.84","FORT NELSON A","1192946","2021-05-13 14:00","2021","05","13","14:00","15.1","","0.0","","35","","","M","18","","5","","48.3","","97.60","","","","","","NA"
"-122.60","58.84","FORT NELSON A","1192946","2021-05-13 15:00","2021","05","13","15:00","15.0","","1.2","","39","","","M","3","","7","","48.3","","97.59","","","","","","NA"
"-122.60","58.84","FORT NELSON A","1192946","2021-05-13 16:00","2021","05","13","16:00","15.8","","2.1","","39","","","M","2","","8","","48.3","","97.58","","","","","","Mostly Cloudy"
"-122.60","58.84","FORT NELSON A","1192946","2021-05-13 17:00","2021","05","13","17:00","15.6","","0.9","","36","","","M","4","","14","","","M","97.56","","","","","","NA"
"-122.60","58.84","FORT NELSON A","1192946","2021-05-13 18:00","2021","05","13","18:00","14.8","","1.0","","39","","","M","1","","9","","48.3","","97.56","","","","","","NA"
"-122.60","58.84","FORT NELSON A","1192946","2021-05-13 19:00","2021","05","13","19:00","13.4","","3.6","","51","","","M","3","","11","","48.3","","97.57","","","","","","Mostly Cloudy"
"-122.60","58.84","FORT NELSON A","1192946","2021-05-13 20:00","2021","05","13","20:00","12.5","","3.8","","55","","","M","34","","8","","48.3","","97.58","","","","","","NA"
"-122.60","58.84","FORT NELSON A","1192946","2021-05-13 21:00","2021","05","13","21:00","10.6","","4.0","","64","","","M","33","","11","","48.3","","97.61","","","","","","NA"
"-122.60","58.84","FORT NELSON A","1192946","2021-05-13 22:00","2021","05","13","22:00","9.8","","4.2","","68","","","M","36","","8","","24.1","","97.59","","","","","","Mostly Cloudy"
"-122.60","58.84","FORT NELSON A","1192946","2021-05-13 23:00","2021","05","13","23:00","9.9","","4.0","","67","","","M","35","","7","","24.1","","97.57","","","","","","NA"
"-122.60","58.84","FORT NELSON A","1192946","2021-05-14 00:00","2021","05","14","00:00","8.8","","3.8","","71","","","M","36","","9","","24.1","","97.58","","","","","","NA"
"-122.60","58.84","FORT NELSON A","1192946","2021-05-14 01:00","2021","05","14","01:00","7.8","","3.7","","75","","","M","34","","7","","24.1","","97.57","","","","","","Mostly Cloudy"
"-122.60","58.84","FORT NELSON A","1192946","2021-05-14 02:00","2021","05","14","02:00","7.5","","3.5","","75","","","M","33","","7","","","M","97.55","","","","","","NA"
"-122.60","58.84","FORT NELSON A","1192946","2021-05-14 03:00","2021","05","14","03:00","7.5","","3.4","","75","","","M","5","","3","","48.3","","97.54","","","","","","NA"
"-122.60","58.84","FORT NELSON A","1192946","2021-05-14 04:00","2021","05","14","04:00","7.2","","3.7","","79","","","M","12","","7","","48.3","","97.51","","","","","","Mostly Cloudy"
"-122.60","58.84","FORT NELSON A","1192946","2021-05-14 05:00","2021","05","14","05:00","6.8","","3.5","","79","","","M","10","","10","","48.3","","97.44","","","","","","NA"
"-122.60","58.84","FORT NELSON A","1192946","2021-05-14 06:00","2021","05","14","06:00","7.3","","3.9","","79","","","M","12","","9","","48.3","","97.39","","","","","","NA"
"-122.60","58.84","FORT NELSON A","1192946","2021-05-14 07:00","2021","05","14","07:00","8.0","","3.9","","75","","","M","11","","8","","","M","97.33","","","","","","Mostly Cloudy"
"-122.60","58.84","FORT NELSON A","1192946","2021-05-14 08:00","2021","05","14","08:00","9.7","","3.9","","67","","","M","13","","8","","48.3","","97.28","","","","","","NA"
"-122.60","58.84","FORT NELSON A","1192946","2021-05-14 09:00","2021","05","14","09:00","10.8","","3.9","","62","","","M","10","","10","","48.3","","97.20","","","","","","NA"
"-122.60","58.84","FORT NELSON A","1192946","2021-05-14 10:00","2021","05","14","10:00","12.5","","4.2","","57","","","M","5","","5","","48.3","","97.13","","","","","","Mostly Cloudy"
"-122.60","58.84","FORT NELSON A","1192946","2021-05-14 11:00","2021","05","14","11:00","14.4","","4.7","","52","","","M","7","","7","","48.3","","97.05","","","","","","NA"
"-122.60","58.84","FORT NELSON A","1192946","2021-05-14 12:00","2021","05","14","12:00","16.5","","4.9","","46","","","M","4","","5","","48.3","","96.96","","","","","","NA"
"-122.60","58.84","FORT NELSON A","1192946","2021-05-14 13:00","2021","05","14","13:00","16.9","","2.2","","37","","","M","11","","5","","48.3","","96.90","","","","","","Mostly Cloudy"
"-122.60","58.84","FORT NELSON A","1192946","2021-05-14 14:00","2021","05","14","14:00","16.2","","5.3","","48","","","M","32","","20","","48.3","","96.88","","","","","","NA"
"-122.60","58.84","FORT NELSON A","1192946","2021-05-14 15:00","2021","05","14","15:00","15.1","","5.7","","53","","","M","31","","17","","48.3","","96.88","","","","","","NA"
"-122.60","58.84","FORT NELSON A","1192946","2021-05-14 16:00","2021","05","14","16:00","16.0","","5.1","","48","","","M","35","","10","","48.3","","96.84","","","","","","Mostly Cloudy"
"-122.60","58.84","FORT NELSON A","1192946","2021-05-14 17:00","2021","05","14","17:00","15.7","","3.9","","45","","","M","7","","14","","48.3","","96.79","","","","","","NA"
"-122.60","58.84","FORT NELSON A","1192946","2021-05-14 18:00","2021","05","14","18:00","15.6","","3.4","","44","","","M","33","","14","","48.3","","96.78","","","","","","NA"
"-122.60","58.84","FORT NELSON A","1192946","2021-05-14 19:00","2021","05","14","19:00","14.6","","3.6","","47","","","M","34","","10","","48.3","","96.77","","","","","","Mostly Cloudy"
"-122.60","58.84","FORT NELSON A","1192946","2021-05-14 20:00","2021","05","14","20:00","13.4","","3.5","","51","","","M","32","","14","","48.3","","96.81","","","","","","NA"
"-122.60","58.84","FORT NELSON A","1192946","2021-05-14 21:00","2021","05","14","21:00","9.6","","6.9","","83","","","M","2","","13","","24.1","","96.87","","","","","","Thunderstorms"
"-122.60","58.84","FORT NELSON A","1192946","2021-05-14 22:00","2021","05","14","22:00","9.3","","6.6","","83","","","M","17","","10","","24.1","","96.86","","","","","","Thunderstorms,Rain Showers"
"-122.60","58.84","FORT NELSON A","1192946","2021-05-14 23:00","2021","05","14","23:00","8.2","","6.6","","89","","","M","19","","5","","24.1","","96.84","","","","","","NA"
"-122.60","58.84","FORT NELSON A","1192946","2021-05-15 00:00","2021","05","15","00:00","8.0","","5.8","","86","","","M","22","","6","","24.1","","96.88","","","","","","NA"
"-122.60","58.84","FORT NELSON A","1192946","2021-05-15 01:00","2021","05","15","01:00","7.3","","5.7","","90","","","M","23","","5","","24.1","","96.87","","","","","","Mostly Cloudy"
"-122.60","58.84","FORT NELSON A","1192946","2021-05-15 02:00","2021","05","15","02:00","6.0","","5.5","","96","","","M","36","","2","","24.1","","96.83","","","","","","NA"
"-122.60","58.84","FORT NELSON A","1192946","2021-05-15 03:00","2021","05","15","03:00","5.2","","4.5","","95","","","M","36","","2","","24.1","","96.82","","","","","","NA"
"-122.60","58.84","FORT NELSON A","1192946","2021-05-15 04:00","2021","05","15","04:00","5.6","","5.2","","97","","","M","18","","6","","48.3","","96.82","","","","","","Mostly Cloudy"
"-122.60","58.84","FORT NELSON A","1192946","2021-05-15 05:00","2021","05","15","05:00","6.1","","5.3","","95","","","M","17","","5","","48.3","","96.79","","","","","","NA"
"-122.60","58.84","FORT NELSON A","1192946","2021-05-15 06:00","2021","05","15","06:00","7.2","","5.6","","89","","","M","21","","5","","19.3","","96.77","","","","","","NA"
"-122.60","58.84","FORT NELSON A","1192946","2021-05-15 07:00","2021","05","15","07:00","8.2","","5.7","","84","","","M","17","","8","","24.1","","96.73","","","","","","Mostly Cloudy"
"-122.60","58.84","FORT NELSON A","1192946","2021-05-15 08:00","2021","05","15","08:00","8.5","","6.6","","88","","","M","20","","6","","32.2","","96.73","","","","","","Rain"
"-122.60","58.84","FORT NELSON A","1192946","2021-05-15 09:00","2021","05","15","09:00","11.2","","4.1","","61","","","M","29","","11","","48.3","","96.69","","","","","","NA"
"-122.60","58.84","FORT NELSON A","1192946","2021-05-15 10:00","2021","05","15","10:00","12.0","","2.6","","52","","","M","2","","7","","48.3","","96.64","","","","","","Mostly Cloudy"
"-122.60","58.84","FORT NELSON A","1192946","2021-05-15 11:00","2021","05","15","11:00","12.6","","2.4","","49","","","M","6","","4","","48.3","","96.56","","","","","","NA"
"-122.60","58.84","FORT NELSON A","1192946","2021-05-15 12:00","2021","05","15","12:00","13.5","","2.7","","48","","","M","35","","7","","48.3","","96.50","","","","","","NA"
"-122.60","58.84","FORT NELSON A","1192946","2021-05-15 13:00","2021","05","15","13:00","14.4","","3.0","","46","","","M","34","","8","","48.3","","96.46","","","","","","Mostly Cloudy"
"-122.60","58.84","FORT NELSON A","1192946","2021-05-15 14:00","2021","05","15","14:00","14.1","","2.5","","45","","","M","4","","4","","48.3","","96.44","","","","","","NA"
"-122.60","58.84","FORT NELSON A","1192946","2021-05-15 15:00","2021","05","15","15:00","14.6","","3.5","","47","","","M","35","","15","","48.3","","96.43","","","","","","NA"
"-122.60","58.84","FORT NELSON A","1192946","2021-05-15 16:00","2021","05","15","16:00","14.5","","4.3","","50","","","M","1","","14","","48.3","","96.45","","","","","","Rain Showers"
"-122.60","58.84","FORT NELSON A","1192946","2021-05-15 17:00","2021","05","15","17:00","14.6","","3.3","","47","","","M","1","","7","","48.3","","96.44","","","","","","NA"
"-122.60","58.84","FORT NELSON A","1192946","2021-05-15 18:00","2021","05","15","18:00","14.5","","3.4","","47","","","M","2","","10","","48.3","","96.42","","","","","","NA"
"-122.60","58.84","FORT NELSON A","1192946","2021-05-15 19:00","2021","05","15","19:00","13.2","","3.2","","51","","","M","36","","7","","48.3","","96.43","","","","","","Mostly Cloudy"
"-122.60","58.84","FORT NELSON A","1192946","2021-05-15 20:00","2021","05","15","20:00","11.8","","4.3","","60","","","M","31","","16","","24.1","","96.52","","","","","","Rain Showers"
"-122.60","58.84","FORT NELSON A","1192946","2021-05-15 21:00","2021","05","15","21:00","8.7","","7.2","","90","","","M","1","","7","","32.2","","96.55","","","","","","Rain Showers"
"-122.60","58.84","FORT NELSON A","1192946","2021-05-15 22:00","2021","05","15","22:00","8.7","","6.4","","86","","","M","4","","7","","24.1","","96.54","","","","","","Rain Showers"
"-122.60","58.84","FORT NELSON A","1192946","2021-05-15 23:00","2021","05","15","23:00","6.8","","6.1","","95","","","M","24","","7","","24.1","","96.56","","","","","","NA"
"-122.60","58.84","FORT NELSON A","1192946","2021-05-16 00:00","2021","05","16","00:00","6.3","","5.8","","97","","","M","18","","5","","24.1","","96.53","","","","","","NA"
"-122.60","58.84","FORT NELSON A","1192946","2021-05-16 01:00","2021","05","16","01:00","6.5","","5.8","","95","","","M","3","","4","","24.1","","96.56","","","","","","Mostly Cloudy"
"-122.60","58.84","FORT NELSON A","1192946","2021-05-16 02:00","2021","05","16","02:00","6.8","","6.3","","97","","","M","11","","4","","24.1","","96.52","","","","","","NA"
"-122.60","58.84","FORT NELSON A","1192946","2021-05-16 03:00","2021","05","16","03:00","6.4","","5.9","","97","","","M","27","","8","","32.2","","96.49","","","","","","Rain"
"-122.60","58.84","FORT NELSON A","1192946","2021-05-16 04:00","2021","05","16","04:00","6.7","","6.4","","98","","","M","9","","9","","32.2","","96.48","","","","","","Mostly Cloudy"
"-122.60","58.84","FORT NELSON A","1192946","2021-05-16 05:00","2021","05","16","05:00","6.8","","5.9","","94","","","M","11","","9","","8.1","","96.44","","","","","","Rain,Fog"
"-122.60","58.84","FORT NELSON A","1192946","2021-05-16 06:00","2021","05","16","06:00","6.8","","6.0","","95","","","M","3","","7","","8.1","","96.44","","","","","","Rain,Fog"
"-122.60","58.84","FORT NELSON A","1192946","2021-05-16 07:00","2021","05","16","07:00","6.6","","5.7","","94","","","M","14","","6","","8.1","","96.40","","","","","","Rain,Fog"
"-122.60","58.84","FORT NELSON A","1192946","2021-05-16 08:00","2021","05","16","08:00","6.9","","6.0","","95","","","M","3","","4","","4.8","","96.36","","","","","","Rain,Fog"
"-122.60","58.84","FORT NELSON A","1192946","2021-05-16 09:00","2021","05","16","09:00","7.0","","6.5","","96","","","M","36","","3","","3.2","","96.34","","","","","","Moderate Rain,Fog"
"-122.60","58.84","FORT NELSON A","1192946","2021-05-16 10:00","2021","05","16","10:00","8.0","","7.0","","93","","","M","33","","8","","19.3","","96.28","","","","","","Rain"
"-122.60","58.84","FORT NELSON A","1192946","2021-05-16 11:00","2021","05","16","11:00","9.1","","6.9","","86","","","M","36","","10","","24.1","","96.24","","","","","","NA"
"-122.60","58.84","FORT NELSON A","1192946","2021-05-16 12:00","2021","05","16","12:00","9.2","","7.7","","90","","","M","10","","9","","19.3","","96.21","","","","","","Rain Showers"
"-122.60","58.84","FORT NELSON A","1192946","2021-05-16 13:00","2021","05","16","13:00","10.2","","6.0","","75","","","M","8","","8","","48.3","","96.17","","","","","","Rain Showers"
"-122.60","58.84","FORT NELSON A","1192946","2021-05-16 14:00","2021","05","16","14:00","11.5","","6.2","","70","","","M","3","","3","","48.3","","96.13","","","","","","NA"
"-122.60","58.84","FORT NELSON A","1192946","2021-05-16 15:00","2021","05","16","15:00","8.1","","5.0","","81","","","M","29","","35","","6.4","","96.16","","","","","","Moderate Rain Showers"
"-122.60","58.84","FORT NELSON A","1192946","2021-05-16 16:00","2021","05","16","16:00","7.4","","6.2","","92","","","M","32","","14","","32.2","","96.18","","","","","","Rain Showers"
"-122.60","58.84","FORT NELSON A","1192946","2021-05-16 17:00","2021","05","16","17:00","8.9","","5.8","","81","","","M","29","","10","","24.1","","96.18","","","","","","Rain Showers"
"-122.60","58.84","FORT NELSON A","1192946","2021-05-16 18:00","2021","05","16","18:00","9.3","","6.8","","84","","","M","32","","10","","","M","96.16","","","","","","NA"
"-122.60","58.84","FORT NELSON A","1192946","2021-05-16 19:00","2021","05","16","19:00","8.9","","5.7","","80","","","M","33","","6","","24.1","","96.18","","","","","","Mostly Cloudy"
"-122.60","58.84","FORT NELSON A","1192946","2021-05-16 20:00","2021","05","16","20:00","8.2","","5.7","","84","","","M","32","","4","","24.1","","96.22","","","","","","NA"
"-122.60","58.84","FORT NELSON A","1192946","2021-05-16 21:00","2021","05","16","21:00","7.0","","5.9","","93","","","M","27","","5","","32.2","","96.23","","","","","","NA"
"-122.60","58.84","FORT NELSON A","1192946","2021-05-16 22:00","2021","05","16","22:00","6.3","","5.1","","92","","","M","35","","9","","24.1","","96.22","","","","","","Mostly Cloudy"
"-122.60","58.84","FORT NELSON A","1192946","2021-05-16 23:00","2021","05","16","23:00","4.9","","4.2","","95","","","M","29","","5","","24.1","","96.23","","","","","","NA"
"-122.60","58.84","FORT NELSON A","1192946","2021-05-17 00:00","2021","05","17","00:00","4.4","","3.9","","96","","","M","30","","8","","","M","96.24","","","","","","NA"
"-122.60","58.84","FORT NELSON A","1192946","2021-05-17 01:00","2021","05","17","01:00","2.4","","2.1","","98","","","M","25","","4","","24.1","","96.29","","","","","","Mainly Clear"
"-122.60","58.84","FORT NELSON A","1192946","2021-05-17 02:00","2021","05","17","02:00","1.9","","1.7","","99","","","M","28","","4","","24.1","","96.32","","","","","","NA"
"-122.60","58.84","FORT NELSON A","1192946","2021-05-17 03:00","2021","05","17","03:00","2.8","","2.5","","98","","","M","36","","2","","24.1","","96.33","","","","","","NA"
"-122.60","58.84","FORT NELSON A","1192946","2021-05-17 04:00","2021","05","17","04:00","2.0","","1.7","","98","","","M","34","","8","","32.2","","96.35","","","","","","Mostly Cloudy"
"-122.60","58.84","FORT NELSON A","1192946","2021-05-17 05:00","2021","05","17","05:00","3.9","","2.8","","92","","","M","32","","7","","24.1","","96.36","","","","","","NA"
"-122.60","58.84","FORT NELSON A","1192946","2021-05-17 06:00","2021","05","17","06:00","3.6","","3.0","","96","","","M","35","","7","","24.1","","96.39","","","","","","NA"
"-122.60","58.84","FORT NELSON A","1192946","2021-05-17 07:00","2021","05","17","07:00","4.9","","2.6","","85","","","M","33","","11","","24.1","","96.41","","","","","","Mostly Cloudy"
"-122.60","58.84","FORT NELSON A","1192946","2021-05-17 08:00","2021","05","17","08:00","5.8","","2.8","","81","","","M","34","","12","","48.3","","96.43","","","","","","NA"
"-122.60","58.84","FORT NELSON A","1192946","2021-05-17 09:00","2021","05","17","09:00","6.5","","2.8","","77","","","M","32","","7","","48.3","","96.45","","","","","","NA"
"-122.60","58.84","FORT NELSON A","1192946","2021-05-17 10:00","2021","05","17","10:00","8.0","","2.5","","69","","","M","30","","10","","48.3","","96.44","","","","","","Mostly Cloudy"
"-122.60","58.84","FORT NELSON A","1192946","2021-05-17 11:00","2021","05","17","11:00","8.8","","1.9","","62","","","M","31","","14","","48.3","","96.43","","","","","","NA"
"-122.60","58.84","FORT NELSON A","1192946","2021-05-17 12:00","2021","05","17","12:00","10.2","","1.2","","54","","","M","34","","22","","48.3","","96.42","","","","","","NA"
"-122.60","58.84","FORT NELSON A","1192946","2021-05-17 13:00","2021","05","17","13:00","11.3","","0.8","","49","","","M","35","","13","","48.3","","96.42","","","","","","Mostly Cloudy"
"-122.60","58.84","FORT NELSON A","1192946","2021-05-17 14:00","2021","05","17","14:00","12.4","","1.2","","46","","","M","1","","24","","48.3","","96.43","","","","","","NA"
"-122.60","58.84","FORT NELSON A","1192946","2021-05-17 15:00","2021","05","17","15:00","10.6","","-0.2","","47","","","M","1","","12","","48.3","","96.44","","","","","","NA"
"-122.60","58.84","FORT NELSON A","1192946","2021-05-17 16:00","2021","05","17","16:00","12.2","","-0.2","","42","","","M","35","","6","","48.3","","96.43","","","","","","Mostly Cloudy"
"-122.60","58.84","FORT NELSON A","1192946","2021-05-17 17:00","2021","05","17","17:00","11.5","","-0.4","","44","","","M","2","","18","","48.3","","96.44","","","","","","NA"
"-122.60","58.84","FORT NELSON A","1192946","2021-05-17 18:00","2021","05","17","18:00","11.3","","1.7","","52","","","M","2","","20","","48.3","","96.45","","","","","","NA"
"-122.60","58.84","FORT NELSON A","1192946","2021-05-17 19:00","2021","05","17","19:00","10.8","","1.2","","51","","","M","5","","18","","48.3","","96.49","","","","","","Mostly Cloudy"
"-122.60","58.84","FORT NELSON A","1192946","2021-05-17 20:00","2021","05","17","20:00","8.6","","1.6","","61","","","M","1","","10","","","M","96.54","","","","","","NA"
"-122.60","58.84","FORT NELSON A","1192946","2021-05-17 21:00","2021","05","17","21:00","6.7","","1.5","","69","","","M","2","","13","","48.3","","96.59","","","","","","NA"
"-122.60","58.84","FORT NELSON A","1192946","2021-05-17 22:00","2021","05","17","22:00","5.5","","1.0","","73","","","M","2","","10","","24.1","","96.66","","","","","","Mainly Clear"
"-122.60","58.84","FORT NELSON A","1192946","2021-05-17 23:00","2021","05","17","23:00","4.6","","0.4","","74","","","M","2","","14","","24.1","","96.72","","","","","","NA"
"-122.60","58.84","FORT NELSON A","1192946","2021-05-18 00:00","2021","05","18","00:00","3.6","","0.1","","78","","","M","2","","11","","24.1","","96.77","","","","","","NA"
"-122.60","58.84","FORT NELSON A","1192946","2021-05-18 01:00","2021","05","18","01:00","2.4","","-0.4","","82","","","M","35","","9","","24.1","","96.80","","","","","","Mostly Cloudy"
"-122.60","58.84","FORT NELSON A","1192946","2021-05-18 02:00","2021","05","18","02:00","1.2","","-0.8","","87","","","M","36","","11","","24.1","","96.87","","","","","","NA"
"-122.60","58.84","FORT NELSON A","1192946","2021-05-18 03:00","2021","05","18","03:00","0.2","","-1.6","","88","","","M","34","","10","","24.1","","96.91","","","","","","NA"
"-122.60","58.84","FORT NELSON A","1192946","2021-05-18 04:00","2021","05","18","04:00","0.6","","-1.6","","85","","","M","35","","7","","24.1","","96.95","","","","","","Mostly Cloudy"
"-122.60","58.84","FORT NELSON A","1192946","2021-05-18 05:00","2021","05","18","05:00","1.1","","-1.4","","83","","","M","35","","7","","24.1","","97.01","","","","","","NA"
"-122.60","58.84","FORT NELSON A","1192946","2021-05-18 06:00","2021","05","18","06:00","2.1","","-1.5","","77","","","M","36","","7","","32.2","","97.06","","","","","","NA"
"-122.60","58.84","FORT NELSON A","1192946","2021-05-18 07:00","2021","05","18","07:00","2.9","","-1.1","","75","","","M","33","","6","","24.1","","97.08","","","","","","Mainly Clear"
"-122.60","58.84","FORT NELSON A","1192946","2021-05-18 08:00","2021","05","18","08:00","5.0","","-2.9","","57","","","M","33","","8","","48.3","","97.07","","","","","","NA"
"-122.60","58.84","FORT NELSON A","1192946","2021-05-18 09:00","2021","05","18","09:00","6.2","","-3.3","","50","","","M","2","","10","","48.3","","97.06","","","","","","NA"
"-122.60","58.84","FORT NELSON A","1192946","2021-05-18 10:00","2021","05","18","10:00","7.0","","-5.4","","41","","","M","32","","9","","48.3","","97.02","","","","","","Mainly Clear"
"-122.60","58.84","FORT NELSON A","1192946","2021-05-18 11:00","2021","05","18","11:00","8.7","","-4.6","","39","","","M","35","","3","","48.3","","97.01","","","","","","NA"
"-122.60","58.84","FORT NELSON A","1192946","2021-05-18 12:00","2021","05","18","12:00","10.2","","-4.5","","35","","","M","1","","14","","48.3","","97.01","","","","","","NA"
"-122.60","58.84","FORT NELSON A","1192946","2021-05-18 13:00","2021","05","18","13:00","10.5","","-5.4","","32","","","M","0","","1","","48.3","","97.00","","","","","","Mainly Clear"
"-122.60","58.84","FORT NELSON A","1192946","2021-05-18 14:00","2021","05","18","14:00","12.0","","-4.4","","31","","","M","32","","15","","48.3","","97.00","","","","","","NA"
"-122.60","58.84","FORT NELSON A","1192946","2021-05-18 15:00","2021","05","18","15:00","12.5","","-5.2","","29","","","M","34","","15","","48.3","","97.00","","","","","","NA"
"-122.60","58.84","FORT NELSON A","1192946","2021-05-18 16:00","2021","05","18","16:00","11.8","","-4.0","","33","","","M","36","","15","","48.3","","97.01","","","","","","Mainly Clear"
"-122.60","58.84","FORT NELSON A","1192946","2021-05-18 17:00","2021","05","18","17:00","12.7","","-6.4","","26","","","M","9","","10","","48.3","","97.01","","","","","","NA"
"-122.60","58.84","FORT NELSON A","1192946","2021-05-18 18:00","2021","05","18","18:00","12.7","","-6.0","","27","","","M","1","","10","","48.3","","97.03","","","","","","NA"
"-122.60","58.84","FORT NELSON A","1192946","2021-05-18 19:00","2021","05","18","19:00","10.9","","-4.2","","34","","","M","3","","9","","","M","97.08","","","","","","Mostly Cloudy"
"-122.60","58.84","FORT NELSON A","1192946","2021-05-18 20:00","2021","05","18","20:00","9.6","","-3.9","","39","","","M","3","","5","","48.3","","97.11","","","","","","NA"
"-122.60","58.84","FORT NELSON A","1192946","2021-05-18 21:00","2021","05","18","21:00","5.1","","-0.3","","68","","","M","36","","1","","48.3","","97.16","","","","","","NA"
"-122.60","58.84","FORT NELSON A","1192946","2021-05-18 22:00","2021","05","18","22:00","3.2","","-1.5","","71","","","M","31","","3","","24.1","","97.21","","","","","","Mainly Clear"
"-122.60","58.84","FORT NELSON A","1192946","2021-05-18 23:00","2021","05","18","23:00","1.8","","-1.8","","77","","","M","33","","4","","24.1","","97.27","","","","","","NA"
"-122.60","58.84","FORT NELSON A","1192946","2021-05-19 00:00","2021","05","19","00:00","0.5","","-2.7","","79","","","M","26","","3","","","M","97.33","","","","","","NA"
"-122.60","58.84","FORT NELSON A","1192946","2021-05-19 01:00","2021","05","19","01:00","0.6","","-3.6","","73","","","M","36","","1","","24.1","","97.38","","","","","","Clear"
"-122.60","58.84","FORT NELSON A","1192946","2021-05-19 02:00","2021","05","19","02:00","-0.4","","-4.1","","76","","","M","0","","1","","","M","97.43","","","","-1","","NA"
"-122.60","58.84","FORT NELSON A","1192946","2021-05-19 03:00","2021","05","19","03:00","-1.5","","-4.0","","83","","","M","25","","3","","32.2","","97.48","","","","-3","","NA"
"-122.60","58.84","FORT NELSON A","1192946","2021-05-19 04:00","2021","05","19","04:00","-1.4","","-4.3","","81","","","M","36","","1","","48.3","","97.52","","","","-2","","Mainly Clear"
"-122.60","58.84","FORT NELSON A","1192946","2021-05-19 05:00","2021","05","19","05:00","1.2","","-3.1","","73","","","M","9","","6","","48.3","","97.55","","","","","","NA"
"-122.60","58.84","FORT NELSON A","1192946","2021-05-19 06:00","2021","05","19","06:00","1.9","","-2.8","","71","","","M","16","","5","","48.3","","97.56","","","","","","NA"
"-122.60","58.84","FORT NELSON A","1192946","2021-05-19 07:00","2021","05","19","07:00","3.7","","-2.2","","66","","","M","8","","7","","48.3","","97.58","","","","","","Mainly Clear"
"-122.60","58.84","FORT NELSON A","1192946","2021-05-19 08:00","2021","05","19","08:00","5.8","","-2.2","","56","","","M","9","","8","","48.3","","97.57","","","","","","NA"
"-122.60","58.84","FORT NELSON A","1192946","2021-05-19 09:00","2021","05","19","09:00","8.0","","-2.0","","49","","","M","6","","4","","48.3","","97.57","","","","","","NA"
"-122.60","58.84","FORT NELSON A","1192946","2021-05-19 10:00","2021","05","19","10:00","10.4","","-2.9","","39","","","M","3","","5","","48.3","","97.54","","","","","","Mainly Clear"
"-122.60","58.84","FORT NELSON A","1192946","2021-05-19 11:00","2021","05","19","11:00","11.9","","-2.6","","36","","","M","12","","10","","48.3","","97.51","","","","","","NA"
"-122.60","58.84","FORT NELSON A","1192946","2021-05-19 12:00","2021","05","19","12:00","13.1","","-3.2","","32","","","M","30","","7","","48.3","","97.49","","","","","","NA"
"-122.60","58.84","FORT NELSON A","1192946","2021-05-19 13:00","2021","05","19","13:00","14.0","","-3.0","","30","","","M","4","","10","","48.3","","97.44","","","","","","Mainly Clear"
"-122.60","58.84","FORT NELSON A","1192946","2021-05-19 14:00","2021","05","19","14:00","13.9","","-2.6","","32","","","M","20","","6","","48.3","","97.43","","","","","","NA"
"-122.60","58.84","FORT NELSON A","1192946","2021-05-19 15:00","2021","05","19","15:00","15.1","","-5.3","","24","","","M","7","","8","","48.3","","97.38","","","","","","NA"
"-122.60","58.84","FORT NELSON A","1192946","2021-05-19 16:00","2021","05","19","16:00","15.5","","-5.3","","23","","","M","7","","13","","48.3","","97.32","","","","","","Mainly Clear"
"-122.60","58.84","FORT NELSON A","1192946","2021-05-19 17:00","2021","05","19","17:00","15.6","","-5.1","","24","","","M","9","","8","","48.3","","97.30","","","","","","NA"
"-122.60","58.84","FORT NELSON A","1192946","2021-05-19 18:00","2021","05","19","18:00","15.5","","-6.1","","22","","","M","36","","3","","48.3","","97.28","","","","","","NA"
"-122.60","58.84","FORT NELSON A","1192946","2021-05-19 19:00","2021","05","19","19:00","14.9","","-4.8","","25","","","M","11","","11","","48.3","","97.26","","","","","","Mainly Clear"
"-122.60","58.84","FORT NELSON A","1192946","2021-05-19 20:00","2021","05","19","20:00","13.3","","-4.4","","29","","","M","12","","16","","48.3","","97.29","","","","","","NA"
"-122.60","58.84","FORT NELSON A","1192946","2021-05-19 21:00","2021","05","19","21:00","11.5","","-4.2","","33","","","M","13","","10","","32.2","","97.33","","","","","","NA"
"-122.60","58.84","FORT NELSON A","1192946","2021-05-19 22:00","2021","05","19","22:00","10.2","","-4.0","","37","","","M","12","","10","","24.1","","97.36","","","","","","Mainly Clear"
"-122.60","58.84","FORT NELSON A","1192946","2021-05-19 23:00","2021","05","19","23:00","9.4","","-3.6","","40","","","M","13","","7","","24.1","","97.41","","","","","","NA"
"-122.60","58.84","FORT NELSON A","1192946","2021-05-20 00:00","2021","05","20","00:00","7.7","","-3.3","","46","","","M","12","","8","","24.1","","97.36","","","","","","NA"
"-122.60","58.84","FORT NELSON A","1192946","2021-05-20 01:00","2021","05","20","01:00","3.4","","-1.4","","71","","","M","24","","6","","24.1","","97.36","","","","","","Mostly Cloudy"
"-122.60","58.84","FORT NELSON A","1192946","2021-05-20 02:00","2021","05","20","02:00","5.4","","0.5","","71","","","M","31","","13","","24.1","","97.42","","","","","","NA"
"-122.60","58.84","FORT NELSON A","1192946","2021-05-20 03:00","2021","05","20","03:00","4.9","","1.8","","80","","","M","0","","1","","32.2","","97.44","","","","","","NA"
"-122.60","58.84","FORT NELSON A","1192946","2021-05-20 04:00","2021","05","20","04:00","4.7","","1.9","","82","","","M","30","","5","","48.3","","97.48","","","","","","Mostly Cloudy"
"-122.60","58.84","FORT NELSON A","1192946","2021-05-20 05:00","2021","05","20","05:00","4.9","","2.6","","85","","","M","31","","5","","48.3","","97.52","","","","","","NA"
"-122.60","58.84","FORT NELSON A","1192946","2021-05-20 06:00","2021","05","20","06:00","6.0","","3.0","","81","","","M","29","","9","","48.3","","97.56","","","","","","NA"
"-122.60","58.84","FORT NELSON A","1192946","2021-05-20 07:00","2021","05","20","07:00","7.1","","2.7","","74","","","M","31","","7","","48.3","","97.61","","","","","","Mostly Cloudy"
"-122.60","58.84","FORT NELSON A","1192946","2021-05-20 08:00","2021","05","20","08:00","9.4","","1.9","","59","","","M","34","","11","","48.3","","97.60","","","","","","NA"
"-122.60","58.84","FORT NELSON A","1192946","2021-05-20 09:00","2021","05","20","09:00","11.6","","2.2","","52","","","M","32","","5","","48.3","","97.58","","","","","","NA"
"-122.60","58.84","FORT NELSON A","1192946","2021-05-20 10:00","2021","05","20","10:00","12.2","","2.4","","51","","","M","36","","3","","48.3","","97.55","","","","","","Mainly Clear"
"-122.60","58.84","FORT NELSON A","1192946","2021-05-20 11:00","2021","05","20","11:00","12.8","","2.0","","48","","","M","14","","6","","48.3","","97.51","","","","","","NA"
"-122.60","58.84","FORT NELSON A","1192946","2021-05-20 12:00","2021","05","20","12:00","15.1","","1.1","","39","","","M","29","","16","","48.3","","97.48","","","","","","NA"
"-122.60","58.84","FORT NELSON A","1192946","2021-05-20 13:00","2021","05","20","13:00","16.1","","0.0","","33","","","M","29","","11","","48.3","","97.44","","","","","","Mainly Clear"
"-122.60","58.84","FORT NELSON A","1192946","2021-05-20 14:00","2021","05","20","14:00","16.2","","-0.7","","31","","","M","21","","12","","48.3","","97.39","","","","","","NA"
"-122.60","58.84","FORT NELSON A","1192946","2021-05-20 15:00","2021","05","20","15:00","16.7","","-2.5","","27","","","M","17","","9","","48.3","","97.37","","","","","","NA"
"-122.60","58.84","FORT NELSON A","1192946","2021-05-20 16:00","2021","05","20","16:00","16.1","","-1.8","","29","","","M","36","","1","","48.3","","97.36","","","","","","Mainly Clear"
"-122.60","58.84","FORT NELSON A","1192946","2021-05-20 17:00","2021","05","20","17:00","15.2","","2.2","","41","","","M","23","","19","","48.3","","97.37","","","","","","NA"
"-122.60","58.84","FORT NELSON A","1192946","2021-05-20 18:00","2021","05","20","18:00","16.1","","1.8","","38","","","M","16","","5","","48.3","","97.35","","","","","","NA"
"-122.60","58.84","FORT NELSON A","1192946","2021-05-20 19:00","2021","05","20","19:00","15.9","","1.0","","36","","","M","14","","5","","48.3","","97.36","","","","","","Mostly Cloudy"
"-122.60","58.84","FORT NELSON A","1192946","2021-05-20 20:00","2021","05","20","20:00","14.7","","3.1","","45","","","M","21","","2","","","M","97.38","","","","","","NA"
"-122.60","58.84","FORT NELSON A","1192946","2021-05-20 21:00","2021","05","20","21:00","10.2","","4.4","","67","","","M","24","","5","","48.3","","97.38","","","","","","NA"
"-122.60","58.84","FORT NELSON A","1192946","2021-05-20 22:00","2021","05","20","22:00","7.1","","3.2","","76","","","M","22","","11","","24.1","","97.40","","","","","","Mostly Cloudy"
"-122.60","58.84","FORT NELSON A","1192946","2021-05-20 23:00","2021","05","20","23:00","9.6","","2.5","","61","","","M","18","","7","","24.1","","97.41","","","","","","NA"
"-122.60","58.84","FORT NELSON A","1192946","2021-05-21 00:00","2021","05","21","00:00","6.7","","2.2","","73","","","M","36","","5","","24.1","","97.40","","","","","","NA"
"-122.60","58.84","FORT NELSON A","1192946","2021-05-21 01:00","2021","05","21","01:00","4.5","","1.9","","84","","","M","36","","1","","24.1","","97.40","","","","","","Mainly Clear"
"-122.60","58.84","FORT NELSON A","1192946","2021-05-21 02:00","2021","05","21","02:00","4.0","","1.6","","85","","","M","36","","2","","24.1","","97.43","","","","","","NA"
"-122.60","58.84","FORT NELSON A","1192946","2021-05-21 03:00","2021","05","21","03:00","2.2","","0.4","","88","","","M","27","","5","","24.1","","97.44","","","","","","NA"
"-122.60","58.84","FORT NELSON A","1192946","2021-05-21 04:00","2021","05","21","04:00","1.8","","0.1","","88","","","M","25","","8","","24.1","","97.46","","","","","","Mainly Clear"
"-122.60","58.84","FORT NELSON A","1192946","2021-05-21 05:00","2021","05","21","05:00","3.5","","1.7","","88","","","M","20","","3","","48.3","","97.47","","","","","","NA"
"-122.60","58.84","FORT NELSON A","1192946","2021-05-21 06:00","2021","05","21","06:00","6.7","","2.9","","77","","","M","17","","11","","48.3","","97.48","","","","","","NA"
"-122.60","58.84","FORT NELSON A","1192946","2021-05-21 07:00","2021","05","21","07:00","9.7","","3.5","","65","","","M","18","","9","","48.3","","97.48","","","","","","Mainly Clear"
"-122.60","58.84","FORT NELSON A","1192946","2021-05-21 08:00","2021","05","21","08:00","12.6","","3.1","","52","","","M","17","","7","","48.3","","97.44","","","","","","NA"
"-122.60","58.84","FORT NELSON A","1192946","2021-05-21 09:00","2021","05","21","09:00","14.6","","3.6","","47","","","M","18","","3","","48.3","","97.40","","","","","","NA"
"-122.60","58.84","FORT NELSON A","1192946","2021-05-21 10:00","2021","05","21","10:00","17.3","","1.8","","35","","","M","15","","12","","48.3","","97.34","","","","","","Mainly Clear"
"-122.60","58.84","FORT NELSON A","1192946","2021-05-21 11:00","2021","05","21","11:00","18.5","","-1.0","","26","","","M","16","","9","","48.3","","97.28","","","","","","NA"
"-122.60","58.84","FORT NELSON A","1192946","2021-05-21 12:00","2021","05","21","12:00","19.6","","-1.6","","24","","","M","20","","5","","48.3","","97.21","","","","","","NA"
"-122.60","58.84","FORT NELSON A","1192946","2021-05-21 13:00","2021","05","21","13:00","20.2","","-1.8","","22","","","M","17","","7","","48.3","","97.13","","","","","","Mostly Cloudy"
"-122.60","58.84","FORT NELSON A","1192946","2021-05-21 14:00","2021","05","21","14:00","20.9","","-3.7","","19","","","M","17","","3","","48.3","","97.06","","","","","","NA"
"-122.60","58.84","FORT NELSON A","1192946","2021-05-21 15:00","2021","05","21","15:00","21.4","","-2.2","","20","","","M","13","","12","","48.3","","97.00","","","","","","NA"
"-122.60","58.84","FORT NELSON A","1192946","2021-05-21 16:00","2021","05","21","16:00","20.9","","-1.9","","21","","","M","9","","9","","48.3","","96.94","","","","","","Mostly Cloudy"
"-122.60","58.84","FORT NELSON A","1192946","2021-05-21 17:00","2021","05","21","17:00","21.8","","-3.6","","18","","","M","15","","10","","48.3","","96.87","","","","","","NA"
"-122.60","58.84","FORT NELSON A","1192946","2021-05-21 18:00","2021","05","21","18:00","20.8","","-2.1","","21","","","M","12","","10","","48.3","","96.81","","","","","","NA"
"-122.60","58.84","FORT NELSON A","1192946","2021-05-21 19:00","2021","05","21","19:00","20.4","","-2.6","","21","","","M","12","","5","","48.3","","96.78","","","","","","Mostly Cloudy"
"-122.60","58.84","FORT NELSON A","1192946","2021-05-21 20:00","2021","05","21","20:00","19.3","","-0.6","","26","","","M","15","","5","","48.3","","96.77","","","","","","NA"
"-122.60","58.84","FORT NELSON A","1192946","2021-05-21 21:00","2021","05","21","21:00","16.8","","0.8","","34","","","M","21","","8","","48.3","","96.75","","","","","","NA"
"-122.60","58.84","FORT NELSON A","1192946","2021-05-21 22:00","2021","05","21","22:00","17.6","","-1.9","","26","","","M","25","","14","","24.1","","96.76","","","","","","Mostly Cloudy"
"-122.60","58.84","FORT NELSON A","1192946","2021-05-21 23:00","2021","05","21","23:00","16.5","","-1.6","","29","","","M","28","","8","","24.1","","96.77","","","","","","NA"
"-122.60","58.84","FORT NELSON A","1192946","2021-05-22 00:00","2021","05","22","00:00","17.2","","-1.6","","28","","","M","25","","4","","24.1","","96.77","","","","","","NA"
"-122.60","58.84","FORT NELSON A","1192946","2021-05-22 01:00","2021","05","22","01:00","13.6","","1.0","","42","","","M","23","","8","","24.1","","96.76","","","","","","Mostly Cloudy"
"-122.60","58.84","FORT NELSON A","1192946","2021-05-22 02:00","2021","05","22","02:00","14.7","","-2.2","","31","","","M","30","","9","","24.1","","96.85","","","","","","NA"
"-122.60","58.84","FORT NELSON A","1192946","2021-05-22 03:00","2021","05","22","03:00","13.4","","-1.6","","35","","","M","33","","14","","24.1","","96.88","","","","","","NA"
"-122.60","58.84","FORT NELSON A","1192946","2021-05-22 04:00","2021","05","22","04:00","12.6","","-0.6","","40","","","M","33","","12","","32.2","","96.94","","","","","","Mostly Cloudy"
"-122.60","58.84","FORT NELSON A","1192946","2021-05-22 05:00","2021","05","22","05:00","11.9","","0.8","","46","","","M","35","","8","","48.3","","96.97","","","","","","NA"
"-122.60","58.84","FORT NELSON A","1192946","2021-05-22 06:00","2021","05","22","06:00","12.2","","1.0","","46","","","M","32","","3","","48.3","","97.01","","","","","","NA"
"-122.60","58.84","FORT NELSON A","1192946","2021-05-22 07:00","2021","05","22","07:00","12.8","","1.6","","46","","","M","31","","4","","48.3","","97.01","","","","","","Mostly Cloudy"
"-122.60","58.84","FORT NELSON A","1192946","2021-05-22 08:00","2021","05","22","08:00","15.1","","2.3","","42","","","M","32","","12","","48.3","","97.00","","","","","","NA"
"-122.60","58.84","FORT NELSON A","1192946","2021-05-22 09:00","2021","05","22","09:00","17.4","","1.7","","34","","","M","36","","11","","48.3","","96.94","","","","","","NA"
"-122.60","58.84","FORT NELSON A","1192946","2021-05-22 10:00","2021","05","22","10:00","17.5","","0.7","","32","","","M","4","","5","","48.3","","96.88","","","","","","Mostly Cloudy"
"-122.60","58.84","FORT NELSON A","1192946","2021-05-22 11:00","2021","05","22","11:00","18.1","","0.1","","29","","","M","26","","16","","48.3","","96.84","","","","","","NA"
"-122.60","58.84","FORT NELSON A","1192946","2021-05-22 12:00","2021","05","22","12:00","19.6","","1.0","","29","","","M","23","","10","","48.3","","96.77","","","","","","NA"
"-122.60","58.84","FORT NELSON A","1192946","2021-05-22 13:00","2021","05","22","13:00","19.3","","2.0","","31","","","M","2","","12","","48.3","","96.72","","","","","","Mostly Cloudy"
"-122.60","58.84","FORT NELSON A","1192946","2021-05-22 14:00","2021","05","22","14:00","19.8","","0.0","","26","","","M","29","","4","","48.3","","96.68","","","","","","NA"
"-122.60","58.84","FORT NELSON A","1192946","2021-05-22 15:00","2021","05","22","15:00","20.3","","1.2","","28","","","M","5","","11","","48.3","","96.63","","","","","","NA"
"-122.60","58.84","FORT NELSON A","1192946","2021-05-22 16:00","2021","05","22","16:00","20.9","","0.6","","26","","","M","35","","5","","48.3","","96.60","","","","","","Mostly Cloudy"
"-122.60","58.84","FORT NELSON A","1192946","2021-05-22 17:00","2021","05","22","17:00","21.1","","1.6","","27","","","M","35","","17","","48.3","","96.56","","","","","","NA"
"-122.60","58.84","FORT NELSON A","1192946","2021-05-22 18:00","2021","05","22","18:00","20.7","","1.8","","28","","","M","2","","10","","48.3","","96.53","","","","","","NA"
"-122.60","58.84","FORT NELSON A","1192946","2021-05-22 19:00","2021","05","22","19:00","19.0","","1.5","","31","","","M","1","","10","","48.3","","96.52","","","","","","Mostly Cloudy"
"-122.60","58.84","FORT NELSON A","1192946","2021-05-22 20:00","2021","05","22","20:00","18.2","","1.7","","33","","","M","33","","8","","48.3","","96.54","","","","","","NA"
"-122.60","58.84","FORT NELSON A","1192946","2021-05-22 21:00","2021","05","22","21:00","16.6","","0.9","","34","","","M","34","","8","","48.3","","96.56","","","","","","NA"
"-122.60","58.84","FORT NELSON A","1192946","2021-05-22 22:00","2021","05","22","22:00","14.7","","1.2","","40","","","M","33","","5","","24.1","","96.58","","","","","","Mostly Cloudy"
"-122.60","58.84","FORT NELSON A","1192946","2021-05-22 23:00","2021","05","22","23:00","13.3","","0.8","","42","","","M","31","","9","","24.1","","96.60","","","","","","NA"
"-122.60","58.84","FORT NELSON A","1192946","2021-05-23 00:00","2021","05","23","00:00","13.3","","0.5","","41","","","M","31","","10","","24.1","","96.62","","","","","","NA"
"-122.60","58.84","FORT NELSON A","1192946","2021-05-23 01:00","2021","05","23","01:00","12.7","","-0.1","","41","","","M","31","","10","","24.1","","96.65","","","","","","Mostly Cloudy"
"-122.60","58.84","FORT NELSON A","1192946","2021-05-23 02:00","2021","05","23","02:00","11.5","","-0.2","","44","","","M","31","","8","","24.1","","96.67","","","","","","NA"
"-122.60","58.84","FORT NELSON A","1192946","2021-05-23 03:00","2021","05","23","03:00","9.1","","2.0","","61","","","M","36","","1","","24.1","","96.69","","","","","","NA"
"-122.60","58.84","FORT NELSON A","1192946","2021-05-23 04:00","2021","05","23","04:00","8.1","","1.4","","63","","","M","0","","1","","32.2","","96.70","","","","","","Mostly Cloudy"
"-122.60","58.84","FORT NELSON A","1192946","2021-05-23 05:00","2021","05","23","05:00","6.7","","2.1","","72","","","M","24","","7","","32.2","","96.71","","","","","","NA"
"-122.60","58.84","FORT NELSON A","1192946","2021-05-23 06:00","2021","05","23","06:00","11.1","","3.9","","61","","","M","11","","5","","48.3","","96.71","","","","","","NA"
"-122.60","58.84","FORT NELSON A","1192946","2021-05-23 07:00","2021","05","23","07:00","12.9","","3.3","","52","","","M","36","","2","","48.3","","96.71","","","","","","Mostly Cloudy"
"-122.60","58.84","FORT NELSON A","1192946","2021-05-23 08:00","2021","05","23","08:00","14.5","","1.2","","40","","","M","35","","8","","48.3","","96.71","","","","","","NA"
"-122.60","58.84","FORT NELSON A","1192946","2021-05-23 09:00","2021","05","23","09:00","15.7","","0.3","","35","","","M","4","","8","","48.3","","96.68","","","","","","NA"
"-122.60","58.84","FORT NELSON A","1192946","2021-05-23 10:00","2021","05","23","10:00","17.1","","0.7","","33","","","M","34","","8","","48.3","","96.65","","","","","","Mostly Cloudy"
"-122.60","58.84","FORT NELSON A","1192946","2021-05-23 11:00","2021","05","23","11:00","17.5","","0.4","","31","","","M","35","","14","","48.3","","96.61","","","","","","NA"
"-122.60","58.84","FORT NELSON A","1192946","2021-05-23 12:00","2021","05","23","12:00","18.4","","0.1","","29","","","M","12","","8","","48.3","","96.60","","","","","","NA"
"-122.60","58.84","FORT NELSON A","1192946","2021-05-23 13:00","2021","05","23","13:00","19.5","","0.0","","27","","","M","36","","8","","48.3","","96.56","","","","","","Mostly Cloudy"
"-122.60","58.84","FORT NELSON A","1192946","2021-05-23 14:00","2021","05","23","14:00","18.7","","-1.0","","26","","","M","24","","10","","48.3","","96.54","","","","","","NA"
"-122.60","58.84","FORT NELSON A","1192946","2021-05-23 15:00","2021","05","23","15:00","19.1","","-0.9","","26","","","M","28","","10","","48.3","","96.53","","","","","","NA"
"-122.60","58.84","FORT NELSON A","1192946","2021-05-23 16:00","2021","05","23","16:00","18.6","","-0.1","","28","","","M","30","","13","","48.3","","96.51","","","","","","Mostly Cloudy"
"-122.60","58.84","FORT NELSON A","1192946","2021-05-23 17:00","2021","05","23","17:00","19.3","","-0.9","","25","","","M","21","","3","","48.3","","96.50","","","","","","NA"
"-122.60","58.84","FORT NELSON A","1192946","2021-05-23 18:00","2021","05","23","18:00","19.7","","0.0","","26","","","M","32","","7","","48.3","","96.50","","","","","","NA"
"-122.60","58.84","FORT NELSON A","1192946","2021-05-23 19:00","2021","05","23","19:00","19.1","","-0.3","","27","","","M","31","","8","","48.3","","96.49","","","","","","Mainly Clear"
"-122.60","58.84","FORT NELSON A","1192946","2021-05-23 20:00","2021","05","23","20:00","16.3","","1.0","","35","","","M","32","","14","","48.3","","96.52","","","","","","NA"
"-122.60","58.84","FORT NELSON A","1192946","2021-05-23 21:00","2021","05","23","21:00","13.9","","1.4","","43","","","M","31","","9","","48.3","","96.57","","","","","","NA"
"-122.60","58.84","FORT NELSON A","1192946","2021-05-23 22:00","2021","05","23","22:00","12.8","","1.3","","45","","","M","36","","2","","24.1","","96.61","","","","","","Mainly Clear"
"-122.60","58.84","FORT NELSON A","1192946","2021-05-23 23:00","2021","05","23","23:00","11.2","","1.6","","51","","","M","1","","4","","24.1","","96.64","","","","","","NA"
"-122.60","58.84","FORT NELSON A","1192946","2021-05-24 00:00","2021","05","24","00:00","11.4","","2.0","","52","","","M","36","","10","","24.1","","96.69","","","","","","NA"
"-122.60","58.84","FORT NELSON A","1192946","2021-05-24 01:00","2021","05","24","01:00","11.7","","2.3","","52","","","M","31","","11","","","M","96.73","","","","","","Mostly Cloudy"
"-122.60","58.84","FORT NELSON A","1192946","2021-05-24 02:00","2021","05","24","02:00","11.1","","2.5","","55","","","M","34","","13","","24.1","","96.79","","","","","","NA"
"-122.60","58.84","FORT NELSON A","1192946","2021-05-24 03:00","2021","05","24","03:00","10.6","","3.0","","60","","","M","33","","11","","24.1","","96.87","","","","","","NA"
"-122.60","58.84","FORT NELSON A","1192946","2021-05-24 04:00","2021","05","24","04:00","10.1","","3.6","","64","","","M","33","","11","","","M","96.94","","","","","","Mostly Cloudy"
"-122.60","58.84","FORT NELSON A","1192946","2021-05-24 05:00","2021","05","24","05:00","9.8","","4.2","","68","","","M","32","","14","","24.1","","97.00","","","","","","NA"
"-122.60","58.84","FORT NELSON A","1192946","2021-05-24 06:00","2021","05","24","06:00","8.9","","5.8","","81","","","M","32","","16","","24.1","","97.02","","","","","","Rain"
"-122.60","58.84","FORT NELSON A","1192946","2021-05-24 07:00","2021","05","24","07:00","9.2","","5.2","","76","","","M","34","","15","","","M","97.05","","","","","","Rain"
"-122.60","58.84","FORT NELSON A","1192946","2021-05-24 08:00","2021","05","24","08:00","8.4","","6.5","","88","","","M","35","","14","","16.1","","97.10","","","","","","Rain"
"-122.60","58.84","FORT NELSON A","1192946","2021-05-24 09:00","2021","05","24","09:00","8.7","","7.4","","91","","","M","36","","12","","","M","97.16","","","","","","Rain"
"-122.60","58.84","FORT NELSON A","1192946","2021-05-24 10:00","2021","05","24","10:00","10.1","","8.2","","88","","","M","36","","12","","24.1","","97.19","","","","","","Cloudy"
"-122.60","58.84","FORT NELSON A","1192946","2021-05-24 11:00","2021","05","24","11:00","11.0","","6.5","","74","","","M","2","","17","","24.1","","97.22","","","","","","NA"
"-122.60","58.84","FORT NELSON A","1192946","2021-05-24 12:00","2021","05","24","12:00","11.6","","5.5","","66","","","M","36","","10","","19.3","","97.28","","","","","","NA"
"-122.60","58.84","FORT NELSON A","1192946","2021-05-24 13:00","2021","05","24","13:00","13.2","","-0.7","","38","","","M","3","","21","","24.1","","97.26","","","","","","Cloudy"
"-122.60","58.84","FORT NELSON A","1192946","2021-05-24 14:00","2021","05","24","14:00","13.5","","-3.0","","31","","","M","2","","22","","24.1","","97.31","","","","","","NA"
"-122.60","58.84","FORT NELSON A","1192946","2021-05-24 15:00","2021","05","24","15:00","13.2","","-1.5","","36","","","M","3","","27","","48.3","","97.34","","","","","","NA"
"-122.60","58.84","FORT NELSON A","1192946","2021-05-24 16:00","2021","05","24","16:00","12.8","","-0.9","","39","","","M","4","","24","","32.2","","97.38","","","","","","Mostly Cloudy"
"-122.60","58.84","FORT NELSON A","1192946","2021-05-24 17:00","2021","05","24","17:00","10.5","","1.8","","55","","","M","3","","21","","48.3","","97.45","","","","","","NA"
"-122.60","58.84","FORT NELSON A","1192946","2021-05-24 18:00","2021","05","24","18:00","9.1","","0.3","","54","","","M","5","","17","","48.3","","97.51","","","","","","NA"
"-122.60","58.84","FORT NELSON A","1192946","2021-05-24 19:00","2021","05","24","19:00","8.6","","0.2","","55","","","M","1","","22","","48.3","","97.55","","","","","","Mostly Cloudy"
"-122.60","58.84","FORT NELSON A","1192946","2021-05-24 20:00","2021","05","24","20:00","8.3","","0.6","","58","","","M","36","","10","","48.3","","97.58","","","","","","NA"
"-122.60","58.84","FORT NELSON A","1192946","2021-05-24 21:00","2021","05","24","21:00","7.8","","1.0","","62","","","M","34","","9","","48.3","","97.63","","","","","","NA"
"-122.60","58.84","FORT NELSON A","1192946","2021-05-24 22:00","2021","05","24","22:00","7.5","","0.8","","62","","","M","33","","10","","24.1","","97.67","","","","","","Cloudy"
"-122.60","58.84","FORT NELSON A","1192946","2021-05-24 23:00","2021","05","24","23:00","7.2","","0.7","","63","","","M","33","","9","","24.1","","97.74","","","","","","NA"
"-122.60","58.84","FORT NELSON A","1192946","2021-05-25 00:00","2021","05","25","00:00","7.3","","-1.1","","55","","","M","2","","11","","24.1","","97.84","","","","","","NA"
"-122.60","58.84","FORT NELSON A","1192946","2021-05-25 01:00","2021","05","25","01:00","6.8","","-0.9","","58","","","M","35","","5","","24.1","","97.89","","","","","","Mostly Cloudy"
"-122.60","58.84","FORT NELSON A","1192946","2021-05-25 02:00","2021","05","25","02:00","4.8","","1.2","","77","","","M","26","","13","","24.1","","97.93","","","","","","Rain"
"-122.60","58.84","FORT NELSON A","1192946","2021-05-25 03:00","2021","05","25","03:00","4.5","","1.3","","80","","","M","20","","8","","24.1","","97.97","","","","","","NA"
"-122.60","58.84","FORT NELSON A","1192946","2021-05-25 04:00","2021","05","25","04:00","3.2","","1.4","","88","","","M","16","","6","","24.1","","97.98","","","","","","Rain"
"-122.60","58.84","FORT NELSON A","1192946","2021-05-25 05:00","2021","05","25","05:00","3.1","","1.9","","92","","","M","22","","5","","24.1","","97.97","","","","","","NA"
"-122.60","58.84","FORT NELSON A","1192946","2021-05-25 06:00","2021","05","25","06:00","3.6","","1.7","","87","","","M","21","","5","","48.3","","97.97","","","","","","NA"
"-122.60","58.84","FORT NELSON A","1192946","2021-05-25 07:00","2021","05","25","07:00","4.5","","0.1","","73","","","M","8","","8","","32.2","","97.98","","","","","","Cloudy"
"-122.60","58.84","FORT NELSON A","1192946","2021-05-25 08:00","2021","05","25","08:00","5.1","","-2.1","","60","","","M","11","","5","","32.2","","97.95","","","","","","NA"
"-122.60","58.84","FORT NELSON A","1192946","2021-05-25 09:00","2021","05","25","09:00","5.0","","0.5","","72","","","M","21","","9","","32.2","","97.93","","","","","","NA"
"-122.60","58.84","FORT NELSON A","1192946","2021-05-25 10:00","2021","05","25","10:00","5.4","","-0.2","","67","","","M","18","","5","","48.3","","97.91","","","","","","Cloudy"
"-122.60","58.84","FORT NELSON A","1192946","2021-05-25 11:00","2021","05","25","11:00","6.0","","-1.8","","57","","","M","3","","3","","48.3","","97.86","","","","","","NA"
"-122.60","58.84","FORT NELSON A","1192946","2021-05-25 12:00","2021","05","25","12:00","6.9","","-7.5","","35","","","M","6","","13","","48.3","","97.80","","","","","","NA"
"-122.60","58.84","FORT NELSON A","1192946","2021-05-25 13:00","2021","05","25","13:00","7.9","","-7.7","","32","","","M","8","","15","","48.3","","97.73","","","","","","Cloudy"
"-122.60","58.84","FORT NELSON A","1192946","2021-05-25 14:00","2021","05","25","14:00","8.9","","-7.3","","31","","","M","6","","12","","48.3","","97.65","","","","","","NA"
"-122.60","58.84","FORT NELSON A","1192946","2021-05-25 15:00","2021","05","25","15:00","9.6","","-8.1","","28","","","M","11","","13","","48.3","","97.58","","","","","","NA"
"-122.60","58.84","FORT NELSON A","1192946","2021-05-25 16:00","2021","05","25","16:00","10.1","","-8.0","","27","","","M","11","","12","","48.3","","97.51","","","","","","Mostly Cloudy"
"-122.60","58.84","FORT NELSON A","1192946","2021-05-25 17:00","2021","05","25","17:00","10.5","","-7.8","","27","","","M","10","","4","","48.3","","97.41","","","","","","NA"
"-122.60","58.84","FORT NELSON A","1192946","2021-05-25 18:00","2021","05","25","18:00","10.8","","-6.6","","29","","","M","7","","13","","48.3","","97.35","","","","","","NA"
"-122.60","58.84","FORT NELSON A","1192946","2021-05-25 19:00","2021","05","25","19:00","10.2","","-5.6","","32","","","M","8","","12","","48.3","","97.29","","","","","","Cloudy"
"-122.60","58.84","FORT NELSON A","1192946","2021-05-25 20:00","2021","05","25","20:00","9.5","","-4.0","","38","","","M","10","","8","","48.3","","97.24","","","","","","NA"
"-122.60","58.84","FORT NELSON A","1192946","2021-05-25 21:00","2021","05","25","21:00","9.2","","-4.2","","38","","","M","12","","4","","48.3","","97.20","","","","","","NA"
"-122.60","58.84","FORT NELSON A","1192946","2021-05-25 22:00","2021","05","25","22:00","8.5","","-3.4","","43","","","M","12","","7","","24.1","","97.17","","","","","","Cloudy"
"-122.60","58.84","FORT NELSON A","1192946","2021-05-25 23:00","2021","05","25","23:00","7.3","","0.0","","60","","","M","15","","6","","24.1","","97.16","","","","","","Rain"
"-122.60","58.84","FORT NELSON A","1192946","2021-05-26 00:00","2021","05","26","00:00","5.8","","3.3","","84","","","M","11","","7","","11.3","","97.11","","","","","","Rain"
"-122.60","58.84","FORT NELSON A","1192946","2021-05-26 01:00","2021","05","26","01:00","5.5","","4.3","","92","","","M","10","","7","","11.3","","97.04","","","","","","Rain"
"-122.60","58.84","FORT NELSON A","1192946","2021-05-26 02:00","2021","05","26","02:00","5.6","","4.5","","93","","","M","5","","7","","24.1","","96.94","","","","","","Rain"
"-122.60","58.84","FORT NELSON A","1192946","2021-05-26 03:00","2021","05","26","03:00","5.6","","3.7","","88","","","M","9","","11","","24.1","","96.85","","","","","","NA"
"-122.60","58.84","FORT NELSON A","1192946","2021-05-26 04:00","2021","05","26","04:00","5.5","","3.2","","85","","","M","11","","6","","24.1","","96.77","","","","","","Mostly Cloudy"
"-122.60","58.84","FORT NELSON A","1192946","2021-05-26 05:00","2021","05","26","05:00","5.5","","3.1","","85","","","M","22","","3","","24.1","","96.73","","","","","","NA"
"-122.60","58.84","FORT NELSON A","1192946","2021-05-26 06:00","2021","05","26","06:00","5.9","","3.4","","84","","","M","12","","4","","24.1","","96.69","","","","","","NA"
"-122.60","58.84","FORT NELSON A","1192946","2021-05-26 07:00","2021","05","26","07:00","6.5","","3.3","","80","","","M","9","","8","","19.3","","96.63","","","","","","Cloudy"
"-122.60","58.84","FORT NELSON A","1192946","2021-05-26 08:00","2021","05","26","08:00","7.3","","3.0","","74","","","M","9","","8","","24.1","","96.58","","","","","","NA"
"-122.60","58.84","FORT NELSON A","1192946","2021-05-26 09:00","2021","05","26","09:00","7.4","","3.5","","76","","","M","10","","4","","24.1","","96.56","","","","","","NA"
"-122.60","58.84","FORT NELSON A","1192946","2021-05-26 10:00","2021","05","26","10:00","8.4","","3.6","","72","","","M","14","","4","","32.2","","96.53","","","","","","Cloudy"
"-122.60","58.84","FORT NELSON A","1192946","2021-05-26 11:00","2021","05","26","11:00","9.0","","3.5","","68","","","M","14","","5","","32.2","","96.51","","","","","","NA"
"-122.60","58.84","FORT NELSON A","1192946","2021-05-26 12:00","2021","05","26","12:00","9.8","","3.3","","64","","","M","23","","8","","32.2","","96.47","","","","","","NA"
"-122.60","58.84","FORT NELSON A","1192946","2021-05-26 13:00","2021","05","26","13:00","11.8","","3.8","","58","","","M","10","","5","","48.3","","96.42","","","","","","Mostly Cloudy"
"-122.60","58.84","FORT NELSON A","1192946","2021-05-26 14:00","2021","05","26","14:00","12.5","","3.7","","55","","","M","36","","3","","48.3","","96.38","","","","","","NA"
"-122.60","58.84","FORT NELSON A","1192946","2021-05-26 15:00","2021","05","26","15:00","13.5","","3.5","","51","","","M","36","","2","","48.3","","96.34","","","","","","NA"
"-122.60","58.84","FORT NELSON A","1192946","2021-05-26 16:00","2021","05","26","16:00","13.3","","2.6","","48","","","M","21","","5","","48.3","","96.29","","","","","","Mostly Cloudy"
"-122.60","58.84","FORT NELSON A","1192946","2021-05-26 17:00","2021","05","26","17:00","13.7","","4.1","","52","","","M","31","","9","","48.3","","96.25","","","","","","NA"
"-122.60","58.84","FORT NELSON A","1192946","2021-05-26 18:00","2021","05","26","18:00","12.3","","4.2","","57","","","M","30","","17","","24.1","","96.26","","","","","","NA"
"-122.60","58.84","FORT NELSON A","1192946","2021-05-26 19:00","2021","05","26","19:00","9.6","","5.0","","73","","","M","28","","11","","16.1","","96.32","","","","","","Rain Showers"
"-122.60","58.84","FORT NELSON A","1192946","2021-05-26 20:00","2021","05","26","20:00","9.3","","5.7","","78","","","M","6","","9","","32.2","","96.27","","","","","","Rain Showers"
"-122.60","58.84","FORT NELSON A","1192946","2021-05-26 21:00","2021","05","26","21:00","8.2","","5.7","","84","","","M","24","","4","","24.1","","96.30","","","","","","Rain Showers"
"-122.60","58.84","FORT NELSON A","1192946","2021-05-26 22:00","2021","05","26","22:00","7.3","","4.0","","79","","","M","36","","2","","24.1","","96.29","","","","","","Mainly Clear"
"-122.60","58.84","FORT NELSON A","1192946","2021-05-26 23:00","2021","05","26","23:00","4.3","","3.3","","93","","","M","21","","7","","24.1","","96.27","","","","","","NA"
"-122.60","58.84","FORT NELSON A","1192946","2021-05-27 00:00","2021","05","27","00:00","2.7","","1.9","","94","","","M","23","","9","","24.1","","96.28","","","","","","NA"
"-122.60","58.84","FORT NELSON A","1192946","2021-05-27 01:00","2021","05","27","01:00","1.4","","0.8","","95","","","M","22","","5","","24.1","","96.26","","","","","","Clear"
"-122.60","58.84","FORT NELSON A","1192946","2021-05-27 02:00","2021","05","27","02:00","1.3","","0.7","","96","","","M","36","","2","","24.1","","96.26","","","","","","NA"
"-122.60","58.84","FORT NELSON A","1192946","2021-05-27 03:00","2021","05","27","03:00","0.5","","0.0","","96","","","M","21","","3","","0.4","","96.25","","","","","","Fog"
"-122.60","58.84","FORT NELSON A","1192946","2021-05-27 04:00","2021","05","27","04:00","-0.5","","-0.7","","98","","","M","16","","3","","1.6","","96.22","","","","-1","","Fog"
"-122.60","58.84","FORT NELSON A","1192946","2021-05-27 05:00","2021","05","27","05:00","1.2","","1.1","","99","","","M","17","","7","","0.2","","96.21","","","","","","Fog"
"-122.60","58.84","FORT NELSON A","1192946","2021-05-27 06:00","2021","05","27","06:00","2.0","","1.9","","99","","","M","18","","10","","0.8","","96.23","","","","","","Fog"
"-122.60","58.84","FORT NELSON A","1192946","2021-05-27 07:00","2021","05","27","07:00","5.0","","3.6","","90","","","M","14","","8","","48.3","","96.20","","","","","","Mainly Clear"
"-122.60","58.84","FORT NELSON A","1192946","2021-05-27 08:00","2021","05","27","08:00","8.8","","4.1","","72","","","M","17","","5","","48.3","","96.15","","","","","","NA"
"-122.60","58.84","FORT NELSON A","1192946","2021-05-27 09:00","2021","05","27","09:00","12.3","","4.0","","57","","","M","17","","9","","48.3","","96.10","","","","","","NA"
"-122.60","58.84","FORT NELSON A","1192946","2021-05-27 10:00","2021","05","27","10:00","14.0","","3.5","","49","","","M","9","","9","","48.3","","96.05","","","","","","Mostly Cloudy"
"-122.60","58.84","FORT NELSON A","1192946","2021-05-27 11:00","2021","05","27","11:00","14.8","","-0.4","","35","","","M","21","","5","","48.3","","95.99","","","","","","NA"
"-122.60","58.84","FORT NELSON A","1192946","2021-05-27 12:00","2021","05","27","12:00","14.8","","-0.4","","35","","","M","24","","4","","48.3","","95.96","","","","","","NA"
"-122.60","58.84","FORT NELSON A","1192946","2021-05-27 13:00","2021","05","27","13:00","15.7","","0.7","","36","","","M","29","","9","","48.3","","95.91","","","","","","Mostly Cloudy"
"-122.60","58.84","FORT NELSON A","1192946","2021-05-27 14:00","2021","05","27","14:00","15.9","","0.5","","35","","","M","31","","8","","","M","95.86","","","","","","NA"
"-122.60","58.84","FORT NELSON A","1192946","2021-05-27 15:00","2021","05","27","15:00","16.8","","-0.4","","31","","","M","20","","4","","48.3","","95.82","","","","","","NA"
"-122.60","58.84","FORT NELSON A","1192946","2021-05-27 16:00","2021","05","27","16:00","16.6","","-1.3","","29","","","M","19","","7","","","M","95.79","","","","","","Mostly Cloudy"
"-122.60","58.84","FORT NELSON A","1192946","2021-05-27 17:00","2021","05","27","17:00","17.6","","-1.9","","26","","","M","31","","13","","48.3","","95.78","","","","","","NA"
"-122.60","58.84","FORT NELSON A","1192946","2021-05-27 18:00","2021","05","27","18:00","16.4","","-2.5","","27","","","M","31","","11","","48.3","","95.78","","","","","","NA"
"-122.60","58.84","FORT NELSON A","1192946","2021-05-27 19:00","2021","05","27","19:00","17.1","","-1.7","","28","","","M","28","","6","","48.3","","95.80","","","","","","Mostly Cloudy"
"-122.60","58.84","FORT NELSON A","1192946","2021-05-27 20:00","2021","05","27","20:00","15.7","","-1.2","","31","","","M","30","","7","","48.3","","95.81","","","","","","NA"
"-122.60","58.84","FORT NELSON A","1192946","2021-05-27 21:00","2021","05","27","21:00","10.9","","3.4","","60","","","M","25","","5","","32.2","","95.82","","","","","","NA"
"-122.60","58.84","FORT NELSON A","1192946","2021-05-27 22:00","2021","05","27","22:00","9.7","","3.4","","65","","","M","27","","4","","24.1","","95.83","","","","","","Mostly Cloudy"
"-122.60","58.84","FORT NELSON A","1192946","2021-05-27 23:00","2021","05","27","23:00","9.1","","2.7","","64","","","M","36","","2","","24.1","","95.84","","","","","","NA"
"-122.60","58.84","FORT NELSON A","1192946","2021-05-28 00:00","2021","05","28","00:00","6.9","","2.7","","74","","","M","27","","4","","24.1","","95.88","","","","","","NA"
"-122.60","58.84","FORT NELSON A","1192946","2021-05-28 01:00","2021","05","28","01:00","6.9","","2.6","","74","","","M","17","","4","","24.1","","95.89","","","","","","Mostly Cloudy"
"-122.60","58.84","FORT NELSON A","1192946","2021-05-28 02:00","2021","05","28","02:00","6.8","","2.0","","72","","","M","36","","2","","24.1","","95.92","","","","","","NA"
"-122.60","58.84","FORT NELSON A","1192946","2021-05-28 03:00","2021","05","28","03:00","4.7","","2.1","","83","","","M","24","","6","","24.1","","95.95","","","","","","NA"
"-122.60","58.84","FORT NELSON A","1192946","2021-05-28 04:00","2021","05","28","04:00","6.0","","2.6","","79","","","M","18","","4","","24.1","","95.99","","","","","","Mostly Cloudy"
"-122.60","58.84","FORT NELSON A","1192946","2021-05-28 05:00","2021","05","28","05:00","7.6","","2.6","","71","","","M","16","","13","","48.3","","96.01","","","","","","NA"
"-122.60","58.84","FORT NELSON A","1192946","2021-05-28 06:00","2021","05","28","06:00","8.3","","2.3","","66","","","M","18","","7","","48.3","","96.05","","","","","","NA"
"-122.60","58.84","FORT NELSON A","1192946","2021-05-28 07:00","2021","05","28","07:00","10.5","","3.0","","59","","","M","15","","5","","48.3","","96.07","","","","","","Mainly Clear"
"-122.60","58.84","FORT NELSON A","1192946","2021-05-28 08:00","2021","05","28","08:00","13.6","","2.8","","48","","","M","14","","5","","48.3","","96.08","","","","","","NA"
"-122.60","58.84","FORT NELSON A","1192946","2021-05-28 09:00","2021","05","28","09:00","16.3","","3.0","","41","","","M","14","","10","","48.3","","96.08","","","","","","NA"
"-122.60","58.84","FORT NELSON A","1192946","2021-05-28 10:00","2021","05","28","10:00","17.1","","0.6","","33","","","M","1","","9","","48.3","","96.07","","","","","","Mainly Clear"
"-122.60","58.84","FORT NELSON A","1192946","2021-05-28 11:00","2021","05","28","11:00","19.1","","-5.2","","19","","","M","22","","19","","48.3","","96.07","","","","","","NA"
"-122.60","58.84","FORT NELSON A","1192946","2021-05-28 12:00","2021","05","28","12:00","20.4","","-4.5","","18","","","M","22","","21","","48.3","","96.04","","","","","","NA"
"-122.60","58.84","FORT NELSON A","1192946","2021-05-28 13:00","2021","05","28","13:00","20.0","","-4.9","","18","","","M","23","","17","","48.3","","96.06","","","","","","Mostly Cloudy"
"-122.60","58.84","FORT NELSON A","1192946","2021-05-28 14:00","2021","05","28","14:00","20.5","","-3.8","","19","","","M","29","","12","","48.3","","96.09","","","","","","NA"
"-122.60","58.84","FORT NELSON A","1192946","2021-05-28 15:00","2021","05","28","15:00","21.3","","-4.3","","17","","","M","23","","4","","48.3","","96.10","","","","","","NA"
"-122.60","58.84","FORT NELSON A","1192946","2021-05-28 16:00","2021","05","28","16:00","20.3","","-3.5","","20","","","M","33","","5","","48.3","","96.12","","","","","","Cloudy"
"-122.60","58.84","FORT NELSON A","1192946","2021-05-28 17:00","2021","05","28","17:00","20.4","","-3.5","","20","","","M","29","","11","","48.3","","96.17","","","","","","NA"
"-122.60","58.84","FORT NELSON A","1192946","2021-05-28 18:00","2021","05","28","18:00","19.3","","-2.4","","23","","","M","27","","16","","48.3","","96.24","","","","","","NA"
"-122.60","58.84","FORT NELSON A","1192946","2021-05-28 19:00","2021","05","28","19:00","18.5","","-1.3","","26","","","M","31","","11","","48.3","","96.29","","","","","","Mostly Cloudy"
"-122.60","58.84","FORT NELSON A","1192946","2021-05-28 20:00","2021","05","28","20:00","17.1","","0.6","","33","","","M","31","","14","","48.3","","96.41","","","","","","NA"
"-122.60","58.84","FORT NELSON A","1192946","2021-05-28 21:00","2021","05","28","21:00","14.6","","0.7","","39","","","M","32","","7","","48.3","","96.51","","","","","","NA"
"-122.60","58.84","FORT NELSON A","1192946","2021-05-28 22:00","2021","05","28","22:00","12.9","","0.8","","43","","","M","34","","8","","48.3","","96.56","","","","","","Mostly Cloudy"
"-122.60","58.84","FORT NELSON A","1192946","2021-05-28 23:00","2021","05","28","23:00","10.2","","1.9","","56","","","M","31","","4","","24.1","","96.60","","","","","","NA"
"-122.60","58.84","FORT NELSON A","1192946","2021-05-29 00:00","2021","05","29","00:00","6.7","","1.5","","69","","","M","22","","7","","24.1","","96.63","","","","","","NA"
"-122.60","58.84","FORT NELSON A","1192946","2021-05-29 01:00","2021","05","29","01:00","6.0","","1.6","","74","","","M","24","","7","","24.1","","96.66","","","","","","Mainly Clear"
"-122.60","58.84","FORT NELSON A","1192946","2021-05-29 02:00","2021","05","29","02:00","7.4","","2.6","","72","","","M","36","","2","","24.1","","96.73","","","","","","NA"
"-122.60","58.84","FORT NELSON A","1192946","2021-05-29 03:00","2021","05","29","03:00","7.6","","2.1","","68","","","M","23","","3","","48.3","","96.79","","","","","","NA"
"-122.60","58.84","FORT NELSON A","1192946","2021-05-29 04:00","2021","05","29","04:00","7.5","","3.3","","74","","","M","24","","8","","48.3","","96.84","","","","","","Mostly Cloudy"
"-122.60","58.84","FORT NELSON A","1192946","2021-05-29 05:00","2021","05","29","05:00","8.1","","4.4","","77","","","M","23","","7","","48.3","","96.87","","","","","","NA"
"-122.60","58.84","FORT NELSON A","1192946","2021-05-29 06:00","2021","05","29","06:00","10.0","","3.9","","66","","","M","18","","4","","48.3","","96.90","","","","","","NA"
"-122.60","58.84","FORT NELSON A","1192946","2021-05-29 07:00","2021","05","29","07:00","14.0","","-0.5","","37","","","M","29","","12","","48.3","","96.90","","","","","","Mainly Clear"
"-122.60","58.84","FORT NELSON A","1192946","2021-05-29 08:00","2021","05","29","08:00","15.3","","-1.5","","31","","","M","29","","19","","48.3","","96.91","","","","","","NA"
"-122.60","58.84","FORT NELSON A","1192946","2021-05-29 09:00","2021","05","29","09:00","16.6","","-1.2","","30","","","M","33","","12","","48.3","","96.89","","","","","","NA"
"-122.60","58.84","FORT NELSON A","1192946","2021-05-29 10:00","2021","05","29","10:00","17.4","","-1.0","","28","","","M","21","","16","","48.3","","96.86","","","","","","Mostly Cloudy"
"-122.60","58.84","FORT NELSON A","1192946","2021-05-29 11:00","2021","05","29","11:00","17.8","","-0.6","","28","","","M","21","","13","","48.3","","96.83","","","","","","NA"
"-122.60","58.84","FORT NELSON A","1192946","2021-05-29 12:00","2021","05","29","12:00","18.7","","-1.3","","26","","","M","20","","17","","48.3","","96.80","","","","","","NA"
"-122.60","58.84","FORT NELSON A","1192946","2021-05-29 13:00","2021","05","29","13:00","19.4","","0.1","","27","","","M","25","","12","","48.3","","96.78","","","","","","Mostly Cloudy"
"-122.60","58.84","FORT NELSON A","1192946","2021-05-29 14:00","2021","05","29","14:00","19.9","","-1.4","","24","","","M","27","","12","","","M","96.76","","","","","","NA"
"-122.60","58.84","FORT NELSON A","1192946","2021-05-29 15:00","2021","05","29","15:00","20.0","","-0.4","","25","","","M","26","","15","","","M","96.75","","","","","","NA"
"-122.60","58.84","FORT NELSON A","1192946","2021-05-29 16:00","2021","05","29","16:00","20.5","","-1.3","","23","","","M","25","","17","","48.3","","96.72","","","","","","Mostly Cloudy"
"-122.60","58.84","FORT NELSON A","1192946","2021-05-29 17:00","2021","05","29","17:00","20.8","","-1.7","","22","","","M","29","","19","","48.3","","96.70","","","","","","NA"
"-122.60","58.84","FORT NELSON A","1192946","2021-05-29 18:00","2021","05","29","18:00","20.1","","-1.1","","24","","","M","34","","12","","48.3","","96.70","","","","","","NA"
"-122.60","58.84","FORT NELSON A","1192946","2021-05-29 19:00","2021","05","29","19:00","19.9","","-1.2","","24","","","M","31","","11","","48.3","","96.71","","","","","","Cloudy"
"-122.60","58.84","FORT NELSON A","1192946","2021-05-29 20:00","2021","05","29","20:00","17.7","","-0.4","","29","","","M","33","","13","","48.3","","96.75","","","","","","NA"
"-122.60","58.84","FORT NELSON A","1192946","2021-05-29 21:00","2021","05","29","21:00","15.3","","-0.2","","35","","","M","31","","7","","48.3","","96.80","","","","","","NA"
"-122.60","58.84","FORT NELSON A","1192946","2021-05-29 22:00","2021","05","29","22:00","11.7","","1.8","","51","","","M","31","","7","","48.3","","96.83","","","","","","Mainly Clear"
"-122.60","58.84","FORT NELSON A","1192946","2021-05-29 23:00","2021","05","29","23:00","8.9","","2.0","","62","","","M","26","","6","","24.1","","96.86","","","","","","NA"
"-122.60","58.84","FORT NELSON A","1192946","2021-05-30 00:00","2021","05","30","00:00","9.3","","1.2","","57","","","M","36","","2","","24.1","","96.88","","","","","","NA"
"-122.60","58.84","FORT NELSON A","1192946","2021-05-30 01:00","2021","05","30","01:00","6.2","","1.7","","73","","","M","25","","3","","24.1","","96.89","","","","","","Mainly Clear"
"-122.60","58.84","FORT NELSON A","1192946","2021-05-30 02:00","2021","05","30","02:00","5.6","","1.4","","74","","","M","27","","3","","24.1","","96.89","","","","","","NA"
"-122.60","58.84","FORT NELSON A","1192946","2021-05-30 03:00","2021","05","30","03:00","5.0","","1.2","","76","","","M","36","","1","","48.3","","96.88","","","","","","NA"
"-122.60","58.84","FORT NELSON A","1192946","2021-05-30 04:00","2021","05","30","04:00","5.2","","1.6","","77","","","M","36","","1","","48.3","","96.86","","","","","","Mostly Cloudy"
"-122.60","58.84","FORT NELSON A","1192946","2021-05-30 05:00","2021","05","30","05:00","6.3","","2.6","","77","","","M","19","","6","","","M","96.86","","","","","","NA"
"-122.60","58.84","FORT NELSON A","1192946","2021-05-30 06:00","2021","05","30","06:00","8.7","","2.6","","65","","","M","18","","8","","48.3","","96.84","","","","","","NA"
"-122.60","58.84","FORT NELSON A","1192946","2021-05-30 07:00","2021","05","30","07:00","10.8","","3.0","","58","","","M","15","","5","","48.3","","96.81","","","","","","Mostly Cloudy"
"-122.60","58.84","FORT NELSON A","1192946","2021-05-30 08:00","2021","05","30","08:00","13.4","","3.0","","49","","","M","16","","7","","48.3","","96.77","","","","","","NA"
"-122.60","58.84","FORT NELSON A","1192946","2021-05-30 09:00","2021","05","30","09:00","15.6","","2.0","","40","","","M","16","","7","","48.3","","96.72","","","","","","NA"
"-122.60","58.84","FORT NELSON A","1192946","2021-05-30 10:00","2021","05","30","10:00","17.1","","0.3","","32","","","M","16","","4","","48.3","","96.66","","","","","","Mostly Cloudy"
"-122.60","58.84","FORT NELSON A","1192946","2021-05-30 11:00","2021","05","30","11:00","17.8","","-0.9","","28","","","M","9","","6","","48.3","","96.61","","","","","","NA"
"-122.60","58.84","FORT NELSON A","1192946","2021-05-30 12:00","2021","05","30","12:00","19.2","","0.1","","27","","","M","8","","8","","48.3","","96.57","","","","","","NA"
"-122.60","58.84","FORT NELSON A","1192946","2021-05-30 13:00","2021","05","30","13:00","19.8","","0.2","","27","","","M","4","","4","","48.3","","96.54","","","","","","Mostly Cloudy"
"-122.60","58.84","FORT NELSON A","1192946","2021-05-30 14:00","2021","05","30","14:00","19.1","","-0.2","","27","","","M","9","","4","","48.3","","96.52","","","","","","NA"
"-122.60","58.84","FORT NELSON A","1192946","2021-05-30 15:00","2021","05","30","15:00","20.1","","0.9","","27","","","M","23","","5","","48.3","","96.50","","","","","","NA"
"-122.60","58.84","FORT NELSON A","1192946","2021-05-30 16:00","2021","05","30","16:00","20.1","","0.9","","28","","","M","30","","8","","48.3","","96.48","","","","","","Mostly Cloudy"
"-122.60","58.84","FORT NELSON A","1192946","2021-05-30 17:00","2021","05","30","17:00","20.1","","0.8","","27","","","M","3","","4","","48.3","","96.47","","","","","","NA"
"-122.60","58.84","FORT NELSON A","1192946","2021-05-30 18:00","2021","05","30","18:00","20.6","","3.2","","32","","","M","12","","5","","48.3","","96.48","","","","","","NA"
"-122.60","58.84","FORT NELSON A","1192946","2021-05-30 19:00","2021","05","30","19:00","20.6","","2.2","","29","","","M","12","","3","","48.3","","96.50","","","","","","Mostly Cloudy"
"-122.60","58.84","FORT NELSON A","1192946","2021-05-30 20:00","2021","05","30","20:00","19.2","","2.8","","33","","","M","0","","1","","48.3","","96.51","","","","","","NA"
"-122.60","58.84","FORT NELSON A","1192946","2021-05-30 21:00","2021","05","30","21:00","16.5","","8.3","","58","","","M","27","","3","","48.3","","96.56","","","","","","NA"
"-122.60","58.84","FORT NELSON A","1192946","2021-05-30 22:00","2021","05","30","22:00","15.1","","7.8","","62","","","M","23","","8","","48.3","","96.59","","","","","","Mostly Cloudy"
"-122.60","58.84","FORT NELSON A","1192946","2021-05-30 23:00","2021","05","30","23:00","13.7","","7.6","","67","","","M","22","","7","","24.1","","96.65","","","","","","NA"
"-122.60","58.84","FORT NELSON A","1192946","2021-05-31 00:00","2021","05","31","00:00","12.3","","5.8","","64","","","M","21","","4","","24.1","","96.69","","","","","","NA"
"-122.60","58.84","FORT NELSON A","1192946","2021-05-31 01:00","2021","05","31","01:00","9.5","","6.1","","79","","","M","24","","6","","24.1","","96.74","","","","","","Mainly Clear"
"-122.60","58.84","FORT NELSON A","1192946","2021-05-31 02:00","2021","05","31","02:00","8.1","","5.6","","84","","","M","24","","4","","24.1","","96.76","","","","","","NA"
"-122.60","58.84","FORT NELSON A","1192946","2021-05-31 03:00","2021","05","31","03:00","7.9","","4.6","","80","","","M","18","","5","","48.3","","96.80","","","","","","NA"
"-122.60","58.84","FORT NELSON A","1192946","2021-05-31 04:00","2021","05","31","04:00","8.8","","5.3","","79","","","M","16","","6","","48.3","","96.82","","","","","","Mainly Clear"
"-122.60","58.84","FORT NELSON A","1192946","2021-05-31 05:00","2021","05","31","05:00","10.6","","4.7","","67","","","M","19","","11","","48.3","","96.83","","","","","","NA"
"-122.60","58.84","FORT NELSON A","1192946","2021-05-31 06:00","2021","05","31","06:00","11.9","","5.1","","63","","","M","17","","8","","48.3","","96.82","","","","","","NA"
"-122.60","58.84","FORT NELSON A","1192946","2021-05-31 07:00","2021","05","31","07:00","14.1","","5.4","","56","","","M","19","","7","","48.3","","96.84","","","","","","Mainly Clear"
"-122.60","58.84","FORT NELSON A","1192946","2021-05-31 08:00","2021","05","31","08:00","16.9","","5.4","","46","","","M","16","","9","","48.3","","96.85","","","","","","NA"
"-122.60","58.84","FORT NELSON A","1192946","2021-05-31 09:00","2021","05","31","09:00","19.2","","4.8","","38","","","M","16","","10","","48.3","","96.78","","","","","","NA"
"-122.60","58.84","FORT NELSON A","1192946","2021-05-31 10:00","2021","05","31","10:00","21.4","","4.7","","33","","","M","8","","8","","48.3","","96.74","","","","","","Mostly Cloudy"
"-122.60","58.84","FORT NELSON A","1192946","2021-05-31 11:00","2021","05","31","11:00","22.7","","3.6","","28","","","M","20","","9","","48.3","","96.67","","","","","","NA"
"-122.60","58.84","FORT NELSON A","1192946","2021-05-31 12:00","2021","05","31","12:00","23.3","","4.0","","28","","","M","25","","8","","48.3","","96.63","","","","","","NA"
"-122.60","58.84","FORT NELSON A","1192946","2021-05-31 13:00","2021","05","31","13:00","23.7","","4.1","","27","","","M","21","","4","","48.3","","96.59","","","","","","Mostly Cloudy"
"-122.60","58.84","FORT NELSON A","1192946","2021-05-31 14:00","2021","05","31","14:00","25.3","","4.1","","25","","","M","20","","6","","48.3","","96.52","","","","","","NA"
"-122.60","58.84","FORT NELSON A","1192946","2021-05-31 15:00","2021","05","31","15:00","26.0","","3.3","","23","","","M","26","","7","","48.3","","96.46","","25","","","","NA"
"-122.60","58.84","FORT NELSON A","1192946","2021-05-31 16:00","2021","05","31","16:00","25.7","","4.0","","24","","","M","22","","7","","48.3","","96.42","","25","","","","Clear"
"-122.60","58.84","FORT NELSON A","1192946","2021-05-31 17:00","2021","05","31","17:00","26.1","","4.0","","24","","","M","23","","20","","48.3","","96.39","","25","","","","NA"
"-122.60","58.84","FORT NELSON A","1192946","2021-05-31 18:00","2021","05","31","18:00","24.6","","5.0","","28","","","M","19","","14","","48.3","","96.34","","","","","","NA"
"-122.60","58.84","FORT NELSON A","1192946","2021-05-31 19:00","2021","05","31","19:00","23.2","","5.4","","31","","","M","22","","23","","48.3","","96.34","","","","","","Cloudy"
"-122.60","58.84","FORT NELSON A","1192946","2021-05-31 20:00","2021","05","31","20:00","21.6","","5.5","","34","","","M","20","","13","","48.3","","96.34","","","","","","NA"
"-122.60","58.84","FORT NELSON A","1192946","2021-05-31 21:00","2021","05","31","21:00","20.3","","6.0","","39","","","M","18","","9","","48.3","","96.34","","","","","","NA"
"-122.60","58.84","FORT NELSON A","1192946","2021-05-31 22:00","2021","05","31","22:00","17.9","","7.4","","50","","","M","20","","9","","32.2","","96.35","","","","","","Cloudy"
"-122.60","58.84","FORT NELSON A","1192946","2021-05-31 23:00","2021","05","31","23:00","17.2","","7.5","","52","","","M","19","","4","","24.1","","96.37","","","","","","NA"
