"Longitude (x)","Latitude (y)","Station Name","Climate ID","Date/Time (LST)","Year","Month","Day","Time (LST)","Temp (°C)","Temp Flag","Dew Point Temp (°C)","Dew Point Temp Flag","Rel Hum (%)","Rel Hum Flag","Precip. Amount (mm)","Precip. Amount Flag","Wind Dir (10s deg)","Wind Dir Flag","Wind Spd (km/h)","Wind Spd Flag","Visibility (km)","Visibility Flag","Stn Press (kPa)","Stn Press Flag","Hmdx","Hmdx Flag","Wind Chill","Wind Chill Flag","Weather"
"-100.27","70.63","GATESHEAD ISLAND","2402332","2021-11-01 00:00","2021","11","01","00:00","-10.4","","-11.3","","93","","0.0","","36","","6","","","","101.89","","","","-14","","NA"
"-100.27","70.63","GATESHEAD ISLAND","2402332","2021-11-01 01:00","2021","11","01","01:00","-10.5","","-11.4","","93","","0.0","","36","","4","","","","101.90","","","","-13","","NA"
"-100.27","70.63","GATESHEAD ISLAND","2402332","2021-11-01 02:00","2021","11","01","02:00","-10.1","","-11.0","","93","","0.0","","36","","8","","","","101.93","","","","-15","","NA"
"-100.27","70.63","GATESHEAD ISLAND","2402332","2021-11-01 03:00","2021","11","01","03:00","-10.9","","-11.9","","93","","0.0","","36","","7","","","","101.96","","","","-15","","NA"
"-100.27","70.63","GATESHEAD ISLAND","2402332","2021-11-01 04:00","2021","11","01","04:00","-11.3","","-12.3","","93","","0.0","","36","","6","","","","101.96","","","","-15","","NA"
"-100.27","70.63","GATESHEAD ISLAND","2402332","2021-11-01 05:00","2021","11","01","05:00","-11.2","","-12.2","","92","","0.0","","36","","8","","","","101.97","","","","-16","","NA"
"-100.27","70.63","GATESHEAD ISLAND","2402332","2021-11-01 06:00","2021","11","01","06:00","-11.1","","-12.1","","93","","0.0","","36","","5","","","","101.90","","","","-14","","NA"
"-100.27","70.63","GATESHEAD ISLAND","2402332","2021-11-01 07:00","2021","11","01","07:00","-11.2","","-12.2","","93","","0.0","","36","","4","","","","101.90","","","","-14","","NA"
"-100.27","70.63","GATESHEAD ISLAND","2402332","2021-11-01 08:00","2021","11","01","08:00","-11.0","","-12.0","","93","","0.0","","36","","3","","","","101.92","","","","-13","","NA"
"-100.27","70.63","GATESHEAD ISLAND","2402332","2021-11-01 09:00","2021","11","01","09:00","-11.2","","-12.2","","92","","0.0","","36","","2","","","","101.93","","","","-12","","NA"
"-100.27","70.63","GATESHEAD ISLAND","2402332","2021-11-01 10:00","2021","11","01","10:00","-10.3","","-11.1","","93","","0.0","","36","","1","","","","101.91","","","","-11","","NA"
"-100.27","70.63","GATESHEAD ISLAND","2402332","2021-11-01 11:00","2021","11","01","11:00","-9.5","","-10.2","","94","","0.0","","","","0","","","","101.91","","","","","","NA"
"-100.27","70.63","GATESHEAD ISLAND","2402332","2021-11-01 12:00","2021","11","01","12:00","-9.5","","-10.4","","93","","0.0","","36","","3","","","","101.87","","","","-11","","NA"
"-100.27","70.63","GATESHEAD ISLAND","2402332","2021-11-01 13:00","2021","11","01","13:00","-9.5","","-10.4","","93","","0.0","","36","","5","","","","101.87","","","","-12","","NA"
"-100.27","70.63","GATESHEAD ISLAND","2402332","2021-11-01 14:00","2021","11","01","14:00","-9.4","","-10.3","","94","","0.0","","36","","5","","","","101.84","","","","-12","","NA"
"-100.27","70.63","GATESHEAD ISLAND","2402332","2021-11-01 15:00","2021","11","01","15:00","-8.4","","-9.2","","94","","0.0","","36","","5","","","","101.81","","","","-11","","NA"
"-100.27","70.63","GATESHEAD ISLAND","2402332","2021-11-01 16:00","2021","11","01","16:00","-8.0","","-8.7","","94","","0.0","","36","","6","","","","101.78","","","","-11","","NA"
"-100.27","70.63","GATESHEAD ISLAND","2402332","2021-11-01 17:00","2021","11","01","17:00","-7.5","","-8.2","","95","","0.0","","36","","4","","","","101.77","","","","-10","","NA"
"-100.27","70.63","GATESHEAD ISLAND","2402332","2021-11-01 18:00","2021","11","01","18:00","-7.5","","-8.2","","95","","0.0","","28","","7","","","","101.70","","","","-11","","NA"
"-100.27","70.63","GATESHEAD ISLAND","2402332","2021-11-01 19:00","2021","11","01","19:00","-7.9","","-8.6","","94","","0.0","","28","","3","","","","101.68","","","","-9","","NA"
"-100.27","70.63","GATESHEAD ISLAND","2402332","2021-11-01 20:00","2021","11","01","20:00","-8.1","","-8.8","","94","","0.0","","28","","7","","","","101.62","","","","-12","","NA"
"-100.27","70.63","GATESHEAD ISLAND","2402332","2021-11-01 21:00","2021","11","01","21:00","-8.1","","-8.8","","94","","0.0","","28","","4","","","","101.58","","","","-10","","NA"
"-100.27","70.63","GATESHEAD ISLAND","2402332","2021-11-01 22:00","2021","11","01","22:00","-7.7","","-8.4","","95","","0.0","","28","","8","","","","101.53","","","","-12","","NA"
"-100.27","70.63","GATESHEAD ISLAND","2402332","2021-11-01 23:00","2021","11","01","23:00","-8.1","","-8.9","","94","","0.0","","28","","7","","","","101.50","","","","-12","","NA"
"-100.27","70.63","GATESHEAD ISLAND","2402332","2021-11-02 00:00","2021","11","02","00:00","-8.0","","-8.7","","94","","0.0","","24","","14","","","","101.45","","","","-14","","NA"
"-100.27","70.63","GATESHEAD ISLAND","2402332","2021-11-02 01:00","2021","11","02","01:00","-7.7","","-8.4","","95","","0.0","","24","","14","","","","101.44","","","","-14","","NA"
"-100.27","70.63","GATESHEAD ISLAND","2402332","2021-11-02 02:00","2021","11","02","02:00","-8.2","","-9.0","","94","","0.0","","24","","12","","","","101.43","","","","-14","","NA"
"-100.27","70.63","GATESHEAD ISLAND","2402332","2021-11-02 03:00","2021","11","02","03:00","-7.6","","-8.3","","95","","0.0","","25","","11","","","","101.40","","","","-13","","NA"
"-100.27","70.63","GATESHEAD ISLAND","2402332","2021-11-02 04:00","2021","11","02","04:00","-8.0","","-8.8","","94","","0.0","","24","","10","","","","101.37","","","","-13","","NA"
"-100.27","70.63","GATESHEAD ISLAND","2402332","2021-11-02 05:00","2021","11","02","05:00","-8.2","","-8.9","","94","","0.0","","24","","11","","","","101.31","","","","-13","","NA"
"-100.27","70.63","GATESHEAD ISLAND","2402332","2021-11-02 06:00","2021","11","02","06:00","-7.8","","-8.5","","95","","0.0","","25","","12","","","","101.25","","","","-13","","NA"
"-100.27","70.63","GATESHEAD ISLAND","2402332","2021-11-02 07:00","2021","11","02","07:00","-7.8","","-8.5","","95","","0.0","","24","","10","","","","101.22","","","","-13","","NA"
"-100.27","70.63","GATESHEAD ISLAND","2402332","2021-11-02 08:00","2021","11","02","08:00","-8.0","","-8.7","","95","","0.0","","24","","9","","","","101.23","","","","-13","","NA"
"-100.27","70.63","GATESHEAD ISLAND","2402332","2021-11-02 09:00","2021","11","02","09:00","-7.8","","-8.6","","95","","0.0","","23","","7","","","","101.20","","","","-11","","NA"
"-100.27","70.63","GATESHEAD ISLAND","2402332","2021-11-02 10:00","2021","11","02","10:00","-8.2","","-9.0","","94","","0.0","","24","","8","","","","101.17","","","","-12","","NA"
"-100.27","70.63","GATESHEAD ISLAND","2402332","2021-11-02 11:00","2021","11","02","11:00","-7.8","","-8.5","","95","","0.0","","23","","8","","","","101.14","","","","-12","","NA"
"-100.27","70.63","GATESHEAD ISLAND","2402332","2021-11-02 12:00","2021","11","02","12:00","-7.6","","-8.3","","95","","0.0","","24","","8","","","","101.11","","","","-12","","NA"
"-100.27","70.63","GATESHEAD ISLAND","2402332","2021-11-02 13:00","2021","11","02","13:00","-7.5","","-8.2","","95","","0.0","","25","","9","","","","101.07","","","","-12","","NA"
"-100.27","70.63","GATESHEAD ISLAND","2402332","2021-11-02 14:00","2021","11","02","14:00","-7.6","","-8.3","","95","","0.0","","25","","9","","","","101.08","","","","-12","","NA"
"-100.27","70.63","GATESHEAD ISLAND","2402332","2021-11-02 15:00","2021","11","02","15:00","-7.9","","-8.6","","95","","0.0","","25","","9","","","","101.08","","","","-12","","NA"
"-100.27","70.63","GATESHEAD ISLAND","2402332","2021-11-02 16:00","2021","11","02","16:00","-8.2","","-8.9","","94","","0.0","","24","","6","","","","101.08","","","","-11","","NA"
"-100.27","70.63","GATESHEAD ISLAND","2402332","2021-11-02 17:00","2021","11","02","17:00","-7.7","","-8.4","","95","","0.0","","24","","9","","","","101.02","","","","-12","","NA"
"-100.27","70.63","GATESHEAD ISLAND","2402332","2021-11-02 18:00","2021","11","02","18:00","-7.7","","-8.4","","95","","0.0","","23","","8","","","","101.00","","","","-12","","NA"
"-100.27","70.63","GATESHEAD ISLAND","2402332","2021-11-02 19:00","2021","11","02","19:00","-7.5","","-8.2","","95","","0.0","","24","","7","","","","100.98","","","","-11","","NA"
"-100.27","70.63","GATESHEAD ISLAND","2402332","2021-11-02 20:00","2021","11","02","20:00","-7.4","","-8.0","","95","","0.0","","23","","8","","","","100.91","","","","-11","","NA"
"-100.27","70.63","GATESHEAD ISLAND","2402332","2021-11-02 21:00","2021","11","02","21:00","-7.3","","-8.0","","95","","0.0","","24","","7","","","","100.93","","","","-11","","NA"
"-100.27","70.63","GATESHEAD ISLAND","2402332","2021-11-02 22:00","2021","11","02","22:00","-7.4","","-8.1","","95","","0.0","","25","","7","","","","100.94","","","","-11","","NA"
"-100.27","70.63","GATESHEAD ISLAND","2402332","2021-11-02 23:00","2021","11","02","23:00","-7.5","","-8.2","","95","","0.0","","24","","5","","","","100.96","","","","-10","","NA"
"-100.27","70.63","GATESHEAD ISLAND","2402332","2021-11-03 00:00","2021","11","03","00:00","-8.2","","-8.9","","94","","0.0","","24","","5","","","","100.96","","","","-11","","NA"
"-100.27","70.63","GATESHEAD ISLAND","2402332","2021-11-03 01:00","2021","11","03","01:00","-8.3","","-9.0","","94","","0.0","","26","","5","","","","100.98","","","","-11","","NA"
"-100.27","70.63","GATESHEAD ISLAND","2402332","2021-11-03 02:00","2021","11","03","02:00","-8.2","","-8.9","","95","","0.0","","26","","7","","","","100.98","","","","-12","","NA"
"-100.27","70.63","GATESHEAD ISLAND","2402332","2021-11-03 03:00","2021","11","03","03:00","-8.5","","-9.3","","94","","0.0","","25","","5","","","","100.99","","","","-11","","NA"
"-100.27","70.63","GATESHEAD ISLAND","2402332","2021-11-03 04:00","2021","11","03","04:00","-8.8","","-9.5","","94","","0.0","","25","","5","","","","101.01","","","","-12","","NA"
"-100.27","70.63","GATESHEAD ISLAND","2402332","2021-11-03 05:00","2021","11","03","05:00","-8.6","","-9.4","","94","","0.0","","27","","7","","","","101.01","","","","-12","","NA"
"-100.27","70.63","GATESHEAD ISLAND","2402332","2021-11-03 06:00","2021","11","03","06:00","-8.8","","-9.6","","94","","0.0","","26","","6","","","","101.00","","","","-12","","NA"
"-100.27","70.63","GATESHEAD ISLAND","2402332","2021-11-03 07:00","2021","11","03","07:00","-9.0","","-9.7","","94","","0.0","","25","","5","","","","101.02","","","","-12","","NA"
"-100.27","70.63","GATESHEAD ISLAND","2402332","2021-11-03 08:00","2021","11","03","08:00","-9.2","","-10.0","","94","","0.0","","26","","4","","","","101.05","","","","-11","","NA"
"-100.27","70.63","GATESHEAD ISLAND","2402332","2021-11-03 09:00","2021","11","03","09:00","-9.3","","-10.1","","94","","0.0","","26","","6","","","","101.03","","","","-13","","NA"
"-100.27","70.63","GATESHEAD ISLAND","2402332","2021-11-03 10:00","2021","11","03","10:00","-9.1","","-10.0","","93","","0.0","","26","","5","","","","101.03","","","","-12","","NA"
"-100.27","70.63","GATESHEAD ISLAND","2402332","2021-11-03 11:00","2021","11","03","11:00","-9.6","","-10.5","","93","","0.0","","27","","7","","","","101.04","","","","-14","","NA"
"-100.27","70.63","GATESHEAD ISLAND","2402332","2021-11-03 12:00","2021","11","03","12:00","-9.8","","-10.7","","93","","0.0","","26","","6","","","","101.04","","","","-13","","NA"
"-100.27","70.63","GATESHEAD ISLAND","2402332","2021-11-03 13:00","2021","11","03","13:00","-9.8","","-10.7","","93","","0.0","","26","","5","","","","101.03","","","","-13","","NA"
"-100.27","70.63","GATESHEAD ISLAND","2402332","2021-11-03 14:00","2021","11","03","14:00","-9.4","","-10.3","","93","","0.0","","27","","5","","","","101.01","","","","-12","","NA"
"-100.27","70.63","GATESHEAD ISLAND","2402332","2021-11-03 15:00","2021","11","03","15:00","-9.7","","-10.5","","94","","","M","27","","6","","","","","M","","","-13","","NA"
"-100.27","70.63","GATESHEAD ISLAND","2402332","2021-11-03 16:00","2021","11","03","16:00","-9.7","","-10.6","","94","","0.0","","26","","6","","","","100.98","","","","-13","","NA"
"-100.27","70.63","GATESHEAD ISLAND","2402332","2021-11-03 17:00","2021","11","03","17:00","-9.9","","-10.7","","93","","0.0","","26","","7","","","","100.96","","","","-14","","NA"
"-100.27","70.63","GATESHEAD ISLAND","2402332","2021-11-03 18:00","2021","11","03","18:00","-9.9","","-10.7","","93","","0.0","","26","","8","","","","100.92","","","","-14","","NA"
"-100.27","70.63","GATESHEAD ISLAND","2402332","2021-11-03 19:00","2021","11","03","19:00","-10.1","","-11.0","","93","","0.0","","26","","7","","","","100.87","","","","-14","","NA"
"-100.27","70.63","GATESHEAD ISLAND","2402332","2021-11-03 20:00","2021","11","03","20:00","-9.9","","-10.8","","93","","0.0","","26","","9","","","","100.81","","","","-15","","NA"
"-100.27","70.63","GATESHEAD ISLAND","2402332","2021-11-03 21:00","2021","11","03","21:00","-9.9","","-10.8","","93","","0.0","","26","","9","","","","100.75","","","","-15","","NA"
"-100.27","70.63","GATESHEAD ISLAND","2402332","2021-11-03 22:00","2021","11","03","22:00","-9.7","","-10.5","","93","","0.0","","25","","10","","","","100.72","","","","-15","","NA"
"-100.27","70.63","GATESHEAD ISLAND","2402332","2021-11-03 23:00","2021","11","03","23:00","-9.5","","-10.4","","94","","0.0","","26","","10","","","","100.67","","","","-15","","NA"
"-100.27","70.63","GATESHEAD ISLAND","2402332","2021-11-04 00:00","2021","11","04","00:00","-9.5","","-10.3","","94","","0.0","","25","","10","","","","100.63","","","","-15","","NA"
"-100.27","70.63","GATESHEAD ISLAND","2402332","2021-11-04 01:00","2021","11","04","01:00","-9.4","","-10.3","","94","","0.0","","25","","11","","","","100.59","","","","-15","","NA"
"-100.27","70.63","GATESHEAD ISLAND","2402332","2021-11-04 02:00","2021","11","04","02:00","-9.3","","-10.2","","94","","0.0","","25","","11","","","","100.53","","","","-15","","NA"
"-100.27","70.63","GATESHEAD ISLAND","2402332","2021-11-04 03:00","2021","11","04","03:00","-9.3","","-10.1","","94","","0.0","","25","","11","","","","100.45","","","","-15","","NA"
"-100.27","70.63","GATESHEAD ISLAND","2402332","2021-11-04 04:00","2021","11","04","04:00","-8.9","","-9.7","","94","","0.0","","24","","14","","","","100.38","","","","-15","","NA"
"-100.27","70.63","GATESHEAD ISLAND","2402332","2021-11-04 05:00","2021","11","04","05:00","-8.5","","-9.3","","94","","0.0","","23","","15","","","","100.35","","","","-15","","NA"
"-100.27","70.63","GATESHEAD ISLAND","2402332","2021-11-04 06:00","2021","11","04","06:00","-9.1","","-9.9","","94","","0.0","","23","","17","","","","100.29","","","","-16","","NA"
"-100.27","70.63","GATESHEAD ISLAND","2402332","2021-11-04 07:00","2021","11","04","07:00","-9.6","","-10.5","","93","","0.0","","22","","20","","","","100.25","","","","-17","","NA"
"-100.27","70.63","GATESHEAD ISLAND","2402332","2021-11-04 08:00","2021","11","04","08:00","-8.8","","-9.6","","94","","0.0","","22","","23","","","","100.21","","","","-17","","NA"
"-100.27","70.63","GATESHEAD ISLAND","2402332","2021-11-04 09:00","2021","11","04","09:00","-8.5","","-9.3","","94","","0.0","","22","","24","","","","100.17","","","","-17","","NA"
"-100.27","70.63","GATESHEAD ISLAND","2402332","2021-11-04 10:00","2021","11","04","10:00","-9.0","","-9.9","","94","","0.0","","22","","22","","","","100.10","","","","-17","","NA"
"-100.27","70.63","GATESHEAD ISLAND","2402332","2021-11-04 11:00","2021","11","04","11:00","-9.0","","-9.8","","94","","0.0","","22","","23","","","","100.06","","","","-17","","NA"
"-100.27","70.63","GATESHEAD ISLAND","2402332","2021-11-04 12:00","2021","11","04","12:00","-8.3","","-9.1","","94","","0.0","","21","","22","","","","100.04","","","","-16","","NA"
"-100.27","70.63","GATESHEAD ISLAND","2402332","2021-11-04 13:00","2021","11","04","13:00","-8.2","","-8.9","","94","","0.0","","21","","23","","","","100.03","","","","-16","","NA"
"-100.27","70.63","GATESHEAD ISLAND","2402332","2021-11-04 14:00","2021","11","04","14:00","-8.0","","-8.8","","94","","0.0","","21","","23","","","","100.01","","","","-16","","NA"
"-100.27","70.63","GATESHEAD ISLAND","2402332","2021-11-04 15:00","2021","11","04","15:00","-8.1","","-8.8","","94","","0.0","","21","","28","","","","99.91","","","","-17","","NA"
"-100.27","70.63","GATESHEAD ISLAND","2402332","2021-11-04 16:00","2021","11","04","16:00","-8.0","","-8.8","","94","","0.0","","21","","30","","","","99.89","","","","-17","","NA"
"-100.27","70.63","GATESHEAD ISLAND","2402332","2021-11-04 17:00","2021","11","04","17:00","-8.3","","-9.0","","94","","0.0","","21","","29","","","","99.85","","","","-17","","NA"
"-100.27","70.63","GATESHEAD ISLAND","2402332","2021-11-04 18:00","2021","11","04","18:00","-7.7","","-8.4","","95","","0.0","","21","","27","","","","99.84","","","","-16","","NA"
"-100.27","70.63","GATESHEAD ISLAND","2402332","2021-11-04 19:00","2021","11","04","19:00","-7.4","","-8.0","","95","","0.0","","21","","24","","","","99.81","","","","-15","","NA"
"-100.27","70.63","GATESHEAD ISLAND","2402332","2021-11-04 20:00","2021","11","04","20:00","-7.2","","-7.9","","95","","0.0","","21","","25","","","","99.79","","","","-15","","NA"
"-100.27","70.63","GATESHEAD ISLAND","2402332","2021-11-04 21:00","2021","11","04","21:00","-6.8","","-7.4","","95","","0.0","","21","","22","","","","99.77","","","","-14","","NA"
"-100.27","70.63","GATESHEAD ISLAND","2402332","2021-11-04 22:00","2021","11","04","22:00","-6.8","","-7.5","","95","","0.0","","21","","24","","","","99.77","","","","-14","","NA"
"-100.27","70.63","GATESHEAD ISLAND","2402332","2021-11-04 23:00","2021","11","04","23:00","-7.0","","-7.6","","95","","0.0","","22","","24","","","","99.76","","","","-15","","NA"
"-100.27","70.63","GATESHEAD ISLAND","2402332","2021-11-05 00:00","2021","11","05","00:00","-6.7","","-7.3","","95","","0.0","","22","","24","","","","99.74","","","","-14","","NA"
"-100.27","70.63","GATESHEAD ISLAND","2402332","2021-11-05 01:00","2021","11","05","01:00","-7.0","","-7.7","","95","","0.0","","23","","25","","","","99.71","","","","-15","","NA"
"-100.27","70.63","GATESHEAD ISLAND","2402332","2021-11-05 02:00","2021","11","05","02:00","-7.0","","-7.6","","95","","0.0","","22","","23","","","","99.73","","","","-15","","NA"
"-100.27","70.63","GATESHEAD ISLAND","2402332","2021-11-05 03:00","2021","11","05","03:00","-7.0","","-7.7","","95","","0.0","","22","","25","","","","99.73","","","","-15","","NA"
"-100.27","70.63","GATESHEAD ISLAND","2402332","2021-11-05 04:00","2021","11","05","04:00","-6.5","","-7.2","","95","","0.0","","22","","22","","","","99.75","","","","-14","","NA"
"-100.27","70.63","GATESHEAD ISLAND","2402332","2021-11-05 05:00","2021","11","05","05:00","-6.7","","-7.3","","95","","0.0","","22","","25","","","","99.75","","","","-15","","NA"
"-100.27","70.63","GATESHEAD ISLAND","2402332","2021-11-05 06:00","2021","11","05","06:00","-6.6","","-7.2","","95","","0.0","","22","","22","","","","99.76","","","","-14","","NA"
"-100.27","70.63","GATESHEAD ISLAND","2402332","2021-11-05 07:00","2021","11","05","07:00","-6.4","","-7.1","","95","","0.0","","22","","18","","","","99.78","","","","-13","","NA"
"-100.27","70.63","GATESHEAD ISLAND","2402332","2021-11-05 08:00","2021","11","05","08:00","-6.0","","-6.6","","96","","0.2","","22","","18","","","","99.78","","","","-12","","NA"
"-100.27","70.63","GATESHEAD ISLAND","2402332","2021-11-05 09:00","2021","11","05","09:00","-6.0","","-6.6","","96","","0.0","","22","","17","","","","99.78","","","","-12","","NA"
"-100.27","70.63","GATESHEAD ISLAND","2402332","2021-11-05 10:00","2021","11","05","10:00","-6.1","","-6.7","","96","","0.0","","22","","18","","","","99.80","","","","-13","","NA"
"-100.27","70.63","GATESHEAD ISLAND","2402332","2021-11-05 11:00","2021","11","05","11:00","-5.7","","-6.3","","96","","0.2","","22","","16","","","","99.82","","","","-12","","NA"
"-100.27","70.63","GATESHEAD ISLAND","2402332","2021-11-05 12:00","2021","11","05","12:00","-5.5","","-6.0","","96","","0.0","","22","","15","","","","99.84","","","","-11","","NA"
"-100.27","70.63","GATESHEAD ISLAND","2402332","2021-11-05 13:00","2021","11","05","13:00","-5.3","","-5.9","","96","","0.0","","23","","14","","","","99.85","","","","-11","","NA"
"-100.27","70.63","GATESHEAD ISLAND","2402332","2021-11-05 14:00","2021","11","05","14:00","-5.2","","-5.7","","96","","0.2","","23","","11","","","","99.87","","","","-10","","NA"
"-100.27","70.63","GATESHEAD ISLAND","2402332","2021-11-05 15:00","2021","11","05","15:00","-5.0","","-5.5","","96","","0.3","","23","","11","","","","99.88","","","","-10","","NA"
"-100.27","70.63","GATESHEAD ISLAND","2402332","2021-11-05 16:00","2021","11","05","16:00","-4.9","","-5.4","","96","","0.2","","23","","9","","","","99.90","","","","-9","","NA"
"-100.27","70.63","GATESHEAD ISLAND","2402332","2021-11-05 17:00","2021","11","05","17:00","-5.0","","-5.5","","96","","0.0","","23","","8","","","","99.92","","","","-9","","NA"
"-100.27","70.63","GATESHEAD ISLAND","2402332","2021-11-05 18:00","2021","11","05","18:00","-5.0","","-5.5","","96","","0.2","","23","","7","","","","99.94","","","","-8","","NA"
"-100.27","70.63","GATESHEAD ISLAND","2402332","2021-11-05 19:00","2021","11","05","19:00","-4.9","","-5.4","","96","","0.0","","23","","7","","","","99.96","","","","-8","","NA"
"-100.27","70.63","GATESHEAD ISLAND","2402332","2021-11-05 20:00","2021","11","05","20:00","-5.0","","-5.5","","96","","0.5","","24","","7","","","","99.97","","","","-8","","NA"
"-100.27","70.63","GATESHEAD ISLAND","2402332","2021-11-05 21:00","2021","11","05","21:00","-5.4","","-5.9","","96","","0.0","","23","","5","","","","99.99","","","","-8","","NA"
"-100.27","70.63","GATESHEAD ISLAND","2402332","2021-11-05 22:00","2021","11","05","22:00","-5.4","","-5.9","","96","","0.0","","23","","3","","","","100.02","","","","-7","","NA"
"-100.27","70.63","GATESHEAD ISLAND","2402332","2021-11-05 23:00","2021","11","05","23:00","-5.2","","-5.7","","96","","0.0","","24","","2","","","","100.04","","","","-6","","NA"
"-100.27","70.63","GATESHEAD ISLAND","2402332","2021-11-06 00:00","2021","11","06","00:00","-5.2","","-5.7","","96","","0.0","","26","","3","","","","100.06","","","","-7","","NA"
"-100.27","70.63","GATESHEAD ISLAND","2402332","2021-11-06 01:00","2021","11","06","01:00","-5.0","","-5.5","","96","","0.0","","26","","3","","","","100.10","","","","-6","","NA"
"-100.27","70.63","GATESHEAD ISLAND","2402332","2021-11-06 02:00","2021","11","06","02:00","-4.9","","-5.4","","96","","0.0","","26","","4","","","","100.11","","","","-7","","NA"
"-100.27","70.63","GATESHEAD ISLAND","2402332","2021-11-06 03:00","2021","11","06","03:00","-4.9","","-5.4","","96","","0.0","","26","","4","","","","100.14","","","","-7","","NA"
"-100.27","70.63","GATESHEAD ISLAND","2402332","2021-11-06 04:00","2021","11","06","04:00","-4.7","","-5.2","","96","","0.0","","26","","5","","","","100.15","","","","-7","","NA"
"-100.27","70.63","GATESHEAD ISLAND","2402332","2021-11-06 05:00","2021","11","06","05:00","-4.6","","-5.1","","97","","0.2","","24","","9","","","","100.16","","","","-8","","NA"
"-100.27","70.63","GATESHEAD ISLAND","2402332","2021-11-06 06:00","2021","11","06","06:00","-5.0","","-5.4","","96","","0.0","","24","","11","","","","100.19","","","","-10","","NA"
"-100.27","70.63","GATESHEAD ISLAND","2402332","2021-11-06 07:00","2021","11","06","07:00","-5.2","","-5.7","","96","","0.0","","25","","13","","","","100.21","","","","-10","","NA"
"-100.27","70.63","GATESHEAD ISLAND","2402332","2021-11-06 08:00","2021","11","06","08:00","-5.6","","-6.2","","96","","0.0","","25","","11","","","","100.24","","","","-10","","NA"
"-100.27","70.63","GATESHEAD ISLAND","2402332","2021-11-06 09:00","2021","11","06","09:00","-6.1","","-6.7","","96","","0.0","","25","","13","","","","100.27","","","","-11","","NA"
"-100.27","70.63","GATESHEAD ISLAND","2402332","2021-11-06 10:00","2021","11","06","10:00","-6.5","","-7.1","","96","","0.0","","25","","16","","","","100.29","","","","-13","","NA"
"-100.27","70.63","GATESHEAD ISLAND","2402332","2021-11-06 11:00","2021","11","06","11:00","-6.7","","-7.3","","95","","0.0","","25","","16","","","","100.33","","","","-13","","NA"
"-100.27","70.63","GATESHEAD ISLAND","2402332","2021-11-06 12:00","2021","11","06","12:00","-6.9","","-7.5","","95","","0.0","","25","","13","","","","100.36","","","","-12","","NA"
"-100.27","70.63","GATESHEAD ISLAND","2402332","2021-11-06 13:00","2021","11","06","13:00","-7.2","","-7.9","","95","","0.0","","25","","12","","","","100.39","","","","-13","","NA"
"-100.27","70.63","GATESHEAD ISLAND","2402332","2021-11-06 14:00","2021","11","06","14:00","-6.8","","-7.5","","95","","0.0","","25","","14","","","","100.42","","","","-13","","NA"
"-100.27","70.63","GATESHEAD ISLAND","2402332","2021-11-06 15:00","2021","11","06","15:00","-6.7","","-7.3","","95","","0.0","","25","","10","","","","100.43","","","","-11","","NA"
"-100.27","70.63","GATESHEAD ISLAND","2402332","2021-11-06 16:00","2021","11","06","16:00","-6.5","","-7.2","","95","","0.0","","25","","13","","","","100.44","","","","-12","","NA"
"-100.27","70.63","GATESHEAD ISLAND","2402332","2021-11-06 17:00","2021","11","06","17:00","-6.5","","-7.1","","95","","0.0","","25","","13","","","","100.46","","","","-12","","NA"
"-100.27","70.63","GATESHEAD ISLAND","2402332","2021-11-06 18:00","2021","11","06","18:00","-6.5","","-7.1","","95","","0.0","","25","","11","","","","100.46","","","","-11","","NA"
"-100.27","70.63","GATESHEAD ISLAND","2402332","2021-11-06 19:00","2021","11","06","19:00","-6.5","","-7.1","","95","","0.0","","25","","11","","","","100.46","","","","-11","","NA"
"-100.27","70.63","GATESHEAD ISLAND","2402332","2021-11-06 20:00","2021","11","06","20:00","-6.9","","-7.6","","95","","0.0","","26","","10","","","","100.46","","","","-12","","NA"
"-100.27","70.63","GATESHEAD ISLAND","2402332","2021-11-06 21:00","2021","11","06","21:00","-6.3","","-6.9","","96","","0.0","","25","","13","","","","100.45","","","","-12","","NA"
"-100.27","70.63","GATESHEAD ISLAND","2402332","2021-11-06 22:00","2021","11","06","22:00","-5.7","","-6.3","","96","","0.0","","25","","13","","","","100.44","","","","-11","","NA"
"-100.27","70.63","GATESHEAD ISLAND","2402332","2021-11-06 23:00","2021","11","06","23:00","-5.5","","-6.0","","96","","0.2","","26","","7","","","","100.46","","","","-9","","NA"
"-100.27","70.63","GATESHEAD ISLAND","2402332","2021-11-07 00:00","2021","11","07","00:00","-5.4","","-5.9","","96","","0.0","","25","","9","","","","100.49","","","","-9","","NA"
"-100.27","70.63","GATESHEAD ISLAND","2402332","2021-11-07 01:00","2021","11","07","01:00","-5.4","","-5.9","","96","","0.0","","24","","5","","","","100.51","","","","-8","","NA"
"-100.27","70.63","GATESHEAD ISLAND","2402332","2021-11-07 02:00","2021","11","07","02:00","-4.9","","-5.4","","96","","0.2","","25","","9","","","","100.52","","","","-9","","NA"
"-100.27","70.63","GATESHEAD ISLAND","2402332","2021-11-07 03:00","2021","11","07","03:00","-5.4","","-6.0","","96","","0.0","","23","","9","","","","100.53","","","","-9","","NA"
"-100.27","70.63","GATESHEAD ISLAND","2402332","2021-11-07 04:00","2021","11","07","04:00","-5.3","","-5.8","","96","","0.0","","22","","7","","","","100.56","","","","-9","","NA"
"-100.27","70.63","GATESHEAD ISLAND","2402332","2021-11-07 05:00","2021","11","07","05:00","-7.6","","-8.3","","95","","0.0","","21","","7","","","","100.61","","","","-11","","NA"
"-100.27","70.63","GATESHEAD ISLAND","2402332","2021-11-07 06:00","2021","11","07","06:00","-11.0","","-11.9","","93","","0.0","","21","","9","","","","100.65","","","","-16","","NA"
"-100.27","70.63","GATESHEAD ISLAND","2402332","2021-11-07 07:00","2021","11","07","07:00","-9.6","","-10.4","","94","","0.0","","21","","13","","","","100.69","","","","-16","","NA"
"-100.27","70.63","GATESHEAD ISLAND","2402332","2021-11-07 08:00","2021","11","07","08:00","-10.3","","-11.2","","93","","0.0","","22","","15","","","","100.73","","","","-17","","NA"
"-100.27","70.63","GATESHEAD ISLAND","2402332","2021-11-07 09:00","2021","11","07","09:00","-11.0","","-12.0","","93","","0.0","","21","","13","","","","100.77","","","","-17","","NA"
"-100.27","70.63","GATESHEAD ISLAND","2402332","2021-11-07 10:00","2021","11","07","10:00","-7.9","","-8.6","","95","","0.0","","21","","11","","","","100.82","","","","-13","","NA"
"-100.27","70.63","GATESHEAD ISLAND","2402332","2021-11-07 11:00","2021","11","07","11:00","-6.7","","-7.4","","95","","0.0","","21","","12","","","","100.86","","","","-12","","NA"
"-100.27","70.63","GATESHEAD ISLAND","2402332","2021-11-07 12:00","2021","11","07","12:00","-7.0","","-7.7","","95","","0.0","","21","","11","","","","100.91","","","","-12","","NA"
"-100.27","70.63","GATESHEAD ISLAND","2402332","2021-11-07 13:00","2021","11","07","13:00","-7.2","","-7.8","","95","","0.0","","21","","3","","","","100.93","","","","-9","","NA"
"-100.27","70.63","GATESHEAD ISLAND","2402332","2021-11-07 14:00","2021","11","07","14:00","-7.8","","-8.5","","95","","0.0","","22","","5","","","","100.99","","","","-10","","NA"
"-100.27","70.63","GATESHEAD ISLAND","2402332","2021-11-07 15:00","2021","11","07","15:00","-7.5","","-8.2","","95","","0.0","","21","","5","","","","101.01","","","","-10","","NA"
"-100.27","70.63","GATESHEAD ISLAND","2402332","2021-11-07 16:00","2021","11","07","16:00","-8.6","","-9.4","","94","","0.0","","22","","2","","","","101.04","","","","-10","","NA"
"-100.27","70.63","GATESHEAD ISLAND","2402332","2021-11-07 17:00","2021","11","07","17:00","-7.1","","-7.8","","95","","0.0","","23","","2","","","","101.07","","","","-8","","NA"
"-100.27","70.63","GATESHEAD ISLAND","2402332","2021-11-07 18:00","2021","11","07","18:00","-6.4","","-7.0","","95","","0.0","","21","","3","","","","101.10","","","","-8","","NA"
"-100.27","70.63","GATESHEAD ISLAND","2402332","2021-11-07 19:00","2021","11","07","19:00","-6.9","","-7.6","","95","","0.0","","22","","6","","","","101.12","","","","-10","","NA"
"-100.27","70.63","GATESHEAD ISLAND","2402332","2021-11-07 20:00","2021","11","07","20:00","-6.5","","-7.1","","95","","0.0","","23","","5","","","","101.15","","","","-9","","NA"
"-100.27","70.63","GATESHEAD ISLAND","2402332","2021-11-07 21:00","2021","11","07","21:00","-6.6","","-7.2","","95","","0.0","","22","","3","","","","101.17","","","","-8","","NA"
"-100.27","70.63","GATESHEAD ISLAND","2402332","2021-11-07 22:00","2021","11","07","22:00","-6.5","","-7.1","","95","","0.0","","0","","1","","","","101.18","","","","-7","","NA"
"-100.27","70.63","GATESHEAD ISLAND","2402332","2021-11-07 23:00","2021","11","07","23:00","-6.5","","-7.1","","95","","0.0","","0","","1","","","","101.22","","","","-7","","NA"
"-100.27","70.63","GATESHEAD ISLAND","2402332","2021-11-08 00:00","2021","11","08","00:00","-6.5","","-7.1","","95","","0.0","","25","","2","","","","101.24","","","","-7","","NA"
"-100.27","70.63","GATESHEAD ISLAND","2402332","2021-11-08 01:00","2021","11","08","01:00","-6.8","","-7.4","","95","","0.0","","24","","1","","","","101.29","","","","-7","","NA"
"-100.27","70.63","GATESHEAD ISLAND","2402332","2021-11-08 02:00","2021","11","08","02:00","-7.4","","-8.1","","95","","0.0","","0","","1","","","","101.32","","","","-8","","NA"
"-100.27","70.63","GATESHEAD ISLAND","2402332","2021-11-08 03:00","2021","11","08","03:00","-7.6","","-8.3","","95","","0.0","","22","","3","","","","101.32","","","","-9","","NA"
"-100.27","70.63","GATESHEAD ISLAND","2402332","2021-11-08 04:00","2021","11","08","04:00","-8.2","","-8.9","","95","","0.0","","21","","2","","","","101.32","","","","-9","","NA"
"-100.27","70.63","GATESHEAD ISLAND","2402332","2021-11-08 05:00","2021","11","08","05:00","-7.4","","-8.1","","95","","0.0","","20","","3","","","","101.34","","","","-9","","NA"
"-100.27","70.63","GATESHEAD ISLAND","2402332","2021-11-08 06:00","2021","11","08","06:00","-6.1","","-6.7","","96","","0.0","","26","","4","","","","101.36","","","","-8","","NA"
"-100.27","70.63","GATESHEAD ISLAND","2402332","2021-11-08 07:00","2021","11","08","07:00","-6.9","","-7.5","","95","","0.0","","26","","3","","","","101.39","","","","-8","","NA"
"-100.27","70.63","GATESHEAD ISLAND","2402332","2021-11-08 08:00","2021","11","08","08:00","-8.9","","-9.7","","94","","0.0","","26","","7","","","","101.41","","","","-13","","NA"
"-100.27","70.63","GATESHEAD ISLAND","2402332","2021-11-08 09:00","2021","11","08","09:00","-10.7","","-11.6","","93","","0.0","","26","","3","","","","101.45","","","","-13","","NA"
"-100.27","70.63","GATESHEAD ISLAND","2402332","2021-11-08 10:00","2021","11","08","10:00","-10.4","","-11.3","","93","","0.0","","26","","3","","","","101.49","","","","-12","","NA"
"-100.27","70.63","GATESHEAD ISLAND","2402332","2021-11-08 11:00","2021","11","08","11:00","-11.5","","-12.5","","93","","0.0","","26","","2","","","","101.53","","","","-13","","NA"
"-100.27","70.63","GATESHEAD ISLAND","2402332","2021-11-08 12:00","2021","11","08","12:00","-13.0","","-14.1","","91","","0.0","","26","","1","","","","101.58","","","","-14","","NA"
"-100.27","70.63","GATESHEAD ISLAND","2402332","2021-11-08 13:00","2021","11","08","13:00","-13.5","","-14.6","","91","","0.0","","0","","1","","","","101.63","","","","-14","","NA"
"-100.27","70.63","GATESHEAD ISLAND","2402332","2021-11-08 14:00","2021","11","08","14:00","-13.5","","-14.6","","91","","0.0","","","M","1","","","","101.68","","","","-14","","NA"
"-100.27","70.63","GATESHEAD ISLAND","2402332","2021-11-08 15:00","2021","11","08","15:00","-15.1","","-16.4","","90","","0.3","","","M","1","","","","101.73","","","","-16","","NA"
"-100.27","70.63","GATESHEAD ISLAND","2402332","2021-11-08 16:00","2021","11","08","16:00","-16.0","","-17.5","","89","","0.0","","","M","0","","","","101.78","","","","","","NA"
"-100.27","70.63","GATESHEAD ISLAND","2402332","2021-11-08 17:00","2021","11","08","17:00","-15.3","","-16.6","","90","","0.3","","","M","0","","","","101.81","","","","","","NA"
"-100.27","70.63","GATESHEAD ISLAND","2402332","2021-11-08 18:00","2021","11","08","18:00","-15.3","","-16.7","","90","","0.0","","","M","1","","","","101.85","","","","-16","","NA"
"-100.27","70.63","GATESHEAD ISLAND","2402332","2021-11-08 19:00","2021","11","08","19:00","-13.6","","-14.8","","91","","0.0","","","M","2","","","","101.89","","","","-15","","NA"
"-100.27","70.63","GATESHEAD ISLAND","2402332","2021-11-08 20:00","2021","11","08","20:00","-16.1","","-17.5","","89","","0.0","","","M","0","","","","101.92","","","","","","NA"
"-100.27","70.63","GATESHEAD ISLAND","2402332","2021-11-08 21:00","2021","11","08","21:00","-18.6","","-20.2","","87","","0.0","","","M","2","","","","101.95","","","","-20","","NA"
"-100.27","70.63","GATESHEAD ISLAND","2402332","2021-11-08 22:00","2021","11","08","22:00","-19.0","","-20.6","","87","","0.0","","","M","1","","","","101.97","","","","-20","","NA"
"-100.27","70.63","GATESHEAD ISLAND","2402332","2021-11-08 23:00","2021","11","08","23:00","-19.5","","-21.2","","87","","0.0","","","M","4","","","","101.97","","","","-23","","NA"
"-100.27","70.63","GATESHEAD ISLAND","2402332","2021-11-09 00:00","2021","11","09","00:00","-18.4","","-20.0","","88","","0.0","","","M","5","","","","101.97","","","","-22","","NA"
"-100.27","70.63","GATESHEAD ISLAND","2402332","2021-11-09 01:00","2021","11","09","01:00","-16.2","","-17.6","","89","","0.0","","","M","9","","","","101.98","","","","-22","","NA"
"-100.27","70.63","GATESHEAD ISLAND","2402332","2021-11-09 02:00","2021","11","09","02:00","-18.9","","-20.5","","87","","0.0","","","M","6","","","","102.00","","","","-24","","NA"
"-100.27","70.63","GATESHEAD ISLAND","2402332","2021-11-09 03:00","2021","11","09","03:00","-18.0","","-19.6","","88","","0.0","","","M","4","","","","102.01","","","","-21","","NA"
"-100.27","70.63","GATESHEAD ISLAND","2402332","2021-11-09 04:00","2021","11","09","04:00"
"-100.27","70.63","GATESHEAD ISLAND","2402332","2021-11-09 05:00","2021","11","09","05:00","-17.9","","-19.5","","88","","0.0","","","M","0","","","","102.04","","","","","","NA"
"-100.27","70.63","GATESHEAD ISLAND","2402332","2021-11-09 06:00","2021","11","09","06:00","-18.5","","-20.1","","87","","0.0","","","M","2","","","","102.07","","","","-20","","NA"
"-100.27","70.63","GATESHEAD ISLAND","2402332","2021-11-09 07:00","2021","11","09","07:00","-18.2","","-19.8","","88","","0.0","","","M","2","","","","102.07","","","","-20","","NA"
"-100.27","70.63","GATESHEAD ISLAND","2402332","2021-11-09 08:00","2021","11","09","08:00","-17.1","","-18.5","","89","","0.0","","","M","0","","","","102.09","","","","","","NA"
"-100.27","70.63","GATESHEAD ISLAND","2402332","2021-11-09 09:00","2021","11","09","09:00","-17.3","","-18.7","","88","","0.0","","","M","0","","","","102.13","","","","","","NA"
"-100.27","70.63","GATESHEAD ISLAND","2402332","2021-11-09 10:00","2021","11","09","10:00","-17.4","","-18.9","","88","","0.0","","","M","2","","","","102.17","","","","-19","","NA"
"-100.27","70.63","GATESHEAD ISLAND","2402332","2021-11-09 11:00","2021","11","09","11:00","-16.5","","-17.9","","89","","0.0","","","M","0","","","","102.22","","","","","","NA"
"-100.27","70.63","GATESHEAD ISLAND","2402332","2021-11-09 12:00","2021","11","09","12:00","-17.2","","-18.7","","88","","0.0","","","M","1","","","","102.26","","","","-18","","NA"
"-100.27","70.63","GATESHEAD ISLAND","2402332","2021-11-09 13:00","2021","11","09","13:00","-15.5","","-16.8","","90","","0.2","","","M","4","","","","102.34","","","","-18","","NA"
"-100.27","70.63","GATESHEAD ISLAND","2402332","2021-11-09 14:00","2021","11","09","14:00","-16.9","","-18.4","","88","","0.0","","","M","5","","","","102.40","","","","-21","","NA"
"-100.27","70.63","GATESHEAD ISLAND","2402332","2021-11-09 15:00","2021","11","09","15:00","-16.6","","-18.0","","89","","0.0","","","M","3","","","","102.43","","","","-19","","NA"
"-100.27","70.63","GATESHEAD ISLAND","2402332","2021-11-09 16:00","2021","11","09","16:00","-15.9","","-17.3","","89","","0.0","","","M","5","","","","102.42","","","","-20","","NA"
"-100.27","70.63","GATESHEAD ISLAND","2402332","2021-11-09 17:00","2021","11","09","17:00","-15.4","","-16.7","","89","","0.0","","","M","0","","","","102.44","","","","","","NA"
"-100.27","70.63","GATESHEAD ISLAND","2402332","2021-11-09 18:00","2021","11","09","18:00","-14.6","","-15.9","","90","","0.0","","","M","1","","","","102.48","","","","-15","","NA"
"-100.27","70.63","GATESHEAD ISLAND","2402332","2021-11-09 19:00","2021","11","09","19:00","-15.4","","-16.8","","89","","0.0","","","M","1","","","","102.49","","","","-16","","NA"
"-100.27","70.63","GATESHEAD ISLAND","2402332","2021-11-09 20:00","2021","11","09","20:00","-15.9","","-17.3","","89","","0.0","","","M","1","","","","102.50","","","","-17","","NA"
"-100.27","70.63","GATESHEAD ISLAND","2402332","2021-11-09 21:00","2021","11","09","21:00","-16.2","","-17.6","","89","","0.0","","","M","0","","","","102.57","","","","","","NA"
"-100.27","70.63","GATESHEAD ISLAND","2402332","2021-11-09 22:00","2021","11","09","22:00","-16.6","","-18.1","","89","","0.0","","","M","2","","","","102.59","","","","-18","","NA"
"-100.27","70.63","GATESHEAD ISLAND","2402332","2021-11-09 23:00","2021","11","09","23:00","-16.0","","-17.4","","89","","0.0","","","M","1","","","","102.62","","","","-17","","NA"
"-100.27","70.63","GATESHEAD ISLAND","2402332","2021-11-10 00:00","2021","11","10","00:00","-16.9","","-18.3","","88","","0.0","","","M","1","","","","102.65","","","","-18","","NA"
"-100.27","70.63","GATESHEAD ISLAND","2402332","2021-11-10 01:00","2021","11","10","01:00","-17.3","","-18.8","","88","","0.0","","","M","2","","","","102.73","","","","-19","","NA"
"-100.27","70.63","GATESHEAD ISLAND","2402332","2021-11-10 02:00","2021","11","10","02:00","-17.5","","-19.0","","88","","0.0","","","M","1","","","","102.77","","","","-18","","NA"
"-100.27","70.63","GATESHEAD ISLAND","2402332","2021-11-10 03:00","2021","11","10","03:00","-17.7","","-19.2","","88","","0.0","","","M","2","","","","102.75","","","","-19","","NA"
"-100.27","70.63","GATESHEAD ISLAND","2402332","2021-11-10 04:00","2021","11","10","04:00","-18.0","","-19.6","","87","","0.0","","","M","2","","","","102.78","","","","-20","","NA"
"-100.27","70.63","GATESHEAD ISLAND","2402332","2021-11-10 05:00","2021","11","10","05:00","-17.9","","-19.5","","87","","0.0","","","M","2","","","","102.83","","","","-19","","NA"
"-100.27","70.63","GATESHEAD ISLAND","2402332","2021-11-10 06:00","2021","11","10","06:00","-18.2","","-19.8","","87","","0.0","","","M","2","","","","102.85","","","","-20","","NA"
"-100.27","70.63","GATESHEAD ISLAND","2402332","2021-11-10 07:00","2021","11","10","07:00","-18.2","","-19.8","","87","","0.0","","","M","0","","","","102.86","","","","","","NA"
"-100.27","70.63","GATESHEAD ISLAND","2402332","2021-11-10 08:00","2021","11","10","08:00","-16.1","","-17.5","","89","","0.0","","","M","0","","","","102.87","","","","","","NA"
"-100.27","70.63","GATESHEAD ISLAND","2402332","2021-11-10 09:00","2021","11","10","09:00","-15.0","","-16.3","","90","","0.0","","","M","2","","","","102.89","","","","-16","","NA"
"-100.27","70.63","GATESHEAD ISLAND","2402332","2021-11-10 10:00","2021","11","10","10:00","-14.5","","-15.7","","90","","0.0","","","M","4","","","","102.92","","","","-17","","NA"
"-100.27","70.63","GATESHEAD ISLAND","2402332","2021-11-10 11:00","2021","11","10","11:00","-15.0","","-16.3","","90","","0.0","","","M","3","","","","102.94","","","","-17","","NA"
"-100.27","70.63","GATESHEAD ISLAND","2402332","2021-11-10 12:00","2021","11","10","12:00","-14.9","","-16.2","","90","","0.0","","","M","2","","","","102.98","","","","-16","","NA"
"-100.27","70.63","GATESHEAD ISLAND","2402332","2021-11-10 13:00","2021","11","10","13:00","-14.9","","-16.2","","90","","0.0","","","M","2","","","","103.00","","","","-16","","NA"
"-100.27","70.63","GATESHEAD ISLAND","2402332","2021-11-10 14:00","2021","11","10","14:00","-14.6","","-15.8","","90","","0.0","","","M","3","","","","103.04","","","","-17","","NA"
"-100.27","70.63","GATESHEAD ISLAND","2402332","2021-11-10 15:00","2021","11","10","15:00","-14.5","","-15.8","","90","","0.0","","","M","2","","","","103.07","","","","-16","","NA"
"-100.27","70.63","GATESHEAD ISLAND","2402332","2021-11-10 16:00","2021","11","10","16:00","-14.9","","-16.2","","90","","0.0","","","M","1","","","","103.08","","","","-16","","NA"
"-100.27","70.63","GATESHEAD ISLAND","2402332","2021-11-10 17:00","2021","11","10","17:00","-15.5","","-16.8","","89","","0.0","","","M","1","","","","103.10","","","","-16","","NA"
"-100.27","70.63","GATESHEAD ISLAND","2402332","2021-11-10 18:00","2021","11","10","18:00","-16.0","","-17.5","","89","","0.0","","","M","2","","","","103.11","","","","-17","","NA"
"-100.27","70.63","GATESHEAD ISLAND","2402332","2021-11-10 19:00","2021","11","10","19:00","-15.7","","-17.1","","89","","0.0","","","M","2","","","","103.10","","","","-17","","NA"
"-100.27","70.63","GATESHEAD ISLAND","2402332","2021-11-10 20:00","2021","11","10","20:00","-16.1","","-17.5","","89","","0.0","","","M","1","","","","103.12","","","","-17","","NA"
"-100.27","70.63","GATESHEAD ISLAND","2402332","2021-11-10 21:00","2021","11","10","21:00","-17.0","","-18.5","","88","","0.0","","","M","1","","","","103.15","","","","-18","","NA"
"-100.27","70.63","GATESHEAD ISLAND","2402332","2021-11-10 22:00","2021","11","10","22:00","-17.3","","-18.8","","88","","0.0","","","M","1","","","","103.14","","","","-18","","NA"
"-100.27","70.63","GATESHEAD ISLAND","2402332","2021-11-10 23:00","2021","11","10","23:00","-18.5","","-20.1","","87","","0.0","","","M","1","","","","103.15","","","","-19","","NA"
"-100.27","70.63","GATESHEAD ISLAND","2402332","2021-11-11 00:00","2021","11","11","00:00","-18.4","","-20.1","","87","","0.0","","","M","1","","","","103.17","","","","-19","","NA"
"-100.27","70.63","GATESHEAD ISLAND","2402332","2021-11-11 01:00","2021","11","11","01:00","-20.7","","-22.6","","85","","0.0","","","M","1","","","","103.18","","","","-22","","NA"
"-100.27","70.63","GATESHEAD ISLAND","2402332","2021-11-11 02:00","2021","11","11","02:00","-21.6","","-23.5","","84","","0.0","","","M","0","","","","103.20","","","","","","NA"
"-100.27","70.63","GATESHEAD ISLAND","2402332","2021-11-11 03:00","2021","11","11","03:00","-21.5","","-23.5","","85","","0.0","","","M","0","","","","103.20","","","","","","NA"
"-100.27","70.63","GATESHEAD ISLAND","2402332","2021-11-11 04:00","2021","11","11","04:00","-22.0","","-24.0","","84","","0.0","","","M","0","","","","103.21","","","","","","NA"
"-100.27","70.63","GATESHEAD ISLAND","2402332","2021-11-11 05:00","2021","11","11","05:00","-21.5","","-23.4","","85","","0.0","","","M","0","","","","103.19","","","","","","NA"
"-100.27","70.63","GATESHEAD ISLAND","2402332","2021-11-11 06:00","2021","11","11","06:00","-22.2","","-24.2","","84","","0.0","","","M","1","","","","103.19","","","","-23","","NA"
"-100.27","70.63","GATESHEAD ISLAND","2402332","2021-11-11 07:00","2021","11","11","07:00","-21.6","","-23.4","","85","","0.0","","","M","1","","","","103.20","","","","-22","","NA"
"-100.27","70.63","GATESHEAD ISLAND","2402332","2021-11-11 08:00","2021","11","11","08:00","-21.5","","-23.5","","84","","0.0","","","M","0","","","","103.21","","","","","","NA"
"-100.27","70.63","GATESHEAD ISLAND","2402332","2021-11-11 09:00","2021","11","11","09:00","-22.0","","-23.9","","84","","0.0","","","M","1","","","","103.20","","","","-23","","NA"
"-100.27","70.63","GATESHEAD ISLAND","2402332","2021-11-11 10:00","2021","11","11","10:00","-22.3","","-24.3","","84","","0.0","","","M","2","","","","103.21","","","","-24","","NA"
"-100.27","70.63","GATESHEAD ISLAND","2402332","2021-11-11 11:00","2021","11","11","11:00","-19.9","","-21.6","","86","","0.2","","","M","1","","","","103.26","","","","-21","","NA"
"-100.27","70.63","GATESHEAD ISLAND","2402332","2021-11-11 12:00","2021","11","11","12:00","-18.1","","-19.7","","87","","0.5","","","M","0","","","","103.22","","","","","","NA"
"-100.27","70.63","GATESHEAD ISLAND","2402332","2021-11-11 13:00","2021","11","11","13:00","-17.1","","-18.6","","88","","0.2","","","M","3","","","","103.21","","","","-19","","NA"
"-100.27","70.63","GATESHEAD ISLAND","2402332","2021-11-11 14:00","2021","11","11","14:00","-15.9","","-17.2","","89","","0.0","","","M","2","","","","103.18","","","","-17","","NA"
"-100.27","70.63","GATESHEAD ISLAND","2402332","2021-11-11 15:00","2021","11","11","15:00","-15.1","","-16.4","","90","","0.0","","","M","5","","","","103.17","","","","-19","","NA"
"-100.27","70.63","GATESHEAD ISLAND","2402332","2021-11-11 16:00","2021","11","11","16:00","-14.2","","-15.5","","90","","0.0","","","M","6","","","","103.09","","","","-18","","NA"
"-100.27","70.63","GATESHEAD ISLAND","2402332","2021-11-11 17:00","2021","11","11","17:00","-13.0","","-14.2","","91","","0.0","","","M","4","","","","103.04","","","","-16","","NA"
"-100.27","70.63","GATESHEAD ISLAND","2402332","2021-11-11 18:00","2021","11","11","18:00","-13.2","","-14.4","","91","","0.0","","","M","4","","","","103.02","","","","-16","","NA"
"-100.27","70.63","GATESHEAD ISLAND","2402332","2021-11-11 19:00","2021","11","11","19:00","-14.6","","-15.9","","90","","0.0","","","M","7","","","","102.97","","","","-19","","NA"
"-100.27","70.63","GATESHEAD ISLAND","2402332","2021-11-11 20:00","2021","11","11","20:00","-14.3","","-15.5","","90","","0.0","","","M","6","","","","102.90","","","","-18","","NA"
"-100.27","70.63","GATESHEAD ISLAND","2402332","2021-11-11 21:00","2021","11","11","21:00","-14.8","","-16.1","","90","","0.0","","","M","8","","","","102.82","","","","-20","","NA"
"-100.27","70.63","GATESHEAD ISLAND","2402332","2021-11-11 22:00","2021","11","11","22:00","-14.2","","-15.5","","90","","0.0","","","M","10","","","","102.76","","","","-20","","NA"
"-100.27","70.63","GATESHEAD ISLAND","2402332","2021-11-11 23:00","2021","11","11","23:00","-13.7","","-14.9","","91","","0.0","","","M","14","","","","102.69","","","","-21","","NA"
"-100.27","70.63","GATESHEAD ISLAND","2402332","2021-11-12 00:00","2021","11","12","00:00","-14.5","","-15.8","","90","","0.0","","","M","14","","","","102.65","","","","-22","","NA"
"-100.27","70.63","GATESHEAD ISLAND","2402332","2021-11-12 01:00","2021","11","12","01:00","-14.6","","-15.9","","90","","0.0","","","M","17","","","","102.54","","","","-23","","NA"
"-100.27","70.63","GATESHEAD ISLAND","2402332","2021-11-12 02:00","2021","11","12","02:00","-15.4","","-16.7","","89","","0.0","","","M","17","","","","102.47","","","","-24","","NA"
"-100.27","70.63","GATESHEAD ISLAND","2402332","2021-11-12 03:00","2021","11","12","03:00","-16.1","","-17.6","","89","","0.0","","","M","16","","","","102.41","","","","-25","","NA"
"-100.27","70.63","GATESHEAD ISLAND","2402332","2021-11-12 04:00","2021","11","12","04:00","-16.9","","-18.4","","88","","0.0","","","M","16","","","","102.31","","","","-26","","NA"
"-100.27","70.63","GATESHEAD ISLAND","2402332","2021-11-12 05:00","2021","11","12","05:00","-16.3","","-17.8","","89","","0.0","","","M","17","","","","102.24","","","","-25","","NA"
"-100.27","70.63","GATESHEAD ISLAND","2402332","2021-11-12 06:00","2021","11","12","06:00","-15.9","","-17.3","","89","","0.0","","","M","21","","","","102.12","","","","-26","","NA"
"-100.27","70.63","GATESHEAD ISLAND","2402332","2021-11-12 07:00","2021","11","12","07:00","-14.8","","-16.1","","90","","0.2","","","M","21","","","","102.07","","","","-24","","NA"
"-100.27","70.63","GATESHEAD ISLAND","2402332","2021-11-12 08:00","2021","11","12","08:00","-13.3","","-14.5","","91","","0.0","","","M","20","","","","101.99","","","","-22","","NA"
"-100.27","70.63","GATESHEAD ISLAND","2402332","2021-11-12 09:00","2021","11","12","09:00","-12.4","","-13.5","","91","","0.2","","","M","18","","","","101.91","","","","-20","","NA"
"-100.27","70.63","GATESHEAD ISLAND","2402332","2021-11-12 10:00","2021","11","12","10:00","-10.3","","-11.3","","93","","0.0","","","M","16","","","","101.84","","","","-17","","NA"
"-100.27","70.63","GATESHEAD ISLAND","2402332","2021-11-12 11:00","2021","11","12","11:00","-10.0","","-10.9","","93","","0.0","","","M","12","","","","101.82","","","","-16","","NA"
"-100.27","70.63","GATESHEAD ISLAND","2402332","2021-11-12 12:00","2021","11","12","12:00","-9.3","","-10.2","","93","","0.0","","","M","9","","","","101.77","","","","-14","","NA"
"-100.27","70.63","GATESHEAD ISLAND","2402332","2021-11-12 13:00","2021","11","12","13:00","-9.2","","-10.1","","94","","0.0","","","M","10","","","","101.72","","","","-14","","NA"
"-100.27","70.63","GATESHEAD ISLAND","2402332","2021-11-12 14:00","2021","11","12","14:00","-9.1","","-9.9","","94","","0.0","","","M","7","","","","101.72","","","","-13","","NA"
"-100.27","70.63","GATESHEAD ISLAND","2402332","2021-11-12 15:00","2021","11","12","15:00","-9.0","","-9.8","","94","","0.0","","","M","7","","","","101.69","","","","-13","","NA"
"-100.27","70.63","GATESHEAD ISLAND","2402332","2021-11-12 16:00","2021","11","12","16:00","-8.8","","-9.6","","94","","0.2","","","M","6","","","","101.65","","","","-12","","NA"
"-100.27","70.63","GATESHEAD ISLAND","2402332","2021-11-12 17:00","2021","11","12","17:00","-9.7","","-10.6","","93","","0.0","","","M","8","","","","101.62","","","","-14","","NA"
"-100.27","70.63","GATESHEAD ISLAND","2402332","2021-11-12 18:00","2021","11","12","18:00","-10.3","","-11.2","","93","","0.0","","","M","4","","","","101.61","","","","-13","","NA"
"-100.27","70.63","GATESHEAD ISLAND","2402332","2021-11-12 19:00","2021","11","12","19:00","-10.9","","-11.9","","93","","0.0","","","M","2","","","","101.59","","","","-12","","NA"
"-100.27","70.63","GATESHEAD ISLAND","2402332","2021-11-12 20:00","2021","11","12","20:00","-11.0","","-12.0","","92","","0.0","","","M","0","","","","101.57","","","","","","NA"
"-100.27","70.63","GATESHEAD ISLAND","2402332","2021-11-12 21:00","2021","11","12","21:00","-11.1","","-12.1","","92","","0.0","","","M","0","","","","101.57","","","","","","NA"
"-100.27","70.63","GATESHEAD ISLAND","2402332","2021-11-12 22:00","2021","11","12","22:00","-11.4","","-12.4","","92","","0.0","","","M","6","","","","101.54","","","","-15","","NA"
"-100.27","70.63","GATESHEAD ISLAND","2402332","2021-11-12 23:00","2021","11","12","23:00","-11.0","","-12.1","","92","","0.0","","","M","3","","","","101.52","","","","-13","","NA"
"-100.27","70.63","GATESHEAD ISLAND","2402332","2021-11-13 00:00","2021","11","13","00:00","-9.2","","-10.0","","94","","0.0","","","M","6","","","","101.51","","","","-13","","NA"
"-100.27","70.63","GATESHEAD ISLAND","2402332","2021-11-13 01:00","2021","11","13","01:00","-8.7","","-9.5","","94","","0.0","","","M","5","","","","101.50","","","","-11","","NA"
"-100.27","70.63","GATESHEAD ISLAND","2402332","2021-11-13 02:00","2021","11","13","02:00","-8.6","","-9.4","","94","","0.2","","","M","4","","","","101.50","","","","-11","","NA"
"-100.27","70.63","GATESHEAD ISLAND","2402332","2021-11-13 03:00","2021","11","13","03:00","-9.2","","-10.0","","94","","0.0","","","M","5","","","","101.49","","","","-12","","NA"
"-100.27","70.63","GATESHEAD ISLAND","2402332","2021-11-13 04:00","2021","11","13","04:00","-10.2","","-11.2","","93","","0.0","","","M","6","","","","101.47","","","","-14","","NA"
"-100.27","70.63","GATESHEAD ISLAND","2402332","2021-11-13 05:00","2021","11","13","05:00","-9.6","","-10.5","","93","","0.0","","","M","8","","","","101.43","","","","-14","","NA"
"-100.27","70.63","GATESHEAD ISLAND","2402332","2021-11-13 06:00","2021","11","13","06:00","-8.6","","-9.4","","94","","0.0","","","M","8","","","","101.41","","","","-13","","NA"
"-100.27","70.63","GATESHEAD ISLAND","2402332","2021-11-13 07:00","2021","11","13","07:00","-8.3","","-9.0","","94","","0.0","","","M","8","","","","101.41","","","","-12","","NA"
"-100.27","70.63","GATESHEAD ISLAND","2402332","2021-11-13 08:00","2021","11","13","08:00","-8.1","","-8.9","","94","","0.0","","","M","8","","","","101.39","","","","-12","","NA"
"-100.27","70.63","GATESHEAD ISLAND","2402332","2021-11-13 09:00","2021","11","13","09:00","-8.3","","-9.1","","94","","0.0","","","M","8","","","","101.37","","","","-12","","NA"
"-100.27","70.63","GATESHEAD ISLAND","2402332","2021-11-13 10:00","2021","11","13","10:00","-9.0","","-9.8","","94","","0.0","","","M","9","","","","101.33","","","","-14","","NA"
"-100.27","70.63","GATESHEAD ISLAND","2402332","2021-11-13 11:00","2021","11","13","11:00","-9.3","","-10.2","","94","","0.0","","","M","8","","","","101.35","","","","-14","","NA"
"-100.27","70.63","GATESHEAD ISLAND","2402332","2021-11-13 12:00","2021","11","13","12:00","-9.9","","-10.8","","93","","0.0","","","M","8","","","","101.32","","","","-14","","NA"
"-100.27","70.63","GATESHEAD ISLAND","2402332","2021-11-13 13:00","2021","11","13","13:00","-9.9","","-10.7","","93","","0.0","","","M","9","","","","101.30","","","","-15","","NA"
"-100.27","70.63","GATESHEAD ISLAND","2402332","2021-11-13 14:00","2021","11","13","14:00","-9.3","","-10.1","","94","","0.0","","","M","7","","","","101.27","","","","-13","","NA"
"-100.27","70.63","GATESHEAD ISLAND","2402332","2021-11-13 15:00","2021","11","13","15:00","-8.5","","-9.3","","94","","0.0","","","M","6","","","","101.25","","","","-12","","NA"
"-100.27","70.63","GATESHEAD ISLAND","2402332","2021-11-13 16:00","2021","11","13","16:00","-8.1","","-8.9","","94","","0.0","","","M","6","","","","101.23","","","","-11","","NA"
"-100.27","70.63","GATESHEAD ISLAND","2402332","2021-11-13 17:00","2021","11","13","17:00","-8.9","","-9.7","","94","","0.0","","","M","6","","","","101.21","","","","-12","","NA"
"-100.27","70.63","GATESHEAD ISLAND","2402332","2021-11-13 18:00","2021","11","13","18:00","-9.1","","-9.9","","94","","0.0","","","M","8","","","","101.18","","","","-13","","NA"
"-100.27","70.63","GATESHEAD ISLAND","2402332","2021-11-13 19:00","2021","11","13","19:00","-10.1","","-11.1","","93","","0.0","","","M","8","","","","101.16","","","","-15","","NA"
"-100.27","70.63","GATESHEAD ISLAND","2402332","2021-11-13 20:00","2021","11","13","20:00","-11.4","","-12.4","","92","","0.0","","","M","7","","","","101.10","","","","-16","","NA"
"-100.27","70.63","GATESHEAD ISLAND","2402332","2021-11-13 21:00","2021","11","13","21:00","-12.2","","-13.3","","92","","0.0","","","M","8","","","","101.04","","","","-17","","NA"
"-100.27","70.63","GATESHEAD ISLAND","2402332","2021-11-13 22:00","2021","11","13","22:00","-12.7","","-13.8","","91","","0.0","","","M","5","","","","101.02","","","","-16","","NA"
"-100.27","70.63","GATESHEAD ISLAND","2402332","2021-11-13 23:00","2021","11","13","23:00","-14.1","","-15.4","","90","","0.0","","","M","4","","","","100.99","","","","-17","","NA"
"-100.27","70.63","GATESHEAD ISLAND","2402332","2021-11-14 00:00","2021","11","14","00:00","-11.4","","-12.4","","92","","0.0","","","M","0","","","","100.94","","","","","","NA"
"-100.27","70.63","GATESHEAD ISLAND","2402332","2021-11-14 01:00","2021","11","14","01:00","-11.0","","-12.0","","92","","0.0","","","M","1","","","","100.93","","","","-12","","NA"
"-100.27","70.63","GATESHEAD ISLAND","2402332","2021-11-14 02:00","2021","11","14","02:00","-11.1","","-12.1","","92","","0.0","","","M","1","","","","100.88","","","","-12","","NA"
"-100.27","70.63","GATESHEAD ISLAND","2402332","2021-11-14 03:00","2021","11","14","03:00","-11.3","","-12.3","","92","","0.0","","","M","2","","","","100.85","","","","-13","","NA"
"-100.27","70.63","GATESHEAD ISLAND","2402332","2021-11-14 04:00","2021","11","14","04:00","-12.3","","-13.4","","92","","0.0","","","M","5","","","","100.80","","","","-16","","NA"
"-100.27","70.63","GATESHEAD ISLAND","2402332","2021-11-14 05:00","2021","11","14","05:00","-11.2","","-12.2","","92","","0.0","","","M","11","","","","100.73","","","","-17","","NA"
"-100.27","70.63","GATESHEAD ISLAND","2402332","2021-11-14 06:00","2021","11","14","06:00","-12.5","","-13.6","","91","","0.0","","","M","8","","","","100.70","","","","-17","","NA"
"-100.27","70.63","GATESHEAD ISLAND","2402332","2021-11-14 07:00","2021","11","14","07:00","-11.7","","-12.7","","92","","0.0","","","M","11","","","","100.65","","","","-18","","NA"
"-100.27","70.63","GATESHEAD ISLAND","2402332","2021-11-14 08:00","2021","11","14","08:00","-12.2","","-13.3","","92","","0.0","","","M","15","","","","100.61","","","","-19","","NA"
"-100.27","70.63","GATESHEAD ISLAND","2402332","2021-11-14 09:00","2021","11","14","09:00","-13.0","","-14.1","","91","","0.0","","","M","12","","","","100.59","","","","-20","","NA"
"-100.27","70.63","GATESHEAD ISLAND","2402332","2021-11-14 10:00","2021","11","14","10:00","-11.7","","-12.7","","92","","0.0","","","M","10","","","","100.55","","","","-17","","NA"
"-100.27","70.63","GATESHEAD ISLAND","2402332","2021-11-14 11:00","2021","11","14","11:00","-11.1","","-12.1","","92","","0.0","","","M","9","","","","100.54","","","","-16","","NA"
"-100.27","70.63","GATESHEAD ISLAND","2402332","2021-11-14 12:00","2021","11","14","12:00","-10.9","","-11.9","","93","","0.0","","","M","10","","","","100.51","","","","-16","","NA"
"-100.27","70.63","GATESHEAD ISLAND","2402332","2021-11-14 13:00","2021","11","14","13:00","-10.1","","-11.0","","93","","0.0","","","M","6","","","","100.48","","","","-14","","NA"
"-100.27","70.63","GATESHEAD ISLAND","2402332","2021-11-14 14:00","2021","11","14","14:00","-9.0","","-9.8","","94","","0.0","","","M","4","","","","100.45","","","","-11","","NA"
"-100.27","70.63","GATESHEAD ISLAND","2402332","2021-11-14 15:00","2021","11","14","15:00","-8.5","","-9.3","","94","","0.3","","","M","0","","","","100.45","","","","","","NA"
"-100.27","70.63","GATESHEAD ISLAND","2402332","2021-11-14 16:00","2021","11","14","16:00","-8.8","","-9.6","","94","","0.0","","","M","7","","","","100.44","","","","-13","","NA"
"-100.27","70.63","GATESHEAD ISLAND","2402332","2021-11-14 17:00","2021","11","14","17:00","-9.6","","-10.5","","93","","0.0","","","M","8","","","","100.43","","","","-14","","NA"
"-100.27","70.63","GATESHEAD ISLAND","2402332","2021-11-14 18:00","2021","11","14","18:00","-9.9","","-10.8","","93","","0.0","","","M","8","","","","100.40","","","","-14","","NA"
"-100.27","70.63","GATESHEAD ISLAND","2402332","2021-11-14 19:00","2021","11","14","19:00","-10.0","","-10.9","","93","","0.0","","","M","7","","","","100.38","","","","-14","","NA"
"-100.27","70.63","GATESHEAD ISLAND","2402332","2021-11-14 20:00","2021","11","14","20:00","-10.6","","-11.6","","93","","0.0","","","M","7","","","","100.36","","","","-15","","NA"
"-100.27","70.63","GATESHEAD ISLAND","2402332","2021-11-14 21:00","2021","11","14","21:00","-10.8","","-11.8","","93","","0.0","","","M","5","","","","100.34","","","","-14","","NA"
"-100.27","70.63","GATESHEAD ISLAND","2402332","2021-11-14 22:00","2021","11","14","22:00","-10.4","","-11.3","","93","","0.0","","","M","6","","","","100.30","","","","-14","","NA"
"-100.27","70.63","GATESHEAD ISLAND","2402332","2021-11-14 23:00","2021","11","14","23:00","-9.9","","-10.8","","93","","0.0","","","M","7","","","","100.30","","","","-14","","NA"
"-100.27","70.63","GATESHEAD ISLAND","2402332","2021-11-15 00:00","2021","11","15","00:00","-10.1","","-11.0","","93","","0.0","","","M","6","","","","100.29","","","","-14","","NA"
"-100.27","70.63","GATESHEAD ISLAND","2402332","2021-11-15 01:00","2021","11","15","01:00","-10.0","","-10.9","","93","","0.0","","","M","2","","","","100.26","","","","-11","","NA"
"-100.27","70.63","GATESHEAD ISLAND","2402332","2021-11-15 02:00","2021","11","15","02:00","-9.6","","-10.4","","93","","0.0","","","M","5","","","","100.27","","","","-12","","NA"
"-100.27","70.63","GATESHEAD ISLAND","2402332","2021-11-15 03:00","2021","11","15","03:00","-9.4","","-10.2","","93","","0.0","","","M","6","","","","100.28","","","","-13","","NA"
"-100.27","70.63","GATESHEAD ISLAND","2402332","2021-11-15 04:00","2021","11","15","04:00","-9.1","","-10.0","","94","","0.0","","","M","8","","","","100.26","","","","-13","","NA"
"-100.27","70.63","GATESHEAD ISLAND","2402332","2021-11-15 05:00","2021","11","15","05:00","-9.1","","-9.9","","94","","0.0","","","M","7","","","","100.25","","","","-13","","NA"
"-100.27","70.63","GATESHEAD ISLAND","2402332","2021-11-15 06:00","2021","11","15","06:00","-9.1","","-9.9","","94","","0.0","","","M","6","","","","100.25","","","","-12","","NA"
"-100.27","70.63","GATESHEAD ISLAND","2402332","2021-11-15 07:00","2021","11","15","07:00","-9.4","","-10.2","","93","","0.0","","","M","5","","","","100.25","","","","-12","","NA"
"-100.27","70.63","GATESHEAD ISLAND","2402332","2021-11-15 08:00","2021","11","15","08:00","-9.4","","-10.2","","94","","0.0","","","M","5","","","","100.25","","","","-12","","NA"
"-100.27","70.63","GATESHEAD ISLAND","2402332","2021-11-15 09:00","2021","11","15","09:00","-10.3","","-11.2","","93","","0.0","","","M","3","","","","100.25","","","","-12","","NA"
"-100.27","70.63","GATESHEAD ISLAND","2402332","2021-11-15 10:00","2021","11","15","10:00","-10.3","","-11.3","","93","","0.0","","","M","4","","","","100.28","","","","-13","","NA"
"-100.27","70.63","GATESHEAD ISLAND","2402332","2021-11-15 11:00","2021","11","15","11:00","-10.3","","-11.2","","93","","0.0","","","M","3","","","","100.29","","","","-12","","NA"
"-100.27","70.63","GATESHEAD ISLAND","2402332","2021-11-15 12:00","2021","11","15","12:00","-10.8","","-11.8","","93","","0.0","","","M","2","","","","100.30","","","","-12","","NA"
"-100.27","70.63","GATESHEAD ISLAND","2402332","2021-11-15 13:00","2021","11","15","13:00","-12.1","","-13.2","","92","","0.0","","","M","0","","","","100.34","","","","","","NA"
"-100.27","70.63","GATESHEAD ISLAND","2402332","2021-11-15 14:00","2021","11","15","14:00","-12.4","","-13.5","","92","","0.0","","","M","2","","","","100.37","","","","-14","","NA"
"-100.27","70.63","GATESHEAD ISLAND","2402332","2021-11-15 15:00","2021","11","15","15:00","-13.0","","-14.1","","91","","0.0","","","M","5","","","","100.39","","","","-16","","NA"
"-100.27","70.63","GATESHEAD ISLAND","2402332","2021-11-15 16:00","2021","11","15","16:00","-14.6","","-15.9","","90","","0.0","","","M","8","","","","100.45","","","","-20","","NA"
"-100.27","70.63","GATESHEAD ISLAND","2402332","2021-11-15 17:00","2021","11","15","17:00","-14.0","","-15.2","","90","","0.0","","","M","9","","","","100.47","","","","-20","","NA"
"-100.27","70.63","GATESHEAD ISLAND","2402332","2021-11-15 18:00","2021","11","15","18:00","-15.2","","-16.6","","89","","0.0","","","M","9","","","","100.49","","","","-21","","NA"
"-100.27","70.63","GATESHEAD ISLAND","2402332","2021-11-15 19:00","2021","11","15","19:00","-14.2","","-15.4","","91","","0.0","","","M","11","","","","100.52","","","","-21","","NA"
"-100.27","70.63","GATESHEAD ISLAND","2402332","2021-11-15 20:00","2021","11","15","20:00","-13.8","","-15.0","","91","","0.0","","","M","12","","","","100.57","","","","-21","","NA"
"-100.27","70.63","GATESHEAD ISLAND","2402332","2021-11-15 21:00","2021","11","15","21:00","-13.5","","-14.7","","91","","0.0","","","M","13","","","","100.61","","","","-20","","NA"
"-100.27","70.63","GATESHEAD ISLAND","2402332","2021-11-15 22:00","2021","11","15","22:00","-13.1","","-14.2","","91","","0.0","","","M","13","","","","100.65","","","","-20","","NA"
"-100.27","70.63","GATESHEAD ISLAND","2402332","2021-11-15 23:00","2021","11","15","23:00","-13.1","","-14.3","","91","","0.0","","","M","16","","","","100.70","","","","-21","","NA"
"-100.27","70.63","GATESHEAD ISLAND","2402332","2021-11-16 00:00","2021","11","16","00:00","-13.0","","-14.2","","91","","0.0","","","M","15","","","","100.75","","","","-20","","NA"
"-100.27","70.63","GATESHEAD ISLAND","2402332","2021-11-16 01:00","2021","11","16","01:00","-13.7","","-14.9","","91","","0.0","","","M","18","","","","100.80","","","","-22","","NA"
"-100.27","70.63","GATESHEAD ISLAND","2402332","2021-11-16 02:00","2021","11","16","02:00","-13.3","","-14.5","","91","","0.0","","","M","17","","","","100.85","","","","-21","","NA"
"-100.27","70.63","GATESHEAD ISLAND","2402332","2021-11-16 03:00","2021","11","16","03:00","-12.7","","-13.8","","91","","0.0","","","M","15","","","","100.90","","","","-20","","NA"
"-100.27","70.63","GATESHEAD ISLAND","2402332","2021-11-16 04:00","2021","11","16","04:00","-12.0","","-13.0","","92","","0.0","","","M","12","","","","100.93","","","","-18","","NA"
"-100.27","70.63","GATESHEAD ISLAND","2402332","2021-11-16 05:00","2021","11","16","05:00","-11.6","","-12.6","","92","","0.0","","","M","11","","","","101.00","","","","-18","","NA"
"-100.27","70.63","GATESHEAD ISLAND","2402332","2021-11-16 06:00","2021","11","16","06:00","-11.9","","-12.9","","92","","0.0","","","M","14","","","","101.06","","","","-19","","NA"
"-100.27","70.63","GATESHEAD ISLAND","2402332","2021-11-16 07:00","2021","11","16","07:00","-12.4","","-13.5","","92","","0.0","","","M","16","","","","101.09","","","","-20","","NA"
"-100.27","70.63","GATESHEAD ISLAND","2402332","2021-11-16 08:00","2021","11","16","08:00","-12.3","","-13.4","","92","","0.0","","","M","17","","","","101.13","","","","-20","","NA"
"-100.27","70.63","GATESHEAD ISLAND","2402332","2021-11-16 09:00","2021","11","16","09:00","-12.2","","-13.3","","92","","0.0","","","M","16","","","","101.17","","","","-20","","NA"
"-100.27","70.63","GATESHEAD ISLAND","2402332","2021-11-16 10:00","2021","11","16","10:00","-12.2","","-13.3","","92","","0.0","","","M","16","","","","101.22","","","","-20","","NA"
"-100.27","70.63","GATESHEAD ISLAND","2402332","2021-11-16 11:00","2021","11","16","11:00","-12.2","","-13.3","","92","","0.0","","","M","15","","","","101.29","","","","-19","","NA"
"-100.27","70.63","GATESHEAD ISLAND","2402332","2021-11-16 12:00","2021","11","16","12:00","-12.2","","-13.3","","92","","0.0","","","M","14","","","","101.35","","","","-19","","NA"
"-100.27","70.63","GATESHEAD ISLAND","2402332","2021-11-16 13:00","2021","11","16","13:00","-12.6","","-13.7","","91","","0.0","","","M","14","","","","101.42","","","","-20","","NA"
"-100.27","70.63","GATESHEAD ISLAND","2402332","2021-11-16 14:00","2021","11","16","14:00","-12.7","","-13.9","","91","","0.0","","","M","15","","","","101.48","","","","-20","","NA"
"-100.27","70.63","GATESHEAD ISLAND","2402332","2021-11-16 15:00","2021","11","16","15:00","-12.6","","-13.7","","91","","0.0","","","M","13","","","","101.54","","","","-19","","NA"
"-100.27","70.63","GATESHEAD ISLAND","2402332","2021-11-16 16:00","2021","11","16","16:00","-12.5","","-13.6","","91","","0.0","","","M","13","","","","101.59","","","","-19","","NA"
"-100.27","70.63","GATESHEAD ISLAND","2402332","2021-11-16 17:00","2021","11","16","17:00","-13.0","","-14.1","","91","","0.0","","","M","13","","","","101.66","","","","-20","","NA"
"-100.27","70.63","GATESHEAD ISLAND","2402332","2021-11-16 18:00","2021","11","16","18:00","-13.6","","-14.8","","91","","0.0","","","M","11","","","","101.72","","","","-20","","NA"
"-100.27","70.63","GATESHEAD ISLAND","2402332","2021-11-16 19:00","2021","11","16","19:00","-14.4","","-15.7","","90","","0.0","","","M","10","","","","101.78","","","","-21","","NA"
"-100.27","70.63","GATESHEAD ISLAND","2402332","2021-11-16 20:00","2021","11","16","20:00","-14.8","","-16.1","","90","","0.0","","","M","12","","","","101.83","","","","-22","","NA"
"-100.27","70.63","GATESHEAD ISLAND","2402332","2021-11-16 21:00","2021","11","16","21:00","-15.4","","-16.8","","89","","0.0","","","M","9","","","","101.87","","","","-21","","NA"
"-100.27","70.63","GATESHEAD ISLAND","2402332","2021-11-16 22:00","2021","11","16","22:00","-16.2","","-17.6","","89","","0.0","","","M","10","","","","101.88","","","","-23","","NA"
"-100.27","70.63","GATESHEAD ISLAND","2402332","2021-11-16 23:00","2021","11","16","23:00","-16.6","","-18.1","","88","","0.0","","","M","13","","","","101.93","","","","-24","","NA"
"-100.27","70.63","GATESHEAD ISLAND","2402332","2021-11-17 00:00","2021","11","17","00:00","-16.8","","-18.2","","88","","0.0","","","M","13","","","","101.96","","","","-25","","NA"
"-100.27","70.63","GATESHEAD ISLAND","2402332","2021-11-17 01:00","2021","11","17","01:00","-17.4","","-18.9","","88","","0.0","","","M","13","","","","101.99","","","","-25","","NA"
"-100.27","70.63","GATESHEAD ISLAND","2402332","2021-11-17 02:00","2021","11","17","02:00","-17.6","","-19.1","","88","","0.0","","","M","9","","","","101.99","","","","-24","","NA"
"-100.27","70.63","GATESHEAD ISLAND","2402332","2021-11-17 03:00","2021","11","17","03:00","-17.7","","-19.3","","88","","0.0","","","M","15","","","","102.03","","","","-26","","NA"
"-100.27","70.63","GATESHEAD ISLAND","2402332","2021-11-17 04:00","2021","11","17","04:00","-19.1","","-20.8","","86","","0.0","","","M","14","","","","102.06","","","","-28","","NA"
"-100.27","70.63","GATESHEAD ISLAND","2402332","2021-11-17 05:00","2021","11","17","05:00","-21.2","","-23.1","","85","","0.0","","","M","10","","","","102.10","","","","-29","","NA"
"-100.27","70.63","GATESHEAD ISLAND","2402332","2021-11-17 06:00","2021","11","17","06:00","-21.9","","-23.9","","84","","0.0","","","M","8","","","","102.08","","","","-28","","NA"
"-100.27","70.63","GATESHEAD ISLAND","2402332","2021-11-17 07:00","2021","11","17","07:00","-22.2","","-24.1","","84","","0.0","","","M","7","","","","102.07","","","","-28","","NA"
"-100.27","70.63","GATESHEAD ISLAND","2402332","2021-11-17 08:00","2021","11","17","08:00","-22.3","","-24.3","","84","","0.0","","","M","7","","","","102.08","","","","-28","","NA"
"-100.27","70.63","GATESHEAD ISLAND","2402332","2021-11-17 09:00","2021","11","17","09:00","-21.0","","-22.9","","85","","0.0","","","M","7","","","","102.07","","","","-27","","NA"
"-100.27","70.63","GATESHEAD ISLAND","2402332","2021-11-17 10:00","2021","11","17","10:00","-18.3","","-19.8","","87","","0.0","","","M","7","","","","102.08","","","","-24","","NA"
"-100.27","70.63","GATESHEAD ISLAND","2402332","2021-11-17 11:00","2021","11","17","11:00","-14.8","","-16.1","","90","","0.7","","","M","12","","","","102.10","","","","-22","","NA"
"-100.27","70.63","GATESHEAD ISLAND","2402332","2021-11-17 12:00","2021","11","17","12:00","-15.4","","-16.8","","89","","0.0","","","M","17","","","","102.11","","","","-24","","NA"
"-100.27","70.63","GATESHEAD ISLAND","2402332","2021-11-17 13:00","2021","11","17","13:00","-15.7","","-17.1","","89","","0.0","","","M","18","","","","102.11","","","","-25","","NA"
"-100.27","70.63","GATESHEAD ISLAND","2402332","2021-11-17 14:00","2021","11","17","14:00","-16.9","","-18.4","","88","","0.0","","","M","6","","","","102.09","","","","-21","","NA"
"-100.27","70.63","GATESHEAD ISLAND","2402332","2021-11-17 15:00","2021","11","17","15:00","-18.3","","-19.9","","87","","0.0","","","M","7","","","","102.12","","","","-24","","NA"
"-100.27","70.63","GATESHEAD ISLAND","2402332","2021-11-17 16:00","2021","11","17","16:00","-18.6","","-20.2","","87","","0.0","","","M","7","","","","102.09","","","","-24","","NA"
"-100.27","70.63","GATESHEAD ISLAND","2402332","2021-11-17 17:00","2021","11","17","17:00","-19.7","","-21.4","","86","","0.0","","","M","6","","","","102.10","","","","-25","","NA"
"-100.27","70.63","GATESHEAD ISLAND","2402332","2021-11-17 18:00","2021","11","17","18:00","-20.7","","-22.5","","85","","0.0","","","M","6","","","","102.08","","","","-26","","NA"
"-100.27","70.63","GATESHEAD ISLAND","2402332","2021-11-17 19:00","2021","11","17","19:00","-21.6","","-23.5","","84","","0.0","","","M","2","","","","102.07","","","","-23","","NA"
"-100.27","70.63","GATESHEAD ISLAND","2402332","2021-11-17 20:00","2021","11","17","20:00","-22.1","","-24.1","","84","","0.0","","","M","4","","","","102.02","","","","-26","","NA"
"-100.27","70.63","GATESHEAD ISLAND","2402332","2021-11-17 21:00","2021","11","17","21:00","-21.5","","-23.5","","84","","0.0","","","M","3","","","","102.00","","","","-24","","NA"
"-100.27","70.63","GATESHEAD ISLAND","2402332","2021-11-17 22:00","2021","11","17","22:00","-22.2","","-24.2","","84","","0.0","","","M","4","","","","101.99","","","","-26","","NA"
"-100.27","70.63","GATESHEAD ISLAND","2402332","2021-11-17 23:00","2021","11","17","23:00","-22.5","","-24.5","","84","","0.0","","","M","3","","","","101.96","","","","-25","","NA"
"-100.27","70.63","GATESHEAD ISLAND","2402332","2021-11-18 00:00","2021","11","18","00:00","-22.1","","-24.0","","84","","0.0","","","M","2","","","","101.96","","","","-24","","NA"
"-100.27","70.63","GATESHEAD ISLAND","2402332","2021-11-18 01:00","2021","11","18","01:00","-22.1","","-24.0","","84","","0.0","","","M","1","","","","101.93","","","","-23","","NA"
"-100.27","70.63","GATESHEAD ISLAND","2402332","2021-11-18 02:00","2021","11","18","02:00","-21.8","","-23.8","","84","","0.0","","","M","1","","","","101.88","","","","-23","","NA"
"-100.27","70.63","GATESHEAD ISLAND","2402332","2021-11-18 03:00","2021","11","18","03:00","-21.0","","-22.9","","85","","0.0","","","M","1","","","","101.83","","","","-22","","NA"
"-100.27","70.63","GATESHEAD ISLAND","2402332","2021-11-18 04:00","2021","11","18","04:00","-21.2","","-23.1","","85","","0.0","","","M","3","","","","101.78","","","","-24","","NA"
"-100.27","70.63","GATESHEAD ISLAND","2402332","2021-11-18 05:00","2021","11","18","05:00","-21.3","","-23.2","","84","","0.0","","","M","4","","","","101.75","","","","-25","","NA"
"-100.27","70.63","GATESHEAD ISLAND","2402332","2021-11-18 06:00","2021","11","18","06:00","-21.2","","-23.1","","85","","0.3","","","M","3","","","","101.69","","","","-24","","NA"
"-100.27","70.63","GATESHEAD ISLAND","2402332","2021-11-18 07:00","2021","11","18","07:00","-21.5","","-23.4","","85","","0.0","","","M","2","","","","101.65","","","","-23","","NA"
"-100.27","70.63","GATESHEAD ISLAND","2402332","2021-11-18 08:00","2021","11","18","08:00","-21.5","","-23.4","","85","","0.0","","","M","2","","","","101.58","","","","-23","","NA"
"-100.27","70.63","GATESHEAD ISLAND","2402332","2021-11-18 09:00","2021","11","18","09:00","-20.7","","-22.5","","85","","0.0","","","M","2","","","","101.51","","","","-22","","NA"
"-100.27","70.63","GATESHEAD ISLAND","2402332","2021-11-18 10:00","2021","11","18","10:00","-20.0","","-21.8","","86","","0.2","","","M","2","","","","101.44","","","","-22","","NA"
"-100.27","70.63","GATESHEAD ISLAND","2402332","2021-11-18 11:00","2021","11","18","11:00","-18.5","","-20.1","","87","","0.2","","","M","1","","","","101.37","","","","-19","","NA"
"-100.27","70.63","GATESHEAD ISLAND","2402332","2021-11-18 12:00","2021","11","18","12:00","-18.1","","-19.7","","87","","0.3","","","M","0","","","","101.31","","","","","","NA"
"-100.27","70.63","GATESHEAD ISLAND","2402332","2021-11-18 13:00","2021","11","18","13:00","-17.5","","-19.1","","88","","0.2","","","M","5","","","","101.26","","","","-21","","NA"
"-100.27","70.63","GATESHEAD ISLAND","2402332","2021-11-18 14:00","2021","11","18","14:00","-15.7","","-17.0","","89","","0.0","","","M","14","","","","101.19","","","","-23","","NA"
"-100.27","70.63","GATESHEAD ISLAND","2402332","2021-11-18 15:00","2021","11","18","15:00","-16.2","","-17.6","","89","","0.0","","","M","13","","","","101.10","","","","-24","","NA"
"-100.27","70.63","GATESHEAD ISLAND","2402332","2021-11-18 16:00","2021","11","18","16:00","-15.7","","-17.1","","89","","0.0","","","M","18","","","","101.02","","","","-25","","NA"
"-100.27","70.63","GATESHEAD ISLAND","2402332","2021-11-18 17:00","2021","11","18","17:00","-16.3","","-17.7","","89","","0.0","","","M","22","","","","100.93","","","","-26","","NA"
"-100.27","70.63","GATESHEAD ISLAND","2402332","2021-11-18 18:00","2021","11","18","18:00","-16.5","","-18.0","","88","","0.0","","","M","20","","","","100.84","","","","-26","","NA"
"-100.27","70.63","GATESHEAD ISLAND","2402332","2021-11-18 19:00","2021","11","18","19:00","-16.4","","-17.9","","88","","0.0","","","M","22","","","","100.74","","","","-26","","NA"
"-100.27","70.63","GATESHEAD ISLAND","2402332","2021-11-18 20:00","2021","11","18","20:00","-16.5","","-17.9","","89","","0.0","","","M","24","","","","100.63","","","","-27","","NA"
"-100.27","70.63","GATESHEAD ISLAND","2402332","2021-11-18 21:00","2021","11","18","21:00","-16.5","","-17.9","","89","","0.0","","","M","22","","","","100.53","","","","-27","","NA"
"-100.27","70.63","GATESHEAD ISLAND","2402332","2021-11-18 22:00","2021","11","18","22:00","-16.0","","-17.5","","89","","0.0","","","M","20","","","","100.43","","","","-25","","NA"
"-100.27","70.63","GATESHEAD ISLAND","2402332","2021-11-18 23:00","2021","11","18","23:00","-15.9","","-17.4","","89","","0.0","","","M","22","","","","100.34","","","","-26","","NA"
"-100.27","70.63","GATESHEAD ISLAND","2402332","2021-11-19 00:00","2021","11","19","00:00","-17.3","","-18.8","","88","","0.0","","","M","15","","","","100.33","","","","-26","","NA"
"-100.27","70.63","GATESHEAD ISLAND","2402332","2021-11-19 01:00","2021","11","19","01:00","-14.9","","-16.2","","90","","0.0","","","M","11","","","","100.28","","","","-21","","NA"
"-100.27","70.63","GATESHEAD ISLAND","2402332","2021-11-19 02:00","2021","11","19","02:00","-15.7","","-17.2","","89","","0.3","","","M","3","","","","100.30","","","","-18","","NA"
"-100.27","70.63","GATESHEAD ISLAND","2402332","2021-11-19 03:00","2021","11","19","03:00","-17.4","","-19.0","","88","","0.0","","","M","3","","","","100.32","","","","-20","","NA"
"-100.27","70.63","GATESHEAD ISLAND","2402332","2021-11-19 04:00","2021","11","19","04:00","-21.5","","-23.5","","84","","0.0","","","M","3","","","","100.38","","","","-24","","NA"
"-100.27","70.63","GATESHEAD ISLAND","2402332","2021-11-19 05:00","2021","11","19","05:00","-23.3","","-25.4","","83","","0.0","","","M","3","","","","100.43","","","","-26","","NA"
"-100.27","70.63","GATESHEAD ISLAND","2402332","2021-11-19 06:00","2021","11","19","06:00","-24.0","","-26.2","","82","","0.0","","","M","2","","","","100.50","","","","-26","","NA"
"-100.27","70.63","GATESHEAD ISLAND","2402332","2021-11-19 07:00","2021","11","19","07:00","-24.7","","-26.9","","82","","0.0","","","M","1","","","","100.54","","","","-26","","NA"
"-100.27","70.63","GATESHEAD ISLAND","2402332","2021-11-19 08:00","2021","11","19","08:00","-25.5","","-27.8","","81","","0.0","","","M","1","","","","100.57","","","","-27","","NA"
"-100.27","70.63","GATESHEAD ISLAND","2402332","2021-11-19 09:00","2021","11","19","09:00","-24.7","","-26.9","","82","","0.0","","","M","1","","","","100.61","","","","-26","","NA"
"-100.27","70.63","GATESHEAD ISLAND","2402332","2021-11-19 10:00","2021","11","19","10:00","-25.3","","-27.6","","81","","0.0","","","M","0","","","","100.67","","","","","","NA"
"-100.27","70.63","GATESHEAD ISLAND","2402332","2021-11-19 11:00","2021","11","19","11:00","-25.1","","-27.4","","81","","0.0","","","M","3","","","","100.69","","","","-28","","NA"
"-100.27","70.63","GATESHEAD ISLAND","2402332","2021-11-19 12:00","2021","11","19","12:00","-24.9","","-27.1","","82","","0.0","","","M","4","","","","100.71","","","","-29","","NA"
"-100.27","70.63","GATESHEAD ISLAND","2402332","2021-11-19 13:00","2021","11","19","13:00","-24.2","","-26.4","","82","","0.0","","","M","7","","","","100.76","","","","-31","","NA"
"-100.27","70.63","GATESHEAD ISLAND","2402332","2021-11-19 14:00","2021","11","19","14:00","-24.7","","-27.0","","82","","0.0","","","M","4","","","","100.76","","","","-29","","NA"
"-100.27","70.63","GATESHEAD ISLAND","2402332","2021-11-19 15:00","2021","11","19","15:00","-25.3","","-27.6","","81","","0.0","","","M","2","","","","100.82","","","","-27","","NA"
"-100.27","70.63","GATESHEAD ISLAND","2402332","2021-11-19 16:00","2021","11","19","16:00","-24.3","","-26.5","","82","","0.0","","","M","8","","","","100.82","","","","-31","","NA"
"-100.27","70.63","GATESHEAD ISLAND","2402332","2021-11-19 17:00","2021","11","19","17:00","-23.4","","-25.5","","83","","0.0","","","M","5","","","","100.83","","","","-28","","NA"
"-100.27","70.63","GATESHEAD ISLAND","2402332","2021-11-19 18:00","2021","11","19","18:00","-22.8","","-24.9","","83","","0.0","","","M","6","","","","100.80","","","","-28","","NA"
"-100.27","70.63","GATESHEAD ISLAND","2402332","2021-11-19 19:00","2021","11","19","19:00","-22.4","","-24.5","","83","","0.0","","","M","7","","","","100.79","","","","-28","","NA"
"-100.27","70.63","GATESHEAD ISLAND","2402332","2021-11-19 20:00","2021","11","19","20:00","-21.1","","-23.0","","85","","0.2","","","M","8","","","","100.76","","","","-28","","NA"
"-100.27","70.63","GATESHEAD ISLAND","2402332","2021-11-19 21:00","2021","11","19","21:00","-20.6","","-22.5","","85","","0.2","","","M","9","","","","100.76","","","","-27","","NA"
"-100.27","70.63","GATESHEAD ISLAND","2402332","2021-11-19 22:00","2021","11","19","22:00","-20.1","","-21.9","","85","","0.2","","","M","6","","","","100.76","","","","-25","","NA"
"-100.27","70.63","GATESHEAD ISLAND","2402332","2021-11-19 23:00","2021","11","19","23:00","-20.2","","-22.0","","85","","0.0","","","M","7","","","","100.76","","","","-26","","NA"
"-100.27","70.63","GATESHEAD ISLAND","2402332","2021-11-20 00:00","2021","11","20","00:00","-18.7","","-20.4","","87","","0.3","","","M","8","","","","100.75","","","","-25","","NA"
"-100.27","70.63","GATESHEAD ISLAND","2402332","2021-11-20 01:00","2021","11","20","01:00","-18.2","","-19.9","","87","","0.2","","","M","6","","","","100.76","","","","-23","","NA"
"-100.27","70.63","GATESHEAD ISLAND","2402332","2021-11-20 02:00","2021","11","20","02:00","-18.6","","-20.3","","87","","0.0","","","M","3","","","","100.77","","","","-21","","NA"
"-100.27","70.63","GATESHEAD ISLAND","2402332","2021-11-20 03:00","2021","11","20","03:00","-19.1","","-20.8","","86","","0.0","","","M","3","","","","100.78","","","","-22","","NA"
"-100.27","70.63","GATESHEAD ISLAND","2402332","2021-11-20 04:00","2021","11","20","04:00","-19.4","","-21.1","","86","","0.0","","","M","2","","","","100.78","","","","-21","","NA"
"-100.27","70.63","GATESHEAD ISLAND","2402332","2021-11-20 05:00","2021","11","20","05:00","-19.7","","-21.5","","86","","0.0","","","M","2","","","","100.78","","","","-21","","NA"
"-100.27","70.63","GATESHEAD ISLAND","2402332","2021-11-20 06:00","2021","11","20","06:00","-20.7","","-22.6","","85","","0.0","","","M","1","","","","100.80","","","","-22","","NA"
"-100.27","70.63","GATESHEAD ISLAND","2402332","2021-11-20 07:00","2021","11","20","07:00","-23.4","","-25.5","","83","","0.0","","","M","4","","","","100.84","","","","-27","","NA"
"-100.27","70.63","GATESHEAD ISLAND","2402332","2021-11-20 08:00","2021","11","20","08:00","-25.4","","-27.7","","81","","0.0","","","M","3","","","","100.89","","","","-28","","NA"
"-100.27","70.63","GATESHEAD ISLAND","2402332","2021-11-20 09:00","2021","11","20","09:00","-27.2","","-29.7","","79","","0.0","","","M","5","","","","100.91","","","","-32","","NA"
"-100.27","70.63","GATESHEAD ISLAND","2402332","2021-11-20 10:00","2021","11","20","10:00","-28.4","","-31.0","","78","","0.3","","","M","4","","","","100.96","","","","-33","","NA"
"-100.27","70.63","GATESHEAD ISLAND","2402332","2021-11-20 11:00","2021","11","20","11:00","-29.0","","-31.7","","78","","0.0","","","M","3","","","","100.98","","","","-32","","NA"
"-100.27","70.63","GATESHEAD ISLAND","2402332","2021-11-20 12:00","2021","11","20","12:00","-29.9","","-32.6","","77","","0.0","","","M","4","","","","101.01","","","","-34","","NA"
"-100.27","70.63","GATESHEAD ISLAND","2402332","2021-11-20 13:00","2021","11","20","13:00","-29.9","","-32.7","","77","","0.0","","","M","3","","","","101.08","","","","-33","","NA"
"-100.27","70.63","GATESHEAD ISLAND","2402332","2021-11-20 14:00","2021","11","20","14:00","-30.3","","-33.1","","76","","0.0","","","M","2","","","","101.14","","","","-33","","NA"
"-100.27","70.63","GATESHEAD ISLAND","2402332","2021-11-20 15:00","2021","11","20","15:00","-30.1","","-32.9","","76","","0.0","","","M","2","","","","101.18","","","","-32","","NA"
"-100.27","70.63","GATESHEAD ISLAND","2402332","2021-11-20 16:00","2021","11","20","16:00","-30.3","","-33.1","","76","","0.0","","","M","1","","","","101.23","","","","-31","","NA"
"-100.27","70.63","GATESHEAD ISLAND","2402332","2021-11-20 17:00","2021","11","20","17:00","-30.7","","-33.6","","76","","0.0","","","M","1","","","","101.23","","","","-32","","NA"
"-100.27","70.63","GATESHEAD ISLAND","2402332","2021-11-20 18:00","2021","11","20","18:00","-31.0","","-33.8","","76","","0.0","","","M","1","","","","101.28","","","","-32","","NA"
"-100.27","70.63","GATESHEAD ISLAND","2402332","2021-11-20 19:00","2021","11","20","19:00","-30.7","","-33.5","","76","","0.0","","","M","1","","","","101.29","","","","-32","","NA"
"-100.27","70.63","GATESHEAD ISLAND","2402332","2021-11-20 20:00","2021","11","20","20:00","-29.8","","-32.6","","77","","0.0","","","M","2","","","","101.33","","","","-32","","NA"
"-100.27","70.63","GATESHEAD ISLAND","2402332","2021-11-20 21:00","2021","11","20","21:00","-30.3","","-33.1","","76","","0.0","","","M","3","","","","101.35","","","","-34","","NA"
"-100.27","70.63","GATESHEAD ISLAND","2402332","2021-11-20 22:00","2021","11","20","22:00","-29.3","","-32.0","","78","","0.0","","","M","6","","","","101.37","","","","-36","","NA"
"-100.27","70.63","GATESHEAD ISLAND","2402332","2021-11-20 23:00","2021","11","20","23:00","-28.5","","-31.2","","78","","0.0","","","M","5","","","","101.40","","","","-34","","NA"
"-100.27","70.63","GATESHEAD ISLAND","2402332","2021-11-21 00:00","2021","11","21","00:00","-27.6","","-30.2","","79","","0.0","","","M","8","","","","101.43","","","","-35","","NA"
"-100.27","70.63","GATESHEAD ISLAND","2402332","2021-11-21 01:00","2021","11","21","01:00","-26.8","","-29.3","","79","","0.0","","","M","8","","","","101.44","","","","-34","","NA"
"-100.27","70.63","GATESHEAD ISLAND","2402332","2021-11-21 02:00","2021","11","21","02:00","-26.0","","-28.4","","80","","0.0","","","M","7","","","","101.45","","","","-33","","NA"
"-100.27","70.63","GATESHEAD ISLAND","2402332","2021-11-21 03:00","2021","11","21","03:00","-25.1","","-27.4","","81","","0.0","","","M","8","","","","101.45","","","","-32","","NA"
"-100.27","70.63","GATESHEAD ISLAND","2402332","2021-11-21 04:00","2021","11","21","04:00","-25.1","","-27.4","","81","","0.2","","","M","4","","","","101.49","","","","-29","","NA"
"-100.27","70.63","GATESHEAD ISLAND","2402332","2021-11-21 05:00","2021","11","21","05:00","-25.5","","-27.8","","81","","0.0","","","M","6","","","","101.49","","","","-31","","NA"
"-100.27","70.63","GATESHEAD ISLAND","2402332","2021-11-21 06:00","2021","11","21","06:00","-24.5","","-26.8","","81","","0.0","","","M","4","","","","101.52","","","","-28","","NA"
"-100.27","70.63","GATESHEAD ISLAND","2402332","2021-11-21 07:00","2021","11","21","07:00","-23.6","","-25.8","","82","","0.3","","","M","5","","","","101.54","","","","-28","","NA"
"-100.27","70.63","GATESHEAD ISLAND","2402332","2021-11-21 08:00","2021","11","21","08:00","-23.1","","-25.2","","83","","0.2","","","M","7","","","","101.53","","","","-29","","NA"
"-100.27","70.63","GATESHEAD ISLAND","2402332","2021-11-21 09:00","2021","11","21","09:00","-23.6","","-25.8","","82","","0.0","","","M","4","","","","101.54","","","","-27","","NA"
"-100.27","70.63","GATESHEAD ISLAND","2402332","2021-11-21 10:00","2021","11","21","10:00","-23.2","","-25.3","","83","","0.0","","","M","4","","","","101.53","","","","-27","","NA"
"-100.27","70.63","GATESHEAD ISLAND","2402332","2021-11-21 11:00","2021","11","21","11:00","-23.2","","-25.3","","83","","0.0","","","M","2","","","","101.54","","","","-25","","NA"
"-100.27","70.63","GATESHEAD ISLAND","2402332","2021-11-21 12:00","2021","11","21","12:00","-23.1","","-25.3","","83","","0.0","","","M","4","","","","101.56","","","","-27","","NA"
"-100.27","70.63","GATESHEAD ISLAND","2402332","2021-11-21 13:00","2021","11","21","13:00","-22.7","","-24.8","","83","","0.2","","","M","2","","","","101.57","","","","-25","","NA"
"-100.27","70.63","GATESHEAD ISLAND","2402332","2021-11-21 14:00","2021","11","21","14:00","-22.7","","-24.8","","83","","0.0","","","M","0","","","","101.60","","","","","","NA"
"-100.27","70.63","GATESHEAD ISLAND","2402332","2021-11-21 15:00","2021","11","21","15:00","-22.9","","-25.0","","82","","0.0","","","M","0","","","","101.62","","","","","","NA"
"-100.27","70.63","GATESHEAD ISLAND","2402332","2021-11-21 16:00","2021","11","21","16:00","-21.8","","-24.0","","83","","0.0","","","M","1","","","","101.63","","","","-23","","NA"
"-100.27","70.63","GATESHEAD ISLAND","2402332","2021-11-21 17:00","2021","11","21","17:00","-21.8","","-23.8","","83","","0.2","","","M","3","","","","101.63","","","","-25","","NA"
"-100.27","70.63","GATESHEAD ISLAND","2402332","2021-11-21 18:00","2021","11","21","18:00","-21.7","","-23.8","","83","","0.0","","","M","2","","","","101.62","","","","-24","","NA"
"-100.27","70.63","GATESHEAD ISLAND","2402332","2021-11-21 19:00","2021","11","21","19:00","-21.7","","-23.8","","84","","0.0","","","M","4","","","","101.62","","","","-25","","NA"
"-100.27","70.63","GATESHEAD ISLAND","2402332","2021-11-21 20:00","2021","11","21","20:00","-22.1","","-24.2","","83","","0.0","","","M","3","","","","101.61","","","","-25","","NA"
"-100.27","70.63","GATESHEAD ISLAND","2402332","2021-11-21 21:00","2021","11","21","21:00","-22.7","","-24.8","","83","","0.0","","","M","2","","","","101.63","","","","-25","","NA"
"-100.27","70.63","GATESHEAD ISLAND","2402332","2021-11-21 22:00","2021","11","21","22:00","-23.3","","-25.5","","82","","0.0","","","M","3","","","","101.64","","","","-26","","NA"
"-100.27","70.63","GATESHEAD ISLAND","2402332","2021-11-21 23:00","2021","11","21","23:00","-23.9","","-26.2","","82","","0.0","","","M","5","","","","101.67","","","","-29","","NA"
"-100.27","70.63","GATESHEAD ISLAND","2402332","2021-11-22 00:00","2021","11","22","00:00","-24.1","","-26.4","","82","","0.0","","","M","4","","","","101.67","","","","-28","","NA"
"-100.27","70.63","GATESHEAD ISLAND","2402332","2021-11-22 01:00","2021","11","22","01:00","-24.2","","-26.4","","82","","0.0","","","M","3","","","","101.71","","","","-27","","NA"
"-100.27","70.63","GATESHEAD ISLAND","2402332","2021-11-22 02:00","2021","11","22","02:00","-25.0","","-27.2","","81","","0.0","","","M","1","","","","101.70","","","","-26","","NA"
"-100.27","70.63","GATESHEAD ISLAND","2402332","2021-11-22 03:00","2021","11","22","03:00","-26.3","","-28.7","","80","","0.0","","","M","1","","","","101.72","","","","-27","","NA"
"-100.27","70.63","GATESHEAD ISLAND","2402332","2021-11-22 04:00","2021","11","22","04:00","-26.4","","-28.8","","80","","0.0","","","M","1","","","","101.71","","","","-27","","NA"
"-100.27","70.63","GATESHEAD ISLAND","2402332","2021-11-22 05:00","2021","11","22","05:00","-26.7","","-29.1","","80","","0.0","","","M","2","","","","101.72","","","","-29","","NA"
"-100.27","70.63","GATESHEAD ISLAND","2402332","2021-11-22 06:00","2021","11","22","06:00","-26.4","","-28.8","","80","","0.0","","","M","2","","","","101.71","","","","-28","","NA"
"-100.27","70.63","GATESHEAD ISLAND","2402332","2021-11-22 07:00","2021","11","22","07:00","-27.1","","-29.6","","79","","0.0","","","M","1","","","","101.74","","","","-28","","NA"
"-100.27","70.63","GATESHEAD ISLAND","2402332","2021-11-22 08:00","2021","11","22","08:00","-26.9","","-29.4","","79","","0.0","","","M","2","","","","101.73","","","","-29","","NA"
"-100.27","70.63","GATESHEAD ISLAND","2402332","2021-11-22 09:00","2021","11","22","09:00","-26.4","","-28.8","","80","","0.0","","","M","1","","","","101.73","","","","-27","","NA"
"-100.27","70.63","GATESHEAD ISLAND","2402332","2021-11-22 10:00","2021","11","22","10:00","-26.2","","-28.6","","80","","0.0","","","M","0","","","","101.71","","","","","","NA"
"-100.27","70.63","GATESHEAD ISLAND","2402332","2021-11-22 11:00","2021","11","22","11:00","-25.8","","-28.2","","80","","0.0","","","M","2","","","","101.72","","","","-28","","NA"
"-100.27","70.63","GATESHEAD ISLAND","2402332","2021-11-22 12:00","2021","11","22","12:00","-25.5","","-27.8","","81","","0.0","","","M","2","","","","101.74","","","","-28","","NA"
"-100.27","70.63","GATESHEAD ISLAND","2402332","2021-11-22 13:00","2021","11","22","13:00","-25.5","","-27.9","","81","","0.0","","","M","2","","","","101.74","","","","-28","","NA"
"-100.27","70.63","GATESHEAD ISLAND","2402332","2021-11-22 14:00","2021","11","22","14:00","-24.6","","-26.9","","81","","0.0","","","M","2","","","","101.75","","","","-27","","NA"
"-100.27","70.63","GATESHEAD ISLAND","2402332","2021-11-22 15:00","2021","11","22","15:00","-25.0","","-27.3","","81","","0.0","","","M","5","","","","101.73","","","","-30","","NA"
"-100.27","70.63","GATESHEAD ISLAND","2402332","2021-11-22 16:00","2021","11","22","16:00","-25.5","","-27.9","","81","","0.0","","","M","4","","","","101.73","","","","-30","","NA"
"-100.27","70.63","GATESHEAD ISLAND","2402332","2021-11-22 17:00","2021","11","22","17:00","-24.9","","-27.2","","81","","0.0","","","M","3","","","","101.72","","","","-28","","NA"
"-100.27","70.63","GATESHEAD ISLAND","2402332","2021-11-22 18:00","2021","11","22","18:00","-24.6","","-26.9","","82","","0.0","","","M","3","","","","101.66","","","","-28","","NA"
"-100.27","70.63","GATESHEAD ISLAND","2402332","2021-11-22 19:00","2021","11","22","19:00","-24.4","","-26.6","","82","","0.0","","","M","2","","","","101.63","","","","-26","","NA"
"-100.27","70.63","GATESHEAD ISLAND","2402332","2021-11-22 20:00","2021","11","22","20:00","-24.0","","-26.2","","82","","0.0","","","M","1","","","","101.63","","","","-25","","NA"
"-100.27","70.63","GATESHEAD ISLAND","2402332","2021-11-22 21:00","2021","11","22","21:00","-23.3","","-25.5","","83","","0.0","","","M","1","","","","101.62","","","","-24","","NA"
"-100.27","70.63","GATESHEAD ISLAND","2402332","2021-11-22 22:00","2021","11","22","22:00","-22.7","","-24.7","","83","","0.0","","","M","1","","","","101.61","","","","-24","","NA"
"-100.27","70.63","GATESHEAD ISLAND","2402332","2021-11-22 23:00","2021","11","22","23:00","-22.2","","-24.2","","84","","0.0","","","M","1","","","","101.60","","","","-23","","NA"
"-100.27","70.63","GATESHEAD ISLAND","2402332","2021-11-23 00:00","2021","11","23","00:00","-21.5","","-23.5","","84","","0.0","","","M","1","","","","101.58","","","","-22","","NA"
"-100.27","70.63","GATESHEAD ISLAND","2402332","2021-11-23 01:00","2021","11","23","01:00","-21.5","","-23.4","","84","","0.0","","","M","2","","","","101.57","","","","-23","","NA"
"-100.27","70.63","GATESHEAD ISLAND","2402332","2021-11-23 02:00","2021","11","23","02:00","-19.8","","-21.6","","86","","0.0","","","M","1","","","","101.57","","","","-21","","NA"
"-100.27","70.63","GATESHEAD ISLAND","2402332","2021-11-23 03:00","2021","11","23","03:00","-18.7","","-20.4","","86","","0.0","","","M","1","","","","101.56","","","","-20","","NA"
"-100.27","70.63","GATESHEAD ISLAND","2402332","2021-11-23 04:00","2021","11","23","04:00","-17.5","","-19.1","","87","","0.0","","","M","3","","","","101.54","","","","-20","","NA"
"-100.27","70.63","GATESHEAD ISLAND","2402332","2021-11-23 05:00","2021","11","23","05:00","-17.9","","-19.5","","87","","0.0","","","M","2","","","","101.53","","","","-19","","NA"
"-100.27","70.63","GATESHEAD ISLAND","2402332","2021-11-23 06:00","2021","11","23","06:00","-18.2","","-19.8","","87","","0.0","","","M","1","","","","101.50","","","","-19","","NA"
"-100.27","70.63","GATESHEAD ISLAND","2402332","2021-11-23 07:00","2021","11","23","07:00","-18.3","","-19.9","","87","","0.0","","","M","1","","","","101.46","","","","-19","","NA"
"-100.27","70.63","GATESHEAD ISLAND","2402332","2021-11-23 08:00","2021","11","23","08:00","-18.4","","-20.0","","87","","0.0","","","M","1","","","","101.40","","","","-19","","NA"
"-100.27","70.63","GATESHEAD ISLAND","2402332","2021-11-23 09:00","2021","11","23","09:00","-18.0","","-19.6","","87","","0.0","","","M","2","","","","101.38","","","","-20","","NA"
"-100.27","70.63","GATESHEAD ISLAND","2402332","2021-11-23 10:00","2021","11","23","10:00","-17.0","","-18.5","","88","","0.0","","","M","5","","","","101.37","","","","-21","","NA"
"-100.27","70.63","GATESHEAD ISLAND","2402332","2021-11-23 11:00","2021","11","23","11:00","-16.5","","-18.0","","88","","0.0","","","M","3","","","","101.35","","","","-19","","NA"
"-100.27","70.63","GATESHEAD ISLAND","2402332","2021-11-23 12:00","2021","11","23","12:00","-16.4","","-17.9","","88","","0.0","","","M","3","","","","101.29","","","","-19","","NA"
"-100.27","70.63","GATESHEAD ISLAND","2402332","2021-11-23 13:00","2021","11","23","13:00","-16.7","","-18.2","","88","","0.0","","","M","2","","","","101.29","","","","-18","","NA"
"-100.27","70.63","GATESHEAD ISLAND","2402332","2021-11-23 14:00","2021","11","23","14:00","-17.1","","-18.6","","88","","0.0","","","M","3","","","","101.27","","","","-19","","NA"
"-100.27","70.63","GATESHEAD ISLAND","2402332","2021-11-23 15:00","2021","11","23","15:00","-17.2","","-18.7","","88","","0.0","","","M","1","","","","101.24","","","","-18","","NA"
"-100.27","70.63","GATESHEAD ISLAND","2402332","2021-11-23 16:00","2021","11","23","16:00","-16.9","","-18.4","","88","","0.0","","","M","3","","","","101.23","","","","-19","","NA"
"-100.27","70.63","GATESHEAD ISLAND","2402332","2021-11-23 17:00","2021","11","23","17:00","-17.1","","-18.6","","88","","0.0","","","M","2","","","","101.18","","","","-19","","NA"
"-100.27","70.63","GATESHEAD ISLAND","2402332","2021-11-23 18:00","2021","11","23","18:00","-17.4","","-18.9","","88","","0.0","","","M","2","","","","101.12","","","","-19","","NA"
"-100.27","70.63","GATESHEAD ISLAND","2402332","2021-11-23 19:00","2021","11","23","19:00","-17.1","","-18.7","","88","","0.0","","","M","2","","","","101.07","","","","-19","","NA"
"-100.27","70.63","GATESHEAD ISLAND","2402332","2021-11-23 20:00","2021","11","23","20:00","-17.4","","-19.0","","88","","0.0","","","M","1","","","","101.05","","","","-18","","NA"
"-100.27","70.63","GATESHEAD ISLAND","2402332","2021-11-23 21:00","2021","11","23","21:00","-17.1","","-18.7","","88","","0.0","","","M","4","","","","101.02","","","","-20","","NA"
"-100.27","70.63","GATESHEAD ISLAND","2402332","2021-11-23 22:00","2021","11","23","22:00","-16.4","","-17.9","","88","","0.0","","","M","2","","","","101.03","","","","-18","","NA"
"-100.27","70.63","GATESHEAD ISLAND","2402332","2021-11-23 23:00","2021","11","23","23:00","-16.1","","-17.5","","89","","0.0","","","M","2","","","","101.04","","","","-18","","NA"
"-100.27","70.63","GATESHEAD ISLAND","2402332","2021-11-24 00:00","2021","11","24","00:00","-15.6","","-17.0","","89","","0.0","","","M","2","","","","101.02","","","","-17","","NA"
"-100.27","70.63","GATESHEAD ISLAND","2402332","2021-11-24 01:00","2021","11","24","01:00","-15.6","","-16.9","","89","","0.0","","","M","2","","","","101.05","","","","-17","","NA"
"-100.27","70.63","GATESHEAD ISLAND","2402332","2021-11-24 02:00","2021","11","24","02:00","-15.5","","-16.8","","89","","0.0","","","M","2","","","","101.08","","","","-17","","NA"
"-100.27","70.63","GATESHEAD ISLAND","2402332","2021-11-24 03:00","2021","11","24","03:00","-15.4","","-16.7","","89","","0.0","","","M","2","","","","101.07","","","","-17","","NA"
"-100.27","70.63","GATESHEAD ISLAND","2402332","2021-11-24 04:00","2021","11","24","04:00","-16.2","","-17.7","","89","","0.0","","","M","4","","","","101.08","","","","-19","","NA"
"-100.27","70.63","GATESHEAD ISLAND","2402332","2021-11-24 05:00","2021","11","24","05:00","-16.8","","-18.2","","88","","0.0","","","M","3","","","","101.08","","","","-19","","NA"
"-100.27","70.63","GATESHEAD ISLAND","2402332","2021-11-24 06:00","2021","11","24","06:00","-16.7","","-18.2","","88","","0.0","","","M","4","","","","101.13","","","","-20","","NA"
"-100.27","70.63","GATESHEAD ISLAND","2402332","2021-11-24 07:00","2021","11","24","07:00","-15.2","","-16.5","","90","","0.0","","","M","5","","","","101.14","","","","-19","","NA"
"-100.27","70.63","GATESHEAD ISLAND","2402332","2021-11-24 08:00","2021","11","24","08:00","-16.3","","-17.8","","88","","0.0","","","M","4","","","","101.17","","","","-19","","NA"
"-100.27","70.63","GATESHEAD ISLAND","2402332","2021-11-24 09:00","2021","11","24","09:00","-17.1","","-18.6","","88","","0.0","","","M","5","","","","101.21","","","","-21","","NA"
"-100.27","70.63","GATESHEAD ISLAND","2402332","2021-11-24 10:00","2021","11","24","10:00","-17.3","","-18.8","","88","","0.0","","","M","4","","","","101.25","","","","-20","","NA"
"-100.27","70.63","GATESHEAD ISLAND","2402332","2021-11-24 11:00","2021","11","24","11:00","-17.7","","-19.3","","87","","0.0","","","M","7","","","","101.32","","","","-23","","NA"
"-100.27","70.63","GATESHEAD ISLAND","2402332","2021-11-24 12:00","2021","11","24","12:00","-17.9","","-19.5","","87","","0.0","","","M","5","","","","101.37","","","","-22","","NA"
"-100.27","70.63","GATESHEAD ISLAND","2402332","2021-11-24 13:00","2021","11","24","13:00","-18.7","","-20.4","","87","","0.0","","","M","11","","","","101.40","","","","-26","","NA"
"-100.27","70.63","GATESHEAD ISLAND","2402332","2021-11-24 14:00","2021","11","24","14:00","-19.7","","-21.4","","86","","0.0","","","M","12","","","","101.46","","","","-28","","NA"
"-100.27","70.63","GATESHEAD ISLAND","2402332","2021-11-24 15:00","2021","11","24","15:00","-21.0","","-22.9","","85","","0.0","","","M","11","","","","101.49","","","","-29","","NA"
"-100.27","70.63","GATESHEAD ISLAND","2402332","2021-11-24 16:00","2021","11","24","16:00","-21.2","","-23.1","","85","","0.0","","","M","7","","","","101.56","","","","-27","","NA"
"-100.27","70.63","GATESHEAD ISLAND","2402332","2021-11-24 17:00","2021","11","24","17:00","-21.3","","-23.2","","85","","0.0","","","M","8","","","","101.59","","","","-28","","NA"
"-100.27","70.63","GATESHEAD ISLAND","2402332","2021-11-24 18:00","2021","11","24","18:00","-21.6","","-23.6","","84","","0.0","","","M","4","","","","101.63","","","","-25","","NA"
"-100.27","70.63","GATESHEAD ISLAND","2402332","2021-11-24 19:00","2021","11","24","19:00","-22.2","","-24.2","","84","","0.0","","","M","6","","","","101.63","","","","-28","","NA"
"-100.27","70.63","GATESHEAD ISLAND","2402332","2021-11-24 20:00","2021","11","24","20:00","-22.6","","-24.7","","83","","0.0","","","M","3","","","","101.67","","","","-25","","NA"
"-100.27","70.63","GATESHEAD ISLAND","2402332","2021-11-24 21:00","2021","11","24","21:00","-22.5","","-24.5","","84","","0.0","","","M","4","","","","101.67","","","","-26","","NA"
"-100.27","70.63","GATESHEAD ISLAND","2402332","2021-11-24 22:00","2021","11","24","22:00","-22.5","","-24.6","","83","","0.0","","","M","1","","","","101.74","","","","-23","","NA"
"-100.27","70.63","GATESHEAD ISLAND","2402332","2021-11-24 23:00","2021","11","24","23:00","-23.1","","-25.1","","83","","0.0","","","M","2","","","","101.76","","","","-25","","NA"
"-100.27","70.63","GATESHEAD ISLAND","2402332","2021-11-25 00:00","2021","11","25","00:00","-22.5","","-24.5","","84","","0.0","","","M","4","","","","101.80","","","","-26","","NA"
"-100.27","70.63","GATESHEAD ISLAND","2402332","2021-11-25 01:00","2021","11","25","01:00","-22.3","","-24.3","","84","","0.0","","","M","3","","","","101.81","","","","-25","","NA"
"-100.27","70.63","GATESHEAD ISLAND","2402332","2021-11-25 02:00","2021","11","25","02:00","-22.6","","-24.7","","83","","0.0","","","M","4","","","","101.83","","","","-26","","NA"
"-100.27","70.63","GATESHEAD ISLAND","2402332","2021-11-25 03:00","2021","11","25","03:00","-23.1","","-25.2","","83","","0.0","","","M","4","","","","101.81","","","","-27","","NA"
"-100.27","70.63","GATESHEAD ISLAND","2402332","2021-11-25 04:00","2021","11","25","04:00","-23.5","","-25.6","","83","","0.0","","","M","3","","","","101.80","","","","-26","","NA"
"-100.27","70.63","GATESHEAD ISLAND","2402332","2021-11-25 05:00","2021","11","25","05:00","-23.6","","-25.7","","83","","0.0","","","M","3","","","","101.79","","","","-26","","NA"
"-100.27","70.63","GATESHEAD ISLAND","2402332","2021-11-25 06:00","2021","11","25","06:00","-23.9","","-26.1","","82","","0.0","","","M","2","","","","101.78","","","","-26","","NA"
"-100.27","70.63","GATESHEAD ISLAND","2402332","2021-11-25 07:00","2021","11","25","07:00","-24.2","","-26.4","","82","","0.0","","","M","6","","","","101.77","","","","-30","","NA"
"-100.27","70.63","GATESHEAD ISLAND","2402332","2021-11-25 08:00","2021","11","25","08:00","-24.7","","-26.9","","82","","0.0","","","M","6","","","","101.80","","","","-30","","NA"
"-100.27","70.63","GATESHEAD ISLAND","2402332","2021-11-25 09:00","2021","11","25","09:00","-24.4","","-26.6","","82","","0.0","","","M","5","","","","101.81","","","","-29","","NA"
"-100.27","70.63","GATESHEAD ISLAND","2402332","2021-11-25 10:00","2021","11","25","10:00","-24.3","","-26.5","","82","","0.0","","","M","6","","","","101.81","","","","-30","","NA"
"-100.27","70.63","GATESHEAD ISLAND","2402332","2021-11-25 11:00","2021","11","25","11:00","-24.5","","-26.8","","82","","0.0","","","M","6","","","","101.81","","","","-30","","NA"
"-100.27","70.63","GATESHEAD ISLAND","2402332","2021-11-25 12:00","2021","11","25","12:00","-24.5","","-26.8","","82","","0.0","","","M","7","","","","101.78","","","","-31","","NA"
"-100.27","70.63","GATESHEAD ISLAND","2402332","2021-11-25 13:00","2021","11","25","13:00","-24.6","","-26.8","","82","","0.0","","","M","4","","","","101.77","","","","-29","","NA"
"-100.27","70.63","GATESHEAD ISLAND","2402332","2021-11-25 14:00","2021","11","25","14:00","-24.8","","-27.1","","81","","0.0","","","M","3","","","","101.76","","","","-28","","NA"
"-100.27","70.63","GATESHEAD ISLAND","2402332","2021-11-25 15:00","2021","11","25","15:00","-25.4","","-27.7","","81","","0.0","","","M","3","","","","101.75","","","","-28","","NA"
"-100.27","70.63","GATESHEAD ISLAND","2402332","2021-11-25 16:00","2021","11","25","16:00","-25.9","","-28.3","","80","","0.0","","","M","6","","","","101.69","","","","-32","","NA"
"-100.27","70.63","GATESHEAD ISLAND","2402332","2021-11-25 17:00","2021","11","25","17:00","-26.1","","-28.5","","80","","0.0","","","M","5","","","","101.66","","","","-31","","NA"
"-100.27","70.63","GATESHEAD ISLAND","2402332","2021-11-25 18:00","2021","11","25","18:00","-26.2","","-28.6","","80","","0.0","","","M","8","","","","101.64","","","","-34","","NA"
"-100.27","70.63","GATESHEAD ISLAND","2402332","2021-11-25 19:00","2021","11","25","19:00","-26.3","","-28.7","","80","","0.0","","","M","7","","","","101.63","","","","-33","","NA"
"-100.27","70.63","GATESHEAD ISLAND","2402332","2021-11-25 20:00","2021","11","25","20:00"
"-100.27","70.63","GATESHEAD ISLAND","2402332","2021-11-25 21:00","2021","11","25","21:00","-26.3","","-28.8","","80","","0.0","","","M","3","","","","101.58","","","","-29","","NA"
"-100.27","70.63","GATESHEAD ISLAND","2402332","2021-11-25 22:00","2021","11","25","22:00","-26.1","","-28.6","","80","","0.0","","","M","4","","","","101.57","","","","-30","","NA"
"-100.27","70.63","GATESHEAD ISLAND","2402332","2021-11-25 23:00","2021","11","25","23:00","-26.2","","-28.6","","80","","0.0","","","M","4","","","","101.55","","","","-30","","NA"
"-100.27","70.63","GATESHEAD ISLAND","2402332","2021-11-26 00:00","2021","11","26","00:00","-26.4","","-28.9","","80","","0.0","","","M","6","","","","101.58","","","","-32","","NA"
"-100.27","70.63","GATESHEAD ISLAND","2402332","2021-11-26 01:00","2021","11","26","01:00","-26.3","","-28.7","","80","","0.0","","","M","5","","","","101.58","","","","-31","","NA"
"-100.27","70.63","GATESHEAD ISLAND","2402332","2021-11-26 02:00","2021","11","26","02:00","-26.0","","-28.4","","80","","0.0","","","M","2","","","","101.57","","","","-28","","NA"
"-100.27","70.63","GATESHEAD ISLAND","2402332","2021-11-26 03:00","2021","11","26","03:00","-26.1","","-28.5","","80","","0.0","","","M","3","","","","101.55","","","","-29","","NA"
"-100.27","70.63","GATESHEAD ISLAND","2402332","2021-11-26 04:00","2021","11","26","04:00","-25.9","","-28.3","","80","","0.0","","","M","2","","","","101.54","","","","-28","","NA"
"-100.27","70.63","GATESHEAD ISLAND","2402332","2021-11-26 05:00","2021","11","26","05:00","-26.0","","-28.4","","80","","0.0","","","M","3","","","","101.54","","","","-29","","NA"
"-100.27","70.63","GATESHEAD ISLAND","2402332","2021-11-26 06:00","2021","11","26","06:00","-26.2","","-28.6","","80","","0.0","","","M","2","","","","101.54","","","","-28","","NA"
"-100.27","70.63","GATESHEAD ISLAND","2402332","2021-11-26 07:00","2021","11","26","07:00","-26.5","","-29.0","","80","","0.0","","","M","1","","","","101.54","","","","-28","","NA"
"-100.27","70.63","GATESHEAD ISLAND","2402332","2021-11-26 08:00","2021","11","26","08:00","-26.5","","-28.9","","80","","0.0","","","M","1","","","","101.54","","","","-28","","NA"
"-100.27","70.63","GATESHEAD ISLAND","2402332","2021-11-26 09:00","2021","11","26","09:00","-26.6","","-29.1","","80","","0.0","","","M","1","","","","101.58","","","","-28","","NA"
"-100.27","70.63","GATESHEAD ISLAND","2402332","2021-11-26 10:00","2021","11","26","10:00","-26.4","","-28.9","","80","","0.0","","","M","1","","","","101.59","","","","-27","","NA"
"-100.27","70.63","GATESHEAD ISLAND","2402332","2021-11-26 11:00","2021","11","26","11:00","-26.1","","-28.6","","80","","0.0","","","M","2","","","","101.60","","","","-28","","NA"
"-100.27","70.63","GATESHEAD ISLAND","2402332","2021-11-26 12:00","2021","11","26","12:00","-25.6","","-28.1","","80","","0.0","","","M","2","","","","101.66","","","","-28","","NA"
"-100.27","70.63","GATESHEAD ISLAND","2402332","2021-11-26 13:00","2021","11","26","13:00","-25.5","","-27.9","","80","","0.0","","","M","3","","","","101.68","","","","-29","","NA"
"-100.27","70.63","GATESHEAD ISLAND","2402332","2021-11-26 14:00","2021","11","26","14:00","-25.3","","-27.7","","81","","0.0","","","M","1","","","","101.71","","","","-26","","NA"
"-100.27","70.63","GATESHEAD ISLAND","2402332","2021-11-26 15:00","2021","11","26","15:00","-25.2","","-27.6","","81","","0.0","","","M","5","","","","101.72","","","","-30","","NA"
"-100.27","70.63","GATESHEAD ISLAND","2402332","2021-11-26 16:00","2021","11","26","16:00","-24.8","","-27.1","","81","","0.0","","","M","7","","","","101.72","","","","-31","","NA"
"-100.27","70.63","GATESHEAD ISLAND","2402332","2021-11-26 17:00","2021","11","26","17:00","-24.5","","-26.8","","81","","0.0","","","M","8","","","","101.72","","","","-32","","NA"
"-100.27","70.63","GATESHEAD ISLAND","2402332","2021-11-26 18:00","2021","11","26","18:00","-23.7","","-26.0","","81","","0.0","","","M","10","","","","101.69","","","","-32","","NA"
"-100.27","70.63","GATESHEAD ISLAND","2402332","2021-11-26 19:00","2021","11","26","19:00","-22.4","","-24.6","","82","","0.0","","","M","10","","","","101.71","","","","-30","","NA"
"-100.27","70.63","GATESHEAD ISLAND","2402332","2021-11-26 20:00","2021","11","26","20:00","-22.7","","-24.8","","83","","0.0","","","M","10","","","","101.70","","","","-30","","NA"
"-100.27","70.63","GATESHEAD ISLAND","2402332","2021-11-26 21:00","2021","11","26","21:00","-22.5","","-24.6","","83","","0.0","","","M","10","","","","101.73","","","","-30","","NA"
"-100.27","70.63","GATESHEAD ISLAND","2402332","2021-11-26 22:00","2021","11","26","22:00","-22.5","","-24.6","","83","","0.0","","","M","10","","","","101.74","","","","-30","","NA"
"-100.27","70.63","GATESHEAD ISLAND","2402332","2021-11-26 23:00","2021","11","26","23:00","-22.8","","-24.8","","83","","0.0","","","M","9","","","","101.78","","","","-30","","NA"
"-100.27","70.63","GATESHEAD ISLAND","2402332","2021-11-27 00:00","2021","11","27","00:00","-22.2","","-24.3","","84","","0.0","","","M","10","","","","101.79","","","","-30","","NA"
"-100.27","70.63","GATESHEAD ISLAND","2402332","2021-11-27 01:00","2021","11","27","01:00","-22.0","","-24.0","","84","","0.0","","","M","11","","","","101.79","","","","-30","","NA"
"-100.27","70.63","GATESHEAD ISLAND","2402332","2021-11-27 02:00","2021","11","27","02:00","-21.7","","-23.7","","84","","0.0","","","M","10","","","","101.82","","","","-29","","NA"
"-100.27","70.63","GATESHEAD ISLAND","2402332","2021-11-27 03:00","2021","11","27","03:00","-21.9","","-23.9","","84","","0.0","","","M","9","","","","101.83","","","","-29","","NA"
"-100.27","70.63","GATESHEAD ISLAND","2402332","2021-11-27 04:00","2021","11","27","04:00","-21.3","","-23.2","","84","","0.0","","","M","9","","","","101.81","","","","-28","","NA"
"-100.27","70.63","GATESHEAD ISLAND","2402332","2021-11-27 05:00","2021","11","27","05:00","-21.0","","-22.9","","85","","0.0","","","M","10","","","","101.76","","","","-28","","NA"
"-100.27","70.63","GATESHEAD ISLAND","2402332","2021-11-27 06:00","2021","11","27","06:00","-20.2","","-22.0","","85","","0.0","","","M","9","","","","101.72","","","","-27","","NA"
"-100.27","70.63","GATESHEAD ISLAND","2402332","2021-11-27 07:00","2021","11","27","07:00","-19.6","","-21.4","","86","","0.0","","","M","11","","","","101.67","","","","-27","","NA"
"-100.27","70.63","GATESHEAD ISLAND","2402332","2021-11-27 08:00","2021","11","27","08:00","-19.7","","-21.5","","86","","0.0","","","M","10","","","","101.68","","","","-27","","NA"
"-100.27","70.63","GATESHEAD ISLAND","2402332","2021-11-27 09:00","2021","11","27","09:00"
"-100.27","70.63","GATESHEAD ISLAND","2402332","2021-11-27 10:00","2021","11","27","10:00","-17.5","","-19.1","","88","","0.0","","","M","11","","","","101.61","","","","-25","","NA"
"-100.27","70.63","GATESHEAD ISLAND","2402332","2021-11-27 11:00","2021","11","27","11:00","-17.1","","-18.6","","88","","0.0","","","M","10","","","","101.58","","","","-24","","NA"
"-100.27","70.63","GATESHEAD ISLAND","2402332","2021-11-27 12:00","2021","11","27","12:00","-16.4","","-17.9","","88","","0.0","","","M","9","","","","101.55","","","","-22","","NA"
"-100.27","70.63","GATESHEAD ISLAND","2402332","2021-11-27 13:00","2021","11","27","13:00","-16.0","","-17.4","","89","","0.0","","","M","10","","","","101.50","","","","-22","","NA"
"-100.27","70.63","GATESHEAD ISLAND","2402332","2021-11-27 14:00","2021","11","27","14:00","-15.1","","-16.5","","89","","0.0","","","M","8","","","","101.47","","","","-20","","NA"
"-100.27","70.63","GATESHEAD ISLAND","2402332","2021-11-27 15:00","2021","11","27","15:00","-14.2","","-15.4","","90","","0.0","","","M","10","","","","101.44","","","","-20","","NA"
"-100.27","70.63","GATESHEAD ISLAND","2402332","2021-11-27 16:00","2021","11","27","16:00","-13.6","","-14.9","","90","","0.0","","","M","11","","","","101.37","","","","-20","","NA"
"-100.27","70.63","GATESHEAD ISLAND","2402332","2021-11-27 17:00","2021","11","27","17:00","-13.1","","-14.3","","91","","0.0","","","M","13","","","","101.33","","","","-20","","NA"
"-100.27","70.63","GATESHEAD ISLAND","2402332","2021-11-27 18:00","2021","11","27","18:00","-12.4","","-13.5","","91","","0.0","","","M","22","","","","101.25","","","","-21","","NA"
"-100.27","70.63","GATESHEAD ISLAND","2402332","2021-11-27 19:00","2021","11","27","19:00","-11.8","","-12.9","","92","","0.0","","","M","35","","","","101.17","","","","-23","","NA"
"-100.27","70.63","GATESHEAD ISLAND","2402332","2021-11-27 20:00","2021","11","27","20:00","-11.8","","-12.9","","92","","0.0","","","M","1","","","","101.13","","","","-12","","NA"
"-100.27","70.63","GATESHEAD ISLAND","2402332","2021-11-27 21:00","2021","11","27","21:00","-12.0","","-13.1","","92","","0.0","","","M","1","","","","101.07","","","","-13","","NA"
"-100.27","70.63","GATESHEAD ISLAND","2402332","2021-11-27 22:00","2021","11","27","22:00","-12.2","","-13.3","","91","","0.0","","","M","25","","","","101.00","","","","-22","","NA"
"-100.27","70.63","GATESHEAD ISLAND","2402332","2021-11-27 23:00","2021","11","27","23:00","-12.6","","-13.8","","91","","0.0","","","M","21","","","","100.93","","","","-21","","NA"
"-100.27","70.63","GATESHEAD ISLAND","2402332","2021-11-28 00:00","2021","11","28","00:00","-13.1","","-14.3","","91","","0.0","","","M","2","","","","100.85","","","","-14","","NA"
"-100.27","70.63","GATESHEAD ISLAND","2402332","2021-11-28 01:00","2021","11","28","01:00","-12.6","","-13.8","","91","","0.0","","","M","1","","","","100.76","","","","-13","","NA"
"-100.27","70.63","GATESHEAD ISLAND","2402332","2021-11-28 02:00","2021","11","28","02:00","-12.7","","-13.8","","91","","0.0","","","M","0","","","","100.68","","","","","","NA"
"-100.27","70.63","GATESHEAD ISLAND","2402332","2021-11-28 03:00","2021","11","28","03:00","-12.4","","-13.6","","91","","0.0","","","M","0","","","","100.59","","","","","","NA"
"-100.27","70.63","GATESHEAD ISLAND","2402332","2021-11-28 04:00","2021","11","28","04:00","-12.1","","-13.2","","92","","0.0","","","M","0","","","","100.52","","","","","","NA"
"-100.27","70.63","GATESHEAD ISLAND","2402332","2021-11-28 05:00","2021","11","28","05:00","-11.9","","-12.9","","92","","0.0","","","M","0","","","","100.43","","","","","","NA"
"-100.27","70.63","GATESHEAD ISLAND","2402332","2021-11-28 06:00","2021","11","28","06:00","-11.6","","-12.6","","92","","0.0","","","M","0","","","","100.35","","","","","","NA"
"-100.27","70.63","GATESHEAD ISLAND","2402332","2021-11-28 07:00","2021","11","28","07:00","-11.4","","-12.4","","92","","0.0","","","M","0","","","","100.30","","","","","","NA"
"-100.27","70.63","GATESHEAD ISLAND","2402332","2021-11-28 08:00","2021","11","28","08:00","-11.3","","-12.3","","92","","0.0","","","M","0","","","","100.20","","","","","","NA"
"-100.27","70.63","GATESHEAD ISLAND","2402332","2021-11-28 09:00","2021","11","28","09:00","-11.1","","-12.1","","92","","0.0","","","M","0","","","","100.14","","","","","","NA"
"-100.27","70.63","GATESHEAD ISLAND","2402332","2021-11-28 10:00","2021","11","28","10:00","-10.8","","-11.8","","92","","0.0","","","M","0","","","","100.09","","","","","","NA"
"-100.27","70.63","GATESHEAD ISLAND","2402332","2021-11-28 11:00","2021","11","28","11:00","-12.5","","-13.7","","91","","0.0","","","M","0","","","","100.09","","","","","","NA"
"-100.27","70.63","GATESHEAD ISLAND","2402332","2021-11-28 12:00","2021","11","28","12:00","-15.0","","-16.4","","89","","0.0","","","M","0","","","","100.11","","","","","","NA"
"-100.27","70.63","GATESHEAD ISLAND","2402332","2021-11-28 13:00","2021","11","28","13:00","-16.5","","-18.0","","88","","0.0","","","M","0","","","","100.10","","","","","","NA"
"-100.27","70.63","GATESHEAD ISLAND","2402332","2021-11-28 14:00","2021","11","28","14:00","-17.9","","-19.4","","87","","0.0","","","M","0","","","","100.10","","","","","","NA"
"-100.27","70.63","GATESHEAD ISLAND","2402332","2021-11-28 15:00","2021","11","28","15:00","-19.8","","-21.6","","86","","0.0","","","M","0","","","","100.13","","","","","","NA"
"-100.27","70.63","GATESHEAD ISLAND","2402332","2021-11-28 16:00","2021","11","28","16:00","-21.2","","-23.1","","85","","0.0","","","M","0","","","","100.14","","","","","","NA"
"-100.27","70.63","GATESHEAD ISLAND","2402332","2021-11-28 17:00","2021","11","28","17:00","-22.0","","-23.9","","84","","0.0","","","M","0","","","","100.12","","","","","","NA"
"-100.27","70.63","GATESHEAD ISLAND","2402332","2021-11-28 18:00","2021","11","28","18:00","-22.3","","-24.3","","84","","0.0","","","M","0","","","","100.11","","","","","","NA"
"-100.27","70.63","GATESHEAD ISLAND","2402332","2021-11-28 19:00","2021","11","28","19:00","-23.1","","-25.2","","83","","0.0","","","M","0","","","","100.12","","","","","","NA"
"-100.27","70.63","GATESHEAD ISLAND","2402332","2021-11-28 20:00","2021","11","28","20:00","-23.6","","-25.8","","83","","0.0","","","M","0","","","","100.12","","","","","","NA"
"-100.27","70.63","GATESHEAD ISLAND","2402332","2021-11-28 21:00","2021","11","28","21:00","-24.0","","-26.1","","82","","0.0","","","M","0","","","","100.11","","","","","","NA"
"-100.27","70.63","GATESHEAD ISLAND","2402332","2021-11-28 22:00","2021","11","28","22:00","-24.5","","-26.8","","82","","0.0","","","M","0","","","","100.14","","","","","","NA"
"-100.27","70.63","GATESHEAD ISLAND","2402332","2021-11-28 23:00","2021","11","28","23:00","-24.6","","-26.8","","82","","0.0","","","M","","M","","","100.12","","","","","","NA"
"-100.27","70.63","GATESHEAD ISLAND","2402332","2021-11-29 00:00","2021","11","29","00:00","-24.6","","-26.8","","82","","0.0","","","M","","M","","","100.11","","","","","","NA"
"-100.27","70.63","GATESHEAD ISLAND","2402332","2021-11-29 01:00","2021","11","29","01:00","-24.5","","-26.8","","82","","0.0","","","M","","M","","","100.10","","","","","","NA"
"-100.27","70.63","GATESHEAD ISLAND","2402332","2021-11-29 02:00","2021","11","29","02:00","-24.7","","-26.9","","82","","0.0","","","M","","M","","","100.13","","","","","","NA"
"-100.27","70.63","GATESHEAD ISLAND","2402332","2021-11-29 03:00","2021","11","29","03:00","-24.3","","-26.5","","82","","0.0","","","M","","M","","","100.10","","","","","","NA"
"-100.27","70.63","GATESHEAD ISLAND","2402332","2021-11-29 04:00","2021","11","29","04:00","-24.0","","-26.2","","82","","0.0","","","M","","M","","","100.06","","","","","","NA"
"-100.27","70.63","GATESHEAD ISLAND","2402332","2021-11-29 05:00","2021","11","29","05:00","-22.7","","-24.8","","83","","0.0","","","M","","M","","","100.02","","","","","","NA"
"-100.27","70.63","GATESHEAD ISLAND","2402332","2021-11-29 06:00","2021","11","29","06:00","-22.2","","-24.2","","84","","0.0","","","M","","M","","","99.99","","","","","","NA"
"-100.27","70.63","GATESHEAD ISLAND","2402332","2021-11-29 07:00","2021","11","29","07:00","-22.0","","-24.0","","84","","0.0","","","M","","M","","","99.96","","","","","","NA"
"-100.27","70.63","GATESHEAD ISLAND","2402332","2021-11-29 08:00","2021","11","29","08:00","-21.9","","-23.9","","84","","0.0","","","M","","M","","","99.93","","","","","","NA"
"-100.27","70.63","GATESHEAD ISLAND","2402332","2021-11-29 09:00","2021","11","29","09:00","-21.6","","-23.5","","84","","0.0","","","M","","M","","","99.91","","","","","","NA"
"-100.27","70.63","GATESHEAD ISLAND","2402332","2021-11-29 10:00","2021","11","29","10:00","-20.6","","-22.5","","85","","0.0","","","M","","M","","","99.85","","","","","","NA"
"-100.27","70.63","GATESHEAD ISLAND","2402332","2021-11-29 11:00","2021","11","29","11:00","-19.6","","-21.4","","86","","0.0","","","M","","M","","","99.84","","","","","","NA"
"-100.27","70.63","GATESHEAD ISLAND","2402332","2021-11-29 12:00","2021","11","29","12:00","-19.6","","-21.3","","86","","0.0","","","M","","M","","","99.80","","","","","","NA"
"-100.27","70.63","GATESHEAD ISLAND","2402332","2021-11-29 13:00","2021","11","29","13:00","-19.0","","-20.7","","86","","0.0","","","M","","M","","","99.76","","","","","","NA"
"-100.27","70.63","GATESHEAD ISLAND","2402332","2021-11-29 14:00","2021","11","29","14:00","-17.9","","-19.5","","87","","0.0","","","M","","M","","","99.74","","","","","","NA"
"-100.27","70.63","GATESHEAD ISLAND","2402332","2021-11-29 15:00","2021","11","29","15:00","-18.0","","-19.6","","87","","0.0","","","M","","M","","","99.75","","","","","","NA"
"-100.27","70.63","GATESHEAD ISLAND","2402332","2021-11-29 16:00","2021","11","29","16:00","-17.5","","-19.1","","88","","0.0","","","M","","M","","","99.71","","","","","","NA"
"-100.27","70.63","GATESHEAD ISLAND","2402332","2021-11-29 17:00","2021","11","29","17:00","-17.4","","-18.9","","88","","0.0","","","M","","M","","","99.71","","","","","","NA"
"-100.27","70.63","GATESHEAD ISLAND","2402332","2021-11-29 18:00","2021","11","29","18:00","-17.4","","-19.0","","88","","0.0","","","M","","M","","","99.63","","","","","","NA"
"-100.27","70.63","GATESHEAD ISLAND","2402332","2021-11-29 19:00","2021","11","29","19:00","-17.7","","-19.3","","87","","0.0","","","M","","M","","","99.61","","","","","","NA"
"-100.27","70.63","GATESHEAD ISLAND","2402332","2021-11-29 20:00","2021","11","29","20:00","-17.6","","-19.2","","88","","0.0","","","M","","M","","","99.61","","","","","","NA"
"-100.27","70.63","GATESHEAD ISLAND","2402332","2021-11-29 21:00","2021","11","29","21:00","-17.4","","-19.0","","88","","0.0","","","M","","M","","","99.62","","","","","","NA"
"-100.27","70.63","GATESHEAD ISLAND","2402332","2021-11-29 22:00","2021","11","29","22:00","-17.1","","-18.6","","88","","0.0","","","M","","M","","","99.61","","","","","","NA"
"-100.27","70.63","GATESHEAD ISLAND","2402332","2021-11-29 23:00","2021","11","29","23:00","-17.0","","-18.6","","88","","0.0","","","M","","M","","","99.63","","","","","","NA"
"-100.27","70.63","GATESHEAD ISLAND","2402332","2021-11-30 00:00","2021","11","30","00:00"
"-100.27","70.63","GATESHEAD ISLAND","2402332","2021-11-30 01:00","2021","11","30","01:00","-17.2","","-18.8","","88","","0.0","","","M","","M","","","99.66","","","","","","NA"
"-100.27","70.63","GATESHEAD ISLAND","2402332","2021-11-30 02:00","2021","11","30","02:00","-17.2","","-18.8","","88","","0.0","","","M","","M","","","99.69","","","","","","NA"
"-100.27","70.63","GATESHEAD ISLAND","2402332","2021-11-30 03:00","2021","11","30","03:00","-17.5","","-19.1","","88","","0.0","","","M","","M","","","99.69","","","","","","NA"
"-100.27","70.63","GATESHEAD ISLAND","2402332","2021-11-30 04:00","2021","11","30","04:00","-17.4","","-19.0","","88","","0.0","","","M","","M","","","99.73","","","","","","NA"
"-100.27","70.63","GATESHEAD ISLAND","2402332","2021-11-30 05:00","2021","11","30","05:00","-17.3","","-18.8","","88","","0.0","","","M","","M","","","99.72","","","","","","NA"
"-100.27","70.63","GATESHEAD ISLAND","2402332","2021-11-30 06:00","2021","11","30","06:00","-17.1","","-18.7","","88","","0.0","","","M","","M","","","99.75","","","","","","NA"
"-100.27","70.63","GATESHEAD ISLAND","2402332","2021-11-30 07:00","2021","11","30","07:00","-17.1","","-18.6","","88","","0.0","","","M","","M","","","99.78","","","","","","NA"
"-100.27","70.63","GATESHEAD ISLAND","2402332","2021-11-30 08:00","2021","11","30","08:00","-17.2","","-18.7","","88","","0.0","","","M","","M","","","99.82","","","","","","NA"
"-100.27","70.63","GATESHEAD ISLAND","2402332","2021-11-30 09:00","2021","11","30","09:00","-17.1","","-18.6","","88","","0.0","","","M","","M","","","99.83","","","","","","NA"
"-100.27","70.63","GATESHEAD ISLAND","2402332","2021-11-30 10:00","2021","11","30","10:00","-17.1","","-18.7","","88","","0.0","","","M","","M","","","99.83","","","","","","NA"
"-100.27","70.63","GATESHEAD ISLAND","2402332","2021-11-30 11:00","2021","11","30","11:00","-17.3","","-18.9","","87","","0.0","","","M","","M","","","99.84","","","","","","NA"
"-100.27","70.63","GATESHEAD ISLAND","2402332","2021-11-30 12:00","2021","11","30","12:00","-17.2","","-18.8","","88","","0.0","","","M","","M","","","99.84","","","","","","NA"
"-100.27","70.63","GATESHEAD ISLAND","2402332","2021-11-30 13:00","2021","11","30","13:00","-17.3","","-18.9","","88","","0.0","","","M","","M","","","99.85","","","","","","NA"
"-100.27","70.63","GATESHEAD ISLAND","2402332","2021-11-30 14:00","2021","11","30","14:00","-17.6","","-19.1","","87","","0.0","","","M","","M","","","99.89","","","","","","NA"
"-100.27","70.63","GATESHEAD ISLAND","2402332","2021-11-30 15:00","2021","11","30","15:00","-18.5","","-20.1","","87","","0.0","","","M","","M","","","99.92","","","","","","NA"
"-100.27","70.63","GATESHEAD ISLAND","2402332","2021-11-30 16:00","2021","11","30","16:00","-19.2","","-20.9","","86","","0.0","","","M","","M","","","99.93","","","","","","NA"
"-100.27","70.63","GATESHEAD ISLAND","2402332","2021-11-30 17:00","2021","11","30","17:00","-19.1","","-20.8","","86","","0.0","","","M","","M","","","99.94","","","","","","NA"
"-100.27","70.63","GATESHEAD ISLAND","2402332","2021-11-30 18:00","2021","11","30","18:00","-19.1","","-20.8","","86","","0.0","","","M","","M","","","99.92","","","","","","NA"
"-100.27","70.63","GATESHEAD ISLAND","2402332","2021-11-30 19:00","2021","11","30","19:00","-19.1","","-20.8","","86","","0.0","","","M","","M","","","99.92","","","","","","NA"
"-100.27","70.63","GATESHEAD ISLAND","2402332","2021-11-30 20:00","2021","11","30","20:00","-20.7","","-22.4","","86","","0.0","","","M","","M","","","99.91","","","","","","NA"
"-100.27","70.63","GATESHEAD ISLAND","2402332","2021-11-30 21:00","2021","11","30","21:00","-19.7","","-21.6","","85","","0.0","","","M","","M","","","99.91","","","","","","NA"
"-100.27","70.63","GATESHEAD ISLAND","2402332","2021-11-30 22:00","2021","11","30","22:00","-18.3","","-20.0","","86","","0.0","","","M","","M","","","99.91","","","","","","NA"
"-100.27","70.63","GATESHEAD ISLAND","2402332","2021-11-30 23:00","2021","11","30","23:00","-16.8","","-18.3","","88","","0.0","","","M","","M","","","99.88","","","","","","NA"
