"Longitude (x)","Latitude (y)","Station Name","Climate ID","Date/Time (LST)","Year","Month","Day","Time (LST)","Temp (°C)","Temp Flag","Dew Point Temp (°C)","Dew Point Temp Flag","Rel Hum (%)","Rel Hum Flag","Precip. Amount (mm)","Precip. Amount Flag","Wind Dir (10s deg)","Wind Dir Flag","Wind Spd (km/h)","Wind Spd Flag","Visibility (km)","Visibility Flag","Stn Press (kPa)","Stn Press Flag","Hmdx","Hmdx Flag","Wind Chill","Wind Chill Flag","Weather"
"-97.86","55.80","THOMPSON A","5062921","2019-12-01 00:00","2019","12","01","00:00","-14.7","","-16.6","","86","","","","20","","3","","24.1","","99.38","","","","-17","","Mostly Cloudy"
"-97.86","55.80","THOMPSON A","5062921","2019-12-01 01:00","2019","12","01","01:00","-13.5","","-15.3","","86","","","","21","","5","","24.1","","99.30","","","","-17","","NA"
"-97.86","55.80","THOMPSON A","5062921","2019-12-01 02:00","2019","12","01","02:00","-12.7","","-14.4","","87","","","","21","","9","","24.1","","99.24","","","","-18","","NA"
"-97.86","55.80","THOMPSON A","5062921","2019-12-01 03:00","2019","12","01","03:00","-11.9","","-13.6","","88","","","","21","","8","","24.1","","99.19","","","","-17","","Mostly Cloudy"
"-97.86","55.80","THOMPSON A","5062921","2019-12-01 04:00","2019","12","01","04:00","-11.4","","-12.9","","88","","","","24","","15","","24.1","","99.15","","","","-18","","NA"
"-97.86","55.80","THOMPSON A","5062921","2019-12-01 05:00","2019","12","01","05:00","-12.8","","-14.3","","88","","","","26","","12","","24.1","","99.13","","","","-19","","NA"
"-97.86","55.80","THOMPSON A","5062921","2019-12-01 06:00","2019","12","01","06:00","-15.4","","-17.3","","85","","","","22","","8","","24.1","","99.09","","","","-21","","Mainly Clear"
"-97.86","55.80","THOMPSON A","5062921","2019-12-01 07:00","2019","12","01","07:00","-16.1","","-17.9","","86","","","","24","","12","","24.1","","99.07","","","","-23","","NA"
"-97.86","55.80","THOMPSON A","5062921","2019-12-01 08:00","2019","12","01","08:00","-14.7","","-16.6","","86","","","","26","","16","","24.1","","99.05","","","","-23","","NA"
"-97.86","55.80","THOMPSON A","5062921","2019-12-01 09:00","2019","12","01","09:00","-14.3","","-16.1","","86","","","","22","","9","","19.3","","98.98","","","","-20","","Cloudy"
"-97.86","55.80","THOMPSON A","5062921","2019-12-01 10:00","2019","12","01","10:00","-13.6","","-15.3","","87","","","","22","","11","","16.1","","98.94","","","","-20","","Snow"
"-97.86","55.80","THOMPSON A","5062921","2019-12-01 11:00","2019","12","01","11:00","-12.6","","-14.2","","87","","","","22","","12","","24.1","","98.88","","","","-19","","Snow"
"-97.86","55.80","THOMPSON A","5062921","2019-12-01 12:00","2019","12","01","12:00","-12.0","","-13.6","","88","","","","21","","11","","24.1","","98.79","","","","-18","","Snow"
"-97.86","55.80","THOMPSON A","5062921","2019-12-01 13:00","2019","12","01","13:00","-10.9","","-12.4","","89","","","","22","","16","","16.1","","98.68","","","","-18","","Snow"
"-97.86","55.80","THOMPSON A","5062921","2019-12-01 14:00","2019","12","01","14:00","-10.5","","-12.0","","89","","","","23","","17","","12.9","","98.63","","","","-18","","Snow"
"-97.86","55.80","THOMPSON A","5062921","2019-12-01 15:00","2019","12","01","15:00","-10.5","","-11.9","","89","","","","22","","24","","8.1","","98.58","","","","-19","","Snow,Blowing Snow"
"-97.86","55.80","THOMPSON A","5062921","2019-12-01 16:00","2019","12","01","16:00","-10.6","","-12.0","","89","","","","24","","27","","9.7","","98.58","","","","-20","","Snow,Blowing Snow"
"-97.86","55.80","THOMPSON A","5062921","2019-12-01 17:00","2019","12","01","17:00","-10.7","","-12.1","","89","","","","22","","18","","8.1","","98.54","","","","-18","","Snow,Blowing Snow"
"-97.86","55.80","THOMPSON A","5062921","2019-12-01 18:00","2019","12","01","18:00","-10.8","","-12.2","","89","","","","22","","15","","12.9","","98.48","","","","-18","","Snow,Blowing Snow"
"-97.86","55.80","THOMPSON A","5062921","2019-12-01 19:00","2019","12","01","19:00","-10.8","","-12.2","","89","","","","23","","13","","12.9","","98.46","","","","-17","","Snow,Blowing Snow"
"-97.86","55.80","THOMPSON A","5062921","2019-12-01 20:00","2019","12","01","20:00","-10.8","","-12.2","","89","","","","22","","16","","8.1","","98.40","","","","-18","","Snow"
"-97.86","55.80","THOMPSON A","5062921","2019-12-01 21:00","2019","12","01","21:00","-11.0","","-12.4","","89","","","","22","","12","","8.1","","98.38","","","","-17","","Snow"
"-97.86","55.80","THOMPSON A","5062921","2019-12-01 22:00","2019","12","01","22:00","-11.5","","-12.9","","89","","","","21","","14","","9.7","","98.31","","","","-18","","Snow"
"-97.86","55.80","THOMPSON A","5062921","2019-12-01 23:00","2019","12","01","23:00","-11.6","","-13.1","","89","","","","22","","14","","8.1","","98.27","","","","-18","","Snow"
"-97.86","55.80","THOMPSON A","5062921","2019-12-02 00:00","2019","12","02","00:00","-11.7","","-13.2","","89","","","","20","","12","","16.1","","98.19","","","","-18","","Snow"
"-97.86","55.80","THOMPSON A","5062921","2019-12-02 01:00","2019","12","02","01:00","-11.6","","-13.1","","89","","","","21","","10","","24.1","","98.15","","","","-17","","Snow"
"-97.86","55.80","THOMPSON A","5062921","2019-12-02 02:00","2019","12","02","02:00","-11.3","","-12.8","","89","","","","23","","5","","24.1","","98.07","","","","-14","","Snow"
"-97.86","55.80","THOMPSON A","5062921","2019-12-02 03:00","2019","12","02","03:00","-11.0","","-12.4","","89","","","","21","","9","","24.1","","98.00","","","","-16","","Snow"
"-97.86","55.80","THOMPSON A","5062921","2019-12-02 04:00","2019","12","02","04:00","-10.8","","-12.2","","89","","","","20","","9","","24.1","","97.90","","","","-16","","Snow"
"-97.86","55.80","THOMPSON A","5062921","2019-12-02 05:00","2019","12","02","05:00","-10.6","","-12.0","","89","","","","19","","7","","16.1","","97.79","","","","-15","","Snow"
"-97.86","55.80","THOMPSON A","5062921","2019-12-02 06:00","2019","12","02","06:00","-10.3","","-11.7","","90","","","","21","","10","","9.7","","97.71","","","","-16","","Snow"
"-97.86","55.80","THOMPSON A","5062921","2019-12-02 07:00","2019","12","02","07:00","-10.2","","-11.6","","90","","","","21","","7","","16.1","","97.64","","","","-14","","Snow"
"-97.86","55.80","THOMPSON A","5062921","2019-12-02 08:00","2019","12","02","08:00","-10.1","","-11.5","","90","","","","20","","10","","12.9","","97.57","","","","-15","","Snow"
"-97.86","55.80","THOMPSON A","5062921","2019-12-02 09:00","2019","12","02","09:00","-10.0","","-11.4","","90","","","","22","","9","","12.9","","97.48","","","","-15","","Snow"
"-97.86","55.80","THOMPSON A","5062921","2019-12-02 10:00","2019","12","02","10:00","-10.1","","-11.5","","90","","","","20","","9","","6.4","","97.44","","","","-15","","Snow"
"-97.86","55.80","THOMPSON A","5062921","2019-12-02 11:00","2019","12","02","11:00","-10.4","","-11.8","","90","","","","24","","12","","4.8","","97.38","","","","-16","","Snow"
"-97.86","55.80","THOMPSON A","5062921","2019-12-02 12:00","2019","12","02","12:00","-10.1","","-11.5","","90","","","","24","","5","","4.8","","97.28","","","","-13","","Snow"
"-97.86","55.80","THOMPSON A","5062921","2019-12-02 13:00","2019","12","02","13:00","-9.7","","-11.1","","90","","","","21","","11","","4.8","","97.18","","","","-15","","Snow"
"-97.86","55.80","THOMPSON A","5062921","2019-12-02 14:00","2019","12","02","14:00","-9.7","","-11.0","","90","","","","19","","7","","9.7","","97.12","","","","-14","","Snow"
"-97.86","55.80","THOMPSON A","5062921","2019-12-02 15:00","2019","12","02","15:00","-9.7","","-11.0","","90","","","","23","","9","","4.8","","97.11","","","","-15","","Snow"
"-97.86","55.80","THOMPSON A","5062921","2019-12-02 16:00","2019","12","02","16:00","-9.6","","-11.0","","90","","","","28","","10","","8.1","","97.10","","","","-15","","Snow"
"-97.86","55.80","THOMPSON A","5062921","2019-12-02 17:00","2019","12","02","17:00","-10.0","","-11.5","","89","","","","31","","8","","12.9","","97.11","","","","-14","","Snow"
"-97.86","55.80","THOMPSON A","5062921","2019-12-02 18:00","2019","12","02","18:00","-10.4","","-12.0","","88","","","","30","","7","","9.7","","97.10","","","","-14","","Snow"
"-97.86","55.80","THOMPSON A","5062921","2019-12-02 19:00","2019","12","02","19:00","-10.7","","-12.4","","87","","","","31","","8","","8.1","","97.09","","","","-15","","Snow"
"-97.86","55.80","THOMPSON A","5062921","2019-12-02 20:00","2019","12","02","20:00","-10.8","","-12.6","","86","","","","34","","4","","24.1","","97.04","","","","-13","","Snow"
"-97.86","55.80","THOMPSON A","5062921","2019-12-02 21:00","2019","12","02","21:00","-10.8","","-12.8","","86","","","","28","","7","","24.1","","97.02","","","","-15","","Snow"
"-97.86","55.80","THOMPSON A","5062921","2019-12-02 22:00","2019","12","02","22:00","-10.9","","-13.2","","84","","","","30","","10","","24.1","","97.02","","","","-16","","Snow"
"-97.86","55.80","THOMPSON A","5062921","2019-12-02 23:00","2019","12","02","23:00","-11.0","","-13.1","","84","","","","32","","7","","24.1","","97.00","","","","-15","","NA"
"-97.86","55.80","THOMPSON A","5062921","2019-12-03 00:00","2019","12","03","00:00","-11.2","","-13.2","","85","","","","31","","5","","24.1","","97.03","","","","-14","","Cloudy"
"-97.86","55.80","THOMPSON A","5062921","2019-12-03 01:00","2019","12","03","01:00","-11.3","","-13.3","","85","","","","29","","5","","19.3","","97.03","","","","-14","","Snow"
"-97.86","55.80","THOMPSON A","5062921","2019-12-03 02:00","2019","12","03","02:00","-11.3","","-13.2","","86","","","","28","","5","","19.3","","97.04","","","","-14","","Snow"
"-97.86","55.80","THOMPSON A","5062921","2019-12-03 03:00","2019","12","03","03:00","-11.2","","-13.0","","87","","","","28","","4","","19.3","","97.05","","","","-14","","Snow"
"-97.86","55.80","THOMPSON A","5062921","2019-12-03 04:00","2019","12","03","04:00","-11.4","","-13.2","","87","","","","29","","4","","19.3","","97.04","","","","-14","","Snow"
"-97.86","55.80","THOMPSON A","5062921","2019-12-03 05:00","2019","12","03","05:00","-11.7","","-13.4","","87","","","","27","","4","","16.1","","97.00","","","","-14","","Snow"
"-97.86","55.80","THOMPSON A","5062921","2019-12-03 06:00","2019","12","03","06:00","-11.4","","-13.0","","88","","","","29","","9","","19.3","","97.03","","","","-17","","Snow"
"-97.86","55.80","THOMPSON A","5062921","2019-12-03 07:00","2019","12","03","07:00","-11.6","","-13.3","","87","","","","31","","7","","16.1","","97.02","","","","-16","","Snow"
"-97.86","55.80","THOMPSON A","5062921","2019-12-03 08:00","2019","12","03","08:00","-11.8","","-13.5","","87","","","","31","","7","","16.1","","97.04","","","","-16","","Snow"
"-97.86","55.80","THOMPSON A","5062921","2019-12-03 09:00","2019","12","03","09:00","-12.4","","-14.0","","88","","","","32","","7","","24.1","","97.06","","","","-17","","Snow"
"-97.86","55.80","THOMPSON A","5062921","2019-12-03 10:00","2019","12","03","10:00","-11.9","","-13.6","","87","","","","34","","8","","24.1","","97.10","","","","-17","","NA"
"-97.86","55.80","THOMPSON A","5062921","2019-12-03 11:00","2019","12","03","11:00","-11.4","","-13.8","","83","","","","1","","16","","24.1","","97.12","","","","-19","","NA"
"-97.86","55.80","THOMPSON A","5062921","2019-12-03 12:00","2019","12","03","12:00","-11.4","","-14.1","","81","","","","36","","15","","24.1","","97.13","","","","-18","","Snow"
"-97.86","55.80","THOMPSON A","5062921","2019-12-03 13:00","2019","12","03","13:00","-10.8","","-13.5","","81","","","","2","","10","","19.3","","97.16","","","","-16","","Snow"
"-97.86","55.80","THOMPSON A","5062921","2019-12-03 14:00","2019","12","03","14:00","-11.4","","-14.1","","81","","","","1","","11","","24.1","","97.20","","","","-17","","Snow"
"-97.86","55.80","THOMPSON A","5062921","2019-12-03 15:00","2019","12","03","15:00","-11.3","","-13.7","","83","","","","35","","10","","24.1","","97.26","","","","-17","","Snow"
"-97.86","55.80","THOMPSON A","5062921","2019-12-03 16:00","2019","12","03","16:00","-11.5","","-13.6","","84","","","","33","","4","","24.1","","97.31","","","","-14","","Snow"
"-97.86","55.80","THOMPSON A","5062921","2019-12-03 17:00","2019","12","03","17:00","-12.3","","-14.2","","87","","","","3","","6","","24.1","","97.35","","","","-16","","Snow"
"-97.86","55.80","THOMPSON A","5062921","2019-12-03 18:00","2019","12","03","18:00","-12.1","","-14.3","","84","","","","1","","9","","24.1","","97.40","","","","-17","","Snow"
"-97.86","55.80","THOMPSON A","5062921","2019-12-03 19:00","2019","12","03","19:00","-12.5","","-14.6","","85","","","","1","","5","","24.1","","97.42","","","","-16","","Snow"
"-97.86","55.80","THOMPSON A","5062921","2019-12-03 20:00","2019","12","03","20:00","-12.4","","-14.6","","84","","","","1","","8","","24.1","","97.46","","","","-17","","Snow"
"-97.86","55.80","THOMPSON A","5062921","2019-12-03 21:00","2019","12","03","21:00","-12.7","","-14.8","","84","","","","4","","8","","24.1","","97.48","","","","-18","","Snow"
"-97.86","55.80","THOMPSON A","5062921","2019-12-03 22:00","2019","12","03","22:00","-12.6","","-14.7","","84","","","","4","","7","","24.1","","97.50","","","","-17","","Snow"
"-97.86","55.80","THOMPSON A","5062921","2019-12-03 23:00","2019","12","03","23:00","-12.6","","-14.7","","85","","","","6","","5","","24.1","","97.52","","","","-16","","Snow"
"-97.86","55.80","THOMPSON A","5062921","2019-12-04 00:00","2019","12","04","00:00","-12.7","","-14.7","","85","","","","7","","4","","24.1","","97.54","","","","-15","","Snow"
"-97.86","55.80","THOMPSON A","5062921","2019-12-04 01:00","2019","12","04","01:00","-12.9","","-14.9","","85","","","","36","","3","","24.1","","97.57","","","","-15","","Snow"
"-97.86","55.80","THOMPSON A","5062921","2019-12-04 02:00","2019","12","04","02:00","-13.4","","-15.3","","86","","","","36","","2","","9.7","","97.63","","","","-15","","Snow"
"-97.86","55.80","THOMPSON A","5062921","2019-12-04 03:00","2019","12","04","03:00","-13.1","","-14.9","","87","","","","36","","3","","6.4","","97.66","","","","-15","","Snow"
"-97.86","55.80","THOMPSON A","5062921","2019-12-04 04:00","2019","12","04","04:00","-13.1","","-14.9","","87","","","","0","","1","","6.4","","97.70","","","","-14","","Snow"
"-97.86","55.80","THOMPSON A","5062921","2019-12-04 05:00","2019","12","04","05:00","-13.7","","-15.4","","87","","","","36","","2","","16.1","","97.71","","","","-15","","Snow"
"-97.86","55.80","THOMPSON A","5062921","2019-12-04 06:00","2019","12","04","06:00","-14.1","","-15.8","","87","","","","36","","1","","4.8","","97.75","","","","-15","","Snow"
"-97.86","55.80","THOMPSON A","5062921","2019-12-04 07:00","2019","12","04","07:00","-13.9","","-15.7","","87","","","","36","","2","","9.7","","97.75","","","","-15","","Snow"
"-97.86","55.80","THOMPSON A","5062921","2019-12-04 08:00","2019","12","04","08:00","-13.8","","-15.6","","86","","","","18","","3","","4.8","","97.77","","","","-16","","Snow"
"-97.86","55.80","THOMPSON A","5062921","2019-12-04 09:00","2019","12","04","09:00","-13.4","","-15.3","","86","","","","15","","3","","4.8","","97.78","","","","-15","","Snow"
"-97.86","55.80","THOMPSON A","5062921","2019-12-04 10:00","2019","12","04","10:00","-13.0","","-14.9","","86","","","","18","","4","","3.2","","97.81","","","","-16","","Snow"
"-97.86","55.80","THOMPSON A","5062921","2019-12-04 11:00","2019","12","04","11:00","-12.5","","-14.5","","85","","","","17","","3","","3.2","","97.83","","","","-14","","Snow"
"-97.86","55.80","THOMPSON A","5062921","2019-12-04 12:00","2019","12","04","12:00","-12.0","","-14.1","","85","","","","18","","5","","9.7","","97.83","","","","-15","","Snow"
"-97.86","55.80","THOMPSON A","5062921","2019-12-04 13:00","2019","12","04","13:00","-11.6","","-13.7","","85","","","","20","","7","","12.9","","97.84","","","","-16","","Snow"
"-97.86","55.80","THOMPSON A","5062921","2019-12-04 14:00","2019","12","04","14:00","-11.2","","-13.0","","87","","","","24","","13","","16.1","","97.89","","","","-18","","Snow,Blowing Snow"
"-97.86","55.80","THOMPSON A","5062921","2019-12-04 15:00","2019","12","04","15:00","-10.9","","-12.6","","87","","","","25","","5","","9.7","","97.92","","","","-14","","Snow"
"-97.86","55.80","THOMPSON A","5062921","2019-12-04 16:00","2019","12","04","16:00","-10.7","","-12.4","","87","","","","25","","5","","16.1","","97.99","","","","-14","","Snow"
"-97.86","55.80","THOMPSON A","5062921","2019-12-04 17:00","2019","12","04","17:00","-10.2","","-11.9","","88","","","","29","","9","","24.1","","98.03","","","","-15","","Snow"
"-97.86","55.80","THOMPSON A","5062921","2019-12-04 18:00","2019","12","04","18:00","-10.4","","-12.5","","85","","","","31","","11","","24.1","","98.05","","","","-16","","Snow"
"-97.86","55.80","THOMPSON A","5062921","2019-12-04 19:00","2019","12","04","19:00","-10.9","","-13.6","","81","","","","31","","10","","24.1","","98.12","","","","-16","","Snow"
"-97.86","55.80","THOMPSON A","5062921","2019-12-04 20:00","2019","12","04","20:00","-11.2","","-13.9","","81","","","","33","","14","","24.1","","98.18","","","","-18","","NA"
"-97.86","55.80","THOMPSON A","5062921","2019-12-04 21:00","2019","12","04","21:00","-12.2","","-14.9","","80","","","","33","","16","","24.1","","98.22","","","","-20","","Mostly Cloudy"
"-97.86","55.80","THOMPSON A","5062921","2019-12-04 22:00","2019","12","04","22:00","-13.7","","-16.0","","83","","","","34","","11","","24.1","","98.29","","","","-20","","NA"
"-97.86","55.80","THOMPSON A","5062921","2019-12-04 23:00","2019","12","04","23:00","-14.5","","-17.1","","80","","","","32","","13","","24.1","","98.39","","","","-22","","NA"
"-97.86","55.80","THOMPSON A","5062921","2019-12-05 00:00","2019","12","05","00:00","-15.0","","-17.7","","81","","","","34","","21","","24.1","","98.46","","","","-24","","Cloudy"
"-97.86","55.80","THOMPSON A","5062921","2019-12-05 01:00","2019","12","05","01:00","-16.4","","-18.9","","81","","","","34","","12","","24.1","","98.54","","","","-24","","NA"
"-97.86","55.80","THOMPSON A","5062921","2019-12-05 02:00","2019","12","05","02:00","-18.3","","-21.0","","80","","","","34","","10","","24.1","","98.63","","","","-25","","NA"
"-97.86","55.80","THOMPSON A","5062921","2019-12-05 03:00","2019","12","05","03:00","-19.3","","-21.9","","80","","","","33","","13","","24.1","","98.72","","","","-28","","Mainly Clear"
"-97.86","55.80","THOMPSON A","5062921","2019-12-05 04:00","2019","12","05","04:00","-20.8","","-23.3","","81","","","","32","","10","","24.1","","98.81","","","","-28","","NA"
"-97.86","55.80","THOMPSON A","5062921","2019-12-05 05:00","2019","12","05","05:00","-20.2","","-22.5","","82","","","","32","","10","","24.1","","98.82","","","","-27","","NA"
"-97.86","55.80","THOMPSON A","5062921","2019-12-05 06:00","2019","12","05","06:00","-19.6","","-22.1","","80","","","","32","","11","","24.1","","98.88","","","","-27","","Snow"
"-97.86","55.80","THOMPSON A","5062921","2019-12-05 07:00","2019","12","05","07:00","-19.5","","-22.1","","80","","","","31","","12","","24.1","","98.95","","","","-27","","Snow"
"-97.86","55.80","THOMPSON A","5062921","2019-12-05 08:00","2019","12","05","08:00","-20.5","","-23.4","","78","","","","32","","18","","19.3","","99.04","","","","-31","","Snow"
"-97.86","55.80","THOMPSON A","5062921","2019-12-05 09:00","2019","12","05","09:00","-23.2","","-26.2","","77","","","","33","","12","","24.1","","99.12","","","","-32","","Mainly Clear"
"-97.86","55.80","THOMPSON A","5062921","2019-12-05 10:00","2019","12","05","10:00","-23.8","","-26.9","","75","","","","33","","14","","24.1","","99.23","","","","-33","","NA"
"-97.86","55.80","THOMPSON A","5062921","2019-12-05 11:00","2019","12","05","11:00","-23.6","","-27.1","","74","","","","31","","8","","24.1","","99.30","","","","-30","","Blowing Snow"
"-97.86","55.80","THOMPSON A","5062921","2019-12-05 12:00","2019","12","05","12:00","-23.2","","-26.9","","72","","","","30","","9","","24.1","","99.31","","","","-31","","Blowing Snow"
"-97.86","55.80","THOMPSON A","5062921","2019-12-05 13:00","2019","12","05","13:00","-22.3","","-26.2","","71","","","","30","","7","","24.1","","99.30","","","","-28","","NA"
"-97.86","55.80","THOMPSON A","5062921","2019-12-05 14:00","2019","12","05","14:00","-21.4","","-25.4","","70","","","","29","","12","","24.1","","99.32","","","","-30","","NA"
"-97.86","55.80","THOMPSON A","5062921","2019-12-05 15:00","2019","12","05","15:00","-21.9","","-25.8","","72","","","","27","","10","","24.1","","99.33","","","","-29","","Mainly Clear"
"-97.86","55.80","THOMPSON A","5062921","2019-12-05 16:00","2019","12","05","16:00","-22.2","","-25.4","","76","","","","27","","7","","24.1","","99.40","","","","-28","","NA"
"-97.86","55.80","THOMPSON A","5062921","2019-12-05 17:00","2019","12","05","17:00","-23.6","","-26.5","","78","","","","27","","9","","24.1","","99.43","","","","-31","","NA"
"-97.86","55.80","THOMPSON A","5062921","2019-12-05 18:00","2019","12","05","18:00","-24.3","","-27.0","","79","","","","27","","7","","24.1","","99.42","","","","-31","","Mainly Clear"
"-97.86","55.80","THOMPSON A","5062921","2019-12-05 19:00","2019","12","05","19:00","-26.3","","-28.9","","80","","","","24","","6","","24.1","","99.44","","","","-32","","NA"
"-97.86","55.80","THOMPSON A","5062921","2019-12-05 20:00","2019","12","05","20:00","-27.0","","-29.4","","81","","","","20","","4","","24.1","","99.44","","","","-31","","NA"
"-97.86","55.80","THOMPSON A","5062921","2019-12-05 21:00","2019","12","05","21:00","-27.8","","-30.5","","78","","","","36","","2","","24.1","","99.45","","","","-30","","Mainly Clear"
"-97.86","55.80","THOMPSON A","5062921","2019-12-05 22:00","2019","12","05","22:00","-31.1","","-34.1","","75","","","","20","","5","","24.1","","99.43","","","","-37","","NA"
"-97.86","55.80","THOMPSON A","5062921","2019-12-05 23:00","2019","12","05","23:00","-30.7","","-33.7","","76","","","","36","","2","","24.1","","99.40","","","","-33","","NA"
"-97.86","55.80","THOMPSON A","5062921","2019-12-06 00:00","2019","12","06","00:00","-28.6","","-31.5","","77","","","","18","","4","","24.1","","99.35","","","","-33","","Clear"
"-97.86","55.80","THOMPSON A","5062921","2019-12-06 01:00","2019","12","06","01:00","-29.5","","-32.4","","77","","","","36","","2","","24.1","","99.30","","","","-32","","NA"
"-97.86","55.80","THOMPSON A","5062921","2019-12-06 02:00","2019","12","06","02:00","-30.0","","-33.0","","76","","","","17","","4","","24.1","","99.24","","","","-35","","NA"
"-97.86","55.80","THOMPSON A","5062921","2019-12-06 03:00","2019","12","06","03:00","-28.6","","-31.6","","76","","","","36","","2","","24.1","","99.15","","","","-31","","Clear"
"-97.86","55.80","THOMPSON A","5062921","2019-12-06 04:00","2019","12","06","04:00","-25.4","","-28.2","","78","","","","15","","4","","24.1","","99.07","","","","-29","","NA"
"-97.86","55.80","THOMPSON A","5062921","2019-12-06 05:00","2019","12","06","05:00","-25.5","","-28.2","","78","","","","19","","3","","24.1","","98.99","","","","-29","","NA"
"-97.86","55.80","THOMPSON A","5062921","2019-12-06 06:00","2019","12","06","06:00","-22.4","","-25.0","","80","","","","17","","7","","24.1","","98.87","","","","-28","","Snow"
"-97.86","55.80","THOMPSON A","5062921","2019-12-06 07:00","2019","12","06","07:00","-19.1","","-21.5","","82","","","","18","","8","","24.1","","98.77","","","","-25","","Snow"
"-97.86","55.80","THOMPSON A","5062921","2019-12-06 08:00","2019","12","06","08:00","-17.9","","-20.2","","82","","","","21","","11","","3.2","","98.74","","","","-25","","Snow"
"-97.86","55.80","THOMPSON A","5062921","2019-12-06 09:00","2019","12","06","09:00","-17.1","","-19.4","","83","","","","20","","12","","12.9","","98.70","","","","-25","","Snow"
"-97.86","55.80","THOMPSON A","5062921","2019-12-06 10:00","2019","12","06","10:00","-16.0","","-18.2","","84","","","","21","","12","","24.1","","98.67","","","","-23","","NA"
"-97.86","55.80","THOMPSON A","5062921","2019-12-06 11:00","2019","12","06","11:00","-15.2","","-17.4","","84","","","","20","","12","","16.1","","98.65","","","","-22","","Snow"
"-97.86","55.80","THOMPSON A","5062921","2019-12-06 12:00","2019","12","06","12:00","-14.3","","-16.4","","85","","","","23","","12","","9.7","","98.61","","","","-21","","Snow"
"-97.86","55.80","THOMPSON A","5062921","2019-12-06 13:00","2019","12","06","13:00","-13.5","","-15.6","","85","","","","24","","14","","6.4","","98.58","","","","-21","","Snow"
"-97.86","55.80","THOMPSON A","5062921","2019-12-06 14:00","2019","12","06","14:00","-12.7","","-14.8","","84","","","","24","","12","","4.0","","98.57","","","","-19","","Snow"
"-97.86","55.80","THOMPSON A","5062921","2019-12-06 15:00","2019","12","06","15:00","-12.1","","-14.2","","84","","","","24","","10","","12.9","","98.58","","","","-18","","Snow"
"-97.86","55.80","THOMPSON A","5062921","2019-12-06 16:00","2019","12","06","16:00","-11.7","","-13.7","","85","","","","26","","9","","9.7","","98.63","","","","-17","","Snow"
"-97.86","55.80","THOMPSON A","5062921","2019-12-06 17:00","2019","12","06","17:00","-12.3","","-14.4","","85","","","","29","","9","","12.9","","98.68","","","","-18","","Snow"
"-97.86","55.80","THOMPSON A","5062921","2019-12-06 18:00","2019","12","06","18:00","-12.9","","-15.3","","82","","","","30","","5","","24.1","","98.71","","","","-16","","Snow"
"-97.86","55.80","THOMPSON A","5062921","2019-12-06 19:00","2019","12","06","19:00","-14.9","","-17.2","","83","","","","32","","9","","24.1","","98.72","","","","-21","","NA"
"-97.86","55.80","THOMPSON A","5062921","2019-12-06 20:00","2019","12","06","20:00","-16.4","","-18.2","","86","","","","6","","5","","24.1","","98.68","","","","-20","","NA"
"-97.86","55.80","THOMPSON A","5062921","2019-12-06 21:00","2019","12","06","21:00","-20.4","","-22.4","","85","","","","0","","1","","24.1","","98.67","","","","-21","","Mostly Cloudy"
"-97.86","55.80","THOMPSON A","5062921","2019-12-06 22:00","2019","12","06","22:00","-20.0","","-21.9","","85","","","","7","","4","","24.1","","98.59","","","","-23","","NA"
"-97.86","55.80","THOMPSON A","5062921","2019-12-06 23:00","2019","12","06","23:00","-18.4","","-20.6","","83","","","","10","","4","","8.1","","98.57","","","","-22","","Snow"
"-97.86","55.80","THOMPSON A","5062921","2019-12-07 00:00","2019","12","07","00:00","-17.0","","-19.2","","84","","","","9","","4","","16.1","","98.43","","","","-20","","Snow"
"-97.86","55.80","THOMPSON A","5062921","2019-12-07 01:00","2019","12","07","01:00","-16.6","","-18.7","","84","","","","9","","6","","24.1","","98.35","","","","-21","","Snow"
"-97.86","55.80","THOMPSON A","5062921","2019-12-07 02:00","2019","12","07","02:00","-16.2","","-18.2","","84","","","","10","","5","","24.1","","98.22","","","","-20","","Snow"
"-97.86","55.80","THOMPSON A","5062921","2019-12-07 03:00","2019","12","07","03:00","-15.3","","-17.3","","85","","","","9","","6","","24.1","","98.02","","","","-20","","Snow"
"-97.86","55.80","THOMPSON A","5062921","2019-12-07 04:00","2019","12","07","04:00","-13.4","","-15.2","","87","","","","12","","5","","24.1","","97.86","","","","-17","","Snow"
"-97.86","55.80","THOMPSON A","5062921","2019-12-07 05:00","2019","12","07","05:00","-12.9","","-14.6","","87","","","","9","","7","","24.1","","97.74","","","","-17","","Snow"
"-97.86","55.80","THOMPSON A","5062921","2019-12-07 06:00","2019","12","07","06:00","-9.8","","-11.3","","89","","","","21","","13","","24.1","","97.64","","","","-16","","Snow"
"-97.86","55.80","THOMPSON A","5062921","2019-12-07 07:00","2019","12","07","07:00","-9.8","","-11.5","","87","","","","24","","17","","24.1","","97.59","","","","-17","","Snow,Blowing Snow"
"-97.86","55.80","THOMPSON A","5062921","2019-12-07 08:00","2019","12","07","08:00","-10.2","","-12.1","","86","","","","24","","12","","24.1","","97.56","","","","-16","","Snow"
"-97.86","55.80","THOMPSON A","5062921","2019-12-07 09:00","2019","12","07","09:00","-11.4","","-13.3","","86","","","","26","","12","","9.7","","97.56","","","","-18","","Snow"
"-97.86","55.80","THOMPSON A","5062921","2019-12-07 10:00","2019","12","07","10:00","-11.0","","-12.7","","87","","","","27","","11","","8.1","","97.60","","","","-17","","Snow"
"-97.86","55.80","THOMPSON A","5062921","2019-12-07 11:00","2019","12","07","11:00","-12.6","","-15.1","","81","","","","34","","22","","9.7","","97.68","","","","-22","","Snow,Blowing Snow"
"-97.86","55.80","THOMPSON A","5062921","2019-12-07 12:00","2019","12","07","12:00","-15.5","","-18.9","","76","","","","30","","22","","24.1","","97.81","","","","-25","","Snow,Blowing Snow"
"-97.86","55.80","THOMPSON A","5062921","2019-12-07 13:00","2019","12","07","13:00","-16.4","","-20.0","","74","","","","30","","20","","24.1","","97.89","","","","-26","","Blowing Snow"
"-97.86","55.80","THOMPSON A","5062921","2019-12-07 14:00","2019","12","07","14:00","-17.1","","-20.9","","73","","","","33","","18","","24.1","","97.95","","","","-26","","Blowing Snow"
"-97.86","55.80","THOMPSON A","5062921","2019-12-07 15:00","2019","12","07","15:00","-18.0","","-21.8","","72","","","","31","","14","","24.1","","98.04","","","","-26","","Blowing Snow"
"-97.86","55.80","THOMPSON A","5062921","2019-12-07 16:00","2019","12","07","16:00","-19.4","","-23.3","","72","","","","32","","17","","24.1","","98.17","","","","-29","","Blowing Snow"
"-97.86","55.80","THOMPSON A","5062921","2019-12-07 17:00","2019","12","07","17:00","-20.9","","-24.8","","71","","","","32","","16","","24.1","","98.30","","","","-31","","Blowing Snow"
"-97.86","55.80","THOMPSON A","5062921","2019-12-07 18:00","2019","12","07","18:00","-22.3","","-26.1","","72","","","","31","","14","","24.1","","98.37","","","","-32","","Blowing Snow"
"-97.86","55.80","THOMPSON A","5062921","2019-12-07 19:00","2019","12","07","19:00","-23.1","","-26.8","","72","","","","31","","16","","24.1","","98.44","","","","-33","","Blowing Snow"
"-97.86","55.80","THOMPSON A","5062921","2019-12-07 20:00","2019","12","07","20:00","-24.0","","-27.6","","73","","","","31","","18","","24.1","","98.49","","","","-35","","Blowing Snow"
"-97.86","55.80","THOMPSON A","5062921","2019-12-07 21:00","2019","12","07","21:00","-25.1","","-28.7","","73","","","","30","","16","","24.1","","98.58","","","","-36","","Blowing Snow"
"-97.86","55.80","THOMPSON A","5062921","2019-12-07 22:00","2019","12","07","22:00","-25.9","","-29.5","","72","","","","32","","21","","24.1","","98.65","","","","-38","","Blowing Snow"
"-97.86","55.80","THOMPSON A","5062921","2019-12-07 23:00","2019","12","07","23:00","-26.7","","-30.3","","72","","","","32","","23","","24.1","","98.72","","","","-40","","Blowing Snow"
"-97.86","55.80","THOMPSON A","5062921","2019-12-08 00:00","2019","12","08","00:00","-27.9","","-31.6","","71","","","","30","","10","","24.1","","98.84","","","","-37","","Blowing Snow"
"-97.86","55.80","THOMPSON A","5062921","2019-12-08 01:00","2019","12","08","01:00","-28.6","","-32.4","","71","","","","31","","11","","24.1","","98.92","","","","-38","","NA"
"-97.86","55.80","THOMPSON A","5062921","2019-12-08 02:00","2019","12","08","02:00","-29.2","","-33.0","","71","","","","30","","15","","24.1","","99.00","","","","-40","","NA"
"-97.86","55.80","THOMPSON A","5062921","2019-12-08 03:00","2019","12","08","03:00","-29.9","","-33.6","","71","","","","32","","12","","24.1","","99.05","","","","-40","","Clear"
"-97.86","55.80","THOMPSON A","5062921","2019-12-08 04:00","2019","12","08","04:00","-30.2","","-34.0","","71","","","","31","","16","","24.1","","99.13","","","","-42","","NA"
"-97.86","55.80","THOMPSON A","5062921","2019-12-08 05:00","2019","12","08","05:00","-30.9","","-34.6","","71","","","","29","","11","","24.1","","99.16","","","","-41","","NA"
"-97.86","55.80","THOMPSON A","5062921","2019-12-08 06:00","2019","12","08","06:00","-31.8","","-35.5","","71","","","","29","","8","","24.1","","99.20","","","","-40","","Clear"
"-97.86","55.80","THOMPSON A","5062921","2019-12-08 07:00","2019","12","08","07:00","-32.2","","-35.6","","72","","","","28","","5","","24.1","","99.23","","","","-38","","NA"
"-97.86","55.80","THOMPSON A","5062921","2019-12-08 08:00","2019","12","08","08:00","-32.9","","-36.3","","73","","","","29","","9","","24.1","","99.24","","","","-42","","NA"
"-97.86","55.80","THOMPSON A","5062921","2019-12-08 09:00","2019","12","08","09:00","-33.2","","-36.6","","72","","","","28","","10","","24.1","","99.27","","","","-43","","Clear"
"-97.86","55.80","THOMPSON A","5062921","2019-12-08 10:00","2019","12","08","10:00","-32.6","","-36.0","","73","","","","27","","7","","24.1","","99.29","","","","-40","","NA"
"-97.86","55.80","THOMPSON A","5062921","2019-12-08 11:00","2019","12","08","11:00","-30.6","","-34.2","","72","","","","25","","12","","24.1","","99.29","","","","-41","","NA"
"-97.86","55.80","THOMPSON A","5062921","2019-12-08 12:00","2019","12","08","12:00","-28.8","","-32.8","","69","","","","26","","13","","24.1","","99.25","","","","-39","","Clear"
"-97.86","55.80","THOMPSON A","5062921","2019-12-08 13:00","2019","12","08","13:00","-27.4","","-31.7","","67","","","","26","","16","","24.1","","99.18","","","","-39","","NA"
"-97.86","55.80","THOMPSON A","5062921","2019-12-08 14:00","2019","12","08","14:00","-26.5","","-31.0","","67","","","","24","","16","","24.1","","99.13","","","","-37","","NA"
"-97.86","55.80","THOMPSON A","5062921","2019-12-08 15:00","2019","12","08","15:00","-26.3","","-30.9","","66","","","","25","","15","","24.1","","99.15","","","","-37","","Mainly Clear"
"-97.86","55.80","THOMPSON A","5062921","2019-12-08 16:00","2019","12","08","16:00","-27.4","","-31.4","","69","","","","25","","16","","24.1","","99.12","","","","-39","","NA"
"-97.86","55.80","THOMPSON A","5062921","2019-12-08 17:00","2019","12","08","17:00","-28.8","","-32.4","","72","","","","26","","9","","24.1","","99.08","","","","-37","","NA"
"-97.86","55.80","THOMPSON A","5062921","2019-12-08 18:00","2019","12","08","18:00","-29.9","","-33.1","","75","","","","25","","13","","24.1","","99.05","","","","-40","","Mainly Clear"
"-97.86","55.80","THOMPSON A","5062921","2019-12-08 19:00","2019","12","08","19:00","-29.4","","-32.5","","76","","","","24","","7","","24.1","","99.03","","","","-37","","NA"
"-97.86","55.80","THOMPSON A","5062921","2019-12-08 20:00","2019","12","08","20:00","-29.6","","-32.6","","76","","","","23","","5","","24.1","","98.98","","","","-35","","NA"
"-97.86","55.80","THOMPSON A","5062921","2019-12-08 21:00","2019","12","08","21:00","-30.6","","-33.6","","75","","","","24","","4","","24.1","","98.95","","","","-35","","Mainly Clear"
"-97.86","55.80","THOMPSON A","5062921","2019-12-08 22:00","2019","12","08","22:00","-31.3","","-34.4","","75","","","","26","","4","","24.1","","98.90","","","","-36","","NA"
"-97.86","55.80","THOMPSON A","5062921","2019-12-08 23:00","2019","12","08","23:00","-30.7","","-33.7","","76","","","","24","","7","","24.1","","98.87","","","","-38","","NA"
"-97.86","55.80","THOMPSON A","5062921","2019-12-09 00:00","2019","12","09","00:00","-30.6","","-33.6","","75","","","","23","","4","","24.1","","98.84","","","","-35","","Mostly Cloudy"
"-97.86","55.80","THOMPSON A","5062921","2019-12-09 01:00","2019","12","09","01:00","-32.4","","-35.6","","74","","","","36","","2","","24.1","","98.79","","","","-35","","NA"
"-97.86","55.80","THOMPSON A","5062921","2019-12-09 02:00","2019","12","09","02:00","-34.2","","-37.5","","73","","","","0","","1","","24.1","","98.76","","","","-35","","NA"
"-97.86","55.80","THOMPSON A","5062921","2019-12-09 03:00","2019","12","09","03:00","-33.2","","-36.5","","73","","","","23","","4","","24.1","","98.75","","","","-38","","Mainly Clear"
"-97.86","55.80","THOMPSON A","5062921","2019-12-09 04:00","2019","12","09","04:00","-34.3","","-37.6","","73","","","","36","","2","","24.1","","98.76","","","","-37","","NA"
"-97.86","55.80","THOMPSON A","5062921","2019-12-09 05:00","2019","12","09","05:00","-35.1","","-38.5","","72","","","","3","","3","","24.1","","98.76","","","","-39","","NA"
"-97.86","55.80","THOMPSON A","5062921","2019-12-09 06:00","2019","12","09","06:00","-35.1","","-38.5","","72","","","","35","","8","","24.1","","98.78","","","","-44","","Mainly Clear"
"-97.86","55.80","THOMPSON A","5062921","2019-12-09 07:00","2019","12","09","07:00","-35.3","","-38.6","","73","","","","30","","3","","24.1","","98.84","","","","-39","","NA"
"-97.86","55.80","THOMPSON A","5062921","2019-12-09 08:00","2019","12","09","08:00","-36.2","","-39.5","","73","","","","36","","7","","24.1","","98.86","","","","-44","","NA"
"-97.86","55.80","THOMPSON A","5062921","2019-12-09 09:00","2019","12","09","09:00","-36.0","","-39.4","","72","","","","29","","5","","24.1","","98.91","","","","-42","","Mainly Clear"
"-97.86","55.80","THOMPSON A","5062921","2019-12-09 10:00","2019","12","09","10:00","-34.1","","-37.5","","72","","","","32","","14","","24.1","","98.96","","","","-46","","NA"
"-97.86","55.80","THOMPSON A","5062921","2019-12-09 11:00","2019","12","09","11:00","-32.2","","-35.7","","72","","","","32","","9","","24.1","","99.00","","","","-41","","NA"
"-97.86","55.80","THOMPSON A","5062921","2019-12-09 12:00","2019","12","09","12:00","-30.5","","-34.0","","72","","","","31","","16","","24.1","","99.03","","","","-42","","Clear"
"-97.86","55.80","THOMPSON A","5062921","2019-12-09 13:00","2019","12","09","13:00","-29.3","","-32.9","","72","","","","31","","13","","24.1","","99.03","","","","-40","","NA"
"-97.86","55.80","THOMPSON A","5062921","2019-12-09 14:00","2019","12","09","14:00","-28.6","","-32.3","","71","","","","31","","13","","24.1","","99.03","","","","-39","","NA"
"-97.86","55.80","THOMPSON A","5062921","2019-12-09 15:00","2019","12","09","15:00","-28.6","","-32.4","","71","","","","32","","10","","24.1","","99.06","","","","-37","","Clear"
"-97.86","55.80","THOMPSON A","5062921","2019-12-09 16:00","2019","12","09","16:00","-29.7","","-33.4","","71","","","","30","","15","","24.1","","99.11","","","","-41","","NA"
"-97.86","55.80","THOMPSON A","5062921","2019-12-09 17:00","2019","12","09","17:00","-30.6","","-34.2","","72","","","","30","","16","","24.1","","99.14","","","","-43","","NA"
"-97.86","55.80","THOMPSON A","5062921","2019-12-09 18:00","2019","12","09","18:00","-31.1","","-34.6","","72","","","","29","","17","","24.1","","99.15","","","","-44","","Clear"
"-97.86","55.80","THOMPSON A","5062921","2019-12-09 19:00","2019","12","09","19:00","-31.5","","-35.0","","72","","","","30","","12","","24.1","","99.13","","","","-42","","NA"
"-97.86","55.80","THOMPSON A","5062921","2019-12-09 20:00","2019","12","09","20:00","-31.9","","-35.4","","72","","","","29","","14","","24.1","","99.11","","","","-43","","NA"
"-97.86","55.80","THOMPSON A","5062921","2019-12-09 21:00","2019","12","09","21:00","-32.3","","-35.7","","72","","","","28","","9","","24.1","","99.08","","","","-41","","Clear"
"-97.86","55.80","THOMPSON A","5062921","2019-12-09 22:00","2019","12","09","22:00","-32.6","","-36.0","","72","","","","29","","12","","24.1","","99.03","","","","-43","","NA"
"-97.86","55.80","THOMPSON A","5062921","2019-12-09 23:00","2019","12","09","23:00","-33.2","","-36.7","","72","","","","25","","10","","24.1","","98.98","","","","-43","","NA"
"-97.86","55.80","THOMPSON A","5062921","2019-12-10 00:00","2019","12","10","00:00","-32.4","","-35.9","","72","","","","26","","12","","24.1","","98.92","","","","-43","","Clear"
"-97.86","55.80","THOMPSON A","5062921","2019-12-10 01:00","2019","12","10","01:00","-31.4","","-34.9","","72","","","","28","","14","","24.1","","98.85","","","","-43","","NA"
"-97.86","55.80","THOMPSON A","5062921","2019-12-10 02:00","2019","12","10","02:00","-30.9","","-34.4","","72","","","","26","","10","","24.1","","98.77","","","","-40","","NA"
"-97.86","55.80","THOMPSON A","5062921","2019-12-10 03:00","2019","12","10","03:00","-30.6","","-34.2","","72","","","","27","","13","","24.1","","98.73","","","","-41","","Mainly Clear"
"-97.86","55.80","THOMPSON A","5062921","2019-12-10 04:00","2019","12","10","04:00","-30.1","","-33.7","","72","","","","26","","16","","24.1","","98.67","","","","-42","","NA"
"-97.86","55.80","THOMPSON A","5062921","2019-12-10 05:00","2019","12","10","05:00","-29.6","","-33.2","","72","","","","28","","15","","8.1","","98.64","","","","-41","","Snow"
"-97.86","55.80","THOMPSON A","5062921","2019-12-10 06:00","2019","12","10","06:00","-29.3","","-33.0","","71","","","","28","","15","","8.1","","98.58","","","","-41","","Snow"
"-97.86","55.80","THOMPSON A","5062921","2019-12-10 07:00","2019","12","10","07:00","-30.3","","-34.0","","71","","","","28","","13","","12.9","","98.56","","","","-41","","Snow"
"-97.86","55.80","THOMPSON A","5062921","2019-12-10 08:00","2019","12","10","08:00","-31.5","","-35.0","","72","","","","29","","10","","24.1","","98.53","","","","-41","","NA"
"-97.86","55.80","THOMPSON A","5062921","2019-12-10 09:00","2019","12","10","09:00","-31.7","","-35.2","","72","","","","28","","14","","24.1","","98.47","","","","-43","","Mainly Clear"
"-97.86","55.80","THOMPSON A","5062921","2019-12-10 10:00","2019","12","10","10:00","-30.8","","-34.5","","71","","","","29","","18","","24.1","","98.44","","","","-43","","NA"
"-97.86","55.80","THOMPSON A","5062921","2019-12-10 11:00","2019","12","10","11:00","-29.6","","-33.5","","70","","","","28","","21","","24.1","","98.39","","","","-43","","Ice Crystals,Blowing Snow"
"-97.86","55.80","THOMPSON A","5062921","2019-12-10 12:00","2019","12","10","12:00","-28.7","","-32.7","","69","","","","30","","16","","24.1","","98.47","","","","-40","","Ice Crystals,Blowing Snow"
"-97.86","55.80","THOMPSON A","5062921","2019-12-10 13:00","2019","12","10","13:00","-27.9","","-32.0","","69","","","","30","","18","","4.8","","98.46","","","","-40","","Snow,Ice Crystals,Blowing Snow"
"-97.86","55.80","THOMPSON A","5062921","2019-12-10 14:00","2019","12","10","14:00","-27.1","","-31.6","","66","","","","31","","16","","24.1","","98.51","","","","-38","","Ice Crystals,Blowing Snow"
"-97.86","55.80","THOMPSON A","5062921","2019-12-10 15:00","2019","12","10","15:00","-26.8","","-31.5","","65","","","","30","","17","","19.3","","98.57","","","","-38","","Ice Crystals,Blowing Snow"
"-97.86","55.80","THOMPSON A","5062921","2019-12-10 16:00","2019","12","10","16:00","-27.1","","-31.3","","69","","","","29","","16","","12.9","","98.61","","","","-38","","Ice Crystals,Blowing Snow"
"-97.86","55.80","THOMPSON A","5062921","2019-12-10 17:00","2019","12","10","17:00","-26.9","","-30.6","","71","","","","29","","17","","24.1","","98.62","","","","-38","","Ice Crystals,Blowing Snow"
"-97.86","55.80","THOMPSON A","5062921","2019-12-10 18:00","2019","12","10","18:00","-25.8","","-29.7","","71","","","","30","","19","","24.1","","98.64","","","","-38","","Snow,Blowing Snow"
"-97.86","55.80","THOMPSON A","5062921","2019-12-10 19:00","2019","12","10","19:00","-25.2","","-29.1","","70","","","","30","","21","","24.1","","98.66","","","","-37","","Blowing Snow"
"-97.86","55.80","THOMPSON A","5062921","2019-12-10 20:00","2019","12","10","20:00","-25.1","","-29.2","","69","","","","31","","25","","24.1","","98.69","","","","-38","","Blowing Snow"
"-97.86","55.80","THOMPSON A","5062921","2019-12-10 21:00","2019","12","10","21:00","-24.8","","-28.9","","70","","","","32","","29","","24.1","","98.71","","","","-39","","Blowing Snow"
"-97.86","55.80","THOMPSON A","5062921","2019-12-10 22:00","2019","12","10","22:00","-25.1","","-29.1","","70","","","","32","","26","","24.1","","98.78","","","","-38","","Blowing Snow"
"-97.86","55.80","THOMPSON A","5062921","2019-12-10 23:00","2019","12","10","23:00","-25.5","","-29.3","","71","","","","32","","21","","24.1","","98.85","","","","-38","","Blowing Snow"
"-97.86","55.80","THOMPSON A","5062921","2019-12-11 00:00","2019","12","11","00:00","-26.0","","-29.7","","72","","","","31","","18","","24.1","","98.94","","","","-37","","Blowing Snow"
"-97.86","55.80","THOMPSON A","5062921","2019-12-11 01:00","2019","12","11","01:00","-26.5","","-30.0","","73","","","","30","","21","","24.1","","98.98","","","","-39","","Blowing Snow"
"-97.86","55.80","THOMPSON A","5062921","2019-12-11 02:00","2019","12","11","02:00","-27.3","","-30.7","","73","","","","30","","20","","24.1","","99.02","","","","-40","","Blowing Snow"
"-97.86","55.80","THOMPSON A","5062921","2019-12-11 03:00","2019","12","11","03:00","-27.8","","-31.2","","73","","","","30","","15","","24.1","","99.05","","","","-39","","Blowing Snow"
"-97.86","55.80","THOMPSON A","5062921","2019-12-11 04:00","2019","12","11","04:00","-27.9","","-31.2","","74","","","","30","","19","","24.1","","99.07","","","","-40","","Blowing Snow"
"-97.86","55.80","THOMPSON A","5062921","2019-12-11 05:00","2019","12","11","05:00","-28.5","","-31.9","","74","","","","30","","15","","24.1","","99.12","","","","-40","","Blowing Snow"
"-97.86","55.80","THOMPSON A","5062921","2019-12-11 06:00","2019","12","11","06:00","-28.7","","-32.0","","74","","","","29","","17","","24.1","","99.13","","","","-41","","Blowing Snow"
"-97.86","55.80","THOMPSON A","5062921","2019-12-11 07:00","2019","12","11","07:00","-28.8","","-32.1","","74","","","","30","","17","","24.1","","99.13","","","","-41","","Blowing Snow"
"-97.86","55.80","THOMPSON A","5062921","2019-12-11 08:00","2019","12","11","08:00","-29.3","","-32.7","","73","","","","29","","16","","24.1","","99.17","","","","-41","","Blowing Snow"
"-97.86","55.80","THOMPSON A","5062921","2019-12-11 09:00","2019","12","11","09:00","-29.6","","-33.0","","73","","","","30","","14","","24.1","","99.20","","","","-41","","Blowing Snow"
"-97.86","55.80","THOMPSON A","5062921","2019-12-11 10:00","2019","12","11","10:00","-29.6","","-33.1","","72","","","","29","","21","","24.1","","99.24","","","","-43","","Blowing Snow"
"-97.86","55.80","THOMPSON A","5062921","2019-12-11 11:00","2019","12","11","11:00","-28.9","","-32.7","","70","","","","30","","23","","24.1","","99.28","","","","-43","","Blowing Snow"
"-97.86","55.80","THOMPSON A","5062921","2019-12-11 12:00","2019","12","11","12:00","-28.2","","-32.2","","69","","","","30","","18","","24.1","","99.29","","","","-40","","Mainly Clear"
"-97.86","55.80","THOMPSON A","5062921","2019-12-11 13:00","2019","12","11","13:00","-27.4","","-31.6","","68","","","","28","","18","","24.1","","99.30","","","","-39","","Blowing Snow"
"-97.86","55.80","THOMPSON A","5062921","2019-12-11 14:00","2019","12","11","14:00","-26.8","","-31.1","","68","","","","28","","18","","24.1","","99.30","","","","-38","","Blowing Snow"
"-97.86","55.80","THOMPSON A","5062921","2019-12-11 15:00","2019","12","11","15:00","-26.9","","-31.0","","69","","","","28","","18","","24.1","","99.33","","","","-39","","Blowing Snow"
"-97.86","55.80","THOMPSON A","5062921","2019-12-11 16:00","2019","12","11","16:00","-28.0","","-31.8","","71","","","","28","","13","","24.1","","99.37","","","","-38","","Blowing Snow"
"-97.86","55.80","THOMPSON A","5062921","2019-12-11 17:00","2019","12","11","17:00","-29.1","","-32.5","","73","","","","27","","9","","24.1","","99.41","","","","-38","","Blowing Snow"
"-97.86","55.80","THOMPSON A","5062921","2019-12-11 18:00","2019","12","11","18:00","-30.6","","-33.8","","74","","","","26","","6","","24.1","","99.41","","","","-37","","Clear"
"-97.86","55.80","THOMPSON A","5062921","2019-12-11 19:00","2019","12","11","19:00","-30.4","","-33.6","","74","","","","27","","14","","24.1","","99.42","","","","-42","","NA"
"-97.86","55.80","THOMPSON A","5062921","2019-12-11 20:00","2019","12","11","20:00","-31.0","","-34.2","","74","","","","28","","10","","24.1","","99.40","","","","-40","","NA"
"-97.86","55.80","THOMPSON A","5062921","2019-12-11 21:00","2019","12","11","21:00","-31.1","","-34.4","","74","","","","25","","4","","24.1","","99.40","","","","-36","","Clear"
"-97.86","55.80","THOMPSON A","5062921","2019-12-11 22:00","2019","12","11","22:00","-30.2","","-33.4","","75","","","","29","","9","","24.1","","99.40","","","","-39","","NA"
"-97.86","55.80","THOMPSON A","5062921","2019-12-11 23:00","2019","12","11","23:00","-30.8","","-34.0","","74","","","","27","","7","","24.1","","99.41","","","","-38","","NA"
"-97.86","55.80","THOMPSON A","5062921","2019-12-12 00:00","2019","12","12","00:00","-30.4","","-33.5","","75","","","","24","","7","","24.1","","99.43","","","","-38","","Mainly Clear"
"-97.86","55.80","THOMPSON A","5062921","2019-12-12 01:00","2019","12","12","01:00","-31.5","","-34.6","","75","","","","26","","9","","24.1","","99.43","","","","-40","","NA"
"-97.86","55.80","THOMPSON A","5062921","2019-12-12 02:00","2019","12","12","02:00","-30.6","","-33.7","","74","","","","27","","9","","24.1","","99.43","","","","-39","","NA"
"-97.86","55.80","THOMPSON A","5062921","2019-12-12 03:00","2019","12","12","03:00","-31.5","","-34.6","","75","","","","26","","9","","24.1","","99.45","","","","-40","","Clear"
"-97.86","55.80","THOMPSON A","5062921","2019-12-12 04:00","2019","12","12","04:00","-30.7","","-33.8","","75","","","","28","","8","","24.1","","99.42","","","","-39","","NA"
"-97.86","55.80","THOMPSON A","5062921","2019-12-12 05:00","2019","12","12","05:00","-30.9","","-34.0","","75","","","","28","","4","","24.1","","99.42","","","","-35","","NA"
"-97.86","55.80","THOMPSON A","5062921","2019-12-12 06:00","2019","12","12","06:00","-31.7","","-34.9","","74","","","","36","","3","","24.1","","99.40","","","","-35","","Mainly Clear"
"-97.86","55.80","THOMPSON A","5062921","2019-12-12 07:00","2019","12","12","07:00","-32.0","","-35.1","","75","","","","23","","5","","24.1","","99.42","","","","-38","","NA"
"-97.86","55.80","THOMPSON A","5062921","2019-12-12 08:00","2019","12","12","08:00","-32.4","","-35.5","","74","","","","36","","2","","24.1","","99.42","","","","-35","","NA"
"-97.86","55.80","THOMPSON A","5062921","2019-12-12 09:00","2019","12","12","09:00","-33.0","","-36.2","","74","","","","25","","6","","24.1","","99.44","","","","-40","","Clear"
"-97.86","55.80","THOMPSON A","5062921","2019-12-12 10:00","2019","12","12","10:00","-32.8","","-36.0","","74","","","","26","","7","","24.1","","99.44","","","","-41","","NA"
"-97.86","55.80","THOMPSON A","5062921","2019-12-12 11:00","2019","12","12","11:00","-31.2","","-34.5","","74","","","","24","","9","","24.1","","99.43","","","","-40","","NA"
"-97.86","55.80","THOMPSON A","5062921","2019-12-12 12:00","2019","12","12","12:00","-29.1","","-32.4","","74","","","","24","","9","","24.1","","99.39","","","","-38","","Clear"
"-97.86","55.80","THOMPSON A","5062921","2019-12-12 13:00","2019","12","12","13:00","-27.7","","-31.1","","73","","","","23","","10","","24.1","","99.37","","","","-36","","NA"
"-97.86","55.80","THOMPSON A","5062921","2019-12-12 14:00","2019","12","12","14:00","-26.3","","-29.9","","73","","","","23","","7","","24.1","","99.34","","","","-33","","NA"
"-97.86","55.80","THOMPSON A","5062921","2019-12-12 15:00","2019","12","12","15:00","-26.4","","-30.1","","71","","","","22","","5","","24.1","","99.33","","","","-32","","Clear"
"-97.86","55.80","THOMPSON A","5062921","2019-12-12 16:00","2019","12","12","16:00","-28.1","","-31.3","","74","","","","23","","4","","24.1","","99.33","","","","-32","","NA"
"-97.86","55.80","THOMPSON A","5062921","2019-12-12 17:00","2019","12","12","17:00","-29.3","","-32.5","","75","","","","36","","2","","24.1","","99.34","","","","-32","","NA"
"-97.86","55.80","THOMPSON A","5062921","2019-12-12 18:00","2019","12","12","18:00","-28.9","","-31.9","","76","","","","24","","5","","24.1","","99.32","","","","-34","","Clear"
"-97.86","55.80","THOMPSON A","5062921","2019-12-12 19:00","2019","12","12","19:00","-31.4","","-34.5","","75","","","","36","","1","","24.1","","99.30","","","","-33","","NA"
"-97.86","55.80","THOMPSON A","5062921","2019-12-12 20:00","2019","12","12","20:00","-32.5","","-35.7","","74","","","","","","0","","24.1","","99.26","","","","","","NA"
"-97.86","55.80","THOMPSON A","5062921","2019-12-12 21:00","2019","12","12","21:00","-31.7","","-34.8","","75","","","","32","","3","","24.1","","99.24","","","","-35","","Clear"
"-97.86","55.80","THOMPSON A","5062921","2019-12-12 22:00","2019","12","12","22:00","-31.7","","-34.9","","74","","","","29","","4","","24.1","","99.25","","","","-36","","NA"
"-97.86","55.80","THOMPSON A","5062921","2019-12-12 23:00","2019","12","12","23:00","-35.5","","-38.7","","73","","","","36","","1","","24.1","","99.24","","","","-37","","Ice Crystals"
"-97.86","55.80","THOMPSON A","5062921","2019-12-13 00:00","2019","12","13","00:00","-34.8","","-38.2","","72","","","","30","","3","","24.1","","99.24","","","","-39","","Clear"
"-97.86","55.80","THOMPSON A","5062921","2019-12-13 01:00","2019","12","13","01:00","-36.0","","-39.5","","71","","","","36","","2","","24.1","","99.26","","","","-39","","NA"
"-97.86","55.80","THOMPSON A","5062921","2019-12-13 02:00","2019","12","13","02:00","-36.5","","-40.0","","71","","","","36","","2","","24.1","","99.26","","","","-39","","NA"
"-97.86","55.80","THOMPSON A","5062921","2019-12-13 03:00","2019","12","13","03:00","-37.0","","-40.6","","70","","","","36","","1","","24.1","","99.29","","","","-38","","Clear"
"-97.86","55.80","THOMPSON A","5062921","2019-12-13 04:00","2019","12","13","04:00","-37.0","","-40.6","","70","","","","36","","1","","24.1","","99.27","","","","-38","","NA"
"-97.86","55.80","THOMPSON A","5062921","2019-12-13 05:00","2019","12","13","05:00","-37.4","","-41.0","","70","","","","24","","7","","24.1","","99.28","","","","-46","","NA"
"-97.86","55.80","THOMPSON A","5062921","2019-12-13 06:00","2019","12","13","06:00","-36.6","","-40.1","","71","","","","28","","4","","24.1","","99.29","","","","-42","","Clear"
"-97.86","55.80","THOMPSON A","5062921","2019-12-13 07:00","2019","12","13","07:00","-36.2","","-39.6","","71","","","","36","","3","","24.1","","99.31","","","","-40","","NA"
"-97.86","55.80","THOMPSON A","5062921","2019-12-13 08:00","2019","12","13","08:00","-36.0","","-39.5","","71","","","","27","","5","","24.1","","99.33","","","","-42","","NA"
"-97.86","55.80","THOMPSON A","5062921","2019-12-13 09:00","2019","12","13","09:00","-35.0","","-38.4","","72","","","","30","","4","","24.1","","99.39","","","","-40","","Mainly Clear"
"-97.86","55.80","THOMPSON A","5062921","2019-12-13 10:00","2019","12","13","10:00","-35.1","","-38.5","","72","","","","29","","5","","24.1","","99.44","","","","-41","","NA"
"-97.86","55.80","THOMPSON A","5062921","2019-12-13 11:00","2019","12","13","11:00","-32.9","","-36.4","","72","","","","28","","7","","24.1","","99.45","","","","-41","","NA"
"-97.86","55.80","THOMPSON A","5062921","2019-12-13 12:00","2019","12","13","12:00","-30.7","","-34.2","","72","","","","29","","11","","24.1","","99.45","","","","-41","","Clear"
"-97.86","55.80","THOMPSON A","5062921","2019-12-13 13:00","2019","12","13","13:00","-29.4","","-32.9","","72","","","","30","","9","","24.1","","99.43","","","","-38","","NA"
"-97.86","55.80","THOMPSON A","5062921","2019-12-13 14:00","2019","12","13","14:00","-28.2","","-31.7","","72","","","","29","","11","","24.1","","99.41","","","","-38","","NA"
"-97.86","55.80","THOMPSON A","5062921","2019-12-13 15:00","2019","12","13","15:00","-28.4","","-32.0","","72","","","","28","","10","","24.1","","99.40","","","","-37","","Clear"
"-97.86","55.80","THOMPSON A","5062921","2019-12-13 16:00","2019","12","13","16:00","-29.2","","-32.7","","72","","","","29","","10","","24.1","","99.43","","","","-38","","NA"
"-97.86","55.80","THOMPSON A","5062921","2019-12-13 17:00","2019","12","13","17:00","-31.8","","-35.2","","72","","","","26","","10","","24.1","","99.45","","","","-41","","NA"
"-97.86","55.80","THOMPSON A","5062921","2019-12-13 18:00","2019","12","13","18:00","-31.3","","-34.5","","74","","","","27","","7","","24.1","","99.47","","","","-39","","Clear"
"-97.86","55.80","THOMPSON A","5062921","2019-12-13 19:00","2019","12","13","19:00","-32.3","","-35.5","","74","","","","25","","7","","24.1","","99.44","","","","-40","","NA"
"-97.86","55.80","THOMPSON A","5062921","2019-12-13 20:00","2019","12","13","20:00","-32.9","","-36.2","","73","","","","25","","4","","24.1","","99.42","","","","-38","","NA"
"-97.86","55.80","THOMPSON A","5062921","2019-12-13 21:00","2019","12","13","21:00","-33.2","","-36.5","","73","","","","24","","4","","24.1","","99.39","","","","-38","","Clear"
"-97.86","55.80","THOMPSON A","5062921","2019-12-13 22:00","2019","12","13","22:00","-34.1","","-37.4","","73","","","","26","","5","","24.1","","99.36","","","","-40","","NA"
"-97.86","55.80","THOMPSON A","5062921","2019-12-13 23:00","2019","12","13","23:00","-34.9","","-38.3","","72","","","","28","","3","","24.1","","99.34","","","","-39","","NA"
"-97.86","55.80","THOMPSON A","5062921","2019-12-14 00:00","2019","12","14","00:00","-35.3","","-38.7","","72","","","","27","","8","","24.1","","99.33","","","","-44","","Clear"
"-97.86","55.80","THOMPSON A","5062921","2019-12-14 01:00","2019","12","14","01:00","-35.2","","-38.6","","72","","","","36","","1","","24.1","","99.28","","","","-36","","NA"
"-97.86","55.80","THOMPSON A","5062921","2019-12-14 02:00","2019","12","14","02:00","-35.4","","-38.8","","72","","","","25","","5","","24.1","","99.28","","","","-42","","NA"
"-97.86","55.80","THOMPSON A","5062921","2019-12-14 03:00","2019","12","14","03:00","-35.7","","-39.2","","71","","","","25","","5","","24.1","","99.23","","","","-42","","Clear"
"-97.86","55.80","THOMPSON A","5062921","2019-12-14 04:00","2019","12","14","04:00","-35.2","","-38.7","","71","","","","26","","4","","24.1","","99.18","","","","-40","","Snow"
"-97.86","55.80","THOMPSON A","5062921","2019-12-14 05:00","2019","12","14","05:00","-35.2","","-38.7","","71","","","","26","","3","","24.1","","99.15","","","","-39","","Snow"
"-97.86","55.80","THOMPSON A","5062921","2019-12-14 06:00","2019","12","14","06:00","-36.0","","-39.5","","71","","","","28","","4","","24.1","","99.11","","","","-41","","Mainly Clear"
"-97.86","55.80","THOMPSON A","5062921","2019-12-14 07:00","2019","12","14","07:00","-35.3","","-38.8","","71","","","","28","","7","","24.1","","99.09","","","","-43","","NA"
"-97.86","55.80","THOMPSON A","5062921","2019-12-14 08:00","2019","12","14","08:00","-36.1","","-39.6","","71","","","","23","","3","","24.1","","99.05","","","","-40","","NA"
"-97.86","55.80","THOMPSON A","5062921","2019-12-14 09:00","2019","12","14","09:00","-35.9","","-39.5","","70","","","","26","","7","","24.1","","99.02","","","","-44","","Mainly Clear"
"-97.86","55.80","THOMPSON A","5062921","2019-12-14 10:00","2019","12","14","10:00","-35.3","","-38.8","","71","","","","26","","4","","24.1","","98.98","","","","-40","","NA"
"-97.86","55.80","THOMPSON A","5062921","2019-12-14 11:00","2019","12","14","11:00","-32.4","","-35.9","","72","","","","26","","6","","24.1","","98.96","","","","-39","","NA"
"-97.86","55.80","THOMPSON A","5062921","2019-12-14 12:00","2019","12","14","12:00","-30.1","","-33.4","","73","","","","26","","8","","24.1","","98.88","","","","-38","","Mostly Cloudy"
"-97.86","55.80","THOMPSON A","5062921","2019-12-14 13:00","2019","12","14","13:00","-28.9","","-32.2","","74","","","","23","","8","","24.1","","98.83","","","","-37","","NA"
"-97.86","55.80","THOMPSON A","5062921","2019-12-14 14:00","2019","12","14","14:00","-27.9","","-31.1","","74","","","","25","","9","","24.1","","98.77","","","","-36","","NA"
"-97.86","55.80","THOMPSON A","5062921","2019-12-14 15:00","2019","12","14","15:00","-28.0","","-31.3","","74","","","","22","","7","","24.1","","98.76","","","","-35","","Mainly Clear"
"-97.86","55.80","THOMPSON A","5062921","2019-12-14 16:00","2019","12","14","16:00","-28.4","","-31.6","","75","","","","22","","8","","24.1","","98.72","","","","-36","","NA"
"-97.86","55.80","THOMPSON A","5062921","2019-12-14 17:00","2019","12","14","17:00","-30.0","","-33.1","","75","","","","24","","13","","24.1","","98.71","","","","-41","","NA"
"-97.86","55.80","THOMPSON A","5062921","2019-12-14 18:00","2019","12","14","18:00","-29.6","","-32.7","","75","","","","25","","6","","24.1","","98.67","","","","-36","","Mainly Clear"
"-97.86","55.80","THOMPSON A","5062921","2019-12-14 19:00","2019","12","14","19:00","-30.8","","-33.9","","74","","","","24","","3","","24.1","","98.63","","","","-34","","Ice Crystals"
"-97.86","55.80","THOMPSON A","5062921","2019-12-14 20:00","2019","12","14","20:00","-30.3","","-33.5","","74","","","","36","","2","","24.1","","98.55","","","","-33","","Ice Crystals"
"-97.86","55.80","THOMPSON A","5062921","2019-12-14 21:00","2019","12","14","21:00","-30.6","","-33.8","","74","","","","36","","1","","24.1","","98.47","","","","-32","","Ice Crystals"
"-97.86","55.80","THOMPSON A","5062921","2019-12-14 22:00","2019","12","14","22:00","-32.3","","-35.6","","73","","","","18","","4","","24.1","","98.43","","","","-37","","Ice Crystals"
"-97.86","55.80","THOMPSON A","5062921","2019-12-14 23:00","2019","12","14","23:00","-33.0","","-36.4","","73","","","","36","","1","","24.1","","98.38","","","","-34","","Ice Crystals"
"-97.86","55.80","THOMPSON A","5062921","2019-12-15 00:00","2019","12","15","00:00","-34.0","","-37.5","","72","","","","20","","3","","24.1","","98.32","","","","-38","","Ice Crystals"
"-97.86","55.80","THOMPSON A","5062921","2019-12-15 01:00","2019","12","15","01:00","-29.5","","-32.8","","74","","","","18","","7","","24.1","","98.27","","","","-37","","Ice Crystals"
"-97.86","55.80","THOMPSON A","5062921","2019-12-15 02:00","2019","12","15","02:00","-28.9","","-32.1","","74","","","","36","","3","","24.1","","98.21","","","","-32","","Ice Crystals"
"-97.86","55.80","THOMPSON A","5062921","2019-12-15 03:00","2019","12","15","03:00","-28.5","","-31.7","","75","","","","11","","4","","24.1","","98.16","","","","-33","","Ice Crystals"
"-97.86","55.80","THOMPSON A","5062921","2019-12-15 04:00","2019","12","15","04:00","-28.3","","-31.5","","75","","","","9","","4","","24.1","","98.10","","","","-33","","Ice Crystals"
"-97.86","55.80","THOMPSON A","5062921","2019-12-15 05:00","2019","12","15","05:00","-28.3","","-31.5","","75","","","","36","","2","","24.1","","98.08","","","","-30","","Ice Crystals"
"-97.86","55.80","THOMPSON A","5062921","2019-12-15 06:00","2019","12","15","06:00","-28.2","","-31.4","","75","","","","7","","5","","16.1","","98.02","","","","-34","","Snow"
"-97.86","55.80","THOMPSON A","5062921","2019-12-15 07:00","2019","12","15","07:00","-27.5","","-30.6","","75","","","","8","","5","","16.1","","97.96","","","","-33","","Snow"
"-97.86","55.80","THOMPSON A","5062921","2019-12-15 08:00","2019","12","15","08:00","-26.9","","-30.0","","76","","","","36","","2","","8.1","","97.94","","","","-29","","Snow"
"-97.86","55.80","THOMPSON A","5062921","2019-12-15 09:00","2019","12","15","09:00","-26.6","","-29.6","","76","","","","10","","3","","8.1","","97.90","","","","-30","","Snow"
"-97.86","55.80","THOMPSON A","5062921","2019-12-15 10:00","2019","12","15","10:00","-26.2","","-29.3","","76","","","","4","","4","","8.1","","97.93","","","","-30","","Snow"
"-97.86","55.80","THOMPSON A","5062921","2019-12-15 11:00","2019","12","15","11:00","-25.7","","-28.8","","76","","","","33","","4","","9.7","","97.92","","","","-30","","Snow"
"-97.86","55.80","THOMPSON A","5062921","2019-12-15 12:00","2019","12","15","12:00","-24.4","","-27.6","","75","","","","36","","2","","24.1","","97.88","","","","-26","","Snow"
"-97.86","55.80","THOMPSON A","5062921","2019-12-15 13:00","2019","12","15","13:00","-23.4","","-26.5","","76","","","","4","","5","","24.1","","97.90","","","","-28","","Snow"
"-97.86","55.80","THOMPSON A","5062921","2019-12-15 14:00","2019","12","15","14:00","-23.2","","-26.4","","75","","","","31","","3","","24.1","","97.89","","","","-26","","Snow"
"-97.86","55.80","THOMPSON A","5062921","2019-12-15 15:00","2019","12","15","15:00","-24.1","","-27.3","","75","","","","35","","4","","24.1","","97.93","","","","-28","","Ice Crystals"
"-97.86","55.80","THOMPSON A","5062921","2019-12-15 16:00","2019","12","15","16:00","-25.4","","-28.7","","74","","","","30","","4","","24.1","","97.99","","","","-29","","NA"
"-97.86","55.80","THOMPSON A","5062921","2019-12-15 17:00","2019","12","15","17:00","-26.7","","-29.6","","77","","","","32","","7","","24.1","","98.05","","","","-33","","NA"
"-97.86","55.80","THOMPSON A","5062921","2019-12-15 18:00","2019","12","15","18:00","-28.2","","-31.2","","76","","","","31","","5","","24.1","","98.08","","","","-34","","Ice Crystals"
"-97.86","55.80","THOMPSON A","5062921","2019-12-15 19:00","2019","12","15","19:00","-27.3","","-30.2","","77","","","","29","","4","","24.1","","98.11","","","","-32","","Ice Crystals"
"-97.86","55.80","THOMPSON A","5062921","2019-12-15 20:00","2019","12","15","20:00","-27.3","","-30.1","","77","","","","30","","10","","24.1","","98.10","","","","-36","","Ice Crystals"
"-97.86","55.80","THOMPSON A","5062921","2019-12-15 21:00","2019","12","15","21:00","-27.3","","-30.2","","77","","","","31","","8","","24.1","","98.11","","","","-35","","Ice Crystals"
"-97.86","55.80","THOMPSON A","5062921","2019-12-15 22:00","2019","12","15","22:00","-28.0","","-31.0","","76","","","","29","","10","","24.1","","98.13","","","","-37","","Ice Crystals"
"-97.86","55.80","THOMPSON A","5062921","2019-12-15 23:00","2019","12","15","23:00","-28.4","","-31.4","","76","","","","29","","7","","24.1","","98.16","","","","-35","","NA"
"-97.86","55.80","THOMPSON A","5062921","2019-12-16 00:00","2019","12","16","00:00","-29.6","","-32.6","","76","","","","27","","9","","24.1","","98.20","","","","-38","","Clear"
"-97.86","55.80","THOMPSON A","5062921","2019-12-16 01:00","2019","12","16","01:00","-31.4","","-34.4","","75","","","","27","","8","","24.1","","98.21","","","","-40","","NA"
"-97.86","55.80","THOMPSON A","5062921","2019-12-16 02:00","2019","12","16","02:00","-32.4","","-35.5","","74","","","","26","","4","","24.1","","98.24","","","","-37","","NA"
"-97.86","55.80","THOMPSON A","5062921","2019-12-16 03:00","2019","12","16","03:00","-32.6","","-35.8","","74","","","","25","","5","","24.1","","98.26","","","","-39","","Mainly Clear"
"-97.86","55.80","THOMPSON A","5062921","2019-12-16 04:00","2019","12","16","04:00","-33.4","","-36.6","","74","","","","36","","2","","24.1","","98.27","","","","-36","","NA"
"-97.86","55.80","THOMPSON A","5062921","2019-12-16 05:00","2019","12","16","05:00","-34.1","","-37.4","","72","","","","0","","1","","24.1","","98.29","","","","-35","","NA"
"-97.86","55.80","THOMPSON A","5062921","2019-12-16 06:00","2019","12","16","06:00","-35.6","","-39.0","","72","","","","36","","1","","24.1","","98.29","","","","-37","","Mainly Clear"
"-97.86","55.80","THOMPSON A","5062921","2019-12-16 07:00","2019","12","16","07:00","-34.4","","-37.9","","72","","","","18","","3","","24.1","","98.30","","","","-38","","NA"
"-97.86","55.80","THOMPSON A","5062921","2019-12-16 08:00","2019","12","16","08:00","-34.2","","-37.7","","71","","","","36","","2","","24.1","","98.27","","","","-37","","NA"
"-97.86","55.80","THOMPSON A","5062921","2019-12-16 09:00","2019","12","16","09:00","-33.5","","-36.9","","72","","","","36","","3","","24.1","","98.30","","","","-37","","Mostly Cloudy"
"-97.86","55.80","THOMPSON A","5062921","2019-12-16 10:00","2019","12","16","10:00","-31.7","","-35.1","","72","","","","23","","3","","24.1","","98.32","","","","-35","","NA"
"-97.86","55.80","THOMPSON A","5062921","2019-12-16 11:00","2019","12","16","11:00","-30.4","","-33.8","","73","","","","36","","2","","16.1","","98.32","","","","-33","","NA"
"-97.86","55.80","THOMPSON A","5062921","2019-12-16 12:00","2019","12","16","12:00","-28.7","","-32.0","","74","","","","23","","3","","9.7","","98.30","","","","-32","","Ice Crystals"
"-97.86","55.80","THOMPSON A","5062921","2019-12-16 13:00","2019","12","16","13:00","-27.7","","-31.0","","74","","","","","","0","","8.1","","98.28","","","","","","Snow"
"-97.86","55.80","THOMPSON A","5062921","2019-12-16 14:00","2019","12","16","14:00","-25.4","","-28.6","","75","","","","36","","3","","6.4","","98.30","","","","-28","","Snow"
"-97.86","55.80","THOMPSON A","5062921","2019-12-16 15:00","2019","12","16","15:00","-24.9","","-28.0","","76","","","","32","","3","","4.8","","98.35","","","","-28","","Snow"
"-97.86","55.80","THOMPSON A","5062921","2019-12-16 16:00","2019","12","16","16:00","-25.2","","-28.4","","75","","","","33","","9","","4.8","","98.49","","","","-33","","Snow"
"-97.86","55.80","THOMPSON A","5062921","2019-12-16 17:00","2019","12","16","17:00","-25.4","","-28.7","","75","","","","32","","8","","6.4","","98.58","","","","-33","","Snow"
"-97.86","55.80","THOMPSON A","5062921","2019-12-16 18:00","2019","12","16","18:00","-25.9","","-29.1","","75","","","","31","","9","","9.7","","98.68","","","","-34","","Snow"
"-97.86","55.80","THOMPSON A","5062921","2019-12-16 19:00","2019","12","16","19:00","-26.8","","-30.2","","73","","","","32","","10","","19.3","","98.77","","","","-35","","Snow"
"-97.86","55.80","THOMPSON A","5062921","2019-12-16 20:00","2019","12","16","20:00","-27.9","","-31.4","","73","","","","31","","14","","24.1","","98.82","","","","-38","","Snow"
"-97.86","55.80","THOMPSON A","5062921","2019-12-16 21:00","2019","12","16","21:00","-28.9","","-32.4","","72","","","","31","","13","","24.1","","98.89","","","","-39","","Mainly Clear"
"-97.86","55.80","THOMPSON A","5062921","2019-12-16 22:00","2019","12","16","22:00","-29.6","","-33.2","","72","","","","31","","17","","24.1","","98.97","","","","-42","","NA"
"-97.86","55.80","THOMPSON A","5062921","2019-12-16 23:00","2019","12","16","23:00","-30.2","","-33.7","","72","","","","31","","15","","24.1","","99.03","","","","-42","","NA"
"-97.86","55.80","THOMPSON A","5062921","2019-12-17 00:00","2019","12","17","00:00","-31.0","","-34.5","","72","","","","31","","14","","24.1","","99.12","","","","-42","","Clear"
"-97.86","55.80","THOMPSON A","5062921","2019-12-17 01:00","2019","12","17","01:00","-31.3","","-34.9","","72","","","","32","","13","","24.1","","99.18","","","","-42","","NA"
"-97.86","55.80","THOMPSON A","5062921","2019-12-17 02:00","2019","12","17","02:00","-32.1","","-35.7","","71","","","","31","","8","","24.1","","99.25","","","","-40","","NA"
"-97.86","55.80","THOMPSON A","5062921","2019-12-17 03:00","2019","12","17","03:00","-32.8","","-36.3","","71","","","","30","","12","","24.1","","99.32","","","","-44","","Clear"
"-97.86","55.80","THOMPSON A","5062921","2019-12-17 04:00","2019","12","17","04:00","-33.4","","-37.0","","71","","","","30","","9","","24.1","","99.38","","","","-43","","NA"
"-97.86","55.80","THOMPSON A","5062921","2019-12-17 05:00","2019","12","17","05:00","-33.7","","-37.3","","71","","","","30","","11","","24.1","","99.44","","","","-44","","NA"
"-97.86","55.80","THOMPSON A","5062921","2019-12-17 06:00","2019","12","17","06:00","-34.0","","-37.5","","71","","","","30","","9","","24.1","","99.46","","","","-43","","Clear"
"-97.86","55.80","THOMPSON A","5062921","2019-12-17 07:00","2019","12","17","07:00","-34.4","","-38.0","","71","","","","30","","8","","24.1","","99.48","","","","-43","","NA"
"-97.86","55.80","THOMPSON A","5062921","2019-12-17 08:00","2019","12","17","08:00","-34.5","","-38.0","","71","","","","30","","6","","24.1","","99.52","","","","-42","","NA"
"-97.86","55.80","THOMPSON A","5062921","2019-12-17 09:00","2019","12","17","09:00","-34.2","","-37.8","","71","","","","28","","7","","24.1","","99.53","","","","-42","","Clear"
"-97.86","55.80","THOMPSON A","5062921","2019-12-17 10:00","2019","12","17","10:00","-34.6","","-38.1","","71","","","","28","","10","","24.1","","99.57","","","","-45","","NA"
"-97.86","55.80","THOMPSON A","5062921","2019-12-17 11:00","2019","12","17","11:00","-32.2","","-35.8","","72","","","","29","","9","","24.1","","99.59","","","","-41","","NA"
"-97.86","55.80","THOMPSON A","5062921","2019-12-17 12:00","2019","12","17","12:00","-30.4","","-34.0","","72","","","","27","","15","","24.1","","99.61","","","","-42","","Clear"
"-97.86","55.80","THOMPSON A","5062921","2019-12-17 13:00","2019","12","17","13:00","-29.8","","-33.4","","72","","","","24","","13","","24.1","","99.59","","","","-40","","NA"
"-97.86","55.80","THOMPSON A","5062921","2019-12-17 14:00","2019","12","17","14:00","-28.5","","-32.2","","72","","","","25","","6","","24.1","","99.54","","","","-35","","NA"
"-97.86","55.80","THOMPSON A","5062921","2019-12-17 15:00","2019","12","17","15:00","-27.6","","-31.3","","71","","","","20","","4","","24.1","","99.50","","","","-32","","Mainly Clear"
"-97.86","55.80","THOMPSON A","5062921","2019-12-17 16:00","2019","12","17","16:00","-30.1","","-33.4","","74","","","","25","","10","","24.1","","99.54","","","","-39","","NA"
"-97.86","55.80","THOMPSON A","5062921","2019-12-17 17:00","2019","12","17","17:00","-30.3","","-33.4","","75","","","","36","","2","","24.1","","99.51","","","","-33","","NA"
"-97.86","55.80","THOMPSON A","5062921","2019-12-17 18:00","2019","12","17","18:00","-32.6","","-35.8","","74","","","","21","","8","","24.1","","99.44","","","","-41","","Mostly Cloudy"
"-97.86","55.80","THOMPSON A","5062921","2019-12-17 19:00","2019","12","17","19:00","-29.8","","-32.9","","75","","","","18","","6","","24.1","","99.37","","","","-36","","NA"
"-97.86","55.80","THOMPSON A","5062921","2019-12-17 20:00","2019","12","17","20:00","-31.1","","-34.3","","74","","","","13","","5","","24.1","","99.27","","","","-37","","NA"
"-97.86","55.80","THOMPSON A","5062921","2019-12-17 21:00","2019","12","17","21:00","-30.9","","-34.0","","75","","","","15","","5","","24.1","","99.22","","","","-37","","Mainly Clear"
"-97.86","55.80","THOMPSON A","5062921","2019-12-17 22:00","2019","12","17","22:00","-32.1","","-35.3","","74","","","","36","","3","","24.1","","99.12","","","","-36","","NA"
"-97.86","55.80","THOMPSON A","5062921","2019-12-17 23:00","2019","12","17","23:00","-29.4","","-32.5","","75","","","","16","","7","","24.1","","99.02","","","","-37","","NA"
"-97.86","55.80","THOMPSON A","5062921","2019-12-18 00:00","2019","12","18","00:00","-27.5","","-30.7","","75","","","","16","","6","","24.1","","98.95","","","","-34","","Cloudy"
"-97.86","55.80","THOMPSON A","5062921","2019-12-18 01:00","2019","12","18","01:00","-26.0","","-29.3","","75","","","","17","","10","","24.1","","98.88","","","","-34","","NA"
"-97.86","55.80","THOMPSON A","5062921","2019-12-18 02:00","2019","12","18","02:00","-25.3","","-28.6","","75","","","","13","","7","","24.1","","98.74","","","","-32","","NA"
"-97.86","55.80","THOMPSON A","5062921","2019-12-18 03:00","2019","12","18","03:00","-24.6","","-28.1","","73","","","","16","","10","","24.1","","98.68","","","","-33","","Cloudy"
"-97.86","55.80","THOMPSON A","5062921","2019-12-18 04:00","2019","12","18","04:00","-24.1","","-27.6","","73","","","","16","","8","","24.1","","98.46","","","","-31","","NA"
"-97.86","55.80","THOMPSON A","5062921","2019-12-18 05:00","2019","12","18","05:00","-22.6","","-26.4","","72","","","","15","","15","","24.1","","98.32","","","","-32","","NA"
"-97.86","55.80","THOMPSON A","5062921","2019-12-18 06:00","2019","12","18","06:00","-21.7","","-25.6","","71","","","","14","","8","","24.1","","98.16","","","","-28","","Cloudy"
"-97.86","55.80","THOMPSON A","5062921","2019-12-18 07:00","2019","12","18","07:00","-21.0","","-24.4","","74","","","","14","","9","","1.6","","97.99","","","","-28","","Snow,Blowing Snow"
"-97.86","55.80","THOMPSON A","5062921","2019-12-18 08:00","2019","12","18","08:00","-20.0","","-22.9","","78","","","","16","","9","","3.2","","97.96","","","","-27","","Snow"
"-97.86","55.80","THOMPSON A","5062921","2019-12-18 09:00","2019","12","18","09:00","-19.4","","-22.0","","80","","","","14","","12","","0.8","","97.81","","","","-27","","Snow,Blowing Snow"
"-97.86","55.80","THOMPSON A","5062921","2019-12-18 10:00","2019","12","18","10:00","-18.6","","-21.4","","79","","","","15","","12","","2.4","","97.74","","","","-26","","Snow,Blowing Snow"
"-97.86","55.80","THOMPSON A","5062921","2019-12-18 11:00","2019","12","18","11:00","-17.9","","-20.7","","79","","","","16","","12","","1.6","","97.76","","","","-25","","Snow,Blowing Snow"
"-97.86","55.80","THOMPSON A","5062921","2019-12-18 12:00","2019","12","18","12:00","-17.3","","-20.1","","79","","","","17","","6","","8.1","","97.77","","","","-22","","Snow,Blowing Snow"
"-97.86","55.80","THOMPSON A","5062921","2019-12-18 13:00","2019","12","18","13:00","-17.1","","-19.8","","80","","","","17","","5","","6.4","","97.76","","","","-21","","Snow,Blowing Snow"
"-97.86","55.80","THOMPSON A","5062921","2019-12-18 14:00","2019","12","18","14:00","-16.8","","-19.5","","80","","","","14","","5","","6.4","","97.80","","","","-21","","Snow,Blowing Snow"
"-97.86","55.80","THOMPSON A","5062921","2019-12-18 15:00","2019","12","18","15:00","-16.7","","-19.3","","80","","","","8","","4","","4.8","","97.89","","","","-20","","Snow"
"-97.86","55.80","THOMPSON A","5062921","2019-12-18 16:00","2019","12","18","16:00","-16.6","","-19.3","","80","","","","36","","2","","9.7","","98.00","","","","-18","","Snow"
"-97.86","55.80","THOMPSON A","5062921","2019-12-18 17:00","2019","12","18","17:00","-16.6","","-19.2","","81","","","","33","","3","","12.9","","98.13","","","","-19","","Snow"
"-97.86","55.80","THOMPSON A","5062921","2019-12-18 18:00","2019","12","18","18:00","-16.6","","-19.1","","81","","","","32","","4","","19.3","","98.24","","","","-20","","Snow"
"-97.86","55.80","THOMPSON A","5062921","2019-12-18 19:00","2019","12","18","19:00","-16.6","","-19.0","","81","","","","32","","8","","19.3","","98.33","","","","-22","","Snow"
"-97.86","55.80","THOMPSON A","5062921","2019-12-18 20:00","2019","12","18","20:00","-16.2","","-19.1","","79","","","","32","","18","","19.3","","98.42","","","","-25","","Snow"
"-97.86","55.80","THOMPSON A","5062921","2019-12-18 21:00","2019","12","18","21:00","-17.0","","-20.1","","77","","","","31","","17","","24.1","","98.54","","","","-26","","Snow"
"-97.86","55.80","THOMPSON A","5062921","2019-12-18 22:00","2019","12","18","22:00","-19.1","","-22.0","","78","","","","32","","14","","24.1","","98.65","","","","-28","","NA"
"-97.86","55.80","THOMPSON A","5062921","2019-12-18 23:00","2019","12","18","23:00","-20.4","","-23.3","","78","","","","33","","14","","24.1","","98.76","","","","-29","","NA"
"-97.86","55.80","THOMPSON A","5062921","2019-12-19 00:00","2019","12","19","00:00","-21.5","","-24.3","","79","","","","33","","14","","24.1","","98.89","","","","-31","","Clear"
"-97.86","55.80","THOMPSON A","5062921","2019-12-19 01:00","2019","12","19","01:00","-22.6","","-25.4","","78","","","","32","","14","","24.1","","99.03","","","","-32","","NA"
"-97.86","55.80","THOMPSON A","5062921","2019-12-19 02:00","2019","12","19","02:00","-23.4","","-26.3","","78","","","","32","","15","","24.1","","99.15","","","","-33","","NA"
"-97.86","55.80","THOMPSON A","5062921","2019-12-19 03:00","2019","12","19","03:00","-24.1","","-27.1","","77","","","","32","","17","","24.1","","99.28","","","","-35","","Clear"
"-97.86","55.80","THOMPSON A","5062921","2019-12-19 04:00","2019","12","19","04:00","-24.9","","-27.9","","77","","","","34","","12","","24.1","","99.37","","","","-34","","NA"
"-97.86","55.80","THOMPSON A","5062921","2019-12-19 05:00","2019","12","19","05:00","-26.2","","-29.2","","76","","","","33","","8","","24.1","","99.45","","","","-34","","NA"
"-97.86","55.80","THOMPSON A","5062921","2019-12-19 06:00","2019","12","19","06:00","-26.7","","-29.4","","78","","","","35","","4","","24.1","","99.54","","","","-31","","Clear"
"-97.86","55.80","THOMPSON A","5062921","2019-12-19 07:00","2019","12","19","07:00","-28.0","","-30.8","","78","","","","32","","4","","24.1","","99.65","","","","-32","","NA"
"-97.86","55.80","THOMPSON A","5062921","2019-12-19 08:00","2019","12","19","08:00","-30.1","","-33.0","","76","","","","28","","5","","24.1","","99.68","","","","-36","","NA"
"-97.86","55.80","THOMPSON A","5062921","2019-12-19 09:00","2019","12","19","09:00","-30.1","","-32.9","","77","","","","35","","4","","24.1","","99.75","","","","-35","","Mainly Clear"
"-97.86","55.80","THOMPSON A","5062921","2019-12-19 10:00","2019","12","19","10:00","-28.3","","-31.1","","77","","","","36","","1","","24.1","","99.88","","","","-29","","Ice Crystals"
"-97.86","55.80","THOMPSON A","5062921","2019-12-19 11:00","2019","12","19","11:00","-26.0","","-28.9","","77","","","","4","","8","","24.1","","99.96","","","","-33","","Ice Crystals"
"-97.86","55.80","THOMPSON A","5062921","2019-12-19 12:00","2019","12","19","12:00","-24.3","","-27.3","","77","","","","5","","9","","24.1","","99.97","","","","-32","","Ice Crystals"
"-97.86","55.80","THOMPSON A","5062921","2019-12-19 13:00","2019","12","19","13:00","-23.5","","-26.6","","76","","","","3","","8","","24.1","","100.02","","","","-30","","NA"
"-97.86","55.80","THOMPSON A","5062921","2019-12-19 14:00","2019","12","19","14:00","-23.2","","-26.4","","75","","","","4","","10","","24.1","","100.03","","","","-31","","NA"
"-97.86","55.80","THOMPSON A","5062921","2019-12-19 15:00","2019","12","19","15:00","-23.1","","-26.0","","78","","","","2","","4","","24.1","","100.09","","","","-27","","Mostly Cloudy"
"-97.86","55.80","THOMPSON A","5062921","2019-12-19 16:00","2019","12","19","16:00","-23.2","","-26.0","","78","","","","6","","4","","24.1","","100.16","","","","-27","","NA"
"-97.86","55.80","THOMPSON A","5062921","2019-12-19 17:00","2019","12","19","17:00","-23.7","","-26.4","","79","","","","6","","9","","24.1","","100.19","","","","-31","","NA"
"-97.86","55.80","THOMPSON A","5062921","2019-12-19 18:00","2019","12","19","18:00","-24.3","","-26.9","","79","","","","7","","8","","24.1","","100.20","","","","-31","","Mostly Cloudy"
"-97.86","55.80","THOMPSON A","5062921","2019-12-19 19:00","2019","12","19","19:00","-24.2","","-26.9","","79","","","","8","","8","","24.1","","100.21","","","","-31","","NA"
"-97.86","55.80","THOMPSON A","5062921","2019-12-19 20:00","2019","12","19","20:00","-24.7","","-27.4","","79","","","","7","","8","","24.1","","100.19","","","","-32","","NA"
"-97.86","55.80","THOMPSON A","5062921","2019-12-19 21:00","2019","12","19","21:00","-24.9","","-27.6","","79","","","","7","","5","","24.1","","100.15","","","","-30","","Mostly Cloudy"
"-97.86","55.80","THOMPSON A","5062921","2019-12-19 22:00","2019","12","19","22:00","-24.9","","-27.6","","79","","","","8","","7","","24.1","","100.12","","","","-31","","NA"
"-97.86","55.80","THOMPSON A","5062921","2019-12-19 23:00","2019","12","19","23:00","-24.3","","-26.9","","79","","","","10","","7","","24.1","","100.02","","","","-31","","NA"
"-97.86","55.80","THOMPSON A","5062921","2019-12-20 00:00","2019","12","20","00:00","-24.4","","-27.1","","79","","","","10","","5","","24.1","","100.00","","","","-29","","Mainly Clear"
"-97.86","55.80","THOMPSON A","5062921","2019-12-20 01:00","2019","12","20","01:00","-24.9","","-27.6","","79","","","","8","","5","","24.1","","99.92","","","","-30","","NA"
"-97.86","55.80","THOMPSON A","5062921","2019-12-20 02:00","2019","12","20","02:00","-24.4","","-27.0","","79","","","","9","","5","","24.1","","99.85","","","","-29","","NA"
"-97.86","55.80","THOMPSON A","5062921","2019-12-20 03:00","2019","12","20","03:00","-23.3","","-26.0","","79","","","","8","","5","","24.1","","99.89","","","","-28","","Mainly Clear"
"-97.86","55.80","THOMPSON A","5062921","2019-12-20 04:00","2019","12","20","04:00","-22.3","","-24.9","","80","","","","9","","7","","24.1","","99.84","","","","-28","","NA"
"-97.86","55.80","THOMPSON A","5062921","2019-12-20 05:00","2019","12","20","05:00","-21.1","","-23.6","","80","","","","8","","10","","24.1","","99.59","","","","-29","","NA"
"-97.86","55.80","THOMPSON A","5062921","2019-12-20 06:00","2019","12","20","06:00","-19.2","","-21.6","","81","","","","12","","11","","24.1","","99.45","","","","-27","","Mostly Cloudy"
"-97.86","55.80","THOMPSON A","5062921","2019-12-20 07:00","2019","12","20","07:00","-18.6","","-21.0","","81","","","","13","","8","","24.1","","99.36","","","","-25","","NA"
"-97.86","55.80","THOMPSON A","5062921","2019-12-20 08:00","2019","12","20","08:00","-19.0","","-21.5","","81","","","","13","","7","","24.1","","99.29","","","","-24","","NA"
"-97.86","55.80","THOMPSON A","5062921","2019-12-20 09:00","2019","12","20","09:00","-18.5","","-20.9","","82","","","","12","","6","","24.1","","99.24","","","","-23","","Mostly Cloudy"
"-97.86","55.80","THOMPSON A","5062921","2019-12-20 10:00","2019","12","20","10:00","-17.4","","-19.8","","82","","","","14","","7","","24.1","","99.20","","","","-23","","NA"
"-97.86","55.80","THOMPSON A","5062921","2019-12-20 11:00","2019","12","20","11:00","-16.4","","-18.8","","82","","","","13","","6","","24.1","","99.15","","","","-21","","NA"
"-97.86","55.80","THOMPSON A","5062921","2019-12-20 12:00","2019","12","20","12:00","-15.5","","-17.9","","82","","","","15","","6","","24.1","","99.07","","","","-20","","Mostly Cloudy"
"-97.86","55.80","THOMPSON A","5062921","2019-12-20 13:00","2019","12","20","13:00","-14.6","","-17.0","","82","","","","13","","8","","24.1","","98.90","","","","-20","","NA"
"-97.86","55.80","THOMPSON A","5062921","2019-12-20 14:00","2019","12","20","14:00","-14.6","","-17.1","","82","","","","16","","9","","24.1","","98.85","","","","-20","","NA"
"-97.86","55.80","THOMPSON A","5062921","2019-12-20 15:00","2019","12","20","15:00","-14.6","","-16.9","","83","","","","11","","5","","24.1","","98.76","","","","-18","","Mostly Cloudy"
"-97.86","55.80","THOMPSON A","5062921","2019-12-20 16:00","2019","12","20","16:00","-14.8","","-17.1","","83","","","","13","","5","","24.1","","98.77","","","","-18","","NA"
"-97.86","55.80","THOMPSON A","5062921","2019-12-20 17:00","2019","12","20","17:00","-15.1","","-17.2","","84","","","","12","","4","","24.1","","98.74","","","","-18","","NA"
"-97.86","55.80","THOMPSON A","5062921","2019-12-20 18:00","2019","12","20","18:00","-15.0","","-17.1","","84","","","","14","","5","","24.1","","98.66","","","","-19","","Snow"
"-97.86","55.80","THOMPSON A","5062921","2019-12-20 19:00","2019","12","20","19:00","-15.0","","-17.1","","84","","","","12","","5","","24.1","","98.55","","","","-19","","Snow"
"-97.86","55.80","THOMPSON A","5062921","2019-12-20 20:00","2019","12","20","20:00","-15.2","","-17.3","","84","","","","12","","5","","16.1","","98.54","","","","-19","","Snow"
"-97.86","55.80","THOMPSON A","5062921","2019-12-20 21:00","2019","12","20","21:00","-15.5","","-17.6","","84","","","","8","","3","","24.1","","98.50","","","","-18","","Snow"
"-97.86","55.80","THOMPSON A","5062921","2019-12-20 22:00","2019","12","20","22:00","-15.4","","-17.4","","84","","","","7","","6","","24.1","","98.44","","","","-20","","Snow"
"-97.86","55.80","THOMPSON A","5062921","2019-12-20 23:00","2019","12","20","23:00","-15.3","","-17.4","","85","","","","7","","7","","24.1","","98.40","","","","-20","","Snow"
"-97.86","55.80","THOMPSON A","5062921","2019-12-21 00:00","2019","12","21","00:00","-15.1","","-17.1","","85","","","","8","","3","","24.1","","98.38","","","","-17","","Snow"
"-97.86","55.80","THOMPSON A","5062921","2019-12-21 01:00","2019","12","21","01:00","-14.9","","-16.9","","85","","","","8","","3","","24.1","","98.32","","","","-17","","Snow"
"-97.86","55.80","THOMPSON A","5062921","2019-12-21 02:00","2019","12","21","02:00","-14.7","","-16.7","","85","","","","5","","8","","3.2","","98.28","","","","-20","","Snow"
"-97.86","55.80","THOMPSON A","5062921","2019-12-21 03:00","2019","12","21","03:00","-14.7","","-16.7","","84","","","","2","","8","","1.2","","98.32","","","","-20","","Snow"
"-97.86","55.80","THOMPSON A","5062921","2019-12-21 04:00","2019","12","21","04:00","-14.7","","-16.8","","84","","","","36","","10","","1.6","","98.31","","","","-21","","Snow"
"-97.86","55.80","THOMPSON A","5062921","2019-12-21 05:00","2019","12","21","05:00","-14.8","","-17.0","","83","","","","1","","11","","2.4","","98.32","","","","-21","","Snow"
"-97.86","55.80","THOMPSON A","5062921","2019-12-21 06:00","2019","12","21","06:00","-14.9","","-17.2","","83","","","","36","","9","","3.2","","98.33","","","","-21","","Snow"
"-97.86","55.80","THOMPSON A","5062921","2019-12-21 07:00","2019","12","21","07:00","-15.3","","-17.7","","83","","","","36","","9","","24.1","","98.35","","","","-21","","Snow"
"-97.86","55.80","THOMPSON A","5062921","2019-12-21 08:00","2019","12","21","08:00","-15.1","","-17.2","","84","","","","36","","13","","24.1","","98.40","","","","-22","","Snow"
"-97.86","55.80","THOMPSON A","5062921","2019-12-21 09:00","2019","12","21","09:00","-14.8","","-16.9","","84","","","","35","","10","","24.1","","98.44","","","","-21","","Snow"
"-97.86","55.80","THOMPSON A","5062921","2019-12-21 10:00","2019","12","21","10:00","-14.4","","-16.5","","84","","","","35","","10","","12.9","","98.49","","","","-21","","Snow"
"-97.86","55.80","THOMPSON A","5062921","2019-12-21 11:00","2019","12","21","11:00","-14.0","","-16.0","","85","","","","36","","12","","8.1","","98.54","","","","-21","","Snow"
"-97.86","55.80","THOMPSON A","5062921","2019-12-21 12:00","2019","12","21","12:00","-13.6","","-15.8","","83","","","","32","","9","","8.1","","98.57","","","","-19","","Snow"
"-97.86","55.80","THOMPSON A","5062921","2019-12-21 13:00","2019","12","21","13:00","-13.2","","-15.6","","82","","","","32","","10","","12.9","","98.59","","","","-19","","Snow"
"-97.86","55.80","THOMPSON A","5062921","2019-12-21 14:00","2019","12","21","14:00","-13.0","","-15.5","","82","","","","33","","11","","16.1","","98.61","","","","-19","","Snow"
"-97.86","55.80","THOMPSON A","5062921","2019-12-21 15:00","2019","12","21","15:00","-12.8","","-15.3","","82","","","","32","","5","","16.1","","98.70","","","","-16","","Snow"
"-97.86","55.80","THOMPSON A","5062921","2019-12-21 16:00","2019","12","21","16:00","-13.0","","-15.4","","82","","","","28","","8","","16.1","","98.76","","","","-18","","Snow"
"-97.86","55.80","THOMPSON A","5062921","2019-12-21 17:00","2019","12","21","17:00","-13.0","","-15.3","","83","","","","2","","3","","16.1","","98.73","","","","-15","","Snow"
"-97.86","55.80","THOMPSON A","5062921","2019-12-21 18:00","2019","12","21","18:00","-13.3","","-15.4","","84","","","","36","","1","","24.1","","98.77","","","","-14","","Snow"
"-97.86","55.80","THOMPSON A","5062921","2019-12-21 19:00","2019","12","21","19:00","-13.2","","-15.1","","86","","","","0","","1","","24.1","","98.75","","","","-14","","Snow"
"-97.86","55.80","THOMPSON A","5062921","2019-12-21 20:00","2019","12","21","20:00","-13.1","","-15.0","","86","","","","3","","4","","24.1","","98.71","","","","-16","","Snow"
"-97.86","55.80","THOMPSON A","5062921","2019-12-21 21:00","2019","12","21","21:00","-13.2","","-15.1","","86","","","","19","","3","","24.1","","98.74","","","","-15","","Snow"
"-97.86","55.80","THOMPSON A","5062921","2019-12-21 22:00","2019","12","21","22:00","-13.1","","-15.0","","86","","","","8","","3","","24.1","","98.76","","","","-15","","Snow"
"-97.86","55.80","THOMPSON A","5062921","2019-12-21 23:00","2019","12","21","23:00","-13.2","","-15.0","","86","","","","36","","2","","24.1","","98.75","","","","-15","","Snow"
"-97.86","55.80","THOMPSON A","5062921","2019-12-22 00:00","2019","12","22","00:00","-13.2","","-15.2","","86","","","","10","","3","","19.3","","98.69","","","","-15","","Snow"
"-97.86","55.80","THOMPSON A","5062921","2019-12-22 01:00","2019","12","22","01:00","-13.3","","-15.2","","86","","","","36","","3","","24.1","","98.65","","","","-15","","Snow"
"-97.86","55.80","THOMPSON A","5062921","2019-12-22 02:00","2019","12","22","02:00","-13.5","","-15.4","","86","","","","7","","10","","24.1","","98.51","","","","-19","","Snow"
"-97.86","55.80","THOMPSON A","5062921","2019-12-22 03:00","2019","12","22","03:00","-13.9","","-16.0","","84","","","","13","","3","","24.1","","98.55","","","","-16","","Snow"
"-97.86","55.80","THOMPSON A","5062921","2019-12-22 04:00","2019","12","22","04:00","-14.2","","-16.2","","85","","","","8","","4","","24.1","","98.54","","","","-17","","Snow"
"-97.86","55.80","THOMPSON A","5062921","2019-12-22 05:00","2019","12","22","05:00","-14.4","","-16.4","","85","","","","8","","8","","24.1","","98.42","","","","-20","","NA"
"-97.86","55.80","THOMPSON A","5062921","2019-12-22 06:00","2019","12","22","06:00","-14.7","","-16.8","","85","","","","6","","8","","24.1","","98.33","","","","-20","","Cloudy"
"-97.86","55.80","THOMPSON A","5062921","2019-12-22 07:00","2019","12","22","07:00","-14.8","","-17.0","","84","","","","6","","10","","24.1","","98.29","","","","-21","","NA"
"-97.86","55.80","THOMPSON A","5062921","2019-12-22 08:00","2019","12","22","08:00","-14.8","","-17.0","","83","","","","6","","13","","24.1","","98.24","","","","-22","","NA"
"-97.86","55.80","THOMPSON A","5062921","2019-12-22 09:00","2019","12","22","09:00","-14.9","","-17.3","","82","","","","7","","13","","4.0","","98.18","","","","-22","","Snow,Blowing Snow"
"-97.86","55.80","THOMPSON A","5062921","2019-12-22 10:00","2019","12","22","10:00","-14.9","","-17.3","","83","","","","5","","13","","1.6","","98.19","","","","-22","","Snow,Blowing Snow"
"-97.86","55.80","THOMPSON A","5062921","2019-12-22 11:00","2019","12","22","11:00","-14.8","","-17.1","","83","","","","5","","17","","1.6","","98.11","","","","-23","","Snow,Blowing Snow"
"-97.86","55.80","THOMPSON A","5062921","2019-12-22 12:00","2019","12","22","12:00","-14.4","","-16.9","","82","","","","3","","15","","1.6","","98.13","","","","-22","","Snow,Blowing Snow"
"-97.86","55.80","THOMPSON A","5062921","2019-12-22 13:00","2019","12","22","13:00","-14.6","","-17.0","","82","","","","3","","13","","1.2","","98.12","","","","-22","","Snow,Blowing Snow"
"-97.86","55.80","THOMPSON A","5062921","2019-12-22 14:00","2019","12","22","14:00","-14.2","","-16.8","","81","","","","1","","16","","3.2","","98.16","","","","-22","","Snow,Blowing Snow"
"-97.86","55.80","THOMPSON A","5062921","2019-12-22 15:00","2019","12","22","15:00","-14.0","","-16.6","","81","","","","1","","13","","3.2","","98.23","","","","-21","","Snow,Blowing Snow"
"-97.86","55.80","THOMPSON A","5062921","2019-12-22 16:00","2019","12","22","16:00","-13.9","","-16.4","","81","","","","35","","10","","24.1","","98.35","","","","-20","","Snow"
"-97.86","55.80","THOMPSON A","5062921","2019-12-22 17:00","2019","12","22","17:00","-14.6","","-17.1","","82","","","","31","","5","","24.1","","98.45","","","","-18","","Snow"
"-97.86","55.80","THOMPSON A","5062921","2019-12-22 18:00","2019","12","22","18:00","-15.9","","-17.9","","85","","","","33","","5","","24.1","","98.50","","","","-20","","Mostly Cloudy"
"-97.86","55.80","THOMPSON A","5062921","2019-12-22 19:00","2019","12","22","19:00","-16.8","","-18.7","","86","","","","29","","4","","24.1","","98.58","","","","-20","","NA"
"-97.86","55.80","THOMPSON A","5062921","2019-12-22 20:00","2019","12","22","20:00","-18.3","","-20.2","","85","","","","36","","3","","24.1","","98.63","","","","-21","","NA"
"-97.86","55.80","THOMPSON A","5062921","2019-12-22 21:00","2019","12","22","21:00","-19.1","","-21.1","","85","","","","24","","3","","24.1","","98.69","","","","-22","","Mainly Clear"
"-97.86","55.80","THOMPSON A","5062921","2019-12-22 22:00","2019","12","22","22:00","-19.4","","-21.4","","85","","","","25","","4","","24.1","","98.74","","","","-23","","NA"
"-97.86","55.80","THOMPSON A","5062921","2019-12-22 23:00","2019","12","22","23:00","-20.3","","-22.3","","85","","","","26","","4","","24.1","","98.79","","","","-24","","NA"
"-97.86","55.80","THOMPSON A","5062921","2019-12-23 00:00","2019","12","23","00:00","-21.1","","-23.3","","83","","","","16","","5","","24.1","","98.82","","","","-26","","Clear"
"-97.86","55.80","THOMPSON A","5062921","2019-12-23 01:00","2019","12","23","01:00","-21.6","","-23.8","","83","","","","36","","1","","24.1","","98.88","","","","-22","","NA"
"-97.86","55.80","THOMPSON A","5062921","2019-12-23 02:00","2019","12","23","02:00","-20.3","","-22.7","","82","","","","36","","1","","24.1","","98.91","","","","-21","","NA"
"-97.86","55.80","THOMPSON A","5062921","2019-12-23 03:00","2019","12","23","03:00","-19.7","","-22.1","","82","","","","23","","4","","24.1","","98.94","","","","-23","","Mostly Cloudy"
"-97.86","55.80","THOMPSON A","5062921","2019-12-23 04:00","2019","12","23","04:00","-17.5","","-19.7","","83","","","","23","","4","","24.1","","98.95","","","","-21","","NA"
"-97.86","55.80","THOMPSON A","5062921","2019-12-23 05:00","2019","12","23","05:00","-16.3","","-18.4","","84","","","","20","","6","","24.1","","99.01","","","","-21","","NA"
"-97.86","55.80","THOMPSON A","5062921","2019-12-23 06:00","2019","12","23","06:00","-15.1","","-17.0","","85","","","","24","","7","","24.1","","99.06","","","","-20","","Cloudy"
"-97.86","55.80","THOMPSON A","5062921","2019-12-23 07:00","2019","12","23","07:00","-14.2","","-16.0","","86","","","","25","","7","","24.1","","99.09","","","","-19","","NA"
"-97.86","55.80","THOMPSON A","5062921","2019-12-23 08:00","2019","12","23","08:00","-14.0","","-15.8","","86","","","","20","","3","","24.1","","99.11","","","","-16","","NA"
"-97.86","55.80","THOMPSON A","5062921","2019-12-23 09:00","2019","12","23","09:00","-13.3","","-15.1","","87","","","","23","","4","","24.1","","99.17","","","","-16","","Cloudy"
"-97.86","55.80","THOMPSON A","5062921","2019-12-23 10:00","2019","12","23","10:00","-12.9","","-14.7","","87","","","","20","","5","","24.1","","99.20","","","","-16","","NA"
"-97.86","55.80","THOMPSON A","5062921","2019-12-23 11:00","2019","12","23","11:00","-12.3","","-14.0","","87","","","","20","","10","","24.1","","99.19","","","","-18","","Snow"
"-97.86","55.80","THOMPSON A","5062921","2019-12-23 12:00","2019","12","23","12:00","-11.7","","-13.3","","88","","","","36","","3","","24.1","","99.17","","","","-14","","Snow"
"-97.86","55.80","THOMPSON A","5062921","2019-12-23 13:00","2019","12","23","13:00","-11.0","","-12.5","","89","","","","17","","5","","12.9","","99.13","","","","-14","","Snow"
"-97.86","55.80","THOMPSON A","5062921","2019-12-23 14:00","2019","12","23","14:00","-10.2","","-11.6","","90","","","","36","","3","","12.9","","99.09","","","","-12","","Snow"
"-97.86","55.80","THOMPSON A","5062921","2019-12-23 15:00","2019","12","23","15:00","-10.1","","-11.4","","90","","","","18","","9","","8.1","","99.09","","","","-15","","Snow"
"-97.86","55.80","THOMPSON A","5062921","2019-12-23 16:00","2019","12","23","16:00","-10.2","","-11.5","","90","","","","18","","5","","8.1","","99.07","","","","-13","","Snow"
"-97.86","55.80","THOMPSON A","5062921","2019-12-23 17:00","2019","12","23","17:00","-10.3","","-11.7","","90","","","","17","","5","","24.1","","99.10","","","","-13","","Snow"
"-97.86","55.80","THOMPSON A","5062921","2019-12-23 18:00","2019","12","23","18:00","-10.1","","-11.5","","90","","","","15","","4","","24.1","","99.08","","","","-12","","Snow"
"-97.86","55.80","THOMPSON A","5062921","2019-12-23 19:00","2019","12","23","19:00","-9.8","","-11.2","","90","","","","16","","5","","24.1","","99.00","","","","-13","","Snow"
"-97.86","55.80","THOMPSON A","5062921","2019-12-23 20:00","2019","12","23","20:00","-9.7","","-11.0","","90","","","","17","","7","","9.7","","98.94","","","","-14","","Snow"
"-97.86","55.80","THOMPSON A","5062921","2019-12-23 21:00","2019","12","23","21:00","-9.2","","-10.5","","90","","","","16","","6","","9.7","","98.90","","","","-13","","Snow"
"-97.86","55.80","THOMPSON A","5062921","2019-12-23 22:00","2019","12","23","22:00","-9.0","","-10.3","","90","","","","16","","7","","6.4","","98.86","","","","-13","","Snow"
"-97.86","55.80","THOMPSON A","5062921","2019-12-23 23:00","2019","12","23","23:00","-9.0","","-10.3","","90","","","","16","","5","","4.8","","98.84","","","","-12","","Snow"
"-97.86","55.80","THOMPSON A","5062921","2019-12-24 00:00","2019","12","24","00:00","-9.2","","-10.5","","90","","","","17","","5","","4.8","","98.80","","","","-12","","Snow"
"-97.86","55.80","THOMPSON A","5062921","2019-12-24 01:00","2019","12","24","01:00","-9.4","","-10.8","","90","","","","16","","5","","24.1","","98.77","","","","-12","","Snow"
"-97.86","55.80","THOMPSON A","5062921","2019-12-24 02:00","2019","12","24","02:00","-9.3","","-10.7","","89","","","","17","","4","","12.9","","98.75","","","","-12","","Snow"
"-97.86","55.80","THOMPSON A","5062921","2019-12-24 03:00","2019","12","24","03:00","-9.2","","-10.7","","89","","","","17","","4","","12.9","","98.73","","","","-11","","Snow"
"-97.86","55.80","THOMPSON A","5062921","2019-12-24 04:00","2019","12","24","04:00","-9.6","","-11.0","","89","","","","36","","2","","24.1","","98.73","","","","-11","","Snow"
"-97.86","55.80","THOMPSON A","5062921","2019-12-24 05:00","2019","12","24","05:00","-9.6","","-11.0","","89","","","","36","","3","","24.1","","98.71","","","","-11","","Snow"
"-97.86","55.80","THOMPSON A","5062921","2019-12-24 06:00","2019","12","24","06:00","-9.5","","-11.0","","89","","","","36","","3","","24.1","","98.67","","","","-11","","Cloudy"
"-97.86","55.80","THOMPSON A","5062921","2019-12-24 07:00","2019","12","24","07:00","-9.8","","-11.3","","89","","","","36","","1","","24.1","","98.66","","","","-10","","NA"
"-97.86","55.80","THOMPSON A","5062921","2019-12-24 08:00","2019","12","24","08:00","-13.5","","-14.9","","89","","","","36","","4","","24.1","","98.68","","","","-16","","NA"
"-97.86","55.80","THOMPSON A","5062921","2019-12-24 09:00","2019","12","24","09:00","-14.5","","-16.0","","89","","","","36","","2","","24.1","","98.70","","","","-16","","Mainly Clear"
"-97.86","55.80","THOMPSON A","5062921","2019-12-24 10:00","2019","12","24","10:00","-13.4","","-14.9","","89","","","","36","","1","","24.1","","98.77","","","","-14","","NA"
"-97.86","55.80","THOMPSON A","5062921","2019-12-24 11:00","2019","12","24","11:00","-13.3","","-14.9","","88","","","","36","","1","","24.1","","98.80","","","","-14","","NA"
"-97.86","55.80","THOMPSON A","5062921","2019-12-24 12:00","2019","12","24","12:00","-12.2","","-13.8","","88","","","","25","","3","","24.1","","98.82","","","","-14","","Mostly Cloudy"
"-97.86","55.80","THOMPSON A","5062921","2019-12-24 13:00","2019","12","24","13:00","-10.0","","-11.4","","89","","","","36","","2","","24.1","","98.79","","","","-11","","NA"
"-97.86","55.80","THOMPSON A","5062921","2019-12-24 14:00","2019","12","24","14:00","-10.1","","-11.4","","90","","","","28","","3","","24.1","","98.76","","","","-12","","NA"
"-97.86","55.80","THOMPSON A","5062921","2019-12-24 15:00","2019","12","24","15:00","-9.6","","-11.0","","90","","","","24","","4","","24.1","","98.81","","","","-12","","Mostly Cloudy"
"-97.86","55.80","THOMPSON A","5062921","2019-12-24 16:00","2019","12","24","16:00","-10.8","","-12.2","","90","","","","36","","3","","24.1","","98.84","","","","-13","","NA"
"-97.86","55.80","THOMPSON A","5062921","2019-12-24 17:00","2019","12","24","17:00","-12.9","","-14.3","","90","","","","6","","3","","24.1","","98.92","","","","-15","","NA"
"-97.86","55.80","THOMPSON A","5062921","2019-12-24 18:00","2019","12","24","18:00","-14.7","","-16.4","","87","","","","15","","3","","24.1","","98.94","","","","-17","","Mainly Clear"
"-97.86","55.80","THOMPSON A","5062921","2019-12-24 19:00","2019","12","24","19:00","-15.6","","-17.4","","86","","","","21","","3","","24.1","","98.99","","","","-18","","NA"
"-97.86","55.80","THOMPSON A","5062921","2019-12-24 20:00","2019","12","24","20:00","-17.8","","-19.7","","85","","","","36","","3","","24.1","","98.98","","","","-20","","NA"
"-97.86","55.80","THOMPSON A","5062921","2019-12-24 21:00","2019","12","24","21:00","-16.3","","-18.3","","85","","","","14","","8","","24.1","","98.92","","","","-22","","Clear"
"-97.86","55.80","THOMPSON A","5062921","2019-12-24 22:00","2019","12","24","22:00","-16.5","","-18.4","","86","","","","18","","4","","24.1","","98.99","","","","-20","","NA"
"-97.86","55.80","THOMPSON A","5062921","2019-12-24 23:00","2019","12","24","23:00","-19.2","","-21.4","","83","","","","24","","4","","9.7","","99.06","","","","-23","","Fog"
"-97.86","55.80","THOMPSON A","5062921","2019-12-25 00:00","2019","12","25","00:00","-15.8","","-17.8","","85","","","","0","","1","","6.4","","99.05","","","","-17","","Fog"
"-97.86","55.80","THOMPSON A","5062921","2019-12-25 01:00","2019","12","25","01:00","-14.6","","-16.5","","86","","","","36","","3","","8.1","","99.05","","","","-17","","Fog"
"-97.86","55.80","THOMPSON A","5062921","2019-12-25 02:00","2019","12","25","02:00","-14.2","","-16.0","","86","","","","36","","2","","0.4","","99.03","","","","-16","","Freezing Fog"
"-97.86","55.80","THOMPSON A","5062921","2019-12-25 03:00","2019","12","25","03:00","-14.7","","-16.6","","86","","","","36","","2","","1.6","","99.06","","","","-16","","Fog"
"-97.86","55.80","THOMPSON A","5062921","2019-12-25 04:00","2019","12","25","04:00","-15.7","","-17.6","","86","","","","16","","4","","6.4","","99.07","","","","-19","","Fog"
"-97.86","55.80","THOMPSON A","5062921","2019-12-25 05:00","2019","12","25","05:00","-17.3","","-19.4","","84","","","","36","","3","","8.1","","99.09","","","","-20","","Fog"
"-97.86","55.80","THOMPSON A","5062921","2019-12-25 06:00","2019","12","25","06:00","-19.3","","-21.5","","83","","","","20","","6","","8.1","","99.10","","","","-24","","Fog"
"-97.86","55.80","THOMPSON A","5062921","2019-12-25 07:00","2019","12","25","07:00","-18.4","","-20.6","","83","","","","36","","2","","24.1","","99.02","","","","-20","","NA"
"-97.86","55.80","THOMPSON A","5062921","2019-12-25 08:00","2019","12","25","08:00","-21.3","","-23.7","","82","","","","36","","1","","24.1","","99.06","","","","-22","","NA"
"-97.86","55.80","THOMPSON A","5062921","2019-12-25 09:00","2019","12","25","09:00","-19.7","","-22.0","","82","","","","16","","5","","9.7","","99.09","","","","-24","","Fog"
"-97.86","55.80","THOMPSON A","5062921","2019-12-25 10:00","2019","12","25","10:00","-20.3","","-22.6","","82","","","","36","","1","","1.6","","99.10","","","","-21","","Fog"
"-97.86","55.80","THOMPSON A","5062921","2019-12-25 11:00","2019","12","25","11:00","-18.5","","-20.7","","83","","","","18","","3","","0.8","","99.09","","","","-21","","Freezing Fog"
"-97.86","55.80","THOMPSON A","5062921","2019-12-25 12:00","2019","12","25","12:00","-16.9","","-19.0","","84","","","","17","","8","","12.9","","99.10","","","","-23","","Cloudy"
"-97.86","55.80","THOMPSON A","5062921","2019-12-25 13:00","2019","12","25","13:00","-15.8","","-17.8","","85","","","","36","","2","","8.1","","99.00","","","","-17","","Fog"
"-97.86","55.80","THOMPSON A","5062921","2019-12-25 14:00","2019","12","25","14:00","-14.7","","-16.6","","86","","","","8","","4","","8.1","","98.96","","","","-18","","Fog"
"-97.86","55.80","THOMPSON A","5062921","2019-12-25 15:00","2019","12","25","15:00","-14.2","","-16.0","","86","","","","9","","4","","8.1","","98.95","","","","-17","","Fog"
"-97.86","55.80","THOMPSON A","5062921","2019-12-25 16:00","2019","12","25","16:00","-13.6","","-15.3","","87","","","","36","","2","","8.1","","98.91","","","","-15","","Fog"
"-97.86","55.80","THOMPSON A","5062921","2019-12-25 17:00","2019","12","25","17:00","-13.1","","-14.9","","87","","","","9","","3","","9.7","","98.90","","","","-15","","Snow"
"-97.86","55.80","THOMPSON A","5062921","2019-12-25 18:00","2019","12","25","18:00","-12.8","","-14.4","","87","","","","12","","5","","12.9","","98.84","","","","-16","","Snow"
"-97.86","55.80","THOMPSON A","5062921","2019-12-25 19:00","2019","12","25","19:00","-12.4","","-14.0","","88","","","","16","","4","","19.3","","98.79","","","","-15","","Snow"
"-97.86","55.80","THOMPSON A","5062921","2019-12-25 20:00","2019","12","25","20:00","-11.9","","-13.5","","88","","","","16","","3","","8.1","","98.78","","","","-14","","Snow,Fog"
"-97.86","55.80","THOMPSON A","5062921","2019-12-25 21:00","2019","12","25","21:00","-11.6","","-13.1","","88","","","","36","","3","","8.1","","98.73","","","","-13","","Snow,Fog"
"-97.86","55.80","THOMPSON A","5062921","2019-12-25 22:00","2019","12","25","22:00","-11.4","","-12.9","","89","","","","36","","3","","6.4","","98.66","","","","-13","","Freezing Drizzle,Snow,Fog"
"-97.86","55.80","THOMPSON A","5062921","2019-12-25 23:00","2019","12","25","23:00","-11.0","","-12.5","","89","","","","15","","3","","8.1","","98.66","","","","-13","","Freezing Drizzle,Snow"
"-97.86","55.80","THOMPSON A","5062921","2019-12-26 00:00","2019","12","26","00:00","-10.8","","-12.2","","89","","","","36","","3","","8.1","","98.58","","","","-13","","Freezing Drizzle,Snow"
"-97.86","55.80","THOMPSON A","5062921","2019-12-26 01:00","2019","12","26","01:00","-10.1","","-11.6","","90","","","","16","","4","","8.1","","98.54","","","","-12","","Freezing Drizzle"
"-97.86","55.80","THOMPSON A","5062921","2019-12-26 02:00","2019","12","26","02:00","-9.8","","-11.1","","90","","","","15","","3","","8.1","","98.48","","","","-12","","Freezing Drizzle"
"-97.86","55.80","THOMPSON A","5062921","2019-12-26 03:00","2019","12","26","03:00","-9.7","","-11.0","","90","","","","36","","2","","8.1","","98.44","","","","-11","","Freezing Drizzle"
"-97.86","55.80","THOMPSON A","5062921","2019-12-26 04:00","2019","12","26","04:00","-9.5","","-10.8","","90","","","","36","","3","","4.8","","98.39","","","","-11","","Fog"
"-97.86","55.80","THOMPSON A","5062921","2019-12-26 05:00","2019","12","26","05:00","-9.3","","-10.6","","90","","","","18","","5","","1.6","","98.32","","","","-12","","Fog"
"-97.86","55.80","THOMPSON A","5062921","2019-12-26 06:00","2019","12","26","06:00","-9.2","","-10.5","","91","","","","20","","6","","16.1","","98.28","","","","-13","","Cloudy"
"-97.86","55.80","THOMPSON A","5062921","2019-12-26 07:00","2019","12","26","07:00","-9.7","","-11.0","","90","","","","23","","13","","19.3","","98.24","","","","-16","","NA"
"-97.86","55.80","THOMPSON A","5062921","2019-12-26 08:00","2019","12","26","08:00","-10.2","","-11.5","","90","","","","21","","9","","16.1","","98.24","","","","-15","","NA"
"-97.86","55.80","THOMPSON A","5062921","2019-12-26 09:00","2019","12","26","09:00","-10.6","","-12.0","","90","","","","17","","5","","12.9","","98.22","","","","-14","","Cloudy"
"-97.86","55.80","THOMPSON A","5062921","2019-12-26 10:00","2019","12","26","10:00","-10.4","","-11.8","","90","","","","19","","4","","9.7","","98.23","","","","-13","","Fog"
"-97.86","55.80","THOMPSON A","5062921","2019-12-26 11:00","2019","12","26","11:00","-10.1","","-11.5","","90","","","","20","","6","","4.0","","98.21","","","","-14","","Fog"
"-97.86","55.80","THOMPSON A","5062921","2019-12-26 12:00","2019","12","26","12:00","-9.6","","-10.9","","90","","","","22","","7","","8.1","","98.13","","","","-14","","Fog"
"-97.86","55.80","THOMPSON A","5062921","2019-12-26 13:00","2019","12","26","13:00","-9.4","","-10.7","","90","","","","22","","9","","9.7","","98.06","","","","-14","","Fog"
"-97.86","55.80","THOMPSON A","5062921","2019-12-26 14:00","2019","12","26","14:00","-9.2","","-10.5","","91","","","","21","","8","","9.7","","98.02","","","","-14","","Fog"
"-97.86","55.80","THOMPSON A","5062921","2019-12-26 15:00","2019","12","26","15:00","-9.0","","-10.2","","91","","","","20","","5","","8.1","","98.01","","","","-12","","Fog"
"-97.86","55.80","THOMPSON A","5062921","2019-12-26 16:00","2019","12","26","16:00","-8.8","","-10.1","","91","","","","20","","4","","9.7","","98.00","","","","-11","","Fog"
"-97.86","55.80","THOMPSON A","5062921","2019-12-26 17:00","2019","12","26","17:00","-8.8","","-10.0","","91","","","","19","","6","","12.9","","97.99","","","","-12","","NA"
"-97.86","55.80","THOMPSON A","5062921","2019-12-26 18:00","2019","12","26","18:00","-8.7","","-9.9","","91","","","","21","","6","","12.9","","97.94","","","","-12","","Snow"
"-97.86","55.80","THOMPSON A","5062921","2019-12-26 19:00","2019","12","26","19:00","-8.6","","-9.8","","91","","","","19","","3","","12.9","","97.90","","","","-10","","Snow"
"-97.86","55.80","THOMPSON A","5062921","2019-12-26 20:00","2019","12","26","20:00","-8.5","","-9.7","","91","","","","18","","4","","9.7","","97.88","","","","-11","","Snow"
"-97.86","55.80","THOMPSON A","5062921","2019-12-26 21:00","2019","12","26","21:00","-8.4","","-9.6","","91","","","","18","","5","","9.7","","97.84","","","","-11","","Snow"
"-97.86","55.80","THOMPSON A","5062921","2019-12-26 22:00","2019","12","26","22:00","-8.3","","-9.5","","91","","","","18","","5","","9.7","","97.80","","","","-11","","Snow"
"-97.86","55.80","THOMPSON A","5062921","2019-12-26 23:00","2019","12","26","23:00","-8.1","","-9.2","","92","","","","18","","5","","12.9","","97.76","","","","-11","","Snow"
"-97.86","55.80","THOMPSON A","5062921","2019-12-27 00:00","2019","12","27","00:00","-7.9","","-9.0","","92","","","","18","","5","","12.9","","97.70","","","","-11","","Snow"
"-97.86","55.80","THOMPSON A","5062921","2019-12-27 01:00","2019","12","27","01:00","-7.6","","-8.7","","92","","","","18","","4","","12.9","","97.64","","","","-10","","Snow"
"-97.86","55.80","THOMPSON A","5062921","2019-12-27 02:00","2019","12","27","02:00","-7.5","","-8.6","","92","","","","17","","4","","9.7","","97.60","","","","-10","","Snow"
"-97.86","55.80","THOMPSON A","5062921","2019-12-27 03:00","2019","12","27","03:00","-7.5","","-8.6","","92","","","","17","","4","","9.7","","97.59","","","","-10","","Snow"
"-97.86","55.80","THOMPSON A","5062921","2019-12-27 04:00","2019","12","27","04:00","-8.1","","-9.2","","92","","","","19","","4","","12.9","","97.58","","","","-10","","Snow"
"-97.86","55.80","THOMPSON A","5062921","2019-12-27 05:00","2019","12","27","05:00","-8.2","","-9.3","","92","","","","19","","3","","9.7","","97.54","","","","-10","","Snow"
"-97.86","55.80","THOMPSON A","5062921","2019-12-27 06:00","2019","12","27","06:00","-8.0","","-9.1","","92","","","","22","","5","","8.1","","97.51","","","","-11","","Snow"
"-97.86","55.80","THOMPSON A","5062921","2019-12-27 07:00","2019","12","27","07:00","-7.8","","-8.9","","92","","","","23","","9","","6.4","","97.51","","","","-12","","Snow"
"-97.86","55.80","THOMPSON A","5062921","2019-12-27 08:00","2019","12","27","08:00","-8.3","","-9.5","","91","","","","24","","9","","6.4","","97.52","","","","-13","","Snow"
"-97.86","55.80","THOMPSON A","5062921","2019-12-27 09:00","2019","12","27","09:00","-9.8","","-11.1","","91","","","","25","","9","","8.1","","97.54","","","","-15","","Snow"
"-97.86","55.80","THOMPSON A","5062921","2019-12-27 10:00","2019","12","27","10:00","-10.7","","-12.0","","90","","","","26","","12","","24.1","","97.56","","","","-17","","NA"
"-97.86","55.80","THOMPSON A","5062921","2019-12-27 11:00","2019","12","27","11:00","-9.5","","-10.8","","90","","","","26","","12","","6.4","","97.57","","","","-15","","Snow"
"-97.86","55.80","THOMPSON A","5062921","2019-12-27 12:00","2019","12","27","12:00","-10.0","","-11.4","","90","","","","26","","12","","24.1","","97.57","","","","-16","","Snow"
"-97.86","55.80","THOMPSON A","5062921","2019-12-27 13:00","2019","12","27","13:00","-9.5","","-10.9","","90","","","","26","","11","","24.1","","97.59","","","","-15","","NA"
"-97.86","55.80","THOMPSON A","5062921","2019-12-27 14:00","2019","12","27","14:00","-8.8","","-10.0","","91","","","","27","","13","","24.1","","97.60","","","","-15","","NA"
"-97.86","55.80","THOMPSON A","5062921","2019-12-27 15:00","2019","12","27","15:00","-8.9","","-10.2","","91","","","","27","","12","","24.1","","97.64","","","","-15","","Cloudy"
"-97.86","55.80","THOMPSON A","5062921","2019-12-27 16:00","2019","12","27","16:00","-9.2","","-10.4","","91","","","","29","","8","","24.1","","97.74","","","","-14","","NA"
"-97.86","55.80","THOMPSON A","5062921","2019-12-27 17:00","2019","12","27","17:00","-10.0","","-11.3","","90","","","","28","","14","","24.1","","97.85","","","","-16","","NA"
"-97.86","55.80","THOMPSON A","5062921","2019-12-27 18:00","2019","12","27","18:00","-10.4","","-11.8","","90","","","","30","","7","","24.1","","97.92","","","","-14","","Cloudy"
"-97.86","55.80","THOMPSON A","5062921","2019-12-27 19:00","2019","12","27","19:00","-10.9","","-12.3","","89","","","","31","","6","","24.1","","97.97","","","","-15","","Snow"
"-97.86","55.80","THOMPSON A","5062921","2019-12-27 20:00","2019","12","27","20:00","-11.9","","-13.4","","89","","","","31","","8","","16.1","","98.06","","","","-17","","Snow"
"-97.86","55.80","THOMPSON A","5062921","2019-12-27 21:00","2019","12","27","21:00","-12.3","","-13.8","","88","","","","29","","4","","16.1","","98.11","","","","-15","","Snow"
"-97.86","55.80","THOMPSON A","5062921","2019-12-27 22:00","2019","12","27","22:00","-12.8","","-14.4","","88","","","","29","","12","","9.7","","98.21","","","","-19","","Snow"
"-97.86","55.80","THOMPSON A","5062921","2019-12-27 23:00","2019","12","27","23:00","-12.3","","-13.9","","88","","","","34","","4","","8.1","","98.24","","","","-15","","Snow"
"-97.86","55.80","THOMPSON A","5062921","2019-12-28 00:00","2019","12","28","00:00","-12.5","","-14.1","","88","","","","3","","4","","8.1","","98.32","","","","-15","","Snow"
"-97.86","55.80","THOMPSON A","5062921","2019-12-28 01:00","2019","12","28","01:00","-12.9","","-14.6","","88","","","","26","","5","","9.7","","98.39","","","","-16","","Snow"
"-97.86","55.80","THOMPSON A","5062921","2019-12-28 02:00","2019","12","28","02:00","-13.4","","-15.1","","87","","","","31","","5","","9.7","","98.51","","","","-17","","Snow"
"-97.86","55.80","THOMPSON A","5062921","2019-12-28 03:00","2019","12","28","03:00","-14.1","","-15.8","","87","","","","29","","6","","12.9","","98.61","","","","-18","","Snow"
"-97.86","55.80","THOMPSON A","5062921","2019-12-28 04:00","2019","12","28","04:00","-14.6","","-16.3","","87","","","","30","","5","","12.9","","98.72","","","","-18","","Snow"
"-97.86","55.80","THOMPSON A","5062921","2019-12-28 05:00","2019","12","28","05:00","-14.9","","-16.7","","86","","","","21","","4","","9.7","","98.80","","","","-18","","Snow"
"-97.86","55.80","THOMPSON A","5062921","2019-12-28 06:00","2019","12","28","06:00","-14.9","","-16.7","","86","","","","29","","6","","12.9","","98.88","","","","-19","","Snow"
"-97.86","55.80","THOMPSON A","5062921","2019-12-28 07:00","2019","12","28","07:00","-16.0","","-18.0","","85","","","","28","","8","","12.9","","98.94","","","","-22","","Snow"
"-97.86","55.80","THOMPSON A","5062921","2019-12-28 08:00","2019","12","28","08:00","-16.0","","-17.9","","85","","","","34","","5","","12.9","","99.01","","","","-20","","Snow"
"-97.86","55.80","THOMPSON A","5062921","2019-12-28 09:00","2019","12","28","09:00","-16.3","","-18.3","","85","","","","30","","6","","6.4","","99.10","","","","-21","","Snow"
"-97.86","55.80","THOMPSON A","5062921","2019-12-28 10:00","2019","12","28","10:00","-16.9","","-18.9","","85","","","","36","","1","","16.1","","99.18","","","","-18","","Snow"
"-97.86","55.80","THOMPSON A","5062921","2019-12-28 11:00","2019","12","28","11:00","-17.0","","-19.0","","85","","","","26","","7","","16.1","","99.28","","","","-22","","NA"
"-97.86","55.80","THOMPSON A","5062921","2019-12-28 12:00","2019","12","28","12:00","-16.4","","-18.4","","85","","","","27","","7","","12.9","","99.32","","","","-21","","Snow Showers"
"-97.86","55.80","THOMPSON A","5062921","2019-12-28 13:00","2019","12","28","13:00","-16.0","","-18.0","","85","","","","30","","4","","16.1","","99.33","","","","-19","","Snow Showers"
"-97.86","55.80","THOMPSON A","5062921","2019-12-28 14:00","2019","12","28","14:00","-16.4","","-18.4","","85","","","","36","","2","","19.3","","99.30","","","","-18","","Snow Showers"
"-97.86","55.80","THOMPSON A","5062921","2019-12-28 15:00","2019","12","28","15:00","-15.9","","-17.9","","85","","","","36","","2","","19.3","","99.33","","","","-17","","Snow Showers"
"-97.86","55.80","THOMPSON A","5062921","2019-12-28 16:00","2019","12","28","16:00","-16.3","","-18.3","","85","","","","","","0","","16.1","","99.42","","","","","","Snow Showers"
"-97.86","55.80","THOMPSON A","5062921","2019-12-28 17:00","2019","12","28","17:00","-16.1","","-18.0","","85","","","","20","","6","","19.3","","99.50","","","","-21","","Snow Showers"
"-97.86","55.80","THOMPSON A","5062921","2019-12-28 18:00","2019","12","28","18:00","-16.2","","-18.2","","85","","","","33","","7","","19.3","","99.59","","","","-21","","Snow Showers"
"-97.86","55.80","THOMPSON A","5062921","2019-12-28 19:00","2019","12","28","19:00","-16.5","","-18.5","","85","","","","29","","5","","19.3","","99.61","","","","-20","","Snow Showers"
"-97.86","55.80","THOMPSON A","5062921","2019-12-28 20:00","2019","12","28","20:00","-16.7","","-18.7","","85","","","","6","","4","","19.3","","99.61","","","","-20","","Snow Showers"
"-97.86","55.80","THOMPSON A","5062921","2019-12-28 21:00","2019","12","28","21:00","-16.3","","-18.3","","85","","","","36","","1","","16.1","","99.60","","","","-17","","Snow"
"-97.86","55.80","THOMPSON A","5062921","2019-12-28 22:00","2019","12","28","22:00","-16.0","","-18.0","","85","","","","16","","5","","16.1","","99.61","","","","-20","","Snow"
"-97.86","55.80","THOMPSON A","5062921","2019-12-28 23:00","2019","12","28","23:00","-15.8","","-17.7","","85","","","","17","","4","","16.1","","99.61","","","","-19","","Snow"
"-97.86","55.80","THOMPSON A","5062921","2019-12-29 00:00","2019","12","29","00:00","-16.0","","-18.0","","85","","","","19","","7","","19.3","","99.63","","","","-21","","Snow"
"-97.86","55.80","THOMPSON A","5062921","2019-12-29 01:00","2019","12","29","01:00","-16.4","","-18.4","","85","","","","21","","7","","16.1","","99.65","","","","-21","","Snow"
"-97.86","55.80","THOMPSON A","5062921","2019-12-29 02:00","2019","12","29","02:00","-16.5","","-18.5","","85","","","","25","","10","","16.1","","99.67","","","","-23","","Snow"
"-97.86","55.80","THOMPSON A","5062921","2019-12-29 03:00","2019","12","29","03:00","-16.7","","-18.7","","84","","","","21","","7","","16.1","","99.66","","","","-22","","Snow"
"-97.86","55.80","THOMPSON A","5062921","2019-12-29 04:00","2019","12","29","04:00","-16.6","","-18.7","","84","","","","19","","7","","16.1","","99.63","","","","-22","","Snow"
"-97.86","55.80","THOMPSON A","5062921","2019-12-29 05:00","2019","12","29","05:00","-16.3","","-18.4","","85","","","","19","","7","","16.1","","99.62","","","","-21","","Snow"
"-97.86","55.80","THOMPSON A","5062921","2019-12-29 06:00","2019","12","29","06:00","-16.0","","-17.9","","85","","","","22","","7","","16.1","","99.63","","","","-21","","Snow"
"-97.86","55.80","THOMPSON A","5062921","2019-12-29 07:00","2019","12","29","07:00","-16.0","","-18.0","","85","","","","21","","7","","12.9","","99.57","","","","-21","","Snow"
"-97.86","55.80","THOMPSON A","5062921","2019-12-29 08:00","2019","12","29","08:00","-16.2","","-18.1","","85","","","","22","","14","","24.1","","99.56","","","","-24","","Snow"
"-97.86","55.80","THOMPSON A","5062921","2019-12-29 09:00","2019","12","29","09:00","-16.4","","-18.4","","85","","","","24","","8","","9.7","","99.49","","","","-22","","Snow"
"-97.86","55.80","THOMPSON A","5062921","2019-12-29 10:00","2019","12","29","10:00","-16.2","","-18.3","","85","","","","20","","8","","16.1","","99.48","","","","-22","","Snow"
"-97.86","55.80","THOMPSON A","5062921","2019-12-29 11:00","2019","12","29","11:00","-16.0","","-18.0","","85","","","","22","","10","","9.7","","99.47","","","","-22","","Snow"
"-97.86","55.80","THOMPSON A","5062921","2019-12-29 12:00","2019","12","29","12:00","-15.7","","-17.6","","85","","","","21","","13","","16.1","","99.44","","","","-23","","Snow"
"-97.86","55.80","THOMPSON A","5062921","2019-12-29 13:00","2019","12","29","13:00","-15.4","","-17.3","","85","","","","22","","8","","19.3","","99.34","","","","-21","","Snow"
"-97.86","55.80","THOMPSON A","5062921","2019-12-29 14:00","2019","12","29","14:00","-15.2","","-17.1","","85","","","","19","","7","","24.1","","99.27","","","","-20","","Snow"
"-97.86","55.80","THOMPSON A","5062921","2019-12-29 15:00","2019","12","29","15:00","-15.2","","-17.1","","85","","","","20","","10","","24.1","","99.26","","","","-21","","Snow"
"-97.86","55.80","THOMPSON A","5062921","2019-12-29 16:00","2019","12","29","16:00","-15.7","","-17.6","","85","","","","21","","11","","24.1","","99.31","","","","-22","","Snow"
"-97.86","55.80","THOMPSON A","5062921","2019-12-29 17:00","2019","12","29","17:00","-16.6","","-18.6","","85","","","","21","","7","","24.1","","99.27","","","","-22","","Snow"
"-97.86","55.80","THOMPSON A","5062921","2019-12-29 18:00","2019","12","29","18:00","-17.4","","-19.4","","84","","","","18","","7","","24.1","","99.21","","","","-23","","Snow"
"-97.86","55.80","THOMPSON A","5062921","2019-12-29 19:00","2019","12","29","19:00","-18.0","","-20.1","","84","","","","18","","4","","24.1","","99.15","","","","-21","","NA"
"-97.86","55.80","THOMPSON A","5062921","2019-12-29 20:00","2019","12","29","20:00","-18.1","","-20.2","","83","","","","18","","9","","24.1","","99.12","","","","-24","","NA"
"-97.86","55.80","THOMPSON A","5062921","2019-12-29 21:00","2019","12","29","21:00","-18.6","","-20.7","","84","","","","18","","7","","24.1","","99.08","","","","-24","","Mainly Clear"
"-97.86","55.80","THOMPSON A","5062921","2019-12-29 22:00","2019","12","29","22:00","-18.8","","-20.9","","84","","","","18","","4","","24.1","","99.04","","","","-22","","NA"
"-97.86","55.80","THOMPSON A","5062921","2019-12-29 23:00","2019","12","29","23:00","-17.4","","-19.5","","84","","","","18","","7","","24.1","","99.04","","","","-23","","NA"
"-97.86","55.80","THOMPSON A","5062921","2019-12-30 00:00","2019","12","30","00:00","-16.9","","-19.0","","84","","","","20","","5","","24.1","","99.04","","","","-21","","Mainly Clear"
"-97.86","55.80","THOMPSON A","5062921","2019-12-30 01:00","2019","12","30","01:00","-16.3","","-18.3","","85","","","","36","","3","","24.1","","99.04","","","","-19","","NA"
"-97.86","55.80","THOMPSON A","5062921","2019-12-30 02:00","2019","12","30","02:00","-15.3","","-17.3","","85","","","","29","","7","","24.1","","99.03","","","","-20","","NA"
"-97.86","55.80","THOMPSON A","5062921","2019-12-30 03:00","2019","12","30","03:00","-14.8","","-16.7","","86","","","","0","","1","","24.1","","99.02","","","","-16","","Mostly Cloudy"
"-97.86","55.80","THOMPSON A","5062921","2019-12-30 04:00","2019","12","30","04:00","-14.4","","-16.2","","86","","","","33","","4","","24.1","","99.08","","","","-17","","NA"
"-97.86","55.80","THOMPSON A","5062921","2019-12-30 05:00","2019","12","30","05:00","-15.2","","-17.0","","86","","","","32","","3","","24.1","","99.06","","","","-17","","NA"
"-97.86","55.80","THOMPSON A","5062921","2019-12-30 06:00","2019","12","30","06:00","-17.2","","-19.1","","85","","","","36","","2","","24.1","","99.09","","","","-19","","Mainly Clear"
"-97.86","55.80","THOMPSON A","5062921","2019-12-30 07:00","2019","12","30","07:00","-14.8","","-16.7","","85","","","","36","","2","","24.1","","99.09","","","","-16","","NA"
"-97.86","55.80","THOMPSON A","5062921","2019-12-30 08:00","2019","12","30","08:00","-13.2","","-14.9","","87","","","","36","","8","","24.1","","99.10","","","","-18","","Snow"
"-97.86","55.80","THOMPSON A","5062921","2019-12-30 09:00","2019","12","30","09:00","-12.2","","-13.9","","88","","","","1","","9","","24.1","","99.12","","","","-17","","Snow"
"-97.86","55.80","THOMPSON A","5062921","2019-12-30 10:00","2019","12","30","10:00","-10.6","","-12.1","","89","","","","2","","10","","24.1","","99.15","","","","-16","","NA"
"-97.86","55.80","THOMPSON A","5062921","2019-12-30 11:00","2019","12","30","11:00","-10.0","","-11.4","","90","","","","5","","12","","24.1","","99.20","","","","-16","","NA"
"-97.86","55.80","THOMPSON A","5062921","2019-12-30 12:00","2019","12","30","12:00","-9.8","","-11.1","","90","","","","5","","13","","24.1","","99.23","","","","-16","","Cloudy"
"-97.86","55.80","THOMPSON A","5062921","2019-12-30 13:00","2019","12","30","13:00","-9.7","","-11.0","","90","","","","6","","10","","24.1","","99.19","","","","-15","","NA"
"-97.86","55.80","THOMPSON A","5062921","2019-12-30 14:00","2019","12","30","14:00","-9.5","","-10.8","","90","","","","7","","5","","24.1","","99.16","","","","-12","","NA"
"-97.86","55.80","THOMPSON A","5062921","2019-12-30 15:00","2019","12","30","15:00","-9.9","","-11.2","","90","","","","4","","16","","12.9","","99.15","","","","-17","","Snow"
"-97.86","55.80","THOMPSON A","5062921","2019-12-30 16:00","2019","12","30","16:00","-11.0","","-12.4","","90","","","","4","","14","","9.7","","99.17","","","","-18","","Snow"
"-97.86","55.80","THOMPSON A","5062921","2019-12-30 17:00","2019","12","30","17:00","-11.6","","-13.1","","89","","","","3","","14","","16.1","","99.20","","","","-18","","Snow"
"-97.86","55.80","THOMPSON A","5062921","2019-12-30 18:00","2019","12","30","18:00","-12.1","","-13.6","","88","","","","3","","13","","16.1","","99.18","","","","-19","","Snow"
"-97.86","55.80","THOMPSON A","5062921","2019-12-30 19:00","2019","12","30","19:00","-12.7","","-14.3","","88","","","","4","","11","","16.1","","99.11","","","","-19","","Snow"
"-97.86","55.80","THOMPSON A","5062921","2019-12-30 20:00","2019","12","30","20:00","-13.3","","-15.0","","87","","","","5","","10","","24.1","","99.04","","","","-19","","Snow"
"-97.86","55.80","THOMPSON A","5062921","2019-12-30 21:00","2019","12","30","21:00","-13.8","","-15.5","","87","","","","3","","7","","24.1","","99.00","","","","-18","","Snow"
"-97.86","55.80","THOMPSON A","5062921","2019-12-30 22:00","2019","12","30","22:00","-14.0","","-15.7","","87","","","","5","","7","","24.1","","98.89","","","","-19","","Snow"
"-97.86","55.80","THOMPSON A","5062921","2019-12-30 23:00","2019","12","30","23:00","-13.8","","-15.6","","87","","","","8","","5","","24.1","","98.86","","","","-17","","Snow"
"-97.86","55.80","THOMPSON A","5062921","2019-12-31 00:00","2019","12","31","00:00","-13.9","","-15.7","","87","","","","12","","5","","24.1","","98.82","","","","-17","","Snow"
"-97.86","55.80","THOMPSON A","5062921","2019-12-31 01:00","2019","12","31","01:00","-14.0","","-15.7","","87","","","","9","","4","","16.1","","98.79","","","","-17","","Snow"
"-97.86","55.80","THOMPSON A","5062921","2019-12-31 02:00","2019","12","31","02:00","-13.9","","-15.7","","87","","","","14","","4","","12.9","","98.66","","","","-17","","Snow"
"-97.86","55.80","THOMPSON A","5062921","2019-12-31 03:00","2019","12","31","03:00","-13.9","","-15.7","","87","","","","36","","3","","19.3","","98.57","","","","-16","","Snow"
"-97.86","55.80","THOMPSON A","5062921","2019-12-31 04:00","2019","12","31","04:00","-13.7","","-15.4","","87","","","","14","","3","","24.1","","98.49","","","","-16","","Snow"
"-97.86","55.80","THOMPSON A","5062921","2019-12-31 05:00","2019","12","31","05:00","-13.6","","-15.3","","87","","","","13","","4","","24.1","","98.40","","","","-16","","Snow"
"-97.86","55.80","THOMPSON A","5062921","2019-12-31 06:00","2019","12","31","06:00","-13.5","","-15.3","","87","","","","14","","5","","24.1","","98.31","","","","-17","","Snow"
"-97.86","55.80","THOMPSON A","5062921","2019-12-31 07:00","2019","12","31","07:00","-13.5","","-15.2","","87","","","","13","","5","","24.1","","98.21","","","","-17","","Snow"
"-97.86","55.80","THOMPSON A","5062921","2019-12-31 08:00","2019","12","31","08:00","-13.3","","-15.0","","87","","","","13","","6","","24.1","","98.14","","","","-17","","Snow"
"-97.86","55.80","THOMPSON A","5062921","2019-12-31 09:00","2019","12","31","09:00","-13.2","","-14.9","","87","","","","14","","5","","16.1","","98.04","","","","-17","","Snow"
"-97.86","55.80","THOMPSON A","5062921","2019-12-31 10:00","2019","12","31","10:00","-12.9","","-14.6","","87","","","","14","","4","","16.1","","97.97","","","","-16","","Snow"
"-97.86","55.80","THOMPSON A","5062921","2019-12-31 11:00","2019","12","31","11:00","-12.5","","-14.1","","88","","","","15","","9","","16.1","","97.86","","","","-18","","Snow"
"-97.86","55.80","THOMPSON A","5062921","2019-12-31 12:00","2019","12","31","12:00","-11.9","","-13.5","","88","","","","16","","9","","16.1","","97.72","","","","-17","","Snow"
"-97.86","55.80","THOMPSON A","5062921","2019-12-31 13:00","2019","12","31","13:00","-11.5","","-13.0","","88","","","","15","","8","","8.1","","97.64","","","","-16","","Snow"
"-97.86","55.80","THOMPSON A","5062921","2019-12-31 14:00","2019","12","31","14:00","-11.3","","-12.8","","89","","","","13","","5","","16.1","","97.53","","","","-14","","Snow"
"-97.86","55.80","THOMPSON A","5062921","2019-12-31 15:00","2019","12","31","15:00","-11.4","","-12.9","","89","","","","15","","8","","8.1","","97.44","","","","-16","","Snow"
"-97.86","55.80","THOMPSON A","5062921","2019-12-31 16:00","2019","12","31","16:00","-11.3","","-12.8","","89","","","","13","","4","","6.4","","97.40","","","","-14","","Snow"
"-97.86","55.80","THOMPSON A","5062921","2019-12-31 17:00","2019","12","31","17:00","-11.3","","-12.8","","89","","","","14","","4","","8.1","","97.35","","","","-14","","Snow"
"-97.86","55.80","THOMPSON A","5062921","2019-12-31 18:00","2019","12","31","18:00","-11.3","","-12.8","","89","","","","12","","8","","6.4","","97.23","","","","-16","","Snow"
"-97.86","55.80","THOMPSON A","5062921","2019-12-31 19:00","2019","12","31","19:00","-11.3","","-12.8","","89","","","","14","","5","","9.7","","97.12","","","","-14","","Snow"
"-97.86","55.80","THOMPSON A","5062921","2019-12-31 20:00","2019","12","31","20:00","-11.2","","-12.7","","89","","","","14","","5","","8.1","","97.02","","","","-14","","Snow"
"-97.86","55.80","THOMPSON A","5062921","2019-12-31 21:00","2019","12","31","21:00","-11.2","","-12.7","","89","","","","15","","4","","6.4","","96.93","","","","-14","","Snow"
"-97.86","55.80","THOMPSON A","5062921","2019-12-31 22:00","2019","12","31","22:00","-11.3","","-12.8","","89","","","","13","","5","","6.4","","96.85","","","","-14","","Snow"
"-97.86","55.80","THOMPSON A","5062921","2019-12-31 23:00","2019","12","31","23:00","-11.4","","-12.9","","89","","","","11","","6","","8.1","","96.78","","","","-15","","Snow"
