"Longitude (x)","Latitude (y)","Station Name","Climate ID","Date/Time (LST)","Year","Month","Day","Time (LST)","Temp (°C)","Temp Flag","Dew Point Temp (°C)","Dew Point Temp Flag","Rel Hum (%)","Rel Hum Flag","Precip. Amount (mm)","Precip. Amount Flag","Wind Dir (10s deg)","Wind Dir Flag","Wind Spd (km/h)","Wind Spd Flag","Visibility (km)","Visibility Flag","Stn Press (kPa)","Stn Press Flag","Hmdx","Hmdx Flag","Wind Chill","Wind Chill Flag","Weather"
"-81.11","44.74","WIARTON A","6119499","2021-02-01 00:00","2021","02","01","00:00","-6.8","","-12.5","","64","","","","8","","17","","24.1","","99.37","","","","-13","","NA"
"-81.11","44.74","WIARTON A","6119499","2021-02-01 01:00","2021","02","01","01:00","-7.3","","-12.1","","69","","","","7","","16","","24.1","","99.38","","","","-14","","Mostly Cloudy"
"-81.11","44.74","WIARTON A","6119499","2021-02-01 02:00","2021","02","01","02:00","-8.0","","-11.7","","75","","","","7","","17","","24.1","","99.37","","","","-15","","NA"
"-81.11","44.74","WIARTON A","6119499","2021-02-01 03:00","2021","02","01","03:00","-9.2","","-12.2","","79","","","","7","","14","","24.1","","99.38","","","","-16","","NA"
"-81.11","44.74","WIARTON A","6119499","2021-02-01 04:00","2021","02","01","04:00","-9.9","","-12.5","","81","","","","6","","14","","24.1","","99.37","","","","-16","","Mainly Clear"
"-81.11","44.74","WIARTON A","6119499","2021-02-01 05:00","2021","02","01","05:00","-10.3","","-12.3","","86","","","","6","","13","","24.1","","99.38","","","","-17","","NA"
"-81.11","44.74","WIARTON A","6119499","2021-02-01 06:00","2021","02","01","06:00","-10.7","","-12.7","","86","","","","6","","17","","24.1","","99.38","","","","-18","","NA"
"-81.11","44.74","WIARTON A","6119499","2021-02-01 07:00","2021","02","01","07:00","-10.3","","-12.2","","86","","","","6","","18","","24.1","","99.39","","","","-18","","Mainly Clear"
"-81.11","44.74","WIARTON A","6119499","2021-02-01 08:00","2021","02","01","08:00","-10.4","","-12.3","","86","","","","6","","14","","24.1","","99.41","","","","-17","","NA"
"-81.11","44.74","WIARTON A","6119499","2021-02-01 09:00","2021","02","01","09:00","-9.3","","-12.0","","81","","","","7","","17","","24.1","","99.44","","","","-16","","NA"
"-81.11","44.74","WIARTON A","6119499","2021-02-01 10:00","2021","02","01","10:00","-8.1","","-11.4","","77","","","","7","","16","","24.1","","99.44","","","","-15","","Cloudy"
"-81.11","44.74","WIARTON A","6119499","2021-02-01 11:00","2021","02","01","11:00","-7.5","","-11.4","","74","","","","5","","17","","24.1","","99.44","","","","-14","","NA"
"-81.11","44.74","WIARTON A","6119499","2021-02-01 12:00","2021","02","01","12:00","-6.4","","-10.7","","72","","","","7","","17","","24.1","","99.37","","","","-13","","NA"
"-81.11","44.74","WIARTON A","6119499","2021-02-01 13:00","2021","02","01","13:00","-5.3","","-10.8","","66","","","","4","","17","","24.1","","99.30","","","","-11","","Cloudy"
"-81.11","44.74","WIARTON A","6119499","2021-02-01 14:00","2021","02","01","14:00","-5.3","","-9.1","","75","","","","5","","19","","24.1","","99.27","","","","-12","","NA"
"-81.11","44.74","WIARTON A","6119499","2021-02-01 15:00","2021","02","01","15:00","-5.5","","-9.2","","75","","","","5","","19","","24.1","","99.24","","","","-12","","NA"
"-81.11","44.74","WIARTON A","6119499","2021-02-01 16:00","2021","02","01","16:00","-5.5","","-8.8","","77","","","","4","","14","","24.1","","99.26","","","","-11","","Cloudy"
"-81.11","44.74","WIARTON A","6119499","2021-02-01 17:00","2021","02","01","17:00","-5.6","","-9.8","","72","","","","2","","11","","24.1","","99.28","","","","-10","","NA"
"-81.11","44.74","WIARTON A","6119499","2021-02-01 18:00","2021","02","01","18:00","-5.2","","-9.3","","73","","","","3","","10","","24.1","","99.30","","","","-10","","NA"
"-81.11","44.74","WIARTON A","6119499","2021-02-01 19:00","2021","02","01","19:00","-4.9","","-9.8","","69","","","","3","","8","","24.1","","99.29","","","","-8","","Mostly Cloudy"
"-81.11","44.74","WIARTON A","6119499","2021-02-01 20:00","2021","02","01","20:00","-4.5","","-9.4","","69","","","","2","","8","","24.1","","99.25","","","","-8","","NA"
"-81.11","44.74","WIARTON A","6119499","2021-02-01 21:00","2021","02","01","21:00","-4.5","","-9.9","","66","","","","3","","14","","24.1","","99.22","","","","-10","","NA"
"-81.11","44.74","WIARTON A","6119499","2021-02-01 22:00","2021","02","01","22:00","-4.4","","-9.1","","70","","","","3","","10","","24.1","","99.23","","","","-9","","Mainly Clear"
"-81.11","44.74","WIARTON A","6119499","2021-02-01 23:00","2021","02","01","23:00","-5.1","","-10.3","","67","","","","5","","17","","24.1","","99.22","","","","-11","","NA"
"-81.11","44.74","WIARTON A","6119499","2021-02-02 00:00","2021","02","02","00:00","-6.0","","-11.3","","66","","","","6","","11","","24.1","","99.21","","","","-11","","NA"
"-81.11","44.74","WIARTON A","6119499","2021-02-02 01:00","2021","02","02","01:00","-6.7","","-12.3","","65","","","","6","","9","","24.1","","99.20","","","","-11","","Mostly Cloudy"
"-81.11","44.74","WIARTON A","6119499","2021-02-02 02:00","2021","02","02","02:00","-7.3","","-12.8","","65","","","","7","","8","","24.1","","99.18","","","","-11","","NA"
"-81.11","44.74","WIARTON A","6119499","2021-02-02 03:00","2021","02","02","03:00","-5.4","","-9.7","","72","","","","2","","7","","24.1","","99.17","","","","-9","","NA"
"-81.11","44.74","WIARTON A","6119499","2021-02-02 04:00","2021","02","02","04:00","-5.4","","-8.4","","79","","","","2","","11","","24.1","","99.13","","","","-10","","Mostly Cloudy"
"-81.11","44.74","WIARTON A","6119499","2021-02-02 05:00","2021","02","02","05:00","-5.3","","-8.0","","81","","","","3","","12","","24.1","","99.09","","","","-10","","NA"
"-81.11","44.74","WIARTON A","6119499","2021-02-02 06:00","2021","02","02","06:00","-5.4","","-7.8","","83","","","","2","","11","","24.1","","99.08","","","","-10","","NA"
"-81.11","44.74","WIARTON A","6119499","2021-02-02 07:00","2021","02","02","07:00","-5.7","","-7.4","","87","","","","2","","9","","24.1","","99.13","","","","-10","","Cloudy"
"-81.11","44.74","WIARTON A","6119499","2021-02-02 08:00","2021","02","02","08:00","-5.4","","-7.2","","87","","","","3","","12","","24.1","","99.11","","","","-10","","NA"
"-81.11","44.74","WIARTON A","6119499","2021-02-02 09:00","2021","02","02","09:00","-4.6","","-8.4","","75","","","","2","","17","","24.1","","99.11","","","","-10","","NA"
"-81.11","44.74","WIARTON A","6119499","2021-02-02 10:00","2021","02","02","10:00","-4.3","","-8.8","","71","","","","2","","16","","24.1","","99.06","","","","-10","","Cloudy"
"-81.11","44.74","WIARTON A","6119499","2021-02-02 11:00","2021","02","02","11:00","-4.5","","-8.4","","75","","","","3","","17","","24.1","","99.02","","","","-10","","NA"
"-81.11","44.74","WIARTON A","6119499","2021-02-02 12:00","2021","02","02","12:00","-3.9","","-7.9","","74","","","","36","","11","","24.1","","98.94","","","","-8","","NA"
"-81.11","44.74","WIARTON A","6119499","2021-02-02 13:00","2021","02","02","13:00","-3.3","","-7.5","","73","","","","36","","18","","24.1","","98.87","","","","-9","","Mostly Cloudy"
"-81.11","44.74","WIARTON A","6119499","2021-02-02 14:00","2021","02","02","14:00","-2.4","","-7.3","","69","","","","1","","16","","24.1","","98.83","","","","-8","","NA"
"-81.11","44.74","WIARTON A","6119499","2021-02-02 15:00","2021","02","02","15:00","-2.0","","-7.1","","68","","","","1","","19","","24.1","","98.84","","","","-8","","NA"
"-81.11","44.74","WIARTON A","6119499","2021-02-02 16:00","2021","02","02","16:00","-1.5","","-7.2","","65","","","","1","","10","","24.1","","98.85","","","","-5","","Mostly Cloudy"
"-81.11","44.74","WIARTON A","6119499","2021-02-02 17:00","2021","02","02","17:00","-1.6","","-7.4","","65","","","","1","","14","","24.1","","98.84","","","","-6","","NA"
"-81.11","44.74","WIARTON A","6119499","2021-02-02 18:00","2021","02","02","18:00","-1.9","","-7.5","","65","","","","1","","14","","24.1","","98.86","","","","-7","","NA"
"-81.11","44.74","WIARTON A","6119499","2021-02-02 19:00","2021","02","02","19:00","-1.8","","-7.9","","63","","","","36","","13","","24.1","","98.83","","","","-6","","Mainly Clear"
"-81.11","44.74","WIARTON A","6119499","2021-02-02 20:00","2021","02","02","20:00","-1.7","","-8.2","","61","","","","1","","14","","24.1","","98.83","","","","-6","","NA"
"-81.11","44.74","WIARTON A","6119499","2021-02-02 21:00","2021","02","02","21:00","-2.0","","-7.5","","66","","","","2","","18","","24.1","","98.82","","","","-7","","NA"
"-81.11","44.74","WIARTON A","6119499","2021-02-02 22:00","2021","02","02","22:00","-2.4","","-7.1","","71","","","","1","","14","","24.1","","98.78","","","","-7","","Mostly Cloudy"
"-81.11","44.74","WIARTON A","6119499","2021-02-02 23:00","2021","02","02","23:00","-2.9","","-6.9","","74","","","","1","","17","","24.1","","98.78","","","","-8","","NA"
"-81.11","44.74","WIARTON A","6119499","2021-02-03 00:00","2021","02","03","00:00","-3.7","","-6.5","","81","","","","36","","17","","24.1","","98.75","","","","-9","","NA"
"-81.11","44.74","WIARTON A","6119499","2021-02-03 01:00","2021","02","03","01:00","-4.1","","-6.4","","84","","","","1","","17","","24.1","","98.74","","","","-10","","Mostly Cloudy"
"-81.11","44.74","WIARTON A","6119499","2021-02-03 02:00","2021","02","03","02:00","-4.3","","-6.5","","85","","","","1","","17","","24.1","","98.72","","","","-10","","NA"
"-81.11","44.74","WIARTON A","6119499","2021-02-03 03:00","2021","02","03","03:00","-4.4","","-6.6","","84","","","","2","","21","","24.1","","98.73","","","","-11","","NA"
"-81.11","44.74","WIARTON A","6119499","2021-02-03 04:00","2021","02","03","04:00","-5.3","","-7.5","","85","","","","3","","16","","24.1","","98.71","","","","-11","","Mostly Cloudy"
"-81.11","44.74","WIARTON A","6119499","2021-02-03 05:00","2021","02","03","05:00","-5.1","","-7.2","","86","","","","36","","16","","24.1","","98.74","","","","-11","","NA"
"-81.11","44.74","WIARTON A","6119499","2021-02-03 06:00","2021","02","03","06:00","-5.2","","-7.0","","87","","","","2","","10","","24.1","","98.72","","","","-10","","NA"
"-81.11","44.74","WIARTON A","6119499","2021-02-03 07:00","2021","02","03","07:00","-5.2","","-7.3","","85","","","","1","","13","","24.1","","98.75","","","","-10","","Mostly Cloudy"
"-81.11","44.74","WIARTON A","6119499","2021-02-03 08:00","2021","02","03","08:00","-5.4","","-7.7","","84","","","","3","","13","","24.1","","98.77","","","","-11","","NA"
"-81.11","44.74","WIARTON A","6119499","2021-02-03 09:00","2021","02","03","09:00","-4.8","","-7.8","","80","","","","3","","13","","24.1","","98.77","","","","-10","","NA"
"-81.11","44.74","WIARTON A","6119499","2021-02-03 10:00","2021","02","03","10:00","-4.2","","-8.4","","73","","","","2","","16","","24.1","","98.79","","","","-10","","Clear"
"-81.11","44.74","WIARTON A","6119499","2021-02-03 11:00","2021","02","03","11:00","-3.4","","-8.4","","68","","","","2","","11","","24.1","","98.83","","","","-8","","NA"
"-81.11","44.74","WIARTON A","6119499","2021-02-03 12:00","2021","02","03","12:00","-2.4","","-8.2","","64","","","","34","","12","","24.1","","98.82","","","","-7","","NA"
"-81.11","44.74","WIARTON A","6119499","2021-02-03 13:00","2021","02","03","13:00","-1.7","","-8.4","","60","","","","1","","5","","24.1","","98.74","","","","-4","","Clear"
"-81.11","44.74","WIARTON A","6119499","2021-02-03 14:00","2021","02","03","14:00","-0.8","","-9.6","","52","","","","2","","7","","22.5","","98.71","","","","-3","","NA"
"-81.11","44.74","WIARTON A","6119499","2021-02-03 15:00","2021","02","03","15:00","0.0","","-9.3","","50","","","","34","","12","","24.1","","98.73","","","","-4","","NA"
"-81.11","44.74","WIARTON A","6119499","2021-02-03 16:00","2021","02","03","16:00","-0.2","","-8.6","","53","","","","36","","7","","24.1","","98.73","","","","-3","","Clear"
"-81.11","44.74","WIARTON A","6119499","2021-02-03 17:00","2021","02","03","17:00","-0.9","","-9.2","","54","","","","32","","7","","24.1","","98.75","","","","-3","","NA"
"-81.11","44.74","WIARTON A","6119499","2021-02-03 18:00","2021","02","03","18:00","-2.3","","-9.5","","58","","","","30","","5","","24.1","","98.77","","","","-4","","NA"
"-81.11","44.74","WIARTON A","6119499","2021-02-03 19:00","2021","02","03","19:00","-3.4","","-10.3","","59","","","","32","","5","","24.1","","98.79","","","","-5","","Clear"
"-81.11","44.74","WIARTON A","6119499","2021-02-03 20:00","2021","02","03","20:00","-2.9","","-9.3","","61","","","","30","","4","","24.1","","98.80","","","","-4","","NA"
"-81.11","44.74","WIARTON A","6119499","2021-02-03 21:00","2021","02","03","21:00","-3.9","","-8.7","","69","","","","30","","7","","24.1","","98.79","","","","-7","","NA"
"-81.11","44.74","WIARTON A","6119499","2021-02-03 22:00","2021","02","03","22:00","-10.8","","-12.7","","86","","","","36","","2","","24.1","","98.78","","","","-12","","Clear"
"-81.11","44.74","WIARTON A","6119499","2021-02-03 23:00","2021","02","03","23:00","-11.0","","-12.4","","90","","","","16","","5","","24.1","","98.78","","","","-14","","NA"
"-81.11","44.74","WIARTON A","6119499","2021-02-04 00:00","2021","02","04","00:00","-8.2","","-9.6","","89","","","","36","","3","","24.1","","98.78","","","","-10","","NA"
"-81.11","44.74","WIARTON A","6119499","2021-02-04 01:00","2021","02","04","01:00","-11.5","","-13.1","","88","","","","36","","1","","24.1","","98.76","","","","-12","","Clear"
"-81.11","44.74","WIARTON A","6119499","2021-02-04 02:00","2021","02","04","02:00","-13.3","","-14.7","","90","","","","20","","5","","24.1","","98.81","","","","-17","","NA"
"-81.11","44.74","WIARTON A","6119499","2021-02-04 03:00","2021","02","04","03:00","-13.1","","-14.3","","90","","","","21","","5","","24.1","","98.84","","","","-16","","NA"
"-81.11","44.74","WIARTON A","6119499","2021-02-04 04:00","2021","02","04","04:00","-12.6","","-13.8","","90","","","","13","","11","","24.1","","98.83","","","","-19","","Mainly Clear"
"-81.11","44.74","WIARTON A","6119499","2021-02-04 05:00","2021","02","04","05:00","-11.8","","-12.9","","92","","","","12","","18","","24.1","","98.74","","","","-20","","NA"
"-81.11","44.74","WIARTON A","6119499","2021-02-04 06:00","2021","02","04","06:00","-13.6","","-14.9","","90","","","","17","","10","","24.1","","98.79","","","","-20","","NA"
"-81.11","44.74","WIARTON A","6119499","2021-02-04 07:00","2021","02","04","07:00","-12.8","","-13.9","","91","","","","14","","15","","24.1","","98.75","","","","-20","","Clear"
"-81.11","44.74","WIARTON A","6119499","2021-02-04 08:00","2021","02","04","08:00","-11.4","","-12.4","","92","","","","13","","15","","24.1","","98.74","","","","-18","","NA"
"-81.11","44.74","WIARTON A","6119499","2021-02-04 09:00","2021","02","04","09:00","-7.5","","-8.4","","94","","","","15","","12","","24.1","","98.74","","","","-13","","NA"
"-81.11","44.74","WIARTON A","6119499","2021-02-04 10:00","2021","02","04","10:00","-5.3","","-6.2","","93","","","","16","","9","","24.1","","98.69","","","","-9","","Mainly Clear"
"-81.11","44.74","WIARTON A","6119499","2021-02-04 11:00","2021","02","04","11:00","-2.3","","-4.2","","87","","","","16","","13","","24.1","","98.63","","","","-7","","NA"
"-81.11","44.74","WIARTON A","6119499","2021-02-04 12:00","2021","02","04","12:00","-0.2","","-6.0","","65","","","","17","","12","","24.1","","98.55","","","","-4","","NA"
"-81.11","44.74","WIARTON A","6119499","2021-02-04 13:00","2021","02","04","13:00","1.2","","-8.5","","49","","","","19","","19","","24.1","","98.46","","","","","","Mainly Clear"
"-81.11","44.74","WIARTON A","6119499","2021-02-04 14:00","2021","02","04","14:00","1.5","","-10.9","","39","","","","19","","28","","24.1","","98.34","","","","","","NA"
"-81.11","44.74","WIARTON A","6119499","2021-02-04 15:00","2021","02","04","15:00","2.4","","-10.6","","38","","","","16","","13","","24.1","","98.18","","","","","","NA"
"-81.11","44.74","WIARTON A","6119499","2021-02-04 16:00","2021","02","04","16:00","2.7","","-13.2","","30","","","","16","","22","","24.1","","98.05","","","","","","Mostly Cloudy"
"-81.11","44.74","WIARTON A","6119499","2021-02-04 17:00","2021","02","04","17:00","1.4","","-11.8","","37","","","","15","","17","","24.1","","97.98","","","","","","NA"
"-81.11","44.74","WIARTON A","6119499","2021-02-04 18:00","2021","02","04","18:00","0.5","","-11.4","","41","","","","14","","17","","24.1","","97.84","","","","","","NA"
"-81.11","44.74","WIARTON A","6119499","2021-02-04 19:00","2021","02","04","19:00","-0.2","","-11.5","","42","","","","12","","18","","24.1","","97.72","","","","-5","","Mostly Cloudy"
"-81.11","44.74","WIARTON A","6119499","2021-02-04 20:00","2021","02","04","20:00","-0.3","","-11.3","","43","","","","11","","12","","24.1","","97.48","","","","-4","","NA"
"-81.11","44.74","WIARTON A","6119499","2021-02-04 21:00","2021","02","04","21:00","-0.2","","-10.9","","44","","","","12","","12","","24.1","","97.39","","","","-4","","NA"
"-81.11","44.74","WIARTON A","6119499","2021-02-04 22:00","2021","02","04","22:00","0.9","","-11.5","","39","","","","14","","19","","24.1","","97.22","","","","","","Cloudy"
"-81.11","44.74","WIARTON A","6119499","2021-02-04 23:00","2021","02","04","23:00","2.1","","-10.8","","38","","","","15","","20","","24.1","","97.12","","","","","","NA"
"-81.11","44.74","WIARTON A","6119499","2021-02-05 00:00","2021","02","05","00:00","-0.5","","-2.5","","86","","","","15","","31","","1.2","","96.98","","","","-7","","Snow,Blowing Snow"
"-81.11","44.74","WIARTON A","6119499","2021-02-05 01:00","2021","02","05","01:00","-0.5","","-1.7","","91","","","","13","","31","","1.6","","96.71","","","","-7","","Snow,Blowing Snow"
"-81.11","44.74","WIARTON A","6119499","2021-02-05 02:00","2021","02","05","02:00","0.2","","-0.5","","95","","","","14","","21","","1.6","","96.56","","","","","","Snow,Blowing Snow"
"-81.11","44.74","WIARTON A","6119499","2021-02-05 03:00","2021","02","05","03:00","0.8","","0.1","","95","","","","15","","28","","4.8","","96.38","","","","","","Snow"
"-81.11","44.74","WIARTON A","6119499","2021-02-05 04:00","2021","02","05","04:00","1.0","","0.0","","93","","","","16","","21","","8.1","","96.27","","","","","","Snow"
"-81.11","44.74","WIARTON A","6119499","2021-02-05 05:00","2021","02","05","05:00","0.9","","0.1","","95","","","","17","","24","","6.4","","96.18","","","","","","Snow"
"-81.11","44.74","WIARTON A","6119499","2021-02-05 06:00","2021","02","05","06:00","0.5","","0.0","","97","","","","19","","20","","4.8","","96.15","","","","","","Snow"
"-81.11","44.74","WIARTON A","6119499","2021-02-05 07:00","2021","02","05","07:00","0.1","","-0.6","","96","","","","23","","37","","1.0","","96.19","","","","","","Snow"
"-81.11","44.74","WIARTON A","6119499","2021-02-05 08:00","2021","02","05","08:00","-1.2","","-2.5","","91","","","","23","","42","","1.2","","96.31","","","","-9","","Snow,Blowing Snow"
"-81.11","44.74","WIARTON A","6119499","2021-02-05 09:00","2021","02","05","09:00","-2.1","","-3.3","","92","","","","23","","35","","1.0","","96.44","","","","-10","","Snow,Blowing Snow"
"-81.11","44.74","WIARTON A","6119499","2021-02-05 10:00","2021","02","05","10:00","-2.6","","-4.5","","87","","","","24","","39","","0.8","","96.50","","","","-11","","Moderate Snow,Blowing Snow"
"-81.11","44.74","WIARTON A","6119499","2021-02-05 11:00","2021","02","05","11:00","-2.9","","-5.6","","82","","","","23","","42","","0.4","","96.62","","","","-11","","Moderate Snow,Blowing Snow"
"-81.11","44.74","WIARTON A","6119499","2021-02-05 12:00","2021","02","05","12:00","-3.3","","-6.2","","80","","","","24","","35","","3.2","","96.68","","","","-11","","Snow,Blowing Snow"
"-81.11","44.74","WIARTON A","6119499","2021-02-05 13:00","2021","02","05","13:00","-4.0","","-6.8","","81","","","","23","","40","","0.4","","96.74","","","","-13","","Snow Showers,Blowing Snow"
"-81.11","44.74","WIARTON A","6119499","2021-02-05 14:00","2021","02","05","14:00","-4.6","","-8.3","","75","","","","24","","31","","4.8","","96.83","","","","-13","","Snow Showers,Blowing Snow"
"-81.11","44.74","WIARTON A","6119499","2021-02-05 15:00","2021","02","05","15:00","-5.1","","-8.7","","76","","","","23","","35","","3.2","","96.92","","","","-14","","Snow Showers,Blowing Snow"
"-81.11","44.74","WIARTON A","6119499","2021-02-05 16:00","2021","02","05","16:00","-6.0","","-9.9","","74","","","","23","","38","","1.2","","97.02","","","","-15","","Snow Showers,Blowing Snow"
"-81.11","44.74","WIARTON A","6119499","2021-02-05 17:00","2021","02","05","17:00","-6.4","","-8.8","","83","","","","23","","31","","1.2","","97.09","","","","-15","","Snow Showers,Blowing Snow"
"-81.11","44.74","WIARTON A","6119499","2021-02-05 18:00","2021","02","05","18:00","-6.8","","-8.9","","85","","","","23","","35","","1.2","","97.14","","","","-16","","Snow Showers,Blowing Snow"
"-81.11","44.74","WIARTON A","6119499","2021-02-05 19:00","2021","02","05","19:00","-6.7","","-10.4","","75","","","","23","","34","","8.1","","97.22","","","","-16","","Blowing Snow"
"-81.11","44.74","WIARTON A","6119499","2021-02-05 20:00","2021","02","05","20:00","-7.2","","-9.6","","83","","","","22","","31","","3.2","","97.24","","","","-16","","Snow Showers,Blowing Snow"
"-81.11","44.74","WIARTON A","6119499","2021-02-05 21:00","2021","02","05","21:00","-7.3","","-9.6","","84","","","","23","","34","","2.4","","97.29","","","","-16","","Snow Showers,Blowing Snow"
"-81.11","44.74","WIARTON A","6119499","2021-02-05 22:00","2021","02","05","22:00","-7.7","","-9.8","","85","","","","24","","31","","2.4","","97.37","","","","-17","","Snow Showers,Blowing Snow"
"-81.11","44.74","WIARTON A","6119499","2021-02-05 23:00","2021","02","05","23:00","-7.7","","-10.4","","81","","","","25","","36","","2.4","","97.41","","","","-17","","Snow Showers,Blowing Snow"
"-81.11","44.74","WIARTON A","6119499","2021-02-06 00:00","2021","02","06","00:00","-7.5","","-11.2","","75","","","","25","","24","","8.1","","97.40","","","","-15","","Blowing Snow"
"-81.11","44.74","WIARTON A","6119499","2021-02-06 01:00","2021","02","06","01:00","-7.6","","-10.8","","78","","","","25","","25","","4.8","","97.42","","","","-16","","Snow Showers,Blowing Snow"
"-81.11","44.74","WIARTON A","6119499","2021-02-06 02:00","2021","02","06","02:00","-7.9","","-10.2","","84","","","","26","","22","","0.8","","97.44","","","","-16","","Moderate Snow Showers,Blowing Snow"
"-81.11","44.74","WIARTON A","6119499","2021-02-06 03:00","2021","02","06","03:00","-8.3","","-10.7","","83","","","","25","","25","","2.4","","97.50","","","","-17","","Snow Showers,Blowing Snow"
"-81.11","44.74","WIARTON A","6119499","2021-02-06 04:00","2021","02","06","04:00","-8.5","","-11.1","","82","","","","25","","31","","2.4","","97.56","","","","-18","","Snow Showers,Blowing Snow"
"-81.11","44.74","WIARTON A","6119499","2021-02-06 05:00","2021","02","06","05:00","-8.5","","-11.9","","77","","","","25","","32","","6.4","","97.64","","","","-18","","Snow Showers,Blowing Snow"
"-81.11","44.74","WIARTON A","6119499","2021-02-06 06:00","2021","02","06","06:00","-8.6","","-13.8","","66","","","","25","","32","","16.1","","97.73","","","","-18","","Snow Showers"
"-81.11","44.74","WIARTON A","6119499","2021-02-06 07:00","2021","02","06","07:00","-8.7","","-13.1","","71","","","","26","","29","","8.1","","97.81","","","","-18","","Snow Showers,Blowing Snow"
"-81.11","44.74","WIARTON A","6119499","2021-02-06 08:00","2021","02","06","08:00","-8.7","","-13.4","","69","","","","26","","30","","8.1","","97.93","","","","-18","","Snow Showers,Blowing Snow"
"-81.11","44.74","WIARTON A","6119499","2021-02-06 09:00","2021","02","06","09:00","-8.9","","-12.1","","78","","","","26","","29","","3.2","","98.01","","","","-18","","Snow Showers,Blowing Snow"
"-81.11","44.74","WIARTON A","6119499","2021-02-06 10:00","2021","02","06","10:00","-8.8","","-11.8","","79","","","","25","","31","","3.2","","98.11","","","","-18","","Snow Showers,Blowing Snow"
"-81.11","44.74","WIARTON A","6119499","2021-02-06 11:00","2021","02","06","11:00","-9.0","","-11.7","","81","","","","26","","27","","3.2","","98.22","","","","-18","","Snow Showers,Blowing Snow"
"-81.11","44.74","WIARTON A","6119499","2021-02-06 12:00","2021","02","06","12:00","-8.8","","-12.9","","72","","","","24","","31","","3.2","","98.34","","","","-18","","Snow Showers,Blowing Snow"
"-81.11","44.74","WIARTON A","6119499","2021-02-06 13:00","2021","02","06","13:00","-8.2","","-13.6","","65","","","","25","","24","","12.9","","98.41","","","","-16","","Snow Showers,Blowing Snow"
"-81.11","44.74","WIARTON A","6119499","2021-02-06 14:00","2021","02","06","14:00","-8.0","","-12.2","","72","","","","25","","32","","16.1","","98.48","","","","-17","","Blowing Snow"
"-81.11","44.74","WIARTON A","6119499","2021-02-06 15:00","2021","02","06","15:00","-7.3","","-12.5","","67","","","","26","","32","","16.1","","98.54","","","","-16","","Blowing Snow"
"-81.11","44.74","WIARTON A","6119499","2021-02-06 16:00","2021","02","06","16:00","-6.9","","-11.6","","69","","","","24","","32","","16.1","","98.65","","","","-16","","Blowing Snow"
"-81.11","44.74","WIARTON A","6119499","2021-02-06 17:00","2021","02","06","17:00","-7.0","","-11.4","","71","","","","23","","31","","9.7","","98.62","","","","-16","","Snow,Blowing Snow"
"-81.11","44.74","WIARTON A","6119499","2021-02-06 18:00","2021","02","06","18:00","-7.2","","-11.3","","72","","","","23","","26","","9.7","","98.66","","","","-15","","Snow,Blowing Snow"
"-81.11","44.74","WIARTON A","6119499","2021-02-06 19:00","2021","02","06","19:00","-7.0","","-11.9","","68","","","","22","","30","","12.9","","98.68","","","","-16","","Snow,Blowing Snow"
"-81.11","44.74","WIARTON A","6119499","2021-02-06 20:00","2021","02","06","20:00","-6.6","","-11.7","","67","","","","23","","25","","12.9","","98.70","","","","-14","","Snow,Blowing Snow"
"-81.11","44.74","WIARTON A","6119499","2021-02-06 21:00","2021","02","06","21:00","-6.3","","-11.4","","68","","","","22","","21","","16.1","","98.68","","","","-13","","Snow,Blowing Snow"
"-81.11","44.74","WIARTON A","6119499","2021-02-06 22:00","2021","02","06","22:00","-7.7","","-9.4","","87","","","","20","","22","","6.4","","98.65","","","","-15","","Snow,Blowing Snow"
"-81.11","44.74","WIARTON A","6119499","2021-02-06 23:00","2021","02","06","23:00","-7.3","","-8.8","","89","","","","21","","28","","1.2","","98.61","","","","-16","","Snow,Blowing Snow"
"-81.11","44.74","WIARTON A","6119499","2021-02-07 00:00","2021","02","07","00:00","-9.0","","-10.6","","88","","","","19","","25","","0.8","","98.61","","","","-17","","Moderate Snow,Blowing Snow"
"-81.11","44.74","WIARTON A","6119499","2021-02-07 01:00","2021","02","07","01:00","-9.1","","-10.5","","90","","","","19","","19","","1.2","","98.58","","","","-17","","Snow,Blowing Snow"
"-81.11","44.74","WIARTON A","6119499","2021-02-07 02:00","2021","02","07","02:00","-8.9","","-10.2","","90","","","","19","","16","","1.2","","98.54","","","","-16","","Snow,Blowing Snow"
"-81.11","44.74","WIARTON A","6119499","2021-02-07 03:00","2021","02","07","03:00","-7.5","","-8.6","","92","","","","24","","13","","1.6","","98.48","","","","-13","","Snow,Blowing Snow"
"-81.11","44.74","WIARTON A","6119499","2021-02-07 04:00","2021","02","07","04:00","-7.5","","-8.7","","92","","","","26","","13","","1.2","","98.43","","","","-13","","Snow"
"-81.11","44.74","WIARTON A","6119499","2021-02-07 05:00","2021","02","07","05:00","-7.4","","-9.1","","88","","","","26","","17","","1.6","","98.42","","","","-14","","Snow,Blowing Snow"
"-81.11","44.74","WIARTON A","6119499","2021-02-07 06:00","2021","02","07","06:00","-8.0","","-10.7","","81","","","","28","","17","","4.8","","98.46","","","","-15","","Snow,Blowing Snow"
"-81.11","44.74","WIARTON A","6119499","2021-02-07 07:00","2021","02","07","07:00","-8.3","","-12.2","","74","","","","26","","17","","8.1","","98.52","","","","-15","","Snow,Blowing Snow"
"-81.11","44.74","WIARTON A","6119499","2021-02-07 08:00","2021","02","07","08:00","-9.1","","-10.9","","87","","","","27","","15","","3.2","","98.57","","","","-16","","Snow Showers,Blowing Snow"
"-81.11","44.74","WIARTON A","6119499","2021-02-07 09:00","2021","02","07","09:00","-9.4","","-13.3","","74","","","","27","","17","","12.9","","98.64","","","","-16","","Snow,Blowing Snow"
"-81.11","44.74","WIARTON A","6119499","2021-02-07 10:00","2021","02","07","10:00","-9.3","","-14.5","","66","","","","26","","17","","9.7","","98.70","","","","-16","","Snow,Blowing Snow"
"-81.11","44.74","WIARTON A","6119499","2021-02-07 11:00","2021","02","07","11:00","-10.0","","-12.6","","82","","","","27","","14","","3.2","","98.75","","","","-16","","Snow Showers,Blowing Snow"
"-81.11","44.74","WIARTON A","6119499","2021-02-07 12:00","2021","02","07","12:00","-10.1","","-14.3","","72","","","","27","","21","","6.4","","98.77","","","","-18","","Snow Showers"
"-81.11","44.74","WIARTON A","6119499","2021-02-07 13:00","2021","02","07","13:00","-10.4","","-12.7","","83","","","","28","","27","","3.2","","98.79","","","","-20","","Snow Showers,Blowing Snow"
"-81.11","44.74","WIARTON A","6119499","2021-02-07 14:00","2021","02","07","14:00","-10.3","","-13.4","","78","","","","26","","13","","6.4","","98.80","","","","-17","","Snow Showers,Blowing Snow"
"-81.11","44.74","WIARTON A","6119499","2021-02-07 15:00","2021","02","07","15:00","-10.0","","-13.8","","74","","","","28","","19","","6.4","","98.84","","","","-18","","Snow,Blowing Snow"
"-81.11","44.74","WIARTON A","6119499","2021-02-07 16:00","2021","02","07","16:00","-10.3","","-15.3","","67","","","","27","","15","","24.1","","98.90","","","","-17","","Mostly Cloudy"
"-81.11","44.74","WIARTON A","6119499","2021-02-07 17:00","2021","02","07","17:00","-10.3","","-13.6","","77","","","","27","","18","","3.2","","98.96","","","","-18","","Snow Showers,Blowing Snow"
"-81.11","44.74","WIARTON A","6119499","2021-02-07 18:00","2021","02","07","18:00","-10.3","","-13.8","","76","","","","26","","19","","3.2","","99.02","","","","-18","","Snow Showers,Blowing Snow"
"-81.11","44.74","WIARTON A","6119499","2021-02-07 19:00","2021","02","07","19:00","-9.8","","-15.4","","64","","","","28","","18","","9.7","","99.09","","","","-17","","Snow Showers,Blowing Snow"
"-81.11","44.74","WIARTON A","6119499","2021-02-07 20:00","2021","02","07","20:00","-10.2","","-12.6","","82","","","","26","","10","","3.2","","99.15","","","","-15","","Snow Showers,Blowing Snow"
"-81.11","44.74","WIARTON A","6119499","2021-02-07 21:00","2021","02","07","21:00","-9.9","","-12.5","","81","","","","28","","17","","3.2","","99.19","","","","-17","","Snow Showers,Blowing Snow"
"-81.11","44.74","WIARTON A","6119499","2021-02-07 22:00","2021","02","07","22:00","-10.0","","-12.8","","80","","","","27","","11","","4.8","","99.28","","","","-16","","Snow Showers,Blowing Snow"
"-81.11","44.74","WIARTON A","6119499","2021-02-07 23:00","2021","02","07","23:00","-9.9","","-13.7","","74","","","","28","","17","","4.8","","99.31","","","","-17","","Snow Showers,Blowing Snow"
"-81.11","44.74","WIARTON A","6119499","2021-02-08 00:00","2021","02","08","00:00","-9.9","","-15.1","","66","","","","27","","14","","4.8","","99.39","","","","-16","","Snow Showers,Blowing Snow"
"-81.11","44.74","WIARTON A","6119499","2021-02-08 01:00","2021","02","08","01:00","-10.2","","-13.8","","75","","","","27","","16","","9.7","","99.43","","","","-17","","Snow Showers,Blowing Snow"
"-81.11","44.74","WIARTON A","6119499","2021-02-08 02:00","2021","02","08","02:00","-10.2","","-15.1","","68","","","","26","","12","","16.1","","99.47","","","","-16","","Snow Showers"
"-81.11","44.74","WIARTON A","6119499","2021-02-08 03:00","2021","02","08","03:00","-10.0","","-15.3","","65","","","","27","","13","","16.1","","99.53","","","","-16","","Snow Showers"
"-81.11","44.74","WIARTON A","6119499","2021-02-08 04:00","2021","02","08","04:00","-10.0","","-15.1","","67","","","","24","","13","","9.7","","99.53","","","","-16","","Snow Showers"
"-81.11","44.74","WIARTON A","6119499","2021-02-08 05:00","2021","02","08","05:00","-9.7","","-15.1","","65","","","","25","","11","","12.9","","99.54","","","","-15","","Snow Showers"
"-81.11","44.74","WIARTON A","6119499","2021-02-08 06:00","2021","02","08","06:00","-9.8","","-14.4","","69","","","","24","","9","","6.4","","99.60","","","","-15","","Snow Showers"
"-81.11","44.74","WIARTON A","6119499","2021-02-08 07:00","2021","02","08","07:00","-9.6","","-14.5","","68","","","","26","","9","","12.9","","99.66","","","","-14","","Snow Showers"
"-81.11","44.74","WIARTON A","6119499","2021-02-08 08:00","2021","02","08","08:00","-11.0","","-13.4","","82","","","","18","","12","","8.1","","99.70","","","","-17","","Snow"
"-81.11","44.74","WIARTON A","6119499","2021-02-08 09:00","2021","02","08","09:00","-10.8","","-12.8","","85","","","","19","","10","","16.1","","99.76","","","","-16","","Snow"
"-81.11","44.74","WIARTON A","6119499","2021-02-08 10:00","2021","02","08","10:00","-10.2","","-12.5","","83","","","","18","","15","","16.1","","99.79","","","","-17","","Snow"
"-81.11","44.74","WIARTON A","6119499","2021-02-08 11:00","2021","02","08","11:00","-9.9","","-12.7","","80","","","","19","","20","","6.4","","99.82","","","","-18","","Snow"
"-81.11","44.74","WIARTON A","6119499","2021-02-08 12:00","2021","02","08","12:00","-10.0","","-12.6","","81","","","","19","","23","","6.4","","99.82","","","","-18","","Snow"
"-81.11","44.74","WIARTON A","6119499","2021-02-08 13:00","2021","02","08","13:00","-9.6","","-12.3","","80","","","","20","","23","","3.2","","99.74","","","","-18","","Snow"
"-81.11","44.74","WIARTON A","6119499","2021-02-08 14:00","2021","02","08","14:00","-9.8","","-12.3","","82","","","","19","","27","","3.2","","99.71","","","","-19","","Snow,Blowing Snow"
"-81.11","44.74","WIARTON A","6119499","2021-02-08 15:00","2021","02","08","15:00","-10.1","","-12.4","","84","","","","20","","22","","3.2","","99.71","","","","-18","","Snow,Blowing Snow"
"-81.11","44.74","WIARTON A","6119499","2021-02-08 16:00","2021","02","08","16:00","-10.0","","-13.6","","75","","","","19","","26","","6.4","","99.69","","","","-19","","Snow,Blowing Snow"
"-81.11","44.74","WIARTON A","6119499","2021-02-08 17:00","2021","02","08","17:00","-10.3","","-13.9","","75","","","","20","","30","","9.7","","99.75","","","","-20","","Snow,Blowing Snow"
"-81.11","44.74","WIARTON A","6119499","2021-02-08 18:00","2021","02","08","18:00","-10.4","","-13.8","","76","","","","18","","22","","9.7","","99.77","","","","-19","","Snow,Blowing Snow"
"-81.11","44.74","WIARTON A","6119499","2021-02-08 19:00","2021","02","08","19:00","-10.4","","-13.5","","78","","","","17","","22","","3.2","","99.74","","","","-19","","Snow,Blowing Snow"
"-81.11","44.74","WIARTON A","6119499","2021-02-08 20:00","2021","02","08","20:00","-10.4","","-13.9","","76","","","","17","","19","","3.2","","99.76","","","","-18","","Snow,Blowing Snow"
"-81.11","44.74","WIARTON A","6119499","2021-02-08 21:00","2021","02","08","21:00","-10.8","","-14.3","","76","","","","17","","21","","9.7","","99.75","","","","-19","","Snow,Blowing Snow"
"-81.11","44.74","WIARTON A","6119499","2021-02-08 22:00","2021","02","08","22:00","-10.9","","-14.6","","75","","","","16","","20","","6.4","","99.72","","","","-19","","Snow,Blowing Snow"
"-81.11","44.74","WIARTON A","6119499","2021-02-08 23:00","2021","02","08","23:00","-11.1","","-14.2","","78","","","","17","","21","","4.8","","99.71","","","","-19","","Snow,Blowing Snow"
"-81.11","44.74","WIARTON A","6119499","2021-02-09 00:00","2021","02","09","00:00","-11.3","","-13.9","","81","","","","17","","23","","4.8","","99.70","","","","-20","","Snow,Blowing Snow"
"-81.11","44.74","WIARTON A","6119499","2021-02-09 01:00","2021","02","09","01:00","-11.0","","-13.4","","83","","","","18","","21","","6.4","","99.69","","","","-19","","Snow,Blowing Snow"
"-81.11","44.74","WIARTON A","6119499","2021-02-09 02:00","2021","02","09","02:00","-10.9","","-13.2","","83","","","","18","","18","","4.8","","99.68","","","","-19","","Snow,Blowing Snow"
"-81.11","44.74","WIARTON A","6119499","2021-02-09 03:00","2021","02","09","03:00","-10.8","","-12.9","","85","","","","17","","21","","4.8","","99.62","","","","-19","","Snow,Blowing Snow"
"-81.11","44.74","WIARTON A","6119499","2021-02-09 04:00","2021","02","09","04:00","-10.8","","-12.6","","86","","","","19","","14","","4.8","","99.58","","","","-17","","Snow,Blowing Snow"
"-81.11","44.74","WIARTON A","6119499","2021-02-09 05:00","2021","02","09","05:00","-10.8","","-12.3","","89","","","","18","","9","","1.6","","99.59","","","","-16","","Snow"
"-81.11","44.74","WIARTON A","6119499","2021-02-09 06:00","2021","02","09","06:00","-10.7","","-12.2","","89","","","","16","","13","","1.2","","99.58","","","","-17","","Snow"
"-81.11","44.74","WIARTON A","6119499","2021-02-09 07:00","2021","02","09","07:00","-10.6","","-12.0","","89","","","","17","","12","","1.2","","99.57","","","","-17","","Snow"
"-81.11","44.74","WIARTON A","6119499","2021-02-09 08:00","2021","02","09","08:00","-10.4","","-12.0","","89","","","","17","","10","","3.2","","99.61","","","","-16","","Snow"
"-81.11","44.74","WIARTON A","6119499","2021-02-09 09:00","2021","02","09","09:00","-10.2","","-11.8","","88","","","","17","","10","","1.2","","99.64","","","","-15","","Snow"
"-81.11","44.74","WIARTON A","6119499","2021-02-09 10:00","2021","02","09","10:00","-9.5","","-11.1","","88","","","","19","","6","","1.2","","99.67","","","","-13","","Snow"
"-81.11","44.74","WIARTON A","6119499","2021-02-09 11:00","2021","02","09","11:00","-7.3","","-10.4","","78","","","","27","","10","","2.8","","99.67","","","","-12","","Snow"
"-81.11","44.74","WIARTON A","6119499","2021-02-09 12:00","2021","02","09","12:00","-6.7","","-11.0","","72","","","","29","","14","","6.4","","99.62","","","","-12","","Snow"
"-81.11","44.74","WIARTON A","6119499","2021-02-09 13:00","2021","02","09","13:00","-7.0","","-11.2","","72","","","","27","","15","","16.1","","99.59","","","","-13","","Snow"
"-81.11","44.74","WIARTON A","6119499","2021-02-09 14:00","2021","02","09","14:00","-6.9","","-11.9","","68","","","","27","","18","","24.1","","99.54","","","","-14","","NA"
"-81.11","44.74","WIARTON A","6119499","2021-02-09 15:00","2021","02","09","15:00","-6.8","","-12.2","","66","","","","29","","16","","24.1","","99.58","","","","-13","","NA"
"-81.11","44.74","WIARTON A","6119499","2021-02-09 16:00","2021","02","09","16:00","-7.1","","-12.8","","64","","","","27","","12","","24.1","","99.62","","","","-12","","Mostly Cloudy"
"-81.11","44.74","WIARTON A","6119499","2021-02-09 17:00","2021","02","09","17:00","-7.6","","-13.2","","64","","","","24","","8","","24.1","","99.62","","","","-12","","NA"
"-81.11","44.74","WIARTON A","6119499","2021-02-09 18:00","2021","02","09","18:00","-7.9","","-12.9","","67","","","","27","","10","","24.1","","99.65","","","","-13","","NA"
"-81.11","44.74","WIARTON A","6119499","2021-02-09 19:00","2021","02","09","19:00","-8.1","","-10.9","","80","","","","29","","8","","8.1","","99.68","","","","-12","","Snow"
"-81.11","44.74","WIARTON A","6119499","2021-02-09 20:00","2021","02","09","20:00","-8.6","","-11.2","","82","","","","22","","5","","24.1","","99.71","","","","-11","","NA"
"-81.11","44.74","WIARTON A","6119499","2021-02-09 21:00","2021","02","09","21:00","-9.2","","-11.7","","82","","","","15","","7","","24.1","","99.72","","","","-13","","NA"
"-81.11","44.74","WIARTON A","6119499","2021-02-09 22:00","2021","02","09","22:00","-9.1","","-11.7","","82","","","","15","","12","","8.1","","99.73","","","","-15","","Snow"
"-81.11","44.74","WIARTON A","6119499","2021-02-09 23:00","2021","02","09","23:00","-9.1","","-11.6","","83","","","","16","","5","","9.7","","99.73","","","","-12","","Snow"
"-81.11","44.74","WIARTON A","6119499","2021-02-10 00:00","2021","02","10","00:00","-7.4","","-11.5","","73","","","","27","","16","","16.1","","99.73","","","","-14","","Snow"
"-81.11","44.74","WIARTON A","6119499","2021-02-10 01:00","2021","02","10","01:00","-7.3","","-12.5","","66","","","","28","","12","","16.1","","99.75","","","","-13","","Snow"
"-81.11","44.74","WIARTON A","6119499","2021-02-10 02:00","2021","02","10","02:00","-8.0","","-12.4","","70","","","","28","","12","","19.3","","99.76","","","","-13","","Snow"
"-81.11","44.74","WIARTON A","6119499","2021-02-10 03:00","2021","02","10","03:00","-8.2","","-13.2","","67","","","","27","","9","","16.1","","99.76","","","","-13","","NA"
"-81.11","44.74","WIARTON A","6119499","2021-02-10 04:00","2021","02","10","04:00","-8.4","","-12.5","","73","","","","26","","7","","16.1","","99.80","","","","-12","","Snow"
"-81.11","44.74","WIARTON A","6119499","2021-02-10 05:00","2021","02","10","05:00","-8.5","","-14.4","","63","","","","26","","9","","24.1","","99.81","","","","-13","","Snow"
"-81.11","44.74","WIARTON A","6119499","2021-02-10 06:00","2021","02","10","06:00","-8.2","","-13.4","","67","","","","24","","11","","24.1","","99.86","","","","-13","","NA"
"-81.11","44.74","WIARTON A","6119499","2021-02-10 07:00","2021","02","10","07:00","-8.2","","-13.7","","65","","","","26","","13","","24.1","","99.85","","","","-14","","Mostly Cloudy"
"-81.11","44.74","WIARTON A","6119499","2021-02-10 08:00","2021","02","10","08:00","-8.3","","-11.7","","77","","","","28","","12","","4.8","","99.88","","","","-14","","NA"
"-81.11","44.74","WIARTON A","6119499","2021-02-10 09:00","2021","02","10","09:00","-8.2","","-12.2","","73","","","","27","","13","","6.4","","99.92","","","","-14","","NA"
"-81.11","44.74","WIARTON A","6119499","2021-02-10 10:00","2021","02","10","10:00","-7.7","","-12.9","","67","","","","26","","12","","6.4","","99.89","","","","-13","","Snow Showers"
"-81.11","44.74","WIARTON A","6119499","2021-02-10 11:00","2021","02","10","11:00","-7.5","","-12.5","","68","","","","28","","15","","12.9","","99.88","","","","-14","","Snow Showers"
"-81.11","44.74","WIARTON A","6119499","2021-02-10 12:00","2021","02","10","12:00","-7.2","","-12.9","","64","","","","27","","17","","16.1","","99.88","","","","-14","","NA"
"-81.11","44.74","WIARTON A","6119499","2021-02-10 13:00","2021","02","10","13:00","-7.1","","-11.5","","71","","","","27","","12","","4.8","","99.82","","","","-12","","Snow Showers"
"-81.11","44.74","WIARTON A","6119499","2021-02-10 14:00","2021","02","10","14:00","-7.5","","-10.9","","77","","","","26","","13","","3.2","","99.80","","","","-13","","Snow Showers"
"-81.11","44.74","WIARTON A","6119499","2021-02-10 15:00","2021","02","10","15:00","-7.4","","-11.9","","70","","","","26","","10","","4.8","","99.82","","","","-12","","Snow Showers"
"-81.11","44.74","WIARTON A","6119499","2021-02-10 16:00","2021","02","10","16:00","-7.6","","-10.6","","79","","","","28","","10","","4.8","","99.81","","","","-12","","Snow Showers"
"-81.11","44.74","WIARTON A","6119499","2021-02-10 17:00","2021","02","10","17:00","-7.7","","-11.2","","76","","","","27","","10","","4.8","","99.81","","","","-13","","Snow Showers"
"-81.11","44.74","WIARTON A","6119499","2021-02-10 18:00","2021","02","10","18:00","-8.5","","-10.4","","86","","","","23","","4","","4.8","","99.79","","","","-11","","Snow Grains"
"-81.11","44.74","WIARTON A","6119499","2021-02-10 19:00","2021","02","10","19:00","-8.7","","-9.9","","92","","","","19","","5","","1.2","","99.81","","","","-11","","Snow"
"-81.11","44.74","WIARTON A","6119499","2021-02-10 20:00","2021","02","10","20:00","-9.0","","-10.3","","90","","","","16","","12","","6.4","","99.75","","","","-15","","Snow"
"-81.11","44.74","WIARTON A","6119499","2021-02-10 21:00","2021","02","10","21:00","-9.4","","-11.2","","87","","","","20","","17","","2.4","","99.75","","","","-16","","Snow"
"-81.11","44.74","WIARTON A","6119499","2021-02-10 22:00","2021","02","10","22:00","-9.7","","-11.0","","90","","","","19","","10","","1.2","","99.76","","","","-15","","Snow"
"-81.11","44.74","WIARTON A","6119499","2021-02-10 23:00","2021","02","10","23:00","-9.4","","-10.7","","91","","","","18","","7","","1.6","","99.78","","","","-13","","Snow"
"-81.11","44.74","WIARTON A","6119499","2021-02-11 00:00","2021","02","11","00:00","-9.5","","-10.8","","90","","","","13","","5","","6.4","","99.75","","","","-12","","Snow"
"-81.11","44.74","WIARTON A","6119499","2021-02-11 01:00","2021","02","11","01:00","-8.9","","-10.0","","92","","","","36","","2","","6.4","","99.78","","","","-10","","Snow"
"-81.11","44.74","WIARTON A","6119499","2021-02-11 02:00","2021","02","11","02:00","-8.2","","-9.3","","91","","","","31","","9","","4.8","","99.82","","","","-13","","Snow"
"-81.11","44.74","WIARTON A","6119499","2021-02-11 03:00","2021","02","11","03:00","-8.9","","-10.4","","89","","","","33","","7","","6.4","","99.85","","","","-13","","Snow"
"-81.11","44.74","WIARTON A","6119499","2021-02-11 04:00","2021","02","11","04:00","-9.5","","-11.9","","83","","","","34","","4","","24.1","","99.89","","","","-12","","Snow"
"-81.11","44.74","WIARTON A","6119499","2021-02-11 05:00","2021","02","11","05:00","-9.7","","-12.1","","82","","","","35","","4","","12.9","","99.91","","","","-12","","NA"
"-81.11","44.74","WIARTON A","6119499","2021-02-11 06:00","2021","02","11","06:00","-10.0","","-12.0","","85","","","","36","","3","","6.4","","99.95","","","","-12","","NA"
"-81.11","44.74","WIARTON A","6119499","2021-02-11 07:00","2021","02","11","07:00","-10.9","","-12.0","","91","","","","35","","5","","24.1","","99.99","","","","-14","","Mostly Cloudy"
"-81.11","44.74","WIARTON A","6119499","2021-02-11 08:00","2021","02","11","08:00","-10.9","","-12.7","","87","","","","33","","5","","24.1","","100.08","","","","-14","","NA"
"-81.11","44.74","WIARTON A","6119499","2021-02-11 09:00","2021","02","11","09:00","-11.0","","-12.8","","86","","","","3","","5","","24.1","","100.16","","","","-14","","NA"
"-81.11","44.74","WIARTON A","6119499","2021-02-11 10:00","2021","02","11","10:00","-9.0","","-13.2","","72","","","","1","","7","","24.1","","100.18","","","","-13","","Mainly Clear"
"-81.11","44.74","WIARTON A","6119499","2021-02-11 11:00","2021","02","11","11:00","-7.8","","-13.0","","66","","","","3","","10","","24.1","","100.23","","","","-13","","Snow Showers"
"-81.11","44.74","WIARTON A","6119499","2021-02-11 12:00","2021","02","11","12:00","-8.6","","-13.6","","67","","","","4","","10","","24.1","","100.26","","","","-14","","NA"
"-81.11","44.74","WIARTON A","6119499","2021-02-11 13:00","2021","02","11","13:00","-9.1","","-14.0","","68","","","","3","","12","","24.1","","100.28","","","","-15","","Snow Showers"
"-81.11","44.74","WIARTON A","6119499","2021-02-11 14:00","2021","02","11","14:00","-9.7","","-15.5","","63","","","","1","","10","","12.9","","100.30","","","","-15","","NA"
"-81.11","44.74","WIARTON A","6119499","2021-02-11 15:00","2021","02","11","15:00","-9.5","","-15.7","","61","","","","2","","13","","24.1","","100.24","","","","-16","","NA"
"-81.11","44.74","WIARTON A","6119499","2021-02-11 16:00","2021","02","11","16:00","-10.4","","-15.3","","68","","","","3","","12","","9.7","","100.31","","","","-16","","Snow Showers"
"-81.11","44.74","WIARTON A","6119499","2021-02-11 17:00","2021","02","11","17:00","-10.8","","-15.9","","67","","","","2","","12","","24.1","","100.30","","","","-17","","NA"
"-81.11","44.74","WIARTON A","6119499","2021-02-11 18:00","2021","02","11","18:00","-11.4","","-15.0","","75","","","","2","","8","","16.1","","100.42","","","","-16","","NA"
"-81.11","44.74","WIARTON A","6119499","2021-02-11 19:00","2021","02","11","19:00","-11.7","","-14.6","","80","","","","3","","10","","16.1","","100.42","","","","-17","","Snow Showers"
"-81.11","44.74","WIARTON A","6119499","2021-02-11 20:00","2021","02","11","20:00","-11.2","","-14.7","","75","","","","2","","15","","16.1","","100.40","","","","-18","","Snow Showers"
"-81.11","44.74","WIARTON A","6119499","2021-02-11 21:00","2021","02","11","21:00","-11.4","","-16.5","","66","","","","3","","13","","24.1","","100.35","","","","-18","","NA"
"-81.11","44.74","WIARTON A","6119499","2021-02-11 22:00","2021","02","11","22:00","-11.2","","-16.1","","68","","","","2","","12","","24.1","","100.39","","","","-17","","Mostly Cloudy"
"-81.11","44.74","WIARTON A","6119499","2021-02-11 23:00","2021","02","11","23:00","-11.7","","-16.2","","70","","","","6","","17","","24.1","","100.40","","","","-19","","NA"
"-81.11","44.74","WIARTON A","6119499","2021-02-12 00:00","2021","02","12","00:00","-12.6","","-17.8","","66","","","","5","","17","","24.1","","100.40","","","","-20","","NA"
"-81.11","44.74","WIARTON A","6119499","2021-02-12 01:00","2021","02","12","01:00","-12.9","","-18.2","","65","","","","6","","21","","24.1","","100.37","","","","-22","","Mostly Cloudy"
"-81.11","44.74","WIARTON A","6119499","2021-02-12 02:00","2021","02","12","02:00","-13.2","","-18.6","","65","","","","7","","20","","24.1","","100.39","","","","-22","","NA"
"-81.11","44.74","WIARTON A","6119499","2021-02-12 03:00","2021","02","12","03:00","-13.4","","-18.2","","68","","","","5","","21","","24.1","","100.36","","","","-22","","NA"
"-81.11","44.74","WIARTON A","6119499","2021-02-12 04:00","2021","02","12","04:00","-13.6","","-17.7","","71","","","","6","","25","","24.1","","100.29","","","","-23","","Mostly Cloudy"
"-81.11","44.74","WIARTON A","6119499","2021-02-12 05:00","2021","02","12","05:00","-13.8","","-17.9","","72","","","","6","","19","","24.1","","100.28","","","","-22","","NA"
"-81.11","44.74","WIARTON A","6119499","2021-02-12 06:00","2021","02","12","06:00","-13.8","","-17.8","","72","","","","6","","18","","24.1","","100.30","","","","-22","","NA"
"-81.11","44.74","WIARTON A","6119499","2021-02-12 07:00","2021","02","12","07:00","-13.7","","-17.6","","73","","","","6","","13","","24.1","","100.31","","","","-21","","Mostly Cloudy"
"-81.11","44.74","WIARTON A","6119499","2021-02-12 08:00","2021","02","12","08:00","-13.6","","-17.2","","74","","","","7","","17","","24.1","","100.29","","","","-22","","NA"
"-81.11","44.74","WIARTON A","6119499","2021-02-12 09:00","2021","02","12","09:00","-13.4","","-17.2","","73","","","","7","","17","","24.1","","100.28","","","","-21","","NA"
"-81.11","44.74","WIARTON A","6119499","2021-02-12 10:00","2021","02","12","10:00","-12.8","","-16.9","","72","","","","8","","18","","24.1","","100.23","","","","-21","","Cloudy"
"-81.11","44.74","WIARTON A","6119499","2021-02-12 11:00","2021","02","12","11:00","-12.3","","-16.9","","69","","","","8","","19","","24.1","","100.23","","","","-21","","NA"
"-81.11","44.74","WIARTON A","6119499","2021-02-12 12:00","2021","02","12","12:00","-12.2","","-16.4","","71","","","","7","","18","","24.1","","100.25","","","","-20","","NA"
"-81.11","44.74","WIARTON A","6119499","2021-02-12 13:00","2021","02","12","13:00","-11.8","","-15.4","","74","","","","6","","18","","9.7","","100.18","","","","-20","","Snow"
"-81.11","44.74","WIARTON A","6119499","2021-02-12 14:00","2021","02","12","14:00","-11.7","","-15.6","","73","","","","7","","18","","11.3","","100.13","","","","-20","","Snow"
"-81.11","44.74","WIARTON A","6119499","2021-02-12 15:00","2021","02","12","15:00","-11.6","","-14.9","","77","","","","6","","14","","8.1","","100.14","","","","-18","","Snow"
"-81.11","44.74","WIARTON A","6119499","2021-02-12 16:00","2021","02","12","16:00","-11.6","","-14.8","","77","","","","6","","14","","6.4","","100.15","","","","-18","","Snow"
"-81.11","44.74","WIARTON A","6119499","2021-02-12 17:00","2021","02","12","17:00","-12.0","","-14.9","","79","","","","7","","10","","8.1","","100.14","","","","-18","","Snow"
"-81.11","44.74","WIARTON A","6119499","2021-02-12 18:00","2021","02","12","18:00","-11.9","","-14.9","","79","","","","9","","7","","12.9","","100.20","","","","-16","","Snow"
"-81.11","44.74","WIARTON A","6119499","2021-02-12 19:00","2021","02","12","19:00","-12.1","","-14.8","","80","","","","8","","6","","16.1","","100.23","","","","-16","","Snow"
"-81.11","44.74","WIARTON A","6119499","2021-02-12 20:00","2021","02","12","20:00","-12.6","","-15.5","","79","","","","6","","4","","16.1","","100.24","","","","-15","","Snow"
"-81.11","44.74","WIARTON A","6119499","2021-02-12 21:00","2021","02","12","21:00","-14.6","","-16.5","","86","","","","5","","5","","19.3","","100.27","","","","-18","","Snow"
"-81.11","44.74","WIARTON A","6119499","2021-02-12 22:00","2021","02","12","22:00","-17.9","","-19.4","","89","","","","12","","7","","19.3","","100.29","","","","-23","","Snow"
"-81.11","44.74","WIARTON A","6119499","2021-02-12 23:00","2021","02","12","23:00","-16.9","","-18.8","","85","","","","6","","7","","24.1","","100.27","","","","-22","","NA"
"-81.11","44.74","WIARTON A","6119499","2021-02-13 00:00","2021","02","13","00:00","-14.5","","-16.9","","83","","","","9","","11","","24.1","","100.32","","","","-21","","NA"
"-81.11","44.74","WIARTON A","6119499","2021-02-13 01:00","2021","02","13","01:00","-13.7","","-16.8","","77","","","","7","","10","","24.1","","100.31","","","","-20","","Mainly Clear"
"-81.11","44.74","WIARTON A","6119499","2021-02-13 02:00","2021","02","13","02:00","-14.0","","-16.9","","79","","","","8","","9","","24.1","","100.29","","","","-20","","NA"
"-81.11","44.74","WIARTON A","6119499","2021-02-13 03:00","2021","02","13","03:00","-13.2","","-16.6","","76","","","","6","","13","","24.1","","100.25","","","","-20","","NA"
"-81.11","44.74","WIARTON A","6119499","2021-02-13 04:00","2021","02","13","04:00","-12.4","","-16.1","","74","","","","6","","14","","24.1","","100.24","","","","-19","","Mostly Cloudy"
"-81.11","44.74","WIARTON A","6119499","2021-02-13 05:00","2021","02","13","05:00","-12.6","","-16.1","","76","","","","9","","10","","24.1","","100.24","","","","-18","","NA"
"-81.11","44.74","WIARTON A","6119499","2021-02-13 06:00","2021","02","13","06:00","-13.0","","-16.5","","75","","","","6","","13","","24.1","","100.26","","","","-20","","NA"
"-81.11","44.74","WIARTON A","6119499","2021-02-13 07:00","2021","02","13","07:00","-12.5","","-16.3","","73","","","","6","","10","","24.1","","100.22","","","","-18","","Cloudy"
"-81.11","44.74","WIARTON A","6119499","2021-02-13 08:00","2021","02","13","08:00","-11.7","","-15.9","","71","","","","9","","11","","24.1","","100.22","","","","-18","","NA"
"-81.11","44.74","WIARTON A","6119499","2021-02-13 09:00","2021","02","13","09:00","-12.7","","-16.2","","75","","","","11","","13","","24.1","","100.22","","","","-20","","NA"
"-81.11","44.74","WIARTON A","6119499","2021-02-13 10:00","2021","02","13","10:00","-11.3","","-15.4","","72","","","","11","","13","","24.1","","100.23","","","","-18","","Cloudy"
"-81.11","44.74","WIARTON A","6119499","2021-02-13 11:00","2021","02","13","11:00","-10.0","","-14.9","","68","","","","10","","17","","24.1","","100.18","","","","-17","","NA"
"-81.11","44.74","WIARTON A","6119499","2021-02-13 12:00","2021","02","13","12:00","-10.2","","-15.8","","64","","","","11","","21","","24.1","","100.12","","","","-18","","NA"
"-81.11","44.74","WIARTON A","6119499","2021-02-13 13:00","2021","02","13","13:00","-9.9","","-15.3","","65","","","","7","","26","","24.1","","100.01","","","","-19","","Mostly Cloudy"
"-81.11","44.74","WIARTON A","6119499","2021-02-13 14:00","2021","02","13","14:00","-10.2","","-15.2","","67","","","","7","","25","","24.1","","99.89","","","","-19","","NA"
"-81.11","44.74","WIARTON A","6119499","2021-02-13 15:00","2021","02","13","15:00","-10.3","","-16.0","","63","","","","8","","26","","24.1","","99.73","","","","-19","","NA"
"-81.11","44.74","WIARTON A","6119499","2021-02-13 16:00","2021","02","13","16:00","-10.2","","-15.0","","68","","","","7","","19","","24.1","","99.71","","","","-18","","Cloudy"
"-81.11","44.74","WIARTON A","6119499","2021-02-13 17:00","2021","02","13","17:00","-10.1","","-15.1","","67","","","","7","","13","","19.3","","99.76","","","","-16","","Snow"
"-81.11","44.74","WIARTON A","6119499","2021-02-13 18:00","2021","02","13","18:00","-10.3","","-13.5","","78","","","","8","","12","","6.4","","99.68","","","","-16","","Snow"
"-81.11","44.74","WIARTON A","6119499","2021-02-13 19:00","2021","02","13","19:00","-10.5","","-12.1","","88","","","","6","","9","","3.2","","99.67","","","","-15","","Snow"
"-81.11","44.74","WIARTON A","6119499","2021-02-13 20:00","2021","02","13","20:00","-10.1","","-11.9","","86","","","","8","","13","","3.2","","99.63","","","","-16","","Snow"
"-81.11","44.74","WIARTON A","6119499","2021-02-13 21:00","2021","02","13","21:00","-9.9","","-11.8","","86","","","","9","","10","","1.2","","99.54","","","","-15","","Snow"
"-81.11","44.74","WIARTON A","6119499","2021-02-13 22:00","2021","02","13","22:00","-10.2","","-12.1","","86","","","","12","","9","","1.6","","99.55","","","","-15","","Snow"
"-81.11","44.74","WIARTON A","6119499","2021-02-13 23:00","2021","02","13","23:00","-10.9","","-12.4","","89","","","","12","","8","","6.4","","99.46","","","","-16","","Snow"
"-81.11","44.74","WIARTON A","6119499","2021-02-14 00:00","2021","02","14","00:00","-11.6","","-12.6","","92","","","","26","","7","","16.1","","99.50","","","","-16","","Snow"
"-81.11","44.74","WIARTON A","6119499","2021-02-14 01:00","2021","02","14","01:00","-13.7","","-14.9","","91","","","","23","","5","","12.9","","99.50","","","","-17","","Snow"
"-81.11","44.74","WIARTON A","6119499","2021-02-14 02:00","2021","02","14","02:00","-12.0","","-13.1","","92","","","","25","","5","","19.3","","99.55","","","","-15","","Snow"
"-81.11","44.74","WIARTON A","6119499","2021-02-14 03:00","2021","02","14","03:00","-11.4","","-12.8","","89","","","","24","","5","","16.1","","99.56","","","","-15","","Snow"
"-81.11","44.74","WIARTON A","6119499","2021-02-14 04:00","2021","02","14","04:00","-12.5","","-13.9","","89","","","","17","","9","","16.1","","99.57","","","","-18","","Snow"
"-81.11","44.74","WIARTON A","6119499","2021-02-14 05:00","2021","02","14","05:00","-13.3","","-14.5","","91","","","","21","","8","","19.3","","99.62","","","","-18","","Snow"
"-81.11","44.74","WIARTON A","6119499","2021-02-14 06:00","2021","02","14","06:00","-17.9","","-19.6","","86","","","","18","","10","","24.1","","99.66","","","","-25","","NA"
"-81.11","44.74","WIARTON A","6119499","2021-02-14 07:00","2021","02","14","07:00","-20.4","","-22.4","","85","","","","16","","7","","24.1","","99.71","","","","-26","","Mainly Clear"
"-81.11","44.74","WIARTON A","6119499","2021-02-14 08:00","2021","02","14","08:00","-18.4","","-20.2","","86","","","","13","","11","","24.1","","99.77","","","","-26","","NA"
"-81.11","44.74","WIARTON A","6119499","2021-02-14 09:00","2021","02","14","09:00","-13.8","","-15.3","","88","","","","19","","8","","24.1","","99.84","","","","-19","","NA"
"-81.11","44.74","WIARTON A","6119499","2021-02-14 10:00","2021","02","14","10:00","-11.0","","-12.4","","90","","","","14","","11","","24.1","","99.80","","","","-17","","Mainly Clear"
"-81.11","44.74","WIARTON A","6119499","2021-02-14 11:00","2021","02","14","11:00","-8.3","","-12.6","","71","","","","18","","11","","24.1","","99.84","","","","-14","","NA"
"-81.11","44.74","WIARTON A","6119499","2021-02-14 12:00","2021","02","14","12:00","-6.5","","-12.4","","63","","","","16","","13","","24.1","","99.87","","","","-12","","NA"
"-81.11","44.74","WIARTON A","6119499","2021-02-14 13:00","2021","02","14","13:00","-7.0","","-10.3","","77","","","","17","","18","","4.8","","99.83","","","","-14","","Snow"
"-81.11","44.74","WIARTON A","6119499","2021-02-14 14:00","2021","02","14","14:00","-6.3","","-8.1","","87","","","","19","","17","","3.2","","99.77","","","","-13","","Snow"
"-81.11","44.74","WIARTON A","6119499","2021-02-14 15:00","2021","02","14","15:00","-5.2","","-9.2","","74","","","","28","","14","","16.1","","99.74","","","","-11","","Snow"
"-81.11","44.74","WIARTON A","6119499","2021-02-14 16:00","2021","02","14","16:00","-5.5","","-9.9","","71","","","","28","","13","","16.1","","99.72","","","","-11","","Snow"
"-81.11","44.74","WIARTON A","6119499","2021-02-14 17:00","2021","02","14","17:00","-5.8","","-9.9","","73","","","","27","","8","","19.3","","99.84","","","","-10","","Snow"
"-81.11","44.74","WIARTON A","6119499","2021-02-14 18:00","2021","02","14","18:00","-6.3","","-9.0","","81","","","","27","","10","","4.8","","99.88","","","","-11","","Snow"
"-81.11","44.74","WIARTON A","6119499","2021-02-14 19:00","2021","02","14","19:00","-6.6","","-8.6","","85","","","","26","","8","","4.8","","99.94","","","","-10","","Snow"
"-81.11","44.74","WIARTON A","6119499","2021-02-14 20:00","2021","02","14","20:00","-7.0","","-9.7","","81","","","","29","","9","","4.8","","99.94","","","","-11","","Snow"
"-81.11","44.74","WIARTON A","6119499","2021-02-14 21:00","2021","02","14","21:00","-7.0","","-11.9","","68","","","","32","","6","","12.9","","99.92","","","","-10","","Snow"
"-81.11","44.74","WIARTON A","6119499","2021-02-14 22:00","2021","02","14","22:00","-7.5","","-12.8","","66","","","","36","","3","","12.9","","99.90","","","","-9","","Snow"
"-81.11","44.74","WIARTON A","6119499","2021-02-14 23:00","2021","02","14","23:00","-8.2","","-11.4","","78","","","","36","","3","","4.8","","99.89","","","","-10","","Snow"
"-81.11","44.74","WIARTON A","6119499","2021-02-15 00:00","2021","02","15","00:00","-8.6","","-11.0","","83","","","","32","","5","","4.8","","99.90","","","","-11","","Snow"
"-81.11","44.74","WIARTON A","6119499","2021-02-15 01:00","2021","02","15","01:00","-9.3","","-12.1","","80","","","","33","","4","","3.2","","99.88","","","","-12","","Snow"
"-81.11","44.74","WIARTON A","6119499","2021-02-15 02:00","2021","02","15","02:00","-9.5","","-11.9","","83","","","","33","","4","","4.8","","99.87","","","","-12","","Snow"
"-81.11","44.74","WIARTON A","6119499","2021-02-15 03:00","2021","02","15","03:00","-9.9","","-13.0","","78","","","","33","","5","","6.4","","99.87","","","","-13","","Snow"
"-81.11","44.74","WIARTON A","6119499","2021-02-15 04:00","2021","02","15","04:00","-10.3","","-12.8","","82","","","","36","","1","","16.1","","99.83","","","","-11","","Snow"
"-81.11","44.74","WIARTON A","6119499","2021-02-15 05:00","2021","02","15","05:00","-10.8","","-13.6","","81","","","","33","","7","","24.1","","99.87","","","","-15","","NA"
"-81.11","44.74","WIARTON A","6119499","2021-02-15 06:00","2021","02","15","06:00","-11.1","","-13.4","","83","","","","33","","7","","24.1","","99.93","","","","-15","","NA"
"-81.11","44.74","WIARTON A","6119499","2021-02-15 07:00","2021","02","15","07:00","-11.1","","-13.7","","81","","","","34","","5","","24.1","","99.89","","","","-14","","Cloudy"
"-81.11","44.74","WIARTON A","6119499","2021-02-15 08:00","2021","02","15","08:00","-11.0","","-13.5","","82","","","","34","","3","","24.1","","99.88","","","","-13","","NA"
"-81.11","44.74","WIARTON A","6119499","2021-02-15 09:00","2021","02","15","09:00","-10.5","","-13.2","","81","","","","32","","8","","24.1","","99.94","","","","-15","","NA"
"-81.11","44.74","WIARTON A","6119499","2021-02-15 10:00","2021","02","15","10:00","-10.0","","-13.7","","75","","","","32","","11","","24.1","","99.92","","","","-16","","Cloudy"
"-81.11","44.74","WIARTON A","6119499","2021-02-15 11:00","2021","02","15","11:00","-8.9","","-13.8","","68","","","","33","","11","","24.1","","99.90","","","","-14","","NA"
"-81.11","44.74","WIARTON A","6119499","2021-02-15 12:00","2021","02","15","12:00","-8.1","","-14.6","","60","","","","33","","12","","24.1","","99.85","","","","-14","","NA"
"-81.11","44.74","WIARTON A","6119499","2021-02-15 13:00","2021","02","15","13:00","-8.9","","-14.9","","62","","","","34","","8","","24.1","","99.88","","","","-13","","Mostly Cloudy"
"-81.11","44.74","WIARTON A","6119499","2021-02-15 14:00","2021","02","15","14:00","-9.1","","-14.8","","64","","","","2","","12","","24.1","","99.85","","","","-15","","NA"
"-81.11","44.74","WIARTON A","6119499","2021-02-15 15:00","2021","02","15","15:00","-9.3","","-16.0","","59","","","","34","","11","","24.1","","99.82","","","","-15","","NA"
"-81.11","44.74","WIARTON A","6119499","2021-02-15 16:00","2021","02","15","16:00","-9.5","","-16.2","","58","","","","2","","12","","24.1","","99.78","","","","-15","","Mostly Cloudy"
"-81.11","44.74","WIARTON A","6119499","2021-02-15 17:00","2021","02","15","17:00","-10.2","","-17.1","","57","","","","2","","10","","24.1","","99.69","","","","-15","","NA"
"-81.11","44.74","WIARTON A","6119499","2021-02-15 18:00","2021","02","15","18:00","-10.2","","-16.3","","61","","","","34","","8","","24.1","","99.65","","","","-15","","NA"
"-81.11","44.74","WIARTON A","6119499","2021-02-15 19:00","2021","02","15","19:00","-10.8","","-17.8","","57","","","","36","","8","","24.1","","99.62","","","","-15","","Cloudy"
"-81.11","44.74","WIARTON A","6119499","2021-02-15 20:00","2021","02","15","20:00","-10.8","","-16.9","","61","","","","1","","4","","24.1","","99.48","","","","-13","","NA"
"-81.11","44.74","WIARTON A","6119499","2021-02-15 21:00","2021","02","15","21:00","-10.0","","-17.0","","57","","","","2","","12","","24.1","","99.39","","","","-16","","NA"
"-81.11","44.74","WIARTON A","6119499","2021-02-15 22:00","2021","02","15","22:00","-9.5","","-15.9","","60","","","","5","","25","","24.1","","99.22","","","","-18","","Cloudy"
"-81.11","44.74","WIARTON A","6119499","2021-02-15 23:00","2021","02","15","23:00","-10.1","","-16.6","","59","","","","5","","35","","24.1","","98.94","","","","-20","","Snow,Blowing Snow"
"-81.11","44.74","WIARTON A","6119499","2021-02-16 00:00","2021","02","16","00:00","-10.5","","-14.2","","75","","","","5","","28","","4.8","","98.90","","","","-20","","Snow,Blowing Snow"
"-81.11","44.74","WIARTON A","6119499","2021-02-16 01:00","2021","02","16","01:00","-10.4","","-12.5","","85","","","","6","","33","","1.6","","98.87","","","","-20","","Snow,Blowing Snow"
"-81.11","44.74","WIARTON A","6119499","2021-02-16 02:00","2021","02","16","02:00","-10.7","","-12.5","","87","","","","5","","46","","0.8","","98.42","","","","-22","","Moderate Snow,Blowing Snow"
"-81.11","44.74","WIARTON A","6119499","2021-02-16 03:00","2021","02","16","03:00","-10.5","","-12.2","","88","","","","5","","30","","0.8","","98.55","","","","-20","","Moderate Snow,Blowing Snow"
"-81.11","44.74","WIARTON A","6119499","2021-02-16 04:00","2021","02","16","04:00","-10.5","","-12.1","","88","","","","4","","34","","0.4","","98.44","","","","-21","","Heavy Snow,Blowing Snow"
"-81.11","44.74","WIARTON A","6119499","2021-02-16 05:00","2021","02","16","05:00","-10.6","","-12.2","","88","","","","4","","34","","0.4","","98.37","","","","-21","","Heavy Snow,Blowing Snow"
"-81.11","44.74","WIARTON A","6119499","2021-02-16 06:00","2021","02","16","06:00","-10.7","","-12.7","","86","","","","3","","27","","0.8","","98.40","","","","-20","","Moderate Snow,Blowing Snow"
"-81.11","44.74","WIARTON A","6119499","2021-02-16 07:00","2021","02","16","07:00","-11.2","","-13.1","","86","","","","4","","28","","0.8","","98.37","","","","-21","","Moderate Snow,Blowing Snow"
"-81.11","44.74","WIARTON A","6119499","2021-02-16 08:00","2021","02","16","08:00","-11.4","","-13.4","","85","","","","3","","22","","0.8","","98.36","","","","-20","","Moderate Snow,Blowing Snow"
"-81.11","44.74","WIARTON A","6119499","2021-02-16 09:00","2021","02","16","09:00","-11.5","","-14.0","","82","","","","3","","25","","1.0","","98.38","","","","-21","","Snow,Blowing Snow"
"-81.11","44.74","WIARTON A","6119499","2021-02-16 10:00","2021","02","16","10:00","-11.4","","-14.1","","81","","","","3","","22","","1.2","","98.33","","","","-20","","Snow,Blowing Snow"
"-81.11","44.74","WIARTON A","6119499","2021-02-16 11:00","2021","02","16","11:00","-10.8","","-14.2","","76","","","","3","","21","","2.4","","98.32","","","","-19","","Snow,Blowing Snow"
"-81.11","44.74","WIARTON A","6119499","2021-02-16 12:00","2021","02","16","12:00","-10.7","","-14.2","","76","","","","1","","20","","1.6","","98.32","","","","-19","","Snow,Blowing Snow"
"-81.11","44.74","WIARTON A","6119499","2021-02-16 13:00","2021","02","16","13:00","-10.5","","-14.8","","71","","","","36","","16","","3.2","","98.35","","","","-18","","Snow,Blowing Snow"
"-81.11","44.74","WIARTON A","6119499","2021-02-16 14:00","2021","02","16","14:00","-10.4","","-12.8","","82","","","","35","","8","","1.0","","98.40","","","","-15","","Snow,Blowing Snow"
"-81.11","44.74","WIARTON A","6119499","2021-02-16 15:00","2021","02","16","15:00","-10.3","","-13.6","","77","","","","35","","10","","1.6","","98.53","","","","-16","","Snow,Blowing Snow"
"-81.11","44.74","WIARTON A","6119499","2021-02-16 16:00","2021","02","16","16:00","-10.9","","-13.1","","84","","","","31","","13","","0.8","","98.66","","","","-17","","Moderate Snow,Blowing Snow"
"-81.11","44.74","WIARTON A","6119499","2021-02-16 17:00","2021","02","16","17:00","-11.3","","-13.5","","84","","","","31","","15","","1.0","","98.80","","","","-18","","Snow"
"-81.11","44.74","WIARTON A","6119499","2021-02-16 18:00","2021","02","16","18:00","-11.2","","-15.1","","73","","","","30","","12","","24.1","","98.91","","","","-17","","NA"
"-81.11","44.74","WIARTON A","6119499","2021-02-16 19:00","2021","02","16","19:00","-11.7","","-17.8","","61","","","","32","","9","","24.1","","99.03","","","","-17","","Mainly Clear"
"-81.11","44.74","WIARTON A","6119499","2021-02-16 20:00","2021","02","16","20:00","-12.3","","-17.6","","65","","","","31","","6","","24.1","","99.11","","","","-16","","NA"
"-81.11","44.74","WIARTON A","6119499","2021-02-16 21:00","2021","02","16","21:00","-13.4","","-18.6","","65","","","","36","","1","","24.1","","99.17","","","","-14","","NA"
"-81.11","44.74","WIARTON A","6119499","2021-02-16 22:00","2021","02","16","22:00","-18.3","","-21.9","","74","","","","36","","3","","24.1","","99.24","","","","-21","","Mostly Cloudy"
"-81.11","44.74","WIARTON A","6119499","2021-02-16 23:00","2021","02","16","23:00","-16.5","","-19.6","","77","","","","36","","2","","24.1","","99.28","","","","-18","","NA"
"-81.11","44.74","WIARTON A","6119499","2021-02-17 00:00","2021","02","17","00:00","-16.9","","-19.4","","82","","","","19","","9","","24.1","","99.36","","","","-23","","NA"
"-81.11","44.74","WIARTON A","6119499","2021-02-17 01:00","2021","02","17","01:00","-15.8","","-18.8","","79","","","","16","","9","","24.1","","99.44","","","","-22","","Cloudy"
"-81.11","44.74","WIARTON A","6119499","2021-02-17 02:00","2021","02","17","02:00","-14.5","","-16.9","","82","","","","17","","8","","19.3","","99.53","","","","-20","","Snow Showers"
"-81.11","44.74","WIARTON A","6119499","2021-02-17 03:00","2021","02","17","03:00","-14.8","","-16.6","","86","","","","16","","11","","24.1","","99.54","","","","-21","","NA"
"-81.11","44.74","WIARTON A","6119499","2021-02-17 04:00","2021","02","17","04:00","-15.1","","-16.6","","88","","","","15","","9","","24.1","","99.57","","","","-21","","Mostly Cloudy"
"-81.11","44.74","WIARTON A","6119499","2021-02-17 05:00","2021","02","17","05:00","-14.3","","-15.9","","88","","","","18","","10","","19.3","","99.70","","","","-20","","Snow Showers"
"-81.11","44.74","WIARTON A","6119499","2021-02-17 06:00","2021","02","17","06:00","-11.8","","-13.2","","89","","","","18","","9","","4.8","","99.83","","","","-17","","Snow Showers"
"-81.11","44.74","WIARTON A","6119499","2021-02-17 07:00","2021","02","17","07:00","-12.1","","-13.5","","89","","","","18","","8","","2.4","","99.90","","","","-17","","Snow Showers"
"-81.11","44.74","WIARTON A","6119499","2021-02-17 08:00","2021","02","17","08:00","-11.4","","-12.8","","89","","","","17","","9","","4.8","","99.96","","","","-17","","Snow Showers"
"-81.11","44.74","WIARTON A","6119499","2021-02-17 09:00","2021","02","17","09:00","-10.1","","-11.7","","88","","","","15","","8","","4.8","","100.04","","","","-15","","Snow"
"-81.11","44.74","WIARTON A","6119499","2021-02-17 10:00","2021","02","17","10:00","-8.4","","-11.2","","81","","","","10","","3","","24.1","","100.06","","","","-10","","Mostly Cloudy"
"-81.11","44.74","WIARTON A","6119499","2021-02-17 11:00","2021","02","17","11:00","-7.9","","-10.5","","81","","","","17","","4","","24.1","","100.07","","","","-10","","NA"
"-81.11","44.74","WIARTON A","6119499","2021-02-17 12:00","2021","02","17","12:00","-6.2","","-9.3","","79","","","","24","","11","","24.1","","100.12","","","","-11","","NA"
"-81.11","44.74","WIARTON A","6119499","2021-02-17 13:00","2021","02","17","13:00","-5.7","","-10.4","","70","","","","29","","12","","4.8","","100.10","","","","-11","","Snow"
"-81.11","44.74","WIARTON A","6119499","2021-02-17 14:00","2021","02","17","14:00","-5.7","","-12.1","","61","","","","25","","17","","24.1","","100.13","","","","-12","","NA"
"-81.11","44.74","WIARTON A","6119499","2021-02-17 15:00","2021","02","17","15:00","-5.8","","-12.3","","60","","","","25","","17","","24.1","","100.18","","","","-12","","NA"
"-81.11","44.74","WIARTON A","6119499","2021-02-17 16:00","2021","02","17","16:00","-6.0","","-11.9","","63","","","","26","","10","","24.1","","100.18","","","","-10","","Cloudy"
"-81.11","44.74","WIARTON A","6119499","2021-02-17 17:00","2021","02","17","17:00","-6.2","","-10.6","","71","","","","25","","14","","24.1","","100.18","","","","-12","","NA"
"-81.11","44.74","WIARTON A","6119499","2021-02-17 18:00","2021","02","17","18:00","-6.6","","-9.7","","79","","","","24","","4","","24.1","","100.16","","","","-9","","NA"
"-81.11","44.74","WIARTON A","6119499","2021-02-17 19:00","2021","02","17","19:00","-6.9","","-10.7","","74","","","","22","","12","","24.1","","100.28","","","","-12","","Snow Showers"
"-81.11","44.74","WIARTON A","6119499","2021-02-17 20:00","2021","02","17","20:00","-7.3","","-10.6","","77","","","","16","","7","","24.1","","100.28","","","","-11","","NA"
"-81.11","44.74","WIARTON A","6119499","2021-02-17 21:00","2021","02","17","21:00","-8.7","","-11.9","","78","","","","17","","7","","24.1","","100.27","","","","-13","","NA"
"-81.11","44.74","WIARTON A","6119499","2021-02-17 22:00","2021","02","17","22:00","-10.5","","-12.5","","86","","","","12","","8","","24.1","","100.32","","","","-15","","Mostly Cloudy"
"-81.11","44.74","WIARTON A","6119499","2021-02-17 23:00","2021","02","17","23:00","-10.9","","-13.4","","82","","","","17","","14","","24.1","","100.37","","","","-18","","NA"
"-81.11","44.74","WIARTON A","6119499","2021-02-18 00:00","2021","02","18","00:00","-11.7","","-14.3","","82","","","","16","","10","","24.1","","100.32","","","","-17","","NA"
"-81.11","44.74","WIARTON A","6119499","2021-02-18 01:00","2021","02","18","01:00","-11.8","","-14.8","","79","","","","14","","10","","24.1","","100.39","","","","-17","","Mostly Cloudy"
"-81.11","44.74","WIARTON A","6119499","2021-02-18 02:00","2021","02","18","02:00","-13.0","","-15.2","","84","","","","15","","12","","24.1","","100.36","","","","-20","","NA"
"-81.11","44.74","WIARTON A","6119499","2021-02-18 03:00","2021","02","18","03:00","-12.2","","-14.8","","82","","","","13","","9","","24.1","","100.40","","","","-17","","NA"
"-81.11","44.74","WIARTON A","6119499","2021-02-18 04:00","2021","02","18","04:00","-12.1","","-14.7","","81","","","","14","","7","","24.1","","100.37","","","","-16","","Mostly Cloudy"
"-81.11","44.74","WIARTON A","6119499","2021-02-18 05:00","2021","02","18","05:00","-11.9","","-14.2","","83","","","","14","","9","","24.1","","100.41","","","","-17","","NA"
"-81.11","44.74","WIARTON A","6119499","2021-02-18 06:00","2021","02","18","06:00","-11.5","","-13.9","","82","","","","3","","4","","24.1","","100.34","","","","-14","","NA"
"-81.11","44.74","WIARTON A","6119499","2021-02-18 07:00","2021","02","18","07:00","-14.0","","-15.8","","86","","","","10","","9","","24.1","","100.24","","","","-20","","Mostly Cloudy"
"-81.11","44.74","WIARTON A","6119499","2021-02-18 08:00","2021","02","18","08:00","-14.1","","-16.0","","85","","","","15","","8","","24.1","","100.24","","","","-19","","NA"
"-81.11","44.74","WIARTON A","6119499","2021-02-18 09:00","2021","02","18","09:00","-10.4","","-12.6","","84","","","","14","","9","","19.3","","100.29","","","","-15","","NA"
"-81.11","44.74","WIARTON A","6119499","2021-02-18 10:00","2021","02","18","10:00","-7.5","","-10.0","","82","","","","13","","7","","16.1","","100.25","","","","-11","","Snow"
"-81.11","44.74","WIARTON A","6119499","2021-02-18 11:00","2021","02","18","11:00","-5.3","","-8.7","","77","","","","8","","13","","9.7","","100.15","","","","-10","","Snow"
"-81.11","44.74","WIARTON A","6119499","2021-02-18 12:00","2021","02","18","12:00","-5.2","","-9.1","","75","","","","8","","13","","16.1","","100.18","","","","-10","","Snow"
"-81.11","44.74","WIARTON A","6119499","2021-02-18 13:00","2021","02","18","13:00","-4.7","","-9.8","","68","","","","6","","13","","24.1","","100.09","","","","-10","","Cloudy"
"-81.11","44.74","WIARTON A","6119499","2021-02-18 14:00","2021","02","18","14:00","-4.5","","-10.2","","64","","","","8","","10","","24.1","","100.05","","","","-9","","NA"
"-81.11","44.74","WIARTON A","6119499","2021-02-18 15:00","2021","02","18","15:00","-4.3","","-10.2","","63","","","","10","","9","","24.1","","100.07","","","","-8","","NA"
"-81.11","44.74","WIARTON A","6119499","2021-02-18 16:00","2021","02","18","16:00","-4.7","","-10.7","","63","","","","8","","14","","24.1","","100.01","","","","-10","","Cloudy"
"-81.11","44.74","WIARTON A","6119499","2021-02-18 17:00","2021","02","18","17:00","-5.2","","-10.7","","65","","","","7","","13","","24.1","","99.95","","","","-10","","NA"
"-81.11","44.74","WIARTON A","6119499","2021-02-18 18:00","2021","02","18","18:00","-5.8","","-11.3","","65","","","","7","","8","","24.1","","99.93","","","","-10","","NA"
"-81.11","44.74","WIARTON A","6119499","2021-02-18 19:00","2021","02","18","19:00","-6.5","","-11.5","","67","","","","6","","7","","24.1","","99.94","","","","-10","","Mostly Cloudy"
"-81.11","44.74","WIARTON A","6119499","2021-02-18 20:00","2021","02","18","20:00","-6.8","","-11.6","","69","","","","9","","8","","24.1","","99.91","","","","-11","","NA"
"-81.11","44.74","WIARTON A","6119499","2021-02-18 21:00","2021","02","18","21:00","-6.7","","-11.2","","71","","","","7","","8","","24.1","","99.85","","","","-11","","NA"
"-81.11","44.74","WIARTON A","6119499","2021-02-18 22:00","2021","02","18","22:00","-7.6","","-11.3","","75","","","","6","","5","","24.1","","99.81","","","","-10","","Cloudy"
"-81.11","44.74","WIARTON A","6119499","2021-02-18 23:00","2021","02","18","23:00","-7.2","","-10.4","","78","","","","10","","7","","19.3","","99.78","","","","-11","","NA"
"-81.11","44.74","WIARTON A","6119499","2021-02-19 00:00","2021","02","19","00:00","-6.9","","-9.6","","81","","","","13","","8","","16.1","","99.71","","","","-11","","NA"
"-81.11","44.74","WIARTON A","6119499","2021-02-19 01:00","2021","02","19","01:00","-7.0","","-8.9","","86","","","","36","","3","","19.3","","99.68","","","","-9","","Snow"
"-81.11","44.74","WIARTON A","6119499","2021-02-19 02:00","2021","02","19","02:00","-7.7","","-9.4","","87","","","","12","","5","","12.9","","99.66","","","","-10","","Snow"
"-81.11","44.74","WIARTON A","6119499","2021-02-19 03:00","2021","02","19","03:00","-8.3","","-9.6","","90","","","","","","0","","6.4","","99.60","","","","","","Snow"
"-81.11","44.74","WIARTON A","6119499","2021-02-19 04:00","2021","02","19","04:00","-7.5","","-8.5","","93","","","","0","","1","","9.7","","99.53","","","","-8","","Snow"
"-81.11","44.74","WIARTON A","6119499","2021-02-19 05:00","2021","02","19","05:00","-7.4","","-8.3","","93","","","","36","","2","","8.1","","99.52","","","","-8","","Snow"
"-81.11","44.74","WIARTON A","6119499","2021-02-19 06:00","2021","02","19","06:00","-7.6","","-8.4","","94","","","","36","","1","","9.7","","99.48","","","","-8","","Snow"
"-81.11","44.74","WIARTON A","6119499","2021-02-19 07:00","2021","02","19","07:00","-8.3","","-9.0","","95","","","","0","","1","","12.9","","99.47","","","","-9","","Snow"
"-81.11","44.74","WIARTON A","6119499","2021-02-19 08:00","2021","02","19","08:00","-7.3","","-8.1","","94","","","","","","0","","9.7","","99.45","","","","","","Snow"
"-81.11","44.74","WIARTON A","6119499","2021-02-19 09:00","2021","02","19","09:00","-6.8","","-7.9","","92","","","","36","","1","","9.7","","99.45","","","","-7","","Snow"
"-81.11","44.74","WIARTON A","6119499","2021-02-19 10:00","2021","02","19","10:00","-6.0","","-7.8","","87","","","","23","","5","","9.7","","99.43","","","","-8","","Snow"
"-81.11","44.74","WIARTON A","6119499","2021-02-19 11:00","2021","02","19","11:00","-4.8","","-7.5","","82","","","","27","","4","","16.1","","99.40","","","","-7","","Snow"
"-81.11","44.74","WIARTON A","6119499","2021-02-19 12:00","2021","02","19","12:00","-4.0","","-7.5","","77","","","","36","","1","","24.1","","99.40","","","","-4","","NA"
"-81.11","44.74","WIARTON A","6119499","2021-02-19 13:00","2021","02","19","13:00","-4.1","","-8.0","","74","","","","36","","2","","12.9","","99.34","","","","-5","","Snow"
"-81.11","44.74","WIARTON A","6119499","2021-02-19 14:00","2021","02","19","14:00","-4.0","","-8.0","","74","","","","36","","2","","12.9","","99.27","","","","-5","","Snow"
"-81.11","44.74","WIARTON A","6119499","2021-02-19 15:00","2021","02","19","15:00","-3.5","","-7.5","","74","","","","26","","12","","19.3","","99.28","","","","-8","","NA"
"-81.11","44.74","WIARTON A","6119499","2021-02-19 16:00","2021","02","19","16:00","-3.8","","-7.4","","76","","","","26","","11","","19.3","","99.29","","","","-8","","Mostly Cloudy"
"-81.11","44.74","WIARTON A","6119499","2021-02-19 17:00","2021","02","19","17:00","-4.1","","-7.0","","80","","","","26","","9","","19.3","","99.31","","","","-8","","NA"
"-81.11","44.74","WIARTON A","6119499","2021-02-19 18:00","2021","02","19","18:00","-4.7","","-7.4","","81","","","","30","","11","","19.3","","99.31","","","","-9","","NA"
"-81.11","44.74","WIARTON A","6119499","2021-02-19 19:00","2021","02","19","19:00","-4.9","","-8.3","","77","","","","33","","4","","19.3","","99.34","","","","-7","","Mostly Cloudy"
"-81.11","44.74","WIARTON A","6119499","2021-02-19 20:00","2021","02","19","20:00","-6.4","","-10.0","","76","","","","30","","5","","24.1","","99.37","","","","-9","","NA"
"-81.11","44.74","WIARTON A","6119499","2021-02-19 21:00","2021","02","19","21:00","-7.3","","-10.0","","81","","","","21","","5","","19.3","","99.36","","","","-10","","NA"
"-81.11","44.74","WIARTON A","6119499","2021-02-19 22:00","2021","02","19","22:00","-10.8","","-12.7","","86","","","","19","","4","","16.1","","99.38","","","","-13","","Snow Showers"
"-81.11","44.74","WIARTON A","6119499","2021-02-19 23:00","2021","02","19","23:00","-9.1","","-10.3","","91","","","","36","","2","","19.3","","99.36","","","","-10","","Snow Showers"
"-81.11","44.74","WIARTON A","6119499","2021-02-20 00:00","2021","02","20","00:00","-9.9","","-10.6","","94","","","","","","0","","19.3","","99.33","","","","","","Snow Showers"
"-81.11","44.74","WIARTON A","6119499","2021-02-20 01:00","2021","02","20","01:00","-15.6","","-17.2","","88","","","","17","","4","","24.1","","99.35","","","","-19","","Mainly Clear"
"-81.11","44.74","WIARTON A","6119499","2021-02-20 02:00","2021","02","20","02:00","-15.8","","-17.3","","88","","","","17","","5","","24.1","","99.36","","","","-20","","NA"
"-81.11","44.74","WIARTON A","6119499","2021-02-20 03:00","2021","02","20","03:00","-17.5","","-19.2","","86","","","","18","","5","","24.1","","99.34","","","","-21","","NA"
"-81.11","44.74","WIARTON A","6119499","2021-02-20 04:00","2021","02","20","04:00","-18.6","","-20.6","","85","","","","16","","6","","24.1","","99.34","","","","-23","","Mainly Clear"
"-81.11","44.74","WIARTON A","6119499","2021-02-20 05:00","2021","02","20","05:00","-19.4","","-21.4","","84","","","","14","","9","","24.1","","99.34","","","","-26","","NA"
"-81.11","44.74","WIARTON A","6119499","2021-02-20 06:00","2021","02","20","06:00","-19.6","","-21.6","","84","","","","13","","8","","24.1","","99.35","","","","-26","","NA"
"-81.11","44.74","WIARTON A","6119499","2021-02-20 07:00","2021","02","20","07:00","-21.1","","-23.3","","83","","","","14","","9","","24.1","","99.36","","","","-28","","Mainly Clear"
"-81.11","44.74","WIARTON A","6119499","2021-02-20 08:00","2021","02","20","08:00","-18.2","","-19.8","","87","","","","21","","9","","24.1","","99.44","","","","-25","","NA"
"-81.11","44.74","WIARTON A","6119499","2021-02-20 09:00","2021","02","20","09:00","-13.2","","-14.7","","89","","","","36","","1","","24.1","","99.51","","","","-14","","NA"
"-81.11","44.74","WIARTON A","6119499","2021-02-20 10:00","2021","02","20","10:00","-9.0","","-10.3","","91","","","","20","","4","","24.1","","99.53","","","","-11","","Clear"
"-81.11","44.74","WIARTON A","6119499","2021-02-20 11:00","2021","02","20","11:00","-4.3","","-9.5","","68","","","","30","","9","","24.1","","99.59","","","","-8","","NA"
"-81.11","44.74","WIARTON A","6119499","2021-02-20 12:00","2021","02","20","12:00","-3.6","","-10.6","","58","","","","30","","17","","24.1","","99.62","","","","-9","","NA"
"-81.11","44.74","WIARTON A","6119499","2021-02-20 13:00","2021","02","20","13:00","-3.0","","-10.6","","56","","","","32","","12","","24.1","","99.63","","","","-7","","Mostly Cloudy"
"-81.11","44.74","WIARTON A","6119499","2021-02-20 14:00","2021","02","20","14:00","-2.8","","-10.8","","54","","","","31","","11","","24.1","","99.63","","","","-7","","NA"
"-81.11","44.74","WIARTON A","6119499","2021-02-20 15:00","2021","02","20","15:00","-3.0","","-11.1","","54","","","","30","","9","","24.1","","99.67","","","","-7","","NA"
"-81.11","44.74","WIARTON A","6119499","2021-02-20 16:00","2021","02","20","16:00","-2.6","","-11.2","","52","","","","33","","10","","24.1","","99.70","","","","-6","","Mainly Clear"
"-81.11","44.74","WIARTON A","6119499","2021-02-20 17:00","2021","02","20","17:00","-3.6","","-10.2","","60","","","","28","","8","","24.1","","99.75","","","","-7","","NA"
"-81.11","44.74","WIARTON A","6119499","2021-02-20 18:00","2021","02","20","18:00","-4.7","","-9.3","","71","","","","30","","12","","24.1","","99.83","","","","-9","","NA"
"-81.11","44.74","WIARTON A","6119499","2021-02-20 19:00","2021","02","20","19:00","-6.0","","-9.6","","76","","","","27","","4","","24.1","","99.91","","","","-8","","Mainly Clear"
"-81.11","44.74","WIARTON A","6119499","2021-02-20 20:00","2021","02","20","20:00","-9.7","","-11.0","","90","","","","18","","5","","24.1","","99.96","","","","-13","","NA"
"-81.11","44.74","WIARTON A","6119499","2021-02-20 21:00","2021","02","20","21:00","-8.1","","-10.0","","87","","","","17","","8","","24.1","","99.97","","","","-12","","NA"
"-81.11","44.74","WIARTON A","6119499","2021-02-20 22:00","2021","02","20","22:00","-6.9","","-8.4","","90","","","","18","","9","","24.1","","100.02","","","","-11","","Cloudy"
"-81.11","44.74","WIARTON A","6119499","2021-02-20 23:00","2021","02","20","23:00","-6.4","","-7.7","","91","","","","14","","10","","16.1","","100.05","","","","-11","","Snow Showers"
"-81.11","44.74","WIARTON A","6119499","2021-02-21 00:00","2021","02","21","00:00","-5.7","","-6.6","","93","","","","18","","9","","1.6","","100.09","","","","-10","","Snow Showers"
"-81.11","44.74","WIARTON A","6119499","2021-02-21 01:00","2021","02","21","01:00","-5.3","","-6.8","","89","","","","18","","4","","12.9","","100.10","","","","-7","","Snow Showers"
"-81.11","44.74","WIARTON A","6119499","2021-02-21 02:00","2021","02","21","02:00","-5.2","","-7.7","","82","","","","19","","17","","12.9","","100.15","","","","-11","","Snow Showers"
"-81.11","44.74","WIARTON A","6119499","2021-02-21 03:00","2021","02","21","03:00","-6.3","","-9.1","","81","","","","19","","18","","16.1","","100.16","","","","-13","","Snow Showers"
"-81.11","44.74","WIARTON A","6119499","2021-02-21 04:00","2021","02","21","04:00","-7.3","","-10.0","","82","","","","19","","18","","12.9","","100.20","","","","-14","","Snow Showers"
"-81.11","44.74","WIARTON A","6119499","2021-02-21 05:00","2021","02","21","05:00","-6.8","","-9.7","","80","","","","19","","21","","16.1","","100.25","","","","-14","","Snow Showers"
"-81.11","44.74","WIARTON A","6119499","2021-02-21 06:00","2021","02","21","06:00","-7.9","","-10.8","","80","","","","19","","19","","16.1","","100.28","","","","-15","","Snow Showers"
"-81.11","44.74","WIARTON A","6119499","2021-02-21 07:00","2021","02","21","07:00","-7.1","","-10.3","","78","","","","18","","16","","24.1","","100.29","","","","-13","","Mostly Cloudy"
"-81.11","44.74","WIARTON A","6119499","2021-02-21 08:00","2021","02","21","08:00","-7.0","","-10.1","","79","","","","18","","19","","24.1","","100.30","","","","-14","","NA"
"-81.11","44.74","WIARTON A","6119499","2021-02-21 09:00","2021","02","21","09:00","-6.4","","-9.8","","77","","","","18","","17","","24.1","","100.33","","","","-13","","NA"
"-81.11","44.74","WIARTON A","6119499","2021-02-21 10:00","2021","02","21","10:00","-5.4","","-9.6","","73","","","","19","","16","","24.1","","100.32","","","","-11","","Mostly Cloudy"
"-81.11","44.74","WIARTON A","6119499","2021-02-21 11:00","2021","02","21","11:00","-4.7","","-9.3","","70","","","","21","","24","","24.1","","100.32","","","","-12","","NA"
"-81.11","44.74","WIARTON A","6119499","2021-02-21 12:00","2021","02","21","12:00","-3.8","","-9.9","","63","","","","23","","17","","24.1","","100.31","","","","-10","","NA"
"-81.11","44.74","WIARTON A","6119499","2021-02-21 13:00","2021","02","21","13:00","-3.6","","-10.8","","58","","","","20","","21","","24.1","","100.23","","","","-10","","Mainly Clear"
"-81.11","44.74","WIARTON A","6119499","2021-02-21 14:00","2021","02","21","14:00","-3.5","","-10.2","","60","","","","18","","20","","24.1","","100.10","","","","-10","","NA"
"-81.11","44.74","WIARTON A","6119499","2021-02-21 15:00","2021","02","21","15:00","-3.3","","-10.3","","59","","","","17","","19","","24.1","","100.09","","","","-9","","NA"
"-81.11","44.74","WIARTON A","6119499","2021-02-21 16:00","2021","02","21","16:00","-3.6","","-10.2","","60","","","","17","","17","","24.1","","100.00","","","","-9","","Mostly Cloudy"
"-81.11","44.74","WIARTON A","6119499","2021-02-21 17:00","2021","02","21","17:00","-4.0","","-10.4","","61","","","","17","","17","","24.1","","99.89","","","","-10","","NA"
"-81.11","44.74","WIARTON A","6119499","2021-02-21 18:00","2021","02","21","18:00","-4.2","","-10.2","","63","","","","17","","18","","24.1","","99.82","","","","-10","","NA"
"-81.11","44.74","WIARTON A","6119499","2021-02-21 19:00","2021","02","21","19:00","-4.5","","-9.8","","67","","","","13","","17","","24.1","","99.66","","","","-10","","Cloudy"
"-81.11","44.74","WIARTON A","6119499","2021-02-21 20:00","2021","02","21","20:00","-4.5","","-9.7","","67","","","","16","","18","","24.1","","99.58","","","","-11","","NA"
"-81.11","44.74","WIARTON A","6119499","2021-02-21 21:00","2021","02","21","21:00","-4.4","","-9.6","","68","","","","16","","20","","24.1","","99.48","","","","-11","","NA"
"-81.11","44.74","WIARTON A","6119499","2021-02-21 22:00","2021","02","21","22:00","-4.1","","-9.4","","67","","","","15","","21","","19.3","","99.33","","","","-11","","Snow"
"-81.11","44.74","WIARTON A","6119499","2021-02-21 23:00","2021","02","21","23:00","-3.6","","-10.1","","61","","","","14","","16","","24.1","","99.09","","","","-9","","NA"
"-81.11","44.74","WIARTON A","6119499","2021-02-22 00:00","2021","02","22","00:00","-2.6","","-10.6","","54","","","","16","","18","","24.1","","98.92","","","","-8","","NA"
"-81.11","44.74","WIARTON A","6119499","2021-02-22 01:00","2021","02","22","01:00","-2.0","","-11.0","","51","","","","17","","18","","24.1","","98.83","","","","-7","","Cloudy"
"-81.11","44.74","WIARTON A","6119499","2021-02-22 02:00","2021","02","22","02:00","-1.8","","-10.0","","54","","","","16","","21","","24.1","","98.61","","","","-8","","NA"
"-81.11","44.74","WIARTON A","6119499","2021-02-22 03:00","2021","02","22","03:00","-3.3","","-4.6","","90","","","","15","","25","","3.2","","98.37","","","","-10","","Snow"
"-81.11","44.74","WIARTON A","6119499","2021-02-22 04:00","2021","02","22","04:00","-2.9","","-4.2","","91","","","","14","","23","","1.6","","98.10","","","","-9","","Snow"
"-81.11","44.74","WIARTON A","6119499","2021-02-22 05:00","2021","02","22","05:00","-2.2","","-3.2","","93","","","","15","","24","","1.6","","97.83","","","","-9","","Snow,Blowing Snow"
"-81.11","44.74","WIARTON A","6119499","2021-02-22 06:00","2021","02","22","06:00","-1.4","","-2.5","","92","","","","17","","26","","1.6","","97.71","","","","-8","","Snow,Blowing Snow"
"-81.11","44.74","WIARTON A","6119499","2021-02-22 07:00","2021","02","22","07:00","-0.9","","-2.2","","91","","","","17","","28","","2.4","","97.54","","","","-7","","Snow,Blowing Snow"
"-81.11","44.74","WIARTON A","6119499","2021-02-22 08:00","2021","02","22","08:00","-0.6","","-1.9","","91","","","","17","","28","","2.4","","97.43","","","","-7","","Snow,Blowing Snow"
"-81.11","44.74","WIARTON A","6119499","2021-02-22 09:00","2021","02","22","09:00","-0.1","","-1.1","","93","","","","17","","25","","2.4","","97.37","","","","-6","","Snow,Blowing Snow"
"-81.11","44.74","WIARTON A","6119499","2021-02-22 10:00","2021","02","22","10:00","0.4","","-0.4","","94","","","","19","","23","","1.2","","97.28","","","","","","Snow"
"-81.11","44.74","WIARTON A","6119499","2021-02-22 11:00","2021","02","22","11:00","0.7","","0.0","","96","","","","21","","18","","2.4","","97.24","","","","","","Snow,Fog"
"-81.11","44.74","WIARTON A","6119499","2021-02-22 12:00","2021","02","22","12:00","1.3","","0.7","","96","","","","23","","18","","9.7","","97.24","","","","","","Fog"
"-81.11","44.74","WIARTON A","6119499","2021-02-22 13:00","2021","02","22","13:00","1.0","","0.1","","94","","","","26","","16","","3.2","","97.22","","","","","","Snow,Fog"
"-81.11","44.74","WIARTON A","6119499","2021-02-22 14:00","2021","02","22","14:00","0.2","","-0.6","","94","","","","28","","18","","3.2","","97.25","","","","","","Snow,Fog"
"-81.11","44.74","WIARTON A","6119499","2021-02-22 15:00","2021","02","22","15:00","0.1","","-1.9","","87","","","","26","","21","","24.1","","97.33","","","","","","NA"
"-81.11","44.74","WIARTON A","6119499","2021-02-22 16:00","2021","02","22","16:00","-0.3","","-2.5","","85","","","","27","","15","","24.1","","97.42","","","","-5","","Cloudy"
"-81.11","44.74","WIARTON A","6119499","2021-02-22 17:00","2021","02","22","17:00","-0.4","","-3.0","","82","","","","27","","17","","24.1","","97.46","","","","-5","","NA"
"-81.11","44.74","WIARTON A","6119499","2021-02-22 18:00","2021","02","22","18:00","-0.1","","-3.5","","78","","","","26","","14","","24.1","","97.50","","","","-4","","NA"
"-81.11","44.74","WIARTON A","6119499","2021-02-22 19:00","2021","02","22","19:00","0.1","","-2.8","","81","","","","24","","17","","24.1","","97.54","","","","","","Cloudy"
"-81.11","44.74","WIARTON A","6119499","2021-02-22 20:00","2021","02","22","20:00","0.6","","-1.6","","85","","","","23","","23","","24.1","","97.55","","","","","","NA"
"-81.11","44.74","WIARTON A","6119499","2021-02-22 21:00","2021","02","22","21:00","0.6","","-1.8","","84","","","","23","","23","","24.1","","97.52","","","","","","NA"
"-81.11","44.74","WIARTON A","6119499","2021-02-22 22:00","2021","02","22","22:00","0.1","","-2.7","","81","","","","23","","32","","24.1","","97.49","","","","","","Mostly Cloudy"
"-81.11","44.74","WIARTON A","6119499","2021-02-22 23:00","2021","02","22","23:00","-0.3","","-3.0","","82","","","","22","","40","","19.3","","97.40","","","","-8","","NA"
"-81.11","44.74","WIARTON A","6119499","2021-02-23 00:00","2021","02","23","00:00","-0.2","","-3.0","","81","","","","22","","38","","19.3","","97.32","","","","-7","","NA"
"-81.11","44.74","WIARTON A","6119499","2021-02-23 01:00","2021","02","23","01:00","-0.6","","-3.4","","81","","","","22","","31","","19.3","","97.28","","","","-7","","Cloudy"
"-81.11","44.74","WIARTON A","6119499","2021-02-23 02:00","2021","02","23","02:00","-1.0","","-3.5","","83","","","","21","","25","","19.3","","97.22","","","","-7","","NA"
"-81.11","44.74","WIARTON A","6119499","2021-02-23 03:00","2021","02","23","03:00","-0.7","","-3.1","","84","","","","21","","23","","19.3","","97.10","","","","-7","","NA"
"-81.11","44.74","WIARTON A","6119499","2021-02-23 04:00","2021","02","23","04:00","-0.4","","-2.6","","85","","","","21","","27","","19.3","","96.99","","","","-7","","Cloudy"
"-81.11","44.74","WIARTON A","6119499","2021-02-23 05:00","2021","02","23","05:00","-0.5","","-1.8","","91","","","","20","","20","","2.4","","96.90","","","","-6","","Snow"
"-81.11","44.74","WIARTON A","6119499","2021-02-23 06:00","2021","02","23","06:00","-0.4","","-1.0","","95","","","","20","","17","","1.6","","96.89","","","","-5","","Snow"
"-81.11","44.74","WIARTON A","6119499","2021-02-23 07:00","2021","02","23","07:00","0.1","","-0.6","","95","","","","22","","23","","2.4","","96.86","","","","","","Snow"
"-81.11","44.74","WIARTON A","6119499","2021-02-23 08:00","2021","02","23","08:00","0.3","","-0.2","","97","","","","24","","19","","1.0","","96.89","","","","","","Snow"
"-81.11","44.74","WIARTON A","6119499","2021-02-23 09:00","2021","02","23","09:00","0.4","","0.0","","98","","","","26","","14","","1.6","","96.97","","","","","","Snow,Fog"
"-81.11","44.74","WIARTON A","6119499","2021-02-23 10:00","2021","02","23","10:00","0.7","","0.4","","97","","","","27","","16","","4.8","","97.04","","","","","","Fog"
"-81.11","44.74","WIARTON A","6119499","2021-02-23 11:00","2021","02","23","11:00","1.7","","0.5","","92","","","","27","","16","","6.4","","97.15","","","","","","Fog"
"-81.11","44.74","WIARTON A","6119499","2021-02-23 12:00","2021","02","23","12:00","1.8","","0.8","","93","","","","27","","19","","9.7","","97.27","","","","","","Fog"
"-81.11","44.74","WIARTON A","6119499","2021-02-23 13:00","2021","02","23","13:00","2.3","","1.1","","92","","","","27","","19","","9.7","","97.33","","","","","","Fog"
"-81.11","44.74","WIARTON A","6119499","2021-02-23 14:00","2021","02","23","14:00","2.8","","0.9","","87","","","","27","","20","","24.1","","97.42","","","","","","NA"
"-81.11","44.74","WIARTON A","6119499","2021-02-23 15:00","2021","02","23","15:00","3.5","","0.2","","79","","","","28","","25","","24.1","","97.52","","","","","","NA"
"-81.11","44.74","WIARTON A","6119499","2021-02-23 16:00","2021","02","23","16:00","3.5","","-0.8","","74","","","","28","","22","","24.1","","97.65","","","","","","Cloudy"
"-81.11","44.74","WIARTON A","6119499","2021-02-23 17:00","2021","02","23","17:00","3.2","","-0.8","","75","","","","28","","18","","24.1","","97.75","","","","","","NA"
"-81.11","44.74","WIARTON A","6119499","2021-02-23 18:00","2021","02","23","18:00","2.6","","-0.2","","82","","","","27","","12","","24.1","","97.87","","","","","","NA"
"-81.11","44.74","WIARTON A","6119499","2021-02-23 19:00","2021","02","23","19:00","2.6","","-0.7","","79","","","","28","","16","","24.1","","98.05","","","","","","Mostly Cloudy"
"-81.11","44.74","WIARTON A","6119499","2021-02-23 20:00","2021","02","23","20:00","2.2","","-1.0","","80","","","","28","","18","","24.1","","98.17","","","","","","NA"
"-81.11","44.74","WIARTON A","6119499","2021-02-23 21:00","2021","02","23","21:00","2.0","","-1.2","","79","","","","28","","16","","24.1","","98.27","","","","","","NA"
"-81.11","44.74","WIARTON A","6119499","2021-02-23 22:00","2021","02","23","22:00","1.0","","-1.2","","85","","","","29","","10","","24.1","","98.34","","","","","","Mainly Clear"
"-81.11","44.74","WIARTON A","6119499","2021-02-23 23:00","2021","02","23","23:00","0.4","","-1.3","","88","","","","30","","11","","24.1","","98.41","","","","","","NA"
"-81.11","44.74","WIARTON A","6119499","2021-02-24 00:00","2021","02","24","00:00","-0.1","","-1.9","","88","","","","28","","4","","24.1","","98.43","","","","-1","","NA"
"-81.11","44.74","WIARTON A","6119499","2021-02-24 01:00","2021","02","24","01:00","-1.5","","-3.0","","90","","","","18","","4","","24.1","","98.41","","","","-3","","Cloudy"
"-81.11","44.74","WIARTON A","6119499","2021-02-24 02:00","2021","02","24","02:00","-1.9","","-2.6","","95","","","","17","","6","","24.1","","98.42","","","","-4","","NA"
"-81.11","44.74","WIARTON A","6119499","2021-02-24 03:00","2021","02","24","03:00","-1.6","","-2.0","","97","","","","19","","7","","24.1","","98.45","","","","-4","","NA"
"-81.11","44.74","WIARTON A","6119499","2021-02-24 04:00","2021","02","24","04:00","-2.4","","-3.0","","96","","","","13","","8","","24.1","","98.44","","","","-6","","Cloudy"
"-81.11","44.74","WIARTON A","6119499","2021-02-24 05:00","2021","02","24","05:00","-1.1","","-1.9","","94","","","","14","","12","","16.1","","98.37","","","","-5","","Snow"
"-81.11","44.74","WIARTON A","6119499","2021-02-24 06:00","2021","02","24","06:00","-0.6","","-1.2","","95","","","","13","","12","","24.1","","98.32","","","","-5","","NA"
"-81.11","44.74","WIARTON A","6119499","2021-02-24 07:00","2021","02","24","07:00","-0.1","","-0.8","","95","","","","13","","12","","19.3","","98.13","","","","-4","","Snow"
"-81.11","44.74","WIARTON A","6119499","2021-02-24 08:00","2021","02","24","08:00","0.4","","-0.5","","94","","","","12","","13","","19.3","","98.00","","","","","","Snow"
"-81.11","44.74","WIARTON A","6119499","2021-02-24 09:00","2021","02","24","09:00","1.2","","-0.3","","90","","","","10","","14","","19.3","","97.89","","","","","","Snow"
"-81.11","44.74","WIARTON A","6119499","2021-02-24 10:00","2021","02","24","10:00","1.9","","-0.7","","83","","","","7","","14","","24.1","","97.78","","","","","","Cloudy"
"-81.11","44.74","WIARTON A","6119499","2021-02-24 11:00","2021","02","24","11:00","2.4","","-0.8","","79","","","","12","","13","","24.1","","97.60","","","","","","NA"
"-81.11","44.74","WIARTON A","6119499","2021-02-24 12:00","2021","02","24","12:00","2.6","","-0.8","","78","","","","11","","15","","24.1","","97.44","","","","","","NA"
"-81.11","44.74","WIARTON A","6119499","2021-02-24 13:00","2021","02","24","13:00","2.8","","-0.6","","78","","","","10","","5","","24.1","","97.32","","","","","","Cloudy"
"-81.11","44.74","WIARTON A","6119499","2021-02-24 14:00","2021","02","24","14:00","4.0","","-0.7","","71","","","","24","","23","","19.3","","97.29","","","","","","NA"
"-81.11","44.74","WIARTON A","6119499","2021-02-24 15:00","2021","02","24","15:00","2.8","","0.0","","81","","","","25","","23","","19.3","","97.31","","","","","","NA"
"-81.11","44.74","WIARTON A","6119499","2021-02-24 16:00","2021","02","24","16:00","2.1","","0.4","","88","","","","27","","17","","16.1","","97.39","","","","","","Cloudy"
"-81.11","44.74","WIARTON A","6119499","2021-02-24 17:00","2021","02","24","17:00","0.0","","-0.9","","93","","","","34","","19","","6.4","","97.63","","","","-5","","Snow"
"-81.11","44.74","WIARTON A","6119499","2021-02-24 18:00","2021","02","24","18:00","-0.6","","-1.7","","93","","","","34","","16","","6.4","","97.90","","","","-5","","Snow Showers"
"-81.11","44.74","WIARTON A","6119499","2021-02-24 19:00","2021","02","24","19:00","-0.7","","-2.6","","87","","","","33","","18","","16.1","","98.20","","","","-6","","Snow Showers"
"-81.11","44.74","WIARTON A","6119499","2021-02-24 20:00","2021","02","24","20:00","-0.8","","-3.1","","85","","","","32","","17","","16.1","","98.43","","","","-6","","Snow Showers"
"-81.11","44.74","WIARTON A","6119499","2021-02-24 21:00","2021","02","24","21:00","-1.5","","-3.6","","86","","","","31","","14","","24.1","","98.63","","","","-6","","NA"
"-81.11","44.74","WIARTON A","6119499","2021-02-24 22:00","2021","02","24","22:00","-1.7","","-3.8","","85","","","","29","","10","","24.1","","98.79","","","","-5","","Mostly Cloudy"
"-81.11","44.74","WIARTON A","6119499","2021-02-24 23:00","2021","02","24","23:00","-1.6","","-3.6","","87","","","","29","","6","","24.1","","98.86","","","","-4","","NA"
"-81.11","44.74","WIARTON A","6119499","2021-02-25 00:00","2021","02","25","00:00","-2.2","","-5.1","","81","","","","30","","22","","24.1","","98.98","","","","-8","","NA"
"-81.11","44.74","WIARTON A","6119499","2021-02-25 01:00","2021","02","25","01:00","-2.5","","-6.4","","75","","","","30","","22","","24.1","","99.07","","","","-9","","Cloudy"
"-81.11","44.74","WIARTON A","6119499","2021-02-25 02:00","2021","02","25","02:00","-2.9","","-6.2","","78","","","","31","","13","","24.1","","99.18","","","","-8","","NA"
"-81.11","44.74","WIARTON A","6119499","2021-02-25 03:00","2021","02","25","03:00","-4.0","","-8.3","","72","","","","32","","18","","24.1","","99.27","","","","-10","","NA"
"-81.11","44.74","WIARTON A","6119499","2021-02-25 04:00","2021","02","25","04:00","-4.8","","-9.0","","73","","","","32","","15","","24.1","","99.36","","","","-10","","Mostly Cloudy"
"-81.11","44.74","WIARTON A","6119499","2021-02-25 05:00","2021","02","25","05:00","-6.8","","-9.9","","78","","","","33","","12","","24.1","","99.45","","","","-12","","NA"
"-81.11","44.74","WIARTON A","6119499","2021-02-25 06:00","2021","02","25","06:00","-7.8","","-10.7","","80","","","","31","","8","","24.1","","99.54","","","","-12","","NA"
"-81.11","44.74","WIARTON A","6119499","2021-02-25 07:00","2021","02","25","07:00","-8.8","","-10.7","","86","","","","32","","7","","24.1","","99.57","","","","-13","","Mainly Clear"
"-81.11","44.74","WIARTON A","6119499","2021-02-25 08:00","2021","02","25","08:00","-8.6","","-11.4","","80","","","","33","","6","","24.1","","99.59","","","","-12","","NA"
"-81.11","44.74","WIARTON A","6119499","2021-02-25 09:00","2021","02","25","09:00","-7.9","","-11.3","","77","","","","31","","5","","24.1","","99.69","","","","-11","","NA"
"-81.11","44.74","WIARTON A","6119499","2021-02-25 10:00","2021","02","25","10:00","-6.7","","-11.5","","69","","","","32","","5","","24.1","","99.72","","","","-9","","Mainly Clear"
"-81.11","44.74","WIARTON A","6119499","2021-02-25 11:00","2021","02","25","11:00","-5.4","","-13.3","","54","","","","28","","13","","24.1","","99.75","","","","-11","","NA"
"-81.11","44.74","WIARTON A","6119499","2021-02-25 12:00","2021","02","25","12:00","-4.6","","-10.7","","63","","","","30","","14","","24.1","","99.79","","","","-10","","NA"
"-81.11","44.74","WIARTON A","6119499","2021-02-25 13:00","2021","02","25","13:00","-4.1","","-12.2","","54","","","","28","","14","","24.1","","99.76","","","","-9","","Mainly Clear"
"-81.11","44.74","WIARTON A","6119499","2021-02-25 14:00","2021","02","25","14:00","-3.4","","-10.6","","58","","","","27","","11","","24.1","","99.70","","","","-8","","NA"
"-81.11","44.74","WIARTON A","6119499","2021-02-25 15:00","2021","02","25","15:00","-2.8","","-9.1","","62","","","","26","","7","","24.1","","99.59","","","","-6","","NA"
"-81.11","44.74","WIARTON A","6119499","2021-02-25 16:00","2021","02","25","16:00","-2.3","","-7.9","","66","","","","23","","18","","24.1","","99.53","","","","-8","","Mostly Cloudy"
"-81.11","44.74","WIARTON A","6119499","2021-02-25 17:00","2021","02","25","17:00","-2.5","","-7.7","","67","","","","22","","17","","12.9","","99.56","","","","-8","","Snow"
"-81.11","44.74","WIARTON A","6119499","2021-02-25 18:00","2021","02","25","18:00","-2.6","","-7.4","","70","","","","20","","18","","24.1","","99.51","","","","-8","","NA"
"-81.11","44.74","WIARTON A","6119499","2021-02-25 19:00","2021","02","25","19:00","-2.9","","-8.3","","67","","","","20","","17","","24.1","","99.52","","","","-8","","Mostly Cloudy"
"-81.11","44.74","WIARTON A","6119499","2021-02-25 20:00","2021","02","25","20:00","-2.9","","-7.1","","73","","","","21","","13","","16.1","","99.51","","","","-8","","NA"
"-81.11","44.74","WIARTON A","6119499","2021-02-25 21:00","2021","02","25","21:00","-1.6","","-4.9","","78","","","","29","","19","","16.1","","99.55","","","","-7","","NA"
"-81.11","44.74","WIARTON A","6119499","2021-02-25 22:00","2021","02","25","22:00","-2.4","","-6.2","","75","","","","30","","20","","24.1","","99.62","","","","-8","","Mainly Clear"
"-81.11","44.74","WIARTON A","6119499","2021-02-25 23:00","2021","02","25","23:00","-3.2","","-6.3","","79","","","","31","","12","","24.1","","99.72","","","","-8","","NA"
"-81.11","44.74","WIARTON A","6119499","2021-02-26 00:00","2021","02","26","00:00","-4.2","","-6.6","","83","","","","29","","8","","24.1","","99.77","","","","-8","","NA"
"-81.11","44.74","WIARTON A","6119499","2021-02-26 01:00","2021","02","26","01:00","-6.4","","-7.9","","89","","","","36","","2","","24.1","","99.81","","","","-7","","Mainly Clear"
"-81.11","44.74","WIARTON A","6119499","2021-02-26 02:00","2021","02","26","02:00","-8.5","","-9.2","","95","","","","36","","2","","24.1","","99.85","","","","-10","","NA"
"-81.11","44.74","WIARTON A","6119499","2021-02-26 03:00","2021","02","26","03:00","-10.1","","-11.0","","93","","","","15","","11","","24.1","","99.87","","","","-16","","NA"
"-81.11","44.74","WIARTON A","6119499","2021-02-26 04:00","2021","02","26","04:00","-9.9","","-10.8","","93","","","","14","","12","","24.1","","99.86","","","","-16","","Mainly Clear"
"-81.11","44.74","WIARTON A","6119499","2021-02-26 05:00","2021","02","26","05:00","-9.2","","-10.1","","93","","","","15","","16","","24.1","","99.91","","","","-16","","NA"
"-81.11","44.74","WIARTON A","6119499","2021-02-26 06:00","2021","02","26","06:00","-8.3","","-9.2","","93","","","","16","","14","","24.1","","99.94","","","","-14","","NA"
"-81.11","44.74","WIARTON A","6119499","2021-02-26 07:00","2021","02","26","07:00","-7.3","","-8.2","","93","","","","17","","17","","24.1","","99.90","","","","-14","","Mostly Cloudy"
"-81.11","44.74","WIARTON A","6119499","2021-02-26 08:00","2021","02","26","08:00","-5.5","","-7.6","","85","","","","17","","17","","24.1","","99.89","","","","-12","","NA"
"-81.11","44.74","WIARTON A","6119499","2021-02-26 09:00","2021","02","26","09:00","-3.7","","-7.0","","78","","","","18","","22","","24.1","","99.87","","","","-10","","NA"
"-81.11","44.74","WIARTON A","6119499","2021-02-26 10:00","2021","02","26","10:00","-1.8","","-7.3","","67","","","","18","","25","","24.1","","99.82","","","","-8","","Mainly Clear"
"-81.11","44.74","WIARTON A","6119499","2021-02-26 11:00","2021","02","26","11:00","-0.3","","-7.1","","60","","","","20","","23","","24.1","","99.87","","","","-6","","NA"
"-81.11","44.74","WIARTON A","6119499","2021-02-26 12:00","2021","02","26","12:00","0.8","","-6.8","","57","","","","20","","26","","24.1","","99.95","","","","","","NA"
"-81.11","44.74","WIARTON A","6119499","2021-02-26 13:00","2021","02","26","13:00","2.0","","-7.6","","49","","","","20","","31","","24.1","","99.94","","","","","","Mainly Clear"
"-81.11","44.74","WIARTON A","6119499","2021-02-26 14:00","2021","02","26","14:00","2.5","","-8.4","","44","","","","20","","30","","24.1","","99.88","","","","","","NA"
"-81.11","44.74","WIARTON A","6119499","2021-02-26 15:00","2021","02","26","15:00","2.8","","-8.5","","43","","","","18","","25","","24.1","","99.75","","","","","","NA"
"-81.11","44.74","WIARTON A","6119499","2021-02-26 16:00","2021","02","26","16:00","2.3","","-8.2","","46","","","","17","","19","","24.1","","99.56","","","","","","Mainly Clear"
"-81.11","44.74","WIARTON A","6119499","2021-02-26 17:00","2021","02","26","17:00","2.2","","-8.7","","45","","","","18","","20","","24.1","","99.47","","","","","","NA"
"-81.11","44.74","WIARTON A","6119499","2021-02-26 18:00","2021","02","26","18:00","0.7","","-9.0","","48","","","","18","","20","","24.1","","99.47","","","","","","NA"
"-81.11","44.74","WIARTON A","6119499","2021-02-26 19:00","2021","02","26","19:00","-1.0","","-9.2","","54","","","","18","","12","","24.1","","99.47","","","","-5","","Mainly Clear"
"-81.11","44.74","WIARTON A","6119499","2021-02-26 20:00","2021","02","26","20:00","-1.8","","-10.0","","54","","","","16","","15","","24.1","","99.39","","","","-7","","NA"
"-81.11","44.74","WIARTON A","6119499","2021-02-26 21:00","2021","02","26","21:00","-2.2","","-10.0","","55","","","","15","","13","","24.1","","99.30","","","","-7","","NA"
"-81.11","44.74","WIARTON A","6119499","2021-02-26 22:00","2021","02","26","22:00","-2.9","","-10.1","","58","","","","13","","17","","24.1","","99.23","","","","-8","","Mainly Clear"
"-81.11","44.74","WIARTON A","6119499","2021-02-26 23:00","2021","02","26","23:00","-3.2","","-10.6","","57","","","","13","","21","","24.1","","99.08","","","","-9","","NA"
"-81.11","44.74","WIARTON A","6119499","2021-02-27 00:00","2021","02","27","00:00","-3.0","","-9.6","","61","","","","14","","16","","24.1","","98.95","","","","-8","","NA"
"-81.11","44.74","WIARTON A","6119499","2021-02-27 01:00","2021","02","27","01:00","-3.3","","-9.4","","63","","","","13","","14","","24.1","","98.82","","","","-8","","Mostly Cloudy"
"-81.11","44.74","WIARTON A","6119499","2021-02-27 02:00","2021","02","27","02:00","-2.1","","-9.2","","58","","","","15","","17","","24.1","","98.69","","","","-7","","NA"
"-81.11","44.74","WIARTON A","6119499","2021-02-27 03:00","2021","02","27","03:00","-0.5","","-7.7","","58","","","","16","","13","","24.1","","98.55","","","","-5","","NA"
"-81.11","44.74","WIARTON A","6119499","2021-02-27 04:00","2021","02","27","04:00","1.4","","-6.0","","58","","","","17","","18","","24.1","","98.46","","","","","","Cloudy"
"-81.11","44.74","WIARTON A","6119499","2021-02-27 05:00","2021","02","27","05:00","1.5","","-5.3","","61","","","","15","","15","","24.1","","98.35","","","","","","NA"
"-81.11","44.74","WIARTON A","6119499","2021-02-27 06:00","2021","02","27","06:00","0.4","","-1.5","","87","","","","16","","19","","4.8","","98.27","","","","","","Snow Showers"
"-81.11","44.74","WIARTON A","6119499","2021-02-27 07:00","2021","02","27","07:00","0.3","","-0.2","","97","","","","20","","6","","3.2","","98.25","","","","","","Snow Showers"
"-81.11","44.74","WIARTON A","6119499","2021-02-27 08:00","2021","02","27","08:00","0.0","","-0.3","","98","","","","32","","4","","0.4","","98.26","","","","-1","","Heavy Snow Showers"
"-81.11","44.74","WIARTON A","6119499","2021-02-27 09:00","2021","02","27","09:00","0.1","","0.0","","99","","","","26","","7","","1.6","","98.29","","","","","","Snow Showers"
"-81.11","44.74","WIARTON A","6119499","2021-02-27 10:00","2021","02","27","10:00","0.3","","0.1","","99","","","","27","","17","","6.4","","98.35","","","","","","Fog"
"-81.11","44.74","WIARTON A","6119499","2021-02-27 11:00","2021","02","27","11:00","0.6","","0.0","","96","","","","27","","21","","12.9","","98.52","","","","","","NA"
"-81.11","44.74","WIARTON A","6119499","2021-02-27 12:00","2021","02","27","12:00","1.4","","-0.3","","88","","","","26","","17","","19.3","","98.61","","","","","","NA"
"-81.11","44.74","WIARTON A","6119499","2021-02-27 13:00","2021","02","27","13:00","0.8","","-0.7","","90","","","","25","","23","","12.9","","98.72","","","","","","Cloudy"
"-81.11","44.74","WIARTON A","6119499","2021-02-27 14:00","2021","02","27","14:00","1.6","","-0.2","","88","","","","25","","22","","14.5","","98.80","","","","","","NA"
"-81.11","44.74","WIARTON A","6119499","2021-02-27 15:00","2021","02","27","15:00","1.9","","-0.6","","84","","","","25","","23","","14.5","","98.93","","","","","","NA"
"-81.11","44.74","WIARTON A","6119499","2021-02-27 16:00","2021","02","27","16:00","0.8","","-0.1","","94","","","","25","","20","","9.7","","99.06","","","","","","Fog"
"-81.11","44.74","WIARTON A","6119499","2021-02-27 17:00","2021","02","27","17:00","1.3","","0.0","","91","","","","24","","18","","9.7","","99.15","","","","","","Fog"
"-81.11","44.74","WIARTON A","6119499","2021-02-27 18:00","2021","02","27","18:00","1.4","","-0.1","","90","","","","23","","23","","9.7","","99.26","","","","","","Fog"
"-81.11","44.74","WIARTON A","6119499","2021-02-27 19:00","2021","02","27","19:00","0.9","","-0.3","","91","","","","21","","19","","12.9","","99.37","","","","","","Mainly Clear"
"-81.11","44.74","WIARTON A","6119499","2021-02-27 20:00","2021","02","27","20:00","-0.2","","-1.0","","94","","","","15","","9","","12.9","","99.37","","","","-3","","NA"
"-81.11","44.74","WIARTON A","6119499","2021-02-27 21:00","2021","02","27","21:00","-0.3","","-1.1","","95","","","","17","","15","","12.9","","99.41","","","","-5","","NA"
"-81.11","44.74","WIARTON A","6119499","2021-02-27 22:00","2021","02","27","22:00","-0.8","","-1.5","","95","","","","16","","14","","9.7","","99.45","","","","-5","","Fog"
"-81.11","44.74","WIARTON A","6119499","2021-02-27 23:00","2021","02","27","23:00","-0.7","","-1.3","","96","","","","15","","15","","9.7","","99.43","","","","-5","","Fog"
"-81.11","44.74","WIARTON A","6119499","2021-02-28 00:00","2021","02","28","00:00","-0.3","","-1.1","","94","","","","16","","14","","16.1","","99.47","","","","-5","","NA"
"-81.11","44.74","WIARTON A","6119499","2021-02-28 01:00","2021","02","28","01:00","-0.8","","-1.7","","94","","","","14","","12","","19.3","","99.43","","","","-5","","Mainly Clear"
"-81.11","44.74","WIARTON A","6119499","2021-02-28 02:00","2021","02","28","02:00","-1.6","","-2.0","","97","","","","16","","12","","19.3","","99.42","","","","-6","","NA"
"-81.11","44.74","WIARTON A","6119499","2021-02-28 03:00","2021","02","28","03:00","-1.6","","-1.9","","98","","","","14","","7","","16.1","","99.41","","","","-4","","NA"
"-81.11","44.74","WIARTON A","6119499","2021-02-28 04:00","2021","02","28","04:00","-2.1","","-2.3","","98","","","","15","","12","","9.7","","99.36","","","","-6","","Fog"
"-81.11","44.74","WIARTON A","6119499","2021-02-28 05:00","2021","02","28","05:00","-2.6","","-2.9","","98","","","","14","","12","","16.1","","99.32","","","","-7","","NA"
"-81.11","44.74","WIARTON A","6119499","2021-02-28 06:00","2021","02","28","06:00","-2.4","","-2.7","","98","","","","9","","3","","16.1","","99.26","","","","-4","","NA"
"-81.11","44.74","WIARTON A","6119499","2021-02-28 07:00","2021","02","28","07:00","-2.3","","-2.5","","99","","","","8","","5","","9.7","","99.18","","","","-4","","Fog"
"-81.11","44.74","WIARTON A","6119499","2021-02-28 08:00","2021","02","28","08:00","-2.1","","-2.3","","99","","","","12","","10","","6.4","","99.14","","","","-6","","Fog"
"-81.11","44.74","WIARTON A","6119499","2021-02-28 09:00","2021","02","28","09:00","0.2","","-0.3","","97","","","","12","","12","","9.7","","99.01","","","","","","Fog"
"-81.11","44.74","WIARTON A","6119499","2021-02-28 10:00","2021","02","28","10:00","2.4","","0.0","","84","","","","12","","17","","12.9","","98.86","","","","","","Mostly Cloudy"
"-81.11","44.74","WIARTON A","6119499","2021-02-28 11:00","2021","02","28","11:00","4.9","","-0.3","","69","","","","11","","25","","24.1","","98.62","","","","","","NA"
"-81.11","44.74","WIARTON A","6119499","2021-02-28 12:00","2021","02","28","12:00","5.6","","-0.8","","63","","","","10","","21","","24.1","","98.43","","","","","","NA"
"-81.11","44.74","WIARTON A","6119499","2021-02-28 13:00","2021","02","28","13:00","6.1","","-1.2","","59","","","","10","","21","","24.1","","98.23","","","","","","Mainly Clear"
"-81.11","44.74","WIARTON A","6119499","2021-02-28 14:00","2021","02","28","14:00","6.6","","-1.0","","58","","","","14","","19","","24.1","","98.01","","","","","","NA"
"-81.11","44.74","WIARTON A","6119499","2021-02-28 15:00","2021","02","28","15:00","5.2","","0.8","","73","","","","17","","15","","24.1","","98.00","","","","","","NA"
"-81.11","44.74","WIARTON A","6119499","2021-02-28 16:00","2021","02","28","16:00","4.5","","2.6","","87","","","","17","","24","","24.1","","97.83","","","","","","Cloudy"
"-81.11","44.74","WIARTON A","6119499","2021-02-28 17:00","2021","02","28","17:00","4.8","","2.9","","87","","","","18","","26","","24.1","","97.62","","","","","","NA"
"-81.11","44.74","WIARTON A","6119499","2021-02-28 18:00","2021","02","28","18:00","4.9","","3.6","","91","","","","19","","35","","24.1","","97.52","","","","","","NA"
"-81.11","44.74","WIARTON A","6119499","2021-02-28 19:00","2021","02","28","19:00","4.7","","3.9","","94","","","","19","","35","","12.9","","97.44","","","","","","Rain Showers"
"-81.11","44.74","WIARTON A","6119499","2021-02-28 20:00","2021","02","28","20:00","5.0","","4.4","","96","","","","18","","37","","16.1","","97.32","","","","","","NA"
"-81.11","44.74","WIARTON A","6119499","2021-02-28 21:00","2021","02","28","21:00","5.8","","5.2","","96","","","","19","","36","","16.1","","97.32","","","","","","NA"
"-81.11","44.74","WIARTON A","6119499","2021-02-28 22:00","2021","02","28","22:00","5.9","","5.2","","95","","","","25","","35","","8.1","","97.41","","","","","","Rain Showers,Fog"
"-81.11","44.74","WIARTON A","6119499","2021-02-28 23:00","2021","02","28","23:00","4.5","","3.1","","91","","","","25","","23","","24.1","","97.41","","","","","","NA"
