"Longitude (x)","Latitude (y)","Station Name","Climate ID","Date/Time (LST)","Year","Month","Day","Time (LST)","Temp (°C)","Temp Flag","Dew Point Temp (°C)","Dew Point Temp Flag","Rel Hum (%)","Rel Hum Flag","Precip. Amount (mm)","Precip. Amount Flag","Wind Dir (10s deg)","Wind Dir Flag","Wind Spd (km/h)","Wind Spd Flag","Visibility (km)","Visibility Flag","Stn Press (kPa)","Stn Press Flag","Hmdx","Hmdx Flag","Wind Chill","Wind Chill Flag","Weather"
"-120.45","50.70","KAMLOOPS A","1163781","2020-01-01 00:00","2020","01","01","00:00","1.8","","-0.1","","87","","","","11","","13","","48.3","","95.44","","","","","","NA"
"-120.45","50.70","KAMLOOPS A","1163781","2020-01-01 01:00","2020","01","01","01:00","1.2","","-0.3","","89","","","","9","","14","","48.3","","95.43","","","","","","Cloudy"
"-120.45","50.70","KAMLOOPS A","1163781","2020-01-01 02:00","2020","01","01","02:00","0.8","","-0.6","","90","","","","4","","7","","48.3","","95.44","","","","","","NA"
"-120.45","50.70","KAMLOOPS A","1163781","2020-01-01 03:00","2020","01","01","03:00","1.1","","-0.4","","89","","","","2","","5","","48.3","","95.52","","","","","","NA"
"-120.45","50.70","KAMLOOPS A","1163781","2020-01-01 04:00","2020","01","01","04:00","1.3","","-0.3","","89","","","","36","","1","","32.2","","95.55","","","","","","Cloudy"
"-120.45","50.70","KAMLOOPS A","1163781","2020-01-01 05:00","2020","01","01","05:00","0.8","","-0.4","","92","","","","33","","4","","48.3","","95.56","","","","","","NA"
"-120.45","50.70","KAMLOOPS A","1163781","2020-01-01 06:00","2020","01","01","06:00","0.8","","0.0","","94","","","","28","","7","","32.2","","95.62","","","","","","NA"
"-120.45","50.70","KAMLOOPS A","1163781","2020-01-01 07:00","2020","01","01","07:00","1.1","","-0.3","","90","","","","36","","2","","32.2","","95.70","","","","","","Cloudy"
"-120.45","50.70","KAMLOOPS A","1163781","2020-01-01 08:00","2020","01","01","08:00","1.1","","0.0","","92","","","","8","","5","","32.2","","95.82","","","","","","NA"
"-120.45","50.70","KAMLOOPS A","1163781","2020-01-01 09:00","2020","01","01","09:00","1.2","","0.3","","94","","","","24","","5","","32.2","","95.93","","","","","","NA"
"-120.45","50.70","KAMLOOPS A","1163781","2020-01-01 10:00","2020","01","01","10:00","1.7","","0.6","","92","","","","36","","1","","32.2","","96.02","","","","","","Cloudy"
"-120.45","50.70","KAMLOOPS A","1163781","2020-01-01 11:00","2020","01","01","11:00","2.4","","0.2","","85","","","","26","","4","","32.2","","96.07","","","","","","NA"
"-120.45","50.70","KAMLOOPS A","1163781","2020-01-01 12:00","2020","01","01","12:00","3.1","","0.6","","83","","","","31","","5","","48.3","","96.10","","","","","","NA"
"-120.45","50.70","KAMLOOPS A","1163781","2020-01-01 13:00","2020","01","01","13:00","4.0","","0.7","","79","","","","17","","3","","48.3","","96.10","","","","","","Mostly Cloudy"
"-120.45","50.70","KAMLOOPS A","1163781","2020-01-01 14:00","2020","01","01","14:00","4.0","","0.3","","77","","","","24","","3","","64.4","","96.16","","","","","","NA"
"-120.45","50.70","KAMLOOPS A","1163781","2020-01-01 15:00","2020","01","01","15:00","3.3","","0.2","","81","","","","16","","5","","64.4","","96.15","","","","","","NA"
"-120.45","50.70","KAMLOOPS A","1163781","2020-01-01 16:00","2020","01","01","16:00","1.9","","-0.1","","86","","","","13","","3","","64.4","","96.22","","","","","","Mainly Clear"
"-120.45","50.70","KAMLOOPS A","1163781","2020-01-01 17:00","2020","01","01","17:00","0.9","","-0.1","","93","","","","6","","13","","48.3","","96.24","","","","","","NA"
"-120.45","50.70","KAMLOOPS A","1163781","2020-01-01 18:00","2020","01","01","18:00","0.8","","0.1","","95","","","","10","","14","","48.3","","96.19","","","","","","NA"
"-120.45","50.70","KAMLOOPS A","1163781","2020-01-01 19:00","2020","01","01","19:00","0.7","","0.0","","95","","","","1","","8","","16.1","","96.23","","","","","","Cloudy"
"-120.45","50.70","KAMLOOPS A","1163781","2020-01-01 20:00","2020","01","01","20:00","0.8","","0.2","","95","","","","7","","7","","12.9","","96.20","","","","","","NA"
"-120.45","50.70","KAMLOOPS A","1163781","2020-01-01 21:00","2020","01","01","21:00","0.5","","0.0","","96","","","","26","","12","","12.9","","96.30","","","","","","NA"
"-120.45","50.70","KAMLOOPS A","1163781","2020-01-01 22:00","2020","01","01","22:00","1.2","","0.4","","95","","","","25","","18","","9.7","","96.49","","","","","","Snow"
"-120.45","50.70","KAMLOOPS A","1163781","2020-01-01 23:00","2020","01","01","23:00","2.5","","-0.7","","79","","","","26","","21","","16.1","","96.75","","","","","","Rain"
"-120.45","50.70","KAMLOOPS A","1163781","2020-01-02 00:00","2020","01","02","00:00","2.3","","-1.5","","76","","","","25","","14","","24.1","","96.81","","","","","","Rain"
"-120.45","50.70","KAMLOOPS A","1163781","2020-01-02 01:00","2020","01","02","01:00","1.5","","-1.2","","82","","","","29","","18","","24.1","","96.89","","","","","","Cloudy"
"-120.45","50.70","KAMLOOPS A","1163781","2020-01-02 02:00","2020","01","02","02:00","1.9","","-0.4","","85","","","","27","","18","","48.3","","97.00","","","","","","NA"
"-120.45","50.70","KAMLOOPS A","1163781","2020-01-02 03:00","2020","01","02","03:00","0.8","","-2.4","","79","","","","28","","16","","64.4","","97.08","","","","","","NA"
"-120.45","50.70","KAMLOOPS A","1163781","2020-01-02 04:00","2020","01","02","04:00","1.1","","-3.7","","71","","","","18","","7","","64.4","","97.17","","","","","","Mostly Cloudy"
"-120.45","50.70","KAMLOOPS A","1163781","2020-01-02 05:00","2020","01","02","05:00","0.4","","-4.8","","68","","","","23","","10","","64.4","","97.26","","","","","","NA"
"-120.45","50.70","KAMLOOPS A","1163781","2020-01-02 06:00","2020","01","02","06:00","-1.0","","-4.9","","75","","","","24","","12","","64.4","","97.33","","","","-5","","NA"
"-120.45","50.70","KAMLOOPS A","1163781","2020-01-02 07:00","2020","01","02","07:00","-0.1","","-5.0","","69","","","","23","","9","","32.2","","97.39","","","","-3","","Mostly Cloudy"
"-120.45","50.70","KAMLOOPS A","1163781","2020-01-02 08:00","2020","01","02","08:00","-1.5","","-3.9","","84","","","","28","","3","","64.4","","97.50","","","","-3","","NA"
"-120.45","50.70","KAMLOOPS A","1163781","2020-01-02 09:00","2020","01","02","09:00","-0.7","","-3.5","","81","","","","28","","7","","64.4","","97.55","","","","-3","","NA"
"-120.45","50.70","KAMLOOPS A","1163781","2020-01-02 10:00","2020","01","02","10:00","0.1","","-3.4","","77","","","","29","","5","","64.4","","97.60","","","","","","Mostly Cloudy"
"-120.45","50.70","KAMLOOPS A","1163781","2020-01-02 11:00","2020","01","02","11:00","0.5","","-3.6","","74","","","","36","","1","","64.4","","97.60","","","","","","NA"
"-120.45","50.70","KAMLOOPS A","1163781","2020-01-02 12:00","2020","01","02","12:00","1.1","","-3.7","","70","","","","36","","1","","64.4","","97.57","","","","","","NA"
"-120.45","50.70","KAMLOOPS A","1163781","2020-01-02 13:00","2020","01","02","13:00","1.2","","-3.3","","72","","","","24","","3","","64.4","","97.52","","","","","","Cloudy"
"-120.45","50.70","KAMLOOPS A","1163781","2020-01-02 14:00","2020","01","02","14:00","1.4","","-3.1","","72","","","","10","","4","","64.4","","97.54","","","","","","NA"
"-120.45","50.70","KAMLOOPS A","1163781","2020-01-02 15:00","2020","01","02","15:00","1.1","","-3.4","","72","","","","10","","12","","64.4","","97.52","","","","","","NA"
"-120.45","50.70","KAMLOOPS A","1163781","2020-01-02 16:00","2020","01","02","16:00","0.5","","-3.0","","77","","","","11","","12","","64.4","","97.49","","","","","","Cloudy"
"-120.45","50.70","KAMLOOPS A","1163781","2020-01-02 17:00","2020","01","02","17:00","0.2","","-3.6","","75","","","","10","","14","","64.4","","97.45","","","","","","NA"
"-120.45","50.70","KAMLOOPS A","1163781","2020-01-02 18:00","2020","01","02","18:00","0.4","","-3.7","","74","","","","10","","19","","64.4","","97.39","","","","","","NA"
"-120.45","50.70","KAMLOOPS A","1163781","2020-01-02 19:00","2020","01","02","19:00","-0.2","","-2.4","","85","","","","9","","13","","4.8","","97.33","","","","-4","","Snow"
"-120.45","50.70","KAMLOOPS A","1163781","2020-01-02 20:00","2020","01","02","20:00","-0.8","","-1.6","","95","","","","8","","17","","1.6","","97.29","","","","-6","","Snow"
"-120.45","50.70","KAMLOOPS A","1163781","2020-01-02 21:00","2020","01","02","21:00","-0.9","","-1.5","","96","","","","","","","M","1.2","","97.24","","","","","","Snow"
"-120.45","50.70","KAMLOOPS A","1163781","2020-01-02 22:00","2020","01","02","22:00","0.0","","-2.0","","86","","","","8","","16","","9.7","","97.15","","","","-5","","Snow"
"-120.45","50.70","KAMLOOPS A","1163781","2020-01-02 23:00","2020","01","02","23:00","0.1","","-2.1","","85","","","","9","","22","","24.1","","97.02","","","","","","Snow"
"-120.45","50.70","KAMLOOPS A","1163781","2020-01-03 00:00","2020","01","03","00:00","0.2","","-2.3","","84","","","","8","","23","","24.1","","96.92","","","","","","NA"
"-120.45","50.70","KAMLOOPS A","1163781","2020-01-03 01:00","2020","01","03","01:00","0.3","","-2.2","","83","","","","9","","22","","48.3","","96.85","","","","","","Mostly Cloudy"
"-120.45","50.70","KAMLOOPS A","1163781","2020-01-03 02:00","2020","01","03","02:00","0.5","","-2.3","","81","","","","10","","22","","64.4","","96.81","","","","","","NA"
"-120.45","50.70","KAMLOOPS A","1163781","2020-01-03 03:00","2020","01","03","03:00","1.0","","-2.4","","78","","","","9","","26","","64.4","","96.75","","","","","","NA"
"-120.45","50.70","KAMLOOPS A","1163781","2020-01-03 04:00","2020","01","03","04:00","1.3","","-2.3","","77","","","","8","","25","","64.4","","96.67","","","","","","Cloudy"
"-120.45","50.70","KAMLOOPS A","1163781","2020-01-03 05:00","2020","01","03","05:00","0.8","","-2.3","","80","","","","8","","29","","64.4","","96.58","","","","","","NA"
"-120.45","50.70","KAMLOOPS A","1163781","2020-01-03 06:00","2020","01","03","06:00","1.2","","-1.7","","81","","","","8","","29","","64.4","","96.51","","","","","","NA"
"-120.45","50.70","KAMLOOPS A","1163781","2020-01-03 07:00","2020","01","03","07:00","2.1","","-1.4","","78","","","","9","","39","","32.2","","96.53","","","","","","Mostly Cloudy"
"-120.45","50.70","KAMLOOPS A","1163781","2020-01-03 08:00","2020","01","03","08:00","2.2","","-1.2","","78","","","","9","","35","","64.4","","96.56","","","","","","NA"
"-120.45","50.70","KAMLOOPS A","1163781","2020-01-03 09:00","2020","01","03","09:00","2.3","","-0.8","","80","","","","9","","39","","64.4","","96.59","","","","","","NA"
"-120.45","50.70","KAMLOOPS A","1163781","2020-01-03 10:00","2020","01","03","10:00","2.9","","-0.2","","80","","","","10","","43","","64.4","","96.47","","","","","","Mostly Cloudy"
"-120.45","50.70","KAMLOOPS A","1163781","2020-01-03 11:00","2020","01","03","11:00","3.5","","0.2","","79","","","","11","","39","","64.4","","96.47","","","","","","NA"
"-120.45","50.70","KAMLOOPS A","1163781","2020-01-03 12:00","2020","01","03","12:00","3.4","","0.2","","80","","","","9","","44","","64.4","","96.44","","","","","","NA"
"-120.45","50.70","KAMLOOPS A","1163781","2020-01-03 13:00","2020","01","03","13:00","3.6","","0.4","","80","","","","9","","44","","64.4","","96.39","","","","","","Mostly Cloudy"
"-120.45","50.70","KAMLOOPS A","1163781","2020-01-03 14:00","2020","01","03","14:00","4.4","","0.7","","77","","","","10","","47","","64.4","","96.35","","","","","","NA"
"-120.45","50.70","KAMLOOPS A","1163781","2020-01-03 15:00","2020","01","03","15:00","4.6","","0.9","","77","","","","10","","40","","64.4","","96.34","","","","","","NA"
"-120.45","50.70","KAMLOOPS A","1163781","2020-01-03 16:00","2020","01","03","16:00","5.1","","1.1","","75","","","","11","","41","","64.4","","96.27","","","","","","Mostly Cloudy"
"-120.45","50.70","KAMLOOPS A","1163781","2020-01-03 17:00","2020","01","03","17:00","3.8","","0.5","","79","","","","9","","31","","64.4","","96.25","","","","","","NA"
"-120.45","50.70","KAMLOOPS A","1163781","2020-01-03 18:00","2020","01","03","18:00","5.0","","0.9","","75","","","","11","","33","","64.4","","96.16","","","","","","NA"
"-120.45","50.70","KAMLOOPS A","1163781","2020-01-03 19:00","2020","01","03","19:00","5.5","","1.1","","73","","","","11","","27","","64.4","","96.09","","","","","","Mostly Cloudy"
"-120.45","50.70","KAMLOOPS A","1163781","2020-01-03 20:00","2020","01","03","20:00","5.3","","0.7","","72","","","","10","","36","","64.4","","95.92","","","","","","NA"
"-120.45","50.70","KAMLOOPS A","1163781","2020-01-03 21:00","2020","01","03","21:00","5.2","","0.6","","72","","","","9","","33","","64.4","","95.84","","","","","","NA"
"-120.45","50.70","KAMLOOPS A","1163781","2020-01-03 22:00","2020","01","03","22:00","6.5","","0.6","","66","","","","9","","34","","32.2","","95.84","","","","","","Mostly Cloudy"
"-120.45","50.70","KAMLOOPS A","1163781","2020-01-03 23:00","2020","01","03","23:00","8.2","","0.5","","58","","","","10","","30","","32.2","","95.82","","","","","","NA"
"-120.45","50.70","KAMLOOPS A","1163781","2020-01-04 00:00","2020","01","04","00:00","8.1","","1.7","","64","","","","12","","21","","32.2","","95.86","","","","","","NA"
"-120.45","50.70","KAMLOOPS A","1163781","2020-01-04 01:00","2020","01","04","01:00","9.2","","1.5","","59","","","","36","","3","","32.2","","95.77","","","","","","Mostly Cloudy"
"-120.45","50.70","KAMLOOPS A","1163781","2020-01-04 02:00","2020","01","04","02:00","8.6","","1.0","","59","","","","8","","13","","32.2","","95.78","","","","","","NA"
"-120.45","50.70","KAMLOOPS A","1163781","2020-01-04 03:00","2020","01","04","03:00","7.5","","1.2","","64","","","","12","","13","","32.2","","95.88","","","","","","NA"
"-120.45","50.70","KAMLOOPS A","1163781","2020-01-04 04:00","2020","01","04","04:00","8.3","","-0.8","","53","","","","14","","15","","32.2","","95.93","","","","","","Mostly Cloudy"
"-120.45","50.70","KAMLOOPS A","1163781","2020-01-04 05:00","2020","01","04","05:00","7.0","","0.1","","61","","","","36","","16","","48.3","","96.08","","","","","","NA"
"-120.45","50.70","KAMLOOPS A","1163781","2020-01-04 06:00","2020","01","04","06:00","6.3","","-2.0","","55","","","","23","","34","","48.3","","96.26","","","","","","Rain Showers"
"-120.45","50.70","KAMLOOPS A","1163781","2020-01-04 07:00","2020","01","04","07:00","6.6","","-3.0","","50","","","","30","","14","","48.3","","96.57","","","","","","Mostly Cloudy"
"-120.45","50.70","KAMLOOPS A","1163781","2020-01-04 08:00","2020","01","04","08:00","2.0","","-1.7","","76","","","","26","","14","","48.3","","96.81","","","","","","NA"
"-120.45","50.70","KAMLOOPS A","1163781","2020-01-04 09:00","2020","01","04","09:00","0.7","","-1.3","","86","","","","9","","10","","64.4","","97.03","","","","","","NA"
"-120.45","50.70","KAMLOOPS A","1163781","2020-01-04 10:00","2020","01","04","10:00","2.5","","-1.4","","76","","","","36","","3","","64.4","","97.20","","","","","","Mainly Clear"
"-120.45","50.70","KAMLOOPS A","1163781","2020-01-04 11:00","2020","01","04","11:00","4.1","","-1.8","","65","","","","13","","4","","64.4","","97.33","","","","","","NA"
"-120.45","50.70","KAMLOOPS A","1163781","2020-01-04 12:00","2020","01","04","12:00","6.6","","-5.8","","41","","","","26","","16","","64.4","","97.40","","","","","","NA"
"-120.45","50.70","KAMLOOPS A","1163781","2020-01-04 13:00","2020","01","04","13:00","6.3","","-5.8","","42","","","","23","","9","","64.4","","97.49","","","","","","Mostly Cloudy"
"-120.45","50.70","KAMLOOPS A","1163781","2020-01-04 14:00","2020","01","04","14:00","7.9","","-8.4","","31","","","","24","","21","","64.4","","97.62","","","","","","NA"
"-120.45","50.70","KAMLOOPS A","1163781","2020-01-04 15:00","2020","01","04","15:00","6.9","","-8.7","","32","","","","23","","22","","64.4","","97.70","","","","","","NA"
"-120.45","50.70","KAMLOOPS A","1163781","2020-01-04 16:00","2020","01","04","16:00","4.5","","-7.5","","41","","","","5","","4","","64.4","","97.78","","","","","","Mainly Clear"
"-120.45","50.70","KAMLOOPS A","1163781","2020-01-04 17:00","2020","01","04","17:00","5.6","","-6.4","","42","","","","18","","36","","64.4","","97.79","","","","","","NA"
"-120.45","50.70","KAMLOOPS A","1163781","2020-01-04 18:00","2020","01","04","18:00","4.8","","-4.5","","51","","","","17","","31","","64.4","","97.83","","","","","","NA"
"-120.45","50.70","KAMLOOPS A","1163781","2020-01-04 19:00","2020","01","04","19:00","5.0","","-4.5","","50","","","","4","","17","","64.4","","97.88","","","","","","Mostly Cloudy"
"-120.45","50.70","KAMLOOPS A","1163781","2020-01-04 20:00","2020","01","04","20:00","3.7","","-4.2","","56","","","","10","","14","","64.4","","97.94","","","","","","NA"
"-120.45","50.70","KAMLOOPS A","1163781","2020-01-04 21:00","2020","01","04","21:00","2.7","","-3.3","","65","","","","36","","1","","64.4","","97.97","","","","","","NA"
"-120.45","50.70","KAMLOOPS A","1163781","2020-01-04 22:00","2020","01","04","22:00","2.6","","-3.5","","64","","","","35","","3","","64.4","","98.01","","","","","","Cloudy"
"-120.45","50.70","KAMLOOPS A","1163781","2020-01-04 23:00","2020","01","04","23:00","2.6","","-3.8","","63","","","","1","","12","","64.4","","98.01","","","","","","NA"
"-120.45","50.70","KAMLOOPS A","1163781","2020-01-05 00:00","2020","01","05","00:00","4.6","","-4.0","","54","","","","6","","19","","64.4","","97.93","","","","","","NA"
"-120.45","50.70","KAMLOOPS A","1163781","2020-01-05 01:00","2020","01","05","01:00","4.6","","-4.2","","53","","","","8","","18","","64.4","","97.90","","","","","","Mostly Cloudy"
"-120.45","50.70","KAMLOOPS A","1163781","2020-01-05 02:00","2020","01","05","02:00","3.1","","-4.2","","58","","","","6","","14","","64.4","","97.89","","","","","","NA"
"-120.45","50.70","KAMLOOPS A","1163781","2020-01-05 03:00","2020","01","05","03:00","2.0","","-4.1","","64","","","","7","","19","","64.4","","97.84","","","","","","NA"
"-120.45","50.70","KAMLOOPS A","1163781","2020-01-05 04:00","2020","01","05","04:00","2.7","","-4.4","","60","","","","10","","13","","64.4","","97.82","","","","","","Mainly Clear"
"-120.45","50.70","KAMLOOPS A","1163781","2020-01-05 05:00","2020","01","05","05:00","2.3","","-3.7","","65","","","","9","","27","","64.4","","97.76","","","","","","NA"
"-120.45","50.70","KAMLOOPS A","1163781","2020-01-05 06:00","2020","01","05","06:00","2.9","","-3.6","","62","","","","10","","21","","64.4","","97.71","","","","","","NA"
"-120.45","50.70","KAMLOOPS A","1163781","2020-01-05 07:00","2020","01","05","07:00","2.8","","-3.8","","62","","","","9","","32","","64.4","","97.64","","","","","","Mostly Cloudy"
"-120.45","50.70","KAMLOOPS A","1163781","2020-01-05 08:00","2020","01","05","08:00","3.4","","-4.2","","58","","","","8","","28","","64.4","","97.58","","","","","","NA"
"-120.45","50.70","KAMLOOPS A","1163781","2020-01-05 09:00","2020","01","05","09:00","4.4","","-4.8","","51","","","","7","","27","","64.4","","97.54","","","","","","NA"
"-120.45","50.70","KAMLOOPS A","1163781","2020-01-05 10:00","2020","01","05","10:00","5.0","","-4.5","","50","","","","8","","31","","64.4","","97.47","","","","","","Mostly Cloudy"
"-120.45","50.70","KAMLOOPS A","1163781","2020-01-05 11:00","2020","01","05","11:00","5.4","","-4.3","","50","","","","10","","23","","64.4","","97.40","","","","","","NA"
"-120.45","50.70","KAMLOOPS A","1163781","2020-01-05 12:00","2020","01","05","12:00","6.4","","-4.2","","46","","","","10","","28","","64.4","","97.21","","","","","","NA"
"-120.45","50.70","KAMLOOPS A","1163781","2020-01-05 13:00","2020","01","05","13:00","7.1","","-4.5","","44","","","","9","","27","","64.4","","97.10","","","","","","Mostly Cloudy"
"-120.45","50.70","KAMLOOPS A","1163781","2020-01-05 14:00","2020","01","05","14:00","7.4","","-3.3","","47","","","","11","","34","","64.4","","97.04","","","","","","NA"
"-120.45","50.70","KAMLOOPS A","1163781","2020-01-05 15:00","2020","01","05","15:00","6.0","","-1.9","","57","","","","12","","27","","48.3","","97.05","","","","","","NA"
"-120.45","50.70","KAMLOOPS A","1163781","2020-01-05 16:00","2020","01","05","16:00","6.0","","-1.7","","57","","","","12","","17","","64.4","","97.07","","","","","","Mostly Cloudy"
"-120.45","50.70","KAMLOOPS A","1163781","2020-01-05 17:00","2020","01","05","17:00","4.7","","-2.2","","61","","","","25","","12","","64.4","","97.15","","","","","","NA"
"-120.45","50.70","KAMLOOPS A","1163781","2020-01-05 18:00","2020","01","05","18:00","6.4","","-4.4","","46","","","","25","","14","","64.4","","97.24","","","","","","NA"
"-120.45","50.70","KAMLOOPS A","1163781","2020-01-05 19:00","2020","01","05","19:00","2.5","","-1.0","","78","","","","14","","10","","11.3","","97.60","","","","","","Rain Showers"
"-120.45","50.70","KAMLOOPS A","1163781","2020-01-05 20:00","2020","01","05","20:00","0.3","","-0.3","","96","","","","22","","9","","2.4","","97.87","","","","","","Snow"
"-120.45","50.70","KAMLOOPS A","1163781","2020-01-05 21:00","2020","01","05","21:00","0.2","","-0.4","","96","","","","3","","8","","32.2","","97.94","","","","","","NA"
"-120.45","50.70","KAMLOOPS A","1163781","2020-01-05 22:00","2020","01","05","22:00","-1.7","","-2.7","","93","","","","8","","7","","48.3","","97.99","","","","-4","","Mostly Cloudy"
"-120.45","50.70","KAMLOOPS A","1163781","2020-01-05 23:00","2020","01","05","23:00","-2.1","","-3.0","","94","","","","23","","4","","24.1","","98.06","","","","-4","","NA"
"-120.45","50.70","KAMLOOPS A","1163781","2020-01-06 00:00","2020","01","06","00:00","-3.0","","-4.1","","93","","","","36","","2","","32.2","","98.09","","","","-4","","NA"
"-120.45","50.70","KAMLOOPS A","1163781","2020-01-06 01:00","2020","01","06","01:00","-5.0","","-6.2","","91","","","","36","","3","","48.3","","98.08","","","","-6","","Mainly Clear"
"-120.45","50.70","KAMLOOPS A","1163781","2020-01-06 02:00","2020","01","06","02:00","-4.7","","-5.7","","92","","","","36","","2","","48.3","","98.12","","","","-6","","NA"
"-120.45","50.70","KAMLOOPS A","1163781","2020-01-06 03:00","2020","01","06","03:00","-4.0","","-4.9","","93","","","","36","","1","","48.3","","98.13","","","","-4","","NA"
"-120.45","50.70","KAMLOOPS A","1163781","2020-01-06 04:00","2020","01","06","04:00","-3.1","","-4.6","","90","","","","23","","5","","32.2","","98.09","","","","-5","","Snow"
"-120.45","50.70","KAMLOOPS A","1163781","2020-01-06 05:00","2020","01","06","05:00","-3.0","","-4.1","","92","","","","10","","3","","48.3","","98.01","","","","-4","","NA"
"-120.45","50.70","KAMLOOPS A","1163781","2020-01-06 06:00","2020","01","06","06:00","-2.6","","-3.5","","93","","","","11","","5","","4.8","","98.03","","","","-5","","Snow"
"-120.45","50.70","KAMLOOPS A","1163781","2020-01-06 07:00","2020","01","06","07:00","-2.8","","-3.6","","94","","","","8","","12","","4.8","","97.98","","","","-7","","Snow"
"-120.45","50.70","KAMLOOPS A","1163781","2020-01-06 08:00","2020","01","06","08:00","-2.6","","-3.8","","91","","","","9","","19","","4.8","","97.93","","","","-8","","Snow"
"-120.45","50.70","KAMLOOPS A","1163781","2020-01-06 09:00","2020","01","06","09:00","-2.1","","-3.3","","91","","","","9","","16","","4.8","","97.91","","","","-7","","Snow"
"-120.45","50.70","KAMLOOPS A","1163781","2020-01-06 10:00","2020","01","06","10:00","-2.1","","-3.3","","92","","","","9","","22","","3.2","","97.85","","","","-8","","Snow"
"-120.45","50.70","KAMLOOPS A","1163781","2020-01-06 11:00","2020","01","06","11:00","-1.7","","-3.1","","90","","","","11","","20","","6.4","","97.77","","","","-7","","Snow"
"-120.45","50.70","KAMLOOPS A","1163781","2020-01-06 12:00","2020","01","06","12:00","-1.5","","-3.0","","90","","","","11","","15","","6.4","","97.69","","","","-6","","Snow"
"-120.45","50.70","KAMLOOPS A","1163781","2020-01-06 13:00","2020","01","06","13:00","-0.9","","-2.6","","88","","","","11","","10","","16.1","","97.64","","","","-4","","Snow"
"-120.45","50.70","KAMLOOPS A","1163781","2020-01-06 14:00","2020","01","06","14:00","-0.8","","-2.5","","88","","","","9","","14","","16.1","","97.61","","","","-5","","Snow"
"-120.45","50.70","KAMLOOPS A","1163781","2020-01-06 15:00","2020","01","06","15:00","-0.8","","-2.4","","89","","","","5","","8","","24.1","","97.61","","","","-4","","NA"
"-120.45","50.70","KAMLOOPS A","1163781","2020-01-06 16:00","2020","01","06","16:00","-0.9","","-2.7","","87","","","","8","","7","","19.3","","97.63","","","","-3","","Snow"
"-120.45","50.70","KAMLOOPS A","1163781","2020-01-06 17:00","2020","01","06","17:00","-1.0","","-2.7","","88","","","","8","","10","","11.3","","97.68","","","","-5","","Snow"
"-120.45","50.70","KAMLOOPS A","1163781","2020-01-06 18:00","2020","01","06","18:00","-0.9","","-3.0","","86","","","","8","","8","","19.3","","97.68","","","","-4","","NA"
"-120.45","50.70","KAMLOOPS A","1163781","2020-01-06 19:00","2020","01","06","19:00","-0.8","","-3.1","","84","","","","9","","9","","24.1","","97.70","","","","-4","","Cloudy"
"-120.45","50.70","KAMLOOPS A","1163781","2020-01-06 20:00","2020","01","06","20:00","-0.9","","-3.1","","85","","","","11","","6","","11.3","","97.71","","","","-3","","Snow"
"-120.45","50.70","KAMLOOPS A","1163781","2020-01-06 21:00","2020","01","06","21:00","-0.8","","-3.5","","82","","","","11","","10","","19.3","","97.74","","","","-4","","Snow"
"-120.45","50.70","KAMLOOPS A","1163781","2020-01-06 22:00","2020","01","06","22:00","-0.8","","-3.1","","84","","","","9","","9","","24.1","","97.76","","","","-4","","Snow"
"-120.45","50.70","KAMLOOPS A","1163781","2020-01-06 23:00","2020","01","06","23:00","-0.6","","-3.0","","84","","","","10","","10","","32.2","","97.74","","","","-4","","Snow"
"-120.45","50.70","KAMLOOPS A","1163781","2020-01-07 00:00","2020","01","07","00:00","-0.6","","-3.2","","82","","","","11","","14","","32.2","","97.65","","","","-5","","NA"
"-120.45","50.70","KAMLOOPS A","1163781","2020-01-07 01:00","2020","01","07","01:00","-0.6","","-2.8","","85","","","","11","","10","","32.2","","97.62","","","","-4","","Cloudy"
"-120.45","50.70","KAMLOOPS A","1163781","2020-01-07 02:00","2020","01","07","02:00","-0.6","","-3.2","","83","","","","11","","7","","32.2","","97.58","","","","-3","","NA"
"-120.45","50.70","KAMLOOPS A","1163781","2020-01-07 03:00","2020","01","07","03:00","-0.7","","-3.4","","82","","","","13","","10","","16.1","","97.51","","","","-4","","Snow"
"-120.45","50.70","KAMLOOPS A","1163781","2020-01-07 04:00","2020","01","07","04:00","-1.4","","-2.3","","94","","","","11","","9","","2.4","","97.46","","","","-5","","Snow"
"-120.45","50.70","KAMLOOPS A","1163781","2020-01-07 05:00","2020","01","07","05:00","-1.5","","-2.5","","93","","","","12","","15","","1.6","","97.38","","","","-6","","Snow"
"-120.45","50.70","KAMLOOPS A","1163781","2020-01-07 06:00","2020","01","07","06:00","-1.4","","-2.1","","95","","","","11","","15","","2.0","","97.26","","","","-6","","Snow"
"-120.45","50.70","KAMLOOPS A","1163781","2020-01-07 07:00","2020","01","07","07:00","-1.6","","-2.6","","93","","","","13","","14","","2.0","","97.14","","","","-6","","Snow"
"-120.45","50.70","KAMLOOPS A","1163781","2020-01-07 08:00","2020","01","07","08:00","-1.5","","-2.5","","93","","","","12","","14","","8.1","","97.05","","","","-6","","Snow"
"-120.45","50.70","KAMLOOPS A","1163781","2020-01-07 09:00","2020","01","07","09:00","-1.5","","-2.6","","92","","","","11","","18","","12.9","","96.96","","","","-7","","Snow"
"-120.45","50.70","KAMLOOPS A","1163781","2020-01-07 10:00","2020","01","07","10:00","-1.0","","-2.2","","91","","","","11","","19","","24.1","","96.86","","","","-6","","Cloudy"
"-120.45","50.70","KAMLOOPS A","1163781","2020-01-07 11:00","2020","01","07","11:00","-0.5","","-2.1","","89","","","","11","","18","","24.1","","96.73","","","","-6","","NA"
"-120.45","50.70","KAMLOOPS A","1163781","2020-01-07 12:00","2020","01","07","12:00","0.5","","-2.0","","83","","","","9","","21","","32.2","","96.53","","","","","","NA"
"-120.45","50.70","KAMLOOPS A","1163781","2020-01-07 13:00","2020","01","07","13:00","1.2","","-1.9","","80","","","","8","","22","","40.2","","96.37","","","","","","Mostly Cloudy"
"-120.45","50.70","KAMLOOPS A","1163781","2020-01-07 14:00","2020","01","07","14:00","1.0","","-1.7","","83","","","","11","","17","","64.4","","96.30","","","","","","NA"
"-120.45","50.70","KAMLOOPS A","1163781","2020-01-07 15:00","2020","01","07","15:00","1.1","","-1.4","","83","","","","10","","21","","64.4","","96.21","","","","","","NA"
"-120.45","50.70","KAMLOOPS A","1163781","2020-01-07 16:00","2020","01","07","16:00","1.4","","-1.1","","83","","","","11","","23","","64.4","","96.16","","","","","","Mostly Cloudy"
"-120.45","50.70","KAMLOOPS A","1163781","2020-01-07 17:00","2020","01","07","17:00","1.3","","-1.3","","83","","","","11","","25","","64.4","","96.08","","","","","","NA"
"-120.45","50.70","KAMLOOPS A","1163781","2020-01-07 18:00","2020","01","07","18:00","1.4","","-0.4","","88","","","","10","","28","","64.4","","96.01","","","","","","NA"
"-120.45","50.70","KAMLOOPS A","1163781","2020-01-07 19:00","2020","01","07","19:00","1.5","","-0.4","","87","","","","10","","28","","48.3","","95.93","","","","","","Snow Showers"
"-120.45","50.70","KAMLOOPS A","1163781","2020-01-07 20:00","2020","01","07","20:00","1.8","","0.0","","88","","","","9","","34","","48.3","","95.81","","","","","","NA"
"-120.45","50.70","KAMLOOPS A","1163781","2020-01-07 21:00","2020","01","07","21:00","1.8","","-0.2","","87","","","","9","","31","","48.3","","95.75","","","","","","NA"
"-120.45","50.70","KAMLOOPS A","1163781","2020-01-07 22:00","2020","01","07","22:00","2.4","","0.1","","85","","","","9","","26","","32.2","","95.69","","","","","","Cloudy"
"-120.45","50.70","KAMLOOPS A","1163781","2020-01-07 23:00","2020","01","07","23:00","2.6","","0.1","","84","","","","11","","31","","32.2","","95.62","","","","","","NA"
"-120.45","50.70","KAMLOOPS A","1163781","2020-01-08 00:00","2020","01","08","00:00","2.1","","0.0","","86","","","","36","","3","","32.2","","95.63","","","","","","NA"
"-120.45","50.70","KAMLOOPS A","1163781","2020-01-08 01:00","2020","01","08","01:00","1.4","","0.0","","90","","","","28","","12","","32.2","","95.66","","","","","","Mostly Cloudy"
"-120.45","50.70","KAMLOOPS A","1163781","2020-01-08 02:00","2020","01","08","02:00","1.4","","-0.2","","89","","","","28","","12","","32.2","","95.71","","","","","","NA"
"-120.45","50.70","KAMLOOPS A","1163781","2020-01-08 03:00","2020","01","08","03:00","1.9","","-0.3","","86","","","","26","","22","","16.1","","95.86","","","","","","Snow Showers"
"-120.45","50.70","KAMLOOPS A","1163781","2020-01-08 04:00","2020","01","08","04:00","2.3","","-1.6","","75","","","","27","","22","","11.3","","96.08","","","","","","Snow Showers"
"-120.45","50.70","KAMLOOPS A","1163781","2020-01-08 05:00","2020","01","08","05:00","1.6","","-2.5","","75","","","","23","","9","","11.3","","96.20","","","","","","Snow Showers"
"-120.45","50.70","KAMLOOPS A","1163781","2020-01-08 06:00","2020","01","08","06:00","1.9","","-5.2","","60","","","","27","","26","","16.1","","96.26","","","","","","NA"
"-120.45","50.70","KAMLOOPS A","1163781","2020-01-08 07:00","2020","01","08","07:00","1.1","","-5.5","","61","","","","27","","32","","32.2","","96.36","","","","","","Cloudy"
"-120.45","50.70","KAMLOOPS A","1163781","2020-01-08 08:00","2020","01","08","08:00","0.4","","-6.6","","60","","","","26","","26","","32.2","","96.48","","","","","","NA"
"-120.45","50.70","KAMLOOPS A","1163781","2020-01-08 09:00","2020","01","08","09:00","0.1","","-6.6","","61","","","","26","","22","","48.3","","96.56","","","","","","NA"
"-120.45","50.70","KAMLOOPS A","1163781","2020-01-08 10:00","2020","01","08","10:00","-0.1","","-7.1","","59","","","","28","","23","","48.3","","96.65","","","","-6","","Mostly Cloudy"
"-120.45","50.70","KAMLOOPS A","1163781","2020-01-08 11:00","2020","01","08","11:00","-0.1","","-7.2","","59","","","","27","","21","","48.3","","96.72","","","","-6","","NA"
"-120.45","50.70","KAMLOOPS A","1163781","2020-01-08 12:00","2020","01","08","12:00","-0.1","","-7.8","","56","","","","28","","23","","48.3","","96.76","","","","-6","","NA"
"-120.45","50.70","KAMLOOPS A","1163781","2020-01-08 13:00","2020","01","08","13:00","0.2","","-7.7","","56","","","","27","","21","","48.3","","96.80","","","","","","Cloudy"
"-120.45","50.70","KAMLOOPS A","1163781","2020-01-08 14:00","2020","01","08","14:00","0.1","","-7.5","","57","","","","28","","16","","64.4","","96.80","","","","","","NA"
"-120.45","50.70","KAMLOOPS A","1163781","2020-01-08 15:00","2020","01","08","15:00","-0.7","","-5.9","","68","","","","29","","9","","64.4","","96.86","","","","-4","","NA"
"-120.45","50.70","KAMLOOPS A","1163781","2020-01-08 16:00","2020","01","08","16:00","-2.3","","-8.4","","63","","","","25","","8","","64.4","","96.92","","","","-5","","Mainly Clear"
"-120.45","50.70","KAMLOOPS A","1163781","2020-01-08 17:00","2020","01","08","17:00","-2.4","","-8.9","","61","","","","22","","12","","64.4","","96.98","","","","-7","","NA"
"-120.45","50.70","KAMLOOPS A","1163781","2020-01-08 18:00","2020","01","08","18:00","-4.0","","-9.5","","66","","","","24","","14","","64.4","","97.03","","","","-9","","NA"
"-120.45","50.70","KAMLOOPS A","1163781","2020-01-08 19:00","2020","01","08","19:00","-4.2","","-9.7","","66","","","","26","","5","","64.4","","97.11","","","","-6","","Clear"
"-120.45","50.70","KAMLOOPS A","1163781","2020-01-08 20:00","2020","01","08","20:00","-5.6","","-9.5","","74","","","","8","","4","","64.4","","97.18","","","","-7","","NA"
"-120.45","50.70","KAMLOOPS A","1163781","2020-01-08 21:00","2020","01","08","21:00","-7.6","","-11.3","","75","","","","1","","4","","64.4","","97.22","","","","-10","","NA"
"-120.45","50.70","KAMLOOPS A","1163781","2020-01-08 22:00","2020","01","08","22:00","-7.8","","-11.1","","77","","","","36","","3","","32.2","","97.27","","","","-9","","Clear"
"-120.45","50.70","KAMLOOPS A","1163781","2020-01-08 23:00","2020","01","08","23:00","-8.8","","-12.1","","78","","","","36","","2","","32.2","","97.32","","","","-10","","NA"
"-120.45","50.70","KAMLOOPS A","1163781","2020-01-09 00:00","2020","01","09","00:00","-7.7","","-10.6","","80","","","","36","","3","","32.2","","97.37","","","","-9","","NA"
"-120.45","50.70","KAMLOOPS A","1163781","2020-01-09 01:00","2020","01","09","01:00","-7.8","","-10.5","","81","","","","6","","11","","32.2","","97.35","","","","-13","","Cloudy"
"-120.45","50.70","KAMLOOPS A","1163781","2020-01-09 02:00","2020","01","09","02:00","-7.1","","-10.0","","80","","","","10","","4","","32.2","","97.42","","","","-9","","NA"
"-120.45","50.70","KAMLOOPS A","1163781","2020-01-09 03:00","2020","01","09","03:00","-7.4","","-10.5","","78","","","","34","","4","","32.2","","97.50","","","","-9","","NA"
"-120.45","50.70","KAMLOOPS A","1163781","2020-01-09 04:00","2020","01","09","04:00","-6.6","","-9.9","","77","","","","9","","5","","16.1","","97.53","","","","-9","","Snow"
"-120.45","50.70","KAMLOOPS A","1163781","2020-01-09 05:00","2020","01","09","05:00","-6.8","","-9.6","","80","","","","7","","7","","24.1","","97.56","","","","-10","","Snow"
"-120.45","50.70","KAMLOOPS A","1163781","2020-01-09 06:00","2020","01","09","06:00","-6.8","","-10.0","","78","","","","11","","7","","32.2","","97.62","","","","-10","","NA"
"-120.45","50.70","KAMLOOPS A","1163781","2020-01-09 07:00","2020","01","09","07:00","-7.4","","-10.2","","80","","","","5","","7","","32.2","","97.70","","","","-11","","Mostly Cloudy"
"-120.45","50.70","KAMLOOPS A","1163781","2020-01-09 08:00","2020","01","09","08:00","-7.2","","-9.5","","84","","","","7","","9","","12.9","","97.81","","","","-12","","Snow"
"-120.45","50.70","KAMLOOPS A","1163781","2020-01-09 09:00","2020","01","09","09:00","-6.6","","-9.0","","83","","","","8","","7","","32.2","","97.84","","","","-10","","NA"
"-120.45","50.70","KAMLOOPS A","1163781","2020-01-09 10:00","2020","01","09","10:00","-5.9","","-9.3","","77","","","","11","","5","","64.4","","97.88","","","","-8","","Mostly Cloudy"
"-120.45","50.70","KAMLOOPS A","1163781","2020-01-09 11:00","2020","01","09","11:00","-5.3","","-9.0","","76","","","","20","","3","","64.4","","97.88","","","","-7","","NA"
"-120.45","50.70","KAMLOOPS A","1163781","2020-01-09 12:00","2020","01","09","12:00","-4.6","","-8.6","","74","","","","25","","4","","64.4","","97.86","","","","-6","","NA"
"-120.45","50.70","KAMLOOPS A","1163781","2020-01-09 13:00","2020","01","09","13:00","-4.3","","-8.5","","73","","","","36","","1","","64.4","","97.84","","","","-5","","Mostly Cloudy"
"-120.45","50.70","KAMLOOPS A","1163781","2020-01-09 14:00","2020","01","09","14:00","-3.5","","-8.2","","70","","","","36","","1","","64.4","","97.84","","","","-4","","NA"
"-120.45","50.70","KAMLOOPS A","1163781","2020-01-09 15:00","2020","01","09","15:00","-3.6","","-7.5","","74","","","","10","","8","","64.4","","97.87","","","","-7","","NA"
"-120.45","50.70","KAMLOOPS A","1163781","2020-01-09 16:00","2020","01","09","16:00","-3.7","","-7.7","","74","","","","11","","17","","64.4","","97.89","","","","-9","","Mostly Cloudy"
"-120.45","50.70","KAMLOOPS A","1163781","2020-01-09 17:00","2020","01","09","17:00","-4.1","","-7.8","","76","","","","11","","16","","64.4","","97.90","","","","-10","","NA"
"-120.45","50.70","KAMLOOPS A","1163781","2020-01-09 18:00","2020","01","09","18:00","-4.8","","-8.5","","76","","","","8","","11","","64.4","","97.90","","","","-9","","NA"
"-120.45","50.70","KAMLOOPS A","1163781","2020-01-09 19:00","2020","01","09","19:00","-4.9","","-8.2","","77","","","","9","","11","","64.4","","97.92","","","","-9","","Mostly Cloudy"
"-120.45","50.70","KAMLOOPS A","1163781","2020-01-09 20:00","2020","01","09","20:00","-6.2","","-8.9","","81","","","","4","","4","","64.4","","97.91","","","","-8","","NA"
"-120.45","50.70","KAMLOOPS A","1163781","2020-01-09 21:00","2020","01","09","21:00","-5.3","","-8.3","","79","","","","12","","10","","64.4","","97.90","","","","-10","","NA"
"-120.45","50.70","KAMLOOPS A","1163781","2020-01-09 22:00","2020","01","09","22:00","-5.1","","-8.4","","78","","","","9","","10","","64.4","","97.89","","","","-9","","Cloudy"
"-120.45","50.70","KAMLOOPS A","1163781","2020-01-09 23:00","2020","01","09","23:00","-5.5","","-8.4","","80","","","","14","","5","","64.4","","97.82","","","","-8","","NA"
"-120.45","50.70","KAMLOOPS A","1163781","2020-01-10 00:00","2020","01","10","00:00","-5.6","","-8.5","","80","","","","9","","14","","64.4","","97.78","","","","-11","","NA"
"-120.45","50.70","KAMLOOPS A","1163781","2020-01-10 01:00","2020","01","10","01:00","-5.4","","-7.9","","83","","","","12","","7","","64.4","","97.75","","","","-9","","Mostly Cloudy"
"-120.45","50.70","KAMLOOPS A","1163781","2020-01-10 02:00","2020","01","10","02:00","-5.2","","-8.0","","81","","","","11","","17","","64.4","","97.66","","","","-11","","NA"
"-120.45","50.70","KAMLOOPS A","1163781","2020-01-10 03:00","2020","01","10","03:00","-4.9","","-7.8","","81","","","","11","","16","","64.4","","97.57","","","","-11","","NA"
"-120.45","50.70","KAMLOOPS A","1163781","2020-01-10 04:00","2020","01","10","04:00","-4.4","","-7.6","","78","","","","10","","18","","64.4","","97.48","","","","-10","","Cloudy"
"-120.45","50.70","KAMLOOPS A","1163781","2020-01-10 05:00","2020","01","10","05:00","-4.6","","-6.3","","88","","","","10","","17","","2.4","","97.38","","","","-10","","Snow"
"-120.45","50.70","KAMLOOPS A","1163781","2020-01-10 06:00","2020","01","10","06:00","-3.8","","-5.3","","90","","","","10","","33","","4.8","","97.23","","","","-12","","Snow"
"-120.45","50.70","KAMLOOPS A","1163781","2020-01-10 07:00","2020","01","10","07:00","-3.2","","-5.3","","86","","","","9","","28","","16.1","","97.10","","","","-10","","Cloudy"
"-120.45","50.70","KAMLOOPS A","1163781","2020-01-10 08:00","2020","01","10","08:00","-2.6","","-4.9","","84","","","","10","","24","","32.2","","96.97","","","","-9","","NA"
"-120.45","50.70","KAMLOOPS A","1163781","2020-01-10 09:00","2020","01","10","09:00","-2.2","","-5.8","","76","","","","8","","19","","32.2","","96.92","","","","-8","","NA"
"-120.45","50.70","KAMLOOPS A","1163781","2020-01-10 10:00","2020","01","10","10:00","-1.9","","-6.1","","73","","","","9","","27","","64.4","","96.81","","","","-9","","Mostly Cloudy"
"-120.45","50.70","KAMLOOPS A","1163781","2020-01-10 11:00","2020","01","10","11:00","-1.3","","-5.5","","73","","","","9","","25","","48.3","","96.68","","","","-8","","NA"
"-120.45","50.70","KAMLOOPS A","1163781","2020-01-10 12:00","2020","01","10","12:00","-0.6","","-5.6","","69","","","","8","","25","","64.4","","96.56","","","","-7","","NA"
"-120.45","50.70","KAMLOOPS A","1163781","2020-01-10 13:00","2020","01","10","13:00","-0.2","","-5.4","","68","","","","9","","26","","64.4","","96.48","","","","-6","","Cloudy"
"-120.45","50.70","KAMLOOPS A","1163781","2020-01-10 14:00","2020","01","10","14:00","0.0","","-5.2","","68","","","","9","","30","","64.4","","96.36","","","","-6","","NA"
"-120.45","50.70","KAMLOOPS A","1163781","2020-01-10 15:00","2020","01","10","15:00","0.1","","-4.7","","70","","","","9","","26","","64.4","","96.30","","","","","","NA"
"-120.45","50.70","KAMLOOPS A","1163781","2020-01-10 16:00","2020","01","10","16:00","-0.1","","-4.4","","73","","","","11","","19","","64.4","","96.30","","","","-5","","Cloudy"
"-120.45","50.70","KAMLOOPS A","1163781","2020-01-10 17:00","2020","01","10","17:00","-0.3","","-4.3","","74","","","","10","","21","","64.4","","96.27","","","","-6","","NA"
"-120.45","50.70","KAMLOOPS A","1163781","2020-01-10 18:00","2020","01","10","18:00","-0.5","","-4.2","","76","","","","12","","18","","64.4","","96.27","","","","-6","","NA"
"-120.45","50.70","KAMLOOPS A","1163781","2020-01-10 19:00","2020","01","10","19:00","-0.5","","-3.8","","78","","","","12","","17","","64.4","","96.22","","","","-5","","Cloudy"
"-120.45","50.70","KAMLOOPS A","1163781","2020-01-10 20:00","2020","01","10","20:00","-0.2","","-3.9","","76","","","","11","","19","","64.4","","96.25","","","","-5","","NA"
"-120.45","50.70","KAMLOOPS A","1163781","2020-01-10 21:00","2020","01","10","21:00","-0.5","","-3.7","","79","","","","11","","23","","64.4","","96.26","","","","-6","","NA"
"-120.45","50.70","KAMLOOPS A","1163781","2020-01-10 22:00","2020","01","10","22:00","-0.7","","-3.5","","82","","","","11","","22","","24.1","","96.28","","","","-6","","Snow"
"-120.45","50.70","KAMLOOPS A","1163781","2020-01-10 23:00","2020","01","10","23:00","-0.9","","-2.6","","88","","","","8","","23","","6.4","","96.29","","","","-7","","Snow"
"-120.45","50.70","KAMLOOPS A","1163781","2020-01-11 00:00","2020","01","11","00:00","-1.4","","-2.1","","95","","","","10","","18","","3.2","","96.25","","","","-7","","Snow"
"-120.45","50.70","KAMLOOPS A","1163781","2020-01-11 01:00","2020","01","11","01:00","-1.4","","-2.1","","95","","","","10","","17","","3.2","","96.23","","","","-7","","Snow"
"-120.45","50.70","KAMLOOPS A","1163781","2020-01-11 02:00","2020","01","11","02:00","-1.4","","-2.0","","95","","","","10","","17","","3.2","","96.25","","","","-7","","Snow"
"-120.45","50.70","KAMLOOPS A","1163781","2020-01-11 03:00","2020","01","11","03:00","-1.3","","-1.9","","96","","","","10","","15","","1.2","","96.28","","","","-6","","Snow"
"-120.45","50.70","KAMLOOPS A","1163781","2020-01-11 04:00","2020","01","11","04:00","-1.2","","-1.9","","95","","","","10","","13","","2.4","","96.28","","","","-5","","Snow"
"-120.45","50.70","KAMLOOPS A","1163781","2020-01-11 05:00","2020","01","11","05:00","-1.3","","-1.9","","96","","","","9","","8","","3.2","","96.29","","","","-4","","Snow"
"-120.45","50.70","KAMLOOPS A","1163781","2020-01-11 06:00","2020","01","11","06:00","-1.4","","-1.9","","96","","","","13","","6","","4.8","","96.30","","","","-4","","Snow"
"-120.45","50.70","KAMLOOPS A","1163781","2020-01-11 07:00","2020","01","11","07:00","-1.4","","-2.0","","96","","","","10","","9","","4.8","","96.32","","","","-5","","Snow"
"-120.45","50.70","KAMLOOPS A","1163781","2020-01-11 08:00","2020","01","11","08:00","-1.5","","-2.2","","95","","","","10","","11","","4.8","","96.35","","","","-5","","Snow"
"-120.45","50.70","KAMLOOPS A","1163781","2020-01-11 09:00","2020","01","11","09:00","-1.2","","-2.5","","91","","","","10","","12","","16.1","","96.42","","","","-5","","Snow"
"-120.45","50.70","KAMLOOPS A","1163781","2020-01-11 10:00","2020","01","11","10:00","-1.1","","-2.5","","90","","","","9","","10","","24.1","","96.46","","","","-5","","Snow"
"-120.45","50.70","KAMLOOPS A","1163781","2020-01-11 11:00","2020","01","11","11:00","-0.6","","-2.3","","88","","","","7","","9","","9.7","","96.43","","","","-4","","Snow Showers"
"-120.45","50.70","KAMLOOPS A","1163781","2020-01-11 12:00","2020","01","11","12:00","-0.3","","-2.3","","86","","","","7","","12","","24.1","","96.38","","","","-4","","Snow Showers"
"-120.45","50.70","KAMLOOPS A","1163781","2020-01-11 13:00","2020","01","11","13:00","-0.2","","-2.2","","86","","","","5","","7","","48.3","","96.36","","","","-3","","Mostly Cloudy"
"-120.45","50.70","KAMLOOPS A","1163781","2020-01-11 14:00","2020","01","11","14:00","0.0","","-2.4","","84","","","","8","","7","","32.2","","96.34","","","","-2","","NA"
"-120.45","50.70","KAMLOOPS A","1163781","2020-01-11 15:00","2020","01","11","15:00","-0.3","","-2.1","","88","","","","36","","2","","2.4","","96.35","","","","-1","","Snow Showers"
"-120.45","50.70","KAMLOOPS A","1163781","2020-01-11 16:00","2020","01","11","16:00","-0.8","","-1.3","","96","","","","31","","9","","8.1","","96.47","","","","-4","","Snow Showers"
"-120.45","50.70","KAMLOOPS A","1163781","2020-01-11 17:00","2020","01","11","17:00","-0.5","","-1.8","","91","","","","20","","7","","32.2","","96.49","","","","-3","","NA"
"-120.45","50.70","KAMLOOPS A","1163781","2020-01-11 18:00","2020","01","11","18:00","-0.7","","-1.7","","93","","","","10","","7","","32.2","","96.51","","","","-3","","NA"
"-120.45","50.70","KAMLOOPS A","1163781","2020-01-11 19:00","2020","01","11","19:00","-1.0","","-1.9","","94","","","","15","","3","","32.2","","96.61","","","","-2","","Cloudy"
"-120.45","50.70","KAMLOOPS A","1163781","2020-01-11 20:00","2020","01","11","20:00","-1.0","","-1.8","","94","","","","36","","3","","19.3","","96.64","","","","-2","","NA"
"-120.45","50.70","KAMLOOPS A","1163781","2020-01-11 21:00","2020","01","11","21:00","-1.5","","-2.2","","95","","","","36","","2","","6.4","","96.64","","","","-2","","Snow Showers"
"-120.45","50.70","KAMLOOPS A","1163781","2020-01-11 22:00","2020","01","11","22:00","-2.0","","-2.4","","97","","","","9","","6","","16.1","","96.65","","","","-4","","Cloudy"
"-120.45","50.70","KAMLOOPS A","1163781","2020-01-11 23:00","2020","01","11","23:00","-1.1","","-1.9","","95","","","","10","","12","","32.2","","96.62","","","","-5","","NA"
"-120.45","50.70","KAMLOOPS A","1163781","2020-01-12 00:00","2020","01","12","00:00","-1.0","","-1.9","","94","","","","11","","12","","16.1","","96.57","","","","-5","","NA"
"-120.45","50.70","KAMLOOPS A","1163781","2020-01-12 01:00","2020","01","12","01:00","-0.8","","-3.0","","86","","","","12","","11","","16.1","","96.51","","","","-5","","Snow"
"-120.45","50.70","KAMLOOPS A","1163781","2020-01-12 02:00","2020","01","12","02:00","-1.5","","-3.3","","87","","","","11","","13","","4.8","","96.45","","","","-6","","Snow"
"-120.45","50.70","KAMLOOPS A","1163781","2020-01-12 03:00","2020","01","12","03:00","-1.7","","-3.6","","86","","","","12","","9","","4.8","","96.39","","","","-5","","Snow"
"-120.45","50.70","KAMLOOPS A","1163781","2020-01-12 04:00","2020","01","12","04:00","-1.9","","-4.4","","83","","","","11","","17","","32.2","","96.31","","","","-7","","Snow"
"-120.45","50.70","KAMLOOPS A","1163781","2020-01-12 05:00","2020","01","12","05:00","-1.9","","-4.8","","81","","","","10","","13","","32.2","","96.20","","","","-6","","NA"
"-120.45","50.70","KAMLOOPS A","1163781","2020-01-12 06:00","2020","01","12","06:00","-2.1","","-5.1","","80","","","","8","","18","","4.8","","96.08","","","","-8","","Snow"
"-120.45","50.70","KAMLOOPS A","1163781","2020-01-12 07:00","2020","01","12","07:00","-2.6","","-4.3","","88","","","","9","","14","","2.4","","96.02","","","","-7","","Snow"
"-120.45","50.70","KAMLOOPS A","1163781","2020-01-12 08:00","2020","01","12","08:00","-2.8","","-4.1","","91","","","","12","","6","","1.2","","96.01","","","","-5","","Snow"
"-120.45","50.70","KAMLOOPS A","1163781","2020-01-12 09:00","2020","01","12","09:00","-8.4","","-11.0","","82","","","","29","","60","","0.8","","96.12","","","","-20","","Snow,Blowing Snow"
"-120.45","50.70","KAMLOOPS A","1163781","2020-01-12 10:00","2020","01","12","10:00","-11.0","","-15.3","","71","","","","27","","55","","4.8","","96.32","","","","-24","","Snow,Blowing Snow"
"-120.45","50.70","KAMLOOPS A","1163781","2020-01-12 11:00","2020","01","12","11:00","-12.9","","-16.5","","75","","","","27","","49","","1.6","","96.43","","","","-26","","Snow,Blowing Snow"
"-120.45","50.70","KAMLOOPS A","1163781","2020-01-12 12:00","2020","01","12","12:00","-13.8","","-17.5","","74","","","","27","","52","","1.2","","96.54","","","","-27","","Snow,Blowing Snow"
"-120.45","50.70","KAMLOOPS A","1163781","2020-01-12 13:00","2020","01","12","13:00","-13.7","","-18.4","","68","","","","27","","54","","8.1","","96.61","","","","-27","","Snow,Blowing Snow"
"-120.45","50.70","KAMLOOPS A","1163781","2020-01-12 14:00","2020","01","12","14:00","-14.2","","-17.6","","76","","","","26","","46","","1.6","","96.74","","","","-27","","Snow Showers,Blowing Snow"
"-120.45","50.70","KAMLOOPS A","1163781","2020-01-12 15:00","2020","01","12","15:00","-14.6","","-17.6","","78","","","","27","","44","","1.2","","96.86","","","","-27","","Snow Showers,Blowing Snow"
"-120.45","50.70","KAMLOOPS A","1163781","2020-01-12 16:00","2020","01","12","16:00","-14.7","","-19.9","","65","","","","28","","52","","4.8","","96.97","","","","-28","","Snow Showers,Blowing Snow"
"-120.45","50.70","KAMLOOPS A","1163781","2020-01-12 17:00","2020","01","12","17:00","-15.1","","-19.9","","67","","","","27","","46","","4.8","","97.13","","","","-28","","Snow Showers,Blowing Snow"
"-120.45","50.70","KAMLOOPS A","1163781","2020-01-12 18:00","2020","01","12","18:00","-15.2","","-21.1","","61","","","","28","","38","","12.9","","97.21","","","","-27","","Blowing Snow"
"-120.45","50.70","KAMLOOPS A","1163781","2020-01-12 19:00","2020","01","12","19:00","-15.4","","-22.4","","56","","","","29","","47","","16.1","","97.33","","","","-29","","Blowing Snow"
"-120.45","50.70","KAMLOOPS A","1163781","2020-01-12 20:00","2020","01","12","20:00","-16.0","","-21.0","","66","","","","29","","50","","11.3","","97.44","","","","-30","","Blowing Snow"
"-120.45","50.70","KAMLOOPS A","1163781","2020-01-12 21:00","2020","01","12","21:00","-16.3","","-22.9","","57","","","","29","","37","","12.9","","97.56","","","","-29","","Blowing Snow"
"-120.45","50.70","KAMLOOPS A","1163781","2020-01-12 22:00","2020","01","12","22:00","-16.9","","-24.5","","53","","","","30","","35","","24.1","","97.64","","","","-29","","Blowing Snow"
"-120.45","50.70","KAMLOOPS A","1163781","2020-01-12 23:00","2020","01","12","23:00","-17.3","","-25.3","","50","","","","30","","31","","48.3","","97.74","","","","-29","","Blowing Snow"
"-120.45","50.70","KAMLOOPS A","1163781","2020-01-13 00:00","2020","01","13","00:00","-17.7","","-25.6","","51","","","","29","","41","","48.3","","97.77","","","","-31","","Blowing Snow"
"-120.45","50.70","KAMLOOPS A","1163781","2020-01-13 01:00","2020","01","13","01:00","-17.7","","-25.8","","50","","","","30","","25","","48.3","","97.85","","","","-29","","Blowing Snow"
"-120.45","50.70","KAMLOOPS A","1163781","2020-01-13 02:00","2020","01","13","02:00","-17.9","","-27.2","","45","","","","28","","24","","48.3","","97.95","","","","-29","","NA"
"-120.45","50.70","KAMLOOPS A","1163781","2020-01-13 03:00","2020","01","13","03:00","-18.6","","-26.9","","49","","","","30","","26","","48.3","","97.99","","","","-30","","NA"
"-120.45","50.70","KAMLOOPS A","1163781","2020-01-13 04:00","2020","01","13","04:00","-19.1","","-28.2","","45","","","","30","","18","","48.3","","98.02","","","","-29","","Mainly Clear"
"-120.45","50.70","KAMLOOPS A","1163781","2020-01-13 05:00","2020","01","13","05:00","-20.0","","-28.6","","47","","","","31","","16","","48.3","","98.06","","","","-29","","NA"
"-120.45","50.70","KAMLOOPS A","1163781","2020-01-13 06:00","2020","01","13","06:00","-19.8","","-28.5","","47","","","","32","","13","","32.2","","98.14","","","","-28","","NA"
"-120.45","50.70","KAMLOOPS A","1163781","2020-01-13 07:00","2020","01","13","07:00","-21.7","","-29.5","","50","","","","29","","12","","32.2","","98.19","","","","-30","","Mainly Clear"
"-120.45","50.70","KAMLOOPS A","1163781","2020-01-13 08:00","2020","01","13","08:00","-22.3","","-26.5","","69","","","","10","","16","","64.4","","98.24","","","","-32","","NA"
"-120.45","50.70","KAMLOOPS A","1163781","2020-01-13 09:00","2020","01","13","09:00","-22.0","","-27.7","","61","","","","11","","13","","64.4","","98.28","","","","-31","","NA"
"-120.45","50.70","KAMLOOPS A","1163781","2020-01-13 10:00","2020","01","13","10:00","-21.9","","-27.7","","60","","","","9","","10","","64.4","","98.31","","","","-29","","Mainly Clear"
"-120.45","50.70","KAMLOOPS A","1163781","2020-01-13 11:00","2020","01","13","11:00","-20.4","","-24.9","","68","","","","10","","12","","64.4","","98.30","","","","-29","","NA"
"-120.45","50.70","KAMLOOPS A","1163781","2020-01-13 12:00","2020","01","13","12:00","-19.2","","-25.6","","58","","","","10","","13","","64.4","","98.26","","","","-27","","NA"
"-120.45","50.70","KAMLOOPS A","1163781","2020-01-13 13:00","2020","01","13","13:00","-18.8","","-26.1","","53","","","","11","","16","","64.4","","98.23","","","","-28","","Mainly Clear"
"-120.45","50.70","KAMLOOPS A","1163781","2020-01-13 14:00","2020","01","13","14:00","-18.3","","-26.3","","50","","","","11","","11","","64.4","","98.20","","","","-26","","NA"
"-120.45","50.70","KAMLOOPS A","1163781","2020-01-13 15:00","2020","01","13","15:00","-18.2","","-26.4","","50","","","","8","","9","","64.4","","98.19","","","","-25","","NA"
"-120.45","50.70","KAMLOOPS A","1163781","2020-01-13 16:00","2020","01","13","16:00","-18.9","","-25.6","","56","","","","15","","8","","64.4","","98.18","","","","-25","","Mainly Clear"
"-120.45","50.70","KAMLOOPS A","1163781","2020-01-13 17:00","2020","01","13","17:00","-20.2","","-27.0","","55","","","","3","","5","","64.4","","98.19","","","","-25","","NA"
"-120.45","50.70","KAMLOOPS A","1163781","2020-01-13 18:00","2020","01","13","18:00","-21.2","","-27.1","","60","","","","35","","7","","64.4","","98.19","","","","-27","","NA"
"-120.45","50.70","KAMLOOPS A","1163781","2020-01-13 19:00","2020","01","13","19:00","-20.9","","-26.6","","61","","","","5","","7","","64.4","","98.17","","","","-27","","Mostly Cloudy"
"-120.45","50.70","KAMLOOPS A","1163781","2020-01-13 20:00","2020","01","13","20:00","-20.6","","-25.9","","63","","","","6","","8","","64.4","","98.15","","","","-27","","NA"
"-120.45","50.70","KAMLOOPS A","1163781","2020-01-13 21:00","2020","01","13","21:00","-20.1","","-25.4","","64","","","","6","","6","","64.4","","98.13","","","","-25","","NA"
"-120.45","50.70","KAMLOOPS A","1163781","2020-01-13 22:00","2020","01","13","22:00","-20.1","","-25.9","","60","","","","7","","7","","32.2","","98.12","","","","-26","","Mostly Cloudy"
"-120.45","50.70","KAMLOOPS A","1163781","2020-01-13 23:00","2020","01","13","23:00","-19.5","","-26.0","","57","","","","12","","11","","32.2","","98.11","","","","-27","","NA"
"-120.45","50.70","KAMLOOPS A","1163781","2020-01-14 00:00","2020","01","14","00:00","-19.8","","-25.5","","61","","","","12","","11","","32.2","","98.10","","","","-27","","NA"
"-120.45","50.70","KAMLOOPS A","1163781","2020-01-14 01:00","2020","01","14","01:00","-20.1","","-26.3","","59","","","","13","","17","","32.2","","98.09","","","","-30","","Cloudy"
"-120.45","50.70","KAMLOOPS A","1163781","2020-01-14 02:00","2020","01","14","02:00","-20.4","","-26.4","","59","","","","13","","15","","32.2","","98.11","","","","-30","","NA"
"-120.45","50.70","KAMLOOPS A","1163781","2020-01-14 03:00","2020","01","14","03:00","-20.7","","-24.5","","72","","","","11","","16","","16.1","","98.11","","","","-30","","Snow"
"-120.45","50.70","KAMLOOPS A","1163781","2020-01-14 04:00","2020","01","14","04:00","-20.7","","-25.2","","68","","","","10","","16","","16.1","","98.08","","","","-30","","Snow"
"-120.45","50.70","KAMLOOPS A","1163781","2020-01-14 05:00","2020","01","14","05:00","-20.9","","-25.0","","71","","","","11","","18","","16.1","","98.07","","","","-31","","Snow"
"-120.45","50.70","KAMLOOPS A","1163781","2020-01-14 06:00","2020","01","14","06:00","-21.1","","-24.9","","72","","","","11","","17","","16.1","","98.08","","","","-31","","Snow"
"-120.45","50.70","KAMLOOPS A","1163781","2020-01-14 07:00","2020","01","14","07:00","-21.4","","-25.4","","71","","","","11","","19","","16.1","","98.10","","","","-32","","Snow"
"-120.45","50.70","KAMLOOPS A","1163781","2020-01-14 08:00","2020","01","14","08:00","-21.1","","-24.3","","75","","","","11","","15","","32.2","","98.15","","","","-30","","Snow"
"-120.45","50.70","KAMLOOPS A","1163781","2020-01-14 09:00","2020","01","14","09:00","-21.0","","-25.4","","69","","","","10","","20","","32.2","","98.19","","","","-32","","Snow"
"-120.45","50.70","KAMLOOPS A","1163781","2020-01-14 10:00","2020","01","14","10:00","-20.4","","-24.5","","70","","","","9","","18","","32.2","","98.24","","","","-30","","Snow"
"-120.45","50.70","KAMLOOPS A","1163781","2020-01-14 11:00","2020","01","14","11:00","-20.4","","-25.2","","66","","","","12","","17","","32.2","","98.26","","","","-30","","Snow"
"-120.45","50.70","KAMLOOPS A","1163781","2020-01-14 12:00","2020","01","14","12:00","-20.8","","-25.2","","68","","","","9","","17","","32.2","","98.26","","","","-31","","Snow"
"-120.45","50.70","KAMLOOPS A","1163781","2020-01-14 13:00","2020","01","14","13:00","-20.5","","-25.5","","65","","","","11","","17","","32.2","","98.23","","","","-30","","Snow"
"-120.45","50.70","KAMLOOPS A","1163781","2020-01-14 14:00","2020","01","14","14:00","-20.1","","-25.5","","63","","","","12","","12","","24.1","","98.22","","","","-28","","Snow"
"-120.45","50.70","KAMLOOPS A","1163781","2020-01-14 15:00","2020","01","14","15:00","-20.2","","-26.0","","61","","","","10","","14","","32.2","","98.24","","","","-29","","Snow"
"-120.45","50.70","KAMLOOPS A","1163781","2020-01-14 16:00","2020","01","14","16:00","-20.1","","-25.6","","62","","","","9","","12","","32.2","","98.25","","","","-28","","Snow"
"-120.45","50.70","KAMLOOPS A","1163781","2020-01-14 17:00","2020","01","14","17:00","-20.2","","-25.4","","64","","","","12","","9","","32.2","","98.29","","","","-27","","Snow"
"-120.45","50.70","KAMLOOPS A","1163781","2020-01-14 18:00","2020","01","14","18:00","-20.4","","-25.5","","64","","","","13","","14","","32.2","","98.31","","","","-29","","Snow"
"-120.45","50.70","KAMLOOPS A","1163781","2020-01-14 19:00","2020","01","14","19:00","-20.3","","-25.6","","63","","","","10","","10","","24.1","","98.34","","","","-28","","Snow"
"-120.45","50.70","KAMLOOPS A","1163781","2020-01-14 20:00","2020","01","14","20:00","-20.4","","-25.9","","63","","","","8","","8","","6.4","","98.39","","","","-27","","Snow"
"-120.45","50.70","KAMLOOPS A","1163781","2020-01-14 21:00","2020","01","14","21:00","-20.9","","-25.6","","66","","","","9","","9","","9.7","","98.43","","","","-28","","Snow"
"-120.45","50.70","KAMLOOPS A","1163781","2020-01-14 22:00","2020","01","14","22:00","-21.9","","-26.5","","67","","","","2","","4","","16.1","","98.48","","","","-26","","Snow"
"-120.45","50.70","KAMLOOPS A","1163781","2020-01-14 23:00","2020","01","14","23:00","-22.6","","-26.8","","69","","","","35","","5","","16.1","","98.52","","","","-27","","Snow"
"-120.45","50.70","KAMLOOPS A","1163781","2020-01-15 00:00","2020","01","15","00:00","-22.3","","-26.8","","67","","","","35","","5","","24.1","","98.58","","","","-27","","Snow"
"-120.45","50.70","KAMLOOPS A","1163781","2020-01-15 01:00","2020","01","15","01:00","-21.5","","-26.3","","66","","","","36","","1","","6.4","","98.56","","","","-22","","Snow"
"-120.45","50.70","KAMLOOPS A","1163781","2020-01-15 02:00","2020","01","15","02:00","-21.5","","-25.3","","72","","","","36","","1","","4.8","","98.58","","","","-22","","Snow"
"-120.45","50.70","KAMLOOPS A","1163781","2020-01-15 03:00","2020","01","15","03:00","-21.6","","-24.9","","75","","","","6","","4","","8.1","","98.55","","","","-25","","Snow"
"-120.45","50.70","KAMLOOPS A","1163781","2020-01-15 04:00","2020","01","15","04:00","-23.0","","-27.1","","69","","","","36","","3","","19.3","","98.54","","","","-26","","Snow"
"-120.45","50.70","KAMLOOPS A","1163781","2020-01-15 05:00","2020","01","15","05:00","-22.5","","-26.4","","71","","","","36","","1","","24.1","","98.53","","","","-23","","Snow"
"-120.45","50.70","KAMLOOPS A","1163781","2020-01-15 06:00","2020","01","15","06:00","-21.8","","-25.5","","73","","","","","","0","","6.4","","98.52","","","","","","Snow"
"-120.45","50.70","KAMLOOPS A","1163781","2020-01-15 07:00","2020","01","15","07:00","-21.7","","-24.8","","76","","","","30","","4","","2.4","","98.54","","","","-25","","Snow"
"-120.45","50.70","KAMLOOPS A","1163781","2020-01-15 08:00","2020","01","15","08:00","-21.5","","-24.7","","76","","","","36","","1","","2.4","","98.51","","","","-22","","Snow"
"-120.45","50.70","KAMLOOPS A","1163781","2020-01-15 09:00","2020","01","15","09:00","-21.3","","-24.6","","76","","","","36","","1","","2.4","","98.53","","","","-22","","Snow"
"-120.45","50.70","KAMLOOPS A","1163781","2020-01-15 10:00","2020","01","15","10:00","-21.1","","-25.1","","71","","","","36","","1","","2.8","","98.54","","","","-22","","Snow"
"-120.45","50.70","KAMLOOPS A","1163781","2020-01-15 11:00","2020","01","15","11:00","-20.3","","-24.8","","68","","","","12","","5","","6.4","","98.49","","","","-25","","Snow"
"-120.45","50.70","KAMLOOPS A","1163781","2020-01-15 12:00","2020","01","15","12:00","-20.3","","-24.9","","67","","","","36","","2","","12.9","","98.37","","","","-22","","Snow"
"-120.45","50.70","KAMLOOPS A","1163781","2020-01-15 13:00","2020","01","15","13:00","-20.1","","-25.7","","61","","","","5","","5","","16.1","","98.23","","","","-24","","Snow"
"-120.45","50.70","KAMLOOPS A","1163781","2020-01-15 14:00","2020","01","15","14:00","-19.8","","-25.3","","62","","","","36","","2","","24.1","","98.13","","","","-22","","NA"
"-120.45","50.70","KAMLOOPS A","1163781","2020-01-15 15:00","2020","01","15","15:00","-19.6","","-25.4","","60","","","","36","","1","","24.1","","97.98","","","","-20","","NA"
"-120.45","50.70","KAMLOOPS A","1163781","2020-01-15 16:00","2020","01","15","16:00","-19.2","","-25.2","","60","","","","6","","4","","24.1","","97.85","","","","-23","","Cloudy"
"-120.45","50.70","KAMLOOPS A","1163781","2020-01-15 17:00","2020","01","15","17:00","-19.5","","-23.4","","72","","","","13","","4","","2.4","","97.67","","","","-23","","Snow"
"-120.45","50.70","KAMLOOPS A","1163781","2020-01-15 18:00","2020","01","15","18:00","-19.8","","-22.6","","78","","","","35","","5","","1.6","","97.50","","","","-24","","Snow"
"-120.45","50.70","KAMLOOPS A","1163781","2020-01-15 19:00","2020","01","15","19:00","-19.8","","-22.5","","79","","","","32","","7","","1.6","","97.42","","","","-25","","Snow"
"-120.45","50.70","KAMLOOPS A","1163781","2020-01-15 20:00","2020","01","15","20:00","-19.7","","-22.4","","79","","","","30","","3","","1.6","","97.32","","","","-22","","Snow"
"-120.45","50.70","KAMLOOPS A","1163781","2020-01-15 21:00","2020","01","15","21:00","-19.6","","-22.4","","78","","","","1","","4","","2.0","","97.27","","","","-23","","Snow"
"-120.45","50.70","KAMLOOPS A","1163781","2020-01-15 22:00","2020","01","15","22:00","-19.3","","-22.4","","77","","","","5","","3","","3.2","","97.21","","","","-22","","Snow"
"-120.45","50.70","KAMLOOPS A","1163781","2020-01-15 23:00","2020","01","15","23:00","-19.1","","-22.2","","77","","","","7","","9","","11.3","","97.15","","","","-26","","Snow"
"-120.45","50.70","KAMLOOPS A","1163781","2020-01-16 00:00","2020","01","16","00:00","-19.6","","-22.7","","76","","","","36","","1","","16.1","","97.07","","","","-20","","Snow"
"-120.45","50.70","KAMLOOPS A","1163781","2020-01-16 01:00","2020","01","16","01:00","-22.6","","-26.2","","73","","","","32","","4","","12.9","","97.02","","","","-26","","Snow"
"-120.45","50.70","KAMLOOPS A","1163781","2020-01-16 02:00","2020","01","16","02:00","-20.8","","-24.7","","71","","","","35","","5","","32.2","","97.00","","","","-25","","NA"
"-120.45","50.70","KAMLOOPS A","1163781","2020-01-16 03:00","2020","01","16","03:00","-21.0","","-24.6","","73","","","","36","","3","","48.3","","97.01","","","","-24","","NA"
"-120.45","50.70","KAMLOOPS A","1163781","2020-01-16 04:00","2020","01","16","04:00","-20.4","","-23.8","","74","","","","31","","4","","24.1","","96.93","","","","-24","","Snow"
"-120.45","50.70","KAMLOOPS A","1163781","2020-01-16 05:00","2020","01","16","05:00","-20.1","","-23.6","","74","","","","28","","3","","32.2","","96.91","","","","-23","","NA"
"-120.45","50.70","KAMLOOPS A","1163781","2020-01-16 06:00","2020","01","16","06:00","-20.2","","-23.3","","77","","","","33","","4","","32.2","","96.88","","","","-24","","NA"
"-120.45","50.70","KAMLOOPS A","1163781","2020-01-16 07:00","2020","01","16","07:00","-20.8","","-24.1","","76","","","","36","","2","","32.2","","96.91","","","","-23","","Cloudy"
"-120.45","50.70","KAMLOOPS A","1163781","2020-01-16 08:00","2020","01","16","08:00","-20.1","","-22.9","","79","","","","5","","5","","32.2","","96.93","","","","-24","","NA"
"-120.45","50.70","KAMLOOPS A","1163781","2020-01-16 09:00","2020","01","16","09:00","-20.3","","-23.2","","78","","","","33","","3","","32.2","","96.93","","","","-23","","NA"
"-120.45","50.70","KAMLOOPS A","1163781","2020-01-16 10:00","2020","01","16","10:00","-18.7","","-22.1","","75","","","","36","","2","","32.2","","96.96","","","","-20","","Mostly Cloudy"
"-120.45","50.70","KAMLOOPS A","1163781","2020-01-16 11:00","2020","01","16","11:00","-18.2","","-22.2","","72","","","","","","0","","32.2","","96.95","","","","","","NA"
"-120.45","50.70","KAMLOOPS A","1163781","2020-01-16 12:00","2020","01","16","12:00","-17.6","","-21.8","","71","","","","36","","3","","32.2","","96.88","","","","-20","","NA"
"-120.45","50.70","KAMLOOPS A","1163781","2020-01-16 13:00","2020","01","16","13:00","-16.8","","-20.5","","74","","","","29","","3","","32.2","","96.86","","","","-19","","Cloudy"
"-120.45","50.70","KAMLOOPS A","1163781","2020-01-16 14:00","2020","01","16","14:00","-16.6","","-19.9","","76","","","","36","","2","","32.2","","96.76","","","","-18","","NA"
"-120.45","50.70","KAMLOOPS A","1163781","2020-01-16 15:00","2020","01","16","15:00","-16.4","","-19.4","","78","","","","26","","8","","32.2","","96.78","","","","-22","","NA"
"-120.45","50.70","KAMLOOPS A","1163781","2020-01-16 16:00","2020","01","16","16:00","-16.4","","-19.8","","76","","","","25","","5","","32.2","","96.79","","","","-20","","Mostly Cloudy"
"-120.45","50.70","KAMLOOPS A","1163781","2020-01-16 17:00","2020","01","16","17:00","-18.3","","-21.5","","77","","","","25","","9","","32.2","","96.88","","","","-25","","NA"
"-120.45","50.70","KAMLOOPS A","1163781","2020-01-16 18:00","2020","01","16","18:00","-17.4","","-20.4","","78","","","","25","","9","","32.2","","96.93","","","","-24","","NA"
"-120.45","50.70","KAMLOOPS A","1163781","2020-01-16 19:00","2020","01","16","19:00","-16.3","","-20.4","","71","","","","22","","16","","32.2","","96.97","","","","-25","","Mostly Cloudy"
"-120.45","50.70","KAMLOOPS A","1163781","2020-01-16 20:00","2020","01","16","20:00","-15.4","","-19.8","","70","","","","25","","13","","32.2","","97.04","","","","-23","","NA"
"-120.45","50.70","KAMLOOPS A","1163781","2020-01-16 21:00","2020","01","16","21:00","-16.8","","-20.4","","74","","","","32","","3","","32.2","","97.09","","","","-19","","NA"
"-120.45","50.70","KAMLOOPS A","1163781","2020-01-16 22:00","2020","01","16","22:00","-15.1","","-18.8","","74","","","","6","","4","","32.2","","97.16","","","","-18","","Mostly Cloudy"
"-120.45","50.70","KAMLOOPS A","1163781","2020-01-16 23:00","2020","01","16","23:00","-14.8","","-18.1","","76","","","","36","","2","","32.2","","97.23","","","","-16","","NA"
"-120.45","50.70","KAMLOOPS A","1163781","2020-01-17 00:00","2020","01","17","00:00","-14.3","","-17.1","","79","","","","36","","3","","32.2","","97.32","","","","-16","","NA"
"-120.45","50.70","KAMLOOPS A","1163781","2020-01-17 01:00","2020","01","17","01:00","-13.9","","-18.1","","71","","","","27","","15","","32.2","","97.42","","","","-22","","Cloudy"
"-120.45","50.70","KAMLOOPS A","1163781","2020-01-17 02:00","2020","01","17","02:00","-14.4","","-18.4","","72","","","","30","","16","","32.2","","97.57","","","","-22","","NA"
"-120.45","50.70","KAMLOOPS A","1163781","2020-01-17 03:00","2020","01","17","03:00","-14.9","","-19.0","","72","","","","28","","21","","32.2","","97.70","","","","-24","","NA"
"-120.45","50.70","KAMLOOPS A","1163781","2020-01-17 04:00","2020","01","17","04:00","-14.6","","-19.2","","69","","","","29","","27","","48.3","","97.82","","","","-25","","Mainly Clear"
"-120.45","50.70","KAMLOOPS A","1163781","2020-01-17 05:00","2020","01","17","05:00","-14.9","","-19.4","","69","","","","27","","33","","48.3","","97.94","","","","-26","","NA"
"-120.45","50.70","KAMLOOPS A","1163781","2020-01-17 06:00","2020","01","17","06:00","-14.7","","-19.7","","67","","","","28","","26","","32.2","","98.07","","","","-25","","NA"
"-120.45","50.70","KAMLOOPS A","1163781","2020-01-17 07:00","2020","01","17","07:00","-14.8","","-20.2","","64","","","","27","","25","","32.2","","98.18","","","","-25","","Cloudy"
"-120.45","50.70","KAMLOOPS A","1163781","2020-01-17 08:00","2020","01","17","08:00","-15.1","","-20.4","","65","","","","27","","21","","32.2","","98.26","","","","-25","","NA"
"-120.45","50.70","KAMLOOPS A","1163781","2020-01-17 09:00","2020","01","17","09:00","-15.2","","-20.5","","64","","","","27","","18","","48.3","","98.39","","","","-24","","NA"
"-120.45","50.70","KAMLOOPS A","1163781","2020-01-17 10:00","2020","01","17","10:00","-14.9","","-20.5","","63","","","","27","","16","","48.3","","98.52","","","","-23","","Mostly Cloudy"
"-120.45","50.70","KAMLOOPS A","1163781","2020-01-17 11:00","2020","01","17","11:00","-14.5","","-20.2","","62","","","","26","","18","","48.3","","98.61","","","","-23","","NA"
"-120.45","50.70","KAMLOOPS A","1163781","2020-01-17 12:00","2020","01","17","12:00","-13.9","","-19.4","","64","","","","29","","12","","32.2","","98.60","","","","-21","","NA"
"-120.45","50.70","KAMLOOPS A","1163781","2020-01-17 13:00","2020","01","17","13:00","-13.8","","-18.3","","69","","","","28","","14","","48.3","","98.63","","","","-21","","Mostly Cloudy"
"-120.45","50.70","KAMLOOPS A","1163781","2020-01-17 14:00","2020","01","17","14:00","-14.6","","-19.4","","67","","","","26","","9","","64.4","","98.65","","","","-20","","NA"
"-120.45","50.70","KAMLOOPS A","1163781","2020-01-17 15:00","2020","01","17","15:00","-13.9","","-19.0","","66","","","","29","","7","","64.4","","98.69","","","","-19","","NA"
"-120.45","50.70","KAMLOOPS A","1163781","2020-01-17 16:00","2020","01","17","16:00","-14.9","","-19.1","","71","","","","22","","7","","64.4","","98.76","","","","-20","","Mainly Clear"
"-120.45","50.70","KAMLOOPS A","1163781","2020-01-17 17:00","2020","01","17","17:00","-16.1","","-19.5","","75","","","","27","","5","","64.4","","98.79","","","","-20","","NA"
"-120.45","50.70","KAMLOOPS A","1163781","2020-01-17 18:00","2020","01","17","18:00","-17.4","","-21.2","","73","","","","24","","8","","64.4","","98.81","","","","-23","","NA"
"-120.45","50.70","KAMLOOPS A","1163781","2020-01-17 19:00","2020","01","17","19:00","-17.8","","-21.3","","75","","","","33","","4","","64.4","","98.82","","","","-21","","Mainly Clear"
"-120.45","50.70","KAMLOOPS A","1163781","2020-01-17 20:00","2020","01","17","20:00","-17.8","","-20.6","","79","","","","10","","4","","64.4","","98.82","","","","-21","","NA"
"-120.45","50.70","KAMLOOPS A","1163781","2020-01-17 21:00","2020","01","17","21:00","-17.1","","-19.9","","79","","","","9","","4","","64.4","","98.81","","","","-20","","NA"
"-120.45","50.70","KAMLOOPS A","1163781","2020-01-17 22:00","2020","01","17","22:00","-17.3","","-20.1","","79","","","","4","","7","","64.4","","98.78","","","","-23","","Mostly Cloudy"
"-120.45","50.70","KAMLOOPS A","1163781","2020-01-17 23:00","2020","01","17","23:00","-17.2","","-20.5","","76","","","","7","","4","","48.3","","98.80","","","","-20","","NA"
"-120.45","50.70","KAMLOOPS A","1163781","2020-01-18 00:00","2020","01","18","00:00","-15.9","","-19.3","","76","","","","7","","10","","48.3","","98.78","","","","-22","","NA"
"-120.45","50.70","KAMLOOPS A","1163781","2020-01-18 01:00","2020","01","18","01:00","-15.5","","-18.9","","76","","","","9","","17","","48.3","","98.70","","","","-24","","Snow"
"-120.45","50.70","KAMLOOPS A","1163781","2020-01-18 02:00","2020","01","18","02:00","-14.8","","-18.4","","75","","","","10","","16","","48.3","","98.65","","","","-23","","NA"
"-120.45","50.70","KAMLOOPS A","1163781","2020-01-18 03:00","2020","01","18","03:00","-14.8","","-17.6","","80","","","","11","","21","","9.7","","98.59","","","","-24","","Snow"
"-120.45","50.70","KAMLOOPS A","1163781","2020-01-18 04:00","2020","01","18","04:00","-14.2","","-16.4","","84","","","","11","","16","","9.7","","98.52","","","","-22","","Snow"
"-120.45","50.70","KAMLOOPS A","1163781","2020-01-18 05:00","2020","01","18","05:00","-14.0","","-16.6","","81","","","","11","","21","","6.4","","98.42","","","","-23","","Snow"
"-120.45","50.70","KAMLOOPS A","1163781","2020-01-18 06:00","2020","01","18","06:00","-13.4","","-15.7","","84","","","","12","","18","","8.1","","98.33","","","","-22","","Snow"
"-120.45","50.70","KAMLOOPS A","1163781","2020-01-18 07:00","2020","01","18","07:00","-13.4","","-16.2","","80","","","","11","","22","","12.9","","98.24","","","","-23","","Snow"
"-120.45","50.70","KAMLOOPS A","1163781","2020-01-18 08:00","2020","01","18","08:00","-12.8","","-15.6","","80","","","","11","","19","","9.7","","98.22","","","","-21","","Snow"
"-120.45","50.70","KAMLOOPS A","1163781","2020-01-18 09:00","2020","01","18","09:00","-11.9","","-14.6","","81","","","","11","","21","","24.1","","98.22","","","","-20","","Blowing Snow"
"-120.45","50.70","KAMLOOPS A","1163781","2020-01-18 10:00","2020","01","18","10:00","-11.2","","-13.8","","81","","","","11","","22","","64.4","","98.17","","","","-20","","Cloudy"
"-120.45","50.70","KAMLOOPS A","1163781","2020-01-18 11:00","2020","01","18","11:00","-9.7","","-12.6","","79","","","","11","","25","","48.3","","98.19","","","","-18","","NA"
"-120.45","50.70","KAMLOOPS A","1163781","2020-01-18 12:00","2020","01","18","12:00","-8.8","","-12.0","","78","","","","9","","31","","48.3","","98.15","","","","-18","","NA"
"-120.45","50.70","KAMLOOPS A","1163781","2020-01-18 13:00","2020","01","18","13:00","-7.7","","-11.6","","74","","","","9","","34","","64.4","","98.13","","","","-17","","Mostly Cloudy"
"-120.45","50.70","KAMLOOPS A","1163781","2020-01-18 14:00","2020","01","18","14:00","-7.3","","-10.7","","77","","","","12","","22","","48.3","","98.16","","","","-15","","NA"
"-120.45","50.70","KAMLOOPS A","1163781","2020-01-18 15:00","2020","01","18","15:00","-7.3","","-10.7","","77","","","","10","","31","","48.3","","98.18","","","","-16","","NA"
"-120.45","50.70","KAMLOOPS A","1163781","2020-01-18 16:00","2020","01","18","16:00","-7.3","","-10.6","","77","","","","9","","29","","48.3","","98.25","","","","-16","","Mostly Cloudy"
"-120.45","50.70","KAMLOOPS A","1163781","2020-01-18 17:00","2020","01","18","17:00","-7.5","","-10.7","","78","","","","10","","32","","48.3","","98.24","","","","-17","","NA"
"-120.45","50.70","KAMLOOPS A","1163781","2020-01-18 18:00","2020","01","18","18:00","-5.7","","-8.9","","78","","","","9","","30","","48.3","","98.32","","","","-14","","NA"
"-120.45","50.70","KAMLOOPS A","1163781","2020-01-18 19:00","2020","01","18","19:00","-6.1","","-9.3","","78","","","","10","","32","","48.3","","98.35","","","","-15","","Mostly Cloudy"
"-120.45","50.70","KAMLOOPS A","1163781","2020-01-18 20:00","2020","01","18","20:00","-4.7","","-7.8","","79","","","","10","","27","","48.3","","98.41","","","","-12","","NA"
"-120.45","50.70","KAMLOOPS A","1163781","2020-01-18 21:00","2020","01","18","21:00","-4.0","","-7.2","","79","","","","11","","33","","48.3","","98.42","","","","-12","","NA"
"-120.45","50.70","KAMLOOPS A","1163781","2020-01-18 22:00","2020","01","18","22:00","-4.0","","-7.3","","78","","","","10","","22","","48.3","","98.42","","","","-11","","Mostly Cloudy"
"-120.45","50.70","KAMLOOPS A","1163781","2020-01-18 23:00","2020","01","18","23:00","-3.6","","-6.8","","79","","","","11","","25","","48.3","","98.43","","","","-11","","NA"
"-120.45","50.70","KAMLOOPS A","1163781","2020-01-19 00:00","2020","01","19","00:00","-2.9","","-5.8","","80","","","","12","","19","","48.3","","98.43","","","","-9","","NA"
"-120.45","50.70","KAMLOOPS A","1163781","2020-01-19 01:00","2020","01","19","01:00","-2.7","","-5.8","","79","","","","11","","24","","48.3","","98.45","","","","-9","","Mostly Cloudy"
"-120.45","50.70","KAMLOOPS A","1163781","2020-01-19 02:00","2020","01","19","02:00","-2.3","","-5.5","","79","","","","10","","26","","48.3","","98.44","","","","-9","","NA"
"-120.45","50.70","KAMLOOPS A","1163781","2020-01-19 03:00","2020","01","19","03:00","-2.1","","-5.2","","79","","","","10","","22","","48.3","","98.44","","","","-8","","NA"
"-120.45","50.70","KAMLOOPS A","1163781","2020-01-19 04:00","2020","01","19","04:00","-1.5","","-4.6","","79","","","","9","","23","","48.3","","98.39","","","","-8","","Mostly Cloudy"
"-120.45","50.70","KAMLOOPS A","1163781","2020-01-19 05:00","2020","01","19","05:00","0.1","","-3.9","","75","","","","10","","16","","48.3","","98.40","","","","","","NA"
"-120.45","50.70","KAMLOOPS A","1163781","2020-01-19 06:00","2020","01","19","06:00","0.5","","-3.4","","75","","","","8","","19","","48.3","","98.38","","","","","","NA"
"-120.45","50.70","KAMLOOPS A","1163781","2020-01-19 07:00","2020","01","19","07:00","-0.1","","-3.4","","78","","","","10","","17","","64.4","","98.40","","","","-5","","Mostly Cloudy"
"-120.45","50.70","KAMLOOPS A","1163781","2020-01-19 08:00","2020","01","19","08:00","0.5","","-3.3","","75","","","","6","","19","","64.4","","98.41","","","","","","NA"
"-120.45","50.70","KAMLOOPS A","1163781","2020-01-19 09:00","2020","01","19","09:00","1.0","","-3.1","","74","","","","8","","16","","64.4","","98.44","","","","","","NA"
"-120.45","50.70","KAMLOOPS A","1163781","2020-01-19 10:00","2020","01","19","10:00","1.2","","-2.8","","75","","","","8","","16","","64.4","","98.43","","","","","","Mostly Cloudy"
"-120.45","50.70","KAMLOOPS A","1163781","2020-01-19 11:00","2020","01","19","11:00","1.2","","-2.5","","76","","","","10","","18","","64.4","","98.42","","","","","","NA"
"-120.45","50.70","KAMLOOPS A","1163781","2020-01-19 12:00","2020","01","19","12:00","3.0","","-2.1","","70","","","","9","","17","","64.4","","98.35","","","","","","NA"
"-120.45","50.70","KAMLOOPS A","1163781","2020-01-19 13:00","2020","01","19","13:00","3.3","","-1.6","","70","","","","9","","19","","64.4","","98.26","","","","","","Mostly Cloudy"
"-120.45","50.70","KAMLOOPS A","1163781","2020-01-19 14:00","2020","01","19","14:00","3.0","","-1.4","","73","","","","11","","19","","64.4","","98.23","","","","","","NA"
"-120.45","50.70","KAMLOOPS A","1163781","2020-01-19 15:00","2020","01","19","15:00","3.7","","-1.2","","71","","","","11","","19","","64.4","","98.21","","","","","","NA"
"-120.45","50.70","KAMLOOPS A","1163781","2020-01-19 16:00","2020","01","19","16:00","3.0","","-1.1","","74","","","","11","","24","","64.4","","98.15","","","","","","Mostly Cloudy"
"-120.45","50.70","KAMLOOPS A","1163781","2020-01-19 17:00","2020","01","19","17:00","3.3","","-1.4","","71","","","","13","","21","","64.4","","98.17","","","","","","NA"
"-120.45","50.70","KAMLOOPS A","1163781","2020-01-19 18:00","2020","01","19","18:00","3.3","","-0.8","","74","","","","11","","20","","64.4","","98.16","","","","","","NA"
"-120.45","50.70","KAMLOOPS A","1163781","2020-01-19 19:00","2020","01","19","19:00","3.1","","-0.8","","75","","","","10","","21","","64.4","","98.14","","","","","","Cloudy"
"-120.45","50.70","KAMLOOPS A","1163781","2020-01-19 20:00","2020","01","19","20:00","2.8","","-0.9","","76","","","","10","","22","","64.4","","98.10","","","","","","NA"
"-120.45","50.70","KAMLOOPS A","1163781","2020-01-19 21:00","2020","01","19","21:00","2.2","","-0.7","","81","","","","10","","19","","64.4","","98.02","","","","","","NA"
"-120.45","50.70","KAMLOOPS A","1163781","2020-01-19 22:00","2020","01","19","22:00","2.5","","-0.8","","79","","","","9","","21","","64.4","","97.95","","","","","","Mostly Cloudy"
"-120.45","50.70","KAMLOOPS A","1163781","2020-01-19 23:00","2020","01","19","23:00","1.9","","-0.7","","83","","","","9","","17","","64.4","","97.87","","","","","","NA"
"-120.45","50.70","KAMLOOPS A","1163781","2020-01-20 00:00","2020","01","20","00:00","2.9","","-0.3","","80","","","","10","","23","","64.4","","97.78","","","","","","NA"
"-120.45","50.70","KAMLOOPS A","1163781","2020-01-20 01:00","2020","01","20","01:00","2.5","","0.1","","84","","","","11","","26","","64.4","","97.68","","","","","","Mainly Clear"
"-120.45","50.70","KAMLOOPS A","1163781","2020-01-20 02:00","2020","01","20","02:00","2.1","","-0.7","","82","","","","8","","22","","64.4","","97.63","","","","","","NA"
"-120.45","50.70","KAMLOOPS A","1163781","2020-01-20 03:00","2020","01","20","03:00","2.1","","-0.6","","82","","","","8","","21","","64.4","","97.55","","","","","","NA"
"-120.45","50.70","KAMLOOPS A","1163781","2020-01-20 04:00","2020","01","20","04:00","2.5","","-0.1","","83","","","","11","","21","","64.4","","97.46","","","","","","Mostly Cloudy"
"-120.45","50.70","KAMLOOPS A","1163781","2020-01-20 05:00","2020","01","20","05:00","2.1","","-0.4","","84","","","","7","","19","","64.4","","97.40","","","","","","NA"
"-120.45","50.70","KAMLOOPS A","1163781","2020-01-20 06:00","2020","01","20","06:00","2.5","","-0.3","","82","","","","10","","19","","64.4","","97.37","","","","","","NA"
"-120.45","50.70","KAMLOOPS A","1163781","2020-01-20 07:00","2020","01","20","07:00","2.5","","-0.4","","81","","","","9","","19","","64.4","","97.30","","","","","","Mostly Cloudy"
"-120.45","50.70","KAMLOOPS A","1163781","2020-01-20 08:00","2020","01","20","08:00","2.6","","0.0","","83","","","","10","","23","","64.4","","97.28","","","","","","NA"
"-120.45","50.70","KAMLOOPS A","1163781","2020-01-20 09:00","2020","01","20","09:00","2.4","","-0.4","","82","","","","10","","23","","64.4","","97.27","","","","","","NA"
"-120.45","50.70","KAMLOOPS A","1163781","2020-01-20 10:00","2020","01","20","10:00","3.1","","-0.3","","78","","","","9","","23","","64.4","","97.27","","","","","","Mostly Cloudy"
"-120.45","50.70","KAMLOOPS A","1163781","2020-01-20 11:00","2020","01","20","11:00","3.6","","-0.2","","76","","","","9","","25","","64.4","","97.25","","","","","","NA"
"-120.45","50.70","KAMLOOPS A","1163781","2020-01-20 12:00","2020","01","20","12:00","3.5","","-0.2","","77","","","","9","","28","","64.4","","97.20","","","","","","NA"
"-120.45","50.70","KAMLOOPS A","1163781","2020-01-20 13:00","2020","01","20","13:00","3.6","","-0.1","","76","","","","11","","33","","64.4","","97.14","","","","","","Mostly Cloudy"
"-120.45","50.70","KAMLOOPS A","1163781","2020-01-20 14:00","2020","01","20","14:00","4.3","","0.0","","74","","","","7","","23","","64.4","","97.11","","","","","","NA"
"-120.45","50.70","KAMLOOPS A","1163781","2020-01-20 15:00","2020","01","20","15:00","4.1","","0.0","","75","","","","9","","26","","64.4","","97.08","","","","","","NA"
"-120.45","50.70","KAMLOOPS A","1163781","2020-01-20 16:00","2020","01","20","16:00","3.5","","0.0","","78","","","","9","","21","","64.4","","97.08","","","","","","Mostly Cloudy"
"-120.45","50.70","KAMLOOPS A","1163781","2020-01-20 17:00","2020","01","20","17:00","3.4","","0.2","","79","","","","11","","28","","64.4","","97.07","","","","","","NA"
"-120.45","50.70","KAMLOOPS A","1163781","2020-01-20 18:00","2020","01","20","18:00","3.1","","0.0","","80","","","","8","","23","","64.4","","97.04","","","","","","NA"
"-120.45","50.70","KAMLOOPS A","1163781","2020-01-20 19:00","2020","01","20","19:00","3.0","","0.4","","83","","","","10","","26","","64.4","","97.02","","","","","","Mostly Cloudy"
"-120.45","50.70","KAMLOOPS A","1163781","2020-01-20 20:00","2020","01","20","20:00","2.7","","0.1","","83","","","","8","","23","","64.4","","97.02","","","","","","NA"
"-120.45","50.70","KAMLOOPS A","1163781","2020-01-20 21:00","2020","01","20","21:00","3.0","","0.2","","82","","","","10","","30","","64.4","","97.00","","","","","","NA"
"-120.45","50.70","KAMLOOPS A","1163781","2020-01-20 22:00","2020","01","20","22:00","2.9","","0.3","","83","","","","10","","28","","48.3","","96.98","","","","","","Mostly Cloudy"
"-120.45","50.70","KAMLOOPS A","1163781","2020-01-20 23:00","2020","01","20","23:00","2.3","","0.2","","86","","","","10","","28","","48.3","","96.92","","","","","","NA"
"-120.45","50.70","KAMLOOPS A","1163781","2020-01-21 00:00","2020","01","21","00:00","2.3","","0.0","","85","","","","9","","24","","48.3","","96.89","","","","","","NA"
"-120.45","50.70","KAMLOOPS A","1163781","2020-01-21 01:00","2020","01","21","01:00","2.1","","0.1","","86","","","","10","","23","","48.3","","96.84","","","","","","Mostly Cloudy"
"-120.45","50.70","KAMLOOPS A","1163781","2020-01-21 02:00","2020","01","21","02:00","2.1","","0.0","","86","","","","9","","23","","48.3","","96.78","","","","","","NA"
"-120.45","50.70","KAMLOOPS A","1163781","2020-01-21 03:00","2020","01","21","03:00","2.0","","0.0","","86","","","","9","","22","","48.3","","96.73","","","","","","NA"
"-120.45","50.70","KAMLOOPS A","1163781","2020-01-21 04:00","2020","01","21","04:00","1.6","","-0.1","","88","","","","9","","22","","48.3","","96.64","","","","","","Mostly Cloudy"
"-120.45","50.70","KAMLOOPS A","1163781","2020-01-21 05:00","2020","01","21","05:00","1.4","","-0.2","","89","","","","8","","19","","48.3","","96.56","","","","","","NA"
"-120.45","50.70","KAMLOOPS A","1163781","2020-01-21 06:00","2020","01","21","06:00","1.2","","-0.3","","89","","","","8","","18","","32.2","","96.51","","","","","","NA"
"-120.45","50.70","KAMLOOPS A","1163781","2020-01-21 07:00","2020","01","21","07:00","1.0","","-0.3","","91","","","","8","","18","","32.2","","96.45","","","","","","Cloudy"
"-120.45","50.70","KAMLOOPS A","1163781","2020-01-21 08:00","2020","01","21","08:00","1.4","","-0.4","","88","","","","8","","11","","64.4","","96.40","","","","","","NA"
"-120.45","50.70","KAMLOOPS A","1163781","2020-01-21 09:00","2020","01","21","09:00","1.1","","-0.3","","90","","","","9","","13","","64.4","","96.34","","","","","","NA"
"-120.45","50.70","KAMLOOPS A","1163781","2020-01-21 10:00","2020","01","21","10:00","2.4","","0.4","","87","","","","8","","14","","32.2","","96.30","","","","","","Rain"
"-120.45","50.70","KAMLOOPS A","1163781","2020-01-21 11:00","2020","01","21","11:00","2.5","","0.6","","88","","","","9","","19","","64.4","","96.32","","","","","","Rain"
"-120.45","50.70","KAMLOOPS A","1163781","2020-01-21 12:00","2020","01","21","12:00","2.8","","0.9","","88","","","","9","","21","","64.4","","96.29","","","","","","NA"
"-120.45","50.70","KAMLOOPS A","1163781","2020-01-21 13:00","2020","01","21","13:00","3.8","","1.7","","86","","","","12","","25","","64.4","","96.22","","","","","","Mostly Cloudy"
"-120.45","50.70","KAMLOOPS A","1163781","2020-01-21 14:00","2020","01","21","14:00","3.1","","1.0","","86","","","","6","","28","","64.4","","96.18","","","","","","NA"
"-120.45","50.70","KAMLOOPS A","1163781","2020-01-21 15:00","2020","01","21","15:00","3.2","","0.7","","84","","","","5","","25","","64.4","","96.24","","","","","","NA"
"-120.45","50.70","KAMLOOPS A","1163781","2020-01-21 16:00","2020","01","21","16:00","2.8","","0.6","","85","","","","8","","27","","64.4","","96.29","","","","","","Mostly Cloudy"
"-120.45","50.70","KAMLOOPS A","1163781","2020-01-21 17:00","2020","01","21","17:00","2.4","","0.3","","87","","","","7","","23","","64.4","","96.37","","","","","","NA"
"-120.45","50.70","KAMLOOPS A","1163781","2020-01-21 18:00","2020","01","21","18:00","2.2","","0.4","","88","","","","6","","22","","64.4","","96.39","","","","","","NA"
"-120.45","50.70","KAMLOOPS A","1163781","2020-01-21 19:00","2020","01","21","19:00","2.3","","0.4","","87","","","","8","","28","","64.4","","96.43","","","","","","Mostly Cloudy"
"-120.45","50.70","KAMLOOPS A","1163781","2020-01-21 20:00","2020","01","21","20:00","2.8","","0.6","","86","","","","11","","25","","64.4","","96.46","","","","","","NA"
"-120.45","50.70","KAMLOOPS A","1163781","2020-01-21 21:00","2020","01","21","21:00","2.0","","0.1","","87","","","","6","","23","","64.4","","96.50","","","","","","NA"
"-120.45","50.70","KAMLOOPS A","1163781","2020-01-21 22:00","2020","01","21","22:00","1.8","","0.1","","89","","","","6","","22","","32.2","","96.58","","","","","","Mostly Cloudy"
"-120.45","50.70","KAMLOOPS A","1163781","2020-01-21 23:00","2020","01","21","23:00","2.1","","0.1","","87","","","","8","","18","","32.2","","96.64","","","","","","NA"
"-120.45","50.70","KAMLOOPS A","1163781","2020-01-22 00:00","2020","01","22","00:00","2.2","","0.2","","86","","","","9","","26","","32.2","","96.65","","","","","","NA"
"-120.45","50.70","KAMLOOPS A","1163781","2020-01-22 01:00","2020","01","22","01:00","2.1","","0.2","","87","","","","10","","30","","32.2","","96.67","","","","","","Mostly Cloudy"
"-120.45","50.70","KAMLOOPS A","1163781","2020-01-22 02:00","2020","01","22","02:00","2.2","","0.0","","86","","","","8","","20","","32.2","","96.75","","","","","","NA"
"-120.45","50.70","KAMLOOPS A","1163781","2020-01-22 03:00","2020","01","22","03:00","2.2","","-0.2","","84","","","","5","","9","","32.2","","96.87","","","","","","NA"
"-120.45","50.70","KAMLOOPS A","1163781","2020-01-22 04:00","2020","01","22","04:00","1.6","","-1.0","","83","","","","36","","3","","32.2","","96.91","","","","","","Mostly Cloudy"
"-120.45","50.70","KAMLOOPS A","1163781","2020-01-22 05:00","2020","01","22","05:00","1.8","","-0.1","","87","","","","24","","7","","32.2","","97.02","","","","","","NA"
"-120.45","50.70","KAMLOOPS A","1163781","2020-01-22 06:00","2020","01","22","06:00","1.7","","-0.4","","86","","","","36","","3","","32.2","","97.12","","","","","","NA"
"-120.45","50.70","KAMLOOPS A","1163781","2020-01-22 07:00","2020","01","22","07:00","0.8","","-0.7","","90","","","","27","","3","","64.4","","97.18","","","","","","Mainly Clear"
"-120.45","50.70","KAMLOOPS A","1163781","2020-01-22 08:00","2020","01","22","08:00","-0.4","","-1.4","","94","","","","30","","5","","64.4","","97.26","","","","-2","","NA"
"-120.45","50.70","KAMLOOPS A","1163781","2020-01-22 09:00","2020","01","22","09:00","0.0","","-1.9","","87","","","","25","","9","","64.4","","97.34","","","","-3","","NA"
"-120.45","50.70","KAMLOOPS A","1163781","2020-01-22 10:00","2020","01","22","10:00","0.7","","-1.3","","87","","","","3","","3","","64.4","","97.40","","","","","","Mostly Cloudy"
"-120.45","50.70","KAMLOOPS A","1163781","2020-01-22 11:00","2020","01","22","11:00","1.7","","0.1","","89","","","","8","","11","","32.2","","97.45","","","","","","NA"
"-120.45","50.70","KAMLOOPS A","1163781","2020-01-22 12:00","2020","01","22","12:00","2.0","","0.2","","88","","","","10","","16","","32.2","","97.40","","","","","","NA"
"-120.45","50.70","KAMLOOPS A","1163781","2020-01-22 13:00","2020","01","22","13:00","2.7","","0.3","","84","","","","8","","9","","32.2","","97.37","","","","","","Mostly Cloudy"
"-120.45","50.70","KAMLOOPS A","1163781","2020-01-22 14:00","2020","01","22","14:00","2.2","","0.1","","86","","","","11","","7","","48.3","","97.36","","","","","","NA"
"-120.45","50.70","KAMLOOPS A","1163781","2020-01-22 15:00","2020","01","22","15:00","2.3","","-0.1","","84","","","","8","","9","","32.2","","97.40","","","","","","NA"
"-120.45","50.70","KAMLOOPS A","1163781","2020-01-22 16:00","2020","01","22","16:00","1.7","","-0.2","","87","","","","6","","12","","48.3","","97.42","","","","","","Cloudy"
"-120.45","50.70","KAMLOOPS A","1163781","2020-01-22 17:00","2020","01","22","17:00","2.1","","-0.1","","86","","","","8","","15","","48.3","","97.43","","","","","","NA"
"-120.45","50.70","KAMLOOPS A","1163781","2020-01-22 18:00","2020","01","22","18:00","2.6","","0.1","","83","","","","9","","20","","48.3","","97.41","","","","","","NA"
"-120.45","50.70","KAMLOOPS A","1163781","2020-01-22 19:00","2020","01","22","19:00","2.7","","0.3","","84","","","","8","","17","","48.3","","97.44","","","","","","Cloudy"
"-120.45","50.70","KAMLOOPS A","1163781","2020-01-22 20:00","2020","01","22","20:00","3.2","","0.1","","80","","","","8","","17","","48.3","","97.42","","","","","","NA"
"-120.45","50.70","KAMLOOPS A","1163781","2020-01-22 21:00","2020","01","22","21:00","2.6","","0.2","","84","","","","9","","23","","48.3","","97.40","","","","","","NA"
"-120.45","50.70","KAMLOOPS A","1163781","2020-01-22 22:00","2020","01","22","22:00","2.8","","0.1","","82","","","","9","","27","","32.2","","97.40","","","","","","Mostly Cloudy"
"-120.45","50.70","KAMLOOPS A","1163781","2020-01-22 23:00","2020","01","22","23:00","2.7","","-0.1","","82","","","","10","","26","","32.2","","97.39","","","","","","NA"
"-120.45","50.70","KAMLOOPS A","1163781","2020-01-23 00:00","2020","01","23","00:00","2.6","","0.2","","84","","","","9","","23","","32.2","","97.40","","","","","","Rain"
"-120.45","50.70","KAMLOOPS A","1163781","2020-01-23 01:00","2020","01","23","01:00","1.9","","0.5","","91","","","","11","","18","","32.2","","97.38","","","","","","Cloudy"
"-120.45","50.70","KAMLOOPS A","1163781","2020-01-23 02:00","2020","01","23","02:00","1.9","","0.8","","93","","","","11","","17","","32.2","","97.33","","","","","","NA"
"-120.45","50.70","KAMLOOPS A","1163781","2020-01-23 03:00","2020","01","23","03:00","2.0","","0.5","","90","","","","11","","21","","32.2","","97.30","","","","","","NA"
"-120.45","50.70","KAMLOOPS A","1163781","2020-01-23 04:00","2020","01","23","04:00","1.9","","0.5","","90","","","","10","","20","","32.2","","97.23","","","","","","Mostly Cloudy"
"-120.45","50.70","KAMLOOPS A","1163781","2020-01-23 05:00","2020","01","23","05:00","2.4","","0.5","","87","","","","11","","16","","32.2","","97.24","","","","","","NA"
"-120.45","50.70","KAMLOOPS A","1163781","2020-01-23 06:00","2020","01","23","06:00","2.1","","0.2","","87","","","","10","","18","","32.2","","97.25","","","","","","NA"
"-120.45","50.70","KAMLOOPS A","1163781","2020-01-23 07:00","2020","01","23","07:00","2.4","","0.3","","86","","","","10","","19","","48.3","","97.21","","","","","","Mostly Cloudy"
"-120.45","50.70","KAMLOOPS A","1163781","2020-01-23 08:00","2020","01","23","08:00","2.5","","0.4","","86","","","","7","","16","","64.4","","97.18","","","","","","NA"
"-120.45","50.70","KAMLOOPS A","1163781","2020-01-23 09:00","2020","01","23","09:00","3.6","","0.8","","82","","","","10","","19","","64.4","","97.24","","","","","","NA"
"-120.45","50.70","KAMLOOPS A","1163781","2020-01-23 10:00","2020","01","23","10:00","4.6","","1.2","","79","","","","10","","21","","64.4","","97.27","","","","","","Mostly Cloudy"
"-120.45","50.70","KAMLOOPS A","1163781","2020-01-23 11:00","2020","01","23","11:00","4.0","","1.1","","81","","","","9","","23","","64.4","","97.13","","","","","","NA"
"-120.45","50.70","KAMLOOPS A","1163781","2020-01-23 12:00","2020","01","23","12:00","5.3","","1.4","","76","","","","10","","30","","64.4","","97.10","","","","","","NA"
"-120.45","50.70","KAMLOOPS A","1163781","2020-01-23 13:00","2020","01","23","13:00","6.7","","1.8","","71","","","","8","","26","","64.4","","97.08","","","","","","Mostly Cloudy"
"-120.45","50.70","KAMLOOPS A","1163781","2020-01-23 14:00","2020","01","23","14:00","6.1","","1.8","","74","","","","9","","27","","64.4","","97.03","","","","","","NA"
"-120.45","50.70","KAMLOOPS A","1163781","2020-01-23 15:00","2020","01","23","15:00","5.9","","1.6","","74","","","","10","","32","","64.4","","97.04","","","","","","NA"
"-120.45","50.70","KAMLOOPS A","1163781","2020-01-23 16:00","2020","01","23","16:00","4.8","","1.4","","78","","","","10","","29","","64.4","","97.03","","","","","","Mostly Cloudy"
"-120.45","50.70","KAMLOOPS A","1163781","2020-01-23 17:00","2020","01","23","17:00","4.5","","1.3","","80","","","","10","","24","","64.4","","97.05","","","","","","NA"
"-120.45","50.70","KAMLOOPS A","1163781","2020-01-23 18:00","2020","01","23","18:00","4.0","","1.1","","82","","","","9","","24","","64.4","","97.02","","","","","","NA"
"-120.45","50.70","KAMLOOPS A","1163781","2020-01-23 19:00","2020","01","23","19:00","4.2","","1.2","","80","","","","9","","20","","64.4","","97.00","","","","","","Mostly Cloudy"
"-120.45","50.70","KAMLOOPS A","1163781","2020-01-23 20:00","2020","01","23","20:00","4.2","","1.4","","82","","","","10","","17","","64.4","","97.02","","","","","","NA"
"-120.45","50.70","KAMLOOPS A","1163781","2020-01-23 21:00","2020","01","23","21:00","4.3","","1.4","","81","","","","8","","15","","64.4","","96.95","","","","","","NA"
"-120.45","50.70","KAMLOOPS A","1163781","2020-01-23 22:00","2020","01","23","22:00","4.3","","1.9","","84","","","","11","","18","","64.4","","96.91","","","","","","Mostly Cloudy"
"-120.45","50.70","KAMLOOPS A","1163781","2020-01-23 23:00","2020","01","23","23:00","3.8","","1.6","","86","","","","9","","20","","64.4","","96.88","","","","","","NA"
"-120.45","50.70","KAMLOOPS A","1163781","2020-01-24 00:00","2020","01","24","00:00","4.2","","1.8","","84","","","","10","","21","","64.4","","96.83","","","","","","NA"
"-120.45","50.70","KAMLOOPS A","1163781","2020-01-24 01:00","2020","01","24","01:00","4.3","","1.9","","84","","","","12","","18","","64.4","","96.76","","","","","","Mostly Cloudy"
"-120.45","50.70","KAMLOOPS A","1163781","2020-01-24 02:00","2020","01","24","02:00","3.7","","1.6","","86","","","","9","","30","","64.4","","96.76","","","","","","NA"
"-120.45","50.70","KAMLOOPS A","1163781","2020-01-24 03:00","2020","01","24","03:00","3.4","","1.4","","87","","","","8","","22","","64.4","","96.72","","","","","","NA"
"-120.45","50.70","KAMLOOPS A","1163781","2020-01-24 04:00","2020","01","24","04:00","3.6","","1.5","","86","","","","9","","28","","64.4","","96.72","","","","","","Mostly Cloudy"
"-120.45","50.70","KAMLOOPS A","1163781","2020-01-24 05:00","2020","01","24","05:00","3.5","","1.4","","87","","","","9","","25","","64.4","","96.71","","","","","","NA"
"-120.45","50.70","KAMLOOPS A","1163781","2020-01-24 06:00","2020","01","24","06:00","3.8","","1.8","","87","","","","10","","21","","64.4","","96.69","","","","","","NA"
"-120.45","50.70","KAMLOOPS A","1163781","2020-01-24 07:00","2020","01","24","07:00","4.0","","1.7","","85","","","","9","","25","","64.4","","96.65","","","","","","Mostly Cloudy"
"-120.45","50.70","KAMLOOPS A","1163781","2020-01-24 08:00","2020","01","24","08:00","4.0","","1.8","","86","","","","8","","29","","64.4","","96.62","","","","","","NA"
"-120.45","50.70","KAMLOOPS A","1163781","2020-01-24 09:00","2020","01","24","09:00","3.8","","1.9","","88","","","","10","","22","","48.3","","96.67","","","","","","NA"
"-120.45","50.70","KAMLOOPS A","1163781","2020-01-24 10:00","2020","01","24","10:00","4.8","","2.2","","83","","","","10","","29","","48.3","","96.66","","","","","","Mostly Cloudy"
"-120.45","50.70","KAMLOOPS A","1163781","2020-01-24 11:00","2020","01","24","11:00","5.2","","2.1","","80","","","","7","","18","","48.3","","96.70","","","","","","NA"
"-120.45","50.70","KAMLOOPS A","1163781","2020-01-24 12:00","2020","01","24","12:00","6.0","","2.7","","79","","","","9","","14","","64.4","","96.71","","","","","","NA"
"-120.45","50.70","KAMLOOPS A","1163781","2020-01-24 13:00","2020","01","24","13:00","6.7","","2.8","","76","","","","11","","18","","64.4","","96.69","","","","","","Mostly Cloudy"
"-120.45","50.70","KAMLOOPS A","1163781","2020-01-24 14:00","2020","01","24","14:00","7.2","","3.0","","74","","","","10","","21","","64.4","","96.70","","","","","","NA"
"-120.45","50.70","KAMLOOPS A","1163781","2020-01-24 15:00","2020","01","24","15:00","6.1","","2.5","","78","","","","10","","21","","64.4","","96.76","","","","","","NA"
"-120.45","50.70","KAMLOOPS A","1163781","2020-01-24 16:00","2020","01","24","16:00","5.3","","2.4","","81","","","","10","","27","","64.4","","96.78","","","","","","Mostly Cloudy"
"-120.45","50.70","KAMLOOPS A","1163781","2020-01-24 17:00","2020","01","24","17:00","5.5","","1.7","","77","","","","7","","14","","64.4","","96.88","","","","","","NA"
"-120.45","50.70","KAMLOOPS A","1163781","2020-01-24 18:00","2020","01","24","18:00","4.8","","1.5","","79","","","","6","","3","","64.4","","96.90","","","","","","NA"
"-120.45","50.70","KAMLOOPS A","1163781","2020-01-24 19:00","2020","01","24","19:00","3.8","","0.9","","81","","","","15","","5","","64.4","","96.99","","","","","","Mainly Clear"
"-120.45","50.70","KAMLOOPS A","1163781","2020-01-24 20:00","2020","01","24","20:00","2.4","","0.5","","87","","","","10","","12","","64.4","","97.06","","","","","","NA"
"-120.45","50.70","KAMLOOPS A","1163781","2020-01-24 21:00","2020","01","24","21:00","0.7","","-0.2","","93","","","","30","","4","","64.4","","97.15","","","","","","NA"
"-120.45","50.70","KAMLOOPS A","1163781","2020-01-24 22:00","2020","01","24","22:00","0.1","","-1.6","","88","","","","30","","3","","64.4","","97.21","","","","","","Clear"
"-120.45","50.70","KAMLOOPS A","1163781","2020-01-24 23:00","2020","01","24","23:00","-0.4","","-1.3","","93","","","","0","","1","","64.4","","97.28","","","","-1","","NA"
"-120.45","50.70","KAMLOOPS A","1163781","2020-01-25 00:00","2020","01","25","00:00","1.4","","0.3","","93","","","","8","","3","","64.4","","97.31","","","","","","NA"
"-120.45","50.70","KAMLOOPS A","1163781","2020-01-25 01:00","2020","01","25","01:00","1.0","","0.5","","97","","","","9","","15","","64.4","","97.32","","","","","","Mainly Clear"
"-120.45","50.70","KAMLOOPS A","1163781","2020-01-25 02:00","2020","01","25","02:00","0.6","","0.1","","96","","","","8","","14","","64.4","","97.35","","","","","","NA"
"-120.45","50.70","KAMLOOPS A","1163781","2020-01-25 03:00","2020","01","25","03:00","1.3","","0.8","","97","","","","10","","23","","16.1","","97.37","","","","","","NA"
"-120.45","50.70","KAMLOOPS A","1163781","2020-01-25 04:00","2020","01","25","04:00","0.8","","0.2","","96","","","","8","","14","","16.1","","97.35","","","","","","Mostly Cloudy"
"-120.45","50.70","KAMLOOPS A","1163781","2020-01-25 05:00","2020","01","25","05:00","0.7","","-0.1","","95","","","","7","","8","","16.1","","97.40","","","","","","NA"
"-120.45","50.70","KAMLOOPS A","1163781","2020-01-25 06:00","2020","01","25","06:00","1.2","","0.0","","92","","","","9","","8","","16.1","","97.41","","","","","","NA"
"-120.45","50.70","KAMLOOPS A","1163781","2020-01-25 07:00","2020","01","25","07:00","1.1","","0.0","","92","","","","12","","5","","48.3","","97.43","","","","","","Mostly Cloudy"
"-120.45","50.70","KAMLOOPS A","1163781","2020-01-25 08:00","2020","01","25","08:00","0.5","","-0.8","","91","","","","36","","3","","48.3","","97.47","","","","","","NA"
"-120.45","50.70","KAMLOOPS A","1163781","2020-01-25 09:00","2020","01","25","09:00","1.2","","-0.1","","91","","","","2","","7","","48.3","","97.50","","","","","","NA"
"-120.45","50.70","KAMLOOPS A","1163781","2020-01-25 10:00","2020","01","25","10:00","1.2","","-0.8","","87","","","","25","","3","","48.3","","97.57","","","","","","Mostly Cloudy"
"-120.45","50.70","KAMLOOPS A","1163781","2020-01-25 11:00","2020","01","25","11:00","1.5","","0.2","","91","","","","3","","5","","32.2","","97.63","","","","","","NA"
"-120.45","50.70","KAMLOOPS A","1163781","2020-01-25 12:00","2020","01","25","12:00","2.1","","0.3","","88","","","","12","","6","","48.3","","97.60","","","","","","NA"
"-120.45","50.70","KAMLOOPS A","1163781","2020-01-25 13:00","2020","01","25","13:00","2.0","","-0.4","","84","","","","10","","13","","48.3","","97.58","","","","","","Mostly Cloudy"
"-120.45","50.70","KAMLOOPS A","1163781","2020-01-25 14:00","2020","01","25","14:00","4.0","","0.6","","78","","","","8","","18","","64.4","","97.53","","","","","","NA"
"-120.45","50.70","KAMLOOPS A","1163781","2020-01-25 15:00","2020","01","25","15:00","4.6","","0.7","","76","","","","8","","12","","64.4","","97.53","","","","","","NA"
"-120.45","50.70","KAMLOOPS A","1163781","2020-01-25 16:00","2020","01","25","16:00","3.4","","0.2","","80","","","","8","","13","","48.3","","97.52","","","","","","Mainly Clear"
"-120.45","50.70","KAMLOOPS A","1163781","2020-01-25 17:00","2020","01","25","17:00","2.2","","-0.1","","85","","","","6","","11","","64.4","","97.58","","","","","","NA"
"-120.45","50.70","KAMLOOPS A","1163781","2020-01-25 18:00","2020","01","25","18:00","-0.2","","-1.8","","89","","","","28","","5","","32.2","","97.62","","","","-2","","NA"
"-120.45","50.70","KAMLOOPS A","1163781","2020-01-25 19:00","2020","01","25","19:00","0.0","","-1.1","","92","","","","31","","7","","32.2","","97.64","","","","-2","","Mainly Clear"
"-120.45","50.70","KAMLOOPS A","1163781","2020-01-25 20:00","2020","01","25","20:00","0.3","","-1.0","","91","","","","9","","4","","32.2","","97.65","","","","","","NA"
"-120.45","50.70","KAMLOOPS A","1163781","2020-01-25 21:00","2020","01","25","21:00","-1.4","","-2.5","","92","","","","36","","2","","32.2","","97.64","","","","-2","","NA"
"-120.45","50.70","KAMLOOPS A","1163781","2020-01-25 22:00","2020","01","25","22:00","-1.0","","-2.1","","93","","","","12","","5","","64.4","","97.59","","","","-3","","Mainly Clear"
"-120.45","50.70","KAMLOOPS A","1163781","2020-01-25 23:00","2020","01","25","23:00","-0.9","","-1.9","","93","","","","36","","2","","48.3","","97.57","","","","-2","","NA"
"-120.45","50.70","KAMLOOPS A","1163781","2020-01-26 00:00","2020","01","26","00:00","-0.8","","-1.6","","94","","","","0","","1","","48.3","","97.55","","","","-1","","NA"
"-120.45","50.70","KAMLOOPS A","1163781","2020-01-26 01:00","2020","01","26","01:00","-0.1","","-1.0","","94","","","","36","","2","","48.3","","97.50","","","","-1","","Cloudy"
"-120.45","50.70","KAMLOOPS A","1163781","2020-01-26 02:00","2020","01","26","02:00","1.1","","0.0","","92","","","","9","","15","","64.4","","97.45","","","","","","NA"
"-120.45","50.70","KAMLOOPS A","1163781","2020-01-26 03:00","2020","01","26","03:00","0.6","","-0.3","","94","","","","9","","18","","64.4","","97.35","","","","","","NA"
"-120.45","50.70","KAMLOOPS A","1163781","2020-01-26 04:00","2020","01","26","04:00","0.3","","-0.8","","92","","","","9","","14","","64.4","","97.26","","","","","","Cloudy"
"-120.45","50.70","KAMLOOPS A","1163781","2020-01-26 05:00","2020","01","26","05:00","0.3","","-0.9","","92","","","","7","","13","","64.4","","97.12","","","","","","NA"
"-120.45","50.70","KAMLOOPS A","1163781","2020-01-26 06:00","2020","01","26","06:00","1.1","","-0.1","","91","","","","7","","14","","64.4","","97.06","","","","","","NA"
"-120.45","50.70","KAMLOOPS A","1163781","2020-01-26 07:00","2020","01","26","07:00","1.6","","0.4","","91","","","","8","","16","","16.1","","97.05","","","","","","Rain"
"-120.45","50.70","KAMLOOPS A","1163781","2020-01-26 08:00","2020","01","26","08:00","1.3","","0.4","","94","","","","9","","13","","32.2","","97.03","","","","","","NA"
"-120.45","50.70","KAMLOOPS A","1163781","2020-01-26 09:00","2020","01","26","09:00","1.1","","0.1","","93","","","","9","","16","","32.2","","97.02","","","","","","NA"
"-120.45","50.70","KAMLOOPS A","1163781","2020-01-26 10:00","2020","01","26","10:00","3.0","","1.3","","89","","","","11","","16","","48.3","","97.06","","","","","","Mostly Cloudy"
"-120.45","50.70","KAMLOOPS A","1163781","2020-01-26 11:00","2020","01","26","11:00","4.4","","1.6","","82","","","","11","","18","","64.4","","97.09","","","","","","NA"
"-120.45","50.70","KAMLOOPS A","1163781","2020-01-26 12:00","2020","01","26","12:00","6.1","","2.1","","75","","","","10","","16","","64.4","","97.05","","","","","","NA"
"-120.45","50.70","KAMLOOPS A","1163781","2020-01-26 13:00","2020","01","26","13:00","7.1","","2.1","","70","","","","10","","30","","64.4","","96.98","","","","","","Mainly Clear"
"-120.45","50.70","KAMLOOPS A","1163781","2020-01-26 14:00","2020","01","26","14:00","7.0","","2.1","","71","","","","11","","36","","64.4","","96.92","","","","","","NA"
"-120.45","50.70","KAMLOOPS A","1163781","2020-01-26 15:00","2020","01","26","15:00","5.8","","1.6","","74","","","","10","","31","","64.4","","96.92","","","","","","NA"
"-120.45","50.70","KAMLOOPS A","1163781","2020-01-26 16:00","2020","01","26","16:00","6.3","","1.2","","70","","","","13","","16","","64.4","","96.97","","","","","","Mainly Clear"
"-120.45","50.70","KAMLOOPS A","1163781","2020-01-26 17:00","2020","01","26","17:00","4.9","","0.9","","75","","","","11","","30","","64.4","","97.03","","","","","","NA"
"-120.45","50.70","KAMLOOPS A","1163781","2020-01-26 18:00","2020","01","26","18:00","4.2","","0.9","","79","","","","7","","30","","32.2","","97.08","","","","","","NA"
"-120.45","50.70","KAMLOOPS A","1163781","2020-01-26 19:00","2020","01","26","19:00","4.0","","1.0","","81","","","","5","","28","","32.2","","97.16","","","","","","Mostly Cloudy"
"-120.45","50.70","KAMLOOPS A","1163781","2020-01-26 20:00","2020","01","26","20:00","4.6","","1.0","","78","","","","10","","34","","32.2","","97.19","","","","","","NA"
"-120.45","50.70","KAMLOOPS A","1163781","2020-01-26 21:00","2020","01","26","21:00","4.3","","0.9","","78","","","","10","","30","","32.2","","97.22","","","","","","NA"
"-120.45","50.70","KAMLOOPS A","1163781","2020-01-26 22:00","2020","01","26","22:00","3.7","","1.1","","83","","","","8","","28","","64.4","","97.25","","","","","","Cloudy"
"-120.45","50.70","KAMLOOPS A","1163781","2020-01-26 23:00","2020","01","26","23:00","3.7","","1.0","","82","","","","6","","24","","64.4","","97.25","","","","","","NA"
"-120.45","50.70","KAMLOOPS A","1163781","2020-01-27 00:00","2020","01","27","00:00","3.8","","0.9","","82","","","","5","","27","","64.4","","97.27","","","","","","NA"
"-120.45","50.70","KAMLOOPS A","1163781","2020-01-27 01:00","2020","01","27","01:00","3.5","","0.8","","83","","","","7","","21","","64.4","","97.27","","","","","","Mostly Cloudy"
"-120.45","50.70","KAMLOOPS A","1163781","2020-01-27 02:00","2020","01","27","02:00","3.3","","0.8","","84","","","","5","","19","","64.4","","97.30","","","","","","NA"
"-120.45","50.70","KAMLOOPS A","1163781","2020-01-27 03:00","2020","01","27","03:00","3.8","","0.8","","81","","","","4","","27","","64.4","","97.30","","","","","","NA"
"-120.45","50.70","KAMLOOPS A","1163781","2020-01-27 04:00","2020","01","27","04:00","2.8","","0.4","","84","","","","11","","17","","64.4","","97.31","","","","","","Mostly Cloudy"
"-120.45","50.70","KAMLOOPS A","1163781","2020-01-27 05:00","2020","01","27","05:00","4.9","","0.4","","72","","","","11","","25","","64.4","","97.31","","","","","","NA"
"-120.45","50.70","KAMLOOPS A","1163781","2020-01-27 06:00","2020","01","27","06:00","3.0","","0.0","","81","","","","7","","13","","64.4","","97.41","","","","","","NA"
"-120.45","50.70","KAMLOOPS A","1163781","2020-01-27 07:00","2020","01","27","07:00","3.0","","0.4","","83","","","","6","","12","","64.4","","97.43","","","","","","Mostly Cloudy"
"-120.45","50.70","KAMLOOPS A","1163781","2020-01-27 08:00","2020","01","27","08:00","3.3","","0.2","","80","","","","10","","5","","64.4","","97.47","","","","","","NA"
"-120.45","50.70","KAMLOOPS A","1163781","2020-01-27 09:00","2020","01","27","09:00","3.4","","-0.2","","77","","","","22","","9","","64.4","","97.52","","","","","","NA"
"-120.45","50.70","KAMLOOPS A","1163781","2020-01-27 10:00","2020","01","27","10:00","4.9","","-0.3","","69","","","","26","","3","","64.4","","97.57","","","","","","Mostly Cloudy"
"-120.45","50.70","KAMLOOPS A","1163781","2020-01-27 11:00","2020","01","27","11:00","5.6","","0.0","","67","","","","9","","12","","64.4","","97.62","","","","","","NA"
"-120.45","50.70","KAMLOOPS A","1163781","2020-01-27 12:00","2020","01","27","12:00","6.8","","0.0","","62","","","","4","","3","","64.4","","97.60","","","","","","NA"
"-120.45","50.70","KAMLOOPS A","1163781","2020-01-27 13:00","2020","01","27","13:00","7.4","","0.5","","61","","","","23","","4","","64.4","","97.57","","","","","","Mainly Clear"
"-120.45","50.70","KAMLOOPS A","1163781","2020-01-27 14:00","2020","01","27","14:00","8.1","","0.0","","57","","","","25","","4","","64.4","","97.54","","","","","","NA"
"-120.45","50.70","KAMLOOPS A","1163781","2020-01-27 15:00","2020","01","27","15:00","7.8","","-0.2","","57","","","","8","","5","","64.4","","97.51","","","","","","NA"
"-120.45","50.70","KAMLOOPS A","1163781","2020-01-27 16:00","2020","01","27","16:00","6.4","","-0.8","","60","","","","17","","3","","64.4","","97.51","","","","","","Mostly Cloudy"
"-120.45","50.70","KAMLOOPS A","1163781","2020-01-27 17:00","2020","01","27","17:00","5.3","","-3.1","","55","","","","7","","11","","64.4","","97.49","","","","","","NA"
"-120.45","50.70","KAMLOOPS A","1163781","2020-01-27 18:00","2020","01","27","18:00","5.8","","-3.7","","50","","","","12","","15","","64.4","","97.46","","","","","","NA"
"-120.45","50.70","KAMLOOPS A","1163781","2020-01-27 19:00","2020","01","27","19:00","4.3","","-1.0","","68","","","","5","","21","","64.4","","97.41","","","","","","Mostly Cloudy"
"-120.45","50.70","KAMLOOPS A","1163781","2020-01-27 20:00","2020","01","27","20:00","3.6","","-0.5","","75","","","","6","","15","","64.4","","97.38","","","","","","NA"
"-120.45","50.70","KAMLOOPS A","1163781","2020-01-27 21:00","2020","01","27","21:00","3.2","","-0.3","","77","","","","8","","18","","64.4","","97.37","","","","","","NA"
"-120.45","50.70","KAMLOOPS A","1163781","2020-01-27 22:00","2020","01","27","22:00","3.1","","-0.2","","79","","","","9","","14","","64.4","","97.36","","","","","","Cloudy"
"-120.45","50.70","KAMLOOPS A","1163781","2020-01-27 23:00","2020","01","27","23:00","2.7","","-0.8","","78","","","","8","","12","","64.4","","97.33","","","","","","NA"
"-120.45","50.70","KAMLOOPS A","1163781","2020-01-28 00:00","2020","01","28","00:00","4.3","","-0.7","","70","","","","12","","11","","48.3","","97.24","","","","","","NA"
"-120.45","50.70","KAMLOOPS A","1163781","2020-01-28 01:00","2020","01","28","01:00","2.9","","0.0","","82","","","","7","","12","","16.1","","97.21","","","","","","Rain"
"-120.45","50.70","KAMLOOPS A","1163781","2020-01-28 02:00","2020","01","28","02:00","3.1","","0.6","","84","","","","9","","20","","19.3","","97.19","","","","","","Rain"
"-120.45","50.70","KAMLOOPS A","1163781","2020-01-28 03:00","2020","01","28","03:00","2.8","","0.7","","86","","","","11","","14","","32.2","","97.14","","","","","","NA"
"-120.45","50.70","KAMLOOPS A","1163781","2020-01-28 04:00","2020","01","28","04:00","3.1","","0.5","","83","","","","10","","21","","32.2","","97.11","","","","","","Cloudy"
"-120.45","50.70","KAMLOOPS A","1163781","2020-01-28 05:00","2020","01","28","05:00","1.7","","0.0","","88","","","","10","","21","","48.3","","97.11","","","","","","NA"
"-120.45","50.70","KAMLOOPS A","1163781","2020-01-28 06:00","2020","01","28","06:00","1.9","","0.0","","87","","","","10","","20","","48.3","","97.16","","","","","","NA"
"-120.45","50.70","KAMLOOPS A","1163781","2020-01-28 07:00","2020","01","28","07:00","2.6","","0.2","","85","","","","11","","18","","32.2","","97.24","","","","","","Cloudy"
"-120.45","50.70","KAMLOOPS A","1163781","2020-01-28 08:00","2020","01","28","08:00","2.1","","-0.2","","84","","","","5","","12","","48.3","","97.30","","","","","","NA"
"-120.45","50.70","KAMLOOPS A","1163781","2020-01-28 09:00","2020","01","28","09:00","3.1","","0.7","","84","","","","5","","14","","64.4","","97.34","","","","","","NA"
"-120.45","50.70","KAMLOOPS A","1163781","2020-01-28 10:00","2020","01","28","10:00","4.5","","1.3","","80","","","","9","","15","","64.4","","97.41","","","","","","Mostly Cloudy"
"-120.45","50.70","KAMLOOPS A","1163781","2020-01-28 11:00","2020","01","28","11:00","4.7","","1.1","","77","","","","11","","18","","64.4","","97.48","","","","","","NA"
"-120.45","50.70","KAMLOOPS A","1163781","2020-01-28 12:00","2020","01","28","12:00","6.5","","1.4","","70","","","","10","","13","","64.4","","97.50","","","","","","NA"
"-120.45","50.70","KAMLOOPS A","1163781","2020-01-28 13:00","2020","01","28","13:00","6.5","","1.0","","68","","","","11","","9","","64.4","","97.51","","","","","","Mainly Clear"
"-120.45","50.70","KAMLOOPS A","1163781","2020-01-28 14:00","2020","01","28","14:00","7.0","","1.1","","66","","","","15","","7","","64.4","","97.57","","","","","","NA"
"-120.45","50.70","KAMLOOPS A","1163781","2020-01-28 15:00","2020","01","28","15:00","7.0","","0.7","","64","","","","10","","14","","64.4","","97.57","","","","","","NA"
"-120.45","50.70","KAMLOOPS A","1163781","2020-01-28 16:00","2020","01","28","16:00","5.8","","0.6","","69","","","","12","","10","","64.4","","97.68","","","","","","Mainly Clear"
"-120.45","50.70","KAMLOOPS A","1163781","2020-01-28 17:00","2020","01","28","17:00","3.7","","0.2","","78","","","","8","","15","","64.4","","97.75","","","","","","NA"
"-120.45","50.70","KAMLOOPS A","1163781","2020-01-28 18:00","2020","01","28","18:00","2.3","","-0.4","","83","","","","7","","13","","64.4","","97.79","","","","","","NA"
"-120.45","50.70","KAMLOOPS A","1163781","2020-01-28 19:00","2020","01","28","19:00","1.0","","-0.8","","88","","","","5","","10","","64.4","","97.88","","","","","","Mainly Clear"
"-120.45","50.70","KAMLOOPS A","1163781","2020-01-28 20:00","2020","01","28","20:00","1.6","","-0.3","","87","","","","19","","5","","64.4","","97.92","","","","","","NA"
"-120.45","50.70","KAMLOOPS A","1163781","2020-01-28 21:00","2020","01","28","21:00","-0.5","","-2.3","","87","","","","36","","3","","64.4","","97.94","","","","-1","","NA"
"-120.45","50.70","KAMLOOPS A","1163781","2020-01-28 22:00","2020","01","28","22:00","-0.3","","-2.3","","87","","","","36","","3","","64.4","","97.93","","","","-1","","Mainly Clear"
"-120.45","50.70","KAMLOOPS A","1163781","2020-01-28 23:00","2020","01","28","23:00","1.2","","-0.6","","88","","","","4","","16","","32.2","","97.91","","","","","","NA"
"-120.45","50.70","KAMLOOPS A","1163781","2020-01-29 00:00","2020","01","29","00:00","1.5","","-0.2","","88","","","","11","","24","","32.2","","97.88","","","","","","NA"
"-120.45","50.70","KAMLOOPS A","1163781","2020-01-29 01:00","2020","01","29","01:00","1.8","","0.0","","88","","","","10","","26","","32.2","","97.85","","","","","","Mostly Cloudy"
"-120.45","50.70","KAMLOOPS A","1163781","2020-01-29 02:00","2020","01","29","02:00","1.9","","0.2","","89","","","","11","","32","","32.2","","97.78","","","","","","NA"
"-120.45","50.70","KAMLOOPS A","1163781","2020-01-29 03:00","2020","01","29","03:00","2.4","","-0.1","","84","","","","9","","36","","32.2","","97.70","","","","","","NA"
"-120.45","50.70","KAMLOOPS A","1163781","2020-01-29 04:00","2020","01","29","04:00","3.1","","-0.1","","80","","","","11","","41","","32.2","","97.60","","","","","","Cloudy"
"-120.45","50.70","KAMLOOPS A","1163781","2020-01-29 05:00","2020","01","29","05:00","2.9","","-0.1","","81","","","","10","","30","","32.2","","97.57","","","","","","NA"
"-120.45","50.70","KAMLOOPS A","1163781","2020-01-29 06:00","2020","01","29","06:00","2.6","","-0.2","","82","","","","9","","26","","32.2","","97.51","","","","","","NA"
"-120.45","50.70","KAMLOOPS A","1163781","2020-01-29 07:00","2020","01","29","07:00","3.0","","-0.2","","79","","","","10","","31","","48.3","","97.38","","","","","","Mostly Cloudy"
"-120.45","50.70","KAMLOOPS A","1163781","2020-01-29 08:00","2020","01","29","08:00","4.1","","-0.4","","72","","","","8","","26","","64.4","","97.35","","","","","","NA"
"-120.45","50.70","KAMLOOPS A","1163781","2020-01-29 09:00","2020","01","29","09:00","4.3","","-0.2","","73","","","","9","","21","","64.4","","97.31","","","","","","NA"
"-120.45","50.70","KAMLOOPS A","1163781","2020-01-29 10:00","2020","01","29","10:00","5.0","","-0.5","","67","","","","8","","16","","64.4","","97.28","","","","","","Cloudy"
"-120.45","50.70","KAMLOOPS A","1163781","2020-01-29 11:00","2020","01","29","11:00","6.0","","-0.5","","63","","","","9","","28","","64.4","","97.24","","","","","","NA"
"-120.45","50.70","KAMLOOPS A","1163781","2020-01-29 12:00","2020","01","29","12:00","5.8","","-0.2","","66","","","","10","","34","","64.4","","97.12","","","","","","NA"
"-120.45","50.70","KAMLOOPS A","1163781","2020-01-29 13:00","2020","01","29","13:00","7.7","","0.2","","59","","","","9","","35","","64.4","","97.03","","","","","","Mostly Cloudy"
"-120.45","50.70","KAMLOOPS A","1163781","2020-01-29 14:00","2020","01","29","14:00","8.8","","0.3","","55","","","","11","","34","","64.4","","96.98","","","","","","NA"
"-120.45","50.70","KAMLOOPS A","1163781","2020-01-29 15:00","2020","01","29","15:00","10.2","","0.8","","52","","","","13","","26","","64.4","","96.94","","","","","","NA"
"-120.45","50.70","KAMLOOPS A","1163781","2020-01-29 16:00","2020","01","29","16:00","7.6","","0.5","","61","","","","11","","21","","64.4","","96.99","","","","","","Mainly Clear"
"-120.45","50.70","KAMLOOPS A","1163781","2020-01-29 17:00","2020","01","29","17:00","6.1","","-0.4","","63","","","","9","","25","","64.4","","97.14","","","","","","NA"
"-120.45","50.70","KAMLOOPS A","1163781","2020-01-29 18:00","2020","01","29","18:00","6.0","","-0.7","","62","","","","17","","10","","64.4","","97.32","","","","","","NA"
"-120.45","50.70","KAMLOOPS A","1163781","2020-01-29 19:00","2020","01","29","19:00","4.2","","-1.3","","67","","","","35","","5","","64.4","","97.42","","","","","","Clear"
"-120.45","50.70","KAMLOOPS A","1163781","2020-01-29 20:00","2020","01","29","20:00","2.4","","-3.1","","67","","","","25","","9","","64.4","","97.55","","","","","","NA"
"-120.45","50.70","KAMLOOPS A","1163781","2020-01-29 21:00","2020","01","29","21:00","2.6","","-3.0","","66","","","","31","","8","","64.4","","97.67","","","","","","NA"
"-120.45","50.70","KAMLOOPS A","1163781","2020-01-29 22:00","2020","01","29","22:00","1.0","","-3.4","","73","","","","1","","3","","32.2","","97.79","","","","","","Clear"
"-120.45","50.70","KAMLOOPS A","1163781","2020-01-29 23:00","2020","01","29","23:00","-0.6","","-4.2","","77","","","","28","","11","","32.2","","97.85","","","","-4","","NA"
"-120.45","50.70","KAMLOOPS A","1163781","2020-01-30 00:00","2020","01","30","00:00","-1.6","","-4.3","","82","","","","8","","7","","32.2","","97.94","","","","-4","","NA"
"-120.45","50.70","KAMLOOPS A","1163781","2020-01-30 01:00","2020","01","30","01:00","-1.6","","-3.8","","86","","","","7","","8","","32.2","","98.05","","","","-5","","Clear"
"-120.45","50.70","KAMLOOPS A","1163781","2020-01-30 02:00","2020","01","30","02:00","-1.6","","-3.5","","87","","","","17","","3","","32.2","","98.13","","","","-3","","NA"
"-120.45","50.70","KAMLOOPS A","1163781","2020-01-30 03:00","2020","01","30","03:00","-2.8","","-4.8","","86","","","","8","","6","","32.2","","98.18","","","","-5","","NA"
"-120.45","50.70","KAMLOOPS A","1163781","2020-01-30 04:00","2020","01","30","04:00","-1.4","","-4.5","","80","","","","11","","8","","32.2","","98.25","","","","-4","","Mostly Cloudy"
"-120.45","50.70","KAMLOOPS A","1163781","2020-01-30 05:00","2020","01","30","05:00","-2.4","","-4.4","","86","","","","36","","3","","32.2","","98.29","","","","-4","","NA"
"-120.45","50.70","KAMLOOPS A","1163781","2020-01-30 06:00","2020","01","30","06:00","-1.2","","-3.3","","86","","","","13","","5","","32.2","","98.30","","","","-3","","NA"
"-120.45","50.70","KAMLOOPS A","1163781","2020-01-30 07:00","2020","01","30","07:00","-0.9","","-2.9","","87","","","","9","","17","","64.4","","98.25","","","","-6","","Mostly Cloudy"
"-120.45","50.70","KAMLOOPS A","1163781","2020-01-30 08:00","2020","01","30","08:00","-0.8","","-3.2","","84","","","","5","","15","","64.4","","98.22","","","","-5","","NA"
"-120.45","50.70","KAMLOOPS A","1163781","2020-01-30 09:00","2020","01","30","09:00","-0.3","","-2.5","","85","","","","9","","12","","64.4","","98.30","","","","-4","","NA"
"-120.45","50.70","KAMLOOPS A","1163781","2020-01-30 10:00","2020","01","30","10:00","0.3","","-1.7","","86","","","","10","","20","","64.4","","98.27","","","","","","Cloudy"
"-120.45","50.70","KAMLOOPS A","1163781","2020-01-30 11:00","2020","01","30","11:00","1.3","","-1.5","","82","","","","10","","27","","64.4","","98.21","","","","","","NA"
"-120.45","50.70","KAMLOOPS A","1163781","2020-01-30 12:00","2020","01","30","12:00","1.6","","-1.7","","79","","","","9","","29","","64.4","","97.99","","","","","","NA"
"-120.45","50.70","KAMLOOPS A","1163781","2020-01-30 13:00","2020","01","30","13:00","2.6","","-1.4","","75","","","","10","","21","","64.4","","97.88","","","","","","Mostly Cloudy"
"-120.45","50.70","KAMLOOPS A","1163781","2020-01-30 14:00","2020","01","30","14:00","2.8","","-1.7","","72","","","","9","","29","","64.4","","97.66","","","","","","NA"
"-120.45","50.70","KAMLOOPS A","1163781","2020-01-30 15:00","2020","01","30","15:00","4.0","","-2.1","","64","","","","10","","41","","64.4","","97.43","","","","","","NA"
"-120.45","50.70","KAMLOOPS A","1163781","2020-01-30 16:00","2020","01","30","16:00","4.6","","-2.7","","59","","","","11","","36","","64.4","","97.28","","","","","","Mostly Cloudy"
"-120.45","50.70","KAMLOOPS A","1163781","2020-01-30 17:00","2020","01","30","17:00","4.4","","-3.5","","56","","","","10","","34","","64.4","","97.25","","","","","","NA"
"-120.45","50.70","KAMLOOPS A","1163781","2020-01-30 18:00","2020","01","30","18:00","4.6","","-3.6","","55","","","","11","","38","","64.4","","97.22","","","","","","NA"
"-120.45","50.70","KAMLOOPS A","1163781","2020-01-30 19:00","2020","01","30","19:00","4.8","","-2.8","","58","","","","12","","34","","64.4","","97.19","","","","","","Mostly Cloudy"
"-120.45","50.70","KAMLOOPS A","1163781","2020-01-30 20:00","2020","01","30","20:00","5.1","","-3.0","","56","","","","12","","24","","64.4","","97.18","","","","","","NA"
"-120.45","50.70","KAMLOOPS A","1163781","2020-01-30 21:00","2020","01","30","21:00","7.9","","-5.2","","39","","","","14","","41","","64.4","","97.04","","","","","","NA"
"-120.45","50.70","KAMLOOPS A","1163781","2020-01-30 22:00","2020","01","30","22:00","5.3","","-3.0","","55","","","","6","","39","","64.4","","97.03","","","","","","Mostly Cloudy"
"-120.45","50.70","KAMLOOPS A","1163781","2020-01-30 23:00","2020","01","30","23:00","3.9","","-2.4","","63","","","","7","","32","","64.4","","97.07","","","","","","NA"
"-120.45","50.70","KAMLOOPS A","1163781","2020-01-31 00:00","2020","01","31","00:00","3.7","","-2.1","","66","","","","9","","24","","64.4","","97.17","","","","","","NA"
"-120.45","50.70","KAMLOOPS A","1163781","2020-01-31 01:00","2020","01","31","01:00","4.2","","-1.4","","67","","","","11","","26","","64.4","","97.25","","","","","","Mostly Cloudy"
"-120.45","50.70","KAMLOOPS A","1163781","2020-01-31 02:00","2020","01","31","02:00","4.0","","-1.2","","69","","","","11","","25","","64.4","","97.32","","","","","","NA"
"-120.45","50.70","KAMLOOPS A","1163781","2020-01-31 03:00","2020","01","31","03:00","3.9","","-1.2","","70","","","","13","","13","","64.4","","97.35","","","","","","NA"
"-120.45","50.70","KAMLOOPS A","1163781","2020-01-31 04:00","2020","01","31","04:00","3.0","","-1.3","","73","","","","3","","10","","64.4","","97.39","","","","","","Mostly Cloudy"
"-120.45","50.70","KAMLOOPS A","1163781","2020-01-31 05:00","2020","01","31","05:00","3.4","","-0.9","","74","","","","10","","9","","64.4","","97.41","","","","","","NA"
"-120.45","50.70","KAMLOOPS A","1163781","2020-01-31 06:00","2020","01","31","06:00","2.6","","-1.4","","75","","","","10","","11","","64.4","","97.41","","","","","","NA"
"-120.45","50.70","KAMLOOPS A","1163781","2020-01-31 07:00","2020","01","31","07:00","1.9","","-2.0","","76","","","","4","","8","","64.4","","97.43","","","","","","Cloudy"
"-120.45","50.70","KAMLOOPS A","1163781","2020-01-31 08:00","2020","01","31","08:00","3.2","","-0.5","","77","","","","7","","12","","64.4","","97.35","","","","","","NA"
"-120.45","50.70","KAMLOOPS A","1163781","2020-01-31 09:00","2020","01","31","09:00","3.8","","0.6","","80","","","","8","","16","","64.4","","97.32","","","","","","NA"
"-120.45","50.70","KAMLOOPS A","1163781","2020-01-31 10:00","2020","01","31","10:00","3.6","","0.8","","82","","","","8","","18","","64.4","","97.23","","","","","","Cloudy"
"-120.45","50.70","KAMLOOPS A","1163781","2020-01-31 11:00","2020","01","31","11:00","4.3","","1.4","","81","","","","10","","34","","64.4","","97.06","","","","","","NA"
"-120.45","50.70","KAMLOOPS A","1163781","2020-01-31 12:00","2020","01","31","12:00","4.7","","1.6","","80","","","","10","","37","","64.4","","96.93","","","","","","NA"
"-120.45","50.70","KAMLOOPS A","1163781","2020-01-31 13:00","2020","01","31","13:00","5.0","","1.6","","78","","","","10","","33","","64.4","","96.86","","","","","","Cloudy"
"-120.45","50.70","KAMLOOPS A","1163781","2020-01-31 14:00","2020","01","31","14:00","5.5","","1.4","","75","","","","9","","39","","64.4","","96.61","","","","","","NA"
"-120.45","50.70","KAMLOOPS A","1163781","2020-01-31 15:00","2020","01","31","15:00","6.4","","1.5","","71","","","","9","","39","","64.4","","96.57","","","","","","NA"
"-120.45","50.70","KAMLOOPS A","1163781","2020-01-31 16:00","2020","01","31","16:00","5.6","","1.5","","75","","","","9","","37","","64.4","","96.54","","","","","","Mostly Cloudy"
"-120.45","50.70","KAMLOOPS A","1163781","2020-01-31 17:00","2020","01","31","17:00","4.7","","1.6","","80","","","","10","","34","","64.4","","96.47","","","","","","NA"
"-120.45","50.70","KAMLOOPS A","1163781","2020-01-31 18:00","2020","01","31","18:00","5.0","","2.0","","81","","","","10","","33","","64.4","","96.28","","","","","","NA"
"-120.45","50.70","KAMLOOPS A","1163781","2020-01-31 19:00","2020","01","31","19:00","5.6","","1.8","","77","","","","5","","22","","64.4","","96.25","","","","","","Mostly Cloudy"
"-120.45","50.70","KAMLOOPS A","1163781","2020-01-31 20:00","2020","01","31","20:00","5.7","","1.9","","76","","","","7","","26","","64.4","","96.08","","","","","","NA"
"-120.45","50.70","KAMLOOPS A","1163781","2020-01-31 21:00","2020","01","31","21:00","7.3","","2.7","","72","","","","18","","9","","64.4","","96.18","","","","","","NA"
"-120.45","50.70","KAMLOOPS A","1163781","2020-01-31 22:00","2020","01","31","22:00","7.9","","2.7","","70","","","","14","","3","","64.4","","96.11","","","","","","Mostly Cloudy"
"-120.45","50.70","KAMLOOPS A","1163781","2020-01-31 23:00","2020","01","31","23:00","13.2","","2.9","","49","","","","18","","27","","64.4","","96.10","","","","","","NA"
