"Longitude (x)","Latitude (y)","Station Name","Climate ID","Date/Time (LST)","Year","Month","Day","Time (LST)","Temp (°C)","Temp Flag","Dew Point Temp (°C)","Dew Point Temp Flag","Rel Hum (%)","Rel Hum Flag","Precip. Amount (mm)","Precip. Amount Flag","Wind Dir (10s deg)","Wind Dir Flag","Wind Spd (km/h)","Wind Spd Flag","Visibility (km)","Visibility Flag","Stn Press (kPa)","Stn Press Flag","Hmdx","Hmdx Flag","Wind Chill","Wind Chill Flag","Weather"
"-84.79","47.97","WAWA A","6059407","2021-06-01 00:00","2021","06","01","00:00"
"-84.79","47.97","WAWA A","6059407","2021-06-01 01:00","2021","06","01","01:00"
"-84.79","47.97","WAWA A","6059407","2021-06-01 02:00","2021","06","01","02:00"
"-84.79","47.97","WAWA A","6059407","2021-06-01 03:00","2021","06","01","03:00"
"-84.79","47.97","WAWA A","6059407","2021-06-01 04:00","2021","06","01","04:00"
"-84.79","47.97","WAWA A","6059407","2021-06-01 05:00","2021","06","01","05:00"
"-84.79","47.97","WAWA A","6059407","2021-06-01 06:00","2021","06","01","06:00","6.5","","6.5","","100","","","","16","","4","","0.2","","98.65","","","","","","Fog"
"-84.79","47.97","WAWA A","6059407","2021-06-01 07:00","2021","06","01","07:00","7.0","","7.0","","100","","","","19","","3","","0.2","","98.69","","","","","","Fog"
"-84.79","47.97","WAWA A","6059407","2021-06-01 08:00","2021","06","01","08:00","8.3","","8.3","","100","","","","36","","2","","0.8","","98.70","","","","","","Fog"
"-84.79","47.97","WAWA A","6059407","2021-06-01 09:00","2021","06","01","09:00","11.7","","11.1","","96","","","","20","","9","","24.1","","98.69","","","","","","NA"
"-84.79","47.97","WAWA A","6059407","2021-06-01 10:00","2021","06","01","10:00","13.2","","8.5","","73","","","","25","","11","","24.1","","98.70","","","","","","Clear"
"-84.79","47.97","WAWA A","6059407","2021-06-01 11:00","2021","06","01","11:00","10.7","","6.9","","77","","","","26","","10","","24.1","","98.73","","","","","","NA"
"-84.79","47.97","WAWA A","6059407","2021-06-01 12:00","2021","06","01","12:00","10.9","","7.5","","79","","","","27","","10","","24.1","","98.76","","","","","","NA"
"-84.79","47.97","WAWA A","6059407","2021-06-01 13:00","2021","06","01","13:00","11.6","","8.6","","82","","","","26","","8","","24.1","","98.74","","","","","","Mainly Clear"
"-84.79","47.97","WAWA A","6059407","2021-06-01 14:00","2021","06","01","14:00","13.7","","9.3","","75","","","","22","","13","","24.1","","98.70","","","","","","NA"
"-84.79","47.97","WAWA A","6059407","2021-06-01 15:00","2021","06","01","15:00","15.6","","9.1","","65","","","","22","","15","","24.1","","98.69","","","","","","NA"
"-84.79","47.97","WAWA A","6059407","2021-06-01 16:00","2021","06","01","16:00","14.9","","7.8","","62","","","","25","","16","","24.1","","98.67","","","","","","Clear"
"-84.79","47.97","WAWA A","6059407","2021-06-01 17:00","2021","06","01","17:00","15.1","","7.8","","62","","","","20","","17","","24.1","","98.65","","","","","","NA"
"-84.79","47.97","WAWA A","6059407","2021-06-01 18:00","2021","06","01","18:00","15.7","","6.6","","55","","","","21","","10","","24.1","","98.60","","","","","","NA"
"-84.79","47.97","WAWA A","6059407","2021-06-01 19:00","2021","06","01","19:00","15.1","","6.2","","55","","","","20","","10","","24.1","","98.57","","","","","","Mainly Clear"
"-84.79","47.97","WAWA A","6059407","2021-06-01 20:00","2021","06","01","20:00"
"-84.79","47.97","WAWA A","6059407","2021-06-01 21:00","2021","06","01","21:00"
"-84.79","47.97","WAWA A","6059407","2021-06-01 22:00","2021","06","01","22:00"
"-84.79","47.97","WAWA A","6059407","2021-06-01 23:00","2021","06","01","23:00"
"-84.79","47.97","WAWA A","6059407","2021-06-02 00:00","2021","06","02","00:00"
"-84.79","47.97","WAWA A","6059407","2021-06-02 01:00","2021","06","02","01:00"
"-84.79","47.97","WAWA A","6059407","2021-06-02 02:00","2021","06","02","02:00"
"-84.79","47.97","WAWA A","6059407","2021-06-02 03:00","2021","06","02","03:00"
"-84.79","47.97","WAWA A","6059407","2021-06-02 04:00","2021","06","02","04:00"
"-84.79","47.97","WAWA A","6059407","2021-06-02 05:00","2021","06","02","05:00"
"-84.79","47.97","WAWA A","6059407","2021-06-02 06:00","2021","06","02","06:00","6.1","","5.4","","95","","","","36","","2","","24.1","","98.40","","","","","","NA"
"-84.79","47.97","WAWA A","6059407","2021-06-02 07:00","2021","06","02","07:00","8.2","","7.3","","94","","","","31","","9","","24.1","","98.35","","","","","","Mostly Cloudy"
"-84.79","47.97","WAWA A","6059407","2021-06-02 08:00","2021","06","02","08:00","12.1","","10.0","","87","","","","36","","2","","24.1","","98.30","","","","","","NA"
"-84.79","47.97","WAWA A","6059407","2021-06-02 09:00","2021","06","02","09:00","15.2","","9.6","","69","","","","20","","6","","24.1","","98.29","","","","","","NA"
"-84.79","47.97","WAWA A","6059407","2021-06-02 10:00","2021","06","02","10:00","13.6","","8.9","","73","","","","23","","13","","24.1","","98.32","","","","","","Mostly Cloudy"
"-84.79","47.97","WAWA A","6059407","2021-06-02 11:00","2021","06","02","11:00","13.5","","11.8","","89","","","","21","","5","","24.1","","98.27","","","","","","NA"
"-84.79","47.97","WAWA A","6059407","2021-06-02 12:00","2021","06","02","12:00","15.1","","12.2","","83","","","","28","","7","","24.1","","98.21","","","","","","NA"
"-84.79","47.97","WAWA A","6059407","2021-06-02 13:00","2021","06","02","13:00","14.2","","11.1","","82","","","","18","","8","","24.1","","98.20","","","","","","Mostly Cloudy"
"-84.79","47.97","WAWA A","6059407","2021-06-02 14:00","2021","06","02","14:00","17.0","","12.1","","73","","","","19","","10","","24.1","","98.12","","","","","","NA"
"-84.79","47.97","WAWA A","6059407","2021-06-02 15:00","2021","06","02","15:00","19.5","","12.0","","61","","","","22","","13","","24.1","","98.02","","","","","","NA"
"-84.79","47.97","WAWA A","6059407","2021-06-02 16:00","2021","06","02","16:00","21.8","","12.2","","54","","","","28","","7","","24.1","","97.95","","","","","","Mainly Clear"
"-84.79","47.97","WAWA A","6059407","2021-06-02 17:00","2021","06","02","17:00","21.0","","11.0","","52","","","","26","","10","","24.1","","97.89","","","","","","NA"
"-84.79","47.97","WAWA A","6059407","2021-06-02 18:00","2021","06","02","18:00","19.7","","10.2","","54","","","","25","","5","","24.1","","97.83","","","","","","NA"
"-84.79","47.97","WAWA A","6059407","2021-06-02 19:00","2021","06","02","19:00","18.4","","9.4","","55","","","","24","","8","","24.1","","97.82","","","","","","Mainly Clear"
"-84.79","47.97","WAWA A","6059407","2021-06-02 20:00","2021","06","02","20:00"
"-84.79","47.97","WAWA A","6059407","2021-06-02 21:00","2021","06","02","21:00"
"-84.79","47.97","WAWA A","6059407","2021-06-02 22:00","2021","06","02","22:00"
"-84.79","47.97","WAWA A","6059407","2021-06-02 23:00","2021","06","02","23:00"
"-84.79","47.97","WAWA A","6059407","2021-06-03 00:00","2021","06","03","00:00"
"-84.79","47.97","WAWA A","6059407","2021-06-03 01:00","2021","06","03","01:00"
"-84.79","47.97","WAWA A","6059407","2021-06-03 02:00","2021","06","03","02:00"
"-84.79","47.97","WAWA A","6059407","2021-06-03 03:00","2021","06","03","03:00"
"-84.79","47.97","WAWA A","6059407","2021-06-03 04:00","2021","06","03","04:00"
"-84.79","47.97","WAWA A","6059407","2021-06-03 05:00","2021","06","03","05:00"
"-84.79","47.97","WAWA A","6059407","2021-06-03 06:00","2021","06","03","06:00","9.4","","8.7","","95","","","","36","","1","","24.1","","97.41","","","","","","NA"
"-84.79","47.97","WAWA A","6059407","2021-06-03 07:00","2021","06","03","07:00","13.6","","10.2","","80","","","","36","","2","","24.1","","97.41","","","","","","Mainly Clear"
"-84.79","47.97","WAWA A","6059407","2021-06-03 08:00","2021","06","03","08:00","13.8","","8.0","","68","","","","23","","3","","24.1","","97.43","","","","","","NA"
"-84.79","47.97","WAWA A","6059407","2021-06-03 09:00","2021","06","03","09:00","12.7","","7.8","","72","","","","25","","5","","24.1","","97.41","","","","","","NA"
"-84.79","47.97","WAWA A","6059407","2021-06-03 10:00","2021","06","03","10:00","12.5","","7.9","","73","","","","20","","3","","24.1","","97.33","","","","","","Mostly Cloudy"
"-84.79","47.97","WAWA A","6059407","2021-06-03 11:00","2021","06","03","11:00","11.7","","10.3","","91","","","","8","","3","","16.1","","97.50","","","","","","Moderate Rain"
"-84.79","47.97","WAWA A","6059407","2021-06-03 12:00","2021","06","03","12:00","11.0","","10.4","","96","","","","20","","4","","24.1","","97.46","","","","","","Rain"
"-84.79","47.97","WAWA A","6059407","2021-06-03 13:00","2021","06","03","13:00","12.9","","12.4","","97","","","","17","","10","","16.1","","97.36","","","","","","Rain"
"-84.79","47.97","WAWA A","6059407","2021-06-03 14:00","2021","06","03","14:00","16.5","","14.2","","86","","","","19","","13","","24.1","","97.31","","","","","","NA"
"-84.79","47.97","WAWA A","6059407","2021-06-03 15:00","2021","06","03","15:00","19.0","","15.0","","77","","","","20","","16","","24.1","","97.22","","","","","","NA"
"-84.79","47.97","WAWA A","6059407","2021-06-03 16:00","2021","06","03","16:00","19.9","","13.7","","67","","","","22","","9","","24.1","","97.20","","","","","","Mainly Clear"
"-84.79","47.97","WAWA A","6059407","2021-06-03 17:00","2021","06","03","17:00","18.7","","12.7","","68","","","","21","","14","","24.1","","97.26","","","","","","NA"
"-84.79","47.97","WAWA A","6059407","2021-06-03 18:00","2021","06","03","18:00","16.8","","12.0","","73","","","","23","","8","","24.1","","97.25","","","","","","NA"
"-84.79","47.97","WAWA A","6059407","2021-06-03 19:00","2021","06","03","19:00","15.6","","12.0","","79","","","","20","","10","","24.1","","97.31","","","","","","Mainly Clear"
"-84.79","47.97","WAWA A","6059407","2021-06-03 20:00","2021","06","03","20:00"
"-84.79","47.97","WAWA A","6059407","2021-06-03 21:00","2021","06","03","21:00"
"-84.79","47.97","WAWA A","6059407","2021-06-03 22:00","2021","06","03","22:00"
"-84.79","47.97","WAWA A","6059407","2021-06-03 23:00","2021","06","03","23:00"
"-84.79","47.97","WAWA A","6059407","2021-06-04 00:00","2021","06","04","00:00"
"-84.79","47.97","WAWA A","6059407","2021-06-04 01:00","2021","06","04","01:00"
"-84.79","47.97","WAWA A","6059407","2021-06-04 02:00","2021","06","04","02:00"
"-84.79","47.97","WAWA A","6059407","2021-06-04 03:00","2021","06","04","03:00"
"-84.79","47.97","WAWA A","6059407","2021-06-04 04:00","2021","06","04","04:00"
"-84.79","47.97","WAWA A","6059407","2021-06-04 05:00","2021","06","04","05:00"
"-84.79","47.97","WAWA A","6059407","2021-06-04 06:00","2021","06","04","06:00","8.8","","8.8","","100","","","","31","","3","","24.1","","97.52","","","","","","NA"
"-84.79","47.97","WAWA A","6059407","2021-06-04 07:00","2021","06","04","07:00","12.4","","12.1","","98","","","","36","","1","","24.1","","97.52","","","","","","Mainly Clear"
"-84.79","47.97","WAWA A","6059407","2021-06-04 08:00","2021","06","04","08:00","16.2","","13.4","","83","","","","21","","10","","24.1","","97.51","","","","","","NA"
"-84.79","47.97","WAWA A","6059407","2021-06-04 09:00","2021","06","04","09:00","15.4","","12.1","","81","","","","25","","7","","24.1","","97.53","","","","","","NA"
"-84.79","47.97","WAWA A","6059407","2021-06-04 10:00","2021","06","04","10:00","15.4","","11.7","","78","","","","24","","12","","24.1","","97.51","","","","","","Mostly Cloudy"
"-84.79","47.97","WAWA A","6059407","2021-06-04 11:00","2021","06","04","11:00","16.4","","12.2","","76","","","","26","","13","","24.1","","97.50","","","","","","NA"
"-84.79","47.97","WAWA A","6059407","2021-06-04 12:00","2021","06","04","12:00","17.3","","12.3","","72","","","","22","","17","","24.1","","97.50","","","","","","NA"
"-84.79","47.97","WAWA A","6059407","2021-06-04 13:00","2021","06","04","13:00","18.2","","12.1","","68","","","","29","","11","","24.1","","97.40","","","","","","Mainly Clear"
"-84.79","47.97","WAWA A","6059407","2021-06-04 14:00","2021","06","04","14:00","19.3","","11.7","","61","","","","24","","12","","24.1","","97.36","","","","","","NA"
"-84.79","47.97","WAWA A","6059407","2021-06-04 15:00","2021","06","04","15:00","19.3","","11.6","","61","","","","22","","13","","24.1","","97.30","","","","","","NA"
"-84.79","47.97","WAWA A","6059407","2021-06-04 16:00","2021","06","04","16:00","20.3","","11.5","","56","","","","22","","12","","24.1","","97.24","","","","","","Mainly Clear"
"-84.79","47.97","WAWA A","6059407","2021-06-04 17:00","2021","06","04","17:00","22.0","","11.0","","49","","","","23","","15","","24.1","","97.12","","","","","","NA"
"-84.79","47.97","WAWA A","6059407","2021-06-04 18:00","2021","06","04","18:00","21.2","","10.8","","51","","","","23","","9","","24.1","","97.07","","","","","","NA"
"-84.79","47.97","WAWA A","6059407","2021-06-04 19:00","2021","06","04","19:00","18.9","","11.1","","60","","","","24","","7","","24.1","","96.96","","","","","","Mostly Cloudy"
"-84.79","47.97","WAWA A","6059407","2021-06-04 20:00","2021","06","04","20:00"
"-84.79","47.97","WAWA A","6059407","2021-06-04 21:00","2021","06","04","21:00"
"-84.79","47.97","WAWA A","6059407","2021-06-04 22:00","2021","06","04","22:00"
"-84.79","47.97","WAWA A","6059407","2021-06-04 23:00","2021","06","04","23:00"
"-84.79","47.97","WAWA A","6059407","2021-06-05 00:00","2021","06","05","00:00"
"-84.79","47.97","WAWA A","6059407","2021-06-05 01:00","2021","06","05","01:00"
"-84.79","47.97","WAWA A","6059407","2021-06-05 02:00","2021","06","05","02:00"
"-84.79","47.97","WAWA A","6059407","2021-06-05 03:00","2021","06","05","03:00"
"-84.79","47.97","WAWA A","6059407","2021-06-05 04:00","2021","06","05","04:00"
"-84.79","47.97","WAWA A","6059407","2021-06-05 05:00","2021","06","05","05:00"
"-84.79","47.97","WAWA A","6059407","2021-06-05 06:00","2021","06","05","06:00","13.3","","12.8","","96","","","","22","","7","","9.7","","97.01","","","","","","Fog"
"-84.79","47.97","WAWA A","6059407","2021-06-05 07:00","2021","06","05","07:00","13.8","","13.4","","98","","","","32","","8","","4.8","","97.08","","","","","","Fog"
"-84.79","47.97","WAWA A","6059407","2021-06-05 08:00","2021","06","05","08:00","14.7","","14.4","","98","","","","22","","10","","6.4","","97.18","","","","","","Rain,Fog"
"-84.79","47.97","WAWA A","6059407","2021-06-05 09:00","2021","06","05","09:00","15.5","","14.8","","96","","","","2","","3","","9.7","","97.13","","","","","","Fog"
"-84.79","47.97","WAWA A","6059407","2021-06-05 10:00","2021","06","05","10:00","18.4","","15.5","","83","","","","6","","3","","24.1","","97.17","","","","","","Mostly Cloudy"
"-84.79","47.97","WAWA A","6059407","2021-06-05 11:00","2021","06","05","11:00","19.7","","15.5","","76","","","","24","","9","","24.1","","97.16","","","","","","NA"
"-84.79","47.97","WAWA A","6059407","2021-06-05 12:00","2021","06","05","12:00","22.4","","16.7","","70","","","","36","","7","","24.1","","97.09","","27","","","","NA"
"-84.79","47.97","WAWA A","6059407","2021-06-05 13:00","2021","06","05","13:00","21.8","","14.6","","63","","","","25","","17","","24.1","","97.09","","26","","","","Clear"
"-84.79","47.97","WAWA A","6059407","2021-06-05 14:00","2021","06","05","14:00","18.3","","13.1","","72","","","","24","","11","","24.1","","97.18","","","","","","NA"
"-84.79","47.97","WAWA A","6059407","2021-06-05 15:00","2021","06","05","15:00","18.5","","13.4","","72","","","","24","","13","","24.1","","97.24","","","","","","NA"
"-84.79","47.97","WAWA A","6059407","2021-06-05 16:00","2021","06","05","16:00","20.3","","13.8","","66","","","","27","","9","","24.1","","97.23","","","","","","Mainly Clear"
"-84.79","47.97","WAWA A","6059407","2021-06-05 17:00","2021","06","05","17:00","19.8","","13.7","","67","","","","26","","6","","24.1","","97.25","","","","","","NA"
"-84.79","47.97","WAWA A","6059407","2021-06-05 18:00","2021","06","05","18:00","20.4","","13.9","","66","","","","24","","7","","24.1","","97.32","","","","","","NA"
"-84.79","47.97","WAWA A","6059407","2021-06-05 19:00","2021","06","05","19:00","20.3","","14.0","","67","","","","21","","5","","24.1","","97.33","","","","","","Mainly Clear"
"-84.79","47.97","WAWA A","6059407","2021-06-05 20:00","2021","06","05","20:00"
"-84.79","47.97","WAWA A","6059407","2021-06-05 21:00","2021","06","05","21:00"
"-84.79","47.97","WAWA A","6059407","2021-06-05 22:00","2021","06","05","22:00"
"-84.79","47.97","WAWA A","6059407","2021-06-05 23:00","2021","06","05","23:00"
"-84.79","47.97","WAWA A","6059407","2021-06-06 00:00","2021","06","06","00:00"
"-84.79","47.97","WAWA A","6059407","2021-06-06 01:00","2021","06","06","01:00"
"-84.79","47.97","WAWA A","6059407","2021-06-06 02:00","2021","06","06","02:00"
"-84.79","47.97","WAWA A","6059407","2021-06-06 03:00","2021","06","06","03:00"
"-84.79","47.97","WAWA A","6059407","2021-06-06 04:00","2021","06","06","04:00"
"-84.79","47.97","WAWA A","6059407","2021-06-06 05:00","2021","06","06","05:00"
"-84.79","47.97","WAWA A","6059407","2021-06-06 06:00","2021","06","06","06:00","14.0","","13.6","","97","","","","28","","4","","24.1","","97.34","","","","","","NA"
"-84.79","47.97","WAWA A","6059407","2021-06-06 07:00","2021","06","06","07:00","16.3","","15.1","","92","","","","36","","2","","24.1","","97.33","","","","","","Mainly Clear"
"-84.79","47.97","WAWA A","6059407","2021-06-06 08:00","2021","06","06","08:00","20.1","","16.4","","79","","","","20","","3","","24.1","","97.31","","25","","","","NA"
"-84.79","47.97","WAWA A","6059407","2021-06-06 09:00","2021","06","06","09:00","22.1","","17.2","","73","","","","21","","5","","24.1","","97.30","","28","","","","NA"
"-84.79","47.97","WAWA A","6059407","2021-06-06 10:00","2021","06","06","10:00","20.8","","15.5","","72","","","","24","","9","","19.3","","97.35","","25","","","","Mostly Cloudy"
"-84.79","47.97","WAWA A","6059407","2021-06-06 11:00","2021","06","06","11:00","17.9","","14.7","","81","","","","22","","5","","19.3","","97.43","","","","","","Rain Showers"
"-84.79","47.97","WAWA A","6059407","2021-06-06 12:00","2021","06","06","12:00","22.6","","16.1","","66","","","","21","","14","","19.3","","97.36","","27","","","","NA"
"-84.79","47.97","WAWA A","6059407","2021-06-06 13:00","2021","06","06","13:00","24.5","","16.3","","60","","","","25","","16","","19.3","","97.35","","29","","","","Mainly Clear"
"-84.79","47.97","WAWA A","6059407","2021-06-06 14:00","2021","06","06","14:00","24.9","","16.3","","59","","","","25","","14","","19.3","","97.32","","30","","","","NA"
"-84.79","47.97","WAWA A","6059407","2021-06-06 15:00","2021","06","06","15:00","24.8","","16.0","","58","","","","24","","10","","24.1","","97.30","","29","","","","NA"
"-84.79","47.97","WAWA A","6059407","2021-06-06 16:00","2021","06","06","16:00","26.8","","16.6","","53","","","","22","","17","","24.1","","97.28","","32","","","","Clear"
"-84.79","47.97","WAWA A","6059407","2021-06-06 17:00","2021","06","06","17:00","27.6","","16.7","","51","","","","21","","18","","24.1","","97.20","","33","","","","NA"
"-84.79","47.97","WAWA A","6059407","2021-06-06 18:00","2021","06","06","18:00","26.2","","16.4","","54","","","","21","","16","","24.1","","97.20","","31","","","","NA"
"-84.79","47.97","WAWA A","6059407","2021-06-06 19:00","2021","06","06","19:00","22.5","","14.4","","60","","","","28","","9","","24.1","","97.26","","26","","","","Mostly Cloudy"
"-84.79","47.97","WAWA A","6059407","2021-06-06 20:00","2021","06","06","20:00"
"-84.79","47.97","WAWA A","6059407","2021-06-06 21:00","2021","06","06","21:00"
"-84.79","47.97","WAWA A","6059407","2021-06-06 22:00","2021","06","06","22:00"
"-84.79","47.97","WAWA A","6059407","2021-06-06 23:00","2021","06","06","23:00"
"-84.79","47.97","WAWA A","6059407","2021-06-07 00:00","2021","06","07","00:00"
"-84.79","47.97","WAWA A","6059407","2021-06-07 01:00","2021","06","07","01:00"
"-84.79","47.97","WAWA A","6059407","2021-06-07 02:00","2021","06","07","02:00"
"-84.79","47.97","WAWA A","6059407","2021-06-07 03:00","2021","06","07","03:00"
"-84.79","47.97","WAWA A","6059407","2021-06-07 04:00","2021","06","07","04:00"
"-84.79","47.97","WAWA A","6059407","2021-06-07 05:00","2021","06","07","05:00"
"-84.79","47.97","WAWA A","6059407","2021-06-07 06:00","2021","06","07","06:00","15.0","","12.4","","85","","","","22","","10","","24.1","","97.42","","","","","","NA"
"-84.79","47.97","WAWA A","6059407","2021-06-07 07:00","2021","06","07","07:00","17.2","","13.3","","78","","","","22","","18","","24.1","","97.43","","","","","","Mainly Clear"
"-84.79","47.97","WAWA A","6059407","2021-06-07 08:00","2021","06","07","08:00","17.8","","13.7","","77","","","","22","","20","","24.1","","97.48","","","","","","NA"
"-84.79","47.97","WAWA A","6059407","2021-06-07 09:00","2021","06","07","09:00","17.9","","13.7","","76","","","","20","","18","","24.1","","97.57","","","","","","NA"
"-84.79","47.97","WAWA A","6059407","2021-06-07 10:00","2021","06","07","10:00","17.8","","13.9","","78","","","","23","","10","","24.1","","97.56","","","","","","Mostly Cloudy"
"-84.79","47.97","WAWA A","6059407","2021-06-07 11:00","2021","06","07","11:00","18.2","","14.9","","81","","","","21","","12","","24.1","","97.59","","","","","","NA"
"-84.79","47.97","WAWA A","6059407","2021-06-07 12:00","2021","06","07","12:00","18.2","","14.2","","77","","","","28","","5","","24.1","","97.64","","","","","","NA"
"-84.79","47.97","WAWA A","6059407","2021-06-07 13:00","2021","06","07","13:00","17.6","","13.9","","79","","","","25","","10","","24.1","","97.66","","","","","","Mostly Cloudy"
"-84.79","47.97","WAWA A","6059407","2021-06-07 14:00","2021","06","07","14:00","18.6","","14.2","","75","","","","25","","13","","24.1","","97.68","","","","","","NA"
"-84.79","47.97","WAWA A","6059407","2021-06-07 15:00","2021","06","07","15:00","19.6","","14.1","","70","","","","26","","13","","24.1","","97.70","","","","","","NA"
"-84.79","47.97","WAWA A","6059407","2021-06-07 16:00","2021","06","07","16:00","19.7","","14.5","","72","","","","24","","11","","24.1","","97.71","","","","","","Mainly Clear"
"-84.79","47.97","WAWA A","6059407","2021-06-07 17:00","2021","06","07","17:00","21.5","","14.9","","65","","","","22","","11","","24.1","","97.74","","25","","","","NA"
"-84.79","47.97","WAWA A","6059407","2021-06-07 18:00","2021","06","07","18:00","20.0","","14.0","","68","","","","21","","12","","24.1","","97.76","","","","","","NA"
"-84.79","47.97","WAWA A","6059407","2021-06-07 19:00","2021","06","07","19:00","19.8","","13.8","","68","","","","24","","6","","24.1","","97.77","","","","","","Mainly Clear"
"-84.79","47.97","WAWA A","6059407","2021-06-07 20:00","2021","06","07","20:00"
"-84.79","47.97","WAWA A","6059407","2021-06-07 21:00","2021","06","07","21:00"
"-84.79","47.97","WAWA A","6059407","2021-06-07 22:00","2021","06","07","22:00"
"-84.79","47.97","WAWA A","6059407","2021-06-07 23:00","2021","06","07","23:00"
"-84.79","47.97","WAWA A","6059407","2021-06-08 00:00","2021","06","08","00:00"
"-84.79","47.97","WAWA A","6059407","2021-06-08 01:00","2021","06","08","01:00"
"-84.79","47.97","WAWA A","6059407","2021-06-08 02:00","2021","06","08","02:00"
"-84.79","47.97","WAWA A","6059407","2021-06-08 03:00","2021","06","08","03:00"
"-84.79","47.97","WAWA A","6059407","2021-06-08 04:00","2021","06","08","04:00"
"-84.79","47.97","WAWA A","6059407","2021-06-08 05:00","2021","06","08","05:00"
"-84.79","47.97","WAWA A","6059407","2021-06-08 06:00","2021","06","08","06:00","11.7","","11.4","","98","","","","36","","1","","24.1","","98.13","","","","","","NA"
"-84.79","47.97","WAWA A","6059407","2021-06-08 07:00","2021","06","08","07:00","14.0","","13.1","","94","","","","31","","4","","24.1","","98.17","","","","","","Mostly Cloudy"
"-84.79","47.97","WAWA A","6059407","2021-06-08 08:00","2021","06","08","08:00","17.8","","14.7","","82","","","","36","","2","","24.1","","98.23","","","","","","NA"
"-84.79","47.97","WAWA A","6059407","2021-06-08 09:00","2021","06","08","09:00","21.3","","16.9","","76","","","","33","","5","","24.1","","98.25","","27","","","","NA"
"-84.79","47.97","WAWA A","6059407","2021-06-08 10:00","2021","06","08","10:00","23.3","","15.6","","61","","","","36","","3","","24.1","","98.27","","28","","","","Mostly Cloudy"
"-84.79","47.97","WAWA A","6059407","2021-06-08 11:00","2021","06","08","11:00","26.1","","14.1","","47","","","","36","","7","","24.1","","98.21","","30","","","","NA"
"-84.79","47.97","WAWA A","6059407","2021-06-08 12:00","2021","06","08","12:00","27.4","","11.6","","37","","","","6","","7","","24.1","","98.12","","29","","","","NA"
"-84.79","47.97","WAWA A","6059407","2021-06-08 13:00","2021","06","08","13:00","29.2","","9.2","","28","","","","36","","11","","24.1","","98.08","","30","","","","Mainly Clear"
"-84.79","47.97","WAWA A","6059407","2021-06-08 14:00","2021","06","08","14:00","25.6","","16.1","","55","","","","23","","10","","24.1","","98.08","","30","","","","NA"
"-84.79","47.97","WAWA A","6059407","2021-06-08 15:00","2021","06","08","15:00","22.6","","17.3","","71","","","","23","","16","","24.1","","98.16","","28","","","","NA"
"-84.79","47.97","WAWA A","6059407","2021-06-08 16:00","2021","06","08","16:00","20.1","","17.1","","83","","","","20","","15","","24.1","","98.22","","25","","","","Mainly Clear"
"-84.79","47.97","WAWA A","6059407","2021-06-08 17:00","2021","06","08","17:00","23.0","","19.0","","78","","","","21","","9","","24.1","","98.18","","30","","","","NA"
"-84.79","47.97","WAWA A","6059407","2021-06-08 18:00","2021","06","08","18:00","24.0","","17.9","","68","","","","24","","9","","24.1","","98.17","","30","","","","NA"
"-84.79","47.97","WAWA A","6059407","2021-06-08 19:00","2021","06","08","19:00","23.9","","17.1","","66","","","","20","","8","","24.1","","98.16","","29","","","","Clear"
"-84.79","47.97","WAWA A","6059407","2021-06-08 20:00","2021","06","08","20:00"
"-84.79","47.97","WAWA A","6059407","2021-06-08 21:00","2021","06","08","21:00"
"-84.79","47.97","WAWA A","6059407","2021-06-08 22:00","2021","06","08","22:00"
"-84.79","47.97","WAWA A","6059407","2021-06-08 23:00","2021","06","08","23:00"
"-84.79","47.97","WAWA A","6059407","2021-06-09 00:00","2021","06","09","00:00"
"-84.79","47.97","WAWA A","6059407","2021-06-09 01:00","2021","06","09","01:00"
"-84.79","47.97","WAWA A","6059407","2021-06-09 02:00","2021","06","09","02:00"
"-84.79","47.97","WAWA A","6059407","2021-06-09 03:00","2021","06","09","03:00"
"-84.79","47.97","WAWA A","6059407","2021-06-09 04:00","2021","06","09","04:00"
"-84.79","47.97","WAWA A","6059407","2021-06-09 05:00","2021","06","09","05:00"
"-84.79","47.97","WAWA A","6059407","2021-06-09 06:00","2021","06","09","06:00","16.9","","9.6","","62","","","","7","","11","","24.1","","98.75","","","","","","NA"
"-84.79","47.97","WAWA A","6059407","2021-06-09 07:00","2021","06","09","07:00","18.4","","10.0","","57","","","","7","","10","","24.1","","98.82","","","","","","Mostly Cloudy"
"-84.79","47.97","WAWA A","6059407","2021-06-09 08:00","2021","06","09","08:00","20.1","","10.3","","53","","","","8","","13","","24.1","","98.89","","","","","","NA"
"-84.79","47.97","WAWA A","6059407","2021-06-09 09:00","2021","06","09","09:00","22.1","","10.2","","46","","","","8","","10","","24.1","","98.90","","","","","","NA"
"-84.79","47.97","WAWA A","6059407","2021-06-09 10:00","2021","06","09","10:00","24.0","","9.1","","38","","","","6","","20","","24.1","","98.93","","25","","","","Mostly Cloudy"
"-84.79","47.97","WAWA A","6059407","2021-06-09 11:00","2021","06","09","11:00","24.4","","7.8","","34","","","","8","","17","","24.1","","98.91","","25","","","","NA"
"-84.79","47.97","WAWA A","6059407","2021-06-09 12:00","2021","06","09","12:00","25.7","","7.5","","31","","","","8","","16","","24.1","","98.86","","26","","","","NA"
"-84.79","47.97","WAWA A","6059407","2021-06-09 13:00","2021","06","09","13:00","26.2","","7.7","","30","","","","11","","10","","24.1","","98.85","","26","","","","Mainly Clear"
"-84.79","47.97","WAWA A","6059407","2021-06-09 14:00","2021","06","09","14:00","27.6","","7.0","","27","","","","6","","10","","24.1","","98.83","","28","","","","NA"
"-84.79","47.97","WAWA A","6059407","2021-06-09 15:00","2021","06","09","15:00","27.2","","5.3","","24","","","","7","","17","","24.1","","98.77","","27","","","","NA"
"-84.79","47.97","WAWA A","6059407","2021-06-09 16:00","2021","06","09","16:00","27.4","","6.0","","25","","","","11","","13","","24.1","","98.71","","27","","","","Mainly Clear"
"-84.79","47.97","WAWA A","6059407","2021-06-09 17:00","2021","06","09","17:00","27.5","","6.4","","26","","","","5","","14","","24.1","","98.67","","27","","","","NA"
"-84.79","47.97","WAWA A","6059407","2021-06-09 18:00","2021","06","09","18:00","26.5","","6.7","","28","","","","8","","14","","24.1","","98.63","","26","","","","NA"
"-84.79","47.97","WAWA A","6059407","2021-06-09 19:00","2021","06","09","19:00","25.7","","7.1","","30","","","","7","","13","","24.1","","98.65","","26","","","","Mainly Clear"
"-84.79","47.97","WAWA A","6059407","2021-06-09 20:00","2021","06","09","20:00"
"-84.79","47.97","WAWA A","6059407","2021-06-09 21:00","2021","06","09","21:00"
"-84.79","47.97","WAWA A","6059407","2021-06-09 22:00","2021","06","09","22:00"
"-84.79","47.97","WAWA A","6059407","2021-06-09 23:00","2021","06","09","23:00"
"-84.79","47.97","WAWA A","6059407","2021-06-10 00:00","2021","06","10","00:00"
"-84.79","47.97","WAWA A","6059407","2021-06-10 01:00","2021","06","10","01:00"
"-84.79","47.97","WAWA A","6059407","2021-06-10 02:00","2021","06","10","02:00"
"-84.79","47.97","WAWA A","6059407","2021-06-10 03:00","2021","06","10","03:00"
"-84.79","47.97","WAWA A","6059407","2021-06-10 04:00","2021","06","10","04:00"
"-84.79","47.97","WAWA A","6059407","2021-06-10 05:00","2021","06","10","05:00"
"-84.79","47.97","WAWA A","6059407","2021-06-10 06:00","2021","06","10","06:00","17.4","","6.4","","48","","","","10","","12","","24.1","","98.42","","","","","","NA"
"-84.79","47.97","WAWA A","6059407","2021-06-10 07:00","2021","06","10","07:00","17.7","","6.2","","47","","","","10","","14","","24.1","","98.43","","","","","","Cloudy"
"-84.79","47.97","WAWA A","6059407","2021-06-10 08:00","2021","06","10","08:00","14.3","","9.7","","74","","","","35","","13","","24.1","","98.59","","","","","","Rain"
"-84.79","47.97","WAWA A","6059407","2021-06-10 09:00","2021","06","10","09:00","12.7","","11.6","","93","","","","33","","9","","16.1","","98.68","","","","","","Moderate Rain Showers"
"-84.79","47.97","WAWA A","6059407","2021-06-10 10:00","2021","06","10","10:00","12.8","","11.7","","93","","","","5","","8","","24.1","","98.49","","","","","","Rain"
"-84.79","47.97","WAWA A","6059407","2021-06-10 11:00","2021","06","10","11:00","13.2","","12.0","","92","","","","9","","10","","16.1","","98.43","","","","","","Rain"
"-84.79","47.97","WAWA A","6059407","2021-06-10 12:00","2021","06","10","12:00","13.8","","12.4","","91","","","","11","","8","","19.3","","98.38","","","","","","Rain"
"-84.79","47.97","WAWA A","6059407","2021-06-10 13:00","2021","06","10","13:00","15.1","","13.2","","89","","","","10","","11","","19.3","","98.31","","","","","","Rain"
"-84.79","47.97","WAWA A","6059407","2021-06-10 14:00","2021","06","10","14:00","16.3","","13.9","","86","","","","8","","10","","24.1","","98.27","","","","","","NA"
"-84.79","47.97","WAWA A","6059407","2021-06-10 15:00","2021","06","10","15:00","17.6","","13.8","","78","","","","11","","11","","24.1","","98.20","","","","","","NA"
"-84.79","47.97","WAWA A","6059407","2021-06-10 16:00","2021","06","10","16:00","18.3","","14.4","","78","","","","8","","7","","24.1","","98.15","","","","","","Cloudy"
"-84.79","47.97","WAWA A","6059407","2021-06-10 17:00","2021","06","10","17:00","19.0","","14.4","","74","","","","9","","12","","24.1","","98.10","","","","","","NA"
"-84.79","47.97","WAWA A","6059407","2021-06-10 18:00","2021","06","10","18:00","18.1","","14.9","","81","","","","2","","7","","24.1","","98.06","","","","","","NA"
"-84.79","47.97","WAWA A","6059407","2021-06-10 19:00","2021","06","10","19:00","16.9","","15.2","","90","","","","3","","8","","24.1","","98.09","","","","","","Cloudy"
"-84.79","47.97","WAWA A","6059407","2021-06-10 20:00","2021","06","10","20:00"
"-84.79","47.97","WAWA A","6059407","2021-06-10 21:00","2021","06","10","21:00"
"-84.79","47.97","WAWA A","6059407","2021-06-10 22:00","2021","06","10","22:00"
"-84.79","47.97","WAWA A","6059407","2021-06-10 23:00","2021","06","10","23:00"
"-84.79","47.97","WAWA A","6059407","2021-06-11 00:00","2021","06","11","00:00"
"-84.79","47.97","WAWA A","6059407","2021-06-11 01:00","2021","06","11","01:00"
"-84.79","47.97","WAWA A","6059407","2021-06-11 02:00","2021","06","11","02:00"
"-84.79","47.97","WAWA A","6059407","2021-06-11 03:00","2021","06","11","03:00"
"-84.79","47.97","WAWA A","6059407","2021-06-11 04:00","2021","06","11","04:00"
"-84.79","47.97","WAWA A","6059407","2021-06-11 05:00","2021","06","11","05:00"
"-84.79","47.97","WAWA A","6059407","2021-06-11 06:00","2021","06","11","06:00","12.7","","11.8","","94","","","","4","","15","","24.1","","98.11","","","","","","NA"
"-84.79","47.97","WAWA A","6059407","2021-06-11 07:00","2021","06","11","07:00","13.0","","11.9","","93","","","","5","","14","","24.1","","98.15","","","","","","Cloudy"
"-84.79","47.97","WAWA A","6059407","2021-06-11 08:00","2021","06","11","08:00","12.5","","11.3","","92","","","","5","","17","","24.1","","98.19","","","","","","NA"
"-84.79","47.97","WAWA A","6059407","2021-06-11 09:00","2021","06","11","09:00","13.7","","11.6","","87","","","","5","","18","","24.1","","98.12","","","","","","NA"
"-84.79","47.97","WAWA A","6059407","2021-06-11 10:00","2021","06","11","10:00","14.9","","11.6","","80","","","","6","","19","","24.1","","98.17","","","","","","Mostly Cloudy"
"-84.79","47.97","WAWA A","6059407","2021-06-11 11:00","2021","06","11","11:00","16.2","","11.9","","76","","","","8","","16","","24.1","","98.17","","","","","","NA"
"-84.79","47.97","WAWA A","6059407","2021-06-11 12:00","2021","06","11","12:00","17.4","","12.5","","73","","","","4","","18","","24.1","","98.21","","","","","","NA"
"-84.79","47.97","WAWA A","6059407","2021-06-11 13:00","2021","06","11","13:00","18.2","","12.7","","70","","","","8","","12","","24.1","","98.20","","","","","","Cloudy"
"-84.79","47.97","WAWA A","6059407","2021-06-11 14:00","2021","06","11","14:00","18.5","","12.8","","69","","","","12","","10","","24.1","","98.19","","","","","","NA"
"-84.79","47.97","WAWA A","6059407","2021-06-11 15:00","2021","06","11","15:00","20.1","","13.0","","63","","","","9","","9","","24.1","","98.06","","","","","","NA"
"-84.79","47.97","WAWA A","6059407","2021-06-11 16:00","2021","06","11","16:00","21.6","","12.5","","56","","","","10","","8","","24.1","","97.99","","","","","","Mostly Cloudy"
"-84.79","47.97","WAWA A","6059407","2021-06-11 17:00","2021","06","11","17:00","21.2","","12.0","","55","","","","9","","9","","24.1","","98.01","","","","","","NA"
"-84.79","47.97","WAWA A","6059407","2021-06-11 18:00","2021","06","11","18:00","21.2","","12.3","","56","","","","10","","8","","24.1","","98.02","","","","","","NA"
"-84.79","47.97","WAWA A","6059407","2021-06-11 19:00","2021","06","11","19:00","21.0","","12.7","","59","","","","13","","5","","24.1","","98.00","","","","","","Mostly Cloudy"
"-84.79","47.97","WAWA A","6059407","2021-06-11 20:00","2021","06","11","20:00"
"-84.79","47.97","WAWA A","6059407","2021-06-11 21:00","2021","06","11","21:00"
"-84.79","47.97","WAWA A","6059407","2021-06-11 22:00","2021","06","11","22:00"
"-84.79","47.97","WAWA A","6059407","2021-06-11 23:00","2021","06","11","23:00"
"-84.79","47.97","WAWA A","6059407","2021-06-12 00:00","2021","06","12","00:00"
"-84.79","47.97","WAWA A","6059407","2021-06-12 01:00","2021","06","12","01:00"
"-84.79","47.97","WAWA A","6059407","2021-06-12 02:00","2021","06","12","02:00"
"-84.79","47.97","WAWA A","6059407","2021-06-12 03:00","2021","06","12","03:00"
"-84.79","47.97","WAWA A","6059407","2021-06-12 04:00","2021","06","12","04:00"
"-84.79","47.97","WAWA A","6059407","2021-06-12 05:00","2021","06","12","05:00"
"-84.79","47.97","WAWA A","6059407","2021-06-12 06:00","2021","06","12","06:00","15.1","","12.4","","83","","","","3","","5","","24.1","","97.82","","","","","","NA"
"-84.79","47.97","WAWA A","6059407","2021-06-12 07:00","2021","06","12","07:00","14.7","","13.1","","90","","","","","","0","","19.3","","97.90","","","","","","Cloudy"
"-84.79","47.97","WAWA A","6059407","2021-06-12 08:00","2021","06","12","08:00","15.3","","13.5","","89","","","","29","","5","","24.1","","97.96","","","","","","NA"
"-84.79","47.97","WAWA A","6059407","2021-06-12 09:00","2021","06","12","09:00","15.1","","13.6","","91","","","","18","","5","","4.8","","97.95","","","","","","Moderate Rain Showers,Fog"
"-84.79","47.97","WAWA A","6059407","2021-06-12 10:00","2021","06","12","10:00","14.5","","13.8","","95","","","","14","","8","","24.1","","97.89","","","","","","Rain Showers"
"-84.79","47.97","WAWA A","6059407","2021-06-12 11:00","2021","06","12","11:00","15.9","","15.1","","95","","","","13","","6","","24.1","","97.89","","","","","","NA"
"-84.79","47.97","WAWA A","6059407","2021-06-12 12:00","2021","06","12","12:00","17.3","","15.1","","87","","","","9","","9","","24.1","","97.87","","","","","","NA"
"-84.79","47.97","WAWA A","6059407","2021-06-12 13:00","2021","06","12","13:00","18.2","","15.6","","85","","","","14","","3","","24.1","","97.79","","","","","","Cloudy"
"-84.79","47.97","WAWA A","6059407","2021-06-12 14:00","2021","06","12","14:00","19.1","","15.7","","80","","","","31","","5","","24.1","","97.76","","","","","","NA"
"-84.79","47.97","WAWA A","6059407","2021-06-12 15:00","2021","06","12","15:00","18.9","","13.4","","70","","","","24","","13","","24.1","","97.77","","","","","","NA"
"-84.79","47.97","WAWA A","6059407","2021-06-12 16:00","2021","06","12","16:00","17.9","","13.6","","75","","","","23","","10","","24.1","","97.77","","","","","","Mostly Cloudy"
"-84.79","47.97","WAWA A","6059407","2021-06-12 17:00","2021","06","12","17:00","14.7","","12.3","","85","","","","24","","13","","24.1","","97.78","","","","","","NA"
"-84.79","47.97","WAWA A","6059407","2021-06-12 18:00","2021","06","12","18:00","12.7","","11.8","","94","","","","24","","7","","2.4","","97.77","","","","","","Fog"
"-84.79","47.97","WAWA A","6059407","2021-06-12 19:00","2021","06","12","19:00","11.9","","11.7","","99","","","","32","","4","","0.4","","97.76","","","","","","Fog"
"-84.79","47.97","WAWA A","6059407","2021-06-12 20:00","2021","06","12","20:00"
"-84.79","47.97","WAWA A","6059407","2021-06-12 21:00","2021","06","12","21:00"
"-84.79","47.97","WAWA A","6059407","2021-06-12 22:00","2021","06","12","22:00"
"-84.79","47.97","WAWA A","6059407","2021-06-12 23:00","2021","06","12","23:00"
"-84.79","47.97","WAWA A","6059407","2021-06-13 00:00","2021","06","13","00:00"
"-84.79","47.97","WAWA A","6059407","2021-06-13 01:00","2021","06","13","01:00"
"-84.79","47.97","WAWA A","6059407","2021-06-13 02:00","2021","06","13","02:00"
"-84.79","47.97","WAWA A","6059407","2021-06-13 03:00","2021","06","13","03:00"
"-84.79","47.97","WAWA A","6059407","2021-06-13 04:00","2021","06","13","04:00"
"-84.79","47.97","WAWA A","6059407","2021-06-13 05:00","2021","06","13","05:00"
"-84.79","47.97","WAWA A","6059407","2021-06-13 06:00","2021","06","13","06:00","7.8","","7.8","","100","","","","19","","6","","0.2","","97.93","","","","","","Fog"
"-84.79","47.97","WAWA A","6059407","2021-06-13 07:00","2021","06","13","07:00","7.9","","7.9","","100","","","","32","","4","","0.2","","97.94","","","","","","Fog"
"-84.79","47.97","WAWA A","6059407","2021-06-13 08:00","2021","06","13","08:00","9.3","","9.3","","100","","","","18","","4","","0.4","","97.95","","","","","","Fog"
"-84.79","47.97","WAWA A","6059407","2021-06-13 09:00","2021","06","13","09:00","10.9","","10.9","","100","","","","21","","9","","1.2","","97.94","","","","","","Fog"
"-84.79","47.97","WAWA A","6059407","2021-06-13 10:00","2021","06","13","10:00","10.2","","10.2","","100","","","","26","","10","","0.6","","97.94","","","","","","Fog"
"-84.79","47.97","WAWA A","6059407","2021-06-13 11:00","2021","06","13","11:00","11.9","","11.7","","99","","","","27","","9","","8.1","","97.95","","","","","","Fog"
"-84.79","47.97","WAWA A","6059407","2021-06-13 12:00","2021","06","13","12:00","12.1","","10.4","","90","","","","22","","11","","8.1","","97.94","","","","","","Fog"
"-84.79","47.97","WAWA A","6059407","2021-06-13 13:00","2021","06","13","13:00","12.0","","9.9","","87","","","","20","","13","","16.1","","97.90","","","","","","Mainly Clear"
"-84.79","47.97","WAWA A","6059407","2021-06-13 14:00","2021","06","13","14:00","10.1","","8.2","","88","","","","20","","21","","4.8","","97.86","","","","","","Fog"
"-84.79","47.97","WAWA A","6059407","2021-06-13 15:00","2021","06","13","15:00","11.7","","9.0","","83","","","","22","","17","","24.1","","97.82","","","","","","NA"
"-84.79","47.97","WAWA A","6059407","2021-06-13 16:00","2021","06","13","16:00","10.2","","7.7","","84","","","","20","","16","","24.1","","97.82","","","","","","Mostly Cloudy"
"-84.79","47.97","WAWA A","6059407","2021-06-13 17:00","2021","06","13","17:00","10.1","","7.4","","83","","","","24","","12","","16.1","","97.80","","","","","","NA"
"-84.79","47.97","WAWA A","6059407","2021-06-13 18:00","2021","06","13","18:00","10.0","","7.8","","86","","","","22","","14","","24.1","","97.77","","","","","","NA"
"-84.79","47.97","WAWA A","6059407","2021-06-13 19:00","2021","06","13","19:00","9.5","","7.0","","84","","","","28","","4","","24.1","","97.76","","","","","","Mostly Cloudy"
"-84.79","47.97","WAWA A","6059407","2021-06-13 20:00","2021","06","13","20:00"
"-84.79","47.97","WAWA A","6059407","2021-06-13 21:00","2021","06","13","21:00"
"-84.79","47.97","WAWA A","6059407","2021-06-13 22:00","2021","06","13","22:00"
"-84.79","47.97","WAWA A","6059407","2021-06-13 23:00","2021","06","13","23:00"
"-84.79","47.97","WAWA A","6059407","2021-06-14 00:00","2021","06","14","00:00"
"-84.79","47.97","WAWA A","6059407","2021-06-14 01:00","2021","06","14","01:00"
"-84.79","47.97","WAWA A","6059407","2021-06-14 02:00","2021","06","14","02:00"
"-84.79","47.97","WAWA A","6059407","2021-06-14 03:00","2021","06","14","03:00"
"-84.79","47.97","WAWA A","6059407","2021-06-14 04:00","2021","06","14","04:00"
"-84.79","47.97","WAWA A","6059407","2021-06-14 05:00","2021","06","14","05:00"
"-84.79","47.97","WAWA A","6059407","2021-06-14 06:00","2021","06","14","06:00","8.8","","8.8","","100","","","","18","","3","","24.1","","97.78","","","","","","NA"
"-84.79","47.97","WAWA A","6059407","2021-06-14 07:00","2021","06","14","07:00","9.6","","9.6","","100","","","","36","","3","","24.1","","97.83","","","","","","Mainly Clear"
"-84.79","47.97","WAWA A","6059407","2021-06-14 08:00","2021","06","14","08:00","12.7","","11.6","","92","","","","21","","5","","24.1","","97.86","","","","","","NA"
"-84.79","47.97","WAWA A","6059407","2021-06-14 09:00","2021","06","14","09:00","15.4","","12.8","","84","","","","36","","3","","24.1","","97.87","","","","","","NA"
"-84.79","47.97","WAWA A","6059407","2021-06-14 10:00","2021","06","14","10:00","18.8","","14.1","","74","","","","28","","4","","24.1","","97.87","","","","","","Mainly Clear"
"-84.79","47.97","WAWA A","6059407","2021-06-14 11:00","2021","06","14","11:00","15.1","","11.1","","77","","","","25","","8","","24.1","","97.93","","","","","","Rain Showers"
"-84.79","47.97","WAWA A","6059407","2021-06-14 12:00","2021","06","14","12:00","15.2","","11.3","","77","","","","25","","8","","24.1","","97.95","","","","","","NA"
"-84.79","47.97","WAWA A","6059407","2021-06-14 13:00","2021","06","14","13:00","15.8","","12.4","","80","","","","28","","5","","24.1","","97.97","","","","","","Rain Showers"
"-84.79","47.97","WAWA A","6059407","2021-06-14 14:00","2021","06","14","14:00","15.8","","11.8","","77","","","","21","","13","","24.1","","97.96","","","","","","NA"
"-84.79","47.97","WAWA A","6059407","2021-06-14 15:00","2021","06","14","15:00","17.4","","13.7","","79","","","","22","","8","","24.1","","97.93","","","","","","NA"
"-84.79","47.97","WAWA A","6059407","2021-06-14 16:00","2021","06","14","16:00","17.1","","12.4","","73","","","","22","","11","","24.1","","97.96","","","","","","Mostly Cloudy"
"-84.79","47.97","WAWA A","6059407","2021-06-14 17:00","2021","06","14","17:00","17.9","","13.7","","76","","","","20","","9","","24.1","","97.99","","","","","","NA"
"-84.79","47.97","WAWA A","6059407","2021-06-14 18:00","2021","06","14","18:00","21.1","","10.3","","50","","","","2","","19","","24.1","","98.02","","","","","","NA"
"-84.79","47.97","WAWA A","6059407","2021-06-14 19:00","2021","06","14","19:00","20.3","","10.0","","51","","","","1","","10","","24.1","","98.09","","","","","","Mainly Clear"
"-84.79","47.97","WAWA A","6059407","2021-06-14 20:00","2021","06","14","20:00"
"-84.79","47.97","WAWA A","6059407","2021-06-14 21:00","2021","06","14","21:00"
"-84.79","47.97","WAWA A","6059407","2021-06-14 22:00","2021","06","14","22:00"
"-84.79","47.97","WAWA A","6059407","2021-06-14 23:00","2021","06","14","23:00"
"-84.79","47.97","WAWA A","6059407","2021-06-15 00:00","2021","06","15","00:00"
"-84.79","47.97","WAWA A","6059407","2021-06-15 01:00","2021","06","15","01:00"
"-84.79","47.97","WAWA A","6059407","2021-06-15 02:00","2021","06","15","02:00"
"-84.79","47.97","WAWA A","6059407","2021-06-15 03:00","2021","06","15","03:00"
"-84.79","47.97","WAWA A","6059407","2021-06-15 04:00","2021","06","15","04:00"
"-84.79","47.97","WAWA A","6059407","2021-06-15 05:00","2021","06","15","05:00"
"-84.79","47.97","WAWA A","6059407","2021-06-15 06:00","2021","06","15","06:00","10.2","","6.4","","77","","","","1","","9","","24.1","","98.55","","","","","","NA"
"-84.79","47.97","WAWA A","6059407","2021-06-15 07:00","2021","06","15","07:00","9.9","","6.6","","80","","","","35","","13","","24.1","","98.57","","","","","","Mainly Clear"
"-84.79","47.97","WAWA A","6059407","2021-06-15 08:00","2021","06","15","08:00","11.2","","6.0","","70","","","","3","","7","","24.1","","98.65","","","","","","NA"
"-84.79","47.97","WAWA A","6059407","2021-06-15 09:00","2021","06","15","09:00","14.3","","6.4","","59","","","","36","","8","","24.1","","98.61","","","","","","NA"
"-84.79","47.97","WAWA A","6059407","2021-06-15 10:00","2021","06","15","10:00","17.1","","0.8","","33","","","","3","","18","","24.1","","98.61","","","","","","Mainly Clear"
"-84.79","47.97","WAWA A","6059407","2021-06-15 11:00","2021","06","15","11:00","17.8","","1.1","","32","","","","3","","14","","24.1","","98.65","","","","","","NA"
"-84.79","47.97","WAWA A","6059407","2021-06-15 12:00","2021","06","15","12:00","18.7","","2.3","","33","","","","1","","16","","24.1","","98.65","","","","","","NA"
"-84.79","47.97","WAWA A","6059407","2021-06-15 13:00","2021","06","15","13:00","19.5","","0.8","","28","","","","3","","17","","24.1","","98.61","","","","","","Clear"
"-84.79","47.97","WAWA A","6059407","2021-06-15 14:00","2021","06","15","14:00","20.2","","1.9","","29","","","","3","","16","","24.1","","98.58","","","","","","NA"
"-84.79","47.97","WAWA A","6059407","2021-06-15 15:00","2021","06","15","15:00","20.6","","-1.2","","23","","","","36","","22","","24.1","","98.59","","","","","","NA"
"-84.79","47.97","WAWA A","6059407","2021-06-15 16:00","2021","06","15","16:00","20.7","","0.0","","25","","","","5","","22","","24.1","","98.60","","","","","","Clear"
"-84.79","47.97","WAWA A","6059407","2021-06-15 17:00","2021","06","15","17:00","20.5","","0.5","","26","","","","4","","16","","24.1","","98.61","","","","","","NA"
"-84.79","47.97","WAWA A","6059407","2021-06-15 18:00","2021","06","15","18:00","20.1","","0.4","","26","","","","3","","13","","24.1","","98.58","","","","","","NA"
"-84.79","47.97","WAWA A","6059407","2021-06-15 19:00","2021","06","15","19:00","19.2","","-0.3","","27","","","","3","","11","","24.1","","98.61","","","","","","Clear"
"-84.79","47.97","WAWA A","6059407","2021-06-15 20:00","2021","06","15","20:00"
"-84.79","47.97","WAWA A","6059407","2021-06-15 21:00","2021","06","15","21:00"
"-84.79","47.97","WAWA A","6059407","2021-06-15 22:00","2021","06","15","22:00"
"-84.79","47.97","WAWA A","6059407","2021-06-15 23:00","2021","06","15","23:00"
"-84.79","47.97","WAWA A","6059407","2021-06-16 00:00","2021","06","16","00:00"
"-84.79","47.97","WAWA A","6059407","2021-06-16 01:00","2021","06","16","01:00"
"-84.79","47.97","WAWA A","6059407","2021-06-16 02:00","2021","06","16","02:00"
"-84.79","47.97","WAWA A","6059407","2021-06-16 03:00","2021","06","16","03:00"
"-84.79","47.97","WAWA A","6059407","2021-06-16 04:00","2021","06","16","04:00"
"-84.79","47.97","WAWA A","6059407","2021-06-16 05:00","2021","06","16","05:00"
"-84.79","47.97","WAWA A","6059407","2021-06-16 06:00","2021","06","16","06:00","5.3","","4.3","","93","","","","31","","4","","24.1","","98.73","","","","","","NA"
"-84.79","47.97","WAWA A","6059407","2021-06-16 07:00","2021","06","16","07:00","9.0","","6.1","","82","","","","36","","1","","24.1","","98.74","","","","","","Mostly Cloudy"
"-84.79","47.97","WAWA A","6059407","2021-06-16 08:00","2021","06","16","08:00","12.7","","5.3","","60","","","","36","","2","","24.1","","98.76","","","","","","NA"
"-84.79","47.97","WAWA A","6059407","2021-06-16 09:00","2021","06","16","09:00","14.5","","4.0","","49","","","","36","","2","","24.1","","98.74","","","","","","NA"
"-84.79","47.97","WAWA A","6059407","2021-06-16 10:00","2021","06","16","10:00","16.5","","4.6","","45","","","","24","","8","","24.1","","98.63","","","","","","Mainly Clear"
"-84.79","47.97","WAWA A","6059407","2021-06-16 11:00","2021","06","16","11:00","16.1","","3.6","","43","","","","26","","12","","24.1","","98.59","","","","","","NA"
"-84.79","47.97","WAWA A","6059407","2021-06-16 12:00","2021","06","16","12:00","15.1","","2.9","","43","","","","25","","14","","24.1","","98.55","","","","","","NA"
"-84.79","47.97","WAWA A","6059407","2021-06-16 13:00","2021","06","16","13:00","14.3","","3.0","","46","","","","23","","22","","24.1","","98.53","","","","","","Clear"
"-84.79","47.97","WAWA A","6059407","2021-06-16 14:00","2021","06","16","14:00","14.7","","4.3","","49","","","","21","","14","","24.1","","98.49","","","","","","NA"
"-84.79","47.97","WAWA A","6059407","2021-06-16 15:00","2021","06","16","15:00","15.8","","3.5","","44","","","","23","","9","","24.1","","98.46","","","","","","NA"
"-84.79","47.97","WAWA A","6059407","2021-06-16 16:00","2021","06","16","16:00","13.6","","3.5","","50","","","","22","","19","","24.1","","98.43","","","","","","Mainly Clear"
"-84.79","47.97","WAWA A","6059407","2021-06-16 17:00","2021","06","16","17:00","13.8","","2.9","","47","","","","20","","19","","24.1","","98.31","","","","","","NA"
"-84.79","47.97","WAWA A","6059407","2021-06-16 18:00","2021","06","16","18:00","13.6","","2.4","","46","","","","22","","17","","24.1","","98.26","","","","","","NA"
"-84.79","47.97","WAWA A","6059407","2021-06-16 19:00","2021","06","16","19:00","11.6","","4.6","","62","","","","22","","16","","24.1","","98.23","","","","","","Mainly Clear"
"-84.79","47.97","WAWA A","6059407","2021-06-16 20:00","2021","06","16","20:00"
"-84.79","47.97","WAWA A","6059407","2021-06-16 21:00","2021","06","16","21:00"
"-84.79","47.97","WAWA A","6059407","2021-06-16 22:00","2021","06","16","22:00"
"-84.79","47.97","WAWA A","6059407","2021-06-16 23:00","2021","06","16","23:00"
"-84.79","47.97","WAWA A","6059407","2021-06-17 00:00","2021","06","17","00:00"
"-84.79","47.97","WAWA A","6059407","2021-06-17 01:00","2021","06","17","01:00"
"-84.79","47.97","WAWA A","6059407","2021-06-17 02:00","2021","06","17","02:00"
"-84.79","47.97","WAWA A","6059407","2021-06-17 03:00","2021","06","17","03:00"
"-84.79","47.97","WAWA A","6059407","2021-06-17 04:00","2021","06","17","04:00"
"-84.79","47.97","WAWA A","6059407","2021-06-17 05:00","2021","06","17","05:00"
"-84.79","47.97","WAWA A","6059407","2021-06-17 06:00","2021","06","17","06:00","6.2","","5.6","","96","","","","36","","1","","24.1","","97.84","","","","","","NA"
"-84.79","47.97","WAWA A","6059407","2021-06-17 07:00","2021","06","17","07:00","11.7","","6.4","","70","","","","19","","5","","24.1","","97.80","","","","","","Mainly Clear"
"-84.79","47.97","WAWA A","6059407","2021-06-17 08:00","2021","06","17","08:00","14.6","","7.0","","60","","","","21","","9","","24.1","","97.76","","","","","","NA"
"-84.79","47.97","WAWA A","6059407","2021-06-17 09:00","2021","06","17","09:00","15.8","","7.0","","56","","","","23","","12","","24.1","","97.72","","","","","","NA"
"-84.79","47.97","WAWA A","6059407","2021-06-17 10:00","2021","06","17","10:00","17.2","","9.2","","59","","","","25","","9","","24.1","","97.68","","","","","","Mostly Cloudy"
"-84.79","47.97","WAWA A","6059407","2021-06-17 11:00","2021","06","17","11:00","17.2","","9.0","","58","","","","24","","10","","24.1","","97.62","","","","","","NA"
"-84.79","47.97","WAWA A","6059407","2021-06-17 12:00","2021","06","17","12:00","20.4","","10.0","","51","","","","24","","21","","24.1","","97.51","","","","","","NA"
"-84.79","47.97","WAWA A","6059407","2021-06-17 13:00","2021","06","17","13:00","21.3","","10.9","","51","","","","26","","13","","24.1","","97.47","","","","","","Mainly Clear"
"-84.79","47.97","WAWA A","6059407","2021-06-17 14:00","2021","06","17","14:00","22.6","","11.4","","49","","","","23","","18","","24.1","","97.36","","25","","","","NA"
"-84.79","47.97","WAWA A","6059407","2021-06-17 15:00","2021","06","17","15:00","23.4","","12.1","","49","","","","22","","17","","24.1","","97.25","","26","","","","NA"
"-84.79","47.97","WAWA A","6059407","2021-06-17 16:00","2021","06","17","16:00","24.2","","12.2","","47","","","","23","","23","","24.1","","97.19","","27","","","","Mainly Clear"
"-84.79","47.97","WAWA A","6059407","2021-06-17 17:00","2021","06","17","17:00","17.6","","9.9","","60","","","","23","","11","","24.1","","97.22","","","","","","NA"
"-84.79","47.97","WAWA A","6059407","2021-06-17 18:00","2021","06","17","18:00","16.2","","9.3","","63","","","","22","","12","","24.1","","97.23","","","","","","NA"
"-84.79","47.97","WAWA A","6059407","2021-06-17 19:00","2021","06","17","19:00","18.0","","9.9","","59","","","","22","","9","","24.1","","97.17","","","","","","Mostly Cloudy"
"-84.79","47.97","WAWA A","6059407","2021-06-17 20:00","2021","06","17","20:00"
"-84.79","47.97","WAWA A","6059407","2021-06-17 21:00","2021","06","17","21:00"
"-84.79","47.97","WAWA A","6059407","2021-06-17 22:00","2021","06","17","22:00"
"-84.79","47.97","WAWA A","6059407","2021-06-17 23:00","2021","06","17","23:00"
"-84.79","47.97","WAWA A","6059407","2021-06-18 00:00","2021","06","18","00:00"
"-84.79","47.97","WAWA A","6059407","2021-06-18 01:00","2021","06","18","01:00"
"-84.79","47.97","WAWA A","6059407","2021-06-18 02:00","2021","06","18","02:00"
"-84.79","47.97","WAWA A","6059407","2021-06-18 03:00","2021","06","18","03:00"
"-84.79","47.97","WAWA A","6059407","2021-06-18 04:00","2021","06","18","04:00"
"-84.79","47.97","WAWA A","6059407","2021-06-18 05:00","2021","06","18","05:00"
"-84.79","47.97","WAWA A","6059407","2021-06-18 06:00","2021","06","18","06:00","9.8","","9.4","","97","","","","15","","3","","24.1","","96.93","","","","","","NA"
"-84.79","47.97","WAWA A","6059407","2021-06-18 07:00","2021","06","18","07:00","13.9","","11.3","","84","","","","21","","5","","24.1","","96.89","","","","","","Clear"
"-84.79","47.97","WAWA A","6059407","2021-06-18 08:00","2021","06","18","08:00","13.1","","10.8","","86","","","","23","","7","","24.1","","96.91","","","","","","NA"
"-84.79","47.97","WAWA A","6059407","2021-06-18 09:00","2021","06","18","09:00","19.2","","12.5","","65","","","","22","","10","","24.1","","96.77","","","","","","NA"
"-84.79","47.97","WAWA A","6059407","2021-06-18 10:00","2021","06","18","10:00","15.5","","10.7","","73","","","","24","","14","","24.1","","96.80","","","","","","Clear"
"-84.79","47.97","WAWA A","6059407","2021-06-18 11:00","2021","06","18","11:00","15.3","","10.6","","73","","","","25","","19","","24.1","","96.79","","","","","","NA"
"-84.79","47.97","WAWA A","6059407","2021-06-18 12:00","2021","06","18","12:00","14.2","","9.2","","72","","","","22","","13","","24.1","","96.81","","","","","","NA"
"-84.79","47.97","WAWA A","6059407","2021-06-18 13:00","2021","06","18","13:00","13.9","","8.6","","70","","","","23","","17","","24.1","","96.81","","","","","","Clear"
"-84.79","47.97","WAWA A","6059407","2021-06-18 14:00","2021","06","18","14:00","14.9","","8.1","","63","","","","22","","15","","24.1","","96.83","","","","","","NA"
"-84.79","47.97","WAWA A","6059407","2021-06-18 15:00","2021","06","18","15:00","13.2","","6.5","","63","","","","26","","8","","24.1","","96.86","","","","","","NA"
"-84.79","47.97","WAWA A","6059407","2021-06-18 16:00","2021","06","18","16:00","13.0","","6.6","","65","","","","22","","12","","24.1","","96.90","","","","","","Mostly Cloudy"
"-84.79","47.97","WAWA A","6059407","2021-06-18 17:00","2021","06","18","17:00","10.4","","6.0","","74","","","","21","","12","","24.1","","96.96","","","","","","NA"
"-84.79","47.97","WAWA A","6059407","2021-06-18 18:00","2021","06","18","18:00","9.5","","6.8","","84","","","","20","","8","","19.3","","96.99","","","","","","Rain Showers"
"-84.79","47.97","WAWA A","6059407","2021-06-18 19:00","2021","06","18","19:00","10.1","","6.7","","80","","","","22","","8","","24.1","","97.00","","","","","","Mostly Cloudy"
"-84.79","47.97","WAWA A","6059407","2021-06-18 20:00","2021","06","18","20:00"
"-84.79","47.97","WAWA A","6059407","2021-06-18 21:00","2021","06","18","21:00"
"-84.79","47.97","WAWA A","6059407","2021-06-18 22:00","2021","06","18","22:00"
"-84.79","47.97","WAWA A","6059407","2021-06-18 23:00","2021","06","18","23:00"
"-84.79","47.97","WAWA A","6059407","2021-06-19 00:00","2021","06","19","00:00"
"-84.79","47.97","WAWA A","6059407","2021-06-19 01:00","2021","06","19","01:00"
"-84.79","47.97","WAWA A","6059407","2021-06-19 02:00","2021","06","19","02:00"
"-84.79","47.97","WAWA A","6059407","2021-06-19 03:00","2021","06","19","03:00"
"-84.79","47.97","WAWA A","6059407","2021-06-19 04:00","2021","06","19","04:00"
"-84.79","47.97","WAWA A","6059407","2021-06-19 05:00","2021","06","19","05:00"
"-84.79","47.97","WAWA A","6059407","2021-06-19 06:00","2021","06","19","06:00","8.6","","8.1","","96","","","","16","","7","","24.1","","97.37","","","","","","NA"
"-84.79","47.97","WAWA A","6059407","2021-06-19 07:00","2021","06","19","07:00","10.3","","8.8","","90","","","","36","","1","","24.1","","97.43","","","","","","Mostly Cloudy"
"-84.79","47.97","WAWA A","6059407","2021-06-19 08:00","2021","06","19","08:00","11.8","","7.6","","75","","","","31","","5","","24.1","","97.50","","","","","","NA"
"-84.79","47.97","WAWA A","6059407","2021-06-19 09:00","2021","06","19","09:00","13.4","","8.3","","71","","","","28","","5","","24.1","","97.44","","","","","","NA"
"-84.79","47.97","WAWA A","6059407","2021-06-19 10:00","2021","06","19","10:00","14.7","","8.2","","65","","","","36","","10","","24.1","","97.43","","","","","","Mostly Cloudy"
"-84.79","47.97","WAWA A","6059407","2021-06-19 11:00","2021","06","19","11:00","15.2","","9.1","","67","","","","29","","4","","24.1","","97.42","","","","","","NA"
"-84.79","47.97","WAWA A","6059407","2021-06-19 12:00","2021","06","19","12:00","11.8","","8.7","","81","","","","21","","14","","24.1","","97.51","","","","","","NA"
"-84.79","47.97","WAWA A","6059407","2021-06-19 13:00","2021","06","19","13:00","12.5","","7.6","","72","","","","23","","13","","24.1","","97.47","","","","","","Mostly Cloudy"
"-84.79","47.97","WAWA A","6059407","2021-06-19 14:00","2021","06","19","14:00","11.8","","7.2","","73","","","","25","","13","","24.1","","97.48","","","","","","NA"
"-84.79","47.97","WAWA A","6059407","2021-06-19 15:00","2021","06","19","15:00","11.6","","6.8","","72","","","","26","","13","","24.1","","97.48","","","","","","NA"
"-84.79","47.97","WAWA A","6059407","2021-06-19 16:00","2021","06","19","16:00","10.5","","7.1","","79","","","","29","","6","","24.1","","97.50","","","","","","Mostly Cloudy"
"-84.79","47.97","WAWA A","6059407","2021-06-19 17:00","2021","06","19","17:00","9.4","","7.0","","85","","","","21","","7","","24.1","","97.50","","","","","","NA"
"-84.79","47.97","WAWA A","6059407","2021-06-19 18:00","2021","06","19","18:00","10.4","","7.1","","80","","","","20","","11","","24.1","","97.49","","","","","","NA"
"-84.79","47.97","WAWA A","6059407","2021-06-19 19:00","2021","06","19","19:00","9.0","","6.6","","85","","","","22","","5","","24.1","","97.47","","","","","","Mostly Cloudy"
"-84.79","47.97","WAWA A","6059407","2021-06-19 20:00","2021","06","19","20:00"
"-84.79","47.97","WAWA A","6059407","2021-06-19 21:00","2021","06","19","21:00"
"-84.79","47.97","WAWA A","6059407","2021-06-19 22:00","2021","06","19","22:00"
"-84.79","47.97","WAWA A","6059407","2021-06-19 23:00","2021","06","19","23:00"
"-84.79","47.97","WAWA A","6059407","2021-06-20 00:00","2021","06","20","00:00"
"-84.79","47.97","WAWA A","6059407","2021-06-20 01:00","2021","06","20","01:00"
"-84.79","47.97","WAWA A","6059407","2021-06-20 02:00","2021","06","20","02:00"
"-84.79","47.97","WAWA A","6059407","2021-06-20 03:00","2021","06","20","03:00"
"-84.79","47.97","WAWA A","6059407","2021-06-20 04:00","2021","06","20","04:00"
"-84.79","47.97","WAWA A","6059407","2021-06-20 05:00","2021","06","20","05:00"
"-84.79","47.97","WAWA A","6059407","2021-06-20 06:00","2021","06","20","06:00","7.3","","7.2","","99","","","","17","","4","","11.3","","97.36","","","","","","NA"
"-84.79","47.97","WAWA A","6059407","2021-06-20 07:00","2021","06","20","07:00","8.2","","7.9","","98","","","","18","","3","","24.1","","97.32","","","","","","Mostly Cloudy"
"-84.79","47.97","WAWA A","6059407","2021-06-20 08:00","2021","06","20","08:00","11.7","","9.3","","85","","","","21","","4","","24.1","","97.30","","","","","","NA"
"-84.79","47.97","WAWA A","6059407","2021-06-20 09:00","2021","06","20","09:00","13.2","","8.5","","73","","","","27","","7","","24.1","","97.31","","","","","","NA"
"-84.79","47.97","WAWA A","6059407","2021-06-20 10:00","2021","06","20","10:00","12.8","","8.6","","75","","","","28","","7","","24.1","","97.30","","","","","","Mostly Cloudy"
"-84.79","47.97","WAWA A","6059407","2021-06-20 11:00","2021","06","20","11:00","11.0","","7.4","","79","","","","26","","16","","24.1","","97.31","","","","","","NA"
"-84.79","47.97","WAWA A","6059407","2021-06-20 12:00","2021","06","20","12:00","11.7","","7.0","","73","","","","22","","21","","24.1","","97.41","","","","","","NA"
"-84.79","47.97","WAWA A","6059407","2021-06-20 13:00","2021","06","20","13:00","13.8","","8.5","","70","","","","25","","8","","24.1","","97.36","","","","","","Mostly Cloudy"
"-84.79","47.97","WAWA A","6059407","2021-06-20 14:00","2021","06","20","14:00","13.4","","8.0","","69","","","","23","","8","","24.1","","97.28","","","","","","NA"
"-84.79","47.97","WAWA A","6059407","2021-06-20 15:00","2021","06","20","15:00","11.5","","7.0","","74","","","","20","","10","","24.1","","97.22","","","","","","NA"
"-84.79","47.97","WAWA A","6059407","2021-06-20 16:00","2021","06","20","16:00","14.7","","7.5","","62","","","","21","","9","","24.1","","97.07","","","","","","Mostly Cloudy"
"-84.79","47.97","WAWA A","6059407","2021-06-20 17:00","2021","06","20","17:00","15.9","","8.8","","63","","","","21","","8","","24.1","","97.01","","","","","","NA"
"-84.79","47.97","WAWA A","6059407","2021-06-20 18:00","2021","06","20","18:00","15.4","","9.1","","66","","","","26","","7","","24.1","","97.03","","","","","","NA"
"-84.79","47.97","WAWA A","6059407","2021-06-20 19:00","2021","06","20","19:00","11.0","","7.1","","77","","","","24","","9","","24.1","","97.06","","","","","","Rain"
"-84.79","47.97","WAWA A","6059407","2021-06-20 20:00","2021","06","20","20:00"
"-84.79","47.97","WAWA A","6059407","2021-06-20 21:00","2021","06","20","21:00"
"-84.79","47.97","WAWA A","6059407","2021-06-20 22:00","2021","06","20","22:00"
"-84.79","47.97","WAWA A","6059407","2021-06-20 23:00","2021","06","20","23:00"
"-84.79","47.97","WAWA A","6059407","2021-06-21 00:00","2021","06","21","00:00"
"-84.79","47.97","WAWA A","6059407","2021-06-21 01:00","2021","06","21","01:00"
"-84.79","47.97","WAWA A","6059407","2021-06-21 02:00","2021","06","21","02:00"
"-84.79","47.97","WAWA A","6059407","2021-06-21 03:00","2021","06","21","03:00"
"-84.79","47.97","WAWA A","6059407","2021-06-21 04:00","2021","06","21","04:00"
"-84.79","47.97","WAWA A","6059407","2021-06-21 05:00","2021","06","21","05:00"
"-84.79","47.97","WAWA A","6059407","2021-06-21 06:00","2021","06","21","06:00","12.5","","12.5","","100","","","","3","","12","","6.4","","96.21","","","","","","Rain"
"-84.79","47.97","WAWA A","6059407","2021-06-21 07:00","2021","06","21","07:00","10.2","","10.0","","99","","","","35","","19","","4.8","","96.28","","","","","","Moderate Rain"
"-84.79","47.97","WAWA A","6059407","2021-06-21 08:00","2021","06","21","08:00","7.1","","6.8","","98","","","","36","","16","","11.3","","96.37","","","","","","Rain"
"-84.79","47.97","WAWA A","6059407","2021-06-21 09:00","2021","06","21","09:00","6.4","","5.8","","96","","","","2","","22","","16.1","","96.44","","","","","","Rain"
"-84.79","47.97","WAWA A","6059407","2021-06-21 10:00","2021","06","21","10:00","6.3","","5.4","","94","","","","2","","18","","12.9","","96.52","","","","","","Rain"
"-84.79","47.97","WAWA A","6059407","2021-06-21 11:00","2021","06","21","11:00","6.8","","5.6","","92","","","","35","","17","","24.1","","96.64","","","","","","Rain"
"-84.79","47.97","WAWA A","6059407","2021-06-21 12:00","2021","06","21","12:00","7.3","","5.1","","86","","","","1","","20","","24.1","","96.74","","","","","","NA"
"-84.79","47.97","WAWA A","6059407","2021-06-21 13:00","2021","06","21","13:00","7.0","","4.9","","86","","","","35","","17","","24.1","","96.93","","","","","","Cloudy"
"-84.79","47.97","WAWA A","6059407","2021-06-21 14:00","2021","06","21","14:00","7.4","","4.5","","82","","","","32","","16","","24.1","","97.02","","","","","","NA"
"-84.79","47.97","WAWA A","6059407","2021-06-21 15:00","2021","06","21","15:00","9.5","","5.0","","73","","","","36","","8","","24.1","","97.06","","","","","","NA"
"-84.79","47.97","WAWA A","6059407","2021-06-21 16:00","2021","06","21","16:00","11.5","","5.0","","64","","","","31","","10","","24.1","","97.06","","","","","","Mostly Cloudy"
"-84.79","47.97","WAWA A","6059407","2021-06-21 17:00","2021","06","21","17:00","11.2","","4.2","","62","","","","32","","8","","24.1","","97.10","","","","","","NA"
"-84.79","47.97","WAWA A","6059407","2021-06-21 18:00","2021","06","21","18:00","9.0","","4.6","","74","","","","24","","8","","24.1","","97.18","","","","","","Rain Showers"
"-84.79","47.97","WAWA A","6059407","2021-06-21 19:00","2021","06","21","19:00","9.0","","5.3","","77","","","","21","","14","","24.1","","97.24","","","","","","Mainly Clear"
"-84.79","47.97","WAWA A","6059407","2021-06-21 20:00","2021","06","21","20:00"
"-84.79","47.97","WAWA A","6059407","2021-06-21 21:00","2021","06","21","21:00"
"-84.79","47.97","WAWA A","6059407","2021-06-21 22:00","2021","06","21","22:00"
"-84.79","47.97","WAWA A","6059407","2021-06-21 23:00","2021","06","21","23:00"
"-84.79","47.97","WAWA A","6059407","2021-06-22 00:00","2021","06","22","00:00"
"-84.79","47.97","WAWA A","6059407","2021-06-22 01:00","2021","06","22","01:00"
"-84.79","47.97","WAWA A","6059407","2021-06-22 02:00","2021","06","22","02:00"
"-84.79","47.97","WAWA A","6059407","2021-06-22 03:00","2021","06","22","03:00"
"-84.79","47.97","WAWA A","6059407","2021-06-22 04:00","2021","06","22","04:00"
"-84.79","47.97","WAWA A","6059407","2021-06-22 05:00","2021","06","22","05:00"
"-84.79","47.97","WAWA A","6059407","2021-06-22 06:00","2021","06","22","06:00","4.5","","4.5","","100","","","","36","","2","","24.1","","97.66","","","","","","NA"
"-84.79","47.97","WAWA A","6059407","2021-06-22 07:00","2021","06","22","07:00","5.0","","5.0","","100","","","","31","","3","","24.1","","97.72","","","","","","Mostly Cloudy"
"-84.79","47.97","WAWA A","6059407","2021-06-22 08:00","2021","06","22","08:00","7.4","","7.1","","98","","","","20","","7","","24.1","","97.77","","","","","","NA"
"-84.79","47.97","WAWA A","6059407","2021-06-22 09:00","2021","06","22","09:00","9.3","","4.6","","72","","","","20","","13","","24.1","","97.79","","","","","","NA"
"-84.79","47.97","WAWA A","6059407","2021-06-22 10:00","2021","06","22","10:00","9.1","","2.7","","64","","","","24","","8","","24.1","","97.82","","","","","","Mostly Cloudy"
"-84.79","47.97","WAWA A","6059407","2021-06-22 11:00","2021","06","22","11:00","9.6","","5.5","","76","","","","24","","14","","24.1","","97.84","","","","","","NA"
"-84.79","47.97","WAWA A","6059407","2021-06-22 12:00","2021","06","22","12:00","9.9","","5.3","","73","","","","23","","16","","24.1","","97.83","","","","","","NA"
"-84.79","47.97","WAWA A","6059407","2021-06-22 13:00","2021","06","22","13:00","10.9","","3.2","","59","","","","22","","16","","24.1","","97.80","","","","","","Mainly Clear"
"-84.79","47.97","WAWA A","6059407","2021-06-22 14:00","2021","06","22","14:00","12.0","","2.2","","51","","","","23","","15","","24.1","","97.78","","","","","","NA"
"-84.79","47.97","WAWA A","6059407","2021-06-22 15:00","2021","06","22","15:00","11.4","","2.7","","55","","","","24","","18","","24.1","","97.75","","","","","","NA"
"-84.79","47.97","WAWA A","6059407","2021-06-22 16:00","2021","06","22","16:00","11.3","","5.0","","65","","","","23","","18","","24.1","","97.77","","","","","","Mainly Clear"
"-84.79","47.97","WAWA A","6059407","2021-06-22 17:00","2021","06","22","17:00","11.2","","5.1","","66","","","","23","","16","","24.1","","97.79","","","","","","NA"
"-84.79","47.97","WAWA A","6059407","2021-06-22 18:00","2021","06","22","18:00","10.0","","4.7","","69","","","","25","","13","","24.1","","97.81","","","","","","NA"
"-84.79","47.97","WAWA A","6059407","2021-06-22 19:00","2021","06","22","19:00","8.8","","5.4","","79","","","","23","","9","","24.1","","97.83","","","","","","Mostly Cloudy"
"-84.79","47.97","WAWA A","6059407","2021-06-22 20:00","2021","06","22","20:00"
"-84.79","47.97","WAWA A","6059407","2021-06-22 21:00","2021","06","22","21:00"
"-84.79","47.97","WAWA A","6059407","2021-06-22 22:00","2021","06","22","22:00"
"-84.79","47.97","WAWA A","6059407","2021-06-22 23:00","2021","06","22","23:00"
"-84.79","47.97","WAWA A","6059407","2021-06-23 00:00","2021","06","23","00:00"
"-84.79","47.97","WAWA A","6059407","2021-06-23 01:00","2021","06","23","01:00"
"-84.79","47.97","WAWA A","6059407","2021-06-23 02:00","2021","06","23","02:00"
"-84.79","47.97","WAWA A","6059407","2021-06-23 03:00","2021","06","23","03:00"
"-84.79","47.97","WAWA A","6059407","2021-06-23 04:00","2021","06","23","04:00"
"-84.79","47.97","WAWA A","6059407","2021-06-23 05:00","2021","06","23","05:00"
"-84.79","47.97","WAWA A","6059407","2021-06-23 06:00","2021","06","23","06:00","6.1","","5.8","","98","","","","36","","2","","24.1","","97.89","","","","","","NA"
"-84.79","47.97","WAWA A","6059407","2021-06-23 07:00","2021","06","23","07:00","7.0","","6.6","","97","","","","31","","8","","24.1","","97.93","","","","","","Mostly Cloudy"
"-84.79","47.97","WAWA A","6059407","2021-06-23 08:00","2021","06","23","08:00","10.3","","8.9","","91","","","","19","","13","","24.1","","97.87","","","","","","NA"
"-84.79","47.97","WAWA A","6059407","2021-06-23 09:00","2021","06","23","09:00","10.5","","9.2","","92","","","","18","","10","","24.1","","97.88","","","","","","NA"
"-84.79","47.97","WAWA A","6059407","2021-06-23 10:00","2021","06","23","10:00","15.1","","9.8","","71","","","","21","","19","","24.1","","97.85","","","","","","Mostly Cloudy"
"-84.79","47.97","WAWA A","6059407","2021-06-23 11:00","2021","06","23","11:00","17.0","","7.5","","53","","","","22","","19","","24.1","","97.87","","","","","","NA"
"-84.79","47.97","WAWA A","6059407","2021-06-23 12:00","2021","06","23","12:00","15.8","","9.5","","66","","","","24","","13","","24.1","","97.85","","","","","","NA"
"-84.79","47.97","WAWA A","6059407","2021-06-23 13:00","2021","06","23","13:00","16.4","","10.0","","65","","","","24","","15","","24.1","","97.82","","","","","","Mainly Clear"
"-84.79","47.97","WAWA A","6059407","2021-06-23 14:00","2021","06","23","14:00","17.5","","9.7","","60","","","","24","","15","","24.1","","97.76","","","","","","NA"
"-84.79","47.97","WAWA A","6059407","2021-06-23 15:00","2021","06","23","15:00","19.2","","9.3","","52","","","","24","","15","","24.1","","97.75","","","","","","NA"
"-84.79","47.97","WAWA A","6059407","2021-06-23 16:00","2021","06","23","16:00","18.9","","9.0","","52","","","","25","","13","","24.1","","97.68","","","","","","Mainly Clear"
"-84.79","47.97","WAWA A","6059407","2021-06-23 17:00","2021","06","23","17:00","19.8","","9.9","","52","","","","24","","10","","24.1","","97.63","","","","","","NA"
"-84.79","47.97","WAWA A","6059407","2021-06-23 18:00","2021","06","23","18:00","21.0","","10.6","","51","","","","23","","27","","24.1","","97.61","","","","","","NA"
"-84.79","47.97","WAWA A","6059407","2021-06-23 19:00","2021","06","23","19:00","20.7","","12.6","","59","","","","21","","33","","24.1","","97.57","","","","","","Mostly Cloudy"
"-84.79","47.97","WAWA A","6059407","2021-06-23 20:00","2021","06","23","20:00"
"-84.79","47.97","WAWA A","6059407","2021-06-23 21:00","2021","06","23","21:00"
"-84.79","47.97","WAWA A","6059407","2021-06-23 22:00","2021","06","23","22:00"
"-84.79","47.97","WAWA A","6059407","2021-06-23 23:00","2021","06","23","23:00"
"-84.79","47.97","WAWA A","6059407","2021-06-24 00:00","2021","06","24","00:00"
"-84.79","47.97","WAWA A","6059407","2021-06-24 01:00","2021","06","24","01:00"
"-84.79","47.97","WAWA A","6059407","2021-06-24 02:00","2021","06","24","02:00"
"-84.79","47.97","WAWA A","6059407","2021-06-24 03:00","2021","06","24","03:00"
"-84.79","47.97","WAWA A","6059407","2021-06-24 04:00","2021","06","24","04:00"
"-84.79","47.97","WAWA A","6059407","2021-06-24 05:00","2021","06","24","05:00"
"-84.79","47.97","WAWA A","6059407","2021-06-24 06:00","2021","06","24","06:00","17.1","","13.3","","78","","","","23","","11","","19.3","","97.42","","","","","","Rain"
"-84.79","47.97","WAWA A","6059407","2021-06-24 07:00","2021","06","24","07:00","14.3","","13.5","","95","","","","22","","12","","4.8","","97.47","","","","","","Thunderstorms,Moderate Rain Showers,Fog"
"-84.79","47.97","WAWA A","6059407","2021-06-24 08:00","2021","06","24","08:00","13.5","","13.1","","98","","","","23","","7","","16.1","","97.49","","","","","","NA"
"-84.79","47.97","WAWA A","6059407","2021-06-24 09:00","2021","06","24","09:00","13.3","","13.1","","98","","","","16","","8","","19.3","","97.49","","","","","","NA"
"-84.79","47.97","WAWA A","6059407","2021-06-24 10:00","2021","06","24","10:00","15.5","","15.0","","97","","","","20","","8","","19.3","","97.44","","","","","","Cloudy"
"-84.79","47.97","WAWA A","6059407","2021-06-24 11:00","2021","06","24","11:00","15.7","","15.0","","96","","","","23","","10","","16.1","","97.57","","","","","","NA"
"-84.79","47.97","WAWA A","6059407","2021-06-24 12:00","2021","06","24","12:00","16.1","","14.9","","93","","","","20","","10","","24.1","","97.58","","","","","","NA"
"-84.79","47.97","WAWA A","6059407","2021-06-24 13:00","2021","06","24","13:00","16.1","","14.2","","88","","","","21","","16","","24.1","","97.60","","","","","","Cloudy"
"-84.79","47.97","WAWA A","6059407","2021-06-24 14:00","2021","06","24","14:00","17.8","","15.3","","85","","","","21","","15","","24.1","","97.61","","","","","","NA"
"-84.79","47.97","WAWA A","6059407","2021-06-24 15:00","2021","06","24","15:00","15.3","","13.7","","90","","","","23","","7","","24.1","","97.66","","","","","","NA"
"-84.79","47.97","WAWA A","6059407","2021-06-24 16:00","2021","06","24","16:00","16.9","","15.3","","90","","","","17","","6","","24.1","","97.64","","","","","","Cloudy"
"-84.79","47.97","WAWA A","6059407","2021-06-24 17:00","2021","06","24","17:00","17.6","","15.7","","89","","","","22","","10","","24.1","","97.63","","","","","","NA"
"-84.79","47.97","WAWA A","6059407","2021-06-24 18:00","2021","06","24","18:00","18.1","","16.2","","88","","","","20","","11","","24.1","","97.68","","","","","","NA"
"-84.79","47.97","WAWA A","6059407","2021-06-24 19:00","2021","06","24","19:00","16.3","","14.8","","91","","","","29","","4","","24.1","","97.74","","","","","","Cloudy"
"-84.79","47.97","WAWA A","6059407","2021-06-24 20:00","2021","06","24","20:00"
"-84.79","47.97","WAWA A","6059407","2021-06-24 21:00","2021","06","24","21:00"
"-84.79","47.97","WAWA A","6059407","2021-06-24 22:00","2021","06","24","22:00"
"-84.79","47.97","WAWA A","6059407","2021-06-24 23:00","2021","06","24","23:00"
"-84.79","47.97","WAWA A","6059407","2021-06-25 00:00","2021","06","25","00:00"
"-84.79","47.97","WAWA A","6059407","2021-06-25 01:00","2021","06","25","01:00"
"-84.79","47.97","WAWA A","6059407","2021-06-25 02:00","2021","06","25","02:00"
"-84.79","47.97","WAWA A","6059407","2021-06-25 03:00","2021","06","25","03:00"
"-84.79","47.97","WAWA A","6059407","2021-06-25 04:00","2021","06","25","04:00"
"-84.79","47.97","WAWA A","6059407","2021-06-25 05:00","2021","06","25","05:00"
"-84.79","47.97","WAWA A","6059407","2021-06-25 06:00","2021","06","25","06:00","15.7","","15.7","","100","","","","36","","3","","2.4","","97.88","","","","","","Fog"
"-84.79","47.97","WAWA A","6059407","2021-06-25 07:00","2021","06","25","07:00","16.8","","16.8","","100","","","","36","","5","","2.4","","97.89","","","","","","Fog"
"-84.79","47.97","WAWA A","6059407","2021-06-25 08:00","2021","06","25","08:00","17.9","","16.8","","93","","","","31","","4","","12.9","","97.90","","","","","","NA"
"-84.79","47.97","WAWA A","6059407","2021-06-25 09:00","2021","06","25","09:00","19.9","","16.1","","78","","","","36","","2","","24.1","","97.86","","","","","","NA"
"-84.79","47.97","WAWA A","6059407","2021-06-25 10:00","2021","06","25","10:00","21.1","","16.4","","74","","","","32","","3","","24.1","","97.84","","26","","","","Mainly Clear"
"-84.79","47.97","WAWA A","6059407","2021-06-25 11:00","2021","06","25","11:00","22.4","","17.8","","75","","","","20","","9","","24.1","","97.84","","28","","","","NA"
"-84.79","47.97","WAWA A","6059407","2021-06-25 12:00","2021","06","25","12:00","22.2","","17.9","","76","","","","27","","6","","24.1","","97.83","","28","","","","NA"
"-84.79","47.97","WAWA A","6059407","2021-06-25 13:00","2021","06","25","13:00","23.1","","16.9","","68","","","","26","","12","","24.1","","97.77","","28","","","","Mainly Clear"
"-84.79","47.97","WAWA A","6059407","2021-06-25 14:00","2021","06","25","14:00","21.6","","16.5","","72","","","","24","","17","","24.1","","97.75","","27","","","","NA"
"-84.79","47.97","WAWA A","6059407","2021-06-25 15:00","2021","06","25","15:00","19.0","","15.1","","78","","","","25","","8","","24.1","","97.78","","","","","","NA"
"-84.79","47.97","WAWA A","6059407","2021-06-25 16:00","2021","06","25","16:00","17.1","","14.2","","83","","","","22","","14","","24.1","","97.79","","","","","","Mostly Cloudy"
"-84.79","47.97","WAWA A","6059407","2021-06-25 17:00","2021","06","25","17:00","13.6","","12.2","","91","","","","20","","10","","2.4","","97.81","","","","","","Fog"
"-84.79","47.97","WAWA A","6059407","2021-06-25 18:00","2021","06","25","18:00","15.8","","12.8","","82","","","","21","","10","","24.1","","97.78","","","","","","NA"
"-84.79","47.97","WAWA A","6059407","2021-06-25 19:00","2021","06","25","19:00","16.4","","12.2","","76","","","","20","","8","","24.1","","97.74","","","","","","Mainly Clear"
"-84.79","47.97","WAWA A","6059407","2021-06-25 20:00","2021","06","25","20:00"
"-84.79","47.97","WAWA A","6059407","2021-06-25 21:00","2021","06","25","21:00"
"-84.79","47.97","WAWA A","6059407","2021-06-25 22:00","2021","06","25","22:00"
"-84.79","47.97","WAWA A","6059407","2021-06-25 23:00","2021","06","25","23:00"
"-84.79","47.97","WAWA A","6059407","2021-06-26 00:00","2021","06","26","00:00"
"-84.79","47.97","WAWA A","6059407","2021-06-26 01:00","2021","06","26","01:00"
"-84.79","47.97","WAWA A","6059407","2021-06-26 02:00","2021","06","26","02:00"
"-84.79","47.97","WAWA A","6059407","2021-06-26 03:00","2021","06","26","03:00"
"-84.79","47.97","WAWA A","6059407","2021-06-26 04:00","2021","06","26","04:00"
"-84.79","47.97","WAWA A","6059407","2021-06-26 05:00","2021","06","26","05:00"
"-84.79","47.97","WAWA A","6059407","2021-06-26 06:00","2021","06","26","06:00","10.3","","10.3","","100","","","","0","","1","","24.1","","97.77","","","","","","NA"
"-84.79","47.97","WAWA A","6059407","2021-06-26 07:00","2021","06","26","07:00","11.7","","11.7","","100","","","","32","","3","","24.1","","97.76","","","","","","Mostly Cloudy"
"-84.79","47.97","WAWA A","6059407","2021-06-26 08:00","2021","06","26","08:00","14.5","","13.6","","94","","","","23","","3","","24.1","","97.77","","","","","","NA"
"-84.79","47.97","WAWA A","6059407","2021-06-26 09:00","2021","06","26","09:00","16.7","","13.1","","79","","","","22","","8","","24.1","","97.75","","","","","","NA"
"-84.79","47.97","WAWA A","6059407","2021-06-26 10:00","2021","06","26","10:00","19.3","","12.8","","65","","","","28","","3","","24.1","","97.71","","","","","","Mostly Cloudy"
"-84.79","47.97","WAWA A","6059407","2021-06-26 11:00","2021","06","26","11:00","18.8","","13.0","","69","","","","28","","4","","24.1","","97.71","","","","","","NA"
"-84.79","47.97","WAWA A","6059407","2021-06-26 12:00","2021","06","26","12:00","18.6","","12.4","","67","","","","23","","9","","24.1","","97.70","","","","","","NA"
"-84.79","47.97","WAWA A","6059407","2021-06-26 13:00","2021","06","26","13:00","17.9","","11.8","","67","","","","25","","11","","24.1","","97.65","","","","","","Mostly Cloudy"
"-84.79","47.97","WAWA A","6059407","2021-06-26 14:00","2021","06","26","14:00","15.0","","10.8","","76","","","","27","","7","","24.1","","97.70","","","","","","NA"
"-84.79","47.97","WAWA A","6059407","2021-06-26 15:00","2021","06","26","15:00","14.6","","11.0","","79","","","","29","","5","","24.1","","97.66","","","","","","NA"
"-84.79","47.97","WAWA A","6059407","2021-06-26 16:00","2021","06","26","16:00","15.4","","10.6","","73","","","","20","","11","","24.1","","97.63","","","","","","Cloudy"
"-84.79","47.97","WAWA A","6059407","2021-06-26 17:00","2021","06","26","17:00","16.8","","10.8","","67","","","","18","","6","","24.1","","97.59","","","","","","NA"
"-84.79","47.97","WAWA A","6059407","2021-06-26 18:00","2021","06","26","18:00","16.8","","9.8","","63","","","","22","","5","","24.1","","97.57","","","","","","NA"
"-84.79","47.97","WAWA A","6059407","2021-06-26 19:00","2021","06","26","19:00","15.4","","9.7","","69","","","","26","","4","","24.1","","97.56","","","","","","Cloudy"
"-84.79","47.97","WAWA A","6059407","2021-06-26 20:00","2021","06","26","20:00"
"-84.79","47.97","WAWA A","6059407","2021-06-26 21:00","2021","06","26","21:00"
"-84.79","47.97","WAWA A","6059407","2021-06-26 22:00","2021","06","26","22:00"
"-84.79","47.97","WAWA A","6059407","2021-06-26 23:00","2021","06","26","23:00"
"-84.79","47.97","WAWA A","6059407","2021-06-27 00:00","2021","06","27","00:00"
"-84.79","47.97","WAWA A","6059407","2021-06-27 01:00","2021","06","27","01:00"
"-84.79","47.97","WAWA A","6059407","2021-06-27 02:00","2021","06","27","02:00"
"-84.79","47.97","WAWA A","6059407","2021-06-27 03:00","2021","06","27","03:00"
"-84.79","47.97","WAWA A","6059407","2021-06-27 04:00","2021","06","27","04:00"
"-84.79","47.97","WAWA A","6059407","2021-06-27 05:00","2021","06","27","05:00"
"-84.79","47.97","WAWA A","6059407","2021-06-27 06:00","2021","06","27","06:00","13.5","","13.4","","100","","","","36","","2","","16.1","","97.54","","","","","","Rain"
"-84.79","47.97","WAWA A","6059407","2021-06-27 07:00","2021","06","27","07:00","13.8","","13.8","","100","","","","20","","7","","16.1","","97.59","","","","","","Rain"
"-84.79","47.97","WAWA A","6059407","2021-06-27 08:00","2021","06","27","08:00","14.6","","14.5","","100","","","","32","","4","","19.3","","97.60","","","","","","NA"
"-84.79","47.97","WAWA A","6059407","2021-06-27 09:00","2021","06","27","09:00","16.1","","15.7","","98","","","","36","","3","","24.1","","97.62","","","","","","NA"
"-84.79","47.97","WAWA A","6059407","2021-06-27 10:00","2021","06","27","10:00","19.6","","16.2","","81","","","","32","","5","","24.1","","97.61","","","","","","Mainly Clear"
"-84.79","47.97","WAWA A","6059407","2021-06-27 11:00","2021","06","27","11:00","22.7","","15.5","","63","","","","13","","3","","24.1","","97.66","","27","","","","NA"
"-84.79","47.97","WAWA A","6059407","2021-06-27 12:00","2021","06","27","12:00","22.1","","14.9","","63","","","","26","","11","","24.1","","97.75","","26","","","","NA"
"-84.79","47.97","WAWA A","6059407","2021-06-27 13:00","2021","06","27","13:00","20.9","","14.6","","67","","","","25","","7","","24.1","","97.78","","25","","","","Mostly Cloudy"
"-84.79","47.97","WAWA A","6059407","2021-06-27 14:00","2021","06","27","14:00","19.7","","13.4","","67","","","","22","","13","","24.1","","97.85","","","","","","NA"
"-84.79","47.97","WAWA A","6059407","2021-06-27 15:00","2021","06","27","15:00","17.1","","12.6","","75","","","","25","","5","","24.1","","97.90","","","","","","NA"
"-84.79","47.97","WAWA A","6059407","2021-06-27 16:00","2021","06","27","16:00","18.9","","13.1","","69","","","","21","","11","","24.1","","97.92","","","","","","Mostly Cloudy"
"-84.79","47.97","WAWA A","6059407","2021-06-27 17:00","2021","06","27","17:00","19.1","","13.0","","68","","","","22","","9","","24.1","","97.92","","","","","","NA"
"-84.79","47.97","WAWA A","6059407","2021-06-27 18:00","2021","06","27","18:00","21.0","","15.1","","69","","","","25","","3","","24.1","","97.94","","25","","","","NA"
"-84.79","47.97","WAWA A","6059407","2021-06-27 19:00","2021","06","27","19:00","17.3","","12.1","","72","","","","22","","8","","24.1","","98.02","","","","","","Cloudy"
"-84.79","47.97","WAWA A","6059407","2021-06-27 20:00","2021","06","27","20:00"
"-84.79","47.97","WAWA A","6059407","2021-06-27 21:00","2021","06","27","21:00"
"-84.79","47.97","WAWA A","6059407","2021-06-27 22:00","2021","06","27","22:00"
"-84.79","47.97","WAWA A","6059407","2021-06-27 23:00","2021","06","27","23:00"
"-84.79","47.97","WAWA A","6059407","2021-06-28 00:00","2021","06","28","00:00"
"-84.79","47.97","WAWA A","6059407","2021-06-28 01:00","2021","06","28","01:00"
"-84.79","47.97","WAWA A","6059407","2021-06-28 02:00","2021","06","28","02:00"
"-84.79","47.97","WAWA A","6059407","2021-06-28 03:00","2021","06","28","03:00"
"-84.79","47.97","WAWA A","6059407","2021-06-28 04:00","2021","06","28","04:00"
"-84.79","47.97","WAWA A","6059407","2021-06-28 05:00","2021","06","28","05:00"
"-84.79","47.97","WAWA A","6059407","2021-06-28 06:00","2021","06","28","06:00","12.8","","11.3","","90","","","","21","","4","","24.1","","98.43","","","","","","NA"
"-84.79","47.97","WAWA A","6059407","2021-06-28 07:00","2021","06","28","07:00","13.6","","11.5","","87","","","","29","","3","","24.1","","98.47","","","","","","Cloudy"
"-84.79","47.97","WAWA A","6059407","2021-06-28 08:00","2021","06","28","08:00","14.9","","12.9","","87","","","","19","","8","","24.1","","98.51","","","","","","NA"
"-84.79","47.97","WAWA A","6059407","2021-06-28 09:00","2021","06","28","09:00","16.6","","13.5","","81","","","","25","","7","","16.1","","98.53","","","","","","NA"
"-84.79","47.97","WAWA A","6059407","2021-06-28 10:00","2021","06","28","10:00","16.1","","12.9","","81","","","","25","","8","","11.3","","98.54","","","","","","Mostly Cloudy"
"-84.79","47.97","WAWA A","6059407","2021-06-28 11:00","2021","06","28","11:00","17.4","","13.9","","80","","","","27","","9","","12.9","","98.55","","","","","","NA"
"-84.79","47.97","WAWA A","6059407","2021-06-28 12:00","2021","06","28","12:00","18.8","","15.0","","79","","","","22","","5","","16.1","","98.57","","","","","","NA"
"-84.79","47.97","WAWA A","6059407","2021-06-28 13:00","2021","06","28","13:00","19.8","","15.2","","75","","","","25","","7","","24.1","","98.57","","","","","","Mainly Clear"
"-84.79","47.97","WAWA A","6059407","2021-06-28 14:00","2021","06","28","14:00","19.4","","14.3","","72","","","","22","","15","","24.1","","98.57","","","","","","NA"
"-84.79","47.97","WAWA A","6059407","2021-06-28 15:00","2021","06","28","15:00","21.3","","15.1","","67","","","","22","","10","","24.1","","98.55","","25","","","","NA"
"-84.79","47.97","WAWA A","6059407","2021-06-28 16:00","2021","06","28","16:00","21.2","","14.7","","66","","","","26","","11","","24.1","","98.51","","25","","","","Mainly Clear"
"-84.79","47.97","WAWA A","6059407","2021-06-28 17:00","2021","06","28","17:00","20.4","","14.6","","69","","","","22","","8","","24.1","","98.50","","","","","","NA"
"-84.79","47.97","WAWA A","6059407","2021-06-28 18:00","2021","06","28","18:00","20.4","","15.3","","72","","","","23","","8","","24.1","","98.48","","25","","","","NA"
"-84.79","47.97","WAWA A","6059407","2021-06-28 19:00","2021","06","28","19:00","18.4","","13.8","","74","","","","25","","11","","24.1","","98.52","","","","","","Mainly Clear"
"-84.79","47.97","WAWA A","6059407","2021-06-28 20:00","2021","06","28","20:00"
"-84.79","47.97","WAWA A","6059407","2021-06-28 21:00","2021","06","28","21:00"
"-84.79","47.97","WAWA A","6059407","2021-06-28 22:00","2021","06","28","22:00"
"-84.79","47.97","WAWA A","6059407","2021-06-28 23:00","2021","06","28","23:00"
"-84.79","47.97","WAWA A","6059407","2021-06-29 00:00","2021","06","29","00:00"
"-84.79","47.97","WAWA A","6059407","2021-06-29 01:00","2021","06","29","01:00"
"-84.79","47.97","WAWA A","6059407","2021-06-29 02:00","2021","06","29","02:00"
"-84.79","47.97","WAWA A","6059407","2021-06-29 03:00","2021","06","29","03:00"
"-84.79","47.97","WAWA A","6059407","2021-06-29 04:00","2021","06","29","04:00"
"-84.79","47.97","WAWA A","6059407","2021-06-29 05:00","2021","06","29","05:00"
"-84.79","47.97","WAWA A","6059407","2021-06-29 06:00","2021","06","29","06:00","14.9","","14.7","","98","","","","36","","3","","24.1","","98.59","","","","","","NA"
"-84.79","47.97","WAWA A","6059407","2021-06-29 07:00","2021","06","29","07:00","15.7","","15.2","","97","","","","31","","4","","24.1","","98.60","","","","","","Cloudy"
"-84.79","47.97","WAWA A","6059407","2021-06-29 08:00","2021","06","29","08:00","17.1","","16.4","","96","","","","","","0","","24.1","","98.61","","","","","","NA"
"-84.79","47.97","WAWA A","6059407","2021-06-29 09:00","2021","06","29","09:00","18.0","","16.7","","92","","","","36","","2","","16.1","","98.61","","","","","","Rain"
"-84.79","47.97","WAWA A","6059407","2021-06-29 10:00","2021","06","29","10:00","18.6","","17.5","","93","","","","21","","5","","16.1","","98.57","","","","","","Rain"
"-84.79","47.97","WAWA A","6059407","2021-06-29 11:00","2021","06","29","11:00","18.2","","17.3","","95","","","","30","","5","","12.9","","98.56","","","","","","Rain"
"-84.79","47.97","WAWA A","6059407","2021-06-29 12:00","2021","06","29","12:00","18.0","","17.7","","98","","","","21","","7","","4.8","","98.57","","","","","","Rain"
"-84.79","47.97","WAWA A","6059407","2021-06-29 13:00","2021","06","29","13:00","16.3","","16.3","","100","","","","22","","5","","4.8","","98.55","","","","","","Rain"
"-84.79","47.97","WAWA A","6059407","2021-06-29 14:00","2021","06","29","14:00","16.9","","16.9","","100","","","","22","","8","","4.8","","98.52","","","","","","Rain"
"-84.79","47.97","WAWA A","6059407","2021-06-29 15:00","2021","06","29","15:00","16.3","","16.3","","100","","","","36","","3","","4.8","","98.47","","","","","","Rain"
"-84.79","47.97","WAWA A","6059407","2021-06-29 16:00","2021","06","29","16:00","16.8","","16.8","","100","","","","36","","3","","4.8","","98.42","","","","","","Rain"
"-84.79","47.97","WAWA A","6059407","2021-06-29 17:00","2021","06","29","17:00","17.8","","17.8","","100","","","","36","","2","","16.1","","98.32","","","","","","Rain"
"-84.79","47.97","WAWA A","6059407","2021-06-29 18:00","2021","06","29","18:00","18.4","","18.2","","99","","","","29","","5","","16.1","","98.31","","","","","","Rain"
"-84.79","47.97","WAWA A","6059407","2021-06-29 19:00","2021","06","29","19:00","18.4","","18.0","","97","","","","24","","3","","24.1","","98.32","","","","","","Mostly Cloudy"
"-84.79","47.97","WAWA A","6059407","2021-06-29 20:00","2021","06","29","20:00"
"-84.79","47.97","WAWA A","6059407","2021-06-29 21:00","2021","06","29","21:00"
"-84.79","47.97","WAWA A","6059407","2021-06-29 22:00","2021","06","29","22:00"
"-84.79","47.97","WAWA A","6059407","2021-06-29 23:00","2021","06","29","23:00"
"-84.79","47.97","WAWA A","6059407","2021-06-30 00:00","2021","06","30","00:00"
"-84.79","47.97","WAWA A","6059407","2021-06-30 01:00","2021","06","30","01:00"
"-84.79","47.97","WAWA A","6059407","2021-06-30 02:00","2021","06","30","02:00"
"-84.79","47.97","WAWA A","6059407","2021-06-30 03:00","2021","06","30","03:00"
"-84.79","47.97","WAWA A","6059407","2021-06-30 04:00","2021","06","30","04:00"
"-84.79","47.97","WAWA A","6059407","2021-06-30 05:00","2021","06","30","05:00"
"-84.79","47.97","WAWA A","6059407","2021-06-30 06:00","2021","06","30","06:00","13.4","","13.4","","100","","","","29","","4","","0.2","","98.24","","","","","","Fog"
"-84.79","47.97","WAWA A","6059407","2021-06-30 07:00","2021","06","30","07:00","13.4","","13.4","","100","","","","36","","2","","0.2","","98.21","","","","","","Fog"
"-84.79","47.97","WAWA A","6059407","2021-06-30 08:00","2021","06","30","08:00","13.4","","13.4","","100","","","","23","","7","","0.2","","98.22","","","","","","Fog"
"-84.79","47.97","WAWA A","6059407","2021-06-30 09:00","2021","06","30","09:00","13.6","","13.6","","100","","","","23","","9","","0.2","","98.26","","","","","","Fog"
"-84.79","47.97","WAWA A","6059407","2021-06-30 10:00","2021","06","30","10:00","14.3","","14.3","","100","","","","36","","3","","0.6","","98.27","","","","","","Fog"
"-84.79","47.97","WAWA A","6059407","2021-06-30 11:00","2021","06","30","11:00","14.6","","14.6","","100","","","","22","","7","","1.6","","98.27","","","","","","Fog"
"-84.79","47.97","WAWA A","6059407","2021-06-30 12:00","2021","06","30","12:00","15.4","","15.4","","100","","","","23","","10","","2.0","","98.28","","","","","","Fog"
"-84.79","47.97","WAWA A","6059407","2021-06-30 13:00","2021","06","30","13:00","17.2","","17.0","","99","","","","21","","9","","4.0","","98.25","","","","","","Fog"
"-84.79","47.97","WAWA A","6059407","2021-06-30 14:00","2021","06","30","14:00","17.1","","15.8","","92","","","","26","","7","","4.0","","98.23","","","","","","Fog"
"-84.79","47.97","WAWA A","6059407","2021-06-30 15:00","2021","06","30","15:00","15.1","","14.2","","94","","","","23","","13","","4.0","","98.22","","","","","","Fog"
"-84.79","47.97","WAWA A","6059407","2021-06-30 16:00","2021","06","30","16:00","14.2","","13.8","","98","","","","19","","12","","2.4","","98.24","","","","","","Fog"
"-84.79","47.97","WAWA A","6059407","2021-06-30 17:00","2021","06","30","17:00","14.4","","14.1","","98","","","","24","","3","","1.2","","98.23","","","","","","Fog"
"-84.79","47.97","WAWA A","6059407","2021-06-30 18:00","2021","06","30","18:00","15.2","","14.4","","95","","","","29","","5","","19.3","","98.26","","","","","","NA"
"-84.79","47.97","WAWA A","6059407","2021-06-30 19:00","2021","06","30","19:00","15.7","","14.7","","94","","","","28","","4","","24.1","","98.30","","","","","","Mainly Clear"
"-84.79","47.97","WAWA A","6059407","2021-06-30 20:00","2021","06","30","20:00"
"-84.79","47.97","WAWA A","6059407","2021-06-30 21:00","2021","06","30","21:00"
"-84.79","47.97","WAWA A","6059407","2021-06-30 22:00","2021","06","30","22:00"
"-84.79","47.97","WAWA A","6059407","2021-06-30 23:00","2021","06","30","23:00"
