"Longitude (x)","Latitude (y)","Station Name","Climate ID","Date/Time (LST)","Year","Month","Day","Time (LST)","Temp (°C)","Temp Flag","Dew Point Temp (°C)","Dew Point Temp Flag","Rel Hum (%)","Rel Hum Flag","Precip. Amount (mm)","Precip. Amount Flag","Wind Dir (10s deg)","Wind Dir Flag","Wind Spd (km/h)","Wind Spd Flag","Visibility (km)","Visibility Flag","Stn Press (kPa)","Stn Press Flag","Hmdx","Hmdx Flag","Wind Chill","Wind Chill Flag","Weather"
"-91.91","50.11","SIOUX LOOKOUT A","6037776","2018-10-01 00:00","2018","10","01","00:00","-2.3","","-3.5","","92","","","","36","","3","","24.1","","98.22","","","","-3","","Mostly Cloudy"
"-91.91","50.11","SIOUX LOOKOUT A","6037776","2018-10-01 01:00","2018","10","01","01:00","-3.8","","-4.1","","98","","","","4","","4","","24.1","","98.27","","","","-5","","NA"
"-91.91","50.11","SIOUX LOOKOUT A","6037776","2018-10-01 02:00","2018","10","01","02:00","-3.9","","-4.5","","96","","","","4","","3","","24.1","","98.29","","","","-5","","NA"
"-91.91","50.11","SIOUX LOOKOUT A","6037776","2018-10-01 03:00","2018","10","01","03:00","-2.8","","-4.0","","92","","","","6","","5","","24.1","","98.27","","","","-5","","Mostly Cloudy"
"-91.91","50.11","SIOUX LOOKOUT A","6037776","2018-10-01 04:00","2018","10","01","04:00","-2.6","","-4.5","","87","","","","9","","4","","24.1","","98.28","","","","-4","","NA"
"-91.91","50.11","SIOUX LOOKOUT A","6037776","2018-10-01 05:00","2018","10","01","05:00","-2.2","","-5.1","","80","","","","8","","5","","24.1","","98.28","","","","-4","","NA"
"-91.91","50.11","SIOUX LOOKOUT A","6037776","2018-10-01 06:00","2018","10","01","06:00","-2.9","","-4.6","","88","","","","12","","5","","24.1","","98.27","","","","-5","","Cloudy"
"-91.91","50.11","SIOUX LOOKOUT A","6037776","2018-10-01 07:00","2018","10","01","07:00","-1.9","","-3.7","","88","","","","12","","4","","24.1","","98.29","","","","-3","","NA"
"-91.91","50.11","SIOUX LOOKOUT A","6037776","2018-10-01 08:00","2018","10","01","08:00","-0.7","","-3.6","","81","","","","11","","5","","24.1","","98.25","","","","-2","","NA"
"-91.91","50.11","SIOUX LOOKOUT A","6037776","2018-10-01 09:00","2018","10","01","09:00","0.7","","-3.3","","75","","","","11","","6","","24.1","","98.23","","","","","","Cloudy"
"-91.91","50.11","SIOUX LOOKOUT A","6037776","2018-10-01 10:00","2018","10","01","10:00","1.6","","-2.9","","72","","","","13","","7","","24.1","","98.24","","","","","","NA"
"-91.91","50.11","SIOUX LOOKOUT A","6037776","2018-10-01 11:00","2018","10","01","11:00","3.5","","-3.3","","61","","","","19","","9","","24.1","","98.17","","","","","","NA"
"-91.91","50.11","SIOUX LOOKOUT A","6037776","2018-10-01 12:00","2018","10","01","12:00","4.6","","-3.7","","55","","","","19","","13","","24.1","","98.10","","","","","","Mostly Cloudy"
"-91.91","50.11","SIOUX LOOKOUT A","6037776","2018-10-01 13:00","2018","10","01","13:00","5.4","","-4.8","","48","","","","20","","5","","24.1","","98.01","","","","","","NA"
"-91.91","50.11","SIOUX LOOKOUT A","6037776","2018-10-01 14:00","2018","10","01","14:00","6.3","","-4.9","","45","","","","19","","8","","24.1","","97.89","","","","","","NA"
"-91.91","50.11","SIOUX LOOKOUT A","6037776","2018-10-01 15:00","2018","10","01","15:00","6.7","","-4.2","","46","","","","26","","9","","24.1","","97.83","","","","","","Mainly Clear"
"-91.91","50.11","SIOUX LOOKOUT A","6037776","2018-10-01 16:00","2018","10","01","16:00","6.7","","-4.3","","45","","","","16","","11","","24.1","","97.73","","","","","","NA"
"-91.91","50.11","SIOUX LOOKOUT A","6037776","2018-10-01 17:00","2018","10","01","17:00","5.6","","-3.4","","52","","","","16","","10","","24.1","","97.65","","","","","","NA"
"-91.91","50.11","SIOUX LOOKOUT A","6037776","2018-10-01 18:00","2018","10","01","18:00","5.4","","-2.9","","55","","","","19","","7","","24.1","","97.61","","","","","","Cloudy"
"-91.91","50.11","SIOUX LOOKOUT A","6037776","2018-10-01 19:00","2018","10","01","19:00","4.9","","-1.7","","62","","","","18","","7","","24.1","","97.57","","","","","","NA"
"-91.91","50.11","SIOUX LOOKOUT A","6037776","2018-10-01 20:00","2018","10","01","20:00","5.6","","-0.2","","66","","","","18","","15","","24.1","","97.51","","","","","","NA"
"-91.91","50.11","SIOUX LOOKOUT A","6037776","2018-10-01 21:00","2018","10","01","21:00","5.3","","1.1","","74","","","","18","","15","","24.1","","97.47","","","","","","Cloudy"
"-91.91","50.11","SIOUX LOOKOUT A","6037776","2018-10-01 22:00","2018","10","01","22:00","4.8","","1.6","","79","","","","19","","11","","24.1","","97.48","","","","","","NA"
"-91.91","50.11","SIOUX LOOKOUT A","6037776","2018-10-01 23:00","2018","10","01","23:00","5.1","","2.0","","80","","","","19","","14","","24.1","","97.43","","","","","","NA"
"-91.91","50.11","SIOUX LOOKOUT A","6037776","2018-10-02 00:00","2018","10","02","00:00","5.4","","2.7","","83","","","","20","","15","","24.1","","97.37","","","","","","Cloudy"
"-91.91","50.11","SIOUX LOOKOUT A","6037776","2018-10-02 01:00","2018","10","02","01:00","5.3","","3.1","","86","","","","21","","14","","24.1","","97.34","","","","","","NA"
"-91.91","50.11","SIOUX LOOKOUT A","6037776","2018-10-02 02:00","2018","10","02","02:00","5.3","","3.4","","88","","","","20","","21","","24.1","","97.30","","","","","","NA"
"-91.91","50.11","SIOUX LOOKOUT A","6037776","2018-10-02 03:00","2018","10","02","03:00","5.4","","3.7","","89","","","","20","","15","","24.1","","97.22","","","","","","Cloudy"
"-91.91","50.11","SIOUX LOOKOUT A","6037776","2018-10-02 04:00","2018","10","02","04:00","5.7","","4.1","","89","","","","21","","15","","24.1","","97.20","","","","","","NA"
"-91.91","50.11","SIOUX LOOKOUT A","6037776","2018-10-02 05:00","2018","10","02","05:00","6.0","","4.4","","90","","","","21","","13","","24.1","","97.17","","","","","","NA"
"-91.91","50.11","SIOUX LOOKOUT A","6037776","2018-10-02 06:00","2018","10","02","06:00","6.2","","4.7","","90","","","","21","","18","","24.1","","97.18","","","","","","Cloudy"
"-91.91","50.11","SIOUX LOOKOUT A","6037776","2018-10-02 07:00","2018","10","02","07:00","6.1","","5.1","","93","","","","21","","15","","24.1","","97.16","","","","","","Drizzle"
"-91.91","50.11","SIOUX LOOKOUT A","6037776","2018-10-02 08:00","2018","10","02","08:00","6.4","","5.3","","92","","","","22","","19","","24.1","","97.12","","","","","","Drizzle"
"-91.91","50.11","SIOUX LOOKOUT A","6037776","2018-10-02 09:00","2018","10","02","09:00","7.0","","5.5","","90","","","","22","","17","","19.3","","97.06","","","","","","Drizzle"
"-91.91","50.11","SIOUX LOOKOUT A","6037776","2018-10-02 10:00","2018","10","02","10:00","7.4","","5.8","","90","","","","22","","16","","24.1","","97.05","","","","","","NA"
"-91.91","50.11","SIOUX LOOKOUT A","6037776","2018-10-02 11:00","2018","10","02","11:00","7.8","","5.8","","87","","","","22","","15","","19.3","","97.05","","","","","","Drizzle"
"-91.91","50.11","SIOUX LOOKOUT A","6037776","2018-10-02 12:00","2018","10","02","12:00","8.3","","5.8","","84","","","","22","","19","","24.1","","97.00","","","","","","Cloudy"
"-91.91","50.11","SIOUX LOOKOUT A","6037776","2018-10-02 13:00","2018","10","02","13:00","8.8","","6.0","","83","","","","21","","16","","24.1","","96.96","","","","","","Drizzle"
"-91.91","50.11","SIOUX LOOKOUT A","6037776","2018-10-02 14:00","2018","10","02","14:00","8.9","","6.0","","82","","","","20","","13","","24.1","","96.94","","","","","","NA"
"-91.91","50.11","SIOUX LOOKOUT A","6037776","2018-10-02 15:00","2018","10","02","15:00","10.1","","6.0","","76","","","","21","","16","","24.1","","96.84","","","","","","Cloudy"
"-91.91","50.11","SIOUX LOOKOUT A","6037776","2018-10-02 16:00","2018","10","02","16:00","9.4","","5.7","","78","","","","21","","11","","24.1","","96.79","","","","","","NA"
"-91.91","50.11","SIOUX LOOKOUT A","6037776","2018-10-02 17:00","2018","10","02","17:00","9.0","","5.7","","80","","","","18","","13","","24.1","","96.73","","","","","","NA"
"-91.91","50.11","SIOUX LOOKOUT A","6037776","2018-10-02 18:00","2018","10","02","18:00","8.7","","5.7","","81","","","","19","","12","","24.1","","96.70","","","","","","Cloudy"
"-91.91","50.11","SIOUX LOOKOUT A","6037776","2018-10-02 19:00","2018","10","02","19:00","8.5","","5.9","","83","","","","19","","10","","24.1","","96.70","","","","","","NA"
"-91.91","50.11","SIOUX LOOKOUT A","6037776","2018-10-02 20:00","2018","10","02","20:00","8.5","","5.9","","84","","","","19","","12","","24.1","","96.57","","","","","","NA"
"-91.91","50.11","SIOUX LOOKOUT A","6037776","2018-10-02 21:00","2018","10","02","21:00","8.1","","5.8","","85","","","","18","","13","","24.1","","96.45","","","","","","Cloudy"
"-91.91","50.11","SIOUX LOOKOUT A","6037776","2018-10-02 22:00","2018","10","02","22:00","7.7","","5.8","","88","","","","17","","14","","24.1","","96.35","","","","","","Rain"
"-91.91","50.11","SIOUX LOOKOUT A","6037776","2018-10-02 23:00","2018","10","02","23:00","7.4","","6.0","","90","","","","17","","12","","24.1","","96.29","","","","","","Rain"
"-91.91","50.11","SIOUX LOOKOUT A","6037776","2018-10-03 00:00","2018","10","03","00:00","7.8","","6.1","","89","","","","18","","13","","24.1","","96.23","","","","","","Cloudy"
"-91.91","50.11","SIOUX LOOKOUT A","6037776","2018-10-03 01:00","2018","10","03","01:00","8.1","","6.4","","89","","","","20","","12","","24.1","","96.16","","","","","","NA"
"-91.91","50.11","SIOUX LOOKOUT A","6037776","2018-10-03 02:00","2018","10","03","02:00","8.5","","6.8","","89","","","","22","","17","","24.1","","96.11","","","","","","NA"
"-91.91","50.11","SIOUX LOOKOUT A","6037776","2018-10-03 03:00","2018","10","03","03:00","8.3","","7.4","","94","","","","19","","11","","12.9","","95.99","","","","","","Cloudy"
"-91.91","50.11","SIOUX LOOKOUT A","6037776","2018-10-03 04:00","2018","10","03","04:00","8.3","","7.5","","95","","","","19","","12","","8.1","","95.95","","","","","","Drizzle,Fog"
"-91.91","50.11","SIOUX LOOKOUT A","6037776","2018-10-03 05:00","2018","10","03","05:00","8.5","","7.5","","94","","","","21","","9","","16.1","","95.89","","","","","","Drizzle"
"-91.91","50.11","SIOUX LOOKOUT A","6037776","2018-10-03 06:00","2018","10","03","06:00","8.3","","7.7","","96","","","","19","","9","","12.9","","95.78","","","","","","Drizzle"
"-91.91","50.11","SIOUX LOOKOUT A","6037776","2018-10-03 07:00","2018","10","03","07:00","8.4","","7.8","","96","","","","17","","6","","24.1","","95.67","","","","","","Drizzle"
"-91.91","50.11","SIOUX LOOKOUT A","6037776","2018-10-03 08:00","2018","10","03","08:00","8.7","","7.9","","94","","","","21","","7","","24.1","","95.66","","","","","","NA"
"-91.91","50.11","SIOUX LOOKOUT A","6037776","2018-10-03 09:00","2018","10","03","09:00","9.1","","8.0","","93","","","","21","","12","","19.3","","95.58","","","","","","Drizzle"
"-91.91","50.11","SIOUX LOOKOUT A","6037776","2018-10-03 10:00","2018","10","03","10:00","9.3","","8.2","","93","","","","23","","9","","19.3","","95.56","","","","","","Drizzle"
"-91.91","50.11","SIOUX LOOKOUT A","6037776","2018-10-03 11:00","2018","10","03","11:00","9.4","","8.3","","93","","","","27","","6","","24.1","","95.54","","","","","","Rain"
"-91.91","50.11","SIOUX LOOKOUT A","6037776","2018-10-03 12:00","2018","10","03","12:00","9.5","","8.3","","92","","","","22","","3","","19.3","","95.36","","","","","","Rain"
"-91.91","50.11","SIOUX LOOKOUT A","6037776","2018-10-03 13:00","2018","10","03","13:00","9.6","","8.6","","93","","","","19","","7","","24.1","","95.33","","","","","","Rain"
"-91.91","50.11","SIOUX LOOKOUT A","6037776","2018-10-03 14:00","2018","10","03","14:00","9.6","","8.9","","96","","","","20","","4","","19.3","","95.23","","","","","","Rain"
"-91.91","50.11","SIOUX LOOKOUT A","6037776","2018-10-03 15:00","2018","10","03","15:00","9.5","","8.7","","95","","","","34","","7","","24.1","","95.09","","","","","","Rain,Drizzle"
"-91.91","50.11","SIOUX LOOKOUT A","6037776","2018-10-03 16:00","2018","10","03","16:00","9.3","","8.8","","97","","","","33","","5","","19.3","","95.06","","","","","","Rain,Drizzle"
"-91.91","50.11","SIOUX LOOKOUT A","6037776","2018-10-03 17:00","2018","10","03","17:00","5.7","","4.9","","95","","","","34","","23","","3.2","","95.14","","","","","","Rain Showers,Fog"
"-91.91","50.11","SIOUX LOOKOUT A","6037776","2018-10-03 18:00","2018","10","03","18:00","2.9","","2.3","","96","","","","35","","16","","4.8","","95.30","","","","","","Rain,Fog"
"-91.91","50.11","SIOUX LOOKOUT A","6037776","2018-10-03 19:00","2018","10","03","19:00","0.3","","0.0","","98","","","","33","","23","","1.2","","95.62","","","","","","Snow"
"-91.91","50.11","SIOUX LOOKOUT A","6037776","2018-10-03 20:00","2018","10","03","20:00","0.2","","-0.2","","97","","","","32","","26","","1.6","","95.92","","","","","","Snow"
"-91.91","50.11","SIOUX LOOKOUT A","6037776","2018-10-03 21:00","2018","10","03","21:00","0.4","","-0.4","","95","","","","32","","22","","4.8","","96.09","","","","","","Snow"
"-91.91","50.11","SIOUX LOOKOUT A","6037776","2018-10-03 22:00","2018","10","03","22:00","0.2","","-0.9","","92","","","","33","","23","","9.7","","96.28","","","","","","Snow"
"-91.91","50.11","SIOUX LOOKOUT A","6037776","2018-10-03 23:00","2018","10","03","23:00","0.0","","-1.4","","90","","","","32","","27","","16.1","","96.44","","","","-6","","Snow"
"-91.91","50.11","SIOUX LOOKOUT A","6037776","2018-10-04 00:00","2018","10","04","00:00","-0.1","","-1.6","","89","","","","32","","23","","24.1","","96.57","","","","-6","","Cloudy"
"-91.91","50.11","SIOUX LOOKOUT A","6037776","2018-10-04 01:00","2018","10","04","01:00","0.4","","-1.4","","88","","","","32","","21","","24.1","","96.68","","","","","","Snow"
"-91.91","50.11","SIOUX LOOKOUT A","6037776","2018-10-04 02:00","2018","10","04","02:00","0.2","","-1.6","","88","","","","31","","21","","24.1","","96.76","","","","","","NA"
"-91.91","50.11","SIOUX LOOKOUT A","6037776","2018-10-04 03:00","2018","10","04","03:00","-0.3","","-3.3","","80","","","","31","","23","","24.1","","96.88","","","","-6","","Mainly Clear"
"-91.91","50.11","SIOUX LOOKOUT A","6037776","2018-10-04 04:00","2018","10","04","04:00","-0.7","","-4.1","","78","","","","31","","18","","24.1","","97.07","","","","-6","","NA"
"-91.91","50.11","SIOUX LOOKOUT A","6037776","2018-10-04 05:00","2018","10","04","05:00","-1.2","","-4.8","","77","","","","31","","17","","24.1","","97.19","","","","-6","","NA"
"-91.91","50.11","SIOUX LOOKOUT A","6037776","2018-10-04 06:00","2018","10","04","06:00","-1.4","","-5.5","","74","","","","31","","17","","24.1","","97.32","","","","-7","","Mainly Clear"
"-91.91","50.11","SIOUX LOOKOUT A","6037776","2018-10-04 07:00","2018","10","04","07:00","-1.1","","-2.6","","89","","","","28","","11","","24.1","","97.44","","","","-5","","NA"
"-91.91","50.11","SIOUX LOOKOUT A","6037776","2018-10-04 08:00","2018","10","04","08:00","-0.1","","-2.6","","83","","","","31","","16","","24.1","","97.52","","","","-5","","NA"
"-91.91","50.11","SIOUX LOOKOUT A","6037776","2018-10-04 09:00","2018","10","04","09:00","0.5","","-5.6","","64","","","","32","","17","","24.1","","97.67","","","","","","Mainly Clear"
"-91.91","50.11","SIOUX LOOKOUT A","6037776","2018-10-04 10:00","2018","10","04","10:00","1.4","","-5.4","","61","","","","33","","22","","24.1","","97.73","","","","","","NA"
"-91.91","50.11","SIOUX LOOKOUT A","6037776","2018-10-04 11:00","2018","10","04","11:00","1.0","","-5.1","","64","","","","31","","18","","24.1","","97.85","","","","","","NA"
"-91.91","50.11","SIOUX LOOKOUT A","6037776","2018-10-04 12:00","2018","10","04","12:00","1.6","","-4.8","","63","","","","30","","16","","24.1","","97.88","","","","","","Mostly Cloudy"
"-91.91","50.11","SIOUX LOOKOUT A","6037776","2018-10-04 13:00","2018","10","04","13:00","1.6","","-3.8","","67","","","","27","","17","","24.1","","97.91","","","","","","Snow"
"-91.91","50.11","SIOUX LOOKOUT A","6037776","2018-10-04 14:00","2018","10","04","14:00","2.0","","-4.7","","61","","","","29","","15","","24.1","","97.92","","","","","","NA"
"-91.91","50.11","SIOUX LOOKOUT A","6037776","2018-10-04 15:00","2018","10","04","15:00","2.5","","-5.2","","57","","","","28","","18","","24.1","","97.91","","","","","","Mostly Cloudy"
"-91.91","50.11","SIOUX LOOKOUT A","6037776","2018-10-04 16:00","2018","10","04","16:00","2.1","","-5.6","","57","","","","28","","9","","24.1","","97.88","","","","","","NA"
"-91.91","50.11","SIOUX LOOKOUT A","6037776","2018-10-04 17:00","2018","10","04","17:00","1.5","","-5.9","","58","","","","30","","7","","24.1","","97.84","","","","","","NA"
"-91.91","50.11","SIOUX LOOKOUT A","6037776","2018-10-04 18:00","2018","10","04","18:00","-1.7","","-4.0","","85","","","","29","","4","","24.1","","97.86","","","","-3","","Cloudy"
"-91.91","50.11","SIOUX LOOKOUT A","6037776","2018-10-04 19:00","2018","10","04","19:00","-1.7","","-2.9","","91","","","","1","","4","","24.1","","97.83","","","","-3","","NA"
"-91.91","50.11","SIOUX LOOKOUT A","6037776","2018-10-04 20:00","2018","10","04","20:00","-2.3","","-2.7","","97","","","","36","","2","","24.1","","97.80","","","","-3","","NA"
"-91.91","50.11","SIOUX LOOKOUT A","6037776","2018-10-04 21:00","2018","10","04","21:00","-3.0","","-3.3","","98","","","","36","","2","","24.1","","97.82","","","","-4","","Mostly Cloudy"
"-91.91","50.11","SIOUX LOOKOUT A","6037776","2018-10-04 22:00","2018","10","04","22:00","-2.3","","-2.6","","98","","","","0","","1","","24.1","","97.79","","","","-3","","NA"
"-91.91","50.11","SIOUX LOOKOUT A","6037776","2018-10-04 23:00","2018","10","04","23:00","-2.2","","-2.9","","95","","","","36","","2","","24.1","","97.80","","","","-3","","NA"
"-91.91","50.11","SIOUX LOOKOUT A","6037776","2018-10-05 00:00","2018","10","05","00:00","-0.6","","-3.1","","84","","","","11","","5","","24.1","","97.83","","","","-2","","Cloudy"
"-91.91","50.11","SIOUX LOOKOUT A","6037776","2018-10-05 01:00","2018","10","05","01:00","-0.1","","-3.7","","77","","","","11","","6","","24.1","","97.78","","","","-2","","NA"
"-91.91","50.11","SIOUX LOOKOUT A","6037776","2018-10-05 02:00","2018","10","05","02:00","-0.2","","-3.3","","79","","","","36","","3","","24.1","","97.71","","","","-1","","NA"
"-91.91","50.11","SIOUX LOOKOUT A","6037776","2018-10-05 03:00","2018","10","05","03:00","0.1","","-2.9","","80","","","","13","","7","","24.1","","97.65","","","","","","Cloudy"
"-91.91","50.11","SIOUX LOOKOUT A","6037776","2018-10-05 04:00","2018","10","05","04:00","0.2","","-2.6","","82","","","","13","","8","","24.1","","97.60","","","","","","NA"
"-91.91","50.11","SIOUX LOOKOUT A","6037776","2018-10-05 05:00","2018","10","05","05:00","-0.1","","-2.4","","84","","","","13","","7","","24.1","","97.58","","","","-3","","NA"
"-91.91","50.11","SIOUX LOOKOUT A","6037776","2018-10-05 06:00","2018","10","05","06:00","0.1","","-1.9","","86","","","","15","","5","","24.1","","97.56","","","","","","Cloudy"
"-91.91","50.11","SIOUX LOOKOUT A","6037776","2018-10-05 07:00","2018","10","05","07:00","0.8","","-1.2","","86","","","","14","","8","","24.1","","97.56","","","","","","NA"
"-91.91","50.11","SIOUX LOOKOUT A","6037776","2018-10-05 08:00","2018","10","05","08:00","1.4","","-0.5","","87","","","","7","","5","","24.1","","97.53","","","","","","NA"
"-91.91","50.11","SIOUX LOOKOUT A","6037776","2018-10-05 09:00","2018","10","05","09:00","1.6","","-0.9","","83","","","","15","","9","","24.1","","97.48","","","","","","Snow"
"-91.91","50.11","SIOUX LOOKOUT A","6037776","2018-10-05 10:00","2018","10","05","10:00","2.0","","-0.1","","86","","","","13","","8","","19.3","","97.43","","","","","","Snow"
"-91.91","50.11","SIOUX LOOKOUT A","6037776","2018-10-05 11:00","2018","10","05","11:00","2.1","","1.4","","95","","","","12","","5","","8.1","","97.42","","","","","","Rain,Snow,Fog"
"-91.91","50.11","SIOUX LOOKOUT A","6037776","2018-10-05 12:00","2018","10","05","12:00","2.4","","1.4","","93","","","","14","","9","","16.1","","97.35","","","","","","Rain,Snow"
"-91.91","50.11","SIOUX LOOKOUT A","6037776","2018-10-05 13:00","2018","10","05","13:00","2.7","","1.8","","94","","","","10","","8","","19.3","","97.27","","","","","","Rain"
"-91.91","50.11","SIOUX LOOKOUT A","6037776","2018-10-05 14:00","2018","10","05","14:00","2.6","","1.6","","93","","","","12","","9","","9.7","","97.23","","","","","","Rain,Fog"
"-91.91","50.11","SIOUX LOOKOUT A","6037776","2018-10-05 15:00","2018","10","05","15:00","2.6","","1.9","","95","","","","12","","9","","4.8","","97.20","","","","","","Rain,Snow,Fog"
"-91.91","50.11","SIOUX LOOKOUT A","6037776","2018-10-05 16:00","2018","10","05","16:00","2.5","","2.0","","97","","","","10","","8","","6.4","","97.15","","","","","","Rain,Fog"
"-91.91","50.11","SIOUX LOOKOUT A","6037776","2018-10-05 17:00","2018","10","05","17:00","2.3","","1.8","","97","","","","11","","4","","9.7","","97.11","","","","","","Rain,Fog"
"-91.91","50.11","SIOUX LOOKOUT A","6037776","2018-10-05 18:00","2018","10","05","18:00","2.1","","1.6","","97","","","","11","","7","","6.4","","97.14","","","","","","Rain,Fog"
"-91.91","50.11","SIOUX LOOKOUT A","6037776","2018-10-05 19:00","2018","10","05","19:00","1.8","","1.5","","98","","","","10","","10","","6.4","","97.09","","","","","","Rain,Snow,Fog"
"-91.91","50.11","SIOUX LOOKOUT A","6037776","2018-10-05 20:00","2018","10","05","20:00","1.5","","1.2","","98","","","","13","","7","","4.8","","97.05","","","","","","Rain,Snow"
"-91.91","50.11","SIOUX LOOKOUT A","6037776","2018-10-05 21:00","2018","10","05","21:00","0.5","","0.3","","99","","","","13","","7","","2.4","","97.09","","","","","","Snow"
"-91.91","50.11","SIOUX LOOKOUT A","6037776","2018-10-05 22:00","2018","10","05","22:00","0.3","","0.2","","99","","","","12","","3","","3.2","","97.05","","","","","","Snow"
"-91.91","50.11","SIOUX LOOKOUT A","6037776","2018-10-05 23:00","2018","10","05","23:00","0.2","","0.1","","99","","","","8","","3","","2.4","","97.01","","","","","","Snow"
"-91.91","50.11","SIOUX LOOKOUT A","6037776","2018-10-06 00:00","2018","10","06","00:00","0.2","","0.2","","100","","","","8","","4","","2.4","","96.93","","","","","","Snow"
"-91.91","50.11","SIOUX LOOKOUT A","6037776","2018-10-06 01:00","2018","10","06","01:00","0.2","","0.1","","100","","","","6","","5","","2.4","","96.90","","","","","","Snow"
"-91.91","50.11","SIOUX LOOKOUT A","6037776","2018-10-06 02:00","2018","10","06","02:00","0.2","","0.2","","100","","","","7","","5","","2.4","","96.90","","","","","","Snow"
"-91.91","50.11","SIOUX LOOKOUT A","6037776","2018-10-06 03:00","2018","10","06","03:00","0.2","","0.2","","100","","","","6","","4","","2.0","","96.93","","","","","","Snow"
"-91.91","50.11","SIOUX LOOKOUT A","6037776","2018-10-06 04:00","2018","10","06","04:00","0.2","","0.2","","100","","","","2","","3","","3.2","","97.00","","","","","","Snow"
"-91.91","50.11","SIOUX LOOKOUT A","6037776","2018-10-06 05:00","2018","10","06","05:00","0.2","","0.2","","100","","","","36","","3","","3.2","","97.05","","","","","","Snow"
"-91.91","50.11","SIOUX LOOKOUT A","6037776","2018-10-06 06:00","2018","10","06","06:00","0.3","","0.3","","100","","","","1","","4","","6.4","","97.12","","","","","","Snow"
"-91.91","50.11","SIOUX LOOKOUT A","6037776","2018-10-06 07:00","2018","10","06","07:00","0.4","","0.4","","100","","","","34","","3","","4.0","","97.19","","","","","","Snow"
"-91.91","50.11","SIOUX LOOKOUT A","6037776","2018-10-06 08:00","2018","10","06","08:00","0.5","","0.5","","100","","","","36","","2","","3.2","","97.26","","","","","","Snow,Fog"
"-91.91","50.11","SIOUX LOOKOUT A","6037776","2018-10-06 09:00","2018","10","06","09:00","1.3","","1.3","","100","","","","36","","3","","2.0","","97.32","","","","","","Drizzle,Fog"
"-91.91","50.11","SIOUX LOOKOUT A","6037776","2018-10-06 10:00","2018","10","06","10:00","2.0","","1.8","","98","","","","31","","5","","4.8","","97.41","","","","","","Drizzle,Fog"
"-91.91","50.11","SIOUX LOOKOUT A","6037776","2018-10-06 11:00","2018","10","06","11:00","3.1","","1.5","","89","","","","35","","8","","9.7","","97.48","","","","","","Drizzle,Fog"
"-91.91","50.11","SIOUX LOOKOUT A","6037776","2018-10-06 12:00","2018","10","06","12:00","3.5","","2.2","","91","","","","36","","7","","19.3","","97.52","","","","","","Rain Showers"
"-91.91","50.11","SIOUX LOOKOUT A","6037776","2018-10-06 13:00","2018","10","06","13:00","4.0","","2.5","","90","","","","36","","5","","24.1","","97.58","","","","","","NA"
"-91.91","50.11","SIOUX LOOKOUT A","6037776","2018-10-06 14:00","2018","10","06","14:00","3.8","","2.5","","91","","","","33","","9","","9.7","","97.64","","","","","","Rain Showers,Fog"
"-91.91","50.11","SIOUX LOOKOUT A","6037776","2018-10-06 15:00","2018","10","06","15:00","3.6","","2.7","","94","","","","34","","8","","24.1","","97.71","","","","","","Rain Showers"
"-91.91","50.11","SIOUX LOOKOUT A","6037776","2018-10-06 16:00","2018","10","06","16:00","4.0","","1.6","","85","","","","30","","10","","19.3","","97.74","","","","","","Rain Showers"
"-91.91","50.11","SIOUX LOOKOUT A","6037776","2018-10-06 17:00","2018","10","06","17:00","3.9","","2.0","","88","","","","34","","5","","24.1","","97.83","","","","","","NA"
"-91.91","50.11","SIOUX LOOKOUT A","6037776","2018-10-06 18:00","2018","10","06","18:00","2.1","","1.3","","95","","","","31","","5","","24.1","","97.90","","","","","","Mostly Cloudy"
"-91.91","50.11","SIOUX LOOKOUT A","6037776","2018-10-06 19:00","2018","10","06","19:00","1.4","","1.3","","99","","","","33","","5","","24.1","","97.96","","","","","","NA"
"-91.91","50.11","SIOUX LOOKOUT A","6037776","2018-10-06 20:00","2018","10","06","20:00","1.4","","1.4","","100","","","","35","","5","","24.1","","97.99","","","","","","NA"
"-91.91","50.11","SIOUX LOOKOUT A","6037776","2018-10-06 21:00","2018","10","06","21:00","1.5","","1.2","","98","","","","1","","4","","24.1","","98.00","","","","","","Cloudy"
"-91.91","50.11","SIOUX LOOKOUT A","6037776","2018-10-06 22:00","2018","10","06","22:00","1.6","","1.2","","98","","","","2","","4","","16.1","","98.03","","","","","","NA"
"-91.91","50.11","SIOUX LOOKOUT A","6037776","2018-10-06 23:00","2018","10","06","23:00","1.3","","1.2","","99","","","","","","0","","24.1","","98.06","","","","","","NA"
"-91.91","50.11","SIOUX LOOKOUT A","6037776","2018-10-07 00:00","2018","10","07","00:00","1.2","","1.1","","99","","","","36","","2","","24.1","","98.12","","","","","","Cloudy"
"-91.91","50.11","SIOUX LOOKOUT A","6037776","2018-10-07 01:00","2018","10","07","01:00","0.1","","0.0","","100","","","","8","","4","","19.3","","98.17","","","","","","Snow"
"-91.91","50.11","SIOUX LOOKOUT A","6037776","2018-10-07 02:00","2018","10","07","02:00","0.9","","0.9","","100","","","","36","","2","","19.3","","98.21","","","","","","Snow"
"-91.91","50.11","SIOUX LOOKOUT A","6037776","2018-10-07 03:00","2018","10","07","03:00","0.0","","0.0","","100","","","","36","","2","","16.1","","98.21","","","","-1","","Drizzle"
"-91.91","50.11","SIOUX LOOKOUT A","6037776","2018-10-07 04:00","2018","10","07","04:00","0.1","","0.1","","100","","","","","","0","","24.1","","98.22","","","","","","NA"
"-91.91","50.11","SIOUX LOOKOUT A","6037776","2018-10-07 05:00","2018","10","07","05:00","0.2","","0.2","","100","","","","28","","4","","24.1","","98.24","","","","","","NA"
"-91.91","50.11","SIOUX LOOKOUT A","6037776","2018-10-07 06:00","2018","10","07","06:00","-0.8","","-0.8","","100","","","","36","","1","","24.1","","98.27","","","","-1","","Cloudy"
"-91.91","50.11","SIOUX LOOKOUT A","6037776","2018-10-07 07:00","2018","10","07","07:00","0.6","","0.6","","100","","","","11","","7","","24.1","","98.33","","","","","","NA"
"-91.91","50.11","SIOUX LOOKOUT A","6037776","2018-10-07 08:00","2018","10","07","08:00","1.9","","1.8","","100","","","","12","","6","","24.1","","98.37","","","","","","NA"
"-91.91","50.11","SIOUX LOOKOUT A","6037776","2018-10-07 09:00","2018","10","07","09:00","3.2","","2.7","","96","","","","13","","5","","24.1","","98.38","","","","","","Mostly Cloudy"
"-91.91","50.11","SIOUX LOOKOUT A","6037776","2018-10-07 10:00","2018","10","07","10:00","3.7","","0.4","","79","","","","14","","11","","19.3","","98.38","","","","","","Rain Showers"
"-91.91","50.11","SIOUX LOOKOUT A","6037776","2018-10-07 11:00","2018","10","07","11:00","4.4","","1.3","","80","","","","9","","8","","24.1","","98.37","","","","","","NA"
"-91.91","50.11","SIOUX LOOKOUT A","6037776","2018-10-07 12:00","2018","10","07","12:00","5.3","","0.9","","73","","","","16","","12","","24.1","","98.34","","","","","","Cloudy"
"-91.91","50.11","SIOUX LOOKOUT A","6037776","2018-10-07 13:00","2018","10","07","13:00","4.6","","2.3","","85","","","","11","","5","","24.1","","98.29","","","","","","Rain Showers"
"-91.91","50.11","SIOUX LOOKOUT A","6037776","2018-10-07 14:00","2018","10","07","14:00","5.3","","1.8","","78","","","","10","","9","","24.1","","98.25","","","","","","Rain Showers"
"-91.91","50.11","SIOUX LOOKOUT A","6037776","2018-10-07 15:00","2018","10","07","15:00","5.8","","1.9","","76","","","","15","","11","","24.1","","98.21","","","","","","Mostly Cloudy"
"-91.91","50.11","SIOUX LOOKOUT A","6037776","2018-10-07 16:00","2018","10","07","16:00","5.3","","2.1","","80","","","","10","","5","","24.1","","98.21","","","","","","NA"
"-91.91","50.11","SIOUX LOOKOUT A","6037776","2018-10-07 17:00","2018","10","07","17:00","4.5","","1.4","","80","","","","17","","12","","24.1","","98.23","","","","","","NA"
"-91.91","50.11","SIOUX LOOKOUT A","6037776","2018-10-07 18:00","2018","10","07","18:00","3.8","","1.1","","83","","","","13","","8","","24.1","","98.17","","","","","","Cloudy"
"-91.91","50.11","SIOUX LOOKOUT A","6037776","2018-10-07 19:00","2018","10","07","19:00","3.7","","0.6","","80","","","","12","","5","","24.1","","98.21","","","","","","NA"
"-91.91","50.11","SIOUX LOOKOUT A","6037776","2018-10-07 20:00","2018","10","07","20:00","3.5","","0.7","","82","","","","13","","5","","24.1","","98.16","","","","","","NA"
"-91.91","50.11","SIOUX LOOKOUT A","6037776","2018-10-07 21:00","2018","10","07","21:00","3.0","","0.9","","87","","","","9","","4","","24.1","","98.12","","","","","","Cloudy"
"-91.91","50.11","SIOUX LOOKOUT A","6037776","2018-10-07 22:00","2018","10","07","22:00","2.7","","1.1","","89","","","","10","","4","","24.1","","98.09","","","","","","NA"
"-91.91","50.11","SIOUX LOOKOUT A","6037776","2018-10-07 23:00","2018","10","07","23:00","2.5","","1.2","","91","","","","10","","5","","24.1","","98.06","","","","","","NA"
"-91.91","50.11","SIOUX LOOKOUT A","6037776","2018-10-08 00:00","2018","10","08","00:00","2.6","","1.0","","89","","","","8","","6","","24.1","","98.06","","","","","","Rain"
"-91.91","50.11","SIOUX LOOKOUT A","6037776","2018-10-08 01:00","2018","10","08","01:00","2.3","","1.6","","95","","","","5","","5","","9.7","","98.03","","","","","","Rain"
"-91.91","50.11","SIOUX LOOKOUT A","6037776","2018-10-08 02:00","2018","10","08","02:00","2.0","","1.4","","96","","","","13","","9","","12.9","","97.94","","","","","","Rain"
"-91.91","50.11","SIOUX LOOKOUT A","6037776","2018-10-08 03:00","2018","10","08","03:00","1.8","","1.3","","97","","","","9","","7","","24.1","","97.87","","","","","","Rain"
"-91.91","50.11","SIOUX LOOKOUT A","6037776","2018-10-08 04:00","2018","10","08","04:00","1.6","","1.3","","98","","","","7","","7","","6.4","","97.80","","","","","","Rain,Snow"
"-91.91","50.11","SIOUX LOOKOUT A","6037776","2018-10-08 05:00","2018","10","08","05:00","0.4","","0.3","","99","","","","6","","4","","3.2","","97.84","","","","","","Snow"
"-91.91","50.11","SIOUX LOOKOUT A","6037776","2018-10-08 06:00","2018","10","08","06:00","0.2","","0.2","","100","","","","6","","6","","2.4","","97.76","","","","","","Snow"
"-91.91","50.11","SIOUX LOOKOUT A","6037776","2018-10-08 07:00","2018","10","08","07:00","0.3","","0.2","","100","","","","7","","7","","2.4","","97.75","","","","","","Snow"
"-91.91","50.11","SIOUX LOOKOUT A","6037776","2018-10-08 08:00","2018","10","08","08:00","0.3","","0.3","","99","","","","8","","3","","3.2","","97.72","","","","","","Snow"
"-91.91","50.11","SIOUX LOOKOUT A","6037776","2018-10-08 09:00","2018","10","08","09:00","0.6","","0.5","","99","","","","8","","5","","19.3","","97.71","","","","","","Snow"
"-91.91","50.11","SIOUX LOOKOUT A","6037776","2018-10-08 10:00","2018","10","08","10:00","1.5","","1.3","","98","","","","8","","11","","24.1","","97.67","","","","","","Rain"
"-91.91","50.11","SIOUX LOOKOUT A","6037776","2018-10-08 11:00","2018","10","08","11:00","2.4","","1.9","","96","","","","8","","4","","24.1","","97.64","","","","","","Rain"
"-91.91","50.11","SIOUX LOOKOUT A","6037776","2018-10-08 12:00","2018","10","08","12:00","2.9","","2.1","","95","","","","9","","10","","24.1","","97.55","","","","","","Rain"
"-91.91","50.11","SIOUX LOOKOUT A","6037776","2018-10-08 13:00","2018","10","08","13:00","3.0","","2.3","","95","","","","6","","6","","24.1","","97.52","","","","","","NA"
"-91.91","50.11","SIOUX LOOKOUT A","6037776","2018-10-08 14:00","2018","10","08","14:00","2.9","","2.2","","95","","","","5","","7","","24.1","","97.45","","","","","","Rain"
"-91.91","50.11","SIOUX LOOKOUT A","6037776","2018-10-08 15:00","2018","10","08","15:00","3.0","","2.1","","94","","","","7","","6","","24.1","","97.45","","","","","","Rain"
"-91.91","50.11","SIOUX LOOKOUT A","6037776","2018-10-08 16:00","2018","10","08","16:00","2.9","","2.4","","97","","","","36","","2","","24.1","","97.48","","","","","","Rain"
"-91.91","50.11","SIOUX LOOKOUT A","6037776","2018-10-08 17:00","2018","10","08","17:00","2.7","","2.2","","96","","","","4","","4","","16.1","","97.54","","","","","","Rain"
"-91.91","50.11","SIOUX LOOKOUT A","6037776","2018-10-08 18:00","2018","10","08","18:00","2.5","","2.1","","97","","","","5","","8","","24.1","","97.54","","","","","","Rain"
"-91.91","50.11","SIOUX LOOKOUT A","6037776","2018-10-08 19:00","2018","10","08","19:00","1.8","","1.4","","98","","","","5","","5","","12.9","","97.50","","","","","","Rain"
"-91.91","50.11","SIOUX LOOKOUT A","6037776","2018-10-08 20:00","2018","10","08","20:00","1.5","","1.3","","99","","","","1","","4","","9.7","","97.55","","","","","","Rain,Snow"
"-91.91","50.11","SIOUX LOOKOUT A","6037776","2018-10-08 21:00","2018","10","08","21:00","1.6","","1.5","","99","","","","1","","4","","12.9","","97.55","","","","","","Rain,Snow"
"-91.91","50.11","SIOUX LOOKOUT A","6037776","2018-10-08 22:00","2018","10","08","22:00","1.6","","1.4","","98","","","","2","","5","","24.1","","97.53","","","","","","Snow"
"-91.91","50.11","SIOUX LOOKOUT A","6037776","2018-10-08 23:00","2018","10","08","23:00","1.6","","1.4","","98","","","","36","","1","","9.7","","97.56","","","","","","Rain,Snow"
"-91.91","50.11","SIOUX LOOKOUT A","6037776","2018-10-09 00:00","2018","10","09","00:00","1.7","","1.5","","98","","","","2","","5","","19.3","","97.58","","","","","","Snow"
"-91.91","50.11","SIOUX LOOKOUT A","6037776","2018-10-09 01:00","2018","10","09","01:00","1.8","","1.5","","98","","","","2","","3","","24.1","","97.60","","","","","","Snow"
"-91.91","50.11","SIOUX LOOKOUT A","6037776","2018-10-09 02:00","2018","10","09","02:00","1.8","","1.5","","97","","","","4","","5","","24.1","","97.58","","","","","","NA"
"-91.91","50.11","SIOUX LOOKOUT A","6037776","2018-10-09 03:00","2018","10","09","03:00","1.9","","1.4","","97","","","","2","","6","","24.1","","97.60","","","","","","Cloudy"
"-91.91","50.11","SIOUX LOOKOUT A","6037776","2018-10-09 04:00","2018","10","09","04:00","1.9","","1.5","","97","","","","1","","6","","24.1","","97.64","","","","","","NA"
"-91.91","50.11","SIOUX LOOKOUT A","6037776","2018-10-09 05:00","2018","10","09","05:00","2.0","","1.5","","97","","","","3","","3","","24.1","","97.64","","","","","","NA"
"-91.91","50.11","SIOUX LOOKOUT A","6037776","2018-10-09 06:00","2018","10","09","06:00","2.0","","1.5","","96","","","","4","","5","","24.1","","97.67","","","","","","Cloudy"
"-91.91","50.11","SIOUX LOOKOUT A","6037776","2018-10-09 07:00","2018","10","09","07:00","2.0","","1.6","","97","","","","3","","3","","24.1","","97.72","","","","","","NA"
"-91.91","50.11","SIOUX LOOKOUT A","6037776","2018-10-09 08:00","2018","10","09","08:00","2.5","","1.8","","95","","","","5","","4","","24.1","","97.74","","","","","","NA"
"-91.91","50.11","SIOUX LOOKOUT A","6037776","2018-10-09 09:00","2018","10","09","09:00","2.5","","1.6","","94","","","","7","","9","","24.1","","97.77","","","","","","Cloudy"
"-91.91","50.11","SIOUX LOOKOUT A","6037776","2018-10-09 10:00","2018","10","09","10:00","3.4","","1.8","","89","","","","6","","8","","24.1","","97.80","","","","","","NA"
"-91.91","50.11","SIOUX LOOKOUT A","6037776","2018-10-09 11:00","2018","10","09","11:00","3.5","","2.0","","90","","","","5","","4","","16.1","","97.87","","","","","","Rain Showers"
"-91.91","50.11","SIOUX LOOKOUT A","6037776","2018-10-09 12:00","2018","10","09","12:00","3.6","","2.5","","93","","","","6","","7","","24.1","","97.83","","","","","","Rain Showers"
"-91.91","50.11","SIOUX LOOKOUT A","6037776","2018-10-09 13:00","2018","10","09","13:00","3.3","","2.5","","94","","","","2","","9","","19.3","","97.83","","","","","","Rain Showers"
"-91.91","50.11","SIOUX LOOKOUT A","6037776","2018-10-09 14:00","2018","10","09","14:00","3.9","","2.4","","90","","","","2","","5","","24.1","","97.81","","","","","","NA"
"-91.91","50.11","SIOUX LOOKOUT A","6037776","2018-10-09 15:00","2018","10","09","15:00","4.2","","1.3","","82","","","","5","","10","","24.1","","97.81","","","","","","Cloudy"
"-91.91","50.11","SIOUX LOOKOUT A","6037776","2018-10-09 16:00","2018","10","09","16:00","3.5","","1.2","","85","","","","4","","5","","24.1","","97.85","","","","","","Rain Showers"
"-91.91","50.11","SIOUX LOOKOUT A","6037776","2018-10-09 17:00","2018","10","09","17:00","2.8","","1.5","","91","","","","5","","5","","24.1","","97.89","","","","","","Rain Showers"
"-91.91","50.11","SIOUX LOOKOUT A","6037776","2018-10-09 18:00","2018","10","09","18:00","2.8","","1.1","","88","","","","3","","6","","24.1","","97.89","","","","","","Rain Showers"
"-91.91","50.11","SIOUX LOOKOUT A","6037776","2018-10-09 19:00","2018","10","09","19:00","2.4","","0.4","","87","","","","2","","7","","24.1","","97.90","","","","","","NA"
"-91.91","50.11","SIOUX LOOKOUT A","6037776","2018-10-09 20:00","2018","10","09","20:00","2.2","","0.4","","88","","","","4","","4","","24.1","","97.89","","","","","","NA"
"-91.91","50.11","SIOUX LOOKOUT A","6037776","2018-10-09 21:00","2018","10","09","21:00","2.0","","0.3","","89","","","","2","","6","","24.1","","97.87","","","","","","Cloudy"
"-91.91","50.11","SIOUX LOOKOUT A","6037776","2018-10-09 22:00","2018","10","09","22:00","1.8","","0.1","","88","","","","4","","8","","24.1","","97.85","","","","","","NA"
"-91.91","50.11","SIOUX LOOKOUT A","6037776","2018-10-09 23:00","2018","10","09","23:00","1.5","","-0.4","","87","","","","6","","5","","24.1","","97.82","","","","","","NA"
"-91.91","50.11","SIOUX LOOKOUT A","6037776","2018-10-10 00:00","2018","10","10","00:00","1.2","","-1.4","","83","","","","6","","12","","24.1","","97.75","","","","","","Cloudy"
"-91.91","50.11","SIOUX LOOKOUT A","6037776","2018-10-10 01:00","2018","10","10","01:00","0.9","","-2.6","","78","","","","6","","8","","24.1","","97.69","","","","","","NA"
"-91.91","50.11","SIOUX LOOKOUT A","6037776","2018-10-10 02:00","2018","10","10","02:00","0.6","","-3.5","","74","","","","5","","16","","24.1","","97.60","","","","","","NA"
"-91.91","50.11","SIOUX LOOKOUT A","6037776","2018-10-10 03:00","2018","10","10","03:00","0.5","","-3.7","","74","","","","5","","9","","24.1","","97.55","","","","","","Cloudy"
"-91.91","50.11","SIOUX LOOKOUT A","6037776","2018-10-10 04:00","2018","10","10","04:00","0.2","","-3.5","","76","","","","6","","10","","8.1","","97.56","","","","","","Rain,Snow"
"-91.91","50.11","SIOUX LOOKOUT A","6037776","2018-10-10 05:00","2018","10","10","05:00","-1.1","","-1.7","","96","","","","6","","9","","1.0","","97.56","","","","-4","","Snow"
"-91.91","50.11","SIOUX LOOKOUT A","6037776","2018-10-10 06:00","2018","10","10","06:00","-1.2","","-1.7","","96","","","","6","","13","","1.2","","97.51","","","","-5","","Snow"
"-91.91","50.11","SIOUX LOOKOUT A","6037776","2018-10-10 07:00","2018","10","10","07:00","-1.1","","-1.7","","96","","","","4","","10","","0.8","","97.58","","","","-5","","Moderate Snow,Blowing Snow"
"-91.91","50.11","SIOUX LOOKOUT A","6037776","2018-10-10 08:00","2018","10","10","08:00","-1.2","","-1.8","","95","","","","5","","12","","1.2","","97.47","","","","-5","","Snow,Blowing Snow"
"-91.91","50.11","SIOUX LOOKOUT A","6037776","2018-10-10 09:00","2018","10","10","09:00","-0.9","","-1.9","","93","","","","5","","12","","2.0","","97.35","","","","-5","","Snow,Blowing Snow"
"-91.91","50.11","SIOUX LOOKOUT A","6037776","2018-10-10 10:00","2018","10","10","10:00","-0.7","","-2.1","","90","","","","6","","15","","4.8","","97.30","","","","-5","","Snow,Blowing Snow"
"-91.91","50.11","SIOUX LOOKOUT A","6037776","2018-10-10 11:00","2018","10","10","11:00","-0.5","","-2.4","","88","","","","6","","9","","19.3","","97.23","","","","-4","","Snow,Blowing Snow"
"-91.91","50.11","SIOUX LOOKOUT A","6037776","2018-10-10 12:00","2018","10","10","12:00","-0.6","","-2.2","","89","","","","5","","19","","3.2","","97.17","","","","-6","","Snow,Blowing Snow"
"-91.91","50.11","SIOUX LOOKOUT A","6037776","2018-10-10 13:00","2018","10","10","13:00","-0.7","","-2.2","","90","","","","5","","9","","3.2","","97.04","","","","-4","","Snow,Blowing Snow"
"-91.91","50.11","SIOUX LOOKOUT A","6037776","2018-10-10 14:00","2018","10","10","14:00","-0.7","","-2.1","","90","","","","4","","13","","3.2","","96.99","","","","-5","","Snow,Blowing Snow"
"-91.91","50.11","SIOUX LOOKOUT A","6037776","2018-10-10 15:00","2018","10","10","15:00","-1.0","","-1.9","","94","","","","4","","9","","1.6","","96.90","","","","-4","","Snow,Blowing Snow"
"-91.91","50.11","SIOUX LOOKOUT A","6037776","2018-10-10 16:00","2018","10","10","16:00","-1.4","","-2.3","","93","","","","4","","16","","1.6","","96.81","","","","-6","","Snow,Blowing Snow"
"-91.91","50.11","SIOUX LOOKOUT A","6037776","2018-10-10 17:00","2018","10","10","17:00","-1.8","","-2.5","","95","","","","4","","11","","1.2","","96.75","","","","-6","","Snow,Blowing Snow"
"-91.91","50.11","SIOUX LOOKOUT A","6037776","2018-10-10 18:00","2018","10","10","18:00","-2.0","","-2.9","","94","","","","4","","12","","2.4","","96.67","","","","-6","","Snow,Blowing Snow"
"-91.91","50.11","SIOUX LOOKOUT A","6037776","2018-10-10 19:00","2018","10","10","19:00","-2.1","","-3.1","","93","","","","4","","19","","2.4","","96.60","","","","-8","","Snow,Blowing Snow"
"-91.91","50.11","SIOUX LOOKOUT A","6037776","2018-10-10 20:00","2018","10","10","20:00","-2.4","","-3.1","","95","","","","3","","15","","1.6","","96.57","","","","-7","","Snow,Blowing Snow"
"-91.91","50.11","SIOUX LOOKOUT A","6037776","2018-10-10 21:00","2018","10","10","21:00","-2.5","","-3.2","","95","","","","3","","11","","1.6","","96.57","","","","-7","","Snow,Blowing Snow"
"-91.91","50.11","SIOUX LOOKOUT A","6037776","2018-10-10 22:00","2018","10","10","22:00","-2.6","","-3.2","","95","","","","2","","12","","1.6","","96.41","","","","-7","","Snow,Blowing Snow"
"-91.91","50.11","SIOUX LOOKOUT A","6037776","2018-10-10 23:00","2018","10","10","23:00","-2.6","","-3.4","","94","","","","1","","13","","2.0","","96.36","","","","-7","","Snow,Blowing Snow"
"-91.91","50.11","SIOUX LOOKOUT A","6037776","2018-10-11 00:00","2018","10","11","00:00","-2.7","","-3.3","","96","","","","3","","9","","0.8","","96.32","","","","-6","","Moderate Snow,Blowing Snow"
"-91.91","50.11","SIOUX LOOKOUT A","6037776","2018-10-11 01:00","2018","10","11","01:00","-2.7","","-3.3","","95","","","","1","","13","","1.2","","96.25","","","","-7","","Snow,Blowing Snow"
"-91.91","50.11","SIOUX LOOKOUT A","6037776","2018-10-11 02:00","2018","10","11","02:00","-2.7","","-3.4","","95","","","","1","","10","","4.8","","96.21","","","","-7","","Snow,Blowing Snow"
"-91.91","50.11","SIOUX LOOKOUT A","6037776","2018-10-11 03:00","2018","10","11","03:00","-2.6","","-3.6","","93","","","","1","","9","","8.1","","96.17","","","","-6","","Snow,Blowing Snow"
"-91.91","50.11","SIOUX LOOKOUT A","6037776","2018-10-11 04:00","2018","10","11","04:00","-2.7","","-3.6","","94","","","","36","","11","","8.1","","96.18","","","","-7","","Snow,Blowing Snow"
"-91.91","50.11","SIOUX LOOKOUT A","6037776","2018-10-11 05:00","2018","10","11","05:00","-2.9","","-3.8","","94","","","","1","","14","","3.2","","96.18","","","","-8","","Snow,Blowing Snow"
"-91.91","50.11","SIOUX LOOKOUT A","6037776","2018-10-11 06:00","2018","10","11","06:00","-2.9","","-3.7","","94","","","","36","","12","","1.6","","96.19","","","","-7","","Snow,Blowing Snow"
"-91.91","50.11","SIOUX LOOKOUT A","6037776","2018-10-11 07:00","2018","10","11","07:00","-2.9","","-3.6","","95","","","","36","","16","","0.8","","96.22","","","","-8","","Moderate Snow,Blowing Snow"
"-91.91","50.11","SIOUX LOOKOUT A","6037776","2018-10-11 08:00","2018","10","11","08:00","-2.7","","-3.5","","94","","","","36","","13","","1.2","","96.25","","","","-7","","Snow,Blowing Snow"
"-91.91","50.11","SIOUX LOOKOUT A","6037776","2018-10-11 09:00","2018","10","11","09:00","-2.5","","-3.4","","93","","","","35","","12","","0.8","","96.28","","","","-7","","Moderate Snow,Blowing Snow"
"-91.91","50.11","SIOUX LOOKOUT A","6037776","2018-10-11 10:00","2018","10","11","10:00","-2.0","","-3.1","","92","","","","35","","13","","1.0","","96.32","","","","-6","","Snow,Blowing Snow"
"-91.91","50.11","SIOUX LOOKOUT A","6037776","2018-10-11 11:00","2018","10","11","11:00","-1.4","","-3.0","","89","","","","35","","15","","2.4","","96.34","","","","-6","","Snow,Blowing Snow"
"-91.91","50.11","SIOUX LOOKOUT A","6037776","2018-10-11 12:00","2018","10","11","12:00","-0.6","","-3.1","","83","","","","35","","18","","4.0","","96.36","","","","-6","","Snow,Blowing Snow"
"-91.91","50.11","SIOUX LOOKOUT A","6037776","2018-10-11 13:00","2018","10","11","13:00","-1.0","","-2.8","","87","","","","35","","13","","2.4","","96.38","","","","-5","","Snow,Blowing Snow"
"-91.91","50.11","SIOUX LOOKOUT A","6037776","2018-10-11 14:00","2018","10","11","14:00","-1.4","","-2.4","","93","","","","35","","8","","1.2","","96.43","","","","-4","","Snow,Blowing Snow"
"-91.91","50.11","SIOUX LOOKOUT A","6037776","2018-10-11 15:00","2018","10","11","15:00","-1.8","","-2.6","","94","","","","36","","5","","1.2","","96.47","","","","-4","","Snow,Blowing Snow"
"-91.91","50.11","SIOUX LOOKOUT A","6037776","2018-10-11 16:00","2018","10","11","16:00","-1.4","","-2.1","","95","","","","32","","12","","1.2","","96.50","","","","-5","","Snow,Blowing Snow"
"-91.91","50.11","SIOUX LOOKOUT A","6037776","2018-10-11 17:00","2018","10","11","17:00","-1.4","","-2.2","","94","","","","32","","16","","2.4","","96.53","","","","-6","","Snow,Blowing Snow"
"-91.91","50.11","SIOUX LOOKOUT A","6037776","2018-10-11 18:00","2018","10","11","18:00","-1.6","","-2.6","","93","","","","32","","18","","4.8","","96.57","","","","-7","","Snow,Blowing Snow"
"-91.91","50.11","SIOUX LOOKOUT A","6037776","2018-10-11 19:00","2018","10","11","19:00","-1.8","","-2.8","","93","","","","32","","15","","3.2","","96.61","","","","-7","","Snow,Blowing Snow"
"-91.91","50.11","SIOUX LOOKOUT A","6037776","2018-10-11 20:00","2018","10","11","20:00","-1.9","","-2.9","","93","","","","31","","16","","4.8","","96.63","","","","-7","","Snow,Blowing Snow"
"-91.91","50.11","SIOUX LOOKOUT A","6037776","2018-10-11 21:00","2018","10","11","21:00","-2.0","","-2.8","","95","","","","32","","12","","6.4","","96.64","","","","-6","","Snow,Blowing Snow"
"-91.91","50.11","SIOUX LOOKOUT A","6037776","2018-10-11 22:00","2018","10","11","22:00","-2.2","","-3.1","","94","","","","33","","14","","6.4","","96.64","","","","-7","","Snow,Blowing Snow"
"-91.91","50.11","SIOUX LOOKOUT A","6037776","2018-10-11 23:00","2018","10","11","23:00","-2.3","","-3.2","","93","","","","31","","15","","6.4","","96.62","","","","-7","","Snow,Blowing Snow"
"-91.91","50.11","SIOUX LOOKOUT A","6037776","2018-10-12 00:00","2018","10","12","00:00","-2.5","","-3.3","","94","","","","31","","10","","3.2","","96.65","","","","-6","","Snow,Blowing Snow"
"-91.91","50.11","SIOUX LOOKOUT A","6037776","2018-10-12 01:00","2018","10","12","01:00","-2.6","","-3.4","","94","","","","31","","13","","6.4","","96.66","","","","-7","","Snow,Blowing Snow"
"-91.91","50.11","SIOUX LOOKOUT A","6037776","2018-10-12 02:00","2018","10","12","02:00","-2.9","","-4.0","","93","","","","32","","11","","6.4","","96.65","","","","-7","","Snow,Blowing Snow"
"-91.91","50.11","SIOUX LOOKOUT A","6037776","2018-10-12 03:00","2018","10","12","03:00","-2.9","","-4.0","","92","","","","33","","8","","9.7","","96.64","","","","-6","","Snow,Blowing Snow"
"-91.91","50.11","SIOUX LOOKOUT A","6037776","2018-10-12 04:00","2018","10","12","04:00","-3.1","","-4.2","","92","","","","31","","12","","12.9","","96.65","","","","-8","","Snow,Blowing Snow"
"-91.91","50.11","SIOUX LOOKOUT A","6037776","2018-10-12 05:00","2018","10","12","05:00","-3.6","","-4.7","","92","","","","32","","11","","6.4","","96.64","","","","-8","","Snow,Blowing Snow"
"-91.91","50.11","SIOUX LOOKOUT A","6037776","2018-10-12 06:00","2018","10","12","06:00","-3.1","","-4.2","","92","","","","31","","7","","3.2","","96.62","","","","-6","","Snow,Blowing Snow"
"-91.91","50.11","SIOUX LOOKOUT A","6037776","2018-10-12 07:00","2018","10","12","07:00","-2.6","","-5.1","","83","","","","29","","19","","9.7","","96.60","","","","-8","","Snow"
"-91.91","50.11","SIOUX LOOKOUT A","6037776","2018-10-12 08:00","2018","10","12","08:00","-2.8","","-4.9","","86","","","","26","","11","","24.1","","96.60","","","","-7","","Snow"
"-91.91","50.11","SIOUX LOOKOUT A","6037776","2018-10-12 09:00","2018","10","12","09:00","-2.5","","-5.3","","81","","","","26","","10","","24.1","","96.59","","","","-6","","Snow"
"-91.91","50.11","SIOUX LOOKOUT A","6037776","2018-10-12 10:00","2018","10","12","10:00","-2.0","","-5.3","","78","","","","29","","13","","24.1","","96.56","","","","-6","","Snow"
"-91.91","50.11","SIOUX LOOKOUT A","6037776","2018-10-12 11:00","2018","10","12","11:00","-1.9","","-5.6","","76","","","","29","","19","","24.1","","96.52","","","","-7","","NA"
"-91.91","50.11","SIOUX LOOKOUT A","6037776","2018-10-12 12:00","2018","10","12","12:00","-1.6","","-5.9","","73","","","","27","","17","","24.1","","96.46","","","","-7","","Cloudy"
"-91.91","50.11","SIOUX LOOKOUT A","6037776","2018-10-12 13:00","2018","10","12","13:00","-1.4","","-5.7","","73","","","","28","","14","","24.1","","96.38","","","","-6","","NA"
"-91.91","50.11","SIOUX LOOKOUT A","6037776","2018-10-12 14:00","2018","10","12","14:00","-1.5","","-5.6","","74","","","","29","","14","","24.1","","96.33","","","","-6","","NA"
"-91.91","50.11","SIOUX LOOKOUT A","6037776","2018-10-12 15:00","2018","10","12","15:00","-1.7","","-5.0","","78","","","","27","","12","","24.1","","96.29","","","","-6","","Cloudy"
"-91.91","50.11","SIOUX LOOKOUT A","6037776","2018-10-12 16:00","2018","10","12","16:00","-1.8","","-5.7","","75","","","","27","","16","","24.1","","96.25","","","","-7","","NA"
"-91.91","50.11","SIOUX LOOKOUT A","6037776","2018-10-12 17:00","2018","10","12","17:00","-2.0","","-5.3","","78","","","","25","","8","","24.1","","96.23","","","","-5","","NA"
"-91.91","50.11","SIOUX LOOKOUT A","6037776","2018-10-12 18:00","2018","10","12","18:00","-2.4","","-6.3","","75","","","","29","","10","","24.1","","96.23","","","","-6","","Mostly Cloudy"
"-91.91","50.11","SIOUX LOOKOUT A","6037776","2018-10-12 19:00","2018","10","12","19:00","-2.6","","-5.5","","80","","","","27","","6","","24.1","","96.23","","","","-5","","NA"
"-91.91","50.11","SIOUX LOOKOUT A","6037776","2018-10-12 20:00","2018","10","12","20:00","-2.5","","-5.2","","82","","","","25","","9","","24.1","","96.21","","","","-6","","NA"
"-91.91","50.11","SIOUX LOOKOUT A","6037776","2018-10-12 21:00","2018","10","12","21:00","-3.8","","-5.3","","90","","","","19","","7","","24.1","","96.18","","","","-7","","Clear"
"-91.91","50.11","SIOUX LOOKOUT A","6037776","2018-10-12 22:00","2018","10","12","22:00","-4.8","","-5.5","","94","","","","16","","8","","24.1","","96.14","","","","-8","","NA"
"-91.91","50.11","SIOUX LOOKOUT A","6037776","2018-10-12 23:00","2018","10","12","23:00","-5.1","","-5.6","","97","","","","17","","10","","24.1","","96.10","","","","-9","","NA"
"-91.91","50.11","SIOUX LOOKOUT A","6037776","2018-10-13 00:00","2018","10","13","00:00","-4.9","","-5.4","","96","","","","17","","10","","24.1","","96.07","","","","-9","","Clear"
"-91.91","50.11","SIOUX LOOKOUT A","6037776","2018-10-13 01:00","2018","10","13","01:00","-6.9","","-7.5","","95","","","","36","","1","","24.1","","96.04","","","","-7","","NA"
"-91.91","50.11","SIOUX LOOKOUT A","6037776","2018-10-13 02:00","2018","10","13","02:00","-4.3","","-4.6","","98","","","","16","","9","","24.1","","96.01","","","","-8","","NA"
"-91.91","50.11","SIOUX LOOKOUT A","6037776","2018-10-13 03:00","2018","10","13","03:00","-3.8","","-4.6","","94","","","","16","","12","","24.1","","95.97","","","","-8","","Mostly Cloudy"
"-91.91","50.11","SIOUX LOOKOUT A","6037776","2018-10-13 04:00","2018","10","13","04:00","-3.4","","-4.0","","96","","","","17","","10","","24.1","","95.93","","","","-7","","NA"
"-91.91","50.11","SIOUX LOOKOUT A","6037776","2018-10-13 05:00","2018","10","13","05:00","-3.2","","-3.8","","95","","","","16","","8","","24.1","","95.88","","","","-6","","NA"
"-91.91","50.11","SIOUX LOOKOUT A","6037776","2018-10-13 06:00","2018","10","13","06:00","-3.0","","-3.6","","96","","","","15","","13","","24.1","","95.85","","","","-8","","Cloudy"
"-91.91","50.11","SIOUX LOOKOUT A","6037776","2018-10-13 07:00","2018","10","13","07:00","-2.9","","-3.7","","95","","","","14","","8","","24.1","","95.80","","","","-6","","NA"
"-91.91","50.11","SIOUX LOOKOUT A","6037776","2018-10-13 08:00","2018","10","13","08:00","-2.2","","-3.0","","94","","","","14","","10","","2.4","","95.78","","","","-6","","Snow"
"-91.91","50.11","SIOUX LOOKOUT A","6037776","2018-10-13 09:00","2018","10","13","09:00","-1.2","","-2.1","","94","","","","13","","9","","4.0","","95.74","","","","-4","","Snow"
"-91.91","50.11","SIOUX LOOKOUT A","6037776","2018-10-13 10:00","2018","10","13","10:00","-0.7","","-1.4","","95","","","","13","","10","","1.6","","95.72","","","","-4","","Snow Grains"
"-91.91","50.11","SIOUX LOOKOUT A","6037776","2018-10-13 11:00","2018","10","13","11:00","0.0","","-0.6","","95","","","","13","","10","","2.4","","95.69","","","","-3","","Snow"
"-91.91","50.11","SIOUX LOOKOUT A","6037776","2018-10-13 12:00","2018","10","13","12:00","0.4","","0.0","","97","","","","14","","10","","2.0","","95.65","","","","","","Snow,Snow Grains"
"-91.91","50.11","SIOUX LOOKOUT A","6037776","2018-10-13 13:00","2018","10","13","13:00","0.4","","0.1","","98","","","","14","","12","","1.6","","95.61","","","","","","Snow"
"-91.91","50.11","SIOUX LOOKOUT A","6037776","2018-10-13 14:00","2018","10","13","14:00","0.4","","0.2","","99","","","","13","","9","","12.9","","95.62","","","","","","Snow,Snow Grains"
"-91.91","50.11","SIOUX LOOKOUT A","6037776","2018-10-13 15:00","2018","10","13","15:00","0.8","","0.5","","98","","","","16","","7","","8.1","","95.64","","","","","","Snow Grains"
"-91.91","50.11","SIOUX LOOKOUT A","6037776","2018-10-13 16:00","2018","10","13","16:00","0.8","","0.6","","99","","","","17","","7","","8.1","","95.69","","","","","","Snow Grains"
"-91.91","50.11","SIOUX LOOKOUT A","6037776","2018-10-13 17:00","2018","10","13","17:00","0.6","","0.5","","99","","","","18","","5","","8.1","","95.75","","","","","","Drizzle,Snow Grains"
"-91.91","50.11","SIOUX LOOKOUT A","6037776","2018-10-13 18:00","2018","10","13","18:00","0.7","","0.4","","98","","","","25","","8","","8.1","","95.84","","","","","","Rain,Snow"
"-91.91","50.11","SIOUX LOOKOUT A","6037776","2018-10-13 19:00","2018","10","13","19:00","0.6","","0.4","","98","","","","29","","11","","4.8","","95.93","","","","","","Snow"
"-91.91","50.11","SIOUX LOOKOUT A","6037776","2018-10-13 20:00","2018","10","13","20:00","0.7","","0.4","","98","","","","30","","13","","6.4","","96.01","","","","","","Snow"
"-91.91","50.11","SIOUX LOOKOUT A","6037776","2018-10-13 21:00","2018","10","13","21:00","0.5","","0.2","","98","","","","29","","18","","4.8","","96.10","","","","","","Snow"
"-91.91","50.11","SIOUX LOOKOUT A","6037776","2018-10-13 22:00","2018","10","13","22:00","0.3","","-0.2","","97","","","","29","","21","","4.8","","96.21","","","","","","Snow"
"-91.91","50.11","SIOUX LOOKOUT A","6037776","2018-10-13 23:00","2018","10","13","23:00","0.1","","-0.5","","96","","","","29","","15","","4.8","","96.30","","","","","","Snow"
"-91.91","50.11","SIOUX LOOKOUT A","6037776","2018-10-14 00:00","2018","10","14","00:00","-0.2","","-0.9","","95","","","","30","","17","","4.8","","96.38","","","","-5","","Snow"
"-91.91","50.11","SIOUX LOOKOUT A","6037776","2018-10-14 01:00","2018","10","14","01:00","-0.3","","-0.9","","96","","","","28","","19","","4.8","","96.48","","","","-5","","Snow"
"-91.91","50.11","SIOUX LOOKOUT A","6037776","2018-10-14 02:00","2018","10","14","02:00","-0.5","","-1.2","","95","","","","29","","17","","6.4","","96.51","","","","-5","","Snow"
"-91.91","50.11","SIOUX LOOKOUT A","6037776","2018-10-14 03:00","2018","10","14","03:00","-0.6","","-1.4","","94","","","","29","","18","","4.8","","96.56","","","","-6","","Snow"
"-91.91","50.11","SIOUX LOOKOUT A","6037776","2018-10-14 04:00","2018","10","14","04:00","-0.6","","-1.4","","94","","","","29","","14","","4.8","","96.65","","","","-5","","Snow"
"-91.91","50.11","SIOUX LOOKOUT A","6037776","2018-10-14 05:00","2018","10","14","05:00","-0.9","","-1.4","","96","","","","27","","12","","3.2","","96.69","","","","-5","","Snow"
"-91.91","50.11","SIOUX LOOKOUT A","6037776","2018-10-14 06:00","2018","10","14","06:00","-1.0","","-1.6","","96","","","","28","","10","","2.8","","96.72","","","","-5","","Snow"
"-91.91","50.11","SIOUX LOOKOUT A","6037776","2018-10-14 07:00","2018","10","14","07:00","-1.1","","-1.6","","96","","","","29","","13","","2.8","","96.75","","","","-5","","Snow"
"-91.91","50.11","SIOUX LOOKOUT A","6037776","2018-10-14 08:00","2018","10","14","08:00","-1.2","","-1.7","","96","","","","27","","10","","2.0","","96.85","","","","-5","","Snow"
"-91.91","50.11","SIOUX LOOKOUT A","6037776","2018-10-14 09:00","2018","10","14","09:00","-0.9","","-1.5","","96","","","","27","","9","","3.2","","96.89","","","","-4","","Snow"
"-91.91","50.11","SIOUX LOOKOUT A","6037776","2018-10-14 10:00","2018","10","14","10:00","-0.8","","-1.6","","94","","","","28","","10","","3.2","","96.93","","","","-4","","Snow"
"-91.91","50.11","SIOUX LOOKOUT A","6037776","2018-10-14 11:00","2018","10","14","11:00","-0.7","","-1.7","","93","","","","29","","11","","3.2","","96.95","","","","-4","","Snow"
"-91.91","50.11","SIOUX LOOKOUT A","6037776","2018-10-14 12:00","2018","10","14","12:00","-0.5","","-1.5","","93","","","","26","","13","","4.8","","96.98","","","","-5","","Snow"
"-91.91","50.11","SIOUX LOOKOUT A","6037776","2018-10-14 13:00","2018","10","14","13:00","-0.6","","-1.5","","93","","","","28","","12","","2.8","","96.99","","","","-5","","Snow"
"-91.91","50.11","SIOUX LOOKOUT A","6037776","2018-10-14 14:00","2018","10","14","14:00","-0.6","","-1.4","","95","","","","27","","13","","3.2","","97.00","","","","-5","","Snow,Snow Grains"
"-91.91","50.11","SIOUX LOOKOUT A","6037776","2018-10-14 15:00","2018","10","14","15:00","-0.7","","-1.4","","95","","","","26","","11","","3.2","","96.99","","","","-4","","Snow,Snow Grains"
"-91.91","50.11","SIOUX LOOKOUT A","6037776","2018-10-14 16:00","2018","10","14","16:00","-0.6","","-1.1","","96","","","","29","","7","","1.6","","96.99","","","","-3","","Snow,Snow Grains"
"-91.91","50.11","SIOUX LOOKOUT A","6037776","2018-10-14 17:00","2018","10","14","17:00","-0.8","","-1.3","","96","","","","28","","9","","2.0","","97.01","","","","-4","","Snow"
"-91.91","50.11","SIOUX LOOKOUT A","6037776","2018-10-14 18:00","2018","10","14","18:00","-0.7","","-1.1","","97","","","","29","","12","","2.0","","97.02","","","","-5","","Snow"
"-91.91","50.11","SIOUX LOOKOUT A","6037776","2018-10-14 19:00","2018","10","14","19:00","-0.9","","-1.2","","98","","","","32","","8","","2.4","","97.05","","","","-4","","Snow"
"-91.91","50.11","SIOUX LOOKOUT A","6037776","2018-10-14 20:00","2018","10","14","20:00","-1.2","","-1.5","","98","","","","36","","7","","3.2","","97.06","","","","-4","","Snow"
"-91.91","50.11","SIOUX LOOKOUT A","6037776","2018-10-14 21:00","2018","10","14","21:00","-1.3","","-1.6","","98","","","","5","","3","","3.2","","97.07","","","","-2","","Snow"
"-91.91","50.11","SIOUX LOOKOUT A","6037776","2018-10-14 22:00","2018","10","14","22:00","-1.4","","-1.7","","98","","","","3","","3","","3.2","","97.06","","","","-2","","Snow"
"-91.91","50.11","SIOUX LOOKOUT A","6037776","2018-10-14 23:00","2018","10","14","23:00","-1.5","","-1.8","","98","","","","1","","7","","3.2","","97.03","","","","-4","","Snow"
"-91.91","50.11","SIOUX LOOKOUT A","6037776","2018-10-15 00:00","2018","10","15","00:00","-1.9","","-2.2","","98","","","","36","","4","","3.2","","96.97","","","","-3","","Snow"
"-91.91","50.11","SIOUX LOOKOUT A","6037776","2018-10-15 01:00","2018","10","15","01:00","-2.3","","-2.7","","97","","","","1","","5","","16.1","","96.95","","","","-4","","Snow"
"-91.91","50.11","SIOUX LOOKOUT A","6037776","2018-10-15 02:00","2018","10","15","02:00","-2.6","","-2.9","","97","","","","36","","4","","16.1","","96.93","","","","-4","","Snow"
"-91.91","50.11","SIOUX LOOKOUT A","6037776","2018-10-15 03:00","2018","10","15","03:00","-3.2","","-3.4","","98","","","","34","","5","","19.3","","96.93","","","","-5","","Snow"
"-91.91","50.11","SIOUX LOOKOUT A","6037776","2018-10-15 04:00","2018","10","15","04:00","-2.9","","-3.2","","97","","","","35","","4","","3.2","","96.92","","","","-4","","Snow"
"-91.91","50.11","SIOUX LOOKOUT A","6037776","2018-10-15 05:00","2018","10","15","05:00","-3.0","","-3.4","","97","","","","36","","5","","4.8","","96.92","","","","-5","","Snow"
"-91.91","50.11","SIOUX LOOKOUT A","6037776","2018-10-15 06:00","2018","10","15","06:00","-3.8","","-4.2","","96","","","","35","","3","","3.2","","96.90","","","","-5","","Snow"
"-91.91","50.11","SIOUX LOOKOUT A","6037776","2018-10-15 07:00","2018","10","15","07:00","-3.4","","-3.7","","97","","","","36","","3","","16.1","","96.89","","","","-5","","Snow"
"-91.91","50.11","SIOUX LOOKOUT A","6037776","2018-10-15 08:00","2018","10","15","08:00","-2.5","","-3.8","","91","","","","33","","7","","24.1","","96.89","","","","-5","","NA"
"-91.91","50.11","SIOUX LOOKOUT A","6037776","2018-10-15 09:00","2018","10","15","09:00","-2.2","","-3.8","","89","","","","31","","8","","24.1","","96.87","","","","-5","","Snow"
"-91.91","50.11","SIOUX LOOKOUT A","6037776","2018-10-15 10:00","2018","10","15","10:00","-1.7","","-3.9","","85","","","","26","","14","","24.1","","96.83","","","","-6","","Snow Showers"
"-91.91","50.11","SIOUX LOOKOUT A","6037776","2018-10-15 11:00","2018","10","15","11:00","-1.4","","-3.9","","83","","","","24","","12","","24.1","","96.75","","","","-5","","NA"
"-91.91","50.11","SIOUX LOOKOUT A","6037776","2018-10-15 12:00","2018","10","15","12:00","-1.2","","-3.4","","85","","","","24","","14","","24.1","","96.71","","","","-6","","Cloudy"
"-91.91","50.11","SIOUX LOOKOUT A","6037776","2018-10-15 13:00","2018","10","15","13:00","-0.4","","-2.6","","85","","","","24","","16","","24.1","","96.60","","","","-5","","Snow Showers"
"-91.91","50.11","SIOUX LOOKOUT A","6037776","2018-10-15 14:00","2018","10","15","14:00","0.4","","-2.2","","83","","","","24","","17","","24.1","","96.47","","","","","","Snow Showers"
"-91.91","50.11","SIOUX LOOKOUT A","6037776","2018-10-15 15:00","2018","10","15","15:00","0.3","","-2.0","","84","","","","25","","15","","24.1","","96.42","","","","","","Snow Showers"
"-91.91","50.11","SIOUX LOOKOUT A","6037776","2018-10-15 16:00","2018","10","15","16:00","-0.3","","-3.2","","81","","","","23","","20","","24.1","","96.36","","","","-6","","Snow Showers"
"-91.91","50.11","SIOUX LOOKOUT A","6037776","2018-10-15 17:00","2018","10","15","17:00","-0.4","","-3.5","","80","","","","22","","21","","24.1","","96.31","","","","-6","","NA"
"-91.91","50.11","SIOUX LOOKOUT A","6037776","2018-10-15 18:00","2018","10","15","18:00","-0.7","","-2.7","","86","","","","20","","18","","4.8","","96.21","","","","-6","","Snow,Snow Showers"
"-91.91","50.11","SIOUX LOOKOUT A","6037776","2018-10-15 19:00","2018","10","15","19:00","-0.9","","-2.5","","89","","","","20","","22","","4.8","","96.14","","","","-7","","Snow Showers"
"-91.91","50.11","SIOUX LOOKOUT A","6037776","2018-10-15 20:00","2018","10","15","20:00","-0.5","","-2.4","","87","","","","20","","21","","8.1","","95.98","","","","-6","","Snow Showers"
"-91.91","50.11","SIOUX LOOKOUT A","6037776","2018-10-15 21:00","2018","10","15","21:00","-0.3","","-1.3","","93","","","","22","","22","","4.8","","95.86","","","","-6","","Snow"
"-91.91","50.11","SIOUX LOOKOUT A","6037776","2018-10-15 22:00","2018","10","15","22:00","0.2","","-0.3","","97","","","","24","","13","","3.2","","95.81","","","","","","Snow"
"-91.91","50.11","SIOUX LOOKOUT A","6037776","2018-10-15 23:00","2018","10","15","23:00","0.8","","0.1","","95","","","","24","","13","","16.1","","95.77","","","","","","Snow"
"-91.91","50.11","SIOUX LOOKOUT A","6037776","2018-10-16 00:00","2018","10","16","00:00","1.1","","0.2","","94","","","","27","","15","","16.1","","95.73","","","","","","Cloudy"
"-91.91","50.11","SIOUX LOOKOUT A","6037776","2018-10-16 01:00","2018","10","16","01:00","1.1","","0.1","","93","","","","28","","16","","24.1","","95.79","","","","","","NA"
"-91.91","50.11","SIOUX LOOKOUT A","6037776","2018-10-16 02:00","2018","10","16","02:00","1.0","","0.3","","95","","","","25","","7","","16.1","","95.78","","","","","","Snow"
"-91.91","50.11","SIOUX LOOKOUT A","6037776","2018-10-16 03:00","2018","10","16","03:00","1.4","","0.4","","93","","","","26","","15","","24.1","","95.75","","","","","","Snow"
"-91.91","50.11","SIOUX LOOKOUT A","6037776","2018-10-16 04:00","2018","10","16","04:00","1.3","","0.2","","93","","","","29","","19","","24.1","","95.78","","","","","","Rain,Snow"
"-91.91","50.11","SIOUX LOOKOUT A","6037776","2018-10-16 05:00","2018","10","16","05:00","1.1","","-0.2","","91","","","","30","","18","","16.1","","95.81","","","","","","Rain,Snow"
"-91.91","50.11","SIOUX LOOKOUT A","6037776","2018-10-16 06:00","2018","10","16","06:00","0.5","","-0.4","","94","","","","30","","20","","4.0","","95.87","","","","","","Rain,Snow"
"-91.91","50.11","SIOUX LOOKOUT A","6037776","2018-10-16 07:00","2018","10","16","07:00","0.1","","-1.8","","87","","","","32","","23","","24.1","","96.00","","","","","","Snow Showers"
"-91.91","50.11","SIOUX LOOKOUT A","6037776","2018-10-16 08:00","2018","10","16","08:00","-0.4","","-2.7","","84","","","","32","","22","","24.1","","96.15","","","","-6","","Snow Showers"
"-91.91","50.11","SIOUX LOOKOUT A","6037776","2018-10-16 09:00","2018","10","16","09:00","-0.2","","-3.1","","81","","","","32","","26","","24.1","","96.26","","","","-6","","Snow Showers"
"-91.91","50.11","SIOUX LOOKOUT A","6037776","2018-10-16 10:00","2018","10","16","10:00","-0.2","","-3.5","","79","","","","33","","24","","24.1","","96.36","","","","-6","","Snow Showers"
"-91.91","50.11","SIOUX LOOKOUT A","6037776","2018-10-16 11:00","2018","10","16","11:00","-1.5","","-2.3","","94","","","","33","","16","","1.6","","96.45","","","","-6","","Snow Showers"
"-91.91","50.11","SIOUX LOOKOUT A","6037776","2018-10-16 12:00","2018","10","16","12:00","-1.0","","-4.3","","78","","","","32","","31","","24.1","","96.50","","","","-8","","Snow Showers"
"-91.91","50.11","SIOUX LOOKOUT A","6037776","2018-10-16 13:00","2018","10","16","13:00","-0.5","","-4.3","","76","","","","31","","23","","24.1","","96.55","","","","-6","","Snow Showers"
"-91.91","50.11","SIOUX LOOKOUT A","6037776","2018-10-16 14:00","2018","10","16","14:00","-0.6","","-4.4","","76","","","","32","","21","","19.3","","96.60","","","","-6","","Snow Showers"
"-91.91","50.11","SIOUX LOOKOUT A","6037776","2018-10-16 15:00","2018","10","16","15:00","-0.9","","-4.6","","76","","","","33","","19","","24.1","","96.68","","","","-6","","Snow Showers"
"-91.91","50.11","SIOUX LOOKOUT A","6037776","2018-10-16 16:00","2018","10","16","16:00","-1.0","","-4.3","","78","","","","32","","18","","19.3","","96.73","","","","-6","","Snow Showers"
"-91.91","50.11","SIOUX LOOKOUT A","6037776","2018-10-16 17:00","2018","10","16","17:00","-2.2","","-6.5","","72","","","","31","","18","","24.1","","96.83","","","","-8","","Snow Showers"
"-91.91","50.11","SIOUX LOOKOUT A","6037776","2018-10-16 18:00","2018","10","16","18:00","-2.1","","-5.2","","79","","","","31","","16","","24.1","","96.88","","","","-7","","Snow Showers"
"-91.91","50.11","SIOUX LOOKOUT A","6037776","2018-10-16 19:00","2018","10","16","19:00","-1.5","","-5.0","","77","","","","31","","25","","24.1","","96.92","","","","-8","","Snow Showers"
"-91.91","50.11","SIOUX LOOKOUT A","6037776","2018-10-16 20:00","2018","10","16","20:00","-1.5","","-4.8","","78","","","","32","","18","","24.1","","96.93","","","","-7","","NA"
"-91.91","50.11","SIOUX LOOKOUT A","6037776","2018-10-16 21:00","2018","10","16","21:00","-1.6","","-4.2","","83","","","","27","","15","","19.3","","96.92","","","","-6","","Snow"
"-91.91","50.11","SIOUX LOOKOUT A","6037776","2018-10-16 22:00","2018","10","16","22:00","-1.9","","-4.3","","84","","","","27","","18","","19.3","","96.88","","","","-7","","Snow"
"-91.91","50.11","SIOUX LOOKOUT A","6037776","2018-10-16 23:00","2018","10","16","23:00","-2.1","","-3.1","","93","","","","27","","11","","1.0","","96.86","","","","-6","","Snow"
"-91.91","50.11","SIOUX LOOKOUT A","6037776","2018-10-17 00:00","2018","10","17","00:00","-2.7","","-3.8","","92","","","","31","","18","","24.1","","96.92","","","","-8","","Snow"
"-91.91","50.11","SIOUX LOOKOUT A","6037776","2018-10-17 01:00","2018","10","17","01:00","-2.5","","-3.9","","90","","","","33","","12","","4.8","","96.99","","","","-7","","Snow"
"-91.91","50.11","SIOUX LOOKOUT A","6037776","2018-10-17 02:00","2018","10","17","02:00","-3.2","","-6.2","","80","","","","33","","18","","24.1","","97.08","","","","-9","","Snow"
"-91.91","50.11","SIOUX LOOKOUT A","6037776","2018-10-17 03:00","2018","10","17","03:00","-4.3","","-7.1","","81","","","","34","","15","","24.1","","97.20","","","","-10","","Snow"
"-91.91","50.11","SIOUX LOOKOUT A","6037776","2018-10-17 04:00","2018","10","17","04:00","-5.7","","-8.1","","83","","","","33","","21","","24.1","","97.33","","","","-13","","Snow,Blowing Snow"
"-91.91","50.11","SIOUX LOOKOUT A","6037776","2018-10-17 05:00","2018","10","17","05:00","-6.3","","-8.8","","82","","","","35","","19","","19.3","","97.48","","","","-13","","Snow,Blowing Snow"
"-91.91","50.11","SIOUX LOOKOUT A","6037776","2018-10-17 06:00","2018","10","17","06:00","-6.2","","-8.9","","82","","","","33","","16","","24.1","","97.53","","","","-12","","Snow,Blowing Snow"
"-91.91","50.11","SIOUX LOOKOUT A","6037776","2018-10-17 07:00","2018","10","17","07:00","-6.7","","-9.6","","80","","","","33","","21","","24.1","","97.64","","","","-14","","Snow,Blowing Snow"
"-91.91","50.11","SIOUX LOOKOUT A","6037776","2018-10-17 08:00","2018","10","17","08:00","-6.3","","-9.5","","78","","","","32","","22","","24.1","","97.72","","","","-14","","Snow,Blowing Snow"
"-91.91","50.11","SIOUX LOOKOUT A","6037776","2018-10-17 09:00","2018","10","17","09:00","-6.1","","-9.7","","76","","","","33","","17","","24.1","","97.83","","","","-12","","Snow,Blowing Snow"
"-91.91","50.11","SIOUX LOOKOUT A","6037776","2018-10-17 10:00","2018","10","17","10:00","-5.5","","-10.3","","69","","","","32","","28","","24.1","","97.90","","","","-13","","Snow,Blowing Snow"
"-91.91","50.11","SIOUX LOOKOUT A","6037776","2018-10-17 11:00","2018","10","17","11:00","-5.0","","-10.8","","64","","","","31","","23","","24.1","","97.99","","","","-12","","Snow,Blowing Snow"
"-91.91","50.11","SIOUX LOOKOUT A","6037776","2018-10-17 12:00","2018","10","17","12:00","-4.8","","-10.6","","64","","","","33","","18","","24.1","","98.03","","","","-11","","Blowing Snow"
"-91.91","50.11","SIOUX LOOKOUT A","6037776","2018-10-17 13:00","2018","10","17","13:00","-3.4","","-10.6","","58","","","","31","","23","","24.1","","98.04","","","","-10","","Blowing Snow"
"-91.91","50.11","SIOUX LOOKOUT A","6037776","2018-10-17 14:00","2018","10","17","14:00","-3.4","","-10.7","","57","","","","29","","21","","24.1","","98.07","","","","-10","","Blowing Snow"
"-91.91","50.11","SIOUX LOOKOUT A","6037776","2018-10-17 15:00","2018","10","17","15:00","-2.8","","-10.9","","54","","","","28","","22","","24.1","","98.04","","","","-9","","Mainly Clear"
"-91.91","50.11","SIOUX LOOKOUT A","6037776","2018-10-17 16:00","2018","10","17","16:00","-2.9","","-11.3","","53","","","","29","","16","","24.1","","98.08","","","","-8","","NA"
"-91.91","50.11","SIOUX LOOKOUT A","6037776","2018-10-17 17:00","2018","10","17","17:00","-3.3","","-11.1","","55","","","","26","","10","","24.1","","98.03","","","","-7","","NA"
"-91.91","50.11","SIOUX LOOKOUT A","6037776","2018-10-17 18:00","2018","10","17","18:00","-4.1","","-11.1","","59","","","","26","","7","","24.1","","98.03","","","","-7","","Clear"
"-91.91","50.11","SIOUX LOOKOUT A","6037776","2018-10-17 19:00","2018","10","17","19:00","-5.1","","-10.5","","66","","","","25","","8","","24.1","","97.98","","","","-9","","NA"
"-91.91","50.11","SIOUX LOOKOUT A","6037776","2018-10-17 20:00","2018","10","17","20:00","-6.5","","-9.8","","77","","","","22","","7","","24.1","","97.93","","","","-10","","NA"
"-91.91","50.11","SIOUX LOOKOUT A","6037776","2018-10-17 21:00","2018","10","17","21:00","-5.6","","-9.5","","74","","","","22","","7","","24.1","","97.87","","","","-9","","Clear"
"-91.91","50.11","SIOUX LOOKOUT A","6037776","2018-10-17 22:00","2018","10","17","22:00","-3.4","","-7.9","","71","","","","20","","9","","24.1","","97.80","","","","-7","","NA"
"-91.91","50.11","SIOUX LOOKOUT A","6037776","2018-10-17 23:00","2018","10","17","23:00","-1.8","","-8.0","","63","","","","21","","17","","24.1","","97.71","","","","-7","","NA"
"-91.91","50.11","SIOUX LOOKOUT A","6037776","2018-10-18 00:00","2018","10","18","00:00","-1.8","","-7.9","","63","","","","20","","14","","24.1","","97.62","","","","-6","","Mostly Cloudy"
"-91.91","50.11","SIOUX LOOKOUT A","6037776","2018-10-18 01:00","2018","10","18","01:00","-1.1","","-6.5","","67","","","","20","","17","","24.1","","97.49","","","","-6","","NA"
"-91.91","50.11","SIOUX LOOKOUT A","6037776","2018-10-18 02:00","2018","10","18","02:00","-0.4","","-4.9","","71","","","","20","","26","","24.1","","97.34","","","","-7","","NA"
"-91.91","50.11","SIOUX LOOKOUT A","6037776","2018-10-18 03:00","2018","10","18","03:00","0.4","","-4.0","","72","","","","20","","23","","24.1","","97.21","","","","","","Mainly Clear"
"-91.91","50.11","SIOUX LOOKOUT A","6037776","2018-10-18 04:00","2018","10","18","04:00","0.8","","-3.5","","73","","","","20","","18","","24.1","","97.07","","","","","","NA"
"-91.91","50.11","SIOUX LOOKOUT A","6037776","2018-10-18 05:00","2018","10","18","05:00","1.1","","-2.8","","75","","","","20","","21","","24.1","","96.91","","","","","","NA"
"-91.91","50.11","SIOUX LOOKOUT A","6037776","2018-10-18 06:00","2018","10","18","06:00","1.4","","-2.2","","77","","","","23","","16","","24.1","","96.88","","","","","","Mainly Clear"
"-91.91","50.11","SIOUX LOOKOUT A","6037776","2018-10-18 07:00","2018","10","18","07:00","1.9","","-1.4","","79","","","","22","","16","","24.1","","96.78","","","","","","NA"
"-91.91","50.11","SIOUX LOOKOUT A","6037776","2018-10-18 08:00","2018","10","18","08:00","3.5","","-0.7","","74","","","","22","","18","","24.1","","96.75","","","","","","NA"
"-91.91","50.11","SIOUX LOOKOUT A","6037776","2018-10-18 09:00","2018","10","18","09:00","5.0","","0.0","","70","","","","23","","18","","24.1","","96.69","","","","","","Mostly Cloudy"
"-91.91","50.11","SIOUX LOOKOUT A","6037776","2018-10-18 10:00","2018","10","18","10:00","6.4","","0.9","","68","","","","23","","16","","24.1","","96.68","","","","","","NA"
"-91.91","50.11","SIOUX LOOKOUT A","6037776","2018-10-18 11:00","2018","10","18","11:00","8.2","","1.5","","63","","","","24","","17","","24.1","","96.64","","","","","","NA"
"-91.91","50.11","SIOUX LOOKOUT A","6037776","2018-10-18 12:00","2018","10","18","12:00","10.3","","1.9","","56","","","","23","","15","","24.1","","96.57","","","","","","Mainly Clear"
"-91.91","50.11","SIOUX LOOKOUT A","6037776","2018-10-18 13:00","2018","10","18","13:00","12.1","","1.7","","49","","","","22","","16","","24.1","","96.47","","","","","","NA"
"-91.91","50.11","SIOUX LOOKOUT A","6037776","2018-10-18 14:00","2018","10","18","14:00","13.3","","1.4","","44","","","","23","","17","","24.1","","96.40","","","","","","NA"
"-91.91","50.11","SIOUX LOOKOUT A","6037776","2018-10-18 15:00","2018","10","18","15:00","13.7","","1.5","","43","","","","23","","15","","24.1","","96.35","","","","","","Mainly Clear"
"-91.91","50.11","SIOUX LOOKOUT A","6037776","2018-10-18 16:00","2018","10","18","16:00","13.2","","1.4","","44","","","","23","","9","","24.1","","96.28","","","","","","NA"
"-91.91","50.11","SIOUX LOOKOUT A","6037776","2018-10-18 17:00","2018","10","18","17:00","11.8","","1.8","","50","","","","20","","12","","24.1","","96.19","","","","","","NA"
"-91.91","50.11","SIOUX LOOKOUT A","6037776","2018-10-18 18:00","2018","10","18","18:00","8.8","","1.6","","61","","","","18","","8","","24.1","","96.16","","","","","","Mainly Clear"
"-91.91","50.11","SIOUX LOOKOUT A","6037776","2018-10-18 19:00","2018","10","18","19:00","8.3","","1.9","","64","","","","17","","6","","24.1","","96.13","","","","","","NA"
"-91.91","50.11","SIOUX LOOKOUT A","6037776","2018-10-18 20:00","2018","10","18","20:00","6.7","","2.1","","73","","","","17","","8","","24.1","","96.08","","","","","","NA"
"-91.91","50.11","SIOUX LOOKOUT A","6037776","2018-10-18 21:00","2018","10","18","21:00","10.0","","3.3","","63","","","","22","","14","","24.1","","96.00","","","","","","Mostly Cloudy"
"-91.91","50.11","SIOUX LOOKOUT A","6037776","2018-10-18 22:00","2018","10","18","22:00","10.8","","3.8","","62","","","","23","","18","","24.1","","95.92","","","","","","NA"
"-91.91","50.11","SIOUX LOOKOUT A","6037776","2018-10-18 23:00","2018","10","18","23:00","11.3","","4.0","","60","","","","23","","17","","24.1","","95.84","","","","","","NA"
"-91.91","50.11","SIOUX LOOKOUT A","6037776","2018-10-19 00:00","2018","10","19","00:00","11.7","","4.0","","59","","","","26","","13","","24.1","","95.78","","","","","","Mostly Cloudy"
"-91.91","50.11","SIOUX LOOKOUT A","6037776","2018-10-19 01:00","2018","10","19","01:00","11.2","","4.3","","62","","","","24","","13","","24.1","","95.72","","","","","","NA"
"-91.91","50.11","SIOUX LOOKOUT A","6037776","2018-10-19 02:00","2018","10","19","02:00","9.8","","4.3","","68","","","","23","","9","","24.1","","95.70","","","","","","NA"
"-91.91","50.11","SIOUX LOOKOUT A","6037776","2018-10-19 03:00","2018","10","19","03:00","8.5","","4.1","","74","","","","21","","10","","24.1","","95.60","","","","","","Cloudy"
"-91.91","50.11","SIOUX LOOKOUT A","6037776","2018-10-19 04:00","2018","10","19","04:00","7.9","","4.3","","78","","","","24","","6","","24.1","","95.54","","","","","","NA"
"-91.91","50.11","SIOUX LOOKOUT A","6037776","2018-10-19 05:00","2018","10","19","05:00","7.5","","4.0","","79","","","","28","","8","","24.1","","95.54","","","","","","NA"
"-91.91","50.11","SIOUX LOOKOUT A","6037776","2018-10-19 06:00","2018","10","19","06:00","7.2","","3.7","","79","","","","29","","10","","24.1","","95.50","","","","","","Cloudy"
"-91.91","50.11","SIOUX LOOKOUT A","6037776","2018-10-19 07:00","2018","10","19","07:00","6.2","","3.7","","84","","","","33","","10","","24.1","","95.47","","","","","","NA"
"-91.91","50.11","SIOUX LOOKOUT A","6037776","2018-10-19 08:00","2018","10","19","08:00","6.3","","2.4","","76","","","","32","","19","","24.1","","95.53","","","","","","NA"
"-91.91","50.11","SIOUX LOOKOUT A","6037776","2018-10-19 09:00","2018","10","19","09:00","5.8","","1.1","","72","","","","32","","16","","24.1","","95.57","","","","","","Mostly Cloudy"
"-91.91","50.11","SIOUX LOOKOUT A","6037776","2018-10-19 10:00","2018","10","19","10:00","6.0","","0.3","","67","","","","31","","15","","24.1","","95.67","","","","","","NA"
"-91.91","50.11","SIOUX LOOKOUT A","6037776","2018-10-19 11:00","2018","10","19","11:00","7.2","","0.0","","60","","","","33","","25","","24.1","","95.70","","","","","","NA"
"-91.91","50.11","SIOUX LOOKOUT A","6037776","2018-10-19 12:00","2018","10","19","12:00","7.7","","0.1","","59","","","","30","","21","","24.1","","95.72","","","","","","Mainly Clear"
"-91.91","50.11","SIOUX LOOKOUT A","6037776","2018-10-19 13:00","2018","10","19","13:00","5.1","","2.5","","83","","","","31","","22","","24.1","","95.76","","","","","","Rain Showers"
"-91.91","50.11","SIOUX LOOKOUT A","6037776","2018-10-19 14:00","2018","10","19","14:00","4.7","","1.8","","81","","","","30","","34","","24.1","","95.82","","","","","","NA"
"-91.91","50.11","SIOUX LOOKOUT A","6037776","2018-10-19 15:00","2018","10","19","15:00","4.1","","1.0","","80","","","","32","","38","","24.1","","95.90","","","","","","Rain Showers"
"-91.91","50.11","SIOUX LOOKOUT A","6037776","2018-10-19 16:00","2018","10","19","16:00","3.4","","0.3","","80","","","","32","","28","","24.1","","95.98","","","","","","Rain Showers"
"-91.91","50.11","SIOUX LOOKOUT A","6037776","2018-10-19 17:00","2018","10","19","17:00","3.3","","-0.2","","78","","","","31","","17","","24.1","","96.02","","","","","","NA"
"-91.91","50.11","SIOUX LOOKOUT A","6037776","2018-10-19 18:00","2018","10","19","18:00","2.5","","-0.2","","82","","","","31","","23","","24.1","","96.06","","","","","","Mostly Cloudy"
"-91.91","50.11","SIOUX LOOKOUT A","6037776","2018-10-19 19:00","2018","10","19","19:00","2.3","","-1.1","","78","","","","32","","24","","24.1","","96.07","","","","","","NA"
"-91.91","50.11","SIOUX LOOKOUT A","6037776","2018-10-19 20:00","2018","10","19","20:00","1.7","","-1.8","","77","","","","33","","22","","24.1","","96.07","","","","","","Snow"
"-91.91","50.11","SIOUX LOOKOUT A","6037776","2018-10-19 21:00","2018","10","19","21:00","1.0","","-2.6","","77","","","","32","","21","","24.1","","96.06","","","","","","Mostly Cloudy"
"-91.91","50.11","SIOUX LOOKOUT A","6037776","2018-10-19 22:00","2018","10","19","22:00","0.6","","-3.3","","75","","","","33","","16","","24.1","","96.07","","","","","","NA"
"-91.91","50.11","SIOUX LOOKOUT A","6037776","2018-10-19 23:00","2018","10","19","23:00","-1.6","","-4.2","","82","","","","34","","27","","4.0","","96.16","","","","-8","","Snow Showers"
"-91.91","50.11","SIOUX LOOKOUT A","6037776","2018-10-20 00:00","2018","10","20","00:00","-2.2","","-7.9","","65","","","","34","","24","","8.1","","96.27","","","","-9","","Snow Showers"
"-91.91","50.11","SIOUX LOOKOUT A","6037776","2018-10-20 01:00","2018","10","20","01:00","-2.8","","-10.7","","55","","","","35","","18","","24.1","","96.37","","","","-8","","NA"
"-91.91","50.11","SIOUX LOOKOUT A","6037776","2018-10-20 02:00","2018","10","20","02:00","-3.2","","-10.2","","59","","","","36","","21","","24.1","","96.46","","","","-9","","Snow Showers"
"-91.91","50.11","SIOUX LOOKOUT A","6037776","2018-10-20 03:00","2018","10","20","03:00","-3.7","","-10.3","","61","","","","34","","22","","24.1","","96.54","","","","-10","","Snow Showers"
"-91.91","50.11","SIOUX LOOKOUT A","6037776","2018-10-20 04:00","2018","10","20","04:00","-4.5","","-9.9","","66","","","","35","","16","","8.1","","96.65","","","","-10","","Snow Showers"
"-91.91","50.11","SIOUX LOOKOUT A","6037776","2018-10-20 05:00","2018","10","20","05:00","-4.8","","-10.6","","64","","","","35","","16","","8.1","","96.80","","","","-11","","Snow Showers"
"-91.91","50.11","SIOUX LOOKOUT A","6037776","2018-10-20 06:00","2018","10","20","06:00","-5.5","","-10.7","","67","","","","34","","22","","19.3","","96.94","","","","-13","","Snow Showers"
"-91.91","50.11","SIOUX LOOKOUT A","6037776","2018-10-20 07:00","2018","10","20","07:00","-5.5","","-11.1","","65","","","","35","","22","","24.1","","97.12","","","","-13","","Snow Showers"
"-91.91","50.11","SIOUX LOOKOUT A","6037776","2018-10-20 08:00","2018","10","20","08:00","-5.0","","-10.6","","65","","","","34","","21","","24.1","","97.26","","","","-12","","Snow Showers"
"-91.91","50.11","SIOUX LOOKOUT A","6037776","2018-10-20 09:00","2018","10","20","09:00","-4.5","","-10.6","","63","","","","33","","31","","24.1","","97.40","","","","-12","","Snow Showers"
"-91.91","50.11","SIOUX LOOKOUT A","6037776","2018-10-20 10:00","2018","10","20","10:00","-3.5","","-9.1","","65","","","","33","","21","","24.1","","97.50","","","","-10","","Snow Showers"
"-91.91","50.11","SIOUX LOOKOUT A","6037776","2018-10-20 11:00","2018","10","20","11:00","-2.2","","-8.6","","62","","","","34","","17","","24.1","","97.55","","","","-8","","NA"
"-91.91","50.11","SIOUX LOOKOUT A","6037776","2018-10-20 12:00","2018","10","20","12:00","-1.7","","-7.6","","64","","","","32","","18","","24.1","","97.60","","","","-7","","Cloudy"
"-91.91","50.11","SIOUX LOOKOUT A","6037776","2018-10-20 13:00","2018","10","20","13:00","-1.3","","-7.1","","65","","","","32","","18","","24.1","","97.64","","","","-7","","Snow"
"-91.91","50.11","SIOUX LOOKOUT A","6037776","2018-10-20 14:00","2018","10","20","14:00","-0.5","","-7.0","","62","","","","32","","13","","24.1","","97.67","","","","-5","","Snow"
"-91.91","50.11","SIOUX LOOKOUT A","6037776","2018-10-20 15:00","2018","10","20","15:00","-0.5","","-6.5","","64","","","","30","","16","","24.1","","97.70","","","","-5","","Mostly Cloudy"
"-91.91","50.11","SIOUX LOOKOUT A","6037776","2018-10-20 16:00","2018","10","20","16:00","-0.6","","-5.9","","68","","","","30","","18","","24.1","","97.73","","","","-6","","NA"
"-91.91","50.11","SIOUX LOOKOUT A","6037776","2018-10-20 17:00","2018","10","20","17:00","-0.8","","-6.5","","65","","","","32","","16","","24.1","","97.74","","","","-6","","NA"
"-91.91","50.11","SIOUX LOOKOUT A","6037776","2018-10-20 18:00","2018","10","20","18:00","-0.8","","-6.1","","67","","","","31","","13","","24.1","","97.73","","","","-5","","Cloudy"
"-91.91","50.11","SIOUX LOOKOUT A","6037776","2018-10-20 19:00","2018","10","20","19:00","-1.0","","-6.7","","65","","","","31","","9","","24.1","","97.71","","","","-4","","NA"
"-91.91","50.11","SIOUX LOOKOUT A","6037776","2018-10-20 20:00","2018","10","20","20:00","-1.6","","-7.4","","65","","","","29","","9","","24.1","","97.69","","","","-5","","NA"
"-91.91","50.11","SIOUX LOOKOUT A","6037776","2018-10-20 21:00","2018","10","20","21:00","-2.4","","-6.5","","73","","","","24","","4","","24.1","","97.64","","","","-4","","Cloudy"
"-91.91","50.11","SIOUX LOOKOUT A","6037776","2018-10-20 22:00","2018","10","20","22:00","-1.2","","-7.1","","64","","","","25","","6","","24.1","","97.67","","","","-3","","NA"
"-91.91","50.11","SIOUX LOOKOUT A","6037776","2018-10-20 23:00","2018","10","20","23:00","-1.0","","-7.4","","62","","","","25","","8","","24.1","","97.57","","","","-4","","NA"
"-91.91","50.11","SIOUX LOOKOUT A","6037776","2018-10-21 00:00","2018","10","21","00:00","-1.3","","-7.1","","65","","","","23","","7","","24.1","","97.49","","","","-4","","Cloudy"
"-91.91","50.11","SIOUX LOOKOUT A","6037776","2018-10-21 01:00","2018","10","21","01:00","-1.1","","-6.9","","65","","","","23","","11","","24.1","","97.47","","","","-5","","NA"
"-91.91","50.11","SIOUX LOOKOUT A","6037776","2018-10-21 02:00","2018","10","21","02:00","-1.0","","-6.6","","66","","","","21","","16","","24.1","","97.36","","","","-6","","NA"
"-91.91","50.11","SIOUX LOOKOUT A","6037776","2018-10-21 03:00","2018","10","21","03:00","-1.1","","-6.3","","68","","","","21","","16","","24.1","","97.27","","","","-6","","Cloudy"
"-91.91","50.11","SIOUX LOOKOUT A","6037776","2018-10-21 04:00","2018","10","21","04:00","-1.2","","-6.2","","69","","","","21","","15","","24.1","","97.23","","","","-6","","NA"
"-91.91","50.11","SIOUX LOOKOUT A","6037776","2018-10-21 05:00","2018","10","21","05:00","-1.6","","-6.0","","72","","","","18","","12","","24.1","","97.09","","","","-6","","NA"
"-91.91","50.11","SIOUX LOOKOUT A","6037776","2018-10-21 06:00","2018","10","21","06:00","-1.4","","-5.8","","72","","","","19","","12","","24.1","","97.04","","","","-5","","Cloudy"
"-91.91","50.11","SIOUX LOOKOUT A","6037776","2018-10-21 07:00","2018","10","21","07:00","-1.3","","-5.7","","72","","","","20","","13","","24.1","","97.00","","","","-6","","NA"
"-91.91","50.11","SIOUX LOOKOUT A","6037776","2018-10-21 08:00","2018","10","21","08:00","-2.1","","-3.7","","89","","","","21","","23","","1.0","","96.95","","","","-8","","Snow Showers"
"-91.91","50.11","SIOUX LOOKOUT A","6037776","2018-10-21 09:00","2018","10","21","09:00","-2.2","","-3.0","","94","","","","17","","14","","24.1","","96.79","","","","-7","","Snow Showers"
"-91.91","50.11","SIOUX LOOKOUT A","6037776","2018-10-21 10:00","2018","10","21","10:00","-1.4","","-2.6","","91","","","","18","","12","","24.1","","96.75","","","","-5","","Snow Showers"
"-91.91","50.11","SIOUX LOOKOUT A","6037776","2018-10-21 11:00","2018","10","21","11:00","0.2","","-2.5","","82","","","","22","","8","","24.1","","96.75","","","","","","NA"
"-91.91","50.11","SIOUX LOOKOUT A","6037776","2018-10-21 12:00","2018","10","21","12:00","1.9","","-2.2","","74","","","","23","","9","","24.1","","96.71","","","","","","Mostly Cloudy"
"-91.91","50.11","SIOUX LOOKOUT A","6037776","2018-10-21 13:00","2018","10","21","13:00","3.6","","-2.5","","64","","","","24","","8","","24.1","","96.66","","","","","","NA"
"-91.91","50.11","SIOUX LOOKOUT A","6037776","2018-10-21 14:00","2018","10","21","14:00","4.5","","-2.9","","59","","","","29","","9","","24.1","","96.65","","","","","","NA"
"-91.91","50.11","SIOUX LOOKOUT A","6037776","2018-10-21 15:00","2018","10","21","15:00","5.3","","-3.2","","54","","","","28","","12","","24.1","","96.64","","","","","","Mainly Clear"
"-91.91","50.11","SIOUX LOOKOUT A","6037776","2018-10-21 16:00","2018","10","21","16:00","5.4","","-2.9","","55","","","","23","","11","","24.1","","96.62","","","","","","NA"
"-91.91","50.11","SIOUX LOOKOUT A","6037776","2018-10-21 17:00","2018","10","21","17:00","4.2","","-3.0","","59","","","","22","","8","","24.1","","96.61","","","","","","NA"
"-91.91","50.11","SIOUX LOOKOUT A","6037776","2018-10-21 18:00","2018","10","21","18:00","3.1","","-2.1","","69","","","","21","","9","","24.1","","96.59","","","","","","Mainly Clear"
"-91.91","50.11","SIOUX LOOKOUT A","6037776","2018-10-21 19:00","2018","10","21","19:00","2.6","","-2.0","","72","","","","21","","10","","24.1","","96.53","","","","","","NA"
"-91.91","50.11","SIOUX LOOKOUT A","6037776","2018-10-21 20:00","2018","10","21","20:00","2.1","","-2.2","","73","","","","22","","8","","24.1","","96.54","","","","","","NA"
"-91.91","50.11","SIOUX LOOKOUT A","6037776","2018-10-21 21:00","2018","10","21","21:00","2.0","","-1.8","","76","","","","21","","7","","24.1","","96.48","","","","","","Mostly Cloudy"
"-91.91","50.11","SIOUX LOOKOUT A","6037776","2018-10-21 22:00","2018","10","21","22:00","1.9","","-1.9","","76","","","","21","","10","","24.1","","96.46","","","","","","NA"
"-91.91","50.11","SIOUX LOOKOUT A","6037776","2018-10-21 23:00","2018","10","21","23:00","1.5","","-2.0","","78","","","","20","","8","","24.1","","96.41","","","","","","NA"
"-91.91","50.11","SIOUX LOOKOUT A","6037776","2018-10-22 00:00","2018","10","22","00:00","2.5","","-1.6","","75","","","","20","","10","","24.1","","96.38","","","","","","Mostly Cloudy"
"-91.91","50.11","SIOUX LOOKOUT A","6037776","2018-10-22 01:00","2018","10","22","01:00","2.8","","-1.3","","75","","","","21","","9","","24.1","","96.33","","","","","","NA"
"-91.91","50.11","SIOUX LOOKOUT A","6037776","2018-10-22 02:00","2018","10","22","02:00","2.9","","-1.0","","75","","","","20","","9","","24.1","","96.29","","","","","","NA"
"-91.91","50.11","SIOUX LOOKOUT A","6037776","2018-10-22 03:00","2018","10","22","03:00","2.9","","-0.8","","77","","","","21","","8","","24.1","","96.25","","","","","","Mostly Cloudy"
"-91.91","50.11","SIOUX LOOKOUT A","6037776","2018-10-22 04:00","2018","10","22","04:00","2.7","","-0.7","","79","","","","22","","9","","24.1","","96.24","","","","","","NA"
"-91.91","50.11","SIOUX LOOKOUT A","6037776","2018-10-22 05:00","2018","10","22","05:00","3.1","","-0.3","","78","","","","26","","8","","24.1","","96.25","","","","","","NA"
"-91.91","50.11","SIOUX LOOKOUT A","6037776","2018-10-22 06:00","2018","10","22","06:00","3.1","","-0.4","","78","","","","29","","8","","24.1","","96.28","","","","","","Mostly Cloudy"
"-91.91","50.11","SIOUX LOOKOUT A","6037776","2018-10-22 07:00","2018","10","22","07:00","2.9","","-0.5","","78","","","","32","","8","","24.1","","96.32","","","","","","NA"
"-91.91","50.11","SIOUX LOOKOUT A","6037776","2018-10-22 08:00","2018","10","22","08:00","2.9","","-0.2","","80","","","","32","","10","","24.1","","96.39","","","","","","NA"
"-91.91","50.11","SIOUX LOOKOUT A","6037776","2018-10-22 09:00","2018","10","22","09:00","5.0","","0.0","","70","","","","33","","15","","24.1","","96.47","","","","","","Mostly Cloudy"
"-91.91","50.11","SIOUX LOOKOUT A","6037776","2018-10-22 10:00","2018","10","22","10:00","4.2","","0.0","","74","","","","34","","13","","24.1","","96.57","","","","","","NA"
"-91.91","50.11","SIOUX LOOKOUT A","6037776","2018-10-22 11:00","2018","10","22","11:00","3.8","","0.2","","77","","","","32","","14","","24.1","","96.67","","","","","","NA"
"-91.91","50.11","SIOUX LOOKOUT A","6037776","2018-10-22 12:00","2018","10","22","12:00","3.9","","0.4","","78","","","","31","","16","","24.1","","96.75","","","","","","Cloudy"
"-91.91","50.11","SIOUX LOOKOUT A","6037776","2018-10-22 13:00","2018","10","22","13:00","4.0","","0.4","","77","","","","33","","13","","24.1","","96.84","","","","","","NA"
"-91.91","50.11","SIOUX LOOKOUT A","6037776","2018-10-22 14:00","2018","10","22","14:00","3.4","","1.2","","86","","","","32","","18","","16.1","","96.93","","","","","","Rain Showers"
"-91.91","50.11","SIOUX LOOKOUT A","6037776","2018-10-22 15:00","2018","10","22","15:00","3.0","","1.7","","92","","","","33","","16","","12.9","","97.03","","","","","","Rain Showers"
"-91.91","50.11","SIOUX LOOKOUT A","6037776","2018-10-22 16:00","2018","10","22","16:00","3.3","","1.1","","85","","","","31","","19","","24.1","","97.12","","","","","","Rain Showers"
"-91.91","50.11","SIOUX LOOKOUT A","6037776","2018-10-22 17:00","2018","10","22","17:00","3.0","","1.4","","89","","","","32","","18","","24.1","","97.21","","","","","","Rain Showers"
"-91.91","50.11","SIOUX LOOKOUT A","6037776","2018-10-22 18:00","2018","10","22","18:00","2.4","","0.8","","89","","","","34","","15","","24.1","","97.33","","","","","","Cloudy"
"-91.91","50.11","SIOUX LOOKOUT A","6037776","2018-10-22 19:00","2018","10","22","19:00","2.3","","0.0","","85","","","","35","","14","","24.1","","97.40","","","","","","NA"
"-91.91","50.11","SIOUX LOOKOUT A","6037776","2018-10-22 20:00","2018","10","22","20:00","1.8","","0.0","","87","","","","35","","14","","19.3","","97.47","","","","","","Rain"
"-91.91","50.11","SIOUX LOOKOUT A","6037776","2018-10-22 21:00","2018","10","22","21:00","1.6","","-0.9","","83","","","","34","","13","","24.1","","97.56","","","","","","Cloudy"
"-91.91","50.11","SIOUX LOOKOUT A","6037776","2018-10-22 22:00","2018","10","22","22:00","1.5","","-1.3","","81","","","","33","","19","","24.1","","97.62","","","","","","NA"
"-91.91","50.11","SIOUX LOOKOUT A","6037776","2018-10-22 23:00","2018","10","22","23:00","1.2","","-1.1","","84","","","","32","","17","","12.9","","97.66","","","","","","Snow"
"-91.91","50.11","SIOUX LOOKOUT A","6037776","2018-10-23 00:00","2018","10","23","00:00","1.0","","-1.4","","84","","","","35","","12","","19.3","","97.72","","","","","","Snow"
"-91.91","50.11","SIOUX LOOKOUT A","6037776","2018-10-23 01:00","2018","10","23","01:00","0.6","","-1.6","","86","","","","34","","8","","19.3","","97.74","","","","","","Snow"
"-91.91","50.11","SIOUX LOOKOUT A","6037776","2018-10-23 02:00","2018","10","23","02:00","0.4","","-2.0","","84","","","","33","","14","","24.1","","97.84","","","","","","NA"
"-91.91","50.11","SIOUX LOOKOUT A","6037776","2018-10-23 03:00","2018","10","23","03:00","0.3","","-2.0","","84","","","","35","","9","","24.1","","97.91","","","","","","Cloudy"
"-91.91","50.11","SIOUX LOOKOUT A","6037776","2018-10-23 04:00","2018","10","23","04:00","-0.1","","-3.2","","79","","","","36","","10","","24.1","","97.96","","","","-3","","NA"
"-91.91","50.11","SIOUX LOOKOUT A","6037776","2018-10-23 05:00","2018","10","23","05:00","-0.2","","-3.5","","78","","","","34","","11","","24.1","","98.02","","","","-4","","NA"
"-91.91","50.11","SIOUX LOOKOUT A","6037776","2018-10-23 06:00","2018","10","23","06:00","-0.9","","-2.5","","89","","","","33","","12","","4.8","","98.09","","","","-5","","Snow"
"-91.91","50.11","SIOUX LOOKOUT A","6037776","2018-10-23 07:00","2018","10","23","07:00","-1.0","","-3.7","","82","","","","35","","6","","24.1","","98.13","","","","-3","","NA"
"-91.91","50.11","SIOUX LOOKOUT A","6037776","2018-10-23 08:00","2018","10","23","08:00","-0.8","","-4.1","","79","","","","35","","12","","24.1","","98.18","","","","-5","","NA"
"-91.91","50.11","SIOUX LOOKOUT A","6037776","2018-10-23 09:00","2018","10","23","09:00","-0.8","","-4.4","","77","","","","35","","13","","24.1","","98.25","","","","-5","","Cloudy"
"-91.91","50.11","SIOUX LOOKOUT A","6037776","2018-10-23 10:00","2018","10","23","10:00","-0.6","","-3.6","","80","","","","35","","10","","24.1","","98.27","","","","-4","","Snow Showers"
"-91.91","50.11","SIOUX LOOKOUT A","6037776","2018-10-23 11:00","2018","10","23","11:00","-0.9","","-2.8","","87","","","","2","","5","","24.1","","98.31","","","","-3","","Snow Showers"
"-91.91","50.11","SIOUX LOOKOUT A","6037776","2018-10-23 12:00","2018","10","23","12:00","-0.8","","-3.9","","80","","","","36","","9","","19.3","","98.31","","","","-4","","Snow Showers"
"-91.91","50.11","SIOUX LOOKOUT A","6037776","2018-10-23 13:00","2018","10","23","13:00","-0.1","","-4.3","","74","","","","34","","8","","24.1","","98.30","","","","-3","","NA"
"-91.91","50.11","SIOUX LOOKOUT A","6037776","2018-10-23 14:00","2018","10","23","14:00","0.0","","-4.8","","70","","","","35","","9","","24.1","","98.31","","","","-3","","NA"
"-91.91","50.11","SIOUX LOOKOUT A","6037776","2018-10-23 15:00","2018","10","23","15:00","0.1","","-4.8","","70","","","","31","","8","","24.1","","98.31","","","","","","Cloudy"
"-91.91","50.11","SIOUX LOOKOUT A","6037776","2018-10-23 16:00","2018","10","23","16:00","0.1","","-5.2","","68","","","","36","","4","","24.1","","98.29","","","","","","NA"
"-91.91","50.11","SIOUX LOOKOUT A","6037776","2018-10-23 17:00","2018","10","23","17:00","-0.2","","-5.6","","67","","","","36","","2","","24.1","","98.31","","","","-1","","NA"
"-91.91","50.11","SIOUX LOOKOUT A","6037776","2018-10-23 18:00","2018","10","23","18:00","-0.5","","-5.3","","70","","","","36","","3","","24.1","","98.32","","","","-1","","Cloudy"
"-91.91","50.11","SIOUX LOOKOUT A","6037776","2018-10-23 19:00","2018","10","23","19:00","-0.9","","-5.0","","74","","","","11","","4","","24.1","","98.29","","","","-2","","NA"
"-91.91","50.11","SIOUX LOOKOUT A","6037776","2018-10-23 20:00","2018","10","23","20:00","-0.9","","-5.2","","73","","","","6","","4","","24.1","","98.28","","","","-2","","NA"
"-91.91","50.11","SIOUX LOOKOUT A","6037776","2018-10-23 21:00","2018","10","23","21:00","-1.0","","-5.2","","73","","","","10","","4","","24.1","","98.28","","","","-2","","Cloudy"
"-91.91","50.11","SIOUX LOOKOUT A","6037776","2018-10-23 22:00","2018","10","23","22:00","-0.9","","-4.9","","74","","","","13","","4","","24.1","","98.25","","","","-2","","NA"
"-91.91","50.11","SIOUX LOOKOUT A","6037776","2018-10-23 23:00","2018","10","23","23:00","-1.0","","-4.9","","75","","","","13","","6","","24.1","","98.27","","","","-3","","NA"
"-91.91","50.11","SIOUX LOOKOUT A","6037776","2018-10-24 00:00","2018","10","24","00:00","-1.2","","-4.8","","77","","","","19","","7","","24.1","","98.27","","","","-4","","Mostly Cloudy"
"-91.91","50.11","SIOUX LOOKOUT A","6037776","2018-10-24 01:00","2018","10","24","01:00","-3.1","","-5.0","","86","","","","15","","3","","24.1","","98.26","","","","-4","","NA"
"-91.91","50.11","SIOUX LOOKOUT A","6037776","2018-10-24 02:00","2018","10","24","02:00","-3.0","","-4.8","","87","","","","13","","4","","24.1","","98.23","","","","-5","","NA"
"-91.91","50.11","SIOUX LOOKOUT A","6037776","2018-10-24 03:00","2018","10","24","03:00","-3.6","","-4.7","","92","","","","12","","7","","24.1","","98.20","","","","-7","","Mainly Clear"
"-91.91","50.11","SIOUX LOOKOUT A","6037776","2018-10-24 04:00","2018","10","24","04:00","-3.6","","-4.9","","91","","","","15","","6","","24.1","","98.18","","","","-6","","NA"
"-91.91","50.11","SIOUX LOOKOUT A","6037776","2018-10-24 05:00","2018","10","24","05:00","-3.1","","-4.2","","92","","","","15","","8","","24.1","","98.15","","","","-6","","NA"
"-91.91","50.11","SIOUX LOOKOUT A","6037776","2018-10-24 06:00","2018","10","24","06:00","-4.0","","-4.5","","96","","","","16","","7","","24.1","","98.12","","","","-7","","Mainly Clear"
"-91.91","50.11","SIOUX LOOKOUT A","6037776","2018-10-24 07:00","2018","10","24","07:00","-2.9","","-3.7","","94","","","","17","","11","","24.1","","98.11","","","","-7","","NA"
"-91.91","50.11","SIOUX LOOKOUT A","6037776","2018-10-24 08:00","2018","10","24","08:00","-1.0","","-2.7","","88","","","","18","","8","","24.1","","98.06","","","","-4","","NA"
"-91.91","50.11","SIOUX LOOKOUT A","6037776","2018-10-24 09:00","2018","10","24","09:00","0.6","","-2.7","","79","","","","17","","12","","24.1","","98.00","","","","","","Clear"
"-91.91","50.11","SIOUX LOOKOUT A","6037776","2018-10-24 10:00","2018","10","24","10:00","2.4","","-2.2","","72","","","","17","","9","","24.1","","97.93","","","","","","NA"
"-91.91","50.11","SIOUX LOOKOUT A","6037776","2018-10-24 11:00","2018","10","24","11:00","4.8","","-1.4","","64","","","","19","","10","","24.1","","97.85","","","","","","NA"
"-91.91","50.11","SIOUX LOOKOUT A","6037776","2018-10-24 12:00","2018","10","24","12:00","6.9","","-1.2","","56","","","","22","","15","","24.1","","97.73","","","","","","Mainly Clear"
"-91.91","50.11","SIOUX LOOKOUT A","6037776","2018-10-24 13:00","2018","10","24","13:00","7.7","","-2.2","","50","","","","21","","19","","24.1","","97.65","","","","","","NA"
"-91.91","50.11","SIOUX LOOKOUT A","6037776","2018-10-24 14:00","2018","10","24","14:00","8.6","","-1.9","","48","","","","22","","15","","24.1","","97.54","","","","","","NA"
"-91.91","50.11","SIOUX LOOKOUT A","6037776","2018-10-24 15:00","2018","10","24","15:00","8.9","","-2.4","","45","","","","22","","16","","24.1","","97.48","","","","","","Clear"
"-91.91","50.11","SIOUX LOOKOUT A","6037776","2018-10-24 16:00","2018","10","24","16:00","8.1","","-2.1","","48","","","","22","","16","","24.1","","97.38","","","","","","NA"
"-91.91","50.11","SIOUX LOOKOUT A","6037776","2018-10-24 17:00","2018","10","24","17:00","4.9","","-2.7","","58","","","","18","","7","","24.1","","97.35","","","","","","NA"
"-91.91","50.11","SIOUX LOOKOUT A","6037776","2018-10-24 18:00","2018","10","24","18:00","4.1","","-2.2","","64","","","","18","","8","","24.1","","97.34","","","","","","Mainly Clear"
"-91.91","50.11","SIOUX LOOKOUT A","6037776","2018-10-24 19:00","2018","10","24","19:00","4.0","","-2.2","","64","","","","17","","9","","24.1","","97.29","","","","","","NA"
"-91.91","50.11","SIOUX LOOKOUT A","6037776","2018-10-24 20:00","2018","10","24","20:00","3.2","","-2.0","","68","","","","17","","9","","24.1","","97.25","","","","","","NA"
"-91.91","50.11","SIOUX LOOKOUT A","6037776","2018-10-24 21:00","2018","10","24","21:00","3.8","","-1.4","","69","","","","18","","9","","24.1","","97.22","","","","","","Mostly Cloudy"
"-91.91","50.11","SIOUX LOOKOUT A","6037776","2018-10-24 22:00","2018","10","24","22:00","4.5","","-1.2","","67","","","","18","","9","","24.1","","97.19","","","","","","NA"
"-91.91","50.11","SIOUX LOOKOUT A","6037776","2018-10-24 23:00","2018","10","24","23:00","5.4","","-0.9","","64","","","","17","","9","","24.1","","97.17","","","","","","NA"
"-91.91","50.11","SIOUX LOOKOUT A","6037776","2018-10-25 00:00","2018","10","25","00:00","5.7","","-0.8","","63","","","","12","","5","","24.1","","97.18","","","","","","Rain Showers"
"-91.91","50.11","SIOUX LOOKOUT A","6037776","2018-10-25 01:00","2018","10","25","01:00","5.9","","-1.1","","61","","","","12","","7","","24.1","","97.17","","","","","","NA"
"-91.91","50.11","SIOUX LOOKOUT A","6037776","2018-10-25 02:00","2018","10","25","02:00","5.5","","-1.1","","63","","","","15","","7","","24.1","","97.15","","","","","","NA"
"-91.91","50.11","SIOUX LOOKOUT A","6037776","2018-10-25 03:00","2018","10","25","03:00","5.6","","-0.4","","65","","","","17","","7","","24.1","","97.10","","","","","","Cloudy"
"-91.91","50.11","SIOUX LOOKOUT A","6037776","2018-10-25 04:00","2018","10","25","04:00","5.3","","-0.2","","68","","","","16","","5","","24.1","","97.07","","","","","","NA"
"-91.91","50.11","SIOUX LOOKOUT A","6037776","2018-10-25 05:00","2018","10","25","05:00","5.0","","-0.2","","69","","","","17","","5","","24.1","","97.07","","","","","","NA"
"-91.91","50.11","SIOUX LOOKOUT A","6037776","2018-10-25 06:00","2018","10","25","06:00","2.7","","-0.2","","81","","","","15","","4","","24.1","","97.06","","","","","","Mostly Cloudy"
"-91.91","50.11","SIOUX LOOKOUT A","6037776","2018-10-25 07:00","2018","10","25","07:00","3.0","","0.0","","80","","","","16","","3","","24.1","","97.05","","","","","","NA"
"-91.91","50.11","SIOUX LOOKOUT A","6037776","2018-10-25 08:00","2018","10","25","08:00","4.7","","0.5","","74","","","","14","","5","","24.1","","97.03","","","","","","NA"
"-91.91","50.11","SIOUX LOOKOUT A","6037776","2018-10-25 09:00","2018","10","25","09:00","5.7","","0.6","","70","","","","13","","5","","24.1","","97.04","","","","","","Mostly Cloudy"
"-91.91","50.11","SIOUX LOOKOUT A","6037776","2018-10-25 10:00","2018","10","25","10:00","6.9","","0.6","","64","","","","36","","2","","24.1","","97.07","","","","","","NA"
"-91.91","50.11","SIOUX LOOKOUT A","6037776","2018-10-25 11:00","2018","10","25","11:00","8.2","","0.5","","58","","","","16","","4","","24.1","","97.05","","","","","","NA"
"-91.91","50.11","SIOUX LOOKOUT A","6037776","2018-10-25 12:00","2018","10","25","12:00","7.8","","2.5","","69","","","","6","","5","","24.1","","97.03","","","","","","Mostly Cloudy"
"-91.91","50.11","SIOUX LOOKOUT A","6037776","2018-10-25 13:00","2018","10","25","13:00","6.3","","1.7","","72","","","","9","","7","","24.1","","97.01","","","","","","Rain"
"-91.91","50.11","SIOUX LOOKOUT A","6037776","2018-10-25 14:00","2018","10","25","14:00","5.1","","3.6","","90","","","","8","","5","","19.3","","97.00","","","","","","Rain"
"-91.91","50.11","SIOUX LOOKOUT A","6037776","2018-10-25 15:00","2018","10","25","15:00","4.8","","2.5","","85","","","","8","","9","","24.1","","97.01","","","","","","Rain"
"-91.91","50.11","SIOUX LOOKOUT A","6037776","2018-10-25 16:00","2018","10","25","16:00","4.1","","2.5","","89","","","","9","","8","","24.1","","97.02","","","","","","NA"
"-91.91","50.11","SIOUX LOOKOUT A","6037776","2018-10-25 17:00","2018","10","25","17:00","3.5","","2.3","","92","","","","9","","11","","19.3","","97.03","","","","","","Rain"
"-91.91","50.11","SIOUX LOOKOUT A","6037776","2018-10-25 18:00","2018","10","25","18:00","2.6","","1.9","","95","","","","9","","12","","12.9","","97.05","","","","","","Rain"
"-91.91","50.11","SIOUX LOOKOUT A","6037776","2018-10-25 19:00","2018","10","25","19:00","2.4","","2.0","","98","","","","10","","7","","3.2","","97.05","","","","","","Rain,Fog"
"-91.91","50.11","SIOUX LOOKOUT A","6037776","2018-10-25 20:00","2018","10","25","20:00","2.4","","2.2","","98","","","","9","","14","","3.2","","97.05","","","","","","Rain,Fog"
"-91.91","50.11","SIOUX LOOKOUT A","6037776","2018-10-25 21:00","2018","10","25","21:00","2.2","","1.8","","98","","","","10","","12","","4.8","","97.05","","","","","","Rain,Fog"
"-91.91","50.11","SIOUX LOOKOUT A","6037776","2018-10-25 22:00","2018","10","25","22:00","1.8","","1.4","","97","","","","11","","10","","4.8","","97.04","","","","","","Rain,Fog"
"-91.91","50.11","SIOUX LOOKOUT A","6037776","2018-10-25 23:00","2018","10","25","23:00","1.7","","1.3","","97","","","","10","","12","","4.8","","97.03","","","","","","Rain,Fog"
"-91.91","50.11","SIOUX LOOKOUT A","6037776","2018-10-26 00:00","2018","10","26","00:00","1.5","","1.1","","98","","","","9","","12","","4.8","","97.00","","","","","","Rain,Fog"
"-91.91","50.11","SIOUX LOOKOUT A","6037776","2018-10-26 01:00","2018","10","26","01:00","1.4","","1.0","","98","","","","10","","11","","4.8","","96.96","","","","","","Rain,Snow,Fog"
"-91.91","50.11","SIOUX LOOKOUT A","6037776","2018-10-26 02:00","2018","10","26","02:00","1.3","","1.0","","98","","","","9","","13","","4.8","","96.93","","","","","","Rain,Fog"
"-91.91","50.11","SIOUX LOOKOUT A","6037776","2018-10-26 03:00","2018","10","26","03:00","1.4","","1.1","","98","","","","12","","9","","4.8","","96.89","","","","","","Rain,Fog"
"-91.91","50.11","SIOUX LOOKOUT A","6037776","2018-10-26 04:00","2018","10","26","04:00","1.4","","1.1","","98","","","","11","","10","","3.2","","96.87","","","","","","Rain,Fog"
"-91.91","50.11","SIOUX LOOKOUT A","6037776","2018-10-26 05:00","2018","10","26","05:00","1.4","","1.1","","98","","","","11","","8","","4.8","","96.84","","","","","","Rain,Fog"
"-91.91","50.11","SIOUX LOOKOUT A","6037776","2018-10-26 06:00","2018","10","26","06:00","1.5","","1.2","","98","","","","13","","13","","4.8","","96.81","","","","","","Rain,Fog"
"-91.91","50.11","SIOUX LOOKOUT A","6037776","2018-10-26 07:00","2018","10","26","07:00","1.5","","1.2","","98","","","","12","","12","","6.4","","96.78","","","","","","Rain,Fog"
"-91.91","50.11","SIOUX LOOKOUT A","6037776","2018-10-26 08:00","2018","10","26","08:00","1.6","","1.2","","98","","","","13","","11","","9.7","","96.77","","","","","","Rain"
"-91.91","50.11","SIOUX LOOKOUT A","6037776","2018-10-26 09:00","2018","10","26","09:00","1.7","","1.3","","98","","","","13","","9","","8.1","","96.75","","","","","","Rain"
"-91.91","50.11","SIOUX LOOKOUT A","6037776","2018-10-26 10:00","2018","10","26","10:00","1.9","","1.4","","97","","","","13","","11","","16.1","","96.75","","","","","","Rain"
"-91.91","50.11","SIOUX LOOKOUT A","6037776","2018-10-26 11:00","2018","10","26","11:00","2.0","","1.5","","96","","","","13","","16","","12.9","","96.74","","","","","","Rain"
"-91.91","50.11","SIOUX LOOKOUT A","6037776","2018-10-26 12:00","2018","10","26","12:00","2.3","","1.8","","97","","","","12","","10","","19.3","","96.70","","","","","","Rain"
"-91.91","50.11","SIOUX LOOKOUT A","6037776","2018-10-26 13:00","2018","10","26","13:00","2.7","","2.2","","97","","","","15","","8","","12.9","","96.64","","","","","","Rain"
"-91.91","50.11","SIOUX LOOKOUT A","6037776","2018-10-26 14:00","2018","10","26","14:00","2.8","","2.3","","97","","","","13","","7","","19.3","","96.59","","","","","","Rain"
"-91.91","50.11","SIOUX LOOKOUT A","6037776","2018-10-26 15:00","2018","10","26","15:00","2.9","","2.5","","97","","","","12","","7","","19.3","","96.56","","","","","","Rain"
"-91.91","50.11","SIOUX LOOKOUT A","6037776","2018-10-26 16:00","2018","10","26","16:00","3.0","","2.6","","97","","","","13","","10","","19.3","","96.55","","","","","","Rain"
"-91.91","50.11","SIOUX LOOKOUT A","6037776","2018-10-26 17:00","2018","10","26","17:00","2.9","","2.6","","98","","","","14","","7","","16.1","","96.55","","","","","","Rain"
"-91.91","50.11","SIOUX LOOKOUT A","6037776","2018-10-26 18:00","2018","10","26","18:00","2.8","","2.5","","98","","","","12","","12","","19.3","","96.54","","","","","","Rain"
"-91.91","50.11","SIOUX LOOKOUT A","6037776","2018-10-26 19:00","2018","10","26","19:00","2.6","","2.4","","98","","","","12","","9","","19.3","","96.52","","","","","","Rain"
"-91.91","50.11","SIOUX LOOKOUT A","6037776","2018-10-26 20:00","2018","10","26","20:00","2.6","","2.2","","98","","","","13","","10","","19.3","","96.51","","","","","","Rain"
"-91.91","50.11","SIOUX LOOKOUT A","6037776","2018-10-26 21:00","2018","10","26","21:00","2.5","","2.1","","98","","","","14","","8","","19.3","","96.50","","","","","","Rain"
"-91.91","50.11","SIOUX LOOKOUT A","6037776","2018-10-26 22:00","2018","10","26","22:00","2.4","","2.1","","98","","","","14","","12","","19.3","","96.50","","","","","","Rain"
"-91.91","50.11","SIOUX LOOKOUT A","6037776","2018-10-26 23:00","2018","10","26","23:00","2.3","","2.0","","98","","","","13","","13","","19.3","","96.49","","","","","","Rain"
"-91.91","50.11","SIOUX LOOKOUT A","6037776","2018-10-27 00:00","2018","10","27","00:00","2.2","","2.0","","98","","","","14","","11","","16.1","","96.49","","","","","","Drizzle"
"-91.91","50.11","SIOUX LOOKOUT A","6037776","2018-10-27 01:00","2018","10","27","01:00","2.2","","1.9","","98","","","","14","","9","","16.1","","96.47","","","","","","Rain"
"-91.91","50.11","SIOUX LOOKOUT A","6037776","2018-10-27 02:00","2018","10","27","02:00","2.1","","1.9","","98","","","","13","","12","","16.1","","96.45","","","","","","Rain"
"-91.91","50.11","SIOUX LOOKOUT A","6037776","2018-10-27 03:00","2018","10","27","03:00","2.2","","2.0","","98","","","","13","","10","","19.3","","96.44","","","","","","Rain"
"-91.91","50.11","SIOUX LOOKOUT A","6037776","2018-10-27 04:00","2018","10","27","04:00","2.2","","2.0","","98","","","","13","","9","","19.3","","96.44","","","","","","Drizzle"
"-91.91","50.11","SIOUX LOOKOUT A","6037776","2018-10-27 05:00","2018","10","27","05:00","2.3","","2.1","","98","","","","14","","6","","16.1","","96.44","","","","","","Drizzle"
"-91.91","50.11","SIOUX LOOKOUT A","6037776","2018-10-27 06:00","2018","10","27","06:00","2.5","","2.2","","98","","","","14","","11","","19.3","","96.40","","","","","","Rain"
"-91.91","50.11","SIOUX LOOKOUT A","6037776","2018-10-27 07:00","2018","10","27","07:00","2.7","","2.4","","98","","","","15","","12","","24.1","","96.40","","","","","","NA"
"-91.91","50.11","SIOUX LOOKOUT A","6037776","2018-10-27 08:00","2018","10","27","08:00","3.1","","2.8","","98","","","","14","","12","","19.3","","96.40","","","","","","Drizzle"
"-91.91","50.11","SIOUX LOOKOUT A","6037776","2018-10-27 09:00","2018","10","27","09:00","3.5","","3.2","","98","","","","15","","14","","19.3","","96.36","","","","","","Drizzle"
"-91.91","50.11","SIOUX LOOKOUT A","6037776","2018-10-27 10:00","2018","10","27","10:00","4.1","","3.9","","99","","","","16","","13","","19.3","","96.36","","","","","","Drizzle"
"-91.91","50.11","SIOUX LOOKOUT A","6037776","2018-10-27 11:00","2018","10","27","11:00","4.9","","4.6","","98","","","","15","","12","","8.1","","96.34","","","","","","Rain,Fog"
"-91.91","50.11","SIOUX LOOKOUT A","6037776","2018-10-27 12:00","2018","10","27","12:00","5.5","","4.8","","95","","","","16","","13","","19.3","","96.32","","","","","","Drizzle"
"-91.91","50.11","SIOUX LOOKOUT A","6037776","2018-10-27 13:00","2018","10","27","13:00","6.0","","4.9","","93","","","","17","","9","","19.3","","96.28","","","","","","NA"
"-91.91","50.11","SIOUX LOOKOUT A","6037776","2018-10-27 14:00","2018","10","27","14:00","6.1","","4.9","","92","","","","17","","13","","19.3","","96.23","","","","","","NA"
"-91.91","50.11","SIOUX LOOKOUT A","6037776","2018-10-27 15:00","2018","10","27","15:00","6.2","","4.9","","91","","","","18","","10","","19.3","","96.25","","","","","","Rain"
"-91.91","50.11","SIOUX LOOKOUT A","6037776","2018-10-27 16:00","2018","10","27","16:00","5.9","","5.3","","96","","","","16","","10","","16.1","","96.25","","","","","","Rain"
"-91.91","50.11","SIOUX LOOKOUT A","6037776","2018-10-27 17:00","2018","10","27","17:00","5.7","","5.3","","97","","","","15","","7","","19.3","","96.26","","","","","","Rain"
"-91.91","50.11","SIOUX LOOKOUT A","6037776","2018-10-27 18:00","2018","10","27","18:00","5.7","","5.2","","97","","","","16","","9","","19.3","","96.25","","","","","","Rain"
"-91.91","50.11","SIOUX LOOKOUT A","6037776","2018-10-27 19:00","2018","10","27","19:00","5.8","","5.1","","95","","","","17","","10","","16.1","","96.24","","","","","","Drizzle"
"-91.91","50.11","SIOUX LOOKOUT A","6037776","2018-10-27 20:00","2018","10","27","20:00","5.8","","5.0","","95","","","","16","","12","","16.1","","96.23","","","","","","NA"
"-91.91","50.11","SIOUX LOOKOUT A","6037776","2018-10-27 21:00","2018","10","27","21:00","5.7","","4.8","","94","","","","16","","13","","19.3","","96.24","","","","","","Cloudy"
"-91.91","50.11","SIOUX LOOKOUT A","6037776","2018-10-27 22:00","2018","10","27","22:00","5.5","","4.7","","94","","","","16","","9","","16.1","","96.24","","","","","","NA"
"-91.91","50.11","SIOUX LOOKOUT A","6037776","2018-10-27 23:00","2018","10","27","23:00","5.3","","4.5","","94","","","","17","","13","","9.7","","96.21","","","","","","Fog"
"-91.91","50.11","SIOUX LOOKOUT A","6037776","2018-10-28 00:00","2018","10","28","00:00","5.2","","4.2","","93","","","","17","","12","","9.7","","96.20","","","","","","Fog"
"-91.91","50.11","SIOUX LOOKOUT A","6037776","2018-10-28 01:00","2018","10","28","01:00","4.8","","4.2","","96","","","","14","","8","","16.1","","96.19","","","","","","NA"
"-91.91","50.11","SIOUX LOOKOUT A","6037776","2018-10-28 02:00","2018","10","28","02:00","4.6","","4.1","","96","","","","16","","7","","9.7","","96.19","","","","","","Fog"
"-91.91","50.11","SIOUX LOOKOUT A","6037776","2018-10-28 03:00","2018","10","28","03:00","4.3","","4.1","","99","","","","14","","7","","9.7","","96.18","","","","","","Drizzle,Fog"
"-91.91","50.11","SIOUX LOOKOUT A","6037776","2018-10-28 04:00","2018","10","28","04:00","4.2","","4.1","","99","","","","14","","6","","9.7","","96.19","","","","","","Drizzle,Fog"
"-91.91","50.11","SIOUX LOOKOUT A","6037776","2018-10-28 05:00","2018","10","28","05:00","4.2","","4.1","","99","","","","14","","9","","12.9","","96.22","","","","","","Rain"
"-91.91","50.11","SIOUX LOOKOUT A","6037776","2018-10-28 06:00","2018","10","28","06:00","4.2","","4.0","","99","","","","14","","7","","8.1","","96.25","","","","","","Rain"
"-91.91","50.11","SIOUX LOOKOUT A","6037776","2018-10-28 07:00","2018","10","28","07:00","4.2","","4.0","","99","","","","15","","7","","16.1","","96.28","","","","","","Rain"
"-91.91","50.11","SIOUX LOOKOUT A","6037776","2018-10-28 08:00","2018","10","28","08:00","4.4","","4.3","","99","","","","16","","9","","6.4","","96.32","","","","","","Rain"
"-91.91","50.11","SIOUX LOOKOUT A","6037776","2018-10-28 09:00","2018","10","28","09:00","4.9","","4.6","","98","","","","17","","8","","16.1","","96.34","","","","","","Rain"
"-91.91","50.11","SIOUX LOOKOUT A","6037776","2018-10-28 10:00","2018","10","28","10:00","5.2","","4.8","","98","","","","17","","7","","19.3","","96.36","","","","","","Rain"
"-91.91","50.11","SIOUX LOOKOUT A","6037776","2018-10-28 11:00","2018","10","28","11:00","5.9","","5.1","","95","","","","22","","4","","19.3","","96.38","","","","","","Rain"
"-91.91","50.11","SIOUX LOOKOUT A","6037776","2018-10-28 12:00","2018","10","28","12:00","5.8","","4.8","","93","","","","21","","7","","19.3","","96.38","","","","","","Rain Showers"
"-91.91","50.11","SIOUX LOOKOUT A","6037776","2018-10-28 13:00","2018","10","28","13:00","5.6","","4.6","","93","","","","21","","5","","16.1","","96.39","","","","","","NA"
"-91.91","50.11","SIOUX LOOKOUT A","6037776","2018-10-28 14:00","2018","10","28","14:00","5.2","","4.8","","97","","","","30","","12","","3.2","","96.42","","","","","","Drizzle"
"-91.91","50.11","SIOUX LOOKOUT A","6037776","2018-10-28 15:00","2018","10","28","15:00","4.6","","4.5","","99","","","","31","","15","","2.8","","96.45","","","","","","Drizzle"
"-91.91","50.11","SIOUX LOOKOUT A","6037776","2018-10-28 16:00","2018","10","28","16:00","4.4","","4.2","","98","","","","32","","12","","8.1","","96.50","","","","","","Drizzle"
"-91.91","50.11","SIOUX LOOKOUT A","6037776","2018-10-28 17:00","2018","10","28","17:00","4.4","","4.3","","99","","","","32","","11","","2.8","","96.54","","","","","","Rain"
"-91.91","50.11","SIOUX LOOKOUT A","6037776","2018-10-28 18:00","2018","10","28","18:00","4.3","","4.1","","99","","","","32","","12","","2.8","","96.59","","","","","","Rain,Drizzle"
"-91.91","50.11","SIOUX LOOKOUT A","6037776","2018-10-28 19:00","2018","10","28","19:00","4.0","","3.9","","99","","","","32","","14","","1.6","","96.63","","","","","","Rain,Drizzle,Fog"
"-91.91","50.11","SIOUX LOOKOUT A","6037776","2018-10-28 20:00","2018","10","28","20:00","3.5","","3.4","","100","","","","31","","13","","1.6","","96.68","","","","","","Drizzle,Fog"
"-91.91","50.11","SIOUX LOOKOUT A","6037776","2018-10-28 21:00","2018","10","28","21:00","3.0","","3.0","","100","","","","31","","16","","2.4","","96.72","","","","","","Drizzle,Fog"
"-91.91","50.11","SIOUX LOOKOUT A","6037776","2018-10-28 22:00","2018","10","28","22:00","2.8","","2.8","","100","","","","32","","8","","3.2","","96.72","","","","","","Rain,Drizzle,Fog"
"-91.91","50.11","SIOUX LOOKOUT A","6037776","2018-10-28 23:00","2018","10","28","23:00","2.8","","2.8","","100","","","","33","","7","","1.6","","96.74","","","","","","Fog"
"-91.91","50.11","SIOUX LOOKOUT A","6037776","2018-10-29 00:00","2018","10","29","00:00","2.8","","2.8","","100","","","","32","","14","","1.6","","96.80","","","","","","Fog"
"-91.91","50.11","SIOUX LOOKOUT A","6037776","2018-10-29 01:00","2018","10","29","01:00","2.6","","2.6","","100","","","","31","","14","","1.6","","96.85","","","","","","Fog"
"-91.91","50.11","SIOUX LOOKOUT A","6037776","2018-10-29 02:00","2018","10","29","02:00","2.5","","2.5","","100","","","","31","","16","","4.0","","96.91","","","","","","Fog"
"-91.91","50.11","SIOUX LOOKOUT A","6037776","2018-10-29 03:00","2018","10","29","03:00","2.5","","2.5","","100","","","","34","","8","","16.1","","96.91","","","","","","Cloudy"
"-91.91","50.11","SIOUX LOOKOUT A","6037776","2018-10-29 04:00","2018","10","29","04:00","2.5","","2.5","","99","","","","33","","9","","24.1","","96.91","","","","","","NA"
"-91.91","50.11","SIOUX LOOKOUT A","6037776","2018-10-29 05:00","2018","10","29","05:00","2.5","","2.4","","99","","","","36","","6","","24.1","","96.94","","","","","","NA"
"-91.91","50.11","SIOUX LOOKOUT A","6037776","2018-10-29 06:00","2018","10","29","06:00","2.4","","2.2","","99","","","","34","","7","","24.1","","96.92","","","","","","Cloudy"
"-91.91","50.11","SIOUX LOOKOUT A","6037776","2018-10-29 07:00","2018","10","29","07:00","2.4","","2.3","","99","","","","30","","9","","24.1","","96.97","","","","","","NA"
"-91.91","50.11","SIOUX LOOKOUT A","6037776","2018-10-29 08:00","2018","10","29","08:00","2.5","","2.2","","98","","","","31","","9","","16.1","","97.05","","","","","","NA"
"-91.91","50.11","SIOUX LOOKOUT A","6037776","2018-10-29 09:00","2018","10","29","09:00","2.6","","2.3","","98","","","","29","","7","","24.1","","97.07","","","","","","Cloudy"
"-91.91","50.11","SIOUX LOOKOUT A","6037776","2018-10-29 10:00","2018","10","29","10:00","2.9","","2.4","","96","","","","30","","3","","19.3","","97.07","","","","","","NA"
"-91.91","50.11","SIOUX LOOKOUT A","6037776","2018-10-29 11:00","2018","10","29","11:00","3.3","","2.5","","94","","","","36","","2","","24.1","","97.05","","","","","","NA"
"-91.91","50.11","SIOUX LOOKOUT A","6037776","2018-10-29 12:00","2018","10","29","12:00","3.9","","2.7","","92","","","","6","","3","","19.3","","97.04","","","","","","Cloudy"
"-91.91","50.11","SIOUX LOOKOUT A","6037776","2018-10-29 13:00","2018","10","29","13:00","4.2","","2.8","","90","","","","36","","3","","24.1","","97.01","","","","","","NA"
"-91.91","50.11","SIOUX LOOKOUT A","6037776","2018-10-29 14:00","2018","10","29","14:00","4.3","","3.3","","94","","","","20","","6","","24.1","","96.95","","","","","","NA"
"-91.91","50.11","SIOUX LOOKOUT A","6037776","2018-10-29 15:00","2018","10","29","15:00","4.1","","3.2","","94","","","","15","","5","","24.1","","96.94","","","","","","Cloudy"
"-91.91","50.11","SIOUX LOOKOUT A","6037776","2018-10-29 16:00","2018","10","29","16:00","3.9","","2.9","","93","","","","17","","5","","19.3","","96.93","","","","","","NA"
"-91.91","50.11","SIOUX LOOKOUT A","6037776","2018-10-29 17:00","2018","10","29","17:00","3.7","","3.1","","96","","","","36","","2","","24.1","","96.93","","","","","","NA"
"-91.91","50.11","SIOUX LOOKOUT A","6037776","2018-10-29 18:00","2018","10","29","18:00","3.7","","3.3","","97","","","","11","","6","","24.1","","96.91","","","","","","Cloudy"
"-91.91","50.11","SIOUX LOOKOUT A","6037776","2018-10-29 19:00","2018","10","29","19:00","3.6","","3.3","","97","","","","13","","8","","24.1","","96.90","","","","","","NA"
"-91.91","50.11","SIOUX LOOKOUT A","6037776","2018-10-29 20:00","2018","10","29","20:00","3.6","","2.9","","95","","","","12","","5","","24.1","","96.86","","","","","","NA"
"-91.91","50.11","SIOUX LOOKOUT A","6037776","2018-10-29 21:00","2018","10","29","21:00","3.5","","2.9","","96","","","","15","","6","","24.1","","96.85","","","","","","Drizzle"
"-91.91","50.11","SIOUX LOOKOUT A","6037776","2018-10-29 22:00","2018","10","29","22:00","3.6","","3.0","","96","","","","16","","7","","24.1","","96.82","","","","","","NA"
"-91.91","50.11","SIOUX LOOKOUT A","6037776","2018-10-29 23:00","2018","10","29","23:00","3.6","","3.1","","96","","","","16","","6","","24.1","","96.77","","","","","","NA"
"-91.91","50.11","SIOUX LOOKOUT A","6037776","2018-10-30 00:00","2018","10","30","00:00","3.6","","3.1","","96","","","","16","","9","","24.1","","96.73","","","","","","Cloudy"
"-91.91","50.11","SIOUX LOOKOUT A","6037776","2018-10-30 01:00","2018","10","30","01:00","3.8","","2.6","","92","","","","15","","8","","24.1","","96.65","","","","","","NA"
"-91.91","50.11","SIOUX LOOKOUT A","6037776","2018-10-30 02:00","2018","10","30","02:00","3.7","","2.1","","89","","","","15","","10","","24.1","","96.56","","","","","","NA"
"-91.91","50.11","SIOUX LOOKOUT A","6037776","2018-10-30 03:00","2018","10","30","03:00","3.6","","2.2","","91","","","","15","","12","","19.3","","96.55","","","","","","Drizzle"
"-91.91","50.11","SIOUX LOOKOUT A","6037776","2018-10-30 04:00","2018","10","30","04:00","3.0","","2.4","","96","","","","17","","13","","24.1","","96.50","","","","","","Rain"
"-91.91","50.11","SIOUX LOOKOUT A","6037776","2018-10-30 05:00","2018","10","30","05:00","2.7","","2.0","","95","","","","16","","17","","8.1","","96.37","","","","","","Rain,Fog"
"-91.91","50.11","SIOUX LOOKOUT A","6037776","2018-10-30 06:00","2018","10","30","06:00","1.4","","1.1","","97","","","","17","","8","","9.7","","96.35","","","","","","Rain,Snow"
"-91.91","50.11","SIOUX LOOKOUT A","6037776","2018-10-30 07:00","2018","10","30","07:00","0.2","","0.1","","100","","","","36","","1","","3.2","","96.32","","","","","","Rain,Snow"
"-91.91","50.11","SIOUX LOOKOUT A","6037776","2018-10-30 08:00","2018","10","30","08:00","0.4","","0.4","","100","","","","13","","4","","3.2","","96.31","","","","","","Snow"
"-91.91","50.11","SIOUX LOOKOUT A","6037776","2018-10-30 09:00","2018","10","30","09:00","1.3","","1.3","","100","","","","16","","8","","9.7","","96.26","","","","","","Rain"
"-91.91","50.11","SIOUX LOOKOUT A","6037776","2018-10-30 10:00","2018","10","30","10:00","1.9","","1.7","","99","","","","18","","10","","19.3","","96.22","","","","","","Rain"
"-91.91","50.11","SIOUX LOOKOUT A","6037776","2018-10-30 11:00","2018","10","30","11:00","2.8","","2.0","","94","","","","22","","14","","24.1","","96.18","","","","","","Rain"
"-91.91","50.11","SIOUX LOOKOUT A","6037776","2018-10-30 12:00","2018","10","30","12:00","3.2","","2.3","","94","","","","22","","13","","24.1","","96.17","","","","","","Rain"
"-91.91","50.11","SIOUX LOOKOUT A","6037776","2018-10-30 13:00","2018","10","30","13:00","3.5","","2.6","","94","","","","23","","10","","24.1","","96.14","","","","","","NA"
"-91.91","50.11","SIOUX LOOKOUT A","6037776","2018-10-30 14:00","2018","10","30","14:00","3.9","","2.8","","93","","","","25","","11","","24.1","","96.11","","","","","","NA"
"-91.91","50.11","SIOUX LOOKOUT A","6037776","2018-10-30 15:00","2018","10","30","15:00","3.7","","2.8","","94","","","","24","","15","","24.1","","96.12","","","","","","Cloudy"
"-91.91","50.11","SIOUX LOOKOUT A","6037776","2018-10-30 16:00","2018","10","30","16:00","3.7","","3.1","","96","","","","25","","11","","24.1","","96.14","","","","","","Drizzle"
"-91.91","50.11","SIOUX LOOKOUT A","6037776","2018-10-30 17:00","2018","10","30","17:00","3.6","","2.9","","95","","","","22","","11","","24.1","","96.15","","","","","","NA"
"-91.91","50.11","SIOUX LOOKOUT A","6037776","2018-10-30 18:00","2018","10","30","18:00","3.5","","2.8","","95","","","","22","","8","","24.1","","96.14","","","","","","Cloudy"
"-91.91","50.11","SIOUX LOOKOUT A","6037776","2018-10-30 19:00","2018","10","30","19:00","3.6","","3.0","","96","","","","21","","9","","24.1","","96.08","","","","","","NA"
"-91.91","50.11","SIOUX LOOKOUT A","6037776","2018-10-30 20:00","2018","10","30","20:00","3.8","","3.0","","95","","","","19","","8","","24.1","","96.04","","","","","","NA"
"-91.91","50.11","SIOUX LOOKOUT A","6037776","2018-10-30 21:00","2018","10","30","21:00","3.9","","2.7","","92","","","","21","","11","","24.1","","95.99","","","","","","Cloudy"
"-91.91","50.11","SIOUX LOOKOUT A","6037776","2018-10-30 22:00","2018","10","30","22:00","3.6","","2.5","","93","","","","19","","8","","24.1","","95.93","","","","","","NA"
"-91.91","50.11","SIOUX LOOKOUT A","6037776","2018-10-30 23:00","2018","10","30","23:00","3.7","","2.8","","93","","","","22","","12","","24.1","","95.88","","","","","","Rain Showers"
"-91.91","50.11","SIOUX LOOKOUT A","6037776","2018-10-31 00:00","2018","10","31","00:00","3.4","","3.0","","97","","","","22","","7","","9.7","","95.85","","","","","","Rain Showers"
"-91.91","50.11","SIOUX LOOKOUT A","6037776","2018-10-31 01:00","2018","10","31","01:00","2.6","","2.1","","96","","","","30","","10","","16.1","","95.84","","","","","","Rain"
"-91.91","50.11","SIOUX LOOKOUT A","6037776","2018-10-31 02:00","2018","10","31","02:00","2.8","","1.4","","91","","","","26","","13","","24.1","","95.84","","","","","","Rain"
"-91.91","50.11","SIOUX LOOKOUT A","6037776","2018-10-31 03:00","2018","10","31","03:00","2.1","","0.6","","90","","","","27","","17","","24.1","","95.84","","","","","","Cloudy"
"-91.91","50.11","SIOUX LOOKOUT A","6037776","2018-10-31 04:00","2018","10","31","04:00","1.6","","0.1","","90","","","","27","","15","","24.1","","95.84","","","","","","NA"
"-91.91","50.11","SIOUX LOOKOUT A","6037776","2018-10-31 05:00","2018","10","31","05:00","1.2","","-0.1","","91","","","","27","","14","","24.1","","95.84","","","","","","Snow Showers"
"-91.91","50.11","SIOUX LOOKOUT A","6037776","2018-10-31 06:00","2018","10","31","06:00","1.1","","0.3","","95","","","","27","","16","","9.7","","95.85","","","","","","Snow Showers"
"-91.91","50.11","SIOUX LOOKOUT A","6037776","2018-10-31 07:00","2018","10","31","07:00","1.0","","0.1","","94","","","","27","","16","","24.1","","95.88","","","","","","NA"
"-91.91","50.11","SIOUX LOOKOUT A","6037776","2018-10-31 08:00","2018","10","31","08:00","1.1","","0.0","","93","","","","27","","15","","24.1","","95.90","","","","","","NA"
"-91.91","50.11","SIOUX LOOKOUT A","6037776","2018-10-31 09:00","2018","10","31","09:00","1.2","","0.3","","94","","","","26","","15","","16.1","","95.92","","","","","","Snow Showers"
"-91.91","50.11","SIOUX LOOKOUT A","6037776","2018-10-31 10:00","2018","10","31","10:00","1.5","","0.3","","91","","","","27","","16","","19.3","","95.95","","","","","","Drizzle,Snow Showers"
"-91.91","50.11","SIOUX LOOKOUT A","6037776","2018-10-31 11:00","2018","10","31","11:00","1.4","","-0.2","","89","","","","29","","18","","24.1","","95.99","","","","","","NA"
"-91.91","50.11","SIOUX LOOKOUT A","6037776","2018-10-31 12:00","2018","10","31","12:00","1.4","","0.2","","92","","","","30","","15","","4.8","","96.02","","","","","","Snow Showers"
"-91.91","50.11","SIOUX LOOKOUT A","6037776","2018-10-31 13:00","2018","10","31","13:00","1.4","","0.3","","92","","","","29","","16","","8.1","","96.06","","","","","","Drizzle,Snow Showers"
"-91.91","50.11","SIOUX LOOKOUT A","6037776","2018-10-31 14:00","2018","10","31","14:00","1.2","","-0.3","","90","","","","29","","23","","9.7","","96.09","","","","","","Snow Showers"
"-91.91","50.11","SIOUX LOOKOUT A","6037776","2018-10-31 15:00","2018","10","31","15:00","1.3","","-0.8","","86","","","","29","","16","","19.3","","96.15","","","","","","Snow Showers"
"-91.91","50.11","SIOUX LOOKOUT A","6037776","2018-10-31 16:00","2018","10","31","16:00","0.7","","-0.6","","91","","","","29","","22","","9.7","","96.21","","","","","","Snow Showers"
"-91.91","50.11","SIOUX LOOKOUT A","6037776","2018-10-31 17:00","2018","10","31","17:00","0.4","","-0.9","","90","","","","29","","18","","9.7","","96.28","","","","","","Snow Showers"
"-91.91","50.11","SIOUX LOOKOUT A","6037776","2018-10-31 18:00","2018","10","31","18:00","0.3","","-1.1","","90","","","","30","","22","","9.7","","96.34","","","","","","Snow Showers"
"-91.91","50.11","SIOUX LOOKOUT A","6037776","2018-10-31 19:00","2018","10","31","19:00","0.2","","-0.8","","93","","","","30","","14","","9.7","","96.40","","","","","","Snow Showers"
"-91.91","50.11","SIOUX LOOKOUT A","6037776","2018-10-31 20:00","2018","10","31","20:00","0.0","","-0.3","","98","","","","29","","13","","4.8","","96.44","","","","-4","","Snow Showers"
"-91.91","50.11","SIOUX LOOKOUT A","6037776","2018-10-31 21:00","2018","10","31","21:00","-0.1","","-0.3","","98","","","","32","","13","","4.8","","96.47","","","","-4","","Snow Showers"
"-91.91","50.11","SIOUX LOOKOUT A","6037776","2018-10-31 22:00","2018","10","31","22:00","-0.2","","-0.6","","98","","","","32","","12","","4.8","","96.50","","","","-4","","Snow Showers"
"-91.91","50.11","SIOUX LOOKOUT A","6037776","2018-10-31 23:00","2018","10","31","23:00","-0.2","","-0.4","","98","","","","28","","8","","4.0","","96.54","","","","-3","","Snow Showers"
