"Longitude (x)","Latitude (y)","Station Name","Climate ID","Date/Time (LST)","Year","Month","Day","Time (LST)","Temp (°C)","Temp Flag","Dew Point Temp (°C)","Dew Point Temp Flag","Rel Hum (%)","Rel Hum Flag","Precip. Amount (mm)","Precip. Amount Flag","Wind Dir (10s deg)","Wind Dir Flag","Wind Spd (km/h)","Wind Spd Flag","Visibility (km)","Visibility Flag","Stn Press (kPa)","Stn Press Flag","Hmdx","Hmdx Flag","Wind Chill","Wind Chill Flag","Weather"
"-63.55","44.59","HALIFAX KOOTENAY","8202252","2018-12-01 00:00","2018","12","01","00:00","0.4","","-3.3","","76","","","","34","","9","","","","100.83","","","","","","NA"
"-63.55","44.59","HALIFAX KOOTENAY","8202252","2018-12-01 01:00","2018","12","01","01:00","0.1","","-3.4","","77","","","","33","","10","","","","100.85","","","","","","NA"
"-63.55","44.59","HALIFAX KOOTENAY","8202252","2018-12-01 02:00","2018","12","01","02:00","-0.2","","-3.3","","80","","","","32","","11","","","","100.89","","","","-4","","NA"
"-63.55","44.59","HALIFAX KOOTENAY","8202252","2018-12-01 03:00","2018","12","01","03:00","-0.1","","-3.5","","78","","","","32","","7","","","","100.92","","","","-3","","NA"
"-63.55","44.59","HALIFAX KOOTENAY","8202252","2018-12-01 04:00","2018","12","01","04:00","-0.4","","-3.6","","79","","","","34","","9","","","","100.93","","","","-4","","NA"
"-63.55","44.59","HALIFAX KOOTENAY","8202252","2018-12-01 05:00","2018","12","01","05:00","-0.2","","-3.8","","76","","","","34","","10","","","","100.97","","","","-4","","NA"
"-63.55","44.59","HALIFAX KOOTENAY","8202252","2018-12-01 06:00","2018","12","01","06:00","-0.3","","-3.7","","78","","","","31","","8","","","","101.01","","","","-3","","NA"
"-63.55","44.59","HALIFAX KOOTENAY","8202252","2018-12-01 07:00","2018","12","01","07:00","-0.2","","-4.0","","76","","","","33","","9","","","","101.07","","","","-3","","NA"
"-63.55","44.59","HALIFAX KOOTENAY","8202252","2018-12-01 08:00","2018","12","01","08:00","0.2","","-4.4","","71","","","","35","","12","","","","101.12","","","","","","NA"
"-63.55","44.59","HALIFAX KOOTENAY","8202252","2018-12-01 09:00","2018","12","01","09:00","0.8","","-4.3","","69","","","","35","","12","","","","101.13","","","","","","NA"
"-63.55","44.59","HALIFAX KOOTENAY","8202252","2018-12-01 10:00","2018","12","01","10:00","1.5","","-4.2","","66","","","","36","","12","","","","101.19","","","","","","NA"
"-63.55","44.59","HALIFAX KOOTENAY","8202252","2018-12-01 11:00","2018","12","01","11:00","1.9","","-3.9","","65","","","","1","","12","","","","101.21","","","","","","NA"
"-63.55","44.59","HALIFAX KOOTENAY","8202252","2018-12-01 12:00","2018","12","01","12:00","1.7","","-4.2","","65","","","","34","","11","","","","101.19","","","","","","NA"
"-63.55","44.59","HALIFAX KOOTENAY","8202252","2018-12-01 13:00","2018","12","01","13:00","1.6","","-4.1","","66","","","","35","","11","","","","101.15","","","","","","NA"
"-63.55","44.59","HALIFAX KOOTENAY","8202252","2018-12-01 14:00","2018","12","01","14:00","1.3","","-4.0","","68","","","","36","","10","","","","101.17","","","","","","NA"
"-63.55","44.59","HALIFAX KOOTENAY","8202252","2018-12-01 15:00","2018","12","01","15:00","1.3","","-3.9","","69","","","","36","","6","","","","101.20","","","","","","NA"
"-63.55","44.59","HALIFAX KOOTENAY","8202252","2018-12-01 16:00","2018","12","01","16:00","1.0","","-3.6","","71","","","","35","","7","","","","101.29","","","","","","NA"
"-63.55","44.59","HALIFAX KOOTENAY","8202252","2018-12-01 17:00","2018","12","01","17:00","0.8","","-3.9","","71","","","","34","","8","","","","101.40","","","","","","NA"
"-63.55","44.59","HALIFAX KOOTENAY","8202252","2018-12-01 18:00","2018","12","01","18:00","0.8","","-4.2","","69","","","","30","","3","","","","101.47","","","","","","NA"
"-63.55","44.59","HALIFAX KOOTENAY","8202252","2018-12-01 19:00","2018","12","01","19:00","0.6","","-3.6","","74","","","","28","","5","","","","101.53","","","","","","NA"
"-63.55","44.59","HALIFAX KOOTENAY","8202252","2018-12-01 20:00","2018","12","01","20:00","0.5","","-3.9","","72","","","","28","","6","","","","101.56","","","","","","NA"
"-63.55","44.59","HALIFAX KOOTENAY","8202252","2018-12-01 21:00","2018","12","01","21:00","0.4","","-3.4","","76","","","","5","","9","","","","101.50","","","","","","NA"
"-63.55","44.59","HALIFAX KOOTENAY","8202252","2018-12-01 22:00","2018","12","01","22:00","0.3","","-4.1","","72","","","","32","","6","","","","101.62","","","","","","NA"
"-63.55","44.59","HALIFAX KOOTENAY","8202252","2018-12-01 23:00","2018","12","01","23:00","0.2","","-4.0","","74","","","","6","","4","","","","101.57","","","","","","NA"
"-63.55","44.59","HALIFAX KOOTENAY","8202252","2018-12-02 00:00","2018","12","02","00:00","0.2","","-4.2","","73","","","","36","","4","","","","101.63","","","","","","NA"
"-63.55","44.59","HALIFAX KOOTENAY","8202252","2018-12-02 01:00","2018","12","02","01:00","0.1","","-4.7","","70","","","","28","","4","","","","101.63","","","","","","NA"
"-63.55","44.59","HALIFAX KOOTENAY","8202252","2018-12-02 02:00","2018","12","02","02:00","-0.2","","-4.5","","73","","","","33","","5","","","","101.63","","","","-2","","NA"
"-63.55","44.59","HALIFAX KOOTENAY","8202252","2018-12-02 03:00","2018","12","02","03:00","-0.3","","-4.6","","73","","","","29","","3","","","","101.67","","","","-1","","NA"
"-63.55","44.59","HALIFAX KOOTENAY","8202252","2018-12-02 04:00","2018","12","02","04:00","-0.5","","-4.2","","76","","","","28","","4","","","","101.66","","","","-2","","NA"
"-63.55","44.59","HALIFAX KOOTENAY","8202252","2018-12-02 05:00","2018","12","02","05:00","-0.2","","-3.9","","76","","","","2","","2","","","","101.67","","","","-1","","NA"
"-63.55","44.59","HALIFAX KOOTENAY","8202252","2018-12-02 06:00","2018","12","02","06:00","-0.2","","-3.8","","77","","","","5","","4","","","","101.71","","","","-1","","NA"
"-63.55","44.59","HALIFAX KOOTENAY","8202252","2018-12-02 07:00","2018","12","02","07:00","-0.3","","-3.8","","77","","","","4","","4","","","","101.75","","","","-2","","NA"
"-63.55","44.59","HALIFAX KOOTENAY","8202252","2018-12-02 08:00","2018","12","02","08:00","-0.3","","-3.3","","81","","","","5","","8","","","","101.74","","","","-3","","NA"
"-63.55","44.59","HALIFAX KOOTENAY","8202252","2018-12-02 09:00","2018","12","02","09:00","0.6","","-2.8","","78","","","","7","","9","","","","101.79","","","","","","NA"
"-63.55","44.59","HALIFAX KOOTENAY","8202252","2018-12-02 10:00","2018","12","02","10:00","1.8","","-2.6","","72","","","","11","","9","","","","101.76","","","","","","NA"
"-63.55","44.59","HALIFAX KOOTENAY","8202252","2018-12-02 11:00","2018","12","02","11:00","1.6","","-2.2","","76","","","","13","","12","","","","101.73","","","","","","NA"
"-63.55","44.59","HALIFAX KOOTENAY","8202252","2018-12-02 12:00","2018","12","02","12:00","2.1","","-1.8","","76","","","","14","","15","","","","101.63","","","","","","NA"
"-63.55","44.59","HALIFAX KOOTENAY","8202252","2018-12-02 13:00","2018","12","02","13:00","2.1","","-0.9","","80","","","","13","","16","","","","101.56","","","","","","NA"
"-63.55","44.59","HALIFAX KOOTENAY","8202252","2018-12-02 14:00","2018","12","02","14:00","2.7","","-0.5","","79","","","","12","","18","","","","101.40","","","","","","NA"
"-63.55","44.59","HALIFAX KOOTENAY","8202252","2018-12-02 15:00","2018","12","02","15:00","2.9","","0.2","","83","","","","13","","17","","","","101.33","","","","","","NA"
"-63.55","44.59","HALIFAX KOOTENAY","8202252","2018-12-02 16:00","2018","12","02","16:00","3.0","","-0.2","","79","","","","15","","17","","","","101.26","","","","","","NA"
"-63.55","44.59","HALIFAX KOOTENAY","8202252","2018-12-02 17:00","2018","12","02","17:00","2.7","","0.5","","85","","","","14","","17","","","","101.14","","","","","","NA"
"-63.55","44.59","HALIFAX KOOTENAY","8202252","2018-12-02 18:00","2018","12","02","18:00","3.4","","2.0","","91","","","","14","","26","","","","101.00","","","","","","NA"
"-63.55","44.59","HALIFAX KOOTENAY","8202252","2018-12-02 19:00","2018","12","02","19:00","3.9","","2.9","","93","","","","13","","26","","","","100.87","","","","","","NA"
"-63.55","44.59","HALIFAX KOOTENAY","8202252","2018-12-02 20:00","2018","12","02","20:00","4.3","","3.7","","95","","","","13","","27","","","","100.79","","","","","","NA"
"-63.55","44.59","HALIFAX KOOTENAY","8202252","2018-12-02 21:00","2018","12","02","21:00","4.6","","4.1","","97","","","","13","","31","","","","100.52","","","","","","NA"
"-63.55","44.59","HALIFAX KOOTENAY","8202252","2018-12-02 22:00","2018","12","02","22:00","4.9","","4.5","","97","","","","13","","30","","","","100.32","","","","","","NA"
"-63.55","44.59","HALIFAX KOOTENAY","8202252","2018-12-02 23:00","2018","12","02","23:00","5.1","","4.7","","97","","","","12","","30","","","","100.08","","","","","","NA"
"-63.55","44.59","HALIFAX KOOTENAY","8202252","2018-12-03 00:00","2018","12","03","00:00","5.8","","5.4","","98","","","","12","","26","","","","99.83","","","","","","NA"
"-63.55","44.59","HALIFAX KOOTENAY","8202252","2018-12-03 01:00","2018","12","03","01:00","6.9","","6.6","","98","","","","12","","17","","","","99.55","","","","","","NA"
"-63.55","44.59","HALIFAX KOOTENAY","8202252","2018-12-03 02:00","2018","12","03","02:00","8.7","","8.4","","98","","","","20","","30","","","","99.33","","","","","","NA"
"-63.55","44.59","HALIFAX KOOTENAY","8202252","2018-12-03 03:00","2018","12","03","03:00","10.3","","10.0","","98","","","","23","","34","","","","99.15","","","","","","NA"
"-63.55","44.59","HALIFAX KOOTENAY","8202252","2018-12-03 04:00","2018","12","03","04:00","10.2","","9.8","","98","","","","24","","39","","","","99.02","","","","","","NA"
"-63.55","44.59","HALIFAX KOOTENAY","8202252","2018-12-03 05:00","2018","12","03","05:00","9.2","","8.9","","98","","","","24","","30","","","","98.93","","","","","","NA"
"-63.55","44.59","HALIFAX KOOTENAY","8202252","2018-12-03 06:00","2018","12","03","06:00","8.8","","8.6","","98","","","","25","","28","","","","98.91","","","","","","NA"
"-63.55","44.59","HALIFAX KOOTENAY","8202252","2018-12-03 07:00","2018","12","03","07:00","8.7","","8.4","","98","","","","24","","26","","","","98.88","","","","","","NA"
"-63.55","44.59","HALIFAX KOOTENAY","8202252","2018-12-03 08:00","2018","12","03","08:00","9.3","","9.0","","98","","","","25","","22","","","","98.91","","","","","","NA"
"-63.55","44.59","HALIFAX KOOTENAY","8202252","2018-12-03 09:00","2018","12","03","09:00","9.2","","8.9","","98","","","","29","","9","","","","98.93","","","","","","NA"
"-63.55","44.59","HALIFAX KOOTENAY","8202252","2018-12-03 10:00","2018","12","03","10:00","9.2","","8.9","","98","","","","27","","16","","","","98.97","","","","","","NA"
"-63.55","44.59","HALIFAX KOOTENAY","8202252","2018-12-03 11:00","2018","12","03","11:00","9.2","","8.8","","97","","","","28","","16","","","","98.97","","","","","","NA"
"-63.55","44.59","HALIFAX KOOTENAY","8202252","2018-12-03 12:00","2018","12","03","12:00","9.6","","8.4","","92","","","","28","","17","","","","98.88","","","","","","NA"
"-63.55","44.59","HALIFAX KOOTENAY","8202252","2018-12-03 13:00","2018","12","03","13:00","10.2","","8.5","","89","","","","30","","8","","","","98.81","","","","","","NA"
"-63.55","44.59","HALIFAX KOOTENAY","8202252","2018-12-03 14:00","2018","12","03","14:00","10.2","","8.0","","86","","","","25","","12","","","","98.80","","","","","","NA"
"-63.55","44.59","HALIFAX KOOTENAY","8202252","2018-12-03 15:00","2018","12","03","15:00","9.4","","7.6","","89","","","","27","","13","","","","98.78","","","","","","NA"
"-63.55","44.59","HALIFAX KOOTENAY","8202252","2018-12-03 16:00","2018","12","03","16:00","7.9","","6.9","","93","","","","22","","14","","","","98.74","","","","","","NA"
"-63.55","44.59","HALIFAX KOOTENAY","8202252","2018-12-03 17:00","2018","12","03","17:00","7.4","","6.8","","96","","","","22","","7","","","","98.73","","","","","","NA"
"-63.55","44.59","HALIFAX KOOTENAY","8202252","2018-12-03 18:00","2018","12","03","18:00","6.7","","6.2","","97","","","","24","","13","","","","98.70","","","","","","NA"
"-63.55","44.59","HALIFAX KOOTENAY","8202252","2018-12-03 19:00","2018","12","03","19:00","6.2","","5.8","","97","","","","23","","9","","","","98.62","","","","","","NA"
"-63.55","44.59","HALIFAX KOOTENAY","8202252","2018-12-03 20:00","2018","12","03","20:00","6.7","","6.4","","98","","","","24","","15","","","","98.54","","","","","","NA"
"-63.55","44.59","HALIFAX KOOTENAY","8202252","2018-12-03 21:00","2018","12","03","21:00","6.7","","6.3","","98","","","","24","","24","","","","98.50","","","","","","NA"
"-63.55","44.59","HALIFAX KOOTENAY","8202252","2018-12-03 22:00","2018","12","03","22:00","6.5","","6.2","","98","","","","24","","25","","","","98.46","","","","","","NA"
"-63.55","44.59","HALIFAX KOOTENAY","8202252","2018-12-03 23:00","2018","12","03","23:00","6.6","","5.8","","95","","","","26","","26","","","","98.45","","","","","","NA"
"-63.55","44.59","HALIFAX KOOTENAY","8202252","2018-12-04 00:00","2018","12","04","00:00","6.4","","4.5","","88","","","","28","","26","","","","98.51","","","","","","NA"
"-63.55","44.59","HALIFAX KOOTENAY","8202252","2018-12-04 01:00","2018","12","04","01:00","5.9","","4.0","","87","","","","27","","24","","","","98.56","","","","","","NA"
"-63.55","44.59","HALIFAX KOOTENAY","8202252","2018-12-04 02:00","2018","12","04","02:00","5.5","","3.4","","86","","","","28","","22","","","","98.65","","","","","","NA"
"-63.55","44.59","HALIFAX KOOTENAY","8202252","2018-12-04 03:00","2018","12","04","03:00","2.7","","1.4","","91","","","","33","","21","","","","98.78","","","","","","NA"
"-63.55","44.59","HALIFAX KOOTENAY","8202252","2018-12-04 04:00","2018","12","04","04:00","1.7","","-0.1","","88","","","","32","","12","","","","98.85","","","","","","NA"
"-63.55","44.59","HALIFAX KOOTENAY","8202252","2018-12-04 05:00","2018","12","04","05:00","1.4","","-0.8","","86","","","","33","","14","","","","98.90","","","","","","NA"
"-63.55","44.59","HALIFAX KOOTENAY","8202252","2018-12-04 06:00","2018","12","04","06:00","1.1","","-1.1","","85","","","","33","","14","","","","98.95","","","","","","NA"
"-63.55","44.59","HALIFAX KOOTENAY","8202252","2018-12-04 07:00","2018","12","04","07:00","0.0","","-1.2","","92","","","","34","","13","","","","99.04","","","","-4","","NA"
"-63.55","44.59","HALIFAX KOOTENAY","8202252","2018-12-04 08:00","2018","12","04","08:00","-0.1","","-2.0","","87","","","","34","","13","","","","99.09","","","","-4","","NA"
"-63.55","44.59","HALIFAX KOOTENAY","8202252","2018-12-04 09:00","2018","12","04","09:00","-0.5","","-2.3","","88","","","","36","","15","","","","99.16","","","","-5","","NA"
"-63.55","44.59","HALIFAX KOOTENAY","8202252","2018-12-04 10:00","2018","12","04","10:00","-0.6","","-1.9","","91","","","","34","","12","","","","99.26","","","","-5","","NA"
"-63.55","44.59","HALIFAX KOOTENAY","8202252","2018-12-04 11:00","2018","12","04","11:00","-1.1","","-3.2","","86","","","","33","","18","","","","99.30","","","","-6","","NA"
"-63.55","44.59","HALIFAX KOOTENAY","8202252","2018-12-04 12:00","2018","12","04","12:00","-1.1","","-3.7","","83","","","","32","","17","","","","99.29","","","","-6","","NA"
"-63.55","44.59","HALIFAX KOOTENAY","8202252","2018-12-04 13:00","2018","12","04","13:00","-1.2","","-3.6","","84","","","","32","","18","","","","99.29","","","","-6","","NA"
"-63.55","44.59","HALIFAX KOOTENAY","8202252","2018-12-04 14:00","2018","12","04","14:00","-1.6","","-5.4","","75","","","","31","","26","","","","99.32","","","","-8","","NA"
"-63.55","44.59","HALIFAX KOOTENAY","8202252","2018-12-04 15:00","2018","12","04","15:00","-1.6","","-5.1","","77","","","","30","","20","","","","99.38","","","","-7","","NA"
"-63.55","44.59","HALIFAX KOOTENAY","8202252","2018-12-04 16:00","2018","12","04","16:00","-1.6","","-5.2","","76","","","","30","","19","","","","99.44","","","","-7","","NA"
"-63.55","44.59","HALIFAX KOOTENAY","8202252","2018-12-04 17:00","2018","12","04","17:00","-1.7","","-5.2","","77","","","","30","","21","","","","99.51","","","","-8","","NA"
"-63.55","44.59","HALIFAX KOOTENAY","8202252","2018-12-04 18:00","2018","12","04","18:00","-1.9","","-5.7","","75","","","","31","","20","","","","99.59","","","","-8","","NA"
"-63.55","44.59","HALIFAX KOOTENAY","8202252","2018-12-04 19:00","2018","12","04","19:00","-2.0","","-6.8","","70","","","","30","","23","","","","99.69","","","","-8","","NA"
"-63.55","44.59","HALIFAX KOOTENAY","8202252","2018-12-04 20:00","2018","12","04","20:00","-2.7","","-7.3","","71","","","","31","","19","","","","99.79","","","","-8","","NA"
"-63.55","44.59","HALIFAX KOOTENAY","8202252","2018-12-04 21:00","2018","12","04","21:00","-3.3","","-6.7","","78","","","","32","","16","","","","99.88","","","","-9","","NA"
"-63.55","44.59","HALIFAX KOOTENAY","8202252","2018-12-04 22:00","2018","12","04","22:00","-3.6","","-6.4","","81","","","","32","","14","","","","99.92","","","","-9","","NA"
"-63.55","44.59","HALIFAX KOOTENAY","8202252","2018-12-04 23:00","2018","12","04","23:00","-3.9","","-7.9","","74","","","","31","","23","","","","99.98","","","","-11","","NA"
"-63.55","44.59","HALIFAX KOOTENAY","8202252","2018-12-05 00:00","2018","12","05","00:00","-4.3","","-8.4","","73","","","","30","","20","","","","100.04","","","","-11","","NA"
"-63.55","44.59","HALIFAX KOOTENAY","8202252","2018-12-05 01:00","2018","12","05","01:00","-4.5","","-8.7","","73","","","","31","","19","","","","100.11","","","","-11","","NA"
"-63.55","44.59","HALIFAX KOOTENAY","8202252","2018-12-05 02:00","2018","12","05","02:00","-4.6","","-8.6","","74","","","","29","","16","","","","100.17","","","","-10","","NA"
"-63.55","44.59","HALIFAX KOOTENAY","8202252","2018-12-05 03:00","2018","12","05","03:00","-4.7","","-8.3","","76","","","","29","","18","","","","100.25","","","","-11","","NA"
"-63.55","44.59","HALIFAX KOOTENAY","8202252","2018-12-05 04:00","2018","12","05","04:00","-5.2","","-7.5","","84","","","","30","","14","","","","100.32","","","","-11","","NA"
"-63.55","44.59","HALIFAX KOOTENAY","8202252","2018-12-05 05:00","2018","12","05","05:00","-5.5","","-9.1","","75","","","","31","","20","","","","100.40","","","","-12","","NA"
"-63.55","44.59","HALIFAX KOOTENAY","8202252","2018-12-05 06:00","2018","12","05","06:00","-5.6","","-9.4","","75","","","","32","","19","","","","100.49","","","","-12","","NA"
"-63.55","44.59","HALIFAX KOOTENAY","8202252","2018-12-05 07:00","2018","12","05","07:00","-6.2","","-9.8","","76","","","","30","","16","","","","100.59","","","","-12","","NA"
"-63.55","44.59","HALIFAX KOOTENAY","8202252","2018-12-05 08:00","2018","12","05","08:00","-6.3","","-9.5","","78","","","","31","","12","","","","100.67","","","","-11","","NA"
"-63.55","44.59","HALIFAX KOOTENAY","8202252","2018-12-05 09:00","2018","12","05","09:00","-5.4","","-9.5","","73","","","","30","","19","","","","100.73","","","","-12","","NA"
"-63.55","44.59","HALIFAX KOOTENAY","8202252","2018-12-05 10:00","2018","12","05","10:00","-4.4","","-9.3","","69","","","","30","","16","","","","100.81","","","","-10","","NA"
"-63.55","44.59","HALIFAX KOOTENAY","8202252","2018-12-05 11:00","2018","12","05","11:00","-3.5","","-9.3","","64","","","","30","","14","","","","100.84","","","","-9","","NA"
"-63.55","44.59","HALIFAX KOOTENAY","8202252","2018-12-05 12:00","2018","12","05","12:00","-2.9","","-9.2","","62","","","","31","","10","","","","100.78","","","","-7","","NA"
"-63.55","44.59","HALIFAX KOOTENAY","8202252","2018-12-05 13:00","2018","12","05","13:00","-2.5","","-9.3","","60","","","","34","","8","","","","100.79","","","","-6","","NA"
"-63.55","44.59","HALIFAX KOOTENAY","8202252","2018-12-05 14:00","2018","12","05","14:00","-2.5","","-9.3","","60","","","","31","","7","","","","100.84","","","","-5","","NA"
"-63.55","44.59","HALIFAX KOOTENAY","8202252","2018-12-05 15:00","2018","12","05","15:00","-1.7","","-9.4","","56","","","","32","","4","","","","100.89","","","","-3","","NA"
"-63.55","44.59","HALIFAX KOOTENAY","8202252","2018-12-05 16:00","2018","12","05","16:00","-2.1","","-9.4","","57","","","","35","","6","","","","100.91","","","","-4","","NA"
"-63.55","44.59","HALIFAX KOOTENAY","8202252","2018-12-05 17:00","2018","12","05","17:00","-3.3","","-9.4","","63","","","","29","","4","","","","100.94","","","","-5","","NA"
"-63.55","44.59","HALIFAX KOOTENAY","8202252","2018-12-05 18:00","2018","12","05","18:00","-4.3","","-9.0","","70","","","","27","","6","","","","101.01","","","","-7","","NA"
"-63.55","44.59","HALIFAX KOOTENAY","8202252","2018-12-05 19:00","2018","12","05","19:00","-3.9","","-8.4","","71","","","","2","","5","","","","101.01","","","","-6","","NA"
"-63.55","44.59","HALIFAX KOOTENAY","8202252","2018-12-05 20:00","2018","12","05","20:00","-4.2","","-8.3","","73","","","","3","","4","","","","101.08","","","","-6","","NA"
"-63.55","44.59","HALIFAX KOOTENAY","8202252","2018-12-05 21:00","2018","12","05","21:00","-4.7","","-7.9","","78","","","","4","","9","","","","101.04","","","","-9","","NA"
"-63.55","44.59","HALIFAX KOOTENAY","8202252","2018-12-05 22:00","2018","12","05","22:00","-5.2","","-8.1","","80","","","","5","","16","","","","100.87","","","","-11","","NA"
"-63.55","44.59","HALIFAX KOOTENAY","8202252","2018-12-05 23:00","2018","12","05","23:00","-5.4","","-8.0","","81","","","","5","","12","","","","100.91","","","","-10","","NA"
"-63.55","44.59","HALIFAX KOOTENAY","8202252","2018-12-06 00:00","2018","12","06","00:00","-5.1","","-7.8","","81","","","","6","","9","","","","100.95","","","","-9","","NA"
"-63.55","44.59","HALIFAX KOOTENAY","8202252","2018-12-06 01:00","2018","12","06","01:00","-4.9","","-7.8","","81","","","","2","","6","","","","100.95","","","","-8","","NA"
"-63.55","44.59","HALIFAX KOOTENAY","8202252","2018-12-06 02:00","2018","12","06","02:00","-5.2","","-8.4","","78","","","","2","","9","","","","100.84","","","","-9","","NA"
"-63.55","44.59","HALIFAX KOOTENAY","8202252","2018-12-06 03:00","2018","12","06","03:00","-4.9","","-8.4","","77","","","","1","","8","","","","100.81","","","","-8","","NA"
"-63.55","44.59","HALIFAX KOOTENAY","8202252","2018-12-06 04:00","2018","12","06","04:00","-4.5","","-8.0","","77","","","","35","","13","","","","100.74","","","","-10","","NA"
"-63.55","44.59","HALIFAX KOOTENAY","8202252","2018-12-06 05:00","2018","12","06","05:00","-4.6","","-7.7","","78","","","","36","","14","","","","100.69","","","","-10","","NA"
"-63.55","44.59","HALIFAX KOOTENAY","8202252","2018-12-06 06:00","2018","12","06","06:00","-4.5","","-7.4","","80","","","","36","","13","","","","100.67","","","","-10","","NA"
"-63.55","44.59","HALIFAX KOOTENAY","8202252","2018-12-06 07:00","2018","12","06","07:00","-4.2","","-7.0","","81","","","","36","","12","","","","100.63","","","","-9","","NA"
"-63.55","44.59","HALIFAX KOOTENAY","8202252","2018-12-06 08:00","2018","12","06","08:00","-4.6","","-7.3","","82","","","","35","","17","","","","100.61","","","","-10","","NA"
"-63.55","44.59","HALIFAX KOOTENAY","8202252","2018-12-06 09:00","2018","12","06","09:00","-4.3","","-7.2","","80","","","","1","","13","","","","100.60","","","","-9","","NA"
"-63.55","44.59","HALIFAX KOOTENAY","8202252","2018-12-06 10:00","2018","12","06","10:00","-4.1","","-7.6","","77","","","","2","","11","","","","100.60","","","","-9","","NA"
"-63.55","44.59","HALIFAX KOOTENAY","8202252","2018-12-06 11:00","2018","12","06","11:00","-3.5","","-7.4","","75","","","","3","","10","","","","100.58","","","","-7","","NA"
"-63.55","44.59","HALIFAX KOOTENAY","8202252","2018-12-06 12:00","2018","12","06","12:00","-3.0","","-7.5","","71","","","","1","","9","","","","100.54","","","","-7","","NA"
"-63.55","44.59","HALIFAX KOOTENAY","8202252","2018-12-06 13:00","2018","12","06","13:00","-2.6","","-7.5","","69","","","","33","","11","","","","100.55","","","","-7","","NA"
"-63.55","44.59","HALIFAX KOOTENAY","8202252","2018-12-06 14:00","2018","12","06","14:00","-2.7","","-7.6","","69","","","","31","","13","","","","100.55","","","","-7","","NA"
"-63.55","44.59","HALIFAX KOOTENAY","8202252","2018-12-06 15:00","2018","12","06","15:00","-2.5","","-7.5","","68","","","","31","","11","","","","100.59","","","","-7","","NA"
"-63.55","44.59","HALIFAX KOOTENAY","8202252","2018-12-06 16:00","2018","12","06","16:00","-1.9","","-7.4","","66","","","","29","","11","","","","100.61","","","","-6","","NA"
"-63.55","44.59","HALIFAX KOOTENAY","8202252","2018-12-06 17:00","2018","12","06","17:00","-3.7","","-8.0","","72","","","","28","","10","","","","100.66","","","","-8","","NA"
"-63.55","44.59","HALIFAX KOOTENAY","8202252","2018-12-06 18:00","2018","12","06","18:00","-4.3","","-7.8","","76","","","","27","","7","","","","100.65","","","","-7","","NA"
"-63.55","44.59","HALIFAX KOOTENAY","8202252","2018-12-06 19:00","2018","12","06","19:00","-5.0","","-7.7","","81","","","","26","","8","","","","100.67","","","","-9","","NA"
"-63.55","44.59","HALIFAX KOOTENAY","8202252","2018-12-06 20:00","2018","12","06","20:00","-4.1","","-7.0","","80","","","","28","","16","","","","100.72","","","","-10","","NA"
"-63.55","44.59","HALIFAX KOOTENAY","8202252","2018-12-06 21:00","2018","12","06","21:00","-3.8","","-7.6","","75","","","","25","","9","","","","100.72","","","","-8","","NA"
"-63.55","44.59","HALIFAX KOOTENAY","8202252","2018-12-06 22:00","2018","12","06","22:00","-4.6","","-7.8","","79","","","","27","","12","","","","100.72","","","","-9","","NA"
"-63.55","44.59","HALIFAX KOOTENAY","8202252","2018-12-06 23:00","2018","12","06","23:00","-4.4","","-6.8","","84","","","","28","","11","","","","100.76","","","","-9","","NA"
"-63.55","44.59","HALIFAX KOOTENAY","8202252","2018-12-07 00:00","2018","12","07","00:00","-5.0","","-6.7","","88","","","","26","","12","","","","100.81","","","","-10","","NA"
"-63.55","44.59","HALIFAX KOOTENAY","8202252","2018-12-07 01:00","2018","12","07","01:00","-5.1","","-6.5","","90","","","","28","","11","","","","100.83","","","","-10","","NA"
"-63.55","44.59","HALIFAX KOOTENAY","8202252","2018-12-07 02:00","2018","12","07","02:00","-5.5","","-6.6","","92","","","","26","","9","","","","100.90","","","","-10","","NA"
"-63.55","44.59","HALIFAX KOOTENAY","8202252","2018-12-07 03:00","2018","12","07","03:00","-5.5","","-6.5","","93","","","","27","","10","","","","100.96","","","","-10","","NA"
"-63.55","44.59","HALIFAX KOOTENAY","8202252","2018-12-07 04:00","2018","12","07","04:00","-5.4","","-6.3","","93","","","","27","","13","","","","100.97","","","","-11","","NA"
"-63.55","44.59","HALIFAX KOOTENAY","8202252","2018-12-07 05:00","2018","12","07","05:00","-5.2","","-6.1","","94","","","","28","","11","","","","101.00","","","","-10","","NA"
"-63.55","44.59","HALIFAX KOOTENAY","8202252","2018-12-07 06:00","2018","12","07","06:00","-4.0","","-5.1","","92","","","","26","","14","","","","101.07","","","","-9","","NA"
"-63.55","44.59","HALIFAX KOOTENAY","8202252","2018-12-07 07:00","2018","12","07","07:00","-3.7","","-4.6","","93","","","","26","","12","","","","101.13","","","","-8","","NA"
"-63.55","44.59","HALIFAX KOOTENAY","8202252","2018-12-07 08:00","2018","12","07","08:00","-3.2","","-4.1","","93","","","","28","","9","","","","101.16","","","","-7","","NA"
"-63.55","44.59","HALIFAX KOOTENAY","8202252","2018-12-07 09:00","2018","12","07","09:00","-2.2","","-3.8","","89","","","","25","","10","","","","101.15","","","","-6","","NA"
"-63.55","44.59","HALIFAX KOOTENAY","8202252","2018-12-07 10:00","2018","12","07","10:00","-0.1","","-2.6","","84","","","","26","","4","","","","101.19","","","","-1","","NA"
"-63.55","44.59","HALIFAX KOOTENAY","8202252","2018-12-07 11:00","2018","12","07","11:00","2.1","","-1.7","","76","","","","16","","5","","","","101.16","","","","","","NA"
"-63.55","44.59","HALIFAX KOOTENAY","8202252","2018-12-07 12:00","2018","12","07","12:00","2.4","","-3.0","","67","","","","21","","14","","","","101.08","","","","","","NA"
"-63.55","44.59","HALIFAX KOOTENAY","8202252","2018-12-07 13:00","2018","12","07","13:00","2.6","","-2.6","","69","","","","20","","14","","","","101.05","","","","","","NA"
"-63.55","44.59","HALIFAX KOOTENAY","8202252","2018-12-07 14:00","2018","12","07","14:00","2.2","","-2.3","","72","","","","18","","16","","","","101.00","","","","","","NA"
"-63.55","44.59","HALIFAX KOOTENAY","8202252","2018-12-07 15:00","2018","12","07","15:00","2.1","","-1.1","","80","","","","16","","17","","","","100.95","","","","","","NA"
"-63.55","44.59","HALIFAX KOOTENAY","8202252","2018-12-07 16:00","2018","12","07","16:00","0.6","","-0.3","","94","","","","18","","15","","","","100.93","","","","","","NA"
"-63.55","44.59","HALIFAX KOOTENAY","8202252","2018-12-07 17:00","2018","12","07","17:00","0.0","","-0.5","","97","","","","17","","11","","","","100.88","","","","-4","","NA"
"-63.55","44.59","HALIFAX KOOTENAY","8202252","2018-12-07 18:00","2018","12","07","18:00","0.0","","-0.4","","98","","","","27","","7","","","","100.88","","","","-2","","NA"
"-63.55","44.59","HALIFAX KOOTENAY","8202252","2018-12-07 19:00","2018","12","07","19:00","-0.1","","-0.4","","98","","","","27","","12","","","","100.90","","","","-4","","NA"
"-63.55","44.59","HALIFAX KOOTENAY","8202252","2018-12-07 20:00","2018","12","07","20:00","-0.2","","-0.6","","98","","","","31","","16","","","","100.97","","","","-5","","NA"
"-63.55","44.59","HALIFAX KOOTENAY","8202252","2018-12-07 21:00","2018","12","07","21:00","-0.8","","-1.6","","94","","","","30","","22","","","","101.00","","","","-7","","NA"
"-63.55","44.59","HALIFAX KOOTENAY","8202252","2018-12-07 22:00","2018","12","07","22:00","-1.3","","-2.6","","91","","","","32","","18","","","","101.01","","","","-7","","NA"
"-63.55","44.59","HALIFAX KOOTENAY","8202252","2018-12-07 23:00","2018","12","07","23:00","-2.2","","-3.4","","91","","","","32","","15","","","","101.05","","","","-7","","NA"
"-63.55","44.59","HALIFAX KOOTENAY","8202252","2018-12-08 00:00","2018","12","08","00:00","-2.6","","-3.6","","93","","","","31","","13","","","","101.07","","","","-7","","NA"
"-63.55","44.59","HALIFAX KOOTENAY","8202252","2018-12-08 01:00","2018","12","08","01:00","-3.1","","-4.0","","94","","","","31","","11","","","","101.11","","","","-7","","NA"
"-63.55","44.59","HALIFAX KOOTENAY","8202252","2018-12-08 02:00","2018","12","08","02:00","-3.5","","-4.3","","95","","","","29","","10","","","","101.15","","","","-7","","NA"
"-63.55","44.59","HALIFAX KOOTENAY","8202252","2018-12-08 03:00","2018","12","08","03:00","-3.9","","-4.7","","94","","","","29","","11","","","","101.18","","","","-8","","NA"
"-63.55","44.59","HALIFAX KOOTENAY","8202252","2018-12-08 04:00","2018","12","08","04:00","-3.8","","-4.7","","93","","","","31","","14","","","","101.18","","","","-9","","NA"
"-63.55","44.59","HALIFAX KOOTENAY","8202252","2018-12-08 05:00","2018","12","08","05:00","-4.0","","-4.9","","94","","","","32","","13","","","","101.17","","","","-9","","NA"
"-63.55","44.59","HALIFAX KOOTENAY","8202252","2018-12-08 06:00","2018","12","08","06:00","-4.1","","-5.9","","87","","","","34","","16","","","","101.22","","","","-10","","NA"
"-63.55","44.59","HALIFAX KOOTENAY","8202252","2018-12-08 07:00","2018","12","08","07:00","-5.1","","-6.8","","88","","","","34","","17","","","","101.26","","","","-11","","NA"
"-63.55","44.59","HALIFAX KOOTENAY","8202252","2018-12-08 08:00","2018","12","08","08:00","-6.2","","-8.1","","87","","","","32","","17","","","","101.35","","","","-12","","NA"
"-63.55","44.59","HALIFAX KOOTENAY","8202252","2018-12-08 09:00","2018","12","08","09:00","-6.3","","-8.7","","83","","","","34","","18","","","","101.38","","","","-13","","NA"
"-63.55","44.59","HALIFAX KOOTENAY","8202252","2018-12-08 10:00","2018","12","08","10:00","-5.6","","-8.5","","80","","","","32","","15","","","","101.39","","","","-11","","NA"
"-63.55","44.59","HALIFAX KOOTENAY","8202252","2018-12-08 11:00","2018","12","08","11:00","-6.4","","-9.7","","77","","","","31","","19","","","","101.41","","","","-13","","NA"
"-63.55","44.59","HALIFAX KOOTENAY","8202252","2018-12-08 12:00","2018","12","08","12:00","-5.5","","-9.2","","76","","","","31","","12","","","","101.36","","","","-10","","NA"
"-63.55","44.59","HALIFAX KOOTENAY","8202252","2018-12-08 13:00","2018","12","08","13:00","-5.7","","-9.2","","77","","","","29","","19","","","","101.36","","","","-12","","NA"
"-63.55","44.59","HALIFAX KOOTENAY","8202252","2018-12-08 14:00","2018","12","08","14:00","-6.3","","-9.8","","76","","","","31","","17","","","","101.33","","","","-13","","NA"
"-63.55","44.59","HALIFAX KOOTENAY","8202252","2018-12-08 15:00","2018","12","08","15:00","-6.2","","-9.9","","75","","","","31","","19","","","","101.32","","","","-13","","NA"
"-63.55","44.59","HALIFAX KOOTENAY","8202252","2018-12-08 16:00","2018","12","08","16:00","-8.0","","-11.3","","77","","","","30","","16","","","","101.31","","","","-15","","NA"
"-63.55","44.59","HALIFAX KOOTENAY","8202252","2018-12-08 17:00","2018","12","08","17:00","-8.6","","-11.9","","77","","","","31","","19","","","","101.33","","","","-16","","NA"
"-63.55","44.59","HALIFAX KOOTENAY","8202252","2018-12-08 18:00","2018","12","08","18:00","-9.7","","-12.1","","83","","","","28","","11","","","","101.37","","","","-15","","NA"
"-63.55","44.59","HALIFAX KOOTENAY","8202252","2018-12-08 19:00","2018","12","08","19:00","-10.4","","-12.4","","85","","","","27","","14","","","","101.38","","","","-17","","NA"
"-63.55","44.59","HALIFAX KOOTENAY","8202252","2018-12-08 20:00","2018","12","08","20:00","-10.2","","-12.2","","85","","","","28","","12","","","","101.41","","","","-16","","NA"
"-63.55","44.59","HALIFAX KOOTENAY","8202252","2018-12-08 21:00","2018","12","08","21:00","-10.0","","-12.0","","85","","","","29","","11","","","","101.44","","","","-16","","NA"
"-63.55","44.59","HALIFAX KOOTENAY","8202252","2018-12-08 22:00","2018","12","08","22:00","-10.2","","-13.0","","80","","","","29","","16","","","","101.44","","","","-17","","NA"
"-63.55","44.59","HALIFAX KOOTENAY","8202252","2018-12-08 23:00","2018","12","08","23:00","-10.7","","-13.8","","78","","","","30","","16","","","","101.48","","","","-18","","NA"
"-63.55","44.59","HALIFAX KOOTENAY","8202252","2018-12-09 00:00","2018","12","09","00:00","-11.0","","-14.2","","77","","","","30","","17","","","","101.44","","","","-18","","NA"
"-63.55","44.59","HALIFAX KOOTENAY","8202252","2018-12-09 01:00","2018","12","09","01:00","-11.6","","-14.5","","79","","","","30","","16","","","","101.41","","","","-19","","NA"
"-63.55","44.59","HALIFAX KOOTENAY","8202252","2018-12-09 02:00","2018","12","09","02:00","-12.1","","-14.7","","81","","","","29","","21","","","","101.44","","","","-21","","NA"
"-63.55","44.59","HALIFAX KOOTENAY","8202252","2018-12-09 03:00","2018","12","09","03:00","-12.6","","-15.0","","82","","","","28","","13","","","","101.49","","","","-19","","NA"
"-63.55","44.59","HALIFAX KOOTENAY","8202252","2018-12-09 04:00","2018","12","09","04:00","-12.5","","-14.8","","82","","","","29","","20","","","","101.47","","","","-21","","NA"
"-63.55","44.59","HALIFAX KOOTENAY","8202252","2018-12-09 05:00","2018","12","09","05:00","-12.8","","-14.7","","86","","","","29","","12","","","","101.50","","","","-19","","NA"
"-63.55","44.59","HALIFAX KOOTENAY","8202252","2018-12-09 06:00","2018","12","09","06:00","-13.2","","-15.0","","86","","","","28","","10","","","","101.54","","","","-19","","NA"
"-63.55","44.59","HALIFAX KOOTENAY","8202252","2018-12-09 07:00","2018","12","09","07:00","-12.7","","-14.7","","85","","","","28","","12","","","","101.55","","","","-19","","NA"
"-63.55","44.59","HALIFAX KOOTENAY","8202252","2018-12-09 08:00","2018","12","09","08:00","-12.6","","-14.8","","83","","","","28","","12","","","","101.58","","","","-19","","NA"
"-63.55","44.59","HALIFAX KOOTENAY","8202252","2018-12-09 09:00","2018","12","09","09:00","-11.0","","-13.9","","79","","","","29","","22","","","","101.57","","","","-20","","NA"
"-63.55","44.59","HALIFAX KOOTENAY","8202252","2018-12-09 10:00","2018","12","09","10:00","-9.2","","-12.9","","75","","","","28","","14","","","","101.63","","","","-16","","NA"
"-63.55","44.59","HALIFAX KOOTENAY","8202252","2018-12-09 11:00","2018","12","09","11:00","-8.0","","-12.6","","69","","","","29","","21","","","","101.62","","","","-16","","NA"
"-63.55","44.59","HALIFAX KOOTENAY","8202252","2018-12-09 12:00","2018","12","09","12:00","-6.7","","-11.7","","67","","","","28","","22","","","","101.53","","","","-14","","NA"
"-63.55","44.59","HALIFAX KOOTENAY","8202252","2018-12-09 13:00","2018","12","09","13:00","-6.0","","-11.3","","66","","","","27","","23","","","","101.48","","","","-13","","NA"
"-63.55","44.59","HALIFAX KOOTENAY","8202252","2018-12-09 14:00","2018","12","09","14:00","-5.7","","-11.0","","66","","","","28","","21","","","","101.46","","","","-13","","NA"
"-63.55","44.59","HALIFAX KOOTENAY","8202252","2018-12-09 15:00","2018","12","09","15:00","-5.8","","-10.7","","68","","","","26","","22","","","","101.45","","","","-13","","NA"
"-63.55","44.59","HALIFAX KOOTENAY","8202252","2018-12-09 16:00","2018","12","09","16:00","-6.0","","-10.4","","71","","","","27","","19","","","","101.45","","","","-13","","NA"
"-63.55","44.59","HALIFAX KOOTENAY","8202252","2018-12-09 17:00","2018","12","09","17:00","-7.5","","-10.8","","77","","","","26","","18","","","","101.43","","","","-14","","NA"
"-63.55","44.59","HALIFAX KOOTENAY","8202252","2018-12-09 18:00","2018","12","09","18:00","-7.9","","-10.7","","81","","","","27","","19","","","","101.42","","","","-15","","NA"
"-63.55","44.59","HALIFAX KOOTENAY","8202252","2018-12-09 19:00","2018","12","09","19:00","-8.3","","-10.8","","82","","","","27","","12","","","","101.37","","","","-14","","NA"
"-63.55","44.59","HALIFAX KOOTENAY","8202252","2018-12-09 20:00","2018","12","09","20:00","-8.8","","-10.8","","85","","","","26","","11","","","","101.32","","","","-14","","NA"
"-63.55","44.59","HALIFAX KOOTENAY","8202252","2018-12-09 21:00","2018","12","09","21:00","-7.8","","-9.7","","86","","","","25","","15","","","","101.24","","","","-14","","NA"
"-63.55","44.59","HALIFAX KOOTENAY","8202252","2018-12-09 22:00","2018","12","09","22:00","-7.4","","-9.0","","88","","","","27","","13","","","","101.17","","","","-13","","NA"
"-63.55","44.59","HALIFAX KOOTENAY","8202252","2018-12-09 23:00","2018","12","09","23:00","-5.7","","-7.5","","87","","","","26","","17","","","","101.11","","","","-12","","NA"
"-63.55","44.59","HALIFAX KOOTENAY","8202252","2018-12-10 00:00","2018","12","10","00:00","-4.6","","-6.1","","89","","","","25","","15","","","","101.00","","","","-10","","NA"
"-63.55","44.59","HALIFAX KOOTENAY","8202252","2018-12-10 01:00","2018","12","10","01:00","-2.8","","-4.2","","90","","","","25","","14","","","","100.93","","","","-8","","NA"
"-63.55","44.59","HALIFAX KOOTENAY","8202252","2018-12-10 02:00","2018","12","10","02:00","-3.3","","-4.0","","95","","","","28","","7","","","","100.84","","","","-6","","NA"
"-63.55","44.59","HALIFAX KOOTENAY","8202252","2018-12-10 03:00","2018","12","10","03:00","-3.2","","-3.7","","96","","","","29","","4","","","","100.81","","","","-5","","NA"
"-63.55","44.59","HALIFAX KOOTENAY","8202252","2018-12-10 04:00","2018","12","10","04:00","-2.7","","-3.2","","96","","","","26","","15","","","","100.69","","","","-8","","NA"
"-63.55","44.59","HALIFAX KOOTENAY","8202252","2018-12-10 05:00","2018","12","10","05:00","-2.7","","-3.3","","96","","","","27","","9","","","","100.64","","","","-6","","NA"
"-63.55","44.59","HALIFAX KOOTENAY","8202252","2018-12-10 06:00","2018","12","10","06:00","-3.1","","-3.8","","95","","","","29","","12","","","","100.64","","","","-8","","NA"
"-63.55","44.59","HALIFAX KOOTENAY","8202252","2018-12-10 07:00","2018","12","10","07:00","-4.5","","-5.2","","95","","","","28","","13","","","","100.64","","","","-10","","NA"
"-63.55","44.59","HALIFAX KOOTENAY","8202252","2018-12-10 08:00","2018","12","10","08:00","-5.4","","-6.0","","95","","","","28","","10","","","","100.60","","","","-10","","NA"
"-63.55","44.59","HALIFAX KOOTENAY","8202252","2018-12-10 09:00","2018","12","10","09:00","-3.7","","-4.9","","91","","","","29","","12","","","","100.61","","","","-8","","NA"
"-63.55","44.59","HALIFAX KOOTENAY","8202252","2018-12-10 10:00","2018","12","10","10:00","-2.1","","-4.1","","87","","","","30","","11","","","","100.62","","","","-6","","NA"
"-63.55","44.59","HALIFAX KOOTENAY","8202252","2018-12-10 11:00","2018","12","10","11:00","-1.3","","-4.3","","80","","","","33","","10","","","","100.59","","","","-5","","NA"
"-63.55","44.59","HALIFAX KOOTENAY","8202252","2018-12-10 12:00","2018","12","10","12:00","-1.5","","-4.9","","78","","","","32","","9","","","","100.54","","","","-5","","NA"
"-63.55","44.59","HALIFAX KOOTENAY","8202252","2018-12-10 13:00","2018","12","10","13:00","-0.9","","-6.3","","67","","","","30","","11","","","","100.49","","","","-5","","NA"
"-63.55","44.59","HALIFAX KOOTENAY","8202252","2018-12-10 14:00","2018","12","10","14:00","-2.7","","-5.9","","78","","","","34","","13","","","","100.48","","","","-7","","NA"
"-63.55","44.59","HALIFAX KOOTENAY","8202252","2018-12-10 15:00","2018","12","10","15:00","-3.0","","-7.7","","70","","","","32","","17","","","","100.48","","","","-9","","NA"
"-63.55","44.59","HALIFAX KOOTENAY","8202252","2018-12-10 16:00","2018","12","10","16:00","-3.7","","-8.5","","69","","","","31","","13","","","","100.55","","","","-9","","NA"
"-63.55","44.59","HALIFAX KOOTENAY","8202252","2018-12-10 17:00","2018","12","10","17:00","-5.5","","-9.8","","72","","","","31","","11","","","","100.59","","","","-10","","NA"
"-63.55","44.59","HALIFAX KOOTENAY","8202252","2018-12-10 18:00","2018","12","10","18:00","-6.9","","-10.5","","75","","","","30","","11","","","","100.65","","","","-12","","NA"
"-63.55","44.59","HALIFAX KOOTENAY","8202252","2018-12-10 19:00","2018","12","10","19:00","-7.9","","-10.7","","80","","","","28","","12","","","","100.69","","","","-13","","NA"
"-63.55","44.59","HALIFAX KOOTENAY","8202252","2018-12-10 20:00","2018","12","10","20:00","-7.6","","-11.3","","75","","","","30","","18","","","","100.74","","","","-14","","NA"
"-63.55","44.59","HALIFAX KOOTENAY","8202252","2018-12-10 21:00","2018","12","10","21:00","-8.2","","-12.1","","74","","","","30","","18","","","","100.77","","","","-15","","NA"
"-63.55","44.59","HALIFAX KOOTENAY","8202252","2018-12-10 22:00","2018","12","10","22:00","-8.9","","-12.6","","75","","","","31","","16","","","","100.78","","","","-16","","NA"
"-63.55","44.59","HALIFAX KOOTENAY","8202252","2018-12-10 23:00","2018","12","10","23:00","-8.3","","-11.7","","77","","","","31","","14","","","","100.81","","","","-14","","NA"
"-63.55","44.59","HALIFAX KOOTENAY","8202252","2018-12-11 00:00","2018","12","11","00:00","-10.0","","-12.3","","84","","","","30","","14","","","","100.84","","","","-16","","NA"
"-63.55","44.59","HALIFAX KOOTENAY","8202252","2018-12-11 01:00","2018","12","11","01:00","-10.6","","-12.7","","84","","","","30","","16","","","","100.86","","","","-18","","NA"
"-63.55","44.59","HALIFAX KOOTENAY","8202252","2018-12-11 02:00","2018","12","11","02:00","-11.2","","-13.2","","85","","","","28","","9","","","","100.90","","","","-16","","NA"
"-63.55","44.59","HALIFAX KOOTENAY","8202252","2018-12-11 03:00","2018","12","11","03:00","-12.1","","-13.9","","87","","","","24","","9","","","","101.05","","","","-17","","NA"
"-63.55","44.59","HALIFAX KOOTENAY","8202252","2018-12-11 04:00","2018","12","11","04:00","-13.1","","-14.5","","89","","","","26","","10","","","","101.08","","","","-19","","NA"
"-63.55","44.59","HALIFAX KOOTENAY","8202252","2018-12-11 05:00","2018","12","11","05:00","-11.5","","-13.1","","88","","","","30","","12","","","","101.09","","","","-18","","NA"
"-63.55","44.59","HALIFAX KOOTENAY","8202252","2018-12-11 06:00","2018","12","11","06:00","-12.7","","-14.3","","88","","","","25","","8","","","","101.18","","","","-18","","NA"
"-63.55","44.59","HALIFAX KOOTENAY","8202252","2018-12-11 07:00","2018","12","11","07:00","-11.3","","-12.8","","89","","","","31","","10","","","","101.21","","","","-17","","NA"
"-63.55","44.59","HALIFAX KOOTENAY","8202252","2018-12-11 08:00","2018","12","11","08:00","-12.1","","-13.5","","89","","","","28","","8","","","","101.27","","","","-17","","NA"
"-63.55","44.59","HALIFAX KOOTENAY","8202252","2018-12-11 09:00","2018","12","11","09:00","-10.6","","-12.8","","84","","","","28","","6","","","","101.36","","","","-14","","NA"
"-63.55","44.59","HALIFAX KOOTENAY","8202252","2018-12-11 10:00","2018","12","11","10:00","-7.8","","-10.9","","78","","","","27","","4","","","","101.44","","","","-10","","NA"
"-63.55","44.59","HALIFAX KOOTENAY","8202252","2018-12-11 11:00","2018","12","11","11:00","-6.1","","-10.6","","71","","","","24","","3","","","","101.40","","","","-8","","NA"
"-63.55","44.59","HALIFAX KOOTENAY","8202252","2018-12-11 12:00","2018","12","11","12:00","-3.3","","-8.8","","66","","","","10","","2","","","","101.29","","","","-4","","NA"
"-63.55","44.59","HALIFAX KOOTENAY","8202252","2018-12-11 13:00","2018","12","11","13:00","-3.7","","-8.1","","72","","","","8","","5","","","","101.16","","","","-6","","NA"
"-63.55","44.59","HALIFAX KOOTENAY","8202252","2018-12-11 14:00","2018","12","11","14:00","-3.3","","-7.4","","73","","","","9","","5","","","","101.11","","","","-5","","NA"
"-63.55","44.59","HALIFAX KOOTENAY","8202252","2018-12-11 15:00","2018","12","11","15:00","-3.5","","-7.1","","76","","","","15","","7","","","","101.07","","","","-6","","NA"
"-63.55","44.59","HALIFAX KOOTENAY","8202252","2018-12-11 16:00","2018","12","11","16:00","-2.7","","-7.6","","69","","","","20","","3","","","","100.96","","","","-4","","NA"
"-63.55","44.59","HALIFAX KOOTENAY","8202252","2018-12-11 17:00","2018","12","11","17:00","-5.1","","-7.8","","82","","","","21","","11","","","","101.06","","","","-10","","NA"
"-63.55","44.59","HALIFAX KOOTENAY","8202252","2018-12-11 18:00","2018","12","11","18:00","-5.8","","-7.9","","85","","","","27","","6","","","","101.02","","","","-9","","NA"
"-63.55","44.59","HALIFAX KOOTENAY","8202252","2018-12-11 19:00","2018","12","11","19:00","-5.5","","-7.8","","84","","","","27","","5","","","","100.95","","","","-8","","NA"
"-63.55","44.59","HALIFAX KOOTENAY","8202252","2018-12-11 20:00","2018","12","11","20:00","-6.2","","-7.8","","89","","","","23","","9","","","","100.98","","","","-10","","NA"
"-63.55","44.59","HALIFAX KOOTENAY","8202252","2018-12-11 21:00","2018","12","11","21:00","-5.3","","-7.6","","84","","","","23","","10","","","","100.93","","","","-10","","NA"
"-63.55","44.59","HALIFAX KOOTENAY","8202252","2018-12-11 22:00","2018","12","11","22:00","-5.1","","-7.4","","84","","","","28","","9","","","","100.84","","","","-9","","NA"
"-63.55","44.59","HALIFAX KOOTENAY","8202252","2018-12-11 23:00","2018","12","11","23:00","-3.8","","-7.0","","78","","","","31","","7","","","","100.64","","","","-7","","NA"
"-63.55","44.59","HALIFAX KOOTENAY","8202252","2018-12-12 00:00","2018","12","12","00:00","-4.7","","-7.1","","84","","","","32","","11","","","","100.56","","","","-9","","NA"
"-63.55","44.59","HALIFAX KOOTENAY","8202252","2018-12-12 01:00","2018","12","12","01:00","-5.1","","-7.2","","85","","","","34","","10","","","","100.45","","","","-9","","NA"
"-63.55","44.59","HALIFAX KOOTENAY","8202252","2018-12-12 02:00","2018","12","12","02:00","-5.0","","-7.1","","85","","","","34","","12","","","","100.38","","","","-10","","NA"
"-63.55","44.59","HALIFAX KOOTENAY","8202252","2018-12-12 03:00","2018","12","12","03:00","-5.7","","-8.0","","84","","","","34","","15","","","","100.28","","","","-11","","NA"
"-63.55","44.59","HALIFAX KOOTENAY","8202252","2018-12-12 04:00","2018","12","12","04:00","-7.0","","-8.8","","87","","","","33","","15","","","","100.17","","","","-13","","NA"
"-63.55","44.59","HALIFAX KOOTENAY","8202252","2018-12-12 05:00","2018","12","12","05:00","-6.6","","-8.1","","89","","","","36","","14","","","","100.10","","","","-12","","NA"
"-63.55","44.59","HALIFAX KOOTENAY","8202252","2018-12-12 06:00","2018","12","12","06:00","-9.0","","-9.9","","93","","","","33","","14","","","","100.09","","","","-15","","NA"
"-63.55","44.59","HALIFAX KOOTENAY","8202252","2018-12-12 07:00","2018","12","12","07:00","-8.9","","-10.1","","91","","","","35","","16","","","","100.08","","","","-16","","NA"
"-63.55","44.59","HALIFAX KOOTENAY","8202252","2018-12-12 08:00","2018","12","12","08:00","-8.5","","-10.8","","83","","","","35","","15","","","","100.02","","","","-15","","NA"
"-63.55","44.59","HALIFAX KOOTENAY","8202252","2018-12-12 09:00","2018","12","12","09:00","-7.7","","-10.9","","78","","","","33","","18","","","","100.04","","","","-15","","NA"
"-63.55","44.59","HALIFAX KOOTENAY","8202252","2018-12-12 10:00","2018","12","12","10:00","-6.8","","-10.6","","74","","","","34","","17","","","","100.06","","","","-13","","NA"
"-63.55","44.59","HALIFAX KOOTENAY","8202252","2018-12-12 11:00","2018","12","12","11:00","-6.3","","-11.4","","67","","","","33","","19","","","","100.03","","","","-13","","NA"
"-63.55","44.59","HALIFAX KOOTENAY","8202252","2018-12-12 12:00","2018","12","12","12:00","-6.6","","-11.1","","70","","","","32","","24","","","","99.95","","","","-14","","NA"
"-63.55","44.59","HALIFAX KOOTENAY","8202252","2018-12-12 13:00","2018","12","12","13:00","-6.1","","-11.5","","66","","","","33","","22","","","","99.94","","","","-13","","NA"
"-63.55","44.59","HALIFAX KOOTENAY","8202252","2018-12-12 14:00","2018","12","12","14:00","-6.2","","-11.3","","67","","","","32","","20","","","","99.96","","","","-13","","NA"
"-63.55","44.59","HALIFAX KOOTENAY","8202252","2018-12-12 15:00","2018","12","12","15:00","-6.1","","-10.9","","69","","","","32","","22","","","","100.01","","","","-13","","NA"
"-63.55","44.59","HALIFAX KOOTENAY","8202252","2018-12-12 16:00","2018","12","12","16:00","-6.3","","-9.6","","78","","","","32","","19","","","","100.08","","","","-13","","NA"
"-63.55","44.59","HALIFAX KOOTENAY","8202252","2018-12-12 17:00","2018","12","12","17:00","-6.7","","-8.8","","85","","","","32","","20","","","","100.15","","","","-14","","NA"
"-63.55","44.59","HALIFAX KOOTENAY","8202252","2018-12-12 18:00","2018","12","12","18:00","-6.1","","-8.1","","86","","","","32","","22","","","","100.25","","","","-13","","NA"
"-63.55","44.59","HALIFAX KOOTENAY","8202252","2018-12-12 19:00","2018","12","12","19:00","-6.0","","-9.1","","78","","","","33","","26","","","","100.39","","","","-14","","NA"
"-63.55","44.59","HALIFAX KOOTENAY","8202252","2018-12-12 20:00","2018","12","12","20:00","-6.5","","-10.1","","76","","","","32","","29","","","","100.52","","","","-15","","NA"
"-63.55","44.59","HALIFAX KOOTENAY","8202252","2018-12-12 21:00","2018","12","12","21:00","-7.0","","-10.5","","76","","","","33","","28","","","","100.62","","","","-15","","NA"
"-63.55","44.59","HALIFAX KOOTENAY","8202252","2018-12-12 22:00","2018","12","12","22:00","-7.5","","-11.0","","76","","","","33","","29","","","","100.72","","","","-16","","NA"
"-63.55","44.59","HALIFAX KOOTENAY","8202252","2018-12-12 23:00","2018","12","12","23:00","-7.7","","-11.3","","76","","","","32","","34","","","","100.80","","","","-17","","NA"
"-63.55","44.59","HALIFAX KOOTENAY","8202252","2018-12-13 00:00","2018","12","13","00:00","-7.8","","-11.0","","78","","","","32","","30","","","","100.88","","","","-17","","NA"
"-63.55","44.59","HALIFAX KOOTENAY","8202252","2018-12-13 01:00","2018","12","13","01:00","-8.1","","-11.7","","75","","","","32","","31","","","","100.96","","","","-17","","NA"
"-63.55","44.59","HALIFAX KOOTENAY","8202252","2018-12-13 02:00","2018","12","13","02:00","-8.8","","-12.5","","75","","","","32","","32","","","","101.09","","","","-18","","NA"
"-63.55","44.59","HALIFAX KOOTENAY","8202252","2018-12-13 03:00","2018","12","13","03:00","-9.3","","-12.6","","77","","","","32","","30","","","","101.27","","","","-19","","NA"
"-63.55","44.59","HALIFAX KOOTENAY","8202252","2018-12-13 04:00","2018","12","13","04:00","-9.4","","-12.6","","78","","","","32","","23","","","","101.36","","","","-18","","NA"
"-63.55","44.59","HALIFAX KOOTENAY","8202252","2018-12-13 05:00","2018","12","13","05:00","-9.4","","-12.5","","78","","","","32","","24","","","","101.48","","","","-18","","NA"
"-63.55","44.59","HALIFAX KOOTENAY","8202252","2018-12-13 06:00","2018","12","13","06:00","-9.5","","-12.6","","78","","","","31","","22","","","","101.59","","","","-18","","NA"
"-63.55","44.59","HALIFAX KOOTENAY","8202252","2018-12-13 07:00","2018","12","13","07:00","-9.9","","-13.0","","78","","","","30","","21","","","","101.73","","","","-18","","NA"
"-63.55","44.59","HALIFAX KOOTENAY","8202252","2018-12-13 08:00","2018","12","13","08:00","-10.0","","-12.8","","80","","","","31","","22","","","","101.85","","","","-18","","NA"
"-63.55","44.59","HALIFAX KOOTENAY","8202252","2018-12-13 09:00","2018","12","13","09:00","-9.1","","-12.4","","77","","","","32","","27","","","","101.94","","","","-18","","NA"
"-63.55","44.59","HALIFAX KOOTENAY","8202252","2018-12-13 10:00","2018","12","13","10:00","-8.2","","-11.9","","75","","","","33","","17","","","","102.05","","","","-15","","NA"
"-63.55","44.59","HALIFAX KOOTENAY","8202252","2018-12-13 11:00","2018","12","13","11:00","-7.2","","-12.8","","64","","","","33","","18","","","","102.11","","","","-14","","NA"
"-63.55","44.59","HALIFAX KOOTENAY","8202252","2018-12-13 12:00","2018","12","13","12:00","-5.9","","-14.0","","53","","","","32","","14","","","","102.11","","","","-11","","NA"
"-63.55","44.59","HALIFAX KOOTENAY","8202252","2018-12-13 13:00","2018","12","13","13:00","-4.8","","-14.6","","46","","","","31","","14","","","","102.12","","","","-10","","NA"
"-63.55","44.59","HALIFAX KOOTENAY","8202252","2018-12-13 14:00","2018","12","13","14:00","-4.3","","-14.9","","43","","","","32","","16","","","","102.16","","","","-10","","NA"
"-63.55","44.59","HALIFAX KOOTENAY","8202252","2018-12-13 15:00","2018","12","13","15:00","-3.9","","-16.0","","39","","","","29","","13","","","","102.24","","","","-9","","NA"
"-63.55","44.59","HALIFAX KOOTENAY","8202252","2018-12-13 16:00","2018","12","13","16:00","-4.1","","-17.2","","36","","","","29","","13","","","","102.29","","","","-9","","NA"
"-63.55","44.59","HALIFAX KOOTENAY","8202252","2018-12-13 17:00","2018","12","13","17:00","-5.7","","-15.8","","45","","","","26","","6","","","","102.35","","","","-9","","NA"
"-63.55","44.59","HALIFAX KOOTENAY","8202252","2018-12-13 18:00","2018","12","13","18:00","-6.7","","-15.7","","49","","","","27","","6","","","","102.40","","","","-10","","NA"
"-63.55","44.59","HALIFAX KOOTENAY","8202252","2018-12-13 19:00","2018","12","13","19:00","-6.8","","-15.5","","50","","","","29","","16","","","","102.43","","","","-13","","NA"
"-63.55","44.59","HALIFAX KOOTENAY","8202252","2018-12-13 20:00","2018","12","13","20:00","-7.3","","-14.6","","56","","","","28","","15","","","","102.47","","","","-13","","NA"
"-63.55","44.59","HALIFAX KOOTENAY","8202252","2018-12-13 21:00","2018","12","13","21:00","-7.5","","-14.1","","59","","","","28","","17","","","","102.49","","","","-14","","NA"
"-63.55","44.59","HALIFAX KOOTENAY","8202252","2018-12-13 22:00","2018","12","13","22:00","-7.1","","-13.0","","63","","","","28","","18","","","","102.51","","","","-14","","NA"
"-63.55","44.59","HALIFAX KOOTENAY","8202252","2018-12-13 23:00","2018","12","13","23:00","-7.3","","-12.9","","64","","","","28","","15","","","","102.50","","","","-13","","NA"
"-63.55","44.59","HALIFAX KOOTENAY","8202252","2018-12-14 00:00","2018","12","14","00:00","-7.8","","-12.3","","70","","","","27","","17","","","","102.48","","","","-14","","NA"
"-63.55","44.59","HALIFAX KOOTENAY","8202252","2018-12-14 01:00","2018","12","14","01:00","-7.1","","-11.1","","73","","","","28","","21","","","","102.46","","","","-14","","NA"
"-63.55","44.59","HALIFAX KOOTENAY","8202252","2018-12-14 02:00","2018","12","14","02:00","-7.4","","-11.2","","74","","","","28","","19","","","","102.47","","","","-14","","NA"
"-63.55","44.59","HALIFAX KOOTENAY","8202252","2018-12-14 03:00","2018","12","14","03:00","-7.7","","-12.0","","71","","","","28","","17","","","","102.51","","","","-14","","NA"
"-63.55","44.59","HALIFAX KOOTENAY","8202252","2018-12-14 04:00","2018","12","14","04:00","-7.2","","-11.4","","72","","","","28","","18","","","","102.49","","","","-14","","NA"
"-63.55","44.59","HALIFAX KOOTENAY","8202252","2018-12-14 05:00","2018","12","14","05:00","-6.2","","-10.5","","72","","","","28","","14","","","","102.49","","","","-12","","NA"
"-63.55","44.59","HALIFAX KOOTENAY","8202252","2018-12-14 06:00","2018","12","14","06:00","-6.8","","-10.6","","74","","","","27","","14","","","","102.49","","","","-13","","NA"
"-63.55","44.59","HALIFAX KOOTENAY","8202252","2018-12-14 07:00","2018","12","14","07:00","-6.0","","-10.9","","68","","","","27","","13","","","","102.48","","","","-11","","NA"
"-63.55","44.59","HALIFAX KOOTENAY","8202252","2018-12-14 08:00","2018","12","14","08:00","-5.5","","-10.0","","70","","","","28","","13","","","","102.50","","","","-11","","NA"
"-63.55","44.59","HALIFAX KOOTENAY","8202252","2018-12-14 09:00","2018","12","14","09:00","-3.9","","-8.2","","72","","","","28","","15","","","","102.51","","","","-9","","NA"
"-63.55","44.59","HALIFAX KOOTENAY","8202252","2018-12-14 10:00","2018","12","14","10:00","-1.5","","-6.2","","70","","","","27","","14","","","","102.56","","","","-6","","NA"
"-63.55","44.59","HALIFAX KOOTENAY","8202252","2018-12-14 11:00","2018","12","14","11:00","-0.3","","-5.4","","68","","","","26","","19","","","","102.53","","","","-5","","NA"
"-63.55","44.59","HALIFAX KOOTENAY","8202252","2018-12-14 12:00","2018","12","14","12:00","0.8","","-3.4","","73","","","","27","","20","","","","102.45","","","","","","NA"
"-63.55","44.59","HALIFAX KOOTENAY","8202252","2018-12-14 13:00","2018","12","14","13:00","1.1","","-3.0","","74","","","","25","","22","","","","102.38","","","","","","NA"
"-63.55","44.59","HALIFAX KOOTENAY","8202252","2018-12-14 14:00","2018","12","14","14:00","2.2","","-1.9","","74","","","","25","","22","","","","102.33","","","","","","NA"
"-63.55","44.59","HALIFAX KOOTENAY","8202252","2018-12-14 15:00","2018","12","14","15:00","1.7","","-1.8","","78","","","","25","","23","","","","102.30","","","","","","NA"
"-63.55","44.59","HALIFAX KOOTENAY","8202252","2018-12-14 16:00","2018","12","14","16:00","1.0","","-1.7","","82","","","","24","","19","","","","102.31","","","","","","NA"
"-63.55","44.59","HALIFAX KOOTENAY","8202252","2018-12-14 17:00","2018","12","14","17:00","0.4","","-1.7","","86","","","","24","","15","","","","102.31","","","","","","NA"
"-63.55","44.59","HALIFAX KOOTENAY","8202252","2018-12-14 18:00","2018","12","14","18:00","0.0","","-2.1","","86","","","","27","","13","","","","102.25","","","","-4","","NA"
"-63.55","44.59","HALIFAX KOOTENAY","8202252","2018-12-14 19:00","2018","12","14","19:00","-0.7","","-2.3","","89","","","","25","","13","","","","102.23","","","","-5","","NA"
"-63.55","44.59","HALIFAX KOOTENAY","8202252","2018-12-14 20:00","2018","12","14","20:00","-0.7","","-2.2","","90","","","","24","","14","","","","102.17","","","","-5","","NA"
"-63.55","44.59","HALIFAX KOOTENAY","8202252","2018-12-14 21:00","2018","12","14","21:00","-0.7","","-2.1","","90","","","","23","","13","","","","102.05","","","","-5","","NA"
"-63.55","44.59","HALIFAX KOOTENAY","8202252","2018-12-14 22:00","2018","12","14","22:00","-1.1","","-2.2","","93","","","","26","","14","","","","102.00","","","","-6","","NA"
"-63.55","44.59","HALIFAX KOOTENAY","8202252","2018-12-14 23:00","2018","12","14","23:00","-0.3","","-1.2","","93","","","","23","","16","","","","101.90","","","","-5","","NA"
"-63.55","44.59","HALIFAX KOOTENAY","8202252","2018-12-15 00:00","2018","12","15","00:00","1.2","","-0.3","","90","","","","22","","14","","","","101.76","","","","","","NA"
"-63.55","44.59","HALIFAX KOOTENAY","8202252","2018-12-15 01:00","2018","12","15","01:00","1.9","","0.8","","92","","","","20","","13","","","","101.62","","","","","","NA"
"-63.55","44.59","HALIFAX KOOTENAY","8202252","2018-12-15 02:00","2018","12","15","02:00","2.3","","1.1","","92","","","","19","","14","","","","101.50","","","","","","NA"
"-63.55","44.59","HALIFAX KOOTENAY","8202252","2018-12-15 03:00","2018","12","15","03:00","3.4","","2.6","","95","","","","22","","19","","","","101.41","","","","","","NA"
"-63.55","44.59","HALIFAX KOOTENAY","8202252","2018-12-15 04:00","2018","12","15","04:00","3.7","","3.0","","95","","","","23","","21","","","","101.24","","","","","","NA"
"-63.55","44.59","HALIFAX KOOTENAY","8202252","2018-12-15 05:00","2018","12","15","05:00","4.3","","3.8","","96","","","","23","","20","","","","101.07","","","","","","NA"
"-63.55","44.59","HALIFAX KOOTENAY","8202252","2018-12-15 06:00","2018","12","15","06:00","5.1","","4.7","","97","","","","24","","27","","","","101.00","","","","","","NA"
"-63.55","44.59","HALIFAX KOOTENAY","8202252","2018-12-15 07:00","2018","12","15","07:00","5.1","","4.7","","97","","","","24","","30","","","","100.90","","","","","","NA"
"-63.55","44.59","HALIFAX KOOTENAY","8202252","2018-12-15 08:00","2018","12","15","08:00","4.9","","4.5","","97","","","","25","","27","","","","100.86","","","","","","NA"
"-63.55","44.59","HALIFAX KOOTENAY","8202252","2018-12-15 09:00","2018","12","15","09:00","4.9","","4.5","","97","","","","26","","24","","","","100.88","","","","","","NA"
"-63.55","44.59","HALIFAX KOOTENAY","8202252","2018-12-15 10:00","2018","12","15","10:00","5.0","","4.5","","96","","","","26","","21","","","","100.89","","","","","","NA"
"-63.55","44.59","HALIFAX KOOTENAY","8202252","2018-12-15 11:00","2018","12","15","11:00","6.1","","5.1","","93","","","","27","","21","","","","100.87","","","","","","NA"
"-63.55","44.59","HALIFAX KOOTENAY","8202252","2018-12-15 12:00","2018","12","15","12:00","7.7","","4.5","","80","","","","29","","25","","","","100.77","","","","","","NA"
"-63.55","44.59","HALIFAX KOOTENAY","8202252","2018-12-15 13:00","2018","12","15","13:00","8.0","","3.8","","75","","","","29","","22","","","","100.72","","","","","","NA"
"-63.55","44.59","HALIFAX KOOTENAY","8202252","2018-12-15 14:00","2018","12","15","14:00","7.4","","1.5","","66","","","","28","","23","","","","100.76","","","","","","NA"
"-63.55","44.59","HALIFAX KOOTENAY","8202252","2018-12-15 15:00","2018","12","15","15:00","7.3","","0.8","","64","","","","29","","28","","","","100.80","","","","","","NA"
"-63.55","44.59","HALIFAX KOOTENAY","8202252","2018-12-15 16:00","2018","12","15","16:00","6.7","","0.5","","65","","","","30","","15","","","","100.90","","","","","","NA"
"-63.55","44.59","HALIFAX KOOTENAY","8202252","2018-12-15 17:00","2018","12","15","17:00","5.0","","-0.5","","68","","","","32","","22","","","","101.02","","","","","","NA"
"-63.55","44.59","HALIFAX KOOTENAY","8202252","2018-12-15 18:00","2018","12","15","18:00","3.3","","-0.9","","74","","","","29","","17","","","","101.08","","","","","","NA"
"-63.55","44.59","HALIFAX KOOTENAY","8202252","2018-12-15 19:00","2018","12","15","19:00","2.8","","-1.2","","75","","","","31","","20","","","","101.16","","","","","","NA"
"-63.55","44.59","HALIFAX KOOTENAY","8202252","2018-12-15 20:00","2018","12","15","20:00","2.1","","-1.4","","78","","","","31","","17","","","","101.22","","","","","","NA"
"-63.55","44.59","HALIFAX KOOTENAY","8202252","2018-12-15 21:00","2018","12","15","21:00","1.9","","-1.7","","77","","","","31","","17","","","","101.26","","","","","","NA"
"-63.55","44.59","HALIFAX KOOTENAY","8202252","2018-12-15 22:00","2018","12","15","22:00","2.2","","-1.9","","74","","","","32","","17","","","","101.29","","","","","","NA"
"-63.55","44.59","HALIFAX KOOTENAY","8202252","2018-12-15 23:00","2018","12","15","23:00","1.6","","-2.1","","76","","","","32","","16","","","","101.29","","","","","","NA"
"-63.55","44.59","HALIFAX KOOTENAY","8202252","2018-12-16 00:00","2018","12","16","00:00","0.4","","-2.5","","81","","","","30","","13","","","","101.34","","","","","","NA"
"-63.55","44.59","HALIFAX KOOTENAY","8202252","2018-12-16 01:00","2018","12","16","01:00","0.4","","-2.7","","80","","","","32","","13","","","","101.35","","","","","","NA"
"-63.55","44.59","HALIFAX KOOTENAY","8202252","2018-12-16 02:00","2018","12","16","02:00","0.0","","-3.0","","80","","","","31","","11","","","","101.40","","","","-4","","NA"
"-63.55","44.59","HALIFAX KOOTENAY","8202252","2018-12-16 03:00","2018","12","16","03:00","-0.1","","-3.6","","78","","","","31","","12","","","","101.45","","","","-4","","NA"
"-63.55","44.59","HALIFAX KOOTENAY","8202252","2018-12-16 04:00","2018","12","16","04:00","-1.6","","-4.2","","83","","","","26","","9","","","","101.54","","","","-5","","NA"
"-63.55","44.59","HALIFAX KOOTENAY","8202252","2018-12-16 05:00","2018","12","16","05:00","-2.1","","-4.2","","86","","","","29","","10","","","","101.54","","","","-6","","NA"
"-63.55","44.59","HALIFAX KOOTENAY","8202252","2018-12-16 06:00","2018","12","16","06:00","-0.7","","-3.9","","79","","","","33","","11","","","","101.50","","","","-4","","NA"
"-63.55","44.59","HALIFAX KOOTENAY","8202252","2018-12-16 07:00","2018","12","16","07:00","-1.4","","-4.4","","80","","","","32","","7","","","","101.52","","","","-4","","NA"
"-63.55","44.59","HALIFAX KOOTENAY","8202252","2018-12-16 08:00","2018","12","16","08:00","-0.3","","-4.5","","73","","","","36","","10","","","","101.47","","","","-4","","NA"
"-63.55","44.59","HALIFAX KOOTENAY","8202252","2018-12-16 09:00","2018","12","16","09:00","-0.2","","-4.2","","74","","","","35","","6","","","","101.57","","","","-2","","NA"
"-63.55","44.59","HALIFAX KOOTENAY","8202252","2018-12-16 10:00","2018","12","16","10:00","0.7","","-4.1","","70","","","","4","","6","","","","101.56","","","","","","NA"
"-63.55","44.59","HALIFAX KOOTENAY","8202252","2018-12-16 11:00","2018","12","16","11:00","2.1","","-3.9","","64","","","","5","","8","","","","101.58","","","","","","NA"
"-63.55","44.59","HALIFAX KOOTENAY","8202252","2018-12-16 12:00","2018","12","16","12:00","2.0","","-3.4","","67","","","","14","","10","","","","101.54","","","","","","NA"
"-63.55","44.59","HALIFAX KOOTENAY","8202252","2018-12-16 13:00","2018","12","16","13:00","1.9","","-3.5","","67","","","","15","","11","","","","101.48","","","","","","NA"
"-63.55","44.59","HALIFAX KOOTENAY","8202252","2018-12-16 14:00","2018","12","16","14:00","1.3","","-3.6","","70","","","","16","","12","","","","101.47","","","","","","NA"
"-63.55","44.59","HALIFAX KOOTENAY","8202252","2018-12-16 15:00","2018","12","16","15:00","3.0","","-3.3","","63","","","","13","","5","","","","101.41","","","","","","NA"
"-63.55","44.59","HALIFAX KOOTENAY","8202252","2018-12-16 16:00","2018","12","16","16:00","1.5","","-4.5","","64","","","","7","","4","","","","101.45","","","","","","NA"
"-63.55","44.59","HALIFAX KOOTENAY","8202252","2018-12-16 17:00","2018","12","16","17:00","0.5","","-3.8","","73","","","","6","","10","","","","101.36","","","","","","NA"
"-63.55","44.59","HALIFAX KOOTENAY","8202252","2018-12-16 18:00","2018","12","16","18:00","-0.2","","-4.2","","74","","","","5","","8","","","","101.32","","","","-3","","NA"
"-63.55","44.59","HALIFAX KOOTENAY","8202252","2018-12-16 19:00","2018","12","16","19:00","-0.5","","-4.8","","73","","","","5","","11","","","","101.26","","","","-4","","NA"
"-63.55","44.59","HALIFAX KOOTENAY","8202252","2018-12-16 20:00","2018","12","16","20:00","-0.6","","-4.1","","77","","","","8","","9","","","","101.28","","","","-4","","NA"
"-63.55","44.59","HALIFAX KOOTENAY","8202252","2018-12-16 21:00","2018","12","16","21:00","-0.4","","-2.7","","84","","","","8","","12","","","","101.25","","","","-4","","NA"
"-63.55","44.59","HALIFAX KOOTENAY","8202252","2018-12-16 22:00","2018","12","16","22:00","1.2","","-1.7","","81","","","","8","","20","","","","101.17","","","","","","NA"
"-63.55","44.59","HALIFAX KOOTENAY","8202252","2018-12-16 23:00","2018","12","16","23:00","-0.4","","-2.5","","86","","","","6","","18","","","","101.12","","","","-5","","NA"
"-63.55","44.59","HALIFAX KOOTENAY","8202252","2018-12-17 00:00","2018","12","17","00:00","-0.5","","-2.5","","86","","","","6","","15","","","","101.00","","","","-5","","NA"
"-63.55","44.59","HALIFAX KOOTENAY","8202252","2018-12-17 01:00","2018","12","17","01:00","0.1","","-1.1","","92","","","","8","","20","","","","100.83","","","","","","NA"
"-63.55","44.59","HALIFAX KOOTENAY","8202252","2018-12-17 02:00","2018","12","17","02:00","1.3","","-1.2","","84","","","","9","","37","","","","100.64","","","","","","NA"
"-63.55","44.59","HALIFAX KOOTENAY","8202252","2018-12-17 03:00","2018","12","17","03:00","1.5","","-1.0","","83","","","","9","","41","","","","100.53","","","","","","NA"
"-63.55","44.59","HALIFAX KOOTENAY","8202252","2018-12-17 04:00","2018","12","17","04:00","1.5","","-0.9","","84","","","","9","","38","","","","100.42","","","","","","NA"
"-63.55","44.59","HALIFAX KOOTENAY","8202252","2018-12-17 05:00","2018","12","17","05:00","1.5","","-0.8","","85","","","","9","","40","","","","100.25","","","","","","NA"
"-63.55","44.59","HALIFAX KOOTENAY","8202252","2018-12-17 06:00","2018","12","17","06:00","1.8","","-0.4","","86","","","","9","","46","","","","100.15","","","","","","NA"
"-63.55","44.59","HALIFAX KOOTENAY","8202252","2018-12-17 07:00","2018","12","17","07:00","1.8","","-0.2","","87","","","","8","","40","","","","100.02","","","","","","NA"
"-63.55","44.59","HALIFAX KOOTENAY","8202252","2018-12-17 08:00","2018","12","17","08:00","1.7","","-0.3","","87","","","","8","","44","","","","99.84","","","","","","NA"
"-63.55","44.59","HALIFAX KOOTENAY","8202252","2018-12-17 09:00","2018","12","17","09:00","1.2","","0.1","","92","","","","8","","44","","","","99.76","","","","","","NA"
"-63.55","44.59","HALIFAX KOOTENAY","8202252","2018-12-17 10:00","2018","12","17","10:00","0.8","","0.2","","96","","","","7","","35","","","","99.60","","","","","","NA"
"-63.55","44.59","HALIFAX KOOTENAY","8202252","2018-12-17 11:00","2018","12","17","11:00","1.0","","0.4","","96","","","","7","","33","","","","99.37","","","","","","NA"
"-63.55","44.59","HALIFAX KOOTENAY","8202252","2018-12-17 12:00","2018","12","17","12:00","1.5","","0.9","","96","","","","7","","37","","","","99.11","","","","","","NA"
"-63.55","44.59","HALIFAX KOOTENAY","8202252","2018-12-17 13:00","2018","12","17","13:00","1.9","","1.3","","96","","","","7","","38","","","","98.87","","","","","","NA"
"-63.55","44.59","HALIFAX KOOTENAY","8202252","2018-12-17 14:00","2018","12","17","14:00","1.9","","1.4","","97","","","","7","","34","","","","98.69","","","","","","NA"
"-63.55","44.59","HALIFAX KOOTENAY","8202252","2018-12-17 15:00","2018","12","17","15:00","2.2","","1.6","","96","","","","6","","29","","","","98.48","","","","","","NA"
"-63.55","44.59","HALIFAX KOOTENAY","8202252","2018-12-17 16:00","2018","12","17","16:00","2.7","","2.1","","96","","","","6","","21","","","","98.34","","","","","","NA"
"-63.55","44.59","HALIFAX KOOTENAY","8202252","2018-12-17 17:00","2018","12","17","17:00","2.7","","2.2","","96","","","","5","","21","","","","98.18","","","","","","NA"
"-63.55","44.59","HALIFAX KOOTENAY","8202252","2018-12-17 18:00","2018","12","17","18:00","2.7","","2.3","","97","","","","4","","13","","","","98.06","","","","","","NA"
"-63.55","44.59","HALIFAX KOOTENAY","8202252","2018-12-17 19:00","2018","12","17","19:00","2.6","","2.1","","97","","","","2","","15","","","","97.97","","","","","","NA"
"-63.55","44.59","HALIFAX KOOTENAY","8202252","2018-12-17 20:00","2018","12","17","20:00","1.8","","1.4","","97","","","","1","","19","","","","97.81","","","","","","NA"
"-63.55","44.59","HALIFAX KOOTENAY","8202252","2018-12-17 21:00","2018","12","17","21:00","1.5","","1.1","","97","","","","35","","21","","","","97.74","","","","","","NA"
"-63.55","44.59","HALIFAX KOOTENAY","8202252","2018-12-17 22:00","2018","12","17","22:00","1.0","","0.6","","97","","","","33","","18","","","","97.73","","","","","","NA"
"-63.55","44.59","HALIFAX KOOTENAY","8202252","2018-12-17 23:00","2018","12","17","23:00","1.0","","0.6","","97","","","","33","","19","","","","97.71","","","","","","NA"
"-63.55","44.59","HALIFAX KOOTENAY","8202252","2018-12-18 00:00","2018","12","18","00:00","0.8","","0.4","","97","","","","33","","16","","","","97.63","","","","","","NA"
"-63.55","44.59","HALIFAX KOOTENAY","8202252","2018-12-18 01:00","2018","12","18","01:00","0.6","","0.2","","97","","","","32","","14","","","","97.58","","","","","","NA"
"-63.55","44.59","HALIFAX KOOTENAY","8202252","2018-12-18 02:00","2018","12","18","02:00","0.4","","0.1","","98","","","","29","","11","","","","97.59","","","","","","NA"
"-63.55","44.59","HALIFAX KOOTENAY","8202252","2018-12-18 03:00","2018","12","18","03:00","0.2","","-0.1","","98","","","","29","","11","","","","97.58","","","","","","NA"
"-63.55","44.59","HALIFAX KOOTENAY","8202252","2018-12-18 04:00","2018","12","18","04:00","0.0","","-0.3","","98","","","","28","","11","","","","97.57","","","","-4","","NA"
"-63.55","44.59","HALIFAX KOOTENAY","8202252","2018-12-18 05:00","2018","12","18","05:00","-0.1","","-0.3","","98","","","","28","","12","","","","97.54","","","","-4","","NA"
"-63.55","44.59","HALIFAX KOOTENAY","8202252","2018-12-18 06:00","2018","12","18","06:00","-0.1","","-0.3","","98","","","","29","","12","","","","97.56","","","","-4","","NA"
"-63.55","44.59","HALIFAX KOOTENAY","8202252","2018-12-18 07:00","2018","12","18","07:00","-0.1","","-0.3","","98","","","","31","","17","","","","97.63","","","","-5","","NA"
"-63.55","44.59","HALIFAX KOOTENAY","8202252","2018-12-18 08:00","2018","12","18","08:00","-0.3","","-0.6","","98","","","","32","","22","","","","97.73","","","","-6","","NA"
"-63.55","44.59","HALIFAX KOOTENAY","8202252","2018-12-18 09:00","2018","12","18","09:00","-0.6","","-0.8","","99","","","","31","","19","","","","97.85","","","","-6","","NA"
"-63.55","44.59","HALIFAX KOOTENAY","8202252","2018-12-18 10:00","2018","12","18","10:00","-0.6","","-0.8","","99","","","","31","","21","","","","97.95","","","","-6","","NA"
"-63.55","44.59","HALIFAX KOOTENAY","8202252","2018-12-18 11:00","2018","12","18","11:00","-0.8","","-1.0","","98","","","","31","","21","","","","98.00","","","","-6","","NA"
"-63.55","44.59","HALIFAX KOOTENAY","8202252","2018-12-18 12:00","2018","12","18","12:00","-0.8","","-1.1","","98","","","","30","","25","","","","98.00","","","","-7","","NA"
"-63.55","44.59","HALIFAX KOOTENAY","8202252","2018-12-18 13:00","2018","12","18","13:00","-0.8","","-1.2","","97","","","","30","","28","","","","98.04","","","","-7","","NA"
"-63.55","44.59","HALIFAX KOOTENAY","8202252","2018-12-18 14:00","2018","12","18","14:00","-0.9","","-1.3","","97","","","","30","","27","","","","98.09","","","","-7","","NA"
"-63.55","44.59","HALIFAX KOOTENAY","8202252","2018-12-18 15:00","2018","12","18","15:00","-1.1","","-1.5","","97","","","","30","","26","","","","98.20","","","","-7","","NA"
"-63.55","44.59","HALIFAX KOOTENAY","8202252","2018-12-18 16:00","2018","12","18","16:00","-1.7","","-2.3","","96","","","","29","","28","","","","98.33","","","","-8","","NA"
"-63.55","44.59","HALIFAX KOOTENAY","8202252","2018-12-18 17:00","2018","12","18","17:00","-2.5","","-3.2","","95","","","","29","","34","","","","98.44","","","","-10","","NA"
"-63.55","44.59","HALIFAX KOOTENAY","8202252","2018-12-18 18:00","2018","12","18","18:00","-2.9","","-4.0","","92","","","","30","","33","","","","98.59","","","","-11","","NA"
"-63.55","44.59","HALIFAX KOOTENAY","8202252","2018-12-18 19:00","2018","12","18","19:00","-3.1","","-4.6","","89","","","","30","","33","","","","98.71","","","","-11","","NA"
"-63.55","44.59","HALIFAX KOOTENAY","8202252","2018-12-18 20:00","2018","12","18","20:00","-3.3","","-5.2","","86","","","","30","","30","","","","98.81","","","","-11","","NA"
"-63.55","44.59","HALIFAX KOOTENAY","8202252","2018-12-18 21:00","2018","12","18","21:00","-3.3","","-5.5","","85","","","","30","","35","","","","98.93","","","","-11","","NA"
"-63.55","44.59","HALIFAX KOOTENAY","8202252","2018-12-18 22:00","2018","12","18","22:00","-3.8","","-6.1","","84","","","","31","","32","","","","98.98","","","","-12","","NA"
"-63.55","44.59","HALIFAX KOOTENAY","8202252","2018-12-18 23:00","2018","12","18","23:00","-4.3","","-6.7","","83","","","","30","","27","","","","99.07","","","","-12","","NA"
"-63.55","44.59","HALIFAX KOOTENAY","8202252","2018-12-19 00:00","2018","12","19","00:00","-4.5","","-7.3","","81","","","","30","","28","","","","99.14","","","","-12","","NA"
"-63.55","44.59","HALIFAX KOOTENAY","8202252","2018-12-19 01:00","2018","12","19","01:00","-4.5","","-7.3","","80","","","","30","","31","","","","99.18","","","","-12","","NA"
"-63.55","44.59","HALIFAX KOOTENAY","8202252","2018-12-19 02:00","2018","12","19","02:00","-4.4","","-7.6","","78","","","","30","","34","","","","99.27","","","","-13","","NA"
"-63.55","44.59","HALIFAX KOOTENAY","8202252","2018-12-19 03:00","2018","12","19","03:00","-4.4","","-7.5","","79","","","","30","","28","","","","99.38","","","","-12","","NA"
"-63.55","44.59","HALIFAX KOOTENAY","8202252","2018-12-19 04:00","2018","12","19","04:00","-4.5","","-7.4","","80","","","","29","","24","","","","99.52","","","","-12","","NA"
"-63.55","44.59","HALIFAX KOOTENAY","8202252","2018-12-19 05:00","2018","12","19","05:00","-4.0","","-7.3","","78","","","","29","","25","","","","99.64","","","","-11","","NA"
"-63.55","44.59","HALIFAX KOOTENAY","8202252","2018-12-19 06:00","2018","12","19","06:00","-4.1","","-7.7","","76","","","","29","","22","","","","99.73","","","","-11","","NA"
"-63.55","44.59","HALIFAX KOOTENAY","8202252","2018-12-19 07:00","2018","12","19","07:00","-4.2","","-8.1","","74","","","","30","","26","","","","99.81","","","","-11","","NA"
"-63.55","44.59","HALIFAX KOOTENAY","8202252","2018-12-19 08:00","2018","12","19","08:00","-4.7","","-8.1","","77","","","","29","","19","","","","99.89","","","","-11","","NA"
"-63.55","44.59","HALIFAX KOOTENAY","8202252","2018-12-19 09:00","2018","12","19","09:00","-4.7","","-8.0","","78","","","","30","","19","","","","99.98","","","","-11","","NA"
"-63.55","44.59","HALIFAX KOOTENAY","8202252","2018-12-19 10:00","2018","12","19","10:00","-4.0","","-7.6","","76","","","","29","","23","","","","100.07","","","","-11","","NA"
"-63.55","44.59","HALIFAX KOOTENAY","8202252","2018-12-19 11:00","2018","12","19","11:00","-3.5","","-7.6","","73","","","","29","","23","","","","100.08","","","","-10","","NA"
"-63.55","44.59","HALIFAX KOOTENAY","8202252","2018-12-19 12:00","2018","12","19","12:00","-3.4","","-7.0","","76","","","","28","","21","","","","100.04","","","","-10","","NA"
"-63.55","44.59","HALIFAX KOOTENAY","8202252","2018-12-19 13:00","2018","12","19","13:00","-3.2","","-7.1","","74","","","","29","","20","","","","100.02","","","","-9","","NA"
"-63.55","44.59","HALIFAX KOOTENAY","8202252","2018-12-19 14:00","2018","12","19","14:00","-2.7","","-6.9","","73","","","","28","","19","","","","99.99","","","","-8","","NA"
"-63.55","44.59","HALIFAX KOOTENAY","8202252","2018-12-19 15:00","2018","12","19","15:00","-2.5","","-6.5","","74","","","","28","","23","","","","100.06","","","","-9","","NA"
"-63.55","44.59","HALIFAX KOOTENAY","8202252","2018-12-19 16:00","2018","12","19","16:00","-2.8","","-6.6","","75","","","","28","","22","","","","100.10","","","","-9","","NA"
"-63.55","44.59","HALIFAX KOOTENAY","8202252","2018-12-19 17:00","2018","12","19","17:00","-4.0","","-6.9","","80","","","","28","","15","","","","100.24","","","","-9","","NA"
"-63.55","44.59","HALIFAX KOOTENAY","8202252","2018-12-19 18:00","2018","12","19","18:00","-4.8","","-7.1","","84","","","","28","","8","","","","100.32","","","","-8","","NA"
"-63.55","44.59","HALIFAX KOOTENAY","8202252","2018-12-19 19:00","2018","12","19","19:00","-4.8","","-7.3","","83","","","","27","","18","","","","100.38","","","","-11","","NA"
"-63.55","44.59","HALIFAX KOOTENAY","8202252","2018-12-19 20:00","2018","12","19","20:00","-4.8","","-7.1","","84","","","","27","","24","","","","100.44","","","","-12","","NA"
"-63.55","44.59","HALIFAX KOOTENAY","8202252","2018-12-19 21:00","2018","12","19","21:00","-4.6","","-7.0","","83","","","","27","","24","","","","100.52","","","","-12","","NA"
"-63.55","44.59","HALIFAX KOOTENAY","8202252","2018-12-19 22:00","2018","12","19","22:00","-4.9","","-7.6","","81","","","","28","","20","","","","100.57","","","","-11","","NA"
"-63.55","44.59","HALIFAX KOOTENAY","8202252","2018-12-19 23:00","2018","12","19","23:00","-5.0","","-8.3","","78","","","","30","","15","","","","100.63","","","","-11","","NA"
"-63.55","44.59","HALIFAX KOOTENAY","8202252","2018-12-20 00:00","2018","12","20","00:00","-5.3","","-8.2","","80","","","","28","","21","","","","100.68","","","","-12","","NA"
"-63.55","44.59","HALIFAX KOOTENAY","8202252","2018-12-20 01:00","2018","12","20","01:00","-5.1","","-8.4","","78","","","","29","","23","","","","100.71","","","","-12","","NA"
"-63.55","44.59","HALIFAX KOOTENAY","8202252","2018-12-20 02:00","2018","12","20","02:00","-5.6","","-8.6","","80","","","","28","","21","","","","100.77","","","","-12","","NA"
"-63.55","44.59","HALIFAX KOOTENAY","8202252","2018-12-20 03:00","2018","12","20","03:00","-5.2","","-8.3","","79","","","","30","","21","","","","100.82","","","","-12","","NA"
"-63.55","44.59","HALIFAX KOOTENAY","8202252","2018-12-20 04:00","2018","12","20","04:00","-5.7","","-8.1","","83","","","","28","","18","","","","100.87","","","","-12","","NA"
"-63.55","44.59","HALIFAX KOOTENAY","8202252","2018-12-20 05:00","2018","12","20","05:00","-4.9","","-7.4","","83","","","","28","","21","","","","100.90","","","","-12","","NA"
"-63.55","44.59","HALIFAX KOOTENAY","8202252","2018-12-20 06:00","2018","12","20","06:00","-5.1","","-7.5","","84","","","","29","","15","","","","100.93","","","","-11","","NA"
"-63.55","44.59","HALIFAX KOOTENAY","8202252","2018-12-20 07:00","2018","12","20","07:00","-5.4","","-7.3","","87","","","","29","","8","","","","100.98","","","","-9","","NA"
"-63.55","44.59","HALIFAX KOOTENAY","8202252","2018-12-20 08:00","2018","12","20","08:00","-6.0","","-7.5","","89","","","","26","","13","","","","101.03","","","","-11","","NA"
"-63.55","44.59","HALIFAX KOOTENAY","8202252","2018-12-20 09:00","2018","12","20","09:00","-4.5","","-6.6","","86","","","","26","","14","","","","101.11","","","","-10","","NA"
"-63.55","44.59","HALIFAX KOOTENAY","8202252","2018-12-20 10:00","2018","12","20","10:00","-2.2","","-5.2","","80","","","","27","","19","","","","101.16","","","","-8","","NA"
"-63.55","44.59","HALIFAX KOOTENAY","8202252","2018-12-20 11:00","2018","12","20","11:00","-0.9","","-4.2","","78","","","","26","","16","","","","101.18","","","","-6","","NA"
"-63.55","44.59","HALIFAX KOOTENAY","8202252","2018-12-20 12:00","2018","12","20","12:00","0.9","","-2.9","","76","","","","27","","17","","","","101.12","","","","","","NA"
"-63.55","44.59","HALIFAX KOOTENAY","8202252","2018-12-20 13:00","2018","12","20","13:00","0.8","","-2.8","","77","","","","27","","17","","","","101.09","","","","","","NA"
"-63.55","44.59","HALIFAX KOOTENAY","8202252","2018-12-20 14:00","2018","12","20","14:00","2.2","","-2.0","","74","","","","27","","17","","","","101.12","","","","","","NA"
"-63.55","44.59","HALIFAX KOOTENAY","8202252","2018-12-20 15:00","2018","12","20","15:00","2.4","","-1.9","","73","","","","27","","15","","","","101.12","","","","","","NA"
"-63.55","44.59","HALIFAX KOOTENAY","8202252","2018-12-20 16:00","2018","12","20","16:00","2.6","","-1.6","","74","","","","27","","8","","","","101.18","","","","","","NA"
"-63.55","44.59","HALIFAX KOOTENAY","8202252","2018-12-20 17:00","2018","12","20","17:00","0.6","","-1.9","","83","","","","27","","6","","","","101.21","","","","","","NA"
"-63.55","44.59","HALIFAX KOOTENAY","8202252","2018-12-20 18:00","2018","12","20","18:00","0.1","","-1.9","","86","","","","25","","11","","","","101.28","","","","","","NA"
"-63.55","44.59","HALIFAX KOOTENAY","8202252","2018-12-20 19:00","2018","12","20","19:00","0.0","","-1.7","","89","","","","28","","9","","","","101.29","","","","-3","","NA"
"-63.55","44.59","HALIFAX KOOTENAY","8202252","2018-12-20 20:00","2018","12","20","20:00","-0.3","","-2.2","","87","","","","26","","8","","","","101.31","","","","-3","","NA"
"-63.55","44.59","HALIFAX KOOTENAY","8202252","2018-12-20 21:00","2018","12","20","21:00","-0.5","","-1.8","","91","","","","27","","13","","","","101.37","","","","-5","","NA"
"-63.55","44.59","HALIFAX KOOTENAY","8202252","2018-12-20 22:00","2018","12","20","22:00","0.5","","-0.7","","92","","","","28","","10","","","","101.33","","","","","","NA"
"-63.55","44.59","HALIFAX KOOTENAY","8202252","2018-12-20 23:00","2018","12","20","23:00","0.6","","-0.4","","93","","","","26","","12","","","","101.36","","","","","","NA"
"-63.55","44.59","HALIFAX KOOTENAY","8202252","2018-12-21 00:00","2018","12","21","00:00","1.3","","0.5","","94","","","","22","","4","","","","101.32","","","","","","NA"
"-63.55","44.59","HALIFAX KOOTENAY","8202252","2018-12-21 01:00","2018","12","21","01:00","0.7","","0.0","","95","","","","25","","5","","","","101.32","","","","","","NA"
"-63.55","44.59","HALIFAX KOOTENAY","8202252","2018-12-21 02:00","2018","12","21","02:00","0.6","","0.1","","97","","","","21","","5","","","","101.35","","","","","","NA"
"-63.55","44.59","HALIFAX KOOTENAY","8202252","2018-12-21 03:00","2018","12","21","03:00","0.0","","-0.3","","98","","","","6","","7","","","","101.33","","","","-2","","NA"
"-63.55","44.59","HALIFAX KOOTENAY","8202252","2018-12-21 04:00","2018","12","21","04:00","-0.5","","-0.8","","98","","","","9","","1","","","","101.41","","","","-1","","NA"
"-63.55","44.59","HALIFAX KOOTENAY","8202252","2018-12-21 05:00","2018","12","21","05:00","0.2","","-0.1","","98","","","","9","","2","","","","101.42","","","","","","NA"
"-63.55","44.59","HALIFAX KOOTENAY","8202252","2018-12-21 06:00","2018","12","21","06:00","0.6","","0.3","","98","","","","10","","5","","","","101.40","","","","","","NA"
"-63.55","44.59","HALIFAX KOOTENAY","8202252","2018-12-21 07:00","2018","12","21","07:00","0.4","","0.2","","98","","","","7","","7","","","","101.36","","","","","","NA"
"-63.55","44.59","HALIFAX KOOTENAY","8202252","2018-12-21 08:00","2018","12","21","08:00","0.9","","0.7","","98","","","","9","","10","","","","101.39","","","","","","NA"
"-63.55","44.59","HALIFAX KOOTENAY","8202252","2018-12-21 09:00","2018","12","21","09:00","2.7","","2.4","","98","","","","16","","10","","","","101.46","","","","","","NA"
"-63.55","44.59","HALIFAX KOOTENAY","8202252","2018-12-21 10:00","2018","12","21","10:00","3.0","","2.7","","98","","","","10","","9","","","","101.46","","","","","","NA"
"-63.55","44.59","HALIFAX KOOTENAY","8202252","2018-12-21 11:00","2018","12","21","11:00","3.1","","2.8","","98","","","","11","","11","","","","101.38","","","","","","NA"
"-63.55","44.59","HALIFAX KOOTENAY","8202252","2018-12-21 12:00","2018","12","21","12:00","3.3","","3.0","","98","","","","12","","11","","","","101.31","","","","","","NA"
"-63.55","44.59","HALIFAX KOOTENAY","8202252","2018-12-21 13:00","2018","12","21","13:00","3.6","","3.3","","98","","","","9","","15","","","","101.23","","","","","","NA"
"-63.55","44.59","HALIFAX KOOTENAY","8202252","2018-12-21 14:00","2018","12","21","14:00","3.6","","3.3","","98","","","","9","","18","","","","101.17","","","","","","NA"
"-63.55","44.59","HALIFAX KOOTENAY","8202252","2018-12-21 15:00","2018","12","21","15:00","3.7","","3.4","","98","","","","10","","16","","","","101.10","","","","","","NA"
"-63.55","44.59","HALIFAX KOOTENAY","8202252","2018-12-21 16:00","2018","12","21","16:00","4.4","","4.1","","98","","","","12","","17","","","","101.00","","","","","","NA"
"-63.55","44.59","HALIFAX KOOTENAY","8202252","2018-12-21 17:00","2018","12","21","17:00","5.0","","4.6","","98","","","","15","","14","","","","100.97","","","","","","NA"
"-63.55","44.59","HALIFAX KOOTENAY","8202252","2018-12-21 18:00","2018","12","21","18:00","5.4","","5.1","","97","","","","17","","19","","","","100.89","","","","","","NA"
"-63.55","44.59","HALIFAX KOOTENAY","8202252","2018-12-21 19:00","2018","12","21","19:00","5.6","","5.2","","97","","","","17","","18","","","","100.84","","","","","","NA"
"-63.55","44.59","HALIFAX KOOTENAY","8202252","2018-12-21 20:00","2018","12","21","20:00","5.7","","5.2","","97","","","","17","","22","","","","100.73","","","","","","NA"
"-63.55","44.59","HALIFAX KOOTENAY","8202252","2018-12-21 21:00","2018","12","21","21:00","5.9","","5.5","","97","","","","17","","21","","","","100.71","","","","","","NA"
"-63.55","44.59","HALIFAX KOOTENAY","8202252","2018-12-21 22:00","2018","12","21","22:00","5.8","","5.4","","98","","","","16","","18","","","","100.56","","","","","","NA"
"-63.55","44.59","HALIFAX KOOTENAY","8202252","2018-12-21 23:00","2018","12","21","23:00","6.3","","6.0","","98","","","","16","","21","","","","100.49","","","","","","NA"
"-63.55","44.59","HALIFAX KOOTENAY","8202252","2018-12-22 00:00","2018","12","22","00:00","6.2","","5.9","","98","","","","16","","19","","","","100.38","","","","","","NA"
"-63.55","44.59","HALIFAX KOOTENAY","8202252","2018-12-22 01:00","2018","12","22","01:00","6.7","","6.4","","98","","","","17","","25","","","","100.19","","","","","","NA"
"-63.55","44.59","HALIFAX KOOTENAY","8202252","2018-12-22 02:00","2018","12","22","02:00","7.6","","7.3","","98","","","","16","","34","","","","100.07","","","","","","NA"
"-63.55","44.59","HALIFAX KOOTENAY","8202252","2018-12-22 03:00","2018","12","22","03:00","7.2","","6.9","","98","","","","17","","27","","","","99.95","","","","","","NA"
"-63.55","44.59","HALIFAX KOOTENAY","8202252","2018-12-22 04:00","2018","12","22","04:00","7.2","","6.9","","98","","","","17","","29","","","","99.86","","","","","","NA"
"-63.55","44.59","HALIFAX KOOTENAY","8202252","2018-12-22 05:00","2018","12","22","05:00","7.1","","6.8","","98","","","","17","","30","","","","99.75","","","","","","NA"
"-63.55","44.59","HALIFAX KOOTENAY","8202252","2018-12-22 06:00","2018","12","22","06:00","8.4","","8.1","","98","","","","18","","36","","","","99.59","","","","","","NA"
"-63.55","44.59","HALIFAX KOOTENAY","8202252","2018-12-22 07:00","2018","12","22","07:00","7.6","","7.3","","98","","","","17","","28","","","","99.43","","","","","","NA"
"-63.55","44.59","HALIFAX KOOTENAY","8202252","2018-12-22 08:00","2018","12","22","08:00","8.1","","7.8","","98","","","","17","","33","","","","99.30","","","","","","NA"
"-63.55","44.59","HALIFAX KOOTENAY","8202252","2018-12-22 09:00","2018","12","22","09:00","8.7","","8.4","","98","","","","17","","35","","","","99.25","","","","","","NA"
"-63.55","44.59","HALIFAX KOOTENAY","8202252","2018-12-22 10:00","2018","12","22","10:00","9.7","","9.4","","98","","","","17","","44","","","","99.03","","","","","","NA"
"-63.55","44.59","HALIFAX KOOTENAY","8202252","2018-12-22 11:00","2018","12","22","11:00","11.5","","11.3","","98","","","","19","","43","","","","99.06","","","","","","NA"
"-63.55","44.59","HALIFAX KOOTENAY","8202252","2018-12-22 12:00","2018","12","22","12:00","11.0","","10.8","","98","","","","19","","40","","","","98.90","","","","","","NA"
"-63.55","44.59","HALIFAX KOOTENAY","8202252","2018-12-22 13:00","2018","12","22","13:00","10.3","","10.0","","98","","","","19","","38","","","","98.74","","","","","","NA"
"-63.55","44.59","HALIFAX KOOTENAY","8202252","2018-12-22 14:00","2018","12","22","14:00","11.3","","11.1","","98","","","","21","","35","","","","98.66","","","","","","NA"
"-63.55","44.59","HALIFAX KOOTENAY","8202252","2018-12-22 15:00","2018","12","22","15:00","10.5","","10.2","","98","","","","20","","34","","","","98.66","","","","","","NA"
"-63.55","44.59","HALIFAX KOOTENAY","8202252","2018-12-22 16:00","2018","12","22","16:00","9.3","","9.0","","98","","","","22","","33","","","","98.63","","","","","","NA"
"-63.55","44.59","HALIFAX KOOTENAY","8202252","2018-12-22 17:00","2018","12","22","17:00","9.5","","9.3","","98","","","","23","","28","","","","98.65","","","","","","NA"
"-63.55","44.59","HALIFAX KOOTENAY","8202252","2018-12-22 18:00","2018","12","22","18:00","8.2","","7.9","","98","","","","23","","33","","","","98.61","","","","","","NA"
"-63.55","44.59","HALIFAX KOOTENAY","8202252","2018-12-22 19:00","2018","12","22","19:00","7.7","","7.5","","98","","","","23","","23","","","","98.60","","","","","","NA"
"-63.55","44.59","HALIFAX KOOTENAY","8202252","2018-12-22 20:00","2018","12","22","20:00","7.3","","7.0","","98","","","","23","","25","","","","98.66","","","","","","NA"
"-63.55","44.59","HALIFAX KOOTENAY","8202252","2018-12-22 21:00","2018","12","22","21:00","6.8","","6.6","","98","","","","23","","25","","","","98.67","","","","","","NA"
"-63.55","44.59","HALIFAX KOOTENAY","8202252","2018-12-22 22:00","2018","12","22","22:00","6.4","","6.2","","98","","","","24","","28","","","","98.66","","","","","","NA"
"-63.55","44.59","HALIFAX KOOTENAY","8202252","2018-12-22 23:00","2018","12","22","23:00","6.0","","5.8","","98","","","","22","","31","","","","98.69","","","","","","NA"
"-63.55","44.59","HALIFAX KOOTENAY","8202252","2018-12-23 00:00","2018","12","23","00:00","5.8","","5.6","","98","","","","23","","27","","","","98.67","","","","","","NA"
"-63.55","44.59","HALIFAX KOOTENAY","8202252","2018-12-23 01:00","2018","12","23","01:00","5.3","","5.1","","98","","","","23","","27","","","","98.62","","","","","","NA"
"-63.55","44.59","HALIFAX KOOTENAY","8202252","2018-12-23 02:00","2018","12","23","02:00","5.0","","4.8","","98","","","","24","","26","","","","98.64","","","","","","NA"
"-63.55","44.59","HALIFAX KOOTENAY","8202252","2018-12-23 03:00","2018","12","23","03:00","5.1","","4.9","","98","","","","25","","26","","","","98.70","","","","","","NA"
"-63.55","44.59","HALIFAX KOOTENAY","8202252","2018-12-23 04:00","2018","12","23","04:00","3.1","","2.9","","98","","","","28","","34","","","","98.89","","","","","","NA"
"-63.55","44.59","HALIFAX KOOTENAY","8202252","2018-12-23 05:00","2018","12","23","05:00","2.6","","2.1","","97","","","","29","","24","","","","99.08","","","","","","NA"
"-63.55","44.59","HALIFAX KOOTENAY","8202252","2018-12-23 06:00","2018","12","23","06:00","1.2","","0.3","","94","","","","28","","22","","","","99.26","","","","","","NA"
"-63.55","44.59","HALIFAX KOOTENAY","8202252","2018-12-23 07:00","2018","12","23","07:00","1.0","","-1.2","","85","","","","29","","29","","","","99.41","","","","","","NA"
"-63.55","44.59","HALIFAX KOOTENAY","8202252","2018-12-23 08:00","2018","12","23","08:00","0.9","","-1.6","","83","","","","28","","21","","","","99.60","","","","","","NA"
"-63.55","44.59","HALIFAX KOOTENAY","8202252","2018-12-23 09:00","2018","12","23","09:00","0.7","","-2.7","","78","","","","29","","32","","","","99.72","","","","","","NA"
"-63.55","44.59","HALIFAX KOOTENAY","8202252","2018-12-23 10:00","2018","12","23","10:00","0.9","","-3.4","","73","","","","28","","24","","","","99.91","","","","","","NA"
"-63.55","44.59","HALIFAX KOOTENAY","8202252","2018-12-23 11:00","2018","12","23","11:00","0.8","","-3.6","","72","","","","29","","25","","","","100.01","","","","","","NA"
"-63.55","44.59","HALIFAX KOOTENAY","8202252","2018-12-23 12:00","2018","12","23","12:00","1.3","","-4.7","","64","","","","29","","32","","","","99.96","","","","","","NA"
"-63.55","44.59","HALIFAX KOOTENAY","8202252","2018-12-23 13:00","2018","12","23","13:00","1.9","","-4.7","","61","","","","30","","26","","","","100.01","","","","","","NA"
"-63.55","44.59","HALIFAX KOOTENAY","8202252","2018-12-23 14:00","2018","12","23","14:00","2.3","","-4.2","","62","","","","29","","19","","","","100.10","","","","","","NA"
"-63.55","44.59","HALIFAX KOOTENAY","8202252","2018-12-23 15:00","2018","12","23","15:00","2.0","","-4.1","","64","","","","27","","20","","","","100.22","","","","","","NA"
"-63.55","44.59","HALIFAX KOOTENAY","8202252","2018-12-23 16:00","2018","12","23","16:00","1.4","","-4.8","","63","","","","29","","17","","","","100.30","","","","","","NA"
"-63.55","44.59","HALIFAX KOOTENAY","8202252","2018-12-23 17:00","2018","12","23","17:00","-0.2","","-5.1","","69","","","","28","","14","","","","100.48","","","","-4","","NA"
"-63.55","44.59","HALIFAX KOOTENAY","8202252","2018-12-23 18:00","2018","12","23","18:00","-1.0","","-5.5","","71","","","","29","","16","","","","100.55","","","","-6","","NA"
"-63.55","44.59","HALIFAX KOOTENAY","8202252","2018-12-23 19:00","2018","12","23","19:00","-1.9","","-5.7","","75","","","","28","","10","","","","100.65","","","","-6","","NA"
"-63.55","44.59","HALIFAX KOOTENAY","8202252","2018-12-23 20:00","2018","12","23","20:00","-2.4","","-5.8","","77","","","","28","","12","","","","100.72","","","","-7","","NA"
"-63.55","44.59","HALIFAX KOOTENAY","8202252","2018-12-23 21:00","2018","12","23","21:00","-3.0","","-5.9","","80","","","","28","","12","","","","100.73","","","","-7","","NA"
"-63.55","44.59","HALIFAX KOOTENAY","8202252","2018-12-23 22:00","2018","12","23","22:00","-3.0","","-6.4","","77","","","","29","","13","","","","100.77","","","","-8","","NA"
"-63.55","44.59","HALIFAX KOOTENAY","8202252","2018-12-23 23:00","2018","12","23","23:00","-3.5","","-6.8","","78","","","","30","","11","","","","100.79","","","","-8","","NA"
"-63.55","44.59","HALIFAX KOOTENAY","8202252","2018-12-24 00:00","2018","12","24","00:00","-4.5","","-7.0","","83","","","","27","","8","","","","100.78","","","","-8","","NA"
"-63.55","44.59","HALIFAX KOOTENAY","8202252","2018-12-24 01:00","2018","12","24","01:00","-4.6","","-7.4","","81","","","","30","","9","","","","100.82","","","","-8","","NA"
"-63.55","44.59","HALIFAX KOOTENAY","8202252","2018-12-24 02:00","2018","12","24","02:00","-5.1","","-7.4","","84","","","","28","","7","","","","100.85","","","","-8","","NA"
"-63.55","44.59","HALIFAX KOOTENAY","8202252","2018-12-24 03:00","2018","12","24","03:00","-5.5","","-7.5","","86","","","","29","","8","","","","100.88","","","","-9","","NA"
"-63.55","44.59","HALIFAX KOOTENAY","8202252","2018-12-24 04:00","2018","12","24","04:00","-5.0","","-9.3","","71","","","","32","","11","","","","100.89","","","","-10","","NA"
"-63.55","44.59","HALIFAX KOOTENAY","8202252","2018-12-24 05:00","2018","12","24","05:00","-5.2","","-10.1","","68","","","","34","","8","","","","100.84","","","","-9","","NA"
"-63.55","44.59","HALIFAX KOOTENAY","8202252","2018-12-24 06:00","2018","12","24","06:00","-5.6","","-10.7","","67","","","","33","","9","","","","100.84","","","","-10","","NA"
"-63.55","44.59","HALIFAX KOOTENAY","8202252","2018-12-24 07:00","2018","12","24","07:00","-5.4","","-10.0","","71","","","","36","","8","","","","100.83","","","","-9","","NA"
"-63.55","44.59","HALIFAX KOOTENAY","8202252","2018-12-24 08:00","2018","12","24","08:00","-5.8","","-10.4","","70","","","","34","","4","","","","100.84","","","","-8","","NA"
"-63.55","44.59","HALIFAX KOOTENAY","8202252","2018-12-24 09:00","2018","12","24","09:00","-5.5","","-10.2","","70","","","","5","","3","","","","100.84","","","","-7","","NA"
"-63.55","44.59","HALIFAX KOOTENAY","8202252","2018-12-24 10:00","2018","12","24","10:00","-5.1","","-10.0","","69","","","","6","","2","","","","100.79","","","","-6","","NA"
"-63.55","44.59","HALIFAX KOOTENAY","8202252","2018-12-24 11:00","2018","12","24","11:00","-4.2","","-9.7","","65","","","","8","","1","","","","100.71","","","","-5","","NA"
"-63.55","44.59","HALIFAX KOOTENAY","8202252","2018-12-24 12:00","2018","12","24","12:00","-3.8","","-8.9","","68","","","","32","","2","","","","100.57","","","","-5","","NA"
"-63.55","44.59","HALIFAX KOOTENAY","8202252","2018-12-24 13:00","2018","12","24","13:00","-2.8","","-7.0","","72","","","","25","","5","","","","100.48","","","","-5","","NA"
"-63.55","44.59","HALIFAX KOOTENAY","8202252","2018-12-24 14:00","2018","12","24","14:00","-2.1","","-7.2","","68","","","","29","","10","","","","100.44","","","","-6","","NA"
"-63.55","44.59","HALIFAX KOOTENAY","8202252","2018-12-24 15:00","2018","12","24","15:00","-2.4","","-8.2","","65","","","","30","","7","","","","100.46","","","","-5","","NA"
"-63.55","44.59","HALIFAX KOOTENAY","8202252","2018-12-24 16:00","2018","12","24","16:00","-2.8","","-7.9","","68","","","","28","","8","","","","100.46","","","","-6","","NA"
"-63.55","44.59","HALIFAX KOOTENAY","8202252","2018-12-24 17:00","2018","12","24","17:00","-3.5","","-7.5","","74","","","","28","","8","","","","100.44","","","","-7","","NA"
"-63.55","44.59","HALIFAX KOOTENAY","8202252","2018-12-24 18:00","2018","12","24","18:00","-4.2","","-7.2","","80","","","","29","","5","","","","100.42","","","","-6","","NA"
"-63.55","44.59","HALIFAX KOOTENAY","8202252","2018-12-24 19:00","2018","12","24","19:00","-4.6","","-7.2","","82","","","","29","","5","","","","100.41","","","","-7","","NA"
"-63.55","44.59","HALIFAX KOOTENAY","8202252","2018-12-24 20:00","2018","12","24","20:00","-5.3","","-7.5","","84","","","","27","","6","","","","100.39","","","","-8","","NA"
"-63.55","44.59","HALIFAX KOOTENAY","8202252","2018-12-24 21:00","2018","12","24","21:00","-5.2","","-7.8","","82","","","","30","","13","","","","100.36","","","","-10","","NA"
"-63.55","44.59","HALIFAX KOOTENAY","8202252","2018-12-24 22:00","2018","12","24","22:00","-6.0","","-8.1","","85","","","","28","","11","","","","100.33","","","","-11","","NA"
"-63.55","44.59","HALIFAX KOOTENAY","8202252","2018-12-24 23:00","2018","12","24","23:00","-6.3","","-8.4","","85","","","","29","","14","","","","100.29","","","","-12","","NA"
"-63.55","44.59","HALIFAX KOOTENAY","8202252","2018-12-25 00:00","2018","12","25","00:00","-6.6","","-8.4","","87","","","","29","","14","","","","100.26","","","","-12","","NA"
"-63.55","44.59","HALIFAX KOOTENAY","8202252","2018-12-25 01:00","2018","12","25","01:00","-7.2","","-8.7","","89","","","","30","","10","","","","100.27","","","","-12","","NA"
"-63.55","44.59","HALIFAX KOOTENAY","8202252","2018-12-25 02:00","2018","12","25","02:00","-7.3","","-9.6","","83","","","","31","","10","","","","100.27","","","","-12","","NA"
"-63.55","44.59","HALIFAX KOOTENAY","8202252","2018-12-25 03:00","2018","12","25","03:00","-8.3","","-9.9","","88","","","","29","","7","","","","100.31","","","","-12","","NA"
"-63.55","44.59","HALIFAX KOOTENAY","8202252","2018-12-25 04:00","2018","12","25","04:00","-8.0","","-9.8","","87","","","","30","","6","","","","100.28","","","","-11","","NA"
"-63.55","44.59","HALIFAX KOOTENAY","8202252","2018-12-25 05:00","2018","12","25","05:00","-8.0","","-9.6","","89","","","","29","","10","","","","100.27","","","","-13","","NA"
"-63.55","44.59","HALIFAX KOOTENAY","8202252","2018-12-25 06:00","2018","12","25","06:00","-8.3","","-10.2","","86","","","","29","","11","","","","100.31","","","","-14","","NA"
"-63.55","44.59","HALIFAX KOOTENAY","8202252","2018-12-25 07:00","2018","12","25","07:00","-8.8","","-10.7","","86","","","","29","","12","","","","100.32","","","","-14","","NA"
"-63.55","44.59","HALIFAX KOOTENAY","8202252","2018-12-25 08:00","2018","12","25","08:00","-9.2","","-11.2","","86","","","","29","","12","","","","100.36","","","","-15","","NA"
"-63.55","44.59","HALIFAX KOOTENAY","8202252","2018-12-25 09:00","2018","12","25","09:00","-8.2","","-10.9","","81","","","","29","","12","","","","100.47","","","","-14","","NA"
"-63.55","44.59","HALIFAX KOOTENAY","8202252","2018-12-25 10:00","2018","12","25","10:00","-7.6","","-11.4","","74","","","","29","","19","","","","100.49","","","","-15","","NA"
"-63.55","44.59","HALIFAX KOOTENAY","8202252","2018-12-25 11:00","2018","12","25","11:00","-7.7","","-11.9","","72","","","","31","","19","","","","100.50","","","","-15","","NA"
"-63.55","44.59","HALIFAX KOOTENAY","8202252","2018-12-25 12:00","2018","12","25","12:00","-7.8","","-12.4","","69","","","","32","","18","","","","100.45","","","","-15","","NA"
"-63.55","44.59","HALIFAX KOOTENAY","8202252","2018-12-25 13:00","2018","12","25","13:00","-7.0","","-12.2","","66","","","","33","","14","","","","100.45","","","","-13","","NA"
"-63.55","44.59","HALIFAX KOOTENAY","8202252","2018-12-25 14:00","2018","12","25","14:00","-8.2","","-12.9","","69","","","","32","","18","","","","100.48","","","","-15","","NA"
"-63.55","44.59","HALIFAX KOOTENAY","8202252","2018-12-25 15:00","2018","12","25","15:00","-7.9","","-13.3","","65","","","","31","","18","","","","100.55","","","","-15","","NA"
"-63.55","44.59","HALIFAX KOOTENAY","8202252","2018-12-25 16:00","2018","12","25","16:00","-9.1","","-14.0","","68","","","","32","","18","","","","100.66","","","","-16","","NA"
"-63.55","44.59","HALIFAX KOOTENAY","8202252","2018-12-25 17:00","2018","12","25","17:00","-9.4","","-13.7","","71","","","","29","","19","","","","100.73","","","","-17","","NA"
"-63.55","44.59","HALIFAX KOOTENAY","8202252","2018-12-25 18:00","2018","12","25","18:00","-9.6","","-13.5","","73","","","","29","","17","","","","100.77","","","","-17","","NA"
"-63.55","44.59","HALIFAX KOOTENAY","8202252","2018-12-25 19:00","2018","12","25","19:00","-10.3","","-13.4","","78","","","","27","","8","","","","100.85","","","","-15","","NA"
"-63.55","44.59","HALIFAX KOOTENAY","8202252","2018-12-25 20:00","2018","12","25","20:00","-11.0","","-13.5","","82","","","","28","","7","","","","100.87","","","","-15","","NA"
"-63.55","44.59","HALIFAX KOOTENAY","8202252","2018-12-25 21:00","2018","12","25","21:00","-10.8","","-13.3","","82","","","","27","","8","","","","100.90","","","","-15","","NA"
"-63.55","44.59","HALIFAX KOOTENAY","8202252","2018-12-25 22:00","2018","12","25","22:00","-10.6","","-13.1","","82","","","","29","","14","","","","100.93","","","","-17","","NA"
"-63.55","44.59","HALIFAX KOOTENAY","8202252","2018-12-25 23:00","2018","12","25","23:00","-11.5","","-13.4","","85","","","","27","","11","","","","100.95","","","","-17","","NA"
"-63.55","44.59","HALIFAX KOOTENAY","8202252","2018-12-26 00:00","2018","12","26","00:00","-11.1","","-13.4","","84","","","","27","","12","","","","100.97","","","","-17","","NA"
"-63.55","44.59","HALIFAX KOOTENAY","8202252","2018-12-26 01:00","2018","12","26","01:00","-10.9","","-13.4","","82","","","","29","","14","","","","101.01","","","","-18","","NA"
"-63.55","44.59","HALIFAX KOOTENAY","8202252","2018-12-26 02:00","2018","12","26","02:00","-11.1","","-13.5","","82","","","","29","","12","","","","101.06","","","","-17","","NA"
"-63.55","44.59","HALIFAX KOOTENAY","8202252","2018-12-26 03:00","2018","12","26","03:00","-11.2","","-13.5","","83","","","","29","","13","","","","101.12","","","","-18","","NA"
"-63.55","44.59","HALIFAX KOOTENAY","8202252","2018-12-26 04:00","2018","12","26","04:00","-12.4","","-14.2","","86","","","","27","","9","","","","101.13","","","","-18","","NA"
"-63.55","44.59","HALIFAX KOOTENAY","8202252","2018-12-26 05:00","2018","12","26","05:00","-12.7","","-14.5","","87","","","","27","","8","","","","101.14","","","","-18","","NA"
"-63.55","44.59","HALIFAX KOOTENAY","8202252","2018-12-26 06:00","2018","12","26","06:00","-12.8","","-14.6","","86","","","","27","","9","","","","101.18","","","","-18","","NA"
"-63.55","44.59","HALIFAX KOOTENAY","8202252","2018-12-26 07:00","2018","12","26","07:00","-12.5","","-14.6","","85","","","","28","","11","","","","101.23","","","","-19","","NA"
"-63.55","44.59","HALIFAX KOOTENAY","8202252","2018-12-26 08:00","2018","12","26","08:00","-12.3","","-14.4","","85","","","","29","","12","","","","101.29","","","","-19","","NA"
"-63.55","44.59","HALIFAX KOOTENAY","8202252","2018-12-26 09:00","2018","12","26","09:00","-10.8","","-13.3","","82","","","","27","","9","","","","101.36","","","","-16","","NA"
"-63.55","44.59","HALIFAX KOOTENAY","8202252","2018-12-26 10:00","2018","12","26","10:00","-7.8","","-11.4","","75","","","","29","","11","","","","101.37","","","","-13","","NA"
"-63.55","44.59","HALIFAX KOOTENAY","8202252","2018-12-26 11:00","2018","12","26","11:00","-6.3","","-11.0","","70","","","","30","","11","","","","101.33","","","","-11","","NA"
"-63.55","44.59","HALIFAX KOOTENAY","8202252","2018-12-26 12:00","2018","12","26","12:00","-4.0","","-10.1","","63","","","","28","","8","","","","101.26","","","","-7","","NA"
"-63.55","44.59","HALIFAX KOOTENAY","8202252","2018-12-26 13:00","2018","12","26","13:00","-2.3","","-11.8","","48","","","","28","","9","","","","101.22","","","","-6","","NA"
"-63.55","44.59","HALIFAX KOOTENAY","8202252","2018-12-26 14:00","2018","12","26","14:00","-1.3","","-15.3","","34","","","","28","","15","","","","101.20","","","","-6","","NA"
"-63.55","44.59","HALIFAX KOOTENAY","8202252","2018-12-26 15:00","2018","12","26","15:00","-0.6","","-15.6","","31","","","","30","","14","","","","101.21","","","","-5","","NA"
"-63.55","44.59","HALIFAX KOOTENAY","8202252","2018-12-26 16:00","2018","12","26","16:00","-0.8","","-14.3","","35","","","","27","","12","","","","101.24","","","","-5","","NA"
"-63.55","44.59","HALIFAX KOOTENAY","8202252","2018-12-26 17:00","2018","12","26","17:00","-2.6","","-15.4","","37","","","","30","","13","","","","101.25","","","","-7","","NA"
"-63.55","44.59","HALIFAX KOOTENAY","8202252","2018-12-26 18:00","2018","12","26","18:00","-4.1","","-14.2","","45","","","","28","","13","","","","101.27","","","","-9","","NA"
"-63.55","44.59","HALIFAX KOOTENAY","8202252","2018-12-26 19:00","2018","12","26","19:00","-4.9","","-13.6","","51","","","","29","","17","","","","101.29","","","","-11","","NA"
"-63.55","44.59","HALIFAX KOOTENAY","8202252","2018-12-26 20:00","2018","12","26","20:00","-6.1","","-12.2","","62","","","","27","","19","","","","101.32","","","","-13","","NA"
"-63.55","44.59","HALIFAX KOOTENAY","8202252","2018-12-26 21:00","2018","12","26","21:00","-6.6","","-10.8","","72","","","","28","","17","","","","101.34","","","","-13","","NA"
"-63.55","44.59","HALIFAX KOOTENAY","8202252","2018-12-26 22:00","2018","12","26","22:00","-6.6","","-11.6","","67","","","","29","","16","","","","101.36","","","","-13","","NA"
"-63.55","44.59","HALIFAX KOOTENAY","8202252","2018-12-26 23:00","2018","12","26","23:00","-6.4","","-12.3","","63","","","","29","","11","","","","101.38","","","","-11","","NA"
"-63.55","44.59","HALIFAX KOOTENAY","8202252","2018-12-27 00:00","2018","12","27","00:00","-7.8","","-12.5","","69","","","","28","","13","","","","101.36","","","","-14","","NA"
"-63.55","44.59","HALIFAX KOOTENAY","8202252","2018-12-27 01:00","2018","12","27","01:00","-7.6","","-12.8","","66","","","","29","","21","","","","101.35","","","","-15","","NA"
"-63.55","44.59","HALIFAX KOOTENAY","8202252","2018-12-27 02:00","2018","12","27","02:00","-7.4","","-13.1","","64","","","","29","","21","","","","101.42","","","","-15","","NA"
"-63.55","44.59","HALIFAX KOOTENAY","8202252","2018-12-27 03:00","2018","12","27","03:00","-7.8","","-13.2","","65","","","","29","","17","","","","101.50","","","","-14","","NA"
"-63.55","44.59","HALIFAX KOOTENAY","8202252","2018-12-27 04:00","2018","12","27","04:00","-8.2","","-12.9","","69","","","","29","","20","","","","101.52","","","","-16","","NA"
"-63.55","44.59","HALIFAX KOOTENAY","8202252","2018-12-27 05:00","2018","12","27","05:00","-8.3","","-12.7","","70","","","","29","","19","","","","101.55","","","","-16","","NA"
"-63.55","44.59","HALIFAX KOOTENAY","8202252","2018-12-27 06:00","2018","12","27","06:00","-8.1","","-13.7","","64","","","","30","","26","","","","101.62","","","","-16","","NA"
"-63.55","44.59","HALIFAX KOOTENAY","8202252","2018-12-27 07:00","2018","12","27","07:00","-9.3","","-15.1","","63","","","","31","","31","","","","101.70","","","","-19","","NA"
"-63.55","44.59","HALIFAX KOOTENAY","8202252","2018-12-27 08:00","2018","12","27","08:00","-10.2","","-15.4","","66","","","","30","","31","","","","101.80","","","","-20","","NA"
"-63.55","44.59","HALIFAX KOOTENAY","8202252","2018-12-27 09:00","2018","12","27","09:00","-10.4","","-17.1","","58","","","","32","","27","","","","101.93","","","","-20","","NA"
"-63.55","44.59","HALIFAX KOOTENAY","8202252","2018-12-27 10:00","2018","12","27","10:00","-10.1","","-18.3","","51","","","","32","","31","","","","102.05","","","","-20","","NA"
"-63.55","44.59","HALIFAX KOOTENAY","8202252","2018-12-27 11:00","2018","12","27","11:00","-9.9","","-19.1","","47","","","","31","","31","","","","102.04","","","","-20","","NA"
"-63.55","44.59","HALIFAX KOOTENAY","8202252","2018-12-27 12:00","2018","12","27","12:00","-9.6","","-18.8","","47","","","","32","","31","","","","102.00","","","","-19","","NA"
"-63.55","44.59","HALIFAX KOOTENAY","8202252","2018-12-27 13:00","2018","12","27","13:00","-9.2","","-18.4","","47","","","","32","","24","","","","102.03","","","","-18","","NA"
"-63.55","44.59","HALIFAX KOOTENAY","8202252","2018-12-27 14:00","2018","12","27","14:00","-8.9","","-18.7","","45","","","","32","","24","","","","102.13","","","","-17","","NA"
"-63.55","44.59","HALIFAX KOOTENAY","8202252","2018-12-27 15:00","2018","12","27","15:00","-8.7","","-18.6","","45","","","","32","","27","","","","102.21","","","","-17","","NA"
"-63.55","44.59","HALIFAX KOOTENAY","8202252","2018-12-27 16:00","2018","12","27","16:00","-8.7","","-18.0","","47","","","","30","","22","","","","102.28","","","","-17","","NA"
"-63.55","44.59","HALIFAX KOOTENAY","8202252","2018-12-27 17:00","2018","12","27","17:00","-9.6","","-17.2","","54","","","","30","","13","","","","102.38","","","","-16","","NA"
"-63.55","44.59","HALIFAX KOOTENAY","8202252","2018-12-27 18:00","2018","12","27","18:00","-10.4","","-17.0","","58","","","","28","","9","","","","102.49","","","","-15","","NA"
"-63.55","44.59","HALIFAX KOOTENAY","8202252","2018-12-27 19:00","2018","12","27","19:00","-10.9","","-16.5","","64","","","","29","","15","","","","102.54","","","","-18","","NA"
"-63.55","44.59","HALIFAX KOOTENAY","8202252","2018-12-27 20:00","2018","12","27","20:00","-11.3","","-16.3","","67","","","","28","","9","","","","102.62","","","","-16","","NA"
"-63.55","44.59","HALIFAX KOOTENAY","8202252","2018-12-27 21:00","2018","12","27","21:00","-12.2","","-16.7","","69","","","","28","","12","","","","102.68","","","","-19","","NA"
"-63.55","44.59","HALIFAX KOOTENAY","8202252","2018-12-27 22:00","2018","12","27","22:00","-11.8","","-16.9","","66","","","","30","","10","","","","102.66","","","","-17","","NA"
"-63.55","44.59","HALIFAX KOOTENAY","8202252","2018-12-27 23:00","2018","12","27","23:00","-10.5","","-16.8","","59","","","","34","","12","","","","102.63","","","","-17","","NA"
"-63.55","44.59","HALIFAX KOOTENAY","8202252","2018-12-28 00:00","2018","12","28","00:00","-11.2","","-16.8","","63","","","","31","","9","","","","102.67","","","","-16","","NA"
"-63.55","44.59","HALIFAX KOOTENAY","8202252","2018-12-28 01:00","2018","12","28","01:00","-12.3","","-16.7","","69","","","","31","","11","","","","102.66","","","","-18","","NA"
"-63.55","44.59","HALIFAX KOOTENAY","8202252","2018-12-28 02:00","2018","12","28","02:00","-11.6","","-16.5","","67","","","","31","","12","","","","102.67","","","","-18","","NA"
"-63.55","44.59","HALIFAX KOOTENAY","8202252","2018-12-28 03:00","2018","12","28","03:00","-12.5","","-16.7","","71","","","","30","","6","","","","102.68","","","","-16","","NA"
"-63.55","44.59","HALIFAX KOOTENAY","8202252","2018-12-28 04:00","2018","12","28","04:00","-13.6","","-16.9","","76","","","","27","","8","","","","102.66","","","","-19","","NA"
"-63.55","44.59","HALIFAX KOOTENAY","8202252","2018-12-28 05:00","2018","12","28","05:00","-13.6","","-16.8","","76","","","","28","","9","","","","102.69","","","","-19","","NA"
"-63.55","44.59","HALIFAX KOOTENAY","8202252","2018-12-28 06:00","2018","12","28","06:00","-12.7","","-16.2","","75","","","","29","","6","","","","102.68","","","","-17","","NA"
"-63.55","44.59","HALIFAX KOOTENAY","8202252","2018-12-28 07:00","2018","12","28","07:00","-12.4","","-15.5","","77","","","","27","","7","","","","102.71","","","","-17","","NA"
"-63.55","44.59","HALIFAX KOOTENAY","8202252","2018-12-28 08:00","2018","12","28","08:00","-12.1","","-15.3","","77","","","","27","","7","","","","102.81","","","","-16","","NA"
"-63.55","44.59","HALIFAX KOOTENAY","8202252","2018-12-28 09:00","2018","12","28","09:00","-10.3","","-15.3","","67","","","","27","","1","","","","102.69","","","","-11","","NA"
"-63.55","44.59","HALIFAX KOOTENAY","8202252","2018-12-28 10:00","2018","12","28","10:00","-8.6","","-12.7","","72","","","","19","","4","","","","102.64","","","","-11","","NA"
"-63.55","44.59","HALIFAX KOOTENAY","8202252","2018-12-28 11:00","2018","12","28","11:00","-8.3","","-13.7","","65","","","","23","","9","","","","102.59","","","","-13","","NA"
"-63.55","44.59","HALIFAX KOOTENAY","8202252","2018-12-28 12:00","2018","12","28","12:00","-8.1","","-13.4","","66","","","","24","","3","","","","102.51","","","","-10","","NA"
"-63.55","44.59","HALIFAX KOOTENAY","8202252","2018-12-28 13:00","2018","12","28","13:00","-8.3","","-9.6","","90","","","","21","","3","","","","102.45","","","","-10","","NA"
"-63.55","44.59","HALIFAX KOOTENAY","8202252","2018-12-28 14:00","2018","12","28","14:00","-6.9","","-8.1","","92","","","","18","","5","","","","102.36","","","","-9","","NA"
"-63.55","44.59","HALIFAX KOOTENAY","8202252","2018-12-28 15:00","2018","12","28","15:00","-5.2","","-7.0","","87","","","","18","","11","","","","102.23","","","","-10","","NA"
"-63.55","44.59","HALIFAX KOOTENAY","8202252","2018-12-28 16:00","2018","12","28","16:00","-4.6","","-5.5","","94","","","","17","","17","","","","102.09","","","","-10","","NA"
"-63.55","44.59","HALIFAX KOOTENAY","8202252","2018-12-28 17:00","2018","12","28","17:00","-3.5","","-4.1","","95","","","","16","","25","","","","101.96","","","","-10","","NA"
"-63.55","44.59","HALIFAX KOOTENAY","8202252","2018-12-28 18:00","2018","12","28","18:00","-2.6","","-3.1","","96","","","","15","","27","","","","101.80","","","","-10","","NA"
"-63.55","44.59","HALIFAX KOOTENAY","8202252","2018-12-28 19:00","2018","12","28","19:00","-1.6","","-2.0","","97","","","","15","","27","","","","101.63","","","","-8","","NA"
"-63.55","44.59","HALIFAX KOOTENAY","8202252","2018-12-28 20:00","2018","12","28","20:00","-0.8","","-1.1","","98","","","","15","","27","","","","101.45","","","","-7","","NA"
"-63.55","44.59","HALIFAX KOOTENAY","8202252","2018-12-28 21:00","2018","12","28","21:00","-0.1","","-0.3","","98","","","","15","","30","","","","101.27","","","","-7","","NA"
"-63.55","44.59","HALIFAX KOOTENAY","8202252","2018-12-28 22:00","2018","12","28","22:00","0.7","","0.4","","98","","","","15","","29","","","","101.00","","","","","","NA"
"-63.55","44.59","HALIFAX KOOTENAY","8202252","2018-12-28 23:00","2018","12","28","23:00","1.7","","1.4","","98","","","","15","","28","","","","100.72","","","","","","NA"
"-63.55","44.59","HALIFAX KOOTENAY","8202252","2018-12-29 00:00","2018","12","29","00:00","2.7","","2.5","","98","","","","15","","23","","","","100.36","","","","","","NA"
"-63.55","44.59","HALIFAX KOOTENAY","8202252","2018-12-29 01:00","2018","12","29","01:00","4.4","","4.0","","98","","","","19","","29","","","","100.09","","","","","","NA"
"-63.55","44.59","HALIFAX KOOTENAY","8202252","2018-12-29 02:00","2018","12","29","02:00","5.4","","5.1","","98","","","","22","","30","","","","99.89","","","","","","NA"
"-63.55","44.59","HALIFAX KOOTENAY","8202252","2018-12-29 03:00","2018","12","29","03:00","5.8","","5.5","","98","","","","23","","30","","","","99.72","","","","","","NA"
"-63.55","44.59","HALIFAX KOOTENAY","8202252","2018-12-29 04:00","2018","12","29","04:00","6.8","","6.5","","98","","","","24","","19","","","","99.58","","","","","","NA"
"-63.55","44.59","HALIFAX KOOTENAY","8202252","2018-12-29 05:00","2018","12","29","05:00","6.3","","6.0","","98","","","","24","","23","","","","99.50","","","","","","NA"
"-63.55","44.59","HALIFAX KOOTENAY","8202252","2018-12-29 06:00","2018","12","29","06:00","5.5","","5.2","","98","","","","24","","16","","","","99.44","","","","","","NA"
"-63.55","44.59","HALIFAX KOOTENAY","8202252","2018-12-29 07:00","2018","12","29","07:00","5.1","","4.8","","98","","","","27","","14","","","","99.51","","","","","","NA"
"-63.55","44.59","HALIFAX KOOTENAY","8202252","2018-12-29 08:00","2018","12","29","08:00","4.7","","4.4","","98","","","","27","","8","","","","99.49","","","","","","NA"
"-63.55","44.59","HALIFAX KOOTENAY","8202252","2018-12-29 09:00","2018","12","29","09:00","5.3","","5.1","","98","","","","26","","15","","","","99.49","","","","","","NA"
"-63.55","44.59","HALIFAX KOOTENAY","8202252","2018-12-29 10:00","2018","12","29","10:00","5.4","","5.2","","98","","","","28","","16","","","","99.45","","","","","","NA"
"-63.55","44.59","HALIFAX KOOTENAY","8202252","2018-12-29 11:00","2018","12","29","11:00","5.1","","4.8","","98","","","","30","","17","","","","99.40","","","","","","NA"
"-63.55","44.59","HALIFAX KOOTENAY","8202252","2018-12-29 12:00","2018","12","29","12:00","6.0","","5.7","","98","","","","27","","8","","","","99.34","","","","","","NA"
"-63.55","44.59","HALIFAX KOOTENAY","8202252","2018-12-29 13:00","2018","12","29","13:00","7.3","","7.0","","98","","","","27","","12","","","","99.28","","","","","","NA"
"-63.55","44.59","HALIFAX KOOTENAY","8202252","2018-12-29 14:00","2018","12","29","14:00","8.6","","6.9","","89","","","","26","","11","","","","99.28","","","","","","NA"
"-63.55","44.59","HALIFAX KOOTENAY","8202252","2018-12-29 15:00","2018","12","29","15:00","6.3","","5.5","","95","","","","27","","17","","","","99.34","","","","","","NA"
"-63.55","44.59","HALIFAX KOOTENAY","8202252","2018-12-29 16:00","2018","12","29","16:00","6.4","","5.9","","97","","","","31","","16","","","","99.30","","","","","","NA"
"-63.55","44.59","HALIFAX KOOTENAY","8202252","2018-12-29 17:00","2018","12","29","17:00","6.1","","5.6","","97","","","","30","","13","","","","99.34","","","","","","NA"
"-63.55","44.59","HALIFAX KOOTENAY","8202252","2018-12-29 18:00","2018","12","29","18:00","5.4","","5.0","","97","","","","29","","13","","","","99.45","","","","","","NA"
"-63.55","44.59","HALIFAX KOOTENAY","8202252","2018-12-29 19:00","2018","12","29","19:00","5.6","","4.9","","96","","","","31","","19","","","","99.54","","","","","","NA"
"-63.55","44.59","HALIFAX KOOTENAY","8202252","2018-12-29 20:00","2018","12","29","20:00","3.8","","2.9","","94","","","","33","","19","","","","99.64","","","","","","NA"
"-63.55","44.59","HALIFAX KOOTENAY","8202252","2018-12-29 21:00","2018","12","29","21:00","1.1","","0.2","","93","","","","34","","20","","","","99.75","","","","","","NA"
"-63.55","44.59","HALIFAX KOOTENAY","8202252","2018-12-29 22:00","2018","12","29","22:00","0.1","","-0.7","","94","","","","34","","17","","","","99.90","","","","","","NA"
"-63.55","44.59","HALIFAX KOOTENAY","8202252","2018-12-29 23:00","2018","12","29","23:00","-0.4","","-1.1","","96","","","","34","","12","","","","99.97","","","","-4","","NA"
"-63.55","44.59","HALIFAX KOOTENAY","8202252","2018-12-30 00:00","2018","12","30","00:00","-0.8","","-2.1","","91","","","","33","","20","","","","100.06","","","","-6","","NA"
"-63.55","44.59","HALIFAX KOOTENAY","8202252","2018-12-30 01:00","2018","12","30","01:00","-2.0","","-4.0","","86","","","","33","","24","","","","100.19","","","","-8","","NA"
"-63.55","44.59","HALIFAX KOOTENAY","8202252","2018-12-30 02:00","2018","12","30","02:00","-3.3","","-5.8","","83","","","","34","","25","","","","100.31","","","","-10","","NA"
"-63.55","44.59","HALIFAX KOOTENAY","8202252","2018-12-30 03:00","2018","12","30","03:00","-4.2","","-6.9","","81","","","","34","","25","","","","100.46","","","","-11","","NA"
"-63.55","44.59","HALIFAX KOOTENAY","8202252","2018-12-30 04:00","2018","12","30","04:00","-5.3","","-8.2","","80","","","","33","","24","","","","100.55","","","","-13","","NA"
"-63.55","44.59","HALIFAX KOOTENAY","8202252","2018-12-30 05:00","2018","12","30","05:00","-6.4","","-9.4","","79","","","","34","","27","","","","100.59","","","","-14","","NA"
"-63.55","44.59","HALIFAX KOOTENAY","8202252","2018-12-30 06:00","2018","12","30","06:00","-7.6","","-10.6","","79","","","","35","","25","","","","100.74","","","","-16","","NA"
"-63.55","44.59","HALIFAX KOOTENAY","8202252","2018-12-30 07:00","2018","12","30","07:00","-8.6","","-11.6","","79","","","","34","","20","","","","100.83","","","","-16","","NA"
"-63.55","44.59","HALIFAX KOOTENAY","8202252","2018-12-30 08:00","2018","12","30","08:00","-9.1","","-11.9","","80","","","","34","","18","","","","101.01","","","","-16","","NA"
"-63.55","44.59","HALIFAX KOOTENAY","8202252","2018-12-30 09:00","2018","12","30","09:00","-8.8","","-11.9","","79","","","","34","","14","","","","101.08","","","","-15","","NA"
"-63.55","44.59","HALIFAX KOOTENAY","8202252","2018-12-30 10:00","2018","12","30","10:00","-9.0","","-12.2","","77","","","","32","","15","","","","101.11","","","","-16","","NA"
"-63.55","44.59","HALIFAX KOOTENAY","8202252","2018-12-30 11:00","2018","12","30","11:00","-9.3","","-13.2","","73","","","","33","","18","","","","101.09","","","","-17","","NA"
"-63.55","44.59","HALIFAX KOOTENAY","8202252","2018-12-30 12:00","2018","12","30","12:00","-8.3","","-12.8","","70","","","","34","","16","","","","101.09","","","","-15","","NA"
"-63.55","44.59","HALIFAX KOOTENAY","8202252","2018-12-30 13:00","2018","12","30","13:00","-8.6","","-13.2","","69","","","","34","","18","","","","101.08","","","","-16","","NA"
"-63.55","44.59","HALIFAX KOOTENAY","8202252","2018-12-30 14:00","2018","12","30","14:00","-8.4","","-13.1","","69","","","","35","","14","","","","101.06","","","","-15","","NA"
"-63.55","44.59","HALIFAX KOOTENAY","8202252","2018-12-30 15:00","2018","12","30","15:00","-8.2","","-12.7","","70","","","","34","","13","","","","101.17","","","","-14","","NA"
"-63.55","44.59","HALIFAX KOOTENAY","8202252","2018-12-30 16:00","2018","12","30","16:00","-8.5","","-12.9","","71","","","","34","","14","","","","101.26","","","","-15","","NA"
"-63.55","44.59","HALIFAX KOOTENAY","8202252","2018-12-30 17:00","2018","12","30","17:00","-8.9","","-13.0","","72","","","","34","","13","","","","101.32","","","","-15","","NA"
"-63.55","44.59","HALIFAX KOOTENAY","8202252","2018-12-30 18:00","2018","12","30","18:00","-9.4","","-13.0","","75","","","","33","","13","","","","101.37","","","","-15","","NA"
"-63.55","44.59","HALIFAX KOOTENAY","8202252","2018-12-30 19:00","2018","12","30","19:00","-9.7","","-12.8","","78","","","","34","","14","","","","101.43","","","","-16","","NA"
"-63.55","44.59","HALIFAX KOOTENAY","8202252","2018-12-30 20:00","2018","12","30","20:00","-10.0","","-12.8","","80","","","","33","","14","","","","101.52","","","","-16","","NA"
"-63.55","44.59","HALIFAX KOOTENAY","8202252","2018-12-30 21:00","2018","12","30","21:00","-10.2","","-13.3","","78","","","","34","","15","","","","101.59","","","","-17","","NA"
"-63.55","44.59","HALIFAX KOOTENAY","8202252","2018-12-30 22:00","2018","12","30","22:00","-10.4","","-13.3","","79","","","","32","","12","","","","101.60","","","","-16","","NA"
"-63.55","44.59","HALIFAX KOOTENAY","8202252","2018-12-30 23:00","2018","12","30","23:00","-10.7","","-13.0","","83","","","","32","","11","","","","101.61","","","","-16","","NA"
"-63.55","44.59","HALIFAX KOOTENAY","8202252","2018-12-31 00:00","2018","12","31","00:00","-11.5","","-13.5","","86","","","","31","","10","","","","101.62","","","","-17","","NA"
"-63.55","44.59","HALIFAX KOOTENAY","8202252","2018-12-31 01:00","2018","12","31","01:00","-11.1","","-13.7","","81","","","","33","","14","","","","101.65","","","","-18","","NA"
"-63.55","44.59","HALIFAX KOOTENAY","8202252","2018-12-31 02:00","2018","12","31","02:00","-11.6","","-14.1","","82","","","","31","","15","","","","101.79","","","","-19","","NA"
"-63.55","44.59","HALIFAX KOOTENAY","8202252","2018-12-31 03:00","2018","12","31","03:00","-11.1","","-13.8","","80","","","","33","","13","","","","101.84","","","","-18","","NA"
"-63.55","44.59","HALIFAX KOOTENAY","8202252","2018-12-31 04:00","2018","12","31","04:00","-10.8","","-13.2","","83","","","","35","","11","","","","101.83","","","","-17","","NA"
"-63.55","44.59","HALIFAX KOOTENAY","8202252","2018-12-31 05:00","2018","12","31","05:00","-11.3","","-13.3","","85","","","","33","","10","","","","101.85","","","","-17","","NA"
"-63.55","44.59","HALIFAX KOOTENAY","8202252","2018-12-31 06:00","2018","12","31","06:00","-12.5","","-14.0","","88","","","","29","","5","","","","101.88","","","","-16","","NA"
"-63.55","44.59","HALIFAX KOOTENAY","8202252","2018-12-31 07:00","2018","12","31","07:00","-11.5","","-13.6","","84","","","","32","","13","","","","101.99","","","","-18","","NA"
"-63.55","44.59","HALIFAX KOOTENAY","8202252","2018-12-31 08:00","2018","12","31","08:00","-11.4","","-13.7","","83","","","","31","","11","","","","102.08","","","","-17","","NA"
"-63.55","44.59","HALIFAX KOOTENAY","8202252","2018-12-31 09:00","2018","12","31","09:00","-10.6","","-13.3","","81","","","","29","","4","","","","102.11","","","","-13","","NA"
"-63.55","44.59","HALIFAX KOOTENAY","8202252","2018-12-31 10:00","2018","12","31","10:00","-7.8","","-13.7","","62","","","","35","","8","","","","102.13","","","","-12","","NA"
"-63.55","44.59","HALIFAX KOOTENAY","8202252","2018-12-31 11:00","2018","12","31","11:00","-6.9","","-13.0","","62","","","","1","","5","","","","102.10","","","","-9","","NA"
"-63.55","44.59","HALIFAX KOOTENAY","8202252","2018-12-31 12:00","2018","12","31","12:00","-4.9","","-12.6","","54","","","","30","","4","","","","102.07","","","","-7","","NA"
"-63.55","44.59","HALIFAX KOOTENAY","8202252","2018-12-31 13:00","2018","12","31","13:00","-3.7","","-11.4","","55","","","","29","","10","","","","102.09","","","","-8","","NA"
"-63.55","44.59","HALIFAX KOOTENAY","8202252","2018-12-31 14:00","2018","12","31","14:00","-2.8","","-11.6","","51","","","","31","","9","","","","102.02","","","","-6","","NA"
"-63.55","44.59","HALIFAX KOOTENAY","8202252","2018-12-31 15:00","2018","12","31","15:00","-2.0","","-10.2","","54","","","","27","","5","","","","102.00","","","","-4","","NA"
"-63.55","44.59","HALIFAX KOOTENAY","8202252","2018-12-31 16:00","2018","12","31","16:00","-2.5","","-9.3","","59","","","","28","","9","","","","102.04","","","","-6","","NA"
"-63.55","44.59","HALIFAX KOOTENAY","8202252","2018-12-31 17:00","2018","12","31","17:00","-4.5","","-9.0","","71","","","","25","","14","","","","102.03","","","","-10","","NA"
"-63.55","44.59","HALIFAX KOOTENAY","8202252","2018-12-31 18:00","2018","12","31","18:00","-5.3","","-9.3","","74","","","","26","","6","","","","102.08","","","","-8","","NA"
"-63.55","44.59","HALIFAX KOOTENAY","8202252","2018-12-31 19:00","2018","12","31","19:00","-4.9","","-8.5","","76","","","","25","","11","","","","102.04","","","","-9","","NA"
"-63.55","44.59","HALIFAX KOOTENAY","8202252","2018-12-31 20:00","2018","12","31","20:00","-5.3","","-8.6","","77","","","","24","","11","","","","102.05","","","","-10","","NA"
"-63.55","44.59","HALIFAX KOOTENAY","8202252","2018-12-31 21:00","2018","12","31","21:00","-5.3","","-8.4","","79","","","","25","","12","","","","102.03","","","","-10","","NA"
"-63.55","44.59","HALIFAX KOOTENAY","8202252","2018-12-31 22:00","2018","12","31","22:00","-4.6","","-8.1","","77","","","","23","","11","","","","101.96","","","","-9","","NA"
"-63.55","44.59","HALIFAX KOOTENAY","8202252","2018-12-31 23:00","2018","12","31","23:00","-3.4","","-7.1","","76","","","","20","","9","","","","101.86","","","","-7","","NA"
