"Longitude (x)","Latitude (y)","Station Name","Climate ID","Date/Time (LST)","Year","Month","Day","Time (LST)","Temp (°C)","Temp Flag","Dew Point Temp (°C)","Dew Point Temp Flag","Rel Hum (%)","Rel Hum Flag","Precip. Amount (mm)","Precip. Amount Flag","Wind Dir (10s deg)","Wind Dir Flag","Wind Spd (km/h)","Wind Spd Flag","Visibility (km)","Visibility Flag","Stn Press (kPa)","Stn Press Flag","Hmdx","Hmdx Flag","Wind Chill","Wind Chill Flag","Weather"
"-81.11","44.74","WIARTON A","6119499","2020-12-01 00:00","2020","12","01","00:00","-1.1","","-2.5","","90","","","","1","","17","","3.2","","97.71","","","","-6","","Snow"
"-81.11","44.74","WIARTON A","6119499","2020-12-01 01:00","2020","12","01","01:00","-1.0","","-2.5","","90","","","","1","","24","","3.2","","97.67","","","","-7","","Snow,Blowing Snow"
"-81.11","44.74","WIARTON A","6119499","2020-12-01 02:00","2020","12","01","02:00","-1.2","","-2.1","","94","","","","1","","21","","1.2","","97.65","","","","-7","","Snow,Blowing Snow"
"-81.11","44.74","WIARTON A","6119499","2020-12-01 03:00","2020","12","01","03:00","-1.3","","-2.0","","95","","","","1","","17","","0.8","","97.62","","","","-6","","Moderate Snow,Blowing Snow"
"-81.11","44.74","WIARTON A","6119499","2020-12-01 04:00","2020","12","01","04:00","-1.3","","-2.2","","94","","","","1","","17","","0.8","","97.60","","","","-6","","Moderate Snow,Blowing Snow"
"-81.11","44.74","WIARTON A","6119499","2020-12-01 05:00","2020","12","01","05:00","-1.3","","-2.1","","95","","","","1","","20","","0.8","","97.59","","","","-7","","Moderate Snow,Blowing Snow"
"-81.11","44.74","WIARTON A","6119499","2020-12-01 06:00","2020","12","01","06:00","-1.4","","-2.0","","96","","","","1","","24","","0.8","","97.59","","","","-8","","Moderate Snow,Blowing Snow"
"-81.11","44.74","WIARTON A","6119499","2020-12-01 07:00","2020","12","01","07:00","-1.4","","-2.0","","96","","","","1","","28","","0.4","","97.57","","","","-8","","Heavy Snow,Blowing Snow"
"-81.11","44.74","WIARTON A","6119499","2020-12-01 08:00","2020","12","01","08:00","-1.5","","-2.0","","96","","","","1","","18","","0.4","","97.55","","","","-7","","Heavy Snow,Blowing Snow"
"-81.11","44.74","WIARTON A","6119499","2020-12-01 09:00","2020","12","01","09:00","-1.3","","-1.9","","96","","","","2","","21","","0.2","","97.57","","","","-7","","Heavy Snow,Blowing Snow"
"-81.11","44.74","WIARTON A","6119499","2020-12-01 10:00","2020","12","01","10:00","-1.0","","-1.7","","95","","","","2","","25","","0.8","","97.57","","","","-7","","Moderate Snow,Blowing Snow"
"-81.11","44.74","WIARTON A","6119499","2020-12-01 11:00","2020","12","01","11:00","-0.9","","-1.5","","96","","","","2","","21","","0.6","","97.57","","","","-7","","Moderate Snow,Blowing Snow"
"-81.11","44.74","WIARTON A","6119499","2020-12-01 12:00","2020","12","01","12:00","-1.3","","-2.0","","95","","","","1","","22","","0.6","","97.55","","","","-7","","Moderate Snow,Blowing Snow"
"-81.11","44.74","WIARTON A","6119499","2020-12-01 13:00","2020","12","01","13:00","-1.4","","-2.6","","92","","","","1","","19","","0.8","","97.56","","","","-7","","Moderate Snow,Blowing Snow"
"-81.11","44.74","WIARTON A","6119499","2020-12-01 14:00","2020","12","01","14:00","-1.4","","-2.4","","93","","","","1","","16","","1.6","","97.57","","","","-6","","Snow,Blowing Snow"
"-81.11","44.74","WIARTON A","6119499","2020-12-01 15:00","2020","12","01","15:00","-1.2","","-2.2","","92","","","","1","","16","","1.6","","97.62","","","","-6","","Snow,Blowing Snow"
"-81.11","44.74","WIARTON A","6119499","2020-12-01 16:00","2020","12","01","16:00","-1.2","","-2.2","","93","","","","35","","10","","1.6","","97.68","","","","-5","","Snow,Blowing Snow"
"-81.11","44.74","WIARTON A","6119499","2020-12-01 17:00","2020","12","01","17:00","-0.9","","-2.3","","90","","","","34","","18","","3.2","","97.74","","","","-6","","Snow,Blowing Snow"
"-81.11","44.74","WIARTON A","6119499","2020-12-01 18:00","2020","12","01","18:00","-1.1","","-1.7","","96","","","","34","","14","","0.8","","97.82","","","","-6","","Moderate Snow,Blowing Snow"
"-81.11","44.74","WIARTON A","6119499","2020-12-01 19:00","2020","12","01","19:00","-1.2","","-1.8","","96","","","","34","","13","","0.8","","97.88","","","","-5","","Moderate Snow,Blowing Snow"
"-81.11","44.74","WIARTON A","6119499","2020-12-01 20:00","2020","12","01","20:00","-1.6","","-2.5","","94","","","","35","","18","","0.8","","97.91","","","","-7","","Moderate Snow,Blowing Snow"
"-81.11","44.74","WIARTON A","6119499","2020-12-01 21:00","2020","12","01","21:00","-1.3","","-3.5","","85","","","","34","","16","","6.4","","97.92","","","","-6","","Snow"
"-81.11","44.74","WIARTON A","6119499","2020-12-01 22:00","2020","12","01","22:00","-2.0","","-2.6","","95","","","","33","","15","","1.2","","97.97","","","","-7","","Snow"
"-81.11","44.74","WIARTON A","6119499","2020-12-01 23:00","2020","12","01","23:00","-1.5","","-2.5","","93","","","","33","","16","","8.1","","98.03","","","","-6","","Snow,Blowing Snow"
"-81.11","44.74","WIARTON A","6119499","2020-12-02 00:00","2020","12","02","00:00","-1.8","","-3.9","","86","","","","32","","18","","24.1","","98.08","","","","-7","","NA"
"-81.11","44.74","WIARTON A","6119499","2020-12-02 01:00","2020","12","02","01:00","-2.0","","-4.7","","82","","","","33","","17","","24.1","","98.14","","","","-7","","Snow"
"-81.11","44.74","WIARTON A","6119499","2020-12-02 02:00","2020","12","02","02:00","-1.7","","-4.5","","81","","","","33","","14","","24.1","","98.21","","","","-6","","NA"
"-81.11","44.74","WIARTON A","6119499","2020-12-02 03:00","2020","12","02","03:00","-2.5","","-5.4","","80","","","","30","","13","","24.1","","98.26","","","","-7","","NA"
"-81.11","44.74","WIARTON A","6119499","2020-12-02 04:00","2020","12","02","04:00","-3.5","","-6.3","","81","","","","31","","12","","24.1","","98.34","","","","-8","","Mainly Clear"
"-81.11","44.74","WIARTON A","6119499","2020-12-02 05:00","2020","12","02","05:00","-4.0","","-7.0","","79","","","","30","","9","","24.1","","98.43","","","","-8","","NA"
"-81.11","44.74","WIARTON A","6119499","2020-12-02 06:00","2020","12","02","06:00","-4.2","","-7.4","","79","","","","29","","11","","24.1","","98.53","","","","-9","","NA"
"-81.11","44.74","WIARTON A","6119499","2020-12-02 07:00","2020","12","02","07:00","-4.0","","-8.1","","73","","","","31","","9","","24.1","","98.58","","","","-8","","Clear"
"-81.11","44.74","WIARTON A","6119499","2020-12-02 08:00","2020","12","02","08:00","-3.9","","-8.4","","71","","","","30","","12","","24.1","","98.65","","","","-9","","NA"
"-81.11","44.74","WIARTON A","6119499","2020-12-02 09:00","2020","12","02","09:00","-2.1","","-8.3","","63","","","","30","","16","","24.1","","98.76","","","","-7","","NA"
"-81.11","44.74","WIARTON A","6119499","2020-12-02 10:00","2020","12","02","10:00","-0.9","","-9.0","","54","","","","30","","17","","24.1","","98.82","","","","-6","","Clear"
"-81.11","44.74","WIARTON A","6119499","2020-12-02 11:00","2020","12","02","11:00","0.9","","-5.5","","63","","","","30","","17","","24.1","","98.88","","","","","","NA"
"-81.11","44.74","WIARTON A","6119499","2020-12-02 12:00","2020","12","02","12:00","2.0","","-5.1","","59","","","","30","","22","","24.1","","98.87","","","","","","NA"
"-81.11","44.74","WIARTON A","6119499","2020-12-02 13:00","2020","12","02","13:00","2.7","","-4.7","","58","","","","30","","18","","24.1","","98.90","","","","","","Clear"
"-81.11","44.74","WIARTON A","6119499","2020-12-02 14:00","2020","12","02","14:00","3.1","","-3.8","","60","","","","29","","22","","24.1","","98.91","","","","","","NA"
"-81.11","44.74","WIARTON A","6119499","2020-12-02 15:00","2020","12","02","15:00","3.1","","-3.8","","61","","","","29","","18","","24.1","","98.94","","","","","","NA"
"-81.11","44.74","WIARTON A","6119499","2020-12-02 16:00","2020","12","02","16:00","3.1","","-1.9","","70","","","","28","","24","","24.1","","98.95","","","","","","Clear"
"-81.11","44.74","WIARTON A","6119499","2020-12-02 17:00","2020","12","02","17:00","2.2","","-1.5","","76","","","","27","","14","","24.1","","98.98","","","","","","NA"
"-81.11","44.74","WIARTON A","6119499","2020-12-02 18:00","2020","12","02","18:00","1.8","","-3.0","","71","","","","26","","9","","24.1","","98.99","","","","","","NA"
"-81.11","44.74","WIARTON A","6119499","2020-12-02 19:00","2020","12","02","19:00","0.0","","-3.0","","80","","","","23","","8","","24.1","","98.96","","","","-3","","Clear"
"-81.11","44.74","WIARTON A","6119499","2020-12-02 20:00","2020","12","02","20:00","-0.9","","-2.3","","90","","","","18","","12","","24.1","","98.86","","","","-5","","NA"
"-81.11","44.74","WIARTON A","6119499","2020-12-02 21:00","2020","12","02","21:00","-1.3","","-2.4","","92","","","","19","","9","","24.1","","98.85","","","","-5","","NA"
"-81.11","44.74","WIARTON A","6119499","2020-12-02 22:00","2020","12","02","22:00","2.1","","0.3","","88","","","","26","","8","","24.1","","98.81","","","","","","Mostly Cloudy"
"-81.11","44.74","WIARTON A","6119499","2020-12-02 23:00","2020","12","02","23:00","3.0","","-1.5","","72","","","","27","","17","","24.1","","98.78","","","","","","NA"
"-81.11","44.74","WIARTON A","6119499","2020-12-03 00:00","2020","12","03","00:00","3.2","","-0.7","","76","","","","27","","17","","24.1","","98.78","","","","","","NA"
"-81.11","44.74","WIARTON A","6119499","2020-12-03 01:00","2020","12","03","01:00","3.0","","-1.4","","73","","","","25","","14","","24.1","","98.74","","","","","","Cloudy"
"-81.11","44.74","WIARTON A","6119499","2020-12-03 02:00","2020","12","03","02:00","2.9","","-1.5","","73","","","","24","","18","","24.1","","98.67","","","","","","NA"
"-81.11","44.74","WIARTON A","6119499","2020-12-03 03:00","2020","12","03","03:00","3.3","","-0.9","","74","","","","25","","17","","24.1","","98.66","","","","","","NA"
"-81.11","44.74","WIARTON A","6119499","2020-12-03 04:00","2020","12","03","04:00","3.4","","-0.5","","76","","","","27","","19","","24.1","","98.64","","","","","","Cloudy"
"-81.11","44.74","WIARTON A","6119499","2020-12-03 05:00","2020","12","03","05:00","2.9","","-1.4","","73","","","","28","","29","","24.1","","98.67","","","","","","NA"
"-81.11","44.74","WIARTON A","6119499","2020-12-03 06:00","2020","12","03","06:00","2.5","","-0.6","","80","","","","28","","22","","24.1","","98.64","","","","","","NA"
"-81.11","44.74","WIARTON A","6119499","2020-12-03 07:00","2020","12","03","07:00","2.3","","-1.2","","77","","","","27","","26","","24.1","","98.69","","","","","","Cloudy"
"-81.11","44.74","WIARTON A","6119499","2020-12-03 08:00","2020","12","03","08:00","2.3","","-2.3","","72","","","","29","","24","","24.1","","98.73","","","","","","NA"
"-81.11","44.74","WIARTON A","6119499","2020-12-03 09:00","2020","12","03","09:00","2.5","","-2.4","","71","","","","28","","22","","24.1","","98.74","","","","","","NA"
"-81.11","44.74","WIARTON A","6119499","2020-12-03 10:00","2020","12","03","10:00","2.5","","-2.0","","72","","","","27","","27","","24.1","","98.75","","","","","","Cloudy"
"-81.11","44.74","WIARTON A","6119499","2020-12-03 11:00","2020","12","03","11:00","2.5","","-1.9","","73","","","","26","","14","","24.1","","98.74","","","","","","NA"
"-81.11","44.74","WIARTON A","6119499","2020-12-03 12:00","2020","12","03","12:00","2.6","","-1.4","","75","","","","27","","17","","24.1","","98.70","","","","","","NA"
"-81.11","44.74","WIARTON A","6119499","2020-12-03 13:00","2020","12","03","13:00","2.4","","-1.2","","77","","","","26","","17","","24.1","","98.63","","","","","","Cloudy"
"-81.11","44.74","WIARTON A","6119499","2020-12-03 14:00","2020","12","03","14:00","2.8","","-1.2","","75","","","","24","","14","","24.1","","98.50","","","","","","NA"
"-81.11","44.74","WIARTON A","6119499","2020-12-03 15:00","2020","12","03","15:00","2.6","","-0.9","","77","","","","25","","18","","24.1","","98.53","","","","","","NA"
"-81.11","44.74","WIARTON A","6119499","2020-12-03 16:00","2020","12","03","16:00","2.5","","-0.5","","81","","","","25","","14","","24.1","","98.52","","","","","","Cloudy"
"-81.11","44.74","WIARTON A","6119499","2020-12-03 17:00","2020","12","03","17:00","2.5","","-0.9","","78","","","","23","","23","","24.1","","98.52","","","","","","NA"
"-81.11","44.74","WIARTON A","6119499","2020-12-03 18:00","2020","12","03","18:00","2.2","","-1.4","","77","","","","24","","17","","24.1","","98.48","","","","","","NA"
"-81.11","44.74","WIARTON A","6119499","2020-12-03 19:00","2020","12","03","19:00","2.4","","-1.0","","78","","","","23","","21","","24.1","","98.44","","","","","","Cloudy"
"-81.11","44.74","WIARTON A","6119499","2020-12-03 20:00","2020","12","03","20:00","2.6","","-1.0","","77","","","","23","","19","","24.1","","98.41","","","","","","NA"
"-81.11","44.74","WIARTON A","6119499","2020-12-03 21:00","2020","12","03","21:00","2.5","","-1.1","","77","","","","24","","17","","24.1","","98.38","","","","","","NA"
"-81.11","44.74","WIARTON A","6119499","2020-12-03 22:00","2020","12","03","22:00","2.6","","-0.8","","79","","","","24","","16","","24.1","","98.34","","","","","","Cloudy"
"-81.11","44.74","WIARTON A","6119499","2020-12-03 23:00","2020","12","03","23:00","2.7","","-0.5","","79","","","","25","","13","","24.1","","98.29","","","","","","NA"
"-81.11","44.74","WIARTON A","6119499","2020-12-04 00:00","2020","12","04","00:00","2.7","","-0.7","","78","","","","26","","17","","24.1","","98.25","","","","","","NA"
"-81.11","44.74","WIARTON A","6119499","2020-12-04 01:00","2020","12","04","01:00","2.5","","-1.1","","77","","","","24","","17","","24.1","","98.21","","","","","","Cloudy"
"-81.11","44.74","WIARTON A","6119499","2020-12-04 02:00","2020","12","04","02:00","2.6","","-0.8","","78","","","","24","","19","","24.1","","98.18","","","","","","NA"
"-81.11","44.74","WIARTON A","6119499","2020-12-04 03:00","2020","12","04","03:00","2.6","","0.1","","83","","","","23","","22","","24.1","","98.17","","","","","","NA"
"-81.11","44.74","WIARTON A","6119499","2020-12-04 04:00","2020","12","04","04:00","2.7","","-0.1","","82","","","","23","","21","","24.1","","98.10","","","","","","Cloudy"
"-81.11","44.74","WIARTON A","6119499","2020-12-04 05:00","2020","12","04","05:00","1.3","","0.3","","93","","","","23","","25","","9.7","","98.11","","","","","","Rain Showers,Fog"
"-81.11","44.74","WIARTON A","6119499","2020-12-04 06:00","2020","12","04","06:00","1.1","","0.5","","96","","","","23","","16","","6.4","","98.07","","","","","","Rain Showers,Fog"
"-81.11","44.74","WIARTON A","6119499","2020-12-04 07:00","2020","12","04","07:00","1.4","","0.7","","95","","","","24","","14","","6.4","","98.06","","","","","","Rain Showers,Fog"
"-81.11","44.74","WIARTON A","6119499","2020-12-04 08:00","2020","12","04","08:00","1.0","","0.5","","97","","","","25","","16","","4.8","","98.08","","","","","","Snow"
"-81.11","44.74","WIARTON A","6119499","2020-12-04 09:00","2020","12","04","09:00","2.0","","1.5","","96","","","","24","","14","","9.7","","98.07","","","","","","Rain,Fog"
"-81.11","44.74","WIARTON A","6119499","2020-12-04 10:00","2020","12","04","10:00","2.4","","1.6","","94","","","","24","","17","","12.9","","98.09","","","","","","Rain"
"-81.11","44.74","WIARTON A","6119499","2020-12-04 11:00","2020","12","04","11:00","2.8","","1.2","","90","","","","25","","12","","9.7","","98.10","","","","","","Rain,Fog"
"-81.11","44.74","WIARTON A","6119499","2020-12-04 12:00","2020","12","04","12:00","2.5","","1.6","","94","","","","24","","13","","9.7","","98.09","","","","","","Rain,Fog"
"-81.11","44.74","WIARTON A","6119499","2020-12-04 13:00","2020","12","04","13:00","2.5","","0.9","","89","","","","26","","16","","9.7","","98.12","","","","","","Rain,Fog"
"-81.11","44.74","WIARTON A","6119499","2020-12-04 14:00","2020","12","04","14:00","1.4","","0.5","","94","","","","27","","15","","4.8","","98.15","","","","","","Snow"
"-81.11","44.74","WIARTON A","6119499","2020-12-04 15:00","2020","12","04","15:00","2.7","","1.2","","90","","","","28","","9","","19.3","","98.17","","","","","","NA"
"-81.11","44.74","WIARTON A","6119499","2020-12-04 16:00","2020","12","04","16:00","2.2","","0.9","","91","","","","33","","9","","24.1","","98.23","","","","","","Mostly Cloudy"
"-81.11","44.74","WIARTON A","6119499","2020-12-04 17:00","2020","12","04","17:00","1.8","","0.8","","93","","","","30","","6","","24.1","","98.30","","","","","","NA"
"-81.11","44.74","WIARTON A","6119499","2020-12-04 18:00","2020","12","04","18:00","1.7","","0.6","","92","","","","26","","3","","19.3","","98.38","","","","","","Snow"
"-81.11","44.74","WIARTON A","6119499","2020-12-04 19:00","2020","12","04","19:00","1.4","","0.5","","93","","","","28","","3","","24.1","","98.43","","","","","","Cloudy"
"-81.11","44.74","WIARTON A","6119499","2020-12-04 20:00","2020","12","04","20:00","1.7","","0.6","","93","","","","4","","5","","24.1","","98.47","","","","","","NA"
"-81.11","44.74","WIARTON A","6119499","2020-12-04 21:00","2020","12","04","21:00","1.8","","-0.1","","87","","","","3","","13","","24.1","","98.55","","","","","","NA"
"-81.11","44.74","WIARTON A","6119499","2020-12-04 22:00","2020","12","04","22:00","1.2","","-0.3","","90","","","","2","","10","","24.1","","98.60","","","","","","Cloudy"
"-81.11","44.74","WIARTON A","6119499","2020-12-04 23:00","2020","12","04","23:00","0.9","","-1.2","","86","","","","2","","10","","19.3","","98.66","","","","","","NA"
"-81.11","44.74","WIARTON A","6119499","2020-12-05 00:00","2020","12","05","00:00","0.6","","-1.6","","85","","","","2","","14","","19.3","","98.72","","","","","","NA"
"-81.11","44.74","WIARTON A","6119499","2020-12-05 01:00","2020","12","05","01:00","0.2","","-2.0","","86","","","","2","","13","","19.3","","98.72","","","","","","Cloudy"
"-81.11","44.74","WIARTON A","6119499","2020-12-05 02:00","2020","12","05","02:00","-0.4","","-2.4","","86","","","","36","","10","","19.3","","98.79","","","","-4","","NA"
"-81.11","44.74","WIARTON A","6119499","2020-12-05 03:00","2020","12","05","03:00","-0.8","","-2.4","","89","","","","2","","8","","19.3","","98.85","","","","-4","","NA"
"-81.11","44.74","WIARTON A","6119499","2020-12-05 04:00","2020","12","05","04:00","-1.4","","-3.5","","86","","","","1","","11","","19.3","","98.89","","","","-5","","Snow Showers"
"-81.11","44.74","WIARTON A","6119499","2020-12-05 05:00","2020","12","05","05:00","-1.8","","-3.8","","86","","","","36","","14","","19.3","","98.92","","","","-6","","Snow Showers"
"-81.11","44.74","WIARTON A","6119499","2020-12-05 06:00","2020","12","05","06:00","-2.2","","-4.4","","85","","","","36","","14","","19.3","","98.95","","","","-7","","Snow Showers"
"-81.11","44.74","WIARTON A","6119499","2020-12-05 07:00","2020","12","05","07:00","-2.3","","-4.5","","85","","","","2","","12","","19.3","","99.05","","","","-7","","Snow Showers"
"-81.11","44.74","WIARTON A","6119499","2020-12-05 08:00","2020","12","05","08:00","-2.4","","-4.6","","85","","","","36","","9","","19.3","","99.12","","","","-6","","NA"
"-81.11","44.74","WIARTON A","6119499","2020-12-05 09:00","2020","12","05","09:00","-2.7","","-5.0","","85","","","","35","","12","","24.1","","99.21","","","","-7","","NA"
"-81.11","44.74","WIARTON A","6119499","2020-12-05 10:00","2020","12","05","10:00","-2.7","","-4.9","","85","","","","2","","10","","19.3","","99.24","","","","-7","","Cloudy"
"-81.11","44.74","WIARTON A","6119499","2020-12-05 11:00","2020","12","05","11:00","-3.1","","-5.5","","84","","","","1","","14","","19.3","","99.28","","","","-8","","NA"
"-81.11","44.74","WIARTON A","6119499","2020-12-05 12:00","2020","12","05","12:00","-3.3","","-5.7","","83","","","","4","","17","","19.3","","99.23","","","","-9","","NA"
"-81.11","44.74","WIARTON A","6119499","2020-12-05 13:00","2020","12","05","13:00","-3.5","","-5.4","","87","","","","2","","7","","19.3","","99.18","","","","-6","","Cloudy"
"-81.11","44.74","WIARTON A","6119499","2020-12-05 14:00","2020","12","05","14:00","-3.2","","-5.6","","84","","","","1","","10","","19.3","","99.17","","","","-7","","NA"
"-81.11","44.74","WIARTON A","6119499","2020-12-05 15:00","2020","12","05","15:00","-3.1","","-5.1","","86","","","","3","","14","","19.3","","99.20","","","","-8","","NA"
"-81.11","44.74","WIARTON A","6119499","2020-12-05 16:00","2020","12","05","16:00","-2.8","","-5.3","","83","","","","3","","9","","19.3","","99.23","","","","-6","","Cloudy"
"-81.11","44.74","WIARTON A","6119499","2020-12-05 17:00","2020","12","05","17:00","-2.5","","-5.1","","82","","","","1","","8","","19.3","","99.25","","","","-6","","NA"
"-81.11","44.74","WIARTON A","6119499","2020-12-05 18:00","2020","12","05","18:00","-2.3","","-5.1","","81","","","","3","","13","","24.1","","99.25","","","","-7","","NA"
"-81.11","44.74","WIARTON A","6119499","2020-12-05 19:00","2020","12","05","19:00","-2.2","","-5.8","","76","","","","4","","14","","24.1","","99.29","","","","-7","","Cloudy"
"-81.11","44.74","WIARTON A","6119499","2020-12-05 20:00","2020","12","05","20:00","-1.9","","-5.5","","77","","","","3","","13","","24.1","","99.30","","","","-6","","NA"
"-81.11","44.74","WIARTON A","6119499","2020-12-05 21:00","2020","12","05","21:00","-1.6","","-5.9","","73","","","","3","","11","","24.1","","99.28","","","","-5","","NA"
"-81.11","44.74","WIARTON A","6119499","2020-12-05 22:00","2020","12","05","22:00","-1.4","","-5.8","","72","","","","2","","16","","24.1","","99.24","","","","-6","","Cloudy"
"-81.11","44.74","WIARTON A","6119499","2020-12-05 23:00","2020","12","05","23:00","-1.3","","-5.6","","73","","","","2","","10","","24.1","","99.20","","","","-5","","NA"
"-81.11","44.74","WIARTON A","6119499","2020-12-06 00:00","2020","12","06","00:00","-1.5","","-5.8","","72","","","","2","","13","","24.1","","99.17","","","","-6","","NA"
"-81.11","44.74","WIARTON A","6119499","2020-12-06 01:00","2020","12","06","01:00","-1.7","","-6.1","","72","","","","1","","15","","16.1","","99.17","","","","-7","","Cloudy"
"-81.11","44.74","WIARTON A","6119499","2020-12-06 02:00","2020","12","06","02:00","-1.7","","-5.9","","73","","","","3","","8","","19.3","","99.19","","","","-5","","NA"
"-81.11","44.74","WIARTON A","6119499","2020-12-06 03:00","2020","12","06","03:00","-1.8","","-6.0","","73","","","","35","","9","","24.1","","99.19","","","","-5","","NA"
"-81.11","44.74","WIARTON A","6119499","2020-12-06 04:00","2020","12","06","04:00","-1.8","","-5.7","","75","","","","2","","8","","24.1","","99.19","","","","-5","","Cloudy"
"-81.11","44.74","WIARTON A","6119499","2020-12-06 05:00","2020","12","06","05:00","-1.9","","-5.2","","78","","","","36","","3","","24.1","","99.19","","","","-3","","NA"
"-81.11","44.74","WIARTON A","6119499","2020-12-06 06:00","2020","12","06","06:00","-2.1","","-5.9","","75","","","","33","","8","","24.1","","99.16","","","","-5","","NA"
"-81.11","44.74","WIARTON A","6119499","2020-12-06 07:00","2020","12","06","07:00","-2.3","","-5.5","","79","","","","31","","12","","24.1","","99.14","","","","-7","","Cloudy"
"-81.11","44.74","WIARTON A","6119499","2020-12-06 08:00","2020","12","06","08:00","-2.5","","-5.6","","79","","","","30","","9","","24.1","","99.15","","","","-6","","NA"
"-81.11","44.74","WIARTON A","6119499","2020-12-06 09:00","2020","12","06","09:00","-2.3","","-5.5","","79","","","","33","","8","","24.1","","99.14","","","","-5","","NA"
"-81.11","44.74","WIARTON A","6119499","2020-12-06 10:00","2020","12","06","10:00","-2.2","","-5.6","","78","","","","31","","8","","24.1","","99.14","","","","-5","","Cloudy"
"-81.11","44.74","WIARTON A","6119499","2020-12-06 11:00","2020","12","06","11:00","-1.9","","-5.6","","76","","","","34","","9","","24.1","","99.12","","","","-5","","NA"
"-81.11","44.74","WIARTON A","6119499","2020-12-06 12:00","2020","12","06","12:00","-1.7","","-5.7","","74","","","","33","","8","","24.1","","99.05","","","","-5","","NA"
"-81.11","44.74","WIARTON A","6119499","2020-12-06 13:00","2020","12","06","13:00","-1.4","","-5.6","","73","","","","33","","7","","24.1","","99.03","","","","-4","","Mostly Cloudy"
"-81.11","44.74","WIARTON A","6119499","2020-12-06 14:00","2020","12","06","14:00","-1.3","","-5.9","","71","","","","30","","5","","24.1","","98.98","","","","-3","","NA"
"-81.11","44.74","WIARTON A","6119499","2020-12-06 15:00","2020","12","06","15:00","-1.3","","-6.6","","67","","","","31","","9","","24.1","","98.97","","","","-5","","NA"
"-81.11","44.74","WIARTON A","6119499","2020-12-06 16:00","2020","12","06","16:00","-1.2","","-6.6","","67","","","","31","","7","","24.1","","98.95","","","","-4","","Mostly Cloudy"
"-81.11","44.74","WIARTON A","6119499","2020-12-06 17:00","2020","12","06","17:00","-1.6","","-7.1","","66","","","","29","","7","","24.1","","98.96","","","","-4","","NA"
"-81.11","44.74","WIARTON A","6119499","2020-12-06 18:00","2020","12","06","18:00","-2.0","","-6.6","","71","","","","33","","3","","24.1","","98.98","","","","-3","","NA"
"-81.11","44.74","WIARTON A","6119499","2020-12-06 19:00","2020","12","06","19:00","-2.2","","-6.5","","72","","","","35","","4","","24.1","","98.99","","","","-4","","Mainly Clear"
"-81.11","44.74","WIARTON A","6119499","2020-12-06 20:00","2020","12","06","20:00","-3.5","","-6.2","","81","","","","36","","1","","24.1","","98.99","","","","-4","","NA"
"-81.11","44.74","WIARTON A","6119499","2020-12-06 21:00","2020","12","06","21:00","-3.2","","-5.7","","83","","","","32","","4","","24.1","","98.95","","","","-5","","NA"
"-81.11","44.74","WIARTON A","6119499","2020-12-06 22:00","2020","12","06","22:00","-4.5","","-7.2","","81","","","","12","","3","","24.1","","98.93","","","","-6","","Mainly Clear"
"-81.11","44.74","WIARTON A","6119499","2020-12-06 23:00","2020","12","06","23:00","-4.6","","-6.0","","89","","","","19","","4","","24.1","","98.90","","","","-6","","NA"
"-81.11","44.74","WIARTON A","6119499","2020-12-07 00:00","2020","12","07","00:00","-3.2","","-5.1","","86","","","","36","","3","","24.1","","98.88","","","","-4","","NA"
"-81.11","44.74","WIARTON A","6119499","2020-12-07 01:00","2020","12","07","01:00","-2.0","","-5.2","","79","","","","32","","4","","24.1","","98.86","","","","-3","","Cloudy"
"-81.11","44.74","WIARTON A","6119499","2020-12-07 02:00","2020","12","07","02:00","-1.8","","-5.3","","77","","","","32","","4","","24.1","","98.81","","","","-3","","NA"
"-81.11","44.74","WIARTON A","6119499","2020-12-07 03:00","2020","12","07","03:00","-1.8","","-5.1","","78","","","","36","","3","","24.1","","98.80","","","","-3","","NA"
"-81.11","44.74","WIARTON A","6119499","2020-12-07 04:00","2020","12","07","04:00","-1.6","","-5.5","","75","","","","32","","11","","24.1","","98.81","","","","-5","","Cloudy"
"-81.11","44.74","WIARTON A","6119499","2020-12-07 05:00","2020","12","07","05:00","-1.7","","-5.1","","78","","","","33","","8","","24.1","","98.79","","","","-5","","NA"
"-81.11","44.74","WIARTON A","6119499","2020-12-07 06:00","2020","12","07","06:00","-1.6","","-5.1","","77","","","","33","","7","","24.1","","98.80","","","","-4","","NA"
"-81.11","44.74","WIARTON A","6119499","2020-12-07 07:00","2020","12","07","07:00","-1.6","","-5.2","","77","","","","34","","7","","24.1","","98.86","","","","-4","","Cloudy"
"-81.11","44.74","WIARTON A","6119499","2020-12-07 08:00","2020","12","07","08:00","-1.9","","-5.2","","78","","","","32","","9","","24.1","","98.85","","","","-5","","NA"
"-81.11","44.74","WIARTON A","6119499","2020-12-07 09:00","2020","12","07","09:00","-1.9","","-5.6","","76","","","","36","","9","","24.1","","98.83","","","","-5","","NA"
"-81.11","44.74","WIARTON A","6119499","2020-12-07 10:00","2020","12","07","10:00","-2.0","","-5.7","","76","","","","1","","12","","24.1","","98.86","","","","-6","","Mostly Cloudy"
"-81.11","44.74","WIARTON A","6119499","2020-12-07 11:00","2020","12","07","11:00","-1.9","","-5.4","","77","","","","36","","8","","24.1","","98.88","","","","-5","","NA"
"-81.11","44.74","WIARTON A","6119499","2020-12-07 12:00","2020","12","07","12:00","-1.7","","-5.5","","76","","","","1","","13","","24.1","","98.80","","","","-6","","NA"
"-81.11","44.74","WIARTON A","6119499","2020-12-07 13:00","2020","12","07","13:00","-1.2","","-4.9","","76","","","","1","","9","","24.1","","98.76","","","","-4","","Mainly Clear"
"-81.11","44.74","WIARTON A","6119499","2020-12-07 14:00","2020","12","07","14:00","-1.3","","-5.0","","76","","","","1","","8","","24.1","","98.73","","","","-4","","NA"
"-81.11","44.74","WIARTON A","6119499","2020-12-07 15:00","2020","12","07","15:00","-1.3","","-5.1","","75","","","","33","","12","","24.1","","98.71","","","","-5","","NA"
"-81.11","44.74","WIARTON A","6119499","2020-12-07 16:00","2020","12","07","16:00","-1.8","","-5.0","","79","","","","36","","5","","24.1","","98.74","","","","-4","","Mostly Cloudy"
"-81.11","44.74","WIARTON A","6119499","2020-12-07 17:00","2020","12","07","17:00","-1.4","","-4.8","","78","","","","34","","8","","24.1","","98.77","","","","-4","","NA"
"-81.11","44.74","WIARTON A","6119499","2020-12-07 18:00","2020","12","07","18:00","-1.7","","-5.3","","76","","","","31","","12","","24.1","","98.81","","","","-6","","NA"
"-81.11","44.74","WIARTON A","6119499","2020-12-07 19:00","2020","12","07","19:00","-2.0","","-5.7","","76","","","","32","","8","","24.1","","98.83","","","","-5","","Mostly Cloudy"
"-81.11","44.74","WIARTON A","6119499","2020-12-07 20:00","2020","12","07","20:00","-2.1","","-5.7","","76","","","","32","","10","","24.1","","98.82","","","","-6","","NA"
"-81.11","44.74","WIARTON A","6119499","2020-12-07 21:00","2020","12","07","21:00","-2.6","","-5.8","","79","","","","33","","3","","24.1","","98.81","","","","-4","","NA"
"-81.11","44.74","WIARTON A","6119499","2020-12-07 22:00","2020","12","07","22:00","-2.8","","-5.6","","81","","","","33","","5","","24.1","","98.86","","","","-5","","Mainly Clear"
"-81.11","44.74","WIARTON A","6119499","2020-12-07 23:00","2020","12","07","23:00","-2.6","","-5.2","","83","","","","32","","5","","24.1","","98.85","","","","-5","","NA"
"-81.11","44.74","WIARTON A","6119499","2020-12-08 00:00","2020","12","08","00:00","-1.9","","-5.6","","76","","","","3","","7","","24.1","","98.82","","","","-5","","NA"
"-81.11","44.74","WIARTON A","6119499","2020-12-08 01:00","2020","12","08","01:00","-2.1","","-5.5","","77","","","","3","","10","","24.1","","98.77","","","","-6","","Mainly Clear"
"-81.11","44.74","WIARTON A","6119499","2020-12-08 02:00","2020","12","08","02:00","-2.5","","-5.2","","82","","","","33","","8","","24.1","","98.77","","","","-6","","NA"
"-81.11","44.74","WIARTON A","6119499","2020-12-08 03:00","2020","12","08","03:00","-2.8","","-4.9","","86","","","","33","","3","","24.1","","98.79","","","","-4","","NA"
"-81.11","44.74","WIARTON A","6119499","2020-12-08 04:00","2020","12","08","04:00","-2.6","","-5.0","","84","","","","32","","7","","24.1","","98.77","","","","-5","","Mostly Cloudy"
"-81.11","44.74","WIARTON A","6119499","2020-12-08 05:00","2020","12","08","05:00","-3.1","","-5.0","","87","","","","31","","7","","24.1","","98.77","","","","-6","","NA"
"-81.11","44.74","WIARTON A","6119499","2020-12-08 06:00","2020","12","08","06:00","-3.3","","-4.9","","88","","","","30","","5","","24.1","","98.77","","","","-5","","NA"
"-81.11","44.74","WIARTON A","6119499","2020-12-08 07:00","2020","12","08","07:00","-3.2","","-5.1","","87","","","","31","","8","","24.1","","98.83","","","","-6","","Cloudy"
"-81.11","44.74","WIARTON A","6119499","2020-12-08 08:00","2020","12","08","08:00","-3.8","","-5.2","","90","","","","29","","8","","24.1","","98.87","","","","-7","","NA"
"-81.11","44.74","WIARTON A","6119499","2020-12-08 09:00","2020","12","08","09:00","-3.8","","-5.4","","88","","","","30","","5","","24.1","","98.85","","","","-6","","NA"
"-81.11","44.74","WIARTON A","6119499","2020-12-08 10:00","2020","12","08","10:00","-2.4","","-5.6","","79","","","","36","","3","","24.1","","98.84","","","","-4","","Mostly Cloudy"
"-81.11","44.74","WIARTON A","6119499","2020-12-08 11:00","2020","12","08","11:00","-1.8","","-5.0","","79","","","","34","","6","","24.1","","98.88","","","","-4","","NA"
"-81.11","44.74","WIARTON A","6119499","2020-12-08 12:00","2020","12","08","12:00","-1.0","","-4.0","","80","","","","19","","7","","24.1","","98.65","","","","-4","","NA"
"-81.11","44.74","WIARTON A","6119499","2020-12-08 13:00","2020","12","08","13:00","-0.2","","-3.5","","79","","","","20","","11","","24.1","","98.55","","","","-4","","Cloudy"
"-81.11","44.74","WIARTON A","6119499","2020-12-08 14:00","2020","12","08","14:00","-0.2","","-3.4","","80","","","","19","","15","","19.3","","98.47","","","","-5","","NA"
"-81.11","44.74","WIARTON A","6119499","2020-12-08 15:00","2020","12","08","15:00","1.2","","-2.9","","74","","","","23","","15","","24.1","","98.36","","","","","","NA"
"-81.11","44.74","WIARTON A","6119499","2020-12-08 16:00","2020","12","08","16:00","1.0","","-1.1","","85","","","","23","","21","","9.7","","98.35","","","","","","Snow"
"-81.11","44.74","WIARTON A","6119499","2020-12-08 17:00","2020","12","08","17:00","1.3","","-2.0","","78","","","","23","","22","","24.1","","98.24","","","","","","NA"
"-81.11","44.74","WIARTON A","6119499","2020-12-08 18:00","2020","12","08","18:00","2.1","","-1.8","","76","","","","24","","24","","24.1","","98.28","","","","","","NA"
"-81.11","44.74","WIARTON A","6119499","2020-12-08 19:00","2020","12","08","19:00","2.1","","-1.2","","78","","","","24","","22","","24.1","","98.24","","","","","","Cloudy"
"-81.11","44.74","WIARTON A","6119499","2020-12-08 20:00","2020","12","08","20:00","2.3","","-1.1","","78","","","","23","","32","","24.1","","98.06","","","","","","NA"
"-81.11","44.74","WIARTON A","6119499","2020-12-08 21:00","2020","12","08","21:00","2.4","","-1.0","","78","","","","24","","27","","24.1","","97.97","","","","","","NA"
"-81.11","44.74","WIARTON A","6119499","2020-12-08 22:00","2020","12","08","22:00","2.5","","-1.0","","78","","","","24","","26","","24.1","","97.90","","","","","","Cloudy"
"-81.11","44.74","WIARTON A","6119499","2020-12-08 23:00","2020","12","08","23:00","2.0","","-0.8","","82","","","","23","","31","","12.9","","97.77","","","","","","Rain"
"-81.11","44.74","WIARTON A","6119499","2020-12-09 00:00","2020","12","09","00:00","1.3","","-0.4","","89","","","","24","","22","","4.8","","97.76","","","","","","Snow"
"-81.11","44.74","WIARTON A","6119499","2020-12-09 01:00","2020","12","09","01:00","1.1","","0.4","","95","","","","24","","28","","3.2","","97.70","","","","","","Snow"
"-81.11","44.74","WIARTON A","6119499","2020-12-09 02:00","2020","12","09","02:00","1.6","","0.8","","94","","","","24","","31","","3.2","","97.65","","","","","","Snow,Fog"
"-81.11","44.74","WIARTON A","6119499","2020-12-09 03:00","2020","12","09","03:00","2.1","","0.8","","91","","","","25","","19","","3.2","","97.65","","","","","","Rain,Fog"
"-81.11","44.74","WIARTON A","6119499","2020-12-09 04:00","2020","12","09","04:00","1.4","","0.4","","93","","","","26","","19","","3.2","","97.60","","","","","","Rain,Fog"
"-81.11","44.74","WIARTON A","6119499","2020-12-09 05:00","2020","12","09","05:00","1.9","","0.9","","93","","","","26","","19","","4.8","","97.59","","","","","","Rain,Fog"
"-81.11","44.74","WIARTON A","6119499","2020-12-09 06:00","2020","12","09","06:00","2.1","","0.6","","89","","","","26","","20","","6.4","","97.59","","","","","","Drizzle,Fog"
"-81.11","44.74","WIARTON A","6119499","2020-12-09 07:00","2020","12","09","07:00","2.1","","1.2","","94","","","","26","","17","","6.4","","97.60","","","","","","Drizzle,Fog"
"-81.11","44.74","WIARTON A","6119499","2020-12-09 08:00","2020","12","09","08:00","2.7","","1.5","","92","","","","27","","16","","6.4","","97.59","","","","","","Fog"
"-81.11","44.74","WIARTON A","6119499","2020-12-09 09:00","2020","12","09","09:00","3.0","","1.7","","91","","","","28","","19","","6.4","","97.60","","","","","","Rain,Fog"
"-81.11","44.74","WIARTON A","6119499","2020-12-09 10:00","2020","12","09","10:00","3.0","","2.3","","95","","","","27","","13","","6.4","","97.63","","","","","","Rain,Fog"
"-81.11","44.74","WIARTON A","6119499","2020-12-09 11:00","2020","12","09","11:00","3.4","","2.5","","94","","","","28","","19","","6.4","","97.69","","","","","","Rain,Fog"
"-81.11","44.74","WIARTON A","6119499","2020-12-09 12:00","2020","12","09","12:00","3.8","","3.3","","97","","","","28","","14","","6.4","","97.67","","","","","","Rain,Fog"
"-81.11","44.74","WIARTON A","6119499","2020-12-09 13:00","2020","12","09","13:00","3.8","","3.0","","94","","","","30","","14","","9.7","","97.69","","","","","","Rain,Fog"
"-81.11","44.74","WIARTON A","6119499","2020-12-09 14:00","2020","12","09","14:00","3.9","","2.4","","89","","","","31","","14","","16.1","","97.72","","","","","","Rain"
"-81.11","44.74","WIARTON A","6119499","2020-12-09 15:00","2020","12","09","15:00","4.1","","2.6","","90","","","","30","","12","","19.3","","97.81","","","","","","NA"
"-81.11","44.74","WIARTON A","6119499","2020-12-09 16:00","2020","12","09","16:00","4.2","","1.9","","84","","","","29","","10","","19.3","","97.91","","","","","","Cloudy"
"-81.11","44.74","WIARTON A","6119499","2020-12-09 17:00","2020","12","09","17:00","4.1","","0.9","","80","","","","30","","12","","24.1","","98.04","","","","","","NA"
"-81.11","44.74","WIARTON A","6119499","2020-12-09 18:00","2020","12","09","18:00","3.9","","0.7","","80","","","","29","","8","","24.1","","98.13","","","","","","NA"
"-81.11","44.74","WIARTON A","6119499","2020-12-09 19:00","2020","12","09","19:00","4.3","","1.6","","83","","","","29","","17","","24.1","","98.22","","","","","","Cloudy"
"-81.11","44.74","WIARTON A","6119499","2020-12-09 20:00","2020","12","09","20:00","3.9","","1.6","","85","","","","30","","21","","19.3","","98.30","","","","","","NA"
"-81.11","44.74","WIARTON A","6119499","2020-12-09 21:00","2020","12","09","21:00","3.9","","1.1","","82","","","","30","","12","","12.9","","98.35","","","","","","Rain Showers"
"-81.11","44.74","WIARTON A","6119499","2020-12-09 22:00","2020","12","09","22:00","3.2","","1.8","","91","","","","30","","11","","16.1","","98.41","","","","","","Rain Showers"
"-81.11","44.74","WIARTON A","6119499","2020-12-09 23:00","2020","12","09","23:00","2.9","","1.4","","89","","","","29","","8","","19.3","","98.45","","","","","","NA"
"-81.11","44.74","WIARTON A","6119499","2020-12-10 00:00","2020","12","10","00:00","3.2","","1.2","","86","","","","30","","12","","19.3","","98.52","","","","","","NA"
"-81.11","44.74","WIARTON A","6119499","2020-12-10 01:00","2020","12","10","01:00","3.4","","1.2","","86","","","","29","","12","","24.1","","98.57","","","","","","Cloudy"
"-81.11","44.74","WIARTON A","6119499","2020-12-10 02:00","2020","12","10","02:00","2.8","","1.5","","91","","","","30","","6","","19.3","","98.64","","","","","","NA"
"-81.11","44.74","WIARTON A","6119499","2020-12-10 03:00","2020","12","10","03:00","2.8","","1.8","","93","","","","32","","6","","19.3","","98.70","","","","","","Rain Showers"
"-81.11","44.74","WIARTON A","6119499","2020-12-10 04:00","2020","12","10","04:00","2.9","","1.0","","88","","","","32","","5","","24.1","","98.72","","","","","","Cloudy"
"-81.11","44.74","WIARTON A","6119499","2020-12-10 05:00","2020","12","10","05:00","2.9","","0.4","","84","","","","30","","6","","24.1","","98.82","","","","","","NA"
"-81.11","44.74","WIARTON A","6119499","2020-12-10 06:00","2020","12","10","06:00","2.8","","0.1","","83","","","","31","","8","","24.1","","98.89","","","","","","NA"
"-81.11","44.74","WIARTON A","6119499","2020-12-10 07:00","2020","12","10","07:00","2.6","","0.1","","83","","","","31","","5","","24.1","","99.00","","","","","","Cloudy"
"-81.11","44.74","WIARTON A","6119499","2020-12-10 08:00","2020","12","10","08:00","2.8","","-0.2","","81","","","","36","","3","","24.1","","99.02","","","","","","NA"
"-81.11","44.74","WIARTON A","6119499","2020-12-10 09:00","2020","12","10","09:00","2.0","","0.6","","90","","","","13","","7","","24.1","","99.04","","","","","","NA"
"-81.11","44.74","WIARTON A","6119499","2020-12-10 10:00","2020","12","10","10:00","3.0","","0.9","","86","","","","15","","4","","24.1","","99.13","","","","","","Cloudy"
"-81.11","44.74","WIARTON A","6119499","2020-12-10 11:00","2020","12","10","11:00","4.3","","1.5","","82","","","","23","","8","","24.1","","99.15","","","","","","NA"
"-81.11","44.74","WIARTON A","6119499","2020-12-10 12:00","2020","12","10","12:00","4.5","","1.2","","79","","","","25","","9","","24.1","","99.12","","","","","","NA"
"-81.11","44.74","WIARTON A","6119499","2020-12-10 13:00","2020","12","10","13:00","5.1","","1.0","","74","","","","24","","14","","24.1","","99.09","","","","","","Mostly Cloudy"
"-81.11","44.74","WIARTON A","6119499","2020-12-10 14:00","2020","12","10","14:00","4.8","","1.2","","78","","","","22","","11","","24.1","","99.01","","","","","","NA"
"-81.11","44.74","WIARTON A","6119499","2020-12-10 15:00","2020","12","10","15:00","4.7","","1.5","","79","","","","19","","13","","24.1","","98.97","","","","","","NA"
"-81.11","44.74","WIARTON A","6119499","2020-12-10 16:00","2020","12","10","16:00","4.1","","1.4","","83","","","","18","","9","","24.1","","99.00","","","","","","Mostly Cloudy"
"-81.11","44.74","WIARTON A","6119499","2020-12-10 17:00","2020","12","10","17:00","3.0","","0.9","","86","","","","13","","9","","24.1","","99.02","","","","","","NA"
"-81.11","44.74","WIARTON A","6119499","2020-12-10 18:00","2020","12","10","18:00","3.0","","1.0","","87","","","","15","","18","","24.1","","98.94","","","","","","NA"
"-81.11","44.74","WIARTON A","6119499","2020-12-10 19:00","2020","12","10","19:00","3.1","","1.1","","86","","","","18","","17","","24.1","","98.94","","","","","","Mostly Cloudy"
"-81.11","44.74","WIARTON A","6119499","2020-12-10 20:00","2020","12","10","20:00","3.0","","0.7","","85","","","","17","","19","","24.1","","98.92","","","","","","NA"
"-81.11","44.74","WIARTON A","6119499","2020-12-10 21:00","2020","12","10","21:00","2.7","","0.5","","86","","","","17","","19","","24.1","","98.85","","","","","","NA"
"-81.11","44.74","WIARTON A","6119499","2020-12-10 22:00","2020","12","10","22:00","2.5","","0.7","","88","","","","18","","21","","16.1","","98.82","","","","","","Mainly Clear"
"-81.11","44.74","WIARTON A","6119499","2020-12-10 23:00","2020","12","10","23:00","2.6","","0.8","","87","","","","18","","27","","12.9","","98.74","","","","","","NA"
"-81.11","44.74","WIARTON A","6119499","2020-12-11 00:00","2020","12","11","00:00","2.8","","0.6","","86","","","","18","","22","","12.9","","98.72","","","","","","NA"
"-81.11","44.74","WIARTON A","6119499","2020-12-11 01:00","2020","12","11","01:00","2.7","","0.7","","87","","","","18","","21","","12.9","","98.67","","","","","","Mostly Cloudy"
"-81.11","44.74","WIARTON A","6119499","2020-12-11 02:00","2020","12","11","02:00","2.7","","0.6","","86","","","","19","","17","","12.9","","98.64","","","","","","NA"
"-81.11","44.74","WIARTON A","6119499","2020-12-11 03:00","2020","12","11","03:00","2.9","","0.9","","87","","","","17","","17","","12.9","","98.58","","","","","","NA"
"-81.11","44.74","WIARTON A","6119499","2020-12-11 04:00","2020","12","11","04:00","2.7","","0.9","","88","","","","18","","15","","12.9","","98.58","","","","","","Mostly Cloudy"
"-81.11","44.74","WIARTON A","6119499","2020-12-11 05:00","2020","12","11","05:00","2.2","","0.7","","90","","","","19","","13","","9.7","","98.61","","","","","","Fog"
"-81.11","44.74","WIARTON A","6119499","2020-12-11 06:00","2020","12","11","06:00","1.6","","0.5","","93","","","","18","","9","","6.4","","98.63","","","","","","Fog"
"-81.11","44.74","WIARTON A","6119499","2020-12-11 07:00","2020","12","11","07:00","2.0","","0.8","","92","","","","19","","7","","6.4","","98.71","","","","","","Fog"
"-81.11","44.74","WIARTON A","6119499","2020-12-11 08:00","2020","12","11","08:00","1.4","","0.6","","95","","","","19","","9","","6.4","","98.67","","","","","","Fog"
"-81.11","44.74","WIARTON A","6119499","2020-12-11 09:00","2020","12","11","09:00","1.4","","1.1","","97","","","","20","","9","","6.4","","98.68","","","","","","Fog"
"-81.11","44.74","WIARTON A","6119499","2020-12-11 10:00","2020","12","11","10:00","2.8","","2.3","","97","","","","20","","5","","8.1","","98.73","","","","","","Fog"
"-81.11","44.74","WIARTON A","6119499","2020-12-11 11:00","2020","12","11","11:00","4.5","","3.7","","95","","","","36","","3","","8.1","","98.81","","","","","","Fog"
"-81.11","44.74","WIARTON A","6119499","2020-12-11 12:00","2020","12","11","12:00","5.8","","3.4","","85","","","","34","","6","","9.7","","98.83","","","","","","Fog"
"-81.11","44.74","WIARTON A","6119499","2020-12-11 13:00","2020","12","11","13:00","6.2","","3.4","","82","","","","32","","4","","9.7","","98.84","","","","","","Fog"
"-81.11","44.74","WIARTON A","6119499","2020-12-11 14:00","2020","12","11","14:00","5.9","","3.5","","84","","","","2","","4","","8.1","","98.82","","","","","","Fog"
"-81.11","44.74","WIARTON A","6119499","2020-12-11 15:00","2020","12","11","15:00","4.8","","3.8","","93","","","","1","","8","","4.8","","98.90","","","","","","Fog"
"-81.11","44.74","WIARTON A","6119499","2020-12-11 16:00","2020","12","11","16:00","4.3","","2.9","","91","","","","3","","11","","9.7","","99.00","","","","","","Fog"
"-81.11","44.74","WIARTON A","6119499","2020-12-11 17:00","2020","12","11","17:00","3.9","","2.7","","91","","","","3","","17","","9.7","","99.04","","","","","","Fog"
"-81.11","44.74","WIARTON A","6119499","2020-12-11 18:00","2020","12","11","18:00","3.8","","2.6","","92","","","","5","","15","","12.9","","99.12","","","","","","NA"
"-81.11","44.74","WIARTON A","6119499","2020-12-11 19:00","2020","12","11","19:00","3.6","","2.3","","91","","","","4","","25","","16.1","","99.13","","","","","","Cloudy"
"-81.11","44.74","WIARTON A","6119499","2020-12-11 20:00","2020","12","11","20:00","3.4","","2.0","","91","","","","4","","17","","16.1","","99.24","","","","","","NA"
"-81.11","44.74","WIARTON A","6119499","2020-12-11 21:00","2020","12","11","21:00","3.3","","1.9","","91","","","","5","","16","","16.1","","99.20","","","","","","NA"
"-81.11","44.74","WIARTON A","6119499","2020-12-11 22:00","2020","12","11","22:00","3.3","","1.9","","91","","","","7","","21","","16.1","","99.19","","","","","","Cloudy"
"-81.11","44.74","WIARTON A","6119499","2020-12-11 23:00","2020","12","11","23:00","3.3","","2.0","","92","","","","7","","21","","16.1","","99.17","","","","","","NA"
"-81.11","44.74","WIARTON A","6119499","2020-12-12 00:00","2020","12","12","00:00","3.2","","2.2","","93","","","","7","","17","","16.1","","99.18","","","","","","Rain"
"-81.11","44.74","WIARTON A","6119499","2020-12-12 01:00","2020","12","12","01:00","3.1","","2.3","","94","","","","6","","15","","16.1","","99.21","","","","","","Rain"
"-81.11","44.74","WIARTON A","6119499","2020-12-12 02:00","2020","12","12","02:00","2.9","","2.1","","94","","","","7","","21","","19.3","","99.12","","","","","","Rain"
"-81.11","44.74","WIARTON A","6119499","2020-12-12 03:00","2020","12","12","03:00","3.0","","2.1","","94","","","","7","","24","","19.3","","99.10","","","","","","Rain"
"-81.11","44.74","WIARTON A","6119499","2020-12-12 04:00","2020","12","12","04:00","2.7","","1.7","","93","","","","9","","26","","16.1","","99.06","","","","","","Rain"
"-81.11","44.74","WIARTON A","6119499","2020-12-12 05:00","2020","12","12","05:00","2.1","","1.3","","94","","","","8","","25","","16.1","","98.99","","","","","","Rain"
"-81.11","44.74","WIARTON A","6119499","2020-12-12 06:00","2020","12","12","06:00","1.6","","1.0","","96","","","","8","","22","","12.9","","98.92","","","","","","Rain,Snow"
"-81.11","44.74","WIARTON A","6119499","2020-12-12 07:00","2020","12","12","07:00","1.2","","0.8","","97","","","","7","","25","","9.7","","98.80","","","","","","Rain,Fog"
"-81.11","44.74","WIARTON A","6119499","2020-12-12 08:00","2020","12","12","08:00","2.0","","1.5","","96","","","","8","","28","","9.7","","98.72","","","","","","Rain,Fog"
"-81.11","44.74","WIARTON A","6119499","2020-12-12 09:00","2020","12","12","09:00","2.1","","1.4","","95","","","","8","","27","","9.7","","98.56","","","","","","Rain,Fog"
"-81.11","44.74","WIARTON A","6119499","2020-12-12 10:00","2020","12","12","10:00","2.4","","1.6","","95","","","","9","","27","","9.7","","98.49","","","","","","Rain,Fog"
"-81.11","44.74","WIARTON A","6119499","2020-12-12 11:00","2020","12","12","11:00","2.6","","1.8","","95","","","","8","","22","","6.4","","98.34","","","","","","Rain,Fog"
"-81.11","44.74","WIARTON A","6119499","2020-12-12 12:00","2020","12","12","12:00","2.6","","1.9","","95","","","","8","","26","","6.4","","98.13","","","","","","Rain,Fog"
"-81.11","44.74","WIARTON A","6119499","2020-12-12 13:00","2020","12","12","13:00","2.7","","1.9","","94","","","","10","","27","","6.4","","97.92","","","","","","Moderate Rain,Fog"
"-81.11","44.74","WIARTON A","6119499","2020-12-12 14:00","2020","12","12","14:00","2.8","","1.9","","94","","","","9","","22","","9.7","","97.65","","","","","","Rain,Fog"
"-81.11","44.74","WIARTON A","6119499","2020-12-12 15:00","2020","12","12","15:00","2.7","","2.0","","95","","","","10","","18","","6.4","","97.51","","","","","","Moderate Rain,Fog"
"-81.11","44.74","WIARTON A","6119499","2020-12-12 16:00","2020","12","12","16:00","3.1","","2.5","","96","","","","8","","10","","9.7","","97.44","","","","","","Rain,Fog"
"-81.11","44.74","WIARTON A","6119499","2020-12-12 17:00","2020","12","12","17:00","3.6","","3.2","","97","","","","10","","10","","12.9","","97.33","","","","","","Rain"
"-81.11","44.74","WIARTON A","6119499","2020-12-12 18:00","2020","12","12","18:00","6.2","","5.8","","97","","","","18","","13","","16.1","","97.26","","","","","","NA"
"-81.11","44.74","WIARTON A","6119499","2020-12-12 19:00","2020","12","12","19:00","8.5","","7.6","","94","","","","19","","22","","24.1","","97.27","","","","","","Cloudy"
"-81.11","44.74","WIARTON A","6119499","2020-12-12 20:00","2020","12","12","20:00","6.9","","5.2","","89","","","","22","","29","","24.1","","97.32","","","","","","Rain"
"-81.11","44.74","WIARTON A","6119499","2020-12-12 21:00","2020","12","12","21:00","5.8","","3.9","","87","","","","21","","33","","24.1","","97.32","","","","","","NA"
"-81.11","44.74","WIARTON A","6119499","2020-12-12 22:00","2020","12","12","22:00","2.2","","1.5","","95","","","","32","","18","","12.9","","97.46","","","","","","Drizzle"
"-81.11","44.74","WIARTON A","6119499","2020-12-12 23:00","2020","12","12","23:00","-0.1","","-1.0","","93","","","","32","","17","","9.7","","97.75","","","","-5","","Snow"
"-81.11","44.74","WIARTON A","6119499","2020-12-13 00:00","2020","12","13","00:00","-1.2","","-2.4","","92","","","","32","","17","","8.1","","97.94","","","","-6","","Snow"
"-81.11","44.74","WIARTON A","6119499","2020-12-13 01:00","2020","12","13","01:00","-2.2","","-3.8","","89","","","","31","","13","","19.3","","98.09","","","","-7","","Cloudy"
"-81.11","44.74","WIARTON A","6119499","2020-12-13 02:00","2020","12","13","02:00","-2.9","","-4.6","","88","","","","31","","15","","16.1","","98.24","","","","-8","","NA"
"-81.11","44.74","WIARTON A","6119499","2020-12-13 03:00","2020","12","13","03:00","-3.0","","-4.5","","89","","","","32","","12","","24.1","","98.31","","","","-7","","NA"
"-81.11","44.74","WIARTON A","6119499","2020-12-13 04:00","2020","12","13","04:00","-3.6","","-5.5","","87","","","","31","","13","","24.1","","98.41","","","","-8","","Cloudy"
"-81.11","44.74","WIARTON A","6119499","2020-12-13 05:00","2020","12","13","05:00","-4.3","","-6.4","","85","","","","32","","11","","24.1","","98.54","","","","-9","","NA"
"-81.11","44.74","WIARTON A","6119499","2020-12-13 06:00","2020","12","13","06:00","-4.6","","-6.6","","86","","","","30","","16","","24.1","","98.70","","","","-10","","Snow"
"-81.11","44.74","WIARTON A","6119499","2020-12-13 07:00","2020","12","13","07:00","-5.0","","-7.5","","83","","","","28","","19","","24.1","","98.82","","","","-11","","Cloudy"
"-81.11","44.74","WIARTON A","6119499","2020-12-13 08:00","2020","12","13","08:00","-5.5","","-7.9","","83","","","","34","","8","","24.1","","98.85","","","","-9","","NA"
"-81.11","44.74","WIARTON A","6119499","2020-12-13 09:00","2020","12","13","09:00","-5.3","","-8.1","","81","","","","31","","9","","24.1","","99.00","","","","-9","","NA"
"-81.11","44.74","WIARTON A","6119499","2020-12-13 10:00","2020","12","13","10:00","-4.8","","-7.2","","83","","","","29","","12","","24.1","","99.03","","","","-10","","Cloudy"
"-81.11","44.74","WIARTON A","6119499","2020-12-13 11:00","2020","12","13","11:00","-4.1","","-6.2","","85","","","","32","","4","","24.1","","99.10","","","","-6","","NA"
"-81.11","44.74","WIARTON A","6119499","2020-12-13 12:00","2020","12","13","12:00","-2.5","","-4.7","","85","","","","28","","15","","24.1","","99.08","","","","-7","","NA"
"-81.11","44.74","WIARTON A","6119499","2020-12-13 13:00","2020","12","13","13:00","-1.9","","-3.6","","88","","","","27","","12","","24.1","","99.06","","","","-6","","Cloudy"
"-81.11","44.74","WIARTON A","6119499","2020-12-13 14:00","2020","12","13","14:00","-1.5","","-3.7","","85","","","","28","","17","","6.4","","99.06","","","","-7","","Snow"
"-81.11","44.74","WIARTON A","6119499","2020-12-13 15:00","2020","12","13","15:00","-1.6","","-3.2","","89","","","","30","","11","","16.1","","99.06","","","","-5","","NA"
"-81.11","44.74","WIARTON A","6119499","2020-12-13 16:00","2020","12","13","16:00","-1.5","","-3.2","","88","","","","27","","9","","1.2","","99.06","","","","-5","","Snow"
"-81.11","44.74","WIARTON A","6119499","2020-12-13 17:00","2020","12","13","17:00","-1.6","","-3.3","","88","","","","25","","12","","24.1","","99.10","","","","-6","","NA"
"-81.11","44.74","WIARTON A","6119499","2020-12-13 18:00","2020","12","13","18:00","-1.7","","-3.2","","90","","","","24","","11","","24.1","","99.17","","","","-6","","NA"
"-81.11","44.74","WIARTON A","6119499","2020-12-13 19:00","2020","12","13","19:00","-1.6","","-4.0","","84","","","","25","","13","","24.1","","99.16","","","","-6","","Snow"
"-81.11","44.74","WIARTON A","6119499","2020-12-13 20:00","2020","12","13","20:00","-1.7","","-4.6","","81","","","","25","","10","","24.1","","99.18","","","","-5","","NA"
"-81.11","44.74","WIARTON A","6119499","2020-12-13 21:00","2020","12","13","21:00","-1.7","","-4.0","","85","","","","23","","5","","24.1","","99.06","","","","-4","","NA"
"-81.11","44.74","WIARTON A","6119499","2020-12-13 22:00","2020","12","13","22:00","-1.5","","-3.5","","86","","","","21","","8","","24.1","","98.98","","","","-5","","Cloudy"
"-81.11","44.74","WIARTON A","6119499","2020-12-13 23:00","2020","12","13","23:00","-1.8","","-3.3","","90","","","","15","","9","","24.1","","98.93","","","","-5","","NA"
"-81.11","44.74","WIARTON A","6119499","2020-12-14 00:00","2020","12","14","00:00","-1.5","","-2.6","","93","","","","19","","10","","16.1","","98.92","","","","-5","","Snow"
"-81.11","44.74","WIARTON A","6119499","2020-12-14 01:00","2020","12","14","01:00","-1.4","","-2.6","","91","","","","18","","7","","24.1","","98.79","","","","-4","","Cloudy"
"-81.11","44.74","WIARTON A","6119499","2020-12-14 02:00","2020","12","14","02:00","-0.9","","-2.7","","88","","","","18","","11","","24.1","","98.78","","","","-5","","NA"
"-81.11","44.74","WIARTON A","6119499","2020-12-14 03:00","2020","12","14","03:00","-0.7","","-2.9","","85","","","","17","","14","","24.1","","98.67","","","","-5","","NA"
"-81.11","44.74","WIARTON A","6119499","2020-12-14 04:00","2020","12","14","04:00","-0.6","","-2.6","","87","","","","19","","12","","24.1","","98.58","","","","-5","","Cloudy"
"-81.11","44.74","WIARTON A","6119499","2020-12-14 05:00","2020","12","14","05:00","-0.4","","-2.7","","85","","","","18","","12","","24.1","","98.53","","","","-4","","NA"
"-81.11","44.74","WIARTON A","6119499","2020-12-14 06:00","2020","12","14","06:00","-0.3","","-2.6","","84","","","","19","","13","","24.1","","98.49","","","","-4","","NA"
"-81.11","44.74","WIARTON A","6119499","2020-12-14 07:00","2020","12","14","07:00","-0.2","","-2.5","","84","","","","20","","18","","24.1","","98.46","","","","-5","","Cloudy"
"-81.11","44.74","WIARTON A","6119499","2020-12-14 08:00","2020","12","14","08:00","0.7","","-3.9","","72","","","","24","","17","","19.3","","98.44","","","","","","Ice Pellets"
"-81.11","44.74","WIARTON A","6119499","2020-12-14 09:00","2020","12","14","09:00","0.4","","-3.9","","73","","","","27","","16","","19.3","","98.45","","","","","","Snow"
"-81.11","44.74","WIARTON A","6119499","2020-12-14 10:00","2020","12","14","10:00","-0.4","","-3.2","","81","","","","28","","17","","6.4","","98.53","","","","-5","","Snow"
"-81.11","44.74","WIARTON A","6119499","2020-12-14 11:00","2020","12","14","11:00","-1.1","","-2.7","","89","","","","27","","14","","4.8","","98.55","","","","-6","","Snow"
"-81.11","44.74","WIARTON A","6119499","2020-12-14 12:00","2020","12","14","12:00","-0.1","","-5.0","","70","","","","28","","22","","9.7","","98.54","","","","-6","","Snow"
"-81.11","44.74","WIARTON A","6119499","2020-12-14 13:00","2020","12","14","13:00","0.7","","-5.9","","61","","","","27","","30","","16.1","","98.53","","","","","","Snow"
"-81.11","44.74","WIARTON A","6119499","2020-12-14 14:00","2020","12","14","14:00","-1.6","","-4.4","","81","","","","30","","36","","3.2","","98.60","","","","-9","","Snow Showers"
"-81.11","44.74","WIARTON A","6119499","2020-12-14 15:00","2020","12","14","15:00","-1.5","","-2.7","","92","","","","31","","22","","9.7","","98.67","","","","-7","","Snow Showers"
"-81.11","44.74","WIARTON A","6119499","2020-12-14 16:00","2020","12","14","16:00","-2.2","","-3.9","","88","","","","29","","30","","3.2","","98.79","","","","-9","","Snow Showers"
"-81.11","44.74","WIARTON A","6119499","2020-12-14 17:00","2020","12","14","17:00","-2.1","","-3.6","","90","","","","29","","24","","3.2","","98.90","","","","-8","","Snow Showers"
"-81.11","44.74","WIARTON A","6119499","2020-12-14 18:00","2020","12","14","18:00","-1.9","","-5.6","","76","","","","31","","29","","6.4","","99.00","","","","-9","","Snow Showers"
"-81.11","44.74","WIARTON A","6119499","2020-12-14 19:00","2020","12","14","19:00","-4.0","","-5.8","","87","","","","32","","15","","6.4","","99.13","","","","-9","","Snow Showers"
"-81.11","44.74","WIARTON A","6119499","2020-12-14 20:00","2020","12","14","20:00","-3.8","","-5.7","","87","","","","32","","23","","16.1","","99.26","","","","-11","","Snow Showers"
"-81.11","44.74","WIARTON A","6119499","2020-12-14 21:00","2020","12","14","21:00","-4.3","","-5.7","","90","","","","33","","17","","1.2","","99.35","","","","-10","","Snow Showers"
"-81.11","44.74","WIARTON A","6119499","2020-12-14 22:00","2020","12","14","22:00","-4.6","","-6.5","","87","","","","32","","12","","6.4","","99.41","","","","-9","","Snow Showers"
"-81.11","44.74","WIARTON A","6119499","2020-12-14 23:00","2020","12","14","23:00","-4.9","","-7.1","","85","","","","34","","12","","4.8","","99.48","","","","-10","","Snow Showers"
"-81.11","44.74","WIARTON A","6119499","2020-12-15 00:00","2020","12","15","00:00","-5.6","","-7.3","","87","","","","33","","13","","4.8","","99.54","","","","-11","","Snow Showers"
"-81.11","44.74","WIARTON A","6119499","2020-12-15 01:00","2020","12","15","01:00","-5.7","","-8.6","","80","","","","34","","9","","4.8","","99.57","","","","-10","","Snow Showers"
"-81.11","44.74","WIARTON A","6119499","2020-12-15 02:00","2020","12","15","02:00","-5.8","","-8.7","","80","","","","33","","11","","9.7","","99.63","","","","-11","","Snow Showers"
"-81.11","44.74","WIARTON A","6119499","2020-12-15 03:00","2020","12","15","03:00","-5.9","","-9.7","","75","","","","33","","13","","12.9","","99.72","","","","-11","","Snow Showers"
"-81.11","44.74","WIARTON A","6119499","2020-12-15 04:00","2020","12","15","04:00","-6.4","","-10.8","","71","","","","33","","9","","19.3","","99.76","","","","-11","","Snow Showers"
"-81.11","44.74","WIARTON A","6119499","2020-12-15 05:00","2020","12","15","05:00","-6.8","","-10.9","","72","","","","33","","13","","19.3","","99.84","","","","-12","","Snow Showers"
"-81.11","44.74","WIARTON A","6119499","2020-12-15 06:00","2020","12","15","06:00","-7.4","","-11.1","","75","","","","34","","9","","24.1","","99.90","","","","-12","","NA"
"-81.11","44.74","WIARTON A","6119499","2020-12-15 07:00","2020","12","15","07:00","-8.0","","-11.3","","77","","","","34","","16","","24.1","","99.99","","","","-15","","Mainly Clear"
"-81.11","44.74","WIARTON A","6119499","2020-12-15 08:00","2020","12","15","08:00","-8.3","","-11.4","","78","","","","35","","14","","24.1","","100.07","","","","-14","","NA"
"-81.11","44.74","WIARTON A","6119499","2020-12-15 09:00","2020","12","15","09:00","-7.9","","-11.2","","77","","","","34","","13","","24.1","","100.12","","","","-14","","NA"
"-81.11","44.74","WIARTON A","6119499","2020-12-15 10:00","2020","12","15","10:00","-7.5","","-12.7","","67","","","","32","","12","","24.1","","100.20","","","","-13","","Mostly Cloudy"
"-81.11","44.74","WIARTON A","6119499","2020-12-15 11:00","2020","12","15","11:00","-6.8","","-13.8","","58","","","","31","","8","","24.1","","100.23","","","","-11","","NA"
"-81.11","44.74","WIARTON A","6119499","2020-12-15 12:00","2020","12","15","12:00","-6.1","","-14.2","","53","","","","32","","7","","24.1","","100.24","","","","-9","","NA"
"-81.11","44.74","WIARTON A","6119499","2020-12-15 13:00","2020","12","15","13:00","-5.8","","-14.4","","51","","","","1","","8","","24.1","","100.24","","","","-10","","Mainly Clear"
"-81.11","44.74","WIARTON A","6119499","2020-12-15 14:00","2020","12","15","14:00","-6.0","","-15.3","","48","","","","29","","8","","24.1","","100.21","","","","-10","","NA"
"-81.11","44.74","WIARTON A","6119499","2020-12-15 15:00","2020","12","15","15:00","-6.8","","-13.9","","57","","","","3","","9","","24.1","","100.24","","","","-11","","NA"
"-81.11","44.74","WIARTON A","6119499","2020-12-15 16:00","2020","12","15","16:00","-8.1","","-14.5","","60","","","","6","","10","","24.1","","100.27","","","","-13","","Mainly Clear"
"-81.11","44.74","WIARTON A","6119499","2020-12-15 17:00","2020","12","15","17:00","-8.3","","-13.4","","67","","","","7","","7","","24.1","","100.28","","","","-12","","NA"
"-81.11","44.74","WIARTON A","6119499","2020-12-15 18:00","2020","12","15","18:00","-9.2","","-13.5","","71","","","","4","","9","","24.1","","100.30","","","","-14","","NA"
"-81.11","44.74","WIARTON A","6119499","2020-12-15 19:00","2020","12","15","19:00","-8.4","","-12.2","","74","","","","5","","11","","24.1","","100.30","","","","-14","","Mostly Cloudy"
"-81.11","44.74","WIARTON A","6119499","2020-12-15 20:00","2020","12","15","20:00","-8.4","","-12.3","","74","","","","6","","11","","24.1","","100.26","","","","-14","","NA"
"-81.11","44.74","WIARTON A","6119499","2020-12-15 21:00","2020","12","15","21:00","-8.6","","-12.7","","73","","","","7","","13","","24.1","","100.22","","","","-15","","NA"
"-81.11","44.74","WIARTON A","6119499","2020-12-15 22:00","2020","12","15","22:00","-8.6","","-13.1","","70","","","","10","","7","","24.1","","100.19","","","","-12","","Mainly Clear"
"-81.11","44.74","WIARTON A","6119499","2020-12-15 23:00","2020","12","15","23:00","-9.0","","-13.2","","72","","","","6","","10","","24.1","","100.18","","","","-14","","NA"
"-81.11","44.74","WIARTON A","6119499","2020-12-16 00:00","2020","12","16","00:00","-7.8","","-12.2","","71","","","","8","","13","","24.1","","100.18","","","","-14","","NA"
"-81.11","44.74","WIARTON A","6119499","2020-12-16 01:00","2020","12","16","01:00","-7.8","","-13.2","","65","","","","7","","14","","24.1","","100.13","","","","-14","","Cloudy"
"-81.11","44.74","WIARTON A","6119499","2020-12-16 02:00","2020","12","16","02:00","-7.9","","-14.1","","61","","","","11","","13","","24.1","","100.13","","","","-14","","NA"
"-81.11","44.74","WIARTON A","6119499","2020-12-16 03:00","2020","12","16","03:00","-8.5","","-12.7","","72","","","","12","","13","","24.1","","100.16","","","","-14","","NA"
"-81.11","44.74","WIARTON A","6119499","2020-12-16 04:00","2020","12","16","04:00","-8.6","","-14.2","","64","","","","11","","14","","24.1","","100.10","","","","-15","","Cloudy"
"-81.11","44.74","WIARTON A","6119499","2020-12-16 05:00","2020","12","16","05:00","-8.3","","-17.0","","50","","","","11","","23","","24.1","","100.02","","","","-16","","NA"
"-81.11","44.74","WIARTON A","6119499","2020-12-16 06:00","2020","12","16","06:00","-8.5","","-15.7","","57","","","","11","","13","","24.1","","99.97","","","","-14","","NA"
"-81.11","44.74","WIARTON A","6119499","2020-12-16 07:00","2020","12","16","07:00","-8.1","","-14.2","","62","","","","10","","17","","24.1","","99.92","","","","-15","","Cloudy"
"-81.11","44.74","WIARTON A","6119499","2020-12-16 08:00","2020","12","16","08:00","-7.6","","-11.6","","73","","","","9","","22","","24.1","","99.89","","","","-15","","NA"
"-81.11","44.74","WIARTON A","6119499","2020-12-16 09:00","2020","12","16","09:00","-7.6","","-10.4","","80","","","","9","","25","","19.3","","99.87","","","","-16","","NA"
"-81.11","44.74","WIARTON A","6119499","2020-12-16 10:00","2020","12","16","10:00","-7.5","","-10.0","","82","","","","11","","27","","9.7","","99.83","","","","-16","","Snow"
"-81.11","44.74","WIARTON A","6119499","2020-12-16 11:00","2020","12","16","11:00","-7.5","","-11.2","","75","","","","10","","27","","19.3","","99.79","","","","-16","","NA"
"-81.11","44.74","WIARTON A","6119499","2020-12-16 12:00","2020","12","16","12:00","-7.1","","-11.1","","74","","","","11","","23","","19.3","","99.72","","","","-15","","NA"
"-81.11","44.74","WIARTON A","6119499","2020-12-16 13:00","2020","12","16","13:00","-7.0","","-11.3","","71","","","","10","","27","","19.3","","99.61","","","","-15","","Cloudy"
"-81.11","44.74","WIARTON A","6119499","2020-12-16 14:00","2020","12","16","14:00","-6.3","","-9.9","","76","","","","9","","20","","19.3","","99.51","","","","-13","","NA"
"-81.11","44.74","WIARTON A","6119499","2020-12-16 15:00","2020","12","16","15:00","-6.2","","-10.1","","74","","","","8","","25","","19.3","","99.44","","","","-14","","NA"
"-81.11","44.74","WIARTON A","6119499","2020-12-16 16:00","2020","12","16","16:00","-6.4","","-11.5","","67","","","","9","","21","","19.3","","99.44","","","","-13","","Cloudy"
"-81.11","44.74","WIARTON A","6119499","2020-12-16 17:00","2020","12","16","17:00","-6.6","","-13.2","","60","","","","10","","23","","24.1","","99.45","","","","-14","","NA"
"-81.11","44.74","WIARTON A","6119499","2020-12-16 18:00","2020","12","16","18:00","-6.3","","-12.9","","60","","","","9","","18","","24.1","","99.42","","","","-13","","NA"
"-81.11","44.74","WIARTON A","6119499","2020-12-16 19:00","2020","12","16","19:00","-6.3","","-12.5","","62","","","","9","","21","","24.1","","99.34","","","","-13","","Cloudy"
"-81.11","44.74","WIARTON A","6119499","2020-12-16 20:00","2020","12","16","20:00","-6.0","","-11.8","","64","","","","9","","17","","24.1","","99.35","","","","-12","","NA"
"-81.11","44.74","WIARTON A","6119499","2020-12-16 21:00","2020","12","16","21:00","-5.9","","-11.0","","68","","","","9","","20","","24.1","","99.28","","","","-13","","NA"
"-81.11","44.74","WIARTON A","6119499","2020-12-16 22:00","2020","12","16","22:00","-5.8","","-10.6","","69","","","","7","","16","","24.1","","99.22","","","","-12","","Cloudy"
"-81.11","44.74","WIARTON A","6119499","2020-12-16 23:00","2020","12","16","23:00","-5.6","","-10.4","","69","","","","8","","19","","24.1","","99.20","","","","-12","","NA"
"-81.11","44.74","WIARTON A","6119499","2020-12-17 00:00","2020","12","17","00:00","-5.8","","-9.8","","73","","","","7","","19","","24.1","","99.18","","","","-12","","NA"
"-81.11","44.74","WIARTON A","6119499","2020-12-17 01:00","2020","12","17","01:00","-5.7","","-9.1","","77","","","","8","","18","","24.1","","99.12","","","","-12","","Cloudy"
"-81.11","44.74","WIARTON A","6119499","2020-12-17 02:00","2020","12","17","02:00","-5.7","","-8.9","","78","","","","8","","14","","24.1","","99.13","","","","-11","","NA"
"-81.11","44.74","WIARTON A","6119499","2020-12-17 03:00","2020","12","17","03:00","-5.6","","-8.7","","79","","","","6","","13","","24.1","","99.15","","","","-11","","NA"
"-81.11","44.74","WIARTON A","6119499","2020-12-17 04:00","2020","12","17","04:00","-5.5","","-8.4","","80","","","","7","","13","","24.1","","99.16","","","","-11","","Cloudy"
"-81.11","44.74","WIARTON A","6119499","2020-12-17 05:00","2020","12","17","05:00","-5.3","","-8.1","","81","","","","7","","14","","16.1","","99.16","","","","-11","","Snow Showers"
"-81.11","44.74","WIARTON A","6119499","2020-12-17 06:00","2020","12","17","06:00","-4.9","","-7.5","","82","","","","8","","13","","16.1","","99.20","","","","-10","","Snow Showers"
"-81.11","44.74","WIARTON A","6119499","2020-12-17 07:00","2020","12","17","07:00","-4.9","","-7.2","","84","","","","9","","14","","16.1","","99.25","","","","-10","","Snow Showers"
"-81.11","44.74","WIARTON A","6119499","2020-12-17 08:00","2020","12","17","08:00","-5.1","","-7.5","","83","","","","9","","12","","24.1","","99.28","","","","-10","","NA"
"-81.11","44.74","WIARTON A","6119499","2020-12-17 09:00","2020","12","17","09:00","-4.8","","-7.1","","84","","","","8","","14","","24.1","","99.31","","","","-10","","Snow Grains"
"-81.11","44.74","WIARTON A","6119499","2020-12-17 10:00","2020","12","17","10:00","-4.4","","-6.5","","85","","","","10","","16","","24.1","","99.36","","","","-10","","Snow"
"-81.11","44.74","WIARTON A","6119499","2020-12-17 11:00","2020","12","17","11:00","-3.8","","-6.2","","84","","","","8","","19","","24.1","","99.36","","","","-10","","Snow"
"-81.11","44.74","WIARTON A","6119499","2020-12-17 12:00","2020","12","17","12:00","-3.6","","-6.3","","82","","","","6","","12","","24.1","","99.33","","","","-8","","NA"
"-81.11","44.74","WIARTON A","6119499","2020-12-17 13:00","2020","12","17","13:00","-3.2","","-6.4","","79","","","","10","","16","","24.1","","99.29","","","","-9","","Cloudy"
"-81.11","44.74","WIARTON A","6119499","2020-12-17 14:00","2020","12","17","14:00","-3.2","","-6.7","","77","","","","7","","14","","24.1","","99.30","","","","-8","","NA"
"-81.11","44.74","WIARTON A","6119499","2020-12-17 15:00","2020","12","17","15:00","-3.2","","-6.3","","79","","","","6","","10","","24.1","","99.34","","","","-7","","NA"
"-81.11","44.74","WIARTON A","6119499","2020-12-17 16:00","2020","12","17","16:00","-3.2","","-6.6","","77","","","","6","","12","","24.1","","99.39","","","","-8","","Mostly Cloudy"
"-81.11","44.74","WIARTON A","6119499","2020-12-17 17:00","2020","12","17","17:00","-3.0","","-6.5","","77","","","","8","","10","","24.1","","99.44","","","","-7","","NA"
"-81.11","44.74","WIARTON A","6119499","2020-12-17 18:00","2020","12","17","18:00","-2.7","","-6.4","","76","","","","8","","10","","24.1","","99.47","","","","-7","","NA"
"-81.11","44.74","WIARTON A","6119499","2020-12-17 19:00","2020","12","17","19:00","-3.0","","-7.1","","74","","","","12","","7","","24.1","","99.53","","","","-6","","Cloudy"
"-81.11","44.74","WIARTON A","6119499","2020-12-17 20:00","2020","12","17","20:00","-3.1","","-7.2","","73","","","","12","","7","","24.1","","99.61","","","","-6","","NA"
"-81.11","44.74","WIARTON A","6119499","2020-12-17 21:00","2020","12","17","21:00","-3.2","","-8.3","","68","","","","14","","12","","24.1","","99.65","","","","-8","","NA"
"-81.11","44.74","WIARTON A","6119499","2020-12-17 22:00","2020","12","17","22:00","-3.8","","-9.4","","65","","","","13","","8","","24.1","","99.67","","","","-7","","Cloudy"
"-81.11","44.74","WIARTON A","6119499","2020-12-17 23:00","2020","12","17","23:00","-3.9","","-9.7","","64","","","","36","","2","","24.1","","99.70","","","","-5","","NA"
"-81.11","44.74","WIARTON A","6119499","2020-12-18 00:00","2020","12","18","00:00","-4.8","","-9.7","","69","","","","14","","5","","24.1","","99.74","","","","-7","","NA"
"-81.11","44.74","WIARTON A","6119499","2020-12-18 01:00","2020","12","18","01:00","-5.4","","-10.6","","67","","","","14","","9","","24.1","","99.74","","","","-9","","Mostly Cloudy"
"-81.11","44.74","WIARTON A","6119499","2020-12-18 02:00","2020","12","18","02:00","-5.8","","-10.9","","67","","","","16","","10","","24.1","","99.79","","","","-10","","NA"
"-81.11","44.74","WIARTON A","6119499","2020-12-18 03:00","2020","12","18","03:00","-6.5","","-11.1","","70","","","","15","","12","","24.1","","99.89","","","","-12","","NA"
"-81.11","44.74","WIARTON A","6119499","2020-12-18 04:00","2020","12","18","04:00","-7.5","","-11.5","","74","","","","15","","13","","24.1","","99.92","","","","-13","","Mainly Clear"
"-81.11","44.74","WIARTON A","6119499","2020-12-18 05:00","2020","12","18","05:00","-7.9","","-11.8","","74","","","","13","","10","","24.1","","99.95","","","","-13","","NA"
"-81.11","44.74","WIARTON A","6119499","2020-12-18 06:00","2020","12","18","06:00","-8.6","","-12.2","","76","","","","12","","13","","24.1","","99.97","","","","-15","","NA"
"-81.11","44.74","WIARTON A","6119499","2020-12-18 07:00","2020","12","18","07:00","-8.1","","-11.5","","77","","","","12","","9","","24.1","","100.02","","","","-13","","Clear"
"-81.11","44.74","WIARTON A","6119499","2020-12-18 08:00","2020","12","18","08:00","-9.3","","-11.1","","87","","","","12","","10","","24.1","","100.04","","","","-14","","NA"
"-81.11","44.74","WIARTON A","6119499","2020-12-18 09:00","2020","12","18","09:00","-8.0","","-10.8","","81","","","","14","","10","","24.1","","100.12","","","","-13","","NA"
"-81.11","44.74","WIARTON A","6119499","2020-12-18 10:00","2020","12","18","10:00","-5.6","","-10.8","","67","","","","15","","11","","24.1","","100.15","","","","-10","","Clear"
"-81.11","44.74","WIARTON A","6119499","2020-12-18 11:00","2020","12","18","11:00","-4.1","","-10.2","","63","","","","20","","7","","24.1","","100.20","","","","-7","","NA"
"-81.11","44.74","WIARTON A","6119499","2020-12-18 12:00","2020","12","18","12:00","-2.8","","-10.1","","58","","","","20","","10","","24.1","","100.15","","","","-7","","NA"
"-81.11","44.74","WIARTON A","6119499","2020-12-18 13:00","2020","12","18","13:00","-2.1","","-9.6","","57","","","","17","","10","","24.1","","100.09","","","","-6","","Clear"
"-81.11","44.74","WIARTON A","6119499","2020-12-18 14:00","2020","12","18","14:00","-1.3","","-8.2","","60","","","","19","","13","","24.1","","100.05","","","","-6","","NA"
"-81.11","44.74","WIARTON A","6119499","2020-12-18 15:00","2020","12","18","15:00","-1.1","","-6.8","","65","","","","18","","15","","24.1","","100.02","","","","-6","","NA"
"-81.11","44.74","WIARTON A","6119499","2020-12-18 16:00","2020","12","18","16:00","-1.8","","-6.8","","69","","","","18","","13","","24.1","","100.02","","","","-6","","Mainly Clear"
"-81.11","44.74","WIARTON A","6119499","2020-12-18 17:00","2020","12","18","17:00","-2.6","","-7.0","","72","","","","16","","13","","24.1","","100.00","","","","-7","","NA"
"-81.11","44.74","WIARTON A","6119499","2020-12-18 18:00","2020","12","18","18:00","-1.8","","-6.0","","73","","","","18","","14","","24.1","","100.01","","","","-6","","NA"
"-81.11","44.74","WIARTON A","6119499","2020-12-18 19:00","2020","12","18","19:00","-1.4","","-4.9","","77","","","","18","","14","","24.1","","99.95","","","","-6","","Cloudy"
"-81.11","44.74","WIARTON A","6119499","2020-12-18 20:00","2020","12","18","20:00","-1.2","","-5.0","","76","","","","18","","22","","24.1","","99.94","","","","-7","","NA"
"-81.11","44.74","WIARTON A","6119499","2020-12-18 21:00","2020","12","18","21:00","-1.4","","-4.9","","77","","","","18","","20","","24.1","","99.88","","","","-7","","NA"
"-81.11","44.74","WIARTON A","6119499","2020-12-18 22:00","2020","12","18","22:00","-1.4","","-4.6","","79","","","","18","","18","","24.1","","99.81","","","","-7","","Cloudy"
"-81.11","44.74","WIARTON A","6119499","2020-12-18 23:00","2020","12","18","23:00","-1.4","","-4.6","","79","","","","17","","16","","24.1","","99.75","","","","-6","","NA"
"-81.11","44.74","WIARTON A","6119499","2020-12-19 00:00","2020","12","19","00:00","-1.4","","-4.8","","78","","","","19","","22","","24.1","","99.76","","","","-7","","NA"
"-81.11","44.74","WIARTON A","6119499","2020-12-19 01:00","2020","12","19","01:00","-1.6","","-5.0","","77","","","","19","","20","","24.1","","99.69","","","","-7","","Cloudy"
"-81.11","44.74","WIARTON A","6119499","2020-12-19 02:00","2020","12","19","02:00","-1.8","","-5.7","","75","","","","19","","21","","24.1","","99.63","","","","-8","","NA"
"-81.11","44.74","WIARTON A","6119499","2020-12-19 03:00","2020","12","19","03:00","-2.0","","-5.8","","76","","","","18","","25","","24.1","","99.59","","","","-8","","NA"
"-81.11","44.74","WIARTON A","6119499","2020-12-19 04:00","2020","12","19","04:00","-2.0","","-6.3","","72","","","","20","","26","","24.1","","99.54","","","","-9","","Cloudy"
"-81.11","44.74","WIARTON A","6119499","2020-12-19 05:00","2020","12","19","05:00","-1.8","","-5.7","","75","","","","19","","23","","24.1","","99.47","","","","-8","","NA"
"-81.11","44.74","WIARTON A","6119499","2020-12-19 06:00","2020","12","19","06:00","-1.2","","-4.7","","78","","","","19","","25","","24.1","","99.42","","","","-7","","NA"
"-81.11","44.74","WIARTON A","6119499","2020-12-19 07:00","2020","12","19","07:00","-1.2","","-4.2","","80","","","","19","","18","","24.1","","99.41","","","","-6","","Mainly Clear"
"-81.11","44.74","WIARTON A","6119499","2020-12-19 08:00","2020","12","19","08:00","-0.8","","-3.9","","80","","","","18","","19","","24.1","","99.33","","","","-6","","NA"
"-81.11","44.74","WIARTON A","6119499","2020-12-19 09:00","2020","12","19","09:00","-0.1","","-3.5","","78","","","","17","","23","","24.1","","99.31","","","","-6","","NA"
"-81.11","44.74","WIARTON A","6119499","2020-12-19 10:00","2020","12","19","10:00","0.4","","-3.1","","78","","","","19","","24","","24.1","","99.35","","","","","","Cloudy"
"-81.11","44.74","WIARTON A","6119499","2020-12-19 11:00","2020","12","19","11:00","0.6","","-2.5","","80","","","","18","","24","","9.7","","99.29","","","","","","Snow"
"-81.11","44.74","WIARTON A","6119499","2020-12-19 12:00","2020","12","19","12:00","0.0","","-0.8","","95","","","","17","","19","","1.0","","99.15","","","","-5","","Snow,Fog"
"-81.11","44.74","WIARTON A","6119499","2020-12-19 13:00","2020","12","19","13:00","0.6","","-0.7","","91","","","","18","","23","","4.8","","99.05","","","","","","Snow,Fog"
"-81.11","44.74","WIARTON A","6119499","2020-12-19 14:00","2020","12","19","14:00","0.8","","-0.5","","91","","","","18","","21","","6.4","","99.02","","","","","","Snow,Fog"
"-81.11","44.74","WIARTON A","6119499","2020-12-19 15:00","2020","12","19","15:00","0.7","","-0.2","","94","","","","19","","17","","3.2","","99.01","","","","","","Snow,Fog"
"-81.11","44.74","WIARTON A","6119499","2020-12-19 16:00","2020","12","19","16:00","0.9","","-0.2","","92","","","","19","","19","","6.4","","98.97","","","","","","Fog"
"-81.11","44.74","WIARTON A","6119499","2020-12-19 17:00","2020","12","19","17:00","0.9","","-0.2","","92","","","","19","","18","","6.4","","98.98","","","","","","Rain,Snow,Fog"
"-81.11","44.74","WIARTON A","6119499","2020-12-19 18:00","2020","12","19","18:00","0.8","","-0.1","","94","","","","18","","17","","4.8","","98.96","","","","","","Snow,Fog"
"-81.11","44.74","WIARTON A","6119499","2020-12-19 19:00","2020","12","19","19:00","0.7","","-0.1","","94","","","","18","","16","","6.4","","98.93","","","","","","Snow,Fog"
"-81.11","44.74","WIARTON A","6119499","2020-12-19 20:00","2020","12","19","20:00","0.8","","0.0","","94","","","","18","","14","","6.4","","98.90","","","","","","Snow,Fog"
"-81.11","44.74","WIARTON A","6119499","2020-12-19 21:00","2020","12","19","21:00","0.8","","0.2","","96","","","","18","","14","","4.8","","98.87","","","","","","Rain,Snow,Fog"
"-81.11","44.74","WIARTON A","6119499","2020-12-19 22:00","2020","12","19","22:00","0.8","","0.3","","97","","","","17","","17","","4.8","","98.78","","","","","","Rain,Snow,Fog"
"-81.11","44.74","WIARTON A","6119499","2020-12-19 23:00","2020","12","19","23:00","0.9","","0.3","","96","","","","18","","17","","4.8","","98.75","","","","","","Rain,Snow,Fog"
"-81.11","44.74","WIARTON A","6119499","2020-12-20 00:00","2020","12","20","00:00","0.9","","0.4","","97","","","","18","","16","","4.8","","98.71","","","","","","Snow,Fog"
"-81.11","44.74","WIARTON A","6119499","2020-12-20 01:00","2020","12","20","01:00","0.9","","0.4","","97","","","","19","","13","","4.8","","98.66","","","","","","Snow,Fog"
"-81.11","44.74","WIARTON A","6119499","2020-12-20 02:00","2020","12","20","02:00","0.9","","0.5","","97","","","","18","","18","","4.8","","98.66","","","","","","Fog"
"-81.11","44.74","WIARTON A","6119499","2020-12-20 03:00","2020","12","20","03:00","0.9","","0.6","","98","","","","17","","17","","2.4","","98.61","","","","","","Rain,Fog"
"-81.11","44.74","WIARTON A","6119499","2020-12-20 04:00","2020","12","20","04:00","0.9","","0.6","","98","","","","18","","17","","2.4","","98.54","","","","","","Rain,Fog"
"-81.11","44.74","WIARTON A","6119499","2020-12-20 05:00","2020","12","20","05:00","0.8","","0.6","","98","","","","18","","17","","2.4","","98.45","","","","","","Rain,Fog"
"-81.11","44.74","WIARTON A","6119499","2020-12-20 06:00","2020","12","20","06:00","1.0","","0.8","","99","","","","19","","17","","2.4","","98.41","","","","","","Fog"
"-81.11","44.74","WIARTON A","6119499","2020-12-20 07:00","2020","12","20","07:00","0.9","","0.8","","99","","","","18","","16","","2.4","","98.40","","","","","","Fog"
"-81.11","44.74","WIARTON A","6119499","2020-12-20 08:00","2020","12","20","08:00","1.1","","1.0","","99","","","","18","","13","","3.2","","98.33","","","","","","Rain,Fog"
"-81.11","44.74","WIARTON A","6119499","2020-12-20 09:00","2020","12","20","09:00","1.1","","1.0","","99","","","","18","","18","","2.4","","98.31","","","","","","Rain,Fog"
"-81.11","44.74","WIARTON A","6119499","2020-12-20 10:00","2020","12","20","10:00","1.4","","1.2","","99","","","","19","","22","","4.8","","98.30","","","","","","Rain,Fog"
"-81.11","44.74","WIARTON A","6119499","2020-12-20 11:00","2020","12","20","11:00","1.5","","1.3","","98","","","","19","","15","","4.8","","98.23","","","","","","Rain,Fog"
"-81.11","44.74","WIARTON A","6119499","2020-12-20 12:00","2020","12","20","12:00","2.1","","1.8","","98","","","","23","","20","","4.8","","98.15","","","","","","Rain,Fog"
"-81.11","44.74","WIARTON A","6119499","2020-12-20 13:00","2020","12","20","13:00","2.4","","1.4","","93","","","","24","","23","","4.8","","98.07","","","","","","Rain,Fog"
"-81.11","44.74","WIARTON A","6119499","2020-12-20 14:00","2020","12","20","14:00","2.5","","0.6","","87","","","","24","","15","","8.1","","98.01","","","","","","Fog"
"-81.11","44.74","WIARTON A","6119499","2020-12-20 15:00","2020","12","20","15:00","2.6","","0.4","","86","","","","24","","19","","9.7","","97.98","","","","","","Fog"
"-81.11","44.74","WIARTON A","6119499","2020-12-20 16:00","2020","12","20","16:00","1.9","","0.5","","90","","","","22","","19","","4.8","","98.00","","","","","","Rain,Fog"
"-81.11","44.74","WIARTON A","6119499","2020-12-20 17:00","2020","12","20","17:00","1.8","","0.0","","88","","","","24","","21","","6.4","","98.00","","","","","","Rain,Fog"
"-81.11","44.74","WIARTON A","6119499","2020-12-20 18:00","2020","12","20","18:00","1.7","","-2.9","","71","","","","24","","23","","12.9","","98.02","","","","","","NA"
"-81.11","44.74","WIARTON A","6119499","2020-12-20 19:00","2020","12","20","19:00","2.0","","-3.2","","69","","","","25","","21","","24.1","","98.01","","","","","","Cloudy"
"-81.11","44.74","WIARTON A","6119499","2020-12-20 20:00","2020","12","20","20:00","1.9","","-3.1","","70","","","","24","","21","","24.1","","97.99","","","","","","NA"
"-81.11","44.74","WIARTON A","6119499","2020-12-20 21:00","2020","12","20","21:00","1.9","","-2.4","","73","","","","24","","17","","24.1","","98.01","","","","","","NA"
"-81.11","44.74","WIARTON A","6119499","2020-12-20 22:00","2020","12","20","22:00","2.1","","-2.0","","74","","","","23","","23","","24.1","","97.99","","","","","","Cloudy"
"-81.11","44.74","WIARTON A","6119499","2020-12-20 23:00","2020","12","20","23:00","1.8","","-1.4","","79","","","","23","","24","","16.1","","97.99","","","","","","Snow Showers"
"-81.11","44.74","WIARTON A","6119499","2020-12-21 00:00","2020","12","21","00:00","1.9","","-1.8","","76","","","","23","","25","","19.3","","97.95","","","","","","NA"
"-81.11","44.74","WIARTON A","6119499","2020-12-21 01:00","2020","12","21","01:00","1.7","","-2.0","","76","","","","23","","20","","19.3","","97.92","","","","","","Cloudy"
"-81.11","44.74","WIARTON A","6119499","2020-12-21 02:00","2020","12","21","02:00","1.1","","-1.6","","83","","","","19","","12","","19.3","","97.90","","","","","","NA"
"-81.11","44.74","WIARTON A","6119499","2020-12-21 03:00","2020","12","21","03:00","1.1","","-1.4","","84","","","","20","","17","","19.3","","97.92","","","","","","NA"
"-81.11","44.74","WIARTON A","6119499","2020-12-21 04:00","2020","12","21","04:00","0.5","","-1.3","","87","","","","18","","18","","19.3","","97.89","","","","","","Cloudy"
"-81.11","44.74","WIARTON A","6119499","2020-12-21 05:00","2020","12","21","05:00","0.5","","-1.2","","89","","","","18","","15","","19.3","","97.85","","","","","","NA"
"-81.11","44.74","WIARTON A","6119499","2020-12-21 06:00","2020","12","21","06:00","0.6","","-0.9","","90","","","","18","","14","","16.1","","97.84","","","","","","Snow Showers"
"-81.11","44.74","WIARTON A","6119499","2020-12-21 07:00","2020","12","21","07:00","0.6","","-0.7","","91","","","","19","","16","","19.3","","97.84","","","","","","Cloudy"
"-81.11","44.74","WIARTON A","6119499","2020-12-21 08:00","2020","12","21","08:00","0.6","","-0.7","","91","","","","18","","15","","16.1","","97.83","","","","","","NA"
"-81.11","44.74","WIARTON A","6119499","2020-12-21 09:00","2020","12","21","09:00","0.8","","-0.5","","91","","","","18","","15","","19.3","","97.82","","","","","","NA"
"-81.11","44.74","WIARTON A","6119499","2020-12-21 10:00","2020","12","21","10:00","1.0","","-0.4","","91","","","","18","","10","","12.9","","97.81","","","","","","Cloudy"
"-81.11","44.74","WIARTON A","6119499","2020-12-21 11:00","2020","12","21","11:00","1.4","","-0.5","","87","","","","20","","16","","16.1","","97.77","","","","","","NA"
"-81.11","44.74","WIARTON A","6119499","2020-12-21 12:00","2020","12","21","12:00","1.6","","-0.4","","86","","","","19","","14","","16.1","","97.70","","","","","","NA"
"-81.11","44.74","WIARTON A","6119499","2020-12-21 13:00","2020","12","21","13:00","1.5","","-0.2","","88","","","","20","","13","","19.3","","97.66","","","","","","Cloudy"
"-81.11","44.74","WIARTON A","6119499","2020-12-21 14:00","2020","12","21","14:00","1.6","","-0.2","","88","","","","18","","11","","19.3","","97.64","","","","","","NA"
"-81.11","44.74","WIARTON A","6119499","2020-12-21 15:00","2020","12","21","15:00","1.8","","-0.1","","87","","","","18","","11","","12.9","","97.62","","","","","","NA"
"-81.11","44.74","WIARTON A","6119499","2020-12-21 16:00","2020","12","21","16:00","1.6","","-0.1","","89","","","","16","","9","","16.1","","97.66","","","","","","Cloudy"
"-81.11","44.74","WIARTON A","6119499","2020-12-21 17:00","2020","12","21","17:00","1.4","","0.0","","90","","","","18","","8","","16.1","","97.70","","","","","","NA"
"-81.11","44.74","WIARTON A","6119499","2020-12-21 18:00","2020","12","21","18:00","1.2","","-0.1","","91","","","","19","","7","","19.3","","97.71","","","","","","NA"
"-81.11","44.74","WIARTON A","6119499","2020-12-21 19:00","2020","12","21","19:00","1.1","","-0.1","","92","","","","17","","7","","9.7","","97.70","","","","","","Fog"
"-81.11","44.74","WIARTON A","6119499","2020-12-21 20:00","2020","12","21","20:00","1.0","","-0.2","","91","","","","20","","6","","6.4","","97.73","","","","","","Fog"
"-81.11","44.74","WIARTON A","6119499","2020-12-21 21:00","2020","12","21","21:00","1.2","","-0.2","","90","","","","36","","3","","6.4","","97.75","","","","","","Fog"
"-81.11","44.74","WIARTON A","6119499","2020-12-21 22:00","2020","12","21","22:00","1.0","","0.0","","93","","","","36","","2","","6.4","","97.75","","","","","","Fog"
"-81.11","44.74","WIARTON A","6119499","2020-12-21 23:00","2020","12","21","23:00","1.0","","-1.1","","86","","","","36","","1","","12.9","","97.78","","","","","","NA"
"-81.11","44.74","WIARTON A","6119499","2020-12-22 00:00","2020","12","22","00:00","1.4","","-1.9","","79","","","","36","","2","","16.1","","97.82","","","","","","NA"
"-81.11","44.74","WIARTON A","6119499","2020-12-22 01:00","2020","12","22","01:00","1.0","","-2.6","","77","","","","30","","4","","19.3","","97.86","","","","","","Mostly Cloudy"
"-81.11","44.74","WIARTON A","6119499","2020-12-22 02:00","2020","12","22","02:00","0.4","","-2.2","","83","","","","34","","7","","19.3","","97.92","","","","","","NA"
"-81.11","44.74","WIARTON A","6119499","2020-12-22 03:00","2020","12","22","03:00","-0.3","","-2.2","","87","","","","32","","7","","24.1","","98.03","","","","-3","","NA"
"-81.11","44.74","WIARTON A","6119499","2020-12-22 04:00","2020","12","22","04:00","-0.4","","-2.8","","84","","","","31","","11","","24.1","","98.09","","","","-4","","Mainly Clear"
"-81.11","44.74","WIARTON A","6119499","2020-12-22 05:00","2020","12","22","05:00","-0.4","","-3.1","","82","","","","31","","11","","24.1","","98.16","","","","-4","","NA"
"-81.11","44.74","WIARTON A","6119499","2020-12-22 06:00","2020","12","22","06:00","-0.4","","-2.8","","84","","","","29","","10","","24.1","","98.27","","","","-4","","NA"
"-81.11","44.74","WIARTON A","6119499","2020-12-22 07:00","2020","12","22","07:00","0.0","","-2.2","","85","","","","32","","8","","24.1","","98.35","","","","-3","","Cloudy"
"-81.11","44.74","WIARTON A","6119499","2020-12-22 08:00","2020","12","22","08:00","0.3","","-1.1","","90","","","","30","","22","","3.2","","98.43","","","","","","Snow"
"-81.11","44.74","WIARTON A","6119499","2020-12-22 09:00","2020","12","22","09:00","0.4","","-3.2","","77","","","","30","","21","","19.3","","98.56","","","","","","NA"
"-81.11","44.74","WIARTON A","6119499","2020-12-22 10:00","2020","12","22","10:00","0.2","","-3.9","","74","","","","29","","22","","24.1","","98.68","","","","","","Cloudy"
"-81.11","44.74","WIARTON A","6119499","2020-12-22 11:00","2020","12","22","11:00","0.3","","-3.2","","77","","","","31","","16","","24.1","","98.77","","","","","","NA"
"-81.11","44.74","WIARTON A","6119499","2020-12-22 12:00","2020","12","22","12:00","0.2","","-3.8","","75","","","","31","","23","","24.1","","98.83","","","","","","NA"
"-81.11","44.74","WIARTON A","6119499","2020-12-22 13:00","2020","12","22","13:00","0.0","","-3.6","","77","","","","31","","21","","24.1","","98.91","","","","-5","","Cloudy"
"-81.11","44.74","WIARTON A","6119499","2020-12-22 14:00","2020","12","22","14:00","0.2","","-3.5","","76","","","","30","","14","","24.1","","98.94","","","","","","NA"
"-81.11","44.74","WIARTON A","6119499","2020-12-22 15:00","2020","12","22","15:00","0.2","","-3.1","","79","","","","32","","11","","24.1","","99.03","","","","","","NA"
"-81.11","44.74","WIARTON A","6119499","2020-12-22 16:00","2020","12","22","16:00","-0.3","","-2.7","","84","","","","31","","10","","16.1","","99.16","","","","-4","","Cloudy"
"-81.11","44.74","WIARTON A","6119499","2020-12-22 17:00","2020","12","22","17:00","-0.2","","-3.0","","81","","","","31","","7","","24.1","","99.23","","","","-3","","NA"
"-81.11","44.74","WIARTON A","6119499","2020-12-22 18:00","2020","12","22","18:00","-0.1","","-3.1","","80","","","","29","","4","","24.1","","99.31","","","","-1","","NA"
"-81.11","44.74","WIARTON A","6119499","2020-12-22 19:00","2020","12","22","19:00","0.9","","-3.9","","70","","","","29","","12","","24.1","","99.40","","","","","","Cloudy"
"-81.11","44.74","WIARTON A","6119499","2020-12-22 20:00","2020","12","22","20:00","0.7","","-4.3","","69","","","","26","","5","","24.1","","99.39","","","","","","NA"
"-81.11","44.74","WIARTON A","6119499","2020-12-22 21:00","2020","12","22","21:00","0.6","","-4.5","","69","","","","25","","12","","24.1","","99.47","","","","","","NA"
"-81.11","44.74","WIARTON A","6119499","2020-12-22 22:00","2020","12","22","22:00","0.1","","-4.2","","73","","","","22","","7","","24.1","","99.36","","","","","","Cloudy"
"-81.11","44.74","WIARTON A","6119499","2020-12-22 23:00","2020","12","22","23:00","0.0","","-5.0","","69","","","","24","","9","","24.1","","99.47","","","","-3","","NA"
"-81.11","44.74","WIARTON A","6119499","2020-12-23 00:00","2020","12","23","00:00","-0.2","","-4.6","","72","","","","15","","11","","24.1","","99.42","","","","-4","","NA"
"-81.11","44.74","WIARTON A","6119499","2020-12-23 01:00","2020","12","23","01:00","-0.1","","-3.7","","77","","","","18","","15","","24.1","","99.42","","","","-5","","Cloudy"
"-81.11","44.74","WIARTON A","6119499","2020-12-23 02:00","2020","12","23","02:00","0.0","","-3.5","","77","","","","17","","14","","24.1","","99.37","","","","-4","","NA"
"-81.11","44.74","WIARTON A","6119499","2020-12-23 03:00","2020","12","23","03:00","0.0","","-3.7","","76","","","","17","","13","","24.1","","99.42","","","","-4","","NA"
"-81.11","44.74","WIARTON A","6119499","2020-12-23 04:00","2020","12","23","04:00","-0.1","","-3.7","","77","","","","16","","15","","24.1","","99.32","","","","-5","","Cloudy"
"-81.11","44.74","WIARTON A","6119499","2020-12-23 05:00","2020","12","23","05:00","0.0","","-3.3","","78","","","","16","","16","","24.1","","99.28","","","","-5","","NA"
"-81.11","44.74","WIARTON A","6119499","2020-12-23 06:00","2020","12","23","06:00","0.5","","-3.2","","76","","","","16","","22","","24.1","","99.20","","","","","","NA"
"-81.11","44.74","WIARTON A","6119499","2020-12-23 07:00","2020","12","23","07:00","0.8","","-2.8","","77","","","","16","","24","","24.1","","99.18","","","","","","Cloudy"
"-81.11","44.74","WIARTON A","6119499","2020-12-23 08:00","2020","12","23","08:00","1.3","","-2.0","","78","","","","16","","22","","24.1","","99.14","","","","","","NA"
"-81.11","44.74","WIARTON A","6119499","2020-12-23 09:00","2020","12","23","09:00","1.8","","-1.5","","79","","","","15","","27","","24.1","","98.98","","","","","","NA"
"-81.11","44.74","WIARTON A","6119499","2020-12-23 10:00","2020","12","23","10:00","3.1","","-1.6","","71","","","","16","","28","","24.1","","98.87","","","","","","Cloudy"
"-81.11","44.74","WIARTON A","6119499","2020-12-23 11:00","2020","12","23","11:00","3.8","","-1.6","","68","","","","17","","31","","24.1","","98.73","","","","","","NA"
"-81.11","44.74","WIARTON A","6119499","2020-12-23 12:00","2020","12","23","12:00","4.4","","-1.8","","64","","","","17","","35","","24.1","","98.50","","","","","","NA"
"-81.11","44.74","WIARTON A","6119499","2020-12-23 13:00","2020","12","23","13:00","6.1","","-2.5","","54","","","","17","","40","","24.1","","98.33","","","","","","Mostly Cloudy"
"-81.11","44.74","WIARTON A","6119499","2020-12-23 14:00","2020","12","23","14:00","6.5","","-3.0","","51","","","","16","","37","","24.1","","98.14","","","","","","NA"
"-81.11","44.74","WIARTON A","6119499","2020-12-23 15:00","2020","12","23","15:00","6.8","","-3.8","","47","","","","17","","38","","24.1","","98.05","","","","","","NA"
"-81.11","44.74","WIARTON A","6119499","2020-12-23 16:00","2020","12","23","16:00","6.8","","-3.9","","47","","","","17","","39","","24.1","","97.99","","","","","","Cloudy"
"-81.11","44.74","WIARTON A","6119499","2020-12-23 17:00","2020","12","23","17:00","6.7","","-3.5","","48","","","","17","","34","","24.1","","97.95","","","","","","NA"
"-81.11","44.74","WIARTON A","6119499","2020-12-23 18:00","2020","12","23","18:00","6.9","","-2.9","","50","","","","17","","39","","19.3","","97.82","","","","","","Rain Showers"
"-81.11","44.74","WIARTON A","6119499","2020-12-23 19:00","2020","12","23","19:00","7.5","","-2.4","","49","","","","18","","46","","24.1","","97.78","","","","","","Rain Showers"
"-81.11","44.74","WIARTON A","6119499","2020-12-23 20:00","2020","12","23","20:00","7.3","","-1.0","","56","","","","18","","39","","24.1","","97.73","","","","","","NA"
"-81.11","44.74","WIARTON A","6119499","2020-12-23 21:00","2020","12","23","21:00","7.5","","0.9","","63","","","","19","","37","","24.1","","97.69","","","","","","NA"
"-81.11","44.74","WIARTON A","6119499","2020-12-23 22:00","2020","12","23","22:00","7.6","","1.3","","64","","","","18","","34","","24.1","","97.66","","","","","","Cloudy"
"-81.11","44.74","WIARTON A","6119499","2020-12-23 23:00","2020","12","23","23:00","8.0","","1.9","","65","","","","19","","39","","24.1","","97.59","","","","","","NA"
"-81.11","44.74","WIARTON A","6119499","2020-12-24 00:00","2020","12","24","00:00","8.1","","2.3","","67","","","","18","","41","","24.1","","97.51","","","","","","NA"
"-81.11","44.74","WIARTON A","6119499","2020-12-24 01:00","2020","12","24","01:00","8.5","","2.2","","64","","","","18","","40","","24.1","","97.38","","","","","","Cloudy"
"-81.11","44.74","WIARTON A","6119499","2020-12-24 02:00","2020","12","24","02:00","8.8","","1.9","","62","","","","18","","46","","24.1","","97.27","","","","","","NA"
"-81.11","44.74","WIARTON A","6119499","2020-12-24 03:00","2020","12","24","03:00","8.6","","2.2","","64","","","","19","","39","","24.1","","97.24","","","","","","Rain Showers"
"-81.11","44.74","WIARTON A","6119499","2020-12-24 04:00","2020","12","24","04:00","7.5","","3.5","","76","","","","18","","46","","24.1","","97.17","","","","","","Rain Showers"
"-81.11","44.74","WIARTON A","6119499","2020-12-24 05:00","2020","12","24","05:00","6.9","","4.1","","82","","","","18","","39","","24.1","","97.11","","","","","","Rain Showers"
"-81.11","44.74","WIARTON A","6119499","2020-12-24 06:00","2020","12","24","06:00","7.6","","4.2","","79","","","","18","","43","","24.1","","97.03","","","","","","NA"
"-81.11","44.74","WIARTON A","6119499","2020-12-24 07:00","2020","12","24","07:00","7.8","","4.5","","79","","","","19","","30","","24.1","","97.02","","","","","","Cloudy"
"-81.11","44.74","WIARTON A","6119499","2020-12-24 08:00","2020","12","24","08:00","8.2","","4.8","","79","","","","19","","37","","24.1","","97.00","","","","","","NA"
"-81.11","44.74","WIARTON A","6119499","2020-12-24 09:00","2020","12","24","09:00","1.9","","1.1","","94","","","","26","","32","","6.4","","97.27","","","","","","Rain Showers,Fog"
"-81.11","44.74","WIARTON A","6119499","2020-12-24 10:00","2020","12","24","10:00","0.3","","-0.5","","95","","","","24","","30","","1.2","","97.45","","","","","","Snow Showers,Fog"
"-81.11","44.74","WIARTON A","6119499","2020-12-24 11:00","2020","12","24","11:00","-0.3","","-1.9","","89","","","","24","","31","","4.8","","97.56","","","","-7","","Snow Showers,Fog"
"-81.11","44.74","WIARTON A","6119499","2020-12-24 12:00","2020","12","24","12:00","-1.1","","-4.4","","78","","","","25","","28","","24.1","","97.61","","","","-8","","NA"
"-81.11","44.74","WIARTON A","6119499","2020-12-24 13:00","2020","12","24","13:00","-1.6","","-5.9","","73","","","","24","","30","","24.1","","97.65","","","","-9","","Mostly Cloudy"
"-81.11","44.74","WIARTON A","6119499","2020-12-24 14:00","2020","12","24","14:00","-2.0","","-6.0","","74","","","","24","","32","","24.1","","97.70","","","","-9","","NA"
"-81.11","44.74","WIARTON A","6119499","2020-12-24 15:00","2020","12","24","15:00","-2.2","","-5.9","","76","","","","24","","29","","24.1","","97.80","","","","-9","","NA"
"-81.11","44.74","WIARTON A","6119499","2020-12-24 16:00","2020","12","24","16:00","-2.3","","-6.3","","74","","","","24","","23","","24.1","","97.87","","","","-9","","Cloudy"
"-81.11","44.74","WIARTON A","6119499","2020-12-24 17:00","2020","12","24","17:00","-2.1","","-6.0","","75","","","","23","","16","","24.1","","97.93","","","","-7","","NA"
"-81.11","44.74","WIARTON A","6119499","2020-12-24 18:00","2020","12","24","18:00","-2.0","","-6.3","","73","","","","22","","9","","24.1","","97.99","","","","-5","","NA"
"-81.11","44.74","WIARTON A","6119499","2020-12-24 19:00","2020","12","24","19:00","-1.9","","-6.1","","74","","","","22","","6","","24.1","","97.97","","","","-4","","Cloudy"
"-81.11","44.74","WIARTON A","6119499","2020-12-24 20:00","2020","12","24","20:00","-2.5","","-5.7","","79","","","","16","","5","","24.1","","97.96","","","","-4","","NA"
"-81.11","44.74","WIARTON A","6119499","2020-12-24 21:00","2020","12","24","21:00","-2.8","","-5.3","","83","","","","3","","3","","24.1","","97.88","","","","-4","","NA"
"-81.11","44.74","WIARTON A","6119499","2020-12-24 22:00","2020","12","24","22:00","-1.9","","-6.7","","70","","","","33","","9","","24.1","","97.83","","","","-5","","Cloudy"
"-81.11","44.74","WIARTON A","6119499","2020-12-24 23:00","2020","12","24","23:00","-1.6","","-6.7","","68","","","","32","","4","","24.1","","97.83","","","","-3","","NA"
"-81.11","44.74","WIARTON A","6119499","2020-12-25 00:00","2020","12","25","00:00","-1.8","","-4.7","","80","","","","32","","12","","24.1","","97.76","","","","-6","","NA"
"-81.11","44.74","WIARTON A","6119499","2020-12-25 01:00","2020","12","25","01:00","-2.6","","-4.2","","89","","","","33","","15","","1.6","","97.65","","","","-8","","Snow Showers"
"-81.11","44.74","WIARTON A","6119499","2020-12-25 02:00","2020","12","25","02:00","-2.9","","-4.9","","86","","","","33","","11","","3.2","","97.59","","","","-7","","Snow Showers"
"-81.11","44.74","WIARTON A","6119499","2020-12-25 03:00","2020","12","25","03:00","-3.0","","-4.3","","90","","","","32","","12","","2.4","","97.60","","","","-7","","Snow Showers"
"-81.11","44.74","WIARTON A","6119499","2020-12-25 04:00","2020","12","25","04:00","-3.3","","-4.0","","95","","","","31","","14","","1.2","","97.43","","","","-8","","Snow Showers"
"-81.11","44.74","WIARTON A","6119499","2020-12-25 05:00","2020","12","25","05:00","-3.7","","-4.5","","94","","","","31","","15","","1.2","","97.47","","","","-9","","Snow Showers"
"-81.11","44.74","WIARTON A","6119499","2020-12-25 06:00","2020","12","25","06:00","-4.0","","-5.0","","93","","","","32","","15","","1.2","","97.42","","","","-9","","Snow Showers"
"-81.11","44.74","WIARTON A","6119499","2020-12-25 07:00","2020","12","25","07:00","-3.5","","-4.5","","93","","","","31","","16","","2.4","","97.42","","","","-9","","Snow Showers"
"-81.11","44.74","WIARTON A","6119499","2020-12-25 08:00","2020","12","25","08:00","-3.1","","-3.8","","95","","","","31","","16","","1.2","","97.36","","","","-8","","Snow"
"-81.11","44.74","WIARTON A","6119499","2020-12-25 09:00","2020","12","25","09:00","-3.3","","-4.1","","94","","","","32","","17","","1.0","","97.39","","","","-9","","Snow"
"-81.11","44.74","WIARTON A","6119499","2020-12-25 10:00","2020","12","25","10:00","-3.7","","-4.7","","93","","","","33","","13","","1.0","","97.42","","","","-9","","Snow"
"-81.11","44.74","WIARTON A","6119499","2020-12-25 11:00","2020","12","25","11:00","-4.0","","-5.2","","91","","","","32","","11","","1.6","","97.39","","","","-8","","Snow"
"-81.11","44.74","WIARTON A","6119499","2020-12-25 12:00","2020","12","25","12:00","-4.2","","-5.5","","91","","","","31","","11","","2.4","","97.34","","","","-9","","Snow"
"-81.11","44.74","WIARTON A","6119499","2020-12-25 13:00","2020","12","25","13:00","-4.6","","-5.8","","91","","","","32","","14","","1.2","","97.27","","","","-10","","Snow"
"-81.11","44.74","WIARTON A","6119499","2020-12-25 14:00","2020","12","25","14:00","-4.6","","-6.0","","90","","","","31","","11","","1.0","","97.25","","","","-9","","Snow"
"-81.11","44.74","WIARTON A","6119499","2020-12-25 15:00","2020","12","25","15:00","-4.7","","-5.9","","92","","","","31","","11","","1.0","","97.26","","","","-9","","Snow"
"-81.11","44.74","WIARTON A","6119499","2020-12-25 16:00","2020","12","25","16:00","-5.3","","-6.9","","88","","","","33","","14","","3.2","","97.27","","","","-11","","Snow"
"-81.11","44.74","WIARTON A","6119499","2020-12-25 17:00","2020","12","25","17:00","-5.9","","-7.0","","92","","","","33","","10","","0.8","","97.29","","","","-10","","Moderate Snow"
"-81.11","44.74","WIARTON A","6119499","2020-12-25 18:00","2020","12","25","18:00","-6.3","","-7.4","","92","","","","31","","13","","0.8","","97.32","","","","-12","","Moderate Snow"
"-81.11","44.74","WIARTON A","6119499","2020-12-25 19:00","2020","12","25","19:00","-6.5","","-7.5","","92","","","","32","","11","","0.8","","97.32","","","","-11","","Moderate Snow"
"-81.11","44.74","WIARTON A","6119499","2020-12-25 20:00","2020","12","25","20:00","-6.9","","-8.1","","91","","","","32","","11","","0.8","","97.32","","","","-12","","Moderate Snow"
"-81.11","44.74","WIARTON A","6119499","2020-12-25 21:00","2020","12","25","21:00","-7.4","","-9.1","","88","","","","33","","13","","19.3","","97.33","","","","-13","","Snow"
"-81.11","44.74","WIARTON A","6119499","2020-12-25 22:00","2020","12","25","22:00","-8.0","","-10.3","","83","","","","34","","13","","19.3","","97.34","","","","-14","","Snow"
"-81.11","44.74","WIARTON A","6119499","2020-12-25 23:00","2020","12","25","23:00","-8.2","","-10.3","","85","","","","32","","9","","1.6","","97.33","","","","-13","","Snow"
"-81.11","44.74","WIARTON A","6119499","2020-12-26 00:00","2020","12","26","00:00","-8.3","","-9.9","","88","","","","32","","10","","3.2","","97.35","","","","-13","","Snow"
"-81.11","44.74","WIARTON A","6119499","2020-12-26 01:00","2020","12","26","01:00","-8.0","","-9.4","","90","","","","31","","10","","1.6","","97.37","","","","-13","","Snow"
"-81.11","44.74","WIARTON A","6119499","2020-12-26 02:00","2020","12","26","02:00","-7.5","","-8.7","","91","","","","30","","11","","1.6","","97.41","","","","-13","","Snow"
"-81.11","44.74","WIARTON A","6119499","2020-12-26 03:00","2020","12","26","03:00","-6.8","","-7.9","","92","","","","32","","9","","6.4","","97.48","","","","-11","","Snow Showers"
"-81.11","44.74","WIARTON A","6119499","2020-12-26 04:00","2020","12","26","04:00","-6.6","","-8.3","","88","","","","33","","8","","24.1","","97.51","","","","-10","","Snow Showers"
"-81.11","44.74","WIARTON A","6119499","2020-12-26 05:00","2020","12","26","05:00","-6.4","","-9.1","","81","","","","30","","6","","19.3","","97.56","","","","-9","","Snow Showers"
"-81.11","44.74","WIARTON A","6119499","2020-12-26 06:00","2020","12","26","06:00","-6.7","","-8.1","","89","","","","25","","5","","4.8","","97.62","","","","-9","","Snow Showers"
"-81.11","44.74","WIARTON A","6119499","2020-12-26 07:00","2020","12","26","07:00","-6.9","","-7.9","","93","","","","3","","3","","3.2","","97.67","","","","-8","","Snow Showers"
"-81.11","44.74","WIARTON A","6119499","2020-12-26 08:00","2020","12","26","08:00","-6.2","","-7.2","","93","","","","4","","3","","1.0","","97.70","","","","-8","","Snow Showers"
"-81.11","44.74","WIARTON A","6119499","2020-12-26 09:00","2020","12","26","09:00","-5.9","","-6.9","","93","","","","36","","3","","1.0","","97.74","","","","-7","","Snow"
"-81.11","44.74","WIARTON A","6119499","2020-12-26 10:00","2020","12","26","10:00","-5.5","","-6.7","","91","","","","35","","8","","1.2","","97.84","","","","-9","","Snow"
"-81.11","44.74","WIARTON A","6119499","2020-12-26 11:00","2020","12","26","11:00","-4.8","","-6.8","","86","","","","33","","8","","12.9","","97.92","","","","-8","","NA"
"-81.11","44.74","WIARTON A","6119499","2020-12-26 12:00","2020","12","26","12:00","-4.6","","-7.6","","80","","","","32","","8","","24.1","","97.92","","","","-8","","NA"
"-81.11","44.74","WIARTON A","6119499","2020-12-26 13:00","2020","12","26","13:00","-4.3","","-7.8","","76","","","","32","","17","","24.1","","97.96","","","","-10","","Mostly Cloudy"
"-81.11","44.74","WIARTON A","6119499","2020-12-26 14:00","2020","12","26","14:00","-3.9","","-7.7","","75","","","","32","","13","","24.1","","97.99","","","","-9","","NA"
"-81.11","44.74","WIARTON A","6119499","2020-12-26 15:00","2020","12","26","15:00","-3.8","","-6.9","","80","","","","31","","9","","24.1","","98.05","","","","-8","","NA"
"-81.11","44.74","WIARTON A","6119499","2020-12-26 16:00","2020","12","26","16:00","-4.1","","-6.4","","84","","","","1","","7","","24.1","","98.14","","","","-7","","Cloudy"
"-81.11","44.74","WIARTON A","6119499","2020-12-26 17:00","2020","12","26","17:00","-4.4","","-6.3","","86","","","","32","","7","","24.1","","98.24","","","","-8","","NA"
"-81.11","44.74","WIARTON A","6119499","2020-12-26 18:00","2020","12","26","18:00","-4.6","","-6.2","","88","","","","33","","7","","16.1","","98.33","","","","-8","","Snow Showers"
"-81.11","44.74","WIARTON A","6119499","2020-12-26 19:00","2020","12","26","19:00","-4.7","","-6.0","","91","","","","35","","4","","1.2","","98.38","","","","-6","","Snow Showers"
"-81.11","44.74","WIARTON A","6119499","2020-12-26 20:00","2020","12","26","20:00","-5.0","","-6.3","","90","","","","30","","8","","1.2","","98.47","","","","-9","","Snow Showers"
"-81.11","44.74","WIARTON A","6119499","2020-12-26 21:00","2020","12","26","21:00","-5.1","","-6.3","","91","","","","36","","2","","3.2","","98.52","","","","-6","","Snow Showers"
"-81.11","44.74","WIARTON A","6119499","2020-12-26 22:00","2020","12","26","22:00","-5.1","","-6.8","","88","","","","34","","10","","1.6","","98.57","","","","-9","","Snow Showers"
"-81.11","44.74","WIARTON A","6119499","2020-12-26 23:00","2020","12","26","23:00","-5.3","","-7.3","","85","","","","34","","9","","1.0","","98.64","","","","-9","","Snow Showers"
"-81.11","44.74","WIARTON A","6119499","2020-12-27 00:00","2020","12","27","00:00","-5.4","","-9.2","","75","","","","34","","7","","9.7","","98.70","","","","-9","","Snow Showers"
"-81.11","44.74","WIARTON A","6119499","2020-12-27 01:00","2020","12","27","01:00","-5.7","","-9.1","","77","","","","21","","10","","12.9","","98.73","","","","-10","","Snow Showers"
"-81.11","44.74","WIARTON A","6119499","2020-12-27 02:00","2020","12","27","02:00","-6.1","","-8.0","","86","","","","19","","8","","16.1","","98.77","","","","-10","","Snow Showers"
"-81.11","44.74","WIARTON A","6119499","2020-12-27 03:00","2020","12","27","03:00","-6.2","","-8.1","","87","","","","15","","9","","19.3","","98.86","","","","-10","","Snow Showers"
"-81.11","44.74","WIARTON A","6119499","2020-12-27 04:00","2020","12","27","04:00","-6.1","","-7.8","","88","","","","13","","10","","24.1","","98.87","","","","-11","","Cloudy"
"-81.11","44.74","WIARTON A","6119499","2020-12-27 05:00","2020","12","27","05:00","-5.6","","-8.2","","82","","","","12","","6","","24.1","","98.94","","","","-8","","NA"
"-81.11","44.74","WIARTON A","6119499","2020-12-27 06:00","2020","12","27","06:00","-5.5","","-7.9","","84","","","","13","","9","","24.1","","99.01","","","","-10","","NA"
"-81.11","44.74","WIARTON A","6119499","2020-12-27 07:00","2020","12","27","07:00","-5.1","","-7.3","","84","","","","11","","9","","24.1","","99.03","","","","-9","","Cloudy"
"-81.11","44.74","WIARTON A","6119499","2020-12-27 08:00","2020","12","27","08:00","-4.9","","-7.0","","85","","","","12","","10","","24.1","","99.03","","","","-9","","NA"
"-81.11","44.74","WIARTON A","6119499","2020-12-27 09:00","2020","12","27","09:00","-4.2","","-6.6","","83","","","","15","","13","","24.1","","99.05","","","","-9","","NA"
"-81.11","44.74","WIARTON A","6119499","2020-12-27 10:00","2020","12","27","10:00","-3.1","","-6.2","","79","","","","17","","14","","19.3","","99.10","","","","-8","","Cloudy"
"-81.11","44.74","WIARTON A","6119499","2020-12-27 11:00","2020","12","27","11:00","-2.3","","-6.2","","75","","","","17","","16","","19.3","","99.09","","","","-7","","NA"
"-81.11","44.74","WIARTON A","6119499","2020-12-27 12:00","2020","12","27","12:00","-1.7","","-6.6","","70","","","","16","","22","","19.3","","98.99","","","","-8","","NA"
"-81.11","44.74","WIARTON A","6119499","2020-12-27 13:00","2020","12","27","13:00","-1.9","","-6.3","","72","","","","16","","19","","19.3","","98.91","","","","-7","","Cloudy"
"-81.11","44.74","WIARTON A","6119499","2020-12-27 14:00","2020","12","27","14:00","-1.8","","-6.3","","71","","","","17","","16","","19.3","","98.85","","","","-7","","NA"
"-81.11","44.74","WIARTON A","6119499","2020-12-27 15:00","2020","12","27","15:00","-1.8","","-5.6","","75","","","","17","","9","","19.3","","98.81","","","","-5","","NA"
"-81.11","44.74","WIARTON A","6119499","2020-12-27 16:00","2020","12","27","16:00","-1.8","","-5.5","","76","","","","13","","14","","19.3","","98.74","","","","-6","","Cloudy"
"-81.11","44.74","WIARTON A","6119499","2020-12-27 17:00","2020","12","27","17:00","-1.6","","-5.2","","76","","","","12","","16","","19.3","","98.61","","","","-7","","NA"
"-81.11","44.74","WIARTON A","6119499","2020-12-27 18:00","2020","12","27","18:00","-1.7","","-5.2","","77","","","","11","","19","","24.1","","98.45","","","","-7","","NA"
"-81.11","44.74","WIARTON A","6119499","2020-12-27 19:00","2020","12","27","19:00","-1.7","","-5.0","","78","","","","11","","15","","24.1","","98.39","","","","-7","","Cloudy"
"-81.11","44.74","WIARTON A","6119499","2020-12-27 20:00","2020","12","27","20:00","-1.0","","-4.4","","78","","","","12","","14","","24.1","","98.33","","","","-5","","NA"
"-81.11","44.74","WIARTON A","6119499","2020-12-27 21:00","2020","12","27","21:00","-0.8","","-3.8","","80","","","","10","","14","","24.1","","98.27","","","","-5","","NA"
"-81.11","44.74","WIARTON A","6119499","2020-12-27 22:00","2020","12","27","22:00","-0.3","","-3.1","","81","","","","10","","16","","19.3","","98.12","","","","-5","","Cloudy"
"-81.11","44.74","WIARTON A","6119499","2020-12-27 23:00","2020","12","27","23:00","0.1","","-2.1","","86","","","","10","","14","","19.3","","97.97","","","","","","NA"
"-81.11","44.74","WIARTON A","6119499","2020-12-28 00:00","2020","12","28","00:00","1.6","","0.8","","94","","","","17","","24","","6.4","","97.80","","","","","","Fog"
"-81.11","44.74","WIARTON A","6119499","2020-12-28 01:00","2020","12","28","01:00","1.6","","0.7","","93","","","","18","","26","","6.4","","97.65","","","","","","Rain,Fog"
"-81.11","44.74","WIARTON A","6119499","2020-12-28 02:00","2020","12","28","02:00","1.0","","0.3","","95","","","","19","","24","","4.8","","97.56","","","","","","Rain,Fog"
"-81.11","44.74","WIARTON A","6119499","2020-12-28 03:00","2020","12","28","03:00","0.4","","0.1","","98","","","","19","","21","","3.2","","97.51","","","","","","Rain,Snow,Fog"
"-81.11","44.74","WIARTON A","6119499","2020-12-28 04:00","2020","12","28","04:00","1.1","","0.7","","97","","","","19","","21","","4.8","","97.46","","","","","","Snow,Fog"
"-81.11","44.74","WIARTON A","6119499","2020-12-28 05:00","2020","12","28","05:00","2.3","","2.0","","97","","","","25","","14","","3.2","","97.47","","","","","","Rain,Fog"
"-81.11","44.74","WIARTON A","6119499","2020-12-28 06:00","2020","12","28","06:00","1.0","","0.5","","96","","","","28","","17","","3.2","","97.61","","","","","","Rain,Fog"
"-81.11","44.74","WIARTON A","6119499","2020-12-28 07:00","2020","12","28","07:00","0.7","","0.4","","98","","","","26","","20","","3.2","","97.75","","","","","","Snow,Fog"
"-81.11","44.74","WIARTON A","6119499","2020-12-28 08:00","2020","12","28","08:00","0.4","","-0.6","","93","","","","30","","31","","6.4","","97.96","","","","","","Fog"
"-81.11","44.74","WIARTON A","6119499","2020-12-28 09:00","2020","12","28","09:00","-0.7","","-2.2","","89","","","","30","","23","","16.1","","98.20","","","","-7","","NA"
"-81.11","44.74","WIARTON A","6119499","2020-12-28 10:00","2020","12","28","10:00","-0.7","","-2.8","","86","","","","31","","14","","16.1","","98.42","","","","-5","","Cloudy"
"-81.11","44.74","WIARTON A","6119499","2020-12-28 11:00","2020","12","28","11:00","-0.8","","-3.2","","84","","","","31","","14","","19.3","","98.55","","","","-5","","NA"
"-81.11","44.74","WIARTON A","6119499","2020-12-28 12:00","2020","12","28","12:00","-1.1","","-2.4","","91","","","","30","","12","","3.2","","98.64","","","","-5","","Snow"
"-81.11","44.74","WIARTON A","6119499","2020-12-28 13:00","2020","12","28","13:00","-0.5","","-3.6","","80","","","","30","","20","","9.7","","98.72","","","","-6","","Snow"
"-81.11","44.74","WIARTON A","6119499","2020-12-28 14:00","2020","12","28","14:00","-1.1","","-2.6","","90","","","","29","","19","","3.2","","98.84","","","","-6","","Snow"
"-81.11","44.74","WIARTON A","6119499","2020-12-28 15:00","2020","12","28","15:00","-1.4","","-6.9","","66","","","","30","","20","","16.1","","98.97","","","","-7","","NA"
"-81.11","44.74","WIARTON A","6119499","2020-12-28 16:00","2020","12","28","16:00","-2.4","","-5.0","","83","","","","29","","15","","4.8","","99.10","","","","-7","","Snow"
"-81.11","44.74","WIARTON A","6119499","2020-12-28 17:00","2020","12","28","17:00","-3.2","","-4.3","","92","","","","31","","14","","0.8","","99.21","","","","-8","","Moderate Snow Showers"
"-81.11","44.74","WIARTON A","6119499","2020-12-28 18:00","2020","12","28","18:00","-3.5","","-5.0","","90","","","","33","","9","","24.1","","99.27","","","","-7","","NA"
"-81.11","44.74","WIARTON A","6119499","2020-12-28 19:00","2020","12","28","19:00","-4.2","","-5.9","","88","","","","31","","7","","16.1","","99.36","","","","-7","","Snow Showers"
"-81.11","44.74","WIARTON A","6119499","2020-12-28 20:00","2020","12","28","20:00","-4.5","","-5.9","","90","","","","34","","5","","1.6","","99.44","","","","-7","","Snow Showers"
"-81.11","44.74","WIARTON A","6119499","2020-12-28 21:00","2020","12","28","21:00","-4.8","","-6.1","","91","","","","33","","5","","1.6","","99.49","","","","-7","","Snow Showers"
"-81.11","44.74","WIARTON A","6119499","2020-12-28 22:00","2020","12","28","22:00","-5.2","","-6.5","","91","","","","33","","8","","3.2","","99.53","","","","-9","","Snow Showers"
"-81.11","44.74","WIARTON A","6119499","2020-12-28 23:00","2020","12","28","23:00","-5.2","","-6.1","","93","","","","32","","8","","3.2","","99.58","","","","-9","","Snow Showers"
"-81.11","44.74","WIARTON A","6119499","2020-12-29 00:00","2020","12","29","00:00","-5.6","","-6.7","","92","","","","32","","4","","1.6","","99.61","","","","-7","","Snow Showers"
"-81.11","44.74","WIARTON A","6119499","2020-12-29 01:00","2020","12","29","01:00","-5.4","","-6.4","","93","","","","29","","14","","1.6","","99.69","","","","-11","","Snow Showers"
"-81.11","44.74","WIARTON A","6119499","2020-12-29 02:00","2020","12","29","02:00","-5.3","","-6.7","","89","","","","30","","9","","4.8","","99.77","","","","-9","","Snow Showers"
"-81.11","44.74","WIARTON A","6119499","2020-12-29 03:00","2020","12","29","03:00","-5.0","","-7.0","","86","","","","31","","5","","4.8","","99.86","","","","-7","","Snow Showers"
"-81.11","44.74","WIARTON A","6119499","2020-12-29 04:00","2020","12","29","04:00","-4.6","","-7.5","","80","","","","30","","11","","6.4","","99.92","","","","-9","","Snow Showers"
"-81.11","44.74","WIARTON A","6119499","2020-12-29 05:00","2020","12","29","05:00","-4.6","","-6.9","","84","","","","32","","12","","9.7","","100.00","","","","-9","","Snow Showers"
"-81.11","44.74","WIARTON A","6119499","2020-12-29 06:00","2020","12","29","06:00","-4.9","","-7.3","","83","","","","33","","12","","12.9","","100.12","","","","-10","","Snow Showers"
"-81.11","44.74","WIARTON A","6119499","2020-12-29 07:00","2020","12","29","07:00","-5.8","","-8.7","","80","","","","33","","9","","16.1","","100.22","","","","-10","","Mainly Clear"
"-81.11","44.74","WIARTON A","6119499","2020-12-29 08:00","2020","12","29","08:00","-6.0","","-9.6","","75","","","","34","","10","","24.1","","100.32","","","","-10","","NA"
"-81.11","44.74","WIARTON A","6119499","2020-12-29 09:00","2020","12","29","09:00","-6.1","","-10.0","","74","","","","34","","4","","24.1","","100.40","","","","-8","","NA"
"-81.11","44.74","WIARTON A","6119499","2020-12-29 10:00","2020","12","29","10:00","-5.4","","-10.9","","65","","","","34","","6","","24.1","","100.52","","","","-8","","Mainly Clear"
"-81.11","44.74","WIARTON A","6119499","2020-12-29 11:00","2020","12","29","11:00","-4.7","","-10.1","","66","","","","32","","7","","24.1","","100.58","","","","-8","","NA"
"-81.11","44.74","WIARTON A","6119499","2020-12-29 12:00","2020","12","29","12:00","-4.6","","-9.8","","68","","","","22","","6","","24.1","","100.55","","","","-7","","NA"
"-81.11","44.74","WIARTON A","6119499","2020-12-29 13:00","2020","12","29","13:00","-4.4","","-8.9","","71","","","","19","","9","","24.1","","100.50","","","","-8","","Mostly Cloudy"
"-81.11","44.74","WIARTON A","6119499","2020-12-29 14:00","2020","12","29","14:00","-4.2","","-8.6","","72","","","","18","","14","","24.1","","100.48","","","","-9","","NA"
"-81.11","44.74","WIARTON A","6119499","2020-12-29 15:00","2020","12","29","15:00","-4.1","","-7.8","","75","","","","19","","17","","24.1","","100.48","","","","-10","","NA"
"-81.11","44.74","WIARTON A","6119499","2020-12-29 16:00","2020","12","29","16:00","-4.0","","-7.6","","76","","","","19","","13","","24.1","","100.45","","","","-9","","Mostly Cloudy"
"-81.11","44.74","WIARTON A","6119499","2020-12-29 17:00","2020","12","29","17:00","-3.8","","-8.6","","69","","","","22","","8","","24.1","","100.47","","","","-7","","NA"
"-81.11","44.74","WIARTON A","6119499","2020-12-29 18:00","2020","12","29","18:00","-4.4","","-9.0","","71","","","","19","","16","","24.1","","100.50","","","","-10","","NA"
"-81.11","44.74","WIARTON A","6119499","2020-12-29 19:00","2020","12","29","19:00","-4.8","","-9.4","","70","","","","18","","17","","24.1","","100.44","","","","-11","","Mostly Cloudy"
"-81.11","44.74","WIARTON A","6119499","2020-12-29 20:00","2020","12","29","20:00","-5.4","","-9.6","","73","","","","18","","16","","24.1","","100.41","","","","-11","","NA"
"-81.11","44.74","WIARTON A","6119499","2020-12-29 21:00","2020","12","29","21:00","-5.8","","-9.9","","73","","","","18","","16","","24.1","","100.32","","","","-12","","NA"
"-81.11","44.74","WIARTON A","6119499","2020-12-29 22:00","2020","12","29","22:00","-6.2","","-10.2","","73","","","","17","","17","","24.1","","100.24","","","","-12","","Cloudy"
"-81.11","44.74","WIARTON A","6119499","2020-12-29 23:00","2020","12","29","23:00","-6.5","","-10.5","","73","","","","17","","17","","24.1","","100.18","","","","-13","","NA"
"-81.11","44.74","WIARTON A","6119499","2020-12-30 00:00","2020","12","30","00:00","-6.4","","-10.5","","73","","","","15","","15","","24.1","","100.08","","","","-12","","NA"
"-81.11","44.74","WIARTON A","6119499","2020-12-30 01:00","2020","12","30","01:00","-6.0","","-10.3","","72","","","","16","","20","","24.1","","99.90","","","","-13","","Cloudy"
"-81.11","44.74","WIARTON A","6119499","2020-12-30 02:00","2020","12","30","02:00","-5.3","","-9.4","","73","","","","17","","21","","24.1","","99.80","","","","-12","","NA"
"-81.11","44.74","WIARTON A","6119499","2020-12-30 03:00","2020","12","30","03:00","-4.6","","-8.8","","73","","","","16","","18","","24.1","","99.68","","","","-11","","NA"
"-81.11","44.74","WIARTON A","6119499","2020-12-30 04:00","2020","12","30","04:00","-4.1","","-7.7","","76","","","","16","","21","","1.6","","99.40","","","","-11","","Snow"
"-81.11","44.74","WIARTON A","6119499","2020-12-30 05:00","2020","12","30","05:00","-4.3","","-5.5","","91","","","","14","","20","","1.2","","99.25","","","","-11","","Snow"
"-81.11","44.74","WIARTON A","6119499","2020-12-30 06:00","2020","12","30","06:00","-3.8","","-4.8","","93","","","","15","","23","","0.8","","99.02","","","","-11","","Moderate Snow"
"-81.11","44.74","WIARTON A","6119499","2020-12-30 07:00","2020","12","30","07:00","-2.8","","-4.5","","88","","","","15","","26","","24.1","","98.81","","","","-10","","Blowing Snow"
"-81.11","44.74","WIARTON A","6119499","2020-12-30 08:00","2020","12","30","08:00","-1.6","","-5.4","","75","","","","16","","27","","24.1","","98.61","","","","-8","","Blowing Snow"
"-81.11","44.74","WIARTON A","6119499","2020-12-30 09:00","2020","12","30","09:00","-1.8","","-3.0","","91","","","","17","","31","","1.0","","98.47","","","","-9","","Snow,Blowing Snow"
"-81.11","44.74","WIARTON A","6119499","2020-12-30 10:00","2020","12","30","10:00","-1.4","","-2.6","","91","","","","17","","33","","3.2","","98.30","","","","-9","","Snow,Blowing Snow"
"-81.11","44.74","WIARTON A","6119499","2020-12-30 11:00","2020","12","30","11:00","-0.7","","-1.7","","93","","","","19","","27","","1.0","","98.28","","","","-7","","Snow,Blowing Snow"
"-81.11","44.74","WIARTON A","6119499","2020-12-30 12:00","2020","12","30","12:00","0.4","","-0.6","","92","","","","20","","32","","3.2","","98.06","","","","","","Snow,Fog"
"-81.11","44.74","WIARTON A","6119499","2020-12-30 13:00","2020","12","30","13:00","0.5","","-0.1","","96","","","","20","","27","","1.0","","97.94","","","","","","Snow,Fog"
"-81.11","44.74","WIARTON A","6119499","2020-12-30 14:00","2020","12","30","14:00","0.6","","0.1","","97","","","","21","","26","","1.6","","97.84","","","","","","Snow,Fog"
"-81.11","44.74","WIARTON A","6119499","2020-12-30 15:00","2020","12","30","15:00","0.4","","0.2","","98","","","","22","","23","","1.6","","97.84","","","","","","Rain,Snow,Fog"
"-81.11","44.74","WIARTON A","6119499","2020-12-30 16:00","2020","12","30","16:00","0.7","","0.5","","98","","","","22","","23","","4.8","","97.80","","","","","","Rain,Fog"
"-81.11","44.74","WIARTON A","6119499","2020-12-30 17:00","2020","12","30","17:00","2.2","","1.8","","97","","","","24","","27","","9.7","","97.77","","","","","","Rain,Fog"
"-81.11","44.74","WIARTON A","6119499","2020-12-30 18:00","2020","12","30","18:00","2.5","","1.1","","91","","","","24","","29","","16.1","","97.81","","","","","","Rain Showers"
"-81.11","44.74","WIARTON A","6119499","2020-12-30 19:00","2020","12","30","19:00","0.9","","-0.1","","93","","","","26","","24","","2.4","","97.84","","","","","","Snow Showers"
"-81.11","44.74","WIARTON A","6119499","2020-12-30 20:00","2020","12","30","20:00","1.4","","-1.2","","83","","","","28","","23","","24.1","","97.89","","","","","","NA"
"-81.11","44.74","WIARTON A","6119499","2020-12-30 21:00","2020","12","30","21:00","1.5","","-2.5","","75","","","","27","","25","","24.1","","97.95","","","","","","NA"
"-81.11","44.74","WIARTON A","6119499","2020-12-30 22:00","2020","12","30","22:00","0.7","","-3.3","","75","","","","28","","29","","24.1","","98.07","","","","","","Snow Showers"
"-81.11","44.74","WIARTON A","6119499","2020-12-30 23:00","2020","12","30","23:00","0.3","","-5.2","","67","","","","28","","33","","24.1","","98.15","","","","","","NA"
"-81.11","44.74","WIARTON A","6119499","2020-12-31 00:00","2020","12","31","00:00","0.0","","-6.1","","64","","","","27","","23","","24.1","","98.24","","","","-6","","NA"
"-81.11","44.74","WIARTON A","6119499","2020-12-31 01:00","2020","12","31","01:00","-0.1","","-6.1","","64","","","","27","","22","","24.1","","98.34","","","","-6","","Cloudy"
"-81.11","44.74","WIARTON A","6119499","2020-12-31 02:00","2020","12","31","02:00","-0.1","","-6.3","","63","","","","28","","28","","24.1","","98.44","","","","-6","","NA"
"-81.11","44.74","WIARTON A","6119499","2020-12-31 03:00","2020","12","31","03:00","-0.1","","-5.6","","67","","","","28","","30","","24.1","","98.61","","","","-7","","NA"
"-81.11","44.74","WIARTON A","6119499","2020-12-31 04:00","2020","12","31","04:00","-0.2","","-4.4","","73","","","","26","","18","","24.1","","98.68","","","","-5","","Cloudy"
"-81.11","44.74","WIARTON A","6119499","2020-12-31 05:00","2020","12","31","05:00","0.0","","-4.1","","74","","","","26","","16","","24.1","","98.71","","","","-5","","NA"
"-81.11","44.74","WIARTON A","6119499","2020-12-31 06:00","2020","12","31","06:00","0.1","","-3.5","","77","","","","32","","10","","24.1","","98.93","","","","","","NA"
"-81.11","44.74","WIARTON A","6119499","2020-12-31 07:00","2020","12","31","07:00","-0.4","","-4.1","","76","","","","31","","9","","24.1","","99.02","","","","-4","","Mostly Cloudy"
"-81.11","44.74","WIARTON A","6119499","2020-12-31 08:00","2020","12","31","08:00","-1.4","","-2.1","","95","","","","26","","7","","0.8","","99.15","","","","-4","","Moderate Snow Showers"
"-81.11","44.74","WIARTON A","6119499","2020-12-31 09:00","2020","12","31","09:00","-1.3","","-1.8","","96","","","","36","","2","","24.1","","99.26","","","","-2","","NA"
"-81.11","44.74","WIARTON A","6119499","2020-12-31 10:00","2020","12","31","10:00","-1.1","","-2.0","","93","","","","23","","4","","24.1","","99.36","","","","-2","","Cloudy"
"-81.11","44.74","WIARTON A","6119499","2020-12-31 11:00","2020","12","31","11:00","0.3","","-3.1","","78","","","","30","","11","","24.1","","99.46","","","","","","NA"
"-81.11","44.74","WIARTON A","6119499","2020-12-31 12:00","2020","12","31","12:00","0.1","","-2.6","","82","","","","30","","14","","24.1","","99.50","","","","","","NA"
"-81.11","44.74","WIARTON A","6119499","2020-12-31 13:00","2020","12","31","13:00","0.7","","-4.0","","71","","","","28","","19","","24.1","","99.53","","","","","","Cloudy"
"-81.11","44.74","WIARTON A","6119499","2020-12-31 14:00","2020","12","31","14:00","0.6","","-4.1","","71","","","","28","","14","","24.1","","99.58","","","","","","NA"
"-81.11","44.74","WIARTON A","6119499","2020-12-31 15:00","2020","12","31","15:00","0.5","","-4.7","","68","","","","27","","9","","24.1","","99.67","","","","","","NA"
"-81.11","44.74","WIARTON A","6119499","2020-12-31 16:00","2020","12","31","16:00","0.1","","-4.4","","72","","","","26","","9","","24.1","","99.77","","","","","","Cloudy"
"-81.11","44.74","WIARTON A","6119499","2020-12-31 17:00","2020","12","31","17:00","-0.1","","-4.8","","71","","","","28","","8","","24.1","","99.82","","","","-3","","NA"
"-81.11","44.74","WIARTON A","6119499","2020-12-31 18:00","2020","12","31","18:00","-0.6","","-4.3","","76","","","","25","","4","","24.1","","99.89","","","","-2","","NA"
"-81.11","44.74","WIARTON A","6119499","2020-12-31 19:00","2020","12","31","19:00","-0.3","","-4.6","","73","","","","25","","6","","24.1","","99.94","","","","-2","","Cloudy"
"-81.11","44.74","WIARTON A","6119499","2020-12-31 20:00","2020","12","31","20:00","-0.8","","-4.7","","75","","","","24","","9","","24.1","","100.04","","","","-4","","NA"
"-81.11","44.74","WIARTON A","6119499","2020-12-31 21:00","2020","12","31","21:00","-0.3","","-5.9","","66","","","","25","","14","","24.1","","100.16","","","","-5","","NA"
"-81.11","44.74","WIARTON A","6119499","2020-12-31 22:00","2020","12","31","22:00","-0.3","","-6.2","","65","","","","24","","14","","24.1","","100.20","","","","-5","","Cloudy"
"-81.11","44.74","WIARTON A","6119499","2020-12-31 23:00","2020","12","31","23:00","-0.5","","-5.6","","68","","","","24","","14","","24.1","","100.22","","","","-5","","NA"
