"Longitude (x)","Latitude (y)","Station Name","Climate ID","Date/Time (LST)","Year","Month","Day","Time (LST)","Temp (°C)","Temp Flag","Dew Point Temp (°C)","Dew Point Temp Flag","Rel Hum (%)","Rel Hum Flag","Precip. Amount (mm)","Precip. Amount Flag","Wind Dir (10s deg)","Wind Dir Flag","Wind Spd (km/h)","Wind Spd Flag","Visibility (km)","Visibility Flag","Stn Press (kPa)","Stn Press Flag","Hmdx","Hmdx Flag","Wind Chill","Wind Chill Flag","Weather"
"-76.60","44.22","KINGSTON CLIMATE","6104142","2020-01-01 00:00","2020","01","01","00:00","0.6","","","M","","M","0.0","","25","","25","","","","98.78","","","","","","NA"
"-76.60","44.22","KINGSTON CLIMATE","6104142","2020-01-01 01:00","2020","01","01","01:00","0.4","","","M","","M","0.0","","25","","21","","","","98.80","","","","","","NA"
"-76.60","44.22","KINGSTON CLIMATE","6104142","2020-01-01 02:00","2020","01","01","02:00","0.5","","","M","","M","0.0","","25","","24","","","","98.85","","","","","","NA"
"-76.60","44.22","KINGSTON CLIMATE","6104142","2020-01-01 03:00","2020","01","01","03:00","0.1","","","M","","M","0.0","","25","","27","","","","98.89","","","","","","NA"
"-76.60","44.22","KINGSTON CLIMATE","6104142","2020-01-01 04:00","2020","01","01","04:00","-0.2","","","M","","M","0.0","","25","","28","","","","98.94","","","","-7","","NA"
"-76.60","44.22","KINGSTON CLIMATE","6104142","2020-01-01 05:00","2020","01","01","05:00","-0.4","","","M","","M","0.0","","25","","26","","","","98.95","","","","-7","","NA"
"-76.60","44.22","KINGSTON CLIMATE","6104142","2020-01-01 06:00","2020","01","01","06:00","-0.3","","","M","","M","0.0","","25","","28","","","","98.97","","","","-7","","NA"
"-76.60","44.22","KINGSTON CLIMATE","6104142","2020-01-01 07:00","2020","01","01","07:00","-0.6","","","M","","M","0.0","","25","","21","","","","99.01","","","","-6","","NA"
"-76.60","44.22","KINGSTON CLIMATE","6104142","2020-01-01 08:00","2020","01","01","08:00","-0.6","","","M","","M","0.0","","25","","25","","","","99.04","","","","-7","","NA"
"-76.60","44.22","KINGSTON CLIMATE","6104142","2020-01-01 09:00","2020","01","01","09:00","-0.5","","","M","","M","0.1","","25","","22","","","","99.13","","","","-6","","NA"
"-76.60","44.22","KINGSTON CLIMATE","6104142","2020-01-01 10:00","2020","01","01","10:00","-0.3","","","M","","M","0.0","","26","","23","","","","99.21","","","","-6","","NA"
"-76.60","44.22","KINGSTON CLIMATE","6104142","2020-01-01 11:00","2020","01","01","11:00","0.0","","","M","","M","0.0","","26","","24","","","","99.24","","","","-6","","NA"
"-76.60","44.22","KINGSTON CLIMATE","6104142","2020-01-01 12:00","2020","01","01","12:00","0.4","","","M","","M","0.0","","26","","26","","","","99.24","","","","","","NA"
"-76.60","44.22","KINGSTON CLIMATE","6104142","2020-01-01 13:00","2020","01","01","13:00","0.7","","","M","","M","0.0","","26","","27","","","","99.23","","","","","","NA"
"-76.60","44.22","KINGSTON CLIMATE","6104142","2020-01-01 14:00","2020","01","01","14:00","0.7","","","M","","M","0.0","","25","","27","","","","99.26","","","","","","NA"
"-76.60","44.22","KINGSTON CLIMATE","6104142","2020-01-01 15:00","2020","01","01","15:00","0.9","","","M","","M","0.0","","25","","21","","","","99.33","","","","","","NA"
"-76.60","44.22","KINGSTON CLIMATE","6104142","2020-01-01 16:00","2020","01","01","16:00","0.7","","","M","","M","0.0","","25","","25","","","","99.41","","","","","","NA"
"-76.60","44.22","KINGSTON CLIMATE","6104142","2020-01-01 17:00","2020","01","01","17:00","0.8","","","M","","M","0.0","","24","","22","","","","99.49","","","","","","NA"
"-76.60","44.22","KINGSTON CLIMATE","6104142","2020-01-01 18:00","2020","01","01","18:00","0.7","","","M","","M","0.0","","25","","25","","","","99.57","","","","","","NA"
"-76.60","44.22","KINGSTON CLIMATE","6104142","2020-01-01 19:00","2020","01","01","19:00","0.5","","","M","","M","0.0","","25","","28","","","","99.62","","","","","","NA"
"-76.60","44.22","KINGSTON CLIMATE","6104142","2020-01-01 20:00","2020","01","01","20:00","0.2","","","M","","M","0.0","","24","","25","","","","99.64","","","","","","NA"
"-76.60","44.22","KINGSTON CLIMATE","6104142","2020-01-01 21:00","2020","01","01","21:00","-0.1","","","M","","M","0.0","","24","","26","","","","99.68","","","","-6","","NA"
"-76.60","44.22","KINGSTON CLIMATE","6104142","2020-01-01 22:00","2020","01","01","22:00","-1.0","","","M","","M","0.0","","25","","17","","","","99.69","","","","-6","","NA"
"-76.60","44.22","KINGSTON CLIMATE","6104142","2020-01-01 23:00","2020","01","01","23:00","-1.1","","","M","","M","0.0","","24","","17","","","","99.71","","","","-6","","NA"
"-76.60","44.22","KINGSTON CLIMATE","6104142","2020-01-02 00:00","2020","01","02","00:00","-1.7","","","M","","M","0.0","","22","","10","","","","99.66","","","","-5","","NA"
"-76.60","44.22","KINGSTON CLIMATE","6104142","2020-01-02 01:00","2020","01","02","01:00","-0.6","","","M","","M","0.0","","20","","9","","","","99.64","","","","-4","","NA"
"-76.60","44.22","KINGSTON CLIMATE","6104142","2020-01-02 02:00","2020","01","02","02:00","1.2","","","M","","M","0.0","","20","","18","","","","99.62","","","","","","NA"
"-76.60","44.22","KINGSTON CLIMATE","6104142","2020-01-02 03:00","2020","01","02","03:00","1.6","","","M","","M","0.0","","20","","20","","","","99.61","","","","","","NA"
"-76.60","44.22","KINGSTON CLIMATE","6104142","2020-01-02 04:00","2020","01","02","04:00","2.0","","","M","","M","0.0","","20","","19","","","","99.62","","","","","","NA"
"-76.60","44.22","KINGSTON CLIMATE","6104142","2020-01-02 05:00","2020","01","02","05:00","2.1","","","M","","M","0.0","","19","","23","","","","99.56","","","","","","NA"
"-76.60","44.22","KINGSTON CLIMATE","6104142","2020-01-02 06:00","2020","01","02","06:00","2.3","","","M","","M","0.0","","19","","19","","","","99.58","","","","","","NA"
"-76.60","44.22","KINGSTON CLIMATE","6104142","2020-01-02 07:00","2020","01","02","07:00","2.8","","","M","","M","0.0","","20","","19","","","","99.56","","","","","","NA"
"-76.60","44.22","KINGSTON CLIMATE","6104142","2020-01-02 08:00","2020","01","02","08:00","2.9","","","M","","M","0.0","","20","","19","","","","99.54","","","","","","NA"
"-76.60","44.22","KINGSTON CLIMATE","6104142","2020-01-02 09:00","2020","01","02","09:00","3.1","","","M","","M","0.0","","20","","21","","","","99.58","","","","","","NA"
"-76.60","44.22","KINGSTON CLIMATE","6104142","2020-01-02 10:00","2020","01","02","10:00","3.9","","","M","","M","0.0","","20","","22","","","","99.57","","","","","","NA"
"-76.60","44.22","KINGSTON CLIMATE","6104142","2020-01-02 11:00","2020","01","02","11:00","3.8","","","M","","M","0.0","","20","","20","","","","99.53","","","","","","NA"
"-76.60","44.22","KINGSTON CLIMATE","6104142","2020-01-02 12:00","2020","01","02","12:00","4.8","","","M","","M","0.0","","19","","24","","","","99.44","","","","","","NA"
"-76.60","44.22","KINGSTON CLIMATE","6104142","2020-01-02 13:00","2020","01","02","13:00","4.7","","","M","","M","0.0","","20","","26","","","","99.38","","","","","","NA"
"-76.60","44.22","KINGSTON CLIMATE","6104142","2020-01-02 14:00","2020","01","02","14:00","5.1","","","M","","M","0.0","","20","","22","","","","99.33","","","","","","NA"
"-76.60","44.22","KINGSTON CLIMATE","6104142","2020-01-02 15:00","2020","01","02","15:00","4.9","","","M","","M","0.0","","20","","21","","","","99.32","","","","","","NA"
"-76.60","44.22","KINGSTON CLIMATE","6104142","2020-01-02 16:00","2020","01","02","16:00","5.1","","","M","","M","0.0","","20","","22","","","","99.29","","","","","","NA"
"-76.60","44.22","KINGSTON CLIMATE","6104142","2020-01-02 17:00","2020","01","02","17:00","5.6","","","M","","M","0.0","","21","","18","","","","99.31","","","","","","NA"
"-76.60","44.22","KINGSTON CLIMATE","6104142","2020-01-02 18:00","2020","01","02","18:00","5.9","","","M","","M","0.0","","22","","15","","","","99.31","","","","","","NA"
"-76.60","44.22","KINGSTON CLIMATE","6104142","2020-01-02 19:00","2020","01","02","19:00","5.7","","","M","","M","0.0","","22","","15","","","","99.33","","","","","","NA"
"-76.60","44.22","KINGSTON CLIMATE","6104142","2020-01-02 20:00","2020","01","02","20:00","5.6","","","M","","M","0.0","","20","","18","","","","99.38","","","","","","NA"
"-76.60","44.22","KINGSTON CLIMATE","6104142","2020-01-02 21:00","2020","01","02","21:00","5.3","","","M","","M","0.0","","20","","16","","","","99.37","","","","","","NA"
"-76.60","44.22","KINGSTON CLIMATE","6104142","2020-01-02 22:00","2020","01","02","22:00","5.9","","","M","","M","0.0","","22","","20","","","","99.38","","","","","","NA"
"-76.60","44.22","KINGSTON CLIMATE","6104142","2020-01-02 23:00","2020","01","02","23:00","4.8","","","M","","M","0.0","","20","","13","","","","99.39","","","","","","NA"
"-76.60","44.22","KINGSTON CLIMATE","6104142","2020-01-03 00:00","2020","01","03","00:00","4.7","","","M","","M","0.0","","20","","13","","","","99.32","","","","","","NA"
"-76.60","44.22","KINGSTON CLIMATE","6104142","2020-01-03 01:00","2020","01","03","01:00","4.6","","","M","","M","0.0","","20","","14","","","","99.35","","","","","","NA"
"-76.60","44.22","KINGSTON CLIMATE","6104142","2020-01-03 02:00","2020","01","03","02:00","4.6","","","M","","M","0.0","","21","","13","","","","99.40","","","","","","NA"
"-76.60","44.22","KINGSTON CLIMATE","6104142","2020-01-03 03:00","2020","01","03","03:00","4.3","","","M","","M","0.0","","20","","15","","","","99.49","","","","","","NA"
"-76.60","44.22","KINGSTON CLIMATE","6104142","2020-01-03 04:00","2020","01","03","04:00","3.3","","","M","","M","0.0","","19","","12","","","","99.41","","","","","","NA"
"-76.60","44.22","KINGSTON CLIMATE","6104142","2020-01-03 05:00","2020","01","03","05:00","2.9","","","M","","M","0.0","","20","","11","","","","99.40","","","","","","NA"
"-76.60","44.22","KINGSTON CLIMATE","6104142","2020-01-03 06:00","2020","01","03","06:00","3.6","","","M","","M","0.0","","19","","15","","","","99.45","","","","","","NA"
"-76.60","44.22","KINGSTON CLIMATE","6104142","2020-01-03 07:00","2020","01","03","07:00","4.4","","","M","","M","0.0","","20","","12","","","","99.49","","","","","","NA"
"-76.60","44.22","KINGSTON CLIMATE","6104142","2020-01-03 08:00","2020","01","03","08:00","4.7","","","M","","M","0.0","","23","","9","","","","99.48","","","","","","NA"
"-76.60","44.22","KINGSTON CLIMATE","6104142","2020-01-03 09:00","2020","01","03","09:00","4.7","","","M","","M","0.0","","23","","10","","","","99.57","","","","","","NA"
"-76.60","44.22","KINGSTON CLIMATE","6104142","2020-01-03 10:00","2020","01","03","10:00","5.0","","","M","","M","0.0","","22","","7","","","","99.61","","","","","","NA"
"-76.60","44.22","KINGSTON CLIMATE","6104142","2020-01-03 11:00","2020","01","03","11:00","5.1","","","M","","M","0.0","","23","","8","","","","99.56","","","","","","NA"
"-76.60","44.22","KINGSTON CLIMATE","6104142","2020-01-03 12:00","2020","01","03","12:00","5.2","","","M","","M","0.0","","22","","10","","","","99.53","","","","","","NA"
"-76.60","44.22","KINGSTON CLIMATE","6104142","2020-01-03 13:00","2020","01","03","13:00","5.6","","","M","","M","0.0","","24","","9","","","","99.46","","","","","","NA"
"-76.60","44.22","KINGSTON CLIMATE","6104142","2020-01-03 14:00","2020","01","03","14:00","5.7","","","M","","M","0.0","","24","","11","","","","99.47","","","","","","NA"
"-76.60","44.22","KINGSTON CLIMATE","6104142","2020-01-03 15:00","2020","01","03","15:00","5.6","","","M","","M","0.0","","23","","14","","","","99.52","","","","","","NA"
"-76.60","44.22","KINGSTON CLIMATE","6104142","2020-01-03 16:00","2020","01","03","16:00","5.5","","","M","","M","0.0","","24","","9","","","","99.57","","","","","","NA"
"-76.60","44.22","KINGSTON CLIMATE","6104142","2020-01-03 17:00","2020","01","03","17:00","5.1","","","M","","M","0.0","","24","","9","","","","99.64","","","","","","NA"
"-76.60","44.22","KINGSTON CLIMATE","6104142","2020-01-03 18:00","2020","01","03","18:00","3.4","","","M","","M","0.0","","24","","8","","","","99.69","","","","","","NA"
"-76.60","44.22","KINGSTON CLIMATE","6104142","2020-01-03 19:00","2020","01","03","19:00","3.9","","","M","","M","0.0","","24","","9","","","","99.76","","","","","","NA"
"-76.60","44.22","KINGSTON CLIMATE","6104142","2020-01-03 20:00","2020","01","03","20:00","4.1","","","M","","M","0.0","","25","","11","","","","99.89","","","","","","NA"
"-76.60","44.22","KINGSTON CLIMATE","6104142","2020-01-03 21:00","2020","01","03","21:00","4.1","","","M","","M","0.0","","28","","9","","","","99.86","","","","","","NA"
"-76.60","44.22","KINGSTON CLIMATE","6104142","2020-01-03 22:00","2020","01","03","22:00","3.7","","","M","","M","0.0","","28","","9","","","","99.85","","","","","","NA"
"-76.60","44.22","KINGSTON CLIMATE","6104142","2020-01-03 23:00","2020","01","03","23:00","3.8","","","M","","M","0.0","","28","","11","","","","99.86","","","","","","NA"
"-76.60","44.22","KINGSTON CLIMATE","6104142","2020-01-04 00:00","2020","01","04","00:00","1.6","","","M","","M","0.0","","33","","6","","","","99.77","","","","","","NA"
"-76.60","44.22","KINGSTON CLIMATE","6104142","2020-01-04 01:00","2020","01","04","01:00","2.1","","","M","","M","0.0","","36","","12","","","","99.75","","","","","","NA"
"-76.60","44.22","KINGSTON CLIMATE","6104142","2020-01-04 02:00","2020","01","04","02:00","1.8","","","M","","M","0.0","","34","","11","","","","99.71","","","","","","NA"
"-76.60","44.22","KINGSTON CLIMATE","6104142","2020-01-04 03:00","2020","01","04","03:00","1.9","","","M","","M","0.0","","34","","6","","","","99.74","","","","","","NA"
"-76.60","44.22","KINGSTON CLIMATE","6104142","2020-01-04 04:00","2020","01","04","04:00","2.2","","","M","","M","0.0","","3","","11","","","","99.69","","","","","","NA"
"-76.60","44.22","KINGSTON CLIMATE","6104142","2020-01-04 05:00","2020","01","04","05:00","2.0","","","M","","M","0.0","","3","","10","","","","99.69","","","","","","NA"
"-76.60","44.22","KINGSTON CLIMATE","6104142","2020-01-04 06:00","2020","01","04","06:00","1.7","","","M","","M","0.0","","4","","13","","","","99.65","","","","","","NA"
"-76.60","44.22","KINGSTON CLIMATE","6104142","2020-01-04 07:00","2020","01","04","07:00","1.4","","","M","","M","0.0","","3","","12","","","","99.62","","","","","","NA"
"-76.60","44.22","KINGSTON CLIMATE","6104142","2020-01-04 08:00","2020","01","04","08:00","-0.1","","","M","","M","0.1","","2","","12","","","","99.63","","","","-4","","NA"
"-76.60","44.22","KINGSTON CLIMATE","6104142","2020-01-04 09:00","2020","01","04","09:00","-0.4","","","M","","M","0.4","","1","","15","","","","99.64","","","","-5","","NA"
"-76.60","44.22","KINGSTON CLIMATE","6104142","2020-01-04 10:00","2020","01","04","10:00","-0.3","","","M","","M","0.3","","3","","12","","","","99.60","","","","-4","","NA"
"-76.60","44.22","KINGSTON CLIMATE","6104142","2020-01-04 11:00","2020","01","04","11:00","0.0","","","M","","M","0.8","","36","","12","","","","99.58","","","","-4","","NA"
"-76.60","44.22","KINGSTON CLIMATE","6104142","2020-01-04 12:00","2020","01","04","12:00","0.3","","","M","","M","0.0","","35","","13","","","","99.48","","","","","","NA"
"-76.60","44.22","KINGSTON CLIMATE","6104142","2020-01-04 13:00","2020","01","04","13:00","0.5","","","M","","M","0.0","","34","","11","","","","99.41","","","","","","NA"
"-76.60","44.22","KINGSTON CLIMATE","6104142","2020-01-04 14:00","2020","01","04","14:00","0.8","","","M","","M","0.0","","34","","13","","","","99.38","","","","","","NA"
"-76.60","44.22","KINGSTON CLIMATE","6104142","2020-01-04 15:00","2020","01","04","15:00","0.8","","","M","","M","0.0","","34","","12","","","","99.38","","","","","","NA"
"-76.60","44.22","KINGSTON CLIMATE","6104142","2020-01-04 16:00","2020","01","04","16:00","0.7","","","M","","M","0.0","","33","","9","","","","99.44","","","","","","NA"
"-76.60","44.22","KINGSTON CLIMATE","6104142","2020-01-04 17:00","2020","01","04","17:00","0.4","","","M","","M","0.0","","33","","10","","","","99.47","","","","","","NA"
"-76.60","44.22","KINGSTON CLIMATE","6104142","2020-01-04 18:00","2020","01","04","18:00","0.3","","","M","","M","0.0","","31","","6","","","","99.52","","","","","","NA"
"-76.60","44.22","KINGSTON CLIMATE","6104142","2020-01-04 19:00","2020","01","04","19:00","0.2","","","M","","M","0.0","","29","","6","","","","99.56","","","","","","NA"
"-76.60","44.22","KINGSTON CLIMATE","6104142","2020-01-04 20:00","2020","01","04","20:00","0.2","","","M","","M","0.0","","32","","8","","","","99.57","","","","","","NA"
"-76.60","44.22","KINGSTON CLIMATE","6104142","2020-01-04 21:00","2020","01","04","21:00","-0.1","","","M","","M","0.0","","32","","7","","","","99.56","","","","-3","","NA"
"-76.60","44.22","KINGSTON CLIMATE","6104142","2020-01-04 22:00","2020","01","04","22:00","-0.3","","","M","","M","0.0","","30","","8","","","","99.58","","","","-3","","NA"
"-76.60","44.22","KINGSTON CLIMATE","6104142","2020-01-04 23:00","2020","01","04","23:00","-0.6","","","M","","M","0.0","","28","","5","","","","99.56","","","","-2","","NA"
"-76.60","44.22","KINGSTON CLIMATE","6104142","2020-01-05 00:00","2020","01","05","00:00","-0.5","","","M","","M","0.0","","31","","8","","","","99.56","","","","-3","","NA"
"-76.60","44.22","KINGSTON CLIMATE","6104142","2020-01-05 01:00","2020","01","05","01:00","-0.8","","","M","","M","0.0","","29","","8","","","","99.58","","","","-4","","NA"
"-76.60","44.22","KINGSTON CLIMATE","6104142","2020-01-05 02:00","2020","01","05","02:00","-0.8","","","M","","M","0.0","","32","","11","","","","99.67","","","","-5","","NA"
"-76.60","44.22","KINGSTON CLIMATE","6104142","2020-01-05 03:00","2020","01","05","03:00","-1.7","","","M","","M","0.0","","33","","17","","","","99.77","","","","-7","","NA"
"-76.60","44.22","KINGSTON CLIMATE","6104142","2020-01-05 04:00","2020","01","05","04:00","-2.1","","","M","","M","0.0","","32","","17","","","","99.83","","","","-7","","NA"
"-76.60","44.22","KINGSTON CLIMATE","6104142","2020-01-05 05:00","2020","01","05","05:00","-2.3","","","M","","M","0.0","","31","","18","","","","99.90","","","","-8","","NA"
"-76.60","44.22","KINGSTON CLIMATE","6104142","2020-01-05 06:00","2020","01","05","06:00","-3.1","","","M","","M","0.0","","31","","19","","","","99.98","","","","-9","","NA"
"-76.60","44.22","KINGSTON CLIMATE","6104142","2020-01-05 07:00","2020","01","05","07:00","-3.7","","","M","","M","0.0","","31","","18","","","","100.09","","","","-10","","NA"
"-76.60","44.22","KINGSTON CLIMATE","6104142","2020-01-05 08:00","2020","01","05","08:00","-4.1","","","M","","M","0.0","","31","","16","","","","100.19","","","","-10","","NA"
"-76.60","44.22","KINGSTON CLIMATE","6104142","2020-01-05 09:00","2020","01","05","09:00","-4.1","","","M","","M","0.0","","31","","17","","","","100.28","","","","-10","","NA"
"-76.60","44.22","KINGSTON CLIMATE","6104142","2020-01-05 10:00","2020","01","05","10:00","-3.8","","","M","","M","0.0","","30","","14","","","","100.34","","","","-9","","NA"
"-76.60","44.22","KINGSTON CLIMATE","6104142","2020-01-05 11:00","2020","01","05","11:00","-3.2","","","M","","M","0.0","","30","","14","","","","100.36","","","","-8","","NA"
"-76.60","44.22","KINGSTON CLIMATE","6104142","2020-01-05 12:00","2020","01","05","12:00","-2.6","","","M","","M","0.0","","31","","15","","","","100.31","","","","-8","","NA"
"-76.60","44.22","KINGSTON CLIMATE","6104142","2020-01-05 13:00","2020","01","05","13:00","-2.3","","","M","","M","0.0","","28","","14","","","","100.25","","","","-7","","NA"
"-76.60","44.22","KINGSTON CLIMATE","6104142","2020-01-05 14:00","2020","01","05","14:00","-1.6","","","M","","M","0.0","","29","","13","","","","100.21","","","","-6","","NA"
"-76.60","44.22","KINGSTON CLIMATE","6104142","2020-01-05 15:00","2020","01","05","15:00","-1.4","","","M","","M","0.0","","27","","12","","","","100.26","","","","-5","","NA"
"-76.60","44.22","KINGSTON CLIMATE","6104142","2020-01-05 16:00","2020","01","05","16:00","-1.7","","","M","","M","0.0","","26","","14","","","","100.25","","","","-6","","NA"
"-76.60","44.22","KINGSTON CLIMATE","6104142","2020-01-05 17:00","2020","01","05","17:00","-2.8","","","M","","M","0.0","","27","","7","","","","100.23","","","","-6","","NA"
"-76.60","44.22","KINGSTON CLIMATE","6104142","2020-01-05 18:00","2020","01","05","18:00","-2.7","","","M","","M","0.0","","25","","4","","","","100.21","","","","-4","","NA"
"-76.60","44.22","KINGSTON CLIMATE","6104142","2020-01-05 19:00","2020","01","05","19:00","-4.6","","","M","","M","0.0","","27","","3","","","","100.21","","","","-6","","NA"
"-76.60","44.22","KINGSTON CLIMATE","6104142","2020-01-05 20:00","2020","01","05","20:00","-3.3","","","M","","M","0.0","","26","","8","","","","100.24","","","","-7","","NA"
"-76.60","44.22","KINGSTON CLIMATE","6104142","2020-01-05 21:00","2020","01","05","21:00","-3.8","","","M","","M","0.0","","36","","8","","","","100.14","","","","-7","","NA"
"-76.60","44.22","KINGSTON CLIMATE","6104142","2020-01-05 22:00","2020","01","05","22:00","-3.4","","","M","","M","0.0","","15","","3","","","","100.12","","","","-5","","NA"
"-76.60","44.22","KINGSTON CLIMATE","6104142","2020-01-05 23:00","2020","01","05","23:00","-3.4","","","M","","M","0.0","","3","","5","","","","100.08","","","","-5","","NA"
"-76.60","44.22","KINGSTON CLIMATE","6104142","2020-01-06 00:00","2020","01","06","00:00","-3.5","","","M","","M","0.0","","5","","8","","","","99.99","","","","-7","","NA"
"-76.60","44.22","KINGSTON CLIMATE","6104142","2020-01-06 01:00","2020","01","06","01:00","-3.5","","","M","","M","0.1","","6","","10","","","","99.86","","","","-7","","NA"
"-76.60","44.22","KINGSTON CLIMATE","6104142","2020-01-06 02:00","2020","01","06","02:00","-3.3","","","M","","M","0.0","","6","","11","","","","99.78","","","","-8","","NA"
"-76.60","44.22","KINGSTON CLIMATE","6104142","2020-01-06 03:00","2020","01","06","03:00","-3.6","","","M","","M","0.4","","6","","11","","","","99.73","","","","-8","","NA"
"-76.60","44.22","KINGSTON CLIMATE","6104142","2020-01-06 04:00","2020","01","06","04:00","0.1","","","M","","M","0.5","","17","","22","","","","99.66","","","","","","NA"
"-76.60","44.22","KINGSTON CLIMATE","6104142","2020-01-06 05:00","2020","01","06","05:00","0.5","","","M","","M","0.0","","17","","23","","","","99.60","","","","","","NA"
"-76.60","44.22","KINGSTON CLIMATE","6104142","2020-01-06 06:00","2020","01","06","06:00","0.5","","","M","","M","0.0","","17","","24","","","","99.56","","","","","","NA"
"-76.60","44.22","KINGSTON CLIMATE","6104142","2020-01-06 07:00","2020","01","06","07:00","0.7","","","M","","M","0.5","","17","","23","","","","99.52","","","","","","NA"
"-76.60","44.22","KINGSTON CLIMATE","6104142","2020-01-06 08:00","2020","01","06","08:00","1.2","","","M","","M","0.3","","24","","26","","","","99.50","","","","","","NA"
"-76.60","44.22","KINGSTON CLIMATE","6104142","2020-01-06 09:00","2020","01","06","09:00","1.0","","","M","","M","0.0","","26","","20","","","","99.61","","","","","","NA"
"-76.60","44.22","KINGSTON CLIMATE","6104142","2020-01-06 10:00","2020","01","06","10:00","1.9","","","M","","M","0.0","","25","","28","","","","99.63","","","","","","NA"
"-76.60","44.22","KINGSTON CLIMATE","6104142","2020-01-06 11:00","2020","01","06","11:00","2.0","","","M","","M","0.0","","26","","30","","","","99.67","","","","","","NA"
"-76.60","44.22","KINGSTON CLIMATE","6104142","2020-01-06 12:00","2020","01","06","12:00","2.0","","","M","","M","0.0","","25","","27","","","","99.68","","","","","","NA"
"-76.60","44.22","KINGSTON CLIMATE","6104142","2020-01-06 13:00","2020","01","06","13:00","2.3","","","M","","M","0.0","","26","","31","","","","99.68","","","","","","NA"
"-76.60","44.22","KINGSTON CLIMATE","6104142","2020-01-06 14:00","2020","01","06","14:00","1.9","","","M","","M","0.0","","26","","27","","","","99.74","","","","","","NA"
"-76.60","44.22","KINGSTON CLIMATE","6104142","2020-01-06 15:00","2020","01","06","15:00","1.4","","","M","","M","0.0","","24","","30","","","","99.82","","","","","","NA"
"-76.60","44.22","KINGSTON CLIMATE","6104142","2020-01-06 16:00","2020","01","06","16:00","1.5","","","M","","M","0.0","","26","","28","","","","99.85","","","","","","NA"
"-76.60","44.22","KINGSTON CLIMATE","6104142","2020-01-06 17:00","2020","01","06","17:00","1.1","","","M","","M","0.0","","26","","18","","","","99.87","","","","","","NA"
"-76.60","44.22","KINGSTON CLIMATE","6104142","2020-01-06 18:00","2020","01","06","18:00","0.8","","","M","","M","0.0","","25","","26","","","","99.87","","","","","","NA"
"-76.60","44.22","KINGSTON CLIMATE","6104142","2020-01-06 19:00","2020","01","06","19:00","0.9","","","M","","M","0.0","","25","","21","","","","99.91","","","","","","NA"
"-76.60","44.22","KINGSTON CLIMATE","6104142","2020-01-06 20:00","2020","01","06","20:00","0.7","","","M","","M","0.0","","27","","19","","","","99.89","","","","","","NA"
"-76.60","44.22","KINGSTON CLIMATE","6104142","2020-01-06 21:00","2020","01","06","21:00","-0.2","","","M","","M","0.0","","27","","25","","","","99.97","","","","-6","","NA"
"-76.60","44.22","KINGSTON CLIMATE","6104142","2020-01-06 22:00","2020","01","06","22:00","-1.4","","","M","","M","0.0","","27","","21","","","","100.08","","","","-7","","NA"
"-76.60","44.22","KINGSTON CLIMATE","6104142","2020-01-06 23:00","2020","01","06","23:00","-1.4","","","M","","M","0.0","","26","","22","","","","100.16","","","","-7","","NA"
"-76.60","44.22","KINGSTON CLIMATE","6104142","2020-01-07 00:00","2020","01","07","00:00","-1.5","","","M","","M","0.0","","27","","21","","","","100.18","","","","-7","","NA"
"-76.60","44.22","KINGSTON CLIMATE","6104142","2020-01-07 01:00","2020","01","07","01:00","-1.3","","","M","","M","0.0","","27","","18","","","","100.23","","","","-7","","NA"
"-76.60","44.22","KINGSTON CLIMATE","6104142","2020-01-07 02:00","2020","01","07","02:00","-0.8","","","M","","M","0.0","","25","","19","","","","100.28","","","","-6","","NA"
"-76.60","44.22","KINGSTON CLIMATE","6104142","2020-01-07 03:00","2020","01","07","03:00","-0.5","","","M","","M","0.0","","25","","21","","","","100.32","","","","-6","","NA"
"-76.60","44.22","KINGSTON CLIMATE","6104142","2020-01-07 04:00","2020","01","07","04:00","0.1","","","M","","M","0.0","","24","","22","","","","100.33","","","","","","NA"
"-76.60","44.22","KINGSTON CLIMATE","6104142","2020-01-07 05:00","2020","01","07","05:00","0.0","","","M","","M","0.0","","25","","19","","","","100.38","","","","-5","","NA"
"-76.60","44.22","KINGSTON CLIMATE","6104142","2020-01-07 06:00","2020","01","07","06:00","-0.7","","","M","","M","0.0","","25","","11","","","","100.42","","","","-4","","NA"
"-76.60","44.22","KINGSTON CLIMATE","6104142","2020-01-07 07:00","2020","01","07","07:00","-0.8","","","M","","M","0.0","","26","","15","","","","100.42","","","","-5","","NA"
"-76.60","44.22","KINGSTON CLIMATE","6104142","2020-01-07 08:00","2020","01","07","08:00","-1.8","","","M","","M","0.0","","26","","8","","","","100.40","","","","-5","","NA"
"-76.60","44.22","KINGSTON CLIMATE","6104142","2020-01-07 09:00","2020","01","07","09:00","-0.6","","","M","","M","0.0","","25","","9","","","","100.41","","","","-4","","NA"
"-76.60","44.22","KINGSTON CLIMATE","6104142","2020-01-07 10:00","2020","01","07","10:00","0.6","","","M","","M","0.0","","23","","7","","","","100.38","","","","","","NA"
"-76.60","44.22","KINGSTON CLIMATE","6104142","2020-01-07 11:00","2020","01","07","11:00","0.8","","","M","","M","0.0","","22","","7","","","","100.37","","","","","","NA"
"-76.60","44.22","KINGSTON CLIMATE","6104142","2020-01-07 12:00","2020","01","07","12:00","1.1","","","M","","M","0.0","","17","","14","","","","100.29","","","","","","NA"
"-76.60","44.22","KINGSTON CLIMATE","6104142","2020-01-07 13:00","2020","01","07","13:00","1.4","","","M","","M","0.0","","18","","16","","","","100.20","","","","","","NA"
"-76.60","44.22","KINGSTON CLIMATE","6104142","2020-01-07 14:00","2020","01","07","14:00","1.8","","","M","","M","0.0","","21","","21","","","","100.15","","","","","","NA"
"-76.60","44.22","KINGSTON CLIMATE","6104142","2020-01-07 15:00","2020","01","07","15:00","1.7","","","M","","M","0.0","","19","","17","","","","100.13","","","","","","NA"
"-76.60","44.22","KINGSTON CLIMATE","6104142","2020-01-07 16:00","2020","01","07","16:00","1.6","","","M","","M","0.0","","19","","20","","","","100.14","","","","","","NA"
"-76.60","44.22","KINGSTON CLIMATE","6104142","2020-01-07 17:00","2020","01","07","17:00","1.8","","","M","","M","0.0","","17","","20","","","","100.09","","","","","","NA"
"-76.60","44.22","KINGSTON CLIMATE","6104142","2020-01-07 18:00","2020","01","07","18:00","1.9","","","M","","M","0.0","","18","","22","","","","100.10","","","","","","NA"
"-76.60","44.22","KINGSTON CLIMATE","6104142","2020-01-07 19:00","2020","01","07","19:00","1.8","","","M","","M","0.0","","17","","19","","","","100.02","","","","","","NA"
"-76.60","44.22","KINGSTON CLIMATE","6104142","2020-01-07 20:00","2020","01","07","20:00","1.8","","","M","","M","0.0","","18","","21","","","","99.96","","","","","","NA"
"-76.60","44.22","KINGSTON CLIMATE","6104142","2020-01-07 21:00","2020","01","07","21:00","1.6","","","M","","M","0.0","","17","","23","","","","99.89","","","","","","NA"
"-76.60","44.22","KINGSTON CLIMATE","6104142","2020-01-07 22:00","2020","01","07","22:00","1.9","","","M","","M","0.0","","18","","26","","","","99.83","","","","","","NA"
"-76.60","44.22","KINGSTON CLIMATE","6104142","2020-01-07 23:00","2020","01","07","23:00","2.0","","","M","","M","0.0","","18","","25","","","","99.76","","","","","","NA"
"-76.60","44.22","KINGSTON CLIMATE","6104142","2020-01-08 00:00","2020","01","08","00:00","2.1","","","M","","M","0.0","","18","","25","","","","99.66","","","","","","NA"
"-76.60","44.22","KINGSTON CLIMATE","6104142","2020-01-08 01:00","2020","01","08","01:00","2.3","","","M","","M","0.0","","18","","24","","","","99.58","","","","","","NA"
"-76.60","44.22","KINGSTON CLIMATE","6104142","2020-01-08 02:00","2020","01","08","02:00","2.1","","","M","","M","0.0","","23","","17","","","","99.55","","","","","","NA"
"-76.60","44.22","KINGSTON CLIMATE","6104142","2020-01-08 03:00","2020","01","08","03:00","0.5","","","M","","M","0.3","","27","","11","","","","99.57","","","","","","NA"
"-76.60","44.22","KINGSTON CLIMATE","6104142","2020-01-08 04:00","2020","01","08","04:00","0.5","","","M","","M","0.0","","25","","18","","","","99.57","","","","","","NA"
"-76.60","44.22","KINGSTON CLIMATE","6104142","2020-01-08 05:00","2020","01","08","05:00","-0.1","","","M","","M","0.0","","26","","13","","","","99.55","","","","-4","","NA"
"-76.60","44.22","KINGSTON CLIMATE","6104142","2020-01-08 06:00","2020","01","08","06:00","-1.0","","","M","","M","0.0","","26","","9","","","","99.54","","","","-4","","NA"
"-76.60","44.22","KINGSTON CLIMATE","6104142","2020-01-08 07:00","2020","01","08","07:00","-1.0","","","M","","M","0.0","","27","","12","","","","99.59","","","","-5","","NA"
"-76.60","44.22","KINGSTON CLIMATE","6104142","2020-01-08 08:00","2020","01","08","08:00","-1.0","","","M","","M","0.0","","27","","18","","","","99.68","","","","-6","","NA"
"-76.60","44.22","KINGSTON CLIMATE","6104142","2020-01-08 09:00","2020","01","08","09:00","-1.5","","","M","","M","0.0","","28","","18","","","","99.80","","","","-7","","NA"
"-76.60","44.22","KINGSTON CLIMATE","6104142","2020-01-08 10:00","2020","01","08","10:00","-0.9","","","M","","M","0.0","","29","","19","","","","99.91","","","","-6","","NA"
"-76.60","44.22","KINGSTON CLIMATE","6104142","2020-01-08 11:00","2020","01","08","11:00","-0.8","","","M","","M","0.0","","28","","22","","","","100.00","","","","-7","","NA"
"-76.60","44.22","KINGSTON CLIMATE","6104142","2020-01-08 12:00","2020","01","08","12:00","-1.5","","","M","","M","0.0","","30","","26","","","","100.08","","","","-8","","NA"
"-76.60","44.22","KINGSTON CLIMATE","6104142","2020-01-08 13:00","2020","01","08","13:00","-1.5","","","M","","M","0.0","","27","","31","","","","100.17","","","","-9","","NA"
"-76.60","44.22","KINGSTON CLIMATE","6104142","2020-01-08 14:00","2020","01","08","14:00","-2.4","","","M","","M","0.0","","27","","34","","","","100.35","","","","-10","","NA"
"-76.60","44.22","KINGSTON CLIMATE","6104142","2020-01-08 15:00","2020","01","08","15:00","-3.4","","","M","","M","0.0","","28","","31","","","","100.55","","","","-11","","NA"
"-76.60","44.22","KINGSTON CLIMATE","6104142","2020-01-08 16:00","2020","01","08","16:00","-4.7","","","M","","M","0.0","","28","","29","","","","100.76","","","","-12","","NA"
"-76.60","44.22","KINGSTON CLIMATE","6104142","2020-01-08 17:00","2020","01","08","17:00","-5.8","","","M","","M","0.0","","29","","26","","","","100.97","","","","-14","","NA"
"-76.60","44.22","KINGSTON CLIMATE","6104142","2020-01-08 18:00","2020","01","08","18:00","-6.9","","","M","","M","0.0","","28","","23","","","","101.17","","","","-14","","NA"
"-76.60","44.22","KINGSTON CLIMATE","6104142","2020-01-08 19:00","2020","01","08","19:00","-7.7","","","M","","M","0.0","","29","","20","","","","101.38","","","","-15","","NA"
"-76.60","44.22","KINGSTON CLIMATE","6104142","2020-01-08 20:00","2020","01","08","20:00","-8.9","","","M","","M","0.0","","29","","21","","","","101.58","","","","-17","","NA"
"-76.60","44.22","KINGSTON CLIMATE","6104142","2020-01-08 21:00","2020","01","08","21:00","-10.3","","","M","","M","0.0","","31","","21","","","","101.79","","","","-18","","NA"
"-76.60","44.22","KINGSTON CLIMATE","6104142","2020-01-08 22:00","2020","01","08","22:00","-11.2","","","M","","M","0.0","","31","","21","","","","101.94","","","","-20","","NA"
"-76.60","44.22","KINGSTON CLIMATE","6104142","2020-01-08 23:00","2020","01","08","23:00","-11.6","","","M","","M","0.0","","31","","17","","","","102.11","","","","-19","","NA"
"-76.60","44.22","KINGSTON CLIMATE","6104142","2020-01-09 00:00","2020","01","09","00:00","-12.2","","","M","","M","0.0","","29","","17","","","","102.23","","","","-20","","NA"
"-76.60","44.22","KINGSTON CLIMATE","6104142","2020-01-09 01:00","2020","01","09","01:00","-12.6","","","M","","M","0.0","","29","","14","","","","102.34","","","","-20","","NA"
"-76.60","44.22","KINGSTON CLIMATE","6104142","2020-01-09 02:00","2020","01","09","02:00","-13.1","","","M","","M","0.0","","31","","15","","","","102.43","","","","-21","","NA"
"-76.60","44.22","KINGSTON CLIMATE","6104142","2020-01-09 03:00","2020","01","09","03:00","-13.5","","","M","","M","0.0","","31","","15","","","","102.54","","","","-21","","NA"
"-76.60","44.22","KINGSTON CLIMATE","6104142","2020-01-09 04:00","2020","01","09","04:00","-13.9","","","M","","M","0.0","","32","","15","","","","102.59","","","","-22","","NA"
"-76.60","44.22","KINGSTON CLIMATE","6104142","2020-01-09 05:00","2020","01","09","05:00","-14.6","","","M","","M","0.0","","33","","10","","","","102.66","","","","-21","","NA"
"-76.60","44.22","KINGSTON CLIMATE","6104142","2020-01-09 06:00","2020","01","09","06:00","-15.0","","","M","","M","0.0","","33","","9","","","","102.78","","","","-21","","NA"
"-76.60","44.22","KINGSTON CLIMATE","6104142","2020-01-09 07:00","2020","01","09","07:00","-15.0","","","M","","M","0.0","","2","","9","","","","102.84","","","","-21","","NA"
"-76.60","44.22","KINGSTON CLIMATE","6104142","2020-01-09 08:00","2020","01","09","08:00","-15.0","","","M","","M","0.0","","4","","5","","","","102.93","","","","-19","","NA"
"-76.60","44.22","KINGSTON CLIMATE","6104142","2020-01-09 09:00","2020","01","09","09:00","-14.0","","","M","","M","0.0","","5","","14","","","","102.95","","","","-21","","NA"
"-76.60","44.22","KINGSTON CLIMATE","6104142","2020-01-09 10:00","2020","01","09","10:00","-12.8","","","M","","M","0.0","","4","","10","","","","102.99","","","","-19","","NA"
"-76.60","44.22","KINGSTON CLIMATE","6104142","2020-01-09 11:00","2020","01","09","11:00","-11.3","","","M","","M","0.0","","8","","9","","","","102.97","","","","-16","","NA"
"-76.60","44.22","KINGSTON CLIMATE","6104142","2020-01-09 12:00","2020","01","09","12:00","-10.4","","","M","","M","0.0","","10","","12","","","","102.84","","","","-16","","NA"
"-76.60","44.22","KINGSTON CLIMATE","6104142","2020-01-09 13:00","2020","01","09","13:00","-9.7","","","M","","M","0.0","","11","","11","","","","102.75","","","","-15","","NA"
"-76.60","44.22","KINGSTON CLIMATE","6104142","2020-01-09 14:00","2020","01","09","14:00","-8.5","","","M","","M","0.0","","11","","14","","","","102.65","","","","-15","","NA"
"-76.60","44.22","KINGSTON CLIMATE","6104142","2020-01-09 15:00","2020","01","09","15:00","-7.4","","","M","","M","0.0","","12","","12","","","","102.59","","","","-13","","NA"
"-76.60","44.22","KINGSTON CLIMATE","6104142","2020-01-09 16:00","2020","01","09","16:00","-6.9","","","M","","M","0.0","","10","","13","","","","102.40","","","","-12","","NA"
"-76.60","44.22","KINGSTON CLIMATE","6104142","2020-01-09 17:00","2020","01","09","17:00","-7.3","","","M","","M","0.0","","7","","14","","","","102.38","","","","-13","","NA"
"-76.60","44.22","KINGSTON CLIMATE","6104142","2020-01-09 18:00","2020","01","09","18:00","-6.7","","","M","","M","0.0","","9","","16","","","","102.25","","","","-13","","NA"
"-76.60","44.22","KINGSTON CLIMATE","6104142","2020-01-09 19:00","2020","01","09","19:00","-5.9","","","M","","M","0.0","","10","","13","","","","102.24","","","","-11","","NA"
"-76.60","44.22","KINGSTON CLIMATE","6104142","2020-01-09 20:00","2020","01","09","20:00","-5.7","","","M","","M","0.0","","10","","14","","","","102.01","","","","-11","","NA"
"-76.60","44.22","KINGSTON CLIMATE","6104142","2020-01-09 21:00","2020","01","09","21:00","-4.5","","","M","","M","0.0","","12","","14","","","","101.83","","","","-10","","NA"
"-76.60","44.22","KINGSTON CLIMATE","6104142","2020-01-09 22:00","2020","01","09","22:00","-3.2","","","M","","M","0.0","","14","","17","","","","101.59","","","","-9","","NA"
"-76.60","44.22","KINGSTON CLIMATE","6104142","2020-01-09 23:00","2020","01","09","23:00","-0.5","","","M","","M","0.0","","17","","36","","","","101.51","","","","-8","","NA"
"-76.60","44.22","KINGSTON CLIMATE","6104142","2020-01-10 00:00","2020","01","10","00:00","0.0","","","M","","M","0.0","","17","","36","","","","101.41","","","","-7","","NA"
"-76.60","44.22","KINGSTON CLIMATE","6104142","2020-01-10 01:00","2020","01","10","01:00","0.4","","","M","","M","0.0","","17","","34","","","","101.31","","","","","","NA"
"-76.60","44.22","KINGSTON CLIMATE","6104142","2020-01-10 02:00","2020","01","10","02:00","1.5","","","M","","M","0.0","","19","","34","","","","101.32","","","","","","NA"
"-76.60","44.22","KINGSTON CLIMATE","6104142","2020-01-10 03:00","2020","01","10","03:00","2.1","","","M","","M","0.0","","18","","35","","","","101.24","","","","","","NA"
"-76.60","44.22","KINGSTON CLIMATE","6104142","2020-01-10 04:00","2020","01","10","04:00","2.3","","","M","","M","0.0","","18","","40","","","","101.17","","","","","","NA"
"-76.60","44.22","KINGSTON CLIMATE","6104142","2020-01-10 05:00","2020","01","10","05:00","2.5","","","M","","M","0.0","","18","","41","","","","101.12","","","","","","NA"
"-76.60","44.22","KINGSTON CLIMATE","6104142","2020-01-10 06:00","2020","01","10","06:00","2.9","","","M","","M","0.0","","18","","36","","","","101.16","","","","","","NA"
"-76.60","44.22","KINGSTON CLIMATE","6104142","2020-01-10 07:00","2020","01","10","07:00","2.8","","","M","","M","0.0","","19","","35","","","","101.20","","","","","","NA"
"-76.60","44.22","KINGSTON CLIMATE","6104142","2020-01-10 08:00","2020","01","10","08:00","2.6","","","M","","M","0.0","","18","","30","","","","101.23","","","","","","NA"
"-76.60","44.22","KINGSTON CLIMATE","6104142","2020-01-10 09:00","2020","01","10","09:00","2.6","","","M","","M","0.0","","18","","31","","","","101.30","","","","","","NA"
"-76.60","44.22","KINGSTON CLIMATE","6104142","2020-01-10 10:00","2020","01","10","10:00","2.7","","","M","","M","0.0","","18","","28","","","","101.35","","","","","","NA"
"-76.60","44.22","KINGSTON CLIMATE","6104142","2020-01-10 11:00","2020","01","10","11:00","3.0","","","M","","M","0.0","","18","","25","","","","101.32","","","","","","NA"
"-76.60","44.22","KINGSTON CLIMATE","6104142","2020-01-10 12:00","2020","01","10","12:00","3.2","","","M","","M","0.0","","18","","25","","","","101.24","","","","","","NA"
"-76.60","44.22","KINGSTON CLIMATE","6104142","2020-01-10 13:00","2020","01","10","13:00","3.4","","","M","","M","0.0","","19","","23","","","","101.19","","","","","","NA"
"-76.60","44.22","KINGSTON CLIMATE","6104142","2020-01-10 14:00","2020","01","10","14:00","3.5","","","M","","M","0.0","","19","","23","","","","101.18","","","","","","NA"
"-76.60","44.22","KINGSTON CLIMATE","6104142","2020-01-10 15:00","2020","01","10","15:00","3.6","","","M","","M","0.0","","18","","19","","","","101.18","","","","","","NA"
"-76.60","44.22","KINGSTON CLIMATE","6104142","2020-01-10 16:00","2020","01","10","16:00","3.5","","","M","","M","0.0","","19","","16","","","","101.25","","","","","","NA"
"-76.60","44.22","KINGSTON CLIMATE","6104142","2020-01-10 17:00","2020","01","10","17:00","3.2","","","M","","M","0.4","","19","","13","","","","101.29","","","","","","NA"
"-76.60","44.22","KINGSTON CLIMATE","6104142","2020-01-10 18:00","2020","01","10","18:00","3.7","","","M","","M","0.2","","20","","11","","","","101.34","","","","","","NA"
"-76.60","44.22","KINGSTON CLIMATE","6104142","2020-01-10 19:00","2020","01","10","19:00","3.5","","","M","","M","0.3","","18","","9","","","","101.34","","","","","","NA"
"-76.60","44.22","KINGSTON CLIMATE","6104142","2020-01-10 20:00","2020","01","10","20:00","3.2","","","M","","M","0.0","","18","","9","","","","101.35","","","","","","NA"
"-76.60","44.22","KINGSTON CLIMATE","6104142","2020-01-10 21:00","2020","01","10","21:00","3.3","","","M","","M","0.2","","17","","13","","","","101.31","","","","","","NA"
"-76.60","44.22","KINGSTON CLIMATE","6104142","2020-01-10 22:00","2020","01","10","22:00","3.4","","","M","","M","0.0","","20","","5","","","","101.32","","","","","","NA"
"-76.60","44.22","KINGSTON CLIMATE","6104142","2020-01-10 23:00","2020","01","10","23:00","3.5","","","M","","M","0.8","","17","","7","","","","101.27","","","","","","NA"
"-76.60","44.22","KINGSTON CLIMATE","6104142","2020-01-11 00:00","2020","01","11","00:00","3.7","","","M","","M","0.4","","16","","10","","","","101.18","","","","","","NA"
"-76.60","44.22","KINGSTON CLIMATE","6104142","2020-01-11 01:00","2020","01","11","01:00","3.8","","","M","","M","0.8","","17","","12","","","","101.05","","","","","","NA"
"-76.60","44.22","KINGSTON CLIMATE","6104142","2020-01-11 02:00","2020","01","11","02:00","4.0","","","M","","M","0.5","","15","","16","","","","100.92","","","","","","NA"
"-76.60","44.22","KINGSTON CLIMATE","6104142","2020-01-11 03:00","2020","01","11","03:00","4.2","","","M","","M","0.0","","15","","16","","","","100.81","","","","","","NA"
"-76.60","44.22","KINGSTON CLIMATE","6104142","2020-01-11 04:00","2020","01","11","04:00","4.6","","","M","","M","0.1","","16","","26","","","","100.66","","","","","","NA"
"-76.60","44.22","KINGSTON CLIMATE","6104142","2020-01-11 05:00","2020","01","11","05:00","4.9","","","M","","M","1.1","","17","","23","","","","100.58","","","","","","NA"
"-76.60","44.22","KINGSTON CLIMATE","6104142","2020-01-11 06:00","2020","01","11","06:00","5.1","","","M","","M","1.5","","17","","26","","","","100.37","","","","","","NA"
"-76.60","44.22","KINGSTON CLIMATE","6104142","2020-01-11 07:00","2020","01","11","07:00","5.4","","","M","","M","1.1","","16","","26","","","","100.21","","","","","","NA"
"-76.60","44.22","KINGSTON CLIMATE","6104142","2020-01-11 08:00","2020","01","11","08:00","6.0","","","M","","M","0.2","","17","","31","","","","100.14","","","","","","NA"
"-76.60","44.22","KINGSTON CLIMATE","6104142","2020-01-11 09:00","2020","01","11","09:00","6.1","","","M","","M","0.4","","17","","24","","","","100.05","","","","","","NA"
"-76.60","44.22","KINGSTON CLIMATE","6104142","2020-01-11 10:00","2020","01","11","10:00","6.0","","","M","","M","0.1","","17","","18","","","","99.98","","","","","","NA"
"-76.60","44.22","KINGSTON CLIMATE","6104142","2020-01-11 11:00","2020","01","11","11:00","6.9","","","M","","M","0.0","","19","","21","","","","99.91","","","","","","NA"
"-76.60","44.22","KINGSTON CLIMATE","6104142","2020-01-11 12:00","2020","01","11","12:00","10.0","","","M","","M","0.6","","23","","26","","","","99.94","","","","","","NA"
"-76.60","44.22","KINGSTON CLIMATE","6104142","2020-01-11 13:00","2020","01","11","13:00","9.5","","","M","","M","2.2","","25","","9","","","","99.88","","","","","","NA"
"-76.60","44.22","KINGSTON CLIMATE","6104142","2020-01-11 14:00","2020","01","11","14:00","9.5","","","M","","M","4.0","","20","","8","","","","99.83","","","","","","NA"
"-76.60","44.22","KINGSTON CLIMATE","6104142","2020-01-11 15:00","2020","01","11","15:00","8.7","","","M","","M","5.4","","15","","10","","","","99.84","","","","","","NA"
"-76.60","44.22","KINGSTON CLIMATE","6104142","2020-01-11 16:00","2020","01","11","16:00","3.7","","","M","","M","4.9","","2","","26","","","","99.88","","","","","","NA"
"-76.60","44.22","KINGSTON CLIMATE","6104142","2020-01-11 17:00","2020","01","11","17:00","3.0","","","M","","M","3.2","","2","","26","","","","99.94","","","","","","NA"
"-76.60","44.22","KINGSTON CLIMATE","6104142","2020-01-11 18:00","2020","01","11","18:00","2.5","","","M","","M","3.3","","3","","29","","","","99.97","","","","","","NA"
"-76.60","44.22","KINGSTON CLIMATE","6104142","2020-01-11 19:00","2020","01","11","19:00","2.3","","","M","","M","3.4","","2","","30","","","","100.05","","","","","","NA"
"-76.60","44.22","KINGSTON CLIMATE","6104142","2020-01-11 20:00","2020","01","11","20:00","1.9","","","M","","M","2.4","","3","","29","","","","100.01","","","","","","NA"
"-76.60","44.22","KINGSTON CLIMATE","6104142","2020-01-11 21:00","2020","01","11","21:00","1.6","","","M","","M","1.2","","3","","32","","","","99.97","","","","","","NA"
"-76.60","44.22","KINGSTON CLIMATE","6104142","2020-01-11 22:00","2020","01","11","22:00","1.6","","","M","","M","0.7","","3","","25","","","","99.96","","","","","","NA"
"-76.60","44.22","KINGSTON CLIMATE","6104142","2020-01-11 23:00","2020","01","11","23:00","1.4","","","M","","M","0.7","","3","","27","","","","99.87","","","","","","NA"
"-76.60","44.22","KINGSTON CLIMATE","6104142","2020-01-12 00:00","2020","01","12","00:00","1.0","","","M","","M","0.2","","4","","31","","","","99.80","","","","","","NA"
"-76.60","44.22","KINGSTON CLIMATE","6104142","2020-01-12 01:00","2020","01","12","01:00","0.5","","","M","","M","0.9","","4","","33","","","","99.64","","","","","","NA"
"-76.60","44.22","KINGSTON CLIMATE","6104142","2020-01-12 02:00","2020","01","12","02:00","0.7","","","M","","M","0.5","","3","","29","","","","99.49","","","","","","NA"
"-76.60","44.22","KINGSTON CLIMATE","6104142","2020-01-12 03:00","2020","01","12","03:00","0.5","","","M","","M","0.7","","4","","35","","","","99.37","","","","","","NA"
"-76.60","44.22","KINGSTON CLIMATE","6104142","2020-01-12 04:00","2020","01","12","04:00","0.2","","","M","","M","2.6","","4","","32","","","","99.25","","","","","","NA"
"-76.60","44.22","KINGSTON CLIMATE","6104142","2020-01-12 05:00","2020","01","12","05:00","0.4","","","M","","M","0.7","","2","","23","","","","99.28","","","","","","NA"
"-76.60","44.22","KINGSTON CLIMATE","6104142","2020-01-12 06:00","2020","01","12","06:00","-0.2","","","M","","M","0.5","","2","","27","","","","99.24","","","","-6","","NA"
"-76.60","44.22","KINGSTON CLIMATE","6104142","2020-01-12 07:00","2020","01","12","07:00","-0.6","","","M","","M","1.2","","5","","19","","","","99.36","","","","-6","","NA"
"-76.60","44.22","KINGSTON CLIMATE","6104142","2020-01-12 08:00","2020","01","12","08:00","-1.1","","","M","","M","0.4","","1","","10","","","","99.73","","","","-5","","NA"
"-76.60","44.22","KINGSTON CLIMATE","6104142","2020-01-12 09:00","2020","01","12","09:00","-3.9","","","M","","M","0.9","","32","","15","","","","100.12","","","","-9","","NA"
"-76.60","44.22","KINGSTON CLIMATE","6104142","2020-01-12 10:00","2020","01","12","10:00","-5.4","","","M","","M","0.0","","31","","13","","","","100.53","","","","-11","","NA"
"-76.60","44.22","KINGSTON CLIMATE","6104142","2020-01-12 11:00","2020","01","12","11:00","-5.8","","","M","","M","0.0","","30","","11","","","","100.87","","","","-11","","NA"
"-76.60","44.22","KINGSTON CLIMATE","6104142","2020-01-12 12:00","2020","01","12","12:00","-5.7","","","M","","M","0.0","","28","","11","","","","101.11","","","","-10","","NA"
"-76.60","44.22","KINGSTON CLIMATE","6104142","2020-01-12 13:00","2020","01","12","13:00","-5.9","","","M","","M","0.0","","28","","15","","","","101.26","","","","-12","","NA"
"-76.60","44.22","KINGSTON CLIMATE","6104142","2020-01-12 14:00","2020","01","12","14:00","-6.0","","","M","","M","0.0","","28","","11","","","","101.43","","","","-11","","NA"
"-76.60","44.22","KINGSTON CLIMATE","6104142","2020-01-12 15:00","2020","01","12","15:00","-6.1","","","M","","M","0.0","","30","","8","","","","101.61","","","","-10","","NA"
"-76.60","44.22","KINGSTON CLIMATE","6104142","2020-01-12 16:00","2020","01","12","16:00","-6.3","","","M","","M","0.0","","30","","7","","","","101.78","","","","-10","","NA"
"-76.60","44.22","KINGSTON CLIMATE","6104142","2020-01-12 17:00","2020","01","12","17:00","-6.4","","","M","","M","0.0","","31","","7","","","","101.95","","","","-10","","NA"
"-76.60","44.22","KINGSTON CLIMATE","6104142","2020-01-12 18:00","2020","01","12","18:00","-6.5","","","M","","M","0.0","","32","","7","","","","102.05","","","","-10","","NA"
"-76.60","44.22","KINGSTON CLIMATE","6104142","2020-01-12 19:00","2020","01","12","19:00","-6.6","","","M","","M","0.0","","3","","4","","","","102.07","","","","-9","","NA"
"-76.60","44.22","KINGSTON CLIMATE","6104142","2020-01-12 20:00","2020","01","12","20:00","-7.1","","","M","","M","0.0","","4","","8","","","","102.03","","","","-11","","NA"
"-76.60","44.22","KINGSTON CLIMATE","6104142","2020-01-12 21:00","2020","01","12","21:00","-7.1","","","M","","M","0.0","","5","","10","","","","102.03","","","","-12","","NA"
"-76.60","44.22","KINGSTON CLIMATE","6104142","2020-01-12 22:00","2020","01","12","22:00","-7.9","","","M","","M","0.0","","2","","11","","","","102.05","","","","-13","","NA"
"-76.60","44.22","KINGSTON CLIMATE","6104142","2020-01-12 23:00","2020","01","12","23:00","-8.5","","","M","","M","0.0","","4","","12","","","","102.09","","","","-14","","NA"
"-76.60","44.22","KINGSTON CLIMATE","6104142","2020-01-13 00:00","2020","01","13","00:00","-8.7","","","M","","M","0.0","","3","","10","","","","102.10","","","","-14","","NA"
"-76.60","44.22","KINGSTON CLIMATE","6104142","2020-01-13 01:00","2020","01","13","01:00","-8.9","","","M","","M","0.0","","5","","16","","","","102.05","","","","-16","","NA"
"-76.60","44.22","KINGSTON CLIMATE","6104142","2020-01-13 02:00","2020","01","13","02:00","-8.9","","","M","","M","0.0","","5","","14","","","","102.04","","","","-15","","NA"
"-76.60","44.22","KINGSTON CLIMATE","6104142","2020-01-13 03:00","2020","01","13","03:00","-8.7","","","M","","M","0.0","","4","","13","","","","102.00","","","","-15","","NA"
"-76.60","44.22","KINGSTON CLIMATE","6104142","2020-01-13 04:00","2020","01","13","04:00","-8.4","","","M","","M","0.0","","4","","14","","","","101.86","","","","-15","","NA"
"-76.60","44.22","KINGSTON CLIMATE","6104142","2020-01-13 05:00","2020","01","13","05:00","-8.0","","","M","","M","0.0","","4","","14","","","","101.75","","","","-14","","NA"
"-76.60","44.22","KINGSTON CLIMATE","6104142","2020-01-13 06:00","2020","01","13","06:00","-7.7","","","M","","M","0.0","","3","","14","","","","101.74","","","","-14","","NA"
"-76.60","44.22","KINGSTON CLIMATE","6104142","2020-01-13 07:00","2020","01","13","07:00","-7.5","","","M","","M","0.0","","3","","15","","","","101.73","","","","-14","","NA"
"-76.60","44.22","KINGSTON CLIMATE","6104142","2020-01-13 08:00","2020","01","13","08:00","-7.4","","","M","","M","0.0","","4","","17","","","","101.64","","","","-14","","NA"
"-76.60","44.22","KINGSTON CLIMATE","6104142","2020-01-13 09:00","2020","01","13","09:00","-7.1","","","M","","M","0.1","","3","","19","","","","101.65","","","","-14","","NA"
"-76.60","44.22","KINGSTON CLIMATE","6104142","2020-01-13 10:00","2020","01","13","10:00","-6.6","","","M","","M","0.0","","4","","16","","","","101.66","","","","-13","","NA"
"-76.60","44.22","KINGSTON CLIMATE","6104142","2020-01-13 11:00","2020","01","13","11:00","-5.6","","","M","","M","0.0","","6","","15","","","","101.62","","","","-11","","NA"
"-76.60","44.22","KINGSTON CLIMATE","6104142","2020-01-13 12:00","2020","01","13","12:00","-4.3","","","M","","M","0.0","","5","","11","","","","101.53","","","","-9","","NA"
"-76.60","44.22","KINGSTON CLIMATE","6104142","2020-01-13 13:00","2020","01","13","13:00","-3.9","","","M","","M","0.0","","2","","10","","","","101.50","","","","-8","","NA"
"-76.60","44.22","KINGSTON CLIMATE","6104142","2020-01-13 14:00","2020","01","13","14:00","-4.0","","","M","","M","0.0","","1","","12","","","","101.52","","","","-9","","NA"
"-76.60","44.22","KINGSTON CLIMATE","6104142","2020-01-13 15:00","2020","01","13","15:00","-3.9","","","M","","M","0.0","","4","","10","","","","101.52","","","","-8","","NA"
"-76.60","44.22","KINGSTON CLIMATE","6104142","2020-01-13 16:00","2020","01","13","16:00","-3.8","","","M","","M","0.0","","3","","8","","","","101.57","","","","-7","","NA"
"-76.60","44.22","KINGSTON CLIMATE","6104142","2020-01-13 17:00","2020","01","13","17:00","-3.7","","","M","","M","0.0","","36","","12","","","","101.65","","","","-8","","NA"
"-76.60","44.22","KINGSTON CLIMATE","6104142","2020-01-13 18:00","2020","01","13","18:00","-4.0","","","M","","M","0.0","","2","","9","","","","101.72","","","","-8","","NA"
"-76.60","44.22","KINGSTON CLIMATE","6104142","2020-01-13 19:00","2020","01","13","19:00","-3.9","","","M","","M","0.0","","1","","10","","","","101.76","","","","-8","","NA"
"-76.60","44.22","KINGSTON CLIMATE","6104142","2020-01-13 20:00","2020","01","13","20:00","-3.7","","","M","","M","0.0","","35","","10","","","","101.82","","","","-8","","NA"
"-76.60","44.22","KINGSTON CLIMATE","6104142","2020-01-13 21:00","2020","01","13","21:00","-4.0","","","M","","M","0.0","","1","","8","","","","101.81","","","","-7","","NA"
"-76.60","44.22","KINGSTON CLIMATE","6104142","2020-01-13 22:00","2020","01","13","22:00","-3.9","","","M","","M","0.0","","36","","6","","","","101.83","","","","-7","","NA"
"-76.60","44.22","KINGSTON CLIMATE","6104142","2020-01-13 23:00","2020","01","13","23:00","-3.9","","","M","","M","0.0","","1","","5","","","","101.84","","","","-6","","NA"
"-76.60","44.22","KINGSTON CLIMATE","6104142","2020-01-14 00:00","2020","01","14","00:00","-5.4","","","M","","M","0.0","","36","","7","","","","101.89","","","","-9","","NA"
"-76.60","44.22","KINGSTON CLIMATE","6104142","2020-01-14 01:00","2020","01","14","01:00","-4.9","","","M","","M","0.0","","2","","9","","","","101.87","","","","-9","","NA"
"-76.60","44.22","KINGSTON CLIMATE","6104142","2020-01-14 02:00","2020","01","14","02:00","-5.4","","","M","","M","0.0","","3","","8","","","","101.86","","","","-9","","NA"
"-76.60","44.22","KINGSTON CLIMATE","6104142","2020-01-14 03:00","2020","01","14","03:00","-5.8","","","M","","M","0.0","","4","","15","","","","101.90","","","","-12","","NA"
"-76.60","44.22","KINGSTON CLIMATE","6104142","2020-01-14 04:00","2020","01","14","04:00","-6.0","","","M","","M","0.0","","5","","12","","","","101.87","","","","-11","","NA"
"-76.60","44.22","KINGSTON CLIMATE","6104142","2020-01-14 05:00","2020","01","14","05:00","-6.3","","","M","","M","0.0","","3","","15","","","","101.77","","","","-12","","NA"
"-76.60","44.22","KINGSTON CLIMATE","6104142","2020-01-14 06:00","2020","01","14","06:00","-6.9","","","M","","M","0.0","","6","","21","","","","101.70","","","","-14","","NA"
"-76.60","44.22","KINGSTON CLIMATE","6104142","2020-01-14 07:00","2020","01","14","07:00","-6.9","","","M","","M","0.0","","5","","16","","","","101.67","","","","-13","","NA"
"-76.60","44.22","KINGSTON CLIMATE","6104142","2020-01-14 08:00","2020","01","14","08:00","-6.3","","","M","","M","0.0","","4","","14","","","","101.51","","","","-12","","NA"
"-76.60","44.22","KINGSTON CLIMATE","6104142","2020-01-14 09:00","2020","01","14","09:00","-5.8","","","M","","M","0.0","","4","","14","","","","101.50","","","","-11","","NA"
"-76.60","44.22","KINGSTON CLIMATE","6104142","2020-01-14 10:00","2020","01","14","10:00","-5.2","","","M","","M","0.0","","5","","17","","","","101.45","","","","-11","","NA"
"-76.60","44.22","KINGSTON CLIMATE","6104142","2020-01-14 11:00","2020","01","14","11:00","-4.6","","","M","","M","0.0","","5","","15","","","","101.36","","","","-10","","NA"
"-76.60","44.22","KINGSTON CLIMATE","6104142","2020-01-14 12:00","2020","01","14","12:00","-4.2","","","M","","M","0.0","","3","","18","","","","101.15","","","","-10","","NA"
"-76.60","44.22","KINGSTON CLIMATE","6104142","2020-01-14 13:00","2020","01","14","13:00","-3.8","","","M","","M","0.0","","4","","21","","","","100.92","","","","-10","","NA"
"-76.60","44.22","KINGSTON CLIMATE","6104142","2020-01-14 14:00","2020","01","14","14:00","-3.8","","","M","","M","0.0","","4","","22","","","","100.75","","","","-10","","NA"
"-76.60","44.22","KINGSTON CLIMATE","6104142","2020-01-14 15:00","2020","01","14","15:00","-3.8","","","M","","M","0.0","","3","","21","","","","100.65","","","","-10","","NA"
"-76.60","44.22","KINGSTON CLIMATE","6104142","2020-01-14 16:00","2020","01","14","16:00","-3.9","","","M","","M","0.0","","4","","20","","","","100.56","","","","-10","","NA"
"-76.60","44.22","KINGSTON CLIMATE","6104142","2020-01-14 17:00","2020","01","14","17:00","-3.6","","","M","","M","0.0","","3","","15","","","","100.56","","","","-9","","NA"
"-76.60","44.22","KINGSTON CLIMATE","6104142","2020-01-14 18:00","2020","01","14","18:00","-3.6","","","M","","M","0.0","","3","","15","","","","100.54","","","","-9","","NA"
"-76.60","44.22","KINGSTON CLIMATE","6104142","2020-01-14 19:00","2020","01","14","19:00","-3.5","","","M","","M","0.0","","2","","14","","","","100.50","","","","-9","","NA"
"-76.60","44.22","KINGSTON CLIMATE","6104142","2020-01-14 20:00","2020","01","14","20:00","-3.4","","","M","","M","0.0","","35","","16","","","","100.55","","","","-9","","NA"
"-76.60","44.22","KINGSTON CLIMATE","6104142","2020-01-14 21:00","2020","01","14","21:00","-3.5","","","M","","M","0.0","","34","","9","","","","100.56","","","","-7","","NA"
"-76.60","44.22","KINGSTON CLIMATE","6104142","2020-01-14 22:00","2020","01","14","22:00","-3.3","","","M","","M","0.0","","31","","9","","","","100.62","","","","-7","","NA"
"-76.60","44.22","KINGSTON CLIMATE","6104142","2020-01-14 23:00","2020","01","14","23:00","-3.3","","","M","","M","0.0","","24","","2","","","","100.65","","","","-4","","NA"
"-76.60","44.22","KINGSTON CLIMATE","6104142","2020-01-15 00:00","2020","01","15","00:00","-2.8","","","M","","M","0.0","","25","","4","","","","100.67","","","","-4","","NA"
"-76.60","44.22","KINGSTON CLIMATE","6104142","2020-01-15 01:00","2020","01","15","01:00","-2.3","","","M","","M","0.0","","22","","8","","","","100.69","","","","-5","","NA"
"-76.60","44.22","KINGSTON CLIMATE","6104142","2020-01-15 02:00","2020","01","15","02:00","-1.8","","","M","","M","0.0","","25","","6","","","","100.73","","","","-4","","NA"
"-76.60","44.22","KINGSTON CLIMATE","6104142","2020-01-15 03:00","2020","01","15","03:00","-1.6","","","M","","M","0.0","","25","","7","","","","100.76","","","","-4","","NA"
"-76.60","44.22","KINGSTON CLIMATE","6104142","2020-01-15 04:00","2020","01","15","04:00","-1.1","","","M","","M","0.0","","25","","9","","","","100.78","","","","-4","","NA"
"-76.60","44.22","KINGSTON CLIMATE","6104142","2020-01-15 05:00","2020","01","15","05:00","-0.5","","","M","","M","0.0","","26","","8","","","","100.84","","","","-3","","NA"
"-76.60","44.22","KINGSTON CLIMATE","6104142","2020-01-15 06:00","2020","01","15","06:00","0.0","","","M","","M","0.0","","25","","10","","","","100.93","","","","-3","","NA"
"-76.60","44.22","KINGSTON CLIMATE","6104142","2020-01-15 07:00","2020","01","15","07:00","0.4","","","M","","M","0.0","","25","","8","","","","100.98","","","","","","NA"
"-76.60","44.22","KINGSTON CLIMATE","6104142","2020-01-15 08:00","2020","01","15","08:00","1.3","","","M","","M","0.0","","26","","13","","","","100.96","","","","","","NA"
"-76.60","44.22","KINGSTON CLIMATE","6104142","2020-01-15 09:00","2020","01","15","09:00","1.4","","","M","","M","0.2","","27","","9","","","","101.01","","","","","","NA"
"-76.60","44.22","KINGSTON CLIMATE","6104142","2020-01-15 10:00","2020","01","15","10:00","1.2","","","M","","M","0.0","","27","","8","","","","101.05","","","","","","NA"
"-76.60","44.22","KINGSTON CLIMATE","6104142","2020-01-15 11:00","2020","01","15","11:00","1.6","","","M","","M","0.0","","27","","8","","","","101.02","","","","","","NA"
"-76.60","44.22","KINGSTON CLIMATE","6104142","2020-01-15 12:00","2020","01","15","12:00","2.0","","","M","","M","0.0","","26","","9","","","","101.02","","","","","","NA"
"-76.60","44.22","KINGSTON CLIMATE","6104142","2020-01-15 13:00","2020","01","15","13:00","2.0","","","M","","M","0.0","","26","","6","","","","100.98","","","","","","NA"
"-76.60","44.22","KINGSTON CLIMATE","6104142","2020-01-15 14:00","2020","01","15","14:00","2.1","","","M","","M","0.0","","25","","5","","","","100.96","","","","","","NA"
"-76.60","44.22","KINGSTON CLIMATE","6104142","2020-01-15 15:00","2020","01","15","15:00","1.9","","","M","","M","0.0","","24","","6","","","","100.94","","","","","","NA"
"-76.60","44.22","KINGSTON CLIMATE","6104142","2020-01-15 16:00","2020","01","15","16:00","1.7","","","M","","M","0.0","","27","","4","","","","100.92","","","","","","NA"
"-76.60","44.22","KINGSTON CLIMATE","6104142","2020-01-15 17:00","2020","01","15","17:00","1.4","","","M","","M","0.0","","35","","2","","","","100.93","","","","","","NA"
"-76.60","44.22","KINGSTON CLIMATE","6104142","2020-01-15 18:00","2020","01","15","18:00","0.7","","","M","","M","0.0","","10","","6","","","","100.89","","","","","","NA"
"-76.60","44.22","KINGSTON CLIMATE","6104142","2020-01-15 19:00","2020","01","15","19:00","1.0","","","M","","M","0.0","","12","","8","","","","100.81","","","","","","NA"
"-76.60","44.22","KINGSTON CLIMATE","6104142","2020-01-15 20:00","2020","01","15","20:00","0.7","","","M","","M","0.0","","8","","9","","","","100.67","","","","","","NA"
"-76.60","44.22","KINGSTON CLIMATE","6104142","2020-01-15 21:00","2020","01","15","21:00","0.5","","","M","","M","0.0","","7","","7","","","","100.59","","","","","","NA"
"-76.60","44.22","KINGSTON CLIMATE","6104142","2020-01-15 22:00","2020","01","15","22:00","0.5","","","M","","M","0.0","","8","","10","","","","100.53","","","","","","NA"
"-76.60","44.22","KINGSTON CLIMATE","6104142","2020-01-15 23:00","2020","01","15","23:00","0.3","","","M","","M","0.0","","6","","10","","","","100.38","","","","","","NA"
"-76.60","44.22","KINGSTON CLIMATE","6104142","2020-01-16 00:00","2020","01","16","00:00","0.1","","","M","","M","0.0","","4","","5","","","","100.31","","","","","","NA"
"-76.60","44.22","KINGSTON CLIMATE","6104142","2020-01-16 01:00","2020","01","16","01:00","0.0","","","M","","M","0.0","","4","","14","","","","100.13","","","","-4","","NA"
"-76.60","44.22","KINGSTON CLIMATE","6104142","2020-01-16 02:00","2020","01","16","02:00","0.2","","","M","","M","0.0","","2","","13","","","","100.07","","","","","","NA"
"-76.60","44.22","KINGSTON CLIMATE","6104142","2020-01-16 03:00","2020","01","16","03:00","0.2","","","M","","M","0.0","","2","","16","","","","100.00","","","","","","NA"
"-76.60","44.22","KINGSTON CLIMATE","6104142","2020-01-16 04:00","2020","01","16","04:00","0.1","","","M","","M","0.0","","2","","15","","","","100.00","","","","","","NA"
"-76.60","44.22","KINGSTON CLIMATE","6104142","2020-01-16 05:00","2020","01","16","05:00","-0.3","","","M","","M","0.2","","36","","14","","","","100.05","","","","-5","","NA"
"-76.60","44.22","KINGSTON CLIMATE","6104142","2020-01-16 06:00","2020","01","16","06:00","-0.7","","","M","","M","1.2","","33","","12","","","","100.13","","","","-5","","NA"
"-76.60","44.22","KINGSTON CLIMATE","6104142","2020-01-16 07:00","2020","01","16","07:00","-0.7","","","M","","M","0.5","","31","","11","","","","100.26","","","","-4","","NA"
"-76.60","44.22","KINGSTON CLIMATE","6104142","2020-01-16 08:00","2020","01","16","08:00","-0.7","","","M","","M","0.1","","29","","9","","","","100.34","","","","-4","","NA"
"-76.60","44.22","KINGSTON CLIMATE","6104142","2020-01-16 09:00","2020","01","16","09:00","-0.7","","","M","","M","0.2","","29","","11","","","","100.39","","","","-4","","NA"
"-76.60","44.22","KINGSTON CLIMATE","6104142","2020-01-16 10:00","2020","01","16","10:00","-1.1","","","M","","M","0.4","","35","","16","","","","100.52","","","","-6","","NA"
"-76.60","44.22","KINGSTON CLIMATE","6104142","2020-01-16 11:00","2020","01","16","11:00","-1.1","","","M","","M","0.2","","34","","15","","","","100.57","","","","-6","","NA"
"-76.60","44.22","KINGSTON CLIMATE","6104142","2020-01-16 12:00","2020","01","16","12:00","-1.6","","","M","","M","0.2","","32","","25","","","","100.60","","","","-8","","NA"
"-76.60","44.22","KINGSTON CLIMATE","6104142","2020-01-16 13:00","2020","01","16","13:00","-1.7","","","M","","M","0.0","","32","","26","","","","100.69","","","","-8","","NA"
"-76.60","44.22","KINGSTON CLIMATE","6104142","2020-01-16 14:00","2020","01","16","14:00","-1.7","","","M","","M","0.0","","34","","24","","","","100.73","","","","-8","","NA"
"-76.60","44.22","KINGSTON CLIMATE","6104142","2020-01-16 15:00","2020","01","16","15:00","-2.0","","","M","","M","0.0","","34","","23","","","","100.85","","","","-8","","NA"
"-76.60","44.22","KINGSTON CLIMATE","6104142","2020-01-16 16:00","2020","01","16","16:00","-2.9","","","M","","M","0.0","","34","","24","","","","100.98","","","","-10","","NA"
"-76.60","44.22","KINGSTON CLIMATE","6104142","2020-01-16 17:00","2020","01","16","17:00","-4.2","","","M","","M","0.0","","34","","25","","","","101.17","","","","-11","","NA"
"-76.60","44.22","KINGSTON CLIMATE","6104142","2020-01-16 18:00","2020","01","16","18:00","-5.5","","","M","","M","0.0","","34","","23","","","","101.34","","","","-13","","NA"
"-76.60","44.22","KINGSTON CLIMATE","6104142","2020-01-16 19:00","2020","01","16","19:00","-7.3","","","M","","M","0.0","","34","","28","","","","101.54","","","","-16","","NA"
"-76.60","44.22","KINGSTON CLIMATE","6104142","2020-01-16 20:00","2020","01","16","20:00","-8.5","","","M","","M","0.0","","33","","30","","","","101.72","","","","-18","","NA"
"-76.60","44.22","KINGSTON CLIMATE","6104142","2020-01-16 21:00","2020","01","16","21:00","-9.5","","","M","","M","0.0","","35","","25","","","","101.88","","","","-18","","NA"
"-76.60","44.22","KINGSTON CLIMATE","6104142","2020-01-16 22:00","2020","01","16","22:00","-10.8","","","M","","M","0.0","","34","","19","","","","102.03","","","","-19","","NA"
"-76.60","44.22","KINGSTON CLIMATE","6104142","2020-01-16 23:00","2020","01","16","23:00","-12.1","","","M","","M","0.0","","33","","23","","","","102.17","","","","-21","","NA"
"-76.60","44.22","KINGSTON CLIMATE","6104142","2020-01-17 00:00","2020","01","17","00:00","-12.8","","","M","","M","0.0","","33","","23","","","","102.27","","","","-22","","NA"
"-76.60","44.22","KINGSTON CLIMATE","6104142","2020-01-17 01:00","2020","01","17","01:00","-13.6","","","M","","M","0.0","","31","","19","","","","102.44","","","","-22","","NA"
"-76.60","44.22","KINGSTON CLIMATE","6104142","2020-01-17 02:00","2020","01","17","02:00","-14.2","","","M","","M","0.0","","32","","21","","","","102.60","","","","-23","","NA"
"-76.60","44.22","KINGSTON CLIMATE","6104142","2020-01-17 03:00","2020","01","17","03:00","-15.3","","","M","","M","0.0","","33","","17","","","","102.72","","","","-24","","NA"
"-76.60","44.22","KINGSTON CLIMATE","6104142","2020-01-17 04:00","2020","01","17","04:00","-15.9","","","M","","M","0.0","","34","","24","","","","102.83","","","","-26","","NA"
"-76.60","44.22","KINGSTON CLIMATE","6104142","2020-01-17 05:00","2020","01","17","05:00","-16.9","","","M","","M","0.0","","32","","21","","","","102.95","","","","-27","","NA"
"-76.60","44.22","KINGSTON CLIMATE","6104142","2020-01-17 06:00","2020","01","17","06:00","-18.2","","","M","","M","0.0","","34","","13","","","","103.07","","","","-26","","NA"
"-76.60","44.22","KINGSTON CLIMATE","6104142","2020-01-17 07:00","2020","01","17","07:00","-18.5","","","M","","M","0.0","","33","","11","","","","103.23","","","","-26","","NA"
"-76.60","44.22","KINGSTON CLIMATE","6104142","2020-01-17 08:00","2020","01","17","08:00","-19.3","","","M","","M","0.0","","34","","10","","","","103.29","","","","-26","","NA"
"-76.60","44.22","KINGSTON CLIMATE","6104142","2020-01-17 09:00","2020","01","17","09:00","-18.6","","","M","","M","0.0","","32","","13","","","","103.39","","","","-27","","NA"
"-76.60","44.22","KINGSTON CLIMATE","6104142","2020-01-17 10:00","2020","01","17","10:00","-17.8","","","M","","M","0.0","","35","","13","","","","103.44","","","","-26","","NA"
"-76.60","44.22","KINGSTON CLIMATE","6104142","2020-01-17 11:00","2020","01","17","11:00","-16.9","","","M","","M","0.0","","35","","15","","","","103.42","","","","-25","","NA"
"-76.60","44.22","KINGSTON CLIMATE","6104142","2020-01-17 12:00","2020","01","17","12:00","-15.8","","","M","","M","0.0","","33","","7","","","","103.34","","","","-21","","NA"
"-76.60","44.22","KINGSTON CLIMATE","6104142","2020-01-17 13:00","2020","01","17","13:00","-14.8","","","M","","M","0.0","","34","","5","","","","103.25","","","","-18","","NA"
"-76.60","44.22","KINGSTON CLIMATE","6104142","2020-01-17 14:00","2020","01","17","14:00","-14.2","","","M","","M","0.0","","2","","7","","","","103.18","","","","-19","","NA"
"-76.60","44.22","KINGSTON CLIMATE","6104142","2020-01-17 15:00","2020","01","17","15:00","-13.4","","","M","","M","0.0","","4","","3","","","","103.18","","","","-15","","NA"
"-76.60","44.22","KINGSTON CLIMATE","6104142","2020-01-17 16:00","2020","01","17","16:00","-14.1","","","M","","M","0.0","","31","","6","","","","103.16","","","","-18","","NA"
"-76.60","44.22","KINGSTON CLIMATE","6104142","2020-01-17 17:00","2020","01","17","17:00","-14.3","","","M","","M","0.0","","36","","4","","","","103.14","","","","-17","","NA"
"-76.60","44.22","KINGSTON CLIMATE","6104142","2020-01-17 18:00","2020","01","17","18:00","-14.5","","","M","","M","0.0","","29","","5","","","","103.17","","","","-18","","NA"
"-76.60","44.22","KINGSTON CLIMATE","6104142","2020-01-17 19:00","2020","01","17","19:00","-15.3","","","M","","M","0.0","","34","","7","","","","103.12","","","","-20","","NA"
"-76.60","44.22","KINGSTON CLIMATE","6104142","2020-01-17 20:00","2020","01","17","20:00","-16.6","","","M","","M","0.0","","35","","5","","","","103.09","","","","-20","","NA"
"-76.60","44.22","KINGSTON CLIMATE","6104142","2020-01-17 21:00","2020","01","17","21:00","-16.4","","","M","","M","0.0","","33","","9","","","","103.10","","","","-22","","NA"
"-76.60","44.22","KINGSTON CLIMATE","6104142","2020-01-17 22:00","2020","01","17","22:00","-17.0","","","M","","M","0.0","","34","","10","","","","103.06","","","","-24","","NA"
"-76.60","44.22","KINGSTON CLIMATE","6104142","2020-01-17 23:00","2020","01","17","23:00","-16.5","","","M","","M","0.0","","34","","6","","","","103.03","","","","-21","","NA"
"-76.60","44.22","KINGSTON CLIMATE","6104142","2020-01-18 00:00","2020","01","18","00:00","-14.9","","","M","","M","0.0","","4","","7","","","","102.95","","","","-20","","NA"
"-76.60","44.22","KINGSTON CLIMATE","6104142","2020-01-18 01:00","2020","01","18","01:00","-14.6","","","M","","M","0.0","","5","","2","","","","102.87","","","","-16","","NA"
"-76.60","44.22","KINGSTON CLIMATE","6104142","2020-01-18 02:00","2020","01","18","02:00","-14.1","","","M","","M","0.0","","5","","5","","","","102.83","","","","-18","","NA"
"-76.60","44.22","KINGSTON CLIMATE","6104142","2020-01-18 03:00","2020","01","18","03:00","-13.1","","","M","","M","0.0","","5","","8","","","","102.73","","","","-18","","NA"
"-76.60","44.22","KINGSTON CLIMATE","6104142","2020-01-18 04:00","2020","01","18","04:00","-12.6","","","M","","M","0.0","","6","","11","","","","102.55","","","","-19","","NA"
"-76.60","44.22","KINGSTON CLIMATE","6104142","2020-01-18 05:00","2020","01","18","05:00","-11.8","","","M","","M","0.0","","8","","14","","","","102.43","","","","-19","","NA"
"-76.60","44.22","KINGSTON CLIMATE","6104142","2020-01-18 06:00","2020","01","18","06:00","-11.6","","","M","","M","0.0","","8","","17","","","","102.28","","","","-19","","NA"
"-76.60","44.22","KINGSTON CLIMATE","6104142","2020-01-18 07:00","2020","01","18","07:00","-11.8","","","M","","M","0.0","","8","","23","","","","102.07","","","","-21","","NA"
"-76.60","44.22","KINGSTON CLIMATE","6104142","2020-01-18 08:00","2020","01","18","08:00","-11.6","","","M","","M","0.0","","7","","17","","","","101.94","","","","-19","","NA"
"-76.60","44.22","KINGSTON CLIMATE","6104142","2020-01-18 09:00","2020","01","18","09:00","-11.4","","","M","","M","0.0","","6","","18","","","","101.78","","","","-19","","NA"
"-76.60","44.22","KINGSTON CLIMATE","6104142","2020-01-18 10:00","2020","01","18","10:00","-10.8","","","M","","M","0.0","","6","","21","","","","101.64","","","","-19","","NA"
"-76.60","44.22","KINGSTON CLIMATE","6104142","2020-01-18 11:00","2020","01","18","11:00","-9.9","","","M","","M","0.0","","6","","21","","","","101.37","","","","-18","","NA"
"-76.60","44.22","KINGSTON CLIMATE","6104142","2020-01-18 12:00","2020","01","18","12:00","-9.7","","","M","","M","0.0","","5","","21","","","","101.12","","","","-18","","NA"
"-76.60","44.22","KINGSTON CLIMATE","6104142","2020-01-18 13:00","2020","01","18","13:00","-10.0","","","M","","M","0.1","","6","","23","","","","100.87","","","","-18","","NA"
"-76.60","44.22","KINGSTON CLIMATE","6104142","2020-01-18 14:00","2020","01","18","14:00","-10.3","","","M","","M","0.5","","6","","25","","","","100.48","","","","-19","","NA"
"-76.60","44.22","KINGSTON CLIMATE","6104142","2020-01-18 15:00","2020","01","18","15:00","-10.2","","","M","","M","0.3","","7","","27","","","","100.20","","","","-19","","NA"
"-76.60","44.22","KINGSTON CLIMATE","6104142","2020-01-18 16:00","2020","01","18","16:00","-9.6","","","M","","M","0.6","","5","","18","","","","100.00","","","","-17","","NA"
"-76.60","44.22","KINGSTON CLIMATE","6104142","2020-01-18 17:00","2020","01","18","17:00","-6.3","","","M","","M","0.6","","10","","19","","","","99.80","","","","-13","","NA"
"-76.60","44.22","KINGSTON CLIMATE","6104142","2020-01-18 18:00","2020","01","18","18:00","-5.2","","","M","","M","1.1","","11","","18","","","","99.52","","","","-11","","NA"
"-76.60","44.22","KINGSTON CLIMATE","6104142","2020-01-18 19:00","2020","01","18","19:00","-5.5","","","M","","M","0.9","","10","","16","","","","99.36","","","","-11","","NA"
"-76.60","44.22","KINGSTON CLIMATE","6104142","2020-01-18 20:00","2020","01","18","20:00","-5.2","","","M","","M","1.1","","10","","17","","","","99.16","","","","-11","","NA"
"-76.60","44.22","KINGSTON CLIMATE","6104142","2020-01-18 21:00","2020","01","18","21:00","-6.3","","","M","","M","1.0","","7","","10","","","","98.96","","","","-11","","NA"
"-76.60","44.22","KINGSTON CLIMATE","6104142","2020-01-18 22:00","2020","01","18","22:00","-6.3","","","M","","M","1.8","","6","","13","","","","98.83","","","","-12","","NA"
"-76.60","44.22","KINGSTON CLIMATE","6104142","2020-01-18 23:00","2020","01","18","23:00","-4.4","","","M","","M","2.4","","5","","14","","","","98.73","","","","-10","","NA"
"-76.60","44.22","KINGSTON CLIMATE","6104142","2020-01-19 00:00","2020","01","19","00:00","-6.6","","","M","","M","0.2","","35","","13","","","","98.79","","","","-12","","NA"
"-76.60","44.22","KINGSTON CLIMATE","6104142","2020-01-19 01:00","2020","01","19","01:00","-7.7","","","M","","M","0.0","","35","","12","","","","98.81","","","","-13","","NA"
"-76.60","44.22","KINGSTON CLIMATE","6104142","2020-01-19 02:00","2020","01","19","02:00","-8.1","","","M","","M","0.0","","35","","11","","","","98.84","","","","-13","","NA"
"-76.60","44.22","KINGSTON CLIMATE","6104142","2020-01-19 03:00","2020","01","19","03:00","-8.5","","","M","","M","0.1","","34","","13","","","","98.89","","","","-14","","NA"
"-76.60","44.22","KINGSTON CLIMATE","6104142","2020-01-19 04:00","2020","01","19","04:00","-9.0","","","M","","M","0.0","","34","","12","","","","98.94","","","","-15","","NA"
"-76.60","44.22","KINGSTON CLIMATE","6104142","2020-01-19 05:00","2020","01","19","05:00","-9.8","","","M","","M","0.0","","35","","14","","","","99.02","","","","-16","","NA"
"-76.60","44.22","KINGSTON CLIMATE","6104142","2020-01-19 06:00","2020","01","19","06:00","-10.1","","","M","","M","0.0","","34","","17","","","","99.22","","","","-17","","NA"
"-76.60","44.22","KINGSTON CLIMATE","6104142","2020-01-19 07:00","2020","01","19","07:00","-11.7","","","M","","M","0.1","","35","","15","","","","99.34","","","","-19","","NA"
"-76.60","44.22","KINGSTON CLIMATE","6104142","2020-01-19 08:00","2020","01","19","08:00","-12.6","","","M","","M","0.0","","34","","12","","","","99.48","","","","-19","","NA"
"-76.60","44.22","KINGSTON CLIMATE","6104142","2020-01-19 09:00","2020","01","19","09:00","-11.9","","","M","","M","0.0","","34","","13","","","","99.66","","","","-19","","NA"
"-76.60","44.22","KINGSTON CLIMATE","6104142","2020-01-19 10:00","2020","01","19","10:00","-11.4","","","M","","M","0.0","","32","","13","","","","99.78","","","","-18","","NA"
"-76.60","44.22","KINGSTON CLIMATE","6104142","2020-01-19 11:00","2020","01","19","11:00","-11.0","","","M","","M","0.0","","33","","18","","","","99.86","","","","-19","","NA"
"-76.60","44.22","KINGSTON CLIMATE","6104142","2020-01-19 12:00","2020","01","19","12:00","-10.3","","","M","","M","0.0","","32","","13","","","","99.88","","","","-17","","NA"
"-76.60","44.22","KINGSTON CLIMATE","6104142","2020-01-19 13:00","2020","01","19","13:00","-9.9","","","M","","M","0.0","","32","","19","","","","99.93","","","","-18","","NA"
"-76.60","44.22","KINGSTON CLIMATE","6104142","2020-01-19 14:00","2020","01","19","14:00","-9.0","","","M","","M","0.0","","33","","14","","","","100.02","","","","-15","","NA"
"-76.60","44.22","KINGSTON CLIMATE","6104142","2020-01-19 15:00","2020","01","19","15:00","-8.7","","","M","","M","0.0","","32","","16","","","","100.14","","","","-15","","NA"
"-76.60","44.22","KINGSTON CLIMATE","6104142","2020-01-19 16:00","2020","01","19","16:00","-8.9","","","M","","M","0.0","","34","","17","","","","100.28","","","","-16","","NA"
"-76.60","44.22","KINGSTON CLIMATE","6104142","2020-01-19 17:00","2020","01","19","17:00","-9.2","","","M","","M","0.0","","33","","16","","","","100.42","","","","-16","","NA"
"-76.60","44.22","KINGSTON CLIMATE","6104142","2020-01-19 18:00","2020","01","19","18:00","-9.6","","","M","","M","0.0","","29","","8","","","","100.57","","","","-14","","NA"
"-76.60","44.22","KINGSTON CLIMATE","6104142","2020-01-19 19:00","2020","01","19","19:00","-10.4","","","M","","M","0.0","","29","","11","","","","100.67","","","","-16","","NA"
"-76.60","44.22","KINGSTON CLIMATE","6104142","2020-01-19 20:00","2020","01","19","20:00","-10.7","","","M","","M","0.0","","31","","12","","","","100.77","","","","-17","","NA"
"-76.60","44.22","KINGSTON CLIMATE","6104142","2020-01-19 21:00","2020","01","19","21:00","-11.4","","","M","","M","0.0","","31","","9","","","","100.86","","","","-17","","NA"
"-76.60","44.22","KINGSTON CLIMATE","6104142","2020-01-19 22:00","2020","01","19","22:00","-12.0","","","M","","M","0.0","","29","","8","","","","100.99","","","","-17","","NA"
"-76.60","44.22","KINGSTON CLIMATE","6104142","2020-01-19 23:00","2020","01","19","23:00","-13.8","","","M","","M","0.0","","33","","15","","","","101.08","","","","-21","","NA"
"-76.60","44.22","KINGSTON CLIMATE","6104142","2020-01-20 00:00","2020","01","20","00:00","-13.2","","","M","","M","0.0","","33","","7","","","","101.18","","","","-18","","NA"
"-76.60","44.22","KINGSTON CLIMATE","6104142","2020-01-20 01:00","2020","01","20","01:00","-13.1","","","M","","M","0.0","","29","","8","","","","101.25","","","","-18","","NA"
"-76.60","44.22","KINGSTON CLIMATE","6104142","2020-01-20 02:00","2020","01","20","02:00","-14.4","","","M","","M","0.0","","31","","10","","","","101.32","","","","-21","","NA"
"-76.60","44.22","KINGSTON CLIMATE","6104142","2020-01-20 03:00","2020","01","20","03:00","-15.7","","","M","","M","0.0","","31","","9","","","","101.37","","","","-22","","NA"
"-76.60","44.22","KINGSTON CLIMATE","6104142","2020-01-20 04:00","2020","01","20","04:00","-16.4","","","M","","M","0.0","","33","","5","","","","101.45","","","","-20","","NA"
"-76.60","44.22","KINGSTON CLIMATE","6104142","2020-01-20 05:00","2020","01","20","05:00","-16.6","","","M","","M","0.0","","28","","5","","","","101.50","","","","-20","","NA"
"-76.60","44.22","KINGSTON CLIMATE","6104142","2020-01-20 06:00","2020","01","20","06:00","-17.5","","","M","","M","0.0","","30","","6","","","","101.61","","","","-22","","NA"
"-76.60","44.22","KINGSTON CLIMATE","6104142","2020-01-20 07:00","2020","01","20","07:00","-18.4","","","M","","M","0.0","","27","","3","","","","101.73","","","","-21","","NA"
"-76.60","44.22","KINGSTON CLIMATE","6104142","2020-01-20 08:00","2020","01","20","08:00","-17.0","","","M","","M","0.0","","26","","10","","","","101.85","","","","-24","","NA"
"-76.60","44.22","KINGSTON CLIMATE","6104142","2020-01-20 09:00","2020","01","20","09:00","-17.0","","","M","","M","0.0","","30","","7","","","","101.89","","","","-22","","NA"
"-76.60","44.22","KINGSTON CLIMATE","6104142","2020-01-20 10:00","2020","01","20","10:00","-16.1","","","M","","M","0.0","","33","","6","","","","101.93","","","","-21","","NA"
"-76.60","44.22","KINGSTON CLIMATE","6104142","2020-01-20 11:00","2020","01","20","11:00","-11.6","","","M","","M","0.0","","32","","1","","","","101.97","","","","-12","","NA"
"-76.60","44.22","KINGSTON CLIMATE","6104142","2020-01-20 12:00","2020","01","20","12:00","-11.6","","","M","","M","0.0","","21","","11","","","","101.91","","","","-18","","NA"
"-76.60","44.22","KINGSTON CLIMATE","6104142","2020-01-20 13:00","2020","01","20","13:00","-11.1","","","M","","M","0.0","","23","","18","","","","101.87","","","","-19","","NA"
"-76.60","44.22","KINGSTON CLIMATE","6104142","2020-01-20 14:00","2020","01","20","14:00","-9.8","","","M","","M","0.0","","26","","18","","","","101.80","","","","-17","","NA"
"-76.60","44.22","KINGSTON CLIMATE","6104142","2020-01-20 15:00","2020","01","20","15:00","-9.3","","","M","","M","0.0","","26","","17","","","","101.78","","","","-16","","NA"
"-76.60","44.22","KINGSTON CLIMATE","6104142","2020-01-20 16:00","2020","01","20","16:00","-8.9","","","M","","M","0.0","","26","","18","","","","101.77","","","","-16","","NA"
"-76.60","44.22","KINGSTON CLIMATE","6104142","2020-01-20 17:00","2020","01","20","17:00","-9.3","","","M","","M","0.0","","25","","14","","","","101.78","","","","-16","","NA"
"-76.60","44.22","KINGSTON CLIMATE","6104142","2020-01-20 18:00","2020","01","20","18:00","-9.2","","","M","","M","0.0","","25","","14","","","","101.82","","","","-16","","NA"
"-76.60","44.22","KINGSTON CLIMATE","6104142","2020-01-20 19:00","2020","01","20","19:00","-8.9","","","M","","M","0.0","","26","","19","","","","101.84","","","","-16","","NA"
"-76.60","44.22","KINGSTON CLIMATE","6104142","2020-01-20 20:00","2020","01","20","20:00","-9.8","","","M","","M","0.0","","26","","14","","","","101.85","","","","-16","","NA"
"-76.60","44.22","KINGSTON CLIMATE","6104142","2020-01-20 21:00","2020","01","20","21:00","-10.5","","","M","","M","0.0","","27","","11","","","","101.84","","","","-16","","NA"
"-76.60","44.22","KINGSTON CLIMATE","6104142","2020-01-20 22:00","2020","01","20","22:00","-11.2","","","M","","M","0.0","","29","","9","","","","101.85","","","","-16","","NA"
"-76.60","44.22","KINGSTON CLIMATE","6104142","2020-01-20 23:00","2020","01","20","23:00","-11.5","","","M","","M","0.0","","28","","13","","","","101.89","","","","-18","","NA"
"-76.60","44.22","KINGSTON CLIMATE","6104142","2020-01-21 00:00","2020","01","21","00:00","-12.8","","","M","","M","0.0","","30","","6","","","","101.92","","","","-17","","NA"
"-76.60","44.22","KINGSTON CLIMATE","6104142","2020-01-21 01:00","2020","01","21","01:00","-13.7","","","M","","M","0.0","","30","","9","","","","101.94","","","","-19","","NA"
"-76.60","44.22","KINGSTON CLIMATE","6104142","2020-01-21 02:00","2020","01","21","02:00","-16.2","","","M","","M","0.0","","32","","7","","","","101.96","","","","-21","","NA"
"-76.60","44.22","KINGSTON CLIMATE","6104142","2020-01-21 03:00","2020","01","21","03:00","-16.1","","","M","","M","0.0","","31","","2","","","","101.98","","","","-18","","NA"
"-76.60","44.22","KINGSTON CLIMATE","6104142","2020-01-21 04:00","2020","01","21","04:00","-17.9","","","M","","M","0.0","","28","","8","","","","102.02","","","","-24","","NA"
"-76.60","44.22","KINGSTON CLIMATE","6104142","2020-01-21 05:00","2020","01","21","05:00","-17.5","","","M","","M","0.0","","32","","9","","","","102.02","","","","-24","","NA"
"-76.60","44.22","KINGSTON CLIMATE","6104142","2020-01-21 06:00","2020","01","21","06:00","-18.6","","","M","","M","0.0","","33","","13","","","","102.04","","","","-27","","NA"
"-76.60","44.22","KINGSTON CLIMATE","6104142","2020-01-21 07:00","2020","01","21","07:00","-18.8","","","M","","M","0.0","","33","","12","","","","102.10","","","","-27","","NA"
"-76.60","44.22","KINGSTON CLIMATE","6104142","2020-01-21 08:00","2020","01","21","08:00","-17.3","","","M","","M","0.0","","34","","6","","","","102.09","","","","-22","","NA"
"-76.60","44.22","KINGSTON CLIMATE","6104142","2020-01-21 09:00","2020","01","21","09:00","-16.3","","","M","","M","0.0","","31","","5","","","","102.09","","","","-20","","NA"
"-76.60","44.22","KINGSTON CLIMATE","6104142","2020-01-21 10:00","2020","01","21","10:00","-11.5","","","M","","M","0.0","","26","","6","","","","102.09","","","","-15","","NA"
"-76.60","44.22","KINGSTON CLIMATE","6104142","2020-01-21 11:00","2020","01","21","11:00","-9.6","","","M","","M","0.0","","25","","9","","","","102.10","","","","-14","","NA"
"-76.60","44.22","KINGSTON CLIMATE","6104142","2020-01-21 12:00","2020","01","21","12:00","-8.8","","","M","","M","0.0","","24","","10","","","","102.02","","","","-14","","NA"
"-76.60","44.22","KINGSTON CLIMATE","6104142","2020-01-21 13:00","2020","01","21","13:00","-7.9","","","M","","M","0.0","","23","","10","","","","101.94","","","","-13","","NA"
"-76.60","44.22","KINGSTON CLIMATE","6104142","2020-01-21 14:00","2020","01","21","14:00","-6.7","","","M","","M","0.0","","24","","8","","","","101.86","","","","-11","","NA"
"-76.60","44.22","KINGSTON CLIMATE","6104142","2020-01-21 15:00","2020","01","21","15:00","-5.5","","","M","","M","0.0","","22","","8","","","","101.84","","","","-9","","NA"
"-76.60","44.22","KINGSTON CLIMATE","6104142","2020-01-21 16:00","2020","01","21","16:00","-3.8","","","M","","M","0.0","","23","","15","","","","101.76","","","","-9","","NA"
"-76.60","44.22","KINGSTON CLIMATE","6104142","2020-01-21 17:00","2020","01","21","17:00","-3.1","","","M","","M","0.0","","24","","14","","","","101.78","","","","-8","","NA"
"-76.60","44.22","KINGSTON CLIMATE","6104142","2020-01-21 18:00","2020","01","21","18:00","-2.9","","","M","","M","0.0","","23","","19","","","","101.71","","","","-9","","NA"
"-76.60","44.22","KINGSTON CLIMATE","6104142","2020-01-21 19:00","2020","01","21","19:00","-3.1","","","M","","M","0.0","","24","","14","","","","101.70","","","","-8","","NA"
"-76.60","44.22","KINGSTON CLIMATE","6104142","2020-01-21 20:00","2020","01","21","20:00","-2.8","","","M","","M","0.0","","25","","12","","","","101.68","","","","-7","","NA"
"-76.60","44.22","KINGSTON CLIMATE","6104142","2020-01-21 21:00","2020","01","21","21:00","-2.1","","","M","","M","0.0","","25","","22","","","","101.66","","","","-8","","NA"
"-76.60","44.22","KINGSTON CLIMATE","6104142","2020-01-21 22:00","2020","01","21","22:00","-2.7","","","M","","M","0.0","","25","","20","","","","101.65","","","","-9","","NA"
"-76.60","44.22","KINGSTON CLIMATE","6104142","2020-01-21 23:00","2020","01","21","23:00","-3.3","","","M","","M","0.0","","25","","19","","","","101.66","","","","-9","","NA"
"-76.60","44.22","KINGSTON CLIMATE","6104142","2020-01-22 00:00","2020","01","22","00:00","-3.7","","","M","","M","0.0","","25","","18","","","","101.61","","","","-10","","NA"
"-76.60","44.22","KINGSTON CLIMATE","6104142","2020-01-22 01:00","2020","01","22","01:00","-3.7","","","M","","M","0.0","","24","","17","","","","101.55","","","","-9","","NA"
"-76.60","44.22","KINGSTON CLIMATE","6104142","2020-01-22 02:00","2020","01","22","02:00","-3.6","","","M","","M","0.0","","24","","16","","","","101.57","","","","-9","","NA"
"-76.60","44.22","KINGSTON CLIMATE","6104142","2020-01-22 03:00","2020","01","22","03:00","-3.8","","","M","","M","0.0","","25","","13","","","","101.58","","","","-9","","NA"
"-76.60","44.22","KINGSTON CLIMATE","6104142","2020-01-22 04:00","2020","01","22","04:00","-3.6","","","M","","M","0.0","","24","","15","","","","101.57","","","","-9","","NA"
"-76.60","44.22","KINGSTON CLIMATE","6104142","2020-01-22 05:00","2020","01","22","05:00","-4.1","","","M","","M","0.0","","24","","13","","","","101.57","","","","-9","","NA"
"-76.60","44.22","KINGSTON CLIMATE","6104142","2020-01-22 06:00","2020","01","22","06:00","-3.0","","","M","","M","0.0","","25","","16","","","","101.58","","","","-8","","NA"
"-76.60","44.22","KINGSTON CLIMATE","6104142","2020-01-22 07:00","2020","01","22","07:00","-3.5","","","M","","M","0.0","","24","","9","","","","101.58","","","","-7","","NA"
"-76.60","44.22","KINGSTON CLIMATE","6104142","2020-01-22 08:00","2020","01","22","08:00","-3.5","","","M","","M","0.0","","24","","5","","","","101.59","","","","-6","","NA"
"-76.60","44.22","KINGSTON CLIMATE","6104142","2020-01-22 09:00","2020","01","22","09:00","-2.9","","","M","","M","0.0","","24","","8","","","","101.59","","","","-6","","NA"
"-76.60","44.22","KINGSTON CLIMATE","6104142","2020-01-22 10:00","2020","01","22","10:00","-2.1","","","M","","M","0.0","","23","","9","","","","101.62","","","","-6","","NA"
"-76.60","44.22","KINGSTON CLIMATE","6104142","2020-01-22 11:00","2020","01","22","11:00","-0.3","","","M","","M","0.0","","20","","25","","","","101.64","","","","-6","","NA"
"-76.60","44.22","KINGSTON CLIMATE","6104142","2020-01-22 12:00","2020","01","22","12:00","-0.7","","","M","","M","0.0","","21","","30","","","","101.64","","","","-7","","NA"
"-76.60","44.22","KINGSTON CLIMATE","6104142","2020-01-22 13:00","2020","01","22","13:00","-0.6","","","M","","M","0.0","","20","","26","","","","101.54","","","","-7","","NA"
"-76.60","44.22","KINGSTON CLIMATE","6104142","2020-01-22 14:00","2020","01","22","14:00","-0.6","","","M","","M","0.0","","20","","27","","","","101.50","","","","-7","","NA"
"-76.60","44.22","KINGSTON CLIMATE","6104142","2020-01-22 15:00","2020","01","22","15:00","-1.2","","","M","","M","0.0","","21","","24","","","","101.52","","","","-7","","NA"
"-76.60","44.22","KINGSTON CLIMATE","6104142","2020-01-22 16:00","2020","01","22","16:00","-1.3","","","M","","M","0.0","","20","","21","","","","101.57","","","","-7","","NA"
"-76.60","44.22","KINGSTON CLIMATE","6104142","2020-01-22 17:00","2020","01","22","17:00","-0.7","","","M","","M","0.0","","20","","19","","","","101.53","","","","-6","","NA"
"-76.60","44.22","KINGSTON CLIMATE","6104142","2020-01-22 18:00","2020","01","22","18:00","-0.4","","","M","","M","0.0","","21","","20","","","","101.52","","","","-6","","NA"
"-76.60","44.22","KINGSTON CLIMATE","6104142","2020-01-22 19:00","2020","01","22","19:00","0.2","","","M","","M","0.0","","20","","19","","","","101.48","","","","","","NA"
"-76.60","44.22","KINGSTON CLIMATE","6104142","2020-01-22 20:00","2020","01","22","20:00","0.7","","","M","","M","0.0","","20","","20","","","","101.50","","","","","","NA"
"-76.60","44.22","KINGSTON CLIMATE","6104142","2020-01-22 21:00","2020","01","22","21:00","0.5","","","M","","M","0.0","","21","","19","","","","101.48","","","","","","NA"
"-76.60","44.22","KINGSTON CLIMATE","6104142","2020-01-22 22:00","2020","01","22","22:00","0.6","","","M","","M","0.0","","21","","18","","","","101.44","","","","","","NA"
"-76.60","44.22","KINGSTON CLIMATE","6104142","2020-01-22 23:00","2020","01","22","23:00","0.6","","","M","","M","0.0","","21","","17","","","","101.45","","","","","","NA"
"-76.60","44.22","KINGSTON CLIMATE","6104142","2020-01-23 00:00","2020","01","23","00:00","-0.1","","","M","","M","0.0","","23","","15","","","","101.44","","","","-5","","NA"
"-76.60","44.22","KINGSTON CLIMATE","6104142","2020-01-23 01:00","2020","01","23","01:00","-0.1","","","M","","M","0.0","","21","","17","","","","101.43","","","","-5","","NA"
"-76.60","44.22","KINGSTON CLIMATE","6104142","2020-01-23 02:00","2020","01","23","02:00","0.1","","","M","","M","0.0","","23","","17","","","","101.46","","","","","","NA"
"-76.60","44.22","KINGSTON CLIMATE","6104142","2020-01-23 03:00","2020","01","23","03:00","-0.3","","","M","","M","0.0","","21","","17","","","","101.48","","","","-5","","NA"
"-76.60","44.22","KINGSTON CLIMATE","6104142","2020-01-23 04:00","2020","01","23","04:00","-0.6","","","M","","M","0.0","","21","","17","","","","101.47","","","","-6","","NA"
"-76.60","44.22","KINGSTON CLIMATE","6104142","2020-01-23 05:00","2020","01","23","05:00","-0.7","","","M","","M","0.0","","21","","14","","","","101.46","","","","-5","","NA"
"-76.60","44.22","KINGSTON CLIMATE","6104142","2020-01-23 06:00","2020","01","23","06:00","-1.0","","","M","","M","0.0","","21","","12","","","","101.47","","","","-5","","NA"
"-76.60","44.22","KINGSTON CLIMATE","6104142","2020-01-23 07:00","2020","01","23","07:00","-0.6","","","M","","M","0.0","","23","","9","","","","101.49","","","","-4","","NA"
"-76.60","44.22","KINGSTON CLIMATE","6104142","2020-01-23 08:00","2020","01","23","08:00","-0.9","","","M","","M","0.0","","22","","7","","","","101.48","","","","-3","","NA"
"-76.60","44.22","KINGSTON CLIMATE","6104142","2020-01-23 09:00","2020","01","23","09:00","-0.4","","","M","","M","0.0","","18","","9","","","","101.50","","","","-4","","NA"
"-76.60","44.22","KINGSTON CLIMATE","6104142","2020-01-23 10:00","2020","01","23","10:00","0.5","","","M","","M","0.0","","19","","18","","","","101.54","","","","","","NA"
"-76.60","44.22","KINGSTON CLIMATE","6104142","2020-01-23 11:00","2020","01","23","11:00","0.8","","","M","","M","0.0","","20","","18","","","","101.58","","","","","","NA"
"-76.60","44.22","KINGSTON CLIMATE","6104142","2020-01-23 12:00","2020","01","23","12:00","1.0","","","M","","M","0.0","","20","","16","","","","101.56","","","","","","NA"
"-76.60","44.22","KINGSTON CLIMATE","6104142","2020-01-23 13:00","2020","01","23","13:00","0.7","","","M","","M","0.0","","19","","12","","","","101.49","","","","","","NA"
"-76.60","44.22","KINGSTON CLIMATE","6104142","2020-01-23 14:00","2020","01","23","14:00","0.9","","","M","","M","0.0","","17","","12","","","","101.43","","","","","","NA"
"-76.60","44.22","KINGSTON CLIMATE","6104142","2020-01-23 15:00","2020","01","23","15:00","1.0","","","M","","M","0.0","","20","","4","","","","101.46","","","","","","NA"
"-76.60","44.22","KINGSTON CLIMATE","6104142","2020-01-23 16:00","2020","01","23","16:00","0.7","","","M","","M","0.0","","14","","3","","","","101.44","","","","","","NA"
"-76.60","44.22","KINGSTON CLIMATE","6104142","2020-01-23 17:00","2020","01","23","17:00","0.0","","","M","","M","0.0","","12","","5","","","","101.45","","","","-2","","NA"
"-76.60","44.22","KINGSTON CLIMATE","6104142","2020-01-23 18:00","2020","01","23","18:00","-0.9","","","M","","M","0.0","","35","","5","","","","101.51","","","","-3","","NA"
"-76.60","44.22","KINGSTON CLIMATE","6104142","2020-01-23 19:00","2020","01","23","19:00","-1.0","","","M","","M","0.0","","34","","6","","","","101.57","","","","-3","","NA"
"-76.60","44.22","KINGSTON CLIMATE","6104142","2020-01-23 20:00","2020","01","23","20:00","-1.7","","","M","","M","0.0","","4","","6","","","","101.55","","","","-4","","NA"
"-76.60","44.22","KINGSTON CLIMATE","6104142","2020-01-23 21:00","2020","01","23","21:00","-2.0","","","M","","M","0.0","","6","","7","","","","101.53","","","","-5","","NA"
"-76.60","44.22","KINGSTON CLIMATE","6104142","2020-01-23 22:00","2020","01","23","22:00","-2.7","","","M","","M","0.0","","1","","8","","","","101.52","","","","-6","","NA"
"-76.60","44.22","KINGSTON CLIMATE","6104142","2020-01-23 23:00","2020","01","23","23:00","-1.4","","","M","","M","0.0","","4","","11","","","","101.52","","","","-5","","NA"
"-76.60","44.22","KINGSTON CLIMATE","6104142","2020-01-24 00:00","2020","01","24","00:00","-1.0","","","M","","M","0.0","","3","","7","","","","101.54","","","","-4","","NA"
"-76.60","44.22","KINGSTON CLIMATE","6104142","2020-01-24 01:00","2020","01","24","01:00","-0.5","","","M","","M","0.0","","3","","9","","","","101.49","","","","-4","","NA"
"-76.60","44.22","KINGSTON CLIMATE","6104142","2020-01-24 02:00","2020","01","24","02:00","-0.5","","","M","","M","0.0","","2","","10","","","","101.48","","","","-4","","NA"
"-76.60","44.22","KINGSTON CLIMATE","6104142","2020-01-24 03:00","2020","01","24","03:00","-0.4","","","M","","M","0.0","","5","","22","","","","101.45","","","","-6","","NA"
"-76.60","44.22","KINGSTON CLIMATE","6104142","2020-01-24 04:00","2020","01","24","04:00","-0.6","","","M","","M","0.0","","3","","10","","","","101.50","","","","-4","","NA"
"-76.60","44.22","KINGSTON CLIMATE","6104142","2020-01-24 05:00","2020","01","24","05:00","-0.8","","","M","","M","0.0","","2","","9","","","","101.48","","","","-4","","NA"
"-76.60","44.22","KINGSTON CLIMATE","6104142","2020-01-24 06:00","2020","01","24","06:00","-0.9","","","M","","M","0.0","","2","","11","","","","101.50","","","","-5","","NA"
"-76.60","44.22","KINGSTON CLIMATE","6104142","2020-01-24 07:00","2020","01","24","07:00","-1.0","","","M","","M","0.0","","3","","11","","","","101.50","","","","-5","","NA"
"-76.60","44.22","KINGSTON CLIMATE","6104142","2020-01-24 08:00","2020","01","24","08:00","-1.3","","","M","","M","0.0","","5","","16","","","","101.54","","","","-6","","NA"
"-76.60","44.22","KINGSTON CLIMATE","6104142","2020-01-24 09:00","2020","01","24","09:00","-1.4","","","M","","M","0.0","","5","","17","","","","101.53","","","","-7","","NA"
"-76.60","44.22","KINGSTON CLIMATE","6104142","2020-01-24 10:00","2020","01","24","10:00","-0.6","","","M","","M","0.0","","5","","20","","","","101.53","","","","-6","","NA"
"-76.60","44.22","KINGSTON CLIMATE","6104142","2020-01-24 11:00","2020","01","24","11:00","0.7","","","M","","M","0.0","","5","","15","","","","101.56","","","","","","NA"
"-76.60","44.22","KINGSTON CLIMATE","6104142","2020-01-24 12:00","2020","01","24","12:00","2.2","","","M","","M","0.0","","5","","16","","","","101.43","","","","","","NA"
"-76.60","44.22","KINGSTON CLIMATE","6104142","2020-01-24 13:00","2020","01","24","13:00","3.1","","","M","","M","0.0","","6","","15","","","","101.30","","","","","","NA"
"-76.60","44.22","KINGSTON CLIMATE","6104142","2020-01-24 14:00","2020","01","24","14:00","3.9","","","M","","M","0.0","","6","","19","","","","101.21","","","","","","NA"
"-76.60","44.22","KINGSTON CLIMATE","6104142","2020-01-24 15:00","2020","01","24","15:00","4.0","","","M","","M","0.0","","6","","15","","","","101.20","","","","","","NA"
"-76.60","44.22","KINGSTON CLIMATE","6104142","2020-01-24 16:00","2020","01","24","16:00","3.8","","","M","","M","0.0","","5","","17","","","","101.19","","","","","","NA"
"-76.60","44.22","KINGSTON CLIMATE","6104142","2020-01-24 17:00","2020","01","24","17:00","3.1","","","M","","M","0.0","","4","","19","","","","101.18","","","","","","NA"
"-76.60","44.22","KINGSTON CLIMATE","6104142","2020-01-24 18:00","2020","01","24","18:00","2.0","","","M","","M","0.0","","5","","16","","","","101.20","","","","","","NA"
"-76.60","44.22","KINGSTON CLIMATE","6104142","2020-01-24 19:00","2020","01","24","19:00","1.4","","","M","","M","0.0","","5","","24","","","","101.16","","","","","","NA"
"-76.60","44.22","KINGSTON CLIMATE","6104142","2020-01-24 20:00","2020","01","24","20:00","0.8","","","M","","M","0.0","","4","","19","","","","101.13","","","","","","NA"
"-76.60","44.22","KINGSTON CLIMATE","6104142","2020-01-24 21:00","2020","01","24","21:00","0.1","","","M","","M","0.0","","4","","23","","","","101.07","","","","","","NA"
"-76.60","44.22","KINGSTON CLIMATE","6104142","2020-01-24 22:00","2020","01","24","22:00","0.1","","","M","","M","0.0","","4","","15","","","","101.02","","","","","","NA"
"-76.60","44.22","KINGSTON CLIMATE","6104142","2020-01-24 23:00","2020","01","24","23:00","0.3","","","M","","M","0.0","","4","","16","","","","100.98","","","","","","NA"
"-76.60","44.22","KINGSTON CLIMATE","6104142","2020-01-25 00:00","2020","01","25","00:00","0.5","","","M","","M","0.0","","5","","17","","","","100.92","","","","","","NA"
"-76.60","44.22","KINGSTON CLIMATE","6104142","2020-01-25 01:00","2020","01","25","01:00","0.7","","","M","","M","0.0","","4","","12","","","","100.85","","","","","","NA"
"-76.60","44.22","KINGSTON CLIMATE","6104142","2020-01-25 02:00","2020","01","25","02:00","1.1","","","M","","M","0.0","","5","","16","","","","100.83","","","","","","NA"
"-76.60","44.22","KINGSTON CLIMATE","6104142","2020-01-25 03:00","2020","01","25","03:00","1.4","","","M","","M","0.0","","3","","7","","","","100.86","","","","","","NA"
"-76.60","44.22","KINGSTON CLIMATE","6104142","2020-01-25 04:00","2020","01","25","04:00","1.5","","","M","","M","0.0","","4","","9","","","","100.81","","","","","","NA"
"-76.60","44.22","KINGSTON CLIMATE","6104142","2020-01-25 05:00","2020","01","25","05:00","0.9","","","M","","M","0.7","","2","","10","","","","100.75","","","","","","NA"
"-76.60","44.22","KINGSTON CLIMATE","6104142","2020-01-25 06:00","2020","01","25","06:00","1.0","","","M","","M","0.1","","4","","11","","","","100.69","","","","","","NA"
"-76.60","44.22","KINGSTON CLIMATE","6104142","2020-01-25 07:00","2020","01","25","07:00","0.8","","","M","","M","0.0","","4","","16","","","","100.54","","","","","","NA"
"-76.60","44.22","KINGSTON CLIMATE","6104142","2020-01-25 08:00","2020","01","25","08:00","1.0","","","M","","M","0.0","","24","","3","","","","100.62","","","","","","NA"
"-76.60","44.22","KINGSTON CLIMATE","6104142","2020-01-25 09:00","2020","01","25","09:00","0.5","","","M","","M","0.5","","11","","5","","","","100.64","","","","","","NA"
"-76.60","44.22","KINGSTON CLIMATE","6104142","2020-01-25 10:00","2020","01","25","10:00","0.7","","","M","","M","2.2","","9","","15","","","","100.51","","","","","","NA"
"-76.60","44.22","KINGSTON CLIMATE","6104142","2020-01-25 11:00","2020","01","25","11:00","0.8","","","M","","M","3.3","","5","","12","","","","100.42","","","","","","NA"
"-76.60","44.22","KINGSTON CLIMATE","6104142","2020-01-25 12:00","2020","01","25","12:00","0.7","","","M","","M","2.8","","1","","13","","","","100.29","","","","","","NA"
"-76.60","44.22","KINGSTON CLIMATE","6104142","2020-01-25 13:00","2020","01","25","13:00","0.2","","","M","","M","4.4","","3","","8","","","","100.19","","","","","","NA"
"-76.60","44.22","KINGSTON CLIMATE","6104142","2020-01-25 14:00","2020","01","25","14:00","0.3","","","M","","M","2.4","","3","","8","","","","100.09","","","","","","NA"
"-76.60","44.22","KINGSTON CLIMATE","6104142","2020-01-25 15:00","2020","01","25","15:00","0.2","","","M","","M","4.1","","6","","9","","","","100.02","","","","","","NA"
"-76.60","44.22","KINGSTON CLIMATE","6104142","2020-01-25 16:00","2020","01","25","16:00","0.3","","","M","","M","0.7","","6","","16","","","","99.94","","","","","","NA"
"-76.60","44.22","KINGSTON CLIMATE","6104142","2020-01-25 17:00","2020","01","25","17:00","0.6","","","M","","M","1.5","","7","","17","","","","99.91","","","","","","NA"
"-76.60","44.22","KINGSTON CLIMATE","6104142","2020-01-25 18:00","2020","01","25","18:00","0.5","","","M","","M","0.5","","7","","12","","","","99.89","","","","","","NA"
"-76.60","44.22","KINGSTON CLIMATE","6104142","2020-01-25 19:00","2020","01","25","19:00","0.6","","","M","","M","0.5","","8","","7","","","","99.83","","","","","","NA"
"-76.60","44.22","KINGSTON CLIMATE","6104142","2020-01-25 20:00","2020","01","25","20:00","0.4","","","M","","M","0.2","","9","","3","","","","99.78","","","","","","NA"
"-76.60","44.22","KINGSTON CLIMATE","6104142","2020-01-25 21:00","2020","01","25","21:00","0.3","","","M","","M","0.0","","8","","3","","","","99.71","","","","","","NA"
"-76.60","44.22","KINGSTON CLIMATE","6104142","2020-01-25 22:00","2020","01","25","22:00","0.5","","","M","","M","0.0","","14","","2","","","","99.63","","","","","","NA"
"-76.60","44.22","KINGSTON CLIMATE","6104142","2020-01-25 23:00","2020","01","25","23:00","0.7","","","M","","M","0.1","","15","","7","","","","99.58","","","","","","NA"
"-76.60","44.22","KINGSTON CLIMATE","6104142","2020-01-26 00:00","2020","01","26","00:00","1.2","","","M","","M","0.2","","23","","15","","","","99.54","","","","","","NA"
"-76.60","44.22","KINGSTON CLIMATE","6104142","2020-01-26 01:00","2020","01","26","01:00","1.0","","","M","","M","0.2","","24","","17","","","","99.52","","","","","","NA"
"-76.60","44.22","KINGSTON CLIMATE","6104142","2020-01-26 02:00","2020","01","26","02:00","0.9","","","M","","M","0.3","","23","","12","","","","99.53","","","","","","NA"
"-76.60","44.22","KINGSTON CLIMATE","6104142","2020-01-26 03:00","2020","01","26","03:00","1.4","","","M","","M","0.1","","23","","16","","","","99.50","","","","","","NA"
"-76.60","44.22","KINGSTON CLIMATE","6104142","2020-01-26 04:00","2020","01","26","04:00","1.4","","","M","","M","0.0","","23","","18","","","","99.48","","","","","","NA"
"-76.60","44.22","KINGSTON CLIMATE","6104142","2020-01-26 05:00","2020","01","26","05:00","1.1","","","M","","M","0.0","","24","","14","","","","99.46","","","","","","NA"
"-76.60","44.22","KINGSTON CLIMATE","6104142","2020-01-26 06:00","2020","01","26","06:00","1.2","","","M","","M","0.4","","23","","21","","","","99.44","","","","","","NA"
"-76.60","44.22","KINGSTON CLIMATE","6104142","2020-01-26 07:00","2020","01","26","07:00","1.1","","","M","","M","0.0","","24","","18","","","","99.44","","","","","","NA"
"-76.60","44.22","KINGSTON CLIMATE","6104142","2020-01-26 08:00","2020","01","26","08:00","1.0","","","M","","M","0.0","","23","","15","","","","99.44","","","","","","NA"
"-76.60","44.22","KINGSTON CLIMATE","6104142","2020-01-26 09:00","2020","01","26","09:00","1.1","","","M","","M","0.0","","24","","13","","","","99.42","","","","","","NA"
"-76.60","44.22","KINGSTON CLIMATE","6104142","2020-01-26 10:00","2020","01","26","10:00","1.3","","","M","","M","0.0","","23","","14","","","","99.41","","","","","","NA"
"-76.60","44.22","KINGSTON CLIMATE","6104142","2020-01-26 11:00","2020","01","26","11:00","1.7","","","M","","M","0.0","","23","","17","","","","99.38","","","","","","NA"
"-76.60","44.22","KINGSTON CLIMATE","6104142","2020-01-26 12:00","2020","01","26","12:00","1.3","","","M","","M","0.3","","23","","20","","","","99.33","","","","","","NA"
"-76.60","44.22","KINGSTON CLIMATE","6104142","2020-01-26 13:00","2020","01","26","13:00","1.3","","","M","","M","0.5","","23","","23","","","","99.25","","","","","","NA"
"-76.60","44.22","KINGSTON CLIMATE","6104142","2020-01-26 14:00","2020","01","26","14:00","1.3","","","M","","M","0.4","","23","","18","","","","99.19","","","","","","NA"
"-76.60","44.22","KINGSTON CLIMATE","6104142","2020-01-26 15:00","2020","01","26","15:00","2.0","","","M","","M","0.0","","24","","27","","","","99.16","","","","","","NA"
"-76.60","44.22","KINGSTON CLIMATE","6104142","2020-01-26 16:00","2020","01","26","16:00","2.1","","","M","","M","0.0","","25","","25","","","","99.19","","","","","","NA"
"-76.60","44.22","KINGSTON CLIMATE","6104142","2020-01-26 17:00","2020","01","26","17:00","1.9","","","M","","M","0.0","","24","","23","","","","99.23","","","","","","NA"
"-76.60","44.22","KINGSTON CLIMATE","6104142","2020-01-26 18:00","2020","01","26","18:00","1.9","","","M","","M","0.0","","24","","18","","","","99.27","","","","","","NA"
"-76.60","44.22","KINGSTON CLIMATE","6104142","2020-01-26 19:00","2020","01","26","19:00","1.7","","","M","","M","0.0","","24","","23","","","","99.28","","","","","","NA"
"-76.60","44.22","KINGSTON CLIMATE","6104142","2020-01-26 20:00","2020","01","26","20:00","1.3","","","M","","M","0.1","","23","","20","","","","99.28","","","","","","NA"
"-76.60","44.22","KINGSTON CLIMATE","6104142","2020-01-26 21:00","2020","01","26","21:00","1.3","","","M","","M","0.3","","23","","22","","","","99.25","","","","","","NA"
"-76.60","44.22","KINGSTON CLIMATE","6104142","2020-01-26 22:00","2020","01","26","22:00","0.9","","","M","","M","0.2","","24","","19","","","","99.21","","","","","","NA"
"-76.60","44.22","KINGSTON CLIMATE","6104142","2020-01-26 23:00","2020","01","26","23:00","1.1","","","M","","M","0.0","","23","","20","","","","99.15","","","","","","NA"
"-76.60","44.22","KINGSTON CLIMATE","6104142","2020-01-27 00:00","2020","01","27","00:00","1.1","","","M","","M","0.0","","24","","15","","","","99.13","","","","","","NA"
"-76.60","44.22","KINGSTON CLIMATE","6104142","2020-01-27 01:00","2020","01","27","01:00","0.9","","","M","","M","0.0","","24","","12","","","","99.10","","","","","","NA"
"-76.60","44.22","KINGSTON CLIMATE","6104142","2020-01-27 02:00","2020","01","27","02:00","0.9","","","M","","M","0.0","","25","","11","","","","99.09","","","","","","NA"
"-76.60","44.22","KINGSTON CLIMATE","6104142","2020-01-27 03:00","2020","01","27","03:00","0.9","","","M","","M","0.0","","24","","9","","","","99.12","","","","","","NA"
"-76.60","44.22","KINGSTON CLIMATE","6104142","2020-01-27 04:00","2020","01","27","04:00","0.7","","","M","","M","0.0","","24","","7","","","","99.09","","","","","","NA"
"-76.60","44.22","KINGSTON CLIMATE","6104142","2020-01-27 05:00","2020","01","27","05:00","0.6","","","M","","M","0.0","","27","","13","","","","99.12","","","","","","NA"
"-76.60","44.22","KINGSTON CLIMATE","6104142","2020-01-27 06:00","2020","01","27","06:00","0.4","","","M","","M","0.0","","28","","8","","","","99.15","","","","","","NA"
"-76.60","44.22","KINGSTON CLIMATE","6104142","2020-01-27 07:00","2020","01","27","07:00","0.3","","","M","","M","0.0","","27","","8","","","","99.19","","","","","","NA"
"-76.60","44.22","KINGSTON CLIMATE","6104142","2020-01-27 08:00","2020","01","27","08:00","0.4","","","M","","M","0.0","","29","","8","","","","99.24","","","","","","NA"
"-76.60","44.22","KINGSTON CLIMATE","6104142","2020-01-27 09:00","2020","01","27","09:00","0.5","","","M","","M","0.0","","29","","7","","","","99.30","","","","","","NA"
"-76.60","44.22","KINGSTON CLIMATE","6104142","2020-01-27 10:00","2020","01","27","10:00","1.3","","","M","","M","0.0","","30","","11","","","","99.35","","","","","","NA"
"-76.60","44.22","KINGSTON CLIMATE","6104142","2020-01-27 11:00","2020","01","27","11:00","1.7","","","M","","M","0.0","","31","","14","","","","99.39","","","","","","NA"
"-76.60","44.22","KINGSTON CLIMATE","6104142","2020-01-27 12:00","2020","01","27","12:00","2.0","","","M","","M","0.0","","30","","15","","","","99.37","","","","","","NA"
"-76.60","44.22","KINGSTON CLIMATE","6104142","2020-01-27 13:00","2020","01","27","13:00","1.7","","","M","","M","0.0","","32","","14","","","","99.35","","","","","","NA"
"-76.60","44.22","KINGSTON CLIMATE","6104142","2020-01-27 14:00","2020","01","27","14:00","1.9","","","M","","M","0.0","","31","","15","","","","99.35","","","","","","NA"
"-76.60","44.22","KINGSTON CLIMATE","6104142","2020-01-27 15:00","2020","01","27","15:00","1.3","","","M","","M","0.0","","30","","14","","","","99.41","","","","","","NA"
"-76.60","44.22","KINGSTON CLIMATE","6104142","2020-01-27 16:00","2020","01","27","16:00","1.4","","","M","","M","0.0","","31","","12","","","","99.47","","","","","","NA"
"-76.60","44.22","KINGSTON CLIMATE","6104142","2020-01-27 17:00","2020","01","27","17:00","0.9","","","M","","M","0.0","","29","","9","","","","99.52","","","","","","NA"
"-76.60","44.22","KINGSTON CLIMATE","6104142","2020-01-27 18:00","2020","01","27","18:00","0.9","","","M","","M","0.0","","29","","8","","","","99.59","","","","","","NA"
"-76.60","44.22","KINGSTON CLIMATE","6104142","2020-01-27 19:00","2020","01","27","19:00","0.8","","","M","","M","0.0","","28","","8","","","","99.65","","","","","","NA"
"-76.60","44.22","KINGSTON CLIMATE","6104142","2020-01-27 20:00","2020","01","27","20:00","0.6","","","M","","M","0.0","","31","","14","","","","99.68","","","","","","NA"
"-76.60","44.22","KINGSTON CLIMATE","6104142","2020-01-27 21:00","2020","01","27","21:00","0.1","","","M","","M","0.0","","32","","10","","","","99.72","","","","","","NA"
"-76.60","44.22","KINGSTON CLIMATE","6104142","2020-01-27 22:00","2020","01","27","22:00","-0.2","","","M","","M","0.0","","32","","10","","","","99.73","","","","-4","","NA"
"-76.60","44.22","KINGSTON CLIMATE","6104142","2020-01-27 23:00","2020","01","27","23:00","-0.7","","","M","","M","0.1","","33","","18","","","","99.76","","","","-6","","NA"
"-76.60","44.22","KINGSTON CLIMATE","6104142","2020-01-28 00:00","2020","01","28","00:00","-1.0","","","M","","M","0.0","","33","","17","","","","99.80","","","","-6","","NA"
"-76.60","44.22","KINGSTON CLIMATE","6104142","2020-01-28 01:00","2020","01","28","01:00","-1.1","","","M","","M","0.0","","31","","14","","","","99.79","","","","-6","","NA"
"-76.60","44.22","KINGSTON CLIMATE","6104142","2020-01-28 02:00","2020","01","28","02:00","-1.4","","","M","","M","0.0","","31","","15","","","","99.84","","","","-6","","NA"
"-76.60","44.22","KINGSTON CLIMATE","6104142","2020-01-28 03:00","2020","01","28","03:00","-1.9","","","M","","M","0.0","","30","","17","","","","99.87","","","","-7","","NA"
"-76.60","44.22","KINGSTON CLIMATE","6104142","2020-01-28 04:00","2020","01","28","04:00","-2.2","","","M","","M","0.0","","31","","15","","","","99.87","","","","-7","","NA"
"-76.60","44.22","KINGSTON CLIMATE","6104142","2020-01-28 05:00","2020","01","28","05:00","-2.4","","","M","","M","0.0","","32","","14","","","","99.92","","","","-7","","NA"
"-76.60","44.22","KINGSTON CLIMATE","6104142","2020-01-28 06:00","2020","01","28","06:00","-2.6","","","M","","M","0.0","","31","","13","","","","99.96","","","","-7","","NA"
"-76.60","44.22","KINGSTON CLIMATE","6104142","2020-01-28 07:00","2020","01","28","07:00","-2.8","","","M","","M","0.0","","31","","13","","","","100.03","","","","-7","","NA"
"-76.60","44.22","KINGSTON CLIMATE","6104142","2020-01-28 08:00","2020","01","28","08:00","-3.2","","","M","","M","0.0","","30","","13","","","","100.10","","","","-8","","NA"
"-76.60","44.22","KINGSTON CLIMATE","6104142","2020-01-28 09:00","2020","01","28","09:00","-3.1","","","M","","M","0.0","","32","","13","","","","100.14","","","","-8","","NA"
"-76.60","44.22","KINGSTON CLIMATE","6104142","2020-01-28 10:00","2020","01","28","10:00","-3.0","","","M","","M","0.0","","32","","14","","","","100.17","","","","-8","","NA"
"-76.60","44.22","KINGSTON CLIMATE","6104142","2020-01-28 11:00","2020","01","28","11:00","-3.0","","","M","","M","0.0","","34","","17","","","","100.19","","","","-9","","NA"
"-76.60","44.22","KINGSTON CLIMATE","6104142","2020-01-28 12:00","2020","01","28","12:00"
"-76.60","44.22","KINGSTON CLIMATE","6104142","2020-01-28 13:00","2020","01","28","13:00"
"-76.60","44.22","KINGSTON CLIMATE","6104142","2020-01-28 14:00","2020","01","28","14:00"
"-76.60","44.22","KINGSTON CLIMATE","6104142","2020-01-28 15:00","2020","01","28","15:00","-2.2","","-6.9","","70","","0.0","","33","","10","","","","100.18","","","","-6","","NA"
"-76.60","44.22","KINGSTON CLIMATE","6104142","2020-01-28 16:00","2020","01","28","16:00","-2.5","","-6.4","","75","","0.0","","33","","16","","","","100.24","","","","-8","","NA"
"-76.60","44.22","KINGSTON CLIMATE","6104142","2020-01-28 17:00","2020","01","28","17:00","-2.9","","-6.6","","76","","0.0","","32","","14","","","","100.32","","","","-8","","NA"
"-76.60","44.22","KINGSTON CLIMATE","6104142","2020-01-28 18:00","2020","01","28","18:00","-3.4","","-6.7","","78","","0.0","","34","","9","","","","100.39","","","","-7","","NA"
"-76.60","44.22","KINGSTON CLIMATE","6104142","2020-01-28 19:00","2020","01","28","19:00","-3.8","","-7.1","","77","","0.0","","1","","14","","","","100.45","","","","-9","","NA"
"-76.60","44.22","KINGSTON CLIMATE","6104142","2020-01-28 20:00","2020","01","28","20:00","-4.3","","-7.7","","78","","0.0","","1","","10","","","","100.51","","","","-8","","NA"
"-76.60","44.22","KINGSTON CLIMATE","6104142","2020-01-28 21:00","2020","01","28","21:00","-5.2","","-8.4","","79","","0.0","","35","","14","","","","100.58","","","","-11","","NA"
"-76.60","44.22","KINGSTON CLIMATE","6104142","2020-01-28 22:00","2020","01","28","22:00","-5.7","","-8.7","","80","","0.0","","36","","15","","","","100.62","","","","-11","","NA"
"-76.60","44.22","KINGSTON CLIMATE","6104142","2020-01-28 23:00","2020","01","28","23:00","-5.9","","-8.7","","80","","0.0","","34","","12","","","","100.67","","","","-11","","NA"
"-76.60","44.22","KINGSTON CLIMATE","6104142","2020-01-29 00:00","2020","01","29","00:00","-6.0","","-9.2","","78","","0.0","","35","","13","","","","100.72","","","","-11","","NA"
"-76.60","44.22","KINGSTON CLIMATE","6104142","2020-01-29 01:00","2020","01","29","01:00","-6.3","","-9.6","","78","","0.0","","33","","12","","","","100.73","","","","-11","","NA"
"-76.60","44.22","KINGSTON CLIMATE","6104142","2020-01-29 02:00","2020","01","29","02:00","-6.6","","-9.4","","80","","0.0","","34","","13","","","","100.80","","","","-12","","NA"
"-76.60","44.22","KINGSTON CLIMATE","6104142","2020-01-29 03:00","2020","01","29","03:00","-6.8","","-9.8","","79","","0.0","","32","","11","","","","100.84","","","","-12","","NA"
"-76.60","44.22","KINGSTON CLIMATE","6104142","2020-01-29 04:00","2020","01","29","04:00","-6.7","","-9.8","","79","","0.0","","1","","15","","","","100.86","","","","-13","","NA"
"-76.60","44.22","KINGSTON CLIMATE","6104142","2020-01-29 05:00","2020","01","29","05:00","-7.0","","-9.7","","81","","0.0","","36","","10","","","","100.89","","","","-12","","NA"
"-76.60","44.22","KINGSTON CLIMATE","6104142","2020-01-29 06:00","2020","01","29","06:00","-7.3","","-9.6","","84","","0.0","","34","","14","","","","100.96","","","","-13","","NA"
"-76.60","44.22","KINGSTON CLIMATE","6104142","2020-01-29 07:00","2020","01","29","07:00","-7.6","","-9.7","","85","","0.0","","34","","13","","","","101.07","","","","-13","","NA"
"-76.60","44.22","KINGSTON CLIMATE","6104142","2020-01-29 08:00","2020","01","29","08:00","-7.9","","-10.3","","83","","0.0","","35","","13","","","","101.16","","","","-14","","NA"
"-76.60","44.22","KINGSTON CLIMATE","6104142","2020-01-29 09:00","2020","01","29","09:00","-8.6","","-11.4","","80","","0.0","","33","","16","","","","101.25","","","","-15","","NA"
"-76.60","44.22","KINGSTON CLIMATE","6104142","2020-01-29 10:00","2020","01","29","10:00","-8.6","","-13.3","","69","","0.0","","34","","11","","","","101.28","","","","-14","","NA"
"-76.60","44.22","KINGSTON CLIMATE","6104142","2020-01-29 11:00","2020","01","29","11:00","-7.9","","-13.6","","64","","0.0","","33","","10","","","","101.30","","","","-13","","NA"
"-76.60","44.22","KINGSTON CLIMATE","6104142","2020-01-29 12:00","2020","01","29","12:00","-6.9","","-13.8","","58","","0.0","","34","","8","","","","101.30","","","","-11","","NA"
"-76.60","44.22","KINGSTON CLIMATE","6104142","2020-01-29 13:00","2020","01","29","13:00","-5.3","","-12.0","","59","","0.0","","19","","5","","","","101.27","","","","-8","","NA"
"-76.60","44.22","KINGSTON CLIMATE","6104142","2020-01-29 14:00","2020","01","29","14:00","-4.9","","-11.2","","61","","0.0","","19","","6","","","","101.23","","","","-8","","NA"
"-76.60","44.22","KINGSTON CLIMATE","6104142","2020-01-29 15:00","2020","01","29","15:00","-3.8","","-13.2","","48","","0.0","","0","","1","","","","101.24","","","","-4","","NA"
"-76.60","44.22","KINGSTON CLIMATE","6104142","2020-01-29 16:00","2020","01","29","16:00","-4.9","","-11.3","","61","","0.0","","16","","7","","","","101.28","","","","-8","","NA"
"-76.60","44.22","KINGSTON CLIMATE","6104142","2020-01-29 17:00","2020","01","29","17:00","-5.3","","-10.7","","66","","0.0","","21","","3","","","","101.30","","","","-7","","NA"
"-76.60","44.22","KINGSTON CLIMATE","6104142","2020-01-29 18:00","2020","01","29","18:00","-6.3","","-10.8","","70","","0.0","","8","","1","","","","101.34","","","","-7","","NA"
"-76.60","44.22","KINGSTON CLIMATE","6104142","2020-01-29 19:00","2020","01","29","19:00","-7.7","","-11.0","","78","","0.0","","7","","8","","","","101.40","","","","-12","","NA"
"-76.60","44.22","KINGSTON CLIMATE","6104142","2020-01-29 20:00","2020","01","29","20:00","-7.6","","-14.3","","59","","0.0","","3","","11","","","","101.42","","","","-13","","NA"
"-76.60","44.22","KINGSTON CLIMATE","6104142","2020-01-29 21:00","2020","01","29","21:00","-9.0","","-14.9","","62","","0.0","","4","","14","","","","101.43","","","","-15","","NA"
"-76.60","44.22","KINGSTON CLIMATE","6104142","2020-01-29 22:00","2020","01","29","22:00","-9.6","","-14.7","","66","","0.0","","4","","12","","","","101.46","","","","-15","","NA"
"-76.60","44.22","KINGSTON CLIMATE","6104142","2020-01-29 23:00","2020","01","29","23:00","-10.6","","-14.7","","72","","0.0","","1","","6","","","","101.49","","","","-14","","NA"
"-76.60","44.22","KINGSTON CLIMATE","6104142","2020-01-30 00:00","2020","01","30","00:00","-11.6","","-14.3","","80","","0.0","","35","","9","","","","101.55","","","","-17","","NA"
"-76.60","44.22","KINGSTON CLIMATE","6104142","2020-01-30 01:00","2020","01","30","01:00","-12.8","","-15.6","","79","","0.0","","1","","8","","","","101.55","","","","-18","","NA"
"-76.60","44.22","KINGSTON CLIMATE","6104142","2020-01-30 02:00","2020","01","30","02:00","-14.9","","-17.0","","84","","0.0","","34","","10","","","","101.58","","","","-21","","NA"
"-76.60","44.22","KINGSTON CLIMATE","6104142","2020-01-30 03:00","2020","01","30","03:00","-14.3","","-15.7","","89","","0.0","","34","","10","","","","101.59","","","","-20","","NA"
"-76.60","44.22","KINGSTON CLIMATE","6104142","2020-01-30 04:00","2020","01","30","04:00","-14.9","","-16.4","","88","","0.0","","36","","9","","","","101.53","","","","-21","","NA"
"-76.60","44.22","KINGSTON CLIMATE","6104142","2020-01-30 05:00","2020","01","30","05:00","-13.3","","-15.2","","85","","0.0","","2","","9","","","","101.54","","","","-19","","NA"
"-76.60","44.22","KINGSTON CLIMATE","6104142","2020-01-30 06:00","2020","01","30","06:00","-13.2","","-15.1","","86","","0.0","","4","","12","","","","101.54","","","","-20","","NA"
"-76.60","44.22","KINGSTON CLIMATE","6104142","2020-01-30 07:00","2020","01","30","07:00","-13.3","","-15.0","","87","","0.0","","3","","10","","","","101.59","","","","-19","","NA"
"-76.60","44.22","KINGSTON CLIMATE","6104142","2020-01-30 08:00","2020","01","30","08:00","-12.8","","-14.8","","85","","0.0","","4","","13","","","","101.59","","","","-20","","NA"
"-76.60","44.22","KINGSTON CLIMATE","6104142","2020-01-30 09:00","2020","01","30","09:00","-12.1","","-14.0","","86","","0.0","","5","","8","","","","101.63","","","","-17","","NA"
"-76.60","44.22","KINGSTON CLIMATE","6104142","2020-01-30 10:00","2020","01","30","10:00","-10.8","","-13.8","","79","","0.0","","2","","5","","","","101.64","","","","-14","","NA"
"-76.60","44.22","KINGSTON CLIMATE","6104142","2020-01-30 11:00","2020","01","30","11:00","-8.6","","-13.0","","71","","0.0","","6","","8","","","","101.64","","","","-13","","NA"
"-76.60","44.22","KINGSTON CLIMATE","6104142","2020-01-30 12:00","2020","01","30","12:00","-7.1","","-13.6","","59","","0.0","","7","","6","","","","101.61","","","","-10","","NA"
"-76.60","44.22","KINGSTON CLIMATE","6104142","2020-01-30 13:00","2020","01","30","13:00","-6.3","","-13.2","","58","","0.0","","7","","11","","","","101.54","","","","-11","","NA"
"-76.60","44.22","KINGSTON CLIMATE","6104142","2020-01-30 14:00","2020","01","30","14:00","-5.4","","-12.6","","57","","0.0","","5","","9","","","","101.47","","","","-9","","NA"
"-76.60","44.22","KINGSTON CLIMATE","6104142","2020-01-30 15:00","2020","01","30","15:00","-5.0","","-11.0","","63","","0.0","","13","","4","","","","101.47","","","","-7","","NA"
"-76.60","44.22","KINGSTON CLIMATE","6104142","2020-01-30 16:00","2020","01","30","16:00","-4.9","","-11.1","","62","","0.0","","7","","4","","","","101.43","","","","-7","","NA"
"-76.60","44.22","KINGSTON CLIMATE","6104142","2020-01-30 17:00","2020","01","30","17:00","-5.1","","-11.7","","60","","0.0","","5","","3","","","","101.41","","","","-6","","NA"
"-76.60","44.22","KINGSTON CLIMATE","6104142","2020-01-30 18:00","2020","01","30","18:00","-5.4","","-11.4","","63","","0.0","","33","","1","","","","101.41","","","","-6","","NA"
"-76.60","44.22","KINGSTON CLIMATE","6104142","2020-01-30 19:00","2020","01","30","19:00","-6.0","","-11.3","","66","","0.0","","5","","6","","","","101.41","","","","-9","","NA"
"-76.60","44.22","KINGSTON CLIMATE","6104142","2020-01-30 20:00","2020","01","30","20:00","-6.6","","-11.1","","70","","0.0","","4","","7","","","","101.39","","","","-10","","NA"
"-76.60","44.22","KINGSTON CLIMATE","6104142","2020-01-30 21:00","2020","01","30","21:00","-8.7","","-12.0","","77","","0.0","","1","","7","","","","101.44","","","","-13","","NA"
"-76.60","44.22","KINGSTON CLIMATE","6104142","2020-01-30 22:00","2020","01","30","22:00","-7.5","","-12.0","","70","","0.0","","2","","8","","","","101.43","","","","-12","","NA"
"-76.60","44.22","KINGSTON CLIMATE","6104142","2020-01-30 23:00","2020","01","30","23:00","-8.1","","-11.9","","74","","0.0","","3","","9","","","","101.41","","","","-13","","NA"
"-76.60","44.22","KINGSTON CLIMATE","6104142","2020-01-31 00:00","2020","01","31","00:00","-9.1","","-12.3","","78","","0.0","","3","","13","","","","101.38","","","","-15","","NA"
"-76.60","44.22","KINGSTON CLIMATE","6104142","2020-01-31 01:00","2020","01","31","01:00","-9.4","","-12.3","","79","","0.0","","2","","10","","","","101.37","","","","-15","","NA"
"-76.60","44.22","KINGSTON CLIMATE","6104142","2020-01-31 02:00","2020","01","31","02:00","-10.1","","-13.0","","79","","0.0","","3","","8","","","","101.38","","","","-15","","NA"
"-76.60","44.22","KINGSTON CLIMATE","6104142","2020-01-31 03:00","2020","01","31","03:00","-10.2","","-13.0","","80","","0.0","","2","","8","","","","101.36","","","","-15","","NA"
"-76.60","44.22","KINGSTON CLIMATE","6104142","2020-01-31 04:00","2020","01","31","04:00","-10.2","","-12.7","","82","","0.0","","2","","9","","","","101.35","","","","-15","","NA"
"-76.60","44.22","KINGSTON CLIMATE","6104142","2020-01-31 05:00","2020","01","31","05:00","-9.6","","-12.2","","82","","0.0","","2","","10","","","","101.36","","","","-15","","NA"
"-76.60","44.22","KINGSTON CLIMATE","6104142","2020-01-31 06:00","2020","01","31","06:00","-9.2","","-11.8","","82","","0.0","","2","","9","","","","101.34","","","","-14","","NA"
"-76.60","44.22","KINGSTON CLIMATE","6104142","2020-01-31 07:00","2020","01","31","07:00","-8.7","","-11.3","","82","","0.0","","2","","9","","","","101.39","","","","-13","","NA"
"-76.60","44.22","KINGSTON CLIMATE","6104142","2020-01-31 08:00","2020","01","31","08:00","-8.4","","-11.1","","80","","0.0","","1","","9","","","","101.41","","","","-13","","NA"
"-76.60","44.22","KINGSTON CLIMATE","6104142","2020-01-31 09:00","2020","01","31","09:00","-7.5","","-10.5","","79","","0.0","","2","","8","","","","101.41","","","","-12","","NA"
"-76.60","44.22","KINGSTON CLIMATE","6104142","2020-01-31 10:00","2020","01","31","10:00","-6.6","","-10.5","","74","","0.0","","3","","11","","","","101.40","","","","-12","","NA"
"-76.60","44.22","KINGSTON CLIMATE","6104142","2020-01-31 11:00","2020","01","31","11:00","-5.6","","-10.3","","70","","0.0","","3","","10","","","","101.41","","","","-10","","NA"
"-76.60","44.22","KINGSTON CLIMATE","6104142","2020-01-31 12:00","2020","01","31","12:00","-4.5","","-9.6","","68","","0.0","","36","","6","","","","101.33","","","","-7","","NA"
"-76.60","44.22","KINGSTON CLIMATE","6104142","2020-01-31 13:00","2020","01","31","13:00","-3.2","","-9.2","","63","","0.0","","4","","5","","","","101.22","","","","-5","","NA"
"-76.60","44.22","KINGSTON CLIMATE","6104142","2020-01-31 14:00","2020","01","31","14:00","-2.8","","-8.5","","65","","0.0","","6","","5","","","","101.18","","","","-5","","NA"
"-76.60","44.22","KINGSTON CLIMATE","6104142","2020-01-31 15:00","2020","01","31","15:00","-2.5","","-8.0","","66","","0.0","","10","","4","","","","101.20","","","","-4","","NA"
"-76.60","44.22","KINGSTON CLIMATE","6104142","2020-01-31 16:00","2020","01","31","16:00","-2.3","","-7.6","","67","","0.0","","4","","5","","","","101.13","","","","-4","","NA"
"-76.60","44.22","KINGSTON CLIMATE","6104142","2020-01-31 17:00","2020","01","31","17:00","-2.5","","-7.5","","68","","0.0","","3","","7","","","","101.10","","","","-5","","NA"
"-76.60","44.22","KINGSTON CLIMATE","6104142","2020-01-31 18:00","2020","01","31","18:00","-3.0","","-8.2","","68","","0.0","","5","","5","","","","101.12","","","","-5","","NA"
"-76.60","44.22","KINGSTON CLIMATE","6104142","2020-01-31 19:00","2020","01","31","19:00","-3.4","","-7.8","","72","","0.0","","4","","3","","","","101.15","","","","-5","","NA"
"-76.60","44.22","KINGSTON CLIMATE","6104142","2020-01-31 20:00","2020","01","31","20:00","-3.9","","-6.6","","81","","0.0","","2","","3","","","","101.12","","","","-5","","NA"
"-76.60","44.22","KINGSTON CLIMATE","6104142","2020-01-31 21:00","2020","01","31","21:00","-4.2","","-5.7","","89","","0.0","","35","","7","","","","101.09","","","","-7","","NA"
"-76.60","44.22","KINGSTON CLIMATE","6104142","2020-01-31 22:00","2020","01","31","22:00","-4.3","","-6.2","","87","","0.0","","4","","3","","","","101.04","","","","-6","","NA"
"-76.60","44.22","KINGSTON CLIMATE","6104142","2020-01-31 23:00","2020","01","31","23:00","-4.6","","-6.2","","89","","0.0","","4","","5","","","","100.96","","","","-7","","NA"
