"Longitude (x)","Latitude (y)","Station Name","Climate ID","Date/Time (LST)","Year","Month","Day","Time (LST)","Temp (°C)","Temp Flag","Dew Point Temp (°C)","Dew Point Temp Flag","Rel Hum (%)","Rel Hum Flag","Precip. Amount (mm)","Precip. Amount Flag","Wind Dir (10s deg)","Wind Dir Flag","Wind Spd (km/h)","Wind Spd Flag","Visibility (km)","Visibility Flag","Stn Press (kPa)","Stn Press Flag","Hmdx","Hmdx Flag","Wind Chill","Wind Chill Flag","Weather"
"-76.60","44.22","KINGSTON CLIMATE","6104142","2020-06-01 00:00","2020","06","01","00:00","6.6","","3.3","","80","","0.0","","30","","10","","","","101.13","","","","","","NA"
"-76.60","44.22","KINGSTON CLIMATE","6104142","2020-06-01 01:00","2020","06","01","01:00","5.9","","3.4","","84","","0.0","","31","","9","","","","101.11","","","","","","NA"
"-76.60","44.22","KINGSTON CLIMATE","6104142","2020-06-01 02:00","2020","06","01","02:00","4.5","","4.4","","100","","0.0","","33","","3","","","","101.10","","","","","","NA"
"-76.60","44.22","KINGSTON CLIMATE","6104142","2020-06-01 03:00","2020","06","01","03:00","4.6","","4.6","","100","","0.0","","30","","5","","","","101.09","","","","","","NA"
"-76.60","44.22","KINGSTON CLIMATE","6104142","2020-06-01 04:00","2020","06","01","04:00","3.7","","3.7","","100","","0.0","","29","","6","","","","101.13","","","","","","NA"
"-76.60","44.22","KINGSTON CLIMATE","6104142","2020-06-01 05:00","2020","06","01","05:00","3.3","","3.2","","100","","0.0","","34","","8","","","","101.19","","","","","","NA"
"-76.60","44.22","KINGSTON CLIMATE","6104142","2020-06-01 06:00","2020","06","01","06:00","7.6","","5.7","","88","","0.0","","31","","8","","","","101.21","","","","","","NA"
"-76.60","44.22","KINGSTON CLIMATE","6104142","2020-06-01 07:00","2020","06","01","07:00","11.0","","1.7","","53","","0.0","","30","","7","","","","101.20","","","","","","NA"
"-76.60","44.22","KINGSTON CLIMATE","6104142","2020-06-01 08:00","2020","06","01","08:00","12.3","","4.7","","60","","0.0","","23","","10","","","","101.19","","","","","","NA"
"-76.60","44.22","KINGSTON CLIMATE","6104142","2020-06-01 09:00","2020","06","01","09:00","12.6","","6.1","","65","","0.0","","19","","14","","","","101.15","","","","","","NA"
"-76.60","44.22","KINGSTON CLIMATE","6104142","2020-06-01 10:00","2020","06","01","10:00","12.7","","7.8","","72","","0.0","","19","","19","","","","101.09","","","","","","NA"
"-76.60","44.22","KINGSTON CLIMATE","6104142","2020-06-01 11:00","2020","06","01","11:00","12.8","","10.4","","85","","0.0","","18","","19","","","","101.07","","","","","","NA"
"-76.60","44.22","KINGSTON CLIMATE","6104142","2020-06-01 12:00","2020","06","01","12:00","12.3","","9.5","","83","","0.0","","19","","23","","","","100.97","","","","","","NA"
"-76.60","44.22","KINGSTON CLIMATE","6104142","2020-06-01 13:00","2020","06","01","13:00","12.9","","8.4","","74","","0.0","","18","","25","","","","100.88","","","","","","NA"
"-76.60","44.22","KINGSTON CLIMATE","6104142","2020-06-01 14:00","2020","06","01","14:00","14.4","","9.2","","71","","0.0","","18","","26","","","","100.81","","","","","","NA"
"-76.60","44.22","KINGSTON CLIMATE","6104142","2020-06-01 15:00","2020","06","01","15:00","14.2","","6.9","","62","","0.0","","18","","24","","","","100.73","","","","","","NA"
"-76.60","44.22","KINGSTON CLIMATE","6104142","2020-06-01 16:00","2020","06","01","16:00","14.2","","7.7","","65","","0.0","","19","","24","","","","100.64","","","","","","NA"
"-76.60","44.22","KINGSTON CLIMATE","6104142","2020-06-01 17:00","2020","06","01","17:00","15.8","","8.7","","62","","0.0","","20","","18","","","","100.57","","","","","","NA"
"-76.60","44.22","KINGSTON CLIMATE","6104142","2020-06-01 18:00","2020","06","01","18:00","12.8","","8.1","","73","","0.0","","18","","18","","","","100.55","","","","","","NA"
"-76.60","44.22","KINGSTON CLIMATE","6104142","2020-06-01 19:00","2020","06","01","19:00","12.5","","9.0","","79","","0.0","","18","","14","","","","100.56","","","","","","NA"
"-76.60","44.22","KINGSTON CLIMATE","6104142","2020-06-01 20:00","2020","06","01","20:00","13.9","","8.6","","70","","0.0","","23","","10","","","","100.54","","","","","","NA"
"-76.60","44.22","KINGSTON CLIMATE","6104142","2020-06-01 21:00","2020","06","01","21:00","14.3","","8.5","","68","","0.0","","24","","15","","","","100.56","","","","","","NA"
"-76.60","44.22","KINGSTON CLIMATE","6104142","2020-06-01 22:00","2020","06","01","22:00","13.7","","8.7","","72","","0.0","","24","","14","","","","100.58","","","","","","NA"
"-76.60","44.22","KINGSTON CLIMATE","6104142","2020-06-01 23:00","2020","06","01","23:00","12.7","","8.7","","77","","0.0","","24","","10","","","","100.54","","","","","","NA"
"-76.60","44.22","KINGSTON CLIMATE","6104142","2020-06-02 00:00","2020","06","02","00:00","13.1","","8.5","","74","","0.0","","25","","10","","","","100.51","","","","","","NA"
"-76.60","44.22","KINGSTON CLIMATE","6104142","2020-06-02 01:00","2020","06","02","01:00","13.4","","7.3","","67","","0.0","","27","","7","","","","100.50","","","","","","NA"
"-76.60","44.22","KINGSTON CLIMATE","6104142","2020-06-02 02:00","2020","06","02","02:00","12.5","","10.1","","85","","0.0","","21","","5","","","","100.47","","","","","","NA"
"-76.60","44.22","KINGSTON CLIMATE","6104142","2020-06-02 03:00","2020","06","02","03:00","12.6","","8.4","","75","","0.0","","19","","4","","","","100.42","","","","","","NA"
"-76.60","44.22","KINGSTON CLIMATE","6104142","2020-06-02 04:00","2020","06","02","04:00","11.5","","11.5","","100","","0.0","","17","","6","","","","100.39","","","","","","NA"
"-76.60","44.22","KINGSTON CLIMATE","6104142","2020-06-02 05:00","2020","06","02","05:00","11.3","","11.3","","100","","0.0","","19","","8","","","","100.38","","","","","","NA"
"-76.60","44.22","KINGSTON CLIMATE","6104142","2020-06-02 06:00","2020","06","02","06:00","11.9","","10.6","","92","","0.0","","13","","6","","","","100.42","","","","","","NA"
"-76.60","44.22","KINGSTON CLIMATE","6104142","2020-06-02 07:00","2020","06","02","07:00","12.4","","11.8","","96","","0.0","","6","","2","","","","100.41","","","","","","NA"
"-76.60","44.22","KINGSTON CLIMATE","6104142","2020-06-02 08:00","2020","06","02","08:00","14.2","","9.9","","75","","0.0","","25","","4","","","","100.38","","","","","","NA"
"-76.60","44.22","KINGSTON CLIMATE","6104142","2020-06-02 09:00","2020","06","02","09:00","14.0","","9.8","","76","","0.0","","13","","4","","","","100.31","","","","","","NA"
"-76.60","44.22","KINGSTON CLIMATE","6104142","2020-06-02 10:00","2020","06","02","10:00","14.2","","10.1","","76","","0.0","","24","","13","","","","100.27","","","","","","NA"
"-76.60","44.22","KINGSTON CLIMATE","6104142","2020-06-02 11:00","2020","06","02","11:00","12.7","","12.0","","95","","0.0","","19","","19","","","","100.22","","","","","","NA"
"-76.60","44.22","KINGSTON CLIMATE","6104142","2020-06-02 12:00","2020","06","02","12:00","13.4","","10.5","","83","","0.0","","18","","11","","","","100.10","","","","","","NA"
"-76.60","44.22","KINGSTON CLIMATE","6104142","2020-06-02 13:00","2020","06","02","13:00","13.0","","9.9","","81","","0.0","","20","","14","","","","100.01","","","","","","NA"
"-76.60","44.22","KINGSTON CLIMATE","6104142","2020-06-02 14:00","2020","06","02","14:00","13.5","","10.8","","84","","0.0","","18","","10","","","","99.92","","","","","","NA"
"-76.60","44.22","KINGSTON CLIMATE","6104142","2020-06-02 15:00","2020","06","02","15:00","13.6","","11.5","","87","","0.0","","18","","9","","","","99.86","","","","","","NA"
"-76.60","44.22","KINGSTON CLIMATE","6104142","2020-06-02 16:00","2020","06","02","16:00","13.9","","10.4","","79","","0.0","","18","","7","","","","99.82","","","","","","NA"
"-76.60","44.22","KINGSTON CLIMATE","6104142","2020-06-02 17:00","2020","06","02","17:00","14.2","","10.8","","80","","0.0","","20","","6","","","","99.78","","","","","","NA"
"-76.60","44.22","KINGSTON CLIMATE","6104142","2020-06-02 18:00","2020","06","02","18:00","14.2","","10.1","","76","","0.0","","14","","5","","","","99.72","","","","","","NA"
"-76.60","44.22","KINGSTON CLIMATE","6104142","2020-06-02 19:00","2020","06","02","19:00","14.5","","11.0","","80","","0.0","","11","","3","","","","99.69","","","","","","NA"
"-76.60","44.22","KINGSTON CLIMATE","6104142","2020-06-02 20:00","2020","06","02","20:00","13.6","","13.6","","100","","0.1","","35","","4","","","","99.68","","","","","","NA"
"-76.60","44.22","KINGSTON CLIMATE","6104142","2020-06-02 21:00","2020","06","02","21:00","13.2","","13.2","","100","","1.0","","16","","5","","","","99.61","","","","","","NA"
"-76.60","44.22","KINGSTON CLIMATE","6104142","2020-06-02 22:00","2020","06","02","22:00","13.2","","13.2","","100","","0.1","","14","","5","","","","99.56","","","","","","NA"
"-76.60","44.22","KINGSTON CLIMATE","6104142","2020-06-02 23:00","2020","06","02","23:00","13.1","","13.1","","100","","0.0","","14","","4","","","","99.45","","","","","","NA"
"-76.60","44.22","KINGSTON CLIMATE","6104142","2020-06-03 00:00","2020","06","03","00:00","12.4","","12.4","","100","","0.0","","18","","8","","","","99.35","","","","","","NA"
"-76.60","44.22","KINGSTON CLIMATE","6104142","2020-06-03 01:00","2020","06","03","01:00","13.7","","13.7","","100","","0.0","","14","","4","","","","99.34","","","","","","NA"
"-76.60","44.22","KINGSTON CLIMATE","6104142","2020-06-03 02:00","2020","06","03","02:00","13.3","","13.3","","100","","0.0","","33","","2","","","","99.28","","","","","","NA"
"-76.60","44.22","KINGSTON CLIMATE","6104142","2020-06-03 03:00","2020","06","03","03:00","13.3","","13.3","","100","","0.0","","34","","8","","","","99.23","","","","","","NA"
"-76.60","44.22","KINGSTON CLIMATE","6104142","2020-06-03 04:00","2020","06","03","04:00","13.2","","13.2","","100","","0.0","","33","","6","","","","99.20","","","","","","NA"
"-76.60","44.22","KINGSTON CLIMATE","6104142","2020-06-03 05:00","2020","06","03","05:00","13.9","","13.8","","100","","0.0","","28","","3","","","","99.25","","","","","","NA"
"-76.60","44.22","KINGSTON CLIMATE","6104142","2020-06-03 06:00","2020","06","03","06:00","14.8","","14.7","","100","","0.0","","24","","3","","","","99.22","","","","","","NA"
"-76.60","44.22","KINGSTON CLIMATE","6104142","2020-06-03 07:00","2020","06","03","07:00","15.0","","14.9","","100","","0.0","","29","","5","","","","99.21","","","","","","NA"
"-76.60","44.22","KINGSTON CLIMATE","6104142","2020-06-03 08:00","2020","06","03","08:00","14.9","","14.8","","100","","0.0","","24","","5","","","","99.24","","","","","","NA"
"-76.60","44.22","KINGSTON CLIMATE","6104142","2020-06-03 09:00","2020","06","03","09:00","14.7","","14.6","","100","","0.0","","15","","6","","","","99.12","","","","","","NA"
"-76.60","44.22","KINGSTON CLIMATE","6104142","2020-06-03 10:00","2020","06","03","10:00","15.9","","15.8","","100","","0.0","","18","","8","","","","99.06","","","","","","NA"
"-76.60","44.22","KINGSTON CLIMATE","6104142","2020-06-03 11:00","2020","06","03","11:00","15.0","","15.0","","100","","0.0","","19","","13","","","","99.13","","","","","","NA"
"-76.60","44.22","KINGSTON CLIMATE","6104142","2020-06-03 12:00","2020","06","03","12:00","15.8","","15.8","","100","","0.0","","21","","14","","","","99.14","","","","","","NA"
"-76.60","44.22","KINGSTON CLIMATE","6104142","2020-06-03 13:00","2020","06","03","13:00","16.1","","16.1","","100","","0.0","","24","","14","","","","99.16","","","","","","NA"
"-76.60","44.22","KINGSTON CLIMATE","6104142","2020-06-03 14:00","2020","06","03","14:00","18.1","","17.0","","93","","0.0","","23","","16","","","","99.13","","","","","","NA"
"-76.60","44.22","KINGSTON CLIMATE","6104142","2020-06-03 15:00","2020","06","03","15:00","20.0","","17.2","","84","","0.0","","22","","13","","","","99.11","","25","","","","NA"
"-76.60","44.22","KINGSTON CLIMATE","6104142","2020-06-03 16:00","2020","06","03","16:00","15.1","","15.0","","100","","0.0","","17","","19","","","","99.09","","","","","","NA"
"-76.60","44.22","KINGSTON CLIMATE","6104142","2020-06-03 17:00","2020","06","03","17:00","13.3","","13.3","","100","","0.0","","16","","9","","","","99.14","","","","","","NA"
"-76.60","44.22","KINGSTON CLIMATE","6104142","2020-06-03 18:00","2020","06","03","18:00","14.4","","14.4","","100","","0.6","","18","","12","","","","99.11","","","","","","NA"
"-76.60","44.22","KINGSTON CLIMATE","6104142","2020-06-03 19:00","2020","06","03","19:00","16.1","","16.1","","100","","0.0","","6","","7","","","","99.14","","","","","","NA"
"-76.60","44.22","KINGSTON CLIMATE","6104142","2020-06-03 20:00","2020","06","03","20:00","13.8","","13.8","","100","","0.0","","20","","8","","","","99.40","","","","","","NA"
"-76.60","44.22","KINGSTON CLIMATE","6104142","2020-06-03 21:00","2020","06","03","21:00","15.1","","15.1","","100","","1.6","","1","","2","","","","99.35","","","","","","NA"
"-76.60","44.22","KINGSTON CLIMATE","6104142","2020-06-03 22:00","2020","06","03","22:00","12.4","","12.4","","100","","0.0","","28","","4","","","","99.41","","","","","","NA"
"-76.60","44.22","KINGSTON CLIMATE","6104142","2020-06-03 23:00","2020","06","03","23:00","12.2","","12.2","","100","","0.0","","34","","8","","","","99.48","","","","","","NA"
"-76.60","44.22","KINGSTON CLIMATE","6104142","2020-06-04 00:00","2020","06","04","00:00","13.1","","13.1","","100","","0.0","","22","","10","","","","99.55","","","","","","NA"
"-76.60","44.22","KINGSTON CLIMATE","6104142","2020-06-04 01:00","2020","06","04","01:00","12.6","","12.5","","100","","0.0","","0","","1","","","","99.52","","","","","","NA"
"-76.60","44.22","KINGSTON CLIMATE","6104142","2020-06-04 02:00","2020","06","04","02:00","12.1","","12.1","","100","","0.0","","17","","5","","","","99.54","","","","","","NA"
"-76.60","44.22","KINGSTON CLIMATE","6104142","2020-06-04 03:00","2020","06","04","03:00","11.8","","11.7","","100","","0.0","","1","","3","","","","99.55","","","","","","NA"
"-76.60","44.22","KINGSTON CLIMATE","6104142","2020-06-04 04:00","2020","06","04","04:00","11.7","","11.7","","100","","0.0","","15","","3","","","","99.56","","","","","","NA"
"-76.60","44.22","KINGSTON CLIMATE","6104142","2020-06-04 05:00","2020","06","04","05:00","11.1","","11.1","","100","","0.0","","0","","1","","","","99.61","","","","","","NA"
"-76.60","44.22","KINGSTON CLIMATE","6104142","2020-06-04 06:00","2020","06","04","06:00","13.0","","13.0","","100","","0.0","","19","","6","","","","99.66","","","","","","NA"
"-76.60","44.22","KINGSTON CLIMATE","6104142","2020-06-04 07:00","2020","06","04","07:00","15.5","","15.5","","100","","0.0","","24","","14","","","","99.69","","","","","","NA"
"-76.60","44.22","KINGSTON CLIMATE","6104142","2020-06-04 08:00","2020","06","04","08:00","17.2","","17.2","","100","","0.0","","23","","12","","","","99.73","","","","","","NA"
"-76.60","44.22","KINGSTON CLIMATE","6104142","2020-06-04 09:00","2020","06","04","09:00","19.0","","16.3","","84","","0.0","","22","","11","","","","99.73","","","","","","NA"
"-76.60","44.22","KINGSTON CLIMATE","6104142","2020-06-04 10:00","2020","06","04","10:00","16.5","","15.9","","96","","0.0","","17","","12","","","","99.74","","","","","","NA"
"-76.60","44.22","KINGSTON CLIMATE","6104142","2020-06-04 11:00","2020","06","04","11:00","16.4","","16.0","","98","","0.0","","16","","14","","","","99.78","","","","","","NA"
"-76.60","44.22","KINGSTON CLIMATE","6104142","2020-06-04 12:00","2020","06","04","12:00","16.7","","15.6","","93","","0.0","","19","","18","","","","99.80","","","","","","NA"
"-76.60","44.22","KINGSTON CLIMATE","6104142","2020-06-04 13:00","2020","06","04","13:00","16.6","","16.3","","99","","0.0","","16","","14","","","","99.77","","","","","","NA"
"-76.60","44.22","KINGSTON CLIMATE","6104142","2020-06-04 14:00","2020","06","04","14:00","18.1","","15.2","","83","","0.0","","16","","11","","","","99.74","","","","","","NA"
"-76.60","44.22","KINGSTON CLIMATE","6104142","2020-06-04 15:00","2020","06","04","15:00","17.3","","14.8","","85","","0.0","","16","","15","","","","99.70","","","","","","NA"
"-76.60","44.22","KINGSTON CLIMATE","6104142","2020-06-04 16:00","2020","06","04","16:00","17.6","","14.9","","84","","0.0","","16","","10","","","","99.68","","","","","","NA"
"-76.60","44.22","KINGSTON CLIMATE","6104142","2020-06-04 17:00","2020","06","04","17:00","19.4","","13.1","","67","","0.0","","17","","7","","","","99.68","","","","","","NA"
"-76.60","44.22","KINGSTON CLIMATE","6104142","2020-06-04 18:00","2020","06","04","18:00","18.7","","13.1","","70","","0.0","","18","","5","","","","99.68","","","","","","NA"
"-76.60","44.22","KINGSTON CLIMATE","6104142","2020-06-04 19:00","2020","06","04","19:00","18.5","","13.2","","72","","0.0","","15","","2","","","","99.71","","","","","","NA"
"-76.60","44.22","KINGSTON CLIMATE","6104142","2020-06-04 20:00","2020","06","04","20:00","16.4","","14.6","","89","","0.0","","18","","12","","","","99.75","","","","","","NA"
"-76.60","44.22","KINGSTON CLIMATE","6104142","2020-06-04 21:00","2020","06","04","21:00","15.4","","15.4","","100","","0.0","","16","","9","","","","99.79","","","","","","NA"
"-76.60","44.22","KINGSTON CLIMATE","6104142","2020-06-04 22:00","2020","06","04","22:00","14.9","","14.9","","100","","0.0","","16","","7","","","","99.81","","","","","","NA"
"-76.60","44.22","KINGSTON CLIMATE","6104142","2020-06-04 23:00","2020","06","04","23:00","14.8","","14.8","","100","","0.0","","17","","5","","","","99.84","","","","","","NA"
"-76.60","44.22","KINGSTON CLIMATE","6104142","2020-06-05 00:00","2020","06","05","00:00","14.4","","14.4","","100","","0.0","","18","","11","","","","99.82","","","","","","NA"
"-76.60","44.22","KINGSTON CLIMATE","6104142","2020-06-05 01:00","2020","06","05","01:00","13.8","","13.7","","100","","0.0","","3","","1","","","","99.79","","","","","","NA"
"-76.60","44.22","KINGSTON CLIMATE","6104142","2020-06-05 02:00","2020","06","05","02:00","13.6","","13.6","","100","","0.0","","14","","6","","","","99.78","","","","","","NA"
"-76.60","44.22","KINGSTON CLIMATE","6104142","2020-06-05 03:00","2020","06","05","03:00","13.6","","13.6","","100","","0.0","","17","","8","","","","99.81","","","","","","NA"
"-76.60","44.22","KINGSTON CLIMATE","6104142","2020-06-05 04:00","2020","06","05","04:00","13.1","","13.0","","100","","0.0","","15","","1","","","","99.84","","","","","","NA"
"-76.60","44.22","KINGSTON CLIMATE","6104142","2020-06-05 05:00","2020","06","05","05:00","14.5","","14.5","","100","","0.0","","","","0","","","","99.85","","","","","","NA"
"-76.60","44.22","KINGSTON CLIMATE","6104142","2020-06-05 06:00","2020","06","05","06:00","15.7","","15.7","","100","","0.0","","20","","5","","","","99.91","","","","","","NA"
"-76.60","44.22","KINGSTON CLIMATE","6104142","2020-06-05 07:00","2020","06","05","07:00","16.6","","16.6","","100","","0.0","","15","","7","","","","99.91","","","","","","NA"
"-76.60","44.22","KINGSTON CLIMATE","6104142","2020-06-05 08:00","2020","06","05","08:00","14.7","","14.7","","100","","0.0","","15","","6","","","","99.93","","","","","","NA"
"-76.60","44.22","KINGSTON CLIMATE","6104142","2020-06-05 09:00","2020","06","05","09:00","18.7","","18.7","","100","","0.0","","15","","7","","","","99.93","","","","","","NA"
"-76.60","44.22","KINGSTON CLIMATE","6104142","2020-06-05 10:00","2020","06","05","10:00","15.7","","15.7","","100","","0.0","","16","","16","","","","99.95","","","","","","NA"
"-76.60","44.22","KINGSTON CLIMATE","6104142","2020-06-05 11:00","2020","06","05","11:00","17.0","","17.0","","100","","0.0","","16","","16","","","","99.99","","","","","","NA"
"-76.60","44.22","KINGSTON CLIMATE","6104142","2020-06-05 12:00","2020","06","05","12:00","16.9","","16.8","","100","","0.0","","17","","14","","","","100.00","","","","","","NA"
"-76.60","44.22","KINGSTON CLIMATE","6104142","2020-06-05 13:00","2020","06","05","13:00","17.3","","17.3","","100","","0.0","","17","","18","","","","99.90","","","","","","NA"
"-76.60","44.22","KINGSTON CLIMATE","6104142","2020-06-05 14:00","2020","06","05","14:00","17.4","","17.4","","100","","0.0","","15","","12","","","","99.88","","","","","","NA"
"-76.60","44.22","KINGSTON CLIMATE","6104142","2020-06-05 15:00","2020","06","05","15:00","18.7","","18.7","","100","","0.0","","16","","11","","","","99.81","","","","","","NA"
"-76.60","44.22","KINGSTON CLIMATE","6104142","2020-06-05 16:00","2020","06","05","16:00","18.5","","18.4","","100","","0.0","","15","","15","","","","99.77","","","","","","NA"
"-76.60","44.22","KINGSTON CLIMATE","6104142","2020-06-05 17:00","2020","06","05","17:00","18.0","","18.0","","100","","0.0","","16","","11","","","","99.72","","","","","","NA"
"-76.60","44.22","KINGSTON CLIMATE","6104142","2020-06-05 18:00","2020","06","05","18:00","17.5","","17.5","","100","","0.0","","16","","7","","","","99.71","","","","","","NA"
"-76.60","44.22","KINGSTON CLIMATE","6104142","2020-06-05 19:00","2020","06","05","19:00","17.0","","16.9","","100","","0.0","","17","","8","","","","99.72","","","","","","NA"
"-76.60","44.22","KINGSTON CLIMATE","6104142","2020-06-05 20:00","2020","06","05","20:00","16.9","","16.8","","100","","0.0","","17","","5","","","","99.70","","","","","","NA"
"-76.60","44.22","KINGSTON CLIMATE","6104142","2020-06-05 21:00","2020","06","05","21:00","16.5","","16.5","","100","","0.0","","18","","3","","","","99.75","","","","","","NA"
"-76.60","44.22","KINGSTON CLIMATE","6104142","2020-06-05 22:00","2020","06","05","22:00","20.0","","20.0","","100","","0.0","","26","","11","","","","99.74","","28","","","","NA"
"-76.60","44.22","KINGSTON CLIMATE","6104142","2020-06-05 23:00","2020","06","05","23:00","19.9","","17.9","","88","","0.0","","26","","10","","","","99.66","","","","","","NA"
"-76.60","44.22","KINGSTON CLIMATE","6104142","2020-06-06 00:00","2020","06","06","00:00","17.3","","17.3","","100","","0.0","","17","","8","","","","99.64","","","","","","NA"
"-76.60","44.22","KINGSTON CLIMATE","6104142","2020-06-06 01:00","2020","06","06","01:00","15.9","","15.8","","100","","0.0","","15","","9","","","","99.63","","","","","","NA"
"-76.60","44.22","KINGSTON CLIMATE","6104142","2020-06-06 02:00","2020","06","06","02:00","16.1","","16.1","","100","","0.0","","22","","9","","","","99.59","","","","","","NA"
"-76.60","44.22","KINGSTON CLIMATE","6104142","2020-06-06 03:00","2020","06","06","03:00","14.8","","14.8","","100","","0.0","","24","","4","","","","99.61","","","","","","NA"
"-76.60","44.22","KINGSTON CLIMATE","6104142","2020-06-06 04:00","2020","06","06","04:00","14.9","","14.9","","100","","0.0","","35","","5","","","","99.65","","","","","","NA"
"-76.60","44.22","KINGSTON CLIMATE","6104142","2020-06-06 05:00","2020","06","06","05:00","16.8","","16.8","","100","","0.2","","1","","9","","","","99.66","","","","","","NA"
"-76.60","44.22","KINGSTON CLIMATE","6104142","2020-06-06 06:00","2020","06","06","06:00","17.6","","16.7","","95","","0.0","","35","","10","","","","99.71","","","","","","NA"
"-76.60","44.22","KINGSTON CLIMATE","6104142","2020-06-06 07:00","2020","06","06","07:00","19.3","","14.1","","72","","0.0","","34","","9","","","","99.78","","","","","","NA"
"-76.60","44.22","KINGSTON CLIMATE","6104142","2020-06-06 08:00","2020","06","06","08:00","20.9","","13.7","","63","","0.0","","32","","11","","","","99.86","","","","","","NA"
"-76.60","44.22","KINGSTON CLIMATE","6104142","2020-06-06 09:00","2020","06","06","09:00","22.3","","12.3","","53","","0.0","","33","","11","","","","99.86","","25","","","","NA"
"-76.60","44.22","KINGSTON CLIMATE","6104142","2020-06-06 10:00","2020","06","06","10:00","23.8","","11.4","","46","","0.0","","28","","13","","","","99.85","","26","","","","NA"
"-76.60","44.22","KINGSTON CLIMATE","6104142","2020-06-06 11:00","2020","06","06","11:00","24.1","","10.7","","43","","0.0","","32","","14","","","","99.85","","26","","","","NA"
"-76.60","44.22","KINGSTON CLIMATE","6104142","2020-06-06 12:00","2020","06","06","12:00","24.1","","10.2","","42","","0.0","","26","","15","","","","99.83","","25","","","","NA"
"-76.60","44.22","KINGSTON CLIMATE","6104142","2020-06-06 13:00","2020","06","06","13:00","24.6","","13.2","","49","","0.0","","24","","17","","","","99.75","","28","","","","NA"
"-76.60","44.22","KINGSTON CLIMATE","6104142","2020-06-06 14:00","2020","06","06","14:00","24.2","","9.5","","39","","0.0","","26","","24","","","","99.75","","25","","","","NA"
"-76.60","44.22","KINGSTON CLIMATE","6104142","2020-06-06 15:00","2020","06","06","15:00","15.1","","15.1","","100","","6.7","","30","","4","","","","99.91","","","","","","NA"
"-76.60","44.22","KINGSTON CLIMATE","6104142","2020-06-06 16:00","2020","06","06","16:00","18.3","","13.0","","71","","0.0","","24","","14","","","","99.90","","","","","","NA"
"-76.60","44.22","KINGSTON CLIMATE","6104142","2020-06-06 17:00","2020","06","06","17:00","15.6","","11.7","","77","","0.0","","5","","10","","","","100.00","","","","","","NA"
"-76.60","44.22","KINGSTON CLIMATE","6104142","2020-06-06 18:00","2020","06","06","18:00","15.1","","15.1","","100","","2.8","","20","","9","","","","100.08","","","","","","NA"
"-76.60","44.22","KINGSTON CLIMATE","6104142","2020-06-06 19:00","2020","06","06","19:00","15.5","","15.4","","100","","0.0","","0","","1","","","","100.13","","","","","","NA"
"-76.60","44.22","KINGSTON CLIMATE","6104142","2020-06-06 20:00","2020","06","06","20:00","13.9","","13.9","","100","","2.1","","33","","4","","","","100.18","","","","","","NA"
"-76.60","44.22","KINGSTON CLIMATE","6104142","2020-06-06 21:00","2020","06","06","21:00","12.5","","12.5","","100","","0.0","","30","","6","","","","100.26","","","","","","NA"
"-76.60","44.22","KINGSTON CLIMATE","6104142","2020-06-06 22:00","2020","06","06","22:00","11.8","","11.8","","100","","0.0","","35","","12","","","","100.29","","","","","","NA"
"-76.60","44.22","KINGSTON CLIMATE","6104142","2020-06-06 23:00","2020","06","06","23:00","11.4","","11.4","","100","","0.0","","34","","13","","","","100.32","","","","","","NA"
"-76.60","44.22","KINGSTON CLIMATE","6104142","2020-06-07 00:00","2020","06","07","00:00","11.4","","11.4","","100","","0.0","","34","","15","","","","100.34","","","","","","NA"
"-76.60","44.22","KINGSTON CLIMATE","6104142","2020-06-07 01:00","2020","06","07","01:00","11.0","","10.9","","100","","0.0","","34","","13","","","","100.35","","","","","","NA"
"-76.60","44.22","KINGSTON CLIMATE","6104142","2020-06-07 02:00","2020","06","07","02:00","11.0","","11.0","","100","","0.0","","34","","16","","","","100.38","","","","","","NA"
"-76.60","44.22","KINGSTON CLIMATE","6104142","2020-06-07 03:00","2020","06","07","03:00","10.3","","10.3","","100","","0.0","","34","","15","","","","100.38","","","","","","NA"
"-76.60","44.22","KINGSTON CLIMATE","6104142","2020-06-07 04:00","2020","06","07","04:00","9.6","","9.6","","100","","0.0","","36","","11","","","","100.40","","","","","","NA"
"-76.60","44.22","KINGSTON CLIMATE","6104142","2020-06-07 05:00","2020","06","07","05:00","9.9","","9.6","","98","","0.0","","35","","13","","","","100.48","","","","","","NA"
"-76.60","44.22","KINGSTON CLIMATE","6104142","2020-06-07 06:00","2020","06","07","06:00","10.9","","9.4","","91","","0.0","","35","","20","","","","100.56","","","","","","NA"
"-76.60","44.22","KINGSTON CLIMATE","6104142","2020-06-07 07:00","2020","06","07","07:00","12.8","","9.7","","82","","0.0","","36","","16","","","","100.57","","","","","","NA"
"-76.60","44.22","KINGSTON CLIMATE","6104142","2020-06-07 08:00","2020","06","07","08:00","14.8","","8.6","","66","","0.0","","2","","15","","","","100.56","","","","","","NA"
"-76.60","44.22","KINGSTON CLIMATE","6104142","2020-06-07 09:00","2020","06","07","09:00","16.4","","9.0","","62","","0.0","","35","","14","","","","100.60","","","","","","NA"
"-76.60","44.22","KINGSTON CLIMATE","6104142","2020-06-07 10:00","2020","06","07","10:00","16.9","","10.0","","64","","0.0","","17","","13","","","","100.63","","","","","","NA"
"-76.60","44.22","KINGSTON CLIMATE","6104142","2020-06-07 11:00","2020","06","07","11:00","16.7","","10.7","","68","","0.0","","19","","15","","","","100.64","","","","","","NA"
"-76.60","44.22","KINGSTON CLIMATE","6104142","2020-06-07 12:00","2020","06","07","12:00","17.9","","12.7","","72","","0.0","","19","","16","","","","100.63","","","","","","NA"
"-76.60","44.22","KINGSTON CLIMATE","6104142","2020-06-07 13:00","2020","06","07","13:00","17.5","","12.2","","71","","0.0","","19","","20","","","","100.56","","","","","","NA"
"-76.60","44.22","KINGSTON CLIMATE","6104142","2020-06-07 14:00","2020","06","07","14:00","17.7","","12.3","","70","","0.0","","19","","15","","","","100.52","","","","","","NA"
"-76.60","44.22","KINGSTON CLIMATE","6104142","2020-06-07 15:00","2020","06","07","15:00","19.1","","11.5","","62","","0.0","","25","","15","","","","100.47","","","","","","NA"
"-76.60","44.22","KINGSTON CLIMATE","6104142","2020-06-07 16:00","2020","06","07","16:00","19.1","","10.5","","58","","0.0","","23","","19","","","","100.53","","","","","","NA"
"-76.60","44.22","KINGSTON CLIMATE","6104142","2020-06-07 17:00","2020","06","07","17:00","19.3","","10.4","","57","","0.0","","23","","19","","","","100.50","","","","","","NA"
"-76.60","44.22","KINGSTON CLIMATE","6104142","2020-06-07 18:00","2020","06","07","18:00","16.6","","12.1","","75","","0.0","","16","","11","","","","100.51","","","","","","NA"
"-76.60","44.22","KINGSTON CLIMATE","6104142","2020-06-07 19:00","2020","06","07","19:00","18.3","","9.9","","58","","0.0","","23","","6","","","","100.52","","","","","","NA"
"-76.60","44.22","KINGSTON CLIMATE","6104142","2020-06-07 20:00","2020","06","07","20:00","14.7","","11.0","","79","","0.0","","33","","2","","","","100.54","","","","","","NA"
"-76.60","44.22","KINGSTON CLIMATE","6104142","2020-06-07 21:00","2020","06","07","21:00","13.5","","10.0","","79","","0.0","","26","","6","","","","100.60","","","","","","NA"
"-76.60","44.22","KINGSTON CLIMATE","6104142","2020-06-07 22:00","2020","06","07","22:00","13.5","","9.3","","76","","0.0","","29","","5","","","","100.60","","","","","","NA"
"-76.60","44.22","KINGSTON CLIMATE","6104142","2020-06-07 23:00","2020","06","07","23:00","11.5","","8.9","","84","","0.0","","31","","5","","","","100.58","","","","","","NA"
"-76.60","44.22","KINGSTON CLIMATE","6104142","2020-06-08 00:00","2020","06","08","00:00","9.8","","9.8","","100","","0.0","","31","","8","","","","100.62","","","","","","NA"
"-76.60","44.22","KINGSTON CLIMATE","6104142","2020-06-08 01:00","2020","06","08","01:00","10.1","","10.0","","100","","0.0","","32","","7","","","","100.62","","","","","","NA"
"-76.60","44.22","KINGSTON CLIMATE","6104142","2020-06-08 02:00","2020","06","08","02:00","9.3","","9.3","","100","","0.0","","34","","13","","","","100.66","","","","","","NA"
"-76.60","44.22","KINGSTON CLIMATE","6104142","2020-06-08 03:00","2020","06","08","03:00","8.2","","8.2","","100","","0.0","","35","","13","","","","100.63","","","","","","NA"
"-76.60","44.22","KINGSTON CLIMATE","6104142","2020-06-08 04:00","2020","06","08","04:00","8.4","","8.4","","100","","0.0","","35","","13","","","","100.69","","","","","","NA"
"-76.60","44.22","KINGSTON CLIMATE","6104142","2020-06-08 05:00","2020","06","08","05:00","8.9","","8.9","","100","","0.0","","35","","14","","","","100.74","","","","","","NA"
"-76.60","44.22","KINGSTON CLIMATE","6104142","2020-06-08 06:00","2020","06","08","06:00","11.5","","10.1","","91","","0.0","","35","","12","","","","100.77","","","","","","NA"
"-76.60","44.22","KINGSTON CLIMATE","6104142","2020-06-08 07:00","2020","06","08","07:00","14.5","","7.5","","63","","0.0","","35","","12","","","","100.83","","","","","","NA"
"-76.60","44.22","KINGSTON CLIMATE","6104142","2020-06-08 08:00","2020","06","08","08:00","16.7","","6.6","","51","","0.0","","4","","13","","","","100.86","","","","","","NA"
"-76.60","44.22","KINGSTON CLIMATE","6104142","2020-06-08 09:00","2020","06","08","09:00","17.6","","6.2","","47","","0.0","","35","","14","","","","100.82","","","","","","NA"
"-76.60","44.22","KINGSTON CLIMATE","6104142","2020-06-08 10:00","2020","06","08","10:00","18.1","","6.5","","46","","0.0","","36","","14","","","","100.81","","","","","","NA"
"-76.60","44.22","KINGSTON CLIMATE","6104142","2020-06-08 11:00","2020","06","08","11:00","18.8","","5.6","","42","","0.0","","33","","7","","","","100.78","","","","","","NA"
"-76.60","44.22","KINGSTON CLIMATE","6104142","2020-06-08 12:00","2020","06","08","12:00","17.4","","10.8","","65","","0.0","","19","","18","","","","100.77","","","","","","NA"
"-76.60","44.22","KINGSTON CLIMATE","6104142","2020-06-08 13:00","2020","06","08","13:00","17.8","","9.6","","59","","0.0","","19","","18","","","","100.72","","","","","","NA"
"-76.60","44.22","KINGSTON CLIMATE","6104142","2020-06-08 14:00","2020","06","08","14:00","18.1","","8.6","","54","","0.0","","21","","21","","","","100.67","","","","","","NA"
"-76.60","44.22","KINGSTON CLIMATE","6104142","2020-06-08 15:00","2020","06","08","15:00","17.2","","10.3","","64","","0.0","","19","","20","","","","100.63","","","","","","NA"
"-76.60","44.22","KINGSTON CLIMATE","6104142","2020-06-08 16:00","2020","06","08","16:00","17.0","","8.7","","58","","0.0","","19","","21","","","","100.56","","","","","","NA"
"-76.60","44.22","KINGSTON CLIMATE","6104142","2020-06-08 17:00","2020","06","08","17:00","16.8","","8.1","","56","","0.0","","20","","19","","","","100.52","","","","","","NA"
"-76.60","44.22","KINGSTON CLIMATE","6104142","2020-06-08 18:00","2020","06","08","18:00","16.3","","9.7","","65","","0.0","","19","","15","","","","100.50","","","","","","NA"
"-76.60","44.22","KINGSTON CLIMATE","6104142","2020-06-08 19:00","2020","06","08","19:00","14.9","","11.7","","81","","0.0","","19","","9","","","","100.43","","","","","","NA"
"-76.60","44.22","KINGSTON CLIMATE","6104142","2020-06-08 20:00","2020","06","08","20:00","13.8","","12.5","","92","","0.0","","20","","13","","","","100.39","","","","","","NA"
"-76.60","44.22","KINGSTON CLIMATE","6104142","2020-06-08 21:00","2020","06","08","21:00","13.9","","13.2","","95","","0.0","","20","","8","","","","100.42","","","","","","NA"
"-76.60","44.22","KINGSTON CLIMATE","6104142","2020-06-08 22:00","2020","06","08","22:00","13.8","","13.8","","100","","0.0","","19","","13","","","","100.38","","","","","","NA"
"-76.60","44.22","KINGSTON CLIMATE","6104142","2020-06-08 23:00","2020","06","08","23:00","13.0","","12.9","","100","","0.0","","20","","9","","","","100.35","","","","","","NA"
"-76.60","44.22","KINGSTON CLIMATE","6104142","2020-06-09 00:00","2020","06","09","00:00","13.2","","13.2","","100","","0.0","","19","","10","","","","100.32","","","","","","NA"
"-76.60","44.22","KINGSTON CLIMATE","6104142","2020-06-09 01:00","2020","06","09","01:00","13.4","","13.4","","100","","0.0","","24","","6","","","","100.28","","","","","","NA"
"-76.60","44.22","KINGSTON CLIMATE","6104142","2020-06-09 02:00","2020","06","09","02:00","13.6","","12.4","","93","","0.0","","23","","7","","","","100.23","","","","","","NA"
"-76.60","44.22","KINGSTON CLIMATE","6104142","2020-06-09 03:00","2020","06","09","03:00","13.1","","12.4","","96","","0.0","","","","0","","","","100.22","","","","","","NA"
"-76.60","44.22","KINGSTON CLIMATE","6104142","2020-06-09 04:00","2020","06","09","04:00","14.2","","14.2","","100","","0.0","","16","","7","","","","100.21","","","","","","NA"
"-76.60","44.22","KINGSTON CLIMATE","6104142","2020-06-09 05:00","2020","06","09","05:00","14.4","","14.3","","100","","0.0","","17","","12","","","","100.19","","","","","","NA"
"-76.60","44.22","KINGSTON CLIMATE","6104142","2020-06-09 06:00","2020","06","09","06:00","14.6","","14.6","","100","","0.0","","16","","12","","","","100.21","","","","","","NA"
"-76.60","44.22","KINGSTON CLIMATE","6104142","2020-06-09 07:00","2020","06","09","07:00","15.1","","14.6","","97","","0.0","","19","","12","","","","100.19","","","","","","NA"
"-76.60","44.22","KINGSTON CLIMATE","6104142","2020-06-09 08:00","2020","06","09","08:00","16.0","","13.6","","85","","0.0","","20","","11","","","","100.18","","","","","","NA"
"-76.60","44.22","KINGSTON CLIMATE","6104142","2020-06-09 09:00","2020","06","09","09:00","16.2","","13.7","","85","","0.0","","15","","9","","","","100.19","","","","","","NA"
"-76.60","44.22","KINGSTON CLIMATE","6104142","2020-06-09 10:00","2020","06","09","10:00","17.3","","15.3","","88","","0.0","","17","","11","","","","100.17","","","","","","NA"
"-76.60","44.22","KINGSTON CLIMATE","6104142","2020-06-09 11:00","2020","06","09","11:00","16.8","","14.7","","87","","0.0","","17","","15","","","","100.11","","","","","","NA"
"-76.60","44.22","KINGSTON CLIMATE","6104142","2020-06-09 12:00","2020","06","09","12:00","17.6","","14.4","","81","","0.0","","15","","8","","","","100.16","","","","","","NA"
"-76.60","44.22","KINGSTON CLIMATE","6104142","2020-06-09 13:00","2020","06","09","13:00","18.9","","14.3","","75","","0.0","","13","","9","","","","100.16","","","","","","NA"
"-76.60","44.22","KINGSTON CLIMATE","6104142","2020-06-09 14:00","2020","06","09","14:00","19.9","","14.4","","70","","0.0","","15","","10","","","","100.12","","","","","","NA"
"-76.60","44.22","KINGSTON CLIMATE","6104142","2020-06-09 15:00","2020","06","09","15:00","19.4","","14.3","","72","","0.0","","17","","11","","","","100.12","","","","","","NA"
"-76.60","44.22","KINGSTON CLIMATE","6104142","2020-06-09 16:00","2020","06","09","16:00","20.2","","12.7","","62","","0.0","","17","","10","","","","100.10","","","","","","NA"
"-76.60","44.22","KINGSTON CLIMATE","6104142","2020-06-09 17:00","2020","06","09","17:00","22.2","","14.0","","60","","0.0","","15","","6","","","","100.07","","26","","","","NA"
"-76.60","44.22","KINGSTON CLIMATE","6104142","2020-06-09 18:00","2020","06","09","18:00","22.6","","15.2","","63","","0.0","","10","","14","","","","100.08","","27","","","","NA"
"-76.60","44.22","KINGSTON CLIMATE","6104142","2020-06-09 19:00","2020","06","09","19:00","21.7","","14.0","","62","","0.0","","7","","15","","","","100.11","","25","","","","NA"
"-76.60","44.22","KINGSTON CLIMATE","6104142","2020-06-09 20:00","2020","06","09","20:00","20.8","","13.0","","61","","0.0","","7","","15","","","","100.14","","","","","","NA"
"-76.60","44.22","KINGSTON CLIMATE","6104142","2020-06-09 21:00","2020","06","09","21:00","20.0","","12.8","","63","","0.0","","6","","15","","","","100.15","","","","","","NA"
"-76.60","44.22","KINGSTON CLIMATE","6104142","2020-06-09 22:00","2020","06","09","22:00","19.6","","13.3","","67","","0.0","","6","","19","","","","100.14","","","","","","NA"
"-76.60","44.22","KINGSTON CLIMATE","6104142","2020-06-09 23:00","2020","06","09","23:00","18.4","","13.9","","75","","0.0","","6","","16","","","","100.15","","","","","","NA"
"-76.60","44.22","KINGSTON CLIMATE","6104142","2020-06-10 00:00","2020","06","10","00:00","18.0","","14.1","","78","","0.0","","5","","17","","","","100.10","","","","","","NA"
"-76.60","44.22","KINGSTON CLIMATE","6104142","2020-06-10 01:00","2020","06","10","01:00","17.5","","14.2","","81","","0.0","","5","","13","","","","100.09","","","","","","NA"
"-76.60","44.22","KINGSTON CLIMATE","6104142","2020-06-10 02:00","2020","06","10","02:00","17.4","","13.9","","80","","0.0","","5","","15","","","","100.05","","","","","","NA"
"-76.60","44.22","KINGSTON CLIMATE","6104142","2020-06-10 03:00","2020","06","10","03:00","16.6","","14.7","","89","","0.0","","5","","13","","","","99.98","","","","","","NA"
"-76.60","44.22","KINGSTON CLIMATE","6104142","2020-06-10 04:00","2020","06","10","04:00","16.4","","14.9","","91","","0.0","","5","","14","","","","99.92","","","","","","NA"
"-76.60","44.22","KINGSTON CLIMATE","6104142","2020-06-10 05:00","2020","06","10","05:00","16.5","","15.2","","92","","0.0","","6","","9","","","","99.90","","","","","","NA"
"-76.60","44.22","KINGSTON CLIMATE","6104142","2020-06-10 06:00","2020","06","10","06:00","17.1","","15.1","","88","","0.0","","5","","11","","","","99.89","","","","","","NA"
"-76.60","44.22","KINGSTON CLIMATE","6104142","2020-06-10 07:00","2020","06","10","07:00","19.3","","15.3","","78","","0.0","","6","","10","","","","99.84","","","","","","NA"
"-76.60","44.22","KINGSTON CLIMATE","6104142","2020-06-10 08:00","2020","06","10","08:00","19.8","","15.6","","77","","0.0","","26","","5","","","","99.93","","","","","","NA"
"-76.60","44.22","KINGSTON CLIMATE","6104142","2020-06-10 09:00","2020","06","10","09:00","17.7","","17.7","","100","","1.4","","26","","6","","","","99.97","","","","","","NA"
"-76.60","44.22","KINGSTON CLIMATE","6104142","2020-06-10 10:00","2020","06","10","10:00","19.3","","19.3","","100","","2.3","","12","","6","","","","99.86","","","","","","NA"
"-76.60","44.22","KINGSTON CLIMATE","6104142","2020-06-10 11:00","2020","06","10","11:00","22.6","","21.3","","92","","0.0","","13","","14","","","","99.81","","31","","","","NA"
"-76.60","44.22","KINGSTON CLIMATE","6104142","2020-06-10 12:00","2020","06","10","12:00","22.5","","19.3","","82","","0.0","","15","","18","","","","99.73","","30","","","","NA"
"-76.60","44.22","KINGSTON CLIMATE","6104142","2020-06-10 13:00","2020","06","10","13:00","21.4","","19.2","","87","","0.0","","15","","16","","","","99.67","","28","","","","NA"
"-76.60","44.22","KINGSTON CLIMATE","6104142","2020-06-10 14:00","2020","06","10","14:00","23.2","","20.4","","84","","0.0","","15","","16","","","","99.59","","31","","","","NA"
"-76.60","44.22","KINGSTON CLIMATE","6104142","2020-06-10 15:00","2020","06","10","15:00","23.4","","20.6","","84","","0.0","","15","","18","","","","99.54","","31","","","","NA"
"-76.60","44.22","KINGSTON CLIMATE","6104142","2020-06-10 16:00","2020","06","10","16:00","22.4","","19.7","","85","","0.0","","15","","18","","","","99.49","","30","","","","NA"
"-76.60","44.22","KINGSTON CLIMATE","6104142","2020-06-10 17:00","2020","06","10","17:00","23.2","","20.4","","84","","0.0","","15","","22","","","","99.42","","31","","","","NA"
"-76.60","44.22","KINGSTON CLIMATE","6104142","2020-06-10 18:00","2020","06","10","18:00","23.4","","19.7","","80","","0.0","","14","","32","","","","99.37","","31","","","","NA"
"-76.60","44.22","KINGSTON CLIMATE","6104142","2020-06-10 19:00","2020","06","10","19:00","22.3","","18.9","","81","","0.0","","15","","25","","","","99.34","","29","","","","NA"
"-76.60","44.22","KINGSTON CLIMATE","6104142","2020-06-10 20:00","2020","06","10","20:00","19.5","","17.8","","90","","0.0","","16","","16","","","","99.34","","","","","","NA"
"-76.60","44.22","KINGSTON CLIMATE","6104142","2020-06-10 21:00","2020","06","10","21:00","19.7","","17.3","","86","","0.0","","16","","25","","","","99.29","","","","","","NA"
"-76.60","44.22","KINGSTON CLIMATE","6104142","2020-06-10 22:00","2020","06","10","22:00","20.3","","19.4","","94","","0.0","","16","","29","","","","99.33","","27","","","","NA"
"-76.60","44.22","KINGSTON CLIMATE","6104142","2020-06-10 23:00","2020","06","10","23:00","","","19.8","","100","","0.0","","16","","21","","","","99.33","","","","","","NA"
"-76.60","44.22","KINGSTON CLIMATE","6104142","2020-06-11 00:00","2020","06","11","00:00","22.5","","21.7","","96","","0.0","","19","","23","","","","99.33","","32","","","","NA"
"-76.60","44.22","KINGSTON CLIMATE","6104142","2020-06-11 01:00","2020","06","11","01:00","19.8","","19.8","","100","","0.0","","20","","26","","","","99.31","","","","","","NA"
"-76.60","44.22","KINGSTON CLIMATE","6104142","2020-06-11 02:00","2020","06","11","02:00","19.3","","19.3","","100","","0.8","","33","","11","","","","99.32","","","","","","NA"
"-76.60","44.22","KINGSTON CLIMATE","6104142","2020-06-11 03:00","2020","06","11","03:00","17.7","","17.7","","100","","0.2","","16","","9","","","","99.39","","","","","","NA"
"-76.60","44.22","KINGSTON CLIMATE","6104142","2020-06-11 04:00","2020","06","11","04:00","16.2","","16.2","","100","","0.0","","17","","17","","","","99.44","","","","","","NA"
"-76.60","44.22","KINGSTON CLIMATE","6104142","2020-06-11 05:00","2020","06","11","05:00","16.5","","16.4","","100","","0.0","","19","","19","","","","99.51","","","","","","NA"
"-76.60","44.22","KINGSTON CLIMATE","6104142","2020-06-11 06:00","2020","06","11","06:00","18.8","","18.8","","100","","0.0","","21","","27","","","","99.56","","","","","","NA"
"-76.60","44.22","KINGSTON CLIMATE","6104142","2020-06-11 07:00","2020","06","11","07:00","20.5","","16.3","","77","","0.0","","22","","28","","","","99.62","","25","","","","NA"
"-76.60","44.22","KINGSTON CLIMATE","6104142","2020-06-11 08:00","2020","06","11","08:00","20.5","","15.3","","72","","0.0","","24","","36","","","","99.69","","25","","","","NA"
"-76.60","44.22","KINGSTON CLIMATE","6104142","2020-06-11 09:00","2020","06","11","09:00","20.6","","15.9","","74","","0.0","","23","","34","","","","99.79","","25","","","","NA"
"-76.60","44.22","KINGSTON CLIMATE","6104142","2020-06-11 10:00","2020","06","11","10:00","19.8","","16.0","","79","","0.0","","23","","32","","","","99.94","","","","","","NA"
"-76.60","44.22","KINGSTON CLIMATE","6104142","2020-06-11 11:00","2020","06","11","11:00","20.1","","13.1","","64","","0.0","","23","","35","","","","100.06","","","","","","NA"
"-76.60","44.22","KINGSTON CLIMATE","6104142","2020-06-11 12:00","2020","06","11","12:00","19.8","","11.0","","57","","0.0","","24","","31","","","","100.21","","","","","","NA"
"-76.60","44.22","KINGSTON CLIMATE","6104142","2020-06-11 13:00","2020","06","11","13:00","19.6","","11.8","","61","","0.0","","23","","30","","","","100.31","","","","","","NA"
"-76.60","44.22","KINGSTON CLIMATE","6104142","2020-06-11 14:00","2020","06","11","14:00","20.4","","11.8","","58","","0.0","","23","","31","","","","100.35","","","","","","NA"
"-76.60","44.22","KINGSTON CLIMATE","6104142","2020-06-11 15:00","2020","06","11","15:00","21.1","","12.3","","57","","0.0","","23","","32","","","","100.35","","","","","","NA"
"-76.60","44.22","KINGSTON CLIMATE","6104142","2020-06-11 16:00","2020","06","11","16:00","21.2","","11.9","","55","","0.0","","23","","28","","","","100.36","","","","","","NA"
"-76.60","44.22","KINGSTON CLIMATE","6104142","2020-06-11 17:00","2020","06","11","17:00","20.9","","11.8","","56","","0.0","","23","","27","","","","100.40","","","","","","NA"
"-76.60","44.22","KINGSTON CLIMATE","6104142","2020-06-11 18:00","2020","06","11","18:00","20.8","","12.8","","60","","0.0","","23","","21","","","","100.46","","","","","","NA"
"-76.60","44.22","KINGSTON CLIMATE","6104142","2020-06-11 19:00","2020","06","11","19:00","16.7","","13.7","","82","","0.0","","18","","13","","","","100.50","","","","","","NA"
"-76.60","44.22","KINGSTON CLIMATE","6104142","2020-06-11 20:00","2020","06","11","20:00","15.1","","14.4","","95","","0.0","","20","","12","","","","100.55","","","","","","NA"
"-76.60","44.22","KINGSTON CLIMATE","6104142","2020-06-11 21:00","2020","06","11","21:00","14.1","","14.1","","100","","0.0","","14","","5","","","","100.58","","","","","","NA"
"-76.60","44.22","KINGSTON CLIMATE","6104142","2020-06-11 22:00","2020","06","11","22:00","15.1","","15.0","","100","","0.0","","23","","8","","","","100.56","","","","","","NA"
"-76.60","44.22","KINGSTON CLIMATE","6104142","2020-06-11 23:00","2020","06","11","23:00","15.6","","14.9","","96","","0.0","","24","","15","","","","100.57","","","","","","NA"
"-76.60","44.22","KINGSTON CLIMATE","6104142","2020-06-12 00:00","2020","06","12","00:00","15.1","","14.0","","93","","0.0","","22","","12","","","","100.54","","","","","","NA"
"-76.60","44.22","KINGSTON CLIMATE","6104142","2020-06-12 01:00","2020","06","12","01:00","13.7","","13.6","","100","","0.0","","19","","11","","","","100.52","","","","","","NA"
"-76.60","44.22","KINGSTON CLIMATE","6104142","2020-06-12 02:00","2020","06","12","02:00","13.6","","13.6","","100","","0.0","","20","","11","","","","100.47","","","","","","NA"
"-76.60","44.22","KINGSTON CLIMATE","6104142","2020-06-12 03:00","2020","06","12","03:00","14.0","","14.0","","100","","0.0","","24","","13","","","","100.48","","","","","","NA"
"-76.60","44.22","KINGSTON CLIMATE","6104142","2020-06-12 04:00","2020","06","12","04:00","14.5","","13.7","","95","","0.0","","23","","15","","","","100.46","","","","","","NA"
"-76.60","44.22","KINGSTON CLIMATE","6104142","2020-06-12 05:00","2020","06","12","05:00","14.6","","14.4","","99","","0.0","","25","","11","","","","100.51","","","","","","NA"
"-76.60","44.22","KINGSTON CLIMATE","6104142","2020-06-12 06:00","2020","06","12","06:00","15.5","","14.0","","91","","0.0","","24","","16","","","","100.54","","","","","","NA"
"-76.60","44.22","KINGSTON CLIMATE","6104142","2020-06-12 07:00","2020","06","12","07:00","16.6","","8.8","","60","","0.0","","26","","19","","","","100.58","","","","","","NA"
"-76.60","44.22","KINGSTON CLIMATE","6104142","2020-06-12 08:00","2020","06","12","08:00","16.2","","6.0","","51","","0.0","","25","","23","","","","100.65","","","","","","NA"
"-76.60","44.22","KINGSTON CLIMATE","6104142","2020-06-12 09:00","2020","06","12","09:00","16.5","","5.9","","49","","0.0","","26","","29","","","","100.69","","","","","","NA"
"-76.60","44.22","KINGSTON CLIMATE","6104142","2020-06-12 10:00","2020","06","12","10:00","16.4","","6.0","","50","","0.0","","27","","28","","","","100.75","","","","","","NA"
"-76.60","44.22","KINGSTON CLIMATE","6104142","2020-06-12 11:00","2020","06","12","11:00","16.8","","7.1","","53","","0.0","","25","","25","","","","100.80","","","","","","NA"
"-76.60","44.22","KINGSTON CLIMATE","6104142","2020-06-12 12:00","2020","06","12","12:00","17.3","","7.0","","51","","0.0","","27","","24","","","","100.80","","","","","","NA"
"-76.60","44.22","KINGSTON CLIMATE","6104142","2020-06-12 13:00","2020","06","12","13:00","17.9","","6.4","","47","","0.0","","25","","23","","","","100.80","","","","","","NA"
"-76.60","44.22","KINGSTON CLIMATE","6104142","2020-06-12 14:00","2020","06","12","14:00","17.4","","7.4","","52","","0.0","","24","","28","","","","100.80","","","","","","NA"
"-76.60","44.22","KINGSTON CLIMATE","6104142","2020-06-12 15:00","2020","06","12","15:00","18.4","","7.4","","49","","0.0","","26","","21","","","","100.79","","","","","","NA"
"-76.60","44.22","KINGSTON CLIMATE","6104142","2020-06-12 16:00","2020","06","12","16:00","17.6","","6.0","","46","","0.0","","26","","25","","","","100.81","","","","","","NA"
"-76.60","44.22","KINGSTON CLIMATE","6104142","2020-06-12 17:00","2020","06","12","17:00","17.2","","6.1","","48","","0.0","","28","","22","","","","100.82","","","","","","NA"
"-76.60","44.22","KINGSTON CLIMATE","6104142","2020-06-12 18:00","2020","06","12","18:00","15.5","","6.1","","53","","0.0","","29","","18","","","","100.89","","","","","","NA"
"-76.60","44.22","KINGSTON CLIMATE","6104142","2020-06-12 19:00","2020","06","12","19:00","14.5","","5.3","","54","","0.0","","29","","19","","","","100.95","","","","","","NA"
"-76.60","44.22","KINGSTON CLIMATE","6104142","2020-06-12 20:00","2020","06","12","20:00","12.2","","5.8","","65","","0.0","","30","","14","","","","100.99","","","","","","NA"
"-76.60","44.22","KINGSTON CLIMATE","6104142","2020-06-12 21:00","2020","06","12","21:00","11.8","","6.1","","68","","0.0","","30","","10","","","","101.07","","","","","","NA"
"-76.60","44.22","KINGSTON CLIMATE","6104142","2020-06-12 22:00","2020","06","12","22:00","11.8","","4.3","","60","","0.0","","33","","26","","","","101.15","","","","","","NA"
"-76.60","44.22","KINGSTON CLIMATE","6104142","2020-06-12 23:00","2020","06","12","23:00","9.6","","3.5","","66","","0.0","","32","","20","","","","101.19","","","","","","NA"
"-76.60","44.22","KINGSTON CLIMATE","6104142","2020-06-13 00:00","2020","06","13","00:00","8.8","","3.6","","70","","0.0","","34","","23","","","","101.25","","","","","","NA"
"-76.60","44.22","KINGSTON CLIMATE","6104142","2020-06-13 01:00","2020","06","13","01:00","8.1","","3.3","","72","","0.0","","34","","15","","","","101.27","","","","","","NA"
"-76.60","44.22","KINGSTON CLIMATE","6104142","2020-06-13 02:00","2020","06","13","02:00","7.6","","3.1","","73","","0.0","","32","","16","","","","101.27","","","","","","NA"
"-76.60","44.22","KINGSTON CLIMATE","6104142","2020-06-13 03:00","2020","06","13","03:00","6.5","","2.5","","76","","0.0","","35","","10","","","","101.28","","","","","","NA"
"-76.60","44.22","KINGSTON CLIMATE","6104142","2020-06-13 04:00","2020","06","13","04:00","5.1","","2.9","","86","","0.0","","35","","10","","","","101.29","","","","","","NA"
"-76.60","44.22","KINGSTON CLIMATE","6104142","2020-06-13 05:00","2020","06","13","05:00","5.9","","4.1","","88","","0.0","","21","","1","","","","101.36","","","","","","NA"
"-76.60","44.22","KINGSTON CLIMATE","6104142","2020-06-13 06:00","2020","06","13","06:00","7.0","","5.2","","88","","0.0","","","","0","","","","101.41","","","","","","NA"
"-76.60","44.22","KINGSTON CLIMATE","6104142","2020-06-13 07:00","2020","06","13","07:00","9.3","","4.6","","73","","0.0","","33","","10","","","","101.43","","","","","","NA"
"-76.60","44.22","KINGSTON CLIMATE","6104142","2020-06-13 08:00","2020","06","13","08:00","9.1","","3.4","","67","","0.0","","33","","12","","","","101.51","","","","","","NA"
"-76.60","44.22","KINGSTON CLIMATE","6104142","2020-06-13 09:00","2020","06","13","09:00","10.3","","4.9","","69","","0.0","","1","","9","","","","101.53","","","","","","NA"
"-76.60","44.22","KINGSTON CLIMATE","6104142","2020-06-13 10:00","2020","06","13","10:00","10.7","","4.7","","66","","0.0","","35","","7","","","","101.56","","","","","","NA"
"-76.60","44.22","KINGSTON CLIMATE","6104142","2020-06-13 11:00","2020","06","13","11:00","11.0","","4.0","","62","","0.0","","17","","8","","","","101.58","","","","","","NA"
"-76.60","44.22","KINGSTON CLIMATE","6104142","2020-06-13 12:00","2020","06","13","12:00","12.5","","6.0","","64","","0.0","","16","","12","","","","101.59","","","","","","NA"
"-76.60","44.22","KINGSTON CLIMATE","6104142","2020-06-13 13:00","2020","06","13","13:00","11.8","","5.4","","65","","0.0","","18","","16","","","","101.60","","","","","","NA"
"-76.60","44.22","KINGSTON CLIMATE","6104142","2020-06-13 14:00","2020","06","13","14:00","13.0","","6.4","","64","","0.0","","18","","14","","","","101.60","","","","","","NA"
"-76.60","44.22","KINGSTON CLIMATE","6104142","2020-06-13 15:00","2020","06","13","15:00","12.9","","5.9","","62","","0.0","","16","","15","","","","101.58","","","","","","NA"
"-76.60","44.22","KINGSTON CLIMATE","6104142","2020-06-13 16:00","2020","06","13","16:00","13.4","","6.2","","62","","0.0","","18","","11","","","","101.53","","","","","","NA"
"-76.60","44.22","KINGSTON CLIMATE","6104142","2020-06-13 17:00","2020","06","13","17:00","13.4","","6.1","","61","","0.0","","19","","14","","","","101.55","","","","","","NA"
"-76.60","44.22","KINGSTON CLIMATE","6104142","2020-06-13 18:00","2020","06","13","18:00","13.4","","6.0","","61","","0.0","","21","","9","","","","101.59","","","","","","NA"
"-76.60","44.22","KINGSTON CLIMATE","6104142","2020-06-13 19:00","2020","06","13","19:00","12.5","","6.2","","65","","0.0","","25","","8","","","","101.66","","","","","","NA"
"-76.60","44.22","KINGSTON CLIMATE","6104142","2020-06-13 20:00","2020","06","13","20:00","11.6","","5.5","","66","","0.0","","24","","9","","","","101.71","","","","","","NA"
"-76.60","44.22","KINGSTON CLIMATE","6104142","2020-06-13 21:00","2020","06","13","21:00","10.8","","5.9","","71","","0.0","","28","","7","","","","101.76","","","","","","NA"
"-76.60","44.22","KINGSTON CLIMATE","6104142","2020-06-13 22:00","2020","06","13","22:00","8.9","","6.0","","82","","0.0","","31","","9","","","","101.79","","","","","","NA"
"-76.60","44.22","KINGSTON CLIMATE","6104142","2020-06-13 23:00","2020","06","13","23:00","7.7","","5.9","","88","","0.0","","32","","11","","","","101.81","","","","","","NA"
"-76.60","44.22","KINGSTON CLIMATE","6104142","2020-06-14 00:00","2020","06","14","00:00","7.0","","7.0","","100","","0.0","","34","","8","","","","101.83","","","","","","NA"
"-76.60","44.22","KINGSTON CLIMATE","6104142","2020-06-14 01:00","2020","06","14","01:00","5.7","","5.7","","100","","0.0","","34","","11","","","","101.82","","","","","","NA"
"-76.60","44.22","KINGSTON CLIMATE","6104142","2020-06-14 02:00","2020","06","14","02:00","5.6","","5.6","","100","","0.0","","33","","11","","","","101.82","","","","","","NA"
"-76.60","44.22","KINGSTON CLIMATE","6104142","2020-06-14 03:00","2020","06","14","03:00","6.0","","5.9","","100","","0.0","","33","","16","","","","101.82","","","","","","NA"
"-76.60","44.22","KINGSTON CLIMATE","6104142","2020-06-14 04:00","2020","06","14","04:00","5.8","","5.8","","100","","0.0","","4","","8","","","","101.89","","","","","","NA"
"-76.60","44.22","KINGSTON CLIMATE","6104142","2020-06-14 05:00","2020","06","14","05:00","5.2","","5.2","","100","","0.0","","34","","12","","","","101.94","","","","","","NA"
"-76.60","44.22","KINGSTON CLIMATE","6104142","2020-06-14 06:00","2020","06","14","06:00","8.7","","8.7","","100","","0.0","","35","","12","","","","101.98","","","","","","NA"
"-76.60","44.22","KINGSTON CLIMATE","6104142","2020-06-14 07:00","2020","06","14","07:00","13.2","","5.7","","60","","0.0","","1","","11","","","","102.01","","","","","","NA"
"-76.60","44.22","KINGSTON CLIMATE","6104142","2020-06-14 08:00","2020","06","14","08:00","15.4","","6.5","","55","","0.0","","3","","12","","","","102.07","","","","","","NA"
"-76.60","44.22","KINGSTON CLIMATE","6104142","2020-06-14 09:00","2020","06","14","09:00","16.7","","6.1","","49","","0.0","","3","","10","","","","102.05","","","","","","NA"
"-76.60","44.22","KINGSTON CLIMATE","6104142","2020-06-14 10:00","2020","06","14","10:00","17.9","","5.2","","43","","0.0","","4","","10","","","","102.04","","","","","","NA"
"-76.60","44.22","KINGSTON CLIMATE","6104142","2020-06-14 11:00","2020","06","14","11:00","16.9","","2.7","","39","","0.0","","3","","7","","","","102.01","","","","","","NA"
"-76.60","44.22","KINGSTON CLIMATE","6104142","2020-06-14 12:00","2020","06","14","12:00","17.3","","4.5","","43","","0.0","","8","","14","","","","101.97","","","","","","NA"
"-76.60","44.22","KINGSTON CLIMATE","6104142","2020-06-14 13:00","2020","06","14","13:00","17.4","","5.0","","44","","0.0","","7","","16","","","","101.93","","","","","","NA"
"-76.60","44.22","KINGSTON CLIMATE","6104142","2020-06-14 14:00","2020","06","14","14:00","17.5","","4.6","","42","","0.0","","10","","13","","","","101.91","","","","","","NA"
"-76.60","44.22","KINGSTON CLIMATE","6104142","2020-06-14 15:00","2020","06","14","15:00","18.0","","4.5","","41","","0.0","","12","","14","","","","101.87","","","","","","NA"
"-76.60","44.22","KINGSTON CLIMATE","6104142","2020-06-14 16:00","2020","06","14","16:00","19.4","","4.8","","38","","0.0","","9","","13","","","","101.85","","","","","","NA"
"-76.60","44.22","KINGSTON CLIMATE","6104142","2020-06-14 17:00","2020","06","14","17:00","19.5","","4.4","","37","","0.0","","12","","9","","","","101.85","","","","","","NA"
"-76.60","44.22","KINGSTON CLIMATE","6104142","2020-06-14 18:00","2020","06","14","18:00","17.8","","4.9","","42","","0.0","","9","","9","","","","101.86","","","","","","NA"
"-76.60","44.22","KINGSTON CLIMATE","6104142","2020-06-14 19:00","2020","06","14","19:00","16.1","","4.6","","46","","0.0","","9","","8","","","","101.89","","","","","","NA"
"-76.60","44.22","KINGSTON CLIMATE","6104142","2020-06-14 20:00","2020","06","14","20:00","14.4","","5.5","","55","","0.0","","8","","7","","","","101.88","","","","","","NA"
"-76.60","44.22","KINGSTON CLIMATE","6104142","2020-06-14 21:00","2020","06","14","21:00","12.5","","5.8","","63","","0.0","","5","","5","","","","101.91","","","","","","NA"
"-76.60","44.22","KINGSTON CLIMATE","6104142","2020-06-14 22:00","2020","06","14","22:00","10.1","","7.2","","82","","0.0","","2","","4","","","","101.94","","","","","","NA"
"-76.60","44.22","KINGSTON CLIMATE","6104142","2020-06-14 23:00","2020","06","14","23:00","8.1","","8.1","","100","","0.0","","35","","9","","","","101.94","","","","","","NA"
"-76.60","44.22","KINGSTON CLIMATE","6104142","2020-06-15 00:00","2020","06","15","00:00","7.3","","7.3","","100","","0.0","","34","","10","","","","101.93","","","","","","NA"
"-76.60","44.22","KINGSTON CLIMATE","6104142","2020-06-15 01:00","2020","06","15","01:00","6.2","","6.1","","100","","0.0","","34","","11","","","","101.94","","","","","","NA"
"-76.60","44.22","KINGSTON CLIMATE","6104142","2020-06-15 02:00","2020","06","15","02:00","6.1","","6.0","","100","","0.0","","34","","9","","","","101.94","","","","","","NA"
"-76.60","44.22","KINGSTON CLIMATE","6104142","2020-06-15 03:00","2020","06","15","03:00","6.4","","6.4","","100","","0.0","","34","","5","","","","101.95","","","","","","NA"
"-76.60","44.22","KINGSTON CLIMATE","6104142","2020-06-15 04:00","2020","06","15","04:00","4.9","","4.9","","100","","0.0","","34","","12","","","","101.98","","","","","","NA"
"-76.60","44.22","KINGSTON CLIMATE","6104142","2020-06-15 05:00","2020","06","15","05:00","6.2","","6.1","","100","","0.0","","36","","8","","","","102.01","","","","","","NA"
"-76.60","44.22","KINGSTON CLIMATE","6104142","2020-06-15 06:00","2020","06","15","06:00","9.6","","9.6","","100","","0.0","","36","","3","","","","102.06","","","","","","NA"
"-76.60","44.22","KINGSTON CLIMATE","6104142","2020-06-15 07:00","2020","06","15","07:00","14.8","","8.6","","67","","0.0","","4","","11","","","","102.08","","","","","","NA"
"-76.60","44.22","KINGSTON CLIMATE","6104142","2020-06-15 08:00","2020","06","15","08:00","17.2","","7.0","","51","","0.0","","5","","14","","","","102.12","","","","","","NA"
"-76.60","44.22","KINGSTON CLIMATE","6104142","2020-06-15 09:00","2020","06","15","09:00","19.1","","6.1","","43","","0.0","","6","","16","","","","102.12","","","","","","NA"
"-76.60","44.22","KINGSTON CLIMATE","6104142","2020-06-15 10:00","2020","06","15","10:00","20.3","","4.0","","34","","0.0","","6","","19","","","","102.09","","","","","","NA"
"-76.60","44.22","KINGSTON CLIMATE","6104142","2020-06-15 11:00","2020","06","15","11:00","21.1","","6.5","","39","","0.0","","3","","15","","","","102.05","","","","","","NA"
"-76.60","44.22","KINGSTON CLIMATE","6104142","2020-06-15 12:00","2020","06","15","12:00","20.7","","4.8","","35","","0.0","","11","","21","","","","102.00","","","","","","NA"
"-76.60","44.22","KINGSTON CLIMATE","6104142","2020-06-15 13:00","2020","06","15","13:00","21.5","","4.9","","34","","0.0","","11","","22","","","","101.96","","","","","","NA"
"-76.60","44.22","KINGSTON CLIMATE","6104142","2020-06-15 14:00","2020","06","15","14:00","21.9","","5.1","","34","","0.0","","10","","17","","","","101.90","","","","","","NA"
"-76.60","44.22","KINGSTON CLIMATE","6104142","2020-06-15 15:00","2020","06","15","15:00","21.8","","4.0","","31","","0.0","","11","","13","","","","101.88","","","","","","NA"
"-76.60","44.22","KINGSTON CLIMATE","6104142","2020-06-15 16:00","2020","06","15","16:00","21.1","","8.7","","45","","0.0","","15","","17","","","","101.83","","","","","","NA"
"-76.60","44.22","KINGSTON CLIMATE","6104142","2020-06-15 17:00","2020","06","15","17:00","21.1","","5.5","","36","","0.0","","17","","9","","","","101.82","","","","","","NA"
"-76.60","44.22","KINGSTON CLIMATE","6104142","2020-06-15 18:00","2020","06","15","18:00","20.3","","9.2","","49","","0.0","","23","","6","","","","101.79","","","","","","NA"
"-76.60","44.22","KINGSTON CLIMATE","6104142","2020-06-15 19:00","2020","06","15","19:00","19.2","","6.8","","45","","0.0","","24","","8","","","","101.79","","","","","","NA"
"-76.60","44.22","KINGSTON CLIMATE","6104142","2020-06-15 20:00","2020","06","15","20:00","15.8","","7.2","","57","","0.0","","25","","6","","","","101.80","","","","","","NA"
"-76.60","44.22","KINGSTON CLIMATE","6104142","2020-06-15 21:00","2020","06","15","21:00","14.5","","8.1","","65","","0.0","","32","","5","","","","101.84","","","","","","NA"
"-76.60","44.22","KINGSTON CLIMATE","6104142","2020-06-15 22:00","2020","06","15","22:00","11.9","","7.4","","74","","0.0","","34","","10","","","","101.83","","","","","","NA"
"-76.60","44.22","KINGSTON CLIMATE","6104142","2020-06-15 23:00","2020","06","15","23:00","11.5","","8.0","","79","","0.0","","34","","14","","","","101.84","","","","","","NA"
"-76.60","44.22","KINGSTON CLIMATE","6104142","2020-06-16 00:00","2020","06","16","00:00","10.2","","7.4","","83","","0.0","","34","","11","","","","101.82","","","","","","NA"
"-76.60","44.22","KINGSTON CLIMATE","6104142","2020-06-16 01:00","2020","06","16","01:00","11.0","","7.3","","78","","0.0","","36","","7","","","","101.80","","","","","","NA"
"-76.60","44.22","KINGSTON CLIMATE","6104142","2020-06-16 02:00","2020","06","16","02:00","11.2","","6.9","","75","","0.0","","10","","4","","","","101.80","","","","","","NA"
"-76.60","44.22","KINGSTON CLIMATE","6104142","2020-06-16 03:00","2020","06","16","03:00","10.2","","7.5","","83","","0.0","","35","","2","","","","101.81","","","","","","NA"
"-76.60","44.22","KINGSTON CLIMATE","6104142","2020-06-16 04:00","2020","06","16","04:00","8.4","","8.4","","100","","0.0","","34","","7","","","","101.83","","","","","","NA"
"-76.60","44.22","KINGSTON CLIMATE","6104142","2020-06-16 05:00","2020","06","16","05:00","7.5","","7.5","","100","","0.0","","34","","8","","","","101.87","","","","","","NA"
"-76.60","44.22","KINGSTON CLIMATE","6104142","2020-06-16 06:00","2020","06","16","06:00","11.9","","11.1","","95","","0.0","","34","","10","","","","101.90","","","","","","NA"
"-76.60","44.22","KINGSTON CLIMATE","6104142","2020-06-16 07:00","2020","06","16","07:00","16.8","","10.6","","67","","0.0","","34","","7","","","","101.90","","","","","","NA"
"-76.60","44.22","KINGSTON CLIMATE","6104142","2020-06-16 08:00","2020","06","16","08:00","21.0","","8.1","","43","","0.0","","35","","5","","","","101.92","","","","","","NA"
"-76.60","44.22","KINGSTON CLIMATE","6104142","2020-06-16 09:00","2020","06","16","09:00","17.7","","12.0","","69","","0.0","","17","","14","","","","101.92","","","","","","NA"
"-76.60","44.22","KINGSTON CLIMATE","6104142","2020-06-16 10:00","2020","06","16","10:00","18.0","","13.0","","72","","0.0","","18","","15","","","","101.90","","","","","","NA"
"-76.60","44.22","KINGSTON CLIMATE","6104142","2020-06-16 11:00","2020","06","16","11:00","18.4","","13.2","","72","","0.0","","19","","16","","","","101.88","","","","","","NA"
"-76.60","44.22","KINGSTON CLIMATE","6104142","2020-06-16 12:00","2020","06","16","12:00","19.6","","11.3","","59","","0.0","","19","","17","","","","101.83","","","","","","NA"
"-76.60","44.22","KINGSTON CLIMATE","6104142","2020-06-16 13:00","2020","06","16","13:00","21.3","","10.6","","50","","0.0","","19","","16","","","","101.76","","","","","","NA"
"-76.60","44.22","KINGSTON CLIMATE","6104142","2020-06-16 14:00","2020","06","16","14:00","23.6","","8.8","","39","","0.0","","19","","12","","","","101.71","","","","","","NA"
"-76.60","44.22","KINGSTON CLIMATE","6104142","2020-06-16 15:00","2020","06","16","15:00","23.2","","7.6","","37","","0.0","","19","","14","","","","101.65","","","","","","NA"
"-76.60","44.22","KINGSTON CLIMATE","6104142","2020-06-16 16:00","2020","06","16","16:00","23.9","","8.9","","38","","0.0","","23","","13","","","","101.59","","25","","","","NA"
"-76.60","44.22","KINGSTON CLIMATE","6104142","2020-06-16 17:00","2020","06","16","17:00","23.5","","8.1","","37","","0.0","","24","","13","","","","101.53","","","","","","NA"
"-76.60","44.22","KINGSTON CLIMATE","6104142","2020-06-16 18:00","2020","06","16","18:00","23.0","","8.5","","39","","0.0","","24","","11","","","","101.49","","","","","","NA"
"-76.60","44.22","KINGSTON CLIMATE","6104142","2020-06-16 19:00","2020","06","16","19:00","21.4","","8.7","","44","","0.0","","25","","9","","","","101.45","","","","","","NA"
"-76.60","44.22","KINGSTON CLIMATE","6104142","2020-06-16 20:00","2020","06","16","20:00","19.3","","7.7","","47","","0.0","","25","","7","","","","101.43","","","","","","NA"
"-76.60","44.22","KINGSTON CLIMATE","6104142","2020-06-16 21:00","2020","06","16","21:00","16.6","","7.5","","55","","0.0","","21","","3","","","","101.44","","","","","","NA"
"-76.60","44.22","KINGSTON CLIMATE","6104142","2020-06-16 22:00","2020","06","16","22:00","15.4","","10.7","","74","","0.0","","34","","5","","","","101.42","","","","","","NA"
"-76.60","44.22","KINGSTON CLIMATE","6104142","2020-06-16 23:00","2020","06","16","23:00","12.7","","11.4","","92","","0.0","","34","","10","","","","101.42","","","","","","NA"
"-76.60","44.22","KINGSTON CLIMATE","6104142","2020-06-17 00:00","2020","06","17","00:00","12.2","","11.8","","97","","0.0","","34","","9","","","","101.41","","","","","","NA"
"-76.60","44.22","KINGSTON CLIMATE","6104142","2020-06-17 01:00","2020","06","17","01:00","12.6","","12.6","","100","","0.0","","","","0","","","","101.37","","","","","","NA"
"-76.60","44.22","KINGSTON CLIMATE","6104142","2020-06-17 02:00","2020","06","17","02:00","9.9","","9.9","","100","","0.0","","34","","10","","","","101.38","","","","","","NA"
"-76.60","44.22","KINGSTON CLIMATE","6104142","2020-06-17 03:00","2020","06","17","03:00","10.5","","9.9","","96","","0.0","","34","","7","","","","101.38","","","","","","NA"
"-76.60","44.22","KINGSTON CLIMATE","6104142","2020-06-17 04:00","2020","06","17","04:00","9.9","","9.9","","100","","0.0","","34","","11","","","","101.42","","","","","","NA"
"-76.60","44.22","KINGSTON CLIMATE","6104142","2020-06-17 05:00","2020","06","17","05:00","11.3","","9.4","","88","","0.0","","10","","1","","","","101.45","","","","","","NA"
"-76.60","44.22","KINGSTON CLIMATE","6104142","2020-06-17 06:00","2020","06","17","06:00","15.2","","12.3","","83","","0.0","","0","","1","","","","101.44","","","","","","NA"
"-76.60","44.22","KINGSTON CLIMATE","6104142","2020-06-17 07:00","2020","06","17","07:00","17.4","","11.6","","69","","0.0","","15","","6","","","","101.43","","","","","","NA"
"-76.60","44.22","KINGSTON CLIMATE","6104142","2020-06-17 08:00","2020","06","17","08:00","19.7","","10.6","","56","","0.0","","17","","6","","","","101.48","","","","","","NA"
"-76.60","44.22","KINGSTON CLIMATE","6104142","2020-06-17 09:00","2020","06","17","09:00","21.8","","10.1","","47","","0.0","","18","","5","","","","101.46","","","","","","NA"
"-76.60","44.22","KINGSTON CLIMATE","6104142","2020-06-17 10:00","2020","06","17","10:00","21.5","","9.0","","45","","0.0","","15","","9","","","","101.42","","","","","","NA"
"-76.60","44.22","KINGSTON CLIMATE","6104142","2020-06-17 11:00","2020","06","17","11:00","22.5","","11.7","","51","","0.0","","18","","11","","","","101.38","","25","","","","NA"
"-76.60","44.22","KINGSTON CLIMATE","6104142","2020-06-17 12:00","2020","06","17","12:00","23.2","","12.3","","50","","0.0","","17","","10","","","","101.35","","26","","","","NA"
"-76.60","44.22","KINGSTON CLIMATE","6104142","2020-06-17 13:00","2020","06","17","13:00","23.1","","12.0","","50","","0.0","","18","","9","","","","101.33","","25","","","","NA"
"-76.60","44.22","KINGSTON CLIMATE","6104142","2020-06-17 14:00","2020","06","17","14:00","24.3","","11.8","","46","","0.0","","17","","9","","","","101.25","","26","","","","NA"
"-76.60","44.22","KINGSTON CLIMATE","6104142","2020-06-17 15:00","2020","06","17","15:00","26.7","","10.9","","37","","0.0","","23","","9","","","","101.17","","28","","","","NA"
"-76.60","44.22","KINGSTON CLIMATE","6104142","2020-06-17 16:00","2020","06","17","16:00","26.0","","10.3","","37","","0.0","","20","","8","","","","101.10","","27","","","","NA"
"-76.60","44.22","KINGSTON CLIMATE","6104142","2020-06-17 17:00","2020","06","17","17:00","26.3","","10.6","","37","","0.0","","19","","7","","","","101.03","","28","","","","NA"
"-76.60","44.22","KINGSTON CLIMATE","6104142","2020-06-17 18:00","2020","06","17","18:00","24.3","","9.3","","38","","0.0","","19","","9","","","","101.03","","25","","","","NA"
"-76.60","44.22","KINGSTON CLIMATE","6104142","2020-06-17 19:00","2020","06","17","19:00","21.7","","12.4","","56","","0.0","","20","","8","","","","101.02","","","","","","NA"
"-76.60","44.22","KINGSTON CLIMATE","6104142","2020-06-17 20:00","2020","06","17","20:00","19.8","","12.3","","62","","0.0","","","","0","","","","100.99","","","","","","NA"
"-76.60","44.22","KINGSTON CLIMATE","6104142","2020-06-17 21:00","2020","06","17","21:00","18.5","","12.2","","67","","0.0","","0","","1","","","","101.03","","","","","","NA"
"-76.60","44.22","KINGSTON CLIMATE","6104142","2020-06-17 22:00","2020","06","17","22:00","17.3","","13.0","","76","","0.0","","34","","4","","","","101.02","","","","","","NA"
"-76.60","44.22","KINGSTON CLIMATE","6104142","2020-06-17 23:00","2020","06","17","23:00","15.6","","14.0","","90","","0.0","","36","","5","","","","100.98","","","","","","NA"
"-76.60","44.22","KINGSTON CLIMATE","6104142","2020-06-18 00:00","2020","06","18","00:00","15.0","","14.3","","96","","0.0","","6","","3","","","","100.98","","","","","","NA"
"-76.60","44.22","KINGSTON CLIMATE","6104142","2020-06-18 01:00","2020","06","18","01:00","14.4","","14.4","","100","","0.0","","1","","2","","","","100.95","","","","","","NA"
"-76.60","44.22","KINGSTON CLIMATE","6104142","2020-06-18 02:00","2020","06","18","02:00","12.0","","12.0","","100","","0.0","","34","","10","","","","100.93","","","","","","NA"
"-76.60","44.22","KINGSTON CLIMATE","6104142","2020-06-18 03:00","2020","06","18","03:00","11.9","","11.9","","100","","0.0","","33","","11","","","","100.95","","","","","","NA"
"-76.60","44.22","KINGSTON CLIMATE","6104142","2020-06-18 04:00","2020","06","18","04:00","12.0","","12.0","","100","","0.0","","35","","5","","","","100.97","","","","","","NA"
"-76.60","44.22","KINGSTON CLIMATE","6104142","2020-06-18 05:00","2020","06","18","05:00","12.7","","12.6","","99","","0.0","","0","","1","","","","101.01","","","","","","NA"
"-76.60","44.22","KINGSTON CLIMATE","6104142","2020-06-18 06:00","2020","06","18","06:00","16.9","","14.6","","86","","0.0","","5","","3","","","","101.03","","","","","","NA"
"-76.60","44.22","KINGSTON CLIMATE","6104142","2020-06-18 07:00","2020","06","18","07:00","21.2","","13.0","","59","","0.0","","8","","3","","","","101.05","","","","","","NA"
"-76.60","44.22","KINGSTON CLIMATE","6104142","2020-06-18 08:00","2020","06","18","08:00","21.3","","11.1","","52","","0.0","","16","","6","","","","101.06","","","","","","NA"
"-76.60","44.22","KINGSTON CLIMATE","6104142","2020-06-18 09:00","2020","06","18","09:00","22.1","","13.3","","58","","0.0","","17","","8","","","","101.08","","25","","","","NA"
"-76.60","44.22","KINGSTON CLIMATE","6104142","2020-06-18 10:00","2020","06","18","10:00","21.7","","13.7","","60","","0.0","","17","","11","","","","101.05","","25","","","","NA"
"-76.60","44.22","KINGSTON CLIMATE","6104142","2020-06-18 11:00","2020","06","18","11:00","22.4","","14.7","","62","","0.0","","17","","11","","","","101.00","","26","","","","NA"
"-76.60","44.22","KINGSTON CLIMATE","6104142","2020-06-18 12:00","2020","06","18","12:00","22.6","","14.5","","60","","0.0","","17","","13","","","","100.95","","26","","","","NA"
"-76.60","44.22","KINGSTON CLIMATE","6104142","2020-06-18 13:00","2020","06","18","13:00","23.0","","14.9","","60","","0.0","","15","","7","","","","100.89","","27","","","","NA"
"-76.60","44.22","KINGSTON CLIMATE","6104142","2020-06-18 14:00","2020","06","18","14:00","23.3","","14.9","","59","","0.0","","17","","15","","","","100.84","","27","","","","NA"
"-76.60","44.22","KINGSTON CLIMATE","6104142","2020-06-18 15:00","2020","06","18","15:00","24.8","","15.9","","58","","0.0","","18","","9","","","","100.79","","29","","","","NA"
"-76.60","44.22","KINGSTON CLIMATE","6104142","2020-06-18 16:00","2020","06","18","16:00","26.5","","12.8","","43","","0.0","","20","","8","","","","100.74","","29","","","","NA"
"-76.60","44.22","KINGSTON CLIMATE","6104142","2020-06-18 17:00","2020","06","18","17:00","28.3","","13.5","","40","","0.0","","24","","5","","","","100.69","","31","","","","NA"
"-76.60","44.22","KINGSTON CLIMATE","6104142","2020-06-18 18:00","2020","06","18","18:00","28.0","","13.7","","41","","0.0","","27","","7","","","","100.64","","31","","","","NA"
"-76.60","44.22","KINGSTON CLIMATE","6104142","2020-06-18 19:00","2020","06","18","19:00","27.4","","13.0","","41","","0.0","","15","","1","","","","100.58","","30","","","","NA"
"-76.60","44.22","KINGSTON CLIMATE","6104142","2020-06-18 20:00","2020","06","18","20:00","23.7","","13.9","","54","","0.0","","17","","6","","","","100.60","","27","","","","NA"
"-76.60","44.22","KINGSTON CLIMATE","6104142","2020-06-18 21:00","2020","06","18","21:00","21.0","","13.9","","64","","0.0","","34","","9","","","","100.60","","","","","","NA"
"-76.60","44.22","KINGSTON CLIMATE","6104142","2020-06-18 22:00","2020","06","18","22:00","21.9","","17.0","","74","","0.0","","18","","9","","","","100.67","","27","","","","NA"
"-76.60","44.22","KINGSTON CLIMATE","6104142","2020-06-18 23:00","2020","06","18","23:00","20.8","","20.8","","100","","0.0","","20","","7","","","","100.68","","29","","","","NA"
"-76.60","44.22","KINGSTON CLIMATE","6104142","2020-06-19 00:00","2020","06","19","00:00","20.6","","20.1","","97","","0.0","","21","","8","","","","100.68","","28","","","","NA"
"-76.60","44.22","KINGSTON CLIMATE","6104142","2020-06-19 01:00","2020","06","19","01:00","20.0","","20.0","","100","","0.0","","18","","9","","","","100.68","","28","","","","NA"
"-76.60","44.22","KINGSTON CLIMATE","6104142","2020-06-19 02:00","2020","06","19","02:00","19.7","","19.7","","100","","0.0","","18","","12","","","","100.66","","","","","","NA"
"-76.60","44.22","KINGSTON CLIMATE","6104142","2020-06-19 03:00","2020","06","19","03:00","18.8","","18.8","","100","","0.0","","18","","7","","","","100.66","","","","","","NA"
"-76.60","44.22","KINGSTON CLIMATE","6104142","2020-06-19 04:00","2020","06","19","04:00","18.0","","18.0","","100","","0.0","","23","","2","","","","100.72","","","","","","NA"
"-76.60","44.22","KINGSTON CLIMATE","6104142","2020-06-19 05:00","2020","06","19","05:00","18.6","","18.6","","100","","0.0","","19","","6","","","","100.73","","","","","","NA"
"-76.60","44.22","KINGSTON CLIMATE","6104142","2020-06-19 06:00","2020","06","19","06:00","19.2","","19.1","","100","","0.0","","19","","10","","","","100.74","","","","","","NA"
"-76.60","44.22","KINGSTON CLIMATE","6104142","2020-06-19 07:00","2020","06","19","07:00","20.1","","20.0","","100","","0.0","","22","","9","","","","100.76","","28","","","","NA"
"-76.60","44.22","KINGSTON CLIMATE","6104142","2020-06-19 08:00","2020","06","19","08:00","20.4","","19.4","","94","","0.0","","19","","16","","","","100.75","","27","","","","NA"
"-76.60","44.22","KINGSTON CLIMATE","6104142","2020-06-19 09:00","2020","06","19","09:00","20.7","","18.9","","90","","0.0","","16","","12","","","","100.74","","27","","","","NA"
"-76.60","44.22","KINGSTON CLIMATE","6104142","2020-06-19 10:00","2020","06","19","10:00","21.4","","18.7","","85","","0.0","","17","","12","","","","100.73","","28","","","","NA"
"-76.60","44.22","KINGSTON CLIMATE","6104142","2020-06-19 11:00","2020","06","19","11:00","22.2","","18.7","","80","","0.0","","17","","15","","","","100.71","","29","","","","NA"
"-76.60","44.22","KINGSTON CLIMATE","6104142","2020-06-19 12:00","2020","06","19","12:00","23.0","","18.8","","77","","0.0","","18","","15","","","","100.67","","30","","","","NA"
"-76.60","44.22","KINGSTON CLIMATE","6104142","2020-06-19 13:00","2020","06","19","13:00","24.0","","18.5","","72","","0.0","","20","","13","","","","100.64","","30","","","","NA"
"-76.60","44.22","KINGSTON CLIMATE","6104142","2020-06-19 14:00","2020","06","19","14:00","24.6","","17.6","","65","","0.0","","19","","12","","","","100.60","","30","","","","NA"
"-76.60","44.22","KINGSTON CLIMATE","6104142","2020-06-19 15:00","2020","06","19","15:00","25.4","","16.5","","58","","0.0","","17","","12","","","","100.55","","30","","","","NA"
"-76.60","44.22","KINGSTON CLIMATE","6104142","2020-06-19 16:00","2020","06","19","16:00","25.7","","16.5","","57","","0.0","","18","","10","","","","100.50","","31","","","","NA"
"-76.60","44.22","KINGSTON CLIMATE","6104142","2020-06-19 17:00","2020","06","19","17:00","25.1","","16.0","","57","","0.0","","17","","9","","","","100.45","","30","","","","NA"
"-76.60","44.22","KINGSTON CLIMATE","6104142","2020-06-19 18:00","2020","06","19","18:00","24.2","","16.2","","61","","0.0","","19","","8","","","","100.47","","29","","","","NA"
"-76.60","44.22","KINGSTON CLIMATE","6104142","2020-06-19 19:00","2020","06","19","19:00","23.6","","16.1","","63","","0.0","","19","","6","","","","100.47","","28","","","","NA"
"-76.60","44.22","KINGSTON CLIMATE","6104142","2020-06-19 20:00","2020","06","19","20:00","22.6","","16.5","","68","","0.0","","19","","4","","","","100.49","","28","","","","NA"
"-76.60","44.22","KINGSTON CLIMATE","6104142","2020-06-19 21:00","2020","06","19","21:00","21.0","","17.9","","82","","0.0","","18","","4","","","","100.53","","27","","","","NA"
"-76.60","44.22","KINGSTON CLIMATE","6104142","2020-06-19 22:00","2020","06","19","22:00","19.4","","18.3","","93","","0.0","","17","","3","","","","100.53","","","","","","NA"
"-76.60","44.22","KINGSTON CLIMATE","6104142","2020-06-19 23:00","2020","06","19","23:00","18.7","","17.8","","94","","0.0","","25","","5","","","","100.51","","","","","","NA"
"-76.60","44.22","KINGSTON CLIMATE","6104142","2020-06-20 00:00","2020","06","20","00:00","18.2","","18.2","","100","","0.0","","14","","2","","","","100.52","","","","","","NA"
"-76.60","44.22","KINGSTON CLIMATE","6104142","2020-06-20 01:00","2020","06","20","01:00","17.7","","17.7","","100","","0.0","","4","","2","","","","100.51","","","","","","NA"
"-76.60","44.22","KINGSTON CLIMATE","6104142","2020-06-20 02:00","2020","06","20","02:00","18.2","","18.2","","100","","0.0","","15","","6","","","","100.52","","","","","","NA"
"-76.60","44.22","KINGSTON CLIMATE","6104142","2020-06-20 03:00","2020","06","20","03:00","18.1","","18.1","","100","","0.0","","17","","6","","","","100.53","","","","","","NA"
"-76.60","44.22","KINGSTON CLIMATE","6104142","2020-06-20 04:00","2020","06","20","04:00","19.1","","19.1","","100","","0.0","","17","","9","","","","100.50","","","","","","NA"
"-76.60","44.22","KINGSTON CLIMATE","6104142","2020-06-20 05:00","2020","06","20","05:00","19.1","","19.1","","100","","0.0","","18","","6","","","","100.53","","","","","","NA"
"-76.60","44.22","KINGSTON CLIMATE","6104142","2020-06-20 06:00","2020","06","20","06:00","19.8","","19.8","","100","","0.0","","16","","11","","","","100.54","","","","","","NA"
"-76.60","44.22","KINGSTON CLIMATE","6104142","2020-06-20 07:00","2020","06","20","07:00","20.2","","20.1","","100","","0.0","","17","","14","","","","100.60","","28","","","","NA"
"-76.60","44.22","KINGSTON CLIMATE","6104142","2020-06-20 08:00","2020","06","20","08:00","20.9","","20.9","","100","","0.0","","18","","11","","","","100.64","","29","","","","NA"
"-76.60","44.22","KINGSTON CLIMATE","6104142","2020-06-20 09:00","2020","06","20","09:00","21.0","","20.5","","97","","0.0","","15","","14","","","","100.60","","29","","","","NA"
"-76.60","44.22","KINGSTON CLIMATE","6104142","2020-06-20 10:00","2020","06","20","10:00","20.8","","20.8","","100","","0.0","","16","","15","","","","100.62","","29","","","","NA"
"-76.60","44.22","KINGSTON CLIMATE","6104142","2020-06-20 11:00","2020","06","20","11:00","21.6","","20.5","","93","","0.0","","16","","17","","","","100.59","","30","","","","NA"
"-76.60","44.22","KINGSTON CLIMATE","6104142","2020-06-20 12:00","2020","06","20","12:00","22.0","","19.2","","84","","0.0","","17","","14","","","","100.57","","29","","","","NA"
"-76.60","44.22","KINGSTON CLIMATE","6104142","2020-06-20 13:00","2020","06","20","13:00","24.3","","18.6","","71","","0.0","","18","","14","","","","100.54","","31","","","","NA"
"-76.60","44.22","KINGSTON CLIMATE","6104142","2020-06-20 14:00","2020","06","20","14:00","24.7","","17.8","","65","","0.0","","17","","14","","","","100.49","","31","","","","NA"
"-76.60","44.22","KINGSTON CLIMATE","6104142","2020-06-20 15:00","2020","06","20","15:00","24.6","","17.6","","65","","0.0","","17","","15","","","","100.45","","30","","","","NA"
"-76.60","44.22","KINGSTON CLIMATE","6104142","2020-06-20 16:00","2020","06","20","16:00","24.8","","17.8","","65","","0.0","","18","","12","","","","100.38","","31","","","","NA"
"-76.60","44.22","KINGSTON CLIMATE","6104142","2020-06-20 17:00","2020","06","20","17:00","24.5","","17.9","","67","","0.0","","19","","10","","","","100.33","","30","","","","NA"
"-76.60","44.22","KINGSTON CLIMATE","6104142","2020-06-20 18:00","2020","06","20","18:00","24.2","","17.9","","68","","0.0","","20","","9","","","","100.30","","30","","","","NA"
"-76.60","44.22","KINGSTON CLIMATE","6104142","2020-06-20 19:00","2020","06","20","19:00","23.8","","17.3","","67","","0.0","","17","","4","","","","100.28","","29","","","","NA"
"-76.60","44.22","KINGSTON CLIMATE","6104142","2020-06-20 20:00","2020","06","20","20:00","21.2","","16.9","","76","","0.0","","18","","5","","","","100.28","","26","","","","NA"
"-76.60","44.22","KINGSTON CLIMATE","6104142","2020-06-20 21:00","2020","06","20","21:00","20.6","","19.8","","95","","0.0","","15","","7","","","","100.32","","28","","","","NA"
"-76.60","44.22","KINGSTON CLIMATE","6104142","2020-06-20 22:00","2020","06","20","22:00","20.2","","20.2","","100","","0.0","","18","","7","","","","100.36","","28","","","","NA"
"-76.60","44.22","KINGSTON CLIMATE","6104142","2020-06-20 23:00","2020","06","20","23:00","18.8","","18.8","","100","","0.0","","16","","3","","","","100.35","","","","","","NA"
"-76.60","44.22","KINGSTON CLIMATE","6104142","2020-06-21 00:00","2020","06","21","00:00","17.9","","17.9","","100","","0.0","","35","","3","","","","100.33","","","","","","NA"
"-76.60","44.22","KINGSTON CLIMATE","6104142","2020-06-21 01:00","2020","06","21","01:00","17.7","","17.7","","100","","0.0","","22","","3","","","","100.32","","","","","","NA"
"-76.60","44.22","KINGSTON CLIMATE","6104142","2020-06-21 02:00","2020","06","21","02:00","17.2","","17.1","","100","","0.0","","35","","6","","","","100.30","","","","","","NA"
"-76.60","44.22","KINGSTON CLIMATE","6104142","2020-06-21 03:00","2020","06","21","03:00","16.4","","16.4","","100","","0.0","","35","","5","","","","100.26","","","","","","NA"
"-76.60","44.22","KINGSTON CLIMATE","6104142","2020-06-21 04:00","2020","06","21","04:00","16.5","","16.5","","100","","0.0","","","","0","","","","100.26","","","","","","NA"
"-76.60","44.22","KINGSTON CLIMATE","6104142","2020-06-21 05:00","2020","06","21","05:00","16.9","","16.9","","100","","0.0","","12","","2","","","","100.29","","","","","","NA"
"-76.60","44.22","KINGSTON CLIMATE","6104142","2020-06-21 06:00","2020","06","21","06:00","20.9","","20.9","","100","","0.0","","17","","10","","","","100.31","","29","","","","NA"
"-76.60","44.22","KINGSTON CLIMATE","6104142","2020-06-21 07:00","2020","06","21","07:00","21.4","","21.3","","100","","0.0","","17","","13","","","","100.35","","30","","","","NA"
"-76.60","44.22","KINGSTON CLIMATE","6104142","2020-06-21 08:00","2020","06","21","08:00","21.7","","21.7","","100","","0.0","","16","","12","","","","100.35","","31","","","","NA"
"-76.60","44.22","KINGSTON CLIMATE","6104142","2020-06-21 09:00","2020","06","21","09:00","22.2","","21.2","","94","","0.0","","17","","13","","","","100.35","","31","","","","NA"
"-76.60","44.22","KINGSTON CLIMATE","6104142","2020-06-21 10:00","2020","06","21","10:00","22.2","","20.6","","90","","0.0","","16","","14","","","","100.39","","30","","","","NA"
"-76.60","44.22","KINGSTON CLIMATE","6104142","2020-06-21 11:00","2020","06","21","11:00","23.6","","20.5","","83","","0.0","","16","","14","","","","100.36","","32","","","","NA"
"-76.60","44.22","KINGSTON CLIMATE","6104142","2020-06-21 12:00","2020","06","21","12:00","24.4","","19.7","","75","","0.0","","18","","15","","","","100.37","","32","","","","NA"
"-76.60","44.22","KINGSTON CLIMATE","6104142","2020-06-21 13:00","2020","06","21","13:00","25.8","","19.5","","68","","0.0","","19","","13","","","","100.34","","33","","","","NA"
"-76.60","44.22","KINGSTON CLIMATE","6104142","2020-06-21 14:00","2020","06","21","14:00","26.0","","19.3","","66","","0.0","","17","","12","","","","100.28","","33","","","","NA"
"-76.60","44.22","KINGSTON CLIMATE","6104142","2020-06-21 15:00","2020","06","21","15:00","26.1","","20.0","","69","","0.0","","17","","9","","","","100.21","","34","","","","NA"
"-76.60","44.22","KINGSTON CLIMATE","6104142","2020-06-21 16:00","2020","06","21","16:00","26.2","","19.0","","65","","0.0","","18","","10","","","","100.15","","33","","","","NA"
"-76.60","44.22","KINGSTON CLIMATE","6104142","2020-06-21 17:00","2020","06","21","17:00","26.5","","20.3","","69","","0.0","","17","","8","","","","100.09","","34","","","","NA"
"-76.60","44.22","KINGSTON CLIMATE","6104142","2020-06-21 18:00","2020","06","21","18:00","25.8","","20.2","","71","","0.0","","17","","8","","","","100.08","","34","","","","NA"
"-76.60","44.22","KINGSTON CLIMATE","6104142","2020-06-21 19:00","2020","06","21","19:00","25.3","","20.3","","74","","0.0","","20","","4","","","","100.09","","33","","","","NA"
"-76.60","44.22","KINGSTON CLIMATE","6104142","2020-06-21 20:00","2020","06","21","20:00","23.2","","22.3","","94","","0.0","","21","","1","","","","100.09","","33","","","","NA"
"-76.60","44.22","KINGSTON CLIMATE","6104142","2020-06-21 21:00","2020","06","21","21:00","22.0","","22.0","","100","","0.0","","16","","3","","","","100.13","","31","","","","NA"
"-76.60","44.22","KINGSTON CLIMATE","6104142","2020-06-21 22:00","2020","06","21","22:00","21.6","","21.6","","100","","0.0","","","","0","","","","100.10","","31","","","","NA"
"-76.60","44.22","KINGSTON CLIMATE","6104142","2020-06-21 23:00","2020","06","21","23:00","20.8","","20.8","","100","","0.0","","10","","2","","","","100.07","","29","","","","NA"
"-76.60","44.22","KINGSTON CLIMATE","6104142","2020-06-22 00:00","2020","06","22","00:00","20.2","","20.1","","100","","0.0","","13","","4","","","","100.08","","28","","","","NA"
"-76.60","44.22","KINGSTON CLIMATE","6104142","2020-06-22 01:00","2020","06","22","01:00","20.0","","19.9","","100","","0.0","","6","","3","","","","100.06","","27","","","","NA"
"-76.60","44.22","KINGSTON CLIMATE","6104142","2020-06-22 02:00","2020","06","22","02:00","20.5","","20.5","","100","","0.0","","18","","3","","","","100.10","","28","","","","NA"
"-76.60","44.22","KINGSTON CLIMATE","6104142","2020-06-22 03:00","2020","06","22","03:00","21.2","","21.2","","100","","0.0","","14","","9","","","","100.12","","30","","","","NA"
"-76.60","44.22","KINGSTON CLIMATE","6104142","2020-06-22 04:00","2020","06","22","04:00","20.8","","20.8","","100","","0.0","","16","","7","","","","100.15","","29","","","","NA"
"-76.60","44.22","KINGSTON CLIMATE","6104142","2020-06-22 05:00","2020","06","22","05:00","21.4","","21.4","","100","","0.0","","17","","9","","","","100.14","","30","","","","NA"
"-76.60","44.22","KINGSTON CLIMATE","6104142","2020-06-22 06:00","2020","06","22","06:00","21.6","","21.6","","100","","0.0","","18","","15","","","","100.17","","31","","","","NA"
"-76.60","44.22","KINGSTON CLIMATE","6104142","2020-06-22 07:00","2020","06","22","07:00","22.3","","22.3","","100","","0.0","","17","","16","","","","100.21","","32","","","","NA"
"-76.60","44.22","KINGSTON CLIMATE","6104142","2020-06-22 08:00","2020","06","22","08:00","22.7","","21.7","","94","","0.0","","17","","15","","","","100.21","","32","","","","NA"
"-76.60","44.22","KINGSTON CLIMATE","6104142","2020-06-22 09:00","2020","06","22","09:00","23.3","","20.9","","86","","0.0","","19","","16","","","","100.22","","32","","","","NA"
"-76.60","44.22","KINGSTON CLIMATE","6104142","2020-06-22 10:00","2020","06","22","10:00","23.8","","21.2","","85","","0.0","","17","","16","","","","100.21","","32","","","","NA"
"-76.60","44.22","KINGSTON CLIMATE","6104142","2020-06-22 11:00","2020","06","22","11:00","25.4","","20.9","","76","","0.0","","19","","18","","","","100.22","","34","","","","NA"
"-76.60","44.22","KINGSTON CLIMATE","6104142","2020-06-22 12:00","2020","06","22","12:00","25.6","","19.5","","69","","0.0","","19","","17","","","","100.18","","33","","","","NA"
"-76.60","44.22","KINGSTON CLIMATE","6104142","2020-06-22 13:00","2020","06","22","13:00","26.5","","19.8","","66","","0.0","","19","","16","","","","100.11","","34","","","","NA"
"-76.60","44.22","KINGSTON CLIMATE","6104142","2020-06-22 14:00","2020","06","22","14:00","27.1","","19.3","","62","","0.0","","19","","16","","","","100.06","","34","","","","NA"
"-76.60","44.22","KINGSTON CLIMATE","6104142","2020-06-22 15:00","2020","06","22","15:00","27.8","","20.1","","63","","0.0","","18","","13","","","","99.98","","35","","","","NA"
"-76.60","44.22","KINGSTON CLIMATE","6104142","2020-06-22 16:00","2020","06","22","16:00","26.6","","19.9","","66","","0.0","","19","","11","","","","99.98","","34","","","","NA"
"-76.60","44.22","KINGSTON CLIMATE","6104142","2020-06-22 17:00","2020","06","22","17:00","27.5","","19.1","","60","","0.0","","17","","11","","","","99.89","","34","","","","NA"
"-76.60","44.22","KINGSTON CLIMATE","6104142","2020-06-22 18:00","2020","06","22","18:00","27.1","","19.2","","62","","0.0","","19","","9","","","","99.90","","34","","","","NA"
"-76.60","44.22","KINGSTON CLIMATE","6104142","2020-06-22 19:00","2020","06","22","19:00","25.8","","20.0","","71","","0.0","","17","","6","","","","99.88","","33","","","","NA"
"-76.60","44.22","KINGSTON CLIMATE","6104142","2020-06-22 20:00","2020","06","22","20:00","24.2","","19.5","","75","","0.0","","15","","3","","","","99.85","","31","","","","NA"
"-76.60","44.22","KINGSTON CLIMATE","6104142","2020-06-22 21:00","2020","06","22","21:00","23.1","","20.0","","83","","0.0","","","","0","","","","99.85","","31","","","","NA"
"-76.60","44.22","KINGSTON CLIMATE","6104142","2020-06-22 22:00","2020","06","22","22:00","23.2","","21.8","","92","","0.0","","21","","17","","","","99.87","","32","","","","NA"
"-76.60","44.22","KINGSTON CLIMATE","6104142","2020-06-22 23:00","2020","06","22","23:00","22.7","","22.7","","100","","0.0","","25","","15","","","","99.82","","33","","","","NA"
"-76.60","44.22","KINGSTON CLIMATE","6104142","2020-06-23 00:00","2020","06","23","00:00","22.2","","22.1","","100","","0.0","","30","","6","","","","99.78","","32","","","","NA"
"-76.60","44.22","KINGSTON CLIMATE","6104142","2020-06-23 01:00","2020","06","23","01:00","22.0","","21.8","","99","","0.0","","33","","8","","","","99.71","","31","","","","NA"
"-76.60","44.22","KINGSTON CLIMATE","6104142","2020-06-23 02:00","2020","06","23","02:00","22.8","","21.0","","90","","0.0","","16","","3","","","","99.69","","31","","","","NA"
"-76.60","44.22","KINGSTON CLIMATE","6104142","2020-06-23 03:00","2020","06","23","03:00","21.8","","21.8","","100","","0.0","","15","","13","","","","99.64","","31","","","","NA"
"-76.60","44.22","KINGSTON CLIMATE","6104142","2020-06-23 04:00","2020","06","23","04:00","21.8","","21.8","","100","","0.0","","18","","11","","","","99.62","","31","","","","NA"
"-76.60","44.22","KINGSTON CLIMATE","6104142","2020-06-23 05:00","2020","06","23","05:00","21.6","","21.6","","100","","0.0","","20","","11","","","","99.60","","31","","","","NA"
"-76.60","44.22","KINGSTON CLIMATE","6104142","2020-06-23 06:00","2020","06","23","06:00","22.3","","22.3","","100","","0.0","","16","","13","","","","99.56","","32","","","","NA"
"-76.60","44.22","KINGSTON CLIMATE","6104142","2020-06-23 07:00","2020","06","23","07:00","22.5","","22.5","","100","","0.0","","19","","15","","","","99.54","","32","","","","NA"
"-76.60","44.22","KINGSTON CLIMATE","6104142","2020-06-23 08:00","2020","06","23","08:00","23.4","","21.6","","90","","0.0","","20","","19","","","","99.52","","32","","","","NA"
"-76.60","44.22","KINGSTON CLIMATE","6104142","2020-06-23 09:00","2020","06","23","09:00","23.4","","22.0","","92","","0.0","","18","","20","","","","99.48","","33","","","","NA"
"-76.60","44.22","KINGSTON CLIMATE","6104142","2020-06-23 10:00","2020","06","23","10:00","24.2","","21.9","","87","","0.0","","18","","20","","","","99.49","","33","","","","NA"
"-76.60","44.22","KINGSTON CLIMATE","6104142","2020-06-23 11:00","2020","06","23","11:00","24.2","","21.5","","85","","0.0","","17","","19","","","","99.44","","33","","","","NA"
"-76.60","44.22","KINGSTON CLIMATE","6104142","2020-06-23 12:00","2020","06","23","12:00","23.9","","21.3","","85","","0.0","","17","","17","","","","99.37","","33","","","","NA"
"-76.60","44.22","KINGSTON CLIMATE","6104142","2020-06-23 13:00","2020","06","23","13:00","24.7","","21.0","","80","","0.0","","18","","12","","","","99.29","","33","","","","NA"
"-76.60","44.22","KINGSTON CLIMATE","6104142","2020-06-23 14:00","2020","06","23","14:00","25.5","","21.8","","80","","0.0","","17","","9","","","","99.21","","35","","","","NA"
"-76.60","44.22","KINGSTON CLIMATE","6104142","2020-06-23 15:00","2020","06","23","15:00","26.8","","18.7","","61","","0.0","","16","","9","","","","99.16","","33","","","","NA"
"-76.60","44.22","KINGSTON CLIMATE","6104142","2020-06-23 16:00","2020","06","23","16:00","26.2","","18.9","","64","","0.0","","15","","8","","","","99.10","","33","","","","NA"
"-76.60","44.22","KINGSTON CLIMATE","6104142","2020-06-23 17:00","2020","06","23","17:00","22.6","","22.6","","100","","0.5","","25","","9","","","","99.06","","32","","","","NA"
"-76.60","44.22","KINGSTON CLIMATE","6104142","2020-06-23 18:00","2020","06","23","18:00","23.1","","23.1","","100","","0.0","","14","","5","","","","98.98","","33","","","","NA"
"-76.60","44.22","KINGSTON CLIMATE","6104142","2020-06-23 19:00","2020","06","23","19:00","22.6","","22.6","","100","","0.0","","20","","16","","","","98.98","","32","","","","NA"
"-76.60","44.22","KINGSTON CLIMATE","6104142","2020-06-23 20:00","2020","06","23","20:00","20.4","","20.4","","100","","0.6","","20","","18","","","","99.01","","28","","","","NA"
"-76.60","44.22","KINGSTON CLIMATE","6104142","2020-06-23 21:00","2020","06","23","21:00","20.6","","20.6","","100","","0.7","","18","","12","","","","99.02","","29","","","","NA"
"-76.60","44.22","KINGSTON CLIMATE","6104142","2020-06-23 22:00","2020","06","23","22:00","20.8","","20.8","","100","","0.1","","22","","12","","","","98.98","","29","","","","NA"
"-76.60","44.22","KINGSTON CLIMATE","6104142","2020-06-23 23:00","2020","06","23","23:00","20.9","","20.9","","100","","0.2","","21","","17","","","","98.95","","29","","","","NA"
"-76.60","44.22","KINGSTON CLIMATE","6104142","2020-06-24 00:00","2020","06","24","00:00","20.5","","20.5","","100","","0.0","","21","","26","","","","98.95","","28","","","","NA"
"-76.60","44.22","KINGSTON CLIMATE","6104142","2020-06-24 01:00","2020","06","24","01:00","19.1","","17.9","","92","","0.0","","22","","29","","","","99.02","","","","","","NA"
"-76.60","44.22","KINGSTON CLIMATE","6104142","2020-06-24 02:00","2020","06","24","02:00","19.2","","15.6","","80","","0.0","","23","","39","","","","99.01","","","","","","NA"
"-76.60","44.22","KINGSTON CLIMATE","6104142","2020-06-24 03:00","2020","06","24","03:00","18.8","","15.3","","80","","0.0","","23","","31","","","","99.03","","","","","","NA"
"-76.60","44.22","KINGSTON CLIMATE","6104142","2020-06-24 04:00","2020","06","24","04:00","18.5","","13.8","","74","","0.0","","22","","27","","","","99.07","","","","","","NA"
"-76.60","44.22","KINGSTON CLIMATE","6104142","2020-06-24 05:00","2020","06","24","05:00","18.5","","13.4","","72","","0.0","","23","","26","","","","99.12","","","","","","NA"
"-76.60","44.22","KINGSTON CLIMATE","6104142","2020-06-24 06:00","2020","06","24","06:00","18.4","","13.3","","72","","0.0","","24","","34","","","","99.16","","","","","","NA"
"-76.60","44.22","KINGSTON CLIMATE","6104142","2020-06-24 07:00","2020","06","24","07:00","18.2","","12.5","","69","","0.0","","23","","29","","","","99.20","","","","","","NA"
"-76.60","44.22","KINGSTON CLIMATE","6104142","2020-06-24 08:00","2020","06","24","08:00","18.2","","13.5","","74","","0.0","","23","","30","","","","99.23","","","","","","NA"
"-76.60","44.22","KINGSTON CLIMATE","6104142","2020-06-24 09:00","2020","06","24","09:00","18.3","","13.2","","72","","0.0","","23","","35","","","","99.27","","","","","","NA"
"-76.60","44.22","KINGSTON CLIMATE","6104142","2020-06-24 10:00","2020","06","24","10:00","18.8","","13.0","","69","","0.0","","23","","37","","","","99.29","","","","","","NA"
"-76.60","44.22","KINGSTON CLIMATE","6104142","2020-06-24 11:00","2020","06","24","11:00","19.9","","13.7","","67","","0.0","","23","","36","","","","99.32","","","","","","NA"
"-76.60","44.22","KINGSTON CLIMATE","6104142","2020-06-24 12:00","2020","06","24","12:00","19.0","","12.4","","66","","0.0","","23","","36","","","","99.37","","","","","","NA"
"-76.60","44.22","KINGSTON CLIMATE","6104142","2020-06-24 13:00","2020","06","24","13:00","19.4","","12.4","","64","","0.0","","24","","35","","","","99.42","","","","","","NA"
"-76.60","44.22","KINGSTON CLIMATE","6104142","2020-06-24 14:00","2020","06","24","14:00","20.7","","11.6","","56","","0.0","","24","","36","","","","99.48","","","","","","NA"
"-76.60","44.22","KINGSTON CLIMATE","6104142","2020-06-24 15:00","2020","06","24","15:00","21.0","","11.5","","55","","0.0","","24","","32","","","","99.52","","","","","","NA"
"-76.60","44.22","KINGSTON CLIMATE","6104142","2020-06-24 16:00","2020","06","24","16:00","21.5","","11.6","","53","","0.0","","24","","27","","","","99.52","","","","","","NA"
"-76.60","44.22","KINGSTON CLIMATE","6104142","2020-06-24 17:00","2020","06","24","17:00","20.7","","10.5","","52","","0.0","","23","","29","","","","99.54","","","","","","NA"
"-76.60","44.22","KINGSTON CLIMATE","6104142","2020-06-24 18:00","2020","06","24","18:00","20.0","","10.6","","55","","0.0","","23","","28","","","","99.59","","","","","","NA"
"-76.60","44.22","KINGSTON CLIMATE","6104142","2020-06-24 19:00","2020","06","24","19:00","19.3","","11.3","","60","","0.0","","23","","20","","","","99.66","","","","","","NA"
"-76.60","44.22","KINGSTON CLIMATE","6104142","2020-06-24 20:00","2020","06","24","20:00","18.5","","11.8","","65","","0.0","","24","","15","","","","99.71","","","","","","NA"
"-76.60","44.22","KINGSTON CLIMATE","6104142","2020-06-24 21:00","2020","06","24","21:00","18.2","","11.7","","66","","0.0","","24","","14","","","","99.74","","","","","","NA"
"-76.60","44.22","KINGSTON CLIMATE","6104142","2020-06-24 22:00","2020","06","24","22:00","16.8","","12.6","","76","","0.0","","22","","13","","","","99.73","","","","","","NA"
"-76.60","44.22","KINGSTON CLIMATE","6104142","2020-06-24 23:00","2020","06","24","23:00","16.9","","12.3","","75","","0.0","","22","","15","","","","99.72","","","","","","NA"
"-76.60","44.22","KINGSTON CLIMATE","6104142","2020-06-25 00:00","2020","06","25","00:00","16.8","","12.4","","75","","0.0","","22","","18","","","","99.75","","","","","","NA"
"-76.60","44.22","KINGSTON CLIMATE","6104142","2020-06-25 01:00","2020","06","25","01:00","16.4","","12.6","","78","","0.0","","23","","16","","","","99.77","","","","","","NA"
"-76.60","44.22","KINGSTON CLIMATE","6104142","2020-06-25 02:00","2020","06","25","02:00","16.2","","13.2","","83","","0.0","","23","","14","","","","99.78","","","","","","NA"
"-76.60","44.22","KINGSTON CLIMATE","6104142","2020-06-25 03:00","2020","06","25","03:00","16.5","","14.3","","87","","0.0","","23","","19","","","","99.81","","","","","","NA"
"-76.60","44.22","KINGSTON CLIMATE","6104142","2020-06-25 04:00","2020","06","25","04:00","16.0","","15.2","","95","","0.0","","23","","17","","","","99.86","","","","","","NA"
"-76.60","44.22","KINGSTON CLIMATE","6104142","2020-06-25 05:00","2020","06","25","05:00","15.4","","15.3","","99","","0.0","","23","","15","","","","99.94","","","","","","NA"
"-76.60","44.22","KINGSTON CLIMATE","6104142","2020-06-25 06:00","2020","06","25","06:00","16.6","","12.7","","78","","0.0","","24","","14","","","","100.00","","","","","","NA"
"-76.60","44.22","KINGSTON CLIMATE","6104142","2020-06-25 07:00","2020","06","25","07:00","17.6","","12.3","","71","","0.0","","24","","19","","","","100.06","","","","","","NA"
"-76.60","44.22","KINGSTON CLIMATE","6104142","2020-06-25 08:00","2020","06","25","08:00","18.6","","12.0","","65","","0.0","","23","","18","","","","100.10","","","","","","NA"
"-76.60","44.22","KINGSTON CLIMATE","6104142","2020-06-25 09:00","2020","06","25","09:00","20.2","","11.5","","57","","0.0","","24","","20","","","","100.13","","","","","","NA"
"-76.60","44.22","KINGSTON CLIMATE","6104142","2020-06-25 10:00","2020","06","25","10:00","21.0","","10.8","","52","","0.0","","23","","23","","","","100.15","","","","","","NA"
"-76.60","44.22","KINGSTON CLIMATE","6104142","2020-06-25 11:00","2020","06","25","11:00","22.4","","11.2","","49","","0.0","","23","","22","","","","100.17","","","","","","NA"
"-76.60","44.22","KINGSTON CLIMATE","6104142","2020-06-25 12:00","2020","06","25","12:00","21.5","","12.7","","57","","0.0","","19","","26","","","","100.17","","","","","","NA"
"-76.60","44.22","KINGSTON CLIMATE","6104142","2020-06-25 13:00","2020","06","25","13:00","20.6","","13.7","","64","","0.0","","19","","28","","","","100.18","","","","","","NA"
"-76.60","44.22","KINGSTON CLIMATE","6104142","2020-06-25 14:00","2020","06","25","14:00","21.4","","12.9","","58","","0.0","","19","","25","","","","100.16","","","","","","NA"
"-76.60","44.22","KINGSTON CLIMATE","6104142","2020-06-25 15:00","2020","06","25","15:00","21.7","","12.5","","56","","0.0","","18","","21","","","","100.12","","","","","","NA"
"-76.60","44.22","KINGSTON CLIMATE","6104142","2020-06-25 16:00","2020","06","25","16:00","19.4","","13.0","","67","","0.0","","18","","23","","","","100.07","","","","","","NA"
"-76.60","44.22","KINGSTON CLIMATE","6104142","2020-06-25 17:00","2020","06","25","17:00","18.9","","13.5","","71","","0.0","","18","","20","","","","100.07","","","","","","NA"
"-76.60","44.22","KINGSTON CLIMATE","6104142","2020-06-25 18:00","2020","06","25","18:00","18.3","","14.0","","76","","0.0","","19","","19","","","","100.08","","","","","","NA"
"-76.60","44.22","KINGSTON CLIMATE","6104142","2020-06-25 19:00","2020","06","25","19:00","18.6","","13.2","","71","","0.0","","21","","16","","","","100.10","","","","","","NA"
"-76.60","44.22","KINGSTON CLIMATE","6104142","2020-06-25 20:00","2020","06","25","20:00","17.6","","12.5","","72","","0.0","","23","","8","","","","100.12","","","","","","NA"
"-76.60","44.22","KINGSTON CLIMATE","6104142","2020-06-25 21:00","2020","06","25","21:00","17.1","","12.0","","72","","0.0","","23","","5","","","","100.15","","","","","","NA"
"-76.60","44.22","KINGSTON CLIMATE","6104142","2020-06-25 22:00","2020","06","25","22:00","16.7","","13.3","","80","","0.0","","21","","7","","","","100.14","","","","","","NA"
"-76.60","44.22","KINGSTON CLIMATE","6104142","2020-06-25 23:00","2020","06","25","23:00","17.4","","15.8","","91","","0.2","","22","","9","","","","100.15","","","","","","NA"
"-76.60","44.22","KINGSTON CLIMATE","6104142","2020-06-26 00:00","2020","06","26","00:00","16.7","","16.7","","100","","0.0","","21","","10","","","","100.15","","","","","","NA"
"-76.60","44.22","KINGSTON CLIMATE","6104142","2020-06-26 01:00","2020","06","26","01:00","16.5","","16.4","","100","","0.0","","25","","6","","","","100.14","","","","","","NA"
"-76.60","44.22","KINGSTON CLIMATE","6104142","2020-06-26 02:00","2020","06","26","02:00","15.4","","15.4","","100","","0.0","","26","","7","","","","100.14","","","","","","NA"
"-76.60","44.22","KINGSTON CLIMATE","6104142","2020-06-26 03:00","2020","06","26","03:00","15.4","","15.4","","100","","0.0","","25","","8","","","","100.16","","","","","","NA"
"-76.60","44.22","KINGSTON CLIMATE","6104142","2020-06-26 04:00","2020","06","26","04:00","14.4","","14.4","","100","","0.0","","24","","5","","","","100.18","","","","","","NA"
"-76.60","44.22","KINGSTON CLIMATE","6104142","2020-06-26 05:00","2020","06","26","05:00","14.8","","14.7","","100","","0.0","","21","","4","","","","100.19","","","","","","NA"
"-76.60","44.22","KINGSTON CLIMATE","6104142","2020-06-26 06:00","2020","06","26","06:00","16.8","","16.7","","100","","0.0","","23","","8","","","","100.21","","","","","","NA"
"-76.60","44.22","KINGSTON CLIMATE","6104142","2020-06-26 07:00","2020","06","26","07:00","18.2","","17.7","","97","","0.0","","24","","10","","","","100.22","","","","","","NA"
"-76.60","44.22","KINGSTON CLIMATE","6104142","2020-06-26 08:00","2020","06","26","08:00","20.3","","16.5","","79","","0.0","","24","","15","","","","100.21","","25","","","","NA"
"-76.60","44.22","KINGSTON CLIMATE","6104142","2020-06-26 09:00","2020","06","26","09:00","21.3","","17.9","","81","","0.0","","20","","13","","","","100.18","","27","","","","NA"
"-76.60","44.22","KINGSTON CLIMATE","6104142","2020-06-26 10:00","2020","06","26","10:00","22.8","","16.7","","69","","0.0","","19","","14","","","","100.15","","28","","","","NA"
"-76.60","44.22","KINGSTON CLIMATE","6104142","2020-06-26 11:00","2020","06","26","11:00","22.8","","15.8","","65","","0.0","","19","","24","","","","100.12","","27","","","","NA"
"-76.60","44.22","KINGSTON CLIMATE","6104142","2020-06-26 12:00","2020","06","26","12:00","22.0","","14.8","","63","","0.0","","19","","21","","","","100.09","","26","","","","NA"
"-76.60","44.22","KINGSTON CLIMATE","6104142","2020-06-26 13:00","2020","06","26","13:00","24.3","","14.0","","53","","0.0","","19","","26","","","","100.02","","28","","","","NA"
"-76.60","44.22","KINGSTON CLIMATE","6104142","2020-06-26 14:00","2020","06","26","14:00","22.2","","14.2","","61","","0.0","","19","","23","","","","100.01","","26","","","","NA"
"-76.60","44.22","KINGSTON CLIMATE","6104142","2020-06-26 15:00","2020","06","26","15:00","23.0","","13.8","","56","","0.0","","20","","22","","","","99.99","","26","","","","NA"
"-76.60","44.22","KINGSTON CLIMATE","6104142","2020-06-26 16:00","2020","06","26","16:00","26.5","","12.0","","40","","0.0","","21","","22","","","","99.96","","29","","","","NA"
"-76.60","44.22","KINGSTON CLIMATE","6104142","2020-06-26 17:00","2020","06","26","17:00","25.9","","11.7","","41","","0.0","","23","","23","","","","99.93","","28","","","","NA"
"-76.60","44.22","KINGSTON CLIMATE","6104142","2020-06-26 18:00","2020","06","26","18:00","24.0","","13.1","","51","","0.0","","24","","20","","","","99.93","","27","","","","NA"
"-76.60","44.22","KINGSTON CLIMATE","6104142","2020-06-26 19:00","2020","06","26","19:00","23.2","","13.6","","55","","0.0","","24","","13","","","","99.91","","26","","","","NA"
"-76.60","44.22","KINGSTON CLIMATE","6104142","2020-06-26 20:00","2020","06","26","20:00","21.2","","13.9","","63","","0.0","","24","","10","","","","99.92","","25","","","","NA"
"-76.60","44.22","KINGSTON CLIMATE","6104142","2020-06-26 21:00","2020","06","26","21:00","20.7","","14.1","","66","","0.0","","24","","13","","","","99.94","","","","","","NA"
"-76.60","44.22","KINGSTON CLIMATE","6104142","2020-06-26 22:00","2020","06","26","22:00","19.4","","14.0","","71","","0.0","","24","","8","","","","99.92","","","","","","NA"
"-76.60","44.22","KINGSTON CLIMATE","6104142","2020-06-26 23:00","2020","06","26","23:00","19.1","","13.6","","70","","0.0","","24","","11","","","","99.88","","","","","","NA"
"-76.60","44.22","KINGSTON CLIMATE","6104142","2020-06-27 00:00","2020","06","27","00:00","18.4","","12.8","","70","","0.0","","19","","5","","","","99.82","","","","","","NA"
"-76.60","44.22","KINGSTON CLIMATE","6104142","2020-06-27 01:00","2020","06","27","01:00","16.6","","14.8","","89","","0.0","","19","","11","","","","99.80","","","","","","NA"
"-76.60","44.22","KINGSTON CLIMATE","6104142","2020-06-27 02:00","2020","06","27","02:00","16.2","","15.4","","95","","0.0","","19","","9","","","","99.75","","","","","","NA"
"-76.60","44.22","KINGSTON CLIMATE","6104142","2020-06-27 03:00","2020","06","27","03:00","16.4","","15.1","","92","","0.0","","20","","7","","","","99.71","","","","","","NA"
"-76.60","44.22","KINGSTON CLIMATE","6104142","2020-06-27 04:00","2020","06","27","04:00","17.6","","17.1","","97","","0.0","","16","","11","","","","99.70","","","","","","NA"
"-76.60","44.22","KINGSTON CLIMATE","6104142","2020-06-27 05:00","2020","06","27","05:00","18.0","","18.0","","100","","0.0","","19","","7","","","","99.66","","","","","","NA"
"-76.60","44.22","KINGSTON CLIMATE","6104142","2020-06-27 06:00","2020","06","27","06:00","18.3","","18.3","","100","","0.0","","16","","10","","","","99.58","","","","","","NA"
"-76.60","44.22","KINGSTON CLIMATE","6104142","2020-06-27 07:00","2020","06","27","07:00","18.5","","18.1","","98","","0.0","","19","","9","","","","99.56","","","","","","NA"
"-76.60","44.22","KINGSTON CLIMATE","6104142","2020-06-27 08:00","2020","06","27","08:00","19.4","","17.0","","86","","0.0","","17","","14","","","","99.51","","","","","","NA"
"-76.60","44.22","KINGSTON CLIMATE","6104142","2020-06-27 09:00","2020","06","27","09:00","18.6","","18.3","","98","","0.0","","18","","15","","","","99.53","","","","","","NA"
"-76.60","44.22","KINGSTON CLIMATE","6104142","2020-06-27 10:00","2020","06","27","10:00","18.2","","18.2","","100","","0.0","","21","","9","","","","99.55","","","","","","NA"
"-76.60","44.22","KINGSTON CLIMATE","6104142","2020-06-27 11:00","2020","06","27","11:00","18.2","","18.2","","100","","0.2","","16","","16","","","","99.53","","","","","","NA"
"-76.60","44.22","KINGSTON CLIMATE","6104142","2020-06-27 12:00","2020","06","27","12:00","19.0","","19.0","","100","","0.6","","16","","19","","","","99.46","","","","","","NA"
"-76.60","44.22","KINGSTON CLIMATE","6104142","2020-06-27 13:00","2020","06","27","13:00","19.0","","18.9","","100","","0.0","","18","","18","","","","99.46","","","","","","NA"
"-76.60","44.22","KINGSTON CLIMATE","6104142","2020-06-27 14:00","2020","06","27","14:00","19.4","","19.4","","100","","0.0","","18","","18","","","","99.42","","","","","","NA"
"-76.60","44.22","KINGSTON CLIMATE","6104142","2020-06-27 15:00","2020","06","27","15:00","19.3","","19.3","","100","","0.0","","18","","14","","","","99.37","","","","","","NA"
"-76.60","44.22","KINGSTON CLIMATE","6104142","2020-06-27 16:00","2020","06","27","16:00","20.5","","20.4","","100","","0.0","","18","","22","","","","99.31","","28","","","","NA"
"-76.60","44.22","KINGSTON CLIMATE","6104142","2020-06-27 17:00","2020","06","27","17:00","19.6","","19.6","","100","","0.0","","14","","11","","","","99.31","","","","","","NA"
"-76.60","44.22","KINGSTON CLIMATE","6104142","2020-06-27 18:00","2020","06","27","18:00","19.6","","19.6","","100","","0.0","","18","","11","","","","99.31","","","","","","NA"
"-76.60","44.22","KINGSTON CLIMATE","6104142","2020-06-27 19:00","2020","06","27","19:00","17.7","","17.7","","100","","23.1","","35","","31","","","","99.38","","","","","","NA"
"-76.60","44.22","KINGSTON CLIMATE","6104142","2020-06-27 20:00","2020","06","27","20:00","18.9","","18.9","","100","","13.0","","23","","17","","","","99.36","","","","","","NA"
"-76.60","44.22","KINGSTON CLIMATE","6104142","2020-06-27 21:00","2020","06","27","21:00","18.7","","18.7","","100","","0.0","","25","","12","","","","99.39","","","","","","NA"
"-76.60","44.22","KINGSTON CLIMATE","6104142","2020-06-27 22:00","2020","06","27","22:00","18.2","","18.2","","100","","0.0","","25","","8","","","","99.39","","","","","","NA"
"-76.60","44.22","KINGSTON CLIMATE","6104142","2020-06-27 23:00","2020","06","27","23:00","18.5","","18.5","","100","","0.0","","24","","12","","","","99.40","","","","","","NA"
"-76.60","44.22","KINGSTON CLIMATE","6104142","2020-06-28 00:00","2020","06","28","00:00","17.0","","17.0","","100","","0.0","","27","","4","","","","99.40","","","","","","NA"
"-76.60","44.22","KINGSTON CLIMATE","6104142","2020-06-28 01:00","2020","06","28","01:00","16.5","","16.5","","100","","0.0","","29","","1","","","","99.39","","","","","","NA"
"-76.60","44.22","KINGSTON CLIMATE","6104142","2020-06-28 02:00","2020","06","28","02:00","16.8","","16.8","","100","","0.0","","18","","2","","","","99.35","","","","","","NA"
"-76.60","44.22","KINGSTON CLIMATE","6104142","2020-06-28 03:00","2020","06","28","03:00","17.3","","17.3","","100","","0.0","","0","","1","","","","99.33","","","","","","NA"
"-76.60","44.22","KINGSTON CLIMATE","6104142","2020-06-28 04:00","2020","06","28","04:00","17.2","","17.2","","100","","0.0","","33","","8","","","","99.40","","","","","","NA"
"-76.60","44.22","KINGSTON CLIMATE","6104142","2020-06-28 05:00","2020","06","28","05:00","17.9","","17.9","","100","","0.0","","17","","13","","","","99.43","","","","","","NA"
"-76.60","44.22","KINGSTON CLIMATE","6104142","2020-06-28 06:00","2020","06","28","06:00","19.0","","19.0","","100","","0.0","","23","","2","","","","99.47","","","","","","NA"
"-76.60","44.22","KINGSTON CLIMATE","6104142","2020-06-28 07:00","2020","06","28","07:00","20.5","","20.5","","100","","0.0","","25","","4","","","","99.50","","28","","","","NA"
"-76.60","44.22","KINGSTON CLIMATE","6104142","2020-06-28 08:00","2020","06","28","08:00","21.4","","19.8","","91","","0.0","","29","","4","","","","99.52","","29","","","","NA"
"-76.60","44.22","KINGSTON CLIMATE","6104142","2020-06-28 09:00","2020","06","28","09:00","21.2","","20.9","","98","","0.0","","21","","11","","","","99.55","","30","","","","NA"
"-76.60","44.22","KINGSTON CLIMATE","6104142","2020-06-28 10:00","2020","06","28","10:00","22.6","","20.3","","87","","0.0","","22","","9","","","","99.55","","30","","","","NA"
"-76.60","44.22","KINGSTON CLIMATE","6104142","2020-06-28 11:00","2020","06","28","11:00","23.5","","19.7","","79","","0.0","","21","","13","","","","99.57","","31","","","","NA"
"-76.60","44.22","KINGSTON CLIMATE","6104142","2020-06-28 12:00","2020","06","28","12:00","22.4","","19.3","","82","","0.0","","18","","18","","","","99.53","","29","","","","NA"
"-76.60","44.22","KINGSTON CLIMATE","6104142","2020-06-28 13:00","2020","06","28","13:00","23.5","","20.9","","86","","0.0","","19","","13","","","","99.55","","32","","","","NA"
"-76.60","44.22","KINGSTON CLIMATE","6104142","2020-06-28 14:00","2020","06","28","14:00","23.8","","20.4","","82","","0.0","","20","","13","","","","99.54","","32","","","","NA"
"-76.60","44.22","KINGSTON CLIMATE","6104142","2020-06-28 15:00","2020","06","28","15:00","25.3","","18.2","","65","","0.0","","23","","10","","","","99.53","","31","","","","NA"
"-76.60","44.22","KINGSTON CLIMATE","6104142","2020-06-28 16:00","2020","06","28","16:00","26.1","","19.6","","68","","0.0","","23","","11","","","","99.54","","33","","","","NA"
"-76.60","44.22","KINGSTON CLIMATE","6104142","2020-06-28 17:00","2020","06","28","17:00","27.1","","16.6","","53","","0.0","","32","","15","","","","99.54","","32","","","","NA"
"-76.60","44.22","KINGSTON CLIMATE","6104142","2020-06-28 18:00","2020","06","28","18:00","26.7","","16.5","","54","","0.0","","35","","16","","","","99.58","","32","","","","NA"
"-76.60","44.22","KINGSTON CLIMATE","6104142","2020-06-28 19:00","2020","06","28","19:00","23.9","","17.6","","68","","0.0","","32","","11","","","","99.63","","30","","","","NA"
"-76.60","44.22","KINGSTON CLIMATE","6104142","2020-06-28 20:00","2020","06","28","20:00","22.6","","17.6","","73","","0.0","","7","","13","","","","99.70","","28","","","","NA"
"-76.60","44.22","KINGSTON CLIMATE","6104142","2020-06-28 21:00","2020","06","28","21:00","21.1","","16.4","","74","","0.0","","8","","8","","","","99.78","","26","","","","NA"
"-76.60","44.22","KINGSTON CLIMATE","6104142","2020-06-28 22:00","2020","06","28","22:00","19.5","","16.4","","82","","0.0","","8","","4","","","","99.83","","","","","","NA"
"-76.60","44.22","KINGSTON CLIMATE","6104142","2020-06-28 23:00","2020","06","28","23:00","18.8","","18.7","","100","","0.0","","26","","4","","","","99.82","","","","","","NA"
"-76.60","44.22","KINGSTON CLIMATE","6104142","2020-06-29 00:00","2020","06","29","00:00","17.8","","17.8","","100","","0.0","","29","","4","","","","99.84","","","","","","NA"
"-76.60","44.22","KINGSTON CLIMATE","6104142","2020-06-29 01:00","2020","06","29","01:00","16.5","","16.5","","100","","0.0","","33","","10","","","","99.85","","","","","","NA"
"-76.60","44.22","KINGSTON CLIMATE","6104142","2020-06-29 02:00","2020","06","29","02:00","16.2","","16.1","","100","","0.0","","2","","8","","","","99.85","","","","","","NA"
"-76.60","44.22","KINGSTON CLIMATE","6104142","2020-06-29 03:00","2020","06","29","03:00","16.4","","16.3","","100","","0.0","","3","","2","","","","99.89","","","","","","NA"
"-76.60","44.22","KINGSTON CLIMATE","6104142","2020-06-29 04:00","2020","06","29","04:00","15.3","","15.2","","100","","0.0","","2","","4","","","","100.00","","","","","","NA"
"-76.60","44.22","KINGSTON CLIMATE","6104142","2020-06-29 05:00","2020","06","29","05:00","14.8","","14.8","","100","","0.0","","33","","7","","","","100.02","","","","","","NA"
"-76.60","44.22","KINGSTON CLIMATE","6104142","2020-06-29 06:00","2020","06","29","06:00","18.4","","18.3","","100","","0.0","","34","","5","","","","100.10","","","","","","NA"
"-76.60","44.22","KINGSTON CLIMATE","6104142","2020-06-29 07:00","2020","06","29","07:00","20.9","","20.0","","94","","0.0","","5","","10","","","","100.17","","28","","","","NA"
"-76.60","44.22","KINGSTON CLIMATE","6104142","2020-06-29 08:00","2020","06","29","08:00","22.0","","19.3","","85","","0.0","","10","","4","","","","100.21","","29","","","","NA"
"-76.60","44.22","KINGSTON CLIMATE","6104142","2020-06-29 09:00","2020","06","29","09:00","23.5","","18.7","","74","","0.0","","11","","8","","","","100.21","","30","","","","NA"
"-76.60","44.22","KINGSTON CLIMATE","6104142","2020-06-29 10:00","2020","06","29","10:00","24.8","","17.9","","65","","0.0","","5","","8","","","","100.21","","31","","","","NA"
"-76.60","44.22","KINGSTON CLIMATE","6104142","2020-06-29 11:00","2020","06","29","11:00","23.6","","19.0","","75","","0.0","","17","","13","","","","100.20","","30","","","","NA"
"-76.60","44.22","KINGSTON CLIMATE","6104142","2020-06-29 12:00","2020","06","29","12:00","23.3","","18.2","","73","","0.0","","14","","11","","","","100.22","","29","","","","NA"
"-76.60","44.22","KINGSTON CLIMATE","6104142","2020-06-29 13:00","2020","06","29","13:00","22.6","","20.4","","87","","0.0","","18","","12","","","","100.21","","31","","","","NA"
"-76.60","44.22","KINGSTON CLIMATE","6104142","2020-06-29 14:00","2020","06","29","14:00","23.6","","20.3","","82","","0.0","","21","","11","","","","100.24","","31","","","","NA"
"-76.60","44.22","KINGSTON CLIMATE","6104142","2020-06-29 15:00","2020","06","29","15:00","25.2","","20.6","","76","","0.0","","24","","12","","","","100.24","","33","","","","NA"
"-76.60","44.22","KINGSTON CLIMATE","6104142","2020-06-29 16:00","2020","06","29","16:00","25.4","","19.2","","68","","0.0","","13","","12","","","","100.26","","32","","","","NA"
"-76.60","44.22","KINGSTON CLIMATE","6104142","2020-06-29 17:00","2020","06","29","17:00","23.7","","19.3","","76","","3.2","","32","","3","","","","100.25","","31","","","","NA"
"-76.60","44.22","KINGSTON CLIMATE","6104142","2020-06-29 18:00","2020","06","29","18:00","23.7","","17.8","","70","","0.0","","30","","8","","","","100.30","","30","","","","NA"
"-76.60","44.22","KINGSTON CLIMATE","6104142","2020-06-29 19:00","2020","06","29","19:00","23.3","","18.4","","74","","0.0","","4","","16","","","","100.30","","30","","","","NA"
"-76.60","44.22","KINGSTON CLIMATE","6104142","2020-06-29 20:00","2020","06","29","20:00","21.7","","19.7","","88","","0.0","","4","","10","","","","100.32","","29","","","","NA"
"-76.60","44.22","KINGSTON CLIMATE","6104142","2020-06-29 21:00","2020","06","29","21:00","21.1","","20.0","","93","","0.0","","6","","12","","","","100.42","","29","","","","NA"
"-76.60","44.22","KINGSTON CLIMATE","6104142","2020-06-29 22:00","2020","06","29","22:00","20.1","","19.2","","95","","0.0","","4","","9","","","","100.41","","27","","","","NA"
"-76.60","44.22","KINGSTON CLIMATE","6104142","2020-06-29 23:00","2020","06","29","23:00","17.9","","17.9","","100","","0.0","","34","","9","","","","100.42","","","","","","NA"
"-76.60","44.22","KINGSTON CLIMATE","6104142","2020-06-30 00:00","2020","06","30","00:00","18.2","","18.2","","100","","0.0","","34","","8","","","","100.41","","","","","","NA"
"-76.60","44.22","KINGSTON CLIMATE","6104142","2020-06-30 01:00","2020","06","30","01:00","19.2","","19.2","","100","","0.0","","1","","11","","","","100.38","","","","","","NA"
"-76.60","44.22","KINGSTON CLIMATE","6104142","2020-06-30 02:00","2020","06","30","02:00","19.0","","18.9","","100","","0.0","","2","","13","","","","100.38","","","","","","NA"
"-76.60","44.22","KINGSTON CLIMATE","6104142","2020-06-30 03:00","2020","06","30","03:00","18.9","","18.2","","96","","0.0","","1","","13","","","","100.39","","","","","","NA"
"-76.60","44.22","KINGSTON CLIMATE","6104142","2020-06-30 04:00","2020","06","30","04:00","18.5","","18.4","","99","","0.0","","2","","13","","","","100.41","","","","","","NA"
"-76.60","44.22","KINGSTON CLIMATE","6104142","2020-06-30 05:00","2020","06","30","05:00","18.3","","18.3","","100","","0.0","","1","","14","","","","100.44","","","","","","NA"
"-76.60","44.22","KINGSTON CLIMATE","6104142","2020-06-30 06:00","2020","06","30","06:00","19.1","","18.0","","93","","0.0","","2","","13","","","","100.45","","","","","","NA"
"-76.60","44.22","KINGSTON CLIMATE","6104142","2020-06-30 07:00","2020","06","30","07:00","20.9","","17.5","","81","","0.0","","3","","17","","","","100.46","","27","","","","NA"
"-76.60","44.22","KINGSTON CLIMATE","6104142","2020-06-30 08:00","2020","06","30","08:00","21.8","","17.7","","77","","0.0","","4","","23","","","","100.45","","28","","","","NA"
"-76.60","44.22","KINGSTON CLIMATE","6104142","2020-06-30 09:00","2020","06","30","09:00","22.9","","16.3","","66","","0.0","","4","","17","","","","100.48","","28","","","","NA"
"-76.60","44.22","KINGSTON CLIMATE","6104142","2020-06-30 10:00","2020","06","30","10:00","22.9","","16.1","","66","","0.0","","4","","22","","","","100.46","","28","","","","NA"
"-76.60","44.22","KINGSTON CLIMATE","6104142","2020-06-30 11:00","2020","06","30","11:00","22.2","","16.2","","68","","0.0","","5","","20","","","","100.50","","27","","","","NA"
"-76.60","44.22","KINGSTON CLIMATE","6104142","2020-06-30 12:00","2020","06","30","12:00","22.4","","16.0","","67","","0.0","","3","","20","","","","100.50","","27","","","","NA"
"-76.60","44.22","KINGSTON CLIMATE","6104142","2020-06-30 13:00","2020","06","30","13:00","24.2","","16.5","","62","","0.0","","4","","24","","","","100.42","","29","","","","NA"
"-76.60","44.22","KINGSTON CLIMATE","6104142","2020-06-30 14:00","2020","06","30","14:00","24.7","","15.8","","58","","0.0","","6","","25","","","","100.36","","29","","","","NA"
"-76.60","44.22","KINGSTON CLIMATE","6104142","2020-06-30 15:00","2020","06","30","15:00","24.8","","17.0","","62","","0.0","","4","","22","","","","100.33","","30","","","","NA"
"-76.60","44.22","KINGSTON CLIMATE","6104142","2020-06-30 16:00","2020","06","30","16:00","24.2","","16.4","","62","","0.0","","6","","19","","","","100.32","","29","","","","NA"
"-76.60","44.22","KINGSTON CLIMATE","6104142","2020-06-30 17:00","2020","06","30","17:00","24.4","","16.4","","61","","0.0","","6","","17","","","","100.30","","29","","","","NA"
"-76.60","44.22","KINGSTON CLIMATE","6104142","2020-06-30 18:00","2020","06","30","18:00","23.7","","16.3","","64","","0.0","","3","","16","","","","100.32","","29","","","","NA"
"-76.60","44.22","KINGSTON CLIMATE","6104142","2020-06-30 19:00","2020","06","30","19:00","23.2","","16.4","","66","","0.0","","4","","18","","","","100.35","","28","","","","NA"
"-76.60","44.22","KINGSTON CLIMATE","6104142","2020-06-30 20:00","2020","06","30","20:00","21.6","","16.4","","72","","0.0","","5","","7","","","","100.37","","26","","","","NA"
"-76.60","44.22","KINGSTON CLIMATE","6104142","2020-06-30 21:00","2020","06","30","21:00","21.4","","16.9","","76","","0.0","","4","","7","","","","100.38","","27","","","","NA"
"-76.60","44.22","KINGSTON CLIMATE","6104142","2020-06-30 22:00","2020","06","30","22:00","19.0","","19.0","","100","","0.0","","33","","8","","","","100.37","","","","","","NA"
"-76.60","44.22","KINGSTON CLIMATE","6104142","2020-06-30 23:00","2020","06","30","23:00","19.2","","18.9","","98","","0.0","","1","","8","","","","100.35","","","","","","NA"
