"Longitude (x)","Latitude (y)","Station Name","Climate ID","Date/Time (LST)","Year","Month","Day","Time (LST)","Temp (°C)","Temp Flag","Dew Point Temp (°C)","Dew Point Temp Flag","Rel Hum (%)","Rel Hum Flag","Precip. Amount (mm)","Precip. Amount Flag","Wind Dir (10s deg)","Wind Dir Flag","Wind Spd (km/h)","Wind Spd Flag","Visibility (km)","Visibility Flag","Stn Press (kPa)","Stn Press Flag","Hmdx","Hmdx Flag","Wind Chill","Wind Chill Flag","Weather"
"-115.78","60.84","HAY RIVER A","2202401","2019-11-01 00:00","2019","11","01","00:00","1.8","","0.4","","90","","","","35","","8","","24.1","","99.95","","","","","","Rain"
"-115.78","60.84","HAY RIVER A","2202401","2019-11-01 01:00","2019","11","01","01:00","-0.2","","-0.6","","97","","","","32","","7","","24.1","","99.99","","","","-3","","NA"
"-115.78","60.84","HAY RIVER A","2202401","2019-11-01 02:00","2019","11","01","02:00","0.6","","-0.2","","95","","","","33","","13","","24.1","","100.04","","","","","","Mostly Cloudy"
"-115.78","60.84","HAY RIVER A","2202401","2019-11-01 03:00","2019","11","01","03:00","0.2","","-0.4","","96","","","","33","","20","","24.1","","100.09","","","","","","NA"
"-115.78","60.84","HAY RIVER A","2202401","2019-11-01 04:00","2019","11","01","04:00","0.4","","-1.2","","89","","","","32","","14","","24.1","","100.10","","","","","","NA"
"-115.78","60.84","HAY RIVER A","2202401","2019-11-01 05:00","2019","11","01","05:00","-1.0","","-4.0","","80","","","","31","","20","","24.1","","100.10","","","","-7","","Mainly Clear"
"-115.78","60.84","HAY RIVER A","2202401","2019-11-01 06:00","2019","11","01","06:00","-1.6","","-4.2","","82","","","","34","","11","","24.1","","100.13","","","","-5","","NA"
"-115.78","60.84","HAY RIVER A","2202401","2019-11-01 07:00","2019","11","01","07:00","-2.2","","-4.7","","83","","","","33","","8","","24.1","","100.16","","","","-5","","NA"
"-115.78","60.84","HAY RIVER A","2202401","2019-11-01 08:00","2019","11","01","08:00","-3.7","","-5.3","","88","","","","33","","6","","24.1","","100.14","","","","-6","","Mainly Clear"
"-115.78","60.84","HAY RIVER A","2202401","2019-11-01 09:00","2019","11","01","09:00","-5.6","","-6.9","","91","","","","23","","10","","24.1","","100.14","","","","-10","","NA"
"-115.78","60.84","HAY RIVER A","2202401","2019-11-01 10:00","2019","11","01","10:00","-3.8","","-6.0","","85","","","","24","","9","","24.1","","100.09","","","","-8","","NA"
"-115.78","60.84","HAY RIVER A","2202401","2019-11-01 11:00","2019","11","01","11:00","-1.8","","-4.9","","79","","","","20","","4","","24.1","","100.06","","","","-3","","Mostly Cloudy"
"-115.78","60.84","HAY RIVER A","2202401","2019-11-01 12:00","2019","11","01","12:00","-0.6","","-4.1","","77","","","","21","","6","","24.1","","100.02","","","","-3","","NA"
"-115.78","60.84","HAY RIVER A","2202401","2019-11-01 13:00","2019","11","01","13:00","-0.3","","-4.1","","76","","","","19","","9","","24.1","","99.97","","","","-3","","NA"
"-115.78","60.84","HAY RIVER A","2202401","2019-11-01 14:00","2019","11","01","14:00","0.4","","-4.8","","68","","","","15","","9","","24.1","","99.88","","","","","","Mainly Clear"
"-115.78","60.84","HAY RIVER A","2202401","2019-11-01 15:00","2019","11","01","15:00","-0.4","","-4.2","","76","","","","16","","10","","24.1","","99.81","","","","-4","","NA"
"-115.78","60.84","HAY RIVER A","2202401","2019-11-01 16:00","2019","11","01","16:00","-1.3","","-4.6","","78","","","","14","","10","","24.1","","99.78","","","","-5","","NA"
"-115.78","60.84","HAY RIVER A","2202401","2019-11-01 17:00","2019","11","01","17:00","-2.4","","-4.5","","86","","","","14","","12","","24.1","","99.72","","","","-7","","Mainly Clear"
"-115.78","60.84","HAY RIVER A","2202401","2019-11-01 18:00","2019","11","01","18:00","-3.3","","-4.7","","90","","","","16","","14","","24.1","","99.65","","","","-8","","NA"
"-115.78","60.84","HAY RIVER A","2202401","2019-11-01 19:00","2019","11","01","19:00","-3.3","","-4.3","","93","","","","18","","16","","24.1","","99.60","","","","-9","","NA"
"-115.78","60.84","HAY RIVER A","2202401","2019-11-01 20:00","2019","11","01","20:00","-3.2","","-3.7","","96","","","","14","","9","","24.1","","99.54","","","","-7","","Cloudy"
"-115.78","60.84","HAY RIVER A","2202401","2019-11-01 21:00","2019","11","01","21:00","-2.9","","-3.3","","97","","","","14","","6","","24.1","","99.47","","","","-5","","NA"
"-115.78","60.84","HAY RIVER A","2202401","2019-11-01 22:00","2019","11","01","22:00","-2.7","","-3.2","","96","","","","19","","10","","24.1","","99.43","","","","-7","","NA"
"-115.78","60.84","HAY RIVER A","2202401","2019-11-01 23:00","2019","11","01","23:00","-3.5","","-3.9","","97","","","","18","","8","","24.1","","99.43","","","","-7","","Cloudy"
"-115.78","60.84","HAY RIVER A","2202401","2019-11-02 00:00","2019","11","02","00:00","-4.2","","-4.7","","97","","","","36","","1","","24.1","","99.41","","","","-5","","NA"
"-115.78","60.84","HAY RIVER A","2202401","2019-11-02 01:00","2019","11","02","01:00","-5.8","","-6.5","","94","","","","36","","2","","24.1","","99.38","","","","-7","","NA"
"-115.78","60.84","HAY RIVER A","2202401","2019-11-02 02:00","2019","11","02","02:00","-6.9","","-7.8","","93","","","","36","","2","","24.1","","99.38","","","","-8","","Mainly Clear"
"-115.78","60.84","HAY RIVER A","2202401","2019-11-02 03:00","2019","11","02","03:00","-5.8","","-6.6","","94","","","","36","","3","","24.1","","99.37","","","","-7","","NA"
"-115.78","60.84","HAY RIVER A","2202401","2019-11-02 04:00","2019","11","02","04:00","-4.5","","-5.0","","96","","","","26","","10","","8.1","","99.36","","","","-9","","Fog"
"-115.78","60.84","HAY RIVER A","2202401","2019-11-02 05:00","2019","11","02","05:00","-4.6","","-5.2","","96","","","","26","","13","","1.6","","99.36","","","","-10","","Fog"
"-115.78","60.84","HAY RIVER A","2202401","2019-11-02 06:00","2019","11","02","06:00","-4.2","","-4.8","","96","","","","26","","12","","2.8","","99.37","","","","-9","","Freezing Drizzle,Fog"
"-115.78","60.84","HAY RIVER A","2202401","2019-11-02 07:00","2019","11","02","07:00","-3.6","","-4.0","","97","","","","29","","19","","2.8","","99.36","","","","-10","","Snow"
"-115.78","60.84","HAY RIVER A","2202401","2019-11-02 08:00","2019","11","02","08:00","-3.8","","-4.3","","96","","","","28","","21","","3.2","","99.41","","","","-10","","Snow"
"-115.78","60.84","HAY RIVER A","2202401","2019-11-02 09:00","2019","11","02","09:00","-4.1","","-4.6","","96","","","","28","","18","","2.8","","99.48","","","","-10","","Snow,Fog"
"-115.78","60.84","HAY RIVER A","2202401","2019-11-02 10:00","2019","11","02","10:00","-3.5","","-3.9","","97","","","","28","","20","","3.2","","99.50","","","","-10","","Snow,Fog"
"-115.78","60.84","HAY RIVER A","2202401","2019-11-02 11:00","2019","11","02","11:00","-2.5","","-2.9","","97","","","","30","","18","","8.1","","99.55","","","","-8","","Snow,Fog"
"-115.78","60.84","HAY RIVER A","2202401","2019-11-02 12:00","2019","11","02","12:00","-1.9","","-2.5","","95","","","","30","","17","","22.5","","99.56","","","","-7","","Snow"
"-115.78","60.84","HAY RIVER A","2202401","2019-11-02 13:00","2019","11","02","13:00","-2.1","","-2.8","","95","","","","30","","23","","2.8","","99.61","","","","-8","","Snow,Fog"
"-115.78","60.84","HAY RIVER A","2202401","2019-11-02 14:00","2019","11","02","14:00","-2.9","","-3.9","","93","","","","29","","20","","3.6","","99.67","","","","-9","","Snow,Fog"
"-115.78","60.84","HAY RIVER A","2202401","2019-11-02 15:00","2019","11","02","15:00","-2.6","","-3.7","","93","","","","31","","21","","3.6","","99.70","","","","-9","","Snow,Fog"
"-115.78","60.84","HAY RIVER A","2202401","2019-11-02 16:00","2019","11","02","16:00","-2.9","","-4.1","","91","","","","32","","35","","24.1","","99.77","","","","-11","","NA"
"-115.78","60.84","HAY RIVER A","2202401","2019-11-02 17:00","2019","11","02","17:00","-3.6","","-5.1","","90","","","","34","","12","","24.1","","99.87","","","","-8","","Cloudy"
"-115.78","60.84","HAY RIVER A","2202401","2019-11-02 18:00","2019","11","02","18:00","-3.1","","-5.2","","86","","","","33","","17","","16.1","","99.92","","","","-9","","Snow"
"-115.78","60.84","HAY RIVER A","2202401","2019-11-02 19:00","2019","11","02","19:00","-2.4","","-4.9","","83","","","","33","","24","","24.1","","99.96","","","","-9","","Snow"
"-115.78","60.84","HAY RIVER A","2202401","2019-11-02 20:00","2019","11","02","20:00","-2.4","","-6.3","","75","","","","34","","16","","24.1","","100.02","","","","-8","","Snow"
"-115.78","60.84","HAY RIVER A","2202401","2019-11-02 21:00","2019","11","02","21:00","-2.3","","-6.3","","74","","","","35","","10","","24.1","","100.07","","","","-6","","NA"
"-115.78","60.84","HAY RIVER A","2202401","2019-11-02 22:00","2019","11","02","22:00","-2.5","","-6.4","","75","","","","34","","12","","24.1","","100.13","","","","-7","","NA"
"-115.78","60.84","HAY RIVER A","2202401","2019-11-02 23:00","2019","11","02","23:00","-2.7","","-7.0","","73","","","","33","","20","","24.1","","100.19","","","","-9","","Cloudy"
"-115.78","60.84","HAY RIVER A","2202401","2019-11-03 00:00","2019","11","03","00:00","-3.5","","-8.2","","70","","","","34","","13","","24.1","","100.27","","","","-8","","NA"
"-115.78","60.84","HAY RIVER A","2202401","2019-11-03 01:00","2019","11","03","01:00","-3.8","","-8.3","","71","","","","33","","14","","24.1","","100.29","","","","-9","","NA"
"-115.78","60.84","HAY RIVER A","2202401","2019-11-03 02:00","2019","11","03","02:00","-3.6","","-7.2","","76","","","","33","","21","","24.1","","100.32","","","","-10","","Cloudy"
"-115.78","60.84","HAY RIVER A","2202401","2019-11-03 03:00","2019","11","03","03:00","-4.6","","-7.1","","83","","","","32","","23","","24.1","","100.37","","","","-12","","NA"
"-115.78","60.84","HAY RIVER A","2202401","2019-11-03 04:00","2019","11","03","04:00","-4.9","","-7.4","","83","","","","29","","27","","24.1","","100.40","","","","-12","","NA"
"-115.78","60.84","HAY RIVER A","2202401","2019-11-03 05:00","2019","11","03","05:00","-6.1","","-8.0","","86","","","","28","","17","","24.1","","100.41","","","","-12","","Cloudy"
"-115.78","60.84","HAY RIVER A","2202401","2019-11-03 06:00","2019","11","03","06:00","-6.3","","-8.6","","84","","","","30","","30","","24.1","","100.39","","","","-15","","NA"
"-115.78","60.84","HAY RIVER A","2202401","2019-11-03 07:00","2019","11","03","07:00","-6.5","","-8.7","","85","","","","30","","31","","24.1","","100.43","","","","-15","","NA"
"-115.78","60.84","HAY RIVER A","2202401","2019-11-03 08:00","2019","11","03","08:00","-6.9","","-8.9","","86","","","","31","","24","","24.1","","100.50","","","","-15","","Cloudy"
"-115.78","60.84","HAY RIVER A","2202401","2019-11-03 09:00","2019","11","03","09:00","-6.4","","-8.4","","86","","","","31","","25","","24.1","","100.53","","","","-14","","NA"
"-115.78","60.84","HAY RIVER A","2202401","2019-11-03 10:00","2019","11","03","10:00","-7.2","","-8.7","","89","","","","27","","16","","24.1","","100.55","","","","-14","","NA"
"-115.78","60.84","HAY RIVER A","2202401","2019-11-03 11:00","2019","11","03","11:00","-7.2","","-8.8","","88","","","","27","","18","","24.1","","100.56","","","","-14","","Mostly Cloudy"
"-115.78","60.84","HAY RIVER A","2202401","2019-11-03 12:00","2019","11","03","12:00","-6.5","","-8.3","","87","","","","30","","19","","24.1","","100.55","","","","-13","","Snow"
"-115.78","60.84","HAY RIVER A","2202401","2019-11-03 13:00","2019","11","03","13:00","-6.6","","-9.0","","83","","","","31","","23","","24.1","","100.57","","","","-14","","NA"
"-115.78","60.84","HAY RIVER A","2202401","2019-11-03 14:00","2019","11","03","14:00","-6.2","","-8.9","","81","","","","31","","16","","24.1","","100.57","","","","-12","","Mostly Cloudy"
"-115.78","60.84","HAY RIVER A","2202401","2019-11-03 15:00","2019","11","03","15:00","-6.1","","-9.2","","78","","","","29","","13","","24.1","","100.57","","","","-11","","NA"
"-115.78","60.84","HAY RIVER A","2202401","2019-11-03 16:00","2019","11","03","16:00","-6.5","","-9.4","","80","","","","26","","11","","24.1","","100.59","","","","-11","","Snow"
"-115.78","60.84","HAY RIVER A","2202401","2019-11-03 17:00","2019","11","03","17:00","-6.8","","-9.3","","83","","","","24","","13","","24.1","","100.57","","","","-12","","Snow"
"-115.78","60.84","HAY RIVER A","2202401","2019-11-03 18:00","2019","11","03","18:00","-6.9","","-9.7","","80","","","","26","","15","","24.1","","100.56","","","","-13","","Snow"
"-115.78","60.84","HAY RIVER A","2202401","2019-11-03 19:00","2019","11","03","19:00","-7.6","","-9.8","","85","","","","26","","13","","14.5","","100.54","","","","-13","","Snow"
"-115.78","60.84","HAY RIVER A","2202401","2019-11-03 20:00","2019","11","03","20:00","-8.0","","-9.7","","88","","","","25","","15","","16.1","","100.54","","","","-14","","Snow"
"-115.78","60.84","HAY RIVER A","2202401","2019-11-03 21:00","2019","11","03","21:00","-8.1","","-10.0","","86","","","","24","","12","","19.3","","100.54","","","","-14","","Snow"
"-115.78","60.84","HAY RIVER A","2202401","2019-11-03 22:00","2019","11","03","22:00","-8.0","","-10.1","","85","","","","25","","15","","20.9","","100.55","","","","-14","","Snow"
"-115.78","60.84","HAY RIVER A","2202401","2019-11-03 23:00","2019","11","03","23:00","-8.0","","-10.0","","86","","","","25","","7","","20.9","","100.56","","","","-12","","Snow"
"-115.78","60.84","HAY RIVER A","2202401","2019-11-04 00:00","2019","11","04","00:00","-8.2","","-10.2","","86","","","","23","","11","","24.1","","100.55","","","","-13","","Snow"
"-115.78","60.84","HAY RIVER A","2202401","2019-11-04 01:00","2019","11","04","01:00","-9.7","","-11.3","","88","","","","22","","9","","24.1","","100.53","","","","-15","","NA"
"-115.78","60.84","HAY RIVER A","2202401","2019-11-04 02:00","2019","11","04","02:00","-13.3","","-14.7","","89","","","","23","","9","","24.1","","100.52","","","","-19","","Mainly Clear"
"-115.78","60.84","HAY RIVER A","2202401","2019-11-04 03:00","2019","11","04","03:00","-13.6","","-14.9","","90","","","","21","","7","","24.1","","100.51","","","","-18","","NA"
"-115.78","60.84","HAY RIVER A","2202401","2019-11-04 04:00","2019","11","04","04:00","-14.4","","-15.8","","89","","","","22","","5","","24.1","","100.49","","","","-18","","NA"
"-115.78","60.84","HAY RIVER A","2202401","2019-11-04 05:00","2019","11","04","05:00","-14.4","","-15.9","","88","","","","20","","5","","1.2","","100.47","","","","-18","","Fog"
"-115.78","60.84","HAY RIVER A","2202401","2019-11-04 06:00","2019","11","04","06:00","-13.6","","-15.3","","87","","","","16","","7","","0.8","","100.43","","","","-18","","Freezing Fog"
"-115.78","60.84","HAY RIVER A","2202401","2019-11-04 07:00","2019","11","04","07:00","-14.2","","-16.1","","86","","","","18","","7","","24.1","","100.39","","","","-19","","NA"
"-115.78","60.84","HAY RIVER A","2202401","2019-11-04 08:00","2019","11","04","08:00","-14.1","","-15.7","","88","","","","21","","8","","24.1","","100.37","","","","-19","","Mostly Cloudy"
"-115.78","60.84","HAY RIVER A","2202401","2019-11-04 09:00","2019","11","04","09:00","-14.0","","-15.7","","87","","","","20","","4","","24.1","","100.36","","","","-17","","NA"
"-115.78","60.84","HAY RIVER A","2202401","2019-11-04 10:00","2019","11","04","10:00","-12.6","","-14.1","","89","","","","25","","7","","24.1","","100.38","","","","-17","","Snow"
"-115.78","60.84","HAY RIVER A","2202401","2019-11-04 11:00","2019","11","04","11:00","-10.8","","-12.0","","90","","","","24","","5","","20.9","","100.39","","","","-14","","Snow"
"-115.78","60.84","HAY RIVER A","2202401","2019-11-04 12:00","2019","11","04","12:00","-9.1","","-10.3","","91","","","","25","","8","","8.1","","100.41","","","","-13","","Snow"
"-115.78","60.84","HAY RIVER A","2202401","2019-11-04 13:00","2019","11","04","13:00","-6.9","","-7.8","","93","","","","34","","11","","16.1","","100.40","","","","-12","","Snow"
"-115.78","60.84","HAY RIVER A","2202401","2019-11-04 14:00","2019","11","04","14:00","-7.2","","-8.7","","89","","","","33","","13","","24.1","","100.42","","","","-13","","Mostly Cloudy"
"-115.78","60.84","HAY RIVER A","2202401","2019-11-04 15:00","2019","11","04","15:00","-6.6","","-9.5","","80","","","","32","","19","","24.1","","100.43","","","","-13","","NA"
"-115.78","60.84","HAY RIVER A","2202401","2019-11-04 16:00","2019","11","04","16:00","-6.2","","-8.9","","81","","","","33","","20","","24.1","","100.49","","","","-13","","NA"
"-115.78","60.84","HAY RIVER A","2202401","2019-11-04 17:00","2019","11","04","17:00","-6.5","","-9.4","","80","","","","33","","16","","24.1","","100.52","","","","-13","","Cloudy"
"-115.78","60.84","HAY RIVER A","2202401","2019-11-04 18:00","2019","11","04","18:00","-6.9","","-9.8","","80","","","","33","","19","","24.1","","100.59","","","","-14","","NA"
"-115.78","60.84","HAY RIVER A","2202401","2019-11-04 19:00","2019","11","04","19:00","-6.7","","-9.4","","82","","","","33","","21","","24.1","","100.65","","","","-14","","NA"
"-115.78","60.84","HAY RIVER A","2202401","2019-11-04 20:00","2019","11","04","20:00","-6.3","","-8.8","","82","","","","31","","21","","24.1","","100.68","","","","-13","","Mostly Cloudy"
"-115.78","60.84","HAY RIVER A","2202401","2019-11-04 21:00","2019","11","04","21:00","-6.5","","-8.7","","84","","","","31","","27","","24.1","","100.74","","","","-15","","NA"
"-115.78","60.84","HAY RIVER A","2202401","2019-11-04 22:00","2019","11","04","22:00","-7.1","","-9.7","","82","","","","30","","33","","24.1","","100.80","","","","-16","","NA"
"-115.78","60.84","HAY RIVER A","2202401","2019-11-04 23:00","2019","11","04","23:00","-6.8","","-9.4","","82","","","","31","","30","","24.1","","100.85","","","","-15","","Snow"
"-115.78","60.84","HAY RIVER A","2202401","2019-11-05 00:00","2019","11","05","00:00","-6.8","","-9.3","","83","","","","30","","26","","22.5","","100.90","","","","-15","","Snow"
"-115.78","60.84","HAY RIVER A","2202401","2019-11-05 01:00","2019","11","05","01:00","-6.7","","-9.6","","80","","","","31","","35","","22.5","","100.94","","","","-16","","Snow"
"-115.78","60.84","HAY RIVER A","2202401","2019-11-05 02:00","2019","11","05","02:00","-6.6","","-9.4","","81","","","","31","","31","","22.5","","101.00","","","","-15","","Snow"
"-115.78","60.84","HAY RIVER A","2202401","2019-11-05 03:00","2019","11","05","03:00","-6.7","","-9.2","","82","","","","31","","34","","24.1","","101.07","","","","-16","","Snow"
"-115.78","60.84","HAY RIVER A","2202401","2019-11-05 04:00","2019","11","05","04:00","-6.5","","-9.1","","82","","","","31","","29","","24.1","","101.13","","","","-15","","Snow"
"-115.78","60.84","HAY RIVER A","2202401","2019-11-05 05:00","2019","11","05","05:00","-6.8","","-9.6","","80","","","","31","","32","","19.3","","101.18","","","","-16","","Snow"
"-115.78","60.84","HAY RIVER A","2202401","2019-11-05 06:00","2019","11","05","06:00","-6.8","","-10.1","","78","","","","32","","34","","22.5","","101.25","","","","-16","","Snow"
"-115.78","60.84","HAY RIVER A","2202401","2019-11-05 07:00","2019","11","05","07:00","-6.9","","-10.5","","76","","","","33","","24","","24.1","","101.30","","","","-15","","Snow"
"-115.78","60.84","HAY RIVER A","2202401","2019-11-05 08:00","2019","11","05","08:00","-6.9","","-10.2","","78","","","","31","","27","","24.1","","101.35","","","","-15","","Mostly Cloudy"
"-115.78","60.84","HAY RIVER A","2202401","2019-11-05 09:00","2019","11","05","09:00","-6.6","","-11.5","","68","","","","34","","18","","24.1","","101.41","","","","-13","","Snow"
"-115.78","60.84","HAY RIVER A","2202401","2019-11-05 10:00","2019","11","05","10:00","-6.5","","-9.4","","80","","","","32","","28","","19.3","","101.45","","","","-15","","Snow,Blowing Snow"
"-115.78","60.84","HAY RIVER A","2202401","2019-11-05 11:00","2019","11","05","11:00","-6.3","","-9.4","","79","","","","33","","24","","24.1","","101.49","","","","-14","","Snow,Blowing Snow"
"-115.78","60.84","HAY RIVER A","2202401","2019-11-05 12:00","2019","11","05","12:00","-6.3","","-9.7","","77","","","","31","","26","","24.1","","101.51","","","","-14","","Snow,Blowing Snow"
"-115.78","60.84","HAY RIVER A","2202401","2019-11-05 13:00","2019","11","05","13:00","-6.3","","-11.7","","66","","","","31","","32","","24.1","","101.53","","","","-15","","Blowing Snow"
"-115.78","60.84","HAY RIVER A","2202401","2019-11-05 14:00","2019","11","05","14:00","-6.3","","-11.6","","66","","","","33","","18","","24.1","","101.53","","","","-13","","Snow,Blowing Snow"
"-115.78","60.84","HAY RIVER A","2202401","2019-11-05 15:00","2019","11","05","15:00","-6.1","","-14.3","","52","","","","31","","33","","24.1","","101.53","","","","-15","","Blowing Snow"
"-115.78","60.84","HAY RIVER A","2202401","2019-11-05 16:00","2019","11","05","16:00","-6.1","","-12.4","","61","","","","27","","16","","24.1","","101.53","","","","-12","","Snow,Blowing Snow"
"-115.78","60.84","HAY RIVER A","2202401","2019-11-05 17:00","2019","11","05","17:00","-6.6","","-11.0","","71","","","","25","","15","","24.1","","101.52","","","","-13","","Snow,Blowing Snow"
"-115.78","60.84","HAY RIVER A","2202401","2019-11-05 18:00","2019","11","05","18:00","-6.9","","-10.5","","76","","","","26","","17","","24.1","","101.48","","","","-13","","Snow"
"-115.78","60.84","HAY RIVER A","2202401","2019-11-05 19:00","2019","11","05","19:00","-7.5","","-10.7","","78","","","","24","","16","","24.1","","101.45","","","","-14","","Snow"
"-115.78","60.84","HAY RIVER A","2202401","2019-11-05 20:00","2019","11","05","20:00","-8.4","","-11.0","","82","","","","23","","11","","24.1","","101.44","","","","-14","","Mostly Cloudy"
"-115.78","60.84","HAY RIVER A","2202401","2019-11-05 21:00","2019","11","05","21:00","-10.1","","-12.2","","85","","","","24","","9","","24.1","","101.39","","","","-15","","NA"
"-115.78","60.84","HAY RIVER A","2202401","2019-11-05 22:00","2019","11","05","22:00","-11.2","","-13.3","","85","","","","24","","9","","24.1","","101.33","","","","-16","","NA"
"-115.78","60.84","HAY RIVER A","2202401","2019-11-05 23:00","2019","11","05","23:00","-11.2","","-14.0","","80","","","","24","","12","","24.1","","101.28","","","","-17","","Mostly Cloudy"
"-115.78","60.84","HAY RIVER A","2202401","2019-11-06 00:00","2019","11","06","00:00","-11.1","","-14.3","","77","","","","21","","9","","24.1","","101.24","","","","-16","","NA"
"-115.78","60.84","HAY RIVER A","2202401","2019-11-06 01:00","2019","11","06","01:00","-11.0","","-14.6","","75","","","","21","","10","","24.1","","101.17","","","","-16","","NA"
"-115.78","60.84","HAY RIVER A","2202401","2019-11-06 02:00","2019","11","06","02:00","-11.2","","-14.9","","74","","","","19","","14","","24.1","","101.07","","","","-18","","Mainly Clear"
"-115.78","60.84","HAY RIVER A","2202401","2019-11-06 03:00","2019","11","06","03:00","-11.3","","-15.0","","74","","","","19","","14","","24.1","","100.99","","","","-18","","NA"
"-115.78","60.84","HAY RIVER A","2202401","2019-11-06 04:00","2019","11","06","04:00","-12.5","","-15.6","","78","","","","20","","10","","24.1","","100.92","","","","-18","","NA"
"-115.78","60.84","HAY RIVER A","2202401","2019-11-06 05:00","2019","11","06","05:00","-11.7","","-14.7","","79","","","","22","","10","","24.1","","100.86","","","","-17","","Mainly Clear"
"-115.78","60.84","HAY RIVER A","2202401","2019-11-06 06:00","2019","11","06","06:00","-11.3","","-14.1","","80","","","","22","","10","","19.3","","100.81","","","","-17","","Snow"
"-115.78","60.84","HAY RIVER A","2202401","2019-11-06 07:00","2019","11","06","07:00","-11.6","","-14.2","","81","","","","25","","13","","24.1","","100.80","","","","-18","","Snow"
"-115.78","60.84","HAY RIVER A","2202401","2019-11-06 08:00","2019","11","06","08:00","-12.9","","-15.3","","82","","","","26","","13","","24.1","","100.80","","","","-20","","Mostly Cloudy"
"-115.78","60.84","HAY RIVER A","2202401","2019-11-06 09:00","2019","11","06","09:00","-12.9","","-15.0","","85","","","","25","","14","","24.1","","100.79","","","","-20","","NA"
"-115.78","60.84","HAY RIVER A","2202401","2019-11-06 10:00","2019","11","06","10:00","-12.5","","-14.7","","84","","","","25","","18","","24.1","","100.79","","","","-21","","Snow"
"-115.78","60.84","HAY RIVER A","2202401","2019-11-06 11:00","2019","11","06","11:00","-11.8","","-13.6","","87","","","","25","","18","","24.1","","100.77","","","","-20","","Snow"
"-115.78","60.84","HAY RIVER A","2202401","2019-11-06 12:00","2019","11","06","12:00","-10.9","","-13.0","","85","","","","26","","14","","24.1","","100.79","","","","-18","","Snow"
"-115.78","60.84","HAY RIVER A","2202401","2019-11-06 13:00","2019","11","06","13:00","-9.8","","-12.2","","83","","","","26","","21","","24.1","","100.80","","","","-18","","Snow"
"-115.78","60.84","HAY RIVER A","2202401","2019-11-06 14:00","2019","11","06","14:00","-9.2","","-12.8","","75","","","","27","","16","","24.1","","100.81","","","","-16","","Mostly Cloudy"
"-115.78","60.84","HAY RIVER A","2202401","2019-11-06 15:00","2019","11","06","15:00","-8.8","","-13.3","","70","","","","26","","16","","24.1","","100.80","","","","-16","","NA"
"-115.78","60.84","HAY RIVER A","2202401","2019-11-06 16:00","2019","11","06","16:00","-9.0","","-13.8","","68","","","","26","","17","","24.1","","100.79","","","","-16","","NA"
"-115.78","60.84","HAY RIVER A","2202401","2019-11-06 17:00","2019","11","06","17:00","-9.6","","-13.2","","75","","","","25","","13","","24.1","","100.77","","","","-16","","Snow"
"-115.78","60.84","HAY RIVER A","2202401","2019-11-06 18:00","2019","11","06","18:00","-10.5","","-13.7","","78","","","","25","","10","","24.1","","100.74","","","","-16","","Snow"
"-115.78","60.84","HAY RIVER A","2202401","2019-11-06 19:00","2019","11","06","19:00","-11.7","","-14.4","","81","","","","23","","11","","24.1","","100.73","","","","-18","","Snow"
"-115.78","60.84","HAY RIVER A","2202401","2019-11-06 20:00","2019","11","06","20:00","-11.0","","-14.1","","79","","","","22","","14","","24.1","","100.70","","","","-18","","Snow"
"-115.78","60.84","HAY RIVER A","2202401","2019-11-06 21:00","2019","11","06","21:00","-11.4","","-14.6","","78","","","","20","","13","","24.1","","100.66","","","","-18","","Snow"
"-115.78","60.84","HAY RIVER A","2202401","2019-11-06 22:00","2019","11","06","22:00","-12.3","","-14.6","","83","","","","18","","14","","24.1","","100.64","","","","-19","","Snow"
"-115.78","60.84","HAY RIVER A","2202401","2019-11-06 23:00","2019","11","06","23:00","-13.3","","-15.4","","84","","","","17","","12","","24.1","","100.60","","","","-20","","Snow"
"-115.78","60.84","HAY RIVER A","2202401","2019-11-07 00:00","2019","11","07","00:00","-13.6","","-15.6","","85","","","","15","","9","","24.1","","100.52","","","","-19","","NA"
"-115.78","60.84","HAY RIVER A","2202401","2019-11-07 01:00","2019","11","07","01:00","-14.4","","-16.2","","86","","","","15","","11","","24.1","","100.44","","","","-21","","NA"
"-115.78","60.84","HAY RIVER A","2202401","2019-11-07 02:00","2019","11","07","02:00","-14.8","","-16.9","","84","","","","15","","10","","24.1","","100.37","","","","-21","","Mainly Clear"
"-115.78","60.84","HAY RIVER A","2202401","2019-11-07 03:00","2019","11","07","03:00","-13.9","","-16.2","","83","","","","16","","14","","24.1","","100.31","","","","-21","","NA"
"-115.78","60.84","HAY RIVER A","2202401","2019-11-07 04:00","2019","11","07","04:00","-13.1","","-15.7","","81","","","","14","","15","","24.1","","100.22","","","","-21","","NA"
"-115.78","60.84","HAY RIVER A","2202401","2019-11-07 05:00","2019","11","07","05:00","-13.3","","-15.8","","82","","","","14","","12","","24.1","","100.14","","","","-20","","Mainly Clear"
"-115.78","60.84","HAY RIVER A","2202401","2019-11-07 06:00","2019","11","07","06:00"
"-115.78","60.84","HAY RIVER A","2202401","2019-11-07 07:00","2019","11","07","07:00","-12.7","","-15.7","","78","","","","14","","15","","24.1","","99.94","","","","-20","","NA"
"-115.78","60.84","HAY RIVER A","2202401","2019-11-07 08:00","2019","11","07","08:00","-12.7","","-15.8","","78","","","","14","","14","","24.1","","99.90","","","","-20","","Mostly Cloudy"
"-115.78","60.84","HAY RIVER A","2202401","2019-11-07 09:00","2019","11","07","09:00","-12.1","","-15.3","","77","","","","14","","12","","24.1","","99.83","","","","-18","","NA"
"-115.78","60.84","HAY RIVER A","2202401","2019-11-07 10:00","2019","11","07","10:00","-11.4","","-14.5","","78","","","","15","","12","","24.1","","99.80","","","","-18","","NA"
"-115.78","60.84","HAY RIVER A","2202401","2019-11-07 11:00","2019","11","07","11:00","-10.4","","-13.9","","75","","","","14","","14","","24.1","","99.73","","","","-17","","Mostly Cloudy"
"-115.78","60.84","HAY RIVER A","2202401","2019-11-07 12:00","2019","11","07","12:00","-9.3","","-13.2","","74","","","","14","","11","","24.1","","99.71","","","","-15","","NA"
"-115.78","60.84","HAY RIVER A","2202401","2019-11-07 13:00","2019","11","07","13:00","-8.3","","-12.7","","71","","","","14","","12","","24.1","","99.66","","","","-14","","NA"
"-115.78","60.84","HAY RIVER A","2202401","2019-11-07 14:00","2019","11","07","14:00","-7.7","","-12.2","","71","","","","15","","14","","24.1","","99.60","","","","-14","","Mostly Cloudy"
"-115.78","60.84","HAY RIVER A","2202401","2019-11-07 15:00","2019","11","07","15:00","-7.7","","-12.1","","71","","","","17","","5","","24.1","","99.63","","","","-10","","NA"
"-115.78","60.84","HAY RIVER A","2202401","2019-11-07 16:00","2019","11","07","16:00","-7.7","","-11.7","","73","","","","9","","5","","24.1","","99.67","","","","-10","","NA"
"-115.78","60.84","HAY RIVER A","2202401","2019-11-07 17:00","2019","11","07","17:00","-9.3","","-12.3","","79","","","","10","","6","","24.1","","99.64","","","","-13","","Mostly Cloudy"
"-115.78","60.84","HAY RIVER A","2202401","2019-11-07 18:00","2019","11","07","18:00","-9.9","","-12.5","","81","","","","10","","7","","24.1","","99.63","","","","-14","","NA"
"-115.78","60.84","HAY RIVER A","2202401","2019-11-07 19:00","2019","11","07","19:00","-9.5","","-12.0","","82","","","","8","","7","","24.1","","99.59","","","","-13","","NA"
"-115.78","60.84","HAY RIVER A","2202401","2019-11-07 20:00","2019","11","07","20:00","-9.0","","-11.9","","80","","","","12","","7","","24.1","","99.59","","","","-13","","Mostly Cloudy"
"-115.78","60.84","HAY RIVER A","2202401","2019-11-07 21:00","2019","11","07","21:00","-9.6","","-11.9","","83","","","","12","","7","","24.1","","99.59","","","","-14","","NA"
"-115.78","60.84","HAY RIVER A","2202401","2019-11-07 22:00","2019","11","07","22:00","-10.2","","-12.5","","83","","","","12","","5","","24.1","","99.60","","","","-13","","NA"
"-115.78","60.84","HAY RIVER A","2202401","2019-11-07 23:00","2019","11","07","23:00","-10.3","","-12.5","","84","","","","14","","4","","24.1","","99.60","","","","-13","","Mostly Cloudy"
"-115.78","60.84","HAY RIVER A","2202401","2019-11-08 00:00","2019","11","08","00:00","-10.1","","-12.3","","84","","","","15","","3","","24.1","","99.60","","","","-12","","NA"
"-115.78","60.84","HAY RIVER A","2202401","2019-11-08 01:00","2019","11","08","01:00","-9.2","","-11.1","","86","","","","23","","5","","24.1","","99.63","","","","-12","","NA"
"-115.78","60.84","HAY RIVER A","2202401","2019-11-08 02:00","2019","11","08","02:00","-8.6","","-10.4","","87","","","","17","","6","","24.1","","99.64","","","","-12","","Snow"
"-115.78","60.84","HAY RIVER A","2202401","2019-11-08 03:00","2019","11","08","03:00","-8.2","","-9.9","","88","","","","20","","5","","19.3","","99.67","","","","-11","","Snow"
"-115.78","60.84","HAY RIVER A","2202401","2019-11-08 04:00","2019","11","08","04:00","-5.8","","-7.0","","91","","","","34","","17","","0.8","","99.68","","","","-12","","Moderate Snow"
"-115.78","60.84","HAY RIVER A","2202401","2019-11-08 05:00","2019","11","08","05:00","-5.7","","-7.5","","87","","","","34","","22","","0.8","","99.71","","","","-13","","Moderate Snow,Blowing Snow"
"-115.78","60.84","HAY RIVER A","2202401","2019-11-08 06:00","2019","11","08","06:00","-6.2","","-8.0","","87","","","","35","","18","","3.2","","99.79","","","","-13","","Snow,Blowing Snow"
"-115.78","60.84","HAY RIVER A","2202401","2019-11-08 07:00","2019","11","08","07:00","-6.8","","-9.1","","84","","","","35","","18","","3.2","","99.88","","","","-13","","Snow"
"-115.78","60.84","HAY RIVER A","2202401","2019-11-08 08:00","2019","11","08","08:00","-7.2","","-9.7","","83","","","","35","","18","","3.2","","99.96","","","","-14","","Snow"
"-115.78","60.84","HAY RIVER A","2202401","2019-11-08 09:00","2019","11","08","09:00","-7.0","","-9.6","","82","","","","33","","20","","4.8","","100.04","","","","-14","","Snow"
"-115.78","60.84","HAY RIVER A","2202401","2019-11-08 10:00","2019","11","08","10:00","-7.5","","-9.9","","83","","","","34","","17","","16.1","","100.12","","","","-14","","Snow"
"-115.78","60.84","HAY RIVER A","2202401","2019-11-08 11:00","2019","11","08","11:00","-7.2","","-10.2","","79","","","","33","","30","","16.1","","100.19","","","","-16","","Snow"
"-115.78","60.84","HAY RIVER A","2202401","2019-11-08 12:00","2019","11","08","12:00","-7.9","","-11.0","","79","","","","32","","28","","16.1","","100.27","","","","-17","","Snow"
"-115.78","60.84","HAY RIVER A","2202401","2019-11-08 13:00","2019","11","08","13:00","-7.6","","-11.3","","75","","","","33","","27","","24.1","","100.31","","","","-16","","Snow"
"-115.78","60.84","HAY RIVER A","2202401","2019-11-08 14:00","2019","11","08","14:00","-7.5","","-11.6","","73","","","","32","","33","","24.1","","100.37","","","","-17","","Snow"
"-115.78","60.84","HAY RIVER A","2202401","2019-11-08 15:00","2019","11","08","15:00","-7.9","","-14.4","","60","","","","33","","32","","24.1","","100.42","","","","-17","","NA"
"-115.78","60.84","HAY RIVER A","2202401","2019-11-08 16:00","2019","11","08","16:00","-8.3","","-13.5","","66","","","","32","","26","","24.1","","100.49","","","","-17","","NA"
"-115.78","60.84","HAY RIVER A","2202401","2019-11-08 17:00","2019","11","08","17:00","-8.9","","-13.7","","69","","","","32","","26","","24.1","","100.55","","","","-18","","Mostly Cloudy"
"-115.78","60.84","HAY RIVER A","2202401","2019-11-08 18:00","2019","11","08","18:00","-9.3","","-14.7","","65","","","","32","","31","","24.1","","100.59","","","","-19","","NA"
"-115.78","60.84","HAY RIVER A","2202401","2019-11-08 19:00","2019","11","08","19:00","-9.4","","-14.1","","69","","","","32","","34","","19.3","","100.62","","","","-19","","Snow"
"-115.78","60.84","HAY RIVER A","2202401","2019-11-08 20:00","2019","11","08","20:00","-9.4","","-12.9","","76","","","","32","","32","","19.3","","100.63","","","","-19","","Snow,Blowing Snow"
"-115.78","60.84","HAY RIVER A","2202401","2019-11-08 21:00","2019","11","08","21:00","-9.3","","-13.2","","73","","","","32","","41","","19.3","","100.65","","","","-20","","Snow,Blowing Snow"
"-115.78","60.84","HAY RIVER A","2202401","2019-11-08 22:00","2019","11","08","22:00","-9.6","","-14.1","","70","","","","32","","39","","19.3","","100.72","","","","-20","","Snow,Blowing Snow"
"-115.78","60.84","HAY RIVER A","2202401","2019-11-08 23:00","2019","11","08","23:00","-10.3","","-15.0","","69","","","","33","","31","","19.3","","100.80","","","","-20","","Snow,Blowing Snow"
"-115.78","60.84","HAY RIVER A","2202401","2019-11-09 00:00","2019","11","09","00:00","-10.6","","-14.6","","72","","","","33","","19","","19.3","","100.89","","","","-18","","Snow,Blowing Snow"
"-115.78","60.84","HAY RIVER A","2202401","2019-11-09 01:00","2019","11","09","01:00","-11.3","","-15.1","","74","","","","34","","18","","19.3","","100.97","","","","-19","","Snow,Blowing Snow"
"-115.78","60.84","HAY RIVER A","2202401","2019-11-09 02:00","2019","11","09","02:00","-12.3","","-15.6","","77","","","","34","","19","","19.3","","101.10","","","","-21","","Snow,Blowing Snow"
"-115.78","60.84","HAY RIVER A","2202401","2019-11-09 03:00","2019","11","09","03:00","-13.1","","-16.0","","79","","","","35","","17","","19.3","","101.21","","","","-21","","Snow,Blowing Snow"
"-115.78","60.84","HAY RIVER A","2202401","2019-11-09 04:00","2019","11","09","04:00","-13.5","","-16.0","","81","","","","33","","17","","19.3","","101.29","","","","-22","","Snow,Blowing Snow"
"-115.78","60.84","HAY RIVER A","2202401","2019-11-09 05:00","2019","11","09","05:00","-14.2","","-16.9","","80","","","","32","","24","","19.3","","101.38","","","","-24","","Snow,Blowing Snow"
"-115.78","60.84","HAY RIVER A","2202401","2019-11-09 06:00","2019","11","09","06:00","-14.5","","-16.9","","82","","","","34","","16","","19.3","","101.46","","","","-23","","Snow,Blowing Snow"
"-115.78","60.84","HAY RIVER A","2202401","2019-11-09 07:00","2019","11","09","07:00","-15.5","","-18.1","","81","","","","34","","15","","17.7","","101.59","","","","-24","","Snow,Blowing Snow"
"-115.78","60.84","HAY RIVER A","2202401","2019-11-09 08:00","2019","11","09","08:00","-15.7","","-17.9","","83","","","","33","","16","","16.1","","101.66","","","","-24","","Snow,Blowing Snow"
"-115.78","60.84","HAY RIVER A","2202401","2019-11-09 09:00","2019","11","09","09:00","-16.2","","-18.1","","85","","","","33","","15","","8.1","","101.76","","","","-24","","Snow,Blowing Snow"
"-115.78","60.84","HAY RIVER A","2202401","2019-11-09 10:00","2019","11","09","10:00","-16.5","","-18.6","","85","","","","31","","18","","14.5","","101.84","","","","-26","","Snow,Blowing Snow"
"-115.78","60.84","HAY RIVER A","2202401","2019-11-09 11:00","2019","11","09","11:00","-16.2","","-18.8","","81","","","","32","","21","","14.5","","101.90","","","","-26","","Snow,Blowing Snow"
"-115.78","60.84","HAY RIVER A","2202401","2019-11-09 12:00","2019","11","09","12:00","-16.3","","-19.2","","79","","","","33","","16","","16.1","","101.93","","","","-25","","Snow,Blowing Snow"
"-115.78","60.84","HAY RIVER A","2202401","2019-11-09 13:00","2019","11","09","13:00","-16.1","","-19.4","","76","","","","32","","18","","14.5","","101.97","","","","-25","","Snow,Blowing Snow"
"-115.78","60.84","HAY RIVER A","2202401","2019-11-09 14:00","2019","11","09","14:00","-16.2","","-19.1","","78","","","","32","","24","","16.1","","101.98","","","","-27","","Snow,Blowing Snow"
"-115.78","60.84","HAY RIVER A","2202401","2019-11-09 15:00","2019","11","09","15:00","-16.9","","-20.4","","74","","","","26","","16","","24.1","","101.99","","","","-26","","Snow,Blowing Snow"
"-115.78","60.84","HAY RIVER A","2202401","2019-11-09 16:00","2019","11","09","16:00","-17.2","","-21.5","","69","","","","25","","14","","24.1","","101.98","","","","-25","","NA"
"-115.78","60.84","HAY RIVER A","2202401","2019-11-09 17:00","2019","11","09","17:00","-18.9","","-22.6","","73","","","","24","","14","","24.1","","101.98","","","","-27","","Mainly Clear"
"-115.78","60.84","HAY RIVER A","2202401","2019-11-09 18:00","2019","11","09","18:00","-20.1","","-23.2","","76","","","","24","","10","","24.1","","101.98","","","","-27","","NA"
"-115.78","60.84","HAY RIVER A","2202401","2019-11-09 19:00","2019","11","09","19:00","-20.6","","-23.4","","78","","","","23","","13","","24.1","","101.95","","","","-29","","NA"
"-115.78","60.84","HAY RIVER A","2202401","2019-11-09 20:00","2019","11","09","20:00","-20.3","","-23.2","","78","","","","25","","10","","24.1","","101.93","","","","-28","","Mainly Clear"
"-115.78","60.84","HAY RIVER A","2202401","2019-11-09 21:00","2019","11","09","21:00","-21.6","","-24.0","","82","","","","23","","8","","24.1","","101.92","","","","-28","","NA"
"-115.78","60.84","HAY RIVER A","2202401","2019-11-09 22:00","2019","11","09","22:00","-21.8","","-24.3","","80","","","","25","","10","","24.1","","101.91","","","","-29","","NA"
"-115.78","60.84","HAY RIVER A","2202401","2019-11-09 23:00","2019","11","09","23:00","-19.9","","-22.6","","80","","","","25","","14","","24.1","","101.89","","","","-29","","Mainly Clear"
"-115.78","60.84","HAY RIVER A","2202401","2019-11-10 00:00","2019","11","10","00:00","-20.1","","-22.7","","80","","","","24","","10","","24.1","","101.91","","","","-27","","NA"
"-115.78","60.84","HAY RIVER A","2202401","2019-11-10 01:00","2019","11","10","01:00","-19.8","","-22.4","","81","","","","23","","13","","24.1","","101.88","","","","-28","","NA"
"-115.78","60.84","HAY RIVER A","2202401","2019-11-10 02:00","2019","11","10","02:00","-20.1","","-22.7","","80","","","","23","","12","","24.1","","101.87","","","","-28","","Mainly Clear"
"-115.78","60.84","HAY RIVER A","2202401","2019-11-10 03:00","2019","11","10","03:00","-20.1","","-22.7","","80","","","","23","","12","","24.1","","101.85","","","","-28","","NA"
"-115.78","60.84","HAY RIVER A","2202401","2019-11-10 04:00","2019","11","10","04:00","-20.8","","-23.3","","81","","","","23","","11","","24.1","","101.81","","","","-29","","NA"
"-115.78","60.84","HAY RIVER A","2202401","2019-11-10 05:00","2019","11","10","05:00","-20.6","","-23.1","","81","","","","24","","8","","24.1","","101.76","","","","-27","","Mainly Clear"
"-115.78","60.84","HAY RIVER A","2202401","2019-11-10 06:00","2019","11","10","06:00","-19.4","","-22.1","","80","","","","22","","12","","24.1","","101.73","","","","-27","","NA"
"-115.78","60.84","HAY RIVER A","2202401","2019-11-10 07:00","2019","11","10","07:00","-20.5","","-23.3","","79","","","","22","","9","","24.1","","101.67","","","","-27","","NA"
"-115.78","60.84","HAY RIVER A","2202401","2019-11-10 08:00","2019","11","10","08:00","-20.6","","-23.6","","78","","","","21","","13","","24.1","","101.68","","","","-29","","Mainly Clear"
"-115.78","60.84","HAY RIVER A","2202401","2019-11-10 09:00","2019","11","10","09:00","-20.6","","-23.5","","78","","","","21","","11","","24.1","","101.64","","","","-28","","NA"
"-115.78","60.84","HAY RIVER A","2202401","2019-11-10 10:00","2019","11","10","10:00","-19.4","","-22.6","","76","","","","22","","11","","24.1","","101.59","","","","-27","","NA"
"-115.78","60.84","HAY RIVER A","2202401","2019-11-10 11:00","2019","11","10","11:00","-16.8","","-20.5","","73","","","","22","","12","","24.1","","101.54","","","","-24","","Mainly Clear"
"-115.78","60.84","HAY RIVER A","2202401","2019-11-10 12:00","2019","11","10","12:00","-14.6","","-19.3","","68","","","","22","","15","","24.1","","101.50","","","","-22","","NA"
"-115.78","60.84","HAY RIVER A","2202401","2019-11-10 13:00","2019","11","10","13:00","-13.9","","-19.4","","64","","","","23","","19","","24.1","","101.45","","","","-23","","NA"
"-115.78","60.84","HAY RIVER A","2202401","2019-11-10 14:00","2019","11","10","14:00","-13.2","","-19.2","","61","","","","21","","18","","24.1","","101.35","","","","-21","","Clear"
"-115.78","60.84","HAY RIVER A","2202401","2019-11-10 15:00","2019","11","10","15:00","-13.3","","-18.9","","64","","","","20","","14","","24.1","","101.28","","","","-21","","NA"
"-115.78","60.84","HAY RIVER A","2202401","2019-11-10 16:00","2019","11","10","16:00","-13.8","","-18.7","","67","","","","20","","12","","24.1","","101.21","","","","-21","","NA"
"-115.78","60.84","HAY RIVER A","2202401","2019-11-10 17:00","2019","11","10","17:00","-14.4","","-18.7","","71","","","","20","","13","","24.1","","101.10","","","","-22","","Clear"
"-115.78","60.84","HAY RIVER A","2202401","2019-11-10 18:00","2019","11","10","18:00","-16.1","","-19.6","","75","","","","18","","12","","24.1","","101.01","","","","-23","","NA"
"-115.78","60.84","HAY RIVER A","2202401","2019-11-10 19:00","2019","11","10","19:00","-15.8","","-19.3","","74","","","","18","","12","","24.1","","100.90","","","","-23","","NA"
"-115.78","60.84","HAY RIVER A","2202401","2019-11-10 20:00","2019","11","10","20:00","-15.3","","-19.2","","73","","","","19","","13","","24.1","","100.82","","","","-23","","Mainly Clear"
"-115.78","60.84","HAY RIVER A","2202401","2019-11-10 21:00","2019","11","10","21:00","-15.2","","-19.1","","72","","","","19","","15","","24.1","","100.72","","","","-23","","NA"
"-115.78","60.84","HAY RIVER A","2202401","2019-11-10 22:00","2019","11","10","22:00","-15.0","","-19.1","","71","","","","19","","19","","24.1","","100.62","","","","-24","","NA"
"-115.78","60.84","HAY RIVER A","2202401","2019-11-10 23:00","2019","11","10","23:00","-15.4","","-19.5","","71","","","","19","","17","","24.1","","100.50","","","","-24","","Mainly Clear"
"-115.78","60.84","HAY RIVER A","2202401","2019-11-11 00:00","2019","11","11","00:00","-15.5","","-19.5","","72","","","","19","","18","","24.1","","100.38","","","","-24","","NA"
"-115.78","60.84","HAY RIVER A","2202401","2019-11-11 01:00","2019","11","11","01:00","-15.2","","-19.2","","72","","","","19","","19","","24.1","","100.23","","","","-24","","NA"
"-115.78","60.84","HAY RIVER A","2202401","2019-11-11 02:00","2019","11","11","02:00","-15.0","","-19.1","","72","","","","20","","19","","24.1","","100.10","","","","-24","","Mainly Clear"
"-115.78","60.84","HAY RIVER A","2202401","2019-11-11 03:00","2019","11","11","03:00","-14.5","","-18.6","","71","","","","19","","19","","24.1","","99.98","","","","-23","","NA"
"-115.78","60.84","HAY RIVER A","2202401","2019-11-11 04:00","2019","11","11","04:00","-14.7","","-18.6","","72","","","","19","","21","","24.1","","99.85","","","","-24","","NA"
"-115.78","60.84","HAY RIVER A","2202401","2019-11-11 05:00","2019","11","11","05:00","-15.0","","-19.0","","72","","","","20","","19","","24.1","","99.71","","","","-24","","Mainly Clear"
"-115.78","60.84","HAY RIVER A","2202401","2019-11-11 06:00","2019","11","11","06:00","-15.4","","-19.1","","73","","","","19","","16","","24.1","","99.59","","","","-24","","NA"
"-115.78","60.84","HAY RIVER A","2202401","2019-11-11 07:00","2019","11","11","07:00","-14.9","","-18.8","","72","","","","19","","16","","24.1","","99.47","","","","-23","","NA"
"-115.78","60.84","HAY RIVER A","2202401","2019-11-11 08:00","2019","11","11","08:00","-15.3","","-19.1","","73","","","","20","","13","","24.1","","99.40","","","","-23","","Mainly Clear"
"-115.78","60.84","HAY RIVER A","2202401","2019-11-11 09:00","2019","11","11","09:00","-15.2","","-18.9","","74","","","","21","","14","","24.1","","99.35","","","","-23","","NA"
"-115.78","60.84","HAY RIVER A","2202401","2019-11-11 10:00","2019","11","11","10:00","-14.8","","-18.6","","73","","","","22","","9","","24.1","","99.30","","","","-21","","NA"
"-115.78","60.84","HAY RIVER A","2202401","2019-11-11 11:00","2019","11","11","11:00","-12.8","","-17.1","","71","","","","24","","17","","24.1","","99.30","","","","-21","","Mainly Clear"
"-115.78","60.84","HAY RIVER A","2202401","2019-11-11 12:00","2019","11","11","12:00","-11.3","","-16.2","","68","","","","27","","16","","24.1","","99.27","","","","-19","","NA"
"-115.78","60.84","HAY RIVER A","2202401","2019-11-11 13:00","2019","11","11","13:00","-10.9","","-15.7","","68","","","","27","","21","","24.1","","99.22","","","","-19","","NA"
"-115.78","60.84","HAY RIVER A","2202401","2019-11-11 14:00","2019","11","11","14:00","-10.4","","-14.8","","70","","","","29","","23","","24.1","","99.24","","","","-19","","Mainly Clear"
"-115.78","60.84","HAY RIVER A","2202401","2019-11-11 15:00","2019","11","11","15:00","-10.2","","-16.0","","63","","","","29","","21","","24.1","","99.23","","","","-18","","NA"
"-115.78","60.84","HAY RIVER A","2202401","2019-11-11 16:00","2019","11","11","16:00","-10.4","","-16.1","","63","","","","27","","14","","24.1","","99.24","","","","-17","","NA"
"-115.78","60.84","HAY RIVER A","2202401","2019-11-11 17:00","2019","11","11","17:00","-11.4","","-16.4","","67","","","","28","","21","","24.1","","99.27","","","","-20","","Mainly Clear"
"-115.78","60.84","HAY RIVER A","2202401","2019-11-11 18:00","2019","11","11","18:00","-11.0","","-16.1","","66","","","","28","","22","","24.1","","99.27","","","","-20","","NA"
"-115.78","60.84","HAY RIVER A","2202401","2019-11-11 19:00","2019","11","11","19:00","-10.9","","-15.9","","67","","","","27","","21","","24.1","","99.29","","","","-19","","NA"
"-115.78","60.84","HAY RIVER A","2202401","2019-11-11 20:00","2019","11","11","20:00","-11.2","","-15.5","","70","","","","28","","18","","24.1","","99.28","","","","-19","","Clear"
"-115.78","60.84","HAY RIVER A","2202401","2019-11-11 21:00","2019","11","11","21:00","-11.9","","-15.4","","76","","","","27","","14","","24.1","","99.29","","","","-19","","NA"
"-115.78","60.84","HAY RIVER A","2202401","2019-11-11 22:00","2019","11","11","22:00","-10.8","","-13.5","","80","","","","26","","16","","24.1","","99.26","","","","-18","","NA"
"-115.78","60.84","HAY RIVER A","2202401","2019-11-11 23:00","2019","11","11","23:00","-8.7","","-12.8","","72","","","","31","","19","","24.1","","99.22","","","","-16","","Mainly Clear"
"-115.78","60.84","HAY RIVER A","2202401","2019-11-12 00:00","2019","11","12","00:00","-12.6","","-16.2","","75","","","","25","","14","","24.1","","99.31","","","","-20","","NA"
"-115.78","60.84","HAY RIVER A","2202401","2019-11-12 01:00","2019","11","12","01:00","-12.7","","-15.8","","78","","","","28","","15","","24.1","","99.32","","","","-20","","NA"
"-115.78","60.84","HAY RIVER A","2202401","2019-11-12 02:00","2019","11","12","02:00","-7.8","","-11.8","","73","","","","31","","33","","24.1","","99.31","","","","-17","","Mostly Cloudy"
"-115.78","60.84","HAY RIVER A","2202401","2019-11-12 03:00","2019","11","12","03:00","-7.5","","-11.2","","75","","","","32","","20","","19.3","","99.25","","","","-15","","Snow"
"-115.78","60.84","HAY RIVER A","2202401","2019-11-12 04:00","2019","11","12","04:00","-8.8","","-11.0","","84","","","","27","","14","","20.9","","99.24","","","","-15","","Snow"
"-115.78","60.84","HAY RIVER A","2202401","2019-11-12 05:00","2019","11","12","05:00","-7.7","","-9.9","","84","","","","27","","15","","19.3","","99.22","","","","-14","","Snow"
"-115.78","60.84","HAY RIVER A","2202401","2019-11-12 06:00","2019","11","12","06:00","-7.3","","-9.7","","83","","","","27","","14","","19.3","","99.25","","","","-13","","Snow"
"-115.78","60.84","HAY RIVER A","2202401","2019-11-12 07:00","2019","11","12","07:00","-6.5","","-8.7","","84","","","","29","","16","","24.1","","99.26","","","","-13","","Snow"
"-115.78","60.84","HAY RIVER A","2202401","2019-11-12 08:00","2019","11","12","08:00","-7.1","","-9.6","","83","","","","26","","18","","24.1","","99.28","","","","-14","","Snow"
"-115.78","60.84","HAY RIVER A","2202401","2019-11-12 09:00","2019","11","12","09:00","-7.1","","-9.5","","83","","","","28","","13","","24.1","","99.33","","","","-13","","NA"
"-115.78","60.84","HAY RIVER A","2202401","2019-11-12 10:00","2019","11","12","10:00","-6.8","","-8.7","","87","","","","29","","17","","9.7","","99.35","","","","-13","","Snow"
"-115.78","60.84","HAY RIVER A","2202401","2019-11-12 11:00","2019","11","12","11:00","-6.8","","-9.0","","84","","","","29","","17","","24.1","","99.35","","","","-13","","Snow"
"-115.78","60.84","HAY RIVER A","2202401","2019-11-12 12:00","2019","11","12","12:00","-6.4","","-8.9","","83","","","","29","","16","","24.1","","99.35","","","","-13","","NA"
"-115.78","60.84","HAY RIVER A","2202401","2019-11-12 13:00","2019","11","12","13:00","-6.8","","-9.2","","83","","","","29","","14","","24.1","","99.38","","","","-13","","NA"
"-115.78","60.84","HAY RIVER A","2202401","2019-11-12 14:00","2019","11","12","14:00","-6.0","","-9.3","","78","","","","28","","10","","24.1","","99.36","","","","-10","","Mostly Cloudy"
"-115.78","60.84","HAY RIVER A","2202401","2019-11-12 15:00","2019","11","12","15:00","-5.4","","-9.2","","74","","","","25","","13","","24.1","","99.32","","","","-11","","NA"
"-115.78","60.84","HAY RIVER A","2202401","2019-11-12 16:00","2019","11","12","16:00","-6.4","","-9.8","","77","","","","26","","12","","24.1","","99.35","","","","-12","","NA"
"-115.78","60.84","HAY RIVER A","2202401","2019-11-12 17:00","2019","11","12","17:00","-7.5","","-10.1","","82","","","","25","","17","","24.1","","99.38","","","","-14","","Mostly Cloudy"
"-115.78","60.84","HAY RIVER A","2202401","2019-11-12 18:00","2019","11","12","18:00","-8.5","","-10.3","","87","","","","24","","10","","24.1","","99.39","","","","-13","","NA"
"-115.78","60.84","HAY RIVER A","2202401","2019-11-12 19:00","2019","11","12","19:00","-8.4","","-10.2","","88","","","","23","","9","","24.1","","99.37","","","","-13","","NA"
"-115.78","60.84","HAY RIVER A","2202401","2019-11-12 20:00","2019","11","12","20:00","-8.6","","-10.2","","88","","","","26","","7","","24.1","","99.42","","","","-12","","Mostly Cloudy"
"-115.78","60.84","HAY RIVER A","2202401","2019-11-12 21:00","2019","11","12","21:00","-9.2","","-10.6","","89","","","","25","","7","","24.1","","99.43","","","","-13","","NA"
"-115.78","60.84","HAY RIVER A","2202401","2019-11-12 22:00","2019","11","12","22:00","-8.7","","-10.5","","86","","","","24","","10","","24.1","","99.44","","","","-14","","NA"
"-115.78","60.84","HAY RIVER A","2202401","2019-11-12 23:00","2019","11","12","23:00","-8.5","","-10.4","","87","","","","36","","2","","24.1","","99.46","","","","-10","","Mostly Cloudy"
"-115.78","60.84","HAY RIVER A","2202401","2019-11-13 00:00","2019","11","13","00:00","-8.5","","-10.3","","87","","","","22","","7","","24.1","","99.47","","","","-12","","NA"
"-115.78","60.84","HAY RIVER A","2202401","2019-11-13 01:00","2019","11","13","01:00","-8.5","","-10.1","","88","","","","21","","4","","14.5","","99.45","","","","-11","","Snow"
"-115.78","60.84","HAY RIVER A","2202401","2019-11-13 02:00","2019","11","13","02:00","-8.6","","-10.0","","89","","","","20","","6","","14.5","","99.44","","","","-12","","Snow"
"-115.78","60.84","HAY RIVER A","2202401","2019-11-13 03:00","2019","11","13","03:00","-8.4","","-9.7","","91","","","","21","","5","","3.6","","99.44","","","","-11","","Snow"
"-115.78","60.84","HAY RIVER A","2202401","2019-11-13 04:00","2019","11","13","04:00","-8.1","","-9.3","","91","","","","26","","8","","2.8","","99.47","","","","-12","","Snow"
"-115.78","60.84","HAY RIVER A","2202401","2019-11-13 05:00","2019","11","13","05:00","-7.8","","-9.0","","91","","","","25","","10","","3.2","","99.43","","","","-13","","Snow"
"-115.78","60.84","HAY RIVER A","2202401","2019-11-13 06:00","2019","11","13","06:00","-7.5","","-8.8","","91","","","","21","","9","","8.1","","99.38","","","","-12","","Snow"
"-115.78","60.84","HAY RIVER A","2202401","2019-11-13 07:00","2019","11","13","07:00","-8.0","","-9.2","","91","","","","11","","10","","8.1","","99.43","","","","-13","","Snow"
"-115.78","60.84","HAY RIVER A","2202401","2019-11-13 08:00","2019","11","13","08:00","-7.8","","-9.1","","91","","","","10","","12","","2.4","","99.51","","","","-13","","Snow"
"-115.78","60.84","HAY RIVER A","2202401","2019-11-13 09:00","2019","11","13","09:00","-7.7","","-9.5","","87","","","","10","","15","","3.2","","99.58","","","","-14","","Snow"
"-115.78","60.84","HAY RIVER A","2202401","2019-11-13 10:00","2019","11","13","10:00","-8.2","","-10.1","","86","","","","12","","13","","9.7","","99.64","","","","-14","","Snow"
"-115.78","60.84","HAY RIVER A","2202401","2019-11-13 11:00","2019","11","13","11:00","-8.3","","-10.6","","84","","","","11","","9","","1.2","","99.74","","","","-13","","Snow"
"-115.78","60.84","HAY RIVER A","2202401","2019-11-13 12:00","2019","11","13","12:00","-8.6","","-9.8","","91","","","","27","","4","","0.6","","99.84","","","","-11","","Moderate Snow"
"-115.78","60.84","HAY RIVER A","2202401","2019-11-13 13:00","2019","11","13","13:00","-8.0","","-9.6","","89","","","","4","","13","","0.4","","99.91","","","","-14","","Heavy Snow"
"-115.78","60.84","HAY RIVER A","2202401","2019-11-13 14:00","2019","11","13","14:00","-9.4","","-11.7","","83","","","","34","","17","","1.6","","99.99","","","","-16","","Snow"
"-115.78","60.84","HAY RIVER A","2202401","2019-11-13 15:00","2019","11","13","15:00","-10.2","","-13.3","","78","","","","33","","18","","9.7","","100.10","","","","-18","","Snow"
"-115.78","60.84","HAY RIVER A","2202401","2019-11-13 16:00","2019","11","13","16:00","-11.9","","-14.6","","80","","","","32","","30","","3.2","","100.22","","","","-22","","Snow"
"-115.78","60.84","HAY RIVER A","2202401","2019-11-13 17:00","2019","11","13","17:00","-13.4","","-16.1","","80","","","","33","","25","","14.5","","100.34","","","","-23","","Snow,Blowing Snow"
"-115.78","60.84","HAY RIVER A","2202401","2019-11-13 18:00","2019","11","13","18:00","-15.0","","-18.0","","78","","","","33","","28","","9.7","","100.44","","","","-26","","Snow,Blowing Snow"
"-115.78","60.84","HAY RIVER A","2202401","2019-11-13 19:00","2019","11","13","19:00","-16.9","","-20.2","","76","","","","30","","30","","19.3","","100.53","","","","-29","","Snow,Blowing Snow"
"-115.78","60.84","HAY RIVER A","2202401","2019-11-13 20:00","2019","11","13","20:00","-17.7","","-20.9","","77","","","","31","","32","","24.1","","100.64","","","","-30","","Snow,Blowing Snow"
"-115.78","60.84","HAY RIVER A","2202401","2019-11-13 21:00","2019","11","13","21:00","-18.2","","-21.2","","78","","","","31","","32","","24.1","","100.66","","","","-31","","Blowing Snow"
"-115.78","60.84","HAY RIVER A","2202401","2019-11-13 22:00","2019","11","13","22:00","-18.8","","-22.3","","74","","","","31","","33","","24.1","","100.70","","","","-32","","NA"
"-115.78","60.84","HAY RIVER A","2202401","2019-11-13 23:00","2019","11","13","23:00","-18.7","","-21.7","","78","","","","31","","24","","24.1","","100.75","","","","-30","","Mostly Cloudy"
"-115.78","60.84","HAY RIVER A","2202401","2019-11-14 00:00","2019","11","14","00:00","-18.7","","-21.9","","76","","","","31","","31","","24.1","","100.79","","","","-31","","Blowing Snow"
"-115.78","60.84","HAY RIVER A","2202401","2019-11-14 01:00","2019","11","14","01:00","-18.6","","-22.0","","75","","","","32","","30","","24.1","","100.80","","","","-31","","Blowing Snow"
"-115.78","60.84","HAY RIVER A","2202401","2019-11-14 02:00","2019","11","14","02:00","-18.2","","-21.6","","75","","","","31","","26","","24.1","","100.81","","","","-29","","Snow,Blowing Snow"
"-115.78","60.84","HAY RIVER A","2202401","2019-11-14 03:00","2019","11","14","03:00","-18.0","","-21.5","","75","","","","31","","24","","24.1","","100.82","","","","-29","","Snow,Blowing Snow"
"-115.78","60.84","HAY RIVER A","2202401","2019-11-14 04:00","2019","11","14","04:00","-18.2","","-21.4","","76","","","","30","","27","","24.1","","100.82","","","","-30","","Blowing Snow"
"-115.78","60.84","HAY RIVER A","2202401","2019-11-14 05:00","2019","11","14","05:00","-18.1","","-21.5","","75","","","","30","","19","","24.1","","100.78","","","","-28","","Mostly Cloudy"
"-115.78","60.84","HAY RIVER A","2202401","2019-11-14 06:00","2019","11","14","06:00","-17.9","","-20.8","","78","","","","29","","16","","24.1","","100.75","","","","-27","","NA"
"-115.78","60.84","HAY RIVER A","2202401","2019-11-14 07:00","2019","11","14","07:00","-18.9","","-22.2","","75","","","","25","","16","","24.1","","100.75","","","","-28","","NA"
"-115.78","60.84","HAY RIVER A","2202401","2019-11-14 08:00","2019","11","14","08:00","-19.2","","-22.8","","74","","","","26","","13","","24.1","","100.71","","","","-27","","Mostly Cloudy"
"-115.78","60.84","HAY RIVER A","2202401","2019-11-14 09:00","2019","11","14","09:00","-19.1","","-22.9","","73","","","","27","","11","","24.1","","100.69","","","","-27","","NA"
"-115.78","60.84","HAY RIVER A","2202401","2019-11-14 10:00","2019","11","14","10:00","-18.6","","-22.2","","74","","","","26","","8","","24.1","","100.64","","","","-25","","NA"
"-115.78","60.84","HAY RIVER A","2202401","2019-11-14 11:00","2019","11","14","11:00","-18.1","","-21.4","","76","","","","27","","7","","24.1","","100.60","","","","-23","","Cloudy"
"-115.78","60.84","HAY RIVER A","2202401","2019-11-14 12:00","2019","11","14","12:00","-17.3","","-20.5","","76","","","","25","","4","","24.1","","100.56","","","","-20","","NA"
"-115.78","60.84","HAY RIVER A","2202401","2019-11-14 13:00","2019","11","14","13:00","-16.9","","-20.1","","77","","","","23","","6","","14.5","","100.47","","","","-21","","Snow"
"-115.78","60.84","HAY RIVER A","2202401","2019-11-14 14:00","2019","11","14","14:00","-16.7","","-19.3","","81","","","","24","","6","","2.8","","100.39","","","","-21","","Snow"
"-115.78","60.84","HAY RIVER A","2202401","2019-11-14 15:00","2019","11","14","15:00","-16.7","","-19.1","","82","","","","16","","5","","1.2","","100.30","","","","-21","","Snow"
"-115.78","60.84","HAY RIVER A","2202401","2019-11-14 16:00","2019","11","14","16:00","-16.7","","-19.2","","81","","","","9","","7","","24.1","","100.22","","","","-22","","Snow"
"-115.78","60.84","HAY RIVER A","2202401","2019-11-14 17:00","2019","11","14","17:00","-16.5","","-18.9","","82","","","","10","","9","","20.9","","100.09","","","","-23","","Snow"
"-115.78","60.84","HAY RIVER A","2202401","2019-11-14 18:00","2019","11","14","18:00","-16.2","","-18.6","","82","","","","12","","12","","24.1","","100.00","","","","-23","","Snow"
"-115.78","60.84","HAY RIVER A","2202401","2019-11-14 19:00","2019","11","14","19:00","-15.3","","-18.2","","79","","","","11","","15","","24.1","","99.84","","","","-23","","Snow"
"-115.78","60.84","HAY RIVER A","2202401","2019-11-14 20:00","2019","11","14","20:00","-14.5","","-17.7","","77","","","","11","","17","","24.1","","99.73","","","","-23","","Snow"
"-115.78","60.84","HAY RIVER A","2202401","2019-11-14 21:00","2019","11","14","21:00","-14.4","","-17.6","","77","","","","12","","22","","9.7","","99.60","","","","-24","","Snow"
"-115.78","60.84","HAY RIVER A","2202401","2019-11-14 22:00","2019","11","14","22:00","-14.5","","-16.9","","83","","","","13","","19","","4.8","","99.48","","","","-23","","Snow"
"-115.78","60.84","HAY RIVER A","2202401","2019-11-14 23:00","2019","11","14","23:00","-14.1","","-16.8","","80","","","","13","","21","","9.7","","99.31","","","","-23","","Snow,Blowing Snow"
"-115.78","60.84","HAY RIVER A","2202401","2019-11-15 00:00","2019","11","15","00:00","-13.7","","-16.9","","78","","","","14","","26","","19.3","","99.12","","","","-24","","Snow,Blowing Snow"
"-115.78","60.84","HAY RIVER A","2202401","2019-11-15 01:00","2019","11","15","01:00","-13.5","","-16.6","","78","","","","14","","22","","9.7","","99.01","","","","-23","","Snow,Blowing Snow"
"-115.78","60.84","HAY RIVER A","2202401","2019-11-15 02:00","2019","11","15","02:00","-13.2","","-15.8","","81","","","","15","","23","","9.7","","98.86","","","","-23","","Snow,Blowing Snow"
"-115.78","60.84","HAY RIVER A","2202401","2019-11-15 03:00","2019","11","15","03:00","-12.9","","-15.8","","79","","","","15","","23","","9.7","","98.74","","","","-22","","Snow,Blowing Snow"
"-115.78","60.84","HAY RIVER A","2202401","2019-11-15 04:00","2019","11","15","04:00","-12.6","","-15.1","","82","","","","15","","17","","19.3","","98.64","","","","-20","","Snow,Blowing Snow"
"-115.78","60.84","HAY RIVER A","2202401","2019-11-15 05:00","2019","11","15","05:00","-12.2","","-14.8","","81","","","","16","","21","","19.3","","98.50","","","","-21","","Snow"
"-115.78","60.84","HAY RIVER A","2202401","2019-11-15 06:00","2019","11","15","06:00","-11.9","","-14.5","","82","","","","16","","17","","24.1","","98.41","","","","-20","","NA"
"-115.78","60.84","HAY RIVER A","2202401","2019-11-15 07:00","2019","11","15","07:00","-11.7","","-14.0","","83","","","","17","","16","","24.1","","98.34","","","","-19","","NA"
"-115.78","60.84","HAY RIVER A","2202401","2019-11-15 08:00","2019","11","15","08:00","-11.3","","-13.5","","84","","","","19","","12","","24.1","","98.34","","","","-17","","Snow"
"-115.78","60.84","HAY RIVER A","2202401","2019-11-15 09:00","2019","11","15","09:00","-11.1","","-13.2","","84","","","","23","","8","","24.1","","98.36","","","","-16","","Snow"
"-115.78","60.84","HAY RIVER A","2202401","2019-11-15 10:00","2019","11","15","10:00","-12.3","","-14.3","","85","","","","24","","9","","24.1","","98.42","","","","-18","","NA"
"-115.78","60.84","HAY RIVER A","2202401","2019-11-15 11:00","2019","11","15","11:00","-12.1","","-14.5","","83","","","","25","","10","","24.1","","98.43","","","","-18","","Mostly Cloudy"
"-115.78","60.84","HAY RIVER A","2202401","2019-11-15 12:00","2019","11","15","12:00","-11.8","","-14.7","","79","","","","25","","12","","24.1","","98.47","","","","-18","","NA"
"-115.78","60.84","HAY RIVER A","2202401","2019-11-15 13:00","2019","11","15","13:00","-10.6","","-14.3","","74","","","","28","","16","","24.1","","98.49","","","","-18","","NA"
"-115.78","60.84","HAY RIVER A","2202401","2019-11-15 14:00","2019","11","15","14:00","-10.7","","-14.1","","76","","","","30","","21","","24.1","","98.57","","","","-19","","Mostly Cloudy"
"-115.78","60.84","HAY RIVER A","2202401","2019-11-15 15:00","2019","11","15","15:00","-10.9","","-13.9","","79","","","","27","","22","","24.1","","98.65","","","","-19","","NA"
"-115.78","60.84","HAY RIVER A","2202401","2019-11-15 16:00","2019","11","15","16:00","-11.3","","-14.4","","78","","","","29","","20","","24.1","","98.75","","","","-20","","NA"
"-115.78","60.84","HAY RIVER A","2202401","2019-11-15 17:00","2019","11","15","17:00","-11.6","","-14.2","","81","","","","28","","23","","8.1","","98.82","","","","-20","","Snow"
"-115.78","60.84","HAY RIVER A","2202401","2019-11-15 18:00","2019","11","15","18:00","-11.3","","-14.6","","77","","","","33","","23","","4.8","","98.90","","","","-20","","Snow"
"-115.78","60.84","HAY RIVER A","2202401","2019-11-15 19:00","2019","11","15","19:00","-11.9","","-14.3","","83","","","","29","","18","","4.8","","98.98","","","","-20","","Snow"
"-115.78","60.84","HAY RIVER A","2202401","2019-11-15 20:00","2019","11","15","20:00","-12.3","","-14.9","","81","","","","29","","25","","19.3","","99.06","","","","-22","","Snow"
"-115.78","60.84","HAY RIVER A","2202401","2019-11-15 21:00","2019","11","15","21:00","-12.8","","-15.4","","81","","","","30","","21","","19.3","","99.12","","","","-22","","Snow"
"-115.78","60.84","HAY RIVER A","2202401","2019-11-15 22:00","2019","11","15","22:00","-13.3","","-15.8","","81","","","","27","","16","","24.1","","99.19","","","","-21","","Snow"
"-115.78","60.84","HAY RIVER A","2202401","2019-11-15 23:00","2019","11","15","23:00","-13.9","","-16.6","","80","","","","28","","20","","19.3","","99.24","","","","-23","","Snow"
"-115.78","60.84","HAY RIVER A","2202401","2019-11-16 00:00","2019","11","16","00:00","-15.1","","-17.6","","81","","","","28","","14","","24.1","","99.31","","","","-23","","NA"
"-115.78","60.84","HAY RIVER A","2202401","2019-11-16 01:00","2019","11","16","01:00","-14.8","","-17.5","","80","","","","27","","12","","24.1","","99.35","","","","-22","","NA"
"-115.78","60.84","HAY RIVER A","2202401","2019-11-16 02:00","2019","11","16","02:00","-14.6","","-17.5","","79","","","","25","","13","","24.1","","99.39","","","","-22","","Mostly Cloudy"
"-115.78","60.84","HAY RIVER A","2202401","2019-11-16 03:00","2019","11","16","03:00","-14.6","","-17.6","","78","","","","25","","8","","24.1","","99.42","","","","-20","","NA"
"-115.78","60.84","HAY RIVER A","2202401","2019-11-16 04:00","2019","11","16","04:00","-15.3","","-18.2","","79","","","","25","","12","","24.1","","99.44","","","","-22","","NA"
"-115.78","60.84","HAY RIVER A","2202401","2019-11-16 05:00","2019","11","16","05:00","-15.6","","-18.4","","79","","","","25","","9","","24.1","","99.45","","","","-22","","Mostly Cloudy"
"-115.78","60.84","HAY RIVER A","2202401","2019-11-16 06:00","2019","11","16","06:00","-15.5","","-18.1","","81","","","","23","","9","","24.1","","99.45","","","","-21","","NA"
"-115.78","60.84","HAY RIVER A","2202401","2019-11-16 07:00","2019","11","16","07:00","-15.3","","-17.9","","81","","","","21","","8","","24.1","","99.41","","","","-21","","Snow"
"-115.78","60.84","HAY RIVER A","2202401","2019-11-16 08:00","2019","11","16","08:00","-15.3","","-18.1","","80","","","","20","","5","","24.1","","99.38","","","","-19","","Snow"
"-115.78","60.84","HAY RIVER A","2202401","2019-11-16 09:00","2019","11","16","09:00","-15.1","","-18.0","","79","","","","18","","8","","24.1","","99.33","","","","-20","","Snow"
"-115.78","60.84","HAY RIVER A","2202401","2019-11-16 10:00","2019","11","16","10:00","-14.9","","-17.9","","78","","","","18","","3","","24.1","","99.30","","","","-17","","NA"
"-115.78","60.84","HAY RIVER A","2202401","2019-11-16 11:00","2019","11","16","11:00","-14.4","","-17.7","","77","","","","23","","7","","24.1","","99.32","","","","-19","","Mostly Cloudy"
"-115.78","60.84","HAY RIVER A","2202401","2019-11-16 12:00","2019","11","16","12:00","-14.1","","-17.6","","75","","","","15","","4","","24.1","","99.23","","","","-17","","NA"
"-115.78","60.84","HAY RIVER A","2202401","2019-11-16 13:00","2019","11","16","13:00","-13.5","","-17.0","","75","","","","17","","7","","24.1","","99.18","","","","-18","","NA"
"-115.78","60.84","HAY RIVER A","2202401","2019-11-16 14:00","2019","11","16","14:00","-13.2","","-16.9","","74","","","","36","","2","","24.1","","99.09","","","","-15","","Mostly Cloudy"
"-115.78","60.84","HAY RIVER A","2202401","2019-11-16 15:00","2019","11","16","15:00","-12.8","","-16.3","","75","","","","17","","4","","24.1","","99.00","","","","-15","","NA"
"-115.78","60.84","HAY RIVER A","2202401","2019-11-16 16:00","2019","11","16","16:00","-12.6","","-15.9","","76","","","","12","","4","","24.1","","98.91","","","","-15","","NA"
"-115.78","60.84","HAY RIVER A","2202401","2019-11-16 17:00","2019","11","16","17:00","-15.0","","-16.6","","88","","","","31","","4","","24.1","","98.88","","","","-18","","Mostly Cloudy"
"-115.78","60.84","HAY RIVER A","2202401","2019-11-16 18:00","2019","11","16","18:00","-15.5","","-17.3","","86","","","","6","","3","","24.1","","98.81","","","","-18","","NA"
"-115.78","60.84","HAY RIVER A","2202401","2019-11-16 19:00","2019","11","16","19:00","-15.5","","-17.2","","87","","","","36","","2","","24.1","","98.73","","","","-17","","NA"
"-115.78","60.84","HAY RIVER A","2202401","2019-11-16 20:00","2019","11","16","20:00","-14.4","","-16.2","","86","","","","","","0","","19.3","","98.64","","","","","","Snow"
"-115.78","60.84","HAY RIVER A","2202401","2019-11-16 21:00","2019","11","16","21:00","-13.4","","-15.3","","86","","","","36","","1","","24.1","","98.56","","","","-14","","Snow"
"-115.78","60.84","HAY RIVER A","2202401","2019-11-16 22:00","2019","11","16","22:00","-12.5","","-14.5","","85","","","","36","","1","","24.1","","98.48","","","","-13","","Snow"
"-115.78","60.84","HAY RIVER A","2202401","2019-11-16 23:00","2019","11","16","23:00","-12.4","","-14.3","","85","","","","36","","3","","19.3","","98.39","","","","-14","","Snow"
"-115.78","60.84","HAY RIVER A","2202401","2019-11-17 00:00","2019","11","17","00:00","-12.1","","-14.1","","85","","","","23","","10","","24.1","","98.38","","","","-18","","Snow"
"-115.78","60.84","HAY RIVER A","2202401","2019-11-17 01:00","2019","11","17","01:00","-11.6","","-13.3","","87","","","","25","","5","","24.1","","98.36","","","","-15","","Snow"
"-115.78","60.84","HAY RIVER A","2202401","2019-11-17 02:00","2019","11","17","02:00","-10.4","","-11.9","","89","","","","34","","10","","24.1","","98.27","","","","-16","","Snow"
"-115.78","60.84","HAY RIVER A","2202401","2019-11-17 03:00","2019","11","17","03:00","-10.3","","-11.8","","89","","","","34","","9","","24.1","","98.18","","","","-15","","Snow"
"-115.78","60.84","HAY RIVER A","2202401","2019-11-17 04:00","2019","11","17","04:00","-10.4","","-11.7","","90","","","","33","","14","","24.1","","98.11","","","","-17","","Snow"
"-115.78","60.84","HAY RIVER A","2202401","2019-11-17 05:00","2019","11","17","05:00","-9.8","","-10.9","","92","","","","33","","14","","24.1","","98.07","","","","-16","","Snow"
"-115.78","60.84","HAY RIVER A","2202401","2019-11-17 06:00","2019","11","17","06:00","-10.4","","-12.0","","88","","","","28","","18","","4.8","","98.06","","","","-18","","Snow"
"-115.78","60.84","HAY RIVER A","2202401","2019-11-17 07:00","2019","11","17","07:00","-12.1","","-13.6","","88","","","","29","","19","","3.2","","98.02","","","","-20","","Freezing Drizzle,Snow"
"-115.78","60.84","HAY RIVER A","2202401","2019-11-17 08:00","2019","11","17","08:00","-12.2","","-13.8","","88","","","","29","","16","","2.8","","97.98","","","","-20","","Snow,Fog"
"-115.78","60.84","HAY RIVER A","2202401","2019-11-17 09:00","2019","11","17","09:00","-12.5","","-14.2","","87","","","","28","","16","","2.8","","97.98","","","","-20","","Snow,Fog"
"-115.78","60.84","HAY RIVER A","2202401","2019-11-17 10:00","2019","11","17","10:00","-12.5","","-13.9","","89","","","","27","","10","","2.8","","97.96","","","","-18","","Snow,Fog"
"-115.78","60.84","HAY RIVER A","2202401","2019-11-17 11:00","2019","11","17","11:00","-12.0","","-13.8","","87","","","","27","","12","","4.0","","97.94","","","","-18","","Snow"
"-115.78","60.84","HAY RIVER A","2202401","2019-11-17 12:00","2019","11","17","12:00","-11.5","","-13.3","","87","","","","27","","15","","6.4","","97.92","","","","-19","","Snow"
"-115.78","60.84","HAY RIVER A","2202401","2019-11-17 13:00","2019","11","17","13:00","-11.0","","-12.7","","87","","","","27","","21","","6.4","","97.89","","","","-19","","Snow"
"-115.78","60.84","HAY RIVER A","2202401","2019-11-17 14:00","2019","11","17","14:00","-10.5","","-12.2","","88","","","","26","","22","","4.8","","97.83","","","","-19","","Snow,Blowing Snow"
"-115.78","60.84","HAY RIVER A","2202401","2019-11-17 15:00","2019","11","17","15:00","-10.0","","-11.6","","88","","","","27","","26","","3.6","","97.85","","","","-19","","Snow,Blowing Snow"
"-115.78","60.84","HAY RIVER A","2202401","2019-11-17 16:00","2019","11","17","16:00","-10.4","","-12.0","","88","","","","28","","28","","8.1","","97.89","","","","-20","","Snow,Blowing Snow"
"-115.78","60.84","HAY RIVER A","2202401","2019-11-17 17:00","2019","11","17","17:00","-8.7","","-10.2","","88","","","","30","","23","","16.1","","97.91","","","","-17","","Snow,Blowing Snow"
"-115.78","60.84","HAY RIVER A","2202401","2019-11-17 18:00","2019","11","17","18:00","-8.8","","-10.2","","90","","","","31","","23","","11.3","","97.88","","","","-17","","Freezing Drizzle,Snow"
"-115.78","60.84","HAY RIVER A","2202401","2019-11-17 19:00","2019","11","17","19:00","-8.9","","-10.1","","91","","","","30","","17","","4.8","","97.92","","","","-16","","Freezing Drizzle,Snow"
"-115.78","60.84","HAY RIVER A","2202401","2019-11-17 20:00","2019","11","17","20:00","-9.6","","-10.9","","90","","","","29","","18","","3.2","","97.93","","","","-17","","Freezing Drizzle,Snow"
"-115.78","60.84","HAY RIVER A","2202401","2019-11-17 21:00","2019","11","17","21:00","-10.2","","-11.6","","89","","","","29","","20","","1.6","","97.96","","","","-18","","Freezing Drizzle,Snow"
"-115.78","60.84","HAY RIVER A","2202401","2019-11-17 22:00","2019","11","17","22:00","-10.8","","-12.3","","88","","","","29","","22","","2.4","","98.00","","","","-19","","Fog"
"-115.78","60.84","HAY RIVER A","2202401","2019-11-17 23:00","2019","11","17","23:00","-11.2","","-12.9","","87","","","","29","","21","","3.2","","98.06","","","","-20","","Snow"
"-115.78","60.84","HAY RIVER A","2202401","2019-11-18 00:00","2019","11","18","00:00","-11.3","","-13.0","","87","","","","30","","23","","3.2","","98.11","","","","-20","","Snow"
"-115.78","60.84","HAY RIVER A","2202401","2019-11-18 01:00","2019","11","18","01:00","-11.2","","-12.9","","87","","","","30","","22","","3.2","","98.17","","","","-20","","Snow"
"-115.78","60.84","HAY RIVER A","2202401","2019-11-18 02:00","2019","11","18","02:00","-11.7","","-13.5","","86","","","","29","","25","","8.1","","98.27","","","","-21","","Snow"
"-115.78","60.84","HAY RIVER A","2202401","2019-11-18 03:00","2019","11","18","03:00","-11.8","","-13.6","","86","","","","29","","22","","3.2","","98.34","","","","-21","","Snow"
"-115.78","60.84","HAY RIVER A","2202401","2019-11-18 04:00","2019","11","18","04:00","-12.0","","-14.1","","84","","","","29","","33","","8.1","","98.43","","","","-23","","Snow"
"-115.78","60.84","HAY RIVER A","2202401","2019-11-18 05:00","2019","11","18","05:00","-12.1","","-14.1","","85","","","","29","","31","","8.1","","98.52","","","","-22","","Snow"
"-115.78","60.84","HAY RIVER A","2202401","2019-11-18 06:00","2019","11","18","06:00","-12.2","","-14.2","","85","","","","29","","28","","3.2","","98.60","","","","-22","","Snow"
"-115.78","60.84","HAY RIVER A","2202401","2019-11-18 07:00","2019","11","18","07:00","-12.4","","-14.7","","83","","","","29","","25","","3.2","","98.71","","","","-22","","Snow,Blowing Snow"
"-115.78","60.84","HAY RIVER A","2202401","2019-11-18 08:00","2019","11","18","08:00","-12.3","","-14.6","","83","","","","30","","30","","3.2","","98.81","","","","-23","","Snow,Blowing Snow"
"-115.78","60.84","HAY RIVER A","2202401","2019-11-18 09:00","2019","11","18","09:00","-12.9","","-15.0","","85","","","","29","","30","","2.4","","98.90","","","","-23","","Snow,Blowing Snow"
"-115.78","60.84","HAY RIVER A","2202401","2019-11-18 10:00","2019","11","18","10:00","-13.1","","-15.2","","85","","","","29","","27","","1.6","","99.00","","","","-23","","Snow,Blowing Snow"
"-115.78","60.84","HAY RIVER A","2202401","2019-11-18 11:00","2019","11","18","11:00","-13.3","","-15.4","","84","","","","29","","26","","2.4","","99.09","","","","-23","","Snow,Blowing Snow"
"-115.78","60.84","HAY RIVER A","2202401","2019-11-18 12:00","2019","11","18","12:00","-13.0","","-16.2","","77","","","","31","","30","","24.1","","99.16","","","","-23","","Blowing Snow"
"-115.78","60.84","HAY RIVER A","2202401","2019-11-18 13:00","2019","11","18","13:00","-13.7","","-16.2","","81","","","","29","","20","","24.1","","99.21","","","","-23","","Blowing Snow"
"-115.78","60.84","HAY RIVER A","2202401","2019-11-18 14:00","2019","11","18","14:00","-13.8","","-16.5","","80","","","","29","","19","","24.1","","99.28","","","","-22","","Blowing Snow"
"-115.78","60.84","HAY RIVER A","2202401","2019-11-18 15:00","2019","11","18","15:00","-14.4","","-16.9","","82","","","","28","","12","","24.1","","99.34","","","","-21","","NA"
"-115.78","60.84","HAY RIVER A","2202401","2019-11-18 16:00","2019","11","18","16:00","-15.2","","-17.5","","83","","","","25","","13","","24.1","","99.37","","","","-23","","NA"
"-115.78","60.84","HAY RIVER A","2202401","2019-11-18 17:00","2019","11","18","17:00","-16.2","","-18.5","","83","","","","26","","9","","24.1","","99.39","","","","-22","","Mainly Clear"
"-115.78","60.84","HAY RIVER A","2202401","2019-11-18 18:00","2019","11","18","18:00","-17.0","","-19.2","","83","","","","28","","12","","24.1","","99.42","","","","-24","","NA"
"-115.78","60.84","HAY RIVER A","2202401","2019-11-18 19:00","2019","11","18","19:00","-17.1","","-19.4","","83","","","","27","","14","","24.1","","99.46","","","","-25","","NA"
"-115.78","60.84","HAY RIVER A","2202401","2019-11-18 20:00","2019","11","18","20:00","-17.4","","-19.6","","83","","","","26","","16","","24.1","","99.51","","","","-26","","Mostly Cloudy"
"-115.78","60.84","HAY RIVER A","2202401","2019-11-18 21:00","2019","11","18","21:00","-16.4","","-18.4","","84","","","","30","","14","","24.1","","99.51","","","","-24","","Snow"
"-115.78","60.84","HAY RIVER A","2202401","2019-11-18 22:00","2019","11","18","22:00","-15.2","","-17.9","","80","","","","33","","14","","24.1","","99.52","","","","-23","","Snow"
"-115.78","60.84","HAY RIVER A","2202401","2019-11-18 23:00","2019","11","18","23:00","-15.2","","-18.0","","79","","","","34","","13","","24.1","","99.54","","","","-23","","Snow"
"-115.78","60.84","HAY RIVER A","2202401","2019-11-19 00:00","2019","11","19","00:00","-16.7","","-19.9","","76","","","","33","","20","","24.1","","99.59","","","","-26","","Snow"
"-115.78","60.84","HAY RIVER A","2202401","2019-11-19 01:00","2019","11","19","01:00","-16.7","","-19.7","","78","","","","33","","15","","24.1","","99.61","","","","-25","","NA"
"-115.78","60.84","HAY RIVER A","2202401","2019-11-19 02:00","2019","11","19","02:00","-18.0","","-20.8","","79","","","","30","","10","","24.1","","99.64","","","","-25","","Mainly Clear"
"-115.78","60.84","HAY RIVER A","2202401","2019-11-19 03:00","2019","11","19","03:00","-22.1","","-24.4","","82","","","","24","","7","","24.1","","99.68","","","","-28","","NA"
"-115.78","60.84","HAY RIVER A","2202401","2019-11-19 04:00","2019","11","19","04:00","-23.2","","-25.5","","82","","","","25","","9","","24.1","","99.73","","","","-31","","NA"
"-115.78","60.84","HAY RIVER A","2202401","2019-11-19 05:00","2019","11","19","05:00","-22.2","","-24.5","","82","","","","24","","3","","24.1","","99.77","","","","-25","","Clear"
"-115.78","60.84","HAY RIVER A","2202401","2019-11-19 06:00","2019","11","19","06:00","-22.1","","-24.4","","82","","","","25","","6","","24.1","","99.80","","","","-27","","Ice Crystals"
"-115.78","60.84","HAY RIVER A","2202401","2019-11-19 07:00","2019","11","19","07:00","-23.4","","-25.9","","80","","","","25","","8","","24.1","","99.84","","","","-30","","Ice Crystals"
"-115.78","60.84","HAY RIVER A","2202401","2019-11-19 08:00","2019","11","19","08:00","-22.9","","-25.5","","80","","","","31","","5","","24.1","","99.87","","","","-28","","Ice Crystals"
"-115.78","60.84","HAY RIVER A","2202401","2019-11-19 09:00","2019","11","19","09:00","-23.7","","-26.1","","81","","","","24","","7","","24.1","","99.90","","","","-30","","NA"
"-115.78","60.84","HAY RIVER A","2202401","2019-11-19 10:00","2019","11","19","10:00","-23.7","","-26.2","","80","","","","23","","5","","24.1","","99.97","","","","-28","","NA"
"-115.78","60.84","HAY RIVER A","2202401","2019-11-19 11:00","2019","11","19","11:00","-21.9","","-24.3","","81","","","","24","","6","","24.1","","100.02","","","","-27","","Mostly Cloudy"
"-115.78","60.84","HAY RIVER A","2202401","2019-11-19 12:00","2019","11","19","12:00","-18.8","","-21.0","","82","","","","26","","7","","24.1","","100.04","","","","-24","","NA"
"-115.78","60.84","HAY RIVER A","2202401","2019-11-19 13:00","2019","11","19","13:00","-17.1","","-19.3","","83","","","","28","","8","","24.1","","100.06","","","","-23","","NA"
"-115.78","60.84","HAY RIVER A","2202401","2019-11-19 14:00","2019","11","19","14:00","-16.7","","-19.1","","82","","","","28","","8","","24.1","","100.13","","","","-22","","Snow"
"-115.78","60.84","HAY RIVER A","2202401","2019-11-19 15:00","2019","11","19","15:00","-16.5","","-19.2","","80","","","","36","","3","","24.1","","100.12","","","","-19","","Snow"
"-115.78","60.84","HAY RIVER A","2202401","2019-11-19 16:00","2019","11","19","16:00","-16.4","","-18.9","","81","","","","25","","8","","24.1","","100.16","","","","-22","","Snow"
"-115.78","60.84","HAY RIVER A","2202401","2019-11-19 17:00","2019","11","19","17:00","-16.4","","-18.8","","82","","","","36","","3","","24.1","","100.16","","","","-19","","Snow"
"-115.78","60.84","HAY RIVER A","2202401","2019-11-19 18:00","2019","11","19","18:00","-16.2","","-18.5","","82","","","","27","","4","","24.1","","100.21","","","","-19","","Snow"
"-115.78","60.84","HAY RIVER A","2202401","2019-11-19 19:00","2019","11","19","19:00","-16.1","","-18.4","","83","","","","36","","1","","16.1","","100.23","","","","-17","","Snow"
"-115.78","60.84","HAY RIVER A","2202401","2019-11-19 20:00","2019","11","19","20:00","-15.8","","-18.1","","83","","","","28","","4","","12.9","","100.22","","","","-19","","Snow"
"-115.78","60.84","HAY RIVER A","2202401","2019-11-19 21:00","2019","11","19","21:00","-15.7","","-17.8","","84","","","","15","","4","","17.7","","100.17","","","","-19","","Snow"
"-115.78","60.84","HAY RIVER A","2202401","2019-11-19 22:00","2019","11","19","22:00","-15.2","","-17.3","","84","","","","36","","2","","24.1","","100.24","","","","-17","","Snow"
"-115.78","60.84","HAY RIVER A","2202401","2019-11-19 23:00","2019","11","19","23:00","-14.9","","-17.0","","84","","","","17","","4","","24.1","","100.22","","","","-18","","Snow"
"-115.78","60.84","HAY RIVER A","2202401","2019-11-20 00:00","2019","11","20","00:00","-14.4","","-16.5","","85","","","","14","","5","","24.1","","100.16","","","","-18","","Snow"
"-115.78","60.84","HAY RIVER A","2202401","2019-11-20 01:00","2019","11","20","01:00","-14.2","","-16.7","","81","","","","17","","10","","24.1","","100.20","","","","-20","","Snow"
"-115.78","60.84","HAY RIVER A","2202401","2019-11-20 02:00","2019","11","20","02:00","-14.4","","-16.9","","82","","","","14","","9","","17.7","","100.11","","","","-20","","Snow"
"-115.78","60.84","HAY RIVER A","2202401","2019-11-20 03:00","2019","11","20","03:00","-14.6","","-16.8","","84","","","","16","","11","","22.5","","100.04","","","","-21","","Snow"
"-115.78","60.84","HAY RIVER A","2202401","2019-11-20 04:00","2019","11","20","04:00","-14.2","","-16.4","","84","","","","17","","12","","24.1","","100.03","","","","-21","","Snow"
"-115.78","60.84","HAY RIVER A","2202401","2019-11-20 05:00","2019","11","20","05:00","-14.0","","-16.2","","84","","","","15","","15","","16.1","","99.94","","","","-22","","Snow"
"-115.78","60.84","HAY RIVER A","2202401","2019-11-20 06:00","2019","11","20","06:00","-14.0","","-16.2","","84","","","","14","","15","","24.1","","99.84","","","","-22","","NA"
"-115.78","60.84","HAY RIVER A","2202401","2019-11-20 07:00","2019","11","20","07:00","-13.7","","-15.7","","85","","","","14","","17","","24.1","","99.76","","","","-22","","Snow"
"-115.78","60.84","HAY RIVER A","2202401","2019-11-20 08:00","2019","11","20","08:00","-12.9","","-14.8","","86","","","","15","","17","","24.1","","99.65","","","","-21","","Snow"
"-115.78","60.84","HAY RIVER A","2202401","2019-11-20 09:00","2019","11","20","09:00","-13.3","","-15.4","","84","","","","14","","17","","24.1","","99.52","","","","-21","","NA"
"-115.78","60.84","HAY RIVER A","2202401","2019-11-20 10:00","2019","11","20","10:00","-14.2","","-16.6","","82","","","","15","","22","","24.1","","99.40","","","","-24","","NA"
"-115.78","60.84","HAY RIVER A","2202401","2019-11-20 11:00","2019","11","20","11:00","-13.4","","-15.7","","83","","","","14","","22","","24.1","","99.23","","","","-23","","Mostly Cloudy"
"-115.78","60.84","HAY RIVER A","2202401","2019-11-20 12:00","2019","11","20","12:00","-11.8","","-14.0","","84","","","","16","","31","","24.1","","99.07","","","","-22","","NA"
"-115.78","60.84","HAY RIVER A","2202401","2019-11-20 13:00","2019","11","20","13:00","-10.4","","-12.7","","84","","","","16","","30","","24.1","","98.93","","","","-20","","Blowing Snow"
"-115.78","60.84","HAY RIVER A","2202401","2019-11-20 14:00","2019","11","20","14:00","-8.8","","-11.1","","83","","","","17","","30","","24.1","","98.79","","","","-18","","Blowing Snow"
"-115.78","60.84","HAY RIVER A","2202401","2019-11-20 15:00","2019","11","20","15:00","-7.5","","-9.9","","83","","","","17","","27","","24.1","","98.75","","","","-16","","Blowing Snow"
"-115.78","60.84","HAY RIVER A","2202401","2019-11-20 16:00","2019","11","20","16:00","-7.6","","-9.8","","84","","","","17","","28","","24.1","","98.62","","","","-16","","Blowing Snow"
"-115.78","60.84","HAY RIVER A","2202401","2019-11-20 17:00","2019","11","20","17:00","-7.8","","-9.9","","85","","","","17","","24","","24.1","","98.51","","","","-16","","Blowing Snow"
"-115.78","60.84","HAY RIVER A","2202401","2019-11-20 18:00","2019","11","20","18:00","-7.1","","-9.2","","85","","","","18","","26","","24.1","","98.44","","","","-15","","NA"
"-115.78","60.84","HAY RIVER A","2202401","2019-11-20 19:00","2019","11","20","19:00","-6.9","","-9.1","","85","","","","19","","20","","24.1","","98.39","","","","-14","","NA"
"-115.78","60.84","HAY RIVER A","2202401","2019-11-20 20:00","2019","11","20","20:00","-6.1","","-8.5","","83","","","","19","","17","","24.1","","98.30","","","","-12","","Mainly Clear"
"-115.78","60.84","HAY RIVER A","2202401","2019-11-20 21:00","2019","11","20","21:00","-6.1","","-8.4","","84","","","","20","","15","","24.1","","98.29","","","","-12","","NA"
"-115.78","60.84","HAY RIVER A","2202401","2019-11-20 22:00","2019","11","20","22:00","-6.4","","-8.4","","85","","","","18","","12","","24.1","","98.22","","","","-12","","NA"
"-115.78","60.84","HAY RIVER A","2202401","2019-11-20 23:00","2019","11","20","23:00","-6.7","","-8.6","","86","","","","19","","11","","24.1","","98.20","","","","-12","","Mainly Clear"
"-115.78","60.84","HAY RIVER A","2202401","2019-11-21 00:00","2019","11","21","00:00","-6.5","","-8.4","","86","","","","20","","11","","24.1","","98.17","","","","-11","","NA"
"-115.78","60.84","HAY RIVER A","2202401","2019-11-21 01:00","2019","11","21","01:00","-6.7","","-8.5","","87","","","","18","","13","","24.1","","98.08","","","","-12","","NA"
"-115.78","60.84","HAY RIVER A","2202401","2019-11-21 02:00","2019","11","21","02:00","-5.9","","-7.7","","87","","","","20","","11","","24.1","","98.07","","","","-11","","Mostly Cloudy"
"-115.78","60.84","HAY RIVER A","2202401","2019-11-21 03:00","2019","11","21","03:00","-4.6","","-6.7","","86","","","","21","","10","","24.1","","98.02","","","","-9","","NA"
"-115.78","60.84","HAY RIVER A","2202401","2019-11-21 04:00","2019","11","21","04:00","-4.4","","-6.2","","87","","","","21","","12","","24.1","","97.99","","","","-9","","NA"
"-115.78","60.84","HAY RIVER A","2202401","2019-11-21 05:00","2019","11","21","05:00","-5.0","","-6.7","","88","","","","18","","12","","24.1","","97.90","","","","-10","","Mostly Cloudy"
"-115.78","60.84","HAY RIVER A","2202401","2019-11-21 06:00","2019","11","21","06:00","-4.5","","-6.5","","86","","","","18","","12","","24.1","","97.83","","","","-9","","NA"
"-115.78","60.84","HAY RIVER A","2202401","2019-11-21 07:00","2019","11","21","07:00","-3.8","","-5.8","","86","","","","20","","13","","24.1","","97.77","","","","-9","","NA"
"-115.78","60.84","HAY RIVER A","2202401","2019-11-21 08:00","2019","11","21","08:00","-2.6","","-4.9","","84","","","","21","","14","","24.1","","97.73","","","","-7","","Mostly Cloudy"
"-115.78","60.84","HAY RIVER A","2202401","2019-11-21 09:00","2019","11","21","09:00","-1.8","","-4.4","","82","","","","21","","15","","24.1","","97.69","","","","-7","","NA"
"-115.78","60.84","HAY RIVER A","2202401","2019-11-21 10:00","2019","11","21","10:00","-0.6","","-3.6","","80","","","","22","","14","","24.1","","97.63","","","","-5","","NA"
"-115.78","60.84","HAY RIVER A","2202401","2019-11-21 11:00","2019","11","21","11:00","0.4","","-2.8","","80","","","","20","","15","","24.1","","97.59","","","","","","Mostly Cloudy"
"-115.78","60.84","HAY RIVER A","2202401","2019-11-21 12:00","2019","11","21","12:00","0.7","","-2.0","","82","","","","19","","11","","24.1","","97.49","","","","","","NA"
"-115.78","60.84","HAY RIVER A","2202401","2019-11-21 13:00","2019","11","21","13:00","1.8","","-0.9","","82","","","","17","","10","","24.1","","97.47","","","","","","NA"
"-115.78","60.84","HAY RIVER A","2202401","2019-11-21 14:00","2019","11","21","14:00","3.3","","-0.1","","79","","","","19","","15","","24.1","","97.43","","","","","","Mostly Cloudy"
"-115.78","60.84","HAY RIVER A","2202401","2019-11-21 15:00","2019","11","21","15:00","2.8","","-0.2","","81","","","","20","","17","","24.1","","97.40","","","","","","NA"
"-115.78","60.84","HAY RIVER A","2202401","2019-11-21 16:00","2019","11","21","16:00","3.0","","0.0","","81","","","","21","","17","","24.1","","97.38","","","","","","NA"
"-115.78","60.84","HAY RIVER A","2202401","2019-11-21 17:00","2019","11","21","17:00","3.2","","0.1","","80","","","","22","","13","","24.1","","97.34","","","","","","Mostly Cloudy"
"-115.78","60.84","HAY RIVER A","2202401","2019-11-21 18:00","2019","11","21","18:00","3.1","","0.1","","80","","","","21","","12","","24.1","","97.33","","","","","","NA"
"-115.78","60.84","HAY RIVER A","2202401","2019-11-21 19:00","2019","11","21","19:00","2.6","","-0.2","","82","","","","21","","13","","24.1","","97.31","","","","","","NA"
"-115.78","60.84","HAY RIVER A","2202401","2019-11-21 20:00","2019","11","21","20:00","1.7","","-0.5","","85","","","","22","","11","","24.1","","97.29","","","","","","Mostly Cloudy"
"-115.78","60.84","HAY RIVER A","2202401","2019-11-21 21:00","2019","11","21","21:00","0.5","","-0.8","","91","","","","21","","9","","24.1","","97.30","","","","","","NA"
"-115.78","60.84","HAY RIVER A","2202401","2019-11-21 22:00","2019","11","21","22:00","0.2","","-1.1","","91","","","","31","","5","","24.1","","97.35","","","","","","NA"
"-115.78","60.84","HAY RIVER A","2202401","2019-11-21 23:00","2019","11","21","23:00","-3.3","","-4.1","","94","","","","21","","6","","24.1","","97.36","","","","-6","","Mainly Clear"
"-115.78","60.84","HAY RIVER A","2202401","2019-11-22 00:00","2019","11","22","00:00","-1.5","","-2.6","","92","","","","28","","8","","24.1","","97.38","","","","-5","","NA"
"-115.78","60.84","HAY RIVER A","2202401","2019-11-22 01:00","2019","11","22","01:00","-1.3","","-2.2","","93","","","","32","","10","","24.1","","97.38","","","","-5","","NA"
"-115.78","60.84","HAY RIVER A","2202401","2019-11-22 02:00","2019","11","22","02:00","-3.9","","-4.5","","95","","","","29","","6","","24.1","","97.44","","","","-7","","Mainly Clear"
"-115.78","60.84","HAY RIVER A","2202401","2019-11-22 03:00","2019","11","22","03:00","-3.7","","-4.1","","97","","","","31","","5","","24.1","","97.45","","","","-6","","NA"
"-115.78","60.84","HAY RIVER A","2202401","2019-11-22 04:00","2019","11","22","04:00","-4.5","","-5.4","","93","","","","33","","15","","24.1","","97.53","","","","-10","","NA"
"-115.78","60.84","HAY RIVER A","2202401","2019-11-22 05:00","2019","11","22","05:00","-6.5","","-7.4","","94","","","","31","","10","","24.1","","97.55","","","","-11","","Mainly Clear"
"-115.78","60.84","HAY RIVER A","2202401","2019-11-22 06:00","2019","11","22","06:00","-7.5","","-8.8","","90","","","","32","","10","","24.1","","97.56","","","","-12","","NA"
"-115.78","60.84","HAY RIVER A","2202401","2019-11-22 07:00","2019","11","22","07:00","-7.8","","-8.6","","94","","","","27","","10","","24.1","","97.62","","","","-13","","NA"
"-115.78","60.84","HAY RIVER A","2202401","2019-11-22 08:00","2019","11","22","08:00","-9.6","","-10.7","","92","","","","29","","9","","24.1","","97.68","","","","-14","","Mainly Clear"
"-115.78","60.84","HAY RIVER A","2202401","2019-11-22 09:00","2019","11","22","09:00","-9.7","","-10.8","","92","","","","26","","11","","24.1","","97.70","","","","-15","","NA"
"-115.78","60.84","HAY RIVER A","2202401","2019-11-22 10:00","2019","11","22","10:00","-11.3","","-12.6","","90","","","","21","","5","","24.1","","97.73","","","","-14","","NA"
"-115.78","60.84","HAY RIVER A","2202401","2019-11-22 11:00","2019","11","22","11:00","-10.3","","-11.6","","91","","","","20","","4","","24.1","","97.72","","","","-13","","Mostly Cloudy"
"-115.78","60.84","HAY RIVER A","2202401","2019-11-22 12:00","2019","11","22","12:00","-8.4","","-9.4","","92","","","","18","","10","","24.1","","97.65","","","","-13","","NA"
"-115.78","60.84","HAY RIVER A","2202401","2019-11-22 13:00","2019","11","22","13:00","-8.4","","-9.4","","93","","","","17","","9","","24.1","","97.61","","","","-13","","NA"
"-115.78","60.84","HAY RIVER A","2202401","2019-11-22 14:00","2019","11","22","14:00","-8.5","","-9.5","","92","","","","10","","8","","24.1","","97.54","","","","-13","","Mostly Cloudy"
"-115.78","60.84","HAY RIVER A","2202401","2019-11-22 15:00","2019","11","22","15:00","-8.1","","-9.1","","93","","","","10","","10","","24.1","","97.41","","","","-13","","NA"
"-115.78","60.84","HAY RIVER A","2202401","2019-11-22 16:00","2019","11","22","16:00","-7.0","","-7.9","","94","","","","10","","12","","24.1","","97.35","","","","-12","","NA"
"-115.78","60.84","HAY RIVER A","2202401","2019-11-22 17:00","2019","11","22","17:00","-5.5","","-6.2","","95","","","","13","","12","","24.1","","97.21","","","","-10","","Mostly Cloudy"
"-115.78","60.84","HAY RIVER A","2202401","2019-11-22 18:00","2019","11","22","18:00","-3.2","","-3.6","","97","","","","13","","13","","24.1","","97.05","","","","-8","","NA"
"-115.78","60.84","HAY RIVER A","2202401","2019-11-22 19:00","2019","11","22","19:00","-0.4","","-2.3","","87","","","","16","","13","","24.1","","96.89","","","","-5","","NA"
"-115.78","60.84","HAY RIVER A","2202401","2019-11-22 20:00","2019","11","22","20:00","1.8","","-1.3","","80","","","","21","","14","","24.1","","96.91","","","","","","Rain"
"-115.78","60.84","HAY RIVER A","2202401","2019-11-22 21:00","2019","11","22","21:00","1.7","","-0.4","","86","","","","18","","17","","24.1","","96.80","","","","","","Rain"
"-115.78","60.84","HAY RIVER A","2202401","2019-11-22 22:00","2019","11","22","22:00","1.5","","-0.3","","88","","","","17","","22","","24.1","","96.65","","","","","","Rain"
"-115.78","60.84","HAY RIVER A","2202401","2019-11-22 23:00","2019","11","22","23:00","1.8","","-0.1","","87","","","","19","","15","","24.1","","96.57","","","","","","Rain"
"-115.78","60.84","HAY RIVER A","2202401","2019-11-23 00:00","2019","11","23","00:00","1.6","","-0.8","","84","","","","20","","14","","24.1","","96.51","","","","","","Rain"
"-115.78","60.84","HAY RIVER A","2202401","2019-11-23 01:00","2019","11","23","01:00","1.4","","-0.7","","86","","","","23","","10","","24.1","","96.57","","","","","","Rain"
"-115.78","60.84","HAY RIVER A","2202401","2019-11-23 02:00","2019","11","23","02:00","2.8","","-0.1","","81","","","","24","","16","","24.1","","96.55","","","","","","Mostly Cloudy"
"-115.78","60.84","HAY RIVER A","2202401","2019-11-23 03:00","2019","11","23","03:00","3.3","","-0.4","","77","","","","25","","18","","24.1","","96.55","","","","","","NA"
"-115.78","60.84","HAY RIVER A","2202401","2019-11-23 04:00","2019","11","23","04:00","4.1","","-1.8","","65","","","","26","","25","","24.1","","96.54","","","","","","NA"
"-115.78","60.84","HAY RIVER A","2202401","2019-11-23 05:00","2019","11","23","05:00","3.9","","-2.3","","64","","","","27","","24","","24.1","","96.58","","","","","","Mainly Clear"
"-115.78","60.84","HAY RIVER A","2202401","2019-11-23 06:00","2019","11","23","06:00","3.1","","-2.3","","68","","","","26","","19","","24.1","","96.64","","","","","","NA"
"-115.78","60.84","HAY RIVER A","2202401","2019-11-23 07:00","2019","11","23","07:00","2.8","","-2.5","","68","","","","27","","20","","24.1","","96.69","","","","","","NA"
"-115.78","60.84","HAY RIVER A","2202401","2019-11-23 08:00","2019","11","23","08:00","-2.0","","-4.0","","86","","","","32","","13","","24.1","","96.75","","","","-6","","Mainly Clear"
"-115.78","60.84","HAY RIVER A","2202401","2019-11-23 09:00","2019","11","23","09:00","-2.7","","-3.8","","92","","","","33","","15","","24.1","","96.84","","","","-8","","NA"
"-115.78","60.84","HAY RIVER A","2202401","2019-11-23 10:00","2019","11","23","10:00","-3.8","","-5.4","","89","","","","32","","12","","24.1","","96.88","","","","-8","","NA"
"-115.78","60.84","HAY RIVER A","2202401","2019-11-23 11:00","2019","11","23","11:00","-3.6","","-4.9","","90","","","","32","","5","","24.1","","96.90","","","","-6","","Mainly Clear"
"-115.78","60.84","HAY RIVER A","2202401","2019-11-23 12:00","2019","11","23","12:00","-2.9","","-5.2","","85","","","","32","","10","","24.1","","96.96","","","","-7","","NA"
"-115.78","60.84","HAY RIVER A","2202401","2019-11-23 13:00","2019","11","23","13:00","-2.2","","-5.0","","81","","","","29","","7","","24.1","","97.01","","","","-5","","NA"
"-115.78","60.84","HAY RIVER A","2202401","2019-11-23 14:00","2019","11","23","14:00","-1.9","","-4.7","","81","","","","31","","12","","24.1","","97.07","","","","-6","","Mainly Clear"
"-115.78","60.84","HAY RIVER A","2202401","2019-11-23 15:00","2019","11","23","15:00","-3.1","","-5.9","","81","","","","31","","10","","24.1","","97.12","","","","-7","","NA"
"-115.78","60.84","HAY RIVER A","2202401","2019-11-23 16:00","2019","11","23","16:00","-3.9","","-5.1","","92","","","","36","","1","","24.1","","97.13","","","","-4","","NA"
"-115.78","60.84","HAY RIVER A","2202401","2019-11-23 17:00","2019","11","23","17:00","-5.7","","-6.8","","92","","","","12","","3","","24.1","","97.13","","","","-7","","Mainly Clear"
"-115.78","60.84","HAY RIVER A","2202401","2019-11-23 18:00","2019","11","23","18:00","-5.6","","-6.0","","97","","","","36","","1","","24.1","","97.09","","","","-6","","NA"
"-115.78","60.84","HAY RIVER A","2202401","2019-11-23 19:00","2019","11","23","19:00","-4.2","","-5.2","","92","","","","4","","6","","24.1","","97.16","","","","-7","","NA"
"-115.78","60.84","HAY RIVER A","2202401","2019-11-23 20:00","2019","11","23","20:00","-7.8","","-8.5","","95","","","","36","","1","","24.1","","97.14","","","","-8","","Mainly Clear"
"-115.78","60.84","HAY RIVER A","2202401","2019-11-23 21:00","2019","11","23","21:00","-7.3","","-8.2","","93","","","","31","","4","","24.1","","97.19","","","","-9","","NA"
"-115.78","60.84","HAY RIVER A","2202401","2019-11-23 22:00","2019","11","23","22:00","-4.5","","-5.4","","93","","","","34","","10","","24.1","","97.20","","","","-9","","NA"
"-115.78","60.84","HAY RIVER A","2202401","2019-11-23 23:00","2019","11","23","23:00","-5.4","","-6.5","","92","","","","33","","10","","24.1","","97.24","","","","-10","","Mainly Clear"
"-115.78","60.84","HAY RIVER A","2202401","2019-11-24 00:00","2019","11","24","00:00","-5.1","","-6.9","","87","","","","33","","13","","24.1","","97.28","","","","-10","","NA"
"-115.78","60.84","HAY RIVER A","2202401","2019-11-24 01:00","2019","11","24","01:00","-5.6","","-7.3","","88","","","","33","","10","","24.1","","97.32","","","","-10","","NA"
"-115.78","60.84","HAY RIVER A","2202401","2019-11-24 02:00","2019","11","24","02:00","-6.2","","-7.4","","91","","","","32","","16","","24.1","","97.39","","","","-12","","Mainly Clear"
"-115.78","60.84","HAY RIVER A","2202401","2019-11-24 03:00","2019","11","24","03:00","-5.9","","-7.6","","87","","","","32","","18","","24.1","","97.47","","","","-12","","NA"
"-115.78","60.84","HAY RIVER A","2202401","2019-11-24 04:00","2019","11","24","04:00","-5.9","","-8.1","","84","","","","33","","20","","24.1","","97.53","","","","-13","","NA"
"-115.78","60.84","HAY RIVER A","2202401","2019-11-24 05:00","2019","11","24","05:00","-6.2","","-8.3","","85","","","","32","","20","","24.1","","97.67","","","","-13","","Mostly Cloudy"
"-115.78","60.84","HAY RIVER A","2202401","2019-11-24 06:00","2019","11","24","06:00","-6.5","","-8.7","","85","","","","33","","17","","24.1","","97.75","","","","-13","","NA"
"-115.78","60.84","HAY RIVER A","2202401","2019-11-24 07:00","2019","11","24","07:00","-6.7","","-8.9","","84","","","","33","","20","","16.1","","97.83","","","","-14","","Snow"
"-115.78","60.84","HAY RIVER A","2202401","2019-11-24 08:00","2019","11","24","08:00","-7.1","","-9.3","","85","","","","35","","10","","16.1","","97.86","","","","-12","","Snow"
"-115.78","60.84","HAY RIVER A","2202401","2019-11-24 09:00","2019","11","24","09:00","-7.3","","-9.4","","85","","","","33","","16","","24.1","","97.99","","","","-14","","Snow"
"-115.78","60.84","HAY RIVER A","2202401","2019-11-24 10:00","2019","11","24","10:00","-7.0","","-9.2","","84","","","","32","","18","","24.1","","98.06","","","","-14","","NA"
"-115.78","60.84","HAY RIVER A","2202401","2019-11-24 11:00","2019","11","24","11:00","-6.9","","-9.1","","85","","","","32","","14","","24.1","","98.15","","","","-13","","Mostly Cloudy"
"-115.78","60.84","HAY RIVER A","2202401","2019-11-24 12:00","2019","11","24","12:00","-7.3","","-9.0","","88","","","","28","","11","","24.1","","98.22","","","","-12","","NA"
"-115.78","60.84","HAY RIVER A","2202401","2019-11-24 13:00","2019","11","24","13:00","-7.9","","-9.5","","88","","","","28","","19","","24.1","","98.28","","","","-15","","NA"
"-115.78","60.84","HAY RIVER A","2202401","2019-11-24 14:00","2019","11","24","14:00","-7.8","","-9.4","","89","","","","29","","13","","24.1","","98.34","","","","-14","","Mostly Cloudy"
"-115.78","60.84","HAY RIVER A","2202401","2019-11-24 15:00","2019","11","24","15:00","-7.9","","-9.4","","89","","","","26","","10","","24.1","","98.42","","","","-13","","NA"
"-115.78","60.84","HAY RIVER A","2202401","2019-11-24 16:00","2019","11","24","16:00","-8.7","","-9.9","","91","","","","28","","14","","24.1","","98.45","","","","-15","","NA"
"-115.78","60.84","HAY RIVER A","2202401","2019-11-24 17:00","2019","11","24","17:00","-9.1","","-10.1","","93","","","","27","","10","","24.1","","98.51","","","","-14","","Cloudy"
"-115.78","60.84","HAY RIVER A","2202401","2019-11-24 18:00","2019","11","24","18:00","-9.2","","-10.2","","92","","","","27","","13","","24.1","","98.55","","","","-15","","NA"
"-115.78","60.84","HAY RIVER A","2202401","2019-11-24 19:00","2019","11","24","19:00","-9.6","","-10.6","","92","","","","22","","11","","6.4","","98.58","","","","-15","","Fog"
"-115.78","60.84","HAY RIVER A","2202401","2019-11-24 20:00","2019","11","24","20:00","-9.5","","-10.6","","92","","","","23","","10","","9.7","","98.63","","","","-15","","Fog"
"-115.78","60.84","HAY RIVER A","2202401","2019-11-24 21:00","2019","11","24","21:00","-9.4","","-10.4","","92","","","","26","","10","","9.7","","98.66","","","","-15","","Fog"
"-115.78","60.84","HAY RIVER A","2202401","2019-11-24 22:00","2019","11","24","22:00","-9.1","","-10.1","","92","","","","26","","10","","4.8","","98.69","","","","-14","","Fog"
"-115.78","60.84","HAY RIVER A","2202401","2019-11-24 23:00","2019","11","24","23:00","-8.9","","-9.9","","92","","","","28","","12","","3.2","","98.74","","","","-15","","Freezing Drizzle"
"-115.78","60.84","HAY RIVER A","2202401","2019-11-25 00:00","2019","11","25","00:00","-8.5","","-9.6","","92","","","","","","","M","9.7","","98.78","","","","","","Freezing Drizzle"
"-115.78","60.84","HAY RIVER A","2202401","2019-11-25 01:00","2019","11","25","01:00","-7.0","","-7.9","","93","","","","33","","10","","4.8","","98.82","","","","-12","","Snow"
"-115.78","60.84","HAY RIVER A","2202401","2019-11-25 02:00","2019","11","25","02:00","-7.2","","-8.1","","93","","","","35","","7","","4.8","","98.87","","","","-11","","Snow"
"-115.78","60.84","HAY RIVER A","2202401","2019-11-25 03:00","2019","11","25","03:00","-7.5","","-8.5","","93","","","","1","","4","","20.9","","98.93","","","","-10","","Snow"
"-115.78","60.84","HAY RIVER A","2202401","2019-11-25 04:00","2019","11","25","04:00","-7.6","","-8.5","","93","","","","33","","10","","3.2","","99.00","","","","-12","","Freezing Drizzle,Snow"
"-115.78","60.84","HAY RIVER A","2202401","2019-11-25 05:00","2019","11","25","05:00","-8.0","","-9.0","","93","","","","33","","15","","6.4","","99.07","","","","-14","","Freezing Drizzle"
"-115.78","60.84","HAY RIVER A","2202401","2019-11-25 06:00","2019","11","25","06:00","-7.9","","-8.9","","93","","","","33","","17","","11.3","","99.11","","","","-15","","Snow"
"-115.78","60.84","HAY RIVER A","2202401","2019-11-25 07:00","2019","11","25","07:00","-7.9","","-8.9","","92","","","","35","","5","","19.3","","99.19","","","","-11","","NA"
"-115.78","60.84","HAY RIVER A","2202401","2019-11-25 08:00","2019","11","25","08:00","-8.2","","-9.3","","92","","","","35","","9","","19.3","","99.27","","","","-13","","Cloudy"
"-115.78","60.84","HAY RIVER A","2202401","2019-11-25 09:00","2019","11","25","09:00","-8.9","","-10.1","","91","","","","1","","9","","17.7","","99.35","","","","-14","","NA"
"-115.78","60.84","HAY RIVER A","2202401","2019-11-25 10:00","2019","11","25","10:00","-9.5","","-10.8","","90","","","","2","","7","","24.1","","99.44","","","","-13","","Snow"
"-115.78","60.84","HAY RIVER A","2202401","2019-11-25 11:00","2019","11","25","11:00","-9.7","","-11.1","","90","","","","36","","8","","24.1","","99.52","","","","-14","","Cloudy"
"-115.78","60.84","HAY RIVER A","2202401","2019-11-25 12:00","2019","11","25","12:00","-10.3","","-11.9","","88","","","","36","","9","","24.1","","99.60","","","","-15","","NA"
"-115.78","60.84","HAY RIVER A","2202401","2019-11-25 13:00","2019","11","25","13:00","-10.8","","-12.4","","88","","","","33","","13","","22.5","","99.65","","","","-17","","Snow"
"-115.78","60.84","HAY RIVER A","2202401","2019-11-25 14:00","2019","11","25","14:00","-11.6","","-13.4","","87","","","","34","","10","","24.1","","99.72","","","","-17","","Snow"
"-115.78","60.84","HAY RIVER A","2202401","2019-11-25 15:00","2019","11","25","15:00","-12.1","","-13.8","","87","","","","33","","12","","22.5","","99.78","","","","-18","","Snow"
"-115.78","60.84","HAY RIVER A","2202401","2019-11-25 16:00","2019","11","25","16:00","-12.5","","-14.3","","87","","","","32","","12","","22.5","","99.87","","","","-19","","Snow"
"-115.78","60.84","HAY RIVER A","2202401","2019-11-25 17:00","2019","11","25","17:00","-12.7","","-14.6","","86","","","","31","","18","","16.1","","99.94","","","","-21","","Snow"
"-115.78","60.84","HAY RIVER A","2202401","2019-11-25 18:00","2019","11","25","18:00","-12.9","","-14.8","","85","","","","32","","16","","24.1","","99.98","","","","-21","","NA"
"-115.78","60.84","HAY RIVER A","2202401","2019-11-25 19:00","2019","11","25","19:00","-12.2","","-13.7","","88","","","","33","","14","","16.1","","100.03","","","","-19","","Snow"
"-115.78","60.84","HAY RIVER A","2202401","2019-11-25 20:00","2019","11","25","20:00","-11.8","","-13.5","","88","","","","33","","16","","24.1","","100.09","","","","-19","","Snow"
"-115.78","60.84","HAY RIVER A","2202401","2019-11-25 21:00","2019","11","25","21:00","-11.5","","-13.2","","87","","","","33","","18","","24.1","","100.13","","","","-19","","Snow"
"-115.78","60.84","HAY RIVER A","2202401","2019-11-25 22:00","2019","11","25","22:00","-12.1","","-13.8","","87","","","","33","","18","","24.1","","100.17","","","","-20","","Snow"
"-115.78","60.84","HAY RIVER A","2202401","2019-11-25 23:00","2019","11","25","23:00","-13.0","","-14.5","","89","","","","33","","21","","16.1","","100.24","","","","-22","","Snow"
"-115.78","60.84","HAY RIVER A","2202401","2019-11-26 00:00","2019","11","26","00:00","-13.4","","-15.1","","87","","","","32","","19","","8.1","","100.29","","","","-22","","Snow"
"-115.78","60.84","HAY RIVER A","2202401","2019-11-26 01:00","2019","11","26","01:00","-13.4","","-15.0","","87","","","","31","","17","","8.1","","100.30","","","","-21","","Snow"
"-115.78","60.84","HAY RIVER A","2202401","2019-11-26 02:00","2019","11","26","02:00","-13.1","","-15.0","","86","","","","30","","23","","8.1","","100.35","","","","-22","","Snow"
"-115.78","60.84","HAY RIVER A","2202401","2019-11-26 03:00","2019","11","26","03:00","-13.0","","-14.9","","85","","","","31","","25","","8.1","","100.43","","","","-23","","Snow"
"-115.78","60.84","HAY RIVER A","2202401","2019-11-26 04:00","2019","11","26","04:00","-12.8","","-14.6","","86","","","","30","","23","","4.8","","100.45","","","","-22","","Snow"
"-115.78","60.84","HAY RIVER A","2202401","2019-11-26 05:00","2019","11","26","05:00","-11.8","","-13.7","","86","","","","32","","26","","16.1","","100.47","","","","-21","","Snow"
"-115.78","60.84","HAY RIVER A","2202401","2019-11-26 06:00","2019","11","26","06:00","-11.3","","-13.1","","87","","","","32","","30","","16.1","","100.53","","","","-21","","Snow"
"-115.78","60.84","HAY RIVER A","2202401","2019-11-26 07:00","2019","11","26","07:00","-10.7","","-12.3","","88","","","","32","","27","","8.1","","100.58","","","","-20","","Snow"
"-115.78","60.84","HAY RIVER A","2202401","2019-11-26 08:00","2019","11","26","08:00","-8.9","","-10.3","","90","","","","33","","17","","14.5","","100.66","","","","-16","","Snow"
"-115.78","60.84","HAY RIVER A","2202401","2019-11-26 09:00","2019","11","26","09:00","-8.2","","-9.5","","90","","","","35","","13","","24.1","","100.71","","","","-14","","NA"
"-115.78","60.84","HAY RIVER A","2202401","2019-11-26 10:00","2019","11","26","10:00","-8.5","","-10.1","","89","","","","35","","13","","22.5","","100.80","","","","-14","","NA"
"-115.78","60.84","HAY RIVER A","2202401","2019-11-26 11:00","2019","11","26","11:00","-7.9","","-9.8","","87","","","","35","","13","","24.1","","100.88","","","","-14","","Mostly Cloudy"
"-115.78","60.84","HAY RIVER A","2202401","2019-11-26 12:00","2019","11","26","12:00","-8.5","","-10.5","","85","","","","34","","13","","16.1","","100.92","","","","-14","","Snow"
"-115.78","60.84","HAY RIVER A","2202401","2019-11-26 13:00","2019","11","26","13:00","-9.0","","-10.8","","87","","","","34","","16","","12.9","","100.96","","","","-16","","Snow"
"-115.78","60.84","HAY RIVER A","2202401","2019-11-26 14:00","2019","11","26","14:00","-9.3","","-11.0","","88","","","","35","","13","","19.3","","101.03","","","","-15","","Snow"
"-115.78","60.84","HAY RIVER A","2202401","2019-11-26 15:00","2019","11","26","15:00","-10.0","","-11.8","","87","","","","34","","16","","14.5","","101.09","","","","-17","","Snow,Blowing Snow"
"-115.78","60.84","HAY RIVER A","2202401","2019-11-26 16:00","2019","11","26","16:00","-10.2","","-11.9","","87","","","","35","","17","","19.3","","101.14","","","","-17","","Snow,Blowing Snow"
"-115.78","60.84","HAY RIVER A","2202401","2019-11-26 17:00","2019","11","26","17:00","-10.2","","-11.8","","88","","","","34","","16","","19.3","","101.22","","","","-17","","Snow,Blowing Snow"
"-115.78","60.84","HAY RIVER A","2202401","2019-11-26 18:00","2019","11","26","18:00","-11.0","","-12.6","","88","","","","34","","18","","19.3","","101.30","","","","-19","","Snow"
"-115.78","60.84","HAY RIVER A","2202401","2019-11-26 19:00","2019","11","26","19:00","-11.3","","-12.9","","88","","","","35","","15","","24.1","","101.36","","","","-18","","Snow"
"-115.78","60.84","HAY RIVER A","2202401","2019-11-26 20:00","2019","11","26","20:00","-11.3","","-13.3","","86","","","","34","","14","","24.1","","101.42","","","","-18","","Snow"
"-115.78","60.84","HAY RIVER A","2202401","2019-11-26 21:00","2019","11","26","21:00","-11.7","","-13.8","","85","","","","34","","16","","24.1","","101.45","","","","-19","","Snow"
"-115.78","60.84","HAY RIVER A","2202401","2019-11-26 22:00","2019","11","26","22:00","-12.0","","-13.8","","86","","","","35","","16","","24.1","","101.47","","","","-19","","Snow"
"-115.78","60.84","HAY RIVER A","2202401","2019-11-26 23:00","2019","11","26","23:00","-12.4","","-14.2","","87","","","","32","","20","","8.1","","101.53","","","","-21","","Snow"
"-115.78","60.84","HAY RIVER A","2202401","2019-11-27 00:00","2019","11","27","00:00","-12.5","","-14.3","","87","","","","33","","22","","16.1","","101.54","","","","-21","","Snow"
"-115.78","60.84","HAY RIVER A","2202401","2019-11-27 01:00","2019","11","27","01:00","-12.4","","-14.4","","85","","","","32","","25","","16.1","","101.55","","","","-22","","Snow"
"-115.78","60.84","HAY RIVER A","2202401","2019-11-27 02:00","2019","11","27","02:00","-12.4","","-14.3","","86","","","","31","","17","","8.1","","101.57","","","","-20","","Snow"
"-115.78","60.84","HAY RIVER A","2202401","2019-11-27 03:00","2019","11","27","03:00","-12.5","","-14.4","","86","","","","32","","16","","16.1","","101.57","","","","-20","","Snow"
"-115.78","60.84","HAY RIVER A","2202401","2019-11-27 04:00","2019","11","27","04:00","-13.0","","-14.8","","87","","","","29","","12","","24.1","","101.54","","","","-20","","Snow"
"-115.78","60.84","HAY RIVER A","2202401","2019-11-27 05:00","2019","11","27","05:00","-13.2","","-14.8","","88","","","","29","","14","","24.1","","101.52","","","","-20","","Snow"
"-115.78","60.84","HAY RIVER A","2202401","2019-11-27 06:00","2019","11","27","06:00","-12.9","","-14.6","","88","","","","28","","10","","24.1","","101.50","","","","-19","","Snow"
"-115.78","60.84","HAY RIVER A","2202401","2019-11-27 07:00","2019","11","27","07:00","-13.9","","-15.4","","88","","","","25","","8","","24.1","","101.51","","","","-19","","Snow"
"-115.78","60.84","HAY RIVER A","2202401","2019-11-27 08:00","2019","11","27","08:00","-14.3","","-15.9","","88","","","","23","","4","","24.1","","101.50","","","","-17","","Snow"
"-115.78","60.84","HAY RIVER A","2202401","2019-11-27 09:00","2019","11","27","09:00","-14.0","","-15.6","","88","","","","19","","9","","24.1","","101.46","","","","-20","","Snow"
"-115.78","60.84","HAY RIVER A","2202401","2019-11-27 10:00","2019","11","27","10:00","-14.0","","-15.8","","87","","","","21","","8","","24.1","","101.41","","","","-19","","NA"
"-115.78","60.84","HAY RIVER A","2202401","2019-11-27 11:00","2019","11","27","11:00","-14.6","","-16.4","","86","","","","19","","13","","24.1","","101.35","","","","-22","","Mostly Cloudy"
"-115.78","60.84","HAY RIVER A","2202401","2019-11-27 12:00","2019","11","27","12:00","-13.8","","-16.1","","83","","","","18","","12","","24.1","","101.30","","","","-21","","NA"
"-115.78","60.84","HAY RIVER A","2202401","2019-11-27 13:00","2019","11","27","13:00","-13.1","","-15.1","","85","","","","19","","13","","24.1","","101.26","","","","-20","","NA"
"-115.78","60.84","HAY RIVER A","2202401","2019-11-27 14:00","2019","11","27","14:00","-12.8","","-14.9","","84","","","","17","","19","","24.1","","101.13","","","","-21","","Mainly Clear"
"-115.78","60.84","HAY RIVER A","2202401","2019-11-27 15:00","2019","11","27","15:00","-13.4","","-15.5","","84","","","","17","","20","","24.1","","101.04","","","","-22","","NA"
"-115.78","60.84","HAY RIVER A","2202401","2019-11-27 16:00","2019","11","27","16:00","-14.9","","-16.9","","85","","","","17","","18","","24.1","","101.01","","","","-24","","NA"
"-115.78","60.84","HAY RIVER A","2202401","2019-11-27 17:00","2019","11","27","17:00","-15.3","","-17.4","","84","","","","18","","20","","24.1","","100.98","","","","-25","","Mainly Clear"
"-115.78","60.84","HAY RIVER A","2202401","2019-11-27 18:00","2019","11","27","18:00","-14.9","","-17.0","","84","","","","18","","24","","24.1","","100.91","","","","-25","","NA"
"-115.78","60.84","HAY RIVER A","2202401","2019-11-27 19:00","2019","11","27","19:00","-14.0","","-16.4","","82","","","","18","","22","","24.1","","100.83","","","","-23","","NA"
"-115.78","60.84","HAY RIVER A","2202401","2019-11-27 20:00","2019","11","27","20:00","-13.4","","-16.1","","80","","","","20","","21","","24.1","","100.78","","","","-22","","Mainly Clear"
"-115.78","60.84","HAY RIVER A","2202401","2019-11-27 21:00","2019","11","27","21:00","-13.5","","-16.1","","81","","","","18","","22","","24.1","","100.74","","","","-23","","NA"
"-115.78","60.84","HAY RIVER A","2202401","2019-11-27 22:00","2019","11","27","22:00","-13.6","","-15.7","","84","","","","19","","24","","24.1","","100.73","","","","-23","","NA"
"-115.78","60.84","HAY RIVER A","2202401","2019-11-27 23:00","2019","11","27","23:00","-13.1","","-15.6","","82","","","","18","","25","","24.1","","100.67","","","","-23","","Mainly Clear"
"-115.78","60.84","HAY RIVER A","2202401","2019-11-28 00:00","2019","11","28","00:00","-12.7","","-15.1","","82","","","","19","","33","","24.1","","100.56","","","","-23","","NA"
"-115.78","60.84","HAY RIVER A","2202401","2019-11-28 01:00","2019","11","28","01:00","-13.2","","-15.5","","83","","","","20","","31","","24.1","","100.51","","","","-24","","NA"
"-115.78","60.84","HAY RIVER A","2202401","2019-11-28 02:00","2019","11","28","02:00","-12.7","","-15.1","","83","","","","19","","26","","24.1","","100.41","","","","-22","","Mainly Clear"
"-115.78","60.84","HAY RIVER A","2202401","2019-11-28 03:00","2019","11","28","03:00","-13.3","","-15.6","","83","","","","19","","26","","24.1","","100.36","","","","-23","","NA"
"-115.78","60.84","HAY RIVER A","2202401","2019-11-28 04:00","2019","11","28","04:00","-14.0","","-16.3","","83","","","","18","","23","","24.1","","100.29","","","","-24","","NA"
"-115.78","60.84","HAY RIVER A","2202401","2019-11-28 05:00","2019","11","28","05:00","-14.0","","-16.3","","83","","","","18","","25","","24.1","","100.20","","","","-24","","Clear"
"-115.78","60.84","HAY RIVER A","2202401","2019-11-28 06:00","2019","11","28","06:00","-12.4","","-15.2","","80","","","","19","","27","","24.1","","100.13","","","","-22","","Blowing Snow"
"-115.78","60.84","HAY RIVER A","2202401","2019-11-28 07:00","2019","11","28","07:00","-12.4","","-15.3","","79","","","","19","","25","","24.1","","100.04","","","","-22","","Blowing Snow"
"-115.78","60.84","HAY RIVER A","2202401","2019-11-28 08:00","2019","11","28","08:00","-12.2","","-15.3","","78","","","","19","","28","","24.1","","99.97","","","","-22","","Blowing Snow"
"-115.78","60.84","HAY RIVER A","2202401","2019-11-28 09:00","2019","11","28","09:00","-11.8","","-15.2","","76","","","","20","","32","","24.1","","99.90","","","","-22","","Blowing Snow"
"-115.78","60.84","HAY RIVER A","2202401","2019-11-28 10:00","2019","11","28","10:00","-11.4","","-15.2","","74","","","","20","","25","","24.1","","99.83","","","","-21","","Blowing Snow"
"-115.78","60.84","HAY RIVER A","2202401","2019-11-28 11:00","2019","11","28","11:00","-10.9","","-15.0","","72","","","","19","","31","","24.1","","99.75","","","","-21","","Blowing Snow"
"-115.78","60.84","HAY RIVER A","2202401","2019-11-28 12:00","2019","11","28","12:00","-10.2","","-14.6","","71","","","","19","","34","","24.1","","99.68","","","","-20","","Blowing Snow"
"-115.78","60.84","HAY RIVER A","2202401","2019-11-28 13:00","2019","11","28","13:00","-9.6","","-14.1","","70","","","","19","","34","","24.1","","99.58","","","","-20","","Blowing Snow"
"-115.78","60.84","HAY RIVER A","2202401","2019-11-28 14:00","2019","11","28","14:00","-9.4","","-13.7","","71","","","","19","","37","","24.1","","99.45","","","","-20","","Blowing Snow"
"-115.78","60.84","HAY RIVER A","2202401","2019-11-28 15:00","2019","11","28","15:00","-9.1","","-13.5","","71","","","","19","","32","","24.1","","99.39","","","","-19","","Blowing Snow"
"-115.78","60.84","HAY RIVER A","2202401","2019-11-28 16:00","2019","11","28","16:00","-8.7","","-13.0","","71","","","","19","","34","","24.1","","99.29","","","","-18","","Blowing Snow"
"-115.78","60.84","HAY RIVER A","2202401","2019-11-28 17:00","2019","11","28","17:00","-8.4","","-13.2","","68","","","","20","","36","","24.1","","99.27","","","","-18","","Blowing Snow"
"-115.78","60.84","HAY RIVER A","2202401","2019-11-28 18:00","2019","11","28","18:00","-8.3","","-13.2","","68","","","","19","","33","","24.1","","99.20","","","","-18","","Blowing Snow"
"-115.78","60.84","HAY RIVER A","2202401","2019-11-28 19:00","2019","11","28","19:00","-8.2","","-13.3","","67","","","","20","","35","","24.1","","99.17","","","","-18","","Blowing Snow"
"-115.78","60.84","HAY RIVER A","2202401","2019-11-28 20:00","2019","11","28","20:00","-8.0","","-13.4","","65","","","","20","","29","","24.1","","99.21","","","","-17","","Blowing Snow"
"-115.78","60.84","HAY RIVER A","2202401","2019-11-28 21:00","2019","11","28","21:00","-7.9","","-13.2","","66","","","","20","","33","","24.1","","99.16","","","","-17","","Blowing Snow"
"-115.78","60.84","HAY RIVER A","2202401","2019-11-28 22:00","2019","11","28","22:00","-7.6","","-13.0","","66","","","","20","","26","","24.1","","99.13","","","","-16","","Blowing Snow"
"-115.78","60.84","HAY RIVER A","2202401","2019-11-28 23:00","2019","11","28","23:00","-7.3","","-12.8","","65","","","","20","","31","","24.1","","99.14","","","","-16","","Blowing Snow"
"-115.78","60.84","HAY RIVER A","2202401","2019-11-29 00:00","2019","11","29","00:00","-7.2","","-12.7","","65","","","","20","","22","","24.1","","99.21","","","","-15","","Blowing Snow"
"-115.78","60.84","HAY RIVER A","2202401","2019-11-29 01:00","2019","11","29","01:00","-7.1","","-12.7","","64","","","","21","","16","","24.1","","99.23","","","","-13","","NA"
"-115.78","60.84","HAY RIVER A","2202401","2019-11-29 02:00","2019","11","29","02:00","-7.1","","-12.6","","65","","","","21","","22","","24.1","","99.24","","","","-15","","Mostly Cloudy"
"-115.78","60.84","HAY RIVER A","2202401","2019-11-29 03:00","2019","11","29","03:00","-7.3","","-12.7","","65","","","","21","","16","","24.1","","99.27","","","","-14","","NA"
"-115.78","60.84","HAY RIVER A","2202401","2019-11-29 04:00","2019","11","29","04:00","-7.9","","-13.0","","67","","","","21","","13","","24.1","","99.27","","","","-14","","NA"
"-115.78","60.84","HAY RIVER A","2202401","2019-11-29 05:00","2019","11","29","05:00","-8.7","","-13.2","","70","","","","21","","11","","24.1","","99.30","","","","-14","","Mainly Clear"
"-115.78","60.84","HAY RIVER A","2202401","2019-11-29 06:00","2019","11","29","06:00","-9.2","","-13.5","","71","","","","20","","9","","24.1","","99.36","","","","-14","","NA"
"-115.78","60.84","HAY RIVER A","2202401","2019-11-29 07:00","2019","11","29","07:00","-9.8","","-13.7","","74","","","","21","","9","","24.1","","99.40","","","","-15","","NA"
"-115.78","60.84","HAY RIVER A","2202401","2019-11-29 08:00","2019","11","29","08:00","-10.9","","-14.0","","78","","","","18","","10","","24.1","","99.41","","","","-16","","Mainly Clear"
"-115.78","60.84","HAY RIVER A","2202401","2019-11-29 09:00","2019","11","29","09:00","-9.7","","-13.4","","75","","","","20","","14","","24.1","","99.39","","","","-16","","NA"
"-115.78","60.84","HAY RIVER A","2202401","2019-11-29 10:00","2019","11","29","10:00","-10.2","","-13.7","","76","","","","19","","9","","24.1","","99.51","","","","-15","","NA"
"-115.78","60.84","HAY RIVER A","2202401","2019-11-29 11:00","2019","11","29","11:00","-9.6","","-13.3","","75","","","","18","","15","","24.1","","99.45","","","","-16","","Mostly Cloudy"
"-115.78","60.84","HAY RIVER A","2202401","2019-11-29 12:00","2019","11","29","12:00","-8.5","","-12.7","","72","","","","20","","14","","24.1","","99.47","","","","-15","","NA"
"-115.78","60.84","HAY RIVER A","2202401","2019-11-29 13:00","2019","11","29","13:00","-7.6","","-12.4","","69","","","","20","","12","","24.1","","99.48","","","","-13","","NA"
"-115.78","60.84","HAY RIVER A","2202401","2019-11-29 14:00","2019","11","29","14:00","-7.6","","-12.4","","69","","","","19","","11","","24.1","","99.51","","","","-13","","Cloudy"
"-115.78","60.84","HAY RIVER A","2202401","2019-11-29 15:00","2019","11","29","15:00","-8.0","","-12.6","","70","","","","18","","11","","24.1","","99.51","","","","-13","","NA"
"-115.78","60.84","HAY RIVER A","2202401","2019-11-29 16:00","2019","11","29","16:00","-8.3","","-12.8","","70","","","","18","","13","","24.1","","99.52","","","","-14","","NA"
"-115.78","60.84","HAY RIVER A","2202401","2019-11-29 17:00","2019","11","29","17:00","-9.9","","-13.4","","76","","","","18","","10","","24.1","","99.56","","","","-15","","Mostly Cloudy"
"-115.78","60.84","HAY RIVER A","2202401","2019-11-29 18:00","2019","11","29","18:00","-11.0","","-14.3","","77","","","","17","","11","","24.1","","99.61","","","","-17","","NA"
"-115.78","60.84","HAY RIVER A","2202401","2019-11-29 19:00","2019","11","29","19:00","-11.7","","-14.6","","79","","","","17","","13","","24.1","","99.59","","","","-18","","NA"
"-115.78","60.84","HAY RIVER A","2202401","2019-11-29 20:00","2019","11","29","20:00","-10.6","","-14.0","","76","","","","18","","12","","24.1","","99.54","","","","-17","","Mostly Cloudy"
"-115.78","60.84","HAY RIVER A","2202401","2019-11-29 21:00","2019","11","29","21:00","-10.2","","-13.9","","75","","","","19","","14","","24.1","","99.49","","","","-17","","NA"
"-115.78","60.84","HAY RIVER A","2202401","2019-11-29 22:00","2019","11","29","22:00","-9.8","","-13.7","","73","","","","20","","10","","24.1","","99.50","","","","-15","","NA"
"-115.78","60.84","HAY RIVER A","2202401","2019-11-29 23:00","2019","11","29","23:00","-9.3","","-13.6","","71","","","","20","","13","","24.1","","99.47","","","","-15","","Mainly Clear"
"-115.78","60.84","HAY RIVER A","2202401","2019-11-30 00:00","2019","11","30","00:00","-8.8","","-13.0","","72","","","","20","","13","","24.1","","99.45","","","","-15","","NA"
"-115.78","60.84","HAY RIVER A","2202401","2019-11-30 01:00","2019","11","30","01:00","-8.4","","-12.7","","72","","","","19","","17","","24.1","","99.39","","","","-15","","NA"
"-115.78","60.84","HAY RIVER A","2202401","2019-11-30 02:00","2019","11","30","02:00","-9.9","","-13.6","","75","","","","17","","12","","24.1","","99.44","","","","-16","","Mainly Clear"
"-115.78","60.84","HAY RIVER A","2202401","2019-11-30 03:00","2019","11","30","03:00","-11.1","","-13.8","","81","","","","17","","14","","24.1","","99.42","","","","-18","","NA"
"-115.78","60.84","HAY RIVER A","2202401","2019-11-30 04:00","2019","11","30","04:00","-9.1","","-12.7","","75","","","","19","","14","","24.1","","99.40","","","","-15","","NA"
"-115.78","60.84","HAY RIVER A","2202401","2019-11-30 05:00","2019","11","30","05:00","-8.9","","-12.7","","74","","","","19","","17","","24.1","","99.35","","","","-16","","Mainly Clear"
"-115.78","60.84","HAY RIVER A","2202401","2019-11-30 06:00","2019","11","30","06:00","-8.6","","-12.5","","74","","","","19","","18","","24.1","","99.30","","","","-16","","NA"
"-115.78","60.84","HAY RIVER A","2202401","2019-11-30 07:00","2019","11","30","07:00","-8.8","","-12.7","","74","","","","18","","23","","24.1","","99.21","","","","-17","","NA"
"-115.78","60.84","HAY RIVER A","2202401","2019-11-30 08:00","2019","11","30","08:00","-9.1","","-12.9","","74","","","","19","","21","","24.1","","99.16","","","","-17","","Mainly Clear"
"-115.78","60.84","HAY RIVER A","2202401","2019-11-30 09:00","2019","11","30","09:00","-8.6","","-12.9","","71","","","","19","","19","","24.1","","99.11","","","","-16","","NA"
"-115.78","60.84","HAY RIVER A","2202401","2019-11-30 10:00","2019","11","30","10:00","-8.7","","-13.1","","70","","","","20","","18","","24.1","","99.08","","","","-16","","NA"
"-115.78","60.84","HAY RIVER A","2202401","2019-11-30 11:00","2019","11","30","11:00","-8.1","","-13.1","","67","","","","20","","18","","24.1","","99.06","","","","-15","","Mainly Clear"
"-115.78","60.84","HAY RIVER A","2202401","2019-11-30 12:00","2019","11","30","12:00","-7.4","","-13.0","","64","","","","19","","15","","24.1","","99.01","","","","-14","","NA"
"-115.78","60.84","HAY RIVER A","2202401","2019-11-30 13:00","2019","11","30","13:00","-6.8","","-13.0","","61","","","","20","","14","","24.1","","98.96","","","","-13","","NA"
"-115.78","60.84","HAY RIVER A","2202401","2019-11-30 14:00","2019","11","30","14:00","-6.5","","-12.6","","62","","","","19","","10","","24.1","","98.94","","","","-11","","Mainly Clear"
"-115.78","60.84","HAY RIVER A","2202401","2019-11-30 15:00","2019","11","30","15:00","-6.2","","-12.7","","60","","","","19","","12","","24.1","","98.90","","","","-11","","NA"
"-115.78","60.84","HAY RIVER A","2202401","2019-11-30 16:00","2019","11","30","16:00","-6.9","","-12.4","","65","","","","19","","10","","24.1","","98.90","","","","-12","","NA"
"-115.78","60.84","HAY RIVER A","2202401","2019-11-30 17:00","2019","11","30","17:00","-7.4","","-12.7","","66","","","","20","","10","","24.1","","98.87","","","","-12","","Mostly Cloudy"
"-115.78","60.84","HAY RIVER A","2202401","2019-11-30 18:00","2019","11","30","18:00","-7.7","","-12.8","","67","","","","22","","10","","24.1","","98.84","","","","-13","","NA"
"-115.78","60.84","HAY RIVER A","2202401","2019-11-30 19:00","2019","11","30","19:00","-8.0","","-12.7","","69","","","","22","","8","","24.1","","98.82","","","","-12","","NA"
"-115.78","60.84","HAY RIVER A","2202401","2019-11-30 20:00","2019","11","30","20:00","-8.0","","-12.7","","69","","","","22","","8","","24.1","","98.78","","","","-12","","Mainly Clear"
"-115.78","60.84","HAY RIVER A","2202401","2019-11-30 21:00","2019","11","30","21:00","-8.3","","-12.4","","73","","","","23","","7","","24.1","","98.77","","","","-12","","NA"
"-115.78","60.84","HAY RIVER A","2202401","2019-11-30 22:00","2019","11","30","22:00","-8.6","","-11.9","","77","","","","24","","5","","24.1","","98.78","","","","-11","","NA"
"-115.78","60.84","HAY RIVER A","2202401","2019-11-30 23:00","2019","11","30","23:00","-8.5","","-12.1","","75","","","","23","","8","","24.1","","98.75","","","","-13","","Mainly Clear"
