"Longitude (x)","Latitude (y)","Station Name","Climate ID","Date/Time (LST)","Year","Month","Day","Time (LST)","Temp (°C)","Temp Flag","Dew Point Temp (°C)","Dew Point Temp Flag","Rel Hum (%)","Rel Hum Flag","Precip. Amount (mm)","Precip. Amount Flag","Wind Dir (10s deg)","Wind Dir Flag","Wind Spd (km/h)","Wind Spd Flag","Visibility (km)","Visibility Flag","Stn Press (kPa)","Stn Press Flag","Hmdx","Hmdx Flag","Wind Chill","Wind Chill Flag","Weather"
"-122.60","58.84","FORT NELSON A","1192946","2019-05-01 00:00","2019","05","01","00:00","-0.6","","-4.8","","74","","","","27","","8","","24.1","","97.44","","","","-3","","NA"
"-122.60","58.84","FORT NELSON A","1192946","2019-05-01 01:00","2019","05","01","01:00","-1.0","","-4.1","","79","","","","26","","9","","24.1","","97.40","","","","-4","","Cloudy"
"-122.60","58.84","FORT NELSON A","1192946","2019-05-01 02:00","2019","05","01","02:00","-1.3","","-3.2","","87","","","","28","","5","","24.1","","97.36","","","","-3","","Snow"
"-122.60","58.84","FORT NELSON A","1192946","2019-05-01 03:00","2019","05","01","03:00","-1.7","","-3.1","","90","","","","24","","3","","24.1","","97.27","","","","-3","","Snow"
"-122.60","58.84","FORT NELSON A","1192946","2019-05-01 04:00","2019","05","01","04:00","-1.6","","-3.7","","85","","","","19","","3","","24.1","","97.20","","","","-3","","Cloudy"
"-122.60","58.84","FORT NELSON A","1192946","2019-05-01 05:00","2019","05","01","05:00","-1.7","","-3.2","","90","","","","12","","5","","48.3","","97.10","","","","-4","","NA"
"-122.60","58.84","FORT NELSON A","1192946","2019-05-01 06:00","2019","05","01","06:00","-1.4","","-3.4","","87","","","","12","","7","","48.3","","97.02","","","","-4","","NA"
"-122.60","58.84","FORT NELSON A","1192946","2019-05-01 07:00","2019","05","01","07:00","-0.8","","-4.3","","77","","","","11","","6","","19.3","","96.95","","","","-3","","Cloudy"
"-122.60","58.84","FORT NELSON A","1192946","2019-05-01 08:00","2019","05","01","08:00","-0.6","","-4.0","","78","","","","17","","9","","19.3","","96.88","","","","-4","","NA"
"-122.60","58.84","FORT NELSON A","1192946","2019-05-01 09:00","2019","05","01","09:00","-0.2","","-3.0","","81","","","","14","","10","","19.3","","96.80","","","","-4","","Snow,Fog"
"-122.60","58.84","FORT NELSON A","1192946","2019-05-01 10:00","2019","05","01","10:00","0.3","","-1.6","","87","","","","18","","7","","1.6","","96.74","","","","","","Snow"
"-122.60","58.84","FORT NELSON A","1192946","2019-05-01 11:00","2019","05","01","11:00","1.1","","-0.6","","88","","","","16","","12","","3.2","","96.67","","","","","","Snow"
"-122.60","58.84","FORT NELSON A","1192946","2019-05-01 12:00","2019","05","01","12:00","2.5","","-1.7","","74","","","","21","","7","","48.3","","96.61","","","","","","NA"
"-122.60","58.84","FORT NELSON A","1192946","2019-05-01 13:00","2019","05","01","13:00","3.3","","0.2","","80","","","","20","","6","","8.1","","96.59","","","","","","Snow"
"-122.60","58.84","FORT NELSON A","1192946","2019-05-01 14:00","2019","05","01","14:00","3.0","","-0.5","","78","","","","8","","6","","19.3","","96.57","","","","","","Rain,Snow"
"-122.60","58.84","FORT NELSON A","1192946","2019-05-01 15:00","2019","05","01","15:00","4.3","","-0.9","","69","","","","4","","5","","19.3","","96.50","","","","","","NA"
"-122.60","58.84","FORT NELSON A","1192946","2019-05-01 16:00","2019","05","01","16:00","5.5","","-0.9","","63","","","","34","","3","","32.2","","96.46","","","","","","Mostly Cloudy"
"-122.60","58.84","FORT NELSON A","1192946","2019-05-01 17:00","2019","05","01","17:00","6.6","","-2.7","","51","","","","31","","10","","24.1","","96.44","","","","","","NA"
"-122.60","58.84","FORT NELSON A","1192946","2019-05-01 18:00","2019","05","01","18:00","5.8","","-3.6","","51","","","","34","","7","","24.1","","96.42","","","","","","NA"
"-122.60","58.84","FORT NELSON A","1192946","2019-05-01 19:00","2019","05","01","19:00","5.1","","-2.7","","57","","","","36","","6","","32.2","","96.45","","","","","","Mostly Cloudy"
"-122.60","58.84","FORT NELSON A","1192946","2019-05-01 20:00","2019","05","01","20:00","3.6","","-1.6","","68","","","","31","","3","","32.2","","96.43","","","","","","NA"
"-122.60","58.84","FORT NELSON A","1192946","2019-05-01 21:00","2019","05","01","21:00","1.7","","-1.9","","77","","","","36","","6","","24.1","","96.41","","","","","","NA"
"-122.60","58.84","FORT NELSON A","1192946","2019-05-01 22:00","2019","05","01","22:00","2.0","","-2.2","","74","","","","36","","9","","24.1","","96.40","","","","","","Mostly Cloudy"
"-122.60","58.84","FORT NELSON A","1192946","2019-05-01 23:00","2019","05","01","23:00","2.7","","-2.5","","68","","","","11","","4","","24.1","","96.39","","","","","","NA"
"-122.60","58.84","FORT NELSON A","1192946","2019-05-02 00:00","2019","05","02","00:00","2.2","","-3.2","","68","","","","30","","8","","12.9","","96.43","","","","","","NA"
"-122.60","58.84","FORT NELSON A","1192946","2019-05-02 01:00","2019","05","02","01:00","1.7","","-3.5","","68","","","","33","","10","","19.3","","96.44","","","","","","Snow"
"-122.60","58.84","FORT NELSON A","1192946","2019-05-02 02:00","2019","05","02","02:00","0.2","","-2.1","","84","","","","36","","13","","6.4","","96.44","","","","","","Snow"
"-122.60","58.84","FORT NELSON A","1192946","2019-05-02 03:00","2019","05","02","03:00","-0.4","","-1.8","","91","","","","35","","7","","8.1","","96.45","","","","-3","","Snow"
"-122.60","58.84","FORT NELSON A","1192946","2019-05-02 04:00","2019","05","02","04:00","-0.8","","-1.6","","94","","","","36","","11","","1.6","","96.47","","","","-5","","Snow"
"-122.60","58.84","FORT NELSON A","1192946","2019-05-02 05:00","2019","05","02","05:00","-1.0","","-1.6","","96","","","","2","","8","","1.2","","96.48","","","","-4","","Snow"
"-122.60","58.84","FORT NELSON A","1192946","2019-05-02 06:00","2019","05","02","06:00","-0.9","","-1.6","","95","","","","1","","7","","1.6","","96.50","","","","-3","","Snow"
"-122.60","58.84","FORT NELSON A","1192946","2019-05-02 07:00","2019","05","02","07:00","-0.6","","-1.5","","94","","","","33","","5","","1.6","","96.50","","","","-2","","Snow"
"-122.60","58.84","FORT NELSON A","1192946","2019-05-02 08:00","2019","05","02","08:00","-0.7","","-1.7","","93","","","","36","","12","","1.6","","96.50","","","","-5","","Snow"
"-122.60","58.84","FORT NELSON A","1192946","2019-05-02 09:00","2019","05","02","09:00","-0.8","","-2.3","","90","","","","36","","20","","1.6","","96.55","","","","-6","","Snow"
"-122.60","58.84","FORT NELSON A","1192946","2019-05-02 10:00","2019","05","02","10:00","-0.2","","-1.9","","88","","","","33","","20","","2.4","","96.61","","","","-5","","Snow"
"-122.60","58.84","FORT NELSON A","1192946","2019-05-02 11:00","2019","05","02","11:00","-0.3","","-3.2","","81","","","","34","","23","","4.8","","96.67","","","","-6","","Snow"
"-122.60","58.84","FORT NELSON A","1192946","2019-05-02 12:00","2019","05","02","12:00","-0.3","","-3.2","","81","","","","35","","25","","12.9","","96.76","","","","-6","","Snow"
"-122.60","58.84","FORT NELSON A","1192946","2019-05-02 13:00","2019","05","02","13:00","0.6","","-4.2","","70","","","","1","","20","","24.1","","96.80","","","","","","Cloudy"
"-122.60","58.84","FORT NELSON A","1192946","2019-05-02 14:00","2019","05","02","14:00","1.1","","-3.0","","74","","","","1","","16","","24.1","","96.84","","","","","","NA"
"-122.60","58.84","FORT NELSON A","1192946","2019-05-02 15:00","2019","05","02","15:00","1.3","","-4.8","","64","","","","34","","19","","24.1","","96.90","","","","","","NA"
"-122.60","58.84","FORT NELSON A","1192946","2019-05-02 16:00","2019","05","02","16:00","1.5","","-4.2","","66","","","","35","","18","","6.4","","96.99","","","","","","Snow"
"-122.60","58.84","FORT NELSON A","1192946","2019-05-02 17:00","2019","05","02","17:00","0.0","","-3.7","","76","","","","1","","19","","8.1","","97.06","","","","-5","","Snow"
"-122.60","58.84","FORT NELSON A","1192946","2019-05-02 18:00","2019","05","02","18:00","-1.0","","-2.9","","87","","","","1","","15","","4.8","","97.15","","","","-6","","Snow"
"-122.60","58.84","FORT NELSON A","1192946","2019-05-02 19:00","2019","05","02","19:00","-1.5","","-4.1","","83","","","","35","","16","","6.4","","97.27","","","","-6","","Snow"
"-122.60","58.84","FORT NELSON A","1192946","2019-05-02 20:00","2019","05","02","20:00","-1.6","","-5.1","","77","","","","2","","13","","12.9","","97.36","","","","-6","","NA"
"-122.60","58.84","FORT NELSON A","1192946","2019-05-02 21:00","2019","05","02","21:00","-1.5","","-6.5","","69","","","","2","","12","","24.1","","97.41","","","","-6","","NA"
"-122.60","58.84","FORT NELSON A","1192946","2019-05-02 22:00","2019","05","02","22:00","-2.4","","-6.2","","76","","","","35","","15","","6.4","","97.49","","","","-7","","Snow"
"-122.60","58.84","FORT NELSON A","1192946","2019-05-02 23:00","2019","05","02","23:00","-3.2","","-5.0","","87","","","","35","","8","","6.4","","97.54","","","","-6","","Snow"
"-122.60","58.84","FORT NELSON A","1192946","2019-05-03 00:00","2019","05","03","00:00","-3.5","","-4.9","","90","","","","36","","10","","3.2","","97.61","","","","-7","","Snow"
"-122.60","58.84","FORT NELSON A","1192946","2019-05-03 01:00","2019","05","03","01:00","-3.8","","-5.5","","88","","","","2","","14","","3.2","","97.64","","","","-9","","Snow"
"-122.60","58.84","FORT NELSON A","1192946","2019-05-03 02:00","2019","05","03","02:00","-4.2","","-5.7","","89","","","","35","","9","","6.4","","97.69","","","","-8","","Snow"
"-122.60","58.84","FORT NELSON A","1192946","2019-05-03 03:00","2019","05","03","03:00","-4.8","","-6.3","","89","","","","35","","14","","2.4","","97.75","","","","-10","","Snow"
"-122.60","58.84","FORT NELSON A","1192946","2019-05-03 04:00","2019","05","03","04:00","-5.3","","-7.5","","84","","","","1","","14","","4.0","","97.79","","","","-11","","Snow"
"-122.60","58.84","FORT NELSON A","1192946","2019-05-03 05:00","2019","05","03","05:00","-5.3","","-8.5","","78","","","","36","","13","","6.4","","97.85","","","","-10","","Snow"
"-122.60","58.84","FORT NELSON A","1192946","2019-05-03 06:00","2019","05","03","06:00","-5.2","","-9.9","","70","","","","1","","10","","24.1","","97.87","","","","-10","","NA"
"-122.60","58.84","FORT NELSON A","1192946","2019-05-03 07:00","2019","05","03","07:00","-5.0","","-10.2","","67","","","","36","","10","","24.1","","97.90","","","","-9","","Cloudy"
"-122.60","58.84","FORT NELSON A","1192946","2019-05-03 08:00","2019","05","03","08:00","-4.7","","-10.6","","64","","","","35","","7","","24.1","","97.90","","","","-8","","NA"
"-122.60","58.84","FORT NELSON A","1192946","2019-05-03 09:00","2019","05","03","09:00","-4.1","","-11.4","","57","","","","11","","8","","24.1","","97.85","","","","-8","","NA"
"-122.60","58.84","FORT NELSON A","1192946","2019-05-03 10:00","2019","05","03","10:00","-3.2","","-12.0","","51","","","","5","","7","","24.1","","97.81","","","","-6","","Cloudy"
"-122.60","58.84","FORT NELSON A","1192946","2019-05-03 11:00","2019","05","03","11:00","-2.2","","-9.5","","57","","","","19","","8","","24.1","","97.78","","","","-5","","NA"
"-122.60","58.84","FORT NELSON A","1192946","2019-05-03 12:00","2019","05","03","12:00","-1.3","","-9.5","","54","","","","12","","6","","24.1","","97.69","","","","-4","","NA"
"-122.60","58.84","FORT NELSON A","1192946","2019-05-03 13:00","2019","05","03","13:00","-1.2","","-10.3","","50","","","","36","","2","","24.1","","97.64","","","","-2","","Cloudy"
"-122.60","58.84","FORT NELSON A","1192946","2019-05-03 14:00","2019","05","03","14:00","-1.3","","-8.9","","57","","","","10","","12","","24.1","","97.61","","","","-5","","NA"
"-122.60","58.84","FORT NELSON A","1192946","2019-05-03 15:00","2019","05","03","15:00","-1.2","","-8.1","","60","","","","8","","12","","16.1","","97.61","","","","-5","","NA"
"-122.60","58.84","FORT NELSON A","1192946","2019-05-03 16:00","2019","05","03","16:00","-1.6","","-7.9","","63","","","","9","","6","","6.4","","97.58","","","","-4","","Snow"
"-122.60","58.84","FORT NELSON A","1192946","2019-05-03 17:00","2019","05","03","17:00","-1.6","","-7.0","","67","","","","7","","9","","8.1","","97.58","","","","-5","","Snow Showers"
"-122.60","58.84","FORT NELSON A","1192946","2019-05-03 18:00","2019","05","03","18:00","-2.3","","-5.7","","78","","","","13","","5","","6.4","","97.59","","","","-4","","Snow Showers"
"-122.60","58.84","FORT NELSON A","1192946","2019-05-03 19:00","2019","05","03","19:00","-2.2","","-4.8","","82","","","","36","","2","","6.4","","97.61","","","","-3","","Snow Showers"
"-122.60","58.84","FORT NELSON A","1192946","2019-05-03 20:00","2019","05","03","20:00","-2.5","","-5.3","","81","","","","2","","5","","6.4","","97.65","","","","-4","","Snow Showers"
"-122.60","58.84","FORT NELSON A","1192946","2019-05-03 21:00","2019","05","03","21:00","-2.8","","-4.7","","87","","","","36","","5","","4.8","","97.68","","","","-5","","Snow Showers"
"-122.60","58.84","FORT NELSON A","1192946","2019-05-03 22:00","2019","05","03","22:00","-3.0","","-4.6","","89","","","","36","","4","","6.4","","97.71","","","","-5","","Snow Showers"
"-122.60","58.84","FORT NELSON A","1192946","2019-05-03 23:00","2019","05","03","23:00","-3.2","","-4.4","","91","","","","36","","6","","4.8","","97.70","","","","-6","","Snow"
"-122.60","58.84","FORT NELSON A","1192946","2019-05-04 00:00","2019","05","04","00:00","-3.2","","-4.3","","92","","","","35","","6","","4.8","","97.72","","","","-6","","Snow"
"-122.60","58.84","FORT NELSON A","1192946","2019-05-04 01:00","2019","05","04","01:00","-3.4","","-4.5","","92","","","","2","","5","","4.8","","97.73","","","","-5","","Snow"
"-122.60","58.84","FORT NELSON A","1192946","2019-05-04 02:00","2019","05","04","02:00","-3.6","","-4.8","","91","","","","2","","5","","4.8","","97.71","","","","-6","","Snow"
"-122.60","58.84","FORT NELSON A","1192946","2019-05-04 03:00","2019","05","04","03:00","-3.7","","-5.0","","91","","","","36","","5","","24.1","","97.71","","","","-6","","NA"
"-122.60","58.84","FORT NELSON A","1192946","2019-05-04 04:00","2019","05","04","04:00","-3.6","","-5.3","","88","","","","3","","9","","24.1","","97.72","","","","-7","","Cloudy"
"-122.60","58.84","FORT NELSON A","1192946","2019-05-04 05:00","2019","05","04","05:00","-3.3","","-6.4","","79","","","","5","","7","","24.1","","97.72","","","","-6","","NA"
"-122.60","58.84","FORT NELSON A","1192946","2019-05-04 06:00","2019","05","04","06:00","-3.0","","-6.8","","75","","","","5","","10","","32.2","","97.73","","","","-7","","NA"
"-122.60","58.84","FORT NELSON A","1192946","2019-05-04 07:00","2019","05","04","07:00","-2.2","","-7.9","","65","","","","7","","8","","24.1","","97.72","","","","-5","","Cloudy"
"-122.60","58.84","FORT NELSON A","1192946","2019-05-04 08:00","2019","05","04","08:00","-1.5","","-8.8","","58","","","","9","","12","","19.3","","97.72","","","","-6","","NA"
"-122.60","58.84","FORT NELSON A","1192946","2019-05-04 09:00","2019","05","04","09:00","-1.2","","-9.0","","56","","","","11","","10","","19.3","","97.72","","","","-5","","NA"
"-122.60","58.84","FORT NELSON A","1192946","2019-05-04 10:00","2019","05","04","10:00","-0.6","","-8.4","","56","","","","5","","9","","19.3","","97.69","","","","-4","","Cloudy"
"-122.60","58.84","FORT NELSON A","1192946","2019-05-04 11:00","2019","05","04","11:00","0.3","","-8.1","","54","","","","6","","11","","24.1","","97.68","","","","","","NA"
"-122.60","58.84","FORT NELSON A","1192946","2019-05-04 12:00","2019","05","04","12:00","0.8","","-7.8","","53","","","","13","","11","","19.3","","97.66","","","","","","NA"
"-122.60","58.84","FORT NELSON A","1192946","2019-05-04 13:00","2019","05","04","13:00","1.8","","-8.1","","48","","","","14","","8","","24.1","","97.63","","","","","","Mostly Cloudy"
"-122.60","58.84","FORT NELSON A","1192946","2019-05-04 14:00","2019","05","04","14:00","2.5","","-7.5","","48","","","","35","","4","","24.1","","97.59","","","","","","NA"
"-122.60","58.84","FORT NELSON A","1192946","2019-05-04 15:00","2019","05","04","15:00","2.5","","-8.6","","44","","","","10","","6","","48.3","","97.56","","","","","","NA"
"-122.60","58.84","FORT NELSON A","1192946","2019-05-04 16:00","2019","05","04","16:00","2.5","","-8.6","","44","","","","7","","3","","48.3","","97.55","","","","","","Cloudy"
"-122.60","58.84","FORT NELSON A","1192946","2019-05-04 17:00","2019","05","04","17:00","2.5","","-8.1","","46","","","","36","","2","","48.3","","97.53","","","","","","NA"
"-122.60","58.84","FORT NELSON A","1192946","2019-05-04 18:00","2019","05","04","18:00","2.6","","-8.4","","44","","","","1","","8","","48.3","","97.50","","","","","","NA"
"-122.60","58.84","FORT NELSON A","1192946","2019-05-04 19:00","2019","05","04","19:00","2.4","","-7.6","","48","","","","34","","8","","48.3","","97.50","","","","","","Mostly Cloudy"
"-122.60","58.84","FORT NELSON A","1192946","2019-05-04 20:00","2019","05","04","20:00","1.5","","-7.2","","52","","","","35","","8","","48.3","","97.50","","","","","","NA"
"-122.60","58.84","FORT NELSON A","1192946","2019-05-04 21:00","2019","05","04","21:00","0.3","","-6.5","","60","","","","33","","8","","24.1","","97.48","","","","","","NA"
"-122.60","58.84","FORT NELSON A","1192946","2019-05-04 22:00","2019","05","04","22:00","-0.1","","-6.4","","63","","","","32","","10","","24.1","","97.47","","","","-3","","Mostly Cloudy"
"-122.60","58.84","FORT NELSON A","1192946","2019-05-04 23:00","2019","05","04","23:00","-0.4","","-6.4","","64","","","","32","","8","","24.1","","97.45","","","","-3","","NA"
"-122.60","58.84","FORT NELSON A","1192946","2019-05-05 00:00","2019","05","05","00:00","-0.6","","-6.4","","65","","","","31","","9","","24.1","","97.44","","","","-4","","NA"
"-122.60","58.84","FORT NELSON A","1192946","2019-05-05 01:00","2019","05","05","01:00","-1.2","","-6.4","","68","","","","11","","4","","24.1","","97.43","","","","-3","","Mostly Cloudy"
"-122.60","58.84","FORT NELSON A","1192946","2019-05-05 02:00","2019","05","05","02:00","-1.7","","-5.3","","77","","","","25","","7","","24.1","","97.41","","","","-4","","NA"
"-122.60","58.84","FORT NELSON A","1192946","2019-05-05 03:00","2019","05","05","03:00","-2.5","","-4.9","","83","","","","24","","4","","24.1","","97.40","","","","-4","","NA"
"-122.60","58.84","FORT NELSON A","1192946","2019-05-05 04:00","2019","05","05","04:00","-2.0","","-5.2","","79","","","","36","","2","","48.3","","97.36","","","","-3","","Mostly Cloudy"
"-122.60","58.84","FORT NELSON A","1192946","2019-05-05 05:00","2019","05","05","05:00","-1.7","","-5.6","","75","","","","32","","4","","48.3","","97.36","","","","-3","","NA"
"-122.60","58.84","FORT NELSON A","1192946","2019-05-05 06:00","2019","05","05","06:00","-1.3","","-5.7","","72","","","","34","","7","","48.3","","97.37","","","","-4","","NA"
"-122.60","58.84","FORT NELSON A","1192946","2019-05-05 07:00","2019","05","05","07:00","-0.4","","-6.3","","64","","","","36","","3","","48.3","","97.37","","","","-1","","Mostly Cloudy"
"-122.60","58.84","FORT NELSON A","1192946","2019-05-05 08:00","2019","05","05","08:00","0.6","","-7.5","","54","","","","5","","4","","48.3","","97.37","","","","","","NA"
"-122.60","58.84","FORT NELSON A","1192946","2019-05-05 09:00","2019","05","05","09:00","1.9","","-6.4","","54","","","","30","","3","","48.3","","97.35","","","","","","NA"
"-122.60","58.84","FORT NELSON A","1192946","2019-05-05 10:00","2019","05","05","10:00","4.3","","-5.7","","48","","","","32","","5","","48.3","","97.33","","","","","","Mostly Cloudy"
"-122.60","58.84","FORT NELSON A","1192946","2019-05-05 11:00","2019","05","05","11:00","5.2","","-6.0","","44","","","","30","","5","","48.3","","97.30","","","","","","NA"
"-122.60","58.84","FORT NELSON A","1192946","2019-05-05 12:00","2019","05","05","12:00","5.1","","-5.5","","46","","","","22","","3","","48.3","","97.28","","","","","","NA"
"-122.60","58.84","FORT NELSON A","1192946","2019-05-05 13:00","2019","05","05","13:00","6.1","","-4.2","","48","","","","36","","3","","48.3","","97.28","","","","","","Cloudy"
"-122.60","58.84","FORT NELSON A","1192946","2019-05-05 14:00","2019","05","05","14:00","7.2","","-4.2","","44","","","","17","","5","","48.3","","97.28","","","","","","NA"
"-122.60","58.84","FORT NELSON A","1192946","2019-05-05 15:00","2019","05","05","15:00","7.1","","-4.7","","43","","","","21","","13","","48.3","","97.26","","","","","","NA"
"-122.60","58.84","FORT NELSON A","1192946","2019-05-05 16:00","2019","05","05","16:00","6.8","","-4.8","","43","","","","25","","5","","48.3","","97.26","","","","","","Mostly Cloudy"
"-122.60","58.84","FORT NELSON A","1192946","2019-05-05 17:00","2019","05","05","17:00","6.8","","-5.6","","41","","","","18","","7","","48.3","","97.26","","","","","","NA"
"-122.60","58.84","FORT NELSON A","1192946","2019-05-05 18:00","2019","05","05","18:00","6.7","","-5.2","","42","","","","36","","3","","48.3","","97.27","","","","","","NA"
"-122.60","58.84","FORT NELSON A","1192946","2019-05-05 19:00","2019","05","05","19:00","6.6","","-4.7","","44","","","","21","","4","","48.3","","97.26","","","","","","Mostly Cloudy"
"-122.60","58.84","FORT NELSON A","1192946","2019-05-05 20:00","2019","05","05","20:00","6.1","","-4.5","","46","","","","16","","4","","48.3","","97.26","","","","","","NA"
"-122.60","58.84","FORT NELSON A","1192946","2019-05-05 21:00","2019","05","05","21:00","3.0","","-2.3","","68","","","","24","","4","","24.1","","97.25","","","","","","NA"
"-122.60","58.84","FORT NELSON A","1192946","2019-05-05 22:00","2019","05","05","22:00","-0.1","","-3.3","","79","","","","25","","3","","24.1","","97.22","","","","-1","","Mainly Clear"
"-122.60","58.84","FORT NELSON A","1192946","2019-05-05 23:00","2019","05","05","23:00","-0.9","","-4.5","","77","","","","36","","1","","24.1","","97.22","","","","-1","","NA"
"-122.60","58.84","FORT NELSON A","1192946","2019-05-06 00:00","2019","05","06","00:00","-2.3","","-4.3","","86","","","","26","","5","","24.1","","97.19","","","","-4","","NA"
"-122.60","58.84","FORT NELSON A","1192946","2019-05-06 01:00","2019","05","06","01:00","-2.1","","-4.5","","84","","","","26","","4","","24.1","","97.16","","","","-4","","Mainly Clear"
"-122.60","58.84","FORT NELSON A","1192946","2019-05-06 02:00","2019","05","06","02:00","-2.6","","-4.8","","85","","","","36","","3","","24.1","","97.15","","","","-4","","NA"
"-122.60","58.84","FORT NELSON A","1192946","2019-05-06 03:00","2019","05","06","03:00","-3.2","","-5.1","","87","","","","28","","3","","24.1","","97.13","","","","-4","","NA"
"-122.60","58.84","FORT NELSON A","1192946","2019-05-06 04:00","2019","05","06","04:00","-3.7","","-5.1","","90","","","","26","","4","","48.3","","97.11","","","","-5","","Mainly Clear"
"-122.60","58.84","FORT NELSON A","1192946","2019-05-06 05:00","2019","05","06","05:00","-2.3","","-4.1","","88","","","","27","","3","","48.3","","97.07","","","","-3","","NA"
"-122.60","58.84","FORT NELSON A","1192946","2019-05-06 06:00","2019","05","06","06:00","0.9","","-2.1","","81","","","","0","","1","","48.3","","97.05","","","","","","NA"
"-122.60","58.84","FORT NELSON A","1192946","2019-05-06 07:00","2019","05","06","07:00","2.2","","-1.7","","76","","","","36","","1","","48.3","","97.04","","","","","","Mostly Cloudy"
"-122.60","58.84","FORT NELSON A","1192946","2019-05-06 08:00","2019","05","06","08:00","4.8","","-1.6","","63","","","","10","","6","","48.3","","97.03","","","","","","NA"
"-122.60","58.84","FORT NELSON A","1192946","2019-05-06 09:00","2019","05","06","09:00","7.3","","-1.8","","52","","","","9","","8","","48.3","","96.99","","","","","","NA"
"-122.60","58.84","FORT NELSON A","1192946","2019-05-06 10:00","2019","05","06","10:00","8.5","","-3.3","","43","","","","9","","9","","48.3","","96.97","","","","","","Cloudy"
"-122.60","58.84","FORT NELSON A","1192946","2019-05-06 11:00","2019","05","06","11:00","9.8","","-3.3","","39","","","","12","","7","","48.3","","96.97","","","","","","NA"
"-122.60","58.84","FORT NELSON A","1192946","2019-05-06 12:00","2019","05","06","12:00","10.3","","-3.0","","39","","","","6","","6","","48.3","","96.96","","","","","","NA"
"-122.60","58.84","FORT NELSON A","1192946","2019-05-06 13:00","2019","05","06","13:00","11.4","","-3.3","","36","","","","20","","8","","48.3","","96.93","","","","","","Mostly Cloudy"
"-122.60","58.84","FORT NELSON A","1192946","2019-05-06 14:00","2019","05","06","14:00","11.6","","-2.7","","37","","","","4","","7","","48.3","","96.92","","","","","","NA"
"-122.60","58.84","FORT NELSON A","1192946","2019-05-06 15:00","2019","05","06","15:00","11.9","","-2.0","","38","","","","36","","2","","48.3","","96.91","","","","","","NA"
"-122.60","58.84","FORT NELSON A","1192946","2019-05-06 16:00","2019","05","06","16:00","13.3","","-1.4","","36","","","","13","","8","","48.3","","96.88","","","","","","Mostly Cloudy"
"-122.60","58.84","FORT NELSON A","1192946","2019-05-06 17:00","2019","05","06","17:00","13.0","","-2.1","","35","","","","26","","8","","48.3","","96.90","","","","","","NA"
"-122.60","58.84","FORT NELSON A","1192946","2019-05-06 18:00","2019","05","06","18:00","12.7","","-1.3","","38","","","","25","","12","","48.3","","96.91","","","","","","NA"
"-122.60","58.84","FORT NELSON A","1192946","2019-05-06 19:00","2019","05","06","19:00","12.4","","-1.9","","37","","","","36","","2","","48.3","","96.94","","","","","","Mostly Cloudy"
"-122.60","58.84","FORT NELSON A","1192946","2019-05-06 20:00","2019","05","06","20:00","10.2","","-0.2","","48","","","","36","","3","","48.3","","96.97","","","","","","NA"
"-122.60","58.84","FORT NELSON A","1192946","2019-05-06 21:00","2019","05","06","21:00","6.3","","-0.1","","64","","","","27","","5","","24.1","","97.00","","","","","","NA"
"-122.60","58.84","FORT NELSON A","1192946","2019-05-06 22:00","2019","05","06","22:00","6.2","","-0.7","","61","","","","27","","4","","24.1","","97.01","","","","","","Mostly Cloudy"
"-122.60","58.84","FORT NELSON A","1192946","2019-05-06 23:00","2019","05","06","23:00","5.5","","-0.5","","65","","","","14","","4","","24.1","","97.04","","","","","","NA"
"-122.60","58.84","FORT NELSON A","1192946","2019-05-07 00:00","2019","05","07","00:00","4.5","","0.3","","74","","","","22","","7","","24.1","","97.05","","","","","","NA"
"-122.60","58.84","FORT NELSON A","1192946","2019-05-07 01:00","2019","05","07","01:00","5.4","","1.0","","73","","","","36","","3","","24.1","","97.08","","","","","","Mostly Cloudy"
"-122.60","58.84","FORT NELSON A","1192946","2019-05-07 02:00","2019","05","07","02:00","5.9","","1.3","","72","","","","17","","7","","24.1","","97.12","","","","","","NA"
"-122.60","58.84","FORT NELSON A","1192946","2019-05-07 03:00","2019","05","07","03:00","6.0","","2.4","","78","","","","17","","8","","24.1","","97.14","","","","","","NA"
"-122.60","58.84","FORT NELSON A","1192946","2019-05-07 04:00","2019","05","07","04:00","5.4","","2.5","","82","","","","33","","3","","24.1","","97.18","","","","","","Mostly Cloudy"
"-122.60","58.84","FORT NELSON A","1192946","2019-05-07 05:00","2019","05","07","05:00","5.4","","2.5","","82","","","","17","","6","","24.1","","97.22","","","","","","NA"
"-122.60","58.84","FORT NELSON A","1192946","2019-05-07 06:00","2019","05","07","06:00","6.0","","2.6","","79","","","","17","","9","","24.1","","97.25","","","","","","NA"
"-122.60","58.84","FORT NELSON A","1192946","2019-05-07 07:00","2019","05","07","07:00","6.8","","2.4","","73","","","","16","","8","","48.3","","97.30","","","","","","Mostly Cloudy"
"-122.60","58.84","FORT NELSON A","1192946","2019-05-07 08:00","2019","05","07","08:00","8.1","","2.8","","69","","","","18","","10","","48.3","","97.32","","","","","","NA"
"-122.60","58.84","FORT NELSON A","1192946","2019-05-07 09:00","2019","05","07","09:00","9.6","","3.0","","63","","","","16","","11","","48.3","","97.30","","","","","","NA"
"-122.60","58.84","FORT NELSON A","1192946","2019-05-07 10:00","2019","05","07","10:00","12.0","","3.4","","55","","","","17","","11","","48.3","","97.32","","","","","","Mostly Cloudy"
"-122.60","58.84","FORT NELSON A","1192946","2019-05-07 11:00","2019","05","07","11:00","14.4","","0.2","","38","","","","18","","5","","48.3","","97.29","","","","","","NA"
"-122.60","58.84","FORT NELSON A","1192946","2019-05-07 12:00","2019","05","07","12:00","16.4","","0.2","","33","","","","22","","11","","48.3","","97.27","","","","","","NA"
"-122.60","58.84","FORT NELSON A","1192946","2019-05-07 13:00","2019","05","07","13:00","16.9","","0.4","","33","","","","24","","18","","48.3","","97.24","","","","","","Mostly Cloudy"
"-122.60","58.84","FORT NELSON A","1192946","2019-05-07 14:00","2019","05","07","14:00","17.1","","-0.4","","30","","","","27","","9","","48.3","","97.24","","","","","","NA"
"-122.60","58.84","FORT NELSON A","1192946","2019-05-07 15:00","2019","05","07","15:00","18.1","","-0.7","","28","","","","25","","9","","48.3","","97.22","","","","","","NA"
"-122.60","58.84","FORT NELSON A","1192946","2019-05-07 16:00","2019","05","07","16:00","17.9","","-0.2","","29","","","","24","","12","","48.3","","97.21","","","","","","Mostly Cloudy"
"-122.60","58.84","FORT NELSON A","1192946","2019-05-07 17:00","2019","05","07","17:00","17.6","","0.2","","31","","","","29","","5","","48.3","","97.22","","","","","","NA"
"-122.60","58.84","FORT NELSON A","1192946","2019-05-07 18:00","2019","05","07","18:00","17.0","","1.1","","34","","","","4","","8","","48.3","","97.25","","","","","","NA"
"-122.60","58.84","FORT NELSON A","1192946","2019-05-07 19:00","2019","05","07","19:00","16.5","","1.4","","36","","","","34","","6","","48.3","","97.29","","","","","","Mostly Cloudy"
"-122.60","58.84","FORT NELSON A","1192946","2019-05-07 20:00","2019","05","07","20:00","15.0","","2.6","","43","","","","28","","3","","48.3","","97.35","","","","","","NA"
"-122.60","58.84","FORT NELSON A","1192946","2019-05-07 21:00","2019","05","07","21:00","12.0","","3.5","","55","","","","26","","5","","48.3","","97.40","","","","","","NA"
"-122.60","58.84","FORT NELSON A","1192946","2019-05-07 22:00","2019","05","07","22:00","10.5","","3.0","","59","","","","26","","6","","24.1","","97.43","","","","","","Mostly Cloudy"
"-122.60","58.84","FORT NELSON A","1192946","2019-05-07 23:00","2019","05","07","23:00","10.4","","3.1","","60","","","","23","","6","","24.1","","97.50","","","","","","NA"
"-122.60","58.84","FORT NELSON A","1192946","2019-05-08 00:00","2019","05","08","00:00","9.8","","1.6","","56","","","","36","","2","","24.1","","97.55","","","","","","NA"
"-122.60","58.84","FORT NELSON A","1192946","2019-05-08 01:00","2019","05","08","01:00","8.9","","1.9","","61","","","","27","","7","","24.1","","97.59","","","","","","Mostly Cloudy"
"-122.60","58.84","FORT NELSON A","1192946","2019-05-08 02:00","2019","05","08","02:00","11.7","","1.1","","48","","","","27","","13","","24.1","","97.64","","","","","","NA"
"-122.60","58.84","FORT NELSON A","1192946","2019-05-08 03:00","2019","05","08","03:00","12.2","","1.0","","46","","","","28","","9","","24.1","","97.68","","","","","","NA"
"-122.60","58.84","FORT NELSON A","1192946","2019-05-08 04:00","2019","05","08","04:00","11.8","","1.0","","47","","","","27","","8","","48.3","","97.72","","","","","","Mostly Cloudy"
"-122.60","58.84","FORT NELSON A","1192946","2019-05-08 05:00","2019","05","08","05:00","12.4","","1.5","","47","","","","26","","9","","48.3","","97.79","","","","","","NA"
"-122.60","58.84","FORT NELSON A","1192946","2019-05-08 06:00","2019","05","08","06:00","13.6","","1.7","","44","","","","27","","8","","48.3","","97.82","","","","","","NA"
"-122.60","58.84","FORT NELSON A","1192946","2019-05-08 07:00","2019","05","08","07:00","15.1","","1.0","","38","","","","29","","14","","48.3","","97.84","","","","","","Mostly Cloudy"
"-122.60","58.84","FORT NELSON A","1192946","2019-05-08 08:00","2019","05","08","08:00","16.1","","1.1","","36","","","","30","","18","","48.3","","97.88","","","","","","NA"
"-122.60","58.84","FORT NELSON A","1192946","2019-05-08 09:00","2019","05","08","09:00","16.0","","0.9","","36","","","","27","","25","","48.3","","97.92","","","","","","NA"
"-122.60","58.84","FORT NELSON A","1192946","2019-05-08 10:00","2019","05","08","10:00","17.0","","1.8","","36","","","","31","","10","","48.3","","97.91","","","","","","Mostly Cloudy"
"-122.60","58.84","FORT NELSON A","1192946","2019-05-08 11:00","2019","05","08","11:00","16.6","","0.8","","34","","","","25","","7","","48.3","","97.86","","","","","","NA"
"-122.60","58.84","FORT NELSON A","1192946","2019-05-08 12:00","2019","05","08","12:00","17.8","","1.8","","34","","","","22","","17","","48.3","","97.83","","","","","","NA"
"-122.60","58.84","FORT NELSON A","1192946","2019-05-08 13:00","2019","05","08","13:00","17.7","","1.8","","34","","","","22","","13","","48.3","","97.80","","","","","","Mostly Cloudy"
"-122.60","58.84","FORT NELSON A","1192946","2019-05-08 14:00","2019","05","08","14:00","18.2","","1.1","","31","","","","25","","10","","48.3","","97.79","","","","","","NA"
"-122.60","58.84","FORT NELSON A","1192946","2019-05-08 15:00","2019","05","08","15:00","18.9","","1.5","","31","","","","22","","18","","48.3","","97.70","","","","","","NA"
"-122.60","58.84","FORT NELSON A","1192946","2019-05-08 16:00","2019","05","08","16:00","19.3","","1.9","","31","","","","23","","13","","48.3","","97.61","","","","","","Mostly Cloudy"
"-122.60","58.84","FORT NELSON A","1192946","2019-05-08 17:00","2019","05","08","17:00","19.6","","2.2","","31","","","","24","","9","","48.3","","97.53","","","","","","NA"
"-122.60","58.84","FORT NELSON A","1192946","2019-05-08 18:00","2019","05","08","18:00","19.6","","2.0","","31","","","","16","","8","","48.3","","97.45","","","","","","NA"
"-122.60","58.84","FORT NELSON A","1192946","2019-05-08 19:00","2019","05","08","19:00","18.7","","2.1","","33","","","","18","","4","","48.3","","97.39","","","","","","Mostly Cloudy"
"-122.60","58.84","FORT NELSON A","1192946","2019-05-08 20:00","2019","05","08","20:00","17.9","","1.8","","34","","","","17","","6","","48.3","","97.32","","","","","","NA"
"-122.60","58.84","FORT NELSON A","1192946","2019-05-08 21:00","2019","05","08","21:00","16.5","","2.2","","38","","","","18","","8","","48.3","","97.27","","","","","","NA"
"-122.60","58.84","FORT NELSON A","1192946","2019-05-08 22:00","2019","05","08","22:00","10.7","","3.5","","61","","","","19","","5","","24.1","","97.20","","","","","","Mostly Cloudy"
"-122.60","58.84","FORT NELSON A","1192946","2019-05-08 23:00","2019","05","08","23:00","11.4","","3.1","","56","","","","17","","7","","24.1","","97.15","","","","","","NA"
"-122.60","58.84","FORT NELSON A","1192946","2019-05-09 00:00","2019","05","09","00:00","10.4","","3.1","","60","","","","18","","3","","24.1","","97.11","","","","","","NA"
"-122.60","58.84","FORT NELSON A","1192946","2019-05-09 01:00","2019","05","09","01:00","8.0","","3.1","","71","","","","22","","7","","24.1","","97.11","","","","","","Mostly Cloudy"
"-122.60","58.84","FORT NELSON A","1192946","2019-05-09 02:00","2019","05","09","02:00","5.3","","2.1","","80","","","","22","","7","","24.1","","97.10","","","","","","NA"
"-122.60","58.84","FORT NELSON A","1192946","2019-05-09 03:00","2019","05","09","03:00","5.6","","1.7","","76","","","","21","","5","","24.1","","97.13","","","","","","NA"
"-122.60","58.84","FORT NELSON A","1192946","2019-05-09 04:00","2019","05","09","04:00","3.8","","1.1","","83","","","","24","","7","","48.3","","97.14","","","","","","Mostly Cloudy"
"-122.60","58.84","FORT NELSON A","1192946","2019-05-09 05:00","2019","05","09","05:00","5.3","","3.0","","84","","","","22","","6","","48.3","","97.12","","","","","","NA"
"-122.60","58.84","FORT NELSON A","1192946","2019-05-09 06:00","2019","05","09","06:00","8.0","","3.3","","72","","","","16","","12","","48.3","","97.11","","","","","","NA"
"-122.60","58.84","FORT NELSON A","1192946","2019-05-09 07:00","2019","05","09","07:00","16.0","","2.7","","41","","","","29","","24","","48.3","","97.10","","","","","","Mostly Cloudy"
"-122.60","58.84","FORT NELSON A","1192946","2019-05-09 08:00","2019","05","09","08:00","16.8","","1.9","","36","","","","30","","27","","48.3","","97.11","","","","","","NA"
"-122.60","58.84","FORT NELSON A","1192946","2019-05-09 09:00","2019","05","09","09:00","16.9","","1.5","","35","","","","27","","32","","48.3","","97.10","","","","","","NA"
"-122.60","58.84","FORT NELSON A","1192946","2019-05-09 10:00","2019","05","09","10:00","18.0","","0.7","","31","","","","28","","37","","48.3","","97.06","","","","","","Mostly Cloudy"
"-122.60","58.84","FORT NELSON A","1192946","2019-05-09 11:00","2019","05","09","11:00","19.0","","-0.7","","26","","","","29","","38","","48.3","","97.00","","","","","","NA"
"-122.60","58.84","FORT NELSON A","1192946","2019-05-09 12:00","2019","05","09","12:00","19.9","","-0.8","","25","","","","29","","29","","48.3","","96.99","","","","","","NA"
"-122.60","58.84","FORT NELSON A","1192946","2019-05-09 13:00","2019","05","09","13:00","21.0","","-0.5","","24","","","","27","","39","","48.3","","96.98","","","","","","Mostly Cloudy"
"-122.60","58.84","FORT NELSON A","1192946","2019-05-09 14:00","2019","05","09","14:00","22.0","","-0.6","","22","","","","32","","23","","48.3","","96.99","","","","","","NA"
"-122.60","58.84","FORT NELSON A","1192946","2019-05-09 15:00","2019","05","09","15:00","22.0","","-1.0","","21","","","","32","","31","","48.3","","96.96","","","","","","NA"
"-122.60","58.84","FORT NELSON A","1192946","2019-05-09 16:00","2019","05","09","16:00","21.8","","-0.4","","22","","","","29","","31","","48.3","","96.95","","","","","","Mainly Clear"
"-122.60","58.84","FORT NELSON A","1192946","2019-05-09 17:00","2019","05","09","17:00","21.7","","-0.6","","22","","","","28","","22","","48.3","","96.98","","","","","","NA"
"-122.60","58.84","FORT NELSON A","1192946","2019-05-09 18:00","2019","05","09","18:00","21.5","","-0.8","","22","","","","28","","26","","48.3","","96.96","","","","","","NA"
"-122.60","58.84","FORT NELSON A","1192946","2019-05-09 19:00","2019","05","09","19:00","20.1","","-0.4","","25","","","","30","","18","","48.3","","96.97","","","","","","Mainly Clear"
"-122.60","58.84","FORT NELSON A","1192946","2019-05-09 20:00","2019","05","09","20:00","18.7","","-0.3","","28","","","","28","","14","","48.3","","96.99","","","","","","NA"
"-122.60","58.84","FORT NELSON A","1192946","2019-05-09 21:00","2019","05","09","21:00","17.4","","-0.6","","29","","","","28","","16","","48.3","","97.02","","","","","","NA"
"-122.60","58.84","FORT NELSON A","1192946","2019-05-09 22:00","2019","05","09","22:00","15.4","","0.1","","35","","","","34","","18","","24.1","","97.14","","","","","","Mainly Clear"
"-122.60","58.84","FORT NELSON A","1192946","2019-05-09 23:00","2019","05","09","23:00","13.8","","4.0","","52","","","","2","","19","","24.1","","97.28","","","","","","NA"
"-122.60","58.84","FORT NELSON A","1192946","2019-05-10 00:00","2019","05","10","00:00","12.3","","3.4","","54","","","","35","","6","","24.1","","97.37","","","","","","NA"
"-122.60","58.84","FORT NELSON A","1192946","2019-05-10 01:00","2019","05","10","01:00","9.9","","3.1","","62","","","","32","","8","","24.1","","97.46","","","","","","Mainly Clear"
"-122.60","58.84","FORT NELSON A","1192946","2019-05-10 02:00","2019","05","10","02:00","8.9","","3.3","","68","","","","32","","11","","24.1","","97.48","","","","","","NA"
"-122.60","58.84","FORT NELSON A","1192946","2019-05-10 03:00","2019","05","10","03:00","9.3","","3.6","","67","","","","36","","2","","24.1","","97.53","","","","","","NA"
"-122.60","58.84","FORT NELSON A","1192946","2019-05-10 04:00","2019","05","10","04:00","7.8","","3.1","","72","","","","36","","1","","48.3","","97.54","","","","","","Mostly Cloudy"
"-122.60","58.84","FORT NELSON A","1192946","2019-05-10 05:00","2019","05","10","05:00","7.9","","3.8","","75","","","","36","","1","","48.3","","97.57","","","","","","NA"
"-122.60","58.84","FORT NELSON A","1192946","2019-05-10 06:00","2019","05","10","06:00","8.8","","3.9","","71","","","","30","","4","","48.3","","97.57","","","","","","NA"
"-122.60","58.84","FORT NELSON A","1192946","2019-05-10 07:00","2019","05","10","07:00","11.2","","2.7","","55","","","","8","","5","","48.3","","97.56","","","","","","Mainly Clear"
"-122.60","58.84","FORT NELSON A","1192946","2019-05-10 08:00","2019","05","10","08:00","13.1","","0.7","","43","","","","11","","9","","48.3","","97.54","","","","","","NA"
"-122.60","58.84","FORT NELSON A","1192946","2019-05-10 09:00","2019","05","10","09:00","14.5","","0.2","","37","","","","15","","10","","48.3","","97.46","","","","","","NA"
"-122.60","58.84","FORT NELSON A","1192946","2019-05-10 10:00","2019","05","10","10:00","15.6","","0.1","","35","","","","10","","9","","48.3","","97.38","","","","","","Mainly Clear"
"-122.60","58.84","FORT NELSON A","1192946","2019-05-10 11:00","2019","05","10","11:00","17.3","","0.3","","31","","","","17","","11","","48.3","","97.34","","","","","","NA"
"-122.60","58.84","FORT NELSON A","1192946","2019-05-10 12:00","2019","05","10","12:00","17.7","","1.8","","34","","","","15","","8","","48.3","","97.24","","","","","","NA"
"-122.60","58.84","FORT NELSON A","1192946","2019-05-10 13:00","2019","05","10","13:00","19.2","","1.4","","30","","","","8","","12","","48.3","","97.13","","","","","","Mainly Clear"
"-122.60","58.84","FORT NELSON A","1192946","2019-05-10 14:00","2019","05","10","14:00","19.6","","1.4","","29","","","","18","","12","","48.3","","97.01","","","","","","NA"
"-122.60","58.84","FORT NELSON A","1192946","2019-05-10 15:00","2019","05","10","15:00","20.6","","2.6","","30","","","","13","","8","","48.3","","96.91","","","","","","NA"
"-122.60","58.84","FORT NELSON A","1192946","2019-05-10 16:00","2019","05","10","16:00","20.4","","2.1","","29","","","","13","","6","","48.3","","96.80","","","","","","Mainly Clear"
"-122.60","58.84","FORT NELSON A","1192946","2019-05-10 17:00","2019","05","10","17:00","21.2","","2.2","","28","","","","9","","14","","48.3","","96.70","","","","","","NA"
"-122.60","58.84","FORT NELSON A","1192946","2019-05-10 18:00","2019","05","10","18:00","20.2","","2.6","","31","","","","10","","14","","48.3","","96.63","","","","","","NA"
"-122.60","58.84","FORT NELSON A","1192946","2019-05-10 19:00","2019","05","10","19:00","19.4","","2.5","","32","","","","8","","15","","48.3","","96.55","","","","","","Mainly Clear"
"-122.60","58.84","FORT NELSON A","1192946","2019-05-10 20:00","2019","05","10","20:00","17.6","","1.7","","34","","","","9","","11","","48.3","","96.49","","","","","","NA"
"-122.60","58.84","FORT NELSON A","1192946","2019-05-10 21:00","2019","05","10","21:00","16.4","","0.6","","34","","","","11","","12","","48.3","","96.46","","","","","","NA"
"-122.60","58.84","FORT NELSON A","1192946","2019-05-10 22:00","2019","05","10","22:00","15.7","","0.2","","35","","","","10","","9","","24.1","","96.39","","","","","","Mainly Clear"
"-122.60","58.84","FORT NELSON A","1192946","2019-05-10 23:00","2019","05","10","23:00","14.6","","-0.1","","36","","","","11","","10","","24.1","","96.30","","","","","","NA"
"-122.60","58.84","FORT NELSON A","1192946","2019-05-11 00:00","2019","05","11","00:00","13.5","","0.0","","39","","","","12","","10","","24.1","","96.21","","","","","","NA"
"-122.60","58.84","FORT NELSON A","1192946","2019-05-11 01:00","2019","05","11","01:00","12.2","","0.3","","44","","","","11","","9","","24.1","","96.15","","","","","","Mainly Clear"
"-122.60","58.84","FORT NELSON A","1192946","2019-05-11 02:00","2019","05","11","02:00","11.7","","0.5","","46","","","","11","","10","","24.1","","96.07","","","","","","NA"
"-122.60","58.84","FORT NELSON A","1192946","2019-05-11 03:00","2019","05","11","03:00","10.6","","0.8","","51","","","","13","","5","","24.1","","96.02","","","","","","NA"
"-122.60","58.84","FORT NELSON A","1192946","2019-05-11 04:00","2019","05","11","04:00","8.6","","1.3","","60","","","","25","","4","","48.3","","95.98","","","","","","Mostly Cloudy"
"-122.60","58.84","FORT NELSON A","1192946","2019-05-11 05:00","2019","05","11","05:00","7.9","","1.4","","63","","","","22","","7","","48.3","","95.96","","","","","","NA"
"-122.60","58.84","FORT NELSON A","1192946","2019-05-11 06:00","2019","05","11","06:00","10.7","","0.7","","50","","","","18","","5","","48.3","","95.93","","","","","","NA"
"-122.60","58.84","FORT NELSON A","1192946","2019-05-11 07:00","2019","05","11","07:00","11.2","","1.4","","50","","","","19","","4","","48.3","","95.93","","","","","","Cloudy"
"-122.60","58.84","FORT NELSON A","1192946","2019-05-11 08:00","2019","05","11","08:00","13.2","","2.5","","48","","","","9","","3","","48.3","","95.86","","","","","","NA"
"-122.60","58.84","FORT NELSON A","1192946","2019-05-11 09:00","2019","05","11","09:00","15.3","","3.6","","45","","","","8","","3","","48.3","","95.85","","","","","","NA"
"-122.60","58.84","FORT NELSON A","1192946","2019-05-11 10:00","2019","05","11","10:00","18.8","","4.0","","37","","","","3","","5","","48.3","","95.76","","","","","","Mostly Cloudy"
"-122.60","58.84","FORT NELSON A","1192946","2019-05-11 11:00","2019","05","11","11:00","20.7","","3.4","","32","","","","30","","4","","48.3","","95.69","","","","","","NA"
"-122.60","58.84","FORT NELSON A","1192946","2019-05-11 12:00","2019","05","11","12:00","22.5","","2.3","","26","","","","35","","15","","48.3","","95.62","","","","","","NA"
"-122.60","58.84","FORT NELSON A","1192946","2019-05-11 13:00","2019","05","11","13:00","21.7","","1.7","","26","","","","32","","20","","48.3","","95.58","","","","","","Mostly Cloudy"
"-122.60","58.84","FORT NELSON A","1192946","2019-05-11 14:00","2019","05","11","14:00","19.3","","3.6","","35","","","","29","","27","","48.3","","95.65","","","","","","NA"
"-122.60","58.84","FORT NELSON A","1192946","2019-05-11 15:00","2019","05","11","15:00","19.4","","4.3","","37","","","","29","","33","","48.3","","95.67","","","","","","NA"
"-122.60","58.84","FORT NELSON A","1192946","2019-05-11 16:00","2019","05","11","16:00","19.2","","4.7","","38","","","","32","","26","","48.3","","95.69","","","","","","Mostly Cloudy"
"-122.60","58.84","FORT NELSON A","1192946","2019-05-11 17:00","2019","05","11","17:00","17.8","","2.3","","35","","","","31","","34","","48.3","","95.75","","","","","","NA"
"-122.60","58.84","FORT NELSON A","1192946","2019-05-11 18:00","2019","05","11","18:00","15.7","","2.3","","40","","","","28","","21","","48.3","","95.81","","","","","","NA"
"-122.60","58.84","FORT NELSON A","1192946","2019-05-11 19:00","2019","05","11","19:00","15.6","","0.8","","36","","","","29","","15","","48.3","","95.80","","","","","","Mainly Clear"
"-122.60","58.84","FORT NELSON A","1192946","2019-05-11 20:00","2019","05","11","20:00","14.7","","-0.9","","34","","","","25","","16","","48.3","","95.81","","","","","","NA"
"-122.60","58.84","FORT NELSON A","1192946","2019-05-11 21:00","2019","05","11","21:00","14.0","","-1.8","","33","","","","25","","16","","48.3","","95.85","","","","","","NA"
"-122.60","58.84","FORT NELSON A","1192946","2019-05-11 22:00","2019","05","11","22:00","14.3","","-4.6","","27","","","","27","","24","","24.1","","95.94","","","","","","Mostly Cloudy"
"-122.60","58.84","FORT NELSON A","1192946","2019-05-11 23:00","2019","05","11","23:00","13.5","","-5.7","","26","","","","27","","28","","24.1","","96.01","","","","","","NA"
"-122.60","58.84","FORT NELSON A","1192946","2019-05-12 00:00","2019","05","12","00:00","12.3","","-5.1","","29","","","","24","","16","","24.1","","96.09","","","","","","NA"
"-122.60","58.84","FORT NELSON A","1192946","2019-05-12 01:00","2019","05","12","01:00","11.6","","-7.7","","25","","","","27","","17","","24.1","","96.15","","","","","","Cloudy"
"-122.60","58.84","FORT NELSON A","1192946","2019-05-12 02:00","2019","05","12","02:00","10.6","","-7.5","","27","","","","29","","21","","24.1","","96.17","","","","","","NA"
"-122.60","58.84","FORT NELSON A","1192946","2019-05-12 03:00","2019","05","12","03:00","9.6","","-7.2","","30","","","","28","","24","","24.1","","96.15","","","","","","NA"
"-122.60","58.84","FORT NELSON A","1192946","2019-05-12 04:00","2019","05","12","04:00","8.0","","-7.1","","34","","","","29","","14","","48.3","","96.19","","","","","","Mainly Clear"
"-122.60","58.84","FORT NELSON A","1192946","2019-05-12 05:00","2019","05","12","05:00","9.3","","-7.1","","31","","","","26","","20","","48.3","","96.20","","","","","","NA"
"-122.60","58.84","FORT NELSON A","1192946","2019-05-12 06:00","2019","05","12","06:00","9.8","","-7.1","","30","","","","27","","20","","48.3","","96.22","","","","","","NA"
"-122.60","58.84","FORT NELSON A","1192946","2019-05-12 07:00","2019","05","12","07:00","10.6","","-6.1","","30","","","","26","","29","","48.3","","96.21","","","","","","Mostly Cloudy"
"-122.60","58.84","FORT NELSON A","1192946","2019-05-12 08:00","2019","05","12","08:00","9.8","","-3.9","","38","","","","28","","37","","48.3","","96.26","","","","","","NA"
"-122.60","58.84","FORT NELSON A","1192946","2019-05-12 09:00","2019","05","12","09:00","9.9","","-3.3","","39","","","","29","","30","","48.3","","96.28","","","","","","NA"
"-122.60","58.84","FORT NELSON A","1192946","2019-05-12 10:00","2019","05","12","10:00","11.6","","-3.0","","36","","","","29","","30","","48.3","","96.30","","","","","","Mostly Cloudy"
"-122.60","58.84","FORT NELSON A","1192946","2019-05-12 11:00","2019","05","12","11:00","12.0","","-2.5","","36","","","","30","","22","","48.3","","96.32","","","","","","NA"
"-122.60","58.84","FORT NELSON A","1192946","2019-05-12 12:00","2019","05","12","12:00","13.5","","-2.6","","32","","","","29","","26","","48.3","","96.33","","","","","","NA"
"-122.60","58.84","FORT NELSON A","1192946","2019-05-12 13:00","2019","05","12","13:00","13.4","","-2.9","","32","","","","30","","22","","48.3","","96.34","","","","","","Mostly Cloudy"
"-122.60","58.84","FORT NELSON A","1192946","2019-05-12 14:00","2019","05","12","14:00","14.5","","-3.1","","29","","","","26","","32","","48.3","","96.39","","","","","","NA"
"-122.60","58.84","FORT NELSON A","1192946","2019-05-12 15:00","2019","05","12","15:00","14.3","","-2.6","","31","","","","28","","27","","48.3","","96.41","","","","","","NA"
"-122.60","58.84","FORT NELSON A","1192946","2019-05-12 16:00","2019","05","12","16:00","15.0","","-3.2","","28","","","","26","","29","","48.3","","96.41","","","","","","Mostly Cloudy"
"-122.60","58.84","FORT NELSON A","1192946","2019-05-12 17:00","2019","05","12","17:00","14.3","","-2.7","","30","","","","31","","22","","48.3","","96.43","","","","","","NA"
"-122.60","58.84","FORT NELSON A","1192946","2019-05-12 18:00","2019","05","12","18:00","11.6","","2.1","","52","","","","34","","18","","48.3","","96.53","","","","","","NA"
"-122.60","58.84","FORT NELSON A","1192946","2019-05-12 19:00","2019","05","12","19:00","9.6","","2.4","","61","","","","33","","21","","48.3","","96.62","","","","","","Mostly Cloudy"
"-122.60","58.84","FORT NELSON A","1192946","2019-05-12 20:00","2019","05","12","20:00","8.0","","1.8","","65","","","","31","","12","","48.3","","96.74","","","","","","NA"
"-122.60","58.84","FORT NELSON A","1192946","2019-05-12 21:00","2019","05","12","21:00","7.8","","1.5","","64","","","","30","","16","","48.3","","96.79","","","","","","NA"
"-122.60","58.84","FORT NELSON A","1192946","2019-05-12 22:00","2019","05","12","22:00","7.1","","1.4","","67","","","","32","","9","","24.1","","96.86","","","","","","Mostly Cloudy"
"-122.60","58.84","FORT NELSON A","1192946","2019-05-12 23:00","2019","05","12","23:00","6.2","","0.7","","68","","","","29","","16","","24.1","","96.94","","","","","","NA"
"-122.60","58.84","FORT NELSON A","1192946","2019-05-13 00:00","2019","05","13","00:00","5.6","","0.9","","72","","","","29","","10","","24.1","","96.99","","","","","","NA"
"-122.60","58.84","FORT NELSON A","1192946","2019-05-13 01:00","2019","05","13","01:00","5.5","","1.0","","73","","","","29","","9","","24.1","","97.03","","","","","","Mostly Cloudy"
"-122.60","58.84","FORT NELSON A","1192946","2019-05-13 02:00","2019","05","13","02:00","5.7","","1.2","","73","","","","29","","10","","24.1","","97.05","","","","","","NA"
"-122.60","58.84","FORT NELSON A","1192946","2019-05-13 03:00","2019","05","13","03:00","5.6","","1.3","","74","","","","31","","13","","24.1","","97.09","","","","","","NA"
"-122.60","58.84","FORT NELSON A","1192946","2019-05-13 04:00","2019","05","13","04:00","4.7","","1.1","","78","","","","34","","16","","48.3","","97.13","","","","","","Mostly Cloudy"
"-122.60","58.84","FORT NELSON A","1192946","2019-05-13 05:00","2019","05","13","05:00","4.7","","2.2","","84","","","","32","","14","","48.3","","97.17","","","","","","NA"
"-122.60","58.84","FORT NELSON A","1192946","2019-05-13 06:00","2019","05","13","06:00","5.4","","2.3","","80","","","","33","","13","","48.3","","97.21","","","","","","NA"
"-122.60","58.84","FORT NELSON A","1192946","2019-05-13 07:00","2019","05","13","07:00","6.0","","1.4","","73","","","","36","","14","","48.3","","97.23","","","","","","Mostly Cloudy"
"-122.60","58.84","FORT NELSON A","1192946","2019-05-13 08:00","2019","05","13","08:00","6.0","","2.4","","77","","","","33","","9","","48.3","","97.27","","","","","","Rain"
"-122.60","58.84","FORT NELSON A","1192946","2019-05-13 09:00","2019","05","13","09:00","7.2","","1.8","","68","","","","29","","5","","48.3","","97.27","","","","","","NA"
"-122.60","58.84","FORT NELSON A","1192946","2019-05-13 10:00","2019","05","13","10:00","9.3","","1.7","","59","","","","2","","3","","48.3","","97.26","","","","","","Mostly Cloudy"
"-122.60","58.84","FORT NELSON A","1192946","2019-05-13 11:00","2019","05","13","11:00","10.6","","1.3","","53","","","","34","","7","","48.3","","97.25","","","","","","NA"
"-122.60","58.84","FORT NELSON A","1192946","2019-05-13 12:00","2019","05","13","12:00","11.0","","1.1","","50","","","","33","","26","","48.3","","97.24","","","","","","NA"
"-122.60","58.84","FORT NELSON A","1192946","2019-05-13 13:00","2019","05","13","13:00","12.0","","-0.5","","42","","","","34","","7","","48.3","","97.21","","","","","","Mostly Cloudy"
"-122.60","58.84","FORT NELSON A","1192946","2019-05-13 14:00","2019","05","13","14:00","13.2","","-0.6","","38","","","","34","","17","","48.3","","97.21","","","","","","NA"
"-122.60","58.84","FORT NELSON A","1192946","2019-05-13 15:00","2019","05","13","15:00","12.8","","-0.8","","39","","","","1","","13","","48.3","","97.18","","","","","","NA"
"-122.60","58.84","FORT NELSON A","1192946","2019-05-13 16:00","2019","05","13","16:00","12.6","","-0.1","","41","","","","1","","8","","48.3","","97.15","","","","","","Mostly Cloudy"
"-122.60","58.84","FORT NELSON A","1192946","2019-05-13 17:00","2019","05","13","17:00","12.7","","0.1","","42","","","","6","","10","","48.3","","97.16","","","","","","NA"
"-122.60","58.84","FORT NELSON A","1192946","2019-05-13 18:00","2019","05","13","18:00","12.7","","-0.5","","40","","","","34","","8","","48.3","","97.14","","","","","","NA"
"-122.60","58.84","FORT NELSON A","1192946","2019-05-13 19:00","2019","05","13","19:00","11.6","","1.2","","49","","","","3","","14","","48.3","","97.14","","","","","","Mostly Cloudy"
"-122.60","58.84","FORT NELSON A","1192946","2019-05-13 20:00","2019","05","13","20:00","10.9","","1.0","","50","","","","4","","4","","48.3","","97.16","","","","","","NA"
"-122.60","58.84","FORT NELSON A","1192946","2019-05-13 21:00","2019","05","13","21:00","8.3","","2.1","","65","","","","32","","3","","32.2","","97.18","","","","","","NA"
"-122.60","58.84","FORT NELSON A","1192946","2019-05-13 22:00","2019","05","13","22:00","6.2","","1.5","","72","","","","25","","5","","24.1","","97.20","","","","","","Mostly Cloudy"
"-122.60","58.84","FORT NELSON A","1192946","2019-05-13 23:00","2019","05","13","23:00","5.0","","1.1","","76","","","","26","","5","","24.1","","97.22","","","","","","NA"
"-122.60","58.84","FORT NELSON A","1192946","2019-05-14 00:00","2019","05","14","00:00","5.0","","1.2","","77","","","","25","","4","","24.1","","97.22","","","","","","NA"
"-122.60","58.84","FORT NELSON A","1192946","2019-05-14 01:00","2019","05","14","01:00","5.2","","1.5","","77","","","","32","","4","","24.1","","97.22","","","","","","Mostly Cloudy"
"-122.60","58.84","FORT NELSON A","1192946","2019-05-14 02:00","2019","05","14","02:00","5.0","","1.7","","79","","","","36","","3","","24.1","","97.23","","","","","","NA"
"-122.60","58.84","FORT NELSON A","1192946","2019-05-14 03:00","2019","05","14","03:00","4.9","","1.4","","78","","","","34","","5","","24.1","","97.25","","","","","","NA"
"-122.60","58.84","FORT NELSON A","1192946","2019-05-14 04:00","2019","05","14","04:00","4.7","","1.3","","79","","","","33","","7","","24.1","","97.27","","","","","","Mostly Cloudy"
"-122.60","58.84","FORT NELSON A","1192946","2019-05-14 05:00","2019","05","14","05:00","4.6","","1.0","","77","","","","34","","9","","48.3","","97.26","","","","","","NA"
"-122.60","58.84","FORT NELSON A","1192946","2019-05-14 06:00","2019","05","14","06:00","4.6","","1.8","","82","","","","5","","4","","48.3","","97.27","","","","","","Rain"
"-122.60","58.84","FORT NELSON A","1192946","2019-05-14 07:00","2019","05","14","07:00","5.3","","2.3","","81","","","","34","","7","","48.3","","97.28","","","","","","Rain"
"-122.60","58.84","FORT NELSON A","1192946","2019-05-14 08:00","2019","05","14","08:00","6.8","","2.6","","75","","","","36","","1","","48.3","","97.27","","","","","","NA"
"-122.60","58.84","FORT NELSON A","1192946","2019-05-14 09:00","2019","05","14","09:00","9.5","","0.7","","54","","","","8","","3","","48.3","","97.24","","","","","","NA"
"-122.60","58.84","FORT NELSON A","1192946","2019-05-14 10:00","2019","05","14","10:00","11.6","","-0.8","","42","","","","12","","9","","48.3","","97.18","","","","","","Mostly Cloudy"
"-122.60","58.84","FORT NELSON A","1192946","2019-05-14 11:00","2019","05","14","11:00","12.7","","-0.6","","40","","","","34","","8","","48.3","","97.13","","","","","","NA"
"-122.60","58.84","FORT NELSON A","1192946","2019-05-14 12:00","2019","05","14","12:00","13.7","","-1.2","","36","","","","36","","5","","48.3","","97.04","","","","","","NA"
"-122.60","58.84","FORT NELSON A","1192946","2019-05-14 13:00","2019","05","14","13:00","14.4","","-0.9","","35","","","","1","","16","","48.3","","97.00","","","","","","Mostly Cloudy"
"-122.60","58.84","FORT NELSON A","1192946","2019-05-14 14:00","2019","05","14","14:00","14.9","","-1.3","","33","","","","30","","8","","48.3","","96.94","","","","","","NA"
"-122.60","58.84","FORT NELSON A","1192946","2019-05-14 15:00","2019","05","14","15:00","14.6","","-1.1","","34","","","","2","","15","","48.3","","96.89","","","","","","NA"
"-122.60","58.84","FORT NELSON A","1192946","2019-05-14 16:00","2019","05","14","16:00","14.7","","-2.2","","31","","","","5","","16","","48.3","","96.86","","","","","","Mostly Cloudy"
"-122.60","58.84","FORT NELSON A","1192946","2019-05-14 17:00","2019","05","14","17:00","14.3","","-2.0","","32","","","","1","","12","","48.3","","96.84","","","","","","NA"
"-122.60","58.84","FORT NELSON A","1192946","2019-05-14 18:00","2019","05","14","18:00","14.2","","-2.4","","32","","","","4","","11","","48.3","","96.81","","","","","","NA"
"-122.60","58.84","FORT NELSON A","1192946","2019-05-14 19:00","2019","05","14","19:00","13.2","","-2.2","","34","","","","2","","13","","48.3","","96.82","","","","","","Mostly Cloudy"
"-122.60","58.84","FORT NELSON A","1192946","2019-05-14 20:00","2019","05","14","20:00","12.6","","-2.1","","36","","","","1","","8","","48.3","","96.85","","","","","","NA"
"-122.60","58.84","FORT NELSON A","1192946","2019-05-14 21:00","2019","05","14","21:00","11.5","","-2.1","","38","","","","3","","8","","48.3","","96.87","","","","","","NA"
"-122.60","58.84","FORT NELSON A","1192946","2019-05-14 22:00","2019","05","14","22:00","10.4","","-2.4","","41","","","","36","","9","","24.1","","96.86","","","","","","Mostly Cloudy"
"-122.60","58.84","FORT NELSON A","1192946","2019-05-14 23:00","2019","05","14","23:00","9.3","","-2.7","","43","","","","1","","7","","24.1","","96.90","","","","","","NA"
"-122.60","58.84","FORT NELSON A","1192946","2019-05-15 00:00","2019","05","15","00:00","7.4","","-2.8","","48","","","","1","","8","","24.1","","96.94","","","","","","NA"
"-122.60","58.84","FORT NELSON A","1192946","2019-05-15 01:00","2019","05","15","01:00","6.2","","-2.8","","52","","","","31","","6","","24.1","","96.98","","","","","","Mostly Cloudy"
"-122.60","58.84","FORT NELSON A","1192946","2019-05-15 02:00","2019","05","15","02:00","4.8","","-2.1","","61","","","","33","","4","","24.1","","97.04","","","","","","NA"
"-122.60","58.84","FORT NELSON A","1192946","2019-05-15 03:00","2019","05","15","03:00","3.4","","-3.0","","63","","","","35","","8","","24.1","","97.07","","","","","","NA"
"-122.60","58.84","FORT NELSON A","1192946","2019-05-15 04:00","2019","05","15","04:00","3.0","","-3.5","","62","","","","34","","8","","24.1","","97.12","","","","","","Mostly Cloudy"
"-122.60","58.84","FORT NELSON A","1192946","2019-05-15 05:00","2019","05","15","05:00","4.6","","-3.7","","55","","","","36","","7","","48.3","","97.17","","","","","","NA"
"-122.60","58.84","FORT NELSON A","1192946","2019-05-15 06:00","2019","05","15","06:00","5.3","","-3.4","","53","","","","5","","4","","48.3","","97.23","","","","","","NA"
"-122.60","58.84","FORT NELSON A","1192946","2019-05-15 07:00","2019","05","15","07:00","6.5","","-3.2","","50","","","","11","","8","","48.3","","97.26","","","","","","Mainly Clear"
"-122.60","58.84","FORT NELSON A","1192946","2019-05-15 08:00","2019","05","15","08:00","8.3","","-3.5","","43","","","","6","","7","","48.3","","97.26","","","","","","NA"
"-122.60","58.84","FORT NELSON A","1192946","2019-05-15 09:00","2019","05","15","09:00","9.8","","-3.6","","39","","","","11","","9","","48.3","","97.28","","","","","","NA"
"-122.60","58.84","FORT NELSON A","1192946","2019-05-15 10:00","2019","05","15","10:00","11.3","","-3.8","","34","","","","7","","8","","48.3","","97.26","","","","","","Mainly Clear"
"-122.60","58.84","FORT NELSON A","1192946","2019-05-15 11:00","2019","05","15","11:00","13.6","","-4.1","","29","","","","7","","17","","48.3","","97.24","","","","","","NA"
"-122.60","58.84","FORT NELSON A","1192946","2019-05-15 12:00","2019","05","15","12:00","14.2","","-4.0","","28","","","","8","","18","","48.3","","97.20","","","","","","NA"
"-122.60","58.84","FORT NELSON A","1192946","2019-05-15 13:00","2019","05","15","13:00","15.0","","-4.7","","25","","","","11","","14","","48.3","","97.18","","","","","","Mostly Cloudy"
"-122.60","58.84","FORT NELSON A","1192946","2019-05-15 14:00","2019","05","15","14:00","14.8","","-4.5","","26","","","","9","","16","","48.3","","97.16","","","","","","NA"
"-122.60","58.84","FORT NELSON A","1192946","2019-05-15 15:00","2019","05","15","15:00","15.1","","-4.8","","25","","","","9","","9","","48.3","","97.15","","","","","","NA"
"-122.60","58.84","FORT NELSON A","1192946","2019-05-15 16:00","2019","05","15","16:00","16.0","","-5.0","","23","","","","7","","19","","48.3","","97.12","","","","","","Mostly Cloudy"
"-122.60","58.84","FORT NELSON A","1192946","2019-05-15 17:00","2019","05","15","17:00","15.1","","-5.1","","24","","","","9","","23","","48.3","","97.08","","","","","","NA"
"-122.60","58.84","FORT NELSON A","1192946","2019-05-15 18:00","2019","05","15","18:00","15.3","","-3.9","","26","","","","10","","15","","48.3","","97.05","","","","","","NA"
"-122.60","58.84","FORT NELSON A","1192946","2019-05-15 19:00","2019","05","15","19:00","14.4","","-4.2","","27","","","","9","","24","","48.3","","97.06","","","","","","Mainly Clear"
"-122.60","58.84","FORT NELSON A","1192946","2019-05-15 20:00","2019","05","15","20:00","13.0","","-4.3","","30","","","","9","","26","","48.3","","97.09","","","","","","NA"
"-122.60","58.84","FORT NELSON A","1192946","2019-05-15 21:00","2019","05","15","21:00","11.6","","-4.4","","32","","","","9","","21","","48.3","","97.13","","","","","","NA"
"-122.60","58.84","FORT NELSON A","1192946","2019-05-15 22:00","2019","05","15","22:00","10.6","","-4.2","","35","","","","11","","27","","24.1","","97.14","","","","","","Mostly Cloudy"
"-122.60","58.84","FORT NELSON A","1192946","2019-05-15 23:00","2019","05","15","23:00","9.3","","-4.1","","39","","","","10","","26","","24.1","","97.16","","","","","","NA"
"-122.60","58.84","FORT NELSON A","1192946","2019-05-16 00:00","2019","05","16","00:00","7.8","","-4.4","","42","","","","11","","18","","24.1","","97.19","","","","","","NA"
"-122.60","58.84","FORT NELSON A","1192946","2019-05-16 01:00","2019","05","16","01:00","6.7","","-4.9","","43","","","","12","","10","","24.1","","97.22","","","","","","Mainly Clear"
"-122.60","58.84","FORT NELSON A","1192946","2019-05-16 02:00","2019","05","16","02:00","5.7","","-5.2","","45","","","","14","","8","","24.1","","97.22","","","","","","NA"
"-122.60","58.84","FORT NELSON A","1192946","2019-05-16 03:00","2019","05","16","03:00","4.5","","-5.3","","49","","","","13","","15","","48.3","","97.23","","","","","","NA"
"-122.60","58.84","FORT NELSON A","1192946","2019-05-16 04:00","2019","05","16","04:00","3.2","","-5.3","","54","","","","10","","13","","48.3","","97.22","","","","","","Clear"
"-122.60","58.84","FORT NELSON A","1192946","2019-05-16 05:00","2019","05","16","05:00","3.1","","-5.3","","54","","","","12","","10","","48.3","","97.22","","","","","","NA"
"-122.60","58.84","FORT NELSON A","1192946","2019-05-16 06:00","2019","05","16","06:00","3.9","","-5.2","","52","","","","10","","15","","48.3","","97.23","","","","","","NA"
"-122.60","58.84","FORT NELSON A","1192946","2019-05-16 07:00","2019","05","16","07:00","5.5","","-4.8","","47","","","","9","","17","","48.3","","97.20","","","","","","Mainly Clear"
"-122.60","58.84","FORT NELSON A","1192946","2019-05-16 08:00","2019","05","16","08:00","7.9","","-3.4","","45","","","","10","","8","","48.3","","97.16","","","","","","NA"
"-122.60","58.84","FORT NELSON A","1192946","2019-05-16 09:00","2019","05","16","09:00","10.4","","-3.1","","39","","","","7","","9","","48.3","","97.10","","","","","","NA"
"-122.60","58.84","FORT NELSON A","1192946","2019-05-16 10:00","2019","05","16","10:00","12.9","","-3.4","","32","","","","10","","18","","48.3","","97.03","","","","","","Mainly Clear"
"-122.60","58.84","FORT NELSON A","1192946","2019-05-16 11:00","2019","05","16","11:00","14.5","","-3.4","","29","","","","11","","19","","48.3","","96.97","","","","","","NA"
"-122.60","58.84","FORT NELSON A","1192946","2019-05-16 12:00","2019","05","16","12:00","14.8","","-3.6","","28","","","","14","","17","","48.3","","96.90","","","","","","NA"
"-122.60","58.84","FORT NELSON A","1192946","2019-05-16 13:00","2019","05","16","13:00","15.5","","-3.1","","28","","","","10","","27","","48.3","","96.83","","","","","","Mostly Cloudy"
"-122.60","58.84","FORT NELSON A","1192946","2019-05-16 14:00","2019","05","16","14:00","15.9","","-2.8","","27","","","","10","","23","","48.3","","96.76","","","","","","NA"
"-122.60","58.84","FORT NELSON A","1192946","2019-05-16 15:00","2019","05","16","15:00","15.6","","-3.5","","27","","","","11","","28","","48.3","","96.69","","","","","","NA"
"-122.60","58.84","FORT NELSON A","1192946","2019-05-16 16:00","2019","05","16","16:00","15.4","","-3.0","","28","","","","10","","14","","48.3","","96.67","","","","","","Mostly Cloudy"
"-122.60","58.84","FORT NELSON A","1192946","2019-05-16 17:00","2019","05","16","17:00","16.5","","-2.1","","28","","","","10","","17","","48.3","","96.60","","","","","","NA"
"-122.60","58.84","FORT NELSON A","1192946","2019-05-16 18:00","2019","05","16","18:00","15.6","","-2.5","","29","","","","10","","18","","48.3","","96.58","","","","","","NA"
"-122.60","58.84","FORT NELSON A","1192946","2019-05-16 19:00","2019","05","16","19:00","15.3","","-3.1","","28","","","","8","","22","","48.3","","96.55","","","","","","Mostly Cloudy"
"-122.60","58.84","FORT NELSON A","1192946","2019-05-16 20:00","2019","05","16","20:00","14.5","","-2.9","","30","","","","8","","16","","48.3","","96.56","","","","","","NA"
"-122.60","58.84","FORT NELSON A","1192946","2019-05-16 21:00","2019","05","16","21:00","13.8","","-3.0","","31","","","","10","","25","","48.3","","96.57","","","","","","NA"
"-122.60","58.84","FORT NELSON A","1192946","2019-05-16 22:00","2019","05","16","22:00","13.1","","-2.8","","33","","","","10","","17","","24.1","","96.56","","","","","","Mostly Cloudy"
"-122.60","58.84","FORT NELSON A","1192946","2019-05-16 23:00","2019","05","16","23:00","12.3","","-0.8","","40","","","","15","","7","","24.1","","96.60","","","","","","NA"
"-122.60","58.84","FORT NELSON A","1192946","2019-05-17 00:00","2019","05","17","00:00","12.0","","-1.3","","40","","","","7","","8","","24.1","","96.56","","","","","","NA"
"-122.60","58.84","FORT NELSON A","1192946","2019-05-17 01:00","2019","05","17","01:00","11.3","","-3.7","","35","","","","9","","13","","24.1","","96.52","","","","","","Mostly Cloudy"
"-122.60","58.84","FORT NELSON A","1192946","2019-05-17 02:00","2019","05","17","02:00","10.4","","-3.9","","36","","","","9","","3","","24.1","","96.51","","","","","","NA"
"-122.60","58.84","FORT NELSON A","1192946","2019-05-17 03:00","2019","05","17","03:00","10.3","","-4.0","","36","","","","10","","10","","24.1","","96.50","","","","","","NA"
"-122.60","58.84","FORT NELSON A","1192946","2019-05-17 04:00","2019","05","17","04:00","9.9","","-3.5","","39","","","","12","","7","","48.3","","96.50","","","","","","Mostly Cloudy"
"-122.60","58.84","FORT NELSON A","1192946","2019-05-17 05:00","2019","05","17","05:00","9.8","","-3.4","","39","","","","9","","8","","48.3","","96.48","","","","","","NA"
"-122.60","58.84","FORT NELSON A","1192946","2019-05-17 06:00","2019","05","17","06:00","9.8","","-2.9","","41","","","","10","","10","","48.3","","96.51","","","","","","NA"
"-122.60","58.84","FORT NELSON A","1192946","2019-05-17 07:00","2019","05","17","07:00","9.8","","-2.5","","42","","","","9","","8","","48.3","","96.51","","","","","","Cloudy"
"-122.60","58.84","FORT NELSON A","1192946","2019-05-17 08:00","2019","05","17","08:00","9.9","","-1.8","","44","","","","9","","7","","48.3","","96.50","","","","","","NA"
"-122.60","58.84","FORT NELSON A","1192946","2019-05-17 09:00","2019","05","17","09:00","10.6","","-1.6","","43","","","","10","","17","","48.3","","96.51","","","","","","NA"
"-122.60","58.84","FORT NELSON A","1192946","2019-05-17 10:00","2019","05","17","10:00","11.3","","-2.0","","39","","","","8","","12","","48.3","","96.51","","","","","","Cloudy"
"-122.60","58.84","FORT NELSON A","1192946","2019-05-17 11:00","2019","05","17","11:00","12.7","","-1.4","","37","","","","8","","10","","48.3","","96.49","","","","","","NA"
"-122.60","58.84","FORT NELSON A","1192946","2019-05-17 12:00","2019","05","17","12:00","14.1","","-0.3","","37","","","","10","","17","","48.3","","96.48","","","","","","NA"
"-122.60","58.84","FORT NELSON A","1192946","2019-05-17 13:00","2019","05","17","13:00","14.7","","-0.4","","35","","","","10","","10","","48.3","","96.45","","","","","","Mostly Cloudy"
"-122.60","58.84","FORT NELSON A","1192946","2019-05-17 14:00","2019","05","17","14:00","17.0","","0.5","","33","","","","6","","13","","48.3","","96.40","","","","","","NA"
"-122.60","58.84","FORT NELSON A","1192946","2019-05-17 15:00","2019","05","17","15:00","17.0","","0.2","","32","","","","8","","9","","48.3","","96.38","","","","","","NA"
"-122.60","58.84","FORT NELSON A","1192946","2019-05-17 16:00","2019","05","17","16:00","17.6","","1.0","","32","","","","2","","11","","48.3","","96.32","","","","","","Cloudy"
"-122.60","58.84","FORT NELSON A","1192946","2019-05-17 17:00","2019","05","17","17:00","18.3","","0.3","","29","","","","8","","12","","48.3","","96.30","","","","","","NA"
"-122.60","58.84","FORT NELSON A","1192946","2019-05-17 18:00","2019","05","17","18:00","17.4","","0.9","","32","","","","13","","23","","48.3","","96.36","","","","","","NA"
"-122.60","58.84","FORT NELSON A","1192946","2019-05-17 19:00","2019","05","17","19:00","15.7","","2.3","","40","","","","19","","23","","24.1","","96.44","","","","","","Cloudy"
"-122.60","58.84","FORT NELSON A","1192946","2019-05-17 20:00","2019","05","17","20:00","11.8","","5.0","","63","","","","20","","19","","24.1","","96.54","","","","","","NA"
"-122.60","58.84","FORT NELSON A","1192946","2019-05-17 21:00","2019","05","17","21:00","9.7","","6.8","","82","","","","20","","9","","14.5","","96.60","","","","","","Rain"
"-122.60","58.84","FORT NELSON A","1192946","2019-05-17 22:00","2019","05","17","22:00","9.3","","6.9","","85","","","","21","","5","","24.1","","96.60","","","","","","Rain"
"-122.60","58.84","FORT NELSON A","1192946","2019-05-17 23:00","2019","05","17","23:00","8.8","","7.3","","90","","","","4","","5","","24.1","","96.60","","","","","","NA"
"-122.60","58.84","FORT NELSON A","1192946","2019-05-18 00:00","2019","05","18","00:00","8.3","","6.9","","91","","","","4","","4","","24.1","","96.56","","","","","","NA"
"-122.60","58.84","FORT NELSON A","1192946","2019-05-18 01:00","2019","05","18","01:00","8.4","","6.6","","89","","","","34","","6","","24.1","","96.52","","","","","","Cloudy"
"-122.60","58.84","FORT NELSON A","1192946","2019-05-18 02:00","2019","05","18","02:00","8.4","","6.4","","87","","","","30","","4","","24.1","","96.53","","","","","","NA"
"-122.60","58.84","FORT NELSON A","1192946","2019-05-18 03:00","2019","05","18","03:00","7.5","","6.6","","94","","","","24","","4","","24.1","","96.55","","","","","","NA"
"-122.60","58.84","FORT NELSON A","1192946","2019-05-18 04:00","2019","05","18","04:00","7.2","","6.4","","95","","","","36","","1","","48.3","","96.56","","","","","","Mostly Cloudy"
"-122.60","58.84","FORT NELSON A","1192946","2019-05-18 05:00","2019","05","18","05:00","7.9","","6.5","","91","","","","4","","3","","48.3","","96.61","","","","","","NA"
"-122.60","58.84","FORT NELSON A","1192946","2019-05-18 06:00","2019","05","18","06:00","9.1","","6.9","","87","","","","36","","3","","48.3","","96.63","","","","","","NA"
"-122.60","58.84","FORT NELSON A","1192946","2019-05-18 07:00","2019","05","18","07:00","11.6","","5.9","","68","","","","36","","1","","56.3","","96.64","","","","","","Mostly Cloudy"
"-122.60","58.84","FORT NELSON A","1192946","2019-05-18 08:00","2019","05","18","08:00","12.8","","5.4","","61","","","","36","","2","","48.3","","96.63","","","","","","NA"
"-122.60","58.84","FORT NELSON A","1192946","2019-05-18 09:00","2019","05","18","09:00","14.1","","5.9","","58","","","","35","","3","","48.3","","96.65","","","","","","NA"
"-122.60","58.84","FORT NELSON A","1192946","2019-05-18 10:00","2019","05","18","10:00","14.7","","4.8","","51","","","","25","","4","","48.3","","96.64","","","","","","Cloudy"
"-122.60","58.84","FORT NELSON A","1192946","2019-05-18 11:00","2019","05","18","11:00","15.9","","5.3","","49","","","","23","","7","","48.3","","96.66","","","","","","NA"
"-122.60","58.84","FORT NELSON A","1192946","2019-05-18 12:00","2019","05","18","12:00","17.4","","4.6","","42","","","","36","","2","","48.3","","96.65","","","","","","NA"
"-122.60","58.84","FORT NELSON A","1192946","2019-05-18 13:00","2019","05","18","13:00","17.4","","6.3","","48","","","","19","","9","","48.3","","96.66","","","","","","Cloudy"
"-122.60","58.84","FORT NELSON A","1192946","2019-05-18 14:00","2019","05","18","14:00","17.2","","5.2","","45","","","","17","","6","","48.3","","96.68","","","","","","NA"
"-122.60","58.84","FORT NELSON A","1192946","2019-05-18 15:00","2019","05","18","15:00","15.2","","5.7","","53","","","","11","","17","","32.2","","96.76","","","","","","Rain"
"-122.60","58.84","FORT NELSON A","1192946","2019-05-18 16:00","2019","05","18","16:00","15.0","","6.8","","57","","","","14","","10","","20.9","","96.77","","","","","","Rain"
"-122.60","58.84","FORT NELSON A","1192946","2019-05-18 17:00","2019","05","18","17:00","13.7","","8.4","","70","","","","15","","11","","20.9","","96.80","","","","","","Rain"
"-122.60","58.84","FORT NELSON A","1192946","2019-05-18 18:00","2019","05","18","18:00","13.5","","7.8","","68","","","","36","","1","","24.1","","96.78","","","","","","Rain"
"-122.60","58.84","FORT NELSON A","1192946","2019-05-18 19:00","2019","05","18","19:00","13.3","","8.3","","71","","","","15","","8","","24.1","","96.80","","","","","","Cloudy"
"-122.60","58.84","FORT NELSON A","1192946","2019-05-18 20:00","2019","05","18","20:00","12.9","","7.7","","71","","","","10","","7","","24.1","","96.79","","","","","","NA"
"-122.60","58.84","FORT NELSON A","1192946","2019-05-18 21:00","2019","05","18","21:00","12.1","","7.2","","72","","","","12","","4","","32.2","","96.77","","","","","","NA"
"-122.60","58.84","FORT NELSON A","1192946","2019-05-18 22:00","2019","05","18","22:00","11.2","","6.8","","74","","","","11","","6","","24.1","","96.77","","","","","","Mostly Cloudy"
"-122.60","58.84","FORT NELSON A","1192946","2019-05-18 23:00","2019","05","18","23:00","11.5","","6.6","","72","","","","14","","5","","24.1","","96.75","","","","","","NA"
"-122.60","58.84","FORT NELSON A","1192946","2019-05-19 00:00","2019","05","19","00:00","9.9","","6.6","","80","","","","20","","4","","24.1","","96.77","","","","","","NA"
"-122.60","58.84","FORT NELSON A","1192946","2019-05-19 01:00","2019","05","19","01:00","10.4","","6.7","","78","","","","22","","5","","24.1","","96.77","","","","","","Mostly Cloudy"
"-122.60","58.84","FORT NELSON A","1192946","2019-05-19 02:00","2019","05","19","02:00","9.6","","6.8","","83","","","","17","","3","","24.1","","96.78","","","","","","NA"
"-122.60","58.84","FORT NELSON A","1192946","2019-05-19 03:00","2019","05","19","03:00","8.5","","6.6","","88","","","","36","","3","","24.1","","96.78","","","","","","NA"
"-122.60","58.84","FORT NELSON A","1192946","2019-05-19 04:00","2019","05","19","04:00","8.1","","6.6","","90","","","","36","","3","","48.3","","96.78","","","","","","Mostly Cloudy"
"-122.60","58.84","FORT NELSON A","1192946","2019-05-19 05:00","2019","05","19","05:00","8.9","","6.8","","87","","","","1","","4","","48.3","","96.76","","","","","","NA"
"-122.60","58.84","FORT NELSON A","1192946","2019-05-19 06:00","2019","05","19","06:00","10.6","","7.2","","80","","","","32","","3","","48.3","","96.75","","","","","","NA"
"-122.60","58.84","FORT NELSON A","1192946","2019-05-19 07:00","2019","05","19","07:00","13.2","","6.6","","64","","","","8","","4","","48.3","","96.72","","","","","","Mainly Clear"
"-122.60","58.84","FORT NELSON A","1192946","2019-05-19 08:00","2019","05","19","08:00","14.8","","6.9","","59","","","","31","","3","","48.3","","96.69","","","","","","NA"
"-122.60","58.84","FORT NELSON A","1192946","2019-05-19 09:00","2019","05","19","09:00","16.6","","6.7","","52","","","","3","","9","","48.3","","96.67","","","","","","NA"
"-122.60","58.84","FORT NELSON A","1192946","2019-05-19 10:00","2019","05","19","10:00","17.1","","5.6","","46","","","","7","","7","","48.3","","96.65","","","","","","Mostly Cloudy"
"-122.60","58.84","FORT NELSON A","1192946","2019-05-19 11:00","2019","05","19","11:00","17.4","","2.6","","37","","","","13","","12","","48.3","","96.63","","","","","","NA"
"-122.60","58.84","FORT NELSON A","1192946","2019-05-19 12:00","2019","05","19","12:00","18.4","","2.3","","34","","","","4","","7","","48.3","","96.62","","","","","","NA"
"-122.60","58.84","FORT NELSON A","1192946","2019-05-19 13:00","2019","05","19","13:00","19.4","","2.3","","32","","","","10","","7","","48.3","","96.61","","","","","","Mainly Clear"
"-122.60","58.84","FORT NELSON A","1192946","2019-05-19 14:00","2019","05","19","14:00","19.4","","1.4","","30","","","","13","","11","","48.3","","96.59","","","","","","NA"
"-122.60","58.84","FORT NELSON A","1192946","2019-05-19 15:00","2019","05","19","15:00","20.1","","1.9","","30","","","","9","","11","","48.3","","96.57","","","","","","NA"
"-122.60","58.84","FORT NELSON A","1192946","2019-05-19 16:00","2019","05","19","16:00","20.6","","1.9","","29","","","","13","","9","","48.3","","96.56","","","","","","Mainly Clear"
"-122.60","58.84","FORT NELSON A","1192946","2019-05-19 17:00","2019","05","19","17:00","20.1","","1.7","","29","","","","21","","7","","48.3","","96.53","","","","","","NA"
"-122.60","58.84","FORT NELSON A","1192946","2019-05-19 18:00","2019","05","19","18:00","20.0","","3.4","","33","","","","26","","5","","48.3","","96.50","","","","","","NA"
"-122.60","58.84","FORT NELSON A","1192946","2019-05-19 19:00","2019","05","19","19:00","19.2","","3.7","","36","","","","22","","7","","48.3","","96.50","","","","","","Mostly Cloudy"
"-122.60","58.84","FORT NELSON A","1192946","2019-05-19 20:00","2019","05","19","20:00","16.5","","5.2","","47","","","","28","","4","","48.3","","96.50","","","","","","NA"
"-122.60","58.84","FORT NELSON A","1192946","2019-05-19 21:00","2019","05","19","21:00","13.0","","5.5","","60","","","","27","","5","","48.3","","96.53","","","","","","NA"
"-122.60","58.84","FORT NELSON A","1192946","2019-05-19 22:00","2019","05","19","22:00","11.2","","4.9","","65","","","","36","","1","","24.1","","96.55","","","","","","Mainly Clear"
"-122.60","58.84","FORT NELSON A","1192946","2019-05-19 23:00","2019","05","19","23:00","8.8","","5.0","","77","","","","35","","3","","24.1","","96.53","","","","","","NA"
"-122.60","58.84","FORT NELSON A","1192946","2019-05-20 00:00","2019","05","20","00:00","8.2","","4.5","","77","","","","36","","3","","24.1","","96.50","","","","","","NA"
"-122.60","58.84","FORT NELSON A","1192946","2019-05-20 01:00","2019","05","20","01:00","7.7","","4.1","","78","","","","28","","3","","24.1","","96.49","","","","","","Mainly Clear"
"-122.60","58.84","FORT NELSON A","1192946","2019-05-20 02:00","2019","05","20","02:00","5.8","","3.3","","83","","","","25","","6","","24.1","","96.50","","","","","","NA"
"-122.60","58.84","FORT NELSON A","1192946","2019-05-20 03:00","2019","05","20","03:00","5.4","","3.3","","86","","","","3","","3","","24.1","","96.50","","","","","","NA"
"-122.60","58.84","FORT NELSON A","1192946","2019-05-20 04:00","2019","05","20","04:00","5.4","","4.3","","93","","","","36","","1","","48.3","","96.52","","","","","","Mainly Clear"
"-122.60","58.84","FORT NELSON A","1192946","2019-05-20 05:00","2019","05","20","05:00","7.2","","5.5","","89","","","","17","","4","","48.3","","96.55","","","","","","NA"
"-122.60","58.84","FORT NELSON A","1192946","2019-05-20 06:00","2019","05","20","06:00","8.6","","5.9","","83","","","","17","","5","","48.3","","96.56","","","","","","NA"
"-122.60","58.84","FORT NELSON A","1192946","2019-05-20 07:00","2019","05","20","07:00","11.1","","6.5","","73","","","","8","","3","","24.1","","96.52","","","","","","Mainly Clear"
"-122.60","58.84","FORT NELSON A","1192946","2019-05-20 08:00","2019","05","20","08:00","14.5","","6.7","","59","","","","7","","5","","48.3","","96.50","","","","","","NA"
"-122.60","58.84","FORT NELSON A","1192946","2019-05-20 09:00","2019","05","20","09:00","17.3","","6.7","","49","","","","8","","9","","48.3","","96.46","","","","","","NA"
"-122.60","58.84","FORT NELSON A","1192946","2019-05-20 10:00","2019","05","20","10:00","19.8","","6.5","","41","","","","7","","9","","48.3","","96.43","","","","","","Mainly Clear"
"-122.60","58.84","FORT NELSON A","1192946","2019-05-20 11:00","2019","05","20","11:00","21.1","","3.8","","32","","","","7","","10","","48.3","","96.41","","","","","","NA"
"-122.60","58.84","FORT NELSON A","1192946","2019-05-20 12:00","2019","05","20","12:00","22.1","","0.2","","23","","","","6","","7","","24.1","","96.39","","","","","","NA"
"-122.60","58.84","FORT NELSON A","1192946","2019-05-20 13:00","2019","05","20","13:00","22.9","","-0.8","","20","","","","10","","22","","24.1","","96.35","","","","","","Mainly Clear"
"-122.60","58.84","FORT NELSON A","1192946","2019-05-20 14:00","2019","05","20","14:00","23.7","","-1.3","","19","","","","13","","17","","48.3","","96.32","","","","","","NA"
"-122.60","58.84","FORT NELSON A","1192946","2019-05-20 15:00","2019","05","20","15:00","24.0","","-1.8","","18","","","","10","","10","","48.3","","96.30","","","","","","NA"
"-122.60","58.84","FORT NELSON A","1192946","2019-05-20 16:00","2019","05","20","16:00","24.4","","-2.4","","17","","","","9","","9","","48.3","","96.26","","","","","","Mainly Clear"
"-122.60","58.84","FORT NELSON A","1192946","2019-05-20 17:00","2019","05","20","17:00","24.2","","-3.3","","16","","","","11","","10","","48.3","","96.24","","","","","","NA"
"-122.60","58.84","FORT NELSON A","1192946","2019-05-20 18:00","2019","05","20","18:00","24.4","","-2.9","","16","","","","36","","3","","48.3","","96.21","","","","","","NA"
"-122.60","58.84","FORT NELSON A","1192946","2019-05-20 19:00","2019","05","20","19:00","23.4","","-2.2","","18","","","","11","","10","","48.3","","96.21","","","","","","Clear"
"-122.60","58.84","FORT NELSON A","1192946","2019-05-20 20:00","2019","05","20","20:00","22.6","","-2.5","","18","","","","6","","9","","48.3","","96.23","","","","","","NA"
"-122.60","58.84","FORT NELSON A","1192946","2019-05-20 21:00","2019","05","20","21:00","16.2","","0.4","","34","","","","5","","4","","24.1","","96.27","","","","","","NA"
"-122.60","58.84","FORT NELSON A","1192946","2019-05-20 22:00","2019","05","20","22:00","13.8","","0.2","","39","","","","6","","5","","24.1","","96.30","","","","","","Mainly Clear"
"-122.60","58.84","FORT NELSON A","1192946","2019-05-20 23:00","2019","05","20","23:00","9.7","","1.3","","56","","","","31","","7","","24.1","","96.34","","","","","","NA"
"-122.60","58.84","FORT NELSON A","1192946","2019-05-21 00:00","2019","05","21","00:00","13.3","","-1.8","","35","","","","35","","8","","24.1","","96.37","","","","","","NA"
"-122.60","58.84","FORT NELSON A","1192946","2019-05-21 01:00","2019","05","21","01:00","8.9","","0.1","","54","","","","31","","5","","24.1","","96.41","","","","","","Mainly Clear"
"-122.60","58.84","FORT NELSON A","1192946","2019-05-21 02:00","2019","05","21","02:00","7.3","","-0.6","","58","","","","29","","4","","24.1","","96.48","","","","","","NA"
"-122.60","58.84","FORT NELSON A","1192946","2019-05-21 03:00","2019","05","21","03:00","4.8","","-0.9","","67","","","","25","","7","","6.4","","96.54","","","","","","Smoke"
"-122.60","58.84","FORT NELSON A","1192946","2019-05-21 04:00","2019","05","21","04:00","3.6","","-1.0","","72","","","","25","","7","","6.4","","96.62","","","","","","Smoke"
"-122.60","58.84","FORT NELSON A","1192946","2019-05-21 05:00","2019","05","21","05:00","4.8","","-0.1","","70","","","","28","","4","","4.8","","96.70","","","","","","Smoke"
"-122.60","58.84","FORT NELSON A","1192946","2019-05-21 06:00","2019","05","21","06:00","6.6","","1.0","","67","","","","36","","1","","6.4","","96.76","","","","","","Smoke"
"-122.60","58.84","FORT NELSON A","1192946","2019-05-21 07:00","2019","05","21","07:00","11.1","","-0.1","","46","","","","9","","4","","6.4","","96.81","","","","","","Smoke"
"-122.60","58.84","FORT NELSON A","1192946","2019-05-21 08:00","2019","05","21","08:00","12.6","","1.0","","45","","","","13","","4","","8.1","","96.86","","","","","","Smoke"
"-122.60","58.84","FORT NELSON A","1192946","2019-05-21 09:00","2019","05","21","09:00","15.2","","1.1","","38","","","","10","","4","","8.1","","96.92","","","","","","Smoke"
"-122.60","58.84","FORT NELSON A","1192946","2019-05-21 10:00","2019","05","21","10:00","18.3","","1.9","","33","","","","12","","5","","8.1","","96.93","","","","","","Smoke"
"-122.60","58.84","FORT NELSON A","1192946","2019-05-21 11:00","2019","05","21","11:00","20.7","","-1.8","","22","","","","15","","14","","19.3","","96.94","","","","","","NA"
"-122.60","58.84","FORT NELSON A","1192946","2019-05-21 12:00","2019","05","21","12:00","21.6","","-1.8","","21","","","","9","","10","","48.3","","96.96","","","","","","NA"
"-122.60","58.84","FORT NELSON A","1192946","2019-05-21 13:00","2019","05","21","13:00","22.4","","-2.6","","18","","","","8","","21","","48.3","","96.99","","","","","","Mainly Clear"
"-122.60","58.84","FORT NELSON A","1192946","2019-05-21 14:00","2019","05","21","14:00","23.2","","-2.0","","18","","","","5","","19","","48.3","","97.00","","","","","","NA"
"-122.60","58.84","FORT NELSON A","1192946","2019-05-21 15:00","2019","05","21","15:00","22.9","","-1.6","","19","","","","15","","18","","48.3","","97.02","","","","","","NA"
"-122.60","58.84","FORT NELSON A","1192946","2019-05-21 16:00","2019","05","21","16:00","22.4","","-2.0","","19","","","","11","","4","","48.3","","97.04","","","","","","Mostly Cloudy"
"-122.60","58.84","FORT NELSON A","1192946","2019-05-21 17:00","2019","05","21","17:00","22.7","","-1.2","","20","","","","14","","10","","48.3","","97.05","","","","","","NA"
"-122.60","58.84","FORT NELSON A","1192946","2019-05-21 18:00","2019","05","21","18:00","21.9","","-0.3","","22","","","","10","","11","","48.3","","97.08","","","","","","NA"
"-122.60","58.84","FORT NELSON A","1192946","2019-05-21 19:00","2019","05","21","19:00","20.8","","1.0","","26","","","","10","","3","","48.3","","97.10","","","","","","Mostly Cloudy"
"-122.60","58.84","FORT NELSON A","1192946","2019-05-21 20:00","2019","05","21","20:00","18.4","","3.1","","36","","","","28","","4","","48.3","","97.14","","","","","","NA"
"-122.60","58.84","FORT NELSON A","1192946","2019-05-21 21:00","2019","05","21","21:00","17.0","","3.7","","41","","","","32","","3","","24.1","","97.19","","","","","","NA"
"-122.60","58.84","FORT NELSON A","1192946","2019-05-21 22:00","2019","05","21","22:00","15.6","","4.4","","47","","","","31","","7","","24.1","","97.23","","","","","","Mainly Clear"
"-122.60","58.84","FORT NELSON A","1192946","2019-05-21 23:00","2019","05","21","23:00","16.0","","2.4","","40","","","","36","","10","","24.1","","97.31","","","","","","NA"
"-122.60","58.84","FORT NELSON A","1192946","2019-05-22 00:00","2019","05","22","00:00","14.7","","3.1","","45","","","","35","","8","","24.1","","97.34","","","","","","NA"
"-122.60","58.84","FORT NELSON A","1192946","2019-05-22 01:00","2019","05","22","01:00","13.7","","3.5","","50","","","","34","","9","","24.1","","97.41","","","","","","Mostly Cloudy"
"-122.60","58.84","FORT NELSON A","1192946","2019-05-22 02:00","2019","05","22","02:00","12.8","","3.4","","53","","","","36","","10","","24.1","","97.47","","","","","","NA"
"-122.60","58.84","FORT NELSON A","1192946","2019-05-22 03:00","2019","05","22","03:00","11.9","","3.1","","55","","","","35","","10","","24.1","","97.50","","","","","","NA"
"-122.60","58.84","FORT NELSON A","1192946","2019-05-22 04:00","2019","05","22","04:00","10.5","","2.8","","59","","","","33","","9","","24.1","","97.56","","","","","","Mostly Cloudy"
"-122.60","58.84","FORT NELSON A","1192946","2019-05-22 05:00","2019","05","22","05:00","9.8","","2.4","","60","","","","33","","9","","24.1","","97.61","","","","","","NA"
"-122.60","58.84","FORT NELSON A","1192946","2019-05-22 06:00","2019","05","22","06:00","10.1","","2.7","","60","","","","33","","11","","24.1","","97.65","","","","","","NA"
"-122.60","58.84","FORT NELSON A","1192946","2019-05-22 07:00","2019","05","22","07:00","10.7","","2.4","","57","","","","36","","12","","19.3","","97.66","","","","","","Mostly Cloudy"
"-122.60","58.84","FORT NELSON A","1192946","2019-05-22 08:00","2019","05","22","08:00","11.7","","3.0","","55","","","","36","","12","","20.9","","97.66","","","","","","NA"
"-122.60","58.84","FORT NELSON A","1192946","2019-05-22 09:00","2019","05","22","09:00","12.3","","3.2","","54","","","","31","","7","","24.1","","97.64","","","","","","NA"
"-122.60","58.84","FORT NELSON A","1192946","2019-05-22 10:00","2019","05","22","10:00","13.3","","3.4","","51","","","","35","","8","","24.1","","97.61","","","","","","Mostly Cloudy"
"-122.60","58.84","FORT NELSON A","1192946","2019-05-22 11:00","2019","05","22","11:00","14.2","","3.6","","48","","","","30","","9","","24.1","","97.59","","","","","","NA"
"-122.60","58.84","FORT NELSON A","1192946","2019-05-22 12:00","2019","05","22","12:00","15.0","","3.5","","46","","","","32","","8","","24.1","","97.57","","","","","","NA"
"-122.60","58.84","FORT NELSON A","1192946","2019-05-22 13:00","2019","05","22","13:00","16.6","","4.1","","43","","","","0","","1","","24.1","","97.53","","","","","","Mostly Cloudy"
"-122.60","58.84","FORT NELSON A","1192946","2019-05-22 14:00","2019","05","22","14:00","18.6","","4.6","","39","","","","12","","4","","24.1","","97.48","","","","","","NA"
"-122.60","58.84","FORT NELSON A","1192946","2019-05-22 15:00","2019","05","22","15:00","19.3","","5.2","","39","","","","5","","3","","32.2","","97.42","","","","","","NA"
"-122.60","58.84","FORT NELSON A","1192946","2019-05-22 16:00","2019","05","22","16:00","19.9","","5.2","","38","","","","9","","10","","24.1","","97.34","","","","","","Mostly Cloudy"
"-122.60","58.84","FORT NELSON A","1192946","2019-05-22 17:00","2019","05","22","17:00","20.0","","5.5","","38","","","","6","","3","","24.1","","97.31","","","","","","NA"
"-122.60","58.84","FORT NELSON A","1192946","2019-05-22 18:00","2019","05","22","18:00","20.4","","6.0","","39","","","","35","","4","","24.1","","97.28","","","","","","NA"
"-122.60","58.84","FORT NELSON A","1192946","2019-05-22 19:00","2019","05","22","19:00","19.3","","6.7","","43","","","","1","","5","","24.1","","97.26","","","","","","Mainly Clear"
"-122.60","58.84","FORT NELSON A","1192946","2019-05-22 20:00","2019","05","22","20:00","15.8","","8.3","","61","","","","27","","3","","24.1","","97.27","","","","","","NA"
"-122.60","58.84","FORT NELSON A","1192946","2019-05-22 21:00","2019","05","22","21:00","14.5","","7.6","","63","","","","36","","8","","24.1","","97.28","","","","","","NA"
"-122.60","58.84","FORT NELSON A","1192946","2019-05-22 22:00","2019","05","22","22:00","12.8","","8.0","","73","","","","30","","5","","24.1","","97.29","","","","","","Cloudy"
"-122.60","58.84","FORT NELSON A","1192946","2019-05-22 23:00","2019","05","22","23:00","11.3","","7.3","","76","","","","18","","4","","24.1","","97.27","","","","","","NA"
"-122.60","58.84","FORT NELSON A","1192946","2019-05-23 00:00","2019","05","23","00:00","10.9","","6.9","","76","","","","36","","3","","24.1","","97.24","","","","","","NA"
"-122.60","58.84","FORT NELSON A","1192946","2019-05-23 01:00","2019","05","23","01:00","9.2","","6.2","","81","","","","36","","2","","24.1","","97.23","","","","","","Cloudy"
"-122.60","58.84","FORT NELSON A","1192946","2019-05-23 02:00","2019","05","23","02:00","8.4","","6.0","","85","","","","0","","1","","24.1","","97.22","","","","","","NA"
"-122.60","58.84","FORT NELSON A","1192946","2019-05-23 03:00","2019","05","23","03:00","7.9","","5.2","","83","","","","11","","8","","24.1","","97.21","","","","","","NA"
"-122.60","58.84","FORT NELSON A","1192946","2019-05-23 04:00","2019","05","23","04:00","4.7","","3.4","","91","","","","21","","5","","24.1","","97.22","","","","","","Mostly Cloudy"
"-122.60","58.84","FORT NELSON A","1192946","2019-05-23 05:00","2019","05","23","05:00","8.4","","5.4","","81","","","","16","","8","","24.1","","97.22","","","","","","NA"
"-122.60","58.84","FORT NELSON A","1192946","2019-05-23 06:00","2019","05","23","06:00","8.8","","5.7","","81","","","","15","","10","","24.1","","97.18","","","","","","NA"
"-122.60","58.84","FORT NELSON A","1192946","2019-05-23 07:00","2019","05","23","07:00","10.1","","6.0","","76","","","","15","","5","","16.1","","97.16","","","","","","Mainly Clear"
"-122.60","58.84","FORT NELSON A","1192946","2019-05-23 08:00","2019","05","23","08:00","11.6","","6.3","","70","","","","36","","1","","16.1","","97.13","","","","","","NA"
"-122.60","58.84","FORT NELSON A","1192946","2019-05-23 09:00","2019","05","23","09:00","14.7","","6.6","","58","","","","17","","9","","11.3","","97.07","","","","","","NA"
"-122.60","58.84","FORT NELSON A","1192946","2019-05-23 10:00","2019","05","23","10:00","17.3","","7.2","","51","","","","6","","5","","12.9","","97.00","","","","","","Clear"
"-122.60","58.84","FORT NELSON A","1192946","2019-05-23 11:00","2019","05","23","11:00","19.4","","6.7","","43","","","","12","","6","","16.1","","96.95","","","","","","NA"
"-122.60","58.84","FORT NELSON A","1192946","2019-05-23 12:00","2019","05","23","12:00","21.2","","4.9","","34","","","","17","","8","","14.5","","96.90","","","","","","NA"
"-122.60","58.84","FORT NELSON A","1192946","2019-05-23 13:00","2019","05","23","13:00","22.2","","2.6","","27","","","","10","","9","","14.5","","96.82","","","","","","Mainly Clear"
"-122.60","58.84","FORT NELSON A","1192946","2019-05-23 14:00","2019","05","23","14:00","23.0","","1.8","","24","","","","18","","9","","12.9","","96.74","","","","","","NA"
"-122.60","58.84","FORT NELSON A","1192946","2019-05-23 15:00","2019","05","23","15:00","23.5","","2.4","","25","","","","21","","8","","12.9","","96.67","","","","","","NA"
"-122.60","58.84","FORT NELSON A","1192946","2019-05-23 16:00","2019","05","23","16:00","23.4","","1.4","","23","","","","36","","2","","12.9","","96.60","","","","","","Mainly Clear"
"-122.60","58.84","FORT NELSON A","1192946","2019-05-23 17:00","2019","05","23","17:00","23.5","","2.2","","24","","","","13","","7","","19.3","","96.55","","","","","","NA"
"-122.60","58.84","FORT NELSON A","1192946","2019-05-23 18:00","2019","05","23","18:00","22.9","","2.2","","25","","","","13","","10","","12.9","","96.54","","","","","","NA"
"-122.60","58.84","FORT NELSON A","1192946","2019-05-23 19:00","2019","05","23","19:00","21.3","","2.2","","28","","","","13","","3","","12.9","","96.53","","","","","","Mostly Cloudy"
"-122.60","58.84","FORT NELSON A","1192946","2019-05-23 20:00","2019","05","23","20:00","20.2","","3.1","","32","","","","13","","7","","12.9","","96.55","","","","","","NA"
"-122.60","58.84","FORT NELSON A","1192946","2019-05-23 21:00","2019","05","23","21:00","18.8","","3.7","","36","","","","25","","5","","12.9","","96.61","","","","","","NA"
"-122.60","58.84","FORT NELSON A","1192946","2019-05-23 22:00","2019","05","23","22:00","16.9","","4.7","","44","","","","33","","5","","12.9","","96.70","","","","","","Cloudy"
"-122.60","58.84","FORT NELSON A","1192946","2019-05-23 23:00","2019","05","23","23:00","15.3","","5.8","","53","","","","35","","13","","24.1","","96.69","","","","","","NA"
"-122.60","58.84","FORT NELSON A","1192946","2019-05-24 00:00","2019","05","24","00:00","15.1","","5.9","","54","","","","2","","15","","24.1","","96.67","","","","","","NA"
"-122.60","58.84","FORT NELSON A","1192946","2019-05-24 01:00","2019","05","24","01:00","14.3","","6.2","","58","","","","30","","13","","24.1","","96.74","","","","","","Mostly Cloudy"
"-122.60","58.84","FORT NELSON A","1192946","2019-05-24 02:00","2019","05","24","02:00","13.8","","6.4","","61","","","","31","","10","","24.1","","96.75","","","","","","NA"
"-122.60","58.84","FORT NELSON A","1192946","2019-05-24 03:00","2019","05","24","03:00","13.5","","6.2","","61","","","","33","","10","","24.1","","96.78","","","","","","NA"
"-122.60","58.84","FORT NELSON A","1192946","2019-05-24 04:00","2019","05","24","04:00","13.1","","6.5","","64","","","","35","","14","","24.1","","96.80","","","","","","Cloudy"
"-122.60","58.84","FORT NELSON A","1192946","2019-05-24 05:00","2019","05","24","05:00"
"-122.60","58.84","FORT NELSON A","1192946","2019-05-24 06:00","2019","05","24","06:00","12.7","","8.2","","74","","","","19","","5","","24.1","","96.89","","","","","","NA"
"-122.60","58.84","FORT NELSON A","1192946","2019-05-24 07:00","2019","05","24","07:00","12.6","","6.9","","68","","","","13","","7","","16.1","","96.94","","","","","","Mostly Cloudy"
"-122.60","58.84","FORT NELSON A","1192946","2019-05-24 08:00","2019","05","24","08:00","12.8","","5.8","","62","","","","17","","6","","16.1","","96.96","","","","","","NA"
"-122.60","58.84","FORT NELSON A","1192946","2019-05-24 09:00","2019","05","24","09:00","13.2","","4.0","","54","","","","19","","6","","16.1","","96.98","","","","","","NA"
"-122.60","58.84","FORT NELSON A","1192946","2019-05-24 10:00","2019","05","24","10:00","14.1","","5.3","","55","","","","36","","3","","16.1","","96.96","","","","","","Mostly Cloudy"
"-122.60","58.84","FORT NELSON A","1192946","2019-05-24 11:00","2019","05","24","11:00","15.8","","5.9","","52","","","","33","","3","","16.1","","96.96","","","","","","NA"
"-122.60","58.84","FORT NELSON A","1192946","2019-05-24 12:00","2019","05","24","12:00","16.7","","5.5","","47","","","","8","","5","","14.5","","96.94","","","","","","NA"
"-122.60","58.84","FORT NELSON A","1192946","2019-05-24 13:00","2019","05","24","13:00","16.7","","4.6","","44","","","","7","","4","","14.5","","96.88","","","","","","Mostly Cloudy"
"-122.60","58.84","FORT NELSON A","1192946","2019-05-24 14:00","2019","05","24","14:00","16.9","","5.5","","47","","","","35","","5","","14.5","","96.84","","","","","","NA"
"-122.60","58.84","FORT NELSON A","1192946","2019-05-24 15:00","2019","05","24","15:00","16.7","","8.2","","57","","","","35","","9","","12.9","","96.80","","","","","","NA"
"-122.60","58.84","FORT NELSON A","1192946","2019-05-24 16:00","2019","05","24","16:00","19.4","","5.1","","39","","","","7","","9","","12.9","","96.76","","","","","","Mostly Cloudy"
"-122.60","58.84","FORT NELSON A","1192946","2019-05-24 17:00","2019","05","24","17:00","20.3","","5.6","","38","","","","36","","3","","16.1","","96.72","","","","","","NA"
"-122.60","58.84","FORT NELSON A","1192946","2019-05-24 18:00","2019","05","24","18:00","20.1","","4.1","","34","","","","4","","7","","16.1","","96.72","","","","","","NA"
"-122.60","58.84","FORT NELSON A","1192946","2019-05-24 19:00","2019","05","24","19:00","19.5","","4.5","","37","","","","2","","4","","16.1","","96.74","","","","","","Mainly Clear"
"-122.60","58.84","FORT NELSON A","1192946","2019-05-24 20:00","2019","05","24","20:00","16.5","","7.4","","55","","","","29","","4","","16.1","","96.76","","","","","","NA"
"-122.60","58.84","FORT NELSON A","1192946","2019-05-24 21:00","2019","05","24","21:00","14.1","","8.6","","69","","","","29","","3","","16.1","","96.82","","","","","","NA"
"-122.60","58.84","FORT NELSON A","1192946","2019-05-24 22:00","2019","05","24","22:00","14.4","","8.0","","65","","","","2","","4","","16.1","","96.86","","","","","","Mostly Cloudy"
"-122.60","58.84","FORT NELSON A","1192946","2019-05-24 23:00","2019","05","24","23:00","13.9","","8.3","","69","","","","31","","7","","16.1","","96.89","","","","","","NA"
"-122.60","58.84","FORT NELSON A","1192946","2019-05-25 00:00","2019","05","25","00:00","14.1","","7.6","","65","","","","33","","7","","16.1","","96.99","","","","","","NA"
"-122.60","58.84","FORT NELSON A","1192946","2019-05-25 01:00","2019","05","25","01:00","12.5","","9.6","","82","","","","36","","2","","16.1","","97.04","","","","","","Rain"
"-122.60","58.84","FORT NELSON A","1192946","2019-05-25 02:00","2019","05","25","02:00","11.5","","7.6","","77","","","","13","","16","","16.1","","97.09","","","","","","Rain"
"-122.60","58.84","FORT NELSON A","1192946","2019-05-25 03:00","2019","05","25","03:00","10.7","","8.1","","84","","","","36","","3","","16.1","","97.18","","","","","","NA"
"-122.60","58.84","FORT NELSON A","1192946","2019-05-25 04:00","2019","05","25","04:00","10.1","","7.8","","86","","","","36","","3","","16.1","","97.29","","","","","","Mostly Cloudy"
"-122.60","58.84","FORT NELSON A","1192946","2019-05-25 05:00","2019","05","25","05:00","10.0","","3.9","","66","","","","16","","8","","16.1","","97.32","","","","","","NA"
"-122.60","58.84","FORT NELSON A","1192946","2019-05-25 06:00","2019","05","25","06:00","10.2","","4.7","","69","","","","15","","8","","24.1","","97.37","","","","","","NA"
"-122.60","58.84","FORT NELSON A","1192946","2019-05-25 07:00","2019","05","25","07:00","10.8","","4.7","","65","","","","15","","8","","24.1","","97.41","","","","","","Mostly Cloudy"
"-122.60","58.84","FORT NELSON A","1192946","2019-05-25 08:00","2019","05","25","08:00","12.0","","5.0","","62","","","","11","","9","","24.1","","97.44","","","","","","NA"
"-122.60","58.84","FORT NELSON A","1192946","2019-05-25 09:00","2019","05","25","09:00","13.4","","5.9","","60","","","","4","","3","","24.1","","97.46","","","","","","NA"
"-122.60","58.84","FORT NELSON A","1192946","2019-05-25 10:00","2019","05","25","10:00","15.8","","6.8","","55","","","","6","","5","","24.1","","97.43","","","","","","Mainly Clear"
"-122.60","58.84","FORT NELSON A","1192946","2019-05-25 11:00","2019","05","25","11:00","17.3","","6.9","","50","","","","12","","7","","24.1","","97.40","","","","","","NA"
"-122.60","58.84","FORT NELSON A","1192946","2019-05-25 12:00","2019","05","25","12:00","18.9","","6.8","","45","","","","6","","7","","24.1","","97.36","","","","","","NA"
"-122.60","58.84","FORT NELSON A","1192946","2019-05-25 13:00","2019","05","25","13:00","20.2","","6.7","","41","","","","12","","5","","24.1","","97.32","","","","","","Mainly Clear"
"-122.60","58.84","FORT NELSON A","1192946","2019-05-25 14:00","2019","05","25","14:00","22.2","","3.4","","29","","","","7","","6","","24.1","","97.28","","","","","","NA"
"-122.60","58.84","FORT NELSON A","1192946","2019-05-25 15:00","2019","05","25","15:00","23.1","","3.5","","27","","","","2","","14","","24.1","","97.25","","","","","","NA"
"-122.60","58.84","FORT NELSON A","1192946","2019-05-25 16:00","2019","05","25","16:00","23.3","","2.7","","26","","","","32","","4","","24.1","","97.20","","","","","","Mainly Clear"
"-122.60","58.84","FORT NELSON A","1192946","2019-05-25 17:00","2019","05","25","17:00","22.9","","2.3","","25","","","","5","","12","","24.1","","97.16","","","","","","NA"
"-122.60","58.84","FORT NELSON A","1192946","2019-05-25 18:00","2019","05","25","18:00","22.6","","2.5","","26","","","","12","","7","","24.1","","97.14","","","","","","NA"
"-122.60","58.84","FORT NELSON A","1192946","2019-05-25 19:00","2019","05","25","19:00","22.0","","4.6","","32","","","","15","","4","","24.1","","97.12","","","","","","Clear"
"-122.60","58.84","FORT NELSON A","1192946","2019-05-25 20:00","2019","05","25","20:00","18.9","","6.1","","43","","","","12","","5","","24.1","","97.09","","","","","","NA"
"-122.60","58.84","FORT NELSON A","1192946","2019-05-25 21:00","2019","05","25","21:00","13.6","","7.2","","65","","","","19","","5","","24.1","","97.08","","","","","","NA"
"-122.60","58.84","FORT NELSON A","1192946","2019-05-25 22:00","2019","05","25","22:00","12.3","","6.5","","67","","","","17","","5","","24.1","","97.07","","","","","","Mainly Clear"
"-122.60","58.84","FORT NELSON A","1192946","2019-05-25 23:00","2019","05","25","23:00","10.1","","5.8","","74","","","","22","","5","","24.1","","97.06","","","","","","NA"
"-122.60","58.84","FORT NELSON A","1192946","2019-05-26 00:00","2019","05","26","00:00","10.5","","5.5","","71","","","","16","","5","","24.1","","97.06","","","","","","NA"
"-122.60","58.84","FORT NELSON A","1192946","2019-05-26 01:00","2019","05","26","01:00","10.2","","5.1","","70","","","","17","","8","","24.1","","97.04","","","","","","Mainly Clear"
"-122.60","58.84","FORT NELSON A","1192946","2019-05-26 02:00","2019","05","26","02:00","9.8","","4.7","","71","","","","18","","8","","24.1","","97.00","","","","","","NA"
"-122.60","58.84","FORT NELSON A","1192946","2019-05-26 03:00","2019","05","26","03:00","10.4","","5.2","","70","","","","19","","8","","19.3","","96.98","","","","","","NA"
"-122.60","58.84","FORT NELSON A","1192946","2019-05-26 04:00","2019","05","26","04:00","10.7","","5.9","","72","","","","18","","9","","19.3","","96.95","","","","","","Mainly Clear"
"-122.60","58.84","FORT NELSON A","1192946","2019-05-26 05:00","2019","05","26","05:00","10.2","","5.9","","74","","","","17","","9","","19.3","","96.95","","","","","","NA"
"-122.60","58.84","FORT NELSON A","1192946","2019-05-26 06:00","2019","05","26","06:00","11.4","","5.8","","69","","","","17","","13","","19.3","","96.94","","","","","","NA"
"-122.60","58.84","FORT NELSON A","1192946","2019-05-26 07:00","2019","05","26","07:00","13.6","","6.5","","62","","","","16","","10","","19.3","","96.93","","","","","","Clear"
"-122.60","58.84","FORT NELSON A","1192946","2019-05-26 08:00","2019","05","26","08:00","16.5","","6.5","","51","","","","18","","9","","19.3","","96.92","","","","","","NA"
"-122.60","58.84","FORT NELSON A","1192946","2019-05-26 09:00","2019","05","26","09:00","19.2","","7.2","","45","","","","16","","7","","19.3","","96.90","","","","","","NA"
"-122.60","58.84","FORT NELSON A","1192946","2019-05-26 10:00","2019","05","26","10:00","22.2","","7.5","","38","","","","15","","5","","19.3","","96.87","","","","","","Mainly Clear"
"-122.60","58.84","FORT NELSON A","1192946","2019-05-26 11:00","2019","05","26","11:00","24.3","","7.7","","34","","","","11","","9","","19.3","","96.80","","25","","","","NA"
"-122.60","58.84","FORT NELSON A","1192946","2019-05-26 12:00","2019","05","26","12:00","26.6","","5.1","","25","","","","6","","10","","19.3","","96.72","","26","","","","NA"
"-122.60","58.84","FORT NELSON A","1192946","2019-05-26 13:00","2019","05","26","13:00","27.5","","3.9","","22","","","","20","","16","","19.3","","96.66","","26","","","","Mainly Clear"
"-122.60","58.84","FORT NELSON A","1192946","2019-05-26 14:00","2019","05","26","14:00","28.1","","1.9","","18","","","","21","","18","","19.3","","96.60","","26","","","","NA"
"-122.60","58.84","FORT NELSON A","1192946","2019-05-26 15:00","2019","05","26","15:00","27.3","","3.1","","21","","","","18","","17","","19.3","","96.58","","26","","","","NA"
"-122.60","58.84","FORT NELSON A","1192946","2019-05-26 16:00","2019","05","26","16:00","28.0","","2.5","","19","","","","15","","3","","19.3","","96.51","","27","","","","Mostly Cloudy"
"-122.60","58.84","FORT NELSON A","1192946","2019-05-26 17:00","2019","05","26","17:00","27.3","","3.4","","21","","","","35","","10","","19.3","","96.47","","26","","","","NA"
"-122.60","58.84","FORT NELSON A","1192946","2019-05-26 18:00","2019","05","26","18:00","27.5","","3.6","","21","","","","4","","10","","19.3","","96.46","","26","","","","NA"
"-122.60","58.84","FORT NELSON A","1192946","2019-05-26 19:00","2019","05","26","19:00","26.1","","3.5","","23","","","","35","","9","","19.3","","96.46","","25","","","","Mostly Cloudy"
"-122.60","58.84","FORT NELSON A","1192946","2019-05-26 20:00","2019","05","26","20:00","23.3","","5.9","","32","","","","35","","7","","16.1","","96.47","","","","","","NA"
"-122.60","58.84","FORT NELSON A","1192946","2019-05-26 21:00","2019","05","26","21:00","17.0","","9.2","","60","","","","25","","5","","16.1","","96.46","","","","","","NA"
"-122.60","58.84","FORT NELSON A","1192946","2019-05-26 22:00","2019","05","26","22:00","14.8","","7.9","","63","","","","27","","7","","19.3","","96.47","","","","","","Mostly Cloudy"
"-122.60","58.84","FORT NELSON A","1192946","2019-05-26 23:00","2019","05","26","23:00","13.9","","7.2","","64","","","","23","","7","","19.3","","96.47","","","","","","NA"
"-122.60","58.84","FORT NELSON A","1192946","2019-05-27 00:00","2019","05","27","00:00","12.2","","7.3","","71","","","","26","","8","","19.3","","96.47","","","","","","NA"
"-122.60","58.84","FORT NELSON A","1192946","2019-05-27 01:00","2019","05","27","01:00","12.7","","7.2","","69","","","","28","","4","","19.3","","96.51","","","","","","Mostly Cloudy"
"-122.60","58.84","FORT NELSON A","1192946","2019-05-27 02:00","2019","05","27","02:00","11.3","","6.7","","73","","","","3","","3","","19.3","","96.53","","","","","","NA"
"-122.60","58.84","FORT NELSON A","1192946","2019-05-27 03:00","2019","05","27","03:00","8.2","","5.6","","83","","","","23","","10","","19.3","","96.53","","","","","","NA"
"-122.60","58.84","FORT NELSON A","1192946","2019-05-27 04:00","2019","05","27","04:00","10.0","","6.2","","77","","","","20","","6","","19.3","","96.54","","","","","","Mostly Cloudy"
"-122.60","58.84","FORT NELSON A","1192946","2019-05-27 05:00","2019","05","27","05:00","11.8","","7.3","","74","","","","16","","9","","19.3","","96.57","","","","","","NA"
"-122.60","58.84","FORT NELSON A","1192946","2019-05-27 06:00","2019","05","27","06:00","13.0","","7.2","","67","","","","16","","7","","19.3","","96.58","","","","","","NA"
"-122.60","58.84","FORT NELSON A","1192946","2019-05-27 07:00","2019","05","27","07:00","14.7","","7.2","","60","","","","18","","4","","19.3","","96.62","","","","","","Mainly Clear"
"-122.60","58.84","FORT NELSON A","1192946","2019-05-27 08:00","2019","05","27","08:00","16.9","","8.4","","57","","","","15","","4","","19.3","","96.60","","","","","","NA"
"-122.60","58.84","FORT NELSON A","1192946","2019-05-27 09:00","2019","05","27","09:00","20.0","","8.1","","46","","","","15","","5","","19.3","","96.58","","","","","","NA"
"-122.60","58.84","FORT NELSON A","1192946","2019-05-27 10:00","2019","05","27","10:00","22.5","","8.9","","42","","","","14","","11","","19.3","","96.55","","","","","","Mainly Clear"
"-122.60","58.84","FORT NELSON A","1192946","2019-05-27 11:00","2019","05","27","11:00","24.8","","9.2","","37","","","","7","","8","","24.1","","96.50","","26","","","","NA"
"-122.60","58.84","FORT NELSON A","1192946","2019-05-27 12:00","2019","05","27","12:00","27.2","","7.4","","28","","","","13","","8","","24.1","","96.44","","27","","","","NA"
"-122.60","58.84","FORT NELSON A","1192946","2019-05-27 13:00","2019","05","27","13:00","28.3","","5.5","","23","","","","20","","9","","24.1","","96.40","","28","","","","Mainly Clear"
"-122.60","58.84","FORT NELSON A","1192946","2019-05-27 14:00","2019","05","27","14:00","29.3","","3.3","","19","","","","9","","11","","24.1","","96.33","","28","","","","NA"
"-122.60","58.84","FORT NELSON A","1192946","2019-05-27 15:00","2019","05","27","15:00","30.5","","2.5","","16","","","","21","","10","","24.1","","96.29","","29","","","","NA"
"-122.60","58.84","FORT NELSON A","1192946","2019-05-27 16:00","2019","05","27","16:00","30.7","","2.6","","16","","","","36","","3","","24.1","","96.23","","29","","","","Mainly Clear"
"-122.60","58.84","FORT NELSON A","1192946","2019-05-27 17:00","2019","05","27","17:00","30.0","","3.6","","18","","","","17","","5","","24.1","","96.19","","29","","","","NA"
"-122.60","58.84","FORT NELSON A","1192946","2019-05-27 18:00","2019","05","27","18:00","28.9","","4.5","","21","","","","15","","5","","24.1","","96.16","","28","","","","NA"
"-122.60","58.84","FORT NELSON A","1192946","2019-05-27 19:00","2019","05","27","19:00","28.1","","7.5","","27","","","","16","","4","","24.1","","96.12","","28","","","","Mainly Clear"
"-122.60","58.84","FORT NELSON A","1192946","2019-05-27 20:00","2019","05","27","20:00","23.5","","12.6","","50","","","","26","","3","","24.1","","96.12","","26","","","","NA"
"-122.60","58.84","FORT NELSON A","1192946","2019-05-27 21:00","2019","05","27","21:00","18.7","","11.0","","61","","","","27","","5","","24.1","","96.10","","","","","","NA"
"-122.60","58.84","FORT NELSON A","1192946","2019-05-27 22:00","2019","05","27","22:00","16.2","","8.4","","60","","","","27","","5","","24.1","","96.12","","","","","","Mainly Clear"
"-122.60","58.84","FORT NELSON A","1192946","2019-05-27 23:00","2019","05","27","23:00","15.2","","8.4","","63","","","","36","","2","","24.1","","96.13","","","","","","NA"
"-122.60","58.84","FORT NELSON A","1192946","2019-05-28 00:00","2019","05","28","00:00","14.5","","7.4","","62","","","","25","","5","","24.1","","96.16","","","","","","NA"
"-122.60","58.84","FORT NELSON A","1192946","2019-05-28 01:00","2019","05","28","01:00","12.8","","7.6","","70","","","","36","","2","","24.1","","96.20","","","","","","Mainly Clear"
"-122.60","58.84","FORT NELSON A","1192946","2019-05-28 02:00","2019","05","28","02:00","10.3","","6.2","","76","","","","36","","2","","24.1","","96.24","","","","","","NA"
"-122.60","58.84","FORT NELSON A","1192946","2019-05-28 03:00","2019","05","28","03:00","10.2","","6.1","","76","","","","36","","1","","19.3","","96.29","","","","","","NA"
"-122.60","58.84","FORT NELSON A","1192946","2019-05-28 04:00","2019","05","28","04:00","10.5","","6.5","","76","","","","16","","5","","19.3","","96.32","","","","","","Mainly Clear"
"-122.60","58.84","FORT NELSON A","1192946","2019-05-28 05:00","2019","05","28","05:00","13.4","","7.2","","66","","","","36","","3","","24.1","","96.36","","","","","","NA"
"-122.60","58.84","FORT NELSON A","1192946","2019-05-28 06:00","2019","05","28","06:00","15.5","","6.7","","56","","","","16","","4","","24.1","","96.39","","","","","","NA"
"-122.60","58.84","FORT NELSON A","1192946","2019-05-28 07:00","2019","05","28","07:00","19.9","","7.8","","45","","","","17","","7","","24.1","","96.39","","","","","","Clear"
"-122.60","58.84","FORT NELSON A","1192946","2019-05-28 08:00","2019","05","28","08:00","26.1","","4.0","","24","","","","29","","20","","24.1","","96.37","","25","","","","NA"
"-122.60","58.84","FORT NELSON A","1192946","2019-05-28 09:00","2019","05","28","09:00","26.9","","3.6","","22","","","","29","","24","","24.1","","96.34","","26","","","","NA"
"-122.60","58.84","FORT NELSON A","1192946","2019-05-28 10:00","2019","05","28","10:00","28.5","","2.6","","19","","","","26","","21","","24.1","","96.30","","27","","","","Clear"
"-122.60","58.84","FORT NELSON A","1192946","2019-05-28 11:00","2019","05","28","11:00","28.7","","2.3","","18","","","","33","","25","","24.1","","96.27","","27","","","","NA"
"-122.60","58.84","FORT NELSON A","1192946","2019-05-28 12:00","2019","05","28","12:00","29.4","","1.2","","16","","","","27","","21","","24.1","","96.23","","28","","","","NA"
"-122.60","58.84","FORT NELSON A","1192946","2019-05-28 13:00","2019","05","28","13:00","30.1","","-0.2","","14","","","","31","","21","","32.2","","96.19","","28","","","","Clear"
"-122.60","58.84","FORT NELSON A","1192946","2019-05-28 14:00","2019","05","28","14:00","30.6","","0.0","","14","","","","31","","13","","48.3","","96.15","","28","","","","NA"
"-122.60","58.84","FORT NELSON A","1192946","2019-05-28 15:00","2019","05","28","15:00","31.1","","1.2","","14","","","","32","","11","","32.2","","96.11","","29","","","","NA"
"-122.60","58.84","FORT NELSON A","1192946","2019-05-28 16:00","2019","05","28","16:00","30.8","","1.8","","15","","","","31","","19","","32.2","","96.06","","29","","","","Mainly Clear"
"-122.60","58.84","FORT NELSON A","1192946","2019-05-28 17:00","2019","05","28","17:00","30.6","","2.4","","16","","","","32","","18","","32.2","","96.03","","29","","","","NA"
"-122.60","58.84","FORT NELSON A","1192946","2019-05-28 18:00","2019","05","28","18:00","29.6","","2.3","","17","","","","33","","20","","32.2","","96.01","","28","","","","NA"
"-122.60","58.84","FORT NELSON A","1192946","2019-05-28 19:00","2019","05","28","19:00","28.6","","2.4","","18","","","","34","","17","","32.2","","96.02","","27","","","","Clear"
"-122.60","58.84","FORT NELSON A","1192946","2019-05-28 20:00","2019","05","28","20:00","27.1","","3.5","","22","","","","29","","7","","32.2","","96.03","","26","","","","NA"
"-122.60","58.84","FORT NELSON A","1192946","2019-05-28 21:00","2019","05","28","21:00","19.9","","7.3","","44","","","","28","","10","","32.2","","96.05","","","","","","NA"
"-122.60","58.84","FORT NELSON A","1192946","2019-05-28 22:00","2019","05","28","22:00","19.7","","6.5","","42","","","","29","","9","","32.2","","96.07","","","","","","Mainly Clear"
"-122.60","58.84","FORT NELSON A","1192946","2019-05-28 23:00","2019","05","28","23:00","18.1","","6.2","","45","","","","28","","7","","24.1","","96.12","","","","","","NA"
"-122.60","58.84","FORT NELSON A","1192946","2019-05-29 00:00","2019","05","29","00:00","14.9","","5.6","","54","","","","27","","8","","24.1","","96.18","","","","","","NA"
"-122.60","58.84","FORT NELSON A","1192946","2019-05-29 01:00","2019","05","29","01:00","18.5","","3.9","","38","","","","28","","9","","24.1","","96.21","","","","","","Mainly Clear"
"-122.60","58.84","FORT NELSON A","1192946","2019-05-29 02:00","2019","05","29","02:00","16.3","","3.6","","42","","","","24","","9","","24.1","","96.24","","","","","","NA"
"-122.60","58.84","FORT NELSON A","1192946","2019-05-29 03:00","2019","05","29","03:00","12.2","","4.2","","58","","","","23","","8","","24.1","","96.26","","","","","","NA"
"-122.60","58.84","FORT NELSON A","1192946","2019-05-29 04:00","2019","05","29","04:00","13.3","","3.8","","52","","","","27","","12","","32.2","","96.31","","","","","","Mainly Clear"
"-122.60","58.84","FORT NELSON A","1192946","2019-05-29 05:00","2019","05","29","05:00","15.7","","3.7","","44","","","","25","","9","","32.2","","96.35","","","","","","NA"
"-122.60","58.84","FORT NELSON A","1192946","2019-05-29 06:00","2019","05","29","06:00","19.7","","3.1","","33","","","","27","","4","","48.3","","96.37","","","","","","NA"
"-122.60","58.84","FORT NELSON A","1192946","2019-05-29 07:00","2019","05","29","07:00","21.3","","1.4","","26","","","","31","","22","","48.3","","96.38","","","","","","Mainly Clear"
"-122.60","58.84","FORT NELSON A","1192946","2019-05-29 08:00","2019","05","29","08:00","21.7","","1.4","","26","","","","29","","26","","48.3","","96.40","","","","","","NA"
"-122.60","58.84","FORT NELSON A","1192946","2019-05-29 09:00","2019","05","29","09:00","22.5","","2.4","","26","","","","31","","24","","48.3","","96.37","","","","","","NA"
"-122.60","58.84","FORT NELSON A","1192946","2019-05-29 10:00","2019","05","29","10:00","23.2","","3.1","","27","","","","26","","17","","48.3","","96.31","","","","","","Mainly Clear"
"-122.60","58.84","FORT NELSON A","1192946","2019-05-29 11:00","2019","05","29","11:00","25.2","","3.2","","24","","","","31","","17","","48.3","","96.29","","","","","","NA"
"-122.60","58.84","FORT NELSON A","1192946","2019-05-29 12:00","2019","05","29","12:00","24.9","","2.7","","23","","","","29","","19","","48.3","","96.32","","","","","","NA"
"-122.60","58.84","FORT NELSON A","1192946","2019-05-29 13:00","2019","05","29","13:00","25.6","","1.4","","20","","","","34","","19","","48.3","","96.35","","","","","","Mainly Clear"
"-122.60","58.84","FORT NELSON A","1192946","2019-05-29 14:00","2019","05","29","14:00","25.8","","0.8","","19","","","","32","","19","","48.3","","96.37","","","","","","NA"
"-122.60","58.84","FORT NELSON A","1192946","2019-05-29 15:00","2019","05","29","15:00","25.5","","-0.5","","18","","","","30","","31","","48.3","","96.41","","","","","","NA"
"-122.60","58.84","FORT NELSON A","1192946","2019-05-29 16:00","2019","05","29","16:00","25.4","","-1.5","","17","","","","31","","29","","48.3","","96.44","","","","","","Mainly Clear"
"-122.60","58.84","FORT NELSON A","1192946","2019-05-29 17:00","2019","05","29","17:00","24.8","","-0.8","","18","","","","31","","31","","48.3","","96.47","","","","","","NA"
"-122.60","58.84","FORT NELSON A","1192946","2019-05-29 18:00","2019","05","29","18:00","23.8","","1.3","","23","","","","35","","23","","48.3","","96.54","","","","","","NA"
"-122.60","58.84","FORT NELSON A","1192946","2019-05-29 19:00","2019","05","29","19:00","20.6","","5.6","","37","","","","35","","26","","24.1","","96.65","","","","","","Mainly Clear"
"-122.60","58.84","FORT NELSON A","1192946","2019-05-29 20:00","2019","05","29","20:00","16.5","","6.6","","52","","","","35","","17","","24.1","","96.85","","","","","","NA"
"-122.60","58.84","FORT NELSON A","1192946","2019-05-29 21:00","2019","05","29","21:00","14.2","","4.5","","52","","","","36","","21","","32.2","","97.05","","","","","","NA"
"-122.60","58.84","FORT NELSON A","1192946","2019-05-29 22:00","2019","05","29","22:00","11.9","","4.0","","58","","","","33","","17","","32.2","","97.23","","","","","","Mainly Clear"
"-122.60","58.84","FORT NELSON A","1192946","2019-05-29 23:00","2019","05","29","23:00","10.5","","3.8","","63","","","","32","","10","","24.1","","97.35","","","","","","NA"
"-122.60","58.84","FORT NELSON A","1192946","2019-05-30 00:00","2019","05","30","00:00","9.2","","3.6","","68","","","","30","","7","","24.1","","97.44","","","","","","NA"
"-122.60","58.84","FORT NELSON A","1192946","2019-05-30 01:00","2019","05","30","01:00","8.2","","3.0","","69","","","","31","","16","","24.1","","97.51","","","","","","Mainly Clear"
"-122.60","58.84","FORT NELSON A","1192946","2019-05-30 02:00","2019","05","30","02:00","7.1","","2.8","","74","","","","27","","8","","24.1","","97.57","","","","","","NA"
"-122.60","58.84","FORT NELSON A","1192946","2019-05-30 03:00","2019","05","30","03:00","5.7","","2.4","","79","","","","27","","8","","48.3","","97.63","","","","","","NA"
"-122.60","58.84","FORT NELSON A","1192946","2019-05-30 04:00","2019","05","30","04:00","6.1","","2.5","","78","","","","33","","10","","48.3","","97.65","","","","","","Mostly Cloudy"
"-122.60","58.84","FORT NELSON A","1192946","2019-05-30 05:00","2019","05","30","05:00","5.8","","2.6","","80","","","","32","","7","","48.3","","97.67","","","","","","NA"
"-122.60","58.84","FORT NELSON A","1192946","2019-05-30 06:00","2019","05","30","06:00","6.1","","2.8","","79","","","","33","","8","","48.3","","97.68","","","","","","NA"
"-122.60","58.84","FORT NELSON A","1192946","2019-05-30 07:00","2019","05","30","07:00","8.2","","2.7","","68","","","","5","","13","","48.3","","97.68","","","","","","Mainly Clear"
"-122.60","58.84","FORT NELSON A","1192946","2019-05-30 08:00","2019","05","30","08:00","10.0","","3.0","","62","","","","7","","8","","48.3","","97.66","","","","","","NA"
"-122.60","58.84","FORT NELSON A","1192946","2019-05-30 09:00","2019","05","30","09:00","11.7","","3.2","","56","","","","32","","6","","48.3","","97.62","","","","","","NA"
"-122.60","58.84","FORT NELSON A","1192946","2019-05-30 10:00","2019","05","30","10:00","12.7","","3.5","","53","","","","36","","1","","48.3","","97.53","","","","","","Mainly Clear"
"-122.60","58.84","FORT NELSON A","1192946","2019-05-30 11:00","2019","05","30","11:00","14.3","","3.6","","48","","","","32","","5","","48.3","","97.48","","","","","","NA"
"-122.60","58.84","FORT NELSON A","1192946","2019-05-30 12:00","2019","05","30","12:00","15.9","","3.3","","42","","","","8","","10","","48.3","","97.40","","","","","","NA"
"-122.60","58.84","FORT NELSON A","1192946","2019-05-30 13:00","2019","05","30","13:00","17.8","","3.8","","39","","","","13","","11","","48.3","","97.34","","","","","","Mostly Cloudy"
"-122.60","58.84","FORT NELSON A","1192946","2019-05-30 14:00","2019","05","30","14:00","18.2","","4.2","","39","","","","12","","21","","48.3","","97.28","","","","","","NA"
"-122.60","58.84","FORT NELSON A","1192946","2019-05-30 15:00","2019","05","30","15:00","19.3","","4.2","","36","","","","8","","17","","32.2","","97.22","","","","","","NA"
"-122.60","58.84","FORT NELSON A","1192946","2019-05-30 16:00","2019","05","30","16:00","19.4","","4.9","","38","","","","10","","7","","32.2","","97.14","","","","","","Mainly Clear"
"-122.60","58.84","FORT NELSON A","1192946","2019-05-30 17:00","2019","05","30","17:00","19.4","","4.9","","38","","","","11","","19","","32.2","","97.09","","","","","","NA"
"-122.60","58.84","FORT NELSON A","1192946","2019-05-30 18:00","2019","05","30","18:00","19.7","","4.3","","36","","","","7","","17","","32.2","","97.04","","","","","","NA"
"-122.60","58.84","FORT NELSON A","1192946","2019-05-30 19:00","2019","05","30","19:00","18.9","","4.3","","38","","","","8","","14","","32.2","","97.03","","","","","","Mainly Clear"
"-122.60","58.84","FORT NELSON A","1192946","2019-05-30 20:00","2019","05","30","20:00","17.9","","4.1","","40","","","","7","","15","","32.2","","97.02","","","","","","NA"
"-122.60","58.84","FORT NELSON A","1192946","2019-05-30 21:00","2019","05","30","21:00","16.7","","4.0","","43","","","","7","","12","","32.2","","97.05","","","","","","NA"
"-122.60","58.84","FORT NELSON A","1192946","2019-05-30 22:00","2019","05","30","22:00","15.2","","4.2","","48","","","","6","","9","","24.1","","97.05","","","","","","Mostly Cloudy"
"-122.60","58.84","FORT NELSON A","1192946","2019-05-30 23:00","2019","05","30","23:00","12.9","","4.4","","56","","","","11","","8","","24.1","","97.04","","","","","","NA"
"-122.60","58.84","FORT NELSON A","1192946","2019-05-31 00:00","2019","05","31","00:00","12.4","","4.0","","56","","","","7","","6","","24.1","","97.03","","","","","","NA"
"-122.60","58.84","FORT NELSON A","1192946","2019-05-31 01:00","2019","05","31","01:00","10.0","","4.2","","67","","","","36","","2","","24.1","","97.01","","","","","","Mostly Cloudy"
"-122.60","58.84","FORT NELSON A","1192946","2019-05-31 02:00","2019","05","31","02:00","8.1","","4.1","","76","","","","36","","3","","24.1","","97.00","","","","","","NA"
"-122.60","58.84","FORT NELSON A","1192946","2019-05-31 03:00","2019","05","31","03:00","8.0","","3.5","","73","","","","36","","3","","14.5","","97.01","","","","","","NA"
"-122.60","58.84","FORT NELSON A","1192946","2019-05-31 04:00","2019","05","31","04:00","8.1","","3.6","","73","","","","36","","3","","14.5","","96.99","","","","","","Mostly Cloudy"
"-122.60","58.84","FORT NELSON A","1192946","2019-05-31 05:00","2019","05","31","05:00","8.2","","4.3","","76","","","","26","","4","","6.4","","97.00","","","","","","Smoke"
"-122.60","58.84","FORT NELSON A","1192946","2019-05-31 06:00","2019","05","31","06:00","10.0","","4.1","","66","","","","31","","4","","4.8","","97.00","","","","","","Smoke"
"-122.60","58.84","FORT NELSON A","1192946","2019-05-31 07:00","2019","05","31","07:00","10.9","","4.2","","63","","","","33","","5","","2.4","","97.00","","","","","","Smoke"
"-122.60","58.84","FORT NELSON A","1192946","2019-05-31 08:00","2019","05","31","08:00","12.6","","4.6","","58","","","","4","","3","","1.2","","96.98","","","","","","Smoke"
"-122.60","58.84","FORT NELSON A","1192946","2019-05-31 09:00","2019","05","31","09:00","13.5","","4.8","","55","","","","6","","7","","1.2","","96.95","","","","","","Smoke"
"-122.60","58.84","FORT NELSON A","1192946","2019-05-31 10:00","2019","05","31","10:00","14.5","","4.4","","51","","","","36","","9","","1.2","","96.92","","","","","","Smoke"
"-122.60","58.84","FORT NELSON A","1192946","2019-05-31 11:00","2019","05","31","11:00","16.0","","4.7","","47","","","","3","","10","","1.2","","96.89","","","","","","Smoke"
"-122.60","58.84","FORT NELSON A","1192946","2019-05-31 12:00","2019","05","31","12:00","17.3","","5.0","","44","","","","5","","10","","1.2","","96.83","","","","","","Smoke"
"-122.60","58.84","FORT NELSON A","1192946","2019-05-31 13:00","2019","05","31","13:00","18.9","","5.7","","41","","","","3","","6","","1.2","","96.79","","","","","","Smoke"
"-122.60","58.84","FORT NELSON A","1192946","2019-05-31 14:00","2019","05","31","14:00","19.5","","6.0","","41","","","","8","","7","","1.2","","96.72","","","","","","Smoke"
"-122.60","58.84","FORT NELSON A","1192946","2019-05-31 15:00","2019","05","31","15:00","20.2","","6.4","","40","","","","2","","4","","1.2","","96.66","","","","","","Smoke"
"-122.60","58.84","FORT NELSON A","1192946","2019-05-31 16:00","2019","05","31","16:00","20.8","","6.6","","39","","","","12","","4","","1.2","","96.60","","","","","","Smoke"
"-122.60","58.84","FORT NELSON A","1192946","2019-05-31 17:00","2019","05","31","17:00","20.7","","7.0","","41","","","","11","","6","","1.2","","96.54","","","","","","Smoke"
"-122.60","58.84","FORT NELSON A","1192946","2019-05-31 18:00","2019","05","31","18:00","20.3","","6.4","","40","","","","9","","9","","1.2","","96.51","","","","","","Smoke"
"-122.60","58.84","FORT NELSON A","1192946","2019-05-31 19:00","2019","05","31","19:00","18.5","","6.8","","46","","","","9","","8","","1.2","","96.49","","","","","","Smoke"
"-122.60","58.84","FORT NELSON A","1192946","2019-05-31 20:00","2019","05","31","20:00","18.1","","8.0","","51","","","","9","","4","","1.2","","96.48","","","","","","Smoke"
"-122.60","58.84","FORT NELSON A","1192946","2019-05-31 21:00","2019","05","31","21:00","17.2","","7.5","","53","","","","11","","4","","1.2","","96.48","","","","","","Smoke"
"-122.60","58.84","FORT NELSON A","1192946","2019-05-31 22:00","2019","05","31","22:00","16.6","","7.2","","54","","","","11","","9","","1.6","","96.49","","","","","","Smoke"
"-122.60","58.84","FORT NELSON A","1192946","2019-05-31 23:00","2019","05","31","23:00","15.5","","7.0","","57","","","","11","","10","","1.6","","96.44","","","","","","Smoke"
