"Longitude (x)","Latitude (y)","Station Name","Climate ID","Date/Time (LST)","Year","Month","Day","Time (LST)","Temp (°C)","Temp Flag","Dew Point Temp (°C)","Dew Point Temp Flag","Rel Hum (%)","Rel Hum Flag","Precip. Amount (mm)","Precip. Amount Flag","Wind Dir (10s deg)","Wind Dir Flag","Wind Spd (km/h)","Wind Spd Flag","Visibility (km)","Visibility Flag","Stn Press (kPa)","Stn Press Flag","Hmdx","Hmdx Flag","Wind Chill","Wind Chill Flag","Weather"
"-78.84","48.21","ROUYN-NORANDA A","7086719","2021-11-01 00:00","2021","11","01","00:00","2.1","","0.6","","90","","","","28","","15","","16.1","","96.51","","","","","","Rain"
"-78.84","48.21","ROUYN-NORANDA A","7086719","2021-11-01 01:00","2021","11","01","01:00","0.9","","0.0","","94","","","","28","","24","","6.4","","96.57","","","","","","Snow"
"-78.84","48.21","ROUYN-NORANDA A","7086719","2021-11-01 02:00","2021","11","01","02:00","0.9","","0.1","","94","","","","27","","20","","8.1","","96.61","","","","","","Snow"
"-78.84","48.21","ROUYN-NORANDA A","7086719","2021-11-01 03:00","2021","11","01","03:00","0.9","","0.2","","95","","","","27","","19","","4.8","","96.68","","","","","","Snow"
"-78.84","48.21","ROUYN-NORANDA A","7086719","2021-11-01 04:00","2021","11","01","04:00","1.1","","-0.1","","92","","","","27","","23","","24.1","","96.76","","","","","","Snow"
"-78.84","48.21","ROUYN-NORANDA A","7086719","2021-11-01 05:00","2021","11","01","05:00","0.5","","-0.2","","95","","","","26","","20","","3.2","","96.85","","","","","","Snow"
"-78.84","48.21","ROUYN-NORANDA A","7086719","2021-11-01 06:00","2021","11","01","06:00","0.8","","-0.8","","89","","","","27","","26","","24.1","","96.92","","","","","","Snow"
"-78.84","48.21","ROUYN-NORANDA A","7086719","2021-11-01 07:00","2021","11","01","07:00","0.6","","-1.2","","88","","","","27","","24","","24.1","","96.99","","","","","","Snow"
"-78.84","48.21","ROUYN-NORANDA A","7086719","2021-11-01 08:00","2021","11","01","08:00","0.9","","-2.1","","81","","","","27","","25","","24.1","","97.06","","","","","","Snow Showers"
"-78.84","48.21","ROUYN-NORANDA A","7086719","2021-11-01 09:00","2021","11","01","09:00","1.0","","-2.2","","80","","","","27","","28","","24.1","","97.12","","","","","","Snow Showers"
"-78.84","48.21","ROUYN-NORANDA A","7086719","2021-11-01 10:00","2021","11","01","10:00","2.3","","-3.6","","65","","","","26","","32","","24.1","","97.12","","","","","","Mostly Cloudy"
"-78.84","48.21","ROUYN-NORANDA A","7086719","2021-11-01 11:00","2021","11","01","11:00","1.9","","-1.4","","79","","","","26","","25","","16.1","","97.19","","","","","","Snow"
"-78.84","48.21","ROUYN-NORANDA A","7086719","2021-11-01 12:00","2021","11","01","12:00","2.9","","-2.9","","66","","","","26","","37","","24.1","","97.23","","","","","","Snow"
"-78.84","48.21","ROUYN-NORANDA A","7086719","2021-11-01 13:00","2021","11","01","13:00","3.2","","-2.8","","65","","","","26","","21","","24.1","","97.27","","","","","","Mostly Cloudy"
"-78.84","48.21","ROUYN-NORANDA A","7086719","2021-11-01 14:00","2021","11","01","14:00","3.0","","-3.8","","61","","","","25","","27","","24.1","","97.34","","","","","","NA"
"-78.84","48.21","ROUYN-NORANDA A","7086719","2021-11-01 15:00","2021","11","01","15:00","3.5","","-3.8","","59","","","","28","","23","","24.1","","97.37","","","","","","NA"
"-78.84","48.21","ROUYN-NORANDA A","7086719","2021-11-01 16:00","2021","11","01","16:00","3.5","","-4.6","","55","","","","26","","26","","24.1","","97.40","","","","","","Mostly Cloudy"
"-78.84","48.21","ROUYN-NORANDA A","7086719","2021-11-01 17:00","2021","11","01","17:00","3.3","","-4.5","","56","","","","27","","26","","24.1","","97.44","","","","","","NA"
"-78.84","48.21","ROUYN-NORANDA A","7086719","2021-11-01 18:00","2021","11","01","18:00","2.3","","-3.3","","67","","","","28","","18","","24.1","","97.55","","","","","","NA"
"-78.84","48.21","ROUYN-NORANDA A","7086719","2021-11-01 19:00","2021","11","01","19:00","2.1","","-2.9","","70","","","","29","","22","","24.1","","97.62","","","","","","Mostly Cloudy"
"-78.84","48.21","ROUYN-NORANDA A","7086719","2021-11-01 20:00","2021","11","01","20:00","1.1","","-2.2","","79","","","","27","","16","","24.1","","97.64","","","","","","Snow Showers"
"-78.84","48.21","ROUYN-NORANDA A","7086719","2021-11-01 21:00","2021","11","01","21:00","0.6","","-1.9","","83","","","","27","","14","","24.1","","97.69","","","","","","Snow Showers"
"-78.84","48.21","ROUYN-NORANDA A","7086719","2021-11-01 22:00","2021","11","01","22:00","0.8","","-2.2","","80","","","","27","","19","","24.1","","97.72","","","","","","Snow Showers"
"-78.84","48.21","ROUYN-NORANDA A","7086719","2021-11-01 23:00","2021","11","01","23:00","0.4","","-2.4","","82","","","","28","","14","","24.1","","97.72","","","","","","Snow Showers"
"-78.84","48.21","ROUYN-NORANDA A","7086719","2021-11-02 00:00","2021","11","02","00:00","0.1","","-2.6","","82","","","","28","","12","","24.1","","97.75","","","","","","NA"
"-78.84","48.21","ROUYN-NORANDA A","7086719","2021-11-02 01:00","2021","11","02","01:00","-0.5","","-2.9","","84","","","","28","","7","","24.1","","97.75","","","","-3","","Mostly Cloudy"
"-78.84","48.21","ROUYN-NORANDA A","7086719","2021-11-02 02:00","2021","11","02","02:00","-0.9","","-2.6","","88","","","","28","","13","","24.1","","97.75","","","","-5","","NA"
"-78.84","48.21","ROUYN-NORANDA A","7086719","2021-11-02 03:00","2021","11","02","03:00","-2.5","","-3.4","","93","","","","25","","7","","24.1","","97.80","","","","-5","","NA"
"-78.84","48.21","ROUYN-NORANDA A","7086719","2021-11-02 04:00","2021","11","02","04:00","-3.3","","-4.2","","94","","","","22","","9","","24.1","","97.81","","","","-7","","Mainly Clear"
"-78.84","48.21","ROUYN-NORANDA A","7086719","2021-11-02 05:00","2021","11","02","05:00","-3.7","","-4.6","","94","","","","23","","9","","24.1","","97.84","","","","-7","","NA"
"-78.84","48.21","ROUYN-NORANDA A","7086719","2021-11-02 06:00","2021","11","02","06:00","-2.5","","-3.5","","93","","","","22","","10","","24.1","","97.88","","","","-6","","NA"
"-78.84","48.21","ROUYN-NORANDA A","7086719","2021-11-02 07:00","2021","11","02","07:00","-1.7","","-2.8","","92","","","","24","","12","","24.1","","97.92","","","","-6","","Mostly Cloudy"
"-78.84","48.21","ROUYN-NORANDA A","7086719","2021-11-02 08:00","2021","11","02","08:00","-1.4","","-2.6","","92","","","","25","","12","","24.1","","97.94","","","","-5","","NA"
"-78.84","48.21","ROUYN-NORANDA A","7086719","2021-11-02 09:00","2021","11","02","09:00","0.0","","-2.7","","82","","","","28","","13","","24.1","","97.96","","","","-4","","NA"
"-78.84","48.21","ROUYN-NORANDA A","7086719","2021-11-02 10:00","2021","11","02","10:00","0.4","","-4.4","","70","","","","29","","18","","24.1","","98.01","","","","","","Mostly Cloudy"
"-78.84","48.21","ROUYN-NORANDA A","7086719","2021-11-02 11:00","2021","11","02","11:00","0.2","","-5.1","","67","","","","29","","11","","24.1","","98.04","","","","","","NA"
"-78.84","48.21","ROUYN-NORANDA A","7086719","2021-11-02 12:00","2021","11","02","12:00","2.9","","-6.6","","50","","","","26","","24","","24.1","","98.04","","","","","","NA"
"-78.84","48.21","ROUYN-NORANDA A","7086719","2021-11-02 13:00","2021","11","02","13:00","2.2","","-7.7","","48","","","","30","","16","","24.1","","98.03","","","","","","Mostly Cloudy"
"-78.84","48.21","ROUYN-NORANDA A","7086719","2021-11-02 14:00","2021","11","02","14:00","1.2","","-7.0","","54","","","","32","","19","","24.1","","98.06","","","","","","NA"
"-78.84","48.21","ROUYN-NORANDA A","7086719","2021-11-02 15:00","2021","11","02","15:00","1.1","","-7.7","","52","","","","30","","14","","24.1","","98.10","","","","","","NA"
"-78.84","48.21","ROUYN-NORANDA A","7086719","2021-11-02 16:00","2021","11","02","16:00","0.9","","-8.2","","51","","","","31","","18","","24.1","","98.15","","","","","","Mostly Cloudy"
"-78.84","48.21","ROUYN-NORANDA A","7086719","2021-11-02 17:00","2021","11","02","17:00","-1.0","","-8.8","","56","","","","30","","10","","24.1","","98.19","","","","-5","","NA"
"-78.84","48.21","ROUYN-NORANDA A","7086719","2021-11-02 18:00","2021","11","02","18:00","-1.8","","-6.8","","68","","","","32","","7","","24.1","","98.26","","","","-4","","NA"
"-78.84","48.21","ROUYN-NORANDA A","7086719","2021-11-02 19:00","2021","11","02","19:00","-2.5","","-6.1","","76","","","","29","","7","","24.1","","98.32","","","","-5","","Mainly Clear"
"-78.84","48.21","ROUYN-NORANDA A","7086719","2021-11-02 20:00","2021","11","02","20:00","-2.9","","-6.2","","78","","","","29","","8","","24.1","","98.35","","","","-6","","NA"
"-78.84","48.21","ROUYN-NORANDA A","7086719","2021-11-02 21:00","2021","11","02","21:00","-3.8","","-6.2","","83","","","","27","","7","","24.1","","98.37","","","","-7","","NA"
"-78.84","48.21","ROUYN-NORANDA A","7086719","2021-11-02 22:00","2021","11","02","22:00","-4.1","","-6.3","","85","","","","26","","8","","24.1","","98.37","","","","-8","","Clear"
"-78.84","48.21","ROUYN-NORANDA A","7086719","2021-11-02 23:00","2021","11","02","23:00","-4.3","","-6.1","","87","","","","26","","9","","24.1","","98.38","","","","-8","","NA"
"-78.84","48.21","ROUYN-NORANDA A","7086719","2021-11-03 00:00","2021","11","03","00:00","-3.6","","-5.5","","86","","","","27","","9","","24.1","","98.38","","","","-7","","NA"
"-78.84","48.21","ROUYN-NORANDA A","7086719","2021-11-03 01:00","2021","11","03","01:00","-4.0","","-5.5","","89","","","","26","","9","","24.1","","98.41","","","","-8","","Mainly Clear"
"-78.84","48.21","ROUYN-NORANDA A","7086719","2021-11-03 02:00","2021","11","03","02:00","-3.4","","-4.8","","90","","","","26","","8","","24.1","","98.45","","","","-7","","Snow"
"-78.84","48.21","ROUYN-NORANDA A","7086719","2021-11-03 03:00","2021","11","03","03:00","-3.3","","-4.5","","92","","","","26","","8","","24.1","","98.48","","","","-7","","Snow"
"-78.84","48.21","ROUYN-NORANDA A","7086719","2021-11-03 04:00","2021","11","03","04:00","-3.1","","-4.2","","93","","","","28","","8","","6.4","","98.50","","","","-6","","Snow"
"-78.84","48.21","ROUYN-NORANDA A","7086719","2021-11-03 05:00","2021","11","03","05:00","-3.1","","-4.0","","93","","","","27","","5","","9.7","","98.53","","","","-5","","Snow"
"-78.84","48.21","ROUYN-NORANDA A","7086719","2021-11-03 06:00","2021","11","03","06:00","-2.9","","-3.7","","94","","","","27","","5","","12.9","","98.58","","","","-5","","Snow"
"-78.84","48.21","ROUYN-NORANDA A","7086719","2021-11-03 07:00","2021","11","03","07:00","-2.5","","-4.3","","88","","","","32","","5","","24.1","","98.62","","","","-4","","Cloudy"
"-78.84","48.21","ROUYN-NORANDA A","7086719","2021-11-03 08:00","2021","11","03","08:00","-2.2","","-3.5","","90","","","","32","","8","","9.7","","98.70","","","","-5","","Snow"
"-78.84","48.21","ROUYN-NORANDA A","7086719","2021-11-03 09:00","2021","11","03","09:00","-2.2","","-4.4","","85","","","","35","","12","","24.1","","98.76","","","","-6","","Snow"
"-78.84","48.21","ROUYN-NORANDA A","7086719","2021-11-03 10:00","2021","11","03","10:00","-1.0","","-3.9","","81","","","","32","","9","","24.1","","98.79","","","","-4","","Cloudy"
"-78.84","48.21","ROUYN-NORANDA A","7086719","2021-11-03 11:00","2021","11","03","11:00","-0.4","","-3.3","","81","","","","28","","10","","80.5","","98.81","","","","-4","","Snow Showers"
"-78.84","48.21","ROUYN-NORANDA A","7086719","2021-11-03 12:00","2021","11","03","12:00","1.5","","-5.0","","62","","","","26","","8","","24.1","","98.77","","","","","","NA"
"-78.84","48.21","ROUYN-NORANDA A","7086719","2021-11-03 13:00","2021","11","03","13:00","-0.6","","-2.9","","84","","","","1","","8","","3.2","","98.74","","","","-3","","Snow Showers"
"-78.84","48.21","ROUYN-NORANDA A","7086719","2021-11-03 14:00","2021","11","03","14:00","-1.0","","-2.6","","88","","","","1","","10","","6.4","","98.75","","","","-5","","Snow Showers"
"-78.84","48.21","ROUYN-NORANDA A","7086719","2021-11-03 15:00","2021","11","03","15:00","-0.9","","-2.7","","87","","","","35","","7","","24.1","","98.76","","","","-3","","Snow Showers"
"-78.84","48.21","ROUYN-NORANDA A","7086719","2021-11-03 16:00","2021","11","03","16:00","-1.4","","-3.7","","84","","","","35","","5","","24.1","","98.78","","","","-3","","Snow Showers"
"-78.84","48.21","ROUYN-NORANDA A","7086719","2021-11-03 17:00","2021","11","03","17:00","-2.2","","-3.5","","91","","","","16","","6","","24.1","","98.80","","","","-5","","Snow Showers"
"-78.84","48.21","ROUYN-NORANDA A","7086719","2021-11-03 18:00","2021","11","03","18:00","-2.1","","-3.6","","90","","","","36","","3","","9.7","","98.83","","","","-3","","Snow"
"-78.84","48.21","ROUYN-NORANDA A","7086719","2021-11-03 19:00","2021","11","03","19:00","-2.7","","-3.4","","95","","","","18","","5","","19.3","","98.85","","","","-5","","Snow"
"-78.84","48.21","ROUYN-NORANDA A","7086719","2021-11-03 20:00","2021","11","03","20:00","-2.4","","-3.2","","94","","","","19","","4","","19.3","","98.86","","","","-4","","Snow"
"-78.84","48.21","ROUYN-NORANDA A","7086719","2021-11-03 21:00","2021","11","03","21:00","-2.6","","-3.3","","95","","","","17","","5","","24.1","","98.85","","","","-5","","Snow"
"-78.84","48.21","ROUYN-NORANDA A","7086719","2021-11-03 22:00","2021","11","03","22:00","-2.7","","-3.4","","95","","","","25","","3","","24.1","","98.85","","","","-4","","Snow"
"-78.84","48.21","ROUYN-NORANDA A","7086719","2021-11-03 23:00","2021","11","03","23:00","-2.9","","-3.4","","96","","","","36","","3","","24.1","","98.85","","","","-4","","Snow"
"-78.84","48.21","ROUYN-NORANDA A","7086719","2021-11-04 00:00","2021","11","04","00:00","-2.7","","-3.3","","96","","","","17","","5","","24.1","","98.86","","","","-5","","Snow"
"-78.84","48.21","ROUYN-NORANDA A","7086719","2021-11-04 01:00","2021","11","04","01:00","-2.8","","-3.4","","95","","","","22","","3","","24.1","","98.84","","","","-4","","Snow"
"-78.84","48.21","ROUYN-NORANDA A","7086719","2021-11-04 02:00","2021","11","04","02:00","-2.7","","-3.3","","96","","","","20","","4","","24.1","","98.84","","","","-4","","Snow"
"-78.84","48.21","ROUYN-NORANDA A","7086719","2021-11-04 03:00","2021","11","04","03:00","-2.6","","-3.3","","95","","","","20","","3","","24.1","","98.83","","","","-4","","Snow"
"-78.84","48.21","ROUYN-NORANDA A","7086719","2021-11-04 04:00","2021","11","04","04:00","-2.5","","-3.9","","91","","","","21","","5","","24.1","","98.82","","","","-4","","Snow"
"-78.84","48.21","ROUYN-NORANDA A","7086719","2021-11-04 05:00","2021","11","04","05:00","-2.5","","-4.4","","87","","","","22","","9","","24.1","","98.80","","","","-6","","Snow"
"-78.84","48.21","ROUYN-NORANDA A","7086719","2021-11-04 06:00","2021","11","04","06:00","-2.6","","-5.5","","81","","","","23","","9","","24.1","","98.81","","","","-6","","Snow"
"-78.84","48.21","ROUYN-NORANDA A","7086719","2021-11-04 07:00","2021","11","04","07:00","-2.7","","-5.7","","80","","","","28","","7","","24.1","","98.81","","","","-6","","Snow"
"-78.84","48.21","ROUYN-NORANDA A","7086719","2021-11-04 08:00","2021","11","04","08:00","-2.7","","-5.9","","79","","","","19","","5","","24.1","","98.83","","","","-5","","Snow"
"-78.84","48.21","ROUYN-NORANDA A","7086719","2021-11-04 09:00","2021","11","04","09:00","-2.2","","-6.6","","72","","","","23","","4","","24.1","","98.82","","","","-4","","NA"
"-78.84","48.21","ROUYN-NORANDA A","7086719","2021-11-04 10:00","2021","11","04","10:00","-1.0","","-7.9","","59","","","","25","","15","","24.1","","98.82","","","","-6","","Mostly Cloudy"
"-78.84","48.21","ROUYN-NORANDA A","7086719","2021-11-04 11:00","2021","11","04","11:00","-0.5","","-8.4","","55","","","","27","","19","","24.1","","98.81","","","","-6","","NA"
"-78.84","48.21","ROUYN-NORANDA A","7086719","2021-11-04 12:00","2021","11","04","12:00","0.3","","-7.5","","56","","","","29","","13","","24.1","","98.77","","","","","","NA"
"-78.84","48.21","ROUYN-NORANDA A","7086719","2021-11-04 13:00","2021","11","04","13:00","0.4","","-7.0","","58","","","","25","","20","","24.1","","98.73","","","","","","Cloudy"
"-78.84","48.21","ROUYN-NORANDA A","7086719","2021-11-04 14:00","2021","11","04","14:00","0.6","","-8.2","","52","","","","21","","14","","24.1","","98.68","","","","","","NA"
"-78.84","48.21","ROUYN-NORANDA A","7086719","2021-11-04 15:00","2021","11","04","15:00","0.6","","-7.3","","55","","","","24","","16","","24.1","","98.65","","","","","","NA"
"-78.84","48.21","ROUYN-NORANDA A","7086719","2021-11-04 16:00","2021","11","04","16:00","0.8","","-7.1","","56","","","","22","","8","","24.1","","98.59","","","","","","Cloudy"
"-78.84","48.21","ROUYN-NORANDA A","7086719","2021-11-04 17:00","2021","11","04","17:00","0.1","","-6.8","","60","","","","21","","7","","24.1","","98.58","","","","","","NA"
"-78.84","48.21","ROUYN-NORANDA A","7086719","2021-11-04 18:00","2021","11","04","18:00","-0.4","","-6.2","","65","","","","18","","7","","24.1","","98.58","","","","-3","","NA"
"-78.84","48.21","ROUYN-NORANDA A","7086719","2021-11-04 19:00","2021","11","04","19:00","-0.3","","-6.0","","66","","","","19","","7","","24.1","","98.57","","","","-3","","Cloudy"
"-78.84","48.21","ROUYN-NORANDA A","7086719","2021-11-04 20:00","2021","11","04","20:00","-0.4","","-5.5","","69","","","","20","","8","","24.1","","98.55","","","","-3","","NA"
"-78.84","48.21","ROUYN-NORANDA A","7086719","2021-11-04 21:00","2021","11","04","21:00","-0.2","","-5.2","","70","","","","20","","10","","24.1","","98.55","","","","-4","","NA"
"-78.84","48.21","ROUYN-NORANDA A","7086719","2021-11-04 22:00","2021","11","04","22:00","0.2","","-5.1","","68","","","","20","","12","","24.1","","98.55","","","","","","Cloudy"
"-78.84","48.21","ROUYN-NORANDA A","7086719","2021-11-04 23:00","2021","11","04","23:00","0.0","","-5.1","","69","","","","22","","8","","24.1","","98.54","","","","-3","","NA"
"-78.84","48.21","ROUYN-NORANDA A","7086719","2021-11-05 00:00","2021","11","05","00:00","0.1","","-4.9","","69","","","","22","","14","","24.1","","98.53","","","","","","NA"
"-78.84","48.21","ROUYN-NORANDA A","7086719","2021-11-05 01:00","2021","11","05","01:00","0.5","","-4.4","","70","","","","22","","14","","24.1","","98.52","","","","","","Mostly Cloudy"
"-78.84","48.21","ROUYN-NORANDA A","7086719","2021-11-05 02:00","2021","11","05","02:00","0.6","","-4.2","","70","","","","23","","13","","24.1","","98.52","","","","","","NA"
"-78.84","48.21","ROUYN-NORANDA A","7086719","2021-11-05 03:00","2021","11","05","03:00","0.6","","-4.0","","71","","","","23","","13","","24.1","","98.53","","","","","","NA"
"-78.84","48.21","ROUYN-NORANDA A","7086719","2021-11-05 04:00","2021","11","05","04:00","0.6","","-3.9","","72","","","","23","","12","","24.1","","98.53","","","","","","Mostly Cloudy"
"-78.84","48.21","ROUYN-NORANDA A","7086719","2021-11-05 05:00","2021","11","05","05:00","0.9","","-3.9","","70","","","","24","","15","","24.1","","98.54","","","","","","NA"
"-78.84","48.21","ROUYN-NORANDA A","7086719","2021-11-05 06:00","2021","11","05","06:00","0.2","","-4.3","","72","","","","23","","16","","24.1","","98.54","","","","","","NA"
"-78.84","48.21","ROUYN-NORANDA A","7086719","2021-11-05 07:00","2021","11","05","07:00","0.1","","-4.5","","71","","","","22","","15","","24.1","","98.56","","","","","","Mainly Clear"
"-78.84","48.21","ROUYN-NORANDA A","7086719","2021-11-05 08:00","2021","11","05","08:00","0.6","","-4.0","","71","","","","22","","18","","24.1","","98.58","","","","","","NA"
"-78.84","48.21","ROUYN-NORANDA A","7086719","2021-11-05 09:00","2021","11","05","09:00","2.8","","-3.1","","65","","","","24","","26","","24.1","","98.60","","","","","","NA"
"-78.84","48.21","ROUYN-NORANDA A","7086719","2021-11-05 10:00","2021","11","05","10:00","4.2","","-2.0","","64","","","","24","","25","","24.1","","98.57","","","","","","Mostly Cloudy"
"-78.84","48.21","ROUYN-NORANDA A","7086719","2021-11-05 11:00","2021","11","05","11:00","4.7","","-1.4","","65","","","","23","","26","","24.1","","98.58","","","","","","NA"
"-78.84","48.21","ROUYN-NORANDA A","7086719","2021-11-05 12:00","2021","11","05","12:00","5.9","","-1.1","","61","","","","24","","32","","24.1","","98.52","","","","","","NA"
"-78.84","48.21","ROUYN-NORANDA A","7086719","2021-11-05 13:00","2021","11","05","13:00","6.6","","-1.2","","57","","","","25","","25","","24.1","","98.45","","","","","","Mostly Cloudy"
"-78.84","48.21","ROUYN-NORANDA A","7086719","2021-11-05 14:00","2021","11","05","14:00","8.0","","-1.3","","52","","","","24","","30","","24.1","","98.41","","","","","","NA"
"-78.84","48.21","ROUYN-NORANDA A","7086719","2021-11-05 15:00","2021","11","05","15:00","7.7","","-1.5","","52","","","","24","","29","","24.1","","98.37","","","","","","NA"
"-78.84","48.21","ROUYN-NORANDA A","7086719","2021-11-05 16:00","2021","11","05","16:00","7.1","","-1.9","","53","","","","24","","23","","24.1","","98.38","","","","","","Mostly Cloudy"
"-78.84","48.21","ROUYN-NORANDA A","7086719","2021-11-05 17:00","2021","11","05","17:00","5.8","","-1.9","","58","","","","22","","18","","24.1","","98.40","","","","","","NA"
"-78.84","48.21","ROUYN-NORANDA A","7086719","2021-11-05 18:00","2021","11","05","18:00","4.9","","-1.3","","64","","","","22","","14","","24.1","","98.39","","","","","","NA"
"-78.84","48.21","ROUYN-NORANDA A","7086719","2021-11-05 19:00","2021","11","05","19:00","4.3","","-1.2","","67","","","","21","","16","","24.1","","98.37","","","","","","Mainly Clear"
"-78.84","48.21","ROUYN-NORANDA A","7086719","2021-11-05 20:00","2021","11","05","20:00","3.3","","-1.2","","72","","","","22","","12","","24.1","","98.37","","","","","","NA"
"-78.84","48.21","ROUYN-NORANDA A","7086719","2021-11-05 21:00","2021","11","05","21:00","3.5","","-0.6","","74","","","","22","","16","","24.1","","98.36","","","","","","NA"
"-78.84","48.21","ROUYN-NORANDA A","7086719","2021-11-05 22:00","2021","11","05","22:00","3.4","","-0.2","","78","","","","22","","17","","24.1","","98.37","","","","","","Mainly Clear"
"-78.84","48.21","ROUYN-NORANDA A","7086719","2021-11-05 23:00","2021","11","05","23:00","2.8","","0.2","","83","","","","22","","15","","24.1","","98.38","","","","","","NA"
"-78.84","48.21","ROUYN-NORANDA A","7086719","2021-11-06 00:00","2021","11","06","00:00","3.0","","1.0","","86","","","","21","","17","","24.1","","98.37","","","","","","NA"
"-78.84","48.21","ROUYN-NORANDA A","7086719","2021-11-06 01:00","2021","11","06","01:00","2.7","","1.2","","90","","","","21","","13","","24.1","","98.36","","","","","","Mainly Clear"
"-78.84","48.21","ROUYN-NORANDA A","7086719","2021-11-06 02:00","2021","11","06","02:00","1.6","","0.7","","93","","","","19","","11","","24.1","","98.35","","","","","","NA"
"-78.84","48.21","ROUYN-NORANDA A","7086719","2021-11-06 03:00","2021","11","06","03:00","1.6","","0.9","","95","","","","18","","8","","24.1","","98.34","","","","","","NA"
"-78.84","48.21","ROUYN-NORANDA A","7086719","2021-11-06 04:00","2021","11","06","04:00","1.8","","1.4","","97","","","","19","","14","","24.1","","98.30","","","","","","Mostly Cloudy"
"-78.84","48.21","ROUYN-NORANDA A","7086719","2021-11-06 05:00","2021","11","06","05:00","2.1","","1.5","","96","","","","20","","7","","24.1","","98.29","","","","","","NA"
"-78.84","48.21","ROUYN-NORANDA A","7086719","2021-11-06 06:00","2021","11","06","06:00","3.6","","2.2","","90","","","","20","","18","","24.1","","98.28","","","","","","NA"
"-78.84","48.21","ROUYN-NORANDA A","7086719","2021-11-06 07:00","2021","11","06","07:00","3.8","","2.1","","89","","","","20","","16","","19.3","","98.30","","","","","","Cloudy"
"-78.84","48.21","ROUYN-NORANDA A","7086719","2021-11-06 08:00","2021","11","06","08:00","4.6","","2.0","","83","","","","21","","16","","24.1","","98.31","","","","","","NA"
"-78.84","48.21","ROUYN-NORANDA A","7086719","2021-11-06 09:00","2021","11","06","09:00","5.4","","2.2","","79","","","","22","","18","","24.1","","98.28","","","","","","NA"
"-78.84","48.21","ROUYN-NORANDA A","7086719","2021-11-06 10:00","2021","11","06","10:00","7.5","","1.6","","66","","","","22","","28","","24.1","","98.21","","","","","","Mainly Clear"
"-78.84","48.21","ROUYN-NORANDA A","7086719","2021-11-06 11:00","2021","11","06","11:00","9.0","","1.9","","61","","","","21","","23","","24.1","","98.18","","","","","","NA"
"-78.84","48.21","ROUYN-NORANDA A","7086719","2021-11-06 12:00","2021","11","06","12:00","10.5","","1.5","","54","","","","22","","29","","24.1","","98.10","","","","","","NA"
"-78.84","48.21","ROUYN-NORANDA A","7086719","2021-11-06 13:00","2021","11","06","13:00","11.4","","1.5","","50","","","","21","","26","","24.1","","98.03","","","","","","Mainly Clear"
"-78.84","48.21","ROUYN-NORANDA A","7086719","2021-11-06 14:00","2021","11","06","14:00","11.5","","1.5","","50","","","","22","","22","","24.1","","97.99","","","","","","NA"
"-78.84","48.21","ROUYN-NORANDA A","7086719","2021-11-06 15:00","2021","11","06","15:00","10.7","","1.6","","53","","","","22","","22","","24.1","","97.98","","","","","","NA"
"-78.84","48.21","ROUYN-NORANDA A","7086719","2021-11-06 16:00","2021","11","06","16:00","9.9","","1.4","","55","","","","21","","26","","24.1","","97.99","","","","","","Mostly Cloudy"
"-78.84","48.21","ROUYN-NORANDA A","7086719","2021-11-06 17:00","2021","11","06","17:00","9.0","","1.2","","58","","","","21","","17","","24.1","","97.98","","","","","","NA"
"-78.84","48.21","ROUYN-NORANDA A","7086719","2021-11-06 18:00","2021","11","06","18:00","8.5","","1.1","","60","","","","20","","27","","24.1","","97.98","","","","","","NA"
"-78.84","48.21","ROUYN-NORANDA A","7086719","2021-11-06 19:00","2021","11","06","19:00","7.8","","0.9","","61","","","","22","","22","","24.1","","97.98","","","","","","Cloudy"
"-78.84","48.21","ROUYN-NORANDA A","7086719","2021-11-06 20:00","2021","11","06","20:00","7.0","","1.1","","66","","","","20","","15","","24.1","","97.98","","","","","","NA"
"-78.84","48.21","ROUYN-NORANDA A","7086719","2021-11-06 21:00","2021","11","06","21:00","6.5","","1.0","","67","","","","21","","19","","24.1","","97.99","","","","","","NA"
"-78.84","48.21","ROUYN-NORANDA A","7086719","2021-11-06 22:00","2021","11","06","22:00","6.6","","1.1","","68","","","","22","","23","","24.1","","97.98","","","","","","Cloudy"
"-78.84","48.21","ROUYN-NORANDA A","7086719","2021-11-06 23:00","2021","11","06","23:00","6.4","","1.3","","70","","","","20","","19","","24.1","","97.94","","","","","","NA"
"-78.84","48.21","ROUYN-NORANDA A","7086719","2021-11-07 00:00","2021","11","07","00:00","6.3","","1.7","","72","","","","21","","16","","24.1","","97.92","","","","","","NA"
"-78.84","48.21","ROUYN-NORANDA A","7086719","2021-11-07 01:00","2021","11","07","01:00","6.3","","2.2","","75","","","","19","","15","","24.1","","97.87","","","","","","Cloudy"
"-78.84","48.21","ROUYN-NORANDA A","7086719","2021-11-07 02:00","2021","11","07","02:00","5.9","","2.3","","77","","","","19","","16","","24.1","","97.82","","","","","","NA"
"-78.84","48.21","ROUYN-NORANDA A","7086719","2021-11-07 03:00","2021","11","07","03:00","5.7","","2.2","","78","","","","19","","20","","24.1","","97.77","","","","","","NA"
"-78.84","48.21","ROUYN-NORANDA A","7086719","2021-11-07 04:00","2021","11","07","04:00","5.6","","2.7","","81","","","","20","","12","","24.1","","97.75","","","","","","Rain"
"-78.84","48.21","ROUYN-NORANDA A","7086719","2021-11-07 05:00","2021","11","07","05:00","5.0","","3.8","","92","","","","19","","15","","24.1","","97.71","","","","","","Rain"
"-78.84","48.21","ROUYN-NORANDA A","7086719","2021-11-07 06:00","2021","11","07","06:00","4.9","","4.2","","96","","","","19","","15","","24.1","","97.70","","","","","","Rain"
"-78.84","48.21","ROUYN-NORANDA A","7086719","2021-11-07 07:00","2021","11","07","07:00","5.0","","4.6","","97","","","","20","","9","","3.2","","97.71","","","","","","Rain,Fog"
"-78.84","48.21","ROUYN-NORANDA A","7086719","2021-11-07 08:00","2021","11","07","08:00","5.2","","4.9","","98","","","","20","","12","","3.2","","97.74","","","","","","Rain,Fog"
"-78.84","48.21","ROUYN-NORANDA A","7086719","2021-11-07 09:00","2021","11","07","09:00","5.8","","5.5","","98","","","","20","","11","","2.4","","97.75","","","","","","Rain,Fog"
"-78.84","48.21","ROUYN-NORANDA A","7086719","2021-11-07 10:00","2021","11","07","10:00","6.3","","6.0","","98","","","","22","","12","","2.4","","97.75","","","","","","Drizzle,Fog"
"-78.84","48.21","ROUYN-NORANDA A","7086719","2021-11-07 11:00","2021","11","07","11:00","6.7","","6.5","","99","","","","25","","13","","2.4","","97.79","","","","","","Drizzle,Fog"
"-78.84","48.21","ROUYN-NORANDA A","7086719","2021-11-07 12:00","2021","11","07","12:00","7.3","","7.1","","99","","","","24","","11","","2.0","","97.79","","","","","","Fog"
"-78.84","48.21","ROUYN-NORANDA A","7086719","2021-11-07 13:00","2021","11","07","13:00","7.8","","7.6","","99","","","","26","","12","","2.4","","97.79","","","","","","Fog"
"-78.84","48.21","ROUYN-NORANDA A","7086719","2021-11-07 14:00","2021","11","07","14:00","8.3","","7.8","","96","","","","26","","8","","8.1","","97.80","","","","","","Fog"
"-78.84","48.21","ROUYN-NORANDA A","7086719","2021-11-07 15:00","2021","11","07","15:00","8.4","","7.8","","96","","","","25","","6","","19.3","","97.85","","","","","","NA"
"-78.84","48.21","ROUYN-NORANDA A","7086719","2021-11-07 16:00","2021","11","07","16:00","8.3","","7.7","","96","","","","25","","8","","19.3","","97.89","","","","","","Cloudy"
"-78.84","48.21","ROUYN-NORANDA A","7086719","2021-11-07 17:00","2021","11","07","17:00","8.1","","7.7","","97","","","","25","","10","","19.3","","98.01","","","","","","Drizzle"
"-78.84","48.21","ROUYN-NORANDA A","7086719","2021-11-07 18:00","2021","11","07","18:00","8.1","","7.6","","97","","","","23","","9","","24.1","","98.06","","","","","","Drizzle"
"-78.84","48.21","ROUYN-NORANDA A","7086719","2021-11-07 19:00","2021","11","07","19:00","8.0","","7.4","","96","","","","23","","9","","24.1","","98.08","","","","","","Cloudy"
"-78.84","48.21","ROUYN-NORANDA A","7086719","2021-11-07 20:00","2021","11","07","20:00","6.9","","6.7","","99","","","","24","","8","","24.1","","98.09","","","","","","NA"
"-78.84","48.21","ROUYN-NORANDA A","7086719","2021-11-07 21:00","2021","11","07","21:00","6.4","","6.3","","100","","","","21","","5","","24.1","","98.12","","","","","","NA"
"-78.84","48.21","ROUYN-NORANDA A","7086719","2021-11-07 22:00","2021","11","07","22:00","5.0","","5.0","","100","","","","20","","5","","24.1","","98.14","","","","","","Mainly Clear"
"-78.84","48.21","ROUYN-NORANDA A","7086719","2021-11-07 23:00","2021","11","07","23:00","3.8","","3.7","","100","","","","18","","7","","24.1","","98.11","","","","","","NA"
"-78.84","48.21","ROUYN-NORANDA A","7086719","2021-11-08 00:00","2021","11","08","00:00","3.8","","3.8","","100","","","","36","","2","","9.7","","98.10","","","","","","Fog"
"-78.84","48.21","ROUYN-NORANDA A","7086719","2021-11-08 01:00","2021","11","08","01:00","3.2","","3.2","","100","","","","19","","7","","4.8","","98.10","","","","","","Fog"
"-78.84","48.21","ROUYN-NORANDA A","7086719","2021-11-08 02:00","2021","11","08","02:00","3.1","","3.1","","100","","","","22","","6","","1.2","","98.15","","","","","","Fog"
"-78.84","48.21","ROUYN-NORANDA A","7086719","2021-11-08 03:00","2021","11","08","03:00","2.7","","2.7","","100","","","","19","","4","","3.2","","98.14","","","","","","Fog"
"-78.84","48.21","ROUYN-NORANDA A","7086719","2021-11-08 04:00","2021","11","08","04:00","2.7","","2.7","","100","","","","25","","4","","4.0","","98.11","","","","","","Fog"
"-78.84","48.21","ROUYN-NORANDA A","7086719","2021-11-08 05:00","2021","11","08","05:00","3.4","","3.4","","100","","","","17","","12","","24.1","","98.06","","","","","","NA"
"-78.84","48.21","ROUYN-NORANDA A","7086719","2021-11-08 06:00","2021","11","08","06:00","4.1","","4.1","","100","","","","18","","12","","24.1","","98.03","","","","","","NA"
"-78.84","48.21","ROUYN-NORANDA A","7086719","2021-11-08 07:00","2021","11","08","07:00","4.3","","4.3","","100","","","","17","","12","","3.2","","97.96","","","","","","Fog"
"-78.84","48.21","ROUYN-NORANDA A","7086719","2021-11-08 08:00","2021","11","08","08:00","4.8","","4.8","","100","","","","18","","13","","2.0","","97.91","","","","","","Fog"
"-78.84","48.21","ROUYN-NORANDA A","7086719","2021-11-08 09:00","2021","11","08","09:00","5.7","","5.7","","100","","","","17","","16","","3.2","","97.84","","","","","","Fog"
"-78.84","48.21","ROUYN-NORANDA A","7086719","2021-11-08 10:00","2021","11","08","10:00","6.7","","6.7","","100","","","","21","","15","","16.1","","97.86","","","","","","Cloudy"
"-78.84","48.21","ROUYN-NORANDA A","7086719","2021-11-08 11:00","2021","11","08","11:00","7.8","","7.6","","98","","","","21","","18","","6.4","","97.83","","","","","","Fog"
"-78.84","48.21","ROUYN-NORANDA A","7086719","2021-11-08 12:00","2021","11","08","12:00","8.8","","7.6","","93","","","","22","","24","","24.1","","97.78","","","","","","Fog"
"-78.84","48.21","ROUYN-NORANDA A","7086719","2021-11-08 13:00","2021","11","08","13:00","8.9","","7.7","","92","","","","21","","20","","8.1","","97.68","","","","","","Fog"
"-78.84","48.21","ROUYN-NORANDA A","7086719","2021-11-08 14:00","2021","11","08","14:00","9.3","","7.8","","90","","","","22","","15","","8.1","","97.65","","","","","","Fog"
"-78.84","48.21","ROUYN-NORANDA A","7086719","2021-11-08 15:00","2021","11","08","15:00","9.9","","8.1","","88","","","","22","","23","","8.1","","97.63","","","","","","Fog"
"-78.84","48.21","ROUYN-NORANDA A","7086719","2021-11-08 16:00","2021","11","08","16:00","10.0","","8.0","","87","","","","23","","20","","8.1","","97.65","","","","","","Fog"
"-78.84","48.21","ROUYN-NORANDA A","7086719","2021-11-08 17:00","2021","11","08","17:00","9.9","","7.9","","88","","","","22","","15","","24.1","","97.64","","","","","","NA"
"-78.84","48.21","ROUYN-NORANDA A","7086719","2021-11-08 18:00","2021","11","08","18:00","9.8","","8.0","","89","","","","23","","14","","24.1","","97.69","","","","","","NA"
"-78.84","48.21","ROUYN-NORANDA A","7086719","2021-11-08 19:00","2021","11","08","19:00","10.2","","8.1","","87","","","","25","","18","","24.1","","97.74","","","","","","Cloudy"
"-78.84","48.21","ROUYN-NORANDA A","7086719","2021-11-08 20:00","2021","11","08","20:00","9.3","","7.7","","89","","","","25","","14","","24.1","","97.76","","","","","","NA"
"-78.84","48.21","ROUYN-NORANDA A","7086719","2021-11-08 21:00","2021","11","08","21:00","8.9","","7.7","","92","","","","25","","12","","24.1","","97.79","","","","","","NA"
"-78.84","48.21","ROUYN-NORANDA A","7086719","2021-11-08 22:00","2021","11","08","22:00","8.1","","7.3","","95","","","","23","","12","","24.1","","97.79","","","","","","Mainly Clear"
"-78.84","48.21","ROUYN-NORANDA A","7086719","2021-11-08 23:00","2021","11","08","23:00","8.6","","7.7","","94","","","","27","","9","","24.1","","97.80","","","","","","NA"
"-78.84","48.21","ROUYN-NORANDA A","7086719","2021-11-09 00:00","2021","11","09","00:00","9.0","","7.0","","87","","","","31","","10","","24.1","","97.86","","","","","","NA"
"-78.84","48.21","ROUYN-NORANDA A","7086719","2021-11-09 01:00","2021","11","09","01:00","8.1","","4.8","","80","","","","31","","9","","24.1","","97.95","","","","","","Mostly Cloudy"
"-78.84","48.21","ROUYN-NORANDA A","7086719","2021-11-09 02:00","2021","11","09","02:00","7.3","","3.4","","76","","","","32","","11","","24.1","","98.03","","","","","","NA"
"-78.84","48.21","ROUYN-NORANDA A","7086719","2021-11-09 03:00","2021","11","09","03:00","5.5","","2.1","","79","","","","29","","9","","24.1","","98.11","","","","","","NA"
"-78.84","48.21","ROUYN-NORANDA A","7086719","2021-11-09 04:00","2021","11","09","04:00","5.2","","1.4","","76","","","","32","","5","","24.1","","98.16","","","","","","Mostly Cloudy"
"-78.84","48.21","ROUYN-NORANDA A","7086719","2021-11-09 05:00","2021","11","09","05:00","0.4","","-0.3","","95","","","","21","","6","","24.1","","98.25","","","","","","NA"
"-78.84","48.21","ROUYN-NORANDA A","7086719","2021-11-09 06:00","2021","11","09","06:00","-0.4","","-1.3","","94","","","","29","","4","","24.1","","98.30","","","","-2","","NA"
"-78.84","48.21","ROUYN-NORANDA A","7086719","2021-11-09 07:00","2021","11","09","07:00","-1.9","","-2.2","","98","","","","23","","4","","24.1","","98.34","","","","-3","","Clear"
"-78.84","48.21","ROUYN-NORANDA A","7086719","2021-11-09 08:00","2021","11","09","08:00","-0.4","","-1.2","","95","","","","29","","4","","24.1","","98.43","","","","-2","","NA"
"-78.84","48.21","ROUYN-NORANDA A","7086719","2021-11-09 09:00","2021","11","09","09:00","3.3","","1.1","","85","","","","22","","5","","24.1","","98.46","","","","","","NA"
"-78.84","48.21","ROUYN-NORANDA A","7086719","2021-11-09 10:00","2021","11","09","10:00","5.2","","0.3","","70","","","","32","","14","","24.1","","98.45","","","","","","Mainly Clear"
"-78.84","48.21","ROUYN-NORANDA A","7086719","2021-11-09 11:00","2021","11","09","11:00","6.1","","-0.2","","64","","","","29","","16","","24.1","","98.49","","","","","","NA"
"-78.84","48.21","ROUYN-NORANDA A","7086719","2021-11-09 12:00","2021","11","09","12:00","6.9","","-0.4","","60","","","","30","","13","","24.1","","98.43","","","","","","NA"
"-78.84","48.21","ROUYN-NORANDA A","7086719","2021-11-09 13:00","2021","11","09","13:00","7.4","","-1.0","","55","","","","23","","11","","24.1","","98.35","","","","","","Mostly Cloudy"
"-78.84","48.21","ROUYN-NORANDA A","7086719","2021-11-09 14:00","2021","11","09","14:00","7.7","","-1.7","","51","","","","31","","8","","24.1","","98.28","","","","","","NA"
"-78.84","48.21","ROUYN-NORANDA A","7086719","2021-11-09 15:00","2021","11","09","15:00","7.7","","-1.4","","52","","","","29","","9","","24.1","","98.28","","","","","","NA"
"-78.84","48.21","ROUYN-NORANDA A","7086719","2021-11-09 16:00","2021","11","09","16:00","6.5","","-1.4","","57","","","","22","","7","","24.1","","98.23","","","","","","Mainly Clear"
"-78.84","48.21","ROUYN-NORANDA A","7086719","2021-11-09 17:00","2021","11","09","17:00","2.7","","-2.0","","71","","","","36","","3","","24.1","","98.19","","","","","","NA"
"-78.84","48.21","ROUYN-NORANDA A","7086719","2021-11-09 18:00","2021","11","09","18:00","-0.4","","-2.7","","84","","","","36","","3","","24.1","","98.13","","","","-1","","NA"
"-78.84","48.21","ROUYN-NORANDA A","7086719","2021-11-09 19:00","2021","11","09","19:00","0.2","","-2.5","","82","","","","18","","15","","24.1","","98.08","","","","","","Mainly Clear"
"-78.84","48.21","ROUYN-NORANDA A","7086719","2021-11-09 20:00","2021","11","09","20:00","0.2","","-2.0","","85","","","","28","","5","","24.1","","98.10","","","","","","NA"
"-78.84","48.21","ROUYN-NORANDA A","7086719","2021-11-09 21:00","2021","11","09","21:00","-2.5","","-3.5","","93","","","","19","","4","","24.1","","98.05","","","","-4","","NA"
"-78.84","48.21","ROUYN-NORANDA A","7086719","2021-11-09 22:00","2021","11","09","22:00","-2.4","","-2.9","","96","","","","18","","8","","24.1","","98.00","","","","-6","","Mainly Clear"
"-78.84","48.21","ROUYN-NORANDA A","7086719","2021-11-09 23:00","2021","11","09","23:00","-1.5","","-2.6","","92","","","","21","","4","","24.1","","97.92","","","","-3","","NA"
"-78.84","48.21","ROUYN-NORANDA A","7086719","2021-11-10 00:00","2021","11","10","00:00","-1.0","","-2.5","","90","","","","23","","9","","24.1","","97.88","","","","-4","","NA"
"-78.84","48.21","ROUYN-NORANDA A","7086719","2021-11-10 01:00","2021","11","10","01:00","-2.1","","-3.2","","92","","","","22","","7","","24.1","","97.87","","","","-5","","Mainly Clear"
"-78.84","48.21","ROUYN-NORANDA A","7086719","2021-11-10 02:00","2021","11","10","02:00","-2.3","","-3.5","","92","","","","23","","8","","24.1","","97.88","","","","-5","","NA"
"-78.84","48.21","ROUYN-NORANDA A","7086719","2021-11-10 03:00","2021","11","10","03:00","-2.5","","-3.4","","93","","","","22","","5","","24.1","","97.92","","","","-4","","NA"
"-78.84","48.21","ROUYN-NORANDA A","7086719","2021-11-10 04:00","2021","11","10","04:00","-2.8","","-3.2","","97","","","","23","","3","","24.1","","97.94","","","","-4","","Clear"
"-78.84","48.21","ROUYN-NORANDA A","7086719","2021-11-10 05:00","2021","11","10","05:00","-1.6","","-2.3","","95","","","","27","","9","","24.1","","97.99","","","","-5","","NA"
"-78.84","48.21","ROUYN-NORANDA A","7086719","2021-11-10 06:00","2021","11","10","06:00","-1.4","","-2.2","","94","","","","27","","10","","24.1","","98.02","","","","-5","","NA"
"-78.84","48.21","ROUYN-NORANDA A","7086719","2021-11-10 07:00","2021","11","10","07:00","-2.3","","-2.9","","96","","","","26","","9","","24.1","","98.08","","","","-6","","Mainly Clear"
"-78.84","48.21","ROUYN-NORANDA A","7086719","2021-11-10 08:00","2021","11","10","08:00","-2.4","","-3.0","","96","","","","24","","8","","24.1","","98.13","","","","-6","","NA"
"-78.84","48.21","ROUYN-NORANDA A","7086719","2021-11-10 09:00","2021","11","10","09:00","0.7","","-0.6","","91","","","","26","","8","","24.1","","98.19","","","","","","NA"
"-78.84","48.21","ROUYN-NORANDA A","7086719","2021-11-10 10:00","2021","11","10","10:00","2.8","","-0.1","","81","","","","28","","10","","24.1","","98.25","","","","","","Mainly Clear"
"-78.84","48.21","ROUYN-NORANDA A","7086719","2021-11-10 11:00","2021","11","10","11:00","3.1","","-0.6","","77","","","","27","","11","","24.1","","98.28","","","","","","NA"
"-78.84","48.21","ROUYN-NORANDA A","7086719","2021-11-10 12:00","2021","11","10","12:00","5.5","","0.0","","68","","","","25","","15","","24.1","","98.26","","","","","","NA"
"-78.84","48.21","ROUYN-NORANDA A","7086719","2021-11-10 13:00","2021","11","10","13:00","5.3","","-1.4","","62","","","","27","","16","","24.1","","98.23","","","","","","Mostly Cloudy"
"-78.84","48.21","ROUYN-NORANDA A","7086719","2021-11-10 14:00","2021","11","10","14:00","6.3","","-5.2","","44","","","","31","","30","","24.1","","98.28","","","","","","NA"
"-78.84","48.21","ROUYN-NORANDA A","7086719","2021-11-10 15:00","2021","11","10","15:00","4.6","","-5.8","","47","","","","30","","19","","24.1","","98.34","","","","","","NA"
"-78.84","48.21","ROUYN-NORANDA A","7086719","2021-11-10 16:00","2021","11","10","16:00","3.4","","-3.8","","60","","","","32","","12","","24.1","","98.44","","","","","","Mostly Cloudy"
"-78.84","48.21","ROUYN-NORANDA A","7086719","2021-11-10 17:00","2021","11","10","17:00","1.9","","-6.0","","56","","","","33","","16","","24.1","","98.53","","","","","","NA"
"-78.84","48.21","ROUYN-NORANDA A","7086719","2021-11-10 18:00","2021","11","10","18:00","0.6","","-7.2","","56","","","","30","","12","","24.1","","98.63","","","","","","NA"
"-78.84","48.21","ROUYN-NORANDA A","7086719","2021-11-10 19:00","2021","11","10","19:00","-0.5","","-6.7","","63","","","","33","","5","","24.1","","98.71","","","","-2","","Mainly Clear"
"-78.84","48.21","ROUYN-NORANDA A","7086719","2021-11-10 20:00","2021","11","10","20:00","-2.6","","-6.1","","77","","","","36","","3","","24.1","","98.72","","","","-4","","NA"
"-78.84","48.21","ROUYN-NORANDA A","7086719","2021-11-10 21:00","2021","11","10","21:00","-3.9","","-6.3","","83","","","","36","","1","","24.1","","98.78","","","","-4","","NA"
"-78.84","48.21","ROUYN-NORANDA A","7086719","2021-11-10 22:00","2021","11","10","22:00","-4.5","","-6.5","","86","","","","35","","3","","24.1","","98.82","","","","-6","","Mainly Clear"
"-78.84","48.21","ROUYN-NORANDA A","7086719","2021-11-10 23:00","2021","11","10","23:00","-4.1","","-5.7","","89","","","","3","","7","","24.1","","98.83","","","","-7","","NA"
"-78.84","48.21","ROUYN-NORANDA A","7086719","2021-11-11 00:00","2021","11","11","00:00","-4.8","","-6.2","","90","","","","3","","5","","24.1","","98.86","","","","-7","","NA"
"-78.84","48.21","ROUYN-NORANDA A","7086719","2021-11-11 01:00","2021","11","11","01:00","-6.1","","-6.9","","94","","","","8","","4","","24.1","","98.85","","","","-8","","Clear"
"-78.84","48.21","ROUYN-NORANDA A","7086719","2021-11-11 02:00","2021","11","11","02:00","-7.0","","-8.3","","91","","","","7","","3","","24.1","","98.88","","","","-9","","NA"
"-78.84","48.21","ROUYN-NORANDA A","7086719","2021-11-11 03:00","2021","11","11","03:00","-7.4","","-8.7","","91","","","","36","","1","","24.1","","98.92","","","","-8","","NA"
"-78.84","48.21","ROUYN-NORANDA A","7086719","2021-11-11 04:00","2021","11","11","04:00","-7.8","","-8.7","","94","","","","8","","10","","24.1","","98.91","","","","-13","","Clear"
"-78.84","48.21","ROUYN-NORANDA A","7086719","2021-11-11 05:00","2021","11","11","05:00","-7.5","","-8.7","","91","","","","11","","6","","24.1","","98.93","","","","-11","","NA"
"-78.84","48.21","ROUYN-NORANDA A","7086719","2021-11-11 06:00","2021","11","11","06:00","-5.8","","-6.9","","92","","","","10","","8","","24.1","","98.89","","","","-10","","NA"
"-78.84","48.21","ROUYN-NORANDA A","7086719","2021-11-11 07:00","2021","11","11","07:00","-3.7","","-5.0","","91","","","","12","","12","","24.1","","98.90","","","","-8","","Mainly Clear"
"-78.84","48.21","ROUYN-NORANDA A","7086719","2021-11-11 08:00","2021","11","11","08:00","-3.7","","-4.9","","92","","","","10","","10","","24.1","","98.91","","","","-8","","NA"
"-78.84","48.21","ROUYN-NORANDA A","7086719","2021-11-11 09:00","2021","11","11","09:00","-2.0","","-4.2","","85","","","","10","","15","","24.1","","98.84","","","","-7","","NA"
"-78.84","48.21","ROUYN-NORANDA A","7086719","2021-11-11 10:00","2021","11","11","10:00","-1.0","","-4.3","","79","","","","11","","16","","24.1","","98.81","","","","-6","","Mostly Cloudy"
"-78.84","48.21","ROUYN-NORANDA A","7086719","2021-11-11 11:00","2021","11","11","11:00","0.4","","-5.0","","67","","","","12","","22","","24.1","","98.66","","","","","","NA"
"-78.84","48.21","ROUYN-NORANDA A","7086719","2021-11-11 12:00","2021","11","11","12:00","1.0","","-4.8","","65","","","","12","","18","","24.1","","98.56","","","","","","NA"
"-78.84","48.21","ROUYN-NORANDA A","7086719","2021-11-11 13:00","2021","11","11","13:00","1.5","","-4.8","","63","","","","12","","16","","24.1","","98.48","","","","","","Cloudy"
"-78.84","48.21","ROUYN-NORANDA A","7086719","2021-11-11 14:00","2021","11","11","14:00","2.5","","-4.5","","60","","","","14","","26","","24.1","","98.33","","","","","","NA"
"-78.84","48.21","ROUYN-NORANDA A","7086719","2021-11-11 15:00","2021","11","11","15:00","2.5","","-4.3","","61","","","","10","","17","","24.1","","98.29","","","","","","NA"
"-78.84","48.21","ROUYN-NORANDA A","7086719","2021-11-11 16:00","2021","11","11","16:00","2.4","","-4.5","","60","","","","11","","29","","24.1","","98.16","","","","","","Cloudy"
"-78.84","48.21","ROUYN-NORANDA A","7086719","2021-11-11 17:00","2021","11","11","17:00","2.1","","-5.0","","59","","","","11","","20","","24.1","","98.07","","","","","","NA"
"-78.84","48.21","ROUYN-NORANDA A","7086719","2021-11-11 18:00","2021","11","11","18:00","2.1","","-5.3","","58","","","","12","","27","","24.1","","98.01","","","","","","NA"
"-78.84","48.21","ROUYN-NORANDA A","7086719","2021-11-11 19:00","2021","11","11","19:00","2.3","","-5.2","","58","","","","11","","22","","24.1","","97.93","","","","","","Mostly Cloudy"
"-78.84","48.21","ROUYN-NORANDA A","7086719","2021-11-11 20:00","2021","11","11","20:00","2.6","","-4.9","","57","","","","12","","22","","24.1","","97.79","","","","","","NA"
"-78.84","48.21","ROUYN-NORANDA A","7086719","2021-11-11 21:00","2021","11","11","21:00","2.7","","-4.7","","58","","","","12","","23","","24.1","","97.74","","","","","","NA"
"-78.84","48.21","ROUYN-NORANDA A","7086719","2021-11-11 22:00","2021","11","11","22:00","2.9","","-4.8","","57","","","","13","","22","","24.1","","97.66","","","","","","Mostly Cloudy"
"-78.84","48.21","ROUYN-NORANDA A","7086719","2021-11-11 23:00","2021","11","11","23:00","2.9","","-5.0","","56","","","","12","","16","","24.1","","97.56","","","","","","NA"
"-78.84","48.21","ROUYN-NORANDA A","7086719","2021-11-12 00:00","2021","11","12","00:00","3.3","","-4.5","","56","","","","12","","23","","24.1","","97.48","","","","","","NA"
"-78.84","48.21","ROUYN-NORANDA A","7086719","2021-11-12 01:00","2021","11","12","01:00","3.9","","-3.9","","57","","","","13","","19","","24.1","","97.39","","","","","","Mostly Cloudy"
"-78.84","48.21","ROUYN-NORANDA A","7086719","2021-11-12 02:00","2021","11","12","02:00","4.4","","-3.3","","57","","","","13","","17","","24.1","","97.30","","","","","","NA"
"-78.84","48.21","ROUYN-NORANDA A","7086719","2021-11-12 03:00","2021","11","12","03:00","4.4","","-2.7","","60","","","","13","","20","","24.1","","97.20","","","","","","Rain"
"-78.84","48.21","ROUYN-NORANDA A","7086719","2021-11-12 04:00","2021","11","12","04:00","2.9","","0.0","","82","","","","12","","18","","24.1","","97.09","","","","","","Rain"
"-78.84","48.21","ROUYN-NORANDA A","7086719","2021-11-12 05:00","2021","11","12","05:00","2.7","","1.2","","90","","","","13","","18","","24.1","","96.99","","","","","","Rain"
"-78.84","48.21","ROUYN-NORANDA A","7086719","2021-11-12 06:00","2021","11","12","06:00","3.1","","2.0","","93","","","","13","","16","","16.1","","96.85","","","","","","Rain"
"-78.84","48.21","ROUYN-NORANDA A","7086719","2021-11-12 07:00","2021","11","12","07:00","3.7","","3.0","","95","","","","14","","20","","24.1","","96.81","","","","","","Rain"
"-78.84","48.21","ROUYN-NORANDA A","7086719","2021-11-12 08:00","2021","11","12","08:00","4.1","","3.7","","97","","","","16","","21","","4.0","","96.82","","","","","","Rain,Fog"
"-78.84","48.21","ROUYN-NORANDA A","7086719","2021-11-12 09:00","2021","11","12","09:00","4.5","","4.1","","97","","","","17","","14","","6.4","","96.83","","","","","","Rain,Fog"
"-78.84","48.21","ROUYN-NORANDA A","7086719","2021-11-12 10:00","2021","11","12","10:00","5.9","","5.5","","98","","","","20","","15","","8.1","","96.83","","","","","","Rain,Fog"
"-78.84","48.21","ROUYN-NORANDA A","7086719","2021-11-12 11:00","2021","11","12","11:00","7.5","","6.1","","91","","","","21","","20","","24.1","","96.85","","","","","","NA"
"-78.84","48.21","ROUYN-NORANDA A","7086719","2021-11-12 12:00","2021","11","12","12:00","7.1","","4.9","","86","","","","23","","17","","24.1","","96.84","","","","","","NA"
"-78.84","48.21","ROUYN-NORANDA A","7086719","2021-11-12 13:00","2021","11","12","13:00","7.7","","2.9","","72","","","","21","","21","","24.1","","96.80","","","","","","Mostly Cloudy"
"-78.84","48.21","ROUYN-NORANDA A","7086719","2021-11-12 14:00","2021","11","12","14:00","9.2","","1.3","","58","","","","22","","22","","24.1","","96.82","","","","","","NA"
"-78.84","48.21","ROUYN-NORANDA A","7086719","2021-11-12 15:00","2021","11","12","15:00","8.3","","0.0","","55","","","","24","","21","","24.1","","96.83","","","","","","NA"
"-78.84","48.21","ROUYN-NORANDA A","7086719","2021-11-12 16:00","2021","11","12","16:00","7.3","","1.1","","65","","","","20","","18","","24.1","","96.86","","","","","","Mainly Clear"
"-78.84","48.21","ROUYN-NORANDA A","7086719","2021-11-12 17:00","2021","11","12","17:00","4.5","","1.0","","78","","","","18","","9","","24.1","","96.85","","","","","","NA"
"-78.84","48.21","ROUYN-NORANDA A","7086719","2021-11-12 18:00","2021","11","12","18:00","1.9","","1.0","","94","","","","18","","8","","24.1","","96.93","","","","","","Rain Showers"
"-78.84","48.21","ROUYN-NORANDA A","7086719","2021-11-12 19:00","2021","11","12","19:00","1.7","","0.8","","94","","","","19","","6","","24.1","","96.93","","","","","","Mostly Cloudy"
"-78.84","48.21","ROUYN-NORANDA A","7086719","2021-11-12 20:00","2021","11","12","20:00","0.6","","0.4","","98","","","","19","","8","","24.1","","96.92","","","","","","NA"
"-78.84","48.21","ROUYN-NORANDA A","7086719","2021-11-12 21:00","2021","11","12","21:00","1.3","","0.6","","95","","","","19","","13","","24.1","","96.87","","","","","","NA"
"-78.84","48.21","ROUYN-NORANDA A","7086719","2021-11-12 22:00","2021","11","12","22:00","0.8","","0.0","","94","","","","19","","10","","24.1","","96.82","","","","","","Mainly Clear"
"-78.84","48.21","ROUYN-NORANDA A","7086719","2021-11-12 23:00","2021","11","12","23:00","0.7","","0.1","","96","","","","18","","8","","24.1","","96.75","","","","","","NA"
"-78.84","48.21","ROUYN-NORANDA A","7086719","2021-11-13 00:00","2021","11","13","00:00","0.8","","0.3","","96","","","","18","","14","","24.1","","96.72","","","","","","NA"
"-78.84","48.21","ROUYN-NORANDA A","7086719","2021-11-13 01:00","2021","11","13","01:00","0.9","","0.5","","97","","","","18","","13","","24.1","","96.67","","","","","","Mostly Cloudy"
"-78.84","48.21","ROUYN-NORANDA A","7086719","2021-11-13 02:00","2021","11","13","02:00","1.0","","0.7","","98","","","","19","","9","","24.1","","96.61","","","","","","NA"
"-78.84","48.21","ROUYN-NORANDA A","7086719","2021-11-13 03:00","2021","11","13","03:00","1.2","","0.9","","98","","","","18","","9","","24.1","","96.58","","","","","","Rain"
"-78.84","48.21","ROUYN-NORANDA A","7086719","2021-11-13 04:00","2021","11","13","04:00","0.9","","0.6","","98","","","","20","","8","","24.1","","96.53","","","","","","Mostly Cloudy"
"-78.84","48.21","ROUYN-NORANDA A","7086719","2021-11-13 05:00","2021","11","13","05:00","1.1","","0.8","","98","","","","20","","12","","24.1","","96.52","","","","","","NA"
"-78.84","48.21","ROUYN-NORANDA A","7086719","2021-11-13 06:00","2021","11","13","06:00","1.2","","0.8","","97","","","","19","","8","","24.1","","96.49","","","","","","NA"
"-78.84","48.21","ROUYN-NORANDA A","7086719","2021-11-13 07:00","2021","11","13","07:00","1.2","","0.9","","98","","","","19","","7","","12.9","","96.47","","","","","","Drizzle"
"-78.84","48.21","ROUYN-NORANDA A","7086719","2021-11-13 08:00","2021","11","13","08:00","1.4","","1.1","","97","","","","20","","10","","19.3","","96.48","","","","","","NA"
"-78.84","48.21","ROUYN-NORANDA A","7086719","2021-11-13 09:00","2021","11","13","09:00","1.9","","1.4","","97","","","","21","","9","","16.1","","96.46","","","","","","NA"
"-78.84","48.21","ROUYN-NORANDA A","7086719","2021-11-13 10:00","2021","11","13","10:00","2.4","","1.6","","95","","","","23","","13","","19.3","","96.43","","","","","","Drizzle"
"-78.84","48.21","ROUYN-NORANDA A","7086719","2021-11-13 11:00","2021","11","13","11:00","2.9","","0.8","","86","","","","25","","17","","24.1","","96.40","","","","","","NA"
"-78.84","48.21","ROUYN-NORANDA A","7086719","2021-11-13 12:00","2021","11","13","12:00","3.4","","-0.6","","75","","","","25","","20","","24.1","","96.35","","","","","","NA"
"-78.84","48.21","ROUYN-NORANDA A","7086719","2021-11-13 13:00","2021","11","13","13:00","3.7","","-0.5","","74","","","","24","","14","","24.1","","96.32","","","","","","Mostly Cloudy"
"-78.84","48.21","ROUYN-NORANDA A","7086719","2021-11-13 14:00","2021","11","13","14:00","3.1","","-1.0","","74","","","","27","","14","","24.1","","96.30","","","","","","NA"
"-78.84","48.21","ROUYN-NORANDA A","7086719","2021-11-13 15:00","2021","11","13","15:00","2.6","","-1.8","","73","","","","25","","19","","24.1","","96.30","","","","","","NA"
"-78.84","48.21","ROUYN-NORANDA A","7086719","2021-11-13 16:00","2021","11","13","16:00","2.1","","-2.1","","74","","","","24","","23","","24.1","","96.32","","","","","","Mostly Cloudy"
"-78.84","48.21","ROUYN-NORANDA A","7086719","2021-11-13 17:00","2021","11","13","17:00","-0.1","","-1.6","","90","","","","29","","18","","4.0","","96.42","","","","-5","","Snow"
"-78.84","48.21","ROUYN-NORANDA A","7086719","2021-11-13 18:00","2021","11","13","18:00","-0.7","","-1.6","","94","","","","27","","9","","12.9","","96.44","","","","-4","","Snow"
"-78.84","48.21","ROUYN-NORANDA A","7086719","2021-11-13 19:00","2021","11","13","19:00","-1.5","","-1.9","","97","","","","25","","12","","24.1","","96.47","","","","-6","","Snow"
"-78.84","48.21","ROUYN-NORANDA A","7086719","2021-11-13 20:00","2021","11","13","20:00","-2.4","","-2.9","","96","","","","25","","10","","24.1","","96.49","","","","-6","","NA"
"-78.84","48.21","ROUYN-NORANDA A","7086719","2021-11-13 21:00","2021","11","13","21:00","-1.7","","-2.8","","92","","","","27","","13","","24.1","","96.49","","","","-6","","NA"
"-78.84","48.21","ROUYN-NORANDA A","7086719","2021-11-13 22:00","2021","11","13","22:00","-1.4","","-3.0","","89","","","","28","","13","","24.1","","96.53","","","","-6","","Mostly Cloudy"
"-78.84","48.21","ROUYN-NORANDA A","7086719","2021-11-13 23:00","2021","11","13","23:00","-1.6","","-3.1","","90","","","","26","","10","","24.1","","96.56","","","","-5","","NA"
"-78.84","48.21","ROUYN-NORANDA A","7086719","2021-11-14 00:00","2021","11","14","00:00","-1.2","","-4.4","","79","","","","28","","16","","24.1","","96.60","","","","-6","","NA"
"-78.84","48.21","ROUYN-NORANDA A","7086719","2021-11-14 01:00","2021","11","14","01:00","-1.4","","-4.9","","77","","","","28","","14","","24.1","","96.63","","","","-6","","Cloudy"
"-78.84","48.21","ROUYN-NORANDA A","7086719","2021-11-14 02:00","2021","11","14","02:00","-1.7","","-4.3","","82","","","","26","","14","","24.1","","96.67","","","","-6","","Snow"
"-78.84","48.21","ROUYN-NORANDA A","7086719","2021-11-14 03:00","2021","11","14","03:00","-1.8","","-4.0","","85","","","","25","","15","","24.1","","96.68","","","","-7","","Snow"
"-78.84","48.21","ROUYN-NORANDA A","7086719","2021-11-14 04:00","2021","11","14","04:00","-1.8","","-4.4","","83","","","","25","","16","","24.1","","96.67","","","","-7","","Snow Showers"
"-78.84","48.21","ROUYN-NORANDA A","7086719","2021-11-14 05:00","2021","11","14","05:00","-2.1","","-5.3","","79","","","","24","","19","","24.1","","96.69","","","","-8","","Snow Showers"
"-78.84","48.21","ROUYN-NORANDA A","7086719","2021-11-14 06:00","2021","11","14","06:00","-2.1","","-4.7","","82","","","","23","","14","","24.1","","96.72","","","","-7","","Snow Showers"
"-78.84","48.21","ROUYN-NORANDA A","7086719","2021-11-14 07:00","2021","11","14","07:00","-2.7","","-4.8","","86","","","","23","","16","","24.1","","96.77","","","","-8","","Snow Showers"
"-78.84","48.21","ROUYN-NORANDA A","7086719","2021-11-14 08:00","2021","11","14","08:00","-2.5","","-3.8","","90","","","","22","","12","","24.1","","96.78","","","","-7","","NA"
"-78.84","48.21","ROUYN-NORANDA A","7086719","2021-11-14 09:00","2021","11","14","09:00","-1.8","","-3.8","","86","","","","22","","17","","24.1","","96.82","","","","-7","","NA"
"-78.84","48.21","ROUYN-NORANDA A","7086719","2021-11-14 10:00","2021","11","14","10:00","-1.4","","-4.2","","81","","","","23","","19","","24.1","","96.81","","","","-7","","Mostly Cloudy"
"-78.84","48.21","ROUYN-NORANDA A","7086719","2021-11-14 11:00","2021","11","14","11:00","-0.5","","-6.0","","67","","","","26","","22","","24.1","","96.79","","","","-6","","NA"
"-78.84","48.21","ROUYN-NORANDA A","7086719","2021-11-14 12:00","2021","11","14","12:00","0.2","","-5.5","","66","","","","24","","17","","24.1","","96.76","","","","","","NA"
"-78.84","48.21","ROUYN-NORANDA A","7086719","2021-11-14 13:00","2021","11","14","13:00","0.3","","-6.1","","62","","","","26","","19","","24.1","","96.78","","","","","","Cloudy"
"-78.84","48.21","ROUYN-NORANDA A","7086719","2021-11-14 14:00","2021","11","14","14:00","0.1","","-6.0","","63","","","","26","","19","","24.1","","96.78","","","","","","NA"
"-78.84","48.21","ROUYN-NORANDA A","7086719","2021-11-14 15:00","2021","11","14","15:00","0.1","","-5.7","","65","","","","26","","14","","24.1","","96.79","","","","","","Snow"
"-78.84","48.21","ROUYN-NORANDA A","7086719","2021-11-14 16:00","2021","11","14","16:00","-0.1","","-5.9","","65","","","","25","","13","","24.1","","96.84","","","","-4","","Cloudy"
"-78.84","48.21","ROUYN-NORANDA A","7086719","2021-11-14 17:00","2021","11","14","17:00","-0.6","","-5.1","","71","","","","24","","9","","24.1","","96.90","","","","-4","","NA"
"-78.84","48.21","ROUYN-NORANDA A","7086719","2021-11-14 18:00","2021","11","14","18:00","-1.7","","-4.9","","79","","","","26","","7","","24.1","","96.94","","","","-4","","NA"
"-78.84","48.21","ROUYN-NORANDA A","7086719","2021-11-14 19:00","2021","11","14","19:00","-2.1","","-4.7","","82","","","","24","","4","","24.1","","96.97","","","","-4","","Mostly Cloudy"
"-78.84","48.21","ROUYN-NORANDA A","7086719","2021-11-14 20:00","2021","11","14","20:00","-2.9","","-5.0","","86","","","","36","","3","","24.1","","96.96","","","","-4","","NA"
"-78.84","48.21","ROUYN-NORANDA A","7086719","2021-11-14 21:00","2021","11","14","21:00","-3.4","","-5.1","","88","","","","36","","2","","24.1","","96.96","","","","-4","","NA"
"-78.84","48.21","ROUYN-NORANDA A","7086719","2021-11-14 22:00","2021","11","14","22:00","-3.0","","-4.7","","88","","","","21","","3","","24.1","","96.97","","","","-4","","Mostly Cloudy"
"-78.84","48.21","ROUYN-NORANDA A","7086719","2021-11-14 23:00","2021","11","14","23:00","-2.5","","-4.2","","88","","","","19","","5","","24.1","","96.97","","","","-4","","Snow"
"-78.84","48.21","ROUYN-NORANDA A","7086719","2021-11-15 00:00","2021","11","15","00:00","-2.4","","-3.6","","91","","","","22","","4","","19.3","","96.98","","","","-4","","Snow"
"-78.84","48.21","ROUYN-NORANDA A","7086719","2021-11-15 01:00","2021","11","15","01:00","-2.4","","-3.5","","92","","","","36","","3","","24.1","","96.98","","","","-4","","Mostly Cloudy"
"-78.84","48.21","ROUYN-NORANDA A","7086719","2021-11-15 02:00","2021","11","15","02:00","-1.9","","-3.1","","92","","","","28","","4","","24.1","","96.99","","","","-3","","NA"
"-78.84","48.21","ROUYN-NORANDA A","7086719","2021-11-15 03:00","2021","11","15","03:00","-1.6","","-3.0","","90","","","","31","","6","","24.1","","97.00","","","","-4","","Snow"
"-78.84","48.21","ROUYN-NORANDA A","7086719","2021-11-15 04:00","2021","11","15","04:00","-1.7","","-2.9","","91","","","","32","","9","","24.1","","96.99","","","","-5","","Snow"
"-78.84","48.21","ROUYN-NORANDA A","7086719","2021-11-15 05:00","2021","11","15","05:00","-1.6","","-2.4","","94","","","","33","","8","","24.1","","97.02","","","","-5","","Snow"
"-78.84","48.21","ROUYN-NORANDA A","7086719","2021-11-15 06:00","2021","11","15","06:00","-1.8","","-2.7","","94","","","","34","","7","","24.1","","97.05","","","","-4","","Snow"
"-78.84","48.21","ROUYN-NORANDA A","7086719","2021-11-15 07:00","2021","11","15","07:00","-2.7","","-3.5","","94","","","","28","","4","","24.1","","97.11","","","","-4","","Mostly Cloudy"
"-78.84","48.21","ROUYN-NORANDA A","7086719","2021-11-15 08:00","2021","11","15","08:00","-2.2","","-3.6","","91","","","","33","","9","","24.1","","97.19","","","","-6","","NA"
"-78.84","48.21","ROUYN-NORANDA A","7086719","2021-11-15 09:00","2021","11","15","09:00","-1.6","","-3.0","","90","","","","30","","5","","24.1","","97.19","","","","-3","","NA"
"-78.84","48.21","ROUYN-NORANDA A","7086719","2021-11-15 10:00","2021","11","15","10:00","-1.1","","-1.7","","96","","","","29","","5","","1.6","","97.21","","","","-3","","Snow"
"-78.84","48.21","ROUYN-NORANDA A","7086719","2021-11-15 11:00","2021","11","15","11:00","-0.5","","-1.1","","96","","","","31","","6","","2.4","","97.25","","","","-3","","Snow"
"-78.84","48.21","ROUYN-NORANDA A","7086719","2021-11-15 12:00","2021","11","15","12:00","0.2","","-0.7","","93","","","","34","","13","","2.8","","97.24","","","","","","Snow"
"-78.84","48.21","ROUYN-NORANDA A","7086719","2021-11-15 13:00","2021","11","15","13:00","0.9","","-0.9","","87","","","","33","","21","","24.1","","97.26","","","","","","Mostly Cloudy"
"-78.84","48.21","ROUYN-NORANDA A","7086719","2021-11-15 14:00","2021","11","15","14:00","1.5","","-1.1","","83","","","","32","","19","","16.1","","97.29","","","","","","Snow"
"-78.84","48.21","ROUYN-NORANDA A","7086719","2021-11-15 15:00","2021","11","15","15:00","0.3","","-1.9","","86","","","","33","","17","","24.1","","97.36","","","","","","NA"
"-78.84","48.21","ROUYN-NORANDA A","7086719","2021-11-15 16:00","2021","11","15","16:00","-0.2","","-2.9","","82","","","","32","","12","","24.1","","97.44","","","","-4","","Cloudy"
"-78.84","48.21","ROUYN-NORANDA A","7086719","2021-11-15 17:00","2021","11","15","17:00","-0.8","","-3.8","","80","","","","31","","18","","24.1","","97.51","","","","-6","","NA"
"-78.84","48.21","ROUYN-NORANDA A","7086719","2021-11-15 18:00","2021","11","15","18:00","-1.4","","-3.7","","84","","","","31","","16","","24.1","","97.57","","","","-6","","NA"
"-78.84","48.21","ROUYN-NORANDA A","7086719","2021-11-15 19:00","2021","11","15","19:00","-2.0","","-5.4","","78","","","","30","","13","","24.1","","97.61","","","","-6","","Snow"
"-78.84","48.21","ROUYN-NORANDA A","7086719","2021-11-15 20:00","2021","11","15","20:00","-2.8","","-4.8","","87","","","","31","","15","","6.4","","97.62","","","","-8","","Snow"
"-78.84","48.21","ROUYN-NORANDA A","7086719","2021-11-15 21:00","2021","11","15","21:00","-3.2","","-4.3","","92","","","","31","","8","","12.9","","97.64","","","","-6","","Snow"
"-78.84","48.21","ROUYN-NORANDA A","7086719","2021-11-15 22:00","2021","11","15","22:00","-3.2","","-5.8","","82","","","","29","","13","","24.1","","97.66","","","","-8","","Snow"
"-78.84","48.21","ROUYN-NORANDA A","7086719","2021-11-15 23:00","2021","11","15","23:00","-3.3","","-6.7","","78","","","","29","","10","","24.1","","97.66","","","","-7","","Snow"
"-78.84","48.21","ROUYN-NORANDA A","7086719","2021-11-16 00:00","2021","11","16","00:00","-3.6","","-6.9","","78","","","","28","","9","","24.1","","97.69","","","","-7","","NA"
"-78.84","48.21","ROUYN-NORANDA A","7086719","2021-11-16 01:00","2021","11","16","01:00","-4.0","","-6.4","","84","","","","29","","17","","24.1","","97.68","","","","-10","","Mostly Cloudy"
"-78.84","48.21","ROUYN-NORANDA A","7086719","2021-11-16 02:00","2021","11","16","02:00","-4.0","","-7.6","","76","","","","28","","12","","24.1","","97.71","","","","-9","","NA"
"-78.84","48.21","ROUYN-NORANDA A","7086719","2021-11-16 03:00","2021","11","16","03:00","-4.0","","-7.3","","78","","","","29","","13","","24.1","","97.74","","","","-9","","NA"
"-78.84","48.21","ROUYN-NORANDA A","7086719","2021-11-16 04:00","2021","11","16","04:00","-4.2","","-7.1","","80","","","","29","","14","","24.1","","97.76","","","","-9","","Snow"
"-78.84","48.21","ROUYN-NORANDA A","7086719","2021-11-16 05:00","2021","11","16","05:00","-4.5","","-6.4","","87","","","","28","","13","","4.0","","97.80","","","","-10","","Snow"
"-78.84","48.21","ROUYN-NORANDA A","7086719","2021-11-16 06:00","2021","11","16","06:00","-4.7","","-6.4","","88","","","","27","","13","","12.9","","97.84","","","","-10","","Snow"
"-78.84","48.21","ROUYN-NORANDA A","7086719","2021-11-16 07:00","2021","11","16","07:00","-4.4","","-6.2","","87","","","","28","","12","","24.1","","97.92","","","","-9","","Snow"
"-78.84","48.21","ROUYN-NORANDA A","7086719","2021-11-16 08:00","2021","11","16","08:00","-4.1","","-6.1","","86","","","","30","","14","","6.4","","97.98","","","","-9","","Snow"
"-78.84","48.21","ROUYN-NORANDA A","7086719","2021-11-16 09:00","2021","11","16","09:00","-3.7","","-5.8","","85","","","","29","","12","","4.8","","98.00","","","","-8","","Snow Showers"
"-78.84","48.21","ROUYN-NORANDA A","7086719","2021-11-16 10:00","2021","11","16","10:00","-3.7","","-6.9","","79","","","","29","","16","","16.1","","98.08","","","","-9","","Snow Showers"
"-78.84","48.21","ROUYN-NORANDA A","7086719","2021-11-16 11:00","2021","11","16","11:00","-2.9","","-8.3","","67","","","","30","","21","","24.1","","98.13","","","","-9","","NA"
"-78.84","48.21","ROUYN-NORANDA A","7086719","2021-11-16 12:00","2021","11","16","12:00","-2.4","","-9.4","","59","","","","29","","8","","24.1","","98.11","","","","-6","","Snow Showers"
"-78.84","48.21","ROUYN-NORANDA A","7086719","2021-11-16 13:00","2021","11","16","13:00","-2.9","","-8.8","","64","","","","31","","15","","16.1","","98.13","","","","-8","","Snow Showers"
"-78.84","48.21","ROUYN-NORANDA A","7086719","2021-11-16 14:00","2021","11","16","14:00","-2.9","","-9.5","","61","","","","29","","15","","16.1","","98.20","","","","-8","","Snow Showers"
"-78.84","48.21","ROUYN-NORANDA A","7086719","2021-11-16 15:00","2021","11","16","15:00","-2.9","","-9.3","","62","","","","28","","8","","24.1","","98.23","","","","-6","","Snow Showers"
"-78.84","48.21","ROUYN-NORANDA A","7086719","2021-11-16 16:00","2021","11","16","16:00","-3.1","","-9.4","","62","","","","27","","7","","24.1","","98.28","","","","-6","","Snow Showers"
"-78.84","48.21","ROUYN-NORANDA A","7086719","2021-11-16 17:00","2021","11","16","17:00","-3.2","","-10.1","","59","","","","29","","6","","24.1","","98.36","","","","-6","","Snow Showers"
"-78.84","48.21","ROUYN-NORANDA A","7086719","2021-11-16 18:00","2021","11","16","18:00","-3.8","","-9.9","","63","","","","26","","8","","24.1","","98.37","","","","-7","","NA"
"-78.84","48.21","ROUYN-NORANDA A","7086719","2021-11-16 19:00","2021","11","16","19:00","-4.0","","-10.4","","61","","","","29","","10","","24.1","","98.39","","","","-8","","Mostly Cloudy"
"-78.84","48.21","ROUYN-NORANDA A","7086719","2021-11-16 20:00","2021","11","16","20:00","-4.3","","-9.9","","65","","","","21","","5","","24.1","","98.42","","","","-6","","NA"
"-78.84","48.21","ROUYN-NORANDA A","7086719","2021-11-16 21:00","2021","11","16","21:00","-5.7","","-9.7","","74","","","","20","","8","","24.1","","98.42","","","","-9","","NA"
"-78.84","48.21","ROUYN-NORANDA A","7086719","2021-11-16 22:00","2021","11","16","22:00","-7.9","","-11.0","","79","","","","17","","5","","24.1","","98.43","","","","-11","","Clear"
"-78.84","48.21","ROUYN-NORANDA A","7086719","2021-11-16 23:00","2021","11","16","23:00","-8.9","","-11.0","","85","","","","36","","1","","24.1","","98.42","","","","-9","","NA"
"-78.84","48.21","ROUYN-NORANDA A","7086719","2021-11-17 00:00","2021","11","17","00:00","-9.6","","-11.6","","85","","","","36","","2","","24.1","","98.49","","","","-11","","NA"
"-78.84","48.21","ROUYN-NORANDA A","7086719","2021-11-17 01:00","2021","11","17","01:00","-10.5","","-12.0","","89","","","","9","","6","","24.1","","98.45","","","","-14","","Clear"
"-78.84","48.21","ROUYN-NORANDA A","7086719","2021-11-17 02:00","2021","11","17","02:00","-8.4","","-10.3","","86","","","","14","","9","","24.1","","98.43","","","","-13","","NA"
"-78.84","48.21","ROUYN-NORANDA A","7086719","2021-11-17 03:00","2021","11","17","03:00","-8.3","","-10.4","","85","","","","14","","12","","24.1","","98.40","","","","-14","","NA"
"-78.84","48.21","ROUYN-NORANDA A","7086719","2021-11-17 04:00","2021","11","17","04:00","-8.1","","-10.5","","83","","","","14","","12","","24.1","","98.36","","","","-14","","Mostly Cloudy"
"-78.84","48.21","ROUYN-NORANDA A","7086719","2021-11-17 05:00","2021","11","17","05:00","-7.0","","-9.5","","82","","","","14","","14","","24.1","","98.31","","","","-13","","NA"
"-78.84","48.21","ROUYN-NORANDA A","7086719","2021-11-17 06:00","2021","11","17","06:00","-5.9","","-8.8","","80","","","","12","","14","","24.1","","98.22","","","","-11","","NA"
"-78.84","48.21","ROUYN-NORANDA A","7086719","2021-11-17 07:00","2021","11","17","07:00","-5.0","","-8.4","","77","","","","14","","17","","24.1","","98.20","","","","-11","","Mostly Cloudy"
"-78.84","48.21","ROUYN-NORANDA A","7086719","2021-11-17 08:00","2021","11","17","08:00","-5.4","","-6.8","","90","","","","14","","17","","2.0","","98.20","","","","-11","","Snow"
"-78.84","48.21","ROUYN-NORANDA A","7086719","2021-11-17 09:00","2021","11","17","09:00","-4.9","","-6.4","","90","","","","13","","22","","2.0","","98.04","","","","-12","","Snow"
"-78.84","48.21","ROUYN-NORANDA A","7086719","2021-11-17 10:00","2021","11","17","10:00","-4.3","","-5.7","","90","","","","14","","14","","3.2","","97.98","","","","-9","","Snow"
"-78.84","48.21","ROUYN-NORANDA A","7086719","2021-11-17 11:00","2021","11","17","11:00","-3.9","","-5.4","","89","","","","13","","18","","9.7","","97.90","","","","-10","","Snow"
"-78.84","48.21","ROUYN-NORANDA A","7086719","2021-11-17 12:00","2021","11","17","12:00","-3.3","","-4.3","","93","","","","14","","17","","4.0","","97.78","","","","-9","","Freezing Drizzle,Snow"
"-78.84","48.21","ROUYN-NORANDA A","7086719","2021-11-17 13:00","2021","11","17","13:00","-3.0","","-4.1","","93","","","","13","","20","","8.1","","97.60","","","","-9","","Freezing Rain"
"-78.84","48.21","ROUYN-NORANDA A","7086719","2021-11-17 14:00","2021","11","17","14:00","-2.7","","-3.6","","94","","","","14","","24","","2.8","","97.48","","","","-9","","Freezing Rain,Freezing Drizzle"
"-78.84","48.21","ROUYN-NORANDA A","7086719","2021-11-17 15:00","2021","11","17","15:00","-2.4","","-3.2","","94","","","","14","","17","","3.2","","97.44","","","","-8","","Freezing Drizzle"
"-78.84","48.21","ROUYN-NORANDA A","7086719","2021-11-17 16:00","2021","11","17","16:00","-1.9","","-2.6","","95","","","","15","","14","","4.0","","97.38","","","","-7","","Freezing Drizzle"
"-78.84","48.21","ROUYN-NORANDA A","7086719","2021-11-17 17:00","2021","11","17","17:00","-1.7","","-2.4","","95","","","","14","","16","","12.9","","97.36","","","","-7","","Freezing Drizzle"
"-78.84","48.21","ROUYN-NORANDA A","7086719","2021-11-17 18:00","2021","11","17","18:00","-1.5","","-2.1","","96","","","","13","","12","","12.9","","97.28","","","","-6","","Freezing Drizzle"
"-78.84","48.21","ROUYN-NORANDA A","7086719","2021-11-17 19:00","2021","11","17","19:00","-0.9","","-1.5","","96","","","","15","","10","","4.8","","97.27","","","","-4","","Freezing Drizzle,Snow"
"-78.84","48.21","ROUYN-NORANDA A","7086719","2021-11-17 20:00","2021","11","17","20:00","-0.5","","-1.0","","97","","","","16","","15","","4.0","","97.13","","","","-5","","Freezing Drizzle"
"-78.84","48.21","ROUYN-NORANDA A","7086719","2021-11-17 21:00","2021","11","17","21:00","-0.3","","-0.7","","97","","","","15","","10","","3.2","","97.07","","","","-4","","Freezing Drizzle"
"-78.84","48.21","ROUYN-NORANDA A","7086719","2021-11-17 22:00","2021","11","17","22:00","-0.1","","-0.4","","97","","","","16","","16","","4.0","","97.05","","","","-5","","Freezing Drizzle,Fog"
"-78.84","48.21","ROUYN-NORANDA A","7086719","2021-11-17 23:00","2021","11","17","23:00","0.0","","-0.3","","98","","","","16","","11","","3.2","","96.98","","","","-4","","Freezing Drizzle,Fog"
"-78.84","48.21","ROUYN-NORANDA A","7086719","2021-11-18 00:00","2021","11","18","00:00","0.1","","-0.1","","98","","","","19","","9","","3.2","","96.92","","","","","","Drizzle,Fog"
"-78.84","48.21","ROUYN-NORANDA A","7086719","2021-11-18 01:00","2021","11","18","01:00","0.0","","-0.1","","99","","","","17","","8","","3.2","","96.88","","","","-3","","Drizzle,Fog"
"-78.84","48.21","ROUYN-NORANDA A","7086719","2021-11-18 02:00","2021","11","18","02:00","0.1","","0.0","","100","","","","20","","8","","2.4","","96.87","","","","","","Drizzle,Fog"
"-78.84","48.21","ROUYN-NORANDA A","7086719","2021-11-18 03:00","2021","11","18","03:00","0.0","","0.0","","100","","","","21","","4","","1.6","","96.84","","","","-1","","Drizzle,Fog"
"-78.84","48.21","ROUYN-NORANDA A","7086719","2021-11-18 04:00","2021","11","18","04:00","0.1","","0.1","","100","","","","23","","4","","1.2","","96.77","","","","","","Drizzle,Fog"
"-78.84","48.21","ROUYN-NORANDA A","7086719","2021-11-18 05:00","2021","11","18","05:00","0.1","","0.1","","100","","","","20","","5","","2.4","","96.76","","","","","","Drizzle,Fog"
"-78.84","48.21","ROUYN-NORANDA A","7086719","2021-11-18 06:00","2021","11","18","06:00","0.2","","0.2","","100","","","","24","","10","","2.4","","96.81","","","","","","Drizzle,Fog"
"-78.84","48.21","ROUYN-NORANDA A","7086719","2021-11-18 07:00","2021","11","18","07:00","0.1","","0.1","","100","","","","26","","11","","2.4","","96.86","","","","","","Drizzle,Fog"
"-78.84","48.21","ROUYN-NORANDA A","7086719","2021-11-18 08:00","2021","11","18","08:00","0.1","","0.1","","100","","","","24","","10","","1.2","","96.86","","","","","","Fog"
"-78.84","48.21","ROUYN-NORANDA A","7086719","2021-11-18 09:00","2021","11","18","09:00","0.1","","0.1","","100","","","","24","","9","","2.0","","96.87","","","","","","Fog"
"-78.84","48.21","ROUYN-NORANDA A","7086719","2021-11-18 10:00","2021","11","18","10:00","0.2","","0.2","","100","","","","22","","6","","9.7","","96.88","","","","","","Rain Showers,Snow Showers"
"-78.84","48.21","ROUYN-NORANDA A","7086719","2021-11-18 11:00","2021","11","18","11:00","0.6","","0.4","","98","","","","23","","16","","12.9","","96.88","","","","","","Snow Showers"
"-78.84","48.21","ROUYN-NORANDA A","7086719","2021-11-18 12:00","2021","11","18","12:00","0.9","","0.1","","94","","","","23","","16","","19.3","","96.84","","","","","","Rain Showers"
"-78.84","48.21","ROUYN-NORANDA A","7086719","2021-11-18 13:00","2021","11","18","13:00","2.1","","-0.7","","82","","","","24","","23","","24.1","","96.85","","","","","","Rain Showers"
"-78.84","48.21","ROUYN-NORANDA A","7086719","2021-11-18 14:00","2021","11","18","14:00","1.4","","-0.8","","85","","","","24","","18","","24.1","","96.85","","","","","","Rain Showers"
"-78.84","48.21","ROUYN-NORANDA A","7086719","2021-11-18 15:00","2021","11","18","15:00","1.3","","-0.4","","88","","","","24","","13","","24.1","","96.86","","","","","","Rain Showers"
"-78.84","48.21","ROUYN-NORANDA A","7086719","2021-11-18 16:00","2021","11","18","16:00","0.9","","-0.5","","90","","","","24","","12","","24.1","","96.89","","","","","","Snow"
"-78.84","48.21","ROUYN-NORANDA A","7086719","2021-11-18 17:00","2021","11","18","17:00","0.5","","-0.8","","91","","","","21","","10","","24.1","","96.94","","","","","","NA"
"-78.84","48.21","ROUYN-NORANDA A","7086719","2021-11-18 18:00","2021","11","18","18:00","0.6","","-1.2","","88","","","","23","","14","","24.1","","96.99","","","","","","NA"
"-78.84","48.21","ROUYN-NORANDA A","7086719","2021-11-18 19:00","2021","11","18","19:00","0.3","","-2.3","","83","","","","23","","15","","24.1","","97.02","","","","","","Mostly Cloudy"
"-78.84","48.21","ROUYN-NORANDA A","7086719","2021-11-18 20:00","2021","11","18","20:00","0.3","","-3.0","","78","","","","24","","21","","24.1","","97.04","","","","","","NA"
"-78.84","48.21","ROUYN-NORANDA A","7086719","2021-11-18 21:00","2021","11","18","21:00","0.2","","-3.2","","78","","","","24","","24","","24.1","","97.08","","","","","","NA"
"-78.84","48.21","ROUYN-NORANDA A","7086719","2021-11-18 22:00","2021","11","18","22:00","-0.9","","-2.2","","91","","","","27","","16","","12.9","","97.14","","","","-6","","Snow Showers"
"-78.84","48.21","ROUYN-NORANDA A","7086719","2021-11-18 23:00","2021","11","18","23:00","-1.0","","-2.3","","91","","","","25","","13","","24.1","","97.16","","","","-5","","Snow"
"-78.84","48.21","ROUYN-NORANDA A","7086719","2021-11-19 00:00","2021","11","19","00:00","-1.7","","-4.6","","81","","","","30","","24","","24.1","","97.28","","","","-8","","Snow"
"-78.84","48.21","ROUYN-NORANDA A","7086719","2021-11-19 01:00","2021","11","19","01:00","-2.2","","-5.4","","79","","","","28","","23","","24.1","","97.33","","","","-8","","Snow"
"-78.84","48.21","ROUYN-NORANDA A","7086719","2021-11-19 02:00","2021","11","19","02:00","-2.8","","-5.5","","82","","","","29","","18","","24.1","","97.42","","","","-8","","Snow"
"-78.84","48.21","ROUYN-NORANDA A","7086719","2021-11-19 03:00","2021","11","19","03:00","-2.6","","-5.0","","84","","","","28","","19","","12.9","","97.52","","","","-8","","Snow"
"-78.84","48.21","ROUYN-NORANDA A","7086719","2021-11-19 04:00","2021","11","19","04:00","-2.6","","-4.4","","88","","","","28","","17","","16.1","","97.59","","","","-8","","Snow"
"-78.84","48.21","ROUYN-NORANDA A","7086719","2021-11-19 05:00","2021","11","19","05:00","-2.2","","-4.5","","85","","","","28","","21","","24.1","","97.70","","","","-8","","Snow"
"-78.84","48.21","ROUYN-NORANDA A","7086719","2021-11-19 06:00","2021","11","19","06:00","-2.0","","-4.7","","82","","","","30","","19","","19.3","","97.82","","","","-8","","Snow,Blowing Snow"
"-78.84","48.21","ROUYN-NORANDA A","7086719","2021-11-19 07:00","2021","11","19","07:00","-2.1","","-4.4","","84","","","","29","","19","","24.1","","97.93","","","","-8","","Snow,Blowing Snow"
"-78.84","48.21","ROUYN-NORANDA A","7086719","2021-11-19 08:00","2021","11","19","08:00","-2.2","","-4.2","","87","","","","31","","19","","9.7","","98.06","","","","-8","","Snow,Blowing Snow"
"-78.84","48.21","ROUYN-NORANDA A","7086719","2021-11-19 09:00","2021","11","19","09:00","-2.0","","-4.8","","81","","","","32","","22","","12.9","","98.18","","","","-8","","Snow,Blowing Snow"
"-78.84","48.21","ROUYN-NORANDA A","7086719","2021-11-19 10:00","2021","11","19","10:00","-2.2","","-4.9","","82","","","","33","","24","","24.1","","98.31","","","","-9","","Freezing Rain,Snow"
"-78.84","48.21","ROUYN-NORANDA A","7086719","2021-11-19 11:00","2021","11","19","11:00","-1.9","","-6.0","","74","","","","30","","25","","24.1","","98.44","","","","-8","","Snow"
"-78.84","48.21","ROUYN-NORANDA A","7086719","2021-11-19 12:00","2021","11","19","12:00","-1.6","","-6.2","","71","","","","29","","25","","24.1","","98.50","","","","-8","","Snow Showers"
"-78.84","48.21","ROUYN-NORANDA A","7086719","2021-11-19 13:00","2021","11","19","13:00","-1.7","","-6.5","","70","","","","30","","19","","24.1","","98.59","","","","-7","","Snow Showers"
"-78.84","48.21","ROUYN-NORANDA A","7086719","2021-11-19 14:00","2021","11","19","14:00","-1.7","","-7.1","","67","","","","28","","23","","24.1","","98.65","","","","-8","","Snow Showers"
"-78.84","48.21","ROUYN-NORANDA A","7086719","2021-11-19 15:00","2021","11","19","15:00","-1.8","","-7.9","","63","","","","29","","23","","24.1","","98.73","","","","-8","","NA"
"-78.84","48.21","ROUYN-NORANDA A","7086719","2021-11-19 16:00","2021","11","19","16:00","-2.2","","-8.3","","64","","","","29","","16","","24.1","","98.80","","","","-7","","Mostly Cloudy"
"-78.84","48.21","ROUYN-NORANDA A","7086719","2021-11-19 17:00","2021","11","19","17:00","-3.5","","-8.4","","69","","","","28","","9","","24.1","","98.89","","","","-7","","NA"
"-78.84","48.21","ROUYN-NORANDA A","7086719","2021-11-19 18:00","2021","11","19","18:00","-4.4","","-7.9","","77","","","","25","","5","","24.1","","98.94","","","","-7","","NA"
"-78.84","48.21","ROUYN-NORANDA A","7086719","2021-11-19 19:00","2021","11","19","19:00","-3.8","","-7.5","","75","","","","29","","6","","24.1","","98.96","","","","-6","","Mostly Cloudy"
"-78.84","48.21","ROUYN-NORANDA A","7086719","2021-11-19 20:00","2021","11","19","20:00","-3.6","","-8.6","","69","","","","29","","12","","24.1","","98.97","","","","-8","","NA"
"-78.84","48.21","ROUYN-NORANDA A","7086719","2021-11-19 21:00","2021","11","19","21:00","-8.4","","-9.9","","89","","","","22","","5","","24.1","","98.97","","","","-11","","NA"
"-78.84","48.21","ROUYN-NORANDA A","7086719","2021-11-19 22:00","2021","11","19","22:00","-9.8","","-11.0","","92","","","","36","","3","","24.1","","98.96","","","","-12","","Mainly Clear"
"-78.84","48.21","ROUYN-NORANDA A","7086719","2021-11-19 23:00","2021","11","19","23:00","-8.3","","-9.9","","89","","","","20","","8","","24.1","","98.96","","","","-12","","NA"
"-78.84","48.21","ROUYN-NORANDA A","7086719","2021-11-20 00:00","2021","11","20","00:00","-7.4","","-8.6","","91","","","","20","","8","","24.1","","99.00","","","","-11","","NA"
"-78.84","48.21","ROUYN-NORANDA A","7086719","2021-11-20 01:00","2021","11","20","01:00","-6.9","","-8.2","","90","","","","19","","8","","24.1","","99.00","","","","-11","","Mostly Cloudy"
"-78.84","48.21","ROUYN-NORANDA A","7086719","2021-11-20 02:00","2021","11","20","02:00","-7.2","","-8.6","","90","","","","20","","9","","24.1","","98.98","","","","-12","","NA"
"-78.84","48.21","ROUYN-NORANDA A","7086719","2021-11-20 03:00","2021","11","20","03:00","-6.1","","-7.5","","90","","","","19","","9","","24.1","","98.93","","","","-10","","NA"
"-78.84","48.21","ROUYN-NORANDA A","7086719","2021-11-20 04:00","2021","11","20","04:00","-5.9","","-7.1","","91","","","","19","","8","","24.1","","98.87","","","","-10","","Mostly Cloudy"
"-78.84","48.21","ROUYN-NORANDA A","7086719","2021-11-20 05:00","2021","11","20","05:00","-4.8","","-6.6","","87","","","","18","","12","","24.1","","98.83","","","","-10","","NA"
"-78.84","48.21","ROUYN-NORANDA A","7086719","2021-11-20 06:00","2021","11","20","06:00","-4.2","","-6.7","","83","","","","17","","14","","24.1","","98.79","","","","-9","","NA"
"-78.84","48.21","ROUYN-NORANDA A","7086719","2021-11-20 07:00","2021","11","20","07:00","-3.7","","-6.5","","81","","","","17","","18","","24.1","","98.71","","","","-10","","Cloudy"
"-78.84","48.21","ROUYN-NORANDA A","7086719","2021-11-20 08:00","2021","11","20","08:00","-3.3","","-5.7","","83","","","","17","","17","","24.1","","98.68","","","","-9","","NA"
"-78.84","48.21","ROUYN-NORANDA A","7086719","2021-11-20 09:00","2021","11","20","09:00","-2.3","","-4.6","","84","","","","18","","16","","24.1","","98.62","","","","-7","","NA"
"-78.84","48.21","ROUYN-NORANDA A","7086719","2021-11-20 10:00","2021","11","20","10:00","-0.7","","-3.5","","81","","","","18","","14","","24.1","","98.54","","","","-5","","Cloudy"
"-78.84","48.21","ROUYN-NORANDA A","7086719","2021-11-20 11:00","2021","11","20","11:00","1.3","","-2.3","","77","","","","19","","20","","24.1","","98.44","","","","","","NA"
"-78.84","48.21","ROUYN-NORANDA A","7086719","2021-11-20 12:00","2021","11","20","12:00","1.5","","-1.9","","78","","","","20","","19","","24.1","","98.34","","","","","","NA"
"-78.84","48.21","ROUYN-NORANDA A","7086719","2021-11-20 13:00","2021","11","20","13:00","1.3","","-0.6","","87","","","","20","","21","","3.2","","98.27","","","","","","Snow"
"-78.84","48.21","ROUYN-NORANDA A","7086719","2021-11-20 14:00","2021","11","20","14:00","1.1","","0.1","","93","","","","19","","18","","9.7","","98.21","","","","","","Snow"
"-78.84","48.21","ROUYN-NORANDA A","7086719","2021-11-20 15:00","2021","11","20","15:00","1.0","","-0.1","","92","","","","19","","20","","9.7","","98.15","","","","","","Snow,Fog"
"-78.84","48.21","ROUYN-NORANDA A","7086719","2021-11-20 16:00","2021","11","20","16:00","0.4","","-0.3","","96","","","","19","","26","","2.4","","98.12","","","","","","Snow,Fog"
"-78.84","48.21","ROUYN-NORANDA A","7086719","2021-11-20 17:00","2021","11","20","17:00","0.2","","-0.3","","96","","","","19","","27","","1.6","","98.12","","","","","","Snow"
"-78.84","48.21","ROUYN-NORANDA A","7086719","2021-11-20 18:00","2021","11","20","18:00","0.2","","-0.3","","97","","","","19","","21","","9.7","","98.10","","","","","","Snow"
"-78.84","48.21","ROUYN-NORANDA A","7086719","2021-11-20 19:00","2021","11","20","19:00","0.3","","-0.2","","97","","","","19","","19","","4.0","","98.10","","","","","","Snow"
"-78.84","48.21","ROUYN-NORANDA A","7086719","2021-11-20 20:00","2021","11","20","20:00","0.3","","-0.1","","97","","","","21","","21","","4.0","","98.11","","","","","","Snow"
"-78.84","48.21","ROUYN-NORANDA A","7086719","2021-11-20 21:00","2021","11","20","21:00","0.4","","0.0","","97","","","","21","","17","","4.0","","98.10","","","","","","Snow"
"-78.84","48.21","ROUYN-NORANDA A","7086719","2021-11-20 22:00","2021","11","20","22:00","0.5","","0.1","","97","","","","22","","17","","6.4","","98.11","","","","","","Snow"
"-78.84","48.21","ROUYN-NORANDA A","7086719","2021-11-20 23:00","2021","11","20","23:00","0.7","","0.2","","97","","","","23","","14","","8.1","","98.14","","","","","","Snow"
"-78.84","48.21","ROUYN-NORANDA A","7086719","2021-11-21 00:00","2021","11","21","00:00","0.7","","0.4","","97","","","","23","","12","","8.1","","98.17","","","","","","Snow"
"-78.84","48.21","ROUYN-NORANDA A","7086719","2021-11-21 01:00","2021","11","21","01:00","0.7","","0.4","","98","","","","23","","13","","8.1","","98.20","","","","","","Fog"
"-78.84","48.21","ROUYN-NORANDA A","7086719","2021-11-21 02:00","2021","11","21","02:00","-0.1","","-0.4","","98","","","","24","","10","","1.0","","98.25","","","","-3","","Fog"
"-78.84","48.21","ROUYN-NORANDA A","7086719","2021-11-21 03:00","2021","11","21","03:00","-0.5","","-0.6","","99","","","","23","","8","","6.4","","98.29","","","","-3","","Fog"
"-78.84","48.21","ROUYN-NORANDA A","7086719","2021-11-21 04:00","2021","11","21","04:00","-0.6","","-0.7","","99","","","","24","","4","","12.9","","98.32","","","","-2","","Cloudy"
"-78.84","48.21","ROUYN-NORANDA A","7086719","2021-11-21 05:00","2021","11","21","05:00","-0.2","","-0.4","","99","","","","26","","4","","11.3","","98.38","","","","-1","","NA"
"-78.84","48.21","ROUYN-NORANDA A","7086719","2021-11-21 06:00","2021","11","21","06:00","0.0","","-1.2","","92","","","","28","","5","","12.9","","98.40","","","","-2","","NA"
"-78.84","48.21","ROUYN-NORANDA A","7086719","2021-11-21 07:00","2021","11","21","07:00","-1.1","","-1.6","","96","","","","15","","9","","9.7","","98.35","","","","-4","","Fog"
"-78.84","48.21","ROUYN-NORANDA A","7086719","2021-11-21 08:00","2021","11","21","08:00","-0.5","","-1.4","","94","","","","16","","13","","9.7","","98.29","","","","-5","","Fog"
"-78.84","48.21","ROUYN-NORANDA A","7086719","2021-11-21 09:00","2021","11","21","09:00","0.1","","-1.2","","91","","","","16","","14","","19.3","","98.23","","","","","","NA"
"-78.84","48.21","ROUYN-NORANDA A","7086719","2021-11-21 10:00","2021","11","21","10:00","0.8","","-0.5","","91","","","","17","","12","","9.7","","98.14","","","","","","Snow"
"-78.84","48.21","ROUYN-NORANDA A","7086719","2021-11-21 11:00","2021","11","21","11:00","0.8","","-0.9","","88","","","","17","","20","","19.3","","98.04","","","","","","NA"
"-78.84","48.21","ROUYN-NORANDA A","7086719","2021-11-21 12:00","2021","11","21","12:00","2.2","","0.0","","85","","","","16","","21","","19.3","","97.87","","","","","","NA"
"-78.84","48.21","ROUYN-NORANDA A","7086719","2021-11-21 13:00","2021","11","21","13:00","1.6","","-0.1","","88","","","","15","","17","","19.3","","97.70","","","","","","Cloudy"
"-78.84","48.21","ROUYN-NORANDA A","7086719","2021-11-21 14:00","2021","11","21","14:00","1.5","","0.1","","91","","","","15","","19","","12.9","","97.53","","","","","","NA"
"-78.84","48.21","ROUYN-NORANDA A","7086719","2021-11-21 15:00","2021","11","21","15:00","1.5","","0.3","","92","","","","15","","23","","9.7","","97.34","","","","","","Fog"
"-78.84","48.21","ROUYN-NORANDA A","7086719","2021-11-21 16:00","2021","11","21","16:00","1.3","","0.6","","96","","","","16","","22","","4.8","","97.14","","","","","","Rain"
"-78.84","48.21","ROUYN-NORANDA A","7086719","2021-11-21 17:00","2021","11","21","17:00","1.1","","0.6","","96","","","","15","","24","","4.0","","96.97","","","","","","Rain,Snow"
"-78.84","48.21","ROUYN-NORANDA A","7086719","2021-11-21 18:00","2021","11","21","18:00","0.5","","0.1","","97","","","","15","","17","","3.2","","96.82","","","","","","Snow"
"-78.84","48.21","ROUYN-NORANDA A","7086719","2021-11-21 19:00","2021","11","21","19:00","0.4","","0.1","","98","","","","15","","19","","3.2","","96.64","","","","","","Snow"
"-78.84","48.21","ROUYN-NORANDA A","7086719","2021-11-21 20:00","2021","11","21","20:00","0.6","","0.2","","97","","","","16","","26","","3.2","","96.45","","","","","","Snow"
"-78.84","48.21","ROUYN-NORANDA A","7086719","2021-11-21 21:00","2021","11","21","21:00","0.6","","0.2","","97","","","","16","","23","","3.2","","96.24","","","","","","Snow"
"-78.84","48.21","ROUYN-NORANDA A","7086719","2021-11-21 22:00","2021","11","21","22:00","0.9","","0.4","","97","","","","16","","26","","3.6","","96.04","","","","","","Snow"
"-78.84","48.21","ROUYN-NORANDA A","7086719","2021-11-21 23:00","2021","11","21","23:00","0.6","","0.3","","98","","","","18","","21","","3.2","","95.93","","","","","","Snow"
"-78.84","48.21","ROUYN-NORANDA A","7086719","2021-11-22 00:00","2021","11","22","00:00","1.4","","1.1","","97","","","","20","","18","","9.7","","95.84","","","","","","Rain"
"-78.84","48.21","ROUYN-NORANDA A","7086719","2021-11-22 01:00","2021","11","22","01:00","1.4","","0.5","","94","","","","22","","17","","24.1","","95.77","","","","","","Cloudy"
"-78.84","48.21","ROUYN-NORANDA A","7086719","2021-11-22 02:00","2021","11","22","02:00","0.4","","0.0","","97","","","","22","","21","","3.2","","95.71","","","","","","Snow"
"-78.84","48.21","ROUYN-NORANDA A","7086719","2021-11-22 03:00","2021","11","22","03:00","-1.1","","-2.0","","94","","","","25","","39","","1.6","","95.84","","","","-9","","Snow"
"-78.84","48.21","ROUYN-NORANDA A","7086719","2021-11-22 04:00","2021","11","22","04:00","-5.0","","-6.4","","90","","","","27","","23","","4.0","","96.08","","","","-12","","Snow"
"-78.84","48.21","ROUYN-NORANDA A","7086719","2021-11-22 05:00","2021","11","22","05:00","-7.5","","-10.1","","82","","","","27","","19","","24.1","","96.21","","","","-15","","Snow"
"-78.84","48.21","ROUYN-NORANDA A","7086719","2021-11-22 06:00","2021","11","22","06:00","-8.4","","-11.4","","79","","","","26","","23","","24.1","","96.33","","","","-16","","Snow"
"-78.84","48.21","ROUYN-NORANDA A","7086719","2021-11-22 07:00","2021","11","22","07:00","-10.5","","-13.9","","76","","","","27","","28","","19.3","","96.49","","","","-20","","Snow"
"-78.84","48.21","ROUYN-NORANDA A","7086719","2021-11-22 08:00","2021","11","22","08:00","-10.7","","-12.9","","84","","","","27","","23","","3.2","","96.59","","","","-19","","Snow"
"-78.84","48.21","ROUYN-NORANDA A","7086719","2021-11-22 09:00","2021","11","22","09:00","-10.5","","-13.8","","77","","","","26","","25","","9.7","","96.65","","","","-19","","Snow"
"-78.84","48.21","ROUYN-NORANDA A","7086719","2021-11-22 10:00","2021","11","22","10:00","-10.3","","-13.8","","76","","","","28","","35","","3.2","","96.74","","","","-21","","Snow,Blowing Snow"
"-78.84","48.21","ROUYN-NORANDA A","7086719","2021-11-22 11:00","2021","11","22","11:00","-10.3","","-12.8","","82","","","","27","","22","","2.8","","96.81","","","","-19","","Snow,Blowing Snow"
"-78.84","48.21","ROUYN-NORANDA A","7086719","2021-11-22 12:00","2021","11","22","12:00","-10.0","","-13.6","","75","","","","26","","27","","4.8","","96.90","","","","-19","","Snow,Blowing Snow"
"-78.84","48.21","ROUYN-NORANDA A","7086719","2021-11-22 13:00","2021","11","22","13:00","-9.5","","-13.1","","75","","","","27","","27","","9.7","","96.98","","","","-18","","Snow,Blowing Snow"
"-78.84","48.21","ROUYN-NORANDA A","7086719","2021-11-22 14:00","2021","11","22","14:00","-10.3","","-13.6","","77","","","","26","","28","","4.8","","97.07","","","","-20","","Snow,Blowing Snow"
"-78.84","48.21","ROUYN-NORANDA A","7086719","2021-11-22 15:00","2021","11","22","15:00","-9.9","","-12.2","","83","","","","27","","19","","2.4","","97.15","","","","-18","","Snow,Blowing Snow"
"-78.84","48.21","ROUYN-NORANDA A","7086719","2021-11-22 16:00","2021","11","22","16:00","-9.7","","-12.6","","80","","","","26","","21","","9.7","","97.24","","","","-18","","Snow,Blowing Snow"
"-78.84","48.21","ROUYN-NORANDA A","7086719","2021-11-22 17:00","2021","11","22","17:00","-9.5","","-12.2","","81","","","","26","","19","","19.3","","97.33","","","","-17","","Snow"
"-78.84","48.21","ROUYN-NORANDA A","7086719","2021-11-22 18:00","2021","11","22","18:00","-9.4","","-11.8","","82","","","","26","","18","","9.7","","97.38","","","","-17","","Snow"
"-78.84","48.21","ROUYN-NORANDA A","7086719","2021-11-22 19:00","2021","11","22","19:00","-9.9","","-12.1","","84","","","","26","","14","","4.8","","97.43","","","","-16","","Snow"
"-78.84","48.21","ROUYN-NORANDA A","7086719","2021-11-22 20:00","2021","11","22","20:00","-9.8","","-11.7","","86","","","","26","","14","","8.1","","97.44","","","","-16","","Snow"
"-78.84","48.21","ROUYN-NORANDA A","7086719","2021-11-22 21:00","2021","11","22","21:00","-10.1","","-12.2","","85","","","","26","","17","","24.1","","97.47","","","","-17","","Snow"
"-78.84","48.21","ROUYN-NORANDA A","7086719","2021-11-22 22:00","2021","11","22","22:00","-9.4","","-11.5","","85","","","","26","","17","","8.1","","97.50","","","","-16","","Snow"
"-78.84","48.21","ROUYN-NORANDA A","7086719","2021-11-22 23:00","2021","11","22","23:00","-9.4","","-10.7","","90","","","","24","","11","","4.0","","97.52","","","","-15","","Snow"
"-78.84","48.21","ROUYN-NORANDA A","7086719","2021-11-23 00:00","2021","11","23","00:00","-8.8","","-10.5","","88","","","","26","","11","","8.1","","97.54","","","","-14","","Snow"
"-78.84","48.21","ROUYN-NORANDA A","7086719","2021-11-23 01:00","2021","11","23","01:00","-8.5","","-10.4","","86","","","","28","","14","","8.1","","97.61","","","","-15","","Snow"
"-78.84","48.21","ROUYN-NORANDA A","7086719","2021-11-23 02:00","2021","11","23","02:00","-8.5","","-10.8","","83","","","","29","","16","","9.7","","97.73","","","","-15","","Snow"
"-78.84","48.21","ROUYN-NORANDA A","7086719","2021-11-23 03:00","2021","11","23","03:00","-8.7","","-10.6","","86","","","","29","","14","","8.1","","97.79","","","","-15","","Snow"
"-78.84","48.21","ROUYN-NORANDA A","7086719","2021-11-23 04:00","2021","11","23","04:00","-9.1","","-11.2","","85","","","","28","","12","","24.1","","97.81","","","","-15","","Snow"
"-78.84","48.21","ROUYN-NORANDA A","7086719","2021-11-23 05:00","2021","11","23","05:00","-8.6","","-11.0","","83","","","","30","","20","","24.1","","97.88","","","","-16","","Snow"
"-78.84","48.21","ROUYN-NORANDA A","7086719","2021-11-23 06:00","2021","11","23","06:00","-8.8","","-10.8","","85","","","","28","","14","","16.1","","97.95","","","","-15","","Snow"
"-78.84","48.21","ROUYN-NORANDA A","7086719","2021-11-23 07:00","2021","11","23","07:00","-8.7","","-10.6","","87","","","","30","","18","","24.1","","98.02","","","","-16","","Snow"
"-78.84","48.21","ROUYN-NORANDA A","7086719","2021-11-23 08:00","2021","11","23","08:00","-8.7","","-10.3","","88","","","","31","","8","","3.2","","98.08","","","","-13","","Snow"
"-78.84","48.21","ROUYN-NORANDA A","7086719","2021-11-23 09:00","2021","11","23","09:00","-8.6","","-10.4","","87","","","","31","","14","","3.2","","98.18","","","","-15","","Snow"
"-78.84","48.21","ROUYN-NORANDA A","7086719","2021-11-23 10:00","2021","11","23","10:00","-8.7","","-10.6","","86","","","","29","","12","","4.8","","98.24","","","","-14","","Snow"
"-78.84","48.21","ROUYN-NORANDA A","7086719","2021-11-23 11:00","2021","11","23","11:00","-8.2","","-10.2","","86","","","","30","","12","","2.4","","98.29","","","","-14","","Snow"
"-78.84","48.21","ROUYN-NORANDA A","7086719","2021-11-23 12:00","2021","11","23","12:00","-7.9","","-10.2","","84","","","","26","","12","","2.8","","98.28","","","","-13","","Snow"
"-78.84","48.21","ROUYN-NORANDA A","7086719","2021-11-23 13:00","2021","11","23","13:00","-7.9","","-10.1","","84","","","","27","","11","","6.4","","98.25","","","","-13","","Snow"
"-78.84","48.21","ROUYN-NORANDA A","7086719","2021-11-23 14:00","2021","11","23","14:00","-8.1","","-10.1","","86","","","","30","","7","","19.3","","98.20","","","","-12","","Snow"
"-78.84","48.21","ROUYN-NORANDA A","7086719","2021-11-23 15:00","2021","11","23","15:00","-7.3","","-9.8","","82","","","","23","","9","","24.1","","98.23","","","","-12","","Snow"
"-78.84","48.21","ROUYN-NORANDA A","7086719","2021-11-23 16:00","2021","11","23","16:00","-7.2","","-9.2","","86","","","","26","","13","","24.1","","98.29","","","","-13","","Snow"
"-78.84","48.21","ROUYN-NORANDA A","7086719","2021-11-23 17:00","2021","11","23","17:00","-7.7","","-9.3","","88","","","","25","","14","","24.1","","98.31","","","","-14","","NA"
"-78.84","48.21","ROUYN-NORANDA A","7086719","2021-11-23 18:00","2021","11","23","18:00","-7.9","","-9.2","","90","","","","23","","9","","24.1","","98.31","","","","-12","","NA"
"-78.84","48.21","ROUYN-NORANDA A","7086719","2021-11-23 19:00","2021","11","23","19:00","-7.9","","-8.9","","92","","","","18","","8","","24.1","","98.31","","","","-12","","Cloudy"
"-78.84","48.21","ROUYN-NORANDA A","7086719","2021-11-23 20:00","2021","11","23","20:00","-8.4","","-9.5","","92","","","","16","","14","","24.1","","98.25","","","","-15","","NA"
"-78.84","48.21","ROUYN-NORANDA A","7086719","2021-11-23 21:00","2021","11","23","21:00","-8.3","","-9.2","","93","","","","17","","14","","24.1","","98.21","","","","-14","","NA"
"-78.84","48.21","ROUYN-NORANDA A","7086719","2021-11-23 22:00","2021","11","23","22:00","-8.7","","-9.6","","93","","","","15","","10","","24.1","","98.18","","","","-14","","Mostly Cloudy"
"-78.84","48.21","ROUYN-NORANDA A","7086719","2021-11-23 23:00","2021","11","23","23:00","-9.2","","-10.5","","90","","","","16","","13","","24.1","","98.15","","","","-15","","NA"
"-78.84","48.21","ROUYN-NORANDA A","7086719","2021-11-24 00:00","2021","11","24","00:00","-9.4","","-10.7","","90","","","","17","","15","","24.1","","98.12","","","","-16","","NA"
"-78.84","48.21","ROUYN-NORANDA A","7086719","2021-11-24 01:00","2021","11","24","01:00","-9.0","","-10.4","","90","","","","17","","13","","24.1","","98.09","","","","-15","","Mostly Cloudy"
"-78.84","48.21","ROUYN-NORANDA A","7086719","2021-11-24 02:00","2021","11","24","02:00","-7.9","","-9.5","","88","","","","17","","16","","24.1","","98.08","","","","-14","","NA"
"-78.84","48.21","ROUYN-NORANDA A","7086719","2021-11-24 03:00","2021","11","24","03:00","-7.8","","-9.5","","87","","","","17","","12","","24.1","","98.08","","","","-13","","NA"
"-78.84","48.21","ROUYN-NORANDA A","7086719","2021-11-24 04:00","2021","11","24","04:00","-7.2","","-8.9","","88","","","","15","","13","","24.1","","98.05","","","","-13","","Mainly Clear"
"-78.84","48.21","ROUYN-NORANDA A","7086719","2021-11-24 05:00","2021","11","24","05:00","-6.7","","-8.2","","89","","","","17","","14","","24.1","","98.01","","","","-12","","NA"
"-78.84","48.21","ROUYN-NORANDA A","7086719","2021-11-24 06:00","2021","11","24","06:00","-6.3","","-7.7","","90","","","","17","","12","","24.1","","98.01","","","","-11","","NA"
"-78.84","48.21","ROUYN-NORANDA A","7086719","2021-11-24 07:00","2021","11","24","07:00","-6.1","","-7.3","","91","","","","17","","14","","24.1","","98.01","","","","-12","","Mainly Clear"
"-78.84","48.21","ROUYN-NORANDA A","7086719","2021-11-24 08:00","2021","11","24","08:00","-5.3","","-6.7","","90","","","","16","","9","","24.1","","97.98","","","","-9","","NA"
"-78.84","48.21","ROUYN-NORANDA A","7086719","2021-11-24 09:00","2021","11","24","09:00","-3.8","","-5.1","","91","","","","18","","10","","24.1","","97.97","","","","-8","","NA"
"-78.84","48.21","ROUYN-NORANDA A","7086719","2021-11-24 10:00","2021","11","24","10:00","-2.2","","-3.6","","91","","","","19","","17","","24.1","","97.97","","","","-8","","Cloudy"
"-78.84","48.21","ROUYN-NORANDA A","7086719","2021-11-24 11:00","2021","11","24","11:00","-0.8","","-2.4","","89","","","","19","","26","","24.1","","97.90","","","","-7","","NA"
"-78.84","48.21","ROUYN-NORANDA A","7086719","2021-11-24 12:00","2021","11","24","12:00","0.0","","-1.6","","88","","","","18","","19","","24.1","","97.86","","","","-5","","NA"
"-78.84","48.21","ROUYN-NORANDA A","7086719","2021-11-24 13:00","2021","11","24","13:00","0.4","","-1.0","","90","","","","18","","12","","24.1","","97.87","","","","","","Cloudy"
"-78.84","48.21","ROUYN-NORANDA A","7086719","2021-11-24 14:00","2021","11","24","14:00","1.0","","-0.6","","89","","","","17","","9","","24.1","","97.85","","","","","","NA"
"-78.84","48.21","ROUYN-NORANDA A","7086719","2021-11-24 15:00","2021","11","24","15:00","1.6","","-0.2","","88","","","","17","","10","","24.1","","97.82","","","","","","NA"
"-78.84","48.21","ROUYN-NORANDA A","7086719","2021-11-24 16:00","2021","11","24","16:00","1.5","","0.0","","90","","","","18","","9","","24.1","","97.88","","","","","","Rain"
"-78.84","48.21","ROUYN-NORANDA A","7086719","2021-11-24 17:00","2021","11","24","17:00","1.4","","-0.3","","89","","","","16","","11","","24.1","","97.84","","","","","","NA"
"-78.84","48.21","ROUYN-NORANDA A","7086719","2021-11-24 18:00","2021","11","24","18:00","1.6","","-0.4","","86","","","","17","","13","","24.1","","97.80","","","","","","NA"
"-78.84","48.21","ROUYN-NORANDA A","7086719","2021-11-24 19:00","2021","11","24","19:00","1.4","","-0.6","","87","","","","18","","9","","24.1","","97.83","","","","","","Mostly Cloudy"
"-78.84","48.21","ROUYN-NORANDA A","7086719","2021-11-24 20:00","2021","11","24","20:00","0.9","","-0.5","","90","","","","18","","5","","24.1","","97.87","","","","","","NA"
"-78.84","48.21","ROUYN-NORANDA A","7086719","2021-11-24 21:00","2021","11","24","21:00","1.2","","-0.6","","88","","","","16","","8","","24.1","","97.88","","","","","","NA"
"-78.84","48.21","ROUYN-NORANDA A","7086719","2021-11-24 22:00","2021","11","24","22:00","1.0","","-0.7","","89","","","","15","","9","","24.1","","97.83","","","","","","Cloudy"
"-78.84","48.21","ROUYN-NORANDA A","7086719","2021-11-24 23:00","2021","11","24","23:00","1.2","","-0.8","","86","","","","17","","9","","24.1","","97.79","","","","","","NA"
"-78.84","48.21","ROUYN-NORANDA A","7086719","2021-11-25 00:00","2021","11","25","00:00","1.0","","-0.8","","88","","","","19","","8","","24.1","","97.77","","","","","","NA"
"-78.84","48.21","ROUYN-NORANDA A","7086719","2021-11-25 01:00","2021","11","25","01:00","0.9","","-0.6","","90","","","","19","","9","","24.1","","97.71","","","","","","Cloudy"
"-78.84","48.21","ROUYN-NORANDA A","7086719","2021-11-25 02:00","2021","11","25","02:00","1.0","","-0.4","","91","","","","21","","8","","24.1","","97.70","","","","","","Rain"
"-78.84","48.21","ROUYN-NORANDA A","7086719","2021-11-25 03:00","2021","11","25","03:00","1.1","","-0.2","","91","","","","16","","5","","24.1","","97.65","","","","","","Rain"
"-78.84","48.21","ROUYN-NORANDA A","7086719","2021-11-25 04:00","2021","11","25","04:00","1.1","","0.1","","93","","","","17","","8","","24.1","","97.67","","","","","","Rain"
"-78.84","48.21","ROUYN-NORANDA A","7086719","2021-11-25 05:00","2021","11","25","05:00","0.9","","0.2","","95","","","","36","","2","","24.1","","97.66","","","","","","NA"
"-78.84","48.21","ROUYN-NORANDA A","7086719","2021-11-25 06:00","2021","11","25","06:00","0.6","","0.3","","98","","","","7","","4","","8.1","","97.65","","","","","","Rain,Fog"
"-78.84","48.21","ROUYN-NORANDA A","7086719","2021-11-25 07:00","2021","11","25","07:00","0.6","","0.5","","99","","","","13","","4","","3.2","","97.69","","","","","","Drizzle"
"-78.84","48.21","ROUYN-NORANDA A","7086719","2021-11-25 08:00","2021","11","25","08:00","0.8","","0.7","","99","","","","","","0","","8.1","","97.63","","","","","","Fog"
"-78.84","48.21","ROUYN-NORANDA A","7086719","2021-11-25 09:00","2021","11","25","09:00","0.8","","0.7","","99","","","","2","","4","","2.8","","97.63","","","","","","Fog"
"-78.84","48.21","ROUYN-NORANDA A","7086719","2021-11-25 10:00","2021","11","25","10:00","0.8","","0.7","","100","","","","34","","5","","2.0","","97.63","","","","","","Fog"
"-78.84","48.21","ROUYN-NORANDA A","7086719","2021-11-25 11:00","2021","11","25","11:00","0.9","","0.8","","100","","","","36","","8","","2.0","","97.58","","","","","","Fog"
"-78.84","48.21","ROUYN-NORANDA A","7086719","2021-11-25 12:00","2021","11","25","12:00","0.8","","0.5","","98","","","","2","","11","","4.0","","97.52","","","","","","Rain,Fog"
"-78.84","48.21","ROUYN-NORANDA A","7086719","2021-11-25 13:00","2021","11","25","13:00","0.5","","0.1","","97","","","","2","","15","","4.0","","97.47","","","","","","Rain,Fog"
"-78.84","48.21","ROUYN-NORANDA A","7086719","2021-11-25 14:00","2021","11","25","14:00","0.1","","-0.3","","97","","","","1","","13","","2.4","","97.46","","","","","","Snow"
"-78.84","48.21","ROUYN-NORANDA A","7086719","2021-11-25 15:00","2021","11","25","15:00","-0.9","","-1.6","","95","","","","36","","15","","2.4","","97.47","","","","-6","","Snow"
"-78.84","48.21","ROUYN-NORANDA A","7086719","2021-11-25 16:00","2021","11","25","16:00","-1.5","","-2.5","","93","","","","35","","18","","4.0","","97.50","","","","-7","","Snow"
"-78.84","48.21","ROUYN-NORANDA A","7086719","2021-11-25 17:00","2021","11","25","17:00","-2.3","","-3.1","","94","","","","1","","15","","2.4","","97.49","","","","-7","","Snow"
"-78.84","48.21","ROUYN-NORANDA A","7086719","2021-11-25 18:00","2021","11","25","18:00","-2.8","","-3.8","","93","","","","1","","16","","2.4","","97.48","","","","-8","","Snow"
"-78.84","48.21","ROUYN-NORANDA A","7086719","2021-11-25 19:00","2021","11","25","19:00","-3.3","","-4.2","","94","","","","1","","16","","2.4","","97.45","","","","-9","","Snow"
"-78.84","48.21","ROUYN-NORANDA A","7086719","2021-11-25 20:00","2021","11","25","20:00","-3.9","","-5.1","","92","","","","1","","19","","3.2","","97.45","","","","-10","","Snow"
"-78.84","48.21","ROUYN-NORANDA A","7086719","2021-11-25 21:00","2021","11","25","21:00","-5.0","","-6.1","","92","","","","35","","13","","3.2","","97.43","","","","-10","","Snow"
"-78.84","48.21","ROUYN-NORANDA A","7086719","2021-11-25 22:00","2021","11","25","22:00","-6.0","","-7.5","","89","","","","36","","17","","3.2","","97.41","","","","-12","","Snow"
"-78.84","48.21","ROUYN-NORANDA A","7086719","2021-11-25 23:00","2021","11","25","23:00","-6.7","","-8.3","","89","","","","1","","21","","3.2","","97.38","","","","-14","","Snow"
"-78.84","48.21","ROUYN-NORANDA A","7086719","2021-11-26 00:00","2021","11","26","00:00","-7.2","","-8.8","","89","","","","1","","21","","3.2","","97.35","","","","-15","","Snow"
"-78.84","48.21","ROUYN-NORANDA A","7086719","2021-11-26 01:00","2021","11","26","01:00","-7.7","","-9.1","","90","","","","36","","18","","2.8","","97.33","","","","-15","","Snow"
"-78.84","48.21","ROUYN-NORANDA A","7086719","2021-11-26 02:00","2021","11","26","02:00","-8.4","","-9.9","","89","","","","36","","17","","2.8","","97.33","","","","-15","","Snow"
"-78.84","48.21","ROUYN-NORANDA A","7086719","2021-11-26 03:00","2021","11","26","03:00","-8.8","","-10.6","","87","","","","35","","22","","2.8","","97.35","","","","-17","","Snow"
"-78.84","48.21","ROUYN-NORANDA A","7086719","2021-11-26 04:00","2021","11","26","04:00","-9.3","","-11.1","","87","","","","36","","21","","4.0","","97.36","","","","-17","","Snow"
"-78.84","48.21","ROUYN-NORANDA A","7086719","2021-11-26 05:00","2021","11","26","05:00","-10.1","","-11.9","","86","","","","35","","21","","4.0","","97.38","","","","-18","","Snow"
"-78.84","48.21","ROUYN-NORANDA A","7086719","2021-11-26 06:00","2021","11","26","06:00","-10.6","","-12.4","","87","","","","34","","20","","3.2","","97.44","","","","-19","","Snow"
"-78.84","48.21","ROUYN-NORANDA A","7086719","2021-11-26 07:00","2021","11","26","07:00","-10.9","","-12.7","","87","","","","34","","15","","2.4","","97.47","","","","-18","","Snow"
"-78.84","48.21","ROUYN-NORANDA A","7086719","2021-11-26 08:00","2021","11","26","08:00","-11.1","","-12.9","","86","","","","34","","17","","2.0","","97.54","","","","-19","","Snow"
"-78.84","48.21","ROUYN-NORANDA A","7086719","2021-11-26 09:00","2021","11","26","09:00","-10.9","","-13.0","","85","","","","34","","17","","2.4","","97.51","","","","-18","","Snow"
"-78.84","48.21","ROUYN-NORANDA A","7086719","2021-11-26 10:00","2021","11","26","10:00","-10.4","","-12.8","","82","","","","34","","18","","4.8","","97.53","","","","-18","","Snow,Blowing Snow"
"-78.84","48.21","ROUYN-NORANDA A","7086719","2021-11-26 11:00","2021","11","26","11:00","-9.7","","-12.1","","83","","","","33","","16","","4.8","","97.54","","","","-17","","Snow,Blowing Snow"
"-78.84","48.21","ROUYN-NORANDA A","7086719","2021-11-26 12:00","2021","11","26","12:00","-9.0","","-11.6","","82","","","","33","","25","","1.6","","97.53","","","","-17","","Snow,Blowing Snow"
"-78.84","48.21","ROUYN-NORANDA A","7086719","2021-11-26 13:00","2021","11","26","13:00","-8.9","","-11.5","","82","","","","33","","27","","2.8","","97.54","","","","-18","","Snow,Blowing Snow"
"-78.84","48.21","ROUYN-NORANDA A","7086719","2021-11-26 14:00","2021","11","26","14:00","-8.9","","-12.2","","77","","","","33","","26","","8.1","","97.54","","","","-18","","Snow,Blowing Snow"
"-78.84","48.21","ROUYN-NORANDA A","7086719","2021-11-26 15:00","2021","11","26","15:00","-9.2","","-12.0","","80","","","","34","","26","","12.9","","97.54","","","","-18","","Snow,Blowing Snow"
"-78.84","48.21","ROUYN-NORANDA A","7086719","2021-11-26 16:00","2021","11","26","16:00","-9.7","","-11.7","","85","","","","34","","18","","24.1","","97.60","","","","-17","","Snow"
"-78.84","48.21","ROUYN-NORANDA A","7086719","2021-11-26 17:00","2021","11","26","17:00","-9.7","","-11.6","","86","","","","33","","20","","24.1","","97.62","","","","-17","","Snow"
"-78.84","48.21","ROUYN-NORANDA A","7086719","2021-11-26 18:00","2021","11","26","18:00","-11.0","","-13.1","","85","","","","33","","22","","24.1","","97.67","","","","-20","","Snow"
"-78.84","48.21","ROUYN-NORANDA A","7086719","2021-11-26 19:00","2021","11","26","19:00","-11.1","","-13.1","","85","","","","33","","17","","24.1","","97.69","","","","-19","","Snow"
"-78.84","48.21","ROUYN-NORANDA A","7086719","2021-11-26 20:00","2021","11","26","20:00","-12.2","","-14.4","","84","","","","32","","18","","24.1","","97.67","","","","-20","","Snow"
"-78.84","48.21","ROUYN-NORANDA A","7086719","2021-11-26 21:00","2021","11","26","21:00","-13.4","","-15.4","","85","","","","34","","10","","24.1","","97.70","","","","-19","","Snow"
"-78.84","48.21","ROUYN-NORANDA A","7086719","2021-11-26 22:00","2021","11","26","22:00","-14.7","","-16.6","","86","","","","33","","18","","24.1","","97.69","","","","-23","","Snow"
"-78.84","48.21","ROUYN-NORANDA A","7086719","2021-11-26 23:00","2021","11","26","23:00","-15.5","","-17.5","","85","","","","33","","15","","24.1","","97.69","","","","-24","","Snow"
"-78.84","48.21","ROUYN-NORANDA A","7086719","2021-11-27 00:00","2021","11","27","00:00","-16.2","","-18.3","","84","","","","33","","20","","24.1","","97.68","","","","-26","","Snow"
"-78.84","48.21","ROUYN-NORANDA A","7086719","2021-11-27 01:00","2021","11","27","01:00","-15.8","","-17.5","","87","","","","33","","16","","24.1","","97.67","","","","-24","","Snow"
"-78.84","48.21","ROUYN-NORANDA A","7086719","2021-11-27 02:00","2021","11","27","02:00","-16.0","","-17.8","","86","","","","30","","13","","24.1","","97.71","","","","-24","","Snow"
"-78.84","48.21","ROUYN-NORANDA A","7086719","2021-11-27 03:00","2021","11","27","03:00","-16.2","","-17.9","","86","","","","30","","13","","24.1","","97.69","","","","-24","","Snow"
"-78.84","48.21","ROUYN-NORANDA A","7086719","2021-11-27 04:00","2021","11","27","04:00","-16.0","","-17.7","","87","","","","31","","13","","24.1","","97.69","","","","-24","","Snow"
"-78.84","48.21","ROUYN-NORANDA A","7086719","2021-11-27 05:00","2021","11","27","05:00","-16.0","","-17.9","","86","","","","30","","10","","24.1","","97.69","","","","-22","","Snow"
"-78.84","48.21","ROUYN-NORANDA A","7086719","2021-11-27 06:00","2021","11","27","06:00","-16.0","","-17.7","","87","","","","31","","11","","24.1","","97.71","","","","-23","","Snow"
"-78.84","48.21","ROUYN-NORANDA A","7086719","2021-11-27 07:00","2021","11","27","07:00","-16.0","","-17.8","","86","","","","30","","14","","24.1","","97.73","","","","-24","","Snow"
"-78.84","48.21","ROUYN-NORANDA A","7086719","2021-11-27 08:00","2021","11","27","08:00","-15.7","","-17.1","","89","","","","31","","12","","24.1","","97.72","","","","-23","","NA"
"-78.84","48.21","ROUYN-NORANDA A","7086719","2021-11-27 09:00","2021","11","27","09:00","-15.1","","-16.5","","89","","","","30","","13","","16.1","","97.72","","","","-22","","Snow"
"-78.84","48.21","ROUYN-NORANDA A","7086719","2021-11-27 10:00","2021","11","27","10:00","-14.1","","-15.7","","88","","","","31","","12","","9.7","","97.71","","","","-21","","Snow"
"-78.84","48.21","ROUYN-NORANDA A","7086719","2021-11-27 11:00","2021","11","27","11:00","-13.0","","-14.9","","86","","","","29","","17","","4.8","","97.70","","","","-21","","Snow"
"-78.84","48.21","ROUYN-NORANDA A","7086719","2021-11-27 12:00","2021","11","27","12:00","-11.9","","-14.2","","83","","","","29","","18","","4.0","","97.65","","","","-20","","Snow"
"-78.84","48.21","ROUYN-NORANDA A","7086719","2021-11-27 13:00","2021","11","27","13:00","-10.8","","-13.2","","83","","","","30","","13","","3.2","","97.62","","","","-17","","Snow"
"-78.84","48.21","ROUYN-NORANDA A","7086719","2021-11-27 14:00","2021","11","27","14:00","-10.2","","-12.5","","83","","","","30","","9","","4.0","","97.58","","","","-15","","Snow"
"-78.84","48.21","ROUYN-NORANDA A","7086719","2021-11-27 15:00","2021","11","27","15:00","-10.6","","-12.7","","84","","","","31","","15","","9.7","","97.57","","","","-17","","Snow"
"-78.84","48.21","ROUYN-NORANDA A","7086719","2021-11-27 16:00","2021","11","27","16:00","-10.7","","-12.5","","87","","","","30","","11","","4.0","","97.60","","","","-16","","Snow"
"-78.84","48.21","ROUYN-NORANDA A","7086719","2021-11-27 17:00","2021","11","27","17:00","-10.8","","-12.3","","89","","","","31","","8","","3.2","","97.60","","","","-15","","Snow"
"-78.84","48.21","ROUYN-NORANDA A","7086719","2021-11-27 18:00","2021","11","27","18:00","-11.6","","-13.0","","90","","","","32","","14","","4.0","","97.60","","","","-18","","Snow"
"-78.84","48.21","ROUYN-NORANDA A","7086719","2021-11-27 19:00","2021","11","27","19:00","-12.2","","-13.6","","89","","","","30","","5","","4.8","","97.60","","","","-15","","Snow"
"-78.84","48.21","ROUYN-NORANDA A","7086719","2021-11-27 20:00","2021","11","27","20:00","-13.2","","-14.5","","90","","","","27","","8","","4.8","","97.56","","","","-18","","Snow"
"-78.84","48.21","ROUYN-NORANDA A","7086719","2021-11-27 21:00","2021","11","27","21:00","-13.7","","-14.9","","91","","","","27","","12","","3.2","","97.53","","","","-20","","Snow"
"-78.84","48.21","ROUYN-NORANDA A","7086719","2021-11-27 22:00","2021","11","27","22:00","-13.5","","-14.7","","91","","","","30","","5","","24.1","","97.47","","","","-17","","Snow"
"-78.84","48.21","ROUYN-NORANDA A","7086719","2021-11-27 23:00","2021","11","27","23:00","-16.2","","-17.6","","90","","","","36","","1","","24.1","","97.43","","","","-17","","Snow"
"-78.84","48.21","ROUYN-NORANDA A","7086719","2021-11-28 00:00","2021","11","28","00:00","-15.1","","-16.4","","90","","","","36","","2","","24.1","","97.41","","","","-17","","NA"
"-78.84","48.21","ROUYN-NORANDA A","7086719","2021-11-28 01:00","2021","11","28","01:00","-15.0","","-16.6","","88","","","","23","","5","","24.1","","97.39","","","","-19","","Mostly Cloudy"
"-78.84","48.21","ROUYN-NORANDA A","7086719","2021-11-28 02:00","2021","11","28","02:00","-14.5","","-16.0","","88","","","","36","","3","","24.1","","97.38","","","","-17","","NA"
"-78.84","48.21","ROUYN-NORANDA A","7086719","2021-11-28 03:00","2021","11","28","03:00","-14.8","","-16.4","","88","","","","36","","1","","24.1","","97.38","","","","-16","","Snow"
"-78.84","48.21","ROUYN-NORANDA A","7086719","2021-11-28 04:00","2021","11","28","04:00","-14.2","","-15.7","","89","","","","36","","2","","24.1","","97.33","","","","-16","","Snow"
"-78.84","48.21","ROUYN-NORANDA A","7086719","2021-11-28 05:00","2021","11","28","05:00","-14.3","","-15.8","","88","","","","36","","2","","24.1","","97.31","","","","-16","","Snow"
"-78.84","48.21","ROUYN-NORANDA A","7086719","2021-11-28 06:00","2021","11","28","06:00","-13.9","","-15.4","","88","","","","36","","1","","24.1","","97.30","","","","-15","","Snow"
"-78.84","48.21","ROUYN-NORANDA A","7086719","2021-11-28 07:00","2021","11","28","07:00","-15.9","","-17.7","","87","","","","18","","4","","24.1","","97.31","","","","-19","","Mostly Cloudy"
"-78.84","48.21","ROUYN-NORANDA A","7086719","2021-11-28 08:00","2021","11","28","08:00","-14.7","","-16.3","","88","","","","20","","6","","24.1","","97.34","","","","-19","","NA"
"-78.84","48.21","ROUYN-NORANDA A","7086719","2021-11-28 09:00","2021","11","28","09:00","-13.7","","-15.3","","88","","","","19","","5","","24.1","","97.32","","","","-17","","NA"
"-78.84","48.21","ROUYN-NORANDA A","7086719","2021-11-28 10:00","2021","11","28","10:00","-13.0","","-14.6","","88","","","","24","","9","","24.1","","97.37","","","","-18","","Snow"
"-78.84","48.21","ROUYN-NORANDA A","7086719","2021-11-28 11:00","2021","11","28","11:00","-11.5","","-13.2","","88","","","","27","","4","","24.1","","97.37","","","","-14","","NA"
"-78.84","48.21","ROUYN-NORANDA A","7086719","2021-11-28 12:00","2021","11","28","12:00","-10.6","","-12.4","","87","","","","36","","2","","24.1","","97.36","","","","-12","","NA"
"-78.84","48.21","ROUYN-NORANDA A","7086719","2021-11-28 13:00","2021","11","28","13:00","-9.7","","-12.6","","79","","","","36","","2","","24.1","","97.33","","","","-11","","Mostly Cloudy"
"-78.84","48.21","ROUYN-NORANDA A","7086719","2021-11-28 14:00","2021","11","28","14:00","-9.1","","-12.4","","77","","","","36","","1","","24.1","","97.30","","","","-10","","NA"
"-78.84","48.21","ROUYN-NORANDA A","7086719","2021-11-28 15:00","2021","11","28","15:00","-8.0","","-13.9","","63","","","","36","","3","","24.1","","97.36","","","","-10","","NA"
"-78.84","48.21","ROUYN-NORANDA A","7086719","2021-11-28 16:00","2021","11","28","16:00","-8.5","","-13.1","","70","","","","23","","3","","24.1","","97.38","","","","-10","","Mostly Cloudy"
"-78.84","48.21","ROUYN-NORANDA A","7086719","2021-11-28 17:00","2021","11","28","17:00","-9.3","","-11.6","","83","","","","24","","3","","24.1","","97.43","","","","-11","","NA"
"-78.84","48.21","ROUYN-NORANDA A","7086719","2021-11-28 18:00","2021","11","28","18:00","-10.1","","-12.1","","86","","","","21","","4","","24.1","","97.48","","","","-12","","NA"
"-78.84","48.21","ROUYN-NORANDA A","7086719","2021-11-28 19:00","2021","11","28","19:00","-10.0","","-11.7","","87","","","","22","","4","","24.1","","97.51","","","","-12","","Cloudy"
"-78.84","48.21","ROUYN-NORANDA A","7086719","2021-11-28 20:00","2021","11","28","20:00","-9.8","","-11.4","","88","","","","36","","2","","24.1","","97.56","","","","-11","","NA"
"-78.84","48.21","ROUYN-NORANDA A","7086719","2021-11-28 21:00","2021","11","28","21:00","-9.9","","-11.3","","90","","","","21","","3","","24.1","","97.54","","","","-12","","NA"
"-78.84","48.21","ROUYN-NORANDA A","7086719","2021-11-28 22:00","2021","11","28","22:00","-10.2","","-11.5","","90","","","","18","","5","","24.1","","97.56","","","","-13","","Mostly Cloudy"
"-78.84","48.21","ROUYN-NORANDA A","7086719","2021-11-28 23:00","2021","11","28","23:00","-10.5","","-11.7","","91","","","","19","","5","","24.1","","97.56","","","","-14","","NA"
"-78.84","48.21","ROUYN-NORANDA A","7086719","2021-11-29 00:00","2021","11","29","00:00","-10.5","","-11.8","","90","","","","18","","6","","24.1","","97.58","","","","-14","","NA"
"-78.84","48.21","ROUYN-NORANDA A","7086719","2021-11-29 01:00","2021","11","29","01:00","-10.3","","-11.7","","90","","","","19","","5","","24.1","","97.58","","","","-13","","Snow"
"-78.84","48.21","ROUYN-NORANDA A","7086719","2021-11-29 02:00","2021","11","29","02:00","-9.7","","-11.1","","89","","","","21","","3","","9.7","","97.59","","","","-11","","Snow"
"-78.84","48.21","ROUYN-NORANDA A","7086719","2021-11-29 03:00","2021","11","29","03:00","-9.0","","-10.4","","89","","","","22","","6","","9.7","","97.61","","","","-12","","Snow"
"-78.84","48.21","ROUYN-NORANDA A","7086719","2021-11-29 04:00","2021","11","29","04:00","-9.0","","-10.4","","90","","","","23","","9","","16.1","","97.62","","","","-14","","Snow"
"-78.84","48.21","ROUYN-NORANDA A","7086719","2021-11-29 05:00","2021","11","29","05:00","-8.8","","-10.2","","90","","","","23","","8","","24.1","","97.65","","","","-13","","Snow"
"-78.84","48.21","ROUYN-NORANDA A","7086719","2021-11-29 06:00","2021","11","29","06:00","-8.6","","-9.9","","91","","","","24","","9","","24.1","","97.67","","","","-13","","Snow"
"-78.84","48.21","ROUYN-NORANDA A","7086719","2021-11-29 07:00","2021","11","29","07:00","-8.4","","-9.5","","92","","","","23","","7","","16.1","","97.72","","","","-12","","Snow"
"-78.84","48.21","ROUYN-NORANDA A","7086719","2021-11-29 08:00","2021","11","29","08:00","-8.1","","-9.0","","93","","","","23","","5","","12.9","","97.75","","","","-11","","Snow"
"-78.84","48.21","ROUYN-NORANDA A","7086719","2021-11-29 09:00","2021","11","29","09:00","-7.8","","-8.9","","92","","","","24","","5","","19.3","","97.74","","","","-10","","Snow"
"-78.84","48.21","ROUYN-NORANDA A","7086719","2021-11-29 10:00","2021","11","29","10:00","-6.9","","-8.2","","91","","","","23","","7","","8.1","","97.75","","","","-10","","Snow"
"-78.84","48.21","ROUYN-NORANDA A","7086719","2021-11-29 11:00","2021","11","29","11:00","-5.7","","-8.1","","83","","","","27","","11","","16.1","","97.73","","","","-10","","Snow"
"-78.84","48.21","ROUYN-NORANDA A","7086719","2021-11-29 12:00","2021","11","29","12:00","-5.1","","-9.8","","69","","","","28","","16","","24.1","","97.70","","","","-11","","NA"
"-78.84","48.21","ROUYN-NORANDA A","7086719","2021-11-29 13:00","2021","11","29","13:00","-5.2","","-10.1","","69","","","","28","","9","","19.3","","97.68","","","","-9","","Snow"
"-78.84","48.21","ROUYN-NORANDA A","7086719","2021-11-29 14:00","2021","11","29","14:00","-5.4","","-9.2","","75","","","","26","","7","","12.9","","97.68","","","","-9","","Snow"
"-78.84","48.21","ROUYN-NORANDA A","7086719","2021-11-29 15:00","2021","11","29","15:00","-5.4","","-9.3","","75","","","","31","","3","","16.1","","97.68","","","","-7","","NA"
"-78.84","48.21","ROUYN-NORANDA A","7086719","2021-11-29 16:00","2021","11","29","16:00","-5.7","","-9.4","","75","","","","27","","4","","24.1","","97.70","","","","-8","","Snow"
"-78.84","48.21","ROUYN-NORANDA A","7086719","2021-11-29 17:00","2021","11","29","17:00","-6.3","","-9.3","","79","","","","23","","5","","24.1","","97.71","","","","-9","","Snow"
"-78.84","48.21","ROUYN-NORANDA A","7086719","2021-11-29 18:00","2021","11","29","18:00","-6.6","","-8.8","","84","","","","22","","3","","24.1","","97.70","","","","-8","","Snow"
"-78.84","48.21","ROUYN-NORANDA A","7086719","2021-11-29 19:00","2021","11","29","19:00","-6.9","","-8.8","","86","","","","8","","5","","24.1","","97.69","","","","-9","","Snow"
"-78.84","48.21","ROUYN-NORANDA A","7086719","2021-11-29 20:00","2021","11","29","20:00","-7.3","","-8.7","","90","","","","20","","3","","24.1","","97.68","","","","-9","","Snow"
"-78.84","48.21","ROUYN-NORANDA A","7086719","2021-11-29 21:00","2021","11","29","21:00","-7.3","","-8.8","","89","","","","36","","2","","24.1","","97.67","","","","-8","","Snow"
"-78.84","48.21","ROUYN-NORANDA A","7086719","2021-11-29 22:00","2021","11","29","22:00","-7.5","","-8.9","","90","","","","18","","4","","24.1","","97.67","","","","-10","","Snow"
"-78.84","48.21","ROUYN-NORANDA A","7086719","2021-11-29 23:00","2021","11","29","23:00","-7.7","","-8.9","","91","","","","","","0","","24.1","","97.63","","","","","","Snow"
"-78.84","48.21","ROUYN-NORANDA A","7086719","2021-11-30 00:00","2021","11","30","00:00","-7.5","","-8.9","","90","","","","36","","3","","24.1","","97.63","","","","-9","","Snow"
"-78.84","48.21","ROUYN-NORANDA A","7086719","2021-11-30 01:00","2021","11","30","01:00","-7.4","","-8.9","","89","","","","14","","5","","24.1","","97.58","","","","-10","","Snow"
"-78.84","48.21","ROUYN-NORANDA A","7086719","2021-11-30 02:00","2021","11","30","02:00","-7.6","","-9.0","","90","","","","15","","8","","24.1","","97.54","","","","-12","","Snow"
"-78.84","48.21","ROUYN-NORANDA A","7086719","2021-11-30 03:00","2021","11","30","03:00","-7.7","","-9.0","","91","","","","18","","5","","24.1","","97.51","","","","-10","","Snow"
"-78.84","48.21","ROUYN-NORANDA A","7086719","2021-11-30 04:00","2021","11","30","04:00","-7.6","","-8.9","","91","","","","18","","7","","24.1","","97.43","","","","-11","","Snow"
"-78.84","48.21","ROUYN-NORANDA A","7086719","2021-11-30 05:00","2021","11","30","05:00","-7.5","","-8.7","","91","","","","17","","9","","24.1","","97.39","","","","-12","","Snow"
"-78.84","48.21","ROUYN-NORANDA A","7086719","2021-11-30 06:00","2021","11","30","06:00","-7.5","","-8.7","","91","","","","14","","7","","24.1","","97.32","","","","-11","","Snow"
"-78.84","48.21","ROUYN-NORANDA A","7086719","2021-11-30 07:00","2021","11","30","07:00","-7.4","","-8.6","","91","","","","15","","7","","24.1","","97.31","","","","-11","","Cloudy"
"-78.84","48.21","ROUYN-NORANDA A","7086719","2021-11-30 08:00","2021","11","30","08:00","-7.0","","-8.2","","91","","","","17","","10","","24.1","","97.25","","","","-12","","Snow"
"-78.84","48.21","ROUYN-NORANDA A","7086719","2021-11-30 09:00","2021","11","30","09:00","-6.5","","-7.9","","89","","","","19","","10","","24.1","","97.19","","","","-11","","Snow"
"-78.84","48.21","ROUYN-NORANDA A","7086719","2021-11-30 10:00","2021","11","30","10:00","-5.7","","-7.1","","90","","","","18","","14","","24.1","","97.15","","","","-11","","Snow"
"-78.84","48.21","ROUYN-NORANDA A","7086719","2021-11-30 11:00","2021","11","30","11:00","-4.4","","-5.9","","89","","","","20","","14","","2.4","","97.11","","","","-10","","Snow"
"-78.84","48.21","ROUYN-NORANDA A","7086719","2021-11-30 12:00","2021","11","30","12:00","-3.6","","-5.1","","90","","","","20","","15","","4.0","","97.03","","","","-9","","Snow"
"-78.84","48.21","ROUYN-NORANDA A","7086719","2021-11-30 13:00","2021","11","30","13:00","-3.1","","-4.6","","90","","","","19","","14","","3.2","","96.93","","","","-8","","Snow"
"-78.84","48.21","ROUYN-NORANDA A","7086719","2021-11-30 14:00","2021","11","30","14:00","-2.7","","-4.0","","90","","","","19","","11","","4.8","","96.87","","","","-7","","Snow"
"-78.84","48.21","ROUYN-NORANDA A","7086719","2021-11-30 15:00","2021","11","30","15:00","-2.6","","-3.8","","91","","","","19","","16","","4.0","","96.80","","","","-8","","Snow"
"-78.84","48.21","ROUYN-NORANDA A","7086719","2021-11-30 16:00","2021","11","30","16:00","-2.7","","-3.7","","93","","","","18","","13","","4.8","","96.77","","","","-7","","Snow"
"-78.84","48.21","ROUYN-NORANDA A","7086719","2021-11-30 17:00","2021","11","30","17:00","-2.6","","-3.4","","94","","","","18","","12","","2.8","","96.71","","","","-7","","Snow"
"-78.84","48.21","ROUYN-NORANDA A","7086719","2021-11-30 18:00","2021","11","30","18:00","-2.5","","-3.2","","95","","","","20","","13","","4.8","","96.71","","","","-7","","Snow"
"-78.84","48.21","ROUYN-NORANDA A","7086719","2021-11-30 19:00","2021","11","30","19:00","-2.5","","-3.0","","96","","","","21","","9","","4.8","","96.69","","","","-6","","Snow"
"-78.84","48.21","ROUYN-NORANDA A","7086719","2021-11-30 20:00","2021","11","30","20:00","-2.2","","-2.8","","95","","","","21","","15","","6.4","","96.69","","","","-7","","Snow"
"-78.84","48.21","ROUYN-NORANDA A","7086719","2021-11-30 21:00","2021","11","30","21:00","-1.9","","-2.4","","96","","","","26","","16","","3.2","","96.71","","","","-7","","Snow"
"-78.84","48.21","ROUYN-NORANDA A","7086719","2021-11-30 22:00","2021","11","30","22:00","-3.1","","-4.7","","89","","","","32","","21","","3.2","","96.82","","","","-9","","Snow,Blowing Snow"
"-78.84","48.21","ROUYN-NORANDA A","7086719","2021-11-30 23:00","2021","11","30","23:00","-4.8","","-7.5","","82","","","","32","","29","","9.7","","96.93","","","","-13","","Snow,Blowing Snow"
