"Longitude (x)","Latitude (y)","Station Name","Climate ID","Date/Time (LST)","Year","Month","Day","Time (LST)","Temp (°C)","Temp Flag","Dew Point Temp (°C)","Dew Point Temp Flag","Rel Hum (%)","Rel Hum Flag","Precip. Amount (mm)","Precip. Amount Flag","Wind Dir (10s deg)","Wind Dir Flag","Wind Spd (km/h)","Wind Spd Flag","Visibility (km)","Visibility Flag","Stn Press (kPa)","Stn Press Flag","Hmdx","Hmdx Flag","Wind Chill","Wind Chill Flag","Weather"
"-78.84","48.21","ROUYN-NORANDA A","7086719","2021-04-01 00:00","2021","04","01","00:00","-9.9","","-15.2","","65","","","","35","","19","","24.1","","98.63","","","","-18","","NA"
"-78.84","48.21","ROUYN-NORANDA A","7086719","2021-04-01 01:00","2021","04","01","01:00","-10.6","","-16.4","","63","","","","36","","13","","24.1","","98.66","","","","-17","","Mostly Cloudy"
"-78.84","48.21","ROUYN-NORANDA A","7086719","2021-04-01 02:00","2021","04","01","02:00","-11.2","","-17.1","","62","","","","35","","21","","16.1","","98.71","","","","-20","","Snow"
"-78.84","48.21","ROUYN-NORANDA A","7086719","2021-04-01 03:00","2021","04","01","03:00","-11.3","","-16.8","","64","","","","36","","20","","24.1","","98.71","","","","-20","","Snow"
"-78.84","48.21","ROUYN-NORANDA A","7086719","2021-04-01 04:00","2021","04","01","04:00","-11.8","","-17.6","","63","","","","2","","22","","16.1","","98.73","","","","-21","","Snow"
"-78.84","48.21","ROUYN-NORANDA A","7086719","2021-04-01 05:00","2021","04","01","05:00","-12.0","","-17.4","","65","","","","35","","21","","24.1","","98.79","","","","-21","","Snow"
"-78.84","48.21","ROUYN-NORANDA A","7086719","2021-04-01 06:00","2021","04","01","06:00","-12.0","","-17.2","","66","","","","1","","15","","24.1","","98.86","","","","-19","","Snow"
"-78.84","48.21","ROUYN-NORANDA A","7086719","2021-04-01 07:00","2021","04","01","07:00","-12.1","","-16.7","","69","","","","34","","24","","24.1","","98.92","","","","-21","","Snow"
"-78.84","48.21","ROUYN-NORANDA A","7086719","2021-04-01 08:00","2021","04","01","08:00","-11.6","","-17.0","","65","","","","1","","21","","24.1","","98.91","","","","-20","","Snow"
"-78.84","48.21","ROUYN-NORANDA A","7086719","2021-04-01 09:00","2021","04","01","09:00","-11.2","","-18.1","","57","","","","2","","27","","24.1","","98.98","","","","-21","","Snow"
"-78.84","48.21","ROUYN-NORANDA A","7086719","2021-04-01 10:00","2021","04","01","10:00","-9.5","","-16.6","","56","","","","36","","12","","24.1","","99.00","","","","-15","","Mainly Clear"
"-78.84","48.21","ROUYN-NORANDA A","7086719","2021-04-01 11:00","2021","04","01","11:00","-7.4","","-17.4","","45","","","","1","","27","","24.1","","98.96","","","","-16","","NA"
"-78.84","48.21","ROUYN-NORANDA A","7086719","2021-04-01 12:00","2021","04","01","12:00","-5.3","","-16.4","","42","","","","36","","20","","24.1","","98.91","","","","-12","","NA"
"-78.84","48.21","ROUYN-NORANDA A","7086719","2021-04-01 13:00","2021","04","01","13:00","-4.1","","-18.0","","33","","","","34","","20","","24.1","","98.88","","","","-10","","Clear"
"-78.84","48.21","ROUYN-NORANDA A","7086719","2021-04-01 14:00","2021","04","01","14:00","-3.4","","-19.4","","28","","","","1","","29","","24.1","","98.87","","","","-11","","NA"
"-78.84","48.21","ROUYN-NORANDA A","7086719","2021-04-01 15:00","2021","04","01","15:00","-2.7","","-18.4","","29","","","","36","","29","","24.1","","98.87","","","","-10","","NA"
"-78.84","48.21","ROUYN-NORANDA A","7086719","2021-04-01 16:00","2021","04","01","16:00","-2.3","","-18.3","","29","","","","36","","25","","24.1","","98.85","","","","-9","","Clear"
"-78.84","48.21","ROUYN-NORANDA A","7086719","2021-04-01 17:00","2021","04","01","17:00","-2.7","","-18.7","","29","","","","35","","24","","24.1","","98.89","","","","-9","","NA"
"-78.84","48.21","ROUYN-NORANDA A","7086719","2021-04-01 18:00","2021","04","01","18:00","-3.7","","-18.7","","31","","","","36","","27","","24.1","","98.94","","","","-11","","NA"
"-78.84","48.21","ROUYN-NORANDA A","7086719","2021-04-01 19:00","2021","04","01","19:00","-4.7","","-18.8","","33","","","","36","","22","","24.1","","99.01","","","","-12","","Clear"
"-78.84","48.21","ROUYN-NORANDA A","7086719","2021-04-01 20:00","2021","04","01","20:00","-5.6","","-18.5","","36","","","","35","","14","","24.1","","99.10","","","","-11","","NA"
"-78.84","48.21","ROUYN-NORANDA A","7086719","2021-04-01 21:00","2021","04","01","21:00","-6.4","","-18.4","","38","","","","1","","17","","24.1","","99.13","","","","-13","","NA"
"-78.84","48.21","ROUYN-NORANDA A","7086719","2021-04-01 22:00","2021","04","01","22:00","-7.3","","-18.1","","42","","","","1","","14","","24.1","","99.15","","","","-13","","Clear"
"-78.84","48.21","ROUYN-NORANDA A","7086719","2021-04-01 23:00","2021","04","01","23:00","-8.1","","-17.9","","46","","","","1","","14","","24.1","","99.15","","","","-14","","NA"
"-78.84","48.21","ROUYN-NORANDA A","7086719","2021-04-02 00:00","2021","04","02","00:00","-9.1","","-17.9","","49","","","","1","","14","","24.1","","99.15","","","","-15","","NA"
"-78.84","48.21","ROUYN-NORANDA A","7086719","2021-04-02 01:00","2021","04","02","01:00","-9.9","","-17.7","","53","","","","36","","13","","24.1","","99.17","","","","-16","","Clear"
"-78.84","48.21","ROUYN-NORANDA A","7086719","2021-04-02 02:00","2021","04","02","02:00","-10.9","","-17.2","","60","","","","35","","9","","24.1","","99.16","","","","-16","","NA"
"-78.84","48.21","ROUYN-NORANDA A","7086719","2021-04-02 03:00","2021","04","02","03:00","-11.7","","-17.2","","64","","","","34","","8","","24.1","","99.19","","","","-16","","NA"
"-78.84","48.21","ROUYN-NORANDA A","7086719","2021-04-02 04:00","2021","04","02","04:00"
"-78.84","48.21","ROUYN-NORANDA A","7086719","2021-04-02 05:00","2021","04","02","05:00","-12.7","","-17.2","","69","","","","34","","8","","24.1","","99.27","","","","-18","","NA"
"-78.84","48.21","ROUYN-NORANDA A","7086719","2021-04-02 06:00","2021","04","02","06:00","-13.2","","-17.9","","68","","","","36","","5","","24.1","","99.32","","","","-17","","NA"
"-78.84","48.21","ROUYN-NORANDA A","7086719","2021-04-02 07:00","2021","04","02","07:00","-11.8","","-17.6","","62","","","","35","","9","","24.1","","99.36","","","","-17","","Clear"
"-78.84","48.21","ROUYN-NORANDA A","7086719","2021-04-02 08:00","2021","04","02","08:00","-9.9","","-18.5","","50","","","","3","","14","","24.1","","99.40","","","","-16","","NA"
"-78.84","48.21","ROUYN-NORANDA A","7086719","2021-04-02 09:00","2021","04","02","09:00","-7.1","","-19.1","","38","","","","3","","16","","24.1","","99.39","","","","-13","","NA"
"-78.84","48.21","ROUYN-NORANDA A","7086719","2021-04-02 10:00","2021","04","02","10:00","-5.2","","-18.6","","35","","","","3","","21","","24.1","","99.34","","","","-12","","Clear"
"-78.84","48.21","ROUYN-NORANDA A","7086719","2021-04-02 11:00","2021","04","02","11:00","-3.1","","-18.0","","31","","","","36","","13","","24.1","","99.26","","","","-8","","NA"
"-78.84","48.21","ROUYN-NORANDA A","7086719","2021-04-02 12:00","2021","04","02","12:00","-2.3","","-18.6","","28","","","","34","","12","","24.1","","99.19","","","","-7","","NA"
"-78.84","48.21","ROUYN-NORANDA A","7086719","2021-04-02 13:00","2021","04","02","13:00","-1.1","","-18.3","","26","","","","34","","15","","24.1","","99.15","","","","-6","","Clear"
"-78.84","48.21","ROUYN-NORANDA A","7086719","2021-04-02 14:00","2021","04","02","14:00","-0.3","","-16.6","","28","","","","32","","19","","24.1","","99.07","","","","-5","","NA"
"-78.84","48.21","ROUYN-NORANDA A","7086719","2021-04-02 15:00","2021","04","02","15:00","0.9","","-17.3","","25","","","","35","","10","","24.1","","98.98","","","","","","NA"
"-78.84","48.21","ROUYN-NORANDA A","7086719","2021-04-02 16:00","2021","04","02","16:00","1.1","","-18.3","","22","","","","35","","19","","24.1","","98.96","","","","","","Clear"
"-78.84","48.21","ROUYN-NORANDA A","7086719","2021-04-02 17:00","2021","04","02","17:00","1.0","","-16.5","","26","","","","32","","14","","24.1","","98.91","","","","","","NA"
"-78.84","48.21","ROUYN-NORANDA A","7086719","2021-04-02 18:00","2021","04","02","18:00","0.4","","-17.3","","25","","","","31","","8","","24.1","","98.87","","","","","","NA"
"-78.84","48.21","ROUYN-NORANDA A","7086719","2021-04-02 19:00","2021","04","02","19:00","-1.5","","-17.0","","30","","","","29","","6","","24.1","","98.84","","","","-4","","Clear"
"-78.84","48.21","ROUYN-NORANDA A","7086719","2021-04-02 20:00","2021","04","02","20:00","-2.2","","-15.9","","35","","","","31","","5","","24.1","","98.81","","","","-4","","NA"
"-78.84","48.21","ROUYN-NORANDA A","7086719","2021-04-02 21:00","2021","04","02","21:00","-5.7","","-12.5","","59","","","","36","","2","","24.1","","98.78","","","","-7","","NA"
"-78.84","48.21","ROUYN-NORANDA A","7086719","2021-04-02 22:00","2021","04","02","22:00","-7.0","","-12.8","","64","","","","36","","2","","24.1","","98.73","","","","-8","","Clear"
"-78.84","48.21","ROUYN-NORANDA A","7086719","2021-04-02 23:00","2021","04","02","23:00","-7.9","","-12.6","","69","","","","36","","3","","24.1","","98.68","","","","-9","","NA"
"-78.84","48.21","ROUYN-NORANDA A","7086719","2021-04-03 00:00","2021","04","03","00:00","-8.0","","-11.3","","77","","","","36","","2","","24.1","","98.64","","","","-9","","NA"
"-78.84","48.21","ROUYN-NORANDA A","7086719","2021-04-03 01:00","2021","04","03","01:00","-9.3","","-12.7","","77","","","","36","","3","","24.1","","98.64","","","","-11","","Clear"
"-78.84","48.21","ROUYN-NORANDA A","7086719","2021-04-03 02:00","2021","04","03","02:00","-9.0","","-13.9","","68","","","","21","","6","","24.1","","98.61","","","","-12","","NA"
"-78.84","48.21","ROUYN-NORANDA A","7086719","2021-04-03 03:00","2021","04","03","03:00","-9.5","","-13.7","","72","","","","20","","8","","24.1","","98.62","","","","-14","","NA"
"-78.84","48.21","ROUYN-NORANDA A","7086719","2021-04-03 04:00","2021","04","03","04:00","-8.9","","-14.5","","64","","","","22","","3","","24.1","","98.52","","","","-11","","Clear"
"-78.84","48.21","ROUYN-NORANDA A","7086719","2021-04-03 05:00","2021","04","03","05:00","-8.8","","-14.5","","64","","","","20","","6","","24.1","","98.48","","","","-12","","NA"
"-78.84","48.21","ROUYN-NORANDA A","7086719","2021-04-03 06:00","2021","04","03","06:00","-7.7","","-14.9","","56","","","","19","","9","","24.1","","98.46","","","","-12","","NA"
"-78.84","48.21","ROUYN-NORANDA A","7086719","2021-04-03 07:00","2021","04","03","07:00","-6.6","","-13.6","","58","","","","19","","8","","24.1","","98.44","","","","-10","","Mainly Clear"
"-78.84","48.21","ROUYN-NORANDA A","7086719","2021-04-03 08:00","2021","04","03","08:00","-2.8","","-12.3","","48","","","","20","","12","","24.1","","98.35","","","","-7","","NA"
"-78.84","48.21","ROUYN-NORANDA A","7086719","2021-04-03 09:00","2021","04","03","09:00","0.8","","-10.6","","42","","","","19","","14","","24.1","","98.25","","","","","","NA"
"-78.84","48.21","ROUYN-NORANDA A","7086719","2021-04-03 10:00","2021","04","03","10:00","3.0","","-10.3","","37","","","","22","","20","","24.1","","98.20","","","","","","Cloudy"
"-78.84","48.21","ROUYN-NORANDA A","7086719","2021-04-03 11:00","2021","04","03","11:00","3.9","","-8.9","","39","","","","22","","17","","24.1","","98.16","","","","","","NA"
"-78.84","48.21","ROUYN-NORANDA A","7086719","2021-04-03 12:00","2021","04","03","12:00","5.0","","-7.9","","39","","","","20","","19","","24.1","","98.10","","","","","","NA"
"-78.84","48.21","ROUYN-NORANDA A","7086719","2021-04-03 13:00","2021","04","03","13:00","6.2","","-7.6","","37","","","","22","","26","","24.1","","98.05","","","","","","Cloudy"
"-78.84","48.21","ROUYN-NORANDA A","7086719","2021-04-03 14:00","2021","04","03","14:00","6.5","","-6.7","","38","","","","24","","22","","24.1","","98.02","","","","","","NA"
"-78.84","48.21","ROUYN-NORANDA A","7086719","2021-04-03 15:00","2021","04","03","15:00","6.4","","-7.7","","36","","","","23","","33","","24.1","","98.01","","","","","","NA"
"-78.84","48.21","ROUYN-NORANDA A","7086719","2021-04-03 16:00","2021","04","03","16:00","6.1","","-5.9","","42","","","","21","","17","","24.1","","97.98","","","","","","Cloudy"
"-78.84","48.21","ROUYN-NORANDA A","7086719","2021-04-03 17:00","2021","04","03","17:00","6.5","","-5.9","","41","","","","20","","14","","24.1","","97.99","","","","","","NA"
"-78.84","48.21","ROUYN-NORANDA A","7086719","2021-04-03 18:00","2021","04","03","18:00","6.3","","-5.6","","42","","","","21","","13","","24.1","","98.02","","","","","","NA"
"-78.84","48.21","ROUYN-NORANDA A","7086719","2021-04-03 19:00","2021","04","03","19:00","4.8","","-5.6","","47","","","","16","","7","","24.1","","98.03","","","","","","Cloudy"
"-78.84","48.21","ROUYN-NORANDA A","7086719","2021-04-03 20:00","2021","04","03","20:00","4.8","","-5.6","","47","","","","19","","11","","24.1","","98.06","","","","","","NA"
"-78.84","48.21","ROUYN-NORANDA A","7086719","2021-04-03 21:00","2021","04","03","21:00","4.5","","-5.6","","48","","","","21","","14","","24.1","","98.09","","","","","","NA"
"-78.84","48.21","ROUYN-NORANDA A","7086719","2021-04-03 22:00","2021","04","03","22:00","4.0","","-5.9","","49","","","","22","","13","","24.1","","98.10","","","","","","Cloudy"
"-78.84","48.21","ROUYN-NORANDA A","7086719","2021-04-03 23:00","2021","04","03","23:00","3.6","","-5.9","","50","","","","20","","13","","24.1","","98.09","","","","","","NA"
"-78.84","48.21","ROUYN-NORANDA A","7086719","2021-04-04 00:00","2021","04","04","00:00","3.0","","-6.1","","51","","","","22","","9","","24.1","","98.11","","","","","","NA"
"-78.84","48.21","ROUYN-NORANDA A","7086719","2021-04-04 01:00","2021","04","04","01:00","2.6","","-5.8","","54","","","","21","","9","","24.1","","98.13","","","","","","Cloudy"
"-78.84","48.21","ROUYN-NORANDA A","7086719","2021-04-04 02:00","2021","04","04","02:00","1.8","","-5.7","","57","","","","23","","6","","24.1","","98.14","","","","","","NA"
"-78.84","48.21","ROUYN-NORANDA A","7086719","2021-04-04 03:00","2021","04","04","03:00","1.4","","-5.4","","61","","","","24","","5","","24.1","","98.18","","","","","","NA"
"-78.84","48.21","ROUYN-NORANDA A","7086719","2021-04-04 04:00","2021","04","04","04:00","0.6","","-4.8","","67","","","","","","0","","24.1","","98.22","","","","","","Mostly Cloudy"
"-78.84","48.21","ROUYN-NORANDA A","7086719","2021-04-04 05:00","2021","04","04","05:00","-0.9","","-4.4","","77","","","","0","","1","","24.1","","98.27","","","","-1","","NA"
"-78.84","48.21","ROUYN-NORANDA A","7086719","2021-04-04 06:00","2021","04","04","06:00","-2.4","","-4.4","","86","","","","25","","4","","24.1","","98.33","","","","-4","","NA"
"-78.84","48.21","ROUYN-NORANDA A","7086719","2021-04-04 07:00","2021","04","04","07:00","0.8","","-2.9","","76","","","","30","","7","","24.1","","98.40","","","","","","Clear"
"-78.84","48.21","ROUYN-NORANDA A","7086719","2021-04-04 08:00","2021","04","04","08:00","3.1","","-1.8","","70","","","","36","","15","","24.1","","98.45","","","","","","NA"
"-78.84","48.21","ROUYN-NORANDA A","7086719","2021-04-04 09:00","2021","04","04","09:00","4.8","","-1.6","","63","","","","34","","17","","24.1","","98.49","","","","","","NA"
"-78.84","48.21","ROUYN-NORANDA A","7086719","2021-04-04 10:00","2021","04","04","10:00","6.2","","-1.6","","57","","","","32","","13","","24.1","","98.51","","","","","","Clear"
"-78.84","48.21","ROUYN-NORANDA A","7086719","2021-04-04 11:00","2021","04","04","11:00","7.5","","-1.5","","53","","","","34","","7","","24.1","","98.54","","","","","","NA"
"-78.84","48.21","ROUYN-NORANDA A","7086719","2021-04-04 12:00","2021","04","04","12:00","8.3","","-1.8","","49","","","","30","","14","","24.1","","98.53","","","","","","NA"
"-78.84","48.21","ROUYN-NORANDA A","7086719","2021-04-04 13:00","2021","04","04","13:00","9.9","","-2.0","","43","","","","31","","7","","24.1","","98.53","","","","","","Mainly Clear"
"-78.84","48.21","ROUYN-NORANDA A","7086719","2021-04-04 14:00","2021","04","04","14:00","10.5","","-3.1","","38","","","","34","","15","","24.1","","98.52","","","","","","NA"
"-78.84","48.21","ROUYN-NORANDA A","7086719","2021-04-04 15:00","2021","04","04","15:00","11.1","","-3.3","","36","","","","33","","17","","24.1","","98.48","","","","","","NA"
"-78.84","48.21","ROUYN-NORANDA A","7086719","2021-04-04 16:00","2021","04","04","16:00","10.9","","-3.3","","37","","","","30","","9","","24.1","","98.51","","","","","","Clear"
"-78.84","48.21","ROUYN-NORANDA A","7086719","2021-04-04 17:00","2021","04","04","17:00","10.1","","-4.1","","37","","","","32","","12","","24.1","","98.55","","","","","","NA"
"-78.84","48.21","ROUYN-NORANDA A","7086719","2021-04-04 18:00","2021","04","04","18:00","9.3","","-5.0","","36","","","","35","","10","","24.1","","98.56","","","","","","NA"
"-78.84","48.21","ROUYN-NORANDA A","7086719","2021-04-04 19:00","2021","04","04","19:00","7.2","","-5.0","","42","","","","34","","6","","24.1","","98.55","","","","","","Mainly Clear"
"-78.84","48.21","ROUYN-NORANDA A","7086719","2021-04-04 20:00","2021","04","04","20:00","1.3","","-6.0","","58","","","","36","","2","","24.1","","98.61","","","","","","NA"
"-78.84","48.21","ROUYN-NORANDA A","7086719","2021-04-04 21:00","2021","04","04","21:00","-0.8","","-5.1","","73","","","","36","","2","","24.1","","98.64","","","","-1","","NA"
"-78.84","48.21","ROUYN-NORANDA A","7086719","2021-04-04 22:00","2021","04","04","22:00","-0.4","","-5.1","","70","","","","5","","8","","24.1","","98.68","","","","-3","","Mainly Clear"
"-78.84","48.21","ROUYN-NORANDA A","7086719","2021-04-04 23:00","2021","04","04","23:00","0.9","","-4.8","","66","","","","5","","13","","24.1","","98.73","","","","","","NA"
"-78.84","48.21","ROUYN-NORANDA A","7086719","2021-04-05 00:00","2021","04","05","00:00","-1.5","","-4.8","","78","","","","6","","8","","24.1","","98.74","","","","-5","","NA"
"-78.84","48.21","ROUYN-NORANDA A","7086719","2021-04-05 01:00","2021","04","05","01:00","-2.4","","-4.8","","84","","","","5","","9","","24.1","","98.75","","","","-6","","Clear"
"-78.84","48.21","ROUYN-NORANDA A","7086719","2021-04-05 02:00","2021","04","05","02:00","-1.8","","-3.9","","86","","","","6","","7","","24.1","","98.72","","","","-4","","NA"
"-78.84","48.21","ROUYN-NORANDA A","7086719","2021-04-05 03:00","2021","04","05","03:00","-3.6","","-4.5","","94","","","","36","","2","","24.1","","98.71","","","","-4","","NA"
"-78.84","48.21","ROUYN-NORANDA A","7086719","2021-04-05 04:00","2021","04","05","04:00","-4.8","","-6.1","","90","","","","36","","1","","24.1","","98.72","","","","-5","","Clear"
"-78.84","48.21","ROUYN-NORANDA A","7086719","2021-04-05 05:00","2021","04","05","05:00","-5.4","","-6.9","","90","","","","0","","1","","24.1","","98.75","","","","-6","","NA"
"-78.84","48.21","ROUYN-NORANDA A","7086719","2021-04-05 06:00","2021","04","05","06:00","-5.5","","-6.2","","95","","","","8","","5","","24.1","","98.76","","","","-8","","NA"
"-78.84","48.21","ROUYN-NORANDA A","7086719","2021-04-05 07:00","2021","04","05","07:00","-2.9","","-4.0","","92","","","","0","","1","","24.1","","98.80","","","","-3","","Mainly Clear"
"-78.84","48.21","ROUYN-NORANDA A","7086719","2021-04-05 08:00","2021","04","05","08:00","0.6","","-2.4","","80","","","","4","","8","","24.1","","98.79","","","","","","NA"
"-78.84","48.21","ROUYN-NORANDA A","7086719","2021-04-05 09:00","2021","04","05","09:00","3.4","","-1.9","","68","","","","5","","8","","24.1","","98.80","","","","","","NA"
"-78.84","48.21","ROUYN-NORANDA A","7086719","2021-04-05 10:00","2021","04","05","10:00","5.0","","-3.0","","56","","","","11","","13","","24.1","","98.78","","","","","","Mainly Clear"
"-78.84","48.21","ROUYN-NORANDA A","7086719","2021-04-05 11:00","2021","04","05","11:00","5.9","","-3.6","","51","","","","11","","13","","24.1","","98.73","","","","","","NA"
"-78.84","48.21","ROUYN-NORANDA A","7086719","2021-04-05 12:00","2021","04","05","12:00","8.2","","-2.6","","46","","","","12","","8","","24.1","","98.64","","","","","","NA"
"-78.84","48.21","ROUYN-NORANDA A","7086719","2021-04-05 13:00","2021","04","05","13:00","9.1","","-4.9","","37","","","","6","","14","","24.1","","98.57","","","","","","Mainly Clear"
"-78.84","48.21","ROUYN-NORANDA A","7086719","2021-04-05 14:00","2021","04","05","14:00","9.8","","-4.9","","35","","","","3","","15","","24.1","","98.53","","","","","","NA"
"-78.84","48.21","ROUYN-NORANDA A","7086719","2021-04-05 15:00","2021","04","05","15:00","10.1","","-5.0","","34","","","","7","","17","","24.1","","98.48","","","","","","NA"
"-78.84","48.21","ROUYN-NORANDA A","7086719","2021-04-05 16:00","2021","04","05","16:00","10.4","","-4.9","","34","","","","36","","2","","24.1","","98.42","","","","","","Mainly Clear"
"-78.84","48.21","ROUYN-NORANDA A","7086719","2021-04-05 17:00","2021","04","05","17:00","10.2","","-6.8","","30","","","","10","","9","","24.1","","98.40","","","","","","NA"
"-78.84","48.21","ROUYN-NORANDA A","7086719","2021-04-05 18:00","2021","04","05","18:00","9.9","","-5.7","","33","","","","9","","10","","24.1","","98.42","","","","","","NA"
"-78.84","48.21","ROUYN-NORANDA A","7086719","2021-04-05 19:00","2021","04","05","19:00","6.3","","-5.6","","42","","","","12","","6","","24.1","","98.40","","","","","","Mainly Clear"
"-78.84","48.21","ROUYN-NORANDA A","7086719","2021-04-05 20:00","2021","04","05","20:00","0.8","","-6.8","","57","","","","9","","10","","24.1","","98.40","","","","","","NA"
"-78.84","48.21","ROUYN-NORANDA A","7086719","2021-04-05 21:00","2021","04","05","21:00","0.3","","-7.3","","57","","","","9","","7","","24.1","","98.40","","","","","","NA"
"-78.84","48.21","ROUYN-NORANDA A","7086719","2021-04-05 22:00","2021","04","05","22:00","-1.7","","-6.5","","70","","","","36","","3","","24.1","","98.40","","","","-3","","Clear"
"-78.84","48.21","ROUYN-NORANDA A","7086719","2021-04-05 23:00","2021","04","05","23:00","0.8","","-8.9","","49","","","","9","","7","","24.1","","98.41","","","","","","NA"
"-78.84","48.21","ROUYN-NORANDA A","7086719","2021-04-06 00:00","2021","04","06","00:00","-1.4","","-7.9","","61","","","","10","","9","","24.1","","98.37","","","","-5","","NA"
"-78.84","48.21","ROUYN-NORANDA A","7086719","2021-04-06 01:00","2021","04","06","01:00","-2.8","","-8.6","","64","","","","36","","3","","24.1","","98.34","","","","-4","","Clear"
"-78.84","48.21","ROUYN-NORANDA A","7086719","2021-04-06 02:00","2021","04","06","02:00","-1.0","","-8.5","","57","","","","10","","11","","24.1","","98.25","","","","-5","","NA"
"-78.84","48.21","ROUYN-NORANDA A","7086719","2021-04-06 03:00","2021","04","06","03:00","-1.6","","-9.1","","57","","","","8","","3","","24.1","","98.26","","","","-3","","NA"
"-78.84","48.21","ROUYN-NORANDA A","7086719","2021-04-06 04:00","2021","04","06","04:00","-5.0","","-9.0","","74","","","","8","","10","","24.1","","98.31","","","","-9","","Clear"
"-78.84","48.21","ROUYN-NORANDA A","7086719","2021-04-06 05:00","2021","04","06","05:00","-2.2","","-9.5","","58","","","","6","","6","","24.1","","98.25","","","","-5","","NA"
"-78.84","48.21","ROUYN-NORANDA A","7086719","2021-04-06 06:00","2021","04","06","06:00","-3.1","","-9.1","","63","","","","16","","5","","24.1","","98.27","","","","-5","","NA"
"-78.84","48.21","ROUYN-NORANDA A","7086719","2021-04-06 07:00","2021","04","06","07:00","0.0","","-8.5","","53","","","","16","","5","","24.1","","98.28","","","","-2","","Mainly Clear"
"-78.84","48.21","ROUYN-NORANDA A","7086719","2021-04-06 08:00","2021","04","06","08:00","2.5","","-8.3","","45","","","","16","","8","","24.1","","98.27","","","","","","NA"
"-78.84","48.21","ROUYN-NORANDA A","7086719","2021-04-06 09:00","2021","04","06","09:00","5.3","","-9.5","","34","","","","15","","19","","24.1","","98.17","","","","","","NA"
"-78.84","48.21","ROUYN-NORANDA A","7086719","2021-04-06 10:00","2021","04","06","10:00","7.1","","-8.9","","31","","","","15","","14","","24.1","","98.13","","","","","","Mostly Cloudy"
"-78.84","48.21","ROUYN-NORANDA A","7086719","2021-04-06 11:00","2021","04","06","11:00","8.1","","-9.9","","27","","","","17","","18","","24.1","","98.08","","","","","","NA"
"-78.84","48.21","ROUYN-NORANDA A","7086719","2021-04-06 12:00","2021","04","06","12:00","8.9","","-11.0","","23","","","","16","","17","","24.1","","98.04","","","","","","NA"
"-78.84","48.21","ROUYN-NORANDA A","7086719","2021-04-06 13:00","2021","04","06","13:00","10.7","","-11.2","","20","","","","17","","15","","24.1","","98.00","","","","","","Mostly Cloudy"
"-78.84","48.21","ROUYN-NORANDA A","7086719","2021-04-06 14:00","2021","04","06","14:00","11.6","","-13.6","","16","","","","14","","14","","24.1","","97.92","","","","","","NA"
"-78.84","48.21","ROUYN-NORANDA A","7086719","2021-04-06 15:00","2021","04","06","15:00","12.8","","-14.6","","14","","","","12","","17","","24.1","","97.90","","","","","","NA"
"-78.84","48.21","ROUYN-NORANDA A","7086719","2021-04-06 16:00","2021","04","06","16:00","12.7","","-14.9","","13","","","","20","","12","","24.1","","97.91","","","","","","Cloudy"
"-78.84","48.21","ROUYN-NORANDA A","7086719","2021-04-06 17:00","2021","04","06","17:00","11.8","","-13.6","","16","","","","20","","7","","24.1","","97.94","","","","","","Rain"
"-78.84","48.21","ROUYN-NORANDA A","7086719","2021-04-06 18:00","2021","04","06","18:00","8.4","","-1.4","","50","","","","25","","4","","24.1","","98.01","","","","","","Rain"
"-78.84","48.21","ROUYN-NORANDA A","7086719","2021-04-06 19:00","2021","04","06","19:00","6.5","","0.1","","64","","","","32","","3","","24.1","","98.01","","","","","","Rain"
"-78.84","48.21","ROUYN-NORANDA A","7086719","2021-04-06 20:00","2021","04","06","20:00","4.8","","3.1","","89","","","","23","","7","","24.1","","98.07","","","","","","Rain"
"-78.84","48.21","ROUYN-NORANDA A","7086719","2021-04-06 21:00","2021","04","06","21:00","5.0","","1.9","","80","","","","19","","12","","24.1","","98.03","","","","","","Rain"
"-78.84","48.21","ROUYN-NORANDA A","7086719","2021-04-06 22:00","2021","04","06","22:00","3.4","","2.0","","90","","","","25","","5","","24.1","","98.06","","","","","","Rain"
"-78.84","48.21","ROUYN-NORANDA A","7086719","2021-04-06 23:00","2021","04","06","23:00","4.8","","2.1","","83","","","","24","","10","","24.1","","98.07","","","","","","NA"
"-78.84","48.21","ROUYN-NORANDA A","7086719","2021-04-07 00:00","2021","04","07","00:00","4.6","","3.2","","91","","","","22","","6","","24.1","","98.07","","","","","","NA"
"-78.84","48.21","ROUYN-NORANDA A","7086719","2021-04-07 01:00","2021","04","07","01:00","5.6","","4.4","","92","","","","16","","4","","24.1","","98.07","","","","","","Cloudy"
"-78.84","48.21","ROUYN-NORANDA A","7086719","2021-04-07 02:00","2021","04","07","02:00","6.3","","4.9","","91","","","","15","","5","","24.1","","98.07","","","","","","NA"
"-78.84","48.21","ROUYN-NORANDA A","7086719","2021-04-07 03:00","2021","04","07","03:00","5.7","","4.4","","91","","","","11","","8","","24.1","","98.09","","","","","","NA"
"-78.84","48.21","ROUYN-NORANDA A","7086719","2021-04-07 04:00","2021","04","07","04:00","5.1","","3.1","","87","","","","10","","7","","24.1","","98.11","","","","","","Cloudy"
"-78.84","48.21","ROUYN-NORANDA A","7086719","2021-04-07 05:00","2021","04","07","05:00","5.3","","2.2","","80","","","","13","","4","","24.1","","98.16","","","","","","NA"
"-78.84","48.21","ROUYN-NORANDA A","7086719","2021-04-07 06:00","2021","04","07","06:00","5.4","","1.1","","74","","","","13","","4","","24.1","","98.22","","","","","","NA"
"-78.84","48.21","ROUYN-NORANDA A","7086719","2021-04-07 07:00","2021","04","07","07:00","6.0","","0.6","","68","","","","12","","10","","24.1","","98.23","","","","","","Cloudy"
"-78.84","48.21","ROUYN-NORANDA A","7086719","2021-04-07 08:00","2021","04","07","08:00","6.5","","0.5","","65","","","","15","","5","","24.1","","98.25","","","","","","NA"
"-78.84","48.21","ROUYN-NORANDA A","7086719","2021-04-07 09:00","2021","04","07","09:00","7.7","","-0.5","","56","","","","12","","8","","24.1","","98.26","","","","","","NA"
"-78.84","48.21","ROUYN-NORANDA A","7086719","2021-04-07 10:00","2021","04","07","10:00","9.8","","-1.7","","45","","","","16","","9","","24.1","","98.27","","","","","","Cloudy"
"-78.84","48.21","ROUYN-NORANDA A","7086719","2021-04-07 11:00","2021","04","07","11:00","10.5","","-1.8","","42","","","","19","","5","","24.1","","98.30","","","","","","NA"
"-78.84","48.21","ROUYN-NORANDA A","7086719","2021-04-07 12:00","2021","04","07","12:00","11.8","","0.0","","44","","","","18","","4","","24.1","","98.27","","","","","","NA"
"-78.84","48.21","ROUYN-NORANDA A","7086719","2021-04-07 13:00","2021","04","07","13:00","12.6","","-1.3","","38","","","","20","","9","","24.1","","98.23","","","","","","Cloudy"
"-78.84","48.21","ROUYN-NORANDA A","7086719","2021-04-07 14:00","2021","04","07","14:00","14.6","","2.5","","44","","","","13","","7","","24.1","","98.17","","","","","","NA"
"-78.84","48.21","ROUYN-NORANDA A","7086719","2021-04-07 15:00","2021","04","07","15:00","15.4","","1.5","","39","","","","15","","14","","24.1","","98.09","","","","","","NA"
"-78.84","48.21","ROUYN-NORANDA A","7086719","2021-04-07 16:00","2021","04","07","16:00","15.9","","2.4","","40","","","","16","","8","","24.1","","98.05","","","","","","Cloudy"
"-78.84","48.21","ROUYN-NORANDA A","7086719","2021-04-07 17:00","2021","04","07","17:00","16.1","","1.7","","38","","","","13","","6","","24.1","","98.05","","","","","","NA"
"-78.84","48.21","ROUYN-NORANDA A","7086719","2021-04-07 18:00","2021","04","07","18:00","15.5","","1.9","","40","","","","5","","4","","24.1","","98.05","","","","","","NA"
"-78.84","48.21","ROUYN-NORANDA A","7086719","2021-04-07 19:00","2021","04","07","19:00","12.6","","-0.2","","41","","","","8","","9","","24.1","","98.05","","","","","","Cloudy"
"-78.84","48.21","ROUYN-NORANDA A","7086719","2021-04-07 20:00","2021","04","07","20:00","12.4","","-2.3","","36","","","","6","","7","","24.1","","98.09","","","","","","NA"
"-78.84","48.21","ROUYN-NORANDA A","7086719","2021-04-07 21:00","2021","04","07","21:00","10.9","","-2.1","","40","","","","6","","9","","24.1","","98.07","","","","","","NA"
"-78.84","48.21","ROUYN-NORANDA A","7086719","2021-04-07 22:00","2021","04","07","22:00","9.8","","-2.3","","42","","","","8","","12","","24.1","","98.03","","","","","","Cloudy"
"-78.84","48.21","ROUYN-NORANDA A","7086719","2021-04-07 23:00","2021","04","07","23:00","10.2","","-4.3","","36","","","","6","","7","","24.1","","98.00","","","","","","NA"
"-78.84","48.21","ROUYN-NORANDA A","7086719","2021-04-08 00:00","2021","04","08","00:00","9.0","","-2.2","","45","","","","7","","8","","24.1","","98.00","","","","","","NA"
"-78.84","48.21","ROUYN-NORANDA A","7086719","2021-04-08 01:00","2021","04","08","01:00","7.4","","-1.2","","54","","","","5","","6","","24.1","","98.00","","","","","","Cloudy"
"-78.84","48.21","ROUYN-NORANDA A","7086719","2021-04-08 02:00","2021","04","08","02:00","10.1","","-2.1","","42","","","","14","","8","","24.1","","97.99","","","","","","NA"
"-78.84","48.21","ROUYN-NORANDA A","7086719","2021-04-08 03:00","2021","04","08","03:00","9.9","","-1.3","","45","","","","14","","9","","24.1","","98.01","","","","","","NA"
"-78.84","48.21","ROUYN-NORANDA A","7086719","2021-04-08 04:00","2021","04","08","04:00","9.9","","0.2","","51","","","","14","","8","","24.1","","98.02","","","","","","Cloudy"
"-78.84","48.21","ROUYN-NORANDA A","7086719","2021-04-08 05:00","2021","04","08","05:00","9.3","","1.7","","59","","","","2","","4","","24.1","","98.07","","","","","","NA"
"-78.84","48.21","ROUYN-NORANDA A","7086719","2021-04-08 06:00","2021","04","08","06:00","9.9","","3.5","","64","","","","15","","10","","24.1","","98.09","","","","","","NA"
"-78.84","48.21","ROUYN-NORANDA A","7086719","2021-04-08 07:00","2021","04","08","07:00","10.5","","4.2","","65","","","","15","","14","","24.1","","98.10","","","","","","Mostly Cloudy"
"-78.84","48.21","ROUYN-NORANDA A","7086719","2021-04-08 08:00","2021","04","08","08:00","11.0","","4.7","","65","","","","15","","9","","24.1","","98.13","","","","","","NA"
"-78.84","48.21","ROUYN-NORANDA A","7086719","2021-04-08 09:00","2021","04","08","09:00","11.8","","5.0","","62","","","","14","","12","","24.1","","98.11","","","","","","Rain"
"-78.84","48.21","ROUYN-NORANDA A","7086719","2021-04-08 10:00","2021","04","08","10:00","15.2","","5.8","","53","","","","14","","12","","24.1","","98.09","","","","","","Mostly Cloudy"
"-78.84","48.21","ROUYN-NORANDA A","7086719","2021-04-08 11:00","2021","04","08","11:00","16.9","","5.5","","46","","","","14","","15","","24.1","","98.04","","","","","","NA"
"-78.84","48.21","ROUYN-NORANDA A","7086719","2021-04-08 12:00","2021","04","08","12:00","18.9","","5.4","","41","","","","13","","11","","24.1","","97.93","","","","","","NA"
"-78.84","48.21","ROUYN-NORANDA A","7086719","2021-04-08 13:00","2021","04","08","13:00","19.8","","5.1","","38","","","","12","","14","","24.1","","97.88","","","","","","Mostly Cloudy"
"-78.84","48.21","ROUYN-NORANDA A","7086719","2021-04-08 14:00","2021","04","08","14:00","20.3","","5.2","","37","","","","13","","19","","24.1","","97.80","","","","","","NA"
"-78.84","48.21","ROUYN-NORANDA A","7086719","2021-04-08 15:00","2021","04","08","15:00","21.4","","5.1","","34","","","","15","","13","","24.1","","97.75","","","","","","NA"
"-78.84","48.21","ROUYN-NORANDA A","7086719","2021-04-08 16:00","2021","04","08","16:00","22.4","","5.1","","32","","","","13","","17","","24.1","","97.70","","","","","","Clear"
"-78.84","48.21","ROUYN-NORANDA A","7086719","2021-04-08 17:00","2021","04","08","17:00","22.0","","4.7","","32","","","","14","","16","","24.1","","97.68","","","","","","NA"
"-78.84","48.21","ROUYN-NORANDA A","7086719","2021-04-08 18:00","2021","04","08","18:00","20.9","","4.3","","33","","","","13","","16","","24.1","","97.70","","","","","","NA"
"-78.84","48.21","ROUYN-NORANDA A","7086719","2021-04-08 19:00","2021","04","08","19:00","18.6","","4.2","","38","","","","14","","9","","24.1","","97.72","","","","","","Mostly Cloudy"
"-78.84","48.21","ROUYN-NORANDA A","7086719","2021-04-08 20:00","2021","04","08","20:00","15.1","","3.9","","47","","","","11","","9","","24.1","","97.75","","","","","","NA"
"-78.84","48.21","ROUYN-NORANDA A","7086719","2021-04-08 21:00","2021","04","08","21:00","13.3","","3.9","","53","","","","11","","13","","24.1","","97.75","","","","","","NA"
"-78.84","48.21","ROUYN-NORANDA A","7086719","2021-04-08 22:00","2021","04","08","22:00","13.8","","3.6","","50","","","","12","","15","","24.1","","97.74","","","","","","Mainly Clear"
"-78.84","48.21","ROUYN-NORANDA A","7086719","2021-04-08 23:00","2021","04","08","23:00","12.1","","3.4","","55","","","","13","","12","","24.1","","97.75","","","","","","NA"
"-78.84","48.21","ROUYN-NORANDA A","7086719","2021-04-09 00:00","2021","04","09","00:00","10.9","","3.4","","60","","","","14","","11","","24.1","","97.75","","","","","","NA"
"-78.84","48.21","ROUYN-NORANDA A","7086719","2021-04-09 01:00","2021","04","09","01:00","10.4","","3.7","","63","","","","14","","10","","24.1","","97.71","","","","","","Clear"
"-78.84","48.21","ROUYN-NORANDA A","7086719","2021-04-09 02:00","2021","04","09","02:00","9.9","","3.8","","66","","","","13","","11","","24.1","","97.69","","","","","","NA"
"-78.84","48.21","ROUYN-NORANDA A","7086719","2021-04-09 03:00","2021","04","09","03:00","9.4","","3.7","","67","","","","13","","11","","24.1","","97.68","","","","","","NA"
"-78.84","48.21","ROUYN-NORANDA A","7086719","2021-04-09 04:00","2021","04","09","04:00","8.2","","3.3","","71","","","","14","","13","","24.1","","97.66","","","","","","Clear"
"-78.84","48.21","ROUYN-NORANDA A","7086719","2021-04-09 05:00","2021","04","09","05:00","9.0","","3.2","","67","","","","12","","14","","24.1","","97.65","","","","","","NA"
"-78.84","48.21","ROUYN-NORANDA A","7086719","2021-04-09 06:00","2021","04","09","06:00","9.1","","3.0","","66","","","","13","","18","","24.1","","97.67","","","","","","NA"
"-78.84","48.21","ROUYN-NORANDA A","7086719","2021-04-09 07:00","2021","04","09","07:00","9.7","","3.4","","64","","","","13","","17","","24.1","","97.71","","","","","","Clear"
"-78.84","48.21","ROUYN-NORANDA A","7086719","2021-04-09 08:00","2021","04","09","08:00","12.8","","4.4","","56","","","","15","","21","","24.1","","97.71","","","","","","NA"
"-78.84","48.21","ROUYN-NORANDA A","7086719","2021-04-09 09:00","2021","04","09","09:00","16.0","","5.5","","49","","","","15","","16","","24.1","","97.66","","","","","","NA"
"-78.84","48.21","ROUYN-NORANDA A","7086719","2021-04-09 10:00","2021","04","09","10:00","18.7","","6.7","","45","","","","14","","21","","24.1","","97.63","","","","","","Mainly Clear"
"-78.84","48.21","ROUYN-NORANDA A","7086719","2021-04-09 11:00","2021","04","09","11:00","19.5","","7.1","","44","","","","15","","23","","24.1","","97.59","","","","","","NA"
"-78.84","48.21","ROUYN-NORANDA A","7086719","2021-04-09 12:00","2021","04","09","12:00","21.6","","8.1","","41","","","","18","","24","","24.1","","97.55","","","","","","NA"
"-78.84","48.21","ROUYN-NORANDA A","7086719","2021-04-09 13:00","2021","04","09","13:00","22.2","","8.8","","42","","","","17","","24","","24.1","","97.52","","","","","","Mainly Clear"
"-78.84","48.21","ROUYN-NORANDA A","7086719","2021-04-09 14:00","2021","04","09","14:00","20.5","","9.1","","47","","","","20","","25","","24.1","","97.52","","","","","","NA"
"-78.84","48.21","ROUYN-NORANDA A","7086719","2021-04-09 15:00","2021","04","09","15:00","19.2","","8.3","","49","","","","19","","17","","24.1","","97.53","","","","","","NA"
"-78.84","48.21","ROUYN-NORANDA A","7086719","2021-04-09 16:00","2021","04","09","16:00","19.1","","9.1","","52","","","","20","","14","","24.1","","97.52","","","","","","Mostly Cloudy"
"-78.84","48.21","ROUYN-NORANDA A","7086719","2021-04-09 17:00","2021","04","09","17:00","17.5","","8.7","","56","","","","22","","15","","24.1","","97.56","","","","","","NA"
"-78.84","48.21","ROUYN-NORANDA A","7086719","2021-04-09 18:00","2021","04","09","18:00","16.0","","9.2","","64","","","","22","","16","","24.1","","97.60","","","","","","Rain"
"-78.84","48.21","ROUYN-NORANDA A","7086719","2021-04-09 19:00","2021","04","09","19:00","14.1","","9.8","","75","","","","17","","12","","24.1","","97.61","","","","","","Mostly Cloudy"
"-78.84","48.21","ROUYN-NORANDA A","7086719","2021-04-09 20:00","2021","04","09","20:00","12.8","","9.3","","79","","","","16","","10","","24.1","","97.63","","","","","","NA"
"-78.84","48.21","ROUYN-NORANDA A","7086719","2021-04-09 21:00","2021","04","09","21:00","12.8","","9.2","","79","","","","15","","11","","24.1","","97.63","","","","","","NA"
"-78.84","48.21","ROUYN-NORANDA A","7086719","2021-04-09 22:00","2021","04","09","22:00","12.0","","9.0","","81","","","","15","","9","","24.1","","97.59","","","","","","Mostly Cloudy"
"-78.84","48.21","ROUYN-NORANDA A","7086719","2021-04-09 23:00","2021","04","09","23:00","11.2","","8.7","","84","","","","15","","11","","24.1","","97.57","","","","","","NA"
"-78.84","48.21","ROUYN-NORANDA A","7086719","2021-04-10 00:00","2021","04","10","00:00","10.8","","8.7","","87","","","","16","","13","","24.1","","97.54","","","","","","NA"
"-78.84","48.21","ROUYN-NORANDA A","7086719","2021-04-10 01:00","2021","04","10","01:00","9.5","","8.4","","93","","","","15","","12","","24.1","","97.50","","","","","","Clear"
"-78.84","48.21","ROUYN-NORANDA A","7086719","2021-04-10 02:00","2021","04","10","02:00","9.0","","8.2","","94","","","","13","","9","","24.1","","97.44","","","","","","NA"
"-78.84","48.21","ROUYN-NORANDA A","7086719","2021-04-10 03:00","2021","04","10","03:00","8.4","","7.8","","96","","","","13","","14","","24.1","","97.42","","","","","","NA"
"-78.84","48.21","ROUYN-NORANDA A","7086719","2021-04-10 04:00","2021","04","10","04:00","8.3","","7.8","","96","","","","14","","13","","24.1","","97.40","","","","","","Mostly Cloudy"
"-78.84","48.21","ROUYN-NORANDA A","7086719","2021-04-10 05:00","2021","04","10","05:00","9.2","","8.4","","95","","","","14","","15","","24.1","","97.30","","","","","","Rain"
"-78.84","48.21","ROUYN-NORANDA A","7086719","2021-04-10 06:00","2021","04","10","06:00","8.8","","8.2","","95","","","","15","","11","","24.1","","97.30","","","","","","NA"
"-78.84","48.21","ROUYN-NORANDA A","7086719","2021-04-10 07:00","2021","04","10","07:00","10.7","","8.7","","87","","","","16","","12","","24.1","","97.32","","","","","","Mainly Clear"
"-78.84","48.21","ROUYN-NORANDA A","7086719","2021-04-10 08:00","2021","04","10","08:00","13.0","","9.0","","76","","","","17","","24","","24.1","","97.26","","","","","","NA"
"-78.84","48.21","ROUYN-NORANDA A","7086719","2021-04-10 09:00","2021","04","10","09:00","14.7","","9.7","","72","","","","19","","16","","24.1","","97.24","","","","","","NA"
"-78.84","48.21","ROUYN-NORANDA A","7086719","2021-04-10 10:00","2021","04","10","10:00","16.6","","9.6","","63","","","","20","","20","","24.1","","97.23","","","","","","Mainly Clear"
"-78.84","48.21","ROUYN-NORANDA A","7086719","2021-04-10 11:00","2021","04","10","11:00","18.1","","9.6","","57","","","","19","","25","","24.1","","97.20","","","","","","NA"
"-78.84","48.21","ROUYN-NORANDA A","7086719","2021-04-10 12:00","2021","04","10","12:00","18.8","","8.7","","52","","","","21","","20","","24.1","","97.17","","","","","","NA"
"-78.84","48.21","ROUYN-NORANDA A","7086719","2021-04-10 13:00","2021","04","10","13:00","19.2","","8.2","","48","","","","21","","20","","24.1","","97.12","","","","","","Mostly Cloudy"
"-78.84","48.21","ROUYN-NORANDA A","7086719","2021-04-10 14:00","2021","04","10","14:00","20.9","","8.2","","44","","","","22","","21","","24.1","","97.08","","","","","","NA"
"-78.84","48.21","ROUYN-NORANDA A","7086719","2021-04-10 15:00","2021","04","10","15:00","19.6","","7.4","","45","","","","21","","29","","24.1","","97.05","","","","","","NA"
"-78.84","48.21","ROUYN-NORANDA A","7086719","2021-04-10 16:00","2021","04","10","16:00","19.9","","8.0","","46","","","","24","","24","","24.1","","97.02","","","","","","Mostly Cloudy"
"-78.84","48.21","ROUYN-NORANDA A","7086719","2021-04-10 17:00","2021","04","10","17:00","18.6","","7.6","","48","","","","23","","12","","24.1","","97.01","","","","","","NA"
"-78.84","48.21","ROUYN-NORANDA A","7086719","2021-04-10 18:00","2021","04","10","18:00","18.5","","7.1","","47","","","","21","","10","","24.1","","96.98","","","","","","NA"
"-78.84","48.21","ROUYN-NORANDA A","7086719","2021-04-10 19:00","2021","04","10","19:00","15.5","","8.1","","61","","","","36","","2","","24.1","","96.98","","","","","","Mostly Cloudy"
"-78.84","48.21","ROUYN-NORANDA A","7086719","2021-04-10 20:00","2021","04","10","20:00","10.8","","6.1","","73","","","","36","","1","","24.1","","96.98","","","","","","NA"
"-78.84","48.21","ROUYN-NORANDA A","7086719","2021-04-10 21:00","2021","04","10","21:00","8.9","","5.7","","80","","","","6","","3","","24.1","","96.98","","","","","","NA"
"-78.84","48.21","ROUYN-NORANDA A","7086719","2021-04-10 22:00","2021","04","10","22:00","6.7","","4.9","","88","","","","36","","3","","24.1","","96.96","","","","","","Clear"
"-78.84","48.21","ROUYN-NORANDA A","7086719","2021-04-10 23:00","2021","04","10","23:00","6.0","","4.5","","90","","","","5","","4","","24.1","","96.97","","","","","","NA"
"-78.84","48.21","ROUYN-NORANDA A","7086719","2021-04-11 00:00","2021","04","11","00:00","5.0","","3.1","","88","","","","36","","2","","24.1","","96.96","","","","","","NA"
"-78.84","48.21","ROUYN-NORANDA A","7086719","2021-04-11 01:00","2021","04","11","01:00","4.8","","3.7","","92","","","","4","","4","","24.1","","96.90","","","","","","Clear"
"-78.84","48.21","ROUYN-NORANDA A","7086719","2021-04-11 02:00","2021","04","11","02:00","4.2","","2.6","","89","","","","7","","4","","24.1","","96.86","","","","","","NA"
"-78.84","48.21","ROUYN-NORANDA A","7086719","2021-04-11 03:00","2021","04","11","03:00","7.1","","5.1","","87","","","","5","","7","","24.1","","96.82","","","","","","NA"
"-78.84","48.21","ROUYN-NORANDA A","7086719","2021-04-11 04:00","2021","04","11","04:00","4.4","","3.7","","95","","","","5","","5","","24.1","","96.83","","","","","","Clear"
"-78.84","48.21","ROUYN-NORANDA A","7086719","2021-04-11 05:00","2021","04","11","05:00","3.1","","1.9","","92","","","","3","","4","","24.1","","96.83","","","","","","NA"
"-78.84","48.21","ROUYN-NORANDA A","7086719","2021-04-11 06:00","2021","04","11","06:00","5.2","","4.9","","98","","","","4","","7","","24.1","","96.85","","","","","","NA"
"-78.84","48.21","ROUYN-NORANDA A","7086719","2021-04-11 07:00","2021","04","11","07:00","8.2","","6.6","","89","","","","3","","12","","24.1","","96.80","","","","","","Mostly Cloudy"
"-78.84","48.21","ROUYN-NORANDA A","7086719","2021-04-11 08:00","2021","04","11","08:00","13.1","","7.1","","67","","","","13","","21","","24.1","","96.83","","","","","","NA"
"-78.84","48.21","ROUYN-NORANDA A","7086719","2021-04-11 09:00","2021","04","11","09:00","14.6","","7.8","","63","","","","8","","14","","24.1","","96.78","","","","","","NA"
"-78.84","48.21","ROUYN-NORANDA A","7086719","2021-04-11 10:00","2021","04","11","10:00","19.6","","8.5","","48","","","","12","","12","","24.1","","96.76","","","","","","Mainly Clear"
"-78.84","48.21","ROUYN-NORANDA A","7086719","2021-04-11 11:00","2021","04","11","11:00","22.4","","7.2","","37","","","","11","","21","","24.1","","96.70","","","","","","NA"
"-78.84","48.21","ROUYN-NORANDA A","7086719","2021-04-11 12:00","2021","04","11","12:00","23.6","","6.8","","34","","","","15","","20","","24.1","","96.68","","","","","","NA"
"-78.84","48.21","ROUYN-NORANDA A","7086719","2021-04-11 13:00","2021","04","11","13:00","24.6","","6.2","","30","","","","14","","19","","24.1","","96.65","","","","","","Mostly Cloudy"
"-78.84","48.21","ROUYN-NORANDA A","7086719","2021-04-11 14:00","2021","04","11","14:00","24.2","","5.8","","30","","","","11","","16","","24.1","","96.63","","","","","","NA"
"-78.84","48.21","ROUYN-NORANDA A","7086719","2021-04-11 15:00","2021","04","11","15:00","24.4","","4.3","","27","","","","15","","17","","24.1","","96.62","","","","","","NA"
"-78.84","48.21","ROUYN-NORANDA A","7086719","2021-04-11 16:00","2021","04","11","16:00","23.7","","6.5","","33","","","","11","","23","","24.1","","96.64","","","","","","Mostly Cloudy"
"-78.84","48.21","ROUYN-NORANDA A","7086719","2021-04-11 17:00","2021","04","11","17:00","22.8","","6.2","","34","","","","12","","18","","24.1","","96.70","","","","","","NA"
"-78.84","48.21","ROUYN-NORANDA A","7086719","2021-04-11 18:00","2021","04","11","18:00","21.6","","6.2","","36","","","","13","","10","","24.1","","96.77","","","","","","NA"
"-78.84","48.21","ROUYN-NORANDA A","7086719","2021-04-11 19:00","2021","04","11","19:00","20.0","","6.9","","42","","","","11","","12","","24.1","","96.82","","","","","","Mostly Cloudy"
"-78.84","48.21","ROUYN-NORANDA A","7086719","2021-04-11 20:00","2021","04","11","20:00","17.5","","7.2","","51","","","","10","","10","","24.1","","96.89","","","","","","NA"
"-78.84","48.21","ROUYN-NORANDA A","7086719","2021-04-11 21:00","2021","04","11","21:00","17.9","","6.3","","46","","","","11","","18","","24.1","","96.96","","","","","","NA"
"-78.84","48.21","ROUYN-NORANDA A","7086719","2021-04-11 22:00","2021","04","11","22:00","16.6","","3.7","","42","","","","11","","16","","24.1","","97.00","","","","","","Mostly Cloudy"
"-78.84","48.21","ROUYN-NORANDA A","7086719","2021-04-11 23:00","2021","04","11","23:00","14.5","","2.2","","43","","","","10","","16","","24.1","","97.07","","","","","","NA"
"-78.84","48.21","ROUYN-NORANDA A","7086719","2021-04-12 00:00","2021","04","12","00:00","13.0","","0.6","","43","","","","11","","18","","24.1","","97.12","","","","","","NA"
"-78.84","48.21","ROUYN-NORANDA A","7086719","2021-04-12 01:00","2021","04","12","01:00","11.3","","0.0","","45","","","","11","","13","","24.1","","97.18","","","","","","Mostly Cloudy"
"-78.84","48.21","ROUYN-NORANDA A","7086719","2021-04-12 02:00","2021","04","12","02:00","7.7","","-0.3","","57","","","","7","","10","","24.1","","97.21","","","","","","NA"
"-78.84","48.21","ROUYN-NORANDA A","7086719","2021-04-12 03:00","2021","04","12","03:00","6.8","","-1.0","","58","","","","8","","15","","24.1","","97.22","","","","","","NA"
"-78.84","48.21","ROUYN-NORANDA A","7086719","2021-04-12 04:00","2021","04","12","04:00","7.5","","-1.2","","54","","","","9","","19","","24.1","","97.27","","","","","","Mainly Clear"
"-78.84","48.21","ROUYN-NORANDA A","7086719","2021-04-12 05:00","2021","04","12","05:00","6.6","","-0.8","","59","","","","9","","15","","24.1","","97.33","","","","","","NA"
"-78.84","48.21","ROUYN-NORANDA A","7086719","2021-04-12 06:00","2021","04","12","06:00","6.7","","-0.5","","60","","","","10","","18","","24.1","","97.37","","","","","","NA"
"-78.84","48.21","ROUYN-NORANDA A","7086719","2021-04-12 07:00","2021","04","12","07:00","8.4","","0.4","","57","","","","11","","23","","24.1","","97.42","","","","","","Mainly Clear"
"-78.84","48.21","ROUYN-NORANDA A","7086719","2021-04-12 08:00","2021","04","12","08:00","10.3","","1.3","","54","","","","14","","24","","24.1","","97.46","","","","","","NA"
"-78.84","48.21","ROUYN-NORANDA A","7086719","2021-04-12 09:00","2021","04","12","09:00","12.2","","1.8","","49","","","","13","","18","","24.1","","97.49","","","","","","NA"
"-78.84","48.21","ROUYN-NORANDA A","7086719","2021-04-12 10:00","2021","04","12","10:00","13.8","","2.2","","45","","","","14","","24","","24.1","","97.49","","","","","","Mainly Clear"
"-78.84","48.21","ROUYN-NORANDA A","7086719","2021-04-12 11:00","2021","04","12","11:00","15.6","","2.3","","41","","","","13","","26","","24.1","","97.50","","","","","","NA"
"-78.84","48.21","ROUYN-NORANDA A","7086719","2021-04-12 12:00","2021","04","12","12:00","15.4","","4.2","","47","","","","9","","34","","24.1","","97.51","","","","","","NA"
"-78.84","48.21","ROUYN-NORANDA A","7086719","2021-04-12 13:00","2021","04","12","13:00","14.9","","4.2","","49","","","","11","","28","","24.1","","97.58","","","","","","Mainly Clear"
"-78.84","48.21","ROUYN-NORANDA A","7086719","2021-04-12 14:00","2021","04","12","14:00","14.5","","4.4","","51","","","","10","","30","","24.1","","97.60","","","","","","NA"
"-78.84","48.21","ROUYN-NORANDA A","7086719","2021-04-12 15:00","2021","04","12","15:00","15.0","","5.1","","51","","","","9","","18","","24.1","","97.61","","","","","","NA"
"-78.84","48.21","ROUYN-NORANDA A","7086719","2021-04-12 16:00","2021","04","12","16:00","15.0","","5.3","","52","","","","11","","22","","24.1","","97.62","","","","","","Mostly Cloudy"
"-78.84","48.21","ROUYN-NORANDA A","7086719","2021-04-12 17:00","2021","04","12","17:00","14.7","","5.3","","53","","","","12","","16","","24.1","","97.67","","","","","","NA"
"-78.84","48.21","ROUYN-NORANDA A","7086719","2021-04-12 18:00","2021","04","12","18:00","14.6","","5.1","","53","","","","14","","16","","24.1","","97.70","","","","","","NA"
"-78.84","48.21","ROUYN-NORANDA A","7086719","2021-04-12 19:00","2021","04","12","19:00","12.7","","5.1","","59","","","","10","","5","","24.1","","97.74","","","","","","Mainly Clear"
"-78.84","48.21","ROUYN-NORANDA A","7086719","2021-04-12 20:00","2021","04","12","20:00","9.4","","4.9","","74","","","","10","","7","","24.1","","97.78","","","","","","NA"
"-78.84","48.21","ROUYN-NORANDA A","7086719","2021-04-12 21:00","2021","04","12","21:00","6.4","","3.8","","83","","","","13","","7","","24.1","","97.82","","","","","","NA"
"-78.84","48.21","ROUYN-NORANDA A","7086719","2021-04-12 22:00","2021","04","12","22:00","5.0","","3.2","","88","","","","11","","4","","24.1","","97.84","","","","","","Clear"
"-78.84","48.21","ROUYN-NORANDA A","7086719","2021-04-12 23:00","2021","04","12","23:00","5.2","","3.3","","88","","","","9","","10","","24.1","","97.89","","","","","","NA"
"-78.84","48.21","ROUYN-NORANDA A","7086719","2021-04-13 00:00","2021","04","13","00:00","5.2","","3.1","","86","","","","10","","10","","24.1","","97.91","","","","","","NA"
"-78.84","48.21","ROUYN-NORANDA A","7086719","2021-04-13 01:00","2021","04","13","01:00","8.5","","4.2","","74","","","","10","","13","","24.1","","97.93","","","","","","Mainly Clear"
"-78.84","48.21","ROUYN-NORANDA A","7086719","2021-04-13 02:00","2021","04","13","02:00","8.9","","4.2","","72","","","","12","","15","","24.1","","97.96","","","","","","NA"
"-78.84","48.21","ROUYN-NORANDA A","7086719","2021-04-13 03:00","2021","04","13","03:00","8.0","","4.2","","77","","","","14","","10","","24.1","","97.98","","","","","","NA"
"-78.84","48.21","ROUYN-NORANDA A","7086719","2021-04-13 04:00","2021","04","13","04:00","8.9","","4.7","","75","","","","14","","13","","24.1","","98.01","","","","","","Cloudy"
"-78.84","48.21","ROUYN-NORANDA A","7086719","2021-04-13 05:00","2021","04","13","05:00","8.6","","4.7","","76","","","","13","","14","","24.1","","98.04","","","","","","NA"
"-78.84","48.21","ROUYN-NORANDA A","7086719","2021-04-13 06:00","2021","04","13","06:00","8.4","","4.6","","77","","","","14","","14","","24.1","","98.08","","","","","","NA"
"-78.84","48.21","ROUYN-NORANDA A","7086719","2021-04-13 07:00","2021","04","13","07:00","9.9","","4.7","","70","","","","15","","18","","24.1","","98.13","","","","","","Mainly Clear"
"-78.84","48.21","ROUYN-NORANDA A","7086719","2021-04-13 08:00","2021","04","13","08:00","11.5","","5.1","","65","","","","14","","19","","24.1","","98.15","","","","","","NA"
"-78.84","48.21","ROUYN-NORANDA A","7086719","2021-04-13 09:00","2021","04","13","09:00","11.5","","5.2","","65","","","","12","","19","","24.1","","98.15","","","","","","NA"
"-78.84","48.21","ROUYN-NORANDA A","7086719","2021-04-13 10:00","2021","04","13","10:00","14.4","","6.2","","58","","","","17","","15","","24.1","","98.10","","","","","","Mainly Clear"
"-78.84","48.21","ROUYN-NORANDA A","7086719","2021-04-13 11:00","2021","04","13","11:00","15.2","","5.4","","52","","","","12","","20","","24.1","","98.08","","","","","","NA"
"-78.84","48.21","ROUYN-NORANDA A","7086719","2021-04-13 12:00","2021","04","13","12:00","15.2","","5.3","","51","","","","14","","14","","24.1","","98.06","","","","","","NA"
"-78.84","48.21","ROUYN-NORANDA A","7086719","2021-04-13 13:00","2021","04","13","13:00","15.4","","5.1","","50","","","","15","","18","","24.1","","98.04","","","","","","Cloudy"
"-78.84","48.21","ROUYN-NORANDA A","7086719","2021-04-13 14:00","2021","04","13","14:00","15.4","","5.4","","51","","","","15","","19","","24.1","","98.02","","","","","","NA"
"-78.84","48.21","ROUYN-NORANDA A","7086719","2021-04-13 15:00","2021","04","13","15:00","15.6","","5.6","","51","","","","17","","19","","24.1","","97.98","","","","","","NA"
"-78.84","48.21","ROUYN-NORANDA A","7086719","2021-04-13 16:00","2021","04","13","16:00","15.3","","5.3","","51","","","","17","","17","","24.1","","97.98","","","","","","Cloudy"
"-78.84","48.21","ROUYN-NORANDA A","7086719","2021-04-13 17:00","2021","04","13","17:00","15.0","","5.4","","52","","","","16","","16","","24.1","","97.98","","","","","","NA"
"-78.84","48.21","ROUYN-NORANDA A","7086719","2021-04-13 18:00","2021","04","13","18:00","14.2","","5.0","","53","","","","17","","13","","24.1","","97.99","","","","","","NA"
"-78.84","48.21","ROUYN-NORANDA A","7086719","2021-04-13 19:00","2021","04","13","19:00","12.8","","5.7","","62","","","","16","","12","","24.1","","98.00","","","","","","Rain"
"-78.84","48.21","ROUYN-NORANDA A","7086719","2021-04-13 20:00","2021","04","13","20:00","11.7","","6.4","","70","","","","18","","7","","24.1","","98.04","","","","","","Rain"
"-78.84","48.21","ROUYN-NORANDA A","7086719","2021-04-13 21:00","2021","04","13","21:00","9.6","","8.4","","92","","","","24","","13","","24.1","","98.06","","","","","","Rain"
"-78.84","48.21","ROUYN-NORANDA A","7086719","2021-04-13 22:00","2021","04","13","22:00","9.2","","8.6","","96","","","","23","","12","","24.1","","98.08","","","","","","Rain"
"-78.84","48.21","ROUYN-NORANDA A","7086719","2021-04-13 23:00","2021","04","13","23:00","8.8","","8.6","","98","","","","21","","11","","24.1","","98.07","","","","","","Rain"
"-78.84","48.21","ROUYN-NORANDA A","7086719","2021-04-14 00:00","2021","04","14","00:00","7.6","","7.4","","98","","","","24","","10","","16.1","","98.07","","","","","","Rain"
"-78.84","48.21","ROUYN-NORANDA A","7086719","2021-04-14 01:00","2021","04","14","01:00","7.3","","7.0","","98","","","","36","","2","","24.1","","98.07","","","","","","Rain"
"-78.84","48.21","ROUYN-NORANDA A","7086719","2021-04-14 02:00","2021","04","14","02:00","6.8","","6.7","","99","","","","18","","5","","24.1","","98.05","","","","","","Rain"
"-78.84","48.21","ROUYN-NORANDA A","7086719","2021-04-14 03:00","2021","04","14","03:00","6.5","","6.4","","99","","","","19","","7","","24.1","","98.05","","","","","","Rain"
"-78.84","48.21","ROUYN-NORANDA A","7086719","2021-04-14 04:00","2021","04","14","04:00","5.9","","5.7","","99","","","","17","","5","","24.1","","98.03","","","","","","Cloudy"
"-78.84","48.21","ROUYN-NORANDA A","7086719","2021-04-14 05:00","2021","04","14","05:00","4.9","","4.9","","100","","","","18","","8","","24.1","","98.04","","","","","","NA"
"-78.84","48.21","ROUYN-NORANDA A","7086719","2021-04-14 06:00","2021","04","14","06:00","4.0","","4.0","","100","","","","19","","9","","24.1","","98.07","","","","","","NA"
"-78.84","48.21","ROUYN-NORANDA A","7086719","2021-04-14 07:00","2021","04","14","07:00","5.0","","5.0","","99","","","","17","","4","","24.1","","98.10","","","","","","Mainly Clear"
"-78.84","48.21","ROUYN-NORANDA A","7086719","2021-04-14 08:00","2021","04","14","08:00","7.2","","4.5","","83","","","","23","","12","","24.1","","98.09","","","","","","NA"
"-78.84","48.21","ROUYN-NORANDA A","7086719","2021-04-14 09:00","2021","04","14","09:00","9.5","","4.8","","72","","","","24","","5","","24.1","","98.04","","","","","","NA"
"-78.84","48.21","ROUYN-NORANDA A","7086719","2021-04-14 10:00","2021","04","14","10:00","11.3","","3.2","","57","","","","22","","12","","24.1","","98.00","","","","","","Mainly Clear"
"-78.84","48.21","ROUYN-NORANDA A","7086719","2021-04-14 11:00","2021","04","14","11:00","13.7","","1.1","","42","","","","24","","14","","24.1","","97.94","","","","","","NA"
"-78.84","48.21","ROUYN-NORANDA A","7086719","2021-04-14 12:00","2021","04","14","12:00","13.2","","-1.5","","36","","","","28","","8","","24.1","","97.89","","","","","","NA"
"-78.84","48.21","ROUYN-NORANDA A","7086719","2021-04-14 13:00","2021","04","14","13:00","12.8","","-0.8","","39","","","","24","","12","","24.1","","97.84","","","","","","Mostly Cloudy"
"-78.84","48.21","ROUYN-NORANDA A","7086719","2021-04-14 14:00","2021","04","14","14:00","13.2","","-0.7","","38","","","","26","","12","","24.1","","97.82","","","","","","NA"
"-78.84","48.21","ROUYN-NORANDA A","7086719","2021-04-14 15:00","2021","04","14","15:00","13.5","","0.1","","40","","","","24","","5","","24.1","","97.75","","","","","","NA"
"-78.84","48.21","ROUYN-NORANDA A","7086719","2021-04-14 16:00","2021","04","14","16:00","14.7","","-0.8","","34","","","","35","","7","","24.1","","97.68","","","","","","Mostly Cloudy"
"-78.84","48.21","ROUYN-NORANDA A","7086719","2021-04-14 17:00","2021","04","14","17:00","14.2","","-1.7","","33","","","","28","","8","","24.1","","97.65","","","","","","NA"
"-78.84","48.21","ROUYN-NORANDA A","7086719","2021-04-14 18:00","2021","04","14","18:00","14.0","","-1.9","","33","","","","2","","10","","24.1","","97.61","","","","","","NA"
"-78.84","48.21","ROUYN-NORANDA A","7086719","2021-04-14 19:00","2021","04","14","19:00","12.2","","-1.3","","39","","","","4","","10","","24.1","","97.56","","","","","","Mainly Clear"
"-78.84","48.21","ROUYN-NORANDA A","7086719","2021-04-14 20:00","2021","04","14","20:00","6.3","","0.1","","64","","","","8","","4","","24.1","","97.57","","","","","","NA"
"-78.84","48.21","ROUYN-NORANDA A","7086719","2021-04-14 21:00","2021","04","14","21:00","4.3","","0.4","","75","","","","5","","3","","24.1","","97.55","","","","","","NA"
"-78.84","48.21","ROUYN-NORANDA A","7086719","2021-04-14 22:00","2021","04","14","22:00","4.7","","-1.4","","65","","","","6","","8","","24.1","","97.51","","","","","","Mainly Clear"
"-78.84","48.21","ROUYN-NORANDA A","7086719","2021-04-14 23:00","2021","04","14","23:00","2.9","","-0.8","","77","","","","3","","5","","24.1","","97.47","","","","","","NA"
"-78.84","48.21","ROUYN-NORANDA A","7086719","2021-04-15 00:00","2021","04","15","00:00","4.8","","1.1","","77","","","","5","","7","","24.1","","97.43","","","","","","NA"
"-78.84","48.21","ROUYN-NORANDA A","7086719","2021-04-15 01:00","2021","04","15","01:00","1.4","","-0.7","","86","","","","36","","3","","24.1","","97.38","","","","","","Mostly Cloudy"
"-78.84","48.21","ROUYN-NORANDA A","7086719","2021-04-15 02:00","2021","04","15","02:00","0.5","","-1.1","","89","","","","5","","7","","24.1","","97.35","","","","","","NA"
"-78.84","48.21","ROUYN-NORANDA A","7086719","2021-04-15 03:00","2021","04","15","03:00","0.1","","-1.2","","91","","","","3","","5","","24.1","","97.32","","","","","","NA"
"-78.84","48.21","ROUYN-NORANDA A","7086719","2021-04-15 04:00","2021","04","15","04:00","-0.5","","-1.8","","91","","","","0","","1","","24.1","","97.27","","","","-1","","Mainly Clear"
"-78.84","48.21","ROUYN-NORANDA A","7086719","2021-04-15 05:00","2021","04","15","05:00","0.7","","0.6","","100","","","","36","","2","","0.6","","97.25","","","","","","Fog"
"-78.84","48.21","ROUYN-NORANDA A","7086719","2021-04-15 06:00","2021","04","15","06:00","2.8","","2.8","","100","","","","3","","7","","0.4","","97.28","","","","","","Fog"
"-78.84","48.21","ROUYN-NORANDA A","7086719","2021-04-15 07:00","2021","04","15","07:00","4.1","","4.1","","100","","","","1","","13","","3.2","","97.29","","","","","","Fog"
"-78.84","48.21","ROUYN-NORANDA A","7086719","2021-04-15 08:00","2021","04","15","08:00","4.9","","4.9","","100","","","","36","","14","","4.0","","97.25","","","","","","Rain,Fog"
"-78.84","48.21","ROUYN-NORANDA A","7086719","2021-04-15 09:00","2021","04","15","09:00","5.0","","4.8","","98","","","","1","","13","","16.1","","97.28","","","","","","NA"
"-78.84","48.21","ROUYN-NORANDA A","7086719","2021-04-15 10:00","2021","04","15","10:00","4.3","","4.0","","98","","","","35","","14","","24.1","","97.28","","","","","","Rain"
"-78.84","48.21","ROUYN-NORANDA A","7086719","2021-04-15 11:00","2021","04","15","11:00","4.7","","3.8","","94","","","","2","","13","","24.1","","97.28","","","","","","Rain"
"-78.84","48.21","ROUYN-NORANDA A","7086719","2021-04-15 12:00","2021","04","15","12:00","5.1","","4.4","","96","","","","2","","14","","24.1","","97.27","","","","","","Rain"
"-78.84","48.21","ROUYN-NORANDA A","7086719","2021-04-15 13:00","2021","04","15","13:00","5.8","","4.1","","89","","","","1","","16","","24.1","","97.27","","","","","","Cloudy"
"-78.84","48.21","ROUYN-NORANDA A","7086719","2021-04-15 14:00","2021","04","15","14:00","7.0","","4.3","","83","","","","36","","14","","24.1","","97.22","","","","","","NA"
"-78.84","48.21","ROUYN-NORANDA A","7086719","2021-04-15 15:00","2021","04","15","15:00","6.1","","3.4","","83","","","","36","","17","","24.1","","97.22","","","","","","NA"
"-78.84","48.21","ROUYN-NORANDA A","7086719","2021-04-15 16:00","2021","04","15","16:00","5.8","","3.8","","87","","","","35","","16","","24.1","","97.26","","","","","","Rain"
"-78.84","48.21","ROUYN-NORANDA A","7086719","2021-04-15 17:00","2021","04","15","17:00","5.3","","4.2","","93","","","","35","","11","","24.1","","97.28","","","","","","Rain"
"-78.84","48.21","ROUYN-NORANDA A","7086719","2021-04-15 18:00","2021","04","15","18:00","4.8","","4.1","","95","","","","34","","15","","16.1","","97.27","","","","","","Rain"
"-78.84","48.21","ROUYN-NORANDA A","7086719","2021-04-15 19:00","2021","04","15","19:00","4.6","","4.3","","98","","","","34","","17","","12.9","","97.28","","","","","","Rain"
"-78.84","48.21","ROUYN-NORANDA A","7086719","2021-04-15 20:00","2021","04","15","20:00","4.6","","4.3","","98","","","","35","","15","","9.7","","97.30","","","","","","Rain,Fog"
"-78.84","48.21","ROUYN-NORANDA A","7086719","2021-04-15 21:00","2021","04","15","21:00","4.4","","4.1","","98","","","","35","","17","","12.9","","97.26","","","","","","Rain"
"-78.84","48.21","ROUYN-NORANDA A","7086719","2021-04-15 22:00","2021","04","15","22:00","4.2","","3.7","","97","","","","36","","17","","24.1","","97.24","","","","","","Rain"
"-78.84","48.21","ROUYN-NORANDA A","7086719","2021-04-15 23:00","2021","04","15","23:00","3.3","","2.8","","96","","","","35","","22","","24.1","","97.24","","","","","","Rain"
"-78.84","48.21","ROUYN-NORANDA A","7086719","2021-04-16 00:00","2021","04","16","00:00","2.1","","1.6","","97","","","","36","","16","","24.1","","97.31","","","","","","Rain"
"-78.84","48.21","ROUYN-NORANDA A","7086719","2021-04-16 01:00","2021","04","16","01:00","1.3","","0.8","","96","","","","35","","17","","24.1","","97.31","","","","","","Rain"
"-78.84","48.21","ROUYN-NORANDA A","7086719","2021-04-16 02:00","2021","04","16","02:00","0.8","","0.3","","97","","","","35","","17","","24.1","","97.30","","","","","","NA"
"-78.84","48.21","ROUYN-NORANDA A","7086719","2021-04-16 03:00","2021","04","16","03:00","0.5","","0.1","","97","","","","36","","19","","24.1","","97.29","","","","","","Rain"
"-78.84","48.21","ROUYN-NORANDA A","7086719","2021-04-16 04:00","2021","04","16","04:00","0.4","","-0.1","","97","","","","1","","13","","19.3","","97.34","","","","","","Rain"
"-78.84","48.21","ROUYN-NORANDA A","7086719","2021-04-16 05:00","2021","04","16","05:00","0.2","","-0.1","","98","","","","1","","13","","24.1","","97.37","","","","","","Rain"
"-78.84","48.21","ROUYN-NORANDA A","7086719","2021-04-16 06:00","2021","04","16","06:00","0.0","","-0.2","","99","","","","1","","13","","24.1","","97.41","","","","-4","","Rain"
"-78.84","48.21","ROUYN-NORANDA A","7086719","2021-04-16 07:00","2021","04","16","07:00","0.1","","-0.3","","97","","","","3","","11","","19.3","","97.47","","","","","","Rain"
"-78.84","48.21","ROUYN-NORANDA A","7086719","2021-04-16 08:00","2021","04","16","08:00","0.8","","0.4","","97","","","","1","","11","","24.1","","97.49","","","","","","Rain"
"-78.84","48.21","ROUYN-NORANDA A","7086719","2021-04-16 09:00","2021","04","16","09:00","1.8","","1.1","","95","","","","1","","15","","24.1","","97.51","","","","","","NA"
"-78.84","48.21","ROUYN-NORANDA A","7086719","2021-04-16 10:00","2021","04","16","10:00","3.0","","1.5","","90","","","","34","","16","","24.1","","97.50","","","","","","Cloudy"
"-78.84","48.21","ROUYN-NORANDA A","7086719","2021-04-16 11:00","2021","04","16","11:00","4.8","","2.5","","85","","","","35","","11","","24.1","","97.49","","","","","","NA"
"-78.84","48.21","ROUYN-NORANDA A","7086719","2021-04-16 12:00","2021","04","16","12:00","6.5","","2.3","","75","","","","2","","7","","24.1","","97.46","","","","","","NA"
"-78.84","48.21","ROUYN-NORANDA A","7086719","2021-04-16 13:00","2021","04","16","13:00","9.1","","3.1","","66","","","","34","","12","","24.1","","97.44","","","","","","Mostly Cloudy"
"-78.84","48.21","ROUYN-NORANDA A","7086719","2021-04-16 14:00","2021","04","16","14:00","10.9","","3.5","","60","","","","31","","11","","24.1","","97.41","","","","","","NA"
"-78.84","48.21","ROUYN-NORANDA A","7086719","2021-04-16 15:00","2021","04","16","15:00","11.2","","3.0","","57","","","","33","","13","","24.1","","97.38","","","","","","NA"
"-78.84","48.21","ROUYN-NORANDA A","7086719","2021-04-16 16:00","2021","04","16","16:00","11.4","","1.8","","51","","","","35","","19","","24.1","","97.37","","","","","","Mostly Cloudy"
"-78.84","48.21","ROUYN-NORANDA A","7086719","2021-04-16 17:00","2021","04","16","17:00","10.9","","1.4","","52","","","","1","","16","","24.1","","97.40","","","","","","NA"
"-78.84","48.21","ROUYN-NORANDA A","7086719","2021-04-16 18:00","2021","04","16","18:00","9.8","","1.0","","54","","","","34","","16","","24.1","","97.43","","","","","","NA"
"-78.84","48.21","ROUYN-NORANDA A","7086719","2021-04-16 19:00","2021","04","16","19:00","8.7","","0.7","","57","","","","36","","12","","24.1","","97.48","","","","","","Mostly Cloudy"
"-78.84","48.21","ROUYN-NORANDA A","7086719","2021-04-16 20:00","2021","04","16","20:00","7.8","","0.7","","61","","","","35","","10","","24.1","","97.51","","","","","","NA"
"-78.84","48.21","ROUYN-NORANDA A","7086719","2021-04-16 21:00","2021","04","16","21:00","7.0","","1.0","","66","","","","36","","16","","24.1","","97.53","","","","","","NA"
"-78.84","48.21","ROUYN-NORANDA A","7086719","2021-04-16 22:00","2021","04","16","22:00","5.7","","0.4","","69","","","","1","","18","","24.1","","97.54","","","","","","Mostly Cloudy"
"-78.84","48.21","ROUYN-NORANDA A","7086719","2021-04-16 23:00","2021","04","16","23:00","4.5","","0.4","","75","","","","35","","13","","24.1","","97.55","","","","","","NA"
"-78.84","48.21","ROUYN-NORANDA A","7086719","2021-04-17 00:00","2021","04","17","00:00","3.6","","-0.4","","75","","","","35","","16","","24.1","","97.54","","","","","","NA"
"-78.84","48.21","ROUYN-NORANDA A","7086719","2021-04-17 01:00","2021","04","17","01:00","3.0","","-0.7","","76","","","","36","","16","","24.1","","97.52","","","","","","Cloudy"
"-78.84","48.21","ROUYN-NORANDA A","7086719","2021-04-17 02:00","2021","04","17","02:00","2.4","","-0.9","","79","","","","36","","12","","24.1","","97.52","","","","","","NA"
"-78.84","48.21","ROUYN-NORANDA A","7086719","2021-04-17 03:00","2021","04","17","03:00","1.7","","-1.4","","80","","","","35","","13","","24.1","","97.49","","","","","","NA"
"-78.84","48.21","ROUYN-NORANDA A","7086719","2021-04-17 04:00","2021","04","17","04:00","1.0","","-1.7","","82","","","","35","","12","","24.1","","97.51","","","","","","Mostly Cloudy"
"-78.84","48.21","ROUYN-NORANDA A","7086719","2021-04-17 05:00","2021","04","17","05:00","0.0","","-2.2","","85","","","","34","","9","","24.1","","97.50","","","","-3","","NA"
"-78.84","48.21","ROUYN-NORANDA A","7086719","2021-04-17 06:00","2021","04","17","06:00","-0.2","","-2.3","","86","","","","35","","7","","24.1","","97.53","","","","-3","","NA"
"-78.84","48.21","ROUYN-NORANDA A","7086719","2021-04-17 07:00","2021","04","17","07:00","0.8","","-1.9","","82","","","","1","","12","","24.1","","97.53","","","","","","Mostly Cloudy"
"-78.84","48.21","ROUYN-NORANDA A","7086719","2021-04-17 08:00","2021","04","17","08:00","1.5","","-1.9","","79","","","","34","","11","","24.1","","97.53","","","","","","NA"
"-78.84","48.21","ROUYN-NORANDA A","7086719","2021-04-17 09:00","2021","04","17","09:00","3.7","","-1.1","","71","","","","1","","7","","24.1","","97.51","","","","","","NA"
"-78.84","48.21","ROUYN-NORANDA A","7086719","2021-04-17 10:00","2021","04","17","10:00","5.8","","-0.5","","64","","","","32","","10","","24.1","","97.49","","","","","","Mostly Cloudy"
"-78.84","48.21","ROUYN-NORANDA A","7086719","2021-04-17 11:00","2021","04","17","11:00","7.9","","0.3","","59","","","","33","","8","","24.1","","97.45","","","","","","NA"
"-78.84","48.21","ROUYN-NORANDA A","7086719","2021-04-17 12:00","2021","04","17","12:00","10.2","","0.3","","50","","","","32","","11","","24.1","","97.40","","","","","","NA"
"-78.84","48.21","ROUYN-NORANDA A","7086719","2021-04-17 13:00","2021","04","17","13:00","11.5","","0.9","","48","","","","31","","16","","24.1","","97.35","","","","","","Mostly Cloudy"
"-78.84","48.21","ROUYN-NORANDA A","7086719","2021-04-17 14:00","2021","04","17","14:00","11.6","","0.3","","46","","","","33","","10","","24.1","","97.32","","","","","","NA"
"-78.84","48.21","ROUYN-NORANDA A","7086719","2021-04-17 15:00","2021","04","17","15:00","12.1","","0.2","","44","","","","34","","13","","24.1","","97.29","","","","","","NA"
"-78.84","48.21","ROUYN-NORANDA A","7086719","2021-04-17 16:00","2021","04","17","16:00","12.3","","0.2","","43","","","","32","","15","","24.1","","97.28","","","","","","Mostly Cloudy"
"-78.84","48.21","ROUYN-NORANDA A","7086719","2021-04-17 17:00","2021","04","17","17:00","11.8","","-0.2","","44","","","","1","","10","","24.1","","97.26","","","","","","NA"
"-78.84","48.21","ROUYN-NORANDA A","7086719","2021-04-17 18:00","2021","04","17","18:00","11.4","","-0.3","","44","","","","2","","9","","24.1","","97.26","","","","","","NA"
"-78.84","48.21","ROUYN-NORANDA A","7086719","2021-04-17 19:00","2021","04","17","19:00","10.3","","0.3","","50","","","","2","","9","","24.1","","97.27","","","","","","Mostly Cloudy"
"-78.84","48.21","ROUYN-NORANDA A","7086719","2021-04-17 20:00","2021","04","17","20:00","9.0","","-0.2","","53","","","","2","","5","","24.1","","97.32","","","","","","NA"
"-78.84","48.21","ROUYN-NORANDA A","7086719","2021-04-17 21:00","2021","04","17","21:00","7.8","","0.1","","58","","","","33","","5","","24.1","","97.32","","","","","","NA"
"-78.84","48.21","ROUYN-NORANDA A","7086719","2021-04-17 22:00","2021","04","17","22:00","7.4","","-0.2","","59","","","","1","","7","","24.1","","97.31","","","","","","Cloudy"
"-78.84","48.21","ROUYN-NORANDA A","7086719","2021-04-17 23:00","2021","04","17","23:00","6.3","","0.0","","64","","","","35","","6","","24.1","","97.31","","","","","","NA"
"-78.84","48.21","ROUYN-NORANDA A","7086719","2021-04-18 00:00","2021","04","18","00:00","5.6","","0.4","","69","","","","1","","8","","24.1","","97.32","","","","","","NA"
"-78.84","48.21","ROUYN-NORANDA A","7086719","2021-04-18 01:00","2021","04","18","01:00","5.1","","0.3","","71","","","","3","","9","","24.1","","97.33","","","","","","Cloudy"
"-78.84","48.21","ROUYN-NORANDA A","7086719","2021-04-18 02:00","2021","04","18","02:00","4.5","","-0.4","","71","","","","3","","8","","24.1","","97.33","","","","","","NA"
"-78.84","48.21","ROUYN-NORANDA A","7086719","2021-04-18 03:00","2021","04","18","03:00","3.9","","-0.7","","72","","","","2","","8","","24.1","","97.36","","","","","","NA"
"-78.84","48.21","ROUYN-NORANDA A","7086719","2021-04-18 04:00","2021","04","18","04:00","3.0","","-0.8","","76","","","","1","","10","","24.1","","97.39","","","","","","Mostly Cloudy"
"-78.84","48.21","ROUYN-NORANDA A","7086719","2021-04-18 05:00","2021","04","18","05:00","2.2","","-1.8","","75","","","","36","","10","","24.1","","97.40","","","","","","NA"
"-78.84","48.21","ROUYN-NORANDA A","7086719","2021-04-18 06:00","2021","04","18","06:00","1.2","","-2.9","","74","","","","35","","4","","24.1","","97.43","","","","","","NA"
"-78.84","48.21","ROUYN-NORANDA A","7086719","2021-04-18 07:00","2021","04","18","07:00","2.3","","-3.1","","67","","","","1","","13","","24.1","","97.47","","","","","","Mainly Clear"
"-78.84","48.21","ROUYN-NORANDA A","7086719","2021-04-18 08:00","2021","04","18","08:00","4.4","","-5.8","","47","","","","2","","9","","24.1","","97.47","","","","","","NA"
"-78.84","48.21","ROUYN-NORANDA A","7086719","2021-04-18 09:00","2021","04","18","09:00","6.3","","-6.7","","39","","","","34","","5","","24.1","","97.44","","","","","","NA"
"-78.84","48.21","ROUYN-NORANDA A","7086719","2021-04-18 10:00","2021","04","18","10:00","7.7","","-7.8","","33","","","","1","","16","","24.1","","97.43","","","","","","Mainly Clear"
"-78.84","48.21","ROUYN-NORANDA A","7086719","2021-04-18 11:00","2021","04","18","11:00","9.2","","-5.8","","34","","","","32","","12","","24.1","","97.39","","","","","","NA"
"-78.84","48.21","ROUYN-NORANDA A","7086719","2021-04-18 12:00","2021","04","18","12:00","9.7","","-11.8","","21","","","","34","","8","","24.1","","97.35","","","","","","NA"
"-78.84","48.21","ROUYN-NORANDA A","7086719","2021-04-18 13:00","2021","04","18","13:00","10.7","","-10.0","","22","","","","1","","7","","24.1","","97.31","","","","","","Mainly Clear"
"-78.84","48.21","ROUYN-NORANDA A","7086719","2021-04-18 14:00","2021","04","18","14:00","11.4","","-9.9","","21","","","","36","","12","","24.1","","97.28","","","","","","NA"
"-78.84","48.21","ROUYN-NORANDA A","7086719","2021-04-18 15:00","2021","04","18","15:00","11.9","","-7.7","","24","","","","36","","3","","24.1","","97.25","","","","","","NA"
"-78.84","48.21","ROUYN-NORANDA A","7086719","2021-04-18 16:00","2021","04","18","16:00","11.7","","-9.1","","22","","","","33","","10","","24.1","","97.24","","","","","","Clear"
"-78.84","48.21","ROUYN-NORANDA A","7086719","2021-04-18 17:00","2021","04","18","17:00","11.8","","-8.3","","24","","","","30","","14","","24.1","","97.24","","","","","","NA"
"-78.84","48.21","ROUYN-NORANDA A","7086719","2021-04-18 18:00","2021","04","18","18:00","11.0","","-9.4","","23","","","","28","","10","","24.1","","97.24","","","","","","NA"
"-78.84","48.21","ROUYN-NORANDA A","7086719","2021-04-18 19:00","2021","04","18","19:00","9.2","","-8.5","","28","","","","31","","7","","24.1","","97.25","","","","","","Mainly Clear"
"-78.84","48.21","ROUYN-NORANDA A","7086719","2021-04-18 20:00","2021","04","18","20:00","3.5","","-5.5","","52","","","","36","","2","","24.1","","97.28","","","","","","NA"
"-78.84","48.21","ROUYN-NORANDA A","7086719","2021-04-18 21:00","2021","04","18","21:00","2.0","","-4.1","","64","","","","36","","3","","24.1","","97.28","","","","","","NA"
"-78.84","48.21","ROUYN-NORANDA A","7086719","2021-04-18 22:00","2021","04","18","22:00","0.0","","-6.0","","64","","","","7","","6","","24.1","","97.26","","","","-2","","Clear"
"-78.84","48.21","ROUYN-NORANDA A","7086719","2021-04-18 23:00","2021","04","18","23:00","-0.1","","-5.2","","68","","","","6","","9","","24.1","","97.24","","","","-3","","NA"
"-78.84","48.21","ROUYN-NORANDA A","7086719","2021-04-19 00:00","2021","04","19","00:00","0.2","","-6.7","","60","","","","7","","9","","24.1","","97.24","","","","","","NA"
"-78.84","48.21","ROUYN-NORANDA A","7086719","2021-04-19 01:00","2021","04","19","01:00","-1.6","","-5.3","","76","","","","0","","1","","24.1","","97.23","","","","-2","","Mainly Clear"
"-78.84","48.21","ROUYN-NORANDA A","7086719","2021-04-19 02:00","2021","04","19","02:00","-2.8","","-5.6","","81","","","","36","","3","","24.1","","97.20","","","","-4","","NA"
"-78.84","48.21","ROUYN-NORANDA A","7086719","2021-04-19 03:00","2021","04","19","03:00","-2.9","","-5.7","","81","","","","","","0","","24.1","","97.18","","","","","","NA"
"-78.84","48.21","ROUYN-NORANDA A","7086719","2021-04-19 04:00","2021","04","19","04:00","-1.9","","-4.8","","81","","","","36","","2","","24.1","","97.16","","","","-3","","Mostly Cloudy"
"-78.84","48.21","ROUYN-NORANDA A","7086719","2021-04-19 05:00","2021","04","19","05:00","-2.6","","-5.0","","84","","","","36","","2","","24.1","","97.13","","","","-3","","NA"
"-78.84","48.21","ROUYN-NORANDA A","7086719","2021-04-19 06:00","2021","04","19","06:00","-1.9","","-5.0","","80","","","","5","","3","","24.1","","97.12","","","","-3","","NA"
"-78.84","48.21","ROUYN-NORANDA A","7086719","2021-04-19 07:00","2021","04","19","07:00","1.1","","-3.5","","72","","","","5","","4","","24.1","","97.12","","","","","","Mostly Cloudy"
"-78.84","48.21","ROUYN-NORANDA A","7086719","2021-04-19 08:00","2021","04","19","08:00","6.4","","-1.6","","57","","","","28","","3","","24.1","","97.10","","","","","","NA"
"-78.84","48.21","ROUYN-NORANDA A","7086719","2021-04-19 09:00","2021","04","19","09:00","8.7","","-2.1","","47","","","","24","","9","","24.1","","97.06","","","","","","NA"
"-78.84","48.21","ROUYN-NORANDA A","7086719","2021-04-19 10:00","2021","04","19","10:00","10.2","","-1.0","","46","","","","25","","8","","24.1","","97.02","","","","","","Mostly Cloudy"
"-78.84","48.21","ROUYN-NORANDA A","7086719","2021-04-19 11:00","2021","04","19","11:00","12.0","","-1.3","","39","","","","20","","11","","24.1","","96.93","","","","","","NA"
"-78.84","48.21","ROUYN-NORANDA A","7086719","2021-04-19 12:00","2021","04","19","12:00","11.7","","-1.2","","41","","","","13","","12","","24.1","","96.87","","","","","","NA"
"-78.84","48.21","ROUYN-NORANDA A","7086719","2021-04-19 13:00","2021","04","19","13:00","12.8","","-1.0","","38","","","","18","","17","","24.1","","96.79","","","","","","Rain Showers"
"-78.84","48.21","ROUYN-NORANDA A","7086719","2021-04-19 14:00","2021","04","19","14:00","13.1","","-1.4","","37","","","","13","","13","","24.1","","96.70","","","","","","NA"
"-78.84","48.21","ROUYN-NORANDA A","7086719","2021-04-19 15:00","2021","04","19","15:00","13.0","","-1.7","","36","","","","12","","16","","24.1","","96.63","","","","","","NA"
"-78.84","48.21","ROUYN-NORANDA A","7086719","2021-04-19 16:00","2021","04","19","16:00","13.9","","-0.8","","36","","","","18","","11","","24.1","","96.59","","","","","","Mostly Cloudy"
"-78.84","48.21","ROUYN-NORANDA A","7086719","2021-04-19 17:00","2021","04","19","17:00","13.5","","-1.8","","35","","","","18","","22","","24.1","","96.56","","","","","","NA"
"-78.84","48.21","ROUYN-NORANDA A","7086719","2021-04-19 18:00","2021","04","19","18:00","12.4","","-2.9","","34","","","","18","","11","","24.1","","96.53","","","","","","NA"
"-78.84","48.21","ROUYN-NORANDA A","7086719","2021-04-19 19:00","2021","04","19","19:00","11.3","","-1.0","","42","","","","21","","20","","24.1","","96.54","","","","","","Cloudy"
"-78.84","48.21","ROUYN-NORANDA A","7086719","2021-04-19 20:00","2021","04","19","20:00","7.3","","4.7","","83","","","","22","","15","","24.1","","96.61","","","","","","Rain"
"-78.84","48.21","ROUYN-NORANDA A","7086719","2021-04-19 21:00","2021","04","19","21:00","4.6","","3.7","","94","","","","24","","23","","9.7","","96.64","","","","","","Moderate Rain"
"-78.84","48.21","ROUYN-NORANDA A","7086719","2021-04-19 22:00","2021","04","19","22:00","4.1","","3.6","","97","","","","17","","11","","24.1","","96.55","","","","","","Rain"
"-78.84","48.21","ROUYN-NORANDA A","7086719","2021-04-19 23:00","2021","04","19","23:00","4.2","","3.9","","98","","","","19","","10","","24.1","","96.49","","","","","","Rain"
"-78.84","48.21","ROUYN-NORANDA A","7086719","2021-04-20 00:00","2021","04","20","00:00","3.8","","2.7","","93","","","","22","","20","","24.1","","96.47","","","","","","NA"
"-78.84","48.21","ROUYN-NORANDA A","7086719","2021-04-20 01:00","2021","04","20","01:00","2.3","","1.2","","93","","","","24","","22","","24.1","","96.51","","","","","","Mostly Cloudy"
"-78.84","48.21","ROUYN-NORANDA A","7086719","2021-04-20 02:00","2021","04","20","02:00","0.7","","-1.1","","88","","","","23","","22","","24.1","","96.50","","","","","","NA"
"-78.84","48.21","ROUYN-NORANDA A","7086719","2021-04-20 03:00","2021","04","20","03:00","0.3","","-0.9","","92","","","","23","","14","","24.1","","96.50","","","","","","Snow"
"-78.84","48.21","ROUYN-NORANDA A","7086719","2021-04-20 04:00","2021","04","20","04:00","-0.3","","-2.1","","88","","","","24","","25","","24.1","","96.52","","","","-6","","Snow"
"-78.84","48.21","ROUYN-NORANDA A","7086719","2021-04-20 05:00","2021","04","20","05:00","-1.0","","-2.0","","93","","","","23","","23","","2.8","","96.52","","","","-7","","Snow"
"-78.84","48.21","ROUYN-NORANDA A","7086719","2021-04-20 06:00","2021","04","20","06:00","-1.8","","-2.8","","92","","","","28","","23","","4.8","","96.62","","","","-8","","Snow"
"-78.84","48.21","ROUYN-NORANDA A","7086719","2021-04-20 07:00","2021","04","20","07:00","-3.5","","-5.0","","90","","","","28","","21","","2.0","","96.74","","","","-10","","Snow"
"-78.84","48.21","ROUYN-NORANDA A","7086719","2021-04-20 08:00","2021","04","20","08:00","-4.7","","-7.0","","84","","","","28","","23","","6.4","","96.89","","","","-12","","Snow"
"-78.84","48.21","ROUYN-NORANDA A","7086719","2021-04-20 09:00","2021","04","20","09:00","-5.0","","-8.1","","79","","","","30","","12","","6.4","","96.96","","","","-10","","Snow"
"-78.84","48.21","ROUYN-NORANDA A","7086719","2021-04-20 10:00","2021","04","20","10:00","-5.5","","-9.2","","75","","","","29","","22","","2.4","","97.08","","","","-13","","Snow Showers"
"-78.84","48.21","ROUYN-NORANDA A","7086719","2021-04-20 11:00","2021","04","20","11:00","-5.2","","-9.5","","72","","","","28","","23","","4.8","","97.19","","","","-12","","Snow Showers"
"-78.84","48.21","ROUYN-NORANDA A","7086719","2021-04-20 12:00","2021","04","20","12:00","-4.9","","-10.1","","67","","","","28","","21","","6.4","","97.28","","","","-12","","Snow Showers"
"-78.84","48.21","ROUYN-NORANDA A","7086719","2021-04-20 13:00","2021","04","20","13:00","-6.1","","-10.1","","74","","","","30","","20","","4.8","","97.41","","","","-13","","Snow Showers"
"-78.84","48.21","ROUYN-NORANDA A","7086719","2021-04-20 14:00","2021","04","20","14:00","-6.3","","-12.5","","61","","","","29","","22","","12.9","","97.48","","","","-14","","Snow Showers"
"-78.84","48.21","ROUYN-NORANDA A","7086719","2021-04-20 15:00","2021","04","20","15:00","-6.3","","-13.1","","59","","","","29","","22","","16.1","","97.57","","","","-14","","Snow Showers"
"-78.84","48.21","ROUYN-NORANDA A","7086719","2021-04-20 16:00","2021","04","20","16:00","-6.4","","-12.1","","64","","","","29","","18","","8.1","","97.64","","","","-13","","Snow Showers"
"-78.84","48.21","ROUYN-NORANDA A","7086719","2021-04-20 17:00","2021","04","20","17:00","-6.7","","-14.0","","56","","","","31","","17","","12.9","","97.70","","","","-13","","Snow Showers"
"-78.84","48.21","ROUYN-NORANDA A","7086719","2021-04-20 18:00","2021","04","20","18:00","-6.9","","-13.9","","58","","","","30","","23","","16.1","","97.75","","","","-14","","Snow"
"-78.84","48.21","ROUYN-NORANDA A","7086719","2021-04-20 19:00","2021","04","20","19:00","-7.4","","-12.8","","66","","","","32","","17","","24.1","","97.83","","","","-14","","Snow"
"-78.84","48.21","ROUYN-NORANDA A","7086719","2021-04-20 20:00","2021","04","20","20:00","-7.9","","-12.1","","72","","","","30","","20","","3.2","","97.92","","","","-15","","Snow Showers"
"-78.84","48.21","ROUYN-NORANDA A","7086719","2021-04-20 21:00","2021","04","20","21:00","-8.6","","-11.1","","82","","","","33","","17","","6.4","","98.01","","","","-15","","Snow"
"-78.84","48.21","ROUYN-NORANDA A","7086719","2021-04-20 22:00","2021","04","20","22:00","-8.6","","-11.7","","78","","","","30","","16","","4.8","","98.02","","","","-15","","Snow Showers"
"-78.84","48.21","ROUYN-NORANDA A","7086719","2021-04-20 23:00","2021","04","20","23:00","-8.5","","-11.8","","78","","","","30","","13","","9.7","","98.00","","","","-14","","Snow Showers"
"-78.84","48.21","ROUYN-NORANDA A","7086719","2021-04-21 00:00","2021","04","21","00:00","-9.0","","-11.8","","80","","","","31","","10","","16.1","","97.98","","","","-14","","Snow Showers"
"-78.84","48.21","ROUYN-NORANDA A","7086719","2021-04-21 01:00","2021","04","21","01:00","-8.9","","-12.3","","77","","","","30","","10","","24.1","","97.94","","","","-14","","Snow Showers"
"-78.84","48.21","ROUYN-NORANDA A","7086719","2021-04-21 02:00","2021","04","21","02:00","-8.9","","-12.0","","79","","","","28","","12","","24.1","","97.89","","","","-15","","Snow Showers"
"-78.84","48.21","ROUYN-NORANDA A","7086719","2021-04-21 03:00","2021","04","21","03:00","-8.8","","-11.6","","80","","","","30","","13","","6.4","","97.86","","","","-15","","Snow"
"-78.84","48.21","ROUYN-NORANDA A","7086719","2021-04-21 04:00","2021","04","21","04:00","-8.8","","-11.0","","84","","","","31","","8","","12.9","","97.84","","","","-13","","Snow"
"-78.84","48.21","ROUYN-NORANDA A","7086719","2021-04-21 05:00","2021","04","21","05:00","-8.9","","-11.2","","83","","","","3","","8","","24.1","","97.84","","","","-13","","Snow"
"-78.84","48.21","ROUYN-NORANDA A","7086719","2021-04-21 06:00","2021","04","21","06:00","-9.0","","-11.9","","79","","","","33","","11","","24.1","","97.86","","","","-14","","Snow"
"-78.84","48.21","ROUYN-NORANDA A","7086719","2021-04-21 07:00","2021","04","21","07:00","-8.5","","-12.6","","72","","","","35","","13","","16.1","","97.92","","","","-14","","Snow"
"-78.84","48.21","ROUYN-NORANDA A","7086719","2021-04-21 08:00","2021","04","21","08:00","-8.0","","-12.4","","71","","","","35","","10","","16.1","","97.91","","","","-13","","Snow Showers"
"-78.84","48.21","ROUYN-NORANDA A","7086719","2021-04-21 09:00","2021","04","21","09:00","-6.8","","-11.8","","68","","","","35","","17","","12.9","","97.84","","","","-13","","Snow Showers"
"-78.84","48.21","ROUYN-NORANDA A","7086719","2021-04-21 10:00","2021","04","21","10:00","-6.1","","-11.5","","66","","","","34","","16","","19.3","","97.81","","","","-12","","Snow Showers"
"-78.84","48.21","ROUYN-NORANDA A","7086719","2021-04-21 11:00","2021","04","21","11:00","-5.4","","-10.7","","67","","","","29","","10","","19.3","","97.77","","","","-10","","Snow Showers"
"-78.84","48.21","ROUYN-NORANDA A","7086719","2021-04-21 12:00","2021","04","21","12:00","-4.7","","-10.0","","67","","","","29","","19","","12.9","","97.73","","","","-11","","Snow Showers"
"-78.84","48.21","ROUYN-NORANDA A","7086719","2021-04-21 13:00","2021","04","21","13:00","-3.8","","-10.9","","58","","","","34","","16","","24.1","","97.69","","","","-9","","Snow Showers"
"-78.84","48.21","ROUYN-NORANDA A","7086719","2021-04-21 14:00","2021","04","21","14:00","-2.4","","-10.4","","54","","","","34","","15","","24.1","","97.65","","","","-7","","NA"
"-78.84","48.21","ROUYN-NORANDA A","7086719","2021-04-21 15:00","2021","04","21","15:00","-1.7","","-11.2","","48","","","","33","","21","","24.1","","97.57","","","","-8","","NA"
"-78.84","48.21","ROUYN-NORANDA A","7086719","2021-04-21 16:00","2021","04","21","16:00","-1.9","","-11.1","","49","","","","34","","18","","24.1","","97.54","","","","-7","","Mostly Cloudy"
"-78.84","48.21","ROUYN-NORANDA A","7086719","2021-04-21 17:00","2021","04","21","17:00","-2.0","","-10.8","","51","","","","31","","21","","24.1","","97.55","","","","-8","","NA"
"-78.84","48.21","ROUYN-NORANDA A","7086719","2021-04-21 18:00","2021","04","21","18:00","-2.5","","-10.4","","55","","","","35","","16","","24.1","","97.57","","","","-8","","NA"
"-78.84","48.21","ROUYN-NORANDA A","7086719","2021-04-21 19:00","2021","04","21","19:00","-3.2","","-10.7","","56","","","","36","","18","","24.1","","97.56","","","","-9","","Snow"
"-78.84","48.21","ROUYN-NORANDA A","7086719","2021-04-21 20:00","2021","04","21","20:00","-4.3","","-10.8","","61","","","","1","","8","","24.1","","97.57","","","","-8","","NA"
"-78.84","48.21","ROUYN-NORANDA A","7086719","2021-04-21 21:00","2021","04","21","21:00","-5.0","","-9.9","","69","","","","33","","3","","24.1","","97.56","","","","-6","","NA"
"-78.84","48.21","ROUYN-NORANDA A","7086719","2021-04-21 22:00","2021","04","21","22:00","-5.7","","-9.2","","76","","","","31","","5","","24.1","","97.52","","","","-8","","Mostly Cloudy"
"-78.84","48.21","ROUYN-NORANDA A","7086719","2021-04-21 23:00","2021","04","21","23:00","-4.3","","-9.5","","67","","","","34","","11","","24.1","","97.47","","","","-9","","NA"
"-78.84","48.21","ROUYN-NORANDA A","7086719","2021-04-22 00:00","2021","04","22","00:00","-5.2","","-9.8","","70","","","","1","","13","","24.1","","97.46","","","","-10","","NA"
"-78.84","48.21","ROUYN-NORANDA A","7086719","2021-04-22 01:00","2021","04","22","01:00","-6.7","","-10.2","","76","","","","1","","6","","24.1","","97.40","","","","-10","","Mainly Clear"
"-78.84","48.21","ROUYN-NORANDA A","7086719","2021-04-22 02:00","2021","04","22","02:00","-7.7","","-10.3","","81","","","","1","","7","","24.1","","97.37","","","","-11","","NA"
"-78.84","48.21","ROUYN-NORANDA A","7086719","2021-04-22 03:00","2021","04","22","03:00","-9.3","","-11.4","","85","","","","36","","2","","24.1","","97.35","","","","-10","","NA"
"-78.84","48.21","ROUYN-NORANDA A","7086719","2021-04-22 04:00","2021","04","22","04:00","-11.8","","-13.4","","88","","","","26","","4","","24.1","","97.34","","","","-14","","Clear"
"-78.84","48.21","ROUYN-NORANDA A","7086719","2021-04-22 05:00","2021","04","22","05:00","-12.7","","-14.4","","87","","","","36","","2","","24.1","","97.33","","","","-14","","NA"
"-78.84","48.21","ROUYN-NORANDA A","7086719","2021-04-22 06:00","2021","04","22","06:00","-10.9","","-12.6","","88","","","","24","","3","","24.1","","97.30","","","","-13","","NA"
"-78.84","48.21","ROUYN-NORANDA A","7086719","2021-04-22 07:00","2021","04","22","07:00","-5.8","","-9.2","","77","","","","30","","8","","24.1","","97.32","","","","-10","","Clear"
"-78.84","48.21","ROUYN-NORANDA A","7086719","2021-04-22 08:00","2021","04","22","08:00","-2.9","","-9.9","","59","","","","33","","15","","24.1","","97.32","","","","-8","","NA"
"-78.84","48.21","ROUYN-NORANDA A","7086719","2021-04-22 09:00","2021","04","22","09:00","-1.7","","-11.9","","46","","","","35","","23","","24.1","","97.29","","","","-8","","NA"
"-78.84","48.21","ROUYN-NORANDA A","7086719","2021-04-22 10:00","2021","04","22","10:00","0.2","","-10.9","","43","","","","34","","19","","24.1","","97.27","","","","","","Mostly Cloudy"
"-78.84","48.21","ROUYN-NORANDA A","7086719","2021-04-22 11:00","2021","04","22","11:00","0.7","","-10.3","","44","","","","35","","21","","24.1","","97.25","","","","","","NA"
"-78.84","48.21","ROUYN-NORANDA A","7086719","2021-04-22 12:00","2021","04","22","12:00","2.0","","-9.6","","42","","","","32","","20","","24.1","","97.19","","","","","","NA"
"-78.84","48.21","ROUYN-NORANDA A","7086719","2021-04-22 13:00","2021","04","22","13:00","4.1","","-8.4","","40","","","","31","","17","","24.1","","97.13","","","","","","Mostly Cloudy"
"-78.84","48.21","ROUYN-NORANDA A","7086719","2021-04-22 14:00","2021","04","22","14:00","4.4","","-8.2","","40","","","","35","","17","","24.1","","97.11","","","","","","NA"
"-78.84","48.21","ROUYN-NORANDA A","7086719","2021-04-22 15:00","2021","04","22","15:00","4.8","","-8.4","","38","","","","32","","28","","24.1","","97.10","","","","","","NA"
"-78.84","48.21","ROUYN-NORANDA A","7086719","2021-04-22 16:00","2021","04","22","16:00","4.9","","-7.8","","39","","","","32","","32","","24.1","","97.09","","","","","","Mostly Cloudy"
"-78.84","48.21","ROUYN-NORANDA A","7086719","2021-04-22 17:00","2021","04","22","17:00","5.4","","-7.0","","41","","","","31","","23","","24.1","","97.12","","","","","","NA"
"-78.84","48.21","ROUYN-NORANDA A","7086719","2021-04-22 18:00","2021","04","22","18:00","4.3","","-6.8","","44","","","","32","","14","","24.1","","97.13","","","","","","NA"
"-78.84","48.21","ROUYN-NORANDA A","7086719","2021-04-22 19:00","2021","04","22","19:00","4.0","","-6.3","","47","","","","32","","15","","24.1","","97.16","","","","","","Mostly Cloudy"
"-78.84","48.21","ROUYN-NORANDA A","7086719","2021-04-22 20:00","2021","04","22","20:00","3.4","","-5.2","","53","","","","30","","10","","24.1","","97.20","","","","","","NA"
"-78.84","48.21","ROUYN-NORANDA A","7086719","2021-04-22 21:00","2021","04","22","21:00","1.7","","-5.2","","60","","","","27","","8","","24.1","","97.20","","","","","","NA"
"-78.84","48.21","ROUYN-NORANDA A","7086719","2021-04-22 22:00","2021","04","22","22:00","-0.2","","-5.2","","69","","","","27","","8","","24.1","","97.19","","","","-3","","Mainly Clear"
"-78.84","48.21","ROUYN-NORANDA A","7086719","2021-04-22 23:00","2021","04","22","23:00","-0.7","","-4.8","","74","","","","27","","6","","24.1","","97.18","","","","-3","","NA"
"-78.84","48.21","ROUYN-NORANDA A","7086719","2021-04-23 00:00","2021","04","23","00:00","-2.6","","-5.3","","82","","","","3","","3","","24.1","","97.19","","","","-4","","NA"
"-78.84","48.21","ROUYN-NORANDA A","7086719","2021-04-23 01:00","2021","04","23","01:00","-3.8","","-5.6","","87","","","","19","","4","","24.1","","97.16","","","","-5","","Mainly Clear"
"-78.84","48.21","ROUYN-NORANDA A","7086719","2021-04-23 02:00","2021","04","23","02:00","-2.6","","-4.7","","85","","","","36","","2","","24.1","","97.15","","","","-3","","NA"
"-78.84","48.21","ROUYN-NORANDA A","7086719","2021-04-23 03:00","2021","04","23","03:00","-2.2","","-4.3","","86","","","","23","","7","","24.1","","97.15","","","","-5","","NA"
"-78.84","48.21","ROUYN-NORANDA A","7086719","2021-04-23 04:00","2021","04","23","04:00","-1.4","","-4.6","","79","","","","26","","7","","24.1","","97.15","","","","-4","","Mostly Cloudy"
"-78.84","48.21","ROUYN-NORANDA A","7086719","2021-04-23 05:00","2021","04","23","05:00","-2.2","","-4.7","","83","","","","22","","5","","24.1","","97.17","","","","-4","","NA"
"-78.84","48.21","ROUYN-NORANDA A","7086719","2021-04-23 06:00","2021","04","23","06:00","-0.9","","-3.7","","82","","","","24","","11","","24.1","","97.21","","","","-5","","NA"
"-78.84","48.21","ROUYN-NORANDA A","7086719","2021-04-23 07:00","2021","04","23","07:00","0.8","","-3.2","","75","","","","26","","10","","24.1","","97.22","","","","","","Mostly Cloudy"
"-78.84","48.21","ROUYN-NORANDA A","7086719","2021-04-23 08:00","2021","04","23","08:00","3.9","","-3.5","","59","","","","29","","12","","24.1","","97.21","","","","","","NA"
"-78.84","48.21","ROUYN-NORANDA A","7086719","2021-04-23 09:00","2021","04","23","09:00","6.7","","-2.2","","53","","","","28","","12","","24.1","","97.18","","","","","","NA"
"-78.84","48.21","ROUYN-NORANDA A","7086719","2021-04-23 10:00","2021","04","23","10:00","9.1","","-2.5","","44","","","","25","","11","","24.1","","97.13","","","","","","Clear"
"-78.84","48.21","ROUYN-NORANDA A","7086719","2021-04-23 11:00","2021","04","23","11:00","11.2","","-1.7","","40","","","","25","","19","","24.1","","97.09","","","","","","NA"
"-78.84","48.21","ROUYN-NORANDA A","7086719","2021-04-23 12:00","2021","04","23","12:00","13.8","","-3.0","","31","","","","26","","23","","24.1","","97.02","","","","","","NA"
"-78.84","48.21","ROUYN-NORANDA A","7086719","2021-04-23 13:00","2021","04","23","13:00","15.4","","-2.3","","29","","","","27","","23","","24.1","","96.98","","","","","","Clear"
"-78.84","48.21","ROUYN-NORANDA A","7086719","2021-04-23 14:00","2021","04","23","14:00","16.1","","-2.2","","28","","","","28","","24","","24.1","","96.93","","","","","","NA"
"-78.84","48.21","ROUYN-NORANDA A","7086719","2021-04-23 15:00","2021","04","23","15:00","17.3","","-4.0","","23","","","","32","","16","","24.1","","96.87","","","","","","NA"
"-78.84","48.21","ROUYN-NORANDA A","7086719","2021-04-23 16:00","2021","04","23","16:00","18.2","","-4.9","","20","","","","28","","26","","24.1","","96.84","","","","","","Mainly Clear"
"-78.84","48.21","ROUYN-NORANDA A","7086719","2021-04-23 17:00","2021","04","23","17:00","18.0","","-5.2","","20","","","","29","","26","","24.1","","96.88","","","","","","NA"
"-78.84","48.21","ROUYN-NORANDA A","7086719","2021-04-23 18:00","2021","04","23","18:00","16.2","","-3.6","","25","","","","28","","17","","24.1","","96.90","","","","","","NA"
"-78.84","48.21","ROUYN-NORANDA A","7086719","2021-04-23 19:00","2021","04","23","19:00","15.3","","-4.3","","26","","","","31","","9","","24.1","","96.92","","","","","","Mainly Clear"
"-78.84","48.21","ROUYN-NORANDA A","7086719","2021-04-23 20:00","2021","04","23","20:00","11.3","","-3.4","","35","","","","25","","7","","24.1","","96.97","","","","","","NA"
"-78.84","48.21","ROUYN-NORANDA A","7086719","2021-04-23 21:00","2021","04","23","21:00","8.8","","-2.1","","46","","","","25","","6","","24.1","","97.00","","","","","","NA"
"-78.84","48.21","ROUYN-NORANDA A","7086719","2021-04-23 22:00","2021","04","23","22:00","7.6","","-2.7","","48","","","","25","","3","","24.1","","97.00","","","","","","Mainly Clear"
"-78.84","48.21","ROUYN-NORANDA A","7086719","2021-04-23 23:00","2021","04","23","23:00","5.5","","-1.9","","59","","","","36","","2","","24.1","","97.02","","","","","","NA"
"-78.84","48.21","ROUYN-NORANDA A","7086719","2021-04-24 00:00","2021","04","24","00:00","6.7","","-1.6","","55","","","","1","","6","","24.1","","97.07","","","","","","NA"
"-78.84","48.21","ROUYN-NORANDA A","7086719","2021-04-24 01:00","2021","04","24","01:00","8.4","","-2.5","","46","","","","33","","8","","24.1","","97.07","","","","","","Mainly Clear"
"-78.84","48.21","ROUYN-NORANDA A","7086719","2021-04-24 02:00","2021","04","24","02:00","3.2","","-2.8","","65","","","","19","","3","","24.1","","97.08","","","","","","NA"
"-78.84","48.21","ROUYN-NORANDA A","7086719","2021-04-24 03:00","2021","04","24","03:00","1.1","","-2.9","","75","","","","8","","6","","24.1","","97.15","","","","","","NA"
"-78.84","48.21","ROUYN-NORANDA A","7086719","2021-04-24 04:00","2021","04","24","04:00","-0.7","","-3.4","","82","","","","36","","3","","24.1","","97.23","","","","-2","","Mainly Clear"
"-78.84","48.21","ROUYN-NORANDA A","7086719","2021-04-24 05:00","2021","04","24","05:00","4.7","","-2.8","","58","","","","3","","16","","24.1","","97.32","","","","","","NA"
"-78.84","48.21","ROUYN-NORANDA A","7086719","2021-04-24 06:00","2021","04","24","06:00","3.2","","-2.7","","65","","","","36","","12","","24.1","","97.45","","","","","","NA"
"-78.84","48.21","ROUYN-NORANDA A","7086719","2021-04-24 07:00","2021","04","24","07:00","3.5","","-3.0","","63","","","","1","","15","","24.1","","97.54","","","","","","Mainly Clear"
"-78.84","48.21","ROUYN-NORANDA A","7086719","2021-04-24 08:00","2021","04","24","08:00","4.7","","-3.2","","57","","","","34","","12","","24.1","","97.59","","","","","","NA"
"-78.84","48.21","ROUYN-NORANDA A","7086719","2021-04-24 09:00","2021","04","24","09:00","6.4","","-2.4","","53","","","","32","","13","","24.1","","97.58","","","","","","NA"
"-78.84","48.21","ROUYN-NORANDA A","7086719","2021-04-24 10:00","2021","04","24","10:00","7.9","","-2.8","","47","","","","2","","10","","24.1","","97.58","","","","","","Mainly Clear"
"-78.84","48.21","ROUYN-NORANDA A","7086719","2021-04-24 11:00","2021","04","24","11:00","10.0","","-1.6","","44","","","","32","","5","","24.1","","97.56","","","","","","NA"
"-78.84","48.21","ROUYN-NORANDA A","7086719","2021-04-24 12:00","2021","04","24","12:00","10.2","","-1.0","","46","","","","33","","11","","24.1","","97.52","","","","","","NA"
"-78.84","48.21","ROUYN-NORANDA A","7086719","2021-04-24 13:00","2021","04","24","13:00","11.7","","-0.2","","44","","","","30","","15","","24.1","","97.48","","","","","","Mainly Clear"
"-78.84","48.21","ROUYN-NORANDA A","7086719","2021-04-24 14:00","2021","04","24","14:00","12.2","","0.0","","43","","","","28","","8","","24.1","","97.43","","","","","","NA"
"-78.84","48.21","ROUYN-NORANDA A","7086719","2021-04-24 15:00","2021","04","24","15:00","13.2","","0.1","","40","","","","30","","17","","24.1","","97.40","","","","","","NA"
"-78.84","48.21","ROUYN-NORANDA A","7086719","2021-04-24 16:00","2021","04","24","16:00","12.0","","-0.1","","43","","","","36","","14","","24.1","","97.33","","","","","","Mostly Cloudy"
"-78.84","48.21","ROUYN-NORANDA A","7086719","2021-04-24 17:00","2021","04","24","17:00","11.8","","-0.2","","44","","","","35","","14","","24.1","","97.33","","","","","","NA"
"-78.84","48.21","ROUYN-NORANDA A","7086719","2021-04-24 18:00","2021","04","24","18:00","10.4","","-0.3","","47","","","","35","","17","","24.1","","97.30","","","","","","NA"
"-78.84","48.21","ROUYN-NORANDA A","7086719","2021-04-24 19:00","2021","04","24","19:00","8.7","","-0.4","","53","","","","2","","16","","24.1","","97.31","","","","","","Mostly Cloudy"
"-78.84","48.21","ROUYN-NORANDA A","7086719","2021-04-24 20:00","2021","04","24","20:00","6.9","","-1.3","","56","","","","4","","18","","24.1","","97.32","","","","","","NA"
"-78.84","48.21","ROUYN-NORANDA A","7086719","2021-04-24 21:00","2021","04","24","21:00","5.0","","-2.2","","60","","","","5","","22","","24.1","","97.33","","","","","","NA"
"-78.84","48.21","ROUYN-NORANDA A","7086719","2021-04-24 22:00","2021","04","24","22:00","3.5","","-2.6","","64","","","","5","","22","","24.1","","97.32","","","","","","Mostly Cloudy"
"-78.84","48.21","ROUYN-NORANDA A","7086719","2021-04-24 23:00","2021","04","24","23:00","2.2","","-3.2","","67","","","","5","","17","","24.1","","97.32","","","","","","NA"
"-78.84","48.21","ROUYN-NORANDA A","7086719","2021-04-25 00:00","2021","04","25","00:00","1.1","","-3.6","","71","","","","6","","22","","24.1","","97.23","","","","","","NA"
"-78.84","48.21","ROUYN-NORANDA A","7086719","2021-04-25 01:00","2021","04","25","01:00","0.2","","-3.2","","78","","","","7","","21","","24.1","","97.13","","","","","","Mostly Cloudy"
"-78.84","48.21","ROUYN-NORANDA A","7086719","2021-04-25 02:00","2021","04","25","02:00","-0.1","","-3.6","","78","","","","7","","23","","24.1","","97.00","","","","-6","","NA"
"-78.84","48.21","ROUYN-NORANDA A","7086719","2021-04-25 03:00","2021","04","25","03:00","-0.7","","-3.4","","82","","","","7","","15","","24.1","","96.95","","","","-5","","NA"
"-78.84","48.21","ROUYN-NORANDA A","7086719","2021-04-25 04:00","2021","04","25","04:00","-1.1","","-4.0","","81","","","","1","","9","","24.1","","96.93","","","","-4","","Mostly Cloudy"
"-78.84","48.21","ROUYN-NORANDA A","7086719","2021-04-25 05:00","2021","04","25","05:00","-0.9","","-3.7","","81","","","","35","","9","","24.1","","96.93","","","","-4","","NA"
"-78.84","48.21","ROUYN-NORANDA A","7086719","2021-04-25 06:00","2021","04","25","06:00","-1.5","","-3.0","","90","","","","3","","11","","2.4","","96.92","","","","-5","","Snow"
"-78.84","48.21","ROUYN-NORANDA A","7086719","2021-04-25 07:00","2021","04","25","07:00","-2.0","","-2.6","","96","","","","1","","11","","1.6","","96.90","","","","-6","","Snow"
"-78.84","48.21","ROUYN-NORANDA A","7086719","2021-04-25 08:00","2021","04","25","08:00","-2.5","","-3.3","","94","","","","34","","17","","0.6","","96.98","","","","-8","","Moderate Snow,Blowing Snow"
"-78.84","48.21","ROUYN-NORANDA A","7086719","2021-04-25 09:00","2021","04","25","09:00","-3.3","","-4.5","","92","","","","31","","16","","0.8","","97.04","","","","-9","","Moderate Snow"
"-78.84","48.21","ROUYN-NORANDA A","7086719","2021-04-25 10:00","2021","04","25","10:00","-3.7","","-5.7","","86","","","","35","","19","","2.0","","97.13","","","","-10","","Snow"
"-78.84","48.21","ROUYN-NORANDA A","7086719","2021-04-25 11:00","2021","04","25","11:00","-2.9","","-6.0","","79","","","","34","","22","","2.4","","97.23","","","","-9","","Snow"
"-78.84","48.21","ROUYN-NORANDA A","7086719","2021-04-25 12:00","2021","04","25","12:00","-3.6","","-7.6","","74","","","","32","","32","","9.7","","97.32","","","","-11","","Snow"
"-78.84","48.21","ROUYN-NORANDA A","7086719","2021-04-25 13:00","2021","04","25","13:00","-3.4","","-7.8","","72","","","","32","","25","","24.1","","97.42","","","","-10","","Snow"
"-78.84","48.21","ROUYN-NORANDA A","7086719","2021-04-25 14:00","2021","04","25","14:00","-2.3","","-7.2","","69","","","","33","","17","","24.1","","97.51","","","","-8","","Snow"
"-78.84","48.21","ROUYN-NORANDA A","7086719","2021-04-25 15:00","2021","04","25","15:00","-3.1","","-8.2","","68","","","","33","","28","","24.1","","97.61","","","","-10","","Snow"
"-78.84","48.21","ROUYN-NORANDA A","7086719","2021-04-25 16:00","2021","04","25","16:00","-3.0","","-8.4","","66","","","","33","","27","","24.1","","97.68","","","","-10","","Snow"
"-78.84","48.21","ROUYN-NORANDA A","7086719","2021-04-25 17:00","2021","04","25","17:00","-2.7","","-8.7","","64","","","","34","","30","","19.3","","97.77","","","","-10","","Snow"
"-78.84","48.21","ROUYN-NORANDA A","7086719","2021-04-25 18:00","2021","04","25","18:00","-3.4","","-8.6","","67","","","","33","","28","","24.1","","97.86","","","","-11","","Snow"
"-78.84","48.21","ROUYN-NORANDA A","7086719","2021-04-25 19:00","2021","04","25","19:00","-3.7","","-9.0","","67","","","","34","","22","","24.1","","97.95","","","","-10","","Cloudy"
"-78.84","48.21","ROUYN-NORANDA A","7086719","2021-04-25 20:00","2021","04","25","20:00","-4.1","","-9.2","","68","","","","35","","24","","24.1","","98.07","","","","-11","","Snow"
"-78.84","48.21","ROUYN-NORANDA A","7086719","2021-04-25 21:00","2021","04","25","21:00","-4.8","","-9.6","","69","","","","33","","17","","24.1","","98.13","","","","-11","","NA"
"-78.84","48.21","ROUYN-NORANDA A","7086719","2021-04-25 22:00","2021","04","25","22:00","-5.0","","-11.5","","61","","","","32","","27","","24.1","","98.18","","","","-13","","Clear"
"-78.84","48.21","ROUYN-NORANDA A","7086719","2021-04-25 23:00","2021","04","25","23:00","-5.4","","-12.9","","56","","","","34","","18","","24.1","","98.22","","","","-12","","NA"
"-78.84","48.21","ROUYN-NORANDA A","7086719","2021-04-26 00:00","2021","04","26","00:00","-6.1","","-13.1","","58","","","","34","","17","","24.1","","98.30","","","","-12","","NA"
"-78.84","48.21","ROUYN-NORANDA A","7086719","2021-04-26 01:00","2021","04","26","01:00","-6.9","","-12.9","","63","","","","34","","15","","24.1","","98.34","","","","-13","","Clear"
"-78.84","48.21","ROUYN-NORANDA A","7086719","2021-04-26 02:00","2021","04","26","02:00","-7.5","","-12.9","","65","","","","32","","10","","24.1","","98.40","","","","-12","","NA"
"-78.84","48.21","ROUYN-NORANDA A","7086719","2021-04-26 03:00","2021","04","26","03:00","-8.2","","-13.4","","66","","","","30","","9","","24.1","","98.45","","","","-13","","NA"
"-78.84","48.21","ROUYN-NORANDA A","7086719","2021-04-26 04:00","2021","04","26","04:00","-8.1","","-13.2","","67","","","","34","","6","","24.1","","98.48","","","","-11","","Clear"
"-78.84","48.21","ROUYN-NORANDA A","7086719","2021-04-26 05:00","2021","04","26","05:00","-9.0","","-13.2","","72","","","","32","","6","","24.1","","98.50","","","","-12","","NA"
"-78.84","48.21","ROUYN-NORANDA A","7086719","2021-04-26 06:00","2021","04","26","06:00","-7.8","","-13.6","","63","","","","36","","5","","24.1","","98.54","","","","-10","","NA"
"-78.84","48.21","ROUYN-NORANDA A","7086719","2021-04-26 07:00","2021","04","26","07:00","-5.3","","-13.5","","53","","","","34","","12","","24.1","","98.63","","","","-10","","Clear"
"-78.84","48.21","ROUYN-NORANDA A","7086719","2021-04-26 08:00","2021","04","26","08:00","-2.8","","-13.8","","43","","","","35","","15","","24.1","","98.67","","","","-8","","NA"
"-78.84","48.21","ROUYN-NORANDA A","7086719","2021-04-26 09:00","2021","04","26","09:00","-0.6","","-12.9","","39","","","","36","","16","","24.1","","98.68","","","","-5","","NA"
"-78.84","48.21","ROUYN-NORANDA A","7086719","2021-04-26 10:00","2021","04","26","10:00","1.2","","-12.5","","36","","","","32","","21","","24.1","","98.69","","","","","","Clear"
"-78.84","48.21","ROUYN-NORANDA A","7086719","2021-04-26 11:00","2021","04","26","11:00","2.5","","-12.7","","32","","","","1","","20","","24.1","","98.67","","","","","","NA"
"-78.84","48.21","ROUYN-NORANDA A","7086719","2021-04-26 12:00","2021","04","26","12:00","4.0","","-10.0","","35","","","","36","","17","","24.1","","98.62","","","","","","NA"
"-78.84","48.21","ROUYN-NORANDA A","7086719","2021-04-26 13:00","2021","04","26","13:00","5.0","","-10.4","","32","","","","2","","9","","24.1","","98.59","","","","","","Clear"
"-78.84","48.21","ROUYN-NORANDA A","7086719","2021-04-26 14:00","2021","04","26","14:00","6.4","","-9.2","","32","","","","33","","16","","24.1","","98.51","","","","","","NA"
"-78.84","48.21","ROUYN-NORANDA A","7086719","2021-04-26 15:00","2021","04","26","15:00","6.9","","-10.0","","29","","","","3","","10","","24.1","","98.47","","","","","","NA"
"-78.84","48.21","ROUYN-NORANDA A","7086719","2021-04-26 16:00","2021","04","26","16:00","8.2","","-8.2","","30","","","","30","","10","","24.1","","98.44","","","","","","Mainly Clear"
"-78.84","48.21","ROUYN-NORANDA A","7086719","2021-04-26 17:00","2021","04","26","17:00","7.7","","-9.4","","29","","","","6","","9","","24.1","","98.42","","","","","","NA"
"-78.84","48.21","ROUYN-NORANDA A","7086719","2021-04-26 18:00","2021","04","26","18:00","6.9","","-8.7","","32","","","","6","","11","","24.1","","98.33","","","","","","NA"
"-78.84","48.21","ROUYN-NORANDA A","7086719","2021-04-26 19:00","2021","04","26","19:00","6.0","","-9.4","","32","","","","5","","6","","24.1","","98.35","","","","","","Mainly Clear"
"-78.84","48.21","ROUYN-NORANDA A","7086719","2021-04-26 20:00","2021","04","26","20:00","1.5","","-8.3","","48","","","","0","","1","","24.1","","98.38","","","","","","NA"
"-78.84","48.21","ROUYN-NORANDA A","7086719","2021-04-26 21:00","2021","04","26","21:00","-0.8","","-7.3","","62","","","","9","","7","","24.1","","98.37","","","","-3","","NA"
"-78.84","48.21","ROUYN-NORANDA A","7086719","2021-04-26 22:00","2021","04","26","22:00","-1.4","","-6.5","","68","","","","8","","7","","24.1","","98.30","","","","-4","","Mainly Clear"
"-78.84","48.21","ROUYN-NORANDA A","7086719","2021-04-26 23:00","2021","04","26","23:00","-1.6","","-5.4","","75","","","","3","","5","","24.1","","98.34","","","","-3","","NA"
"-78.84","48.21","ROUYN-NORANDA A","7086719","2021-04-27 00:00","2021","04","27","00:00","-1.9","","-5.1","","79","","","","24","","7","","24.1","","98.40","","","","-5","","NA"
"-78.84","48.21","ROUYN-NORANDA A","7086719","2021-04-27 01:00","2021","04","27","01:00","-1.5","","-4.6","","79","","","","36","","1","","24.1","","98.35","","","","-2","","Mostly Cloudy"
"-78.84","48.21","ROUYN-NORANDA A","7086719","2021-04-27 02:00","2021","04","27","02:00","-1.9","","-5.3","","78","","","","7","","7","","24.1","","98.27","","","","-5","","NA"
"-78.84","48.21","ROUYN-NORANDA A","7086719","2021-04-27 03:00","2021","04","27","03:00","-1.2","","-4.6","","78","","","","8","","5","","24.1","","98.23","","","","-3","","NA"
"-78.84","48.21","ROUYN-NORANDA A","7086719","2021-04-27 04:00","2021","04","27","04:00","-1.2","","-5.1","","75","","","","9","","7","","24.1","","98.16","","","","-4","","Mostly Cloudy"
"-78.84","48.21","ROUYN-NORANDA A","7086719","2021-04-27 05:00","2021","04","27","05:00","-1.0","","-6.2","","68","","","","10","","5","","24.1","","98.19","","","","-3","","NA"
"-78.84","48.21","ROUYN-NORANDA A","7086719","2021-04-27 06:00","2021","04","27","06:00","-0.4","","-5.6","","68","","","","7","","3","","24.1","","98.19","","","","-1","","NA"
"-78.84","48.21","ROUYN-NORANDA A","7086719","2021-04-27 07:00","2021","04","27","07:00","3.5","","-7.6","","44","","","","13","","14","","24.1","","98.17","","","","","","Mainly Clear"
"-78.84","48.21","ROUYN-NORANDA A","7086719","2021-04-27 08:00","2021","04","27","08:00","5.5","","-7.7","","38","","","","13","","13","","24.1","","98.18","","","","","","NA"
"-78.84","48.21","ROUYN-NORANDA A","7086719","2021-04-27 09:00","2021","04","27","09:00","5.9","","-8.1","","36","","","","13","","11","","24.1","","98.11","","","","","","NA"
"-78.84","48.21","ROUYN-NORANDA A","7086719","2021-04-27 10:00","2021","04","27","10:00","8.5","","-8.3","","29","","","","17","","7","","24.1","","98.06","","","","","","Mostly Cloudy"
"-78.84","48.21","ROUYN-NORANDA A","7086719","2021-04-27 11:00","2021","04","27","11:00","8.8","","-8.6","","28","","","","12","","12","","24.1","","97.97","","","","","","NA"
"-78.84","48.21","ROUYN-NORANDA A","7086719","2021-04-27 12:00","2021","04","27","12:00","9.6","","-8.0","","28","","","","17","","13","","24.1","","97.95","","","","","","NA"
"-78.84","48.21","ROUYN-NORANDA A","7086719","2021-04-27 13:00","2021","04","27","13:00","10.3","","-7.7","","27","","","","9","","9","","24.1","","97.82","","","","","","Mostly Cloudy"
"-78.84","48.21","ROUYN-NORANDA A","7086719","2021-04-27 14:00","2021","04","27","14:00","11.1","","-6.4","","29","","","","12","","10","","24.1","","97.78","","","","","","NA"
"-78.84","48.21","ROUYN-NORANDA A","7086719","2021-04-27 15:00","2021","04","27","15:00","12.1","","-5.3","","29","","","","15","","8","","24.1","","97.73","","","","","","NA"
"-78.84","48.21","ROUYN-NORANDA A","7086719","2021-04-27 16:00","2021","04","27","16:00","11.6","","-4.1","","33","","","","26","","12","","24.1","","97.74","","","","","","Cloudy"
"-78.84","48.21","ROUYN-NORANDA A","7086719","2021-04-27 17:00","2021","04","27","17:00","10.9","","-2.5","","39","","","","27","","4","","24.1","","97.73","","","","","","NA"
"-78.84","48.21","ROUYN-NORANDA A","7086719","2021-04-27 18:00","2021","04","27","18:00","10.7","","-4.9","","33","","","","3","","10","","24.1","","97.76","","","","","","NA"
"-78.84","48.21","ROUYN-NORANDA A","7086719","2021-04-27 19:00","2021","04","27","19:00","10.0","","-5.1","","34","","","","2","","8","","24.1","","97.80","","","","","","Cloudy"
"-78.84","48.21","ROUYN-NORANDA A","7086719","2021-04-27 20:00","2021","04","27","20:00","8.8","","-3.8","","41","","","","4","","7","","24.1","","97.80","","","","","","NA"
"-78.84","48.21","ROUYN-NORANDA A","7086719","2021-04-27 21:00","2021","04","27","21:00","8.2","","-3.7","","43","","","","7","","4","","24.1","","97.81","","","","","","NA"
"-78.84","48.21","ROUYN-NORANDA A","7086719","2021-04-27 22:00","2021","04","27","22:00","5.0","","-1.6","","63","","","","36","","2","","24.1","","97.80","","","","","","Mainly Clear"
"-78.84","48.21","ROUYN-NORANDA A","7086719","2021-04-27 23:00","2021","04","27","23:00","1.6","","-2.2","","76","","","","7","","4","","24.1","","97.80","","","","","","NA"
"-78.84","48.21","ROUYN-NORANDA A","7086719","2021-04-28 00:00","2021","04","28","00:00","-0.1","","-4.4","","73","","","","36","","2","","24.1","","97.83","","","","-1","","NA"
"-78.84","48.21","ROUYN-NORANDA A","7086719","2021-04-28 01:00","2021","04","28","01:00","-0.7","","-3.8","","80","","","","","","0","","24.1","","97.86","","","","","","Mainly Clear"
"-78.84","48.21","ROUYN-NORANDA A","7086719","2021-04-28 02:00","2021","04","28","02:00","-0.4","","-3.8","","78","","","","36","","1","","24.1","","97.83","","","","-1","","NA"
"-78.84","48.21","ROUYN-NORANDA A","7086719","2021-04-28 03:00","2021","04","28","03:00","-0.4","","-3.5","","80","","","","7","","4","","24.1","","97.79","","","","-2","","NA"
"-78.84","48.21","ROUYN-NORANDA A","7086719","2021-04-28 04:00","2021","04","28","04:00","0.4","","-2.6","","80","","","","6","","6","","24.1","","97.81","","","","","","Mostly Cloudy"
"-78.84","48.21","ROUYN-NORANDA A","7086719","2021-04-28 05:00","2021","04","28","05:00","3.2","","-5.6","","53","","","","5","","7","","24.1","","97.82","","","","","","NA"
"-78.84","48.21","ROUYN-NORANDA A","7086719","2021-04-28 06:00","2021","04","28","06:00","3.3","","-4.6","","56","","","","6","","7","","24.1","","97.85","","","","","","NA"
"-78.84","48.21","ROUYN-NORANDA A","7086719","2021-04-28 07:00","2021","04","28","07:00","5.3","","-4.5","","49","","","","4","","7","","24.1","","97.88","","","","","","Mostly Cloudy"
"-78.84","48.21","ROUYN-NORANDA A","7086719","2021-04-28 08:00","2021","04","28","08:00","8.6","","-2.9","","44","","","","6","","13","","24.1","","97.85","","","","","","NA"
"-78.84","48.21","ROUYN-NORANDA A","7086719","2021-04-28 09:00","2021","04","28","09:00","10.6","","-3.6","","37","","","","5","","14","","24.1","","97.83","","","","","","NA"
"-78.84","48.21","ROUYN-NORANDA A","7086719","2021-04-28 10:00","2021","04","28","10:00","11.2","","-3.2","","36","","","","5","","14","","24.1","","97.81","","","","","","Mostly Cloudy"
"-78.84","48.21","ROUYN-NORANDA A","7086719","2021-04-28 11:00","2021","04","28","11:00","12.3","","-5.0","","29","","","","6","","16","","24.1","","97.82","","","","","","NA"
"-78.84","48.21","ROUYN-NORANDA A","7086719","2021-04-28 12:00","2021","04","28","12:00","12.7","","-6.3","","26","","","","5","","23","","24.1","","97.80","","","","","","NA"
"-78.84","48.21","ROUYN-NORANDA A","7086719","2021-04-28 13:00","2021","04","28","13:00","13.2","","-7.1","","24","","","","5","","6","","24.1","","97.79","","","","","","Mostly Cloudy"
"-78.84","48.21","ROUYN-NORANDA A","7086719","2021-04-28 14:00","2021","04","28","14:00","13.5","","-6.2","","25","","","","9","","9","","24.1","","97.76","","","","","","NA"
"-78.84","48.21","ROUYN-NORANDA A","7086719","2021-04-28 15:00","2021","04","28","15:00","14.0","","-5.8","","25","","","","1","","8","","24.1","","97.69","","","","","","NA"
"-78.84","48.21","ROUYN-NORANDA A","7086719","2021-04-28 16:00","2021","04","28","16:00","14.5","","-4.8","","26","","","","7","","7","","24.1","","97.62","","","","","","Mostly Cloudy"
"-78.84","48.21","ROUYN-NORANDA A","7086719","2021-04-28 17:00","2021","04","28","17:00","14.9","","-3.2","","28","","","","13","","4","","24.1","","97.67","","","","","","NA"
"-78.84","48.21","ROUYN-NORANDA A","7086719","2021-04-28 18:00","2021","04","28","18:00","14.4","","-2.8","","30","","","","6","","10","","24.1","","97.67","","","","","","NA"
"-78.84","48.21","ROUYN-NORANDA A","7086719","2021-04-28 19:00","2021","04","28","19:00","13.0","","-2.0","","35","","","","36","","2","","24.1","","97.67","","","","","","Mostly Cloudy"
"-78.84","48.21","ROUYN-NORANDA A","7086719","2021-04-28 20:00","2021","04","28","20:00","9.2","","0.0","","53","","","","36","","1","","24.1","","97.69","","","","","","NA"
"-78.84","48.21","ROUYN-NORANDA A","7086719","2021-04-28 21:00","2021","04","28","21:00","4.8","","-1.1","","66","","","","36","","2","","24.1","","97.69","","","","","","NA"
"-78.84","48.21","ROUYN-NORANDA A","7086719","2021-04-28 22:00","2021","04","28","22:00","2.2","","-2.4","","71","","","","36","","1","","24.1","","97.66","","","","","","Mainly Clear"
"-78.84","48.21","ROUYN-NORANDA A","7086719","2021-04-28 23:00","2021","04","28","23:00","1.7","","-1.9","","77","","","","36","","1","","24.1","","97.65","","","","","","NA"
"-78.84","48.21","ROUYN-NORANDA A","7086719","2021-04-29 00:00","2021","04","29","00:00","0.0","","-3.1","","80","","","","36","","1","","24.1","","97.68","","","","0","","NA"
"-78.84","48.21","ROUYN-NORANDA A","7086719","2021-04-29 01:00","2021","04","29","01:00","-0.6","","-2.6","","86","","","","8","","5","","24.1","","97.64","","","","-2","","Clear"
"-78.84","48.21","ROUYN-NORANDA A","7086719","2021-04-29 02:00","2021","04","29","02:00","-0.9","","-2.8","","87","","","","10","","3","","24.1","","97.61","","","","-2","","NA"
"-78.84","48.21","ROUYN-NORANDA A","7086719","2021-04-29 03:00","2021","04","29","03:00","-0.8","","-2.6","","88","","","","36","","2","","24.1","","97.58","","","","-1","","NA"
"-78.84","48.21","ROUYN-NORANDA A","7086719","2021-04-29 04:00","2021","04","29","04:00","-1.6","","-3.2","","89","","","","5","","3","","24.1","","97.52","","","","-3","","Clear"
"-78.84","48.21","ROUYN-NORANDA A","7086719","2021-04-29 05:00","2021","04","29","05:00","-2.6","","-4.1","","90","","","","36","","1","","24.1","","97.55","","","","-3","","NA"
"-78.84","48.21","ROUYN-NORANDA A","7086719","2021-04-29 06:00","2021","04","29","06:00","-0.8","","-2.8","","86","","","","36","","2","","24.1","","97.53","","","","-1","","NA"
"-78.84","48.21","ROUYN-NORANDA A","7086719","2021-04-29 07:00","2021","04","29","07:00","5.1","","-0.9","","65","","","","5","","4","","24.1","","97.51","","","","","","Clear"
"-78.84","48.21","ROUYN-NORANDA A","7086719","2021-04-29 08:00","2021","04","29","08:00","10.6","","-1.0","","44","","","","7","","8","","24.1","","97.43","","","","","","NA"
"-78.84","48.21","ROUYN-NORANDA A","7086719","2021-04-29 09:00","2021","04","29","09:00","14.1","","-0.3","","37","","","","16","","4","","24.1","","97.36","","","","","","NA"
"-78.84","48.21","ROUYN-NORANDA A","7086719","2021-04-29 10:00","2021","04","29","10:00","16.4","","-1.3","","30","","","","12","","14","","24.1","","97.29","","","","","","Clear"
"-78.84","48.21","ROUYN-NORANDA A","7086719","2021-04-29 11:00","2021","04","29","11:00","17.8","","-1.5","","27","","","","8","","8","","24.1","","97.20","","","","","","NA"
"-78.84","48.21","ROUYN-NORANDA A","7086719","2021-04-29 12:00","2021","04","29","12:00","18.4","","-1.6","","26","","","","14","","5","","24.1","","97.12","","","","","","NA"
"-78.84","48.21","ROUYN-NORANDA A","7086719","2021-04-29 13:00","2021","04","29","13:00","18.5","","-1.4","","26","","","","11","","12","","24.1","","96.96","","","","","","Mainly Clear"
"-78.84","48.21","ROUYN-NORANDA A","7086719","2021-04-29 14:00","2021","04","29","14:00","19.0","","-1.3","","25","","","","31","","6","","24.1","","96.86","","","","","","NA"
"-78.84","48.21","ROUYN-NORANDA A","7086719","2021-04-29 15:00","2021","04","29","15:00","20.0","","-0.8","","24","","","","6","","14","","24.1","","96.73","","","","","","NA"
"-78.84","48.21","ROUYN-NORANDA A","7086719","2021-04-29 16:00","2021","04","29","16:00","18.7","","-1.0","","26","","","","18","","5","","24.1","","96.66","","","","","","Mostly Cloudy"
"-78.84","48.21","ROUYN-NORANDA A","7086719","2021-04-29 17:00","2021","04","29","17:00","18.6","","-0.5","","27","","","","6","","13","","24.1","","96.58","","","","","","NA"
"-78.84","48.21","ROUYN-NORANDA A","7086719","2021-04-29 18:00","2021","04","29","18:00","17.8","","0.6","","31","","","","8","","8","","24.1","","96.55","","","","","","NA"
"-78.84","48.21","ROUYN-NORANDA A","7086719","2021-04-29 19:00","2021","04","29","19:00","16.7","","1.0","","34","","","","2","","28","","24.1","","96.56","","","","","","Rain Showers"
"-78.84","48.21","ROUYN-NORANDA A","7086719","2021-04-29 20:00","2021","04","29","20:00","16.4","","0.7","","34","","","","6","","7","","24.1","","96.48","","","","","","NA"
"-78.84","48.21","ROUYN-NORANDA A","7086719","2021-04-29 21:00","2021","04","29","21:00","15.5","","0.2","","35","","","","19","","7","","24.1","","96.46","","","","","","NA"
"-78.84","48.21","ROUYN-NORANDA A","7086719","2021-04-29 22:00","2021","04","29","22:00","12.2","","1.1","","46","","","","31","","6","","24.1","","96.39","","","","","","Cloudy"
"-78.84","48.21","ROUYN-NORANDA A","7086719","2021-04-29 23:00","2021","04","29","23:00","13.3","","0.4","","41","","","","31","","7","","24.1","","96.33","","","","","","NA"
"-78.84","48.21","ROUYN-NORANDA A","7086719","2021-04-30 00:00","2021","04","30","00:00","13.1","","0.7","","43","","","","31","","9","","24.1","","96.31","","","","","","NA"
"-78.84","48.21","ROUYN-NORANDA A","7086719","2021-04-30 01:00","2021","04","30","01:00","12.3","","1.1","","46","","","","31","","10","","24.1","","96.24","","","","","","Mostly Cloudy"
"-78.84","48.21","ROUYN-NORANDA A","7086719","2021-04-30 02:00","2021","04","30","02:00","11.3","","1.5","","51","","","","29","","8","","24.1","","96.19","","","","","","NA"
"-78.84","48.21","ROUYN-NORANDA A","7086719","2021-04-30 03:00","2021","04","30","03:00","9.7","","2.5","","60","","","","34","","18","","24.1","","96.23","","","","","","NA"
"-78.84","48.21","ROUYN-NORANDA A","7086719","2021-04-30 04:00","2021","04","30","04:00","6.8","","3.0","","77","","","","32","","28","","24.1","","96.26","","","","","","Mostly Cloudy"
"-78.84","48.21","ROUYN-NORANDA A","7086719","2021-04-30 05:00","2021","04","30","05:00","5.1","","2.3","","82","","","","33","","26","","24.1","","96.31","","","","","","NA"
"-78.84","48.21","ROUYN-NORANDA A","7086719","2021-04-30 06:00","2021","04","30","06:00","3.5","","1.5","","86","","","","31","","24","","24.1","","96.37","","","","","","NA"
"-78.84","48.21","ROUYN-NORANDA A","7086719","2021-04-30 07:00","2021","04","30","07:00","1.7","","-0.9","","83","","","","32","","32","","24.1","","96.43","","","","","","Rain"
"-78.84","48.21","ROUYN-NORANDA A","7086719","2021-04-30 08:00","2021","04","30","08:00","1.2","","-1.2","","84","","","","33","","23","","19.3","","96.48","","","","","","Snow"
"-78.84","48.21","ROUYN-NORANDA A","7086719","2021-04-30 09:00","2021","04","30","09:00","0.9","","-1.7","","82","","","","34","","28","","12.9","","96.52","","","","","","Snow"
"-78.84","48.21","ROUYN-NORANDA A","7086719","2021-04-30 10:00","2021","04","30","10:00","-0.2","","-2.6","","84","","","","32","","36","","4.0","","96.60","","","","-7","","Snow"
"-78.84","48.21","ROUYN-NORANDA A","7086719","2021-04-30 11:00","2021","04","30","11:00","-0.8","","-2.2","","90","","","","34","","28","","1.2","","96.66","","","","-7","","Snow"
"-78.84","48.21","ROUYN-NORANDA A","7086719","2021-04-30 12:00","2021","04","30","12:00","-0.2","","-1.8","","89","","","","35","","24","","4.0","","96.74","","","","-6","","Snow"
"-78.84","48.21","ROUYN-NORANDA A","7086719","2021-04-30 13:00","2021","04","30","13:00","-0.5","","-2.1","","89","","","","35","","33","","1.6","","96.85","","","","-7","","Snow Showers"
"-78.84","48.21","ROUYN-NORANDA A","7086719","2021-04-30 14:00","2021","04","30","14:00","-0.9","","-2.3","","90","","","","35","","36","","1.2","","96.98","","","","-8","","Snow Showers"
"-78.84","48.21","ROUYN-NORANDA A","7086719","2021-04-30 15:00","2021","04","30","15:00","-0.9","","-3.6","","82","","","","35","","34","","4.0","","97.15","","","","-8","","Snow Showers"
"-78.84","48.21","ROUYN-NORANDA A","7086719","2021-04-30 16:00","2021","04","30","16:00","-1.1","","-4.1","","80","","","","34","","35","","4.8","","97.30","","","","-8","","Snow Showers"
"-78.84","48.21","ROUYN-NORANDA A","7086719","2021-04-30 17:00","2021","04","30","17:00","-1.0","","-4.1","","80","","","","35","","34","","12.9","","97.45","","","","-8","","Snow"
"-78.84","48.21","ROUYN-NORANDA A","7086719","2021-04-30 18:00","2021","04","30","18:00","-1.2","","-5.1","","75","","","","34","","28","","19.3","","97.57","","","","-8","","Snow"
"-78.84","48.21","ROUYN-NORANDA A","7086719","2021-04-30 19:00","2021","04","30","19:00","-1.5","","-6.7","","68","","","","34","","32","","24.1","","97.68","","","","-9","","Snow"
"-78.84","48.21","ROUYN-NORANDA A","7086719","2021-04-30 20:00","2021","04","30","20:00","-1.7","","-7.0","","67","","","","35","","22","","24.1","","97.75","","","","-8","","NA"
"-78.84","48.21","ROUYN-NORANDA A","7086719","2021-04-30 21:00","2021","04","30","21:00","-1.8","","-6.7","","69","","","","35","","17","","24.1","","97.80","","","","-7","","NA"
"-78.84","48.21","ROUYN-NORANDA A","7086719","2021-04-30 22:00","2021","04","30","22:00","-2.1","","-7.4","","67","","","","35","","14","","24.1","","97.83","","","","-7","","Cloudy"
"-78.84","48.21","ROUYN-NORANDA A","7086719","2021-04-30 23:00","2021","04","30","23:00","-2.1","","-7.9","","65","","","","35","","16","","24.1","","97.89","","","","-7","","NA"
