"Longitude (x)","Latitude (y)","Station Name","Climate ID","Date/Time (LST)","Year","Month","Day","Time (LST)","Temp (°C)","Temp Flag","Dew Point Temp (°C)","Dew Point Temp Flag","Rel Hum (%)","Rel Hum Flag","Precip. Amount (mm)","Precip. Amount Flag","Wind Dir (10s deg)","Wind Dir Flag","Wind Spd (km/h)","Wind Spd Flag","Visibility (km)","Visibility Flag","Stn Press (kPa)","Stn Press Flag","Hmdx","Hmdx Flag","Wind Chill","Wind Chill Flag","Weather"
"-98.27","49.90","PORTAGE SOUTHPORT A","5012320","2020-06-01 00:00","2020","06","01","00:00"
"-98.27","49.90","PORTAGE SOUTHPORT A","5012320","2020-06-01 01:00","2020","06","01","01:00"
"-98.27","49.90","PORTAGE SOUTHPORT A","5012320","2020-06-01 02:00","2020","06","01","02:00"
"-98.27","49.90","PORTAGE SOUTHPORT A","5012320","2020-06-01 03:00","2020","06","01","03:00"
"-98.27","49.90","PORTAGE SOUTHPORT A","5012320","2020-06-01 04:00","2020","06","01","04:00"
"-98.27","49.90","PORTAGE SOUTHPORT A","5012320","2020-06-01 05:00","2020","06","01","05:00","16.4","","11.8","","74","","","","14","","13","","19.3","","97.41","","","","","","Rain Showers"
"-98.27","49.90","PORTAGE SOUTHPORT A","5012320","2020-06-01 06:00","2020","06","01","06:00","16.8","","12.9","","78","","","","19","","24","","24.1","","97.36","","","","","","Mostly Cloudy"
"-98.27","49.90","PORTAGE SOUTHPORT A","5012320","2020-06-01 07:00","2020","06","01","07:00","19.2","","14.3","","73","","","","18","","18","","24.1","","97.31","","","","","","Mainly Clear"
"-98.27","49.90","PORTAGE SOUTHPORT A","5012320","2020-06-01 08:00","2020","06","01","08:00","21.6","","15.4","","68","","","","20","","18","","24.1","","97.28","","26","","","","Mainly Clear"
"-98.27","49.90","PORTAGE SOUTHPORT A","5012320","2020-06-01 09:00","2020","06","01","09:00","24.4","","15.5","","58","","","","25","","18","","24.1","","97.28","","29","","","","Mostly Cloudy"
"-98.27","49.90","PORTAGE SOUTHPORT A","5012320","2020-06-01 10:00","2020","06","01","10:00","26.2","","13.2","","45","","","","26","","21","","24.1","","97.29","","29","","","","Mostly Cloudy"
"-98.27","49.90","PORTAGE SOUTHPORT A","5012320","2020-06-01 11:00","2020","06","01","11:00","27.9","","9.6","","32","","","","25","","22","","24.1","","97.27","","29","","","","Mainly Clear"
"-98.27","49.90","PORTAGE SOUTHPORT A","5012320","2020-06-01 12:00","2020","06","01","12:00","28.7","","8.6","","28","","","","25","","28","","24.1","","97.23","","29","","","","Mainly Clear"
"-98.27","49.90","PORTAGE SOUTHPORT A","5012320","2020-06-01 13:00","2020","06","01","13:00","29.1","","6.9","","25","","","","26","","30","","24.1","","97.20","","29","","","","Mainly Clear"
"-98.27","49.90","PORTAGE SOUTHPORT A","5012320","2020-06-01 14:00","2020","06","01","14:00","30.0","","7.0","","24","","","","26","","37","","24.1","","97.16","","30","","","","Mainly Clear"
"-98.27","49.90","PORTAGE SOUTHPORT A","5012320","2020-06-01 15:00","2020","06","01","15:00","30.2","","8.5","","26","","","","25","","28","","24.1","","97.14","","31","","","","Mainly Clear"
"-98.27","49.90","PORTAGE SOUTHPORT A","5012320","2020-06-01 16:00","2020","06","01","16:00","29.4","","5.3","","22","","","","26","","30","","19.3","","97.15","","29","","","","Mainly Clear"
"-98.27","49.90","PORTAGE SOUTHPORT A","5012320","2020-06-01 17:00","2020","06","01","17:00"
"-98.27","49.90","PORTAGE SOUTHPORT A","5012320","2020-06-01 18:00","2020","06","01","18:00"
"-98.27","49.90","PORTAGE SOUTHPORT A","5012320","2020-06-01 19:00","2020","06","01","19:00"
"-98.27","49.90","PORTAGE SOUTHPORT A","5012320","2020-06-01 20:00","2020","06","01","20:00"
"-98.27","49.90","PORTAGE SOUTHPORT A","5012320","2020-06-01 21:00","2020","06","01","21:00"
"-98.27","49.90","PORTAGE SOUTHPORT A","5012320","2020-06-01 22:00","2020","06","01","22:00"
"-98.27","49.90","PORTAGE SOUTHPORT A","5012320","2020-06-01 23:00","2020","06","01","23:00"
"-98.27","49.90","PORTAGE SOUTHPORT A","5012320","2020-06-02 00:00","2020","06","02","00:00"
"-98.27","49.90","PORTAGE SOUTHPORT A","5012320","2020-06-02 01:00","2020","06","02","01:00"
"-98.27","49.90","PORTAGE SOUTHPORT A","5012320","2020-06-02 02:00","2020","06","02","02:00"
"-98.27","49.90","PORTAGE SOUTHPORT A","5012320","2020-06-02 03:00","2020","06","02","03:00"
"-98.27","49.90","PORTAGE SOUTHPORT A","5012320","2020-06-02 04:00","2020","06","02","04:00"
"-98.27","49.90","PORTAGE SOUTHPORT A","5012320","2020-06-02 05:00","2020","06","02","05:00","14.1","","6.3","","59","","","","26","","5","","24.1","","97.77","","","","","","Mainly Clear"
"-98.27","49.90","PORTAGE SOUTHPORT A","5012320","2020-06-02 06:00","2020","06","02","06:00","14.8","","7.4","","61","","","","22","","8","","24.1","","97.83","","","","","","Mainly Clear"
"-98.27","49.90","PORTAGE SOUTHPORT A","5012320","2020-06-02 07:00","2020","06","02","07:00","16.7","","8.5","","58","","","","26","","9","","24.1","","97.88","","","","","","Mostly Cloudy"
"-98.27","49.90","PORTAGE SOUTHPORT A","5012320","2020-06-02 08:00","2020","06","02","08:00","18.7","","10.3","","58","","","","19","","8","","24.1","","97.85","","","","","","Mostly Cloudy"
"-98.27","49.90","PORTAGE SOUTHPORT A","5012320","2020-06-02 09:00","2020","06","02","09:00","19.5","","10.4","","56","","","","21","","11","","24.1","","97.91","","","","","","Mostly Cloudy"
"-98.27","49.90","PORTAGE SOUTHPORT A","5012320","2020-06-02 10:00","2020","06","02","10:00","20.6","","9.2","","48","","","","22","","17","","24.1","","97.93","","","","","","Mostly Cloudy"
"-98.27","49.90","PORTAGE SOUTHPORT A","5012320","2020-06-02 11:00","2020","06","02","11:00","24.2","","9.3","","39","","","","22","","15","","24.1","","97.90","","25","","","","Mostly Cloudy"
"-98.27","49.90","PORTAGE SOUTHPORT A","5012320","2020-06-02 12:00","2020","06","02","12:00","26.1","","5.7","","27","","","","24","","21","","24.1","","97.84","","26","","","","Mainly Clear"
"-98.27","49.90","PORTAGE SOUTHPORT A","5012320","2020-06-02 13:00","2020","06","02","13:00","27.0","","6.9","","28","","","","22","","21","","24.1","","97.77","","27","","","","Mainly Clear"
"-98.27","49.90","PORTAGE SOUTHPORT A","5012320","2020-06-02 14:00","2020","06","02","14:00","27.9","","7.1","","27","","","","23","","13","","24.1","","97.69","","28","","","","Mainly Clear"
"-98.27","49.90","PORTAGE SOUTHPORT A","5012320","2020-06-02 15:00","2020","06","02","15:00","27.9","","4.4","","22","","","","24","","22","","24.1","","97.63","","27","","","","Mostly Cloudy"
"-98.27","49.90","PORTAGE SOUTHPORT A","5012320","2020-06-02 16:00","2020","06","02","16:00","23.9","","8.3","","37","","","","33","","24","","24.1","","97.67","","","","","","Mostly Cloudy"
"-98.27","49.90","PORTAGE SOUTHPORT A","5012320","2020-06-02 17:00","2020","06","02","17:00"
"-98.27","49.90","PORTAGE SOUTHPORT A","5012320","2020-06-02 18:00","2020","06","02","18:00"
"-98.27","49.90","PORTAGE SOUTHPORT A","5012320","2020-06-02 19:00","2020","06","02","19:00"
"-98.27","49.90","PORTAGE SOUTHPORT A","5012320","2020-06-02 20:00","2020","06","02","20:00"
"-98.27","49.90","PORTAGE SOUTHPORT A","5012320","2020-06-02 21:00","2020","06","02","21:00"
"-98.27","49.90","PORTAGE SOUTHPORT A","5012320","2020-06-02 22:00","2020","06","02","22:00"
"-98.27","49.90","PORTAGE SOUTHPORT A","5012320","2020-06-02 23:00","2020","06","02","23:00"
"-98.27","49.90","PORTAGE SOUTHPORT A","5012320","2020-06-03 00:00","2020","06","03","00:00"
"-98.27","49.90","PORTAGE SOUTHPORT A","5012320","2020-06-03 01:00","2020","06","03","01:00"
"-98.27","49.90","PORTAGE SOUTHPORT A","5012320","2020-06-03 02:00","2020","06","03","02:00"
"-98.27","49.90","PORTAGE SOUTHPORT A","5012320","2020-06-03 03:00","2020","06","03","03:00"
"-98.27","49.90","PORTAGE SOUTHPORT A","5012320","2020-06-03 04:00","2020","06","03","04:00"
"-98.27","49.90","PORTAGE SOUTHPORT A","5012320","2020-06-03 05:00","2020","06","03","05:00","8.7","","7.3","","91","","","","22","","4","","24.1","","98.06","","","","","","Clear"
"-98.27","49.90","PORTAGE SOUTHPORT A","5012320","2020-06-03 06:00","2020","06","03","06:00","11.4","","8.8","","84","","","","20","","8","","24.1","","98.04","","","","","","Clear"
"-98.27","49.90","PORTAGE SOUTHPORT A","5012320","2020-06-03 07:00","2020","06","03","07:00","15.5","","10.0","","70","","","","19","","13","","24.1","","98.03","","","","","","Clear"
"-98.27","49.90","PORTAGE SOUTHPORT A","5012320","2020-06-03 08:00","2020","06","03","08:00","19.5","","10.2","","55","","","","17","","17","","24.1","","97.95","","","","","","Clear"
"-98.27","49.90","PORTAGE SOUTHPORT A","5012320","2020-06-03 09:00","2020","06","03","09:00","21.4","","10.0","","48","","","","17","","21","","24.1","","97.92","","","","","","Clear"
"-98.27","49.90","PORTAGE SOUTHPORT A","5012320","2020-06-03 10:00","2020","06","03","10:00","23.4","","9.7","","42","","","","17","","18","","24.1","","97.84","","25","","","","Mainly Clear"
"-98.27","49.90","PORTAGE SOUTHPORT A","5012320","2020-06-03 11:00","2020","06","03","11:00","24.9","","9.2","","37","","","","14","","22","","24.1","","97.69","","26","","","","Mainly Clear"
"-98.27","49.90","PORTAGE SOUTHPORT A","5012320","2020-06-03 12:00","2020","06","03","12:00","26.7","","5.9","","27","","","","20","","18","","24.1","","97.59","","26","","","","Mostly Cloudy"
"-98.27","49.90","PORTAGE SOUTHPORT A","5012320","2020-06-03 13:00","2020","06","03","13:00","26.1","","7.4","","30","","","","18","","30","","24.1","","97.52","","26","","","","Mostly Cloudy"
"-98.27","49.90","PORTAGE SOUTHPORT A","5012320","2020-06-03 14:00","2020","06","03","14:00","27.8","","6.0","","25","","","","22","","24","","24.1","","97.42","","27","","","","Mostly Cloudy"
"-98.27","49.90","PORTAGE SOUTHPORT A","5012320","2020-06-03 15:00","2020","06","03","15:00","27.8","","5.4","","24","","","","23","","30","","24.1","","97.33","","27","","","","Mostly Cloudy"
"-98.27","49.90","PORTAGE SOUTHPORT A","5012320","2020-06-03 16:00","2020","06","03","16:00","28.4","","6.3","","25","","","","23","","28","","24.1","","97.22","","28","","","","Mostly Cloudy"
"-98.27","49.90","PORTAGE SOUTHPORT A","5012320","2020-06-03 17:00","2020","06","03","17:00"
"-98.27","49.90","PORTAGE SOUTHPORT A","5012320","2020-06-03 18:00","2020","06","03","18:00"
"-98.27","49.90","PORTAGE SOUTHPORT A","5012320","2020-06-03 19:00","2020","06","03","19:00"
"-98.27","49.90","PORTAGE SOUTHPORT A","5012320","2020-06-03 20:00","2020","06","03","20:00"
"-98.27","49.90","PORTAGE SOUTHPORT A","5012320","2020-06-03 21:00","2020","06","03","21:00"
"-98.27","49.90","PORTAGE SOUTHPORT A","5012320","2020-06-03 22:00","2020","06","03","22:00"
"-98.27","49.90","PORTAGE SOUTHPORT A","5012320","2020-06-03 23:00","2020","06","03","23:00"
"-98.27","49.90","PORTAGE SOUTHPORT A","5012320","2020-06-04 00:00","2020","06","04","00:00"
"-98.27","49.90","PORTAGE SOUTHPORT A","5012320","2020-06-04 01:00","2020","06","04","01:00"
"-98.27","49.90","PORTAGE SOUTHPORT A","5012320","2020-06-04 02:00","2020","06","04","02:00"
"-98.27","49.90","PORTAGE SOUTHPORT A","5012320","2020-06-04 03:00","2020","06","04","03:00"
"-98.27","49.90","PORTAGE SOUTHPORT A","5012320","2020-06-04 04:00","2020","06","04","04:00"
"-98.27","49.90","PORTAGE SOUTHPORT A","5012320","2020-06-04 05:00","2020","06","04","05:00","11.6","","2.8","","55","","","","22","","18","","24.1","","97.28","","","","","","Clear"
"-98.27","49.90","PORTAGE SOUTHPORT A","5012320","2020-06-04 06:00","2020","06","04","06:00","12.8","","2.8","","51","","","","23","","22","","24.1","","97.28","","","","","","Clear"
"-98.27","49.90","PORTAGE SOUTHPORT A","5012320","2020-06-04 07:00","2020","06","04","07:00","15.3","","2.5","","42","","","","25","","18","","24.1","","97.29","","","","","","Clear"
"-98.27","49.90","PORTAGE SOUTHPORT A","5012320","2020-06-04 08:00","2020","06","04","08:00","17.3","","3.3","","39","","","","25","","26","","24.1","","97.28","","","","","","Clear"
"-98.27","49.90","PORTAGE SOUTHPORT A","5012320","2020-06-04 09:00","2020","06","04","09:00","18.3","","3.4","","37","","","","26","","35","","24.1","","97.30","","","","","","Clear"
"-98.27","49.90","PORTAGE SOUTHPORT A","5012320","2020-06-04 10:00","2020","06","04","10:00","19.5","","4.0","","36","","","","27","","43","","24.1","","97.31","","","","","","Clear"
"-98.27","49.90","PORTAGE SOUTHPORT A","5012320","2020-06-04 11:00","2020","06","04","11:00","20.4","","5.2","","37","","","","28","","46","","24.1","","97.30","","","","","","Mainly Clear"
"-98.27","49.90","PORTAGE SOUTHPORT A","5012320","2020-06-04 12:00","2020","06","04","12:00","21.7","","3.9","","31","","","","28","","43","","19.3","","97.30","","","","","","Mainly Clear"
"-98.27","49.90","PORTAGE SOUTHPORT A","5012320","2020-06-04 13:00","2020","06","04","13:00","22.8","","2.6","","27","","","","27","","39","","19.3","","97.28","","","","","","Mainly Clear"
"-98.27","49.90","PORTAGE SOUTHPORT A","5012320","2020-06-04 14:00","2020","06","04","14:00","24.2","","2.7","","25","","","","25","","44","","19.3","","97.26","","","","","","Mainly Clear"
"-98.27","49.90","PORTAGE SOUTHPORT A","5012320","2020-06-04 15:00","2020","06","04","15:00","24.7","","1.0","","21","","","","26","","46","","19.3","","97.22","","","","","","Mainly Clear"
"-98.27","49.90","PORTAGE SOUTHPORT A","5012320","2020-06-04 16:00","2020","06","04","16:00","24.7","","0.6","","21","","","","27","","43","","19.3","","97.22","","","","","","Mainly Clear"
"-98.27","49.90","PORTAGE SOUTHPORT A","5012320","2020-06-04 17:00","2020","06","04","17:00"
"-98.27","49.90","PORTAGE SOUTHPORT A","5012320","2020-06-04 18:00","2020","06","04","18:00"
"-98.27","49.90","PORTAGE SOUTHPORT A","5012320","2020-06-04 19:00","2020","06","04","19:00"
"-98.27","49.90","PORTAGE SOUTHPORT A","5012320","2020-06-04 20:00","2020","06","04","20:00"
"-98.27","49.90","PORTAGE SOUTHPORT A","5012320","2020-06-04 21:00","2020","06","04","21:00"
"-98.27","49.90","PORTAGE SOUTHPORT A","5012320","2020-06-04 22:00","2020","06","04","22:00"
"-98.27","49.90","PORTAGE SOUTHPORT A","5012320","2020-06-04 23:00","2020","06","04","23:00"
"-98.27","49.90","PORTAGE SOUTHPORT A","5012320","2020-06-05 00:00","2020","06","05","00:00"
"-98.27","49.90","PORTAGE SOUTHPORT A","5012320","2020-06-05 01:00","2020","06","05","01:00"
"-98.27","49.90","PORTAGE SOUTHPORT A","5012320","2020-06-05 02:00","2020","06","05","02:00"
"-98.27","49.90","PORTAGE SOUTHPORT A","5012320","2020-06-05 03:00","2020","06","05","03:00"
"-98.27","49.90","PORTAGE SOUTHPORT A","5012320","2020-06-05 04:00","2020","06","05","04:00"
"-98.27","49.90","PORTAGE SOUTHPORT A","5012320","2020-06-05 05:00","2020","06","05","05:00","10.3","","5.9","","74","","","","31","","28","","24.1","","98.00","","","","","","Mostly Cloudy"
"-98.27","49.90","PORTAGE SOUTHPORT A","5012320","2020-06-05 06:00","2020","06","05","06:00","10.5","","5.7","","72","","","","31","","18","","24.1","","98.04","","","","","","Mainly Clear"
"-98.27","49.90","PORTAGE SOUTHPORT A","5012320","2020-06-05 07:00","2020","06","05","07:00","11.3","","6.1","","70","","","","32","","31","","24.1","","98.11","","","","","","Mainly Clear"
"-98.27","49.90","PORTAGE SOUTHPORT A","5012320","2020-06-05 08:00","2020","06","05","08:00","12.6","","6.4","","66","","","","32","","30","","24.1","","98.21","","","","","","Mainly Clear"
"-98.27","49.90","PORTAGE SOUTHPORT A","5012320","2020-06-05 09:00","2020","06","05","09:00","13.6","","6.4","","62","","","","31","","30","","24.1","","98.27","","","","","","Mainly Clear"
"-98.27","49.90","PORTAGE SOUTHPORT A","5012320","2020-06-05 10:00","2020","06","05","10:00","15.2","","6.9","","58","","","","32","","31","","24.1","","98.31","","","","","","Mainly Clear"
"-98.27","49.90","PORTAGE SOUTHPORT A","5012320","2020-06-05 11:00","2020","06","05","11:00","16.0","","7.2","","56","","","","32","","28","","24.1","","98.36","","","","","","Mainly Clear"
"-98.27","49.90","PORTAGE SOUTHPORT A","5012320","2020-06-05 12:00","2020","06","05","12:00","16.2","","7.9","","58","","","","35","","31","","24.1","","98.42","","","","","","Mainly Clear"
"-98.27","49.90","PORTAGE SOUTHPORT A","5012320","2020-06-05 13:00","2020","06","05","13:00","16.1","","7.7","","57","","","","34","","22","","24.1","","98.45","","","","","","Mainly Clear"
"-98.27","49.90","PORTAGE SOUTHPORT A","5012320","2020-06-05 14:00","2020","06","05","14:00","16.7","","8.4","","58","","","","35","","26","","24.1","","98.49","","","","","","Mainly Clear"
"-98.27","49.90","PORTAGE SOUTHPORT A","5012320","2020-06-05 15:00","2020","06","05","15:00","17.3","","7.7","","53","","","","36","","30","","24.1","","98.53","","","","","","Mainly Clear"
"-98.27","49.90","PORTAGE SOUTHPORT A","5012320","2020-06-05 16:00","2020","06","05","16:00","17.3","","7.1","","51","","","","2","","26","","24.1","","98.55","","","","","","Mainly Clear"
"-98.27","49.90","PORTAGE SOUTHPORT A","5012320","2020-06-05 17:00","2020","06","05","17:00"
"-98.27","49.90","PORTAGE SOUTHPORT A","5012320","2020-06-05 18:00","2020","06","05","18:00"
"-98.27","49.90","PORTAGE SOUTHPORT A","5012320","2020-06-05 19:00","2020","06","05","19:00"
"-98.27","49.90","PORTAGE SOUTHPORT A","5012320","2020-06-05 20:00","2020","06","05","20:00"
"-98.27","49.90","PORTAGE SOUTHPORT A","5012320","2020-06-05 21:00","2020","06","05","21:00"
"-98.27","49.90","PORTAGE SOUTHPORT A","5012320","2020-06-05 22:00","2020","06","05","22:00"
"-98.27","49.90","PORTAGE SOUTHPORT A","5012320","2020-06-05 23:00","2020","06","05","23:00"
"-98.27","49.90","PORTAGE SOUTHPORT A","5012320","2020-06-06 00:00","2020","06","06","00:00"
"-98.27","49.90","PORTAGE SOUTHPORT A","5012320","2020-06-06 01:00","2020","06","06","01:00"
"-98.27","49.90","PORTAGE SOUTHPORT A","5012320","2020-06-06 02:00","2020","06","06","02:00"
"-98.27","49.90","PORTAGE SOUTHPORT A","5012320","2020-06-06 03:00","2020","06","06","03:00"
"-98.27","49.90","PORTAGE SOUTHPORT A","5012320","2020-06-06 04:00","2020","06","06","04:00"
"-98.27","49.90","PORTAGE SOUTHPORT A","5012320","2020-06-06 05:00","2020","06","06","05:00"
"-98.27","49.90","PORTAGE SOUTHPORT A","5012320","2020-06-06 06:00","2020","06","06","06:00"
"-98.27","49.90","PORTAGE SOUTHPORT A","5012320","2020-06-06 07:00","2020","06","06","07:00"
"-98.27","49.90","PORTAGE SOUTHPORT A","5012320","2020-06-06 08:00","2020","06","06","08:00"
"-98.27","49.90","PORTAGE SOUTHPORT A","5012320","2020-06-06 09:00","2020","06","06","09:00"
"-98.27","49.90","PORTAGE SOUTHPORT A","5012320","2020-06-06 10:00","2020","06","06","10:00"
"-98.27","49.90","PORTAGE SOUTHPORT A","5012320","2020-06-06 11:00","2020","06","06","11:00"
"-98.27","49.90","PORTAGE SOUTHPORT A","5012320","2020-06-06 12:00","2020","06","06","12:00"
"-98.27","49.90","PORTAGE SOUTHPORT A","5012320","2020-06-06 13:00","2020","06","06","13:00"
"-98.27","49.90","PORTAGE SOUTHPORT A","5012320","2020-06-06 14:00","2020","06","06","14:00"
"-98.27","49.90","PORTAGE SOUTHPORT A","5012320","2020-06-06 15:00","2020","06","06","15:00"
"-98.27","49.90","PORTAGE SOUTHPORT A","5012320","2020-06-06 16:00","2020","06","06","16:00"
"-98.27","49.90","PORTAGE SOUTHPORT A","5012320","2020-06-06 17:00","2020","06","06","17:00"
"-98.27","49.90","PORTAGE SOUTHPORT A","5012320","2020-06-06 18:00","2020","06","06","18:00"
"-98.27","49.90","PORTAGE SOUTHPORT A","5012320","2020-06-06 19:00","2020","06","06","19:00"
"-98.27","49.90","PORTAGE SOUTHPORT A","5012320","2020-06-06 20:00","2020","06","06","20:00"
"-98.27","49.90","PORTAGE SOUTHPORT A","5012320","2020-06-06 21:00","2020","06","06","21:00"
"-98.27","49.90","PORTAGE SOUTHPORT A","5012320","2020-06-06 22:00","2020","06","06","22:00"
"-98.27","49.90","PORTAGE SOUTHPORT A","5012320","2020-06-06 23:00","2020","06","06","23:00"
"-98.27","49.90","PORTAGE SOUTHPORT A","5012320","2020-06-07 00:00","2020","06","07","00:00"
"-98.27","49.90","PORTAGE SOUTHPORT A","5012320","2020-06-07 01:00","2020","06","07","01:00"
"-98.27","49.90","PORTAGE SOUTHPORT A","5012320","2020-06-07 02:00","2020","06","07","02:00"
"-98.27","49.90","PORTAGE SOUTHPORT A","5012320","2020-06-07 03:00","2020","06","07","03:00"
"-98.27","49.90","PORTAGE SOUTHPORT A","5012320","2020-06-07 04:00","2020","06","07","04:00"
"-98.27","49.90","PORTAGE SOUTHPORT A","5012320","2020-06-07 05:00","2020","06","07","05:00"
"-98.27","49.90","PORTAGE SOUTHPORT A","5012320","2020-06-07 06:00","2020","06","07","06:00"
"-98.27","49.90","PORTAGE SOUTHPORT A","5012320","2020-06-07 07:00","2020","06","07","07:00"
"-98.27","49.90","PORTAGE SOUTHPORT A","5012320","2020-06-07 08:00","2020","06","07","08:00"
"-98.27","49.90","PORTAGE SOUTHPORT A","5012320","2020-06-07 09:00","2020","06","07","09:00"
"-98.27","49.90","PORTAGE SOUTHPORT A","5012320","2020-06-07 10:00","2020","06","07","10:00"
"-98.27","49.90","PORTAGE SOUTHPORT A","5012320","2020-06-07 11:00","2020","06","07","11:00"
"-98.27","49.90","PORTAGE SOUTHPORT A","5012320","2020-06-07 12:00","2020","06","07","12:00"
"-98.27","49.90","PORTAGE SOUTHPORT A","5012320","2020-06-07 13:00","2020","06","07","13:00"
"-98.27","49.90","PORTAGE SOUTHPORT A","5012320","2020-06-07 14:00","2020","06","07","14:00"
"-98.27","49.90","PORTAGE SOUTHPORT A","5012320","2020-06-07 15:00","2020","06","07","15:00"
"-98.27","49.90","PORTAGE SOUTHPORT A","5012320","2020-06-07 16:00","2020","06","07","16:00"
"-98.27","49.90","PORTAGE SOUTHPORT A","5012320","2020-06-07 17:00","2020","06","07","17:00"
"-98.27","49.90","PORTAGE SOUTHPORT A","5012320","2020-06-07 18:00","2020","06","07","18:00"
"-98.27","49.90","PORTAGE SOUTHPORT A","5012320","2020-06-07 19:00","2020","06","07","19:00"
"-98.27","49.90","PORTAGE SOUTHPORT A","5012320","2020-06-07 20:00","2020","06","07","20:00"
"-98.27","49.90","PORTAGE SOUTHPORT A","5012320","2020-06-07 21:00","2020","06","07","21:00"
"-98.27","49.90","PORTAGE SOUTHPORT A","5012320","2020-06-07 22:00","2020","06","07","22:00"
"-98.27","49.90","PORTAGE SOUTHPORT A","5012320","2020-06-07 23:00","2020","06","07","23:00"
"-98.27","49.90","PORTAGE SOUTHPORT A","5012320","2020-06-08 00:00","2020","06","08","00:00"
"-98.27","49.90","PORTAGE SOUTHPORT A","5012320","2020-06-08 01:00","2020","06","08","01:00"
"-98.27","49.90","PORTAGE SOUTHPORT A","5012320","2020-06-08 02:00","2020","06","08","02:00"
"-98.27","49.90","PORTAGE SOUTHPORT A","5012320","2020-06-08 03:00","2020","06","08","03:00"
"-98.27","49.90","PORTAGE SOUTHPORT A","5012320","2020-06-08 04:00","2020","06","08","04:00"
"-98.27","49.90","PORTAGE SOUTHPORT A","5012320","2020-06-08 05:00","2020","06","08","05:00","16.3","","15.9","","97","","","","10","","15","","24.1","","96.95","","","","","","Mostly Cloudy"
"-98.27","49.90","PORTAGE SOUTHPORT A","5012320","2020-06-08 06:00","2020","06","08","06:00","16.9","","16.1","","95","","","","4","","9","","24.1","","96.86","","","","","","Mostly Cloudy"
"-98.27","49.90","PORTAGE SOUTHPORT A","5012320","2020-06-08 07:00","2020","06","08","07:00","17.5","","16.6","","94","","","","12","","15","","24.1","","97.00","","","","","","Mostly Cloudy"
"-98.27","49.90","PORTAGE SOUTHPORT A","5012320","2020-06-08 08:00","2020","06","08","08:00","18.5","","17.2","","92","","","","10","","13","","24.1","","97.08","","","","","","Mostly Cloudy"
"-98.27","49.90","PORTAGE SOUTHPORT A","5012320","2020-06-08 09:00","2020","06","08","09:00","21.1","","17.8","","81","","","","8","","9","","24.1","","97.01","","27","","","","Mainly Clear"
"-98.27","49.90","PORTAGE SOUTHPORT A","5012320","2020-06-08 10:00","2020","06","08","10:00","21.9","","18.3","","80","","","","6","","9","","24.1","","97.06","","28","","","","Mostly Cloudy"
"-98.27","49.90","PORTAGE SOUTHPORT A","5012320","2020-06-08 11:00","2020","06","08","11:00","22.9","","18.6","","77","","","","","","0","","24.1","","97.08","","29","","","","Mostly Cloudy"
"-98.27","49.90","PORTAGE SOUTHPORT A","5012320","2020-06-08 12:00","2020","06","08","12:00","23.0","","18.3","","75","","","","2","","11","","19.3","","97.10","","29","","","","Mostly Cloudy"
"-98.27","49.90","PORTAGE SOUTHPORT A","5012320","2020-06-08 13:00","2020","06","08","13:00","23.7","","18.7","","74","","","","3","","15","","16.1","","97.08","","30","","","","Mostly Cloudy"
"-98.27","49.90","PORTAGE SOUTHPORT A","5012320","2020-06-08 14:00","2020","06","08","14:00","23.9","","18.1","","70","","","","36","","9","","16.1","","97.11","","30","","","","Mostly Cloudy"
"-98.27","49.90","PORTAGE SOUTHPORT A","5012320","2020-06-08 15:00","2020","06","08","15:00","23.4","","19.4","","78","","","","15","","8","","19.3","","97.08","","30","","","","Mostly Cloudy"
"-98.27","49.90","PORTAGE SOUTHPORT A","5012320","2020-06-08 16:00","2020","06","08","16:00","24.1","","19.6","","76","","","","16","","5","","19.3","","97.16","","31","","","","Mostly Cloudy"
"-98.27","49.90","PORTAGE SOUTHPORT A","5012320","2020-06-08 17:00","2020","06","08","17:00"
"-98.27","49.90","PORTAGE SOUTHPORT A","5012320","2020-06-08 18:00","2020","06","08","18:00"
"-98.27","49.90","PORTAGE SOUTHPORT A","5012320","2020-06-08 19:00","2020","06","08","19:00"
"-98.27","49.90","PORTAGE SOUTHPORT A","5012320","2020-06-08 20:00","2020","06","08","20:00"
"-98.27","49.90","PORTAGE SOUTHPORT A","5012320","2020-06-08 21:00","2020","06","08","21:00"
"-98.27","49.90","PORTAGE SOUTHPORT A","5012320","2020-06-08 22:00","2020","06","08","22:00"
"-98.27","49.90","PORTAGE SOUTHPORT A","5012320","2020-06-08 23:00","2020","06","08","23:00"
"-98.27","49.90","PORTAGE SOUTHPORT A","5012320","2020-06-09 00:00","2020","06","09","00:00"
"-98.27","49.90","PORTAGE SOUTHPORT A","5012320","2020-06-09 01:00","2020","06","09","01:00"
"-98.27","49.90","PORTAGE SOUTHPORT A","5012320","2020-06-09 02:00","2020","06","09","02:00"
"-98.27","49.90","PORTAGE SOUTHPORT A","5012320","2020-06-09 03:00","2020","06","09","03:00"
"-98.27","49.90","PORTAGE SOUTHPORT A","5012320","2020-06-09 04:00","2020","06","09","04:00"
"-98.27","49.90","PORTAGE SOUTHPORT A","5012320","2020-06-09 05:00","2020","06","09","05:00","14.8","","12.8","","88","","","","31","","28","","24.1","","97.60","","","","","","Mostly Cloudy"
"-98.27","49.90","PORTAGE SOUTHPORT A","5012320","2020-06-09 06:00","2020","06","09","06:00","14.7","","13.0","","90","","","","33","","22","","24.1","","97.54","","","","","","Mostly Cloudy"
"-98.27","49.90","PORTAGE SOUTHPORT A","5012320","2020-06-09 07:00","2020","06","09","07:00","14.8","","13.3","","91","","","","31","","28","","24.1","","97.52","","","","","","Cloudy"
"-98.27","49.90","PORTAGE SOUTHPORT A","5012320","2020-06-09 08:00","2020","06","09","08:00","15.0","","13.1","","88","","","","33","","24","","24.1","","97.53","","","","","","Cloudy"
"-98.27","49.90","PORTAGE SOUTHPORT A","5012320","2020-06-09 09:00","2020","06","09","09:00","14.9","","12.3","","84","","","","33","","22","","24.1","","97.55","","","","","","Cloudy"
"-98.27","49.90","PORTAGE SOUTHPORT A","5012320","2020-06-09 10:00","2020","06","09","10:00","15.0","","12.2","","83","","","","32","","24","","19.3","","97.62","","","","","","Cloudy"
"-98.27","49.90","PORTAGE SOUTHPORT A","5012320","2020-06-09 11:00","2020","06","09","11:00","14.9","","11.7","","81","","","","31","","28","","24.1","","97.65","","","","","","Cloudy"
"-98.27","49.90","PORTAGE SOUTHPORT A","5012320","2020-06-09 12:00","2020","06","09","12:00","14.6","","11.5","","82","","","","33","","21","","19.3","","97.66","","","","","","Rain Showers"
"-98.27","49.90","PORTAGE SOUTHPORT A","5012320","2020-06-09 13:00","2020","06","09","13:00","15.2","","11.0","","76","","","","34","","21","","24.1","","97.65","","","","","","Cloudy"
"-98.27","49.90","PORTAGE SOUTHPORT A","5012320","2020-06-09 14:00","2020","06","09","14:00","15.6","","11.0","","74","","","","33","","21","","24.1","","97.64","","","","","","Cloudy"
"-98.27","49.90","PORTAGE SOUTHPORT A","5012320","2020-06-09 15:00","2020","06","09","15:00","15.6","","9.9","","69","","","","35","","21","","24.1","","97.60","","","","","","Cloudy"
"-98.27","49.90","PORTAGE SOUTHPORT A","5012320","2020-06-09 16:00","2020","06","09","16:00","16.1","","9.7","","66","","","","36","","17","","24.1","","97.59","","","","","","Cloudy"
"-98.27","49.90","PORTAGE SOUTHPORT A","5012320","2020-06-09 17:00","2020","06","09","17:00","16.2","","9.6","","65","","","","34","","21","","24.1","","97.57","","","","","","Mostly Cloudy"
"-98.27","49.90","PORTAGE SOUTHPORT A","5012320","2020-06-09 18:00","2020","06","09","18:00","16.0","","9.4","","65","","","","34","","18","","24.1","","97.57","","","","","","Cloudy"
"-98.27","49.90","PORTAGE SOUTHPORT A","5012320","2020-06-09 19:00","2020","06","09","19:00","16.0","","8.7","","62","","","","33","","15","","24.1","","97.62","","","","","","Cloudy"
"-98.27","49.90","PORTAGE SOUTHPORT A","5012320","2020-06-09 20:00","2020","06","09","20:00","15.6","","9.1","","65","","","","34","","18","","24.1","","97.61","","","","","","Cloudy"
"-98.27","49.90","PORTAGE SOUTHPORT A","5012320","2020-06-09 21:00","2020","06","09","21:00","15.2","","8.1","","63","","","","32","","22","","24.1","","97.66","","","","","","Mostly Cloudy"
"-98.27","49.90","PORTAGE SOUTHPORT A","5012320","2020-06-09 22:00","2020","06","09","22:00","14.6","","8.8","","68","","","","32","","18","","24.1","","97.61","","","","","","Mostly Cloudy"
"-98.27","49.90","PORTAGE SOUTHPORT A","5012320","2020-06-09 23:00","2020","06","09","23:00"
"-98.27","49.90","PORTAGE SOUTHPORT A","5012320","2020-06-10 00:00","2020","06","10","00:00"
"-98.27","49.90","PORTAGE SOUTHPORT A","5012320","2020-06-10 01:00","2020","06","10","01:00"
"-98.27","49.90","PORTAGE SOUTHPORT A","5012320","2020-06-10 02:00","2020","06","10","02:00"
"-98.27","49.90","PORTAGE SOUTHPORT A","5012320","2020-06-10 03:00","2020","06","10","03:00"
"-98.27","49.90","PORTAGE SOUTHPORT A","5012320","2020-06-10 04:00","2020","06","10","04:00"
"-98.27","49.90","PORTAGE SOUTHPORT A","5012320","2020-06-10 05:00","2020","06","10","05:00","11.0","","7.5","","79","","","","31","","24","","24.1","","97.60","","","","","","Mainly Clear"
"-98.27","49.90","PORTAGE SOUTHPORT A","5012320","2020-06-10 06:00","2020","06","10","06:00","11.7","","7.8","","77","","","","30","","24","","24.1","","97.60","","","","","","Mostly Cloudy"
"-98.27","49.90","PORTAGE SOUTHPORT A","5012320","2020-06-10 07:00","2020","06","10","07:00","13.4","","8.7","","73","","","","32","","31","","24.1","","97.58","","","","","","Mainly Clear"
"-98.27","49.90","PORTAGE SOUTHPORT A","5012320","2020-06-10 08:00","2020","06","10","08:00","14.3","","9.1","","71","","","","31","","35","","24.1","","97.61","","","","","","Mostly Cloudy"
"-98.27","49.90","PORTAGE SOUTHPORT A","5012320","2020-06-10 09:00","2020","06","10","09:00","15.6","","8.8","","64","","","","33","","43","","24.1","","97.65","","","","","","Mostly Cloudy"
"-98.27","49.90","PORTAGE SOUTHPORT A","5012320","2020-06-10 10:00","2020","06","10","10:00","16.0","","8.5","","61","","","","33","","35","","24.1","","97.68","","","","","","Mostly Cloudy"
"-98.27","49.90","PORTAGE SOUTHPORT A","5012320","2020-06-10 11:00","2020","06","10","11:00","16.6","","8.7","","60","","","","35","","30","","24.1","","97.69","","","","","","Mostly Cloudy"
"-98.27","49.90","PORTAGE SOUTHPORT A","5012320","2020-06-10 12:00","2020","06","10","12:00","17.7","","8.0","","53","","","","34","","31","","24.1","","97.70","","","","","","Mainly Clear"
"-98.27","49.90","PORTAGE SOUTHPORT A","5012320","2020-06-10 13:00","2020","06","10","13:00","18.8","","7.6","","48","","","","34","","31","","24.1","","97.71","","","","","","Mainly Clear"
"-98.27","49.90","PORTAGE SOUTHPORT A","5012320","2020-06-10 14:00","2020","06","10","14:00","19.6","","9.0","","50","","","","36","","26","","24.1","","97.72","","","","","","Mainly Clear"
"-98.27","49.90","PORTAGE SOUTHPORT A","5012320","2020-06-10 15:00","2020","06","10","15:00","20.1","","8.1","","46","","","","36","","24","","24.1","","97.72","","","","","","Mainly Clear"
"-98.27","49.90","PORTAGE SOUTHPORT A","5012320","2020-06-10 16:00","2020","06","10","16:00","20.1","","8.0","","46","","","","34","","22","","24.1","","97.73","","","","","","Mainly Clear"
"-98.27","49.90","PORTAGE SOUTHPORT A","5012320","2020-06-10 17:00","2020","06","10","17:00","20.2","","8.1","","46","","","","32","","21","","24.1","","97.74","","","","","","Mainly Clear"
"-98.27","49.90","PORTAGE SOUTHPORT A","5012320","2020-06-10 18:00","2020","06","10","18:00","20.1","","6.6","","41","","","","36","","18","","24.1","","97.70","","","","","","Mainly Clear"
"-98.27","49.90","PORTAGE SOUTHPORT A","5012320","2020-06-10 19:00","2020","06","10","19:00","14.3","","10.7","","79","","","","31","","15","","9.7","","97.82","","","","","","Rain Showers,Fog"
"-98.27","49.90","PORTAGE SOUTHPORT A","5012320","2020-06-10 20:00","2020","06","10","20:00","13.9","","11.2","","84","","","","26","","13","","16.1","","97.79","","","","","","Rain Showers"
"-98.27","49.90","PORTAGE SOUTHPORT A","5012320","2020-06-10 21:00","2020","06","10","21:00","13.5","","12.0","","91","","","","24","","11","","24.1","","97.79","","","","","","Mostly Cloudy"
"-98.27","49.90","PORTAGE SOUTHPORT A","5012320","2020-06-10 22:00","2020","06","10","22:00","","","11.2","","91","","","","25","","11","","24.1","","97.81","","","","","","Mainly Clear"
"-98.27","49.90","PORTAGE SOUTHPORT A","5012320","2020-06-10 23:00","2020","06","10","23:00"
"-98.27","49.90","PORTAGE SOUTHPORT A","5012320","2020-06-11 00:00","2020","06","11","00:00"
"-98.27","49.90","PORTAGE SOUTHPORT A","5012320","2020-06-11 01:00","2020","06","11","01:00"
"-98.27","49.90","PORTAGE SOUTHPORT A","5012320","2020-06-11 02:00","2020","06","11","02:00"
"-98.27","49.90","PORTAGE SOUTHPORT A","5012320","2020-06-11 03:00","2020","06","11","03:00"
"-98.27","49.90","PORTAGE SOUTHPORT A","5012320","2020-06-11 04:00","2020","06","11","04:00"
"-98.27","49.90","PORTAGE SOUTHPORT A","5012320","2020-06-11 05:00","2020","06","11","05:00","9.4","","8.2","","92","","","","30","","8","","24.1","","98.12","","","","","","Mainly Clear"
"-98.27","49.90","PORTAGE SOUTHPORT A","5012320","2020-06-11 06:00","2020","06","11","06:00","9.4","","8.4","","93","","","","14","","4","","24.1","","98.17","","","","","","Mainly Clear"
"-98.27","49.90","PORTAGE SOUTHPORT A","5012320","2020-06-11 07:00","2020","06","11","07:00","11.8","","8.4","","80","","","","10","","4","","24.1","","98.25","","","","","","Mainly Clear"
"-98.27","49.90","PORTAGE SOUTHPORT A","5012320","2020-06-11 08:00","2020","06","11","08:00","11.8","","9.4","","85","","","","11","","11","","24.1","","98.31","","","","","","Mostly Cloudy"
"-98.27","49.90","PORTAGE SOUTHPORT A","5012320","2020-06-11 09:00","2020","06","11","09:00","13.0","","9.1","","77","","","","10","","11","","24.1","","98.34","","","","","","Mainly Clear"
"-98.27","49.90","PORTAGE SOUTHPORT A","5012320","2020-06-11 10:00","2020","06","11","10:00","15.1","","10.3","","73","","","","10","","9","","24.1","","98.36","","","","","","Mainly Clear"
"-98.27","49.90","PORTAGE SOUTHPORT A","5012320","2020-06-11 11:00","2020","06","11","11:00","16.9","","9.9","","63","","","","15","","8","","24.1","","98.40","","","","","","Mainly Clear"
"-98.27","49.90","PORTAGE SOUTHPORT A","5012320","2020-06-11 12:00","2020","06","11","12:00","17.8","","9.6","","59","","","","36","","11","","24.1","","98.45","","","","","","Mainly Clear"
"-98.27","49.90","PORTAGE SOUTHPORT A","5012320","2020-06-11 13:00","2020","06","11","13:00","18.4","","10.4","","60","","","","4","","18","","24.1","","98.54","","","","","","Mostly Cloudy"
"-98.27","49.90","PORTAGE SOUTHPORT A","5012320","2020-06-11 14:00","2020","06","11","14:00","17.4","","9.6","","60","","","","3","","22","","24.1","","98.65","","","","","","Mostly Cloudy"
"-98.27","49.90","PORTAGE SOUTHPORT A","5012320","2020-06-11 15:00","2020","06","11","15:00","16.4","","8.2","","58","","","","1","","22","","24.1","","98.75","","","","","","Mainly Clear"
"-98.27","49.90","PORTAGE SOUTHPORT A","5012320","2020-06-11 16:00","2020","06","11","16:00","16.9","","7.8","","55","","","","1","","17","","24.1","","98.82","","","","","","Mainly Clear"
"-98.27","49.90","PORTAGE SOUTHPORT A","5012320","2020-06-11 17:00","2020","06","11","17:00","15.8","","7.4","","57","","","","35","","22","","24.1","","98.88","","","","","","Mainly Clear"
"-98.27","49.90","PORTAGE SOUTHPORT A","5012320","2020-06-11 18:00","2020","06","11","18:00","15.5","","7.4","","59","","","","36","","22","","24.1","","98.95","","","","","","Mainly Clear"
"-98.27","49.90","PORTAGE SOUTHPORT A","5012320","2020-06-11 19:00","2020","06","11","19:00","14.1","","7.0","","62","","","","35","","22","","24.1","","99.04","","","","","","Mainly Clear"
"-98.27","49.90","PORTAGE SOUTHPORT A","5012320","2020-06-11 20:00","2020","06","11","20:00","13.4","","7.0","","65","","","","35","","21","","24.1","","99.09","","","","","","Mainly Clear"
"-98.27","49.90","PORTAGE SOUTHPORT A","5012320","2020-06-11 21:00","2020","06","11","21:00","12.5","","5.6","","63","","","","5","","9","","24.1","","99.20","","","","","","Mostly Cloudy"
"-98.27","49.90","PORTAGE SOUTHPORT A","5012320","2020-06-11 22:00","2020","06","11","22:00","11.6","","4.8","","63","","","","6","","11","","24.1","","99.30","","","","","","Mostly Cloudy"
"-98.27","49.90","PORTAGE SOUTHPORT A","5012320","2020-06-11 23:00","2020","06","11","23:00"
"-98.27","49.90","PORTAGE SOUTHPORT A","5012320","2020-06-12 00:00","2020","06","12","00:00"
"-98.27","49.90","PORTAGE SOUTHPORT A","5012320","2020-06-12 01:00","2020","06","12","01:00"
"-98.27","49.90","PORTAGE SOUTHPORT A","5012320","2020-06-12 02:00","2020","06","12","02:00"
"-98.27","49.90","PORTAGE SOUTHPORT A","5012320","2020-06-12 03:00","2020","06","12","03:00"
"-98.27","49.90","PORTAGE SOUTHPORT A","5012320","2020-06-12 04:00","2020","06","12","04:00"
"-98.27","49.90","PORTAGE SOUTHPORT A","5012320","2020-06-12 05:00","2020","06","12","05:00","6.6","","3.9","","83","","","","15","","4","","24.1","","99.71","","","","","","Mainly Clear"
"-98.27","49.90","PORTAGE SOUTHPORT A","5012320","2020-06-12 06:00","2020","06","12","06:00","8.3","","5.2","","81","","","","9","","5","","24.1","","99.75","","","","","","Mainly Clear"
"-98.27","49.90","PORTAGE SOUTHPORT A","5012320","2020-06-12 07:00","2020","06","12","07:00","10.5","","4.4","","66","","","","12","","17","","24.1","","99.80","","","","","","Clear"
"-98.27","49.90","PORTAGE SOUTHPORT A","5012320","2020-06-12 08:00","2020","06","12","08:00","12.2","","3.9","","57","","","","11","","15","","24.1","","99.84","","","","","","Clear"
"-98.27","49.90","PORTAGE SOUTHPORT A","5012320","2020-06-12 09:00","2020","06","12","09:00","13.2","","4.2","","54","","","","6","","18","","24.1","","99.83","","","","","","Mainly Clear"
"-98.27","49.90","PORTAGE SOUTHPORT A","5012320","2020-06-12 10:00","2020","06","12","10:00","13.8","","4.5","","53","","","","10","","15","","24.1","","99.82","","","","","","Mainly Clear"
"-98.27","49.90","PORTAGE SOUTHPORT A","5012320","2020-06-12 11:00","2020","06","12","11:00","14.1","","4.6","","53","","","","8","","17","","24.1","","99.81","","","","","","Mainly Clear"
"-98.27","49.90","PORTAGE SOUTHPORT A","5012320","2020-06-12 12:00","2020","06","12","12:00","15.3","","4.3","","48","","","","11","","11","","24.1","","99.77","","","","","","Mainly Clear"
"-98.27","49.90","PORTAGE SOUTHPORT A","5012320","2020-06-12 13:00","2020","06","12","13:00","16.7","","3.8","","42","","","","8","","9","","24.1","","99.71","","","","","","Mainly Clear"
"-98.27","49.90","PORTAGE SOUTHPORT A","5012320","2020-06-12 14:00","2020","06","12","14:00","17.6","","4.5","","42","","","","8","","11","","24.1","","99.66","","","","","","Mainly Clear"
"-98.27","49.90","PORTAGE SOUTHPORT A","5012320","2020-06-12 15:00","2020","06","12","15:00","18.4","","4.7","","40","","","","12","","18","","24.1","","99.60","","","","","","Mainly Clear"
"-98.27","49.90","PORTAGE SOUTHPORT A","5012320","2020-06-12 16:00","2020","06","12","16:00","18.6","","4.9","","40","","","","10","","17","","24.1","","99.56","","","","","","Mostly Cloudy"
"-98.27","49.90","PORTAGE SOUTHPORT A","5012320","2020-06-12 17:00","2020","06","12","17:00"
"-98.27","49.90","PORTAGE SOUTHPORT A","5012320","2020-06-12 18:00","2020","06","12","18:00"
"-98.27","49.90","PORTAGE SOUTHPORT A","5012320","2020-06-12 19:00","2020","06","12","19:00"
"-98.27","49.90","PORTAGE SOUTHPORT A","5012320","2020-06-12 20:00","2020","06","12","20:00"
"-98.27","49.90","PORTAGE SOUTHPORT A","5012320","2020-06-12 21:00","2020","06","12","21:00"
"-98.27","49.90","PORTAGE SOUTHPORT A","5012320","2020-06-12 22:00","2020","06","12","22:00"
"-98.27","49.90","PORTAGE SOUTHPORT A","5012320","2020-06-12 23:00","2020","06","12","23:00"
"-98.27","49.90","PORTAGE SOUTHPORT A","5012320","2020-06-13 00:00","2020","06","13","00:00"
"-98.27","49.90","PORTAGE SOUTHPORT A","5012320","2020-06-13 01:00","2020","06","13","01:00"
"-98.27","49.90","PORTAGE SOUTHPORT A","5012320","2020-06-13 02:00","2020","06","13","02:00"
"-98.27","49.90","PORTAGE SOUTHPORT A","5012320","2020-06-13 03:00","2020","06","13","03:00"
"-98.27","49.90","PORTAGE SOUTHPORT A","5012320","2020-06-13 04:00","2020","06","13","04:00"
"-98.27","49.90","PORTAGE SOUTHPORT A","5012320","2020-06-13 05:00","2020","06","13","05:00"
"-98.27","49.90","PORTAGE SOUTHPORT A","5012320","2020-06-13 06:00","2020","06","13","06:00"
"-98.27","49.90","PORTAGE SOUTHPORT A","5012320","2020-06-13 07:00","2020","06","13","07:00"
"-98.27","49.90","PORTAGE SOUTHPORT A","5012320","2020-06-13 08:00","2020","06","13","08:00"
"-98.27","49.90","PORTAGE SOUTHPORT A","5012320","2020-06-13 09:00","2020","06","13","09:00"
"-98.27","49.90","PORTAGE SOUTHPORT A","5012320","2020-06-13 10:00","2020","06","13","10:00"
"-98.27","49.90","PORTAGE SOUTHPORT A","5012320","2020-06-13 11:00","2020","06","13","11:00"
"-98.27","49.90","PORTAGE SOUTHPORT A","5012320","2020-06-13 12:00","2020","06","13","12:00"
"-98.27","49.90","PORTAGE SOUTHPORT A","5012320","2020-06-13 13:00","2020","06","13","13:00"
"-98.27","49.90","PORTAGE SOUTHPORT A","5012320","2020-06-13 14:00","2020","06","13","14:00"
"-98.27","49.90","PORTAGE SOUTHPORT A","5012320","2020-06-13 15:00","2020","06","13","15:00"
"-98.27","49.90","PORTAGE SOUTHPORT A","5012320","2020-06-13 16:00","2020","06","13","16:00"
"-98.27","49.90","PORTAGE SOUTHPORT A","5012320","2020-06-13 17:00","2020","06","13","17:00"
"-98.27","49.90","PORTAGE SOUTHPORT A","5012320","2020-06-13 18:00","2020","06","13","18:00"
"-98.27","49.90","PORTAGE SOUTHPORT A","5012320","2020-06-13 19:00","2020","06","13","19:00"
"-98.27","49.90","PORTAGE SOUTHPORT A","5012320","2020-06-13 20:00","2020","06","13","20:00"
"-98.27","49.90","PORTAGE SOUTHPORT A","5012320","2020-06-13 21:00","2020","06","13","21:00"
"-98.27","49.90","PORTAGE SOUTHPORT A","5012320","2020-06-13 22:00","2020","06","13","22:00"
"-98.27","49.90","PORTAGE SOUTHPORT A","5012320","2020-06-13 23:00","2020","06","13","23:00"
"-98.27","49.90","PORTAGE SOUTHPORT A","5012320","2020-06-14 00:00","2020","06","14","00:00"
"-98.27","49.90","PORTAGE SOUTHPORT A","5012320","2020-06-14 01:00","2020","06","14","01:00"
"-98.27","49.90","PORTAGE SOUTHPORT A","5012320","2020-06-14 02:00","2020","06","14","02:00"
"-98.27","49.90","PORTAGE SOUTHPORT A","5012320","2020-06-14 03:00","2020","06","14","03:00"
"-98.27","49.90","PORTAGE SOUTHPORT A","5012320","2020-06-14 04:00","2020","06","14","04:00"
"-98.27","49.90","PORTAGE SOUTHPORT A","5012320","2020-06-14 05:00","2020","06","14","05:00"
"-98.27","49.90","PORTAGE SOUTHPORT A","5012320","2020-06-14 06:00","2020","06","14","06:00"
"-98.27","49.90","PORTAGE SOUTHPORT A","5012320","2020-06-14 07:00","2020","06","14","07:00"
"-98.27","49.90","PORTAGE SOUTHPORT A","5012320","2020-06-14 08:00","2020","06","14","08:00"
"-98.27","49.90","PORTAGE SOUTHPORT A","5012320","2020-06-14 09:00","2020","06","14","09:00"
"-98.27","49.90","PORTAGE SOUTHPORT A","5012320","2020-06-14 10:00","2020","06","14","10:00"
"-98.27","49.90","PORTAGE SOUTHPORT A","5012320","2020-06-14 11:00","2020","06","14","11:00"
"-98.27","49.90","PORTAGE SOUTHPORT A","5012320","2020-06-14 12:00","2020","06","14","12:00"
"-98.27","49.90","PORTAGE SOUTHPORT A","5012320","2020-06-14 13:00","2020","06","14","13:00"
"-98.27","49.90","PORTAGE SOUTHPORT A","5012320","2020-06-14 14:00","2020","06","14","14:00"
"-98.27","49.90","PORTAGE SOUTHPORT A","5012320","2020-06-14 15:00","2020","06","14","15:00"
"-98.27","49.90","PORTAGE SOUTHPORT A","5012320","2020-06-14 16:00","2020","06","14","16:00"
"-98.27","49.90","PORTAGE SOUTHPORT A","5012320","2020-06-14 17:00","2020","06","14","17:00"
"-98.27","49.90","PORTAGE SOUTHPORT A","5012320","2020-06-14 18:00","2020","06","14","18:00"
"-98.27","49.90","PORTAGE SOUTHPORT A","5012320","2020-06-14 19:00","2020","06","14","19:00"
"-98.27","49.90","PORTAGE SOUTHPORT A","5012320","2020-06-14 20:00","2020","06","14","20:00"
"-98.27","49.90","PORTAGE SOUTHPORT A","5012320","2020-06-14 21:00","2020","06","14","21:00"
"-98.27","49.90","PORTAGE SOUTHPORT A","5012320","2020-06-14 22:00","2020","06","14","22:00"
"-98.27","49.90","PORTAGE SOUTHPORT A","5012320","2020-06-14 23:00","2020","06","14","23:00"
"-98.27","49.90","PORTAGE SOUTHPORT A","5012320","2020-06-15 00:00","2020","06","15","00:00"
"-98.27","49.90","PORTAGE SOUTHPORT A","5012320","2020-06-15 01:00","2020","06","15","01:00"
"-98.27","49.90","PORTAGE SOUTHPORT A","5012320","2020-06-15 02:00","2020","06","15","02:00"
"-98.27","49.90","PORTAGE SOUTHPORT A","5012320","2020-06-15 03:00","2020","06","15","03:00"
"-98.27","49.90","PORTAGE SOUTHPORT A","5012320","2020-06-15 04:00","2020","06","15","04:00"
"-98.27","49.90","PORTAGE SOUTHPORT A","5012320","2020-06-15 05:00","2020","06","15","05:00","17.6","","12.0","","70","","","","12","","21","","24.1","","97.66","","","","","","Mainly Clear"
"-98.27","49.90","PORTAGE SOUTHPORT A","5012320","2020-06-15 06:00","2020","06","15","06:00","18.4","","13.0","","71","","","","13","","24","","24.1","","97.64","","","","","","Mainly Clear"
"-98.27","49.90","PORTAGE SOUTHPORT A","5012320","2020-06-15 07:00","2020","06","15","07:00","20.3","","14.3","","68","","","","13","","24","","24.1","","97.61","","","","","","Mainly Clear"
"-98.27","49.90","PORTAGE SOUTHPORT A","5012320","2020-06-15 08:00","2020","06","15","08:00","22.3","","16.2","","68","","","","15","","22","","24.1","","97.56","","27","","","","Mainly Clear"
"-98.27","49.90","PORTAGE SOUTHPORT A","5012320","2020-06-15 09:00","2020","06","15","09:00","24.6","","17.8","","66","","","","15","","22","","19.3","","97.59","","30","","","","Mainly Clear"
"-98.27","49.90","PORTAGE SOUTHPORT A","5012320","2020-06-15 10:00","2020","06","15","10:00","26.0","","18.7","","64","","","","19","","26","","19.3","","97.57","","33","","","","Cloudy"
"-98.27","49.90","PORTAGE SOUTHPORT A","5012320","2020-06-15 11:00","2020","06","15","11:00","25.6","","18.3","","64","","","","25","","18","","19.3","","97.68","","32","","","","Cloudy"
"-98.27","49.90","PORTAGE SOUTHPORT A","5012320","2020-06-15 12:00","2020","06","15","12:00","26.4","","17.4","","58","","","","26","","31","","19.3","","97.80","","32","","","","Mostly Cloudy"
"-98.27","49.90","PORTAGE SOUTHPORT A","5012320","2020-06-15 13:00","2020","06","15","13:00","27.2","","15.7","","49","","","","29","","24","","19.3","","97.84","","32","","","","Mostly Cloudy"
"-98.27","49.90","PORTAGE SOUTHPORT A","5012320","2020-06-15 14:00","2020","06","15","14:00","27.4","","15.7","","49","","","","28","","28","","24.1","","97.91","","32","","","","Mostly Cloudy"
"-98.27","49.90","PORTAGE SOUTHPORT A","5012320","2020-06-15 15:00","2020","06","15","15:00","27.1","","12.8","","41","","","","26","","21","","24.1","","97.96","","30","","","","Cloudy"
"-98.27","49.90","PORTAGE SOUTHPORT A","5012320","2020-06-15 16:00","2020","06","15","16:00","28.4","","7.4","","27","","","","25","","28","","24.1","","97.96","","29","","","","Mostly Cloudy"
"-98.27","49.90","PORTAGE SOUTHPORT A","5012320","2020-06-15 17:00","2020","06","15","17:00","28.0","","5.9","","25","","","","24","","18","","24.1","","97.99","","28","","","","Mostly Cloudy"
"-98.27","49.90","PORTAGE SOUTHPORT A","5012320","2020-06-15 18:00","2020","06","15","18:00","28.0","","4.1","","22","","","","21","","9","","24.1","","97.98","","27","","","","Mainly Clear"
"-98.27","49.90","PORTAGE SOUTHPORT A","5012320","2020-06-15 19:00","2020","06","15","19:00","27.3","","4.0","","22","","","","24","","9","","24.1","","98.01","","26","","","","Mainly Clear"
"-98.27","49.90","PORTAGE SOUTHPORT A","5012320","2020-06-15 20:00","2020","06","15","20:00","24.5","","6.2","","31","","","","27","","9","","24.1","","98.10","","","","","","Mainly Clear"
"-98.27","49.90","PORTAGE SOUTHPORT A","5012320","2020-06-15 21:00","2020","06","15","21:00","21.3","","6.0","","37","","","","26","","9","","24.1","","98.15","","","","","","Mainly Clear"
"-98.27","49.90","PORTAGE SOUTHPORT A","5012320","2020-06-15 22:00","2020","06","15","22:00","17.6","","6.9","","49","","","","19","","5","","24.1","","98.17","","","","","","Mainly Clear"
"-98.27","49.90","PORTAGE SOUTHPORT A","5012320","2020-06-15 23:00","2020","06","15","23:00"
"-98.27","49.90","PORTAGE SOUTHPORT A","5012320","2020-06-16 00:00","2020","06","16","00:00"
"-98.27","49.90","PORTAGE SOUTHPORT A","5012320","2020-06-16 01:00","2020","06","16","01:00"
"-98.27","49.90","PORTAGE SOUTHPORT A","5012320","2020-06-16 02:00","2020","06","16","02:00"
"-98.27","49.90","PORTAGE SOUTHPORT A","5012320","2020-06-16 03:00","2020","06","16","03:00"
"-98.27","49.90","PORTAGE SOUTHPORT A","5012320","2020-06-16 04:00","2020","06","16","04:00"
"-98.27","49.90","PORTAGE SOUTHPORT A","5012320","2020-06-16 05:00","2020","06","16","05:00","9.1","","6.5","","84","","","","12","","9","","24.1","","98.20","","","","","","Mainly Clear"
"-98.27","49.90","PORTAGE SOUTHPORT A","5012320","2020-06-16 06:00","2020","06","16","06:00","12.7","","8.1","","74","","","","","","0","","24.1","","98.19","","","","","","Mostly Cloudy"
"-98.27","49.90","PORTAGE SOUTHPORT A","5012320","2020-06-16 07:00","2020","06","16","07:00","17.7","","9.1","","57","","","","10","","5","","24.1","","98.11","","","","","","Mostly Cloudy"
"-98.27","49.90","PORTAGE SOUTHPORT A","5012320","2020-06-16 08:00","2020","06","16","08:00","21.2","","9.5","","47","","","","12","","18","","24.1","","98.11","","","","","","Cloudy"
"-98.27","49.90","PORTAGE SOUTHPORT A","5012320","2020-06-16 09:00","2020","06","16","09:00","22.5","","9.2","","43","","","","12","","17","","24.1","","98.10","","","","","","Cloudy"
"-98.27","49.90","PORTAGE SOUTHPORT A","5012320","2020-06-16 10:00","2020","06","16","10:00","25.4","","10.8","","40","","","","11","","24","","24.1","","97.99","","27","","","","Mostly Cloudy"
"-98.27","49.90","PORTAGE SOUTHPORT A","5012320","2020-06-16 11:00","2020","06","16","11:00","28.5","","6.6","","25","","","","9","","22","","24.1","","97.94","","28","","","","Cloudy"
"-98.27","49.90","PORTAGE SOUTHPORT A","5012320","2020-06-16 12:00","2020","06","16","12:00","28.9","","8.2","","27","","","","10","","28","","24.1","","97.84","","29","","","","Cloudy"
"-98.27","49.90","PORTAGE SOUTHPORT A","5012320","2020-06-16 13:00","2020","06","16","13:00","29.3","","10.6","","31","","","","12","","22","","24.1","","97.80","","31","","","","Cloudy"
"-98.27","49.90","PORTAGE SOUTHPORT A","5012320","2020-06-16 14:00","2020","06","16","14:00","27.7","","17.9","","55","","","","15","","24","","19.3","","97.75","","34","","","","Cloudy"
"-98.27","49.90","PORTAGE SOUTHPORT A","5012320","2020-06-16 15:00","2020","06","16","15:00","27.4","","18.2","","57","","","","10","","24","","24.1","","97.58","","34","","","","Cloudy"
"-98.27","49.90","PORTAGE SOUTHPORT A","5012320","2020-06-16 16:00","2020","06","16","16:00","27.7","","19.1","","60","","","","8","","21","","19.3","","97.46","","35","","","","Cloudy"
"-98.27","49.90","PORTAGE SOUTHPORT A","5012320","2020-06-16 17:00","2020","06","16","17:00","28.3","","19.5","","59","","","","9","","24","","19.3","","97.31","","35","","","","Thunderstorms,Rain Showers"
"-98.27","49.90","PORTAGE SOUTHPORT A","5012320","2020-06-16 18:00","2020","06","16","18:00","27.7","","20.1","","63","","","","9","","24","","19.3","","97.23","","35","","","","Cloudy"
"-98.27","49.90","PORTAGE SOUTHPORT A","5012320","2020-06-16 19:00","2020","06","16","19:00","27.8","","20.6","","65","","","","10","","15","","24.1","","97.19","","36","","","","Mostly Cloudy"
"-98.27","49.90","PORTAGE SOUTHPORT A","5012320","2020-06-16 20:00","2020","06","16","20:00","26.6","","20.3","","68","","","","12","","21","","24.1","","97.14","","34","","","","Mostly Cloudy"
"-98.27","49.90","PORTAGE SOUTHPORT A","5012320","2020-06-16 21:00","2020","06","16","21:00","29.3","","16.3","","45","","","","16","","31","","24.1","","97.16","","34","","","","Mostly Cloudy"
"-98.27","49.90","PORTAGE SOUTHPORT A","5012320","2020-06-16 22:00","2020","06","16","22:00","30.0","","16.4","","44","","","","16","","34","","24.1","","97.16","","35","","","","Cloudy"
"-98.27","49.90","PORTAGE SOUTHPORT A","5012320","2020-06-16 23:00","2020","06","16","23:00"
"-98.27","49.90","PORTAGE SOUTHPORT A","5012320","2020-06-17 00:00","2020","06","17","00:00"
"-98.27","49.90","PORTAGE SOUTHPORT A","5012320","2020-06-17 01:00","2020","06","17","01:00"
"-98.27","49.90","PORTAGE SOUTHPORT A","5012320","2020-06-17 02:00","2020","06","17","02:00"
"-98.27","49.90","PORTAGE SOUTHPORT A","5012320","2020-06-17 03:00","2020","06","17","03:00"
"-98.27","49.90","PORTAGE SOUTHPORT A","5012320","2020-06-17 04:00","2020","06","17","04:00"
"-98.27","49.90","PORTAGE SOUTHPORT A","5012320","2020-06-17 05:00","2020","06","17","05:00","21.3","","14.9","","67","","","","29","","9","","24.1","","97.08","","25","","","","Mostly Cloudy"
"-98.27","49.90","PORTAGE SOUTHPORT A","5012320","2020-06-17 06:00","2020","06","17","06:00","20.5","","15.5","","73","","","","15","","26","","24.1","","97.28","","25","","","","Mostly Cloudy"
"-98.27","49.90","PORTAGE SOUTHPORT A","5012320","2020-06-17 07:00","2020","06","17","07:00","21.1","","16.9","","77","","","","16","","22","","24.1","","97.27","","26","","","","Mostly Cloudy"
"-98.27","49.90","PORTAGE SOUTHPORT A","5012320","2020-06-17 08:00","2020","06","17","08:00","23.7","","17.3","","67","","","","17","","22","","24.1","","97.29","","29","","","","Mainly Clear"
"-98.27","49.90","PORTAGE SOUTHPORT A","5012320","2020-06-17 09:00","2020","06","17","09:00","26.4","","17.4","","58","","","","17","","26","","24.1","","97.29","","32","","","","Clear"
"-98.27","49.90","PORTAGE SOUTHPORT A","5012320","2020-06-17 10:00","2020","06","17","10:00","28.2","","18.7","","56","","","","20","","21","","24.1","","97.27","","35","","","","Clear"
"-98.27","49.90","PORTAGE SOUTHPORT A","5012320","2020-06-17 11:00","2020","06","17","11:00","28.6","","19.3","","57","","","","17","","21","","24.1","","97.29","","36","","","","Clear"
"-98.27","49.90","PORTAGE SOUTHPORT A","5012320","2020-06-17 12:00","2020","06","17","12:00","28.8","","17.6","","51","","","","22","","21","","24.1","","97.29","","35","","","","Mainly Clear"
"-98.27","49.90","PORTAGE SOUTHPORT A","5012320","2020-06-17 13:00","2020","06","17","13:00","28.7","","19.1","","56","","","","24","","17","","24.1","","97.26","","36","","","","Mainly Clear"
"-98.27","49.90","PORTAGE SOUTHPORT A","5012320","2020-06-17 14:00","2020","06","17","14:00","28.4","","17.2","","51","","","","21","","15","","24.1","","97.30","","34","","","","Mostly Cloudy"
"-98.27","49.90","PORTAGE SOUTHPORT A","5012320","2020-06-17 15:00","2020","06","17","15:00","28.1","","17.4","","52","","","","25","","15","","24.1","","97.27","","34","","","","Mostly Cloudy"
"-98.27","49.90","PORTAGE SOUTHPORT A","5012320","2020-06-17 16:00","2020","06","17","16:00","26.9","","19.7","","65","","","","23","","11","","24.1","","97.26","","34","","","","Rain Showers"
"-98.27","49.90","PORTAGE SOUTHPORT A","5012320","2020-06-17 17:00","2020","06","17","17:00","27.5","","17.8","","55","","","","23","","5","","24.1","","97.25","","33","","","","Cloudy"
"-98.27","49.90","PORTAGE SOUTHPORT A","5012320","2020-06-17 18:00","2020","06","17","18:00","25.4","","20.5","","74","","","","22","","5","","24.1","","97.18","","33","","","","Mostly Cloudy"
"-98.27","49.90","PORTAGE SOUTHPORT A","5012320","2020-06-17 19:00","2020","06","17","19:00","27.0","","19.0","","62","","","","28","","15","","24.1","","97.08","","34","","","","Mostly Cloudy"
"-98.27","49.90","PORTAGE SOUTHPORT A","5012320","2020-06-17 20:00","2020","06","17","20:00","26.0","","15.8","","53","","","","31","","8","","24.1","","97.13","","30","","","","Mostly Cloudy"
"-98.27","49.90","PORTAGE SOUTHPORT A","5012320","2020-06-17 21:00","2020","06","17","21:00","24.3","","16.9","","63","","","","28","","11","","24.1","","97.32","","30","","","","Cloudy"
"-98.27","49.90","PORTAGE SOUTHPORT A","5012320","2020-06-17 22:00","2020","06","17","22:00","23.2","","16.4","","66","","","","24","","11","","24.1","","97.35","","28","","","","Cloudy"
"-98.27","49.90","PORTAGE SOUTHPORT A","5012320","2020-06-17 23:00","2020","06","17","23:00"
"-98.27","49.90","PORTAGE SOUTHPORT A","5012320","2020-06-18 00:00","2020","06","18","00:00"
"-98.27","49.90","PORTAGE SOUTHPORT A","5012320","2020-06-18 01:00","2020","06","18","01:00"
"-98.27","49.90","PORTAGE SOUTHPORT A","5012320","2020-06-18 02:00","2020","06","18","02:00"
"-98.27","49.90","PORTAGE SOUTHPORT A","5012320","2020-06-18 03:00","2020","06","18","03:00"
"-98.27","49.90","PORTAGE SOUTHPORT A","5012320","2020-06-18 04:00","2020","06","18","04:00"
"-98.27","49.90","PORTAGE SOUTHPORT A","5012320","2020-06-18 05:00","2020","06","18","05:00","13.2","","12.0","","92","","","","31","","17","","19.3","","97.49","","","","","","Cloudy"
"-98.27","49.90","PORTAGE SOUTHPORT A","5012320","2020-06-18 06:00","2020","06","18","06:00","12.8","","11.6","","92","","","","32","","17","","19.3","","97.59","","","","","","Cloudy"
"-98.27","49.90","PORTAGE SOUTHPORT A","5012320","2020-06-18 07:00","2020","06","18","07:00","11.9","","11.3","","96","","","","31","","21","","3.2","","97.71","","","","","","Drizzle,Fog"
"-98.27","49.90","PORTAGE SOUTHPORT A","5012320","2020-06-18 08:00","2020","06","18","08:00","12.2","","10.6","","90","","","","33","","17","","19.3","","97.69","","","","","","Cloudy"
"-98.27","49.90","PORTAGE SOUTHPORT A","5012320","2020-06-18 09:00","2020","06","18","09:00","13.3","","10.4","","83","","","","31","","17","","19.3","","97.70","","","","","","Cloudy"
"-98.27","49.90","PORTAGE SOUTHPORT A","5012320","2020-06-18 10:00","2020","06","18","10:00","13.7","","11.3","","85","","","","34","","15","","24.1","","97.73","","","","","","Cloudy"
"-98.27","49.90","PORTAGE SOUTHPORT A","5012320","2020-06-18 11:00","2020","06","18","11:00","13.2","","11.7","","91","","","","34","","15","","6.4","","97.75","","","","","","Drizzle,Fog"
"-98.27","49.90","PORTAGE SOUTHPORT A","5012320","2020-06-18 12:00","2020","06","18","12:00","13.6","","11.5","","87","","","","34","","13","","12.9","","97.79","","","","","","Drizzle"
"-98.27","49.90","PORTAGE SOUTHPORT A","5012320","2020-06-18 13:00","2020","06","18","13:00","14.0","","11.2","","83","","","","35","","11","","12.9","","97.78","","","","","","Drizzle"
"-98.27","49.90","PORTAGE SOUTHPORT A","5012320","2020-06-18 14:00","2020","06","18","14:00","13.5","","10.8","","84","","","","32","","21","","24.1","","97.86","","","","","","Cloudy"
"-98.27","49.90","PORTAGE SOUTHPORT A","5012320","2020-06-18 15:00","2020","06","18","15:00","13.1","","11.9","","92","","","","31","","17","","8.1","","97.92","","","","","","Rain Showers,Fog"
"-98.27","49.90","PORTAGE SOUTHPORT A","5012320","2020-06-18 16:00","2020","06","18","16:00","12.9","","11.8","","93","","","","31","","13","","8.1","","97.94","","","","","","Rain Showers,Fog"
"-98.27","49.90","PORTAGE SOUTHPORT A","5012320","2020-06-18 17:00","2020","06","18","17:00","13.9","","10.8","","82","","","","32","","15","","24.1","","97.96","","","","","","Cloudy"
"-98.27","49.90","PORTAGE SOUTHPORT A","5012320","2020-06-18 18:00","2020","06","18","18:00","12.4","","11.2","","92","","","","25","","31","","4.8","","98.02","","","","","","Drizzle,Fog"
"-98.27","49.90","PORTAGE SOUTHPORT A","5012320","2020-06-18 19:00","2020","06","18","19:00","11.2","","10.0","","92","","","","29","","17","","19.3","","98.12","","","","","","Drizzle"
"-98.27","49.90","PORTAGE SOUTHPORT A","5012320","2020-06-18 20:00","2020","06","18","20:00","11.1","","9.6","","90","","","","30","","18","","24.1","","98.15","","","","","","Mostly Cloudy"
"-98.27","49.90","PORTAGE SOUTHPORT A","5012320","2020-06-18 21:00","2020","06","18","21:00","10.7","","9.4","","92","","","","30","","17","","24.1","","98.19","","","","","","Mostly Cloudy"
"-98.27","49.90","PORTAGE SOUTHPORT A","5012320","2020-06-18 22:00","2020","06","18","22:00","9.6","","8.8","","95","","","","28","","9","","24.1","","98.23","","","","","","Mainly Clear"
"-98.27","49.90","PORTAGE SOUTHPORT A","5012320","2020-06-18 23:00","2020","06","18","23:00","8.9","","8.3","","96","","","","28","","11","","24.1","","98.28","","","","","","Mainly Clear"
"-98.27","49.90","PORTAGE SOUTHPORT A","5012320","2020-06-19 00:00","2020","06","19","00:00"
"-98.27","49.90","PORTAGE SOUTHPORT A","5012320","2020-06-19 01:00","2020","06","19","01:00"
"-98.27","49.90","PORTAGE SOUTHPORT A","5012320","2020-06-19 02:00","2020","06","19","02:00"
"-98.27","49.90","PORTAGE SOUTHPORT A","5012320","2020-06-19 03:00","2020","06","19","03:00"
"-98.27","49.90","PORTAGE SOUTHPORT A","5012320","2020-06-19 04:00","2020","06","19","04:00"
"-98.27","49.90","PORTAGE SOUTHPORT A","5012320","2020-06-19 05:00","2020","06","19","05:00","9.6","","6.1","","79","","","","27","","13","","24.1","","98.34","","","","","","Mostly Cloudy"
"-98.27","49.90","PORTAGE SOUTHPORT A","5012320","2020-06-19 06:00","2020","06","19","06:00","9.8","","6.2","","78","","","","25","","5","","24.1","","98.36","","","","","","Mostly Cloudy"
"-98.27","49.90","PORTAGE SOUTHPORT A","5012320","2020-06-19 07:00","2020","06","19","07:00","10.1","","4.7","","69","","","","26","","15","","24.1","","98.41","","","","","","Mostly Cloudy"
"-98.27","49.90","PORTAGE SOUTHPORT A","5012320","2020-06-19 08:00","2020","06","19","08:00","11.1","","5.6","","69","","","","29","","21","","24.1","","98.40","","","","","","Mainly Clear"
"-98.27","49.90","PORTAGE SOUTHPORT A","5012320","2020-06-19 09:00","2020","06","19","09:00","12.5","","5.5","","62","","","","26","","15","","24.1","","98.41","","","","","","Mainly Clear"
"-98.27","49.90","PORTAGE SOUTHPORT A","5012320","2020-06-19 10:00","2020","06","19","10:00","13.9","","5.5","","57","","","","25","","13","","24.1","","98.39","","","","","","Mainly Clear"
"-98.27","49.90","PORTAGE SOUTHPORT A","5012320","2020-06-19 11:00","2020","06","19","11:00","15.8","","6.4","","54","","","","25","","8","","24.1","","98.34","","","","","","Mainly Clear"
"-98.27","49.90","PORTAGE SOUTHPORT A","5012320","2020-06-19 12:00","2020","06","19","12:00","17.5","","6.3","","48","","","","21","","13","","24.1","","98.31","","","","","","Mainly Clear"
"-98.27","49.90","PORTAGE SOUTHPORT A","5012320","2020-06-19 13:00","2020","06","19","13:00","17.9","","6.4","","47","","","","23","","18","","24.1","","98.24","","","","","","Mostly Cloudy"
"-98.27","49.90","PORTAGE SOUTHPORT A","5012320","2020-06-19 14:00","2020","06","19","14:00","20.1","","5.9","","40","","","","22","","28","","24.1","","98.20","","","","","","Mostly Cloudy"
"-98.27","49.90","PORTAGE SOUTHPORT A","5012320","2020-06-19 15:00","2020","06","19","15:00","19.8","","4.8","","37","","","","22","","30","","24.1","","98.19","","","","","","Mostly Cloudy"
"-98.27","49.90","PORTAGE SOUTHPORT A","5012320","2020-06-19 16:00","2020","06","19","16:00","18.8","","5.5","","42","","","","24","","18","","24.1","","98.20","","","","","","Mostly Cloudy"
"-98.27","49.90","PORTAGE SOUTHPORT A","5012320","2020-06-19 17:00","2020","06","19","17:00","20.2","","6.5","","41","","","","25","","22","","24.1","","98.17","","","","","","Mainly Clear"
"-98.27","49.90","PORTAGE SOUTHPORT A","5012320","2020-06-19 18:00","2020","06","19","18:00"
"-98.27","49.90","PORTAGE SOUTHPORT A","5012320","2020-06-19 19:00","2020","06","19","19:00"
"-98.27","49.90","PORTAGE SOUTHPORT A","5012320","2020-06-19 20:00","2020","06","19","20:00"
"-98.27","49.90","PORTAGE SOUTHPORT A","5012320","2020-06-19 21:00","2020","06","19","21:00"
"-98.27","49.90","PORTAGE SOUTHPORT A","5012320","2020-06-19 22:00","2020","06","19","22:00"
"-98.27","49.90","PORTAGE SOUTHPORT A","5012320","2020-06-19 23:00","2020","06","19","23:00"
"-98.27","49.90","PORTAGE SOUTHPORT A","5012320","2020-06-20 00:00","2020","06","20","00:00"
"-98.27","49.90","PORTAGE SOUTHPORT A","5012320","2020-06-20 01:00","2020","06","20","01:00"
"-98.27","49.90","PORTAGE SOUTHPORT A","5012320","2020-06-20 02:00","2020","06","20","02:00"
"-98.27","49.90","PORTAGE SOUTHPORT A","5012320","2020-06-20 03:00","2020","06","20","03:00"
"-98.27","49.90","PORTAGE SOUTHPORT A","5012320","2020-06-20 04:00","2020","06","20","04:00"
"-98.27","49.90","PORTAGE SOUTHPORT A","5012320","2020-06-20 05:00","2020","06","20","05:00"
"-98.27","49.90","PORTAGE SOUTHPORT A","5012320","2020-06-20 06:00","2020","06","20","06:00"
"-98.27","49.90","PORTAGE SOUTHPORT A","5012320","2020-06-20 07:00","2020","06","20","07:00"
"-98.27","49.90","PORTAGE SOUTHPORT A","5012320","2020-06-20 08:00","2020","06","20","08:00"
"-98.27","49.90","PORTAGE SOUTHPORT A","5012320","2020-06-20 09:00","2020","06","20","09:00"
"-98.27","49.90","PORTAGE SOUTHPORT A","5012320","2020-06-20 10:00","2020","06","20","10:00"
"-98.27","49.90","PORTAGE SOUTHPORT A","5012320","2020-06-20 11:00","2020","06","20","11:00"
"-98.27","49.90","PORTAGE SOUTHPORT A","5012320","2020-06-20 12:00","2020","06","20","12:00"
"-98.27","49.90","PORTAGE SOUTHPORT A","5012320","2020-06-20 13:00","2020","06","20","13:00"
"-98.27","49.90","PORTAGE SOUTHPORT A","5012320","2020-06-20 14:00","2020","06","20","14:00"
"-98.27","49.90","PORTAGE SOUTHPORT A","5012320","2020-06-20 15:00","2020","06","20","15:00"
"-98.27","49.90","PORTAGE SOUTHPORT A","5012320","2020-06-20 16:00","2020","06","20","16:00"
"-98.27","49.90","PORTAGE SOUTHPORT A","5012320","2020-06-20 17:00","2020","06","20","17:00"
"-98.27","49.90","PORTAGE SOUTHPORT A","5012320","2020-06-20 18:00","2020","06","20","18:00"
"-98.27","49.90","PORTAGE SOUTHPORT A","5012320","2020-06-20 19:00","2020","06","20","19:00"
"-98.27","49.90","PORTAGE SOUTHPORT A","5012320","2020-06-20 20:00","2020","06","20","20:00"
"-98.27","49.90","PORTAGE SOUTHPORT A","5012320","2020-06-20 21:00","2020","06","20","21:00"
"-98.27","49.90","PORTAGE SOUTHPORT A","5012320","2020-06-20 22:00","2020","06","20","22:00"
"-98.27","49.90","PORTAGE SOUTHPORT A","5012320","2020-06-20 23:00","2020","06","20","23:00"
"-98.27","49.90","PORTAGE SOUTHPORT A","5012320","2020-06-21 00:00","2020","06","21","00:00"
"-98.27","49.90","PORTAGE SOUTHPORT A","5012320","2020-06-21 01:00","2020","06","21","01:00"
"-98.27","49.90","PORTAGE SOUTHPORT A","5012320","2020-06-21 02:00","2020","06","21","02:00"
"-98.27","49.90","PORTAGE SOUTHPORT A","5012320","2020-06-21 03:00","2020","06","21","03:00"
"-98.27","49.90","PORTAGE SOUTHPORT A","5012320","2020-06-21 04:00","2020","06","21","04:00"
"-98.27","49.90","PORTAGE SOUTHPORT A","5012320","2020-06-21 05:00","2020","06","21","05:00"
"-98.27","49.90","PORTAGE SOUTHPORT A","5012320","2020-06-21 06:00","2020","06","21","06:00"
"-98.27","49.90","PORTAGE SOUTHPORT A","5012320","2020-06-21 07:00","2020","06","21","07:00"
"-98.27","49.90","PORTAGE SOUTHPORT A","5012320","2020-06-21 08:00","2020","06","21","08:00"
"-98.27","49.90","PORTAGE SOUTHPORT A","5012320","2020-06-21 09:00","2020","06","21","09:00"
"-98.27","49.90","PORTAGE SOUTHPORT A","5012320","2020-06-21 10:00","2020","06","21","10:00"
"-98.27","49.90","PORTAGE SOUTHPORT A","5012320","2020-06-21 11:00","2020","06","21","11:00"
"-98.27","49.90","PORTAGE SOUTHPORT A","5012320","2020-06-21 12:00","2020","06","21","12:00"
"-98.27","49.90","PORTAGE SOUTHPORT A","5012320","2020-06-21 13:00","2020","06","21","13:00"
"-98.27","49.90","PORTAGE SOUTHPORT A","5012320","2020-06-21 14:00","2020","06","21","14:00"
"-98.27","49.90","PORTAGE SOUTHPORT A","5012320","2020-06-21 15:00","2020","06","21","15:00"
"-98.27","49.90","PORTAGE SOUTHPORT A","5012320","2020-06-21 16:00","2020","06","21","16:00"
"-98.27","49.90","PORTAGE SOUTHPORT A","5012320","2020-06-21 17:00","2020","06","21","17:00"
"-98.27","49.90","PORTAGE SOUTHPORT A","5012320","2020-06-21 18:00","2020","06","21","18:00"
"-98.27","49.90","PORTAGE SOUTHPORT A","5012320","2020-06-21 19:00","2020","06","21","19:00"
"-98.27","49.90","PORTAGE SOUTHPORT A","5012320","2020-06-21 20:00","2020","06","21","20:00"
"-98.27","49.90","PORTAGE SOUTHPORT A","5012320","2020-06-21 21:00","2020","06","21","21:00"
"-98.27","49.90","PORTAGE SOUTHPORT A","5012320","2020-06-21 22:00","2020","06","21","22:00"
"-98.27","49.90","PORTAGE SOUTHPORT A","5012320","2020-06-21 23:00","2020","06","21","23:00"
"-98.27","49.90","PORTAGE SOUTHPORT A","5012320","2020-06-22 00:00","2020","06","22","00:00"
"-98.27","49.90","PORTAGE SOUTHPORT A","5012320","2020-06-22 01:00","2020","06","22","01:00"
"-98.27","49.90","PORTAGE SOUTHPORT A","5012320","2020-06-22 02:00","2020","06","22","02:00"
"-98.27","49.90","PORTAGE SOUTHPORT A","5012320","2020-06-22 03:00","2020","06","22","03:00"
"-98.27","49.90","PORTAGE SOUTHPORT A","5012320","2020-06-22 04:00","2020","06","22","04:00"
"-98.27","49.90","PORTAGE SOUTHPORT A","5012320","2020-06-22 05:00","2020","06","22","05:00","13.5","","11.8","","89","","","","29","","21","","24.1","","97.97","","","","","","Mostly Cloudy"
"-98.27","49.90","PORTAGE SOUTHPORT A","5012320","2020-06-22 06:00","2020","06","22","06:00","13.8","","12.3","","91","","","","29","","24","","24.1","","97.99","","","","","","Cloudy"
"-98.27","49.90","PORTAGE SOUTHPORT A","5012320","2020-06-22 07:00","2020","06","22","07:00","14.6","","13.0","","90","","","","30","","28","","24.1","","98.02","","","","","","Cloudy"
"-98.27","49.90","PORTAGE SOUTHPORT A","5012320","2020-06-22 08:00","2020","06","22","08:00","15.1","","12.6","","85","","","","32","","28","","24.1","","98.07","","","","","","Mostly Cloudy"
"-98.27","49.90","PORTAGE SOUTHPORT A","5012320","2020-06-22 09:00","2020","06","22","09:00","15.8","","12.6","","81","","","","32","","31","","19.3","","98.12","","","","","","Rain Showers"
"-98.27","49.90","PORTAGE SOUTHPORT A","5012320","2020-06-22 10:00","2020","06","22","10:00","15.8","","12.9","","83","","","","34","","30","","19.3","","98.19","","","","","","Rain Showers"
"-98.27","49.90","PORTAGE SOUTHPORT A","5012320","2020-06-22 11:00","2020","06","22","11:00","16.4","","12.3","","77","","","","34","","24","","19.3","","98.26","","","","","","Rain Showers"
"-98.27","49.90","PORTAGE SOUTHPORT A","5012320","2020-06-22 12:00","2020","06","22","12:00","18.0","","12.6","","71","","","","33","","26","","24.1","","98.28","","","","","","Mostly Cloudy"
"-98.27","49.90","PORTAGE SOUTHPORT A","5012320","2020-06-22 13:00","2020","06","22","13:00","18.3","","12.5","","69","","","","35","","22","","24.1","","98.28","","","","","","Mostly Cloudy"
"-98.27","49.90","PORTAGE SOUTHPORT A","5012320","2020-06-22 14:00","2020","06","22","14:00","20.1","","12.5","","62","","","","34","","21","","24.1","","98.29","","","","","","Mostly Cloudy"
"-98.27","49.90","PORTAGE SOUTHPORT A","5012320","2020-06-22 15:00","2020","06","22","15:00","19.5","","12.6","","64","","","","1","","26","","24.1","","98.30","","","","","","Mostly Cloudy"
"-98.27","49.90","PORTAGE SOUTHPORT A","5012320","2020-06-22 16:00","2020","06","22","16:00","20.5","","12.4","","60","","","","1","","15","","24.1","","98.31","","","","","","Mostly Cloudy"
"-98.27","49.90","PORTAGE SOUTHPORT A","5012320","2020-06-22 17:00","2020","06","22","17:00","20.0","","12.3","","61","","","","35","","26","","24.1","","98.33","","","","","","Mostly Cloudy"
"-98.27","49.90","PORTAGE SOUTHPORT A","5012320","2020-06-22 18:00","2020","06","22","18:00","19.7","","11.6","","60","","","","35","","18","","24.1","","98.35","","","","","","Mostly Cloudy"
"-98.27","49.90","PORTAGE SOUTHPORT A","5012320","2020-06-22 19:00","2020","06","22","19:00","18.8","","11.3","","62","","","","35","","13","","24.1","","98.38","","","","","","Mostly Cloudy"
"-98.27","49.90","PORTAGE SOUTHPORT A","5012320","2020-06-22 20:00","2020","06","22","20:00","19.0","","11.6","","62","","","","36","","13","","24.1","","98.39","","","","","","Mainly Clear"
"-98.27","49.90","PORTAGE SOUTHPORT A","5012320","2020-06-22 21:00","2020","06","22","21:00","17.2","","11.2","","68","","","","31","","9","","24.1","","98.43","","","","","","Clear"
"-98.27","49.90","PORTAGE SOUTHPORT A","5012320","2020-06-22 22:00","2020","06","22","22:00","15.1","","11.1","","77","","","","27","","8","","24.1","","98.45","","","","","","Mainly Clear"
"-98.27","49.90","PORTAGE SOUTHPORT A","5012320","2020-06-22 23:00","2020","06","22","23:00"
"-98.27","49.90","PORTAGE SOUTHPORT A","5012320","2020-06-23 00:00","2020","06","23","00:00"
"-98.27","49.90","PORTAGE SOUTHPORT A","5012320","2020-06-23 01:00","2020","06","23","01:00"
"-98.27","49.90","PORTAGE SOUTHPORT A","5012320","2020-06-23 02:00","2020","06","23","02:00"
"-98.27","49.90","PORTAGE SOUTHPORT A","5012320","2020-06-23 03:00","2020","06","23","03:00"
"-98.27","49.90","PORTAGE SOUTHPORT A","5012320","2020-06-23 04:00","2020","06","23","04:00"
"-98.27","49.90","PORTAGE SOUTHPORT A","5012320","2020-06-23 05:00","2020","06","23","05:00","11.7","","9.7","","88","","","","","","0","","24.1","","98.42","","","","","","Mainly Clear"
"-98.27","49.90","PORTAGE SOUTHPORT A","5012320","2020-06-23 06:00","2020","06","23","06:00","13.7","","10.9","","83","","","","26","","11","","24.1","","98.44","","","","","","Mainly Clear"
"-98.27","49.90","PORTAGE SOUTHPORT A","5012320","2020-06-23 07:00","2020","06","23","07:00","16.6","","11.6","","72","","","","25","","9","","24.1","","98.42","","","","","","Mainly Clear"
"-98.27","49.90","PORTAGE SOUTHPORT A","5012320","2020-06-23 08:00","2020","06","23","08:00","18.3","","12.2","","68","","","","27","","13","","24.1","","98.42","","","","","","Mainly Clear"
"-98.27","49.90","PORTAGE SOUTHPORT A","5012320","2020-06-23 09:00","2020","06","23","09:00","20.4","","12.5","","60","","","","27","","13","","24.1","","98.39","","","","","","Mainly Clear"
"-98.27","49.90","PORTAGE SOUTHPORT A","5012320","2020-06-23 10:00","2020","06","23","10:00","21.9","","12.2","","54","","","","26","","15","","24.1","","98.38","","","","","","Mainly Clear"
"-98.27","49.90","PORTAGE SOUTHPORT A","5012320","2020-06-23 11:00","2020","06","23","11:00","22.8","","10.4","","45","","","","26","","17","","24.1","","98.32","","","","","","Mainly Clear"
"-98.27","49.90","PORTAGE SOUTHPORT A","5012320","2020-06-23 12:00","2020","06","23","12:00","23.7","","11.1","","45","","","","29","","13","","24.1","","98.27","","26","","","","Mainly Clear"
"-98.27","49.90","PORTAGE SOUTHPORT A","5012320","2020-06-23 13:00","2020","06","23","13:00","24.4","","10.1","","40","","","","31","","15","","24.1","","98.21","","26","","","","Mainly Clear"
"-98.27","49.90","PORTAGE SOUTHPORT A","5012320","2020-06-23 14:00","2020","06","23","14:00","24.6","","9.8","","39","","","","31","","15","","24.1","","98.18","","26","","","","Mostly Cloudy"
"-98.27","49.90","PORTAGE SOUTHPORT A","5012320","2020-06-23 15:00","2020","06","23","15:00","20.6","","13.0","","62","","","","28","","21","","24.1","","98.19","","","","","","Rain Showers"
"-98.27","49.90","PORTAGE SOUTHPORT A","5012320","2020-06-23 16:00","2020","06","23","16:00","24.0","","10.9","","44","","","","2","","15","","24.1","","98.16","","26","","","","Mainly Clear"
"-98.27","49.90","PORTAGE SOUTHPORT A","5012320","2020-06-23 17:00","2020","06","23","17:00","24.3","","10.1","","41","","","","3","","15","","24.1","","98.12","","26","","","","Mainly Clear"
"-98.27","49.90","PORTAGE SOUTHPORT A","5012320","2020-06-23 18:00","2020","06","23","18:00","23.6","","12.0","","48","","","","7","","9","","24.1","","98.09","","26","","","","Mainly Clear"
"-98.27","49.90","PORTAGE SOUTHPORT A","5012320","2020-06-23 19:00","2020","06","23","19:00","23.2","","9.8","","43","","","","7","","8","","24.1","","98.07","","","","","","Mainly Clear"
"-98.27","49.90","PORTAGE SOUTHPORT A","5012320","2020-06-23 20:00","2020","06","23","20:00"
"-98.27","49.90","PORTAGE SOUTHPORT A","5012320","2020-06-23 21:00","2020","06","23","21:00"
"-98.27","49.90","PORTAGE SOUTHPORT A","5012320","2020-06-23 22:00","2020","06","23","22:00"
"-98.27","49.90","PORTAGE SOUTHPORT A","5012320","2020-06-23 23:00","2020","06","23","23:00"
"-98.27","49.90","PORTAGE SOUTHPORT A","5012320","2020-06-24 00:00","2020","06","24","00:00"
"-98.27","49.90","PORTAGE SOUTHPORT A","5012320","2020-06-24 01:00","2020","06","24","01:00"
"-98.27","49.90","PORTAGE SOUTHPORT A","5012320","2020-06-24 02:00","2020","06","24","02:00"
"-98.27","49.90","PORTAGE SOUTHPORT A","5012320","2020-06-24 03:00","2020","06","24","03:00"
"-98.27","49.90","PORTAGE SOUTHPORT A","5012320","2020-06-24 04:00","2020","06","24","04:00"
"-98.27","49.90","PORTAGE SOUTHPORT A","5012320","2020-06-24 05:00","2020","06","24","05:00","12.8","","11.3","","91","","","","","","0","","24.1","","98.09","","","","","","Clear"
"-98.27","49.90","PORTAGE SOUTHPORT A","5012320","2020-06-24 06:00","2020","06","24","06:00","14.1","","12.0","","87","","","","6","","8","","24.1","","98.12","","","","","","Clear"
"-98.27","49.90","PORTAGE SOUTHPORT A","5012320","2020-06-24 07:00","2020","06","24","07:00","16.7","","12.8","","78","","","","","","0","","24.1","","98.11","","","","","","Clear"
"-98.27","49.90","PORTAGE SOUTHPORT A","5012320","2020-06-24 08:00","2020","06","24","08:00","19.8","","14.4","","71","","","","10","","5","","24.1","","98.10","","","","","","Clear"
"-98.27","49.90","PORTAGE SOUTHPORT A","5012320","2020-06-24 09:00","2020","06","24","09:00","22.1","","13.8","","59","","","","36","","4","","19.3","","98.10","","25","","","","Clear"
"-98.27","49.90","PORTAGE SOUTHPORT A","5012320","2020-06-24 10:00","2020","06","24","10:00","23.2","","12.1","","50","","","","17","","9","","19.3","","98.09","","26","","","","Clear"
"-98.27","49.90","PORTAGE SOUTHPORT A","5012320","2020-06-24 11:00","2020","06","24","11:00","24.3","","12.4","","47","","","","14","","9","","19.3","","98.05","","27","","","","Mainly Clear"
"-98.27","49.90","PORTAGE SOUTHPORT A","5012320","2020-06-24 12:00","2020","06","24","12:00","25.0","","9.7","","38","","","","35","","4","","19.3","","98.04","","26","","","","Mainly Clear"
"-98.27","49.90","PORTAGE SOUTHPORT A","5012320","2020-06-24 13:00","2020","06","24","13:00","25.6","","10.7","","39","","","","10","","8","","19.3","","97.98","","27","","","","Mainly Clear"
"-98.27","49.90","PORTAGE SOUTHPORT A","5012320","2020-06-24 14:00","2020","06","24","14:00","26.0","","11.4","","40","","","","16","","8","","19.3","","97.94","","28","","","","Mainly Clear"
"-98.27","49.90","PORTAGE SOUTHPORT A","5012320","2020-06-24 15:00","2020","06","24","15:00","26.8","","11.5","","39","","","","11","","11","","19.3","","97.91","","29","","","","Mainly Clear"
"-98.27","49.90","PORTAGE SOUTHPORT A","5012320","2020-06-24 16:00","2020","06","24","16:00","26.5","","10.2","","36","","","","15","","13","","19.3","","97.85","","28","","","","Mainly Clear"
"-98.27","49.90","PORTAGE SOUTHPORT A","5012320","2020-06-24 17:00","2020","06","24","17:00"
"-98.27","49.90","PORTAGE SOUTHPORT A","5012320","2020-06-24 18:00","2020","06","24","18:00"
"-98.27","49.90","PORTAGE SOUTHPORT A","5012320","2020-06-24 19:00","2020","06","24","19:00"
"-98.27","49.90","PORTAGE SOUTHPORT A","5012320","2020-06-24 20:00","2020","06","24","20:00"
"-98.27","49.90","PORTAGE SOUTHPORT A","5012320","2020-06-24 21:00","2020","06","24","21:00"
"-98.27","49.90","PORTAGE SOUTHPORT A","5012320","2020-06-24 22:00","2020","06","24","22:00"
"-98.27","49.90","PORTAGE SOUTHPORT A","5012320","2020-06-24 23:00","2020","06","24","23:00"
"-98.27","49.90","PORTAGE SOUTHPORT A","5012320","2020-06-25 00:00","2020","06","25","00:00"
"-98.27","49.90","PORTAGE SOUTHPORT A","5012320","2020-06-25 01:00","2020","06","25","01:00"
"-98.27","49.90","PORTAGE SOUTHPORT A","5012320","2020-06-25 02:00","2020","06","25","02:00"
"-98.27","49.90","PORTAGE SOUTHPORT A","5012320","2020-06-25 03:00","2020","06","25","03:00"
"-98.27","49.90","PORTAGE SOUTHPORT A","5012320","2020-06-25 04:00","2020","06","25","04:00"
"-98.27","49.90","PORTAGE SOUTHPORT A","5012320","2020-06-25 05:00","2020","06","25","05:00","18.8","","11.3","","62","","","","15","","15","","24.1","","97.58","","","","","","Mostly Cloudy"
"-98.27","49.90","PORTAGE SOUTHPORT A","5012320","2020-06-25 06:00","2020","06","25","06:00","20.0","","11.4","","58","","","","16","","18","","24.1","","97.59","","","","","","Mostly Cloudy"
"-98.27","49.90","PORTAGE SOUTHPORT A","5012320","2020-06-25 07:00","2020","06","25","07:00","21.0","","12.0","","56","","","","15","","18","","24.1","","97.56","","","","","","Cloudy"
"-98.27","49.90","PORTAGE SOUTHPORT A","5012320","2020-06-25 08:00","2020","06","25","08:00","22.4","","12.3","","53","","","","16","","28","","24.1","","97.49","","25","","","","Cloudy"
"-98.27","49.90","PORTAGE SOUTHPORT A","5012320","2020-06-25 09:00","2020","06","25","09:00","22.3","","13.0","","56","","","","17","","18","","24.1","","97.52","","25","","","","Cloudy"
"-98.27","49.90","PORTAGE SOUTHPORT A","5012320","2020-06-25 10:00","2020","06","25","10:00","24.3","","14.6","","55","","","","17","","26","","24.1","","97.48","","28","","","","Mainly Clear"
"-98.27","49.90","PORTAGE SOUTHPORT A","5012320","2020-06-25 11:00","2020","06","25","11:00","25.0","","16.0","","57","","","","18","","17","","24.1","","97.47","","30","","","","Mostly Cloudy"
"-98.27","49.90","PORTAGE SOUTHPORT A","5012320","2020-06-25 12:00","2020","06","25","12:00","26.3","","17.8","","60","","","","19","","21","","24.1","","97.43","","32","","","","Mostly Cloudy"
"-98.27","49.90","PORTAGE SOUTHPORT A","5012320","2020-06-25 13:00","2020","06","25","13:00","27.0","","18.0","","58","","","","23","","21","","24.1","","97.40","","33","","","","Mostly Cloudy"
"-98.27","49.90","PORTAGE SOUTHPORT A","5012320","2020-06-25 14:00","2020","06","25","14:00","26.2","","17.5","","59","","","","23","","22","","24.1","","97.42","","32","","","","Cloudy"
"-98.27","49.90","PORTAGE SOUTHPORT A","5012320","2020-06-25 15:00","2020","06","25","15:00","24.6","","18.3","","68","","","","23","","24","","24.1","","97.42","","31","","","","Rain Showers"
"-98.27","49.90","PORTAGE SOUTHPORT A","5012320","2020-06-25 16:00","2020","06","25","16:00","23.4","","18.6","","74","","","","21","","18","","24.1","","97.40","","30","","","","Rain Showers"
"-98.27","49.90","PORTAGE SOUTHPORT A","5012320","2020-06-25 17:00","2020","06","25","17:00"
"-98.27","49.90","PORTAGE SOUTHPORT A","5012320","2020-06-25 18:00","2020","06","25","18:00"
"-98.27","49.90","PORTAGE SOUTHPORT A","5012320","2020-06-25 19:00","2020","06","25","19:00"
"-98.27","49.90","PORTAGE SOUTHPORT A","5012320","2020-06-25 20:00","2020","06","25","20:00"
"-98.27","49.90","PORTAGE SOUTHPORT A","5012320","2020-06-25 21:00","2020","06","25","21:00"
"-98.27","49.90","PORTAGE SOUTHPORT A","5012320","2020-06-25 22:00","2020","06","25","22:00"
"-98.27","49.90","PORTAGE SOUTHPORT A","5012320","2020-06-25 23:00","2020","06","25","23:00"
"-98.27","49.90","PORTAGE SOUTHPORT A","5012320","2020-06-26 00:00","2020","06","26","00:00"
"-98.27","49.90","PORTAGE SOUTHPORT A","5012320","2020-06-26 01:00","2020","06","26","01:00"
"-98.27","49.90","PORTAGE SOUTHPORT A","5012320","2020-06-26 02:00","2020","06","26","02:00"
"-98.27","49.90","PORTAGE SOUTHPORT A","5012320","2020-06-26 03:00","2020","06","26","03:00"
"-98.27","49.90","PORTAGE SOUTHPORT A","5012320","2020-06-26 04:00","2020","06","26","04:00"
"-98.27","49.90","PORTAGE SOUTHPORT A","5012320","2020-06-26 05:00","2020","06","26","05:00","16.3","","14.7","","90","","","","28","","17","","24.1","","97.76","","","","","","Clear"
"-98.27","49.90","PORTAGE SOUTHPORT A","5012320","2020-06-26 06:00","2020","06","26","06:00","17.2","","14.5","","84","","","","29","","17","","24.1","","97.79","","","","","","Clear"
"-98.27","49.90","PORTAGE SOUTHPORT A","5012320","2020-06-26 07:00","2020","06","26","07:00","18.5","","14.9","","80","","","","30","","17","","24.1","","97.86","","","","","","Clear"
"-98.27","49.90","PORTAGE SOUTHPORT A","5012320","2020-06-26 08:00","2020","06","26","08:00","20.5","","15.5","","73","","","","31","","13","","24.1","","97.87","","25","","","","Clear"
"-98.27","49.90","PORTAGE SOUTHPORT A","5012320","2020-06-26 09:00","2020","06","26","09:00","22.6","","16.1","","67","","","","29","","17","","24.1","","97.87","","27","","","","Clear"
"-98.27","49.90","PORTAGE SOUTHPORT A","5012320","2020-06-26 10:00","2020","06","26","10:00","23.9","","16.0","","61","","","","29","","18","","24.1","","97.83","","29","","","","Mainly Clear"
"-98.27","49.90","PORTAGE SOUTHPORT A","5012320","2020-06-26 11:00","2020","06","26","11:00","25.4","","14.3","","50","","","","29","","22","","24.1","","97.84","","29","","","","Mainly Clear"
"-98.27","49.90","PORTAGE SOUTHPORT A","5012320","2020-06-26 12:00","2020","06","26","12:00","26.8","","13.0","","43","","","","30","","18","","24.1","","97.84","","30","","","","Mainly Clear"
"-98.27","49.90","PORTAGE SOUTHPORT A","5012320","2020-06-26 13:00","2020","06","26","13:00","27.3","","12.5","","40","","","","27","","13","","24.1","","97.81","","30","","","","Mainly Clear"
"-98.27","49.90","PORTAGE SOUTHPORT A","5012320","2020-06-26 14:00","2020","06","26","14:00","29.1","","12.1","","35","","","","27","","15","","24.1","","97.78","","31","","","","Mainly Clear"
"-98.27","49.90","PORTAGE SOUTHPORT A","5012320","2020-06-26 15:00","2020","06","26","15:00","28.6","","11.3","","34","","","","23","","5","","24.1","","97.76","","31","","","","Mainly Clear"
"-98.27","49.90","PORTAGE SOUTHPORT A","5012320","2020-06-26 16:00","2020","06","26","16:00","29.0","","12.4","","36","","","","23","","15","","24.1","","97.73","","31","","","","Mainly Clear"
"-98.27","49.90","PORTAGE SOUTHPORT A","5012320","2020-06-26 17:00","2020","06","26","17:00"
"-98.27","49.90","PORTAGE SOUTHPORT A","5012320","2020-06-26 18:00","2020","06","26","18:00"
"-98.27","49.90","PORTAGE SOUTHPORT A","5012320","2020-06-26 19:00","2020","06","26","19:00"
"-98.27","49.90","PORTAGE SOUTHPORT A","5012320","2020-06-26 20:00","2020","06","26","20:00"
"-98.27","49.90","PORTAGE SOUTHPORT A","5012320","2020-06-26 21:00","2020","06","26","21:00"
"-98.27","49.90","PORTAGE SOUTHPORT A","5012320","2020-06-26 22:00","2020","06","26","22:00"
"-98.27","49.90","PORTAGE SOUTHPORT A","5012320","2020-06-26 23:00","2020","06","26","23:00"
"-98.27","49.90","PORTAGE SOUTHPORT A","5012320","2020-06-27 00:00","2020","06","27","00:00"
"-98.27","49.90","PORTAGE SOUTHPORT A","5012320","2020-06-27 01:00","2020","06","27","01:00"
"-98.27","49.90","PORTAGE SOUTHPORT A","5012320","2020-06-27 02:00","2020","06","27","02:00"
"-98.27","49.90","PORTAGE SOUTHPORT A","5012320","2020-06-27 03:00","2020","06","27","03:00"
"-98.27","49.90","PORTAGE SOUTHPORT A","5012320","2020-06-27 04:00","2020","06","27","04:00"
"-98.27","49.90","PORTAGE SOUTHPORT A","5012320","2020-06-27 05:00","2020","06","27","05:00"
"-98.27","49.90","PORTAGE SOUTHPORT A","5012320","2020-06-27 06:00","2020","06","27","06:00"
"-98.27","49.90","PORTAGE SOUTHPORT A","5012320","2020-06-27 07:00","2020","06","27","07:00"
"-98.27","49.90","PORTAGE SOUTHPORT A","5012320","2020-06-27 08:00","2020","06","27","08:00"
"-98.27","49.90","PORTAGE SOUTHPORT A","5012320","2020-06-27 09:00","2020","06","27","09:00"
"-98.27","49.90","PORTAGE SOUTHPORT A","5012320","2020-06-27 10:00","2020","06","27","10:00"
"-98.27","49.90","PORTAGE SOUTHPORT A","5012320","2020-06-27 11:00","2020","06","27","11:00"
"-98.27","49.90","PORTAGE SOUTHPORT A","5012320","2020-06-27 12:00","2020","06","27","12:00"
"-98.27","49.90","PORTAGE SOUTHPORT A","5012320","2020-06-27 13:00","2020","06","27","13:00"
"-98.27","49.90","PORTAGE SOUTHPORT A","5012320","2020-06-27 14:00","2020","06","27","14:00"
"-98.27","49.90","PORTAGE SOUTHPORT A","5012320","2020-06-27 15:00","2020","06","27","15:00"
"-98.27","49.90","PORTAGE SOUTHPORT A","5012320","2020-06-27 16:00","2020","06","27","16:00"
"-98.27","49.90","PORTAGE SOUTHPORT A","5012320","2020-06-27 17:00","2020","06","27","17:00"
"-98.27","49.90","PORTAGE SOUTHPORT A","5012320","2020-06-27 18:00","2020","06","27","18:00"
"-98.27","49.90","PORTAGE SOUTHPORT A","5012320","2020-06-27 19:00","2020","06","27","19:00"
"-98.27","49.90","PORTAGE SOUTHPORT A","5012320","2020-06-27 20:00","2020","06","27","20:00"
"-98.27","49.90","PORTAGE SOUTHPORT A","5012320","2020-06-27 21:00","2020","06","27","21:00"
"-98.27","49.90","PORTAGE SOUTHPORT A","5012320","2020-06-27 22:00","2020","06","27","22:00"
"-98.27","49.90","PORTAGE SOUTHPORT A","5012320","2020-06-27 23:00","2020","06","27","23:00"
"-98.27","49.90","PORTAGE SOUTHPORT A","5012320","2020-06-28 00:00","2020","06","28","00:00"
"-98.27","49.90","PORTAGE SOUTHPORT A","5012320","2020-06-28 01:00","2020","06","28","01:00"
"-98.27","49.90","PORTAGE SOUTHPORT A","5012320","2020-06-28 02:00","2020","06","28","02:00"
"-98.27","49.90","PORTAGE SOUTHPORT A","5012320","2020-06-28 03:00","2020","06","28","03:00"
"-98.27","49.90","PORTAGE SOUTHPORT A","5012320","2020-06-28 04:00","2020","06","28","04:00"
"-98.27","49.90","PORTAGE SOUTHPORT A","5012320","2020-06-28 05:00","2020","06","28","05:00"
"-98.27","49.90","PORTAGE SOUTHPORT A","5012320","2020-06-28 06:00","2020","06","28","06:00"
"-98.27","49.90","PORTAGE SOUTHPORT A","5012320","2020-06-28 07:00","2020","06","28","07:00"
"-98.27","49.90","PORTAGE SOUTHPORT A","5012320","2020-06-28 08:00","2020","06","28","08:00"
"-98.27","49.90","PORTAGE SOUTHPORT A","5012320","2020-06-28 09:00","2020","06","28","09:00"
"-98.27","49.90","PORTAGE SOUTHPORT A","5012320","2020-06-28 10:00","2020","06","28","10:00"
"-98.27","49.90","PORTAGE SOUTHPORT A","5012320","2020-06-28 11:00","2020","06","28","11:00"
"-98.27","49.90","PORTAGE SOUTHPORT A","5012320","2020-06-28 12:00","2020","06","28","12:00"
"-98.27","49.90","PORTAGE SOUTHPORT A","5012320","2020-06-28 13:00","2020","06","28","13:00"
"-98.27","49.90","PORTAGE SOUTHPORT A","5012320","2020-06-28 14:00","2020","06","28","14:00"
"-98.27","49.90","PORTAGE SOUTHPORT A","5012320","2020-06-28 15:00","2020","06","28","15:00"
"-98.27","49.90","PORTAGE SOUTHPORT A","5012320","2020-06-28 16:00","2020","06","28","16:00"
"-98.27","49.90","PORTAGE SOUTHPORT A","5012320","2020-06-28 17:00","2020","06","28","17:00"
"-98.27","49.90","PORTAGE SOUTHPORT A","5012320","2020-06-28 18:00","2020","06","28","18:00"
"-98.27","49.90","PORTAGE SOUTHPORT A","5012320","2020-06-28 19:00","2020","06","28","19:00"
"-98.27","49.90","PORTAGE SOUTHPORT A","5012320","2020-06-28 20:00","2020","06","28","20:00"
"-98.27","49.90","PORTAGE SOUTHPORT A","5012320","2020-06-28 21:00","2020","06","28","21:00"
"-98.27","49.90","PORTAGE SOUTHPORT A","5012320","2020-06-28 22:00","2020","06","28","22:00"
"-98.27","49.90","PORTAGE SOUTHPORT A","5012320","2020-06-28 23:00","2020","06","28","23:00"
"-98.27","49.90","PORTAGE SOUTHPORT A","5012320","2020-06-29 00:00","2020","06","29","00:00"
"-98.27","49.90","PORTAGE SOUTHPORT A","5012320","2020-06-29 01:00","2020","06","29","01:00"
"-98.27","49.90","PORTAGE SOUTHPORT A","5012320","2020-06-29 02:00","2020","06","29","02:00"
"-98.27","49.90","PORTAGE SOUTHPORT A","5012320","2020-06-29 03:00","2020","06","29","03:00"
"-98.27","49.90","PORTAGE SOUTHPORT A","5012320","2020-06-29 04:00","2020","06","29","04:00"
"-98.27","49.90","PORTAGE SOUTHPORT A","5012320","2020-06-29 05:00","2020","06","29","05:00","20.6","","16.5","","77","","","","12","","13","","24.1","","97.11","","26","","","","Mostly Cloudy"
"-98.27","49.90","PORTAGE SOUTHPORT A","5012320","2020-06-29 06:00","2020","06","29","06:00","21.7","","17.4","","77","","","","10","","21","","19.3","","97.09","","27","","","","Mostly Cloudy"
"-98.27","49.90","PORTAGE SOUTHPORT A","5012320","2020-06-29 07:00","2020","06","29","07:00","21.8","","18.0","","79","","","","12","","26","","19.3","","97.15","","28","","","","Mostly Cloudy"
"-98.27","49.90","PORTAGE SOUTHPORT A","5012320","2020-06-29 08:00","2020","06","29","08:00","23.0","","19.0","","78","","","","13","","22","","19.3","","97.19","","30","","","","Mostly Cloudy"
"-98.27","49.90","PORTAGE SOUTHPORT A","5012320","2020-06-29 09:00","2020","06","29","09:00","25.1","","19.7","","72","","","","13","","21","","19.3","","97.12","","32","","","","Mostly Cloudy"
"-98.27","49.90","PORTAGE SOUTHPORT A","5012320","2020-06-29 10:00","2020","06","29","10:00","26.3","","19.5","","66","","","","12","","18","","19.3","","97.18","","33","","","","Mostly Cloudy"
"-98.27","49.90","PORTAGE SOUTHPORT A","5012320","2020-06-29 11:00","2020","06","29","11:00","27.4","","20.7","","67","","","","10","","18","","16.1","","97.21","","36","","","","Mostly Cloudy"
"-98.27","49.90","PORTAGE SOUTHPORT A","5012320","2020-06-29 12:00","2020","06","29","12:00","29.1","","20.3","","59","","","","11","","18","","19.3","","97.25","","37","","","","Mostly Cloudy"
"-98.27","49.90","PORTAGE SOUTHPORT A","5012320","2020-06-29 13:00","2020","06","29","13:00","30.1","","19.3","","52","","","","12","","21","","24.1","","97.28","","37","","","","Mostly Cloudy"
"-98.27","49.90","PORTAGE SOUTHPORT A","5012320","2020-06-29 14:00","2020","06","29","14:00","30.8","","20.9","","56","","","","13","","18","","24.1","","97.28","","39","","","","Mostly Cloudy"
"-98.27","49.90","PORTAGE SOUTHPORT A","5012320","2020-06-29 15:00","2020","06","29","15:00","31.8","","19.8","","49","","","","14","","22","","24.1","","97.30","","39","","","","Mainly Clear"
"-98.27","49.90","PORTAGE SOUTHPORT A","5012320","2020-06-29 16:00","2020","06","29","16:00","30.7","","20.9","","56","","","","12","","22","","24.1","","97.30","","39","","","","Mainly Clear"
"-98.27","49.90","PORTAGE SOUTHPORT A","5012320","2020-06-29 17:00","2020","06","29","17:00"
"-98.27","49.90","PORTAGE SOUTHPORT A","5012320","2020-06-29 18:00","2020","06","29","18:00"
"-98.27","49.90","PORTAGE SOUTHPORT A","5012320","2020-06-29 19:00","2020","06","29","19:00"
"-98.27","49.90","PORTAGE SOUTHPORT A","5012320","2020-06-29 20:00","2020","06","29","20:00"
"-98.27","49.90","PORTAGE SOUTHPORT A","5012320","2020-06-29 21:00","2020","06","29","21:00"
"-98.27","49.90","PORTAGE SOUTHPORT A","5012320","2020-06-29 22:00","2020","06","29","22:00"
"-98.27","49.90","PORTAGE SOUTHPORT A","5012320","2020-06-29 23:00","2020","06","29","23:00"
"-98.27","49.90","PORTAGE SOUTHPORT A","5012320","2020-06-30 00:00","2020","06","30","00:00"
"-98.27","49.90","PORTAGE SOUTHPORT A","5012320","2020-06-30 01:00","2020","06","30","01:00"
"-98.27","49.90","PORTAGE SOUTHPORT A","5012320","2020-06-30 02:00","2020","06","30","02:00"
"-98.27","49.90","PORTAGE SOUTHPORT A","5012320","2020-06-30 03:00","2020","06","30","03:00"
"-98.27","49.90","PORTAGE SOUTHPORT A","5012320","2020-06-30 04:00","2020","06","30","04:00"
"-98.27","49.90","PORTAGE SOUTHPORT A","5012320","2020-06-30 05:00","2020","06","30","05:00","18.4","","17.7","","96","","","","9","","9","","19.3","","97.53","","","","","","Mostly Cloudy"
"-98.27","49.90","PORTAGE SOUTHPORT A","5012320","2020-06-30 06:00","2020","06","30","06:00","20.9","","19.2","","90","","","","10","","11","","19.3","","97.47","","28","","","","Mostly Cloudy"
"-98.27","49.90","PORTAGE SOUTHPORT A","5012320","2020-06-30 07:00","2020","06","30","07:00","21.6","","19.5","","88","","","","11","","15","","19.3","","97.48","","29","","","","Mostly Cloudy"
"-98.27","49.90","PORTAGE SOUTHPORT A","5012320","2020-06-30 08:00","2020","06","30","08:00","23.5","","20.8","","85","","","","11","","18","","19.3","","97.46","","32","","","","Mostly Cloudy"
"-98.27","49.90","PORTAGE SOUTHPORT A","5012320","2020-06-30 09:00","2020","06","30","09:00","24.8","","21.6","","82","","","","12","","18","","19.3","","97.58","","34","","","","Mostly Cloudy"
"-98.27","49.90","PORTAGE SOUTHPORT A","5012320","2020-06-30 10:00","2020","06","30","10:00","27.4","","21.8","","72","","","","11","","9","","19.3","","97.65","","37","","","","Mostly Cloudy"
"-98.27","49.90","PORTAGE SOUTHPORT A","5012320","2020-06-30 11:00","2020","06","30","11:00","28.8","","22.7","","70","","","","11","","11","","19.3","","97.63","","39","","","","Mostly Cloudy"
"-98.27","49.90","PORTAGE SOUTHPORT A","5012320","2020-06-30 12:00","2020","06","30","12:00","28.9","","22.2","","67","","","","14","","17","","19.3","","97.56","","38","","","","Mostly Cloudy"
"-98.27","49.90","PORTAGE SOUTHPORT A","5012320","2020-06-30 13:00","2020","06","30","13:00","30.0","","20.5","","57","","","","16","","18","","24.1","","97.64","","38","","","","Mostly Cloudy"
"-98.27","49.90","PORTAGE SOUTHPORT A","5012320","2020-06-30 14:00","2020","06","30","14:00","29.6","","21.7","","63","","","","19","","15","","24.1","","97.63","","39","","","","Mostly Cloudy"
"-98.27","49.90","PORTAGE SOUTHPORT A","5012320","2020-06-30 15:00","2020","06","30","15:00","30.6","","21.9","","60","","","","10","","11","","24.1","","97.46","","40","","","","Mainly Clear"
"-98.27","49.90","PORTAGE SOUTHPORT A","5012320","2020-06-30 16:00","2020","06","30","16:00","31.0","","22.1","","59","","","","9","","22","","24.1","","97.25","","40","","","","Mainly Clear"
"-98.27","49.90","PORTAGE SOUTHPORT A","5012320","2020-06-30 17:00","2020","06","30","17:00"
"-98.27","49.90","PORTAGE SOUTHPORT A","5012320","2020-06-30 18:00","2020","06","30","18:00"
"-98.27","49.90","PORTAGE SOUTHPORT A","5012320","2020-06-30 19:00","2020","06","30","19:00"
"-98.27","49.90","PORTAGE SOUTHPORT A","5012320","2020-06-30 20:00","2020","06","30","20:00"
"-98.27","49.90","PORTAGE SOUTHPORT A","5012320","2020-06-30 21:00","2020","06","30","21:00"
"-98.27","49.90","PORTAGE SOUTHPORT A","5012320","2020-06-30 22:00","2020","06","30","22:00"
"-98.27","49.90","PORTAGE SOUTHPORT A","5012320","2020-06-30 23:00","2020","06","30","23:00"
