"Longitude (x)","Latitude (y)","Station Name","Climate ID","Date/Time (LST)","Year","Month","Day","Time (LST)","Temp (°C)","Temp Flag","Dew Point Temp (°C)","Dew Point Temp Flag","Rel Hum (%)","Rel Hum Flag","Precip. Amount (mm)","Precip. Amount Flag","Wind Dir (10s deg)","Wind Dir Flag","Wind Spd (km/h)","Wind Spd Flag","Visibility (km)","Visibility Flag","Stn Press (kPa)","Stn Press Flag","Hmdx","Hmdx Flag","Wind Chill","Wind Chill Flag","Weather"
"-68.42","58.09","KUUJJUAQ A","7113535","2018-09-01 00:00","2018","09","01","00:00","15.3","","9.2","","67","","","","21","","25","","24.1","","100.15","","","","","","Rain Showers"
"-68.42","58.09","KUUJJUAQ A","7113535","2018-09-01 01:00","2018","09","01","01:00","14.7","","9.4","","70","","","","22","","18","","24.1","","100.15","","","","","","Rain Showers"
"-68.42","58.09","KUUJJUAQ A","7113535","2018-09-01 02:00","2018","09","01","02:00","12.5","","11.5","","93","","","","20","","23","","24.1","","100.10","","","","","","Moderate Rain Showers"
"-68.42","58.09","KUUJJUAQ A","7113535","2018-09-01 03:00","2018","09","01","03:00","12.8","","11.7","","93","","","","21","","22","","19.3","","100.04","","","","","","Rain Showers"
"-68.42","58.09","KUUJJUAQ A","7113535","2018-09-01 04:00","2018","09","01","04:00","12.6","","11.6","","94","","","","21","","24","","19.3","","99.96","","","","","","Rain"
"-68.42","58.09","KUUJJUAQ A","7113535","2018-09-01 05:00","2018","09","01","05:00","12.6","","11.6","","94","","","","21","","22","","16.1","","99.92","","","","","","Rain"
"-68.42","58.09","KUUJJUAQ A","7113535","2018-09-01 06:00","2018","09","01","06:00","12.7","","11.8","","94","","","","21","","23","","19.3","","99.86","","","","","","Rain"
"-68.42","58.09","KUUJJUAQ A","7113535","2018-09-01 07:00","2018","09","01","07:00","12.8","","11.9","","95","","","","21","","18","","24.1","","99.80","","","","","","Rain"
"-68.42","58.09","KUUJJUAQ A","7113535","2018-09-01 08:00","2018","09","01","08:00","13.4","","12.3","","93","","","","21","","22","","24.1","","99.76","","","","","","Rain"
"-68.42","58.09","KUUJJUAQ A","7113535","2018-09-01 09:00","2018","09","01","09:00","14.3","","12.7","","90","","","","21","","24","","24.1","","99.71","","","","","","NA"
"-68.42","58.09","KUUJJUAQ A","7113535","2018-09-01 10:00","2018","09","01","10:00","15.1","","13.0","","88","","","","22","","21","","24.1","","99.66","","","","","","Cloudy"
"-68.42","58.09","KUUJJUAQ A","7113535","2018-09-01 11:00","2018","09","01","11:00","16.1","","13.4","","84","","","","22","","22","","24.1","","99.57","","","","","","NA"
"-68.42","58.09","KUUJJUAQ A","7113535","2018-09-01 12:00","2018","09","01","12:00","16.6","","13.6","","82","","","","22","","18","","24.1","","99.56","","","","","","NA"
"-68.42","58.09","KUUJJUAQ A","7113535","2018-09-01 13:00","2018","09","01","13:00","16.1","","13.4","","84","","","","22","","24","","24.1","","99.50","","","","","","Rain"
"-68.42","58.09","KUUJJUAQ A","7113535","2018-09-01 14:00","2018","09","01","14:00","15.3","","13.8","","91","","","","22","","22","","19.3","","99.46","","","","","","Rain"
"-68.42","58.09","KUUJJUAQ A","7113535","2018-09-01 15:00","2018","09","01","15:00","14.8","","13.9","","94","","","","20","","19","","24.1","","99.44","","","","","","Rain"
"-68.42","58.09","KUUJJUAQ A","7113535","2018-09-01 16:00","2018","09","01","16:00","14.8","","14.0","","95","","","","22","","16","","24.1","","99.42","","","","","","Rain"
"-68.42","58.09","KUUJJUAQ A","7113535","2018-09-01 17:00","2018","09","01","17:00","14.7","","13.8","","94","","","","21","","16","","24.1","","99.36","","","","","","NA"
"-68.42","58.09","KUUJJUAQ A","7113535","2018-09-01 18:00","2018","09","01","18:00","14.7","","13.6","","93","","","","22","","16","","24.1","","99.30","","","","","","NA"
"-68.42","58.09","KUUJJUAQ A","7113535","2018-09-01 19:00","2018","09","01","19:00","14.7","","13.5","","92","","","","22","","14","","24.1","","99.31","","","","","","Mostly Cloudy"
"-68.42","58.09","KUUJJUAQ A","7113535","2018-09-01 20:00","2018","09","01","20:00","14.6","","13.3","","92","","","","24","","16","","24.1","","99.32","","","","","","NA"
"-68.42","58.09","KUUJJUAQ A","7113535","2018-09-01 21:00","2018","09","01","21:00","14.4","","13.4","","93","","","","24","","14","","24.1","","99.32","","","","","","Rain"
"-68.42","58.09","KUUJJUAQ A","7113535","2018-09-01 22:00","2018","09","01","22:00","14.2","","12.0","","86","","","","26","","19","","24.1","","99.35","","","","","","Rain"
"-68.42","58.09","KUUJJUAQ A","7113535","2018-09-01 23:00","2018","09","01","23:00","10.8","","7.5","","80","","","","28","","24","","24.1","","99.51","","","","","","NA"
"-68.42","58.09","KUUJJUAQ A","7113535","2018-09-02 00:00","2018","09","02","00:00","9.2","","6.0","","81","","","","27","","20","","24.1","","99.65","","","","","","NA"
"-68.42","58.09","KUUJJUAQ A","7113535","2018-09-02 01:00","2018","09","02","01:00","8.4","","6.3","","86","","","","26","","21","","24.1","","99.76","","","","","","Drizzle"
"-68.42","58.09","KUUJJUAQ A","7113535","2018-09-02 02:00","2018","09","02","02:00","8.0","","5.3","","83","","","","28","","18","","24.1","","99.87","","","","","","NA"
"-68.42","58.09","KUUJJUAQ A","7113535","2018-09-02 03:00","2018","09","02","03:00","7.5","","4.8","","83","","","","28","","18","","24.1","","100.00","","","","","","NA"
"-68.42","58.09","KUUJJUAQ A","7113535","2018-09-02 04:00","2018","09","02","04:00","7.2","","3.2","","76","","","","28","","17","","24.1","","100.16","","","","","","Mostly Cloudy"
"-68.42","58.09","KUUJJUAQ A","7113535","2018-09-02 05:00","2018","09","02","05:00","6.1","","3.6","","84","","","","30","","17","","24.1","","100.30","","","","","","Rain Showers"
"-68.42","58.09","KUUJJUAQ A","7113535","2018-09-02 06:00","2018","09","02","06:00","6.6","","2.8","","77","","","","27","","17","","24.1","","100.45","","","","","","NA"
"-68.42","58.09","KUUJJUAQ A","7113535","2018-09-02 07:00","2018","09","02","07:00","7.2","","2.0","","69","","","","29","","23","","24.1","","100.56","","","","","","Cloudy"
"-68.42","58.09","KUUJJUAQ A","7113535","2018-09-02 08:00","2018","09","02","08:00","7.5","","2.1","","69","","","","30","","13","","24.1","","100.65","","","","","","NA"
"-68.42","58.09","KUUJJUAQ A","7113535","2018-09-02 09:00","2018","09","02","09:00","7.8","","2.5","","69","","","","29","","15","","24.1","","100.74","","","","","","NA"
"-68.42","58.09","KUUJJUAQ A","7113535","2018-09-02 10:00","2018","09","02","10:00","8.8","","3.0","","67","","","","27","","22","","24.1","","100.80","","","","","","Mostly Cloudy"
"-68.42","58.09","KUUJJUAQ A","7113535","2018-09-02 11:00","2018","09","02","11:00","9.3","","2.9","","64","","","","27","","21","","24.1","","100.83","","","","","","NA"
"-68.42","58.09","KUUJJUAQ A","7113535","2018-09-02 12:00","2018","09","02","12:00","10.6","","2.9","","59","","","","29","","24","","24.1","","100.89","","","","","","NA"
"-68.42","58.09","KUUJJUAQ A","7113535","2018-09-02 13:00","2018","09","02","13:00","10.5","","3.0","","60","","","","27","","17","","24.1","","100.93","","","","","","Mostly Cloudy"
"-68.42","58.09","KUUJJUAQ A","7113535","2018-09-02 14:00","2018","09","02","14:00","11.8","","3.6","","57","","","","29","","15","","24.1","","100.95","","","","","","NA"
"-68.42","58.09","KUUJJUAQ A","7113535","2018-09-02 15:00","2018","09","02","15:00","11.8","","2.9","","54","","","","30","","18","","24.1","","100.97","","","","","","NA"
"-68.42","58.09","KUUJJUAQ A","7113535","2018-09-02 16:00","2018","09","02","16:00","11.4","","3.2","","57","","","","28","","13","","24.1","","101.04","","","","","","Mostly Cloudy"
"-68.42","58.09","KUUJJUAQ A","7113535","2018-09-02 17:00","2018","09","02","17:00","9.5","","3.4","","65","","","","30","","10","","24.1","","101.08","","","","","","NA"
"-68.42","58.09","KUUJJUAQ A","7113535","2018-09-02 18:00","2018","09","02","18:00","8.5","","3.0","","69","","","","32","","10","","24.1","","101.11","","","","","","NA"
"-68.42","58.09","KUUJJUAQ A","7113535","2018-09-02 19:00","2018","09","02","19:00","6.5","","3.1","","79","","","","33","","7","","24.1","","101.13","","","","","","Mainly Clear"
"-68.42","58.09","KUUJJUAQ A","7113535","2018-09-02 20:00","2018","09","02","20:00","4.9","","2.9","","87","","","","29","","4","","24.1","","101.20","","","","","","NA"
"-68.42","58.09","KUUJJUAQ A","7113535","2018-09-02 21:00","2018","09","02","21:00","3.8","","2.2","","90","","","","33","","7","","24.1","","101.15","","","","","","NA"
"-68.42","58.09","KUUJJUAQ A","7113535","2018-09-02 22:00","2018","09","02","22:00","1.8","","-0.1","","87","","","","33","","3","","24.1","","101.17","","","","","","Mainly Clear"
"-68.42","58.09","KUUJJUAQ A","7113535","2018-09-02 23:00","2018","09","02","23:00","1.9","","1.0","","94","","","","32","","7","","24.1","","101.17","","","","","","NA"
"-68.42","58.09","KUUJJUAQ A","7113535","2018-09-03 00:00","2018","09","03","00:00","2.6","","1.9","","95","","","","36","","2","","24.1","","101.13","","","","","","NA"
"-68.42","58.09","KUUJJUAQ A","7113535","2018-09-03 01:00","2018","09","03","01:00","2.5","","1.7","","95","","","","36","","5","","24.1","","101.08","","","","","","Mostly Cloudy"
"-68.42","58.09","KUUJJUAQ A","7113535","2018-09-03 02:00","2018","09","03","02:00","2.5","","1.9","","96","","","","5","","4","","24.1","","101.09","","","","","","NA"
"-68.42","58.09","KUUJJUAQ A","7113535","2018-09-03 03:00","2018","09","03","03:00","4.2","","3.4","","94","","","","11","","7","","24.1","","101.02","","","","","","NA"
"-68.42","58.09","KUUJJUAQ A","7113535","2018-09-03 04:00","2018","09","03","04:00","5.2","","3.4","","88","","","","8","","8","","24.1","","100.96","","","","","","Mostly Cloudy"
"-68.42","58.09","KUUJJUAQ A","7113535","2018-09-03 05:00","2018","09","03","05:00","5.0","","3.1","","88","","","","3","","7","","24.1","","100.92","","","","","","NA"
"-68.42","58.09","KUUJJUAQ A","7113535","2018-09-03 06:00","2018","09","03","06:00","5.2","","3.5","","89","","","","4","","10","","24.1","","100.82","","","","","","NA"
"-68.42","58.09","KUUJJUAQ A","7113535","2018-09-03 07:00","2018","09","03","07:00","6.2","","4.0","","86","","","","4","","8","","24.1","","100.77","","","","","","Cloudy"
"-68.42","58.09","KUUJJUAQ A","7113535","2018-09-03 08:00","2018","09","03","08:00","6.8","","4.4","","85","","","","5","","13","","24.1","","100.69","","","","","","NA"
"-68.42","58.09","KUUJJUAQ A","7113535","2018-09-03 09:00","2018","09","03","09:00","7.7","","5.1","","84","","","","6","","12","","24.1","","100.57","","","","","","NA"
"-68.42","58.09","KUUJJUAQ A","7113535","2018-09-03 10:00","2018","09","03","10:00","9.9","","5.3","","73","","","","8","","13","","24.1","","100.45","","","","","","Mostly Cloudy"
"-68.42","58.09","KUUJJUAQ A","7113535","2018-09-03 11:00","2018","09","03","11:00","11.3","","5.8","","69","","","","7","","16","","24.1","","100.35","","","","","","NA"
"-68.42","58.09","KUUJJUAQ A","7113535","2018-09-03 12:00","2018","09","03","12:00","11.3","","6.0","","70","","","","8","","19","","24.1","","100.25","","","","","","NA"
"-68.42","58.09","KUUJJUAQ A","7113535","2018-09-03 13:00","2018","09","03","13:00","11.3","","6.3","","71","","","","7","","14","","24.1","","100.20","","","","","","Cloudy"
"-68.42","58.09","KUUJJUAQ A","7113535","2018-09-03 14:00","2018","09","03","14:00","10.5","","6.0","","73","","","","4","","21","","24.1","","100.12","","","","","","NA"
"-68.42","58.09","KUUJJUAQ A","7113535","2018-09-03 15:00","2018","09","03","15:00","9.3","","6.8","","84","","","","4","","13","","19.3","","100.03","","","","","","Rain"
"-68.42","58.09","KUUJJUAQ A","7113535","2018-09-03 16:00","2018","09","03","16:00","7.7","","6.7","","93","","","","3","","15","","4.8","","99.99","","","","","","Rain,Fog"
"-68.42","58.09","KUUJJUAQ A","7113535","2018-09-03 17:00","2018","09","03","17:00","6.3","","5.5","","95","","","","1","","17","","12.9","","99.99","","","","","","Rain"
"-68.42","58.09","KUUJJUAQ A","7113535","2018-09-03 18:00","2018","09","03","18:00","5.1","","4.5","","96","","","","36","","15","","4.0","","99.90","","","","","","Rain,Fog"
"-68.42","58.09","KUUJJUAQ A","7113535","2018-09-03 19:00","2018","09","03","19:00","4.8","","4.4","","97","","","","35","","6","","3.2","","99.83","","","","","","Rain,Fog"
"-68.42","58.09","KUUJJUAQ A","7113535","2018-09-03 20:00","2018","09","03","20:00","4.6","","4.3","","98","","","","30","","10","","3.2","","99.84","","","","","","Rain,Drizzle,Fog"
"-68.42","58.09","KUUJJUAQ A","7113535","2018-09-03 21:00","2018","09","03","21:00","4.5","","4.3","","98","","","","31","","13","","4.0","","99.87","","","","","","Rain,Drizzle,Fog"
"-68.42","58.09","KUUJJUAQ A","7113535","2018-09-03 22:00","2018","09","03","22:00","4.7","","4.3","","97","","","","32","","21","","9.7","","99.86","","","","","","Drizzle"
"-68.42","58.09","KUUJJUAQ A","7113535","2018-09-03 23:00","2018","09","03","23:00","4.5","","4.0","","97","","","","32","","19","","12.9","","99.88","","","","","","Drizzle"
"-68.42","58.09","KUUJJUAQ A","7113535","2018-09-04 00:00","2018","09","04","00:00","4.3","","3.8","","96","","","","31","","26","","19.3","","99.94","","","","","","NA"
"-68.42","58.09","KUUJJUAQ A","7113535","2018-09-04 01:00","2018","09","04","01:00","3.9","","3.5","","97","","","","33","","18","","24.1","","99.97","","","","","","Drizzle"
"-68.42","58.09","KUUJJUAQ A","7113535","2018-09-04 02:00","2018","09","04","02:00","3.7","","3.1","","96","","","","32","","17","","24.1","","100.03","","","","","","Rain"
"-68.42","58.09","KUUJJUAQ A","7113535","2018-09-04 03:00","2018","09","04","03:00","3.2","","2.7","","96","","","","32","","21","","19.3","","100.11","","","","","","Rain"
"-68.42","58.09","KUUJJUAQ A","7113535","2018-09-04 04:00","2018","09","04","04:00","3.1","","2.3","","95","","","","31","","21","","19.3","","100.15","","","","","","Rain"
"-68.42","58.09","KUUJJUAQ A","7113535","2018-09-04 05:00","2018","09","04","05:00","3.2","","2.4","","95","","","","32","","15","","19.3","","100.26","","","","","","NA"
"-68.42","58.09","KUUJJUAQ A","7113535","2018-09-04 06:00","2018","09","04","06:00","3.3","","2.4","","94","","","","31","","21","","24.1","","100.34","","","","","","Rain"
"-68.42","58.09","KUUJJUAQ A","7113535","2018-09-04 07:00","2018","09","04","07:00","3.5","","2.5","","93","","","","33","","30","","12.9","","100.40","","","","","","Rain"
"-68.42","58.09","KUUJJUAQ A","7113535","2018-09-04 08:00","2018","09","04","08:00","3.7","","2.6","","93","","","","33","","32","","16.1","","100.49","","","","","","Rain"
"-68.42","58.09","KUUJJUAQ A","7113535","2018-09-04 09:00","2018","09","04","09:00","3.7","","2.9","","94","","","","34","","32","","4.8","","100.59","","","","","","Rain,Fog"
"-68.42","58.09","KUUJJUAQ A","7113535","2018-09-04 10:00","2018","09","04","10:00","3.9","","2.8","","93","","","","35","","36","","4.8","","100.71","","","","","","Rain,Fog"
"-68.42","58.09","KUUJJUAQ A","7113535","2018-09-04 11:00","2018","09","04","11:00","3.9","","3.1","","94","","","","1","","31","","4.0","","100.82","","","","","","Rain,Fog"
"-68.42","58.09","KUUJJUAQ A","7113535","2018-09-04 12:00","2018","09","04","12:00","4.2","","3.5","","95","","","","35","","28","","4.8","","101.00","","","","","","Rain,Fog"
"-68.42","58.09","KUUJJUAQ A","7113535","2018-09-04 13:00","2018","09","04","13:00","4.0","","2.8","","92","","","","36","","28","","24.1","","101.16","","","","","","Rain"
"-68.42","58.09","KUUJJUAQ A","7113535","2018-09-04 14:00","2018","09","04","14:00","5.8","","3.4","","84","","","","1","","22","","24.1","","101.32","","","","","","NA"
"-68.42","58.09","KUUJJUAQ A","7113535","2018-09-04 15:00","2018","09","04","15:00","6.2","","2.9","","79","","","","36","","22","","24.1","","101.39","","","","","","NA"
"-68.42","58.09","KUUJJUAQ A","7113535","2018-09-04 16:00","2018","09","04","16:00","5.8","","2.4","","79","","","","1","","17","","24.1","","101.42","","","","","","Mostly Cloudy"
"-68.42","58.09","KUUJJUAQ A","7113535","2018-09-04 17:00","2018","09","04","17:00","6.1","","2.1","","76","","","","1","","12","","24.1","","101.48","","","","","","NA"
"-68.42","58.09","KUUJJUAQ A","7113535","2018-09-04 18:00","2018","09","04","18:00","5.2","","2.5","","83","","","","34","","10","","24.1","","101.53","","","","","","NA"
"-68.42","58.09","KUUJJUAQ A","7113535","2018-09-04 19:00","2018","09","04","19:00","2.9","","1.6","","91","","","","33","","8","","24.1","","101.55","","","","","","Mainly Clear"
"-68.42","58.09","KUUJJUAQ A","7113535","2018-09-04 20:00","2018","09","04","20:00","2.2","","1.3","","93","","","","27","","10","","24.1","","101.59","","","","","","NA"
"-68.42","58.09","KUUJJUAQ A","7113535","2018-09-04 21:00","2018","09","04","21:00","2.3","","1.3","","93","","","","28","","9","","24.1","","101.59","","","","","","NA"
"-68.42","58.09","KUUJJUAQ A","7113535","2018-09-04 22:00","2018","09","04","22:00","2.2","","1.0","","92","","","","28","","6","","24.1","","101.54","","","","","","Mainly Clear"
"-68.42","58.09","KUUJJUAQ A","7113535","2018-09-04 23:00","2018","09","04","23:00","2.2","","1.5","","95","","","","25","","5","","24.1","","101.51","","","","","","NA"
"-68.42","58.09","KUUJJUAQ A","7113535","2018-09-05 00:00","2018","09","05","00:00","0.8","","0.6","","98","","","","26","","7","","24.1","","101.48","","","","","","NA"
"-68.42","58.09","KUUJJUAQ A","7113535","2018-09-05 01:00","2018","09","05","01:00","0.5","","0.2","","98","","","","9","","4","","24.1","","101.45","","","","","","Clear"
"-68.42","58.09","KUUJJUAQ A","7113535","2018-09-05 02:00","2018","09","05","02:00","0.6","","0.3","","98","","","","25","","6","","24.1","","101.46","","","","","","NA"
"-68.42","58.09","KUUJJUAQ A","7113535","2018-09-05 03:00","2018","09","05","03:00","0.9","","0.5","","97","","","","24","","3","","24.1","","101.46","","","","","","NA"
"-68.42","58.09","KUUJJUAQ A","7113535","2018-09-05 04:00","2018","09","05","04:00","0.4","","0.1","","98","","","","36","","3","","24.1","","101.47","","","","","","Mainly Clear"
"-68.42","58.09","KUUJJUAQ A","7113535","2018-09-05 05:00","2018","09","05","05:00","-0.6","","-0.8","","99","","","","16","","6","","24.1","","101.47","","","","-3","","NA"
"-68.42","58.09","KUUJJUAQ A","7113535","2018-09-05 06:00","2018","09","05","06:00","0.3","","0.1","","99","","","","36","","2","","24.1","","101.46","","","","","","NA"
"-68.42","58.09","KUUJJUAQ A","7113535","2018-09-05 07:00","2018","09","05","07:00","3.0","","2.3","","96","","","","17","","7","","24.1","","101.42","","","","","","Clear"
"-68.42","58.09","KUUJJUAQ A","7113535","2018-09-05 08:00","2018","09","05","08:00","5.5","","3.1","","85","","","","19","","5","","24.1","","101.34","","","","","","NA"
"-68.42","58.09","KUUJJUAQ A","7113535","2018-09-05 09:00","2018","09","05","09:00","8.4","","4.8","","78","","","","16","","5","","24.1","","101.28","","","","","","NA"
"-68.42","58.09","KUUJJUAQ A","7113535","2018-09-05 10:00","2018","09","05","10:00","10.4","","2.9","","59","","","","17","","14","","24.1","","101.21","","","","","","Mainly Clear"
"-68.42","58.09","KUUJJUAQ A","7113535","2018-09-05 11:00","2018","09","05","11:00","10.2","","3.1","","61","","","","17","","16","","24.1","","101.14","","","","","","NA"
"-68.42","58.09","KUUJJUAQ A","7113535","2018-09-05 12:00","2018","09","05","12:00","10.3","","1.8","","55","","","","17","","15","","24.1","","101.08","","","","","","NA"
"-68.42","58.09","KUUJJUAQ A","7113535","2018-09-05 13:00","2018","09","05","13:00","10.2","","2.6","","59","","","","16","","14","","24.1","","100.94","","","","","","Mostly Cloudy"
"-68.42","58.09","KUUJJUAQ A","7113535","2018-09-05 14:00","2018","09","05","14:00","10.5","","3.8","","63","","","","17","","18","","24.1","","100.84","","","","","","NA"
"-68.42","58.09","KUUJJUAQ A","7113535","2018-09-05 15:00","2018","09","05","15:00","9.9","","3.8","","65","","","","15","","13","","24.1","","100.68","","","","","","NA"
"-68.42","58.09","KUUJJUAQ A","7113535","2018-09-05 16:00","2018","09","05","16:00","8.8","","5.4","","79","","","","14","","16","","24.1","","100.54","","","","","","Rain Showers"
"-68.42","58.09","KUUJJUAQ A","7113535","2018-09-05 17:00","2018","09","05","17:00","8.7","","5.6","","81","","","","13","","14","","24.1","","100.38","","","","","","NA"
"-68.42","58.09","KUUJJUAQ A","7113535","2018-09-05 18:00","2018","09","05","18:00","9.1","","5.0","","76","","","","14","","19","","24.1","","100.21","","","","","","NA"
"-68.42","58.09","KUUJJUAQ A","7113535","2018-09-05 19:00","2018","09","05","19:00","9.2","","5.2","","76","","","","15","","14","","24.1","","100.11","","","","","","Cloudy"
"-68.42","58.09","KUUJJUAQ A","7113535","2018-09-05 20:00","2018","09","05","20:00","8.8","","5.9","","82","","","","14","","10","","19.3","","100.01","","","","","","Rain"
"-68.42","58.09","KUUJJUAQ A","7113535","2018-09-05 21:00","2018","09","05","21:00","8.6","","7.1","","90","","","","16","","13","","19.3","","99.88","","","","","","Rain"
"-68.42","58.09","KUUJJUAQ A","7113535","2018-09-05 22:00","2018","09","05","22:00","9.0","","7.2","","89","","","","14","","6","","24.1","","99.73","","","","","","Rain"
"-68.42","58.09","KUUJJUAQ A","7113535","2018-09-05 23:00","2018","09","05","23:00","8.7","","8.2","","96","","","","18","","10","","12.9","","99.66","","","","","","Heavy Rain"
"-68.42","58.09","KUUJJUAQ A","7113535","2018-09-06 00:00","2018","09","06","00:00","8.9","","8.4","","96","","","","19","","10","","19.3","","99.59","","","","","","Rain"
"-68.42","58.09","KUUJJUAQ A","7113535","2018-09-06 01:00","2018","09","06","01:00","8.7","","8.4","","98","","","","22","","8","","24.1","","99.53","","","","","","Rain"
"-68.42","58.09","KUUJJUAQ A","7113535","2018-09-06 02:00","2018","09","06","02:00","7.8","","7.4","","97","","","","26","","10","","24.1","","99.55","","","","","","NA"
"-68.42","58.09","KUUJJUAQ A","7113535","2018-09-06 03:00","2018","09","06","03:00","7.2","","6.5","","95","","","","25","","15","","24.1","","99.55","","","","","","NA"
"-68.42","58.09","KUUJJUAQ A","7113535","2018-09-06 04:00","2018","09","06","04:00","7.2","","6.6","","96","","","","24","","10","","24.1","","99.55","","","","","","Mostly Cloudy"
"-68.42","58.09","KUUJJUAQ A","7113535","2018-09-06 05:00","2018","09","06","05:00","7.2","","6.4","","95","","","","25","","12","","24.1","","99.55","","","","","","NA"
"-68.42","58.09","KUUJJUAQ A","7113535","2018-09-06 06:00","2018","09","06","06:00","7.1","","6.2","","94","","","","23","","15","","24.1","","99.56","","","","","","NA"
"-68.42","58.09","KUUJJUAQ A","7113535","2018-09-06 07:00","2018","09","06","07:00","7.3","","5.4","","88","","","","23","","21","","24.1","","99.55","","","","","","Cloudy"
"-68.42","58.09","KUUJJUAQ A","7113535","2018-09-06 08:00","2018","09","06","08:00","7.5","","4.7","","82","","","","23","","20","","24.1","","99.54","","","","","","NA"
"-68.42","58.09","KUUJJUAQ A","7113535","2018-09-06 09:00","2018","09","06","09:00","7.7","","4.5","","80","","","","22","","21","","24.1","","99.52","","","","","","NA"
"-68.42","58.09","KUUJJUAQ A","7113535","2018-09-06 10:00","2018","09","06","10:00","7.9","","4.8","","81","","","","22","","19","","24.1","","99.52","","","","","","Cloudy"
"-68.42","58.09","KUUJJUAQ A","7113535","2018-09-06 11:00","2018","09","06","11:00","8.8","","4.2","","73","","","","21","","34","","24.1","","99.47","","","","","","NA"
"-68.42","58.09","KUUJJUAQ A","7113535","2018-09-06 12:00","2018","09","06","12:00","8.7","","4.4","","74","","","","24","","28","","24.1","","99.47","","","","","","NA"
"-68.42","58.09","KUUJJUAQ A","7113535","2018-09-06 13:00","2018","09","06","13:00","8.3","","5.3","","81","","","","24","","22","","24.1","","99.49","","","","","","Rain Showers"
"-68.42","58.09","KUUJJUAQ A","7113535","2018-09-06 14:00","2018","09","06","14:00","8.6","","5.1","","79","","","","25","","29","","24.1","","99.52","","","","","","NA"
"-68.42","58.09","KUUJJUAQ A","7113535","2018-09-06 15:00","2018","09","06","15:00","7.9","","4.2","","77","","","","25","","29","","24.1","","99.57","","","","","","NA"
"-68.42","58.09","KUUJJUAQ A","7113535","2018-09-06 16:00","2018","09","06","16:00","7.6","","3.6","","75","","","","25","","23","","24.1","","99.63","","","","","","Rain Showers"
"-68.42","58.09","KUUJJUAQ A","7113535","2018-09-06 17:00","2018","09","06","17:00","7.3","","4.1","","80","","","","25","","18","","24.1","","99.67","","","","","","Rain Showers"
"-68.42","58.09","KUUJJUAQ A","7113535","2018-09-06 18:00","2018","09","06","18:00","6.4","","4.8","","89","","","","26","","24","","19.3","","99.70","","","","","","Rain Showers"
"-68.42","58.09","KUUJJUAQ A","7113535","2018-09-06 19:00","2018","09","06","19:00","6.2","","4.4","","88","","","","25","","26","","24.1","","99.74","","","","","","Rain Showers"
"-68.42","58.09","KUUJJUAQ A","7113535","2018-09-06 20:00","2018","09","06","20:00","5.8","","3.2","","84","","","","25","","16","","24.1","","99.77","","","","","","NA"
"-68.42","58.09","KUUJJUAQ A","7113535","2018-09-06 21:00","2018","09","06","21:00","5.9","","2.7","","80","","","","24","","16","","24.1","","99.76","","","","","","NA"
"-68.42","58.09","KUUJJUAQ A","7113535","2018-09-06 22:00","2018","09","06","22:00","5.3","","2.3","","81","","","","24","","18","","24.1","","99.75","","","","","","Mostly Cloudy"
"-68.42","58.09","KUUJJUAQ A","7113535","2018-09-06 23:00","2018","09","06","23:00","5.2","","2.2","","81","","","","24","","16","","24.1","","99.77","","","","","","NA"
"-68.42","58.09","KUUJJUAQ A","7113535","2018-09-07 00:00","2018","09","07","00:00","5.7","","2.6","","81","","","","24","","16","","24.1","","99.80","","","","","","NA"
"-68.42","58.09","KUUJJUAQ A","7113535","2018-09-07 01:00","2018","09","07","01:00","5.7","","2.6","","80","","","","24","","17","","24.1","","99.82","","","","","","Cloudy"
"-68.42","58.09","KUUJJUAQ A","7113535","2018-09-07 02:00","2018","09","07","02:00","5.8","","2.8","","81","","","","24","","23","","24.1","","99.83","","","","","","NA"
"-68.42","58.09","KUUJJUAQ A","7113535","2018-09-07 03:00","2018","09","07","03:00","5.8","","2.8","","81","","","","23","","20","","24.1","","99.84","","","","","","NA"
"-68.42","58.09","KUUJJUAQ A","7113535","2018-09-07 04:00","2018","09","07","04:00","5.6","","3.1","","84","","","","24","","17","","19.3","","99.86","","","","","","Rain Showers"
"-68.42","58.09","KUUJJUAQ A","7113535","2018-09-07 05:00","2018","09","07","05:00","5.6","","2.8","","82","","","","24","","16","","24.1","","99.88","","","","","","NA"
"-68.42","58.09","KUUJJUAQ A","7113535","2018-09-07 06:00","2018","09","07","06:00","5.1","","3.5","","89","","","","23","","18","","24.1","","99.90","","","","","","Rain Showers"
"-68.42","58.09","KUUJJUAQ A","7113535","2018-09-07 07:00","2018","09","07","07:00","4.8","","3.9","","94","","","","23","","16","","24.1","","99.90","","","","","","Rain Showers"
"-68.42","58.09","KUUJJUAQ A","7113535","2018-09-07 08:00","2018","09","07","08:00","5.1","","4.3","","95","","","","24","","11","","24.1","","99.91","","","","","","Rain Showers"
"-68.42","58.09","KUUJJUAQ A","7113535","2018-09-07 09:00","2018","09","07","09:00","5.2","","3.9","","91","","","","26","","19","","24.1","","99.94","","","","","","Rain Showers"
"-68.42","58.09","KUUJJUAQ A","7113535","2018-09-07 10:00","2018","09","07","10:00","5.4","","4.3","","92","","","","27","","13","","24.1","","99.97","","","","","","Rain"
"-68.42","58.09","KUUJJUAQ A","7113535","2018-09-07 11:00","2018","09","07","11:00","5.8","","3.8","","87","","","","25","","21","","24.1","","99.97","","","","","","Rain"
"-68.42","58.09","KUUJJUAQ A","7113535","2018-09-07 12:00","2018","09","07","12:00","6.5","","3.7","","82","","","","26","","18","","24.1","","99.98","","","","","","NA"
"-68.42","58.09","KUUJJUAQ A","7113535","2018-09-07 13:00","2018","09","07","13:00","8.4","","3.8","","73","","","","26","","19","","24.1","","99.99","","","","","","Mostly Cloudy"
"-68.42","58.09","KUUJJUAQ A","7113535","2018-09-07 14:00","2018","09","07","14:00","9.2","","3.1","","65","","","","26","","14","","24.1","","100.00","","","","","","NA"
"-68.42","58.09","KUUJJUAQ A","7113535","2018-09-07 15:00","2018","09","07","15:00","6.5","","5.1","","91","","","","30","","10","","24.1","","100.05","","","","","","Rain Showers"
"-68.42","58.09","KUUJJUAQ A","7113535","2018-09-07 16:00","2018","09","07","16:00","6.5","","4.2","","85","","","","30","","13","","24.1","","100.10","","","","","","Cloudy"
"-68.42","58.09","KUUJJUAQ A","7113535","2018-09-07 17:00","2018","09","07","17:00","6.4","","4.2","","86","","","","28","","6","","24.1","","100.15","","","","","","Rain Showers"
"-68.42","58.09","KUUJJUAQ A","7113535","2018-09-07 18:00","2018","09","07","18:00","5.2","","4.2","","93","","","","27","","8","","19.3","","100.19","","","","","","Rain Showers"
"-68.42","58.09","KUUJJUAQ A","7113535","2018-09-07 19:00","2018","09","07","19:00","5.0","","4.3","","95","","","","26","","6","","24.1","","100.23","","","","","","Rain Showers"
"-68.42","58.09","KUUJJUAQ A","7113535","2018-09-07 20:00","2018","09","07","20:00","3.8","","3.1","","95","","","","34","","14","","19.3","","100.28","","","","","","Rain"
"-68.42","58.09","KUUJJUAQ A","7113535","2018-09-07 21:00","2018","09","07","21:00","3.1","","2.6","","96","","","","33","","20","","24.1","","100.34","","","","","","Rain"
"-68.42","58.09","KUUJJUAQ A","7113535","2018-09-07 22:00","2018","09","07","22:00","3.2","","2.8","","97","","","","33","","17","","16.1","","100.41","","","","","","Rain"
"-68.42","58.09","KUUJJUAQ A","7113535","2018-09-07 23:00","2018","09","07","23:00","3.3","","2.9","","97","","","","33","","10","","9.7","","100.48","","","","","","Rain"
"-68.42","58.09","KUUJJUAQ A","7113535","2018-09-08 00:00","2018","09","08","00:00","3.4","","2.8","","96","","","","32","","10","","24.1","","100.53","","","","","","NA"
"-68.42","58.09","KUUJJUAQ A","7113535","2018-09-08 01:00","2018","09","08","01:00","3.4","","2.6","","95","","","","26","","6","","24.1","","100.55","","","","","","Cloudy"
"-68.42","58.09","KUUJJUAQ A","7113535","2018-09-08 02:00","2018","09","08","02:00","3.1","","2.7","","97","","","","24","","7","","24.1","","100.55","","","","","","NA"
"-68.42","58.09","KUUJJUAQ A","7113535","2018-09-08 03:00","2018","09","08","03:00","3.5","","3.0","","97","","","","26","","13","","24.1","","100.52","","","","","","NA"
"-68.42","58.09","KUUJJUAQ A","7113535","2018-09-08 04:00","2018","09","08","04:00","4.3","","3.5","","94","","","","27","","10","","24.1","","100.54","","","","","","Cloudy"
"-68.42","58.09","KUUJJUAQ A","7113535","2018-09-08 05:00","2018","09","08","05:00","4.7","","3.1","","90","","","","30","","18","","24.1","","100.60","","","","","","NA"
"-68.42","58.09","KUUJJUAQ A","7113535","2018-09-08 06:00","2018","09","08","06:00","4.1","","2.5","","89","","","","28","","13","","24.1","","100.67","","","","","","NA"
"-68.42","58.09","KUUJJUAQ A","7113535","2018-09-08 07:00","2018","09","08","07:00","4.6","","2.7","","87","","","","32","","19","","24.1","","100.73","","","","","","Cloudy"
"-68.42","58.09","KUUJJUAQ A","7113535","2018-09-08 08:00","2018","09","08","08:00","4.4","","3.1","","91","","","","32","","22","","19.3","","100.79","","","","","","Drizzle"
"-68.42","58.09","KUUJJUAQ A","7113535","2018-09-08 09:00","2018","09","08","09:00","4.3","","2.6","","89","","","","33","","23","","24.1","","100.87","","","","","","Drizzle"
"-68.42","58.09","KUUJJUAQ A","7113535","2018-09-08 10:00","2018","09","08","10:00","4.7","","2.5","","86","","","","33","","20","","24.1","","100.91","","","","","","Cloudy"
"-68.42","58.09","KUUJJUAQ A","7113535","2018-09-08 11:00","2018","09","08","11:00","4.4","","2.3","","86","","","","33","","22","","24.1","","100.98","","","","","","NA"
"-68.42","58.09","KUUJJUAQ A","7113535","2018-09-08 12:00","2018","09","08","12:00","4.1","","2.2","","88","","","","33","","20","","24.1","","101.06","","","","","","Drizzle"
"-68.42","58.09","KUUJJUAQ A","7113535","2018-09-08 13:00","2018","09","08","13:00","4.4","","2.6","","88","","","","34","","16","","16.1","","101.11","","","","","","Drizzle"
"-68.42","58.09","KUUJJUAQ A","7113535","2018-09-08 14:00","2018","09","08","14:00","5.2","","3.6","","90","","","","35","","9","","16.1","","101.14","","","","","","Drizzle"
"-68.42","58.09","KUUJJUAQ A","7113535","2018-09-08 15:00","2018","09","08","15:00","5.7","","4.6","","93","","","","32","","13","","19.3","","101.18","","","","","","Drizzle"
"-68.42","58.09","KUUJJUAQ A","7113535","2018-09-08 16:00","2018","09","08","16:00","5.8","","3.8","","87","","","","35","","9","","24.1","","101.20","","","","","","Mostly Cloudy"
"-68.42","58.09","KUUJJUAQ A","7113535","2018-09-08 17:00","2018","09","08","17:00","5.5","","3.9","","89","","","","35","","9","","24.1","","101.23","","","","","","NA"
"-68.42","58.09","KUUJJUAQ A","7113535","2018-09-08 18:00","2018","09","08","18:00","5.3","","3.5","","88","","","","34","","11","","24.1","","101.28","","","","","","Rain Showers"
"-68.42","58.09","KUUJJUAQ A","7113535","2018-09-08 19:00","2018","09","08","19:00","4.2","","2.4","","88","","","","28","","10","","24.1","","101.32","","","","","","Mostly Cloudy"
"-68.42","58.09","KUUJJUAQ A","7113535","2018-09-08 20:00","2018","09","08","20:00","4.5","","2.5","","87","","","","27","","14","","24.1","","101.34","","","","","","NA"
"-68.42","58.09","KUUJJUAQ A","7113535","2018-09-08 21:00","2018","09","08","21:00","4.2","","1.7","","84","","","","28","","11","","24.1","","101.36","","","","","","NA"
"-68.42","58.09","KUUJJUAQ A","7113535","2018-09-08 22:00","2018","09","08","22:00","4.1","","1.1","","80","","","","29","","10","","24.1","","101.39","","","","","","Mostly Cloudy"
"-68.42","58.09","KUUJJUAQ A","7113535","2018-09-08 23:00","2018","09","08","23:00","3.9","","0.6","","79","","","","28","","11","","24.1","","101.43","","","","","","NA"
"-68.42","58.09","KUUJJUAQ A","7113535","2018-09-09 00:00","2018","09","09","00:00","4.0","","0.4","","77","","","","29","","13","","24.1","","101.47","","","","","","NA"
"-68.42","58.09","KUUJJUAQ A","7113535","2018-09-09 01:00","2018","09","09","01:00","3.7","","0.6","","80","","","","28","","14","","24.1","","101.49","","","","","","Mostly Cloudy"
"-68.42","58.09","KUUJJUAQ A","7113535","2018-09-09 02:00","2018","09","09","02:00","2.7","","0.2","","83","","","","29","","19","","24.1","","101.52","","","","","","NA"
"-68.42","58.09","KUUJJUAQ A","7113535","2018-09-09 03:00","2018","09","09","03:00","1.8","","0.0","","88","","","","29","","16","","24.1","","101.55","","","","","","NA"
"-68.42","58.09","KUUJJUAQ A","7113535","2018-09-09 04:00","2018","09","09","04:00","1.5","","-0.2","","89","","","","30","","12","","24.1","","101.58","","","","","","Mainly Clear"
"-68.42","58.09","KUUJJUAQ A","7113535","2018-09-09 05:00","2018","09","09","05:00","1.3","","-0.2","","90","","","","29","","16","","24.1","","101.64","","","","","","NA"
"-68.42","58.09","KUUJJUAQ A","7113535","2018-09-09 06:00","2018","09","09","06:00","1.9","","-0.4","","84","","","","29","","15","","24.1","","101.68","","","","","","NA"
"-68.42","58.09","KUUJJUAQ A","7113535","2018-09-09 07:00","2018","09","09","07:00","3.5","","-0.4","","75","","","","28","","17","","24.1","","101.72","","","","","","Mostly Cloudy"
"-68.42","58.09","KUUJJUAQ A","7113535","2018-09-09 08:00","2018","09","09","08:00","4.1","","-0.4","","73","","","","28","","20","","24.1","","101.75","","","","","","NA"
"-68.42","58.09","KUUJJUAQ A","7113535","2018-09-09 09:00","2018","09","09","09:00","5.3","","0.5","","71","","","","27","","17","","24.1","","101.73","","","","","","NA"
"-68.42","58.09","KUUJJUAQ A","7113535","2018-09-09 10:00","2018","09","09","10:00","7.1","","1.7","","68","","","","28","","16","","24.1","","101.71","","","","","","Mostly Cloudy"
"-68.42","58.09","KUUJJUAQ A","7113535","2018-09-09 11:00","2018","09","09","11:00","9.1","","2.5","","63","","","","27","","12","","24.1","","101.72","","","","","","NA"
"-68.42","58.09","KUUJJUAQ A","7113535","2018-09-09 12:00","2018","09","09","12:00","10.2","","2.7","","60","","","","23","","23","","24.1","","101.66","","","","","","NA"
"-68.42","58.09","KUUJJUAQ A","7113535","2018-09-09 13:00","2018","09","09","13:00","10.8","","1.8","","54","","","","27","","16","","24.1","","101.66","","","","","","Cloudy"
"-68.42","58.09","KUUJJUAQ A","7113535","2018-09-09 14:00","2018","09","09","14:00","9.5","","1.7","","58","","","","27","","19","","24.1","","101.66","","","","","","NA"
"-68.42","58.09","KUUJJUAQ A","7113535","2018-09-09 15:00","2018","09","09","15:00","9.3","","1.6","","59","","","","23","","18","","24.1","","101.59","","","","","","NA"
"-68.42","58.09","KUUJJUAQ A","7113535","2018-09-09 16:00","2018","09","09","16:00","8.7","","1.8","","62","","","","24","","13","","24.1","","101.56","","","","","","Cloudy"
"-68.42","58.09","KUUJJUAQ A","7113535","2018-09-09 17:00","2018","09","09","17:00","8.0","","1.6","","64","","","","23","","8","","24.1","","101.51","","","","","","NA"
"-68.42","58.09","KUUJJUAQ A","7113535","2018-09-09 18:00","2018","09","09","18:00","7.2","","1.7","","68","","","","22","","7","","24.1","","101.50","","","","","","NA"
"-68.42","58.09","KUUJJUAQ A","7113535","2018-09-09 19:00","2018","09","09","19:00","6.4","","1.6","","72","","","","21","","10","","24.1","","101.45","","","","","","Mostly Cloudy"
"-68.42","58.09","KUUJJUAQ A","7113535","2018-09-09 20:00","2018","09","09","20:00","6.2","","1.4","","71","","","","20","","9","","24.1","","101.37","","","","","","NA"
"-68.42","58.09","KUUJJUAQ A","7113535","2018-09-09 21:00","2018","09","09","21:00","5.5","","0.6","","71","","","","22","","10","","24.1","","101.32","","","","","","NA"
"-68.42","58.09","KUUJJUAQ A","7113535","2018-09-09 22:00","2018","09","09","22:00","5.7","","0.6","","70","","","","20","","11","","24.1","","101.21","","","","","","Cloudy"
"-68.42","58.09","KUUJJUAQ A","7113535","2018-09-09 23:00","2018","09","09","23:00","5.7","","0.8","","71","","","","19","","16","","24.1","","101.10","","","","","","NA"
"-68.42","58.09","KUUJJUAQ A","7113535","2018-09-10 00:00","2018","09","10","00:00","6.1","","1.0","","70","","","","21","","20","","24.1","","101.00","","","","","","NA"
"-68.42","58.09","KUUJJUAQ A","7113535","2018-09-10 01:00","2018","09","10","01:00","6.6","","1.7","","71","","","","23","","25","","24.1","","100.94","","","","","","Cloudy"
"-68.42","58.09","KUUJJUAQ A","7113535","2018-09-10 02:00","2018","09","10","02:00","5.5","","3.7","","88","","","","22","","14","","19.3","","100.82","","","","","","Rain"
"-68.42","58.09","KUUJJUAQ A","7113535","2018-09-10 03:00","2018","09","10","03:00","5.3","","4.2","","92","","","","20","","21","","16.1","","100.70","","","","","","Rain"
"-68.42","58.09","KUUJJUAQ A","7113535","2018-09-10 04:00","2018","09","10","04:00","5.7","","4.6","","93","","","","20","","24","","19.3","","100.52","","","","","","Rain"
"-68.42","58.09","KUUJJUAQ A","7113535","2018-09-10 05:00","2018","09","10","05:00","6.0","","4.7","","91","","","","19","","30","","19.3","","100.35","","","","","","Rain"
"-68.42","58.09","KUUJJUAQ A","7113535","2018-09-10 06:00","2018","09","10","06:00","6.4","","5.3","","93","","","","20","","24","","16.1","","100.23","","","","","","Rain"
"-68.42","58.09","KUUJJUAQ A","7113535","2018-09-10 07:00","2018","09","10","07:00","7.0","","6.0","","93","","","","21","","27","","19.3","","100.14","","","","","","Rain"
"-68.42","58.09","KUUJJUAQ A","7113535","2018-09-10 08:00","2018","09","10","08:00","7.5","","6.5","","94","","","","22","","20","","19.3","","100.09","","","","","","Rain"
"-68.42","58.09","KUUJJUAQ A","7113535","2018-09-10 09:00","2018","09","10","09:00","8.2","","7.4","","95","","","","22","","18","","24.1","","100.04","","","","","","Rain"
"-68.42","58.09","KUUJJUAQ A","7113535","2018-09-10 10:00","2018","09","10","10:00","8.4","","7.7","","95","","","","22","","21","","19.3","","100.02","","","","","","Rain"
"-68.42","58.09","KUUJJUAQ A","7113535","2018-09-10 11:00","2018","09","10","11:00","9.0","","8.1","","94","","","","23","","18","","24.1","","100.02","","","","","","Rain"
"-68.42","58.09","KUUJJUAQ A","7113535","2018-09-10 12:00","2018","09","10","12:00","9.5","","8.4","","93","","","","24","","23","","19.3","","100.07","","","","","","NA"
"-68.42","58.09","KUUJJUAQ A","7113535","2018-09-10 13:00","2018","09","10","13:00","9.8","","9.0","","94","","","","24","","16","","24.1","","100.14","","","","","","Cloudy"
"-68.42","58.09","KUUJJUAQ A","7113535","2018-09-10 14:00","2018","09","10","14:00","10.0","","9.0","","93","","","","28","","12","","24.1","","100.30","","","","","","NA"
"-68.42","58.09","KUUJJUAQ A","7113535","2018-09-10 15:00","2018","09","10","15:00","10.2","","7.9","","85","","","","30","","13","","24.1","","100.44","","","","","","NA"
"-68.42","58.09","KUUJJUAQ A","7113535","2018-09-10 16:00","2018","09","10","16:00","9.2","","6.6","","84","","","","32","","13","","24.1","","100.60","","","","","","Cloudy"
"-68.42","58.09","KUUJJUAQ A","7113535","2018-09-10 17:00","2018","09","10","17:00","8.2","","5.6","","84","","","","32","","16","","24.1","","100.74","","","","","","NA"
"-68.42","58.09","KUUJJUAQ A","7113535","2018-09-10 18:00","2018","09","10","18:00","7.4","","4.7","","83","","","","32","","6","","24.1","","100.81","","","","","","NA"
"-68.42","58.09","KUUJJUAQ A","7113535","2018-09-10 19:00","2018","09","10","19:00","6.5","","4.3","","86","","","","26","","8","","24.1","","100.91","","","","","","Mostly Cloudy"
"-68.42","58.09","KUUJJUAQ A","7113535","2018-09-10 20:00","2018","09","10","20:00","5.1","","3.2","","87","","","","26","","10","","24.1","","100.93","","","","","","NA"
"-68.42","58.09","KUUJJUAQ A","7113535","2018-09-10 21:00","2018","09","10","21:00","4.6","","3.0","","89","","","","26","","9","","24.1","","100.95","","","","","","NA"
"-68.42","58.09","KUUJJUAQ A","7113535","2018-09-10 22:00","2018","09","10","22:00","4.8","","3.3","","90","","","","26","","8","","24.1","","100.93","","","","","","Mostly Cloudy"
"-68.42","58.09","KUUJJUAQ A","7113535","2018-09-10 23:00","2018","09","10","23:00","5.4","","4.1","","92","","","","24","","8","","24.1","","100.98","","","","","","NA"
"-68.42","58.09","KUUJJUAQ A","7113535","2018-09-11 00:00","2018","09","11","00:00","5.3","","4.3","","93","","","","23","","8","","24.1","","100.90","","","","","","NA"
"-68.42","58.09","KUUJJUAQ A","7113535","2018-09-11 01:00","2018","09","11","01:00","5.1","","4.5","","96","","","","17","","3","","24.1","","100.83","","","","","","Rain"
"-68.42","58.09","KUUJJUAQ A","7113535","2018-09-11 02:00","2018","09","11","02:00","5.0","","4.6","","97","","","","20","","8","","19.3","","100.83","","","","","","Rain"
"-68.42","58.09","KUUJJUAQ A","7113535","2018-09-11 03:00","2018","09","11","03:00","4.9","","4.6","","98","","","","36","","2","","24.1","","100.79","","","","","","Rain"
"-68.42","58.09","KUUJJUAQ A","7113535","2018-09-11 04:00","2018","09","11","04:00","5.5","","5.0","","97","","","","9","","7","","24.1","","100.71","","","","","","Rain"
"-68.42","58.09","KUUJJUAQ A","7113535","2018-09-11 05:00","2018","09","11","05:00","5.6","","5.1","","97","","","","5","","9","","19.3","","100.62","","","","","","Rain"
"-68.42","58.09","KUUJJUAQ A","7113535","2018-09-11 06:00","2018","09","11","06:00","5.5","","5.2","","98","","","","3","","11","","4.0","","100.57","","","","","","Rain,Fog"
"-68.42","58.09","KUUJJUAQ A","7113535","2018-09-11 07:00","2018","09","11","07:00","5.6","","5.4","","99","","","","6","","12","","4.0","","100.51","","","","","","Drizzle,Fog"
"-68.42","58.09","KUUJJUAQ A","7113535","2018-09-11 08:00","2018","09","11","08:00","6.0","","5.9","","99","","","","6","","15","","8.1","","100.45","","","","","","Fog"
"-68.42","58.09","KUUJJUAQ A","7113535","2018-09-11 09:00","2018","09","11","09:00","6.7","","6.5","","99","","","","7","","10","","8.1","","100.36","","","","","","Fog"
"-68.42","58.09","KUUJJUAQ A","7113535","2018-09-11 10:00","2018","09","11","10:00","7.6","","7.3","","98","","","","35","","5","","14.5","","100.34","","","","","","Cloudy"
"-68.42","58.09","KUUJJUAQ A","7113535","2018-09-11 11:00","2018","09","11","11:00","8.5","","8.2","","98","","","","36","","3","","8.1","","100.30","","","","","","Rain,Fog"
"-68.42","58.09","KUUJJUAQ A","7113535","2018-09-11 12:00","2018","09","11","12:00","9.5","","9.1","","98","","","","17","","5","","14.5","","100.27","","","","","","Rain"
"-68.42","58.09","KUUJJUAQ A","7113535","2018-09-11 13:00","2018","09","11","13:00","9.6","","9.4","","98","","","","17","","6","","14.5","","100.27","","","","","","Rain"
"-68.42","58.09","KUUJJUAQ A","7113535","2018-09-11 14:00","2018","09","11","14:00","10.8","","10.3","","97","","","","20","","11","","19.3","","100.27","","","","","","Rain"
"-68.42","58.09","KUUJJUAQ A","7113535","2018-09-11 15:00","2018","09","11","15:00","11.2","","10.6","","96","","","","22","","9","","24.1","","100.28","","","","","","NA"
"-68.42","58.09","KUUJJUAQ A","7113535","2018-09-11 16:00","2018","09","11","16:00","8.7","","8.2","","97","","","","35","","12","","8.1","","100.32","","","","","","Rain,Fog"
"-68.42","58.09","KUUJJUAQ A","7113535","2018-09-11 17:00","2018","09","11","17:00","5.3","","5.0","","98","","","","36","","18","","4.8","","100.40","","","","","","Rain,Fog"
"-68.42","58.09","KUUJJUAQ A","7113535","2018-09-11 18:00","2018","09","11","18:00","4.9","","4.5","","98","","","","35","","12","","12.9","","100.53","","","","","","Rain,Fog"
"-68.42","58.09","KUUJJUAQ A","7113535","2018-09-11 19:00","2018","09","11","19:00","4.0","","3.7","","98","","","","35","","11","","3.2","","100.65","","","","","","Drizzle,Fog"
"-68.42","58.09","KUUJJUAQ A","7113535","2018-09-11 20:00","2018","09","11","20:00","3.9","","3.6","","98","","","","36","","14","","6.4","","100.72","","","","","","Drizzle,Fog"
"-68.42","58.09","KUUJJUAQ A","7113535","2018-09-11 21:00","2018","09","11","21:00","3.7","","3.3","","97","","","","35","","9","","9.7","","100.76","","","","","","Drizzle"
"-68.42","58.09","KUUJJUAQ A","7113535","2018-09-11 22:00","2018","09","11","22:00","3.5","","3.2","","98","","","","2","","6","","16.1","","100.76","","","","","","Cloudy"
"-68.42","58.09","KUUJJUAQ A","7113535","2018-09-11 23:00","2018","09","11","23:00","3.4","","3.0","","97","","","","36","","2","","19.3","","100.83","","","","","","Drizzle"
"-68.42","58.09","KUUJJUAQ A","7113535","2018-09-12 00:00","2018","09","12","00:00","3.3","","2.8","","96","","","","36","","8","","19.3","","100.86","","","","","","NA"
"-68.42","58.09","KUUJJUAQ A","7113535","2018-09-12 01:00","2018","09","12","01:00","3.0","","2.5","","97","","","","36","","1","","19.3","","100.91","","","","","","Cloudy"
"-68.42","58.09","KUUJJUAQ A","7113535","2018-09-12 02:00","2018","09","12","02:00","2.6","","2.0","","95","","","","36","","8","","24.1","","100.92","","","","","","NA"
"-68.42","58.09","KUUJJUAQ A","7113535","2018-09-12 03:00","2018","09","12","03:00","2.6","","2.3","","98","","","","32","","4","","24.1","","100.92","","","","","","NA"
"-68.42","58.09","KUUJJUAQ A","7113535","2018-09-12 04:00","2018","09","12","04:00","2.8","","2.4","","97","","","","36","","4","","24.1","","100.88","","","","","","Cloudy"
"-68.42","58.09","KUUJJUAQ A","7113535","2018-09-12 05:00","2018","09","12","05:00","3.4","","3.1","","98","","","","14","","6","","16.1","","100.86","","","","","","NA"
"-68.42","58.09","KUUJJUAQ A","7113535","2018-09-12 06:00","2018","09","12","06:00","3.8","","3.5","","98","","","","13","","5","","24.1","","100.82","","","","","","NA"
"-68.42","58.09","KUUJJUAQ A","7113535","2018-09-12 07:00","2018","09","12","07:00","4.4","","4.0","","97","","","","11","","6","","6.4","","100.77","","","","","","Rain,Fog"
"-68.42","58.09","KUUJJUAQ A","7113535","2018-09-12 08:00","2018","09","12","08:00","5.5","","5.2","","98","","","","9","","7","","24.1","","100.66","","","","","","Rain"
"-68.42","58.09","KUUJJUAQ A","7113535","2018-09-12 09:00","2018","09","12","09:00","6.7","","6.3","","98","","","","36","","2","","24.1","","100.57","","","","","","NA"
"-68.42","58.09","KUUJJUAQ A","7113535","2018-09-12 10:00","2018","09","12","10:00","8.2","","8.0","","98","","","","13","","5","","24.1","","100.52","","","","","","Rain"
"-68.42","58.09","KUUJJUAQ A","7113535","2018-09-12 11:00","2018","09","12","11:00","10.4","","10.1","","98","","","","36","","2","","24.1","","100.46","","","","","","NA"
"-68.42","58.09","KUUJJUAQ A","7113535","2018-09-12 12:00","2018","09","12","12:00","13.2","","12.8","","97","","","","24","","8","","24.1","","100.41","","","","","","Rain"
"-68.42","58.09","KUUJJUAQ A","7113535","2018-09-12 13:00","2018","09","12","13:00","12.7","","12.2","","97","","","","18","","7","","24.1","","100.36","","","","","","Cloudy"
"-68.42","58.09","KUUJJUAQ A","7113535","2018-09-12 14:00","2018","09","12","14:00","13.8","","12.9","","94","","","","17","","9","","24.1","","100.26","","","","","","NA"
"-68.42","58.09","KUUJJUAQ A","7113535","2018-09-12 15:00","2018","09","12","15:00","13.9","","13.0","","95","","","","19","","8","","24.1","","100.21","","","","","","Rain"
"-68.42","58.09","KUUJJUAQ A","7113535","2018-09-12 16:00","2018","09","12","16:00","14.3","","13.5","","95","","","","19","","9","","24.1","","100.17","","","","","","Cloudy"
"-68.42","58.09","KUUJJUAQ A","7113535","2018-09-12 17:00","2018","09","12","17:00","14.2","","13.5","","96","","","","19","","10","","24.1","","100.15","","","","","","NA"
"-68.42","58.09","KUUJJUAQ A","7113535","2018-09-12 18:00","2018","09","12","18:00","13.5","","12.9","","96","","","","35","","25","","4.8","","100.21","","","","","","Moderate Rain"
"-68.42","58.09","KUUJJUAQ A","7113535","2018-09-12 19:00","2018","09","12","19:00","10.8","","10.4","","97","","","","33","","18","","19.3","","100.37","","","","","","Rain"
"-68.42","58.09","KUUJJUAQ A","7113535","2018-09-12 20:00","2018","09","12","20:00","10.3","","9.3","","93","","","","33","","21","","24.1","","100.52","","","","","","Rain"
"-68.42","58.09","KUUJJUAQ A","7113535","2018-09-12 21:00","2018","09","12","21:00","9.2","","7.3","","88","","","","32","","23","","24.1","","100.69","","","","","","NA"
"-68.42","58.09","KUUJJUAQ A","7113535","2018-09-12 22:00","2018","09","12","22:00","8.2","","6.5","","89","","","","31","","15","","24.1","","100.85","","","","","","Mostly Cloudy"
"-68.42","58.09","KUUJJUAQ A","7113535","2018-09-12 23:00","2018","09","12","23:00","7.3","","5.2","","86","","","","32","","22","","24.1","","101.02","","","","","","NA"
"-68.42","58.09","KUUJJUAQ A","7113535","2018-09-13 00:00","2018","09","13","00:00","6.5","","3.4","","81","","","","33","","12","","24.1","","101.23","","","","","","NA"
"-68.42","58.09","KUUJJUAQ A","7113535","2018-09-13 01:00","2018","09","13","01:00","6.0","","3.5","","84","","","","32","","10","","24.1","","101.45","","","","","","Cloudy"
"-68.42","58.09","KUUJJUAQ A","7113535","2018-09-13 02:00","2018","09","13","02:00","5.3","","2.5","","82","","","","32","","13","","24.1","","101.59","","","","","","NA"
"-68.42","58.09","KUUJJUAQ A","7113535","2018-09-13 03:00","2018","09","13","03:00","5.3","","3.1","","85","","","","31","","14","","24.1","","101.77","","","","","","NA"
"-68.42","58.09","KUUJJUAQ A","7113535","2018-09-13 04:00","2018","09","13","04:00","4.7","","4.0","","95","","","","31","","15","","24.1","","101.91","","","","","","Rain"
"-68.42","58.09","KUUJJUAQ A","7113535","2018-09-13 05:00","2018","09","13","05:00","4.1","","2.2","","87","","","","31","","12","","24.1","","102.03","","","","","","NA"
"-68.42","58.09","KUUJJUAQ A","7113535","2018-09-13 06:00","2018","09","13","06:00","4.4","","2.3","","86","","","","27","","5","","24.1","","102.11","","","","","","NA"
"-68.42","58.09","KUUJJUAQ A","7113535","2018-09-13 07:00","2018","09","13","07:00","5.8","","2.6","","80","","","","29","","12","","24.1","","102.22","","","","","","Mostly Cloudy"
"-68.42","58.09","KUUJJUAQ A","7113535","2018-09-13 08:00","2018","09","13","08:00","5.0","","1.7","","79","","","","32","","13","","24.1","","102.34","","","","","","NA"
"-68.42","58.09","KUUJJUAQ A","7113535","2018-09-13 09:00","2018","09","13","09:00","5.0","","0.4","","72","","","","33","","12","","24.1","","102.41","","","","","","NA"
"-68.42","58.09","KUUJJUAQ A","7113535","2018-09-13 10:00","2018","09","13","10:00","5.5","","-0.3","","66","","","","34","","13","","24.1","","102.44","","","","","","Mostly Cloudy"
"-68.42","58.09","KUUJJUAQ A","7113535","2018-09-13 11:00","2018","09","13","11:00","6.5","","-0.3","","62","","","","35","","20","","24.1","","102.47","","","","","","NA"
"-68.42","58.09","KUUJJUAQ A","7113535","2018-09-13 12:00","2018","09","13","12:00","6.8","","-0.9","","58","","","","32","","11","","24.1","","102.50","","","","","","NA"
"-68.42","58.09","KUUJJUAQ A","7113535","2018-09-13 13:00","2018","09","13","13:00","7.0","","-0.5","","59","","","","35","","5","","24.1","","102.47","","","","","","Mostly Cloudy"
"-68.42","58.09","KUUJJUAQ A","7113535","2018-09-13 14:00","2018","09","13","14:00","6.9","","-1.6","","55","","","","1","","5","","24.1","","102.47","","","","","","NA"
"-68.42","58.09","KUUJJUAQ A","7113535","2018-09-13 15:00","2018","09","13","15:00","6.7","","-0.4","","60","","","","8","","9","","24.1","","102.43","","","","","","NA"
"-68.42","58.09","KUUJJUAQ A","7113535","2018-09-13 16:00","2018","09","13","16:00","6.5","","-0.7","","60","","","","11","","5","","24.1","","102.43","","","","","","Mostly Cloudy"
"-68.42","58.09","KUUJJUAQ A","7113535","2018-09-13 17:00","2018","09","13","17:00","5.0","","0.8","","75","","","","8","","17","","24.1","","102.41","","","","","","NA"
"-68.42","58.09","KUUJJUAQ A","7113535","2018-09-13 18:00","2018","09","13","18:00","4.3","","0.1","","74","","","","8","","15","","24.1","","102.38","","","","","","NA"
"-68.42","58.09","KUUJJUAQ A","7113535","2018-09-13 19:00","2018","09","13","19:00","3.9","","0.7","","79","","","","9","","5","","24.1","","102.39","","","","","","Cloudy"
"-68.42","58.09","KUUJJUAQ A","7113535","2018-09-13 20:00","2018","09","13","20:00","4.1","","0.8","","79","","","","9","","12","","24.1","","102.24","","","","","","NA"
"-68.42","58.09","KUUJJUAQ A","7113535","2018-09-13 21:00","2018","09","13","21:00","3.9","","0.8","","80","","","","10","","5","","24.1","","102.18","","","","","","NA"
"-68.42","58.09","KUUJJUAQ A","7113535","2018-09-13 22:00","2018","09","13","22:00","3.8","","0.5","","79","","","","11","","9","","24.1","","102.14","","","","","","Cloudy"
"-68.42","58.09","KUUJJUAQ A","7113535","2018-09-13 23:00","2018","09","13","23:00","3.9","","0.3","","77","","","","12","","9","","24.1","","101.96","","","","","","NA"
"-68.42","58.09","KUUJJUAQ A","7113535","2018-09-14 00:00","2018","09","14","00:00","3.9","","0.0","","76","","","","10","","15","","24.1","","101.75","","","","","","NA"
"-68.42","58.09","KUUJJUAQ A","7113535","2018-09-14 01:00","2018","09","14","01:00","4.7","","1.3","","79","","","","9","","17","","24.1","","101.66","","","","","","Cloudy"
"-68.42","58.09","KUUJJUAQ A","7113535","2018-09-14 02:00","2018","09","14","02:00","3.8","","2.1","","88","","","","4","","9","","19.3","","101.52","","","","","","Rain"
"-68.42","58.09","KUUJJUAQ A","7113535","2018-09-14 03:00","2018","09","14","03:00","4.0","","3.2","","95","","","","8","","17","","19.3","","101.33","","","","","","Rain"
"-68.42","58.09","KUUJJUAQ A","7113535","2018-09-14 04:00","2018","09","14","04:00","4.1","","3.4","","95","","","","7","","21","","16.1","","101.13","","","","","","Rain"
"-68.42","58.09","KUUJJUAQ A","7113535","2018-09-14 05:00","2018","09","14","05:00","3.6","","3.0","","96","","","","6","","20","","16.1","","100.98","","","","","","Rain"
"-68.42","58.09","KUUJJUAQ A","7113535","2018-09-14 06:00","2018","09","14","06:00","4.0","","3.4","","96","","","","5","","19","","16.1","","100.92","","","","","","Rain"
"-68.42","58.09","KUUJJUAQ A","7113535","2018-09-14 07:00","2018","09","14","07:00","4.2","","3.6","","96","","","","6","","24","","19.3","","100.75","","","","","","Rain"
"-68.42","58.09","KUUJJUAQ A","7113535","2018-09-14 08:00","2018","09","14","08:00","3.8","","3.0","","95","","","","6","","24","","24.1","","100.69","","","","","","Rain"
"-68.42","58.09","KUUJJUAQ A","7113535","2018-09-14 09:00","2018","09","14","09:00","4.0","","3.1","","94","","","","5","","19","","24.1","","100.66","","","","","","Rain"
"-68.42","58.09","KUUJJUAQ A","7113535","2018-09-14 10:00","2018","09","14","10:00","4.3","","3.1","","92","","","","5","","23","","24.1","","100.57","","","","","","Rain"
"-68.42","58.09","KUUJJUAQ A","7113535","2018-09-14 11:00","2018","09","14","11:00","4.9","","3.8","","93","","","","5","","21","","24.1","","100.49","","","","","","Rain"
"-68.42","58.09","KUUJJUAQ A","7113535","2018-09-14 12:00","2018","09","14","12:00","5.1","","3.9","","92","","","","3","","17","","24.1","","100.45","","","","","","Rain"
"-68.42","58.09","KUUJJUAQ A","7113535","2018-09-14 13:00","2018","09","14","13:00","5.3","","4.4","","94","","","","3","","18","","12.9","","100.40","","","","","","Rain"
"-68.42","58.09","KUUJJUAQ A","7113535","2018-09-14 14:00","2018","09","14","14:00","5.6","","4.9","","95","","","","3","","14","","12.9","","100.43","","","","","","Rain"
"-68.42","58.09","KUUJJUAQ A","7113535","2018-09-14 15:00","2018","09","14","15:00","5.6","","4.7","","94","","","","3","","20","","24.1","","100.40","","","","","","Rain"
"-68.42","58.09","KUUJJUAQ A","7113535","2018-09-14 16:00","2018","09","14","16:00","5.5","","4.4","","93","","","","4","","20","","24.1","","100.40","","","","","","Rain"
"-68.42","58.09","KUUJJUAQ A","7113535","2018-09-14 17:00","2018","09","14","17:00","5.4","","3.8","","89","","","","4","","14","","24.1","","100.42","","","","","","Rain"
"-68.42","58.09","KUUJJUAQ A","7113535","2018-09-14 18:00","2018","09","14","18:00","4.8","","3.5","","91","","","","1","","13","","24.1","","100.50","","","","","","NA"
"-68.42","58.09","KUUJJUAQ A","7113535","2018-09-14 19:00","2018","09","14","19:00","4.5","","2.9","","90","","","","2","","14","","24.1","","100.52","","","","","","Cloudy"
"-68.42","58.09","KUUJJUAQ A","7113535","2018-09-14 20:00","2018","09","14","20:00","3.9","","2.6","","91","","","","35","","11","","24.1","","100.55","","","","","","NA"
"-68.42","58.09","KUUJJUAQ A","7113535","2018-09-14 21:00","2018","09","14","21:00","3.2","","2.0","","92","","","","35","","14","","24.1","","100.58","","","","","","NA"
"-68.42","58.09","KUUJJUAQ A","7113535","2018-09-14 22:00","2018","09","14","22:00","2.4","","1.6","","94","","","","34","","13","","24.1","","100.61","","","","","","Mostly Cloudy"
"-68.42","58.09","KUUJJUAQ A","7113535","2018-09-14 23:00","2018","09","14","23:00","1.9","","1.1","","95","","","","33","","10","","24.1","","100.63","","","","","","NA"
"-68.42","58.09","KUUJJUAQ A","7113535","2018-09-15 00:00","2018","09","15","00:00","1.9","","1.2","","95","","","","32","","13","","24.1","","100.67","","","","","","NA"
"-68.42","58.09","KUUJJUAQ A","7113535","2018-09-15 01:00","2018","09","15","01:00","2.1","","1.3","","95","","","","32","","10","","24.1","","100.72","","","","","","Cloudy"
"-68.42","58.09","KUUJJUAQ A","7113535","2018-09-15 02:00","2018","09","15","02:00","2.2","","1.4","","95","","","","32","","10","","24.1","","100.76","","","","","","NA"
"-68.42","58.09","KUUJJUAQ A","7113535","2018-09-15 03:00","2018","09","15","03:00","1.7","","1.1","","96","","","","29","","7","","24.1","","100.81","","","","","","NA"
"-68.42","58.09","KUUJJUAQ A","7113535","2018-09-15 04:00","2018","09","15","04:00","1.4","","1.0","","97","","","","29","","8","","24.1","","100.79","","","","","","Mostly Cloudy"
"-68.42","58.09","KUUJJUAQ A","7113535","2018-09-15 05:00","2018","09","15","05:00","1.7","","1.4","","97","","","","22","","7","","24.1","","100.83","","","","","","NA"
"-68.42","58.09","KUUJJUAQ A","7113535","2018-09-15 06:00","2018","09","15","06:00","2.2","","1.7","","97","","","","25","","7","","24.1","","100.86","","","","","","NA"
"-68.42","58.09","KUUJJUAQ A","7113535","2018-09-15 07:00","2018","09","15","07:00","3.3","","1.6","","89","","","","25","","13","","24.1","","100.89","","","","","","Mostly Cloudy"
"-68.42","58.09","KUUJJUAQ A","7113535","2018-09-15 08:00","2018","09","15","08:00","4.1","","2.2","","87","","","","26","","12","","24.1","","100.87","","","","","","NA"
"-68.42","58.09","KUUJJUAQ A","7113535","2018-09-15 09:00","2018","09","15","09:00","5.1","","2.8","","85","","","","23","","13","","24.1","","100.82","","","","","","NA"
"-68.42","58.09","KUUJJUAQ A","7113535","2018-09-15 10:00","2018","09","15","10:00","5.5","","3.1","","84","","","","23","","14","","24.1","","100.81","","","","","","Cloudy"
"-68.42","58.09","KUUJJUAQ A","7113535","2018-09-15 11:00","2018","09","15","11:00","6.2","","3.9","","85","","","","24","","13","","24.1","","100.79","","","","","","NA"
"-68.42","58.09","KUUJJUAQ A","7113535","2018-09-15 12:00","2018","09","15","12:00","7.2","","6.1","","92","","","","23","","12","","24.1","","100.78","","","","","","Rain Showers"
"-68.42","58.09","KUUJJUAQ A","7113535","2018-09-15 13:00","2018","09","15","13:00","8.8","","6.0","","82","","","","27","","18","","24.1","","100.81","","","","","","Mostly Cloudy"
"-68.42","58.09","KUUJJUAQ A","7113535","2018-09-15 14:00","2018","09","15","14:00","9.0","","4.8","","75","","","","25","","21","","24.1","","100.83","","","","","","Rain Showers"
"-68.42","58.09","KUUJJUAQ A","7113535","2018-09-15 15:00","2018","09","15","15:00","9.6","","4.5","","70","","","","25","","23","","24.1","","100.86","","","","","","Rain Showers"
"-68.42","58.09","KUUJJUAQ A","7113535","2018-09-15 16:00","2018","09","15","16:00","7.5","","4.7","","82","","","","27","","23","","24.1","","100.89","","","","","","Rain Showers"
"-68.42","58.09","KUUJJUAQ A","7113535","2018-09-15 17:00","2018","09","15","17:00","7.1","","1.2","","66","","","","27","","27","","24.1","","100.95","","","","","","NA"
"-68.42","58.09","KUUJJUAQ A","7113535","2018-09-15 18:00","2018","09","15","18:00","5.5","","0.7","","71","","","","27","","23","","24.1","","101.00","","","","","","NA"
"-68.42","58.09","KUUJJUAQ A","7113535","2018-09-15 19:00","2018","09","15","19:00","4.8","","0.9","","76","","","","27","","18","","24.1","","101.07","","","","","","Mainly Clear"
"-68.42","58.09","KUUJJUAQ A","7113535","2018-09-15 20:00","2018","09","15","20:00","3.7","","-0.4","","75","","","","27","","19","","24.1","","101.12","","","","","","NA"
"-68.42","58.09","KUUJJUAQ A","7113535","2018-09-15 21:00","2018","09","15","21:00","2.6","","-0.9","","78","","","","26","","14","","24.1","","101.15","","","","","","NA"
"-68.42","58.09","KUUJJUAQ A","7113535","2018-09-15 22:00","2018","09","15","22:00","1.4","","-1.1","","83","","","","24","","13","","24.1","","101.17","","","","","","Clear"
"-68.42","58.09","KUUJJUAQ A","7113535","2018-09-15 23:00","2018","09","15","23:00","2.5","","-1.0","","77","","","","27","","16","","24.1","","101.18","","","","","","NA"
"-68.42","58.09","KUUJJUAQ A","7113535","2018-09-16 00:00","2018","09","16","00:00","1.7","","-1.1","","82","","","","25","","13","","24.1","","101.17","","","","","","NA"
"-68.42","58.09","KUUJJUAQ A","7113535","2018-09-16 01:00","2018","09","16","01:00","1.2","","-1.1","","85","","","","23","","10","","24.1","","101.16","","","","","","Clear"
"-68.42","58.09","KUUJJUAQ A","7113535","2018-09-16 02:00","2018","09","16","02:00","2.1","","-1.0","","80","","","","24","","15","","24.1","","101.12","","","","","","NA"
"-68.42","58.09","KUUJJUAQ A","7113535","2018-09-16 03:00","2018","09","16","03:00","2.7","","-0.7","","78","","","","25","","21","","24.1","","101.10","","","","","","NA"
"-68.42","58.09","KUUJJUAQ A","7113535","2018-09-16 04:00","2018","09","16","04:00","3.1","","-0.3","","78","","","","25","","23","","24.1","","101.09","","","","","","Mainly Clear"
"-68.42","58.09","KUUJJUAQ A","7113535","2018-09-16 05:00","2018","09","16","05:00","3.2","","-0.2","","78","","","","26","","22","","24.1","","101.11","","","","","","NA"
"-68.42","58.09","KUUJJUAQ A","7113535","2018-09-16 06:00","2018","09","16","06:00","3.0","","-1.0","","75","","","","28","","30","","24.1","","101.16","","","","","","NA"
"-68.42","58.09","KUUJJUAQ A","7113535","2018-09-16 07:00","2018","09","16","07:00","3.7","","-1.3","","70","","","","27","","23","","24.1","","101.17","","","","","","Mostly Cloudy"
"-68.42","58.09","KUUJJUAQ A","7113535","2018-09-16 08:00","2018","09","16","08:00","4.6","","-1.8","","63","","","","28","","21","","24.1","","101.16","","","","","","NA"
"-68.42","58.09","KUUJJUAQ A","7113535","2018-09-16 09:00","2018","09","16","09:00","4.6","","-2.2","","61","","","","28","","25","","24.1","","101.18","","","","","","NA"
"-68.42","58.09","KUUJJUAQ A","7113535","2018-09-16 10:00","2018","09","16","10:00","5.2","","-2.7","","57","","","","28","","24","","24.1","","101.16","","","","","","Mostly Cloudy"
"-68.42","58.09","KUUJJUAQ A","7113535","2018-09-16 11:00","2018","09","16","11:00","7.1","","-2.6","","50","","","","28","","28","","24.1","","101.14","","","","","","NA"
"-68.42","58.09","KUUJJUAQ A","7113535","2018-09-16 12:00","2018","09","16","12:00","5.7","","-3.5","","52","","","","27","","26","","24.1","","101.11","","","","","","NA"
"-68.42","58.09","KUUJJUAQ A","7113535","2018-09-16 13:00","2018","09","16","13:00","5.9","","-2.7","","54","","","","28","","21","","24.1","","101.04","","","","","","Mostly Cloudy"
"-68.42","58.09","KUUJJUAQ A","7113535","2018-09-16 14:00","2018","09","16","14:00","5.7","","-2.7","","55","","","","27","","25","","24.1","","100.96","","","","","","NA"
"-68.42","58.09","KUUJJUAQ A","7113535","2018-09-16 15:00","2018","09","16","15:00","5.9","","-2.4","","55","","","","28","","17","","24.1","","100.90","","","","","","NA"
"-68.42","58.09","KUUJJUAQ A","7113535","2018-09-16 16:00","2018","09","16","16:00","3.2","","1.2","","87","","","","31","","14","","24.1","","100.83","","","","","","Rain Showers"
"-68.42","58.09","KUUJJUAQ A","7113535","2018-09-16 17:00","2018","09","16","17:00","2.9","","1.5","","90","","","","25","","9","","24.1","","100.77","","","","","","NA"
"-68.42","58.09","KUUJJUAQ A","7113535","2018-09-16 18:00","2018","09","16","18:00","2.7","","1.5","","92","","","","24","","14","","24.1","","100.76","","","","","","NA"
"-68.42","58.09","KUUJJUAQ A","7113535","2018-09-16 19:00","2018","09","16","19:00","1.4","","0.6","","94","","","","28","","12","","24.1","","100.82","","","","","","Cloudy"
"-68.42","58.09","KUUJJUAQ A","7113535","2018-09-16 20:00","2018","09","16","20:00","1.5","","0.4","","92","","","","28","","14","","24.1","","100.78","","","","","","NA"
"-68.42","58.09","KUUJJUAQ A","7113535","2018-09-16 21:00","2018","09","16","21:00","0.7","","-0.4","","93","","","","27","","13","","24.1","","100.75","","","","","","NA"
"-68.42","58.09","KUUJJUAQ A","7113535","2018-09-16 22:00","2018","09","16","22:00","0.5","","-0.6","","92","","","","27","","14","","24.1","","100.79","","","","","","Mainly Clear"
"-68.42","58.09","KUUJJUAQ A","7113535","2018-09-16 23:00","2018","09","16","23:00","0.5","","-1.4","","87","","","","28","","16","","24.1","","100.83","","","","","","NA"
"-68.42","58.09","KUUJJUAQ A","7113535","2018-09-17 00:00","2018","09","17","00:00","0.3","","-1.7","","87","","","","29","","18","","24.1","","100.86","","","","","","NA"
"-68.42","58.09","KUUJJUAQ A","7113535","2018-09-17 01:00","2018","09","17","01:00","0.4","","-1.4","","88","","","","29","","17","","24.1","","100.98","","","","","","Mostly Cloudy"
"-68.42","58.09","KUUJJUAQ A","7113535","2018-09-17 02:00","2018","09","17","02:00","-0.3","","-2.0","","88","","","","27","","12","","24.1","","101.05","","","","-4","","NA"
"-68.42","58.09","KUUJJUAQ A","7113535","2018-09-17 03:00","2018","09","17","03:00","-0.5","","-2.1","","89","","","","26","","13","","24.1","","101.11","","","","-5","","NA"
"-68.42","58.09","KUUJJUAQ A","7113535","2018-09-17 04:00","2018","09","17","04:00","0.2","","-1.4","","89","","","","28","","15","","24.1","","101.15","","","","","","Snow"
"-68.42","58.09","KUUJJUAQ A","7113535","2018-09-17 05:00","2018","09","17","05:00","0.8","","-1.7","","84","","","","29","","13","","24.1","","101.19","","","","","","NA"
"-68.42","58.09","KUUJJUAQ A","7113535","2018-09-17 06:00","2018","09","17","06:00","0.6","","-2.5","","80","","","","31","","14","","24.1","","101.22","","","","","","NA"
"-68.42","58.09","KUUJJUAQ A","7113535","2018-09-17 07:00","2018","09","17","07:00","1.4","","-2.0","","78","","","","30","","13","","24.1","","101.28","","","","","","Mostly Cloudy"
"-68.42","58.09","KUUJJUAQ A","7113535","2018-09-17 08:00","2018","09","17","08:00","2.8","","-1.6","","72","","","","30","","17","","24.1","","101.32","","","","","","NA"
"-68.42","58.09","KUUJJUAQ A","7113535","2018-09-17 09:00","2018","09","17","09:00","3.3","","-1.8","","69","","","","30","","19","","24.1","","101.34","","","","","","NA"
"-68.42","58.09","KUUJJUAQ A","7113535","2018-09-17 10:00","2018","09","17","10:00","3.4","","-2.0","","68","","","","33","","17","","24.1","","101.37","","","","","","Mostly Cloudy"
"-68.42","58.09","KUUJJUAQ A","7113535","2018-09-17 11:00","2018","09","17","11:00","4.1","","-3.4","","58","","","","30","","18","","24.1","","101.38","","","","","","NA"
"-68.42","58.09","KUUJJUAQ A","7113535","2018-09-17 12:00","2018","09","17","12:00","4.3","","-3.7","","56","","","","31","","23","","24.1","","101.42","","","","","","NA"
"-68.42","58.09","KUUJJUAQ A","7113535","2018-09-17 13:00","2018","09","17","13:00","3.8","","-4.3","","56","","","","31","","16","","24.1","","101.45","","","","","","Mostly Cloudy"
"-68.42","58.09","KUUJJUAQ A","7113535","2018-09-17 14:00","2018","09","17","14:00","4.9","","-4.9","","49","","","","29","","20","","24.1","","101.48","","","","","","NA"
"-68.42","58.09","KUUJJUAQ A","7113535","2018-09-17 15:00","2018","09","17","15:00","3.9","","-4.2","","56","","","","27","","10","","24.1","","101.50","","","","","","NA"
"-68.42","58.09","KUUJJUAQ A","7113535","2018-09-17 16:00","2018","09","17","16:00","3.8","","-3.6","","58","","","","33","","11","","24.1","","101.52","","","","","","Mostly Cloudy"
"-68.42","58.09","KUUJJUAQ A","7113535","2018-09-17 17:00","2018","09","17","17:00","2.6","","-2.1","","71","","","","31","","8","","24.1","","101.53","","","","","","NA"
"-68.42","58.09","KUUJJUAQ A","7113535","2018-09-17 18:00","2018","09","17","18:00","2.2","","-1.9","","75","","","","35","","9","","24.1","","101.57","","","","","","NA"
"-68.42","58.09","KUUJJUAQ A","7113535","2018-09-17 19:00","2018","09","17","19:00","1.6","","-1.1","","82","","","","34","","12","","24.1","","101.61","","","","","","Mostly Cloudy"
"-68.42","58.09","KUUJJUAQ A","7113535","2018-09-17 20:00","2018","09","17","20:00","-0.3","","-1.3","","93","","","","34","","10","","24.1","","101.66","","","","-4","","NA"
"-68.42","58.09","KUUJJUAQ A","7113535","2018-09-17 21:00","2018","09","17","21:00","0.0","","-1.4","","90","","","","34","","12","","24.1","","101.71","","","","-4","","Snow"
"-68.42","58.09","KUUJJUAQ A","7113535","2018-09-17 22:00","2018","09","17","22:00","-0.4","","-1.5","","92","","","","36","","9","","24.1","","101.74","","","","-4","","Snow"
"-68.42","58.09","KUUJJUAQ A","7113535","2018-09-17 23:00","2018","09","17","23:00","-0.1","","-1.6","","89","","","","36","","7","","24.1","","101.76","","","","-3","","NA"
"-68.42","58.09","KUUJJUAQ A","7113535","2018-09-18 00:00","2018","09","18","00:00","-0.3","","-1.4","","92","","","","33","","7","","24.1","","101.81","","","","-3","","NA"
"-68.42","58.09","KUUJJUAQ A","7113535","2018-09-18 01:00","2018","09","18","01:00","0.1","","-1.2","","91","","","","35","","5","","24.1","","101.83","","","","","","Cloudy"
"-68.42","58.09","KUUJJUAQ A","7113535","2018-09-18 02:00","2018","09","18","02:00","-0.2","","-1.2","","93","","","","32","","4","","24.1","","101.88","","","","-1","","NA"
"-68.42","58.09","KUUJJUAQ A","7113535","2018-09-18 03:00","2018","09","18","03:00","-0.3","","-0.8","","96","","","","34","","6","","24.1","","101.91","","","","-2","","NA"
"-68.42","58.09","KUUJJUAQ A","7113535","2018-09-18 04:00","2018","09","18","04:00","-0.5","","-1.2","","95","","","","36","","8","","24.1","","101.94","","","","-3","","Snow Showers"
"-68.42","58.09","KUUJJUAQ A","7113535","2018-09-18 05:00","2018","09","18","05:00","-0.4","","-1.0","","96","","","","32","","7","","24.1","","101.97","","","","-3","","NA"
"-68.42","58.09","KUUJJUAQ A","7113535","2018-09-18 06:00","2018","09","18","06:00","-1.0","","-1.7","","95","","","","32","","9","","24.1","","102.00","","","","-4","","NA"
"-68.42","58.09","KUUJJUAQ A","7113535","2018-09-18 07:00","2018","09","18","07:00","0.5","","-1.5","","87","","","","32","","4","","24.1","","102.03","","","","","","Mainly Clear"
"-68.42","58.09","KUUJJUAQ A","7113535","2018-09-18 08:00","2018","09","18","08:00","1.8","","-3.0","","70","","","","34","","16","","24.1","","102.04","","","","","","NA"
"-68.42","58.09","KUUJJUAQ A","7113535","2018-09-18 09:00","2018","09","18","09:00","2.1","","-2.1","","74","","","","34","","11","","24.1","","102.05","","","","","","NA"
"-68.42","58.09","KUUJJUAQ A","7113535","2018-09-18 10:00","2018","09","18","10:00","1.7","","-1.6","","79","","","","35","","20","","24.1","","102.07","","","","","","Mostly Cloudy"
"-68.42","58.09","KUUJJUAQ A","7113535","2018-09-18 11:00","2018","09","18","11:00","2.5","","-0.9","","78","","","","31","","12","","24.1","","102.07","","","","","","NA"
"-68.42","58.09","KUUJJUAQ A","7113535","2018-09-18 12:00","2018","09","18","12:00","3.6","","-1.5","","69","","","","10","","9","","24.1","","102.04","","","","","","NA"
"-68.42","58.09","KUUJJUAQ A","7113535","2018-09-18 13:00","2018","09","18","13:00","3.2","","-4.0","","59","","","","4","","10","","24.1","","102.04","","","","","","Mostly Cloudy"
"-68.42","58.09","KUUJJUAQ A","7113535","2018-09-18 14:00","2018","09","18","14:00","4.0","","-4.4","","55","","","","35","","7","","24.1","","102.03","","","","","","NA"
"-68.42","58.09","KUUJJUAQ A","7113535","2018-09-18 15:00","2018","09","18","15:00","3.8","","-3.8","","58","","","","6","","6","","24.1","","102.02","","","","","","NA"
"-68.42","58.09","KUUJJUAQ A","7113535","2018-09-18 16:00","2018","09","18","16:00","3.1","","-3.2","","63","","","","9","","8","","24.1","","102.00","","","","","","Mostly Cloudy"
"-68.42","58.09","KUUJJUAQ A","7113535","2018-09-18 17:00","2018","09","18","17:00","2.4","","-3.5","","65","","","","10","","7","","24.1","","102.03","","","","","","NA"
"-68.42","58.09","KUUJJUAQ A","7113535","2018-09-18 18:00","2018","09","18","18:00","1.8","","-3.6","","67","","","","7","","12","","24.1","","102.06","","","","","","NA"
"-68.42","58.09","KUUJJUAQ A","7113535","2018-09-18 19:00","2018","09","18","19:00","1.7","","-3.5","","68","","","","10","","12","","24.1","","102.08","","","","","","Cloudy"
"-68.42","58.09","KUUJJUAQ A","7113535","2018-09-18 20:00","2018","09","18","20:00","1.5","","-3.6","","69","","","","12","","10","","24.1","","102.10","","","","","","NA"
"-68.42","58.09","KUUJJUAQ A","7113535","2018-09-18 21:00","2018","09","18","21:00","1.4","","-4.1","","67","","","","13","","9","","24.1","","102.09","","","","","","NA"
"-68.42","58.09","KUUJJUAQ A","7113535","2018-09-18 22:00","2018","09","18","22:00","1.4","","-4.3","","66","","","","13","","9","","24.1","","102.07","","","","","","Cloudy"
"-68.42","58.09","KUUJJUAQ A","7113535","2018-09-18 23:00","2018","09","18","23:00","1.4","","-4.0","","67","","","","14","","9","","24.1","","102.06","","","","","","NA"
"-68.42","58.09","KUUJJUAQ A","7113535","2018-09-19 00:00","2018","09","19","00:00","0.9","","-3.3","","73","","","","36","","2","","24.1","","102.05","","","","","","NA"
"-68.42","58.09","KUUJJUAQ A","7113535","2018-09-19 01:00","2018","09","19","01:00","0.9","","-3.5","","72","","","","36","","1","","24.1","","102.05","","","","","","Cloudy"
"-68.42","58.09","KUUJJUAQ A","7113535","2018-09-19 02:00","2018","09","19","02:00","0.4","","-3.0","","78","","","","36","","2","","24.1","","102.05","","","","","","NA"
"-68.42","58.09","KUUJJUAQ A","7113535","2018-09-19 03:00","2018","09","19","03:00","0.6","","-2.5","","79","","","","36","","2","","24.1","","102.05","","","","","","NA"
"-68.42","58.09","KUUJJUAQ A","7113535","2018-09-19 04:00","2018","09","19","04:00","0.4","","-2.4","","82","","","","7","","7","","24.1","","102.03","","","","","","Cloudy"
"-68.42","58.09","KUUJJUAQ A","7113535","2018-09-19 05:00","2018","09","19","05:00","0.3","","-2.5","","82","","","","21","","3","","24.1","","102.05","","","","","","NA"
"-68.42","58.09","KUUJJUAQ A","7113535","2018-09-19 06:00","2018","09","19","06:00","0.4","","-2.5","","81","","","","36","","3","","24.1","","102.06","","","","","","NA"
"-68.42","58.09","KUUJJUAQ A","7113535","2018-09-19 07:00","2018","09","19","07:00","1.1","","-3.0","","74","","","","10","","3","","24.1","","102.07","","","","","","Cloudy"
"-68.42","58.09","KUUJJUAQ A","7113535","2018-09-19 08:00","2018","09","19","08:00","1.4","","-3.1","","72","","","","12","","5","","24.1","","102.07","","","","","","NA"
"-68.42","58.09","KUUJJUAQ A","7113535","2018-09-19 09:00","2018","09","19","09:00","2.3","","-3.1","","68","","","","13","","7","","24.1","","102.05","","","","","","NA"
"-68.42","58.09","KUUJJUAQ A","7113535","2018-09-19 10:00","2018","09","19","10:00","3.3","","-4.1","","58","","","","14","","11","","24.1","","102.00","","","","","","Cloudy"
"-68.42","58.09","KUUJJUAQ A","7113535","2018-09-19 11:00","2018","09","19","11:00","4.5","","-3.5","","56","","","","13","","13","","24.1","","101.93","","","","","","NA"
"-68.42","58.09","KUUJJUAQ A","7113535","2018-09-19 12:00","2018","09","19","12:00","5.8","","-4.2","","49","","","","15","","17","","24.1","","101.87","","","","","","NA"
"-68.42","58.09","KUUJJUAQ A","7113535","2018-09-19 13:00","2018","09","19","13:00","6.5","","-3.7","","48","","","","14","","14","","24.1","","101.82","","","","","","Mostly Cloudy"
"-68.42","58.09","KUUJJUAQ A","7113535","2018-09-19 14:00","2018","09","19","14:00","6.2","","-4.8","","45","","","","14","","9","","24.1","","101.79","","","","","","NA"
"-68.42","58.09","KUUJJUAQ A","7113535","2018-09-19 15:00","2018","09","19","15:00","7.2","","-3.4","","47","","","","17","","10","","24.1","","101.72","","","","","","NA"
"-68.42","58.09","KUUJJUAQ A","7113535","2018-09-19 16:00","2018","09","19","16:00","6.6","","-3.8","","47","","","","15","","10","","24.1","","101.68","","","","","","Mostly Cloudy"
"-68.42","58.09","KUUJJUAQ A","7113535","2018-09-19 17:00","2018","09","19","17:00","5.5","","-3.3","","53","","","","10","","12","","24.1","","101.66","","","","","","NA"
"-68.42","58.09","KUUJJUAQ A","7113535","2018-09-19 18:00","2018","09","19","18:00","4.1","","-2.2","","63","","","","9","","16","","24.1","","101.63","","","","","","NA"
"-68.42","58.09","KUUJJUAQ A","7113535","2018-09-19 19:00","2018","09","19","19:00","2.9","","-2.1","","70","","","","9","","9","","24.1","","101.62","","","","","","Mainly Clear"
"-68.42","58.09","KUUJJUAQ A","7113535","2018-09-19 20:00","2018","09","19","20:00","2.3","","-2.9","","69","","","","9","","13","","24.1","","101.61","","","","","","NA"
"-68.42","58.09","KUUJJUAQ A","7113535","2018-09-19 21:00","2018","09","19","21:00","1.4","","-2.8","","73","","","","9","","9","","24.1","","101.54","","","","","","NA"
"-68.42","58.09","KUUJJUAQ A","7113535","2018-09-19 22:00","2018","09","19","22:00","1.2","","-3.0","","73","","","","11","","8","","24.1","","101.48","","","","","","Clear"
"-68.42","58.09","KUUJJUAQ A","7113535","2018-09-19 23:00","2018","09","19","23:00","0.7","","-2.8","","77","","","","8","","8","","24.1","","101.42","","","","","","NA"
"-68.42","58.09","KUUJJUAQ A","7113535","2018-09-20 00:00","2018","09","20","00:00","1.5","","-3.2","","71","","","","14","","12","","24.1","","101.36","","","","","","NA"
"-68.42","58.09","KUUJJUAQ A","7113535","2018-09-20 01:00","2018","09","20","01:00","1.2","","-3.1","","73","","","","15","","9","","24.1","","101.29","","","","","","Clear"
"-68.42","58.09","KUUJJUAQ A","7113535","2018-09-20 02:00","2018","09","20","02:00","1.2","","-2.8","","75","","","","13","","11","","24.1","","101.23","","","","","","NA"
"-68.42","58.09","KUUJJUAQ A","7113535","2018-09-20 03:00","2018","09","20","03:00","1.1","","-2.1","","79","","","","13","","6","","24.1","","101.15","","","","","","NA"
"-68.42","58.09","KUUJJUAQ A","7113535","2018-09-20 04:00","2018","09","20","04:00","1.4","","-2.0","","78","","","","36","","3","","24.1","","101.08","","","","","","Mostly Cloudy"
"-68.42","58.09","KUUJJUAQ A","7113535","2018-09-20 05:00","2018","09","20","05:00","1.4","","-2.4","","76","","","","36","","2","","24.1","","101.01","","","","","","NA"
"-68.42","58.09","KUUJJUAQ A","7113535","2018-09-20 06:00","2018","09","20","06:00","1.4","","-1.5","","81","","","","22","","5","","24.1","","100.96","","","","","","NA"
"-68.42","58.09","KUUJJUAQ A","7113535","2018-09-20 07:00","2018","09","20","07:00","2.5","","-0.5","","81","","","","21","","8","","24.1","","100.90","","","","","","Mostly Cloudy"
"-68.42","58.09","KUUJJUAQ A","7113535","2018-09-20 08:00","2018","09","20","08:00","4.3","","0.6","","77","","","","21","","8","","24.1","","100.87","","","","","","NA"
"-68.42","58.09","KUUJJUAQ A","7113535","2018-09-20 09:00","2018","09","20","09:00","6.4","","1.3","","70","","","","21","","11","","24.1","","100.86","","","","","","NA"
"-68.42","58.09","KUUJJUAQ A","7113535","2018-09-20 10:00","2018","09","20","10:00","7.2","","1.5","","67","","","","23","","9","","24.1","","100.82","","","","","","Cloudy"
"-68.42","58.09","KUUJJUAQ A","7113535","2018-09-20 11:00","2018","09","20","11:00","8.9","","1.8","","61","","","","24","","14","","24.1","","100.76","","","","","","NA"
"-68.42","58.09","KUUJJUAQ A","7113535","2018-09-20 12:00","2018","09","20","12:00","5.9","","4.0","","88","","","","25","","16","","19.3","","100.78","","","","","","Rain"
"-68.42","58.09","KUUJJUAQ A","7113535","2018-09-20 13:00","2018","09","20","13:00","5.6","","4.5","","92","","","","24","","13","","19.3","","100.76","","","","","","Rain"
"-68.42","58.09","KUUJJUAQ A","7113535","2018-09-20 14:00","2018","09","20","14:00","5.5","","4.5","","93","","","","23","","11","","19.3","","100.73","","","","","","Rain"
"-68.42","58.09","KUUJJUAQ A","7113535","2018-09-20 15:00","2018","09","20","15:00","5.8","","4.5","","91","","","","24","","9","","24.1","","100.72","","","","","","Rain"
"-68.42","58.09","KUUJJUAQ A","7113535","2018-09-20 16:00","2018","09","20","16:00","5.5","","4.6","","93","","","","25","","12","","19.3","","100.73","","","","","","Rain"
"-68.42","58.09","KUUJJUAQ A","7113535","2018-09-20 17:00","2018","09","20","17:00","5.2","","4.0","","92","","","","31","","8","","24.1","","100.79","","","","","","Rain"
"-68.42","58.09","KUUJJUAQ A","7113535","2018-09-20 18:00","2018","09","20","18:00","4.3","","3.1","","92","","","","30","","11","","24.1","","100.85","","","","","","Rain"
"-68.42","58.09","KUUJJUAQ A","7113535","2018-09-20 19:00","2018","09","20","19:00","3.9","","2.8","","93","","","","28","","8","","24.1","","100.96","","","","","","Mostly Cloudy"
"-68.42","58.09","KUUJJUAQ A","7113535","2018-09-20 20:00","2018","09","20","20:00","3.0","","1.7","","92","","","","27","","13","","24.1","","101.02","","","","","","NA"
"-68.42","58.09","KUUJJUAQ A","7113535","2018-09-20 21:00","2018","09","20","21:00","2.3","","0.8","","90","","","","26","","14","","24.1","","101.07","","","","","","NA"
"-68.42","58.09","KUUJJUAQ A","7113535","2018-09-20 22:00","2018","09","20","22:00","1.5","","0.3","","91","","","","26","","14","","24.1","","101.10","","","","","","Clear"
"-68.42","58.09","KUUJJUAQ A","7113535","2018-09-20 23:00","2018","09","20","23:00","1.6","","0.6","","94","","","","24","","11","","24.1","","101.16","","","","","","NA"
"-68.42","58.09","KUUJJUAQ A","7113535","2018-09-21 00:00","2018","09","21","00:00","2.5","","1.1","","91","","","","26","","12","","24.1","","101.18","","","","","","NA"
"-68.42","58.09","KUUJJUAQ A","7113535","2018-09-21 01:00","2018","09","21","01:00","2.1","","1.0","","92","","","","27","","21","","16.1","","101.25","","","","","","Rain"
"-68.42","58.09","KUUJJUAQ A","7113535","2018-09-21 02:00","2018","09","21","02:00","1.0","","-0.7","","89","","","","28","","19","","24.1","","101.36","","","","","","Rain"
"-68.42","58.09","KUUJJUAQ A","7113535","2018-09-21 03:00","2018","09","21","03:00","-0.5","","-3.1","","83","","","","26","","17","","24.1","","101.47","","","","-5","","NA"
"-68.42","58.09","KUUJJUAQ A","7113535","2018-09-21 04:00","2018","09","21","04:00","-1.1","","-3.3","","85","","","","26","","13","","24.1","","101.50","","","","-5","","Mainly Clear"
"-68.42","58.09","KUUJJUAQ A","7113535","2018-09-21 05:00","2018","09","21","05:00","-1.5","","-3.5","","86","","","","22","","3","","24.1","","101.49","","","","-3","","NA"
"-68.42","58.09","KUUJJUAQ A","7113535","2018-09-21 06:00","2018","09","21","06:00","-1.4","","-3.0","","89","","","","21","","9","","24.1","","101.42","","","","-5","","NA"
"-68.42","58.09","KUUJJUAQ A","7113535","2018-09-21 07:00","2018","09","21","07:00","-0.6","","-2.5","","86","","","","22","","13","","24.1","","101.44","","","","-5","","Mostly Cloudy"
"-68.42","58.09","KUUJJUAQ A","7113535","2018-09-21 08:00","2018","09","21","08:00","1.4","","-2.3","","76","","","","22","","18","","24.1","","101.40","","","","","","NA"
"-68.42","58.09","KUUJJUAQ A","7113535","2018-09-21 09:00","2018","09","21","09:00","1.8","","-1.9","","77","","","","21","","13","","24.1","","101.37","","","","","","NA"
"-68.42","58.09","KUUJJUAQ A","7113535","2018-09-21 10:00","2018","09","21","10:00","3.2","","-2.2","","68","","","","21","","12","","24.1","","101.27","","","","","","Mostly Cloudy"
"-68.42","58.09","KUUJJUAQ A","7113535","2018-09-21 11:00","2018","09","21","11:00","5.8","","-3.3","","52","","","","26","","13","","24.1","","101.13","","","","","","NA"
"-68.42","58.09","KUUJJUAQ A","7113535","2018-09-21 12:00","2018","09","21","12:00","6.1","","-4.1","","48","","","","21","","22","","24.1","","100.97","","","","","","NA"
"-68.42","58.09","KUUJJUAQ A","7113535","2018-09-21 13:00","2018","09","21","13:00","6.4","","-4.9","","44","","","","21","","20","","24.1","","100.89","","","","","","Mostly Cloudy"
"-68.42","58.09","KUUJJUAQ A","7113535","2018-09-21 14:00","2018","09","21","14:00","6.9","","-4.5","","44","","","","23","","9","","24.1","","100.73","","","","","","NA"
"-68.42","58.09","KUUJJUAQ A","7113535","2018-09-21 15:00","2018","09","21","15:00","6.4","","-4.8","","45","","","","19","","13","","24.1","","100.62","","","","","","NA"
"-68.42","58.09","KUUJJUAQ A","7113535","2018-09-21 16:00","2018","09","21","16:00","6.2","","-4.9","","45","","","","19","","12","","24.1","","100.48","","","","","","Mostly Cloudy"
"-68.42","58.09","KUUJJUAQ A","7113535","2018-09-21 17:00","2018","09","21","17:00","5.3","","-3.8","","52","","","","18","","12","","24.1","","100.40","","","","","","NA"
"-68.42","58.09","KUUJJUAQ A","7113535","2018-09-21 18:00","2018","09","21","18:00","4.3","","-3.0","","59","","","","13","","8","","24.1","","100.29","","","","","","NA"
"-68.42","58.09","KUUJJUAQ A","7113535","2018-09-21 19:00","2018","09","21","19:00","4.1","","-2.5","","62","","","","10","","12","","24.1","","100.14","","","","","","Cloudy"
"-68.42","58.09","KUUJJUAQ A","7113535","2018-09-21 20:00","2018","09","21","20:00","3.8","","-3.1","","61","","","","9","","14","","24.1","","100.01","","","","","","NA"
"-68.42","58.09","KUUJJUAQ A","7113535","2018-09-21 21:00","2018","09","21","21:00","3.8","","-3.2","","60","","","","9","","12","","24.1","","99.86","","","","","","NA"
"-68.42","58.09","KUUJJUAQ A","7113535","2018-09-21 22:00","2018","09","21","22:00","3.5","","-3.2","","62","","","","4","","10","","24.1","","99.71","","","","","","Cloudy"
"-68.42","58.09","KUUJJUAQ A","7113535","2018-09-21 23:00","2018","09","21","23:00","2.9","","-2.6","","67","","","","7","","15","","24.1","","99.52","","","","","","NA"
"-68.42","58.09","KUUJJUAQ A","7113535","2018-09-22 00:00","2018","09","22","00:00","2.8","","-2.7","","67","","","","6","","17","","24.1","","99.33","","","","","","NA"
"-68.42","58.09","KUUJJUAQ A","7113535","2018-09-22 01:00","2018","09","22","01:00","2.7","","-2.6","","68","","","","10","","21","","24.1","","99.21","","","","","","Cloudy"
"-68.42","58.09","KUUJJUAQ A","7113535","2018-09-22 02:00","2018","09","22","02:00","1.1","","-0.7","","88","","","","9","","21","","4.8","","99.09","","","","","","Snow"
"-68.42","58.09","KUUJJUAQ A","7113535","2018-09-22 03:00","2018","09","22","03:00","0.5","","-0.2","","96","","","","3","","14","","4.8","","99.01","","","","","","Snow"
"-68.42","58.09","KUUJJUAQ A","7113535","2018-09-22 04:00","2018","09","22","04:00","0.5","","-0.1","","96","","","","2","","16","","4.8","","98.94","","","","","","Snow"
"-68.42","58.09","KUUJJUAQ A","7113535","2018-09-22 05:00","2018","09","22","05:00","0.4","","-0.2","","96","","","","4","","17","","4.8","","98.92","","","","","","Snow"
"-68.42","58.09","KUUJJUAQ A","7113535","2018-09-22 06:00","2018","09","22","06:00","0.4","","-0.1","","97","","","","3","","22","","3.2","","98.95","","","","","","Snow"
"-68.42","58.09","KUUJJUAQ A","7113535","2018-09-22 07:00","2018","09","22","07:00","0.4","","-0.1","","97","","","","1","","22","","4.0","","98.97","","","","","","Snow"
"-68.42","58.09","KUUJJUAQ A","7113535","2018-09-22 08:00","2018","09","22","08:00","0.5","","-0.3","","95","","","","1","","21","","9.7","","98.99","","","","","","Snow"
"-68.42","58.09","KUUJJUAQ A","7113535","2018-09-22 09:00","2018","09","22","09:00","0.7","","-0.2","","93","","","","36","","22","","12.9","","99.01","","","","","","Snow"
"-68.42","58.09","KUUJJUAQ A","7113535","2018-09-22 10:00","2018","09","22","10:00","1.3","","-0.3","","89","","","","36","","32","","12.9","","99.04","","","","","","Snow"
"-68.42","58.09","KUUJJUAQ A","7113535","2018-09-22 11:00","2018","09","22","11:00","2.2","","-1.0","","80","","","","36","","20","","19.3","","99.07","","","","","","Snow"
"-68.42","58.09","KUUJJUAQ A","7113535","2018-09-22 12:00","2018","09","22","12:00","3.0","","-0.8","","76","","","","35","","24","","24.1","","99.12","","","","","","NA"
"-68.42","58.09","KUUJJUAQ A","7113535","2018-09-22 13:00","2018","09","22","13:00","2.7","","-1.3","","74","","","","34","","27","","24.1","","99.21","","","","","","Cloudy"
"-68.42","58.09","KUUJJUAQ A","7113535","2018-09-22 14:00","2018","09","22","14:00","2.7","","-1.8","","72","","","","34","","26","","24.1","","99.27","","","","","","NA"
"-68.42","58.09","KUUJJUAQ A","7113535","2018-09-22 15:00","2018","09","22","15:00","2.4","","-2.5","","70","","","","33","","21","","24.1","","99.33","","","","","","NA"
"-68.42","58.09","KUUJJUAQ A","7113535","2018-09-22 16:00","2018","09","22","16:00","2.1","","-2.5","","72","","","","32","","25","","24.1","","99.41","","","","","","Cloudy"
"-68.42","58.09","KUUJJUAQ A","7113535","2018-09-22 17:00","2018","09","22","17:00","1.5","","-2.0","","77","","","","32","","14","","24.1","","99.43","","","","","","NA"
"-68.42","58.09","KUUJJUAQ A","7113535","2018-09-22 18:00","2018","09","22","18:00","0.6","","-1.7","","84","","","","30","","9","","24.1","","99.48","","","","","","NA"
"-68.42","58.09","KUUJJUAQ A","7113535","2018-09-22 19:00","2018","09","22","19:00","0.1","","-1.3","","90","","","","27","","8","","24.1","","99.52","","","","","","Snow"
"-68.42","58.09","KUUJJUAQ A","7113535","2018-09-22 20:00","2018","09","22","20:00","0.0","","-0.7","","95","","","","27","","9","","16.1","","99.51","","","","-3","","Snow"
"-68.42","58.09","KUUJJUAQ A","7113535","2018-09-22 21:00","2018","09","22","21:00","-0.4","","-1.0","","95","","","","28","","13","","16.1","","99.50","","","","-5","","Snow"
"-68.42","58.09","KUUJJUAQ A","7113535","2018-09-22 22:00","2018","09","22","22:00","-0.3","","-1.1","","94","","","","30","","19","","16.1","","99.49","","","","-5","","Snow"
"-68.42","58.09","KUUJJUAQ A","7113535","2018-09-22 23:00","2018","09","22","23:00","-0.4","","-1.7","","91","","","","28","","16","","24.1","","99.47","","","","-5","","Snow"
"-68.42","58.09","KUUJJUAQ A","7113535","2018-09-23 00:00","2018","09","23","00:00","-0.3","","-1.6","","91","","","","28","","13","","19.3","","99.47","","","","-4","","Snow"
"-68.42","58.09","KUUJJUAQ A","7113535","2018-09-23 01:00","2018","09","23","01:00","-1.1","","-1.7","","96","","","","24","","7","","24.1","","99.46","","","","-4","","Snow"
"-68.42","58.09","KUUJJUAQ A","7113535","2018-09-23 02:00","2018","09","23","02:00","-0.2","","-1.8","","90","","","","29","","10","","24.1","","99.47","","","","-4","","Snow"
"-68.42","58.09","KUUJJUAQ A","7113535","2018-09-23 03:00","2018","09","23","03:00","-0.5","","-1.9","","90","","","","28","","9","","19.3","","99.49","","","","-4","","Snow"
"-68.42","58.09","KUUJJUAQ A","7113535","2018-09-23 04:00","2018","09","23","04:00","-0.5","","-1.4","","94","","","","27","","11","","24.1","","99.51","","","","-4","","Snow"
"-68.42","58.09","KUUJJUAQ A","7113535","2018-09-23 05:00","2018","09","23","05:00","-0.7","","-1.4","","95","","","","27","","10","","16.1","","99.52","","","","-4","","Snow"
"-68.42","58.09","KUUJJUAQ A","7113535","2018-09-23 06:00","2018","09","23","06:00","-0.7","","-1.2","","96","","","","25","","10","","12.9","","99.55","","","","-4","","Snow"
"-68.42","58.09","KUUJJUAQ A","7113535","2018-09-23 07:00","2018","09","23","07:00","0.0","","-0.7","","95","","","","26","","13","","6.4","","99.57","","","","-4","","Snow"
"-68.42","58.09","KUUJJUAQ A","7113535","2018-09-23 08:00","2018","09","23","08:00","0.2","","-2.8","","81","","","","31","","23","","24.1","","99.64","","","","","","NA"
"-68.42","58.09","KUUJJUAQ A","7113535","2018-09-23 09:00","2018","09","23","09:00","0.8","","-3.0","","76","","","","29","","25","","24.1","","99.67","","","","","","NA"
"-68.42","58.09","KUUJJUAQ A","7113535","2018-09-23 10:00","2018","09","23","10:00","1.0","","-2.4","","78","","","","29","","21","","24.1","","99.74","","","","","","Snow"
"-68.42","58.09","KUUJJUAQ A","7113535","2018-09-23 11:00","2018","09","23","11:00","1.2","","-1.3","","83","","","","31","","22","","6.4","","99.80","","","","","","Snow"
"-68.42","58.09","KUUJJUAQ A","7113535","2018-09-23 12:00","2018","09","23","12:00","2.2","","-0.8","","81","","","","30","","26","","24.1","","99.86","","","","","","Snow"
"-68.42","58.09","KUUJJUAQ A","7113535","2018-09-23 13:00","2018","09","23","13:00","2.7","","-0.2","","81","","","","30","","22","","24.1","","99.95","","","","","","Snow"
"-68.42","58.09","KUUJJUAQ A","7113535","2018-09-23 14:00","2018","09","23","14:00","3.8","","-1.5","","68","","","","30","","27","","24.1","","100.01","","","","","","Snow"
"-68.42","58.09","KUUJJUAQ A","7113535","2018-09-23 15:00","2018","09","23","15:00","0.6","","-0.3","","94","","","","30","","27","","24.1","","100.16","","","","","","Snow Showers"
"-68.42","58.09","KUUJJUAQ A","7113535","2018-09-23 16:00","2018","09","23","16:00","1.4","","-0.1","","90","","","","30","","22","","24.1","","100.26","","","","","","Mostly Cloudy"
"-68.42","58.09","KUUJJUAQ A","7113535","2018-09-23 17:00","2018","09","23","17:00","1.3","","-1.0","","85","","","","31","","21","","24.1","","100.39","","","","","","NA"
"-68.42","58.09","KUUJJUAQ A","7113535","2018-09-23 18:00","2018","09","23","18:00","1.2","","-1.2","","84","","","","31","","22","","24.1","","100.51","","","","","","NA"
"-68.42","58.09","KUUJJUAQ A","7113535","2018-09-23 19:00","2018","09","23","19:00","1.3","","-0.9","","85","","","","31","","16","","24.1","","100.64","","","","","","Cloudy"
"-68.42","58.09","KUUJJUAQ A","7113535","2018-09-23 20:00","2018","09","23","20:00","1.5","","-1.2","","82","","","","32","","27","","19.3","","100.76","","","","","","Snow"
"-68.42","58.09","KUUJJUAQ A","7113535","2018-09-23 21:00","2018","09","23","21:00","1.0","","-0.5","","90","","","","32","","26","","24.1","","100.88","","","","","","Snow"
"-68.42","58.09","KUUJJUAQ A","7113535","2018-09-23 22:00","2018","09","23","22:00","1.2","","-0.8","","87","","","","32","","25","","24.1","","101.01","","","","","","Snow"
"-68.42","58.09","KUUJJUAQ A","7113535","2018-09-23 23:00","2018","09","23","23:00","1.1","","-1.0","","86","","","","32","","18","","24.1","","101.12","","","","","","Snow"
"-68.42","58.09","KUUJJUAQ A","7113535","2018-09-24 00:00","2018","09","24","00:00","1.0","","-1.2","","85","","","","30","","21","","24.1","","101.22","","","","","","NA"
"-68.42","58.09","KUUJJUAQ A","7113535","2018-09-24 01:00","2018","09","24","01:00","1.0","","-1.9","","81","","","","30","","26","","24.1","","101.31","","","","","","Cloudy"
"-68.42","58.09","KUUJJUAQ A","7113535","2018-09-24 02:00","2018","09","24","02:00","0.4","","-2.7","","80","","","","30","","27","","24.1","","101.42","","","","","","NA"
"-68.42","58.09","KUUJJUAQ A","7113535","2018-09-24 03:00","2018","09","24","03:00","-0.1","","-2.1","","86","","","","31","","30","","19.3","","101.55","","","","-7","","Snow Showers"
"-68.42","58.09","KUUJJUAQ A","7113535","2018-09-24 04:00","2018","09","24","04:00","0.2","","-3.5","","77","","","","31","","25","","24.1","","101.68","","","","","","Snow Showers"
"-68.42","58.09","KUUJJUAQ A","7113535","2018-09-24 05:00","2018","09","24","05:00","0.3","","-4.7","","69","","","","31","","20","","24.1","","101.80","","","","","","NA"
"-68.42","58.09","KUUJJUAQ A","7113535","2018-09-24 06:00","2018","09","24","06:00","0.2","","-5.9","","64","","","","30","","26","","24.1","","101.93","","","","","","NA"
"-68.42","58.09","KUUJJUAQ A","7113535","2018-09-24 07:00","2018","09","24","07:00","0.1","","-4.1","","73","","","","29","","18","","24.1","","102.05","","","","","","Mostly Cloudy"
"-68.42","58.09","KUUJJUAQ A","7113535","2018-09-24 08:00","2018","09","24","08:00","1.2","","-3.8","","69","","","","29","","17","","24.1","","102.09","","","","","","NA"
"-68.42","58.09","KUUJJUAQ A","7113535","2018-09-24 09:00","2018","09","24","09:00","1.6","","-3.5","","69","","","","28","","21","","24.1","","102.13","","","","","","NA"
"-68.42","58.09","KUUJJUAQ A","7113535","2018-09-24 10:00","2018","09","24","10:00","2.4","","-3.0","","68","","","","28","","22","","24.1","","102.13","","","","","","Cloudy"
"-68.42","58.09","KUUJJUAQ A","7113535","2018-09-24 11:00","2018","09","24","11:00","2.9","","-3.0","","65","","","","28","","26","","24.1","","102.14","","","","","","NA"
"-68.42","58.09","KUUJJUAQ A","7113535","2018-09-24 12:00","2018","09","24","12:00","3.1","","-3.0","","64","","","","27","","27","","24.1","","102.17","","","","","","NA"
"-68.42","58.09","KUUJJUAQ A","7113535","2018-09-24 13:00","2018","09","24","13:00","3.8","","-2.0","","66","","","","28","","19","","24.1","","102.19","","","","","","Mostly Cloudy"
"-68.42","58.09","KUUJJUAQ A","7113535","2018-09-24 14:00","2018","09","24","14:00","2.2","","-0.6","","82","","","","29","","22","","24.1","","102.23","","","","","","Snow Showers"
"-68.42","58.09","KUUJJUAQ A","7113535","2018-09-24 15:00","2018","09","24","15:00","3.8","","-1.5","","69","","","","26","","23","","24.1","","102.22","","","","","","NA"
"-68.42","58.09","KUUJJUAQ A","7113535","2018-09-24 16:00","2018","09","24","16:00","3.4","","-1.1","","73","","","","27","","25","","24.1","","102.27","","","","","","Snow Showers"
"-68.42","58.09","KUUJJUAQ A","7113535","2018-09-24 17:00","2018","09","24","17:00","2.7","","-0.7","","79","","","","26","","17","","24.1","","102.27","","","","","","NA"
"-68.42","58.09","KUUJJUAQ A","7113535","2018-09-24 18:00","2018","09","24","18:00","2.3","","-0.4","","82","","","","27","","15","","24.1","","102.32","","","","","","NA"
"-68.42","58.09","KUUJJUAQ A","7113535","2018-09-24 19:00","2018","09","24","19:00","1.8","","-0.7","","84","","","","24","","13","","24.1","","102.32","","","","","","Mainly Clear"
"-68.42","58.09","KUUJJUAQ A","7113535","2018-09-24 20:00","2018","09","24","20:00","1.0","","-1.0","","86","","","","24","","12","","24.1","","102.32","","","","","","NA"
"-68.42","58.09","KUUJJUAQ A","7113535","2018-09-24 21:00","2018","09","24","21:00","1.0","","-1.0","","87","","","","25","","17","","24.1","","102.32","","","","","","NA"
"-68.42","58.09","KUUJJUAQ A","7113535","2018-09-24 22:00","2018","09","24","22:00","0.8","","-1.1","","87","","","","24","","17","","24.1","","102.32","","","","","","Mainly Clear"
"-68.42","58.09","KUUJJUAQ A","7113535","2018-09-24 23:00","2018","09","24","23:00","0.8","","-1.0","","88","","","","25","","16","","24.1","","102.33","","","","","","NA"
"-68.42","58.09","KUUJJUAQ A","7113535","2018-09-25 00:00","2018","09","25","00:00","0.1","","-1.3","","90","","","","24","","15","","24.1","","102.33","","","","","","NA"
"-68.42","58.09","KUUJJUAQ A","7113535","2018-09-25 01:00","2018","09","25","01:00","-0.3","","-1.5","","92","","","","24","","12","","24.1","","102.32","","","","-4","","Clear"
"-68.42","58.09","KUUJJUAQ A","7113535","2018-09-25 02:00","2018","09","25","02:00","-1.1","","-1.8","","95","","","","24","","10","","24.1","","102.29","","","","-5","","NA"
"-68.42","58.09","KUUJJUAQ A","7113535","2018-09-25 03:00","2018","09","25","03:00","-1.1","","-2.0","","94","","","","17","","7","","24.1","","102.22","","","","-4","","NA"
"-68.42","58.09","KUUJJUAQ A","7113535","2018-09-25 04:00","2018","09","25","04:00","-1.1","","-2.1","","93","","","","20","","11","","24.1","","102.18","","","","-5","","Mostly Cloudy"
"-68.42","58.09","KUUJJUAQ A","7113535","2018-09-25 05:00","2018","09","25","05:00","-0.8","","-2.5","","89","","","","22","","15","","24.1","","102.10","","","","-5","","NA"
"-68.42","58.09","KUUJJUAQ A","7113535","2018-09-25 06:00","2018","09","25","06:00","-0.6","","-2.1","","90","","","","21","","8","","24.1","","102.03","","","","-3","","NA"
"-68.42","58.09","KUUJJUAQ A","7113535","2018-09-25 07:00","2018","09","25","07:00","0.9","","-1.8","","82","","","","17","","12","","24.1","","101.84","","","","","","Mostly Cloudy"
"-68.42","58.09","KUUJJUAQ A","7113535","2018-09-25 08:00","2018","09","25","08:00","2.0","","-2.5","","72","","","","16","","20","","24.1","","101.67","","","","","","NA"
"-68.42","58.09","KUUJJUAQ A","7113535","2018-09-25 09:00","2018","09","25","09:00","2.7","","-2.6","","68","","","","16","","19","","24.1","","101.52","","","","","","NA"
"-68.42","58.09","KUUJJUAQ A","7113535","2018-09-25 10:00","2018","09","25","10:00","3.1","","-2.2","","68","","","","15","","13","","24.1","","101.33","","","","","","Cloudy"
"-68.42","58.09","KUUJJUAQ A","7113535","2018-09-25 11:00","2018","09","25","11:00","3.4","","-2.2","","67","","","","15","","25","","19.3","","101.08","","","","","","Snow Showers"
"-68.42","58.09","KUUJJUAQ A","7113535","2018-09-25 12:00","2018","09","25","12:00","1.7","","0.1","","89","","","","14","","18","","12.9","","100.89","","","","","","Snow"
"-68.42","58.09","KUUJJUAQ A","7113535","2018-09-25 13:00","2018","09","25","13:00","0.9","","0.4","","96","","","","14","","13","","4.0","","100.73","","","","","","Snow"
"-68.42","58.09","KUUJJUAQ A","7113535","2018-09-25 14:00","2018","09","25","14:00","1.6","","1.0","","96","","","","13","","13","","16.1","","100.53","","","","","","Snow"
"-68.42","58.09","KUUJJUAQ A","7113535","2018-09-25 15:00","2018","09","25","15:00","2.5","","1.6","","94","","","","16","","12","","19.3","","100.35","","","","","","Snow"
"-68.42","58.09","KUUJJUAQ A","7113535","2018-09-25 16:00","2018","09","25","16:00","2.7","","1.7","","93","","","","18","","12","","24.1","","100.21","","","","","","Rain,Snow"
"-68.42","58.09","KUUJJUAQ A","7113535","2018-09-25 17:00","2018","09","25","17:00","2.8","","1.9","","94","","","","17","","16","","19.3","","100.11","","","","","","Rain,Snow"
"-68.42","58.09","KUUJJUAQ A","7113535","2018-09-25 18:00","2018","09","25","18:00","3.0","","2.1","","94","","","","17","","22","","24.1","","99.96","","","","","","Rain,Snow"
"-68.42","58.09","KUUJJUAQ A","7113535","2018-09-25 19:00","2018","09","25","19:00","3.3","","2.4","","94","","","","18","","21","","24.1","","99.83","","","","","","Cloudy"
"-68.42","58.09","KUUJJUAQ A","7113535","2018-09-25 20:00","2018","09","25","20:00","3.6","","2.7","","94","","","","20","","16","","24.1","","99.78","","","","","","NA"
"-68.42","58.09","KUUJJUAQ A","7113535","2018-09-25 21:00","2018","09","25","21:00","3.5","","2.9","","96","","","","20","","9","","24.1","","99.65","","","","","","NA"
"-68.42","58.09","KUUJJUAQ A","7113535","2018-09-25 22:00","2018","09","25","22:00","3.7","","3.3","","97","","","","21","","10","","19.3","","99.55","","","","","","Rain"
"-68.42","58.09","KUUJJUAQ A","7113535","2018-09-25 23:00","2018","09","25","23:00","3.9","","3.6","","98","","","","21","","13","","19.3","","99.47","","","","","","Rain"
"-68.42","58.09","KUUJJUAQ A","7113535","2018-09-26 00:00","2018","09","26","00:00","3.9","","3.6","","98","","","","21","","14","","19.3","","99.40","","","","","","Rain"
"-68.42","58.09","KUUJJUAQ A","7113535","2018-09-26 01:00","2018","09","26","01:00","4.0","","3.8","","98","","","","22","","11","","19.3","","99.38","","","","","","Rain"
"-68.42","58.09","KUUJJUAQ A","7113535","2018-09-26 02:00","2018","09","26","02:00","4.6","","4.4","","99","","","","24","","10","","24.1","","99.36","","","","","","NA"
"-68.42","58.09","KUUJJUAQ A","7113535","2018-09-26 03:00","2018","09","26","03:00","4.8","","4.5","","98","","","","25","","12","","24.1","","99.35","","","","","","NA"
"-68.42","58.09","KUUJJUAQ A","7113535","2018-09-26 04:00","2018","09","26","04:00","4.9","","4.6","","98","","","","25","","13","","24.1","","99.39","","","","","","Cloudy"
"-68.42","58.09","KUUJJUAQ A","7113535","2018-09-26 05:00","2018","09","26","05:00","4.1","","3.3","","94","","","","25","","10","","24.1","","99.45","","","","","","NA"
"-68.42","58.09","KUUJJUAQ A","7113535","2018-09-26 06:00","2018","09","26","06:00","3.7","","2.9","","94","","","","24","","14","","24.1","","99.47","","","","","","NA"
"-68.42","58.09","KUUJJUAQ A","7113535","2018-09-26 07:00","2018","09","26","07:00","3.6","","2.7","","93","","","","22","","14","","24.1","","99.52","","","","","","Cloudy"
"-68.42","58.09","KUUJJUAQ A","7113535","2018-09-26 08:00","2018","09","26","08:00","3.8","","2.5","","91","","","","24","","18","","24.1","","99.48","","","","","","NA"
"-68.42","58.09","KUUJJUAQ A","7113535","2018-09-26 09:00","2018","09","26","09:00","4.2","","2.5","","89","","","","22","","13","","24.1","","99.44","","","","","","NA"
"-68.42","58.09","KUUJJUAQ A","7113535","2018-09-26 10:00","2018","09","26","10:00","4.6","","2.4","","86","","","","22","","13","","24.1","","99.35","","","","","","Cloudy"
"-68.42","58.09","KUUJJUAQ A","7113535","2018-09-26 11:00","2018","09","26","11:00","4.9","","2.6","","85","","","","23","","13","","24.1","","99.33","","","","","","NA"
"-68.42","58.09","KUUJJUAQ A","7113535","2018-09-26 12:00","2018","09","26","12:00","5.0","","2.6","","85","","","","22","","10","","24.1","","99.28","","","","","","NA"
"-68.42","58.09","KUUJJUAQ A","7113535","2018-09-26 13:00","2018","09","26","13:00","5.1","","2.6","","84","","","","22","","12","","24.1","","99.18","","","","","","Cloudy"
"-68.42","58.09","KUUJJUAQ A","7113535","2018-09-26 14:00","2018","09","26","14:00","5.1","","2.9","","85","","","","23","","9","","24.1","","99.13","","","","","","NA"
"-68.42","58.09","KUUJJUAQ A","7113535","2018-09-26 15:00","2018","09","26","15:00","5.1","","2.8","","85","","","","23","","7","","24.1","","99.08","","","","","","NA"
"-68.42","58.09","KUUJJUAQ A","7113535","2018-09-26 16:00","2018","09","26","16:00","4.9","","2.8","","86","","","","36","","2","","24.1","","98.93","","","","","","Cloudy"
"-68.42","58.09","KUUJJUAQ A","7113535","2018-09-26 17:00","2018","09","26","17:00","4.4","","3.2","","92","","","","2","","7","","19.3","","98.85","","","","","","Rain"
"-68.42","58.09","KUUJJUAQ A","7113535","2018-09-26 18:00","2018","09","26","18:00","4.0","","3.4","","96","","","","35","","3","","24.1","","98.85","","","","","","Rain"
"-68.42","58.09","KUUJJUAQ A","7113535","2018-09-26 19:00","2018","09","26","19:00","3.7","","3.4","","98","","","","4","","6","","24.1","","98.74","","","","","","Moderate Rain"
"-68.42","58.09","KUUJJUAQ A","7113535","2018-09-26 20:00","2018","09","26","20:00","3.3","","2.8","","97","","","","2","","8","","24.1","","98.64","","","","","","Rain"
"-68.42","58.09","KUUJJUAQ A","7113535","2018-09-26 21:00","2018","09","26","21:00","3.3","","2.8","","96","","","","1","","10","","24.1","","98.55","","","","","","Rain"
"-68.42","58.09","KUUJJUAQ A","7113535","2018-09-26 22:00","2018","09","26","22:00","1.7","","1.3","","97","","","","34","","18","","19.3","","98.49","","","","","","Rain"
"-68.42","58.09","KUUJJUAQ A","7113535","2018-09-26 23:00","2018","09","26","23:00","0.7","","0.3","","97","","","","34","","18","","9.7","","98.48","","","","","","Snow"
"-68.42","58.09","KUUJJUAQ A","7113535","2018-09-27 00:00","2018","09","27","00:00","0.2","","-0.1","","98","","","","32","","16","","4.8","","98.47","","","","","","Snow"
"-68.42","58.09","KUUJJUAQ A","7113535","2018-09-27 01:00","2018","09","27","01:00","0.3","","0.0","","98","","","","32","","18","","4.8","","98.51","","","","","","Snow"
"-68.42","58.09","KUUJJUAQ A","7113535","2018-09-27 02:00","2018","09","27","02:00","0.4","","0.1","","98","","","","31","","16","","9.7","","98.58","","","","","","Snow"
"-68.42","58.09","KUUJJUAQ A","7113535","2018-09-27 03:00","2018","09","27","03:00","0.4","","0.1","","98","","","","30","","17","","6.4","","98.64","","","","","","Snow"
"-68.42","58.09","KUUJJUAQ A","7113535","2018-09-27 04:00","2018","09","27","04:00","0.6","","0.1","","97","","","","30","","18","","3.2","","98.75","","","","","","Snow"
"-68.42","58.09","KUUJJUAQ A","7113535","2018-09-27 05:00","2018","09","27","05:00","0.6","","-0.1","","95","","","","31","","21","","12.9","","98.89","","","","","","Snow"
"-68.42","58.09","KUUJJUAQ A","7113535","2018-09-27 06:00","2018","09","27","06:00","0.6","","0.0","","96","","","","30","","19","","4.8","","99.05","","","","","","Snow"
"-68.42","58.09","KUUJJUAQ A","7113535","2018-09-27 07:00","2018","09","27","07:00","0.6","","0.0","","96","","","","30","","17","","4.8","","99.21","","","","","","Snow"
"-68.42","58.09","KUUJJUAQ A","7113535","2018-09-27 08:00","2018","09","27","08:00","0.9","","0.1","","94","","","","29","","20","","12.9","","99.36","","","","","","Snow"
"-68.42","58.09","KUUJJUAQ A","7113535","2018-09-27 09:00","2018","09","27","09:00","0.8","","0.0","","94","","","","29","","18","","4.0","","99.49","","","","","","Snow"
"-68.42","58.09","KUUJJUAQ A","7113535","2018-09-27 10:00","2018","09","27","10:00","1.1","","0.2","","94","","","","27","","19","","4.0","","99.63","","","","","","Snow"
"-68.42","58.09","KUUJJUAQ A","7113535","2018-09-27 11:00","2018","09","27","11:00","1.4","","0.2","","92","","","","26","","20","","16.1","","99.73","","","","","","Snow"
"-68.42","58.09","KUUJJUAQ A","7113535","2018-09-27 12:00","2018","09","27","12:00","1.4","","-1.3","","82","","","","27","","23","","24.1","","99.87","","","","","","NA"
"-68.42","58.09","KUUJJUAQ A","7113535","2018-09-27 13:00","2018","09","27","13:00","2.4","","-1.1","","78","","","","27","","18","","24.1","","100.01","","","","","","Cloudy"
"-68.42","58.09","KUUJJUAQ A","7113535","2018-09-27 14:00","2018","09","27","14:00","2.8","","-1.5","","74","","","","26","","28","","24.1","","100.14","","","","","","NA"
"-68.42","58.09","KUUJJUAQ A","7113535","2018-09-27 15:00","2018","09","27","15:00","2.2","","-2.0","","74","","","","28","","20","","24.1","","100.28","","","","","","NA"
"-68.42","58.09","KUUJJUAQ A","7113535","2018-09-27 16:00","2018","09","27","16:00","2.3","","-1.5","","76","","","","26","","22","","24.1","","100.40","","","","","","Mostly Cloudy"
"-68.42","58.09","KUUJJUAQ A","7113535","2018-09-27 17:00","2018","09","27","17:00","2.0","","-0.8","","82","","","","26","","12","","24.1","","100.49","","","","","","NA"
"-68.42","58.09","KUUJJUAQ A","7113535","2018-09-27 18:00","2018","09","27","18:00","2.1","","-0.3","","84","","","","26","","10","","24.1","","100.61","","","","","","NA"
"-68.42","58.09","KUUJJUAQ A","7113535","2018-09-27 19:00","2018","09","27","19:00","2.1","","-0.5","","83","","","","24","","13","","24.1","","100.72","","","","","","Mostly Cloudy"
"-68.42","58.09","KUUJJUAQ A","7113535","2018-09-27 20:00","2018","09","27","20:00","1.7","","-0.1","","87","","","","23","","15","","24.1","","100.82","","","","","","NA"
"-68.42","58.09","KUUJJUAQ A","7113535","2018-09-27 21:00","2018","09","27","21:00","0.9","","-0.1","","93","","","","22","","13","","24.1","","100.86","","","","","","NA"
"-68.42","58.09","KUUJJUAQ A","7113535","2018-09-27 22:00","2018","09","27","22:00","1.4","","0.0","","90","","","","24","","12","","24.1","","100.88","","","","","","Mostly Cloudy"
"-68.42","58.09","KUUJJUAQ A","7113535","2018-09-27 23:00","2018","09","27","23:00","1.3","","0.0","","91","","","","22","","13","","24.1","","100.94","","","","","","NA"
"-68.42","58.09","KUUJJUAQ A","7113535","2018-09-28 00:00","2018","09","28","00:00","1.5","","0.3","","92","","","","22","","11","","24.1","","100.98","","","","","","NA"
"-68.42","58.09","KUUJJUAQ A","7113535","2018-09-28 01:00","2018","09","28","01:00","1.6","","0.4","","92","","","","21","","10","","24.1","","101.00","","","","","","Mostly Cloudy"
"-68.42","58.09","KUUJJUAQ A","7113535","2018-09-28 02:00","2018","09","28","02:00","0.4","","-0.3","","95","","","","21","","11","","24.1","","101.02","","","","","","NA"
"-68.42","58.09","KUUJJUAQ A","7113535","2018-09-28 03:00","2018","09","28","03:00","-0.2","","-0.8","","96","","","","20","","9","","24.1","","101.05","","","","-3","","NA"
"-68.42","58.09","KUUJJUAQ A","7113535","2018-09-28 04:00","2018","09","28","04:00","-0.5","","-1.1","","96","","","","20","","13","","24.1","","101.07","","","","-5","","Mainly Clear"
"-68.42","58.09","KUUJJUAQ A","7113535","2018-09-28 05:00","2018","09","28","05:00","-1.1","","-1.6","","97","","","","21","","8","","24.1","","101.09","","","","-4","","NA"
"-68.42","58.09","KUUJJUAQ A","7113535","2018-09-28 06:00","2018","09","28","06:00","-0.9","","-1.4","","97","","","","18","","5","","24.1","","101.11","","","","-3","","NA"
"-68.42","58.09","KUUJJUAQ A","7113535","2018-09-28 07:00","2018","09","28","07:00","0.1","","-0.5","","95","","","","22","","3","","24.1","","101.10","","","","","","Mostly Cloudy"
"-68.42","58.09","KUUJJUAQ A","7113535","2018-09-28 08:00","2018","09","28","08:00","1.6","","0.8","","94","","","","35","","3","","24.1","","101.07","","","","","","NA"
"-68.42","58.09","KUUJJUAQ A","7113535","2018-09-28 09:00","2018","09","28","09:00","2.5","","1.5","","93","","","","5","","5","","24.1","","101.01","","","","","","NA"
"-68.42","58.09","KUUJJUAQ A","7113535","2018-09-28 10:00","2018","09","28","10:00","3.7","","2.6","","93","","","","8","","8","","24.1","","100.92","","","","","","Cloudy"
"-68.42","58.09","KUUJJUAQ A","7113535","2018-09-28 11:00","2018","09","28","11:00","4.7","","3.7","","93","","","","7","","10","","24.1","","100.80","","","","","","Rain"
"-68.42","58.09","KUUJJUAQ A","7113535","2018-09-28 12:00","2018","09","28","12:00","5.8","","4.8","","93","","","","7","","8","","24.1","","100.66","","","","","","Rain"
"-68.42","58.09","KUUJJUAQ A","7113535","2018-09-28 13:00","2018","09","28","13:00","6.4","","5.8","","96","","","","4","","8","","19.3","","100.54","","","","","","Rain"
"-68.42","58.09","KUUJJUAQ A","7113535","2018-09-28 14:00","2018","09","28","14:00","6.8","","6.0","","95","","","","7","","8","","24.1","","100.44","","","","","","Rain"
"-68.42","58.09","KUUJJUAQ A","7113535","2018-09-28 15:00","2018","09","28","15:00","6.9","","6.3","","95","","","","9","","10","","24.1","","100.31","","","","","","Rain"
"-68.42","58.09","KUUJJUAQ A","7113535","2018-09-28 16:00","2018","09","28","16:00","7.5","","6.3","","92","","","","13","","11","","24.1","","100.22","","","","","","Cloudy"
"-68.42","58.09","KUUJJUAQ A","7113535","2018-09-28 17:00","2018","09","28","17:00","7.8","","6.3","","91","","","","18","","17","","24.1","","100.13","","","","","","Rain"
"-68.42","58.09","KUUJJUAQ A","7113535","2018-09-28 18:00","2018","09","28","18:00","7.7","","6.1","","90","","","","17","","18","","24.1","","100.06","","","","","","NA"
"-68.42","58.09","KUUJJUAQ A","7113535","2018-09-28 19:00","2018","09","28","19:00","8.0","","5.9","","87","","","","17","","15","","24.1","","100.00","","","","","","Cloudy"
"-68.42","58.09","KUUJJUAQ A","7113535","2018-09-28 20:00","2018","09","28","20:00","8.0","","5.7","","85","","","","18","","18","","24.1","","99.90","","","","","","NA"
"-68.42","58.09","KUUJJUAQ A","7113535","2018-09-28 21:00","2018","09","28","21:00","7.4","","5.5","","87","","","","18","","10","","24.1","","99.78","","","","","","NA"
"-68.42","58.09","KUUJJUAQ A","7113535","2018-09-28 22:00","2018","09","28","22:00","7.7","","5.4","","86","","","","17","","16","","24.1","","99.67","","","","","","Mostly Cloudy"
"-68.42","58.09","KUUJJUAQ A","7113535","2018-09-28 23:00","2018","09","28","23:00","7.6","","5.3","","85","","","","18","","13","","24.1","","99.56","","","","","","NA"
"-68.42","58.09","KUUJJUAQ A","7113535","2018-09-29 00:00","2018","09","29","00:00","7.4","","5.5","","88","","","","19","","9","","24.1","","99.45","","","","","","Rain"
"-68.42","58.09","KUUJJUAQ A","7113535","2018-09-29 01:00","2018","09","29","01:00","7.3","","6.1","","92","","","","18","","10","","24.1","","99.33","","","","","","Rain"
"-68.42","58.09","KUUJJUAQ A","7113535","2018-09-29 02:00","2018","09","29","02:00","7.2","","6.5","","95","","","","18","","10","","24.1","","99.25","","","","","","Rain"
"-68.42","58.09","KUUJJUAQ A","7113535","2018-09-29 03:00","2018","09","29","03:00","7.2","","6.6","","96","","","","18","","13","","19.3","","99.19","","","","","","Rain"
"-68.42","58.09","KUUJJUAQ A","7113535","2018-09-29 04:00","2018","09","29","04:00","7.0","","6.6","","98","","","","14","","10","","24.1","","99.03","","","","","","Cloudy"
"-68.42","58.09","KUUJJUAQ A","7113535","2018-09-29 05:00","2018","09","29","05:00","6.9","","6.6","","98","","","","15","","4","","19.3","","98.92","","","","","","Rain"
"-68.42","58.09","KUUJJUAQ A","7113535","2018-09-29 06:00","2018","09","29","06:00","6.9","","6.6","","98","","","","22","","6","","19.3","","98.83","","","","","","Rain"
"-68.42","58.09","KUUJJUAQ A","7113535","2018-09-29 07:00","2018","09","29","07:00","7.2","","6.8","","98","","","","24","","13","","19.3","","98.77","","","","","","Rain"
"-68.42","58.09","KUUJJUAQ A","7113535","2018-09-29 08:00","2018","09","29","08:00","6.2","","5.8","","97","","","","24","","16","","16.1","","98.82","","","","","","Rain"
"-68.42","58.09","KUUJJUAQ A","7113535","2018-09-29 09:00","2018","09","29","09:00","3.8","","3.1","","95","","","","23","","23","","19.3","","98.88","","","","","","Rain"
"-68.42","58.09","KUUJJUAQ A","7113535","2018-09-29 10:00","2018","09","29","10:00","1.1","","0.6","","96","","","","24","","24","","4.0","","98.94","","","","","","Rain,Snow"
"-68.42","58.09","KUUJJUAQ A","7113535","2018-09-29 11:00","2018","09","29","11:00","0.6","","0.3","","98","","","","27","","21","","2.8","","99.10","","","","","","Snow"
"-68.42","58.09","KUUJJUAQ A","7113535","2018-09-29 12:00","2018","09","29","12:00","0.3","","-0.2","","96","","","","28","","24","","1.6","","99.31","","","","","","Snow"
"-68.42","58.09","KUUJJUAQ A","7113535","2018-09-29 13:00","2018","09","29","13:00","0.3","","-0.3","","96","","","","28","","25","","0.8","","99.49","","","","","","Moderate Snow"
"-68.42","58.09","KUUJJUAQ A","7113535","2018-09-29 14:00","2018","09","29","14:00","1.1","","-0.2","","91","","","","27","","23","","24.1","","99.61","","","","","","Snow"
"-68.42","58.09","KUUJJUAQ A","7113535","2018-09-29 15:00","2018","09","29","15:00","1.4","","-0.4","","88","","","","28","","28","","24.1","","99.74","","","","","","Snow"
"-68.42","58.09","KUUJJUAQ A","7113535","2018-09-29 16:00","2018","09","29","16:00","1.5","","-0.6","","86","","","","28","","28","","24.1","","99.90","","","","","","Snow"
"-68.42","58.09","KUUJJUAQ A","7113535","2018-09-29 17:00","2018","09","29","17:00","1.1","","-1.1","","85","","","","28","","31","","24.1","","100.02","","","","","","Snow"
"-68.42","58.09","KUUJJUAQ A","7113535","2018-09-29 18:00","2018","09","29","18:00","0.9","","-1.6","","83","","","","28","","31","","24.1","","100.12","","","","","","Snow"
"-68.42","58.09","KUUJJUAQ A","7113535","2018-09-29 19:00","2018","09","29","19:00","1.0","","-1.9","","81","","","","28","","27","","24.1","","100.18","","","","","","Mostly Cloudy"
"-68.42","58.09","KUUJJUAQ A","7113535","2018-09-29 20:00","2018","09","29","20:00","0.8","","-2.3","","79","","","","26","","21","","24.1","","100.25","","","","","","NA"
"-68.42","58.09","KUUJJUAQ A","7113535","2018-09-29 21:00","2018","09","29","21:00","0.3","","-3.0","","79","","","","27","","24","","24.1","","100.28","","","","","","NA"
"-68.42","58.09","KUUJJUAQ A","7113535","2018-09-29 22:00","2018","09","29","22:00","-0.7","","-2.8","","85","","","","25","","14","","24.1","","100.30","","","","-5","","Clear"
"-68.42","58.09","KUUJJUAQ A","7113535","2018-09-29 23:00","2018","09","29","23:00","-1.2","","-3.4","","85","","","","25","","12","","24.1","","100.31","","","","-5","","NA"
"-68.42","58.09","KUUJJUAQ A","7113535","2018-09-30 00:00","2018","09","30","00:00","-1.5","","-3.4","","87","","","","24","","13","","24.1","","100.32","","","","-6","","NA"
"-68.42","58.09","KUUJJUAQ A","7113535","2018-09-30 01:00","2018","09","30","01:00","-1.4","","-2.9","","90","","","","24","","13","","24.1","","100.33","","","","-6","","Clear"
"-68.42","58.09","KUUJJUAQ A","7113535","2018-09-30 02:00","2018","09","30","02:00","-0.9","","-2.4","","90","","","","24","","16","","24.1","","100.32","","","","-6","","NA"
"-68.42","58.09","KUUJJUAQ A","7113535","2018-09-30 03:00","2018","09","30","03:00","-0.6","","-2.4","","87","","","","24","","17","","24.1","","100.34","","","","-6","","NA"
"-68.42","58.09","KUUJJUAQ A","7113535","2018-09-30 04:00","2018","09","30","04:00","-0.5","","-2.4","","87","","","","24","","19","","24.1","","100.33","","","","-6","","Mostly Cloudy"
"-68.42","58.09","KUUJJUAQ A","7113535","2018-09-30 05:00","2018","09","30","05:00","-1.2","","-3.0","","87","","","","24","","17","","24.1","","100.35","","","","-6","","NA"
"-68.42","58.09","KUUJJUAQ A","7113535","2018-09-30 06:00","2018","09","30","06:00","-1.4","","-3.4","","87","","","","25","","13","","24.1","","100.36","","","","-6","","NA"
"-68.42","58.09","KUUJJUAQ A","7113535","2018-09-30 07:00","2018","09","30","07:00","-0.2","","-2.9","","82","","","","24","","19","","24.1","","100.40","","","","-5","","Mostly Cloudy"
"-68.42","58.09","KUUJJUAQ A","7113535","2018-09-30 08:00","2018","09","30","08:00","1.1","","-2.6","","76","","","","24","","21","","24.1","","100.42","","","","","","NA"
"-68.42","58.09","KUUJJUAQ A","7113535","2018-09-30 09:00","2018","09","30","09:00","2.4","","-2.4","","71","","","","24","","24","","24.1","","100.44","","","","","","NA"
"-68.42","58.09","KUUJJUAQ A","7113535","2018-09-30 10:00","2018","09","30","10:00","2.8","","-3.0","","65","","","","26","","24","","24.1","","100.49","","","","","","Mostly Cloudy"
"-68.42","58.09","KUUJJUAQ A","7113535","2018-09-30 11:00","2018","09","30","11:00","3.3","","-2.9","","64","","","","25","","23","","24.1","","100.53","","","","","","NA"
"-68.42","58.09","KUUJJUAQ A","7113535","2018-09-30 12:00","2018","09","30","12:00","3.9","","-2.8","","62","","","","27","","19","","24.1","","100.56","","","","","","Snow Showers"
"-68.42","58.09","KUUJJUAQ A","7113535","2018-09-30 13:00","2018","09","30","13:00","3.1","","-0.8","","76","","","","26","","13","","24.1","","100.61","","","","","","Snow Showers"
"-68.42","58.09","KUUJJUAQ A","7113535","2018-09-30 14:00","2018","09","30","14:00","2.9","","0.3","","83","","","","25","","15","","24.1","","100.64","","","","","","Snow Showers"
"-68.42","58.09","KUUJJUAQ A","7113535","2018-09-30 15:00","2018","09","30","15:00","2.9","","0.9","","87","","","","24","","19","","24.1","","100.68","","","","","","Snow Showers"
"-68.42","58.09","KUUJJUAQ A","7113535","2018-09-30 16:00","2018","09","30","16:00","3.5","","-0.5","","75","","","","26","","15","","24.1","","100.71","","","","","","Mostly Cloudy"
"-68.42","58.09","KUUJJUAQ A","7113535","2018-09-30 17:00","2018","09","30","17:00","1.9","","-0.7","","83","","","","26","","16","","24.1","","100.77","","","","","","NA"
"-68.42","58.09","KUUJJUAQ A","7113535","2018-09-30 18:00","2018","09","30","18:00","0.1","","-0.4","","97","","","","21","","11","","24.1","","100.81","","","","","","NA"
"-68.42","58.09","KUUJJUAQ A","7113535","2018-09-30 19:00","2018","09","30","19:00","0.0","","-1.0","","93","","","","21","","13","","24.1","","100.83","","","","-4","","Mostly Cloudy"
"-68.42","58.09","KUUJJUAQ A","7113535","2018-09-30 20:00","2018","09","30","20:00","-0.6","","-1.4","","94","","","","22","","11","","24.1","","100.84","","","","-4","","NA"
"-68.42","58.09","KUUJJUAQ A","7113535","2018-09-30 21:00","2018","09","30","21:00","-1.0","","-2.2","","91","","","","21","","14","","24.1","","100.84","","","","-5","","NA"
"-68.42","58.09","KUUJJUAQ A","7113535","2018-09-30 22:00","2018","09","30","22:00","-1.5","","-2.6","","92","","","","20","","10","","24.1","","100.83","","","","-5","","Mainly Clear"
"-68.42","58.09","KUUJJUAQ A","7113535","2018-09-30 23:00","2018","09","30","23:00","-0.9","","-2.7","","88","","","","20","","14","","24.1","","100.85","","","","-5","","NA"
