"Longitude (x)","Latitude (y)","Station Name","Climate ID","Date/Time (LST)","Year","Month","Day","Time (LST)","Temp (°C)","Temp Flag","Dew Point Temp (°C)","Dew Point Temp Flag","Rel Hum (%)","Rel Hum Flag","Precip. Amount (mm)","Precip. Amount Flag","Wind Dir (10s deg)","Wind Dir Flag","Wind Spd (km/h)","Wind Spd Flag","Visibility (km)","Visibility Flag","Stn Press (kPa)","Stn Press Flag","Hmdx","Hmdx Flag","Wind Chill","Wind Chill Flag","Weather"
"-89.32","48.37","THUNDER BAY A","6048262","2021-01-01 00:00","2021","01","01","00:00","-11.0","","-11.8","","94","","","","30","","3","","24.1","","99.75","","","","-13","","NA"
"-89.32","48.37","THUNDER BAY A","6048262","2021-01-01 01:00","2021","01","01","01:00","-12.1","","-13.0","","93","","","","20","","6","","24.1","","99.70","","","","-16","","Cloudy"
"-89.32","48.37","THUNDER BAY A","6048262","2021-01-01 02:00","2021","01","01","02:00","-12.3","","-13.3","","92","","","","32","","6","","24.1","","99.69","","","","-16","","NA"
"-89.32","48.37","THUNDER BAY A","6048262","2021-01-01 03:00","2021","01","01","03:00","-14.2","","-15.3","","91","","","","27","","5","","24.1","","99.72","","","","-18","","NA"
"-89.32","48.37","THUNDER BAY A","6048262","2021-01-01 04:00","2021","01","01","04:00","-12.8","","-13.6","","94","","","","30","","9","","24.1","","99.74","","","","-18","","Cloudy"
"-89.32","48.37","THUNDER BAY A","6048262","2021-01-01 05:00","2021","01","01","05:00","-13.9","","-14.9","","92","","","","30","","7","","16.1","","99.74","","","","-19","","Snow"
"-89.32","48.37","THUNDER BAY A","6048262","2021-01-01 06:00","2021","01","01","06:00","-13.3","","-14.2","","93","","","","28","","4","","24.1","","99.75","","","","-16","","NA"
"-89.32","48.37","THUNDER BAY A","6048262","2021-01-01 07:00","2021","01","01","07:00","-10.3","","-10.9","","95","","","","25","","4","","24.1","","99.80","","","","-13","","Cloudy"
"-89.32","48.37","THUNDER BAY A","6048262","2021-01-01 08:00","2021","01","01","08:00","-9.9","","-10.6","","95","","","","30","","7","","24.1","","99.81","","","","-14","","NA"
"-89.32","48.37","THUNDER BAY A","6048262","2021-01-01 09:00","2021","01","01","09:00","-9.1","","-9.6","","96","","","","25","","5","","16.1","","99.77","","","","-12","","NA"
"-89.32","48.37","THUNDER BAY A","6048262","2021-01-01 10:00","2021","01","01","10:00","-8.3","","-8.8","","96","","","","21","","7","","12.9","","99.69","","","","-12","","Cloudy"
"-89.32","48.37","THUNDER BAY A","6048262","2021-01-01 11:00","2021","01","01","11:00","-6.6","","-7.0","","97","","","","20","","6","","12.9","","99.65","","","","-10","","NA"
"-89.32","48.37","THUNDER BAY A","6048262","2021-01-01 12:00","2021","01","01","12:00","-5.8","","-6.2","","97","","","","7","","3","","12.9","","99.52","","","","-7","","NA"
"-89.32","48.37","THUNDER BAY A","6048262","2021-01-01 13:00","2021","01","01","13:00","-5.0","","-6.0","","93","","","","34","","5","","12.9","","99.45","","","","-7","","Snow"
"-89.32","48.37","THUNDER BAY A","6048262","2021-01-01 14:00","2021","01","01","14:00","-4.0","","-5.4","","90","","","","34","","9","","12.9","","99.30","","","","-8","","NA"
"-89.32","48.37","THUNDER BAY A","6048262","2021-01-01 15:00","2021","01","01","15:00","-3.7","","-5.2","","89","","","","36","","2","","12.9","","99.22","","","","-5","","NA"
"-89.32","48.37","THUNDER BAY A","6048262","2021-01-01 16:00","2021","01","01","16:00","-3.3","","-5.0","","88","","","","24","","8","","19.3","","99.25","","","","-7","","Cloudy"
"-89.32","48.37","THUNDER BAY A","6048262","2021-01-01 17:00","2021","01","01","17:00","-3.4","","-5.0","","89","","","","24","","5","","24.1","","99.24","","","","-5","","NA"
"-89.32","48.37","THUNDER BAY A","6048262","2021-01-01 18:00","2021","01","01","18:00","-3.7","","-5.0","","91","","","","23","","5","","16.1","","99.23","","","","-6","","NA"
"-89.32","48.37","THUNDER BAY A","6048262","2021-01-01 19:00","2021","01","01","19:00","-3.8","","-5.3","","89","","","","20","","4","","24.1","","99.20","","","","-5","","Cloudy"
"-89.32","48.37","THUNDER BAY A","6048262","2021-01-01 20:00","2021","01","01","20:00","-4.3","","-6.6","","84","","","","30","","7","","24.1","","99.24","","","","-7","","NA"
"-89.32","48.37","THUNDER BAY A","6048262","2021-01-01 21:00","2021","01","01","21:00","-5.6","","-7.3","","88","","","","29","","8","","24.1","","99.18","","","","-9","","NA"
"-89.32","48.37","THUNDER BAY A","6048262","2021-01-01 22:00","2021","01","01","22:00","-7.3","","-8.2","","93","","","","29","","8","","24.1","","99.09","","","","-11","","Mostly Cloudy"
"-89.32","48.37","THUNDER BAY A","6048262","2021-01-01 23:00","2021","01","01","23:00","-8.8","","-9.7","","94","","","","27","","10","","24.1","","99.11","","","","-14","","NA"
"-89.32","48.37","THUNDER BAY A","6048262","2021-01-02 00:00","2021","01","02","00:00","-7.8","","-8.7","","94","","","","27","","15","","24.1","","99.09","","","","-14","","NA"
"-89.32","48.37","THUNDER BAY A","6048262","2021-01-02 01:00","2021","01","02","01:00","-7.1","","-8.2","","92","","","","26","","8","","24.1","","99.05","","","","-11","","Cloudy"
"-89.32","48.37","THUNDER BAY A","6048262","2021-01-02 02:00","2021","01","02","02:00","-6.7","","-7.9","","91","","","","28","","8","","16.1","","99.01","","","","-11","","NA"
"-89.32","48.37","THUNDER BAY A","6048262","2021-01-02 03:00","2021","01","02","03:00","-6.5","","-7.9","","90","","","","29","","8","","24.1","","99.07","","","","-10","","NA"
"-89.32","48.37","THUNDER BAY A","6048262","2021-01-02 04:00","2021","01","02","04:00","-6.4","","-7.8","","90","","","","27","","9","","16.1","","99.07","","","","-11","","Cloudy"
"-89.32","48.37","THUNDER BAY A","6048262","2021-01-02 05:00","2021","01","02","05:00","-6.4","","-7.9","","89","","","","28","","14","","16.1","","99.04","","","","-12","","NA"
"-89.32","48.37","THUNDER BAY A","6048262","2021-01-02 06:00","2021","01","02","06:00","-6.3","","-7.7","","90","","","","26","","9","","16.1","","99.02","","","","-11","","NA"
"-89.32","48.37","THUNDER BAY A","6048262","2021-01-02 07:00","2021","01","02","07:00","-6.2","","-7.4","","91","","","","24","","7","","16.1","","99.05","","","","-10","","Cloudy"
"-89.32","48.37","THUNDER BAY A","6048262","2021-01-02 08:00","2021","01","02","08:00","-6.3","","-7.4","","92","","","","23","","8","","16.1","","99.04","","","","-10","","NA"
"-89.32","48.37","THUNDER BAY A","6048262","2021-01-02 09:00","2021","01","02","09:00","-6.2","","-7.3","","92","","","","21","","10","","8.1","","99.07","","","","-11","","Fog"
"-89.32","48.37","THUNDER BAY A","6048262","2021-01-02 10:00","2021","01","02","10:00","-5.9","","-7.0","","92","","","","21","","11","","9.7","","99.11","","","","-11","","Fog"
"-89.32","48.37","THUNDER BAY A","6048262","2021-01-02 11:00","2021","01","02","11:00","-5.9","","-6.8","","93","","","","20","","10","","9.7","","99.12","","","","-10","","Fog"
"-89.32","48.37","THUNDER BAY A","6048262","2021-01-02 12:00","2021","01","02","12:00","-5.4","","-6.6","","91","","","","24","","12","","9.7","","99.10","","","","-10","","Fog"
"-89.32","48.37","THUNDER BAY A","6048262","2021-01-02 13:00","2021","01","02","13:00","-4.7","","-6.5","","87","","","","36","","1","","9.7","","98.97","","","","-5","","Fog"
"-89.32","48.37","THUNDER BAY A","6048262","2021-01-02 14:00","2021","01","02","14:00","-3.2","","-6.3","","79","","","","36","","1","","19.3","","98.88","","","","-4","","NA"
"-89.32","48.37","THUNDER BAY A","6048262","2021-01-02 15:00","2021","01","02","15:00","-3.8","","-6.4","","82","","","","0","","1","","19.3","","98.86","","","","-4","","NA"
"-89.32","48.37","THUNDER BAY A","6048262","2021-01-02 16:00","2021","01","02","16:00","-4.2","","-6.9","","81","","","","8","","8","","19.3","","98.82","","","","-8","","Mostly Cloudy"
"-89.32","48.37","THUNDER BAY A","6048262","2021-01-02 17:00","2021","01","02","17:00","-5.5","","-6.8","","91","","","","6","","6","","19.3","","98.84","","","","-8","","NA"
"-89.32","48.37","THUNDER BAY A","6048262","2021-01-02 18:00","2021","01","02","18:00","-6.0","","-6.8","","94","","","","6","","4","","19.3","","98.81","","","","-8","","NA"
"-89.32","48.37","THUNDER BAY A","6048262","2021-01-02 19:00","2021","01","02","19:00","-8.4","","-8.9","","96","","","","36","","2","","12.9","","98.79","","","","-9","","Mainly Clear"
"-89.32","48.37","THUNDER BAY A","6048262","2021-01-02 20:00","2021","01","02","20:00","-8.7","","-9.2","","96","","","","33","","4","","8.1","","98.73","","","","-11","","Fog"
"-89.32","48.37","THUNDER BAY A","6048262","2021-01-02 21:00","2021","01","02","21:00","-7.8","","-8.2","","97","","","","","","0","","1.6","","98.70","","","","","","Fog"
"-89.32","48.37","THUNDER BAY A","6048262","2021-01-02 22:00","2021","01","02","22:00","-7.4","","-7.8","","97","","","","27","","3","","0.4","","98.66","","","","-9","","Freezing Fog"
"-89.32","48.37","THUNDER BAY A","6048262","2021-01-02 23:00","2021","01","02","23:00","-7.3","","-7.7","","97","","","","26","","4","","0.8","","98.65","","","","-9","","Freezing Fog"
"-89.32","48.37","THUNDER BAY A","6048262","2021-01-03 00:00","2021","01","03","00:00","-8.5","","-9.0","","96","","","","23","","4","","0.0","","98.64","","","","-11","","Freezing Fog"
"-89.32","48.37","THUNDER BAY A","6048262","2021-01-03 01:00","2021","01","03","01:00","-8.8","","-9.3","","96","","","","24","","5","","0.8","","98.57","","","","-12","","Freezing Fog"
"-89.32","48.37","THUNDER BAY A","6048262","2021-01-03 02:00","2021","01","03","02:00","-9.6","","-10.3","","95","","","","21","","6","","0.4","","98.49","","","","-13","","Freezing Fog"
"-89.32","48.37","THUNDER BAY A","6048262","2021-01-03 03:00","2021","01","03","03:00","-10.2","","-10.8","","95","","","","25","","4","","0.4","","98.44","","","","-13","","Freezing Fog"
"-89.32","48.37","THUNDER BAY A","6048262","2021-01-03 04:00","2021","01","03","04:00","-11.5","","-12.3","","94","","","","25","","5","","2.4","","98.38","","","","-15","","Fog"
"-89.32","48.37","THUNDER BAY A","6048262","2021-01-03 05:00","2021","01","03","05:00","-13.1","","-14.0","","93","","","","25","","7","","4.8","","98.36","","","","-18","","Fog"
"-89.32","48.37","THUNDER BAY A","6048262","2021-01-03 06:00","2021","01","03","06:00","-13.1","","-14.2","","91","","","","29","","8","","4.8","","98.33","","","","-18","","Fog"
"-89.32","48.37","THUNDER BAY A","6048262","2021-01-03 07:00","2021","01","03","07:00","-13.9","","-14.8","","93","","","","30","","7","","8.1","","98.31","","","","-19","","Fog"
"-89.32","48.37","THUNDER BAY A","6048262","2021-01-03 08:00","2021","01","03","08:00","-14.5","","-15.7","","91","","","","26","","9","","8.1","","98.34","","","","-20","","Fog"
"-89.32","48.37","THUNDER BAY A","6048262","2021-01-03 09:00","2021","01","03","09:00","-13.6","","-14.5","","93","","","","32","","12","","24.1","","98.32","","","","-20","","NA"
"-89.32","48.37","THUNDER BAY A","6048262","2021-01-03 10:00","2021","01","03","10:00","-11.9","","-12.7","","94","","","","31","","7","","19.3","","98.29","","","","-16","","Mainly Clear"
"-89.32","48.37","THUNDER BAY A","6048262","2021-01-03 11:00","2021","01","03","11:00","-9.9","","-10.5","","95","","","","28","","7","","19.3","","98.33","","","","-14","","NA"
"-89.32","48.37","THUNDER BAY A","6048262","2021-01-03 12:00","2021","01","03","12:00","-5.8","","-6.1","","98","","","","28","","4","","19.3","","98.28","","","","-8","","NA"
"-89.32","48.37","THUNDER BAY A","6048262","2021-01-03 13:00","2021","01","03","13:00","-4.1","","-4.4","","98","","","","22","","4","","24.1","","98.22","","","","-6","","Mainly Clear"
"-89.32","48.37","THUNDER BAY A","6048262","2021-01-03 14:00","2021","01","03","14:00","-0.2","","-2.7","","83","","","","36","","3","","24.1","","98.19","","","","-1","","NA"
"-89.32","48.37","THUNDER BAY A","6048262","2021-01-03 15:00","2021","01","03","15:00","1.8","","-3.5","","68","","","","12","","4","","32.2","","98.15","","","","","","NA"
"-89.32","48.37","THUNDER BAY A","6048262","2021-01-03 16:00","2021","01","03","16:00","0.5","","-3.3","","76","","","","7","","9","","32.2","","98.17","","","","","","Mainly Clear"
"-89.32","48.37","THUNDER BAY A","6048262","2021-01-03 17:00","2021","01","03","17:00","-0.5","","-2.4","","87","","","","5","","7","","32.2","","98.20","","","","-3","","NA"
"-89.32","48.37","THUNDER BAY A","6048262","2021-01-03 18:00","2021","01","03","18:00","-3.4","","-3.5","","99","","","","31","","4","","24.1","","98.22","","","","-5","","NA"
"-89.32","48.37","THUNDER BAY A","6048262","2021-01-03 19:00","2021","01","03","19:00","-3.7","","-3.7","","100","","","","19","","3","","6.4","","98.20","","","","-5","","Fog"
"-89.32","48.37","THUNDER BAY A","6048262","2021-01-03 20:00","2021","01","03","20:00","-5.6","","-5.7","","99","","","","32","","6","","3.2","","98.23","","","","-8","","Fog"
"-89.32","48.37","THUNDER BAY A","6048262","2021-01-03 21:00","2021","01","03","21:00","-7.0","","-7.4","","97","","","","28","","5","","3.2","","98.23","","","","-10","","Fog"
"-89.32","48.37","THUNDER BAY A","6048262","2021-01-03 22:00","2021","01","03","22:00","-8.5","","-9.0","","97","","","","","","0","","3.2","","98.22","","","","","","Fog"
"-89.32","48.37","THUNDER BAY A","6048262","2021-01-03 23:00","2021","01","03","23:00","-8.8","","-9.2","","97","","","","31","","4","","3.2","","98.20","","","","-11","","Fog"
"-89.32","48.37","THUNDER BAY A","6048262","2021-01-04 00:00","2021","01","04","00:00","-10.2","","-10.8","","95","","","","28","","5","","0.4","","98.19","","","","-13","","Freezing Fog"
"-89.32","48.37","THUNDER BAY A","6048262","2021-01-04 01:00","2021","01","04","01:00","-11.2","","-12.2","","93","","","","29","","4","","0.8","","98.15","","","","-14","","Freezing Fog"
"-89.32","48.37","THUNDER BAY A","6048262","2021-01-04 02:00","2021","01","04","02:00","-11.8","","-12.6","","94","","","","28","","5","","1.6","","98.14","","","","-15","","Fog"
"-89.32","48.37","THUNDER BAY A","6048262","2021-01-04 03:00","2021","01","04","03:00","-12.4","","-13.2","","94","","","","26","","7","","1.6","","98.18","","","","-17","","Fog"
"-89.32","48.37","THUNDER BAY A","6048262","2021-01-04 04:00","2021","01","04","04:00","-12.9","","-13.8","","93","","","","27","","6","","1.6","","98.19","","","","-17","","Fog"
"-89.32","48.37","THUNDER BAY A","6048262","2021-01-04 05:00","2021","01","04","05:00","-12.9","","-13.8","","93","","","","30","","4","","0.2","","98.14","","","","-16","","Freezing Fog"
"-89.32","48.37","THUNDER BAY A","6048262","2021-01-04 06:00","2021","01","04","06:00","-12.9","","-13.9","","92","","","","24","","5","","0.4","","98.12","","","","-16","","Freezing Fog"
"-89.32","48.37","THUNDER BAY A","6048262","2021-01-04 07:00","2021","01","04","07:00","-13.0","","-14.1","","92","","","","29","","4","","0.8","","98.09","","","","-16","","Freezing Fog"
"-89.32","48.37","THUNDER BAY A","6048262","2021-01-04 08:00","2021","01","04","08:00","-12.9","","-13.8","","93","","","","25","","5","","0.8","","98.14","","","","-16","","Freezing Fog"
"-89.32","48.37","THUNDER BAY A","6048262","2021-01-04 09:00","2021","01","04","09:00","-11.5","","-12.3","","94","","","","28","","7","","3.2","","98.15","","","","-16","","Fog"
"-89.32","48.37","THUNDER BAY A","6048262","2021-01-04 10:00","2021","01","04","10:00","-9.7","","-10.2","","96","","","","28","","8","","4.8","","98.14","","","","-14","","Fog"
"-89.32","48.37","THUNDER BAY A","6048262","2021-01-04 11:00","2021","01","04","11:00","-7.4","","-7.8","","97","","","","28","","6","","3.2","","98.17","","","","-11","","Fog"
"-89.32","48.37","THUNDER BAY A","6048262","2021-01-04 12:00","2021","01","04","12:00","-5.5","","-5.6","","99","","","","24","","4","","4.8","","98.12","","","","-7","","Fog"
"-89.32","48.37","THUNDER BAY A","6048262","2021-01-04 13:00","2021","01","04","13:00","-3.7","","-3.7","","100","","","","22","","6","","4.8","","98.05","","","","-6","","Fog"
"-89.32","48.37","THUNDER BAY A","6048262","2021-01-04 14:00","2021","01","04","14:00","-2.1","","-2.1","","100","","","","23","","7","","6.4","","98.03","","","","-5","","Fog"
"-89.32","48.37","THUNDER BAY A","6048262","2021-01-04 15:00","2021","01","04","15:00","-1.1","","-1.1","","100","","","","26","","9","","9.7","","98.07","","","","-4","","Fog"
"-89.32","48.37","THUNDER BAY A","6048262","2021-01-04 16:00","2021","01","04","16:00","-0.5","","-0.6","","99","","","","26","","11","","8.1","","98.14","","","","-4","","Fog"
"-89.32","48.37","THUNDER BAY A","6048262","2021-01-04 17:00","2021","01","04","17:00","-0.4","","-1.0","","96","","","","23","","7","","6.4","","98.20","","","","-3","","Fog"
"-89.32","48.37","THUNDER BAY A","6048262","2021-01-04 18:00","2021","01","04","18:00","-0.6","","-1.0","","97","","","","22","","5","","8.1","","98.27","","","","-2","","Snow,Fog"
"-89.32","48.37","THUNDER BAY A","6048262","2021-01-04 19:00","2021","01","04","19:00","-0.6","","-1.0","","97","","","","23","","11","","9.7","","98.32","","","","-4","","Fog"
"-89.32","48.37","THUNDER BAY A","6048262","2021-01-04 20:00","2021","01","04","20:00","-1.0","","-1.5","","97","","","","22","","8","","16.1","","98.38","","","","-4","","NA"
"-89.32","48.37","THUNDER BAY A","6048262","2021-01-04 21:00","2021","01","04","21:00","0.1","","-1.4","","90","","","","25","","10","","16.1","","98.43","","","","","","NA"
"-89.32","48.37","THUNDER BAY A","6048262","2021-01-04 22:00","2021","01","04","22:00","-1.3","","-2.4","","93","","","","24","","11","","24.1","","98.46","","","","-5","","Mostly Cloudy"
"-89.32","48.37","THUNDER BAY A","6048262","2021-01-04 23:00","2021","01","04","23:00","-3.8","","-4.4","","96","","","","26","","12","","24.1","","98.50","","","","-8","","NA"
"-89.32","48.37","THUNDER BAY A","6048262","2021-01-05 00:00","2021","01","05","00:00","-2.5","","-3.2","","95","","","","28","","14","","24.1","","98.58","","","","-7","","NA"
"-89.32","48.37","THUNDER BAY A","6048262","2021-01-05 01:00","2021","01","05","01:00","-2.0","","-2.9","","94","","","","21","","10","","24.1","","98.63","","","","-6","","Cloudy"
"-89.32","48.37","THUNDER BAY A","6048262","2021-01-05 02:00","2021","01","05","02:00","-2.5","","-2.9","","97","","","","24","","8","","24.1","","98.70","","","","-6","","NA"
"-89.32","48.37","THUNDER BAY A","6048262","2021-01-05 03:00","2021","01","05","03:00","-4.6","","-4.7","","99","","","","26","","5","","12.9","","98.78","","","","-7","","NA"
"-89.32","48.37","THUNDER BAY A","6048262","2021-01-05 04:00","2021","01","05","04:00","-6.9","","-7.3","","97","","","","26","","9","","11.3","","98.84","","","","-11","","Mainly Clear"
"-89.32","48.37","THUNDER BAY A","6048262","2021-01-05 05:00","2021","01","05","05:00","-6.8","","-7.0","","99","","","","27","","8","","16.1","","98.89","","","","-11","","NA"
"-89.32","48.37","THUNDER BAY A","6048262","2021-01-05 06:00","2021","01","05","06:00","-3.8","","-3.8","","100","","","","29","","13","","16.1","","98.93","","","","-9","","NA"
"-89.32","48.37","THUNDER BAY A","6048262","2021-01-05 07:00","2021","01","05","07:00","-3.5","","-3.5","","100","","","","28","","12","","24.1","","99.03","","","","-8","","Mostly Cloudy"
"-89.32","48.37","THUNDER BAY A","6048262","2021-01-05 08:00","2021","01","05","08:00","-3.7","","-3.7","","100","","","","23","","8","","32.2","","99.10","","","","-7","","NA"
"-89.32","48.37","THUNDER BAY A","6048262","2021-01-05 09:00","2021","01","05","09:00","-5.5","","-5.6","","99","","","","25","","11","","24.1","","99.18","","","","-10","","NA"
"-89.32","48.37","THUNDER BAY A","6048262","2021-01-05 10:00","2021","01","05","10:00","-4.4","","-4.4","","100","","","","21","","13","","24.1","","99.23","","","","-9","","Mainly Clear"
"-89.32","48.37","THUNDER BAY A","6048262","2021-01-05 11:00","2021","01","05","11:00","-1.9","","-2.9","","93","","","","22","","9","","32.2","","99.32","","","","-5","","NA"
"-89.32","48.37","THUNDER BAY A","6048262","2021-01-05 12:00","2021","01","05","12:00","0.5","","-2.3","","81","","","","30","","7","","32.2","","99.33","","","","","","NA"
"-89.32","48.37","THUNDER BAY A","6048262","2021-01-05 13:00","2021","01","05","13:00","0.8","","-2.4","","79","","","","34","","8","","32.2","","99.34","","","","","","Mostly Cloudy"
"-89.32","48.37","THUNDER BAY A","6048262","2021-01-05 14:00","2021","01","05","14:00","1.7","","-2.4","","74","","","","32","","11","","32.2","","99.38","","","","","","NA"
"-89.32","48.37","THUNDER BAY A","6048262","2021-01-05 15:00","2021","01","05","15:00","1.8","","-2.7","","72","","","","33","","13","","32.2","","99.49","","","","","","NA"
"-89.32","48.37","THUNDER BAY A","6048262","2021-01-05 16:00","2021","01","05","16:00","0.9","","-3.1","","74","","","","33","","6","","32.2","","99.59","","","","","","Mostly Cloudy"
"-89.32","48.37","THUNDER BAY A","6048262","2021-01-05 17:00","2021","01","05","17:00","0.4","","-2.7","","80","","","","29","","8","","32.2","","99.69","","","","","","NA"
"-89.32","48.37","THUNDER BAY A","6048262","2021-01-05 18:00","2021","01","05","18:00","1.0","","-3.4","","72","","","","1","","8","","24.1","","99.76","","","","","","NA"
"-89.32","48.37","THUNDER BAY A","6048262","2021-01-05 19:00","2021","01","05","19:00","0.4","","-3.6","","74","","","","28","","5","","24.1","","99.84","","","","","","Cloudy"
"-89.32","48.37","THUNDER BAY A","6048262","2021-01-05 20:00","2021","01","05","20:00","-0.1","","-3.3","","79","","","","2","","5","","24.1","","99.90","","","","-2","","NA"
"-89.32","48.37","THUNDER BAY A","6048262","2021-01-05 21:00","2021","01","05","21:00","-0.1","","-3.3","","79","","","","1","","5","","24.1","","99.96","","","","-2","","NA"
"-89.32","48.37","THUNDER BAY A","6048262","2021-01-05 22:00","2021","01","05","22:00","-0.9","","-3.4","","83","","","","11","","9","","24.1","","100.04","","","","-4","","Cloudy"
"-89.32","48.37","THUNDER BAY A","6048262","2021-01-05 23:00","2021","01","05","23:00","-1.4","","-3.3","","87","","","","36","","5","","24.1","","100.08","","","","-3","","NA"
"-89.32","48.37","THUNDER BAY A","6048262","2021-01-06 00:00","2021","01","06","00:00","-2.1","","-3.4","","91","","","","5","","4","","24.1","","100.10","","","","-4","","NA"
"-89.32","48.37","THUNDER BAY A","6048262","2021-01-06 01:00","2021","01","06","01:00","-2.1","","-3.4","","91","","","","11","","3","","24.1","","100.14","","","","-3","","Cloudy"
"-89.32","48.37","THUNDER BAY A","6048262","2021-01-06 02:00","2021","01","06","02:00","-2.4","","-4.4","","86","","","","6","","13","","24.1","","100.18","","","","-7","","NA"
"-89.32","48.37","THUNDER BAY A","6048262","2021-01-06 03:00","2021","01","06","03:00","-2.5","","-4.5","","86","","","","7","","6","","24.1","","100.27","","","","-5","","NA"
"-89.32","48.37","THUNDER BAY A","6048262","2021-01-06 04:00","2021","01","06","04:00","-2.7","","-4.6","","87","","","","36","","3","","24.1","","100.30","","","","-4","","Cloudy"
"-89.32","48.37","THUNDER BAY A","6048262","2021-01-06 05:00","2021","01","06","05:00","-2.8","","-4.2","","90","","","","12","","3","","24.1","","100.32","","","","-4","","NA"
"-89.32","48.37","THUNDER BAY A","6048262","2021-01-06 06:00","2021","01","06","06:00","-2.7","","-4.4","","88","","","","12","","3","","24.1","","100.37","","","","-4","","NA"
"-89.32","48.37","THUNDER BAY A","6048262","2021-01-06 07:00","2021","01","06","07:00","-3.0","","-4.4","","90","","","","9","","4","","24.1","","100.44","","","","-5","","Cloudy"
"-89.32","48.37","THUNDER BAY A","6048262","2021-01-06 08:00","2021","01","06","08:00","-3.2","","-4.5","","91","","","","6","","7","","24.1","","100.46","","","","-6","","NA"
"-89.32","48.37","THUNDER BAY A","6048262","2021-01-06 09:00","2021","01","06","09:00","-4.6","","-6.0","","90","","","","7","","10","","32.2","","100.50","","","","-9","","NA"
"-89.32","48.37","THUNDER BAY A","6048262","2021-01-06 10:00","2021","01","06","10:00","-4.0","","-5.0","","93","","","","7","","6","","24.1","","100.55","","","","-7","","Mostly Cloudy"
"-89.32","48.37","THUNDER BAY A","6048262","2021-01-06 11:00","2021","01","06","11:00","-3.0","","-4.7","","88","","","","6","","8","","32.2","","100.57","","","","-6","","NA"
"-89.32","48.37","THUNDER BAY A","6048262","2021-01-06 12:00","2021","01","06","12:00","-1.6","","-4.1","","83","","","","6","","10","","32.2","","100.56","","","","-5","","NA"
"-89.32","48.37","THUNDER BAY A","6048262","2021-01-06 13:00","2021","01","06","13:00","-1.0","","-4.1","","80","","","","8","","7","","32.2","","100.51","","","","-4","","Mostly Cloudy"
"-89.32","48.37","THUNDER BAY A","6048262","2021-01-06 14:00","2021","01","06","14:00","-0.6","","-4.3","","76","","","","10","","9","","32.2","","100.50","","","","-4","","NA"
"-89.32","48.37","THUNDER BAY A","6048262","2021-01-06 15:00","2021","01","06","15:00","-0.4","","-4.4","","75","","","","10","","9","","32.2","","100.54","","","","-4","","NA"
"-89.32","48.37","THUNDER BAY A","6048262","2021-01-06 16:00","2021","01","06","16:00","-0.3","","-4.1","","76","","","","9","","10","","32.2","","100.58","","","","-4","","Mostly Cloudy"
"-89.32","48.37","THUNDER BAY A","6048262","2021-01-06 17:00","2021","01","06","17:00","-2.0","","-4.5","","83","","","","10","","10","","32.2","","100.63","","","","-6","","NA"
"-89.32","48.37","THUNDER BAY A","6048262","2021-01-06 18:00","2021","01","06","18:00","-3.2","","-3.8","","96","","","","9","","4","","24.1","","100.64","","","","-5","","NA"
"-89.32","48.37","THUNDER BAY A","6048262","2021-01-06 19:00","2021","01","06","19:00","-3.9","","-4.6","","95","","","","36","","1","","24.1","","100.67","","","","-4","","Cloudy"
"-89.32","48.37","THUNDER BAY A","6048262","2021-01-06 20:00","2021","01","06","20:00","-3.4","","-4.1","","95","","","","36","","3","","24.1","","100.68","","","","-5","","NA"
"-89.32","48.37","THUNDER BAY A","6048262","2021-01-06 21:00","2021","01","06","21:00","-3.6","","-4.3","","95","","","","29","","5","","24.1","","100.69","","","","-6","","NA"
"-89.32","48.37","THUNDER BAY A","6048262","2021-01-06 22:00","2021","01","06","22:00","-2.9","","-3.8","","94","","","","31","","3","","24.1","","100.70","","","","-4","","Cloudy"
"-89.32","48.37","THUNDER BAY A","6048262","2021-01-06 23:00","2021","01","06","23:00","-2.7","","-3.4","","95","","","","29","","6","","24.1","","100.74","","","","-5","","NA"
"-89.32","48.37","THUNDER BAY A","6048262","2021-01-07 00:00","2021","01","07","00:00","-3.0","","-3.5","","96","","","","27","","3","","24.1","","100.75","","","","-4","","NA"
"-89.32","48.37","THUNDER BAY A","6048262","2021-01-07 01:00","2021","01","07","01:00","-3.2","","-3.8","","96","","","","20","","9","","24.1","","100.75","","","","-7","","Mostly Cloudy"
"-89.32","48.37","THUNDER BAY A","6048262","2021-01-07 02:00","2021","01","07","02:00","-3.7","","-4.0","","98","","","","22","","7","","24.1","","100.71","","","","-7","","NA"
"-89.32","48.37","THUNDER BAY A","6048262","2021-01-07 03:00","2021","01","07","03:00","-3.6","","-3.9","","98","","","","19","","3","","24.1","","100.73","","","","-5","","NA"
"-89.32","48.37","THUNDER BAY A","6048262","2021-01-07 04:00","2021","01","07","04:00","-3.5","","-3.8","","98","","","","27","","3","","24.1","","100.73","","","","-5","","Cloudy"
"-89.32","48.37","THUNDER BAY A","6048262","2021-01-07 05:00","2021","01","07","05:00","-3.6","","-3.9","","98","","","","21","","5","","24.1","","100.75","","","","-6","","NA"
"-89.32","48.37","THUNDER BAY A","6048262","2021-01-07 06:00","2021","01","07","06:00","-3.4","","-3.7","","98","","","","27","","4","","24.1","","100.74","","","","-5","","NA"
"-89.32","48.37","THUNDER BAY A","6048262","2021-01-07 07:00","2021","01","07","07:00","-3.3","","-3.6","","98","","","","31","","3","","24.1","","100.76","","","","-5","","Cloudy"
"-89.32","48.37","THUNDER BAY A","6048262","2021-01-07 08:00","2021","01","07","08:00","-4.3","","-4.4","","99","","","","25","","8","","19.3","","100.82","","","","-8","","NA"
"-89.32","48.37","THUNDER BAY A","6048262","2021-01-07 09:00","2021","01","07","09:00","-4.5","","-4.6","","99","","","","23","","5","","32.2","","100.85","","","","-7","","NA"
"-89.32","48.37","THUNDER BAY A","6048262","2021-01-07 10:00","2021","01","07","10:00","-4.8","","-5.1","","98","","","","31","","5","","32.2","","100.85","","","","-7","","Mostly Cloudy"
"-89.32","48.37","THUNDER BAY A","6048262","2021-01-07 11:00","2021","01","07","11:00","-4.3","","-5.3","","93","","","","28","","5","","32.2","","100.84","","","","-6","","NA"
"-89.32","48.37","THUNDER BAY A","6048262","2021-01-07 12:00","2021","01","07","12:00","-1.6","","-3.8","","85","","","","24","","3","","32.2","","100.83","","","","-3","","NA"
"-89.32","48.37","THUNDER BAY A","6048262","2021-01-07 13:00","2021","01","07","13:00","-0.8","","-3.5","","82","","","","36","","2","","24.1","","100.76","","","","-1","","Mostly Cloudy"
"-89.32","48.37","THUNDER BAY A","6048262","2021-01-07 14:00","2021","01","07","14:00","-0.4","","-2.9","","83","","","","36","","2","","32.2","","100.70","","","","-1","","NA"
"-89.32","48.37","THUNDER BAY A","6048262","2021-01-07 15:00","2021","01","07","15:00","0.5","","-2.9","","78","","","","0","","1","","32.2","","100.68","","","","","","NA"
"-89.32","48.37","THUNDER BAY A","6048262","2021-01-07 16:00","2021","01","07","16:00","1.0","","-3.1","","74","","","","22","","3","","32.2","","100.69","","","","","","Mostly Cloudy"
"-89.32","48.37","THUNDER BAY A","6048262","2021-01-07 17:00","2021","01","07","17:00","0.8","","-2.8","","77","","","","20","","3","","32.2","","100.69","","","","","","NA"
"-89.32","48.37","THUNDER BAY A","6048262","2021-01-07 18:00","2021","01","07","18:00","-0.1","","-2.8","","82","","","","28","","5","","24.1","","100.69","","","","-2","","NA"
"-89.32","48.37","THUNDER BAY A","6048262","2021-01-07 19:00","2021","01","07","19:00","-2.1","","-3.1","","93","","","","27","","4","","24.1","","100.68","","","","-4","","Mostly Cloudy"
"-89.32","48.37","THUNDER BAY A","6048262","2021-01-07 20:00","2021","01","07","20:00","-4.0","","-4.1","","99","","","","32","","3","","24.1","","100.68","","","","-5","","NA"
"-89.32","48.37","THUNDER BAY A","6048262","2021-01-07 21:00","2021","01","07","21:00","-5.7","","-5.8","","99","","","","26","","5","","24.1","","100.67","","","","-8","","NA"
"-89.32","48.37","THUNDER BAY A","6048262","2021-01-07 22:00","2021","01","07","22:00","-6.9","","-7.2","","98","","","","26","","5","","24.1","","100.67","","","","-9","","Mainly Clear"
"-89.32","48.37","THUNDER BAY A","6048262","2021-01-07 23:00","2021","01","07","23:00","-8.3","","-9.0","","95","","","","28","","7","","24.1","","100.67","","","","-12","","NA"
"-89.32","48.37","THUNDER BAY A","6048262","2021-01-08 00:00","2021","01","08","00:00","-10.6","","-11.4","","94","","","","24","","7","","24.1","","100.65","","","","-15","","NA"
"-89.32","48.37","THUNDER BAY A","6048262","2021-01-08 01:00","2021","01","08","01:00","-11.5","","-12.3","","94","","","","26","","7","","24.1","","100.64","","","","-16","","Mainly Clear"
"-89.32","48.37","THUNDER BAY A","6048262","2021-01-08 02:00","2021","01","08","02:00","-12.5","","-13.4","","93","","","","27","","7","","24.1","","100.61","","","","-17","","NA"
"-89.32","48.37","THUNDER BAY A","6048262","2021-01-08 03:00","2021","01","08","03:00","-13.4","","-14.3","","93","","","","24","","7","","24.1","","100.64","","","","-18","","NA"
"-89.32","48.37","THUNDER BAY A","6048262","2021-01-08 04:00","2021","01","08","04:00","-13.9","","-14.9","","92","","","","29","","10","","24.1","","100.63","","","","-20","","Clear"
"-89.32","48.37","THUNDER BAY A","6048262","2021-01-08 05:00","2021","01","08","05:00","-13.4","","-14.3","","93","","","","26","","7","","24.1","","100.61","","","","-18","","NA"
"-89.32","48.37","THUNDER BAY A","6048262","2021-01-08 06:00","2021","01","08","06:00","-15.6","","-17.0","","89","","","","24","","11","","24.1","","100.58","","","","-22","","NA"
"-89.32","48.37","THUNDER BAY A","6048262","2021-01-08 07:00","2021","01","08","07:00","-14.2","","-15.3","","92","","","","24","","9","","24.1","","100.57","","","","-20","","Clear"
"-89.32","48.37","THUNDER BAY A","6048262","2021-01-08 08:00","2021","01","08","08:00","-14.6","","-15.6","","92","","","","25","","12","","24.1","","100.56","","","","-21","","NA"
"-89.32","48.37","THUNDER BAY A","6048262","2021-01-08 09:00","2021","01","08","09:00","-14.9","","-15.9","","92","","","","24","","10","","32.2","","100.55","","","","-21","","NA"
"-89.32","48.37","THUNDER BAY A","6048262","2021-01-08 10:00","2021","01","08","10:00","-12.6","","-13.2","","95","","","","25","","9","","32.2","","100.56","","","","-18","","Clear"
"-89.32","48.37","THUNDER BAY A","6048262","2021-01-08 11:00","2021","01","08","11:00","-10.4","","-10.7","","98","","","","24","","10","","32.2","","100.56","","","","-16","","NA"
"-89.32","48.37","THUNDER BAY A","6048262","2021-01-08 12:00","2021","01","08","12:00","-6.7","","-8.1","","90","","","","23","","14","","32.2","","100.50","","","","-12","","NA"
"-89.32","48.37","THUNDER BAY A","6048262","2021-01-08 13:00","2021","01","08","13:00","-4.9","","-7.7","","81","","","","25","","14","","32.2","","100.41","","","","-10","","Mainly Clear"
"-89.32","48.37","THUNDER BAY A","6048262","2021-01-08 14:00","2021","01","08","14:00","-3.1","","-6.8","","76","","","","27","","14","","32.2","","100.35","","","","-8","","NA"
"-89.32","48.37","THUNDER BAY A","6048262","2021-01-08 15:00","2021","01","08","15:00","-2.4","","-6.2","","75","","","","28","","13","","32.2","","100.31","","","","-7","","NA"
"-89.32","48.37","THUNDER BAY A","6048262","2021-01-08 16:00","2021","01","08","16:00","-1.7","","-5.6","","75","","","","28","","14","","32.2","","100.30","","","","-6","","Mainly Clear"
"-89.32","48.37","THUNDER BAY A","6048262","2021-01-08 17:00","2021","01","08","17:00","-2.4","","-5.9","","77","","","","27","","15","","32.2","","100.31","","","","-7","","NA"
"-89.32","48.37","THUNDER BAY A","6048262","2021-01-08 18:00","2021","01","08","18:00","-4.3","","-6.5","","85","","","","28","","17","","24.1","","100.35","","","","-10","","NA"
"-89.32","48.37","THUNDER BAY A","6048262","2021-01-08 19:00","2021","01","08","19:00","-3.7","","-5.1","","90","","","","28","","10","","24.1","","100.33","","","","-8","","Cloudy"
"-89.32","48.37","THUNDER BAY A","6048262","2021-01-08 20:00","2021","01","08","20:00","-3.9","","-5.0","","92","","","","23","","9","","24.1","","100.33","","","","-8","","NA"
"-89.32","48.37","THUNDER BAY A","6048262","2021-01-08 21:00","2021","01","08","21:00","-3.7","","-4.5","","94","","","","23","","10","","24.1","","100.32","","","","-8","","NA"
"-89.32","48.37","THUNDER BAY A","6048262","2021-01-08 22:00","2021","01","08","22:00","-3.4","","-4.2","","94","","","","27","","8","","24.1","","100.30","","","","-7","","Cloudy"
"-89.32","48.37","THUNDER BAY A","6048262","2021-01-08 23:00","2021","01","08","23:00","-3.2","","-3.9","","95","","","","25","","4","","24.1","","100.25","","","","-5","","NA"
"-89.32","48.37","THUNDER BAY A","6048262","2021-01-09 00:00","2021","01","09","00:00","-3.1","","-3.8","","95","","","","36","","3","","24.1","","100.23","","","","-4","","NA"
"-89.32","48.37","THUNDER BAY A","6048262","2021-01-09 01:00","2021","01","09","01:00","-3.1","","-3.8","","95","","","","31","","4","","24.1","","100.22","","","","-5","","Cloudy"
"-89.32","48.37","THUNDER BAY A","6048262","2021-01-09 02:00","2021","01","09","02:00","-2.7","","-3.4","","95","","","","29","","5","","24.1","","100.19","","","","-5","","NA"
"-89.32","48.37","THUNDER BAY A","6048262","2021-01-09 03:00","2021","01","09","03:00","-2.6","","-3.4","","94","","","","36","","2","","24.1","","100.22","","","","-3","","NA"
"-89.32","48.37","THUNDER BAY A","6048262","2021-01-09 04:00","2021","01","09","04:00","-2.5","","-3.3","","94","","","","34","","4","","24.1","","100.23","","","","-4","","Cloudy"
"-89.32","48.37","THUNDER BAY A","6048262","2021-01-09 05:00","2021","01","09","05:00","-2.0","","-3.0","","93","","","","34","","3","","24.1","","100.22","","","","-3","","NA"
"-89.32","48.37","THUNDER BAY A","6048262","2021-01-09 06:00","2021","01","09","06:00","-2.1","","-3.1","","93","","","","30","","4","","24.1","","100.19","","","","-4","","NA"
"-89.32","48.37","THUNDER BAY A","6048262","2021-01-09 07:00","2021","01","09","07:00","-2.0","","-3.0","","93","","","","35","","5","","24.1","","100.23","","","","-4","","Cloudy"
"-89.32","48.37","THUNDER BAY A","6048262","2021-01-09 08:00","2021","01","09","08:00","-1.9","","-3.0","","92","","","","32","","9","","24.1","","100.25","","","","-5","","NA"
"-89.32","48.37","THUNDER BAY A","6048262","2021-01-09 09:00","2021","01","09","09:00","-2.3","","-3.6","","91","","","","33","","12","","32.2","","100.27","","","","-7","","NA"
"-89.32","48.37","THUNDER BAY A","6048262","2021-01-09 10:00","2021","01","09","10:00","-2.9","","-4.2","","91","","","","31","","9","","32.2","","100.30","","","","-6","","Cloudy"
"-89.32","48.37","THUNDER BAY A","6048262","2021-01-09 11:00","2021","01","09","11:00","-3.2","","-4.5","","91","","","","35","","10","","32.2","","100.32","","","","-7","","NA"
"-89.32","48.37","THUNDER BAY A","6048262","2021-01-09 12:00","2021","01","09","12:00","-3.5","","-5.1","","89","","","","29","","11","","32.2","","100.31","","","","-8","","NA"
"-89.32","48.37","THUNDER BAY A","6048262","2021-01-09 13:00","2021","01","09","13:00","-3.8","","-5.5","","88","","","","29","","16","","32.2","","100.26","","","","-9","","Mostly Cloudy"
"-89.32","48.37","THUNDER BAY A","6048262","2021-01-09 14:00","2021","01","09","14:00","-3.6","","-5.8","","85","","","","29","","9","","32.2","","100.20","","","","-7","","NA"
"-89.32","48.37","THUNDER BAY A","6048262","2021-01-09 15:00","2021","01","09","15:00","-3.2","","-6.0","","81","","","","28","","11","","32.2","","100.17","","","","-7","","NA"
"-89.32","48.37","THUNDER BAY A","6048262","2021-01-09 16:00","2021","01","09","16:00","-3.1","","-5.9","","81","","","","28","","11","","32.2","","100.18","","","","-7","","Cloudy"
"-89.32","48.37","THUNDER BAY A","6048262","2021-01-09 17:00","2021","01","09","17:00","-3.7","","-6.7","","80","","","","30","","10","","32.2","","100.18","","","","-8","","NA"
"-89.32","48.37","THUNDER BAY A","6048262","2021-01-09 18:00","2021","01","09","18:00","-5.2","","-6.9","","88","","","","25","","10","","24.1","","100.20","","","","-10","","NA"
"-89.32","48.37","THUNDER BAY A","6048262","2021-01-09 19:00","2021","01","09","19:00","-6.3","","-7.7","","90","","","","24","","12","","24.1","","100.19","","","","-11","","Mostly Cloudy"
"-89.32","48.37","THUNDER BAY A","6048262","2021-01-09 20:00","2021","01","09","20:00","-6.8","","-8.0","","91","","","","25","","16","","24.1","","100.19","","","","-13","","NA"
"-89.32","48.37","THUNDER BAY A","6048262","2021-01-09 21:00","2021","01","09","21:00","-7.4","","-8.3","","93","","","","25","","13","","24.1","","100.21","","","","-13","","NA"
"-89.32","48.37","THUNDER BAY A","6048262","2021-01-09 22:00","2021","01","09","22:00","-9.1","","-9.5","","97","","","","23","","13","","24.1","","100.20","","","","-15","","Mainly Clear"
"-89.32","48.37","THUNDER BAY A","6048262","2021-01-09 23:00","2021","01","09","23:00","-9.6","","-10.0","","97","","","","24","","12","","24.1","","100.16","","","","-15","","NA"
"-89.32","48.37","THUNDER BAY A","6048262","2021-01-10 00:00","2021","01","10","00:00","-10.5","","-11.0","","96","","","","26","","10","","24.1","","100.13","","","","-16","","NA"
"-89.32","48.37","THUNDER BAY A","6048262","2021-01-10 01:00","2021","01","10","01:00","-11.3","","-11.9","","96","","","","22","","16","","24.1","","100.11","","","","-19","","Clear"
"-89.32","48.37","THUNDER BAY A","6048262","2021-01-10 02:00","2021","01","10","02:00","-10.4","","-11.0","","95","","","","23","","14","","24.1","","100.09","","","","-17","","NA"
"-89.32","48.37","THUNDER BAY A","6048262","2021-01-10 03:00","2021","01","10","03:00","-12.7","","-13.3","","95","","","","26","","7","","24.1","","100.09","","","","-17","","NA"
"-89.32","48.37","THUNDER BAY A","6048262","2021-01-10 04:00","2021","01","10","04:00","-13.0","","-13.9","","93","","","","24","","13","","24.1","","100.08","","","","-20","","Clear"
"-89.32","48.37","THUNDER BAY A","6048262","2021-01-10 05:00","2021","01","10","05:00","-12.8","","-13.6","","94","","","","23","","14","","24.1","","100.08","","","","-20","","NA"
"-89.32","48.37","THUNDER BAY A","6048262","2021-01-10 06:00","2021","01","10","06:00","-12.3","","-13.1","","94","","","","23","","15","","24.1","","100.07","","","","-20","","NA"
"-89.32","48.37","THUNDER BAY A","6048262","2021-01-10 07:00","2021","01","10","07:00","-11.7","","-12.3","","95","","","","26","","11","","24.1","","100.05","","","","-18","","Mostly Cloudy"
"-89.32","48.37","THUNDER BAY A","6048262","2021-01-10 08:00","2021","01","10","08:00","-11.3","","-11.9","","95","","","","24","","12","","24.1","","100.04","","","","-17","","NA"
"-89.32","48.37","THUNDER BAY A","6048262","2021-01-10 09:00","2021","01","10","09:00","-10.2","","-10.7","","96","","","","22","","14","","32.2","","100.04","","","","-17","","NA"
"-89.32","48.37","THUNDER BAY A","6048262","2021-01-10 10:00","2021","01","10","10:00","-9.3","","-9.8","","96","","","","23","","15","","32.2","","100.06","","","","-16","","Cloudy"
"-89.32","48.37","THUNDER BAY A","6048262","2021-01-10 11:00","2021","01","10","11:00","-7.5","","-8.0","","96","","","","24","","12","","32.2","","100.05","","","","-13","","NA"
"-89.32","48.37","THUNDER BAY A","6048262","2021-01-10 12:00","2021","01","10","12:00","-6.0","","-7.1","","92","","","","26","","13","","32.2","","99.96","","","","-11","","NA"
"-89.32","48.37","THUNDER BAY A","6048262","2021-01-10 13:00","2021","01","10","13:00","-5.2","","-6.9","","88","","","","27","","19","","16.1","","99.91","","","","-12","","Cloudy"
"-89.32","48.37","THUNDER BAY A","6048262","2021-01-10 14:00","2021","01","10","14:00","-4.7","","-6.7","","86","","","","29","","19","","24.1","","99.81","","","","-11","","NA"
"-89.32","48.37","THUNDER BAY A","6048262","2021-01-10 15:00","2021","01","10","15:00","-4.0","","-6.5","","83","","","","26","","14","","24.1","","99.75","","","","-9","","NA"
"-89.32","48.37","THUNDER BAY A","6048262","2021-01-10 16:00","2021","01","10","16:00","-3.8","","-6.3","","83","","","","25","","14","","32.2","","99.69","","","","-9","","Mainly Clear"
"-89.32","48.37","THUNDER BAY A","6048262","2021-01-10 17:00","2021","01","10","17:00","-4.8","","-6.5","","88","","","","24","","12","","32.2","","99.64","","","","-10","","NA"
"-89.32","48.37","THUNDER BAY A","6048262","2021-01-10 18:00","2021","01","10","18:00","-5.7","","-6.8","","92","","","","22","","6","","24.1","","99.61","","","","-9","","NA"
"-89.32","48.37","THUNDER BAY A","6048262","2021-01-10 19:00","2021","01","10","19:00","-5.8","","-6.6","","94","","","","22","","7","","24.1","","99.52","","","","-9","","Mostly Cloudy"
"-89.32","48.37","THUNDER BAY A","6048262","2021-01-10 20:00","2021","01","10","20:00","-9.0","","-9.1","","99","","","","30","","8","","24.1","","99.48","","","","-13","","NA"
"-89.32","48.37","THUNDER BAY A","6048262","2021-01-10 21:00","2021","01","10","21:00","-7.3","","-7.7","","97","","","","22","","7","","24.1","","99.36","","","","-11","","NA"
"-89.32","48.37","THUNDER BAY A","6048262","2021-01-10 22:00","2021","01","10","22:00","-8.7","","-9.0","","98","","","","22","","5","","24.1","","99.31","","","","-11","","Mostly Cloudy"
"-89.32","48.37","THUNDER BAY A","6048262","2021-01-10 23:00","2021","01","10","23:00","-8.0","","-8.7","","95","","","","21","","10","","24.1","","99.27","","","","-13","","NA"
"-89.32","48.37","THUNDER BAY A","6048262","2021-01-11 00:00","2021","01","11","00:00","-8.2","","-8.9","","95","","","","23","","5","","24.1","","99.25","","","","-11","","NA"
"-89.32","48.37","THUNDER BAY A","6048262","2021-01-11 01:00","2021","01","11","01:00","-5.6","","-6.7","","92","","","","24","","11","","24.1","","99.17","","","","-10","","Cloudy"
"-89.32","48.37","THUNDER BAY A","6048262","2021-01-11 02:00","2021","01","11","02:00","-3.2","","-5.1","","87","","","","24","","13","","24.1","","99.12","","","","-8","","NA"
"-89.32","48.37","THUNDER BAY A","6048262","2021-01-11 03:00","2021","01","11","03:00","-2.7","","-4.6","","87","","","","25","","10","","16.1","","99.11","","","","-7","","NA"
"-89.32","48.37","THUNDER BAY A","6048262","2021-01-11 04:00","2021","01","11","04:00","-2.6","","-4.2","","89","","","","24","","8","","16.1","","99.10","","","","-6","","Cloudy"
"-89.32","48.37","THUNDER BAY A","6048262","2021-01-11 05:00","2021","01","11","05:00","-2.5","","-3.9","","90","","","","24","","10","","16.1","","99.05","","","","-6","","NA"
"-89.32","48.37","THUNDER BAY A","6048262","2021-01-11 06:00","2021","01","11","06:00","-2.4","","-3.8","","90","","","","23","","10","","24.1","","99.00","","","","-6","","NA"
"-89.32","48.37","THUNDER BAY A","6048262","2021-01-11 07:00","2021","01","11","07:00","-2.4","","-3.7","","91","","","","23","","11","","24.1","","98.99","","","","-6","","Cloudy"
"-89.32","48.37","THUNDER BAY A","6048262","2021-01-11 08:00","2021","01","11","08:00","-2.5","","-3.6","","92","","","","23","","8","","24.1","","98.97","","","","-6","","NA"
"-89.32","48.37","THUNDER BAY A","6048262","2021-01-11 09:00","2021","01","11","09:00","-2.2","","-3.6","","90","","","","22","","5","","32.2","","98.97","","","","-4","","NA"
"-89.32","48.37","THUNDER BAY A","6048262","2021-01-11 10:00","2021","01","11","10:00","-2.4","","-3.7","","91","","","","24","","4","","32.2","","98.97","","","","-4","","Cloudy"
"-89.32","48.37","THUNDER BAY A","6048262","2021-01-11 11:00","2021","01","11","11:00","-1.0","","-3.5","","83","","","","25","","8","","32.2","","98.99","","","","-4","","NA"
"-89.32","48.37","THUNDER BAY A","6048262","2021-01-11 12:00","2021","01","11","12:00","-0.4","","-3.6","","79","","","","27","","9","","32.2","","98.94","","","","-4","","NA"
"-89.32","48.37","THUNDER BAY A","6048262","2021-01-11 13:00","2021","01","11","13:00","-0.3","","-3.6","","79","","","","29","","15","","32.2","","98.85","","","","-5","","Cloudy"
"-89.32","48.37","THUNDER BAY A","6048262","2021-01-11 14:00","2021","01","11","14:00","-0.3","","-3.3","","80","","","","29","","9","","32.2","","98.82","","","","-3","","NA"
"-89.32","48.37","THUNDER BAY A","6048262","2021-01-11 15:00","2021","01","11","15:00","-0.2","","-3.4","","79","","","","28","","14","","32.2","","98.81","","","","-4","","NA"
"-89.32","48.37","THUNDER BAY A","6048262","2021-01-11 16:00","2021","01","11","16:00","-0.2","","-3.4","","79","","","","28","","14","","32.2","","98.86","","","","-4","","Cloudy"
"-89.32","48.37","THUNDER BAY A","6048262","2021-01-11 17:00","2021","01","11","17:00","-0.3","","-3.3","","80","","","","29","","13","","32.2","","98.86","","","","-4","","NA"
"-89.32","48.37","THUNDER BAY A","6048262","2021-01-11 18:00","2021","01","11","18:00","-0.6","","-3.3","","82","","","","24","","8","","24.1","","98.86","","","","-3","","NA"
"-89.32","48.37","THUNDER BAY A","6048262","2021-01-11 19:00","2021","01","11","19:00","-0.7","","-3.6","","81","","","","28","","8","","24.1","","98.87","","","","-4","","Cloudy"
"-89.32","48.37","THUNDER BAY A","6048262","2021-01-11 20:00","2021","01","11","20:00","-0.9","","-3.4","","83","","","","25","","7","","24.1","","98.89","","","","-3","","NA"
"-89.32","48.37","THUNDER BAY A","6048262","2021-01-11 21:00","2021","01","11","21:00","-0.9","","-3.4","","83","","","","27","","9","","24.1","","98.89","","","","-4","","NA"
"-89.32","48.37","THUNDER BAY A","6048262","2021-01-11 22:00","2021","01","11","22:00","-0.9","","-3.8","","81","","","","28","","13","","24.1","","98.92","","","","-5","","Cloudy"
"-89.32","48.37","THUNDER BAY A","6048262","2021-01-11 23:00","2021","01","11","23:00","-0.8","","-3.8","","80","","","","26","","14","","24.1","","98.93","","","","-5","","NA"
"-89.32","48.37","THUNDER BAY A","6048262","2021-01-12 00:00","2021","01","12","00:00","-1.1","","-3.6","","83","","","","29","","9","","24.1","","98.95","","","","-4","","NA"
"-89.32","48.37","THUNDER BAY A","6048262","2021-01-12 01:00","2021","01","12","01:00","-1.3","","-3.7","","84","","","","29","","13","","24.1","","98.93","","","","-6","","Cloudy"
"-89.32","48.37","THUNDER BAY A","6048262","2021-01-12 02:00","2021","01","12","02:00","-1.4","","-3.6","","85","","","","27","","9","","24.1","","98.90","","","","-5","","NA"
"-89.32","48.37","THUNDER BAY A","6048262","2021-01-12 03:00","2021","01","12","03:00","-1.4","","-3.6","","85","","","","28","","7","","24.1","","98.94","","","","-4","","NA"
"-89.32","48.37","THUNDER BAY A","6048262","2021-01-12 04:00","2021","01","12","04:00","-1.6","","-3.8","","85","","","","27","","12","","24.1","","98.90","","","","-6","","Cloudy"
"-89.32","48.37","THUNDER BAY A","6048262","2021-01-12 05:00","2021","01","12","05:00","-1.9","","-3.9","","86","","","","","","","M","24.1","","98.88","","","","","","NA"
"-89.32","48.37","THUNDER BAY A","6048262","2021-01-12 06:00","2021","01","12","06:00","-2.2","","-4.1","","87","","","","27","","10","","24.1","","98.88","","","","-6","","NA"
"-89.32","48.37","THUNDER BAY A","6048262","2021-01-12 07:00","2021","01","12","07:00","-2.5","","-4.2","","88","","","","28","","14","","24.1","","98.89","","","","-7","","Cloudy"
"-89.32","48.37","THUNDER BAY A","6048262","2021-01-12 08:00","2021","01","12","08:00","-2.9","","-4.3","","90","","","","24","","15","","24.1","","98.89","","","","-8","","NA"
"-89.32","48.37","THUNDER BAY A","6048262","2021-01-12 09:00","2021","01","12","09:00","-3.1","","-4.5","","90","","","","26","","10","","32.2","","98.87","","","","-7","","NA"
"-89.32","48.37","THUNDER BAY A","6048262","2021-01-12 10:00","2021","01","12","10:00","-3.2","","-4.6","","90","","","","22","","11","","32.2","","98.88","","","","-7","","Cloudy"
"-89.32","48.37","THUNDER BAY A","6048262","2021-01-12 11:00","2021","01","12","11:00","-3.2","","-4.6","","90","","","","28","","11","","32.2","","98.86","","","","-7","","NA"
"-89.32","48.37","THUNDER BAY A","6048262","2021-01-12 12:00","2021","01","12","12:00","-2.8","","-4.5","","88","","","","24","","9","","32.2","","98.79","","","","-6","","NA"
"-89.32","48.37","THUNDER BAY A","6048262","2021-01-12 13:00","2021","01","12","13:00","-2.0","","-4.7","","82","","","","28","","8","","32.2","","98.68","","","","-5","","Mostly Cloudy"
"-89.32","48.37","THUNDER BAY A","6048262","2021-01-12 14:00","2021","01","12","14:00","-0.9","","-4.6","","76","","","","25","","10","","32.2","","98.59","","","","-4","","NA"
"-89.32","48.37","THUNDER BAY A","6048262","2021-01-12 15:00","2021","01","12","15:00","0.2","","-5.0","","68","","","","21","","4","","32.2","","98.52","","","","","","NA"
"-89.32","48.37","THUNDER BAY A","6048262","2021-01-12 16:00","2021","01","12","16:00","-0.8","","-5.4","","71","","","","8","","5","","24.1","","98.50","","","","-2","","Mostly Cloudy"
"-89.32","48.37","THUNDER BAY A","6048262","2021-01-12 17:00","2021","01","12","17:00","-2.1","","-5.4","","78","","","","9","","7","","24.1","","98.44","","","","-5","","NA"
"-89.32","48.37","THUNDER BAY A","6048262","2021-01-12 18:00","2021","01","12","18:00","-1.7","","-4.7","","80","","","","20","","3","","24.1","","98.39","","","","-3","","NA"
"-89.32","48.37","THUNDER BAY A","6048262","2021-01-12 19:00","2021","01","12","19:00","-2.7","","-4.6","","87","","","","19","","4","","24.1","","98.31","","","","-4","","Mainly Clear"
"-89.32","48.37","THUNDER BAY A","6048262","2021-01-12 20:00","2021","01","12","20:00","-2.8","","-4.2","","90","","","","23","","5","","24.1","","98.30","","","","-5","","NA"
"-89.32","48.37","THUNDER BAY A","6048262","2021-01-12 21:00","2021","01","12","21:00","-3.1","","-3.9","","94","","","","22","","8","","24.1","","98.22","","","","-6","","NA"
"-89.32","48.37","THUNDER BAY A","6048262","2021-01-12 22:00","2021","01","12","22:00","-3.9","","-4.2","","98","","","","29","","8","","24.1","","98.21","","","","-7","","Mainly Clear"
"-89.32","48.37","THUNDER BAY A","6048262","2021-01-12 23:00","2021","01","12","23:00","-5.9","","-6.0","","99","","","","30","","4","","24.1","","98.15","","","","-8","","NA"
"-89.32","48.37","THUNDER BAY A","6048262","2021-01-13 00:00","2021","01","13","00:00","-8.1","","-8.6","","96","","","","29","","7","","16.1","","98.14","","","","-12","","NA"
"-89.32","48.37","THUNDER BAY A","6048262","2021-01-13 01:00","2021","01","13","01:00","-9.5","","-9.9","","97","","","","30","","5","","24.1","","98.06","","","","-12","","Clear"
"-89.32","48.37","THUNDER BAY A","6048262","2021-01-13 02:00","2021","01","13","02:00","-10.1","","-10.5","","97","","","","29","","5","","24.1","","98.05","","","","-13","","NA"
"-89.32","48.37","THUNDER BAY A","6048262","2021-01-13 03:00","2021","01","13","03:00","-10.5","","-11.2","","95","","","","25","","7","","24.1","","98.02","","","","-15","","NA"
"-89.32","48.37","THUNDER BAY A","6048262","2021-01-13 04:00","2021","01","13","04:00","-11.0","","-11.5","","96","","","","33","","4","","24.1","","98.00","","","","-13","","Clear"
"-89.32","48.37","THUNDER BAY A","6048262","2021-01-13 05:00","2021","01","13","05:00","-11.8","","-12.7","","93","","","","27","","4","","24.1","","97.99","","","","-14","","NA"
"-89.32","48.37","THUNDER BAY A","6048262","2021-01-13 06:00","2021","01","13","06:00","-13.0","","-13.6","","95","","","","29","","7","","24.1","","98.03","","","","-18","","NA"
"-89.32","48.37","THUNDER BAY A","6048262","2021-01-13 07:00","2021","01","13","07:00","-13.0","","-13.9","","93","","","","24","","4","","24.1","","98.07","","","","-16","","Clear"
"-89.32","48.37","THUNDER BAY A","6048262","2021-01-13 08:00","2021","01","13","08:00","-13.8","","-14.7","","93","","","","25","","7","","24.1","","98.09","","","","-18","","NA"
"-89.32","48.37","THUNDER BAY A","6048262","2021-01-13 09:00","2021","01","13","09:00","-14.0","","-14.9","","93","","","","27","","5","","32.2","","98.08","","","","-17","","NA"
"-89.32","48.37","THUNDER BAY A","6048262","2021-01-13 10:00","2021","01","13","10:00","-12.9","","-13.7","","94","","","","29","","7","","32.2","","98.11","","","","-17","","Clear"
"-89.32","48.37","THUNDER BAY A","6048262","2021-01-13 11:00","2021","01","13","11:00","-6.0","","-6.0","","100","","","","24","","12","","32.2","","98.09","","","","-11","","NA"
"-89.32","48.37","THUNDER BAY A","6048262","2021-01-13 12:00","2021","01","13","12:00","-3.5","","-4.3","","94","","","","26","","17","","32.2","","98.05","","","","-9","","NA"
"-89.32","48.37","THUNDER BAY A","6048262","2021-01-13 13:00","2021","01","13","13:00","-0.7","","-5.5","","70","","","","30","","9","","32.2","","98.06","","","","-4","","Mainly Clear"
"-89.32","48.37","THUNDER BAY A","6048262","2021-01-13 14:00","2021","01","13","14:00"
"-89.32","48.37","THUNDER BAY A","6048262","2021-01-13 15:00","2021","01","13","15:00","0.1","","-2.9","","80","","","","30","","9","","32.2","","97.99","","","","","","NA"
"-89.32","48.37","THUNDER BAY A","6048262","2021-01-13 16:00","2021","01","13","16:00","0.3","","-2.6","","81","","","","35","","10","","32.2","","98.02","","","","","","Mostly Cloudy"
"-89.32","48.37","THUNDER BAY A","6048262","2021-01-13 17:00","2021","01","13","17:00","0.2","","-2.6","","82","","","","31","","3","","32.2","","98.04","","","","","","NA"
"-89.32","48.37","THUNDER BAY A","6048262","2021-01-13 18:00","2021","01","13","18:00","-0.1","","-2.6","","83","","","","28","","4","","24.1","","98.07","","","","-1","","NA"
"-89.32","48.37","THUNDER BAY A","6048262","2021-01-13 19:00","2021","01","13","19:00","-1.2","","-2.9","","88","","","","4","","5","","24.1","","98.05","","","","-3","","Mostly Cloudy"
"-89.32","48.37","THUNDER BAY A","6048262","2021-01-13 20:00","2021","01","13","20:00","-2.8","","-3.3","","96","","","","20","","4","","24.1","","98.05","","","","-4","","NA"
"-89.32","48.37","THUNDER BAY A","6048262","2021-01-13 21:00","2021","01","13","21:00","-2.4","","-3.2","","94","","","","36","","2","","24.1","","98.05","","","","-3","","NA"
"-89.32","48.37","THUNDER BAY A","6048262","2021-01-13 22:00","2021","01","13","22:00","-2.3","","-3.1","","94","","","","30","","7","","24.1","","98.05","","","","-5","","Cloudy"
"-89.32","48.37","THUNDER BAY A","6048262","2021-01-13 23:00","2021","01","13","23:00","-2.4","","-3.2","","94","","","","30","","4","","24.1","","98.03","","","","-4","","NA"
"-89.32","48.37","THUNDER BAY A","6048262","2021-01-14 00:00","2021","01","14","00:00","-2.2","","-3.2","","93","","","","29","","3","","24.1","","98.03","","","","-3","","NA"
"-89.32","48.37","THUNDER BAY A","6048262","2021-01-14 01:00","2021","01","14","01:00","-2.1","","-3.1","","93","","","","8","","6","","24.1","","98.00","","","","-4","","Cloudy"
"-89.32","48.37","THUNDER BAY A","6048262","2021-01-14 02:00","2021","01","14","02:00","-1.0","","-2.3","","91","","","","9","","15","","24.1","","97.96","","","","-6","","NA"
"-89.32","48.37","THUNDER BAY A","6048262","2021-01-14 03:00","2021","01","14","03:00","-0.9","","-1.9","","93","","","","8","","10","","24.1","","98.00","","","","-4","","NA"
"-89.32","48.37","THUNDER BAY A","6048262","2021-01-14 04:00","2021","01","14","04:00","-0.6","","-1.6","","93","","","","8","","9","","24.1","","98.00","","","","-4","","Cloudy"
"-89.32","48.37","THUNDER BAY A","6048262","2021-01-14 05:00","2021","01","14","05:00","-0.3","","-1.2","","94","","","","7","","8","","24.1","","97.96","","","","-3","","NA"
"-89.32","48.37","THUNDER BAY A","6048262","2021-01-14 06:00","2021","01","14","06:00","-0.4","","-0.8","","97","","","","10","","9","","24.1","","97.94","","","","-4","","NA"
"-89.32","48.37","THUNDER BAY A","6048262","2021-01-14 07:00","2021","01","14","07:00","-0.3","","-0.9","","96","","","","8","","17","","24.1","","97.94","","","","-5","","Cloudy"
"-89.32","48.37","THUNDER BAY A","6048262","2021-01-14 08:00","2021","01","14","08:00","-0.1","","-0.7","","96","","","","9","","10","","16.1","","97.94","","","","-3","","NA"
"-89.32","48.37","THUNDER BAY A","6048262","2021-01-14 09:00","2021","01","14","09:00","1.0","","-0.8","","88","","","","11","","17","","32.2","","97.95","","","","","","NA"
"-89.32","48.37","THUNDER BAY A","6048262","2021-01-14 10:00","2021","01","14","10:00","1.2","","-0.6","","88","","","","11","","26","","32.2","","97.90","","","","","","Cloudy"
"-89.32","48.37","THUNDER BAY A","6048262","2021-01-14 11:00","2021","01","14","11:00","1.1","","-0.7","","88","","","","11","","23","","32.2","","97.94","","","","","","NA"
"-89.32","48.37","THUNDER BAY A","6048262","2021-01-14 12:00","2021","01","14","12:00","1.2","","-0.6","","88","","","","11","","22","","24.1","","97.91","","","","","","NA"
"-89.32","48.37","THUNDER BAY A","6048262","2021-01-14 13:00","2021","01","14","13:00","1.2","","-0.8","","86","","","","11","","23","","32.2","","97.86","","","","","","Cloudy"
"-89.32","48.37","THUNDER BAY A","6048262","2021-01-14 14:00","2021","01","14","14:00","1.5","","-0.4","","87","","","","11","","23","","32.2","","97.80","","","","","","NA"
"-89.32","48.37","THUNDER BAY A","6048262","2021-01-14 15:00","2021","01","14","15:00","1.3","","-0.5","","88","","","","10","","24","","32.2","","97.80","","","","","","NA"
"-89.32","48.37","THUNDER BAY A","6048262","2021-01-14 16:00","2021","01","14","16:00","1.2","","-0.6","","88","","","","11","","21","","32.2","","97.86","","","","","","Cloudy"
"-89.32","48.37","THUNDER BAY A","6048262","2021-01-14 17:00","2021","01","14","17:00","1.2","","-0.6","","88","","","","10","","24","","32.2","","97.92","","","","","","NA"
"-89.32","48.37","THUNDER BAY A","6048262","2021-01-14 18:00","2021","01","14","18:00","1.3","","-0.6","","87","","","","11","","30","","24.1","","97.91","","","","","","NA"
"-89.32","48.37","THUNDER BAY A","6048262","2021-01-14 19:00","2021","01","14","19:00","1.2","","-0.4","","89","","","","11","","26","","24.1","","97.95","","","","","","Cloudy"
"-89.32","48.37","THUNDER BAY A","6048262","2021-01-14 20:00","2021","01","14","20:00","1.4","","-0.1","","90","","","","10","","27","","24.1","","97.98","","","","","","NA"
"-89.32","48.37","THUNDER BAY A","6048262","2021-01-14 21:00","2021","01","14","21:00","1.7","","-0.1","","88","","","","10","","27","","24.1","","97.97","","","","","","NA"
"-89.32","48.37","THUNDER BAY A","6048262","2021-01-14 22:00","2021","01","14","22:00","1.6","","-0.2","","88","","","","10","","27","","24.1","","97.99","","","","","","Cloudy"
"-89.32","48.37","THUNDER BAY A","6048262","2021-01-14 23:00","2021","01","14","23:00","1.6","","-0.2","","88","","","","8","","19","","24.1","","98.03","","","","","","NA"
"-89.32","48.37","THUNDER BAY A","6048262","2021-01-15 00:00","2021","01","15","00:00","1.8","","0.2","","89","","","","9","","17","","24.1","","98.07","","","","","","NA"
"-89.32","48.37","THUNDER BAY A","6048262","2021-01-15 01:00","2021","01","15","01:00","1.7","","0.2","","90","","","","10","","20","","24.1","","98.09","","","","","","Cloudy"
"-89.32","48.37","THUNDER BAY A","6048262","2021-01-15 02:00","2021","01","15","02:00","1.7","","0.2","","90","","","","9","","18","","24.1","","98.09","","","","","","NA"
"-89.32","48.37","THUNDER BAY A","6048262","2021-01-15 03:00","2021","01","15","03:00","1.7","","0.2","","90","","","","9","","22","","24.1","","98.11","","","","","","NA"
"-89.32","48.37","THUNDER BAY A","6048262","2021-01-15 04:00","2021","01","15","04:00","1.7","","0.2","","90","","","","7","","20","","24.1","","98.17","","","","","","Cloudy"
"-89.32","48.37","THUNDER BAY A","6048262","2021-01-15 05:00","2021","01","15","05:00","0.8","","0.4","","97","","","","6","","27","","4.8","","98.21","","","","","","Rain,Snow"
"-89.32","48.37","THUNDER BAY A","6048262","2021-01-15 06:00","2021","01","15","06:00","0.7","","0.6","","99","","","","5","","24","","6.4","","98.23","","","","","","Rain,Snow"
"-89.32","48.37","THUNDER BAY A","6048262","2021-01-15 07:00","2021","01","15","07:00","0.6","","0.5","","99","","","","6","","23","","8.1","","98.26","","","","","","Snow"
"-89.32","48.37","THUNDER BAY A","6048262","2021-01-15 08:00","2021","01","15","08:00","0.7","","0.3","","97","","","","5","","24","","8.1","","98.25","","","","","","Snow,Fog"
"-89.32","48.37","THUNDER BAY A","6048262","2021-01-15 09:00","2021","01","15","09:00","0.7","","0.0","","95","","","","6","","28","","12.9","","98.28","","","","","","NA"
"-89.32","48.37","THUNDER BAY A","6048262","2021-01-15 10:00","2021","01","15","10:00","0.8","","-0.1","","94","","","","5","","23","","12.9","","98.34","","","","","","Cloudy"
"-89.32","48.37","THUNDER BAY A","6048262","2021-01-15 11:00","2021","01","15","11:00","0.8","","-0.4","","92","","","","5","","23","","12.9","","98.38","","","","","","NA"
"-89.32","48.37","THUNDER BAY A","6048262","2021-01-15 12:00","2021","01","15","12:00","0.7","","-0.2","","93","","","","4","","12","","12.9","","98.41","","","","","","Drizzle"
"-89.32","48.37","THUNDER BAY A","6048262","2021-01-15 13:00","2021","01","15","13:00","0.8","","-0.4","","92","","","","3","","14","","12.9","","98.38","","","","","","Drizzle"
"-89.32","48.37","THUNDER BAY A","6048262","2021-01-15 14:00","2021","01","15","14:00","0.9","","-0.6","","90","","","","2","","5","","16.1","","98.37","","","","","","NA"
"-89.32","48.37","THUNDER BAY A","6048262","2021-01-15 15:00","2021","01","15","15:00","1.0","","-0.6","","89","","","","1","","9","","16.1","","98.38","","","","","","NA"
"-89.32","48.37","THUNDER BAY A","6048262","2021-01-15 16:00","2021","01","15","16:00","1.0","","-0.8","","88","","","","3","","5","","16.1","","98.42","","","","","","Cloudy"
"-89.32","48.37","THUNDER BAY A","6048262","2021-01-15 17:00","2021","01","15","17:00","0.6","","-1.6","","85","","","","3","","10","","32.2","","98.48","","","","","","NA"
"-89.32","48.37","THUNDER BAY A","6048262","2021-01-15 18:00","2021","01","15","18:00","0.3","","-1.6","","87","","","","35","","3","","24.1","","98.50","","","","","","Snow"
"-89.32","48.37","THUNDER BAY A","6048262","2021-01-15 19:00","2021","01","15","19:00","-0.2","","-2.4","","85","","","","36","","16","","24.1","","98.51","","","","-5","","Snow"
"-89.32","48.37","THUNDER BAY A","6048262","2021-01-15 20:00","2021","01","15","20:00","-0.8","","-3.3","","83","","","","36","","18","","24.1","","98.51","","","","-6","","NA"
"-89.32","48.37","THUNDER BAY A","6048262","2021-01-15 21:00","2021","01","15","21:00","-1.1","","-3.6","","83","","","","28","","5","","24.1","","98.51","","","","-3","","NA"
"-89.32","48.37","THUNDER BAY A","6048262","2021-01-15 22:00","2021","01","15","22:00","-1.2","","-4.5","","78","","","","35","","5","","24.1","","98.50","","","","-3","","Cloudy"
"-89.32","48.37","THUNDER BAY A","6048262","2021-01-15 23:00","2021","01","15","23:00","-1.5","","-4.5","","80","","","","35","","14","","24.1","","98.50","","","","-6","","NA"
"-89.32","48.37","THUNDER BAY A","6048262","2021-01-16 00:00","2021","01","16","00:00","-1.8","","-4.7","","80","","","","35","","8","","24.1","","98.50","","","","-5","","NA"
"-89.32","48.37","THUNDER BAY A","6048262","2021-01-16 01:00","2021","01","16","01:00","-2.0","","-5.2","","79","","","","3","","8","","24.1","","98.48","","","","-5","","Cloudy"
"-89.32","48.37","THUNDER BAY A","6048262","2021-01-16 02:00","2021","01","16","02:00","-2.4","","-6.1","","76","","","","4","","17","","24.1","","98.44","","","","-8","","NA"
"-89.32","48.37","THUNDER BAY A","6048262","2021-01-16 03:00","2021","01","16","03:00","-3.6","","-7.4","","75","","","","36","","17","","24.1","","98.48","","","","-9","","NA"
"-89.32","48.37","THUNDER BAY A","6048262","2021-01-16 04:00","2021","01","16","04:00","-3.6","","-7.3","","76","","","","3","","21","","24.1","","98.49","","","","-10","","Cloudy"
"-89.32","48.37","THUNDER BAY A","6048262","2021-01-16 05:00","2021","01","16","05:00","-4.2","","-7.8","","76","","","","3","","18","","24.1","","98.51","","","","-10","","NA"
"-89.32","48.37","THUNDER BAY A","6048262","2021-01-16 06:00","2021","01","16","06:00","-4.2","","-7.5","","78","","","","4","","11","","24.1","","98.50","","","","-9","","NA"
"-89.32","48.37","THUNDER BAY A","6048262","2021-01-16 07:00","2021","01","16","07:00","-3.9","","-7.4","","77","","","","3","","8","","24.1","","98.50","","","","-7","","Cloudy"
"-89.32","48.37","THUNDER BAY A","6048262","2021-01-16 08:00","2021","01","16","08:00","-3.8","","-7.3","","77","","","","3","","8","","24.1","","98.46","","","","-7","","NA"
"-89.32","48.37","THUNDER BAY A","6048262","2021-01-16 09:00","2021","01","16","09:00","-3.8","","-7.1","","78","","","","1","","6","","32.2","","98.47","","","","-6","","NA"
"-89.32","48.37","THUNDER BAY A","6048262","2021-01-16 10:00","2021","01","16","10:00","-3.7","","-6.1","","84","","","","35","","6","","32.2","","98.47","","","","-6","","Cloudy"
"-89.32","48.37","THUNDER BAY A","6048262","2021-01-16 11:00","2021","01","16","11:00","-3.8","","-7.1","","78","","","","2","","11","","32.2","","98.50","","","","-8","","NA"
"-89.32","48.37","THUNDER BAY A","6048262","2021-01-16 12:00","2021","01","16","12:00","-5.0","","-7.9","","80","","","","35","","22","","32.2","","98.51","","","","-12","","NA"
"-89.32","48.37","THUNDER BAY A","6048262","2021-01-16 13:00","2021","01","16","13:00","-4.9","","-8.3","","77","","","","36","","13","","32.2","","98.48","","","","-10","","Cloudy"
"-89.32","48.37","THUNDER BAY A","6048262","2021-01-16 14:00","2021","01","16","14:00","-4.9","","-8.2","","78","","","","1","","10","","32.2","","98.40","","","","-9","","NA"
"-89.32","48.37","THUNDER BAY A","6048262","2021-01-16 15:00","2021","01","16","15:00","-4.6","","-8.3","","75","","","","1","","16","","32.2","","98.38","","","","-10","","NA"
"-89.32","48.37","THUNDER BAY A","6048262","2021-01-16 16:00","2021","01","16","16:00","-4.8","","-8.2","","77","","","","32","","18","","32.2","","98.40","","","","-11","","Cloudy"
"-89.32","48.37","THUNDER BAY A","6048262","2021-01-16 17:00","2021","01","16","17:00","-5.4","","-8.7","","78","","","","36","","12","","32.2","","98.40","","","","-10","","NA"
"-89.32","48.37","THUNDER BAY A","6048262","2021-01-16 18:00","2021","01","16","18:00","-6.3","","-9.2","","80","","","","33","","18","","24.1","","98.46","","","","-13","","NA"
"-89.32","48.37","THUNDER BAY A","6048262","2021-01-16 19:00","2021","01","16","19:00","-7.2","","-10.2","","79","","","","34","","14","","24.1","","98.47","","","","-13","","Cloudy"
"-89.32","48.37","THUNDER BAY A","6048262","2021-01-16 20:00","2021","01","16","20:00","-7.9","","-11.2","","77","","","","35","","15","","24.1","","98.47","","","","-14","","NA"
"-89.32","48.37","THUNDER BAY A","6048262","2021-01-16 21:00","2021","01","16","21:00","-8.4","","-11.7","","77","","","","35","","12","","24.1","","98.47","","","","-14","","NA"
"-89.32","48.37","THUNDER BAY A","6048262","2021-01-16 22:00","2021","01","16","22:00","-8.7","","-11.9","","78","","","","35","","6","","24.1","","98.44","","","","-12","","Cloudy"
"-89.32","48.37","THUNDER BAY A","6048262","2021-01-16 23:00","2021","01","16","23:00","-8.7","","-11.8","","79","","","","29","","6","","24.1","","98.44","","","","-12","","NA"
"-89.32","48.37","THUNDER BAY A","6048262","2021-01-17 00:00","2021","01","17","00:00","-8.8","","-11.8","","79","","","","32","","12","","24.1","","98.44","","","","-14","","NA"
"-89.32","48.37","THUNDER BAY A","6048262","2021-01-17 01:00","2021","01","17","01:00","-9.0","","-11.8","","80","","","","32","","13","","24.1","","98.43","","","","-15","","Cloudy"
"-89.32","48.37","THUNDER BAY A","6048262","2021-01-17 02:00","2021","01","17","02:00","-9.6","","-12.1","","82","","","","30","","8","","24.1","","98.44","","","","-14","","NA"
"-89.32","48.37","THUNDER BAY A","6048262","2021-01-17 03:00","2021","01","17","03:00","-11.1","","-12.8","","87","","","","28","","8","","24.1","","98.45","","","","-16","","NA"
"-89.32","48.37","THUNDER BAY A","6048262","2021-01-17 04:00","2021","01","17","04:00","-12.0","","-13.3","","90","","","","27","","8","","24.1","","98.45","","","","-17","","Mainly Clear"
"-89.32","48.37","THUNDER BAY A","6048262","2021-01-17 05:00","2021","01","17","05:00","-12.2","","-13.4","","91","","","","28","","10","","24.1","","98.47","","","","-18","","NA"
"-89.32","48.37","THUNDER BAY A","6048262","2021-01-17 06:00","2021","01","17","06:00","-12.5","","-14.3","","86","","","","27","","9","","24.1","","98.51","","","","-18","","NA"
"-89.32","48.37","THUNDER BAY A","6048262","2021-01-17 07:00","2021","01","17","07:00","-12.9","","-15.1","","84","","","","27","","9","","24.1","","98.53","","","","-18","","Mainly Clear"
"-89.32","48.37","THUNDER BAY A","6048262","2021-01-17 08:00","2021","01","17","08:00","-13.8","","-14.9","","92","","","","25","","8","","32.2","","98.52","","","","-19","","NA"
"-89.32","48.37","THUNDER BAY A","6048262","2021-01-17 09:00","2021","01","17","09:00","-14.6","","-15.8","","91","","","","23","","10","","32.2","","98.55","","","","-21","","NA"
"-89.32","48.37","THUNDER BAY A","6048262","2021-01-17 10:00","2021","01","17","10:00","-14.5","","-16.4","","86","","","","23","","5","","32.2","","98.59","","","","-18","","Mainly Clear"
"-89.32","48.37","THUNDER BAY A","6048262","2021-01-17 11:00","2021","01","17","11:00","-11.6","","-15.6","","72","","","","27","","7","","32.2","","98.59","","","","-16","","NA"
"-89.32","48.37","THUNDER BAY A","6048262","2021-01-17 12:00","2021","01","17","12:00","-9.6","","-15.3","","63","","","","22","","8","","32.2","","98.55","","","","-14","","NA"
"-89.32","48.37","THUNDER BAY A","6048262","2021-01-17 13:00","2021","01","17","13:00","-7.9","","-14.1","","61","","","","22","","12","","24.1","","98.49","","","","-13","","Mainly Clear"
"-89.32","48.37","THUNDER BAY A","6048262","2021-01-17 14:00","2021","01","17","14:00","-6.3","","-13.3","","58","","","","22","","13","","32.2","","98.41","","","","-12","","NA"
"-89.32","48.37","THUNDER BAY A","6048262","2021-01-17 15:00","2021","01","17","15:00","-5.2","","-12.3","","58","","","","21","","10","","32.2","","98.36","","","","-10","","NA"
"-89.32","48.37","THUNDER BAY A","6048262","2021-01-17 16:00","2021","01","17","16:00","-4.6","","-11.7","","58","","","","21","","8","","32.2","","98.36","","","","-8","","Mainly Clear"
"-89.32","48.37","THUNDER BAY A","6048262","2021-01-17 17:00","2021","01","17","17:00","-5.6","","-12.8","","57","","","","22","","12","","32.2","","98.38","","","","-11","","NA"
"-89.32","48.37","THUNDER BAY A","6048262","2021-01-17 18:00","2021","01","17","18:00","-7.4","","-13.1","","64","","","","23","","8","","32.2","","98.41","","","","-11","","NA"
"-89.32","48.37","THUNDER BAY A","6048262","2021-01-17 19:00","2021","01","17","19:00","-10.1","","-13.2","","78","","","","26","","4","","24.1","","98.44","","","","-12","","Clear"
"-89.32","48.37","THUNDER BAY A","6048262","2021-01-17 20:00","2021","01","17","20:00","-12.0","","-14.5","","82","","","","36","","3","","24.1","","98.45","","","","-14","","NA"
"-89.32","48.37","THUNDER BAY A","6048262","2021-01-17 21:00","2021","01","17","21:00","-14.3","","-15.7","","89","","","","28","","5","","24.1","","98.47","","","","-18","","NA"
"-89.32","48.37","THUNDER BAY A","6048262","2021-01-17 22:00","2021","01","17","22:00","-14.9","","-16.2","","90","","","","25","","7","","24.1","","98.46","","","","-20","","Clear"
"-89.32","48.37","THUNDER BAY A","6048262","2021-01-17 23:00","2021","01","17","23:00","-14.2","","-15.6","","89","","","","22","","10","","24.1","","98.45","","","","-20","","NA"
"-89.32","48.37","THUNDER BAY A","6048262","2021-01-18 00:00","2021","01","18","00:00","-16.2","","-17.1","","93","","","","24","","8","","24.1","","98.46","","","","-22","","NA"
"-89.32","48.37","THUNDER BAY A","6048262","2021-01-18 01:00","2021","01","18","01:00","-14.3","","-15.5","","91","","","","21","","5","","24.1","","98.47","","","","-18","","Cloudy"
"-89.32","48.37","THUNDER BAY A","6048262","2021-01-18 02:00","2021","01","18","02:00","-15.1","","-16.4","","90","","","","29","","15","","24.1","","98.44","","","","-23","","NA"
"-89.32","48.37","THUNDER BAY A","6048262","2021-01-18 03:00","2021","01","18","03:00","-13.0","","-14.6","","88","","","","20","","7","","24.1","","98.45","","","","-18","","NA"
"-89.32","48.37","THUNDER BAY A","6048262","2021-01-18 04:00","2021","01","18","04:00","-13.2","","-14.7","","89","","","","28","","7","","24.1","","98.45","","","","-18","","Cloudy"
"-89.32","48.37","THUNDER BAY A","6048262","2021-01-18 05:00","2021","01","18","05:00","-12.2","","-13.7","","89","","","","25","","7","","24.1","","98.45","","","","-17","","NA"
"-89.32","48.37","THUNDER BAY A","6048262","2021-01-18 06:00","2021","01","18","06:00","-11.3","","-12.9","","88","","","","23","","7","","24.1","","98.46","","","","-16","","Snow"
"-89.32","48.37","THUNDER BAY A","6048262","2021-01-18 07:00","2021","01","18","07:00","-11.0","","-12.5","","89","","","","24","","8","","24.1","","98.50","","","","-16","","Snow"
"-89.32","48.37","THUNDER BAY A","6048262","2021-01-18 08:00","2021","01","18","08:00","-10.6","","-11.8","","91","","","","24","","8","","16.1","","98.52","","","","-15","","Snow"
"-89.32","48.37","THUNDER BAY A","6048262","2021-01-18 09:00","2021","01","18","09:00","-10.1","","-11.3","","91","","","","24","","7","","24.1","","98.54","","","","-14","","Snow"
"-89.32","48.37","THUNDER BAY A","6048262","2021-01-18 10:00","2021","01","18","10:00","-9.8","","-11.3","","89","","","","22","","5","","24.1","","98.57","","","","-13","","Snow"
"-89.32","48.37","THUNDER BAY A","6048262","2021-01-18 11:00","2021","01","18","11:00","-9.1","","-10.9","","87","","","","27","","7","","24.1","","98.60","","","","-13","","Snow"
"-89.32","48.37","THUNDER BAY A","6048262","2021-01-18 12:00","2021","01","18","12:00","-8.2","","-10.8","","82","","","","29","","8","","32.2","","98.59","","","","-12","","Snow"
"-89.32","48.37","THUNDER BAY A","6048262","2021-01-18 13:00","2021","01","18","13:00","-7.7","","-11.4","","75","","","","34","","10","","12.9","","98.57","","","","-13","","Snow"
"-89.32","48.37","THUNDER BAY A","6048262","2021-01-18 14:00","2021","01","18","14:00","-7.5","","-11.1","","76","","","","31","","10","","12.9","","98.60","","","","-12","","Snow"
"-89.32","48.37","THUNDER BAY A","6048262","2021-01-18 15:00","2021","01","18","15:00","-7.3","","-11.8","","70","","","","32","","17","","16.1","","98.64","","","","-14","","Snow"
"-89.32","48.37","THUNDER BAY A","6048262","2021-01-18 16:00","2021","01","18","16:00","-7.5","","-12.4","","68","","","","30","","17","","32.2","","98.70","","","","-14","","Mostly Cloudy"
"-89.32","48.37","THUNDER BAY A","6048262","2021-01-18 17:00","2021","01","18","17:00","-8.0","","-13.3","","66","","","","31","","15","","32.2","","98.78","","","","-14","","NA"
"-89.32","48.37","THUNDER BAY A","6048262","2021-01-18 18:00","2021","01","18","18:00","-8.8","","-13.9","","67","","","","32","","15","","24.1","","98.86","","","","-15","","NA"
"-89.32","48.37","THUNDER BAY A","6048262","2021-01-18 19:00","2021","01","18","19:00","-9.1","","-13.9","","68","","","","31","","17","","24.1","","98.92","","","","-16","","Mostly Cloudy"
"-89.32","48.37","THUNDER BAY A","6048262","2021-01-18 20:00","2021","01","18","20:00","-10.1","","-14.6","","70","","","","33","","13","","24.1","","99.01","","","","-16","","NA"
"-89.32","48.37","THUNDER BAY A","6048262","2021-01-18 21:00","2021","01","18","21:00","-10.8","","-15.4","","69","","","","34","","17","","24.1","","99.07","","","","-18","","NA"
"-89.32","48.37","THUNDER BAY A","6048262","2021-01-18 22:00","2021","01","18","22:00","-11.9","","-16.3","","70","","","","33","","15","","24.1","","99.12","","","","-19","","Mostly Cloudy"
"-89.32","48.37","THUNDER BAY A","6048262","2021-01-18 23:00","2021","01","18","23:00","-12.9","","-17.4","","69","","","","34","","14","","24.1","","99.16","","","","-20","","NA"
"-89.32","48.37","THUNDER BAY A","6048262","2021-01-19 00:00","2021","01","19","00:00","-13.7","","-18.4","","68","","","","35","","13","","24.1","","99.21","","","","-21","","NA"
"-89.32","48.37","THUNDER BAY A","6048262","2021-01-19 01:00","2021","01","19","01:00","-14.8","","-20.4","","63","","","","34","","23","","24.1","","99.25","","","","-25","","Cloudy"
"-89.32","48.37","THUNDER BAY A","6048262","2021-01-19 02:00","2021","01","19","02:00","-15.9","","-19.6","","74","","","","31","","13","","24.1","","99.30","","","","-23","","NA"
"-89.32","48.37","THUNDER BAY A","6048262","2021-01-19 03:00","2021","01","19","03:00","-16.6","","-20.4","","73","","","","31","","13","","24.1","","99.36","","","","-24","","NA"
"-89.32","48.37","THUNDER BAY A","6048262","2021-01-19 04:00","2021","01","19","04:00","-17.4","","-21.2","","72","","","","31","","13","","24.1","","99.41","","","","-25","","Mainly Clear"
"-89.32","48.37","THUNDER BAY A","6048262","2021-01-19 05:00","2021","01","19","05:00","-18.5","","-21.8","","76","","","","29","","11","","24.1","","99.45","","","","-26","","NA"
"-89.32","48.37","THUNDER BAY A","6048262","2021-01-19 06:00","2021","01","19","06:00","-18.2","","-21.3","","77","","","","29","","14","","24.1","","99.48","","","","-27","","NA"
"-89.32","48.37","THUNDER BAY A","6048262","2021-01-19 07:00","2021","01","19","07:00","-17.9","","-21.2","","76","","","","26","","12","","24.1","","99.52","","","","-25","","Cloudy"
"-89.32","48.37","THUNDER BAY A","6048262","2021-01-19 08:00","2021","01","19","08:00","-17.7","","-20.7","","78","","","","28","","11","","24.1","","99.56","","","","-25","","NA"
"-89.32","48.37","THUNDER BAY A","6048262","2021-01-19 09:00","2021","01","19","09:00","-17.6","","-20.7","","77","","","","27","","10","","32.2","","99.61","","","","-24","","NA"
"-89.32","48.37","THUNDER BAY A","6048262","2021-01-19 10:00","2021","01","19","10:00","-17.3","","-20.6","","76","","","","28","","13","","32.2","","99.68","","","","-25","","Cloudy"
"-89.32","48.37","THUNDER BAY A","6048262","2021-01-19 11:00","2021","01","19","11:00","-16.6","","-20.2","","74","","","","28","","14","","19.3","","99.68","","","","-25","","Snow"
"-89.32","48.37","THUNDER BAY A","6048262","2021-01-19 12:00","2021","01","19","12:00","-16.0","","-20.1","","71","","","","31","","14","","19.3","","99.68","","","","-24","","Snow"
"-89.32","48.37","THUNDER BAY A","6048262","2021-01-19 13:00","2021","01","19","13:00","-15.7","","-20.2","","69","","","","32","","16","","19.3","","99.68","","","","-24","","Cloudy"
"-89.32","48.37","THUNDER BAY A","6048262","2021-01-19 14:00","2021","01","19","14:00","-15.3","","-20.5","","65","","","","28","","15","","24.1","","99.66","","","","-23","","Snow"
"-89.32","48.37","THUNDER BAY A","6048262","2021-01-19 15:00","2021","01","19","15:00","-14.9","","-20.9","","61","","","","30","","14","","32.2","","99.63","","","","-22","","NA"
"-89.32","48.37","THUNDER BAY A","6048262","2021-01-19 16:00","2021","01","19","16:00","-15.2","","-21.2","","61","","","","31","","20","","32.2","","99.67","","","","-24","","Mostly Cloudy"
"-89.32","48.37","THUNDER BAY A","6048262","2021-01-19 17:00","2021","01","19","17:00","-15.8","","-21.5","","62","","","","30","","19","","32.2","","99.69","","","","-25","","NA"
"-89.32","48.37","THUNDER BAY A","6048262","2021-01-19 18:00","2021","01","19","18:00","-17.2","","-22.2","","66","","","","29","","10","","24.1","","99.75","","","","-24","","NA"
"-89.32","48.37","THUNDER BAY A","6048262","2021-01-19 19:00","2021","01","19","19:00","-18.4","","-22.6","","70","","","","28","","10","","24.1","","99.77","","","","-25","","Clear"
"-89.32","48.37","THUNDER BAY A","6048262","2021-01-19 20:00","2021","01","19","20:00","-18.4","","-22.4","","71","","","","26","","10","","24.1","","99.73","","","","-25","","NA"
"-89.32","48.37","THUNDER BAY A","6048262","2021-01-19 21:00","2021","01","19","21:00","-18.0","","-21.9","","72","","","","26","","10","","24.1","","99.69","","","","-25","","NA"
"-89.32","48.37","THUNDER BAY A","6048262","2021-01-19 22:00","2021","01","19","22:00","-18.2","","-22.0","","72","","","","27","","10","","24.1","","99.62","","","","-25","","Mostly Cloudy"
"-89.32","48.37","THUNDER BAY A","6048262","2021-01-19 23:00","2021","01","19","23:00","-19.8","","-22.7","","78","","","","23","","7","","24.1","","99.54","","","","-25","","NA"
"-89.32","48.37","THUNDER BAY A","6048262","2021-01-20 00:00","2021","01","20","00:00","-21.2","","-23.6","","81","","","","21","","9","","24.1","","99.51","","","","-28","","NA"
"-89.32","48.37","THUNDER BAY A","6048262","2021-01-20 01:00","2021","01","20","01:00","-21.5","","-23.7","","83","","","","25","","7","","24.1","","99.47","","","","-27","","Mainly Clear"
"-89.32","48.37","THUNDER BAY A","6048262","2021-01-20 02:00","2021","01","20","02:00","-22.8","","-25.1","","82","","","","28","","6","","24.1","","99.42","","","","-28","","NA"
"-89.32","48.37","THUNDER BAY A","6048262","2021-01-20 03:00","2021","01","20","03:00","-23.2","","-25.3","","83","","","","30","","7","","24.1","","99.33","","","","-29","","NA"
"-89.32","48.37","THUNDER BAY A","6048262","2021-01-20 04:00","2021","01","20","04:00","-22.2","","-24.4","","83","","","","29","","5","","24.1","","99.22","","","","-27","","Clear"
"-89.32","48.37","THUNDER BAY A","6048262","2021-01-20 05:00","2021","01","20","05:00","-22.4","","-24.7","","82","","","","29","","5","","24.1","","99.12","","","","-27","","NA"
"-89.32","48.37","THUNDER BAY A","6048262","2021-01-20 06:00","2021","01","20","06:00","-20.8","","-23.1","","82","","","","32","","7","","24.1","","98.93","","","","-27","","NA"
"-89.32","48.37","THUNDER BAY A","6048262","2021-01-20 07:00","2021","01","20","07:00","-20.1","","-22.4","","82","","","","35","","4","","24.1","","98.80","","","","-24","","Mostly Cloudy"
"-89.32","48.37","THUNDER BAY A","6048262","2021-01-20 08:00","2021","01","20","08:00","-18.7","","-21.2","","81","","","","6","","4","","24.1","","98.65","","","","-22","","NA"
"-89.32","48.37","THUNDER BAY A","6048262","2021-01-20 09:00","2021","01","20","09:00","-17.0","","-19.8","","79","","","","2","","4","","8.1","","98.45","","","","-20","","Fog"
"-89.32","48.37","THUNDER BAY A","6048262","2021-01-20 10:00","2021","01","20","10:00","-16.3","","-18.1","","86","","","","36","","3","","3.2","","98.29","","","","-19","","Snow"
"-89.32","48.37","THUNDER BAY A","6048262","2021-01-20 11:00","2021","01","20","11:00","-14.2","","-15.8","","88","","","","1","","6","","24.1","","98.06","","","","-18","","Snow"
"-89.32","48.37","THUNDER BAY A","6048262","2021-01-20 12:00","2021","01","20","12:00","-6.5","","-9.7","","78","","","","21","","24","","32.2","","97.78","","","","-14","","Blowing Snow"
"-89.32","48.37","THUNDER BAY A","6048262","2021-01-20 13:00","2021","01","20","13:00","-5.4","","-8.8","","77","","","","21","","18","","32.2","","97.47","","","","-12","","Blowing Snow"
"-89.32","48.37","THUNDER BAY A","6048262","2021-01-20 14:00","2021","01","20","14:00","-4.5","","-7.8","","78","","","","19","","28","","32.2","","97.19","","","","-12","","Blowing Snow"
"-89.32","48.37","THUNDER BAY A","6048262","2021-01-20 15:00","2021","01","20","15:00","-4.0","","-7.5","","77","","","","22","","36","","32.2","","96.98","","","","-12","","Blowing Snow"
"-89.32","48.37","THUNDER BAY A","6048262","2021-01-20 16:00","2021","01","20","16:00","-4.5","","-7.6","","79","","","","22","","20","","32.2","","96.90","","","","-11","","Blowing Snow"
"-89.32","48.37","THUNDER BAY A","6048262","2021-01-20 17:00","2021","01","20","17:00","-4.0","","-6.9","","80","","","","22","","17","","16.1","","96.79","","","","-10","","Blowing Snow"
"-89.32","48.37","THUNDER BAY A","6048262","2021-01-20 18:00","2021","01","20","18:00","-3.6","","-6.6","","80","","","","23","","18","","12.9","","96.67","","","","-9","","Snow,Blowing Snow"
"-89.32","48.37","THUNDER BAY A","6048262","2021-01-20 19:00","2021","01","20","19:00","-3.3","","-6.1","","81","","","","25","","19","","16.1","","96.57","","","","-9","","Snow"
"-89.32","48.37","THUNDER BAY A","6048262","2021-01-20 20:00","2021","01","20","20:00","-2.6","","-5.9","","78","","","","23","","20","","12.9","","96.47","","","","-9","","Snow"
"-89.32","48.37","THUNDER BAY A","6048262","2021-01-20 21:00","2021","01","20","21:00","-2.2","","-3.3","","92","","","","24","","19","","4.0","","96.35","","","","-8","","Snow,Blowing Snow"
"-89.32","48.37","THUNDER BAY A","6048262","2021-01-20 22:00","2021","01","20","22:00","-0.2","","-1.7","","90","","","","24","","25","","8.1","","96.27","","","","-6","","Snow,Blowing Snow"
"-89.32","48.37","THUNDER BAY A","6048262","2021-01-20 23:00","2021","01","20","23:00","1.3","","-2.1","","78","","","","25","","27","","24.1","","96.23","","","","","","NA"
"-89.32","48.37","THUNDER BAY A","6048262","2021-01-21 00:00","2021","01","21","00:00","2.1","","-2.2","","73","","","","27","","31","","24.1","","96.26","","","","","","NA"
"-89.32","48.37","THUNDER BAY A","6048262","2021-01-21 01:00","2021","01","21","01:00","0.7","","-3.4","","74","","","","29","","34","","16.1","","96.42","","","","","","Blowing Snow"
"-89.32","48.37","THUNDER BAY A","6048262","2021-01-21 02:00","2021","01","21","02:00","0.4","","-5.3","","65","","","","30","","41","","8.1","","96.54","","","","","","Blowing Snow"
"-89.32","48.37","THUNDER BAY A","6048262","2021-01-21 03:00","2021","01","21","03:00","0.0","","-5.5","","67","","","","30","","39","","24.1","","96.65","","","","-7","","Blowing Snow"
"-89.32","48.37","THUNDER BAY A","6048262","2021-01-21 04:00","2021","01","21","04:00","-0.7","","-5.9","","68","","","","29","","15","","24.1","","96.80","","","","-5","","Mostly Cloudy"
"-89.32","48.37","THUNDER BAY A","6048262","2021-01-21 05:00","2021","01","21","05:00","-1.4","","-6.1","","70","","","","25","","6","","24.1","","96.88","","","","-4","","NA"
"-89.32","48.37","THUNDER BAY A","6048262","2021-01-21 06:00","2021","01","21","06:00","-1.9","","-6.1","","73","","","","29","","12","","24.1","","96.95","","","","-6","","NA"
"-89.32","48.37","THUNDER BAY A","6048262","2021-01-21 07:00","2021","01","21","07:00","-1.5","","-5.2","","76","","","","29","","8","","16.1","","97.02","","","","-5","","Snow"
"-89.32","48.37","THUNDER BAY A","6048262","2021-01-21 08:00","2021","01","21","08:00","-1.8","","-5.0","","79","","","","29","","11","","24.1","","97.06","","","","-6","","Snow"
"-89.32","48.37","THUNDER BAY A","6048262","2021-01-21 09:00","2021","01","21","09:00","-2.2","","-7.0","","70","","","","30","","9","","32.2","","97.09","","","","-6","","NA"
"-89.32","48.37","THUNDER BAY A","6048262","2021-01-21 10:00","2021","01","21","10:00","-3.1","","-8.2","","68","","","","36","","13","","32.2","","97.21","","","","-8","","Mostly Cloudy"
"-89.32","48.37","THUNDER BAY A","6048262","2021-01-21 11:00","2021","01","21","11:00","-4.1","","-8.4","","72","","","","31","","20","","19.3","","97.29","","","","-10","","NA"
"-89.32","48.37","THUNDER BAY A","6048262","2021-01-21 12:00","2021","01","21","12:00","-4.3","","-8.3","","74","","","","35","","18","","19.3","","97.34","","","","-10","","Snow"
"-89.32","48.37","THUNDER BAY A","6048262","2021-01-21 13:00","2021","01","21","13:00","-6.3","","-11.7","","66","","","","36","","29","","19.3","","97.51","","","","-15","","Snow"
"-89.32","48.37","THUNDER BAY A","6048262","2021-01-21 14:00","2021","01","21","14:00","-8.4","","-15.1","","59","","","","33","","32","","32.2","","97.68","","","","-18","","NA"
"-89.32","48.37","THUNDER BAY A","6048262","2021-01-21 15:00","2021","01","21","15:00","-10.0","","-17.5","","55","","","","32","","33","","32.2","","97.86","","","","-20","","NA"
"-89.32","48.37","THUNDER BAY A","6048262","2021-01-21 16:00","2021","01","21","16:00","-11.2","","-17.3","","61","","","","33","","30","","32.2","","98.03","","","","-21","","Blowing Snow"
"-89.32","48.37","THUNDER BAY A","6048262","2021-01-21 17:00","2021","01","21","17:00","-13.1","","-19.2","","61","","","","34","","28","","32.2","","98.26","","","","-23","","Blowing Snow"
"-89.32","48.37","THUNDER BAY A","6048262","2021-01-21 18:00","2021","01","21","18:00","-14.2","","-20.6","","59","","","","32","","26","","24.1","","98.47","","","","-24","","NA"
"-89.32","48.37","THUNDER BAY A","6048262","2021-01-21 19:00","2021","01","21","19:00","-15.0","","-20.8","","62","","","","32","","41","","24.1","","98.53","","","","-28","","Snow"
"-89.32","48.37","THUNDER BAY A","6048262","2021-01-21 20:00","2021","01","21","20:00","-16.1","","-22.2","","60","","","","32","","21","","24.1","","98.71","","","","-26","","NA"
"-89.32","48.37","THUNDER BAY A","6048262","2021-01-21 21:00","2021","01","21","21:00","-16.2","","-21.9","","62","","","","31","","15","","24.1","","98.81","","","","-24","","Snow"
"-89.32","48.37","THUNDER BAY A","6048262","2021-01-21 22:00","2021","01","21","22:00","-16.2","","-21.8","","63","","","","32","","9","","24.1","","98.89","","","","-22","","Snow"
"-89.32","48.37","THUNDER BAY A","6048262","2021-01-21 23:00","2021","01","21","23:00","-16.4","","-22.3","","61","","","","32","","22","","24.1","","98.95","","","","-26","","NA"
"-89.32","48.37","THUNDER BAY A","6048262","2021-01-22 00:00","2021","01","22","00:00","-16.9","","-22.6","","62","","","","32","","22","","24.1","","99.04","","","","-27","","NA"
"-89.32","48.37","THUNDER BAY A","6048262","2021-01-22 01:00","2021","01","22","01:00","-17.1","","-22.4","","64","","","","33","","12","","24.1","","99.07","","","","-25","","Mostly Cloudy"
"-89.32","48.37","THUNDER BAY A","6048262","2021-01-22 02:00","2021","01","22","02:00","-16.9","","-22.1","","65","","","","30","","16","","24.1","","99.13","","","","-26","","NA"
"-89.32","48.37","THUNDER BAY A","6048262","2021-01-22 03:00","2021","01","22","03:00","-16.9","","-22.1","","65","","","","31","","21","","24.1","","99.19","","","","-27","","Snow"
"-89.32","48.37","THUNDER BAY A","6048262","2021-01-22 04:00","2021","01","22","04:00","-17.1","","-21.9","","67","","","","31","","15","","24.1","","99.23","","","","-26","","Snow"
"-89.32","48.37","THUNDER BAY A","6048262","2021-01-22 05:00","2021","01","22","05:00","-17.3","","-21.9","","68","","","","30","","20","","24.1","","99.25","","","","-27","","Snow"
"-89.32","48.37","THUNDER BAY A","6048262","2021-01-22 06:00","2021","01","22","06:00","-17.9","","-23.0","","65","","","","32","","25","","24.1","","99.33","","","","-29","","Snow"
"-89.32","48.37","THUNDER BAY A","6048262","2021-01-22 07:00","2021","01","22","07:00","-18.8","","-23.9","","65","","","","31","","18","","24.1","","99.41","","","","-28","","Cloudy"
"-89.32","48.37","THUNDER BAY A","6048262","2021-01-22 08:00","2021","01","22","08:00","-19.4","","-24.2","","66","","","","28","","22","","24.1","","99.47","","","","-30","","NA"
"-89.32","48.37","THUNDER BAY A","6048262","2021-01-22 09:00","2021","01","22","09:00","-20.5","","-25.0","","68","","","","29","","16","","32.2","","99.55","","","","-30","","NA"
"-89.32","48.37","THUNDER BAY A","6048262","2021-01-22 10:00","2021","01","22","10:00","-19.6","","-24.6","","65","","","","29","","18","","32.2","","99.63","","","","-29","","Mainly Clear"
"-89.32","48.37","THUNDER BAY A","6048262","2021-01-22 11:00","2021","01","22","11:00","-18.6","","-24.2","","62","","","","30","","22","","32.2","","99.66","","","","-29","","NA"
"-89.32","48.37","THUNDER BAY A","6048262","2021-01-22 12:00","2021","01","22","12:00","-17.5","","-23.4","","60","","","","28","","19","","32.2","","99.70","","","","-27","","NA"
"-89.32","48.37","THUNDER BAY A","6048262","2021-01-22 13:00","2021","01","22","13:00","-16.1","","-23.1","","55","","","","29","","16","","32.2","","99.64","","","","-25","","Mainly Clear"
"-89.32","48.37","THUNDER BAY A","6048262","2021-01-22 14:00","2021","01","22","14:00","-15.2","","-22.5","","54","","","","25","","7","","32.2","","99.60","","","","-20","","NA"
"-89.32","48.37","THUNDER BAY A","6048262","2021-01-22 15:00","2021","01","22","15:00","-13.7","","-22.2","","49","","","","22","","13","","32.2","","99.60","","","","-21","","NA"
"-89.32","48.37","THUNDER BAY A","6048262","2021-01-22 16:00","2021","01","22","16:00","-13.1","","-21.9","","48","","","","22","","12","","32.2","","99.61","","","","-20","","Mostly Cloudy"
"-89.32","48.37","THUNDER BAY A","6048262","2021-01-22 17:00","2021","01","22","17:00","-13.3","","-22.3","","47","","","","26","","10","","32.2","","99.63","","","","-19","","NA"
"-89.32","48.37","THUNDER BAY A","6048262","2021-01-22 18:00","2021","01","22","18:00","-13.0","","-21.2","","51","","","","22","","10","","24.1","","99.66","","","","-19","","NA"
"-89.32","48.37","THUNDER BAY A","6048262","2021-01-22 19:00","2021","01","22","19:00","-13.0","","-21.2","","51","","","","25","","8","","24.1","","99.68","","","","-18","","Mostly Cloudy"
"-89.32","48.37","THUNDER BAY A","6048262","2021-01-22 20:00","2021","01","22","20:00","-13.0","","-20.6","","54","","","","25","","10","","24.1","","99.69","","","","-19","","NA"
"-89.32","48.37","THUNDER BAY A","6048262","2021-01-22 21:00","2021","01","22","21:00","-13.1","","-20.9","","52","","","","27","","11","","24.1","","99.71","","","","-19","","NA"
"-89.32","48.37","THUNDER BAY A","6048262","2021-01-22 22:00","2021","01","22","22:00","-13.8","","-21.5","","53","","","","28","","5","","24.1","","99.72","","","","-17","","Cloudy"
"-89.32","48.37","THUNDER BAY A","6048262","2021-01-22 23:00","2021","01","22","23:00","-15.4","","-20.5","","65","","","","27","","9","","24.1","","99.76","","","","-21","","NA"
"-89.32","48.37","THUNDER BAY A","6048262","2021-01-23 00:00","2021","01","23","00:00","-14.3","","-19.5","","65","","","","26","","7","","24.1","","99.76","","","","-19","","Snow"
"-89.32","48.37","THUNDER BAY A","6048262","2021-01-23 01:00","2021","01","23","01:00","-14.2","","-18.6","","70","","","","29","","7","","24.1","","99.81","","","","-19","","Snow"
"-89.32","48.37","THUNDER BAY A","6048262","2021-01-23 02:00","2021","01","23","02:00","-13.9","","-18.1","","71","","","","27","","5","","24.1","","99.82","","","","-17","","Snow"
"-89.32","48.37","THUNDER BAY A","6048262","2021-01-23 03:00","2021","01","23","03:00","-13.8","","-18.2","","70","","","","30","","4","","24.1","","99.88","","","","-17","","NA"
"-89.32","48.37","THUNDER BAY A","6048262","2021-01-23 04:00","2021","01","23","04:00","-13.7","","-17.7","","72","","","","36","","1","","24.1","","99.89","","","","-14","","Cloudy"
"-89.32","48.37","THUNDER BAY A","6048262","2021-01-23 05:00","2021","01","23","05:00","-13.4","","-16.8","","76","","","","20","","4","","24.1","","99.90","","","","-16","","NA"
"-89.32","48.37","THUNDER BAY A","6048262","2021-01-23 06:00","2021","01","23","06:00","-13.5","","-16.7","","77","","","","32","","3","","24.1","","99.93","","","","-16","","NA"
"-89.32","48.37","THUNDER BAY A","6048262","2021-01-23 07:00","2021","01","23","07:00","-13.5","","-16.6","","78","","","","36","","3","","24.1","","99.94","","","","-16","","Cloudy"
"-89.32","48.37","THUNDER BAY A","6048262","2021-01-23 08:00","2021","01","23","08:00","-13.4","","-16.3","","79","","","","6","","4","","24.1","","99.94","","","","-16","","NA"
"-89.32","48.37","THUNDER BAY A","6048262","2021-01-23 09:00","2021","01","23","09:00","-13.5","","-16.4","","79","","","","36","","3","","32.2","","99.99","","","","-16","","NA"
"-89.32","48.37","THUNDER BAY A","6048262","2021-01-23 10:00","2021","01","23","10:00","-13.0","","-15.9","","79","","","","20","","3","","32.2","","100.03","","","","-15","","Cloudy"
"-89.32","48.37","THUNDER BAY A","6048262","2021-01-23 11:00","2021","01","23","11:00","-12.0","","-15.3","","77","","","","7","","3","","16.1","","100.04","","","","-14","","NA"
"-89.32","48.37","THUNDER BAY A","6048262","2021-01-23 12:00","2021","01","23","12:00","-10.0","","-14.6","","70","","","","5","","3","","32.2","","100.01","","","","-12","","NA"
"-89.32","48.37","THUNDER BAY A","6048262","2021-01-23 13:00","2021","01","23","13:00","-9.0","","-13.3","","71","","","","6","","11","","32.2","","99.91","","","","-14","","Cloudy"
"-89.32","48.37","THUNDER BAY A","6048262","2021-01-23 14:00","2021","01","23","14:00","-7.9","","-11.9","","73","","","","7","","14","","24.1","","99.89","","","","-14","","NA"
"-89.32","48.37","THUNDER BAY A","6048262","2021-01-23 15:00","2021","01","23","15:00","-7.6","","-10.8","","78","","","","8","","14","","24.1","","99.88","","","","-14","","NA"
"-89.32","48.37","THUNDER BAY A","6048262","2021-01-23 16:00","2021","01","23","16:00","-7.2","","-9.8","","82","","","","10","","16","","16.1","","99.87","","","","-14","","Snow"
"-89.32","48.37","THUNDER BAY A","6048262","2021-01-23 17:00","2021","01","23","17:00","-6.9","","-9.3","","83","","","","10","","9","","16.1","","99.84","","","","-11","","Snow"
"-89.32","48.37","THUNDER BAY A","6048262","2021-01-23 18:00","2021","01","23","18:00","-6.5","","-8.8","","84","","","","8","","11","","16.1","","99.82","","","","-11","","Snow"
"-89.32","48.37","THUNDER BAY A","6048262","2021-01-23 19:00","2021","01","23","19:00","-5.8","","-7.9","","85","","","","7","","11","","12.9","","99.77","","","","-11","","Snow"
"-89.32","48.37","THUNDER BAY A","6048262","2021-01-23 20:00","2021","01","23","20:00","-7.1","","-8.8","","88","","","","5","","13","","12.9","","99.75","","","","-13","","Snow"
"-89.32","48.37","THUNDER BAY A","6048262","2021-01-23 21:00","2021","01","23","21:00","-7.0","","-8.9","","86","","","","2","","5","","16.1","","99.74","","","","-10","","Snow"
"-89.32","48.37","THUNDER BAY A","6048262","2021-01-23 22:00","2021","01","23","22:00","-6.8","","-8.3","","89","","","","7","","4","","24.1","","99.71","","","","-9","","Snow"
"-89.32","48.37","THUNDER BAY A","6048262","2021-01-23 23:00","2021","01","23","23:00","-4.8","","-7.6","","81","","","","17","","12","","24.1","","99.64","","","","-10","","Snow"
"-89.32","48.37","THUNDER BAY A","6048262","2021-01-24 00:00","2021","01","24","00:00","-4.3","","-8.3","","74","","","","16","","18","","24.1","","99.60","","","","-10","","Snow"
"-89.32","48.37","THUNDER BAY A","6048262","2021-01-24 01:00","2021","01","24","01:00","-4.9","","-7.5","","82","","","","17","","14","","6.4","","99.54","","","","-10","","Snow"
"-89.32","48.37","THUNDER BAY A","6048262","2021-01-24 02:00","2021","01","24","02:00","-5.4","","-6.1","","95","","","","15","","14","","2.4","","99.44","","","","-11","","Snow"
"-89.32","48.37","THUNDER BAY A","6048262","2021-01-24 03:00","2021","01","24","03:00","-5.5","","-6.6","","92","","","","16","","12","","3.2","","99.38","","","","-10","","Snow"
"-89.32","48.37","THUNDER BAY A","6048262","2021-01-24 04:00","2021","01","24","04:00","-5.3","","-6.7","","90","","","","12","","12","","4.8","","99.30","","","","-10","","Snow"
"-89.32","48.37","THUNDER BAY A","6048262","2021-01-24 05:00","2021","01","24","05:00","-5.0","","-6.2","","91","","","","10","","13","","4.8","","99.21","","","","-10","","Snow"
"-89.32","48.37","THUNDER BAY A","6048262","2021-01-24 06:00","2021","01","24","06:00","-4.7","","-5.8","","92","","","","12","","14","","3.2","","99.10","","","","-10","","Snow"
"-89.32","48.37","THUNDER BAY A","6048262","2021-01-24 07:00","2021","01","24","07:00","-4.7","","-5.5","","94","","","","22","","10","","2.4","","99.04","","","","-9","","Snow"
"-89.32","48.37","THUNDER BAY A","6048262","2021-01-24 08:00","2021","01","24","08:00","-5.3","","-6.1","","94","","","","24","","13","","6.4","","99.02","","","","-10","","Snow"
"-89.32","48.37","THUNDER BAY A","6048262","2021-01-24 09:00","2021","01","24","09:00","-5.9","","-7.3","","90","","","","24","","11","","9.7","","99.01","","","","-11","","Snow"
"-89.32","48.37","THUNDER BAY A","6048262","2021-01-24 10:00","2021","01","24","10:00","-6.9","","-8.4","","89","","","","27","","13","","32.2","","99.03","","","","-12","","Mostly Cloudy"
"-89.32","48.37","THUNDER BAY A","6048262","2021-01-24 11:00","2021","01","24","11:00","-6.1","","-9.5","","77","","","","27","","20","","32.2","","99.07","","","","-13","","NA"
"-89.32","48.37","THUNDER BAY A","6048262","2021-01-24 12:00","2021","01","24","12:00","-6.1","","-9.9","","75","","","","28","","24","","32.2","","99.07","","","","-14","","NA"
"-89.32","48.37","THUNDER BAY A","6048262","2021-01-24 13:00","2021","01","24","13:00","-5.8","","-10.1","","72","","","","28","","20","","32.2","","99.00","","","","-13","","Mostly Cloudy"
"-89.32","48.37","THUNDER BAY A","6048262","2021-01-24 14:00","2021","01","24","14:00","-5.9","","-10.8","","69","","","","27","","26","","24.1","","99.01","","","","-14","","Snow"
"-89.32","48.37","THUNDER BAY A","6048262","2021-01-24 15:00","2021","01","24","15:00","-6.2","","-14.0","","54","","","","28","","30","","32.2","","99.06","","","","-15","","NA"
"-89.32","48.37","THUNDER BAY A","6048262","2021-01-24 16:00","2021","01","24","16:00","-7.4","","-14.4","","57","","","","29","","26","","32.2","","99.16","","","","-16","","Blowing Snow"
"-89.32","48.37","THUNDER BAY A","6048262","2021-01-24 17:00","2021","01","24","17:00","-8.8","","-14.6","","63","","","","30","","23","","32.2","","99.26","","","","-17","","Blowing Snow"
"-89.32","48.37","THUNDER BAY A","6048262","2021-01-24 18:00","2021","01","24","18:00","-10.4","","-16.0","","64","","","","28","","26","","32.2","","99.36","","","","-19","","NA"
"-89.32","48.37","THUNDER BAY A","6048262","2021-01-24 19:00","2021","01","24","19:00","-12.0","","-16.9","","67","","","","27","","15","","24.1","","99.47","","","","-19","","Blowing Snow"
"-89.32","48.37","THUNDER BAY A","6048262","2021-01-24 20:00","2021","01","24","20:00","-13.2","","-17.4","","71","","","","27","","16","","24.1","","99.48","","","","-21","","NA"
"-89.32","48.37","THUNDER BAY A","6048262","2021-01-24 21:00","2021","01","24","21:00","-13.6","","-17.7","","71","","","","28","","22","","24.1","","99.50","","","","-23","","NA"
"-89.32","48.37","THUNDER BAY A","6048262","2021-01-24 22:00","2021","01","24","22:00","-14.1","","-18.4","","70","","","","28","","14","","19.3","","99.54","","","","-22","","Snow"
"-89.32","48.37","THUNDER BAY A","6048262","2021-01-24 23:00","2021","01","24","23:00","-15.1","","-19.1","","72","","","","26","","14","","24.1","","99.60","","","","-23","","NA"
"-89.32","48.37","THUNDER BAY A","6048262","2021-01-25 00:00","2021","01","25","00:00","-15.9","","-19.4","","75","","","","27","","20","","24.1","","99.62","","","","-25","","NA"
"-89.32","48.37","THUNDER BAY A","6048262","2021-01-25 01:00","2021","01","25","01:00","-16.5","","-20.0","","75","","","","29","","27","","24.1","","99.71","","","","-27","","Clear"
"-89.32","48.37","THUNDER BAY A","6048262","2021-01-25 02:00","2021","01","25","02:00","-17.6","","-21.0","","75","","","","29","","17","","24.1","","99.78","","","","-27","","NA"
"-89.32","48.37","THUNDER BAY A","6048262","2021-01-25 03:00","2021","01","25","03:00","-18.2","","-21.4","","76","","","","26","","17","","24.1","","99.85","","","","-27","","NA"
"-89.32","48.37","THUNDER BAY A","6048262","2021-01-25 04:00","2021","01","25","04:00","-19.5","","-22.2","","80","","","","24","","12","","24.1","","99.92","","","","-27","","Mainly Clear"
"-89.32","48.37","THUNDER BAY A","6048262","2021-01-25 05:00","2021","01","25","05:00","-19.6","","-22.2","","80","","","","26","","10","","24.1","","99.95","","","","-27","","NA"
"-89.32","48.37","THUNDER BAY A","6048262","2021-01-25 06:00","2021","01","25","06:00","-19.7","","-22.6","","78","","","","29","","12","","24.1","","99.88","","","","-28","","NA"
"-89.32","48.37","THUNDER BAY A","6048262","2021-01-25 07:00","2021","01","25","07:00","-19.8","","-23.1","","75","","","","30","","15","","24.1","","99.78","","","","-29","","Clear"
"-89.32","48.37","THUNDER BAY A","6048262","2021-01-25 08:00","2021","01","25","08:00","-21.3","","-24.4","","77","","","","28","","12","","32.2","","99.84","","","","-30","","NA"
"-89.32","48.37","THUNDER BAY A","6048262","2021-01-25 09:00","2021","01","25","09:00","-21.9","","-24.4","","81","","","","24","","13","","32.2","","100.02","","","","-31","","NA"
"-89.32","48.37","THUNDER BAY A","6048262","2021-01-25 10:00","2021","01","25","10:00","-19.4","","-23.7","","69","","","","26","","16","","32.2","","100.12","","","","-29","","Mainly Clear"
"-89.32","48.37","THUNDER BAY A","6048262","2021-01-25 11:00","2021","01","25","11:00","-18.4","","-23.8","","63","","","","30","","22","","32.2","","100.14","","","","-29","","NA"
"-89.32","48.37","THUNDER BAY A","6048262","2021-01-25 12:00","2021","01","25","12:00","-17.3","","-22.9","","62","","","","29","","20","","32.2","","100.14","","","","-27","","NA"
"-89.32","48.37","THUNDER BAY A","6048262","2021-01-25 13:00","2021","01","25","13:00","-15.8","","-21.9","","60","","","","30","","14","","32.2","","100.04","","","","-24","","Mainly Clear"
"-89.32","48.37","THUNDER BAY A","6048262","2021-01-25 14:00","2021","01","25","14:00","-14.0","","-20.6","","58","","","","30","","17","","32.2","","99.91","","","","-22","","NA"
"-89.32","48.37","THUNDER BAY A","6048262","2021-01-25 15:00","2021","01","25","15:00","-12.6","","-19.7","","56","","","","33","","8","","32.2","","99.87","","","","-18","","NA"
"-89.32","48.37","THUNDER BAY A","6048262","2021-01-25 16:00","2021","01","25","16:00","-12.1","","-19.0","","57","","","","35","","17","","32.2","","99.88","","","","-20","","Clear"
"-89.32","48.37","THUNDER BAY A","6048262","2021-01-25 17:00","2021","01","25","17:00","-12.8","","-19.0","","60","","","","33","","13","","32.2","","99.90","","","","-20","","NA"
"-89.32","48.37","THUNDER BAY A","6048262","2021-01-25 18:00","2021","01","25","18:00","-14.0","","-19.6","","63","","","","32","","7","","24.1","","99.95","","","","-19","","NA"
"-89.32","48.37","THUNDER BAY A","6048262","2021-01-25 19:00","2021","01","25","19:00","-15.3","","-19.8","","69","","","","34","","8","","24.1","","99.96","","","","-21","","Clear"
"-89.32","48.37","THUNDER BAY A","6048262","2021-01-25 20:00","2021","01","25","20:00","-19.1","","-21.7","","80","","","","30","","6","","24.1","","99.95","","","","-24","","NA"
"-89.32","48.37","THUNDER BAY A","6048262","2021-01-25 21:00","2021","01","25","21:00","-19.2","","-22.2","","77","","","","30","","9","","24.1","","99.94","","","","-26","","NA"
"-89.32","48.37","THUNDER BAY A","6048262","2021-01-25 22:00","2021","01","25","22:00"
"-89.32","48.37","THUNDER BAY A","6048262","2021-01-25 23:00","2021","01","25","23:00","-21.6","","-23.5","","85","","","","30","","7","","24.1","","100.03","","","","-28","","NA"
"-89.32","48.37","THUNDER BAY A","6048262","2021-01-26 00:00","2021","01","26","00:00","-21.1","","-23.8","","79","","","","31","","11","","24.1","","100.03","","","","-29","","NA"
"-89.32","48.37","THUNDER BAY A","6048262","2021-01-26 01:00","2021","01","26","01:00","-23.5","","-25.7","","83","","","","36","","3","","24.1","","100.05","","","","-26","","Clear"
"-89.32","48.37","THUNDER BAY A","6048262","2021-01-26 02:00","2021","01","26","02:00","-24.2","","-26.5","","82","","","","29","","6","","24.1","","100.00","","","","-30","","NA"
"-89.32","48.37","THUNDER BAY A","6048262","2021-01-26 03:00","2021","01","26","03:00","-23.6","","-26.0","","81","","","","22","","7","","24.1","","99.99","","","","-30","","NA"
"-89.32","48.37","THUNDER BAY A","6048262","2021-01-26 04:00","2021","01","26","04:00","-23.8","","-26.1","","82","","","","25","","4","","24.1","","100.00","","","","-28","","Mainly Clear"
"-89.32","48.37","THUNDER BAY A","6048262","2021-01-26 05:00","2021","01","26","05:00","-24.5","","-26.9","","81","","","","23","","8","","24.1","","99.96","","","","-32","","NA"
"-89.32","48.37","THUNDER BAY A","6048262","2021-01-26 06:00","2021","01","26","06:00","-23.8","","-26.2","","81","","","","22","","4","","24.1","","99.95","","","","-28","","NA"
"-89.32","48.37","THUNDER BAY A","6048262","2021-01-26 07:00","2021","01","26","07:00","-23.3","","-25.5","","83","","","","21","","4","","24.1","","99.96","","","","-27","","Clear"
"-89.32","48.37","THUNDER BAY A","6048262","2021-01-26 08:00","2021","01","26","08:00","-22.2","","-24.5","","82","","","","24","","8","","24.1","","99.99","","","","-29","","NA"
"-89.32","48.37","THUNDER BAY A","6048262","2021-01-26 09:00","2021","01","26","09:00","-20.5","","-22.7","","83","","","","28","","7","","24.1","","100.02","","","","-26","","NA"
"-89.32","48.37","THUNDER BAY A","6048262","2021-01-26 10:00","2021","01","26","10:00","-18.8","","-21.1","","82","","","","28","","5","","24.1","","100.01","","","","-23","","Cloudy"
"-89.32","48.37","THUNDER BAY A","6048262","2021-01-26 11:00","2021","01","26","11:00","-17.1","","-19.8","","80","","","","23","","9","","32.2","","100.00","","","","-23","","NA"
"-89.32","48.37","THUNDER BAY A","6048262","2021-01-26 12:00","2021","01","26","12:00","-15.3","","-19.6","","70","","","","33","","8","","32.2","","99.98","","","","-21","","NA"
"-89.32","48.37","THUNDER BAY A","6048262","2021-01-26 13:00","2021","01","26","13:00","-14.3","","-19.8","","63","","","","34","","9","","32.2","","99.94","","","","-20","","Mostly Cloudy"
"-89.32","48.37","THUNDER BAY A","6048262","2021-01-26 14:00","2021","01","26","14:00","-13.8","","-19.8","","61","","","","30","","6","","32.2","","99.93","","","","-18","","NA"
"-89.32","48.37","THUNDER BAY A","6048262","2021-01-26 15:00","2021","01","26","15:00","-13.4","","-19.2","","62","","","","31","","18","","32.2","","99.93","","","","-22","","NA"
"-89.32","48.37","THUNDER BAY A","6048262","2021-01-26 16:00","2021","01","26","16:00","-13.8","","-19.3","","63","","","","29","","19","","32.2","","99.99","","","","-22","","Mostly Cloudy"
"-89.32","48.37","THUNDER BAY A","6048262","2021-01-26 17:00","2021","01","26","17:00","-14.3","","-19.5","","65","","","","34","","15","","32.2","","100.05","","","","-22","","NA"
"-89.32","48.37","THUNDER BAY A","6048262","2021-01-26 18:00","2021","01","26","18:00","-15.3","","-19.9","","68","","","","36","","5","","24.1","","100.11","","","","-19","","NA"
"-89.32","48.37","THUNDER BAY A","6048262","2021-01-26 19:00","2021","01","26","19:00","-17.7","","-20.9","","76","","","","28","","5","","24.1","","100.16","","","","-22","","Mostly Cloudy"
"-89.32","48.37","THUNDER BAY A","6048262","2021-01-26 20:00","2021","01","26","20:00","-19.8","","-22.4","","80","","","","28","","8","","24.1","","100.23","","","","-26","","NA"
"-89.32","48.37","THUNDER BAY A","6048262","2021-01-26 21:00","2021","01","26","21:00","-21.3","","-23.2","","85","","","","28","","5","","24.1","","100.28","","","","-26","","NA"
"-89.32","48.37","THUNDER BAY A","6048262","2021-01-26 22:00","2021","01","26","22:00","-23.2","","-25.3","","83","","","","32","","3","","24.1","","100.33","","","","-26","","Clear"
"-89.32","48.37","THUNDER BAY A","6048262","2021-01-26 23:00","2021","01","26","23:00","-25.2","","-27.6","","81","","","","30","","7","","24.1","","100.38","","","","-32","","NA"
"-89.32","48.37","THUNDER BAY A","6048262","2021-01-27 00:00","2021","01","27","00:00","-25.0","","-27.5","","80","","","","30","","9","","24.1","","100.42","","","","-33","","NA"
"-89.32","48.37","THUNDER BAY A","6048262","2021-01-27 01:00","2021","01","27","01:00","-26.4","","-28.9","","80","","","","29","","9","","24.1","","100.48","","","","-34","","Clear"
"-89.32","48.37","THUNDER BAY A","6048262","2021-01-27 02:00","2021","01","27","02:00","-27.2","","-29.9","","78","","","","26","","6","","24.1","","100.49","","","","-33","","NA"
"-89.32","48.37","THUNDER BAY A","6048262","2021-01-27 03:00","2021","01","27","03:00","-27.3","","-29.9","","79","","","","28","","7","","24.1","","100.55","","","","-34","","NA"
"-89.32","48.37","THUNDER BAY A","6048262","2021-01-27 04:00","2021","01","27","04:00","-27.8","","-30.5","","78","","","","26","","8","","24.1","","100.61","","","","-35","","Clear"
"-89.32","48.37","THUNDER BAY A","6048262","2021-01-27 05:00","2021","01","27","05:00","-26.6","","-29.1","","80","","","","24","","10","","24.1","","100.66","","","","-35","","NA"
"-89.32","48.37","THUNDER BAY A","6048262","2021-01-27 06:00","2021","01","27","06:00","-26.9","","-29.8","","77","","","","24","","5","","24.1","","100.72","","","","-32","","NA"
"-89.32","48.37","THUNDER BAY A","6048262","2021-01-27 07:00","2021","01","27","07:00","-27.7","","-30.7","","76","","","","28","","10","","24.1","","100.76","","","","-36","","Clear"
"-89.32","48.37","THUNDER BAY A","6048262","2021-01-27 08:00","2021","01","27","08:00","-27.2","","-30.0","","78","","","","23","","8","","32.2","","100.82","","","","-35","","NA"
"-89.32","48.37","THUNDER BAY A","6048262","2021-01-27 09:00","2021","01","27","09:00","-27.0","","-29.5","","80","","","","27","","7","","32.2","","100.83","","","","-34","","NA"
"-89.32","48.37","THUNDER BAY A","6048262","2021-01-27 10:00","2021","01","27","10:00","-23.7","","-26.2","","80","","","","25","","8","","32.2","","100.85","","","","-31","","Mainly Clear"
"-89.32","48.37","THUNDER BAY A","6048262","2021-01-27 11:00","2021","01","27","11:00","-20.8","","-24.0","","76","","","","28","","16","","32.2","","100.90","","","","-30","","NA"
"-89.32","48.37","THUNDER BAY A","6048262","2021-01-27 12:00","2021","01","27","12:00","-19.3","","-23.5","","70","","","","26","","15","","32.2","","100.95","","","","-28","","NA"
"-89.32","48.37","THUNDER BAY A","6048262","2021-01-27 13:00","2021","01","27","13:00","-17.9","","-23.4","","63","","","","28","","14","","32.2","","100.94","","","","-26","","Mainly Clear"
"-89.32","48.37","THUNDER BAY A","6048262","2021-01-27 14:00","2021","01","27","14:00","-16.9","","-22.9","","60","","","","30","","14","","32.2","","100.91","","","","-25","","NA"
"-89.32","48.37","THUNDER BAY A","6048262","2021-01-27 15:00","2021","01","27","15:00","-16.0","","-22.4","","58","","","","28","","18","","32.2","","100.88","","","","-25","","NA"
"-89.32","48.37","THUNDER BAY A","6048262","2021-01-27 16:00","2021","01","27","16:00","-15.5","","-22.4","","56","","","","29","","15","","32.2","","100.90","","","","-24","","Clear"
"-89.32","48.37","THUNDER BAY A","6048262","2021-01-27 17:00","2021","01","27","17:00","-15.7","","-22.6","","56","","","","29","","10","","32.2","","100.92","","","","-22","","NA"
"-89.32","48.37","THUNDER BAY A","6048262","2021-01-27 18:00","2021","01","27","18:00","-16.5","","-23.1","","57","","","","30","","12","","32.2","","100.97","","","","-24","","NA"
"-89.32","48.37","THUNDER BAY A","6048262","2021-01-27 19:00","2021","01","27","19:00","-17.8","","-23.4","","62","","","","29","","9","","24.1","","101.07","","","","-24","","Clear"
"-89.32","48.37","THUNDER BAY A","6048262","2021-01-27 20:00","2021","01","27","20:00","-20.3","","-24.6","","69","","","","28","","10","","24.1","","101.12","","","","-28","","NA"
"-89.32","48.37","THUNDER BAY A","6048262","2021-01-27 21:00","2021","01","27","21:00","-20.0","","-24.5","","68","","","","28","","14","","24.1","","101.15","","","","-29","","NA"
"-89.32","48.37","THUNDER BAY A","6048262","2021-01-27 22:00","2021","01","27","22:00","-21.0","","-25.0","","71","","","","28","","11","","24.1","","101.17","","","","-29","","Clear"
"-89.32","48.37","THUNDER BAY A","6048262","2021-01-27 23:00","2021","01","27","23:00","-21.4","","-25.0","","73","","","","28","","10","","24.1","","101.20","","","","-29","","NA"
"-89.32","48.37","THUNDER BAY A","6048262","2021-01-28 00:00","2021","01","28","00:00","-22.1","","-25.7","","73","","","","26","","9","","24.1","","101.25","","","","-29","","NA"
"-89.32","48.37","THUNDER BAY A","6048262","2021-01-28 01:00","2021","01","28","01:00","-24.1","","-26.8","","79","","","","25","","6","","24.1","","101.26","","","","-30","","Clear"
"-89.32","48.37","THUNDER BAY A","6048262","2021-01-28 02:00","2021","01","28","02:00","-23.2","","-26.3","","76","","","","21","","15","","24.1","","101.27","","","","-33","","NA"
"-89.32","48.37","THUNDER BAY A","6048262","2021-01-28 03:00","2021","01","28","03:00","-23.4","","-26.4","","77","","","","21","","16","","24.1","","101.32","","","","-34","","NA"
"-89.32","48.37","THUNDER BAY A","6048262","2021-01-28 04:00","2021","01","28","04:00","-23.5","","-26.7","","75","","","","24","","16","","24.1","","101.37","","","","-34","","Clear"
"-89.32","48.37","THUNDER BAY A","6048262","2021-01-28 05:00","2021","01","28","05:00","-23.7","","-26.8","","76","","","","24","","10","","24.1","","101.37","","","","-32","","NA"
"-89.32","48.37","THUNDER BAY A","6048262","2021-01-28 06:00","2021","01","28","06:00","-24.1","","-26.9","","78","","","","23","","7","","24.1","","101.34","","","","-30","","NA"
"-89.32","48.37","THUNDER BAY A","6048262","2021-01-28 07:00","2021","01","28","07:00","-24.5","","-27.3","","78","","","","25","","7","","24.1","","101.36","","","","-31","","Clear"
"-89.32","48.37","THUNDER BAY A","6048262","2021-01-28 08:00","2021","01","28","08:00","-25.2","","-28.0","","78","","","","24","","12","","32.2","","101.39","","","","-34","","NA"
"-89.32","48.37","THUNDER BAY A","6048262","2021-01-28 09:00","2021","01","28","09:00","-25.0","","-27.9","","77","","","","25","","12","","32.2","","101.43","","","","-34","","NA"
"-89.32","48.37","THUNDER BAY A","6048262","2021-01-28 10:00","2021","01","28","10:00","-22.3","","-26.2","","71","","","","26","","11","","32.2","","101.42","","","","-30","","Mainly Clear"
"-89.32","48.37","THUNDER BAY A","6048262","2021-01-28 11:00","2021","01","28","11:00","-20.3","","-24.9","","67","","","","24","","14","","32.2","","101.42","","","","-29","","NA"
"-89.32","48.37","THUNDER BAY A","6048262","2021-01-28 12:00","2021","01","28","12:00","-17.4","","-23.0","","63","","","","25","","14","","32.2","","101.38","","","","-26","","NA"
"-89.32","48.37","THUNDER BAY A","6048262","2021-01-28 13:00","2021","01","28","13:00","-14.6","","-21.7","","56","","","","27","","15","","32.2","","101.33","","","","-22","","Mainly Clear"
"-89.32","48.37","THUNDER BAY A","6048262","2021-01-28 14:00","2021","01","28","14:00","-13.2","","-21.3","","51","","","","29","","15","","32.2","","101.25","","","","-21","","NA"
"-89.32","48.37","THUNDER BAY A","6048262","2021-01-28 15:00","2021","01","28","15:00","-11.8","","-20.1","","51","","","","28","","12","","32.2","","101.13","","","","-18","","NA"
"-89.32","48.37","THUNDER BAY A","6048262","2021-01-28 16:00","2021","01","28","16:00","-11.1","","-19.8","","49","","","","26","","14","","32.2","","101.12","","","","-18","","Mainly Clear"
"-89.32","48.37","THUNDER BAY A","6048262","2021-01-28 17:00","2021","01","28","17:00","-12.8","","-20.3","","54","","","","23","","11","","32.2","","101.09","","","","-19","","NA"
"-89.32","48.37","THUNDER BAY A","6048262","2021-01-28 18:00","2021","01","28","18:00","-13.8","","-20.0","","60","","","","23","","8","","32.2","","101.09","","","","-19","","NA"
"-89.32","48.37","THUNDER BAY A","6048262","2021-01-28 19:00","2021","01","28","19:00","-16.4","","-20.7","","70","","","","36","","2","","24.1","","101.05","","","","-18","","Clear"
"-89.32","48.37","THUNDER BAY A","6048262","2021-01-28 20:00","2021","01","28","20:00","-19.3","","-22.5","","76","","","","26","","5","","24.1","","101.03","","","","-23","","NA"
"-89.32","48.37","THUNDER BAY A","6048262","2021-01-28 21:00","2021","01","28","21:00","-20.4","","-23.4","","77","","","","30","","5","","24.1","","101.02","","","","-25","","NA"
"-89.32","48.37","THUNDER BAY A","6048262","2021-01-28 22:00","2021","01","28","22:00","-22.1","","-24.1","","84","","","","29","","8","","24.1","","101.02","","","","-29","","Clear"
"-89.32","48.37","THUNDER BAY A","6048262","2021-01-28 23:00","2021","01","28","23:00","-22.1","","-24.2","","84","","","","25","","5","","24.1","","100.98","","","","-27","","NA"
"-89.32","48.37","THUNDER BAY A","6048262","2021-01-29 00:00","2021","01","29","00:00","-23.0","","-25.1","","83","","","","25","","9","","24.1","","101.00","","","","-30","","NA"
"-89.32","48.37","THUNDER BAY A","6048262","2021-01-29 01:00","2021","01","29","01:00","-22.8","","-25.1","","82","","","","23","","8","","24.1","","100.99","","","","-30","","Clear"
"-89.32","48.37","THUNDER BAY A","6048262","2021-01-29 02:00","2021","01","29","02:00","-24.6","","-27.1","","80","","","","24","","9","","24.1","","100.96","","","","-32","","NA"
"-89.32","48.37","THUNDER BAY A","6048262","2021-01-29 03:00","2021","01","29","03:00","-24.4","","-26.9","","80","","","","24","","6","","24.1","","100.96","","","","-30","","NA"
"-89.32","48.37","THUNDER BAY A","6048262","2021-01-29 04:00","2021","01","29","04:00","-24.7","","-27.3","","80","","","","26","","5","","24.1","","100.92","","","","-30","","Clear"
"-89.32","48.37","THUNDER BAY A","6048262","2021-01-29 05:00","2021","01","29","05:00","-26.6","","-29.5","","77","","","","27","","5","","24.1","","100.91","","","","-32","","NA"
"-89.32","48.37","THUNDER BAY A","6048262","2021-01-29 06:00","2021","01","29","06:00","-25.6","","-28.1","","80","","","","24","","7","","24.1","","100.90","","","","-32","","NA"
"-89.32","48.37","THUNDER BAY A","6048262","2021-01-29 07:00","2021","01","29","07:00","-26.7","","-29.5","","78","","","","25","","7","","24.1","","100.89","","","","-33","","Clear"
"-89.32","48.37","THUNDER BAY A","6048262","2021-01-29 08:00","2021","01","29","08:00","-26.2","","-29.0","","78","","","","25","","4","","24.1","","100.87","","","","-30","","NA"
"-89.32","48.37","THUNDER BAY A","6048262","2021-01-29 09:00","2021","01","29","09:00","-26.2","","-28.9","","78","","","","23","","6","","32.2","","100.85","","","","-32","","NA"
"-89.32","48.37","THUNDER BAY A","6048262","2021-01-29 10:00","2021","01","29","10:00","-23.8","","-26.5","","79","","","","23","","7","","32.2","","100.85","","","","-30","","Clear"
"-89.32","48.37","THUNDER BAY A","6048262","2021-01-29 11:00","2021","01","29","11:00","-20.6","","-23.8","","76","","","","20","","5","","32.2","","100.83","","","","-25","","NA"
"-89.32","48.37","THUNDER BAY A","6048262","2021-01-29 12:00","2021","01","29","12:00","-16.5","","-21.6","","65","","","","20","","6","","32.2","","100.78","","","","-21","","NA"
"-89.32","48.37","THUNDER BAY A","6048262","2021-01-29 13:00","2021","01","29","13:00","-13.2","","-19.6","","59","","","","22","","6","","32.2","","100.71","","","","-17","","Clear"
"-89.32","48.37","THUNDER BAY A","6048262","2021-01-29 14:00","2021","01","29","14:00","-12.3","","-19.2","","57","","","","36","","1","","32.2","","100.63","","","","-13","","NA"
"-89.32","48.37","THUNDER BAY A","6048262","2021-01-29 15:00","2021","01","29","15:00","-10.4","","-18.9","","50","","","","6","","5","","32.2","","100.57","","","","-13","","NA"
"-89.32","48.37","THUNDER BAY A","6048262","2021-01-29 16:00","2021","01","29","16:00","-10.3","","-17.8","","55","","","","8","","10","","32.2","","100.52","","","","-16","","Mainly Clear"
"-89.32","48.37","THUNDER BAY A","6048262","2021-01-29 17:00","2021","01","29","17:00","-10.4","","-18.0","","54","","","","9","","8","","32.2","","100.48","","","","-15","","NA"
"-89.32","48.37","THUNDER BAY A","6048262","2021-01-29 18:00","2021","01","29","18:00","-11.9","","-18.5","","58","","","","7","","7","","32.2","","100.45","","","","-16","","NA"
"-89.32","48.37","THUNDER BAY A","6048262","2021-01-29 19:00","2021","01","29","19:00","-15.6","","-19.6","","72","","","","36","","2","","24.1","","100.45","","","","-17","","Clear"
"-89.32","48.37","THUNDER BAY A","6048262","2021-01-29 20:00","2021","01","29","20:00","-17.7","","-21.1","","75","","","","27","","3","","24.1","","100.41","","","","-20","","NA"
"-89.32","48.37","THUNDER BAY A","6048262","2021-01-29 21:00","2021","01","29","21:00","-19.3","","-22.1","","79","","","","30","","3","","24.1","","100.38","","","","-22","","NA"
"-89.32","48.37","THUNDER BAY A","6048262","2021-01-29 22:00","2021","01","29","22:00","-20.2","","-22.7","","81","","","","26","","4","","24.1","","100.37","","","","-24","","Mostly Cloudy"
"-89.32","48.37","THUNDER BAY A","6048262","2021-01-29 23:00","2021","01","29","23:00","-18.3","","-20.9","","80","","","","24","","4","","24.1","","100.29","","","","-22","","NA"
"-89.32","48.37","THUNDER BAY A","6048262","2021-01-30 00:00","2021","01","30","00:00","-17.0","","-20.0","","78","","","","27","","3","","24.1","","100.26","","","","-19","","NA"
"-89.32","48.37","THUNDER BAY A","6048262","2021-01-30 01:00","2021","01","30","01:00","-17.2","","-20.0","","79","","","","29","","4","","24.1","","100.23","","","","-20","","Cloudy"
"-89.32","48.37","THUNDER BAY A","6048262","2021-01-30 02:00","2021","01","30","02:00","-15.8","","-18.6","","79","","","","31","","4","","24.1","","100.21","","","","-19","","NA"
"-89.32","48.37","THUNDER BAY A","6048262","2021-01-30 03:00","2021","01","30","03:00","-14.3","","-17.2","","79","","","","36","","2","","24.1","","100.17","","","","-16","","NA"
"-89.32","48.37","THUNDER BAY A","6048262","2021-01-30 04:00","2021","01","30","04:00","-11.0","","-13.2","","84","","","","9","","9","","24.1","","100.14","","","","-16","","Cloudy"
"-89.32","48.37","THUNDER BAY A","6048262","2021-01-30 05:00","2021","01","30","05:00","-9.2","","-10.6","","90","","","","9","","10","","24.1","","100.08","","","","-14","","NA"
"-89.32","48.37","THUNDER BAY A","6048262","2021-01-30 06:00","2021","01","30","06:00","-8.5","","-9.7","","91","","","","7","","16","","24.1","","100.04","","","","-15","","NA"
"-89.32","48.37","THUNDER BAY A","6048262","2021-01-30 07:00","2021","01","30","07:00","-8.6","","-10.0","","90","","","","8","","14","","24.1","","100.00","","","","-15","","Cloudy"
"-89.32","48.37","THUNDER BAY A","6048262","2021-01-30 08:00","2021","01","30","08:00","-8.4","","-9.6","","91","","","","10","","16","","24.1","","99.99","","","","-15","","NA"
"-89.32","48.37","THUNDER BAY A","6048262","2021-01-30 09:00","2021","01","30","09:00","-8.4","","-9.7","","90","","","","9","","8","","32.2","","100.03","","","","-13","","NA"
"-89.32","48.37","THUNDER BAY A","6048262","2021-01-30 10:00","2021","01","30","10:00","-7.3","","-9.0","","88","","","","6","","17","","32.2","","100.05","","","","-14","","Cloudy"
"-89.32","48.37","THUNDER BAY A","6048262","2021-01-30 11:00","2021","01","30","11:00","-5.7","","-7.8","","85","","","","8","","16","","32.2","","100.01","","","","-12","","NA"
"-89.32","48.37","THUNDER BAY A","6048262","2021-01-30 12:00","2021","01","30","12:00","-5.0","","-7.0","","86","","","","6","","16","","32.2","","99.98","","","","-11","","NA"
"-89.32","48.37","THUNDER BAY A","6048262","2021-01-30 13:00","2021","01","30","13:00","-2.0","","-5.2","","79","","","","10","","21","","32.2","","99.92","","","","-8","","Cloudy"
"-89.32","48.37","THUNDER BAY A","6048262","2021-01-30 14:00","2021","01","30","14:00","-1.6","","-5.5","","75","","","","11","","27","","32.2","","99.85","","","","-8","","NA"
"-89.32","48.37","THUNDER BAY A","6048262","2021-01-30 15:00","2021","01","30","15:00","-1.6","","-5.4","","76","","","","11","","30","","32.2","","99.84","","","","-9","","NA"
"-89.32","48.37","THUNDER BAY A","6048262","2021-01-30 16:00","2021","01","30","16:00","-1.5","","-5.4","","75","","","","12","","26","","32.2","","99.85","","","","-8","","Cloudy"
"-89.32","48.37","THUNDER BAY A","6048262","2021-01-30 17:00","2021","01","30","17:00","-1.7","","-5.4","","76","","","","10","","29","","32.2","","99.84","","","","-9","","NA"
"-89.32","48.37","THUNDER BAY A","6048262","2021-01-30 18:00","2021","01","30","18:00","-1.9","","-4.7","","81","","","","10","","21","","32.2","","99.88","","","","-8","","NA"
"-89.32","48.37","THUNDER BAY A","6048262","2021-01-30 19:00","2021","01","30","19:00","-2.0","","-5.5","","77","","","","11","","21","","24.1","","99.90","","","","-8","","Cloudy"
"-89.32","48.37","THUNDER BAY A","6048262","2021-01-30 20:00","2021","01","30","20:00","-2.1","","-5.4","","78","","","","11","","18","","24.1","","99.90","","","","-8","","NA"
"-89.32","48.37","THUNDER BAY A","6048262","2021-01-30 21:00","2021","01","30","21:00","-2.1","","-5.4","","78","","","","11","","19","","24.1","","99.87","","","","-8","","NA"
"-89.32","48.37","THUNDER BAY A","6048262","2021-01-30 22:00","2021","01","30","22:00","-2.0","","-5.5","","77","","","","12","","16","","24.1","","99.89","","","","-7","","Cloudy"
"-89.32","48.37","THUNDER BAY A","6048262","2021-01-30 23:00","2021","01","30","23:00","-2.1","","-5.6","","77","","","","11","","18","","24.1","","99.86","","","","-8","","NA"
"-89.32","48.37","THUNDER BAY A","6048262","2021-01-31 00:00","2021","01","31","00:00","-1.8","","-5.4","","77","","","","10","","18","","24.1","","99.88","","","","-7","","NA"
"-89.32","48.37","THUNDER BAY A","6048262","2021-01-31 01:00","2021","01","31","01:00","-1.8","","-5.3","","77","","","","11","","17","","24.1","","99.89","","","","-7","","Cloudy"
"-89.32","48.37","THUNDER BAY A","6048262","2021-01-31 02:00","2021","01","31","02:00","-3.7","","-6.5","","81","","","","7","","16","","24.1","","99.93","","","","-9","","NA"
"-89.32","48.37","THUNDER BAY A","6048262","2021-01-31 03:00","2021","01","31","03:00","-4.2","","-6.8","","82","","","","9","","12","","24.1","","99.96","","","","-9","","NA"
"-89.32","48.37","THUNDER BAY A","6048262","2021-01-31 04:00","2021","01","31","04:00","-4.4","","-7.0","","82","","","","9","","14","","24.1","","99.97","","","","-10","","Cloudy"
"-89.32","48.37","THUNDER BAY A","6048262","2021-01-31 05:00","2021","01","31","05:00","-4.9","","-6.8","","86","","","","9","","14","","24.1","","99.99","","","","-10","","NA"
"-89.32","48.37","THUNDER BAY A","6048262","2021-01-31 06:00","2021","01","31","06:00","-4.9","","-6.3","","90","","","","9","","10","","24.1","","100.00","","","","-9","","NA"
"-89.32","48.37","THUNDER BAY A","6048262","2021-01-31 07:00","2021","01","31","07:00","-4.9","","-6.0","","92","","","","8","","12","","24.1","","100.02","","","","-10","","Cloudy"
"-89.32","48.37","THUNDER BAY A","6048262","2021-01-31 08:00","2021","01","31","08:00","-5.0","","-5.8","","94","","","","8","","11","","24.1","","100.04","","","","-10","","NA"
"-89.32","48.37","THUNDER BAY A","6048262","2021-01-31 09:00","2021","01","31","09:00","-4.5","","-5.3","","94","","","","7","","10","","32.2","","100.06","","","","-9","","NA"
"-89.32","48.37","THUNDER BAY A","6048262","2021-01-31 10:00","2021","01","31","10:00","-3.7","","-4.7","","93","","","","8","","17","","32.2","","100.06","","","","-9","","Cloudy"
"-89.32","48.37","THUNDER BAY A","6048262","2021-01-31 11:00","2021","01","31","11:00","-3.3","","-4.4","","92","","","","7","","17","","32.2","","100.08","","","","-9","","NA"
"-89.32","48.37","THUNDER BAY A","6048262","2021-01-31 12:00","2021","01","31","12:00","-2.8","","-4.2","","90","","","","9","","19","","32.2","","100.08","","","","-9","","NA"
"-89.32","48.37","THUNDER BAY A","6048262","2021-01-31 13:00","2021","01","31","13:00","-2.7","","-4.1","","90","","","","9","","21","","32.2","","100.07","","","","-9","","Cloudy"
"-89.32","48.37","THUNDER BAY A","6048262","2021-01-31 14:00","2021","01","31","14:00","-2.3","","-4.0","","88","","","","7","","16","","32.2","","100.06","","","","-7","","NA"
"-89.32","48.37","THUNDER BAY A","6048262","2021-01-31 15:00","2021","01","31","15:00","-2.0","","-3.9","","87","","","","8","","17","","32.2","","100.04","","","","-7","","NA"
"-89.32","48.37","THUNDER BAY A","6048262","2021-01-31 16:00","2021","01","31","16:00","-2.1","","-4.0","","87","","","","8","","17","","32.2","","100.03","","","","-7","","Cloudy"
"-89.32","48.37","THUNDER BAY A","6048262","2021-01-31 17:00","2021","01","31","17:00","-2.4","","-4.3","","87","","","","8","","16","","32.2","","100.07","","","","-8","","NA"
"-89.32","48.37","THUNDER BAY A","6048262","2021-01-31 18:00","2021","01","31","18:00","-3.2","","-4.8","","89","","","","6","","7","","32.2","","100.10","","","","-6","","NA"
"-89.32","48.37","THUNDER BAY A","6048262","2021-01-31 19:00","2021","01","31","19:00","-3.2","","-4.8","","89","","","","6","","5","","24.1","","100.11","","","","-5","","Cloudy"
"-89.32","48.37","THUNDER BAY A","6048262","2021-01-31 20:00","2021","01","31","20:00","-3.6","","-4.9","","91","","","","5","","5","","24.1","","100.09","","","","-6","","NA"
"-89.32","48.37","THUNDER BAY A","6048262","2021-01-31 21:00","2021","01","31","21:00","-4.5","","-5.6","","92","","","","31","","4","","24.1","","100.10","","","","-6","","NA"
"-89.32","48.37","THUNDER BAY A","6048262","2021-01-31 22:00","2021","01","31","22:00","-5.2","","-5.9","","95","","","","36","","2","","24.1","","100.08","","","","-6","","Cloudy"
"-89.32","48.37","THUNDER BAY A","6048262","2021-01-31 23:00","2021","01","31","23:00","-5.7","","-6.2","","96","","","","30","","4","","24.1","","100.10","","","","-8","","NA"
