"Longitude (x)","Latitude (y)","Station Name","Climate ID","Date/Time (LST)","Year","Month","Day","Time (LST)","Temp (°C)","Temp Flag","Dew Point Temp (°C)","Dew Point Temp Flag","Rel Hum (%)","Rel Hum Flag","Precip. Amount (mm)","Precip. Amount Flag","Wind Dir (10s deg)","Wind Dir Flag","Wind Spd (km/h)","Wind Spd Flag","Visibility (km)","Visibility Flag","Stn Press (kPa)","Stn Press Flag","Hmdx","Hmdx Flag","Wind Chill","Wind Chill Flag","Weather"
"-56.11","50.72","ENGLEE (AUT)","8401538","2018-10-01 00:30","2018","10","01","00:30","3.6","","1.7","","87","","","M","25","","3","","","","102.31","","","","","","NA"
"-56.11","50.72","ENGLEE (AUT)","8401538","2018-10-01 01:30","2018","10","01","01:30","2.9","","1.6","","91","","","M","30","","4","","","","102.26","","","","","","NA"
"-56.11","50.72","ENGLEE (AUT)","8401538","2018-10-01 02:30","2018","10","01","02:30","2.8","","1.9","","94","","","M","33","","4","","","","102.23","","","","","","NA"
"-56.11","50.72","ENGLEE (AUT)","8401538","2018-10-01 03:30","2018","10","01","03:30","3.1","","2.2","","94","","","M","28","","4","","","","102.21","","","","","","NA"
"-56.11","50.72","ENGLEE (AUT)","8401538","2018-10-01 04:30","2018","10","01","04:30","3.4","","2.6","","95","","","M","23","","2","","","","102.19","","","","","","NA"
"-56.11","50.72","ENGLEE (AUT)","8401538","2018-10-01 05:30","2018","10","01","05:30","3.2","","2.6","","96","","","M","11","","8","","","","102.14","","","","","","NA"
"-56.11","50.72","ENGLEE (AUT)","8401538","2018-10-01 06:30","2018","10","01","06:30","4.2","","3.7","","97","","","M","14","","12","","","","102.09","","","","","","NA"
"-56.11","50.72","ENGLEE (AUT)","8401538","2018-10-01 07:30","2018","10","01","07:30","4.9","","4.4","","96","","","M","14","","10","","","","102.05","","","","","","NA"
"-56.11","50.72","ENGLEE (AUT)","8401538","2018-10-01 08:30","2018","10","01","08:30","6.5","","5.4","","93","","","M","15","","14","","","","101.96","","","","","","NA"
"-56.11","50.72","ENGLEE (AUT)","8401538","2018-10-01 09:30","2018","10","01","09:30","7.0","","4.9","","86","","","M","15","","25","","","","101.88","","","","","","NA"
"-56.11","50.72","ENGLEE (AUT)","8401538","2018-10-01 10:30","2018","10","01","10:30","7.3","","4.7","","84","","","M","15","","24","","","","101.78","","","","","","NA"
"-56.11","50.72","ENGLEE (AUT)","8401538","2018-10-01 11:30","2018","10","01","11:30","6.7","","5.2","","90","","","M","15","","13","","","","101.69","","","","","","NA"
"-56.11","50.72","ENGLEE (AUT)","8401538","2018-10-01 12:30","2018","10","01","12:30","6.1","","5.5","","96","","","M","14","","16","","","","101.54","","","","","","NA"
"-56.11","50.72","ENGLEE (AUT)","8401538","2018-10-01 13:30","2018","10","01","13:30","7.0","","6.7","","98","","","M","13","","16","","","","101.37","","","","","","NA"
"-56.11","50.72","ENGLEE (AUT)","8401538","2018-10-01 14:30","2018","10","01","14:30","7.1","","6.8","","98","","","M","20","","9","","","","101.35","","","","","","NA"
"-56.11","50.72","ENGLEE (AUT)","8401538","2018-10-01 15:30","2018","10","01","15:30","7.2","","6.8","","97","","","M","32","","28","","","","101.37","","","","","","NA"
"-56.11","50.72","ENGLEE (AUT)","8401538","2018-10-01 16:30","2018","10","01","16:30","7.8","","6.2","","90","","","M","31","","29","","","","101.50","","","","","","NA"
"-56.11","50.72","ENGLEE (AUT)","8401538","2018-10-01 17:30","2018","10","01","17:30","6.2","","5.0","","92","","","M","29","","27","","","","101.56","","","","","","NA"
"-56.11","50.72","ENGLEE (AUT)","8401538","2018-10-01 18:30","2018","10","01","18:30","6.1","","4.9","","92","","","M","29","","26","","","","101.65","","","","","","NA"
"-56.11","50.72","ENGLEE (AUT)","8401538","2018-10-01 19:30","2018","10","01","19:30","6.0","","4.8","","92","","","M","29","","23","","","","101.68","","","","","","NA"
"-56.11","50.72","ENGLEE (AUT)","8401538","2018-10-01 20:30","2018","10","01","20:30","5.7","","4.6","","93","","","M","29","","13","","","","101.71","","","","","","NA"
"-56.11","50.72","ENGLEE (AUT)","8401538","2018-10-01 21:30","2018","10","01","21:30","6.3","","5.3","","93","","","M","26","","28","","","","101.70","","","","","","NA"
"-56.11","50.72","ENGLEE (AUT)","8401538","2018-10-01 22:30","2018","10","01","22:30","4.5","","3.3","","92","","","M","33","","17","","","","101.79","","","","","","NA"
"-56.11","50.72","ENGLEE (AUT)","8401538","2018-10-01 23:30","2018","10","01","23:30","4.7","","3.9","","94","","","M","30","","20","","","","101.81","","","","","","NA"
"-56.11","50.72","ENGLEE (AUT)","8401538","2018-10-02 00:30","2018","10","02","00:30","4.5","","2.7","","88","","","M","28","","24","","","","101.83","","","","","","NA"
"-56.11","50.72","ENGLEE (AUT)","8401538","2018-10-02 01:30","2018","10","02","01:30","3.7","","1.8","","87","","","M","30","","24","","","","101.89","","","","","","NA"
"-56.11","50.72","ENGLEE (AUT)","8401538","2018-10-02 02:30","2018","10","02","02:30","3.6","","1.8","","88","","","M","30","","28","","","","101.95","","","","","","NA"
"-56.11","50.72","ENGLEE (AUT)","8401538","2018-10-02 03:30","2018","10","02","03:30","3.2","","1.5","","88","","","M","31","","26","","","","101.99","","","","","","NA"
"-56.11","50.72","ENGLEE (AUT)","8401538","2018-10-02 04:30","2018","10","02","04:30","2.3","","0.8","","90","","","M","34","","14","","","","102.06","","","","","","NA"
"-56.11","50.72","ENGLEE (AUT)","8401538","2018-10-02 05:30","2018","10","02","05:30","2.4","","1.3","","93","","","M","32","","20","","","","102.10","","","","","","NA"
"-56.11","50.72","ENGLEE (AUT)","8401538","2018-10-02 06:30","2018","10","02","06:30","2.5","","1.2","","91","","","M","30","","25","","","","102.18","","","","","","NA"
"-56.11","50.72","ENGLEE (AUT)","8401538","2018-10-02 07:30","2018","10","02","07:30","3.0","","1.4","","89","","","M","29","","17","","","","102.24","","","","","","NA"
"-56.11","50.72","ENGLEE (AUT)","8401538","2018-10-02 08:30","2018","10","02","08:30","5.0","","1.8","","80","","","M","30","","29","","","","102.28","","","","","","NA"
"-56.11","50.72","ENGLEE (AUT)","8401538","2018-10-02 09:30","2018","10","02","09:30","6.5","","1.9","","73","","","M","29","","29","","","","102.31","","","","","","NA"
"-56.11","50.72","ENGLEE (AUT)","8401538","2018-10-02 10:30","2018","10","02","10:30","8.3","","2.3","","66","","","M","30","","27","","","","102.33","","","","","","NA"
"-56.11","50.72","ENGLEE (AUT)","8401538","2018-10-02 11:30","2018","10","02","11:30","9.1","","1.0","","57","","","M","30","","25","","","","102.33","","","","","","NA"
"-56.11","50.72","ENGLEE (AUT)","8401538","2018-10-02 12:30","2018","10","02","12:30","9.3","","1.3","","57","","","M","29","","29","","","","102.29","","","","","","NA"
"-56.11","50.72","ENGLEE (AUT)","8401538","2018-10-02 13:30","2018","10","02","13:30","8.8","","1.3","","60","","","M","29","","29","","","","102.31","","","","","","NA"
"-56.11","50.72","ENGLEE (AUT)","8401538","2018-10-02 14:30","2018","10","02","14:30","9.9","","-0.1","","50","","","M","29","","30","","","","102.32","","","","","","NA"
"-56.11","50.72","ENGLEE (AUT)","8401538","2018-10-02 15:30","2018","10","02","15:30","9.1","","0.0","","53","","","M","29","","34","","","","102.32","","","","","","NA"
"-56.11","50.72","ENGLEE (AUT)","8401538","2018-10-02 16:30","2018","10","02","16:30","8.6","","0.8","","58","","","M","30","","25","","","","102.37","","","","","","NA"
"-56.11","50.72","ENGLEE (AUT)","8401538","2018-10-02 17:30","2018","10","02","17:30","7.0","","0.1","","61","","","M","28","","21","","","","102.46","","","","","","NA"
"-56.11","50.72","ENGLEE (AUT)","8401538","2018-10-02 18:30","2018","10","02","18:30","4.7","","0.1","","72","","","M","26","","7","","","","102.53","","","","","","NA"
"-56.11","50.72","ENGLEE (AUT)","8401538","2018-10-02 19:30","2018","10","02","19:30","4.2","","1.0","","80","","","M","27","","13","","","","102.55","","","","","","NA"
"-56.11","50.72","ENGLEE (AUT)","8401538","2018-10-02 20:30","2018","10","02","20:30","3.9","","0.8","","80","","","M","27","","12","","","","102.58","","","","","","NA"
"-56.11","50.72","ENGLEE (AUT)","8401538","2018-10-02 21:30","2018","10","02","21:30","2.5","","0.2","","85","","","M","35","","10","","","","102.63","","","","","","NA"
"-56.11","50.72","ENGLEE (AUT)","8401538","2018-10-02 22:30","2018","10","02","22:30","3.6","","0.6","","81","","","M","27","","15","","","","102.63","","","","","","NA"
"-56.11","50.72","ENGLEE (AUT)","8401538","2018-10-02 23:30","2018","10","02","23:30","3.5","","1.2","","85","","","M","28","","11","","","","102.63","","","","","","NA"
"-56.11","50.72","ENGLEE (AUT)","8401538","2018-10-03 00:30","2018","10","03","00:30","2.3","","0.4","","87","","","M","31","","9","","","","102.61","","","","","","NA"
"-56.11","50.72","ENGLEE (AUT)","8401538","2018-10-03 01:30","2018","10","03","01:30","1.5","","-0.1","","89","","","M","33","","10","","","","102.61","","","","","","NA"
"-56.11","50.72","ENGLEE (AUT)","8401538","2018-10-03 02:30","2018","10","03","02:30","1.6","","0.4","","92","","","M","31","","8","","","","102.60","","","","","","NA"
"-56.11","50.72","ENGLEE (AUT)","8401538","2018-10-03 03:30","2018","10","03","03:30","1.2","","0.2","","94","","","M","32","","9","","","","102.62","","","","","","NA"
"-56.11","50.72","ENGLEE (AUT)","8401538","2018-10-03 04:30","2018","10","03","04:30","0.9","","0.0","","94","","","M","31","","7","","","","102.65","","","","","","NA"
"-56.11","50.72","ENGLEE (AUT)","8401538","2018-10-03 05:30","2018","10","03","05:30","0.4","","-0.3","","95","","","M","30","","6","","","","102.64","","","","","","NA"
"-56.11","50.72","ENGLEE (AUT)","8401538","2018-10-03 06:30","2018","10","03","06:30","0.7","","0.3","","97","","","M","32","","2","","","","102.65","","","","","","NA"
"-56.11","50.72","ENGLEE (AUT)","8401538","2018-10-03 07:30","2018","10","03","07:30","2.1","","1.7","","97","","","M","14","","3","","","","102.63","","","","","","NA"
"-56.11","50.72","ENGLEE (AUT)","8401538","2018-10-03 08:30","2018","10","03","08:30","4.4","","3.7","","95","","","M","10","","5","","","","102.65","","","","","","NA"
"-56.11","50.72","ENGLEE (AUT)","8401538","2018-10-03 09:30","2018","10","03","09:30","6.9","","4.4","","84","","","M","11","","6","","","","102.64","","","","","","NA"
"-56.11","50.72","ENGLEE (AUT)","8401538","2018-10-03 10:30","2018","10","03","10:30","9.6","","4.6","","71","","","M","12","","10","","","","102.57","","","","","","NA"
"-56.11","50.72","ENGLEE (AUT)","8401538","2018-10-03 11:30","2018","10","03","11:30","8.2","","3.7","","73","","","M","14","","15","","","","102.52","","","","","","NA"
"-56.11","50.72","ENGLEE (AUT)","8401538","2018-10-03 12:30","2018","10","03","12:30","8.0","","4.1","","77","","","M","14","","16","","","","102.45","","","","","","NA"
"-56.11","50.72","ENGLEE (AUT)","8401538","2018-10-03 13:30","2018","10","03","13:30","8.7","","5.1","","78","","","M","13","","11","","","","102.43","","","","","","NA"
"-56.11","50.72","ENGLEE (AUT)","8401538","2018-10-03 14:30","2018","10","03","14:30","8.2","","4.5","","77","","","M","14","","17","","","","102.38","","","","","","NA"
"-56.11","50.72","ENGLEE (AUT)","8401538","2018-10-03 15:30","2018","10","03","15:30","6.6","","4.1","","84","","","M","15","","21","","","","102.39","","","","","","NA"
"-56.11","50.72","ENGLEE (AUT)","8401538","2018-10-03 16:30","2018","10","03","16:30","6.7","","4.7","","87","","","M","14","","12","","","","102.42","","","","","","NA"
"-56.11","50.72","ENGLEE (AUT)","8401538","2018-10-03 17:30","2018","10","03","17:30","6.4","","4.7","","89","","","M","14","","13","","","","102.43","","","","","","NA"
"-56.11","50.72","ENGLEE (AUT)","8401538","2018-10-03 18:30","2018","10","03","18:30","6.6","","4.3","","85","","","M","17","","5","","","","102.43","","","","","","NA"
"-56.11","50.72","ENGLEE (AUT)","8401538","2018-10-03 19:30","2018","10","03","19:30","6.3","","4.7","","90","","","M","9","","6","","","","102.43","","","","","","NA"
"-56.11","50.72","ENGLEE (AUT)","8401538","2018-10-03 20:30","2018","10","03","20:30","6.7","","4.9","","88","","","M","23","","3","","","","102.41","","","","","","NA"
"-56.11","50.72","ENGLEE (AUT)","8401538","2018-10-03 21:30","2018","10","03","21:30","6.6","","4.7","","88","","","M","9","","7","","","","102.40","","","","","","NA"
"-56.11","50.72","ENGLEE (AUT)","8401538","2018-10-03 22:30","2018","10","03","22:30","6.5","","5.1","","91","","","M","13","","12","","","","102.33","","","","","","NA"
"-56.11","50.72","ENGLEE (AUT)","8401538","2018-10-03 23:30","2018","10","03","23:30","6.4","","5.3","","92","","","M","13","","11","","","","102.35","","","","","","NA"
"-56.11","50.72","ENGLEE (AUT)","8401538","2018-10-04 00:30","2018","10","04","00:30","6.5","","5.4","","93","","","M","11","","12","","","","102.29","","","","","","NA"
"-56.11","50.72","ENGLEE (AUT)","8401538","2018-10-04 01:30","2018","10","04","01:30","6.7","","5.9","","95","","","M","13","","13","","","","102.25","","","","","","NA"
"-56.11","50.72","ENGLEE (AUT)","8401538","2018-10-04 02:30","2018","10","04","02:30","6.5","","6.0","","97","","","M","15","","17","","","","102.17","","","","","","NA"
"-56.11","50.72","ENGLEE (AUT)","8401538","2018-10-04 03:30","2018","10","04","03:30","6.5","","6.2","","98","","","M","13","","12","","","","102.12","","","","","","NA"
"-56.11","50.72","ENGLEE (AUT)","8401538","2018-10-04 04:30","2018","10","04","04:30","6.7","","6.3","","97","","","M","15","","20","","","","102.07","","","","","","NA"
"-56.11","50.72","ENGLEE (AUT)","8401538","2018-10-04 05:30","2018","10","04","05:30","6.8","","6.3","","97","","","M","14","","14","","","","102.03","","","","","","NA"
"-56.11","50.72","ENGLEE (AUT)","8401538","2018-10-04 06:30","2018","10","04","06:30","6.7","","6.5","","98","","","M","14","","16","","","","102.00","","","","","","NA"
"-56.11","50.72","ENGLEE (AUT)","8401538","2018-10-04 07:30","2018","10","04","07:30","6.8","","6.7","","100","","","M","15","","20","","","","101.97","","","","","","NA"
"-56.11","50.72","ENGLEE (AUT)","8401538","2018-10-04 08:30","2018","10","04","08:30","7.0","","7.0","","100","","","M","14","","20","","","","101.88","","","","","","NA"
"-56.11","50.72","ENGLEE (AUT)","8401538","2018-10-04 09:30","2018","10","04","09:30","7.0","","7.0","","100","","","M","14","","23","","","","101.75","","","","","","NA"
"-56.11","50.72","ENGLEE (AUT)","8401538","2018-10-04 10:30","2018","10","04","10:30","7.1","","7.1","","100","","","M","13","","14","","","","101.66","","","","","","NA"
"-56.11","50.72","ENGLEE (AUT)","8401538","2018-10-04 11:30","2018","10","04","11:30","7.6","","7.6","","100","","","M","14","","22","","","","101.51","","","","","","NA"
"-56.11","50.72","ENGLEE (AUT)","8401538","2018-10-04 12:30","2018","10","04","12:30","9.4","","9.4","","100","","","M","12","","21","","","","101.40","","","","","","NA"
"-56.11","50.72","ENGLEE (AUT)","8401538","2018-10-04 13:30","2018","10","04","13:30","11.4","","10.7","","96","","","M","11","","23","","","","101.22","","","","","","NA"
"-56.11","50.72","ENGLEE (AUT)","8401538","2018-10-04 14:30","2018","10","04","14:30","12.2","","9.8","","85","","","M","12","","23","","","","101.02","","","","","","NA"
"-56.11","50.72","ENGLEE (AUT)","8401538","2018-10-04 15:30","2018","10","04","15:30","11.2","","8.5","","84","","","M","16","","31","","","","100.87","","","","","","NA"
"-56.11","50.72","ENGLEE (AUT)","8401538","2018-10-04 16:30","2018","10","04","16:30","12.1","","7.8","","75","","","M","17","","36","","","","100.81","","","","","","NA"
"-56.11","50.72","ENGLEE (AUT)","8401538","2018-10-04 17:30","2018","10","04","17:30","12.3","","6.8","","70","","","M","18","","42","","","","100.67","","","","","","NA"
"-56.11","50.72","ENGLEE (AUT)","8401538","2018-10-04 18:30","2018","10","04","18:30","12.8","","8.2","","73","","","M","19","","52","","","","100.53","","","","","","NA"
"-56.11","50.72","ENGLEE (AUT)","8401538","2018-10-04 19:30","2018","10","04","19:30","11.9","","8.9","","82","","","M","19","","56","","","","100.40","","","","","","NA"
"-56.11","50.72","ENGLEE (AUT)","8401538","2018-10-04 20:30","2018","10","04","20:30","11.3","","9.3","","87","","","M","19","","50","","","","100.35","","","","","","NA"
"-56.11","50.72","ENGLEE (AUT)","8401538","2018-10-04 21:30","2018","10","04","21:30","11.6","","10.3","","92","","","M","19","","50","","","","100.23","","","","","","NA"
"-56.11","50.72","ENGLEE (AUT)","8401538","2018-10-04 22:30","2018","10","04","22:30","11.9","","10.6","","92","","","M","19","","50","","","","100.18","","","","","","NA"
"-56.11","50.72","ENGLEE (AUT)","8401538","2018-10-04 23:30","2018","10","04","23:30","12.2","","10.8","","91","","","M","19","","37","","","","100.03","","","","","","NA"
"-56.11","50.72","ENGLEE (AUT)","8401538","2018-10-05 00:30","2018","10","05","00:30","12.8","","11.5","","92","","","M","18","","40","","","","99.89","","","","","","NA"
"-56.11","50.72","ENGLEE (AUT)","8401538","2018-10-05 01:30","2018","10","05","01:30","13.0","","11.8","","92","","","M","20","","34","","","","99.86","","","","","","NA"
"-56.11","50.72","ENGLEE (AUT)","8401538","2018-10-05 02:30","2018","10","05","02:30","13.6","","12.8","","95","","","M","25","","39","","","","99.86","","","","","","NA"
"-56.11","50.72","ENGLEE (AUT)","8401538","2018-10-05 03:30","2018","10","05","03:30","13.4","","11.8","","90","","","M","25","","39","","","","99.90","","","","","","NA"
"-56.11","50.72","ENGLEE (AUT)","8401538","2018-10-05 04:30","2018","10","05","04:30","12.8","","10.3","","85","","","M","26","","40","","","","99.95","","","","","","NA"
"-56.11","50.72","ENGLEE (AUT)","8401538","2018-10-05 05:30","2018","10","05","05:30","8.9","","7.3","","90","","","M","31","","35","","","","100.23","","","","","","NA"
"-56.11","50.72","ENGLEE (AUT)","8401538","2018-10-05 06:30","2018","10","05","06:30","7.7","","5.8","","88","","","M","30","","37","","","","100.33","","","","","","NA"
"-56.11","50.72","ENGLEE (AUT)","8401538","2018-10-05 07:30","2018","10","05","07:30","6.4","","2.6","","77","","","M","31","","31","","","","100.58","","","","","","NA"
"-56.11","50.72","ENGLEE (AUT)","8401538","2018-10-05 08:30","2018","10","05","08:30","7.3","","3.0","","74","","","M","30","","29","","","","100.65","","","","","","NA"
"-56.11","50.72","ENGLEE (AUT)","8401538","2018-10-05 09:30","2018","10","05","09:30","7.7","","1.3","","64","","","M","29","","48","","","","100.76","","","","","","NA"
"-56.11","50.72","ENGLEE (AUT)","8401538","2018-10-05 10:30","2018","10","05","10:30","8.0","","0.3","","58","","","M","30","","46","","","","100.81","","","","","","NA"
"-56.11","50.72","ENGLEE (AUT)","8401538","2018-10-05 11:30","2018","10","05","11:30","8.0","","0.2","","58","","","M","29","","52","","","","100.82","","","","","","NA"
"-56.11","50.72","ENGLEE (AUT)","8401538","2018-10-05 12:30","2018","10","05","12:30","8.1","","-0.6","","55","","","M","30","","54","","","","100.83","","","","","","NA"
"-56.11","50.72","ENGLEE (AUT)","8401538","2018-10-05 13:30","2018","10","05","13:30","8.4","","-0.9","","52","","","M","29","","48","","","","100.82","","","","","","NA"
"-56.11","50.72","ENGLEE (AUT)","8401538","2018-10-05 14:30","2018","10","05","14:30","9.1","","-1.4","","48","","","M","29","","45","","","","100.86","","","","","","NA"
"-56.11","50.72","ENGLEE (AUT)","8401538","2018-10-05 15:30","2018","10","05","15:30","8.3","","-2.3","","47","","","M","27","","36","","","","100.91","","","","","","NA"
"-56.11","50.72","ENGLEE (AUT)","8401538","2018-10-05 16:30","2018","10","05","16:30","8.1","","-0.4","","55","","","M","26","","35","","","","100.95","","","","","","NA"
"-56.11","50.72","ENGLEE (AUT)","8401538","2018-10-05 17:30","2018","10","05","17:30","6.2","","-0.1","","64","","","M","25","","28","","","","101.08","","","","","","NA"
"-56.11","50.72","ENGLEE (AUT)","8401538","2018-10-05 18:30","2018","10","05","18:30","5.6","","0.9","","72","","","M","24","","28","","","","101.15","","","","","","NA"
"-56.11","50.72","ENGLEE (AUT)","8401538","2018-10-05 19:30","2018","10","05","19:30","5.7","","0.9","","71","","","M","26","","31","","","","101.16","","","","","","NA"
"-56.11","50.72","ENGLEE (AUT)","8401538","2018-10-05 20:30","2018","10","05","20:30","5.4","","0.6","","71","","","M","27","","33","","","","101.16","","","","","","NA"
"-56.11","50.72","ENGLEE (AUT)","8401538","2018-10-05 21:30","2018","10","05","21:30","5.4","","0.5","","71","","","M","28","","43","","","","101.14","","","","","","NA"
"-56.11","50.72","ENGLEE (AUT)","8401538","2018-10-05 22:30","2018","10","05","22:30","6.0","","1.7","","74","","","M","29","","45","","","","101.12","","","","","","NA"
"-56.11","50.72","ENGLEE (AUT)","8401538","2018-10-05 23:30","2018","10","05","23:30","6.0","","1.7","","74","","","M","30","","39","","","","101.12","","","","","","NA"
"-56.11","50.72","ENGLEE (AUT)","8401538","2018-10-06 00:30","2018","10","06","00:30","5.9","","1.7","","75","","","M","30","","38","","","","101.13","","","","","","NA"
"-56.11","50.72","ENGLEE (AUT)","8401538","2018-10-06 01:30","2018","10","06","01:30","5.5","","0.8","","72","","","M","31","","24","","","","101.16","","","","","","NA"
"-56.11","50.72","ENGLEE (AUT)","8401538","2018-10-06 02:30","2018","10","06","02:30","5.2","","-0.4","","67","","","M","31","","22","","","","101.22","","","","","","NA"
"-56.11","50.72","ENGLEE (AUT)","8401538","2018-10-06 03:30","2018","10","06","03:30","5.0","","-1.0","","65","","","M","30","","19","","","","101.24","","","","","","NA"
"-56.11","50.72","ENGLEE (AUT)","8401538","2018-10-06 04:30","2018","10","06","04:30","4.1","","-1.3","","68","","","M","33","","16","","","","101.19","","","","","","NA"
"-56.11","50.72","ENGLEE (AUT)","8401538","2018-10-06 05:30","2018","10","06","05:30","3.5","","-1.0","","72","","","M","30","","21","","","","101.25","","","","","","NA"
"-56.11","50.72","ENGLEE (AUT)","8401538","2018-10-06 06:30","2018","10","06","06:30","3.4","","-1.7","","69","","","M","28","","19","","","","101.30","","","","","","NA"
"-56.11","50.72","ENGLEE (AUT)","8401538","2018-10-06 07:30","2018","10","06","07:30","3.5","","-1.9","","68","","","M","30","","24","","","","101.28","","","","","","NA"
"-56.11","50.72","ENGLEE (AUT)","8401538","2018-10-06 08:30","2018","10","06","08:30","3.7","","-2.1","","66","","","M","30","","34","","","","101.31","","","","","","NA"
"-56.11","50.72","ENGLEE (AUT)","8401538","2018-10-06 09:30","2018","10","06","09:30","5.7","","-2.9","","54","","","M","31","","49","","","","101.22","","","","","","NA"
"-56.11","50.72","ENGLEE (AUT)","8401538","2018-10-06 10:30","2018","10","06","10:30","6.8","","-2.0","","53","","","M","30","","33","","","","101.23","","","","","","NA"
"-56.11","50.72","ENGLEE (AUT)","8401538","2018-10-06 11:30","2018","10","06","11:30","7.6","","-1.3","","53","","","M","29","","33","","","","101.20","","","","","","NA"
"-56.11","50.72","ENGLEE (AUT)","8401538","2018-10-06 12:30","2018","10","06","12:30","7.6","","-1.9","","51","","","M","29","","34","","","","101.15","","","","","","NA"
"-56.11","50.72","ENGLEE (AUT)","8401538","2018-10-06 13:30","2018","10","06","13:30","7.2","","-2.4","","50","","","M","28","","47","","","","101.12","","","","","","NA"
"-56.11","50.72","ENGLEE (AUT)","8401538","2018-10-06 14:30","2018","10","06","14:30","8.1","","-1.8","","49","","","M","30","","43","","","","101.10","","","","","","NA"
"-56.11","50.72","ENGLEE (AUT)","8401538","2018-10-06 15:30","2018","10","06","15:30","7.1","","-1.5","","55","","","M","29","","44","","","","101.18","","","","","","NA"
"-56.11","50.72","ENGLEE (AUT)","8401538","2018-10-06 16:30","2018","10","06","16:30","7.0","","-0.4","","59","","","M","29","","40","","","","101.22","","","","","","NA"
"-56.11","50.72","ENGLEE (AUT)","8401538","2018-10-06 17:30","2018","10","06","17:30","5.6","","-0.5","","65","","","M","29","","34","","","","101.33","","","","","","NA"
"-56.11","50.72","ENGLEE (AUT)","8401538","2018-10-06 18:30","2018","10","06","18:30","5.1","","-0.3","","68","","","M","28","","37","","","","101.34","","","","","","NA"
"-56.11","50.72","ENGLEE (AUT)","8401538","2018-10-06 19:30","2018","10","06","19:30","4.7","","0.2","","73","","","M","27","","35","","","","101.33","","","","","","NA"
"-56.11","50.72","ENGLEE (AUT)","8401538","2018-10-06 20:30","2018","10","06","20:30","4.2","","0.5","","77","","","M","24","","23","","","","101.41","","","","","","NA"
"-56.11","50.72","ENGLEE (AUT)","8401538","2018-10-06 21:30","2018","10","06","21:30","4.2","","1.0","","80","","","M","25","","20","","","","101.41","","","","","","NA"
"-56.11","50.72","ENGLEE (AUT)","8401538","2018-10-06 22:30","2018","10","06","22:30","4.2","","1.3","","81","","","M","24","","28","","","","101.37","","","","","","NA"
"-56.11","50.72","ENGLEE (AUT)","8401538","2018-10-06 23:30","2018","10","06","23:30","3.7","","1.4","","85","","","M","24","","22","","","","101.33","","","","","","NA"
"-56.11","50.72","ENGLEE (AUT)","8401538","2018-10-07 00:30","2018","10","07","00:30","4.1","","2.2","","87","","","M","27","","13","","","","101.32","","","","","","NA"
"-56.11","50.72","ENGLEE (AUT)","8401538","2018-10-07 01:30","2018","10","07","01:30","4.6","","2.3","","85","","","M","27","","26","","","","101.29","","","","","","NA"
"-56.11","50.72","ENGLEE (AUT)","8401538","2018-10-07 02:30","2018","10","07","02:30","4.8","","2.6","","86","","","M","27","","17","","","","101.29","","","","","","NA"
"-56.11","50.72","ENGLEE (AUT)","8401538","2018-10-07 03:30","2018","10","07","03:30","5.0","","2.3","","82","","","M","26","","21","","","","101.25","","","","","","NA"
"-56.11","50.72","ENGLEE (AUT)","8401538","2018-10-07 04:30","2018","10","07","04:30","4.9","","2.2","","83","","","M","27","","19","","","","101.27","","","","","","NA"
"-56.11","50.72","ENGLEE (AUT)","8401538","2018-10-07 05:30","2018","10","07","05:30","4.3","","1.0","","79","","","M","30","","21","","","","101.30","","","","","","NA"
"-56.11","50.72","ENGLEE (AUT)","8401538","2018-10-07 06:30","2018","10","07","06:30","3.7","","2.0","","89","","","M","26","","19","","","","101.29","","","","","","NA"
"-56.11","50.72","ENGLEE (AUT)","8401538","2018-10-07 07:30","2018","10","07","07:30","3.1","","1.0","","86","","","M","36","","5","","","","101.33","","","","","","NA"
"-56.11","50.72","ENGLEE (AUT)","8401538","2018-10-07 08:30","2018","10","07","08:30","3.9","","1.6","","85","","","M","34","","7","","","","101.34","","","","","","NA"
"-56.11","50.72","ENGLEE (AUT)","8401538","2018-10-07 09:30","2018","10","07","09:30","5.2","","2.0","","80","","","M","33","","7","","","","101.35","","","","","","NA"
"-56.11","50.72","ENGLEE (AUT)","8401538","2018-10-07 10:30","2018","10","07","10:30","7.7","","2.6","","70","","","M","32","","11","","","","101.32","","","","","","NA"
"-56.11","50.72","ENGLEE (AUT)","8401538","2018-10-07 11:30","2018","10","07","11:30","7.2","","2.6","","73","","","M","31","","24","","","","101.32","","","","","","NA"
"-56.11","50.72","ENGLEE (AUT)","8401538","2018-10-07 12:30","2018","10","07","12:30","8.1","","3.1","","71","","","M","30","","24","","","","101.30","","","","","","NA"
"-56.11","50.72","ENGLEE (AUT)","8401538","2018-10-07 13:30","2018","10","07","13:30","6.2","","1.0","","69","","","M","30","","32","","","","101.33","","","","","","NA"
"-56.11","50.72","ENGLEE (AUT)","8401538","2018-10-07 14:30","2018","10","07","14:30","5.7","","0.8","","70","","","M","30","","33","","","","101.36","","","","","","NA"
"-56.11","50.72","ENGLEE (AUT)","8401538","2018-10-07 15:30","2018","10","07","15:30","5.9","","0.6","","69","","","M","31","","30","","","","101.43","","","","","","NA"
"-56.11","50.72","ENGLEE (AUT)","8401538","2018-10-07 16:30","2018","10","07","16:30","5.4","","0.3","","70","","","M","31","","28","","","","101.51","","","","","","NA"
"-56.11","50.72","ENGLEE (AUT)","8401538","2018-10-07 17:30","2018","10","07","17:30","5.1","","0.7","","73","","","M","31","","22","","","","101.58","","","","","","NA"
"-56.11","50.72","ENGLEE (AUT)","8401538","2018-10-07 18:30","2018","10","07","18:30","4.9","","0.7","","74","","","M","30","","18","","","","101.64","","","","","","NA"
"-56.11","50.72","ENGLEE (AUT)","8401538","2018-10-07 19:30","2018","10","07","19:30","4.8","","-0.5","","69","","","M","32","","21","","","","101.71","","","","","","NA"
"-56.11","50.72","ENGLEE (AUT)","8401538","2018-10-07 20:30","2018","10","07","20:30","4.3","","-1.3","","67","","","M","32","","17","","","","101.77","","","","","","NA"
"-56.11","50.72","ENGLEE (AUT)","8401538","2018-10-07 21:30","2018","10","07","21:30","3.3","","-1.4","","71","","","M","32","","12","","","","101.80","","","","","","NA"
"-56.11","50.72","ENGLEE (AUT)","8401538","2018-10-07 22:30","2018","10","07","22:30","2.7","","-1.7","","73","","","M","30","","21","","","","101.85","","","","","","NA"
"-56.11","50.72","ENGLEE (AUT)","8401538","2018-10-07 23:30","2018","10","07","23:30","3.0","","-1.9","","70","","","M","30","","22","","","","101.87","","","","","","NA"
"-56.11","50.72","ENGLEE (AUT)","8401538","2018-10-08 00:30","2018","10","08","00:30","2.5","","-2.0","","72","","","M","31","","23","","","","101.90","","","","","","NA"
"-56.11","50.72","ENGLEE (AUT)","8401538","2018-10-08 01:30","2018","10","08","01:30","1.9","","-2.1","","75","","","M","30","","22","","","","101.93","","","","","","NA"
"-56.11","50.72","ENGLEE (AUT)","8401538","2018-10-08 02:30","2018","10","08","02:30","1.6","","-2.6","","73","","","M","30","","24","","","","101.94","","","","","","NA"
"-56.11","50.72","ENGLEE (AUT)","8401538","2018-10-08 03:30","2018","10","08","03:30","1.3","","-2.9","","74","","","M","29","","22","","","","101.97","","","","","","NA"
"-56.11","50.72","ENGLEE (AUT)","8401538","2018-10-08 04:30","2018","10","08","04:30","1.3","","-3.1","","72","","","M","30","","23","","","","101.99","","","","","","NA"
"-56.11","50.72","ENGLEE (AUT)","8401538","2018-10-08 05:30","2018","10","08","05:30","1.3","","-3.1","","73","","","M","30","","24","","","","102.00","","","","","","NA"
"-56.11","50.72","ENGLEE (AUT)","8401538","2018-10-08 06:30","2018","10","08","06:30","1.3","","-2.6","","75","","","M","30","","24","","","","102.04","","","","","","NA"
"-56.11","50.72","ENGLEE (AUT)","8401538","2018-10-08 07:30","2018","10","08","07:30","2.2","","-1.7","","76","","","M","30","","25","","","","102.10","","","","","","NA"
"-56.11","50.72","ENGLEE (AUT)","8401538","2018-10-08 08:30","2018","10","08","08:30","3.8","","-1.4","","69","","","M","30","","26","","","","102.12","","","","","","NA"
"-56.11","50.72","ENGLEE (AUT)","8401538","2018-10-08 09:30","2018","10","08","09:30","5.5","","-2.5","","56","","","M","30","","32","","","","102.09","","","","","","NA"
"-56.11","50.72","ENGLEE (AUT)","8401538","2018-10-08 10:30","2018","10","08","10:30","6.6","","-2.6","","52","","","M","30","","41","","","","102.04","","","","","","NA"
"-56.11","50.72","ENGLEE (AUT)","8401538","2018-10-08 11:30","2018","10","08","11:30","7.3","","-2.0","","52","","","M","30","","39","","","","101.99","","","","","","NA"
"-56.11","50.72","ENGLEE (AUT)","8401538","2018-10-08 12:30","2018","10","08","12:30","8.0","","-1.9","","49","","","M","30","","42","","","","101.98","","","","","","NA"
"-56.11","50.72","ENGLEE (AUT)","8401538","2018-10-08 13:30","2018","10","08","13:30","7.3","","-3.1","","48","","","M","29","","48","","","","101.91","","","","","","NA"
"-56.11","50.72","ENGLEE (AUT)","8401538","2018-10-08 14:30","2018","10","08","14:30","7.5","","-2.7","","48","","","M","29","","47","","","","101.91","","","","","","NA"
"-56.11","50.72","ENGLEE (AUT)","8401538","2018-10-08 15:30","2018","10","08","15:30","6.9","","-2.2","","52","","","M","28","","52","","","","101.91","","","","","","NA"
"-56.11","50.72","ENGLEE (AUT)","8401538","2018-10-08 16:30","2018","10","08","16:30","6.2","","-1.8","","56","","","M","28","","47","","","","101.96","","","","","","NA"
"-56.11","50.72","ENGLEE (AUT)","8401538","2018-10-08 17:30","2018","10","08","17:30","5.3","","-1.2","","63","","","M","28","","53","","","","101.99","","","","","","NA"
"-56.11","50.72","ENGLEE (AUT)","8401538","2018-10-08 18:30","2018","10","08","18:30","5.0","","-0.3","","69","","","M","27","","44","","","","102.04","","","","","","NA"
"-56.11","50.72","ENGLEE (AUT)","8401538","2018-10-08 19:30","2018","10","08","19:30","4.9","","0.3","","72","","","M","27","","28","","","","102.12","","","","","","NA"
"-56.11","50.72","ENGLEE (AUT)","8401538","2018-10-08 20:30","2018","10","08","20:30","4.9","","0.0","","71","","","M","29","","28","","","","102.10","","","","","","NA"
"-56.11","50.72","ENGLEE (AUT)","8401538","2018-10-08 21:30","2018","10","08","21:30","4.2","","-1.2","","68","","","M","31","","22","","","","102.10","","","","","","NA"
"-56.11","50.72","ENGLEE (AUT)","8401538","2018-10-08 22:30","2018","10","08","22:30","3.8","","-1.5","","69","","","M","30","","21","","","","102.12","","","","","","NA"
"-56.11","50.72","ENGLEE (AUT)","8401538","2018-10-08 23:30","2018","10","08","23:30","3.7","","-1.8","","67","","","M","30","","22","","","","102.09","","","","","","NA"
"-56.11","50.72","ENGLEE (AUT)","8401538","2018-10-09 00:30","2018","10","09","00:30","3.6","","-1.2","","70","","","M","29","","23","","","","102.07","","","","","","NA"
"-56.11","50.72","ENGLEE (AUT)","8401538","2018-10-09 01:30","2018","10","09","01:30","3.8","","-1.9","","66","","","M","28","","28","","","","102.04","","","","","","NA"
"-56.11","50.72","ENGLEE (AUT)","8401538","2018-10-09 02:30","2018","10","09","02:30","3.7","","-1.3","","70","","","M","27","","25","","","","101.99","","","","","","NA"
"-56.11","50.72","ENGLEE (AUT)","8401538","2018-10-09 03:30","2018","10","09","03:30","4.1","","-1.2","","68","","","M","28","","29","","","","101.97","","","","","","NA"
"-56.11","50.72","ENGLEE (AUT)","8401538","2018-10-09 04:30","2018","10","09","04:30","4.0","","-1.3","","68","","","M","26","","28","","","","101.99","","","","","","NA"
"-56.11","50.72","ENGLEE (AUT)","8401538","2018-10-09 05:30","2018","10","09","05:30","3.8","","-0.7","","72","","","M","25","","24","","","","101.97","","","","","","NA"
"-56.11","50.72","ENGLEE (AUT)","8401538","2018-10-09 06:30","2018","10","09","06:30","3.7","","-0.4","","74","","","M","23","","20","","","","101.93","","","","","","NA"
"-56.11","50.72","ENGLEE (AUT)","8401538","2018-10-09 07:30","2018","10","09","07:30","3.7","","-0.4","","75","","","M","24","","22","","","","101.88","","","","","","NA"
"-56.11","50.72","ENGLEE (AUT)","8401538","2018-10-09 08:30","2018","10","09","08:30","4.6","","-0.3","","70","","","M","25","","20","","","","101.80","","","","","","NA"
"-56.11","50.72","ENGLEE (AUT)","8401538","2018-10-09 09:30","2018","10","09","09:30","5.6","","1.1","","73","","","M","29","","40","","","","101.79","","","","","","NA"
"-56.11","50.72","ENGLEE (AUT)","8401538","2018-10-09 10:30","2018","10","09","10:30","5.4","","1.0","","73","","","M","29","","33","","","","101.70","","","","","","NA"
"-56.11","50.72","ENGLEE (AUT)","8401538","2018-10-09 11:30","2018","10","09","11:30","5.3","","1.3","","76","","","M","29","","26","","","","101.65","","","","","","NA"
"-56.11","50.72","ENGLEE (AUT)","8401538","2018-10-09 12:30","2018","10","09","12:30","4.8","","0.9","","76","","","M","29","","25","","","","101.54","","","","","","NA"
"-56.11","50.72","ENGLEE (AUT)","8401538","2018-10-09 13:30","2018","10","09","13:30","3.8","","2.2","","90","","","M","25","","14","","","","101.46","","","","","","NA"
"-56.11","50.72","ENGLEE (AUT)","8401538","2018-10-09 14:30","2018","10","09","14:30","3.5","","2.8","","95","","","M","23","","7","","","","101.40","","","","","","NA"
"-56.11","50.72","ENGLEE (AUT)","8401538","2018-10-09 15:30","2018","10","09","15:30","3.3","","2.8","","97","","","M","20","","9","","","","101.33","","","","","","NA"
"-56.11","50.72","ENGLEE (AUT)","8401538","2018-10-09 16:30","2018","10","09","16:30","3.2","","3.0","","98","","","M","21","","8","","","","101.25","","","","","","NA"
"-56.11","50.72","ENGLEE (AUT)","8401538","2018-10-09 17:30","2018","10","09","17:30","3.0","","2.6","","98","","","M","18","","3","","","","101.21","","","","","","NA"
"-56.11","50.72","ENGLEE (AUT)","8401538","2018-10-09 18:30","2018","10","09","18:30","2.9","","2.7","","98","","","M","20","","3","","","","101.14","","","","","","NA"
"-56.11","50.72","ENGLEE (AUT)","8401538","2018-10-09 19:30","2018","10","09","19:30","3.0","","2.7","","98","","","M","21","","7","","","","101.03","","","","","","NA"
"-56.11","50.72","ENGLEE (AUT)","8401538","2018-10-09 20:30","2018","10","09","20:30","3.0","","2.8","","98","","","M","20","","8","","","","100.98","","","","","","NA"
"-56.11","50.72","ENGLEE (AUT)","8401538","2018-10-09 21:30","2018","10","09","21:30","3.0","","2.7","","98","","","M","20","","6","","","","100.90","","","","","","NA"
"-56.11","50.72","ENGLEE (AUT)","8401538","2018-10-09 22:30","2018","10","09","22:30","3.1","","2.8","","98","","","M","26","","8","","","","100.83","","","","","","NA"
"-56.11","50.72","ENGLEE (AUT)","8401538","2018-10-09 23:30","2018","10","09","23:30","3.0","","2.8","","99","","","M","27","","4","","","","100.75","","","","","","NA"
"-56.11","50.72","ENGLEE (AUT)","8401538","2018-10-10 00:30","2018","10","10","00:30","3.0","","2.8","","99","","","M","31","","9","","","","100.65","","","","","","NA"
"-56.11","50.72","ENGLEE (AUT)","8401538","2018-10-10 01:30","2018","10","10","01:30","2.9","","2.8","","100","","","M","31","","5","","","","100.61","","","","","","NA"
"-56.11","50.72","ENGLEE (AUT)","8401538","2018-10-10 02:30","2018","10","10","02:30","2.7","","2.7","","100","","","M","32","","6","","","","100.56","","","","","","NA"
"-56.11","50.72","ENGLEE (AUT)","8401538","2018-10-10 03:30","2018","10","10","03:30","2.9","","2.9","","100","","","M","","","0","","","","100.50","","","","","","NA"
"-56.11","50.72","ENGLEE (AUT)","8401538","2018-10-10 04:30","2018","10","10","04:30","3.5","","3.4","","99","","","M","29","","12","","","","100.45","","","","","","NA"
"-56.11","50.72","ENGLEE (AUT)","8401538","2018-10-10 05:30","2018","10","10","05:30","3.5","","3.4","","99","","","M","30","","12","","","","100.37","","","","","","NA"
"-56.11","50.72","ENGLEE (AUT)","8401538","2018-10-10 06:30","2018","10","10","06:30","3.6","","3.3","","98","","","M","30","","16","","","","100.32","","","","","","NA"
"-56.11","50.72","ENGLEE (AUT)","8401538","2018-10-10 07:30","2018","10","10","07:30","3.7","","2.9","","95","","","M","31","","24","","","","100.30","","","","","","NA"
"-56.11","50.72","ENGLEE (AUT)","8401538","2018-10-10 08:30","2018","10","10","08:30","4.2","","2.8","","91","","","M","31","","24","","","","100.30","","","","","","NA"
"-56.11","50.72","ENGLEE (AUT)","8401538","2018-10-10 09:30","2018","10","10","09:30","5.1","","3.1","","87","","","M","31","","42","","","","100.23","","","","","","NA"
"-56.11","50.72","ENGLEE (AUT)","8401538","2018-10-10 10:30","2018","10","10","10:30","6.6","","3.0","","78","","","M","31","","38","","","","100.22","","","","","","NA"
"-56.11","50.72","ENGLEE (AUT)","8401538","2018-10-10 11:30","2018","10","10","11:30","7.8","","2.5","","69","","","M","31","","40","","","","100.18","","","","","","NA"
"-56.11","50.72","ENGLEE (AUT)","8401538","2018-10-10 12:30","2018","10","10","12:30","8.6","","3.3","","69","","","M","31","","29","","","","100.18","","","","","","NA"
"-56.11","50.72","ENGLEE (AUT)","8401538","2018-10-10 13:30","2018","10","10","13:30","6.2","","0.8","","69","","","M","31","","52","","","","100.21","","","","","","NA"
"-56.11","50.72","ENGLEE (AUT)","8401538","2018-10-10 14:30","2018","10","10","14:30","7.2","","-0.7","","57","","","M","31","","48","","","","100.24","","","","","","NA"
"-56.11","50.72","ENGLEE (AUT)","8401538","2018-10-10 15:30","2018","10","10","15:30","5.4","","-2.9","","55","","","M","32","","41","","","","100.32","","","","","","NA"
"-56.11","50.72","ENGLEE (AUT)","8401538","2018-10-10 16:30","2018","10","10","16:30","5.5","","-2.9","","55","","","M","32","","38","","","","100.40","","","","","","NA"
"-56.11","50.72","ENGLEE (AUT)","8401538","2018-10-10 17:30","2018","10","10","17:30","3.3","","-3.6","","61","","","M","33","","34","","","","100.54","","","","","","NA"
"-56.11","50.72","ENGLEE (AUT)","8401538","2018-10-10 18:30","2018","10","10","18:30","2.2","","-3.0","","68","","","M","33","","30","","","","100.62","","","","","","NA"
"-56.11","50.72","ENGLEE (AUT)","8401538","2018-10-10 19:30","2018","10","10","19:30","1.7","","-3.3","","70","","","M","33","","21","","","","100.74","","","","","","NA"
"-56.11","50.72","ENGLEE (AUT)","8401538","2018-10-10 20:30","2018","10","10","20:30","1.2","","-3.5","","71","","","M","33","","29","","","","100.78","","","","","","NA"
"-56.11","50.72","ENGLEE (AUT)","8401538","2018-10-10 21:30","2018","10","10","21:30","0.7","","-4.3","","70","","","M","33","","29","","","","100.84","","","","","","NA"
"-56.11","50.72","ENGLEE (AUT)","8401538","2018-10-10 22:30","2018","10","10","22:30","0.9","","-3.4","","73","","","M","31","","33","","","","100.85","","","","","","NA"
"-56.11","50.72","ENGLEE (AUT)","8401538","2018-10-10 23:30","2018","10","10","23:30","0.8","","-3.7","","72","","","M","32","","31","","","","100.88","","","","","","NA"
"-56.11","50.72","ENGLEE (AUT)","8401538","2018-10-11 00:30","2018","10","11","00:30","0.6","","-3.9","","72","","","M","31","","33","","","","100.92","","","","","","NA"
"-56.11","50.72","ENGLEE (AUT)","8401538","2018-10-11 01:30","2018","10","11","01:30","0.4","","-4.2","","71","","","M","31","","31","","","","100.95","","","","","","NA"
"-56.11","50.72","ENGLEE (AUT)","8401538","2018-10-11 02:30","2018","10","11","02:30","0.2","","-4.7","","70","","","M","32","","32","","","","100.97","","","","","","NA"
"-56.11","50.72","ENGLEE (AUT)","8401538","2018-10-11 03:30","2018","10","11","03:30","0.2","","-4.4","","71","","","M","31","","34","","","","101.00","","","","","","NA"
"-56.11","50.72","ENGLEE (AUT)","8401538","2018-10-11 04:30","2018","10","11","04:30","0.0","","-4.4","","72","","","M","31","","33","","","","101.04","","","","-7","","NA"
"-56.11","50.72","ENGLEE (AUT)","8401538","2018-10-11 05:30","2018","10","11","05:30","-0.1","","-4.2","","74","","","M","31","","32","","","","101.07","","","","-7","","NA"
"-56.11","50.72","ENGLEE (AUT)","8401538","2018-10-11 06:30","2018","10","11","06:30","-0.3","","-3.8","","77","","","M","31","","31","","","","101.11","","","","-7","","NA"
"-56.11","50.72","ENGLEE (AUT)","8401538","2018-10-11 07:30","2018","10","11","07:30","0.0","","-3.7","","76","","","M","32","","26","","","","101.15","","","","-6","","NA"
"-56.11","50.72","ENGLEE (AUT)","8401538","2018-10-11 08:30","2018","10","11","08:30","1.4","","-3.7","","69","","","M","32","","26","","","","101.18","","","","","","NA"
"-56.11","50.72","ENGLEE (AUT)","8401538","2018-10-11 09:30","2018","10","11","09:30","2.6","","-3.8","","62","","","M","33","","32","","","","101.20","","","","","","NA"
"-56.11","50.72","ENGLEE (AUT)","8401538","2018-10-11 10:30","2018","10","11","10:30","3.9","","-3.8","","57","","","M","33","","28","","","","101.20","","","","","","NA"
"-56.11","50.72","ENGLEE (AUT)","8401538","2018-10-11 11:30","2018","10","11","11:30","5.0","","-3.3","","55","","","M","32","","26","","","","101.22","","","","","","NA"
"-56.11","50.72","ENGLEE (AUT)","8401538","2018-10-11 12:30","2018","10","11","12:30","5.3","","-3.5","","53","","","M","33","","27","","","","101.19","","","","","","NA"
"-56.11","50.72","ENGLEE (AUT)","8401538","2018-10-11 13:30","2018","10","11","13:30","6.7","","-2.7","","51","","","M","32","","28","","","","101.19","","","","","","NA"
"-56.11","50.72","ENGLEE (AUT)","8401538","2018-10-11 14:30","2018","10","11","14:30","5.9","","-3.6","","51","","","M","32","","29","","","","101.22","","","","","","NA"
"-56.11","50.72","ENGLEE (AUT)","8401538","2018-10-11 15:30","2018","10","11","15:30","4.9","","-4.1","","52","","","M","33","","26","","","","101.23","","","","","","NA"
"-56.11","50.72","ENGLEE (AUT)","8401538","2018-10-11 16:30","2018","10","11","16:30","3.8","","-4.3","","56","","","M","33","","21","","","","101.28","","","","","","NA"
"-56.11","50.72","ENGLEE (AUT)","8401538","2018-10-11 17:30","2018","10","11","17:30","3.5","","-3.6","","60","","","M","33","","17","","","","101.31","","","","","","NA"
"-56.11","50.72","ENGLEE (AUT)","8401538","2018-10-11 18:30","2018","10","11","18:30","3.1","","-3.8","","60","","","M","32","","17","","","","101.34","","","","","","NA"
"-56.11","50.72","ENGLEE (AUT)","8401538","2018-10-11 19:30","2018","10","11","19:30","1.1","","-4.1","","68","","","M","1","","11","","","","101.31","","","","","","NA"
"-56.11","50.72","ENGLEE (AUT)","8401538","2018-10-11 20:30","2018","10","11","20:30","-0.1","","-4.1","","74","","","M","32","","7","","","","101.30","","","","-3","","NA"
"-56.11","50.72","ENGLEE (AUT)","8401538","2018-10-11 21:30","2018","10","11","21:30","0.6","","-2.5","","80","","","M","31","","7","","","","101.33","","","","","","NA"
"-56.11","50.72","ENGLEE (AUT)","8401538","2018-10-11 22:30","2018","10","11","22:30","0.0","","-3.1","","79","","","M","32","","7","","","","101.29","","","","-2","","NA"
"-56.11","50.72","ENGLEE (AUT)","8401538","2018-10-11 23:30","2018","10","11","23:30","0.5","","-2.3","","81","","","M","24","","2","","","","101.22","","","","","","NA"
"-56.11","50.72","ENGLEE (AUT)","8401538","2018-10-12 00:30","2018","10","12","00:30","-0.1","","-2.5","","84","","","M","31","","5","","","","101.20","","","","-2","","NA"
"-56.11","50.72","ENGLEE (AUT)","8401538","2018-10-12 01:30","2018","10","12","01:30","-0.1","","-1.6","","90","","","M","30","","5","","","","101.13","","","","-2","","NA"
"-56.11","50.72","ENGLEE (AUT)","8401538","2018-10-12 02:30","2018","10","12","02:30","0.1","","-1.9","","86","","","M","31","","5","","","","101.11","","","","","","NA"
"-56.11","50.72","ENGLEE (AUT)","8401538","2018-10-12 03:30","2018","10","12","03:30","0.5","","-2.3","","81","","","M","25","","6","","","","101.05","","","","","","NA"
"-56.11","50.72","ENGLEE (AUT)","8401538","2018-10-12 04:30","2018","10","12","04:30","0.5","","-2.6","","80","","","M","23","","11","","","","100.95","","","","","","NA"
"-56.11","50.72","ENGLEE (AUT)","8401538","2018-10-12 05:30","2018","10","12","05:30","0.7","","-2.3","","80","","","M","23","","7","","","","100.97","","","","","","NA"
"-56.11","50.72","ENGLEE (AUT)","8401538","2018-10-12 06:30","2018","10","12","06:30","1.0","","-2.5","","77","","","M","23","","14","","","","100.97","","","","","","NA"
"-56.11","50.72","ENGLEE (AUT)","8401538","2018-10-12 07:30","2018","10","12","07:30","1.2","","-2.5","","77","","","M","22","","12","","","","100.80","","","","","","NA"
"-56.11","50.72","ENGLEE (AUT)","8401538","2018-10-12 08:30","2018","10","12","08:30","2.4","","-0.9","","79","","","M","20","","9","","","","100.76","","","","","","NA"
"-56.11","50.72","ENGLEE (AUT)","8401538","2018-10-12 09:30","2018","10","12","09:30","3.8","","-0.2","","76","","","M","19","","16","","","","100.65","","","","","","NA"
"-56.11","50.72","ENGLEE (AUT)","8401538","2018-10-12 10:30","2018","10","12","10:30","4.7","","-1.5","","64","","","M","17","","23","","","","100.60","","","","","","NA"
"-56.11","50.72","ENGLEE (AUT)","8401538","2018-10-12 11:30","2018","10","12","11:30","5.0","","-1.2","","64","","","M","16","","21","","","","100.52","","","","","","NA"
"-56.11","50.72","ENGLEE (AUT)","8401538","2018-10-12 12:30","2018","10","12","12:30","5.1","","-1.4","","63","","","M","16","","20","","","","100.44","","","","","","NA"
"-56.11","50.72","ENGLEE (AUT)","8401538","2018-10-12 13:30","2018","10","12","13:30","6.0","","-0.5","","63","","","M","15","","13","","","","100.34","","","","","","NA"
"-56.11","50.72","ENGLEE (AUT)","8401538","2018-10-12 14:30","2018","10","12","14:30","5.6","","-0.9","","63","","","M","15","","15","","","","100.32","","","","","","NA"
"-56.11","50.72","ENGLEE (AUT)","8401538","2018-10-12 15:30","2018","10","12","15:30","5.6","","0.3","","69","","","M","12","","10","","","","100.24","","","","","","NA"
"-56.11","50.72","ENGLEE (AUT)","8401538","2018-10-12 16:30","2018","10","12","16:30","4.7","","0.5","","74","","","M","12","","13","","","","100.16","","","","","","NA"
"-56.11","50.72","ENGLEE (AUT)","8401538","2018-10-12 17:30","2018","10","12","17:30","3.7","","0.5","","80","","","M","11","","13","","","","100.09","","","","","","NA"
"-56.11","50.72","ENGLEE (AUT)","8401538","2018-10-12 18:30","2018","10","12","18:30","3.4","","0.4","","81","","","M","12","","14","","","","100.00","","","","","","NA"
"-56.11","50.72","ENGLEE (AUT)","8401538","2018-10-12 19:30","2018","10","12","19:30","3.5","","1.0","","84","","","M","11","","15","","","","99.94","","","","","","NA"
"-56.11","50.72","ENGLEE (AUT)","8401538","2018-10-12 20:30","2018","10","12","20:30","3.6","","1.4","","86","","","M","11","","16","","","","99.90","","","","","","NA"
"-56.11","50.72","ENGLEE (AUT)","8401538","2018-10-12 21:30","2018","10","12","21:30","4.1","","2.0","","86","","","M","12","","16","","","","99.84","","","","","","NA"
"-56.11","50.72","ENGLEE (AUT)","8401538","2018-10-12 22:30","2018","10","12","22:30","4.2","","1.9","","85","","","M","11","","13","","","","99.77","","","","","","NA"
"-56.11","50.72","ENGLEE (AUT)","8401538","2018-10-12 23:30","2018","10","12","23:30","4.3","","2.0","","85","","","M","11","","12","","","","99.65","","","","","","NA"
"-56.11","50.72","ENGLEE (AUT)","8401538","2018-10-13 00:30","2018","10","13","00:30","4.3","","2.4","","88","","","M","11","","10","","","","99.62","","","","","","NA"
"-56.11","50.72","ENGLEE (AUT)","8401538","2018-10-13 01:30","2018","10","13","01:30","4.5","","3.0","","90","","","M","10","","10","","","","99.54","","","","","","NA"
"-56.11","50.72","ENGLEE (AUT)","8401538","2018-10-13 02:30","2018","10","13","02:30","4.8","","3.9","","94","","","M","10","","14","","","","99.47","","","","","","NA"
"-56.11","50.72","ENGLEE (AUT)","8401538","2018-10-13 03:30","2018","10","13","03:30","4.3","","3.8","","97","","","M","10","","11","","","","99.52","","","","","","NA"
"-56.11","50.72","ENGLEE (AUT)","8401538","2018-10-13 04:30","2018","10","13","04:30","4.0","","3.9","","99","","","M","10","","14","","","","99.47","","","","","","NA"
"-56.11","50.72","ENGLEE (AUT)","8401538","2018-10-13 05:30","2018","10","13","05:30","3.9","","3.9","","100","","","M","10","","11","","","","99.52","","","","","","NA"
"-56.11","50.72","ENGLEE (AUT)","8401538","2018-10-13 06:30","2018","10","13","06:30","3.8","","3.8","","100","","","M","10","","13","","","","99.51","","","","","","NA"
"-56.11","50.72","ENGLEE (AUT)","8401538","2018-10-13 07:30","2018","10","13","07:30","3.9","","3.9","","100","","","M","11","","9","","","","99.60","","","","","","NA"
"-56.11","50.72","ENGLEE (AUT)","8401538","2018-10-13 08:30","2018","10","13","08:30","4.2","","4.1","","100","","","M","11","","11","","","","99.72","","","","","","NA"
"-56.11","50.72","ENGLEE (AUT)","8401538","2018-10-13 09:30","2018","10","13","09:30","4.7","","4.4","","98","","","M","11","","13","","","","99.74","","","","","","NA"
"-56.11","50.72","ENGLEE (AUT)","8401538","2018-10-13 10:30","2018","10","13","10:30","5.4","","4.6","","95","","","M","11","","12","","","","99.80","","","","","","NA"
"-56.11","50.72","ENGLEE (AUT)","8401538","2018-10-13 11:30","2018","10","13","11:30","6.0","","4.4","","89","","","M","12","","13","","","","99.86","","","","","","NA"
"-56.11","50.72","ENGLEE (AUT)","8401538","2018-10-13 12:30","2018","10","13","12:30","6.4","","4.7","","89","","","M","12","","13","","","","99.85","","","","","","NA"
"-56.11","50.72","ENGLEE (AUT)","8401538","2018-10-13 13:30","2018","10","13","13:30","5.7","","3.8","","88","","","M","13","","10","","","","99.93","","","","","","NA"
"-56.11","50.72","ENGLEE (AUT)","8401538","2018-10-13 14:30","2018","10","13","14:30","5.3","","3.7","","90","","","M","12","","11","","","","99.92","","","","","","NA"
"-56.11","50.72","ENGLEE (AUT)","8401538","2018-10-13 15:30","2018","10","13","15:30","4.8","","3.7","","93","","","M","11","","8","","","","99.97","","","","","","NA"
"-56.11","50.72","ENGLEE (AUT)","8401538","2018-10-13 16:30","2018","10","13","16:30","4.2","","3.4","","95","","","M","12","","12","","","","99.95","","","","","","NA"
"-56.11","50.72","ENGLEE (AUT)","8401538","2018-10-13 17:30","2018","10","13","17:30","3.5","","3.2","","98","","","M","11","","14","","","","99.97","","","","","","NA"
"-56.11","50.72","ENGLEE (AUT)","8401538","2018-10-13 18:30","2018","10","13","18:30","3.5","","3.5","","100","","","M","11","","15","","","","99.93","","","","","","NA"
"-56.11","50.72","ENGLEE (AUT)","8401538","2018-10-13 19:30","2018","10","13","19:30","3.6","","3.6","","100","","","M","11","","16","","","","99.89","","","","","","NA"
"-56.11","50.72","ENGLEE (AUT)","8401538","2018-10-13 20:30","2018","10","13","20:30","4.0","","4.0","","100","","","M","11","","17","","","","99.86","","","","","","NA"
"-56.11","50.72","ENGLEE (AUT)","8401538","2018-10-13 21:30","2018","10","13","21:30","4.1","","4.1","","100","","","M","10","","13","","","","99.78","","","","","","NA"
"-56.11","50.72","ENGLEE (AUT)","8401538","2018-10-13 22:30","2018","10","13","22:30","4.4","","4.4","","100","","","M","11","","18","","","","99.71","","","","","","NA"
"-56.11","50.72","ENGLEE (AUT)","8401538","2018-10-13 23:30","2018","10","13","23:30","4.5","","4.5","","100","","","M","11","","17","","","","99.58","","","","","","NA"
"-56.11","50.72","ENGLEE (AUT)","8401538","2018-10-14 00:30","2018","10","14","00:30","4.6","","4.6","","100","","","M","11","","10","","","","99.54","","","","","","NA"
"-56.11","50.72","ENGLEE (AUT)","8401538","2018-10-14 01:30","2018","10","14","01:30","4.7","","4.7","","100","","","M","8","","5","","","","99.47","","","","","","NA"
"-56.11","50.72","ENGLEE (AUT)","8401538","2018-10-14 02:30","2018","10","14","02:30","4.7","","4.7","","100","","","M","34","","6","","","","99.40","","","","","","NA"
"-56.11","50.72","ENGLEE (AUT)","8401538","2018-10-14 03:30","2018","10","14","03:30","4.7","","4.7","","100","","","M","30","","11","","","","99.37","","","","","","NA"
"-56.11","50.72","ENGLEE (AUT)","8401538","2018-10-14 04:30","2018","10","14","04:30","4.6","","4.6","","100","","","M","31","","8","","","","99.36","","","","","","NA"
"-56.11","50.72","ENGLEE (AUT)","8401538","2018-10-14 05:30","2018","10","14","05:30","4.3","","4.3","","100","","","M","32","","11","","","","99.35","","","","","","NA"
"-56.11","50.72","ENGLEE (AUT)","8401538","2018-10-14 06:30","2018","10","14","06:30","4.0","","4.0","","100","","","M","30","","7","","","","99.32","","","","","","NA"
"-56.11","50.72","ENGLEE (AUT)","8401538","2018-10-14 07:30","2018","10","14","07:30","4.1","","4.1","","100","","","M","30","","10","","","","99.29","","","","","","NA"
"-56.11","50.72","ENGLEE (AUT)","8401538","2018-10-14 08:30","2018","10","14","08:30","4.5","","4.5","","100","","","M","36","","3","","","","99.27","","","","","","NA"
"-56.11","50.72","ENGLEE (AUT)","8401538","2018-10-14 09:30","2018","10","14","09:30","4.6","","4.6","","100","","","M","36","","5","","","","99.27","","","","","","NA"
"-56.11","50.72","ENGLEE (AUT)","8401538","2018-10-14 10:30","2018","10","14","10:30","4.7","","4.7","","100","","","M","6","","5","","","","99.33","","","","","","NA"
"-56.11","50.72","ENGLEE (AUT)","8401538","2018-10-14 11:30","2018","10","14","11:30","4.1","","4.1","","100","","","M","33","","12","","","","99.42","","","","","","NA"
"-56.11","50.72","ENGLEE (AUT)","8401538","2018-10-14 12:30","2018","10","14","12:30","3.8","","3.8","","100","","","M","34","","11","","","","99.48","","","","","","NA"
"-56.11","50.72","ENGLEE (AUT)","8401538","2018-10-14 13:30","2018","10","14","13:30","3.9","","3.9","","100","","","M","33","","17","","","","99.55","","","","","","NA"
"-56.11","50.72","ENGLEE (AUT)","8401538","2018-10-14 14:30","2018","10","14","14:30","3.9","","3.7","","99","","","M","33","","20","","","","99.62","","","","","","NA"
"-56.11","50.72","ENGLEE (AUT)","8401538","2018-10-14 15:30","2018","10","14","15:30","3.3","","3.0","","98","","","M","33","","20","","","","99.73","","","","","","NA"
"-56.11","50.72","ENGLEE (AUT)","8401538","2018-10-14 16:30","2018","10","14","16:30","2.3","","2.2","","100","","","M","34","","11","","","","99.85","","","","","","NA"
"-56.11","50.72","ENGLEE (AUT)","8401538","2018-10-14 17:30","2018","10","14","17:30","1.9","","1.9","","100","","","M","33","","20","","","","99.95","","","","","","NA"
"-56.11","50.72","ENGLEE (AUT)","8401538","2018-10-14 18:30","2018","10","14","18:30","1.6","","1.6","","100","","","M","33","","13","","","","100.04","","","","","","NA"
"-56.11","50.72","ENGLEE (AUT)","8401538","2018-10-14 19:30","2018","10","14","19:30","1.8","","1.8","","100","","","M","31","","16","","","","100.11","","","","","","NA"
"-56.11","50.72","ENGLEE (AUT)","8401538","2018-10-14 20:30","2018","10","14","20:30","1.9","","1.9","","100","","","M","32","","13","","","","100.18","","","","","","NA"
"-56.11","50.72","ENGLEE (AUT)","8401538","2018-10-14 21:30","2018","10","14","21:30","1.7","","1.7","","100","","","M","33","","10","","","","100.23","","","","","","NA"
"-56.11","50.72","ENGLEE (AUT)","8401538","2018-10-14 22:30","2018","10","14","22:30","1.7","","1.7","","100","","","M","34","","8","","","","100.27","","","","","","NA"
"-56.11","50.72","ENGLEE (AUT)","8401538","2018-10-14 23:30","2018","10","14","23:30","2.1","","2.1","","100","","","M","32","","18","","","","100.32","","","","","","NA"
"-56.11","50.72","ENGLEE (AUT)","8401538","2018-10-15 00:30","2018","10","15","00:30","1.4","","1.4","","100","","","M","34","","9","","","","100.37","","","","","","NA"
"-56.11","50.72","ENGLEE (AUT)","8401538","2018-10-15 01:30","2018","10","15","01:30","1.3","","1.3","","100","","","M","2","","4","","","","100.43","","","","","","NA"
"-56.11","50.72","ENGLEE (AUT)","8401538","2018-10-15 02:30","2018","10","15","02:30","1.7","","1.7","","100","","","M","34","","1","","","","100.47","","","","","","NA"
"-56.11","50.72","ENGLEE (AUT)","8401538","2018-10-15 03:30","2018","10","15","03:30","1.6","","1.6","","100","","","M","34","","11","","","","100.51","","","","","","NA"
"-56.11","50.72","ENGLEE (AUT)","8401538","2018-10-15 04:30","2018","10","15","04:30","2.0","","2.0","","100","","","M","30","","9","","","","100.58","","","","","","NA"
"-56.11","50.72","ENGLEE (AUT)","8401538","2018-10-15 05:30","2018","10","15","05:30","1.6","","1.6","","100","","","M","32","","7","","","","100.62","","","","","","NA"
"-56.11","50.72","ENGLEE (AUT)","8401538","2018-10-15 06:30","2018","10","15","06:30","1.7","","1.7","","100","","","M","30","","6","","","","100.69","","","","","","NA"
"-56.11","50.72","ENGLEE (AUT)","8401538","2018-10-15 07:30","2018","10","15","07:30","2.3","","2.3","","100","","","M","28","","11","","","","100.74","","","","","","NA"
"-56.11","50.72","ENGLEE (AUT)","8401538","2018-10-15 08:30","2018","10","15","08:30","2.9","","2.9","","100","","","M","28","","11","","","","100.81","","","","","","NA"
"-56.11","50.72","ENGLEE (AUT)","8401538","2018-10-15 09:30","2018","10","15","09:30","4.2","","4.2","","100","","","M","30","","23","","","","100.85","","","","","","NA"
"-56.11","50.72","ENGLEE (AUT)","8401538","2018-10-15 10:30","2018","10","15","10:30","5.2","","3.5","","89","","","M","29","","28","","","","100.91","","","","","","NA"
"-56.11","50.72","ENGLEE (AUT)","8401538","2018-10-15 11:30","2018","10","15","11:30","6.1","","3.3","","82","","","M","29","","34","","","","100.92","","","","","","NA"
"-56.11","50.72","ENGLEE (AUT)","8401538","2018-10-15 12:30","2018","10","15","12:30","7.1","","3.9","","80","","","M","30","","33","","","","100.96","","","","","","NA"
"-56.11","50.72","ENGLEE (AUT)","8401538","2018-10-15 13:30","2018","10","15","13:30","7.3","","3.8","","78","","","M","30","","29","","","","100.96","","","","","","NA"
"-56.11","50.72","ENGLEE (AUT)","8401538","2018-10-15 14:30","2018","10","15","14:30","6.2","","3.1","","81","","","M","30","","28","","","","101.01","","","","","","NA"
"-56.11","50.72","ENGLEE (AUT)","8401538","2018-10-15 15:30","2018","10","15","15:30","7.2","","3.0","","75","","","M","29","","30","","","","101.03","","","","","","NA"
"-56.11","50.72","ENGLEE (AUT)","8401538","2018-10-15 16:30","2018","10","15","16:30","5.8","","2.5","","79","","","M","27","","31","","","","101.07","","","","","","NA"
"-56.11","50.72","ENGLEE (AUT)","8401538","2018-10-15 17:30","2018","10","15","17:30","5.5","","2.9","","83","","","M","25","","16","","","","101.15","","","","","","NA"
"-56.11","50.72","ENGLEE (AUT)","8401538","2018-10-15 18:30","2018","10","15","18:30","4.9","","2.7","","85","","","M","24","","22","","","","101.18","","","","","","NA"
"-56.11","50.72","ENGLEE (AUT)","8401538","2018-10-15 19:30","2018","10","15","19:30","4.7","","2.9","","88","","","M","24","","22","","","","101.22","","","","","","NA"
"-56.11","50.72","ENGLEE (AUT)","8401538","2018-10-15 20:30","2018","10","15","20:30","4.3","","2.7","","89","","","M","23","","22","","","","101.22","","","","","","NA"
"-56.11","50.72","ENGLEE (AUT)","8401538","2018-10-15 21:30","2018","10","15","21:30","3.5","","2.1","","91","","","M","22","","7","","","","101.20","","","","","","NA"
"-56.11","50.72","ENGLEE (AUT)","8401538","2018-10-15 22:30","2018","10","15","22:30","3.7","","2.4","","91","","","M","23","","18","","","","101.17","","","","","","NA"
"-56.11","50.72","ENGLEE (AUT)","8401538","2018-10-15 23:30","2018","10","15","23:30","3.9","","2.6","","92","","","M","18","","16","","","","101.13","","","","","","NA"
"-56.11","50.72","ENGLEE (AUT)","8401538","2018-10-16 00:30","2018","10","16","00:30","4.1","","3.0","","92","","","M","17","","16","","","","101.08","","","","","","NA"
"-56.11","50.72","ENGLEE (AUT)","8401538","2018-10-16 01:30","2018","10","16","01:30","4.3","","3.3","","94","","","M","18","","18","","","","100.97","","","","","","NA"
"-56.11","50.72","ENGLEE (AUT)","8401538","2018-10-16 02:30","2018","10","16","02:30","4.4","","3.4","","93","","","M","17","","25","","","","100.85","","","","","","NA"
"-56.11","50.72","ENGLEE (AUT)","8401538","2018-10-16 03:30","2018","10","16","03:30","4.4","","3.5","","94","","","M","17","","25","","","","100.69","","","","","","NA"
"-56.11","50.72","ENGLEE (AUT)","8401538","2018-10-16 04:30","2018","10","16","04:30","4.1","","3.5","","96","","","M","15","","19","","","","100.48","","","","","","NA"
"-56.11","50.72","ENGLEE (AUT)","8401538","2018-10-16 05:30","2018","10","16","05:30","3.9","","3.5","","97","","","M","14","","22","","","","100.31","","","","","","NA"
"-56.11","50.72","ENGLEE (AUT)","8401538","2018-10-16 06:30","2018","10","16","06:30","4.2","","4.0","","99","","","M","13","","16","","","","100.12","","","","","","NA"
"-56.11","50.72","ENGLEE (AUT)","8401538","2018-10-16 07:30","2018","10","16","07:30","4.5","","4.5","","100","","","M","12","","21","","","","99.79","","","","","","NA"
"-56.11","50.72","ENGLEE (AUT)","8401538","2018-10-16 08:30","2018","10","16","08:30","4.9","","4.9","","100","","","M","12","","37","","","","99.38","","","","","","NA"
"-56.11","50.72","ENGLEE (AUT)","8401538","2018-10-16 09:30","2018","10","16","09:30","5.2","","5.2","","100","","","M","12","","42","","","","99.03","","","","","","NA"
"-56.11","50.72","ENGLEE (AUT)","8401538","2018-10-16 10:30","2018","10","16","10:30","5.4","","5.4","","100","","","M","12","","41","","","","98.64","","","","","","NA"
"-56.11","50.72","ENGLEE (AUT)","8401538","2018-10-16 11:30","2018","10","16","11:30","5.8","","5.8","","100","","","M","12","","29","","","","98.18","","","","","","NA"
"-56.11","50.72","ENGLEE (AUT)","8401538","2018-10-16 12:30","2018","10","16","12:30","5.9","","5.9","","100","","","M","13","","27","","","","97.73","","","","","","NA"
"-56.11","50.72","ENGLEE (AUT)","8401538","2018-10-16 13:30","2018","10","16","13:30","6.4","","6.4","","100","","","M","11","","20","","","","97.22","","","","","","NA"
"-56.11","50.72","ENGLEE (AUT)","8401538","2018-10-16 14:30","2018","10","16","14:30","6.9","","6.9","","100","","","M","10","","10","","","","96.87","","","","","","NA"
"-56.11","50.72","ENGLEE (AUT)","8401538","2018-10-16 15:30","2018","10","16","15:30","6.7","","6.7","","100","","","M","23","","42","","","","96.85","","","","","","NA"
"-56.11","50.72","ENGLEE (AUT)","8401538","2018-10-16 16:30","2018","10","16","16:30","6.4","","5.6","","94","","","M","21","","52","","","","96.64","","","","","","NA"
"-56.11","50.72","ENGLEE (AUT)","8401538","2018-10-16 17:30","2018","10","16","17:30","6.9","","6.5","","98","","","M","26","","66","","","","96.51","","","","","","NA"
"-56.11","50.72","ENGLEE (AUT)","8401538","2018-10-16 18:30","2018","10","16","18:30","6.5","","5.4","","92","","","M","27","","88","","","","96.45","","","","","","NA"
"-56.11","50.72","ENGLEE (AUT)","8401538","2018-10-16 19:30","2018","10","16","19:30","5.8","","5.1","","95","","","M","28","","91","","","","96.86","","","","","","NA"
"-56.11","50.72","ENGLEE (AUT)","8401538","2018-10-16 20:30","2018","10","16","20:30","4.6","","3.6","","94","","","M","28","","62","","","","97.29","","","","","","NA"
"-56.11","50.72","ENGLEE (AUT)","8401538","2018-10-16 21:30","2018","10","16","21:30","3.8","","3.0","","95","","","M","29","","58","","","","97.64","","","","","","NA"
"-56.11","50.72","ENGLEE (AUT)","8401538","2018-10-16 22:30","2018","10","16","22:30","3.5","","2.7","","95","","","M","30","","55","","","","97.95","","","","","","NA"
"-56.11","50.72","ENGLEE (AUT)","8401538","2018-10-16 23:30","2018","10","16","23:30","3.4","","2.6","","95","","","M","29","","50","","","","98.25","","","","","","NA"
"-56.11","50.72","ENGLEE (AUT)","8401538","2018-10-17 00:30","2018","10","17","00:30","3.6","","2.4","","92","","","M","29","","54","","","","98.41","","","","","","NA"
"-56.11","50.72","ENGLEE (AUT)","8401538","2018-10-17 01:30","2018","10","17","01:30","3.8","","2.2","","89","","","M","29","","52","","","","98.62","","","","","","NA"
"-56.11","50.72","ENGLEE (AUT)","8401538","2018-10-17 02:30","2018","10","17","02:30","3.9","","2.1","","88","","","M","29","","52","","","","98.73","","","","","","NA"
"-56.11","50.72","ENGLEE (AUT)","8401538","2018-10-17 03:30","2018","10","17","03:30","3.8","","2.0","","88","","","M","29","","45","","","","98.90","","","","","","NA"
"-56.11","50.72","ENGLEE (AUT)","8401538","2018-10-17 04:30","2018","10","17","04:30","3.6","","1.9","","89","","","M","29","","48","","","","99.05","","","","","","NA"
"-56.11","50.72","ENGLEE (AUT)","8401538","2018-10-17 05:30","2018","10","17","05:30","3.7","","2.1","","90","","","M","29","","46","","","","99.19","","","","","","NA"
"-56.11","50.72","ENGLEE (AUT)","8401538","2018-10-17 06:30","2018","10","17","06:30","3.4","","1.8","","89","","","M","29","","40","","","","99.33","","","","","","NA"
"-56.11","50.72","ENGLEE (AUT)","8401538","2018-10-17 07:30","2018","10","17","07:30","3.6","","2.1","","90","","","M","29","","35","","","","99.45","","","","","","NA"
"-56.11","50.72","ENGLEE (AUT)","8401538","2018-10-17 08:30","2018","10","17","08:30","3.8","","2.2","","89","","","M","29","","30","","","","99.59","","","","","","NA"
"-56.11","50.72","ENGLEE (AUT)","8401538","2018-10-17 09:30","2018","10","17","09:30","4.4","","2.4","","87","","","M","30","","26","","","","99.70","","","","","","NA"
"-56.11","50.72","ENGLEE (AUT)","8401538","2018-10-17 10:30","2018","10","17","10:30","7.6","","3.1","","73","","","M","30","","23","","","","99.75","","","","","","NA"
"-56.11","50.72","ENGLEE (AUT)","8401538","2018-10-17 11:30","2018","10","17","11:30","6.3","","3.0","","79","","","M","31","","17","","","","99.81","","","","","","NA"
"-56.11","50.72","ENGLEE (AUT)","8401538","2018-10-17 12:30","2018","10","17","12:30","5.8","","2.6","","80","","","M","30","","15","","","","99.83","","","","","","NA"
"-56.11","50.72","ENGLEE (AUT)","8401538","2018-10-17 13:30","2018","10","17","13:30","5.9","","2.9","","81","","","M","29","","12","","","","99.88","","","","","","NA"
"-56.11","50.72","ENGLEE (AUT)","8401538","2018-10-17 14:30","2018","10","17","14:30","5.6","","2.1","","78","","","M","27","","20","","","","99.91","","","","","","NA"
"-56.11","50.72","ENGLEE (AUT)","8401538","2018-10-17 15:30","2018","10","17","15:30","7.4","","2.8","","73","","","M","28","","22","","","","99.93","","","","","","NA"
"-56.11","50.72","ENGLEE (AUT)","8401538","2018-10-17 16:30","2018","10","17","16:30","5.2","","2.1","","80","","","M","28","","23","","","","100.00","","","","","","NA"
"-56.11","50.72","ENGLEE (AUT)","8401538","2018-10-17 17:30","2018","10","17","17:30","4.0","","1.7","","85","","","M","26","","12","","","","100.07","","","","","","NA"
"-56.11","50.72","ENGLEE (AUT)","8401538","2018-10-17 18:30","2018","10","17","18:30","3.3","","1.4","","88","","","M","23","","10","","","","100.10","","","","","","NA"
"-56.11","50.72","ENGLEE (AUT)","8401538","2018-10-17 19:30","2018","10","17","19:30","2.9","","1.3","","89","","","M","21","","8","","","","100.12","","","","","","NA"
"-56.11","50.72","ENGLEE (AUT)","8401538","2018-10-17 20:30","2018","10","17","20:30","2.6","","1.3","","91","","","M","17","","7","","","","100.14","","","","","","NA"
"-56.11","50.72","ENGLEE (AUT)","8401538","2018-10-17 21:30","2018","10","17","21:30","2.5","","1.5","","93","","","M","19","","14","","","","100.15","","","","","","NA"
"-56.11","50.72","ENGLEE (AUT)","8401538","2018-10-17 22:30","2018","10","17","22:30","2.3","","1.1","","92","","","M","21","","11","","","","100.13","","","","","","NA"
"-56.11","50.72","ENGLEE (AUT)","8401538","2018-10-17 23:30","2018","10","17","23:30","2.4","","1.5","","94","","","M","19","","8","","","","100.05","","","","","","NA"
"-56.11","50.72","ENGLEE (AUT)","8401538","2018-10-18 00:30","2018","10","18","00:30","1.7","","1.0","","95","","","M","27","","5","","","","99.96","","","","","","NA"
"-56.11","50.72","ENGLEE (AUT)","8401538","2018-10-18 01:30","2018","10","18","01:30","1.7","","1.0","","95","","","M","15","","6","","","","99.89","","","","","","NA"
"-56.11","50.72","ENGLEE (AUT)","8401538","2018-10-18 02:30","2018","10","18","02:30","2.5","","2.1","","97","","","M","19","","7","","","","99.80","","","","","","NA"
"-56.11","50.72","ENGLEE (AUT)","8401538","2018-10-18 03:30","2018","10","18","03:30","2.5","","2.0","","97","","","M","17","","5","","","","99.77","","","","","","NA"
"-56.11","50.72","ENGLEE (AUT)","8401538","2018-10-18 04:30","2018","10","18","04:30","2.1","","1.8","","98","","","M","15","","10","","","","99.73","","","","","","NA"
"-56.11","50.72","ENGLEE (AUT)","8401538","2018-10-18 05:30","2018","10","18","05:30","2.6","","2.4","","99","","","M","12","","6","","","","99.68","","","","","","NA"
"-56.11","50.72","ENGLEE (AUT)","8401538","2018-10-18 06:30","2018","10","18","06:30","3.4","","3.4","","100","","","M","11","","10","","","","99.60","","","","","","NA"
"-56.11","50.72","ENGLEE (AUT)","8401538","2018-10-18 07:30","2018","10","18","07:30","3.7","","3.7","","100","","","M","12","","14","","","","99.54","","","","","","NA"
"-56.11","50.72","ENGLEE (AUT)","8401538","2018-10-18 08:30","2018","10","18","08:30","4.3","","4.2","","100","","","M","12","","12","","","","99.47","","","","","","NA"
"-56.11","50.72","ENGLEE (AUT)","8401538","2018-10-18 09:30","2018","10","18","09:30","4.1","","3.9","","98","","","M","11","","12","","","","99.39","","","","","","NA"
"-56.11","50.72","ENGLEE (AUT)","8401538","2018-10-18 10:30","2018","10","18","10:30","4.5","","3.9","","96","","","M","","M","","M","","","","M","","","","","NA"
"-56.11","50.72","ENGLEE (AUT)","8401538","2018-10-18 11:30","2018","10","18","11:30","4.8","","4.0","","95","","","M","10","","16","","","","99.22","","","","","","NA"
"-56.11","50.72","ENGLEE (AUT)","8401538","2018-10-18 12:30","2018","10","18","12:30","5.2","","3.9","","91","","","M","10","","19","","","","99.12","","","","","","NA"
"-56.11","50.72","ENGLEE (AUT)","8401538","2018-10-18 13:30","2018","10","18","13:30","4.9","","2.9","","87","","","M","8","","19","","","","99.05","","","","","","NA"
"-56.11","50.72","ENGLEE (AUT)","8401538","2018-10-18 14:30","2018","10","18","14:30","4.3","","2.8","","90","","","M","8","","18","","","","99.02","","","","","","NA"
"-56.11","50.72","ENGLEE (AUT)","8401538","2018-10-18 15:30","2018","10","18","15:30","3.8","","3.0","","95","","","M","7","","11","","","","98.97","","","","","","NA"
"-56.11","50.72","ENGLEE (AUT)","8401538","2018-10-18 16:30","2018","10","18","16:30","3.6","","3.2","","97","","","M","4","","8","","","","98.93","","","","","","NA"
"-56.11","50.72","ENGLEE (AUT)","8401538","2018-10-18 17:30","2018","10","18","17:30","2.9","","2.7","","98","","","M","4","","11","","","","98.92","","","","","","NA"
"-56.11","50.72","ENGLEE (AUT)","8401538","2018-10-18 18:30","2018","10","18","18:30","2.8","","2.7","","100","","","M","2","","8","","","","98.93","","","","","","NA"
"-56.11","50.72","ENGLEE (AUT)","8401538","2018-10-18 19:30","2018","10","18","19:30","2.5","","2.5","","100","","","M","2","","16","","","","98.92","","","","","","NA"
"-56.11","50.72","ENGLEE (AUT)","8401538","2018-10-18 20:30","2018","10","18","20:30","2.2","","2.2","","100","","","M","1","","11","","","","98.92","","","","","","NA"
"-56.11","50.72","ENGLEE (AUT)","8401538","2018-10-18 21:30","2018","10","18","21:30","1.6","","1.6","","100","","","M","35","","11","","","","98.96","","","","","","NA"
"-56.11","50.72","ENGLEE (AUT)","8401538","2018-10-18 22:30","2018","10","18","22:30","0.4","","0.4","","100","","","M","34","","13","","","","98.98","","","","","","NA"
"-56.11","50.72","ENGLEE (AUT)","8401538","2018-10-18 23:30","2018","10","18","23:30","0.8","","0.8","","100","","","M","33","","14","","","","99.00","","","","","","NA"
"-56.11","50.72","ENGLEE (AUT)","8401538","2018-10-19 00:30","2018","10","19","00:30","1.1","","1.1","","100","","","M","34","","13","","","","99.06","","","","","","NA"
"-56.11","50.72","ENGLEE (AUT)","8401538","2018-10-19 01:30","2018","10","19","01:30","1.1","","1.1","","100","","","M","34","","12","","","","99.13","","","","","","NA"
"-56.11","50.72","ENGLEE (AUT)","8401538","2018-10-19 02:30","2018","10","19","02:30","0.9","","0.9","","100","","","M","34","","13","","","","99.20","","","","","","NA"
"-56.11","50.72","ENGLEE (AUT)","8401538","2018-10-19 03:30","2018","10","19","03:30","0.8","","0.8","","100","","","M","34","","13","","","","99.31","","","","","","NA"
"-56.11","50.72","ENGLEE (AUT)","8401538","2018-10-19 04:30","2018","10","19","04:30","0.8","","0.8","","100","","","M","33","","14","","","","99.42","","","","","","NA"
"-56.11","50.72","ENGLEE (AUT)","8401538","2018-10-19 05:30","2018","10","19","05:30","0.8","","0.8","","100","","","M","34","","16","","","","99.54","","","","","","NA"
"-56.11","50.72","ENGLEE (AUT)","8401538","2018-10-19 06:30","2018","10","19","06:30","0.9","","0.9","","100","","","M","33","","22","","","","99.64","","","","","","NA"
"-56.11","50.72","ENGLEE (AUT)","8401538","2018-10-19 07:30","2018","10","19","07:30","0.6","","0.6","","100","","","M","34","","14","","","","99.78","","","","","","NA"
"-56.11","50.72","ENGLEE (AUT)","8401538","2018-10-19 08:30","2018","10","19","08:30","0.9","","0.9","","100","","","M","33","","24","","","","99.91","","","","","","NA"
"-56.11","50.72","ENGLEE (AUT)","8401538","2018-10-19 09:30","2018","10","19","09:30","1.6","","1.6","","100","","","M","33","","18","","","","100.01","","","","","","NA"
"-56.11","50.72","ENGLEE (AUT)","8401538","2018-10-19 10:30","2018","10","19","10:30","1.6","","1.6","","100","","","M","33","","17","","","","100.09","","","","","","NA"
"-56.11","50.72","ENGLEE (AUT)","8401538","2018-10-19 11:30","2018","10","19","11:30","1.9","","1.7","","99","","","M","33","","17","","","","100.16","","","","","","NA"
"-56.11","50.72","ENGLEE (AUT)","8401538","2018-10-19 12:30","2018","10","19","12:30","1.9","","1.7","","99","","","M","33","","16","","","","100.24","","","","","","NA"
"-56.11","50.72","ENGLEE (AUT)","8401538","2018-10-19 13:30","2018","10","19","13:30","4.0","","2.1","","87","","","M","32","","14","","","","100.29","","","","","","NA"
"-56.11","50.72","ENGLEE (AUT)","8401538","2018-10-19 14:30","2018","10","19","14:30","4.4","","2.2","","86","","","M","31","","13","","","","100.35","","","","","","NA"
"-56.11","50.72","ENGLEE (AUT)","8401538","2018-10-19 15:30","2018","10","19","15:30","3.0","","0.7","","85","","","M","35","","6","","","","100.42","","","","","","NA"
"-56.11","50.72","ENGLEE (AUT)","8401538","2018-10-19 16:30","2018","10","19","16:30","1.9","","0.4","","89","","","M","28","","13","","","","100.53","","","","","","NA"
"-56.11","50.72","ENGLEE (AUT)","8401538","2018-10-19 17:30","2018","10","19","17:30","0.5","","-0.5","","93","","","M","34","","7","","","","100.62","","","","","","NA"
"-56.11","50.72","ENGLEE (AUT)","8401538","2018-10-19 18:30","2018","10","19","18:30","0.3","","-0.4","","95","","","M","4","","6","","","","100.71","","","","","","NA"
"-56.11","50.72","ENGLEE (AUT)","8401538","2018-10-19 19:30","2018","10","19","19:30","1.1","","0.3","","94","","","M","24","","7","","","","100.80","","","","","","NA"
"-56.11","50.72","ENGLEE (AUT)","8401538","2018-10-19 20:30","2018","10","19","20:30","0.8","","0.0","","94","","","M","30","","3","","","","100.84","","","","","","NA"
"-56.11","50.72","ENGLEE (AUT)","8401538","2018-10-19 21:30","2018","10","19","21:30","1.1","","0.3","","94","","","M","24","","2","","","","100.90","","","","","","NA"
"-56.11","50.72","ENGLEE (AUT)","8401538","2018-10-19 22:30","2018","10","19","22:30","1.5","","0.7","","95","","","M","16","","6","","","","100.88","","","","","","NA"
"-56.11","50.72","ENGLEE (AUT)","8401538","2018-10-19 23:30","2018","10","19","23:30","2.0","","1.5","","97","","","M","18","","12","","","","100.90","","","","","","NA"
"-56.11","50.72","ENGLEE (AUT)","8401538","2018-10-20 00:30","2018","10","20","00:30","2.2","","2.0","","99","","","M","19","","11","","","","100.90","","","","","","NA"
"-56.11","50.72","ENGLEE (AUT)","8401538","2018-10-20 01:30","2018","10","20","01:30","2.5","","2.4","","100","","","M","17","","16","","","","100.91","","","","","","NA"
"-56.11","50.72","ENGLEE (AUT)","8401538","2018-10-20 02:30","2018","10","20","02:30","2.7","","2.6","","99","","","M","18","","15","","","","100.90","","","","","","NA"
"-56.11","50.72","ENGLEE (AUT)","8401538","2018-10-20 03:30","2018","10","20","03:30","2.4","","2.4","","100","","","M","23","","18","","","","100.93","","","","","","NA"
"-56.11","50.72","ENGLEE (AUT)","8401538","2018-10-20 04:30","2018","10","20","04:30","2.0","","1.7","","98","","","M","18","","9","","","","100.93","","","","","","NA"
"-56.11","50.72","ENGLEE (AUT)","8401538","2018-10-20 05:30","2018","10","20","05:30","2.0","","1.8","","99","","","M","25","","19","","","","100.97","","","","","","NA"
"-56.11","50.72","ENGLEE (AUT)","8401538","2018-10-20 06:30","2018","10","20","06:30","1.9","","1.4","","96","","","M","24","","14","","","","101.04","","","","","","NA"
"-56.11","50.72","ENGLEE (AUT)","8401538","2018-10-20 07:30","2018","10","20","07:30","1.8","","1.1","","95","","","M","18","","13","","","","101.12","","","","","","NA"
"-56.11","50.72","ENGLEE (AUT)","8401538","2018-10-20 08:30","2018","10","20","08:30","2.0","","1.0","","93","","","M","19","","17","","","","101.13","","","","","","NA"
"-56.11","50.72","ENGLEE (AUT)","8401538","2018-10-20 09:30","2018","10","20","09:30","1.7","","0.0","","89","","","M","22","","25","","","","101.21","","","","","","NA"
"-56.11","50.72","ENGLEE (AUT)","8401538","2018-10-20 10:30","2018","10","20","10:30","1.3","","1.2","","99","","","M","18","","23","","","","101.12","","","","","","NA"
"-56.11","50.72","ENGLEE (AUT)","8401538","2018-10-20 11:30","2018","10","20","11:30","1.6","","1.6","","100","","","M","15","","34","","","","101.04","","","","","","NA"
"-56.11","50.72","ENGLEE (AUT)","8401538","2018-10-20 12:30","2018","10","20","12:30","1.9","","1.9","","100","","","M","14","","32","","","","100.92","","","","","","NA"
"-56.11","50.72","ENGLEE (AUT)","8401538","2018-10-20 13:30","2018","10","20","13:30","2.7","","2.7","","100","","","M","15","","41","","","","100.80","","","","","","NA"
"-56.11","50.72","ENGLEE (AUT)","8401538","2018-10-20 14:30","2018","10","20","14:30","3.4","","3.4","","100","","","M","16","","37","","","","100.71","","","","","","NA"
"-56.11","50.72","ENGLEE (AUT)","8401538","2018-10-20 15:30","2018","10","20","15:30","4.2","","4.2","","100","","","M","16","","30","","","","100.59","","","","","","NA"
"-56.11","50.72","ENGLEE (AUT)","8401538","2018-10-20 16:30","2018","10","20","16:30","4.8","","4.8","","100","","","M","15","","26","","","","100.52","","","","","","NA"
"-56.11","50.72","ENGLEE (AUT)","8401538","2018-10-20 17:30","2018","10","20","17:30","5.1","","5.1","","100","","","M","15","","17","","","","100.42","","","","","","NA"
"-56.11","50.72","ENGLEE (AUT)","8401538","2018-10-20 18:30","2018","10","20","18:30","5.3","","5.3","","100","","","M","15","","29","","","","100.29","","","","","","NA"
"-56.11","50.72","ENGLEE (AUT)","8401538","2018-10-20 19:30","2018","10","20","19:30","5.6","","5.6","","100","","","M","13","","31","","","","100.13","","","","","","NA"
"-56.11","50.72","ENGLEE (AUT)","8401538","2018-10-20 20:30","2018","10","20","20:30","6.3","","6.3","","100","","","M","16","","34","","","","100.05","","","","","","NA"
"-56.11","50.72","ENGLEE (AUT)","8401538","2018-10-20 21:30","2018","10","20","21:30","6.3","","6.3","","100","","","M","15","","29","","","","99.97","","","","","","NA"
"-56.11","50.72","ENGLEE (AUT)","8401538","2018-10-20 22:30","2018","10","20","22:30","6.2","","6.2","","100","","","M","13","","24","","","","99.79","","","","","","NA"
"-56.11","50.72","ENGLEE (AUT)","8401538","2018-10-20 23:30","2018","10","20","23:30","6.9","","6.9","","100","","","M","14","","26","","","","99.69","","","","","","NA"
"-56.11","50.72","ENGLEE (AUT)","8401538","2018-10-21 00:30","2018","10","21","00:30","7.9","","7.9","","100","","","M","16","","26","","","","99.65","","","","","","NA"
"-56.11","50.72","ENGLEE (AUT)","8401538","2018-10-21 01:30","2018","10","21","01:30","7.7","","7.7","","100","","","M","15","","24","","","","99.60","","","","","","NA"
"-56.11","50.72","ENGLEE (AUT)","8401538","2018-10-21 02:30","2018","10","21","02:30","7.9","","7.9","","100","","","M","14","","14","","","","99.46","","","","","","NA"
"-56.11","50.72","ENGLEE (AUT)","8401538","2018-10-21 03:30","2018","10","21","03:30","7.8","","7.8","","100","","","M","13","","23","","","","99.24","","","","","","NA"
"-56.11","50.72","ENGLEE (AUT)","8401538","2018-10-21 04:30","2018","10","21","04:30","9.4","","9.4","","100","","","M","25","","16","","","","99.24","","","","","","NA"
"-56.11","50.72","ENGLEE (AUT)","8401538","2018-10-21 05:30","2018","10","21","05:30","9.4","","9.4","","100","","","M","33","","12","","","","99.30","","","","","","NA"
"-56.11","50.72","ENGLEE (AUT)","8401538","2018-10-21 06:30","2018","10","21","06:30","8.0","","8.0","","100","","","M","12","","15","","","","99.33","","","","","","NA"
"-56.11","50.72","ENGLEE (AUT)","8401538","2018-10-21 07:30","2018","10","21","07:30","6.9","","6.9","","100","","","M","15","","18","","","","99.38","","","","","","NA"
"-56.11","50.72","ENGLEE (AUT)","8401538","2018-10-21 08:30","2018","10","21","08:30","7.8","","7.8","","100","","","M","9","","6","","","","99.38","","","","","","NA"
"-56.11","50.72","ENGLEE (AUT)","8401538","2018-10-21 09:30","2018","10","21","09:30","9.2","","9.2","","100","","","M","10","","7","","","","99.38","","","","","","NA"
"-56.11","50.72","ENGLEE (AUT)","8401538","2018-10-21 10:30","2018","10","21","10:30","10.7","","10.7","","100","","","M","26","","2","","","","99.40","","","","","","NA"
"-56.11","50.72","ENGLEE (AUT)","8401538","2018-10-21 11:30","2018","10","21","11:30","10.8","","10.8","","100","","","M","30","","7","","","","99.46","","","","","","NA"
"-56.11","50.72","ENGLEE (AUT)","8401538","2018-10-21 12:30","2018","10","21","12:30","10.2","","9.7","","97","","","M","11","","4","","","","99.44","","","","","","NA"
"-56.11","50.72","ENGLEE (AUT)","8401538","2018-10-21 13:30","2018","10","21","13:30","9.6","","9.1","","97","","","M","10","","7","","","","99.41","","","","","","NA"
"-56.11","50.72","ENGLEE (AUT)","8401538","2018-10-21 14:30","2018","10","21","14:30","8.5","","8.3","","99","","","M","10","","12","","","","99.44","","","","","","NA"
"-56.11","50.72","ENGLEE (AUT)","8401538","2018-10-21 15:30","2018","10","21","15:30","8.6","","8.6","","100","","","M","31","","12","","","","99.45","","","","","","NA"
"-56.11","50.72","ENGLEE (AUT)","8401538","2018-10-21 16:30","2018","10","21","16:30","8.0","","7.9","","99","","","M","32","","16","","","","99.44","","","","","","NA"
"-56.11","50.72","ENGLEE (AUT)","8401538","2018-10-21 17:30","2018","10","21","17:30","7.0","","6.7","","98","","","M","31","","16","","","","99.45","","","","","","NA"
"-56.11","50.72","ENGLEE (AUT)","8401538","2018-10-21 18:30","2018","10","21","18:30","6.6","","6.4","","99","","","M","31","","22","","","","99.50","","","","","","NA"
"-56.11","50.72","ENGLEE (AUT)","8401538","2018-10-21 19:30","2018","10","21","19:30","6.2","","5.9","","98","","","M","31","","20","","","","99.46","","","","","","NA"
"-56.11","50.72","ENGLEE (AUT)","8401538","2018-10-21 20:30","2018","10","21","20:30","5.9","","5.5","","97","","","M","31","","21","","","","99.49","","","","","","NA"
"-56.11","50.72","ENGLEE (AUT)","8401538","2018-10-21 21:30","2018","10","21","21:30","5.7","","5.4","","98","","","M","33","","13","","","","99.52","","","","","","NA"
"-56.11","50.72","ENGLEE (AUT)","8401538","2018-10-21 22:30","2018","10","21","22:30","5.4","","5.3","","99","","","M","34","","15","","","","99.48","","","","","","NA"
"-56.11","50.72","ENGLEE (AUT)","8401538","2018-10-21 23:30","2018","10","21","23:30","5.1","","5.1","","100","","","M","34","","16","","","","99.34","","","","","","NA"
"-56.11","50.72","ENGLEE (AUT)","8401538","2018-10-22 00:30","2018","10","22","00:30","4.9","","4.9","","100","","","M","34","","15","","","","99.30","","","","","","NA"
"-56.11","50.72","ENGLEE (AUT)","8401538","2018-10-22 01:30","2018","10","22","01:30","4.6","","4.6","","100","","","M","33","","25","","","","99.37","","","","","","NA"
"-56.11","50.72","ENGLEE (AUT)","8401538","2018-10-22 02:30","2018","10","22","02:30","4.2","","4.2","","100","","","M","32","","24","","","","99.41","","","","","","NA"
"-56.11","50.72","ENGLEE (AUT)","8401538","2018-10-22 03:30","2018","10","22","03:30"
"-56.11","50.72","ENGLEE (AUT)","8401538","2018-10-22 04:30","2018","10","22","04:30"
"-56.11","50.72","ENGLEE (AUT)","8401538","2018-10-22 05:30","2018","10","22","05:30","3.1","","2.9","","99","","","M","29","","30","","","","99.50","","","","","","NA"
"-56.11","50.72","ENGLEE (AUT)","8401538","2018-10-22 06:30","2018","10","22","06:30","3.1","","2.6","","96","","","M","30","","24","","","","99.59","","","","","","NA"
"-56.11","50.72","ENGLEE (AUT)","8401538","2018-10-22 07:30","2018","10","22","07:30","3.0","","2.4","","96","","","M","30","","25","","","","99.66","","","","","","NA"
"-56.11","50.72","ENGLEE (AUT)","8401538","2018-10-22 08:30","2018","10","22","08:30","3.4","","2.5","","94","","","M","31","","28","","","","99.73","","","","","","NA"
"-56.11","50.72","ENGLEE (AUT)","8401538","2018-10-22 09:30","2018","10","22","09:30","4.3","","2.8","","90","","","M","30","","25","","","","99.80","","","","","","NA"
"-56.11","50.72","ENGLEE (AUT)","8401538","2018-10-22 10:30","2018","10","22","10:30","4.4","","2.3","","87","","","M","29","","24","","","","99.87","","","","","","NA"
"-56.11","50.72","ENGLEE (AUT)","8401538","2018-10-22 11:30","2018","10","22","11:30","5.1","","3.1","","87","","","M","30","","20","","","","99.95","","","","","","NA"
"-56.11","50.72","ENGLEE (AUT)","8401538","2018-10-22 12:30","2018","10","22","12:30","5.3","","2.4","","82","","","M","28","","22","","","","99.99","","","","","","NA"
"-56.11","50.72","ENGLEE (AUT)","8401538","2018-10-22 13:30","2018","10","22","13:30","5.2","","1.6","","78","","","M","27","","27","","","","100.03","","","","","","NA"
"-56.11","50.72","ENGLEE (AUT)","8401538","2018-10-22 14:30","2018","10","22","14:30","4.7","","1.3","","79","","","M","26","","25","","","","100.13","","","","","","NA"
"-56.11","50.72","ENGLEE (AUT)","8401538","2018-10-22 15:30","2018","10","22","15:30","6.2","","1.2","","70","","","M","25","","25","","","","100.19","","","","","","NA"
"-56.11","50.72","ENGLEE (AUT)","8401538","2018-10-22 16:30","2018","10","22","16:30","3.2","","0.7","","83","","","M","25","","24","","","","100.30","","","","","","NA"
"-56.11","50.72","ENGLEE (AUT)","8401538","2018-10-22 17:30","2018","10","22","17:30","2.8","","-0.8","","77","","","M","26","","30","","","","100.39","","","","","","NA"
"-56.11","50.72","ENGLEE (AUT)","8401538","2018-10-22 18:30","2018","10","22","18:30","2.7","","-1.0","","77","","","M","25","","23","","","","100.47","","","","","","NA"
"-56.11","50.72","ENGLEE (AUT)","8401538","2018-10-22 19:30","2018","10","22","19:30","2.3","","-0.8","","80","","","M","24","","15","","","","100.51","","","","","","NA"
"-56.11","50.72","ENGLEE (AUT)","8401538","2018-10-22 20:30","2018","10","22","20:30","2.2","","-0.6","","82","","","M","20","","11","","","","100.58","","","","","","NA"
"-56.11","50.72","ENGLEE (AUT)","8401538","2018-10-22 21:30","2018","10","22","21:30","2.2","","-0.4","","83","","","M","22","","12","","","","100.62","","","","","","NA"
"-56.11","50.72","ENGLEE (AUT)","8401538","2018-10-22 22:30","2018","10","22","22:30","1.9","","-0.1","","87","","","M","19","","17","","","","100.63","","","","","","NA"
"-56.11","50.72","ENGLEE (AUT)","8401538","2018-10-22 23:30","2018","10","22","23:30","1.4","","-0.3","","88","","","M","20","","16","","","","100.68","","","","","","NA"
"-56.11","50.72","ENGLEE (AUT)","8401538","2018-10-23 00:30","2018","10","23","00:30","1.1","","-0.4","","89","","","M","19","","16","","","","100.71","","","","","","NA"
"-56.11","50.72","ENGLEE (AUT)","8401538","2018-10-23 01:30","2018","10","23","01:30","1.0","","-1.2","","86","","","M","20","","18","","","","100.73","","","","","","NA"
"-56.11","50.72","ENGLEE (AUT)","8401538","2018-10-23 02:30","2018","10","23","02:30","1.0","","-0.9","","87","","","M","20","","28","","","","100.72","","","","","","NA"
"-56.11","50.72","ENGLEE (AUT)","8401538","2018-10-23 03:30","2018","10","23","03:30","1.2","","-1.1","","84","","","M","21","","30","","","","100.74","","","","","","NA"
"-56.11","50.72","ENGLEE (AUT)","8401538","2018-10-23 04:30","2018","10","23","04:30","1.1","","-0.7","","87","","","M","21","","22","","","","100.79","","","","","","NA"
"-56.11","50.72","ENGLEE (AUT)","8401538","2018-10-23 05:30","2018","10","23","05:30","1.2","","0.5","","96","","","M","18","","21","","","","100.83","","","","","","NA"
"-56.11","50.72","ENGLEE (AUT)","8401538","2018-10-23 06:30","2018","10","23","06:30","1.3","","1.0","","98","","","M","19","","16","","","","100.89","","","","","","NA"
"-56.11","50.72","ENGLEE (AUT)","8401538","2018-10-23 07:30","2018","10","23","07:30","2.0","","1.8","","99","","","M","21","","23","","","","100.96","","","","","","NA"
"-56.11","50.72","ENGLEE (AUT)","8401538","2018-10-23 08:30","2018","10","23","08:30","2.5","","2.3","","99","","","M","23","","24","","","","101.08","","","","","","NA"
"-56.11","50.72","ENGLEE (AUT)","8401538","2018-10-23 09:30","2018","10","23","09:30","3.7","","3.2","","97","","","M","23","","27","","","","101.17","","","","","","NA"
"-56.11","50.72","ENGLEE (AUT)","8401538","2018-10-23 10:30","2018","10","23","10:30","3.8","","2.9","","94","","","M","24","","31","","","","101.27","","","","","","NA"
"-56.11","50.72","ENGLEE (AUT)","8401538","2018-10-23 11:30","2018","10","23","11:30","5.6","","2.9","","83","","","M","26","","30","","","","101.32","","","","","","NA"
"-56.11","50.72","ENGLEE (AUT)","8401538","2018-10-23 12:30","2018","10","23","12:30","5.5","","2.1","","79","","","M","25","","39","","","","101.34","","","","","","NA"
"-56.11","50.72","ENGLEE (AUT)","8401538","2018-10-23 13:30","2018","10","23","13:30","6.0","","1.9","","75","","","M","27","","41","","","","101.37","","","","","","NA"
"-56.11","50.72","ENGLEE (AUT)","8401538","2018-10-23 14:30","2018","10","23","14:30","5.9","","1.9","","75","","","M","26","","36","","","","101.49","","","","","","NA"
"-56.11","50.72","ENGLEE (AUT)","8401538","2018-10-23 15:30","2018","10","23","15:30","5.9","","1.6","","74","","","M","28","","31","","","","101.58","","","","","","NA"
"-56.11","50.72","ENGLEE (AUT)","8401538","2018-10-23 16:30","2018","10","23","16:30","4.4","","1.3","","80","","","M","25","","27","","","","101.70","","","","","","NA"
"-56.11","50.72","ENGLEE (AUT)","8401538","2018-10-23 17:30","2018","10","23","17:30","3.1","","0.8","","85","","","M","27","","15","","","","101.80","","","","","","NA"
"-56.11","50.72","ENGLEE (AUT)","8401538","2018-10-23 18:30","2018","10","23","18:30","2.6","","0.5","","86","","","M","4","","2","","","","101.90","","","","","","NA"
"-56.11","50.72","ENGLEE (AUT)","8401538","2018-10-23 19:30","2018","10","23","19:30","2.3","","0.4","","87","","","M","29","","12","","","","101.98","","","","","","NA"
"-56.11","50.72","ENGLEE (AUT)","8401538","2018-10-23 20:30","2018","10","23","20:30","2.4","","0.3","","86","","","M","27","","16","","","","102.03","","","","","","NA"
"-56.11","50.72","ENGLEE (AUT)","8401538","2018-10-23 21:30","2018","10","23","21:30","1.4","","0.0","","90","","","M","33","","8","","","","102.13","","","","","","NA"
"-56.11","50.72","ENGLEE (AUT)","8401538","2018-10-23 22:30","2018","10","23","22:30","2.3","","0.5","","88","","","M","28","","15","","","","102.17","","","","","","NA"
"-56.11","50.72","ENGLEE (AUT)","8401538","2018-10-23 23:30","2018","10","23","23:30","1.6","","0.4","","92","","","M","32","","9","","","","102.23","","","","","","NA"
"-56.11","50.72","ENGLEE (AUT)","8401538","2018-10-24 00:30","2018","10","24","00:30","1.2","","0.4","","95","","","M","31","","5","","","","102.29","","","","","","NA"
"-56.11","50.72","ENGLEE (AUT)","8401538","2018-10-24 01:30","2018","10","24","01:30","1.4","","0.6","","94","","","M","22","","6","","","","102.32","","","","","","NA"
"-56.11","50.72","ENGLEE (AUT)","8401538","2018-10-24 02:30","2018","10","24","02:30","0.5","","-0.1","","95","","","M","33","","6","","","","102.37","","","","","","NA"
"-56.11","50.72","ENGLEE (AUT)","8401538","2018-10-24 03:30","2018","10","24","03:30","0.0","","-0.3","","98","","","M","36","","9","","","","102.38","","","","-3","","NA"
"-56.11","50.72","ENGLEE (AUT)","8401538","2018-10-24 04:30","2018","10","24","04:30","-0.6","","-0.7","","99","","","M","33","","10","","","","102.45","","","","-4","","NA"
"-56.11","50.72","ENGLEE (AUT)","8401538","2018-10-24 05:30","2018","10","24","05:30","-0.3","","-0.3","","100","","","M","30","","8","","","","102.55","","","","-3","","NA"
"-56.11","50.72","ENGLEE (AUT)","8401538","2018-10-24 06:30","2018","10","24","06:30","-0.1","","-0.1","","100","","","M","35","","11","","","","102.52","","","","-4","","NA"
"-56.11","50.72","ENGLEE (AUT)","8401538","2018-10-24 07:30","2018","10","24","07:30","-0.1","","-0.1","","100","","","M","31","","5","","","","102.65","","","","-2","","NA"
"-56.11","50.72","ENGLEE (AUT)","8401538","2018-10-24 08:30","2018","10","24","08:30","0.9","","0.9","","100","","","M","32","","6","","","","102.63","","","","","","NA"
"-56.11","50.72","ENGLEE (AUT)","8401538","2018-10-24 09:30","2018","10","24","09:30","3.6","","3.6","","100","","","M","9","","6","","","","102.64","","","","","","NA"
"-56.11","50.72","ENGLEE (AUT)","8401538","2018-10-24 10:30","2018","10","24","10:30","4.4","","3.8","","96","","","M","10","","12","","","","102.65","","","","","","NA"
"-56.11","50.72","ENGLEE (AUT)","8401538","2018-10-24 11:30","2018","10","24","11:30","4.7","","4.0","","96","","","M","10","","9","","","","102.64","","","","","","NA"
"-56.11","50.72","ENGLEE (AUT)","8401538","2018-10-24 12:30","2018","10","24","12:30","4.5","","3.7","","94","","","M","11","","12","","","","102.56","","","","","","NA"
"-56.11","50.72","ENGLEE (AUT)","8401538","2018-10-24 13:30","2018","10","24","13:30","3.7","","3.1","","96","","","M","10","","16","","","","102.53","","","","","","NA"
"-56.11","50.72","ENGLEE (AUT)","8401538","2018-10-24 14:30","2018","10","24","14:30","2.9","","2.5","","97","","","M","9","","27","","","","102.42","","","","","","NA"
"-56.11","50.72","ENGLEE (AUT)","8401538","2018-10-24 15:30","2018","10","24","15:30","2.9","","2.5","","97","","","M","10","","26","","","","102.34","","","","","","NA"
"-56.11","50.72","ENGLEE (AUT)","8401538","2018-10-24 16:30","2018","10","24","16:30","2.8","","2.5","","98","","","M","10","","20","","","","102.36","","","","","","NA"
"-56.11","50.72","ENGLEE (AUT)","8401538","2018-10-24 17:30","2018","10","24","17:30","2.8","","2.7","","99","","","M","11","","21","","","","102.33","","","","","","NA"
"-56.11","50.72","ENGLEE (AUT)","8401538","2018-10-24 18:30","2018","10","24","18:30","2.9","","2.8","","99","","","M","11","","26","","","","102.24","","","","","","NA"
"-56.11","50.72","ENGLEE (AUT)","8401538","2018-10-24 19:30","2018","10","24","19:30","3.0","","3.0","","100","","","M","10","","30","","","","102.14","","","","","","NA"
"-56.11","50.72","ENGLEE (AUT)","8401538","2018-10-24 20:30","2018","10","24","20:30","2.5","","2.5","","100","","","M","11","","25","","","","102.08","","","","","","NA"
"-56.11","50.72","ENGLEE (AUT)","8401538","2018-10-24 21:30","2018","10","24","21:30","1.9","","1.9","","100","","","M","10","","24","","","","101.99","","","","","","NA"
"-56.11","50.72","ENGLEE (AUT)","8401538","2018-10-24 22:30","2018","10","24","22:30","1.6","","1.6","","100","","","M","10","","27","","","","101.89","","","","","","NA"
"-56.11","50.72","ENGLEE (AUT)","8401538","2018-10-24 23:30","2018","10","24","23:30","1.8","","1.8","","100","","","M","11","","26","","","","101.78","","","","","","NA"
"-56.11","50.72","ENGLEE (AUT)","8401538","2018-10-25 00:30","2018","10","25","00:30","1.7","","1.7","","100","","","M","9","","39","","","","101.63","","","","","","NA"
"-56.11","50.72","ENGLEE (AUT)","8401538","2018-10-25 01:30","2018","10","25","01:30","2.3","","2.3","","100","","","M","11","","29","","","","101.56","","","","","","NA"
"-56.11","50.72","ENGLEE (AUT)","8401538","2018-10-25 02:30","2018","10","25","02:30","2.6","","2.6","","100","","","M","10","","34","","","","101.39","","","","","","NA"
"-56.11","50.72","ENGLEE (AUT)","8401538","2018-10-25 03:30","2018","10","25","03:30","3.0","","3.0","","100","","","M","11","","29","","","","101.26","","","","","","NA"
"-56.11","50.72","ENGLEE (AUT)","8401538","2018-10-25 04:30","2018","10","25","04:30","3.0","","3.0","","100","","","M","11","","26","","","","101.10","","","","","","NA"
"-56.11","50.72","ENGLEE (AUT)","8401538","2018-10-25 05:30","2018","10","25","05:30","3.3","","3.3","","100","","","M","10","","35","","","","100.89","","","","","","NA"
"-56.11","50.72","ENGLEE (AUT)","8401538","2018-10-25 06:30","2018","10","25","06:30","3.4","","3.4","","100","","","M","10","","35","","","","100.82","","","","","","NA"
"-56.11","50.72","ENGLEE (AUT)","8401538","2018-10-25 07:30","2018","10","25","07:30","3.5","","3.5","","100","","","M","10","","33","","","","100.66","","","","","","NA"
"-56.11","50.72","ENGLEE (AUT)","8401538","2018-10-25 08:30","2018","10","25","08:30","3.7","","3.7","","100","","","M","10","","35","","","","100.49","","","","","","NA"
"-56.11","50.72","ENGLEE (AUT)","8401538","2018-10-25 09:30","2018","10","25","09:30","3.9","","3.9","","100","","","M","9","","31","","","","100.34","","","","","","NA"
"-56.11","50.72","ENGLEE (AUT)","8401538","2018-10-25 10:30","2018","10","25","10:30","4.2","","4.2","","100","","","M","10","","33","","","","100.19","","","","","","NA"
"-56.11","50.72","ENGLEE (AUT)","8401538","2018-10-25 11:30","2018","10","25","11:30","4.4","","4.4","","100","","","M","9","","37","","","","99.88","","","","","","NA"
"-56.11","50.72","ENGLEE (AUT)","8401538","2018-10-25 12:30","2018","10","25","12:30","4.6","","4.6","","100","","","M","10","","25","","","","99.87","","","","","","NA"
"-56.11","50.72","ENGLEE (AUT)","8401538","2018-10-25 13:30","2018","10","25","13:30","4.5","","4.5","","100","","","M","9","","14","","","","99.71","","","","","","NA"
"-56.11","50.72","ENGLEE (AUT)","8401538","2018-10-25 14:30","2018","10","25","14:30","4.5","","4.5","","100","","","M","8","","17","","","","99.55","","","","","","NA"
"-56.11","50.72","ENGLEE (AUT)","8401538","2018-10-25 15:30","2018","10","25","15:30","4.7","","4.7","","100","","","M","7","","16","","","","99.44","","","","","","NA"
"-56.11","50.72","ENGLEE (AUT)","8401538","2018-10-25 16:30","2018","10","25","16:30","4.6","","4.6","","100","","","M","6","","18","","","","99.36","","","","","","NA"
"-56.11","50.72","ENGLEE (AUT)","8401538","2018-10-25 17:30","2018","10","25","17:30","4.8","","4.8","","100","","","M","8","","6","","","","99.32","","","","","","NA"
"-56.11","50.72","ENGLEE (AUT)","8401538","2018-10-25 18:30","2018","10","25","18:30","5.1","","5.1","","100","","","M","7","","9","","","","99.24","","","","","","NA"
"-56.11","50.72","ENGLEE (AUT)","8401538","2018-10-25 19:30","2018","10","25","19:30","5.2","","5.2","","100","","","M","31","","2","","","","99.19","","","","","","NA"
"-56.11","50.72","ENGLEE (AUT)","8401538","2018-10-25 20:30","2018","10","25","20:30","4.8","","4.8","","100","","","M","","","0","","","","99.10","","","","","","NA"
"-56.11","50.72","ENGLEE (AUT)","8401538","2018-10-25 21:30","2018","10","25","21:30","4.7","","4.7","","100","","","M","30","","6","","","","99.06","","","","","","NA"
"-56.11","50.72","ENGLEE (AUT)","8401538","2018-10-25 22:30","2018","10","25","22:30","4.7","","4.7","","100","","","M","1","","4","","","","98.98","","","","","","NA"
"-56.11","50.72","ENGLEE (AUT)","8401538","2018-10-25 23:30","2018","10","25","23:30","4.7","","4.7","","100","","","M","22","","3","","","","98.90","","","","","","NA"
"-56.11","50.72","ENGLEE (AUT)","8401538","2018-10-26 00:30","2018","10","26","00:30","4.3","","","M","","M","","M","11","","4","","","","98.81","","","","","","NA"
"-56.11","50.72","ENGLEE (AUT)","8401538","2018-10-26 01:30","2018","10","26","01:30","4.3","","","M","","M","","M","32","","5","","","","98.61","","","","","","NA"
"-56.11","50.72","ENGLEE (AUT)","8401538","2018-10-26 02:30","2018","10","26","02:30","4.5","","","M","","M","","M","33","","10","","","","98.57","","","","","","NA"
"-56.11","50.72","ENGLEE (AUT)","8401538","2018-10-26 03:30","2018","10","26","03:30","4.9","","4.9","","100","","","M","27","","10","","","","98.57","","","","","","NA"
"-56.11","50.72","ENGLEE (AUT)","8401538","2018-10-26 04:30","2018","10","26","04:30","4.5","","4.5","","100","","","M","30","","9","","","","98.53","","","","","","NA"
"-56.11","50.72","ENGLEE (AUT)","8401538","2018-10-26 05:30","2018","10","26","05:30","4.0","","","M","","M","","M","23","","9","","","","98.52","","","","","","NA"
"-56.11","50.72","ENGLEE (AUT)","8401538","2018-10-26 06:30","2018","10","26","06:30","3.4","","3.4","","100","","","M","25","","15","","","","98.54","","","","","","NA"
"-56.11","50.72","ENGLEE (AUT)","8401538","2018-10-26 07:30","2018","10","26","07:30","2.9","","2.9","","100","","","M","21","","15","","","","98.60","","","","","","NA"
"-56.11","50.72","ENGLEE (AUT)","8401538","2018-10-26 08:30","2018","10","26","08:30","3.2","","3.2","","100","","","M","19","","32","","","","98.62","","","","","","NA"
"-56.11","50.72","ENGLEE (AUT)","8401538","2018-10-26 09:30","2018","10","26","09:30","3.8","","3.8","","100","","","M","18","","35","","","","98.65","","","","","","NA"
"-56.11","50.72","ENGLEE (AUT)","8401538","2018-10-26 10:30","2018","10","26","10:30","3.9","","3.3","","96","","","M","19","","39","","","","98.71","","","","","","NA"
"-56.11","50.72","ENGLEE (AUT)","8401538","2018-10-26 11:30","2018","10","26","11:30","4.0","","3.4","","96","","","M","19","","40","","","","98.76","","","","","","NA"
"-56.11","50.72","ENGLEE (AUT)","8401538","2018-10-26 12:30","2018","10","26","12:30","4.5","","2.1","","84","","","M","22","","33","","","","98.84","","","","","","NA"
"-56.11","50.72","ENGLEE (AUT)","8401538","2018-10-26 13:30","2018","10","26","13:30","4.6","","1.4","","80","","","M","22","","46","","","","98.92","","","","","","NA"
"-56.11","50.72","ENGLEE (AUT)","8401538","2018-10-26 14:30","2018","10","26","14:30","5.9","","1.7","","75","","","M","21","","41","","","","99.05","","","","","","NA"
"-56.11","50.72","ENGLEE (AUT)","8401538","2018-10-26 15:30","2018","10","26","15:30","5.0","","0.6","","73","","","M","21","","34","","","","99.17","","","","","","NA"
"-56.11","50.72","ENGLEE (AUT)","8401538","2018-10-26 16:30","2018","10","26","16:30","4.3","","0.6","","77","","","M","20","","27","","","","99.31","","","","","","NA"
"-56.11","50.72","ENGLEE (AUT)","8401538","2018-10-26 17:30","2018","10","26","17:30","3.0","","0.0","","80","","","M","23","","21","","","","99.45","","","","","","NA"
"-56.11","50.72","ENGLEE (AUT)","8401538","2018-10-26 18:30","2018","10","26","18:30","2.3","","0.2","","86","","","M","20","","21","","","","99.54","","","","","","NA"
"-56.11","50.72","ENGLEE (AUT)","8401538","2018-10-26 19:30","2018","10","26","19:30","2.5","","-0.3","","82","","","M","21","","29","","","","99.65","","","","","","NA"
"-56.11","50.72","ENGLEE (AUT)","8401538","2018-10-26 20:30","2018","10","26","20:30","2.1","","-0.7","","82","","","M","21","","31","","","","99.76","","","","","","NA"
"-56.11","50.72","ENGLEE (AUT)","8401538","2018-10-26 21:30","2018","10","26","21:30","1.7","","-1.0","","83","","","M","20","","19","","","","99.93","","","","","","NA"
"-56.11","50.72","ENGLEE (AUT)","8401538","2018-10-26 22:30","2018","10","26","22:30","1.5","","-1.0","","84","","","M","20","","21","","","","100.01","","","","","","NA"
"-56.11","50.72","ENGLEE (AUT)","8401538","2018-10-26 23:30","2018","10","26","23:30","1.8","","-0.3","","86","","","M","21","","18","","","","100.15","","","","","","NA"
"-56.11","50.72","ENGLEE (AUT)","8401538","2018-10-27 00:30","2018","10","27","00:30","2.0","","-0.1","","86","","","M","22","","22","","","","100.29","","","","","","NA"
"-56.11","50.72","ENGLEE (AUT)","8401538","2018-10-27 01:30","2018","10","27","01:30","1.7","","0.6","","93","","","M","22","","24","","","","100.43","","","","","","NA"
"-56.11","50.72","ENGLEE (AUT)","8401538","2018-10-27 02:30","2018","10","27","02:30","1.7","","0.9","","95","","","M","21","","15","","","","100.61","","","","","","NA"
"-56.11","50.72","ENGLEE (AUT)","8401538","2018-10-27 03:30","2018","10","27","03:30","1.4","","1.0","","97","","","M","24","","18","","","","100.74","","","","","","NA"
"-56.11","50.72","ENGLEE (AUT)","8401538","2018-10-27 04:30","2018","10","27","04:30","1.2","","0.1","","93","","","M","28","","19","","","","100.92","","","","","","NA"
"-56.11","50.72","ENGLEE (AUT)","8401538","2018-10-27 05:30","2018","10","27","05:30","0.7","","-0.2","","93","","","M","25","","17","","","","101.06","","","","","","NA"
"-56.11","50.72","ENGLEE (AUT)","8401538","2018-10-27 06:30","2018","10","27","06:30","1.3","","-0.1","","90","","","M","27","","35","","","","101.17","","","","","","NA"
"-56.11","50.72","ENGLEE (AUT)","8401538","2018-10-27 07:30","2018","10","27","07:30","1.2","","-0.2","","91","","","M","27","","22","","","","101.34","","","","","","NA"
"-56.11","50.72","ENGLEE (AUT)","8401538","2018-10-27 08:30","2018","10","27","08:30","2.0","","-0.6","","83","","","M","27","","42","","","","101.43","","","","","","NA"
"-56.11","50.72","ENGLEE (AUT)","8401538","2018-10-27 09:30","2018","10","27","09:30","2.4","","-0.3","","82","","","M","27","","42","","","","101.53","","","","","","NA"
"-56.11","50.72","ENGLEE (AUT)","8401538","2018-10-27 10:30","2018","10","27","10:30","2.5","","-0.6","","80","","","M","28","","44","","","","101.58","","","","","","NA"
"-56.11","50.72","ENGLEE (AUT)","8401538","2018-10-27 11:30","2018","10","27","11:30","1.4","","-1.9","","78","","","M","28","","35","","","","101.72","","","","","","NA"
"-56.11","50.72","ENGLEE (AUT)","8401538","2018-10-27 12:30","2018","10","27","12:30","1.2","","-2.3","","78","","","M","26","","36","","","","101.83","","","","","","NA"
"-56.11","50.72","ENGLEE (AUT)","8401538","2018-10-27 13:30","2018","10","27","13:30","1.7","","-3.4","","69","","","M","26","","56","","","","101.91","","","","","","NA"
"-56.11","50.72","ENGLEE (AUT)","8401538","2018-10-27 14:30","2018","10","27","14:30","0.9","","-4.1","","69","","","M","28","","53","","","","102.05","","","","","","NA"
"-56.11","50.72","ENGLEE (AUT)","8401538","2018-10-27 15:30","2018","10","27","15:30","0.3","","-4.1","","73","","","M","28","","49","","","","102.18","","","","","","NA"
"-56.11","50.72","ENGLEE (AUT)","8401538","2018-10-27 16:30","2018","10","27","16:30","-0.4","","-4.8","","72","","","M","29","","53","","","","102.35","","","","-9","","NA"
"-56.11","50.72","ENGLEE (AUT)","8401538","2018-10-27 17:30","2018","10","27","17:30","-1.5","","-5.5","","74","","","M","29","","29","","","","102.54","","","","-8","","NA"
"-56.11","50.72","ENGLEE (AUT)","8401538","2018-10-27 18:30","2018","10","27","18:30","-1.9","","-6.1","","73","","","M","28","","25","","","","102.66","","","","-8","","NA"
"-56.11","50.72","ENGLEE (AUT)","8401538","2018-10-27 19:30","2018","10","27","19:30","-1.7","","-6.1","","72","","","M","28","","30","","","","102.70","","","","-9","","NA"
"-56.11","50.72","ENGLEE (AUT)","8401538","2018-10-27 20:30","2018","10","27","20:30","-1.6","","-5.9","","72","","","M","29","","40","","","","102.74","","","","-10","","NA"
"-56.11","50.72","ENGLEE (AUT)","8401538","2018-10-27 21:30","2018","10","27","21:30","-2.0","","-6.1","","74","","","M","28","","30","","","","102.83","","","","-9","","NA"
"-56.11","50.72","ENGLEE (AUT)","8401538","2018-10-27 22:30","2018","10","27","22:30","-2.0","","-6.1","","73","","","M","26","","26","","","","102.94","","","","-9","","NA"
"-56.11","50.72","ENGLEE (AUT)","8401538","2018-10-27 23:30","2018","10","27","23:30","-1.5","","-6.3","","70","","","M","28","","19","","","","103.01","","","","-7","","NA"
"-56.11","50.72","ENGLEE (AUT)","8401538","2018-10-28 00:30","2018","10","28","00:30","-1.5","","-6.3","","70","","","M","26","","17","","","","103.03","","","","-7","","NA"
"-56.11","50.72","ENGLEE (AUT)","8401538","2018-10-28 01:30","2018","10","28","01:30","-1.9","","-5.9","","74","","","M","27","","13","","","","103.05","","","","-6","","NA"
"-56.11","50.72","ENGLEE (AUT)","8401538","2018-10-28 02:30","2018","10","28","02:30","-2.0","","-5.5","","77","","","M","24","","20","","","","103.10","","","","-8","","NA"
"-56.11","50.72","ENGLEE (AUT)","8401538","2018-10-28 03:30","2018","10","28","03:30","-2.0","","-5.4","","78","","","M","25","","20","","","","103.16","","","","-8","","NA"
"-56.11","50.72","ENGLEE (AUT)","8401538","2018-10-28 04:30","2018","10","28","04:30","-2.2","","-5.4","","79","","","M","24","","19","","","","103.12","","","","-8","","NA"
"-56.11","50.72","ENGLEE (AUT)","8401538","2018-10-28 05:30","2018","10","28","05:30","-1.9","","-5.5","","76","","","M","27","","17","","","","103.10","","","","-7","","NA"
"-56.11","50.72","ENGLEE (AUT)","8401538","2018-10-28 06:30","2018","10","28","06:30","-1.9","","-5.2","","78","","","M","28","","14","","","","103.11","","","","-7","","NA"
"-56.11","50.72","ENGLEE (AUT)","8401538","2018-10-28 07:30","2018","10","28","07:30","-2.0","","-5.1","","79","","","M","29","","10","","","","103.20","","","","-6","","NA"
"-56.11","50.72","ENGLEE (AUT)","8401538","2018-10-28 08:30","2018","10","28","08:30","-1.1","","-5.0","","75","","","M","27","","6","","","","103.19","","","","-3","","NA"
"-56.11","50.72","ENGLEE (AUT)","8401538","2018-10-28 09:30","2018","10","28","09:30","-0.6","","-4.8","","73","","","M","24","","5","","","","103.17","","","","-2","","NA"
"-56.11","50.72","ENGLEE (AUT)","8401538","2018-10-28 10:30","2018","10","28","10:30","0.0","","-5.9","","65","","","M","10","","1","","","","103.13","","","","0","","NA"
"-56.11","50.72","ENGLEE (AUT)","8401538","2018-10-28 11:30","2018","10","28","11:30","0.3","","-4.4","","70","","","M","14","","7","","","","103.09","","","","","","NA"
"-56.11","50.72","ENGLEE (AUT)","8401538","2018-10-28 12:30","2018","10","28","12:30","0.7","","-3.4","","74","","","M","13","","8","","","","103.02","","","","","","NA"
"-56.11","50.72","ENGLEE (AUT)","8401538","2018-10-28 13:30","2018","10","28","13:30","0.7","","-2.6","","79","","","M","12","","11","","","","102.98","","","","","","NA"
"-56.11","50.72","ENGLEE (AUT)","8401538","2018-10-28 14:30","2018","10","28","14:30","0.8","","-1.7","","84","","","M","13","","14","","","","102.90","","","","","","NA"
"-56.11","50.72","ENGLEE (AUT)","8401538","2018-10-28 15:30","2018","10","28","15:30","0.3","","-0.5","","94","","","M","12","","13","","","","102.79","","","","","","NA"
"-56.11","50.72","ENGLEE (AUT)","8401538","2018-10-28 16:30","2018","10","28","16:30","0.4","","0.1","","98","","","M","11","","17","","","","102.70","","","","","","NA"
"-56.11","50.72","ENGLEE (AUT)","8401538","2018-10-28 17:30","2018","10","28","17:30","0.5","","0.5","","100","","","M","12","","17","","","","102.62","","","","","","NA"
"-56.11","50.72","ENGLEE (AUT)","8401538","2018-10-28 18:30","2018","10","28","18:30","0.8","","0.8","","100","","","M","11","","17","","","","102.56","","","","","","NA"
"-56.11","50.72","ENGLEE (AUT)","8401538","2018-10-28 19:30","2018","10","28","19:30","1.0","","1.0","","100","","","M","11","","22","","","","102.46","","","","","","NA"
"-56.11","50.72","ENGLEE (AUT)","8401538","2018-10-28 20:30","2018","10","28","20:30","1.2","","1.2","","100","","","M","11","","25","","","","102.31","","","","","","NA"
"-56.11","50.72","ENGLEE (AUT)","8401538","2018-10-28 21:30","2018","10","28","21:30","1.3","","1.3","","100","","","M","10","","21","","","","102.25","","","","","","NA"
"-56.11","50.72","ENGLEE (AUT)","8401538","2018-10-28 22:30","2018","10","28","22:30","1.6","","1.6","","100","","","M","11","","23","","","","102.06","","","","","","NA"
"-56.11","50.72","ENGLEE (AUT)","8401538","2018-10-28 23:30","2018","10","28","23:30","1.9","","1.9","","100","","","M","11","","20","","","","101.95","","","","","","NA"
"-56.11","50.72","ENGLEE (AUT)","8401538","2018-10-29 00:30","2018","10","29","00:30","2.4","","2.4","","100","","","M","11","","28","","","","101.74","","","","","","NA"
"-56.11","50.72","ENGLEE (AUT)","8401538","2018-10-29 01:30","2018","10","29","01:30","2.5","","2.5","","100","","","M","11","","31","","","","101.53","","","","","","NA"
"-56.11","50.72","ENGLEE (AUT)","8401538","2018-10-29 02:30","2018","10","29","02:30","2.4","","2.4","","100","","","M","10","","34","","","","101.36","","","","","","NA"
"-56.11","50.72","ENGLEE (AUT)","8401538","2018-10-29 03:30","2018","10","29","03:30","2.7","","","M","","M","","M","10","","34","","","","101.17","","","","","","NA"
"-56.11","50.72","ENGLEE (AUT)","8401538","2018-10-29 04:30","2018","10","29","04:30","3.1","","","M","","M","","M","10","","30","","","","100.96","","","","","","NA"
"-56.11","50.72","ENGLEE (AUT)","8401538","2018-10-29 05:30","2018","10","29","05:30","3.2","","","M","","M","","M","10","","21","","","","100.80","","","","","","NA"
"-56.11","50.72","ENGLEE (AUT)","8401538","2018-10-29 06:30","2018","10","29","06:30","3.4","","3.4","","100","","","M","10","","22","","","","100.62","","","","","","NA"
"-56.11","50.72","ENGLEE (AUT)","8401538","2018-10-29 07:30","2018","10","29","07:30","3.7","","3.7","","100","","","M","15","","8","","","","100.51","","","","","","NA"
"-56.11","50.72","ENGLEE (AUT)","8401538","2018-10-29 08:30","2018","10","29","08:30","4.1","","4.1","","100","","","M","14","","11","","","","100.35","","","","","","NA"
"-56.11","50.72","ENGLEE (AUT)","8401538","2018-10-29 09:30","2018","10","29","09:30","4.3","","4.3","","100","","","M","12","","6","","","","100.25","","","","","","NA"
"-56.11","50.72","ENGLEE (AUT)","8401538","2018-10-29 10:30","2018","10","29","10:30","5.4","","5.4","","100","","","M","0","","1","","","","100.16","","","","","","NA"
"-56.11","50.72","ENGLEE (AUT)","8401538","2018-10-29 11:30","2018","10","29","11:30","6.3","","6.3","","100","","","M","34","","2","","","","100.16","","","","","","NA"
"-56.11","50.72","ENGLEE (AUT)","8401538","2018-10-29 12:30","2018","10","29","12:30","6.4","","6.4","","100","","","M","33","","5","","","","100.18","","","","","","NA"
"-56.11","50.72","ENGLEE (AUT)","8401538","2018-10-29 13:30","2018","10","29","13:30","8.1","","8.1","","100","","","M","11","","6","","","","100.19","","","","","","NA"
"-56.11","50.72","ENGLEE (AUT)","8401538","2018-10-29 14:30","2018","10","29","14:30","9.9","","9.4","","97","","","M","34","","4","","","","100.27","","","","","","NA"
"-56.11","50.72","ENGLEE (AUT)","8401538","2018-10-29 15:30","2018","10","29","15:30","9.2","","8.1","","93","","","M","2","","16","","","","100.41","","","","","","NA"
"-56.11","50.72","ENGLEE (AUT)","8401538","2018-10-29 16:30","2018","10","29","16:30","7.5","","7.1","","97","","","M","6","","4","","","","100.51","","","","","","NA"
"-56.11","50.72","ENGLEE (AUT)","8401538","2018-10-29 17:30","2018","10","29","17:30","4.9","","4.8","","99","","","M","10","","6","","","","100.59","","","","","","NA"
"-56.11","50.72","ENGLEE (AUT)","8401538","2018-10-29 18:30","2018","10","29","18:30","6.7","","6.7","","100","","","M","25","","17","","","","100.60","","","","","","NA"
"-56.11","50.72","ENGLEE (AUT)","8401538","2018-10-29 19:30","2018","10","29","19:30","7.3","","7.3","","100","","","M","24","","3","","","","100.66","","","","","","NA"
"-56.11","50.72","ENGLEE (AUT)","8401538","2018-10-29 20:30","2018","10","29","20:30","6.4","","6.4","","100","","","M","13","","3","","","","100.64","","","","","","NA"
"-56.11","50.72","ENGLEE (AUT)","8401538","2018-10-29 21:30","2018","10","29","21:30","5.6","","5.6","","100","","","M","10","","10","","","","100.68","","","","","","NA"
"-56.11","50.72","ENGLEE (AUT)","8401538","2018-10-29 22:30","2018","10","29","22:30","5.6","","5.6","","100","","","M","13","","5","","","","100.59","","","","","","NA"
"-56.11","50.72","ENGLEE (AUT)","8401538","2018-10-29 23:30","2018","10","29","23:30","6.2","","6.2","","100","","","M","17","","6","","","","100.53","","","","","","NA"
"-56.11","50.72","ENGLEE (AUT)","8401538","2018-10-30 00:30","2018","10","30","00:30","4.6","","4.6","","100","","","M","10","","13","","","","100.57","","","","","","NA"
"-56.11","50.72","ENGLEE (AUT)","8401538","2018-10-30 01:30","2018","10","30","01:30","5.0","","5.0","","100","","","M","11","","14","","","","100.55","","","","","","NA"
"-56.11","50.72","ENGLEE (AUT)","8401538","2018-10-30 02:30","2018","10","30","02:30","5.5","","5.5","","100","","","M","10","","8","","","","100.55","","","","","","NA"
"-56.11","50.72","ENGLEE (AUT)","8401538","2018-10-30 03:30","2018","10","30","03:30","4.8","","4.8","","100","","","M","9","","13","","","","100.48","","","","","","NA"
"-56.11","50.72","ENGLEE (AUT)","8401538","2018-10-30 04:30","2018","10","30","04:30","4.5","","4.5","","100","","","M","9","","15","","","","100.43","","","","","","NA"
"-56.11","50.72","ENGLEE (AUT)","8401538","2018-10-30 05:30","2018","10","30","05:30","4.3","","4.3","","100","","","M","10","","8","","","","100.43","","","","","","NA"
"-56.11","50.72","ENGLEE (AUT)","8401538","2018-10-30 06:30","2018","10","30","06:30","4.5","","4.5","","100","","","M","10","","10","","","","100.40","","","","","","NA"
"-56.11","50.72","ENGLEE (AUT)","8401538","2018-10-30 07:30","2018","10","30","07:30","5.1","","5.1","","100","","","M","15","","2","","","","100.39","","","","","","NA"
"-56.11","50.72","ENGLEE (AUT)","8401538","2018-10-30 08:30","2018","10","30","08:30","4.5","","4.5","","100","","","M","9","","15","","","","100.37","","","","","","NA"
"-56.11","50.72","ENGLEE (AUT)","8401538","2018-10-30 09:30","2018","10","30","09:30","5.6","","5.6","","100","","","M","10","","5","","","","100.34","","","","","","NA"
"-56.11","50.72","ENGLEE (AUT)","8401538","2018-10-30 10:30","2018","10","30","10:30","9.1","","9.1","","100","","","M","10","","11","","","","100.29","","","","","","NA"
"-56.11","50.72","ENGLEE (AUT)","8401538","2018-10-30 11:30","2018","10","30","11:30","8.4","","8.1","","98","","","M","10","","8","","","","100.25","","","","","","NA"
"-56.11","50.72","ENGLEE (AUT)","8401538","2018-10-30 12:30","2018","10","30","12:30","7.7","","7.4","","98","","","M","10","","4","","","","100.21","","","","","","NA"
"-56.11","50.72","ENGLEE (AUT)","8401538","2018-10-30 13:30","2018","10","30","13:30","6.4","","6.0","","98","","","M","10","","4","","","","100.19","","","","","","NA"
"-56.11","50.72","ENGLEE (AUT)","8401538","2018-10-30 14:30","2018","10","30","14:30","5.5","","5.3","","99","","","M","12","","8","","","","100.21","","","","","","NA"
"-56.11","50.72","ENGLEE (AUT)","8401538","2018-10-30 15:30","2018","10","30","15:30","6.0","","6.0","","100","","","M","33","","2","","","","100.21","","","","","","NA"
"-56.11","50.72","ENGLEE (AUT)","8401538","2018-10-30 16:30","2018","10","30","16:30","6.6","","6.6","","100","","","M","34","","8","","","","100.17","","","","","","NA"
"-56.11","50.72","ENGLEE (AUT)","8401538","2018-10-30 17:30","2018","10","30","17:30","7.1","","7.1","","100","","","M","34","","10","","","","100.16","","","","","","NA"
"-56.11","50.72","ENGLEE (AUT)","8401538","2018-10-30 18:30","2018","10","30","18:30","7.1","","7.1","","100","","","M","34","","7","","","","100.19","","","","","","NA"
"-56.11","50.72","ENGLEE (AUT)","8401538","2018-10-30 19:30","2018","10","30","19:30","5.4","","5.4","","100","","","M","8","","8","","","","100.20","","","","","","NA"
"-56.11","50.72","ENGLEE (AUT)","8401538","2018-10-30 20:30","2018","10","30","20:30","5.1","","5.1","","100","","","M","3","","8","","","","100.23","","","","","","NA"
"-56.11","50.72","ENGLEE (AUT)","8401538","2018-10-30 21:30","2018","10","30","21:30","5.2","","5.2","","100","","","M","34","","2","","","","100.28","","","","","","NA"
"-56.11","50.72","ENGLEE (AUT)","8401538","2018-10-30 22:30","2018","10","30","22:30","5.4","","5.4","","100","","","M","33","","11","","","","100.26","","","","","","NA"
"-56.11","50.72","ENGLEE (AUT)","8401538","2018-10-30 23:30","2018","10","30","23:30","4.9","","4.9","","100","","","M","34","","10","","","","100.23","","","","","","NA"
"-56.11","50.72","ENGLEE (AUT)","8401538","2018-10-31 00:30","2018","10","31","00:30","4.2","","4.2","","100","","","M","33","","14","","","","100.26","","","","","","NA"
"-56.11","50.72","ENGLEE (AUT)","8401538","2018-10-31 01:30","2018","10","31","01:30","3.8","","3.8","","100","","","M","33","","15","","","","100.25","","","","","","NA"
"-56.11","50.72","ENGLEE (AUT)","8401538","2018-10-31 02:30","2018","10","31","02:30","3.5","","3.5","","100","","","M","33","","20","","","","100.28","","","","","","NA"
"-56.11","50.72","ENGLEE (AUT)","8401538","2018-10-31 03:30","2018","10","31","03:30","3.3","","3.3","","100","","","M","33","","22","","","","100.32","","","","","","NA"
"-56.11","50.72","ENGLEE (AUT)","8401538","2018-10-31 04:30","2018","10","31","04:30","3.2","","3.2","","100","","","M","33","","21","","","","100.37","","","","","","NA"
"-56.11","50.72","ENGLEE (AUT)","8401538","2018-10-31 05:30","2018","10","31","05:30","3.0","","3.0","","100","","","M","33","","22","","","","100.45","","","","","","NA"
"-56.11","50.72","ENGLEE (AUT)","8401538","2018-10-31 06:30","2018","10","31","06:30","2.8","","","M","","M","","M","33","","19","","","","100.48","","","","","","NA"
"-56.11","50.72","ENGLEE (AUT)","8401538","2018-10-31 07:30","2018","10","31","07:30","2.8","","","M","","M","","M","33","","18","","","","100.56","","","","","","NA"
"-56.11","50.72","ENGLEE (AUT)","8401538","2018-10-31 08:30","2018","10","31","08:30","3.0","","","M","","M","","M","33","","20","","","","100.60","","","","","","NA"
"-56.11","50.72","ENGLEE (AUT)","8401538","2018-10-31 09:30","2018","10","31","09:30","3.2","","","M","","M","","M","33","","14","","","","100.65","","","","","","NA"
"-56.11","50.72","ENGLEE (AUT)","8401538","2018-10-31 10:30","2018","10","31","10:30","3.5","","","M","","M","","M","33","","6","","","","100.71","","","","","","NA"
"-56.11","50.72","ENGLEE (AUT)","8401538","2018-10-31 11:30","2018","10","31","11:30","4.0","","4.0","","100","","","M","1","","6","","","","100.74","","","","","","NA"
"-56.11","50.72","ENGLEE (AUT)","8401538","2018-10-31 12:30","2018","10","31","12:30","3.5","","3.5","","100","","","M","2","","10","","","","100.74","","","","","","NA"
"-56.11","50.72","ENGLEE (AUT)","8401538","2018-10-31 13:30","2018","10","31","13:30","3.2","","","M","","M","","M","4","","13","","","","100.81","","","","","","NA"
"-56.11","50.72","ENGLEE (AUT)","8401538","2018-10-31 14:30","2018","10","31","14:30","3.0","","3.0","","100","","","M","4","","16","","","","100.88","","","","","","NA"
"-56.11","50.72","ENGLEE (AUT)","8401538","2018-10-31 15:30","2018","10","31","15:30","2.7","","2.7","","100","","","M","3","","15","","","","100.93","","","","","","NA"
"-56.11","50.72","ENGLEE (AUT)","8401538","2018-10-31 16:30","2018","10","31","16:30","2.5","","2.5","","100","","","M","4","","14","","","","101.00","","","","","","NA"
"-56.11","50.72","ENGLEE (AUT)","8401538","2018-10-31 17:30","2018","10","31","17:30","2.4","","2.4","","100","","","M","2","","9","","","","101.08","","","","","","NA"
"-56.11","50.72","ENGLEE (AUT)","8401538","2018-10-31 18:30","2018","10","31","18:30","2.2","","2.2","","100","","","M","2","","6","","","","101.12","","","","","","NA"
"-56.11","50.72","ENGLEE (AUT)","8401538","2018-10-31 19:30","2018","10","31","19:30","2.1","","2.1","","100","","","M","2","","7","","","","101.10","","","","","","NA"
"-56.11","50.72","ENGLEE (AUT)","8401538","2018-10-31 20:30","2018","10","31","20:30","1.9","","1.9","","100","","","M","36","","5","","","","101.10","","","","","","NA"
"-56.11","50.72","ENGLEE (AUT)","8401538","2018-10-31 21:30","2018","10","31","21:30","1.8","","1.8","","100","","","M","34","","8","","","","101.12","","","","","","NA"
"-56.11","50.72","ENGLEE (AUT)","8401538","2018-10-31 22:30","2018","10","31","22:30","1.7","","1.7","","100","","","M","35","","5","","","","101.12","","","","","","NA"
"-56.11","50.72","ENGLEE (AUT)","8401538","2018-10-31 23:30","2018","10","31","23:30","1.6","","1.6","","100","","","M","36","","8","","","","101.09","","","","","","NA"
