"Longitude (x)","Latitude (y)","Station Name","Climate ID","Date/Time (LST)","Year","Month","Day","Time (LST)","Temp (°C)","Temp Flag","Dew Point Temp (°C)","Dew Point Temp Flag","Rel Hum (%)","Rel Hum Flag","Precip. Amount (mm)","Precip. Amount Flag","Wind Dir (10s deg)","Wind Dir Flag","Wind Spd (km/h)","Wind Spd Flag","Visibility (km)","Visibility Flag","Stn Press (kPa)","Stn Press Flag","Hmdx","Hmdx Flag","Wind Chill","Wind Chill Flag","Weather"
"-81.38","48.57","TIMMINS A","6078286","2023-04-01 00:00","2023","04","01","00:00","-3.4","","-9.5","","63","","","","1","","21","","24.1","","97.25","","","","-10","","NA"
"-81.38","48.57","TIMMINS A","6078286","2023-04-01 01:00","2023","04","01","01:00","-4.4","","-9.0","","71","","","","2","","23","","24.1","","97.23","","","","-11","","Mostly Cloudy"
"-81.38","48.57","TIMMINS A","6078286","2023-04-01 02:00","2023","04","01","02:00","-5.3","","-9.4","","73","","","","2","","25","","24.1","","97.05","","","","-13","","NA"
"-81.38","48.57","TIMMINS A","6078286","2023-04-01 03:00","2023","04","01","03:00","-6.4","","-9.8","","77","","","","2","","22","","24.1","","97.01","","","","-14","","NA"
"-81.38","48.57","TIMMINS A","6078286","2023-04-01 04:00","2023","04","01","04:00","-7.5","","-10.6","","78","","","","2","","30","","24.1","","96.91","","","","-16","","Cloudy"
"-81.38","48.57","TIMMINS A","6078286","2023-04-01 05:00","2023","04","01","05:00","-8.7","","-12.3","","76","","","","2","","24","","24.1","","96.87","","","","-17","","NA"
"-81.38","48.57","TIMMINS A","6078286","2023-04-01 06:00","2023","04","01","06:00","-9.8","","-13.2","","76","","","","2","","28","","24.1","","96.84","","","","-19","","NA"
"-81.38","48.57","TIMMINS A","6078286","2023-04-01 07:00","2023","04","01","07:00","-10.5","","-14.1","","75","","","","2","","32","","24.1","","96.79","","","","-20","","Blowing Snow"
"-81.38","48.57","TIMMINS A","6078286","2023-04-01 08:00","2023","04","01","08:00","-10.7","","-14.9","","72","","","","2","","36","","24.1","","96.73","","","","-21","","Blowing Snow"
"-81.38","48.57","TIMMINS A","6078286","2023-04-01 09:00","2023","04","01","09:00","-9.9","","-16.0","","62","","","","1","","23","","24.1","","96.82","","","","-18","","Blowing Snow"
"-81.38","48.57","TIMMINS A","6078286","2023-04-01 10:00","2023","04","01","10:00","-9.3","","-17.2","","53","","","","35","","30","","24.1","","96.91","","","","-19","","Blowing Snow"
"-81.38","48.57","TIMMINS A","6078286","2023-04-01 11:00","2023","04","01","11:00","-7.7","","-17.8","","45","","","","2","","30","","24.1","","96.96","","","","-17","","Blowing Snow"
"-81.38","48.57","TIMMINS A","6078286","2023-04-01 12:00","2023","04","01","12:00","-6.2","","-17.6","","40","","","","1","","28","","24.1","","96.97","","","","-14","","Blowing Snow"
"-81.38","48.57","TIMMINS A","6078286","2023-04-01 13:00","2023","04","01","13:00","-4.6","","-17.1","","37","","","","35","","38","","24.1","","96.97","","","","-13","","Blowing Snow"
"-81.38","48.57","TIMMINS A","6078286","2023-04-01 14:00","2023","04","01","14:00","-3.7","","-17.3","","34","","","","35","","27","","24.1","","97.02","","","","-11","","NA"
"-81.38","48.57","TIMMINS A","6078286","2023-04-01 15:00","2023","04","01","15:00","-3.7","","-17.6","","34","","","","35","","36","","24.1","","97.09","","","","-12","","NA"
"-81.38","48.57","TIMMINS A","6078286","2023-04-01 16:00","2023","04","01","16:00","-3.4","","-18.2","","31","","","","35","","28","","24.1","","97.19","","","","-11","","Mainly Clear"
"-81.38","48.57","TIMMINS A","6078286","2023-04-01 17:00","2023","04","01","17:00","-4.4","","-17.6","","35","","","","34","","33","","24.1","","97.34","","","","-13","","NA"
"-81.38","48.57","TIMMINS A","6078286","2023-04-01 18:00","2023","04","01","18:00","-4.6","","-18.0","","35","","","","35","","21","","24.1","","97.44","","","","-11","","NA"
"-81.38","48.57","TIMMINS A","6078286","2023-04-01 19:00","2023","04","01","19:00","-6.2","","-17.8","","40","","","","34","","13","","24.1","","97.55","","","","-12","","Clear"
"-81.38","48.57","TIMMINS A","6078286","2023-04-01 20:00","2023","04","01","20:00","-7.3","","-17.4","","45","","","","33","","12","","24.1","","97.65","","","","-13","","NA"
"-81.38","48.57","TIMMINS A","6078286","2023-04-01 21:00","2023","04","01","21:00","-9.1","","-17.9","","49","","","","33","","8","","24.1","","97.74","","","","-13","","NA"
"-81.38","48.57","TIMMINS A","6078286","2023-04-01 22:00","2023","04","01","22:00","-12.1","","-18.9","","58","","","","35","","5","","24.1","","97.79","","","","-15","","Clear"
"-81.38","48.57","TIMMINS A","6078286","2023-04-01 23:00","2023","04","01","23:00","-15.7","","-19.8","","72","","","","25","","7","","24.1","","97.83","","","","-21","","NA"
"-81.38","48.57","TIMMINS A","6078286","2023-04-02 00:00","2023","04","02","00:00","-14.6","","-19.5","","67","","","","36","","2","","24.1","","97.83","","","","-16","","NA"
"-81.38","48.57","TIMMINS A","6078286","2023-04-02 01:00","2023","04","02","01:00","-15.9","","-20.0","","71","","","","36","","1","","24.1","","97.88","","","","-17","","Mainly Clear"
"-81.38","48.57","TIMMINS A","6078286","2023-04-02 02:00","2023","04","02","02:00","-15.1","","-19.0","","72","","","","13","","5","","24.1","","97.86","","","","-19","","NA"
"-81.38","48.57","TIMMINS A","6078286","2023-04-02 03:00","2023","04","02","03:00","-16.4","","-19.9","","74","","","","16","","8","","24.1","","97.88","","","","-22","","NA"
"-81.38","48.57","TIMMINS A","6078286","2023-04-02 04:00","2023","04","02","04:00","-16.0","","-19.2","","77","","","","17","","7","","24.1","","97.85","","","","-21","","Mainly Clear"
"-81.38","48.57","TIMMINS A","6078286","2023-04-02 05:00","2023","04","02","05:00","-16.7","","-20.1","","76","","","","18","","15","","24.1","","97.83","","","","-25","","NA"
"-81.38","48.57","TIMMINS A","6078286","2023-04-02 06:00","2023","04","02","06:00","-16.5","","-20.2","","73","","","","19","","12","","24.1","","97.83","","","","-24","","NA"
"-81.38","48.57","TIMMINS A","6078286","2023-04-02 07:00","2023","04","02","07:00","-15.3","","-19.6","","70","","","","18","","11","","24.1","","97.85","","","","-22","","Mostly Cloudy"
"-81.38","48.57","TIMMINS A","6078286","2023-04-02 08:00","2023","04","02","08:00","-11.6","","-16.8","","66","","","","19","","10","","24.1","","97.86","","","","-17","","NA"
"-81.38","48.57","TIMMINS A","6078286","2023-04-02 09:00","2023","04","02","09:00","-4.5","","-12.2","","55","","","","22","","8","","24.1","","97.85","","","","-8","","NA"
"-81.38","48.57","TIMMINS A","6078286","2023-04-02 10:00","2023","04","02","10:00","-0.4","","-10.3","","47","","","","25","","13","","24.1","","97.79","","","","-5","","Mostly Cloudy"
"-81.38","48.57","TIMMINS A","6078286","2023-04-02 11:00","2023","04","02","11:00","1.8","","-10.7","","39","","","","26","","12","","24.1","","97.73","","","","","","NA"
"-81.38","48.57","TIMMINS A","6078286","2023-04-02 12:00","2023","04","02","12:00","2.7","","-12.2","","33","","","","26","","17","","24.1","","97.67","","","","","","NA"
"-81.38","48.57","TIMMINS A","6078286","2023-04-02 13:00","2023","04","02","13:00","4.0","","-13.6","","27","","","","23","","19","","24.1","","97.57","","","","","","Cloudy"
"-81.38","48.57","TIMMINS A","6078286","2023-04-02 14:00","2023","04","02","14:00","4.4","","-12.8","","28","","","","21","","13","","24.1","","97.48","","","","","","NA"
"-81.38","48.57","TIMMINS A","6078286","2023-04-02 15:00","2023","04","02","15:00","5.2","","-13.4","","25","","","","24","","18","","24.1","","97.37","","","","","","NA"
"-81.38","48.57","TIMMINS A","6078286","2023-04-02 16:00","2023","04","02","16:00","5.2","","-13.6","","24","","","","24","","16","","24.1","","97.30","","","","","","Mostly Cloudy"
"-81.38","48.57","TIMMINS A","6078286","2023-04-02 17:00","2023","04","02","17:00","4.9","","-12.6","","27","","","","25","","12","","24.1","","97.29","","","","","","NA"
"-81.38","48.57","TIMMINS A","6078286","2023-04-02 18:00","2023","04","02","18:00","4.8","","-11.4","","30","","","","23","","12","","24.1","","97.27","","","","","","NA"
"-81.38","48.57","TIMMINS A","6078286","2023-04-02 19:00","2023","04","02","19:00","2.9","","-9.2","","40","","","","20","","15","","24.1","","97.23","","","","","","Mostly Cloudy"
"-81.38","48.57","TIMMINS A","6078286","2023-04-02 20:00","2023","04","02","20:00","1.2","","-8.9","","47","","","","19","","16","","24.1","","97.25","","","","","","NA"
"-81.38","48.57","TIMMINS A","6078286","2023-04-02 21:00","2023","04","02","21:00","1.0","","-7.9","","52","","","","20","","17","","24.1","","97.24","","","","","","NA"
"-81.38","48.57","TIMMINS A","6078286","2023-04-02 22:00","2023","04","02","22:00","0.6","","-7.5","","55","","","","20","","25","","24.1","","97.26","","","","","","Mostly Cloudy"
"-81.38","48.57","TIMMINS A","6078286","2023-04-02 23:00","2023","04","02","23:00","-1.3","","-3.3","","86","","","","21","","18","","9.7","","97.28","","","","-7","","Snow"
"-81.38","48.57","TIMMINS A","6078286","2023-04-03 00:00","2023","04","03","00:00","-2.0","","-3.1","","92","","","","19","","19","","3.2","","97.23","","","","-8","","Snow"
"-81.38","48.57","TIMMINS A","6078286","2023-04-03 01:00","2023","04","03","01:00","-2.2","","-3.1","","93","","","","17","","15","","4.0","","97.13","","","","-7","","Snow"
"-81.38","48.57","TIMMINS A","6078286","2023-04-03 02:00","2023","04","03","02:00","-2.2","","-3.2","","93","","","","15","","16","","4.0","","96.99","","","","-7","","Snow"
"-81.38","48.57","TIMMINS A","6078286","2023-04-03 03:00","2023","04","03","03:00","-2.3","","-3.2","","93","","","","14","","13","","4.0","","96.81","","","","-7","","Snow"
"-81.38","48.57","TIMMINS A","6078286","2023-04-03 04:00","2023","04","03","04:00","-2.4","","-3.1","","95","","","","13","","11","","2.4","","96.70","","","","-6","","Snow"
"-81.38","48.57","TIMMINS A","6078286","2023-04-03 05:00","2023","04","03","05:00","-2.3","","-3.1","","95","","","","12","","11","","4.0","","96.60","","","","-6","","Snow"
"-81.38","48.57","TIMMINS A","6078286","2023-04-03 06:00","2023","04","03","06:00","-2.4","","-3.2","","94","","","","10","","11","","1.2","","96.52","","","","-6","","Snow"
"-81.38","48.57","TIMMINS A","6078286","2023-04-03 07:00","2023","04","03","07:00","-2.2","","-2.9","","95","","","","10","","10","","0.8","","96.46","","","","-6","","Moderate Snow"
"-81.38","48.57","TIMMINS A","6078286","2023-04-03 08:00","2023","04","03","08:00","-1.8","","-2.5","","95","","","","8","","9","","1.2","","96.42","","","","-5","","Snow"
"-81.38","48.57","TIMMINS A","6078286","2023-04-03 09:00","2023","04","03","09:00","-1.2","","-2.0","","94","","","","6","","7","","1.2","","96.40","","","","-4","","Snow"
"-81.38","48.57","TIMMINS A","6078286","2023-04-03 10:00","2023","04","03","10:00","-0.5","","-1.6","","92","","","","34","","9","","1.2","","96.47","","","","-4","","Snow"
"-81.38","48.57","TIMMINS A","6078286","2023-04-03 11:00","2023","04","03","11:00","0.5","","-1.7","","85","","","","34","","17","","2.4","","96.60","","","","","","Snow"
"-81.38","48.57","TIMMINS A","6078286","2023-04-03 12:00","2023","04","03","12:00","0.3","","-1.5","","88","","","","34","","18","","2.0","","96.75","","","","","","Snow"
"-81.38","48.57","TIMMINS A","6078286","2023-04-03 13:00","2023","04","03","13:00","-1.4","","-3.5","","85","","","","34","","25","","4.8","","96.95","","","","-8","","Snow"
"-81.38","48.57","TIMMINS A","6078286","2023-04-03 14:00","2023","04","03","14:00","-2.7","","-4.9","","85","","","","32","","21","","8.1","","97.17","","","","-9","","Snow"
"-81.38","48.57","TIMMINS A","6078286","2023-04-03 15:00","2023","04","03","15:00","-3.2","","-5.6","","83","","","","32","","22","","16.1","","97.33","","","","-10","","Snow"
"-81.38","48.57","TIMMINS A","6078286","2023-04-03 16:00","2023","04","03","16:00","-3.6","","-6.5","","80","","","","35","","19","","16.1","","97.48","","","","-10","","Cloudy"
"-81.38","48.57","TIMMINS A","6078286","2023-04-03 17:00","2023","04","03","17:00","-4.2","","-7.2","","79","","","","35","","17","","24.1","","97.71","","","","-10","","NA"
"-81.38","48.57","TIMMINS A","6078286","2023-04-03 18:00","2023","04","03","18:00","-4.9","","-8.0","","79","","","","35","","14","","24.1","","97.80","","","","-10","","NA"
"-81.38","48.57","TIMMINS A","6078286","2023-04-03 19:00","2023","04","03","19:00","-5.4","","-8.3","","81","","","","34","","12","","24.1","","97.93","","","","-10","","Cloudy"
"-81.38","48.57","TIMMINS A","6078286","2023-04-03 20:00","2023","04","03","20:00","-6.1","","-8.8","","81","","","","34","","12","","24.1","","98.11","","","","-11","","Snow"
"-81.38","48.57","TIMMINS A","6078286","2023-04-03 21:00","2023","04","03","21:00","-6.8","","-10.2","","77","","","","35","","16","","24.1","","98.18","","","","-13","","Snow"
"-81.38","48.57","TIMMINS A","6078286","2023-04-03 22:00","2023","04","03","22:00","-7.9","","-12.1","","72","","","","35","","13","","24.1","","98.31","","","","-14","","Cloudy"
"-81.38","48.57","TIMMINS A","6078286","2023-04-03 23:00","2023","04","03","23:00","-9.3","","-13.3","","73","","","","34","","11","","24.1","","98.42","","","","-15","","Snow"
"-81.38","48.57","TIMMINS A","6078286","2023-04-04 00:00","2023","04","04","00:00","-10.8","","-14.5","","74","","","","36","","13","","24.1","","98.44","","","","-17","","Snow"
"-81.38","48.57","TIMMINS A","6078286","2023-04-04 01:00","2023","04","04","01:00","-12.2","","-15.5","","76","","","","36","","12","","24.1","","98.49","","","","-19","","Snow"
"-81.38","48.57","TIMMINS A","6078286","2023-04-04 02:00","2023","04","04","02:00","-13.5","","-16.9","","76","","","","1","","12","","24.1","","98.58","","","","-20","","Snow"
"-81.38","48.57","TIMMINS A","6078286","2023-04-04 03:00","2023","04","04","03:00","-15.3","","-18.0","","80","","","","1","","10","","24.1","","98.62","","","","-22","","NA"
"-81.38","48.57","TIMMINS A","6078286","2023-04-04 04:00","2023","04","04","04:00","-16.0","","-19.1","","77","","","","1","","11","","24.1","","98.74","","","","-23","","Mainly Clear"
"-81.38","48.57","TIMMINS A","6078286","2023-04-04 05:00","2023","04","04","05:00","-18.5","","-20.7","","83","","","","34","","6","","24.1","","98.85","","","","-23","","NA"
"-81.38","48.57","TIMMINS A","6078286","2023-04-04 06:00","2023","04","04","06:00","-18.4","","-20.8","","82","","","","36","","7","","24.1","","98.97","","","","-24","","NA"
"-81.38","48.57","TIMMINS A","6078286","2023-04-04 07:00","2023","04","04","07:00","-18.2","","-21.0","","79","","","","36","","7","","24.1","","99.03","","","","-24","","Mainly Clear"
"-81.38","48.57","TIMMINS A","6078286","2023-04-04 08:00","2023","04","04","08:00","-16.2","","-19.6","","75","","","","3","","7","","24.1","","99.11","","","","-21","","NA"
"-81.38","48.57","TIMMINS A","6078286","2023-04-04 09:00","2023","04","04","09:00","-14.1","","-19.4","","65","","","","3","","11","","24.1","","99.17","","","","-21","","NA"
"-81.38","48.57","TIMMINS A","6078286","2023-04-04 10:00","2023","04","04","10:00","-11.6","","-18.6","","56","","","","2","","9","","24.1","","99.25","","","","-17","","Clear"
"-81.38","48.57","TIMMINS A","6078286","2023-04-04 11:00","2023","04","04","11:00","-9.6","","-17.9","","51","","","","1","","9","","24.1","","99.26","","","","-14","","NA"
"-81.38","48.57","TIMMINS A","6078286","2023-04-04 12:00","2023","04","04","12:00","-7.4","","-16.9","","47","","","","3","","9","","24.1","","99.27","","","","-12","","NA"
"-81.38","48.57","TIMMINS A","6078286","2023-04-04 13:00","2023","04","04","13:00","-6.3","","-15.7","","48","","","","3","","13","","24.1","","99.27","","","","-12","","Mostly Cloudy"
"-81.38","48.57","TIMMINS A","6078286","2023-04-04 14:00","2023","04","04","14:00","-4.8","","-15.2","","44","","","","4","","17","","24.1","","99.24","","","","-11","","NA"
"-81.38","48.57","TIMMINS A","6078286","2023-04-04 15:00","2023","04","04","15:00","-4.1","","-15.5","","41","","","","4","","11","","24.1","","99.24","","","","-9","","NA"
"-81.38","48.57","TIMMINS A","6078286","2023-04-04 16:00","2023","04","04","16:00","-3.7","","-15.2","","41","","","","5","","17","","24.1","","99.20","","","","-9","","Mostly Cloudy"
"-81.38","48.57","TIMMINS A","6078286","2023-04-04 17:00","2023","04","04","17:00","-3.3","","-15.4","","39","","","","5","","19","","24.1","","99.20","","","","-9","","NA"
"-81.38","48.57","TIMMINS A","6078286","2023-04-04 18:00","2023","04","04","18:00","-3.8","","-15.7","","40","","","","8","","19","","24.1","","99.27","","","","-10","","NA"
"-81.38","48.57","TIMMINS A","6078286","2023-04-04 19:00","2023","04","04","19:00","-4.8","","-14.4","","47","","","","9","","14","","24.1","","99.26","","","","-10","","Mostly Cloudy"
"-81.38","48.57","TIMMINS A","6078286","2023-04-04 20:00","2023","04","04","20:00","-4.8","","-15.0","","45","","","","9","","16","","24.1","","99.26","","","","-11","","NA"
"-81.38","48.57","TIMMINS A","6078286","2023-04-04 21:00","2023","04","04","21:00","-5.2","","-14.3","","49","","","","9","","14","","24.1","","99.26","","","","-11","","NA"
"-81.38","48.57","TIMMINS A","6078286","2023-04-04 22:00","2023","04","04","22:00","-5.6","","-14.3","","51","","","","9","","21","","24.1","","99.27","","","","-12","","Cloudy"
"-81.38","48.57","TIMMINS A","6078286","2023-04-04 23:00","2023","04","04","23:00","-6.3","","-14.4","","53","","","","8","","25","","24.1","","99.21","","","","-14","","NA"
"-81.38","48.57","TIMMINS A","6078286","2023-04-05 00:00","2023","04","05","00:00","-6.5","","-14.5","","53","","","","9","","22","","24.1","","99.23","","","","-14","","NA"
"-81.38","48.57","TIMMINS A","6078286","2023-04-05 01:00","2023","04","05","01:00","-6.5","","-14.2","","55","","","","10","","21","","24.1","","99.15","","","","-14","","Cloudy"
"-81.38","48.57","TIMMINS A","6078286","2023-04-05 02:00","2023","04","05","02:00","-6.8","","-14.3","","56","","","","9","","27","","24.1","","98.96","","","","-15","","NA"
"-81.38","48.57","TIMMINS A","6078286","2023-04-05 03:00","2023","04","05","03:00","-7.1","","-14.1","","58","","","","8","","26","","24.1","","98.76","","","","-15","","NA"
"-81.38","48.57","TIMMINS A","6078286","2023-04-05 04:00","2023","04","05","04:00","-7.2","","-13.8","","60","","","","10","","23","","24.1","","98.79","","","","-15","","Snow"
"-81.38","48.57","TIMMINS A","6078286","2023-04-05 05:00","2023","04","05","05:00","-8.2","","-11.0","","81","","","","8","","32","","4.8","","98.60","","","","-17","","Snow"
"-81.38","48.57","TIMMINS A","6078286","2023-04-05 06:00","2023","04","05","06:00","-8.5","","-10.5","","86","","","","8","","27","","1.0","","98.55","","","","-17","","Snow,Blowing Snow"
"-81.38","48.57","TIMMINS A","6078286","2023-04-05 07:00","2023","04","05","07:00","-8.7","","-10.6","","87","","","","8","","30","","0.6","","98.52","","","","-18","","Moderate Snow,Blowing Snow"
"-81.38","48.57","TIMMINS A","6078286","2023-04-05 08:00","2023","04","05","08:00","-8.4","","-10.7","","84","","","","8","","32","","1.6","","98.35","","","","-18","","Snow,Blowing Snow"
"-81.38","48.57","TIMMINS A","6078286","2023-04-05 09:00","2023","04","05","09:00","-8.0","","-10.6","","82","","","","8","","33","","1.6","","98.33","","","","-17","","Snow,Blowing Snow"
"-81.38","48.57","TIMMINS A","6078286","2023-04-05 10:00","2023","04","05","10:00","-7.5","","-10.0","","83","","","","8","","34","","1.6","","98.14","","","","-17","","Snow"
"-81.38","48.57","TIMMINS A","6078286","2023-04-05 11:00","2023","04","05","11:00","-6.5","","-9.1","","82","","","","9","","35","","1.6","","97.85","","","","-16","","Snow,Blowing Snow"
"-81.38","48.57","TIMMINS A","6078286","2023-04-05 12:00","2023","04","05","12:00","-5.3","","-8.4","","79","","","","10","","29","","8.1","","97.84","","","","-13","","Snow,Blowing Snow"
"-81.38","48.57","TIMMINS A","6078286","2023-04-05 13:00","2023","04","05","13:00","-4.7","","-6.7","","86","","","","11","","22","","4.0","","97.87","","","","-12","","Freezing Drizzle,Snow,Blowing Snow"
"-81.38","48.57","TIMMINS A","6078286","2023-04-05 14:00","2023","04","05","14:00","-4.2","","-5.9","","88","","","","10","","42","","4.0","","97.41","","","","-13","","Freezing Drizzle,Snow,Blowing Snow"
"-81.38","48.57","TIMMINS A","6078286","2023-04-05 15:00","2023","04","05","15:00","-3.8","","-6.4","","82","","","","11","","36","","8.1","","97.38","","","","-12","","Snow,Blowing Snow"
"-81.38","48.57","TIMMINS A","6078286","2023-04-05 16:00","2023","04","05","16:00","-3.7","","-6.0","","84","","","","11","","26","","9.7","","97.19","","","","-11","","Blowing Snow"
"-81.38","48.57","TIMMINS A","6078286","2023-04-05 17:00","2023","04","05","17:00","-3.6","","-5.8","","85","","","","12","","35","","16.1","","97.05","","","","-12","","Blowing Snow"
"-81.38","48.57","TIMMINS A","6078286","2023-04-05 18:00","2023","04","05","18:00","-3.4","","-5.2","","87","","","","13","","27","","16.1","","97.01","","","","-11","","Blowing Snow"
"-81.38","48.57","TIMMINS A","6078286","2023-04-05 19:00","2023","04","05","19:00","-3.3","","-4.5","","91","","","","13","","24","","3.2","","96.84","","","","-10","","Freezing Drizzle,Blowing Snow"
"-81.38","48.57","TIMMINS A","6078286","2023-04-05 20:00","2023","04","05","20:00","-3.0","","-3.9","","93","","","","14","","27","","3.2","","96.68","","","","-10","","Freezing Drizzle,Blowing Snow"
"-81.38","48.57","TIMMINS A","6078286","2023-04-05 21:00","2023","04","05","21:00","-2.5","","-3.3","","94","","","","15","","23","","4.0","","96.62","","","","-9","","Freezing Drizzle,Blowing Snow"
"-81.38","48.57","TIMMINS A","6078286","2023-04-05 22:00","2023","04","05","22:00","-2.0","","-2.7","","94","","","","16","","16","","9.7","","96.65","","","","-7","","Snow"
"-81.38","48.57","TIMMINS A","6078286","2023-04-05 23:00","2023","04","05","23:00","-0.4","","-1.0","","96","","","","17","","18","","9.7","","96.63","","","","-5","","Freezing Drizzle,Snow"
"-81.38","48.57","TIMMINS A","6078286","2023-04-06 00:00","2023","04","06","00:00","-0.9","","-1.5","","96","","","","17","","13","","24.1","","96.61","","","","-5","","NA"
"-81.38","48.57","TIMMINS A","6078286","2023-04-06 01:00","2023","04","06","01:00","-0.6","","-1.0","","97","","","","19","","12","","24.1","","96.65","","","","-5","","Mostly Cloudy"
"-81.38","48.57","TIMMINS A","6078286","2023-04-06 02:00","2023","04","06","02:00","1.1","","-0.3","","91","","","","25","","14","","16.1","","96.77","","","","","","Rain Showers,Snow"
"-81.38","48.57","TIMMINS A","6078286","2023-04-06 03:00","2023","04","06","03:00","0.9","","-1.2","","86","","","","23","","19","","16.1","","96.87","","","","","","Rain Showers,Snow Showers"
"-81.38","48.57","TIMMINS A","6078286","2023-04-06 04:00","2023","04","06","04:00","0.5","","-2.4","","81","","","","24","","13","","24.1","","96.99","","","","","","Snow"
"-81.38","48.57","TIMMINS A","6078286","2023-04-06 05:00","2023","04","06","05:00","-0.2","","-4.9","","71","","","","23","","14","","24.1","","97.07","","","","-4","","Snow"
"-81.38","48.57","TIMMINS A","6078286","2023-04-06 06:00","2023","04","06","06:00","-0.8","","-5.0","","73","","","","22","","21","","19.3","","97.14","","","","-6","","Snow"
"-81.38","48.57","TIMMINS A","6078286","2023-04-06 07:00","2023","04","06","07:00","-2.3","","-4.4","","85","","","","25","","17","","4.8","","97.28","","","","-8","","Snow Showers,Blowing Snow"
"-81.38","48.57","TIMMINS A","6078286","2023-04-06 08:00","2023","04","06","08:00","-2.0","","-6.8","","69","","","","26","","24","","24.1","","97.40","","","","-8","","Snow Showers,Blowing Snow"
"-81.38","48.57","TIMMINS A","6078286","2023-04-06 09:00","2023","04","06","09:00","-1.3","","-9.9","","52","","","","25","","23","","24.1","","97.46","","","","-7","","NA"
"-81.38","48.57","TIMMINS A","6078286","2023-04-06 10:00","2023","04","06","10:00","-0.9","","-8.6","","56","","","","25","","23","","24.1","","97.46","","","","-7","","Snow"
"-81.38","48.57","TIMMINS A","6078286","2023-04-06 11:00","2023","04","06","11:00","0.0","","-8.8","","52","","","","24","","21","","24.1","","97.49","","","","-5","","Snow Showers"
"-81.38","48.57","TIMMINS A","6078286","2023-04-06 12:00","2023","04","06","12:00","-0.1","","-9.3","","50","","","","24","","21","","24.1","","97.54","","","","-6","","Snow Showers"
"-81.38","48.57","TIMMINS A","6078286","2023-04-06 13:00","2023","04","06","13:00","-0.1","","-8.3","","54","","","","23","","30","","24.1","","97.60","","","","-7","","Snow Showers"
"-81.38","48.57","TIMMINS A","6078286","2023-04-06 14:00","2023","04","06","14:00","0.0","","-9.4","","49","","","","25","","30","","24.1","","97.60","","","","-6","","Snow Showers"
"-81.38","48.57","TIMMINS A","6078286","2023-04-06 15:00","2023","04","06","15:00","-0.3","","-7.7","","58","","","","24","","18","","19.3","","97.68","","","","-5","","Snow Showers"
"-81.38","48.57","TIMMINS A","6078286","2023-04-06 16:00","2023","04","06","16:00","-2.1","","-6.1","","74","","","","26","","30","","1.6","","97.78","","","","-9","","Snow Showers"
"-81.38","48.57","TIMMINS A","6078286","2023-04-06 17:00","2023","04","06","17:00","-1.1","","-9.8","","52","","","","24","","17","","24.1","","97.84","","","","-6","","Snow Showers"
"-81.38","48.57","TIMMINS A","6078286","2023-04-06 18:00","2023","04","06","18:00","-1.1","","-14.8","","35","","","","25","","28","","24.1","","97.93","","","","-8","","Snow Showers"
"-81.38","48.57","TIMMINS A","6078286","2023-04-06 19:00","2023","04","06","19:00","-3.1","","-11.4","","53","","","","26","","23","","24.1","","98.05","","","","-10","","Snow Showers"
"-81.38","48.57","TIMMINS A","6078286","2023-04-06 20:00","2023","04","06","20:00","-4.3","","-10.1","","64","","","","26","","13","","24.1","","98.15","","","","-9","","NA"
"-81.38","48.57","TIMMINS A","6078286","2023-04-06 21:00","2023","04","06","21:00","-4.5","","-10.7","","62","","","","25","","14","","24.1","","98.25","","","","-10","","Snow"
"-81.38","48.57","TIMMINS A","6078286","2023-04-06 22:00","2023","04","06","22:00","-5.3","","-11.2","","63","","","","27","","20","","9.7","","98.33","","","","-12","","Snow"
"-81.38","48.57","TIMMINS A","6078286","2023-04-06 23:00","2023","04","06","23:00","-6.3","","-14.2","","54","","","","29","","19","","24.1","","98.41","","","","-13","","Snow"
"-81.38","48.57","TIMMINS A","6078286","2023-04-07 00:00","2023","04","07","00:00","-7.1","","-13.6","","60","","","","28","","23","","24.1","","98.51","","","","-15","","Snow"
"-81.38","48.57","TIMMINS A","6078286","2023-04-07 01:00","2023","04","07","01:00","-8.0","","-12.0","","73","","","","28","","19","","8.1","","98.62","","","","-15","","Snow"
"-81.38","48.57","TIMMINS A","6078286","2023-04-07 02:00","2023","04","07","02:00","-8.5","","-12.2","","75","","","","28","","17","","8.1","","98.70","","","","-15","","Snow"
"-81.38","48.57","TIMMINS A","6078286","2023-04-07 03:00","2023","04","07","03:00","-8.9","","-12.8","","73","","","","29","","21","","24.1","","98.80","","","","-17","","Snow"
"-81.38","48.57","TIMMINS A","6078286","2023-04-07 04:00","2023","04","07","04:00","-9.7","","-13.1","","76","","","","30","","16","","24.1","","98.93","","","","-17","","Snow"
"-81.38","48.57","TIMMINS A","6078286","2023-04-07 05:00","2023","04","07","05:00","-10.0","","-13.6","","75","","","","30","","24","","24.1","","99.07","","","","-19","","Snow"
"-81.38","48.57","TIMMINS A","6078286","2023-04-07 06:00","2023","04","07","06:00","-10.4","","-14.8","","71","","","","30","","17","","24.1","","99.20","","","","-18","","NA"
"-81.38","48.57","TIMMINS A","6078286","2023-04-07 07:00","2023","04","07","07:00","-9.9","","-14.1","","71","","","","29","","18","","24.1","","99.33","","","","-17","","Mainly Clear"
"-81.38","48.57","TIMMINS A","6078286","2023-04-07 08:00","2023","04","07","08:00","-8.9","","-14.5","","64","","","","30","","26","","24.1","","99.40","","","","-18","","NA"
"-81.38","48.57","TIMMINS A","6078286","2023-04-07 09:00","2023","04","07","09:00","-7.5","","-15.6","","53","","","","29","","19","","24.1","","99.50","","","","-15","","NA"
"-81.38","48.57","TIMMINS A","6078286","2023-04-07 10:00","2023","04","07","10:00","-6.0","","-18.1","","38","","","","29","","21","","24.1","","99.56","","","","-13","","Mainly Clear"
"-81.38","48.57","TIMMINS A","6078286","2023-04-07 11:00","2023","04","07","11:00","-4.6","","-18.5","","33","","","","29","","28","","24.1","","99.61","","","","-12","","NA"
"-81.38","48.57","TIMMINS A","6078286","2023-04-07 12:00","2023","04","07","12:00","-3.4","","-16.8","","35","","","","33","","25","","24.1","","99.65","","","","-10","","NA"
"-81.38","48.57","TIMMINS A","6078286","2023-04-07 13:00","2023","04","07","13:00","-2.0","","-16.4","","33","","","","29","","21","","24.1","","99.63","","","","-8","","Mainly Clear"
"-81.38","48.57","TIMMINS A","6078286","2023-04-07 14:00","2023","04","07","14:00","-1.4","","-16.8","","30","","","","30","","25","","24.1","","99.60","","","","-8","","NA"
"-81.38","48.57","TIMMINS A","6078286","2023-04-07 15:00","2023","04","07","15:00","-0.9","","-15.4","","33","","","","33","","17","","24.1","","99.55","","","","-6","","NA"
"-81.38","48.57","TIMMINS A","6078286","2023-04-07 16:00","2023","04","07","16:00","-0.2","","-15.6","","31","","","","31","","13","","24.1","","99.51","","","","-4","","Mostly Cloudy"
"-81.38","48.57","TIMMINS A","6078286","2023-04-07 17:00","2023","04","07","17:00","0.1","","-15.3","","31","","","","29","","20","","24.1","","99.49","","","","","","NA"
"-81.38","48.57","TIMMINS A","6078286","2023-04-07 18:00","2023","04","07","18:00","-0.3","","-14.9","","33","","","","30","","13","","24.1","","99.51","","","","-4","","NA"
"-81.38","48.57","TIMMINS A","6078286","2023-04-07 19:00","2023","04","07","19:00","-1.6","","-15.2","","35","","","","31","","4","","24.1","","99.49","","","","-3","","Mainly Clear"
"-81.38","48.57","TIMMINS A","6078286","2023-04-07 20:00","2023","04","07","20:00","-5.2","","-14.7","","48","","","","27","","3","","24.1","","99.49","","","","-7","","NA"
"-81.38","48.57","TIMMINS A","6078286","2023-04-07 21:00","2023","04","07","21:00","-7.4","","-14.5","","57","","","","25","","4","","24.1","","99.51","","","","-9","","NA"
"-81.38","48.57","TIMMINS A","6078286","2023-04-07 22:00","2023","04","07","22:00","-7.5","","-15.4","","54","","","","33","","9","","24.1","","99.53","","","","-12","","Clear"
"-81.38","48.57","TIMMINS A","6078286","2023-04-07 23:00","2023","04","07","23:00","-10.7","","-15.8","","66","","","","19","","4","","24.1","","99.54","","","","-13","","NA"
"-81.38","48.57","TIMMINS A","6078286","2023-04-08 00:00","2023","04","08","00:00","-10.8","","-15.7","","68","","","","30","","4","","24.1","","99.58","","","","-13","","NA"
"-81.38","48.57","TIMMINS A","6078286","2023-04-08 01:00","2023","04","08","01:00","-13.4","","-16.9","","75","","","","36","","1","","24.1","","99.59","","","","-14","","Clear"
"-81.38","48.57","TIMMINS A","6078286","2023-04-08 02:00","2023","04","08","02:00","-15.6","","-18.7","","78","","","","19","","6","","24.1","","99.60","","","","-20","","NA"
"-81.38","48.57","TIMMINS A","6078286","2023-04-08 03:00","2023","04","08","03:00","-13.7","","-16.7","","79","","","","36","","3","","24.1","","99.56","","","","-16","","NA"
"-81.38","48.57","TIMMINS A","6078286","2023-04-08 04:00","2023","04","08","04:00","-16.2","","-18.8","","81","","","","19","","6","","24.1","","99.58","","","","-21","","Clear"
"-81.38","48.57","TIMMINS A","6078286","2023-04-08 05:00","2023","04","08","05:00","-15.2","","-17.6","","82","","","","18","","6","","24.1","","99.57","","","","-19","","NA"
"-81.38","48.57","TIMMINS A","6078286","2023-04-08 06:00","2023","04","08","06:00","-16.3","","-18.4","","84","","","","20","","7","","24.1","","99.58","","","","-21","","NA"
"-81.38","48.57","TIMMINS A","6078286","2023-04-08 07:00","2023","04","08","07:00","-15.0","","-18.5","","75","","","","19","","7","","24.1","","99.61","","","","-20","","Mainly Clear"
"-81.38","48.57","TIMMINS A","6078286","2023-04-08 08:00","2023","04","08","08:00","-9.2","","-14.6","","65","","","","16","","5","","24.1","","99.65","","","","-12","","NA"
"-81.38","48.57","TIMMINS A","6078286","2023-04-08 09:00","2023","04","08","09:00","-2.3","","-10.7","","53","","","","28","","5","","24.1","","99.65","","","","-4","","NA"
"-81.38","48.57","TIMMINS A","6078286","2023-04-08 10:00","2023","04","08","10:00","0.2","","-10.3","","45","","","","23","","12","","24.1","","99.63","","","","","","Clear"
"-81.38","48.57","TIMMINS A","6078286","2023-04-08 11:00","2023","04","08","11:00","1.9","","-10.0","","41","","","","29","","15","","24.1","","99.60","","","","","","NA"
"-81.38","48.57","TIMMINS A","6078286","2023-04-08 12:00","2023","04","08","12:00","2.7","","-11.1","","35","","","","28","","13","","24.1","","99.54","","","","","","NA"
"-81.38","48.57","TIMMINS A","6078286","2023-04-08 13:00","2023","04","08","13:00","3.6","","-11.2","","33","","","","29","","12","","24.1","","99.48","","","","","","Mainly Clear"
"-81.38","48.57","TIMMINS A","6078286","2023-04-08 14:00","2023","04","08","14:00","4.2","","-11.4","","31","","","","28","","13","","24.1","","99.41","","","","","","NA"
"-81.38","48.57","TIMMINS A","6078286","2023-04-08 15:00","2023","04","08","15:00","4.9","","-12.9","","26","","","","27","","10","","24.1","","99.36","","","","","","NA"
"-81.38","48.57","TIMMINS A","6078286","2023-04-08 16:00","2023","04","08","16:00","5.2","","-12.1","","28","","","","29","","12","","24.1","","99.31","","","","","","Mainly Clear"
"-81.38","48.57","TIMMINS A","6078286","2023-04-08 17:00","2023","04","08","17:00","5.1","","-11.4","","29","","","","20","","8","","24.1","","99.29","","","","","","NA"
"-81.38","48.57","TIMMINS A","6078286","2023-04-08 18:00","2023","04","08","18:00","5.2","","-11.9","","28","","","","25","","7","","24.1","","99.27","","","","","","NA"
"-81.38","48.57","TIMMINS A","6078286","2023-04-08 19:00","2023","04","08","19:00","2.7","","-10.7","","37","","","","32","","4","","24.1","","99.27","","","","","","Clear"
"-81.38","48.57","TIMMINS A","6078286","2023-04-08 20:00","2023","04","08","20:00","-1.5","","-10.4","","51","","","","","","0","","24.1","","99.29","","","","","","NA"
"-81.38","48.57","TIMMINS A","6078286","2023-04-08 21:00","2023","04","08","21:00","-3.4","","-9.5","","63","","","","36","","2","","24.1","","99.34","","","","-4","","NA"
"-81.38","48.57","TIMMINS A","6078286","2023-04-08 22:00","2023","04","08","22:00","-5.1","","-9.7","","70","","","","19","","5","","24.1","","99.35","","","","-7","","Clear"
"-81.38","48.57","TIMMINS A","6078286","2023-04-08 23:00","2023","04","08","23:00","-5.9","","-10.6","","70","","","","20","","5","","24.1","","99.35","","","","-8","","NA"
"-81.38","48.57","TIMMINS A","6078286","2023-04-09 00:00","2023","04","09","00:00","-6.6","","-12.0","","66","","","","19","","10","","24.1","","99.35","","","","-11","","NA"
"-81.38","48.57","TIMMINS A","6078286","2023-04-09 01:00","2023","04","09","01:00","-7.9","","-12.4","","70","","","","19","","7","","24.1","","99.39","","","","-12","","Clear"
"-81.38","48.57","TIMMINS A","6078286","2023-04-09 02:00","2023","04","09","02:00","-9.8","","-13.4","","75","","","","18","","8","","24.1","","99.39","","","","-14","","NA"
"-81.38","48.57","TIMMINS A","6078286","2023-04-09 03:00","2023","04","09","03:00","-9.0","","-12.6","","75","","","","19","","10","","24.1","","99.39","","","","-14","","NA"
"-81.38","48.57","TIMMINS A","6078286","2023-04-09 04:00","2023","04","09","04:00","-9.3","","-13.2","","73","","","","16","","8","","24.1","","99.40","","","","-14","","Clear"
"-81.38","48.57","TIMMINS A","6078286","2023-04-09 05:00","2023","04","09","05:00","-8.3","","-12.8","","70","","","","19","","8","","24.1","","99.43","","","","-12","","NA"
"-81.38","48.57","TIMMINS A","6078286","2023-04-09 06:00","2023","04","09","06:00","-9.6","","-13.2","","75","","","","19","","9","","24.1","","99.48","","","","-14","","NA"
"-81.38","48.57","TIMMINS A","6078286","2023-04-09 07:00","2023","04","09","07:00","-9.1","","-13.8","","69","","","","19","","10","","24.1","","99.50","","","","-14","","Mainly Clear"
"-81.38","48.57","TIMMINS A","6078286","2023-04-09 08:00","2023","04","09","08:00","-4.1","","-11.4","","57","","","","18","","10","","24.1","","99.50","","","","-8","","NA"
"-81.38","48.57","TIMMINS A","6078286","2023-04-09 09:00","2023","04","09","09:00","1.0","","-9.2","","47","","","","17","","10","","24.1","","99.45","","","","","","NA"
"-81.38","48.57","TIMMINS A","6078286","2023-04-09 10:00","2023","04","09","10:00","4.1","","-6.8","","45","","","","18","","15","","24.1","","99.40","","","","","","Clear"
"-81.38","48.57","TIMMINS A","6078286","2023-04-09 11:00","2023","04","09","11:00","5.6","","-6.2","","43","","","","18","","18","","24.1","","99.33","","","","","","NA"
"-81.38","48.57","TIMMINS A","6078286","2023-04-09 12:00","2023","04","09","12:00","7.1","","-7.4","","35","","","","18","","29","","24.1","","99.26","","","","","","NA"
"-81.38","48.57","TIMMINS A","6078286","2023-04-09 13:00","2023","04","09","13:00","8.1","","-8.0","","31","","","","19","","22","","24.1","","99.18","","","","","","Mainly Clear"
"-81.38","48.57","TIMMINS A","6078286","2023-04-09 14:00","2023","04","09","14:00","9.1","","-9.2","","26","","","","19","","26","","24.1","","99.07","","","","","","NA"
"-81.38","48.57","TIMMINS A","6078286","2023-04-09 15:00","2023","04","09","15:00","10.6","","-9.5","","23","","","","20","","32","","24.1","","98.96","","","","","","NA"
"-81.38","48.57","TIMMINS A","6078286","2023-04-09 16:00","2023","04","09","16:00","11.0","","-10.7","","21","","","","18","","28","","24.1","","98.85","","","","","","Mainly Clear"
"-81.38","48.57","TIMMINS A","6078286","2023-04-09 17:00","2023","04","09","17:00","10.8","","-6.7","","29","","","","19","","25","","24.1","","98.80","","","","","","NA"
"-81.38","48.57","TIMMINS A","6078286","2023-04-09 18:00","2023","04","09","18:00","9.3","","-4.3","","38","","","","19","","19","","24.1","","98.74","","","","","","NA"
"-81.38","48.57","TIMMINS A","6078286","2023-04-09 19:00","2023","04","09","19:00","8.5","","-3.2","","43","","","","19","","21","","24.1","","98.64","","","","","","Clear"
"-81.38","48.57","TIMMINS A","6078286","2023-04-09 20:00","2023","04","09","20:00","7.8","","-2.4","","48","","","","20","","21","","24.1","","98.64","","","","","","NA"
"-81.38","48.57","TIMMINS A","6078286","2023-04-09 21:00","2023","04","09","21:00","6.8","","-2.5","","51","","","","20","","21","","24.1","","98.64","","","","","","NA"
"-81.38","48.57","TIMMINS A","6078286","2023-04-09 22:00","2023","04","09","22:00","6.3","","-2.6","","53","","","","21","","21","","24.1","","98.62","","","","","","Clear"
"-81.38","48.57","TIMMINS A","6078286","2023-04-09 23:00","2023","04","09","23:00","5.8","","-2.5","","55","","","","21","","17","","24.1","","98.58","","","","","","NA"
"-81.38","48.57","TIMMINS A","6078286","2023-04-10 00:00","2023","04","10","00:00","5.2","","-2.5","","57","","","","20","","29","","24.1","","98.54","","","","","","NA"
"-81.38","48.57","TIMMINS A","6078286","2023-04-10 01:00","2023","04","10","01:00","4.8","","-2.5","","59","","","","21","","24","","24.1","","98.49","","","","","","Mostly Cloudy"
"-81.38","48.57","TIMMINS A","6078286","2023-04-10 02:00","2023","04","10","02:00","4.3","","-2.5","","61","","","","20","","18","","24.1","","98.44","","","","","","NA"
"-81.38","48.57","TIMMINS A","6078286","2023-04-10 03:00","2023","04","10","03:00","4.4","","-2.4","","61","","","","20","","14","","24.1","","98.39","","","","","","NA"
"-81.38","48.57","TIMMINS A","6078286","2023-04-10 04:00","2023","04","10","04:00","4.7","","-2.7","","59","","","","22","","11","","24.1","","98.38","","","","","","Mostly Cloudy"
"-81.38","48.57","TIMMINS A","6078286","2023-04-10 05:00","2023","04","10","05:00","5.3","","-2.8","","56","","","","22","","11","","24.1","","98.35","","","","","","NA"
"-81.38","48.57","TIMMINS A","6078286","2023-04-10 06:00","2023","04","10","06:00","5.3","","-2.7","","56","","","","22","","10","","24.1","","98.36","","","","","","NA"
"-81.38","48.57","TIMMINS A","6078286","2023-04-10 07:00","2023","04","10","07:00","4.6","","-2.2","","61","","","","19","","13","","24.1","","98.35","","","","","","Mainly Clear"
"-81.38","48.57","TIMMINS A","6078286","2023-04-10 08:00","2023","04","10","08:00","8.8","","-1.7","","48","","","","21","","15","","24.1","","98.32","","","","","","NA"
"-81.38","48.57","TIMMINS A","6078286","2023-04-10 09:00","2023","04","10","09:00","10.4","","-0.7","","46","","","","23","","13","","24.1","","98.33","","","","","","NA"
"-81.38","48.57","TIMMINS A","6078286","2023-04-10 10:00","2023","04","10","10:00","10.0","","0.8","","53","","","","22","","24","","24.1","","98.31","","","","","","Rain"
"-81.38","48.57","TIMMINS A","6078286","2023-04-10 11:00","2023","04","10","11:00","8.8","","3.3","","68","","","","22","","14","","24.1","","98.28","","","","","","Rain"
"-81.38","48.57","TIMMINS A","6078286","2023-04-10 12:00","2023","04","10","12:00","12.1","","4.0","","58","","","","22","","16","","24.1","","98.18","","","","","","NA"
"-81.38","48.57","TIMMINS A","6078286","2023-04-10 13:00","2023","04","10","13:00","15.4","","3.6","","45","","","","25","","22","","24.1","","98.09","","","","","","Mostly Cloudy"
"-81.38","48.57","TIMMINS A","6078286","2023-04-10 14:00","2023","04","10","14:00","16.1","","2.8","","40","","","","24","","15","","24.1","","98.00","","","","","","NA"
"-81.38","48.57","TIMMINS A","6078286","2023-04-10 15:00","2023","04","10","15:00","16.8","","1.6","","36","","","","24","","17","","24.1","","97.92","","","","","","NA"
"-81.38","48.57","TIMMINS A","6078286","2023-04-10 16:00","2023","04","10","16:00","17.0","","0.4","","32","","","","25","","22","","24.1","","97.92","","","","","","Mostly Cloudy"
"-81.38","48.57","TIMMINS A","6078286","2023-04-10 17:00","2023","04","10","17:00","16.0","","-0.1","","33","","","","25","","15","","24.1","","97.96","","","","","","NA"
"-81.38","48.57","TIMMINS A","6078286","2023-04-10 18:00","2023","04","10","18:00","15.2","","-0.4","","34","","","","27","","16","","24.1","","97.99","","","","","","NA"
"-81.38","48.57","TIMMINS A","6078286","2023-04-10 19:00","2023","04","10","19:00","13.0","","-0.4","","40","","","","24","","8","","24.1","","98.00","","","","","","Mostly Cloudy"
"-81.38","48.57","TIMMINS A","6078286","2023-04-10 20:00","2023","04","10","20:00","11.7","","-0.4","","43","","","","24","","13","","24.1","","98.03","","","","","","NA"
"-81.38","48.57","TIMMINS A","6078286","2023-04-10 21:00","2023","04","10","21:00","10.7","","-0.5","","46","","","","23","","12","","24.1","","98.01","","","","","","NA"
"-81.38","48.57","TIMMINS A","6078286","2023-04-10 22:00","2023","04","10","22:00","9.8","","-0.6","","48","","","","22","","13","","24.1","","97.96","","","","","","Cloudy"
"-81.38","48.57","TIMMINS A","6078286","2023-04-10 23:00","2023","04","10","23:00","9.2","","-1.0","","49","","","","22","","13","","24.1","","97.86","","","","","","NA"
"-81.38","48.57","TIMMINS A","6078286","2023-04-11 00:00","2023","04","11","00:00","8.3","","-1.3","","51","","","","22","","10","","24.1","","97.78","","","","","","NA"
"-81.38","48.57","TIMMINS A","6078286","2023-04-11 01:00","2023","04","11","01:00","8.9","","-1.3","","49","","","","23","","14","","24.1","","97.68","","","","","","Cloudy"
"-81.38","48.57","TIMMINS A","6078286","2023-04-11 02:00","2023","04","11","02:00","8.9","","-1.2","","49","","","","23","","14","","24.1","","97.54","","","","","","NA"
"-81.38","48.57","TIMMINS A","6078286","2023-04-11 03:00","2023","04","11","03:00","8.6","","-1.3","","50","","","","22","","13","","24.1","","97.44","","","","","","NA"
"-81.38","48.57","TIMMINS A","6078286","2023-04-11 04:00","2023","04","11","04:00","8.5","","-1.4","","50","","","","23","","17","","24.1","","97.34","","","","","","Cloudy"
"-81.38","48.57","TIMMINS A","6078286","2023-04-11 05:00","2023","04","11","05:00","8.1","","-1.4","","51","","","","23","","13","","24.1","","97.24","","","","","","NA"
"-81.38","48.57","TIMMINS A","6078286","2023-04-11 06:00","2023","04","11","06:00","8.1","","-1.5","","51","","","","24","","10","","24.1","","97.22","","","","","","NA"
"-81.38","48.57","TIMMINS A","6078286","2023-04-11 07:00","2023","04","11","07:00","9.1","","-1.5","","47","","","","25","","14","","24.1","","97.22","","","","","","Cloudy"
"-81.38","48.57","TIMMINS A","6078286","2023-04-11 08:00","2023","04","11","08:00","10.3","","-1.3","","44","","","","27","","19","","24.1","","97.25","","","","","","NA"
"-81.38","48.57","TIMMINS A","6078286","2023-04-11 09:00","2023","04","11","09:00","10.5","","-1.1","","44","","","","28","","24","","24.1","","97.25","","","","","","NA"
"-81.38","48.57","TIMMINS A","6078286","2023-04-11 10:00","2023","04","11","10:00","10.6","","-1.6","","43","","","","29","","22","","24.1","","97.26","","","","","","Cloudy"
"-81.38","48.57","TIMMINS A","6078286","2023-04-11 11:00","2023","04","11","11:00","11.7","","-4.1","","33","","","","28","","28","","24.1","","97.26","","","","","","NA"
"-81.38","48.57","TIMMINS A","6078286","2023-04-11 12:00","2023","04","11","12:00","12.5","","-4.9","","29","","","","28","","27","","24.1","","97.27","","","","","","NA"
"-81.38","48.57","TIMMINS A","6078286","2023-04-11 13:00","2023","04","11","13:00","13.2","","-5.3","","27","","","","28","","31","","24.1","","97.28","","","","","","Mostly Cloudy"
"-81.38","48.57","TIMMINS A","6078286","2023-04-11 14:00","2023","04","11","14:00","14.5","","-6.3","","23","","","","30","","29","","24.1","","97.28","","","","","","NA"
"-81.38","48.57","TIMMINS A","6078286","2023-04-11 15:00","2023","04","11","15:00","14.7","","-9.4","","18","","","","30","","37","","24.1","","97.29","","","","","","NA"
"-81.38","48.57","TIMMINS A","6078286","2023-04-11 16:00","2023","04","11","16:00","14.6","","-8.2","","20","","","","31","","23","","24.1","","97.33","","","","","","Mostly Cloudy"
"-81.38","48.57","TIMMINS A","6078286","2023-04-11 17:00","2023","04","11","17:00","13.5","","-9.7","","19","","","","32","","30","","24.1","","97.41","","","","","","NA"
"-81.38","48.57","TIMMINS A","6078286","2023-04-11 18:00","2023","04","11","18:00","12.4","","-7.8","","24","","","","32","","21","","24.1","","97.49","","","","","","NA"
"-81.38","48.57","TIMMINS A","6078286","2023-04-11 19:00","2023","04","11","19:00","10.9","","-8.4","","25","","","","30","","12","","24.1","","97.55","","","","","","Mostly Cloudy"
"-81.38","48.57","TIMMINS A","6078286","2023-04-11 20:00","2023","04","11","20:00","9.3","","-9.0","","27","","","","29","","7","","24.1","","97.63","","","","","","NA"
"-81.38","48.57","TIMMINS A","6078286","2023-04-11 21:00","2023","04","11","21:00","7.9","","-6.3","","36","","","","1","","9","","24.1","","97.69","","","","","","NA"
"-81.38","48.57","TIMMINS A","6078286","2023-04-11 22:00","2023","04","11","22:00","6.5","","-5.9","","41","","","","3","","3","","24.1","","97.70","","","","","","Cloudy"
"-81.38","48.57","TIMMINS A","6078286","2023-04-11 23:00","2023","04","11","23:00","5.4","","-5.5","","45","","","","16","","4","","24.1","","97.69","","","","","","NA"
"-81.38","48.57","TIMMINS A","6078286","2023-04-12 00:00","2023","04","12","00:00","5.0","","-6.0","","45","","","","20","","8","","24.1","","97.68","","","","","","NA"
"-81.38","48.57","TIMMINS A","6078286","2023-04-12 01:00","2023","04","12","01:00","4.8","","-3.2","","56","","","","10","","5","","24.1","","97.61","","","","","","Rain"
"-81.38","48.57","TIMMINS A","6078286","2023-04-12 02:00","2023","04","12","02:00","3.5","","-3.8","","59","","","","12","","6","","24.1","","97.55","","","","","","NA"
"-81.38","48.57","TIMMINS A","6078286","2023-04-12 03:00","2023","04","12","03:00","2.5","","-3.9","","63","","","","16","","8","","24.1","","97.50","","","","","","NA"
"-81.38","48.57","TIMMINS A","6078286","2023-04-12 04:00","2023","04","12","04:00","1.8","","-3.7","","67","","","","16","","5","","24.1","","97.48","","","","","","Mainly Clear"
"-81.38","48.57","TIMMINS A","6078286","2023-04-12 05:00","2023","04","12","05:00","1.7","","-4.2","","65","","","","14","","6","","24.1","","97.44","","","","","","NA"
"-81.38","48.57","TIMMINS A","6078286","2023-04-12 06:00","2023","04","12","06:00","1.7","","-4.5","","63","","","","15","","12","","24.1","","97.41","","","","","","NA"
"-81.38","48.57","TIMMINS A","6078286","2023-04-12 07:00","2023","04","12","07:00","4.4","","-4.8","","51","","","","14","","14","","24.1","","97.37","","","","","","Mostly Cloudy"
"-81.38","48.57","TIMMINS A","6078286","2023-04-12 08:00","2023","04","12","08:00","4.9","","-4.3","","51","","","","13","","9","","24.1","","97.33","","","","","","NA"
"-81.38","48.57","TIMMINS A","6078286","2023-04-12 09:00","2023","04","12","09:00","7.7","","-4.3","","42","","","","12","","16","","24.1","","97.22","","","","","","NA"
"-81.38","48.57","TIMMINS A","6078286","2023-04-12 10:00","2023","04","12","10:00","10.2","","-3.8","","37","","","","11","","15","","24.1","","97.10","","","","","","Mainly Clear"
"-81.38","48.57","TIMMINS A","6078286","2023-04-12 11:00","2023","04","12","11:00","10.9","","-3.6","","36","","","","12","","21","","24.1","","97.05","","","","","","NA"
"-81.38","48.57","TIMMINS A","6078286","2023-04-12 12:00","2023","04","12","12:00","12.6","","-2.9","","34","","","","14","","30","","24.1","","96.94","","","","","","NA"
"-81.38","48.57","TIMMINS A","6078286","2023-04-12 13:00","2023","04","12","13:00","14.8","","-2.7","","30","","","","15","","15","","24.1","","96.87","","","","","","Mainly Clear"
"-81.38","48.57","TIMMINS A","6078286","2023-04-12 14:00","2023","04","12","14:00","16.5","","-1.1","","30","","","","13","","13","","24.1","","96.79","","","","","","NA"
"-81.38","48.57","TIMMINS A","6078286","2023-04-12 15:00","2023","04","12","15:00","17.5","","-1.1","","28","","","","10","","8","","24.1","","96.78","","","","","","NA"
"-81.38","48.57","TIMMINS A","6078286","2023-04-12 16:00","2023","04","12","16:00","16.5","","-1.2","","30","","","","8","","18","","24.1","","96.75","","","","","","Clear"
"-81.38","48.57","TIMMINS A","6078286","2023-04-12 17:00","2023","04","12","17:00","16.0","","-0.9","","31","","","","8","","16","","24.1","","96.75","","","","","","NA"
"-81.38","48.57","TIMMINS A","6078286","2023-04-12 18:00","2023","04","12","18:00","14.9","","-0.6","","34","","","","8","","16","","24.1","","96.76","","","","","","NA"
"-81.38","48.57","TIMMINS A","6078286","2023-04-12 19:00","2023","04","12","19:00","12.5","","-1.2","","39","","","","9","","12","","24.1","","96.80","","","","","","Mainly Clear"
"-81.38","48.57","TIMMINS A","6078286","2023-04-12 20:00","2023","04","12","20:00","10.5","","-1.5","","43","","","","13","","10","","24.1","","96.79","","","","","","NA"
"-81.38","48.57","TIMMINS A","6078286","2023-04-12 21:00","2023","04","12","21:00","8.8","","-1.6","","48","","","","16","","6","","24.1","","96.83","","","","","","NA"
"-81.38","48.57","TIMMINS A","6078286","2023-04-12 22:00","2023","04","12","22:00","9.3","","-1.1","","48","","","","16","","9","","24.1","","96.81","","","","","","Mostly Cloudy"
"-81.38","48.57","TIMMINS A","6078286","2023-04-12 23:00","2023","04","12","23:00","7.7","","-1.1","","54","","","","18","","9","","24.1","","96.78","","","","","","NA"
"-81.38","48.57","TIMMINS A","6078286","2023-04-13 00:00","2023","04","13","00:00","7.5","","-0.3","","58","","","","19","","9","","24.1","","96.76","","","","","","NA"
"-81.38","48.57","TIMMINS A","6078286","2023-04-13 01:00","2023","04","13","01:00","7.2","","1.3","","66","","","","19","","12","","24.1","","96.74","","","","","","Cloudy"
"-81.38","48.57","TIMMINS A","6078286","2023-04-13 02:00","2023","04","13","02:00","7.2","","2.1","","70","","","","19","","10","","24.1","","96.71","","","","","","NA"
"-81.38","48.57","TIMMINS A","6078286","2023-04-13 03:00","2023","04","13","03:00","5.7","","2.5","","80","","","","19","","14","","24.1","","96.72","","","","","","NA"
"-81.38","48.57","TIMMINS A","6078286","2023-04-13 04:00","2023","04","13","04:00","5.8","","3.1","","83","","","","23","","5","","24.1","","96.77","","","","","","Mainly Clear"
"-81.38","48.57","TIMMINS A","6078286","2023-04-13 05:00","2023","04","13","05:00","6.7","","3.6","","81","","","","24","","6","","24.1","","96.82","","","","","","NA"
"-81.38","48.57","TIMMINS A","6078286","2023-04-13 06:00","2023","04","13","06:00","9.4","","4.4","","71","","","","27","","10","","24.1","","96.91","","","","","","NA"
"-81.38","48.57","TIMMINS A","6078286","2023-04-13 07:00","2023","04","13","07:00","10.0","","3.9","","66","","","","28","","10","","24.1","","96.99","","","","","","Clear"
"-81.38","48.57","TIMMINS A","6078286","2023-04-13 08:00","2023","04","13","08:00","11.8","","3.4","","56","","","","29","","16","","24.1","","97.06","","","","","","NA"
"-81.38","48.57","TIMMINS A","6078286","2023-04-13 09:00","2023","04","13","09:00","13.1","","2.5","","49","","","","32","","11","","24.1","","97.13","","","","","","NA"
"-81.38","48.57","TIMMINS A","6078286","2023-04-13 10:00","2023","04","13","10:00","14.8","","0.4","","37","","","","32","","13","","24.1","","97.18","","","","","","Mainly Clear"
"-81.38","48.57","TIMMINS A","6078286","2023-04-13 11:00","2023","04","13","11:00","16.5","","-1.3","","29","","","","35","","15","","24.1","","97.21","","","","","","NA"
"-81.38","48.57","TIMMINS A","6078286","2023-04-13 12:00","2023","04","13","12:00","17.1","","-2.2","","27","","","","30","","16","","24.1","","97.29","","","","","","NA"
"-81.38","48.57","TIMMINS A","6078286","2023-04-13 13:00","2023","04","13","13:00","17.5","","-2.2","","26","","","","29","","14","","24.1","","97.33","","","","","","Mainly Clear"
"-81.38","48.57","TIMMINS A","6078286","2023-04-13 14:00","2023","04","13","14:00","18.2","","-2.8","","24","","","","29","","14","","24.1","","97.33","","","","","","NA"
"-81.38","48.57","TIMMINS A","6078286","2023-04-13 15:00","2023","04","13","15:00","18.2","","-5.0","","20","","","","31","","9","","24.1","","97.26","","","","","","NA"
"-81.38","48.57","TIMMINS A","6078286","2023-04-13 16:00","2023","04","13","16:00","18.2","","-4.5","","21","","","","31","","13","","24.1","","97.32","","","","","","Mainly Clear"
"-81.38","48.57","TIMMINS A","6078286","2023-04-13 17:00","2023","04","13","17:00","16.3","","-2.0","","28","","","","35","","19","","24.1","","97.48","","","","","","NA"
"-81.38","48.57","TIMMINS A","6078286","2023-04-13 18:00","2023","04","13","18:00","11.4","","-1.3","","41","","","","36","","22","","24.1","","97.56","","","","","","NA"
"-81.38","48.57","TIMMINS A","6078286","2023-04-13 19:00","2023","04","13","19:00","9.8","","-1.3","","46","","","","36","","18","","24.1","","97.70","","","","","","Cloudy"
"-81.38","48.57","TIMMINS A","6078286","2023-04-13 20:00","2023","04","13","20:00","7.9","","-0.9","","54","","","","1","","16","","24.1","","97.76","","","","","","NA"
"-81.38","48.57","TIMMINS A","6078286","2023-04-13 21:00","2023","04","13","21:00","6.4","","-0.3","","62","","","","2","","27","","24.1","","97.81","","","","","","NA"
"-81.38","48.57","TIMMINS A","6078286","2023-04-13 22:00","2023","04","13","22:00","5.2","","-0.4","","67","","","","3","","18","","24.1","","97.81","","","","","","Cloudy"
"-81.38","48.57","TIMMINS A","6078286","2023-04-13 23:00","2023","04","13","23:00","4.7","","-0.2","","70","","","","4","","13","","24.1","","97.85","","","","","","NA"
"-81.38","48.57","TIMMINS A","6078286","2023-04-14 00:00","2023","04","14","00:00","4.2","","0.0","","74","","","","5","","12","","24.1","","97.85","","","","","","NA"
"-81.38","48.57","TIMMINS A","6078286","2023-04-14 01:00","2023","04","14","01:00","3.0","","0.0","","81","","","","3","","13","","24.1","","97.94","","","","","","Mostly Cloudy"
"-81.38","48.57","TIMMINS A","6078286","2023-04-14 02:00","2023","04","14","02:00","2.8","","0.1","","82","","","","4","","10","","24.1","","97.96","","","","","","NA"
"-81.38","48.57","TIMMINS A","6078286","2023-04-14 03:00","2023","04","14","03:00","2.1","","-0.8","","81","","","","5","","12","","24.1","","97.98","","","","","","NA"
"-81.38","48.57","TIMMINS A","6078286","2023-04-14 04:00","2023","04","14","04:00","1.5","","-1.5","","81","","","","9","","15","","24.1","","98.01","","","","","","Mostly Cloudy"
"-81.38","48.57","TIMMINS A","6078286","2023-04-14 05:00","2023","04","14","05:00","1.1","","-1.9","","80","","","","6","","14","","24.1","","98.13","","","","","","NA"
"-81.38","48.57","TIMMINS A","6078286","2023-04-14 06:00","2023","04","14","06:00","0.5","","-2.3","","81","","","","6","","11","","24.1","","98.13","","","","","","NA"
"-81.38","48.57","TIMMINS A","6078286","2023-04-14 07:00","2023","04","14","07:00","0.4","","-2.8","","79","","","","6","","18","","24.1","","98.20","","","","","","Mostly Cloudy"
"-81.38","48.57","TIMMINS A","6078286","2023-04-14 08:00","2023","04","14","08:00","1.9","","-2.9","","70","","","","10","","14","","24.1","","98.19","","","","","","NA"
"-81.38","48.57","TIMMINS A","6078286","2023-04-14 09:00","2023","04","14","09:00","3.1","","-2.9","","65","","","","9","","22","","24.1","","98.13","","","","","","NA"
"-81.38","48.57","TIMMINS A","6078286","2023-04-14 10:00","2023","04","14","10:00","4.7","","-2.7","","59","","","","11","","13","","24.1","","98.04","","","","","","Mostly Cloudy"
"-81.38","48.57","TIMMINS A","6078286","2023-04-14 11:00","2023","04","14","11:00","7.5","","-2.2","","50","","","","12","","18","","24.1","","97.98","","","","","","NA"
"-81.38","48.57","TIMMINS A","6078286","2023-04-14 12:00","2023","04","14","12:00","10.2","","-2.2","","42","","","","13","","18","","24.1","","97.86","","","","","","NA"
"-81.38","48.57","TIMMINS A","6078286","2023-04-14 13:00","2023","04","14","13:00","12.8","","-2.1","","35","","","","11","","21","","24.1","","97.77","","","","","","Mostly Cloudy"
"-81.38","48.57","TIMMINS A","6078286","2023-04-14 14:00","2023","04","14","14:00","15.0","","-1.8","","31","","","","10","","21","","24.1","","97.68","","","","","","NA"
"-81.38","48.57","TIMMINS A","6078286","2023-04-14 15:00","2023","04","14","15:00","16.7","","-1.6","","29","","","","13","","17","","24.1","","97.63","","","","","","NA"
"-81.38","48.57","TIMMINS A","6078286","2023-04-14 16:00","2023","04","14","16:00","17.5","","-2.2","","26","","","","13","","17","","24.1","","97.59","","","","","","Mostly Cloudy"
"-81.38","48.57","TIMMINS A","6078286","2023-04-14 17:00","2023","04","14","17:00","17.8","","-1.2","","27","","","","12","","18","","24.1","","97.55","","","","","","NA"
"-81.38","48.57","TIMMINS A","6078286","2023-04-14 18:00","2023","04","14","18:00","17.0","","-1.3","","29","","","","12","","11","","24.1","","97.54","","","","","","NA"
"-81.38","48.57","TIMMINS A","6078286","2023-04-14 19:00","2023","04","14","19:00","12.7","","-1.2","","38","","","","7","","15","","24.1","","97.54","","","","","","Mainly Clear"
"-81.38","48.57","TIMMINS A","6078286","2023-04-14 20:00","2023","04","14","20:00","10.0","","-1.1","","46","","","","9","","15","","24.1","","97.56","","","","","","NA"
"-81.38","48.57","TIMMINS A","6078286","2023-04-14 21:00","2023","04","14","21:00","8.2","","-1.5","","50","","","","10","","12","","24.1","","97.57","","","","","","NA"
"-81.38","48.57","TIMMINS A","6078286","2023-04-14 22:00","2023","04","14","22:00","6.1","","-1.8","","57","","","","10","","10","","24.1","","97.54","","","","","","Clear"
"-81.38","48.57","TIMMINS A","6078286","2023-04-14 23:00","2023","04","14","23:00","6.5","","-1.9","","55","","","","10","","9","","24.1","","97.54","","","","","","NA"
"-81.38","48.57","TIMMINS A","6078286","2023-04-15 00:00","2023","04","15","00:00","5.7","","-2.0","","58","","","","11","","9","","24.1","","97.56","","","","","","NA"
"-81.38","48.57","TIMMINS A","6078286","2023-04-15 01:00","2023","04","15","01:00","4.9","","-2.2","","60","","","","11","","8","","24.1","","97.56","","","","","","Mainly Clear"
"-81.38","48.57","TIMMINS A","6078286","2023-04-15 02:00","2023","04","15","02:00","4.3","","-2.5","","61","","","","14","","5","","24.1","","97.52","","","","","","NA"
"-81.38","48.57","TIMMINS A","6078286","2023-04-15 03:00","2023","04","15","03:00","3.7","","-2.4","","65","","","","16","","7","","24.1","","97.47","","","","","","NA"
"-81.38","48.57","TIMMINS A","6078286","2023-04-15 04:00","2023","04","15","04:00","2.5","","-2.3","","70","","","","18","","7","","24.1","","97.44","","","","","","Clear"
"-81.38","48.57","TIMMINS A","6078286","2023-04-15 05:00","2023","04","15","05:00","3.7","","-1.4","","69","","","","16","","8","","24.1","","97.45","","","","","","NA"
"-81.38","48.57","TIMMINS A","6078286","2023-04-15 06:00","2023","04","15","06:00","3.3","","-0.6","","75","","","","18","","10","","24.1","","97.47","","","","","","NA"
"-81.38","48.57","TIMMINS A","6078286","2023-04-15 07:00","2023","04","15","07:00","7.2","","2.0","","69","","","","19","","9","","24.1","","97.51","","","","","","Clear"
"-81.38","48.57","TIMMINS A","6078286","2023-04-15 08:00","2023","04","15","08:00","11.6","","3.4","","57","","","","19","","14","","24.1","","97.49","","","","","","NA"
"-81.38","48.57","TIMMINS A","6078286","2023-04-15 09:00","2023","04","15","09:00","15.7","","4.7","","48","","","","18","","13","","24.1","","97.45","","","","","","NA"
"-81.38","48.57","TIMMINS A","6078286","2023-04-15 10:00","2023","04","15","10:00","18.7","","4.6","","39","","","","19","","12","","24.1","","97.45","","","","","","Mainly Clear"
"-81.38","48.57","TIMMINS A","6078286","2023-04-15 11:00","2023","04","15","11:00","21.9","","5.3","","33","","","","17","","10","","24.1","","97.42","","","","","","NA"
"-81.38","48.57","TIMMINS A","6078286","2023-04-15 12:00","2023","04","15","12:00","23.3","","3.7","","27","","","","16","","7","","24.1","","97.39","","","","","","NA"
"-81.38","48.57","TIMMINS A","6078286","2023-04-15 13:00","2023","04","15","13:00","24.7","","5.9","","29","","","","18","","15","","24.1","","97.34","","","","","","Mainly Clear"
"-81.38","48.57","TIMMINS A","6078286","2023-04-15 14:00","2023","04","15","14:00","25.7","","6.6","","29","","","","19","","17","","24.1","","97.33","","26","","","","NA"
"-81.38","48.57","TIMMINS A","6078286","2023-04-15 15:00","2023","04","15","15:00","27.0","","4.2","","23","","","","21","","16","","24.1","","97.29","","26","","","","NA"
"-81.38","48.57","TIMMINS A","6078286","2023-04-15 16:00","2023","04","15","16:00","27.4","","3.5","","21","","","","26","","11","","24.1","","97.27","","26","","","","Mostly Cloudy"
"-81.38","48.57","TIMMINS A","6078286","2023-04-15 17:00","2023","04","15","17:00","24.7","","4.9","","27","","","","34","","7","","24.1","","97.26","","","","","","NA"
"-81.38","48.57","TIMMINS A","6078286","2023-04-15 18:00","2023","04","15","18:00","23.1","","5.6","","32","","","","4","","7","","24.1","","97.30","","","","","","NA"
"-81.38","48.57","TIMMINS A","6078286","2023-04-15 19:00","2023","04","15","19:00","19.9","","4.0","","35","","","","1","","15","","24.1","","97.32","","","","","","Mostly Cloudy"
"-81.38","48.57","TIMMINS A","6078286","2023-04-15 20:00","2023","04","15","20:00","17.2","","3.3","","39","","","","1","","13","","24.1","","97.37","","","","","","NA"
"-81.38","48.57","TIMMINS A","6078286","2023-04-15 21:00","2023","04","15","21:00","12.9","","0.7","","43","","","","35","","14","","24.1","","97.40","","","","","","NA"
"-81.38","48.57","TIMMINS A","6078286","2023-04-15 22:00","2023","04","15","22:00","11.8","","0.1","","44","","","","36","","13","","24.1","","97.40","","","","","","Mostly Cloudy"
"-81.38","48.57","TIMMINS A","6078286","2023-04-15 23:00","2023","04","15","23:00","10.5","","-0.1","","48","","","","35","","10","","24.1","","97.38","","","","","","NA"
"-81.38","48.57","TIMMINS A","6078286","2023-04-16 00:00","2023","04","16","00:00","8.8","","-0.8","","51","","","","1","","11","","24.1","","97.43","","","","","","NA"
"-81.38","48.57","TIMMINS A","6078286","2023-04-16 01:00","2023","04","16","01:00","7.2","","-1.1","","55","","","","3","","10","","24.1","","97.41","","","","","","Cloudy"
"-81.38","48.57","TIMMINS A","6078286","2023-04-16 02:00","2023","04","16","02:00","6.5","","-1.5","","57","","","","1","","9","","24.1","","97.37","","","","","","NA"
"-81.38","48.57","TIMMINS A","6078286","2023-04-16 03:00","2023","04","16","03:00","5.4","","-1.8","","60","","","","35","","6","","24.1","","97.32","","","","","","NA"
"-81.38","48.57","TIMMINS A","6078286","2023-04-16 04:00","2023","04","16","04:00","4.2","","-1.8","","65","","","","2","","9","","24.1","","97.30","","","","","","Mostly Cloudy"
"-81.38","48.57","TIMMINS A","6078286","2023-04-16 05:00","2023","04","16","05:00","3.6","","-2.2","","66","","","","4","","7","","24.1","","97.30","","","","","","NA"
"-81.38","48.57","TIMMINS A","6078286","2023-04-16 06:00","2023","04","16","06:00","3.1","","-2.1","","69","","","","2","","12","","24.1","","97.29","","","","","","NA"
"-81.38","48.57","TIMMINS A","6078286","2023-04-16 07:00","2023","04","16","07:00","4.6","","-2.0","","62","","","","4","","9","","24.1","","97.29","","","","","","Mostly Cloudy"
"-81.38","48.57","TIMMINS A","6078286","2023-04-16 08:00","2023","04","16","08:00","7.2","","-1.5","","54","","","","7","","7","","24.1","","97.24","","","","","","NA"
"-81.38","48.57","TIMMINS A","6078286","2023-04-16 09:00","2023","04","16","09:00","10.0","","-0.6","","48","","","","3","","7","","24.1","","97.16","","","","","","NA"
"-81.38","48.57","TIMMINS A","6078286","2023-04-16 10:00","2023","04","16","10:00","13.9","","1.1","","42","","","","6","","4","","24.1","","97.09","","","","","","Mostly Cloudy"
"-81.38","48.57","TIMMINS A","6078286","2023-04-16 11:00","2023","04","16","11:00","17.8","","1.8","","34","","","","7","","7","","24.1","","97.05","","","","","","NA"
"-81.38","48.57","TIMMINS A","6078286","2023-04-16 12:00","2023","04","16","12:00","20.1","","2.6","","31","","","","4","","5","","24.1","","96.95","","","","","","NA"
"-81.38","48.57","TIMMINS A","6078286","2023-04-16 13:00","2023","04","16","13:00","23.1","","3.8","","28","","","","8","","13","","24.1","","96.86","","","","","","Mostly Cloudy"
"-81.38","48.57","TIMMINS A","6078286","2023-04-16 14:00","2023","04","16","14:00","24.5","","3.8","","26","","","","8","","10","","24.1","","96.76","","","","","","NA"
"-81.38","48.57","TIMMINS A","6078286","2023-04-16 15:00","2023","04","16","15:00","26.1","","4.5","","24","","","","7","","17","","24.1","","96.63","","25","","","","NA"
"-81.38","48.57","TIMMINS A","6078286","2023-04-16 16:00","2023","04","16","16:00","25.4","","4.8","","26","","","","7","","20","","24.1","","96.51","","25","","","","Mostly Cloudy"
"-81.38","48.57","TIMMINS A","6078286","2023-04-16 17:00","2023","04","16","17:00","23.9","","4.6","","28","","","","5","","16","","24.1","","96.42","","","","","","NA"
"-81.38","48.57","TIMMINS A","6078286","2023-04-16 18:00","2023","04","16","18:00","19.7","","3.5","","34","","","","33","","10","","24.1","","96.42","","","","","","NA"
"-81.38","48.57","TIMMINS A","6078286","2023-04-16 19:00","2023","04","16","19:00","16.4","","2.7","","40","","","","35","","17","","24.1","","96.38","","","","","","Mostly Cloudy"
"-81.38","48.57","TIMMINS A","6078286","2023-04-16 20:00","2023","04","16","20:00","13.1","","1.5","","45","","","","36","","15","","24.1","","96.35","","","","","","NA"
"-81.38","48.57","TIMMINS A","6078286","2023-04-16 21:00","2023","04","16","21:00","11.6","","1.2","","49","","","","1","","16","","24.1","","96.29","","","","","","NA"
"-81.38","48.57","TIMMINS A","6078286","2023-04-16 22:00","2023","04","16","22:00","10.3","","1.0","","52","","","","1","","11","","24.1","","96.19","","","","","","Mostly Cloudy"
"-81.38","48.57","TIMMINS A","6078286","2023-04-16 23:00","2023","04","16","23:00","9.9","","1.0","","54","","","","1","","13","","24.1","","96.12","","","","","","NA"
"-81.38","48.57","TIMMINS A","6078286","2023-04-17 00:00","2023","04","17","00:00","7.5","","0.2","","60","","","","31","","12","","24.1","","96.17","","","","","","NA"
"-81.38","48.57","TIMMINS A","6078286","2023-04-17 01:00","2023","04","17","01:00","5.4","","-0.6","","65","","","","30","","12","","24.1","","96.20","","","","","","Mostly Cloudy"
"-81.38","48.57","TIMMINS A","6078286","2023-04-17 02:00","2023","04","17","02:00"
"-81.38","48.57","TIMMINS A","6078286","2023-04-17 03:00","2023","04","17","03:00","3.7","","-1.3","","70","","","","35","","10","","24.1","","96.03","","","","","","NA"
"-81.38","48.57","TIMMINS A","6078286","2023-04-17 04:00","2023","04","17","04:00","2.8","","-0.1","","81","","","","33","","4","","9.7","","96.08","","","","","","Rain Showers"
"-81.38","48.57","TIMMINS A","6078286","2023-04-17 05:00","2023","04","17","05:00","1.9","","0.9","","93","","","","34","","4","","24.1","","96.05","","","","","","Rain Showers"
"-81.38","48.57","TIMMINS A","6078286","2023-04-17 06:00","2023","04","17","06:00","1.7","","1.1","","96","","","","29","","5","","16.1","","96.07","","","","","","Rain Showers"
"-81.38","48.57","TIMMINS A","6078286","2023-04-17 07:00","2023","04","17","07:00","1.4","","0.9","","97","","","","31","","7","","12.9","","96.05","","","","","","Moderate Rain Showers"
"-81.38","48.57","TIMMINS A","6078286","2023-04-17 08:00","2023","04","17","08:00","1.4","","1.0","","97","","","","32","","8","","24.1","","96.03","","","","","","Rain Showers"
"-81.38","48.57","TIMMINS A","6078286","2023-04-17 09:00","2023","04","17","09:00","1.8","","1.3","","96","","","","34","","3","","24.1","","96.04","","","","","","NA"
"-81.38","48.57","TIMMINS A","6078286","2023-04-17 10:00","2023","04","17","10:00","3.7","","2.9","","94","","","","0","","1","","9.7","","96.05","","","","","","Fog"
"-81.38","48.57","TIMMINS A","6078286","2023-04-17 11:00","2023","04","17","11:00","5.1","","4.2","","94","","","","14","","4","","16.1","","96.02","","","","","","Fog"
"-81.38","48.57","TIMMINS A","6078286","2023-04-17 12:00","2023","04","17","12:00","6.1","","4.0","","87","","","","17","","16","","16.1","","96.05","","","","","","NA"
"-81.38","48.57","TIMMINS A","6078286","2023-04-17 13:00","2023","04","17","13:00","5.2","","3.8","","90","","","","31","","18","","12.9","","96.03","","","","","","Rain Showers"
"-81.38","48.57","TIMMINS A","6078286","2023-04-17 14:00","2023","04","17","14:00","5.4","","4.0","","91","","","","26","","7","","9.7","","96.04","","","","","","Rain Showers,Fog"
"-81.38","48.57","TIMMINS A","6078286","2023-04-17 15:00","2023","04","17","15:00","5.1","","4.2","","94","","","","29","","8","","9.7","","96.05","","","","","","Rain Showers,Fog"
"-81.38","48.57","TIMMINS A","6078286","2023-04-17 16:00","2023","04","17","16:00","5.2","","4.5","","95","","","","29","","7","","4.8","","96.04","","","","","","Rain Showers,Fog"
"-81.38","48.57","TIMMINS A","6078286","2023-04-17 17:00","2023","04","17","17:00","4.4","","3.7","","95","","","","28","","6","","4.0","","96.07","","","","","","Rain Showers,Fog"
"-81.38","48.57","TIMMINS A","6078286","2023-04-17 18:00","2023","04","17","18:00","3.6","","2.9","","96","","","","31","","10","","4.8","","96.10","","","","","","Rain Showers,Fog"
"-81.38","48.57","TIMMINS A","6078286","2023-04-17 19:00","2023","04","17","19:00","2.3","","1.6","","95","","","","32","","11","","24.1","","96.13","","","","","","Rain Showers"
"-81.38","48.57","TIMMINS A","6078286","2023-04-17 20:00","2023","04","17","20:00","1.6","","1.1","","96","","","","33","","14","","9.7","","96.17","","","","","","Rain Showers"
"-81.38","48.57","TIMMINS A","6078286","2023-04-17 21:00","2023","04","17","21:00","0.4","","-0.1","","97","","","","34","","8","","8.1","","96.17","","","","","","Snow"
"-81.38","48.57","TIMMINS A","6078286","2023-04-17 22:00","2023","04","17","22:00","0.1","","-0.4","","97","","","","34","","9","","9.7","","96.16","","","","","","Snow"
"-81.38","48.57","TIMMINS A","6078286","2023-04-17 23:00","2023","04","17","23:00","-0.3","","-1.0","","95","","","","32","","10","","9.7","","96.14","","","","-4","","Snow"
"-81.38","48.57","TIMMINS A","6078286","2023-04-18 00:00","2023","04","18","00:00","-0.9","","-1.6","","95","","","","32","","10","","12.9","","96.16","","","","-4","","Snow"
"-81.38","48.57","TIMMINS A","6078286","2023-04-18 01:00","2023","04","18","01:00","-1.9","","-2.8","","94","","","","31","","17","","9.7","","96.16","","","","-7","","Snow"
"-81.38","48.57","TIMMINS A","6078286","2023-04-18 02:00","2023","04","18","02:00","-2.4","","-3.5","","92","","","","32","","13","","9.7","","96.18","","","","-7","","Snow"
"-81.38","48.57","TIMMINS A","6078286","2023-04-18 03:00","2023","04","18","03:00","-3.2","","-4.2","","92","","","","33","","13","","9.7","","96.16","","","","-8","","Snow"
"-81.38","48.57","TIMMINS A","6078286","2023-04-18 04:00","2023","04","18","04:00","-3.6","","-4.9","","91","","","","31","","16","","9.7","","96.16","","","","-9","","Snow"
"-81.38","48.57","TIMMINS A","6078286","2023-04-18 05:00","2023","04","18","05:00","-3.8","","-5.3","","90","","","","31","","17","","3.2","","96.19","","","","-10","","Snow,Fog"
"-81.38","48.57","TIMMINS A","6078286","2023-04-18 06:00","2023","04","18","06:00","-4.1","","-5.6","","89","","","","32","","14","","3.2","","96.25","","","","-9","","Snow,Fog"
"-81.38","48.57","TIMMINS A","6078286","2023-04-18 07:00","2023","04","18","07:00","-4.0","","-5.8","","88","","","","30","","17","","3.2","","96.31","","","","-10","","Snow,Fog"
"-81.38","48.57","TIMMINS A","6078286","2023-04-18 08:00","2023","04","18","08:00","-3.8","","-5.6","","87","","","","29","","14","","4.8","","96.36","","","","-9","","Snow,Fog"
"-81.38","48.57","TIMMINS A","6078286","2023-04-18 09:00","2023","04","18","09:00","-3.7","","-6.8","","79","","","","30","","16","","24.1","","96.41","","","","-9","","Snow"
"-81.38","48.57","TIMMINS A","6078286","2023-04-18 10:00","2023","04","18","10:00","-3.6","","-6.3","","82","","","","29","","15","","24.1","","96.47","","","","-9","","Snow"
"-81.38","48.57","TIMMINS A","6078286","2023-04-18 11:00","2023","04","18","11:00","-3.6","","-7.0","","78","","","","30","","21","","24.1","","96.56","","","","-10","","Snow"
"-81.38","48.57","TIMMINS A","6078286","2023-04-18 12:00","2023","04","18","12:00","-3.1","","-7.0","","75","","","","31","","17","","24.1","","96.61","","","","-9","","Snow"
"-81.38","48.57","TIMMINS A","6078286","2023-04-18 13:00","2023","04","18","13:00","-2.7","","-6.8","","73","","","","28","","16","","24.1","","96.66","","","","-8","","Cloudy"
"-81.38","48.57","TIMMINS A","6078286","2023-04-18 14:00","2023","04","18","14:00","-2.8","","-7.1","","72","","","","32","","18","","24.1","","96.76","","","","-8","","NA"
"-81.38","48.57","TIMMINS A","6078286","2023-04-18 15:00","2023","04","18","15:00","-3.1","","-7.9","","70","","","","30","","20","","24.1","","96.86","","","","-9","","NA"
"-81.38","48.57","TIMMINS A","6078286","2023-04-18 16:00","2023","04","18","16:00","-3.1","","-7.8","","70","","","","30","","16","","24.1","","96.95","","","","-8","","Cloudy"
"-81.38","48.57","TIMMINS A","6078286","2023-04-18 17:00","2023","04","18","17:00","-3.5","","-8.0","","71","","","","30","","21","","24.1","","97.04","","","","-10","","NA"
"-81.38","48.57","TIMMINS A","6078286","2023-04-18 18:00","2023","04","18","18:00","-4.4","","-9.1","","70","","","","31","","25","","24.1","","97.14","","","","-12","","Snow"
"-81.38","48.57","TIMMINS A","6078286","2023-04-18 19:00","2023","04","18","19:00","-5.1","","-8.5","","77","","","","29","","15","","8.1","","97.23","","","","-11","","Snow"
"-81.38","48.57","TIMMINS A","6078286","2023-04-18 20:00","2023","04","18","20:00","-5.4","","-8.0","","82","","","","29","","20","","4.0","","97.29","","","","-12","","Snow"
"-81.38","48.57","TIMMINS A","6078286","2023-04-18 21:00","2023","04","18","21:00","-5.3","","-8.1","","81","","","","29","","12","","8.1","","97.35","","","","-10","","Snow"
"-81.38","48.57","TIMMINS A","6078286","2023-04-18 22:00","2023","04","18","22:00","-5.6","","-8.5","","80","","","","30","","21","","8.1","","97.43","","","","-12","","Snow"
"-81.38","48.57","TIMMINS A","6078286","2023-04-18 23:00","2023","04","18","23:00","-6.1","","-8.7","","82","","","","30","","21","","4.8","","97.47","","","","-13","","Snow"
"-81.38","48.57","TIMMINS A","6078286","2023-04-19 00:00","2023","04","19","00:00","-6.4","","-8.6","","84","","","","29","","14","","4.8","","97.54","","","","-12","","Snow"
"-81.38","48.57","TIMMINS A","6078286","2023-04-19 01:00","2023","04","19","01:00","-6.2","","-8.5","","84","","","","29","","13","","4.8","","97.59","","","","-12","","Snow"
"-81.38","48.57","TIMMINS A","6078286","2023-04-19 02:00","2023","04","19","02:00","-6.1","","-8.7","","82","","","","29","","15","","4.8","","97.63","","","","-12","","Snow"
"-81.38","48.57","TIMMINS A","6078286","2023-04-19 03:00","2023","04","19","03:00","-6.2","","-7.9","","88","","","","27","","8","","4.8","","97.67","","","","-10","","Snow"
"-81.38","48.57","TIMMINS A","6078286","2023-04-19 04:00","2023","04","19","04:00","-5.9","","-7.7","","87","","","","28","","10","","4.8","","97.73","","","","-10","","Snow"
"-81.38","48.57","TIMMINS A","6078286","2023-04-19 05:00","2023","04","19","05:00","-5.7","","-7.7","","85","","","","30","","15","","4.8","","97.74","","","","-11","","Snow"
"-81.38","48.57","TIMMINS A","6078286","2023-04-19 06:00","2023","04","19","06:00","-5.7","","-7.1","","90","","","","31","","9","","3.2","","97.78","","","","-10","","Snow"
"-81.38","48.57","TIMMINS A","6078286","2023-04-19 07:00","2023","04","19","07:00","-5.5","","-7.3","","87","","","","32","","16","","4.8","","97.93","","","","-11","","Snow"
"-81.38","48.57","TIMMINS A","6078286","2023-04-19 08:00","2023","04","19","08:00","-5.2","","-7.3","","85","","","","30","","19","","4.8","","98.04","","","","-12","","Snow"
"-81.38","48.57","TIMMINS A","6078286","2023-04-19 09:00","2023","04","19","09:00","-5.2","","-8.4","","79","","","","30","","20","","14.5","","98.06","","","","-12","","Snow"
"-81.38","48.57","TIMMINS A","6078286","2023-04-19 10:00","2023","04","19","10:00","-4.3","","-8.6","","72","","","","30","","27","","24.1","","98.10","","","","-12","","Snow,Blowing Snow"
"-81.38","48.57","TIMMINS A","6078286","2023-04-19 11:00","2023","04","19","11:00","-4.0","","-7.9","","75","","","","30","","16","","24.1","","98.12","","","","-10","","Snow,Blowing Snow"
"-81.38","48.57","TIMMINS A","6078286","2023-04-19 12:00","2023","04","19","12:00","-2.8","","-7.1","","72","","","","30","","15","","24.1","","98.15","","","","-8","","Snow,Blowing Snow"
"-81.38","48.57","TIMMINS A","6078286","2023-04-19 13:00","2023","04","19","13:00","-0.7","","-6.5","","65","","","","31","","28","","24.1","","98.16","","","","-7","","Mostly Cloudy"
"-81.38","48.57","TIMMINS A","6078286","2023-04-19 14:00","2023","04","19","14:00","1.4","","-5.3","","61","","","","32","","20","","24.1","","98.20","","","","","","NA"
"-81.38","48.57","TIMMINS A","6078286","2023-04-19 15:00","2023","04","19","15:00","2.9","","-4.5","","58","","","","35","","19","","24.1","","98.23","","","","","","NA"
"-81.38","48.57","TIMMINS A","6078286","2023-04-19 16:00","2023","04","19","16:00","2.8","","-5.2","","56","","","","33","","27","","24.1","","98.25","","","","","","Mostly Cloudy"
"-81.38","48.57","TIMMINS A","6078286","2023-04-19 17:00","2023","04","19","17:00","1.7","","-5.1","","61","","","","33","","18","","24.1","","98.39","","","","","","NA"
"-81.38","48.57","TIMMINS A","6078286","2023-04-19 18:00","2023","04","19","18:00","0.9","","-5.4","","63","","","","34","","11","","24.1","","98.49","","","","","","NA"
"-81.38","48.57","TIMMINS A","6078286","2023-04-19 19:00","2023","04","19","19:00","0.5","","-6.1","","61","","","","33","","19","","24.1","","98.52","","","","","","Mostly Cloudy"
"-81.38","48.57","TIMMINS A","6078286","2023-04-19 20:00","2023","04","19","20:00","0.0","","-6.2","","63","","","","31","","14","","24.1","","98.60","","","","-4","","NA"
"-81.38","48.57","TIMMINS A","6078286","2023-04-19 21:00","2023","04","19","21:00","0.2","","-6.1","","63","","","","31","","17","","24.1","","98.70","","","","","","NA"
"-81.38","48.57","TIMMINS A","6078286","2023-04-19 22:00","2023","04","19","22:00","0.0","","-6.3","","63","","","","33","","17","","24.1","","98.76","","","","-5","","Cloudy"
"-81.38","48.57","TIMMINS A","6078286","2023-04-19 23:00","2023","04","19","23:00","-0.2","","-6.1","","65","","","","32","","13","","24.1","","98.79","","","","-4","","NA"
"-81.38","48.57","TIMMINS A","6078286","2023-04-20 00:00","2023","04","20","00:00","-0.6","","-6.0","","67","","","","32","","17","","24.1","","98.83","","","","-6","","NA"
"-81.38","48.57","TIMMINS A","6078286","2023-04-20 01:00","2023","04","20","01:00","-1.1","","-6.1","","69","","","","35","","13","","24.1","","98.89","","","","-5","","Cloudy"
"-81.38","48.57","TIMMINS A","6078286","2023-04-20 02:00","2023","04","20","02:00","-2.1","","-7.3","","68","","","","34","","14","","24.1","","98.94","","","","-7","","NA"
"-81.38","48.57","TIMMINS A","6078286","2023-04-20 03:00","2023","04","20","03:00","-3.7","","-7.4","","76","","","","29","","3","","24.1","","98.97","","","","-5","","NA"
"-81.38","48.57","TIMMINS A","6078286","2023-04-20 04:00","2023","04","20","04:00","-5.0","","-7.2","","84","","","","32","","7","","24.1","","99.03","","","","-8","","Mainly Clear"
"-81.38","48.57","TIMMINS A","6078286","2023-04-20 05:00","2023","04","20","05:00","-5.8","","-8.1","","84","","","","32","","6","","24.1","","99.04","","","","-9","","NA"
"-81.38","48.57","TIMMINS A","6078286","2023-04-20 06:00","2023","04","20","06:00","-5.2","","-8.3","","79","","","","33","","8","","24.1","","99.04","","","","-9","","NA"
"-81.38","48.57","TIMMINS A","6078286","2023-04-20 07:00","2023","04","20","07:00","-3.6","","-7.8","","73","","","","34","","8","","24.1","","99.10","","","","-7","","Clear"
"-81.38","48.57","TIMMINS A","6078286","2023-04-20 08:00","2023","04","20","08:00","-2.3","","-9.2","","59","","","","8","","5","","24.1","","99.13","","","","-4","","NA"
"-81.38","48.57","TIMMINS A","6078286","2023-04-20 09:00","2023","04","20","09:00","0.5","","-9.0","","49","","","","1","","9","","24.1","","99.08","","","","","","NA"
"-81.38","48.57","TIMMINS A","6078286","2023-04-20 10:00","2023","04","20","10:00","1.6","","-11.9","","36","","","","5","","8","","24.1","","98.99","","","","","","Mainly Clear"
"-81.38","48.57","TIMMINS A","6078286","2023-04-20 11:00","2023","04","20","11:00","3.6","","-13.0","","29","","","","10","","9","","24.1","","98.94","","","","","","NA"
"-81.38","48.57","TIMMINS A","6078286","2023-04-20 12:00","2023","04","20","12:00","5.0","","-10.7","","31","","","","9","","8","","24.1","","98.94","","","","","","NA"
"-81.38","48.57","TIMMINS A","6078286","2023-04-20 13:00","2023","04","20","13:00","5.5","","-12.4","","26","","","","18","","7","","24.1","","98.86","","","","","","Mostly Cloudy"
"-81.38","48.57","TIMMINS A","6078286","2023-04-20 14:00","2023","04","20","14:00","7.3","","-9.8","","29","","","","11","","14","","24.1","","98.76","","","","","","NA"
"-81.38","48.57","TIMMINS A","6078286","2023-04-20 15:00","2023","04","20","15:00","6.7","","-13.2","","23","","","","11","","16","","24.1","","98.64","","","","","","NA"
"-81.38","48.57","TIMMINS A","6078286","2023-04-20 16:00","2023","04","20","16:00","6.3","","-11.4","","27","","","","14","","5","","24.1","","98.79","","","","","","Cloudy"
"-81.38","48.57","TIMMINS A","6078286","2023-04-20 17:00","2023","04","20","17:00","6.1","","-11.2","","28","","","","8","","16","","24.1","","98.70","","","","","","NA"
"-81.38","48.57","TIMMINS A","6078286","2023-04-20 18:00","2023","04","20","18:00","5.5","","-10.3","","31","","","","10","","16","","24.1","","98.56","","","","","","NA"
"-81.38","48.57","TIMMINS A","6078286","2023-04-20 19:00","2023","04","20","19:00","4.9","","-8.6","","37","","","","9","","7","","24.1","","98.57","","","","","","Cloudy"
"-81.38","48.57","TIMMINS A","6078286","2023-04-20 20:00","2023","04","20","20:00","1.1","","-1.8","","81","","","","8","","20","","2.4","","98.61","","","","","","Snow Showers"
"-81.38","48.57","TIMMINS A","6078286","2023-04-20 21:00","2023","04","20","21:00","1.4","","-2.6","","75","","","","5","","13","","4.8","","98.65","","","","","","Snow Showers"
"-81.38","48.57","TIMMINS A","6078286","2023-04-20 22:00","2023","04","20","22:00","0.8","","-2.0","","82","","","","7","","16","","4.8","","98.59","","","","","","Snow Showers"
"-81.38","48.57","TIMMINS A","6078286","2023-04-20 23:00","2023","04","20","23:00","0.9","","-2.4","","79","","","","9","","19","","4.8","","98.49","","","","","","Snow Showers"
"-81.38","48.57","TIMMINS A","6078286","2023-04-21 00:00","2023","04","21","00:00","0.3","","-1.6","","87","","","","11","","10","","4.8","","98.44","","","","","","Snow Showers"
"-81.38","48.57","TIMMINS A","6078286","2023-04-21 01:00","2023","04","21","01:00","0.3","","-0.9","","92","","","","10","","16","","16.1","","98.29","","","","","","Freezing Rain"
"-81.38","48.57","TIMMINS A","6078286","2023-04-21 02:00","2023","04","21","02:00","0.6","","-0.8","","90","","","","11","","13","","16.1","","98.22","","","","","","Freezing Rain"
"-81.38","48.57","TIMMINS A","6078286","2023-04-21 03:00","2023","04","21","03:00","0.7","","-0.7","","90","","","","9","","24","","24.1","","98.09","","","","","","Freezing Rain"
"-81.38","48.57","TIMMINS A","6078286","2023-04-21 04:00","2023","04","21","04:00","0.6","","-0.3","","94","","","","10","","20","","24.1","","98.01","","","","","","Rain"
"-81.38","48.57","TIMMINS A","6078286","2023-04-21 05:00","2023","04","21","05:00","0.6","","-0.3","","94","","","","9","","23","","4.8","","97.92","","","","","","Rain,Fog"
"-81.38","48.57","TIMMINS A","6078286","2023-04-21 06:00","2023","04","21","06:00","0.6","","-0.3","","94","","","","11","","19","","12.9","","97.85","","","","","","Rain"
"-81.38","48.57","TIMMINS A","6078286","2023-04-21 07:00","2023","04","21","07:00","0.6","","-0.2","","94","","","","11","","19","","24.1","","97.74","","","","","","Cloudy"
"-81.38","48.57","TIMMINS A","6078286","2023-04-21 08:00","2023","04","21","08:00","0.8","","-0.1","","93","","","","12","","19","","24.1","","97.69","","","","","","Rain"
"-81.38","48.57","TIMMINS A","6078286","2023-04-21 09:00","2023","04","21","09:00","0.8","","0.1","","95","","","","11","","19","","4.0","","97.64","","","","","","Moderate Rain,Fog"
"-81.38","48.57","TIMMINS A","6078286","2023-04-21 10:00","2023","04","21","10:00","1.0","","0.2","","95","","","","11","","11","","4.0","","97.65","","","","","","Rain,Fog"
"-81.38","48.57","TIMMINS A","6078286","2023-04-21 11:00","2023","04","21","11:00","1.6","","0.9","","95","","","","10","","16","","24.1","","97.55","","","","","","NA"
"-81.38","48.57","TIMMINS A","6078286","2023-04-21 12:00","2023","04","21","12:00","1.7","","1.1","","96","","","","13","","14","","4.0","","97.49","","","","","","Fog"
"-81.38","48.57","TIMMINS A","6078286","2023-04-21 13:00","2023","04","21","13:00","1.8","","1.2","","95","","","","11","","14","","8.1","","97.45","","","","","","Fog"
"-81.38","48.57","TIMMINS A","6078286","2023-04-21 14:00","2023","04","21","14:00","2.4","","1.7","","95","","","","13","","11","","8.1","","97.44","","","","","","Fog"
"-81.38","48.57","TIMMINS A","6078286","2023-04-21 15:00","2023","04","21","15:00","2.6","","1.8","","95","","","","15","","13","","12.9","","97.47","","","","","","NA"
"-81.38","48.57","TIMMINS A","6078286","2023-04-21 16:00","2023","04","21","16:00","2.9","","2.3","","96","","","","17","","16","","4.8","","97.50","","","","","","Fog"
"-81.38","48.57","TIMMINS A","6078286","2023-04-21 17:00","2023","04","21","17:00","3.3","","2.8","","97","","","","15","","13","","4.0","","97.45","","","","","","Fog"
"-81.38","48.57","TIMMINS A","6078286","2023-04-21 18:00","2023","04","21","18:00","3.6","","3.1","","97","","","","17","","9","","4.0","","97.52","","","","","","Fog"
"-81.38","48.57","TIMMINS A","6078286","2023-04-21 19:00","2023","04","21","19:00","3.7","","3.3","","97","","","","17","","9","","4.0","","97.54","","","","","","Fog"
"-81.38","48.57","TIMMINS A","6078286","2023-04-21 20:00","2023","04","21","20:00","3.5","","3.1","","97","","","","18","","4","","4.0","","97.59","","","","","","Fog"
"-81.38","48.57","TIMMINS A","6078286","2023-04-21 21:00","2023","04","21","21:00","2.4","","2.1","","98","","","","14","","4","","0.8","","97.60","","","","","","Fog"
"-81.38","48.57","TIMMINS A","6078286","2023-04-21 22:00","2023","04","21","22:00","0.2","","-0.1","","98","","","","20","","7","","0.8","","97.63","","","","","","Fog"
"-81.38","48.57","TIMMINS A","6078286","2023-04-21 23:00","2023","04","21","23:00","-2.0","","-2.3","","98","","","","17","","11","","16.1","","97.59","","","","-6","","NA"
"-81.38","48.57","TIMMINS A","6078286","2023-04-22 00:00","2023","04","22","00:00","-0.6","","-1.0","","98","","","","16","","3","","24.1","","97.59","","","","-2","","NA"
"-81.38","48.57","TIMMINS A","6078286","2023-04-22 01:00","2023","04","22","01:00","-1.3","","-1.6","","98","","","","36","","2","","24.1","","97.60","","","","-2","","Mainly Clear"
"-81.38","48.57","TIMMINS A","6078286","2023-04-22 02:00","2023","04","22","02:00","-1.9","","-2.2","","98","","","","11","","7","","24.1","","97.61","","","","-5","","NA"
"-81.38","48.57","TIMMINS A","6078286","2023-04-22 03:00","2023","04","22","03:00","-1.9","","-2.3","","97","","","","11","","3","","24.1","","97.58","","","","-3","","NA"
"-81.38","48.57","TIMMINS A","6078286","2023-04-22 04:00","2023","04","22","04:00","-1.6","","-2.0","","97","","","","11","","7","","24.1","","97.53","","","","-4","","Mainly Clear"
"-81.38","48.57","TIMMINS A","6078286","2023-04-22 05:00","2023","04","22","05:00","-0.6","","-1.0","","98","","","","13","","8","","0.8","","97.55","","","","-3","","Freezing Fog"
"-81.38","48.57","TIMMINS A","6078286","2023-04-22 06:00","2023","04","22","06:00","-1.2","","-1.6","","98","","","","6","","7","","0.4","","97.56","","","","-4","","Freezing Fog"
"-81.38","48.57","TIMMINS A","6078286","2023-04-22 07:00","2023","04","22","07:00","-0.7","","-1.0","","98","","","","10","","10","","0.4","","97.63","","","","-4","","Freezing Fog"
"-81.38","48.57","TIMMINS A","6078286","2023-04-22 08:00","2023","04","22","08:00","0.1","","-0.2","","98","","","","8","","12","","0.6","","97.62","","","","","","Fog"
"-81.38","48.57","TIMMINS A","6078286","2023-04-22 09:00","2023","04","22","09:00","1.6","","1.3","","98","","","","8","","7","","3.2","","97.62","","","","","","Fog"
"-81.38","48.57","TIMMINS A","6078286","2023-04-22 10:00","2023","04","22","10:00","2.8","","2.4","","98","","","","10","","12","","24.1","","97.60","","","","","","Cloudy"
"-81.38","48.57","TIMMINS A","6078286","2023-04-22 11:00","2023","04","22","11:00","3.5","","2.7","","95","","","","10","","11","","24.1","","97.53","","","","","","NA"
"-81.38","48.57","TIMMINS A","6078286","2023-04-22 12:00","2023","04","22","12:00","4.6","","2.2","","85","","","","9","","16","","24.1","","97.46","","","","","","NA"
"-81.38","48.57","TIMMINS A","6078286","2023-04-22 13:00","2023","04","22","13:00","6.0","","2.3","","77","","","","7","","12","","24.1","","97.42","","","","","","Cloudy"
"-81.38","48.57","TIMMINS A","6078286","2023-04-22 14:00","2023","04","22","14:00","6.4","","2.3","","75","","","","4","","15","","24.1","","97.40","","","","","","NA"
"-81.38","48.57","TIMMINS A","6078286","2023-04-22 15:00","2023","04","22","15:00","5.7","","2.4","","80","","","","6","","18","","24.1","","97.32","","","","","","Rain"
"-81.38","48.57","TIMMINS A","6078286","2023-04-22 16:00","2023","04","22","16:00","4.6","","3.0","","90","","","","9","","11","","4.8","","97.38","","","","","","Rain,Fog"
"-81.38","48.57","TIMMINS A","6078286","2023-04-22 17:00","2023","04","22","17:00","3.8","","2.6","","92","","","","4","","13","","14.5","","97.43","","","","","","Rain"
"-81.38","48.57","TIMMINS A","6078286","2023-04-22 18:00","2023","04","22","18:00","3.4","","2.5","","95","","","","1","","15","","4.8","","97.38","","","","","","Rain"
"-81.38","48.57","TIMMINS A","6078286","2023-04-22 19:00","2023","04","22","19:00","2.8","","2.1","","95","","","","36","","14","","8.1","","97.27","","","","","","Rain"
"-81.38","48.57","TIMMINS A","6078286","2023-04-22 20:00","2023","04","22","20:00","2.6","","1.8","","95","","","","1","","18","","8.1","","97.26","","","","","","Rain"
"-81.38","48.57","TIMMINS A","6078286","2023-04-22 21:00","2023","04","22","21:00","2.1","","1.5","","95","","","","36","","12","","8.1","","97.30","","","","","","Rain"
"-81.38","48.57","TIMMINS A","6078286","2023-04-22 22:00","2023","04","22","22:00","1.6","","1.0","","96","","","","33","","13","","8.1","","97.24","","","","","","Rain"
"-81.38","48.57","TIMMINS A","6078286","2023-04-22 23:00","2023","04","22","23:00","0.9","","0.3","","96","","","","33","","16","","9.7","","97.24","","","","","","Rain"
"-81.38","48.57","TIMMINS A","6078286","2023-04-23 00:00","2023","04","23","00:00","0.3","","-0.2","","96","","","","34","","16","","9.7","","97.15","","","","","","Rain,Snow"
"-81.38","48.57","TIMMINS A","6078286","2023-04-23 01:00","2023","04","23","01:00","0.1","","-0.4","","96","","","","33","","16","","9.7","","97.13","","","","","","Snow"
"-81.38","48.57","TIMMINS A","6078286","2023-04-23 02:00","2023","04","23","02:00","0.0","","-0.5","","96","","","","33","","13","","4.8","","97.14","","","","-4","","Snow"
"-81.38","48.57","TIMMINS A","6078286","2023-04-23 03:00","2023","04","23","03:00","-0.1","","-0.6","","96","","","","34","","17","","4.8","","97.14","","","","-5","","Snow"
"-81.38","48.57","TIMMINS A","6078286","2023-04-23 04:00","2023","04","23","04:00","-0.4","","-1.2","","95","","","","33","","22","","4.8","","97.15","","","","-6","","Snow"
"-81.38","48.57","TIMMINS A","6078286","2023-04-23 05:00","2023","04","23","05:00","-1.1","","-1.8","","94","","","","35","","11","","1.6","","97.20","","","","-5","","Snow"
"-81.38","48.57","TIMMINS A","6078286","2023-04-23 06:00","2023","04","23","06:00","-1.5","","-2.3","","94","","","","35","","13","","1.6","","97.28","","","","-6","","Snow"
"-81.38","48.57","TIMMINS A","6078286","2023-04-23 07:00","2023","04","23","07:00","-1.6","","-2.4","","94","","","","33","","9","","1.2","","97.38","","","","-5","","Snow"
"-81.38","48.57","TIMMINS A","6078286","2023-04-23 08:00","2023","04","23","08:00","-1.7","","-2.6","","94","","","","33","","16","","1.2","","97.43","","","","-7","","Snow"
"-81.38","48.57","TIMMINS A","6078286","2023-04-23 09:00","2023","04","23","09:00","-1.2","","-2.5","","91","","","","32","","14","","0.8","","97.47","","","","-6","","Moderate Snow"
"-81.38","48.57","TIMMINS A","6078286","2023-04-23 10:00","2023","04","23","10:00","-0.7","","-2.4","","88","","","","33","","13","","2.4","","97.54","","","","-5","","Snow"
"-81.38","48.57","TIMMINS A","6078286","2023-04-23 11:00","2023","04","23","11:00","-0.2","","-2.2","","87","","","","31","","16","","9.7","","97.59","","","","-5","","Snow"
"-81.38","48.57","TIMMINS A","6078286","2023-04-23 12:00","2023","04","23","12:00","0.5","","-2.0","","83","","","","33","","15","","24.1","","97.65","","","","","","Snow"
"-81.38","48.57","TIMMINS A","6078286","2023-04-23 13:00","2023","04","23","13:00","0.8","","-1.0","","88","","","","31","","6","","4.0","","97.71","","","","","","Snow"
"-81.38","48.57","TIMMINS A","6078286","2023-04-23 14:00","2023","04","23","14:00","1.8","","-0.9","","82","","","","31","","14","","9.7","","97.77","","","","","","Snow Showers"
"-81.38","48.57","TIMMINS A","6078286","2023-04-23 15:00","2023","04","23","15:00","2.8","","0.7","","86","","","","31","","8","","9.7","","97.82","","","","","","Snow Showers"
"-81.38","48.57","TIMMINS A","6078286","2023-04-23 16:00","2023","04","23","16:00","3.7","","1.0","","83","","","","33","","10","","16.1","","97.86","","","","","","Cloudy"
"-81.38","48.57","TIMMINS A","6078286","2023-04-23 17:00","2023","04","23","17:00","3.4","","-0.3","","77","","","","33","","14","","24.1","","97.91","","","","","","NA"
"-81.38","48.57","TIMMINS A","6078286","2023-04-23 18:00","2023","04","23","18:00","2.1","","-0.5","","83","","","","33","","10","","24.1","","97.99","","","","","","NA"
"-81.38","48.57","TIMMINS A","6078286","2023-04-23 19:00","2023","04","23","19:00","0.9","","-1.0","","87","","","","34","","10","","24.1","","98.08","","","","","","Mainly Clear"
"-81.38","48.57","TIMMINS A","6078286","2023-04-23 20:00","2023","04","23","20:00","-0.5","","-1.4","","94","","","","36","","9","","24.1","","98.15","","","","-4","","NA"
"-81.38","48.57","TIMMINS A","6078286","2023-04-23 21:00","2023","04","23","21:00","-1.1","","-1.7","","96","","","","34","","7","","24.1","","98.20","","","","-4","","NA"
"-81.38","48.57","TIMMINS A","6078286","2023-04-23 22:00","2023","04","23","22:00","-0.9","","-1.5","","96","","","","34","","12","","24.1","","98.21","","","","-5","","Mainly Clear"
"-81.38","48.57","TIMMINS A","6078286","2023-04-23 23:00","2023","04","23","23:00","-1.0","","-1.4","","97","","","","36","","9","","9.7","","98.23","","","","-4","","Snow,Fog"
"-81.38","48.57","TIMMINS A","6078286","2023-04-24 00:00","2023","04","24","00:00","-1.4","","-1.8","","97","","","","2","","14","","9.7","","98.24","","","","-6","","Snow,Fog"
"-81.38","48.57","TIMMINS A","6078286","2023-04-24 01:00","2023","04","24","01:00","-1.8","","-2.3","","97","","","","3","","11","","9.7","","98.25","","","","-6","","Snow,Fog"
"-81.38","48.57","TIMMINS A","6078286","2023-04-24 02:00","2023","04","24","02:00","-2.5","","-3.2","","95","","","","2","","8","","24.1","","98.26","","","","-6","","NA"
"-81.38","48.57","TIMMINS A","6078286","2023-04-24 03:00","2023","04","24","03:00","-2.1","","-2.7","","96","","","","34","","8","","9.7","","98.25","","","","-5","","Snow"
"-81.38","48.57","TIMMINS A","6078286","2023-04-24 04:00","2023","04","24","04:00","-2.2","","-2.9","","95","","","","35","","9","","24.1","","98.27","","","","-6","","Cloudy"
"-81.38","48.57","TIMMINS A","6078286","2023-04-24 05:00","2023","04","24","05:00","-2.2","","-3.1","","94","","","","1","","11","","24.1","","98.32","","","","-6","","NA"
"-81.38","48.57","TIMMINS A","6078286","2023-04-24 06:00","2023","04","24","06:00","-2.2","","-3.0","","94","","","","35","","10","","24.1","","98.34","","","","-6","","NA"
"-81.38","48.57","TIMMINS A","6078286","2023-04-24 07:00","2023","04","24","07:00","-1.8","","-2.7","","93","","","","35","","10","","24.1","","98.36","","","","-5","","Snow Showers"
"-81.38","48.57","TIMMINS A","6078286","2023-04-24 08:00","2023","04","24","08:00","-1.2","","-2.4","","92","","","","35","","10","","3.2","","98.34","","","","-5","","Snow Showers"
"-81.38","48.57","TIMMINS A","6078286","2023-04-24 09:00","2023","04","24","09:00","-0.8","","-2.4","","89","","","","1","","12","","3.2","","98.36","","","","-5","","Snow Showers"
"-81.38","48.57","TIMMINS A","6078286","2023-04-24 10:00","2023","04","24","10:00","-0.2","","-1.7","","90","","","","35","","11","","3.2","","98.38","","","","-4","","Snow Showers"
"-81.38","48.57","TIMMINS A","6078286","2023-04-24 11:00","2023","04","24","11:00","0.7","","-1.7","","84","","","","1","","13","","3.2","","98.39","","","","","","Snow Showers"
"-81.38","48.57","TIMMINS A","6078286","2023-04-24 12:00","2023","04","24","12:00","1.9","","-1.4","","79","","","","34","","17","","4.0","","98.38","","","","","","Snow Showers"
"-81.38","48.57","TIMMINS A","6078286","2023-04-24 13:00","2023","04","24","13:00","1.8","","-2.6","","73","","","","36","","17","","4.0","","98.36","","","","","","Snow Showers"
"-81.38","48.57","TIMMINS A","6078286","2023-04-24 14:00","2023","04","24","14:00","2.3","","-2.0","","73","","","","2","","21","","4.0","","98.38","","","","","","Snow Showers"
"-81.38","48.57","TIMMINS A","6078286","2023-04-24 15:00","2023","04","24","15:00","2.9","","-2.2","","69","","","","2","","16","","8.1","","98.40","","","","","","Snow Showers"
"-81.38","48.57","TIMMINS A","6078286","2023-04-24 16:00","2023","04","24","16:00","1.5","","-1.4","","82","","","","35","","14","","9.7","","98.42","","","","","","Snow Showers"
"-81.38","48.57","TIMMINS A","6078286","2023-04-24 17:00","2023","04","24","17:00","2.0","","-1.5","","78","","","","36","","17","","9.7","","98.46","","","","","","Snow Showers"
"-81.38","48.57","TIMMINS A","6078286","2023-04-24 18:00","2023","04","24","18:00","1.3","","-1.8","","80","","","","36","","18","","14.5","","98.47","","","","","","Snow Showers"
"-81.38","48.57","TIMMINS A","6078286","2023-04-24 19:00","2023","04","24","19:00","1.1","","-2.1","","79","","","","35","","14","","9.7","","98.50","","","","","","Snow Showers"
"-81.38","48.57","TIMMINS A","6078286","2023-04-24 20:00","2023","04","24","20:00","-0.3","","-2.3","","86","","","","34","","11","","24.1","","98.53","","","","-4","","Snow"
"-81.38","48.57","TIMMINS A","6078286","2023-04-24 21:00","2023","04","24","21:00","-0.4","","-2.2","","88","","","","36","","9","","24.1","","98.56","","","","-4","","NA"
"-81.38","48.57","TIMMINS A","6078286","2023-04-24 22:00","2023","04","24","22:00","-0.5","","-2.3","","88","","","","2","","12","","24.1","","98.57","","","","-4","","Snow"
"-81.38","48.57","TIMMINS A","6078286","2023-04-24 23:00","2023","04","24","23:00","-0.9","","-1.9","","93","","","","36","","8","","8.1","","98.57","","","","-4","","Snow"
"-81.38","48.57","TIMMINS A","6078286","2023-04-25 00:00","2023","04","25","00:00","-1.1","","-2.2","","92","","","","35","","11","","19.3","","98.56","","","","-5","","Snow"
"-81.38","48.57","TIMMINS A","6078286","2023-04-25 01:00","2023","04","25","01:00","-1.4","","-3.1","","88","","","","35","","14","","24.1","","98.53","","","","-6","","Snow"
"-81.38","48.57","TIMMINS A","6078286","2023-04-25 02:00","2023","04","25","02:00","-1.7","","-2.8","","92","","","","34","","15","","19.3","","98.51","","","","-7","","Snow"
"-81.38","48.57","TIMMINS A","6078286","2023-04-25 03:00","2023","04","25","03:00","-1.9","","-3.6","","88","","","","34","","15","","24.1","","98.50","","","","-7","","Snow"
"-81.38","48.57","TIMMINS A","6078286","2023-04-25 04:00","2023","04","25","04:00","-2.0","","-3.1","","92","","","","34","","11","","4.0","","98.50","","","","-6","","Snow"
"-81.38","48.57","TIMMINS A","6078286","2023-04-25 05:00","2023","04","25","05:00","-2.3","","-3.5","","92","","","","34","","13","","4.0","","98.48","","","","-7","","Snow"
"-81.38","48.57","TIMMINS A","6078286","2023-04-25 06:00","2023","04","25","06:00","-2.6","","-3.7","","92","","","","33","","12","","2.4","","98.48","","","","-7","","Snow"
"-81.38","48.57","TIMMINS A","6078286","2023-04-25 07:00","2023","04","25","07:00","-2.6","","-4.1","","90","","","","34","","17","","1.2","","98.50","","","","-8","","Snow"
"-81.38","48.57","TIMMINS A","6078286","2023-04-25 08:00","2023","04","25","08:00","-2.3","","-3.7","","90","","","","33","","11","","1.2","","98.48","","","","-6","","Snow"
"-81.38","48.57","TIMMINS A","6078286","2023-04-25 09:00","2023","04","25","09:00","-1.9","","-4.0","","86","","","","33","","25","","2.4","","98.45","","","","-8","","Snow"
"-81.38","48.57","TIMMINS A","6078286","2023-04-25 10:00","2023","04","25","10:00","-1.9","","-3.5","","89","","","","36","","14","","0.8","","98.46","","","","-7","","Moderate Snow"
"-81.38","48.57","TIMMINS A","6078286","2023-04-25 11:00","2023","04","25","11:00","-1.5","","-3.0","","90","","","","32","","13","","1.2","","98.45","","","","-6","","Snow"
"-81.38","48.57","TIMMINS A","6078286","2023-04-25 12:00","2023","04","25","12:00","-0.8","","-2.1","","91","","","","34","","10","","0.8","","98.44","","","","-4","","Moderate Snow"
"-81.38","48.57","TIMMINS A","6078286","2023-04-25 13:00","2023","04","25","13:00","-0.6","","-2.2","","89","","","","35","","17","","1.2","","98.44","","","","-6","","Snow"
"-81.38","48.57","TIMMINS A","6078286","2023-04-25 14:00","2023","04","25","14:00","-0.2","","-1.7","","89","","","","34","","13","","1.6","","98.46","","","","-4","","Snow"
"-81.38","48.57","TIMMINS A","6078286","2023-04-25 15:00","2023","04","25","15:00","0.1","","-1.2","","91","","","","34","","11","","2.4","","98.48","","","","","","Snow"
"-81.38","48.57","TIMMINS A","6078286","2023-04-25 16:00","2023","04","25","16:00","0.3","","-1.5","","88","","","","35","","18","","4.8","","98.50","","","","","","Snow"
"-81.38","48.57","TIMMINS A","6078286","2023-04-25 17:00","2023","04","25","17:00","0.2","","-1.1","","91","","","","35","","15","","4.8","","98.51","","","","","","Snow"
"-81.38","48.57","TIMMINS A","6078286","2023-04-25 18:00","2023","04","25","18:00","0.1","","-1.1","","92","","","","34","","16","","4.8","","98.52","","","","","","Snow"
"-81.38","48.57","TIMMINS A","6078286","2023-04-25 19:00","2023","04","25","19:00","-0.3","","-1.0","","95","","","","35","","16","","4.8","","98.54","","","","-5","","Drizzle,Freezing Drizzle"
"-81.38","48.57","TIMMINS A","6078286","2023-04-25 20:00","2023","04","25","20:00","-0.4","","-1.3","","93","","","","34","","15","","14.5","","98.58","","","","-5","","NA"
"-81.38","48.57","TIMMINS A","6078286","2023-04-25 21:00","2023","04","25","21:00","-0.7","","-1.7","","93","","","","33","","12","","24.1","","98.60","","","","-5","","NA"
"-81.38","48.57","TIMMINS A","6078286","2023-04-25 22:00","2023","04","25","22:00","-0.9","","-2.1","","92","","","","34","","14","","24.1","","98.61","","","","-5","","Cloudy"
"-81.38","48.57","TIMMINS A","6078286","2023-04-25 23:00","2023","04","25","23:00","-1.2","","-2.3","","92","","","","35","","12","","24.1","","98.63","","","","-5","","Snow"
"-81.38","48.57","TIMMINS A","6078286","2023-04-26 00:00","2023","04","26","00:00","-1.5","","-2.5","","93","","","","33","","9","","24.1","","98.62","","","","-5","","Snow"
"-81.38","48.57","TIMMINS A","6078286","2023-04-26 01:00","2023","04","26","01:00","-1.8","","-3.0","","91","","","","35","","12","","24.1","","98.63","","","","-6","","Cloudy"
"-81.38","48.57","TIMMINS A","6078286","2023-04-26 02:00","2023","04","26","02:00","-2.0","","-3.0","","93","","","","32","","10","","24.1","","98.61","","","","-6","","Snow"
"-81.38","48.57","TIMMINS A","6078286","2023-04-26 03:00","2023","04","26","03:00","-2.4","","-3.4","","93","","","","33","","9","","24.1","","98.60","","","","-6","","NA"
"-81.38","48.57","TIMMINS A","6078286","2023-04-26 04:00","2023","04","26","04:00","-2.5","","-3.5","","93","","","","32","","12","","24.1","","98.63","","","","-7","","Snow"
"-81.38","48.57","TIMMINS A","6078286","2023-04-26 05:00","2023","04","26","05:00","-2.7","","-3.7","","93","","","","31","","9","","9.7","","98.65","","","","-6","","Snow"
"-81.38","48.57","TIMMINS A","6078286","2023-04-26 06:00","2023","04","26","06:00","-2.4","","-3.4","","93","","","","31","","8","","4.0","","98.69","","","","-6","","Snow"
"-81.38","48.57","TIMMINS A","6078286","2023-04-26 07:00","2023","04","26","07:00","-1.9","","-3.5","","88","","","","33","","11","","4.0","","98.70","","","","-6","","Snow"
"-81.38","48.57","TIMMINS A","6078286","2023-04-26 08:00","2023","04","26","08:00","-1.1","","-3.4","","85","","","","32","","10","","4.0","","98.70","","","","-5","","Snow"
"-81.38","48.57","TIMMINS A","6078286","2023-04-26 09:00","2023","04","26","09:00","-0.9","","-3.5","","83","","","","32","","17","","1.6","","98.68","","","","-6","","Snow"
"-81.38","48.57","TIMMINS A","6078286","2023-04-26 10:00","2023","04","26","10:00","-0.2","","-3.7","","78","","","","33","","12","","9.7","","98.65","","","","-4","","Snow"
"-81.38","48.57","TIMMINS A","6078286","2023-04-26 11:00","2023","04","26","11:00","-0.2","","-2.9","","82","","","","28","","8","","1.2","","98.64","","","","-3","","Snow"
"-81.38","48.57","TIMMINS A","6078286","2023-04-26 12:00","2023","04","26","12:00","0.9","","-1.8","","82","","","","30","","8","","2.4","","98.61","","","","","","Snow"
"-81.38","48.57","TIMMINS A","6078286","2023-04-26 13:00","2023","04","26","13:00","1.3","","-0.9","","85","","","","28","","13","","2.4","","98.62","","","","","","Snow"
"-81.38","48.57","TIMMINS A","6078286","2023-04-26 14:00","2023","04","26","14:00","2.1","","-2.0","","74","","","","29","","13","","4.8","","98.60","","","","","","Snow"
"-81.38","48.57","TIMMINS A","6078286","2023-04-26 15:00","2023","04","26","15:00","2.8","","-1.1","","76","","","","32","","12","","16.1","","98.59","","","","","","Snow"
"-81.38","48.57","TIMMINS A","6078286","2023-04-26 16:00","2023","04","26","16:00","1.6","","-0.6","","85","","","","26","","4","","4.8","","98.58","","","","","","Snow"
"-81.38","48.57","TIMMINS A","6078286","2023-04-26 17:00","2023","04","26","17:00","2.8","","-1.8","","72","","","","30","","11","","12.9","","98.57","","","","","","Snow"
"-81.38","48.57","TIMMINS A","6078286","2023-04-26 18:00","2023","04","26","18:00","2.7","","-3.7","","63","","","","29","","9","","24.1","","98.57","","","","","","NA"
"-81.38","48.57","TIMMINS A","6078286","2023-04-26 19:00","2023","04","26","19:00","2.0","","-2.9","","70","","","","27","","3","","24.1","","98.55","","","","","","Mostly Cloudy"
"-81.38","48.57","TIMMINS A","6078286","2023-04-26 20:00","2023","04","26","20:00","0.1","","-1.9","","87","","","","36","","2","","24.1","","98.56","","","","","","NA"
"-81.38","48.57","TIMMINS A","6078286","2023-04-26 21:00","2023","04","26","21:00","-1.7","","-2.5","","94","","","","8","","5","","24.1","","98.55","","","","-4","","NA"
"-81.38","48.57","TIMMINS A","6078286","2023-04-26 22:00","2023","04","26","22:00","-1.1","","-2.0","","94","","","","14","","5","","24.1","","98.53","","","","-3","","Mostly Cloudy"
"-81.38","48.57","TIMMINS A","6078286","2023-04-26 23:00","2023","04","26","23:00","-0.3","","-2.4","","85","","","","18","","5","","24.1","","98.51","","","","-2","","NA"
"-81.38","48.57","TIMMINS A","6078286","2023-04-27 00:00","2023","04","27","00:00","0.0","","-2.2","","85","","","","15","","5","","24.1","","98.49","","","","-2","","NA"
"-81.38","48.57","TIMMINS A","6078286","2023-04-27 01:00","2023","04","27","01:00","-0.8","","-2.3","","90","","","","17","","5","","24.1","","98.48","","","","-2","","Mostly Cloudy"
"-81.38","48.57","TIMMINS A","6078286","2023-04-27 02:00","2023","04","27","02:00","-1.0","","-2.8","","88","","","","17","","8","","24.1","","98.47","","","","-4","","NA"
"-81.38","48.57","TIMMINS A","6078286","2023-04-27 03:00","2023","04","27","03:00","-1.4","","-2.9","","90","","","","19","","11","","24.1","","98.44","","","","-5","","NA"
"-81.38","48.57","TIMMINS A","6078286","2023-04-27 04:00","2023","04","27","04:00","-1.3","","-2.3","","93","","","","17","","8","","24.1","","98.46","","","","-4","","Mostly Cloudy"
"-81.38","48.57","TIMMINS A","6078286","2023-04-27 05:00","2023","04","27","05:00","-1.9","","-2.6","","95","","","","18","","12","","24.1","","98.47","","","","-6","","NA"
"-81.38","48.57","TIMMINS A","6078286","2023-04-27 06:00","2023","04","27","06:00","-1.1","","-2.0","","94","","","","18","","9","","24.1","","98.49","","","","-4","","NA"
"-81.38","48.57","TIMMINS A","6078286","2023-04-27 07:00","2023","04","27","07:00","0.5","","-1.6","","86","","","","18","","14","","24.1","","98.50","","","","","","Mostly Cloudy"
"-81.38","48.57","TIMMINS A","6078286","2023-04-27 08:00","2023","04","27","08:00","2.3","","-2.2","","72","","","","20","","10","","24.1","","98.48","","","","","","NA"
"-81.38","48.57","TIMMINS A","6078286","2023-04-27 09:00","2023","04","27","09:00","4.2","","-2.9","","60","","","","19","","16","","24.1","","98.46","","","","","","NA"
"-81.38","48.57","TIMMINS A","6078286","2023-04-27 10:00","2023","04","27","10:00","5.8","","-1.9","","58","","","","21","","12","","24.1","","98.44","","","","","","Cloudy"
"-81.38","48.57","TIMMINS A","6078286","2023-04-27 11:00","2023","04","27","11:00","7.1","","-1.4","","55","","","","20","","20","","24.1","","98.41","","","","","","NA"
"-81.38","48.57","TIMMINS A","6078286","2023-04-27 12:00","2023","04","27","12:00","7.6","","-2.2","","50","","","","21","","16","","24.1","","98.41","","","","","","NA"
"-81.38","48.57","TIMMINS A","6078286","2023-04-27 13:00","2023","04","27","13:00","7.0","","-2.1","","52","","","","21","","25","","24.1","","98.39","","","","","","Rain"
"-81.38","48.57","TIMMINS A","6078286","2023-04-27 14:00","2023","04","27","14:00","7.2","","-1.0","","56","","","","18","","20","","24.1","","98.33","","","","","","NA"
"-81.38","48.57","TIMMINS A","6078286","2023-04-27 15:00","2023","04","27","15:00","7.8","","-1.9","","50","","","","17","","28","","24.1","","98.28","","","","","","NA"
"-81.38","48.57","TIMMINS A","6078286","2023-04-27 16:00","2023","04","27","16:00","7.6","","-1.3","","53","","","","18","","22","","24.1","","98.23","","","","","","Rain Showers"
"-81.38","48.57","TIMMINS A","6078286","2023-04-27 17:00","2023","04","27","17:00","5.6","","0.9","","72","","","","17","","24","","24.1","","98.24","","","","","","Rain Showers"
"-81.38","48.57","TIMMINS A","6078286","2023-04-27 18:00","2023","04","27","18:00","5.2","","0.8","","73","","","","18","","26","","24.1","","98.24","","","","","","Rain Showers"
"-81.38","48.57","TIMMINS A","6078286","2023-04-27 19:00","2023","04","27","19:00","4.6","","1.4","","80","","","","17","","16","","24.1","","98.25","","","","","","Rain Showers"
"-81.38","48.57","TIMMINS A","6078286","2023-04-27 20:00","2023","04","27","20:00","4.2","","1.2","","80","","","","15","","13","","24.1","","98.24","","","","","","Rain"
"-81.38","48.57","TIMMINS A","6078286","2023-04-27 21:00","2023","04","27","21:00","4.4","","0.5","","76","","","","15","","15","","24.1","","98.23","","","","","","NA"
"-81.38","48.57","TIMMINS A","6078286","2023-04-27 22:00","2023","04","27","22:00","4.4","","-0.1","","73","","","","14","","16","","24.1","","98.18","","","","","","Cloudy"
"-81.38","48.57","TIMMINS A","6078286","2023-04-27 23:00","2023","04","27","23:00","4.6","","-1.2","","66","","","","16","","14","","24.1","","98.16","","","","","","NA"
"-81.38","48.57","TIMMINS A","6078286","2023-04-28 00:00","2023","04","28","00:00","4.5","","-2.1","","62","","","","17","","13","","24.1","","98.14","","","","","","NA"
"-81.38","48.57","TIMMINS A","6078286","2023-04-28 01:00","2023","04","28","01:00","4.4","","-2.5","","61","","","","17","","13","","24.1","","98.14","","","","","","Cloudy"
"-81.38","48.57","TIMMINS A","6078286","2023-04-28 02:00","2023","04","28","02:00","4.0","","-2.2","","64","","","","17","","10","","24.1","","98.14","","","","","","NA"
"-81.38","48.57","TIMMINS A","6078286","2023-04-28 03:00","2023","04","28","03:00","3.3","","-2.0","","68","","","","18","","8","","24.1","","98.17","","","","","","NA"
"-81.38","48.57","TIMMINS A","6078286","2023-04-28 04:00","2023","04","28","04:00","3.2","","-2.3","","67","","","","20","","3","","24.1","","98.17","","","","","","Cloudy"
"-81.38","48.57","TIMMINS A","6078286","2023-04-28 05:00","2023","04","28","05:00","-0.2","","-2.4","","85","","","","4","","3","","24.1","","98.21","","","","-1","","NA"
"-81.38","48.57","TIMMINS A","6078286","2023-04-28 06:00","2023","04","28","06:00","0.4","","-2.2","","82","","","","12","","3","","24.1","","98.22","","","","","","NA"
"-81.38","48.57","TIMMINS A","6078286","2023-04-28 07:00","2023","04","28","07:00","3.5","","-1.1","","72","","","","14","","5","","24.1","","98.27","","","","","","Mostly Cloudy"
"-81.38","48.57","TIMMINS A","6078286","2023-04-28 08:00","2023","04","28","08:00","5.7","","-0.8","","63","","","","15","","7","","24.1","","98.27","","","","","","NA"
"-81.38","48.57","TIMMINS A","6078286","2023-04-28 09:00","2023","04","28","09:00","8.2","","-0.4","","55","","","","21","","14","","24.1","","98.24","","","","","","NA"
"-81.38","48.57","TIMMINS A","6078286","2023-04-28 10:00","2023","04","28","10:00","8.6","","-0.3","","53","","","","18","","4","","24.1","","98.20","","","","","","Mostly Cloudy"
"-81.38","48.57","TIMMINS A","6078286","2023-04-28 11:00","2023","04","28","11:00","9.9","","0.1","","50","","","","21","","5","","24.1","","98.23","","","","","","NA"
"-81.38","48.57","TIMMINS A","6078286","2023-04-28 12:00","2023","04","28","12:00","10.9","","0.4","","48","","","","27","","5","","24.1","","98.20","","","","","","NA"
"-81.38","48.57","TIMMINS A","6078286","2023-04-28 13:00","2023","04","28","13:00","12.6","","0.4","","43","","","","25","","6","","24.1","","98.14","","","","","","Cloudy"
"-81.38","48.57","TIMMINS A","6078286","2023-04-28 14:00","2023","04","28","14:00","13.5","","0.2","","40","","","","6","","4","","24.1","","98.11","","","","","","NA"
"-81.38","48.57","TIMMINS A","6078286","2023-04-28 15:00","2023","04","28","15:00","13.9","","0.2","","39","","","","34","","5","","24.1","","98.09","","","","","","NA"
"-81.38","48.57","TIMMINS A","6078286","2023-04-28 16:00","2023","04","28","16:00","13.8","","0.6","","40","","","","35","","8","","24.1","","98.06","","","","","","Cloudy"
"-81.38","48.57","TIMMINS A","6078286","2023-04-28 17:00","2023","04","28","17:00","13.6","","0.9","","42","","","","34","","11","","24.1","","98.06","","","","","","NA"
"-81.38","48.57","TIMMINS A","6078286","2023-04-28 18:00","2023","04","28","18:00","13.2","","1.0","","43","","","","34","","9","","24.1","","98.05","","","","","","NA"
"-81.38","48.57","TIMMINS A","6078286","2023-04-28 19:00","2023","04","28","19:00","11.3","","1.6","","51","","","","32","","7","","24.1","","98.07","","","","","","Cloudy"
"-81.38","48.57","TIMMINS A","6078286","2023-04-28 20:00","2023","04","28","20:00","9.7","","0.1","","51","","","","2","","12","","24.1","","98.05","","","","","","NA"
"-81.38","48.57","TIMMINS A","6078286","2023-04-28 21:00","2023","04","28","21:00","8.0","","-0.6","","54","","","","2","","9","","24.1","","98.03","","","","","","NA"
"-81.38","48.57","TIMMINS A","6078286","2023-04-28 22:00","2023","04","28","22:00","7.4","","-0.1","","59","","","","3","","9","","24.1","","98.02","","","","","","Cloudy"
"-81.38","48.57","TIMMINS A","6078286","2023-04-28 23:00","2023","04","28","23:00","7.3","","0.0","","60","","","","2","","12","","24.1","","97.93","","","","","","NA"
"-81.38","48.57","TIMMINS A","6078286","2023-04-29 00:00","2023","04","29","00:00","6.2","","0.2","","65","","","","2","","9","","24.1","","97.87","","","","","","NA"
"-81.38","48.57","TIMMINS A","6078286","2023-04-29 01:00","2023","04","29","01:00","5.4","","-0.1","","68","","","","3","","12","","24.1","","97.79","","","","","","Cloudy"
"-81.38","48.57","TIMMINS A","6078286","2023-04-29 02:00","2023","04","29","02:00","4.6","","-0.4","","70","","","","3","","7","","24.1","","97.71","","","","","","NA"
"-81.38","48.57","TIMMINS A","6078286","2023-04-29 03:00","2023","04","29","03:00","3.8","","-0.4","","74","","","","5","","4","","24.1","","97.67","","","","","","NA"
"-81.38","48.57","TIMMINS A","6078286","2023-04-29 04:00","2023","04","29","04:00","3.0","","-0.5","","78","","","","6","","3","","24.1","","97.64","","","","","","Mostly Cloudy"
"-81.38","48.57","TIMMINS A","6078286","2023-04-29 05:00","2023","04","29","05:00","1.6","","-0.5","","86","","","","36","","2","","24.1","","97.59","","","","","","NA"
"-81.38","48.57","TIMMINS A","6078286","2023-04-29 06:00","2023","04","29","06:00","2.4","","-0.3","","82","","","","1","","4","","24.1","","97.56","","","","","","NA"
"-81.38","48.57","TIMMINS A","6078286","2023-04-29 07:00","2023","04","29","07:00","4.9","","0.8","","75","","","","6","","4","","24.1","","97.55","","","","","","Cloudy"
"-81.38","48.57","TIMMINS A","6078286","2023-04-29 08:00","2023","04","29","08:00","6.9","","1.5","","68","","","","12","","7","","24.1","","97.52","","","","","","NA"
"-81.38","48.57","TIMMINS A","6078286","2023-04-29 09:00","2023","04","29","09:00","8.1","","5.7","","84","","","","10","","5","","24.1","","97.48","","","","","","Rain"
"-81.38","48.57","TIMMINS A","6078286","2023-04-29 10:00","2023","04","29","10:00","8.8","","7.2","","90","","","","12","","14","","16.1","","97.44","","","","","","Rain"
"-81.38","48.57","TIMMINS A","6078286","2023-04-29 11:00","2023","04","29","11:00","8.9","","7.4","","90","","","","10","","19","","16.1","","97.35","","","","","","Rain"
"-81.38","48.57","TIMMINS A","6078286","2023-04-29 12:00","2023","04","29","12:00","8.4","","7.3","","93","","","","9","","21","","16.1","","97.23","","","","","","Rain"
"-81.38","48.57","TIMMINS A","6078286","2023-04-29 13:00","2023","04","29","13:00","8.1","","7.3","","95","","","","9","","27","","4.0","","97.13","","","","","","Rain"
"-81.38","48.57","TIMMINS A","6078286","2023-04-29 14:00","2023","04","29","14:00","8.2","","7.4","","94","","","","11","","19","","4.8","","97.02","","","","","","Rain"
"-81.38","48.57","TIMMINS A","6078286","2023-04-29 15:00","2023","04","29","15:00","8.4","","7.6","","94","","","","9","","22","","4.8","","96.95","","","","","","Rain"
"-81.38","48.57","TIMMINS A","6078286","2023-04-29 16:00","2023","04","29","16:00","8.2","","7.6","","96","","","","11","","17","","4.8","","96.91","","","","","","Rain"
"-81.38","48.57","TIMMINS A","6078286","2023-04-29 17:00","2023","04","29","17:00","8.2","","7.4","","95","","","","10","","18","","4.8","","96.89","","","","","","Rain"
"-81.38","48.57","TIMMINS A","6078286","2023-04-29 18:00","2023","04","29","18:00","7.8","","7.3","","96","","","","11","","12","","4.8","","96.85","","","","","","Rain"
"-81.38","48.57","TIMMINS A","6078286","2023-04-29 19:00","2023","04","29","19:00","7.6","","7.2","","97","","","","10","","8","","4.8","","96.79","","","","","","Rain"
"-81.38","48.57","TIMMINS A","6078286","2023-04-29 20:00","2023","04","29","20:00","6.8","","5.7","","93","","","","14","","12","","19.3","","96.81","","","","","","Rain"
"-81.38","48.57","TIMMINS A","6078286","2023-04-29 21:00","2023","04","29","21:00","6.7","","6.2","","97","","","","11","","19","","24.1","","96.79","","","","","","Rain"
"-81.38","48.57","TIMMINS A","6078286","2023-04-29 22:00","2023","04","29","22:00","6.5","","6.0","","97","","","","10","","16","","9.7","","96.71","","","","","","Rain"
"-81.38","48.57","TIMMINS A","6078286","2023-04-29 23:00","2023","04","29","23:00","6.3","","5.9","","97","","","","10","","13","","4.8","","96.62","","","","","","Rain,Fog"
"-81.38","48.57","TIMMINS A","6078286","2023-04-30 00:00","2023","04","30","00:00","6.2","","5.8","","97","","","","11","","12","","4.8","","96.56","","","","","","Rain,Fog"
"-81.38","48.57","TIMMINS A","6078286","2023-04-30 01:00","2023","04","30","01:00","6.2","","5.8","","97","","","","12","","13","","4.8","","96.49","","","","","","Rain,Fog"
"-81.38","48.57","TIMMINS A","6078286","2023-04-30 02:00","2023","04","30","02:00","6.1","","5.8","","98","","","","11","","10","","4.8","","96.43","","","","","","Rain,Fog"
"-81.38","48.57","TIMMINS A","6078286","2023-04-30 03:00","2023","04","30","03:00","6.1","","5.7","","97","","","","11","","11","","6.4","","96.38","","","","","","Rain,Fog"
"-81.38","48.57","TIMMINS A","6078286","2023-04-30 04:00","2023","04","30","04:00","6.1","","5.7","","97","","","","10","","12","","24.1","","96.34","","","","","","Rain"
"-81.38","48.57","TIMMINS A","6078286","2023-04-30 05:00","2023","04","30","05:00","6.2","","5.8","","97","","","","11","","11","","4.8","","96.34","","","","","","Drizzle,Fog"
"-81.38","48.57","TIMMINS A","6078286","2023-04-30 06:00","2023","04","30","06:00","6.3","","5.9","","98","","","","10","","10","","4.0","","96.32","","","","","","Drizzle,Fog"
"-81.38","48.57","TIMMINS A","6078286","2023-04-30 07:00","2023","04","30","07:00","6.9","","6.6","","98","","","","11","","16","","9.7","","96.33","","","","","","Drizzle"
"-81.38","48.57","TIMMINS A","6078286","2023-04-30 08:00","2023","04","30","08:00","7.5","","7.1","","97","","","","11","","13","","16.1","","96.34","","","","","","Drizzle"
"-81.38","48.57","TIMMINS A","6078286","2023-04-30 09:00","2023","04","30","09:00","8.4","","7.7","","95","","","","12","","20","","24.1","","96.35","","","","","","NA"
"-81.38","48.57","TIMMINS A","6078286","2023-04-30 10:00","2023","04","30","10:00","8.8","","7.9","","94","","","","10","","14","","24.1","","96.31","","","","","","Rain"
"-81.38","48.57","TIMMINS A","6078286","2023-04-30 11:00","2023","04","30","11:00","8.8","","8.2","","96","","","","10","","14","","16.1","","96.33","","","","","","Rain"
"-81.38","48.57","TIMMINS A","6078286","2023-04-30 12:00","2023","04","30","12:00","8.8","","8.2","","96","","","","10","","16","","9.7","","96.38","","","","","","Rain,Fog"
"-81.38","48.57","TIMMINS A","6078286","2023-04-30 13:00","2023","04","30","13:00","9.3","","8.4","","94","","","","10","","25","","16.1","","96.34","","","","","","Rain"
"-81.38","48.57","TIMMINS A","6078286","2023-04-30 14:00","2023","04","30","14:00","9.8","","8.5","","92","","","","10","","17","","16.1","","96.32","","","","","","Rain"
"-81.38","48.57","TIMMINS A","6078286","2023-04-30 15:00","2023","04","30","15:00","9.8","","8.4","","91","","","","11","","16","","16.1","","96.32","","","","","","Rain"
"-81.38","48.57","TIMMINS A","6078286","2023-04-30 16:00","2023","04","30","16:00","9.4","","8.6","","94","","","","9","","18","","16.1","","96.30","","","","","","Rain"
"-81.38","48.57","TIMMINS A","6078286","2023-04-30 17:00","2023","04","30","17:00","9.0","","8.4","","96","","","","5","","13","","24.1","","96.23","","","","","","Rain"
"-81.38","48.57","TIMMINS A","6078286","2023-04-30 18:00","2023","04","30","18:00","8.7","","8.1","","96","","","","5","","19","","24.1","","96.20","","","","","","Rain"
"-81.38","48.57","TIMMINS A","6078286","2023-04-30 19:00","2023","04","30","19:00","8.5","","7.8","","96","","","","6","","20","","16.1","","96.16","","","","","","Rain"
"-81.38","48.57","TIMMINS A","6078286","2023-04-30 20:00","2023","04","30","20:00","8.4","","7.7","","95","","","","7","","22","","16.1","","96.13","","","","","","Rain"
"-81.38","48.57","TIMMINS A","6078286","2023-04-30 21:00","2023","04","30","21:00"
"-81.38","48.57","TIMMINS A","6078286","2023-04-30 22:00","2023","04","30","22:00","7.6","","6.9","","96","","","","6","","20","","16.1","","95.97","","","","","","Rain"
"-81.38","48.57","TIMMINS A","6078286","2023-04-30 23:00","2023","04","30","23:00","7.3","","6.7","","96","","","","6","","18","","16.1","","95.88","","","","","","Rain"
