"Longitude (x)","Latitude (y)","Station Name","Climate ID","Date/Time (LST)","Year","Month","Day","Time (LST)","Temp (°C)","Temp Flag","Dew Point Temp (°C)","Dew Point Temp Flag","Rel Hum (%)","Rel Hum Flag","Precip. Amount (mm)","Precip. Amount Flag","Wind Dir (10s deg)","Wind Dir Flag","Wind Spd (km/h)","Wind Spd Flag","Visibility (km)","Visibility Flag","Stn Press (kPa)","Stn Press Flag","Hmdx","Hmdx Flag","Wind Chill","Wind Chill Flag","Weather"
"-127.94","50.11","SOLANDER ISLAND (AUT)","1037553","2021-04-01 00:00","2021","04","01","00:00","6.2","","3.4","","82","","0.0","","17","","37","","","","100.30","","","","","","NA"
"-127.94","50.11","SOLANDER ISLAND (AUT)","1037553","2021-04-01 01:00","2021","04","01","01:00","6.1","","4.4","","89","","0.0","","17","","36","","","","100.25","","","","","","NA"
"-127.94","50.11","SOLANDER ISLAND (AUT)","1037553","2021-04-01 02:00","2021","04","01","02:00","6.0","","4.5","","90","","1.4","","17","","38","","","","100.18","","","","","","NA"
"-127.94","50.11","SOLANDER ISLAND (AUT)","1037553","2021-04-01 03:00","2021","04","01","03:00","6.2","","5.2","","93","","0.4","","16","","43","","","","100.10","","","","","","NA"
"-127.94","50.11","SOLANDER ISLAND (AUT)","1037553","2021-04-01 04:00","2021","04","01","04:00","5.1","","4.3","","95","","1.6","","24","","18","","","","100.11","","","","","","NA"
"-127.94","50.11","SOLANDER ISLAND (AUT)","1037553","2021-04-01 05:00","2021","04","01","05:00","4.7","","2.9","","88","","0.2","","31","","26","","","","100.10","","","","","","NA"
"-127.94","50.11","SOLANDER ISLAND (AUT)","1037553","2021-04-01 06:00","2021","04","01","06:00","4.5","","1.7","","82","","0.2","","31","","33","","","","100.12","","","","","","NA"
"-127.94","50.11","SOLANDER ISLAND (AUT)","1037553","2021-04-01 07:00","2021","04","01","07:00","4.7","","1.7","","81","","0.0","","32","","21","","","","100.17","","","","","","NA"
"-127.94","50.11","SOLANDER ISLAND (AUT)","1037553","2021-04-01 08:00","2021","04","01","08:00","4.5","","1.3","","80","","0.0","","28","","30","","","","100.19","","","","","","NA"
"-127.94","50.11","SOLANDER ISLAND (AUT)","1037553","2021-04-01 09:00","2021","04","01","09:00","5.0","","-0.7","","66","","0.0","","28","","20","","","","100.26","","","","","","NA"
"-127.94","50.11","SOLANDER ISLAND (AUT)","1037553","2021-04-01 10:00","2021","04","01","10:00","5.4","","-0.7","","65","","0.0","","29","","19","","","","100.33","","","","","","NA"
"-127.94","50.11","SOLANDER ISLAND (AUT)","1037553","2021-04-01 11:00","2021","04","01","11:00","5.5","","-1.2","","62","","0.0","","30","","13","","","","100.36","","","","","","NA"
"-127.94","50.11","SOLANDER ISLAND (AUT)","1037553","2021-04-01 12:00","2021","04","01","12:00","6.4","","-1.0","","59","","0.0","","28","","16","","","","100.40","","","","","","NA"
"-127.94","50.11","SOLANDER ISLAND (AUT)","1037553","2021-04-01 13:00","2021","04","01","13:00","7.4","","1.5","","66","","0.0","","27","","15","","","","100.43","","","","","","NA"
"-127.94","50.11","SOLANDER ISLAND (AUT)","1037553","2021-04-01 14:00","2021","04","01","14:00","7.8","","1.4","","64","","0.0","","27","","14","","","","100.42","","","","","","NA"
"-127.94","50.11","SOLANDER ISLAND (AUT)","1037553","2021-04-01 15:00","2021","04","01","15:00","7.1","","-0.6","","58","","0.0","","26","","10","","","","100.40","","","","","","NA"
"-127.94","50.11","SOLANDER ISLAND (AUT)","1037553","2021-04-01 16:00","2021","04","01","16:00","8.4","","0.7","","58","","0.0","","26","","11","","","","100.38","","","","","","NA"
"-127.94","50.11","SOLANDER ISLAND (AUT)","1037553","2021-04-01 17:00","2021","04","01","17:00","8.3","","0.3","","57","","0.0","","26","","9","","","","100.32","","","","","","NA"
"-127.94","50.11","SOLANDER ISLAND (AUT)","1037553","2021-04-01 18:00","2021","04","01","18:00","6.4","","-0.2","","63","","0.0","","25","","10","","","","100.28","","","","","","NA"
"-127.94","50.11","SOLANDER ISLAND (AUT)","1037553","2021-04-01 19:00","2021","04","01","19:00","5.8","","1.7","","75","","0.0","","25","","15","","","","100.28","","","","","","NA"
"-127.94","50.11","SOLANDER ISLAND (AUT)","1037553","2021-04-01 20:00","2021","04","01","20:00","5.6","","0.8","","71","","0.0","","22","","11","","","","100.30","","","","","","NA"
"-127.94","50.11","SOLANDER ISLAND (AUT)","1037553","2021-04-01 21:00","2021","04","01","21:00","5.1","","1.6","","78","","0.0","","23","","19","","","","100.31","","","","","","NA"
"-127.94","50.11","SOLANDER ISLAND (AUT)","1037553","2021-04-01 22:00","2021","04","01","22:00","5.4","","1.8","","78","","0.2","","18","","15","","","","100.33","","","","","","NA"
"-127.94","50.11","SOLANDER ISLAND (AUT)","1037553","2021-04-01 23:00","2021","04","01","23:00","5.1","","1.3","","76","","0.0","","20","","29","","","","100.32","","","","","","NA"
"-127.94","50.11","SOLANDER ISLAND (AUT)","1037553","2021-04-02 00:00","2021","04","02","00:00","5.6","","1.6","","75","","0.0","","17","","21","","","","100.32","","","","","","NA"
"-127.94","50.11","SOLANDER ISLAND (AUT)","1037553","2021-04-02 01:00","2021","04","02","01:00","5.4","","1.8","","78","","0.0","","17","","26","","","","100.32","","","","","","NA"
"-127.94","50.11","SOLANDER ISLAND (AUT)","1037553","2021-04-02 02:00","2021","04","02","02:00","4.9","","1.4","","78","","0.2","","18","","21","","","","100.31","","","","","","NA"
"-127.94","50.11","SOLANDER ISLAND (AUT)","1037553","2021-04-02 03:00","2021","04","02","03:00","5.8","","2.3","","78","","0.2","","17","","36","","","","100.28","","","","","","NA"
"-127.94","50.11","SOLANDER ISLAND (AUT)","1037553","2021-04-02 04:00","2021","04","02","04:00","4.3","","1.1","","80","","0.2","","15","","35","","","","100.27","","","","","","NA"
"-127.94","50.11","SOLANDER ISLAND (AUT)","1037553","2021-04-02 05:00","2021","04","02","05:00","5.7","","2.8","","82","","0.0","","15","","42","","","","100.25","","","","","","NA"
"-127.94","50.11","SOLANDER ISLAND (AUT)","1037553","2021-04-02 06:00","2021","04","02","06:00","5.7","","1.7","","75","","0.0","","16","","39","","","","100.27","","","","","","NA"
"-127.94","50.11","SOLANDER ISLAND (AUT)","1037553","2021-04-02 07:00","2021","04","02","07:00","4.5","","2.6","","88","","0.4","","15","","36","","","","100.31","","","","","","NA"
"-127.94","50.11","SOLANDER ISLAND (AUT)","1037553","2021-04-02 08:00","2021","04","02","08:00","4.8","","2.3","","83","","0.2","","14","","40","","","","100.32","","","","","","NA"
"-127.94","50.11","SOLANDER ISLAND (AUT)","1037553","2021-04-02 09:00","2021","04","02","09:00","4.5","","2.9","","89","","0.6","","15","","45","","","","100.40","","","","","","NA"
"-127.94","50.11","SOLANDER ISLAND (AUT)","1037553","2021-04-02 10:00","2021","04","02","10:00","4.9","","2.7","","86","","0.4","","17","","43","","","","100.46","","","","","","NA"
"-127.94","50.11","SOLANDER ISLAND (AUT)","1037553","2021-04-02 11:00","2021","04","02","11:00","4.7","","2.7","","87","","0.2","","17","","42","","","","100.55","","","","","","NA"
"-127.94","50.11","SOLANDER ISLAND (AUT)","1037553","2021-04-02 12:00","2021","04","02","12:00","5.5","","2.7","","82","","0.2","","16","","39","","","","100.59","","","","","","NA"
"-127.94","50.11","SOLANDER ISLAND (AUT)","1037553","2021-04-02 13:00","2021","04","02","13:00","5.7","","2.9","","82","","0.0","","16","","36","","","","100.62","","","","","","NA"
"-127.94","50.11","SOLANDER ISLAND (AUT)","1037553","2021-04-02 14:00","2021","04","02","14:00","6.1","","3.0","","81","","0.0","","13","","29","","","","100.63","","","","","","NA"
"-127.94","50.11","SOLANDER ISLAND (AUT)","1037553","2021-04-02 15:00","2021","04","02","15:00","5.5","","3.5","","87","","0.0","","10","","45","","","","100.62","","","","","","NA"
"-127.94","50.11","SOLANDER ISLAND (AUT)","1037553","2021-04-02 16:00","2021","04","02","16:00","5.3","","3.6","","89","","0.4","","10","","38","","","","100.64","","","","","","NA"
"-127.94","50.11","SOLANDER ISLAND (AUT)","1037553","2021-04-02 17:00","2021","04","02","17:00","4.8","","3.3","","90","","3.0","","10","","32","","","","100.66","","","","","","NA"
"-127.94","50.11","SOLANDER ISLAND (AUT)","1037553","2021-04-02 18:00","2021","04","02","18:00","5.9","","2.5","","79","","0.0","","12","","30","","","","100.64","","","","","","NA"
"-127.94","50.11","SOLANDER ISLAND (AUT)","1037553","2021-04-02 19:00","2021","04","02","19:00","6.2","","1.9","","74","","0.0","","14","","46","","","","100.63","","","","","","NA"
"-127.94","50.11","SOLANDER ISLAND (AUT)","1037553","2021-04-02 20:00","2021","04","02","20:00","6.5","","2.7","","77","","0.0","","12","","26","","","","100.65","","","","","","NA"
"-127.94","50.11","SOLANDER ISLAND (AUT)","1037553","2021-04-02 21:00","2021","04","02","21:00","6.5","","2.5","","75","","0.0","","13","","29","","","","100.68","","","","","","NA"
"-127.94","50.11","SOLANDER ISLAND (AUT)","1037553","2021-04-02 22:00","2021","04","02","22:00","6.6","","2.2","","74","","0.0","","12","","28","","","","100.64","","","","","","NA"
"-127.94","50.11","SOLANDER ISLAND (AUT)","1037553","2021-04-02 23:00","2021","04","02","23:00","6.5","","2.2","","74","","0.0","","12","","27","","","","100.64","","","","","","NA"
"-127.94","50.11","SOLANDER ISLAND (AUT)","1037553","2021-04-03 00:00","2021","04","03","00:00","6.1","","3.0","","81","","0.0","","10","","37","","","","100.60","","","","","","NA"
"-127.94","50.11","SOLANDER ISLAND (AUT)","1037553","2021-04-03 01:00","2021","04","03","01:00","5.6","","2.6","","81","","0.0","","10","","34","","","","100.61","","","","","","NA"
"-127.94","50.11","SOLANDER ISLAND (AUT)","1037553","2021-04-03 02:00","2021","04","03","02:00","4.9","","2.9","","87","","0.0","","11","","42","","","","100.58","","","","","","NA"
"-127.94","50.11","SOLANDER ISLAND (AUT)","1037553","2021-04-03 03:00","2021","04","03","03:00","4.7","","3.3","","91","","0.2","","11","","41","","","","100.54","","","","","","NA"
"-127.94","50.11","SOLANDER ISLAND (AUT)","1037553","2021-04-03 04:00","2021","04","03","04:00","4.2","","3.1","","93","","0.6","","10","","31","","","","100.52","","","","","","NA"
"-127.94","50.11","SOLANDER ISLAND (AUT)","1037553","2021-04-03 05:00","2021","04","03","05:00","3.8","","2.8","","93","","0.2","","10","","25","","","","100.55","","","","","","NA"
"-127.94","50.11","SOLANDER ISLAND (AUT)","1037553","2021-04-03 06:00","2021","04","03","06:00","3.9","","2.4","","90","","0.2","","10","","18","","","","100.55","","","","","","NA"
"-127.94","50.11","SOLANDER ISLAND (AUT)","1037553","2021-04-03 07:00","2021","04","03","07:00","4.1","","2.2","","87","","0.0","","10","","9","","","","100.58","","","","","","NA"
"-127.94","50.11","SOLANDER ISLAND (AUT)","1037553","2021-04-03 08:00","2021","04","03","08:00"
"-127.94","50.11","SOLANDER ISLAND (AUT)","1037553","2021-04-03 09:00","2021","04","03","09:00","6.9","","4.1","","83","","0.0","","25","","2","","","","100.65","","","","","","NA"
"-127.94","50.11","SOLANDER ISLAND (AUT)","1037553","2021-04-03 10:00","2021","04","03","10:00","6.2","","3.4","","82","","0.0","","25","","4","","","","100.74","","","","","","NA"
"-127.94","50.11","SOLANDER ISLAND (AUT)","1037553","2021-04-03 11:00","2021","04","03","11:00","4.7","","3.7","","94","","0.2","","27","","25","","","","100.77","","","","","","NA"
"-127.94","50.11","SOLANDER ISLAND (AUT)","1037553","2021-04-03 12:00","2021","04","03","12:00","4.4","","1.7","","83","","0.0","","31","","33","","","","100.89","","","","","","NA"
"-127.94","50.11","SOLANDER ISLAND (AUT)","1037553","2021-04-03 13:00","2021","04","03","13:00","5.4","","1.8","","78","","0.0","","31","","22","","","","100.98","","","","","","NA"
"-127.94","50.11","SOLANDER ISLAND (AUT)","1037553","2021-04-03 14:00","2021","04","03","14:00","6.0","","0.3","","67","","0.0","","30","","26","","","","101.03","","","","","","NA"
"-127.94","50.11","SOLANDER ISLAND (AUT)","1037553","2021-04-03 15:00","2021","04","03","15:00","6.4","","-0.6","","61","","0.0","","29","","24","","","","101.08","","","","","","NA"
"-127.94","50.11","SOLANDER ISLAND (AUT)","1037553","2021-04-03 16:00","2021","04","03","16:00","7.1","","2.2","","71","","0.0","","28","","18","","","","101.11","","","","","","NA"
"-127.94","50.11","SOLANDER ISLAND (AUT)","1037553","2021-04-03 17:00","2021","04","03","17:00","5.7","","1.7","","75","","0.0","","31","","20","","","","101.14","","","","","","NA"
"-127.94","50.11","SOLANDER ISLAND (AUT)","1037553","2021-04-03 18:00","2021","04","03","18:00","6.0","","0.6","","68","","0.0","","29","","27","","","","101.15","","","","","","NA"
"-127.94","50.11","SOLANDER ISLAND (AUT)","1037553","2021-04-03 19:00","2021","04","03","19:00","5.6","","0.3","","69","","0.0","","29","","33","","","","101.18","","","","","","NA"
"-127.94","50.11","SOLANDER ISLAND (AUT)","1037553","2021-04-03 20:00","2021","04","03","20:00","5.3","","-0.1","","68","","0.0","","28","","34","","","","101.24","","","","","","NA"
"-127.94","50.11","SOLANDER ISLAND (AUT)","1037553","2021-04-03 21:00","2021","04","03","21:00","4.6","","1.3","","79","","0.0","","30","","23","","","","101.32","","","","","","NA"
"-127.94","50.11","SOLANDER ISLAND (AUT)","1037553","2021-04-03 22:00","2021","04","03","22:00","5.1","","0.9","","74","","0.0","","28","","31","","","","101.33","","","","","","NA"
"-127.94","50.11","SOLANDER ISLAND (AUT)","1037553","2021-04-03 23:00","2021","04","03","23:00","5.3","","0.9","","73","","0.0","","30","","39","","","","101.31","","","","","","NA"
"-127.94","50.11","SOLANDER ISLAND (AUT)","1037553","2021-04-04 00:00","2021","04","04","00:00","4.9","","1.4","","78","","0.0","","30","","38","","","","101.33","","","","","","NA"
"-127.94","50.11","SOLANDER ISLAND (AUT)","1037553","2021-04-04 01:00","2021","04","04","01:00","5.2","","1.5","","77","","0.0","","31","","34","","","","101.40","","","","","","NA"
"-127.94","50.11","SOLANDER ISLAND (AUT)","1037553","2021-04-04 02:00","2021","04","04","02:00","5.0","","0.8","","74","","0.0","","31","","40","","","","101.38","","","","","","NA"
"-127.94","50.11","SOLANDER ISLAND (AUT)","1037553","2021-04-04 03:00","2021","04","04","03:00","4.4","","1.5","","82","","0.0","","32","","36","","","","101.44","","","","","","NA"
"-127.94","50.11","SOLANDER ISLAND (AUT)","1037553","2021-04-04 04:00","2021","04","04","04:00","4.3","","1.5","","82","","0.0","","32","","40","","","","101.44","","","","","","NA"
"-127.94","50.11","SOLANDER ISLAND (AUT)","1037553","2021-04-04 05:00","2021","04","04","05:00","4.1","","0.8","","79","","0.0","","34","","38","","","","101.51","","","","","","NA"
"-127.94","50.11","SOLANDER ISLAND (AUT)","1037553","2021-04-04 06:00","2021","04","04","06:00","4.2","","0.5","","77","","0.0","","34","","39","","","","101.55","","","","","","NA"
"-127.94","50.11","SOLANDER ISLAND (AUT)","1037553","2021-04-04 07:00","2021","04","04","07:00","4.7","","0.7","","76","","0.0","","35","","30","","","","101.62","","","","","","NA"
"-127.94","50.11","SOLANDER ISLAND (AUT)","1037553","2021-04-04 08:00","2021","04","04","08:00","5.0","","1.0","","75","","0.0","","34","","29","","","","101.65","","","","","","NA"
"-127.94","50.11","SOLANDER ISLAND (AUT)","1037553","2021-04-04 09:00","2021","04","04","09:00","4.9","","0.9","","75","","0.0","","34","","29","","","","101.69","","","","","","NA"
"-127.94","50.11","SOLANDER ISLAND (AUT)","1037553","2021-04-04 10:00","2021","04","04","10:00","5.2","","0.9","","74","","0.0","","34","","34","","","","101.70","","","","","","NA"
"-127.94","50.11","SOLANDER ISLAND (AUT)","1037553","2021-04-04 11:00","2021","04","04","11:00","5.4","","0.3","","70","","0.0","","33","","42","","","","101.70","","","","","","NA"
"-127.94","50.11","SOLANDER ISLAND (AUT)","1037553","2021-04-04 12:00","2021","04","04","12:00","5.9","","0.9","","70","","0.0","","33","","32","","","","101.70","","","","","","NA"
"-127.94","50.11","SOLANDER ISLAND (AUT)","1037553","2021-04-04 13:00","2021","04","04","13:00","6.1","","2.3","","76","","0.0","","31","","46","","","","101.71","","","","","","NA"
"-127.94","50.11","SOLANDER ISLAND (AUT)","1037553","2021-04-04 14:00","2021","04","04","14:00","6.2","","2.0","","75","","0.0","","31","","58","","","","101.66","","","","","","NA"
"-127.94","50.11","SOLANDER ISLAND (AUT)","1037553","2021-04-04 15:00","2021","04","04","15:00","6.4","","0.8","","68","","0.0","","31","","63","","","","101.62","","","","","","NA"
"-127.94","50.11","SOLANDER ISLAND (AUT)","1037553","2021-04-04 16:00","2021","04","04","16:00","6.4","","1.5","","70","","0.0","","31","","64","","","","101.57","","","","","","NA"
"-127.94","50.11","SOLANDER ISLAND (AUT)","1037553","2021-04-04 17:00","2021","04","04","17:00","6.5","","0.3","","65","","0.0","","34","","55","","","","101.61","","","","","","NA"
"-127.94","50.11","SOLANDER ISLAND (AUT)","1037553","2021-04-04 18:00","2021","04","04","18:00","6.2","","1.6","","73","","0.0","","32","","54","","","","101.55","","","","","","NA"
"-127.94","50.11","SOLANDER ISLAND (AUT)","1037553","2021-04-04 19:00","2021","04","04","19:00","5.5","","0.0","","67","","0.0","","34","","52","","","","101.60","","","","","","NA"
"-127.94","50.11","SOLANDER ISLAND (AUT)","1037553","2021-04-04 20:00","2021","04","04","20:00","5.4","","-0.3","","67","","0.0","","35","","46","","","","101.63","","","","","","NA"
"-127.94","50.11","SOLANDER ISLAND (AUT)","1037553","2021-04-04 21:00","2021","04","04","21:00","5.1","","0.4","","72","","0.0","","34","","55","","","","101.61","","","","","","NA"
"-127.94","50.11","SOLANDER ISLAND (AUT)","1037553","2021-04-04 22:00","2021","04","04","22:00","5.1","","0.3","","71","","0.0","","34","","47","","","","101.58","","","","","","NA"
"-127.94","50.11","SOLANDER ISLAND (AUT)","1037553","2021-04-04 23:00","2021","04","04","23:00","5.1","","0.6","","73","","0.0","","34","","41","","","","101.58","","","","","","NA"
"-127.94","50.11","SOLANDER ISLAND (AUT)","1037553","2021-04-05 00:00","2021","04","05","00:00","5.2","","1.0","","74","","0.0","","33","","45","","","","101.55","","","","","","NA"
"-127.94","50.11","SOLANDER ISLAND (AUT)","1037553","2021-04-05 01:00","2021","04","05","01:00","5.4","","1.7","","77","","0.0","","34","","47","","","","101.50","","","","","","NA"
"-127.94","50.11","SOLANDER ISLAND (AUT)","1037553","2021-04-05 02:00","2021","04","05","02:00","5.6","","1.1","","73","","0.0","","33","","51","","","","101.46","","","","","","NA"
"-127.94","50.11","SOLANDER ISLAND (AUT)","1037553","2021-04-05 03:00","2021","04","05","03:00","5.7","","0.7","","70","","0.0","","34","","55","","","","101.37","","","","","","NA"
"-127.94","50.11","SOLANDER ISLAND (AUT)","1037553","2021-04-05 04:00","2021","04","05","04:00","5.5","","1.5","","75","","0.0","","33","","51","","","","101.38","","","","","","NA"
"-127.94","50.11","SOLANDER ISLAND (AUT)","1037553","2021-04-05 05:00","2021","04","05","05:00","5.2","","1.9","","79","","0.0","","33","","51","","","","101.37","","","","","","NA"
"-127.94","50.11","SOLANDER ISLAND (AUT)","1037553","2021-04-05 06:00","2021","04","05","06:00","5.4","","1.5","","76","","0.0","","34","","48","","","","101.37","","","","","","NA"
"-127.94","50.11","SOLANDER ISLAND (AUT)","1037553","2021-04-05 07:00","2021","04","05","07:00","5.6","","1.6","","75","","0.0","","34","","45","","","","101.40","","","","","","NA"
"-127.94","50.11","SOLANDER ISLAND (AUT)","1037553","2021-04-05 08:00","2021","04","05","08:00","5.4","","2.0","","79","","0.0","","34","","45","","","","101.38","","","","","","NA"
"-127.94","50.11","SOLANDER ISLAND (AUT)","1037553","2021-04-05 09:00","2021","04","05","09:00","5.8","","1.9","","76","","0.0","","34","","44","","","","101.40","","","","","","NA"
"-127.94","50.11","SOLANDER ISLAND (AUT)","1037553","2021-04-05 10:00","2021","04","05","10:00","6.2","","2.2","","76","","0.0","","33","","45","","","","101.40","","","","","","NA"
"-127.94","50.11","SOLANDER ISLAND (AUT)","1037553","2021-04-05 11:00","2021","04","05","11:00","6.4","","2.3","","75","","0.0","","32","","45","","","","101.34","","","","","","NA"
"-127.94","50.11","SOLANDER ISLAND (AUT)","1037553","2021-04-05 12:00","2021","04","05","12:00","6.4","","2.9","","78","","0.0","","31","","49","","","","101.27","","","","","","NA"
"-127.94","50.11","SOLANDER ISLAND (AUT)","1037553","2021-04-05 13:00","2021","04","05","13:00","6.3","","3.2","","81","","0.0","","30","","53","","","","101.22","","","","","","NA"
"-127.94","50.11","SOLANDER ISLAND (AUT)","1037553","2021-04-05 14:00","2021","04","05","14:00","6.4","","2.7","","77","","0.0","","30","","50","","","","101.20","","","","","","NA"
"-127.94","50.11","SOLANDER ISLAND (AUT)","1037553","2021-04-05 15:00","2021","04","05","15:00","6.6","","3.6","","81","","0.0","","29","","50","","","","101.20","","","","","","NA"
"-127.94","50.11","SOLANDER ISLAND (AUT)","1037553","2021-04-05 16:00","2021","04","05","16:00","6.2","","3.7","","84","","0.0","","30","","51","","","","101.16","","","","","","NA"
"-127.94","50.11","SOLANDER ISLAND (AUT)","1037553","2021-04-05 17:00","2021","04","05","17:00","6.1","","3.6","","84","","0.0","","30","","49","","","","101.14","","","","","","NA"
"-127.94","50.11","SOLANDER ISLAND (AUT)","1037553","2021-04-05 18:00","2021","04","05","18:00","5.9","","3.3","","83","","0.0","","30","","46","","","","101.10","","","","","","NA"
"-127.94","50.11","SOLANDER ISLAND (AUT)","1037553","2021-04-05 19:00","2021","04","05","19:00","5.6","","2.8","","82","","0.0","","30","","41","","","","101.12","","","","","","NA"
"-127.94","50.11","SOLANDER ISLAND (AUT)","1037553","2021-04-05 20:00","2021","04","05","20:00","5.6","","3.7","","88","","0.0","","30","","43","","","","101.14","","","","","","NA"
"-127.94","50.11","SOLANDER ISLAND (AUT)","1037553","2021-04-05 21:00","2021","04","05","21:00","5.5","","3.2","","86","","0.0","","31","","34","","","","101.15","","","","","","NA"
"-127.94","50.11","SOLANDER ISLAND (AUT)","1037553","2021-04-05 22:00","2021","04","05","22:00","5.3","","3.4","","88","","0.0","","31","","35","","","","101.09","","","","","","NA"
"-127.94","50.11","SOLANDER ISLAND (AUT)","1037553","2021-04-05 23:00","2021","04","05","23:00","5.3","","3.4","","87","","0.0","","31","","35","","","","101.05","","","","","","NA"
"-127.94","50.11","SOLANDER ISLAND (AUT)","1037553","2021-04-06 00:00","2021","04","06","00:00","5.2","","3.0","","86","","0.0","","33","","32","","","","101.05","","","","","","NA"
"-127.94","50.11","SOLANDER ISLAND (AUT)","1037553","2021-04-06 01:00","2021","04","06","01:00","5.0","","2.8","","85","","0.0","","34","","26","","","","101.02","","","","","","NA"
"-127.94","50.11","SOLANDER ISLAND (AUT)","1037553","2021-04-06 02:00","2021","04","06","02:00","5.3","","2.0","","79","","0.0","","36","","22","","","","100.99","","","","","","NA"
"-127.94","50.11","SOLANDER ISLAND (AUT)","1037553","2021-04-06 03:00","2021","04","06","03:00","5.0","","2.9","","86","","0.0","","33","","17","","","","100.97","","","","","","NA"
"-127.94","50.11","SOLANDER ISLAND (AUT)","1037553","2021-04-06 04:00","2021","04","06","04:00","4.8","","3.3","","90","","0.0","","34","","14","","","","100.95","","","","","","NA"
"-127.94","50.11","SOLANDER ISLAND (AUT)","1037553","2021-04-06 05:00","2021","04","06","05:00","4.9","","3.2","","89","","0.0","","35","","14","","","","100.95","","","","","","NA"
"-127.94","50.11","SOLANDER ISLAND (AUT)","1037553","2021-04-06 06:00","2021","04","06","06:00","4.4","","2.9","","90","","0.0","","1","","9","","","","100.96","","","","","","NA"
"-127.94","50.11","SOLANDER ISLAND (AUT)","1037553","2021-04-06 07:00","2021","04","06","07:00","4.7","","3.4","","91","","0.0","","1","","13","","","","100.96","","","","","","NA"
"-127.94","50.11","SOLANDER ISLAND (AUT)","1037553","2021-04-06 08:00","2021","04","06","08:00","5.7","","3.9","","89","","0.0","","35","","7","","","","100.97","","","","","","NA"
"-127.94","50.11","SOLANDER ISLAND (AUT)","1037553","2021-04-06 09:00","2021","04","06","09:00","5.3","","4.2","","93","","0.0","","34","","5","","","","100.97","","","","","","NA"
"-127.94","50.11","SOLANDER ISLAND (AUT)","1037553","2021-04-06 10:00","2021","04","06","10:00","7.7","","6.0","","89","","0.0","","32","","1","","","","100.96","","","","","","NA"
"-127.94","50.11","SOLANDER ISLAND (AUT)","1037553","2021-04-06 11:00","2021","04","06","11:00","7.0","","4.4","","83","","0.0","","24","","6","","","","100.95","","","","","","NA"
"-127.94","50.11","SOLANDER ISLAND (AUT)","1037553","2021-04-06 12:00","2021","04","06","12:00","6.6","","3.2","","79","","0.0","","25","","10","","","","100.94","","","","","","NA"
"-127.94","50.11","SOLANDER ISLAND (AUT)","1037553","2021-04-06 13:00","2021","04","06","13:00","6.8","","3.7","","80","","0.0","","24","","9","","","","100.93","","","","","","NA"
"-127.94","50.11","SOLANDER ISLAND (AUT)","1037553","2021-04-06 14:00","2021","04","06","14:00","7.5","","3.6","","76","","0.0","","23","","9","","","","100.91","","","","","","NA"
"-127.94","50.11","SOLANDER ISLAND (AUT)","1037553","2021-04-06 15:00","2021","04","06","15:00","6.6","","2.6","","75","","0.0","","20","","13","","","","100.87","","","","","","NA"
"-127.94","50.11","SOLANDER ISLAND (AUT)","1037553","2021-04-06 16:00","2021","04","06","16:00","6.5","","3.6","","82","","0.0","","23","","15","","","","100.83","","","","","","NA"
"-127.94","50.11","SOLANDER ISLAND (AUT)","1037553","2021-04-06 17:00","2021","04","06","17:00","6.0","","2.6","","79","","0.0","","20","","14","","","","100.81","","","","","","NA"
"-127.94","50.11","SOLANDER ISLAND (AUT)","1037553","2021-04-06 18:00","2021","04","06","18:00","5.4","","3.7","","89","","0.0","","16","","16","","","","100.76","","","","","","NA"
"-127.94","50.11","SOLANDER ISLAND (AUT)","1037553","2021-04-06 19:00","2021","04","06","19:00","5.7","","3.7","","87","","0.0","","17","","13","","","","100.72","","","","","","NA"
"-127.94","50.11","SOLANDER ISLAND (AUT)","1037553","2021-04-06 20:00","2021","04","06","20:00","5.5","","4.4","","93","","0.0","","16","","19","","","","100.68","","","","","","NA"
"-127.94","50.11","SOLANDER ISLAND (AUT)","1037553","2021-04-06 21:00","2021","04","06","21:00","5.2","","4.7","","96","","0.0","","17","","20","","","","100.65","","","","","","NA"
"-127.94","50.11","SOLANDER ISLAND (AUT)","1037553","2021-04-06 22:00","2021","04","06","22:00","5.6","","5.1","","97","","0.4","","17","","25","","","","100.60","","","","","","NA"
"-127.94","50.11","SOLANDER ISLAND (AUT)","1037553","2021-04-06 23:00","2021","04","06","23:00","6.1","","4.8","","92","","0.2","","20","","28","","","","100.52","","","","","","NA"
"-127.94","50.11","SOLANDER ISLAND (AUT)","1037553","2021-04-07 00:00","2021","04","07","00:00","5.3","","3.5","","88","","0.6","","25","","19","","","","100.49","","","","","","NA"
"-127.94","50.11","SOLANDER ISLAND (AUT)","1037553","2021-04-07 01:00","2021","04","07","01:00","5.1","","3.6","","90","","0.6","","25","","16","","","","100.49","","","","","","NA"
"-127.94","50.11","SOLANDER ISLAND (AUT)","1037553","2021-04-07 02:00","2021","04","07","02:00","4.7","","3.3","","90","","1.4","","22","","13","","","","100.43","","","","","","NA"
"-127.94","50.11","SOLANDER ISLAND (AUT)","1037553","2021-04-07 03:00","2021","04","07","03:00","4.5","","3.3","","92","","2.0","","28","","21","","","","100.40","","","","","","NA"
"-127.94","50.11","SOLANDER ISLAND (AUT)","1037553","2021-04-07 04:00","2021","04","07","04:00","4.3","","2.7","","90","","0.2","","29","","31","","","","100.36","","","","","","NA"
"-127.94","50.11","SOLANDER ISLAND (AUT)","1037553","2021-04-07 05:00","2021","04","07","05:00","4.0","","2.6","","91","","0.4","","28","","23","","","","100.37","","","","","","NA"
"-127.94","50.11","SOLANDER ISLAND (AUT)","1037553","2021-04-07 06:00","2021","04","07","06:00","4.3","","2.7","","89","","0.2","","29","","22","","","","100.38","","","","","","NA"
"-127.94","50.11","SOLANDER ISLAND (AUT)","1037553","2021-04-07 07:00","2021","04","07","07:00","3.5","","1.9","","89","","0.2","","29","","30","","","","100.39","","","","","","NA"
"-127.94","50.11","SOLANDER ISLAND (AUT)","1037553","2021-04-07 08:00","2021","04","07","08:00","4.6","","1.5","","80","","0.0","","30","","22","","","","100.41","","","","","","NA"
"-127.94","50.11","SOLANDER ISLAND (AUT)","1037553","2021-04-07 09:00","2021","04","07","09:00","4.4","","2.4","","87","","0.2","","29","","9","","","","100.42","","","","","","NA"
"-127.94","50.11","SOLANDER ISLAND (AUT)","1037553","2021-04-07 10:00","2021","04","07","10:00","4.9","","2.9","","87","","0.0","","34","","8","","","","100.43","","","","","","NA"
"-127.94","50.11","SOLANDER ISLAND (AUT)","1037553","2021-04-07 11:00","2021","04","07","11:00","5.1","","3.2","","87","","0.8","","24","","1","","","","100.46","","","","","","NA"
"-127.94","50.11","SOLANDER ISLAND (AUT)","1037553","2021-04-07 12:00","2021","04","07","12:00","5.3","","2.7","","83","","0.0","","23","","13","","","","100.45","","","","","","NA"
"-127.94","50.11","SOLANDER ISLAND (AUT)","1037553","2021-04-07 13:00","2021","04","07","13:00","4.8","","2.8","","86","","0.0","","22","","36","","","","100.44","","","","","","NA"
"-127.94","50.11","SOLANDER ISLAND (AUT)","1037553","2021-04-07 14:00","2021","04","07","14:00","3.9","","3.0","","94","","1.0","","26","","19","","","","100.47","","","","","","NA"
"-127.94","50.11","SOLANDER ISLAND (AUT)","1037553","2021-04-07 15:00","2021","04","07","15:00","4.1","","1.9","","86","","0.4","","29","","15","","","","100.46","","","","","","NA"
"-127.94","50.11","SOLANDER ISLAND (AUT)","1037553","2021-04-07 16:00","2021","04","07","16:00","4.4","","0.6","","76","","0.4","","31","","36","","","","100.44","","","","","","NA"
"-127.94","50.11","SOLANDER ISLAND (AUT)","1037553","2021-04-07 17:00","2021","04","07","17:00","5.6","","1.0","","72","","0.0","","30","","39","","","","100.45","","","","","","NA"
"-127.94","50.11","SOLANDER ISLAND (AUT)","1037553","2021-04-07 18:00","2021","04","07","18:00","5.8","","0.5","","69","","0.0","","30","","44","","","","100.44","","","","","","NA"
"-127.94","50.11","SOLANDER ISLAND (AUT)","1037553","2021-04-07 19:00","2021","04","07","19:00"
"-127.94","50.11","SOLANDER ISLAND (AUT)","1037553","2021-04-07 20:00","2021","04","07","20:00","4.5","","1.2","","79","","0.0","","29","","39","","","","100.57","","","","","","NA"
"-127.94","50.11","SOLANDER ISLAND (AUT)","1037553","2021-04-07 21:00","2021","04","07","21:00","3.9","","0.6","","79","","0.2","","35","","43","","","","100.67","","","","","","NA"
"-127.94","50.11","SOLANDER ISLAND (AUT)","1037553","2021-04-07 22:00","2021","04","07","22:00","4.8","","0.0","","71","","0.0","","30","","41","","","","100.66","","","","","","NA"
"-127.94","50.11","SOLANDER ISLAND (AUT)","1037553","2021-04-07 23:00","2021","04","07","23:00","4.5","","1.6","","82","","0.0","","29","","38","","","","100.77","","","","","","NA"
"-127.94","50.11","SOLANDER ISLAND (AUT)","1037553","2021-04-08 00:00","2021","04","08","00:00","3.6","","1.3","","85","","0.2","","35","","27","","","","100.91","","","","","","NA"
"-127.94","50.11","SOLANDER ISLAND (AUT)","1037553","2021-04-08 01:00","2021","04","08","01:00","2.6","","1.2","","91","","0.4","","1","","25","","","","100.97","","","","","","NA"
"-127.94","50.11","SOLANDER ISLAND (AUT)","1037553","2021-04-08 02:00","2021","04","08","02:00","3.8","","1.0","","82","","0.0","","30","","25","","","","101.01","","","","","","NA"
"-127.94","50.11","SOLANDER ISLAND (AUT)","1037553","2021-04-08 03:00","2021","04","08","03:00","4.1","","1.0","","80","","0.0","","30","","25","","","","101.05","","","","","","NA"
"-127.94","50.11","SOLANDER ISLAND (AUT)","1037553","2021-04-08 04:00","2021","04","08","04:00","3.9","","-0.5","","73","","0.2","","34","","28","","","","101.09","","","","","","NA"
"-127.94","50.11","SOLANDER ISLAND (AUT)","1037553","2021-04-08 05:00","2021","04","08","05:00","3.9","","0.7","","80","","0.0","","35","","18","","","","101.16","","","","","","NA"
"-127.94","50.11","SOLANDER ISLAND (AUT)","1037553","2021-04-08 06:00","2021","04","08","06:00","3.5","","0.4","","80","","0.0","","1","","14","","","","101.22","","","","","","NA"
"-127.94","50.11","SOLANDER ISLAND (AUT)","1037553","2021-04-08 07:00","2021","04","08","07:00","3.2","","0.7","","84","","0.0","","29","","28","","","","101.28","","","","","","NA"
"-127.94","50.11","SOLANDER ISLAND (AUT)","1037553","2021-04-08 08:00","2021","04","08","08:00","5.3","","1.9","","78","","0.0","","1","","13","","","","101.32","","","","","","NA"
"-127.94","50.11","SOLANDER ISLAND (AUT)","1037553","2021-04-08 09:00","2021","04","08","09:00","6.1","","2.5","","78","","0.0","","1","","12","","","","101.38","","","","","","NA"
"-127.94","50.11","SOLANDER ISLAND (AUT)","1037553","2021-04-08 10:00","2021","04","08","10:00","5.3","","0.7","","72","","0.0","","31","","6","","","","101.46","","","","","","NA"
"-127.94","50.11","SOLANDER ISLAND (AUT)","1037553","2021-04-08 11:00","2021","04","08","11:00","7.4","","3.4","","76","","0.0","","29","","2","","","","101.50","","","","","","NA"
"-127.94","50.11","SOLANDER ISLAND (AUT)","1037553","2021-04-08 12:00","2021","04","08","12:00","6.9","","2.5","","74","","0.0","","26","","4","","","","101.52","","","","","","NA"
"-127.94","50.11","SOLANDER ISLAND (AUT)","1037553","2021-04-08 13:00","2021","04","08","13:00","5.1","","2.5","","84","","0.0","","23","","9","","","","101.53","","","","","","NA"
"-127.94","50.11","SOLANDER ISLAND (AUT)","1037553","2021-04-08 14:00","2021","04","08","14:00","6.3","","-0.1","","63","","0.2","","25","","9","","","","101.50","","","","","","NA"
"-127.94","50.11","SOLANDER ISLAND (AUT)","1037553","2021-04-08 15:00","2021","04","08","15:00","7.5","","0.7","","62","","0.0","","19","","12","","","","101.47","","","","","","NA"
"-127.94","50.11","SOLANDER ISLAND (AUT)","1037553","2021-04-08 16:00","2021","04","08","16:00","6.3","","0.5","","67","","0.0","","19","","18","","","","101.45","","","","","","NA"
"-127.94","50.11","SOLANDER ISLAND (AUT)","1037553","2021-04-08 17:00","2021","04","08","17:00","6.3","","0.6","","67","","0.0","","19","","15","","","","101.44","","","","","","NA"
"-127.94","50.11","SOLANDER ISLAND (AUT)","1037553","2021-04-08 18:00","2021","04","08","18:00","5.9","","-1.6","","59","","0.0","","18","","27","","","","101.36","","","","","","NA"
"-127.94","50.11","SOLANDER ISLAND (AUT)","1037553","2021-04-08 19:00","2021","04","08","19:00","5.1","","1.9","","80","","0.0","","22","","24","","","","101.31","","","","","","NA"
"-127.94","50.11","SOLANDER ISLAND (AUT)","1037553","2021-04-08 20:00","2021","04","08","20:00","5.7","","0.9","","71","","0.0","","17","","31","","","","101.25","","","","","","NA"
"-127.94","50.11","SOLANDER ISLAND (AUT)","1037553","2021-04-08 21:00","2021","04","08","21:00","5.9","","0.5","","68","","0.0","","17","","36","","","","101.20","","","","","","NA"
"-127.94","50.11","SOLANDER ISLAND (AUT)","1037553","2021-04-08 22:00","2021","04","08","22:00","5.7","","1.3","","73","","0.0","","16","","38","","","","101.11","","","","","","NA"
"-127.94","50.11","SOLANDER ISLAND (AUT)","1037553","2021-04-08 23:00","2021","04","08","23:00","5.6","","1.3","","74","","0.0","","16","","46","","","","100.98","","","","","","NA"
"-127.94","50.11","SOLANDER ISLAND (AUT)","1037553","2021-04-09 00:00","2021","04","09","00:00","5.6","","2.1","","78","","0.0","","16","","55","","","","100.87","","","","","","NA"
"-127.94","50.11","SOLANDER ISLAND (AUT)","1037553","2021-04-09 01:00","2021","04","09","01:00","5.1","","3.0","","86","","0.2","","16","","52","","","","100.85","","","","","","NA"
"-127.94","50.11","SOLANDER ISLAND (AUT)","1037553","2021-04-09 02:00","2021","04","09","02:00","4.6","","2.1","","84","","0.8","","17","","53","","","","100.74","","","","","","NA"
"-127.94","50.11","SOLANDER ISLAND (AUT)","1037553","2021-04-09 03:00","2021","04","09","03:00","5.5","","3.2","","85","","0.4","","16","","48","","","","100.62","","","","","","NA"
"-127.94","50.11","SOLANDER ISLAND (AUT)","1037553","2021-04-09 04:00","2021","04","09","04:00","5.6","","4.5","","92","","0.2","","17","","46","","","","100.50","","","","","","NA"
"-127.94","50.11","SOLANDER ISLAND (AUT)","1037553","2021-04-09 05:00","2021","04","09","05:00","5.5","","4.8","","95","","0.4","","17","","56","","","","100.35","","","","","","NA"
"-127.94","50.11","SOLANDER ISLAND (AUT)","1037553","2021-04-09 06:00","2021","04","09","06:00","5.7","","5.4","","98","","0.2","","17","","57","","","","100.25","","","","","","NA"
"-127.94","50.11","SOLANDER ISLAND (AUT)","1037553","2021-04-09 07:00","2021","04","09","07:00","6.1","","5.5","","96","","0.4","","17","","55","","","","100.16","","","","","","NA"
"-127.94","50.11","SOLANDER ISLAND (AUT)","1037553","2021-04-09 08:00","2021","04","09","08:00"
"-127.94","50.11","SOLANDER ISLAND (AUT)","1037553","2021-04-09 09:00","2021","04","09","09:00","5.6","","2.1","","78","","1.0","","25","","24","","","","100.15","","","","","","NA"
"-127.94","50.11","SOLANDER ISLAND (AUT)","1037553","2021-04-09 10:00","2021","04","09","10:00","6.4","","2.1","","74","","0.0","","25","","22","","","","100.17","","","","","","NA"
"-127.94","50.11","SOLANDER ISLAND (AUT)","1037553","2021-04-09 11:00","2021","04","09","11:00","6.0","","1.9","","75","","0.0","","25","","26","","","","100.18","","","","","","NA"
"-127.94","50.11","SOLANDER ISLAND (AUT)","1037553","2021-04-09 12:00","2021","04","09","12:00","6.8","","2.8","","76","","0.0","","25","","29","","","","100.19","","","","","","NA"
"-127.94","50.11","SOLANDER ISLAND (AUT)","1037553","2021-04-09 13:00","2021","04","09","13:00","4.9","","3.5","","90","","0.0","","26","","20","","","","100.23","","","","","","NA"
"-127.94","50.11","SOLANDER ISLAND (AUT)","1037553","2021-04-09 14:00","2021","04","09","14:00","5.3","","1.1","","74","","0.0","","24","","21","","","","100.22","","","","","","NA"
"-127.94","50.11","SOLANDER ISLAND (AUT)","1037553","2021-04-09 15:00","2021","04","09","15:00","5.0","","-0.3","","69","","0.0","","27","","44","","","","100.20","","","","","","NA"
"-127.94","50.11","SOLANDER ISLAND (AUT)","1037553","2021-04-09 16:00","2021","04","09","16:00","5.8","","1.0","","71","","0.0","","27","","28","","","","100.21","","","","","","NA"
"-127.94","50.11","SOLANDER ISLAND (AUT)","1037553","2021-04-09 17:00","2021","04","09","17:00","4.9","","1.1","","76","","0.0","","25","","21","","","","100.19","","","","","","NA"
"-127.94","50.11","SOLANDER ISLAND (AUT)","1037553","2021-04-09 18:00","2021","04","09","18:00","3.3","","-0.4","","76","","0.2","","28","","53","","","","100.17","","","","","","NA"
"-127.94","50.11","SOLANDER ISLAND (AUT)","1037553","2021-04-09 19:00","2021","04","09","19:00","1.8","","0.9","","93","","0.0","","28","","44","","","","100.20","","","","","","NA"
"-127.94","50.11","SOLANDER ISLAND (AUT)","1037553","2021-04-09 20:00","2021","04","09","20:00","1.8","","-0.4","","85","","0.2","","28","","71","","","","100.20","","","","","","NA"
"-127.94","50.11","SOLANDER ISLAND (AUT)","1037553","2021-04-09 21:00","2021","04","09","21:00","1.9","","0.0","","87","","0.6","","29","","39","","","","100.23","","","","","","NA"
"-127.94","50.11","SOLANDER ISLAND (AUT)","1037553","2021-04-09 22:00","2021","04","09","22:00","2.1","","-1.2","","79","","0.0","","30","","31","","","","100.30","","","","","","NA"
"-127.94","50.11","SOLANDER ISLAND (AUT)","1037553","2021-04-09 23:00","2021","04","09","23:00","3.0","","-1.3","","74","","0.0","","30","","31","","","","100.36","","","","","","NA"
"-127.94","50.11","SOLANDER ISLAND (AUT)","1037553","2021-04-10 00:00","2021","04","10","00:00","3.4","","-2.7","","64","","0.0","","28","","35","","","","100.41","","","","","","NA"
"-127.94","50.11","SOLANDER ISLAND (AUT)","1037553","2021-04-10 01:00","2021","04","10","01:00","2.1","","0.4","","89","","0.2","","29","","56","","","","100.42","","","","","","NA"
"-127.94","50.11","SOLANDER ISLAND (AUT)","1037553","2021-04-10 02:00","2021","04","10","02:00","1.3","","-0.2","","90","","0.0","","33","","33","","","","100.59","","","","","","NA"
"-127.94","50.11","SOLANDER ISLAND (AUT)","1037553","2021-04-10 03:00","2021","04","10","03:00","1.6","","0.4","","92","","0.2","","31","","31","","","","100.64","","","","","","NA"
"-127.94","50.11","SOLANDER ISLAND (AUT)","1037553","2021-04-10 04:00","2021","04","10","04:00","3.1","","-2.3","","68","","0.0","","29","","38","","","","100.65","","","","","","NA"
"-127.94","50.11","SOLANDER ISLAND (AUT)","1037553","2021-04-10 05:00","2021","04","10","05:00","4.1","","-0.6","","71","","0.0","","28","","36","","","","100.72","","","","","","NA"
"-127.94","50.11","SOLANDER ISLAND (AUT)","1037553","2021-04-10 06:00","2021","04","10","06:00","4.3","","-2.7","","60","","0.0","","30","","40","","","","100.82","","","","","","NA"
"-127.94","50.11","SOLANDER ISLAND (AUT)","1037553","2021-04-10 07:00","2021","04","10","07:00","4.3","","-2.5","","61","","0.0","","32","","35","","","","100.94","","","","","","NA"
"-127.94","50.11","SOLANDER ISLAND (AUT)","1037553","2021-04-10 08:00","2021","04","10","08:00","4.6","","-0.6","","69","","0.0","","30","","37","","","","101.07","","","","","","NA"
"-127.94","50.11","SOLANDER ISLAND (AUT)","1037553","2021-04-10 09:00","2021","04","10","09:00","4.5","","-1.2","","67","","0.0","","32","","32","","","","101.18","","","","","","NA"
"-127.94","50.11","SOLANDER ISLAND (AUT)","1037553","2021-04-10 10:00","2021","04","10","10:00","5.2","","0.0","","69","","0.0","","34","","13","","","","101.32","","","","","","NA"
"-127.94","50.11","SOLANDER ISLAND (AUT)","1037553","2021-04-10 11:00","2021","04","10","11:00","5.1","","2.0","","80","","0.0","","36","","33","","","","101.38","","","","","","NA"
"-127.94","50.11","SOLANDER ISLAND (AUT)","1037553","2021-04-10 12:00","2021","04","10","12:00","6.1","","0.9","","69","","0.0","","36","","15","","","","101.46","","","","","","NA"
"-127.94","50.11","SOLANDER ISLAND (AUT)","1037553","2021-04-10 13:00","2021","04","10","13:00","3.2","","0.6","","83","","0.0","","33","","29","","","","101.52","","","","","","NA"
"-127.94","50.11","SOLANDER ISLAND (AUT)","1037553","2021-04-10 14:00","2021","04","10","14:00","5.1","","1.7","","79","","0.0","","35","","20","","","","101.61","","","","","","NA"
"-127.94","50.11","SOLANDER ISLAND (AUT)","1037553","2021-04-10 15:00","2021","04","10","15:00","6.0","","1.3","","72","","0.0","","30","","18","","","","101.67","","","","","","NA"
"-127.94","50.11","SOLANDER ISLAND (AUT)","1037553","2021-04-10 16:00","2021","04","10","16:00","5.9","","-0.3","","64","","0.0","","30","","28","","","","101.68","","","","","","NA"
"-127.94","50.11","SOLANDER ISLAND (AUT)","1037553","2021-04-10 17:00","2021","04","10","17:00","5.9","","-0.8","","62","","0.0","","31","","31","","","","101.70","","","","","","NA"
"-127.94","50.11","SOLANDER ISLAND (AUT)","1037553","2021-04-10 18:00","2021","04","10","18:00","5.8","","-1.1","","61","","0.0","","31","","30","","","","101.72","","","","","","NA"
"-127.94","50.11","SOLANDER ISLAND (AUT)","1037553","2021-04-10 19:00","2021","04","10","19:00","5.0","","0.0","","70","","0.0","","31","","38","","","","101.73","","","","","","NA"
"-127.94","50.11","SOLANDER ISLAND (AUT)","1037553","2021-04-10 20:00","2021","04","10","20:00","4.9","","-0.2","","69","","0.0","","31","","43","","","","101.75","","","","","","NA"
"-127.94","50.11","SOLANDER ISLAND (AUT)","1037553","2021-04-10 21:00","2021","04","10","21:00","4.4","","1.5","","81","","0.0","","30","","41","","","","101.76","","","","","","NA"
"-127.94","50.11","SOLANDER ISLAND (AUT)","1037553","2021-04-10 22:00","2021","04","10","22:00","4.6","","-0.5","","69","","0.0","","33","","35","","","","101.80","","","","","","NA"
"-127.94","50.11","SOLANDER ISLAND (AUT)","1037553","2021-04-10 23:00","2021","04","10","23:00","4.4","","0.5","","75","","0.0","","35","","32","","","","101.84","","","","","","NA"
"-127.94","50.11","SOLANDER ISLAND (AUT)","1037553","2021-04-11 00:00","2021","04","11","00:00","4.3","","0.1","","74","","0.0","","35","","32","","","","101.85","","","","","","NA"
"-127.94","50.11","SOLANDER ISLAND (AUT)","1037553","2021-04-11 01:00","2021","04","11","01:00","3.6","","-0.4","","75","","0.0","","1","","25","","","","101.84","","","","","","NA"
"-127.94","50.11","SOLANDER ISLAND (AUT)","1037553","2021-04-11 02:00","2021","04","11","02:00","3.5","","-0.1","","77","","0.0","","1","","21","","","","101.84","","","","","","NA"
"-127.94","50.11","SOLANDER ISLAND (AUT)","1037553","2021-04-11 03:00","2021","04","11","03:00","4.2","","-0.2","","73","","0.0","","34","","20","","","","101.86","","","","","","NA"
"-127.94","50.11","SOLANDER ISLAND (AUT)","1037553","2021-04-11 04:00","2021","04","11","04:00","3.6","","0.6","","80","","0.0","","1","","19","","","","101.87","","","","","","NA"
"-127.94","50.11","SOLANDER ISLAND (AUT)","1037553","2021-04-11 05:00","2021","04","11","05:00","3.6","","0.3","","79","","0.0","","35","","24","","","","101.88","","","","","","NA"
"-127.94","50.11","SOLANDER ISLAND (AUT)","1037553","2021-04-11 06:00","2021","04","11","06:00","3.9","","0.0","","76","","0.0","","35","","24","","","","101.91","","","","","","NA"
"-127.94","50.11","SOLANDER ISLAND (AUT)","1037553","2021-04-11 07:00","2021","04","11","07:00","4.4","","-0.4","","71","","0.0","","35","","30","","","","101.92","","","","","","NA"
"-127.94","50.11","SOLANDER ISLAND (AUT)","1037553","2021-04-11 08:00","2021","04","11","08:00","5.2","","0.1","","70","","0.0","","35","","26","","","","101.96","","","","","","NA"
"-127.94","50.11","SOLANDER ISLAND (AUT)","1037553","2021-04-11 09:00","2021","04","11","09:00","5.2","","-1.3","","63","","0.0","","34","","38","","","","101.93","","","","","","NA"
"-127.94","50.11","SOLANDER ISLAND (AUT)","1037553","2021-04-11 10:00","2021","04","11","10:00","5.5","","-1.2","","62","","0.0","","34","","31","","","","101.94","","","","","","NA"
"-127.94","50.11","SOLANDER ISLAND (AUT)","1037553","2021-04-11 11:00","2021","04","11","11:00","5.8","","-0.8","","62","","0.0","","33","","33","","","","101.94","","","","","","NA"
"-127.94","50.11","SOLANDER ISLAND (AUT)","1037553","2021-04-11 12:00","2021","04","11","12:00","5.7","","-0.1","","66","","0.0","","31","","41","","","","101.91","","","","","","NA"
"-127.94","50.11","SOLANDER ISLAND (AUT)","1037553","2021-04-11 13:00","2021","04","11","13:00","6.3","","-1.7","","57","","0.0","","32","","38","","","","101.87","","","","","","NA"
"-127.94","50.11","SOLANDER ISLAND (AUT)","1037553","2021-04-11 14:00","2021","04","11","14:00","6.0","","0.0","","65","","0.0","","31","","54","","","","101.79","","","","","","NA"
"-127.94","50.11","SOLANDER ISLAND (AUT)","1037553","2021-04-11 15:00","2021","04","11","15:00","6.4","","1.4","","70","","0.0","","30","","57","","","","101.74","","","","","","NA"
"-127.94","50.11","SOLANDER ISLAND (AUT)","1037553","2021-04-11 16:00","2021","04","11","16:00","6.9","","-0.3","","60","","0.0","","31","","59","","","","101.70","","","","","","NA"
"-127.94","50.11","SOLANDER ISLAND (AUT)","1037553","2021-04-11 17:00","2021","04","11","17:00","7.0","","-1.3","","55","","0.0","","32","","51","","","","101.71","","","","","","NA"
"-127.94","50.11","SOLANDER ISLAND (AUT)","1037553","2021-04-11 18:00","2021","04","11","18:00","6.7","","-1.4","","56","","0.0","","32","","46","","","","101.75","","","","","","NA"
"-127.94","50.11","SOLANDER ISLAND (AUT)","1037553","2021-04-11 19:00","2021","04","11","19:00","5.9","","-0.4","","64","","0.0","","32","","50","","","","101.68","","","","","","NA"
"-127.94","50.11","SOLANDER ISLAND (AUT)","1037553","2021-04-11 20:00","2021","04","11","20:00","5.5","","-0.5","","66","","0.0","","34","","44","","","","101.76","","","","","","NA"
"-127.94","50.11","SOLANDER ISLAND (AUT)","1037553","2021-04-11 21:00","2021","04","11","21:00","5.2","","0.6","","72","","0.0","","33","","44","","","","101.78","","","","","","NA"
"-127.94","50.11","SOLANDER ISLAND (AUT)","1037553","2021-04-11 22:00","2021","04","11","22:00","4.9","","0.3","","72","","0.0","","35","","48","","","","101.76","","","","","","NA"
"-127.94","50.11","SOLANDER ISLAND (AUT)","1037553","2021-04-11 23:00","2021","04","11","23:00","4.5","","0.3","","74","","0.0","","1","","37","","","","101.78","","","","","","NA"
"-127.94","50.11","SOLANDER ISLAND (AUT)","1037553","2021-04-12 00:00","2021","04","12","00:00","4.5","","0.3","","74","","0.0","","36","","39","","","","101.76","","","","","","NA"
"-127.94","50.11","SOLANDER ISLAND (AUT)","1037553","2021-04-12 01:00","2021","04","12","01:00","4.0","","0.3","","77","","0.0","","1","","24","","","","101.76","","","","","","NA"
"-127.94","50.11","SOLANDER ISLAND (AUT)","1037553","2021-04-12 02:00","2021","04","12","02:00","4.5","","0.2","","73","","0.0","","36","","42","","","","101.70","","","","","","NA"
"-127.94","50.11","SOLANDER ISLAND (AUT)","1037553","2021-04-12 03:00","2021","04","12","03:00","4.3","","0.3","","75","","0.0","","35","","43","","","","101.67","","","","","","NA"
"-127.94","50.11","SOLANDER ISLAND (AUT)","1037553","2021-04-12 04:00","2021","04","12","04:00","4.1","","0.2","","76","","0.0","","1","","34","","","","101.68","","","","","","NA"
"-127.94","50.11","SOLANDER ISLAND (AUT)","1037553","2021-04-12 05:00","2021","04","12","05:00","4.5","","0.0","","73","","0.0","","35","","36","","","","101.66","","","","","","NA"
"-127.94","50.11","SOLANDER ISLAND (AUT)","1037553","2021-04-12 06:00","2021","04","12","06:00","3.9","","-0.1","","75","","0.0","","1","","25","","","","101.68","","","","","","NA"
"-127.94","50.11","SOLANDER ISLAND (AUT)","1037553","2021-04-12 07:00","2021","04","12","07:00","5.0","","-0.5","","67","","0.0","","35","","35","","","","101.67","","","","","","NA"
"-127.94","50.11","SOLANDER ISLAND (AUT)","1037553","2021-04-12 08:00","2021","04","12","08:00","6.0","","0.3","","67","","0.0","","1","","21","","","","101.69","","","","","","NA"
"-127.94","50.11","SOLANDER ISLAND (AUT)","1037553","2021-04-12 09:00","2021","04","12","09:00","6.4","","-0.1","","63","","0.0","","36","","17","","","","101.72","","","","","","NA"
"-127.94","50.11","SOLANDER ISLAND (AUT)","1037553","2021-04-12 10:00","2021","04","12","10:00","7.3","","1.0","","64","","0.0","","34","","7","","","","101.74","","","","","","NA"
"-127.94","50.11","SOLANDER ISLAND (AUT)","1037553","2021-04-12 11:00","2021","04","12","11:00","7.9","","1.5","","64","","0.0","","35","","11","","","","101.74","","","","","","NA"
"-127.94","50.11","SOLANDER ISLAND (AUT)","1037553","2021-04-12 12:00","2021","04","12","12:00","8.5","","1.9","","63","","0.0","","31","","11","","","","101.75","","","","","","NA"
"-127.94","50.11","SOLANDER ISLAND (AUT)","1037553","2021-04-12 13:00","2021","04","12","13:00","8.3","","4.5","","77","","0.0","","30","","19","","","","101.75","","","","","","NA"
"-127.94","50.11","SOLANDER ISLAND (AUT)","1037553","2021-04-12 14:00","2021","04","12","14:00","8.7","","4.6","","75","","0.0","","31","","19","","","","101.73","","","","","","NA"
"-127.94","50.11","SOLANDER ISLAND (AUT)","1037553","2021-04-12 15:00","2021","04","12","15:00","7.8","","4.6","","80","","0.0","","31","","26","","","","101.72","","","","","","NA"
"-127.94","50.11","SOLANDER ISLAND (AUT)","1037553","2021-04-12 16:00","2021","04","12","16:00","7.4","","4.9","","85","","0.0","","34","","23","","","","101.69","","","","","","NA"
"-127.94","50.11","SOLANDER ISLAND (AUT)","1037553","2021-04-12 17:00","2021","04","12","17:00","7.9","","5.2","","83","","0.0","","33","","20","","","","101.67","","","","","","NA"
"-127.94","50.11","SOLANDER ISLAND (AUT)","1037553","2021-04-12 18:00","2021","04","12","18:00","7.8","","5.5","","85","","0.0","","34","","22","","","","101.65","","","","","","NA"
"-127.94","50.11","SOLANDER ISLAND (AUT)","1037553","2021-04-12 19:00","2021","04","12","19:00","7.3","","5.1","","86","","0.0","","35","","25","","","","101.64","","","","","","NA"
"-127.94","50.11","SOLANDER ISLAND (AUT)","1037553","2021-04-12 20:00","2021","04","12","20:00","7.2","","4.8","","85","","0.0","","36","","23","","","","101.68","","","","","","NA"
"-127.94","50.11","SOLANDER ISLAND (AUT)","1037553","2021-04-12 21:00","2021","04","12","21:00","8.4","","1.2","","60","","0.0","","36","","19","","","","101.71","","","","","","NA"
"-127.94","50.11","SOLANDER ISLAND (AUT)","1037553","2021-04-12 22:00","2021","04","12","22:00","7.8","","2.0","","67","","0.0","","36","","20","","","","101.73","","","","","","NA"
"-127.94","50.11","SOLANDER ISLAND (AUT)","1037553","2021-04-12 23:00","2021","04","12","23:00","6.6","","4.4","","86","","0.0","","1","","24","","","","101.73","","","","","","NA"
"-127.94","50.11","SOLANDER ISLAND (AUT)","1037553","2021-04-13 00:00","2021","04","13","00:00","8.4","","1.9","","64","","0.0","","13","","2","","","","101.78","","","","","","NA"
"-127.94","50.11","SOLANDER ISLAND (AUT)","1037553","2021-04-13 01:00","2021","04","13","01:00","8.7","","2.1","","63","","0.0","","19","","2","","","","101.78","","","","","","NA"
"-127.94","50.11","SOLANDER ISLAND (AUT)","1037553","2021-04-13 02:00","2021","04","13","02:00","8.5","","3.0","","68","","0.0","","15","","7","","","","101.80","","","","","","NA"
"-127.94","50.11","SOLANDER ISLAND (AUT)","1037553","2021-04-13 03:00","2021","04","13","03:00","8.2","","3.5","","72","","0.0","","17","","3","","","","101.86","","","","","","NA"
"-127.94","50.11","SOLANDER ISLAND (AUT)","1037553","2021-04-13 04:00","2021","04","13","04:00","8.5","","2.4","","66","","0.0","","23","","3","","","","101.86","","","","","","NA"
"-127.94","50.11","SOLANDER ISLAND (AUT)","1037553","2021-04-13 05:00","2021","04","13","05:00","8.8","","2.2","","63","","0.0","","36","","8","","","","101.87","","","","","","NA"
"-127.94","50.11","SOLANDER ISLAND (AUT)","1037553","2021-04-13 06:00","2021","04","13","06:00","6.9","","2.8","","75","","0.0","","30","","7","","","","101.89","","","","","","NA"
"-127.94","50.11","SOLANDER ISLAND (AUT)","1037553","2021-04-13 07:00","2021","04","13","07:00","9.3","","1.4","","58","","0.0","","33","","7","","","","101.90","","","","","","NA"
"-127.94","50.11","SOLANDER ISLAND (AUT)","1037553","2021-04-13 08:00","2021","04","13","08:00","10.0","","0.7","","52","","0.0","","33","","3","","","","101.90","","","","","","NA"
"-127.94","50.11","SOLANDER ISLAND (AUT)","1037553","2021-04-13 09:00","2021","04","13","09:00","8.2","","3.5","","72","","0.0","","33","","10","","","","101.92","","","","","","NA"
"-127.94","50.11","SOLANDER ISLAND (AUT)","1037553","2021-04-13 10:00","2021","04","13","10:00","7.7","","5.1","","84","","0.0","","35","","19","","","","101.92","","","","","","NA"
"-127.94","50.11","SOLANDER ISLAND (AUT)","1037553","2021-04-13 11:00","2021","04","13","11:00","7.9","","2.4","","68","","0.0","","35","","20","","","","101.90","","","","","","NA"
"-127.94","50.11","SOLANDER ISLAND (AUT)","1037553","2021-04-13 12:00","2021","04","13","12:00","8.7","","4.8","","77","","0.0","","33","","17","","","","101.92","","","","","","NA"
"-127.94","50.11","SOLANDER ISLAND (AUT)","1037553","2021-04-13 13:00","2021","04","13","13:00","8.9","","4.5","","74","","0.0","","33","","18","","","","101.90","","","","","","NA"
"-127.94","50.11","SOLANDER ISLAND (AUT)","1037553","2021-04-13 14:00","2021","04","13","14:00","8.4","","6.3","","86","","0.0","","33","","20","","","","101.90","","","","","","NA"
"-127.94","50.11","SOLANDER ISLAND (AUT)","1037553","2021-04-13 15:00","2021","04","13","15:00","8.3","","6.6","","89","","0.0","","34","","19","","","","101.84","","","","","","NA"
"-127.94","50.11","SOLANDER ISLAND (AUT)","1037553","2021-04-13 16:00","2021","04","13","16:00","8.1","","5.4","","83","","0.0","","36","","30","","","","101.79","","","","","","NA"
"-127.94","50.11","SOLANDER ISLAND (AUT)","1037553","2021-04-13 17:00","2021","04","13","17:00","7.8","","6.1","","89","","0.0","","35","","26","","","","101.75","","","","","","NA"
"-127.94","50.11","SOLANDER ISLAND (AUT)","1037553","2021-04-13 18:00","2021","04","13","18:00","8.7","","2.7","","66","","0.0","","36","","33","","","","101.66","","","","","","NA"
"-127.94","50.11","SOLANDER ISLAND (AUT)","1037553","2021-04-13 19:00","2021","04","13","19:00","9.1","","1.6","","59","","0.0","","36","","28","","","","101.62","","","","","","NA"
"-127.94","50.11","SOLANDER ISLAND (AUT)","1037553","2021-04-13 20:00","2021","04","13","20:00","7.9","","5.4","","84","","0.0","","35","","24","","","","101.61","","","","","","NA"
"-127.94","50.11","SOLANDER ISLAND (AUT)","1037553","2021-04-13 21:00","2021","04","13","21:00","7.8","","6.5","","91","","0.0","","34","","23","","","","101.59","","","","","","NA"
"-127.94","50.11","SOLANDER ISLAND (AUT)","1037553","2021-04-13 22:00","2021","04","13","22:00","7.9","","6.0","","88","","0.0","","35","","22","","","","101.56","","","","","","NA"
"-127.94","50.11","SOLANDER ISLAND (AUT)","1037553","2021-04-13 23:00","2021","04","13","23:00","7.2","","3.2","","76","","0.0","","36","","29","","","","101.52","","","","","","NA"
"-127.94","50.11","SOLANDER ISLAND (AUT)","1037553","2021-04-14 00:00","2021","04","14","00:00","7.5","","1.3","","65","","0.0","","36","","28","","","","101.48","","","","","","NA"
"-127.94","50.11","SOLANDER ISLAND (AUT)","1037553","2021-04-14 01:00","2021","04","14","01:00","7.5","","3.3","","75","","0.0","","36","","25","","","","101.47","","","","","","NA"
"-127.94","50.11","SOLANDER ISLAND (AUT)","1037553","2021-04-14 02:00","2021","04","14","02:00","7.3","","3.4","","76","","0.0","","35","","22","","","","101.46","","","","","","NA"
"-127.94","50.11","SOLANDER ISLAND (AUT)","1037553","2021-04-14 03:00","2021","04","14","03:00","7.2","","4.1","","81","","0.0","","34","","13","","","","101.44","","","","","","NA"
"-127.94","50.11","SOLANDER ISLAND (AUT)","1037553","2021-04-14 04:00","2021","04","14","04:00","8.2","","-0.8","","53","","0.0","","34","","4","","","","101.44","","","","","","NA"
"-127.94","50.11","SOLANDER ISLAND (AUT)","1037553","2021-04-14 05:00","2021","04","14","05:00","9.0","","-1.8","","47","","0.0","","15","","3","","","","101.46","","","","","","NA"
"-127.94","50.11","SOLANDER ISLAND (AUT)","1037553","2021-04-14 06:00","2021","04","14","06:00","7.1","","1.4","","67","","0.0","","29","","5","","","","101.45","","","","","","NA"
"-127.94","50.11","SOLANDER ISLAND (AUT)","1037553","2021-04-14 07:00","2021","04","14","07:00","8.8","","-1.0","","50","","0.0","","30","","11","","","","101.45","","","","","","NA"
"-127.94","50.11","SOLANDER ISLAND (AUT)","1037553","2021-04-14 08:00","2021","04","14","08:00","7.8","","3.1","","72","","0.0","","34","","16","","","","101.44","","","","","","NA"
"-127.94","50.11","SOLANDER ISLAND (AUT)","1037553","2021-04-14 09:00","2021","04","14","09:00","7.4","","3.7","","78","","0.0","","33","","20","","","","101.42","","","","","","NA"
"-127.94","50.11","SOLANDER ISLAND (AUT)","1037553","2021-04-14 10:00","2021","04","14","10:00","7.8","","4.8","","82","","0.0","","33","","22","","","","101.38","","","","","","NA"
"-127.94","50.11","SOLANDER ISLAND (AUT)","1037553","2021-04-14 11:00","2021","04","14","11:00","8.1","","4.5","","78","","0.0","","34","","24","","","","101.37","","","","","","NA"
"-127.94","50.11","SOLANDER ISLAND (AUT)","1037553","2021-04-14 12:00","2021","04","14","12:00","8.5","","6.4","","86","","0.0","","34","","22","","","","101.34","","","","","","NA"
"-127.94","50.11","SOLANDER ISLAND (AUT)","1037553","2021-04-14 13:00","2021","04","14","13:00","8.3","","6.5","","88","","0.0","","34","","22","","","","101.30","","","","","","NA"
"-127.94","50.11","SOLANDER ISLAND (AUT)","1037553","2021-04-14 14:00","2021","04","14","14:00","8.6","","6.1","","84","","0.0","","35","","23","","","","101.25","","","","","","NA"
"-127.94","50.11","SOLANDER ISLAND (AUT)","1037553","2021-04-14 15:00","2021","04","14","15:00","8.7","","5.6","","81","","0.0","","36","","31","","","","101.18","","","","","","NA"
"-127.94","50.11","SOLANDER ISLAND (AUT)","1037553","2021-04-14 16:00","2021","04","14","16:00","8.9","","5.7","","80","","0.0","","35","","29","","","","101.12","","","","","","NA"
"-127.94","50.11","SOLANDER ISLAND (AUT)","1037553","2021-04-14 17:00","2021","04","14","17:00","8.6","","5.9","","83","","0.0","","35","","32","","","","101.06","","","","","","NA"
"-127.94","50.11","SOLANDER ISLAND (AUT)","1037553","2021-04-14 18:00","2021","04","14","18:00","8.7","","5.9","","83","","0.0","","35","","33","","","","100.98","","","","","","NA"
"-127.94","50.11","SOLANDER ISLAND (AUT)","1037553","2021-04-14 19:00","2021","04","14","19:00","8.8","","5.8","","82","","0.0","","34","","41","","","","100.91","","","","","","NA"
"-127.94","50.11","SOLANDER ISLAND (AUT)","1037553","2021-04-14 20:00","2021","04","14","20:00","9.0","","6.3","","83","","0.0","","34","","37","","","","100.89","","","","","","NA"
"-127.94","50.11","SOLANDER ISLAND (AUT)","1037553","2021-04-14 21:00","2021","04","14","21:00","9.3","","4.7","","73","","0.0","","35","","40","","","","100.89","","","","","","NA"
"-127.94","50.11","SOLANDER ISLAND (AUT)","1037553","2021-04-14 22:00","2021","04","14","22:00","9.7","","4.7","","71","","0.0","","35","","32","","","","100.87","","","","","","NA"
"-127.94","50.11","SOLANDER ISLAND (AUT)","1037553","2021-04-14 23:00","2021","04","14","23:00","9.1","","5.4","","78","","0.0","","35","","31","","","","100.85","","","","","","NA"
"-127.94","50.11","SOLANDER ISLAND (AUT)","1037553","2021-04-15 00:00","2021","04","15","00:00","8.7","","4.6","","76","","0.0","","35","","33","","","","100.85","","","","","","NA"
"-127.94","50.11","SOLANDER ISLAND (AUT)","1037553","2021-04-15 01:00","2021","04","15","01:00","8.2","","4.7","","79","","0.0","","34","","28","","","","100.85","","","","","","NA"
"-127.94","50.11","SOLANDER ISLAND (AUT)","1037553","2021-04-15 02:00","2021","04","15","02:00","8.1","","4.6","","79","","0.0","","34","","27","","","","100.83","","","","","","NA"
"-127.94","50.11","SOLANDER ISLAND (AUT)","1037553","2021-04-15 03:00","2021","04","15","03:00","8.5","","3.9","","73","","0.0","","32","","15","","","","100.82","","","","","","NA"
"-127.94","50.11","SOLANDER ISLAND (AUT)","1037553","2021-04-15 04:00","2021","04","15","04:00","8.4","","4.6","","77","","0.0","","35","","13","","","","100.82","","","","","","NA"
"-127.94","50.11","SOLANDER ISLAND (AUT)","1037553","2021-04-15 05:00","2021","04","15","05:00","7.3","","4.7","","83","","0.0","","33","","21","","","","100.84","","","","","","NA"
"-127.94","50.11","SOLANDER ISLAND (AUT)","1037553","2021-04-15 06:00","2021","04","15","06:00","9.7","","0.1","","51","","0.0","","8","","6","","","","100.85","","","","","","NA"
"-127.94","50.11","SOLANDER ISLAND (AUT)","1037553","2021-04-15 07:00","2021","04","15","07:00","7.8","","4.7","","81","","0.0","","27","","6","","","","100.91","","","","","","NA"
"-127.94","50.11","SOLANDER ISLAND (AUT)","1037553","2021-04-15 08:00","2021","04","15","08:00","10.3","","1.7","","55","","0.0","","1","","3","","","","100.94","","","","","","NA"
"-127.94","50.11","SOLANDER ISLAND (AUT)","1037553","2021-04-15 09:00","2021","04","15","09:00","7.7","","5.0","","83","","0.0","","31","","13","","","","100.95","","","","","","NA"
"-127.94","50.11","SOLANDER ISLAND (AUT)","1037553","2021-04-15 10:00","2021","04","15","10:00","13.1","","-1.3","","37","","0.0","","28","","1","","","","100.96","","","","","","NA"
"-127.94","50.11","SOLANDER ISLAND (AUT)","1037553","2021-04-15 11:00","2021","04","15","11:00","9.1","","3.2","","66","","0.0","","28","","3","","","","100.99","","","","","","NA"
"-127.94","50.11","SOLANDER ISLAND (AUT)","1037553","2021-04-15 12:00","2021","04","15","12:00","8.6","","6.6","","87","","0.0","","30","","13","","","","101.00","","","","","","NA"
"-127.94","50.11","SOLANDER ISLAND (AUT)","1037553","2021-04-15 13:00","2021","04","15","13:00","7.7","","6.8","","94","","0.0","","33","","14","","","","100.99","","","","","","NA"
"-127.94","50.11","SOLANDER ISLAND (AUT)","1037553","2021-04-15 14:00","2021","04","15","14:00","6.9","","6.0","","95","","0.0","","32","","18","","","","101.00","","","","","","NA"
"-127.94","50.11","SOLANDER ISLAND (AUT)","1037553","2021-04-15 15:00","2021","04","15","15:00","6.7","","6.1","","95","","0.0","","34","","15","","","","101.00","","","","","","NA"
"-127.94","50.11","SOLANDER ISLAND (AUT)","1037553","2021-04-15 16:00","2021","04","15","16:00","8.1","","6.9","","92","","0.0","","34","","16","","","","100.96","","","","","","NA"
"-127.94","50.11","SOLANDER ISLAND (AUT)","1037553","2021-04-15 17:00","2021","04","15","17:00","8.2","","7.3","","94","","0.0","","34","","16","","","","100.95","","","","","","NA"
"-127.94","50.11","SOLANDER ISLAND (AUT)","1037553","2021-04-15 18:00","2021","04","15","18:00","8.6","","7.3","","91","","0.0","","32","","19","","","","100.95","","","","","","NA"
"-127.94","50.11","SOLANDER ISLAND (AUT)","1037553","2021-04-15 19:00","2021","04","15","19:00"
"-127.94","50.11","SOLANDER ISLAND (AUT)","1037553","2021-04-15 20:00","2021","04","15","20:00","7.8","","7.1","","95","","0.0","","33","","25","","","","100.96","","","","","","NA"
"-127.94","50.11","SOLANDER ISLAND (AUT)","1037553","2021-04-15 21:00","2021","04","15","21:00","7.9","","7.4","","97","","0.0","","32","","24","","","","100.99","","","","","","NA"
"-127.94","50.11","SOLANDER ISLAND (AUT)","1037553","2021-04-15 22:00","2021","04","15","22:00","7.9","","7.4","","97","","0.0","","33","","23","","","","101.01","","","","","","NA"
"-127.94","50.11","SOLANDER ISLAND (AUT)","1037553","2021-04-15 23:00","2021","04","15","23:00","9.2","","5.6","","78","","0.0","","34","","20","","","","101.04","","","","","","NA"
"-127.94","50.11","SOLANDER ISLAND (AUT)","1037553","2021-04-16 00:00","2021","04","16","00:00","8.3","","7.1","","92","","0.0","","1","","25","","","","101.04","","","","","","NA"
"-127.94","50.11","SOLANDER ISLAND (AUT)","1037553","2021-04-16 01:00","2021","04","16","01:00","11.7","","2.3","","52","","0.0","","36","","9","","","","101.07","","","","","","NA"
"-127.94","50.11","SOLANDER ISLAND (AUT)","1037553","2021-04-16 02:00","2021","04","16","02:00","10.3","","5.7","","73","","0.0","","1","","11","","","","101.05","","","","","","NA"
"-127.94","50.11","SOLANDER ISLAND (AUT)","1037553","2021-04-16 03:00","2021","04","16","03:00","9.1","","5.2","","77","","0.0","","35","","21","","","","101.06","","","","","","NA"
"-127.94","50.11","SOLANDER ISLAND (AUT)","1037553","2021-04-16 04:00","2021","04","16","04:00","9.1","","5.8","","80","","0.0","","33","","19","","","","101.08","","","","","","NA"
"-127.94","50.11","SOLANDER ISLAND (AUT)","1037553","2021-04-16 05:00","2021","04","16","05:00","8.7","","6.1","","84","","0.0","","27","","5","","","","101.09","","","","","","NA"
"-127.94","50.11","SOLANDER ISLAND (AUT)","1037553","2021-04-16 06:00","2021","04","16","06:00","11.4","","2.1","","53","","0.0","","13","","10","","","","101.10","","","","","","NA"
"-127.94","50.11","SOLANDER ISLAND (AUT)","1037553","2021-04-16 07:00","2021","04","16","07:00","8.4","","6.7","","89","","0.0","","20","","8","","","","101.17","","","","","","NA"
"-127.94","50.11","SOLANDER ISLAND (AUT)","1037553","2021-04-16 08:00","2021","04","16","08:00","7.5","","6.7","","94","","0.0","","23","","7","","","","101.21","","","","","","NA"
"-127.94","50.11","SOLANDER ISLAND (AUT)","1037553","2021-04-16 09:00","2021","04","16","09:00","7.0","","6.5","","96","","0.0","","26","","7","","","","101.25","","","","","","NA"
"-127.94","50.11","SOLANDER ISLAND (AUT)","1037553","2021-04-16 10:00","2021","04","16","10:00","9.6","","7.4","","86","","0.0","","29","","6","","","","101.30","","","","","","NA"
"-127.94","50.11","SOLANDER ISLAND (AUT)","1037553","2021-04-16 11:00","2021","04","16","11:00","9.8","","7.6","","86","","0.0","","35","","3","","","","101.31","","","","","","NA"
"-127.94","50.11","SOLANDER ISLAND (AUT)","1037553","2021-04-16 12:00","2021","04","16","12:00","13.4","","5.1","","57","","0.0","","19","","8","","","","101.34","","","","","","NA"
"-127.94","50.11","SOLANDER ISLAND (AUT)","1037553","2021-04-16 13:00","2021","04","16","13:00","14.2","","6.6","","60","","0.0","","19","","5","","","","101.35","","","","","","NA"
"-127.94","50.11","SOLANDER ISLAND (AUT)","1037553","2021-04-16 14:00","2021","04","16","14:00","10.2","","8.5","","89","","0.0","","27","","6","","","","101.34","","","","","","NA"
"-127.94","50.11","SOLANDER ISLAND (AUT)","1037553","2021-04-16 15:00","2021","04","16","15:00","10.3","","6.8","","79","","0.0","","32","","9","","","","101.31","","","","","","NA"
"-127.94","50.11","SOLANDER ISLAND (AUT)","1037553","2021-04-16 16:00","2021","04","16","16:00","9.9","","8.3","","90","","0.0","","33","","17","","","","101.27","","","","","","NA"
"-127.94","50.11","SOLANDER ISLAND (AUT)","1037553","2021-04-16 17:00","2021","04","16","17:00","9.9","","7.6","","86","","0.0","","34","","23","","","","101.24","","","","","","NA"
"-127.94","50.11","SOLANDER ISLAND (AUT)","1037553","2021-04-16 18:00","2021","04","16","18:00","10.0","","7.9","","87","","0.0","","34","","26","","","","101.19","","","","","","NA"
"-127.94","50.11","SOLANDER ISLAND (AUT)","1037553","2021-04-16 19:00","2021","04","16","19:00","9.4","","7.8","","90","","0.0","","35","","31","","","","101.17","","","","","","NA"
"-127.94","50.11","SOLANDER ISLAND (AUT)","1037553","2021-04-16 20:00","2021","04","16","20:00","9.4","","7.9","","90","","0.0","","36","","32","","","","101.16","","","","","","NA"
"-127.94","50.11","SOLANDER ISLAND (AUT)","1037553","2021-04-16 21:00","2021","04","16","21:00","11.1","","4.4","","63","","0.0","","36","","27","","","","101.18","","","","","","NA"
"-127.94","50.11","SOLANDER ISLAND (AUT)","1037553","2021-04-16 22:00","2021","04","16","22:00","9.7","","7.8","","88","","0.0","","1","","23","","","","101.16","","","","","","NA"
"-127.94","50.11","SOLANDER ISLAND (AUT)","1037553","2021-04-16 23:00","2021","04","16","23:00","13.6","","3.6","","51","","0.0","","2","","18","","","","101.15","","","","","","NA"
"-127.94","50.11","SOLANDER ISLAND (AUT)","1037553","2021-04-17 00:00","2021","04","17","00:00","13.1","","3.9","","54","","0.0","","14","","7","","","","101.15","","","","","","NA"
"-127.94","50.11","SOLANDER ISLAND (AUT)","1037553","2021-04-17 01:00","2021","04","17","01:00","13.8","","3.9","","51","","0.0","","15","","9","","","","101.14","","","","","","NA"
"-127.94","50.11","SOLANDER ISLAND (AUT)","1037553","2021-04-17 02:00","2021","04","17","02:00","13.2","","3.9","","53","","0.0","","16","","5","","","","101.13","","","","","","NA"
"-127.94","50.11","SOLANDER ISLAND (AUT)","1037553","2021-04-17 03:00","2021","04","17","03:00","11.4","","5.0","","65","","0.0","","34","","4","","","","101.13","","","","","","NA"
"-127.94","50.11","SOLANDER ISLAND (AUT)","1037553","2021-04-17 04:00","2021","04","17","04:00","12.3","","4.4","","58","","0.0","","12","","6","","","","101.11","","","","","","NA"
"-127.94","50.11","SOLANDER ISLAND (AUT)","1037553","2021-04-17 05:00","2021","04","17","05:00","12.0","","4.6","","60","","0.0","","11","","11","","","","101.10","","","","","","NA"
"-127.94","50.11","SOLANDER ISLAND (AUT)","1037553","2021-04-17 06:00","2021","04","17","06:00","13.7","","2.1","","45","","0.0","","10","","13","","","","101.11","","","","","","NA"
"-127.94","50.11","SOLANDER ISLAND (AUT)","1037553","2021-04-17 07:00","2021","04","17","07:00","15.5","","1.3","","38","","0.0","","11","","14","","","","101.13","","","","","","NA"
"-127.94","50.11","SOLANDER ISLAND (AUT)","1037553","2021-04-17 08:00","2021","04","17","08:00","14.8","","6.5","","58","","0.0","","9","","9","","","","101.14","","","","","","NA"
"-127.94","50.11","SOLANDER ISLAND (AUT)","1037553","2021-04-17 09:00","2021","04","17","09:00","14.0","","2.4","","46","","0.0","","11","","20","","","","101.15","","","","","","NA"
"-127.94","50.11","SOLANDER ISLAND (AUT)","1037553","2021-04-17 10:00","2021","04","17","10:00","15.0","","1.8","","41","","0.0","","11","","24","","","","101.17","","","","","","NA"
"-127.94","50.11","SOLANDER ISLAND (AUT)","1037553","2021-04-17 11:00","2021","04","17","11:00","13.7","","3.4","","50","","0.0","","11","","30","","","","101.18","","","","","","NA"
"-127.94","50.11","SOLANDER ISLAND (AUT)","1037553","2021-04-17 12:00","2021","04","17","12:00","17.1","","1.6","","35","","0.0","","12","","23","","","","101.23","","","","","","NA"
"-127.94","50.11","SOLANDER ISLAND (AUT)","1037553","2021-04-17 13:00","2021","04","17","13:00","15.5","","1.9","","40","","0.0","","15","","22","","","","101.28","","","","","","NA"
"-127.94","50.11","SOLANDER ISLAND (AUT)","1037553","2021-04-17 14:00","2021","04","17","14:00","14.6","","2.1","","43","","0.0","","14","","18","","","","101.26","","","","","","NA"
"-127.94","50.11","SOLANDER ISLAND (AUT)","1037553","2021-04-17 15:00","2021","04","17","15:00","15.2","","5.2","","51","","0.0","","16","","11","","","","101.23","","","","","","NA"
"-127.94","50.11","SOLANDER ISLAND (AUT)","1037553","2021-04-17 16:00","2021","04","17","16:00","12.2","","8.8","","80","","0.0","","35","","9","","","","101.21","","","","","","NA"
"-127.94","50.11","SOLANDER ISLAND (AUT)","1037553","2021-04-17 17:00","2021","04","17","17:00","13.2","","6.3","","63","","0.0","","3","","3","","","","101.14","","","","","","NA"
"-127.94","50.11","SOLANDER ISLAND (AUT)","1037553","2021-04-17 18:00","2021","04","17","18:00","17.2","","6.7","","50","","0.0","","28","","2","","","","101.09","","","","","","NA"
"-127.94","50.11","SOLANDER ISLAND (AUT)","1037553","2021-04-17 19:00","2021","04","17","19:00","12.8","","5.8","","62","","0.0","","33","","15","","","","101.11","","","","","","NA"
"-127.94","50.11","SOLANDER ISLAND (AUT)","1037553","2021-04-17 20:00","2021","04","17","20:00","12.4","","4.7","","60","","0.0","","36","","34","","","","101.07","","","","","","NA"
"-127.94","50.11","SOLANDER ISLAND (AUT)","1037553","2021-04-17 21:00","2021","04","17","21:00","14.4","","4.7","","52","","0.0","","2","","28","","","","101.05","","","","","","NA"
"-127.94","50.11","SOLANDER ISLAND (AUT)","1037553","2021-04-17 22:00","2021","04","17","22:00","16.3","","4.1","","44","","0.0","","36","","11","","","","101.07","","","","","","NA"
"-127.94","50.11","SOLANDER ISLAND (AUT)","1037553","2021-04-17 23:00","2021","04","17","23:00","14.8","","3.7","","47","","0.0","","36","","12","","","","101.06","","","","","","NA"
"-127.94","50.11","SOLANDER ISLAND (AUT)","1037553","2021-04-18 00:00","2021","04","18","00:00","12.6","","3.3","","53","","0.2","","1","","21","","","","101.03","","","","","","NA"
"-127.94","50.11","SOLANDER ISLAND (AUT)","1037553","2021-04-18 01:00","2021","04","18","01:00","15.6","","2.1","","40","","0.0","","1","","17","","","","101.04","","","","","","NA"
"-127.94","50.11","SOLANDER ISLAND (AUT)","1037553","2021-04-18 02:00","2021","04","18","02:00","16.4","","-0.3","","32","","0.0","","9","","2","","","","101.01","","","","","","NA"
"-127.94","50.11","SOLANDER ISLAND (AUT)","1037553","2021-04-18 03:00","2021","04","18","03:00","14.1","","1.8","","43","","0.0","","16","","4","","","","101.03","","","","","","NA"
"-127.94","50.11","SOLANDER ISLAND (AUT)","1037553","2021-04-18 04:00","2021","04","18","04:00","12.4","","3.7","","55","","0.0","","33","","6","","","","101.03","","","","","","NA"
"-127.94","50.11","SOLANDER ISLAND (AUT)","1037553","2021-04-18 05:00","2021","04","18","05:00","12.3","","3.9","","56","","0.0","","3","","9","","","","100.98","","","","","","NA"
"-127.94","50.11","SOLANDER ISLAND (AUT)","1037553","2021-04-18 06:00","2021","04","18","06:00","13.4","","0.4","","41","","0.0","","13","","12","","","","100.95","","","","","","NA"
"-127.94","50.11","SOLANDER ISLAND (AUT)","1037553","2021-04-18 07:00","2021","04","18","07:00","14.4","","0.7","","39","","0.0","","13","","12","","","","100.95","","","","","","NA"
"-127.94","50.11","SOLANDER ISLAND (AUT)","1037553","2021-04-18 08:00","2021","04","18","08:00"
"-127.94","50.11","SOLANDER ISLAND (AUT)","1037553","2021-04-18 09:00","2021","04","18","09:00","14.2","","0.5","","39","","0.0","","12","","15","","","","100.97","","","","","","NA"
"-127.94","50.11","SOLANDER ISLAND (AUT)","1037553","2021-04-18 10:00","2021","04","18","10:00","12.2","","5.4","","63","","0.0","","16","","20","","","","100.99","","","","","","NA"
"-127.94","50.11","SOLANDER ISLAND (AUT)","1037553","2021-04-18 11:00","2021","04","18","11:00","12.3","","6.3","","67","","0.0","","15","","19","","","","101.02","","","","","","NA"
"-127.94","50.11","SOLANDER ISLAND (AUT)","1037553","2021-04-18 12:00","2021","04","18","12:00","13.3","","6.0","","61","","0.0","","14","","10","","","","101.05","","","","","","NA"
"-127.94","50.11","SOLANDER ISLAND (AUT)","1037553","2021-04-18 13:00","2021","04","18","13:00","16.7","","3.7","","42","","0.0","","29","","5","","","","101.05","","","","","","NA"
"-127.94","50.11","SOLANDER ISLAND (AUT)","1037553","2021-04-18 14:00","2021","04","18","14:00","14.3","","4.1","","50","","0.0","","34","","15","","","","101.04","","","","","","NA"
"-127.94","50.11","SOLANDER ISLAND (AUT)","1037553","2021-04-18 15:00","2021","04","18","15:00","15.7","","1.7","","39","","0.0","","35","","22","","","","100.99","","","","","","NA"
"-127.94","50.11","SOLANDER ISLAND (AUT)","1037553","2021-04-18 16:00","2021","04","18","16:00","15.4","","2.7","","42","","0.0","","35","","20","","","","100.94","","","","","","NA"
"-127.94","50.11","SOLANDER ISLAND (AUT)","1037553","2021-04-18 17:00","2021","04","18","17:00","14.4","","9.4","","72","","0.0","","31","","15","","","","100.94","","","","","","NA"
"-127.94","50.11","SOLANDER ISLAND (AUT)","1037553","2021-04-18 18:00","2021","04","18","18:00","13.8","","8.1","","68","","0.0","","34","","20","","","","100.90","","","","","","NA"
"-127.94","50.11","SOLANDER ISLAND (AUT)","1037553","2021-04-18 19:00","2021","04","18","19:00","12.4","","9.3","","81","","0.0","","30","","25","","","","100.89","","","","","","NA"
"-127.94","50.11","SOLANDER ISLAND (AUT)","1037553","2021-04-18 20:00","2021","04","18","20:00","11.6","","8.5","","81","","0.0","","35","","28","","","","100.91","","","","","","NA"
"-127.94","50.11","SOLANDER ISLAND (AUT)","1037553","2021-04-18 21:00","2021","04","18","21:00","11.5","","7.5","","76","","0.0","","36","","36","","","","100.88","","","","","","NA"
"-127.94","50.11","SOLANDER ISLAND (AUT)","1037553","2021-04-18 22:00","2021","04","18","22:00","12.2","","5.4","","63","","0.0","","34","","21","","","","100.93","","","","","","NA"
"-127.94","50.11","SOLANDER ISLAND (AUT)","1037553","2021-04-18 23:00","2021","04","18","23:00","11.1","","7.3","","78","","0.0","","31","","21","","","","100.94","","","","","","NA"
"-127.94","50.11","SOLANDER ISLAND (AUT)","1037553","2021-04-19 00:00","2021","04","19","00:00","9.8","","8.9","","94","","0.0","","31","","20","","","","100.96","","","","","","NA"
"-127.94","50.11","SOLANDER ISLAND (AUT)","1037553","2021-04-19 01:00","2021","04","19","01:00","10.6","","7.7","","83","","0.0","","35","","27","","","","101.00","","","","","","NA"
"-127.94","50.11","SOLANDER ISLAND (AUT)","1037553","2021-04-19 02:00","2021","04","19","02:00","10.3","","8.3","","88","","0.0","","36","","33","","","","100.98","","","","","","NA"
"-127.94","50.11","SOLANDER ISLAND (AUT)","1037553","2021-04-19 03:00","2021","04","19","03:00","10.4","","7.7","","83","","0.0","","36","","25","","","","101.00","","","","","","NA"
"-127.94","50.11","SOLANDER ISLAND (AUT)","1037553","2021-04-19 04:00","2021","04","19","04:00","9.9","","8.5","","91","","0.0","","32","","18","","","","101.02","","","","","","NA"
"-127.94","50.11","SOLANDER ISLAND (AUT)","1037553","2021-04-19 05:00","2021","04","19","05:00","9.2","","8.3","","94","","0.0","","30","","14","","","","101.07","","","","","","NA"
"-127.94","50.11","SOLANDER ISLAND (AUT)","1037553","2021-04-19 06:00","2021","04","19","06:00","8.6","","8.3","","98","","0.0","","29","","16","","","","101.12","","","","","","NA"
"-127.94","50.11","SOLANDER ISLAND (AUT)","1037553","2021-04-19 07:00","2021","04","19","07:00","8.0","","7.8","","99","","0.0","","30","","17","","","","101.18","","","","","","NA"
"-127.94","50.11","SOLANDER ISLAND (AUT)","1037553","2021-04-19 08:00","2021","04","19","08:00","8.6","","8.3","","98","","0.0","","31","","8","","","","101.22","","","","","","NA"
"-127.94","50.11","SOLANDER ISLAND (AUT)","1037553","2021-04-19 09:00","2021","04","19","09:00","11.0","","10.8","","98","","0.0","","35","","4","","","","101.28","","","","","","NA"
"-127.94","50.11","SOLANDER ISLAND (AUT)","1037553","2021-04-19 10:00","2021","04","19","10:00","10.9","","9.8","","93","","0.0","","14","","14","","","","101.29","","","","","","NA"
"-127.94","50.11","SOLANDER ISLAND (AUT)","1037553","2021-04-19 11:00","2021","04","19","11:00","11.5","","9.9","","90","","0.0","","10","","9","","","","101.34","","","","","","NA"
"-127.94","50.11","SOLANDER ISLAND (AUT)","1037553","2021-04-19 12:00","2021","04","19","12:00","9.1","","8.3","","95","","0.0","","35","","9","","","","101.38","","","","","","NA"
"-127.94","50.11","SOLANDER ISLAND (AUT)","1037553","2021-04-19 13:00","2021","04","19","13:00","9.1","","8.6","","97","","0.0","","36","","11","","","","101.40","","","","","","NA"
"-127.94","50.11","SOLANDER ISLAND (AUT)","1037553","2021-04-19 14:00","2021","04","19","14:00","8.7","","8.3","","97","","0.0","","34","","18","","","","101.39","","","","","","NA"
"-127.94","50.11","SOLANDER ISLAND (AUT)","1037553","2021-04-19 15:00","2021","04","19","15:00","9.1","","8.6","","97","","0.0","","36","","28","","","","101.36","","","","","","NA"
"-127.94","50.11","SOLANDER ISLAND (AUT)","1037553","2021-04-19 16:00","2021","04","19","16:00","8.5","","7.7","","95","","0.0","","32","","24","","","","101.38","","","","","","NA"
"-127.94","50.11","SOLANDER ISLAND (AUT)","1037553","2021-04-19 17:00","2021","04","19","17:00","8.5","","7.7","","95","","0.0","","34","","24","","","","101.43","","","","","","NA"
"-127.94","50.11","SOLANDER ISLAND (AUT)","1037553","2021-04-19 18:00","2021","04","19","18:00","8.1","","7.3","","95","","0.0","","36","","41","","","","101.37","","","","","","NA"
"-127.94","50.11","SOLANDER ISLAND (AUT)","1037553","2021-04-19 19:00","2021","04","19","19:00","8.1","","7.5","","96","","0.0","","36","","46","","","","101.33","","","","","","NA"
"-127.94","50.11","SOLANDER ISLAND (AUT)","1037553","2021-04-19 20:00","2021","04","19","20:00","8.1","","7.1","","94","","0.0","","34","","43","","","","101.35","","","","","","NA"
"-127.94","50.11","SOLANDER ISLAND (AUT)","1037553","2021-04-19 21:00","2021","04","19","21:00","7.9","","7.2","","96","","0.0","","35","","43","","","","101.38","","","","","","NA"
"-127.94","50.11","SOLANDER ISLAND (AUT)","1037553","2021-04-19 22:00","2021","04","19","22:00","8.0","","7.2","","95","","0.0","","35","","42","","","","101.36","","","","","","NA"
"-127.94","50.11","SOLANDER ISLAND (AUT)","1037553","2021-04-19 23:00","2021","04","19","23:00","7.6","","7.1","","97","","0.0","","32","","41","","","","101.39","","","","","","NA"
"-127.94","50.11","SOLANDER ISLAND (AUT)","1037553","2021-04-20 00:00","2021","04","20","00:00","7.5","","6.9","","96","","0.0","","33","","41","","","","101.39","","","","","","NA"
"-127.94","50.11","SOLANDER ISLAND (AUT)","1037553","2021-04-20 01:00","2021","04","20","01:00","7.2","","6.5","","95","","0.0","","35","","44","","","","101.35","","","","","","NA"
"-127.94","50.11","SOLANDER ISLAND (AUT)","1037553","2021-04-20 02:00","2021","04","20","02:00","7.2","","6.4","","95","","0.0","","34","","44","","","","101.30","","","","","","NA"
"-127.94","50.11","SOLANDER ISLAND (AUT)","1037553","2021-04-20 03:00","2021","04","20","03:00","7.0","","6.5","","97","","0.0","","34","","41","","","","101.31","","","","","","NA"
"-127.94","50.11","SOLANDER ISLAND (AUT)","1037553","2021-04-20 04:00","2021","04","20","04:00","6.8","","6.5","","98","","0.0","","34","","40","","","","101.31","","","","","","NA"
"-127.94","50.11","SOLANDER ISLAND (AUT)","1037553","2021-04-20 05:00","2021","04","20","05:00","6.6","","6.3","","98","","0.0","","34","","37","","","","101.27","","","","","","NA"
"-127.94","50.11","SOLANDER ISLAND (AUT)","1037553","2021-04-20 06:00","2021","04","20","06:00","6.9","","6.5","","97","","0.0","","33","","37","","","","101.26","","","","","","NA"
"-127.94","50.11","SOLANDER ISLAND (AUT)","1037553","2021-04-20 07:00","2021","04","20","07:00","6.5","","6.1","","98","","0.0","","36","","41","","","","101.28","","","","","","NA"
"-127.94","50.11","SOLANDER ISLAND (AUT)","1037553","2021-04-20 08:00","2021","04","20","08:00","6.4","","6.2","","98","","0.0","","35","","39","","","","101.32","","","","","","NA"
"-127.94","50.11","SOLANDER ISLAND (AUT)","1037553","2021-04-20 09:00","2021","04","20","09:00","7.3","","6.7","","96","","0.0","","36","","38","","","","101.32","","","","","","NA"
"-127.94","50.11","SOLANDER ISLAND (AUT)","1037553","2021-04-20 10:00","2021","04","20","10:00","7.8","","6.9","","94","","0.0","","35","","33","","","","101.37","","","","","","NA"
"-127.94","50.11","SOLANDER ISLAND (AUT)","1037553","2021-04-20 11:00","2021","04","20","11:00","8.8","","7.5","","92","","0.0","","33","","28","","","","101.41","","","","","","NA"
"-127.94","50.11","SOLANDER ISLAND (AUT)","1037553","2021-04-20 12:00","2021","04","20","12:00","8.9","","7.6","","91","","0.0","","33","","28","","","","101.40","","","","","","NA"
"-127.94","50.11","SOLANDER ISLAND (AUT)","1037553","2021-04-20 13:00","2021","04","20","13:00","8.7","","7.3","","91","","0.0","","32","","32","","","","101.37","","","","","","NA"
"-127.94","50.11","SOLANDER ISLAND (AUT)","1037553","2021-04-20 14:00","2021","04","20","14:00","9.1","","7.2","","88","","0.0","","33","","30","","","","101.40","","","","","","NA"
"-127.94","50.11","SOLANDER ISLAND (AUT)","1037553","2021-04-20 15:00","2021","04","20","15:00","8.3","","6.8","","90","","0.0","","34","","31","","","","101.36","","","","","","NA"
"-127.94","50.11","SOLANDER ISLAND (AUT)","1037553","2021-04-20 16:00","2021","04","20","16:00","8.7","","6.8","","88","","0.0","","33","","29","","","","101.33","","","","","","NA"
"-127.94","50.11","SOLANDER ISLAND (AUT)","1037553","2021-04-20 17:00","2021","04","20","17:00","8.1","","6.7","","91","","0.0","","33","","44","","","","101.25","","","","","","NA"
"-127.94","50.11","SOLANDER ISLAND (AUT)","1037553","2021-04-20 18:00","2021","04","20","18:00","8.9","","7.5","","91","","0.0","","1","","26","","","","101.28","","","","","","NA"
"-127.94","50.11","SOLANDER ISLAND (AUT)","1037553","2021-04-20 19:00","2021","04","20","19:00","8.6","","7.1","","90","","0.0","","31","","56","","","","101.11","","","","","","NA"
"-127.94","50.11","SOLANDER ISLAND (AUT)","1037553","2021-04-20 20:00","2021","04","20","20:00","8.4","","6.9","","90","","0.0","","32","","41","","","","101.19","","","","","","NA"
"-127.94","50.11","SOLANDER ISLAND (AUT)","1037553","2021-04-20 21:00","2021","04","20","21:00","8.5","","6.4","","87","","0.0","","30","","60","","","","101.10","","","","","","NA"
"-127.94","50.11","SOLANDER ISLAND (AUT)","1037553","2021-04-20 22:00","2021","04","20","22:00","8.4","","6.6","","88","","0.0","","31","","65","","","","101.08","","","","","","NA"
"-127.94","50.11","SOLANDER ISLAND (AUT)","1037553","2021-04-20 23:00","2021","04","20","23:00","8.4","","6.5","","88","","0.0","","30","","48","","","","101.13","","","","","","NA"
"-127.94","50.11","SOLANDER ISLAND (AUT)","1037553","2021-04-21 00:00","2021","04","21","00:00","8.5","","6.5","","87","","0.0","","32","","50","","","","101.10","","","","","","NA"
"-127.94","50.11","SOLANDER ISLAND (AUT)","1037553","2021-04-21 01:00","2021","04","21","01:00","8.3","","6.6","","89","","0.0","","32","","48","","","","101.05","","","","","","NA"
"-127.94","50.11","SOLANDER ISLAND (AUT)","1037553","2021-04-21 02:00","2021","04","21","02:00","8.3","","6.4","","88","","0.0","","30","","58","","","","101.03","","","","","","NA"
"-127.94","50.11","SOLANDER ISLAND (AUT)","1037553","2021-04-21 03:00","2021","04","21","03:00","8.2","","6.3","","88","","0.0","","31","","58","","","","101.05","","","","","","NA"
"-127.94","50.11","SOLANDER ISLAND (AUT)","1037553","2021-04-21 04:00","2021","04","21","04:00","7.9","","6.5","","91","","0.0","","31","","56","","","","101.01","","","","","","NA"
"-127.94","50.11","SOLANDER ISLAND (AUT)","1037553","2021-04-21 05:00","2021","04","21","05:00","7.6","","6.6","","93","","0.0","","32","","52","","","","100.97","","","","","","NA"
"-127.94","50.11","SOLANDER ISLAND (AUT)","1037553","2021-04-21 06:00","2021","04","21","06:00","7.6","","6.5","","93","","0.0","","31","","44","","","","100.99","","","","","","NA"
"-127.94","50.11","SOLANDER ISLAND (AUT)","1037553","2021-04-21 07:00","2021","04","21","07:00","7.4","","6.4","","94","","0.0","","31","","66","","","","100.92","","","","","","NA"
"-127.94","50.11","SOLANDER ISLAND (AUT)","1037553","2021-04-21 08:00","2021","04","21","08:00","7.3","","6.4","","94","","0.0","","31","","64","","","","100.95","","","","","","NA"
"-127.94","50.11","SOLANDER ISLAND (AUT)","1037553","2021-04-21 09:00","2021","04","21","09:00","7.3","","6.3","","93","","0.0","","31","","58","","","","100.98","","","","","","NA"
"-127.94","50.11","SOLANDER ISLAND (AUT)","1037553","2021-04-21 10:00","2021","04","21","10:00","7.5","","6.3","","92","","0.0","","31","","55","","","","100.94","","","","","","NA"
"-127.94","50.11","SOLANDER ISLAND (AUT)","1037553","2021-04-21 11:00","2021","04","21","11:00","7.8","","6.4","","91","","0.0","","30","","58","","","","100.91","","","","","","NA"
"-127.94","50.11","SOLANDER ISLAND (AUT)","1037553","2021-04-21 12:00","2021","04","21","12:00","7.9","","6.3","","90","","0.0","","30","","68","","","","100.87","","","","","","NA"
"-127.94","50.11","SOLANDER ISLAND (AUT)","1037553","2021-04-21 13:00","2021","04","21","13:00","7.9","","6.3","","90","","0.0","","30","","74","","","","100.84","","","","","","NA"
"-127.94","50.11","SOLANDER ISLAND (AUT)","1037553","2021-04-21 14:00","2021","04","21","14:00","8.0","","6.3","","89","","0.0","","30","","70","","","","100.83","","","","","","NA"
"-127.94","50.11","SOLANDER ISLAND (AUT)","1037553","2021-04-21 15:00","2021","04","21","15:00","8.1","","6.3","","89","","0.0","","30","","68","","","","100.78","","","","","","NA"
"-127.94","50.11","SOLANDER ISLAND (AUT)","1037553","2021-04-21 16:00","2021","04","21","16:00","8.3","","6.6","","89","","0.0","","31","","66","","","","100.80","","","","","","NA"
"-127.94","50.11","SOLANDER ISLAND (AUT)","1037553","2021-04-21 17:00","2021","04","21","17:00","8.6","","5.9","","83","","0.0","","31","","65","","","","100.73","","","","","","NA"
"-127.94","50.11","SOLANDER ISLAND (AUT)","1037553","2021-04-21 18:00","2021","04","21","18:00","8.7","","5.8","","82","","0.0","","31","","67","","","","100.67","","","","","","NA"
"-127.94","50.11","SOLANDER ISLAND (AUT)","1037553","2021-04-21 19:00","2021","04","21","19:00","8.4","","5.8","","84","","0.0","","31","","61","","","","100.63","","","","","","NA"
"-127.94","50.11","SOLANDER ISLAND (AUT)","1037553","2021-04-21 20:00","2021","04","21","20:00","8.4","","4.7","","77","","0.0","","31","","69","","","","100.61","","","","","","NA"
"-127.94","50.11","SOLANDER ISLAND (AUT)","1037553","2021-04-21 21:00","2021","04","21","21:00","8.2","","5.1","","81","","0.0","","31","","60","","","","100.67","","","","","","NA"
"-127.94","50.11","SOLANDER ISLAND (AUT)","1037553","2021-04-21 22:00","2021","04","21","22:00","8.1","","5.3","","82","","0.0","","31","","59","","","","100.66","","","","","","NA"
"-127.94","50.11","SOLANDER ISLAND (AUT)","1037553","2021-04-21 23:00","2021","04","21","23:00","7.9","","5.8","","87","","0.0","","32","","57","","","","100.66","","","","","","NA"
"-127.94","50.11","SOLANDER ISLAND (AUT)","1037553","2021-04-22 00:00","2021","04","22","00:00","7.6","","6.2","","91","","0.0","","31","","57","","","","100.56","","","","","","NA"
"-127.94","50.11","SOLANDER ISLAND (AUT)","1037553","2021-04-22 01:00","2021","04","22","01:00","7.8","","5.4","","85","","0.0","","31","","53","","","","100.54","","","","","","NA"
"-127.94","50.11","SOLANDER ISLAND (AUT)","1037553","2021-04-22 02:00","2021","04","22","02:00","7.6","","4.8","","83","","0.0","","34","","50","","","","100.53","","","","","","NA"
"-127.94","50.11","SOLANDER ISLAND (AUT)","1037553","2021-04-22 03:00","2021","04","22","03:00","7.5","","5.2","","85","","0.0","","32","","47","","","","100.52","","","","","","NA"
"-127.94","50.11","SOLANDER ISLAND (AUT)","1037553","2021-04-22 04:00","2021","04","22","04:00","7.3","","5.3","","87","","0.0","","33","","41","","","","100.50","","","","","","NA"
"-127.94","50.11","SOLANDER ISLAND (AUT)","1037553","2021-04-22 05:00","2021","04","22","05:00","7.4","","4.9","","84","","0.0","","34","","45","","","","100.44","","","","","","NA"
"-127.94","50.11","SOLANDER ISLAND (AUT)","1037553","2021-04-22 06:00","2021","04","22","06:00","7.5","","4.9","","84","","0.0","","33","","40","","","","100.46","","","","","","NA"
"-127.94","50.11","SOLANDER ISLAND (AUT)","1037553","2021-04-22 07:00","2021","04","22","07:00","7.9","","5.4","","85","","0.0","","33","","41","","","","100.47","","","","","","NA"
"-127.94","50.11","SOLANDER ISLAND (AUT)","1037553","2021-04-22 08:00","2021","04","22","08:00","7.9","","5.2","","83","","0.0","","32","","38","","","","100.46","","","","","","NA"
"-127.94","50.11","SOLANDER ISLAND (AUT)","1037553","2021-04-22 09:00","2021","04","22","09:00","8.0","","6.0","","87","","0.0","","30","","33","","","","100.48","","","","","","NA"
"-127.94","50.11","SOLANDER ISLAND (AUT)","1037553","2021-04-22 10:00","2021","04","22","10:00","7.9","","6.5","","91","","0.0","","30","","40","","","","100.47","","","","","","NA"
"-127.94","50.11","SOLANDER ISLAND (AUT)","1037553","2021-04-22 11:00","2021","04","22","11:00","8.5","","7.0","","90","","0.0","","32","","34","","","","100.52","","","","","","NA"
"-127.94","50.11","SOLANDER ISLAND (AUT)","1037553","2021-04-22 12:00","2021","04","22","12:00","9.6","","7.9","","89","","0.0","","35","","20","","","","100.53","","","","","","NA"
"-127.94","50.11","SOLANDER ISLAND (AUT)","1037553","2021-04-22 13:00","2021","04","22","13:00","10.6","","8.5","","87","","0.0","","33","","13","","","","100.51","","","","","","NA"
"-127.94","50.11","SOLANDER ISLAND (AUT)","1037553","2021-04-22 14:00","2021","04","22","14:00","9.9","","7.5","","85","","0.0","","34","","20","","","","100.49","","","","","","NA"
"-127.94","50.11","SOLANDER ISLAND (AUT)","1037553","2021-04-22 15:00","2021","04","22","15:00","9.5","","7.3","","86","","0.0","","36","","25","","","","100.42","","","","","","NA"
"-127.94","50.11","SOLANDER ISLAND (AUT)","1037553","2021-04-22 16:00","2021","04","22","16:00","9.5","","6.6","","82","","0.0","","34","","25","","","","100.34","","","","","","NA"
"-127.94","50.11","SOLANDER ISLAND (AUT)","1037553","2021-04-22 17:00","2021","04","22","17:00","9.0","","6.3","","83","","0.0","","34","","26","","","","100.31","","","","","","NA"
"-127.94","50.11","SOLANDER ISLAND (AUT)","1037553","2021-04-22 18:00","2021","04","22","18:00","9.2","","6.2","","81","","0.0","","2","","21","","","","100.29","","","","","","NA"
"-127.94","50.11","SOLANDER ISLAND (AUT)","1037553","2021-04-22 19:00","2021","04","22","19:00","9.0","","5.5","","78","","0.0","","2","","19","","","","100.27","","","","","","NA"
"-127.94","50.11","SOLANDER ISLAND (AUT)","1037553","2021-04-22 20:00","2021","04","22","20:00","9.2","","5.7","","79","","0.0","","36","","31","","","","100.21","","","","","","NA"
"-127.94","50.11","SOLANDER ISLAND (AUT)","1037553","2021-04-22 21:00","2021","04","22","21:00","9.5","","5.4","","75","","0.0","","32","","34","","","","100.18","","","","","","NA"
"-127.94","50.11","SOLANDER ISLAND (AUT)","1037553","2021-04-22 22:00","2021","04","22","22:00","9.2","","4.6","","73","","0.0","","33","","38","","","","100.17","","","","","","NA"
"-127.94","50.11","SOLANDER ISLAND (AUT)","1037553","2021-04-22 23:00","2021","04","22","23:00","8.2","","6.3","","88","","0.0","","33","","27","","","","100.18","","","","","","NA"
"-127.94","50.11","SOLANDER ISLAND (AUT)","1037553","2021-04-23 00:00","2021","04","23","00:00","8.0","","6.3","","89","","0.0","","34","","21","","","","100.18","","","","","","NA"
"-127.94","50.11","SOLANDER ISLAND (AUT)","1037553","2021-04-23 01:00","2021","04","23","01:00","7.8","","6.7","","93","","0.0","","36","","25","","","","100.20","","","","","","NA"
"-127.94","50.11","SOLANDER ISLAND (AUT)","1037553","2021-04-23 02:00","2021","04","23","02:00","7.6","","6.5","","92","","0.0","","36","","16","","","","100.23","","","","","","NA"
"-127.94","50.11","SOLANDER ISLAND (AUT)","1037553","2021-04-23 03:00","2021","04","23","03:00","7.7","","6.5","","92","","0.0","","34","","8","","","","100.20","","","","","","NA"
"-127.94","50.11","SOLANDER ISLAND (AUT)","1037553","2021-04-23 04:00","2021","04","23","04:00","7.9","","6.5","","91","","0.0","","22","","4","","","","100.15","","","","","","NA"
"-127.94","50.11","SOLANDER ISLAND (AUT)","1037553","2021-04-23 05:00","2021","04","23","05:00","8.2","","6.8","","91","","0.0","","10","","19","","","","100.12","","","","","","NA"
"-127.94","50.11","SOLANDER ISLAND (AUT)","1037553","2021-04-23 06:00","2021","04","23","06:00","8.6","","7.3","","92","","0.0","","10","","29","","","","100.12","","","","","","NA"
"-127.94","50.11","SOLANDER ISLAND (AUT)","1037553","2021-04-23 07:00","2021","04","23","07:00","8.7","","7.3","","91","","0.0","","9","","30","","","","100.15","","","","","","NA"
"-127.94","50.11","SOLANDER ISLAND (AUT)","1037553","2021-04-23 08:00","2021","04","23","08:00","9.0","","7.3","","89","","0.0","","9","","30","","","","100.15","","","","","","NA"
"-127.94","50.11","SOLANDER ISLAND (AUT)","1037553","2021-04-23 09:00","2021","04","23","09:00","9.0","","7.0","","87","","0.0","","10","","30","","","","100.14","","","","","","NA"
"-127.94","50.11","SOLANDER ISLAND (AUT)","1037553","2021-04-23 10:00","2021","04","23","10:00","9.2","","6.9","","85","","0.0","","10","","30","","","","100.14","","","","","","NA"
"-127.94","50.11","SOLANDER ISLAND (AUT)","1037553","2021-04-23 11:00","2021","04","23","11:00","9.0","","6.9","","87","","0.0","","10","","30","","","","100.15","","","","","","NA"
"-127.94","50.11","SOLANDER ISLAND (AUT)","1037553","2021-04-23 12:00","2021","04","23","12:00","8.9","","7.2","","89","","0.0","","10","","27","","","","100.14","","","","","","NA"
"-127.94","50.11","SOLANDER ISLAND (AUT)","1037553","2021-04-23 13:00","2021","04","23","13:00","9.1","","6.7","","85","","0.0","","10","","45","","","","100.01","","","","","","NA"
"-127.94","50.11","SOLANDER ISLAND (AUT)","1037553","2021-04-23 14:00","2021","04","23","14:00","8.7","","7.3","","91","","0.0","","10","","43","","","","100.02","","","","","","NA"
"-127.94","50.11","SOLANDER ISLAND (AUT)","1037553","2021-04-23 15:00","2021","04","23","15:00","8.2","","7.2","","94","","0.0","","10","","38","","","","99.99","","","","","","NA"
"-127.94","50.11","SOLANDER ISLAND (AUT)","1037553","2021-04-23 16:00","2021","04","23","16:00","8.1","","7.4","","96","","0.0","","11","","38","","","","99.95","","","","","","NA"
"-127.94","50.11","SOLANDER ISLAND (AUT)","1037553","2021-04-23 17:00","2021","04","23","17:00","6.8","","6.4","","97","","1.2","","24","","20","","","","100.00","","","","","","NA"
"-127.94","50.11","SOLANDER ISLAND (AUT)","1037553","2021-04-23 18:00","2021","04","23","18:00","6.6","","6.1","","97","","0.8","","20","","19","","","","100.01","","","","","","NA"
"-127.94","50.11","SOLANDER ISLAND (AUT)","1037553","2021-04-23 19:00","2021","04","23","19:00","6.2","","5.3","","94","","0.4","","16","","16","","","","99.98","","","","","","NA"
"-127.94","50.11","SOLANDER ISLAND (AUT)","1037553","2021-04-23 20:00","2021","04","23","20:00","6.0","","4.6","","91","","0.8","","16","","24","","","","99.96","","","","","","NA"
"-127.94","50.11","SOLANDER ISLAND (AUT)","1037553","2021-04-23 21:00","2021","04","23","21:00","6.0","","5.0","","93","","0.6","","14","","27","","","","99.95","","","","","","NA"
"-127.94","50.11","SOLANDER ISLAND (AUT)","1037553","2021-04-23 22:00","2021","04","23","22:00","6.0","","4.9","","93","","0.6","","13","","20","","","","99.92","","","","","","NA"
"-127.94","50.11","SOLANDER ISLAND (AUT)","1037553","2021-04-23 23:00","2021","04","23","23:00","6.2","","5.3","","94","","0.8","","11","","25","","","","99.89","","","","","","NA"
"-127.94","50.11","SOLANDER ISLAND (AUT)","1037553","2021-04-24 00:00","2021","04","24","00:00","6.3","","5.5","","94","","1.0","","12","","24","","","","99.86","","","","","","NA"
"-127.94","50.11","SOLANDER ISLAND (AUT)","1037553","2021-04-24 01:00","2021","04","24","01:00","6.0","","5.3","","95","","0.4","","10","","27","","","","99.80","","","","","","NA"
"-127.94","50.11","SOLANDER ISLAND (AUT)","1037553","2021-04-24 02:00","2021","04","24","02:00","6.1","","4.9","","92","","0.0","","10","","29","","","","99.75","","","","","","NA"
"-127.94","50.11","SOLANDER ISLAND (AUT)","1037553","2021-04-24 03:00","2021","04","24","03:00","6.1","","5.4","","95","","0.0","","10","","28","","","","99.68","","","","","","NA"
"-127.94","50.11","SOLANDER ISLAND (AUT)","1037553","2021-04-24 04:00","2021","04","24","04:00","6.3","","5.7","","96","","0.2","","10","","29","","","","99.64","","","","","","NA"
"-127.94","50.11","SOLANDER ISLAND (AUT)","1037553","2021-04-24 05:00","2021","04","24","05:00","6.2","","5.6","","96","","0.0","","10","","29","","","","99.60","","","","","","NA"
"-127.94","50.11","SOLANDER ISLAND (AUT)","1037553","2021-04-24 06:00","2021","04","24","06:00","6.2","","5.9","","98","","0.0","","10","","33","","","","99.56","","","","","","NA"
"-127.94","50.11","SOLANDER ISLAND (AUT)","1037553","2021-04-24 07:00","2021","04","24","07:00","6.3","","6.0","","97","","0.0","","10","","30","","","","99.56","","","","","","NA"
"-127.94","50.11","SOLANDER ISLAND (AUT)","1037553","2021-04-24 08:00","2021","04","24","08:00","6.8","","6.0","","94","","0.0","","10","","28","","","","99.57","","","","","","NA"
"-127.94","50.11","SOLANDER ISLAND (AUT)","1037553","2021-04-24 09:00","2021","04","24","09:00","7.2","","6.0","","92","","0.0","","10","","29","","","","99.55","","","","","","NA"
"-127.94","50.11","SOLANDER ISLAND (AUT)","1037553","2021-04-24 10:00","2021","04","24","10:00","7.4","","6.1","","91","","0.0","","10","","31","","","","99.55","","","","","","NA"
"-127.94","50.11","SOLANDER ISLAND (AUT)","1037553","2021-04-24 11:00","2021","04","24","11:00","7.7","","6.5","","92","","0.0","","10","","31","","","","99.56","","","","","","NA"
"-127.94","50.11","SOLANDER ISLAND (AUT)","1037553","2021-04-24 12:00","2021","04","24","12:00","8.2","","6.8","","91","","0.0","","10","","30","","","","99.54","","","","","","NA"
"-127.94","50.11","SOLANDER ISLAND (AUT)","1037553","2021-04-24 13:00","2021","04","24","13:00","8.0","","6.8","","93","","0.0","","10","","27","","","","99.53","","","","","","NA"
"-127.94","50.11","SOLANDER ISLAND (AUT)","1037553","2021-04-24 14:00","2021","04","24","14:00","8.2","","7.0","","92","","0.0","","10","","26","","","","99.53","","","","","","NA"
"-127.94","50.11","SOLANDER ISLAND (AUT)","1037553","2021-04-24 15:00","2021","04","24","15:00","8.3","","7.1","","92","","0.0","","11","","22","","","","99.50","","","","","","NA"
"-127.94","50.11","SOLANDER ISLAND (AUT)","1037553","2021-04-24 16:00","2021","04","24","16:00","8.3","","6.9","","91","","0.0","","11","","23","","","","99.50","","","","","","NA"
"-127.94","50.11","SOLANDER ISLAND (AUT)","1037553","2021-04-24 17:00","2021","04","24","17:00","8.3","","6.8","","90","","0.0","","12","","16","","","","99.49","","","","","","NA"
"-127.94","50.11","SOLANDER ISLAND (AUT)","1037553","2021-04-24 18:00","2021","04","24","18:00","8.1","","6.5","","90","","0.0","","13","","13","","","","99.50","","","","","","NA"
"-127.94","50.11","SOLANDER ISLAND (AUT)","1037553","2021-04-24 19:00","2021","04","24","19:00","7.8","","6.4","","91","","0.0","","13","","16","","","","99.47","","","","","","NA"
"-127.94","50.11","SOLANDER ISLAND (AUT)","1037553","2021-04-24 20:00","2021","04","24","20:00","7.7","","6.3","","91","","0.0","","11","","14","","","","99.49","","","","","","NA"
"-127.94","50.11","SOLANDER ISLAND (AUT)","1037553","2021-04-24 21:00","2021","04","24","21:00","7.6","","6.6","","94","","0.0","","10","","16","","","","99.52","","","","","","NA"
"-127.94","50.11","SOLANDER ISLAND (AUT)","1037553","2021-04-24 22:00","2021","04","24","22:00","7.5","","6.5","","94","","0.0","","10","","9","","","","99.54","","","","","","NA"
"-127.94","50.11","SOLANDER ISLAND (AUT)","1037553","2021-04-24 23:00","2021","04","24","23:00","7.5","","6.0","","90","","0.0","","10","","7","","","","99.53","","","","","","NA"
"-127.94","50.11","SOLANDER ISLAND (AUT)","1037553","2021-04-25 00:00","2021","04","25","00:00","7.6","","6.3","","92","","0.0","","13","","5","","","","99.53","","","","","","NA"
"-127.94","50.11","SOLANDER ISLAND (AUT)","1037553","2021-04-25 01:00","2021","04","25","01:00","7.6","","6.3","","92","","0.0","","7","","2","","","","99.52","","","","","","NA"
"-127.94","50.11","SOLANDER ISLAND (AUT)","1037553","2021-04-25 02:00","2021","04","25","02:00","7.6","","7.0","","96","","0.0","","35","","12","","","","99.50","","","","","","NA"
"-127.94","50.11","SOLANDER ISLAND (AUT)","1037553","2021-04-25 03:00","2021","04","25","03:00","7.6","","7.1","","97","","0.0","","31","","9","","","","99.47","","","","","","NA"
"-127.94","50.11","SOLANDER ISLAND (AUT)","1037553","2021-04-25 04:00","2021","04","25","04:00","7.5","","7.0","","97","","0.0","","31","","10","","","","99.47","","","","","","NA"
"-127.94","50.11","SOLANDER ISLAND (AUT)","1037553","2021-04-25 05:00","2021","04","25","05:00","7.5","","7.0","","97","","0.2","","29","","9","","","","99.46","","","","","","NA"
"-127.94","50.11","SOLANDER ISLAND (AUT)","1037553","2021-04-25 06:00","2021","04","25","06:00","7.5","","7.1","","97","","0.2","","32","","10","","","","99.46","","","","","","NA"
"-127.94","50.11","SOLANDER ISLAND (AUT)","1037553","2021-04-25 07:00","2021","04","25","07:00","7.5","","7.1","","97","","0.2","","31","","8","","","","99.48","","","","","","NA"
"-127.94","50.11","SOLANDER ISLAND (AUT)","1037553","2021-04-25 08:00","2021","04","25","08:00"
"-127.94","50.11","SOLANDER ISLAND (AUT)","1037553","2021-04-25 09:00","2021","04","25","09:00","7.9","","7.4","","97","","0.2","","30","","10","","","","99.50","","","","","","NA"
"-127.94","50.11","SOLANDER ISLAND (AUT)","1037553","2021-04-25 10:00","2021","04","25","10:00","8.3","","7.8","","97","","0.0","","31","","10","","","","99.52","","","","","","NA"
"-127.94","50.11","SOLANDER ISLAND (AUT)","1037553","2021-04-25 11:00","2021","04","25","11:00","8.2","","7.5","","95","","0.2","","30","","13","","","","99.55","","","","","","NA"
"-127.94","50.11","SOLANDER ISLAND (AUT)","1037553","2021-04-25 12:00","2021","04","25","12:00","9.0","","7.6","","91","","0.0","","31","","10","","","","99.54","","","","","","NA"
"-127.94","50.11","SOLANDER ISLAND (AUT)","1037553","2021-04-25 13:00","2021","04","25","13:00","9.4","","7.9","","90","","0.0","","31","","9","","","","99.54","","","","","","NA"
"-127.94","50.11","SOLANDER ISLAND (AUT)","1037553","2021-04-25 14:00","2021","04","25","14:00","10.2","","8.7","","90","","0.0","","30","","8","","","","99.55","","","","","","NA"
"-127.94","50.11","SOLANDER ISLAND (AUT)","1037553","2021-04-25 15:00","2021","04","25","15:00","9.1","","7.6","","91","","0.0","","29","","9","","","","99.55","","","","","","NA"
"-127.94","50.11","SOLANDER ISLAND (AUT)","1037553","2021-04-25 16:00","2021","04","25","16:00","9.1","","7.8","","92","","0.0","","29","","8","","","","99.56","","","","","","NA"
"-127.94","50.11","SOLANDER ISLAND (AUT)","1037553","2021-04-25 17:00","2021","04","25","17:00","8.5","","7.2","","91","","0.0","","29","","9","","","","99.57","","","","","","NA"
"-127.94","50.11","SOLANDER ISLAND (AUT)","1037553","2021-04-25 18:00","2021","04","25","18:00","8.6","","6.9","","89","","0.0","","30","","8","","","","99.58","","","","","","NA"
"-127.94","50.11","SOLANDER ISLAND (AUT)","1037553","2021-04-25 19:00","2021","04","25","19:00","8.2","","6.9","","92","","0.0","","30","","9","","","","99.61","","","","","","NA"
"-127.94","50.11","SOLANDER ISLAND (AUT)","1037553","2021-04-25 20:00","2021","04","25","20:00","8.0","","6.6","","91","","0.0","","30","","8","","","","99.64","","","","","","NA"
"-127.94","50.11","SOLANDER ISLAND (AUT)","1037553","2021-04-25 21:00","2021","04","25","21:00","7.9","","6.8","","93","","0.0","","31","","7","","","","99.67","","","","","","NA"
"-127.94","50.11","SOLANDER ISLAND (AUT)","1037553","2021-04-25 22:00","2021","04","25","22:00","7.6","","6.6","","94","","0.0","","1","","7","","","","99.70","","","","","","NA"
"-127.94","50.11","SOLANDER ISLAND (AUT)","1037553","2021-04-25 23:00","2021","04","25","23:00","7.7","","6.5","","92","","0.0","","36","","5","","","","99.72","","","","","","NA"
"-127.94","50.11","SOLANDER ISLAND (AUT)","1037553","2021-04-26 00:00","2021","04","26","00:00","7.8","","6.6","","92","","0.0","","0","","1","","","","99.75","","","","","","NA"
"-127.94","50.11","SOLANDER ISLAND (AUT)","1037553","2021-04-26 01:00","2021","04","26","01:00","7.8","","6.6","","92","","0.0","","29","","1","","","","99.76","","","","","","NA"
"-127.94","50.11","SOLANDER ISLAND (AUT)","1037553","2021-04-26 02:00","2021","04","26","02:00","8.0","","6.8","","93","","0.0","","","","0","","","","99.78","","","","","","NA"
"-127.94","50.11","SOLANDER ISLAND (AUT)","1037553","2021-04-26 03:00","2021","04","26","03:00","7.9","","6.7","","92","","0.0","","15","","6","","","","99.80","","","","","","NA"
"-127.94","50.11","SOLANDER ISLAND (AUT)","1037553","2021-04-26 04:00","2021","04","26","04:00","8.1","","6.0","","86","","0.0","","15","","4","","","","99.89","","","","","","NA"
"-127.94","50.11","SOLANDER ISLAND (AUT)","1037553","2021-04-26 05:00","2021","04","26","05:00","8.1","","5.7","","85","","0.0","","","","0","","","","99.90","","","","","","NA"
"-127.94","50.11","SOLANDER ISLAND (AUT)","1037553","2021-04-26 06:00","2021","04","26","06:00","8.1","","5.9","","86","","0.0","","34","","3","","","","99.94","","","","","","NA"
"-127.94","50.11","SOLANDER ISLAND (AUT)","1037553","2021-04-26 07:00","2021","04","26","07:00","8.6","","6.9","","89","","0.0","","35","","7","","","","100.00","","","","","","NA"
"-127.94","50.11","SOLANDER ISLAND (AUT)","1037553","2021-04-26 08:00","2021","04","26","08:00","9.4","","8.1","","91","","0.0","","34","","7","","","","100.07","","","","","","NA"
"-127.94","50.11","SOLANDER ISLAND (AUT)","1037553","2021-04-26 09:00","2021","04","26","09:00","10.1","","7.6","","84","","0.0","","33","","7","","","","100.13","","","","","","NA"
"-127.94","50.11","SOLANDER ISLAND (AUT)","1037553","2021-04-26 10:00","2021","04","26","10:00","9.9","","7.9","","87","","0.0","","31","","8","","","","100.18","","","","","","NA"
"-127.94","50.11","SOLANDER ISLAND (AUT)","1037553","2021-04-26 11:00","2021","04","26","11:00","10.0","","8.0","","87","","0.0","","29","","9","","","","100.21","","","","","","NA"
"-127.94","50.11","SOLANDER ISLAND (AUT)","1037553","2021-04-26 12:00","2021","04","26","12:00","11.5","","8.6","","82","","0.0","","24","","5","","","","100.23","","","","","","NA"
"-127.94","50.11","SOLANDER ISLAND (AUT)","1037553","2021-04-26 13:00","2021","04","26","13:00","13.3","","9.3","","76","","0.2","","18","","9","","","","100.28","","","","","","NA"
"-127.94","50.11","SOLANDER ISLAND (AUT)","1037553","2021-04-26 14:00","2021","04","26","14:00","11.9","","8.1","","77","","0.0","","17","","14","","","","100.30","","","","","","NA"
"-127.94","50.11","SOLANDER ISLAND (AUT)","1037553","2021-04-26 15:00","2021","04","26","15:00","11.1","","7.6","","79","","0.0","","19","","16","","","","100.39","","","","","","NA"
"-127.94","50.11","SOLANDER ISLAND (AUT)","1037553","2021-04-26 16:00","2021","04","26","16:00","12.8","","9.0","","78","","0.0","","25","","5","","","","100.38","","","","","","NA"
"-127.94","50.11","SOLANDER ISLAND (AUT)","1037553","2021-04-26 17:00","2021","04","26","17:00","12.2","","7.8","","74","","0.0","","25","","6","","","","100.42","","","","","","NA"
"-127.94","50.11","SOLANDER ISLAND (AUT)","1037553","2021-04-26 18:00","2021","04","26","18:00","13.7","","9.7","","77","","0.0","","19","","4","","","","100.43","","","","","","NA"
"-127.94","50.11","SOLANDER ISLAND (AUT)","1037553","2021-04-26 19:00","2021","04","26","19:00","9.6","","6.6","","82","","0.0","","17","","4","","","","100.47","","","","","","NA"
"-127.94","50.11","SOLANDER ISLAND (AUT)","1037553","2021-04-26 20:00","2021","04","26","20:00","9.3","","6.9","","85","","0.0","","16","","9","","","","100.50","","","","","","NA"
"-127.94","50.11","SOLANDER ISLAND (AUT)","1037553","2021-04-26 21:00","2021","04","26","21:00","8.9","","7.0","","88","","0.0","","13","","10","","","","100.50","","","","","","NA"
"-127.94","50.11","SOLANDER ISLAND (AUT)","1037553","2021-04-26 22:00","2021","04","26","22:00","8.6","","7.0","","90","","0.0","","11","","14","","","","100.50","","","","","","NA"
"-127.94","50.11","SOLANDER ISLAND (AUT)","1037553","2021-04-26 23:00","2021","04","26","23:00","8.6","","7.1","","90","","0.0","","10","","22","","","","100.46","","","","","","NA"
"-127.94","50.11","SOLANDER ISLAND (AUT)","1037553","2021-04-27 00:00","2021","04","27","00:00","8.6","","7.3","","92","","0.0","","10","","24","","","","100.51","","","","","","NA"
"-127.94","50.11","SOLANDER ISLAND (AUT)","1037553","2021-04-27 01:00","2021","04","27","01:00","8.6","","7.2","","91","","0.0","","10","","26","","","","100.54","","","","","","NA"
"-127.94","50.11","SOLANDER ISLAND (AUT)","1037553","2021-04-27 02:00","2021","04","27","02:00","8.4","","7.2","","92","","0.0","","11","","22","","","","100.60","","","","","","NA"
"-127.94","50.11","SOLANDER ISLAND (AUT)","1037553","2021-04-27 03:00","2021","04","27","03:00","8.5","","7.2","","92","","0.0","","10","","25","","","","100.60","","","","","","NA"
"-127.94","50.11","SOLANDER ISLAND (AUT)","1037553","2021-04-27 04:00","2021","04","27","04:00","8.7","","7.5","","92","","0.0","","10","","33","","","","100.56","","","","","","NA"
"-127.94","50.11","SOLANDER ISLAND (AUT)","1037553","2021-04-27 05:00","2021","04","27","05:00","8.7","","7.5","","92","","0.0","","11","","39","","","","100.49","","","","","","NA"
"-127.94","50.11","SOLANDER ISLAND (AUT)","1037553","2021-04-27 06:00","2021","04","27","06:00","8.9","","7.5","","91","","0.0","","14","","39","","","","100.56","","","","","","NA"
"-127.94","50.11","SOLANDER ISLAND (AUT)","1037553","2021-04-27 07:00","2021","04","27","07:00","9.0","","7.4","","90","","0.0","","12","","27","","","","100.56","","","","","","NA"
"-127.94","50.11","SOLANDER ISLAND (AUT)","1037553","2021-04-27 08:00","2021","04","27","08:00","8.3","","7.3","","93","","0.0","","13","","34","","","","100.53","","","","","","NA"
"-127.94","50.11","SOLANDER ISLAND (AUT)","1037553","2021-04-27 09:00","2021","04","27","09:00","8.6","","7.4","","92","","0.0","","12","","33","","","","100.60","","","","","","NA"
"-127.94","50.11","SOLANDER ISLAND (AUT)","1037553","2021-04-27 10:00","2021","04","27","10:00","8.9","","7.7","","92","","0.0","","12","","34","","","","100.65","","","","","","NA"
"-127.94","50.11","SOLANDER ISLAND (AUT)","1037553","2021-04-27 11:00","2021","04","27","11:00","9.0","","7.8","","92","","0.0","","12","","30","","","","100.69","","","","","","NA"
"-127.94","50.11","SOLANDER ISLAND (AUT)","1037553","2021-04-27 12:00","2021","04","27","12:00","9.0","","7.6","","91","","0.0","","13","","39","","","","100.74","","","","","","NA"
"-127.94","50.11","SOLANDER ISLAND (AUT)","1037553","2021-04-27 13:00","2021","04","27","13:00","8.8","","7.8","","94","","0.0","","14","","46","","","","100.75","","","","","","NA"
"-127.94","50.11","SOLANDER ISLAND (AUT)","1037553","2021-04-27 14:00","2021","04","27","14:00","8.7","","8.0","","95","","0.6","","13","","39","","","","100.71","","","","","","NA"
"-127.94","50.11","SOLANDER ISLAND (AUT)","1037553","2021-04-27 15:00","2021","04","27","15:00","8.6","","7.6","","94","","0.4","","12","","33","","","","100.75","","","","","","NA"
"-127.94","50.11","SOLANDER ISLAND (AUT)","1037553","2021-04-27 16:00","2021","04","27","16:00","8.7","","8.1","","96","","0.6","","11","","44","","","","100.74","","","","","","NA"
"-127.94","50.11","SOLANDER ISLAND (AUT)","1037553","2021-04-27 17:00","2021","04","27","17:00","8.8","","8.3","","97","","0.2","","13","","44","","","","100.80","","","","","","NA"
"-127.94","50.11","SOLANDER ISLAND (AUT)","1037553","2021-04-27 18:00","2021","04","27","18:00","8.7","","7.9","","95","","0.2","","12","","35","","","","100.78","","","","","","NA"
"-127.94","50.11","SOLANDER ISLAND (AUT)","1037553","2021-04-27 19:00","2021","04","27","19:00","8.5","","7.7","","94","","0.8","","12","","44","","","","100.72","","","","","","NA"
"-127.94","50.11","SOLANDER ISLAND (AUT)","1037553","2021-04-27 20:00","2021","04","27","20:00","8.5","","7.7","","94","","0.2","","11","","52","","","","100.69","","","","","","NA"
"-127.94","50.11","SOLANDER ISLAND (AUT)","1037553","2021-04-27 21:00","2021","04","27","21:00","8.4","","7.1","","91","","0.8","","12","","43","","","","100.77","","","","","","NA"
"-127.94","50.11","SOLANDER ISLAND (AUT)","1037553","2021-04-27 22:00","2021","04","27","22:00","7.8","","7.2","","97","","0.4","","12","","45","","","","100.70","","","","","","NA"
"-127.94","50.11","SOLANDER ISLAND (AUT)","1037553","2021-04-27 23:00","2021","04","27","23:00","8.1","","7.9","","99","","0.6","","11","","61","","","","100.76","","","","","","NA"
"-127.94","50.11","SOLANDER ISLAND (AUT)","1037553","2021-04-28 00:00","2021","04","28","00:00","7.9","","7.7","","99","","0.4","","11","","71","","","","100.69","","","","","","NA"
"-127.94","50.11","SOLANDER ISLAND (AUT)","1037553","2021-04-28 01:00","2021","04","28","01:00","8.0","","7.9","","99","","0.0","","10","","72","","","","100.75","","","","","","NA"
"-127.94","50.11","SOLANDER ISLAND (AUT)","1037553","2021-04-28 02:00","2021","04","28","02:00","8.1","","8.0","","99","","0.6","","10","","70","","","","100.73","","","","","","NA"
"-127.94","50.11","SOLANDER ISLAND (AUT)","1037553","2021-04-28 03:00","2021","04","28","03:00","7.9","","7.8","","99","","0.2","","10","","74","","","","100.67","","","","","","NA"
"-127.94","50.11","SOLANDER ISLAND (AUT)","1037553","2021-04-28 04:00","2021","04","28","04:00","8.1","","8.0","","100","","0.2","","10","","76","","","","100.71","","","","","","NA"
"-127.94","50.11","SOLANDER ISLAND (AUT)","1037553","2021-04-28 05:00","2021","04","28","05:00","8.1","","8.0","","100","","0.2","","10","","74","","","","100.71","","","","","","NA"
"-127.94","50.11","SOLANDER ISLAND (AUT)","1037553","2021-04-28 06:00","2021","04","28","06:00","8.0","","7.9","","100","","1.2","","10","","69","","","","100.72","","","","","","NA"
"-127.94","50.11","SOLANDER ISLAND (AUT)","1037553","2021-04-28 07:00","2021","04","28","07:00","8.0","","8.0","","100","","0.4","","10","","71","","","","100.78","","","","","","NA"
"-127.94","50.11","SOLANDER ISLAND (AUT)","1037553","2021-04-28 08:00","2021","04","28","08:00","8.0","","7.9","","99","","0.4","","10","","74","","","","100.80","","","","","","NA"
"-127.94","50.11","SOLANDER ISLAND (AUT)","1037553","2021-04-28 09:00","2021","04","28","09:00","7.9","","7.8","","99","","0.4","","10","","73","","","","100.81","","","","","","NA"
"-127.94","50.11","SOLANDER ISLAND (AUT)","1037553","2021-04-28 10:00","2021","04","28","10:00","8.1","","7.9","","99","","0.4","","10","","78","","","","100.76","","","","","","NA"
"-127.94","50.11","SOLANDER ISLAND (AUT)","1037553","2021-04-28 11:00","2021","04","28","11:00","8.0","","7.8","","99","","0.4","","10","","79","","","","100.81","","","","","","NA"
"-127.94","50.11","SOLANDER ISLAND (AUT)","1037553","2021-04-28 12:00","2021","04","28","12:00","8.1","","7.8","","98","","0.4","","10","","77","","","","100.87","","","","","","NA"
"-127.94","50.11","SOLANDER ISLAND (AUT)","1037553","2021-04-28 13:00","2021","04","28","13:00","7.6","","7.4","","98","","0.4","","10","","81","","","","100.84","","","","","","NA"
"-127.94","50.11","SOLANDER ISLAND (AUT)","1037553","2021-04-28 14:00","2021","04","28","14:00","7.9","","7.7","","99","","0.6","","10","","79","","","","100.88","","","","","","NA"
"-127.94","50.11","SOLANDER ISLAND (AUT)","1037553","2021-04-28 15:00","2021","04","28","15:00","7.7","","7.5","","99","","0.2","","10","","79","","","","100.84","","","","","","NA"
"-127.94","50.11","SOLANDER ISLAND (AUT)","1037553","2021-04-28 16:00","2021","04","28","16:00","7.4","","7.1","","98","","0.6","","10","","83","","","","100.85","","","","","","NA"
"-127.94","50.11","SOLANDER ISLAND (AUT)","1037553","2021-04-28 17:00","2021","04","28","17:00","7.6","","7.4","","98","","0.8","","10","","81","","","","100.85","","","","","","NA"
"-127.94","50.11","SOLANDER ISLAND (AUT)","1037553","2021-04-28 18:00","2021","04","28","18:00","7.5","","7.3","","98","","0.4","","9","","84","","","","100.85","","","","","","NA"
"-127.94","50.11","SOLANDER ISLAND (AUT)","1037553","2021-04-28 19:00","2021","04","28","19:00","7.6","","7.3","","98","","0.2","","10","","78","","","","100.86","","","","","","NA"
"-127.94","50.11","SOLANDER ISLAND (AUT)","1037553","2021-04-28 20:00","2021","04","28","20:00","7.6","","7.2","","97","","0.4","","9","","76","","","","100.90","","","","","","NA"
"-127.94","50.11","SOLANDER ISLAND (AUT)","1037553","2021-04-28 21:00","2021","04","28","21:00","7.8","","7.1","","95","","0.2","","10","","71","","","","100.92","","","","","","NA"
"-127.94","50.11","SOLANDER ISLAND (AUT)","1037553","2021-04-28 22:00","2021","04","28","22:00","7.5","","7.0","","97","","0.0","","10","","71","","","","100.92","","","","","","NA"
"-127.94","50.11","SOLANDER ISLAND (AUT)","1037553","2021-04-28 23:00","2021","04","28","23:00","7.4","","7.0","","97","","0.2","","10","","73","","","","100.87","","","","","","NA"
"-127.94","50.11","SOLANDER ISLAND (AUT)","1037553","2021-04-29 00:00","2021","04","29","00:00","7.5","","6.7","","95","","0.0","","10","","73","","","","100.87","","","","","","NA"
"-127.94","50.11","SOLANDER ISLAND (AUT)","1037553","2021-04-29 01:00","2021","04","29","01:00","7.7","","7.1","","96","","0.2","","10","","69","","","","100.87","","","","","","NA"
"-127.94","50.11","SOLANDER ISLAND (AUT)","1037553","2021-04-29 02:00","2021","04","29","02:00","7.7","","7.0","","96","","0.2","","10","","69","","","","100.87","","","","","","NA"
"-127.94","50.11","SOLANDER ISLAND (AUT)","1037553","2021-04-29 03:00","2021","04","29","03:00","7.7","","7.0","","96","","0.2","","10","","68","","","","100.83","","","","","","NA"
"-127.94","50.11","SOLANDER ISLAND (AUT)","1037553","2021-04-29 04:00","2021","04","29","04:00","7.5","","6.8","","95","","0.0","","10","","71","","","","100.79","","","","","","NA"
"-127.94","50.11","SOLANDER ISLAND (AUT)","1037553","2021-04-29 05:00","2021","04","29","05:00","7.6","","7.2","","97","","0.4","","10","","63","","","","100.84","","","","","","NA"
"-127.94","50.11","SOLANDER ISLAND (AUT)","1037553","2021-04-29 06:00","2021","04","29","06:00","7.8","","7.3","","97","","0.2","","10","","70","","","","100.80","","","","","","NA"
"-127.94","50.11","SOLANDER ISLAND (AUT)","1037553","2021-04-29 07:00","2021","04","29","07:00","7.9","","7.4","","97","","0.8","","10","","62","","","","100.76","","","","","","NA"
"-127.94","50.11","SOLANDER ISLAND (AUT)","1037553","2021-04-29 08:00","2021","04","29","08:00","8.6","","7.2","","91","","0.2","","10","","62","","","","100.75","","","","","","NA"
"-127.94","50.11","SOLANDER ISLAND (AUT)","1037553","2021-04-29 09:00","2021","04","29","09:00","8.9","","7.7","","92","","0.0","","9","","64","","","","100.71","","","","","","NA"
"-127.94","50.11","SOLANDER ISLAND (AUT)","1037553","2021-04-29 10:00","2021","04","29","10:00","9.1","","8.4","","96","","0.0","","10","","68","","","","100.65","","","","","","NA"
"-127.94","50.11","SOLANDER ISLAND (AUT)","1037553","2021-04-29 11:00","2021","04","29","11:00","9.1","","8.4","","95","","0.0","","10","","69","","","","100.64","","","","","","NA"
"-127.94","50.11","SOLANDER ISLAND (AUT)","1037553","2021-04-29 12:00","2021","04","29","12:00","8.8","","8.1","","95","","0.0","","11","","71","","","","100.64","","","","","","NA"
"-127.94","50.11","SOLANDER ISLAND (AUT)","1037553","2021-04-29 13:00","2021","04","29","13:00","8.3","","8.2","","99","","1.8","","11","","76","","","","100.60","","","","","","NA"
"-127.94","50.11","SOLANDER ISLAND (AUT)","1037553","2021-04-29 14:00","2021","04","29","14:00","8.3","","8.2","","99","","1.0","","10","","78","","","","100.42","","","","","","NA"
"-127.94","50.11","SOLANDER ISLAND (AUT)","1037553","2021-04-29 15:00","2021","04","29","15:00","7.8","","7.6","","99","","1.2","","9","","74","","","","100.49","","","","","","NA"
"-127.94","50.11","SOLANDER ISLAND (AUT)","1037553","2021-04-29 16:00","2021","04","29","16:00","8.0","","7.9","","99","","1.2","","9","","74","","","","100.45","","","","","","NA"
"-127.94","50.11","SOLANDER ISLAND (AUT)","1037553","2021-04-29 17:00","2021","04","29","17:00","7.9","","7.9","","99","","1.2","","9","","69","","","","100.43","","","","","","NA"
"-127.94","50.11","SOLANDER ISLAND (AUT)","1037553","2021-04-29 18:00","2021","04","29","18:00","8.3","","8.2","","100","","1.0","","10","","68","","","","100.43","","","","","","NA"
"-127.94","50.11","SOLANDER ISLAND (AUT)","1037553","2021-04-29 19:00","2021","04","29","19:00"
"-127.94","50.11","SOLANDER ISLAND (AUT)","1037553","2021-04-29 20:00","2021","04","29","20:00","8.7","","8.6","","100","","0.6","","10","","54","","","","100.59","","","","","","NA"
"-127.94","50.11","SOLANDER ISLAND (AUT)","1037553","2021-04-29 21:00","2021","04","29","21:00","8.8","","8.8","","100","","0.0","","10","","47","","","","100.67","","","","","","NA"
"-127.94","50.11","SOLANDER ISLAND (AUT)","1037553","2021-04-29 22:00","2021","04","29","22:00","8.9","","8.8","","100","","0.4","","13","","33","","","","100.70","","","","","","NA"
"-127.94","50.11","SOLANDER ISLAND (AUT)","1037553","2021-04-29 23:00","2021","04","29","23:00","8.6","","8.6","","100","","0.2","","15","","24","","","","100.73","","","","","","NA"
"-127.94","50.11","SOLANDER ISLAND (AUT)","1037553","2021-04-30 00:00","2021","04","30","00:00","8.2","","8.2","","100","","0.2","","17","","21","","","","100.75","","","","","","NA"
"-127.94","50.11","SOLANDER ISLAND (AUT)","1037553","2021-04-30 01:00","2021","04","30","01:00","8.1","","8.0","","100","","0.0","","18","","20","","","","100.77","","","","","","NA"
"-127.94","50.11","SOLANDER ISLAND (AUT)","1037553","2021-04-30 02:00","2021","04","30","02:00","7.7","","7.7","","100","","0.0","","18","","15","","","","100.73","","","","","","NA"
"-127.94","50.11","SOLANDER ISLAND (AUT)","1037553","2021-04-30 03:00","2021","04","30","03:00","7.4","","7.4","","100","","0.2","","19","","15","","","","100.73","","","","","","NA"
"-127.94","50.11","SOLANDER ISLAND (AUT)","1037553","2021-04-30 04:00","2021","04","30","04:00","7.4","","7.3","","100","","0.0","","19","","17","","","","100.75","","","","","","NA"
"-127.94","50.11","SOLANDER ISLAND (AUT)","1037553","2021-04-30 05:00","2021","04","30","05:00","7.3","","7.3","","100","","0.0","","19","","18","","","","100.77","","","","","","NA"
"-127.94","50.11","SOLANDER ISLAND (AUT)","1037553","2021-04-30 06:00","2021","04","30","06:00","7.3","","6.4","","94","","0.0","","18","","23","","","","100.75","","","","","","NA"
"-127.94","50.11","SOLANDER ISLAND (AUT)","1037553","2021-04-30 07:00","2021","04","30","07:00","6.8","","6.4","","97","","0.0","","15","","26","","","","100.78","","","","","","NA"
"-127.94","50.11","SOLANDER ISLAND (AUT)","1037553","2021-04-30 08:00","2021","04","30","08:00","7.3","","6.2","","92","","0.0","","13","","20","","","","100.80","","","","","","NA"
"-127.94","50.11","SOLANDER ISLAND (AUT)","1037553","2021-04-30 09:00","2021","04","30","09:00","7.3","","6.4","","94","","0.0","","11","","24","","","","100.79","","","","","","NA"
"-127.94","50.11","SOLANDER ISLAND (AUT)","1037553","2021-04-30 10:00","2021","04","30","10:00","7.3","","6.9","","97","","0.0","","11","","30","","","","100.80","","","","","","NA"
"-127.94","50.11","SOLANDER ISLAND (AUT)","1037553","2021-04-30 11:00","2021","04","30","11:00","7.5","","7.3","","98","","0.0","","13","","26","","","","100.84","","","","","","NA"
"-127.94","50.11","SOLANDER ISLAND (AUT)","1037553","2021-04-30 12:00","2021","04","30","12:00","8.1","","7.9","","98","","0.0","","13","","37","","","","100.85","","","","","","NA"
"-127.94","50.11","SOLANDER ISLAND (AUT)","1037553","2021-04-30 13:00","2021","04","30","13:00","8.5","","8.1","","97","","0.0","","15","","40","","","","100.86","","","","","","NA"
"-127.94","50.11","SOLANDER ISLAND (AUT)","1037553","2021-04-30 14:00","2021","04","30","14:00","8.7","","8.3","","97","","0.0","","15","","34","","","","100.90","","","","","","NA"
"-127.94","50.11","SOLANDER ISLAND (AUT)","1037553","2021-04-30 15:00","2021","04","30","15:00","8.8","","8.2","","96","","0.2","","16","","30","","","","100.89","","","","","","NA"
"-127.94","50.11","SOLANDER ISLAND (AUT)","1037553","2021-04-30 16:00","2021","04","30","16:00","8.8","","8.4","","98","","0.0","","17","","27","","","","100.85","","","","","","NA"
"-127.94","50.11","SOLANDER ISLAND (AUT)","1037553","2021-04-30 17:00","2021","04","30","17:00","8.9","","8.6","","98","","0.2","","18","","29","","","","100.83","","","","","","NA"
"-127.94","50.11","SOLANDER ISLAND (AUT)","1037553","2021-04-30 18:00","2021","04","30","18:00","8.4","","7.8","","96","","0.4","","19","","20","","","","100.85","","","","","","NA"
"-127.94","50.11","SOLANDER ISLAND (AUT)","1037553","2021-04-30 19:00","2021","04","30","19:00","8.5","","8.0","","96","","0.0","","19","","12","","","","100.84","","","","","","NA"
"-127.94","50.11","SOLANDER ISLAND (AUT)","1037553","2021-04-30 20:00","2021","04","30","20:00","8.5","","7.9","","96","","0.0","","24","","11","","","","100.86","","","","","","NA"
"-127.94","50.11","SOLANDER ISLAND (AUT)","1037553","2021-04-30 21:00","2021","04","30","21:00","8.4","","7.7","","95","","0.0","","24","","14","","","","100.91","","","","","","NA"
"-127.94","50.11","SOLANDER ISLAND (AUT)","1037553","2021-04-30 22:00","2021","04","30","22:00","8.3","","7.7","","96","","0.0","","24","","14","","","","100.92","","","","","","NA"
"-127.94","50.11","SOLANDER ISLAND (AUT)","1037553","2021-04-30 23:00","2021","04","30","23:00","7.7","","5.4","","85","","0.0","","26","","17","","","","100.93","","","","","","NA"
