"Longitude (x)","Latitude (y)","Station Name","Climate ID","Date/Time (LST)","Year","Month","Day","Time (LST)","Temp (°C)","Temp Flag","Dew Point Temp (°C)","Dew Point Temp Flag","Rel Hum (%)","Rel Hum Flag","Precip. Amount (mm)","Precip. Amount Flag","Wind Dir (10s deg)","Wind Dir Flag","Wind Spd (km/h)","Wind Spd Flag","Visibility (km)","Visibility Flag","Stn Press (kPa)","Stn Press Flag","Hmdx","Hmdx Flag","Wind Chill","Wind Chill Flag","Weather"
"-68.42","58.09","KUUJJUAQ A","7113535","2022-10-01 00:00","2022","10","01","00:00","1.5","","1.1","","97","","","","29","","22","","24.1","","99.97","","","","","","Rain Showers"
"-68.42","58.09","KUUJJUAQ A","7113535","2022-10-01 01:00","2022","10","01","01:00","1.7","","0.6","","92","","","","30","","24","","24.1","","100.03","","","","","","Rain Showers"
"-68.42","58.09","KUUJJUAQ A","7113535","2022-10-01 02:00","2022","10","01","02:00","1.9","","0.6","","91","","","","30","","21","","24.1","","100.09","","","","","","NA"
"-68.42","58.09","KUUJJUAQ A","7113535","2022-10-01 03:00","2022","10","01","03:00","1.9","","0.4","","90","","","","28","","17","","24.1","","100.16","","","","","","Rain Showers"
"-68.42","58.09","KUUJJUAQ A","7113535","2022-10-01 04:00","2022","10","01","04:00","1.9","","0.4","","90","","","","30","","25","","24.1","","100.23","","","","","","Rain Showers"
"-68.42","58.09","KUUJJUAQ A","7113535","2022-10-01 05:00","2022","10","01","05:00","1.6","","1.1","","96","","","","30","","23","","16.1","","100.29","","","","","","Rain Showers"
"-68.42","58.09","KUUJJUAQ A","7113535","2022-10-01 06:00","2022","10","01","06:00","1.9","","1.1","","94","","","","31","","22","","24.1","","100.38","","","","","","Rain Showers"
"-68.42","58.09","KUUJJUAQ A","7113535","2022-10-01 07:00","2022","10","01","07:00","2.2","","1.1","","92","","","","31","","22","","24.1","","100.44","","","","","","Rain Showers"
"-68.42","58.09","KUUJJUAQ A","7113535","2022-10-01 08:00","2022","10","01","08:00","2.2","","2.0","","98","","","","30","","22","","12.9","","100.50","","","","","","Rain Showers"
"-68.42","58.09","KUUJJUAQ A","7113535","2022-10-01 09:00","2022","10","01","09:00","3.1","","1.8","","92","","","","32","","25","","24.1","","100.57","","","","","","NA"
"-68.42","58.09","KUUJJUAQ A","7113535","2022-10-01 10:00","2022","10","01","10:00","3.1","","2.1","","93","","","","32","","21","","24.1","","100.65","","","","","","Cloudy"
"-68.42","58.09","KUUJJUAQ A","7113535","2022-10-01 11:00","2022","10","01","11:00","3.2","","2.6","","96","","","","1","","13","","24.1","","100.75","","","","","","Rain Showers"
"-68.42","58.09","KUUJJUAQ A","7113535","2022-10-01 12:00","2022","10","01","12:00","3.1","","1.8","","91","","","","34","","14","","24.1","","100.86","","","","","","Rain Showers"
"-68.42","58.09","KUUJJUAQ A","7113535","2022-10-01 13:00","2022","10","01","13:00","2.5","","2.0","","97","","","","1","","13","","19.3","","100.93","","","","","","Rain Showers"
"-68.42","58.09","KUUJJUAQ A","7113535","2022-10-01 14:00","2022","10","01","14:00","3.1","","2.0","","92","","","","34","","20","","24.1","","101.01","","","","","","NA"
"-68.42","58.09","KUUJJUAQ A","7113535","2022-10-01 15:00","2022","10","01","15:00","2.8","","1.1","","89","","","","33","","21","","19.3","","101.09","","","","","","Rain Showers"
"-68.42","58.09","KUUJJUAQ A","7113535","2022-10-01 16:00","2022","10","01","16:00","2.1","","1.1","","93","","","","33","","21","","24.1","","101.16","","","","","","Mostly Cloudy"
"-68.42","58.09","KUUJJUAQ A","7113535","2022-10-01 17:00","2022","10","01","17:00","1.5","","0.3","","92","","","","33","","19","","24.1","","101.26","","","","","","NA"
"-68.42","58.09","KUUJJUAQ A","7113535","2022-10-01 18:00","2022","10","01","18:00","1.0","","0.5","","97","","","","33","","18","","16.1","","101.34","","","","","","Snow Showers"
"-68.42","58.09","KUUJJUAQ A","7113535","2022-10-01 19:00","2022","10","01","19:00","0.9","","0.0","","94","","","","32","","18","","24.1","","101.38","","","","","","Cloudy"
"-68.42","58.09","KUUJJUAQ A","7113535","2022-10-01 20:00","2022","10","01","20:00","0.8","","-1.3","","86","","","","32","","18","","24.1","","101.42","","","","","","NA"
"-68.42","58.09","KUUJJUAQ A","7113535","2022-10-01 21:00","2022","10","01","21:00","0.5","","-0.7","","91","","","","28","","8","","24.1","","101.43","","","","","","NA"
"-68.42","58.09","KUUJJUAQ A","7113535","2022-10-01 22:00","2022","10","01","22:00","0.5","","-1.0","","90","","","","32","","18","","24.1","","101.46","","","","","","Cloudy"
"-68.42","58.09","KUUJJUAQ A","7113535","2022-10-01 23:00","2022","10","01","23:00","0.1","","-0.4","","97","","","","31","","19","","19.3","","101.49","","","","","","Snow"
"-68.42","58.09","KUUJJUAQ A","7113535","2022-10-02 00:00","2022","10","02","00:00","0.0","","-0.2","","98","","","","33","","16","","4.8","","101.52","","","","-5","","Snow"
"-68.42","58.09","KUUJJUAQ A","7113535","2022-10-02 01:00","2022","10","02","01:00","0.0","","-0.8","","94","","","","30","","18","","12.9","","101.53","","","","-5","","Snow"
"-68.42","58.09","KUUJJUAQ A","7113535","2022-10-02 02:00","2022","10","02","02:00","0.1","","-2.2","","85","","","","32","","17","","24.1","","101.55","","","","","","Snow"
"-68.42","58.09","KUUJJUAQ A","7113535","2022-10-02 03:00","2022","10","02","03:00","0.1","","-2.9","","81","","","","32","","19","","24.1","","101.58","","","","","","Snow"
"-68.42","58.09","KUUJJUAQ A","7113535","2022-10-02 04:00","2022","10","02","04:00","-0.1","","-3.5","","78","","","","33","","18","","24.1","","101.63","","","","-5","","Snow"
"-68.42","58.09","KUUJJUAQ A","7113535","2022-10-02 05:00","2022","10","02","05:00","0.0","","-4.9","","70","","","","31","","21","","24.1","","101.66","","","","-5","","NA"
"-68.42","58.09","KUUJJUAQ A","7113535","2022-10-02 06:00","2022","10","02","06:00","0.1","","-4.2","","73","","","","31","","17","","24.1","","101.68","","","","","","NA"
"-68.42","58.09","KUUJJUAQ A","7113535","2022-10-02 07:00","2022","10","02","07:00","0.3","","-4.3","","71","","","","32","","17","","24.1","","101.68","","","","","","Cloudy"
"-68.42","58.09","KUUJJUAQ A","7113535","2022-10-02 08:00","2022","10","02","08:00","0.4","","-3.7","","74","","","","30","","16","","24.1","","101.72","","","","","","NA"
"-68.42","58.09","KUUJJUAQ A","7113535","2022-10-02 09:00","2022","10","02","09:00","0.8","","-4.6","","68","","","","29","","19","","24.1","","101.70","","","","","","NA"
"-68.42","58.09","KUUJJUAQ A","7113535","2022-10-02 10:00","2022","10","02","10:00","1.7","","-4.0","","66","","","","27","","22","","24.1","","101.64","","","","","","Mostly Cloudy"
"-68.42","58.09","KUUJJUAQ A","7113535","2022-10-02 11:00","2022","10","02","11:00","1.9","","-2.8","","71","","","","29","","18","","24.1","","101.59","","","","","","NA"
"-68.42","58.09","KUUJJUAQ A","7113535","2022-10-02 12:00","2022","10","02","12:00","1.7","","-4.0","","66","","","","27","","19","","24.1","","101.53","","","","","","NA"
"-68.42","58.09","KUUJJUAQ A","7113535","2022-10-02 13:00","2022","10","02","13:00","2.4","","-3.2","","67","","","","28","","17","","24.1","","101.43","","","","","","Cloudy"
"-68.42","58.09","KUUJJUAQ A","7113535","2022-10-02 14:00","2022","10","02","14:00","3.2","","-2.9","","64","","","","28","","23","","24.1","","101.37","","","","","","NA"
"-68.42","58.09","KUUJJUAQ A","7113535","2022-10-02 15:00","2022","10","02","15:00","3.7","","-1.9","","67","","","","26","","12","","24.1","","101.31","","","","","","NA"
"-68.42","58.09","KUUJJUAQ A","7113535","2022-10-02 16:00","2022","10","02","16:00","3.7","","-0.6","","73","","","","27","","12","","24.1","","101.23","","","","","","Cloudy"
"-68.42","58.09","KUUJJUAQ A","7113535","2022-10-02 17:00","2022","10","02","17:00","3.2","","-0.5","","77","","","","26","","10","","24.1","","101.15","","","","","","NA"
"-68.42","58.09","KUUJJUAQ A","7113535","2022-10-02 18:00","2022","10","02","18:00","2.5","","1.5","","93","","","","25","","13","","24.1","","101.11","","","","","","Rain Showers"
"-68.42","58.09","KUUJJUAQ A","7113535","2022-10-02 19:00","2022","10","02","19:00","2.5","","1.5","","93","","","","25","","12","","24.1","","101.00","","","","","","Cloudy"
"-68.42","58.09","KUUJJUAQ A","7113535","2022-10-02 20:00","2022","10","02","20:00","2.9","","1.5","","91","","","","26","","17","","24.1","","100.96","","","","","","Rain Showers"
"-68.42","58.09","KUUJJUAQ A","7113535","2022-10-02 21:00","2022","10","02","21:00","2.7","","1.6","","93","","","","24","","12","","24.1","","100.88","","","","","","Rain Showers"
"-68.42","58.09","KUUJJUAQ A","7113535","2022-10-02 22:00","2022","10","02","22:00","2.9","","1.4","","90","","","","26","","12","","24.1","","100.81","","","","","","Cloudy"
"-68.42","58.09","KUUJJUAQ A","7113535","2022-10-02 23:00","2022","10","02","23:00","2.7","","1.6","","93","","","","24","","10","","24.1","","100.75","","","","","","NA"
"-68.42","58.09","KUUJJUAQ A","7113535","2022-10-03 00:00","2022","10","03","00:00","3.0","","1.4","","89","","","","25","","12","","24.1","","100.69","","","","","","NA"
"-68.42","58.09","KUUJJUAQ A","7113535","2022-10-03 01:00","2022","10","03","01:00","2.9","","1.8","","93","","","","25","","10","","24.1","","100.63","","","","","","Cloudy"
"-68.42","58.09","KUUJJUAQ A","7113535","2022-10-03 02:00","2022","10","03","02:00","3.3","","1.6","","89","","","","26","","13","","24.1","","100.54","","","","","","NA"
"-68.42","58.09","KUUJJUAQ A","7113535","2022-10-03 03:00","2022","10","03","03:00","3.3","","2.3","","93","","","","25","","12","","24.1","","100.48","","","","","","NA"
"-68.42","58.09","KUUJJUAQ A","7113535","2022-10-03 04:00","2022","10","03","04:00","3.5","","2.5","","93","","","","24","","10","","24.1","","100.40","","","","","","Cloudy"
"-68.42","58.09","KUUJJUAQ A","7113535","2022-10-03 05:00","2022","10","03","05:00","4.0","","2.4","","89","","","","24","","12","","24.1","","100.35","","","","","","NA"
"-68.42","58.09","KUUJJUAQ A","7113535","2022-10-03 06:00","2022","10","03","06:00","4.3","","2.6","","89","","","","21","","16","","24.1","","100.26","","","","","","NA"
"-68.42","58.09","KUUJJUAQ A","7113535","2022-10-03 07:00","2022","10","03","07:00","4.6","","2.8","","88","","","","21","","19","","19.3","","100.20","","","","","","Rain Showers"
"-68.42","58.09","KUUJJUAQ A","7113535","2022-10-03 08:00","2022","10","03","08:00","4.3","","3.8","","97","","","","21","","22","","19.3","","100.07","","","","","","Rain"
"-68.42","58.09","KUUJJUAQ A","7113535","2022-10-03 09:00","2022","10","03","09:00","4.5","","4.1","","97","","","","21","","21","","24.1","","99.99","","","","","","Rain"
"-68.42","58.09","KUUJJUAQ A","7113535","2022-10-03 10:00","2022","10","03","10:00","5.1","","3.9","","92","","","","20","","19","","24.1","","99.90","","","","","","Rain"
"-68.42","58.09","KUUJJUAQ A","7113535","2022-10-03 11:00","2022","10","03","11:00","6.1","","4.5","","89","","","","19","","18","","24.1","","99.78","","","","","","NA"
"-68.42","58.09","KUUJJUAQ A","7113535","2022-10-03 12:00","2022","10","03","12:00","7.7","","4.9","","82","","","","21","","18","","24.1","","99.66","","","","","","NA"
"-68.42","58.09","KUUJJUAQ A","7113535","2022-10-03 13:00","2022","10","03","13:00","8.2","","5.4","","83","","","","21","","16","","24.1","","99.58","","","","","","Rain"
"-68.42","58.09","KUUJJUAQ A","7113535","2022-10-03 14:00","2022","10","03","14:00","8.3","","6.6","","89","","","","20","","13","","24.1","","99.49","","","","","","NA"
"-68.42","58.09","KUUJJUAQ A","7113535","2022-10-03 15:00","2022","10","03","15:00","9.7","","6.8","","82","","","","26","","19","","24.1","","99.41","","","","","","NA"
"-68.42","58.09","KUUJJUAQ A","7113535","2022-10-03 16:00","2022","10","03","16:00","9.8","","6.8","","81","","","","23","","13","","24.1","","99.34","","","","","","Mostly Cloudy"
"-68.42","58.09","KUUJJUAQ A","7113535","2022-10-03 17:00","2022","10","03","17:00","10.0","","6.9","","81","","","","22","","13","","24.1","","99.28","","","","","","NA"
"-68.42","58.09","KUUJJUAQ A","7113535","2022-10-03 18:00","2022","10","03","18:00","9.8","","8.2","","90","","","","23","","13","","12.9","","99.19","","","","","","Rain"
"-68.42","58.09","KUUJJUAQ A","7113535","2022-10-03 19:00","2022","10","03","19:00","10.6","","8.9","","89","","","","24","","17","","24.1","","99.09","","","","","","Rain"
"-68.42","58.09","KUUJJUAQ A","7113535","2022-10-03 20:00","2022","10","03","20:00","11.2","","8.9","","86","","","","26","","17","","24.1","","99.02","","","","","","NA"
"-68.42","58.09","KUUJJUAQ A","7113535","2022-10-03 21:00","2022","10","03","21:00","11.2","","5.0","","66","","","","27","","36","","24.1","","99.01","","","","","","NA"
"-68.42","58.09","KUUJJUAQ A","7113535","2022-10-03 22:00","2022","10","03","22:00","8.7","","2.9","","67","","","","27","","44","","24.1","","99.08","","","","","","Cloudy"
"-68.42","58.09","KUUJJUAQ A","7113535","2022-10-03 23:00","2022","10","03","23:00","5.9","","1.1","","72","","","","27","","31","","24.1","","99.17","","","","","","NA"
"-68.42","58.09","KUUJJUAQ A","7113535","2022-10-04 00:00","2022","10","04","00:00","5.7","","0.7","","70","","","","26","","27","","24.1","","99.23","","","","","","NA"
"-68.42","58.09","KUUJJUAQ A","7113535","2022-10-04 01:00","2022","10","04","01:00","6.0","","0.9","","70","","","","26","","34","","24.1","","99.25","","","","","","Mostly Cloudy"
"-68.42","58.09","KUUJJUAQ A","7113535","2022-10-04 02:00","2022","10","04","02:00","5.8","","0.8","","70","","","","27","","31","","24.1","","99.34","","","","","","NA"
"-68.42","58.09","KUUJJUAQ A","7113535","2022-10-04 03:00","2022","10","04","03:00","4.9","","1.2","","77","","","","26","","30","","19.3","","99.40","","","","","","Rain Showers"
"-68.42","58.09","KUUJJUAQ A","7113535","2022-10-04 04:00","2022","10","04","04:00","5.2","","0.4","","71","","","","26","","36","","24.1","","99.50","","","","","","Cloudy"
"-68.42","58.09","KUUJJUAQ A","7113535","2022-10-04 05:00","2022","10","04","05:00","4.7","","0.4","","74","","","","26","","25","","24.1","","99.60","","","","","","NA"
"-68.42","58.09","KUUJJUAQ A","7113535","2022-10-04 06:00","2022","10","04","06:00","3.6","","1.5","","86","","","","27","","28","","19.3","","99.69","","","","","","Rain Showers"
"-68.42","58.09","KUUJJUAQ A","7113535","2022-10-04 07:00","2022","10","04","07:00","3.7","","-0.2","","75","","","","27","","28","","24.1","","99.75","","","","","","Mostly Cloudy"
"-68.42","58.09","KUUJJUAQ A","7113535","2022-10-04 08:00","2022","10","04","08:00","4.3","","-0.9","","69","","","","27","","28","","24.1","","99.83","","","","","","NA"
"-68.42","58.09","KUUJJUAQ A","7113535","2022-10-04 09:00","2022","10","04","09:00","4.5","","-1.9","","63","","","","27","","35","","24.1","","99.91","","","","","","Rain Showers"
"-68.42","58.09","KUUJJUAQ A","7113535","2022-10-04 10:00","2022","10","04","10:00","4.9","","-3.4","","55","","","","27","","35","","24.1","","99.95","","","","","","Mostly Cloudy"
"-68.42","58.09","KUUJJUAQ A","7113535","2022-10-04 11:00","2022","10","04","11:00","4.8","","-1.4","","64","","","","28","","27","","24.1","","99.98","","","","","","NA"
"-68.42","58.09","KUUJJUAQ A","7113535","2022-10-04 12:00","2022","10","04","12:00","4.8","","-0.6","","68","","","","26","","32","","24.1","","99.99","","","","","","Rain Showers"
"-68.42","58.09","KUUJJUAQ A","7113535","2022-10-04 13:00","2022","10","04","13:00","5.8","","-2.6","","55","","","","27","","28","","24.1","","99.98","","","","","","Rain Showers"
"-68.42","58.09","KUUJJUAQ A","7113535","2022-10-04 14:00","2022","10","04","14:00","5.4","","-1.7","","60","","","","28","","29","","24.1","","100.02","","","","","","NA"
"-68.42","58.09","KUUJJUAQ A","7113535","2022-10-04 15:00","2022","10","04","15:00","5.5","","-0.9","","63","","","","26","","32","","24.1","","99.99","","","","","","Rain Showers"
"-68.42","58.09","KUUJJUAQ A","7113535","2022-10-04 16:00","2022","10","04","16:00","4.3","","0.7","","77","","","","26","","24","","19.3","","99.97","","","","","","Rain Showers"
"-68.42","58.09","KUUJJUAQ A","7113535","2022-10-04 17:00","2022","10","04","17:00","4.0","","0.7","","79","","","","26","","25","","24.1","","99.97","","","","","","Rain Showers"
"-68.42","58.09","KUUJJUAQ A","7113535","2022-10-04 18:00","2022","10","04","18:00","3.2","","1.2","","87","","","","25","","16","","24.1","","99.95","","","","","","Rain Showers"
"-68.42","58.09","KUUJJUAQ A","7113535","2022-10-04 19:00","2022","10","04","19:00","2.6","","0.1","","84","","","","28","","28","","24.1","","99.95","","","","","","Rain Showers"
"-68.42","58.09","KUUJJUAQ A","7113535","2022-10-04 20:00","2022","10","04","20:00","2.2","","-0.5","","82","","","","27","","19","","24.1","","99.93","","","","","","NA"
"-68.42","58.09","KUUJJUAQ A","7113535","2022-10-04 21:00","2022","10","04","21:00","2.4","","-1.4","","76","","","","25","","21","","24.1","","99.89","","","","","","NA"
"-68.42","58.09","KUUJJUAQ A","7113535","2022-10-04 22:00","2022","10","04","22:00","2.8","","-1.9","","71","","","","26","","18","","24.1","","99.86","","","","","","Mostly Cloudy"
"-68.42","58.09","KUUJJUAQ A","7113535","2022-10-04 23:00","2022","10","04","23:00","3.0","","-1.8","","71","","","","27","","23","","24.1","","99.83","","","","","","NA"
"-68.42","58.09","KUUJJUAQ A","7113535","2022-10-05 00:00","2022","10","05","00:00","3.0","","-2.4","","68","","","","27","","23","","24.1","","99.83","","","","","","NA"
"-68.42","58.09","KUUJJUAQ A","7113535","2022-10-05 01:00","2022","10","05","01:00","3.1","","-2.2","","68","","","","28","","27","","24.1","","99.83","","","","","","Mostly Cloudy"
"-68.42","58.09","KUUJJUAQ A","7113535","2022-10-05 02:00","2022","10","05","02:00","2.8","","-1.2","","75","","","","27","","29","","24.1","","99.90","","","","","","NA"
"-68.42","58.09","KUUJJUAQ A","7113535","2022-10-05 03:00","2022","10","05","03:00","2.8","","-1.1","","75","","","","26","","34","","24.1","","99.93","","","","","","NA"
"-68.42","58.09","KUUJJUAQ A","7113535","2022-10-05 04:00","2022","10","05","04:00","2.9","","-1.0","","76","","","","27","","26","","24.1","","99.99","","","","","","Mostly Cloudy"
"-68.42","58.09","KUUJJUAQ A","7113535","2022-10-05 05:00","2022","10","05","05:00","3.1","","-1.3","","73","","","","27","","24","","24.1","","100.06","","","","","","NA"
"-68.42","58.09","KUUJJUAQ A","7113535","2022-10-05 06:00","2022","10","05","06:00","2.5","","-0.5","","81","","","","28","","29","","19.3","","100.10","","","","","","Rain Showers"
"-68.42","58.09","KUUJJUAQ A","7113535","2022-10-05 07:00","2022","10","05","07:00","2.4","","0.5","","87","","","","28","","23","","24.1","","100.16","","","","","","Rain Showers"
"-68.42","58.09","KUUJJUAQ A","7113535","2022-10-05 08:00","2022","10","05","08:00","3.1","","-0.7","","76","","","","26","","19","","24.1","","100.21","","","","","","NA"
"-68.42","58.09","KUUJJUAQ A","7113535","2022-10-05 09:00","2022","10","05","09:00","4.0","","-1.7","","66","","","","29","","33","","24.1","","100.27","","","","","","NA"
"-68.42","58.09","KUUJJUAQ A","7113535","2022-10-05 10:00","2022","10","05","10:00","5.3","","-2.1","","59","","","","27","","27","","24.1","","100.30","","","","","","Mostly Cloudy"
"-68.42","58.09","KUUJJUAQ A","7113535","2022-10-05 11:00","2022","10","05","11:00","4.9","","-1.1","","65","","","","29","","23","","24.1","","100.39","","","","","","NA"
"-68.42","58.09","KUUJJUAQ A","7113535","2022-10-05 12:00","2022","10","05","12:00","5.2","","-0.9","","65","","","","29","","21","","24.1","","100.44","","","","","","Rain Showers"
"-68.42","58.09","KUUJJUAQ A","7113535","2022-10-05 13:00","2022","10","05","13:00","4.3","","-0.7","","70","","","","29","","21","","24.1","","100.49","","","","","","Rain Showers"
"-68.42","58.09","KUUJJUAQ A","7113535","2022-10-05 14:00","2022","10","05","14:00","5.4","","-1.8","","60","","","","29","","25","","24.1","","100.56","","","","","","NA"
"-68.42","58.09","KUUJJUAQ A","7113535","2022-10-05 15:00","2022","10","05","15:00","5.3","","-1.7","","60","","","","30","","23","","24.1","","100.60","","","","","","Rain Showers"
"-68.42","58.09","KUUJJUAQ A","7113535","2022-10-05 16:00","2022","10","05","16:00","5.6","","-2.0","","58","","","","29","","19","","24.1","","100.63","","","","","","Rain Showers"
"-68.42","58.09","KUUJJUAQ A","7113535","2022-10-05 17:00","2022","10","05","17:00","3.5","","-1.4","","70","","","","28","","10","","24.1","","100.69","","","","","","NA"
"-68.42","58.09","KUUJJUAQ A","7113535","2022-10-05 18:00","2022","10","05","18:00","1.9","","-1.7","","77","","","","25","","11","","24.1","","100.71","","","","","","NA"
"-68.42","58.09","KUUJJUAQ A","7113535","2022-10-05 19:00","2022","10","05","19:00","1.9","","-1.2","","80","","","","26","","10","","24.1","","100.74","","","","","","Mainly Clear"
"-68.42","58.09","KUUJJUAQ A","7113535","2022-10-05 20:00","2022","10","05","20:00","1.1","","-1.4","","84","","","","26","","4","","24.1","","100.74","","","","","","NA"
"-68.42","58.09","KUUJJUAQ A","7113535","2022-10-05 21:00","2022","10","05","21:00","0.8","","-1.2","","87","","","","14","","5","","24.1","","100.73","","","","","","NA"
"-68.42","58.09","KUUJJUAQ A","7113535","2022-10-05 22:00","2022","10","05","22:00","0.0","","-0.9","","93","","","","29","","7","","24.1","","100.70","","","","-2","","Mostly Cloudy"
"-68.42","58.09","KUUJJUAQ A","7113535","2022-10-05 23:00","2022","10","05","23:00","-0.4","","-1.1","","95","","","","19","","8","","24.1","","100.68","","","","-3","","NA"
"-68.42","58.09","KUUJJUAQ A","7113535","2022-10-06 00:00","2022","10","06","00:00","-0.5","","-1.0","","96","","","","31","","17","","24.1","","100.65","","","","-5","","NA"
"-68.42","58.09","KUUJJUAQ A","7113535","2022-10-06 01:00","2022","10","06","01:00","-0.8","","-1.0","","98","","","","33","","8","","24.1","","100.62","","","","-4","","Mostly Cloudy"
"-68.42","58.09","KUUJJUAQ A","7113535","2022-10-06 02:00","2022","10","06","02:00","-1.9","","-2.1","","98","","","","35","","6","","24.1","","100.62","","","","-4","","NA"
"-68.42","58.09","KUUJJUAQ A","7113535","2022-10-06 03:00","2022","10","06","03:00","-1.0","","-1.2","","99","","","","33","","17","","24.1","","100.61","","","","-6","","NA"
"-68.42","58.09","KUUJJUAQ A","7113535","2022-10-06 04:00","2022","10","06","04:00","-0.2","","-0.8","","96","","","","32","","18","","24.1","","100.62","","","","-5","","Cloudy"
"-68.42","58.09","KUUJJUAQ A","7113535","2022-10-06 05:00","2022","10","06","05:00","0.1","","-1.4","","90","","","","32","","19","","24.1","","100.62","","","","","","NA"
"-68.42","58.09","KUUJJUAQ A","7113535","2022-10-06 06:00","2022","10","06","06:00","-0.2","","-2.5","","85","","","","32","","19","","24.1","","100.64","","","","-5","","NA"
"-68.42","58.09","KUUJJUAQ A","7113535","2022-10-06 07:00","2022","10","06","07:00","0.0","","-2.8","","81","","","","31","","17","","24.1","","100.67","","","","-5","","Mostly Cloudy"
"-68.42","58.09","KUUJJUAQ A","7113535","2022-10-06 08:00","2022","10","06","08:00","1.0","","-3.0","","74","","","","31","","21","","24.1","","100.71","","","","","","NA"
"-68.42","58.09","KUUJJUAQ A","7113535","2022-10-06 09:00","2022","10","06","09:00","1.1","","-1.6","","83","","","","31","","22","","12.9","","100.75","","","","","","Snow Showers"
"-68.42","58.09","KUUJJUAQ A","7113535","2022-10-06 10:00","2022","10","06","10:00","1.9","","-1.6","","78","","","","32","","22","","24.1","","100.77","","","","","","Snow Showers"
"-68.42","58.09","KUUJJUAQ A","7113535","2022-10-06 11:00","2022","10","06","11:00","2.9","","-2.8","","66","","","","31","","23","","24.1","","100.81","","","","","","Snow Showers"
"-68.42","58.09","KUUJJUAQ A","7113535","2022-10-06 12:00","2022","10","06","12:00","3.2","","-4.0","","59","","","","31","","22","","24.1","","100.82","","","","","","NA"
"-68.42","58.09","KUUJJUAQ A","7113535","2022-10-06 13:00","2022","10","06","13:00","2.6","","-3.5","","64","","","","30","","23","","24.1","","100.90","","","","","","Snow Showers"
"-68.42","58.09","KUUJJUAQ A","7113535","2022-10-06 14:00","2022","10","06","14:00","1.7","","-3.1","","70","","","","34","","24","","24.1","","100.97","","","","","","Snow Showers"
"-68.42","58.09","KUUJJUAQ A","7113535","2022-10-06 15:00","2022","10","06","15:00","1.0","","-2.9","","75","","","","31","","23","","6.4","","101.05","","","","","","Snow Showers"
"-68.42","58.09","KUUJJUAQ A","7113535","2022-10-06 16:00","2022","10","06","16:00","0.7","","-4.7","","67","","","","31","","20","","24.1","","101.10","","","","","","Mostly Cloudy"
"-68.42","58.09","KUUJJUAQ A","7113535","2022-10-06 17:00","2022","10","06","17:00","1.0","","-7.5","","53","","","","31","","21","","24.1","","101.19","","","","","","Snow Showers"
"-68.42","58.09","KUUJJUAQ A","7113535","2022-10-06 18:00","2022","10","06","18:00","0.7","","-8.2","","51","","","","32","","26","","24.1","","101.26","","","","","","Snow Showers"
"-68.42","58.09","KUUJJUAQ A","7113535","2022-10-06 19:00","2022","10","06","19:00","-0.6","","-8.3","","56","","","","30","","16","","24.1","","101.29","","","","-5","","Mostly Cloudy"
"-68.42","58.09","KUUJJUAQ A","7113535","2022-10-06 20:00","2022","10","06","20:00","-1.3","","-8.0","","60","","","","29","","18","","24.1","","101.31","","","","-7","","NA"
"-68.42","58.09","KUUJJUAQ A","7113535","2022-10-06 21:00","2022","10","06","21:00","-1.9","","-6.7","","70","","","","30","","16","","24.1","","101.33","","","","-7","","NA"
"-68.42","58.09","KUUJJUAQ A","7113535","2022-10-06 22:00","2022","10","06","22:00","-3.1","","-6.3","","79","","","","25","","7","","24.1","","101.35","","","","-6","","Clear"
"-68.42","58.09","KUUJJUAQ A","7113535","2022-10-06 23:00","2022","10","06","23:00","-2.9","","-5.7","","81","","","","28","","13","","24.1","","101.36","","","","-8","","NA"
"-68.42","58.09","KUUJJUAQ A","7113535","2022-10-07 00:00","2022","10","07","00:00","-3.3","","-5.7","","84","","","","26","","13","","24.1","","101.37","","","","-8","","NA"
"-68.42","58.09","KUUJJUAQ A","7113535","2022-10-07 01:00","2022","10","07","01:00","-3.7","","-5.7","","86","","","","26","","12","","24.1","","101.39","","","","-8","","Mainly Clear"
"-68.42","58.09","KUUJJUAQ A","7113535","2022-10-07 02:00","2022","10","07","02:00","-3.3","","-5.4","","85","","","","26","","12","","24.1","","101.43","","","","-8","","NA"
"-68.42","58.09","KUUJJUAQ A","7113535","2022-10-07 03:00","2022","10","07","03:00","-2.9","","-4.5","","89","","","","25","","12","","24.1","","101.44","","","","-7","","Snow"
"-68.42","58.09","KUUJJUAQ A","7113535","2022-10-07 04:00","2022","10","07","04:00","-3.7","","-5.1","","90","","","","25","","9","","24.1","","101.47","","","","-7","","Mostly Cloudy"
"-68.42","58.09","KUUJJUAQ A","7113535","2022-10-07 05:00","2022","10","07","05:00","-2.6","","-5.5","","80","","","","27","","9","","24.1","","101.49","","","","-6","","NA"
"-68.42","58.09","KUUJJUAQ A","7113535","2022-10-07 06:00","2022","10","07","06:00","-2.1","","-5.3","","79","","","","27","","8","","24.1","","101.52","","","","-5","","NA"
"-68.42","58.09","KUUJJUAQ A","7113535","2022-10-07 07:00","2022","10","07","07:00","-1.5","","-5.1","","76","","","","27","","12","","24.1","","101.52","","","","-6","","Mostly Cloudy"
"-68.42","58.09","KUUJJUAQ A","7113535","2022-10-07 08:00","2022","10","07","08:00","-0.7","","-3.7","","81","","","","32","","13","","24.1","","101.56","","","","-5","","NA"
"-68.42","58.09","KUUJJUAQ A","7113535","2022-10-07 09:00","2022","10","07","09:00","0.1","","-5.8","","65","","","","29","","16","","24.1","","101.55","","","","","","NA"
"-68.42","58.09","KUUJJUAQ A","7113535","2022-10-07 10:00","2022","10","07","10:00","1.1","","-5.7","","61","","","","29","","16","","24.1","","101.52","","","","","","Mostly Cloudy"
"-68.42","58.09","KUUJJUAQ A","7113535","2022-10-07 11:00","2022","10","07","11:00","0.5","","-4.3","","70","","","","29","","18","","19.3","","101.51","","","","","","Rain Showers,Snow Showers"
"-68.42","58.09","KUUJJUAQ A","7113535","2022-10-07 12:00","2022","10","07","12:00","1.3","","-5.8","","59","","","","31","","16","","24.1","","101.48","","","","","","NA"
"-68.42","58.09","KUUJJUAQ A","7113535","2022-10-07 13:00","2022","10","07","13:00","1.6","","-5.8","","58","","","","25","","9","","24.1","","101.46","","","","","","Cloudy"
"-68.42","58.09","KUUJJUAQ A","7113535","2022-10-07 14:00","2022","10","07","14:00","1.4","","-5.5","","60","","","","25","","9","","24.1","","101.44","","","","","","NA"
"-68.42","58.09","KUUJJUAQ A","7113535","2022-10-07 15:00","2022","10","07","15:00","1.3","","-5.8","","59","","","","27","","10","","24.1","","101.41","","","","","","NA"
"-68.42","58.09","KUUJJUAQ A","7113535","2022-10-07 16:00","2022","10","07","16:00","1.1","","-5.3","","62","","","","28","","12","","24.1","","101.38","","","","","","Cloudy"
"-68.42","58.09","KUUJJUAQ A","7113535","2022-10-07 17:00","2022","10","07","17:00","0.5","","-5.1","","66","","","","25","","8","","24.1","","101.36","","","","","","NA"
"-68.42","58.09","KUUJJUAQ A","7113535","2022-10-07 18:00","2022","10","07","18:00","0.6","","-5.5","","64","","","","20","","12","","24.1","","101.35","","","","","","NA"
"-68.42","58.09","KUUJJUAQ A","7113535","2022-10-07 19:00","2022","10","07","19:00","0.5","","-6.1","","61","","","","23","","9","","24.1","","101.31","","","","","","Cloudy"
"-68.42","58.09","KUUJJUAQ A","7113535","2022-10-07 20:00","2022","10","07","20:00","0.4","","-6.1","","62","","","","19","","8","","24.1","","101.28","","","","","","NA"
"-68.42","58.09","KUUJJUAQ A","7113535","2022-10-07 21:00","2022","10","07","21:00","0.4","","-6.1","","62","","","","19","","12","","24.1","","101.22","","","","","","NA"
"-68.42","58.09","KUUJJUAQ A","7113535","2022-10-07 22:00","2022","10","07","22:00","0.3","","-6.0","","63","","","","17","","14","","24.1","","101.20","","","","","","Cloudy"
"-68.42","58.09","KUUJJUAQ A","7113535","2022-10-07 23:00","2022","10","07","23:00","0.2","","-6.1","","63","","","","17","","16","","24.1","","101.12","","","","","","NA"
"-68.42","58.09","KUUJJUAQ A","7113535","2022-10-08 00:00","2022","10","08","00:00","0.0","","-6.5","","62","","","","16","","13","","24.1","","101.05","","","","-4","","NA"
"-68.42","58.09","KUUJJUAQ A","7113535","2022-10-08 01:00","2022","10","08","01:00","-0.2","","-6.8","","61","","","","16","","13","","24.1","","100.96","","","","-4","","Cloudy"
"-68.42","58.09","KUUJJUAQ A","7113535","2022-10-08 02:00","2022","10","08","02:00","-0.4","","-6.5","","64","","","","11","","10","","24.1","","100.87","","","","-4","","NA"
"-68.42","58.09","KUUJJUAQ A","7113535","2022-10-08 03:00","2022","10","08","03:00","-0.7","","-6.8","","63","","","","12","","9","","24.1","","100.83","","","","-4","","NA"
"-68.42","58.09","KUUJJUAQ A","7113535","2022-10-08 04:00","2022","10","08","04:00","-1.0","","-6.8","","65","","","","11","","11","","24.1","","100.75","","","","-5","","Cloudy"
"-68.42","58.09","KUUJJUAQ A","7113535","2022-10-08 05:00","2022","10","08","05:00","-1.1","","-6.3","","68","","","","7","","21","","24.1","","100.62","","","","-7","","NA"
"-68.42","58.09","KUUJJUAQ A","7113535","2022-10-08 06:00","2022","10","08","06:00","-1.3","","-5.6","","72","","","","7","","24","","24.1","","100.50","","","","-7","","NA"
"-68.42","58.09","KUUJJUAQ A","7113535","2022-10-08 07:00","2022","10","08","07:00","-1.5","","-5.8","","73","","","","7","","26","","24.1","","100.41","","","","-8","","Cloudy"
"-68.42","58.09","KUUJJUAQ A","7113535","2022-10-08 08:00","2022","10","08","08:00","-1.5","","-5.5","","74","","","","7","","26","","24.1","","100.32","","","","-8","","NA"
"-68.42","58.09","KUUJJUAQ A","7113535","2022-10-08 09:00","2022","10","08","09:00","-1.3","","-5.6","","72","","","","6","","22","","24.1","","100.22","","","","-7","","NA"
"-68.42","58.09","KUUJJUAQ A","7113535","2022-10-08 10:00","2022","10","08","10:00","-1.2","","-5.5","","73","","","","5","","24","","24.1","","100.06","","","","-7","","Cloudy"
"-68.42","58.09","KUUJJUAQ A","7113535","2022-10-08 11:00","2022","10","08","11:00","-1.8","","-3.6","","88","","","","5","","25","","1.2","","99.96","","","","-8","","Snow,Blowing Snow"
"-68.42","58.09","KUUJJUAQ A","7113535","2022-10-08 12:00","2022","10","08","12:00","-1.5","","-2.1","","96","","","","3","","22","","1.2","","99.82","","","","-7","","Snow,Blowing Snow"
"-68.42","58.09","KUUJJUAQ A","7113535","2022-10-08 13:00","2022","10","08","13:00","-0.9","","-1.5","","96","","","","4","","24","","1.2","","99.67","","","","-7","","Snow,Blowing Snow"
"-68.42","58.09","KUUJJUAQ A","7113535","2022-10-08 14:00","2022","10","08","14:00","-0.8","","-1.2","","97","","","","5","","28","","1.2","","99.56","","","","-7","","Snow,Blowing Snow"
"-68.42","58.09","KUUJJUAQ A","7113535","2022-10-08 15:00","2022","10","08","15:00","-0.5","","-1.0","","97","","","","4","","25","","2.4","","99.48","","","","-7","","Snow,Blowing Snow"
"-68.42","58.09","KUUJJUAQ A","7113535","2022-10-08 16:00","2022","10","08","16:00","-0.4","","-0.8","","97","","","","5","","26","","4.0","","99.41","","","","-7","","Snow,Blowing Snow"
"-68.42","58.09","KUUJJUAQ A","7113535","2022-10-08 17:00","2022","10","08","17:00","-0.3","","-0.7","","97","","","","5","","28","","2.4","","99.36","","","","-7","","Snow,Blowing Snow"
"-68.42","58.09","KUUJJUAQ A","7113535","2022-10-08 18:00","2022","10","08","18:00","-0.2","","-0.4","","99","","","","5","","24","","2.4","","99.31","","","","-6","","Snow,Blowing Snow"
"-68.42","58.09","KUUJJUAQ A","7113535","2022-10-08 19:00","2022","10","08","19:00","-0.2","","-0.3","","99","","","","4","","23","","4.0","","99.26","","","","-6","","Snow,Blowing Snow"
"-68.42","58.09","KUUJJUAQ A","7113535","2022-10-08 20:00","2022","10","08","20:00","-0.1","","-0.1","","100","","","","4","","21","","3.2","","99.22","","","","-6","","Snow,Blowing Snow"
"-68.42","58.09","KUUJJUAQ A","7113535","2022-10-08 21:00","2022","10","08","21:00","-0.1","","-0.1","","100","","","","2","","10","","3.2","","99.18","","","","-3","","Snow"
"-68.42","58.09","KUUJJUAQ A","7113535","2022-10-08 22:00","2022","10","08","22:00","-0.2","","-0.2","","100","","","","36","","7","","3.2","","99.14","","","","-3","","Snow"
"-68.42","58.09","KUUJJUAQ A","7113535","2022-10-08 23:00","2022","10","08","23:00","-0.3","","-0.3","","100","","","","34","","7","","4.0","","99.09","","","","-3","","Snow"
"-68.42","58.09","KUUJJUAQ A","7113535","2022-10-09 00:00","2022","10","09","00:00","0.0","","0.0","","100","","","","33","","13","","3.6","","99.08","","","","-4","","Snow"
"-68.42","58.09","KUUJJUAQ A","7113535","2022-10-09 01:00","2022","10","09","01:00","0.1","","0.1","","100","","","","34","","10","","3.2","","99.04","","","","","","Snow"
"-68.42","58.09","KUUJJUAQ A","7113535","2022-10-09 02:00","2022","10","09","02:00","0.1","","0.1","","100","","","","34","","13","","3.6","","99.03","","","","","","Snow"
"-68.42","58.09","KUUJJUAQ A","7113535","2022-10-09 03:00","2022","10","09","03:00","0.1","","0.1","","100","","","","33","","14","","3.2","","99.02","","","","","","Snow"
"-68.42","58.09","KUUJJUAQ A","7113535","2022-10-09 04:00","2022","10","09","04:00","0.0","","0.0","","100","","","","33","","16","","4.0","","99.02","","","","-5","","Snow"
"-68.42","58.09","KUUJJUAQ A","7113535","2022-10-09 05:00","2022","10","09","05:00","-0.1","","-0.2","","99","","","","33","","17","","6.4","","99.00","","","","-5","","Snow"
"-68.42","58.09","KUUJJUAQ A","7113535","2022-10-09 06:00","2022","10","09","06:00","-0.1","","-0.3","","99","","","","32","","18","","4.8","","99.03","","","","-5","","Snow"
"-68.42","58.09","KUUJJUAQ A","7113535","2022-10-09 07:00","2022","10","09","07:00","0.1","","-0.1","","99","","","","32","","19","","4.8","","99.04","","","","","","Snow"
"-68.42","58.09","KUUJJUAQ A","7113535","2022-10-09 08:00","2022","10","09","08:00","0.3","","0.3","","100","","","","33","","16","","2.4","","99.07","","","","","","Snow"
"-68.42","58.09","KUUJJUAQ A","7113535","2022-10-09 09:00","2022","10","09","09:00","0.5","","0.2","","98","","","","33","","19","","3.2","","99.10","","","","","","Snow"
"-68.42","58.09","KUUJJUAQ A","7113535","2022-10-09 10:00","2022","10","09","10:00","0.7","","0.0","","95","","","","33","","23","","4.8","","99.14","","","","","","Snow"
"-68.42","58.09","KUUJJUAQ A","7113535","2022-10-09 11:00","2022","10","09","11:00","1.0","","-0.2","","92","","","","33","","27","","9.7","","99.20","","","","","","Snow"
"-68.42","58.09","KUUJJUAQ A","7113535","2022-10-09 12:00","2022","10","09","12:00","0.9","","-0.4","","91","","","","34","","29","","3.2","","99.23","","","","","","Snow"
"-68.42","58.09","KUUJJUAQ A","7113535","2022-10-09 13:00","2022","10","09","13:00","0.0","","-0.9","","94","","","","32","","28","","1.6","","99.30","","","","-6","","Snow"
"-68.42","58.09","KUUJJUAQ A","7113535","2022-10-09 14:00","2022","10","09","14:00","-0.3","","-1.7","","90","","","","31","","29","","3.2","","99.38","","","","-7","","Snow"
"-68.42","58.09","KUUJJUAQ A","7113535","2022-10-09 15:00","2022","10","09","15:00","-0.4","","-3.0","","82","","","","31","","22","","24.1","","99.47","","","","-6","","NA"
"-68.42","58.09","KUUJJUAQ A","7113535","2022-10-09 16:00","2022","10","09","16:00","-0.6","","-3.3","","82","","","","31","","22","","24.1","","99.52","","","","-6","","Mostly Cloudy"
"-68.42","58.09","KUUJJUAQ A","7113535","2022-10-09 17:00","2022","10","09","17:00","-0.8","","-3.6","","82","","","","30","","21","","24.1","","99.56","","","","-6","","Snow"
"-68.42","58.09","KUUJJUAQ A","7113535","2022-10-09 18:00","2022","10","09","18:00","-1.4","","-3.5","","86","","","","30","","21","","24.1","","99.58","","","","-7","","Snow"
"-68.42","58.09","KUUJJUAQ A","7113535","2022-10-09 19:00","2022","10","09","19:00","-1.4","","-2.9","","89","","","","30","","20","","24.1","","99.57","","","","-7","","Snow"
"-68.42","58.09","KUUJJUAQ A","7113535","2022-10-09 20:00","2022","10","09","20:00","-1.0","","-2.6","","89","","","","30","","21","","24.1","","99.60","","","","-7","","NA"
"-68.42","58.09","KUUJJUAQ A","7113535","2022-10-09 21:00","2022","10","09","21:00","-1.1","","-3.0","","87","","","","30","","21","","24.1","","99.62","","","","-7","","NA"
"-68.42","58.09","KUUJJUAQ A","7113535","2022-10-09 22:00","2022","10","09","22:00","-0.9","","-2.8","","87","","","","30","","18","","24.1","","99.62","","","","-6","","Snow"
"-68.42","58.09","KUUJJUAQ A","7113535","2022-10-09 23:00","2022","10","09","23:00","-1.0","","-2.9","","87","","","","29","","16","","24.1","","99.65","","","","-6","","Snow"
"-68.42","58.09","KUUJJUAQ A","7113535","2022-10-10 00:00","2022","10","10","00:00","-1.6","","-3.2","","89","","","","30","","20","","24.1","","99.66","","","","-7","","Snow"
"-68.42","58.09","KUUJJUAQ A","7113535","2022-10-10 01:00","2022","10","10","01:00","-1.4","","-3.2","","88","","","","30","","21","","9.7","","99.68","","","","-7","","Snow"
"-68.42","58.09","KUUJJUAQ A","7113535","2022-10-10 02:00","2022","10","10","02:00","-2.1","","-3.6","","89","","","","24","","9","","24.1","","99.69","","","","-6","","NA"
"-68.42","58.09","KUUJJUAQ A","7113535","2022-10-10 03:00","2022","10","10","03:00","-2.4","","-3.4","","93","","","","25","","12","","24.1","","99.70","","","","-7","","NA"
"-68.42","58.09","KUUJJUAQ A","7113535","2022-10-10 04:00","2022","10","10","04:00","-2.3","","-3.5","","91","","","","25","","13","","24.1","","99.70","","","","-7","","Mostly Cloudy"
"-68.42","58.09","KUUJJUAQ A","7113535","2022-10-10 05:00","2022","10","10","05:00","-3.2","","-4.0","","94","","","","25","","9","","24.1","","99.71","","","","-7","","NA"
"-68.42","58.09","KUUJJUAQ A","7113535","2022-10-10 06:00","2022","10","10","06:00","-3.2","","-4.5","","91","","","","21","","12","","24.1","","99.70","","","","-8","","NA"
"-68.42","58.09","KUUJJUAQ A","7113535","2022-10-10 07:00","2022","10","10","07:00","-3.0","","-4.3","","91","","","","20","","11","","24.1","","99.70","","","","-7","","Cloudy"
"-68.42","58.09","KUUJJUAQ A","7113535","2022-10-10 08:00","2022","10","10","08:00","-2.2","","-4.1","","87","","","","20","","9","","24.1","","99.67","","","","-6","","NA"
"-68.42","58.09","KUUJJUAQ A","7113535","2022-10-10 09:00","2022","10","10","09:00","-0.8","","-3.9","","80","","","","22","","15","","24.1","","99.64","","","","-5","","NA"
"-68.42","58.09","KUUJJUAQ A","7113535","2022-10-10 10:00","2022","10","10","10:00","0.0","","-4.7","","71","","","","23","","11","","24.1","","99.60","","","","-4","","Mostly Cloudy"
"-68.42","58.09","KUUJJUAQ A","7113535","2022-10-10 11:00","2022","10","10","11:00","1.0","","-3.6","","71","","","","21","","16","","24.1","","99.53","","","","","","NA"
"-68.42","58.09","KUUJJUAQ A","7113535","2022-10-10 12:00","2022","10","10","12:00","1.4","","-2.8","","73","","","","22","","16","","24.1","","99.48","","","","","","Snow Showers"
"-68.42","58.09","KUUJJUAQ A","7113535","2022-10-10 13:00","2022","10","10","13:00","1.3","","-2.0","","79","","","","21","","16","","9.7","","99.43","","","","","","Snow Showers"
"-68.42","58.09","KUUJJUAQ A","7113535","2022-10-10 14:00","2022","10","10","14:00","1.8","","-1.1","","82","","","","20","","14","","24.1","","99.41","","","","","","NA"
"-68.42","58.09","KUUJJUAQ A","7113535","2022-10-10 15:00","2022","10","10","15:00","1.7","","-0.2","","87","","","","16","","7","","12.9","","99.40","","","","","","Snow Showers"
"-68.42","58.09","KUUJJUAQ A","7113535","2022-10-10 16:00","2022","10","10","16:00","1.9","","-0.6","","83","","","","21","","13","","24.1","","99.39","","","","","","Cloudy"
"-68.42","58.09","KUUJJUAQ A","7113535","2022-10-10 17:00","2022","10","10","17:00","1.4","","-0.1","","90","","","","22","","8","","24.1","","99.41","","","","","","Rain Showers"
"-68.42","58.09","KUUJJUAQ A","7113535","2022-10-10 18:00","2022","10","10","18:00","0.9","","0.4","","97","","","","19","","7","","24.1","","99.43","","","","","","Rain Showers"
"-68.42","58.09","KUUJJUAQ A","7113535","2022-10-10 19:00","2022","10","10","19:00","0.6","","0.4","","98","","","","24","","8","","24.1","","99.42","","","","","","Mostly Cloudy"
"-68.42","58.09","KUUJJUAQ A","7113535","2022-10-10 20:00","2022","10","10","20:00","0.8","","0.7","","99","","","","26","","11","","24.1","","99.42","","","","","","NA"
"-68.42","58.09","KUUJJUAQ A","7113535","2022-10-10 21:00","2022","10","10","21:00","0.6","","0.5","","99","","","","27","","13","","24.1","","99.45","","","","","","NA"
"-68.42","58.09","KUUJJUAQ A","7113535","2022-10-10 22:00","2022","10","10","22:00","0.1","","-0.4","","96","","","","31","","22","","6.4","","99.50","","","","","","Snow"
"-68.42","58.09","KUUJJUAQ A","7113535","2022-10-10 23:00","2022","10","10","23:00","-0.2","","-1.4","","92","","","","31","","17","","24.1","","99.57","","","","-5","","NA"
"-68.42","58.09","KUUJJUAQ A","7113535","2022-10-11 00:00","2022","10","11","00:00","-0.5","","-2.0","","90","","","","29","","15","","24.1","","99.60","","","","-5","","NA"
"-68.42","58.09","KUUJJUAQ A","7113535","2022-10-11 01:00","2022","10","11","01:00","-0.9","","-2.9","","87","","","","29","","17","","24.1","","99.59","","","","-6","","Mostly Cloudy"
"-68.42","58.09","KUUJJUAQ A","7113535","2022-10-11 02:00","2022","10","11","02:00","-2.0","","-3.5","","89","","","","28","","9","","24.1","","99.62","","","","-5","","NA"
"-68.42","58.09","KUUJJUAQ A","7113535","2022-10-11 03:00","2022","10","11","03:00","-3.2","","-3.9","","95","","","","26","","8","","24.1","","99.66","","","","-6","","NA"
"-68.42","58.09","KUUJJUAQ A","7113535","2022-10-11 04:00","2022","10","11","04:00","-3.7","","-4.2","","96","","","","28","","9","","24.1","","99.71","","","","-7","","Mainly Clear"
"-68.42","58.09","KUUJJUAQ A","7113535","2022-10-11 05:00","2022","10","11","05:00","-3.3","","-4.0","","95","","","","32","","16","","24.1","","99.77","","","","-9","","NA"
"-68.42","58.09","KUUJJUAQ A","7113535","2022-10-11 06:00","2022","10","11","06:00","-3.1","","-4.1","","93","","","","32","","17","","24.1","","99.83","","","","-9","","NA"
"-68.42","58.09","KUUJJUAQ A","7113535","2022-10-11 07:00","2022","10","11","07:00","-2.9","","-3.8","","94","","","","32","","16","","24.1","","99.93","","","","-8","","Mostly Cloudy"
"-68.42","58.09","KUUJJUAQ A","7113535","2022-10-11 08:00","2022","10","11","08:00","-1.5","","-2.8","","90","","","","32","","14","","24.1","","100.02","","","","-6","","NA"
"-68.42","58.09","KUUJJUAQ A","7113535","2022-10-11 09:00","2022","10","11","09:00","-0.2","","-2.6","","84","","","","31","","17","","24.1","","100.07","","","","-5","","NA"
"-68.42","58.09","KUUJJUAQ A","7113535","2022-10-11 10:00","2022","10","11","10:00","0.9","","-2.1","","80","","","","31","","21","","24.1","","100.14","","","","","","Mostly Cloudy"
"-68.42","58.09","KUUJJUAQ A","7113535","2022-10-11 11:00","2022","10","11","11:00","2.1","","-2.1","","74","","","","31","","21","","24.1","","100.20","","","","","","NA"
"-68.42","58.09","KUUJJUAQ A","7113535","2022-10-11 12:00","2022","10","11","12:00","1.2","","-1.9","","80","","","","33","","17","","24.1","","100.28","","","","","","NA"
"-68.42","58.09","KUUJJUAQ A","7113535","2022-10-11 13:00","2022","10","11","13:00","1.7","","-2.2","","75","","","","35","","10","","24.1","","100.35","","","","","","Snow Showers"
"-68.42","58.09","KUUJJUAQ A","7113535","2022-10-11 14:00","2022","10","11","14:00","1.9","","-2.6","","72","","","","36","","12","","24.1","","100.42","","","","","","NA"
"-68.42","58.09","KUUJJUAQ A","7113535","2022-10-11 15:00","2022","10","11","15:00","1.3","","-3.0","","73","","","","2","","11","","24.1","","100.49","","","","","","NA"
"-68.42","58.09","KUUJJUAQ A","7113535","2022-10-11 16:00","2022","10","11","16:00","0.9","","-3.8","","71","","","","36","","10","","24.1","","100.59","","","","","","Mostly Cloudy"
"-68.42","58.09","KUUJJUAQ A","7113535","2022-10-11 17:00","2022","10","11","17:00","0.2","","-4.5","","71","","","","36","","12","","24.1","","100.67","","","","","","NA"
"-68.42","58.09","KUUJJUAQ A","7113535","2022-10-11 18:00","2022","10","11","18:00","-0.1","","-4.3","","73","","","","4","","18","","24.1","","100.70","","","","-5","","NA"
"-68.42","58.09","KUUJJUAQ A","7113535","2022-10-11 19:00","2022","10","11","19:00","-0.3","","-4.1","","75","","","","4","","16","","24.1","","100.76","","","","-5","","Mostly Cloudy"
"-68.42","58.09","KUUJJUAQ A","7113535","2022-10-11 20:00","2022","10","11","20:00","-0.4","","-4.2","","76","","","","4","","19","","24.1","","100.80","","","","-6","","NA"
"-68.42","58.09","KUUJJUAQ A","7113535","2022-10-11 21:00","2022","10","11","21:00","-0.4","","-4.4","","74","","","","5","","14","","24.1","","100.85","","","","-5","","NA"
"-68.42","58.09","KUUJJUAQ A","7113535","2022-10-11 22:00","2022","10","11","22:00","-0.3","","-4.1","","76","","","","6","","14","","24.1","","100.83","","","","-5","","Mostly Cloudy"
"-68.42","58.09","KUUJJUAQ A","7113535","2022-10-11 23:00","2022","10","11","23:00","-0.4","","-4.5","","74","","","","18","","8","","24.1","","100.86","","","","-3","","NA"
"-68.42","58.09","KUUJJUAQ A","7113535","2022-10-12 00:00","2022","10","12","00:00","-1.1","","-4.0","","80","","","","33","","14","","24.1","","100.86","","","","-6","","NA"
"-68.42","58.09","KUUJJUAQ A","7113535","2022-10-12 01:00","2022","10","12","01:00","-1.2","","-3.8","","82","","","","34","","4","","24.1","","100.88","","","","-3","","Mostly Cloudy"
"-68.42","58.09","KUUJJUAQ A","7113535","2022-10-12 02:00","2022","10","12","02:00","-0.7","","-3.5","","82","","","","22","","4","","24.1","","100.87","","","","-2","","NA"
"-68.42","58.09","KUUJJUAQ A","7113535","2022-10-12 03:00","2022","10","12","03:00","-0.8","","-3.6","","82","","","","32","","12","","24.1","","100.88","","","","-5","","NA"
"-68.42","58.09","KUUJJUAQ A","7113535","2022-10-12 04:00","2022","10","12","04:00","-1.1","","-3.0","","87","","","","3","","4","","24.1","","100.92","","","","-2","","Cloudy"
"-68.42","58.09","KUUJJUAQ A","7113535","2022-10-12 05:00","2022","10","12","05:00","-1.1","","-3.5","","84","","","","25","","5","","24.1","","100.96","","","","-3","","Snow"
"-68.42","58.09","KUUJJUAQ A","7113535","2022-10-12 06:00","2022","10","12","06:00","-1.4","","-3.6","","85","","","","30","","8","","24.1","","100.98","","","","-4","","NA"
"-68.42","58.09","KUUJJUAQ A","7113535","2022-10-12 07:00","2022","10","12","07:00","-1.1","","-3.8","","82","","","","19","","5","","24.1","","101.01","","","","-3","","Cloudy"
"-68.42","58.09","KUUJJUAQ A","7113535","2022-10-12 08:00","2022","10","12","08:00","-0.8","","-4.0","","79","","","","12","","3","","24.1","","101.04","","","","-2","","NA"
"-68.42","58.09","KUUJJUAQ A","7113535","2022-10-12 09:00","2022","10","12","09:00","-0.1","","-3.8","","76","","","","8","","8","","24.1","","101.05","","","","-3","","NA"
"-68.42","58.09","KUUJJUAQ A","7113535","2022-10-12 10:00","2022","10","12","10:00","0.5","","-5.0","","67","","","","7","","21","","24.1","","101.06","","","","","","Mostly Cloudy"
"-68.42","58.09","KUUJJUAQ A","7113535","2022-10-12 11:00","2022","10","12","11:00","1.1","","-5.0","","64","","","","14","","7","","24.1","","101.07","","","","","","NA"
"-68.42","58.09","KUUJJUAQ A","7113535","2022-10-12 12:00","2022","10","12","12:00","0.9","","-4.8","","65","","","","18","","13","","24.1","","101.07","","","","","","NA"
"-68.42","58.09","KUUJJUAQ A","7113535","2022-10-12 13:00","2022","10","12","13:00","2.1","","-4.1","","64","","","","7","","10","","24.1","","101.05","","","","","","Mainly Clear"
"-68.42","58.09","KUUJJUAQ A","7113535","2022-10-12 14:00","2022","10","12","14:00","2.2","","-4.2","","62","","","","6","","19","","24.1","","101.06","","","","","","NA"
"-68.42","58.09","KUUJJUAQ A","7113535","2022-10-12 15:00","2022","10","12","15:00","2.3","","-4.6","","60","","","","9","","13","","24.1","","101.06","","","","","","NA"
"-68.42","58.09","KUUJJUAQ A","7113535","2022-10-12 16:00","2022","10","12","16:00","1.0","","-4.4","","68","","","","6","","23","","24.1","","101.07","","","","","","Mainly Clear"
"-68.42","58.09","KUUJJUAQ A","7113535","2022-10-12 17:00","2022","10","12","17:00","-0.4","","-4.8","","72","","","","5","","22","","24.1","","101.10","","","","-6","","NA"
"-68.42","58.09","KUUJJUAQ A","7113535","2022-10-12 18:00","2022","10","12","18:00","-1.0","","-4.4","","78","","","","6","","23","","24.1","","101.14","","","","-7","","NA"
"-68.42","58.09","KUUJJUAQ A","7113535","2022-10-12 19:00","2022","10","12","19:00","-1.3","","-4.7","","78","","","","6","","22","","24.1","","101.21","","","","-7","","Mainly Clear"
"-68.42","58.09","KUUJJUAQ A","7113535","2022-10-12 20:00","2022","10","12","20:00","-1.9","","-4.8","","81","","","","6","","23","","24.1","","101.24","","","","-8","","NA"
"-68.42","58.09","KUUJJUAQ A","7113535","2022-10-12 21:00","2022","10","12","21:00","-2.3","","-5.0","","82","","","","8","","13","","24.1","","101.27","","","","-7","","NA"
"-68.42","58.09","KUUJJUAQ A","7113535","2022-10-12 22:00","2022","10","12","22:00","-2.7","","-5.7","","79","","","","8","","11","","24.1","","101.27","","","","-7","","Clear"
"-68.42","58.09","KUUJJUAQ A","7113535","2022-10-12 23:00","2022","10","12","23:00","-3.0","","-6.2","","78","","","","9","","8","","24.1","","101.27","","","","-6","","NA"
"-68.42","58.09","KUUJJUAQ A","7113535","2022-10-13 00:00","2022","10","13","00:00","-3.1","","-6.3","","78","","","","9","","17","","24.1","","101.23","","","","-9","","NA"
"-68.42","58.09","KUUJJUAQ A","7113535","2022-10-13 01:00","2022","10","13","01:00","-3.3","","-6.2","","81","","","","9","","10","","24.1","","101.21","","","","-7","","Clear"
"-68.42","58.09","KUUJJUAQ A","7113535","2022-10-13 02:00","2022","10","13","02:00","-3.4","","-6.1","","82","","","","10","","10","","24.1","","101.20","","","","-7","","NA"
"-68.42","58.09","KUUJJUAQ A","7113535","2022-10-13 03:00","2022","10","13","03:00","-3.4","","-5.9","","83","","","","7","","17","","24.1","","101.21","","","","-9","","NA"
"-68.42","58.09","KUUJJUAQ A","7113535","2022-10-13 04:00","2022","10","13","04:00","-3.3","","-5.8","","83","","","","9","","14","","24.1","","101.22","","","","-8","","Clear"
"-68.42","58.09","KUUJJUAQ A","7113535","2022-10-13 05:00","2022","10","13","05:00","-4.8","","-6.4","","88","","","","10","","10","","24.1","","101.25","","","","-9","","NA"
"-68.42","58.09","KUUJJUAQ A","7113535","2022-10-13 06:00","2022","10","13","06:00","-5.6","","-5.9","","98","","","","11","","11","","4.8","","101.27","","","","-10","","Fog"
"-68.42","58.09","KUUJJUAQ A","7113535","2022-10-13 07:00","2022","10","13","07:00","-4.1","","-4.3","","99","","","","5","","20","","11.3","","101.28","","","","-10","","Cloudy"
"-68.42","58.09","KUUJJUAQ A","7113535","2022-10-13 08:00","2022","10","13","08:00","-2.9","","-3.8","","94","","","","6","","10","","12.9","","101.29","","","","-7","","NA"
"-68.42","58.09","KUUJJUAQ A","7113535","2022-10-13 09:00","2022","10","13","09:00","-1.5","","-1.8","","98","","","","8","","10","","6.4","","101.29","","","","-5","","Fog"
"-68.42","58.09","KUUJJUAQ A","7113535","2022-10-13 10:00","2022","10","13","10:00","-0.3","","-1.1","","95","","","","6","","23","","8.1","","101.29","","","","-6","","Fog"
"-68.42","58.09","KUUJJUAQ A","7113535","2022-10-13 11:00","2022","10","13","11:00","1.0","","-0.7","","89","","","","7","","20","","19.3","","101.29","","","","","","NA"
"-68.42","58.09","KUUJJUAQ A","7113535","2022-10-13 12:00","2022","10","13","12:00","2.1","","0.0","","86","","","","11","","13","","19.3","","101.28","","","","","","NA"
"-68.42","58.09","KUUJJUAQ A","7113535","2022-10-13 13:00","2022","10","13","13:00","2.8","","0.3","","84","","","","9","","16","","24.1","","101.28","","","","","","Cloudy"
"-68.42","58.09","KUUJJUAQ A","7113535","2022-10-13 14:00","2022","10","13","14:00","3.7","","0.8","","81","","","","10","","13","","24.1","","101.28","","","","","","NA"
"-68.42","58.09","KUUJJUAQ A","7113535","2022-10-13 15:00","2022","10","13","15:00","4.2","","1.1","","80","","","","10","","11","","24.1","","101.30","","","","","","NA"
"-68.42","58.09","KUUJJUAQ A","7113535","2022-10-13 16:00","2022","10","13","16:00","3.8","","0.9","","82","","","","6","","20","","24.1","","101.28","","","","","","Mainly Clear"
"-68.42","58.09","KUUJJUAQ A","7113535","2022-10-13 17:00","2022","10","13","17:00","2.4","","0.4","","87","","","","5","","21","","24.1","","101.31","","","","","","NA"
"-68.42","58.09","KUUJJUAQ A","7113535","2022-10-13 18:00","2022","10","13","18:00","2.4","","1.1","","91","","","","10","","13","","24.1","","101.39","","","","","","NA"
"-68.42","58.09","KUUJJUAQ A","7113535","2022-10-13 19:00","2022","10","13","19:00","2.3","","1.4","","94","","","","8","","8","","24.1","","101.42","","","","","","Mostly Cloudy"
"-68.42","58.09","KUUJJUAQ A","7113535","2022-10-13 20:00","2022","10","13","20:00","1.8","","1.4","","97","","","","7","","9","","24.1","","101.47","","","","","","NA"
"-68.42","58.09","KUUJJUAQ A","7113535","2022-10-13 21:00","2022","10","13","21:00","2.0","","1.6","","98","","","","5","","19","","24.1","","101.49","","","","","","NA"
"-68.42","58.09","KUUJJUAQ A","7113535","2022-10-13 22:00","2022","10","13","22:00","3.2","","3.0","","98","","","","10","","12","","24.1","","101.50","","","","","","Mostly Cloudy"
"-68.42","58.09","KUUJJUAQ A","7113535","2022-10-13 23:00","2022","10","13","23:00","3.2","","3.1","","99","","","","8","","13","","24.1","","101.47","","","","","","NA"
"-68.42","58.09","KUUJJUAQ A","7113535","2022-10-14 00:00","2022","10","14","00:00","3.4","","3.4","","100","","","","12","","7","","24.1","","101.52","","","","","","NA"
"-68.42","58.09","KUUJJUAQ A","7113535","2022-10-14 01:00","2022","10","14","01:00","3.5","","3.3","","99","","","","11","","7","","24.1","","101.51","","","","","","Cloudy"
"-68.42","58.09","KUUJJUAQ A","7113535","2022-10-14 02:00","2022","10","14","02:00","3.2","","2.9","","98","","","","8","","9","","24.1","","101.48","","","","","","NA"
"-68.42","58.09","KUUJJUAQ A","7113535","2022-10-14 03:00","2022","10","14","03:00","2.4","","2.4","","100","","","","8","","11","","24.1","","101.47","","","","","","NA"
"-68.42","58.09","KUUJJUAQ A","7113535","2022-10-14 04:00","2022","10","14","04:00","3.4","","3.0","","97","","","","11","","8","","24.1","","101.50","","","","","","Mostly Cloudy"
"-68.42","58.09","KUUJJUAQ A","7113535","2022-10-14 05:00","2022","10","14","05:00","3.8","","3.5","","98","","","","15","","9","","24.1","","101.50","","","","","","NA"
"-68.42","58.09","KUUJJUAQ A","7113535","2022-10-14 06:00","2022","10","14","06:00","3.8","","3.6","","99","","","","9","","9","","19.3","","101.50","","","","","","NA"
"-68.42","58.09","KUUJJUAQ A","7113535","2022-10-14 07:00","2022","10","14","07:00","4.1","","3.7","","97","","","","11","","8","","24.1","","101.59","","","","","","Cloudy"
"-68.42","58.09","KUUJJUAQ A","7113535","2022-10-14 08:00","2022","10","14","08:00","4.6","","4.1","","96","","","","12","","8","","24.1","","101.64","","","","","","NA"
"-68.42","58.09","KUUJJUAQ A","7113535","2022-10-14 09:00","2022","10","14","09:00","5.5","","4.5","","94","","","","10","","8","","24.1","","101.59","","","","","","NA"
"-68.42","58.09","KUUJJUAQ A","7113535","2022-10-14 10:00","2022","10","14","10:00","6.3","","4.9","","91","","","","11","","10","","24.1","","101.54","","","","","","Cloudy"
"-68.42","58.09","KUUJJUAQ A","7113535","2022-10-14 11:00","2022","10","14","11:00","6.9","","5.3","","90","","","","13","","11","","24.1","","101.52","","","","","","NA"
"-68.42","58.09","KUUJJUAQ A","7113535","2022-10-14 12:00","2022","10","14","12:00","7.8","","5.7","","86","","","","14","","9","","24.1","","101.50","","","","","","NA"
"-68.42","58.09","KUUJJUAQ A","7113535","2022-10-14 13:00","2022","10","14","13:00","8.5","","6.1","","85","","","","15","","12","","24.1","","101.47","","","","","","Mostly Cloudy"
"-68.42","58.09","KUUJJUAQ A","7113535","2022-10-14 14:00","2022","10","14","14:00","9.5","","6.3","","80","","","","11","","8","","24.1","","101.40","","","","","","NA"
"-68.42","58.09","KUUJJUAQ A","7113535","2022-10-14 15:00","2022","10","14","15:00","10.1","","6.6","","79","","","","11","","10","","24.1","","101.34","","","","","","NA"
"-68.42","58.09","KUUJJUAQ A","7113535","2022-10-14 16:00","2022","10","14","16:00","9.9","","6.9","","81","","","","11","","11","","24.1","","101.32","","","","","","Mostly Cloudy"
"-68.42","58.09","KUUJJUAQ A","7113535","2022-10-14 17:00","2022","10","14","17:00","10.4","","7.3","","81","","","","9","","7","","24.1","","101.32","","","","","","NA"
"-68.42","58.09","KUUJJUAQ A","7113535","2022-10-14 18:00","2022","10","14","18:00","11.2","","7.4","","77","","","","12","","5","","24.1","","101.35","","","","","","NA"
"-68.42","58.09","KUUJJUAQ A","7113535","2022-10-14 19:00","2022","10","14","19:00","11.7","","7.2","","74","","","","17","","10","","24.1","","101.34","","","","","","Mostly Cloudy"
"-68.42","58.09","KUUJJUAQ A","7113535","2022-10-14 20:00","2022","10","14","20:00","12.2","","7.2","","71","","","","15","","12","","24.1","","101.31","","","","","","NA"
"-68.42","58.09","KUUJJUAQ A","7113535","2022-10-14 21:00","2022","10","14","21:00","11.7","","7.4","","75","","","","8","","10","","24.1","","101.28","","","","","","NA"
"-68.42","58.09","KUUJJUAQ A","7113535","2022-10-14 22:00","2022","10","14","22:00","11.5","","7.6","","77","","","","16","","11","","24.1","","101.23","","","","","","Mostly Cloudy"
"-68.42","58.09","KUUJJUAQ A","7113535","2022-10-14 23:00","2022","10","14","23:00","11.9","","7.8","","75","","","","16","","11","","24.1","","101.21","","","","","","NA"
"-68.42","58.09","KUUJJUAQ A","7113535","2022-10-15 00:00","2022","10","15","00:00","12.1","","8.0","","76","","","","8","","11","","24.1","","101.20","","","","","","NA"
"-68.42","58.09","KUUJJUAQ A","7113535","2022-10-15 01:00","2022","10","15","01:00","13.4","","8.4","","72","","","","9","","7","","24.1","","101.21","","","","","","Mostly Cloudy"
"-68.42","58.09","KUUJJUAQ A","7113535","2022-10-15 02:00","2022","10","15","02:00","13.2","","10.0","","80","","","","20","","5","","24.1","","101.19","","","","","","NA"
"-68.42","58.09","KUUJJUAQ A","7113535","2022-10-15 03:00","2022","10","15","03:00","13.4","","10.9","","85","","","","20","","13","","24.1","","101.19","","","","","","NA"
"-68.42","58.09","KUUJJUAQ A","7113535","2022-10-15 04:00","2022","10","15","04:00","12.6","","10.8","","89","","","","18","","16","","24.1","","101.17","","","","","","Cloudy"
"-68.42","58.09","KUUJJUAQ A","7113535","2022-10-15 05:00","2022","10","15","05:00","12.1","","9.4","","84","","","","19","","17","","24.1","","101.17","","","","","","NA"
"-68.42","58.09","KUUJJUAQ A","7113535","2022-10-15 06:00","2022","10","15","06:00","12.1","","9.8","","85","","","","20","","13","","24.1","","101.19","","","","","","NA"
"-68.42","58.09","KUUJJUAQ A","7113535","2022-10-15 07:00","2022","10","15","07:00","12.5","","10.4","","87","","","","27","","9","","24.1","","101.23","","","","","","Mostly Cloudy"
"-68.42","58.09","KUUJJUAQ A","7113535","2022-10-15 08:00","2022","10","15","08:00","12.7","","10.6","","87","","","","28","","8","","24.1","","101.25","","","","","","NA"
"-68.42","58.09","KUUJJUAQ A","7113535","2022-10-15 09:00","2022","10","15","09:00","13.1","","10.6","","85","","","","19","","11","","24.1","","101.20","","","","","","NA"
"-68.42","58.09","KUUJJUAQ A","7113535","2022-10-15 10:00","2022","10","15","10:00","13.8","","10.6","","81","","","","21","","4","","24.1","","101.16","","","","","","Mostly Cloudy"
"-68.42","58.09","KUUJJUAQ A","7113535","2022-10-15 11:00","2022","10","15","11:00","13.9","","10.5","","80","","","","7","","3","","24.1","","101.14","","","","","","NA"
"-68.42","58.09","KUUJJUAQ A","7113535","2022-10-15 12:00","2022","10","15","12:00","13.6","","10.7","","82","","","","7","","8","","24.1","","101.08","","","","","","NA"
"-68.42","58.09","KUUJJUAQ A","7113535","2022-10-15 13:00","2022","10","15","13:00","11.4","","11.4","","100","","","","5","","16","","3.6","","101.05","","","","","","Rain,Fog"
"-68.42","58.09","KUUJJUAQ A","7113535","2022-10-15 14:00","2022","10","15","14:00","12.5","","12.5","","100","","","","3","","17","","4.8","","100.96","","","","","","Drizzle,Fog"
"-68.42","58.09","KUUJJUAQ A","7113535","2022-10-15 15:00","2022","10","15","15:00","12.3","","12.3","","100","","","","5","","19","","3.2","","100.91","","","","","","Moderate Rain,Fog"
"-68.42","58.09","KUUJJUAQ A","7113535","2022-10-15 16:00","2022","10","15","16:00","11.9","","11.9","","100","","","","5","","19","","3.2","","100.85","","","","","","Rain,Fog"
"-68.42","58.09","KUUJJUAQ A","7113535","2022-10-15 17:00","2022","10","15","17:00","11.4","","11.4","","100","","","","5","","20","","3.2","","100.76","","","","","","Rain,Fog"
"-68.42","58.09","KUUJJUAQ A","7113535","2022-10-15 18:00","2022","10","15","18:00","11.1","","11.1","","100","","","","7","","10","","9.7","","100.67","","","","","","Rain,Fog"
"-68.42","58.09","KUUJJUAQ A","7113535","2022-10-15 19:00","2022","10","15","19:00","11.0","","11.0","","100","","","","8","","8","","9.7","","100.57","","","","","","Rain,Fog"
"-68.42","58.09","KUUJJUAQ A","7113535","2022-10-15 20:00","2022","10","15","20:00","10.9","","10.9","","100","","","","8","","8","","6.4","","100.47","","","","","","Rain,Fog"
"-68.42","58.09","KUUJJUAQ A","7113535","2022-10-15 21:00","2022","10","15","21:00","10.8","","10.8","","100","","","","11","","8","","9.7","","100.37","","","","","","Rain,Fog"
"-68.42","58.09","KUUJJUAQ A","7113535","2022-10-15 22:00","2022","10","15","22:00","10.6","","10.6","","100","","","","14","","8","","16.1","","100.27","","","","","","Rain"
"-68.42","58.09","KUUJJUAQ A","7113535","2022-10-15 23:00","2022","10","15","23:00","10.6","","10.3","","98","","","","13","","9","","24.1","","100.16","","","","","","Rain"
"-68.42","58.09","KUUJJUAQ A","7113535","2022-10-16 00:00","2022","10","16","00:00","10.3","","10.1","","99","","","","15","","9","","24.1","","100.09","","","","","","NA"
"-68.42","58.09","KUUJJUAQ A","7113535","2022-10-16 01:00","2022","10","16","01:00","10.0","","9.7","","98","","","","15","","10","","24.1","","100.01","","","","","","Cloudy"
"-68.42","58.09","KUUJJUAQ A","7113535","2022-10-16 02:00","2022","10","16","02:00","10.2","","9.7","","97","","","","16","","18","","24.1","","99.92","","","","","","NA"
"-68.42","58.09","KUUJJUAQ A","7113535","2022-10-16 03:00","2022","10","16","03:00","10.0","","9.4","","96","","","","17","","17","","24.1","","99.86","","","","","","NA"
"-68.42","58.09","KUUJJUAQ A","7113535","2022-10-16 04:00","2022","10","16","04:00","9.8","","9.1","","95","","","","17","","21","","24.1","","99.78","","","","","","Mostly Cloudy"
"-68.42","58.09","KUUJJUAQ A","7113535","2022-10-16 05:00","2022","10","16","05:00","10.0","","8.9","","93","","","","18","","22","","24.1","","99.75","","","","","","NA"
"-68.42","58.09","KUUJJUAQ A","7113535","2022-10-16 06:00","2022","10","16","06:00","9.9","","8.7","","92","","","","19","","23","","24.1","","99.74","","","","","","NA"
"-68.42","58.09","KUUJJUAQ A","7113535","2022-10-16 07:00","2022","10","16","07:00","10.3","","8.8","","90","","","","18","","24","","24.1","","99.83","","","","","","Mostly Cloudy"
"-68.42","58.09","KUUJJUAQ A","7113535","2022-10-16 08:00","2022","10","16","08:00","11.7","","8.4","","80","","","","19","","21","","24.1","","99.89","","","","","","NA"
"-68.42","58.09","KUUJJUAQ A","7113535","2022-10-16 09:00","2022","10","16","09:00","12.3","","7.0","","70","","","","20","","24","","24.1","","99.91","","","","","","NA"
"-68.42","58.09","KUUJJUAQ A","7113535","2022-10-16 10:00","2022","10","16","10:00","13.6","","6.8","","64","","","","20","","21","","24.1","","99.91","","","","","","Mainly Clear"
"-68.42","58.09","KUUJJUAQ A","7113535","2022-10-16 11:00","2022","10","16","11:00","14.0","","5.7","","57","","","","20","","26","","24.1","","99.89","","","","","","NA"
"-68.42","58.09","KUUJJUAQ A","7113535","2022-10-16 12:00","2022","10","16","12:00","14.1","","4.6","","52","","","","18","","21","","24.1","","99.85","","","","","","NA"
"-68.42","58.09","KUUJJUAQ A","7113535","2022-10-16 13:00","2022","10","16","13:00","13.1","","4.3","","55","","","","20","","30","","24.1","","99.90","","","","","","Mostly Cloudy"
"-68.42","58.09","KUUJJUAQ A","7113535","2022-10-16 14:00","2022","10","16","14:00","13.3","","3.6","","51","","","","20","","27","","24.1","","99.92","","","","","","NA"
"-68.42","58.09","KUUJJUAQ A","7113535","2022-10-16 15:00","2022","10","16","15:00","12.3","","4.4","","59","","","","23","","16","","24.1","","99.95","","","","","","NA"
"-68.42","58.09","KUUJJUAQ A","7113535","2022-10-16 16:00","2022","10","16","16:00","11.0","","4.3","","63","","","","22","","13","","24.1","","100.00","","","","","","Mainly Clear"
"-68.42","58.09","KUUJJUAQ A","7113535","2022-10-16 17:00","2022","10","16","17:00","9.4","","2.3","","61","","","","20","","22","","24.1","","100.07","","","","","","NA"
"-68.42","58.09","KUUJJUAQ A","7113535","2022-10-16 18:00","2022","10","16","18:00","7.8","","1.6","","64","","","","21","","12","","24.1","","100.13","","","","","","NA"
"-68.42","58.09","KUUJJUAQ A","7113535","2022-10-16 19:00","2022","10","16","19:00","6.7","","1.1","","67","","","","21","","8","","24.1","","100.17","","","","","","Mainly Clear"
"-68.42","58.09","KUUJJUAQ A","7113535","2022-10-16 20:00","2022","10","16","20:00","5.5","","0.9","","72","","","","22","","11","","24.1","","100.22","","","","","","NA"
"-68.42","58.09","KUUJJUAQ A","7113535","2022-10-16 21:00","2022","10","16","21:00","5.0","","1.3","","77","","","","23","","7","","24.1","","100.26","","","","","","NA"
"-68.42","58.09","KUUJJUAQ A","7113535","2022-10-16 22:00","2022","10","16","22:00","5.6","","1.7","","76","","","","20","","12","","24.1","","100.28","","","","","","Mostly Cloudy"
"-68.42","58.09","KUUJJUAQ A","7113535","2022-10-16 23:00","2022","10","16","23:00","4.4","","0.8","","77","","","","25","","11","","24.1","","100.32","","","","","","NA"
"-68.42","58.09","KUUJJUAQ A","7113535","2022-10-17 00:00","2022","10","17","00:00","4.8","","1.4","","78","","","","20","","16","","24.1","","100.37","","","","","","NA"
"-68.42","58.09","KUUJJUAQ A","7113535","2022-10-17 01:00","2022","10","17","01:00","5.2","","1.8","","78","","","","19","","15","","24.1","","100.44","","","","","","Mainly Clear"
"-68.42","58.09","KUUJJUAQ A","7113535","2022-10-17 02:00","2022","10","17","02:00","4.1","","1.3","","82","","","","22","","8","","24.1","","100.49","","","","","","NA"
"-68.42","58.09","KUUJJUAQ A","7113535","2022-10-17 03:00","2022","10","17","03:00","3.4","","1.4","","87","","","","22","","7","","24.1","","100.57","","","","","","NA"
"-68.42","58.09","KUUJJUAQ A","7113535","2022-10-17 04:00","2022","10","17","04:00","3.0","","1.5","","89","","","","28","","9","","24.1","","100.66","","","","","","Mainly Clear"
"-68.42","58.09","KUUJJUAQ A","7113535","2022-10-17 05:00","2022","10","17","05:00","3.2","","2.1","","93","","","","27","","9","","24.1","","100.76","","","","","","NA"
"-68.42","58.09","KUUJJUAQ A","7113535","2022-10-17 06:00","2022","10","17","06:00","2.2","","2.2","","100","","","","28","","12","","24.1","","100.86","","","","","","NA"
"-68.42","58.09","KUUJJUAQ A","7113535","2022-10-17 07:00","2022","10","17","07:00","2.9","","2.9","","100","","","","28","","9","","24.1","","100.96","","","","","","Mostly Cloudy"
"-68.42","58.09","KUUJJUAQ A","7113535","2022-10-17 08:00","2022","10","17","08:00","4.5","","3.7","","95","","","","31","","11","","24.1","","101.01","","","","","","NA"
"-68.42","58.09","KUUJJUAQ A","7113535","2022-10-17 09:00","2022","10","17","09:00","5.5","","3.1","","84","","","","3","","7","","24.1","","101.07","","","","","","NA"
"-68.42","58.09","KUUJJUAQ A","7113535","2022-10-17 10:00","2022","10","17","10:00","5.9","","2.0","","76","","","","35","","4","","24.1","","101.13","","","","","","Mostly Cloudy"
"-68.42","58.09","KUUJJUAQ A","7113535","2022-10-17 11:00","2022","10","17","11:00","6.4","","2.0","","73","","","","14","","7","","24.1","","101.15","","","","","","NA"
"-68.42","58.09","KUUJJUAQ A","7113535","2022-10-17 12:00","2022","10","17","12:00","6.8","","2.0","","71","","","","11","","9","","24.1","","101.18","","","","","","NA"
"-68.42","58.09","KUUJJUAQ A","7113535","2022-10-17 13:00","2022","10","17","13:00","6.8","","2.0","","72","","","","16","","3","","24.1","","101.21","","","","","","Mostly Cloudy"
"-68.42","58.09","KUUJJUAQ A","7113535","2022-10-17 14:00","2022","10","17","14:00","6.8","","2.2","","72","","","","4","","14","","24.1","","101.23","","","","","","NA"
"-68.42","58.09","KUUJJUAQ A","7113535","2022-10-17 15:00","2022","10","17","15:00","7.2","","1.7","","68","","","","2","","7","","24.1","","101.26","","","","","","NA"
"-68.42","58.09","KUUJJUAQ A","7113535","2022-10-17 16:00","2022","10","17","16:00","6.7","","1.4","","69","","","","1","","8","","24.1","","101.30","","","","","","Mostly Cloudy"
"-68.42","58.09","KUUJJUAQ A","7113535","2022-10-17 17:00","2022","10","17","17:00","5.6","","2.5","","81","","","","4","","21","","24.1","","101.36","","","","","","NA"
"-68.42","58.09","KUUJJUAQ A","7113535","2022-10-17 18:00","2022","10","17","18:00","4.8","","2.6","","86","","","","3","","16","","24.1","","101.39","","","","","","Rain"
"-68.42","58.09","KUUJJUAQ A","7113535","2022-10-17 19:00","2022","10","17","19:00","4.2","","2.5","","89","","","","35","","5","","24.1","","101.42","","","","","","Cloudy"
"-68.42","58.09","KUUJJUAQ A","7113535","2022-10-17 20:00","2022","10","17","20:00","3.3","","2.4","","94","","","","34","","8","","24.1","","101.42","","","","","","NA"
"-68.42","58.09","KUUJJUAQ A","7113535","2022-10-17 21:00","2022","10","17","21:00","1.8","","1.7","","99","","","","35","","9","","24.1","","101.44","","","","","","NA"
"-68.42","58.09","KUUJJUAQ A","7113535","2022-10-17 22:00","2022","10","17","22:00","2.6","","2.6","","100","","","","36","","9","","24.1","","101.44","","","","","","Mostly Cloudy"
"-68.42","58.09","KUUJJUAQ A","7113535","2022-10-17 23:00","2022","10","17","23:00","1.6","","1.6","","100","","","","32","","14","","24.1","","101.49","","","","","","NA"
"-68.42","58.09","KUUJJUAQ A","7113535","2022-10-18 00:00","2022","10","18","00:00","2.9","","2.5","","97","","","","2","","18","","24.1","","101.52","","","","","","NA"
"-68.42","58.09","KUUJJUAQ A","7113535","2022-10-18 01:00","2022","10","18","01:00","2.5","","1.5","","93","","","","3","","26","","24.1","","101.55","","","","","","Mostly Cloudy"
"-68.42","58.09","KUUJJUAQ A","7113535","2022-10-18 02:00","2022","10","18","02:00","2.0","","1.3","","95","","","","2","","19","","16.1","","101.58","","","","","","Drizzle"
"-68.42","58.09","KUUJJUAQ A","7113535","2022-10-18 03:00","2022","10","18","03:00","1.7","","0.9","","95","","","","1","","16","","24.1","","101.65","","","","","","Drizzle"
"-68.42","58.09","KUUJJUAQ A","7113535","2022-10-18 04:00","2022","10","18","04:00","1.0","","0.5","","97","","","","1","","22","","9.7","","101.70","","","","","","Drizzle,Snow,Fog"
"-68.42","58.09","KUUJJUAQ A","7113535","2022-10-18 05:00","2022","10","18","05:00","0.4","","-0.3","","95","","","","1","","16","","19.3","","101.74","","","","","","Snow"
"-68.42","58.09","KUUJJUAQ A","7113535","2022-10-18 06:00","2022","10","18","06:00","0.3","","-0.6","","94","","","","2","","15","","4.0","","101.81","","","","","","Snow"
"-68.42","58.09","KUUJJUAQ A","7113535","2022-10-18 07:00","2022","10","18","07:00","0.0","","-0.4","","97","","","","36","","14","","3.2","","101.88","","","","-4","","Snow"
"-68.42","58.09","KUUJJUAQ A","7113535","2022-10-18 08:00","2022","10","18","08:00","0.1","","-0.6","","95","","","","36","","15","","6.4","","101.93","","","","","","Snow"
"-68.42","58.09","KUUJJUAQ A","7113535","2022-10-18 09:00","2022","10","18","09:00","0.2","","-2.5","","82","","","","1","","19","","16.1","","101.97","","","","","","NA"
"-68.42","58.09","KUUJJUAQ A","7113535","2022-10-18 10:00","2022","10","18","10:00","0.9","","-2.2","","79","","","","36","","21","","24.1","","102.00","","","","","","Cloudy"
"-68.42","58.09","KUUJJUAQ A","7113535","2022-10-18 11:00","2022","10","18","11:00","1.2","","-2.3","","78","","","","2","","17","","24.1","","102.05","","","","","","NA"
"-68.42","58.09","KUUJJUAQ A","7113535","2022-10-18 12:00","2022","10","18","12:00","1.2","","-3.1","","73","","","","36","","19","","24.1","","102.13","","","","","","NA"
"-68.42","58.09","KUUJJUAQ A","7113535","2022-10-18 13:00","2022","10","18","13:00","1.3","","-2.9","","73","","","","1","","15","","24.1","","102.15","","","","","","Cloudy"
"-68.42","58.09","KUUJJUAQ A","7113535","2022-10-18 14:00","2022","10","18","14:00","1.4","","-2.7","","74","","","","36","","19","","24.1","","102.14","","","","","","NA"
"-68.42","58.09","KUUJJUAQ A","7113535","2022-10-18 15:00","2022","10","18","15:00","1.1","","-3.2","","73","","","","1","","19","","24.1","","102.12","","","","","","NA"
"-68.42","58.09","KUUJJUAQ A","7113535","2022-10-18 16:00","2022","10","18","16:00","0.6","","-3.3","","75","","","","36","","16","","24.1","","102.21","","","","","","Cloudy"
"-68.42","58.09","KUUJJUAQ A","7113535","2022-10-18 17:00","2022","10","18","17:00","0.1","","-2.2","","85","","","","33","","16","","19.3","","102.27","","","","","","Snow Showers"
"-68.42","58.09","KUUJJUAQ A","7113535","2022-10-18 18:00","2022","10","18","18:00","0.2","","-1.2","","90","","","","35","","16","","24.1","","102.31","","","","","","Snow Showers"
"-68.42","58.09","KUUJJUAQ A","7113535","2022-10-18 19:00","2022","10","18","19:00","-0.2","","-0.2","","100","","","","1","","16","","3.2","","102.34","","","","-5","","Snow"
"-68.42","58.09","KUUJJUAQ A","7113535","2022-10-18 20:00","2022","10","18","20:00","0.0","","-0.4","","97","","","","36","","15","","9.7","","102.40","","","","-4","","Snow"
"-68.42","58.09","KUUJJUAQ A","7113535","2022-10-18 21:00","2022","10","18","21:00","-0.4","","-0.7","","98","","","","36","","16","","6.4","","102.39","","","","-5","","Snow"
"-68.42","58.09","KUUJJUAQ A","7113535","2022-10-18 22:00","2022","10","18","22:00","-0.6","","-0.7","","99","","","","36","","16","","3.2","","102.32","","","","-5","","Snow"
"-68.42","58.09","KUUJJUAQ A","7113535","2022-10-18 23:00","2022","10","18","23:00","-0.6","","-0.8","","98","","","","36","","14","","24.1","","102.33","","","","-5","","Snow"
"-68.42","58.09","KUUJJUAQ A","7113535","2022-10-19 00:00","2022","10","19","00:00","-0.4","","-0.8","","98","","","","1","","16","","19.3","","102.33","","","","-5","","Snow"
"-68.42","58.09","KUUJJUAQ A","7113535","2022-10-19 01:00","2022","10","19","01:00","-0.2","","-1.0","","94","","","","3","","22","","24.1","","102.35","","","","-6","","Snow"
"-68.42","58.09","KUUJJUAQ A","7113535","2022-10-19 02:00","2022","10","19","02:00","-0.3","","-1.4","","93","","","","3","","20","","24.1","","102.32","","","","-6","","Snow"
"-68.42","58.09","KUUJJUAQ A","7113535","2022-10-19 03:00","2022","10","19","03:00","0.0","","-0.3","","98","","","","3","","20","","24.1","","102.32","","","","-5","","Snow"
"-68.42","58.09","KUUJJUAQ A","7113535","2022-10-19 04:00","2022","10","19","04:00","-0.3","","-0.7","","97","","","","3","","26","","24.1","","102.24","","","","-6","","Snow"
"-68.42","58.09","KUUJJUAQ A","7113535","2022-10-19 05:00","2022","10","19","05:00","-0.2","","-0.6","","97","","","","4","","21","","19.3","","102.20","","","","-6","","Snow"
"-68.42","58.09","KUUJJUAQ A","7113535","2022-10-19 06:00","2022","10","19","06:00","0.0","","-0.9","","94","","","","4","","23","","11.3","","102.15","","","","-6","","NA"
"-68.42","58.09","KUUJJUAQ A","7113535","2022-10-19 07:00","2022","10","19","07:00","0.6","","-1.0","","89","","","","4","","27","","24.1","","102.12","","","","","","Cloudy"
"-68.42","58.09","KUUJJUAQ A","7113535","2022-10-19 08:00","2022","10","19","08:00","1.2","","-0.1","","91","","","","4","","25","","24.1","","102.02","","","","","","NA"
"-68.42","58.09","KUUJJUAQ A","7113535","2022-10-19 09:00","2022","10","19","09:00","2.2","","1.2","","93","","","","5","","30","","24.1","","101.97","","","","","","NA"
"-68.42","58.09","KUUJJUAQ A","7113535","2022-10-19 10:00","2022","10","19","10:00","2.8","","1.0","","88","","","","5","","27","","24.1","","101.85","","","","","","Mostly Cloudy"
"-68.42","58.09","KUUJJUAQ A","7113535","2022-10-19 11:00","2022","10","19","11:00","4.3","","1.1","","80","","","","6","","30","","24.1","","101.70","","","","","","NA"
"-68.42","58.09","KUUJJUAQ A","7113535","2022-10-19 12:00","2022","10","19","12:00","4.3","","1.2","","80","","","","6","","29","","24.1","","101.57","","","","","","NA"
"-68.42","58.09","KUUJJUAQ A","7113535","2022-10-19 13:00","2022","10","19","13:00","4.7","","0.9","","77","","","","7","","29","","24.1","","101.45","","","","","","Cloudy"
"-68.42","58.09","KUUJJUAQ A","7113535","2022-10-19 14:00","2022","10","19","14:00","3.8","","2.6","","92","","","","6","","28","","16.1","","101.33","","","","","","Rain Showers"
"-68.42","58.09","KUUJJUAQ A","7113535","2022-10-19 15:00","2022","10","19","15:00","3.3","","3.2","","100","","","","6","","30","","12.9","","101.21","","","","","","Rain"
"-68.42","58.09","KUUJJUAQ A","7113535","2022-10-19 16:00","2022","10","19","16:00","3.5","","3.2","","98","","","","6","","26","","16.1","","101.13","","","","","","Rain"
"-68.42","58.09","KUUJJUAQ A","7113535","2022-10-19 17:00","2022","10","19","17:00","3.5","","3.1","","97","","","","5","","25","","24.1","","101.00","","","","","","NA"
"-68.42","58.09","KUUJJUAQ A","7113535","2022-10-19 18:00","2022","10","19","18:00","4.3","","3.4","","94","","","","5","","23","","24.1","","100.90","","","","","","Rain"
"-68.42","58.09","KUUJJUAQ A","7113535","2022-10-19 19:00","2022","10","19","19:00","5.6","","4.0","","89","","","","10","","14","","24.1","","100.80","","","","","","Rain"
"-68.42","58.09","KUUJJUAQ A","7113535","2022-10-19 20:00","2022","10","19","20:00","6.0","","3.7","","85","","","","11","","16","","24.1","","100.71","","","","","","Rain"
"-68.42","58.09","KUUJJUAQ A","7113535","2022-10-19 21:00","2022","10","19","21:00","6.2","","3.4","","83","","","","12","","18","","24.1","","100.59","","","","","","NA"
"-68.42","58.09","KUUJJUAQ A","7113535","2022-10-19 22:00","2022","10","19","22:00","6.0","","4.0","","87","","","","12","","13","","24.1","","100.47","","","","","","Cloudy"
"-68.42","58.09","KUUJJUAQ A","7113535","2022-10-19 23:00","2022","10","19","23:00","6.1","","4.1","","87","","","","11","","13","","24.1","","100.32","","","","","","NA"
"-68.42","58.09","KUUJJUAQ A","7113535","2022-10-20 00:00","2022","10","20","00:00","6.8","","4.2","","83","","","","12","","19","","24.1","","100.18","","","","","","NA"
"-68.42","58.09","KUUJJUAQ A","7113535","2022-10-20 01:00","2022","10","20","01:00","7.2","","4.4","","83","","","","11","","10","","24.1","","100.04","","","","","","Cloudy"
"-68.42","58.09","KUUJJUAQ A","7113535","2022-10-20 02:00","2022","10","20","02:00","7.7","","4.9","","83","","","","12","","10","","24.1","","99.88","","","","","","NA"
"-68.42","58.09","KUUJJUAQ A","7113535","2022-10-20 03:00","2022","10","20","03:00","8.0","","5.4","","84","","","","13","","12","","24.1","","99.74","","","","","","NA"
"-68.42","58.09","KUUJJUAQ A","7113535","2022-10-20 04:00","2022","10","20","04:00","8.0","","5.7","","85","","","","12","","14","","24.1","","99.59","","","","","","Cloudy"
"-68.42","58.09","KUUJJUAQ A","7113535","2022-10-20 05:00","2022","10","20","05:00","8.2","","6.1","","87","","","","8","","11","","24.1","","99.42","","","","","","NA"
"-68.42","58.09","KUUJJUAQ A","7113535","2022-10-20 06:00","2022","10","20","06:00","8.2","","6.4","","89","","","","6","","10","","24.1","","99.27","","","","","","NA"
"-68.42","58.09","KUUJJUAQ A","7113535","2022-10-20 07:00","2022","10","20","07:00","8.3","","7.0","","91","","","","6","","9","","16.1","","99.14","","","","","","Rain"
"-68.42","58.09","KUUJJUAQ A","7113535","2022-10-20 08:00","2022","10","20","08:00","8.6","","8.6","","100","","","","3","","11","","9.7","","98.99","","","","","","Moderate Rain,Fog"
"-68.42","58.09","KUUJJUAQ A","7113535","2022-10-20 09:00","2022","10","20","09:00","8.9","","8.9","","100","","","","8","","5","","9.7","","98.83","","","","","","Rain,Fog"
"-68.42","58.09","KUUJJUAQ A","7113535","2022-10-20 10:00","2022","10","20","10:00","9.4","","9.4","","100","","","","10","","3","","19.3","","98.69","","","","","","Rain"
"-68.42","58.09","KUUJJUAQ A","7113535","2022-10-20 11:00","2022","10","20","11:00","10.4","","10.4","","100","","","","36","","3","","19.3","","98.53","","","","","","Rain"
"-68.42","58.09","KUUJJUAQ A","7113535","2022-10-20 12:00","2022","10","20","12:00","10.8","","10.8","","100","","","","19","","11","","16.1","","98.43","","","","","","NA"
"-68.42","58.09","KUUJJUAQ A","7113535","2022-10-20 13:00","2022","10","20","13:00","8.7","","7.6","","93","","","","24","","18","","24.1","","98.46","","","","","","Cloudy"
"-68.42","58.09","KUUJJUAQ A","7113535","2022-10-20 14:00","2022","10","20","14:00","8.3","","6.7","","90","","","","21","","17","","24.1","","98.61","","","","","","NA"
"-68.42","58.09","KUUJJUAQ A","7113535","2022-10-20 15:00","2022","10","20","15:00","7.9","","5.6","","85","","","","24","","18","","24.1","","98.55","","","","","","Rain"
"-68.42","58.09","KUUJJUAQ A","7113535","2022-10-20 16:00","2022","10","20","16:00","7.3","","4.3","","81","","","","21","","19","","24.1","","98.66","","","","","","Mostly Cloudy"
"-68.42","58.09","KUUJJUAQ A","7113535","2022-10-20 17:00","2022","10","20","17:00","6.3","","2.8","","79","","","","22","","18","","24.1","","98.76","","","","","","NA"
"-68.42","58.09","KUUJJUAQ A","7113535","2022-10-20 18:00","2022","10","20","18:00","4.7","","2.9","","88","","","","24","","10","","24.1","","98.82","","","","","","NA"
"-68.42","58.09","KUUJJUAQ A","7113535","2022-10-20 19:00","2022","10","20","19:00","4.2","","1.9","","85","","","","23","","12","","24.1","","98.86","","","","","","Mainly Clear"
"-68.42","58.09","KUUJJUAQ A","7113535","2022-10-20 20:00","2022","10","20","20:00","3.6","","1.4","","85","","","","21","","13","","24.1","","98.89","","","","","","NA"
"-68.42","58.09","KUUJJUAQ A","7113535","2022-10-20 21:00","2022","10","20","21:00","3.8","","1.2","","83","","","","18","","22","","24.1","","98.89","","","","","","NA"
"-68.42","58.09","KUUJJUAQ A","7113535","2022-10-20 22:00","2022","10","20","22:00","3.4","","1.1","","85","","","","18","","18","","24.1","","98.84","","","","","","Clear"
"-68.42","58.09","KUUJJUAQ A","7113535","2022-10-20 23:00","2022","10","20","23:00","3.1","","0.3","","81","","","","20","","22","","24.1","","98.80","","","","","","NA"
"-68.42","58.09","KUUJJUAQ A","7113535","2022-10-21 00:00","2022","10","21","00:00","2.1","","-0.2","","85","","","","22","","11","","24.1","","98.79","","","","","","NA"
"-68.42","58.09","KUUJJUAQ A","7113535","2022-10-21 01:00","2022","10","21","01:00","1.9","","-0.2","","86","","","","20","","13","","24.1","","98.80","","","","","","Clear"
"-68.42","58.09","KUUJJUAQ A","7113535","2022-10-21 02:00","2022","10","21","02:00","2.2","","-0.2","","84","","","","20","","14","","24.1","","98.79","","","","","","NA"
"-68.42","58.09","KUUJJUAQ A","7113535","2022-10-21 03:00","2022","10","21","03:00","2.4","","0.6","","88","","","","18","","23","","24.1","","98.73","","","","","","NA"
"-68.42","58.09","KUUJJUAQ A","7113535","2022-10-21 04:00","2022","10","21","04:00","2.2","","0.4","","88","","","","18","","22","","24.1","","98.70","","","","","","Mainly Clear"
"-68.42","58.09","KUUJJUAQ A","7113535","2022-10-21 05:00","2022","10","21","05:00","1.9","","-0.2","","86","","","","20","","15","","24.1","","98.70","","","","","","NA"
"-68.42","58.09","KUUJJUAQ A","7113535","2022-10-21 06:00","2022","10","21","06:00","2.4","","0.0","","84","","","","18","","20","","24.1","","98.70","","","","","","NA"
"-68.42","58.09","KUUJJUAQ A","7113535","2022-10-21 07:00","2022","10","21","07:00","2.8","","0.2","","83","","","","18","","28","","24.1","","98.67","","","","","","Mostly Cloudy"
"-68.42","58.09","KUUJJUAQ A","7113535","2022-10-21 08:00","2022","10","21","08:00","4.2","","0.6","","77","","","","19","","28","","24.1","","98.61","","","","","","NA"
"-68.42","58.09","KUUJJUAQ A","7113535","2022-10-21 09:00","2022","10","21","09:00","5.3","","0.5","","71","","","","19","","27","","24.1","","98.55","","","","","","NA"
"-68.42","58.09","KUUJJUAQ A","7113535","2022-10-21 10:00","2022","10","21","10:00","4.3","","-0.8","","70","","","","21","","39","","24.1","","98.56","","","","","","Rain Showers"
"-68.42","58.09","KUUJJUAQ A","7113535","2022-10-21 11:00","2022","10","21","11:00","2.7","","1.8","","94","","","","20","","22","","12.9","","98.59","","","","","","Rain Showers"
"-68.42","58.09","KUUJJUAQ A","7113535","2022-10-21 12:00","2022","10","21","12:00","3.0","","1.4","","89","","","","21","","28","","14.5","","98.57","","","","","","Rain Showers"
"-68.42","58.09","KUUJJUAQ A","7113535","2022-10-21 13:00","2022","10","21","13:00","2.4","","1.6","","94","","","","19","","28","","12.9","","98.57","","","","","","Rain Showers"
"-68.42","58.09","KUUJJUAQ A","7113535","2022-10-21 14:00","2022","10","21","14:00","2.8","","1.7","","92","","","","19","","29","","24.1","","98.54","","","","","","Rain"
"-68.42","58.09","KUUJJUAQ A","7113535","2022-10-21 15:00","2022","10","21","15:00","3.0","","1.6","","90","","","","20","","27","","24.1","","98.56","","","","","","Rain"
"-68.42","58.09","KUUJJUAQ A","7113535","2022-10-21 16:00","2022","10","21","16:00","2.9","","1.7","","92","","","","20","","23","","24.1","","98.57","","","","","","Rain"
"-68.42","58.09","KUUJJUAQ A","7113535","2022-10-21 17:00","2022","10","21","17:00","3.0","","1.7","","91","","","","20","","25","","24.1","","98.61","","","","","","Rain"
"-68.42","58.09","KUUJJUAQ A","7113535","2022-10-21 18:00","2022","10","21","18:00","3.0","","2.0","","94","","","","19","","18","","24.1","","98.60","","","","","","Rain"
"-68.42","58.09","KUUJJUAQ A","7113535","2022-10-21 19:00","2022","10","21","19:00","2.8","","2.1","","95","","","","18","","25","","24.1","","98.57","","","","","","Rain"
"-68.42","58.09","KUUJJUAQ A","7113535","2022-10-21 20:00","2022","10","21","20:00","3.0","","2.3","","95","","","","19","","20","","24.1","","98.52","","","","","","Rain"
"-68.42","58.09","KUUJJUAQ A","7113535","2022-10-21 21:00","2022","10","21","21:00","3.4","","2.5","","94","","","","21","","19","","24.1","","98.49","","","","","","Rain"
"-68.42","58.09","KUUJJUAQ A","7113535","2022-10-21 22:00","2022","10","21","22:00","4.0","","2.8","","92","","","","22","","18","","24.1","","98.47","","","","","","Rain"
"-68.42","58.09","KUUJJUAQ A","7113535","2022-10-21 23:00","2022","10","21","23:00","4.3","","3.1","","92","","","","21","","21","","24.1","","98.46","","","","","","Rain"
"-68.42","58.09","KUUJJUAQ A","7113535","2022-10-22 00:00","2022","10","22","00:00","4.5","","3.2","","91","","","","21","","18","","24.1","","98.46","","","","","","Rain"
"-68.42","58.09","KUUJJUAQ A","7113535","2022-10-22 01:00","2022","10","22","01:00","4.6","","3.5","","92","","","","22","","19","","24.1","","98.46","","","","","","Rain"
"-68.42","58.09","KUUJJUAQ A","7113535","2022-10-22 02:00","2022","10","22","02:00","4.7","","3.8","","94","","","","23","","18","","24.1","","98.46","","","","","","Rain"
"-68.42","58.09","KUUJJUAQ A","7113535","2022-10-22 03:00","2022","10","22","03:00","4.8","","4.0","","95","","","","22","","18","","24.1","","98.52","","","","","","Rain"
"-68.42","58.09","KUUJJUAQ A","7113535","2022-10-22 04:00","2022","10","22","04:00","4.8","","4.3","","97","","","","23","","15","","24.1","","98.58","","","","","","Rain"
"-68.42","58.09","KUUJJUAQ A","7113535","2022-10-22 05:00","2022","10","22","05:00","4.8","","4.0","","95","","","","22","","18","","24.1","","98.65","","","","","","Rain"
"-68.42","58.09","KUUJJUAQ A","7113535","2022-10-22 06:00","2022","10","22","06:00","4.8","","4.0","","95","","","","22","","16","","24.1","","98.73","","","","","","NA"
"-68.42","58.09","KUUJJUAQ A","7113535","2022-10-22 07:00","2022","10","22","07:00","5.3","","4.1","","92","","","","23","","22","","24.1","","98.86","","","","","","Rain"
"-68.42","58.09","KUUJJUAQ A","7113535","2022-10-22 08:00","2022","10","22","08:00","5.4","","4.9","","97","","","","23","","15","","24.1","","98.96","","","","","","Rain"
"-68.42","58.09","KUUJJUAQ A","7113535","2022-10-22 09:00","2022","10","22","09:00","6.3","","4.7","","89","","","","22","","15","","24.1","","98.99","","","","","","NA"
"-68.42","58.09","KUUJJUAQ A","7113535","2022-10-22 10:00","2022","10","22","10:00","7.2","","4.5","","83","","","","23","","15","","24.1","","99.04","","","","","","Cloudy"
"-68.42","58.09","KUUJJUAQ A","7113535","2022-10-22 11:00","2022","10","22","11:00","7.8","","4.8","","81","","","","22","","16","","24.1","","99.06","","","","","","NA"
"-68.42","58.09","KUUJJUAQ A","7113535","2022-10-22 12:00","2022","10","22","12:00","6.8","","5.3","","91","","","","22","","13","","24.1","","99.06","","","","","","Rain"
"-68.42","58.09","KUUJJUAQ A","7113535","2022-10-22 13:00","2022","10","22","13:00","7.5","","4.0","","78","","","","22","","20","","24.1","","99.10","","","","","","Mostly Cloudy"
"-68.42","58.09","KUUJJUAQ A","7113535","2022-10-22 14:00","2022","10","22","14:00","8.0","","3.4","","72","","","","23","","20","","24.1","","99.17","","","","","","NA"
"-68.42","58.09","KUUJJUAQ A","7113535","2022-10-22 15:00","2022","10","22","15:00","6.7","","3.3","","79","","","","26","","21","","24.1","","99.26","","","","","","Rain Showers"
"-68.42","58.09","KUUJJUAQ A","7113535","2022-10-22 16:00","2022","10","22","16:00","5.2","","2.2","","81","","","","26","","20","","24.1","","99.38","","","","","","Cloudy"
"-68.42","58.09","KUUJJUAQ A","7113535","2022-10-22 17:00","2022","10","22","17:00","5.0","","1.9","","81","","","","25","","20","","24.1","","99.47","","","","","","NA"
"-68.42","58.09","KUUJJUAQ A","7113535","2022-10-22 18:00","2022","10","22","18:00","5.1","","1.4","","77","","","","23","","22","","24.1","","99.53","","","","","","NA"
"-68.42","58.09","KUUJJUAQ A","7113535","2022-10-22 19:00","2022","10","22","19:00","5.0","","1.3","","77","","","","24","","17","","24.1","","99.62","","","","","","Cloudy"
"-68.42","58.09","KUUJJUAQ A","7113535","2022-10-22 20:00","2022","10","22","20:00","5.0","","1.1","","76","","","","24","","20","","24.1","","99.72","","","","","","NA"
"-68.42","58.09","KUUJJUAQ A","7113535","2022-10-22 21:00","2022","10","22","21:00","4.7","","0.7","","75","","","","26","","17","","24.1","","99.81","","","","","","NA"
"-68.42","58.09","KUUJJUAQ A","7113535","2022-10-22 22:00","2022","10","22","22:00","4.6","","0.6","","75","","","","26","","16","","24.1","","99.89","","","","","","Cloudy"
"-68.42","58.09","KUUJJUAQ A","7113535","2022-10-22 23:00","2022","10","22","23:00","4.3","","0.3","","76","","","","26","","21","","24.1","","99.98","","","","","","Rain"
"-68.42","58.09","KUUJJUAQ A","7113535","2022-10-23 00:00","2022","10","23","00:00","3.6","","-1.0","","72","","","","27","","25","","24.1","","100.11","","","","","","NA"
"-68.42","58.09","KUUJJUAQ A","7113535","2022-10-23 01:00","2022","10","23","01:00","2.3","","-0.6","","81","","","","24","","13","","24.1","","100.21","","","","","","Mainly Clear"
"-68.42","58.09","KUUJJUAQ A","7113535","2022-10-23 02:00","2022","10","23","02:00","2.6","","0.4","","85","","","","25","","20","","24.1","","100.30","","","","","","NA"
"-68.42","58.09","KUUJJUAQ A","7113535","2022-10-23 03:00","2022","10","23","03:00","2.4","","-1.9","","73","","","","27","","23","","24.1","","100.43","","","","","","NA"
"-68.42","58.09","KUUJJUAQ A","7113535","2022-10-23 04:00","2022","10","23","04:00","2.0","","-2.2","","74","","","","26","","18","","24.1","","100.55","","","","","","Cloudy"
"-68.42","58.09","KUUJJUAQ A","7113535","2022-10-23 05:00","2022","10","23","05:00","1.3","","-1.0","","85","","","","29","","22","","24.1","","100.65","","","","","","Snow"
"-68.42","58.09","KUUJJUAQ A","7113535","2022-10-23 06:00","2022","10","23","06:00","2.0","","-2.9","","70","","","","28","","26","","24.1","","100.77","","","","","","NA"
"-68.42","58.09","KUUJJUAQ A","7113535","2022-10-23 07:00","2022","10","23","07:00","2.1","","-3.4","","67","","","","27","","18","","24.1","","100.89","","","","","","Mostly Cloudy"
"-68.42","58.09","KUUJJUAQ A","7113535","2022-10-23 08:00","2022","10","23","08:00","2.7","","-3.1","","65","","","","28","","23","","24.1","","100.98","","","","","","NA"
"-68.42","58.09","KUUJJUAQ A","7113535","2022-10-23 09:00","2022","10","23","09:00","3.6","","-3.1","","62","","","","29","","26","","24.1","","101.07","","","","","","NA"
"-68.42","58.09","KUUJJUAQ A","7113535","2022-10-23 10:00","2022","10","23","10:00","3.4","","-3.2","","62","","","","28","","28","","24.1","","101.15","","","","","","Mostly Cloudy"
"-68.42","58.09","KUUJJUAQ A","7113535","2022-10-23 11:00","2022","10","23","11:00","4.1","","-2.8","","61","","","","28","","25","","24.1","","101.21","","","","","","NA"
"-68.42","58.09","KUUJJUAQ A","7113535","2022-10-23 12:00","2022","10","23","12:00","3.8","","-2.3","","64","","","","29","","28","","24.1","","101.27","","","","","","NA"
"-68.42","58.09","KUUJJUAQ A","7113535","2022-10-23 13:00","2022","10","23","13:00","5.3","","-2.4","","58","","","","29","","22","","24.1","","101.35","","","","","","Mostly Cloudy"
"-68.42","58.09","KUUJJUAQ A","7113535","2022-10-23 14:00","2022","10","23","14:00","3.9","","-2.1","","65","","","","28","","23","","24.1","","101.45","","","","","","NA"
"-68.42","58.09","KUUJJUAQ A","7113535","2022-10-23 15:00","2022","10","23","15:00","3.6","","-2.6","","64","","","","28","","27","","24.1","","101.52","","","","","","NA"
"-68.42","58.09","KUUJJUAQ A","7113535","2022-10-23 16:00","2022","10","23","16:00","3.5","","-1.8","","68","","","","27","","21","","24.1","","101.62","","","","","","Mostly Cloudy"
"-68.42","58.09","KUUJJUAQ A","7113535","2022-10-23 17:00","2022","10","23","17:00","3.0","","-2.2","","69","","","","28","","10","","24.1","","101.69","","","","","","NA"
"-68.42","58.09","KUUJJUAQ A","7113535","2022-10-23 18:00","2022","10","23","18:00","2.7","","-1.2","","75","","","","26","","16","","24.1","","101.74","","","","","","NA"
"-68.42","58.09","KUUJJUAQ A","7113535","2022-10-23 19:00","2022","10","23","19:00","2.6","","-0.9","","77","","","","25","","14","","24.1","","101.75","","","","","","Mostly Cloudy"
"-68.42","58.09","KUUJJUAQ A","7113535","2022-10-23 20:00","2022","10","23","20:00","2.4","","-0.5","","81","","","","24","","15","","24.1","","101.77","","","","","","NA"
"-68.42","58.09","KUUJJUAQ A","7113535","2022-10-23 21:00","2022","10","23","21:00","2.8","","-0.2","","80","","","","24","","14","","24.1","","101.81","","","","","","NA"
"-68.42","58.09","KUUJJUAQ A","7113535","2022-10-23 22:00","2022","10","23","22:00","2.3","","-0.2","","83","","","","25","","14","","24.1","","101.84","","","","","","Cloudy"
"-68.42","58.09","KUUJJUAQ A","7113535","2022-10-23 23:00","2022","10","23","23:00","2.3","","-0.1","","84","","","","27","","9","","24.1","","101.90","","","","","","NA"
"-68.42","58.09","KUUJJUAQ A","7113535","2022-10-24 00:00","2022","10","24","00:00","2.2","","-0.1","","85","","","","24","","10","","24.1","","101.90","","","","","","NA"
"-68.42","58.09","KUUJJUAQ A","7113535","2022-10-24 01:00","2022","10","24","01:00","2.0","","-0.2","","86","","","","26","","9","","24.1","","101.94","","","","","","Rain Showers,Snow Showers"
"-68.42","58.09","KUUJJUAQ A","7113535","2022-10-24 02:00","2022","10","24","02:00","1.9","","-0.1","","87","","","","25","","12","","24.1","","101.97","","","","","","NA"
"-68.42","58.09","KUUJJUAQ A","7113535","2022-10-24 03:00","2022","10","24","03:00","1.6","","-0.2","","88","","","","22","","8","","24.1","","102.03","","","","","","NA"
"-68.42","58.09","KUUJJUAQ A","7113535","2022-10-24 04:00","2022","10","24","04:00","1.8","","-0.3","","86","","","","27","","10","","24.1","","102.07","","","","","","Rain"
"-68.42","58.09","KUUJJUAQ A","7113535","2022-10-24 05:00","2022","10","24","05:00","1.7","","0.1","","89","","","","32","","19","","24.1","","102.11","","","","","","Rain"
"-68.42","58.09","KUUJJUAQ A","7113535","2022-10-24 06:00","2022","10","24","06:00","0.6","","0.2","","97","","","","27","","11","","24.1","","102.12","","","","","","NA"
"-68.42","58.09","KUUJJUAQ A","7113535","2022-10-24 07:00","2022","10","24","07:00","0.4","","-1.0","","90","","","","31","","19","","24.1","","102.17","","","","","","Mostly Cloudy"
"-68.42","58.09","KUUJJUAQ A","7113535","2022-10-24 08:00","2022","10","24","08:00","1.1","","-1.2","","85","","","","32","","12","","24.1","","102.20","","","","","","NA"
"-68.42","58.09","KUUJJUAQ A","7113535","2022-10-24 09:00","2022","10","24","09:00","0.7","","-0.8","","90","","","","36","","9","","24.1","","102.25","","","","","","NA"
"-68.42","58.09","KUUJJUAQ A","7113535","2022-10-24 10:00","2022","10","24","10:00","1.5","","-1.9","","78","","","","34","","10","","24.1","","102.27","","","","","","Mostly Cloudy"
"-68.42","58.09","KUUJJUAQ A","7113535","2022-10-24 11:00","2022","10","24","11:00","1.2","","-2.5","","77","","","","34","","10","","24.1","","102.28","","","","","","Snow Showers"
"-68.42","58.09","KUUJJUAQ A","7113535","2022-10-24 12:00","2022","10","24","12:00","2.3","","-2.8","","69","","","","35","","14","","24.1","","102.25","","","","","","NA"
"-68.42","58.09","KUUJJUAQ A","7113535","2022-10-24 13:00","2022","10","24","13:00","2.0","","-3.5","","67","","","","32","","17","","24.1","","102.24","","","","","","Mostly Cloudy"
"-68.42","58.09","KUUJJUAQ A","7113535","2022-10-24 14:00","2022","10","24","14:00","2.0","","-3.9","","65","","","","36","","7","","24.1","","102.21","","","","","","NA"
"-68.42","58.09","KUUJJUAQ A","7113535","2022-10-24 15:00","2022","10","24","15:00","0.8","","-2.3","","80","","","","3","","17","","24.1","","102.20","","","","","","NA"
"-68.42","58.09","KUUJJUAQ A","7113535","2022-10-24 16:00","2022","10","24","16:00","-0.2","","-2.9","","82","","","","4","","23","","24.1","","102.15","","","","-6","","Mostly Cloudy"
"-68.42","58.09","KUUJJUAQ A","7113535","2022-10-24 17:00","2022","10","24","17:00","-0.4","","-3.5","","80","","","","5","","21","","24.1","","102.14","","","","-6","","NA"
"-68.42","58.09","KUUJJUAQ A","7113535","2022-10-24 18:00","2022","10","24","18:00","-0.6","","-3.7","","79","","","","5","","21","","24.1","","102.14","","","","-6","","NA"
"-68.42","58.09","KUUJJUAQ A","7113535","2022-10-24 19:00","2022","10","24","19:00","-0.4","","-3.7","","78","","","","6","","22","","24.1","","102.12","","","","-6","","Cloudy"
"-68.42","58.09","KUUJJUAQ A","7113535","2022-10-24 20:00","2022","10","24","20:00","-0.5","","-3.6","","80","","","","7","","27","","24.1","","102.00","","","","-7","","NA"
"-68.42","58.09","KUUJJUAQ A","7113535","2022-10-24 21:00","2022","10","24","21:00","-0.6","","-3.2","","83","","","","9","","16","","24.1","","101.96","","","","-5","","NA"
"-68.42","58.09","KUUJJUAQ A","7113535","2022-10-24 22:00","2022","10","24","22:00","-0.6","","-2.9","","84","","","","8","","15","","24.1","","101.84","","","","-5","","Cloudy"
"-68.42","58.09","KUUJJUAQ A","7113535","2022-10-24 23:00","2022","10","24","23:00","-0.3","","-2.8","","83","","","","7","","23","","24.1","","101.69","","","","-6","","NA"
"-68.42","58.09","KUUJJUAQ A","7113535","2022-10-25 00:00","2022","10","25","00:00","0.0","","-2.8","","82","","","","7","","25","","24.1","","101.55","","","","-6","","NA"
"-68.42","58.09","KUUJJUAQ A","7113535","2022-10-25 01:00","2022","10","25","01:00","0.4","","-2.6","","81","","","","7","","26","","24.1","","101.40","","","","","","Cloudy"
"-68.42","58.09","KUUJJUAQ A","7113535","2022-10-25 02:00","2022","10","25","02:00","0.6","","-2.4","","80","","","","6","","26","","24.1","","101.22","","","","","","NA"
"-68.42","58.09","KUUJJUAQ A","7113535","2022-10-25 03:00","2022","10","25","03:00","0.7","","-1.6","","85","","","","6","","21","","24.1","","101.05","","","","","","Rain"
"-68.42","58.09","KUUJJUAQ A","7113535","2022-10-25 04:00","2022","10","25","04:00","0.7","","-0.1","","94","","","","9","","16","","19.3","","100.94","","","","","","Rain"
"-68.42","58.09","KUUJJUAQ A","7113535","2022-10-25 05:00","2022","10","25","05:00","0.9","","0.7","","98","","","","10","","17","","16.1","","100.72","","","","","","Moderate Rain"
"-68.42","58.09","KUUJJUAQ A","7113535","2022-10-25 06:00","2022","10","25","06:00","1.4","","1.3","","99","","","","10","","17","","19.3","","100.48","","","","","","Rain"
"-68.42","58.09","KUUJJUAQ A","7113535","2022-10-25 07:00","2022","10","25","07:00","1.7","","1.7","","100","","","","10","","9","","19.3","","100.34","","","","","","Rain"
"-68.42","58.09","KUUJJUAQ A","7113535","2022-10-25 08:00","2022","10","25","08:00","2.4","","2.4","","100","","","","10","","9","","19.3","","100.13","","","","","","Rain"
"-68.42","58.09","KUUJJUAQ A","7113535","2022-10-25 09:00","2022","10","25","09:00","2.9","","2.9","","100","","","","7","","4","","8.1","","100.01","","","","","","Rain,Fog"
"-68.42","58.09","KUUJJUAQ A","7113535","2022-10-25 10:00","2022","10","25","10:00","5.4","","5.4","","100","","","","25","","4","","24.1","","99.83","","","","","","Cloudy"
"-68.42","58.09","KUUJJUAQ A","7113535","2022-10-25 11:00","2022","10","25","11:00","7.3","","6.9","","97","","","","18","","12","","24.1","","99.73","","","","","","Rain"
"-68.42","58.09","KUUJJUAQ A","7113535","2022-10-25 12:00","2022","10","25","12:00","8.6","","8.0","","96","","","","20","","10","","24.1","","99.64","","","","","","Rain"
"-68.42","58.09","KUUJJUAQ A","7113535","2022-10-25 13:00","2022","10","25","13:00","9.9","","8.9","","94","","","","19","","12","","24.1","","99.57","","","","","","Rain"
"-68.42","58.09","KUUJJUAQ A","7113535","2022-10-25 14:00","2022","10","25","14:00","11.3","","9.7","","90","","","","19","","15","","24.1","","99.51","","","","","","NA"
"-68.42","58.09","KUUJJUAQ A","7113535","2022-10-25 15:00","2022","10","25","15:00","11.8","","9.7","","87","","","","19","","17","","24.1","","99.43","","","","","","NA"
"-68.42","58.09","KUUJJUAQ A","7113535","2022-10-25 16:00","2022","10","25","16:00","11.3","","9.1","","86","","","","20","","16","","24.1","","99.38","","","","","","Mostly Cloudy"
"-68.42","58.09","KUUJJUAQ A","7113535","2022-10-25 17:00","2022","10","25","17:00","11.3","","9.0","","86","","","","19","","12","","24.1","","99.34","","","","","","NA"
"-68.42","58.09","KUUJJUAQ A","7113535","2022-10-25 18:00","2022","10","25","18:00","11.6","","9.1","","84","","","","20","","24","","24.1","","99.25","","","","","","NA"
"-68.42","58.09","KUUJJUAQ A","7113535","2022-10-25 19:00","2022","10","25","19:00","11.9","","8.6","","80","","","","20","","20","","24.1","","99.20","","","","","","Cloudy"
"-68.42","58.09","KUUJJUAQ A","7113535","2022-10-25 20:00","2022","10","25","20:00","12.6","","7.6","","71","","","","20","","25","","24.1","","99.15","","","","","","NA"
"-68.42","58.09","KUUJJUAQ A","7113535","2022-10-25 21:00","2022","10","25","21:00","13.2","","7.1","","66","","","","21","","19","","24.1","","99.14","","","","","","NA"
"-68.42","58.09","KUUJJUAQ A","7113535","2022-10-25 22:00","2022","10","25","22:00","13.6","","7.6","","67","","","","22","","19","","24.1","","99.12","","","","","","Rain"
"-68.42","58.09","KUUJJUAQ A","7113535","2022-10-25 23:00","2022","10","25","23:00","13.4","","8.5","","72","","","","23","","18","","24.1","","99.13","","","","","","Rain"
"-68.42","58.09","KUUJJUAQ A","7113535","2022-10-26 00:00","2022","10","26","00:00","14.2","","7.9","","66","","","","23","","17","","24.1","","99.16","","","","","","NA"
"-68.42","58.09","KUUJJUAQ A","7113535","2022-10-26 01:00","2022","10","26","01:00","14.5","","7.8","","64","","","","23","","16","","24.1","","99.23","","","","","","Cloudy"
"-68.42","58.09","KUUJJUAQ A","7113535","2022-10-26 02:00","2022","10","26","02:00","14.2","","8.1","","67","","","","21","","14","","24.1","","99.27","","","","","","NA"
"-68.42","58.09","KUUJJUAQ A","7113535","2022-10-26 03:00","2022","10","26","03:00","14.7","","8.5","","66","","","","23","","16","","24.1","","99.32","","","","","","NA"
"-68.42","58.09","KUUJJUAQ A","7113535","2022-10-26 04:00","2022","10","26","04:00","14.1","","8.9","","71","","","","28","","23","","24.1","","99.43","","","","","","Cloudy"
"-68.42","58.09","KUUJJUAQ A","7113535","2022-10-26 05:00","2022","10","26","05:00","12.8","","7.6","","70","","","","27","","14","","24.1","","99.51","","","","","","NA"
"-68.42","58.09","KUUJJUAQ A","7113535","2022-10-26 06:00","2022","10","26","06:00","12.4","","8.4","","76","","","","27","","12","","24.1","","99.58","","","","","","Rain Showers"
"-68.42","58.09","KUUJJUAQ A","7113535","2022-10-26 07:00","2022","10","26","07:00","11.8","","7.5","","75","","","","26","","9","","24.1","","99.63","","","","","","Mostly Cloudy"
"-68.42","58.09","KUUJJUAQ A","7113535","2022-10-26 08:00","2022","10","26","08:00","11.2","","7.3","","77","","","","17","","9","","24.1","","99.63","","","","","","NA"
"-68.42","58.09","KUUJJUAQ A","7113535","2022-10-26 09:00","2022","10","26","09:00","11.7","","7.8","","77","","","","23","","9","","24.1","","99.66","","","","","","NA"
"-68.42","58.09","KUUJJUAQ A","7113535","2022-10-26 10:00","2022","10","26","10:00","12.4","","8.4","","76","","","","26","","12","","24.1","","99.65","","","","","","Rain"
"-68.42","58.09","KUUJJUAQ A","7113535","2022-10-26 11:00","2022","10","26","11:00","11.7","","7.7","","77","","","","27","","14","","24.1","","99.62","","","","","","Rain"
"-68.42","58.09","KUUJJUAQ A","7113535","2022-10-26 12:00","2022","10","26","12:00","11.3","","7.6","","78","","","","26","","18","","24.1","","99.61","","","","","","Rain"
"-68.42","58.09","KUUJJUAQ A","7113535","2022-10-26 13:00","2022","10","26","13:00","11.2","","7.8","","80","","","","25","","8","","24.1","","99.61","","","","","","Rain"
"-68.42","58.09","KUUJJUAQ A","7113535","2022-10-26 14:00","2022","10","26","14:00","10.2","","8.2","","87","","","","23","","7","","19.3","","99.62","","","","","","Rain"
"-68.42","58.09","KUUJJUAQ A","7113535","2022-10-26 15:00","2022","10","26","15:00","9.4","","9.0","","97","","","","21","","6","","19.3","","99.65","","","","","","Rain"
"-68.42","58.09","KUUJJUAQ A","7113535","2022-10-26 16:00","2022","10","26","16:00","9.3","","9.3","","100","","","","18","","7","","24.1","","99.66","","","","","","Rain"
"-68.42","58.09","KUUJJUAQ A","7113535","2022-10-26 17:00","2022","10","26","17:00","9.2","","8.8","","97","","","","18","","4","","24.1","","99.68","","","","","","NA"
"-68.42","58.09","KUUJJUAQ A","7113535","2022-10-26 18:00","2022","10","26","18:00","9.1","","8.7","","97","","","","22","","6","","24.1","","99.68","","","","","","NA"
"-68.42","58.09","KUUJJUAQ A","7113535","2022-10-26 19:00","2022","10","26","19:00","9.0","","8.6","","97","","","","32","","9","","24.1","","99.69","","","","","","Cloudy"
"-68.42","58.09","KUUJJUAQ A","7113535","2022-10-26 20:00","2022","10","26","20:00","8.2","","6.9","","92","","","","34","","7","","24.1","","99.73","","","","","","NA"
"-68.42","58.09","KUUJJUAQ A","7113535","2022-10-26 21:00","2022","10","26","21:00","7.8","","6.2","","90","","","","33","","16","","24.1","","99.70","","","","","","NA"
"-68.42","58.09","KUUJJUAQ A","7113535","2022-10-26 22:00","2022","10","26","22:00","7.1","","6.5","","96","","","","33","","13","","24.1","","99.68","","","","","","Cloudy"
"-68.42","58.09","KUUJJUAQ A","7113535","2022-10-26 23:00","2022","10","26","23:00","6.8","","6.1","","96","","","","35","","8","","24.1","","99.61","","","","","","Rain"
"-68.42","58.09","KUUJJUAQ A","7113535","2022-10-27 00:00","2022","10","27","00:00","6.4","","6.4","","100","","","","3","","10","","19.3","","99.57","","","","","","Drizzle"
"-68.42","58.09","KUUJJUAQ A","7113535","2022-10-27 01:00","2022","10","27","01:00","5.4","","4.6","","94","","","","1","","13","","24.1","","99.59","","","","","","Cloudy"
"-68.42","58.09","KUUJJUAQ A","7113535","2022-10-27 02:00","2022","10","27","02:00","5.1","","3.4","","89","","","","36","","14","","24.1","","99.56","","","","","","NA"
"-68.42","58.09","KUUJJUAQ A","7113535","2022-10-27 03:00","2022","10","27","03:00","5.1","","3.0","","86","","","","2","","12","","24.1","","99.52","","","","","","NA"
"-68.42","58.09","KUUJJUAQ A","7113535","2022-10-27 04:00","2022","10","27","04:00","4.5","","4.1","","97","","","","1","","18","","24.1","","99.48","","","","","","Cloudy"
"-68.42","58.09","KUUJJUAQ A","7113535","2022-10-27 05:00","2022","10","27","05:00","3.8","","3.8","","100","","","","2","","18","","4.8","","99.43","","","","","","Drizzle"
"-68.42","58.09","KUUJJUAQ A","7113535","2022-10-27 06:00","2022","10","27","06:00","3.5","","3.5","","100","","","","2","","19","","4.8","","99.39","","","","","","Drizzle,Fog"
"-68.42","58.09","KUUJJUAQ A","7113535","2022-10-27 07:00","2022","10","27","07:00","2.6","","2.5","","99","","","","2","","25","","4.0","","99.34","","","","","","Drizzle,Fog"
"-68.42","58.09","KUUJJUAQ A","7113535","2022-10-27 08:00","2022","10","27","08:00","2.2","","2.0","","99","","","","1","","22","","4.0","","99.23","","","","","","Rain,Fog"
"-68.42","58.09","KUUJJUAQ A","7113535","2022-10-27 09:00","2022","10","27","09:00","1.9","","1.8","","99","","","","36","","19","","6.4","","99.11","","","","","","Moderate Rain,Fog"
"-68.42","58.09","KUUJJUAQ A","7113535","2022-10-27 10:00","2022","10","27","10:00","1.4","","1.2","","98","","","","1","","30","","6.4","","98.93","","","","","","Moderate Rain,Fog"
"-68.42","58.09","KUUJJUAQ A","7113535","2022-10-27 11:00","2022","10","27","11:00","1.5","","1.4","","100","","","","36","","24","","4.8","","98.82","","","","","","Moderate Rain,Fog"
"-68.42","58.09","KUUJJUAQ A","7113535","2022-10-27 12:00","2022","10","27","12:00","1.4","","1.4","","100","","","","36","","24","","6.4","","98.61","","","","","","Moderate Rain,Fog"
"-68.42","58.09","KUUJJUAQ A","7113535","2022-10-27 13:00","2022","10","27","13:00","1.3","","0.8","","97","","","","33","","28","","6.4","","98.67","","","","","","Rain,Fog"
"-68.42","58.09","KUUJJUAQ A","7113535","2022-10-27 14:00","2022","10","27","14:00","0.5","","0.2","","98","","","","32","","24","","3.6","","98.69","","","","","","Snow,Ice Pellets,Fog"
"-68.42","58.09","KUUJJUAQ A","7113535","2022-10-27 15:00","2022","10","27","15:00","0.0","","-0.6","","96","","","","32","","35","","1.6","","98.73","","","","-7","","Snow"
"-68.42","58.09","KUUJJUAQ A","7113535","2022-10-27 16:00","2022","10","27","16:00","-0.7","","-2.0","","91","","","","32","","38","","9.7","","98.83","","","","-8","","Snow"
"-68.42","58.09","KUUJJUAQ A","7113535","2022-10-27 17:00","2022","10","27","17:00","-1.2","","-2.0","","94","","","","30","","23","","4.8","","99.06","","","","-7","","Snow"
"-68.42","58.09","KUUJJUAQ A","7113535","2022-10-27 18:00","2022","10","27","18:00","-1.6","","-2.7","","93","","","","28","","26","","3.2","","99.18","","","","-8","","Snow"
"-68.42","58.09","KUUJJUAQ A","7113535","2022-10-27 19:00","2022","10","27","19:00","-2.1","","-3.3","","92","","","","29","","31","","2.8","","99.29","","","","-9","","Snow,Blowing Snow"
"-68.42","58.09","KUUJJUAQ A","7113535","2022-10-27 20:00","2022","10","27","20:00","-2.4","","-4.0","","89","","","","28","","32","","2.8","","99.42","","","","-10","","Snow,Blowing Snow"
"-68.42","58.09","KUUJJUAQ A","7113535","2022-10-27 21:00","2022","10","27","21:00","-3.0","","-4.0","","93","","","","29","","25","","1.6","","99.50","","","","-10","","Snow,Blowing Snow"
"-68.42","58.09","KUUJJUAQ A","7113535","2022-10-27 22:00","2022","10","27","22:00","-3.7","","-5.7","","86","","","","28","","37","","2.0","","99.54","","","","-12","","Snow,Blowing Snow"
"-68.42","58.09","KUUJJUAQ A","7113535","2022-10-27 23:00","2022","10","27","23:00","-4.0","","-6.3","","84","","","","29","","28","","4.0","","99.61","","","","-11","","Snow,Blowing Snow"
"-68.42","58.09","KUUJJUAQ A","7113535","2022-10-28 00:00","2022","10","28","00:00","-4.2","","-6.9","","81","","","","28","","31","","24.1","","99.66","","","","-12","","Snow,Blowing Snow"
"-68.42","58.09","KUUJJUAQ A","7113535","2022-10-28 01:00","2022","10","28","01:00","-4.4","","-5.9","","90","","","","29","","22","","6.4","","99.71","","","","-11","","Snow,Blowing Snow"
"-68.42","58.09","KUUJJUAQ A","7113535","2022-10-28 02:00","2022","10","28","02:00","-4.0","","-6.5","","83","","","","28","","31","","6.4","","99.74","","","","-12","","Snow,Blowing Snow"
"-68.42","58.09","KUUJJUAQ A","7113535","2022-10-28 03:00","2022","10","28","03:00","-3.7","","-7.0","","78","","","","29","","26","","6.4","","99.81","","","","-11","","Snow,Blowing Snow"
"-68.42","58.09","KUUJJUAQ A","7113535","2022-10-28 04:00","2022","10","28","04:00","-3.8","","-6.7","","81","","","","29","","39","","3.2","","99.84","","","","-12","","Snow,Blowing Snow"
"-68.42","58.09","KUUJJUAQ A","7113535","2022-10-28 05:00","2022","10","28","05:00","-3.6","","-7.2","","76","","","","29","","35","","4.0","","99.89","","","","-12","","Snow,Blowing Snow"
"-68.42","58.09","KUUJJUAQ A","7113535","2022-10-28 06:00","2022","10","28","06:00","-4.2","","-7.2","","80","","","","29","","35","","6.4","","99.95","","","","-13","","Snow,Blowing Snow"
"-68.42","58.09","KUUJJUAQ A","7113535","2022-10-28 07:00","2022","10","28","07:00","-4.3","","-8.0","","76","","","","29","","41","","6.4","","100.00","","","","-13","","Snow,Blowing Snow"
"-68.42","58.09","KUUJJUAQ A","7113535","2022-10-28 08:00","2022","10","28","08:00","-4.3","","-8.0","","75","","","","29","","36","","24.1","","100.05","","","","-13","","Snow,Blowing Snow"
"-68.42","58.09","KUUJJUAQ A","7113535","2022-10-28 09:00","2022","10","28","09:00","-3.5","","-7.7","","72","","","","28","","30","","19.3","","100.06","","","","-11","","Snow,Blowing Snow"
"-68.42","58.09","KUUJJUAQ A","7113535","2022-10-28 10:00","2022","10","28","10:00","-3.0","","-7.0","","74","","","","28","","32","","24.1","","100.07","","","","-11","","Snow,Blowing Snow"
"-68.42","58.09","KUUJJUAQ A","7113535","2022-10-28 11:00","2022","10","28","11:00","-2.6","","-7.7","","68","","","","28","","32","","24.1","","100.10","","","","-10","","Snow,Blowing Snow"
"-68.42","58.09","KUUJJUAQ A","7113535","2022-10-28 12:00","2022","10","28","12:00","-2.0","","-7.6","","66","","","","28","","40","","24.1","","100.11","","","","-10","","Blowing Snow"
"-68.42","58.09","KUUJJUAQ A","7113535","2022-10-28 13:00","2022","10","28","13:00","-1.3","","-6.8","","66","","","","28","","47","","24.1","","100.13","","","","-10","","Blowing Snow"
"-68.42","58.09","KUUJJUAQ A","7113535","2022-10-28 14:00","2022","10","28","14:00","-0.6","","-5.9","","67","","","","28","","35","","24.1","","100.21","","","","-8","","Blowing Snow"
"-68.42","58.09","KUUJJUAQ A","7113535","2022-10-28 15:00","2022","10","28","15:00","-0.4","","-5.4","","69","","","","27","","27","","24.1","","100.20","","","","-7","","NA"
"-68.42","58.09","KUUJJUAQ A","7113535","2022-10-28 16:00","2022","10","28","16:00","-1.4","","-5.2","","75","","","","28","","22","","24.1","","100.17","","","","-7","","Mainly Clear"
"-68.42","58.09","KUUJJUAQ A","7113535","2022-10-28 17:00","2022","10","28","17:00","-1.5","","-4.4","","81","","","","25","","17","","24.1","","100.12","","","","-7","","NA"
"-68.42","58.09","KUUJJUAQ A","7113535","2022-10-28 18:00","2022","10","28","18:00","-1.4","","-3.4","","86","","","","26","","14","","24.1","","100.05","","","","-6","","NA"
"-68.42","58.09","KUUJJUAQ A","7113535","2022-10-28 19:00","2022","10","28","19:00","-1.1","","-3.0","","87","","","","22","","17","","24.1","","99.99","","","","-6","","Mainly Clear"
"-68.42","58.09","KUUJJUAQ A","7113535","2022-10-28 20:00","2022","10","28","20:00","0.0","","-1.3","","91","","","","27","","12","","24.1","","99.91","","","","-4","","NA"
"-68.42","58.09","KUUJJUAQ A","7113535","2022-10-28 21:00","2022","10","28","21:00","0.7","","0.0","","95","","","","23","","10","","24.1","","99.85","","","","","","Snow"
"-68.42","58.09","KUUJJUAQ A","7113535","2022-10-28 22:00","2022","10","28","22:00","0.7","","0.6","","99","","","","22","","10","","24.1","","99.76","","","","","","Snow"
"-68.42","58.09","KUUJJUAQ A","7113535","2022-10-28 23:00","2022","10","28","23:00","1.1","","0.8","","98","","","","24","","14","","24.1","","99.65","","","","","","NA"
"-68.42","58.09","KUUJJUAQ A","7113535","2022-10-29 00:00","2022","10","29","00:00","1.3","","1.0","","98","","","","23","","12","","24.1","","99.58","","","","","","Snow"
"-68.42","58.09","KUUJJUAQ A","7113535","2022-10-29 01:00","2022","10","29","01:00","1.5","","1.5","","100","","","","22","","13","","24.1","","99.52","","","","","","Snow"
"-68.42","58.09","KUUJJUAQ A","7113535","2022-10-29 02:00","2022","10","29","02:00","1.7","","1.4","","98","","","","22","","14","","24.1","","99.46","","","","","","Rain"
"-68.42","58.09","KUUJJUAQ A","7113535","2022-10-29 03:00","2022","10","29","03:00","1.7","","1.6","","99","","","","22","","11","","19.3","","99.37","","","","","","Rain"
"-68.42","58.09","KUUJJUAQ A","7113535","2022-10-29 04:00","2022","10","29","04:00","2.1","","2.1","","100","","","","23","","10","","19.3","","99.28","","","","","","Rain"
"-68.42","58.09","KUUJJUAQ A","7113535","2022-10-29 05:00","2022","10","29","05:00","2.4","","2.4","","100","","","","21","","13","","16.1","","99.19","","","","","","Rain"
"-68.42","58.09","KUUJJUAQ A","7113535","2022-10-29 06:00","2022","10","29","06:00","2.9","","2.5","","97","","","","23","","9","","16.1","","99.12","","","","","","Rain"
"-68.42","58.09","KUUJJUAQ A","7113535","2022-10-29 07:00","2022","10","29","07:00","3.7","","2.9","","94","","","","23","","9","","24.1","","99.13","","","","","","Rain"
"-68.42","58.09","KUUJJUAQ A","7113535","2022-10-29 08:00","2022","10","29","08:00","3.7","","2.6","","92","","","","28","","18","","24.1","","99.19","","","","","","NA"
"-68.42","58.09","KUUJJUAQ A","7113535","2022-10-29 09:00","2022","10","29","09:00","4.6","","2.2","","84","","","","26","","24","","24.1","","99.25","","","","","","NA"
"-68.42","58.09","KUUJJUAQ A","7113535","2022-10-29 10:00","2022","10","29","10:00","5.4","","2.0","","79","","","","27","","23","","24.1","","99.30","","","","","","Mainly Clear"
"-68.42","58.09","KUUJJUAQ A","7113535","2022-10-29 11:00","2022","10","29","11:00","5.4","","2.0","","79","","","","27","","22","","24.1","","99.32","","","","","","NA"
"-68.42","58.09","KUUJJUAQ A","7113535","2022-10-29 12:00","2022","10","29","12:00","5.8","","2.2","","78","","","","25","","20","","24.1","","99.33","","","","","","NA"
"-68.42","58.09","KUUJJUAQ A","7113535","2022-10-29 13:00","2022","10","29","13:00","6.2","","2.4","","77","","","","28","","21","","24.1","","99.33","","","","","","Mostly Cloudy"
"-68.42","58.09","KUUJJUAQ A","7113535","2022-10-29 14:00","2022","10","29","14:00","6.2","","2.3","","76","","","","28","","22","","24.1","","99.33","","","","","","NA"
"-68.42","58.09","KUUJJUAQ A","7113535","2022-10-29 15:00","2022","10","29","15:00","6.0","","1.8","","74","","","","25","","15","","24.1","","99.33","","","","","","NA"
"-68.42","58.09","KUUJJUAQ A","7113535","2022-10-29 16:00","2022","10","29","16:00","5.0","","1.3","","77","","","","28","","18","","24.1","","99.34","","","","","","Mainly Clear"
"-68.42","58.09","KUUJJUAQ A","7113535","2022-10-29 17:00","2022","10","29","17:00","4.3","","1.0","","79","","","","27","","16","","24.1","","99.33","","","","","","NA"
"-68.42","58.09","KUUJJUAQ A","7113535","2022-10-29 18:00","2022","10","29","18:00","3.4","","1.1","","85","","","","26","","8","","24.1","","99.31","","","","","","NA"
"-68.42","58.09","KUUJJUAQ A","7113535","2022-10-29 19:00","2022","10","29","19:00","3.1","","1.0","","86","","","","20","","16","","24.1","","99.26","","","","","","Mainly Clear"
"-68.42","58.09","KUUJJUAQ A","7113535","2022-10-29 20:00","2022","10","29","20:00","3.6","","1.4","","86","","","","27","","12","","24.1","","99.24","","","","","","NA"
"-68.42","58.09","KUUJJUAQ A","7113535","2022-10-29 21:00","2022","10","29","21:00","4.3","","1.1","","79","","","","26","","22","","24.1","","99.19","","","","","","NA"
"-68.42","58.09","KUUJJUAQ A","7113535","2022-10-29 22:00","2022","10","29","22:00","2.6","","0.4","","85","","","","25","","10","","24.1","","99.23","","","","","","Rain Showers"
"-68.42","58.09","KUUJJUAQ A","7113535","2022-10-29 23:00","2022","10","29","23:00","2.8","","-0.3","","80","","","","28","","24","","19.3","","99.24","","","","","","Rain Showers"
"-68.42","58.09","KUUJJUAQ A","7113535","2022-10-30 00:00","2022","10","30","00:00","2.6","","-0.2","","81","","","","27","","21","","24.1","","99.24","","","","","","Rain Showers"
"-68.42","58.09","KUUJJUAQ A","7113535","2022-10-30 01:00","2022","10","30","01:00","2.4","","0.0","","84","","","","26","","16","","24.1","","99.24","","","","","","Rain Showers"
"-68.42","58.09","KUUJJUAQ A","7113535","2022-10-30 02:00","2022","10","30","02:00","1.8","","1.0","","94","","","","26","","22","","19.3","","99.23","","","","","","Rain"
"-68.42","58.09","KUUJJUAQ A","7113535","2022-10-30 03:00","2022","10","30","03:00","1.6","","0.2","","90","","","","28","","27","","19.3","","99.25","","","","","","Rain"
"-68.42","58.09","KUUJJUAQ A","7113535","2022-10-30 04:00","2022","10","30","04:00","1.7","","-0.2","","87","","","","27","","26","","19.3","","99.27","","","","","","Rain"
"-68.42","58.09","KUUJJUAQ A","7113535","2022-10-30 05:00","2022","10","30","05:00","1.5","","0.1","","90","","","","27","","21","","19.3","","99.29","","","","","","Rain"
"-68.42","58.09","KUUJJUAQ A","7113535","2022-10-30 06:00","2022","10","30","06:00","1.2","","0.4","","95","","","","26","","21","","19.3","","99.32","","","","","","Rain"
"-68.42","58.09","KUUJJUAQ A","7113535","2022-10-30 07:00","2022","10","30","07:00","1.4","","0.4","","93","","","","27","","20","","19.3","","99.37","","","","","","Rain,Snow"
"-68.42","58.09","KUUJJUAQ A","7113535","2022-10-30 08:00","2022","10","30","08:00","1.2","","0.5","","95","","","","26","","20","","9.7","","99.40","","","","","","Rain,Snow"
"-68.42","58.09","KUUJJUAQ A","7113535","2022-10-30 09:00","2022","10","30","09:00","1.6","","0.6","","93","","","","27","","24","","24.1","","99.46","","","","","","Rain"
"-68.42","58.09","KUUJJUAQ A","7113535","2022-10-30 10:00","2022","10","30","10:00","1.7","","0.7","","93","","","","27","","26","","19.3","","99.52","","","","","","Rain"
"-68.42","58.09","KUUJJUAQ A","7113535","2022-10-30 11:00","2022","10","30","11:00","2.2","","0.0","","85","","","","28","","27","","19.3","","99.59","","","","","","Rain,Snow"
"-68.42","58.09","KUUJJUAQ A","7113535","2022-10-30 12:00","2022","10","30","12:00","2.4","","-0.2","","83","","","","28","","28","","24.1","","99.63","","","","","","NA"
"-68.42","58.09","KUUJJUAQ A","7113535","2022-10-30 13:00","2022","10","30","13:00","2.4","","-0.7","","80","","","","28","","28","","24.1","","99.71","","","","","","Rain"
"-68.42","58.09","KUUJJUAQ A","7113535","2022-10-30 14:00","2022","10","30","14:00","2.3","","-1.5","","76","","","","29","","27","","24.1","","99.75","","","","","","Rain,Snow"
"-68.42","58.09","KUUJJUAQ A","7113535","2022-10-30 15:00","2022","10","30","15:00","2.1","","-2.1","","74","","","","28","","28","","24.1","","99.79","","","","","","Snow Showers"
"-68.42","58.09","KUUJJUAQ A","7113535","2022-10-30 16:00","2022","10","30","16:00","1.9","","-2.8","","71","","","","25","","18","","24.1","","99.84","","","","","","Mostly Cloudy"
"-68.42","58.09","KUUJJUAQ A","7113535","2022-10-30 17:00","2022","10","30","17:00","1.5","","-3.4","","70","","","","24","","14","","24.1","","99.88","","","","","","NA"
"-68.42","58.09","KUUJJUAQ A","7113535","2022-10-30 18:00","2022","10","30","18:00","1.0","","-2.9","","75","","","","26","","17","","24.1","","99.88","","","","","","NA"
"-68.42","58.09","KUUJJUAQ A","7113535","2022-10-30 19:00","2022","10","30","19:00","0.9","","-3.0","","75","","","","27","","21","","24.1","","99.87","","","","","","Cloudy"
"-68.42","58.09","KUUJJUAQ A","7113535","2022-10-30 20:00","2022","10","30","20:00","0.7","","-3.6","","73","","","","27","","14","","24.1","","99.86","","","","","","NA"
"-68.42","58.09","KUUJJUAQ A","7113535","2022-10-30 21:00","2022","10","30","21:00","0.7","","-3.6","","73","","","","30","","14","","24.1","","99.83","","","","","","NA"
"-68.42","58.09","KUUJJUAQ A","7113535","2022-10-30 22:00","2022","10","30","22:00","0.4","","-3.7","","74","","","","28","","5","","24.1","","99.83","","","","","","Cloudy"
"-68.42","58.09","KUUJJUAQ A","7113535","2022-10-30 23:00","2022","10","30","23:00","0.2","","-3.7","","75","","","","29","","17","","24.1","","99.78","","","","","","NA"
"-68.42","58.09","KUUJJUAQ A","7113535","2022-10-31 00:00","2022","10","31","00:00","0.5","","-3.8","","73","","","","30","","20","","24.1","","99.81","","","","","","NA"
"-68.42","58.09","KUUJJUAQ A","7113535","2022-10-31 01:00","2022","10","31","01:00","0.6","","-3.9","","72","","","","30","","20","","24.1","","99.88","","","","","","Cloudy"
"-68.42","58.09","KUUJJUAQ A","7113535","2022-10-31 02:00","2022","10","31","02:00","0.2","","-3.3","","77","","","","30","","22","","24.1","","99.94","","","","","","NA"
"-68.42","58.09","KUUJJUAQ A","7113535","2022-10-31 03:00","2022","10","31","03:00","0.2","","-2.9","","80","","","","30","","22","","24.1","","100.02","","","","","","NA"
"-68.42","58.09","KUUJJUAQ A","7113535","2022-10-31 04:00","2022","10","31","04:00","-0.3","","-4.5","","73","","","","31","","23","","19.3","","100.13","","","","-6","","Snow"
"-68.42","58.09","KUUJJUAQ A","7113535","2022-10-31 05:00","2022","10","31","05:00","-0.9","","-6.7","","65","","","","30","","22","","24.1","","100.23","","","","-7","","NA"
"-68.42","58.09","KUUJJUAQ A","7113535","2022-10-31 06:00","2022","10","31","06:00","-0.9","","-6.6","","65","","","","30","","23","","24.1","","100.30","","","","-7","","NA"
"-68.42","58.09","KUUJJUAQ A","7113535","2022-10-31 07:00","2022","10","31","07:00","-0.8","","-7.2","","62","","","","31","","22","","24.1","","100.41","","","","-7","","Mostly Cloudy"
"-68.42","58.09","KUUJJUAQ A","7113535","2022-10-31 08:00","2022","10","31","08:00","-1.2","","-6.0","","70","","","","30","","23","","24.1","","100.52","","","","-7","","Snow"
"-68.42","58.09","KUUJJUAQ A","7113535","2022-10-31 09:00","2022","10","31","09:00","-0.4","","-7.4","","59","","","","30","","23","","24.1","","100.59","","","","-6","","Snow"
"-68.42","58.09","KUUJJUAQ A","7113535","2022-10-31 10:00","2022","10","31","10:00","-0.2","","-8.4","","55","","","","31","","25","","24.1","","100.67","","","","-6","","Mainly Clear"
"-68.42","58.09","KUUJJUAQ A","7113535","2022-10-31 11:00","2022","10","31","11:00","0.1","","-7.7","","56","","","","30","","20","","24.1","","100.74","","","","","","NA"
"-68.42","58.09","KUUJJUAQ A","7113535","2022-10-31 12:00","2022","10","31","12:00","0.4","","-8.1","","53","","","","32","","19","","24.1","","100.76","","","","","","NA"
"-68.42","58.09","KUUJJUAQ A","7113535","2022-10-31 13:00","2022","10","31","13:00","0.7","","-7.7","","54","","","","24","","16","","24.1","","100.79","","","","","","Mostly Cloudy"
"-68.42","58.09","KUUJJUAQ A","7113535","2022-10-31 14:00","2022","10","31","14:00","-0.1","","-7.6","","57","","","","26","","14","","24.1","","100.83","","","","-4","","NA"
"-68.42","58.09","KUUJJUAQ A","7113535","2022-10-31 15:00","2022","10","31","15:00","-1.2","","-7.8","","61","","","","28","","14","","24.1","","100.86","","","","-6","","NA"
"-68.42","58.09","KUUJJUAQ A","7113535","2022-10-31 16:00","2022","10","31","16:00","-2.5","","-7.8","","67","","","","32","","14","","24.1","","100.88","","","","-7","","Mainly Clear"
"-68.42","58.09","KUUJJUAQ A","7113535","2022-10-31 17:00","2022","10","31","17:00","-2.6","","-7.8","","68","","","","33","","12","","24.1","","100.88","","","","-7","","NA"
"-68.42","58.09","KUUJJUAQ A","7113535","2022-10-31 18:00","2022","10","31","18:00","-3.1","","-7.3","","73","","","","13","","5","","24.1","","100.86","","","","-5","","NA"
"-68.42","58.09","KUUJJUAQ A","7113535","2022-10-31 19:00","2022","10","31","19:00","-3.3","","-6.8","","77","","","","15","","8","","24.1","","100.84","","","","-7","","Mainly Clear"
"-68.42","58.09","KUUJJUAQ A","7113535","2022-10-31 20:00","2022","10","31","20:00","-3.0","","-6.4","","77","","","","17","","12","","24.1","","100.82","","","","-7","","NA"
"-68.42","58.09","KUUJJUAQ A","7113535","2022-10-31 21:00","2022","10","31","21:00","-3.5","","-6.9","","78","","","","16","","12","","24.1","","100.75","","","","-8","","NA"
"-68.42","58.09","KUUJJUAQ A","7113535","2022-10-31 22:00","2022","10","31","22:00","-2.9","","-6.1","","78","","","","17","","15","","24.1","","100.70","","","","-8","","Mainly Clear"
"-68.42","58.09","KUUJJUAQ A","7113535","2022-10-31 23:00","2022","10","31","23:00","-3.0","","-6.2","","79","","","","17","","7","","24.1","","100.63","","","","-6","","NA"
