"Longitude (x)","Latitude (y)","Station Name","Climate ID","Date/Time (LST)","Year","Month","Day","Time (LST)","Temp (°C)","Temp Flag","Dew Point Temp (°C)","Dew Point Temp Flag","Rel Hum (%)","Rel Hum Flag","Precip. Amount (mm)","Precip. Amount Flag","Wind Dir (10s deg)","Wind Dir Flag","Wind Spd (km/h)","Wind Spd Flag","Visibility (km)","Visibility Flag","Stn Press (kPa)","Stn Press Flag","Hmdx","Hmdx Flag","Wind Chill","Wind Chill Flag","Weather"
"-65.71","66.15","PANGNIRTUNG A","2403051","2022-03-01 00:00","2022","03","01","00:00"
"-65.71","66.15","PANGNIRTUNG A","2403051","2022-03-01 01:00","2022","03","01","01:00"
"-65.71","66.15","PANGNIRTUNG A","2403051","2022-03-01 02:00","2022","03","01","02:00"
"-65.71","66.15","PANGNIRTUNG A","2403051","2022-03-01 03:00","2022","03","01","03:00"
"-65.71","66.15","PANGNIRTUNG A","2403051","2022-03-01 04:00","2022","03","01","04:00"
"-65.71","66.15","PANGNIRTUNG A","2403051","2022-03-01 05:00","2022","03","01","05:00"
"-65.71","66.15","PANGNIRTUNG A","2403051","2022-03-01 06:00","2022","03","01","06:00"
"-65.71","66.15","PANGNIRTUNG A","2403051","2022-03-01 07:00","2022","03","01","07:00","-27.1","","-30.1","","76","","","","29","","3","","24.1","","100.21","","","","-30","","Mostly Cloudy"
"-65.71","66.15","PANGNIRTUNG A","2403051","2022-03-01 08:00","2022","03","01","08:00","-28.4","","-31.4","","76","","","","36","","1","","24.1","","100.18","","","","-29","","NA"
"-65.71","66.15","PANGNIRTUNG A","2403051","2022-03-01 09:00","2022","03","01","09:00","-27.7","","-30.4","","78","","","","10","","4","","24.1","","100.15","","","","-32","","NA"
"-65.71","66.15","PANGNIRTUNG A","2403051","2022-03-01 10:00","2022","03","01","10:00","-27.4","","-30.4","","76","","","","8","","5","","24.1","","100.12","","","","-33","","Mostly Cloudy"
"-65.71","66.15","PANGNIRTUNG A","2403051","2022-03-01 11:00","2022","03","01","11:00","-27.3","","-30.0","","78","","","","24","","5","","24.1","","100.14","","","","-33","","NA"
"-65.71","66.15","PANGNIRTUNG A","2403051","2022-03-01 12:00","2022","03","01","12:00","-26.9","","-29.6","","78","","","","36","","2","","24.1","","100.11","","","","-29","","NA"
"-65.71","66.15","PANGNIRTUNG A","2403051","2022-03-01 13:00","2022","03","01","13:00","-26.5","","-29.3","","78","","","","36","","1","","24.1","","100.09","","","","-28","","Mostly Cloudy"
"-65.71","66.15","PANGNIRTUNG A","2403051","2022-03-01 14:00","2022","03","01","14:00","-26.2","","-29.1","","77","","","","20","","3","","24.1","","100.10","","","","-29","","NA"
"-65.71","66.15","PANGNIRTUNG A","2403051","2022-03-01 15:00","2022","03","01","15:00","-26.2","","-29.1","","77","","","","0","","1","","24.1","","100.09","","","","-27","","NA"
"-65.71","66.15","PANGNIRTUNG A","2403051","2022-03-01 16:00","2022","03","01","16:00","-26.1","","-29.0","","77","","","","24","","8","","24.1","","100.11","","","","-33","","Mostly Cloudy"
"-65.71","66.15","PANGNIRTUNG A","2403051","2022-03-01 17:00","2022","03","01","17:00","-26.9","","-29.8","","77","","","","24","","10","","24.1","","100.14","","","","-35","","NA"
"-65.71","66.15","PANGNIRTUNG A","2403051","2022-03-01 18:00","2022","03","01","18:00","-27.5","","-30.7","","75","","","","26","","10","","24.1","","100.17","","","","-36","","NA"
"-65.71","66.15","PANGNIRTUNG A","2403051","2022-03-01 19:00","2022","03","01","19:00"
"-65.71","66.15","PANGNIRTUNG A","2403051","2022-03-01 20:00","2022","03","01","20:00"
"-65.71","66.15","PANGNIRTUNG A","2403051","2022-03-01 21:00","2022","03","01","21:00"
"-65.71","66.15","PANGNIRTUNG A","2403051","2022-03-01 22:00","2022","03","01","22:00"
"-65.71","66.15","PANGNIRTUNG A","2403051","2022-03-01 23:00","2022","03","01","23:00"
"-65.71","66.15","PANGNIRTUNG A","2403051","2022-03-02 00:00","2022","03","02","00:00"
"-65.71","66.15","PANGNIRTUNG A","2403051","2022-03-02 01:00","2022","03","02","01:00"
"-65.71","66.15","PANGNIRTUNG A","2403051","2022-03-02 02:00","2022","03","02","02:00"
"-65.71","66.15","PANGNIRTUNG A","2403051","2022-03-02 03:00","2022","03","02","03:00"
"-65.71","66.15","PANGNIRTUNG A","2403051","2022-03-02 04:00","2022","03","02","04:00"
"-65.71","66.15","PANGNIRTUNG A","2403051","2022-03-02 05:00","2022","03","02","05:00"
"-65.71","66.15","PANGNIRTUNG A","2403051","2022-03-02 06:00","2022","03","02","06:00"
"-65.71","66.15","PANGNIRTUNG A","2403051","2022-03-02 07:00","2022","03","02","07:00","-29.0","","-32.1","","75","","","","11","","4","","24.1","","99.61","","","","-33","","Cloudy"
"-65.71","66.15","PANGNIRTUNG A","2403051","2022-03-02 08:00","2022","03","02","08:00","-28.3","","-31.3","","76","","","","7","","3","","24.1","","99.51","","","","-32","","NA"
"-65.71","66.15","PANGNIRTUNG A","2403051","2022-03-02 09:00","2022","03","02","09:00","-27.9","","-30.8","","77","","","","0","","1","","24.1","","99.46","","","","-29","","NA"
"-65.71","66.15","PANGNIRTUNG A","2403051","2022-03-02 10:00","2022","03","02","10:00","-27.1","","-30.1","","76","","","","25","","5","","24.1","","99.34","","","","-32","","Cloudy"
"-65.71","66.15","PANGNIRTUNG A","2403051","2022-03-02 11:00","2022","03","02","11:00","-26.4","","-29.4","","76","","","","25","","5","","24.1","","99.29","","","","-32","","NA"
"-65.71","66.15","PANGNIRTUNG A","2403051","2022-03-02 12:00","2022","03","02","12:00","-25.7","","-28.8","","76","","","","25","","8","","24.1","","99.21","","","","-33","","NA"
"-65.71","66.15","PANGNIRTUNG A","2403051","2022-03-02 13:00","2022","03","02","13:00","-25.2","","-28.4","","75","","","","36","","2","","24.1","","99.16","","","","-27","","Cloudy"
"-65.71","66.15","PANGNIRTUNG A","2403051","2022-03-02 14:00","2022","03","02","14:00","-24.7","","-28.1","","74","","","","36","","2","","24.1","","99.11","","","","-27","","NA"
"-65.71","66.15","PANGNIRTUNG A","2403051","2022-03-02 15:00","2022","03","02","15:00","-24.3","","-27.4","","76","","","","5","","6","","24.1","","99.08","","","","-30","","NA"
"-65.71","66.15","PANGNIRTUNG A","2403051","2022-03-02 16:00","2022","03","02","16:00","-23.9","","-27.0","","76","","","","36","","1","","24.1","","99.01","","","","-25","","Cloudy"
"-65.71","66.15","PANGNIRTUNG A","2403051","2022-03-02 17:00","2022","03","02","17:00","-23.3","","-26.1","","78","","","","25","","9","","24.1","","98.94","","","","-31","","NA"
"-65.71","66.15","PANGNIRTUNG A","2403051","2022-03-02 18:00","2022","03","02","18:00","-22.8","","-25.8","","77","","","","25","","12","","24.1","","98.87","","","","-31","","NA"
"-65.71","66.15","PANGNIRTUNG A","2403051","2022-03-02 19:00","2022","03","02","19:00"
"-65.71","66.15","PANGNIRTUNG A","2403051","2022-03-02 20:00","2022","03","02","20:00"
"-65.71","66.15","PANGNIRTUNG A","2403051","2022-03-02 21:00","2022","03","02","21:00"
"-65.71","66.15","PANGNIRTUNG A","2403051","2022-03-02 22:00","2022","03","02","22:00"
"-65.71","66.15","PANGNIRTUNG A","2403051","2022-03-02 23:00","2022","03","02","23:00"
"-65.71","66.15","PANGNIRTUNG A","2403051","2022-03-03 00:00","2022","03","03","00:00"
"-65.71","66.15","PANGNIRTUNG A","2403051","2022-03-03 01:00","2022","03","03","01:00"
"-65.71","66.15","PANGNIRTUNG A","2403051","2022-03-03 02:00","2022","03","03","02:00"
"-65.71","66.15","PANGNIRTUNG A","2403051","2022-03-03 03:00","2022","03","03","03:00"
"-65.71","66.15","PANGNIRTUNG A","2403051","2022-03-03 04:00","2022","03","03","04:00"
"-65.71","66.15","PANGNIRTUNG A","2403051","2022-03-03 05:00","2022","03","03","05:00"
"-65.71","66.15","PANGNIRTUNG A","2403051","2022-03-03 06:00","2022","03","03","06:00"
"-65.71","66.15","PANGNIRTUNG A","2403051","2022-03-03 07:00","2022","03","03","07:00","-18.1","","-21.5","","75","","","","7","","8","","24.1","","99.00","","","","-24","","Mostly Cloudy"
"-65.71","66.15","PANGNIRTUNG A","2403051","2022-03-03 08:00","2022","03","03","08:00","-16.0","","-19.8","","73","","","","5","","7","","24.1","","99.04","","","","-21","","NA"
"-65.71","66.15","PANGNIRTUNG A","2403051","2022-03-03 09:00","2022","03","03","09:00","-13.4","","-15.2","","86","","","","36","","1","","2.4","","99.12","","","","-14","","Snow"
"-65.71","66.15","PANGNIRTUNG A","2403051","2022-03-03 10:00","2022","03","03","10:00","-16.2","","-18.0","","86","","","","25","","15","","2.4","","99.19","","","","-24","","Snow,Blowing Snow"
"-65.71","66.15","PANGNIRTUNG A","2403051","2022-03-03 11:00","2022","03","03","11:00","-16.2","","-18.2","","85","","","","25","","13","","9.7","","99.26","","","","-24","","Snow,Blowing Snow"
"-65.71","66.15","PANGNIRTUNG A","2403051","2022-03-03 12:00","2022","03","03","12:00","-14.8","","-16.9","","84","","","","24","","17","","16.1","","99.32","","","","-23","","Snow,Blowing Snow"
"-65.71","66.15","PANGNIRTUNG A","2403051","2022-03-03 13:00","2022","03","03","13:00","-14.3","","-16.4","","84","","","","25","","12","","6.4","","99.38","","","","-21","","Snow"
"-65.71","66.15","PANGNIRTUNG A","2403051","2022-03-03 14:00","2022","03","03","14:00","-14.6","","-16.4","","86","","","","25","","6","","9.7","","99.46","","","","-19","","Snow"
"-65.71","66.15","PANGNIRTUNG A","2403051","2022-03-03 15:00","2022","03","03","15:00","-14.5","","-16.2","","87","","","","11","","5","","12.9","","99.51","","","","-18","","Snow"
"-65.71","66.15","PANGNIRTUNG A","2403051","2022-03-03 16:00","2022","03","03","16:00","-14.1","","-16.1","","85","","","","36","","1","","9.7","","99.55","","","","-15","","Snow"
"-65.71","66.15","PANGNIRTUNG A","2403051","2022-03-03 17:00","2022","03","03","17:00","-13.9","","-16.0","","85","","","","6","","3","","12.9","","99.58","","","","-16","","Snow"
"-65.71","66.15","PANGNIRTUNG A","2403051","2022-03-03 18:00","2022","03","03","18:00","-14.3","","-16.7","","82","","","","11","","6","","16.1","","99.61","","","","-18","","Snow"
"-65.71","66.15","PANGNIRTUNG A","2403051","2022-03-03 19:00","2022","03","03","19:00"
"-65.71","66.15","PANGNIRTUNG A","2403051","2022-03-03 20:00","2022","03","03","20:00"
"-65.71","66.15","PANGNIRTUNG A","2403051","2022-03-03 21:00","2022","03","03","21:00"
"-65.71","66.15","PANGNIRTUNG A","2403051","2022-03-03 22:00","2022","03","03","22:00"
"-65.71","66.15","PANGNIRTUNG A","2403051","2022-03-03 23:00","2022","03","03","23:00"
"-65.71","66.15","PANGNIRTUNG A","2403051","2022-03-04 00:00","2022","03","04","00:00"
"-65.71","66.15","PANGNIRTUNG A","2403051","2022-03-04 01:00","2022","03","04","01:00"
"-65.71","66.15","PANGNIRTUNG A","2403051","2022-03-04 02:00","2022","03","04","02:00"
"-65.71","66.15","PANGNIRTUNG A","2403051","2022-03-04 03:00","2022","03","04","03:00"
"-65.71","66.15","PANGNIRTUNG A","2403051","2022-03-04 04:00","2022","03","04","04:00"
"-65.71","66.15","PANGNIRTUNG A","2403051","2022-03-04 05:00","2022","03","04","05:00"
"-65.71","66.15","PANGNIRTUNG A","2403051","2022-03-04 06:00","2022","03","04","06:00"
"-65.71","66.15","PANGNIRTUNG A","2403051","2022-03-04 07:00","2022","03","04","07:00","-18.1","","-20.5","","82","","","","36","","1","","24.1","","99.84","","","","-19","","Ice Crystals"
"-65.71","66.15","PANGNIRTUNG A","2403051","2022-03-04 08:00","2022","03","04","08:00","-19.8","","-21.6","","86","","","","12","","3","","24.1","","99.86","","","","-22","","Ice Crystals"
"-65.71","66.15","PANGNIRTUNG A","2403051","2022-03-04 09:00","2022","03","04","09:00","-19.3","","-21.4","","84","","","","29","","4","","24.1","","99.84","","","","-23","","Ice Crystals"
"-65.71","66.15","PANGNIRTUNG A","2403051","2022-03-04 10:00","2022","03","04","10:00","-20.5","","-22.5","","85","","","","36","","1","","24.1","","99.82","","","","-21","","Ice Crystals"
"-65.71","66.15","PANGNIRTUNG A","2403051","2022-03-04 11:00","2022","03","04","11:00","-18.4","","-20.7","","82","","","","26","","4","","24.1","","99.82","","","","-22","","Ice Crystals"
"-65.71","66.15","PANGNIRTUNG A","2403051","2022-03-04 12:00","2022","03","04","12:00","-18.6","","-21.4","","79","","","","9","","5","","24.1","","99.81","","","","-23","","Ice Crystals"
"-65.71","66.15","PANGNIRTUNG A","2403051","2022-03-04 13:00","2022","03","04","13:00","-17.9","","-21.2","","76","","","","12","","13","","24.1","","99.83","","","","-26","","Ice Crystals"
"-65.71","66.15","PANGNIRTUNG A","2403051","2022-03-04 14:00","2022","03","04","14:00","-19.3","","-22.1","","79","","","","11","","6","","24.1","","99.89","","","","-24","","Ice Crystals"
"-65.71","66.15","PANGNIRTUNG A","2403051","2022-03-04 15:00","2022","03","04","15:00","-18.2","","-21.4","","77","","","","29","","5","","24.1","","99.91","","","","-22","","Ice Crystals"
"-65.71","66.15","PANGNIRTUNG A","2403051","2022-03-04 16:00","2022","03","04","16:00","-18.7","","-21.6","","79","","","","25","","8","","24.1","","99.92","","","","-25","","Ice Crystals"
"-65.71","66.15","PANGNIRTUNG A","2403051","2022-03-04 17:00","2022","03","04","17:00","-19.9","","-23.7","","72","","","","29","","3","","24.1","","99.97","","","","-22","","Ice Crystals"
"-65.71","66.15","PANGNIRTUNG A","2403051","2022-03-04 18:00","2022","03","04","18:00","-19.4","","-22.3","","78","","","","25","","5","","24.1","","99.98","","","","-24","","Ice Crystals"
"-65.71","66.15","PANGNIRTUNG A","2403051","2022-03-04 19:00","2022","03","04","19:00"
"-65.71","66.15","PANGNIRTUNG A","2403051","2022-03-04 20:00","2022","03","04","20:00"
"-65.71","66.15","PANGNIRTUNG A","2403051","2022-03-04 21:00","2022","03","04","21:00"
"-65.71","66.15","PANGNIRTUNG A","2403051","2022-03-04 22:00","2022","03","04","22:00"
"-65.71","66.15","PANGNIRTUNG A","2403051","2022-03-04 23:00","2022","03","04","23:00"
"-65.71","66.15","PANGNIRTUNG A","2403051","2022-03-05 00:00","2022","03","05","00:00"
"-65.71","66.15","PANGNIRTUNG A","2403051","2022-03-05 01:00","2022","03","05","01:00"
"-65.71","66.15","PANGNIRTUNG A","2403051","2022-03-05 02:00","2022","03","05","02:00"
"-65.71","66.15","PANGNIRTUNG A","2403051","2022-03-05 03:00","2022","03","05","03:00"
"-65.71","66.15","PANGNIRTUNG A","2403051","2022-03-05 04:00","2022","03","05","04:00"
"-65.71","66.15","PANGNIRTUNG A","2403051","2022-03-05 05:00","2022","03","05","05:00"
"-65.71","66.15","PANGNIRTUNG A","2403051","2022-03-05 06:00","2022","03","05","06:00"
"-65.71","66.15","PANGNIRTUNG A","2403051","2022-03-05 07:00","2022","03","05","07:00"
"-65.71","66.15","PANGNIRTUNG A","2403051","2022-03-05 08:00","2022","03","05","08:00"
"-65.71","66.15","PANGNIRTUNG A","2403051","2022-03-05 09:00","2022","03","05","09:00"
"-65.71","66.15","PANGNIRTUNG A","2403051","2022-03-05 10:00","2022","03","05","10:00","-23.2","","-25.3","","83","","","","36","","2","","24.1","","99.15","","","","-25","","Mostly Cloudy"
"-65.71","66.15","PANGNIRTUNG A","2403051","2022-03-05 11:00","2022","03","05","11:00","-24.0","","-26.1","","83","","","","36","","2","","24.1","","99.06","","","","-26","","NA"
"-65.71","66.15","PANGNIRTUNG A","2403051","2022-03-05 12:00","2022","03","05","12:00","-24.0","","-26.4","","81","","","","6","","6","","24.1","","98.91","","","","-30","","NA"
"-65.71","66.15","PANGNIRTUNG A","2403051","2022-03-05 13:00","2022","03","05","13:00","-22.6","","-24.5","","85","","","","20","","5","","24.1","","98.82","","","","-27","","Mostly Cloudy"
"-65.71","66.15","PANGNIRTUNG A","2403051","2022-03-05 14:00","2022","03","05","14:00","-23.0","","-25.1","","83","","","","36","","2","","24.1","","98.77","","","","-25","","NA"
"-65.71","66.15","PANGNIRTUNG A","2403051","2022-03-05 15:00","2022","03","05","15:00","-22.5","","-24.8","","82","","","","28","","5","","24.1","","98.70","","","","-27","","NA"
"-65.71","66.15","PANGNIRTUNG A","2403051","2022-03-05 16:00","2022","03","05","16:00"
"-65.71","66.15","PANGNIRTUNG A","2403051","2022-03-05 17:00","2022","03","05","17:00"
"-65.71","66.15","PANGNIRTUNG A","2403051","2022-03-05 18:00","2022","03","05","18:00"
"-65.71","66.15","PANGNIRTUNG A","2403051","2022-03-05 19:00","2022","03","05","19:00"
"-65.71","66.15","PANGNIRTUNG A","2403051","2022-03-05 20:00","2022","03","05","20:00"
"-65.71","66.15","PANGNIRTUNG A","2403051","2022-03-05 21:00","2022","03","05","21:00"
"-65.71","66.15","PANGNIRTUNG A","2403051","2022-03-05 22:00","2022","03","05","22:00"
"-65.71","66.15","PANGNIRTUNG A","2403051","2022-03-05 23:00","2022","03","05","23:00"
"-65.71","66.15","PANGNIRTUNG A","2403051","2022-03-06 00:00","2022","03","06","00:00"
"-65.71","66.15","PANGNIRTUNG A","2403051","2022-03-06 01:00","2022","03","06","01:00"
"-65.71","66.15","PANGNIRTUNG A","2403051","2022-03-06 02:00","2022","03","06","02:00"
"-65.71","66.15","PANGNIRTUNG A","2403051","2022-03-06 03:00","2022","03","06","03:00"
"-65.71","66.15","PANGNIRTUNG A","2403051","2022-03-06 04:00","2022","03","06","04:00"
"-65.71","66.15","PANGNIRTUNG A","2403051","2022-03-06 05:00","2022","03","06","05:00"
"-65.71","66.15","PANGNIRTUNG A","2403051","2022-03-06 06:00","2022","03","06","06:00"
"-65.71","66.15","PANGNIRTUNG A","2403051","2022-03-06 07:00","2022","03","06","07:00"
"-65.71","66.15","PANGNIRTUNG A","2403051","2022-03-06 08:00","2022","03","06","08:00"
"-65.71","66.15","PANGNIRTUNG A","2403051","2022-03-06 09:00","2022","03","06","09:00"
"-65.71","66.15","PANGNIRTUNG A","2403051","2022-03-06 10:00","2022","03","06","10:00"
"-65.71","66.15","PANGNIRTUNG A","2403051","2022-03-06 11:00","2022","03","06","11:00"
"-65.71","66.15","PANGNIRTUNG A","2403051","2022-03-06 12:00","2022","03","06","12:00","-21.3","","-23.9","","80","","","","10","","4","","17.7","","99.50","","","","-25","","Ice Crystals"
"-65.71","66.15","PANGNIRTUNG A","2403051","2022-03-06 13:00","2022","03","06","13:00","-20.4","","-23.1","","79","","","","12","","5","","19.3","","99.56","","","","-25","","Ice Crystals"
"-65.71","66.15","PANGNIRTUNG A","2403051","2022-03-06 14:00","2022","03","06","14:00","-19.6","","-22.4","","79","","","","14","","6","","24.1","","99.62","","","","-25","","Ice Crystals"
"-65.71","66.15","PANGNIRTUNG A","2403051","2022-03-06 15:00","2022","03","06","15:00","-19.6","","-22.8","","76","","","","14","","4","","24.1","","99.67","","","","-23","","Ice Crystals"
"-65.71","66.15","PANGNIRTUNG A","2403051","2022-03-06 16:00","2022","03","06","16:00","-19.8","","-22.6","","79","","","","36","","2","","19.3","","99.72","","","","-22","","Ice Crystals"
"-65.71","66.15","PANGNIRTUNG A","2403051","2022-03-06 17:00","2022","03","06","17:00"
"-65.71","66.15","PANGNIRTUNG A","2403051","2022-03-06 18:00","2022","03","06","18:00"
"-65.71","66.15","PANGNIRTUNG A","2403051","2022-03-06 19:00","2022","03","06","19:00"
"-65.71","66.15","PANGNIRTUNG A","2403051","2022-03-06 20:00","2022","03","06","20:00"
"-65.71","66.15","PANGNIRTUNG A","2403051","2022-03-06 21:00","2022","03","06","21:00"
"-65.71","66.15","PANGNIRTUNG A","2403051","2022-03-06 22:00","2022","03","06","22:00"
"-65.71","66.15","PANGNIRTUNG A","2403051","2022-03-06 23:00","2022","03","06","23:00"
"-65.71","66.15","PANGNIRTUNG A","2403051","2022-03-07 00:00","2022","03","07","00:00"
"-65.71","66.15","PANGNIRTUNG A","2403051","2022-03-07 01:00","2022","03","07","01:00"
"-65.71","66.15","PANGNIRTUNG A","2403051","2022-03-07 02:00","2022","03","07","02:00"
"-65.71","66.15","PANGNIRTUNG A","2403051","2022-03-07 03:00","2022","03","07","03:00"
"-65.71","66.15","PANGNIRTUNG A","2403051","2022-03-07 04:00","2022","03","07","04:00"
"-65.71","66.15","PANGNIRTUNG A","2403051","2022-03-07 05:00","2022","03","07","05:00"
"-65.71","66.15","PANGNIRTUNG A","2403051","2022-03-07 06:00","2022","03","07","06:00"
"-65.71","66.15","PANGNIRTUNG A","2403051","2022-03-07 07:00","2022","03","07","07:00","-19.7","","-22.5","","79","","","","36","","2","","24.1","","99.92","","","","-21","","Snow Showers"
"-65.71","66.15","PANGNIRTUNG A","2403051","2022-03-07 08:00","2022","03","07","08:00","-19.9","","-22.6","","80","","","","36","","1","","24.1","","99.93","","","","-21","","Snow Showers"
"-65.71","66.15","PANGNIRTUNG A","2403051","2022-03-07 09:00","2022","03","07","09:00","-20.0","","-22.8","","79","","","","4","","4","","24.1","","99.96","","","","-23","","Snow"
"-65.71","66.15","PANGNIRTUNG A","2403051","2022-03-07 10:00","2022","03","07","10:00","-19.9","","-22.8","","78","","","","8","","4","","24.1","","99.96","","","","-23","","Snow"
"-65.71","66.15","PANGNIRTUNG A","2403051","2022-03-07 11:00","2022","03","07","11:00","-19.6","","-23.0","","75","","","","0","","1","","24.1","","99.96","","","","-20","","NA"
"-65.71","66.15","PANGNIRTUNG A","2403051","2022-03-07 12:00","2022","03","07","12:00","-19.2","","-22.6","","75","","","","29","","3","","24.1","","99.95","","","","-22","","NA"
"-65.71","66.15","PANGNIRTUNG A","2403051","2022-03-07 13:00","2022","03","07","13:00","-19.5","","-23.5","","71","","","","36","","1","","24.1","","99.95","","","","-20","","Mostly Cloudy"
"-65.71","66.15","PANGNIRTUNG A","2403051","2022-03-07 14:00","2022","03","07","14:00","-18.8","","-24.1","","64","","","","26","","12","","24.1","","99.95","","","","-27","","NA"
"-65.71","66.15","PANGNIRTUNG A","2403051","2022-03-07 15:00","2022","03","07","15:00","-18.8","","-23.7","","66","","","","36","","3","","24.1","","99.96","","","","-21","","NA"
"-65.71","66.15","PANGNIRTUNG A","2403051","2022-03-07 16:00","2022","03","07","16:00","-18.5","","-23.1","","68","","","","22","","7","","24.1","","99.97","","","","-24","","Mostly Cloudy"
"-65.71","66.15","PANGNIRTUNG A","2403051","2022-03-07 17:00","2022","03","07","17:00","-19.1","","-23.1","","71","","","","36","","2","","24.1","","99.97","","","","-21","","NA"
"-65.71","66.15","PANGNIRTUNG A","2403051","2022-03-07 18:00","2022","03","07","18:00","-19.8","","-22.6","","79","","","","25","","5","","24.1","","99.98","","","","-24","","NA"
"-65.71","66.15","PANGNIRTUNG A","2403051","2022-03-07 19:00","2022","03","07","19:00"
"-65.71","66.15","PANGNIRTUNG A","2403051","2022-03-07 20:00","2022","03","07","20:00"
"-65.71","66.15","PANGNIRTUNG A","2403051","2022-03-07 21:00","2022","03","07","21:00"
"-65.71","66.15","PANGNIRTUNG A","2403051","2022-03-07 22:00","2022","03","07","22:00"
"-65.71","66.15","PANGNIRTUNG A","2403051","2022-03-07 23:00","2022","03","07","23:00"
"-65.71","66.15","PANGNIRTUNG A","2403051","2022-03-08 00:00","2022","03","08","00:00"
"-65.71","66.15","PANGNIRTUNG A","2403051","2022-03-08 01:00","2022","03","08","01:00"
"-65.71","66.15","PANGNIRTUNG A","2403051","2022-03-08 02:00","2022","03","08","02:00"
"-65.71","66.15","PANGNIRTUNG A","2403051","2022-03-08 03:00","2022","03","08","03:00"
"-65.71","66.15","PANGNIRTUNG A","2403051","2022-03-08 04:00","2022","03","08","04:00"
"-65.71","66.15","PANGNIRTUNG A","2403051","2022-03-08 05:00","2022","03","08","05:00"
"-65.71","66.15","PANGNIRTUNG A","2403051","2022-03-08 06:00","2022","03","08","06:00"
"-65.71","66.15","PANGNIRTUNG A","2403051","2022-03-08 07:00","2022","03","08","07:00","-19.2","","-22.4","","76","","","","36","","3","","24.1","","99.96","","","","-22","","Snow"
"-65.71","66.15","PANGNIRTUNG A","2403051","2022-03-08 08:00","2022","03","08","08:00","-19.2","","-22.3","","77","","","","7","","3","","24.1","","99.95","","","","-22","","Snow"
"-65.71","66.15","PANGNIRTUNG A","2403051","2022-03-08 09:00","2022","03","08","09:00","-19.1","","-22.0","","78","","","","36","","2","","24.1","","99.95","","","","-21","","Snow"
"-65.71","66.15","PANGNIRTUNG A","2403051","2022-03-08 10:00","2022","03","08","10:00","-18.6","","-21.7","","77","","","","25","","7","","24.1","","99.96","","","","-24","","Snow"
"-65.71","66.15","PANGNIRTUNG A","2403051","2022-03-08 11:00","2022","03","08","11:00","-18.5","","-21.4","","78","","","","24","","7","","24.1","","99.96","","","","-24","","Snow"
"-65.71","66.15","PANGNIRTUNG A","2403051","2022-03-08 12:00","2022","03","08","12:00","-18.3","","-21.6","","76","","","","26","","5","","24.1","","99.94","","","","-22","","Snow"
"-65.71","66.15","PANGNIRTUNG A","2403051","2022-03-08 13:00","2022","03","08","13:00","-18.3","","-21.2","","78","","","","24","","6","","24.1","","99.93","","","","-23","","Snow"
"-65.71","66.15","PANGNIRTUNG A","2403051","2022-03-08 14:00","2022","03","08","14:00","-18.4","","-21.4","","78","","","","25","","7","","24.1","","99.94","","","","-24","","Snow"
"-65.71","66.15","PANGNIRTUNG A","2403051","2022-03-08 15:00","2022","03","08","15:00","-18.5","","-21.3","","79","","","","25","","13","","24.1","","99.96","","","","-27","","Snow"
"-65.71","66.15","PANGNIRTUNG A","2403051","2022-03-08 16:00","2022","03","08","16:00","-18.6","","-21.4","","79","","","","24","","9","","24.1","","99.96","","","","-25","","Snow"
"-65.71","66.15","PANGNIRTUNG A","2403051","2022-03-08 17:00","2022","03","08","17:00","-18.8","","-21.3","","81","","","","24","","10","","24.1","","99.97","","","","-26","","Snow"
"-65.71","66.15","PANGNIRTUNG A","2403051","2022-03-08 18:00","2022","03","08","18:00","-18.8","","-21.4","","80","","","","24","","10","","24.1","","99.95","","","","-26","","Snow"
"-65.71","66.15","PANGNIRTUNG A","2403051","2022-03-08 19:00","2022","03","08","19:00"
"-65.71","66.15","PANGNIRTUNG A","2403051","2022-03-08 20:00","2022","03","08","20:00"
"-65.71","66.15","PANGNIRTUNG A","2403051","2022-03-08 21:00","2022","03","08","21:00"
"-65.71","66.15","PANGNIRTUNG A","2403051","2022-03-08 22:00","2022","03","08","22:00"
"-65.71","66.15","PANGNIRTUNG A","2403051","2022-03-08 23:00","2022","03","08","23:00"
"-65.71","66.15","PANGNIRTUNG A","2403051","2022-03-09 00:00","2022","03","09","00:00"
"-65.71","66.15","PANGNIRTUNG A","2403051","2022-03-09 01:00","2022","03","09","01:00"
"-65.71","66.15","PANGNIRTUNG A","2403051","2022-03-09 02:00","2022","03","09","02:00"
"-65.71","66.15","PANGNIRTUNG A","2403051","2022-03-09 03:00","2022","03","09","03:00"
"-65.71","66.15","PANGNIRTUNG A","2403051","2022-03-09 04:00","2022","03","09","04:00"
"-65.71","66.15","PANGNIRTUNG A","2403051","2022-03-09 05:00","2022","03","09","05:00"
"-65.71","66.15","PANGNIRTUNG A","2403051","2022-03-09 06:00","2022","03","09","06:00"
"-65.71","66.15","PANGNIRTUNG A","2403051","2022-03-09 07:00","2022","03","09","07:00","-21.2","","-23.5","","82","","","","24","","7","","24.1","","99.67","","","","-27","","Snow"
"-65.71","66.15","PANGNIRTUNG A","2403051","2022-03-09 08:00","2022","03","09","08:00","-21.0","","-23.4","","81","","","","27","","4","","24.1","","99.66","","","","-25","","Snow"
"-65.71","66.15","PANGNIRTUNG A","2403051","2022-03-09 09:00","2022","03","09","09:00","-20.5","","-23.6","","77","","","","11","","3","","24.1","","99.65","","","","-23","","Snow"
"-65.71","66.15","PANGNIRTUNG A","2403051","2022-03-09 10:00","2022","03","09","10:00","-20.5","","-23.2","","79","","","","24","","7","","24.1","","99.62","","","","-26","","Snow"
"-65.71","66.15","PANGNIRTUNG A","2403051","2022-03-09 11:00","2022","03","09","11:00","-21.2","","-23.8","","80","","","","25","","10","","24.1","","99.59","","","","-29","","Snow"
"-65.71","66.15","PANGNIRTUNG A","2403051","2022-03-09 12:00","2022","03","09","12:00","-22.3","","-24.9","","80","","","","24","","12","","24.1","","99.58","","","","-31","","NA"
"-65.71","66.15","PANGNIRTUNG A","2403051","2022-03-09 13:00","2022","03","09","13:00","-22.1","","-24.8","","79","","","","24","","9","","24.1","","99.59","","","","-29","","Mostly Cloudy"
"-65.71","66.15","PANGNIRTUNG A","2403051","2022-03-09 14:00","2022","03","09","14:00","-22.1","","-24.9","","78","","","","24","","4","","24.1","","99.57","","","","-26","","NA"
"-65.71","66.15","PANGNIRTUNG A","2403051","2022-03-09 15:00","2022","03","09","15:00","-22.4","","-25.6","","76","","","","24","","5","","24.1","","99.58","","","","-27","","NA"
"-65.71","66.15","PANGNIRTUNG A","2403051","2022-03-09 16:00","2022","03","09","16:00","-22.7","","-25.4","","79","","","","24","","7","","24.1","","99.58","","","","-29","","Mainly Clear"
"-65.71","66.15","PANGNIRTUNG A","2403051","2022-03-09 17:00","2022","03","09","17:00","-23.6","","-26.0","","81","","","","36","","3","","24.1","","99.59","","","","-26","","NA"
"-65.71","66.15","PANGNIRTUNG A","2403051","2022-03-09 18:00","2022","03","09","18:00","-23.8","","-26.6","","78","","","","36","","2","","24.1","","99.59","","","","-26","","NA"
"-65.71","66.15","PANGNIRTUNG A","2403051","2022-03-09 19:00","2022","03","09","19:00"
"-65.71","66.15","PANGNIRTUNG A","2403051","2022-03-09 20:00","2022","03","09","20:00"
"-65.71","66.15","PANGNIRTUNG A","2403051","2022-03-09 21:00","2022","03","09","21:00"
"-65.71","66.15","PANGNIRTUNG A","2403051","2022-03-09 22:00","2022","03","09","22:00"
"-65.71","66.15","PANGNIRTUNG A","2403051","2022-03-09 23:00","2022","03","09","23:00"
"-65.71","66.15","PANGNIRTUNG A","2403051","2022-03-10 00:00","2022","03","10","00:00"
"-65.71","66.15","PANGNIRTUNG A","2403051","2022-03-10 01:00","2022","03","10","01:00"
"-65.71","66.15","PANGNIRTUNG A","2403051","2022-03-10 02:00","2022","03","10","02:00"
"-65.71","66.15","PANGNIRTUNG A","2403051","2022-03-10 03:00","2022","03","10","03:00"
"-65.71","66.15","PANGNIRTUNG A","2403051","2022-03-10 04:00","2022","03","10","04:00"
"-65.71","66.15","PANGNIRTUNG A","2403051","2022-03-10 05:00","2022","03","10","05:00"
"-65.71","66.15","PANGNIRTUNG A","2403051","2022-03-10 06:00","2022","03","10","06:00"
"-65.71","66.15","PANGNIRTUNG A","2403051","2022-03-10 07:00","2022","03","10","07:00","-25.5","","-28.3","","78","","","","8","","8","","24.1","","99.58","","","","-33","","Mostly Cloudy"
"-65.71","66.15","PANGNIRTUNG A","2403051","2022-03-10 08:00","2022","03","10","08:00","-25.0","","-27.8","","78","","","","10","","5","","24.1","","99.58","","","","-30","","NA"
"-65.71","66.15","PANGNIRTUNG A","2403051","2022-03-10 09:00","2022","03","10","09:00","-24.6","","-27.4","","78","","","","25","","5","","24.1","","99.60","","","","-29","","NA"
"-65.71","66.15","PANGNIRTUNG A","2403051","2022-03-10 10:00","2022","03","10","10:00","-23.6","","-26.4","","78","","","","6","","4","","24.1","","99.60","","","","-27","","Mostly Cloudy"
"-65.71","66.15","PANGNIRTUNG A","2403051","2022-03-10 11:00","2022","03","10","11:00","-23.0","","-25.8","","78","","","","36","","1","","24.1","","99.59","","","","-24","","NA"
"-65.71","66.15","PANGNIRTUNG A","2403051","2022-03-10 12:00","2022","03","10","12:00","-22.1","","-25.2","","76","","","","26","","10","","24.1","","99.61","","","","-30","","Snow"
"-65.71","66.15","PANGNIRTUNG A","2403051","2022-03-10 13:00","2022","03","10","13:00","-21.3","","-24.8","","74","","","","23","","4","","9.7","","99.62","","","","-25","","Snow"
"-65.71","66.15","PANGNIRTUNG A","2403051","2022-03-10 14:00","2022","03","10","14:00","-21.3","","-24.9","","73","","","","24","","6","","24.1","","99.62","","","","-27","","NA"
"-65.71","66.15","PANGNIRTUNG A","2403051","2022-03-10 15:00","2022","03","10","15:00","-21.9","","-25.2","","75","","","","24","","8","","24.1","","99.67","","","","-28","","NA"
"-65.71","66.15","PANGNIRTUNG A","2403051","2022-03-10 16:00","2022","03","10","16:00","-21.9","","-25.5","","73","","","","36","","1","","24.1","","99.66","","","","-23","","Mostly Cloudy"
"-65.71","66.15","PANGNIRTUNG A","2403051","2022-03-10 17:00","2022","03","10","17:00","-21.9","","-25.4","","74","","","","36","","1","","24.1","","99.68","","","","-23","","NA"
"-65.71","66.15","PANGNIRTUNG A","2403051","2022-03-10 18:00","2022","03","10","18:00","-21.5","","-25.2","","72","","","","36","","1","","24.1","","99.70","","","","-22","","NA"
"-65.71","66.15","PANGNIRTUNG A","2403051","2022-03-10 19:00","2022","03","10","19:00"
"-65.71","66.15","PANGNIRTUNG A","2403051","2022-03-10 20:00","2022","03","10","20:00"
"-65.71","66.15","PANGNIRTUNG A","2403051","2022-03-10 21:00","2022","03","10","21:00"
"-65.71","66.15","PANGNIRTUNG A","2403051","2022-03-10 22:00","2022","03","10","22:00"
"-65.71","66.15","PANGNIRTUNG A","2403051","2022-03-10 23:00","2022","03","10","23:00"
"-65.71","66.15","PANGNIRTUNG A","2403051","2022-03-11 00:00","2022","03","11","00:00"
"-65.71","66.15","PANGNIRTUNG A","2403051","2022-03-11 01:00","2022","03","11","01:00"
"-65.71","66.15","PANGNIRTUNG A","2403051","2022-03-11 02:00","2022","03","11","02:00"
"-65.71","66.15","PANGNIRTUNG A","2403051","2022-03-11 03:00","2022","03","11","03:00"
"-65.71","66.15","PANGNIRTUNG A","2403051","2022-03-11 04:00","2022","03","11","04:00"
"-65.71","66.15","PANGNIRTUNG A","2403051","2022-03-11 05:00","2022","03","11","05:00"
"-65.71","66.15","PANGNIRTUNG A","2403051","2022-03-11 06:00","2022","03","11","06:00"
"-65.71","66.15","PANGNIRTUNG A","2403051","2022-03-11 07:00","2022","03","11","07:00","-27.1","","-29.7","","79","","","","24","","9","","24.1","","99.79","","","","-35","","Ice Crystals"
"-65.71","66.15","PANGNIRTUNG A","2403051","2022-03-11 08:00","2022","03","11","08:00","-26.8","","-29.3","","80","","","","26","","7","","24.1","","99.81","","","","-34","","Ice Crystals"
"-65.71","66.15","PANGNIRTUNG A","2403051","2022-03-11 09:00","2022","03","11","09:00","-26.8","","-29.7","","77","","","","23","","4","","24.1","","99.84","","","","-31","","Ice Crystals"
"-65.71","66.15","PANGNIRTUNG A","2403051","2022-03-11 10:00","2022","03","11","10:00"
"-65.71","66.15","PANGNIRTUNG A","2403051","2022-03-11 11:00","2022","03","11","11:00","-27.3","","-30.5","","75","","","","23","","7","","24.1","","99.88","","","","-34","","Ice Crystals"
"-65.71","66.15","PANGNIRTUNG A","2403051","2022-03-11 12:00","2022","03","11","12:00","-26.5","","-29.8","","74","","","","26","","4","","24.1","","99.89","","","","-31","","Ice Crystals"
"-65.71","66.15","PANGNIRTUNG A","2403051","2022-03-11 13:00","2022","03","11","13:00","-26.8","","-30.4","","72","","","","17","","6","","24.1","","99.91","","","","-33","","Ice Crystals"
"-65.71","66.15","PANGNIRTUNG A","2403051","2022-03-11 14:00","2022","03","11","14:00","-26.3","","-29.8","","73","","","","23","","6","","24.1","","99.93","","","","-32","","Ice Crystals"
"-65.71","66.15","PANGNIRTUNG A","2403051","2022-03-11 15:00","2022","03","11","15:00","-26.8","","-30.3","","73","","","","16","","8","","24.1","","99.96","","","","-34","","Ice Crystals"
"-65.71","66.15","PANGNIRTUNG A","2403051","2022-03-11 16:00","2022","03","11","16:00","-27.2","","-30.2","","76","","","","22","","8","","24.1","","99.98","","","","-35","","Ice Crystals"
"-65.71","66.15","PANGNIRTUNG A","2403051","2022-03-11 17:00","2022","03","11","17:00","-27.5","","-30.6","","76","","","","21","","6","","24.1","","100.02","","","","-34","","Ice Crystals"
"-65.71","66.15","PANGNIRTUNG A","2403051","2022-03-11 18:00","2022","03","11","18:00","-28.1","","-31.1","","76","","","","25","","3","","24.1","","100.04","","","","-31","","Ice Crystals"
"-65.71","66.15","PANGNIRTUNG A","2403051","2022-03-11 19:00","2022","03","11","19:00"
"-65.71","66.15","PANGNIRTUNG A","2403051","2022-03-11 20:00","2022","03","11","20:00"
"-65.71","66.15","PANGNIRTUNG A","2403051","2022-03-11 21:00","2022","03","11","21:00"
"-65.71","66.15","PANGNIRTUNG A","2403051","2022-03-11 22:00","2022","03","11","22:00"
"-65.71","66.15","PANGNIRTUNG A","2403051","2022-03-11 23:00","2022","03","11","23:00"
"-65.71","66.15","PANGNIRTUNG A","2403051","2022-03-12 00:00","2022","03","12","00:00"
"-65.71","66.15","PANGNIRTUNG A","2403051","2022-03-12 01:00","2022","03","12","01:00"
"-65.71","66.15","PANGNIRTUNG A","2403051","2022-03-12 02:00","2022","03","12","02:00"
"-65.71","66.15","PANGNIRTUNG A","2403051","2022-03-12 03:00","2022","03","12","03:00"
"-65.71","66.15","PANGNIRTUNG A","2403051","2022-03-12 04:00","2022","03","12","04:00"
"-65.71","66.15","PANGNIRTUNG A","2403051","2022-03-12 05:00","2022","03","12","05:00"
"-65.71","66.15","PANGNIRTUNG A","2403051","2022-03-12 06:00","2022","03","12","06:00"
"-65.71","66.15","PANGNIRTUNG A","2403051","2022-03-12 07:00","2022","03","12","07:00"
"-65.71","66.15","PANGNIRTUNG A","2403051","2022-03-12 08:00","2022","03","12","08:00"
"-65.71","66.15","PANGNIRTUNG A","2403051","2022-03-12 09:00","2022","03","12","09:00"
"-65.71","66.15","PANGNIRTUNG A","2403051","2022-03-12 10:00","2022","03","12","10:00","-30.2","","-33.7","","72","","","","23","","5","","24.1","","100.03","","","","-36","","Mainly Clear"
"-65.71","66.15","PANGNIRTUNG A","2403051","2022-03-12 11:00","2022","03","12","11:00","-30.1","","-33.6","","72","","","","36","","1","","24.1","","100.04","","","","-31","","NA"
"-65.71","66.15","PANGNIRTUNG A","2403051","2022-03-12 12:00","2022","03","12","12:00","-29.8","","-33.6","","70","","","","25","","5","","24.1","","100.04","","","","-35","","NA"
"-65.71","66.15","PANGNIRTUNG A","2403051","2022-03-12 13:00","2022","03","12","13:00","-29.8","","-34.0","","68","","","","36","","1","","24.1","","100.05","","","","-31","","Clear"
"-65.71","66.15","PANGNIRTUNG A","2403051","2022-03-12 14:00","2022","03","12","14:00","-30.1","","-34.3","","68","","","","36","","2","","24.1","","100.08","","","","-32","","NA"
"-65.71","66.15","PANGNIRTUNG A","2403051","2022-03-12 15:00","2022","03","12","15:00","-29.7","","-33.4","","71","","","","36","","1","","24.1","","100.09","","","","-31","","NA"
"-65.71","66.15","PANGNIRTUNG A","2403051","2022-03-12 16:00","2022","03","12","16:00"
"-65.71","66.15","PANGNIRTUNG A","2403051","2022-03-12 17:00","2022","03","12","17:00"
"-65.71","66.15","PANGNIRTUNG A","2403051","2022-03-12 18:00","2022","03","12","18:00"
"-65.71","66.15","PANGNIRTUNG A","2403051","2022-03-12 19:00","2022","03","12","19:00"
"-65.71","66.15","PANGNIRTUNG A","2403051","2022-03-12 20:00","2022","03","12","20:00"
"-65.71","66.15","PANGNIRTUNG A","2403051","2022-03-12 21:00","2022","03","12","21:00"
"-65.71","66.15","PANGNIRTUNG A","2403051","2022-03-12 22:00","2022","03","12","22:00"
"-65.71","66.15","PANGNIRTUNG A","2403051","2022-03-12 23:00","2022","03","12","23:00"
"-65.71","66.15","PANGNIRTUNG A","2403051","2022-03-13 00:00","2022","03","13","00:00"
"-65.71","66.15","PANGNIRTUNG A","2403051","2022-03-13 01:00","2022","03","13","01:00"
"-65.71","66.15","PANGNIRTUNG A","2403051","2022-03-13 02:00","2022","03","13","02:00"
"-65.71","66.15","PANGNIRTUNG A","2403051","2022-03-13 03:00","2022","03","13","03:00"
"-65.71","66.15","PANGNIRTUNG A","2403051","2022-03-13 04:00","2022","03","13","04:00"
"-65.71","66.15","PANGNIRTUNG A","2403051","2022-03-13 05:00","2022","03","13","05:00"
"-65.71","66.15","PANGNIRTUNG A","2403051","2022-03-13 06:00","2022","03","13","06:00"
"-65.71","66.15","PANGNIRTUNG A","2403051","2022-03-13 07:00","2022","03","13","07:00"
"-65.71","66.15","PANGNIRTUNG A","2403051","2022-03-13 08:00","2022","03","13","08:00"
"-65.71","66.15","PANGNIRTUNG A","2403051","2022-03-13 09:00","2022","03","13","09:00"
"-65.71","66.15","PANGNIRTUNG A","2403051","2022-03-13 10:00","2022","03","13","10:00"
"-65.71","66.15","PANGNIRTUNG A","2403051","2022-03-13 11:00","2022","03","13","11:00","-29.4","","-33.0","","72","","","","0","","1","","24.1","","99.17","","","","-31","","NA"
"-65.71","66.15","PANGNIRTUNG A","2403051","2022-03-13 12:00","2022","03","13","12:00","-29.0","","-33.0","","69","","","","26","","5","","24.1","","99.06","","","","-34","","NA"
"-65.71","66.15","PANGNIRTUNG A","2403051","2022-03-13 13:00","2022","03","13","13:00","-29.1","","-33.9","","64","","","","36","","3","","24.1","","98.96","","","","-32","","Clear"
"-65.71","66.15","PANGNIRTUNG A","2403051","2022-03-13 14:00","2022","03","13","14:00","-28.5","","-33.7","","62","","","","36","","3","","24.1","","98.83","","","","-32","","NA"
"-65.71","66.15","PANGNIRTUNG A","2403051","2022-03-13 15:00","2022","03","13","15:00","-29.3","","-33.6","","67","","","","36","","1","","24.1","","98.70","","","","-30","","NA"
"-65.71","66.15","PANGNIRTUNG A","2403051","2022-03-13 16:00","2022","03","13","16:00"
"-65.71","66.15","PANGNIRTUNG A","2403051","2022-03-13 17:00","2022","03","13","17:00"
"-65.71","66.15","PANGNIRTUNG A","2403051","2022-03-13 18:00","2022","03","13","18:00"
"-65.71","66.15","PANGNIRTUNG A","2403051","2022-03-13 19:00","2022","03","13","19:00"
"-65.71","66.15","PANGNIRTUNG A","2403051","2022-03-13 20:00","2022","03","13","20:00"
"-65.71","66.15","PANGNIRTUNG A","2403051","2022-03-13 21:00","2022","03","13","21:00"
"-65.71","66.15","PANGNIRTUNG A","2403051","2022-03-13 22:00","2022","03","13","22:00"
"-65.71","66.15","PANGNIRTUNG A","2403051","2022-03-13 23:00","2022","03","13","23:00"
"-65.71","66.15","PANGNIRTUNG A","2403051","2022-03-14 00:00","2022","03","14","00:00"
"-65.71","66.15","PANGNIRTUNG A","2403051","2022-03-14 01:00","2022","03","14","01:00"
"-65.71","66.15","PANGNIRTUNG A","2403051","2022-03-14 02:00","2022","03","14","02:00"
"-65.71","66.15","PANGNIRTUNG A","2403051","2022-03-14 03:00","2022","03","14","03:00"
"-65.71","66.15","PANGNIRTUNG A","2403051","2022-03-14 04:00","2022","03","14","04:00"
"-65.71","66.15","PANGNIRTUNG A","2403051","2022-03-14 05:00","2022","03","14","05:00"
"-65.71","66.15","PANGNIRTUNG A","2403051","2022-03-14 06:00","2022","03","14","06:00","-36.1","","-40.0","","68","","","","25","","11","","24.1","","97.32","","","","-47","","Ice Crystals"
"-65.71","66.15","PANGNIRTUNG A","2403051","2022-03-14 07:00","2022","03","14","07:00","-36.4","","-40.6","","66","","","","24","","8","","24.1","","97.30","","","","-45","","Ice Crystals"
"-65.71","66.15","PANGNIRTUNG A","2403051","2022-03-14 08:00","2022","03","14","08:00","-35.1","","-39.1","","68","","","","24","","3","","24.1","","97.29","","","","-39","","Ice Crystals"
"-65.71","66.15","PANGNIRTUNG A","2403051","2022-03-14 09:00","2022","03","14","09:00","-35.0","","-39.2","","66","","","","22","","5","","24.1","","97.29","","","","-41","","Ice Crystals"
"-65.71","66.15","PANGNIRTUNG A","2403051","2022-03-14 10:00","2022","03","14","10:00","-34.9","","-39.3","","65","","","","23","","9","","19.3","","97.30","","","","-44","","Ice Crystals"
"-65.71","66.15","PANGNIRTUNG A","2403051","2022-03-14 11:00","2022","03","14","11:00","-34.2","","-38.8","","64","","","","23","","5","","19.3","","97.31","","","","-40","","Ice Crystals"
"-65.71","66.15","PANGNIRTUNG A","2403051","2022-03-14 12:00","2022","03","14","12:00","-33.4","","-37.9","","65","","","","23","","9","","24.1","","97.34","","","","-43","","Ice Crystals"
"-65.71","66.15","PANGNIRTUNG A","2403051","2022-03-14 13:00","2022","03","14","13:00","-31.3","","-36.1","","64","","","","25","","32","","24.1","","97.36","","","","-48","","Ice Crystals,Blowing Snow"
"-65.71","66.15","PANGNIRTUNG A","2403051","2022-03-14 14:00","2022","03","14","14:00","-29.4","","-35.0","","59","","","","26","","32","","12.9","","97.43","","","","-45","","Ice Crystals,Blowing Snow"
"-65.71","66.15","PANGNIRTUNG A","2403051","2022-03-14 15:00","2022","03","14","15:00","-29.0","","-34.9","","58","","","","22","","25","","16.1","","97.52","","","","-43","","Ice Crystals,Blowing Snow"
"-65.71","66.15","PANGNIRTUNG A","2403051","2022-03-14 16:00","2022","03","14","16:00","-28.8","","-34.4","","60","","","","25","","31","","19.3","","97.58","","","","-44","","Ice Crystals,Blowing Snow"
"-65.71","66.15","PANGNIRTUNG A","2403051","2022-03-14 17:00","2022","03","14","17:00","-29.0","","-34.0","","63","","","","24","","21","","12.9","","97.67","","","","-42","","Ice Crystals,Blowing Snow"
"-65.71","66.15","PANGNIRTUNG A","2403051","2022-03-14 18:00","2022","03","14","18:00"
"-65.71","66.15","PANGNIRTUNG A","2403051","2022-03-14 19:00","2022","03","14","19:00"
"-65.71","66.15","PANGNIRTUNG A","2403051","2022-03-14 20:00","2022","03","14","20:00"
"-65.71","66.15","PANGNIRTUNG A","2403051","2022-03-14 21:00","2022","03","14","21:00"
"-65.71","66.15","PANGNIRTUNG A","2403051","2022-03-14 22:00","2022","03","14","22:00"
"-65.71","66.15","PANGNIRTUNG A","2403051","2022-03-14 23:00","2022","03","14","23:00"
"-65.71","66.15","PANGNIRTUNG A","2403051","2022-03-15 00:00","2022","03","15","00:00"
"-65.71","66.15","PANGNIRTUNG A","2403051","2022-03-15 01:00","2022","03","15","01:00"
"-65.71","66.15","PANGNIRTUNG A","2403051","2022-03-15 02:00","2022","03","15","02:00"
"-65.71","66.15","PANGNIRTUNG A","2403051","2022-03-15 03:00","2022","03","15","03:00"
"-65.71","66.15","PANGNIRTUNG A","2403051","2022-03-15 04:00","2022","03","15","04:00"
"-65.71","66.15","PANGNIRTUNG A","2403051","2022-03-15 05:00","2022","03","15","05:00"
"-65.71","66.15","PANGNIRTUNG A","2403051","2022-03-15 06:00","2022","03","15","06:00","-29.2","","-32.6","","73","","","","25","","19","","16.1","","98.06","","","","-42","","Ice Crystals,Blowing Snow"
"-65.71","66.15","PANGNIRTUNG A","2403051","2022-03-15 07:00","2022","03","15","07:00","-29.2","","-32.3","","75","","","","26","","20","","12.9","","98.07","","","","-42","","Ice Crystals,Blowing Snow"
"-65.71","66.15","PANGNIRTUNG A","2403051","2022-03-15 08:00","2022","03","15","08:00","-28.8","","-32.1","","74","","","","25","","22","","9.7","","98.08","","","","-42","","Ice Crystals,Blowing Snow"
"-65.71","66.15","PANGNIRTUNG A","2403051","2022-03-15 09:00","2022","03","15","09:00","-28.1","","-31.5","","73","","","","26","","23","","12.9","","98.09","","","","-42","","Ice Crystals,Blowing Snow"
"-65.71","66.15","PANGNIRTUNG A","2403051","2022-03-15 10:00","2022","03","15","10:00","-27.9","","-31.6","","71","","","","27","","24","","19.3","","98.09","","","","-42","","Ice Crystals,Blowing Snow"
"-65.71","66.15","PANGNIRTUNG A","2403051","2022-03-15 11:00","2022","03","15","11:00","-27.4","","-31.8","","67","","","","26","","26","","16.1","","98.09","","","","-41","","Ice Crystals,Blowing Snow"
"-65.71","66.15","PANGNIRTUNG A","2403051","2022-03-15 12:00","2022","03","15","12:00","-26.9","","-31.5","","66","","","","25","","26","","24.1","","98.11","","","","-41","","Ice Crystals,Blowing Snow"
"-65.71","66.15","PANGNIRTUNG A","2403051","2022-03-15 13:00","2022","03","15","13:00","-27.0","","-31.4","","67","","","","25","","24","","19.3","","98.16","","","","-40","","Ice Crystals,Blowing Snow"
"-65.71","66.15","PANGNIRTUNG A","2403051","2022-03-15 14:00","2022","03","15","14:00","-26.8","","-30.9","","69","","","","25","","23","","16.1","","98.22","","","","-40","","Ice Crystals,Blowing Snow"
"-65.71","66.15","PANGNIRTUNG A","2403051","2022-03-15 15:00","2022","03","15","15:00","-26.8","","-30.6","","71","","","","26","","24","","12.9","","98.26","","","","-40","","Ice Crystals,Blowing Snow"
"-65.71","66.15","PANGNIRTUNG A","2403051","2022-03-15 16:00","2022","03","15","16:00","-27.1","","-30.9","","71","","","","25","","19","","16.1","","98.28","","","","-39","","Ice Crystals,Blowing Snow"
"-65.71","66.15","PANGNIRTUNG A","2403051","2022-03-15 17:00","2022","03","15","17:00","-27.2","","-30.5","","74","","","","28","","14","","16.1","","98.30","","","","-38","","Ice Crystals"
"-65.71","66.15","PANGNIRTUNG A","2403051","2022-03-15 18:00","2022","03","15","18:00"
"-65.71","66.15","PANGNIRTUNG A","2403051","2022-03-15 19:00","2022","03","15","19:00"
"-65.71","66.15","PANGNIRTUNG A","2403051","2022-03-15 20:00","2022","03","15","20:00"
"-65.71","66.15","PANGNIRTUNG A","2403051","2022-03-15 21:00","2022","03","15","21:00"
"-65.71","66.15","PANGNIRTUNG A","2403051","2022-03-15 22:00","2022","03","15","22:00"
"-65.71","66.15","PANGNIRTUNG A","2403051","2022-03-15 23:00","2022","03","15","23:00"
"-65.71","66.15","PANGNIRTUNG A","2403051","2022-03-16 00:00","2022","03","16","00:00"
"-65.71","66.15","PANGNIRTUNG A","2403051","2022-03-16 01:00","2022","03","16","01:00"
"-65.71","66.15","PANGNIRTUNG A","2403051","2022-03-16 02:00","2022","03","16","02:00"
"-65.71","66.15","PANGNIRTUNG A","2403051","2022-03-16 03:00","2022","03","16","03:00"
"-65.71","66.15","PANGNIRTUNG A","2403051","2022-03-16 04:00","2022","03","16","04:00"
"-65.71","66.15","PANGNIRTUNG A","2403051","2022-03-16 05:00","2022","03","16","05:00"
"-65.71","66.15","PANGNIRTUNG A","2403051","2022-03-16 06:00","2022","03","16","06:00","-30.3","","-34.0","","71","","","","36","","1","","24.1","","98.50","","","","-31","","Ice Crystals"
"-65.71","66.15","PANGNIRTUNG A","2403051","2022-03-16 07:00","2022","03","16","07:00","-30.0","","-34.2","","68","","","","24","","5","","24.1","","98.54","","","","-36","","Mostly Cloudy"
"-65.71","66.15","PANGNIRTUNG A","2403051","2022-03-16 08:00","2022","03","16","08:00","-29.7","","-33.6","","69","","","","36","","3","","24.1","","98.56","","","","-33","","Ice Crystals"
"-65.71","66.15","PANGNIRTUNG A","2403051","2022-03-16 09:00","2022","03","16","09:00","-28.8","","-33.3","","66","","","","24","","5","","24.1","","98.59","","","","-34","","Ice Crystals"
"-65.71","66.15","PANGNIRTUNG A","2403051","2022-03-16 10:00","2022","03","16","10:00","-28.0","","-32.4","","67","","","","36","","2","","24.1","","98.57","","","","-30","","Ice Crystals"
"-65.71","66.15","PANGNIRTUNG A","2403051","2022-03-16 11:00","2022","03","16","11:00","-27.5","","-31.8","","68","","","","4","","5","","24.1","","98.56","","","","-33","","Ice Crystals"
"-65.71","66.15","PANGNIRTUNG A","2403051","2022-03-16 12:00","2022","03","16","12:00","-26.6","","-32.0","","61","","","","26","","4","","19.3","","98.58","","","","-31","","Ice Crystals"
"-65.71","66.15","PANGNIRTUNG A","2403051","2022-03-16 13:00","2022","03","16","13:00","-26.3","","-30.9","","66","","","","16","","3","","19.3","","98.60","","","","-29","","Ice Crystals"
"-65.71","66.15","PANGNIRTUNG A","2403051","2022-03-16 14:00","2022","03","16","14:00","-25.8","","-30.2","","67","","","","0","","1","","9.7","","98.63","","","","-27","","Ice Crystals"
"-65.71","66.15","PANGNIRTUNG A","2403051","2022-03-16 15:00","2022","03","16","15:00","-25.7","","-29.1","","74","","","","36","","2","","6.4","","98.64","","","","-28","","Snow"
"-65.71","66.15","PANGNIRTUNG A","2403051","2022-03-16 16:00","2022","03","16","16:00","-25.6","","-28.6","","77","","","","10","","4","","6.4","","98.65","","","","-30","","Snow"
"-65.71","66.15","PANGNIRTUNG A","2403051","2022-03-16 17:00","2022","03","16","17:00","-25.2","","-28.0","","78","","","","36","","2","","6.4","","98.63","","","","-27","","Snow"
"-65.71","66.15","PANGNIRTUNG A","2403051","2022-03-16 18:00","2022","03","16","18:00"
"-65.71","66.15","PANGNIRTUNG A","2403051","2022-03-16 19:00","2022","03","16","19:00"
"-65.71","66.15","PANGNIRTUNG A","2403051","2022-03-16 20:00","2022","03","16","20:00"
"-65.71","66.15","PANGNIRTUNG A","2403051","2022-03-16 21:00","2022","03","16","21:00"
"-65.71","66.15","PANGNIRTUNG A","2403051","2022-03-16 22:00","2022","03","16","22:00"
"-65.71","66.15","PANGNIRTUNG A","2403051","2022-03-16 23:00","2022","03","16","23:00"
"-65.71","66.15","PANGNIRTUNG A","2403051","2022-03-17 00:00","2022","03","17","00:00"
"-65.71","66.15","PANGNIRTUNG A","2403051","2022-03-17 01:00","2022","03","17","01:00"
"-65.71","66.15","PANGNIRTUNG A","2403051","2022-03-17 02:00","2022","03","17","02:00"
"-65.71","66.15","PANGNIRTUNG A","2403051","2022-03-17 03:00","2022","03","17","03:00"
"-65.71","66.15","PANGNIRTUNG A","2403051","2022-03-17 04:00","2022","03","17","04:00"
"-65.71","66.15","PANGNIRTUNG A","2403051","2022-03-17 05:00","2022","03","17","05:00"
"-65.71","66.15","PANGNIRTUNG A","2403051","2022-03-17 06:00","2022","03","17","06:00","-22.3","","-25.3","","77","","","","36","","1","","6.4","","98.68","","","","-23","","Snow"
"-65.71","66.15","PANGNIRTUNG A","2403051","2022-03-17 07:00","2022","03","17","07:00","-21.5","","-25.0","","74","","","","6","","6","","9.7","","98.68","","","","-27","","Snow"
"-65.71","66.15","PANGNIRTUNG A","2403051","2022-03-17 08:00","2022","03","17","08:00","-21.6","","-25.0","","74","","","","13","","6","","12.9","","98.69","","","","-27","","Snow"
"-65.71","66.15","PANGNIRTUNG A","2403051","2022-03-17 09:00","2022","03","17","09:00","-21.5","","-24.6","","77","","","","11","","5","","12.9","","98.70","","","","-26","","Snow"
"-65.71","66.15","PANGNIRTUNG A","2403051","2022-03-17 10:00","2022","03","17","10:00","-20.9","","-25.0","","70","","","","9","","7","","16.1","","98.70","","","","-27","","Snow"
"-65.71","66.15","PANGNIRTUNG A","2403051","2022-03-17 11:00","2022","03","17","11:00","-20.7","","-24.4","","73","","","","12","","8","","19.3","","98.71","","","","-27","","Snow"
"-65.71","66.15","PANGNIRTUNG A","2403051","2022-03-17 12:00","2022","03","17","12:00","-20.8","","-24.3","","74","","","","10","","14","","12.9","","98.74","","","","-30","","Snow"
"-65.71","66.15","PANGNIRTUNG A","2403051","2022-03-17 13:00","2022","03","17","13:00","-20.5","","-23.9","","75","","","","12","","14","","12.9","","98.75","","","","-29","","Snow"
"-65.71","66.15","PANGNIRTUNG A","2403051","2022-03-17 14:00","2022","03","17","14:00","-20.3","","-23.4","","77","","","","10","","13","","12.9","","98.77","","","","-29","","Snow"
"-65.71","66.15","PANGNIRTUNG A","2403051","2022-03-17 15:00","2022","03","17","15:00","-20.0","","-23.5","","74","","","","13","","3","","9.7","","98.85","","","","-23","","Snow"
"-65.71","66.15","PANGNIRTUNG A","2403051","2022-03-17 16:00","2022","03","17","16:00","-20.5","","-23.1","","80","","","","5","","5","","9.7","","98.91","","","","-25","","Snow"
"-65.71","66.15","PANGNIRTUNG A","2403051","2022-03-17 17:00","2022","03","17","17:00","-20.6","","-22.9","","82","","","","36","","2","","9.7","","98.99","","","","-22","","Snow"
"-65.71","66.15","PANGNIRTUNG A","2403051","2022-03-17 18:00","2022","03","17","18:00"
"-65.71","66.15","PANGNIRTUNG A","2403051","2022-03-17 19:00","2022","03","17","19:00","-23.8","","-26.2","","81","","","","26","","5","","16.1","","99.15","","","","-29","","Ice Crystals"
"-65.71","66.15","PANGNIRTUNG A","2403051","2022-03-17 20:00","2022","03","17","20:00","-23.5","","-26.0","","80","","","","24","","6","","12.9","","99.18","","","","-29","","Ice Crystals"
"-65.71","66.15","PANGNIRTUNG A","2403051","2022-03-17 21:00","2022","03","17","21:00","-24.0","","-27.0","","77","","","","36","","2","","24.1","","99.22","","","","-26","","Ice Crystals"
"-65.71","66.15","PANGNIRTUNG A","2403051","2022-03-17 22:00","2022","03","17","22:00","-24.5","","-27.9","","74","","","","36","","1","","24.1","","99.28","","","","-25","","Ice Crystals"
"-65.71","66.15","PANGNIRTUNG A","2403051","2022-03-17 23:00","2022","03","17","23:00"
"-65.71","66.15","PANGNIRTUNG A","2403051","2022-03-18 00:00","2022","03","18","00:00"
"-65.71","66.15","PANGNIRTUNG A","2403051","2022-03-18 01:00","2022","03","18","01:00"
"-65.71","66.15","PANGNIRTUNG A","2403051","2022-03-18 02:00","2022","03","18","02:00"
"-65.71","66.15","PANGNIRTUNG A","2403051","2022-03-18 03:00","2022","03","18","03:00"
"-65.71","66.15","PANGNIRTUNG A","2403051","2022-03-18 04:00","2022","03","18","04:00"
"-65.71","66.15","PANGNIRTUNG A","2403051","2022-03-18 05:00","2022","03","18","05:00"
"-65.71","66.15","PANGNIRTUNG A","2403051","2022-03-18 06:00","2022","03","18","06:00","-29.2","","-32.5","","74","","","","36","","1","","24.1","","99.72","","","","-30","","Ice Crystals"
"-65.71","66.15","PANGNIRTUNG A","2403051","2022-03-18 07:00","2022","03","18","07:00","-27.9","","-32.0","","69","","","","27","","7","","24.1","","99.80","","","","-35","","Ice Crystals"
"-65.71","66.15","PANGNIRTUNG A","2403051","2022-03-18 08:00","2022","03","18","08:00","-29.1","","-32.3","","74","","","","25","","8","","24.1","","99.86","","","","-37","","Ice Crystals"
"-65.71","66.15","PANGNIRTUNG A","2403051","2022-03-18 09:00","2022","03","18","09:00","-29.8","","-32.8","","76","","","","25","","8","","24.1","","99.91","","","","-38","","Ice Crystals"
"-65.71","66.15","PANGNIRTUNG A","2403051","2022-03-18 10:00","2022","03","18","10:00","-29.2","","-32.8","","72","","","","12","","3","","24.1","","99.97","","","","-33","","Ice Crystals"
"-65.71","66.15","PANGNIRTUNG A","2403051","2022-03-18 11:00","2022","03","18","11:00","-28.9","","-32.6","","71","","","","36","","3","","24.1","","100.03","","","","-32","","Ice Crystals"
"-65.71","66.15","PANGNIRTUNG A","2403051","2022-03-18 12:00","2022","03","18","12:00","-28.2","","-31.9","","71","","","","24","","7","","24.1","","100.06","","","","-35","","Ice Crystals"
"-65.71","66.15","PANGNIRTUNG A","2403051","2022-03-18 13:00","2022","03","18","13:00","-28.5","","-31.9","","73","","","","24","","8","","24.1","","100.14","","","","-36","","Ice Crystals"
"-65.71","66.15","PANGNIRTUNG A","2403051","2022-03-18 14:00","2022","03","18","14:00","-28.9","","-32.2","","74","","","","25","","8","","24.1","","100.24","","","","-37","","Ice Crystals"
"-65.71","66.15","PANGNIRTUNG A","2403051","2022-03-18 15:00","2022","03","18","15:00","-29.2","","-33.0","","70","","","","36","","2","","24.1","","100.31","","","","-31","","Ice Crystals"
"-65.71","66.15","PANGNIRTUNG A","2403051","2022-03-18 16:00","2022","03","18","16:00","-30.1","","-33.3","","74","","","","25","","12","","24.1","","100.40","","","","-40","","Ice Crystals"
"-65.71","66.15","PANGNIRTUNG A","2403051","2022-03-18 17:00","2022","03","18","17:00","-29.9","","-33.0","","75","","","","24","","7","","24.1","","100.48","","","","-37","","Ice Crystals"
"-65.71","66.15","PANGNIRTUNG A","2403051","2022-03-18 18:00","2022","03","18","18:00"
"-65.71","66.15","PANGNIRTUNG A","2403051","2022-03-18 19:00","2022","03","18","19:00"
"-65.71","66.15","PANGNIRTUNG A","2403051","2022-03-18 20:00","2022","03","18","20:00"
"-65.71","66.15","PANGNIRTUNG A","2403051","2022-03-18 21:00","2022","03","18","21:00"
"-65.71","66.15","PANGNIRTUNG A","2403051","2022-03-18 22:00","2022","03","18","22:00"
"-65.71","66.15","PANGNIRTUNG A","2403051","2022-03-18 23:00","2022","03","18","23:00"
"-65.71","66.15","PANGNIRTUNG A","2403051","2022-03-19 00:00","2022","03","19","00:00"
"-65.71","66.15","PANGNIRTUNG A","2403051","2022-03-19 01:00","2022","03","19","01:00"
"-65.71","66.15","PANGNIRTUNG A","2403051","2022-03-19 02:00","2022","03","19","02:00"
"-65.71","66.15","PANGNIRTUNG A","2403051","2022-03-19 03:00","2022","03","19","03:00"
"-65.71","66.15","PANGNIRTUNG A","2403051","2022-03-19 04:00","2022","03","19","04:00"
"-65.71","66.15","PANGNIRTUNG A","2403051","2022-03-19 05:00","2022","03","19","05:00"
"-65.71","66.15","PANGNIRTUNG A","2403051","2022-03-19 06:00","2022","03","19","06:00"
"-65.71","66.15","PANGNIRTUNG A","2403051","2022-03-19 07:00","2022","03","19","07:00"
"-65.71","66.15","PANGNIRTUNG A","2403051","2022-03-19 08:00","2022","03","19","08:00"
"-65.71","66.15","PANGNIRTUNG A","2403051","2022-03-19 09:00","2022","03","19","09:00","-31.7","","-34.9","","74","","","","0","","1","","24.1","","101.42","","","","-33","","Ice Crystals"
"-65.71","66.15","PANGNIRTUNG A","2403051","2022-03-19 10:00","2022","03","19","10:00","-32.2","","-35.5","","73","","","","25","","5","","24.1","","101.49","","","","-38","","Ice Crystals"
"-65.71","66.15","PANGNIRTUNG A","2403051","2022-03-19 11:00","2022","03","19","11:00","-30.4","","-33.8","","73","","","","36","","1","","24.1","","101.53","","","","-32","","Ice Crystals"
"-65.71","66.15","PANGNIRTUNG A","2403051","2022-03-19 12:00","2022","03","19","12:00","-30.3","","-33.8","","72","","","","23","","3","","24.1","","101.58","","","","-34","","Ice Crystals"
"-65.71","66.15","PANGNIRTUNG A","2403051","2022-03-19 13:00","2022","03","19","13:00","-29.7","","-33.0","","74","","","","26","","5","","24.1","","101.60","","","","-35","","Ice Crystals"
"-65.71","66.15","PANGNIRTUNG A","2403051","2022-03-19 14:00","2022","03","19","14:00","-29.6","","-33.6","","69","","","","12","","4","","24.1","","101.65","","","","-34","","Ice Crystals"
"-65.71","66.15","PANGNIRTUNG A","2403051","2022-03-19 15:00","2022","03","19","15:00"
"-65.71","66.15","PANGNIRTUNG A","2403051","2022-03-19 16:00","2022","03","19","16:00"
"-65.71","66.15","PANGNIRTUNG A","2403051","2022-03-19 17:00","2022","03","19","17:00"
"-65.71","66.15","PANGNIRTUNG A","2403051","2022-03-19 18:00","2022","03","19","18:00"
"-65.71","66.15","PANGNIRTUNG A","2403051","2022-03-19 19:00","2022","03","19","19:00"
"-65.71","66.15","PANGNIRTUNG A","2403051","2022-03-19 20:00","2022","03","19","20:00"
"-65.71","66.15","PANGNIRTUNG A","2403051","2022-03-19 21:00","2022","03","19","21:00"
"-65.71","66.15","PANGNIRTUNG A","2403051","2022-03-19 22:00","2022","03","19","22:00"
"-65.71","66.15","PANGNIRTUNG A","2403051","2022-03-19 23:00","2022","03","19","23:00"
"-65.71","66.15","PANGNIRTUNG A","2403051","2022-03-20 00:00","2022","03","20","00:00"
"-65.71","66.15","PANGNIRTUNG A","2403051","2022-03-20 01:00","2022","03","20","01:00"
"-65.71","66.15","PANGNIRTUNG A","2403051","2022-03-20 02:00","2022","03","20","02:00"
"-65.71","66.15","PANGNIRTUNG A","2403051","2022-03-20 03:00","2022","03","20","03:00"
"-65.71","66.15","PANGNIRTUNG A","2403051","2022-03-20 04:00","2022","03","20","04:00"
"-65.71","66.15","PANGNIRTUNG A","2403051","2022-03-20 05:00","2022","03","20","05:00"
"-65.71","66.15","PANGNIRTUNG A","2403051","2022-03-20 06:00","2022","03","20","06:00"
"-65.71","66.15","PANGNIRTUNG A","2403051","2022-03-20 07:00","2022","03","20","07:00"
"-65.71","66.15","PANGNIRTUNG A","2403051","2022-03-20 08:00","2022","03","20","08:00"
"-65.71","66.15","PANGNIRTUNG A","2403051","2022-03-20 09:00","2022","03","20","09:00"
"-65.71","66.15","PANGNIRTUNG A","2403051","2022-03-20 10:00","2022","03","20","10:00"
"-65.71","66.15","PANGNIRTUNG A","2403051","2022-03-20 11:00","2022","03","20","11:00","-28.8","","-32.8","","69","","","","36","","2","","24.1","","102.25","","","","-31","","Ice Crystals"
"-65.71","66.15","PANGNIRTUNG A","2403051","2022-03-20 12:00","2022","03","20","12:00","-28.3","","-32.2","","70","","","","36","","3","","24.1","","102.24","","","","-32","","Ice Crystals"
"-65.71","66.15","PANGNIRTUNG A","2403051","2022-03-20 13:00","2022","03","20","13:00","-27.8","","-31.9","","69","","","","36","","2","","24.1","","102.28","","","","-30","","Ice Crystals"
"-65.71","66.15","PANGNIRTUNG A","2403051","2022-03-20 14:00","2022","03","20","14:00","-26.3","","-31.2","","64","","","","9","","4","","24.1","","102.26","","","","-30","","Ice Crystals"
"-65.71","66.15","PANGNIRTUNG A","2403051","2022-03-20 15:00","2022","03","20","15:00","-27.5","","-31.4","","70","","","","8","","4","","24.1","","102.29","","","","-32","","Ice Crystals"
"-65.71","66.15","PANGNIRTUNG A","2403051","2022-03-20 16:00","2022","03","20","16:00"
"-65.71","66.15","PANGNIRTUNG A","2403051","2022-03-20 17:00","2022","03","20","17:00"
"-65.71","66.15","PANGNIRTUNG A","2403051","2022-03-20 18:00","2022","03","20","18:00"
"-65.71","66.15","PANGNIRTUNG A","2403051","2022-03-20 19:00","2022","03","20","19:00"
"-65.71","66.15","PANGNIRTUNG A","2403051","2022-03-20 20:00","2022","03","20","20:00","-28.7","","-32.7","","69","","","","36","","3","","24.1","","102.34","","","","-32","","NA"
"-65.71","66.15","PANGNIRTUNG A","2403051","2022-03-20 21:00","2022","03","20","21:00","-27.4","","-32.3","","64","","","","36","","2","","24.1","","102.35","","","","-30","","NA"
"-65.71","66.15","PANGNIRTUNG A","2403051","2022-03-20 22:00","2022","03","20","22:00","-27.5","","-32.2","","65","","","","36","","3","","24.1","","102.35","","","","-31","","Clear"
"-65.71","66.15","PANGNIRTUNG A","2403051","2022-03-20 23:00","2022","03","20","23:00"
"-65.71","66.15","PANGNIRTUNG A","2403051","2022-03-21 00:00","2022","03","21","00:00"
"-65.71","66.15","PANGNIRTUNG A","2403051","2022-03-21 01:00","2022","03","21","01:00"
"-65.71","66.15","PANGNIRTUNG A","2403051","2022-03-21 02:00","2022","03","21","02:00"
"-65.71","66.15","PANGNIRTUNG A","2403051","2022-03-21 03:00","2022","03","21","03:00"
"-65.71","66.15","PANGNIRTUNG A","2403051","2022-03-21 04:00","2022","03","21","04:00"
"-65.71","66.15","PANGNIRTUNG A","2403051","2022-03-21 05:00","2022","03","21","05:00"
"-65.71","66.15","PANGNIRTUNG A","2403051","2022-03-21 06:00","2022","03","21","06:00","-28.6","","-32.4","","70","","","","36","","2","","24.1","","102.33","","","","-31","","NA"
"-65.71","66.15","PANGNIRTUNG A","2403051","2022-03-21 07:00","2022","03","21","07:00","-26.7","","-31.9","","62","","","","23","","4","","24.1","","102.31","","","","-31","","Clear"
"-65.71","66.15","PANGNIRTUNG A","2403051","2022-03-21 08:00","2022","03","21","08:00","-25.5","","-31.3","","59","","","","26","","5","","24.1","","102.28","","","","-31","","NA"
"-65.71","66.15","PANGNIRTUNG A","2403051","2022-03-21 09:00","2022","03","21","09:00","-26.9","","-32.0","","63","","","","36","","3","","24.1","","102.25","","","","-30","","NA"
"-65.71","66.15","PANGNIRTUNG A","2403051","2022-03-21 10:00","2022","03","21","10:00","-26.4","","-30.7","","68","","","","3","","3","","24.1","","102.23","","","","-29","","Mainly Clear"
"-65.71","66.15","PANGNIRTUNG A","2403051","2022-03-21 11:00","2022","03","21","11:00","-25.0","","-30.3","","62","","","","11","","4","","24.1","","102.21","","","","-29","","NA"
"-65.71","66.15","PANGNIRTUNG A","2403051","2022-03-21 12:00","2022","03","21","12:00","-23.3","","-29.3","","59","","","","6","","5","","24.1","","102.20","","","","-28","","NA"
"-65.71","66.15","PANGNIRTUNG A","2403051","2022-03-21 13:00","2022","03","21","13:00","-21.3","","-27.8","","57","","","","8","","3","","24.1","","102.18","","","","-24","","Mainly Clear"
"-65.71","66.15","PANGNIRTUNG A","2403051","2022-03-21 14:00","2022","03","21","14:00","-21.8","","-27.2","","62","","","","6","","10","","24.1","","102.17","","","","-29","","NA"
"-65.71","66.15","PANGNIRTUNG A","2403051","2022-03-21 15:00","2022","03","21","15:00","-21.5","","-27.5","","59","","","","6","","6","","24.1","","102.16","","","","-27","","NA"
"-65.71","66.15","PANGNIRTUNG A","2403051","2022-03-21 16:00","2022","03","21","16:00","-22.0","","-26.4","","68","","","","6","","4","","24.1","","102.16","","","","-26","","Snow"
"-65.71","66.15","PANGNIRTUNG A","2403051","2022-03-21 17:00","2022","03","21","17:00","-20.8","","-25.2","","68","","","","9","","7","","24.1","","102.19","","","","-27","","Snow"
"-65.71","66.15","PANGNIRTUNG A","2403051","2022-03-21 18:00","2022","03","21","18:00"
"-65.71","66.15","PANGNIRTUNG A","2403051","2022-03-21 19:00","2022","03","21","19:00"
"-65.71","66.15","PANGNIRTUNG A","2403051","2022-03-21 20:00","2022","03","21","20:00"
"-65.71","66.15","PANGNIRTUNG A","2403051","2022-03-21 21:00","2022","03","21","21:00"
"-65.71","66.15","PANGNIRTUNG A","2403051","2022-03-21 22:00","2022","03","21","22:00"
"-65.71","66.15","PANGNIRTUNG A","2403051","2022-03-21 23:00","2022","03","21","23:00"
"-65.71","66.15","PANGNIRTUNG A","2403051","2022-03-22 00:00","2022","03","22","00:00"
"-65.71","66.15","PANGNIRTUNG A","2403051","2022-03-22 01:00","2022","03","22","01:00"
"-65.71","66.15","PANGNIRTUNG A","2403051","2022-03-22 02:00","2022","03","22","02:00"
"-65.71","66.15","PANGNIRTUNG A","2403051","2022-03-22 03:00","2022","03","22","03:00"
"-65.71","66.15","PANGNIRTUNG A","2403051","2022-03-22 04:00","2022","03","22","04:00"
"-65.71","66.15","PANGNIRTUNG A","2403051","2022-03-22 05:00","2022","03","22","05:00"
"-65.71","66.15","PANGNIRTUNG A","2403051","2022-03-22 06:00","2022","03","22","06:00","-20.5","","-24.4","","72","","","","24","","7","","24.1","","102.64","","","","-26","","NA"
"-65.71","66.15","PANGNIRTUNG A","2403051","2022-03-22 07:00","2022","03","22","07:00","-21.1","","-25.0","","71","","","","13","","3","","24.1","","102.72","","","","-24","","Mainly Clear"
"-65.71","66.15","PANGNIRTUNG A","2403051","2022-03-22 08:00","2022","03","22","08:00","-19.9","","-24.9","","65","","","","16","","5","","24.1","","102.77","","","","-24","","NA"
"-65.71","66.15","PANGNIRTUNG A","2403051","2022-03-22 09:00","2022","03","22","09:00","-22.2","","-25.7","","74","","","","26","","4","","24.1","","102.86","","","","-26","","NA"
"-65.71","66.15","PANGNIRTUNG A","2403051","2022-03-22 10:00","2022","03","22","10:00","-22.2","","-26.1","","71","","","","25","","13","","24.1","","102.89","","","","-31","","Mainly Clear"
"-65.71","66.15","PANGNIRTUNG A","2403051","2022-03-22 11:00","2022","03","22","11:00","-21.9","","-25.8","","71","","","","25","","7","","24.1","","102.94","","","","-28","","NA"
"-65.71","66.15","PANGNIRTUNG A","2403051","2022-03-22 12:00","2022","03","22","12:00","-22.1","","-26.0","","71","","","","25","","14","","24.1","","103.00","","","","-31","","NA"
"-65.71","66.15","PANGNIRTUNG A","2403051","2022-03-22 13:00","2022","03","22","13:00","-21.9","","-25.7","","72","","","","24","","10","","24.1","","103.05","","","","-29","","Clear"
"-65.71","66.15","PANGNIRTUNG A","2403051","2022-03-22 14:00","2022","03","22","14:00","-21.7","","-26.0","","69","","","","23","","7","","24.1","","103.09","","","","-28","","NA"
"-65.71","66.15","PANGNIRTUNG A","2403051","2022-03-22 15:00","2022","03","22","15:00","-21.8","","-25.8","","71","","","","22","","10","","24.1","","103.15","","","","-29","","NA"
"-65.71","66.15","PANGNIRTUNG A","2403051","2022-03-22 16:00","2022","03","22","16:00","-21.9","","-25.7","","72","","","","25","","4","","24.1","","103.21","","","","-26","","Clear"
"-65.71","66.15","PANGNIRTUNG A","2403051","2022-03-22 17:00","2022","03","22","17:00","-22.9","","-26.3","","74","","","","25","","7","","24.1","","103.24","","","","-29","","NA"
"-65.71","66.15","PANGNIRTUNG A","2403051","2022-03-22 18:00","2022","03","22","18:00"
"-65.71","66.15","PANGNIRTUNG A","2403051","2022-03-22 19:00","2022","03","22","19:00"
"-65.71","66.15","PANGNIRTUNG A","2403051","2022-03-22 20:00","2022","03","22","20:00"
"-65.71","66.15","PANGNIRTUNG A","2403051","2022-03-22 21:00","2022","03","22","21:00"
"-65.71","66.15","PANGNIRTUNG A","2403051","2022-03-22 22:00","2022","03","22","22:00"
"-65.71","66.15","PANGNIRTUNG A","2403051","2022-03-22 23:00","2022","03","22","23:00"
"-65.71","66.15","PANGNIRTUNG A","2403051","2022-03-23 00:00","2022","03","23","00:00"
"-65.71","66.15","PANGNIRTUNG A","2403051","2022-03-23 01:00","2022","03","23","01:00"
"-65.71","66.15","PANGNIRTUNG A","2403051","2022-03-23 02:00","2022","03","23","02:00"
"-65.71","66.15","PANGNIRTUNG A","2403051","2022-03-23 03:00","2022","03","23","03:00"
"-65.71","66.15","PANGNIRTUNG A","2403051","2022-03-23 04:00","2022","03","23","04:00"
"-65.71","66.15","PANGNIRTUNG A","2403051","2022-03-23 05:00","2022","03","23","05:00"
"-65.71","66.15","PANGNIRTUNG A","2403051","2022-03-23 06:00","2022","03","23","06:00","-25.2","","-27.9","","79","","","","36","","1","","24.1","","103.20","","","","-26","","NA"
"-65.71","66.15","PANGNIRTUNG A","2403051","2022-03-23 07:00","2022","03","23","07:00","-24.1","","-27.3","","75","","","","8","","4","","24.1","","103.14","","","","-28","","Cloudy"
"-65.71","66.15","PANGNIRTUNG A","2403051","2022-03-23 08:00","2022","03","23","08:00","-24.3","","-27.3","","77","","","","36","","3","","24.1","","103.12","","","","-27","","NA"
"-65.71","66.15","PANGNIRTUNG A","2403051","2022-03-23 09:00","2022","03","23","09:00","-24.1","","-27.4","","75","","","","36","","3","","24.1","","103.05","","","","-27","","NA"
"-65.71","66.15","PANGNIRTUNG A","2403051","2022-03-23 10:00","2022","03","23","10:00","-22.8","","-26.5","","72","","","","12","","4","","24.1","","103.03","","","","-27","","Cloudy"
"-65.71","66.15","PANGNIRTUNG A","2403051","2022-03-23 11:00","2022","03","23","11:00","-22.2","","-26.0","","72","","","","7","","7","","24.1","","102.89","","","","-28","","NA"
"-65.71","66.15","PANGNIRTUNG A","2403051","2022-03-23 12:00","2022","03","23","12:00","-21.9","","-25.4","","74","","","","6","","5","","24.1","","102.83","","","","-26","","NA"
"-65.71","66.15","PANGNIRTUNG A","2403051","2022-03-23 13:00","2022","03","23","13:00","-21.0","","-24.3","","75","","","","5","","5","","24.1","","102.74","","","","-25","","Cloudy"
"-65.71","66.15","PANGNIRTUNG A","2403051","2022-03-23 14:00","2022","03","23","14:00","-20.5","","-23.9","","75","","","","9","","7","","24.1","","102.64","","","","-26","","NA"
"-65.71","66.15","PANGNIRTUNG A","2403051","2022-03-23 15:00","2022","03","23","15:00","-19.9","","-23.4","","74","","","","6","","5","","24.1","","102.54","","","","-24","","NA"
"-65.71","66.15","PANGNIRTUNG A","2403051","2022-03-23 16:00","2022","03","23","16:00","-19.1","","-22.6","","74","","","","8","","8","","19.3","","102.42","","","","-25","","Snow"
"-65.71","66.15","PANGNIRTUNG A","2403051","2022-03-23 17:00","2022","03","23","17:00","-19.2","","-22.4","","76","","","","8","","8","","24.1","","102.34","","","","-25","","NA"
"-65.71","66.15","PANGNIRTUNG A","2403051","2022-03-23 18:00","2022","03","23","18:00"
"-65.71","66.15","PANGNIRTUNG A","2403051","2022-03-23 19:00","2022","03","23","19:00"
"-65.71","66.15","PANGNIRTUNG A","2403051","2022-03-23 20:00","2022","03","23","20:00"
"-65.71","66.15","PANGNIRTUNG A","2403051","2022-03-23 21:00","2022","03","23","21:00"
"-65.71","66.15","PANGNIRTUNG A","2403051","2022-03-23 22:00","2022","03","23","22:00"
"-65.71","66.15","PANGNIRTUNG A","2403051","2022-03-23 23:00","2022","03","23","23:00"
"-65.71","66.15","PANGNIRTUNG A","2403051","2022-03-24 00:00","2022","03","24","00:00"
"-65.71","66.15","PANGNIRTUNG A","2403051","2022-03-24 01:00","2022","03","24","01:00"
"-65.71","66.15","PANGNIRTUNG A","2403051","2022-03-24 02:00","2022","03","24","02:00"
"-65.71","66.15","PANGNIRTUNG A","2403051","2022-03-24 03:00","2022","03","24","03:00"
"-65.71","66.15","PANGNIRTUNG A","2403051","2022-03-24 04:00","2022","03","24","04:00"
"-65.71","66.15","PANGNIRTUNG A","2403051","2022-03-24 05:00","2022","03","24","05:00"
"-65.71","66.15","PANGNIRTUNG A","2403051","2022-03-24 06:00","2022","03","24","06:00","-8.4","","-12.8","","71","","","","17","","29","","3.6","","100.70","","","","-17","","Snow,Blowing Snow"
"-65.71","66.15","PANGNIRTUNG A","2403051","2022-03-24 07:00","2022","03","24","07:00","-8.9","","-10.9","","86","","","","25","","6","","3.2","","100.68","","","","-12","","Snow"
"-65.71","66.15","PANGNIRTUNG A","2403051","2022-03-24 08:00","2022","03","24","08:00","-8.8","","-10.2","","90","","","","36","","2","","2.0","","100.62","","","","-10","","Snow"
"-65.71","66.15","PANGNIRTUNG A","2403051","2022-03-24 09:00","2022","03","24","09:00","-7.6","","-11.5","","74","","","","13","","12","","2.0","","100.58","","","","-13","","Snow"
"-65.71","66.15","PANGNIRTUNG A","2403051","2022-03-24 10:00","2022","03","24","10:00","-7.2","","-12.3","","67","","","","20","","26","","12.9","","100.52","","","","-15","","Snow,Blowing Snow"
"-65.71","66.15","PANGNIRTUNG A","2403051","2022-03-24 11:00","2022","03","24","11:00","-7.4","","-12.3","","68","","","","18","","18","","11.3","","100.52","","","","-14","","Snow,Blowing Snow"
"-65.71","66.15","PANGNIRTUNG A","2403051","2022-03-24 12:00","2022","03","24","12:00","-7.4","","-12.4","","68","","","","19","","13","","6.4","","100.50","","","","-13","","Snow"
"-65.71","66.15","PANGNIRTUNG A","2403051","2022-03-24 13:00","2022","03","24","13:00","-7.5","","-12.2","","69","","","","19","","7","","19.3","","100.51","","","","-11","","Cloudy"
"-65.71","66.15","PANGNIRTUNG A","2403051","2022-03-24 14:00","2022","03","24","14:00","-7.9","","-12.1","","72","","","","24","","11","","4.0","","100.55","","","","-13","","Snow"
"-65.71","66.15","PANGNIRTUNG A","2403051","2022-03-24 15:00","2022","03","24","15:00","-8.8","","-10.2","","90","","","","24","","7","","3.2","","100.59","","","","-13","","Snow"
"-65.71","66.15","PANGNIRTUNG A","2403051","2022-03-24 16:00","2022","03","24","16:00","-8.6","","-11.4","","80","","","","24","","17","","1.2","","100.62","","","","-15","","Snow"
"-65.71","66.15","PANGNIRTUNG A","2403051","2022-03-24 17:00","2022","03","24","17:00","-9.4","","-11.8","","83","","","","24","","28","","2.4","","100.65","","","","-18","","Snow,Blowing Snow"
"-65.71","66.15","PANGNIRTUNG A","2403051","2022-03-24 18:00","2022","03","24","18:00"
"-65.71","66.15","PANGNIRTUNG A","2403051","2022-03-24 19:00","2022","03","24","19:00"
"-65.71","66.15","PANGNIRTUNG A","2403051","2022-03-24 20:00","2022","03","24","20:00"
"-65.71","66.15","PANGNIRTUNG A","2403051","2022-03-24 21:00","2022","03","24","21:00"
"-65.71","66.15","PANGNIRTUNG A","2403051","2022-03-24 22:00","2022","03","24","22:00"
"-65.71","66.15","PANGNIRTUNG A","2403051","2022-03-24 23:00","2022","03","24","23:00"
"-65.71","66.15","PANGNIRTUNG A","2403051","2022-03-25 00:00","2022","03","25","00:00"
"-65.71","66.15","PANGNIRTUNG A","2403051","2022-03-25 01:00","2022","03","25","01:00"
"-65.71","66.15","PANGNIRTUNG A","2403051","2022-03-25 02:00","2022","03","25","02:00"
"-65.71","66.15","PANGNIRTUNG A","2403051","2022-03-25 03:00","2022","03","25","03:00"
"-65.71","66.15","PANGNIRTUNG A","2403051","2022-03-25 04:00","2022","03","25","04:00"
"-65.71","66.15","PANGNIRTUNG A","2403051","2022-03-25 05:00","2022","03","25","05:00"
"-65.71","66.15","PANGNIRTUNG A","2403051","2022-03-25 06:00","2022","03","25","06:00","-13.8","","-15.9","","84","","","","25","","7","","24.1","","101.17","","","","-18","","NA"
"-65.71","66.15","PANGNIRTUNG A","2403051","2022-03-25 07:00","2022","03","25","07:00","-13.5","","-15.9","","82","","","","36","","1","","24.1","","101.18","","","","-14","","Cloudy"
"-65.71","66.15","PANGNIRTUNG A","2403051","2022-03-25 08:00","2022","03","25","08:00","-13.1","","-15.7","","81","","","","22","","3","","24.1","","101.21","","","","-15","","NA"
"-65.71","66.15","PANGNIRTUNG A","2403051","2022-03-25 09:00","2022","03","25","09:00","-12.9","","-15.4","","82","","","","36","","1","","24.1","","101.21","","","","-14","","NA"
"-65.71","66.15","PANGNIRTUNG A","2403051","2022-03-25 10:00","2022","03","25","10:00","-13.2","","-15.7","","82","","","","36","","3","","24.1","","101.22","","","","-15","","Mostly Cloudy"
"-65.71","66.15","PANGNIRTUNG A","2403051","2022-03-25 11:00","2022","03","25","11:00","-12.8","","-16.3","","75","","","","36","","1","","24.1","","101.20","","","","-13","","NA"
"-65.71","66.15","PANGNIRTUNG A","2403051","2022-03-25 12:00","2022","03","25","12:00","-12.3","","-15.8","","76","","","","","","0","","24.1","","101.22","","","","","","NA"
"-65.71","66.15","PANGNIRTUNG A","2403051","2022-03-25 13:00","2022","03","25","13:00","-12.1","","-14.9","","80","","","","5","","10","","24.1","","101.19","","","","-18","","Mostly Cloudy"
"-65.71","66.15","PANGNIRTUNG A","2403051","2022-03-25 14:00","2022","03","25","14:00","-12.7","","-16.3","","75","","","","4","","21","","24.1","","101.16","","","","-21","","NA"
"-65.71","66.15","PANGNIRTUNG A","2403051","2022-03-25 15:00","2022","03","25","15:00","-12.3","","-16.5","","71","","","","14","","6","","24.1","","101.17","","","","-16","","NA"
"-65.71","66.15","PANGNIRTUNG A","2403051","2022-03-25 16:00","2022","03","25","16:00","-12.7","","-17.1","","70","","","","8","","8","","24.1","","101.22","","","","-18","","Mostly Cloudy"
"-65.71","66.15","PANGNIRTUNG A","2403051","2022-03-25 17:00","2022","03","25","17:00","-13.1","","-17.0","","73","","","","10","","12","","24.1","","101.24","","","","-20","","NA"
"-65.71","66.15","PANGNIRTUNG A","2403051","2022-03-25 18:00","2022","03","25","18:00"
"-65.71","66.15","PANGNIRTUNG A","2403051","2022-03-25 19:00","2022","03","25","19:00"
"-65.71","66.15","PANGNIRTUNG A","2403051","2022-03-25 20:00","2022","03","25","20:00"
"-65.71","66.15","PANGNIRTUNG A","2403051","2022-03-25 21:00","2022","03","25","21:00"
"-65.71","66.15","PANGNIRTUNG A","2403051","2022-03-25 22:00","2022","03","25","22:00"
"-65.71","66.15","PANGNIRTUNG A","2403051","2022-03-25 23:00","2022","03","25","23:00"
"-65.71","66.15","PANGNIRTUNG A","2403051","2022-03-26 00:00","2022","03","26","00:00"
"-65.71","66.15","PANGNIRTUNG A","2403051","2022-03-26 01:00","2022","03","26","01:00"
"-65.71","66.15","PANGNIRTUNG A","2403051","2022-03-26 02:00","2022","03","26","02:00"
"-65.71","66.15","PANGNIRTUNG A","2403051","2022-03-26 03:00","2022","03","26","03:00"
"-65.71","66.15","PANGNIRTUNG A","2403051","2022-03-26 04:00","2022","03","26","04:00"
"-65.71","66.15","PANGNIRTUNG A","2403051","2022-03-26 05:00","2022","03","26","05:00"
"-65.71","66.15","PANGNIRTUNG A","2403051","2022-03-26 06:00","2022","03","26","06:00"
"-65.71","66.15","PANGNIRTUNG A","2403051","2022-03-26 07:00","2022","03","26","07:00"
"-65.71","66.15","PANGNIRTUNG A","2403051","2022-03-26 08:00","2022","03","26","08:00"
"-65.71","66.15","PANGNIRTUNG A","2403051","2022-03-26 09:00","2022","03","26","09:00","-9.1","","-11.8","","81","","","","6","","20","","24.1","","100.98","","","","-17","","NA"
"-65.71","66.15","PANGNIRTUNG A","2403051","2022-03-26 10:00","2022","03","26","10:00","-4.7","","-10.2","","66","","","","11","","31","","24.1","","100.96","","","","-13","","Blowing Snow"
"-65.71","66.15","PANGNIRTUNG A","2403051","2022-03-26 11:00","2022","03","26","11:00","-4.2","","-10.3","","63","","","","11","","25","","24.1","","101.00","","","","-11","","Blowing Snow"
"-65.71","66.15","PANGNIRTUNG A","2403051","2022-03-26 12:00","2022","03","26","12:00","-4.5","","-10.9","","61","","","","36","","2","","24.1","","100.98","","","","-5","","NA"
"-65.71","66.15","PANGNIRTUNG A","2403051","2022-03-26 13:00","2022","03","26","13:00","-3.3","","-9.8","","61","","","","12","","21","","24.1","","100.96","","","","-10","","Blowing Snow"
"-65.71","66.15","PANGNIRTUNG A","2403051","2022-03-26 14:00","2022","03","26","14:00","-3.3","","-10.6","","57","","","","13","","15","","24.1","","101.00","","","","-8","","Blowing Snow"
"-65.71","66.15","PANGNIRTUNG A","2403051","2022-03-26 15:00","2022","03","26","15:00"
"-65.71","66.15","PANGNIRTUNG A","2403051","2022-03-26 16:00","2022","03","26","16:00"
"-65.71","66.15","PANGNIRTUNG A","2403051","2022-03-26 17:00","2022","03","26","17:00"
"-65.71","66.15","PANGNIRTUNG A","2403051","2022-03-26 18:00","2022","03","26","18:00"
"-65.71","66.15","PANGNIRTUNG A","2403051","2022-03-26 19:00","2022","03","26","19:00"
"-65.71","66.15","PANGNIRTUNG A","2403051","2022-03-26 20:00","2022","03","26","20:00"
"-65.71","66.15","PANGNIRTUNG A","2403051","2022-03-26 21:00","2022","03","26","21:00"
"-65.71","66.15","PANGNIRTUNG A","2403051","2022-03-26 22:00","2022","03","26","22:00"
"-65.71","66.15","PANGNIRTUNG A","2403051","2022-03-26 23:00","2022","03","26","23:00"
"-65.71","66.15","PANGNIRTUNG A","2403051","2022-03-27 00:00","2022","03","27","00:00"
"-65.71","66.15","PANGNIRTUNG A","2403051","2022-03-27 01:00","2022","03","27","01:00"
"-65.71","66.15","PANGNIRTUNG A","2403051","2022-03-27 02:00","2022","03","27","02:00"
"-65.71","66.15","PANGNIRTUNG A","2403051","2022-03-27 03:00","2022","03","27","03:00"
"-65.71","66.15","PANGNIRTUNG A","2403051","2022-03-27 04:00","2022","03","27","04:00"
"-65.71","66.15","PANGNIRTUNG A","2403051","2022-03-27 05:00","2022","03","27","05:00"
"-65.71","66.15","PANGNIRTUNG A","2403051","2022-03-27 06:00","2022","03","27","06:00"
"-65.71","66.15","PANGNIRTUNG A","2403051","2022-03-27 07:00","2022","03","27","07:00"
"-65.71","66.15","PANGNIRTUNG A","2403051","2022-03-27 08:00","2022","03","27","08:00"
"-65.71","66.15","PANGNIRTUNG A","2403051","2022-03-27 09:00","2022","03","27","09:00"
"-65.71","66.15","PANGNIRTUNG A","2403051","2022-03-27 10:00","2022","03","27","10:00"
"-65.71","66.15","PANGNIRTUNG A","2403051","2022-03-27 11:00","2022","03","27","11:00","-9.9","","-13.3","","76","","","","25","","8","","24.1","","101.20","","","","-14","","NA"
"-65.71","66.15","PANGNIRTUNG A","2403051","2022-03-27 12:00","2022","03","27","12:00","-10.8","","-12.9","","85","","","","24","","10","","24.1","","101.21","","","","-16","","NA"
"-65.71","66.15","PANGNIRTUNG A","2403051","2022-03-27 13:00","2022","03","27","13:00","-10.4","","-11.9","","89","","","","24","","5","","24.1","","101.20","","","","-13","","Mainly Clear"
"-65.71","66.15","PANGNIRTUNG A","2403051","2022-03-27 14:00","2022","03","27","14:00","-10.0","","-12.2","","84","","","","10","","5","","24.1","","101.17","","","","-13","","NA"
"-65.71","66.15","PANGNIRTUNG A","2403051","2022-03-27 15:00","2022","03","27","15:00","-10.4","","-11.5","","92","","","","7","","8","","24.1","","101.14","","","","-15","","NA"
"-65.71","66.15","PANGNIRTUNG A","2403051","2022-03-27 16:00","2022","03","27","16:00"
"-65.71","66.15","PANGNIRTUNG A","2403051","2022-03-27 17:00","2022","03","27","17:00"
"-65.71","66.15","PANGNIRTUNG A","2403051","2022-03-27 18:00","2022","03","27","18:00"
"-65.71","66.15","PANGNIRTUNG A","2403051","2022-03-27 19:00","2022","03","27","19:00"
"-65.71","66.15","PANGNIRTUNG A","2403051","2022-03-27 20:00","2022","03","27","20:00"
"-65.71","66.15","PANGNIRTUNG A","2403051","2022-03-27 21:00","2022","03","27","21:00"
"-65.71","66.15","PANGNIRTUNG A","2403051","2022-03-27 22:00","2022","03","27","22:00"
"-65.71","66.15","PANGNIRTUNG A","2403051","2022-03-27 23:00","2022","03","27","23:00"
"-65.71","66.15","PANGNIRTUNG A","2403051","2022-03-28 00:00","2022","03","28","00:00"
"-65.71","66.15","PANGNIRTUNG A","2403051","2022-03-28 01:00","2022","03","28","01:00"
"-65.71","66.15","PANGNIRTUNG A","2403051","2022-03-28 02:00","2022","03","28","02:00"
"-65.71","66.15","PANGNIRTUNG A","2403051","2022-03-28 03:00","2022","03","28","03:00"
"-65.71","66.15","PANGNIRTUNG A","2403051","2022-03-28 04:00","2022","03","28","04:00"
"-65.71","66.15","PANGNIRTUNG A","2403051","2022-03-28 05:00","2022","03","28","05:00"
"-65.71","66.15","PANGNIRTUNG A","2403051","2022-03-28 06:00","2022","03","28","06:00","-10.9","","-11.3","","97","","","","11","","10","","24.1","","100.97","","","","-16","","NA"
"-65.71","66.15","PANGNIRTUNG A","2403051","2022-03-28 07:00","2022","03","28","07:00","-15.9","","-17.5","","88","","","","26","","22","","24.1","","101.02","","","","-26","","Mainly Clear"
"-65.71","66.15","PANGNIRTUNG A","2403051","2022-03-28 08:00","2022","03","28","08:00","-16.3","","-17.7","","89","","","","36","","2","","24.1","","101.10","","","","-18","","NA"
"-65.71","66.15","PANGNIRTUNG A","2403051","2022-03-28 09:00","2022","03","28","09:00","-15.4","","-16.8","","89","","","","25","","6","","24.1","","101.15","","","","-20","","NA"
"-65.71","66.15","PANGNIRTUNG A","2403051","2022-03-28 10:00","2022","03","28","10:00","-14.1","","-15.1","","92","","","","9","","5","","24.1","","101.13","","","","-18","","Clear"
"-65.71","66.15","PANGNIRTUNG A","2403051","2022-03-28 11:00","2022","03","28","11:00","-14.6","","-16.0","","89","","","","25","","5","","24.1","","101.21","","","","-18","","NA"
"-65.71","66.15","PANGNIRTUNG A","2403051","2022-03-28 12:00","2022","03","28","12:00","-12.8","","-14.1","","90","","","","7","","3","","24.1","","101.25","","","","-15","","NA"
"-65.71","66.15","PANGNIRTUNG A","2403051","2022-03-28 13:00","2022","03","28","13:00","-11.9","","-12.9","","92","","","","9","","6","","24.1","","101.27","","","","-16","","Clear"
"-65.71","66.15","PANGNIRTUNG A","2403051","2022-03-28 14:00","2022","03","28","14:00","-11.7","","-13.2","","89","","","","5","","5","","24.1","","101.31","","","","-15","","NA"
"-65.71","66.15","PANGNIRTUNG A","2403051","2022-03-28 15:00","2022","03","28","15:00","-9.6","","-12.1","","82","","","","7","","7","","24.1","","101.32","","","","-14","","NA"
"-65.71","66.15","PANGNIRTUNG A","2403051","2022-03-28 16:00","2022","03","28","16:00","-10.5","","-13.5","","79","","","","6","","5","","24.1","","101.33","","","","-14","","Clear"
"-65.71","66.15","PANGNIRTUNG A","2403051","2022-03-28 17:00","2022","03","28","17:00","-10.3","","-13.8","","76","","","","14","","5","","24.1","","101.39","","","","-13","","NA"
"-65.71","66.15","PANGNIRTUNG A","2403051","2022-03-28 18:00","2022","03","28","18:00"
"-65.71","66.15","PANGNIRTUNG A","2403051","2022-03-28 19:00","2022","03","28","19:00"
"-65.71","66.15","PANGNIRTUNG A","2403051","2022-03-28 20:00","2022","03","28","20:00"
"-65.71","66.15","PANGNIRTUNG A","2403051","2022-03-28 21:00","2022","03","28","21:00","-11.9","","-14.8","","79","","","","8","","11","","24.1","","101.56","","","","-18","","NA"
"-65.71","66.15","PANGNIRTUNG A","2403051","2022-03-28 22:00","2022","03","28","22:00","-13.3","","-15.8","","82","","","","4","","4","","24.1","","101.58","","","","-16","","Clear"
"-65.71","66.15","PANGNIRTUNG A","2403051","2022-03-28 23:00","2022","03","28","23:00","-13.0","","-15.5","","82","","","","36","","1","","24.1","","101.58","","","","-14","","NA"
"-65.71","66.15","PANGNIRTUNG A","2403051","2022-03-29 00:00","2022","03","29","00:00"
"-65.71","66.15","PANGNIRTUNG A","2403051","2022-03-29 01:00","2022","03","29","01:00"
"-65.71","66.15","PANGNIRTUNG A","2403051","2022-03-29 02:00","2022","03","29","02:00"
"-65.71","66.15","PANGNIRTUNG A","2403051","2022-03-29 03:00","2022","03","29","03:00"
"-65.71","66.15","PANGNIRTUNG A","2403051","2022-03-29 04:00","2022","03","29","04:00"
"-65.71","66.15","PANGNIRTUNG A","2403051","2022-03-29 05:00","2022","03","29","05:00"
"-65.71","66.15","PANGNIRTUNG A","2403051","2022-03-29 06:00","2022","03","29","06:00","-14.8","","-17.3","","81","","","","9","","9","","24.1","","101.70","","","","-21","","NA"
"-65.71","66.15","PANGNIRTUNG A","2403051","2022-03-29 07:00","2022","03","29","07:00","-11.7","","-16.0","","71","","","","6","","10","","24.1","","101.71","","","","-17","","Mostly Cloudy"
"-65.71","66.15","PANGNIRTUNG A","2403051","2022-03-29 08:00","2022","03","29","08:00","-12.9","","-16.4","","75","","","","8","","4","","24.1","","101.74","","","","-16","","NA"
"-65.71","66.15","PANGNIRTUNG A","2403051","2022-03-29 09:00","2022","03","29","09:00","-11.4","","-14.6","","78","","","","","","0","","24.1","","101.74","","","","","","NA"
"-65.71","66.15","PANGNIRTUNG A","2403051","2022-03-29 10:00","2022","03","29","10:00","-9.5","","-13.3","","74","","","","22","","5","","24.1","","101.72","","","","-12","","Cloudy"
"-65.71","66.15","PANGNIRTUNG A","2403051","2022-03-29 11:00","2022","03","29","11:00","-7.3","","-11.6","","72","","","","12","","7","","24.1","","101.68","","","","-11","","NA"
"-65.71","66.15","PANGNIRTUNG A","2403051","2022-03-29 12:00","2022","03","29","12:00","-7.1","","-11.4","","72","","","","6","","6","","24.1","","101.65","","","","-10","","NA"
"-65.71","66.15","PANGNIRTUNG A","2403051","2022-03-29 13:00","2022","03","29","13:00","-6.5","","-10.0","","76","","","","25","","8","","24.1","","101.67","","","","-10","","Cloudy"
"-65.71","66.15","PANGNIRTUNG A","2403051","2022-03-29 14:00","2022","03","29","14:00","-6.8","","-9.8","","79","","","","25","","10","","24.1","","101.70","","","","-11","","NA"
"-65.71","66.15","PANGNIRTUNG A","2403051","2022-03-29 15:00","2022","03","29","15:00","-6.3","","-9.3","","79","","","","36","","2","","24.1","","101.69","","","","-7","","NA"
"-65.71","66.15","PANGNIRTUNG A","2403051","2022-03-29 16:00","2022","03","29","16:00","-6.4","","-9.3","","80","","","","36","","3","","24.1","","101.70","","","","-8","","Cloudy"
"-65.71","66.15","PANGNIRTUNG A","2403051","2022-03-29 17:00","2022","03","29","17:00","-6.7","","-10.2","","76","","","","7","","5","","24.1","","101.70","","","","-9","","NA"
"-65.71","66.15","PANGNIRTUNG A","2403051","2022-03-29 18:00","2022","03","29","18:00"
"-65.71","66.15","PANGNIRTUNG A","2403051","2022-03-29 19:00","2022","03","29","19:00"
"-65.71","66.15","PANGNIRTUNG A","2403051","2022-03-29 20:00","2022","03","29","20:00"
"-65.71","66.15","PANGNIRTUNG A","2403051","2022-03-29 21:00","2022","03","29","21:00"
"-65.71","66.15","PANGNIRTUNG A","2403051","2022-03-29 22:00","2022","03","29","22:00"
"-65.71","66.15","PANGNIRTUNG A","2403051","2022-03-29 23:00","2022","03","29","23:00"
"-65.71","66.15","PANGNIRTUNG A","2403051","2022-03-30 00:00","2022","03","30","00:00","-7.5","","-11.5","","73","","","","9","","7","","24.1","","101.72","","","","-11","","NA"
"-65.71","66.15","PANGNIRTUNG A","2403051","2022-03-30 01:00","2022","03","30","01:00","-7.8","","-11.3","","76","","","","6","","5","","24.1","","101.70","","","","-10","","Cloudy"
"-65.71","66.15","PANGNIRTUNG A","2403051","2022-03-30 02:00","2022","03","30","02:00","-7.5","","-10.7","","78","","","","10","","4","","24.1","","101.68","","","","-10","","NA"
"-65.71","66.15","PANGNIRTUNG A","2403051","2022-03-30 03:00","2022","03","30","03:00","-7.8","","-10.4","","82","","","","36","","1","","24.1","","101.69","","","","-8","","NA"
"-65.71","66.15","PANGNIRTUNG A","2403051","2022-03-30 04:00","2022","03","30","04:00","-7.5","","-10.6","","79","","","","36","","1","","24.1","","101.68","","","","-8","","Cloudy"
"-65.71","66.15","PANGNIRTUNG A","2403051","2022-03-30 05:00","2022","03","30","05:00"
"-65.71","66.15","PANGNIRTUNG A","2403051","2022-03-30 06:00","2022","03","30","06:00","-7.8","","-10.7","","80","","","","8","","3","","24.1","","101.65","","","","-9","","NA"
"-65.71","66.15","PANGNIRTUNG A","2403051","2022-03-30 07:00","2022","03","30","07:00","-7.0","","-11.0","","73","","","","11","","6","","24.1","","101.62","","","","-10","","Mostly Cloudy"
"-65.71","66.15","PANGNIRTUNG A","2403051","2022-03-30 08:00","2022","03","30","08:00","-6.8","","-10.2","","77","","","","11","","5","","24.1","","101.61","","","","-9","","NA"
"-65.71","66.15","PANGNIRTUNG A","2403051","2022-03-30 09:00","2022","03","30","09:00","-6.7","","-10.6","","74","","","","36","","2","","24.1","","101.59","","","","-8","","NA"
"-65.71","66.15","PANGNIRTUNG A","2403051","2022-03-30 10:00","2022","03","30","10:00","-5.1","","-10.7","","65","","","","11","","4","","24.1","","101.54","","","","-7","","Cloudy"
"-65.71","66.15","PANGNIRTUNG A","2403051","2022-03-30 11:00","2022","03","30","11:00","-5.2","","-10.2","","68","","","","30","","3","","24.1","","101.52","","","","-7","","NA"
"-65.71","66.15","PANGNIRTUNG A","2403051","2022-03-30 12:00","2022","03","30","12:00","-5.2","","-7.9","","82","","","","25","","10","","24.1","","101.51","","","","-10","","NA"
"-65.71","66.15","PANGNIRTUNG A","2403051","2022-03-30 13:00","2022","03","30","13:00","-5.1","","-7.8","","82","","","","26","","4","","24.1","","101.47","","","","-7","","Cloudy"
"-65.71","66.15","PANGNIRTUNG A","2403051","2022-03-30 14:00","2022","03","30","14:00","-5.3","","-7.4","","86","","","","26","","4","","24.1","","101.45","","","","-7","","NA"
"-65.71","66.15","PANGNIRTUNG A","2403051","2022-03-30 15:00","2022","03","30","15:00","-5.6","","-7.2","","89","","","","26","","9","","24.1","","101.45","","","","-10","","NA"
"-65.71","66.15","PANGNIRTUNG A","2403051","2022-03-30 16:00","2022","03","30","16:00","-5.9","","-7.3","","90","","","","25","","10","","19.3","","101.42","","","","-10","","Snow"
"-65.71","66.15","PANGNIRTUNG A","2403051","2022-03-30 17:00","2022","03","30","17:00","-6.3","","-7.4","","92","","","","25","","6","","19.3","","101.37","","","","-9","","Snow"
"-65.71","66.15","PANGNIRTUNG A","2403051","2022-03-30 18:00","2022","03","30","18:00"
"-65.71","66.15","PANGNIRTUNG A","2403051","2022-03-30 19:00","2022","03","30","19:00"
"-65.71","66.15","PANGNIRTUNG A","2403051","2022-03-30 20:00","2022","03","30","20:00"
"-65.71","66.15","PANGNIRTUNG A","2403051","2022-03-30 21:00","2022","03","30","21:00"
"-65.71","66.15","PANGNIRTUNG A","2403051","2022-03-30 22:00","2022","03","30","22:00"
"-65.71","66.15","PANGNIRTUNG A","2403051","2022-03-30 23:00","2022","03","30","23:00"
"-65.71","66.15","PANGNIRTUNG A","2403051","2022-03-31 00:00","2022","03","31","00:00"
"-65.71","66.15","PANGNIRTUNG A","2403051","2022-03-31 01:00","2022","03","31","01:00"
"-65.71","66.15","PANGNIRTUNG A","2403051","2022-03-31 02:00","2022","03","31","02:00"
"-65.71","66.15","PANGNIRTUNG A","2403051","2022-03-31 03:00","2022","03","31","03:00"
"-65.71","66.15","PANGNIRTUNG A","2403051","2022-03-31 04:00","2022","03","31","04:00"
"-65.71","66.15","PANGNIRTUNG A","2403051","2022-03-31 05:00","2022","03","31","05:00"
"-65.71","66.15","PANGNIRTUNG A","2403051","2022-03-31 06:00","2022","03","31","06:00","-8.3","","-9.4","","92","","","","8","","8","","12.9","","101.38","","","","-12","","Snow"
"-65.71","66.15","PANGNIRTUNG A","2403051","2022-03-31 07:00","2022","03","31","07:00","-8.2","","-10.0","","87","","","","12","","6","","12.9","","101.41","","","","-11","","Snow"
"-65.71","66.15","PANGNIRTUNG A","2403051","2022-03-31 08:00","2022","03","31","08:00","-7.5","","-9.4","","86","","","","36","","3","","12.9","","101.45","","","","-9","","Snow"
"-65.71","66.15","PANGNIRTUNG A","2403051","2022-03-31 09:00","2022","03","31","09:00","-7.5","","-9.1","","89","","","","","","0","","12.9","","101.45","","","","","","Snow"
"-65.71","66.15","PANGNIRTUNG A","2403051","2022-03-31 10:00","2022","03","31","10:00","-6.7","","-8.1","","90","","","","36","","2","","12.9","","101.46","","","","-8","","Snow"
"-65.71","66.15","PANGNIRTUNG A","2403051","2022-03-31 11:00","2022","03","31","11:00","-6.7","","-8.1","","90","","","","6","","7","","19.3","","101.43","","","","-10","","Snow"
"-65.71","66.15","PANGNIRTUNG A","2403051","2022-03-31 12:00","2022","03","31","12:00","-6.5","","-8.0","","89","","","","5","","8","","24.1","","101.41","","","","-10","","Snow"
"-65.71","66.15","PANGNIRTUNG A","2403051","2022-03-31 13:00","2022","03","31","13:00","-6.5","","-8.0","","89","","","","36","","1","","24.1","","101.43","","","","-7","","Snow"
"-65.71","66.15","PANGNIRTUNG A","2403051","2022-03-31 14:00","2022","03","31","14:00","-5.7","","-7.7","","86","","","","36","","2","","24.1","","101.44","","","","-7","","Snow"
"-65.71","66.15","PANGNIRTUNG A","2403051","2022-03-31 15:00","2022","03","31","15:00","-6.5","","-7.7","","91","","","","26","","10","","24.1","","101.46","","","","-11","","Snow"
"-65.71","66.15","PANGNIRTUNG A","2403051","2022-03-31 16:00","2022","03","31","16:00","-6.3","","-7.2","","93","","","","24","","5","","24.1","","101.48","","","","-9","","Cloudy"
"-65.71","66.15","PANGNIRTUNG A","2403051","2022-03-31 17:00","2022","03","31","17:00","-6.4","","-7.6","","91","","","","14","","4","","24.1","","101.48","","","","-8","","NA"
"-65.71","66.15","PANGNIRTUNG A","2403051","2022-03-31 18:00","2022","03","31","18:00","-6.8","","-7.7","","93","","","","36","","1","","24.1","","101.51","","","","-7","","NA"
"-65.71","66.15","PANGNIRTUNG A","2403051","2022-03-31 19:00","2022","03","31","19:00","-6.6","","-7.6","","92","","","","36","","2","","24.1","","101.49","","","","-8","","Cloudy"
"-65.71","66.15","PANGNIRTUNG A","2403051","2022-03-31 20:00","2022","03","31","20:00"
"-65.71","66.15","PANGNIRTUNG A","2403051","2022-03-31 21:00","2022","03","31","21:00"
"-65.71","66.15","PANGNIRTUNG A","2403051","2022-03-31 22:00","2022","03","31","22:00"
"-65.71","66.15","PANGNIRTUNG A","2403051","2022-03-31 23:00","2022","03","31","23:00"
