"Longitude (x)","Latitude (y)","Station Name","Climate ID","Date/Time (LST)","Year","Month","Day","Time (LST)","Temp (°C)","Temp Flag","Dew Point Temp (°C)","Dew Point Temp Flag","Rel Hum (%)","Rel Hum Flag","Precip. Amount (mm)","Precip. Amount Flag","Wind Dir (10s deg)","Wind Dir Flag","Wind Spd (km/h)","Wind Spd Flag","Visibility (km)","Visibility Flag","Stn Press (kPa)","Stn Press Flag","Hmdx","Hmdx Flag","Wind Chill","Wind Chill Flag","Weather"
"-140.20","69.61","KOMAKUK BEACH","2100682","2018-05-01 00:00","2018","05","01","00:00","-1.3","","","","","M","","","28","","9","","","","99.79","","","","-5","","NA"
"-140.20","69.61","KOMAKUK BEACH","2100682","2018-05-01 01:00","2018","05","01","01:00","-2.0","","","","","M","","","26","","4","","","","99.84","","","","-3","","NA"
"-140.20","69.61","KOMAKUK BEACH","2100682","2018-05-01 02:00","2018","05","01","02:00","-2.4","","","","","M","","","29","","4","","","","99.86","","","","-4","","NA"
"-140.20","69.61","KOMAKUK BEACH","2100682","2018-05-01 03:00","2018","05","01","03:00","-3.7","","","","","M","","","36","","7","","","","99.87","","","","-7","","NA"
"-140.20","69.61","KOMAKUK BEACH","2100682","2018-05-01 04:00","2018","05","01","04:00","-5.3","","","","","M","","","35","","9","","","","99.90","","","","-9","","NA"
"-140.20","69.61","KOMAKUK BEACH","2100682","2018-05-01 05:00","2018","05","01","05:00","-4.9","","","","","M","","","30","","6","","","","99.92","","","","-8","","NA"
"-140.20","69.61","KOMAKUK BEACH","2100682","2018-05-01 06:00","2018","05","01","06:00","-5.3","","","","","M","","","27","","7","","","","99.94","","","","-9","","NA"
"-140.20","69.61","KOMAKUK BEACH","2100682","2018-05-01 07:00","2018","05","01","07:00","-5.4","","","","","M","","","28","","9","","","","100.02","","","","-9","","NA"
"-140.20","69.61","KOMAKUK BEACH","2100682","2018-05-01 08:00","2018","05","01","08:00","-5.9","","","","","M","","","26","","9","","","","100.05","","","","-10","","NA"
"-140.20","69.61","KOMAKUK BEACH","2100682","2018-05-01 09:00","2018","05","01","09:00","-5.9","","","","","M","","","29","","11","","","","100.07","","","","-11","","NA"
"-140.20","69.61","KOMAKUK BEACH","2100682","2018-05-01 10:00","2018","05","01","10:00","-5.4","","","","","M","","","27","","9","","","","100.12","","","","-9","","NA"
"-140.20","69.61","KOMAKUK BEACH","2100682","2018-05-01 11:00","2018","05","01","11:00","-5.5","","","","","M","","","28","","9","","","","100.16","","","","-10","","NA"
"-140.20","69.61","KOMAKUK BEACH","2100682","2018-05-01 12:00","2018","05","01","12:00","-5.7","","","","","M","","","29","","11","","","","100.20","","","","-10","","NA"
"-140.20","69.61","KOMAKUK BEACH","2100682","2018-05-01 13:00","2018","05","01","13:00","-5.2","","","","","M","","","29","","11","","","","100.25","","","","-10","","NA"
"-140.20","69.61","KOMAKUK BEACH","2100682","2018-05-01 14:00","2018","05","01","14:00","-5.8","","","","","M","","","32","","11","","","","100.29","","","","-11","","NA"
"-140.20","69.61","KOMAKUK BEACH","2100682","2018-05-01 15:00","2018","05","01","15:00","-5.8","","","","","M","","","32","","11","","","","100.35","","","","-11","","NA"
"-140.20","69.61","KOMAKUK BEACH","2100682","2018-05-01 16:00","2018","05","01","16:00","-6.0","","","","","M","","","34","","11","","","","100.39","","","","-11","","NA"
"-140.20","69.61","KOMAKUK BEACH","2100682","2018-05-01 17:00","2018","05","01","17:00","-6.2","","","","","M","","","31","","11","","","","100.46","","","","-11","","NA"
"-140.20","69.61","KOMAKUK BEACH","2100682","2018-05-01 18:00","2018","05","01","18:00","-6.3","","","","","M","","","33","","9","","","","100.50","","","","-11","","NA"
"-140.20","69.61","KOMAKUK BEACH","2100682","2018-05-01 19:00","2018","05","01","19:00","-6.2","","","","","M","","","32","","11","","","","100.52","","","","-11","","NA"
"-140.20","69.61","KOMAKUK BEACH","2100682","2018-05-01 20:00","2018","05","01","20:00","-6.3","","","","","M","","","36","","6","","","","100.58","","","","-9","","NA"
"-140.20","69.61","KOMAKUK BEACH","2100682","2018-05-01 21:00","2018","05","01","21:00","-6.8","","","","","M","","","36","","7","","","","100.60","","","","-10","","NA"
"-140.20","69.61","KOMAKUK BEACH","2100682","2018-05-01 22:00","2018","05","01","22:00","-6.9","","","","","M","","","1","","6","","","","100.62","","","","-10","","NA"
"-140.20","69.61","KOMAKUK BEACH","2100682","2018-05-01 23:00","2018","05","01","23:00","-7.1","","","","","M","","","2","","4","","","","100.65","","","","-9","","NA"
"-140.20","69.61","KOMAKUK BEACH","2100682","2018-05-02 00:00","2018","05","02","00:00","-7.7","","","","","M","","","2","","6","","","","100.67","","","","-11","","NA"
"-140.20","69.61","KOMAKUK BEACH","2100682","2018-05-02 01:00","2018","05","02","01:00","-8.2","","","","","M","","","14","","6","","","","100.70","","","","-11","","NA"
"-140.20","69.61","KOMAKUK BEACH","2100682","2018-05-02 02:00","2018","05","02","02:00","-8.0","","","","","M","","","18","","9","","","","100.70","","","","-13","","NA"
"-140.20","69.61","KOMAKUK BEACH","2100682","2018-05-02 03:00","2018","05","02","03:00","-7.4","","","","","M","","","12","","6","","","","100.70","","","","-11","","NA"
"-140.20","69.61","KOMAKUK BEACH","2100682","2018-05-02 04:00","2018","05","02","04:00","-7.3","","","","","M","","","15","","7","","","","100.74","","","","-11","","NA"
"-140.20","69.61","KOMAKUK BEACH","2100682","2018-05-02 05:00","2018","05","02","05:00","-7.6","","","","","M","","","16","","9","","","","100.78","","","","-12","","NA"
"-140.20","69.61","KOMAKUK BEACH","2100682","2018-05-02 06:00","2018","05","02","06:00","-7.7","","","","","M","","","11","","9","","","","100.81","","","","-12","","NA"
"-140.20","69.61","KOMAKUK BEACH","2100682","2018-05-02 07:00","2018","05","02","07:00","-7.8","","","","","M","","","15","","9","","","","100.86","","","","-12","","NA"
"-140.20","69.61","KOMAKUK BEACH","2100682","2018-05-02 08:00","2018","05","02","08:00","-7.8","","","","","M","","","11","","7","","","","100.85","","","","-11","","NA"
"-140.20","69.61","KOMAKUK BEACH","2100682","2018-05-02 09:00","2018","05","02","09:00","-8.3","","","","","M","","","8","","13","","","","100.89","","","","-14","","NA"
"-140.20","69.61","KOMAKUK BEACH","2100682","2018-05-02 10:00","2018","05","02","10:00","-8.1","","","","","M","","","10","","9","","","","100.92","","","","-13","","NA"
"-140.20","69.61","KOMAKUK BEACH","2100682","2018-05-02 11:00","2018","05","02","11:00","-8.0","","","","","M","","","9","","11","","","","100.98","","","","-13","","NA"
"-140.20","69.61","KOMAKUK BEACH","2100682","2018-05-02 12:00","2018","05","02","12:00","-8.2","","","","","M","","","8","","13","","","","101.00","","","","-14","","NA"
"-140.20","69.61","KOMAKUK BEACH","2100682","2018-05-02 13:00","2018","05","02","13:00","-8.2","","","","","M","","","9","","11","","","","101.03","","","","-13","","NA"
"-140.20","69.61","KOMAKUK BEACH","2100682","2018-05-02 14:00","2018","05","02","14:00","-8.2","","","","","M","","","8","","11","","","","101.08","","","","-13","","NA"
"-140.20","69.61","KOMAKUK BEACH","2100682","2018-05-02 15:00","2018","05","02","15:00","-8.2","","","","","M","","","8","","11","","","","101.13","","","","-13","","NA"
"-140.20","69.61","KOMAKUK BEACH","2100682","2018-05-02 16:00","2018","05","02","16:00","-8.3","","","","","M","","","7","","11","","","","101.15","","","","-14","","NA"
"-140.20","69.61","KOMAKUK BEACH","2100682","2018-05-02 17:00","2018","05","02","17:00","-8.1","","","","","M","","","8","","11","","","","101.18","","","","-13","","NA"
"-140.20","69.61","KOMAKUK BEACH","2100682","2018-05-02 18:00","2018","05","02","18:00","-8.1","","","","","M","","","8","","13","","","","101.20","","","","-14","","NA"
"-140.20","69.61","KOMAKUK BEACH","2100682","2018-05-02 19:00","2018","05","02","19:00","-8.4","","","","","M","","","9","","13","","","","101.22","","","","-14","","NA"
"-140.20","69.61","KOMAKUK BEACH","2100682","2018-05-02 20:00","2018","05","02","20:00","-8.5","","","","","M","","","7","","13","","","","101.23","","","","-14","","NA"
"-140.20","69.61","KOMAKUK BEACH","2100682","2018-05-02 21:00","2018","05","02","21:00","-8.3","","","","","M","","","4","","11","","","","101.22","","","","-14","","NA"
"-140.20","69.61","KOMAKUK BEACH","2100682","2018-05-02 22:00","2018","05","02","22:00","-8.3","","","","","M","","","6","","7","","","","101.26","","","","-12","","NA"
"-140.20","69.61","KOMAKUK BEACH","2100682","2018-05-02 23:00","2018","05","02","23:00","-8.9","","","","","M","","","34","","7","","","","101.26","","","","-13","","NA"
"-140.20","69.61","KOMAKUK BEACH","2100682","2018-05-03 00:00","2018","05","03","00:00","-8.3","","","","","M","","","9","","13","","","","101.26","","","","-14","","NA"
"-140.20","69.61","KOMAKUK BEACH","2100682","2018-05-03 01:00","2018","05","03","01:00","-8.6","","","","","M","","","10","","13","","","","101.27","","","","-15","","NA"
"-140.20","69.61","KOMAKUK BEACH","2100682","2018-05-03 02:00","2018","05","03","02:00","-8.8","","","","","M","","","12","","15","","","","101.26","","","","-15","","NA"
"-140.20","69.61","KOMAKUK BEACH","2100682","2018-05-03 03:00","2018","05","03","03:00","-9.0","","","","","M","","","11","","13","","","","101.29","","","","-15","","NA"
"-140.20","69.61","KOMAKUK BEACH","2100682","2018-05-03 04:00","2018","05","03","04:00","-9.2","","","","","M","","","12","","13","","","","101.29","","","","-15","","NA"
"-140.20","69.61","KOMAKUK BEACH","2100682","2018-05-03 05:00","2018","05","03","05:00","-9.7","","","","","M","","","20","","7","","","","101.29","","","","-14","","NA"
"-140.20","69.61","KOMAKUK BEACH","2100682","2018-05-03 06:00","2018","05","03","06:00","-9.7","","","","","M","","","10","","13","","","","101.29","","","","-16","","NA"
"-140.20","69.61","KOMAKUK BEACH","2100682","2018-05-03 07:00","2018","05","03","07:00","-9.8","","","","","M","","","11","","9","","","","101.29","","","","-15","","NA"
"-140.20","69.61","KOMAKUK BEACH","2100682","2018-05-03 08:00","2018","05","03","08:00","-9.7","","","","","M","","","9","","15","","","","101.25","","","","-16","","NA"
"-140.20","69.61","KOMAKUK BEACH","2100682","2018-05-03 09:00","2018","05","03","09:00","-9.8","","","","","M","","","9","","15","","","","101.26","","","","-16","","NA"
"-140.20","69.61","KOMAKUK BEACH","2100682","2018-05-03 10:00","2018","05","03","10:00","-9.7","","","","","M","","","9","","19","","","","101.22","","","","-17","","NA"
"-140.20","69.61","KOMAKUK BEACH","2100682","2018-05-03 11:00","2018","05","03","11:00","-9.5","","","","","M","","","9","","20","","","","101.24","","","","-17","","NA"
"-140.20","69.61","KOMAKUK BEACH","2100682","2018-05-03 12:00","2018","05","03","12:00","-9.3","","","","","M","","","9","","22","","","","101.18","","","","-17","","NA"
"-140.20","69.61","KOMAKUK BEACH","2100682","2018-05-03 13:00","2018","05","03","13:00","-9.3","","","","","M","","","10","","22","","","","101.18","","","","-17","","NA"
"-140.20","69.61","KOMAKUK BEACH","2100682","2018-05-03 14:00","2018","05","03","14:00","-9.3","","","","","M","","","9","","22","","","","101.18","","","","-17","","NA"
"-140.20","69.61","KOMAKUK BEACH","2100682","2018-05-03 15:00","2018","05","03","15:00","-9.2","","","","","M","","","9","","24","","","","101.14","","","","-18","","NA"
"-140.20","69.61","KOMAKUK BEACH","2100682","2018-05-03 16:00","2018","05","03","16:00","-8.9","","","","","M","","","9","","26","","","","101.11","","","","-18","","NA"
"-140.20","69.61","KOMAKUK BEACH","2100682","2018-05-03 17:00","2018","05","03","17:00","-8.9","","","","","M","","","8","","24","","","","101.13","","","","-17","","NA"
"-140.20","69.61","KOMAKUK BEACH","2100682","2018-05-03 18:00","2018","05","03","18:00","-8.9","","","","","M","","","9","","24","","","","101.10","","","","-17","","NA"
"-140.20","69.61","KOMAKUK BEACH","2100682","2018-05-03 19:00","2018","05","03","19:00","-8.7","","","","","M","","","10","","22","","","","101.06","","","","-17","","NA"
"-140.20","69.61","KOMAKUK BEACH","2100682","2018-05-03 20:00","2018","05","03","20:00","-8.9","","","","","M","","","9","","22","","","","101.01","","","","-17","","NA"
"-140.20","69.61","KOMAKUK BEACH","2100682","2018-05-03 21:00","2018","05","03","21:00","-9.0","","","","","M","","","9","","22","","","","100.97","","","","-17","","NA"
"-140.20","69.61","KOMAKUK BEACH","2100682","2018-05-03 22:00","2018","05","03","22:00","-9.1","","","","","M","","","8","","26","","","","100.95","","","","-18","","NA"
"-140.20","69.61","KOMAKUK BEACH","2100682","2018-05-03 23:00","2018","05","03","23:00","-9.2","","","","","M","","","9","","24","","","","100.94","","","","-18","","NA"
"-140.20","69.61","KOMAKUK BEACH","2100682","2018-05-04 00:00","2018","05","04","00:00","-9.3","","","","","M","","","9","","24","","","","100.95","","","","-18","","NA"
"-140.20","69.61","KOMAKUK BEACH","2100682","2018-05-04 01:00","2018","05","04","01:00","-9.3","","","","","M","","","8","","22","","","","100.96","","","","-17","","NA"
"-140.20","69.61","KOMAKUK BEACH","2100682","2018-05-04 02:00","2018","05","04","02:00","-9.3","","","","","M","","","12","","20","","","","100.95","","","","-17","","NA"
"-140.20","69.61","KOMAKUK BEACH","2100682","2018-05-04 03:00","2018","05","04","03:00","-9.3","","","","","M","","","10","","17","","","","100.95","","","","-16","","NA"
"-140.20","69.61","KOMAKUK BEACH","2100682","2018-05-04 04:00","2018","05","04","04:00","-9.4","","","","","M","","","10","","19","","","","100.95","","","","-17","","NA"
"-140.20","69.61","KOMAKUK BEACH","2100682","2018-05-04 05:00","2018","05","04","05:00","-9.6","","","","","M","","","9","","19","","","","100.94","","","","-17","","NA"
"-140.20","69.61","KOMAKUK BEACH","2100682","2018-05-04 06:00","2018","05","04","06:00","-9.8","","","","","M","","","8","","17","","","","100.95","","","","-17","","NA"
"-140.20","69.61","KOMAKUK BEACH","2100682","2018-05-04 07:00","2018","05","04","07:00","-9.9","","","","","M","","","9","","19","","","","100.97","","","","-18","","NA"
"-140.20","69.61","KOMAKUK BEACH","2100682","2018-05-04 08:00","2018","05","04","08:00","-9.9","","","","","M","","","9","","17","","","","100.98","","","","-17","","NA"
"-140.20","69.61","KOMAKUK BEACH","2100682","2018-05-04 09:00","2018","05","04","09:00","-9.9","","","","","M","","","9","","20","","","","100.98","","","","-18","","NA"
"-140.20","69.61","KOMAKUK BEACH","2100682","2018-05-04 10:00","2018","05","04","10:00","-10.0","","","","","M","","","7","","19","","","","100.99","","","","-18","","NA"
"-140.20","69.61","KOMAKUK BEACH","2100682","2018-05-04 11:00","2018","05","04","11:00","-10.1","","","","","M","","","8","","22","","","","100.99","","","","-18","","NA"
"-140.20","69.61","KOMAKUK BEACH","2100682","2018-05-04 12:00","2018","05","04","12:00","-10.0","","","","","M","","","7","","20","","","","101.01","","","","-18","","NA"
"-140.20","69.61","KOMAKUK BEACH","2100682","2018-05-04 13:00","2018","05","04","13:00","-9.8","","","","","M","","","7","","22","","","","100.98","","","","-18","","NA"
"-140.20","69.61","KOMAKUK BEACH","2100682","2018-05-04 14:00","2018","05","04","14:00","-9.8","","","","","M","","","8","","24","","","","100.97","","","","-18","","NA"
"-140.20","69.61","KOMAKUK BEACH","2100682","2018-05-04 15:00","2018","05","04","15:00","-9.3","","","","","M","","","8","","22","","","","100.97","","","","-17","","NA"
"-140.20","69.61","KOMAKUK BEACH","2100682","2018-05-04 16:00","2018","05","04","16:00","-9.4","","","","","M","","","7","","28","","","","100.98","","","","-18","","NA"
"-140.20","69.61","KOMAKUK BEACH","2100682","2018-05-04 17:00","2018","05","04","17:00","-9.6","","","","","M","","","7","","26","","","","100.99","","","","-18","","NA"
"-140.20","69.61","KOMAKUK BEACH","2100682","2018-05-04 18:00","2018","05","04","18:00","-9.6","","","","","M","","","7","","26","","","","100.92","","","","-18","","NA"
"-140.20","69.61","KOMAKUK BEACH","2100682","2018-05-04 19:00","2018","05","04","19:00","-9.5","","","","","M","","","8","","26","","","","100.88","","","","-18","","NA"
"-140.20","69.61","KOMAKUK BEACH","2100682","2018-05-04 20:00","2018","05","04","20:00","-9.5","","","","","M","","","8","","35","","","","100.86","","","","-20","","NA"
"-140.20","69.61","KOMAKUK BEACH","2100682","2018-05-04 21:00","2018","05","04","21:00","-9.7","","","","","M","","","8","","33","","","","100.82","","","","-20","","NA"
"-140.20","69.61","KOMAKUK BEACH","2100682","2018-05-04 22:00","2018","05","04","22:00","-10.1","","","","","M","","","9","","35","","","","100.78","","","","-20","","NA"
"-140.20","69.61","KOMAKUK BEACH","2100682","2018-05-04 23:00","2018","05","04","23:00","-10.5","","","","","M","","","9","","35","","","","100.76","","","","-21","","NA"
"-140.20","69.61","KOMAKUK BEACH","2100682","2018-05-05 00:00","2018","05","05","00:00","-10.9","","","","","M","","","9","","37","","","","100.71","","","","-22","","NA"
"-140.20","69.61","KOMAKUK BEACH","2100682","2018-05-05 01:00","2018","05","05","01:00","-11.2","","","","","M","","","10","","33","","","","100.71","","","","-22","","NA"
"-140.20","69.61","KOMAKUK BEACH","2100682","2018-05-05 02:00","2018","05","05","02:00","-11.4","","","","","M","","","9","","37","","","","100.66","","","","-22","","NA"
"-140.20","69.61","KOMAKUK BEACH","2100682","2018-05-05 03:00","2018","05","05","03:00","-11.7","","","","","M","","","9","","35","","","","100.64","","","","-22","","NA"
"-140.20","69.61","KOMAKUK BEACH","2100682","2018-05-05 04:00","2018","05","05","04:00","-12.0","","","","","M","","","9","","37","","","","100.53","","","","-23","","NA"
"-140.20","69.61","KOMAKUK BEACH","2100682","2018-05-05 05:00","2018","05","05","05:00","-12.2","","","","","M","","","9","","37","","","","100.49","","","","-23","","NA"
"-140.20","69.61","KOMAKUK BEACH","2100682","2018-05-05 06:00","2018","05","05","06:00","-12.0","","","","","M","","","9","","39","","","","100.43","","","","-23","","NA"
"-140.20","69.61","KOMAKUK BEACH","2100682","2018-05-05 07:00","2018","05","05","07:00","-11.8","","","","","M","","","9","","41","","","","100.37","","","","-23","","NA"
"-140.20","69.61","KOMAKUK BEACH","2100682","2018-05-05 08:00","2018","05","05","08:00","-11.6","","","","","M","","","9","","43","","","","100.30","","","","-23","","NA"
"-140.20","69.61","KOMAKUK BEACH","2100682","2018-05-05 09:00","2018","05","05","09:00","-11.7","","","","","M","","","9","","37","","","","100.26","","","","-23","","NA"
"-140.20","69.61","KOMAKUK BEACH","2100682","2018-05-05 10:00","2018","05","05","10:00","-11.6","","","","","M","","","9","","41","","","","100.20","","","","-23","","NA"
"-140.20","69.61","KOMAKUK BEACH","2100682","2018-05-05 11:00","2018","05","05","11:00","-11.3","","","","","M","","","9","","39","","","","100.17","","","","-22","","NA"
"-140.20","69.61","KOMAKUK BEACH","2100682","2018-05-05 12:00","2018","05","05","12:00","-11.2","","","","","M","","","9","","41","","","","100.16","","","","-22","","NA"
"-140.20","69.61","KOMAKUK BEACH","2100682","2018-05-05 13:00","2018","05","05","13:00","-10.9","","","","","M","","","9","","37","","","","100.16","","","","-22","","NA"
"-140.20","69.61","KOMAKUK BEACH","2100682","2018-05-05 14:00","2018","05","05","14:00","-10.6","","","","","M","","","9","","41","","","","100.17","","","","-22","","NA"
"-140.20","69.61","KOMAKUK BEACH","2100682","2018-05-05 15:00","2018","05","05","15:00","-10.4","","","","","M","","","9","","35","","","","100.22","","","","-21","","NA"
"-140.20","69.61","KOMAKUK BEACH","2100682","2018-05-05 16:00","2018","05","05","16:00","-10.3","","","","","M","","","9","","26","","","","100.29","","","","-19","","NA"
"-140.20","69.61","KOMAKUK BEACH","2100682","2018-05-05 17:00","2018","05","05","17:00","-10.6","","","","","M","","","8","","30","","","","100.31","","","","-20","","NA"
"-140.20","69.61","KOMAKUK BEACH","2100682","2018-05-05 18:00","2018","05","05","18:00","-10.5","","","","","M","","","7","","26","","","","100.30","","","","-20","","NA"
"-140.20","69.61","KOMAKUK BEACH","2100682","2018-05-05 19:00","2018","05","05","19:00","-10.0","","","","","M","","","9","","20","","","","100.37","","","","-18","","NA"
"-140.20","69.61","KOMAKUK BEACH","2100682","2018-05-05 20:00","2018","05","05","20:00","-9.7","","","","","M","","","10","","15","","","","100.45","","","","-16","","NA"
"-140.20","69.61","KOMAKUK BEACH","2100682","2018-05-05 21:00","2018","05","05","21:00","-9.7","","","","","M","","","12","","7","","","","100.53","","","","-14","","NA"
"-140.20","69.61","KOMAKUK BEACH","2100682","2018-05-05 22:00","2018","05","05","22:00","-9.9","","","","","M","","","32","","4","","","","100.60","","","","-12","","NA"
"-140.20","69.61","KOMAKUK BEACH","2100682","2018-05-05 23:00","2018","05","05","23:00","-9.8","","","","","M","","","26","","7","","","","100.72","","","","-14","","NA"
"-140.20","69.61","KOMAKUK BEACH","2100682","2018-05-06 00:00","2018","05","06","00:00","-10.1","","","","","M","","","5","","11","","","","100.82","","","","-16","","NA"
"-140.20","69.61","KOMAKUK BEACH","2100682","2018-05-06 01:00","2018","05","06","01:00","-10.5","","","","","M","","","18","","6","","","","100.91","","","","-14","","NA"
"-140.20","69.61","KOMAKUK BEACH","2100682","2018-05-06 02:00","2018","05","06","02:00","-11.5","","","","","M","","","9","","6","","","","101.01","","","","-15","","NA"
"-140.20","69.61","KOMAKUK BEACH","2100682","2018-05-06 03:00","2018","05","06","03:00","-12.2","","","","","M","","","19","","4","","","","101.10","","","","-15","","NA"
"-140.20","69.61","KOMAKUK BEACH","2100682","2018-05-06 04:00","2018","05","06","04:00","-11.7","","","","","M","","","28","","6","","","","101.19","","","","-15","","NA"
"-140.20","69.61","KOMAKUK BEACH","2100682","2018-05-06 05:00","2018","05","06","05:00","-12.6","","","","","M","","","20","","7","","","","101.26","","","","-17","","NA"
"-140.20","69.61","KOMAKUK BEACH","2100682","2018-05-06 06:00","2018","05","06","06:00","-14.6","","","","","M","","","16","","4","","","","101.33","","","","-17","","NA"
"-140.20","69.61","KOMAKUK BEACH","2100682","2018-05-06 07:00","2018","05","06","07:00","-15.6","","","","","M","","","17","","7","","","","101.41","","","","-21","","NA"
"-140.20","69.61","KOMAKUK BEACH","2100682","2018-05-06 08:00","2018","05","06","08:00","-13.6","","","","","M","","","12","","6","","","","101.46","","","","-18","","NA"
"-140.20","69.61","KOMAKUK BEACH","2100682","2018-05-06 09:00","2018","05","06","09:00","-12.3","","","","","M","","","7","","9","","","","101.49","","","","-18","","NA"
"-140.20","69.61","KOMAKUK BEACH","2100682","2018-05-06 10:00","2018","05","06","10:00","-12.1","","","","","M","","","9","","15","","","","101.53","","","","-19","","NA"
"-140.20","69.61","KOMAKUK BEACH","2100682","2018-05-06 11:00","2018","05","06","11:00","-11.7","","","","","M","","","9","","13","","","","101.57","","","","-18","","NA"
"-140.20","69.61","KOMAKUK BEACH","2100682","2018-05-06 12:00","2018","05","06","12:00","-11.1","","","","","M","","","10","","19","","","","101.60","","","","-19","","NA"
"-140.20","69.61","KOMAKUK BEACH","2100682","2018-05-06 13:00","2018","05","06","13:00","-10.7","","","","","M","","","10","","24","","","","101.62","","","","-19","","NA"
"-140.20","69.61","KOMAKUK BEACH","2100682","2018-05-06 14:00","2018","05","06","14:00","-10.4","","","","","M","","","9","","26","","","","101.64","","","","-19","","NA"
"-140.20","69.61","KOMAKUK BEACH","2100682","2018-05-06 15:00","2018","05","06","15:00","-10.0","","","","","M","","","10","","24","","","","101.65","","","","-19","","NA"
"-140.20","69.61","KOMAKUK BEACH","2100682","2018-05-06 16:00","2018","05","06","16:00","-9.8","","","","","M","","","10","","24","","","","101.66","","","","-18","","NA"
"-140.20","69.61","KOMAKUK BEACH","2100682","2018-05-06 17:00","2018","05","06","17:00","-9.7","","","","","M","","","9","","28","","","","101.69","","","","-19","","NA"
"-140.20","69.61","KOMAKUK BEACH","2100682","2018-05-06 18:00","2018","05","06","18:00","-9.2","","","","","M","","","10","","24","","","","101.69","","","","-18","","NA"
"-140.20","69.61","KOMAKUK BEACH","2100682","2018-05-06 19:00","2018","05","06","19:00","-9.1","","","","","M","","","10","","26","","","","101.74","","","","-18","","NA"
"-140.20","69.61","KOMAKUK BEACH","2100682","2018-05-06 20:00","2018","05","06","20:00","-9.0","","","","","M","","","10","","24","","","","101.75","","","","-17","","NA"
"-140.20","69.61","KOMAKUK BEACH","2100682","2018-05-06 21:00","2018","05","06","21:00","-9.3","","","","","M","","","11","","26","","","","101.70","","","","-18","","NA"
"-140.20","69.61","KOMAKUK BEACH","2100682","2018-05-06 22:00","2018","05","06","22:00","-10.4","","","","","M","","","10","","26","","","","101.73","","","","-19","","NA"
"-140.20","69.61","KOMAKUK BEACH","2100682","2018-05-06 23:00","2018","05","06","23:00","-11.6","","","","","M","","","9","","28","","","","101.70","","","","-21","","NA"
"-140.20","69.61","KOMAKUK BEACH","2100682","2018-05-07 00:00","2018","05","07","00:00","-12.6","","","","","M","","","9","","26","","","","101.72","","","","-22","","NA"
"-140.20","69.61","KOMAKUK BEACH","2100682","2018-05-07 01:00","2018","05","07","01:00","-12.8","","","","","M","","","10","","31","","","","101.66","","","","-23","","NA"
"-140.20","69.61","KOMAKUK BEACH","2100682","2018-05-07 02:00","2018","05","07","02:00","-12.9","","","","","M","","","10","","24","","","","101.67","","","","-22","","NA"
"-140.20","69.61","KOMAKUK BEACH","2100682","2018-05-07 03:00","2018","05","07","03:00","-15.1","","","","","M","","","10","","17","","","","101.73","","","","-24","","NA"
"-140.20","69.61","KOMAKUK BEACH","2100682","2018-05-07 04:00","2018","05","07","04:00","-16.7","","","","","M","","","12","","7","","","","101.76","","","","-22","","NA"
"-140.20","69.61","KOMAKUK BEACH","2100682","2018-05-07 05:00","2018","05","07","05:00","-17.3","","","","","M","","","4","","17","","","","101.81","","","","-26","","NA"
"-140.20","69.61","KOMAKUK BEACH","2100682","2018-05-07 06:00","2018","05","07","06:00","-17.7","","","","","M","","","10","","20","","","","101.79","","","","-28","","NA"
"-140.20","69.61","KOMAKUK BEACH","2100682","2018-05-07 07:00","2018","05","07","07:00","-17.1","","","","","M","","","9","","15","","","","101.79","","","","-26","","NA"
"-140.20","69.61","KOMAKUK BEACH","2100682","2018-05-07 08:00","2018","05","07","08:00","-15.0","","","","","M","","","12","","17","","","","101.74","","","","-23","","NA"
"-140.20","69.61","KOMAKUK BEACH","2100682","2018-05-07 09:00","2018","05","07","09:00","-14.4","","","","","M","","","9","","19","","","","101.75","","","","-23","","NA"
"-140.20","69.61","KOMAKUK BEACH","2100682","2018-05-07 10:00","2018","05","07","10:00","-13.6","","","","","M","","","9","","11","","","","101.78","","","","-20","","NA"
"-140.20","69.61","KOMAKUK BEACH","2100682","2018-05-07 11:00","2018","05","07","11:00","-13.2","","","","","M","","","","","0","","","","101.82","","","","","","NA"
"-140.20","69.61","KOMAKUK BEACH","2100682","2018-05-07 12:00","2018","05","07","12:00","-12.3","","","","","M","","","9","","11","","","","101.84","","","","-18","","NA"
"-140.20","69.61","KOMAKUK BEACH","2100682","2018-05-07 13:00","2018","05","07","13:00","-11.7","","","","","M","","","8","","9","","","","101.87","","","","-17","","NA"
"-140.20","69.61","KOMAKUK BEACH","2100682","2018-05-07 14:00","2018","05","07","14:00","-10.6","","","","","M","","","17","","4","","","","101.95","","","","-13","","NA"
"-140.20","69.61","KOMAKUK BEACH","2100682","2018-05-07 15:00","2018","05","07","15:00","-10.4","","","","","M","","","7","","4","","","","102.00","","","","-13","","NA"
"-140.20","69.61","KOMAKUK BEACH","2100682","2018-05-07 16:00","2018","05","07","16:00","-10.1","","","","","M","","","14","","4","","","","102.01","","","","-12","","NA"
"-140.20","69.61","KOMAKUK BEACH","2100682","2018-05-07 17:00","2018","05","07","17:00","-8.9","","","","","M","","","19","","9","","","","102.09","","","","-14","","NA"
"-140.20","69.61","KOMAKUK BEACH","2100682","2018-05-07 18:00","2018","05","07","18:00","-8.7","","","","","M","","","28","","7","","","","102.12","","","","-13","","NA"
"-140.20","69.61","KOMAKUK BEACH","2100682","2018-05-07 19:00","2018","05","07","19:00","-7.9","","","","","M","","","","","0","","","","102.18","","","","","","NA"
"-140.20","69.61","KOMAKUK BEACH","2100682","2018-05-07 20:00","2018","05","07","20:00","-8.2","","","","","M","","","","","0","","","","102.20","","","","","","NA"
"-140.20","69.61","KOMAKUK BEACH","2100682","2018-05-07 21:00","2018","05","07","21:00","-9.0","","","","","M","","","29","","4","","","","102.26","","","","-11","","NA"
"-140.20","69.61","KOMAKUK BEACH","2100682","2018-05-07 22:00","2018","05","07","22:00","-8.3","","","","","M","","","","","0","","","","102.29","","","","","","NA"
"-140.20","69.61","KOMAKUK BEACH","2100682","2018-05-07 23:00","2018","05","07","23:00","-9.9","","","","","M","","","18","","4","","","","102.34","","","","-12","","NA"
"-140.20","69.61","KOMAKUK BEACH","2100682","2018-05-08 00:00","2018","05","08","00:00","-10.5","","","","","M","","","19","","4","","","","102.36","","","","-13","","NA"
"-140.20","69.61","KOMAKUK BEACH","2100682","2018-05-08 01:00","2018","05","08","01:00","-11.4","","","","","M","","","19","","9","","","","102.37","","","","-17","","NA"
"-140.20","69.61","KOMAKUK BEACH","2100682","2018-05-08 02:00","2018","05","08","02:00","-16.8","","","","","M","","","13","","7","","","","102.42","","","","-22","","NA"
"-140.20","69.61","KOMAKUK BEACH","2100682","2018-05-08 03:00","2018","05","08","03:00","-17.9","","","","","M","","","6","","4","","","","102.43","","","","-21","","NA"
"-140.20","69.61","KOMAKUK BEACH","2100682","2018-05-08 04:00","2018","05","08","04:00","-18.4","","","","","M","","","9","","9","","","","102.46","","","","-25","","NA"
"-140.20","69.61","KOMAKUK BEACH","2100682","2018-05-08 05:00","2018","05","08","05:00","-19.7","","","","","M","","","11","","7","","","","102.49","","","","-25","","NA"
"-140.20","69.61","KOMAKUK BEACH","2100682","2018-05-08 06:00","2018","05","08","06:00","-16.9","","","","","M","","","10","","11","","","","102.48","","","","-24","","NA"
"-140.20","69.61","KOMAKUK BEACH","2100682","2018-05-08 07:00","2018","05","08","07:00","-16.9","","","","","M","","","8","","19","","","","102.48","","","","-26","","NA"
"-140.20","69.61","KOMAKUK BEACH","2100682","2018-05-08 08:00","2018","05","08","08:00","-15.5","","","","","M","","","7","","17","","","","102.44","","","","-24","","NA"
"-140.20","69.61","KOMAKUK BEACH","2100682","2018-05-08 09:00","2018","05","08","09:00","-12.3","","","","","M","","","8","","24","","","","102.40","","","","-22","","NA"
"-140.20","69.61","KOMAKUK BEACH","2100682","2018-05-08 10:00","2018","05","08","10:00","-10.1","","","","","M","","","9","","28","","","","102.39","","","","-19","","NA"
"-140.20","69.61","KOMAKUK BEACH","2100682","2018-05-08 11:00","2018","05","08","11:00","-10.6","","","","","M","","","9","","33","","","","102.37","","","","-21","","NA"
"-140.20","69.61","KOMAKUK BEACH","2100682","2018-05-08 12:00","2018","05","08","12:00","-9.1","","","","","M","","","10","","41","","","","102.34","","","","-20","","NA"
"-140.20","69.61","KOMAKUK BEACH","2100682","2018-05-08 13:00","2018","05","08","13:00","-9.5","","","","","M","","","9","","28","","","","102.34","","","","-19","","NA"
"-140.20","69.61","KOMAKUK BEACH","2100682","2018-05-08 14:00","2018","05","08","14:00","-8.1","","","","","M","","","11","","44","","","","102.25","","","","-19","","NA"
"-140.20","69.61","KOMAKUK BEACH","2100682","2018-05-08 15:00","2018","05","08","15:00","-6.9","","","","","M","","","10","","46","","","","102.16","","","","-17","","NA"
"-140.20","69.61","KOMAKUK BEACH","2100682","2018-05-08 16:00","2018","05","08","16:00","-5.4","","","","","M","","","10","","44","","","","102.13","","","","-15","","NA"
"-140.20","69.61","KOMAKUK BEACH","2100682","2018-05-08 17:00","2018","05","08","17:00","-4.8","","","","","M","","","11","","43","","","","102.06","","","","-14","","NA"
"-140.20","69.61","KOMAKUK BEACH","2100682","2018-05-08 18:00","2018","05","08","18:00","-4.3","","","","","M","","","11","","44","","","","102.03","","","","-14","","NA"
"-140.20","69.61","KOMAKUK BEACH","2100682","2018-05-08 19:00","2018","05","08","19:00","-4.0","","","","","M","","","12","","44","","","","101.97","","","","-13","","NA"
"-140.20","69.61","KOMAKUK BEACH","2100682","2018-05-08 20:00","2018","05","08","20:00","-3.7","","","","","M","","","11","","46","","","","101.91","","","","-13","","NA"
"-140.20","69.61","KOMAKUK BEACH","2100682","2018-05-08 21:00","2018","05","08","21:00","-3.5","","","","","M","","","12","","46","","","","101.85","","","","-13","","NA"
"-140.20","69.61","KOMAKUK BEACH","2100682","2018-05-08 22:00","2018","05","08","22:00","-4.0","","","","","M","","","12","","44","","","","101.80","","","","-13","","NA"
"-140.20","69.61","KOMAKUK BEACH","2100682","2018-05-08 23:00","2018","05","08","23:00","-4.8","","","","","M","","","11","","43","","","","101.77","","","","-14","","NA"
"-140.20","69.61","KOMAKUK BEACH","2100682","2018-05-09 00:00","2018","05","09","00:00","-5.4","","","","","M","","","12","","41","","","","101.75","","","","-15","","NA"
"-140.20","69.61","KOMAKUK BEACH","2100682","2018-05-09 01:00","2018","05","09","01:00","-6.5","","","","","M","","","12","","35","","","","101.75","","","","-16","","NA"
"-140.20","69.61","KOMAKUK BEACH","2100682","2018-05-09 02:00","2018","05","09","02:00","-6.8","","","","","M","","","20","","7","","","","101.75","","","","-10","","NA"
"-140.20","69.61","KOMAKUK BEACH","2100682","2018-05-09 03:00","2018","05","09","03:00","-10.4","","","","","M","","","26","","17","","","","101.75","","","","-18","","NA"
"-140.20","69.61","KOMAKUK BEACH","2100682","2018-05-09 04:00","2018","05","09","04:00","-11.3","","","","","M","","","25","","4","","","","101.70","","","","-14","","NA"
"-140.20","69.61","KOMAKUK BEACH","2100682","2018-05-09 05:00","2018","05","09","05:00","-11.6","","","","","M","","","25","","6","","","","101.68","","","","-15","","NA"
"-140.20","69.61","KOMAKUK BEACH","2100682","2018-05-09 06:00","2018","05","09","06:00","-12.8","","","","","M","","","23","","4","","","","101.68","","","","-15","","NA"
"-140.20","69.61","KOMAKUK BEACH","2100682","2018-05-09 07:00","2018","05","09","07:00","-12.5","","","","","M","","","23","","4","","","","101.67","","","","-15","","NA"
"-140.20","69.61","KOMAKUK BEACH","2100682","2018-05-09 08:00","2018","05","09","08:00","-12.7","","","","","M","","","28","","6","","","","101.62","","","","-17","","NA"
"-140.20","69.61","KOMAKUK BEACH","2100682","2018-05-09 09:00","2018","05","09","09:00","-12.2","","","","","M","","","26","","6","","","","101.62","","","","-16","","NA"
"-140.20","69.61","KOMAKUK BEACH","2100682","2018-05-09 10:00","2018","05","09","10:00","-12.2","","","","","M","","","24","","6","","","","101.60","","","","-16","","NA"
"-140.20","69.61","KOMAKUK BEACH","2100682","2018-05-09 11:00","2018","05","09","11:00","-11.3","","","","","M","","","26","","6","","","","101.57","","","","-15","","NA"
"-140.20","69.61","KOMAKUK BEACH","2100682","2018-05-09 12:00","2018","05","09","12:00","-9.9","","","","","M","","","19","","6","","","","101.58","","","","-13","","NA"
"-140.20","69.61","KOMAKUK BEACH","2100682","2018-05-09 13:00","2018","05","09","13:00","-8.2","","","","","M","","","","","0","","","","101.55","","","","","","NA"
"-140.20","69.61","KOMAKUK BEACH","2100682","2018-05-09 14:00","2018","05","09","14:00","-8.1","","","","","M","","","29","","4","","","","101.55","","","","-10","","NA"
"-140.20","69.61","KOMAKUK BEACH","2100682","2018-05-09 15:00","2018","05","09","15:00","-7.0","","","","","M","","","11","","7","","","","101.52","","","","-11","","NA"
"-140.20","69.61","KOMAKUK BEACH","2100682","2018-05-09 16:00","2018","05","09","16:00","-5.4","","","","","M","","","9","","6","","","","101.49","","","","-8","","NA"
"-140.20","69.61","KOMAKUK BEACH","2100682","2018-05-09 17:00","2018","05","09","17:00","-4.7","","","","","M","","","5","","9","","","","101.51","","","","-9","","NA"
"-140.20","69.61","KOMAKUK BEACH","2100682","2018-05-09 18:00","2018","05","09","18:00","-3.9","","","","","M","","","8","","11","","","","101.50","","","","-8","","NA"
"-140.20","69.61","KOMAKUK BEACH","2100682","2018-05-09 19:00","2018","05","09","19:00","-3.7","","","","","M","","","9","","11","","","","101.47","","","","-8","","NA"
"-140.20","69.61","KOMAKUK BEACH","2100682","2018-05-09 20:00","2018","05","09","20:00","-3.5","","","","","M","","","7","","15","","","","101.43","","","","-9","","NA"
"-140.20","69.61","KOMAKUK BEACH","2100682","2018-05-09 21:00","2018","05","09","21:00","-3.6","","","","","M","","","8","","19","","","","101.38","","","","-10","","NA"
"-140.20","69.61","KOMAKUK BEACH","2100682","2018-05-09 22:00","2018","05","09","22:00","-4.1","","","","","M","","","10","","20","","","","101.36","","","","-10","","NA"
"-140.20","69.61","KOMAKUK BEACH","2100682","2018-05-09 23:00","2018","05","09","23:00","-3.9","","","","","M","","","10","","24","","","","101.36","","","","-11","","NA"
"-140.20","69.61","KOMAKUK BEACH","2100682","2018-05-10 00:00","2018","05","10","00:00","-4.3","","","","","M","","","10","","33","","","","101.33","","","","-12","","NA"
"-140.20","69.61","KOMAKUK BEACH","2100682","2018-05-10 01:00","2018","05","10","01:00","-4.7","","","","","M","","","9","","35","","","","101.33","","","","-13","","NA"
"-140.20","69.61","KOMAKUK BEACH","2100682","2018-05-10 02:00","2018","05","10","02:00","-5.1","","","","","M","","","10","","41","","","","101.31","","","","-14","","NA"
"-140.20","69.61","KOMAKUK BEACH","2100682","2018-05-10 03:00","2018","05","10","03:00","-5.8","","","","","M","","","9","","37","","","","101.31","","","","-15","","NA"
"-140.20","69.61","KOMAKUK BEACH","2100682","2018-05-10 04:00","2018","05","10","04:00","-7.0","","","","","M","","","10","","35","","","","101.28","","","","-16","","NA"
"-140.20","69.61","KOMAKUK BEACH","2100682","2018-05-10 05:00","2018","05","10","05:00","-7.2","","","","","M","","","10","","46","","","","101.23","","","","-18","","NA"
"-140.20","69.61","KOMAKUK BEACH","2100682","2018-05-10 06:00","2018","05","10","06:00","-7.9","","","","","M","","","10","","50","","","","101.21","","","","-19","","NA"
"-140.20","69.61","KOMAKUK BEACH","2100682","2018-05-10 07:00","2018","05","10","07:00","-8.8","","","","","M","","","9","","50","","","","101.17","","","","-20","","NA"
"-140.20","69.61","KOMAKUK BEACH","2100682","2018-05-10 08:00","2018","05","10","08:00","-9.4","","","","","M","","","9","","46","","","","101.16","","","","-21","","NA"
"-140.20","69.61","KOMAKUK BEACH","2100682","2018-05-10 09:00","2018","05","10","09:00","-9.3","","","","","M","","","9","","44","","","","101.16","","","","-20","","NA"
"-140.20","69.61","KOMAKUK BEACH","2100682","2018-05-10 10:00","2018","05","10","10:00","-9.2","","","","","M","","","9","","48","","","","101.13","","","","-20","","NA"
"-140.20","69.61","KOMAKUK BEACH","2100682","2018-05-10 11:00","2018","05","10","11:00","-9.1","","","","","M","","","9","","50","","","","101.10","","","","-21","","NA"
"-140.20","69.61","KOMAKUK BEACH","2100682","2018-05-10 12:00","2018","05","10","12:00","-8.4","","","","","M","","","9","","50","","","","101.10","","","","-20","","NA"
"-140.20","69.61","KOMAKUK BEACH","2100682","2018-05-10 13:00","2018","05","10","13:00","-7.5","","","","","M","","","9","","52","","","","101.03","","","","-19","","NA"
"-140.20","69.61","KOMAKUK BEACH","2100682","2018-05-10 14:00","2018","05","10","14:00","-6.3","","","","","M","","","10","","54","","","","101.02","","","","-17","","NA"
"-140.20","69.61","KOMAKUK BEACH","2100682","2018-05-10 15:00","2018","05","10","15:00","-4.6","","","","","M","","","10","","57","","","","100.98","","","","-15","","NA"
"-140.20","69.61","KOMAKUK BEACH","2100682","2018-05-10 16:00","2018","05","10","16:00","-3.2","","","","","M","","","9","","61","","","","100.94","","","","-13","","NA"
"-140.20","69.61","KOMAKUK BEACH","2100682","2018-05-10 17:00","2018","05","10","17:00","-2.5","","","","","M","","","10","","50","","","","100.96","","","","-12","","NA"
"-140.20","69.61","KOMAKUK BEACH","2100682","2018-05-10 18:00","2018","05","10","18:00","-2.0","","","","","M","","","10","","54","","","","100.92","","","","-11","","NA"
"-140.20","69.61","KOMAKUK BEACH","2100682","2018-05-10 19:00","2018","05","10","19:00","-1.7","","","","","M","","","10","","61","","","","100.88","","","","-11","","NA"
"-140.20","69.61","KOMAKUK BEACH","2100682","2018-05-10 20:00","2018","05","10","20:00","-1.5","","","","","M","","","10","","50","","","","100.89","","","","-10","","NA"
"-140.20","69.61","KOMAKUK BEACH","2100682","2018-05-10 21:00","2018","05","10","21:00","-1.7","","","","","M","","","10","","52","","","","100.87","","","","-11","","NA"
"-140.20","69.61","KOMAKUK BEACH","2100682","2018-05-10 22:00","2018","05","10","22:00","-2.1","","","","","M","","","10","","50","","","","100.85","","","","-11","","NA"
"-140.20","69.61","KOMAKUK BEACH","2100682","2018-05-10 23:00","2018","05","10","23:00","-2.7","","","","","M","","","10","","50","","","","100.79","","","","-12","","NA"
"-140.20","69.61","KOMAKUK BEACH","2100682","2018-05-11 00:00","2018","05","11","00:00","-3.4","","","","","M","","","9","","52","","","","100.79","","","","-13","","NA"
"-140.20","69.61","KOMAKUK BEACH","2100682","2018-05-11 01:00","2018","05","11","01:00","-4.3","","","","","M","","","10","","50","","","","100.74","","","","-14","","NA"
"-140.20","69.61","KOMAKUK BEACH","2100682","2018-05-11 02:00","2018","05","11","02:00","-4.9","","","","","M","","","10","","48","","","","100.69","","","","-15","","NA"
"-140.20","69.61","KOMAKUK BEACH","2100682","2018-05-11 03:00","2018","05","11","03:00","-5.4","","","","","M","","","10","","46","","","","100.64","","","","-15","","NA"
"-140.20","69.61","KOMAKUK BEACH","2100682","2018-05-11 04:00","2018","05","11","04:00","-5.9","","","","","M","","","10","","48","","","","100.58","","","","-16","","NA"
"-140.20","69.61","KOMAKUK BEACH","2100682","2018-05-11 05:00","2018","05","11","05:00","-6.2","","","","","M","","","9","","48","","","","100.50","","","","-16","","NA"
"-140.20","69.61","KOMAKUK BEACH","2100682","2018-05-11 06:00","2018","05","11","06:00","-6.6","","","","","M","","","9","","50","","","","100.47","","","","-17","","NA"
"-140.20","69.61","KOMAKUK BEACH","2100682","2018-05-11 07:00","2018","05","11","07:00","-7.0","","","","","M","","","9","","48","","","","100.39","","","","-18","","NA"
"-140.20","69.61","KOMAKUK BEACH","2100682","2018-05-11 08:00","2018","05","11","08:00","-6.5","","","","","M","","","10","","46","","","","100.35","","","","-17","","NA"
"-140.20","69.61","KOMAKUK BEACH","2100682","2018-05-11 09:00","2018","05","11","09:00","-6.0","","","","","M","","","10","","48","","","","100.26","","","","-16","","NA"
"-140.20","69.61","KOMAKUK BEACH","2100682","2018-05-11 10:00","2018","05","11","10:00","-5.2","","","","","M","","","9","","48","","","","100.23","","","","-15","","NA"
"-140.20","69.61","KOMAKUK BEACH","2100682","2018-05-11 11:00","2018","05","11","11:00","-4.4","","","","","M","","","9","","52","","","","100.20","","","","-14","","NA"
"-140.20","69.61","KOMAKUK BEACH","2100682","2018-05-11 12:00","2018","05","11","12:00","-3.2","","","","","M","","","9","","56","","","","100.11","","","","-13","","NA"
"-140.20","69.61","KOMAKUK BEACH","2100682","2018-05-11 13:00","2018","05","11","13:00","-2.0","","","","","M","","","10","","50","","","","100.13","","","","-11","","NA"
"-140.20","69.61","KOMAKUK BEACH","2100682","2018-05-11 14:00","2018","05","11","14:00","-1.0","","","","","M","","","10","","50","","","","100.13","","","","-10","","NA"
"-140.20","69.61","KOMAKUK BEACH","2100682","2018-05-11 15:00","2018","05","11","15:00","-0.7","","","","","M","","","10","","50","","","","100.09","","","","-9","","NA"
"-140.20","69.61","KOMAKUK BEACH","2100682","2018-05-11 16:00","2018","05","11","16:00","-0.8","","","","","M","","","9","","50","","","","100.04","","","","-9","","NA"
"-140.20","69.61","KOMAKUK BEACH","2100682","2018-05-11 17:00","2018","05","11","17:00","-0.4","","","","","M","","","9","","48","","","","100.01","","","","-9","","NA"
"-140.20","69.61","KOMAKUK BEACH","2100682","2018-05-11 18:00","2018","05","11","18:00","0.0","","","","","M","","","9","","50","","","","99.98","","","","-8","","NA"
"-140.20","69.61","KOMAKUK BEACH","2100682","2018-05-11 19:00","2018","05","11","19:00","0.3","","","","","M","","","9","","52","","","","99.91","","","","","","NA"
"-140.20","69.61","KOMAKUK BEACH","2100682","2018-05-11 20:00","2018","05","11","20:00","0.4","","","","","M","","","9","","54","","","","99.90","","","","","","NA"
"-140.20","69.61","KOMAKUK BEACH","2100682","2018-05-11 21:00","2018","05","11","21:00","0.1","","","","","M","","","9","","48","","","","99.93","","","","","","NA"
"-140.20","69.61","KOMAKUK BEACH","2100682","2018-05-11 22:00","2018","05","11","22:00","0.1","","","","","M","","","10","","43","","","","99.98","","","","","","NA"
"-140.20","69.61","KOMAKUK BEACH","2100682","2018-05-11 23:00","2018","05","11","23:00","-0.1","","","","","M","","","9","","35","","","","99.98","","","","-7","","NA"
"-140.20","69.61","KOMAKUK BEACH","2100682","2018-05-12 00:00","2018","05","12","00:00","-0.3","","","","","M","","","9","","44","","","","100.01","","","","-8","","NA"
"-140.20","69.61","KOMAKUK BEACH","2100682","2018-05-12 01:00","2018","05","12","01:00","-0.4","","","","","M","","","9","","48","","","","100.05","","","","-9","","NA"
"-140.20","69.61","KOMAKUK BEACH","2100682","2018-05-12 02:00","2018","05","12","02:00","-0.6","","","","","M","","","9","","33","","","","100.14","","","","-8","","NA"
"-140.20","69.61","KOMAKUK BEACH","2100682","2018-05-12 03:00","2018","05","12","03:00","-0.8","","","","","M","","","9","","33","","","","100.23","","","","-8","","NA"
"-140.20","69.61","KOMAKUK BEACH","2100682","2018-05-12 04:00","2018","05","12","04:00","-1.0","","","","","M","","","8","","39","","","","100.22","","","","-9","","NA"
"-140.20","69.61","KOMAKUK BEACH","2100682","2018-05-12 05:00","2018","05","12","05:00","-1.2","","","","","M","","","8","","33","","","","100.29","","","","-8","","NA"
"-140.20","69.61","KOMAKUK BEACH","2100682","2018-05-12 06:00","2018","05","12","06:00","-2.0","","","","","M","","","8","","30","","","","100.37","","","","-9","","NA"
"-140.20","69.61","KOMAKUK BEACH","2100682","2018-05-12 07:00","2018","05","12","07:00","-2.6","","","","","M","","","8","","26","","","","100.44","","","","-9","","NA"
"-140.20","69.61","KOMAKUK BEACH","2100682","2018-05-12 08:00","2018","05","12","08:00","-2.4","","","","","M","","","8","","24","","","","100.53","","","","-9","","NA"
"-140.20","69.61","KOMAKUK BEACH","2100682","2018-05-12 09:00","2018","05","12","09:00","-2.7","","","","","M","","","7","","20","","","","100.63","","","","-9","","NA"
"-140.20","69.61","KOMAKUK BEACH","2100682","2018-05-12 10:00","2018","05","12","10:00","-2.7","","","","","M","","","8","","20","","","","100.72","","","","-9","","NA"
"-140.20","69.61","KOMAKUK BEACH","2100682","2018-05-12 11:00","2018","05","12","11:00","-3.4","","","","","M","","","8","","22","","","","100.82","","","","-10","","NA"
"-140.20","69.61","KOMAKUK BEACH","2100682","2018-05-12 12:00","2018","05","12","12:00","-3.6","","","","","M","","","8","","20","","","","100.93","","","","-10","","NA"
"-140.20","69.61","KOMAKUK BEACH","2100682","2018-05-12 13:00","2018","05","12","13:00","-3.5","","","","","M","","","8","","17","","","","101.03","","","","-9","","NA"
"-140.20","69.61","KOMAKUK BEACH","2100682","2018-05-12 14:00","2018","05","12","14:00","-3.5","","","","","M","","","9","","13","","","","101.18","","","","-8","","NA"
"-140.20","69.61","KOMAKUK BEACH","2100682","2018-05-12 15:00","2018","05","12","15:00","-3.6","","","","","M","","","9","","13","","","","101.27","","","","-8","","NA"
"-140.20","69.61","KOMAKUK BEACH","2100682","2018-05-12 16:00","2018","05","12","16:00","-3.7","","","","","M","","","9","","20","","","","101.36","","","","-10","","NA"
"-140.20","69.61","KOMAKUK BEACH","2100682","2018-05-12 17:00","2018","05","12","17:00","-3.3","","","","","M","","","10","","20","","","","101.45","","","","-9","","NA"
"-140.20","69.61","KOMAKUK BEACH","2100682","2018-05-12 18:00","2018","05","12","18:00","-3.4","","","","","M","","","11","","20","","","","101.52","","","","-10","","NA"
"-140.20","69.61","KOMAKUK BEACH","2100682","2018-05-12 19:00","2018","05","12","19:00","-3.4","","","","","M","","","10","","19","","","","101.60","","","","-9","","NA"
"-140.20","69.61","KOMAKUK BEACH","2100682","2018-05-12 20:00","2018","05","12","20:00","-3.3","","","","","M","","","10","","20","","","","101.65","","","","-9","","NA"
"-140.20","69.61","KOMAKUK BEACH","2100682","2018-05-12 21:00","2018","05","12","21:00","-3.6","","","","","M","","","10","","26","","","","101.67","","","","-11","","NA"
"-140.20","69.61","KOMAKUK BEACH","2100682","2018-05-12 22:00","2018","05","12","22:00","-3.9","","","","","M","","","10","","30","","","","101.69","","","","-12","","NA"
"-140.20","69.61","KOMAKUK BEACH","2100682","2018-05-12 23:00","2018","05","12","23:00","-3.7","","","","","M","","","10","","28","","","","101.73","","","","-11","","NA"
"-140.20","69.61","KOMAKUK BEACH","2100682","2018-05-13 00:00","2018","05","13","00:00","-3.4","","","","","M","","","11","","30","","","","101.74","","","","-11","","NA"
"-140.20","69.61","KOMAKUK BEACH","2100682","2018-05-13 01:00","2018","05","13","01:00","-3.2","","","","","M","","","11","","30","","","","101.75","","","","-11","","NA"
"-140.20","69.61","KOMAKUK BEACH","2100682","2018-05-13 02:00","2018","05","13","02:00","-3.0","","","","","M","","","11","","30","","","","101.79","","","","-10","","NA"
"-140.20","69.61","KOMAKUK BEACH","2100682","2018-05-13 03:00","2018","05","13","03:00","-2.7","","","","","M","","","11","","26","","","","101.79","","","","-10","","NA"
"-140.20","69.61","KOMAKUK BEACH","2100682","2018-05-13 04:00","2018","05","13","04:00","-2.7","","","","","M","","","11","","26","","","","101.80","","","","-10","","NA"
"-140.20","69.61","KOMAKUK BEACH","2100682","2018-05-13 05:00","2018","05","13","05:00","-3.4","","","","","M","","","11","","30","","","","101.82","","","","-11","","NA"
"-140.20","69.61","KOMAKUK BEACH","2100682","2018-05-13 06:00","2018","05","13","06:00","-3.8","","","","","M","","","10","","30","","","","101.82","","","","-11","","NA"
"-140.20","69.61","KOMAKUK BEACH","2100682","2018-05-13 07:00","2018","05","13","07:00","-3.7","","","","","M","","","11","","26","","","","101.83","","","","-11","","NA"
"-140.20","69.61","KOMAKUK BEACH","2100682","2018-05-13 08:00","2018","05","13","08:00","-3.9","","","","","M","","","10","","26","","","","101.83","","","","-11","","NA"
"-140.20","69.61","KOMAKUK BEACH","2100682","2018-05-13 09:00","2018","05","13","09:00","-4.0","","","","","M","","","10","","28","","","","101.84","","","","-11","","NA"
"-140.20","69.61","KOMAKUK BEACH","2100682","2018-05-13 10:00","2018","05","13","10:00","-4.1","","","","","M","","","10","","26","","","","101.86","","","","-11","","NA"
"-140.20","69.61","KOMAKUK BEACH","2100682","2018-05-13 11:00","2018","05","13","11:00","-4.4","","","","","M","","","10","","28","","","","101.86","","","","-12","","NA"
"-140.20","69.61","KOMAKUK BEACH","2100682","2018-05-13 12:00","2018","05","13","12:00","-4.5","","","","","M","","","10","","30","","","","101.84","","","","-12","","NA"
"-140.20","69.61","KOMAKUK BEACH","2100682","2018-05-13 13:00","2018","05","13","13:00","-4.5","","","","","M","","","10","","28","","","","101.86","","","","-12","","NA"
"-140.20","69.61","KOMAKUK BEACH","2100682","2018-05-13 14:00","2018","05","13","14:00","-4.0","","","","","M","","","10","","30","","","","101.84","","","","-12","","NA"
"-140.20","69.61","KOMAKUK BEACH","2100682","2018-05-13 15:00","2018","05","13","15:00","-3.9","","","","","M","","","10","","30","","","","101.84","","","","-12","","NA"
"-140.20","69.61","KOMAKUK BEACH","2100682","2018-05-13 16:00","2018","05","13","16:00","-3.6","","","","","M","","","10","","33","","","","101.80","","","","-12","","NA"
"-140.20","69.61","KOMAKUK BEACH","2100682","2018-05-13 17:00","2018","05","13","17:00","-3.3","","","","","M","","","9","","31","","","","101.76","","","","-11","","NA"
"-140.20","69.61","KOMAKUK BEACH","2100682","2018-05-13 18:00","2018","05","13","18:00","-3.7","","","","","M","","","10","","35","","","","101.74","","","","-12","","NA"
"-140.20","69.61","KOMAKUK BEACH","2100682","2018-05-13 19:00","2018","05","13","19:00","-3.5","","","","","M","","","10","","33","","","","101.69","","","","-11","","NA"
"-140.20","69.61","KOMAKUK BEACH","2100682","2018-05-13 20:00","2018","05","13","20:00","-2.8","","","","","M","","","10","","37","","","","101.62","","","","-11","","NA"
"-140.20","69.61","KOMAKUK BEACH","2100682","2018-05-13 21:00","2018","05","13","21:00","-2.8","","","","","M","","","10","","39","","","","101.57","","","","-11","","NA"
"-140.20","69.61","KOMAKUK BEACH","2100682","2018-05-13 22:00","2018","05","13","22:00","-2.3","","","","","M","","","10","","33","","","","101.52","","","","-10","","NA"
"-140.20","69.61","KOMAKUK BEACH","2100682","2018-05-13 23:00","2018","05","13","23:00","-2.3","","","","","M","","","9","","35","","","","101.46","","","","-10","","NA"
"-140.20","69.61","KOMAKUK BEACH","2100682","2018-05-14 00:00","2018","05","14","00:00","-2.7","","","","","M","","","10","","35","","","","101.46","","","","-11","","NA"
"-140.20","69.61","KOMAKUK BEACH","2100682","2018-05-14 01:00","2018","05","14","01:00","-3.3","","","","","M","","","10","","37","","","","101.45","","","","-12","","NA"
"-140.20","69.61","KOMAKUK BEACH","2100682","2018-05-14 02:00","2018","05","14","02:00","-3.6","","","","","M","","","10","","35","","","","101.41","","","","-12","","NA"
"-140.20","69.61","KOMAKUK BEACH","2100682","2018-05-14 03:00","2018","05","14","03:00","-4.2","","","","","M","","","9","","33","","","","101.38","","","","-12","","NA"
"-140.20","69.61","KOMAKUK BEACH","2100682","2018-05-14 04:00","2018","05","14","04:00","-4.9","","","","","M","","","9","","33","","","","101.36","","","","-13","","NA"
"-140.20","69.61","KOMAKUK BEACH","2100682","2018-05-14 05:00","2018","05","14","05:00","-5.3","","","","","M","","","9","","31","","","","101.35","","","","-14","","NA"
"-140.20","69.61","KOMAKUK BEACH","2100682","2018-05-14 06:00","2018","05","14","06:00","-5.6","","","","","M","","","10","","24","","","","101.36","","","","-13","","NA"
"-140.20","69.61","KOMAKUK BEACH","2100682","2018-05-14 07:00","2018","05","14","07:00","-5.6","","","","","M","","","10","","28","","","","101.31","","","","-14","","NA"
"-140.20","69.61","KOMAKUK BEACH","2100682","2018-05-14 08:00","2018","05","14","08:00","-5.5","","","","","M","","","9","","28","","","","101.29","","","","-13","","NA"
"-140.20","69.61","KOMAKUK BEACH","2100682","2018-05-14 09:00","2018","05","14","09:00","-5.2","","","","","M","","","10","","24","","","","101.31","","","","-12","","NA"
"-140.20","69.61","KOMAKUK BEACH","2100682","2018-05-14 10:00","2018","05","14","10:00","-5.2","","","","","M","","","10","","20","","","","101.31","","","","-12","","NA"
"-140.20","69.61","KOMAKUK BEACH","2100682","2018-05-14 11:00","2018","05","14","11:00","-4.8","","","","","M","","","10","","19","","","","101.32","","","","-11","","NA"
"-140.20","69.61","KOMAKUK BEACH","2100682","2018-05-14 12:00","2018","05","14","12:00","-4.2","","","","","M","","","9","","17","","","","101.35","","","","-10","","NA"
"-140.20","69.61","KOMAKUK BEACH","2100682","2018-05-14 13:00","2018","05","14","13:00","-3.9","","","","","M","","","8","","17","","","","101.35","","","","-10","","NA"
"-140.20","69.61","KOMAKUK BEACH","2100682","2018-05-14 14:00","2018","05","14","14:00","-3.4","","","","","M","","","10","","13","","","","101.40","","","","-8","","NA"
"-140.20","69.61","KOMAKUK BEACH","2100682","2018-05-14 15:00","2018","05","14","15:00","-2.8","","","","","M","","","7","","17","","","","101.43","","","","-8","","NA"
"-140.20","69.61","KOMAKUK BEACH","2100682","2018-05-14 16:00","2018","05","14","16:00","-2.8","","","","","M","","","8","","15","","","","101.46","","","","-8","","NA"
"-140.20","69.61","KOMAKUK BEACH","2100682","2018-05-14 17:00","2018","05","14","17:00","-2.6","","","","","M","","","8","","13","","","","101.49","","","","-7","","NA"
"-140.20","69.61","KOMAKUK BEACH","2100682","2018-05-14 18:00","2018","05","14","18:00","-2.4","","","","","M","","","8","","11","","","","101.51","","","","-6","","NA"
"-140.20","69.61","KOMAKUK BEACH","2100682","2018-05-14 19:00","2018","05","14","19:00","-2.3","","","","","M","","","7","","11","","","","101.55","","","","-6","","NA"
"-140.20","69.61","KOMAKUK BEACH","2100682","2018-05-14 20:00","2018","05","14","20:00","-2.4","","","","","M","","","8","","9","","","","101.56","","","","-6","","NA"
"-140.20","69.61","KOMAKUK BEACH","2100682","2018-05-14 21:00","2018","05","14","21:00","-3.0","","","","","M","","","7","","15","","","","101.57","","","","-8","","NA"
"-140.20","69.61","KOMAKUK BEACH","2100682","2018-05-14 22:00","2018","05","14","22:00","-3.2","","","","","M","","","10","","19","","","","101.59","","","","-9","","NA"
"-140.20","69.61","KOMAKUK BEACH","2100682","2018-05-14 23:00","2018","05","14","23:00","-5.2","","","","","M","","","10","","19","","","","101.61","","","","-12","","NA"
"-140.20","69.61","KOMAKUK BEACH","2100682","2018-05-15 00:00","2018","05","15","00:00","-8.0","","","","","M","","","10","","17","","","","101.62","","","","-15","","NA"
"-140.20","69.61","KOMAKUK BEACH","2100682","2018-05-15 01:00","2018","05","15","01:00","-7.5","","","","","M","","","11","","24","","","","101.65","","","","-15","","NA"
"-140.20","69.61","KOMAKUK BEACH","2100682","2018-05-15 02:00","2018","05","15","02:00","-8.6","","","","","M","","","10","","28","","","","101.66","","","","-17","","NA"
"-140.20","69.61","KOMAKUK BEACH","2100682","2018-05-15 03:00","2018","05","15","03:00","-9.6","","","","","M","","","9","","28","","","","101.69","","","","-19","","NA"
"-140.20","69.61","KOMAKUK BEACH","2100682","2018-05-15 04:00","2018","05","15","04:00","-10.1","","","","","M","","","11","","24","","","","101.72","","","","-19","","NA"
"-140.20","69.61","KOMAKUK BEACH","2100682","2018-05-15 05:00","2018","05","15","05:00","-9.5","","","","","M","","","11","","28","","","","101.73","","","","-19","","NA"
"-140.20","69.61","KOMAKUK BEACH","2100682","2018-05-15 06:00","2018","05","15","06:00","-9.4","","","","","M","","","11","","26","","","","101.78","","","","-18","","NA"
"-140.20","69.61","KOMAKUK BEACH","2100682","2018-05-15 07:00","2018","05","15","07:00","-10.8","","","","","M","","","9","","35","","","","101.78","","","","-21","","NA"
"-140.20","69.61","KOMAKUK BEACH","2100682","2018-05-15 08:00","2018","05","15","08:00","-9.6","","","","","M","","","9","","33","","","","101.79","","","","-19","","NA"
"-140.20","69.61","KOMAKUK BEACH","2100682","2018-05-15 09:00","2018","05","15","09:00","-8.9","","","","","M","","","10","","35","","","","101.81","","","","-19","","NA"
"-140.20","69.61","KOMAKUK BEACH","2100682","2018-05-15 10:00","2018","05","15","10:00","-8.0","","","","","M","","","10","","28","","","","101.82","","","","-17","","NA"
"-140.20","69.61","KOMAKUK BEACH","2100682","2018-05-15 11:00","2018","05","15","11:00","-7.5","","","","","M","","","11","","39","","","","101.82","","","","-17","","NA"
"-140.20","69.61","KOMAKUK BEACH","2100682","2018-05-15 12:00","2018","05","15","12:00","-7.3","","","","","M","","","11","","41","","","","101.86","","","","-17","","NA"
"-140.20","69.61","KOMAKUK BEACH","2100682","2018-05-15 13:00","2018","05","15","13:00","-7.0","","","","","M","","","11","","39","","","","101.87","","","","-17","","NA"
"-140.20","69.61","KOMAKUK BEACH","2100682","2018-05-15 14:00","2018","05","15","14:00","-6.6","","","","","M","","","10","","43","","","","101.91","","","","-17","","NA"
"-140.20","69.61","KOMAKUK BEACH","2100682","2018-05-15 15:00","2018","05","15","15:00","-6.3","","","","","M","","","10","","44","","","","101.92","","","","-16","","NA"
"-140.20","69.61","KOMAKUK BEACH","2100682","2018-05-15 16:00","2018","05","15","16:00","-5.8","","","","","M","","","10","","41","","","","101.94","","","","-15","","NA"
"-140.20","69.61","KOMAKUK BEACH","2100682","2018-05-15 17:00","2018","05","15","17:00","-5.4","","","","","M","","","9","","39","","","","101.96","","","","-15","","NA"
"-140.20","69.61","KOMAKUK BEACH","2100682","2018-05-15 18:00","2018","05","15","18:00","-5.2","","","","","M","","","10","","39","","","","101.96","","","","-14","","NA"
"-140.20","69.61","KOMAKUK BEACH","2100682","2018-05-15 19:00","2018","05","15","19:00","-5.0","","","","","M","","","10","","33","","","","101.99","","","","-13","","NA"
"-140.20","69.61","KOMAKUK BEACH","2100682","2018-05-15 20:00","2018","05","15","20:00","-4.8","","","","","M","","","9","","33","","","","101.98","","","","-13","","NA"
"-140.20","69.61","KOMAKUK BEACH","2100682","2018-05-15 21:00","2018","05","15","21:00","-5.1","","","","","M","","","10","","31","","","","101.98","","","","-13","","NA"
"-140.20","69.61","KOMAKUK BEACH","2100682","2018-05-15 22:00","2018","05","15","22:00","-5.9","","","","","M","","","10","","31","","","","101.99","","","","-14","","NA"
"-140.20","69.61","KOMAKUK BEACH","2100682","2018-05-15 23:00","2018","05","15","23:00","-6.8","","","","","M","","","10","","30","","","","101.99","","","","-15","","NA"
"-140.20","69.61","KOMAKUK BEACH","2100682","2018-05-16 00:00","2018","05","16","00:00","-8.1","","","","","M","","","10","","26","","","","102.01","","","","-16","","NA"
"-140.20","69.61","KOMAKUK BEACH","2100682","2018-05-16 01:00","2018","05","16","01:00","-10.2","","","","","M","","","9","","24","","","","102.04","","","","-19","","NA"
"-140.20","69.61","KOMAKUK BEACH","2100682","2018-05-16 02:00","2018","05","16","02:00","-11.5","","","","","M","","","10","","26","","","","102.04","","","","-21","","NA"
"-140.20","69.61","KOMAKUK BEACH","2100682","2018-05-16 03:00","2018","05","16","03:00","-11.7","","","","","M","","","10","","26","","","","102.05","","","","-21","","NA"
"-140.20","69.61","KOMAKUK BEACH","2100682","2018-05-16 04:00","2018","05","16","04:00","-12.3","","","","","M","","","10","","24","","","","102.05","","","","-22","","NA"
"-140.20","69.61","KOMAKUK BEACH","2100682","2018-05-16 05:00","2018","05","16","05:00","-12.8","","","","","M","","","9","","24","","","","102.07","","","","-22","","NA"
"-140.20","69.61","KOMAKUK BEACH","2100682","2018-05-16 06:00","2018","05","16","06:00","-11.3","","","","","M","","","10","","20","","","","102.08","","","","-20","","NA"
"-140.20","69.61","KOMAKUK BEACH","2100682","2018-05-16 07:00","2018","05","16","07:00","-11.3","","","","","M","","","9","","20","","","","102.10","","","","-20","","NA"
"-140.20","69.61","KOMAKUK BEACH","2100682","2018-05-16 08:00","2018","05","16","08:00","-11.2","","","","","M","","","9","","17","","","","102.11","","","","-19","","NA"
"-140.20","69.61","KOMAKUK BEACH","2100682","2018-05-16 09:00","2018","05","16","09:00","-11.4","","","","","M","","","8","","20","","","","102.08","","","","-20","","NA"
"-140.20","69.61","KOMAKUK BEACH","2100682","2018-05-16 10:00","2018","05","16","10:00","-9.7","","","","","M","","","8","","26","","","","102.10","","","","-19","","NA"
"-140.20","69.61","KOMAKUK BEACH","2100682","2018-05-16 11:00","2018","05","16","11:00","-8.9","","","","","M","","","9","","22","","","","102.11","","","","-17","","NA"
"-140.20","69.61","KOMAKUK BEACH","2100682","2018-05-16 12:00","2018","05","16","12:00","-7.9","","","","","M","","","9","","20","","","","102.11","","","","-15","","NA"
"-140.20","69.61","KOMAKUK BEACH","2100682","2018-05-16 13:00","2018","05","16","13:00","-7.4","","","","","M","","","9","","24","","","","102.13","","","","-15","","NA"
"-140.20","69.61","KOMAKUK BEACH","2100682","2018-05-16 14:00","2018","05","16","14:00","-6.6","","","","","M","","","9","","22","","","","102.14","","","","-14","","NA"
"-140.20","69.61","KOMAKUK BEACH","2100682","2018-05-16 15:00","2018","05","16","15:00","-5.7","","","","","M","","","10","","19","","","","102.16","","","","-12","","NA"
"-140.20","69.61","KOMAKUK BEACH","2100682","2018-05-16 16:00","2018","05","16","16:00","-5.0","","","","","M","","","9","","20","","","","102.17","","","","-12","","NA"
"-140.20","69.61","KOMAKUK BEACH","2100682","2018-05-16 17:00","2018","05","16","17:00","-4.8","","","","","M","","","9","","20","","","","102.17","","","","-11","","NA"
"-140.20","69.61","KOMAKUK BEACH","2100682","2018-05-16 18:00","2018","05","16","18:00","-4.1","","","","","M","","","7","","20","","","","102.14","","","","-10","","NA"
"-140.20","69.61","KOMAKUK BEACH","2100682","2018-05-16 19:00","2018","05","16","19:00","-3.8","","","","","M","","","9","","20","","","","102.12","","","","-10","","NA"
"-140.20","69.61","KOMAKUK BEACH","2100682","2018-05-16 20:00","2018","05","16","20:00","-3.3","","","","","M","","","9","","19","","","","102.13","","","","-9","","NA"
"-140.20","69.61","KOMAKUK BEACH","2100682","2018-05-16 21:00","2018","05","16","21:00","-3.2","","","","","M","","","7","","17","","","","102.13","","","","-9","","NA"
"-140.20","69.61","KOMAKUK BEACH","2100682","2018-05-16 22:00","2018","05","16","22:00","-3.7","","","","","M","","","8","","15","","","","102.12","","","","-9","","NA"
"-140.20","69.61","KOMAKUK BEACH","2100682","2018-05-16 23:00","2018","05","16","23:00","-5.3","","","","","M","","","9","","15","","","","102.09","","","","-11","","NA"
"-140.20","69.61","KOMAKUK BEACH","2100682","2018-05-17 00:00","2018","05","17","00:00","-6.6","","","","","M","","","10","","11","","","","102.09","","","","-12","","NA"
"-140.20","69.61","KOMAKUK BEACH","2100682","2018-05-17 01:00","2018","05","17","01:00","-8.3","","","","","M","","","9","","9","","","","102.11","","","","-13","","NA"
"-140.20","69.61","KOMAKUK BEACH","2100682","2018-05-17 02:00","2018","05","17","02:00","-7.3","","","","","M","","","10","","13","","","","102.11","","","","-13","","NA"
"-140.20","69.61","KOMAKUK BEACH","2100682","2018-05-17 03:00","2018","05","17","03:00","-5.7","","","","","M","","","9","","11","","","","102.10","","","","-10","","NA"
"-140.20","69.61","KOMAKUK BEACH","2100682","2018-05-17 04:00","2018","05","17","04:00","-5.5","","","","","M","","","8","","6","","","","102.09","","","","-8","","NA"
"-140.20","69.61","KOMAKUK BEACH","2100682","2018-05-17 05:00","2018","05","17","05:00","-4.5","","","","","M","","","8","","7","","","","102.07","","","","-8","","NA"
"-140.20","69.61","KOMAKUK BEACH","2100682","2018-05-17 06:00","2018","05","17","06:00","-4.1","","","","","M","","","16","","7","","","","102.10","","","","-7","","NA"
"-140.20","69.61","KOMAKUK BEACH","2100682","2018-05-17 07:00","2018","05","17","07:00","-4.1","","","","","M","","","34","","4","","","","102.10","","","","-6","","NA"
"-140.20","69.61","KOMAKUK BEACH","2100682","2018-05-17 08:00","2018","05","17","08:00","-3.9","","","","","M","","","33","","4","","","","102.10","","","","-6","","NA"
"-140.20","69.61","KOMAKUK BEACH","2100682","2018-05-17 09:00","2018","05","17","09:00","-3.7","","","","","M","","","34","","6","","","","102.11","","","","-6","","NA"
"-140.20","69.61","KOMAKUK BEACH","2100682","2018-05-17 10:00","2018","05","17","10:00","-3.6","","","","","M","","","2","","9","","","","102.12","","","","-7","","NA"
"-140.20","69.61","KOMAKUK BEACH","2100682","2018-05-17 11:00","2018","05","17","11:00","-3.9","","","","","M","","","36","","9","","","","102.15","","","","-8","","NA"
"-140.20","69.61","KOMAKUK BEACH","2100682","2018-05-17 12:00","2018","05","17","12:00","-4.3","","","","","M","","","33","","13","","","","102.19","","","","-9","","NA"
"-140.20","69.61","KOMAKUK BEACH","2100682","2018-05-17 13:00","2018","05","17","13:00","-4.1","","","","","M","","","31","","15","","","","102.21","","","","-9","","NA"
"-140.20","69.61","KOMAKUK BEACH","2100682","2018-05-17 14:00","2018","05","17","14:00","-3.9","","","","","M","","","30","","15","","","","102.24","","","","-9","","NA"
"-140.20","69.61","KOMAKUK BEACH","2100682","2018-05-17 15:00","2018","05","17","15:00","-3.9","","","","","M","","","29","","20","","","","102.29","","","","-10","","NA"
"-140.20","69.61","KOMAKUK BEACH","2100682","2018-05-17 16:00","2018","05","17","16:00","-4.2","","","","","M","","","28","","22","","","","102.37","","","","-11","","NA"
"-140.20","69.61","KOMAKUK BEACH","2100682","2018-05-17 17:00","2018","05","17","17:00","-4.1","","","","","M","","","29","","26","","","","102.41","","","","-11","","NA"
"-140.20","69.61","KOMAKUK BEACH","2100682","2018-05-17 18:00","2018","05","17","18:00","-3.8","","","","","M","","","28","","26","","","","102.47","","","","-11","","NA"
"-140.20","69.61","KOMAKUK BEACH","2100682","2018-05-17 19:00","2018","05","17","19:00","-4.7","","","","","M","","","27","","26","","","","102.52","","","","-12","","NA"
"-140.20","69.61","KOMAKUK BEACH","2100682","2018-05-17 20:00","2018","05","17","20:00","-5.0","","","","","M","","","27","","22","","","","102.56","","","","-12","","NA"
"-140.20","69.61","KOMAKUK BEACH","2100682","2018-05-17 21:00","2018","05","17","21:00","-5.2","","","","","M","","","27","","24","","","","102.59","","","","-12","","NA"
"-140.20","69.61","KOMAKUK BEACH","2100682","2018-05-17 22:00","2018","05","17","22:00","-5.5","","","","","M","","","27","","20","","","","102.61","","","","-12","","NA"
"-140.20","69.61","KOMAKUK BEACH","2100682","2018-05-17 23:00","2018","05","17","23:00","-5.6","","","","","M","","","27","","20","","","","102.64","","","","-12","","NA"
"-140.20","69.61","KOMAKUK BEACH","2100682","2018-05-18 00:00","2018","05","18","00:00","-5.7","","","","","M","","","27","","19","","","","102.66","","","","-12","","NA"
"-140.20","69.61","KOMAKUK BEACH","2100682","2018-05-18 01:00","2018","05","18","01:00","-6.2","","","","","M","","","29","","24","","","","102.71","","","","-14","","NA"
"-140.20","69.61","KOMAKUK BEACH","2100682","2018-05-18 02:00","2018","05","18","02:00","-7.0","","","","","M","","","28","","22","","","","102.75","","","","-14","","NA"
"-140.20","69.61","KOMAKUK BEACH","2100682","2018-05-18 03:00","2018","05","18","03:00","-7.3","","","","","M","","","28","","24","","","","102.81","","","","-15","","NA"
"-140.20","69.61","KOMAKUK BEACH","2100682","2018-05-18 04:00","2018","05","18","04:00","-7.4","","","","","M","","","29","","24","","","","102.82","","","","-15","","NA"
"-140.20","69.61","KOMAKUK BEACH","2100682","2018-05-18 05:00","2018","05","18","05:00","-7.7","","","","","M","","","28","","20","","","","102.85","","","","-15","","NA"
"-140.20","69.61","KOMAKUK BEACH","2100682","2018-05-18 06:00","2018","05","18","06:00","-7.7","","","","","M","","","30","","19","","","","102.87","","","","-15","","NA"
"-140.20","69.61","KOMAKUK BEACH","2100682","2018-05-18 07:00","2018","05","18","07:00","-7.8","","","","","M","","","27","","15","","","","102.91","","","","-14","","NA"
"-140.20","69.61","KOMAKUK BEACH","2100682","2018-05-18 08:00","2018","05","18","08:00","-7.8","","","","","M","","","29","","19","","","","102.90","","","","-15","","NA"
"-140.20","69.61","KOMAKUK BEACH","2100682","2018-05-18 09:00","2018","05","18","09:00","-8.0","","","","","M","","","29","","17","","","","102.91","","","","-15","","NA"
"-140.20","69.61","KOMAKUK BEACH","2100682","2018-05-18 10:00","2018","05","18","10:00","-8.1","","","","","M","","","29","","15","","","","102.93","","","","-14","","NA"
"-140.20","69.61","KOMAKUK BEACH","2100682","2018-05-18 11:00","2018","05","18","11:00","-7.8","","","","","M","","","26","","11","","","","102.94","","","","-13","","NA"
"-140.20","69.61","KOMAKUK BEACH","2100682","2018-05-18 12:00","2018","05","18","12:00","-7.6","","","","","M","","","24","","7","","","","102.95","","","","-11","","NA"
"-140.20","69.61","KOMAKUK BEACH","2100682","2018-05-18 13:00","2018","05","18","13:00","-7.7","","","","","M","","","30","","7","","","","102.95","","","","-11","","NA"
"-140.20","69.61","KOMAKUK BEACH","2100682","2018-05-18 14:00","2018","05","18","14:00","-7.0","","","","","M","","","4","","7","","","","102.94","","","","-11","","NA"
"-140.20","69.61","KOMAKUK BEACH","2100682","2018-05-18 15:00","2018","05","18","15:00","-6.8","","","","","M","","","5","","6","","","","102.93","","","","-10","","NA"
"-140.20","69.61","KOMAKUK BEACH","2100682","2018-05-18 16:00","2018","05","18","16:00","-6.5","","","","","M","","","7","","15","","","","102.89","","","","-12","","NA"
"-140.20","69.61","KOMAKUK BEACH","2100682","2018-05-18 17:00","2018","05","18","17:00","-6.7","","","","","M","","","7","","15","","","","102.87","","","","-13","","NA"
"-140.20","69.61","KOMAKUK BEACH","2100682","2018-05-18 18:00","2018","05","18","18:00","-6.5","","","","","M","","","8","","19","","","","102.79","","","","-13","","NA"
"-140.20","69.61","KOMAKUK BEACH","2100682","2018-05-18 19:00","2018","05","18","19:00","-6.5","","","","","M","","","8","","22","","","","102.74","","","","-14","","NA"
"-140.20","69.61","KOMAKUK BEACH","2100682","2018-05-18 20:00","2018","05","18","20:00","-6.8","","","","","M","","","8","","28","","","","102.71","","","","-15","","NA"
"-140.20","69.61","KOMAKUK BEACH","2100682","2018-05-18 21:00","2018","05","18","21:00","-6.8","","","","","M","","","9","","30","","","","102.68","","","","-15","","NA"
"-140.20","69.61","KOMAKUK BEACH","2100682","2018-05-18 22:00","2018","05","18","22:00","-7.1","","","","","M","","","9","","30","","","","102.64","","","","-16","","NA"
"-140.20","69.61","KOMAKUK BEACH","2100682","2018-05-18 23:00","2018","05","18","23:00","-7.6","","","","","M","","","10","","26","","","","102.59","","","","-16","","NA"
"-140.20","69.61","KOMAKUK BEACH","2100682","2018-05-19 00:00","2018","05","19","00:00","-8.3","","","","","M","","","10","","33","","","","102.54","","","","-18","","NA"
"-140.20","69.61","KOMAKUK BEACH","2100682","2018-05-19 01:00","2018","05","19","01:00","-8.6","","","","","M","","","10","","35","","","","102.51","","","","-18","","NA"
"-140.20","69.61","KOMAKUK BEACH","2100682","2018-05-19 02:00","2018","05","19","02:00","-9.5","","","","","M","","","10","","22","","","","102.49","","","","-18","","NA"
"-140.20","69.61","KOMAKUK BEACH","2100682","2018-05-19 03:00","2018","05","19","03:00","-9.8","","","","","M","","","10","","35","","","","102.43","","","","-20","","NA"
"-140.20","69.61","KOMAKUK BEACH","2100682","2018-05-19 04:00","2018","05","19","04:00","-10.3","","","","","M","","","10","","24","","","","102.39","","","","-19","","NA"
"-140.20","69.61","KOMAKUK BEACH","2100682","2018-05-19 05:00","2018","05","19","05:00","-10.7","","","","","M","","","9","","37","","","","102.34","","","","-21","","NA"
"-140.20","69.61","KOMAKUK BEACH","2100682","2018-05-19 06:00","2018","05","19","06:00","-10.8","","","","","M","","","9","","35","","","","102.28","","","","-21","","NA"
"-140.20","69.61","KOMAKUK BEACH","2100682","2018-05-19 07:00","2018","05","19","07:00","-10.3","","","","","M","","","9","","39","","","","102.24","","","","-21","","NA"
"-140.20","69.61","KOMAKUK BEACH","2100682","2018-05-19 08:00","2018","05","19","08:00","-9.6","","","","","M","","","9","","44","","","","102.21","","","","-21","","NA"
"-140.20","69.61","KOMAKUK BEACH","2100682","2018-05-19 09:00","2018","05","19","09:00","-9.2","","","","","M","","","10","","41","","","","102.17","","","","-20","","NA"
"-140.20","69.61","KOMAKUK BEACH","2100682","2018-05-19 10:00","2018","05","19","10:00","-9.1","","","","","M","","","10","","43","","","","102.15","","","","-20","","NA"
"-140.20","69.61","KOMAKUK BEACH","2100682","2018-05-19 11:00","2018","05","19","11:00","-8.6","","","","","M","","","10","","46","","","","102.11","","","","-19","","NA"
"-140.20","69.61","KOMAKUK BEACH","2100682","2018-05-19 12:00","2018","05","19","12:00","-8.4","","","","","M","","","10","","46","","","","102.09","","","","-19","","NA"
"-140.20","69.61","KOMAKUK BEACH","2100682","2018-05-19 13:00","2018","05","19","13:00","-8.1","","","","","M","","","9","","50","","","","102.05","","","","-19","","NA"
"-140.20","69.61","KOMAKUK BEACH","2100682","2018-05-19 14:00","2018","05","19","14:00","-8.0","","","","","M","","","9","","48","","","","102.03","","","","-19","","NA"
"-140.20","69.61","KOMAKUK BEACH","2100682","2018-05-19 15:00","2018","05","19","15:00","-7.8","","","","","M","","","10","","48","","","","101.99","","","","-19","","NA"
"-140.20","69.61","KOMAKUK BEACH","2100682","2018-05-19 16:00","2018","05","19","16:00","-7.7","","","","","M","","","10","","48","","","","101.97","","","","-18","","NA"
"-140.20","69.61","KOMAKUK BEACH","2100682","2018-05-19 17:00","2018","05","19","17:00","-6.9","","","","","M","","","10","","44","","","","101.92","","","","-17","","NA"
"-140.20","69.61","KOMAKUK BEACH","2100682","2018-05-19 18:00","2018","05","19","18:00","-6.6","","","","","M","","","9","","50","","","","101.86","","","","-17","","NA"
"-140.20","69.61","KOMAKUK BEACH","2100682","2018-05-19 19:00","2018","05","19","19:00","-6.4","","","","","M","","","9","","50","","","","101.84","","","","-17","","NA"
"-140.20","69.61","KOMAKUK BEACH","2100682","2018-05-19 20:00","2018","05","19","20:00","-6.1","","","","","M","","","10","","48","","","","101.81","","","","-16","","NA"
"-140.20","69.61","KOMAKUK BEACH","2100682","2018-05-19 21:00","2018","05","19","21:00","-5.8","","","","","M","","","9","","52","","","","101.73","","","","-16","","NA"
"-140.20","69.61","KOMAKUK BEACH","2100682","2018-05-19 22:00","2018","05","19","22:00","-5.8","","","","","M","","","10","","50","","","","101.69","","","","-16","","NA"
"-140.20","69.61","KOMAKUK BEACH","2100682","2018-05-19 23:00","2018","05","19","23:00","-6.0","","","","","M","","","9","","50","","","","101.63","","","","-16","","NA"
"-140.20","69.61","KOMAKUK BEACH","2100682","2018-05-20 00:00","2018","05","20","00:00","-6.3","","","","","M","","","10","","52","","","","101.59","","","","-17","","NA"
"-140.20","69.61","KOMAKUK BEACH","2100682","2018-05-20 01:00","2018","05","20","01:00","-6.0","","","","","M","","","10","","57","","","","101.52","","","","-17","","NA"
"-140.20","69.61","KOMAKUK BEACH","2100682","2018-05-20 02:00","2018","05","20","02:00","-5.8","","","","","M","","","10","","50","","","","101.52","","","","-16","","NA"
"-140.20","69.61","KOMAKUK BEACH","2100682","2018-05-20 03:00","2018","05","20","03:00","-5.8","","","","","M","","","10","","52","","","","101.49","","","","-16","","NA"
"-140.20","69.61","KOMAKUK BEACH","2100682","2018-05-20 04:00","2018","05","20","04:00","-5.9","","","","","M","","","10","","52","","","","101.42","","","","-16","","NA"
"-140.20","69.61","KOMAKUK BEACH","2100682","2018-05-20 05:00","2018","05","20","05:00","-5.9","","","","","M","","","9","","52","","","","101.39","","","","-16","","NA"
"-140.20","69.61","KOMAKUK BEACH","2100682","2018-05-20 06:00","2018","05","20","06:00","-5.8","","","","","M","","","10","","50","","","","101.38","","","","-16","","NA"
"-140.20","69.61","KOMAKUK BEACH","2100682","2018-05-20 07:00","2018","05","20","07:00","-5.6","","","","","M","","","10","","44","","","","101.42","","","","-15","","NA"
"-140.20","69.61","KOMAKUK BEACH","2100682","2018-05-20 08:00","2018","05","20","08:00","-5.4","","","","","M","","","10","","41","","","","101.42","","","","-15","","NA"
"-140.20","69.61","KOMAKUK BEACH","2100682","2018-05-20 09:00","2018","05","20","09:00","-5.4","","","","","M","","","10","","37","","","","101.44","","","","-14","","NA"
"-140.20","69.61","KOMAKUK BEACH","2100682","2018-05-20 10:00","2018","05","20","10:00","-5.2","","","","","M","","","10","","39","","","","101.42","","","","-14","","NA"
"-140.20","69.61","KOMAKUK BEACH","2100682","2018-05-20 11:00","2018","05","20","11:00","-5.0","","","","","M","","","10","","48","","","","101.36","","","","-15","","NA"
"-140.20","69.61","KOMAKUK BEACH","2100682","2018-05-20 12:00","2018","05","20","12:00","-4.4","","","","","M","","","10","","41","","","","101.37","","","","-13","","NA"
"-140.20","69.61","KOMAKUK BEACH","2100682","2018-05-20 13:00","2018","05","20","13:00","-3.8","","","","","M","","","9","","39","","","","101.38","","","","-12","","NA"
"-140.20","69.61","KOMAKUK BEACH","2100682","2018-05-20 14:00","2018","05","20","14:00","-3.3","","","","","M","","","9","","39","","","","101.36","","","","-12","","NA"
"-140.20","69.61","KOMAKUK BEACH","2100682","2018-05-20 15:00","2018","05","20","15:00","-3.2","","","","","M","","","10","","41","","","","101.36","","","","-12","","NA"
"-140.20","69.61","KOMAKUK BEACH","2100682","2018-05-20 16:00","2018","05","20","16:00","-3.2","","","","","M","","","10","","39","","","","101.38","","","","-12","","NA"
"-140.20","69.61","KOMAKUK BEACH","2100682","2018-05-20 17:00","2018","05","20","17:00","-2.6","","","","","M","","","9","","41","","","","101.33","","","","-11","","NA"
"-140.20","69.61","KOMAKUK BEACH","2100682","2018-05-20 18:00","2018","05","20","18:00","-2.8","","","","","M","","","9","","43","","","","101.30","","","","-11","","NA"
"-140.20","69.61","KOMAKUK BEACH","2100682","2018-05-20 19:00","2018","05","20","19:00","-2.9","","","","","M","","","9","","41","","","","101.25","","","","-11","","NA"
"-140.20","69.61","KOMAKUK BEACH","2100682","2018-05-20 20:00","2018","05","20","20:00","-3.3","","","","","M","","","9","","44","","","","101.21","","","","-12","","NA"
"-140.20","69.61","KOMAKUK BEACH","2100682","2018-05-20 21:00","2018","05","20","21:00","-3.3","","","","","M","","","9","","41","","","","101.19","","","","-12","","NA"
"-140.20","69.61","KOMAKUK BEACH","2100682","2018-05-20 22:00","2018","05","20","22:00","-3.5","","","","","M","","","9","","39","","","","101.14","","","","-12","","NA"
"-140.20","69.61","KOMAKUK BEACH","2100682","2018-05-20 23:00","2018","05","20","23:00","-3.4","","","","","M","","","9","","39","","","","101.12","","","","-12","","NA"
"-140.20","69.61","KOMAKUK BEACH","2100682","2018-05-21 00:00","2018","05","21","00:00","-3.6","","","","","M","","","10","","33","","","","101.11","","","","-12","","NA"
"-140.20","69.61","KOMAKUK BEACH","2100682","2018-05-21 01:00","2018","05","21","01:00","-3.9","","","","","M","","","10","","28","","","","101.08","","","","-11","","NA"
"-140.20","69.61","KOMAKUK BEACH","2100682","2018-05-21 02:00","2018","05","21","02:00","-4.5","","","","","M","","","11","","35","","","","101.04","","","","-13","","NA"
"-140.20","69.61","KOMAKUK BEACH","2100682","2018-05-21 03:00","2018","05","21","03:00","-4.5","","","","","M","","","10","","30","","","","101.04","","","","-12","","NA"
"-140.20","69.61","KOMAKUK BEACH","2100682","2018-05-21 04:00","2018","05","21","04:00","-4.6","","","","","M","","","10","","31","","","","100.97","","","","-13","","NA"
"-140.20","69.61","KOMAKUK BEACH","2100682","2018-05-21 05:00","2018","05","21","05:00","-5.2","","","","","M","","","11","","28","","","","100.94","","","","-13","","NA"
"-140.20","69.61","KOMAKUK BEACH","2100682","2018-05-21 06:00","2018","05","21","06:00","-6.3","","","","","M","","","11","","22","","","","100.88","","","","-14","","NA"
"-140.20","69.61","KOMAKUK BEACH","2100682","2018-05-21 07:00","2018","05","21","07:00","-6.7","","","","","M","","","11","","26","","","","100.85","","","","-15","","NA"
"-140.20","69.61","KOMAKUK BEACH","2100682","2018-05-21 08:00","2018","05","21","08:00","-6.0","","","","","M","","","12","","24","","","","100.84","","","","-13","","NA"
"-140.20","69.61","KOMAKUK BEACH","2100682","2018-05-21 09:00","2018","05","21","09:00","-5.4","","","","","M","","","11","","22","","","","100.82","","","","-12","","NA"
"-140.20","69.61","KOMAKUK BEACH","2100682","2018-05-21 10:00","2018","05","21","10:00","-4.4","","","","","M","","","9","","30","","","","100.76","","","","-12","","NA"
"-140.20","69.61","KOMAKUK BEACH","2100682","2018-05-21 11:00","2018","05","21","11:00","-4.2","","","","","M","","","11","","28","","","","100.72","","","","-12","","NA"
"-140.20","69.61","KOMAKUK BEACH","2100682","2018-05-21 12:00","2018","05","21","12:00","-3.3","","","","","M","","","11","","26","","","","100.69","","","","-10","","NA"
"-140.20","69.61","KOMAKUK BEACH","2100682","2018-05-21 13:00","2018","05","21","13:00","-2.7","","","","","M","","","11","","24","","","","100.69","","","","-9","","NA"
"-140.20","69.61","KOMAKUK BEACH","2100682","2018-05-21 14:00","2018","05","21","14:00","-3.0","","","","","M","","","10","","28","","","","100.66","","","","-10","","NA"
"-140.20","69.61","KOMAKUK BEACH","2100682","2018-05-21 15:00","2018","05","21","15:00","-3.0","","","","","M","","","10","","24","","","","100.63","","","","-10","","NA"
"-140.20","69.61","KOMAKUK BEACH","2100682","2018-05-21 16:00","2018","05","21","16:00","-2.1","","","","","M","","","10","","26","","","","100.64","","","","-9","","NA"
"-140.20","69.61","KOMAKUK BEACH","2100682","2018-05-21 17:00","2018","05","21","17:00","-1.9","","","","","M","","","10","","26","","","","100.62","","","","-8","","NA"
"-140.20","69.61","KOMAKUK BEACH","2100682","2018-05-21 18:00","2018","05","21","18:00","-1.9","","","","","M","","","10","","26","","","","100.60","","","","-8","","NA"
"-140.20","69.61","KOMAKUK BEACH","2100682","2018-05-21 19:00","2018","05","21","19:00","-2.2","","","","","M","","","10","","22","","","","100.57","","","","-8","","NA"
"-140.20","69.61","KOMAKUK BEACH","2100682","2018-05-21 20:00","2018","05","21","20:00","-2.2","","","","","M","","","11","","22","","","","100.56","","","","-8","","NA"
"-140.20","69.61","KOMAKUK BEACH","2100682","2018-05-21 21:00","2018","05","21","21:00","-1.9","","","","","M","","","10","","22","","","","100.56","","","","-8","","NA"
"-140.20","69.61","KOMAKUK BEACH","2100682","2018-05-21 22:00","2018","05","21","22:00","-2.1","","","","","M","","","10","","22","","","","100.53","","","","-8","","NA"
"-140.20","69.61","KOMAKUK BEACH","2100682","2018-05-21 23:00","2018","05","21","23:00","-1.8","","","","","M","","","9","","24","","","","100.56","","","","-8","","NA"
"-140.20","69.61","KOMAKUK BEACH","2100682","2018-05-22 00:00","2018","05","22","00:00","-1.7","","","","","M","","","9","","28","","","","100.57","","","","-8","","NA"
"-140.20","69.61","KOMAKUK BEACH","2100682","2018-05-22 01:00","2018","05","22","01:00","-1.7","","","","","M","","","9","","26","","","","100.56","","","","-8","","NA"
"-140.20","69.61","KOMAKUK BEACH","2100682","2018-05-22 02:00","2018","05","22","02:00","-1.9","","","","","M","","","9","","22","","","","100.57","","","","-8","","NA"
"-140.20","69.61","KOMAKUK BEACH","2100682","2018-05-22 03:00","2018","05","22","03:00","-1.9","","","","","M","","","9","","20","","","","100.58","","","","-8","","NA"
"-140.20","69.61","KOMAKUK BEACH","2100682","2018-05-22 04:00","2018","05","22","04:00","-1.9","","","","","M","","","9","","19","","","","100.60","","","","-7","","NA"
"-140.20","69.61","KOMAKUK BEACH","2100682","2018-05-22 05:00","2018","05","22","05:00","-2.1","","","","","M","","","8","","13","","","","100.59","","","","-7","","NA"
"-140.20","69.61","KOMAKUK BEACH","2100682","2018-05-22 06:00","2018","05","22","06:00","-2.0","","","","","M","","","8","","13","","","","100.61","","","","-6","","NA"
"-140.20","69.61","KOMAKUK BEACH","2100682","2018-05-22 07:00","2018","05","22","07:00","-1.8","","","","","M","","","8","","15","","","","100.61","","","","-7","","NA"
"-140.20","69.61","KOMAKUK BEACH","2100682","2018-05-22 08:00","2018","05","22","08:00","-1.6","","","","","M","","","7","","13","","","","100.62","","","","-6","","NA"
"-140.20","69.61","KOMAKUK BEACH","2100682","2018-05-22 09:00","2018","05","22","09:00","-1.6","","","","","M","","","7","","11","","","","100.63","","","","-5","","NA"
"-140.20","69.61","KOMAKUK BEACH","2100682","2018-05-22 10:00","2018","05","22","10:00","-1.6","","","","","M","","","7","","13","","","","100.63","","","","-6","","NA"
"-140.20","69.61","KOMAKUK BEACH","2100682","2018-05-22 11:00","2018","05","22","11:00","-1.6","","","","","M","","","6","","13","","","","100.63","","","","-6","","NA"
"-140.20","69.61","KOMAKUK BEACH","2100682","2018-05-22 12:00","2018","05","22","12:00","-1.9","","","","","M","","","4","","17","","","","100.64","","","","-7","","NA"
"-140.20","69.61","KOMAKUK BEACH","2100682","2018-05-22 13:00","2018","05","22","13:00","-1.6","","","","","M","","","5","","15","","","","100.69","","","","-6","","NA"
"-140.20","69.61","KOMAKUK BEACH","2100682","2018-05-22 14:00","2018","05","22","14:00","-1.6","","","","","M","","","5","","13","","","","100.72","","","","-6","","NA"
"-140.20","69.61","KOMAKUK BEACH","2100682","2018-05-22 15:00","2018","05","22","15:00","-1.7","","","","","M","","","5","","11","","","","100.73","","","","-6","","NA"
"-140.20","69.61","KOMAKUK BEACH","2100682","2018-05-22 16:00","2018","05","22","16:00","-1.5","","","","","M","","","6","","13","","","","100.74","","","","-6","","NA"
"-140.20","69.61","KOMAKUK BEACH","2100682","2018-05-22 17:00","2018","05","22","17:00","-1.4","","","","","M","","","6","","15","","","","100.76","","","","-6","","NA"
"-140.20","69.61","KOMAKUK BEACH","2100682","2018-05-22 18:00","2018","05","22","18:00","-1.5","","","","","M","","","6","","17","","","","100.79","","","","-7","","NA"
"-140.20","69.61","KOMAKUK BEACH","2100682","2018-05-22 19:00","2018","05","22","19:00","-1.4","","","","","M","","","6","","19","","","","100.77","","","","-7","","NA"
"-140.20","69.61","KOMAKUK BEACH","2100682","2018-05-22 20:00","2018","05","22","20:00","-1.6","","","","","M","","","7","","22","","","","100.80","","","","-8","","NA"
"-140.20","69.61","KOMAKUK BEACH","2100682","2018-05-22 21:00","2018","05","22","21:00","-1.6","","","","","M","","","8","","22","","","","100.83","","","","-8","","NA"
"-140.20","69.61","KOMAKUK BEACH","2100682","2018-05-22 22:00","2018","05","22","22:00","-1.6","","","","","M","","","8","","19","","","","100.84","","","","-7","","NA"
"-140.20","69.61","KOMAKUK BEACH","2100682","2018-05-22 23:00","2018","05","22","23:00","-1.6","","","","","M","","","8","","19","","","","100.86","","","","-7","","NA"
"-140.20","69.61","KOMAKUK BEACH","2100682","2018-05-23 00:00","2018","05","23","00:00","-1.8","","","","","M","","","8","","19","","","","100.89","","","","-7","","NA"
"-140.20","69.61","KOMAKUK BEACH","2100682","2018-05-23 01:00","2018","05","23","01:00","-2.0","","","","","M","","","9","","20","","","","100.91","","","","-8","","NA"
"-140.20","69.61","KOMAKUK BEACH","2100682","2018-05-23 02:00","2018","05","23","02:00","-1.9","","","","","M","","","9","","22","","","","100.92","","","","-8","","NA"
"-140.20","69.61","KOMAKUK BEACH","2100682","2018-05-23 03:00","2018","05","23","03:00","-1.9","","","","","M","","","10","","24","","","","100.94","","","","-8","","NA"
"-140.20","69.61","KOMAKUK BEACH","2100682","2018-05-23 04:00","2018","05","23","04:00","-1.9","","","","","M","","","9","","26","","","","100.94","","","","-8","","NA"
"-140.20","69.61","KOMAKUK BEACH","2100682","2018-05-23 05:00","2018","05","23","05:00","-2.0","","","","","M","","","9","","26","","","","100.97","","","","-9","","NA"
"-140.20","69.61","KOMAKUK BEACH","2100682","2018-05-23 06:00","2018","05","23","06:00","-2.5","","","","","M","","","10","","28","","","","100.99","","","","-10","","NA"
"-140.20","69.61","KOMAKUK BEACH","2100682","2018-05-23 07:00","2018","05","23","07:00","-2.4","","","","","M","","","10","","31","","","","101.00","","","","-10","","NA"
"-140.20","69.61","KOMAKUK BEACH","2100682","2018-05-23 08:00","2018","05","23","08:00","-2.5","","","","","M","","","11","","26","","","","101.01","","","","-9","","NA"
"-140.20","69.61","KOMAKUK BEACH","2100682","2018-05-23 09:00","2018","05","23","09:00","-2.4","","","","","M","","","11","","26","","","","101.04","","","","-9","","NA"
"-140.20","69.61","KOMAKUK BEACH","2100682","2018-05-23 10:00","2018","05","23","10:00","-2.4","","","","","M","","","11","","33","","","","101.05","","","","-10","","NA"
"-140.20","69.61","KOMAKUK BEACH","2100682","2018-05-23 11:00","2018","05","23","11:00","-2.3","","","","","M","","","10","","41","","","","101.05","","","","-11","","NA"
"-140.20","69.61","KOMAKUK BEACH","2100682","2018-05-23 12:00","2018","05","23","12:00","-1.9","","","","","M","","","10","","41","","","","101.06","","","","-10","","NA"
"-140.20","69.61","KOMAKUK BEACH","2100682","2018-05-23 13:00","2018","05","23","13:00","-2.0","","","","","M","","","11","","46","","","","101.07","","","","-11","","NA"
"-140.20","69.61","KOMAKUK BEACH","2100682","2018-05-23 14:00","2018","05","23","14:00","-1.7","","","","","M","","","10","","46","","","","101.08","","","","-10","","NA"
"-140.20","69.61","KOMAKUK BEACH","2100682","2018-05-23 15:00","2018","05","23","15:00","-1.7","","","","","M","","","10","","48","","","","101.07","","","","-10","","NA"
"-140.20","69.61","KOMAKUK BEACH","2100682","2018-05-23 16:00","2018","05","23","16:00","-1.9","","","","","M","","","10","","48","","","","101.10","","","","-11","","NA"
"-140.20","69.61","KOMAKUK BEACH","2100682","2018-05-23 17:00","2018","05","23","17:00","-1.8","","","","","M","","","10","","48","","","","101.09","","","","-10","","NA"
"-140.20","69.61","KOMAKUK BEACH","2100682","2018-05-23 18:00","2018","05","23","18:00","-1.5","","","","","M","","","9","","52","","","","101.08","","","","-10","","NA"
"-140.20","69.61","KOMAKUK BEACH","2100682","2018-05-23 19:00","2018","05","23","19:00","-1.7","","","","","M","","","10","","52","","","","101.03","","","","-11","","NA"
"-140.20","69.61","KOMAKUK BEACH","2100682","2018-05-23 20:00","2018","05","23","20:00","-1.7","","","","","M","","","10","","54","","","","101.01","","","","-11","","NA"
"-140.20","69.61","KOMAKUK BEACH","2100682","2018-05-23 21:00","2018","05","23","21:00","-1.7","","","","","M","","","10","","52","","","","100.99","","","","-11","","NA"
"-140.20","69.61","KOMAKUK BEACH","2100682","2018-05-23 22:00","2018","05","23","22:00","-2.1","","","","","M","","","10","","46","","","","101.07","","","","-11","","NA"
"-140.20","69.61","KOMAKUK BEACH","2100682","2018-05-23 23:00","2018","05","23","23:00","-2.4","","","","","M","","","10","","48","","","","101.05","","","","-11","","NA"
"-140.20","69.61","KOMAKUK BEACH","2100682","2018-05-24 00:00","2018","05","24","00:00","-2.7","","","","","M","","","10","","48","","","","101.05","","","","-12","","NA"
"-140.20","69.61","KOMAKUK BEACH","2100682","2018-05-24 01:00","2018","05","24","01:00","-3.0","","","","","M","","","10","","50","","","","101.09","","","","-12","","NA"
"-140.20","69.61","KOMAKUK BEACH","2100682","2018-05-24 02:00","2018","05","24","02:00","-2.9","","","","","M","","","10","","48","","","","101.08","","","","-12","","NA"
"-140.20","69.61","KOMAKUK BEACH","2100682","2018-05-24 03:00","2018","05","24","03:00","-2.8","","","","","M","","","10","","46","","","","101.11","","","","-12","","NA"
"-140.20","69.61","KOMAKUK BEACH","2100682","2018-05-24 04:00","2018","05","24","04:00","-2.9","","","","","M","","","10","","50","","","","101.07","","","","-12","","NA"
"-140.20","69.61","KOMAKUK BEACH","2100682","2018-05-24 05:00","2018","05","24","05:00","-3.6","","","","","M","","","10","","56","","","","101.03","","","","-13","","NA"
"-140.20","69.61","KOMAKUK BEACH","2100682","2018-05-24 06:00","2018","05","24","06:00","-3.6","","","","","M","","","9","","54","","","","101.05","","","","-13","","NA"
"-140.20","69.61","KOMAKUK BEACH","2100682","2018-05-24 07:00","2018","05","24","07:00","-3.7","","","","","M","","","9","","54","","","","101.08","","","","-13","","NA"
"-140.20","69.61","KOMAKUK BEACH","2100682","2018-05-24 08:00","2018","05","24","08:00","-3.4","","","","","M","","","10","","48","","","","101.10","","","","-13","","NA"
"-140.20","69.61","KOMAKUK BEACH","2100682","2018-05-24 09:00","2018","05","24","09:00","-3.2","","","","","M","","","10","","43","","","","101.11","","","","-12","","NA"
"-140.20","69.61","KOMAKUK BEACH","2100682","2018-05-24 10:00","2018","05","24","10:00","-3.4","","","","","M","","","9","","50","","","","101.05","","","","-13","","NA"
"-140.20","69.61","KOMAKUK BEACH","2100682","2018-05-24 11:00","2018","05","24","11:00","-3.5","","","","","M","","","10","","50","","","","101.06","","","","-13","","NA"
"-140.20","69.61","KOMAKUK BEACH","2100682","2018-05-24 12:00","2018","05","24","12:00","-3.9","","","","","M","","","10","","48","","","","101.05","","","","-13","","NA"
"-140.20","69.61","KOMAKUK BEACH","2100682","2018-05-24 13:00","2018","05","24","13:00","-4.3","","","","","M","","","9","","54","","","","101.02","","","","-14","","NA"
"-140.20","69.61","KOMAKUK BEACH","2100682","2018-05-24 14:00","2018","05","24","14:00","-4.2","","","","","M","","","10","","50","","","","101.02","","","","-14","","NA"
"-140.20","69.61","KOMAKUK BEACH","2100682","2018-05-24 15:00","2018","05","24","15:00","-3.4","","","","","M","","","10","","48","","","","101.01","","","","-13","","NA"
"-140.20","69.61","KOMAKUK BEACH","2100682","2018-05-24 16:00","2018","05","24","16:00","-3.2","","","","","M","","","10","","50","","","","100.97","","","","-13","","NA"
"-140.20","69.61","KOMAKUK BEACH","2100682","2018-05-24 17:00","2018","05","24","17:00","-2.6","","","","","M","","","9","","48","","","","101.00","","","","-12","","NA"
"-140.20","69.61","KOMAKUK BEACH","2100682","2018-05-24 18:00","2018","05","24","18:00","-2.1","","","","","M","","","9","","41","","","","101.04","","","","-10","","NA"
"-140.20","69.61","KOMAKUK BEACH","2100682","2018-05-24 19:00","2018","05","24","19:00","-1.9","","","","","M","","","9","","48","","","","100.95","","","","-11","","NA"
"-140.20","69.61","KOMAKUK BEACH","2100682","2018-05-24 20:00","2018","05","24","20:00","-2.3","","","","","M","","","9","","48","","","","100.95","","","","-11","","NA"
"-140.20","69.61","KOMAKUK BEACH","2100682","2018-05-24 21:00","2018","05","24","21:00","-2.3","","","","","M","","","9","","41","","","","100.98","","","","-11","","NA"
"-140.20","69.61","KOMAKUK BEACH","2100682","2018-05-24 22:00","2018","05","24","22:00","-2.2","","","","","M","","","9","","35","","","","101.00","","","","-10","","NA"
"-140.20","69.61","KOMAKUK BEACH","2100682","2018-05-24 23:00","2018","05","24","23:00","-2.0","","","","","M","","","10","","26","","","","101.04","","","","-9","","NA"
"-140.20","69.61","KOMAKUK BEACH","2100682","2018-05-25 00:00","2018","05","25","00:00","-2.3","","","","","M","","","9","","26","","","","101.05","","","","-9","","NA"
"-140.20","69.61","KOMAKUK BEACH","2100682","2018-05-25 01:00","2018","05","25","01:00","-2.2","","","","","M","","","8","","22","","","","101.05","","","","-8","","NA"
"-140.20","69.61","KOMAKUK BEACH","2100682","2018-05-25 02:00","2018","05","25","02:00","-2.4","","","","","M","","","7","","20","","","","101.07","","","","-8","","NA"
"-140.20","69.61","KOMAKUK BEACH","2100682","2018-05-25 03:00","2018","05","25","03:00","-2.5","","","","","M","","","7","","13","","","","101.08","","","","-7","","NA"
"-140.20","69.61","KOMAKUK BEACH","2100682","2018-05-25 04:00","2018","05","25","04:00","-2.9","","","","","M","","","5","","15","","","","101.10","","","","-8","","NA"
"-140.20","69.61","KOMAKUK BEACH","2100682","2018-05-25 05:00","2018","05","25","05:00","-3.3","","","","","M","","","3","","15","","","","101.11","","","","-8","","NA"
"-140.20","69.61","KOMAKUK BEACH","2100682","2018-05-25 06:00","2018","05","25","06:00","-3.5","","","","","M","","","3","","6","","","","101.09","","","","-6","","NA"
"-140.20","69.61","KOMAKUK BEACH","2100682","2018-05-25 07:00","2018","05","25","07:00","-3.6","","","","","M","","","32","","7","","","","101.08","","","","-7","","NA"
"-140.20","69.61","KOMAKUK BEACH","2100682","2018-05-25 08:00","2018","05","25","08:00","-3.5","","","","","M","","","31","","9","","","","101.08","","","","-7","","NA"
"-140.20","69.61","KOMAKUK BEACH","2100682","2018-05-25 09:00","2018","05","25","09:00","-3.6","","","","","M","","","32","","13","","","","101.06","","","","-8","","NA"
"-140.20","69.61","KOMAKUK BEACH","2100682","2018-05-25 10:00","2018","05","25","10:00","-3.7","","","","","M","","","31","","17","","","","101.04","","","","-9","","NA"
"-140.20","69.61","KOMAKUK BEACH","2100682","2018-05-25 11:00","2018","05","25","11:00","-4.0","","","","","M","","","32","","15","","","","101.03","","","","-9","","NA"
"-140.20","69.61","KOMAKUK BEACH","2100682","2018-05-25 12:00","2018","05","25","12:00","-4.1","","","","","M","","","31","","19","","","","101.06","","","","-10","","NA"
"-140.20","69.61","KOMAKUK BEACH","2100682","2018-05-25 13:00","2018","05","25","13:00","-4.1","","","","","M","","","31","","19","","","","101.07","","","","-10","","NA"
"-140.20","69.61","KOMAKUK BEACH","2100682","2018-05-25 14:00","2018","05","25","14:00","-4.3","","","","","M","","","31","","17","","","","101.08","","","","-10","","NA"
"-140.20","69.61","KOMAKUK BEACH","2100682","2018-05-25 15:00","2018","05","25","15:00","-4.1","","","","","M","","","30","","20","","","","101.06","","","","-10","","NA"
"-140.20","69.61","KOMAKUK BEACH","2100682","2018-05-25 16:00","2018","05","25","16:00","-3.7","","","","","M","","","29","","20","","","","101.09","","","","-10","","NA"
"-140.20","69.61","KOMAKUK BEACH","2100682","2018-05-25 17:00","2018","05","25","17:00","-4.0","","","","","M","","","29","","20","","","","101.09","","","","-10","","NA"
"-140.20","69.61","KOMAKUK BEACH","2100682","2018-05-25 18:00","2018","05","25","18:00","-3.7","","","","","M","","","28","","20","","","","101.08","","","","-10","","NA"
"-140.20","69.61","KOMAKUK BEACH","2100682","2018-05-25 19:00","2018","05","25","19:00","-3.7","","","","","M","","","28","","26","","","","101.08","","","","-11","","NA"
"-140.20","69.61","KOMAKUK BEACH","2100682","2018-05-25 20:00","2018","05","25","20:00","-3.7","","","","","M","","","28","","22","","","","101.09","","","","-10","","NA"
"-140.20","69.61","KOMAKUK BEACH","2100682","2018-05-25 21:00","2018","05","25","21:00","-3.6","","","","","M","","","28","","22","","","","101.10","","","","-10","","NA"
"-140.20","69.61","KOMAKUK BEACH","2100682","2018-05-25 22:00","2018","05","25","22:00","-3.7","","","","","M","","","27","","22","","","","101.08","","","","-10","","NA"
"-140.20","69.61","KOMAKUK BEACH","2100682","2018-05-25 23:00","2018","05","25","23:00","-3.8","","","","","M","","","27","","26","","","","101.10","","","","-11","","NA"
"-140.20","69.61","KOMAKUK BEACH","2100682","2018-05-26 00:00","2018","05","26","00:00","-3.9","","","","","M","","","27","","24","","","","101.12","","","","-11","","NA"
"-140.20","69.61","KOMAKUK BEACH","2100682","2018-05-26 01:00","2018","05","26","01:00","-3.9","","","","","M","","","27","","24","","","","101.14","","","","-11","","NA"
"-140.20","69.61","KOMAKUK BEACH","2100682","2018-05-26 02:00","2018","05","26","02:00","-3.8","","","","","M","","","27","","22","","","","101.16","","","","-10","","NA"
"-140.20","69.61","KOMAKUK BEACH","2100682","2018-05-26 03:00","2018","05","26","03:00","-3.8","","","","","M","","","26","","19","","","","101.18","","","","-10","","NA"
"-140.20","69.61","KOMAKUK BEACH","2100682","2018-05-26 04:00","2018","05","26","04:00","-3.7","","","","","M","","","26","","20","","","","101.18","","","","-10","","NA"
"-140.20","69.61","KOMAKUK BEACH","2100682","2018-05-26 05:00","2018","05","26","05:00","-3.8","","","","","M","","","27","","20","","","","101.20","","","","-10","","NA"
"-140.20","69.61","KOMAKUK BEACH","2100682","2018-05-26 06:00","2018","05","26","06:00","-3.6","","","","","M","","","26","","19","","","","101.22","","","","-10","","NA"
"-140.20","69.61","KOMAKUK BEACH","2100682","2018-05-26 07:00","2018","05","26","07:00","-3.6","","","","","M","","","26","","17","","","","101.22","","","","-9","","NA"
"-140.20","69.61","KOMAKUK BEACH","2100682","2018-05-26 08:00","2018","05","26","08:00","-3.5","","","","","M","","","27","","15","","","","101.25","","","","-9","","NA"
"-140.20","69.61","KOMAKUK BEACH","2100682","2018-05-26 09:00","2018","05","26","09:00","-3.3","","","","","M","","","27","","11","","","","101.27","","","","-8","","NA"
"-140.20","69.61","KOMAKUK BEACH","2100682","2018-05-26 10:00","2018","05","26","10:00","-3.4","","","","","M","","","35","","9","","","","101.27","","","","-7","","NA"
"-140.20","69.61","KOMAKUK BEACH","2100682","2018-05-26 11:00","2018","05","26","11:00","-3.5","","","","","M","","","2","","6","","","","101.32","","","","-6","","NA"
"-140.20","69.61","KOMAKUK BEACH","2100682","2018-05-26 12:00","2018","05","26","12:00","-3.5","","","","","M","","","3","","9","","","","101.34","","","","-7","","NA"
"-140.20","69.61","KOMAKUK BEACH","2100682","2018-05-26 13:00","2018","05","26","13:00","-3.4","","","","","M","","","4","","11","","","","101.35","","","","-8","","NA"
"-140.20","69.61","KOMAKUK BEACH","2100682","2018-05-26 14:00","2018","05","26","14:00","-3.5","","","","","M","","","4","","9","","","","101.39","","","","-7","","NA"
"-140.20","69.61","KOMAKUK BEACH","2100682","2018-05-26 15:00","2018","05","26","15:00","-3.5","","","","","M","","","3","","11","","","","101.42","","","","-8","","NA"
"-140.20","69.61","KOMAKUK BEACH","2100682","2018-05-26 16:00","2018","05","26","16:00","-3.4","","","","","M","","","4","","11","","","","101.45","","","","-8","","NA"
"-140.20","69.61","KOMAKUK BEACH","2100682","2018-05-26 17:00","2018","05","26","17:00","-3.5","","","","","M","","","4","","15","","","","101.46","","","","-9","","NA"
"-140.20","69.61","KOMAKUK BEACH","2100682","2018-05-26 18:00","2018","05","26","18:00","-3.4","","","","","M","","","4","","13","","","","101.47","","","","-8","","NA"
"-140.20","69.61","KOMAKUK BEACH","2100682","2018-05-26 19:00","2018","05","26","19:00","-3.7","","","","","M","","","7","","17","","","","101.48","","","","-9","","NA"
"-140.20","69.61","KOMAKUK BEACH","2100682","2018-05-26 20:00","2018","05","26","20:00","-4.2","","","","","M","","","7","","15","","","","101.49","","","","-10","","NA"
"-140.20","69.61","KOMAKUK BEACH","2100682","2018-05-26 21:00","2018","05","26","21:00","-4.2","","","","","M","","","7","","22","","","","101.49","","","","-11","","NA"
"-140.20","69.61","KOMAKUK BEACH","2100682","2018-05-26 22:00","2018","05","26","22:00","-4.6","","","","","M","","","8","","24","","","","101.50","","","","-12","","NA"
"-140.20","69.61","KOMAKUK BEACH","2100682","2018-05-26 23:00","2018","05","26","23:00","-4.5","","","","","M","","","9","","24","","","","101.48","","","","-12","","NA"
"-140.20","69.61","KOMAKUK BEACH","2100682","2018-05-27 00:00","2018","05","27","00:00","-4.8","","","","","M","","","10","","31","","","","101.52","","","","-13","","NA"
"-140.20","69.61","KOMAKUK BEACH","2100682","2018-05-27 01:00","2018","05","27","01:00","-4.9","","","","","M","","","10","","30","","","","101.52","","","","-13","","NA"
"-140.20","69.61","KOMAKUK BEACH","2100682","2018-05-27 02:00","2018","05","27","02:00","-4.9","","","","","M","","","10","","28","","","","101.57","","","","-13","","NA"
"-140.20","69.61","KOMAKUK BEACH","2100682","2018-05-27 03:00","2018","05","27","03:00","-5.0","","","","","M","","","10","","30","","","","101.59","","","","-13","","NA"
"-140.20","69.61","KOMAKUK BEACH","2100682","2018-05-27 04:00","2018","05","27","04:00","-4.9","","","","","M","","","10","","30","","","","101.61","","","","-13","","NA"
"-140.20","69.61","KOMAKUK BEACH","2100682","2018-05-27 05:00","2018","05","27","05:00","-4.9","","","","","M","","","10","","31","","","","101.61","","","","-13","","NA"
"-140.20","69.61","KOMAKUK BEACH","2100682","2018-05-27 06:00","2018","05","27","06:00","-4.9","","","","","M","","","10","","33","","","","101.63","","","","-13","","NA"
"-140.20","69.61","KOMAKUK BEACH","2100682","2018-05-27 07:00","2018","05","27","07:00","-4.9","","","","","M","","","10","","37","","","","101.61","","","","-14","","NA"
"-140.20","69.61","KOMAKUK BEACH","2100682","2018-05-27 08:00","2018","05","27","08:00","-5.0","","","","","M","","","10","","35","","","","101.64","","","","-14","","NA"
"-140.20","69.61","KOMAKUK BEACH","2100682","2018-05-27 09:00","2018","05","27","09:00","-4.7","","","","","M","","","10","","33","","","","101.67","","","","-13","","NA"
"-140.20","69.61","KOMAKUK BEACH","2100682","2018-05-27 10:00","2018","05","27","10:00","-4.5","","","","","M","","","10","","35","","","","101.64","","","","-13","","NA"
"-140.20","69.61","KOMAKUK BEACH","2100682","2018-05-27 11:00","2018","05","27","11:00","-4.4","","","","","M","","","10","","39","","","","101.65","","","","-13","","NA"
"-140.20","69.61","KOMAKUK BEACH","2100682","2018-05-27 12:00","2018","05","27","12:00","-4.2","","","","","M","","","11","","37","","","","101.64","","","","-13","","NA"
"-140.20","69.61","KOMAKUK BEACH","2100682","2018-05-27 13:00","2018","05","27","13:00","-4.1","","","","","M","","","9","","39","","","","101.64","","","","-13","","NA"
"-140.20","69.61","KOMAKUK BEACH","2100682","2018-05-27 14:00","2018","05","27","14:00","-3.8","","","","","M","","","10","","39","","","","101.70","","","","-12","","NA"
"-140.20","69.61","KOMAKUK BEACH","2100682","2018-05-27 15:00","2018","05","27","15:00","-3.6","","","","","M","","","9","","46","","","","101.71","","","","-13","","NA"
"-140.20","69.61","KOMAKUK BEACH","2100682","2018-05-27 16:00","2018","05","27","16:00","-3.8","","","","","M","","","10","","43","","","","101.70","","","","-13","","NA"
"-140.20","69.61","KOMAKUK BEACH","2100682","2018-05-27 17:00","2018","05","27","17:00","-3.5","","","","","M","","","10","","41","","","","101.69","","","","-12","","NA"
"-140.20","69.61","KOMAKUK BEACH","2100682","2018-05-27 18:00","2018","05","27","18:00","-3.3","","","","","M","","","10","","41","","","","101.66","","","","-12","","NA"
"-140.20","69.61","KOMAKUK BEACH","2100682","2018-05-27 19:00","2018","05","27","19:00","-3.3","","","","","M","","","9","","43","","","","101.68","","","","-12","","NA"
"-140.20","69.61","KOMAKUK BEACH","2100682","2018-05-27 20:00","2018","05","27","20:00","-3.4","","","","","M","","","9","","44","","","","101.66","","","","-12","","NA"
"-140.20","69.61","KOMAKUK BEACH","2100682","2018-05-27 21:00","2018","05","27","21:00","-3.7","","","","","M","","","9","","43","","","","101.63","","","","-13","","NA"
"-140.20","69.61","KOMAKUK BEACH","2100682","2018-05-27 22:00","2018","05","27","22:00","-3.7","","","","","M","","","9","","37","","","","101.66","","","","-12","","NA"
"-140.20","69.61","KOMAKUK BEACH","2100682","2018-05-27 23:00","2018","05","27","23:00","-4.1","","","","","M","","","9","","39","","","","101.64","","","","-13","","NA"
"-140.20","69.61","KOMAKUK BEACH","2100682","2018-05-28 00:00","2018","05","28","00:00","-4.5","","","","","M","","","9","","33","","","","101.67","","","","-13","","NA"
"-140.20","69.61","KOMAKUK BEACH","2100682","2018-05-28 01:00","2018","05","28","01:00","-4.4","","","","","M","","","10","","33","","","","101.69","","","","-13","","NA"
"-140.20","69.61","KOMAKUK BEACH","2100682","2018-05-28 02:00","2018","05","28","02:00","-4.4","","","","","M","","","9","","35","","","","101.69","","","","-13","","NA"
"-140.20","69.61","KOMAKUK BEACH","2100682","2018-05-28 03:00","2018","05","28","03:00","-4.6","","","","","M","","","9","","33","","","","101.74","","","","-13","","NA"
"-140.20","69.61","KOMAKUK BEACH","2100682","2018-05-28 04:00","2018","05","28","04:00","-4.8","","","","","M","","","10","","30","","","","101.75","","","","-13","","NA"
"-140.20","69.61","KOMAKUK BEACH","2100682","2018-05-28 05:00","2018","05","28","05:00","-4.9","","","","","M","","","10","","33","","","","101.73","","","","-13","","NA"
"-140.20","69.61","KOMAKUK BEACH","2100682","2018-05-28 06:00","2018","05","28","06:00","-4.9","","","","","M","","","11","","31","","","","101.74","","","","-13","","NA"
"-140.20","69.61","KOMAKUK BEACH","2100682","2018-05-28 07:00","2018","05","28","07:00","-5.0","","","","","M","","","10","","33","","","","101.71","","","","-13","","NA"
"-140.20","69.61","KOMAKUK BEACH","2100682","2018-05-28 08:00","2018","05","28","08:00","-5.1","","","","","M","","","10","","31","","","","101.70","","","","-13","","NA"
"-140.20","69.61","KOMAKUK BEACH","2100682","2018-05-28 09:00","2018","05","28","09:00","-5.1","","","","","M","","","10","","28","","","","101.73","","","","-13","","NA"
"-140.20","69.61","KOMAKUK BEACH","2100682","2018-05-28 10:00","2018","05","28","10:00","-5.0","","","","","M","","","10","","26","","","","101.73","","","","-12","","NA"
"-140.20","69.61","KOMAKUK BEACH","2100682","2018-05-28 11:00","2018","05","28","11:00"
"-140.20","69.61","KOMAKUK BEACH","2100682","2018-05-28 12:00","2018","05","28","12:00"
"-140.20","69.61","KOMAKUK BEACH","2100682","2018-05-28 13:00","2018","05","28","13:00"
"-140.20","69.61","KOMAKUK BEACH","2100682","2018-05-28 14:00","2018","05","28","14:00"
"-140.20","69.61","KOMAKUK BEACH","2100682","2018-05-28 15:00","2018","05","28","15:00"
"-140.20","69.61","KOMAKUK BEACH","2100682","2018-05-28 16:00","2018","05","28","16:00"
"-140.20","69.61","KOMAKUK BEACH","2100682","2018-05-28 17:00","2018","05","28","17:00"
"-140.20","69.61","KOMAKUK BEACH","2100682","2018-05-28 18:00","2018","05","28","18:00"
"-140.20","69.61","KOMAKUK BEACH","2100682","2018-05-28 19:00","2018","05","28","19:00"
"-140.20","69.61","KOMAKUK BEACH","2100682","2018-05-28 20:00","2018","05","28","20:00"
"-140.20","69.61","KOMAKUK BEACH","2100682","2018-05-28 21:00","2018","05","28","21:00"
"-140.20","69.61","KOMAKUK BEACH","2100682","2018-05-28 22:00","2018","05","28","22:00"
"-140.20","69.61","KOMAKUK BEACH","2100682","2018-05-28 23:00","2018","05","28","23:00"
"-140.20","69.61","KOMAKUK BEACH","2100682","2018-05-29 00:00","2018","05","29","00:00"
"-140.20","69.61","KOMAKUK BEACH","2100682","2018-05-29 01:00","2018","05","29","01:00"
"-140.20","69.61","KOMAKUK BEACH","2100682","2018-05-29 02:00","2018","05","29","02:00"
"-140.20","69.61","KOMAKUK BEACH","2100682","2018-05-29 03:00","2018","05","29","03:00"
"-140.20","69.61","KOMAKUK BEACH","2100682","2018-05-29 04:00","2018","05","29","04:00"
"-140.20","69.61","KOMAKUK BEACH","2100682","2018-05-29 05:00","2018","05","29","05:00"
"-140.20","69.61","KOMAKUK BEACH","2100682","2018-05-29 06:00","2018","05","29","06:00"
"-140.20","69.61","KOMAKUK BEACH","2100682","2018-05-29 07:00","2018","05","29","07:00"
"-140.20","69.61","KOMAKUK BEACH","2100682","2018-05-29 08:00","2018","05","29","08:00"
"-140.20","69.61","KOMAKUK BEACH","2100682","2018-05-29 09:00","2018","05","29","09:00"
"-140.20","69.61","KOMAKUK BEACH","2100682","2018-05-29 10:00","2018","05","29","10:00"
"-140.20","69.61","KOMAKUK BEACH","2100682","2018-05-29 11:00","2018","05","29","11:00","-6.6","","","","","M","","","9","","30","","","","101.44","","","","-15","","NA"
"-140.20","69.61","KOMAKUK BEACH","2100682","2018-05-29 12:00","2018","05","29","12:00","-5.4","","","","","M","","","9","","33","","","","101.42","","","","-14","","NA"
"-140.20","69.61","KOMAKUK BEACH","2100682","2018-05-29 13:00","2018","05","29","13:00","-5.0","","","","","M","","","9","","39","","","","101.44","","","","-14","","NA"
"-140.20","69.61","KOMAKUK BEACH","2100682","2018-05-29 14:00","2018","05","29","14:00","-4.5","","","","","M","","","9","","48","","","","101.42","","","","-14","","NA"
"-140.20","69.61","KOMAKUK BEACH","2100682","2018-05-29 15:00","2018","05","29","15:00","-3.9","","","","","M","","","10","","50","","","","101.39","","","","-13","","NA"
"-140.20","69.61","KOMAKUK BEACH","2100682","2018-05-29 16:00","2018","05","29","16:00","-3.2","","","","","M","","","9","","56","","","","101.32","","","","-13","","NA"
"-140.20","69.61","KOMAKUK BEACH","2100682","2018-05-29 17:00","2018","05","29","17:00","-2.6","","","","","M","","","9","","52","","","","101.34","","","","-12","","NA"
"-140.20","69.61","KOMAKUK BEACH","2100682","2018-05-29 18:00","2018","05","29","18:00","-2.6","","","","","M","","","9","","54","","","","101.28","","","","-12","","NA"
"-140.20","69.61","KOMAKUK BEACH","2100682","2018-05-29 19:00","2018","05","29","19:00","-2.4","","","","","M","","","9","","54","","","","101.25","","","","-12","","NA"
"-140.20","69.61","KOMAKUK BEACH","2100682","2018-05-29 20:00","2018","05","29","20:00","-2.1","","","","","M","","","10","","50","","","","101.20","","","","-11","","NA"
"-140.20","69.61","KOMAKUK BEACH","2100682","2018-05-29 21:00","2018","05","29","21:00","-2.1","","","","","M","","","10","","50","","","","101.15","","","","-11","","NA"
"-140.20","69.61","KOMAKUK BEACH","2100682","2018-05-29 22:00","2018","05","29","22:00","-2.4","","","","","M","","","10","","48","","","","101.13","","","","-11","","NA"
"-140.20","69.61","KOMAKUK BEACH","2100682","2018-05-29 23:00","2018","05","29","23:00","-2.9","","","","","M","","","10","","44","","","","101.17","","","","-12","","NA"
"-140.20","69.61","KOMAKUK BEACH","2100682","2018-05-30 00:00","2018","05","30","00:00","-3.1","","","","","M","","","10","","44","","","","101.14","","","","-12","","NA"
"-140.20","69.61","KOMAKUK BEACH","2100682","2018-05-30 01:00","2018","05","30","01:00","-3.7","","","","","M","","","10","","41","","","","101.12","","","","-12","","NA"
"-140.20","69.61","KOMAKUK BEACH","2100682","2018-05-30 02:00","2018","05","30","02:00","-4.5","","","","","M","","","10","","41","","","","101.09","","","","-14","","NA"
"-140.20","69.61","KOMAKUK BEACH","2100682","2018-05-30 03:00","2018","05","30","03:00","-5.1","","","","","M","","","10","","37","","","","101.06","","","","-14","","NA"
"-140.20","69.61","KOMAKUK BEACH","2100682","2018-05-30 04:00","2018","05","30","04:00","-5.5","","","","","M","","","10","","41","","","","101.05","","","","-15","","NA"
"-140.20","69.61","KOMAKUK BEACH","2100682","2018-05-30 05:00","2018","05","30","05:00","-5.5","","","","","M","","","11","","37","","","","101.03","","","","-14","","NA"
"-140.20","69.61","KOMAKUK BEACH","2100682","2018-05-30 06:00","2018","05","30","06:00","-4.5","","","","","M","","","11","","33","","","","100.94","","","","-13","","NA"
"-140.20","69.61","KOMAKUK BEACH","2100682","2018-05-30 07:00","2018","05","30","07:00","-4.8","","","","","M","","","12","","13","","","","101.00","","","","-10","","NA"
"-140.20","69.61","KOMAKUK BEACH","2100682","2018-05-30 08:00","2018","05","30","08:00","-4.7","","","","","M","","","14","","7","","","","100.97","","","","-8","","NA"
"-140.20","69.61","KOMAKUK BEACH","2100682","2018-05-30 09:00","2018","05","30","09:00","-5.2","","","","","M","","","1","","4","","","","100.95","","","","-7","","NA"
"-140.20","69.61","KOMAKUK BEACH","2100682","2018-05-30 10:00","2018","05","30","10:00","-4.5","","","","","M","","","30","","4","","","","100.97","","","","-6","","NA"
"-140.20","69.61","KOMAKUK BEACH","2100682","2018-05-30 11:00","2018","05","30","11:00","-4.1","","","","","M","","","27","","9","","","","100.98","","","","-8","","NA"
"-140.20","69.61","KOMAKUK BEACH","2100682","2018-05-30 12:00","2018","05","30","12:00","-4.1","","","","","M","","","27","","11","","","","100.96","","","","-9","","NA"
"-140.20","69.61","KOMAKUK BEACH","2100682","2018-05-30 13:00","2018","05","30","13:00","-4.3","","","","","M","","","28","","7","","","","100.98","","","","-7","","NA"
"-140.20","69.61","KOMAKUK BEACH","2100682","2018-05-30 14:00","2018","05","30","14:00","-3.7","","","","","M","","","28","","9","","","","100.96","","","","-7","","NA"
"-140.20","69.61","KOMAKUK BEACH","2100682","2018-05-30 15:00","2018","05","30","15:00","-3.3","","","","","M","","","28","","9","","","","100.98","","","","-7","","NA"
"-140.20","69.61","KOMAKUK BEACH","2100682","2018-05-30 16:00","2018","05","30","16:00","-2.9","","","","","M","","","28","","11","","","","100.97","","","","-7","","NA"
"-140.20","69.61","KOMAKUK BEACH","2100682","2018-05-30 17:00","2018","05","30","17:00","-2.5","","","","","M","","","28","","13","","","","100.96","","","","-7","","NA"
"-140.20","69.61","KOMAKUK BEACH","2100682","2018-05-30 18:00","2018","05","30","18:00","-1.9","","","","","M","","","29","","9","","","","100.94","","","","-5","","NA"
"-140.20","69.61","KOMAKUK BEACH","2100682","2018-05-30 19:00","2018","05","30","19:00","-1.6","","","","","M","","","28","","13","","","","100.90","","","","-6","","NA"
"-140.20","69.61","KOMAKUK BEACH","2100682","2018-05-30 20:00","2018","05","30","20:00","-1.9","","","","","M","","","27","","13","","","","100.90","","","","-6","","NA"
"-140.20","69.61","KOMAKUK BEACH","2100682","2018-05-30 21:00","2018","05","30","21:00","-2.5","","","","","M","","","28","","13","","","","100.88","","","","-7","","NA"
"-140.20","69.61","KOMAKUK BEACH","2100682","2018-05-30 22:00","2018","05","30","22:00","-2.8","","","","","M","","","28","","13","","","","100.86","","","","-7","","NA"
"-140.20","69.61","KOMAKUK BEACH","2100682","2018-05-30 23:00","2018","05","30","23:00","-2.9","","","","","M","","","28","","15","","","","100.84","","","","-8","","NA"
"-140.20","69.61","KOMAKUK BEACH","2100682","2018-05-31 00:00","2018","05","31","00:00","-2.6","","","","","M","","","27","","19","","","","100.89","","","","-8","","NA"
"-140.20","69.61","KOMAKUK BEACH","2100682","2018-05-31 01:00","2018","05","31","01:00","-2.4","","","","","M","","","27","","22","","","","100.92","","","","-9","","NA"
"-140.20","69.61","KOMAKUK BEACH","2100682","2018-05-31 02:00","2018","05","31","02:00","-2.5","","","","","M","","","26","","31","","","","100.92","","","","-10","","NA"
"-140.20","69.61","KOMAKUK BEACH","2100682","2018-05-31 03:00","2018","05","31","03:00","-1.7","","","","","M","","","26","","31","","","","100.94","","","","-9","","NA"
"-140.20","69.61","KOMAKUK BEACH","2100682","2018-05-31 04:00","2018","05","31","04:00","-2.3","","","","","M","","","26","","30","","","","100.96","","","","-9","","NA"
"-140.20","69.61","KOMAKUK BEACH","2100682","2018-05-31 05:00","2018","05","31","05:00","-2.5","","","","","M","","","25","","22","","","","100.96","","","","-9","","NA"
"-140.20","69.61","KOMAKUK BEACH","2100682","2018-05-31 06:00","2018","05","31","06:00","-2.8","","","","","M","","","25","","22","","","","100.97","","","","-9","","NA"
"-140.20","69.61","KOMAKUK BEACH","2100682","2018-05-31 07:00","2018","05","31","07:00","-2.8","","","","","M","","","26","","22","","","","100.95","","","","-9","","NA"
"-140.20","69.61","KOMAKUK BEACH","2100682","2018-05-31 08:00","2018","05","31","08:00","-3.0","","","","","M","","","27","","19","","","","100.96","","","","-9","","NA"
"-140.20","69.61","KOMAKUK BEACH","2100682","2018-05-31 09:00","2018","05","31","09:00","-3.0","","","","","M","","","27","","19","","","","100.99","","","","-9","","NA"
"-140.20","69.61","KOMAKUK BEACH","2100682","2018-05-31 10:00","2018","05","31","10:00","-2.8","","","","","M","","","27","","24","","","","101.01","","","","-9","","NA"
"-140.20","69.61","KOMAKUK BEACH","2100682","2018-05-31 11:00","2018","05","31","11:00","-2.0","","","","","M","","","27","","22","","","","101.02","","","","-8","","NA"
"-140.20","69.61","KOMAKUK BEACH","2100682","2018-05-31 12:00","2018","05","31","12:00","-2.1","","","","","M","","","26","","24","","","","101.05","","","","-8","","NA"
"-140.20","69.61","KOMAKUK BEACH","2100682","2018-05-31 13:00","2018","05","31","13:00","-1.6","","","","","M","","","27","","24","","","","101.11","","","","-8","","NA"
"-140.20","69.61","KOMAKUK BEACH","2100682","2018-05-31 14:00","2018","05","31","14:00","-1.2","","","","","M","","","27","","24","","","","101.11","","","","-7","","NA"
"-140.20","69.61","KOMAKUK BEACH","2100682","2018-05-31 15:00","2018","05","31","15:00","-1.1","","","","","M","","","26","","30","","","","101.13","","","","-8","","NA"
"-140.20","69.61","KOMAKUK BEACH","2100682","2018-05-31 16:00","2018","05","31","16:00","-1.5","","","","","M","","","28","","26","","","","101.18","","","","-8","","NA"
"-140.20","69.61","KOMAKUK BEACH","2100682","2018-05-31 17:00","2018","05","31","17:00","-1.0","","","","","M","","","28","","22","","","","101.19","","","","-7","","NA"
"-140.20","69.61","KOMAKUK BEACH","2100682","2018-05-31 18:00","2018","05","31","18:00","-1.3","","","","","M","","","28","","24","","","","101.20","","","","-7","","NA"
"-140.20","69.61","KOMAKUK BEACH","2100682","2018-05-31 19:00","2018","05","31","19:00","-1.3","","","","","M","","","28","","20","","","","101.21","","","","-7","","NA"
"-140.20","69.61","KOMAKUK BEACH","2100682","2018-05-31 20:00","2018","05","31","20:00","-1.1","","","","","M","","","28","","19","","","","101.21","","","","-6","","NA"
"-140.20","69.61","KOMAKUK BEACH","2100682","2018-05-31 21:00","2018","05","31","21:00","-1.2","","","","","M","","","29","","19","","","","101.21","","","","-7","","NA"
"-140.20","69.61","KOMAKUK BEACH","2100682","2018-05-31 22:00","2018","05","31","22:00","-1.2","","","","","M","","","30","","15","","","","101.25","","","","-6","","NA"
"-140.20","69.61","KOMAKUK BEACH","2100682","2018-05-31 23:00","2018","05","31","23:00","-1.2","","","","","M","","","28","","7","","","","101.33","","","","-4","","NA"
