"Longitude (x)","Latitude (y)","Station Name","Climate ID","Date/Time (LST)","Year","Month","Day","Time (LST)","Temp (°C)","Temp Flag","Dew Point Temp (°C)","Dew Point Temp Flag","Rel Hum (%)","Rel Hum Flag","Precip. Amount (mm)","Precip. Amount Flag","Wind Dir (10s deg)","Wind Dir Flag","Wind Spd (km/h)","Wind Spd Flag","Visibility (km)","Visibility Flag","Stn Press (kPa)","Stn Press Flag","Hmdx","Hmdx Flag","Wind Chill","Wind Chill Flag","Weather"
"-94.07","58.74","CHURCHILL A","5060605","2020-03-01 00:00","2020","03","01","00:00","-15.7","","-18.4","","80","","","","12","","19","","24.1","","100.86","","","","-25","","Cloudy"
"-94.07","58.74","CHURCHILL A","5060605","2020-03-01 01:00","2020","03","01","01:00","-15.7","","-18.1","","82","","","","12","","19","","24.1","","100.82","","","","-25","","NA"
"-94.07","58.74","CHURCHILL A","5060605","2020-03-01 02:00","2020","03","01","02:00","-15.6","","-18.0","","82","","","","13","","19","","24.1","","100.81","","","","-25","","NA"
"-94.07","58.74","CHURCHILL A","5060605","2020-03-01 03:00","2020","03","01","03:00","-16.0","","-18.3","","83","","","","12","","18","","24.1","","100.79","","","","-25","","Cloudy"
"-94.07","58.74","CHURCHILL A","5060605","2020-03-01 04:00","2020","03","01","04:00","-16.7","","-18.9","","83","","","","13","","20","","24.1","","100.77","","","","-26","","NA"
"-94.07","58.74","CHURCHILL A","5060605","2020-03-01 05:00","2020","03","01","05:00","-17.4","","-19.5","","84","","","","13","","21","","24.1","","100.72","","","","-27","","NA"
"-94.07","58.74","CHURCHILL A","5060605","2020-03-01 06:00","2020","03","01","06:00","-17.3","","-19.5","","83","","","","15","","18","","24.1","","100.75","","","","-27","","Cloudy"
"-94.07","58.74","CHURCHILL A","5060605","2020-03-01 07:00","2020","03","01","07:00","-16.9","","-19.4","","81","","","","14","","15","","24.1","","100.73","","","","-25","","NA"
"-94.07","58.74","CHURCHILL A","5060605","2020-03-01 08:00","2020","03","01","08:00","-16.5","","-19.3","","79","","","","14","","21","","24.1","","100.68","","","","-26","","NA"
"-94.07","58.74","CHURCHILL A","5060605","2020-03-01 09:00","2020","03","01","09:00","-16.1","","-19.1","","78","","","","13","","17","","24.1","","100.60","","","","-25","","Cloudy"
"-94.07","58.74","CHURCHILL A","5060605","2020-03-01 10:00","2020","03","01","10:00","-15.4","","-18.6","","77","","","","13","","17","","24.1","","100.58","","","","-24","","NA"
"-94.07","58.74","CHURCHILL A","5060605","2020-03-01 11:00","2020","03","01","11:00","-14.4","","-18.1","","74","","","","14","","15","","24.1","","100.55","","","","-22","","NA"
"-94.07","58.74","CHURCHILL A","5060605","2020-03-01 12:00","2020","03","01","12:00","-13.9","","-17.8","","73","","","","15","","9","","24.1","","100.54","","","","-20","","Cloudy"
"-94.07","58.74","CHURCHILL A","5060605","2020-03-01 13:00","2020","03","01","13:00","-13.5","","-17.9","","70","","","","12","","5","","24.1","","100.47","","","","-17","","NA"
"-94.07","58.74","CHURCHILL A","5060605","2020-03-01 14:00","2020","03","01","14:00","-13.5","","-17.7","","71","","","","9","","9","","24.1","","100.39","","","","-19","","NA"
"-94.07","58.74","CHURCHILL A","5060605","2020-03-01 15:00","2020","03","01","15:00","-13.2","","-17.8","","69","","","","10","","8","","24.1","","100.36","","","","-18","","Cloudy"
"-94.07","58.74","CHURCHILL A","5060605","2020-03-01 16:00","2020","03","01","16:00","-13.1","","-17.7","","69","","","","10","","8","","24.1","","100.31","","","","-18","","NA"
"-94.07","58.74","CHURCHILL A","5060605","2020-03-01 17:00","2020","03","01","17:00","-13.7","","-16.9","","77","","","","7","","5","","24.1","","100.32","","","","-17","","NA"
"-94.07","58.74","CHURCHILL A","5060605","2020-03-01 18:00","2020","03","01","18:00","-13.7","","-17.2","","75","","","","24","","3","","24.1","","100.28","","","","-16","","Cloudy"
"-94.07","58.74","CHURCHILL A","5060605","2020-03-01 19:00","2020","03","01","19:00","-13.9","","-16.5","","81","","","","29","","19","","24.1","","100.26","","","","-23","","Snow"
"-94.07","58.74","CHURCHILL A","5060605","2020-03-01 20:00","2020","03","01","20:00","-14.6","","-16.2","","88","","","","32","","26","","6.4","","100.22","","","","-25","","Snow"
"-94.07","58.74","CHURCHILL A","5060605","2020-03-01 21:00","2020","03","01","21:00","-15.6","","-17.4","","86","","","","32","","28","","9.7","","100.20","","","","-26","","Snow,Blowing Snow"
"-94.07","58.74","CHURCHILL A","5060605","2020-03-01 22:00","2020","03","01","22:00","-16.1","","-18.1","","85","","","","32","","23","","16.1","","100.13","","","","-26","","Snow,Blowing Snow"
"-94.07","58.74","CHURCHILL A","5060605","2020-03-01 23:00","2020","03","01","23:00","-16.7","","-18.9","","83","","","","32","","26","","12.9","","100.08","","","","-28","","Snow,Blowing Snow"
"-94.07","58.74","CHURCHILL A","5060605","2020-03-02 00:00","2020","03","02","00:00","-17.7","","-20.2","","81","","","","30","","17","","16.1","","100.03","","","","-27","","Snow,Blowing Snow"
"-94.07","58.74","CHURCHILL A","5060605","2020-03-02 01:00","2020","03","02","01:00","-18.0","","-20.7","","80","","","","31","","19","","16.1","","99.99","","","","-28","","Snow,Blowing Snow"
"-94.07","58.74","CHURCHILL A","5060605","2020-03-02 02:00","2020","03","02","02:00","-18.0","","-20.7","","80","","","","31","","18","","16.1","","99.92","","","","-27","","Snow,Blowing Snow"
"-94.07","58.74","CHURCHILL A","5060605","2020-03-02 03:00","2020","03","02","03:00","-18.1","","-20.8","","80","","","","30","","19","","16.1","","99.88","","","","-28","","Snow,Blowing Snow"
"-94.07","58.74","CHURCHILL A","5060605","2020-03-02 04:00","2020","03","02","04:00","-18.4","","-21.4","","78","","","","30","","19","","16.1","","99.85","","","","-28","","Snow,Blowing Snow"
"-94.07","58.74","CHURCHILL A","5060605","2020-03-02 05:00","2020","03","02","05:00","-18.5","","-21.4","","78","","","","30","","19","","16.1","","99.78","","","","-28","","Snow,Blowing Snow"
"-94.07","58.74","CHURCHILL A","5060605","2020-03-02 06:00","2020","03","02","06:00","-18.5","","-21.3","","79","","","","30","","16","","24.1","","99.73","","","","-28","","Snow"
"-94.07","58.74","CHURCHILL A","5060605","2020-03-02 07:00","2020","03","02","07:00","-18.5","","-21.4","","78","","","","30","","11","","16.1","","99.68","","","","-26","","Snow"
"-94.07","58.74","CHURCHILL A","5060605","2020-03-02 08:00","2020","03","02","08:00","-18.4","","-21.4","","78","","","","30","","16","","24.1","","99.67","","","","-27","","Snow"
"-94.07","58.74","CHURCHILL A","5060605","2020-03-02 09:00","2020","03","02","09:00","-18.3","","-21.1","","79","","","","29","","17","","24.1","","99.67","","","","-28","","Snow"
"-94.07","58.74","CHURCHILL A","5060605","2020-03-02 10:00","2020","03","02","10:00","-18.1","","-20.9","","79","","","","29","","13","","16.1","","99.65","","","","-26","","Snow"
"-94.07","58.74","CHURCHILL A","5060605","2020-03-02 11:00","2020","03","02","11:00","-17.8","","-20.6","","79","","","","29","","16","","16.1","","99.65","","","","-27","","Snow"
"-94.07","58.74","CHURCHILL A","5060605","2020-03-02 12:00","2020","03","02","12:00","-17.5","","-20.0","","81","","","","30","","18","","9.7","","99.65","","","","-27","","Snow"
"-94.07","58.74","CHURCHILL A","5060605","2020-03-02 13:00","2020","03","02","13:00","-15.9","","-19.1","","77","","","","35","","14","","9.7","","99.61","","","","-24","","Snow"
"-94.07","58.74","CHURCHILL A","5060605","2020-03-02 14:00","2020","03","02","14:00","-16.1","","-19.1","","78","","","","36","","16","","16.1","","99.61","","","","-25","","Snow"
"-94.07","58.74","CHURCHILL A","5060605","2020-03-02 15:00","2020","03","02","15:00","-16.6","","-19.4","","79","","","","36","","14","","24.1","","99.63","","","","-25","","Snow"
"-94.07","58.74","CHURCHILL A","5060605","2020-03-02 16:00","2020","03","02","16:00","-16.8","","-19.5","","80","","","","1","","12","","24.1","","99.64","","","","-24","","Snow"
"-94.07","58.74","CHURCHILL A","5060605","2020-03-02 17:00","2020","03","02","17:00","-16.9","","-19.4","","81","","","","1","","9","","24.1","","99.66","","","","-23","","Snow"
"-94.07","58.74","CHURCHILL A","5060605","2020-03-02 18:00","2020","03","02","18:00","-16.9","","-19.0","","84","","","","35","","5","","24.1","","99.68","","","","-21","","Snow"
"-94.07","58.74","CHURCHILL A","5060605","2020-03-02 19:00","2020","03","02","19:00","-17.0","","-19.4","","82","","","","1","","9","","24.1","","99.71","","","","-23","","Snow"
"-94.07","58.74","CHURCHILL A","5060605","2020-03-02 20:00","2020","03","02","20:00","-17.1","","-19.6","","81","","","","36","","8","","24.1","","99.73","","","","-23","","Snow"
"-94.07","58.74","CHURCHILL A","5060605","2020-03-02 21:00","2020","03","02","21:00","-17.3","","-19.1","","86","","","","1","","13","","24.1","","99.74","","","","-25","","Snow"
"-94.07","58.74","CHURCHILL A","5060605","2020-03-02 22:00","2020","03","02","22:00","-17.5","","-19.3","","86","","","","1","","10","","24.1","","99.74","","","","-24","","Snow"
"-94.07","58.74","CHURCHILL A","5060605","2020-03-02 23:00","2020","03","02","23:00","-20.6","","-22.8","","83","","","","27","","10","","12.9","","99.77","","","","-28","","Snow"
"-94.07","58.74","CHURCHILL A","5060605","2020-03-03 00:00","2020","03","03","00:00","-18.5","","-20.4","","85","","","","33","","11","","24.1","","99.78","","","","-26","","Snow"
"-94.07","58.74","CHURCHILL A","5060605","2020-03-03 01:00","2020","03","03","01:00","-18.8","","-20.9","","84","","","","35","","15","","24.1","","99.77","","","","-28","","Snow"
"-94.07","58.74","CHURCHILL A","5060605","2020-03-03 02:00","2020","03","03","02:00","-19.1","","-21.4","","82","","","","36","","17","","24.1","","99.78","","","","-29","","Snow"
"-94.07","58.74","CHURCHILL A","5060605","2020-03-03 03:00","2020","03","03","03:00","-20.1","","-22.3","","83","","","","2","","10","","24.1","","99.80","","","","-27","","Snow"
"-94.07","58.74","CHURCHILL A","5060605","2020-03-03 04:00","2020","03","03","04:00","-19.7","","-22.0","","82","","","","2","","9","","24.1","","99.80","","","","-26","","Snow"
"-94.07","58.74","CHURCHILL A","5060605","2020-03-03 05:00","2020","03","03","05:00","-19.4","","-21.6","","83","","","","36","","7","","4.8","","99.83","","","","-25","","Snow"
"-94.07","58.74","CHURCHILL A","5060605","2020-03-03 06:00","2020","03","03","06:00","-23.1","","-25.5","","81","","","","29","","11","","9.7","","99.91","","","","-31","","Snow"
"-94.07","58.74","CHURCHILL A","5060605","2020-03-03 07:00","2020","03","03","07:00","-21.9","","-24.2","","82","","","","29","","9","","6.4","","99.95","","","","-29","","Snow"
"-94.07","58.74","CHURCHILL A","5060605","2020-03-03 08:00","2020","03","03","08:00","-22.2","","-24.5","","82","","","","29","","9","","4.8","","99.98","","","","-29","","Snow"
"-94.07","58.74","CHURCHILL A","5060605","2020-03-03 09:00","2020","03","03","09:00","-22.1","","-24.5","","81","","","","28","","8","","8.1","","100.03","","","","-29","","Ice Crystals"
"-94.07","58.74","CHURCHILL A","5060605","2020-03-03 10:00","2020","03","03","10:00","-22.6","","-25.0","","81","","","","28","","9","","4.8","","100.07","","","","-30","","Ice Crystals"
"-94.07","58.74","CHURCHILL A","5060605","2020-03-03 11:00","2020","03","03","11:00","-21.9","","-24.6","","79","","","","30","","13","","19.3","","100.13","","","","-31","","Ice Crystals"
"-94.07","58.74","CHURCHILL A","5060605","2020-03-03 12:00","2020","03","03","12:00","-21.4","","-24.0","","80","","","","32","","19","","19.3","","100.15","","","","-32","","Ice Crystals"
"-94.07","58.74","CHURCHILL A","5060605","2020-03-03 13:00","2020","03","03","13:00","-21.1","","-23.8","","79","","","","31","","14","","19.3","","100.20","","","","-30","","Ice Crystals"
"-94.07","58.74","CHURCHILL A","5060605","2020-03-03 14:00","2020","03","03","14:00","-21.7","","-24.6","","78","","","","30","","14","","24.1","","100.29","","","","-31","","Ice Crystals"
"-94.07","58.74","CHURCHILL A","5060605","2020-03-03 15:00","2020","03","03","15:00","-21.9","","-24.8","","78","","","","30","","11","","24.1","","100.35","","","","-30","","Mainly Clear"
"-94.07","58.74","CHURCHILL A","5060605","2020-03-03 16:00","2020","03","03","16:00","-22.3","","-25.2","","78","","","","29","","10","","24.1","","100.41","","","","-30","","Ice Crystals"
"-94.07","58.74","CHURCHILL A","5060605","2020-03-03 17:00","2020","03","03","17:00","-23.3","","-25.9","","80","","","","29","","10","","24.1","","100.48","","","","-31","","Ice Crystals"
"-94.07","58.74","CHURCHILL A","5060605","2020-03-03 18:00","2020","03","03","18:00","-24.6","","-27.1","","80","","","","29","","10","","24.1","","100.53","","","","-33","","Ice Crystals"
"-94.07","58.74","CHURCHILL A","5060605","2020-03-03 19:00","2020","03","03","19:00","-25.4","","-27.9","","80","","","","30","","10","","24.1","","100.58","","","","-34","","NA"
"-94.07","58.74","CHURCHILL A","5060605","2020-03-03 20:00","2020","03","03","20:00","-26.0","","-28.4","","81","","","","29","","12","","24.1","","100.62","","","","-35","","NA"
"-94.07","58.74","CHURCHILL A","5060605","2020-03-03 21:00","2020","03","03","21:00","-26.6","","-29.2","","79","","","","31","","12","","24.1","","100.63","","","","-36","","Clear"
"-94.07","58.74","CHURCHILL A","5060605","2020-03-03 22:00","2020","03","03","22:00","-27.0","","-29.5","","80","","","","30","","12","","24.1","","100.66","","","","-37","","NA"
"-94.07","58.74","CHURCHILL A","5060605","2020-03-03 23:00","2020","03","03","23:00","-27.1","","-29.7","","79","","","","26","","10","","24.1","","100.69","","","","-36","","NA"
"-94.07","58.74","CHURCHILL A","5060605","2020-03-04 00:00","2020","03","04","00:00","-27.8","","-30.5","","78","","","","29","","11","","24.1","","100.73","","","","-37","","Mainly Clear"
"-94.07","58.74","CHURCHILL A","5060605","2020-03-04 01:00","2020","03","04","01:00","-27.4","","-30.1","","79","","","","28","","12","","24.1","","100.77","","","","-37","","NA"
"-94.07","58.74","CHURCHILL A","5060605","2020-03-04 02:00","2020","03","04","02:00","-26.0","","-28.6","","79","","","","26","","8","","24.1","","100.81","","","","-33","","NA"
"-94.07","58.74","CHURCHILL A","5060605","2020-03-04 03:00","2020","03","04","03:00","-25.2","","-27.9","","79","","","","27","","9","","24.1","","100.87","","","","-33","","Cloudy"
"-94.07","58.74","CHURCHILL A","5060605","2020-03-04 04:00","2020","03","04","04:00","-24.9","","-27.4","","80","","","","29","","11","","24.1","","100.89","","","","-34","","Snow"
"-94.07","58.74","CHURCHILL A","5060605","2020-03-04 05:00","2020","03","04","05:00","-25.7","","-28.3","","79","","","","28","","12","","24.1","","100.95","","","","-35","","Snow"
"-94.07","58.74","CHURCHILL A","5060605","2020-03-04 06:00","2020","03","04","06:00","-26.7","","-29.5","","78","","","","29","","11","","24.1","","100.99","","","","-36","","Snow"
"-94.07","58.74","CHURCHILL A","5060605","2020-03-04 07:00","2020","03","04","07:00","-27.0","","-29.6","","79","","","","33","","13","","24.1","","101.02","","","","-37","","NA"
"-94.07","58.74","CHURCHILL A","5060605","2020-03-04 08:00","2020","03","04","08:00","-26.5","","-29.3","","78","","","","22","","8","","24.1","","101.09","","","","-34","","NA"
"-94.07","58.74","CHURCHILL A","5060605","2020-03-04 09:00","2020","03","04","09:00","-25.7","","-28.3","","79","","","","32","","4","","24.1","","101.10","","","","-30","","Mostly Cloudy"
"-94.07","58.74","CHURCHILL A","5060605","2020-03-04 10:00","2020","03","04","10:00","-23.3","","-26.9","","73","","","","36","","2","","24.1","","101.16","","","","-25","","NA"
"-94.07","58.74","CHURCHILL A","5060605","2020-03-04 11:00","2020","03","04","11:00","-21.8","","-26.1","","69","","","","15","","4","","24.1","","101.18","","","","-25","","NA"
"-94.07","58.74","CHURCHILL A","5060605","2020-03-04 12:00","2020","03","04","12:00","-19.9","","-23.4","","74","","","","13","","5","","24.1","","101.20","","","","-24","","Mostly Cloudy"
"-94.07","58.74","CHURCHILL A","5060605","2020-03-04 13:00","2020","03","04","13:00","-19.5","","-23.4","","72","","","","5","","4","","24.1","","101.24","","","","-23","","NA"
"-94.07","58.74","CHURCHILL A","5060605","2020-03-04 14:00","2020","03","04","14:00","-19.7","","-23.4","","73","","","","7","","11","","24.1","","101.28","","","","-27","","NA"
"-94.07","58.74","CHURCHILL A","5060605","2020-03-04 15:00","2020","03","04","15:00","-20.0","","-23.4","","75","","","","8","","13","","24.1","","101.30","","","","-28","","Mainly Clear"
"-94.07","58.74","CHURCHILL A","5060605","2020-03-04 16:00","2020","03","04","16:00","-20.5","","-24.0","","74","","","","9","","17","","24.1","","101.27","","","","-30","","NA"
"-94.07","58.74","CHURCHILL A","5060605","2020-03-04 17:00","2020","03","04","17:00","-20.9","","-24.2","","75","","","","10","","16","","24.1","","101.30","","","","-31","","NA"
"-94.07","58.74","CHURCHILL A","5060605","2020-03-04 18:00","2020","03","04","18:00","-22.0","","-25.3","","75","","","","11","","15","","24.1","","101.37","","","","-32","","Mainly Clear"
"-94.07","58.74","CHURCHILL A","5060605","2020-03-04 19:00","2020","03","04","19:00","-23.5","","-26.8","","75","","","","14","","13","","24.1","","101.43","","","","-33","","NA"
"-94.07","58.74","CHURCHILL A","5060605","2020-03-04 20:00","2020","03","04","20:00","-23.4","","-26.5","","76","","","","15","","17","","24.1","","101.48","","","","-34","","NA"
"-94.07","58.74","CHURCHILL A","5060605","2020-03-04 21:00","2020","03","04","21:00","-23.4","","-25.7","","82","","","","15","","19","","24.1","","101.50","","","","-34","","Mostly Cloudy"
"-94.07","58.74","CHURCHILL A","5060605","2020-03-04 22:00","2020","03","04","22:00","-22.8","","-24.9","","83","","","","14","","17","","24.1","","101.53","","","","-33","","NA"
"-94.07","58.74","CHURCHILL A","5060605","2020-03-04 23:00","2020","03","04","23:00","-20.4","","-22.9","","81","","","","17","","25","","24.1","","101.52","","","","-32","","NA"
"-94.07","58.74","CHURCHILL A","5060605","2020-03-05 00:00","2020","03","05","00:00","-19.8","","-22.4","","80","","","","17","","20","","24.1","","101.54","","","","-30","","Cloudy"
"-94.07","58.74","CHURCHILL A","5060605","2020-03-05 01:00","2020","03","05","01:00","-19.0","","-21.2","","83","","","","18","","16","","24.1","","101.55","","","","-28","","NA"
"-94.07","58.74","CHURCHILL A","5060605","2020-03-05 02:00","2020","03","05","02:00","-17.8","","-19.9","","84","","","","17","","24","","24.1","","101.54","","","","-29","","NA"
"-94.07","58.74","CHURCHILL A","5060605","2020-03-05 03:00","2020","03","05","03:00","-16.9","","-19.4","","81","","","","18","","24","","24.1","","101.54","","","","-27","","Cloudy"
"-94.07","58.74","CHURCHILL A","5060605","2020-03-05 04:00","2020","03","05","04:00","-16.7","","-19.7","","78","","","","18","","19","","24.1","","101.55","","","","-26","","NA"
"-94.07","58.74","CHURCHILL A","5060605","2020-03-05 05:00","2020","03","05","05:00","-16.1","","-19.6","","75","","","","18","","22","","24.1","","101.54","","","","-26","","NA"
"-94.07","58.74","CHURCHILL A","5060605","2020-03-05 06:00","2020","03","05","06:00","-16.5","","-19.3","","79","","","","18","","22","","6.4","","101.57","","","","-27","","Snow"
"-94.07","58.74","CHURCHILL A","5060605","2020-03-05 07:00","2020","03","05","07:00","-16.6","","-18.7","","84","","","","19","","19","","3.2","","101.56","","","","-26","","Snow"
"-94.07","58.74","CHURCHILL A","5060605","2020-03-05 08:00","2020","03","05","08:00","-16.1","","-18.1","","85","","","","19","","14","","24.1","","101.58","","","","-24","","NA"
"-94.07","58.74","CHURCHILL A","5060605","2020-03-05 09:00","2020","03","05","09:00","-14.5","","-16.6","","84","","","","20","","15","","24.1","","101.62","","","","-22","","Snow"
"-94.07","58.74","CHURCHILL A","5060605","2020-03-05 10:00","2020","03","05","10:00","-12.7","","-15.2","","82","","","","22","","13","","24.1","","101.65","","","","-20","","Snow"
"-94.07","58.74","CHURCHILL A","5060605","2020-03-05 11:00","2020","03","05","11:00","-11.1","","-13.8","","81","","","","23","","13","","9.7","","101.67","","","","-18","","Snow"
"-94.07","58.74","CHURCHILL A","5060605","2020-03-05 12:00","2020","03","05","12:00","-9.6","","-12.3","","81","","","","26","","13","","9.7","","101.71","","","","-16","","Snow"
"-94.07","58.74","CHURCHILL A","5060605","2020-03-05 13:00","2020","03","05","13:00","-10.7","","-12.9","","84","","","","31","","25","","9.7","","101.79","","","","-20","","Snow"
"-94.07","58.74","CHURCHILL A","5060605","2020-03-05 14:00","2020","03","05","14:00","-10.6","","-13.5","","80","","","","34","","27","","19.3","","101.86","","","","-20","","NA"
"-94.07","58.74","CHURCHILL A","5060605","2020-03-05 15:00","2020","03","05","15:00","-10.9","","-13.9","","79","","","","31","","17","","19.3","","101.91","","","","-18","","Snow"
"-94.07","58.74","CHURCHILL A","5060605","2020-03-05 16:00","2020","03","05","16:00","-12.4","","-15.3","","79","","","","31","","15","","24.1","","101.95","","","","-20","","NA"
"-94.07","58.74","CHURCHILL A","5060605","2020-03-05 17:00","2020","03","05","17:00","-11.3","","-15.2","","73","","","","34","","26","","24.1","","102.01","","","","-21","","NA"
"-94.07","58.74","CHURCHILL A","5060605","2020-03-05 18:00","2020","03","05","18:00","-11.5","","-14.9","","76","","","","34","","23","","24.1","","102.04","","","","-20","","Snow"
"-94.07","58.74","CHURCHILL A","5060605","2020-03-05 19:00","2020","03","05","19:00","-12.4","","-14.6","","84","","","","1","","13","","24.1","","102.07","","","","-19","","Snow"
"-94.07","58.74","CHURCHILL A","5060605","2020-03-05 20:00","2020","03","05","20:00","-12.8","","-14.7","","86","","","","35","","12","","24.1","","102.14","","","","-19","","Snow"
"-94.07","58.74","CHURCHILL A","5060605","2020-03-05 21:00","2020","03","05","21:00","-13.5","","-15.5","","85","","","","36","","16","","24.1","","102.15","","","","-21","","Snow"
"-94.07","58.74","CHURCHILL A","5060605","2020-03-05 22:00","2020","03","05","22:00","-14.5","","-18.0","","75","","","","35","","21","","24.1","","102.18","","","","-24","","Snow"
"-94.07","58.74","CHURCHILL A","5060605","2020-03-05 23:00","2020","03","05","23:00","-15.0","","-18.1","","77","","","","35","","18","","24.1","","102.16","","","","-24","","Snow"
"-94.07","58.74","CHURCHILL A","5060605","2020-03-06 00:00","2020","03","06","00:00","-16.1","","-18.9","","79","","","","34","","14","","24.1","","102.21","","","","-24","","Snow"
"-94.07","58.74","CHURCHILL A","5060605","2020-03-06 01:00","2020","03","06","01:00","-18.5","","-21.4","","78","","","","35","","16","","24.1","","102.20","","","","-28","","Snow"
"-94.07","58.74","CHURCHILL A","5060605","2020-03-06 02:00","2020","03","06","02:00","-20.6","","-23.4","","79","","","","35","","14","","24.1","","102.20","","","","-29","","NA"
"-94.07","58.74","CHURCHILL A","5060605","2020-03-06 03:00","2020","03","06","03:00","-20.0","","-22.8","","79","","","","35","","11","","24.1","","102.18","","","","-28","","Cloudy"
"-94.07","58.74","CHURCHILL A","5060605","2020-03-06 04:00","2020","03","06","04:00","-19.8","","-23.0","","76","","","","2","","8","","24.1","","102.16","","","","-26","","NA"
"-94.07","58.74","CHURCHILL A","5060605","2020-03-06 05:00","2020","03","06","05:00","-19.7","","-22.5","","79","","","","5","","13","","4.8","","102.08","","","","-28","","Snow"
"-94.07","58.74","CHURCHILL A","5060605","2020-03-06 06:00","2020","03","06","06:00","-19.5","","-22.0","","81","","","","8","","13","","4.8","","102.01","","","","-28","","Snow"
"-94.07","58.74","CHURCHILL A","5060605","2020-03-06 07:00","2020","03","06","07:00","-19.2","","-21.5","","82","","","","9","","8","","2.4","","102.03","","","","-25","","Snow"
"-94.07","58.74","CHURCHILL A","5060605","2020-03-06 08:00","2020","03","06","08:00","-18.9","","-21.2","","82","","","","11","","15","","3.2","","101.83","","","","-28","","Snow"
"-94.07","58.74","CHURCHILL A","5060605","2020-03-06 09:00","2020","03","06","09:00","-18.3","","-20.7","","82","","","","10","","13","","2.4","","101.73","","","","-26","","Snow"
"-94.07","58.74","CHURCHILL A","5060605","2020-03-06 10:00","2020","03","06","10:00","-17.8","","-19.9","","84","","","","9","","17","","0.6","","101.61","","","","-27","","Moderate Snow"
"-94.07","58.74","CHURCHILL A","5060605","2020-03-06 11:00","2020","03","06","11:00","-17.3","","-19.7","","82","","","","8","","28","","3.2","","101.46","","","","-29","","Snow"
"-94.07","58.74","CHURCHILL A","5060605","2020-03-06 12:00","2020","03","06","12:00","-16.7","","-19.1","","82","","","","9","","30","","9.7","","101.25","","","","-28","","Snow"
"-94.07","58.74","CHURCHILL A","5060605","2020-03-06 13:00","2020","03","06","13:00","-15.8","","-18.2","","82","","","","10","","25","","9.7","","101.11","","","","-26","","Snow"
"-94.07","58.74","CHURCHILL A","5060605","2020-03-06 14:00","2020","03","06","14:00","-15.3","","-17.6","","83","","","","7","","23","","9.7","","101.01","","","","-25","","Snow"
"-94.07","58.74","CHURCHILL A","5060605","2020-03-06 15:00","2020","03","06","15:00","-15.3","","-17.3","","85","","","","5","","30","","9.7","","100.88","","","","-26","","Snow"
"-94.07","58.74","CHURCHILL A","5060605","2020-03-06 16:00","2020","03","06","16:00","-16.4","","-18.4","","85","","","","6","","33","","4.8","","100.79","","","","-28","","Snow,Blowing Snow"
"-94.07","58.74","CHURCHILL A","5060605","2020-03-06 17:00","2020","03","06","17:00","-16.9","","-19.0","","84","","","","5","","37","","1.2","","100.71","","","","-30","","Snow,Blowing Snow"
"-94.07","58.74","CHURCHILL A","5060605","2020-03-06 18:00","2020","03","06","18:00","-17.5","","-19.6","","84","","","","4","","36","","0.8","","100.72","","","","-30","","Snow,Blowing Snow"
"-94.07","58.74","CHURCHILL A","5060605","2020-03-06 19:00","2020","03","06","19:00","-17.6","","-19.7","","84","","","","3","","29","","1.2","","100.74","","","","-29","","Snow,Blowing Snow"
"-94.07","58.74","CHURCHILL A","5060605","2020-03-06 20:00","2020","03","06","20:00","-18.5","","-20.7","","83","","","","2","","45","","1.2","","100.71","","","","-33","","Snow,Blowing Snow"
"-94.07","58.74","CHURCHILL A","5060605","2020-03-06 21:00","2020","03","06","21:00","-19.3","","-21.6","","82","","","","2","","49","","0.6","","100.77","","","","-34","","Snow,Blowing Snow"
"-94.07","58.74","CHURCHILL A","5060605","2020-03-06 22:00","2020","03","06","22:00","-19.8","","-22.1","","82","","","","1","","46","","0.8","","100.93","","","","-35","","Snow,Blowing Snow"
"-94.07","58.74","CHURCHILL A","5060605","2020-03-06 23:00","2020","03","06","23:00","-21.3","","-23.9","","80","","","","36","","52","","0.8","","101.09","","","","-37","","Snow,Blowing Snow"
"-94.07","58.74","CHURCHILL A","5060605","2020-03-07 00:00","2020","03","07","00:00","-23.8","","-26.5","","79","","","","35","","52","","0.8","","101.30","","","","-41","","Snow,Blowing Snow"
"-94.07","58.74","CHURCHILL A","5060605","2020-03-07 01:00","2020","03","07","01:00","-26.3","","-29.2","","77","","","","35","","45","","0.8","","101.53","","","","-43","","Snow,Blowing Snow"
"-94.07","58.74","CHURCHILL A","5060605","2020-03-07 02:00","2020","03","07","02:00","-27.4","","-30.4","","76","","","","35","","45","","1.2","","101.72","","","","-45","","Snow,Blowing Snow"
"-94.07","58.74","CHURCHILL A","5060605","2020-03-07 03:00","2020","03","07","03:00","-28.7","","-31.8","","75","","","","35","","46","","1.2","","101.90","","","","-47","","Snow,Blowing Snow"
"-94.07","58.74","CHURCHILL A","5060605","2020-03-07 04:00","2020","03","07","04:00","-30.2","","-33.4","","74","","","","34","","35","","1.6","","102.08","","","","-47","","Blowing Snow"
"-94.07","58.74","CHURCHILL A","5060605","2020-03-07 05:00","2020","03","07","05:00","-30.7","","-33.9","","74","","","","34","","43","","4.0","","102.20","","","","-49","","Blowing Snow"
"-94.07","58.74","CHURCHILL A","5060605","2020-03-07 06:00","2020","03","07","06:00","-31.5","","-34.9","","73","","","","34","","34","","2.4","","102.37","","","","-48","","Ice Crystals,Blowing Snow"
"-94.07","58.74","CHURCHILL A","5060605","2020-03-07 07:00","2020","03","07","07:00","-32.4","","-35.9","","72","","","","34","","32","","2.4","","102.49","","","","-49","","Ice Crystals,Blowing Snow"
"-94.07","58.74","CHURCHILL A","5060605","2020-03-07 08:00","2020","03","07","08:00","-32.8","","-36.4","","71","","","","35","","40","","2.4","","102.57","","","","-51","","Ice Crystals,Blowing Snow"
"-94.07","58.74","CHURCHILL A","5060605","2020-03-07 09:00","2020","03","07","09:00","-33.3","","-37.0","","70","","","","34","","40","","1.6","","102.67","","","","-52","","Ice Crystals,Blowing Snow"
"-94.07","58.74","CHURCHILL A","5060605","2020-03-07 10:00","2020","03","07","10:00","-33.2","","-37.2","","68","","","","34","","33","","2.4","","102.78","","","","-50","","Ice Crystals,Blowing Snow"
"-94.07","58.74","CHURCHILL A","5060605","2020-03-07 11:00","2020","03","07","11:00","-32.4","","-36.3","","69","","","","32","","35","","2.4","","102.93","","","","-50","","Ice Crystals,Blowing Snow"
"-94.07","58.74","CHURCHILL A","5060605","2020-03-07 12:00","2020","03","07","12:00","-32.8","","-37.0","","67","","","","31","","32","","4.8","","103.01","","","","-50","","Ice Crystals,Blowing Snow"
"-94.07","58.74","CHURCHILL A","5060605","2020-03-07 13:00","2020","03","07","13:00","-32.4","","-36.8","","66","","","","31","","32","","6.4","","103.06","","","","-49","","Ice Crystals,Blowing Snow"
"-94.07","58.74","CHURCHILL A","5060605","2020-03-07 14:00","2020","03","07","14:00","-31.8","","-36.0","","67","","","","30","","27","","9.7","","103.10","","","","-47","","Ice Crystals,Blowing Snow"
"-94.07","58.74","CHURCHILL A","5060605","2020-03-07 15:00","2020","03","07","15:00","-31.1","","-35.5","","66","","","","32","","26","","19.3","","103.12","","","","-46","","Ice Crystals,Blowing Snow"
"-94.07","58.74","CHURCHILL A","5060605","2020-03-07 16:00","2020","03","07","16:00","-30.8","","-35.2","","66","","","","31","","27","","24.1","","103.19","","","","-46","","Ice Crystals,Blowing Snow"
"-94.07","58.74","CHURCHILL A","5060605","2020-03-07 17:00","2020","03","07","17:00","-31.2","","-35.5","","67","","","","31","","26","","24.1","","103.22","","","","-46","","Ice Crystals,Blowing Snow"
"-94.07","58.74","CHURCHILL A","5060605","2020-03-07 18:00","2020","03","07","18:00","-31.7","","-35.9","","67","","","","30","","21","","24.1","","103.25","","","","-46","","Ice Crystals,Blowing Snow"
"-94.07","58.74","CHURCHILL A","5060605","2020-03-07 19:00","2020","03","07","19:00","-32.6","","-36.5","","69","","","","29","","16","","24.1","","103.29","","","","-45","","Ice Crystals,Blowing Snow"
"-94.07","58.74","CHURCHILL A","5060605","2020-03-07 20:00","2020","03","07","20:00","-33.0","","-36.9","","69","","","","31","","16","","24.1","","103.28","","","","-45","","Ice Crystals,Blowing Snow"
"-94.07","58.74","CHURCHILL A","5060605","2020-03-07 21:00","2020","03","07","21:00","-33.5","","-37.4","","69","","","","30","","14","","24.1","","103.30","","","","-45","","Ice Crystals,Blowing Snow"
"-94.07","58.74","CHURCHILL A","5060605","2020-03-07 22:00","2020","03","07","22:00","-33.5","","-37.1","","71","","","","31","","13","","24.1","","103.29","","","","-45","","Ice Crystals,Blowing Snow"
"-94.07","58.74","CHURCHILL A","5060605","2020-03-07 23:00","2020","03","07","23:00","-34.8","","-38.2","","72","","","","28","","13","","24.1","","103.35","","","","-46","","Ice Crystals,Blowing Snow"
"-94.07","58.74","CHURCHILL A","5060605","2020-03-08 00:00","2020","03","08","00:00","-35.0","","-38.7","","70","","","","30","","16","","24.1","","103.37","","","","-48","","Ice Crystals"
"-94.07","58.74","CHURCHILL A","5060605","2020-03-08 01:00","2020","03","08","01:00","-35.2","","-38.7","","71","","","","30","","13","","24.1","","103.37","","","","-47","","Ice Crystals"
"-94.07","58.74","CHURCHILL A","5060605","2020-03-08 02:00","2020","03","08","02:00","-35.7","","-39.4","","70","","","","30","","13","","24.1","","103.43","","","","-48","","Ice Crystals"
"-94.07","58.74","CHURCHILL A","5060605","2020-03-08 03:00","2020","03","08","03:00","-36.4","","-40.0","","70","","","","29","","9","","24.1","","103.48","","","","-46","","Ice Crystals"
"-94.07","58.74","CHURCHILL A","5060605","2020-03-08 04:00","2020","03","08","04:00","-37.1","","-40.7","","70","","","","29","","10","","24.1","","103.48","","","","-48","","Ice Crystals"
"-94.07","58.74","CHURCHILL A","5060605","2020-03-08 05:00","2020","03","08","05:00","-37.0","","-40.6","","70","","","","31","","14","","24.1","","103.45","","","","-50","","Ice Crystals"
"-94.07","58.74","CHURCHILL A","5060605","2020-03-08 06:00","2020","03","08","06:00","-36.7","","-40.0","","72","","","","33","","16","","24.1","","103.44","","","","-50","","Ice Crystals"
"-94.07","58.74","CHURCHILL A","5060605","2020-03-08 07:00","2020","03","08","07:00","-35.8","","-38.9","","74","","","","32","","13","","24.1","","103.38","","","","-48","","Ice Crystals"
"-94.07","58.74","CHURCHILL A","5060605","2020-03-08 08:00","2020","03","08","08:00","-36.6","","-39.9","","72","","","","27","","5","","24.1","","103.43","","","","-43","","Ice Crystals"
"-94.07","58.74","CHURCHILL A","5060605","2020-03-08 09:00","2020","03","08","09:00","-35.3","","-38.8","","71","","","","27","","9","","24.1","","103.49","","","","-45","","Ice Crystals"
"-94.07","58.74","CHURCHILL A","5060605","2020-03-08 10:00","2020","03","08","10:00","-34.5","","-38.3","","69","","","","30","","16","","24.1","","103.50","","","","-47","","Ice Crystals"
"-94.07","58.74","CHURCHILL A","5060605","2020-03-08 11:00","2020","03","08","11:00","-33.0","","-36.6","","71","","","","30","","12","","24.1","","103.51","","","","-44","","Ice Crystals"
"-94.07","58.74","CHURCHILL A","5060605","2020-03-08 12:00","2020","03","08","12:00","-31.3","","-34.6","","73","","","","28","","14","","24.1","","103.55","","","","-43","","Ice Crystals"
"-94.07","58.74","CHURCHILL A","5060605","2020-03-08 13:00","2020","03","08","13:00","-30.7","","-33.9","","74","","","","32","","12","","24.1","","103.48","","","","-41","","Ice Crystals"
"-94.07","58.74","CHURCHILL A","5060605","2020-03-08 14:00","2020","03","08","14:00","-29.6","","-32.7","","75","","","","29","","10","","24.1","","103.44","","","","-39","","Ice Crystals"
"-94.07","58.74","CHURCHILL A","5060605","2020-03-08 15:00","2020","03","08","15:00","-28.9","","-32.0","","75","","","","28","","10","","24.1","","103.45","","","","-38","","Ice Crystals"
"-94.07","58.74","CHURCHILL A","5060605","2020-03-08 16:00","2020","03","08","16:00","-28.9","","-31.9","","76","","","","30","","6","","24.1","","103.42","","","","-35","","Ice Crystals"
"-94.07","58.74","CHURCHILL A","5060605","2020-03-08 17:00","2020","03","08","17:00","-28.6","","-31.4","","77","","","","3","","9","","24.1","","103.37","","","","-37","","Ice Crystals"
"-94.07","58.74","CHURCHILL A","5060605","2020-03-08 18:00","2020","03","08","18:00","-29.1","","-31.7","","79","","","","36","","2","","24.1","","103.34","","","","-31","","Ice Crystals"
"-94.07","58.74","CHURCHILL A","5060605","2020-03-08 19:00","2020","03","08","19:00","-30.4","","-32.9","","79","","","","36","","2","","24.1","","103.32","","","","-33","","Ice Crystals"
"-94.07","58.74","CHURCHILL A","5060605","2020-03-08 20:00","2020","03","08","20:00","-29.4","","-31.8","","80","","","","3","","10","","24.1","","103.26","","","","-38","","Ice Crystals"
"-94.07","58.74","CHURCHILL A","5060605","2020-03-08 21:00","2020","03","08","21:00","-30.7","","-33.3","","79","","","","36","","3","","24.1","","103.28","","","","-34","","Ice Crystals"
"-94.07","58.74","CHURCHILL A","5060605","2020-03-08 22:00","2020","03","08","22:00","-29.4","","-31.8","","80","","","","7","","4","","24.1","","103.27","","","","-34","","Ice Crystals"
"-94.07","58.74","CHURCHILL A","5060605","2020-03-08 23:00","2020","03","08","23:00","-28.3","","-31.0","","78","","","","8","","6","","24.1","","103.23","","","","-35","","Ice Crystals"
"-94.07","58.74","CHURCHILL A","5060605","2020-03-09 00:00","2020","03","09","00:00","-28.3","","-31.0","","78","","","","9","","8","","24.1","","103.20","","","","-36","","Clear"
"-94.07","58.74","CHURCHILL A","5060605","2020-03-09 01:00","2020","03","09","01:00","-29.0","","-31.9","","77","","","","10","","10","","24.1","","103.14","","","","-38","","NA"
"-94.07","58.74","CHURCHILL A","5060605","2020-03-09 02:00","2020","03","09","02:00","-29.8","","-32.8","","76","","","","11","","13","","24.1","","103.08","","","","-40","","NA"
"-94.07","58.74","CHURCHILL A","5060605","2020-03-09 03:00","2020","03","09","03:00","-30.5","","-33.6","","75","","","","11","","13","","24.1","","103.00","","","","-41","","Mainly Clear"
"-94.07","58.74","CHURCHILL A","5060605","2020-03-09 04:00","2020","03","09","04:00","-29.8","","-32.8","","76","","","","10","","13","","24.1","","102.92","","","","-40","","NA"
"-94.07","58.74","CHURCHILL A","5060605","2020-03-09 05:00","2020","03","09","05:00","-27.7","","-30.6","","77","","","","12","","13","","24.1","","102.87","","","","-38","","NA"
"-94.07","58.74","CHURCHILL A","5060605","2020-03-09 06:00","2020","03","09","06:00","-27.3","","-30.0","","78","","","","12","","13","","24.1","","102.81","","","","-37","","Cloudy"
"-94.07","58.74","CHURCHILL A","5060605","2020-03-09 07:00","2020","03","09","07:00","-26.7","","-29.5","","78","","","","12","","16","","24.1","","102.75","","","","-38","","NA"
"-94.07","58.74","CHURCHILL A","5060605","2020-03-09 08:00","2020","03","09","08:00","-25.8","","-28.4","","79","","","","12","","16","","16.1","","102.70","","","","-37","","NA"
"-94.07","58.74","CHURCHILL A","5060605","2020-03-09 09:00","2020","03","09","09:00","-24.2","","-26.7","","80","","","","13","","18","","19.3","","102.64","","","","-35","","Cloudy"
"-94.07","58.74","CHURCHILL A","5060605","2020-03-09 10:00","2020","03","09","10:00","-23.1","","-25.6","","80","","","","14","","23","","9.7","","102.60","","","","-35","","Snow"
"-94.07","58.74","CHURCHILL A","5060605","2020-03-09 11:00","2020","03","09","11:00","-21.9","","-24.3","","81","","","","14","","23","","12.9","","102.54","","","","-34","","Ice Crystals,Blowing Snow"
"-94.07","58.74","CHURCHILL A","5060605","2020-03-09 12:00","2020","03","09","12:00","-21.3","","-23.6","","82","","","","14","","22","","9.7","","102.44","","","","-33","","Ice Crystals,Blowing Snow"
"-94.07","58.74","CHURCHILL A","5060605","2020-03-09 13:00","2020","03","09","13:00","-20.5","","-22.8","","82","","","","13","","25","","12.9","","102.35","","","","-32","","Ice Crystals,Blowing Snow"
"-94.07","58.74","CHURCHILL A","5060605","2020-03-09 14:00","2020","03","09","14:00","-20.2","","-22.7","","81","","","","12","","23","","12.9","","102.28","","","","-31","","Ice Crystals,Blowing Snow"
"-94.07","58.74","CHURCHILL A","5060605","2020-03-09 15:00","2020","03","09","15:00","-20.6","","-23.2","","80","","","","10","","21","","24.1","","102.24","","","","-31","","Blowing Snow"
"-94.07","58.74","CHURCHILL A","5060605","2020-03-09 16:00","2020","03","09","16:00","-20.6","","-23.5","","78","","","","12","","23","","24.1","","102.19","","","","-32","","Blowing Snow"
"-94.07","58.74","CHURCHILL A","5060605","2020-03-09 17:00","2020","03","09","17:00","-21.2","","-24.1","","78","","","","12","","17","","24.1","","102.18","","","","-31","","NA"
"-94.07","58.74","CHURCHILL A","5060605","2020-03-09 18:00","2020","03","09","18:00","-22.5","","-25.2","","79","","","","13","","15","","24.1","","102.20","","","","-32","","Mainly Clear"
"-94.07","58.74","CHURCHILL A","5060605","2020-03-09 19:00","2020","03","09","19:00","-24.0","","-26.4","","81","","","","11","","15","","24.1","","102.20","","","","-34","","Blowing Snow"
"-94.07","58.74","CHURCHILL A","5060605","2020-03-09 20:00","2020","03","09","20:00","-25.8","","-28.2","","81","","","","10","","13","","24.1","","102.19","","","","-35","","Blowing Snow"
"-94.07","58.74","CHURCHILL A","5060605","2020-03-09 21:00","2020","03","09","21:00","-26.4","","-28.8","","81","","","","10","","12","","24.1","","102.18","","","","-36","","Blowing Snow"
"-94.07","58.74","CHURCHILL A","5060605","2020-03-09 22:00","2020","03","09","22:00","-26.3","","-28.6","","81","","","","11","","12","","24.1","","102.20","","","","-36","","Blowing Snow"
"-94.07","58.74","CHURCHILL A","5060605","2020-03-09 23:00","2020","03","09","23:00","-26.1","","-28.3","","82","","","","11","","13","","24.1","","102.17","","","","-36","","NA"
"-94.07","58.74","CHURCHILL A","5060605","2020-03-10 00:00","2020","03","10","00:00","-25.8","","-28.0","","82","","","","12","","14","","24.1","","102.15","","","","-36","","Clear"
"-94.07","58.74","CHURCHILL A","5060605","2020-03-10 01:00","2020","03","10","01:00","-26.1","","-28.4","","81","","","","12","","14","","24.1","","102.13","","","","-36","","NA"
"-94.07","58.74","CHURCHILL A","5060605","2020-03-10 02:00","2020","03","10","02:00","-25.8","","-28.2","","81","","","","13","","13","","24.1","","102.12","","","","-35","","NA"
"-94.07","58.74","CHURCHILL A","5060605","2020-03-10 03:00","2020","03","10","03:00","-26.4","","-28.9","","80","","","","13","","11","","24.1","","102.12","","","","-35","","Clear"
"-94.07","58.74","CHURCHILL A","5060605","2020-03-10 04:00","2020","03","10","04:00","-27.3","","-29.8","","80","","","","22","","5","","24.1","","102.14","","","","-33","","NA"
"-94.07","58.74","CHURCHILL A","5060605","2020-03-10 05:00","2020","03","10","05:00","-26.5","","-29.0","","80","","","","21","","5","","24.1","","102.11","","","","-32","","NA"
"-94.07","58.74","CHURCHILL A","5060605","2020-03-10 06:00","2020","03","10","06:00","-26.7","","-29.3","","79","","","","19","","7","","24.1","","102.08","","","","-33","","Clear"
"-94.07","58.74","CHURCHILL A","5060605","2020-03-10 07:00","2020","03","10","07:00","-26.8","","-29.4","","79","","","","15","","11","","3.2","","102.07","","","","-36","","Fog"
"-94.07","58.74","CHURCHILL A","5060605","2020-03-10 08:00","2020","03","10","08:00","-27.5","","-30.2","","78","","","","17","","13","","3.2","","102.08","","","","-38","","Fog"
"-94.07","58.74","CHURCHILL A","5060605","2020-03-10 09:00","2020","03","10","09:00","-26.5","","-29.2","","79","","","","19","","9","","3.6","","102.07","","","","-34","","Fog"
"-94.07","58.74","CHURCHILL A","5060605","2020-03-10 10:00","2020","03","10","10:00","-24.6","","-27.1","","80","","","","17","","11","","24.1","","102.06","","","","-33","","NA"
"-94.07","58.74","CHURCHILL A","5060605","2020-03-10 11:00","2020","03","10","11:00","-22.4","","-24.8","","81","","","","17","","10","","24.1","","101.97","","","","-30","","Ice Crystals"
"-94.07","58.74","CHURCHILL A","5060605","2020-03-10 12:00","2020","03","10","12:00","-20.0","","-22.2","","83","","","","19","","14","","24.1","","101.96","","","","-29","","Ice Crystals"
"-94.07","58.74","CHURCHILL A","5060605","2020-03-10 13:00","2020","03","10","13:00","-19.4","","-21.6","","83","","","","18","","17","","24.1","","101.91","","","","-29","","Ice Crystals"
"-94.07","58.74","CHURCHILL A","5060605","2020-03-10 14:00","2020","03","10","14:00","-19.3","","-21.5","","83","","","","17","","16","","24.1","","101.87","","","","-29","","Ice Crystals"
"-94.07","58.74","CHURCHILL A","5060605","2020-03-10 15:00","2020","03","10","15:00","-19.2","","-21.4","","83","","","","19","","16","","24.1","","101.83","","","","-28","","Ice Crystals"
"-94.07","58.74","CHURCHILL A","5060605","2020-03-10 16:00","2020","03","10","16:00","-19.4","","-21.7","","82","","","","16","","14","","24.1","","101.79","","","","-28","","Ice Crystals"
"-94.07","58.74","CHURCHILL A","5060605","2020-03-10 17:00","2020","03","10","17:00","-20.1","","-22.6","","81","","","","16","","19","","24.1","","101.76","","","","-30","","Ice Crystals"
"-94.07","58.74","CHURCHILL A","5060605","2020-03-10 18:00","2020","03","10","18:00","-21.8","","-24.4","","80","","","","15","","18","","24.1","","101.75","","","","-32","","Ice Crystals"
"-94.07","58.74","CHURCHILL A","5060605","2020-03-10 19:00","2020","03","10","19:00","-23.3","","-25.9","","80","","","","15","","17","","24.1","","101.70","","","","-34","","Ice Crystals"
"-94.07","58.74","CHURCHILL A","5060605","2020-03-10 20:00","2020","03","10","20:00","-23.5","","-25.9","","81","","","","15","","18","","24.1","","101.66","","","","-34","","Ice Crystals"
"-94.07","58.74","CHURCHILL A","5060605","2020-03-10 21:00","2020","03","10","21:00","-23.6","","-26.1","","80","","","","16","","20","","24.1","","101.65","","","","-35","","Ice Crystals"
"-94.07","58.74","CHURCHILL A","5060605","2020-03-10 22:00","2020","03","10","22:00","-24.3","","-26.8","","80","","","","16","","21","","24.1","","101.62","","","","-36","","Ice Crystals"
"-94.07","58.74","CHURCHILL A","5060605","2020-03-10 23:00","2020","03","10","23:00","-24.7","","-27.4","","79","","","","16","","20","","24.1","","101.56","","","","-36","","Ice Crystals"
"-94.07","58.74","CHURCHILL A","5060605","2020-03-11 00:00","2020","03","11","00:00","-25.3","","-27.9","","79","","","","16","","19","","24.1","","101.53","","","","-37","","Ice Crystals"
"-94.07","58.74","CHURCHILL A","5060605","2020-03-11 01:00","2020","03","11","01:00","-25.6","","-28.2","","79","","","","16","","17","","24.1","","101.48","","","","-37","","Ice Crystals"
"-94.07","58.74","CHURCHILL A","5060605","2020-03-11 02:00","2020","03","11","02:00","-25.2","","-27.9","","79","","","","16","","17","","24.1","","101.48","","","","-36","","Ice Crystals"
"-94.07","58.74","CHURCHILL A","5060605","2020-03-11 03:00","2020","03","11","03:00","-25.1","","-27.9","","78","","","","17","","17","","24.1","","101.44","","","","-36","","Ice Crystals"
"-94.07","58.74","CHURCHILL A","5060605","2020-03-11 04:00","2020","03","11","04:00","-25.2","","-28.0","","78","","","","16","","18","","24.1","","101.39","","","","-36","","Ice Crystals"
"-94.07","58.74","CHURCHILL A","5060605","2020-03-11 05:00","2020","03","11","05:00","-25.2","","-28.1","","77","","","","15","","21","","24.1","","101.36","","","","-37","","Ice Crystals"
"-94.07","58.74","CHURCHILL A","5060605","2020-03-11 06:00","2020","03","11","06:00","-24.3","","-27.1","","78","","","","15","","21","","24.1","","101.29","","","","-36","","Ice Crystals"
"-94.07","58.74","CHURCHILL A","5060605","2020-03-11 07:00","2020","03","11","07:00","-23.0","","-26.0","","77","","","","16","","20","","24.1","","101.30","","","","-34","","Ice Crystals"
"-94.07","58.74","CHURCHILL A","5060605","2020-03-11 08:00","2020","03","11","08:00","-22.3","","-25.5","","76","","","","15","","20","","24.1","","101.30","","","","-33","","Ice Crystals"
"-94.07","58.74","CHURCHILL A","5060605","2020-03-11 09:00","2020","03","11","09:00","-20.5","","-24.6","","70","","","","14","","24","","24.1","","101.25","","","","-32","","Ice Crystals"
"-94.07","58.74","CHURCHILL A","5060605","2020-03-11 10:00","2020","03","11","10:00","-18.4","","-23.3","","66","","","","16","","22","","24.1","","101.26","","","","-29","","Ice Crystals"
"-94.07","58.74","CHURCHILL A","5060605","2020-03-11 11:00","2020","03","11","11:00","-17.3","","-22.4","","65","","","","15","","26","","24.1","","101.24","","","","-28","","Ice Crystals"
"-94.07","58.74","CHURCHILL A","5060605","2020-03-11 12:00","2020","03","11","12:00","-16.9","","-21.3","","69","","","","15","","29","","24.1","","101.22","","","","-28","","Ice Crystals"
"-94.07","58.74","CHURCHILL A","5060605","2020-03-11 13:00","2020","03","11","13:00","-16.3","","-20.4","","71","","","","14","","29","","24.1","","101.15","","","","-28","","Ice Crystals"
"-94.07","58.74","CHURCHILL A","5060605","2020-03-11 14:00","2020","03","11","14:00","-15.9","","-20.0","","71","","","","13","","25","","24.1","","101.12","","","","-26","","Ice Crystals"
"-94.07","58.74","CHURCHILL A","5060605","2020-03-11 15:00","2020","03","11","15:00","-15.9","","-20.2","","70","","","","13","","27","","24.1","","101.09","","","","-27","","Ice Crystals"
"-94.07","58.74","CHURCHILL A","5060605","2020-03-11 16:00","2020","03","11","16:00","-16.2","","-20.3","","71","","","","12","","28","","24.1","","101.05","","","","-27","","Ice Crystals"
"-94.07","58.74","CHURCHILL A","5060605","2020-03-11 17:00","2020","03","11","17:00","-16.5","","-19.6","","77","","","","12","","26","","24.1","","101.06","","","","-27","","Ice Crystals"
"-94.07","58.74","CHURCHILL A","5060605","2020-03-11 18:00","2020","03","11","18:00","-17.1","","-20.1","","78","","","","13","","27","","24.1","","101.09","","","","-28","","Ice Crystals"
"-94.07","58.74","CHURCHILL A","5060605","2020-03-11 19:00","2020","03","11","19:00","-18.5","","-21.0","","81","","","","11","","17","","24.1","","101.13","","","","-28","","Ice Crystals"
"-94.07","58.74","CHURCHILL A","5060605","2020-03-11 20:00","2020","03","11","20:00","-19.5","","-21.8","","82","","","","10","","16","","24.1","","101.16","","","","-29","","NA"
"-94.07","58.74","CHURCHILL A","5060605","2020-03-11 21:00","2020","03","11","21:00","-20.7","","-23.0","","82","","","","9","","16","","24.1","","101.20","","","","-30","","Mostly Cloudy"
"-94.07","58.74","CHURCHILL A","5060605","2020-03-11 22:00","2020","03","11","22:00","-19.8","","-22.1","","82","","","","10","","22","","24.1","","101.20","","","","-31","","NA"
"-94.07","58.74","CHURCHILL A","5060605","2020-03-11 23:00","2020","03","11","23:00","-19.7","","-21.9","","83","","","","10","","22","","24.1","","101.23","","","","-31","","NA"
"-94.07","58.74","CHURCHILL A","5060605","2020-03-12 00:00","2020","03","12","00:00","-19.7","","-21.9","","83","","","","10","","21","","24.1","","101.25","","","","-30","","Cloudy"
"-94.07","58.74","CHURCHILL A","5060605","2020-03-12 01:00","2020","03","12","01:00","-20.2","","-22.4","","83","","","","8","","19","","24.1","","101.25","","","","-30","","NA"
"-94.07","58.74","CHURCHILL A","5060605","2020-03-12 02:00","2020","03","12","02:00","-20.6","","-22.8","","83","","","","9","","19","","24.1","","101.26","","","","-31","","NA"
"-94.07","58.74","CHURCHILL A","5060605","2020-03-12 03:00","2020","03","12","03:00","-21.0","","-23.2","","83","","","","8","","18","","24.1","","101.27","","","","-31","","Mostly Cloudy"
"-94.07","58.74","CHURCHILL A","5060605","2020-03-12 04:00","2020","03","12","04:00","-21.0","","-23.2","","83","","","","9","","21","","24.1","","101.27","","","","-32","","NA"
"-94.07","58.74","CHURCHILL A","5060605","2020-03-12 05:00","2020","03","12","05:00","-21.0","","-23.3","","82","","","","9","","18","","24.1","","101.31","","","","-31","","NA"
"-94.07","58.74","CHURCHILL A","5060605","2020-03-12 06:00","2020","03","12","06:00","-21.2","","-23.5","","82","","","","7","","16","","24.1","","101.39","","","","-31","","Mostly Cloudy"
"-94.07","58.74","CHURCHILL A","5060605","2020-03-12 07:00","2020","03","12","07:00","-21.6","","-23.8","","83","","","","6","","16","","24.1","","101.46","","","","-31","","NA"
"-94.07","58.74","CHURCHILL A","5060605","2020-03-12 08:00","2020","03","12","08:00","-19.9","","-22.5","","80","","","","9","","22","","24.1","","101.48","","","","-31","","NA"
"-94.07","58.74","CHURCHILL A","5060605","2020-03-12 09:00","2020","03","12","09:00","-19.5","","-22.3","","79","","","","8","","16","","24.1","","101.54","","","","-29","","Mostly Cloudy"
"-94.07","58.74","CHURCHILL A","5060605","2020-03-12 10:00","2020","03","12","10:00","-18.8","","-22.0","","76","","","","9","","14","","24.1","","101.60","","","","-27","","NA"
"-94.07","58.74","CHURCHILL A","5060605","2020-03-12 11:00","2020","03","12","11:00","-17.5","","-20.8","","76","","","","6","","16","","24.1","","101.64","","","","-26","","NA"
"-94.07","58.74","CHURCHILL A","5060605","2020-03-12 12:00","2020","03","12","12:00","-16.6","","-20.2","","74","","","","6","","21","","24.1","","101.68","","","","-26","","Mostly Cloudy"
"-94.07","58.74","CHURCHILL A","5060605","2020-03-12 13:00","2020","03","12","13:00","-16.4","","-20.2","","73","","","","6","","23","","24.1","","101.70","","","","-27","","NA"
"-94.07","58.74","CHURCHILL A","5060605","2020-03-12 14:00","2020","03","12","14:00","-16.4","","-20.3","","72","","","","6","","25","","24.1","","101.73","","","","-27","","NA"
"-94.07","58.74","CHURCHILL A","5060605","2020-03-12 15:00","2020","03","12","15:00","-16.5","","-19.8","","76","","","","6","","28","","24.1","","101.76","","","","-28","","Mostly Cloudy"
"-94.07","58.74","CHURCHILL A","5060605","2020-03-12 16:00","2020","03","12","16:00","-16.9","","-20.5","","74","","","","7","","22","","24.1","","101.81","","","","-27","","NA"
"-94.07","58.74","CHURCHILL A","5060605","2020-03-12 17:00","2020","03","12","17:00","-17.1","","-20.1","","78","","","","6","","25","","24.1","","101.86","","","","-28","","NA"
"-94.07","58.74","CHURCHILL A","5060605","2020-03-12 18:00","2020","03","12","18:00","-17.4","","-19.9","","81","","","","5","","26","","24.1","","101.93","","","","-28","","Cloudy"
"-94.07","58.74","CHURCHILL A","5060605","2020-03-12 19:00","2020","03","12","19:00","-17.6","","-20.0","","82","","","","6","","23","","24.1","","102.01","","","","-28","","NA"
"-94.07","58.74","CHURCHILL A","5060605","2020-03-12 20:00","2020","03","12","20:00","-17.8","","-20.3","","81","","","","6","","23","","24.1","","102.07","","","","-28","","NA"
"-94.07","58.74","CHURCHILL A","5060605","2020-03-12 21:00","2020","03","12","21:00","-17.5","","-20.0","","81","","","","5","","28","","24.1","","102.12","","","","-29","","Mostly Cloudy"
"-94.07","58.74","CHURCHILL A","5060605","2020-03-12 22:00","2020","03","12","22:00","-18.0","","-20.5","","81","","","","5","","29","","24.1","","102.17","","","","-30","","NA"
"-94.07","58.74","CHURCHILL A","5060605","2020-03-12 23:00","2020","03","12","23:00","-18.2","","-20.4","","83","","","","5","","23","","24.1","","102.21","","","","-29","","NA"
"-94.07","58.74","CHURCHILL A","5060605","2020-03-13 00:00","2020","03","13","00:00","-18.9","","-20.9","","84","","","","4","","24","","24.1","","102.26","","","","-30","","Mainly Clear"
"-94.07","58.74","CHURCHILL A","5060605","2020-03-13 01:00","2020","03","13","01:00","-19.0","","-21.2","","83","","","","4","","26","","24.1","","102.30","","","","-31","","NA"
"-94.07","58.74","CHURCHILL A","5060605","2020-03-13 02:00","2020","03","13","02:00","-19.1","","-21.7","","80","","","","4","","28","","24.1","","102.35","","","","-31","","NA"
"-94.07","58.74","CHURCHILL A","5060605","2020-03-13 03:00","2020","03","13","03:00","-19.3","","-21.9","","80","","","","4","","29","","24.1","","102.40","","","","-31","","Mainly Clear"
"-94.07","58.74","CHURCHILL A","5060605","2020-03-13 04:00","2020","03","13","04:00","-19.5","","-22.6","","77","","","","4","","32","","24.1","","102.48","","","","-32","","NA"
"-94.07","58.74","CHURCHILL A","5060605","2020-03-13 05:00","2020","03","13","05:00","-19.9","","-23.0","","77","","","","4","","28","","24.1","","102.59","","","","-32","","NA"
"-94.07","58.74","CHURCHILL A","5060605","2020-03-13 06:00","2020","03","13","06:00","-20.1","","-23.3","","76","","","","3","","27","","24.1","","102.67","","","","-32","","Mostly Cloudy"
"-94.07","58.74","CHURCHILL A","5060605","2020-03-13 07:00","2020","03","13","07:00","-20.3","","-23.5","","76","","","","3","","38","","24.1","","102.75","","","","-34","","NA"
"-94.07","58.74","CHURCHILL A","5060605","2020-03-13 08:00","2020","03","13","08:00","-20.1","","-23.3","","76","","","","3","","29","","24.1","","102.85","","","","-33","","NA"
"-94.07","58.74","CHURCHILL A","5060605","2020-03-13 09:00","2020","03","13","09:00","-19.8","","-23.2","","75","","","","3","","31","","24.1","","102.94","","","","-32","","Blowing Snow"
"-94.07","58.74","CHURCHILL A","5060605","2020-03-13 10:00","2020","03","13","10:00","-19.0","","-22.5","","74","","","","3","","35","","24.1","","103.08","","","","-32","","Blowing Snow"
"-94.07","58.74","CHURCHILL A","5060605","2020-03-13 11:00","2020","03","13","11:00","-18.7","","-22.4","","73","","","","2","","37","","24.1","","103.20","","","","-32","","Blowing Snow"
"-94.07","58.74","CHURCHILL A","5060605","2020-03-13 12:00","2020","03","13","12:00","-18.3","","-21.4","","77","","","","2","","32","","24.1","","103.29","","","","-31","","Blowing Snow"
"-94.07","58.74","CHURCHILL A","5060605","2020-03-13 13:00","2020","03","13","13:00","-18.3","","-21.4","","77","","","","2","","32","","24.1","","103.36","","","","-31","","Blowing Snow"
"-94.07","58.74","CHURCHILL A","5060605","2020-03-13 14:00","2020","03","13","14:00","-18.3","","-21.4","","77","","","","1","","32","","24.1","","103.44","","","","-31","","Blowing Snow"
"-94.07","58.74","CHURCHILL A","5060605","2020-03-13 15:00","2020","03","13","15:00","-18.5","","-22.1","","74","","","","1","","28","","24.1","","103.55","","","","-30","","Blowing Snow"
"-94.07","58.74","CHURCHILL A","5060605","2020-03-13 16:00","2020","03","13","16:00","-19.0","","-22.5","","74","","","","1","","32","","24.1","","103.64","","","","-32","","Ice Crystals,Blowing Snow"
"-94.07","58.74","CHURCHILL A","5060605","2020-03-13 17:00","2020","03","13","17:00","-20.1","","-22.7","","80","","","","36","","27","","19.3","","103.75","","","","-32","","Ice Crystals,Blowing Snow"
"-94.07","58.74","CHURCHILL A","5060605","2020-03-13 18:00","2020","03","13","18:00","-21.4","","-24.1","","79","","","","36","","27","","24.1","","103.85","","","","-34","","Ice Crystals,Blowing Snow"
"-94.07","58.74","CHURCHILL A","5060605","2020-03-13 19:00","2020","03","13","19:00","-22.2","","-25.1","","78","","","","1","","26","","24.1","","103.94","","","","-35","","Ice Crystals,Blowing Snow"
"-94.07","58.74","CHURCHILL A","5060605","2020-03-13 20:00","2020","03","13","20:00","-23.2","","-25.8","","80","","","","36","","22","","24.1","","104.01","","","","-35","","Blowing Snow"
"-94.07","58.74","CHURCHILL A","5060605","2020-03-13 21:00","2020","03","13","21:00","-24.2","","-26.8","","80","","","","36","","19","","24.1","","104.08","","","","-36","","Ice Crystals,Blowing Snow"
"-94.07","58.74","CHURCHILL A","5060605","2020-03-13 22:00","2020","03","13","22:00","-25.3","","-27.7","","81","","","","35","","19","","24.1","","104.10","","","","-37","","Ice Crystals"
"-94.07","58.74","CHURCHILL A","5060605","2020-03-13 23:00","2020","03","13","23:00","-26.0","","-28.5","","80","","","","34","","19","","24.1","","104.15","","","","-38","","Ice Crystals"
"-94.07","58.74","CHURCHILL A","5060605","2020-03-14 00:00","2020","03","14","00:00","-26.6","","-29.1","","80","","","","35","","19","","24.1","","104.20","","","","-39","","Ice Crystals"
"-94.07","58.74","CHURCHILL A","5060605","2020-03-14 01:00","2020","03","14","01:00","-27.6","","-30.2","","79","","","","34","","12","","24.1","","104.28","","","","-37","","Ice Crystals"
"-94.07","58.74","CHURCHILL A","5060605","2020-03-14 02:00","2020","03","14","02:00","-30.9","","-33.7","","77","","","","29","","10","","24.1","","104.34","","","","-40","","Ice Crystals"
"-94.07","58.74","CHURCHILL A","5060605","2020-03-14 03:00","2020","03","14","03:00","-31.4","","-34.3","","76","","","","30","","14","","24.1","","104.36","","","","-43","","Ice Crystals"
"-94.07","58.74","CHURCHILL A","5060605","2020-03-14 04:00","2020","03","14","04:00","-31.6","","-34.5","","76","","","","30","","11","","24.1","","104.38","","","","-42","","Ice Crystals"
"-94.07","58.74","CHURCHILL A","5060605","2020-03-14 05:00","2020","03","14","05:00","-32.1","","-35.1","","75","","","","29","","16","","24.1","","104.42","","","","-44","","Ice Crystals"
"-94.07","58.74","CHURCHILL A","5060605","2020-03-14 06:00","2020","03","14","06:00","-32.8","","-36.0","","74","","","","29","","17","","24.1","","104.44","","","","-46","","Ice Crystals"
"-94.07","58.74","CHURCHILL A","5060605","2020-03-14 07:00","2020","03","14","07:00","-33.2","","-36.4","","74","","","","30","","20","","24.1","","104.50","","","","-47","","Ice Crystals"
"-94.07","58.74","CHURCHILL A","5060605","2020-03-14 08:00","2020","03","14","08:00","-32.8","","-36.0","","74","","","","29","","17","","24.1","","104.48","","","","-46","","NA"
"-94.07","58.74","CHURCHILL A","5060605","2020-03-14 09:00","2020","03","14","09:00","-31.6","","-34.8","","74","","","","29","","17","","24.1","","104.49","","","","-44","","Mainly Clear"
"-94.07","58.74","CHURCHILL A","5060605","2020-03-14 10:00","2020","03","14","10:00","-30.2","","-33.4","","74","","","","29","","20","","24.1","","104.52","","","","-43","","NA"
"-94.07","58.74","CHURCHILL A","5060605","2020-03-14 11:00","2020","03","14","11:00","-29.0","","-32.6","","72","","","","30","","18","","24.1","","104.50","","","","-41","","NA"
"-94.07","58.74","CHURCHILL A","5060605","2020-03-14 12:00","2020","03","14","12:00","-27.6","","-31.8","","68","","","","29","","14","","24.1","","104.53","","","","-38","","Mainly Clear"
"-94.07","58.74","CHURCHILL A","5060605","2020-03-14 13:00","2020","03","14","13:00","-26.0","","-30.4","","67","","","","30","","13","","24.1","","104.49","","","","-36","","NA"
"-94.07","58.74","CHURCHILL A","5060605","2020-03-14 14:00","2020","03","14","14:00","-25.1","","-29.6","","67","","","","30","","10","","24.1","","104.49","","","","-33","","NA"
"-94.07","58.74","CHURCHILL A","5060605","2020-03-14 15:00","2020","03","14","15:00","-23.3","","-28.3","","64","","","","27","","12","","24.1","","104.41","","","","-32","","Clear"
"-94.07","58.74","CHURCHILL A","5060605","2020-03-14 16:00","2020","03","14","16:00","-22.1","","-27.6","","62","","","","26","","13","","24.1","","104.31","","","","-31","","NA"
"-94.07","58.74","CHURCHILL A","5060605","2020-03-14 17:00","2020","03","14","17:00","-21.6","","-27.8","","58","","","","22","","12","","24.1","","104.25","","","","-30","","NA"
"-94.07","58.74","CHURCHILL A","5060605","2020-03-14 18:00","2020","03","14","18:00","-23.0","","-28.2","","63","","","","22","","14","","24.1","","104.19","","","","-32","","Clear"
"-94.07","58.74","CHURCHILL A","5060605","2020-03-14 19:00","2020","03","14","19:00","-25.3","","-29.3","","70","","","","20","","15","","24.1","","104.12","","","","-36","","NA"
"-94.07","58.74","CHURCHILL A","5060605","2020-03-14 20:00","2020","03","14","20:00","-26.4","","-29.9","","73","","","","20","","13","","24.1","","104.02","","","","-36","","NA"
"-94.07","58.74","CHURCHILL A","5060605","2020-03-14 21:00","2020","03","14","21:00","-27.2","","-30.4","","75","","","","20","","16","","24.1","","103.90","","","","-38","","Clear"
"-94.07","58.74","CHURCHILL A","5060605","2020-03-14 22:00","2020","03","14","22:00","-25.0","","-28.8","","71","","","","21","","18","","24.1","","103.81","","","","-36","","NA"
"-94.07","58.74","CHURCHILL A","5060605","2020-03-14 23:00","2020","03","14","23:00","-24.7","","-29.0","","68","","","","21","","19","","24.1","","103.70","","","","-36","","NA"
"-94.07","58.74","CHURCHILL A","5060605","2020-03-15 00:00","2020","03","15","00:00","-24.1","","-28.4","","68","","","","23","","21","","24.1","","103.57","","","","-36","","Clear"
"-94.07","58.74","CHURCHILL A","5060605","2020-03-15 01:00","2020","03","15","01:00","-23.3","","-27.7","","68","","","","23","","19","","24.1","","103.47","","","","-34","","NA"
"-94.07","58.74","CHURCHILL A","5060605","2020-03-15 02:00","2020","03","15","02:00","-23.6","","-27.8","","69","","","","23","","20","","24.1","","103.35","","","","-35","","NA"
"-94.07","58.74","CHURCHILL A","5060605","2020-03-15 03:00","2020","03","15","03:00","-22.5","","-26.7","","69","","","","23","","22","","24.1","","103.24","","","","-34","","Clear"
"-94.07","58.74","CHURCHILL A","5060605","2020-03-15 04:00","2020","03","15","04:00","-22.3","","-26.5","","69","","","","22","","23","","24.1","","103.13","","","","-34","","NA"
"-94.07","58.74","CHURCHILL A","5060605","2020-03-15 05:00","2020","03","15","05:00","-21.1","","-25.6","","68","","","","22","","22","","24.1","","102.96","","","","-32","","NA"
"-94.07","58.74","CHURCHILL A","5060605","2020-03-15 06:00","2020","03","15","06:00","-20.1","","-24.8","","67","","","","22","","25","","24.1","","102.80","","","","-32","","Mostly Cloudy"
"-94.07","58.74","CHURCHILL A","5060605","2020-03-15 07:00","2020","03","15","07:00","-19.9","","-24.6","","67","","","","23","","27","","24.1","","102.65","","","","-32","","NA"
"-94.07","58.74","CHURCHILL A","5060605","2020-03-15 08:00","2020","03","15","08:00","-18.8","","-24.0","","64","","","","23","","28","","24.1","","102.48","","","","-31","","NA"
"-94.07","58.74","CHURCHILL A","5060605","2020-03-15 09:00","2020","03","15","09:00","-16.0","","-22.7","","57","","","","24","","31","","24.1","","102.31","","","","-28","","Mostly Cloudy"
"-94.07","58.74","CHURCHILL A","5060605","2020-03-15 10:00","2020","03","15","10:00","-14.4","","-21.9","","54","","","","24","","33","","24.1","","102.13","","","","-26","","NA"
"-94.07","58.74","CHURCHILL A","5060605","2020-03-15 11:00","2020","03","15","11:00","-13.0","","-20.9","","52","","","","24","","36","","24.1","","101.94","","","","-24","","NA"
"-94.07","58.74","CHURCHILL A","5060605","2020-03-15 12:00","2020","03","15","12:00","-11.9","","-19.7","","53","","","","25","","37","","24.1","","101.82","","","","-23","","Mostly Cloudy"
"-94.07","58.74","CHURCHILL A","5060605","2020-03-15 13:00","2020","03","15","13:00","-11.1","","-19.2","","52","","","","24","","41","","24.1","","101.68","","","","-22","","Blowing Snow"
"-94.07","58.74","CHURCHILL A","5060605","2020-03-15 14:00","2020","03","15","14:00","-10.1","","-18.9","","49","","","","24","","34","","24.1","","101.52","","","","-20","","Blowing Snow"
"-94.07","58.74","CHURCHILL A","5060605","2020-03-15 15:00","2020","03","15","15:00","-9.6","","-18.1","","51","","","","24","","36","","24.1","","101.39","","","","-20","","Blowing Snow"
"-94.07","58.74","CHURCHILL A","5060605","2020-03-15 16:00","2020","03","15","16:00","-9.4","","-18.2","","49","","","","24","","35","","24.1","","101.28","","","","-19","","Blowing Snow"
"-94.07","58.74","CHURCHILL A","5060605","2020-03-15 17:00","2020","03","15","17:00","-9.6","","-17.1","","55","","","","23","","29","","24.1","","101.14","","","","-19","","Blowing Snow"
"-94.07","58.74","CHURCHILL A","5060605","2020-03-15 18:00","2020","03","15","18:00","-9.7","","-17.1","","55","","","","23","","31","","24.1","","101.03","","","","-19","","Cloudy"
"-94.07","58.74","CHURCHILL A","5060605","2020-03-15 19:00","2020","03","15","19:00","-9.2","","-16.6","","55","","","","24","","30","","24.1","","100.92","","","","-18","","NA"
"-94.07","58.74","CHURCHILL A","5060605","2020-03-15 20:00","2020","03","15","20:00","-8.9","","-15.7","","58","","","","24","","29","","24.1","","100.82","","","","-18","","NA"
"-94.07","58.74","CHURCHILL A","5060605","2020-03-15 21:00","2020","03","15","21:00","-9.0","","-14.0","","68","","","","26","","24","","24.1","","100.74","","","","-17","","Snow"
"-94.07","58.74","CHURCHILL A","5060605","2020-03-15 22:00","2020","03","15","22:00","-9.3","","-13.3","","73","","","","25","","26","","24.1","","100.60","","","","-18","","Snow"
"-94.07","58.74","CHURCHILL A","5060605","2020-03-15 23:00","2020","03","15","23:00","-9.4","","-12.9","","76","","","","26","","27","","24.1","","100.47","","","","-18","","Snow"
"-94.07","58.74","CHURCHILL A","5060605","2020-03-16 00:00","2020","03","16","00:00","-9.8","","-12.8","","79","","","","26","","32","","24.1","","100.35","","","","-20","","Snow"
"-94.07","58.74","CHURCHILL A","5060605","2020-03-16 01:00","2020","03","16","01:00","-10.3","","-12.7","","83","","","","26","","23","","12.9","","100.24","","","","-19","","Snow"
"-94.07","58.74","CHURCHILL A","5060605","2020-03-16 02:00","2020","03","16","02:00","-10.9","","-13.1","","84","","","","26","","22","","9.7","","100.19","","","","-19","","Snow"
"-94.07","58.74","CHURCHILL A","5060605","2020-03-16 03:00","2020","03","16","03:00","-11.1","","-13.3","","84","","","","27","","25","","24.1","","100.08","","","","-20","","Snow"
"-94.07","58.74","CHURCHILL A","5060605","2020-03-16 04:00","2020","03","16","04:00","-11.6","","-14.4","","80","","","","27","","27","","24.1","","100.01","","","","-21","","NA"
"-94.07","58.74","CHURCHILL A","5060605","2020-03-16 05:00","2020","03","16","05:00","-12.8","","-15.4","","81","","","","29","","18","","24.1","","100.01","","","","-21","","NA"
"-94.07","58.74","CHURCHILL A","5060605","2020-03-16 06:00","2020","03","16","06:00","-12.0","","-14.6","","81","","","","31","","27","","8.1","","100.01","","","","-22","","Snow"
"-94.07","58.74","CHURCHILL A","5060605","2020-03-16 07:00","2020","03","16","07:00","-15.6","","-18.8","","77","","","","31","","36","","12.9","","100.04","","","","-28","","Blowing Snow"
"-94.07","58.74","CHURCHILL A","5060605","2020-03-16 08:00","2020","03","16","08:00","-16.8","","-20.6","","73","","","","30","","37","","12.9","","100.00","","","","-29","","Blowing Snow"
"-94.07","58.74","CHURCHILL A","5060605","2020-03-16 09:00","2020","03","16","09:00","-17.6","","-21.3","","73","","","","31","","35","","12.9","","100.03","","","","-30","","Blowing Snow"
"-94.07","58.74","CHURCHILL A","5060605","2020-03-16 10:00","2020","03","16","10:00","-17.9","","-21.5","","74","","","","31","","37","","4.8","","100.03","","","","-31","","Blowing Snow"
"-94.07","58.74","CHURCHILL A","5060605","2020-03-16 11:00","2020","03","16","11:00","-18.0","","-21.6","","74","","","","31","","39","","2.4","","100.07","","","","-31","","Blowing Snow"
"-94.07","58.74","CHURCHILL A","5060605","2020-03-16 12:00","2020","03","16","12:00","-18.9","","-22.4","","74","","","","32","","45","","4.8","","100.13","","","","-33","","Blowing Snow"
"-94.07","58.74","CHURCHILL A","5060605","2020-03-16 13:00","2020","03","16","13:00","-19.3","","-23.1","","72","","","","32","","41","","8.1","","100.18","","","","-33","","Blowing Snow"
"-94.07","58.74","CHURCHILL A","5060605","2020-03-16 14:00","2020","03","16","14:00","-19.4","","-24.1","","67","","","","30","","39","","8.1","","100.21","","","","-33","","Blowing Snow"
"-94.07","58.74","CHURCHILL A","5060605","2020-03-16 15:00","2020","03","16","15:00","-18.9","","-23.6","","67","","","","31","","41","","12.9","","100.23","","","","-33","","Blowing Snow"
"-94.07","58.74","CHURCHILL A","5060605","2020-03-16 16:00","2020","03","16","16:00","-19.1","","-23.4","","69","","","","31","","33","","12.9","","100.29","","","","-32","","Blowing Snow"
"-94.07","58.74","CHURCHILL A","5060605","2020-03-16 17:00","2020","03","16","17:00","-20.0","","-23.6","","73","","","","31","","42","","12.9","","100.31","","","","-34","","Blowing Snow"
"-94.07","58.74","CHURCHILL A","5060605","2020-03-16 18:00","2020","03","16","18:00","-21.5","","-25.6","","70","","","","31","","35","","12.9","","100.37","","","","-35","","Blowing Snow"
"-94.07","58.74","CHURCHILL A","5060605","2020-03-16 19:00","2020","03","16","19:00","-22.1","","-26.0","","71","","","","31","","46","","6.4","","100.33","","","","-38","","Blowing Snow"
"-94.07","58.74","CHURCHILL A","5060605","2020-03-16 20:00","2020","03","16","20:00","-23.0","","-27.1","","70","","","","29","","31","","12.9","","100.31","","","","-37","","Blowing Snow"
"-94.07","58.74","CHURCHILL A","5060605","2020-03-16 21:00","2020","03","16","21:00","-22.8","","-26.7","","71","","","","29","","37","","12.9","","100.25","","","","-37","","Blowing Snow"
"-94.07","58.74","CHURCHILL A","5060605","2020-03-16 22:00","2020","03","16","22:00","-21.6","","-24.9","","75","","","","30","","33","","12.9","","100.21","","","","-35","","Blowing Snow"
"-94.07","58.74","CHURCHILL A","5060605","2020-03-16 23:00","2020","03","16","23:00","-21.1","","-24.1","","77","","","","30","","43","","4.8","","100.18","","","","-36","","Blowing Snow"
"-94.07","58.74","CHURCHILL A","5060605","2020-03-17 00:00","2020","03","17","00:00","-21.7","","-25.3","","73","","","","31","","40","","4.8","","100.22","","","","-36","","Snow,Blowing Snow"
"-94.07","58.74","CHURCHILL A","5060605","2020-03-17 01:00","2020","03","17","01:00","-22.4","","-25.4","","77","","","","31","","43","","3.2","","100.29","","","","-38","","Snow,Blowing Snow"
"-94.07","58.74","CHURCHILL A","5060605","2020-03-17 02:00","2020","03","17","02:00","-22.9","","-25.7","","78","","","","31","","42","","3.2","","100.36","","","","-38","","Snow,Blowing Snow"
"-94.07","58.74","CHURCHILL A","5060605","2020-03-17 03:00","2020","03","17","03:00","-23.5","","-26.3","","78","","","","31","","41","","3.2","","100.40","","","","-39","","Snow,Blowing Snow"
"-94.07","58.74","CHURCHILL A","5060605","2020-03-17 04:00","2020","03","17","04:00","-24.1","","-26.9","","78","","","","31","","38","","1.2","","100.44","","","","-39","","Snow,Blowing Snow"
"-94.07","58.74","CHURCHILL A","5060605","2020-03-17 05:00","2020","03","17","05:00","-24.5","","-27.3","","78","","","","30","","38","","1.2","","100.53","","","","-40","","Snow,Blowing Snow"
"-94.07","58.74","CHURCHILL A","5060605","2020-03-17 06:00","2020","03","17","06:00","-24.5","","-27.2","","79","","","","30","","40","","0.8","","100.61","","","","-40","","Moderate Snow,Blowing Snow"
"-94.07","58.74","CHURCHILL A","5060605","2020-03-17 07:00","2020","03","17","07:00","-24.5","","-27.2","","79","","","","30","","38","","0.8","","100.68","","","","-40","","Snow,Blowing Snow"
"-94.07","58.74","CHURCHILL A","5060605","2020-03-17 08:00","2020","03","17","08:00","-24.7","","-27.5","","78","","","","31","","32","","1.2","","100.75","","","","-39","","Ice Crystals,Blowing Snow"
"-94.07","58.74","CHURCHILL A","5060605","2020-03-17 09:00","2020","03","17","09:00","-24.0","","-27.0","","77","","","","30","","34","","0.8","","100.85","","","","-39","","Ice Crystals,Blowing Snow"
"-94.07","58.74","CHURCHILL A","5060605","2020-03-17 10:00","2020","03","17","10:00","-23.3","","-26.6","","75","","","","30","","35","","0.8","","100.95","","","","-38","","Ice Crystals,Blowing Snow"
"-94.07","58.74","CHURCHILL A","5060605","2020-03-17 11:00","2020","03","17","11:00","-22.9","","-26.2","","75","","","","31","","36","","1.6","","101.04","","","","-37","","Ice Crystals,Blowing Snow"
"-94.07","58.74","CHURCHILL A","5060605","2020-03-17 12:00","2020","03","17","12:00","-22.8","","-26.6","","72","","","","30","","33","","6.4","","101.09","","","","-37","","Ice Crystals,Blowing Snow"
"-94.07","58.74","CHURCHILL A","5060605","2020-03-17 13:00","2020","03","17","13:00","-22.7","","-26.6","","71","","","","31","","34","","19.3","","101.22","","","","-37","","Ice Crystals,Blowing Snow"
"-94.07","58.74","CHURCHILL A","5060605","2020-03-17 14:00","2020","03","17","14:00","-22.6","","-26.8","","69","","","","31","","30","","24.1","","101.27","","","","-36","","Ice Crystals,Blowing Snow"
"-94.07","58.74","CHURCHILL A","5060605","2020-03-17 15:00","2020","03","17","15:00","-21.8","","-26.4","","67","","","","31","","34","","24.1","","101.33","","","","-36","","Ice Crystals,Blowing Snow"
"-94.07","58.74","CHURCHILL A","5060605","2020-03-17 16:00","2020","03","17","16:00","-22.7","","-27.1","","68","","","","31","","32","","24.1","","101.42","","","","-36","","Ice Crystals,Blowing Snow"
"-94.07","58.74","CHURCHILL A","5060605","2020-03-17 17:00","2020","03","17","17:00","-23.3","","-27.8","","67","","","","31","","34","","24.1","","101.51","","","","-38","","Blowing Snow"
"-94.07","58.74","CHURCHILL A","5060605","2020-03-17 18:00","2020","03","17","18:00","-24.1","","-28.3","","69","","","","31","","33","","24.1","","101.54","","","","-38","","Blowing Snow"
"-94.07","58.74","CHURCHILL A","5060605","2020-03-17 19:00","2020","03","17","19:00","-24.6","","-28.6","","70","","","","30","","33","","24.1","","101.59","","","","-39","","Blowing Snow"
"-94.07","58.74","CHURCHILL A","5060605","2020-03-17 20:00","2020","03","17","20:00","-25.1","","-28.9","","71","","","","31","","29","","24.1","","101.61","","","","-39","","Blowing Snow"
"-94.07","58.74","CHURCHILL A","5060605","2020-03-17 21:00","2020","03","17","21:00","-25.8","","-29.8","","70","","","","30","","28","","24.1","","101.59","","","","-40","","Blowing Snow"
"-94.07","58.74","CHURCHILL A","5060605","2020-03-17 22:00","2020","03","17","22:00","-26.1","","-29.4","","74","","","","30","","28","","3.2","","101.62","","","","-40","","Ice Crystals,Blowing Snow"
"-94.07","58.74","CHURCHILL A","5060605","2020-03-17 23:00","2020","03","17","23:00","-26.8","","-30.1","","74","","","","30","","27","","6.4","","101.65","","","","-41","","Ice Crystals,Blowing Snow"
"-94.07","58.74","CHURCHILL A","5060605","2020-03-18 00:00","2020","03","18","00:00","-26.8","","-29.8","","76","","","","31","","25","","6.4","","101.69","","","","-40","","Ice Crystals,Blowing Snow"
"-94.07","58.74","CHURCHILL A","5060605","2020-03-18 01:00","2020","03","18","01:00","-27.6","","-30.9","","74","","","","30","","26","","8.1","","101.76","","","","-42","","Ice Crystals,Blowing Snow"
"-94.07","58.74","CHURCHILL A","5060605","2020-03-18 02:00","2020","03","18","02:00","-28.0","","-31.4","","73","","","","30","","29","","9.7","","101.79","","","","-43","","Ice Crystals,Blowing Snow"
"-94.07","58.74","CHURCHILL A","5060605","2020-03-18 03:00","2020","03","18","03:00","-28.4","","-31.8","","73","","","","30","","23","","24.1","","101.82","","","","-42","","Ice Crystals,Blowing Snow"
"-94.07","58.74","CHURCHILL A","5060605","2020-03-18 04:00","2020","03","18","04:00","-28.8","","-32.1","","74","","","","30","","25","","24.1","","101.88","","","","-43","","Ice Crystals,Blowing Snow"
"-94.07","58.74","CHURCHILL A","5060605","2020-03-18 05:00","2020","03","18","05:00","-29.0","","-32.4","","73","","","","30","","25","","24.1","","101.94","","","","-43","","Ice Crystals,Blowing Snow"
"-94.07","58.74","CHURCHILL A","5060605","2020-03-18 06:00","2020","03","18","06:00","-29.2","","-32.6","","73","","","","30","","24","","24.1","","101.98","","","","-43","","Ice Crystals"
"-94.07","58.74","CHURCHILL A","5060605","2020-03-18 07:00","2020","03","18","07:00","-29.3","","-32.9","","72","","","","30","","22","","24.1","","102.00","","","","-43","","Ice Crystals"
"-94.07","58.74","CHURCHILL A","5060605","2020-03-18 08:00","2020","03","18","08:00","-28.9","","-32.6","","71","","","","29","","17","","24.1","","102.04","","","","-41","","Ice Crystals"
"-94.07","58.74","CHURCHILL A","5060605","2020-03-18 09:00","2020","03","18","09:00","-27.9","","-31.8","","70","","","","29","","22","","24.1","","102.11","","","","-41","","Ice Crystals"
"-94.07","58.74","CHURCHILL A","5060605","2020-03-18 10:00","2020","03","18","10:00","-26.8","","-30.7","","70","","","","30","","19","","24.1","","102.17","","","","-39","","Ice Crystals"
"-94.07","58.74","CHURCHILL A","5060605","2020-03-18 11:00","2020","03","18","11:00","-25.5","","-29.3","","71","","","","29","","22","","24.1","","102.21","","","","-38","","Ice Crystals"
"-94.07","58.74","CHURCHILL A","5060605","2020-03-18 12:00","2020","03","18","12:00","-24.8","","-28.7","","71","","","","30","","24","","24.1","","102.26","","","","-38","","Ice Crystals"
"-94.07","58.74","CHURCHILL A","5060605","2020-03-18 13:00","2020","03","18","13:00","-23.9","","-28.6","","66","","","","32","","23","","24.1","","102.31","","","","-36","","Ice Crystals"
"-94.07","58.74","CHURCHILL A","5060605","2020-03-18 14:00","2020","03","18","14:00","-23.4","","-28.4","","64","","","","31","","18","","24.1","","102.32","","","","-34","","Ice Crystals"
"-94.07","58.74","CHURCHILL A","5060605","2020-03-18 15:00","2020","03","18","15:00","-23.1","","-27.9","","65","","","","31","","19","","24.1","","102.38","","","","-34","","Ice Crystals"
"-94.07","58.74","CHURCHILL A","5060605","2020-03-18 16:00","2020","03","18","16:00","-22.8","","-27.4","","67","","","","32","","18","","24.1","","102.41","","","","-33","","Ice Crystals"
"-94.07","58.74","CHURCHILL A","5060605","2020-03-18 17:00","2020","03","18","17:00","-23.0","","-26.9","","71","","","","31","","18","","24.1","","102.40","","","","-34","","Ice Crystals"
"-94.07","58.74","CHURCHILL A","5060605","2020-03-18 18:00","2020","03","18","18:00","-24.2","","-28.2","","70","","","","30","","16","","24.1","","102.43","","","","-35","","Clear"
"-94.07","58.74","CHURCHILL A","5060605","2020-03-18 19:00","2020","03","18","19:00","-25.5","","-29.0","","73","","","","29","","14","","24.1","","102.49","","","","-35","","NA"
"-94.07","58.74","CHURCHILL A","5060605","2020-03-18 20:00","2020","03","18","20:00","-26.1","","-29.3","","75","","","","30","","13","","24.1","","102.50","","","","-36","","NA"
"-94.07","58.74","CHURCHILL A","5060605","2020-03-18 21:00","2020","03","18","21:00","-26.3","","-29.5","","75","","","","29","","11","","24.1","","102.51","","","","-35","","Clear"
"-94.07","58.74","CHURCHILL A","5060605","2020-03-18 22:00","2020","03","18","22:00","-27.2","","-30.2","","76","","","","28","","10","","24.1","","102.52","","","","-36","","NA"
"-94.07","58.74","CHURCHILL A","5060605","2020-03-18 23:00","2020","03","18","23:00","-27.6","","-30.6","","76","","","","30","","12","","24.1","","102.51","","","","-37","","NA"
"-94.07","58.74","CHURCHILL A","5060605","2020-03-19 00:00","2020","03","19","00:00","-28.2","","-31.1","","77","","","","29","","11","","24.1","","102.55","","","","-38","","Clear"
"-94.07","58.74","CHURCHILL A","5060605","2020-03-19 01:00","2020","03","19","01:00","-28.4","","-31.3","","77","","","","29","","11","","24.1","","102.58","","","","-38","","NA"
"-94.07","58.74","CHURCHILL A","5060605","2020-03-19 02:00","2020","03","19","02:00","-29.1","","-31.9","","77","","","","29","","10","","24.1","","102.64","","","","-38","","NA"
"-94.07","58.74","CHURCHILL A","5060605","2020-03-19 03:00","2020","03","19","03:00","-28.9","","-31.8","","77","","","","29","","11","","24.1","","102.67","","","","-38","","Clear"
"-94.07","58.74","CHURCHILL A","5060605","2020-03-19 04:00","2020","03","19","04:00","-29.2","","-32.0","","77","","","","29","","10","","24.1","","102.70","","","","-38","","NA"
"-94.07","58.74","CHURCHILL A","5060605","2020-03-19 05:00","2020","03","19","05:00","-28.9","","-31.8","","77","","","","29","","13","","24.1","","102.75","","","","-39","","Ice Crystals"
"-94.07","58.74","CHURCHILL A","5060605","2020-03-19 06:00","2020","03","19","06:00","-28.6","","-31.3","","78","","","","30","","12","","24.1","","102.78","","","","-38","","Clear"
"-94.07","58.74","CHURCHILL A","5060605","2020-03-19 07:00","2020","03","19","07:00","-28.7","","-31.6","","77","","","","29","","15","","24.1","","102.86","","","","-40","","NA"
"-94.07","58.74","CHURCHILL A","5060605","2020-03-19 08:00","2020","03","19","08:00","-27.3","","-30.2","","77","","","","30","","15","","24.1","","102.90","","","","-38","","Ice Crystals"
"-94.07","58.74","CHURCHILL A","5060605","2020-03-19 09:00","2020","03","19","09:00","-26.0","","-29.2","","75","","","","30","","18","","24.1","","102.91","","","","-37","","Ice Crystals"
"-94.07","58.74","CHURCHILL A","5060605","2020-03-19 10:00","2020","03","19","10:00","-24.7","","-28.2","","73","","","","30","","22","","24.1","","102.97","","","","-37","","NA"
"-94.07","58.74","CHURCHILL A","5060605","2020-03-19 11:00","2020","03","19","11:00","-22.7","","-26.4","","73","","","","29","","18","","24.1","","103.01","","","","-33","","NA"
"-94.07","58.74","CHURCHILL A","5060605","2020-03-19 12:00","2020","03","19","12:00","-21.5","","-25.6","","70","","","","30","","21","","24.1","","103.08","","","","-33","","Clear"
"-94.07","58.74","CHURCHILL A","5060605","2020-03-19 13:00","2020","03","19","13:00","-20.3","","-24.8","","68","","","","30","","24","","24.1","","103.09","","","","-32","","NA"
"-94.07","58.74","CHURCHILL A","5060605","2020-03-19 14:00","2020","03","19","14:00","-18.8","","-23.7","","66","","","","33","","22","","24.1","","103.10","","","","-29","","NA"
"-94.07","58.74","CHURCHILL A","5060605","2020-03-19 15:00","2020","03","19","15:00","-18.2","","-24.1","","61","","","","30","","22","","24.1","","103.08","","","","-29","","Clear"
"-94.07","58.74","CHURCHILL A","5060605","2020-03-19 16:00","2020","03","19","16:00","-17.7","","-23.7","","60","","","","32","","21","","24.1","","103.10","","","","-28","","NA"
"-94.07","58.74","CHURCHILL A","5060605","2020-03-19 17:00","2020","03","19","17:00","-17.8","","-24.0","","59","","","","32","","21","","24.1","","103.13","","","","-28","","NA"
"-94.07","58.74","CHURCHILL A","5060605","2020-03-19 18:00","2020","03","19","18:00","-18.9","","-23.9","","65","","","","31","","13","","24.1","","103.14","","","","-27","","Clear"
"-94.07","58.74","CHURCHILL A","5060605","2020-03-19 19:00","2020","03","19","19:00","-21.0","","-25.0","","71","","","","31","","11","","24.1","","103.11","","","","-29","","NA"
"-94.07","58.74","CHURCHILL A","5060605","2020-03-19 20:00","2020","03","19","20:00","-20.3","","-24.7","","69","","","","32","","18","","24.1","","103.08","","","","-30","","NA"
"-94.07","58.74","CHURCHILL A","5060605","2020-03-19 21:00","2020","03","19","21:00","-20.9","","-25.9","","65","","","","30","","14","","24.1","","103.09","","","","-30","","Clear"
"-94.07","58.74","CHURCHILL A","5060605","2020-03-19 22:00","2020","03","19","22:00","-22.8","","-27.4","","67","","","","30","","17","","24.1","","103.07","","","","-33","","NA"
"-94.07","58.74","CHURCHILL A","5060605","2020-03-19 23:00","2020","03","19","23:00","-22.5","","-27.8","","63","","","","31","","18","","24.1","","103.02","","","","-33","","NA"
"-94.07","58.74","CHURCHILL A","5060605","2020-03-20 00:00","2020","03","20","00:00","-21.7","","-26.8","","64","","","","31","","23","","24.1","","102.98","","","","-33","","Clear"
"-94.07","58.74","CHURCHILL A","5060605","2020-03-20 01:00","2020","03","20","01:00","-24.0","","-28.0","","70","","","","29","","16","","24.1","","102.96","","","","-34","","NA"
"-94.07","58.74","CHURCHILL A","5060605","2020-03-20 02:00","2020","03","20","02:00","-24.6","","-28.0","","74","","","","30","","18","","24.1","","102.92","","","","-36","","NA"
"-94.07","58.74","CHURCHILL A","5060605","2020-03-20 03:00","2020","03","20","03:00","-25.5","","-28.7","","75","","","","30","","14","","24.1","","102.89","","","","-35","","Clear"
"-94.07","58.74","CHURCHILL A","5060605","2020-03-20 04:00","2020","03","20","04:00","-26.0","","-28.9","","77","","","","29","","13","","24.1","","102.85","","","","-36","","NA"
"-94.07","58.74","CHURCHILL A","5060605","2020-03-20 05:00","2020","03","20","05:00","-26.5","","-29.3","","78","","","","29","","12","","24.1","","102.80","","","","-36","","NA"
"-94.07","58.74","CHURCHILL A","5060605","2020-03-20 06:00","2020","03","20","06:00","-26.4","","-29.2","","78","","","","29","","12","","24.1","","102.78","","","","-36","","Mainly Clear"
"-94.07","58.74","CHURCHILL A","5060605","2020-03-20 07:00","2020","03","20","07:00","-25.9","","-28.8","","77","","","","29","","13","","24.1","","102.77","","","","-36","","NA"
"-94.07","58.74","CHURCHILL A","5060605","2020-03-20 08:00","2020","03","20","08:00","-25.1","","-29.2","","69","","","","27","","12","","24.1","","102.73","","","","-34","","NA"
"-94.07","58.74","CHURCHILL A","5060605","2020-03-20 09:00","2020","03","20","09:00","-23.3","","-28.3","","64","","","","27","","10","","24.1","","102.67","","","","-31","","Mainly Clear"
"-94.07","58.74","CHURCHILL A","5060605","2020-03-20 10:00","2020","03","20","10:00","-21.5","","-27.3","","60","","","","28","","13","","24.1","","102.61","","","","-30","","NA"
"-94.07","58.74","CHURCHILL A","5060605","2020-03-20 11:00","2020","03","20","11:00","-19.6","","-25.9","","58","","","","30","","12","","24.1","","102.57","","","","-28","","NA"
"-94.07","58.74","CHURCHILL A","5060605","2020-03-20 12:00","2020","03","20","12:00","-18.4","","-25.0","","57","","","","29","","9","","24.1","","102.57","","","","-25","","Mainly Clear"
"-94.07","58.74","CHURCHILL A","5060605","2020-03-20 13:00","2020","03","20","13:00","-17.2","","-24.1","","56","","","","32","","8","","24.1","","102.55","","","","-23","","NA"
"-94.07","58.74","CHURCHILL A","5060605","2020-03-20 14:00","2020","03","20","14:00","-16.5","","-24.0","","53","","","","30","","7","","24.1","","102.53","","","","-22","","NA"
"-94.07","58.74","CHURCHILL A","5060605","2020-03-20 15:00","2020","03","20","15:00","-15.6","","-22.9","","54","","","","30","","7","","24.1","","102.52","","","","-21","","Clear"
"-94.07","58.74","CHURCHILL A","5060605","2020-03-20 16:00","2020","03","20","16:00","-14.9","","-21.9","","56","","","","33","","7","","24.1","","102.53","","","","-20","","NA"
"-94.07","58.74","CHURCHILL A","5060605","2020-03-20 17:00","2020","03","20","17:00","-15.8","","-21.3","","63","","","","1","","7","","24.1","","102.54","","","","-21","","NA"
"-94.07","58.74","CHURCHILL A","5060605","2020-03-20 18:00","2020","03","20","18:00","-15.3","","-20.5","","65","","","","4","","3","","24.1","","102.56","","","","-17","","Clear"
"-94.07","58.74","CHURCHILL A","5060605","2020-03-20 19:00","2020","03","20","19:00","-16.3","","-20.9","","68","","","","10","","5","","24.1","","102.59","","","","-20","","NA"
"-94.07","58.74","CHURCHILL A","5060605","2020-03-20 20:00","2020","03","20","20:00","-17.1","","-21.4","","70","","","","12","","4","","24.1","","102.59","","","","-20","","NA"
"-94.07","58.74","CHURCHILL A","5060605","2020-03-20 21:00","2020","03","20","21:00","-19.0","","-24.0","","65","","","","18","","11","","24.1","","102.58","","","","-26","","Clear"
"-94.07","58.74","CHURCHILL A","5060605","2020-03-20 22:00","2020","03","20","22:00","-20.0","","-24.7","","67","","","","20","","12","","24.1","","102.61","","","","-28","","NA"
"-94.07","58.74","CHURCHILL A","5060605","2020-03-20 23:00","2020","03","20","23:00","-19.9","","-24.8","","66","","","","18","","10","","24.1","","102.62","","","","-27","","NA"
"-94.07","58.74","CHURCHILL A","5060605","2020-03-21 00:00","2020","03","21","00:00","-21.3","","-24.9","","73","","","","20","","12","","24.1","","102.63","","","","-30","","Clear"
"-94.07","58.74","CHURCHILL A","5060605","2020-03-21 01:00","2020","03","21","01:00","-21.3","","-24.9","","73","","","","18","","13","","24.1","","102.58","","","","-30","","NA"
"-94.07","58.74","CHURCHILL A","5060605","2020-03-21 02:00","2020","03","21","02:00","-23.8","","-26.8","","77","","","","18","","17","","24.1","","102.57","","","","-34","","NA"
"-94.07","58.74","CHURCHILL A","5060605","2020-03-21 03:00","2020","03","21","03:00","-24.1","","-27.2","","76","","","","18","","16","","24.1","","102.54","","","","-34","","Clear"
"-94.07","58.74","CHURCHILL A","5060605","2020-03-21 04:00","2020","03","21","04:00","-24.2","","-27.2","","77","","","","18","","14","","24.1","","102.50","","","","-34","","NA"
"-94.07","58.74","CHURCHILL A","5060605","2020-03-21 05:00","2020","03","21","05:00","-24.5","","-27.6","","76","","","","17","","16","","24.1","","102.46","","","","-35","","NA"
"-94.07","58.74","CHURCHILL A","5060605","2020-03-21 06:00","2020","03","21","06:00","-24.7","","-27.9","","75","","","","18","","17","","24.1","","102.44","","","","-36","","Clear"
"-94.07","58.74","CHURCHILL A","5060605","2020-03-21 07:00","2020","03","21","07:00","-25.1","","-28.5","","74","","","","20","","13","","24.1","","102.40","","","","-35","","NA"
"-94.07","58.74","CHURCHILL A","5060605","2020-03-21 08:00","2020","03","21","08:00","-23.5","","-27.2","","72","","","","19","","13","","24.1","","102.37","","","","-33","","NA"
"-94.07","58.74","CHURCHILL A","5060605","2020-03-21 09:00","2020","03","21","09:00","-19.3","","-24.7","","63","","","","18","","13","","24.1","","102.33","","","","-28","","Mostly Cloudy"
"-94.07","58.74","CHURCHILL A","5060605","2020-03-21 10:00","2020","03","21","10:00","-15.1","","-21.8","","57","","","","18","","14","","24.1","","102.28","","","","-23","","NA"
"-94.07","58.74","CHURCHILL A","5060605","2020-03-21 11:00","2020","03","21","11:00","-11.4","","-19.7","","51","","","","21","","17","","24.1","","102.23","","","","-19","","NA"
"-94.07","58.74","CHURCHILL A","5060605","2020-03-21 12:00","2020","03","21","12:00","-9.6","","-18.0","","51","","","","20","","14","","24.1","","102.17","","","","-16","","Mostly Cloudy"
"-94.07","58.74","CHURCHILL A","5060605","2020-03-21 13:00","2020","03","21","13:00","-6.7","","-16.4","","46","","","","21","","19","","24.1","","102.08","","","","-14","","NA"
"-94.07","58.74","CHURCHILL A","5060605","2020-03-21 14:00","2020","03","21","14:00","-5.2","","-15.4","","45","","","","21","","19","","24.1","","101.98","","","","-12","","NA"
"-94.07","58.74","CHURCHILL A","5060605","2020-03-21 15:00","2020","03","21","15:00","-3.5","","-14.4","","43","","","","22","","25","","24.1","","101.91","","","","-10","","Cloudy"
"-94.07","58.74","CHURCHILL A","5060605","2020-03-21 16:00","2020","03","21","16:00","-3.9","","-14.5","","44","","","","22","","24","","24.1","","101.84","","","","-11","","NA"
"-94.07","58.74","CHURCHILL A","5060605","2020-03-21 17:00","2020","03","21","17:00","-4.3","","-15.0","","43","","","","21","","22","","24.1","","101.76","","","","-11","","NA"
"-94.07","58.74","CHURCHILL A","5060605","2020-03-21 18:00","2020","03","21","18:00","-4.7","","-15.3","","44","","","","20","","24","","24.1","","101.68","","","","-12","","Cloudy"
"-94.07","58.74","CHURCHILL A","5060605","2020-03-21 19:00","2020","03","21","19:00","-6.7","","-14.8","","53","","","","20","","17","","24.1","","101.65","","","","-13","","NA"
"-94.07","58.74","CHURCHILL A","5060605","2020-03-21 20:00","2020","03","21","20:00","-8.4","","-15.3","","58","","","","20","","17","","24.1","","101.58","","","","-15","","NA"
"-94.07","58.74","CHURCHILL A","5060605","2020-03-21 21:00","2020","03","21","21:00","-9.7","","-16.1","","60","","","","18","","16","","24.1","","101.51","","","","-17","","Cloudy"
"-94.07","58.74","CHURCHILL A","5060605","2020-03-21 22:00","2020","03","21","22:00","-8.7","","-16.2","","55","","","","20","","22","","24.1","","101.41","","","","-17","","NA"
"-94.07","58.74","CHURCHILL A","5060605","2020-03-21 23:00","2020","03","21","23:00","-7.8","","-16.3","","51","","","","21","","26","","24.1","","101.30","","","","-16","","NA"
"-94.07","58.74","CHURCHILL A","5060605","2020-03-22 00:00","2020","03","22","00:00","-7.8","","-16.3","","51","","","","21","","25","","24.1","","101.21","","","","-16","","Cloudy"
"-94.07","58.74","CHURCHILL A","5060605","2020-03-22 01:00","2020","03","22","01:00","-8.8","","-16.3","","55","","","","21","","22","","24.1","","101.10","","","","-17","","NA"
"-94.07","58.74","CHURCHILL A","5060605","2020-03-22 02:00","2020","03","22","02:00","-8.4","","-15.3","","58","","","","21","","25","","24.1","","100.97","","","","-17","","NA"
"-94.07","58.74","CHURCHILL A","5060605","2020-03-22 03:00","2020","03","22","03:00","-8.4","","-15.3","","58","","","","20","","24","","24.1","","100.86","","","","-17","","Mainly Clear"
"-94.07","58.74","CHURCHILL A","5060605","2020-03-22 04:00","2020","03","22","04:00","-10.4","","-16.1","","64","","","","19","","19","","24.1","","100.73","","","","-18","","NA"
"-94.07","58.74","CHURCHILL A","5060605","2020-03-22 05:00","2020","03","22","05:00","-9.9","","-16.3","","60","","","","19","","21","","24.1","","100.58","","","","-18","","NA"
"-94.07","58.74","CHURCHILL A","5060605","2020-03-22 06:00","2020","03","22","06:00","-10.9","","-16.1","","66","","","","18","","18","","24.1","","100.49","","","","-19","","Cloudy"
"-94.07","58.74","CHURCHILL A","5060605","2020-03-22 07:00","2020","03","22","07:00","-10.3","","-15.5","","66","","","","19","","20","","24.1","","100.37","","","","-18","","NA"
"-94.07","58.74","CHURCHILL A","5060605","2020-03-22 08:00","2020","03","22","08:00","-9.2","","-15.0","","63","","","","19","","19","","24.1","","100.26","","","","-17","","NA"
"-94.07","58.74","CHURCHILL A","5060605","2020-03-22 09:00","2020","03","22","09:00","-7.2","","-14.1","","58","","","","21","","28","","24.1","","100.15","","","","-16","","Mainly Clear"
"-94.07","58.74","CHURCHILL A","5060605","2020-03-22 10:00","2020","03","22","10:00","-6.4","","-12.7","","61","","","","22","","30","","24.1","","100.04","","","","-15","","NA"
"-94.07","58.74","CHURCHILL A","5060605","2020-03-22 11:00","2020","03","22","11:00","-6.0","","-11.9","","63","","","","22","","25","","24.1","","99.93","","","","-14","","NA"
"-94.07","58.74","CHURCHILL A","5060605","2020-03-22 12:00","2020","03","22","12:00","-5.5","","-10.1","","70","","","","22","","30","","24.1","","99.85","","","","-14","","Mostly Cloudy"
"-94.07","58.74","CHURCHILL A","5060605","2020-03-22 13:00","2020","03","22","13:00","-4.3","","-9.0","","70","","","","22","","25","","24.1","","99.79","","","","-11","","NA"
"-94.07","58.74","CHURCHILL A","5060605","2020-03-22 14:00","2020","03","22","14:00","-3.5","","-8.2","","70","","","","22","","24","","24.1","","99.73","","","","-10","","NA"
"-94.07","58.74","CHURCHILL A","5060605","2020-03-22 15:00","2020","03","22","15:00","-3.6","","-6.7","","79","","","","22","","29","","16.1","","99.70","","","","-11","","Snow"
"-94.07","58.74","CHURCHILL A","5060605","2020-03-22 16:00","2020","03","22","16:00","-3.1","","-5.6","","83","","","","24","","21","","16.1","","99.68","","","","-9","","Snow"
"-94.07","58.74","CHURCHILL A","5060605","2020-03-22 17:00","2020","03","22","17:00","-3.0","","-4.7","","88","","","","26","","17","","6.4","","99.67","","","","-9","","Snow"
"-94.07","58.74","CHURCHILL A","5060605","2020-03-22 18:00","2020","03","22","18:00","-3.3","","-4.7","","90","","","","26","","16","","6.4","","99.70","","","","-9","","Snow"
"-94.07","58.74","CHURCHILL A","5060605","2020-03-22 19:00","2020","03","22","19:00","-4.2","","-5.0","","95","","","","26","","14","","24.1","","99.73","","","","-9","","Snow"
"-94.07","58.74","CHURCHILL A","5060605","2020-03-22 20:00","2020","03","22","20:00","-5.0","","-6.2","","91","","","","29","","17","","24.1","","99.77","","","","-11","","Snow"
"-94.07","58.74","CHURCHILL A","5060605","2020-03-22 21:00","2020","03","22","21:00","-6.4","","-8.6","","85","","","","30","","20","","24.1","","99.81","","","","-13","","Mostly Cloudy"
"-94.07","58.74","CHURCHILL A","5060605","2020-03-22 22:00","2020","03","22","22:00","-6.7","","-8.8","","85","","","","31","","23","","24.1","","99.83","","","","-14","","NA"
"-94.07","58.74","CHURCHILL A","5060605","2020-03-22 23:00","2020","03","22","23:00","-8.9","","-11.5","","82","","","","31","","31","","24.1","","99.87","","","","-18","","Snow,Blowing Snow"
"-94.07","58.74","CHURCHILL A","5060605","2020-03-23 00:00","2020","03","23","00:00","-10.8","","-13.1","","83","","","","30","","22","","24.1","","99.90","","","","-19","","Snow,Blowing Snow"
"-94.07","58.74","CHURCHILL A","5060605","2020-03-23 01:00","2020","03","23","01:00","-11.2","","-13.4","","84","","","","30","","22","","20.9","","99.94","","","","-20","","Snow,Blowing Snow"
"-94.07","58.74","CHURCHILL A","5060605","2020-03-23 02:00","2020","03","23","02:00","-11.6","","-13.6","","85","","","","30","","27","","24.1","","99.97","","","","-21","","Snow,Blowing Snow"
"-94.07","58.74","CHURCHILL A","5060605","2020-03-23 03:00","2020","03","23","03:00","-12.1","","-14.1","","85","","","","30","","26","","24.1","","100.02","","","","-22","","Snow,Blowing Snow"
"-94.07","58.74","CHURCHILL A","5060605","2020-03-23 04:00","2020","03","23","04:00","-12.4","","-14.6","","84","","","","30","","26","","24.1","","100.07","","","","-22","","Snow,Blowing Snow"
"-94.07","58.74","CHURCHILL A","5060605","2020-03-23 05:00","2020","03","23","05:00","-12.1","","-14.1","","85","","","","31","","28","","24.1","","100.13","","","","-22","","Snow,Blowing Snow"
"-94.07","58.74","CHURCHILL A","5060605","2020-03-23 06:00","2020","03","23","06:00","-12.4","","-14.3","","86","","","","31","","26","","24.1","","100.20","","","","-22","","Snow,Blowing Snow"
"-94.07","58.74","CHURCHILL A","5060605","2020-03-23 07:00","2020","03","23","07:00","-12.1","","-14.1","","85","","","","30","","28","","9.7","","100.28","","","","-22","","Snow,Blowing Snow"
"-94.07","58.74","CHURCHILL A","5060605","2020-03-23 08:00","2020","03","23","08:00","-11.5","","-13.7","","84","","","","31","","28","","16.1","","100.36","","","","-21","","Snow,Blowing Snow"
"-94.07","58.74","CHURCHILL A","5060605","2020-03-23 09:00","2020","03","23","09:00","-10.6","","-12.9","","83","","","","32","","35","","8.1","","100.43","","","","-21","","Snow,Blowing Snow"
"-94.07","58.74","CHURCHILL A","5060605","2020-03-23 10:00","2020","03","23","10:00","-13.0","","-14.9","","86","","","","31","","28","","4.8","","100.53","","","","-23","","Snow,Blowing Snow"
"-94.07","58.74","CHURCHILL A","5060605","2020-03-23 11:00","2020","03","23","11:00","-12.9","","-15.4","","82","","","","30","","31","","16.1","","100.62","","","","-23","","Snow,Blowing Snow"
"-94.07","58.74","CHURCHILL A","5060605","2020-03-23 12:00","2020","03","23","12:00","-11.4","","-14.4","","79","","","","33","","39","","12.9","","100.70","","","","-23","","Snow,Blowing Snow"
"-94.07","58.74","CHURCHILL A","5060605","2020-03-23 13:00","2020","03","23","13:00","-11.8","","-15.2","","76","","","","32","","37","","16.1","","100.81","","","","-23","","Snow,Blowing Snow"
"-94.07","58.74","CHURCHILL A","5060605","2020-03-23 14:00","2020","03","23","14:00","-12.1","","-15.8","","74","","","","32","","36","","24.1","","100.88","","","","-23","","Snow,Blowing Snow"
"-94.07","58.74","CHURCHILL A","5060605","2020-03-23 15:00","2020","03","23","15:00","-12.0","","-15.4","","76","","","","32","","33","","24.1","","100.94","","","","-23","","Blowing Snow"
"-94.07","58.74","CHURCHILL A","5060605","2020-03-23 16:00","2020","03","23","16:00","-12.6","","-16.3","","74","","","","32","","33","","24.1","","101.04","","","","-23","","Blowing Snow"
"-94.07","58.74","CHURCHILL A","5060605","2020-03-23 17:00","2020","03","23","17:00","-13.0","","-16.9","","73","","","","32","","32","","24.1","","101.12","","","","-24","","Blowing Snow"
"-94.07","58.74","CHURCHILL A","5060605","2020-03-23 18:00","2020","03","23","18:00","-13.4","","-16.7","","77","","","","32","","22","","24.1","","101.17","","","","-23","","Blowing Snow"
"-94.07","58.74","CHURCHILL A","5060605","2020-03-23 19:00","2020","03","23","19:00","-13.3","","-16.3","","78","","","","33","","23","","24.1","","101.21","","","","-23","","NA"
"-94.07","58.74","CHURCHILL A","5060605","2020-03-23 20:00","2020","03","23","20:00","-13.5","","-16.2","","81","","","","34","","25","","24.1","","101.25","","","","-23","","NA"
"-94.07","58.74","CHURCHILL A","5060605","2020-03-23 21:00","2020","03","23","21:00","-13.3","","-16.1","","80","","","","33","","20","","24.1","","101.25","","","","-22","","Snow"
"-94.07","58.74","CHURCHILL A","5060605","2020-03-23 22:00","2020","03","23","22:00","-13.6","","-16.4","","80","","","","35","","14","","24.1","","101.27","","","","-21","","Snow"
"-94.07","58.74","CHURCHILL A","5060605","2020-03-23 23:00","2020","03","23","23:00","-16.4","","-18.6","","83","","","","30","","10","","24.1","","101.29","","","","-23","","Snow"
"-94.07","58.74","CHURCHILL A","5060605","2020-03-24 00:00","2020","03","24","00:00","-16.4","","-18.5","","84","","","","27","","10","","24.1","","101.34","","","","-23","","Snow"
"-94.07","58.74","CHURCHILL A","5060605","2020-03-24 01:00","2020","03","24","01:00","-17.4","","-19.4","","85","","","","30","","9","","24.1","","101.34","","","","-24","","Snow"
"-94.07","58.74","CHURCHILL A","5060605","2020-03-24 02:00","2020","03","24","02:00","-17.0","","-18.8","","86","","","","29","","9","","24.1","","101.38","","","","-23","","Snow"
"-94.07","58.74","CHURCHILL A","5060605","2020-03-24 03:00","2020","03","24","03:00","-16.3","","-18.0","","87","","","","27","","8","","24.1","","101.40","","","","-22","","Snow"
"-94.07","58.74","CHURCHILL A","5060605","2020-03-24 04:00","2020","03","24","04:00","-15.9","","-17.6","","87","","","","28","","7","","12.9","","101.44","","","","-21","","NA"
"-94.07","58.74","CHURCHILL A","5060605","2020-03-24 05:00","2020","03","24","05:00","-15.9","","-17.6","","87","","","","36","","7","","8.1","","101.48","","","","-21","","Snow"
"-94.07","58.74","CHURCHILL A","5060605","2020-03-24 06:00","2020","03","24","06:00","-14.3","","-17.0","","80","","","","36","","18","","6.4","","101.50","","","","-23","","Snow"
"-94.07","58.74","CHURCHILL A","5060605","2020-03-24 07:00","2020","03","24","07:00","-15.6","","-18.3","","80","","","","1","","14","","12.9","","101.55","","","","-23","","Snow"
"-94.07","58.74","CHURCHILL A","5060605","2020-03-24 08:00","2020","03","24","08:00","-15.5","","-18.4","","79","","","","1","","16","","8.1","","101.62","","","","-24","","Snow"
"-94.07","58.74","CHURCHILL A","5060605","2020-03-24 09:00","2020","03","24","09:00","-15.3","","-18.5","","77","","","","3","","19","","19.3","","101.66","","","","-24","","Snow"
"-94.07","58.74","CHURCHILL A","5060605","2020-03-24 10:00","2020","03","24","10:00","-15.0","","-19.3","","70","","","","2","","21","","24.1","","101.70","","","","-24","","NA"
"-94.07","58.74","CHURCHILL A","5060605","2020-03-24 11:00","2020","03","24","11:00","-14.8","","-18.6","","73","","","","3","","23","","9.7","","101.71","","","","-25","","Snow,Blowing Snow"
"-94.07","58.74","CHURCHILL A","5060605","2020-03-24 12:00","2020","03","24","12:00","-15.2","","-18.7","","75","","","","2","","18","","24.1","","101.73","","","","-24","","Mostly Cloudy"
"-94.07","58.74","CHURCHILL A","5060605","2020-03-24 13:00","2020","03","24","13:00","-15.0","","-19.0","","72","","","","3","","20","","24.1","","101.69","","","","-24","","NA"
"-94.07","58.74","CHURCHILL A","5060605","2020-03-24 14:00","2020","03","24","14:00","-14.9","","-18.7","","73","","","","3","","20","","24.1","","101.65","","","","-24","","NA"
"-94.07","58.74","CHURCHILL A","5060605","2020-03-24 15:00","2020","03","24","15:00","-15.1","","-18.6","","75","","","","3","","17","","24.1","","101.66","","","","-24","","Snow"
"-94.07","58.74","CHURCHILL A","5060605","2020-03-24 16:00","2020","03","24","16:00","-15.3","","-18.3","","78","","","","3","","16","","8.1","","101.68","","","","-24","","Snow"
"-94.07","58.74","CHURCHILL A","5060605","2020-03-24 17:00","2020","03","24","17:00","-15.9","","-19.2","","76","","","","4","","10","","16.1","","101.69","","","","-22","","Snow"
"-94.07","58.74","CHURCHILL A","5060605","2020-03-24 18:00","2020","03","24","18:00","-16.9","","-19.7","","79","","","","4","","11","","24.1","","101.70","","","","-24","","Mainly Clear"
"-94.07","58.74","CHURCHILL A","5060605","2020-03-24 19:00","2020","03","24","19:00","-17.4","","-19.6","","83","","","","5","","8","","24.1","","101.70","","","","-23","","Ice Crystals"
"-94.07","58.74","CHURCHILL A","5060605","2020-03-24 20:00","2020","03","24","20:00","-20.1","","-22.0","","85","","","","36","","2","","24.1","","101.69","","","","-22","","Ice Crystals"
"-94.07","58.74","CHURCHILL A","5060605","2020-03-24 21:00","2020","03","24","21:00","-20.2","","-22.1","","85","","","","36","","1","","24.1","","101.64","","","","-21","","Ice Crystals"
"-94.07","58.74","CHURCHILL A","5060605","2020-03-24 22:00","2020","03","24","22:00","-20.8","","-22.7","","85","","","","29","","8","","24.1","","101.59","","","","-27","","NA"
"-94.07","58.74","CHURCHILL A","5060605","2020-03-24 23:00","2020","03","24","23:00","-22.1","","-24.2","","83","","","","28","","8","","24.1","","101.56","","","","-29","","NA"
"-94.07","58.74","CHURCHILL A","5060605","2020-03-25 00:00","2020","03","25","00:00","-22.6","","-25.2","","80","","","","28","","9","","24.1","","101.51","","","","-30","","Mainly Clear"
"-94.07","58.74","CHURCHILL A","5060605","2020-03-25 01:00","2020","03","25","01:00","-22.7","","-25.1","","81","","","","27","","10","","24.1","","101.49","","","","-30","","NA"
"-94.07","58.74","CHURCHILL A","5060605","2020-03-25 02:00","2020","03","25","02:00","-22.9","","-25.3","","81","","","","28","","10","","24.1","","101.45","","","","-31","","NA"
"-94.07","58.74","CHURCHILL A","5060605","2020-03-25 03:00","2020","03","25","03:00","-23.9","","-26.2","","82","","","","29","","12","","24.1","","101.42","","","","-33","","Mainly Clear"
"-94.07","58.74","CHURCHILL A","5060605","2020-03-25 04:00","2020","03","25","04:00","-24.4","","-26.6","","82","","","","30","","11","","24.1","","101.40","","","","-33","","NA"
"-94.07","58.74","CHURCHILL A","5060605","2020-03-25 05:00","2020","03","25","05:00","-24.9","","-27.2","","81","","","","28","","9","","24.1","","101.38","","","","-33","","NA"
"-94.07","58.74","CHURCHILL A","5060605","2020-03-25 06:00","2020","03","25","06:00","-25.8","","-28.3","","80","","","","29","","12","","24.1","","101.38","","","","-35","","Clear"
"-94.07","58.74","CHURCHILL A","5060605","2020-03-25 07:00","2020","03","25","07:00","-26.5","","-29.0","","80","","","","25","","9","","24.1","","101.36","","","","-34","","NA"
"-94.07","58.74","CHURCHILL A","5060605","2020-03-25 08:00","2020","03","25","08:00","-24.6","","-27.1","","80","","","","26","","8","","24.1","","101.36","","","","-32","","NA"
"-94.07","58.74","CHURCHILL A","5060605","2020-03-25 09:00","2020","03","25","09:00","-21.4","","-24.6","","76","","","","26","","9","","24.1","","101.31","","","","-28","","Clear"
"-94.07","58.74","CHURCHILL A","5060605","2020-03-25 10:00","2020","03","25","10:00","-20.0","","-24.1","","70","","","","29","","8","","24.1","","101.27","","","","-26","","NA"
"-94.07","58.74","CHURCHILL A","5060605","2020-03-25 11:00","2020","03","25","11:00","-16.4","","-22.0","","62","","","","22","","12","","24.1","","101.19","","","","-24","","NA"
"-94.07","58.74","CHURCHILL A","5060605","2020-03-25 12:00","2020","03","25","12:00","-15.5","","-20.6","","66","","","","23","","10","","24.1","","101.13","","","","-22","","Mainly Clear"
"-94.07","58.74","CHURCHILL A","5060605","2020-03-25 13:00","2020","03","25","13:00","-14.9","","-20.3","","64","","","","23","","19","","24.1","","101.07","","","","-24","","NA"
"-94.07","58.74","CHURCHILL A","5060605","2020-03-25 14:00","2020","03","25","14:00","-14.1","","-20.1","","61","","","","21","","15","","24.1","","101.00","","","","-22","","NA"
"-94.07","58.74","CHURCHILL A","5060605","2020-03-25 15:00","2020","03","25","15:00","-13.7","","-20.0","","60","","","","23","","19","","24.1","","100.93","","","","-22","","Mostly Cloudy"
"-94.07","58.74","CHURCHILL A","5060605","2020-03-25 16:00","2020","03","25","16:00","-13.5","","-19.9","","59","","","","22","","16","","24.1","","100.87","","","","-21","","NA"
"-94.07","58.74","CHURCHILL A","5060605","2020-03-25 17:00","2020","03","25","17:00","-14.5","","-19.9","","64","","","","19","","17","","24.1","","100.84","","","","-23","","NA"
"-94.07","58.74","CHURCHILL A","5060605","2020-03-25 18:00","2020","03","25","18:00","-16.3","","-20.6","","70","","","","17","","16","","24.1","","100.80","","","","-25","","Mainly Clear"
"-94.07","58.74","CHURCHILL A","5060605","2020-03-25 19:00","2020","03","25","19:00","-18.3","","-21.9","","74","","","","17","","14","","24.1","","100.77","","","","-27","","NA"
"-94.07","58.74","CHURCHILL A","5060605","2020-03-25 20:00","2020","03","25","20:00","-19.9","","-22.8","","78","","","","17","","16","","24.1","","100.74","","","","-29","","NA"
"-94.07","58.74","CHURCHILL A","5060605","2020-03-25 21:00","2020","03","25","21:00","-20.5","","-23.1","","80","","","","17","","17","","24.1","","100.71","","","","-30","","Clear"
"-94.07","58.74","CHURCHILL A","5060605","2020-03-25 22:00","2020","03","25","22:00","-21.6","","-24.0","","81","","","","19","","16","","24.1","","100.65","","","","-31","","NA"
"-94.07","58.74","CHURCHILL A","5060605","2020-03-25 23:00","2020","03","25","23:00","-21.9","","-24.3","","81","","","","18","","16","","24.1","","100.59","","","","-32","","NA"
"-94.07","58.74","CHURCHILL A","5060605","2020-03-26 00:00","2020","03","26","00:00","-20.7","","-23.3","","80","","","","21","","15","","24.1","","100.54","","","","-30","","Clear"
"-94.07","58.74","CHURCHILL A","5060605","2020-03-26 01:00","2020","03","26","01:00","-20.1","","-23.0","","78","","","","21","","15","","24.1","","100.51","","","","-29","","NA"
"-94.07","58.74","CHURCHILL A","5060605","2020-03-26 02:00","2020","03","26","02:00","-20.3","","-23.1","","79","","","","20","","13","","24.1","","100.46","","","","-29","","NA"
"-94.07","58.74","CHURCHILL A","5060605","2020-03-26 03:00","2020","03","26","03:00","-19.1","","-22.2","","77","","","","21","","17","","24.1","","100.42","","","","-29","","Mostly Cloudy"
"-94.07","58.74","CHURCHILL A","5060605","2020-03-26 04:00","2020","03","26","04:00","-20.4","","-23.1","","79","","","","20","","14","","24.1","","100.37","","","","-29","","NA"
"-94.07","58.74","CHURCHILL A","5060605","2020-03-26 05:00","2020","03","26","05:00","-21.2","","-23.6","","81","","","","20","","13","","24.1","","100.34","","","","-30","","NA"
"-94.07","58.74","CHURCHILL A","5060605","2020-03-26 06:00","2020","03","26","06:00","-21.4","","-23.7","","82","","","","20","","14","","24.1","","100.32","","","","-30","","Clear"
"-94.07","58.74","CHURCHILL A","5060605","2020-03-26 07:00","2020","03","26","07:00","-20.3","","-23.1","","79","","","","20","","16","","24.1","","100.30","","","","-30","","NA"
"-94.07","58.74","CHURCHILL A","5060605","2020-03-26 08:00","2020","03","26","08:00","-16.3","","-20.9","","68","","","","21","","18","","24.1","","100.26","","","","-25","","NA"
"-94.07","58.74","CHURCHILL A","5060605","2020-03-26 09:00","2020","03","26","09:00","-12.8","","-20.1","","55","","","","22","","19","","24.1","","100.23","","","","-21","","Mainly Clear"
"-94.07","58.74","CHURCHILL A","5060605","2020-03-26 10:00","2020","03","26","10:00","-9.4","","-18.8","","47","","","","22","","19","","24.1","","100.18","","","","-17","","NA"
"-94.07","58.74","CHURCHILL A","5060605","2020-03-26 11:00","2020","03","26","11:00","-7.4","","-18.0","","43","","","","21","","17","","24.1","","100.12","","","","-14","","NA"
"-94.07","58.74","CHURCHILL A","5060605","2020-03-26 12:00","2020","03","26","12:00","-6.1","","-17.4","","41","","","","21","","23","","24.1","","100.07","","","","-13","","Mainly Clear"
"-94.07","58.74","CHURCHILL A","5060605","2020-03-26 13:00","2020","03","26","13:00","-4.7","","-17.0","","38","","","","21","","24","","24.1","","99.98","","","","-12","","NA"
"-94.07","58.74","CHURCHILL A","5060605","2020-03-26 14:00","2020","03","26","14:00","-4.8","","-15.3","","44","","","","18","","21","","24.1","","99.94","","","","-11","","NA"
"-94.07","58.74","CHURCHILL A","5060605","2020-03-26 15:00","2020","03","26","15:00","-5.2","","-13.8","","51","","","","17","","19","","24.1","","99.89","","","","-12","","Cloudy"
"-94.07","58.74","CHURCHILL A","5060605","2020-03-26 16:00","2020","03","26","16:00","-6.1","","-12.7","","60","","","","18","","21","","24.1","","99.87","","","","-13","","NA"
"-94.07","58.74","CHURCHILL A","5060605","2020-03-26 17:00","2020","03","26","17:00","-6.0","","-10.8","","69","","","","18","","17","","24.1","","99.84","","","","-12","","NA"
"-94.07","58.74","CHURCHILL A","5060605","2020-03-26 18:00","2020","03","26","18:00","-7.1","","-11.7","","70","","","","18","","14","","24.1","","99.84","","","","-13","","Cloudy"
"-94.07","58.74","CHURCHILL A","5060605","2020-03-26 19:00","2020","03","26","19:00","-9.5","","-13.3","","74","","","","17","","13","","24.1","","99.85","","","","-16","","NA"
"-94.07","58.74","CHURCHILL A","5060605","2020-03-26 20:00","2020","03","26","20:00","-10.7","","-13.7","","79","","","","18","","15","","24.1","","99.83","","","","-18","","NA"
"-94.07","58.74","CHURCHILL A","5060605","2020-03-26 21:00","2020","03","26","21:00","-11.4","","-13.6","","84","","","","17","","15","","24.1","","99.83","","","","-18","","Mainly Clear"
"-94.07","58.74","CHURCHILL A","5060605","2020-03-26 22:00","2020","03","26","22:00","-10.6","","-12.4","","87","","","","18","","15","","24.1","","99.80","","","","-17","","NA"
"-94.07","58.74","CHURCHILL A","5060605","2020-03-26 23:00","2020","03","26","23:00","-11.7","","-13.0","","90","","","","19","","14","","24.1","","99.79","","","","-19","","NA"
"-94.07","58.74","CHURCHILL A","5060605","2020-03-27 00:00","2020","03","27","00:00","-12.1","","-13.3","","91","","","","18","","17","","24.1","","99.76","","","","-20","","Clear"
"-94.07","58.74","CHURCHILL A","5060605","2020-03-27 01:00","2020","03","27","01:00","-11.7","","-12.6","","93","","","","19","","17","","24.1","","99.75","","","","-19","","NA"
"-94.07","58.74","CHURCHILL A","5060605","2020-03-27 02:00","2020","03","27","02:00","-12.3","","-13.3","","92","","","","18","","16","","24.1","","99.75","","","","-20","","NA"
"-94.07","58.74","CHURCHILL A","5060605","2020-03-27 03:00","2020","03","27","03:00","-12.8","","-14.0","","91","","","","18","","15","","24.1","","99.73","","","","-20","","Clear"
"-94.07","58.74","CHURCHILL A","5060605","2020-03-27 04:00","2020","03","27","04:00","-12.9","","-14.1","","91","","","","17","","14","","24.1","","99.70","","","","-20","","NA"
"-94.07","58.74","CHURCHILL A","5060605","2020-03-27 05:00","2020","03","27","05:00","-13.2","","-14.5","","90","","","","17","","14","","24.1","","99.66","","","","-20","","NA"
"-94.07","58.74","CHURCHILL A","5060605","2020-03-27 06:00","2020","03","27","06:00","-13.8","","-15.2","","89","","","","17","","17","","24.1","","99.65","","","","-22","","Mostly Cloudy"
"-94.07","58.74","CHURCHILL A","5060605","2020-03-27 07:00","2020","03","27","07:00","-13.0","","-14.4","","89","","","","17","","15","","24.1","","99.64","","","","-20","","NA"
"-94.07","58.74","CHURCHILL A","5060605","2020-03-27 08:00","2020","03","27","08:00","-12.3","","-13.6","","90","","","","18","","13","","24.1","","99.65","","","","-19","","NA"
"-94.07","58.74","CHURCHILL A","5060605","2020-03-27 09:00","2020","03","27","09:00","-10.0","","-11.2","","91","","","","18","","10","","24.1","","99.69","","","","-15","","Mostly Cloudy"
"-94.07","58.74","CHURCHILL A","5060605","2020-03-27 10:00","2020","03","27","10:00","-8.7","","-10.1","","90","","","","13","","10","","24.1","","99.72","","","","-14","","NA"
"-94.07","58.74","CHURCHILL A","5060605","2020-03-27 11:00","2020","03","27","11:00","-4.5","","-8.6","","73","","","","19","","4","","24.1","","99.71","","","","-6","","NA"
"-94.07","58.74","CHURCHILL A","5060605","2020-03-27 12:00","2020","03","27","12:00","-7.0","","-9.0","","86","","","","1","","14","","24.1","","99.78","","","","-13","","Mostly Cloudy"
"-94.07","58.74","CHURCHILL A","5060605","2020-03-27 13:00","2020","03","27","13:00","-5.9","","-7.5","","89","","","","1","","16","","24.1","","99.82","","","","-12","","NA"
"-94.07","58.74","CHURCHILL A","5060605","2020-03-27 14:00","2020","03","27","14:00","-5.7","","-7.1","","90","","","","1","","35","","16.1","","99.90","","","","-14","","NA"
"-94.07","58.74","CHURCHILL A","5060605","2020-03-27 15:00","2020","03","27","15:00","-9.8","","-11.4","","88","","","","1","","50","","4.8","","100.07","","","","-21","","Snow,Blowing Snow"
"-94.07","58.74","CHURCHILL A","5060605","2020-03-27 16:00","2020","03","27","16:00","-12.0","","-13.7","","87","","","","1","","48","","1.2","","100.24","","","","-24","","Snow,Blowing Snow"
"-94.07","58.74","CHURCHILL A","5060605","2020-03-27 17:00","2020","03","27","17:00","-12.9","","-14.6","","87","","","","1","","41","","1.2","","100.45","","","","-25","","Snow,Blowing Snow"
"-94.07","58.74","CHURCHILL A","5060605","2020-03-27 18:00","2020","03","27","18:00","-13.1","","-15.0","","86","","","","1","","38","","1.2","","100.59","","","","-25","","Snow,Blowing Snow"
"-94.07","58.74","CHURCHILL A","5060605","2020-03-27 19:00","2020","03","27","19:00","-14.3","","-16.4","","84","","","","36","","45","","1.2","","100.72","","","","-27","","Snow,Blowing Snow"
"-94.07","58.74","CHURCHILL A","5060605","2020-03-27 20:00","2020","03","27","20:00","-15.8","","-17.9","","84","","","","36","","45","","3.2","","100.86","","","","-29","","Snow,Blowing Snow"
"-94.07","58.74","CHURCHILL A","5060605","2020-03-27 21:00","2020","03","27","21:00","-16.0","","-18.1","","84","","","","1","","40","","6.4","","100.91","","","","-29","","Snow,Blowing Snow"
"-94.07","58.74","CHURCHILL A","5060605","2020-03-27 22:00","2020","03","27","22:00","-16.1","","-18.2","","84","","","","36","","39","","4.8","","101.08","","","","-29","","Snow,Blowing Snow"
"-94.07","58.74","CHURCHILL A","5060605","2020-03-27 23:00","2020","03","27","23:00","-16.4","","-18.5","","84","","","","36","","43","","1.6","","101.19","","","","-30","","Snow,Blowing Snow"
"-94.07","58.74","CHURCHILL A","5060605","2020-03-28 00:00","2020","03","28","00:00","-18.0","","-20.1","","84","","","","1","","37","","4.8","","101.23","","","","-31","","Snow,Blowing Snow"
"-94.07","58.74","CHURCHILL A","5060605","2020-03-28 01:00","2020","03","28","01:00","-17.9","","-20.1","","83","","","","1","","26","","6.4","","101.29","","","","-29","","Snow,Blowing Snow"
"-94.07","58.74","CHURCHILL A","5060605","2020-03-28 02:00","2020","03","28","02:00","-18.1","","-20.2","","84","","","","36","","27","","24.1","","101.31","","","","-30","","Ice Crystals,Blowing Snow"
"-94.07","58.74","CHURCHILL A","5060605","2020-03-28 03:00","2020","03","28","03:00","-18.2","","-20.4","","83","","","","1","","23","","24.1","","101.39","","","","-29","","Ice Crystals,Blowing Snow"
"-94.07","58.74","CHURCHILL A","5060605","2020-03-28 04:00","2020","03","28","04:00","-17.9","","-20.3","","82","","","","1","","25","","24.1","","101.45","","","","-29","","Snow,Blowing Snow"
"-94.07","58.74","CHURCHILL A","5060605","2020-03-28 05:00","2020","03","28","05:00","-18.0","","-20.2","","83","","","","3","","28","","24.1","","101.35","","","","-30","","Snow,Blowing Snow"
"-94.07","58.74","CHURCHILL A","5060605","2020-03-28 06:00","2020","03","28","06:00","-18.1","","-20.5","","82","","","","3","","20","","24.1","","101.32","","","","-28","","Snow"
"-94.07","58.74","CHURCHILL A","5060605","2020-03-28 07:00","2020","03","28","07:00","-18.1","","-20.9","","79","","","","5","","19","","24.1","","101.31","","","","-28","","NA"
"-94.07","58.74","CHURCHILL A","5060605","2020-03-28 08:00","2020","03","28","08:00","-18.1","","-20.9","","79","","","","6","","17","","24.1","","101.39","","","","-27","","Snow"
"-94.07","58.74","CHURCHILL A","5060605","2020-03-28 09:00","2020","03","28","09:00","-18.6","","-21.4","","79","","","","7","","18","","3.2","","101.32","","","","-28","","Snow"
"-94.07","58.74","CHURCHILL A","5060605","2020-03-28 10:00","2020","03","28","10:00","-18.6","","-21.4","","79","","","","7","","16","","4.0","","101.22","","","","-28","","Snow"
"-94.07","58.74","CHURCHILL A","5060605","2020-03-28 11:00","2020","03","28","11:00","-18.1","","-20.9","","79","","","","9","","17","","4.8","","101.14","","","","-27","","Snow"
"-94.07","58.74","CHURCHILL A","5060605","2020-03-28 12:00","2020","03","28","12:00","-18.1","","-21.1","","78","","","","10","","18","","3.2","","101.07","","","","-28","","Snow"
"-94.07","58.74","CHURCHILL A","5060605","2020-03-28 13:00","2020","03","28","13:00","-17.7","","-20.2","","81","","","","9","","23","","1.6","","100.94","","","","-28","","Snow"
"-94.07","58.74","CHURCHILL A","5060605","2020-03-28 14:00","2020","03","28","14:00","-17.1","","-19.5","","82","","","","9","","26","","1.6","","100.74","","","","-28","","Snow,Blowing Snow"
"-94.07","58.74","CHURCHILL A","5060605","2020-03-28 15:00","2020","03","28","15:00","-16.4","","-18.6","","83","","","","9","","28","","1.6","","100.58","","","","-28","","Snow,Blowing Snow"
"-94.07","58.74","CHURCHILL A","5060605","2020-03-28 16:00","2020","03","28","16:00","-15.7","","-17.7","","85","","","","9","","21","","1.6","","100.44","","","","-25","","Snow,Blowing Snow"
"-94.07","58.74","CHURCHILL A","5060605","2020-03-28 17:00","2020","03","28","17:00","-15.3","","-17.3","","85","","","","2","","7","","2.4","","100.48","","","","-20","","Snow"
"-94.07","58.74","CHURCHILL A","5060605","2020-03-28 18:00","2020","03","28","18:00","-14.8","","-16.6","","86","","","","36","","13","","2.4","","100.46","","","","-22","","Snow"
"-94.07","58.74","CHURCHILL A","5060605","2020-03-28 19:00","2020","03","28","19:00","-15.4","","-17.2","","86","","","","33","","22","","3.2","","100.44","","","","-25","","Snow"
"-94.07","58.74","CHURCHILL A","5060605","2020-03-28 20:00","2020","03","28","20:00","-15.9","","-17.9","","85","","","","31","","21","","9.7","","100.48","","","","-26","","Snow"
"-94.07","58.74","CHURCHILL A","5060605","2020-03-28 21:00","2020","03","28","21:00","-18.6","","-20.5","","85","","","","29","","25","","9.7","","100.51","","","","-30","","Snow,Blowing Snow"
"-94.07","58.74","CHURCHILL A","5060605","2020-03-28 22:00","2020","03","28","22:00","-20.2","","-22.4","","83","","","","31","","38","","1.2","","100.55","","","","-34","","Snow,Blowing Snow"
"-94.07","58.74","CHURCHILL A","5060605","2020-03-28 23:00","2020","03","28","23:00","-21.3","","-23.6","","82","","","","32","","53","","0.8","","100.65","","","","-38","","Snow,Blowing Snow"
"-94.07","58.74","CHURCHILL A","5060605","2020-03-29 00:00","2020","03","29","00:00","-21.6","","-23.9","","82","","","","32","","49","","0.6","","100.80","","","","-37","","Snow,Blowing Snow"
"-94.07","58.74","CHURCHILL A","5060605","2020-03-29 01:00","2020","03","29","01:00","-21.6","","-23.9","","82","","","","32","","56","","0.4","","100.94","","","","-38","","Snow,Blowing Snow"
"-94.07","58.74","CHURCHILL A","5060605","2020-03-29 02:00","2020","03","29","02:00","-21.4","","-23.7","","82","","","","32","","51","","0.4","","101.09","","","","-37","","Snow,Blowing Snow"
"-94.07","58.74","CHURCHILL A","5060605","2020-03-29 03:00","2020","03","29","03:00","-21.5","","-24.1","","80","","","","33","","50","","0.8","","101.27","","","","-37","","Snow,Blowing Snow"
"-94.07","58.74","CHURCHILL A","5060605","2020-03-29 04:00","2020","03","29","04:00","-21.5","","-23.9","","81","","","","33","","49","","1.2","","101.40","","","","-37","","Snow,Blowing Snow"
"-94.07","58.74","CHURCHILL A","5060605","2020-03-29 05:00","2020","03","29","05:00","-22.0","","-24.6","","80","","","","34","","42","","1.2","","101.59","","","","-37","","Snow,Blowing Snow"
"-94.07","58.74","CHURCHILL A","5060605","2020-03-29 06:00","2020","03","29","06:00","-22.0","","-24.7","","79","","","","34","","45","","1.2","","101.74","","","","-37","","Blowing Snow"
"-94.07","58.74","CHURCHILL A","5060605","2020-03-29 07:00","2020","03","29","07:00","-22.1","","-24.8","","79","","","","34","","44","","1.2","","101.86","","","","-38","","Blowing Snow"
"-94.07","58.74","CHURCHILL A","5060605","2020-03-29 08:00","2020","03","29","08:00","-21.6","","-24.5","","78","","","","34","","37","","3.2","","102.03","","","","-36","","Blowing Snow"
"-94.07","58.74","CHURCHILL A","5060605","2020-03-29 09:00","2020","03","29","09:00","-21.0","","-24.2","","76","","","","34","","34","","4.0","","102.19","","","","-35","","Blowing Snow"
"-94.07","58.74","CHURCHILL A","5060605","2020-03-29 10:00","2020","03","29","10:00","-20.6","","-23.9","","75","","","","34","","39","","9.7","","102.29","","","","-35","","Blowing Snow"
"-94.07","58.74","CHURCHILL A","5060605","2020-03-29 11:00","2020","03","29","11:00","-20.0","","-23.5","","74","","","","34","","30","","19.3","","102.44","","","","-33","","Blowing Snow"
"-94.07","58.74","CHURCHILL A","5060605","2020-03-29 12:00","2020","03","29","12:00","-19.2","","-22.9","","73","","","","33","","28","","24.1","","102.59","","","","-31","","Blowing Snow"
"-94.07","58.74","CHURCHILL A","5060605","2020-03-29 13:00","2020","03","29","13:00","-19.4","","-23.1","","73","","","","34","","34","","24.1","","102.62","","","","-32","","Blowing Snow"
"-94.07","58.74","CHURCHILL A","5060605","2020-03-29 14:00","2020","03","29","14:00","-19.4","","-22.9","","74","","","","34","","28","","24.1","","102.75","","","","-31","","Blowing Snow"
"-94.07","58.74","CHURCHILL A","5060605","2020-03-29 15:00","2020","03","29","15:00","-19.0","","-23.0","","71","","","","33","","22","","24.1","","102.87","","","","-30","","Blowing Snow"
"-94.07","58.74","CHURCHILL A","5060605","2020-03-29 16:00","2020","03","29","16:00","-18.7","","-22.9","","70","","","","35","","18","","24.1","","102.92","","","","-28","","NA"
"-94.07","58.74","CHURCHILL A","5060605","2020-03-29 17:00","2020","03","29","17:00","-18.8","","-22.4","","74","","","","36","","17","","24.1","","102.94","","","","-28","","NA"
"-94.07","58.74","CHURCHILL A","5060605","2020-03-29 18:00","2020","03","29","18:00","-19.6","","-23.0","","75","","","","34","","15","","24.1","","103.04","","","","-29","","Mostly Cloudy"
"-94.07","58.74","CHURCHILL A","5060605","2020-03-29 19:00","2020","03","29","19:00","-19.8","","-23.0","","76","","","","36","","13","","24.1","","103.08","","","","-28","","NA"
"-94.07","58.74","CHURCHILL A","5060605","2020-03-29 20:00","2020","03","29","20:00","-19.7","","-22.6","","78","","","","36","","13","","24.1","","103.11","","","","-28","","NA"
"-94.07","58.74","CHURCHILL A","5060605","2020-03-29 21:00","2020","03","29","21:00","-20.2","","-22.8","","80","","","","1","","14","","24.1","","103.16","","","","-29","","Mainly Clear"
"-94.07","58.74","CHURCHILL A","5060605","2020-03-29 22:00","2020","03","29","22:00","-19.7","","-22.3","","80","","","","2","","8","","24.1","","103.19","","","","-26","","NA"
"-94.07","58.74","CHURCHILL A","5060605","2020-03-29 23:00","2020","03","29","23:00","-20.1","","-22.9","","79","","","","4","","9","","24.1","","103.23","","","","-27","","NA"
"-94.07","58.74","CHURCHILL A","5060605","2020-03-30 00:00","2020","03","30","00:00","-19.8","","-22.6","","79","","","","8","","4","","24.1","","103.29","","","","-23","","Cloudy"
"-94.07","58.74","CHURCHILL A","5060605","2020-03-30 01:00","2020","03","30","01:00","-19.6","","-22.2","","80","","","","10","","5","","24.1","","103.32","","","","-24","","NA"
"-94.07","58.74","CHURCHILL A","5060605","2020-03-30 02:00","2020","03","30","02:00","-19.7","","-22.5","","79","","","","9","","7","","24.1","","103.36","","","","-25","","NA"
"-94.07","58.74","CHURCHILL A","5060605","2020-03-30 03:00","2020","03","30","03:00","-19.3","","-22.2","","78","","","","8","","9","","24.1","","103.39","","","","-26","","Cloudy"
"-94.07","58.74","CHURCHILL A","5060605","2020-03-30 04:00","2020","03","30","04:00","-19.3","","-22.1","","79","","","","8","","13","","24.1","","103.38","","","","-28","","NA"
"-94.07","58.74","CHURCHILL A","5060605","2020-03-30 05:00","2020","03","30","05:00","-18.9","","-22.0","","77","","","","9","","14","","24.1","","103.39","","","","-27","","NA"
"-94.07","58.74","CHURCHILL A","5060605","2020-03-30 06:00","2020","03","30","06:00","-19.0","","-21.4","","82","","","","9","","14","","3.2","","103.42","","","","-28","","Snow"
"-94.07","58.74","CHURCHILL A","5060605","2020-03-30 07:00","2020","03","30","07:00","-18.7","","-21.1","","82","","","","9","","17","","2.4","","103.45","","","","-28","","Snow"
"-94.07","58.74","CHURCHILL A","5060605","2020-03-30 08:00","2020","03","30","08:00","-18.3","","-20.7","","82","","","","9","","22","","2.4","","103.45","","","","-29","","Snow"
"-94.07","58.74","CHURCHILL A","5060605","2020-03-30 09:00","2020","03","30","09:00","-18.0","","-20.5","","81","","","","9","","25","","2.4","","103.43","","","","-29","","Snow"
"-94.07","58.74","CHURCHILL A","5060605","2020-03-30 10:00","2020","03","30","10:00","-17.7","","-20.4","","80","","","","9","","25","","2.4","","103.43","","","","-29","","Snow"
"-94.07","58.74","CHURCHILL A","5060605","2020-03-30 11:00","2020","03","30","11:00","-17.3","","-20.0","","80","","","","10","","23","","2.4","","103.38","","","","-28","","Snow,Blowing Snow"
"-94.07","58.74","CHURCHILL A","5060605","2020-03-30 12:00","2020","03","30","12:00","-17.0","","-19.6","","81","","","","10","","26","","3.2","","103.32","","","","-28","","Snow,Blowing Snow"
"-94.07","58.74","CHURCHILL A","5060605","2020-03-30 13:00","2020","03","30","13:00","-16.9","","-19.4","","81","","","","9","","29","","2.4","","103.25","","","","-28","","Snow,Blowing Snow"
"-94.07","58.74","CHURCHILL A","5060605","2020-03-30 14:00","2020","03","30","14:00","-16.6","","-19.0","","82","","","","9","","33","","0.6","","103.18","","","","-29","","Snow,Blowing Snow"
"-94.07","58.74","CHURCHILL A","5060605","2020-03-30 15:00","2020","03","30","15:00","-16.6","","-19.0","","82","","","","9","","34","","0.8","","103.11","","","","-29","","Snow,Blowing Snow"
"-94.07","58.74","CHURCHILL A","5060605","2020-03-30 16:00","2020","03","30","16:00","-16.7","","-18.9","","83","","","","9","","35","","0.8","","102.99","","","","-29","","Snow,Blowing Snow"
"-94.07","58.74","CHURCHILL A","5060605","2020-03-30 17:00","2020","03","30","17:00","-16.5","","-18.5","","85","","","","9","","39","","0.6","","102.92","","","","-29","","Snow,Blowing Snow"
"-94.07","58.74","CHURCHILL A","5060605","2020-03-30 18:00","2020","03","30","18:00","-16.4","","-18.4","","85","","","","8","","35","","0.6","","102.90","","","","-29","","Snow,Blowing Snow"
"-94.07","58.74","CHURCHILL A","5060605","2020-03-30 19:00","2020","03","30","19:00","-16.2","","-18.2","","85","","","","8","","32","","0.8","","102.94","","","","-28","","Snow,Blowing Snow"
"-94.07","58.74","CHURCHILL A","5060605","2020-03-30 20:00","2020","03","30","20:00","-16.0","","-18.0","","85","","","","8","","38","","3.2","","102.88","","","","-29","","Snow,Blowing Snow"
"-94.07","58.74","CHURCHILL A","5060605","2020-03-30 21:00","2020","03","30","21:00","-15.7","","-17.7","","85","","","","8","","34","","4.8","","102.86","","","","-28","","Snow,Blowing Snow"
"-94.07","58.74","CHURCHILL A","5060605","2020-03-30 22:00","2020","03","30","22:00","-15.7","","-17.7","","85","","","","8","","37","","1.2","","102.82","","","","-28","","Snow,Blowing Snow"
"-94.07","58.74","CHURCHILL A","5060605","2020-03-30 23:00","2020","03","30","23:00","-15.6","","-17.6","","85","","","","8","","38","","4.0","","102.73","","","","-28","","Snow,Blowing Snow"
"-94.07","58.74","CHURCHILL A","5060605","2020-03-31 00:00","2020","03","31","00:00","-15.5","","-17.5","","85","","","","8","","36","","4.0","","102.65","","","","-28","","Snow,Blowing Snow"
"-94.07","58.74","CHURCHILL A","5060605","2020-03-31 01:00","2020","03","31","01:00","-15.4","","-17.2","","86","","","","8","","38","","1.2","","102.60","","","","-28","","Snow,Blowing Snow"
"-94.07","58.74","CHURCHILL A","5060605","2020-03-31 02:00","2020","03","31","02:00","-15.2","","-17.2","","85","","","","7","","38","","3.2","","102.58","","","","-27","","Snow,Blowing Snow"
"-94.07","58.74","CHURCHILL A","5060605","2020-03-31 03:00","2020","03","31","03:00","-15.1","","-16.9","","86","","","","7","","33","","3.2","","102.54","","","","-27","","Snow,Blowing Snow"
"-94.07","58.74","CHURCHILL A","5060605","2020-03-31 04:00","2020","03","31","04:00","-14.9","","-16.9","","85","","","","6","","38","","6.4","","102.50","","","","-27","","Snow,Blowing Snow"
"-94.07","58.74","CHURCHILL A","5060605","2020-03-31 05:00","2020","03","31","05:00","-14.9","","-16.8","","86","","","","7","","38","","1.6","","102.45","","","","-27","","Snow,Blowing Snow"
"-94.07","58.74","CHURCHILL A","5060605","2020-03-31 06:00","2020","03","31","06:00","-14.8","","-16.5","","87","","","","6","","33","","0.8","","102.43","","","","-26","","Snow,Blowing Snow"
"-94.07","58.74","CHURCHILL A","5060605","2020-03-31 07:00","2020","03","31","07:00","-14.4","","-16.2","","86","","","","6","","29","","6.4","","102.46","","","","-25","","Snow,Blowing Snow"
"-94.07","58.74","CHURCHILL A","5060605","2020-03-31 08:00","2020","03","31","08:00","-14.2","","-16.2","","85","","","","5","","36","","6.4","","102.42","","","","-26","","Snow,Blowing Snow"
"-94.07","58.74","CHURCHILL A","5060605","2020-03-31 09:00","2020","03","31","09:00","-13.9","","-16.1","","84","","","","5","","31","","9.7","","102.47","","","","-25","","Snow,Blowing Snow"
"-94.07","58.74","CHURCHILL A","5060605","2020-03-31 10:00","2020","03","31","10:00","-13.9","","-16.1","","84","","","","5","","34","","8.1","","102.41","","","","-25","","Snow,Blowing Snow"
"-94.07","58.74","CHURCHILL A","5060605","2020-03-31 11:00","2020","03","31","11:00","-13.8","","-15.9","","84","","","","4","","31","","11.3","","102.48","","","","-25","","Snow,Blowing Snow"
"-94.07","58.74","CHURCHILL A","5060605","2020-03-31 12:00","2020","03","31","12:00","-13.6","","-15.9","","83","","","","4","","31","","12.9","","102.45","","","","-24","","Snow,Blowing Snow"
"-94.07","58.74","CHURCHILL A","5060605","2020-03-31 13:00","2020","03","31","13:00","-13.4","","-15.8","","82","","","","3","","33","","12.9","","102.46","","","","-24","","Snow,Blowing Snow"
"-94.07","58.74","CHURCHILL A","5060605","2020-03-31 14:00","2020","03","31","14:00","-13.3","","-15.8","","82","","","","3","","34","","12.9","","102.51","","","","-24","","Snow,Blowing Snow"
"-94.07","58.74","CHURCHILL A","5060605","2020-03-31 15:00","2020","03","31","15:00","-13.3","","-15.6","","83","","","","3","","36","","9.7","","102.54","","","","-25","","Snow,Blowing Snow"
"-94.07","58.74","CHURCHILL A","5060605","2020-03-31 16:00","2020","03","31","16:00","-13.4","","-15.6","","84","","","","3","","39","","9.7","","102.58","","","","-25","","Snow,Blowing Snow"
"-94.07","58.74","CHURCHILL A","5060605","2020-03-31 17:00","2020","03","31","17:00","-13.5","","-15.7","","84","","","","3","","39","","9.7","","102.62","","","","-25","","Snow,Blowing Snow"
"-94.07","58.74","CHURCHILL A","5060605","2020-03-31 18:00","2020","03","31","18:00","-13.6","","-15.8","","84","","","","3","","40","","8.1","","102.67","","","","-26","","Snow,Blowing Snow"
"-94.07","58.74","CHURCHILL A","5060605","2020-03-31 19:00","2020","03","31","19:00","-13.7","","-15.7","","85","","","","3","","44","","8.1","","102.65","","","","-26","","Snow,Blowing Snow"
"-94.07","58.74","CHURCHILL A","5060605","2020-03-31 20:00","2020","03","31","20:00","-13.8","","-15.8","","85","","","","3","","41","","8.1","","102.69","","","","-26","","Snow,Blowing Snow"
"-94.07","58.74","CHURCHILL A","5060605","2020-03-31 21:00","2020","03","31","21:00","-13.7","","-15.6","","86","","","","4","","38","","6.4","","102.67","","","","-25","","Snow,Blowing Snow"
"-94.07","58.74","CHURCHILL A","5060605","2020-03-31 22:00","2020","03","31","22:00","-13.7","","-15.6","","86","","","","3","","41","","6.4","","102.65","","","","-26","","Snow,Blowing Snow"
"-94.07","58.74","CHURCHILL A","5060605","2020-03-31 23:00","2020","03","31","23:00","-13.7","","-15.6","","86","","","","3","","39","","4.0","","102.62","","","","-26","","Snow,Blowing Snow"
