"Longitude (x)","Latitude (y)","Station Name","Climate ID","Date/Time (LST)","Year","Month","Day","Time (LST)","Temp (°C)","Temp Flag","Dew Point Temp (°C)","Dew Point Temp Flag","Rel Hum (%)","Rel Hum Flag","Precip. Amount (mm)","Precip. Amount Flag","Wind Dir (10s deg)","Wind Dir Flag","Wind Spd (km/h)","Wind Spd Flag","Visibility (km)","Visibility Flag","Stn Press (kPa)","Stn Press Flag","Hmdx","Hmdx Flag","Wind Chill","Wind Chill Flag","Weather"
"-60.98","45.35","HART ISLAND (AUT)","8202318","2021-09-01 00:00","2021","09","01","00:00","17.5","","17.0","","97","","","","22","","4","","","","100.31","","","","","","NA"
"-60.98","45.35","HART ISLAND (AUT)","8202318","2021-09-01 01:00","2021","09","01","01:00","17.6","","17.2","","97","","","","21","","5","","","","100.27","","","","","","NA"
"-60.98","45.35","HART ISLAND (AUT)","8202318","2021-09-01 02:00","2021","09","01","02:00","16.9","","16.6","","98","","","","24","","4","","","","100.29","","","","","","NA"
"-60.98","45.35","HART ISLAND (AUT)","8202318","2021-09-01 03:00","2021","09","01","03:00","17.1","","16.9","","99","","","","18","","7","","","","100.29","","","","","","NA"
"-60.98","45.35","HART ISLAND (AUT)","8202318","2021-09-01 04:00","2021","09","01","04:00","16.2","","16.1","","99","","","","18","","7","","","","100.26","","","","","","NA"
"-60.98","45.35","HART ISLAND (AUT)","8202318","2021-09-01 05:00","2021","09","01","05:00","17.2","","17.2","","100","","","","20","","10","","","","100.25","","","","","","NA"
"-60.98","45.35","HART ISLAND (AUT)","8202318","2021-09-01 06:00","2021","09","01","06:00","17.1","","17.0","","100","","","","22","","10","","","","100.30","","","","","","NA"
"-60.98","45.35","HART ISLAND (AUT)","8202318","2021-09-01 07:00","2021","09","01","07:00","18.2","","18.2","","100","","","","29","","9","","","","100.36","","","","","","NA"
"-60.98","45.35","HART ISLAND (AUT)","8202318","2021-09-01 08:00","2021","09","01","08:00","19.2","","18.9","","98","","","","25","","5","","","","100.35","","","","","","NA"
"-60.98","45.35","HART ISLAND (AUT)","8202318","2021-09-01 09:00","2021","09","01","09:00","20.0","","18.7","","92","","","","26","","11","","","","100.38","","27","","","","NA"
"-60.98","45.35","HART ISLAND (AUT)","8202318","2021-09-01 10:00","2021","09","01","10:00","22.9","","18.1","","74","","","","24","","13","","","","100.37","","29","","","","NA"
"-60.98","45.35","HART ISLAND (AUT)","8202318","2021-09-01 11:00","2021","09","01","11:00","23.5","","17.6","","69","","","","22","","23","","","","100.38","","29","","","","NA"
"-60.98","45.35","HART ISLAND (AUT)","8202318","2021-09-01 12:00","2021","09","01","12:00","23.7","","19.7","","78","","","","32","","13","","","","100.39","","31","","","","NA"
"-60.98","45.35","HART ISLAND (AUT)","8202318","2021-09-01 13:00","2021","09","01","13:00","26.4","","20.6","","71","","","","25","","6","","","","100.41","","34","","","","NA"
"-60.98","45.35","HART ISLAND (AUT)","8202318","2021-09-01 14:00","2021","09","01","14:00","24.4","","18.4","","69","","","","32","","15","","","","100.44","","31","","","","NA"
"-60.98","45.35","HART ISLAND (AUT)","8202318","2021-09-01 15:00","2021","09","01","15:00","23.9","","15.5","","60","","","","28","","10","","","","100.49","","28","","","","NA"
"-60.98","45.35","HART ISLAND (AUT)","8202318","2021-09-01 16:00","2021","09","01","16:00","22.4","","16.3","","68","","","","31","","24","","","","100.55","","27","","","","NA"
"-60.98","45.35","HART ISLAND (AUT)","8202318","2021-09-01 17:00","2021","09","01","17:00","22.5","","16.1","","67","","","","29","","20","","","","100.60","","27","","","","NA"
"-60.98","45.35","HART ISLAND (AUT)","8202318","2021-09-01 18:00","2021","09","01","18:00","21.5","","17.4","","78","","","","29","","14","","","","100.70","","27","","","","NA"
"-60.98","45.35","HART ISLAND (AUT)","8202318","2021-09-01 19:00","2021","09","01","19:00","20.0","","17.9","","88","","","","29","","10","","","","100.76","","26","","","","NA"
"-60.98","45.35","HART ISLAND (AUT)","8202318","2021-09-01 20:00","2021","09","01","20:00","19.9","","18.2","","90","","","","27","","11","","","","100.82","","","","","","NA"
"-60.98","45.35","HART ISLAND (AUT)","8202318","2021-09-01 21:00","2021","09","01","21:00","19.1","","17.5","","90","","","","28","","14","","","","100.87","","","","","","NA"
"-60.98","45.35","HART ISLAND (AUT)","8202318","2021-09-01 22:00","2021","09","01","22:00","18.9","","17.5","","92","","","","28","","13","","","","100.95","","","","","","NA"
"-60.98","45.35","HART ISLAND (AUT)","8202318","2021-09-01 23:00","2021","09","01","23:00","17.9","","16.9","","94","","","","27","","6","","","","101.00","","","","","","NA"
"-60.98","45.35","HART ISLAND (AUT)","8202318","2021-09-02 00:00","2021","09","02","00:00","18.3","","17.5","","95","","","","28","","12","","","","101.05","","","","","","NA"
"-60.98","45.35","HART ISLAND (AUT)","8202318","2021-09-02 01:00","2021","09","02","01:00","18.1","","17.6","","97","","","","29","","15","","","","101.03","","","","","","NA"
"-60.98","45.35","HART ISLAND (AUT)","8202318","2021-09-02 02:00","2021","09","02","02:00","17.9","","17.5","","97","","","","29","","12","","","","101.01","","","","","","NA"
"-60.98","45.35","HART ISLAND (AUT)","8202318","2021-09-02 03:00","2021","09","02","03:00","17.6","","17.0","","97","","","","30","","9","","","","101.09","","","","","","NA"
"-60.98","45.35","HART ISLAND (AUT)","8202318","2021-09-02 04:00","2021","09","02","04:00","18.0","","17.7","","98","","","","33","","9","","","","101.07","","","","","","NA"
"-60.98","45.35","HART ISLAND (AUT)","8202318","2021-09-02 05:00","2021","09","02","05:00","16.5","","16.2","","98","","","","26","","9","","","","101.16","","","","","","NA"
"-60.98","45.35","HART ISLAND (AUT)","8202318","2021-09-02 06:00","2021","09","02","06:00","16.4","","16.0","","98","","","","18","","6","","","","101.16","","","","","","NA"
"-60.98","45.35","HART ISLAND (AUT)","8202318","2021-09-02 07:00","2021","09","02","07:00","17.7","","17.0","","96","","","","12","","3","","","","101.16","","","","","","NA"
"-60.98","45.35","HART ISLAND (AUT)","8202318","2021-09-02 08:00","2021","09","02","08:00","18.3","","17.6","","96","","","","14","","6","","","","101.22","","","","","","NA"
"-60.98","45.35","HART ISLAND (AUT)","8202318","2021-09-02 09:00","2021","09","02","09:00","18.8","","18.3","","97","","","","12","","12","","","","101.22","","","","","","NA"
"-60.98","45.35","HART ISLAND (AUT)","8202318","2021-09-02 10:00","2021","09","02","10:00","18.9","","18.4","","97","","","","11","","11","","","","101.19","","","","","","NA"
"-60.98","45.35","HART ISLAND (AUT)","8202318","2021-09-02 11:00","2021","09","02","11:00","19.1","","18.5","","97","","","","10","","8","","","","101.21","","","","","","NA"
"-60.98","45.35","HART ISLAND (AUT)","8202318","2021-09-02 12:00","2021","09","02","12:00","19.3","","18.4","","94","","","","11","","16","","","","101.14","","","","","","NA"
"-60.98","45.35","HART ISLAND (AUT)","8202318","2021-09-02 13:00","2021","09","02","13:00","19.1","","17.6","","91","","","","11","","24","","","","101.05","","","","","","NA"
"-60.98","45.35","HART ISLAND (AUT)","8202318","2021-09-02 14:00","2021","09","02","14:00","19.0","","16.4","","85","","","","11","","36","","","","100.82","","","","","","NA"
"-60.98","45.35","HART ISLAND (AUT)","8202318","2021-09-02 15:00","2021","09","02","15:00","18.9","","17.5","","92","","","","11","","40","","","","100.65","","","","","","NA"
"-60.98","45.35","HART ISLAND (AUT)","8202318","2021-09-02 16:00","2021","09","02","16:00","20.0","","18.3","","90","","","","13","","48","","","","100.51","","26","","","","NA"
"-60.98","45.35","HART ISLAND (AUT)","8202318","2021-09-02 17:00","2021","09","02","17:00","21.2","","20.1","","93","","","","15","","43","","","","100.38","","29","","","","NA"
"-60.98","45.35","HART ISLAND (AUT)","8202318","2021-09-02 18:00","2021","09","02","18:00","21.2","","20.3","","95","","","","16","","42","","","","100.31","","29","","","","NA"
"-60.98","45.35","HART ISLAND (AUT)","8202318","2021-09-02 19:00","2021","09","02","19:00","21.7","","21.0","","96","","","","16","","40","","","","100.26","","30","","","","NA"
"-60.98","45.35","HART ISLAND (AUT)","8202318","2021-09-02 20:00","2021","09","02","20:00","22.0","","21.5","","97","","","","16","","41","","","","100.23","","31","","","","NA"
"-60.98","45.35","HART ISLAND (AUT)","8202318","2021-09-02 21:00","2021","09","02","21:00","21.7","","21.2","","97","","","","16","","42","","","","100.11","","30","","","","NA"
"-60.98","45.35","HART ISLAND (AUT)","8202318","2021-09-02 22:00","2021","09","02","22:00","21.9","","21.4","","97","","","","16","","41","","","","100.05","","31","","","","NA"
"-60.98","45.35","HART ISLAND (AUT)","8202318","2021-09-02 23:00","2021","09","02","23:00","22.0","","21.3","","96","","","","16","","42","","","","99.90","","31","","","","NA"
"-60.98","45.35","HART ISLAND (AUT)","8202318","2021-09-03 00:00","2021","09","03","00:00","21.9","","20.6","","92","","","","18","","46","","","","99.88","","30","","","","NA"
"-60.98","45.35","HART ISLAND (AUT)","8202318","2021-09-03 01:00","2021","09","03","01:00","19.4","","17.4","","89","","","","20","","46","","","","99.89","","","","","","NA"
"-60.98","45.35","HART ISLAND (AUT)","8202318","2021-09-03 02:00","2021","09","03","02:00","18.1","","16.5","","90","","","","20","","44","","","","99.92","","","","","","NA"
"-60.98","45.35","HART ISLAND (AUT)","8202318","2021-09-03 03:00","2021","09","03","03:00","17.8","","15.8","","88","","","","20","","42","","","","99.96","","","","","","NA"
"-60.98","45.35","HART ISLAND (AUT)","8202318","2021-09-03 04:00","2021","09","03","04:00","17.9","","15.3","","84","","","","21","","47","","","","99.98","","","","","","NA"
"-60.98","45.35","HART ISLAND (AUT)","8202318","2021-09-03 05:00","2021","09","03","05:00","17.5","","15.4","","88","","","","21","","40","","","","100.03","","","","","","NA"
"-60.98","45.35","HART ISLAND (AUT)","8202318","2021-09-03 06:00","2021","09","03","06:00","17.1","","15.2","","89","","","","22","","35","","","","100.16","","","","","","NA"
"-60.98","45.35","HART ISLAND (AUT)","8202318","2021-09-03 07:00","2021","09","03","07:00","16.8","","14.6","","87","","","","21","","38","","","","100.23","","","","","","NA"
"-60.98","45.35","HART ISLAND (AUT)","8202318","2021-09-03 08:00","2021","09","03","08:00","17.8","","15.1","","84","","","","22","","38","","","","100.28","","","","","","NA"
"-60.98","45.35","HART ISLAND (AUT)","8202318","2021-09-03 09:00","2021","09","03","09:00","17.7","","14.5","","81","","","","24","","34","","","","100.40","","","","","","NA"
"-60.98","45.35","HART ISLAND (AUT)","8202318","2021-09-03 10:00","2021","09","03","10:00","18.2","","13.6","","74","","","","22","","33","","","","100.44","","","","","","NA"
"-60.98","45.35","HART ISLAND (AUT)","8202318","2021-09-03 11:00","2021","09","03","11:00","18.0","","14.0","","77","","","","23","","33","","","","100.46","","","","","","NA"
"-60.98","45.35","HART ISLAND (AUT)","8202318","2021-09-03 12:00","2021","09","03","12:00","18.8","","14.3","","75","","","","22","","29","","","","100.49","","","","","","NA"
"-60.98","45.35","HART ISLAND (AUT)","8202318","2021-09-03 13:00","2021","09","03","13:00","18.3","","14.6","","79","","","","22","","30","","","","100.53","","","","","","NA"
"-60.98","45.35","HART ISLAND (AUT)","8202318","2021-09-03 14:00","2021","09","03","14:00","18.0","","14.5","","80","","","","23","","30","","","","100.53","","","","","","NA"
"-60.98","45.35","HART ISLAND (AUT)","8202318","2021-09-03 15:00","2021","09","03","15:00","18.3","","14.5","","78","","","","23","","29","","","","100.60","","","","","","NA"
"-60.98","45.35","HART ISLAND (AUT)","8202318","2021-09-03 16:00","2021","09","03","16:00","17.6","","14.5","","82","","","","23","","32","","","","100.59","","","","","","NA"
"-60.98","45.35","HART ISLAND (AUT)","8202318","2021-09-03 17:00","2021","09","03","17:00","17.3","","14.6","","84","","","","23","","22","","","","100.61","","","","","","NA"
"-60.98","45.35","HART ISLAND (AUT)","8202318","2021-09-03 18:00","2021","09","03","18:00","17.0","","14.7","","86","","","","22","","18","","","","100.63","","","","","","NA"
"-60.98","45.35","HART ISLAND (AUT)","8202318","2021-09-03 19:00","2021","09","03","19:00","16.8","","14.8","","88","","","","22","","15","","","","100.64","","","","","","NA"
"-60.98","45.35","HART ISLAND (AUT)","8202318","2021-09-03 20:00","2021","09","03","20:00","16.5","","14.9","","90","","","","23","","7","","","","100.69","","","","","","NA"
"-60.98","45.35","HART ISLAND (AUT)","8202318","2021-09-03 21:00","2021","09","03","21:00","16.5","","14.6","","88","","","","21","","9","","","","100.69","","","","","","NA"
"-60.98","45.35","HART ISLAND (AUT)","8202318","2021-09-03 22:00","2021","09","03","22:00","16.1","","14.2","","88","","","","20","","9","","","","100.66","","","","","","NA"
"-60.98","45.35","HART ISLAND (AUT)","8202318","2021-09-03 23:00","2021","09","03","23:00","16.0","","13.7","","87","","","","21","","10","","","","100.65","","","","","","NA"
"-60.98","45.35","HART ISLAND (AUT)","8202318","2021-09-04 00:00","2021","09","04","00:00","14.9","","13.0","","88","","","","24","","13","","","","100.62","","","","","","NA"
"-60.98","45.35","HART ISLAND (AUT)","8202318","2021-09-04 01:00","2021","09","04","01:00","14.9","","12.6","","86","","","","24","","11","","","","100.59","","","","","","NA"
"-60.98","45.35","HART ISLAND (AUT)","8202318","2021-09-04 02:00","2021","09","04","02:00","14.7","","12.6","","87","","","","24","","13","","","","100.55","","","","","","NA"
"-60.98","45.35","HART ISLAND (AUT)","8202318","2021-09-04 03:00","2021","09","04","03:00","14.0","","12.2","","89","","","","24","","15","","","","100.49","","","","","","NA"
"-60.98","45.35","HART ISLAND (AUT)","8202318","2021-09-04 04:00","2021","09","04","04:00","13.5","","11.9","","90","","","","22","","6","","","","100.48","","","","","","NA"
"-60.98","45.35","HART ISLAND (AUT)","8202318","2021-09-04 05:00","2021","09","04","05:00","14.1","","12.5","","90","","","","18","","11","","","","100.45","","","","","","NA"
"-60.98","45.35","HART ISLAND (AUT)","8202318","2021-09-04 06:00","2021","09","04","06:00","15.2","","13.3","","88","","","","21","","11","","","","100.43","","","","","","NA"
"-60.98","45.35","HART ISLAND (AUT)","8202318","2021-09-04 07:00","2021","09","04","07:00","15.5","","13.9","","90","","","","24","","16","","","","100.42","","","","","","NA"
"-60.98","45.35","HART ISLAND (AUT)","8202318","2021-09-04 08:00","2021","09","04","08:00","14.2","","12.1","","87","","","","27","","27","","","","100.46","","","","","","NA"
"-60.98","45.35","HART ISLAND (AUT)","8202318","2021-09-04 09:00","2021","09","04","09:00","14.0","","11.1","","83","","","","27","","23","","","","100.48","","","","","","NA"
"-60.98","45.35","HART ISLAND (AUT)","8202318","2021-09-04 10:00","2021","09","04","10:00","14.9","","10.2","","73","","","","27","","17","","","","100.46","","","","","","NA"
"-60.98","45.35","HART ISLAND (AUT)","8202318","2021-09-04 11:00","2021","09","04","11:00","14.9","","10.3","","74","","","","26","","16","","","","100.44","","","","","","NA"
"-60.98","45.35","HART ISLAND (AUT)","8202318","2021-09-04 12:00","2021","09","04","12:00","15.6","","11.0","","74","","","","27","","17","","","","100.41","","","","","","NA"
"-60.98","45.35","HART ISLAND (AUT)","8202318","2021-09-04 13:00","2021","09","04","13:00","15.1","","12.4","","84","","","","26","","10","","","","100.41","","","","","","NA"
"-60.98","45.35","HART ISLAND (AUT)","8202318","2021-09-04 14:00","2021","09","04","14:00","15.2","","9.9","","71","","","","27","","25","","","","100.38","","","","","","NA"
"-60.98","45.35","HART ISLAND (AUT)","8202318","2021-09-04 15:00","2021","09","04","15:00","14.5","","9.9","","74","","","","25","","22","","","","100.39","","","","","","NA"
"-60.98","45.35","HART ISLAND (AUT)","8202318","2021-09-04 16:00","2021","09","04","16:00","14.7","","10.0","","73","","","","25","","14","","","","100.40","","","","","","NA"
"-60.98","45.35","HART ISLAND (AUT)","8202318","2021-09-04 17:00","2021","09","04","17:00","15.6","","10.3","","70","","","","24","","17","","","","100.41","","","","","","NA"
"-60.98","45.35","HART ISLAND (AUT)","8202318","2021-09-04 18:00","2021","09","04","18:00","14.2","","10.2","","77","","","","24","","14","","","","100.42","","","","","","NA"
"-60.98","45.35","HART ISLAND (AUT)","8202318","2021-09-04 19:00","2021","09","04","19:00","13.7","","10.4","","80","","","","22","","13","","","","100.41","","","","","","NA"
"-60.98","45.35","HART ISLAND (AUT)","8202318","2021-09-04 20:00","2021","09","04","20:00","13.9","","10.8","","81","","","","23","","11","","","","100.43","","","","","","NA"
"-60.98","45.35","HART ISLAND (AUT)","8202318","2021-09-04 21:00","2021","09","04","21:00","14.0","","11.0","","82","","","","23","","9","","","","100.41","","","","","","NA"
"-60.98","45.35","HART ISLAND (AUT)","8202318","2021-09-04 22:00","2021","09","04","22:00","13.5","","11.2","","86","","","","28","","5","","","","100.42","","","","","","NA"
"-60.98","45.35","HART ISLAND (AUT)","8202318","2021-09-04 23:00","2021","09","04","23:00","14.4","","11.8","","85","","","","32","","21","","","","100.47","","","","","","NA"
"-60.98","45.35","HART ISLAND (AUT)","8202318","2021-09-05 00:00","2021","09","05","00:00","14.6","","12.6","","88","","","","32","","29","","","","100.52","","","","","","NA"
"-60.98","45.35","HART ISLAND (AUT)","8202318","2021-09-05 01:00","2021","09","05","01:00","14.5","","12.0","","85","","","","32","","34","","","","100.57","","","","","","NA"
"-60.98","45.35","HART ISLAND (AUT)","8202318","2021-09-05 02:00","2021","09","05","02:00","14.6","","12.5","","87","","","","32","","39","","","","100.62","","","","","","NA"
"-60.98","45.35","HART ISLAND (AUT)","8202318","2021-09-05 03:00","2021","09","05","03:00","14.4","","12.3","","87","","","","31","","44","","","","100.70","","","","","","NA"
"-60.98","45.35","HART ISLAND (AUT)","8202318","2021-09-05 04:00","2021","09","05","04:00","14.5","","12.0","","85","","","","32","","41","","","","100.76","","","","","","NA"
"-60.98","45.35","HART ISLAND (AUT)","8202318","2021-09-05 05:00","2021","09","05","05:00","14.2","","12.0","","86","","","","32","","35","","","","100.83","","","","","","NA"
"-60.98","45.35","HART ISLAND (AUT)","8202318","2021-09-05 06:00","2021","09","05","06:00","14.2","","12.1","","87","","","","32","","37","","","","100.92","","","","","","NA"
"-60.98","45.35","HART ISLAND (AUT)","8202318","2021-09-05 07:00","2021","09","05","07:00","14.6","","12.0","","85","","","","30","","40","","","","100.97","","","","","","NA"
"-60.98","45.35","HART ISLAND (AUT)","8202318","2021-09-05 08:00","2021","09","05","08:00","14.7","","12.5","","86","","","","31","","36","","","","100.99","","","","","","NA"
"-60.98","45.35","HART ISLAND (AUT)","8202318","2021-09-05 09:00","2021","09","05","09:00","14.2","","12.4","","89","","","","31","","30","","","","101.11","","","","","","NA"
"-60.98","45.35","HART ISLAND (AUT)","8202318","2021-09-05 10:00","2021","09","05","10:00","15.1","","13.6","","91","","","","31","","25","","","","101.16","","","","","","NA"
"-60.98","45.35","HART ISLAND (AUT)","8202318","2021-09-05 11:00","2021","09","05","11:00","16.7","","13.4","","81","","","","30","","31","","","","101.16","","","","","","NA"
"-60.98","45.35","HART ISLAND (AUT)","8202318","2021-09-05 12:00","2021","09","05","12:00","16.5","","12.7","","78","","","","30","","30","","","","101.19","","","","","","NA"
"-60.98","45.35","HART ISLAND (AUT)","8202318","2021-09-05 13:00","2021","09","05","13:00","16.4","","12.6","","78","","","","29","","31","","","","101.23","","","","","","NA"
"-60.98","45.35","HART ISLAND (AUT)","8202318","2021-09-05 14:00","2021","09","05","14:00","16.5","","12.1","","75","","","","30","","36","","","","101.26","","","","","","NA"
"-60.98","45.35","HART ISLAND (AUT)","8202318","2021-09-05 15:00","2021","09","05","15:00","16.5","","12.2","","76","","","","30","","30","","","","101.27","","","","","","NA"
"-60.98","45.35","HART ISLAND (AUT)","8202318","2021-09-05 16:00","2021","09","05","16:00","15.4","","12.1","","81","","","","29","","29","","","","101.31","","","","","","NA"
"-60.98","45.35","HART ISLAND (AUT)","8202318","2021-09-05 17:00","2021","09","05","17:00","16.0","","11.6","","75","","","","31","","22","","","","101.35","","","","","","NA"
"-60.98","45.35","HART ISLAND (AUT)","8202318","2021-09-05 18:00","2021","09","05","18:00","15.0","","11.5","","80","","","","30","","23","","","","101.42","","","","","","NA"
"-60.98","45.35","HART ISLAND (AUT)","8202318","2021-09-05 19:00","2021","09","05","19:00","14.9","","10.7","","76","","","","32","","16","","","","101.46","","","","","","NA"
"-60.98","45.35","HART ISLAND (AUT)","8202318","2021-09-05 20:00","2021","09","05","20:00","14.7","","11.0","","78","","","","32","","7","","","","101.49","","","","","","NA"
"-60.98","45.35","HART ISLAND (AUT)","8202318","2021-09-05 21:00","2021","09","05","21:00","14.5","","10.8","","78","","","","32","","6","","","","101.51","","","","","","NA"
"-60.98","45.35","HART ISLAND (AUT)","8202318","2021-09-05 22:00","2021","09","05","22:00","13.4","","11.8","","90","","","","24","","6","","","","101.49","","","","","","NA"
"-60.98","45.35","HART ISLAND (AUT)","8202318","2021-09-05 23:00","2021","09","05","23:00","13.7","","11.8","","88","","","","22","","2","","","","101.50","","","","","","NA"
"-60.98","45.35","HART ISLAND (AUT)","8202318","2021-09-06 00:00","2021","09","06","00:00","14.1","","11.9","","86","","","","21","","5","","","","101.51","","","","","","NA"
"-60.98","45.35","HART ISLAND (AUT)","8202318","2021-09-06 01:00","2021","09","06","01:00","14.0","","12.0","","88","","","","18","","6","","","","101.50","","","","","","NA"
"-60.98","45.35","HART ISLAND (AUT)","8202318","2021-09-06 02:00","2021","09","06","02:00","14.1","","12.3","","89","","","","17","","8","","","","101.48","","","","","","NA"
"-60.98","45.35","HART ISLAND (AUT)","8202318","2021-09-06 03:00","2021","09","06","03:00","14.9","","12.5","","86","","","","17","","11","","","","101.47","","","","","","NA"
"-60.98","45.35","HART ISLAND (AUT)","8202318","2021-09-06 04:00","2021","09","06","04:00","15.6","","13.4","","87","","","","17","","17","","","","101.43","","","","","","NA"
"-60.98","45.35","HART ISLAND (AUT)","8202318","2021-09-06 05:00","2021","09","06","05:00","15.7","","13.9","","89","","","","16","","15","","","","101.44","","","","","","NA"
"-60.98","45.35","HART ISLAND (AUT)","8202318","2021-09-06 06:00","2021","09","06","06:00","15.9","","13.5","","86","","","","18","","12","","","","101.50","","","","","","NA"
"-60.98","45.35","HART ISLAND (AUT)","8202318","2021-09-06 07:00","2021","09","06","07:00","16.5","","13.8","","84","","","","16","","15","","","","101.50","","","","","","NA"
"-60.98","45.35","HART ISLAND (AUT)","8202318","2021-09-06 08:00","2021","09","06","08:00","17.3","","14.2","","82","","","","16","","28","","","","101.48","","","","","","NA"
"-60.98","45.35","HART ISLAND (AUT)","8202318","2021-09-06 09:00","2021","09","06","09:00","18.2","","14.6","","79","","","","17","","25","","","","101.47","","","","","","NA"
"-60.98","45.35","HART ISLAND (AUT)","8202318","2021-09-06 10:00","2021","09","06","10:00","18.7","","15.1","","79","","","","16","","33","","","","101.41","","","","","","NA"
"-60.98","45.35","HART ISLAND (AUT)","8202318","2021-09-06 11:00","2021","09","06","11:00","18.8","","15.7","","82","","","","15","","29","","","","101.38","","","","","","NA"
"-60.98","45.35","HART ISLAND (AUT)","8202318","2021-09-06 12:00","2021","09","06","12:00","18.8","","15.7","","82","","","","16","","35","","","","101.34","","","","","","NA"
"-60.98","45.35","HART ISLAND (AUT)","8202318","2021-09-06 13:00","2021","09","06","13:00","18.6","","16.2","","86","","","","16","","31","","","","101.31","","","","","","NA"
"-60.98","45.35","HART ISLAND (AUT)","8202318","2021-09-06 14:00","2021","09","06","14:00","18.9","","16.6","","86","","","","16","","33","","","","101.23","","","","","","NA"
"-60.98","45.35","HART ISLAND (AUT)","8202318","2021-09-06 15:00","2021","09","06","15:00","18.7","","16.5","","87","","","","16","","31","","","","101.18","","","","","","NA"
"-60.98","45.35","HART ISLAND (AUT)","8202318","2021-09-06 16:00","2021","09","06","16:00","18.7","","16.3","","86","","","","17","","34","","","","101.12","","","","","","NA"
"-60.98","45.35","HART ISLAND (AUT)","8202318","2021-09-06 17:00","2021","09","06","17:00","18.2","","16.4","","90","","","","17","","34","","","","101.07","","","","","","NA"
"-60.98","45.35","HART ISLAND (AUT)","8202318","2021-09-06 18:00","2021","09","06","18:00","17.7","","16.0","","90","","","","16","","35","","","","101.00","","","","","","NA"
"-60.98","45.35","HART ISLAND (AUT)","8202318","2021-09-06 19:00","2021","09","06","19:00","17.8","","16.2","","90","","","","16","","31","","","","100.98","","","","","","NA"
"-60.98","45.35","HART ISLAND (AUT)","8202318","2021-09-06 20:00","2021","09","06","20:00","17.8","","15.8","","88","","","","16","","26","","","","100.97","","","","","","NA"
"-60.98","45.35","HART ISLAND (AUT)","8202318","2021-09-06 21:00","2021","09","06","21:00","17.7","","16.0","","90","","","","16","","32","","","","100.91","","","","","","NA"
"-60.98","45.35","HART ISLAND (AUT)","8202318","2021-09-06 22:00","2021","09","06","22:00","18.1","","16.4","","90","","","","15","","35","","","","100.80","","","","","","NA"
"-60.98","45.35","HART ISLAND (AUT)","8202318","2021-09-06 23:00","2021","09","06","23:00","18.0","","17.0","","94","","","","16","","43","","","","100.71","","","","","","NA"
"-60.98","45.35","HART ISLAND (AUT)","8202318","2021-09-07 00:00","2021","09","07","00:00","17.8","","17.5","","98","","","","16","","37","","","","100.63","","","","","","NA"
"-60.98","45.35","HART ISLAND (AUT)","8202318","2021-09-07 01:00","2021","09","07","01:00","17.9","","17.7","","99","","","","16","","36","","","","100.54","","","","","","NA"
"-60.98","45.35","HART ISLAND (AUT)","8202318","2021-09-07 02:00","2021","09","07","02:00","18.3","","18.1","","99","","","","17","","28","","","","100.47","","","","","","NA"
"-60.98","45.35","HART ISLAND (AUT)","8202318","2021-09-07 03:00","2021","09","07","03:00","18.4","","18.1","","98","","","","18","","29","","","","100.39","","","","","","NA"
"-60.98","45.35","HART ISLAND (AUT)","8202318","2021-09-07 04:00","2021","09","07","04:00","18.6","","18.4","","99","","","","21","","26","","","","100.38","","","","","","NA"
"-60.98","45.35","HART ISLAND (AUT)","8202318","2021-09-07 05:00","2021","09","07","05:00","17.9","","17.7","","99","","","","21","","29","","","","100.41","","","","","","NA"
"-60.98","45.35","HART ISLAND (AUT)","8202318","2021-09-07 06:00","2021","09","07","06:00","16.4","","16.1","","98","","","","22","","31","","","","100.50","","","","","","NA"
"-60.98","45.35","HART ISLAND (AUT)","8202318","2021-09-07 07:00","2021","09","07","07:00","16.2","","16.0","","99","","","","21","","23","","","","100.58","","","","","","NA"
"-60.98","45.35","HART ISLAND (AUT)","8202318","2021-09-07 08:00","2021","09","07","08:00","16.3","","15.7","","96","","","","23","","27","","","","100.62","","","","","","NA"
"-60.98","45.35","HART ISLAND (AUT)","8202318","2021-09-07 09:00","2021","09","07","09:00","17.8","","15.8","","88","","","","22","","23","","","","100.61","","","","","","NA"
"-60.98","45.35","HART ISLAND (AUT)","8202318","2021-09-07 10:00","2021","09","07","10:00","17.9","","15.6","","86","","","","22","","27","","","","100.64","","","","","","NA"
"-60.98","45.35","HART ISLAND (AUT)","8202318","2021-09-07 11:00","2021","09","07","11:00","18.6","","15.7","","83","","","","22","","32","","","","100.62","","","","","","NA"
"-60.98","45.35","HART ISLAND (AUT)","8202318","2021-09-07 12:00","2021","09","07","12:00","19.5","","15.7","","79","","","","22","","31","","","","100.61","","","","","","NA"
"-60.98","45.35","HART ISLAND (AUT)","8202318","2021-09-07 13:00","2021","09","07","13:00","20.7","","15.7","","73","","","","22","","28","","","","100.59","","25","","","","NA"
"-60.98","45.35","HART ISLAND (AUT)","8202318","2021-09-07 14:00","2021","09","07","14:00","21.0","","15.3","","70","","","","22","","27","","","","100.61","","25","","","","NA"
"-60.98","45.35","HART ISLAND (AUT)","8202318","2021-09-07 15:00","2021","09","07","15:00","20.4","","15.7","","74","","","","23","","30","","","","100.65","","25","","","","NA"
"-60.98","45.35","HART ISLAND (AUT)","8202318","2021-09-07 16:00","2021","09","07","16:00","19.7","","15.4","","76","","","","22","","30","","","","100.71","","","","","","NA"
"-60.98","45.35","HART ISLAND (AUT)","8202318","2021-09-07 17:00","2021","09","07","17:00","19.4","","15.4","","77","","","","23","","25","","","","100.76","","","","","","NA"
"-60.98","45.35","HART ISLAND (AUT)","8202318","2021-09-07 18:00","2021","09","07","18:00","18.0","","15.1","","83","","","","23","","16","","","","100.85","","","","","","NA"
"-60.98","45.35","HART ISLAND (AUT)","8202318","2021-09-07 19:00","2021","09","07","19:00","16.6","","14.9","","90","","","","23","","16","","","","100.89","","","","","","NA"
"-60.98","45.35","HART ISLAND (AUT)","8202318","2021-09-07 20:00","2021","09","07","20:00","16.2","","14.9","","91","","","","23","","13","","","","100.99","","","","","","NA"
"-60.98","45.35","HART ISLAND (AUT)","8202318","2021-09-07 21:00","2021","09","07","21:00","15.9","","14.9","","94","","","","23","","13","","","","101.04","","","","","","NA"
"-60.98","45.35","HART ISLAND (AUT)","8202318","2021-09-07 22:00","2021","09","07","22:00","16.1","","13.9","","87","","","","25","","15","","","","101.10","","","","","","NA"
"-60.98","45.35","HART ISLAND (AUT)","8202318","2021-09-07 23:00","2021","09","07","23:00","16.2","","13.5","","84","","","","26","","16","","","","101.14","","","","","","NA"
"-60.98","45.35","HART ISLAND (AUT)","8202318","2021-09-08 00:00","2021","09","08","00:00","16.4","","13.5","","83","","","","26","","16","","","","101.16","","","","","","NA"
"-60.98","45.35","HART ISLAND (AUT)","8202318","2021-09-08 01:00","2021","09","08","01:00","15.4","","13.4","","88","","","","23","","14","","","","101.20","","","","","","NA"
"-60.98","45.35","HART ISLAND (AUT)","8202318","2021-09-08 02:00","2021","09","08","02:00","15.4","","13.4","","88","","","","24","","12","","","","101.23","","","","","","NA"
"-60.98","45.35","HART ISLAND (AUT)","8202318","2021-09-08 03:00","2021","09","08","03:00","14.8","","13.3","","91","","","","24","","13","","","","101.28","","","","","","NA"
"-60.98","45.35","HART ISLAND (AUT)","8202318","2021-09-08 04:00","2021","09","08","04:00","14.3","","13.0","","92","","","","25","","10","","","","101.29","","","","","","NA"
"-60.98","45.35","HART ISLAND (AUT)","8202318","2021-09-08 05:00","2021","09","08","05:00","14.2","","12.8","","92","","","","25","","12","","","","101.35","","","","","","NA"
"-60.98","45.35","HART ISLAND (AUT)","8202318","2021-09-08 06:00","2021","09","08","06:00","13.7","","12.9","","95","","","","19","","7","","","","101.43","","","","","","NA"
"-60.98","45.35","HART ISLAND (AUT)","8202318","2021-09-08 07:00","2021","09","08","07:00","15.2","","14.0","","92","","","","22","","10","","","","101.50","","","","","","NA"
"-60.98","45.35","HART ISLAND (AUT)","8202318","2021-09-08 08:00","2021","09","08","08:00","17.5","","14.6","","83","","","","25","","11","","","","101.53","","","","","","NA"
"-60.98","45.35","HART ISLAND (AUT)","8202318","2021-09-08 09:00","2021","09","08","09:00","19.8","","15.6","","77","","","","29","","9","","","","101.53","","","","","","NA"
"-60.98","45.35","HART ISLAND (AUT)","8202318","2021-09-08 10:00","2021","09","08","10:00","19.6","","16.8","","84","","","","31","","16","","","","101.57","","","","","","NA"
"-60.98","45.35","HART ISLAND (AUT)","8202318","2021-09-08 11:00","2021","09","08","11:00","21.9","","15.7","","68","","","","28","","12","","","","101.58","","26","","","","NA"
"-60.98","45.35","HART ISLAND (AUT)","8202318","2021-09-08 12:00","2021","09","08","12:00","22.4","","14.6","","61","","","","25","","17","","","","101.57","","26","","","","NA"
"-60.98","45.35","HART ISLAND (AUT)","8202318","2021-09-08 13:00","2021","09","08","13:00","21.7","","13.9","","61","","","","24","","28","","","","101.56","","25","","","","NA"
"-60.98","45.35","HART ISLAND (AUT)","8202318","2021-09-08 14:00","2021","09","08","14:00","21.4","","14.5","","65","","","","23","","32","","","","101.57","","25","","","","NA"
"-60.98","45.35","HART ISLAND (AUT)","8202318","2021-09-08 15:00","2021","09","08","15:00","21.2","","15.1","","68","","","","23","","29","","","","101.58","","25","","","","NA"
"-60.98","45.35","HART ISLAND (AUT)","8202318","2021-09-08 16:00","2021","09","08","16:00","20.5","","14.2","","67","","","","22","","29","","","","101.56","","","","","","NA"
"-60.98","45.35","HART ISLAND (AUT)","8202318","2021-09-08 17:00","2021","09","08","17:00","19.8","","13.3","","66","","","","21","","31","","","","101.61","","","","","","NA"
"-60.98","45.35","HART ISLAND (AUT)","8202318","2021-09-08 18:00","2021","09","08","18:00","18.5","","14.1","","76","","","","21","","24","","","","101.64","","","","","","NA"
"-60.98","45.35","HART ISLAND (AUT)","8202318","2021-09-08 19:00","2021","09","08","19:00","17.2","","14.8","","86","","","","21","","19","","","","101.69","","","","","","NA"
"-60.98","45.35","HART ISLAND (AUT)","8202318","2021-09-08 20:00","2021","09","08","20:00","16.1","","14.8","","92","","","","19","","10","","","","101.76","","","","","","NA"
"-60.98","45.35","HART ISLAND (AUT)","8202318","2021-09-08 21:00","2021","09","08","21:00","16.9","","16.0","","95","","","","19","","19","","","","101.74","","","","","","NA"
"-60.98","45.35","HART ISLAND (AUT)","8202318","2021-09-08 22:00","2021","09","08","22:00","17.0","","16.0","","94","","","","20","","18","","","","101.72","","","","","","NA"
"-60.98","45.35","HART ISLAND (AUT)","8202318","2021-09-08 23:00","2021","09","08","23:00","17.2","","16.5","","96","","","","18","","17","","","","101.76","","","","","","NA"
"-60.98","45.35","HART ISLAND (AUT)","8202318","2021-09-09 00:00","2021","09","09","00:00","17.3","","16.7","","96","","","","18","","17","","","","101.77","","","","","","NA"
"-60.98","45.35","HART ISLAND (AUT)","8202318","2021-09-09 01:00","2021","09","09","01:00","17.4","","16.8","","97","","","","17","","13","","","","101.79","","","","","","NA"
"-60.98","45.35","HART ISLAND (AUT)","8202318","2021-09-09 02:00","2021","09","09","02:00","17.6","","16.8","","95","","","","19","","13","","","","101.80","","","","","","NA"
"-60.98","45.35","HART ISLAND (AUT)","8202318","2021-09-09 03:00","2021","09","09","03:00","18.0","","16.6","","92","","","","19","","17","","","","101.77","","","","","","NA"
"-60.98","45.35","HART ISLAND (AUT)","8202318","2021-09-09 04:00","2021","09","09","04:00","18.0","","17.1","","95","","","","19","","19","","","","101.76","","","","","","NA"
"-60.98","45.35","HART ISLAND (AUT)","8202318","2021-09-09 05:00","2021","09","09","05:00","18.0","","17.2","","95","","","","19","","22","","","","101.72","","","","","","NA"
"-60.98","45.35","HART ISLAND (AUT)","8202318","2021-09-09 06:00","2021","09","09","06:00","18.4","","17.3","","93","","","","19","","24","","","","101.76","","","","","","NA"
"-60.98","45.35","HART ISLAND (AUT)","8202318","2021-09-09 07:00","2021","09","09","07:00","19.3","","17.7","","91","","","","18","","27","","","","101.74","","","","","","NA"
"-60.98","45.35","HART ISLAND (AUT)","8202318","2021-09-09 08:00","2021","09","09","08:00","20.3","","17.7","","85","","","","18","","26","","","","101.77","","26","","","","NA"
"-60.98","45.35","HART ISLAND (AUT)","8202318","2021-09-09 09:00","2021","09","09","09:00","20.7","","16.1","","75","","","","18","","29","","","","101.79","","25","","","","NA"
"-60.98","45.35","HART ISLAND (AUT)","8202318","2021-09-09 10:00","2021","09","09","10:00","21.6","","17.5","","78","","","","18","","33","","","","101.80","","27","","","","NA"
"-60.98","45.35","HART ISLAND (AUT)","8202318","2021-09-09 11:00","2021","09","09","11:00","22.9","","18.2","","75","","","","17","","27","","","","101.79","","29","","","","NA"
"-60.98","45.35","HART ISLAND (AUT)","8202318","2021-09-09 12:00","2021","09","09","12:00","21.7","","18.5","","82","","","","15","","25","","","","101.72","","28","","","","NA"
"-60.98","45.35","HART ISLAND (AUT)","8202318","2021-09-09 13:00","2021","09","09","13:00","19.5","","17.7","","89","","","","19","","22","","","","101.73","","","","","","NA"
"-60.98","45.35","HART ISLAND (AUT)","8202318","2021-09-09 14:00","2021","09","09","14:00","19.8","","18.4","","92","","","","15","","27","","","","101.63","","","","","","NA"
"-60.98","45.35","HART ISLAND (AUT)","8202318","2021-09-09 15:00","2021","09","09","15:00","19.7","","18.8","","95","","","","14","","25","","","","101.59","","","","","","NA"
"-60.98","45.35","HART ISLAND (AUT)","8202318","2021-09-09 16:00","2021","09","09","16:00","20.0","","19.2","","96","","","","14","","26","","","","101.56","","27","","","","NA"
"-60.98","45.35","HART ISLAND (AUT)","8202318","2021-09-09 17:00","2021","09","09","17:00","19.6","","19.1","","97","","","","14","","31","","","","101.49","","","","","","NA"
"-60.98","45.35","HART ISLAND (AUT)","8202318","2021-09-09 18:00","2021","09","09","18:00","19.9","","19.4","","97","","","","14","","32","","","","101.45","","","","","","NA"
"-60.98","45.35","HART ISLAND (AUT)","8202318","2021-09-09 19:00","2021","09","09","19:00","19.7","","19.3","","97","","","","14","","25","","","","101.47","","","","","","NA"
"-60.98","45.35","HART ISLAND (AUT)","8202318","2021-09-09 20:00","2021","09","09","20:00","20.0","","19.6","","98","","","","14","","29","","","","101.40","","27","","","","NA"
"-60.98","45.35","HART ISLAND (AUT)","8202318","2021-09-09 21:00","2021","09","09","21:00","19.9","","19.7","","99","","","","15","","31","","","","101.29","","","","","","NA"
"-60.98","45.35","HART ISLAND (AUT)","8202318","2021-09-09 22:00","2021","09","09","22:00","19.8","","19.6","","99","","","","16","","33","","","","101.25","","","","","","NA"
"-60.98","45.35","HART ISLAND (AUT)","8202318","2021-09-09 23:00","2021","09","09","23:00","20.0","","19.9","","99","","","","16","","33","","","","101.22","","27","","","","NA"
"-60.98","45.35","HART ISLAND (AUT)","8202318","2021-09-10 00:00","2021","09","10","00:00","19.9","","19.9","","100","","","","16","","33","","","","101.16","","","","","","NA"
"-60.98","45.35","HART ISLAND (AUT)","8202318","2021-09-10 01:00","2021","09","10","01:00","19.7","","19.7","","100","","","","16","","30","","","","101.10","","","","","","NA"
"-60.98","45.35","HART ISLAND (AUT)","8202318","2021-09-10 02:00","2021","09","10","02:00","19.9","","19.9","","100","","","","17","","30","","","","101.10","","","","","","NA"
"-60.98","45.35","HART ISLAND (AUT)","8202318","2021-09-10 03:00","2021","09","10","03:00","19.9","","19.9","","100","","","","17","","30","","","","101.03","","","","","","NA"
"-60.98","45.35","HART ISLAND (AUT)","8202318","2021-09-10 04:00","2021","09","10","04:00","19.5","","19.4","","100","","","","16","","35","","","","100.91","","","","","","NA"
"-60.98","45.35","HART ISLAND (AUT)","8202318","2021-09-10 05:00","2021","09","10","05:00","19.5","","19.5","","100","","","","16","","35","","","","100.90","","","","","","NA"
"-60.98","45.35","HART ISLAND (AUT)","8202318","2021-09-10 06:00","2021","09","10","06:00","19.8","","19.7","","100","","","","17","","33","","","","100.89","","","","","","NA"
"-60.98","45.35","HART ISLAND (AUT)","8202318","2021-09-10 07:00","2021","09","10","07:00","19.9","","19.9","","100","","","","17","","32","","","","100.86","","","","","","NA"
"-60.98","45.35","HART ISLAND (AUT)","8202318","2021-09-10 08:00","2021","09","10","08:00","19.9","","19.9","","100","","","","16","","34","","","","100.75","","","","","","NA"
"-60.98","45.35","HART ISLAND (AUT)","8202318","2021-09-10 09:00","2021","09","10","09:00","20.1","","20.1","","100","","","","16","","33","","","","100.66","","28","","","","NA"
"-60.98","45.35","HART ISLAND (AUT)","8202318","2021-09-10 10:00","2021","09","10","10:00","20.5","","20.5","","100","","","","15","","34","","","","100.60","","28","","","","NA"
"-60.98","45.35","HART ISLAND (AUT)","8202318","2021-09-10 11:00","2021","09","10","11:00","21.0","","21.0","","100","","","","15","","25","","","","100.50","","29","","","","NA"
"-60.98","45.35","HART ISLAND (AUT)","8202318","2021-09-10 12:00","2021","09","10","12:00","20.9","","20.9","","100","","","","16","","25","","","","100.40","","29","","","","NA"
"-60.98","45.35","HART ISLAND (AUT)","8202318","2021-09-10 13:00","2021","09","10","13:00","21.2","","21.0","","99","","","","15","","23","","","","100.25","","30","","","","NA"
"-60.98","45.35","HART ISLAND (AUT)","8202318","2021-09-10 14:00","2021","09","10","14:00","20.1","","20.0","","99","","","","13","","22","","","","100.10","","28","","","","NA"
"-60.98","45.35","HART ISLAND (AUT)","8202318","2021-09-10 15:00","2021","09","10","15:00","19.5","","19.4","","100","","","","12","","7","","","","99.98","","","","","","NA"
"-60.98","45.35","HART ISLAND (AUT)","8202318","2021-09-10 16:00","2021","09","10","16:00","19.3","","19.2","","100","","","","5","","10","","","","99.86","","","","","","NA"
"-60.98","45.35","HART ISLAND (AUT)","8202318","2021-09-10 17:00","2021","09","10","17:00","18.9","","18.9","","100","","","","3","","11","","","","99.66","","","","","","NA"
"-60.98","45.35","HART ISLAND (AUT)","8202318","2021-09-10 18:00","2021","09","10","18:00","18.8","","18.7","","100","","","","35","","18","","","","99.53","","","","","","NA"
"-60.98","45.35","HART ISLAND (AUT)","8202318","2021-09-10 19:00","2021","09","10","19:00","19.2","","19.2","","100","","","","30","","25","","","","99.58","","","","","","NA"
"-60.98","45.35","HART ISLAND (AUT)","8202318","2021-09-10 20:00","2021","09","10","20:00","19.2","","19.1","","99","","","","29","","33","","","","99.63","","","","","","NA"
"-60.98","45.35","HART ISLAND (AUT)","8202318","2021-09-10 21:00","2021","09","10","21:00","17.7","","16.9","","95","","","","29","","45","","","","99.73","","","","","","NA"
"-60.98","45.35","HART ISLAND (AUT)","8202318","2021-09-10 22:00","2021","09","10","22:00","17.3","","16.5","","95","","","","30","","45","","","","99.81","","","","","","NA"
"-60.98","45.35","HART ISLAND (AUT)","8202318","2021-09-10 23:00","2021","09","10","23:00","17.4","","16.1","","92","","","","29","","35","","","","100.00","","","","","","NA"
"-60.98","45.35","HART ISLAND (AUT)","8202318","2021-09-11 00:00","2021","09","11","00:00","17.0","","16.1","","94","","","","28","","32","","","","100.14","","","","","","NA"
"-60.98","45.35","HART ISLAND (AUT)","8202318","2021-09-11 01:00","2021","09","11","01:00","17.1","","16.1","","94","","","","27","","23","","","","100.25","","","","","","NA"
"-60.98","45.35","HART ISLAND (AUT)","8202318","2021-09-11 02:00","2021","09","11","02:00","17.1","","15.6","","91","","","","26","","22","","","","100.35","","","","","","NA"
"-60.98","45.35","HART ISLAND (AUT)","8202318","2021-09-11 03:00","2021","09","11","03:00","16.8","","15.3","","91","","","","25","","17","","","","100.45","","","","","","NA"
"-60.98","45.35","HART ISLAND (AUT)","8202318","2021-09-11 04:00","2021","09","11","04:00","16.1","","15.0","","94","","","","24","","19","","","","100.56","","","","","","NA"
"-60.98","45.35","HART ISLAND (AUT)","8202318","2021-09-11 05:00","2021","09","11","05:00","15.6","","14.8","","95","","","","24","","17","","","","100.64","","","","","","NA"
"-60.98","45.35","HART ISLAND (AUT)","8202318","2021-09-11 06:00","2021","09","11","06:00","15.6","","14.6","","94","","","","25","","18","","","","100.73","","","","","","NA"
"-60.98","45.35","HART ISLAND (AUT)","8202318","2021-09-11 07:00","2021","09","11","07:00","16.2","","14.8","","91","","","","24","","17","","","","100.83","","","","","","NA"
"-60.98","45.35","HART ISLAND (AUT)","8202318","2021-09-11 08:00","2021","09","11","08:00","17.4","","14.8","","85","","","","25","","17","","","","100.92","","","","","","NA"
"-60.98","45.35","HART ISLAND (AUT)","8202318","2021-09-11 09:00","2021","09","11","09:00","18.0","","14.1","","78","","","","27","","28","","","","100.99","","","","","","NA"
"-60.98","45.35","HART ISLAND (AUT)","8202318","2021-09-11 10:00","2021","09","11","10:00","18.8","","13.9","","73","","","","28","","33","","","","101.02","","","","","","NA"
"-60.98","45.35","HART ISLAND (AUT)","8202318","2021-09-11 11:00","2021","09","11","11:00","19.2","","13.3","","68","","","","27","","33","","","","101.05","","","","","","NA"
"-60.98","45.35","HART ISLAND (AUT)","8202318","2021-09-11 12:00","2021","09","11","12:00","20.0","","11.6","","59","","","","28","","33","","","","101.10","","","","","","NA"
"-60.98","45.35","HART ISLAND (AUT)","8202318","2021-09-11 13:00","2021","09","11","13:00","20.8","","12.2","","58","","","","28","","29","","","","101.18","","","","","","NA"
"-60.98","45.35","HART ISLAND (AUT)","8202318","2021-09-11 14:00","2021","09","11","14:00","21.1","","12.2","","57","","","","27","","27","","","","101.22","","","","","","NA"
"-60.98","45.35","HART ISLAND (AUT)","8202318","2021-09-11 15:00","2021","09","11","15:00","19.5","","13.3","","67","","","","33","","17","","","","101.29","","","","","","NA"
"-60.98","45.35","HART ISLAND (AUT)","8202318","2021-09-11 16:00","2021","09","11","16:00","20.1","","14.3","","69","","","","32","","14","","","","101.34","","","","","","NA"
"-60.98","45.35","HART ISLAND (AUT)","8202318","2021-09-11 17:00","2021","09","11","17:00","18.9","","14.4","","75","","","","22","","25","","","","101.41","","","","","","NA"
"-60.98","45.35","HART ISLAND (AUT)","8202318","2021-09-11 18:00","2021","09","11","18:00","17.7","","14.0","","79","","","","23","","19","","","","101.48","","","","","","NA"
"-60.98","45.35","HART ISLAND (AUT)","8202318","2021-09-11 19:00","2021","09","11","19:00","16.7","","13.8","","83","","","","24","","15","","","","101.54","","","","","","NA"
"-60.98","45.35","HART ISLAND (AUT)","8202318","2021-09-11 20:00","2021","09","11","20:00","16.0","","13.1","","83","","","","25","","9","","","","101.67","","","","","","NA"
"-60.98","45.35","HART ISLAND (AUT)","8202318","2021-09-11 21:00","2021","09","11","21:00","15.7","","12.1","","79","","","","28","","9","","","","101.69","","","","","","NA"
"-60.98","45.35","HART ISLAND (AUT)","8202318","2021-09-11 22:00","2021","09","11","22:00","14.6","","12.0","","85","","","","24","","8","","","","101.78","","","","","","NA"
"-60.98","45.35","HART ISLAND (AUT)","8202318","2021-09-11 23:00","2021","09","11","23:00","13.9","","11.3","","84","","","","22","","11","","","","101.81","","","","","","NA"
"-60.98","45.35","HART ISLAND (AUT)","8202318","2021-09-12 00:00","2021","09","12","00:00","14.2","","11.4","","83","","","","22","","12","","","","101.82","","","","","","NA"
"-60.98","45.35","HART ISLAND (AUT)","8202318","2021-09-12 01:00","2021","09","12","01:00","13.2","","11.0","","86","","","","23","","8","","","","101.84","","","","","","NA"
"-60.98","45.35","HART ISLAND (AUT)","8202318","2021-09-12 02:00","2021","09","12","02:00","12.9","","10.8","","87","","","","24","","8","","","","101.86","","","","","","NA"
"-60.98","45.35","HART ISLAND (AUT)","8202318","2021-09-12 03:00","2021","09","12","03:00","13.5","","11.2","","86","","","","23","","15","","","","101.87","","","","","","NA"
"-60.98","45.35","HART ISLAND (AUT)","8202318","2021-09-12 04:00","2021","09","12","04:00","12.8","","11.4","","92","","","","23","","11","","","","101.86","","","","","","NA"
"-60.98","45.35","HART ISLAND (AUT)","8202318","2021-09-12 05:00","2021","09","12","05:00","12.4","","11.0","","92","","","","22","","11","","","","101.89","","","","","","NA"
"-60.98","45.35","HART ISLAND (AUT)","8202318","2021-09-12 06:00","2021","09","12","06:00","12.4","","10.6","","89","","","","21","","13","","","","101.92","","","","","","NA"
"-60.98","45.35","HART ISLAND (AUT)","8202318","2021-09-12 07:00","2021","09","12","07:00","14.4","","11.7","","84","","","","22","","20","","","","101.93","","","","","","NA"
"-60.98","45.35","HART ISLAND (AUT)","8202318","2021-09-12 08:00","2021","09","12","08:00","16.6","","13.4","","82","","","","21","","24","","","","101.90","","","","","","NA"
"-60.98","45.35","HART ISLAND (AUT)","8202318","2021-09-12 09:00","2021","09","12","09:00","18.0","","14.2","","78","","","","21","","24","","","","101.90","","","","","","NA"
"-60.98","45.35","HART ISLAND (AUT)","8202318","2021-09-12 10:00","2021","09","12","10:00","19.2","","13.2","","68","","","","20","","28","","","","101.84","","","","","","NA"
"-60.98","45.35","HART ISLAND (AUT)","8202318","2021-09-12 11:00","2021","09","12","11:00","19.5","","13.7","","69","","","","20","","31","","","","101.79","","","","","","NA"
"-60.98","45.35","HART ISLAND (AUT)","8202318","2021-09-12 12:00","2021","09","12","12:00","19.2","","15.3","","78","","","","21","","32","","","","101.73","","","","","","NA"
"-60.98","45.35","HART ISLAND (AUT)","8202318","2021-09-12 13:00","2021","09","12","13:00","18.8","","15.5","","81","","","","19","","32","","","","101.68","","","","","","NA"
"-60.98","45.35","HART ISLAND (AUT)","8202318","2021-09-12 14:00","2021","09","12","14:00","19.5","","16.0","","80","","","","20","","28","","","","101.61","","","","","","NA"
"-60.98","45.35","HART ISLAND (AUT)","8202318","2021-09-12 15:00","2021","09","12","15:00","19.6","","15.8","","79","","","","19","","37","","","","101.54","","","","","","NA"
"-60.98","45.35","HART ISLAND (AUT)","8202318","2021-09-12 16:00","2021","09","12","16:00","19.3","","15.8","","80","","","","20","","37","","","","101.44","","","","","","NA"
"-60.98","45.35","HART ISLAND (AUT)","8202318","2021-09-12 17:00","2021","09","12","17:00","18.9","","15.6","","82","","","","20","","35","","","","101.37","","","","","","NA"
"-60.98","45.35","HART ISLAND (AUT)","8202318","2021-09-12 18:00","2021","09","12","18:00","18.3","","15.1","","82","","","","20","","25","","","","101.32","","","","","","NA"
"-60.98","45.35","HART ISLAND (AUT)","8202318","2021-09-12 19:00","2021","09","12","19:00","18.6","","15.9","","84","","","","20","","33","","","","101.22","","","","","","NA"
"-60.98","45.35","HART ISLAND (AUT)","8202318","2021-09-12 20:00","2021","09","12","20:00","18.8","","16.4","","86","","","","20","","40","","","","101.18","","","","","","NA"
"-60.98","45.35","HART ISLAND (AUT)","8202318","2021-09-12 21:00","2021","09","12","21:00","19.1","","16.5","","85","","","","20","","41","","","","101.10","","","","","","NA"
"-60.98","45.35","HART ISLAND (AUT)","8202318","2021-09-12 22:00","2021","09","12","22:00","19.4","","16.6","","84","","","","21","","46","","","","101.05","","","","","","NA"
"-60.98","45.35","HART ISLAND (AUT)","8202318","2021-09-12 23:00","2021","09","12","23:00","19.0","","16.7","","87","","","","23","","37","","","","101.07","","","","","","NA"
"-60.98","45.35","HART ISLAND (AUT)","8202318","2021-09-13 00:00","2021","09","13","00:00","18.3","","16.4","","89","","","","22","","41","","","","101.00","","","","","","NA"
"-60.98","45.35","HART ISLAND (AUT)","8202318","2021-09-13 01:00","2021","09","13","01:00","17.8","","16.3","","91","","","","23","","30","","","","101.01","","","","","","NA"
"-60.98","45.35","HART ISLAND (AUT)","8202318","2021-09-13 02:00","2021","09","13","02:00","17.2","","16.0","","93","","","","23","","26","","","","101.00","","","","","","NA"
"-60.98","45.35","HART ISLAND (AUT)","8202318","2021-09-13 03:00","2021","09","13","03:00","16.8","","15.9","","95","","","","23","","23","","","","100.97","","","","","","NA"
"-60.98","45.35","HART ISLAND (AUT)","8202318","2021-09-13 04:00","2021","09","13","04:00","16.1","","15.6","","96","","","","24","","15","","","","100.96","","","","","","NA"
"-60.98","45.35","HART ISLAND (AUT)","8202318","2021-09-13 05:00","2021","09","13","05:00","16.0","","15.5","","97","","","","23","","17","","","","100.99","","","","","","NA"
"-60.98","45.35","HART ISLAND (AUT)","8202318","2021-09-13 06:00","2021","09","13","06:00","15.5","","14.6","","94","","","","25","","8","","","","101.03","","","","","","NA"
"-60.98","45.35","HART ISLAND (AUT)","8202318","2021-09-13 07:00","2021","09","13","07:00","16.5","","14.5","","88","","","","24","","10","","","","101.07","","","","","","NA"
"-60.98","45.35","HART ISLAND (AUT)","8202318","2021-09-13 08:00","2021","09","13","08:00","17.8","","13.5","","76","","","","27","","13","","","","101.05","","","","","","NA"
"-60.98","45.35","HART ISLAND (AUT)","8202318","2021-09-13 09:00","2021","09","13","09:00","18.9","","12.8","","68","","","","29","","17","","","","101.00","","","","","","NA"
"-60.98","45.35","HART ISLAND (AUT)","8202318","2021-09-13 10:00","2021","09","13","10:00","18.5","","13.5","","73","","","","30","","17","","","","100.96","","","","","","NA"
"-60.98","45.35","HART ISLAND (AUT)","8202318","2021-09-13 11:00","2021","09","13","11:00","18.5","","13.1","","71","","","","30","","16","","","","100.90","","","","","","NA"
"-60.98","45.35","HART ISLAND (AUT)","8202318","2021-09-13 12:00","2021","09","13","12:00","18.9","","10.6","","58","","","","28","","22","","","","100.88","","","","","","NA"
"-60.98","45.35","HART ISLAND (AUT)","8202318","2021-09-13 13:00","2021","09","13","13:00","17.8","","11.9","","69","","","","29","","22","","","","100.88","","","","","","NA"
"-60.98","45.35","HART ISLAND (AUT)","8202318","2021-09-13 14:00","2021","09","13","14:00","17.5","","11.1","","66","","","","29","","14","","","","100.79","","","","","","NA"
"-60.98","45.35","HART ISLAND (AUT)","8202318","2021-09-13 15:00","2021","09","13","15:00","19.1","","11.6","","62","","","","31","","15","","","","100.77","","","","","","NA"
"-60.98","45.35","HART ISLAND (AUT)","8202318","2021-09-13 16:00","2021","09","13","16:00","18.9","","12.5","","66","","","","32","","11","","","","100.76","","","","","","NA"
"-60.98","45.35","HART ISLAND (AUT)","8202318","2021-09-13 17:00","2021","09","13","17:00","18.3","","11.5","","65","","","","29","","6","","","","100.77","","","","","","NA"
"-60.98","45.35","HART ISLAND (AUT)","8202318","2021-09-13 18:00","2021","09","13","18:00","17.4","","12.2","","72","","","","31","","10","","","","100.79","","","","","","NA"
"-60.98","45.35","HART ISLAND (AUT)","8202318","2021-09-13 19:00","2021","09","13","19:00","17.0","","12.9","","77","","","","24","","9","","","","100.86","","","","","","NA"
"-60.98","45.35","HART ISLAND (AUT)","8202318","2021-09-13 20:00","2021","09","13","20:00","16.0","","11.5","","74","","","","24","","11","","","","100.90","","","","","","NA"
"-60.98","45.35","HART ISLAND (AUT)","8202318","2021-09-13 21:00","2021","09","13","21:00","15.5","","12.1","","80","","","","25","","13","","","","100.91","","","","","","NA"
"-60.98","45.35","HART ISLAND (AUT)","8202318","2021-09-13 22:00","2021","09","13","22:00","14.8","","12.3","","85","","","","26","","10","","","","100.96","","","","","","NA"
"-60.98","45.35","HART ISLAND (AUT)","8202318","2021-09-13 23:00","2021","09","13","23:00","14.1","","11.9","","87","","","","25","","13","","","","100.95","","","","","","NA"
"-60.98","45.35","HART ISLAND (AUT)","8202318","2021-09-14 00:00","2021","09","14","00:00","14.4","","12.1","","86","","","","25","","11","","","","100.95","","","","","","NA"
"-60.98","45.35","HART ISLAND (AUT)","8202318","2021-09-14 01:00","2021","09","14","01:00","14.1","","11.9","","87","","","","24","","12","","","","100.97","","","","","","NA"
"-60.98","45.35","HART ISLAND (AUT)","8202318","2021-09-14 02:00","2021","09","14","02:00","13.9","","11.8","","87","","","","25","","13","","","","100.98","","","","","","NA"
"-60.98","45.35","HART ISLAND (AUT)","8202318","2021-09-14 03:00","2021","09","14","03:00","13.8","","12.1","","90","","","","26","","15","","","","101.01","","","","","","NA"
"-60.98","45.35","HART ISLAND (AUT)","8202318","2021-09-14 04:00","2021","09","14","04:00","13.5","","11.9","","90","","","","26","","17","","","","101.05","","","","","","NA"
"-60.98","45.35","HART ISLAND (AUT)","8202318","2021-09-14 05:00","2021","09","14","05:00","13.6","","12.1","","91","","","","27","","18","","","","101.09","","","","","","NA"
"-60.98","45.35","HART ISLAND (AUT)","8202318","2021-09-14 06:00","2021","09","14","06:00","14.6","","12.9","","89","","","","28","","20","","","","101.13","","","","","","NA"
"-60.98","45.35","HART ISLAND (AUT)","8202318","2021-09-14 07:00","2021","09","14","07:00","15.3","","12.8","","85","","","","28","","23","","","","101.17","","","","","","NA"
"-60.98","45.35","HART ISLAND (AUT)","8202318","2021-09-14 08:00","2021","09","14","08:00","15.7","","12.9","","84","","","","28","","26","","","","101.24","","","","","","NA"
"-60.98","45.35","HART ISLAND (AUT)","8202318","2021-09-14 09:00","2021","09","14","09:00","16.3","","13.3","","82","","","","28","","25","","","","101.30","","","","","","NA"
"-60.98","45.35","HART ISLAND (AUT)","8202318","2021-09-14 10:00","2021","09","14","10:00","18.0","","13.2","","73","","","","28","","24","","","","101.31","","","","","","NA"
"-60.98","45.35","HART ISLAND (AUT)","8202318","2021-09-14 11:00","2021","09","14","11:00","18.7","","14.0","","74","","","","31","","25","","","","101.31","","","","","","NA"
"-60.98","45.35","HART ISLAND (AUT)","8202318","2021-09-14 12:00","2021","09","14","12:00","18.4","","12.6","","69","","","","30","","26","","","","101.34","","","","","","NA"
"-60.98","45.35","HART ISLAND (AUT)","8202318","2021-09-14 13:00","2021","09","14","13:00","18.4","","13.6","","74","","","","30","","31","","","","101.39","","","","","","NA"
"-60.98","45.35","HART ISLAND (AUT)","8202318","2021-09-14 14:00","2021","09","14","14:00","17.8","","12.3","","70","","","","31","","35","","","","101.44","","","","","","NA"
"-60.98","45.35","HART ISLAND (AUT)","8202318","2021-09-14 15:00","2021","09","14","15:00","17.4","","12.1","","71","","","","31","","34","","","","101.46","","","","","","NA"
"-60.98","45.35","HART ISLAND (AUT)","8202318","2021-09-14 16:00","2021","09","14","16:00","16.7","","11.4","","71","","","","32","","32","","","","101.51","","","","","","NA"
"-60.98","45.35","HART ISLAND (AUT)","8202318","2021-09-14 17:00","2021","09","14","17:00","15.4","","9.9","","70","","","","32","","34","","","","101.58","","","","","","NA"
"-60.98","45.35","HART ISLAND (AUT)","8202318","2021-09-14 18:00","2021","09","14","18:00","14.8","","9.0","","68","","","","31","","29","","","","101.70","","","","","","NA"
"-60.98","45.35","HART ISLAND (AUT)","8202318","2021-09-14 19:00","2021","09","14","19:00","14.6","","9.7","","72","","","","33","","27","","","","101.77","","","","","","NA"
"-60.98","45.35","HART ISLAND (AUT)","8202318","2021-09-14 20:00","2021","09","14","20:00","14.2","","8.6","","69","","","","34","","27","","","","101.88","","","","","","NA"
"-60.98","45.35","HART ISLAND (AUT)","8202318","2021-09-14 21:00","2021","09","14","21:00","13.6","","9.5","","76","","","","36","","25","","","","101.90","","","","","","NA"
"-60.98","45.35","HART ISLAND (AUT)","8202318","2021-09-14 22:00","2021","09","14","22:00","13.3","","8.5","","73","","","","36","","21","","","","101.91","","","","","","NA"
"-60.98","45.35","HART ISLAND (AUT)","8202318","2021-09-14 23:00","2021","09","14","23:00","13.2","","8.3","","72","","","","34","","17","","","","101.98","","","","","","NA"
"-60.98","45.35","HART ISLAND (AUT)","8202318","2021-09-15 00:00","2021","09","15","00:00","12.7","","8.4","","75","","","","1","","13","","","","102.02","","","","","","NA"
"-60.98","45.35","HART ISLAND (AUT)","8202318","2021-09-15 01:00","2021","09","15","01:00","12.5","","7.3","","71","","","","2","","13","","","","102.06","","","","","","NA"
"-60.98","45.35","HART ISLAND (AUT)","8202318","2021-09-15 02:00","2021","09","15","02:00","12.1","","7.0","","71","","","","3","","13","","","","102.09","","","","","","NA"
"-60.98","45.35","HART ISLAND (AUT)","8202318","2021-09-15 03:00","2021","09","15","03:00","11.8","","6.6","","71","","","","7","","8","","","","102.10","","","","","","NA"
"-60.98","45.35","HART ISLAND (AUT)","8202318","2021-09-15 04:00","2021","09","15","04:00","11.5","","6.3","","70","","","","8","","8","","","","102.14","","","","","","NA"
"-60.98","45.35","HART ISLAND (AUT)","8202318","2021-09-15 05:00","2021","09","15","05:00","11.9","","6.4","","69","","","","8","","9","","","","102.19","","","","","","NA"
"-60.98","45.35","HART ISLAND (AUT)","8202318","2021-09-15 06:00","2021","09","15","06:00","12.0","","6.9","","71","","","","9","","6","","","","102.24","","","","","","NA"
"-60.98","45.35","HART ISLAND (AUT)","8202318","2021-09-15 07:00","2021","09","15","07:00","13.6","","7.4","","66","","","","11","","12","","","","102.25","","","","","","NA"
"-60.98","45.35","HART ISLAND (AUT)","8202318","2021-09-15 08:00","2021","09","15","08:00","14.6","","7.8","","64","","","","15","","17","","","","102.24","","","","","","NA"
"-60.98","45.35","HART ISLAND (AUT)","8202318","2021-09-15 09:00","2021","09","15","09:00","15.3","","8.4","","63","","","","15","","19","","","","102.37","","","","","","NA"
"-60.98","45.35","HART ISLAND (AUT)","8202318","2021-09-15 10:00","2021","09","15","10:00","16.2","","9.3","","64","","","","16","","20","","","","102.35","","","","","","NA"
"-60.98","45.35","HART ISLAND (AUT)","8202318","2021-09-15 11:00","2021","09","15","11:00","16.7","","10.4","","66","","","","15","","23","","","","102.30","","","","","","NA"
"-60.98","45.35","HART ISLAND (AUT)","8202318","2021-09-15 12:00","2021","09","15","12:00","16.2","","11.0","","71","","","","16","","26","","","","102.24","","","","","","NA"
"-60.98","45.35","HART ISLAND (AUT)","8202318","2021-09-15 13:00","2021","09","15","13:00","17.7","","12.8","","73","","","","16","","29","","","","102.14","","","","","","NA"
"-60.98","45.35","HART ISLAND (AUT)","8202318","2021-09-15 14:00","2021","09","15","14:00","17.2","","13.2","","78","","","","17","","31","","","","102.14","","","","","","NA"
"-60.98","45.35","HART ISLAND (AUT)","8202318","2021-09-15 15:00","2021","09","15","15:00","17.3","","13.7","","79","","","","17","","35","","","","102.04","","","","","","NA"
"-60.98","45.35","HART ISLAND (AUT)","8202318","2021-09-15 16:00","2021","09","15","16:00","17.5","","14.2","","81","","","","17","","36","","","","102.05","","","","","","NA"
"-60.98","45.35","HART ISLAND (AUT)","8202318","2021-09-15 17:00","2021","09","15","17:00","17.6","","14.8","","84","","","","17","","32","","","","102.02","","","","","","NA"
"-60.98","45.35","HART ISLAND (AUT)","8202318","2021-09-15 18:00","2021","09","15","18:00","17.6","","15.1","","85","","","","18","","26","","","","102.02","","","","","","NA"
"-60.98","45.35","HART ISLAND (AUT)","8202318","2021-09-15 19:00","2021","09","15","19:00","17.8","","15.3","","85","","","","18","","29","","","","102.02","","","","","","NA"
"-60.98","45.35","HART ISLAND (AUT)","8202318","2021-09-15 20:00","2021","09","15","20:00","18.0","","15.1","","83","","","","18","","31","","","","102.06","","","","","","NA"
"-60.98","45.35","HART ISLAND (AUT)","8202318","2021-09-15 21:00","2021","09","15","21:00","17.7","","16.2","","91","","","","17","","35","","","","101.96","","","","","","NA"
"-60.98","45.35","HART ISLAND (AUT)","8202318","2021-09-15 22:00","2021","09","15","22:00","17.6","","16.1","","91","","","","17","","29","","","","101.96","","","","","","NA"
"-60.98","45.35","HART ISLAND (AUT)","8202318","2021-09-15 23:00","2021","09","15","23:00","18.0","","15.8","","87","","","","18","","38","","","","101.92","","","","","","NA"
"-60.98","45.35","HART ISLAND (AUT)","8202318","2021-09-16 00:00","2021","09","16","00:00","18.3","","15.8","","85","","","","18","","28","","","","101.94","","","","","","NA"
"-60.98","45.35","HART ISLAND (AUT)","8202318","2021-09-16 01:00","2021","09","16","01:00","18.6","","16.4","","87","","","","19","","30","","","","101.87","","","","","","NA"
"-60.98","45.35","HART ISLAND (AUT)","8202318","2021-09-16 02:00","2021","09","16","02:00","18.1","","17.2","","95","","","","19","","32","","","","101.81","","","","","","NA"
"-60.98","45.35","HART ISLAND (AUT)","8202318","2021-09-16 03:00","2021","09","16","03:00","18.5","","17.8","","96","","","","19","","29","","","","101.72","","","","","","NA"
"-60.98","45.35","HART ISLAND (AUT)","8202318","2021-09-16 04:00","2021","09","16","04:00","19.5","","18.8","","96","","","","20","","32","","","","101.68","","","","","","NA"
"-60.98","45.35","HART ISLAND (AUT)","8202318","2021-09-16 05:00","2021","09","16","05:00","20.1","","19.6","","97","","","","21","","34","","","","101.66","","27","","","","NA"
"-60.98","45.35","HART ISLAND (AUT)","8202318","2021-09-16 06:00","2021","09","16","06:00","19.3","","19.0","","99","","","","23","","27","","","","101.78","","","","","","NA"
"-60.98","45.35","HART ISLAND (AUT)","8202318","2021-09-16 07:00","2021","09","16","07:00","19.0","","18.9","","99","","","","23","","19","","","","101.85","","","","","","NA"
"-60.98","45.35","HART ISLAND (AUT)","8202318","2021-09-16 08:00","2021","09","16","08:00","19.1","","18.9","","98","","","","21","","21","","","","101.88","","","","","","NA"
"-60.98","45.35","HART ISLAND (AUT)","8202318","2021-09-16 09:00","2021","09","16","09:00","19.6","","18.9","","96","","","","22","","20","","","","101.92","","","","","","NA"
"-60.98","45.35","HART ISLAND (AUT)","8202318","2021-09-16 10:00","2021","09","16","10:00","20.1","","19.0","","94","","","","22","","16","","","","102.01","","27","","","","NA"
"-60.98","45.35","HART ISLAND (AUT)","8202318","2021-09-16 11:00","2021","09","16","11:00","19.6","","18.0","","91","","","","30","","14","","","","102.08","","","","","","NA"
"-60.98","45.35","HART ISLAND (AUT)","8202318","2021-09-16 12:00","2021","09","16","12:00","19.5","","17.7","","90","","","","30","","16","","","","102.15","","","","","","NA"
"-60.98","45.35","HART ISLAND (AUT)","8202318","2021-09-16 13:00","2021","09","16","13:00","18.0","","15.8","","87","","","","31","","27","","","","102.14","","","","","","NA"
"-60.98","45.35","HART ISLAND (AUT)","8202318","2021-09-16 14:00","2021","09","16","14:00","18.2","","15.1","","82","","","","30","","27","","","","102.26","","","","","","NA"
"-60.98","45.35","HART ISLAND (AUT)","8202318","2021-09-16 15:00","2021","09","16","15:00","17.8","","13.4","","76","","","","31","","29","","","","102.37","","","","","","NA"
"-60.98","45.35","HART ISLAND (AUT)","8202318","2021-09-16 16:00","2021","09","16","16:00","17.7","","14.4","","81","","","","32","","27","","","","102.43","","","","","","NA"
"-60.98","45.35","HART ISLAND (AUT)","8202318","2021-09-16 17:00","2021","09","16","17:00","17.5","","13.9","","80","","","","33","","25","","","","102.43","","","","","","NA"
"-60.98","45.35","HART ISLAND (AUT)","8202318","2021-09-16 18:00","2021","09","16","18:00","17.4","","12.8","","75","","","","33","","22","","","","102.52","","","","","","NA"
"-60.98","45.35","HART ISLAND (AUT)","8202318","2021-09-16 19:00","2021","09","16","19:00","17.0","","12.8","","76","","","","34","","18","","","","102.57","","","","","","NA"
"-60.98","45.35","HART ISLAND (AUT)","8202318","2021-09-16 20:00","2021","09","16","20:00","16.8","","12.4","","75","","","","34","","14","","","","102.69","","","","","","NA"
"-60.98","45.35","HART ISLAND (AUT)","8202318","2021-09-16 21:00","2021","09","16","21:00","16.7","","11.0","","69","","","","34","","13","","","","102.77","","","","","","NA"
"-60.98","45.35","HART ISLAND (AUT)","8202318","2021-09-16 22:00","2021","09","16","22:00","14.7","","11.7","","82","","","","25","","3","","","","102.83","","","","","","NA"
"-60.98","45.35","HART ISLAND (AUT)","8202318","2021-09-16 23:00","2021","09","16","23:00","13.1","","11.8","","91","","","","24","","3","","","","102.84","","","","","","NA"
"-60.98","45.35","HART ISLAND (AUT)","8202318","2021-09-17 00:00","2021","09","17","00:00","12.6","","11.9","","95","","","","27","","7","","","","102.84","","","","","","NA"
"-60.98","45.35","HART ISLAND (AUT)","8202318","2021-09-17 01:00","2021","09","17","01:00","15.3","","12.1","","81","","","","34","","14","","","","102.85","","","","","","NA"
"-60.98","45.35","HART ISLAND (AUT)","8202318","2021-09-17 02:00","2021","09","17","02:00","14.8","","11.0","","78","","","","36","","13","","","","102.86","","","","","","NA"
"-60.98","45.35","HART ISLAND (AUT)","8202318","2021-09-17 03:00","2021","09","17","03:00","13.6","","10.9","","84","","","","1","","10","","","","102.88","","","","","","NA"
"-60.98","45.35","HART ISLAND (AUT)","8202318","2021-09-17 04:00","2021","09","17","04:00","13.9","","12.0","","88","","","","4","","7","","","","102.89","","","","","","NA"
"-60.98","45.35","HART ISLAND (AUT)","8202318","2021-09-17 05:00","2021","09","17","05:00","12.0","","11.3","","95","","","","0","","1","","","","102.91","","","","","","NA"
"-60.98","45.35","HART ISLAND (AUT)","8202318","2021-09-17 06:00","2021","09","17","06:00","11.9","","11.4","","96","","","","14","","3","","","","102.95","","","","","","NA"
"-60.98","45.35","HART ISLAND (AUT)","8202318","2021-09-17 07:00","2021","09","17","07:00","14.6","","13.7","","94","","","","29","","5","","","","103.02","","","","","","NA"
"-60.98","45.35","HART ISLAND (AUT)","8202318","2021-09-17 08:00","2021","09","17","08:00","16.4","","14.7","","90","","","","30","","7","","","","103.05","","","","","","NA"
"-60.98","45.35","HART ISLAND (AUT)","8202318","2021-09-17 09:00","2021","09","17","09:00","16.9","","14.9","","88","","","","33","","7","","","","103.04","","","","","","NA"
"-60.98","45.35","HART ISLAND (AUT)","8202318","2021-09-17 10:00","2021","09","17","10:00","16.6","","14.5","","88","","","","34","","9","","","","103.03","","","","","","NA"
"-60.98","45.35","HART ISLAND (AUT)","8202318","2021-09-17 11:00","2021","09","17","11:00","19.6","","16.7","","83","","","","11","","15","","","","102.96","","","","","","NA"
"-60.98","45.35","HART ISLAND (AUT)","8202318","2021-09-17 12:00","2021","09","17","12:00","18.7","","16.1","","85","","","","12","","22","","","","102.95","","","","","","NA"
"-60.98","45.35","HART ISLAND (AUT)","8202318","2021-09-17 13:00","2021","09","17","13:00","19.4","","16.3","","83","","","","14","","25","","","","102.90","","","","","","NA"
"-60.98","45.35","HART ISLAND (AUT)","8202318","2021-09-17 14:00","2021","09","17","14:00","18.4","","16.2","","87","","","","15","","26","","","","102.82","","","","","","NA"
"-60.98","45.35","HART ISLAND (AUT)","8202318","2021-09-17 15:00","2021","09","17","15:00","18.3","","16.5","","89","","","","16","","22","","","","102.80","","","","","","NA"
"-60.98","45.35","HART ISLAND (AUT)","8202318","2021-09-17 16:00","2021","09","17","16:00","18.7","","16.8","","89","","","","18","","22","","","","102.75","","","","","","NA"
"-60.98","45.35","HART ISLAND (AUT)","8202318","2021-09-17 17:00","2021","09","17","17:00","17.7","","16.5","","93","","","","18","","22","","","","102.72","","","","","","NA"
"-60.98","45.35","HART ISLAND (AUT)","8202318","2021-09-17 18:00","2021","09","17","18:00","17.7","","16.7","","94","","","","17","","13","","","","102.71","","","","","","NA"
"-60.98","45.35","HART ISLAND (AUT)","8202318","2021-09-17 19:00","2021","09","17","19:00","18.0","","17.1","","95","","","","18","","13","","","","102.70","","","","","","NA"
"-60.98","45.35","HART ISLAND (AUT)","8202318","2021-09-17 20:00","2021","09","17","20:00","18.2","","17.2","","94","","","","19","","10","","","","102.69","","","","","","NA"
"-60.98","45.35","HART ISLAND (AUT)","8202318","2021-09-17 21:00","2021","09","17","21:00","18.2","","17.3","","94","","","","19","","12","","","","102.59","","","","","","NA"
"-60.98","45.35","HART ISLAND (AUT)","8202318","2021-09-17 22:00","2021","09","17","22:00","17.8","","17.4","","97","","","","17","","13","","","","102.53","","","","","","NA"
"-60.98","45.35","HART ISLAND (AUT)","8202318","2021-09-17 23:00","2021","09","17","23:00","18.0","","17.7","","98","","","","17","","12","","","","102.47","","","","","","NA"
"-60.98","45.35","HART ISLAND (AUT)","8202318","2021-09-18 00:00","2021","09","18","00:00","18.2","","18.0","","99","","","","17","","22","","","","102.37","","","","","","NA"
"-60.98","45.35","HART ISLAND (AUT)","8202318","2021-09-18 01:00","2021","09","18","01:00","18.0","","18.0","","100","","","","18","","18","","","","102.34","","","","","","NA"
"-60.98","45.35","HART ISLAND (AUT)","8202318","2021-09-18 02:00","2021","09","18","02:00","18.0","","18.0","","100","","","","19","","15","","","","102.28","","","","","","NA"
"-60.98","45.35","HART ISLAND (AUT)","8202318","2021-09-18 03:00","2021","09","18","03:00","18.0","","18.0","","100","","","","17","","13","","","","102.22","","","","","","NA"
"-60.98","45.35","HART ISLAND (AUT)","8202318","2021-09-18 04:00","2021","09","18","04:00","18.1","","18.0","","100","","","","16","","8","","","","102.18","","","","","","NA"
"-60.98","45.35","HART ISLAND (AUT)","8202318","2021-09-18 05:00","2021","09","18","05:00","18.1","","18.1","","100","","","","14","","9","","","","102.18","","","","","","NA"
"-60.98","45.35","HART ISLAND (AUT)","8202318","2021-09-18 06:00","2021","09","18","06:00","18.2","","18.2","","100","","","","15","","5","","","","102.18","","","","","","NA"
"-60.98","45.35","HART ISLAND (AUT)","8202318","2021-09-18 07:00","2021","09","18","07:00","18.4","","18.4","","100","","","","17","","8","","","","102.15","","","","","","NA"
"-60.98","45.35","HART ISLAND (AUT)","8202318","2021-09-18 08:00","2021","09","18","08:00","18.5","","18.5","","100","","","","17","","10","","","","102.11","","","","","","NA"
"-60.98","45.35","HART ISLAND (AUT)","8202318","2021-09-18 09:00","2021","09","18","09:00","18.7","","18.7","","100","","","","18","","13","","","","102.05","","","","","","NA"
"-60.98","45.35","HART ISLAND (AUT)","8202318","2021-09-18 10:00","2021","09","18","10:00","18.8","","18.8","","100","","","","19","","19","","","","102.00","","","","","","NA"
"-60.98","45.35","HART ISLAND (AUT)","8202318","2021-09-18 11:00","2021","09","18","11:00","20.5","","20.2","","98","","","","19","","20","","","","101.93","","28","","","","NA"
"-60.98","45.35","HART ISLAND (AUT)","8202318","2021-09-18 12:00","2021","09","18","12:00","20.8","","19.6","","93","","","","20","","25","","","","101.86","","28","","","","NA"
"-60.98","45.35","HART ISLAND (AUT)","8202318","2021-09-18 13:00","2021","09","18","13:00","20.4","","19.3","","93","","","","20","","23","","","","101.79","","27","","","","NA"
"-60.98","45.35","HART ISLAND (AUT)","8202318","2021-09-18 14:00","2021","09","18","14:00","19.9","","19.3","","97","","","","18","","22","","","","101.73","","","","","","NA"
"-60.98","45.35","HART ISLAND (AUT)","8202318","2021-09-18 15:00","2021","09","18","15:00","19.6","","19.3","","98","","","","18","","20","","","","101.67","","","","","","NA"
"-60.98","45.35","HART ISLAND (AUT)","8202318","2021-09-18 16:00","2021","09","18","16:00","19.6","","19.2","","97","","","","19","","17","","","","101.62","","","","","","NA"
"-60.98","45.35","HART ISLAND (AUT)","8202318","2021-09-18 17:00","2021","09","18","17:00","19.4","","19.1","","98","","","","19","","12","","","","101.58","","","","","","NA"
"-60.98","45.35","HART ISLAND (AUT)","8202318","2021-09-18 18:00","2021","09","18","18:00","19.2","","19.1","","99","","","","15","","15","","","","101.53","","","","","","NA"
"-60.98","45.35","HART ISLAND (AUT)","8202318","2021-09-18 19:00","2021","09","18","19:00","19.3","","19.2","","99","","","","16","","17","","","","101.53","","","","","","NA"
"-60.98","45.35","HART ISLAND (AUT)","8202318","2021-09-18 20:00","2021","09","18","20:00","19.0","","19.0","","100","","","","15","","19","","","","101.52","","","","","","NA"
"-60.98","45.35","HART ISLAND (AUT)","8202318","2021-09-18 21:00","2021","09","18","21:00","18.9","","18.9","","100","","","","16","","11","","","","101.47","","","","","","NA"
"-60.98","45.35","HART ISLAND (AUT)","8202318","2021-09-18 22:00","2021","09","18","22:00","18.9","","18.9","","100","","","","15","","9","","","","101.41","","","","","","NA"
"-60.98","45.35","HART ISLAND (AUT)","8202318","2021-09-18 23:00","2021","09","18","23:00","18.8","","18.7","","100","","","","2","","3","","","","101.29","","","","","","NA"
"-60.98","45.35","HART ISLAND (AUT)","8202318","2021-09-19 00:00","2021","09","19","00:00","18.8","","18.8","","100","","","","14","","23","","","","101.23","","","","","","NA"
"-60.98","45.35","HART ISLAND (AUT)","8202318","2021-09-19 01:00","2021","09","19","01:00","18.1","","18.0","","100","","","","3","","14","","","","101.16","","","","","","NA"
"-60.98","45.35","HART ISLAND (AUT)","8202318","2021-09-19 02:00","2021","09","19","02:00","18.5","","18.4","","100","","","","5","","14","","","","101.12","","","","","","NA"
"-60.98","45.35","HART ISLAND (AUT)","8202318","2021-09-19 03:00","2021","09","19","03:00","18.2","","18.1","","100","","","","36","","19","","","","101.08","","","","","","NA"
"-60.98","45.35","HART ISLAND (AUT)","8202318","2021-09-19 04:00","2021","09","19","04:00","18.0","","18.0","","100","","","","3","","13","","","","101.06","","","","","","NA"
"-60.98","45.35","HART ISLAND (AUT)","8202318","2021-09-19 05:00","2021","09","19","05:00","18.0","","17.9","","100","","","","2","","16","","","","101.04","","","","","","NA"
"-60.98","45.35","HART ISLAND (AUT)","8202318","2021-09-19 06:00","2021","09","19","06:00","17.6","","17.3","","98","","","","1","","30","","","","101.05","","","","","","NA"
"-60.98","45.35","HART ISLAND (AUT)","8202318","2021-09-19 07:00","2021","09","19","07:00","17.0","","16.3","","96","","","","3","","29","","","","101.02","","","","","","NA"
"-60.98","45.35","HART ISLAND (AUT)","8202318","2021-09-19 08:00","2021","09","19","08:00","17.4","","16.6","","95","","","","5","","30","","","","100.94","","","","","","NA"
"-60.98","45.35","HART ISLAND (AUT)","8202318","2021-09-19 09:00","2021","09","19","09:00","17.3","","16.5","","95","","","","3","","28","","","","100.96","","","","","","NA"
"-60.98","45.35","HART ISLAND (AUT)","8202318","2021-09-19 10:00","2021","09","19","10:00","17.1","","16.3","","95","","","","3","","26","","","","100.96","","","","","","NA"
"-60.98","45.35","HART ISLAND (AUT)","8202318","2021-09-19 11:00","2021","09","19","11:00","17.2","","16.3","","95","","","","36","","36","","","","100.97","","","","","","NA"
"-60.98","45.35","HART ISLAND (AUT)","8202318","2021-09-19 12:00","2021","09","19","12:00","17.6","","15.8","","90","","","","1","","42","","","","100.93","","","","","","NA"
"-60.98","45.35","HART ISLAND (AUT)","8202318","2021-09-19 13:00","2021","09","19","13:00","17.9","","15.8","","87","","","","36","","44","","","","100.93","","","","","","NA"
"-60.98","45.35","HART ISLAND (AUT)","8202318","2021-09-19 14:00","2021","09","19","14:00","18.2","","15.0","","82","","","","1","","38","","","","100.92","","","","","","NA"
"-60.98","45.35","HART ISLAND (AUT)","8202318","2021-09-19 15:00","2021","09","19","15:00","18.4","","14.9","","80","","","","36","","40","","","","100.95","","","","","","NA"
"-60.98","45.35","HART ISLAND (AUT)","8202318","2021-09-19 16:00","2021","09","19","16:00","18.9","","15.3","","79","","","","36","","36","","","","100.94","","","","","","NA"
"-60.98","45.35","HART ISLAND (AUT)","8202318","2021-09-19 17:00","2021","09","19","17:00","18.7","","12.6","","68","","","","36","","45","","","","101.02","","","","","","NA"
"-60.98","45.35","HART ISLAND (AUT)","8202318","2021-09-19 18:00","2021","09","19","18:00","17.9","","13.4","","75","","","","34","","34","","","","101.13","","","","","","NA"
"-60.98","45.35","HART ISLAND (AUT)","8202318","2021-09-19 19:00","2021","09","19","19:00","16.2","","11.8","","75","","","","33","","37","","","","101.26","","","","","","NA"
"-60.98","45.35","HART ISLAND (AUT)","8202318","2021-09-19 20:00","2021","09","19","20:00","15.3","","10.8","","74","","","","33","","43","","","","101.38","","","","","","NA"
"-60.98","45.35","HART ISLAND (AUT)","8202318","2021-09-19 21:00","2021","09","19","21:00","14.4","","9.2","","71","","","","34","","39","","","","101.50","","","","","","NA"
"-60.98","45.35","HART ISLAND (AUT)","8202318","2021-09-19 22:00","2021","09","19","22:00","14.0","","9.3","","73","","","","32","","31","","","","101.58","","","","","","NA"
"-60.98","45.35","HART ISLAND (AUT)","8202318","2021-09-19 23:00","2021","09","19","23:00","13.4","","7.8","","69","","","","32","","35","","","","101.68","","","","","","NA"
"-60.98","45.35","HART ISLAND (AUT)","8202318","2021-09-20 00:00","2021","09","20","00:00","13.8","","7.9","","67","","","","33","","40","","","","101.70","","","","","","NA"
"-60.98","45.35","HART ISLAND (AUT)","8202318","2021-09-20 01:00","2021","09","20","01:00","13.7","","8.9","","73","","","","33","","35","","","","101.77","","","","","","NA"
"-60.98","45.35","HART ISLAND (AUT)","8202318","2021-09-20 02:00","2021","09","20","02:00","13.7","","9.9","","78","","","","32","","37","","","","101.81","","","","","","NA"
"-60.98","45.35","HART ISLAND (AUT)","8202318","2021-09-20 03:00","2021","09","20","03:00","13.6","","9.9","","79","","","","32","","37","","","","101.84","","","","","","NA"
"-60.98","45.35","HART ISLAND (AUT)","8202318","2021-09-20 04:00","2021","09","20","04:00","13.7","","10.4","","80","","","","32","","40","","","","101.92","","","","","","NA"
"-60.98","45.35","HART ISLAND (AUT)","8202318","2021-09-20 05:00","2021","09","20","05:00","13.8","","10.2","","79","","","","32","","36","","","","102.00","","","","","","NA"
"-60.98","45.35","HART ISLAND (AUT)","8202318","2021-09-20 06:00","2021","09","20","06:00","13.9","","9.7","","75","","","","33","","35","","","","102.13","","","","","","NA"
"-60.98","45.35","HART ISLAND (AUT)","8202318","2021-09-20 07:00","2021","09","20","07:00","14.4","","8.9","","70","","","","33","","28","","","","102.23","","","","","","NA"
"-60.98","45.35","HART ISLAND (AUT)","8202318","2021-09-20 08:00","2021","09","20","08:00","14.6","","8.6","","67","","","","33","","26","","","","102.34","","","","","","NA"
"-60.98","45.35","HART ISLAND (AUT)","8202318","2021-09-20 09:00","2021","09","20","09:00","15.6","","8.3","","61","","","","35","","30","","","","102.42","","","","","","NA"
"-60.98","45.35","HART ISLAND (AUT)","8202318","2021-09-20 10:00","2021","09","20","10:00","16.6","","7.7","","56","","","","36","","29","","","","102.50","","","","","","NA"
"-60.98","45.35","HART ISLAND (AUT)","8202318","2021-09-20 11:00","2021","09","20","11:00","16.9","","7.8","","55","","","","34","","27","","","","102.52","","","","","","NA"
"-60.98","45.35","HART ISLAND (AUT)","8202318","2021-09-20 12:00","2021","09","20","12:00","17.3","","6.4","","49","","","","33","","25","","","","102.55","","","","","","NA"
"-60.98","45.35","HART ISLAND (AUT)","8202318","2021-09-20 13:00","2021","09","20","13:00","17.8","","7.3","","50","","","","34","","25","","","","102.57","","","","","","NA"
"-60.98","45.35","HART ISLAND (AUT)","8202318","2021-09-20 14:00","2021","09","20","14:00","18.0","","5.1","","43","","","","34","","17","","","","102.59","","","","","","NA"
"-60.98","45.35","HART ISLAND (AUT)","8202318","2021-09-20 15:00","2021","09","20","15:00","18.5","","7.2","","48","","","","35","","14","","","","102.62","","","","","","NA"
"-60.98","45.35","HART ISLAND (AUT)","8202318","2021-09-20 16:00","2021","09","20","16:00","17.5","","10.1","","62","","","","31","","24","","","","102.68","","","","","","NA"
"-60.98","45.35","HART ISLAND (AUT)","8202318","2021-09-20 17:00","2021","09","20","17:00","16.2","","10.5","","69","","","","31","","31","","","","102.77","","","","","","NA"
"-60.98","45.35","HART ISLAND (AUT)","8202318","2021-09-20 18:00","2021","09","20","18:00","15.4","","10.2","","71","","","","31","","28","","","","102.80","","","","","","NA"
"-60.98","45.35","HART ISLAND (AUT)","8202318","2021-09-20 19:00","2021","09","20","19:00","15.6","","6.0","","53","","","","34","","23","","","","102.91","","","","","","NA"
"-60.98","45.35","HART ISLAND (AUT)","8202318","2021-09-20 20:00","2021","09","20","20:00","15.1","","5.9","","54","","","","35","","21","","","","103.02","","","","","","NA"
"-60.98","45.35","HART ISLAND (AUT)","8202318","2021-09-20 21:00","2021","09","20","21:00","14.1","","6.8","","61","","","","36","","19","","","","103.07","","","","","","NA"
"-60.98","45.35","HART ISLAND (AUT)","8202318","2021-09-20 22:00","2021","09","20","22:00","13.3","","7.8","","69","","","","3","","11","","","","103.08","","","","","","NA"
"-60.98","45.35","HART ISLAND (AUT)","8202318","2021-09-20 23:00","2021","09","20","23:00","13.5","","9.5","","77","","","","7","","11","","","","103.07","","","","","","NA"
"-60.98","45.35","HART ISLAND (AUT)","8202318","2021-09-21 00:00","2021","09","21","00:00","13.6","","10.8","","84","","","","9","","9","","","","103.08","","","","","","NA"
"-60.98","45.35","HART ISLAND (AUT)","8202318","2021-09-21 01:00","2021","09","21","01:00","13.3","","10.8","","85","","","","14","","11","","","","103.08","","","","","","NA"
"-60.98","45.35","HART ISLAND (AUT)","8202318","2021-09-21 02:00","2021","09","21","02:00","11.9","","10.5","","91","","","","21","","5","","","","103.06","","","","","","NA"
"-60.98","45.35","HART ISLAND (AUT)","8202318","2021-09-21 03:00","2021","09","21","03:00","12.2","","11.0","","92","","","","20","","7","","","","103.04","","","","","","NA"
"-60.98","45.35","HART ISLAND (AUT)","8202318","2021-09-21 04:00","2021","09","21","04:00","12.5","","10.9","","90","","","","19","","9","","","","103.05","","","","","","NA"
"-60.98","45.35","HART ISLAND (AUT)","8202318","2021-09-21 05:00","2021","09","21","05:00","12.8","","11.5","","91","","","","20","","7","","","","103.09","","","","","","NA"
"-60.98","45.35","HART ISLAND (AUT)","8202318","2021-09-21 06:00","2021","09","21","06:00","11.7","","10.6","","93","","","","26","","5","","","","103.15","","","","","","NA"
"-60.98","45.35","HART ISLAND (AUT)","8202318","2021-09-21 07:00","2021","09","21","07:00","12.7","","11.5","","92","","","","24","","7","","","","103.19","","","","","","NA"
"-60.98","45.35","HART ISLAND (AUT)","8202318","2021-09-21 08:00","2021","09","21","08:00","15.3","","12.4","","83","","","","23","","12","","","","103.21","","","","","","NA"
"-60.98","45.35","HART ISLAND (AUT)","8202318","2021-09-21 09:00","2021","09","21","09:00","17.2","","12.5","","74","","","","21","","14","","","","103.23","","","","","","NA"
"-60.98","45.35","HART ISLAND (AUT)","8202318","2021-09-21 10:00","2021","09","21","10:00","18.7","","12.0","","65","","","","22","","15","","","","103.24","","","","","","NA"
"-60.98","45.35","HART ISLAND (AUT)","8202318","2021-09-21 11:00","2021","09","21","11:00","19.9","","13.2","","65","","","","22","","14","","","","103.19","","","","","","NA"
"-60.98","45.35","HART ISLAND (AUT)","8202318","2021-09-21 12:00","2021","09","21","12:00","20.2","","13.0","","64","","","","21","","16","","","","103.15","","","","","","NA"
"-60.98","45.35","HART ISLAND (AUT)","8202318","2021-09-21 13:00","2021","09","21","13:00","20.1","","13.7","","66","","","","21","","19","","","","103.11","","","","","","NA"
"-60.98","45.35","HART ISLAND (AUT)","8202318","2021-09-21 14:00","2021","09","21","14:00","19.8","","14.0","","69","","","","22","","22","","","","103.04","","","","","","NA"
"-60.98","45.35","HART ISLAND (AUT)","8202318","2021-09-21 15:00","2021","09","21","15:00","19.2","","13.3","","69","","","","23","","26","","","","103.05","","","","","","NA"
"-60.98","45.35","HART ISLAND (AUT)","8202318","2021-09-21 16:00","2021","09","21","16:00","18.8","","13.4","","71","","","","22","","26","","","","103.03","","","","","","NA"
"-60.98","45.35","HART ISLAND (AUT)","8202318","2021-09-21 17:00","2021","09","21","17:00","18.0","","12.7","","71","","","","22","","18","","","","103.01","","","","","","NA"
"-60.98","45.35","HART ISLAND (AUT)","8202318","2021-09-21 18:00","2021","09","21","18:00","16.7","","13.0","","79","","","","20","","17","","","","102.99","","","","","","NA"
"-60.98","45.35","HART ISLAND (AUT)","8202318","2021-09-21 19:00","2021","09","21","19:00","16.1","","13.1","","83","","","","20","","26","","","","102.96","","","","","","NA"
"-60.98","45.35","HART ISLAND (AUT)","8202318","2021-09-21 20:00","2021","09","21","20:00","15.9","","13.1","","83","","","","20","","24","","","","102.99","","","","","","NA"
"-60.98","45.35","HART ISLAND (AUT)","8202318","2021-09-21 21:00","2021","09","21","21:00","15.5","","13.1","","85","","","","20","","19","","","","102.98","","","","","","NA"
"-60.98","45.35","HART ISLAND (AUT)","8202318","2021-09-21 22:00","2021","09","21","22:00","15.7","","13.5","","87","","","","21","","21","","","","102.96","","","","","","NA"
"-60.98","45.35","HART ISLAND (AUT)","8202318","2021-09-21 23:00","2021","09","21","23:00","15.1","","13.6","","91","","","","20","","17","","","","102.95","","","","","","NA"
"-60.98","45.35","HART ISLAND (AUT)","8202318","2021-09-22 00:00","2021","09","22","00:00","14.7","","13.4","","92","","","","20","","17","","","","102.90","","","","","","NA"
"-60.98","45.35","HART ISLAND (AUT)","8202318","2021-09-22 01:00","2021","09","22","01:00","14.8","","13.6","","92","","","","21","","19","","","","102.84","","","","","","NA"
"-60.98","45.35","HART ISLAND (AUT)","8202318","2021-09-22 02:00","2021","09","22","02:00","15.2","","13.9","","92","","","","22","","16","","","","102.80","","","","","","NA"
"-60.98","45.35","HART ISLAND (AUT)","8202318","2021-09-22 03:00","2021","09","22","03:00","13.4","","12.9","","97","","","","28","","9","","","","102.79","","","","","","NA"
"-60.98","45.35","HART ISLAND (AUT)","8202318","2021-09-22 04:00","2021","09","22","04:00","13.4","","12.9","","97","","","","27","","6","","","","102.78","","","","","","NA"
"-60.98","45.35","HART ISLAND (AUT)","8202318","2021-09-22 05:00","2021","09","22","05:00","13.3","","12.8","","97","","","","24","","6","","","","102.78","","","","","","NA"
"-60.98","45.35","HART ISLAND (AUT)","8202318","2021-09-22 06:00","2021","09","22","06:00","13.2","","12.7","","97","","","","22","","10","","","","102.78","","","","","","NA"
"-60.98","45.35","HART ISLAND (AUT)","8202318","2021-09-22 07:00","2021","09","22","07:00","14.2","","13.4","","95","","","","23","","14","","","","102.76","","","","","","NA"
"-60.98","45.35","HART ISLAND (AUT)","8202318","2021-09-22 08:00","2021","09","22","08:00","16.7","","14.9","","90","","","","24","","13","","","","102.77","","","","","","NA"
"-60.98","45.35","HART ISLAND (AUT)","8202318","2021-09-22 09:00","2021","09","22","09:00","17.9","","14.5","","80","","","","21","","20","","","","102.70","","","","","","NA"
"-60.98","45.35","HART ISLAND (AUT)","8202318","2021-09-22 10:00","2021","09","22","10:00","18.5","","14.4","","77","","","","22","","24","","","","102.69","","","","","","NA"
"-60.98","45.35","HART ISLAND (AUT)","8202318","2021-09-22 11:00","2021","09","22","11:00","19.3","","14.2","","73","","","","23","","23","","","","102.62","","","","","","NA"
"-60.98","45.35","HART ISLAND (AUT)","8202318","2021-09-22 12:00","2021","09","22","12:00","19.7","","15.0","","74","","","","21","","26","","","","102.55","","","","","","NA"
"-60.98","45.35","HART ISLAND (AUT)","8202318","2021-09-22 13:00","2021","09","22","13:00","19.9","","14.1","","69","","","","21","","26","","","","102.47","","","","","","NA"
"-60.98","45.35","HART ISLAND (AUT)","8202318","2021-09-22 14:00","2021","09","22","14:00","19.8","","13.8","","68","","","","23","","29","","","","102.41","","","","","","NA"
"-60.98","45.35","HART ISLAND (AUT)","8202318","2021-09-22 15:00","2021","09","22","15:00","19.6","","13.9","","69","","","","23","","29","","","","102.38","","","","","","NA"
"-60.98","45.35","HART ISLAND (AUT)","8202318","2021-09-22 16:00","2021","09","22","16:00","19.3","","14.5","","74","","","","22","","27","","","","102.36","","","","","","NA"
"-60.98","45.35","HART ISLAND (AUT)","8202318","2021-09-22 17:00","2021","09","22","17:00","18.5","","15.0","","80","","","","21","","27","","","","102.35","","","","","","NA"
"-60.98","45.35","HART ISLAND (AUT)","8202318","2021-09-22 18:00","2021","09","22","18:00","17.3","","15.5","","89","","","","21","","27","","","","102.35","","","","","","NA"
"-60.98","45.35","HART ISLAND (AUT)","8202318","2021-09-22 19:00","2021","09","22","19:00","17.0","","15.7","","92","","","","21","","23","","","","102.36","","","","","","NA"
"-60.98","45.35","HART ISLAND (AUT)","8202318","2021-09-22 20:00","2021","09","22","20:00","16.9","","15.8","","93","","","","21","","24","","","","102.35","","","","","","NA"
"-60.98","45.35","HART ISLAND (AUT)","8202318","2021-09-22 21:00","2021","09","22","21:00","17.0","","16.0","","94","","","","22","","23","","","","102.37","","","","","","NA"
"-60.98","45.35","HART ISLAND (AUT)","8202318","2021-09-22 22:00","2021","09","22","22:00","16.9","","16.2","","95","","","","23","","25","","","","102.37","","","","","","NA"
"-60.98","45.35","HART ISLAND (AUT)","8202318","2021-09-22 23:00","2021","09","22","23:00","16.8","","15.9","","95","","","","23","","21","","","","102.37","","","","","","NA"
"-60.98","45.35","HART ISLAND (AUT)","8202318","2021-09-23 00:00","2021","09","23","00:00","16.6","","15.9","","95","","","","23","","21","","","","102.36","","","","","","NA"
"-60.98","45.35","HART ISLAND (AUT)","8202318","2021-09-23 01:00","2021","09","23","01:00","16.3","","15.6","","96","","","","24","","21","","","","102.36","","","","","","NA"
"-60.98","45.35","HART ISLAND (AUT)","8202318","2021-09-23 02:00","2021","09","23","02:00","16.2","","15.5","","96","","","","23","","19","","","","102.35","","","","","","NA"
"-60.98","45.35","HART ISLAND (AUT)","8202318","2021-09-23 03:00","2021","09","23","03:00","15.6","","14.7","","94","","","","28","","11","","","","102.37","","","","","","NA"
"-60.98","45.35","HART ISLAND (AUT)","8202318","2021-09-23 04:00","2021","09","23","04:00","15.3","","14.5","","95","","","","25","","10","","","","102.35","","","","","","NA"
"-60.98","45.35","HART ISLAND (AUT)","8202318","2021-09-23 05:00","2021","09","23","05:00","14.7","","14.1","","96","","","","24","","13","","","","102.37","","","","","","NA"
"-60.98","45.35","HART ISLAND (AUT)","8202318","2021-09-23 06:00","2021","09","23","06:00","14.7","","14.1","","96","","","","25","","5","","","","102.40","","","","","","NA"
"-60.98","45.35","HART ISLAND (AUT)","8202318","2021-09-23 07:00","2021","09","23","07:00","15.1","","14.6","","97","","","","23","","6","","","","102.44","","","","","","NA"
"-60.98","45.35","HART ISLAND (AUT)","8202318","2021-09-23 08:00","2021","09","23","08:00","16.0","","16.0","","100","","","","21","","4","","","","102.44","","","","","","NA"
"-60.98","45.35","HART ISLAND (AUT)","8202318","2021-09-23 09:00","2021","09","23","09:00","18.5","","17.0","","91","","","","23","","16","","","","102.41","","","","","","NA"
"-60.98","45.35","HART ISLAND (AUT)","8202318","2021-09-23 10:00","2021","09","23","10:00","20.4","","17.7","","85","","","","23","","14","","","","102.42","","26","","","","NA"
"-60.98","45.35","HART ISLAND (AUT)","8202318","2021-09-23 11:00","2021","09","23","11:00","19.4","","17.9","","91","","","","31","","13","","","","102.38","","","","","","NA"
"-60.98","45.35","HART ISLAND (AUT)","8202318","2021-09-23 12:00","2021","09","23","12:00","20.9","","17.3","","80","","","","29","","8","","","","102.35","","26","","","","NA"
"-60.98","45.35","HART ISLAND (AUT)","8202318","2021-09-23 13:00","2021","09","23","13:00","22.7","","18.0","","75","","","","24","","19","","","","102.30","","29","","","","NA"
"-60.98","45.35","HART ISLAND (AUT)","8202318","2021-09-23 14:00","2021","09","23","14:00","22.2","","17.4","","74","","","","22","","20","","","","102.28","","28","","","","NA"
"-60.98","45.35","HART ISLAND (AUT)","8202318","2021-09-23 15:00","2021","09","23","15:00","21.6","","17.0","","75","","","","22","","28","","","","102.29","","27","","","","NA"
"-60.98","45.35","HART ISLAND (AUT)","8202318","2021-09-23 16:00","2021","09","23","16:00","21.1","","16.7","","76","","","","22","","30","","","","102.28","","26","","","","NA"
"-60.98","45.35","HART ISLAND (AUT)","8202318","2021-09-23 17:00","2021","09","23","17:00","20.4","","16.4","","78","","","","22","","29","","","","102.30","","25","","","","NA"
"-60.98","45.35","HART ISLAND (AUT)","8202318","2021-09-23 18:00","2021","09","23","18:00","19.1","","16.4","","84","","","","22","","23","","","","102.34","","","","","","NA"
"-60.98","45.35","HART ISLAND (AUT)","8202318","2021-09-23 19:00","2021","09","23","19:00","18.6","","16.5","","87","","","","23","","24","","","","102.41","","","","","","NA"
"-60.98","45.35","HART ISLAND (AUT)","8202318","2021-09-23 20:00","2021","09","23","20:00","18.3","","16.6","","90","","","","24","","19","","","","102.44","","","","","","NA"
"-60.98","45.35","HART ISLAND (AUT)","8202318","2021-09-23 21:00","2021","09","23","21:00","17.7","","16.5","","92","","","","24","","14","","","","102.48","","","","","","NA"
"-60.98","45.35","HART ISLAND (AUT)","8202318","2021-09-23 22:00","2021","09","23","22:00","17.3","","16.3","","94","","","","24","","14","","","","102.48","","","","","","NA"
"-60.98","45.35","HART ISLAND (AUT)","8202318","2021-09-23 23:00","2021","09","23","23:00","16.9","","16.0","","95","","","","23","","13","","","","102.48","","","","","","NA"
"-60.98","45.35","HART ISLAND (AUT)","8202318","2021-09-24 00:00","2021","09","24","00:00","16.5","","15.8","","95","","","","23","","11","","","","102.48","","","","","","NA"
"-60.98","45.35","HART ISLAND (AUT)","8202318","2021-09-24 01:00","2021","09","24","01:00","16.2","","15.6","","97","","","","26","","4","","","","102.46","","","","","","NA"
"-60.98","45.35","HART ISLAND (AUT)","8202318","2021-09-24 02:00","2021","09","24","02:00","15.8","","15.4","","97","","","","24","","8","","","","102.43","","","","","","NA"
"-60.98","45.35","HART ISLAND (AUT)","8202318","2021-09-24 03:00","2021","09","24","03:00","15.6","","15.2","","97","","","","21","","3","","","","102.42","","","","","","NA"
"-60.98","45.35","HART ISLAND (AUT)","8202318","2021-09-24 04:00","2021","09","24","04:00","15.3","","14.8","","97","","","","23","","4","","","","102.42","","","","","","NA"
"-60.98","45.35","HART ISLAND (AUT)","8202318","2021-09-24 05:00","2021","09","24","05:00","14.7","","14.4","","98","","","","23","","6","","","","102.46","","","","","","NA"
"-60.98","45.35","HART ISLAND (AUT)","8202318","2021-09-24 06:00","2021","09","24","06:00","14.8","","14.6","","98","","","","24","","6","","","","102.48","","","","","","NA"
"-60.98","45.35","HART ISLAND (AUT)","8202318","2021-09-24 07:00","2021","09","24","07:00","16.2","","15.8","","98","","","","29","","5","","","","102.50","","","","","","NA"
"-60.98","45.35","HART ISLAND (AUT)","8202318","2021-09-24 08:00","2021","09","24","08:00","17.3","","16.8","","96","","","","27","","4","","","","102.55","","","","","","NA"
"-60.98","45.35","HART ISLAND (AUT)","8202318","2021-09-24 09:00","2021","09","24","09:00","20.3","","18.7","","91","","","","28","","2","","","","102.58","","27","","","","NA"
"-60.98","45.35","HART ISLAND (AUT)","8202318","2021-09-24 10:00","2021","09","24","10:00","19.2","","17.7","","91","","","","34","","6","","","","102.60","","","","","","NA"
"-60.98","45.35","HART ISLAND (AUT)","8202318","2021-09-24 11:00","2021","09","24","11:00","21.7","","18.3","","81","","","","12","","8","","","","102.58","","28","","","","NA"
"-60.98","45.35","HART ISLAND (AUT)","8202318","2021-09-24 12:00","2021","09","24","12:00","20.2","","18.0","","87","","","","12","","13","","","","102.57","","26","","","","NA"
"-60.98","45.35","HART ISLAND (AUT)","8202318","2021-09-24 13:00","2021","09","24","13:00","19.7","","17.9","","90","","","","12","","11","","","","102.57","","","","","","NA"
"-60.98","45.35","HART ISLAND (AUT)","8202318","2021-09-24 14:00","2021","09","24","14:00","19.6","","17.7","","89","","","","12","","14","","","","102.55","","","","","","NA"
"-60.98","45.35","HART ISLAND (AUT)","8202318","2021-09-24 15:00","2021","09","24","15:00","18.8","","17.4","","92","","","","11","","17","","","","102.53","","","","","","NA"
"-60.98","45.35","HART ISLAND (AUT)","8202318","2021-09-24 16:00","2021","09","24","16:00","19.6","","18.1","","91","","","","15","","12","","","","102.53","","","","","","NA"
"-60.98","45.35","HART ISLAND (AUT)","8202318","2021-09-24 17:00","2021","09","24","17:00","17.1","","16.9","","99","","","","12","","14","","","","102.55","","","","","","NA"
"-60.98","45.35","HART ISLAND (AUT)","8202318","2021-09-24 18:00","2021","09","24","18:00","16.9","","16.9","","100","","","","14","","13","","","","102.52","","","","","","NA"
"-60.98","45.35","HART ISLAND (AUT)","8202318","2021-09-24 19:00","2021","09","24","19:00","17.0","","17.0","","100","","","","16","","10","","","","102.55","","","","","","NA"
"-60.98","45.35","HART ISLAND (AUT)","8202318","2021-09-24 20:00","2021","09","24","20:00","16.8","","16.8","","100","","","","13","","17","","","","102.56","","","","","","NA"
"-60.98","45.35","HART ISLAND (AUT)","8202318","2021-09-24 21:00","2021","09","24","21:00","16.6","","16.6","","100","","","","12","","19","","","","102.56","","","","","","NA"
"-60.98","45.35","HART ISLAND (AUT)","8202318","2021-09-24 22:00","2021","09","24","22:00","16.7","","16.7","","100","","","","14","","16","","","","102.53","","","","","","NA"
"-60.98","45.35","HART ISLAND (AUT)","8202318","2021-09-24 23:00","2021","09","24","23:00","16.8","","16.7","","100","","","","15","","22","","","","102.49","","","","","","NA"
"-60.98","45.35","HART ISLAND (AUT)","8202318","2021-09-25 00:00","2021","09","25","00:00","17.3","","17.2","","100","","","","14","","23","","","","102.49","","","","","","NA"
"-60.98","45.35","HART ISLAND (AUT)","8202318","2021-09-25 01:00","2021","09","25","01:00","16.5","","16.4","","99","","","","14","","29","","","","102.51","","","","","","NA"
"-60.98","45.35","HART ISLAND (AUT)","8202318","2021-09-25 02:00","2021","09","25","02:00","16.2","","16.1","","99","","","","13","","20","","","","102.51","","","","","","NA"
"-60.98","45.35","HART ISLAND (AUT)","8202318","2021-09-25 03:00","2021","09","25","03:00","16.2","","16.0","","99","","","","13","","20","","","","102.48","","","","","","NA"
"-60.98","45.35","HART ISLAND (AUT)","8202318","2021-09-25 04:00","2021","09","25","04:00","16.4","","16.0","","98","","","","13","","24","","","","102.46","","","","","","NA"
"-60.98","45.35","HART ISLAND (AUT)","8202318","2021-09-25 05:00","2021","09","25","05:00","16.7","","16.3","","97","","","","13","","21","","","","102.46","","","","","","NA"
"-60.98","45.35","HART ISLAND (AUT)","8202318","2021-09-25 06:00","2021","09","25","06:00","16.9","","16.4","","97","","","","13","","30","","","","102.44","","","","","","NA"
"-60.98","45.35","HART ISLAND (AUT)","8202318","2021-09-25 07:00","2021","09","25","07:00","17.3","","16.7","","96","","","","14","","20","","","","102.48","","","","","","NA"
"-60.98","45.35","HART ISLAND (AUT)","8202318","2021-09-25 08:00","2021","09","25","08:00","17.8","","16.7","","93","","","","14","","20","","","","102.47","","","","","","NA"
"-60.98","45.35","HART ISLAND (AUT)","8202318","2021-09-25 09:00","2021","09","25","09:00","18.4","","16.8","","90","","","","13","","25","","","","102.44","","","","","","NA"
"-60.98","45.35","HART ISLAND (AUT)","8202318","2021-09-25 10:00","2021","09","25","10:00","18.2","","16.8","","91","","","","13","","27","","","","102.45","","","","","","NA"
"-60.98","45.35","HART ISLAND (AUT)","8202318","2021-09-25 11:00","2021","09","25","11:00","18.3","","16.5","","90","","","","14","","28","","","","102.41","","","","","","NA"
"-60.98","45.35","HART ISLAND (AUT)","8202318","2021-09-25 12:00","2021","09","25","12:00","18.2","","16.5","","90","","","","13","","29","","","","102.39","","","","","","NA"
"-60.98","45.35","HART ISLAND (AUT)","8202318","2021-09-25 13:00","2021","09","25","13:00","18.1","","16.4","","90","","","","14","","31","","","","102.33","","","","","","NA"
"-60.98","45.35","HART ISLAND (AUT)","8202318","2021-09-25 14:00","2021","09","25","14:00","18.4","","16.5","","89","","","","14","","27","","","","102.27","","","","","","NA"
"-60.98","45.35","HART ISLAND (AUT)","8202318","2021-09-25 15:00","2021","09","25","15:00","18.2","","16.7","","91","","","","14","","28","","","","102.22","","","","","","NA"
"-60.98","45.35","HART ISLAND (AUT)","8202318","2021-09-25 16:00","2021","09","25","16:00","17.6","","16.4","","93","","","","14","","30","","","","102.21","","","","","","NA"
"-60.98","45.35","HART ISLAND (AUT)","8202318","2021-09-25 17:00","2021","09","25","17:00","17.5","","16.4","","93","","","","15","","30","","","","102.18","","","","","","NA"
"-60.98","45.35","HART ISLAND (AUT)","8202318","2021-09-25 18:00","2021","09","25","18:00","17.1","","16.5","","96","","","","15","","25","","","","102.14","","","","","","NA"
"-60.98","45.35","HART ISLAND (AUT)","8202318","2021-09-25 19:00","2021","09","25","19:00","17.3","","16.8","","97","","","","13","","28","","","","102.14","","","","","","NA"
"-60.98","45.35","HART ISLAND (AUT)","8202318","2021-09-25 20:00","2021","09","25","20:00","17.4","","16.9","","97","","","","13","","27","","","","102.12","","","","","","NA"
"-60.98","45.35","HART ISLAND (AUT)","8202318","2021-09-25 21:00","2021","09","25","21:00","17.4","","17.0","","97","","","","14","","23","","","","102.10","","","","","","NA"
"-60.98","45.35","HART ISLAND (AUT)","8202318","2021-09-25 22:00","2021","09","25","22:00","17.5","","17.3","","99","","","","12","","24","","","","102.08","","","","","","NA"
"-60.98","45.35","HART ISLAND (AUT)","8202318","2021-09-25 23:00","2021","09","25","23:00","17.8","","17.4","","98","","","","11","","23","","","","102.03","","","","","","NA"
"-60.98","45.35","HART ISLAND (AUT)","8202318","2021-09-26 00:00","2021","09","26","00:00","17.9","","17.5","","97","","","","12","","23","","","","101.98","","","","","","NA"
"-60.98","45.35","HART ISLAND (AUT)","8202318","2021-09-26 01:00","2021","09","26","01:00","17.9","","17.4","","97","","","","13","","24","","","","101.94","","","","","","NA"
"-60.98","45.35","HART ISLAND (AUT)","8202318","2021-09-26 02:00","2021","09","26","02:00","17.8","","17.3","","97","","","","12","","25","","","","101.87","","","","","","NA"
"-60.98","45.35","HART ISLAND (AUT)","8202318","2021-09-26 03:00","2021","09","26","03:00","17.8","","17.3","","96","","","","14","","27","","","","101.81","","","","","","NA"
"-60.98","45.35","HART ISLAND (AUT)","8202318","2021-09-26 04:00","2021","09","26","04:00","17.8","","17.2","","96","","","","14","","29","","","","101.75","","","","","","NA"
"-60.98","45.35","HART ISLAND (AUT)","8202318","2021-09-26 05:00","2021","09","26","05:00","17.9","","17.2","","95","","","","14","","30","","","","101.69","","","","","","NA"
"-60.98","45.35","HART ISLAND (AUT)","8202318","2021-09-26 06:00","2021","09","26","06:00","17.8","","17.1","","95","","","","14","","32","","","","101.65","","","","","","NA"
"-60.98","45.35","HART ISLAND (AUT)","8202318","2021-09-26 07:00","2021","09","26","07:00","17.6","","16.9","","96","","","","14","","29","","","","101.63","","","","","","NA"
"-60.98","45.35","HART ISLAND (AUT)","8202318","2021-09-26 08:00","2021","09","26","08:00","17.8","","16.9","","94","","","","14","","35","","","","101.57","","","","","","NA"
"-60.98","45.35","HART ISLAND (AUT)","8202318","2021-09-26 09:00","2021","09","26","09:00","18.2","","17.1","","93","","","","13","","36","","","","101.54","","","","","","NA"
"-60.98","45.35","HART ISLAND (AUT)","8202318","2021-09-26 10:00","2021","09","26","10:00","18.4","","17.1","","92","","","","13","","37","","","","101.47","","","","","","NA"
"-60.98","45.35","HART ISLAND (AUT)","8202318","2021-09-26 11:00","2021","09","26","11:00","18.2","","17.0","","93","","","","12","","36","","","","101.39","","","","","","NA"
"-60.98","45.35","HART ISLAND (AUT)","8202318","2021-09-26 12:00","2021","09","26","12:00","18.1","","16.9","","93","","","","12","","40","","","","101.27","","","","","","NA"
"-60.98","45.35","HART ISLAND (AUT)","8202318","2021-09-26 13:00","2021","09","26","13:00","18.2","","17.1","","94","","","","12","","38","","","","101.14","","","","","","NA"
"-60.98","45.35","HART ISLAND (AUT)","8202318","2021-09-26 14:00","2021","09","26","14:00","18.5","","17.5","","94","","","","12","","40","","","","101.01","","","","","","NA"
"-60.98","45.35","HART ISLAND (AUT)","8202318","2021-09-26 15:00","2021","09","26","15:00","18.3","","17.5","","95","","","","12","","39","","","","100.87","","","","","","NA"
"-60.98","45.35","HART ISLAND (AUT)","8202318","2021-09-26 16:00","2021","09","26","16:00","18.2","","17.7","","97","","","","12","","40","","","","100.70","","","","","","NA"
"-60.98","45.35","HART ISLAND (AUT)","8202318","2021-09-26 17:00","2021","09","26","17:00","18.2","","17.9","","98","","","","13","","46","","","","100.57","","","","","","NA"
"-60.98","45.35","HART ISLAND (AUT)","8202318","2021-09-26 18:00","2021","09","26","18:00","18.5","","18.4","","99","","","","14","","38","","","","100.50","","","","","","NA"
"-60.98","45.35","HART ISLAND (AUT)","8202318","2021-09-26 19:00","2021","09","26","19:00","18.6","","18.4","","99","","","","14","","46","","","","100.42","","","","","","NA"
"-60.98","45.35","HART ISLAND (AUT)","8202318","2021-09-26 20:00","2021","09","26","20:00","18.7","","18.5","","99","","","","15","","38","","","","100.40","","","","","","NA"
"-60.98","45.35","HART ISLAND (AUT)","8202318","2021-09-26 21:00","2021","09","26","21:00","18.9","","18.7","","99","","","","16","","30","","","","100.37","","","","","","NA"
"-60.98","45.35","HART ISLAND (AUT)","8202318","2021-09-26 22:00","2021","09","26","22:00","19.1","","19.0","","99","","","","19","","28","","","","100.33","","","","","","NA"
"-60.98","45.35","HART ISLAND (AUT)","8202318","2021-09-26 23:00","2021","09","26","23:00","19.3","","19.2","","99","","","","20","","19","","","","100.29","","","","","","NA"
"-60.98","45.35","HART ISLAND (AUT)","8202318","2021-09-27 00:00","2021","09","27","00:00","19.0","","18.9","","99","","","","21","","19","","","","100.24","","","","","","NA"
"-60.98","45.35","HART ISLAND (AUT)","8202318","2021-09-27 01:00","2021","09","27","01:00","18.8","","18.8","","100","","","","19","","16","","","","100.25","","","","","","NA"
"-60.98","45.35","HART ISLAND (AUT)","8202318","2021-09-27 02:00","2021","09","27","02:00","18.5","","18.5","","100","","","","21","","17","","","","100.26","","","","","","NA"
"-60.98","45.35","HART ISLAND (AUT)","8202318","2021-09-27 03:00","2021","09","27","03:00","18.0","","17.9","","99","","","","24","","9","","","","100.25","","","","","","NA"
"-60.98","45.35","HART ISLAND (AUT)","8202318","2021-09-27 04:00","2021","09","27","04:00","17.4","","17.3","","100","","","","24","","8","","","","100.27","","","","","","NA"
"-60.98","45.35","HART ISLAND (AUT)","8202318","2021-09-27 05:00","2021","09","27","05:00","16.2","","15.7","","97","","","","29","","24","","","","100.37","","","","","","NA"
"-60.98","45.35","HART ISLAND (AUT)","8202318","2021-09-27 06:00","2021","09","27","06:00","16.9","","16.1","","95","","","","29","","15","","","","100.42","","","","","","NA"
"-60.98","45.35","HART ISLAND (AUT)","8202318","2021-09-27 07:00","2021","09","27","07:00","16.4","","15.5","","94","","","","26","","16","","","","100.52","","","","","","NA"
"-60.98","45.35","HART ISLAND (AUT)","8202318","2021-09-27 08:00","2021","09","27","08:00","16.7","","15.6","","93","","","","25","","16","","","","100.65","","","","","","NA"
"-60.98","45.35","HART ISLAND (AUT)","8202318","2021-09-27 09:00","2021","09","27","09:00","16.9","","13.9","","83","","","","27","","24","","","","100.71","","","","","","NA"
"-60.98","45.35","HART ISLAND (AUT)","8202318","2021-09-27 10:00","2021","09","27","10:00","17.5","","13.9","","79","","","","28","","25","","","","100.75","","","","","","NA"
"-60.98","45.35","HART ISLAND (AUT)","8202318","2021-09-27 11:00","2021","09","27","11:00","18.1","","11.8","","66","","","","27","","27","","","","100.76","","","","","","NA"
"-60.98","45.35","HART ISLAND (AUT)","8202318","2021-09-27 12:00","2021","09","27","12:00","19.2","","11.7","","62","","","","28","","27","","","","100.77","","","","","","NA"
"-60.98","45.35","HART ISLAND (AUT)","8202318","2021-09-27 13:00","2021","09","27","13:00","19.3","","11.3","","60","","","","29","","24","","","","100.75","","","","","","NA"
"-60.98","45.35","HART ISLAND (AUT)","8202318","2021-09-27 14:00","2021","09","27","14:00","18.5","","13.0","","70","","","","24","","24","","","","100.75","","","","","","NA"
"-60.98","45.35","HART ISLAND (AUT)","8202318","2021-09-27 15:00","2021","09","27","15:00","18.8","","13.2","","70","","","","23","","29","","","","100.76","","","","","","NA"
"-60.98","45.35","HART ISLAND (AUT)","8202318","2021-09-27 16:00","2021","09","27","16:00","18.2","","12.4","","69","","","","22","","36","","","","100.79","","","","","","NA"
"-60.98","45.35","HART ISLAND (AUT)","8202318","2021-09-27 17:00","2021","09","27","17:00","17.3","","12.9","","75","","","","23","","27","","","","100.84","","","","","","NA"
"-60.98","45.35","HART ISLAND (AUT)","8202318","2021-09-27 18:00","2021","09","27","18:00","16.8","","12.9","","78","","","","23","","27","","","","100.87","","","","","","NA"
"-60.98","45.35","HART ISLAND (AUT)","8202318","2021-09-27 19:00","2021","09","27","19:00","16.4","","13.4","","82","","","","23","","23","","","","100.92","","","","","","NA"
"-60.98","45.35","HART ISLAND (AUT)","8202318","2021-09-27 20:00","2021","09","27","20:00","15.7","","12.6","","82","","","","25","","17","","","","101.01","","","","","","NA"
"-60.98","45.35","HART ISLAND (AUT)","8202318","2021-09-27 21:00","2021","09","27","21:00","14.3","","11.1","","81","","","","22","","11","","","","101.07","","","","","","NA"
"-60.98","45.35","HART ISLAND (AUT)","8202318","2021-09-27 22:00","2021","09","27","22:00","14.3","","10.5","","78","","","","22","","13","","","","101.06","","","","","","NA"
"-60.98","45.35","HART ISLAND (AUT)","8202318","2021-09-27 23:00","2021","09","27","23:00","14.5","","10.9","","79","","","","21","","18","","","","101.03","","","","","","NA"
"-60.98","45.35","HART ISLAND (AUT)","8202318","2021-09-28 00:00","2021","09","28","00:00","15.6","","13.0","","85","","","","21","","16","","","","101.01","","","","","","NA"
"-60.98","45.35","HART ISLAND (AUT)","8202318","2021-09-28 01:00","2021","09","28","01:00","16.5","","13.3","","82","","","","21","","13","","","","100.99","","","","","","NA"
"-60.98","45.35","HART ISLAND (AUT)","8202318","2021-09-28 02:00","2021","09","28","02:00","16.9","","13.6","","81","","","","21","","16","","","","100.94","","","","","","NA"
"-60.98","45.35","HART ISLAND (AUT)","8202318","2021-09-28 03:00","2021","09","28","03:00","16.9","","14.4","","85","","","","19","","17","","","","100.88","","","","","","NA"
"-60.98","45.35","HART ISLAND (AUT)","8202318","2021-09-28 04:00","2021","09","28","04:00","17.3","","15.3","","88","","","","18","","23","","","","100.80","","","","","","NA"
"-60.98","45.35","HART ISLAND (AUT)","8202318","2021-09-28 05:00","2021","09","28","05:00","17.8","","15.9","","88","","","","19","","26","","","","100.78","","","","","","NA"
"-60.98","45.35","HART ISLAND (AUT)","8202318","2021-09-28 06:00","2021","09","28","06:00","18.1","","16.3","","89","","","","20","","28","","","","100.79","","","","","","NA"
"-60.98","45.35","HART ISLAND (AUT)","8202318","2021-09-28 07:00","2021","09","28","07:00","18.0","","16.5","","91","","","","21","","23","","","","100.83","","","","","","NA"
"-60.98","45.35","HART ISLAND (AUT)","8202318","2021-09-28 08:00","2021","09","28","08:00","18.2","","16.9","","92","","","","22","","18","","","","100.82","","","","","","NA"
"-60.98","45.35","HART ISLAND (AUT)","8202318","2021-09-28 09:00","2021","09","28","09:00","18.5","","17.0","","91","","","","22","","25","","","","100.82","","","","","","NA"
"-60.98","45.35","HART ISLAND (AUT)","8202318","2021-09-28 10:00","2021","09","28","10:00","18.4","","17.0","","92","","","","21","","27","","","","100.83","","","","","","NA"
"-60.98","45.35","HART ISLAND (AUT)","8202318","2021-09-28 11:00","2021","09","28","11:00","18.1","","17.2","","95","","","","23","","24","","","","100.84","","","","","","NA"
"-60.98","45.35","HART ISLAND (AUT)","8202318","2021-09-28 12:00","2021","09","28","12:00","17.9","","17.2","","96","","","","22","","25","","","","100.84","","","","","","NA"
"-60.98","45.35","HART ISLAND (AUT)","8202318","2021-09-28 13:00","2021","09","28","13:00","18.1","","17.4","","96","","","","22","","20","","","","100.81","","","","","","NA"
"-60.98","45.35","HART ISLAND (AUT)","8202318","2021-09-28 14:00","2021","09","28","14:00","18.6","","17.6","","94","","","","22","","25","","","","100.80","","","","","","NA"
"-60.98","45.35","HART ISLAND (AUT)","8202318","2021-09-28 15:00","2021","09","28","15:00","18.2","","17.2","","94","","","","22","","26","","","","100.83","","","","","","NA"
"-60.98","45.35","HART ISLAND (AUT)","8202318","2021-09-28 16:00","2021","09","28","16:00","18.3","","17.4","","95","","","","22","","21","","","","100.82","","","","","","NA"
"-60.98","45.35","HART ISLAND (AUT)","8202318","2021-09-28 17:00","2021","09","28","17:00","18.0","","17.4","","96","","","","23","","17","","","","100.81","","","","","","NA"
"-60.98","45.35","HART ISLAND (AUT)","8202318","2021-09-28 18:00","2021","09","28","18:00","17.9","","17.3","","96","","","","21","","17","","","","100.83","","","","","","NA"
"-60.98","45.35","HART ISLAND (AUT)","8202318","2021-09-28 19:00","2021","09","28","19:00","17.7","","17.4","","98","","","","21","","8","","","","100.83","","","","","","NA"
"-60.98","45.35","HART ISLAND (AUT)","8202318","2021-09-28 20:00","2021","09","28","20:00","16.6","","16.3","","99","","","","29","","13","","","","100.91","","","","","","NA"
"-60.98","45.35","HART ISLAND (AUT)","8202318","2021-09-28 21:00","2021","09","28","21:00","16.4","","16.3","","99","","","","5","","3","","","","100.90","","","","","","NA"
"-60.98","45.35","HART ISLAND (AUT)","8202318","2021-09-28 22:00","2021","09","28","22:00","16.4","","16.2","","99","","","","10","","5","","","","100.91","","","","","","NA"
"-60.98","45.35","HART ISLAND (AUT)","8202318","2021-09-28 23:00","2021","09","28","23:00","16.5","","16.4","","99","","","","8","","6","","","","100.85","","","","","","NA"
"-60.98","45.35","HART ISLAND (AUT)","8202318","2021-09-29 00:00","2021","09","29","00:00","16.8","","16.5","","99","","","","8","","7","","","","100.81","","","","","","NA"
"-60.98","45.35","HART ISLAND (AUT)","8202318","2021-09-29 01:00","2021","09","29","01:00","16.8","","16.6","","98","","","","11","","10","","","","100.80","","","","","","NA"
"-60.98","45.35","HART ISLAND (AUT)","8202318","2021-09-29 02:00","2021","09","29","02:00","16.8","","16.6","","99","","","","10","","16","","","","100.70","","","","","","NA"
"-60.98","45.35","HART ISLAND (AUT)","8202318","2021-09-29 03:00","2021","09","29","03:00","16.8","","16.7","","100","","","","10","","22","","","","100.63","","","","","","NA"
"-60.98","45.35","HART ISLAND (AUT)","8202318","2021-09-29 04:00","2021","09","29","04:00","17.2","","17.0","","99","","","","19","","16","","","","100.64","","","","","","NA"
"-60.98","45.35","HART ISLAND (AUT)","8202318","2021-09-29 05:00","2021","09","29","05:00","17.3","","16.6","","96","","","","19","","21","","","","100.65","","","","","","NA"
"-60.98","45.35","HART ISLAND (AUT)","8202318","2021-09-29 06:00","2021","09","29","06:00","17.1","","16.7","","97","","","","18","","13","","","","100.63","","","","","","NA"
"-60.98","45.35","HART ISLAND (AUT)","8202318","2021-09-29 07:00","2021","09","29","07:00","17.5","","16.9","","96","","","","19","","13","","","","100.62","","","","","","NA"
"-60.98","45.35","HART ISLAND (AUT)","8202318","2021-09-29 08:00","2021","09","29","08:00","17.8","","17.1","","96","","","","20","","20","","","","100.67","","","","","","NA"
"-60.98","45.35","HART ISLAND (AUT)","8202318","2021-09-29 09:00","2021","09","29","09:00","14.4","","14.2","","99","","","","28","","17","","","","100.79","","","","","","NA"
"-60.98","45.35","HART ISLAND (AUT)","8202318","2021-09-29 10:00","2021","09","29","10:00","15.4","","15.2","","99","","","","30","","17","","","","100.77","","","","","","NA"
"-60.98","45.35","HART ISLAND (AUT)","8202318","2021-09-29 11:00","2021","09","29","11:00","16.2","","15.7","","96","","","","33","","9","","","","100.80","","","","","","NA"
"-60.98","45.35","HART ISLAND (AUT)","8202318","2021-09-29 12:00","2021","09","29","12:00","16.4","","15.8","","97","","","","36","","6","","","","100.83","","","","","","NA"
"-60.98","45.35","HART ISLAND (AUT)","8202318","2021-09-29 13:00","2021","09","29","13:00","16.3","","15.9","","97","","","","34","","3","","","","100.80","","","","","","NA"
"-60.98","45.35","HART ISLAND (AUT)","8202318","2021-09-29 14:00","2021","09","29","14:00","16.5","","16.3","","98","","","","4","","8","","","","100.78","","","","","","NA"
"-60.98","45.35","HART ISLAND (AUT)","8202318","2021-09-29 15:00","2021","09","29","15:00","16.6","","16.3","","98","","","","11","","5","","","","100.78","","","","","","NA"
"-60.98","45.35","HART ISLAND (AUT)","8202318","2021-09-29 16:00","2021","09","29","16:00","16.8","","16.5","","98","","","","36","","4","","","","100.80","","","","","","NA"
"-60.98","45.35","HART ISLAND (AUT)","8202318","2021-09-29 17:00","2021","09","29","17:00","16.9","","16.7","","98","","","","5","","6","","","","100.84","","","","","","NA"
"-60.98","45.35","HART ISLAND (AUT)","8202318","2021-09-29 18:00","2021","09","29","18:00","17.3","","17.2","","99","","","","8","","7","","","","100.88","","","","","","NA"
"-60.98","45.35","HART ISLAND (AUT)","8202318","2021-09-29 19:00","2021","09","29","19:00","17.4","","17.3","","99","","","","11","","13","","","","100.88","","","","","","NA"
"-60.98","45.35","HART ISLAND (AUT)","8202318","2021-09-29 20:00","2021","09","29","20:00","17.5","","17.3","","99","","","","12","","12","","","","100.89","","","","","","NA"
"-60.98","45.35","HART ISLAND (AUT)","8202318","2021-09-29 21:00","2021","09","29","21:00","17.6","","17.4","","99","","","","11","","12","","","","100.86","","","","","","NA"
"-60.98","45.35","HART ISLAND (AUT)","8202318","2021-09-29 22:00","2021","09","29","22:00","17.4","","17.3","","99","","","","8","","6","","","","100.84","","","","","","NA"
"-60.98","45.35","HART ISLAND (AUT)","8202318","2021-09-29 23:00","2021","09","29","23:00","17.4","","17.3","","99","","","","16","","11","","","","100.82","","","","","","NA"
"-60.98","45.35","HART ISLAND (AUT)","8202318","2021-09-30 00:00","2021","09","30","00:00","17.5","","17.4","","100","","","","15","","13","","","","100.78","","","","","","NA"
"-60.98","45.35","HART ISLAND (AUT)","8202318","2021-09-30 01:00","2021","09","30","01:00","17.6","","17.5","","99","","","","16","","18","","","","100.75","","","","","","NA"
"-60.98","45.35","HART ISLAND (AUT)","8202318","2021-09-30 02:00","2021","09","30","02:00","17.8","","17.7","","99","","","","16","","17","","","","100.73","","","","","","NA"
"-60.98","45.35","HART ISLAND (AUT)","8202318","2021-09-30 03:00","2021","09","30","03:00","17.9","","17.6","","98","","","","17","","15","","","","100.74","","","","","","NA"
"-60.98","45.35","HART ISLAND (AUT)","8202318","2021-09-30 04:00","2021","09","30","04:00","17.6","","17.0","","96","","","","16","","15","","","","100.73","","","","","","NA"
"-60.98","45.35","HART ISLAND (AUT)","8202318","2021-09-30 05:00","2021","09","30","05:00","17.6","","17.3","","98","","","","16","","12","","","","100.76","","","","","","NA"
"-60.98","45.35","HART ISLAND (AUT)","8202318","2021-09-30 06:00","2021","09","30","06:00","17.7","","17.4","","98","","","","17","","14","","","","100.77","","","","","","NA"
"-60.98","45.35","HART ISLAND (AUT)","8202318","2021-09-30 07:00","2021","09","30","07:00","17.7","","17.4","","98","","","","16","","9","","","","100.81","","","","","","NA"
"-60.98","45.35","HART ISLAND (AUT)","8202318","2021-09-30 08:00","2021","09","30","08:00","18.0","","17.4","","96","","","","20","","11","","","","100.84","","","","","","NA"
"-60.98","45.35","HART ISLAND (AUT)","8202318","2021-09-30 09:00","2021","09","30","09:00","18.7","","17.7","","94","","","","26","","7","","","","100.90","","","","","","NA"
"-60.98","45.35","HART ISLAND (AUT)","8202318","2021-09-30 10:00","2021","09","30","10:00","18.1","","16.4","","90","","","","20","","19","","","","100.93","","","","","","NA"
"-60.98","45.35","HART ISLAND (AUT)","8202318","2021-09-30 11:00","2021","09","30","11:00","18.0","","15.4","","85","","","","20","","18","","","","100.93","","","","","","NA"
"-60.98","45.35","HART ISLAND (AUT)","8202318","2021-09-30 12:00","2021","09","30","12:00","17.9","","14.7","","82","","","","21","","23","","","","100.93","","","","","","NA"
"-60.98","45.35","HART ISLAND (AUT)","8202318","2021-09-30 13:00","2021","09","30","13:00","17.1","","14.7","","86","","","","22","","18","","","","100.94","","","","","","NA"
"-60.98","45.35","HART ISLAND (AUT)","8202318","2021-09-30 14:00","2021","09","30","14:00","17.5","","14.5","","82","","","","22","","23","","","","100.96","","","","","","NA"
"-60.98","45.35","HART ISLAND (AUT)","8202318","2021-09-30 15:00","2021","09","30","15:00","17.6","","13.8","","79","","","","21","","23","","","","101.00","","","","","","NA"
"-60.98","45.35","HART ISLAND (AUT)","8202318","2021-09-30 16:00","2021","09","30","16:00","17.0","","13.3","","79","","","","22","","28","","","","101.03","","","","","","NA"
"-60.98","45.35","HART ISLAND (AUT)","8202318","2021-09-30 17:00","2021","09","30","17:00","16.5","","13.6","","83","","","","21","","24","","","","101.09","","","","","","NA"
"-60.98","45.35","HART ISLAND (AUT)","8202318","2021-09-30 18:00","2021","09","30","18:00","15.3","","13.3","","88","","","","21","","13","","","","101.17","","","","","","NA"
"-60.98","45.35","HART ISLAND (AUT)","8202318","2021-09-30 19:00","2021","09","30","19:00","14.6","","13.1","","91","","","","21","","11","","","","101.24","","","","","","NA"
"-60.98","45.35","HART ISLAND (AUT)","8202318","2021-09-30 20:00","2021","09","30","20:00","14.6","","13.1","","91","","","","19","","12","","","","101.28","","","","","","NA"
"-60.98","45.35","HART ISLAND (AUT)","8202318","2021-09-30 21:00","2021","09","30","21:00","15.1","","13.2","","88","","","","20","","17","","","","101.34","","","","","","NA"
"-60.98","45.35","HART ISLAND (AUT)","8202318","2021-09-30 22:00","2021","09","30","22:00","14.8","","13.3","","91","","","","21","","9","","","","101.37","","","","","","NA"
"-60.98","45.35","HART ISLAND (AUT)","8202318","2021-09-30 23:00","2021","09","30","23:00","14.7","","13.3","","92","","","","21","","9","","","","101.38","","","","","","NA"
