"Longitude (x)","Latitude (y)","Station Name","Climate ID","Date/Time (LST)","Year","Month","Day","Time (LST)","Temp (°C)","Temp Flag","Dew Point Temp (°C)","Dew Point Temp Flag","Rel Hum (%)","Rel Hum Flag","Precip. Amount (mm)","Precip. Amount Flag","Wind Dir (10s deg)","Wind Dir Flag","Wind Spd (km/h)","Wind Spd Flag","Visibility (km)","Visibility Flag","Stn Press (kPa)","Stn Press Flag","Hmdx","Hmdx Flag","Wind Chill","Wind Chill Flag","Weather"
"-130.23","67.18","LITTLE CHICAGO","220B6Q3","2022-02-01 00:00","2022","02","01","00:00","-21.3","","-23.8","","80","","","","34","","6","","","","103.32","","","","-27","","NA"
"-130.23","67.18","LITTLE CHICAGO","220B6Q3","2022-02-01 01:00","2022","02","01","01:00","-22.6","","-25.2","","79","","","","4","","2","","","","103.36","","","","-24","","NA"
"-130.23","67.18","LITTLE CHICAGO","220B6Q3","2022-02-01 02:00","2022","02","01","02:00","-24.9","","-27.6","","78","","","","","","0","","","","103.44","","","","","","NA"
"-130.23","67.18","LITTLE CHICAGO","220B6Q3","2022-02-01 03:00","2022","02","01","03:00","-25.4","","-28.3","","77","","","","29","","2","","","","103.48","","","","-27","","NA"
"-130.23","67.18","LITTLE CHICAGO","220B6Q3","2022-02-01 04:00","2022","02","01","04:00","-27.7","","-30.7","","76","","","","4","","3","","","","103.53","","","","-31","","NA"
"-130.23","67.18","LITTLE CHICAGO","220B6Q3","2022-02-01 05:00","2022","02","01","05:00","-28.8","","-32.0","","73","","","","9","","5","","","","103.54","","","","-34","","NA"
"-130.23","67.18","LITTLE CHICAGO","220B6Q3","2022-02-01 06:00","2022","02","01","06:00","-30.2","","-33.4","","74","","","","8","","5","","","","103.55","","","","-36","","NA"
"-130.23","67.18","LITTLE CHICAGO","220B6Q3","2022-02-01 07:00","2022","02","01","07:00","-30.3","","-33.3","","74","","","","7","","7","","","","103.54","","","","-38","","NA"
"-130.23","67.18","LITTLE CHICAGO","220B6Q3","2022-02-01 08:00","2022","02","01","08:00","-32.2","","-35.6","","72","","","","7","","8","","","","103.55","","","","-41","","NA"
"-130.23","67.18","LITTLE CHICAGO","220B6Q3","2022-02-01 09:00","2022","02","01","09:00","-33.6","","-37.2","","70","","","","8","","4","","","","103.53","","","","-38","","NA"
"-130.23","67.18","LITTLE CHICAGO","220B6Q3","2022-02-01 10:00","2022","02","01","10:00","-33.8","","-37.4","","70","","","","6","","6","","","","103.54","","","","-41","","NA"
"-130.23","67.18","LITTLE CHICAGO","220B6Q3","2022-02-01 11:00","2022","02","01","11:00","-34.7","","-38.6","","68","","","","6","","10","","","","103.51","","","","-45","","NA"
"-130.23","67.18","LITTLE CHICAGO","220B6Q3","2022-02-01 12:00","2022","02","01","12:00","-34.4","","-38.3","","68","","","","0","","1","","","","103.51","","","","-36","","NA"
"-130.23","67.18","LITTLE CHICAGO","220B6Q3","2022-02-01 13:00","2022","02","01","13:00","-32.7","","-36.5","","69","","","","5","","2","","","","103.51","","","","-35","","NA"
"-130.23","67.18","LITTLE CHICAGO","220B6Q3","2022-02-01 14:00","2022","02","01","14:00","-31.4","","-34.9","","71","","","","7","","6","","","","103.50","","","","-38","","NA"
"-130.23","67.18","LITTLE CHICAGO","220B6Q3","2022-02-01 15:00","2022","02","01","15:00","-32.7","","-36.3","","71","","","","33","","1","","","","103.43","","","","-34","","NA"
"-130.23","67.18","LITTLE CHICAGO","220B6Q3","2022-02-01 16:00","2022","02","01","16:00","-32.0","","-35.6","","70","","","","","","0","","","","103.40","","","","","","NA"
"-130.23","67.18","LITTLE CHICAGO","220B6Q3","2022-02-01 17:00","2022","02","01","17:00","-33.7","","-37.7","","68","","","","0","","1","","","","103.34","","","","-35","","NA"
"-130.23","67.18","LITTLE CHICAGO","220B6Q3","2022-02-01 18:00","2022","02","01","18:00","-33.7","","-37.4","","69","","","","","","0","","","","103.30","","","","","","NA"
"-130.23","67.18","LITTLE CHICAGO","220B6Q3","2022-02-01 19:00","2022","02","01","19:00","-34.5","","-38.3","","68","","","","","","0","","","","103.27","","","","","","NA"
"-130.23","67.18","LITTLE CHICAGO","220B6Q3","2022-02-01 20:00","2022","02","01","20:00","-35.8","","-39.9","","67","","","","","","0","","","","103.21","","","","","","NA"
"-130.23","67.18","LITTLE CHICAGO","220B6Q3","2022-02-01 21:00","2022","02","01","21:00","-36.3","","-40.3","","67","","","","","","0","","","","103.16","","","","","","NA"
"-130.23","67.18","LITTLE CHICAGO","220B6Q3","2022-02-01 22:00","2022","02","01","22:00","-37.0","","-40.9","","67","","","","36","","1","","","","103.11","","","","-38","","NA"
"-130.23","67.18","LITTLE CHICAGO","220B6Q3","2022-02-01 23:00","2022","02","01","23:00","-37.7","","-41.7","","66","","","","31","","4","","","","103.10","","","","-43","","NA"
"-130.23","67.18","LITTLE CHICAGO","220B6Q3","2022-02-02 00:00","2022","02","02","00:00","-37.5","","-41.4","","67","","","","1","","1","","","","103.07","","","","-39","","NA"
"-130.23","67.18","LITTLE CHICAGO","220B6Q3","2022-02-02 01:00","2022","02","02","01:00","-39.3","","-43.6","","64","","","","","","0","","","","103.06","","","","","","NA"
"-130.23","67.18","LITTLE CHICAGO","220B6Q3","2022-02-02 02:00","2022","02","02","02:00","-39.7","","-44.0","","63","","","","0","","1","","","","103.05","","","","-41","","NA"
"-130.23","67.18","LITTLE CHICAGO","220B6Q3","2022-02-02 03:00","2022","02","02","03:00","-40.1","","-44.5","","63","","","","34","","3","","","","103.02","","","","-44","","NA"
"-130.23","67.18","LITTLE CHICAGO","220B6Q3","2022-02-02 04:00","2022","02","02","04:00","-40.7","","-45.2","","62","","","","36","","4","","","","103.01","","","","-46","","NA"
"-130.23","67.18","LITTLE CHICAGO","220B6Q3","2022-02-02 05:00","2022","02","02","05:00","-39.8","","-44.2","","63","","","","36","","2","","","","103.01","","","","-43","","NA"
"-130.23","67.18","LITTLE CHICAGO","220B6Q3","2022-02-02 06:00","2022","02","02","06:00","-40.8","","-45.3","","62","","","","","","0","","","","103.00","","","","","","NA"
"-130.23","67.18","LITTLE CHICAGO","220B6Q3","2022-02-02 07:00","2022","02","02","07:00","-41.5","","-46.0","","61","","","","","","0","","","","103.02","","","","","","NA"
"-130.23","67.18","LITTLE CHICAGO","220B6Q3","2022-02-02 08:00","2022","02","02","08:00","-41.8","","-46.3","","61","","","","35","","1","","","","103.04","","","","-43","","NA"
"-130.23","67.18","LITTLE CHICAGO","220B6Q3","2022-02-02 09:00","2022","02","02","09:00","-42.0","","-46.6","","61","","","","33","","1","","","","103.04","","","","-43","","NA"
"-130.23","67.18","LITTLE CHICAGO","220B6Q3","2022-02-02 10:00","2022","02","02","10:00","-40.2","","-44.7","","63","","","","35","","1","","","","103.08","","","","-42","","NA"
"-130.23","67.18","LITTLE CHICAGO","220B6Q3","2022-02-02 11:00","2022","02","02","11:00","-42.3","","-47.0","","60","","","","0","","1","","","","103.14","","","","-44","","NA"
"-130.23","67.18","LITTLE CHICAGO","220B6Q3","2022-02-02 12:00","2022","02","02","12:00","-40.9","","-45.5","","62","","","","","","0","","","","103.15","","","","","","NA"
"-130.23","67.18","LITTLE CHICAGO","220B6Q3","2022-02-02 13:00","2022","02","02","13:00","-39.8","","-43.9","","65","","","","","","0","","","","103.19","","","","","","NA"
"-130.23","67.18","LITTLE CHICAGO","220B6Q3","2022-02-02 14:00","2022","02","02","14:00","-38.8","","-43.4","","62","","","","32","","7","","","","103.23","","","","-48","","NA"
"-130.23","67.18","LITTLE CHICAGO","220B6Q3","2022-02-02 15:00","2022","02","02","15:00","-38.9","","-43.6","","61","","","","32","","7","","","","103.25","","","","-48","","NA"
"-130.23","67.18","LITTLE CHICAGO","220B6Q3","2022-02-02 16:00","2022","02","02","16:00","-39.5","","-44.0","","62","","","","29","","2","","","","103.24","","","","-42","","NA"
"-130.23","67.18","LITTLE CHICAGO","220B6Q3","2022-02-02 17:00","2022","02","02","17:00","-39.3","","-43.7","","63","","","","28","","2","","","","103.24","","","","-42","","NA"
"-130.23","67.18","LITTLE CHICAGO","220B6Q3","2022-02-02 18:00","2022","02","02","18:00","-38.9","","-43.1","","64","","","","","","0","","","","103.26","","","","","","NA"
"-130.23","67.18","LITTLE CHICAGO","220B6Q3","2022-02-02 19:00","2022","02","02","19:00","-39.9","","-44.3","","63","","","","0","","1","","","","103.30","","","","-41","","NA"
"-130.23","67.18","LITTLE CHICAGO","220B6Q3","2022-02-02 20:00","2022","02","02","20:00","-39.9","","-44.3","","63","","","","7","","7","","","","103.32","","","","-49","","NA"
"-130.23","67.18","LITTLE CHICAGO","220B6Q3","2022-02-02 21:00","2022","02","02","21:00","-40.6","","-45.1","","62","","","","8","","5","","","","103.33","","","","-48","","NA"
"-130.23","67.18","LITTLE CHICAGO","220B6Q3","2022-02-02 22:00","2022","02","02","22:00","-41.8","","-46.3","","61","","","","8","","3","","","","103.33","","","","-46","","NA"
"-130.23","67.18","LITTLE CHICAGO","220B6Q3","2022-02-02 23:00","2022","02","02","23:00","-42.9","","-47.6","","60","","","","4","","2","","","","103.35","","","","-46","","NA"
"-130.23","67.18","LITTLE CHICAGO","220B6Q3","2022-02-03 00:00","2022","02","03","00:00","-42.9","","-47.6","","60","","","","0","","1","","","","103.33","","","","-44","","NA"
"-130.23","67.18","LITTLE CHICAGO","220B6Q3","2022-02-03 01:00","2022","02","03","01:00","-43.5","","-48.3","","59","","","","","","0","","","","103.32","","","","","","NA"
"-130.23","67.18","LITTLE CHICAGO","220B6Q3","2022-02-03 02:00","2022","02","03","02:00","-43.7","","-48.5","","59","","","","","","0","","","","103.35","","","","","","NA"
"-130.23","67.18","LITTLE CHICAGO","220B6Q3","2022-02-03 03:00","2022","02","03","03:00","-43.9","","-48.8","","59","","","","7","","7","","","","103.35","","","","-53","","NA"
"-130.23","67.18","LITTLE CHICAGO","220B6Q3","2022-02-03 04:00","2022","02","03","04:00","-43.7","","-48.4","","59","","","","6","","3","","","","103.35","","","","-48","","NA"
"-130.23","67.18","LITTLE CHICAGO","220B6Q3","2022-02-03 05:00","2022","02","03","05:00","-43.8","","-48.6","","59","","","","7","","6","","","","103.32","","","","-52","","NA"
"-130.23","67.18","LITTLE CHICAGO","220B6Q3","2022-02-03 06:00","2022","02","03","06:00","-44.5","","-49.5","","58","","","","","","0","","","","103.31","","","","","","NA"
"-130.23","67.18","LITTLE CHICAGO","220B6Q3","2022-02-03 07:00","2022","02","03","07:00","-45.1","","-50.1","","57","","","","0","","1","","","","103.30","","","","-47","","NA"
"-130.23","67.18","LITTLE CHICAGO","220B6Q3","2022-02-03 08:00","2022","02","03","08:00","-44.5","","-49.4","","58","","","","0","","1","","","","103.29","","","","-46","","NA"
"-130.23","67.18","LITTLE CHICAGO","220B6Q3","2022-02-03 09:00","2022","02","03","09:00","-44.4","","-49.3","","58","","","","13","","3","","","","103.23","","","","-49","","NA"
"-130.23","67.18","LITTLE CHICAGO","220B6Q3","2022-02-03 10:00","2022","02","03","10:00","-44.1","","-48.9","","58","","","","11","","3","","","","103.22","","","","-49","","NA"
"-130.23","67.18","LITTLE CHICAGO","220B6Q3","2022-02-03 11:00","2022","02","03","11:00","-43.2","","-48.0","","59","","","","0","","1","","","","103.17","","","","-45","","NA"
"-130.23","67.18","LITTLE CHICAGO","220B6Q3","2022-02-03 12:00","2022","02","03","12:00","-41.7","","-46.4","","61","","","","0","","1","","","","103.18","","","","-43","","NA"
"-130.23","67.18","LITTLE CHICAGO","220B6Q3","2022-02-03 13:00","2022","02","03","13:00","-41.6","","-46.2","","61","","","","","","0","","","","103.14","","","","","","NA"
"-130.23","67.18","LITTLE CHICAGO","220B6Q3","2022-02-03 14:00","2022","02","03","14:00","-41.3","","-46.1","","60","","","","22","","1","","","","103.11","","","","-43","","NA"
"-130.23","67.18","LITTLE CHICAGO","220B6Q3","2022-02-03 15:00","2022","02","03","15:00","-39.3","","-43.9","","62","","","","","","0","","","","103.09","","","","","","NA"
"-130.23","67.18","LITTLE CHICAGO","220B6Q3","2022-02-03 16:00","2022","02","03","16:00","-42.0","","-46.8","","60","","","","0","","1","","","","103.04","","","","-43","","NA"
"-130.23","67.18","LITTLE CHICAGO","220B6Q3","2022-02-03 17:00","2022","02","03","17:00","-40.2","","-44.7","","62","","","","10","","2","","","","102.98","","","","-43","","NA"
"-130.23","67.18","LITTLE CHICAGO","220B6Q3","2022-02-03 18:00","2022","02","03","18:00","-42.5","","-47.4","","59","","","","26","","1","","","","102.94","","","","-44","","NA"
"-130.23","67.18","LITTLE CHICAGO","220B6Q3","2022-02-03 19:00","2022","02","03","19:00","-42.4","","-47.1","","60","","","","13","","1","","","","102.88","","","","-44","","NA"
"-130.23","67.18","LITTLE CHICAGO","220B6Q3","2022-02-03 20:00","2022","02","03","20:00","-42.4","","-47.2","","60","","","","0","","1","","","","102.80","","","","-44","","NA"
"-130.23","67.18","LITTLE CHICAGO","220B6Q3","2022-02-03 21:00","2022","02","03","21:00","-42.1","","-46.7","","61","","","","9","","1","","","","102.77","","","","-44","","NA"
"-130.23","67.18","LITTLE CHICAGO","220B6Q3","2022-02-03 22:00","2022","02","03","22:00","-42.7","","-47.6","","59","","","","8","","6","","","","102.69","","","","-51","","NA"
"-130.23","67.18","LITTLE CHICAGO","220B6Q3","2022-02-03 23:00","2022","02","03","23:00","-42.9","","-47.7","","59","","","","8","","6","","","","102.65","","","","-51","","NA"
"-130.23","67.18","LITTLE CHICAGO","220B6Q3","2022-02-04 00:00","2022","02","04","00:00","-42.8","","-47.6","","59","","","","18","","1","","","","102.61","","","","-44","","NA"
"-130.23","67.18","LITTLE CHICAGO","220B6Q3","2022-02-04 01:00","2022","02","04","01:00","-42.5","","-47.2","","60","","","","13","","2","","","","102.52","","","","-45","","NA"
"-130.23","67.18","LITTLE CHICAGO","220B6Q3","2022-02-04 02:00","2022","02","04","02:00","-43.5","","-48.4","","58","","","","6","","7","","","","102.42","","","","-53","","NA"
"-130.23","67.18","LITTLE CHICAGO","220B6Q3","2022-02-04 03:00","2022","02","04","03:00","-44.3","","-49.2","","58","","","","0","","1","","","","102.32","","","","-46","","NA"
"-130.23","67.18","LITTLE CHICAGO","220B6Q3","2022-02-04 04:00","2022","02","04","04:00","-44.3","","-49.3","","58","","","","7","","9","","","","102.25","","","","-56","","NA"
"-130.23","67.18","LITTLE CHICAGO","220B6Q3","2022-02-04 05:00","2022","02","04","05:00","-43.3","","-48.2","","59","","","","8","","4","","","","102.16","","","","-49","","NA"
"-130.23","67.18","LITTLE CHICAGO","220B6Q3","2022-02-04 06:00","2022","02","04","06:00","-44.1","","-49.0","","58","","","","30","","3","","","","102.02","","","","-49","","NA"
"-130.23","67.18","LITTLE CHICAGO","220B6Q3","2022-02-04 07:00","2022","02","04","07:00","-43.3","","-48.3","","58","","","","0","","1","","","","101.88","","","","-45","","NA"
"-130.23","67.18","LITTLE CHICAGO","220B6Q3","2022-02-04 08:00","2022","02","04","08:00","-44.0","","-49.0","","58","","","","6","","10","","","","101.82","","","","-56","","NA"
"-130.23","67.18","LITTLE CHICAGO","220B6Q3","2022-02-04 09:00","2022","02","04","09:00","-44.4","","-49.3","","58","","","","0","","1","","","","101.66","","","","-46","","NA"
"-130.23","67.18","LITTLE CHICAGO","220B6Q3","2022-02-04 10:00","2022","02","04","10:00","-44.1","","-49.0","","58","","","","5","","5","","","","101.55","","","","-52","","NA"
"-130.23","67.18","LITTLE CHICAGO","220B6Q3","2022-02-04 11:00","2022","02","04","11:00","-44.5","","-49.4","","58","","","","33","","4","","","","101.41","","","","-51","","NA"
"-130.23","67.18","LITTLE CHICAGO","220B6Q3","2022-02-04 12:00","2022","02","04","12:00","-43.0","","-47.9","","59","","","","35","","3","","","","101.27","","","","-47","","NA"
"-130.23","67.18","LITTLE CHICAGO","220B6Q3","2022-02-04 13:00","2022","02","04","13:00","-40.2","","-44.9","","61","","","","5","","5","","","","101.18","","","","-47","","NA"
"-130.23","67.18","LITTLE CHICAGO","220B6Q3","2022-02-04 14:00","2022","02","04","14:00","-41.6","","-46.5","","59","","","","30","","3","","","","101.06","","","","-46","","NA"
"-130.23","67.18","LITTLE CHICAGO","220B6Q3","2022-02-04 15:00","2022","02","04","15:00","-39.2","","-43.9","","61","","","","","","0","","","","100.89","","","","","","NA"
"-130.23","67.18","LITTLE CHICAGO","220B6Q3","2022-02-04 16:00","2022","02","04","16:00","-39.3","","-43.9","","62","","","","","","0","","","","100.80","","","","","","NA"
"-130.23","67.18","LITTLE CHICAGO","220B6Q3","2022-02-04 17:00","2022","02","04","17:00","-41.5","","-46.2","","60","","","","","","0","","","","100.72","","","","","","NA"
"-130.23","67.18","LITTLE CHICAGO","220B6Q3","2022-02-04 18:00","2022","02","04","18:00","-41.0","","-45.6","","61","","","","34","","4","","","","100.64","","","","-47","","NA"
"-130.23","67.18","LITTLE CHICAGO","220B6Q3","2022-02-04 19:00","2022","02","04","19:00","-41.3","","-45.9","","61","","","","","","0","","","","100.59","","","","","","NA"
"-130.23","67.18","LITTLE CHICAGO","220B6Q3","2022-02-04 20:00","2022","02","04","20:00","-42.6","","-47.4","","59","","","","","","0","","","","100.52","","","","","","NA"
"-130.23","67.18","LITTLE CHICAGO","220B6Q3","2022-02-04 21:00","2022","02","04","21:00","-43.1","","-47.9","","59","","","","","","0","","","","100.51","","","","","","NA"
"-130.23","67.18","LITTLE CHICAGO","220B6Q3","2022-02-04 22:00","2022","02","04","22:00","-43.6","","-48.5","","58","","","","5","","1","","","","100.49","","","","-45","","NA"
"-130.23","67.18","LITTLE CHICAGO","220B6Q3","2022-02-04 23:00","2022","02","04","23:00","-43.7","","-48.6","","59","","","","","","0","","","","100.46","","","","","","NA"
"-130.23","67.18","LITTLE CHICAGO","220B6Q3","2022-02-05 00:00","2022","02","05","00:00","-43.5","","-48.4","","59","","","","14","","1","","","","100.41","","","","-45","","NA"
"-130.23","67.18","LITTLE CHICAGO","220B6Q3","2022-02-05 01:00","2022","02","05","01:00","-42.2","","-46.9","","61","","","","16","","6","","","","100.42","","","","-51","","NA"
"-130.23","67.18","LITTLE CHICAGO","220B6Q3","2022-02-05 02:00","2022","02","05","02:00","-42.2","","-47.0","","59","","","","7","","11","","","","100.43","","","","-54","","NA"
"-130.23","67.18","LITTLE CHICAGO","220B6Q3","2022-02-05 03:00","2022","02","05","03:00","-41.5","","-46.2","","60","","","","13","","3","","","","100.45","","","","-46","","NA"
"-130.23","67.18","LITTLE CHICAGO","220B6Q3","2022-02-05 04:00","2022","02","05","04:00","-41.9","","-46.6","","60","","","","20","","3","","","","100.42","","","","-46","","NA"
"-130.23","67.18","LITTLE CHICAGO","220B6Q3","2022-02-05 05:00","2022","02","05","05:00","-41.0","","-45.6","","61","","","","17","","9","","","","100.41","","","","-52","","NA"
"-130.23","67.18","LITTLE CHICAGO","220B6Q3","2022-02-05 06:00","2022","02","05","06:00","-40.3","","-44.8","","62","","","","14","","6","","","","100.40","","","","-48","","NA"
"-130.23","67.18","LITTLE CHICAGO","220B6Q3","2022-02-05 07:00","2022","02","05","07:00","-41.0","","-45.6","","61","","","","10","","7","","","","100.39","","","","-50","","NA"
"-130.23","67.18","LITTLE CHICAGO","220B6Q3","2022-02-05 08:00","2022","02","05","08:00","-41.0","","-45.7","","61","","","","10","","8","","","","100.39","","","","-51","","NA"
"-130.23","67.18","LITTLE CHICAGO","220B6Q3","2022-02-05 09:00","2022","02","05","09:00","-39.2","","-43.6","","63","","","","13","","10","","","","100.40","","","","-50","","NA"
"-130.23","67.18","LITTLE CHICAGO","220B6Q3","2022-02-05 10:00","2022","02","05","10:00","-38.4","","-42.8","","64","","","","13","","6","","","","100.37","","","","-46","","NA"
"-130.23","67.18","LITTLE CHICAGO","220B6Q3","2022-02-05 11:00","2022","02","05","11:00","-41.1","","-45.8","","61","","","","7","","8","","","","100.35","","","","-51","","NA"
"-130.23","67.18","LITTLE CHICAGO","220B6Q3","2022-02-05 12:00","2022","02","05","12:00","-40.0","","-44.7","","61","","","","7","","6","","","","100.33","","","","-48","","NA"
"-130.23","67.18","LITTLE CHICAGO","220B6Q3","2022-02-05 13:00","2022","02","05","13:00","-37.1","","-41.5","","64","","","","8","","4","","","","100.32","","","","-42","","NA"
"-130.23","67.18","LITTLE CHICAGO","220B6Q3","2022-02-05 14:00","2022","02","05","14:00","-38.6","","-43.1","","62","","","","22","","2","","","","100.31","","","","-41","","NA"
"-130.23","67.18","LITTLE CHICAGO","220B6Q3","2022-02-05 15:00","2022","02","05","15:00","-37.0","","-41.2","","65","","","","","","0","","","","100.30","","","","","","NA"
"-130.23","67.18","LITTLE CHICAGO","220B6Q3","2022-02-05 16:00","2022","02","05","16:00","-37.0","","-41.3","","64","","","","4","","1","","","","100.29","","","","-38","","NA"
"-130.23","67.18","LITTLE CHICAGO","220B6Q3","2022-02-05 17:00","2022","02","05","17:00","-35.5","","-39.5","","67","","","","33","","4","","","","100.28","","","","-41","","NA"
"-130.23","67.18","LITTLE CHICAGO","220B6Q3","2022-02-05 18:00","2022","02","05","18:00","-35.5","","-39.6","","66","","","","0","","1","","","","100.23","","","","-37","","NA"
"-130.23","67.18","LITTLE CHICAGO","220B6Q3","2022-02-05 19:00","2022","02","05","19:00","-36.7","","-40.8","","66","","","","34","","5","","","","100.21","","","","-43","","NA"
"-130.23","67.18","LITTLE CHICAGO","220B6Q3","2022-02-05 20:00","2022","02","05","20:00","-35.8","","-39.8","","67","","","","36","","2","","","","100.14","","","","-38","","NA"
"-130.23","67.18","LITTLE CHICAGO","220B6Q3","2022-02-05 21:00","2022","02","05","21:00","-35.0","","-39.0","","67","","","","29","","3","","","","100.12","","","","-39","","NA"
"-130.23","67.18","LITTLE CHICAGO","220B6Q3","2022-02-05 22:00","2022","02","05","22:00","-33.7","","-37.5","","69","","","","35","","7","","","","100.03","","","","-42","","NA"
"-130.23","67.18","LITTLE CHICAGO","220B6Q3","2022-02-05 23:00","2022","02","05","23:00","-32.1","","-35.6","","71","","","","34","","5","","","","100.01","","","","-38","","NA"
"-130.23","67.18","LITTLE CHICAGO","220B6Q3","2022-02-06 00:00","2022","02","06","00:00","-31.2","","-34.8","","70","","","","34","","9","","","","99.95","","","","-40","","NA"
"-130.23","67.18","LITTLE CHICAGO","220B6Q3","2022-02-06 01:00","2022","02","06","01:00","-30.5","","-34.0","","71","","","","33","","11","","","","99.90","","","","-40","","NA"
"-130.23","67.18","LITTLE CHICAGO","220B6Q3","2022-02-06 02:00","2022","02","06","02:00","-30.5","","-34.0","","71","","","","34","","11","","","","99.85","","","","-40","","NA"
"-130.23","67.18","LITTLE CHICAGO","220B6Q3","2022-02-06 03:00","2022","02","06","03:00","-30.0","","-33.4","","72","","","","34","","11","","","","99.83","","","","-40","","NA"
"-130.23","67.18","LITTLE CHICAGO","220B6Q3","2022-02-06 04:00","2022","02","06","04:00","-29.5","","-32.8","","73","","","","33","","14","","","","99.73","","","","-40","","NA"
"-130.23","67.18","LITTLE CHICAGO","220B6Q3","2022-02-06 05:00","2022","02","06","05:00","-29.2","","-32.4","","73","","","","33","","11","","","","99.71","","","","-39","","NA"
"-130.23","67.18","LITTLE CHICAGO","220B6Q3","2022-02-06 06:00","2022","02","06","06:00","-28.5","","-31.7","","74","","","","34","","10","","","","99.67","","","","-37","","NA"
"-130.23","67.18","LITTLE CHICAGO","220B6Q3","2022-02-06 07:00","2022","02","06","07:00","-28.2","","-31.4","","74","","","","34","","15","","","","99.68","","","","-39","","NA"
"-130.23","67.18","LITTLE CHICAGO","220B6Q3","2022-02-06 08:00","2022","02","06","08:00","-27.8","","-31.0","","74","","","","34","","13","","","","99.73","","","","-38","","NA"
"-130.23","67.18","LITTLE CHICAGO","220B6Q3","2022-02-06 09:00","2022","02","06","09:00","-27.7","","-30.8","","75","","","","34","","13","","","","99.66","","","","-38","","NA"
"-130.23","67.18","LITTLE CHICAGO","220B6Q3","2022-02-06 10:00","2022","02","06","10:00","-27.3","","-30.3","","75","","","","33","","15","","","","99.66","","","","-38","","NA"
"-130.23","67.18","LITTLE CHICAGO","220B6Q3","2022-02-06 11:00","2022","02","06","11:00","-26.8","","-29.9","","75","","","","33","","12","","","","99.73","","","","-36","","NA"
"-130.23","67.18","LITTLE CHICAGO","220B6Q3","2022-02-06 12:00","2022","02","06","12:00","-26.3","","-29.4","","75","","","","33","","12","","","","99.74","","","","-36","","NA"
"-130.23","67.18","LITTLE CHICAGO","220B6Q3","2022-02-06 13:00","2022","02","06","13:00","-26.1","","-29.1","","76","","","","33","","13","","","","99.77","","","","-36","","NA"
"-130.23","67.18","LITTLE CHICAGO","220B6Q3","2022-02-06 14:00","2022","02","06","14:00","-25.8","","-28.8","","76","","","","32","","16","","","","99.76","","","","-37","","NA"
"-130.23","67.18","LITTLE CHICAGO","220B6Q3","2022-02-06 15:00","2022","02","06","15:00","-25.7","","-28.7","","76","","","","32","","16","","","","99.81","","","","-36","","NA"
"-130.23","67.18","LITTLE CHICAGO","220B6Q3","2022-02-06 16:00","2022","02","06","16:00","-25.9","","-29.0","","75","","","","33","","18","","","","99.85","","","","-37","","NA"
"-130.23","67.18","LITTLE CHICAGO","220B6Q3","2022-02-06 17:00","2022","02","06","17:00","-26.2","","-29.3","","75","","","","32","","18","","","","99.93","","","","-38","","NA"
"-130.23","67.18","LITTLE CHICAGO","220B6Q3","2022-02-06 18:00","2022","02","06","18:00","-26.9","","-30.1","","74","","","","32","","19","","","","99.98","","","","-39","","NA"
"-130.23","67.18","LITTLE CHICAGO","220B6Q3","2022-02-06 19:00","2022","02","06","19:00","-27.4","","-30.6","","74","","","","33","","18","","","","100.04","","","","-39","","NA"
"-130.23","67.18","LITTLE CHICAGO","220B6Q3","2022-02-06 20:00","2022","02","06","20:00","-28.1","","-31.3","","74","","","","33","","17","","","","100.07","","","","-40","","NA"
"-130.23","67.18","LITTLE CHICAGO","220B6Q3","2022-02-06 21:00","2022","02","06","21:00","-28.7","","-32.1","","73","","","","32","","18","","","","100.14","","","","-41","","NA"
"-130.23","67.18","LITTLE CHICAGO","220B6Q3","2022-02-06 22:00","2022","02","06","22:00","-29.1","","-32.5","","72","","","","32","","17","","","","100.22","","","","-41","","NA"
"-130.23","67.18","LITTLE CHICAGO","220B6Q3","2022-02-06 23:00","2022","02","06","23:00","-29.4","","-33.0","","71","","","","32","","18","","","","100.24","","","","-42","","NA"
"-130.23","67.18","LITTLE CHICAGO","220B6Q3","2022-02-07 00:00","2022","02","07","00:00","-29.7","","-33.3","","71","","","","33","","15","","","","100.29","","","","-41","","NA"
"-130.23","67.18","LITTLE CHICAGO","220B6Q3","2022-02-07 01:00","2022","02","07","01:00","-29.9","","-33.8","","69","","","","32","","19","","","","100.35","","","","-43","","NA"
"-130.23","67.18","LITTLE CHICAGO","220B6Q3","2022-02-07 02:00","2022","02","07","02:00","-30.0","","-33.7","","70","","","","32","","16","","","","100.39","","","","-42","","NA"
"-130.23","67.18","LITTLE CHICAGO","220B6Q3","2022-02-07 03:00","2022","02","07","03:00","-30.0","","-33.9","","69","","","","32","","18","","","","100.43","","","","-42","","NA"
"-130.23","67.18","LITTLE CHICAGO","220B6Q3","2022-02-07 04:00","2022","02","07","04:00","-30.3","","-34.3","","68","","","","33","","18","","","","100.48","","","","-43","","NA"
"-130.23","67.18","LITTLE CHICAGO","220B6Q3","2022-02-07 05:00","2022","02","07","05:00","-30.4","","-34.4","","68","","","","33","","13","","","","100.56","","","","-41","","NA"
"-130.23","67.18","LITTLE CHICAGO","220B6Q3","2022-02-07 06:00","2022","02","07","06:00","-30.4","","-34.3","","69","","","","32","","13","","","","100.58","","","","-41","","NA"
"-130.23","67.18","LITTLE CHICAGO","220B6Q3","2022-02-07 07:00","2022","02","07","07:00","-31.8","","-35.9","","67","","","","32","","23","","","","100.64","","","","-46","","NA"
"-130.23","67.18","LITTLE CHICAGO","220B6Q3","2022-02-07 08:00","2022","02","07","08:00","-33.6","","-37.9","","66","","","","32","","20","","","","100.73","","","","-48","","NA"
"-130.23","67.18","LITTLE CHICAGO","220B6Q3","2022-02-07 09:00","2022","02","07","09:00","-34.7","","-39.2","","64","","","","33","","19","","","","100.80","","","","-49","","NA"
"-130.23","67.18","LITTLE CHICAGO","220B6Q3","2022-02-07 10:00","2022","02","07","10:00","-35.4","","-40.0","","63","","","","33","","13","","","","100.88","","","","-47","","NA"
"-130.23","67.18","LITTLE CHICAGO","220B6Q3","2022-02-07 11:00","2022","02","07","11:00","-36.1","","-40.5","","64","","","","33","","9","","","","101.00","","","","-46","","NA"
"-130.23","67.18","LITTLE CHICAGO","220B6Q3","2022-02-07 12:00","2022","02","07","12:00","-35.9","","-40.4","","63","","","","33","","11","","","","101.09","","","","-47","","NA"
"-130.23","67.18","LITTLE CHICAGO","220B6Q3","2022-02-07 13:00","2022","02","07","13:00","-35.9","","-40.4","","63","","","","33","","10","","","","101.17","","","","-46","","NA"
"-130.23","67.18","LITTLE CHICAGO","220B6Q3","2022-02-07 14:00","2022","02","07","14:00","-36.0","","-40.7","","62","","","","33","","10","","","","101.27","","","","-46","","NA"
"-130.23","67.18","LITTLE CHICAGO","220B6Q3","2022-02-07 15:00","2022","02","07","15:00","-36.3","","-40.9","","63","","","","33","","9","","","","101.35","","","","-46","","NA"
"-130.23","67.18","LITTLE CHICAGO","220B6Q3","2022-02-07 16:00","2022","02","07","16:00","-36.5","","-41.2","","62","","","","33","","9","","","","101.45","","","","-46","","NA"
"-130.23","67.18","LITTLE CHICAGO","220B6Q3","2022-02-07 17:00","2022","02","07","17:00","-36.8","","-41.3","","63","","","","35","","5","","","","101.55","","","","-43","","NA"
"-130.23","67.18","LITTLE CHICAGO","220B6Q3","2022-02-07 18:00","2022","02","07","18:00","-37.1","","-41.5","","64","","","","34","","7","","","","101.62","","","","-46","","NA"
"-130.23","67.18","LITTLE CHICAGO","220B6Q3","2022-02-07 19:00","2022","02","07","19:00","-37.0","","-41.3","","65","","","","36","","4","","","","101.65","","","","-42","","NA"
"-130.23","67.18","LITTLE CHICAGO","220B6Q3","2022-02-07 20:00","2022","02","07","20:00","-37.2","","-41.5","","64","","","","2","","3","","","","101.65","","","","-41","","NA"
"-130.23","67.18","LITTLE CHICAGO","220B6Q3","2022-02-07 21:00","2022","02","07","21:00","-38.4","","-42.6","","65","","","","0","","1","","","","101.75","","","","-40","","NA"
"-130.23","67.18","LITTLE CHICAGO","220B6Q3","2022-02-07 22:00","2022","02","07","22:00","-38.4","","-42.5","","65","","","","","","0","","","","101.75","","","","","","NA"
"-130.23","67.18","LITTLE CHICAGO","220B6Q3","2022-02-07 23:00","2022","02","07","23:00","-38.5","","-42.8","","64","","","","0","","1","","","","101.84","","","","-40","","NA"
"-130.23","67.18","LITTLE CHICAGO","220B6Q3","2022-02-08 00:00","2022","02","08","00:00","-39.2","","-43.5","","64","","","","30","","3","","","","101.88","","","","-43","","NA"
"-130.23","67.18","LITTLE CHICAGO","220B6Q3","2022-02-08 01:00","2022","02","08","01:00","-38.0","","-42.1","","65","","","","5","","3","","","","101.85","","","","-42","","NA"
"-130.23","67.18","LITTLE CHICAGO","220B6Q3","2022-02-08 02:00","2022","02","08","02:00","-37.1","","-41.3","","65","","","","35","","3","","","","101.87","","","","-41","","NA"
"-130.23","67.18","LITTLE CHICAGO","220B6Q3","2022-02-08 03:00","2022","02","08","03:00","-37.6","","-41.8","","65","","","","34","","5","","","","101.90","","","","-44","","NA"
"-130.23","67.18","LITTLE CHICAGO","220B6Q3","2022-02-08 04:00","2022","02","08","04:00","-37.4","","-41.6","","65","","","","31","","4","","","","101.91","","","","-43","","NA"
"-130.23","67.18","LITTLE CHICAGO","220B6Q3","2022-02-08 05:00","2022","02","08","05:00","-37.0","","-41.2","","65","","","","5","","4","","","","101.87","","","","-42","","NA"
"-130.23","67.18","LITTLE CHICAGO","220B6Q3","2022-02-08 06:00","2022","02","08","06:00","-36.7","","-41.0","","65","","","","0","","1","","","","101.93","","","","-38","","NA"
"-130.23","67.18","LITTLE CHICAGO","220B6Q3","2022-02-08 07:00","2022","02","08","07:00","-38.1","","-42.4","","64","","","","35","","4","","","","101.93","","","","-43","","NA"
"-130.23","67.18","LITTLE CHICAGO","220B6Q3","2022-02-08 08:00","2022","02","08","08:00","-39.0","","-43.3","","64","","","","","","0","","","","101.89","","","","","","NA"
"-130.23","67.18","LITTLE CHICAGO","220B6Q3","2022-02-08 09:00","2022","02","08","09:00","-39.2","","-43.4","","64","","","","1","","3","","","","101.92","","","","-43","","NA"
"-130.23","67.18","LITTLE CHICAGO","220B6Q3","2022-02-08 10:00","2022","02","08","10:00","-39.6","","-43.9","","63","","","","0","","1","","","","101.94","","","","-41","","NA"
"-130.23","67.18","LITTLE CHICAGO","220B6Q3","2022-02-08 11:00","2022","02","08","11:00","-38.7","","-43.0","","64","","","","31","","2","","","","101.92","","","","-41","","NA"
"-130.23","67.18","LITTLE CHICAGO","220B6Q3","2022-02-08 12:00","2022","02","08","12:00","-37.6","","-41.7","","65","","","","35","","3","","","","101.94","","","","-42","","NA"
"-130.23","67.18","LITTLE CHICAGO","220B6Q3","2022-02-08 13:00","2022","02","08","13:00","-36.6","","-40.8","","65","","","","","","0","","","","101.93","","","","","","NA"
"-130.23","67.18","LITTLE CHICAGO","220B6Q3","2022-02-08 14:00","2022","02","08","14:00","-35.8","","-40.2","","65","","","","32","","4","","","","101.91","","","","-41","","NA"
"-130.23","67.18","LITTLE CHICAGO","220B6Q3","2022-02-08 15:00","2022","02","08","15:00","-36.5","","-41.0","","63","","","","30","","4","","","","101.92","","","","-42","","NA"
"-130.23","67.18","LITTLE CHICAGO","220B6Q3","2022-02-08 16:00","2022","02","08","16:00","-35.9","","-40.1","","65","","","","31","","4","","","","101.88","","","","-41","","NA"
"-130.23","67.18","LITTLE CHICAGO","220B6Q3","2022-02-08 17:00","2022","02","08","17:00","-35.6","","-39.9","","65","","","","35","","3","","","","101.86","","","","-39","","NA"
"-130.23","67.18","LITTLE CHICAGO","220B6Q3","2022-02-08 18:00","2022","02","08","18:00"
"-130.23","67.18","LITTLE CHICAGO","220B6Q3","2022-02-08 19:00","2022","02","08","19:00","-37.0","","-41.1","","65","","","","31","","5","","","","101.76","","","","-44","","NA"
"-130.23","67.18","LITTLE CHICAGO","220B6Q3","2022-02-08 20:00","2022","02","08","20:00","-35.4","","-39.6","","66","","","","3","","1","","","","101.72","","","","-37","","NA"
"-130.23","67.18","LITTLE CHICAGO","220B6Q3","2022-02-08 21:00","2022","02","08","21:00","-35.1","","-39.3","","66","","","","33","","6","","","","101.66","","","","-42","","NA"
"-130.23","67.18","LITTLE CHICAGO","220B6Q3","2022-02-08 22:00","2022","02","08","22:00","-34.5","","-38.7","","66","","","","32","","7","","","","101.63","","","","-43","","NA"
"-130.23","67.18","LITTLE CHICAGO","220B6Q3","2022-02-08 23:00","2022","02","08","23:00","-35.0","","-39.4","","64","","","","34","","7","","","","101.58","","","","-43","","NA"
"-130.23","67.18","LITTLE CHICAGO","220B6Q3","2022-02-09 00:00","2022","02","09","00:00","-35.3","","-39.5","","65","","","","34","","7","","","","101.55","","","","-43","","NA"
"-130.23","67.18","LITTLE CHICAGO","220B6Q3","2022-02-09 01:00","2022","02","09","01:00","-35.0","","-39.2","","65","","","","32","","8","","","","101.54","","","","-44","","NA"
"-130.23","67.18","LITTLE CHICAGO","220B6Q3","2022-02-09 02:00","2022","02","09","02:00","-35.0","","-39.3","","65","","","","33","","7","","","","101.44","","","","-43","","NA"
"-130.23","67.18","LITTLE CHICAGO","220B6Q3","2022-02-09 03:00","2022","02","09","03:00","-34.4","","-38.5","","66","","","","34","","7","","","","101.41","","","","-42","","NA"
"-130.23","67.18","LITTLE CHICAGO","220B6Q3","2022-02-09 04:00","2022","02","09","04:00","-34.0","","-38.1","","66","","","","34","","7","","","","101.37","","","","-42","","NA"
"-130.23","67.18","LITTLE CHICAGO","220B6Q3","2022-02-09 05:00","2022","02","09","05:00","-33.3","","-37.4","","67","","","","32","","8","","","","101.31","","","","-42","","NA"
"-130.23","67.18","LITTLE CHICAGO","220B6Q3","2022-02-09 06:00","2022","02","09","06:00","-32.9","","-36.8","","68","","","","34","","6","","","","101.20","","","","-40","","NA"
"-130.23","67.18","LITTLE CHICAGO","220B6Q3","2022-02-09 07:00","2022","02","09","07:00","-32.6","","-36.4","","69","","","","32","","6","","","","101.10","","","","-40","","NA"
"-130.23","67.18","LITTLE CHICAGO","220B6Q3","2022-02-09 08:00","2022","02","09","08:00","-32.0","","-35.7","","70","","","","35","","4","","","","100.97","","","","-37","","NA"
"-130.23","67.18","LITTLE CHICAGO","220B6Q3","2022-02-09 09:00","2022","02","09","09:00","-31.6","","-35.2","","70","","","","32","","6","","","","100.88","","","","-38","","NA"
"-130.23","67.18","LITTLE CHICAGO","220B6Q3","2022-02-09 10:00","2022","02","09","10:00","-31.0","","-34.5","","71","","","","35","","4","","","","100.77","","","","-36","","NA"
"-130.23","67.18","LITTLE CHICAGO","220B6Q3","2022-02-09 11:00","2022","02","09","11:00","-30.4","","-33.9","","72","","","","32","","8","","","","100.67","","","","-38","","NA"
"-130.23","67.18","LITTLE CHICAGO","220B6Q3","2022-02-09 12:00","2022","02","09","12:00","-28.9","","-32.1","","74","","","","2","","3","","","","100.56","","","","-32","","NA"
"-130.23","67.18","LITTLE CHICAGO","220B6Q3","2022-02-09 13:00","2022","02","09","13:00","-28.7","","-32.0","","73","","","","33","","6","","","","100.53","","","","-35","","NA"
"-130.23","67.18","LITTLE CHICAGO","220B6Q3","2022-02-09 14:00","2022","02","09","14:00","-27.7","","-30.9","","74","","","","32","","5","","","","100.46","","","","-33","","NA"
"-130.23","67.18","LITTLE CHICAGO","220B6Q3","2022-02-09 15:00","2022","02","09","15:00","-25.6","","-28.7","","75","","","","12","","8","","","","100.40","","","","-33","","NA"
"-130.23","67.18","LITTLE CHICAGO","220B6Q3","2022-02-09 16:00","2022","02","09","16:00","-25.2","","-28.2","","76","","","","12","","7","","","","100.38","","","","-32","","NA"
"-130.23","67.18","LITTLE CHICAGO","220B6Q3","2022-02-09 17:00","2022","02","09","17:00","-25.1","","-28.0","","77","","","","11","","5","","","","100.33","","","","-30","","NA"
"-130.23","67.18","LITTLE CHICAGO","220B6Q3","2022-02-09 18:00","2022","02","09","18:00","-25.3","","-28.2","","77","","","","11","","3","","","","100.38","","","","-28","","NA"
"-130.23","67.18","LITTLE CHICAGO","220B6Q3","2022-02-09 19:00","2022","02","09","19:00","-25.5","","-28.4","","76","","","","6","","1","","","","100.37","","","","-27","","NA"
"-130.23","67.18","LITTLE CHICAGO","220B6Q3","2022-02-09 20:00","2022","02","09","20:00","-26.1","","-29.0","","76","","","","","","0","","","","100.37","","","","","","NA"
"-130.23","67.18","LITTLE CHICAGO","220B6Q3","2022-02-09 21:00","2022","02","09","21:00","-26.4","","-29.4","","76","","","","","","0","","","","100.40","","","","","","NA"
"-130.23","67.18","LITTLE CHICAGO","220B6Q3","2022-02-09 22:00","2022","02","09","22:00","-25.8","","-28.8","","76","","","","0","","1","","","","100.40","","","","-27","","NA"
"-130.23","67.18","LITTLE CHICAGO","220B6Q3","2022-02-09 23:00","2022","02","09","23:00","-24.9","","-27.6","","78","","","","10","","3","","","","100.40","","","","-28","","NA"
"-130.23","67.18","LITTLE CHICAGO","220B6Q3","2022-02-10 00:00","2022","02","10","00:00","-23.8","","-26.6","","78","","","","14","","4","","","","100.45","","","","-28","","NA"
"-130.23","67.18","LITTLE CHICAGO","220B6Q3","2022-02-10 01:00","2022","02","10","01:00","-24.0","","-26.7","","78","","","","13","","3","","","","100.49","","","","-27","","NA"
"-130.23","67.18","LITTLE CHICAGO","220B6Q3","2022-02-10 02:00","2022","02","10","02:00","-23.9","","-26.7","","78","","","","13","","4","","","","100.51","","","","-28","","NA"
"-130.23","67.18","LITTLE CHICAGO","220B6Q3","2022-02-10 03:00","2022","02","10","03:00","-23.7","","-26.4","","78","","","","16","","1","","","","100.55","","","","-25","","NA"
"-130.23","67.18","LITTLE CHICAGO","220B6Q3","2022-02-10 04:00","2022","02","10","04:00","-23.5","","-26.3","","78","","","","16","","4","","","","100.60","","","","-27","","NA"
"-130.23","67.18","LITTLE CHICAGO","220B6Q3","2022-02-10 05:00","2022","02","10","05:00","-23.6","","-26.3","","78","","","","0","","1","","","","100.63","","","","-25","","NA"
"-130.23","67.18","LITTLE CHICAGO","220B6Q3","2022-02-10 06:00","2022","02","10","06:00","-23.4","","-26.4","","76","","","","","","0","","","","100.73","","","","","","NA"
"-130.23","67.18","LITTLE CHICAGO","220B6Q3","2022-02-10 07:00","2022","02","10","07:00","-23.4","","-26.2","","78","","","","24","","4","","","","100.83","","","","-27","","NA"
"-130.23","67.18","LITTLE CHICAGO","220B6Q3","2022-02-10 08:00","2022","02","10","08:00","-23.7","","-26.3","","79","","","","0","","1","","","","100.92","","","","-25","","NA"
"-130.23","67.18","LITTLE CHICAGO","220B6Q3","2022-02-10 09:00","2022","02","10","09:00","-23.9","","-26.6","","78","","","","20","","5","","","","","M","","","-29","","NA"
"-130.23","67.18","LITTLE CHICAGO","220B6Q3","2022-02-10 10:00","2022","02","10","10:00","-23.7","","-26.4","","78","","","","21","","8","","","","101.22","","","","-31","","NA"
"-130.23","67.18","LITTLE CHICAGO","220B6Q3","2022-02-10 11:00","2022","02","10","11:00","-23.8","","-26.5","","79","","","","19","","9","","","","101.33","","","","-31","","NA"
"-130.23","67.18","LITTLE CHICAGO","220B6Q3","2022-02-10 12:00","2022","02","10","12:00","-23.9","","-27.0","","75","","","","32","","8","","","","101.51","","","","-31","","NA"
"-130.23","67.18","LITTLE CHICAGO","220B6Q3","2022-02-10 13:00","2022","02","10","13:00","-25.1","","-28.2","","75","","","","30","","3","","","","101.70","","","","-28","","NA"
"-130.23","67.18","LITTLE CHICAGO","220B6Q3","2022-02-10 14:00","2022","02","10","14:00","-25.3","","-28.2","","76","","","","29","","2","","","","101.87","","","","-27","","NA"
"-130.23","67.18","LITTLE CHICAGO","220B6Q3","2022-02-10 15:00","2022","02","10","15:00","-25.2","","-28.3","","76","","","","6","","2","","","","101.98","","","","-27","","NA"
"-130.23","67.18","LITTLE CHICAGO","220B6Q3","2022-02-10 16:00","2022","02","10","16:00","-23.5","","-26.6","","76","","","","15","","3","","","","102.05","","","","-26","","NA"
"-130.23","67.18","LITTLE CHICAGO","220B6Q3","2022-02-10 17:00","2022","02","10","17:00","-24.9","","-27.9","","76","","","","12","","6","","","","102.12","","","","-31","","NA"
"-130.23","67.18","LITTLE CHICAGO","220B6Q3","2022-02-10 18:00","2022","02","10","18:00","-26.8","","-29.8","","76","","","","13","","3","","","","102.17","","","","-30","","NA"
"-130.23","67.18","LITTLE CHICAGO","220B6Q3","2022-02-10 19:00","2022","02","10","19:00","-28.1","","-31.0","","76","","","","16","","4","","","","102.23","","","","-32","","NA"
"-130.23","67.18","LITTLE CHICAGO","220B6Q3","2022-02-10 20:00","2022","02","10","20:00","-27.8","","-30.7","","76","","","","12","","8","","","","102.23","","","","-35","","NA"
"-130.23","67.18","LITTLE CHICAGO","220B6Q3","2022-02-10 21:00","2022","02","10","21:00","-28.9","","-31.8","","75","","","","5","","11","","","","102.21","","","","-38","","NA"
"-130.23","67.18","LITTLE CHICAGO","220B6Q3","2022-02-10 22:00","2022","02","10","22:00","-31.4","","-34.7","","73","","","","15","","5","","","","102.26","","","","-37","","NA"
"-130.23","67.18","LITTLE CHICAGO","220B6Q3","2022-02-10 23:00","2022","02","10","23:00","-32.8","","-36.2","","72","","","","10","","3","","","","102.40","","","","-36","","NA"
"-130.23","67.18","LITTLE CHICAGO","220B6Q3","2022-02-11 00:00","2022","02","11","00:00","-32.6","","-35.9","","72","","","","10","","4","","","","102.44","","","","-37","","NA"
"-130.23","67.18","LITTLE CHICAGO","220B6Q3","2022-02-11 01:00","2022","02","11","01:00","-32.2","","-35.2","","74","","","","14","","4","","","","102.54","","","","-37","","NA"
"-130.23","67.18","LITTLE CHICAGO","220B6Q3","2022-02-11 02:00","2022","02","11","02:00","-35.5","","-39.3","","68","","","","9","","5","","","","102.59","","","","-42","","NA"
"-130.23","67.18","LITTLE CHICAGO","220B6Q3","2022-02-11 03:00","2022","02","11","03:00","-36.0","","-40.3","","64","","","","7","","6","","","","102.66","","","","-43","","NA"
"-130.23","67.18","LITTLE CHICAGO","220B6Q3","2022-02-11 04:00","2022","02","11","04:00","-37.7","","-41.6","","67","","","","34","","5","","","","102.75","","","","-44","","NA"
"-130.23","67.18","LITTLE CHICAGO","220B6Q3","2022-02-11 05:00","2022","02","11","05:00","-38.8","","-43.1","","64","","","","18","","2","","","","102.84","","","","-42","","NA"
"-130.23","67.18","LITTLE CHICAGO","220B6Q3","2022-02-11 06:00","2022","02","11","06:00","-38.3","","-42.5","","65","","","","5","","7","","","","102.87","","","","-47","","NA"
"-130.23","67.18","LITTLE CHICAGO","220B6Q3","2022-02-11 07:00","2022","02","11","07:00","-38.2","","-42.4","","65","","","","30","","3","","","","102.85","","","","-42","","NA"
"-130.23","67.18","LITTLE CHICAGO","220B6Q3","2022-02-11 08:00","2022","02","11","08:00","-38.0","","-42.0","","66","","","","2","","1","","","","102.89","","","","-39","","NA"
"-130.23","67.18","LITTLE CHICAGO","220B6Q3","2022-02-11 09:00","2022","02","11","09:00","-39.9","","-44.3","","63","","","","0","","1","","","","102.91","","","","-41","","NA"
"-130.23","67.18","LITTLE CHICAGO","220B6Q3","2022-02-11 10:00","2022","02","11","10:00","-39.8","","-44.2","","63","","","","6","","7","","","","102.92","","","","-49","","NA"
"-130.23","67.18","LITTLE CHICAGO","220B6Q3","2022-02-11 11:00","2022","02","11","11:00","-39.8","","-44.1","","64","","","","29","","2","","","","103.00","","","","-43","","NA"
"-130.23","67.18","LITTLE CHICAGO","220B6Q3","2022-02-11 12:00","2022","02","11","12:00","-37.9","","-42.1","","65","","","","","","0","","","","102.96","","","","","","NA"
"-130.23","67.18","LITTLE CHICAGO","220B6Q3","2022-02-11 13:00","2022","02","11","13:00","-36.5","","-41.1","","63","","","","","","0","","","","102.97","","","","","","NA"
"-130.23","67.18","LITTLE CHICAGO","220B6Q3","2022-02-11 14:00","2022","02","11","14:00","-32.4","","-36.2","","68","","","","","","0","","","","102.97","","","","","","NA"
"-130.23","67.18","LITTLE CHICAGO","220B6Q3","2022-02-11 15:00","2022","02","11","15:00","-34.1","","-37.9","","69","","","","32","","4","","","","102.97","","","","-39","","NA"
"-130.23","67.18","LITTLE CHICAGO","220B6Q3","2022-02-11 16:00","2022","02","11","16:00","-33.1","","-36.7","","70","","","","33","","2","","","","102.93","","","","-36","","NA"
"-130.23","67.18","LITTLE CHICAGO","220B6Q3","2022-02-11 17:00","2022","02","11","17:00","-32.4","","-36.2","","69","","","","","","0","","","","102.89","","","","","","NA"
"-130.23","67.18","LITTLE CHICAGO","220B6Q3","2022-02-11 18:00","2022","02","11","18:00","-35.1","","-39.0","","67","","","","","","0","","","","102.85","","","","","","NA"
"-130.23","67.18","LITTLE CHICAGO","220B6Q3","2022-02-11 19:00","2022","02","11","19:00","-36.7","","-40.7","","66","","","","","","0","","","","102.82","","","","","","NA"
"-130.23","67.18","LITTLE CHICAGO","220B6Q3","2022-02-11 20:00","2022","02","11","20:00","-37.9","","-41.9","","66","","","","16","","2","","","","102.76","","","","-41","","NA"
"-130.23","67.18","LITTLE CHICAGO","220B6Q3","2022-02-11 21:00","2022","02","11","21:00","-37.7","","-41.8","","65","","","","4","","7","","","","102.68","","","","-46","","NA"
"-130.23","67.18","LITTLE CHICAGO","220B6Q3","2022-02-11 22:00","2022","02","11","22:00","-39.4","","-43.7","","64","","","","0","","1","","","","102.64","","","","-41","","NA"
"-130.23","67.18","LITTLE CHICAGO","220B6Q3","2022-02-11 23:00","2022","02","11","23:00","-39.0","","-43.3","","64","","","","0","","1","","","","102.65","","","","-40","","NA"
"-130.23","67.18","LITTLE CHICAGO","220B6Q3","2022-02-12 00:00","2022","02","12","00:00","-40.2","","-44.7","","62","","","","","","0","","","","102.60","","","","","","NA"
"-130.23","67.18","LITTLE CHICAGO","220B6Q3","2022-02-12 01:00","2022","02","12","01:00","-40.5","","-44.9","","63","","","","1","","2","","","","102.55","","","","-43","","NA"
"-130.23","67.18","LITTLE CHICAGO","220B6Q3","2022-02-12 02:00","2022","02","12","02:00","-40.5","","-45.0","","62","","","","","","0","","","","102.46","","","","","","NA"
"-130.23","67.18","LITTLE CHICAGO","220B6Q3","2022-02-12 03:00","2022","02","12","03:00","-40.7","","-45.1","","63","","","","","","0","","","","102.44","","","","","","NA"
"-130.23","67.18","LITTLE CHICAGO","220B6Q3","2022-02-12 04:00","2022","02","12","04:00","-41.1","","-45.7","","61","","","","5","","2","","","","102.34","","","","-44","","NA"
"-130.23","67.18","LITTLE CHICAGO","220B6Q3","2022-02-12 05:00","2022","02","12","05:00","-41.3","","-45.8","","62","","","","34","","3","","","","102.24","","","","-46","","NA"
"-130.23","67.18","LITTLE CHICAGO","220B6Q3","2022-02-12 06:00","2022","02","12","06:00","-40.4","","-44.7","","63","","","","","","0","","","","102.16","","","","","","NA"
"-130.23","67.18","LITTLE CHICAGO","220B6Q3","2022-02-12 07:00","2022","02","12","07:00","-41.3","","-46.0","","61","","","","","","0","","","","102.03","","","","","","NA"
"-130.23","67.18","LITTLE CHICAGO","220B6Q3","2022-02-12 08:00","2022","02","12","08:00","-40.4","","-44.8","","62","","","","33","","3","","","","102.00","","","","-45","","NA"
"-130.23","67.18","LITTLE CHICAGO","220B6Q3","2022-02-12 09:00","2022","02","12","09:00","-39.2","","-43.3","","65","","","","33","","5","","","","101.97","","","","-46","","NA"
"-130.23","67.18","LITTLE CHICAGO","220B6Q3","2022-02-12 10:00","2022","02","12","10:00","-34.9","","-38.6","","69","","","","33","","9","","","","101.87","","","","-44","","NA"
"-130.23","67.18","LITTLE CHICAGO","220B6Q3","2022-02-12 11:00","2022","02","12","11:00","-32.7","","-36.4","","69","","","","33","","9","","","","101.79","","","","-42","","NA"
"-130.23","67.18","LITTLE CHICAGO","220B6Q3","2022-02-12 12:00","2022","02","12","12:00","-30.5","","-33.9","","72","","","","33","","10","","","","101.78","","","","-40","","NA"
"-130.23","67.18","LITTLE CHICAGO","220B6Q3","2022-02-12 13:00","2022","02","12","13:00","-28.4","","-31.9","","72","","","","33","","12","","","","101.78","","","","-38","","NA"
"-130.23","67.18","LITTLE CHICAGO","220B6Q3","2022-02-12 14:00","2022","02","12","14:00","-27.7","","-31.1","","73","","","","33","","7","","","","101.79","","","","-35","","NA"
"-130.23","67.18","LITTLE CHICAGO","220B6Q3","2022-02-12 15:00","2022","02","12","15:00","-27.4","","-30.7","","73","","","","34","","10","","","","101.84","","","","-36","","NA"
"-130.23","67.18","LITTLE CHICAGO","220B6Q3","2022-02-12 16:00","2022","02","12","16:00","-26.5","","-29.6","","75","","","","31","","5","","","","101.90","","","","-32","","NA"
"-130.23","67.18","LITTLE CHICAGO","220B6Q3","2022-02-12 17:00","2022","02","12","17:00","-26.2","","-29.4","","74","","","","33","","4","","","","101.97","","","","-30","","NA"
"-130.23","67.18","LITTLE CHICAGO","220B6Q3","2022-02-12 18:00","2022","02","12","18:00","-26.0","","-29.2","","74","","","","34","","5","","","","102.07","","","","-31","","NA"
"-130.23","67.18","LITTLE CHICAGO","220B6Q3","2022-02-12 19:00","2022","02","12","19:00","-25.9","","-29.0","","75","","","","34","","4","","","","102.14","","","","-30","","NA"
"-130.23","67.18","LITTLE CHICAGO","220B6Q3","2022-02-12 20:00","2022","02","12","20:00","-26.0","","-29.0","","75","","","","6","","2","","","","102.18","","","","-28","","NA"
"-130.23","67.18","LITTLE CHICAGO","220B6Q3","2022-02-12 21:00","2022","02","12","21:00","-26.6","","-29.7","","75","","","","33","","4","","","","102.22","","","","-31","","NA"
"-130.23","67.18","LITTLE CHICAGO","220B6Q3","2022-02-12 22:00","2022","02","12","22:00","-26.4","","-29.4","","76","","","","33","","5","","","","102.26","","","","-32","","NA"
"-130.23","67.18","LITTLE CHICAGO","220B6Q3","2022-02-12 23:00","2022","02","12","23:00","-26.3","","-29.2","","76","","","","35","","3","","","","102.29","","","","-29","","NA"
"-130.23","67.18","LITTLE CHICAGO","220B6Q3","2022-02-13 00:00","2022","02","13","00:00","-26.3","","-29.2","","76","","","","34","","1","","","","102.35","","","","-27","","NA"
"-130.23","67.18","LITTLE CHICAGO","220B6Q3","2022-02-13 01:00","2022","02","13","01:00","-26.4","","-29.3","","76","","","","33","","1","","","","102.38","","","","-27","","NA"
"-130.23","67.18","LITTLE CHICAGO","220B6Q3","2022-02-13 02:00","2022","02","13","02:00","-26.2","","-29.1","","77","","","","","","0","","","","102.40","","","","","","NA"
"-130.23","67.18","LITTLE CHICAGO","220B6Q3","2022-02-13 03:00","2022","02","13","03:00","-26.0","","-28.9","","76","","","","31","","2","","","","102.42","","","","-28","","NA"
"-130.23","67.18","LITTLE CHICAGO","220B6Q3","2022-02-13 04:00","2022","02","13","04:00","-26.2","","-29.2","","76","","","","34","","3","","","","102.45","","","","-29","","NA"
"-130.23","67.18","LITTLE CHICAGO","220B6Q3","2022-02-13 05:00","2022","02","13","05:00","-27.5","","-30.6","","75","","","","3","","4","","","","102.45","","","","-32","","NA"
"-130.23","67.18","LITTLE CHICAGO","220B6Q3","2022-02-13 06:00","2022","02","13","06:00","-29.5","","-32.8","","74","","","","","","0","","","","102.43","","","","","","NA"
"-130.23","67.18","LITTLE CHICAGO","220B6Q3","2022-02-13 07:00","2022","02","13","07:00","-30.7","","-34.0","","73","","","","34","","1","","","","102.39","","","","-32","","NA"
"-130.23","67.18","LITTLE CHICAGO","220B6Q3","2022-02-13 08:00","2022","02","13","08:00","-30.0","","-33.4","","73","","","","18","","3","","","","102.35","","","","-33","","NA"
"-130.23","67.18","LITTLE CHICAGO","220B6Q3","2022-02-13 09:00","2022","02","13","09:00"
"-130.23","67.18","LITTLE CHICAGO","220B6Q3","2022-02-13 10:00","2022","02","13","10:00","-29.1","","-32.3","","73","","","","","","0","","","","102.32","","","","","","NA"
"-130.23","67.18","LITTLE CHICAGO","220B6Q3","2022-02-13 11:00","2022","02","13","11:00","-29.4","","-32.7","","73","","","","0","","1","","","","102.31","","","","-31","","NA"
"-130.23","67.18","LITTLE CHICAGO","220B6Q3","2022-02-13 12:00","2022","02","13","12:00","-27.5","","-30.4","","76","","","","","","0","","","","102.30","","","","","","NA"
"-130.23","67.18","LITTLE CHICAGO","220B6Q3","2022-02-13 13:00","2022","02","13","13:00","-26.9","","-30.2","","73","","","","","","0","","","","102.29","","","","","","NA"
"-130.23","67.18","LITTLE CHICAGO","220B6Q3","2022-02-13 14:00","2022","02","13","14:00","-25.6","","-28.8","","74","","","","","","0","","","","102.25","","","","","","NA"
"-130.23","67.18","LITTLE CHICAGO","220B6Q3","2022-02-13 15:00","2022","02","13","15:00","-25.9","","-29.0","","75","","","","32","","2","","","","102.22","","","","-28","","NA"
"-130.23","67.18","LITTLE CHICAGO","220B6Q3","2022-02-13 16:00","2022","02","13","16:00","-24.7","","-27.7","","76","","","","32","","2","","","","102.17","","","","-27","","NA"
"-130.23","67.18","LITTLE CHICAGO","220B6Q3","2022-02-13 17:00","2022","02","13","17:00","-24.7","","-27.6","","77","","","","31","","1","","","","102.14","","","","-26","","NA"
"-130.23","67.18","LITTLE CHICAGO","220B6Q3","2022-02-13 18:00","2022","02","13","18:00","-25.3","","-28.2","","77","","","","0","","1","","","","102.09","","","","-26","","NA"
"-130.23","67.18","LITTLE CHICAGO","220B6Q3","2022-02-13 19:00","2022","02","13","19:00","-25.8","","-28.7","","77","","","","34","","6","","","","102.09","","","","-32","","NA"
"-130.23","67.18","LITTLE CHICAGO","220B6Q3","2022-02-13 20:00","2022","02","13","20:00","-25.7","","-28.5","","77","","","","33","","8","","","","102.09","","","","-33","","NA"
"-130.23","67.18","LITTLE CHICAGO","220B6Q3","2022-02-13 21:00","2022","02","13","21:00","-25.1","","-27.9","","77","","","","33","","8","","","","102.02","","","","-32","","NA"
"-130.23","67.18","LITTLE CHICAGO","220B6Q3","2022-02-13 22:00","2022","02","13","22:00","-25.2","","-28.0","","77","","","","33","","6","","","","102.04","","","","-31","","NA"
"-130.23","67.18","LITTLE CHICAGO","220B6Q3","2022-02-13 23:00","2022","02","13","23:00","-25.4","","-28.3","","77","","","","34","","8","","","","102.07","","","","-33","","NA"
"-130.23","67.18","LITTLE CHICAGO","220B6Q3","2022-02-14 00:00","2022","02","14","00:00","-25.7","","-28.6","","76","","","","34","","8","","","","102.08","","","","-33","","NA"
"-130.23","67.18","LITTLE CHICAGO","220B6Q3","2022-02-14 01:00","2022","02","14","01:00","-26.0","","-29.0","","76","","","","34","","5","","","","102.12","","","","-31","","NA"
"-130.23","67.18","LITTLE CHICAGO","220B6Q3","2022-02-14 02:00","2022","02","14","02:00","-25.9","","-28.9","","76","","","","35","","5","","","","102.19","","","","-31","","NA"
"-130.23","67.18","LITTLE CHICAGO","220B6Q3","2022-02-14 03:00","2022","02","14","03:00","-26.3","","-29.4","","76","","","","33","","11","","","","102.27","","","","-35","","NA"
"-130.23","67.18","LITTLE CHICAGO","220B6Q3","2022-02-14 04:00","2022","02","14","04:00","-26.7","","-29.9","","74","","","","33","","15","","","","102.34","","","","-37","","NA"
"-130.23","67.18","LITTLE CHICAGO","220B6Q3","2022-02-14 05:00","2022","02","14","05:00","-26.7","","-29.8","","75","","","","33","","14","","","","102.40","","","","-37","","NA"
"-130.23","67.18","LITTLE CHICAGO","220B6Q3","2022-02-14 06:00","2022","02","14","06:00","-27.8","","-31.1","","74","","","","33","","12","","","","102.50","","","","-37","","NA"
"-130.23","67.18","LITTLE CHICAGO","220B6Q3","2022-02-14 07:00","2022","02","14","07:00","-28.6","","-31.9","","73","","","","32","","12","","","","102.55","","","","-38","","NA"
"-130.23","67.18","LITTLE CHICAGO","220B6Q3","2022-02-14 08:00","2022","02","14","08:00","-30.3","","-34.0","","71","","","","33","","19","","","","102.63","","","","-43","","NA"
"-130.23","67.18","LITTLE CHICAGO","220B6Q3","2022-02-14 09:00","2022","02","14","09:00","-31.4","","-35.1","","70","","","","33","","13","","","","102.71","","","","-42","","NA"
"-130.23","67.18","LITTLE CHICAGO","220B6Q3","2022-02-14 10:00","2022","02","14","10:00","-32.5","","-36.2","","70","","","","35","","7","","","","102.77","","","","-40","","NA"
"-130.23","67.18","LITTLE CHICAGO","220B6Q3","2022-02-14 11:00","2022","02","14","11:00","-32.4","","-36.1","","69","","","","34","","9","","","","102.81","","","","-41","","NA"
"-130.23","67.18","LITTLE CHICAGO","220B6Q3","2022-02-14 12:00","2022","02","14","12:00","-33.1","","-37.0","","67","","","","33","","11","","","","102.86","","","","-43","","NA"
"-130.23","67.18","LITTLE CHICAGO","220B6Q3","2022-02-14 13:00","2022","02","14","13:00","-32.8","","-36.7","","68","","","","33","","8","","","","102.96","","","","-41","","NA"
"-130.23","67.18","LITTLE CHICAGO","220B6Q3","2022-02-14 14:00","2022","02","14","14:00","-31.1","","-34.9","","69","","","","33","","8","","","","102.97","","","","-39","","NA"
"-130.23","67.18","LITTLE CHICAGO","220B6Q3","2022-02-14 15:00","2022","02","14","15:00","-30.8","","-34.6","","69","","","","34","","7","","","","102.94","","","","-38","","NA"
"-130.23","67.18","LITTLE CHICAGO","220B6Q3","2022-02-14 16:00","2022","02","14","16:00","-30.5","","-34.1","","70","","","","0","","1","","","","102.92","","","","-32","","NA"
"-130.23","67.18","LITTLE CHICAGO","220B6Q3","2022-02-14 17:00","2022","02","14","17:00","-30.5","","-34.2","","70","","","","19","","4","","","","102.92","","","","-35","","NA"
"-130.23","67.18","LITTLE CHICAGO","220B6Q3","2022-02-14 18:00","2022","02","14","18:00","-33.1","","-37.0","","69","","","","0","","1","","","","102.92","","","","-34","","NA"
"-130.23","67.18","LITTLE CHICAGO","220B6Q3","2022-02-14 19:00","2022","02","14","19:00","-34.3","","-38.1","","69","","","","6","","7","","","","102.86","","","","-42","","NA"
"-130.23","67.18","LITTLE CHICAGO","220B6Q3","2022-02-14 20:00","2022","02","14","20:00","-35.0","","-38.9","","68","","","","7","","6","","","","102.85","","","","-42","","NA"
"-130.23","67.18","LITTLE CHICAGO","220B6Q3","2022-02-14 21:00","2022","02","14","21:00","-36.7","","-40.7","","66","","","","6","","2","","","","102.76","","","","-39","","NA"
"-130.23","67.18","LITTLE CHICAGO","220B6Q3","2022-02-14 22:00","2022","02","14","22:00","-37.1","","-41.2","","66","","","","9","","7","","","","102.73","","","","-46","","NA"
"-130.23","67.18","LITTLE CHICAGO","220B6Q3","2022-02-14 23:00","2022","02","14","23:00","-37.9","","-42.1","","65","","","","8","","8","","","","102.66","","","","-47","","NA"
"-130.23","67.18","LITTLE CHICAGO","220B6Q3","2022-02-15 00:00","2022","02","15","00:00","-38.9","","-43.2","","64","","","","8","","6","","","","102.61","","","","-47","","NA"
"-130.23","67.18","LITTLE CHICAGO","220B6Q3","2022-02-15 01:00","2022","02","15","01:00","-39.5","","-43.9","","63","","","","","","0","","","","102.62","","","","","","NA"
"-130.23","67.18","LITTLE CHICAGO","220B6Q3","2022-02-15 02:00","2022","02","15","02:00","-40.2","","-44.6","","63","","","","","","0","","","","102.58","","","","","","NA"
"-130.23","67.18","LITTLE CHICAGO","220B6Q3","2022-02-15 03:00","2022","02","15","03:00","-41.0","","-45.5","","62","","","","13","","1","","","","102.58","","","","-42","","NA"
"-130.23","67.18","LITTLE CHICAGO","220B6Q3","2022-02-15 04:00","2022","02","15","04:00","-41.9","","-46.5","","61","","","","7","","2","","","","102.58","","","","-45","","NA"
"-130.23","67.18","LITTLE CHICAGO","220B6Q3","2022-02-15 05:00","2022","02","15","05:00","-41.9","","-46.5","","61","","","","","","0","","","","102.52","","","","","","NA"
"-130.23","67.18","LITTLE CHICAGO","220B6Q3","2022-02-15 06:00","2022","02","15","06:00","-42.7","","-47.4","","60","","","","6","","4","","","","102.52","","","","-49","","NA"
"-130.23","67.18","LITTLE CHICAGO","220B6Q3","2022-02-15 07:00","2022","02","15","07:00","-42.6","","-47.3","","60","","","","0","","1","","","","102.51","","","","-44","","NA"
"-130.23","67.18","LITTLE CHICAGO","220B6Q3","2022-02-15 08:00","2022","02","15","08:00","-42.5","","-47.2","","60","","","","7","","3","","","","102.51","","","","-47","","NA"
"-130.23","67.18","LITTLE CHICAGO","220B6Q3","2022-02-15 09:00","2022","02","15","09:00","-42.1","","-46.8","","60","","","","5","","2","","","","102.53","","","","-45","","NA"
"-130.23","67.18","LITTLE CHICAGO","220B6Q3","2022-02-15 10:00","2022","02","15","10:00","-42.7","","-47.4","","60","","","","32","","2","","","","102.53","","","","-46","","NA"
"-130.23","67.18","LITTLE CHICAGO","220B6Q3","2022-02-15 11:00","2022","02","15","11:00","-41.5","","-46.2","","60","","","","5","","1","","","","102.59","","","","-43","","NA"
"-130.23","67.18","LITTLE CHICAGO","220B6Q3","2022-02-15 12:00","2022","02","15","12:00","-41.3","","-46.6","","56","","","","17","","2","","","","102.57","","","","-44","","NA"
"-130.23","67.18","LITTLE CHICAGO","220B6Q3","2022-02-15 13:00","2022","02","15","13:00","-40.1","","-45.2","","58","","","","0","","1","","","","102.60","","","","-41","","NA"
"-130.23","67.18","LITTLE CHICAGO","220B6Q3","2022-02-15 14:00","2022","02","15","14:00","-37.3","","-42.1","","61","","","","0","","1","","","","102.65","","","","-39","","NA"
"-130.23","67.18","LITTLE CHICAGO","220B6Q3","2022-02-15 15:00","2022","02","15","15:00","-36.8","","-41.3","","63","","","","0","","1","","","","102.64","","","","-38","","NA"
"-130.23","67.18","LITTLE CHICAGO","220B6Q3","2022-02-15 16:00","2022","02","15","16:00","-36.7","","-41.3","","63","","","","","","0","","","","102.63","","","","","","NA"
"-130.23","67.18","LITTLE CHICAGO","220B6Q3","2022-02-15 17:00","2022","02","15","17:00","-36.5","","-40.8","","64","","","","","","0","","","","102.67","","","","","","NA"
"-130.23","67.18","LITTLE CHICAGO","220B6Q3","2022-02-15 18:00","2022","02","15","18:00","-37.2","","-41.5","","65","","","","","","0","","","","102.66","","","","","","NA"
"-130.23","67.18","LITTLE CHICAGO","220B6Q3","2022-02-15 19:00","2022","02","15","19:00","-37.0","","-41.0","","66","","","","13","","3","","","","102.67","","","","-41","","NA"
"-130.23","67.18","LITTLE CHICAGO","220B6Q3","2022-02-15 20:00","2022","02","15","20:00","-37.1","","-41.0","","67","","","","13","","3","","","","102.68","","","","-41","","NA"
"-130.23","67.18","LITTLE CHICAGO","220B6Q3","2022-02-15 21:00","2022","02","15","21:00","-36.4","","-40.3","","67","","","","14","","5","","","","102.70","","","","-43","","NA"
"-130.23","67.18","LITTLE CHICAGO","220B6Q3","2022-02-15 22:00","2022","02","15","22:00","-38.0","","-42.2","","65","","","","13","","3","","","","102.71","","","","-42","","NA"
"-130.23","67.18","LITTLE CHICAGO","220B6Q3","2022-02-15 23:00","2022","02","15","23:00","-39.2","","-43.5","","64","","","","0","","1","","","","102.70","","","","-41","","NA"
"-130.23","67.18","LITTLE CHICAGO","220B6Q3","2022-02-16 00:00","2022","02","16","00:00","-40.2","","-44.6","","62","","","","","","0","","","","102.69","","","","","","NA"
"-130.23","67.18","LITTLE CHICAGO","220B6Q3","2022-02-16 01:00","2022","02","16","01:00","-38.2","","-42.2","","66","","","","13","","6","","","","102.68","","","","-46","","NA"
"-130.23","67.18","LITTLE CHICAGO","220B6Q3","2022-02-16 02:00","2022","02","16","02:00","-40.9","","-45.4","","62","","","","0","","1","","","","102.64","","","","-42","","NA"
"-130.23","67.18","LITTLE CHICAGO","220B6Q3","2022-02-16 03:00","2022","02","16","03:00","-40.4","","-44.9","","62","","","","18","","2","","","","102.61","","","","-43","","NA"
"-130.23","67.18","LITTLE CHICAGO","220B6Q3","2022-02-16 04:00","2022","02","16","04:00","-41.3","","-45.9","","61","","","","9","","5","","","","102.58","","","","-48","","NA"
"-130.23","67.18","LITTLE CHICAGO","220B6Q3","2022-02-16 05:00","2022","02","16","05:00","-41.5","","-46.2","","61","","","","14","","2","","","","102.55","","","","-44","","NA"
"-130.23","67.18","LITTLE CHICAGO","220B6Q3","2022-02-16 06:00","2022","02","16","06:00","-40.6","","-45.2","","62","","","","11","","4","","","","102.53","","","","-46","","NA"
"-130.23","67.18","LITTLE CHICAGO","220B6Q3","2022-02-16 07:00","2022","02","16","07:00","-42.1","","-46.8","","60","","","","","","0","","","","102.49","","","","","","NA"
"-130.23","67.18","LITTLE CHICAGO","220B6Q3","2022-02-16 08:00","2022","02","16","08:00","-40.7","","-45.1","","63","","","","15","","3","","","","102.42","","","","-45","","NA"
"-130.23","67.18","LITTLE CHICAGO","220B6Q3","2022-02-16 09:00","2022","02","16","09:00","-42.1","","-46.9","","60","","","","6","","9","","","","102.33","","","","-53","","NA"
"-130.23","67.18","LITTLE CHICAGO","220B6Q3","2022-02-16 10:00","2022","02","16","10:00","-39.0","","-43.2","","64","","","","11","","4","","","","102.22","","","","-44","","NA"
"-130.23","67.18","LITTLE CHICAGO","220B6Q3","2022-02-16 11:00","2022","02","16","11:00","-40.1","","-44.7","","62","","","","13","","1","","","","102.12","","","","-41","","NA"
"-130.23","67.18","LITTLE CHICAGO","220B6Q3","2022-02-16 12:00","2022","02","16","12:00","-37.6","","-42.0","","64","","","","6","","3","","","","102.01","","","","-42","","NA"
"-130.23","67.18","LITTLE CHICAGO","220B6Q3","2022-02-16 13:00","2022","02","16","13:00","-34.7","","-39.0","","65","","","","13","","3","","","","101.88","","","","-38","","NA"
"-130.23","67.18","LITTLE CHICAGO","220B6Q3","2022-02-16 14:00","2022","02","16","14:00","-34.0","","-38.5","","63","","","","16","","2","","","","101.76","","","","-36","","NA"
"-130.23","67.18","LITTLE CHICAGO","220B6Q3","2022-02-16 15:00","2022","02","16","15:00","-34.0","","-38.0","","67","","","","29","","2","","","","101.65","","","","-36","","NA"
"-130.23","67.18","LITTLE CHICAGO","220B6Q3","2022-02-16 16:00","2022","02","16","16:00","-30.7","","-34.4","","70","","","","0","","1","","","","101.52","","","","-32","","NA"
"-130.23","67.18","LITTLE CHICAGO","220B6Q3","2022-02-16 17:00","2022","02","16","17:00","-31.9","","-35.7","","69","","","","8","","2","","","","101.40","","","","-34","","NA"
"-130.23","67.18","LITTLE CHICAGO","220B6Q3","2022-02-16 18:00","2022","02","16","18:00","-34.5","","-38.2","","69","","","","33","","3","","","","101.33","","","","-38","","NA"
"-130.23","67.18","LITTLE CHICAGO","220B6Q3","2022-02-16 19:00","2022","02","16","19:00","-36.9","","-41.0","","66","","","","33","","2","","","","101.32","","","","-40","","NA"
"-130.23","67.18","LITTLE CHICAGO","220B6Q3","2022-02-16 20:00","2022","02","16","20:00","-35.1","","-38.8","","69","","","","33","","8","","","","101.33","","","","-44","","NA"
"-130.23","67.18","LITTLE CHICAGO","220B6Q3","2022-02-16 21:00","2022","02","16","21:00","-34.6","","-37.8","","73","","","","33","","7","","","","101.37","","","","-43","","NA"
"-130.23","67.18","LITTLE CHICAGO","220B6Q3","2022-02-16 22:00","2022","02","16","22:00","-33.5","","-37.3","","69","","","","33","","9","","","","101.42","","","","-43","","NA"
"-130.23","67.18","LITTLE CHICAGO","220B6Q3","2022-02-16 23:00","2022","02","16","23:00","-32.5","","-36.0","","71","","","","34","","10","","","","101.49","","","","-42","","NA"
"-130.23","67.18","LITTLE CHICAGO","220B6Q3","2022-02-17 00:00","2022","02","17","00:00","-32.4","","-36.1","","70","","","","34","","20","","","","101.58","","","","-46","","NA"
"-130.23","67.18","LITTLE CHICAGO","220B6Q3","2022-02-17 01:00","2022","02","17","01:00","-31.8","","-35.5","","70","","","","34","","20","","","","101.66","","","","-45","","NA"
"-130.23","67.18","LITTLE CHICAGO","220B6Q3","2022-02-17 02:00","2022","02","17","02:00","-31.9","","-35.5","","70","","","","34","","18","","","","101.76","","","","-45","","NA"
"-130.23","67.18","LITTLE CHICAGO","220B6Q3","2022-02-17 03:00","2022","02","17","03:00","-33.7","","-37.5","","69","","","","33","","9","","","","101.85","","","","-43","","NA"
"-130.23","67.18","LITTLE CHICAGO","220B6Q3","2022-02-17 04:00","2022","02","17","04:00","-34.2","","-37.9","","69","","","","34","","7","","","","101.94","","","","-42","","NA"
"-130.23","67.18","LITTLE CHICAGO","220B6Q3","2022-02-17 05:00","2022","02","17","05:00","-35.7","","-39.8","","66","","","","25","","3","","","","102.07","","","","-40","","NA"
"-130.23","67.18","LITTLE CHICAGO","220B6Q3","2022-02-17 06:00","2022","02","17","06:00","-36.0","","-39.7","","68","","","","15","","3","","","","102.16","","","","-40","","NA"
"-130.23","67.18","LITTLE CHICAGO","220B6Q3","2022-02-17 07:00","2022","02","17","07:00","-36.3","","-40.5","","65","","","","7","","9","","","","102.26","","","","-46","","NA"
"-130.23","67.18","LITTLE CHICAGO","220B6Q3","2022-02-17 08:00","2022","02","17","08:00","-36.4","","-40.5","","66","","","","8","","8","","","","102.33","","","","-45","","NA"
"-130.23","67.18","LITTLE CHICAGO","220B6Q3","2022-02-17 09:00","2022","02","17","09:00","-35.5","","-39.5","","67","","","","4","","2","","","","102.40","","","","-38","","NA"
"-130.23","67.18","LITTLE CHICAGO","220B6Q3","2022-02-17 10:00","2022","02","17","10:00","-34.2","","-38.0","","69","","","","13","","3","","","","102.49","","","","-38","","NA"
"-130.23","67.18","LITTLE CHICAGO","220B6Q3","2022-02-17 11:00","2022","02","17","11:00","-32.7","","-36.2","","71","","","","7","","7","","","","102.53","","","","-40","","NA"
"-130.23","67.18","LITTLE CHICAGO","220B6Q3","2022-02-17 12:00","2022","02","17","12:00","-28.7","","-31.8","","74","","","","8","","5","","","","102.56","","","","-34","","NA"
"-130.23","67.18","LITTLE CHICAGO","220B6Q3","2022-02-17 13:00","2022","02","17","13:00","-27.5","","-30.7","","74","","","","8","","5","","","","102.60","","","","-33","","NA"
"-130.23","67.18","LITTLE CHICAGO","220B6Q3","2022-02-17 14:00","2022","02","17","14:00","-25.2","","-28.2","","76","","","","7","","3","","","","102.57","","","","-28","","NA"
"-130.23","67.18","LITTLE CHICAGO","220B6Q3","2022-02-17 15:00","2022","02","17","15:00","-23.3","","-26.1","","78","","","","3","","3","","","","102.57","","","","-26","","NA"
"-130.23","67.18","LITTLE CHICAGO","220B6Q3","2022-02-17 16:00","2022","02","17","16:00","-22.1","","-25.0","","77","","","","8","","5","","","","102.57","","","","-27","","NA"
"-130.23","67.18","LITTLE CHICAGO","220B6Q3","2022-02-17 17:00","2022","02","17","17:00","-22.7","","-25.3","","79","","","","8","","2","","","","102.60","","","","-25","","NA"
"-130.23","67.18","LITTLE CHICAGO","220B6Q3","2022-02-17 18:00","2022","02","17","18:00","-23.9","","-26.8","","77","","","","7","","3","","","","102.59","","","","-27","","NA"
"-130.23","67.18","LITTLE CHICAGO","220B6Q3","2022-02-17 19:00","2022","02","17","19:00","-26.5","","-29.1","","79","","","","16","","2","","","","102.57","","","","-29","","NA"
"-130.23","67.18","LITTLE CHICAGO","220B6Q3","2022-02-17 20:00","2022","02","17","20:00","-27.0","","-29.8","","77","","","","8","","5","","","","102.54","","","","-32","","NA"
"-130.23","67.18","LITTLE CHICAGO","220B6Q3","2022-02-17 21:00","2022","02","17","21:00","-27.1","","-30.1","","76","","","","9","","7","","","","102.51","","","","-34","","NA"
"-130.23","67.18","LITTLE CHICAGO","220B6Q3","2022-02-17 22:00","2022","02","17","22:00","-26.9","","-29.8","","76","","","","10","","5","","","","102.44","","","","-32","","NA"
"-130.23","67.18","LITTLE CHICAGO","220B6Q3","2022-02-17 23:00","2022","02","17","23:00","-28.5","","-31.3","","77","","","","6","","4","","","","102.37","","","","-33","","NA"
"-130.23","67.18","LITTLE CHICAGO","220B6Q3","2022-02-18 00:00","2022","02","18","00:00","-28.6","","-31.6","","75","","","","14","","1","","","","102.34","","","","-30","","NA"
"-130.23","67.18","LITTLE CHICAGO","220B6Q3","2022-02-18 01:00","2022","02","18","01:00","-27.5","","-30.5","","75","","","","8","","7","","","","102.26","","","","-34","","NA"
"-130.23","67.18","LITTLE CHICAGO","220B6Q3","2022-02-18 02:00","2022","02","18","02:00","-26.4","","-29.3","","77","","","","8","","4","","","","102.20","","","","-31","","NA"
"-130.23","67.18","LITTLE CHICAGO","220B6Q3","2022-02-18 03:00","2022","02","18","03:00","-27.0","","-30.0","","76","","","","0","","1","","","","102.10","","","","-28","","NA"
"-130.23","67.18","LITTLE CHICAGO","220B6Q3","2022-02-18 04:00","2022","02","18","04:00","-27.7","","-30.6","","76","","","","","","0","","","","102.03","","","","","","NA"
"-130.23","67.18","LITTLE CHICAGO","220B6Q3","2022-02-18 05:00","2022","02","18","05:00","-26.9","","-29.8","","76","","","","12","","3","","","","101.91","","","","-30","","NA"
"-130.23","67.18","LITTLE CHICAGO","220B6Q3","2022-02-18 06:00","2022","02","18","06:00","-26.4","","-29.4","","76","","","","13","","4","","","","101.84","","","","-31","","NA"
"-130.23","67.18","LITTLE CHICAGO","220B6Q3","2022-02-18 07:00","2022","02","18","07:00","-26.8","","-29.8","","76","","","","16","","5","","","","101.76","","","","-32","","NA"
"-130.23","67.18","LITTLE CHICAGO","220B6Q3","2022-02-18 08:00","2022","02","18","08:00","-26.5","","-29.5","","76","","","","7","","4","","","","101.66","","","","-31","","NA"
"-130.23","67.18","LITTLE CHICAGO","220B6Q3","2022-02-18 09:00","2022","02","18","09:00","-27.1","","-30.1","","76","","","","20","","3","","","","101.57","","","","-30","","NA"
"-130.23","67.18","LITTLE CHICAGO","220B6Q3","2022-02-18 10:00","2022","02","18","10:00","-26.4","","-29.4","","76","","","","17","","3","","","","101.47","","","","-29","","NA"
"-130.23","67.18","LITTLE CHICAGO","220B6Q3","2022-02-18 11:00","2022","02","18","11:00","-25.6","","-28.6","","76","","","","7","","4","","","","101.35","","","","-30","","NA"
"-130.23","67.18","LITTLE CHICAGO","220B6Q3","2022-02-18 12:00","2022","02","18","12:00","-25.2","","-28.1","","76","","","","30","","3","","","","101.26","","","","-28","","NA"
"-130.23","67.18","LITTLE CHICAGO","220B6Q3","2022-02-18 13:00","2022","02","18","13:00","-25.0","","-28.0","","77","","","","31","","8","","","","101.12","","","","-32","","NA"
"-130.23","67.18","LITTLE CHICAGO","220B6Q3","2022-02-18 14:00","2022","02","18","14:00","-23.7","","-26.7","","76","","","","33","","7","","","","101.03","","","","-30","","NA"
"-130.23","67.18","LITTLE CHICAGO","220B6Q3","2022-02-18 15:00","2022","02","18","15:00","-22.7","","-25.5","","78","","","","34","","3","","","","101.01","","","","-25","","NA"
"-130.23","67.18","LITTLE CHICAGO","220B6Q3","2022-02-18 16:00","2022","02","18","16:00","-22.9","","-26.1","","75","","","","31","","2","","","","100.99","","","","-25","","NA"
"-130.23","67.18","LITTLE CHICAGO","220B6Q3","2022-02-18 17:00","2022","02","18","17:00","-22.1","","-24.7","","79","","","","33","","4","","","","101.02","","","","-26","","NA"
"-130.23","67.18","LITTLE CHICAGO","220B6Q3","2022-02-18 18:00","2022","02","18","18:00","-23.4","","-26.0","","79","","","","34","","3","","","","101.04","","","","-26","","NA"
"-130.23","67.18","LITTLE CHICAGO","220B6Q3","2022-02-18 19:00","2022","02","18","19:00","-24.5","","-27.2","","78","","","","","","0","","","","101.05","","","","","","NA"
"-130.23","67.18","LITTLE CHICAGO","220B6Q3","2022-02-18 20:00","2022","02","18","20:00","-22.8","","-25.2","","81","","","","34","","8","","","","101.06","","","","-30","","NA"
"-130.23","67.18","LITTLE CHICAGO","220B6Q3","2022-02-18 21:00","2022","02","18","21:00","-23.6","","-26.2","","79","","","","34","","7","","","","101.10","","","","-30","","NA"
"-130.23","67.18","LITTLE CHICAGO","220B6Q3","2022-02-18 22:00","2022","02","18","22:00","-24.5","","-27.3","","78","","","","","","0","","","","101.16","","","","","","NA"
"-130.23","67.18","LITTLE CHICAGO","220B6Q3","2022-02-18 23:00","2022","02","18","23:00","-24.6","","-27.2","","79","","","","18","","2","","","","101.23","","","","-27","","NA"
"-130.23","67.18","LITTLE CHICAGO","220B6Q3","2022-02-19 00:00","2022","02","19","00:00","-24.1","","-26.6","","79","","","","0","","1","","","","101.30","","","","-25","","NA"
"-130.23","67.18","LITTLE CHICAGO","220B6Q3","2022-02-19 01:00","2022","02","19","01:00","-24.2","","-26.9","","79","","","","9","","4","","","","101.35","","","","-28","","NA"
"-130.23","67.18","LITTLE CHICAGO","220B6Q3","2022-02-19 02:00","2022","02","19","02:00","-25.6","","-28.3","","78","","","","6","","7","","","","101.41","","","","-32","","NA"
"-130.23","67.18","LITTLE CHICAGO","220B6Q3","2022-02-19 03:00","2022","02","19","03:00","-27.3","","-30.3","","75","","","","","","0","","","","101.47","","","","","","NA"
"-130.23","67.18","LITTLE CHICAGO","220B6Q3","2022-02-19 04:00","2022","02","19","04:00","-29.1","","-32.2","","75","","","","35","","1","","","","101.54","","","","-30","","NA"
"-130.23","67.18","LITTLE CHICAGO","220B6Q3","2022-02-19 05:00","2022","02","19","05:00","-30.5","","-33.9","","73","","","","","","0","","","","101.62","","","","","","NA"
"-130.23","67.18","LITTLE CHICAGO","220B6Q3","2022-02-19 06:00","2022","02","19","06:00","-31.2","","-34.6","","72","","","","","","0","","","","101.67","","","","","","NA"
"-130.23","67.18","LITTLE CHICAGO","220B6Q3","2022-02-19 07:00","2022","02","19","07:00","-32.2","","-35.8","","70","","","","3","","2","","","","101.73","","","","-35","","NA"
"-130.23","67.18","LITTLE CHICAGO","220B6Q3","2022-02-19 08:00","2022","02","19","08:00","-32.0","","-35.3","","73","","","","32","","6","","","","101.82","","","","-39","","NA"
"-130.23","67.18","LITTLE CHICAGO","220B6Q3","2022-02-19 09:00","2022","02","19","09:00","-32.7","","-36.2","","71","","","","32","","1","","","","101.90","","","","-34","","NA"
"-130.23","67.18","LITTLE CHICAGO","220B6Q3","2022-02-19 10:00","2022","02","19","10:00","-32.8","","-36.2","","71","","","","34","","4","","","","102.01","","","","-38","","NA"
"-130.23","67.18","LITTLE CHICAGO","220B6Q3","2022-02-19 11:00","2022","02","19","11:00","-31.2","","-34.8","","71","","","","35","","3","","","","102.10","","","","-35","","NA"
"-130.23","67.18","LITTLE CHICAGO","220B6Q3","2022-02-19 12:00","2022","02","19","12:00","-29.2","","-32.7","","72","","","","31","","2","","","","102.18","","","","-31","","NA"
"-130.23","67.18","LITTLE CHICAGO","220B6Q3","2022-02-19 13:00","2022","02","19","13:00","-28.4","","-32.1","","71","","","","33","","8","","","","102.26","","","","-36","","NA"
"-130.23","67.18","LITTLE CHICAGO","220B6Q3","2022-02-19 14:00","2022","02","19","14:00","-25.9","","-29.2","","74","","","","34","","12","","","","102.34","","","","-35","","NA"
"-130.23","67.18","LITTLE CHICAGO","220B6Q3","2022-02-19 15:00","2022","02","19","15:00","-25.6","","-28.8","","75","","","","34","","10","","","","102.42","","","","-34","","NA"
"-130.23","67.18","LITTLE CHICAGO","220B6Q3","2022-02-19 16:00","2022","02","19","16:00","-25.1","","-28.3","","75","","","","34","","10","","","","102.52","","","","-33","","NA"
"-130.23","67.18","LITTLE CHICAGO","220B6Q3","2022-02-19 17:00","2022","02","19","17:00","-25.4","","-28.5","","75","","","","34","","8","","","","102.60","","","","-33","","NA"
"-130.23","67.18","LITTLE CHICAGO","220B6Q3","2022-02-19 18:00","2022","02","19","18:00","-26.2","","-29.3","","75","","","","34","","7","","","","102.67","","","","-33","","NA"
"-130.23","67.18","LITTLE CHICAGO","220B6Q3","2022-02-19 19:00","2022","02","19","19:00","-27.7","","-30.8","","75","","","","33","","7","","","","102.74","","","","-35","","NA"
"-130.23","67.18","LITTLE CHICAGO","220B6Q3","2022-02-19 20:00","2022","02","19","20:00","-27.9","","-30.9","","75","","","","34","","11","","","","102.82","","","","-37","","NA"
"-130.23","67.18","LITTLE CHICAGO","220B6Q3","2022-02-19 21:00","2022","02","19","21:00","-28.7","","-31.9","","74","","","","34","","10","","","","102.90","","","","-38","","NA"
"-130.23","67.18","LITTLE CHICAGO","220B6Q3","2022-02-19 22:00","2022","02","19","22:00","-29.3","","-32.4","","74","","","","35","","9","","","","102.96","","","","-38","","NA"
"-130.23","67.18","LITTLE CHICAGO","220B6Q3","2022-02-19 23:00","2022","02","19","23:00","-30.0","","-33.3","","73","","","","33","","9","","","","103.00","","","","-39","","NA"
"-130.23","67.18","LITTLE CHICAGO","220B6Q3","2022-02-20 00:00","2022","02","20","00:00","-31.0","","-34.3","","73","","","","35","","6","","","","103.05","","","","-38","","NA"
"-130.23","67.18","LITTLE CHICAGO","220B6Q3","2022-02-20 01:00","2022","02","20","01:00","-34.5","","-37.9","","71","","","","33","","5","","","","103.11","","","","-41","","NA"
"-130.23","67.18","LITTLE CHICAGO","220B6Q3","2022-02-20 02:00","2022","02","20","02:00","-34.9","","-38.6","","69","","","","33","","3","","","","103.17","","","","-39","","NA"
"-130.23","67.18","LITTLE CHICAGO","220B6Q3","2022-02-20 03:00","2022","02","20","03:00","-37.0","","-41.1","","66","","","","5","","5","","","","103.21","","","","-44","","NA"
"-130.23","67.18","LITTLE CHICAGO","220B6Q3","2022-02-20 04:00","2022","02","20","04:00","-38.4","","-42.5","","65","","","","","","0","","","","103.27","","","","","","NA"
"-130.23","67.18","LITTLE CHICAGO","220B6Q3","2022-02-20 05:00","2022","02","20","05:00","-38.9","","-43.1","","64","","","","6","","5","","","","103.32","","","","-46","","NA"
"-130.23","67.18","LITTLE CHICAGO","220B6Q3","2022-02-20 06:00","2022","02","20","06:00","-39.9","","-44.2","","63","","","","","","0","","","","103.36","","","","","","NA"
"-130.23","67.18","LITTLE CHICAGO","220B6Q3","2022-02-20 07:00","2022","02","20","07:00","-39.8","","-44.1","","64","","","","6","","5","","","","103.39","","","","-47","","NA"
"-130.23","67.18","LITTLE CHICAGO","220B6Q3","2022-02-20 08:00","2022","02","20","08:00","-40.3","","-44.8","","63","","","","8","","4","","","","103.44","","","","-46","","NA"
"-130.23","67.18","LITTLE CHICAGO","220B6Q3","2022-02-20 09:00","2022","02","20","09:00","-41.2","","-45.7","","62","","","","6","","2","","","","103.48","","","","-44","","NA"
"-130.23","67.18","LITTLE CHICAGO","220B6Q3","2022-02-20 10:00","2022","02","20","10:00","-40.7","","-45.2","","62","","","","3","","1","","","","103.51","","","","-42","","NA"
"-130.23","67.18","LITTLE CHICAGO","220B6Q3","2022-02-20 11:00","2022","02","20","11:00","-38.8","","-43.2","","63","","","","14","","1","","","","103.58","","","","-40","","NA"
"-130.23","67.18","LITTLE CHICAGO","220B6Q3","2022-02-20 12:00","2022","02","20","12:00","-36.2","","-40.5","","65","","","","","","0","","","","103.61","","","","","","NA"
"-130.23","67.18","LITTLE CHICAGO","220B6Q3","2022-02-20 13:00","2022","02","20","13:00","-35.9","","-40.3","","64","","","","","","0","","","","103.62","","","","","","NA"
"-130.23","67.18","LITTLE CHICAGO","220B6Q3","2022-02-20 14:00","2022","02","20","14:00","-33.4","","-37.4","","67","","","","","","0","","","","103.65","","","","","","NA"
"-130.23","67.18","LITTLE CHICAGO","220B6Q3","2022-02-20 15:00","2022","02","20","15:00","-33.0","","-37.1","","66","","","","30","","2","","","","103.69","","","","-35","","NA"
"-130.23","67.18","LITTLE CHICAGO","220B6Q3","2022-02-20 16:00","2022","02","20","16:00","-30.7","","-34.8","","68","","","","0","","1","","","","103.74","","","","-32","","NA"
"-130.23","67.18","LITTLE CHICAGO","220B6Q3","2022-02-20 17:00","2022","02","20","17:00","-29.6","","-33.4","","70","","","","","","0","","","","103.75","","","","","","NA"
"-130.23","67.18","LITTLE CHICAGO","220B6Q3","2022-02-20 18:00","2022","02","20","18:00","-31.9","","-35.6","","70","","","","","","0","","","","103.76","","","","","","NA"
"-130.23","67.18","LITTLE CHICAGO","220B6Q3","2022-02-20 19:00","2022","02","20","19:00","-34.5","","-38.1","","70","","","","5","","3","","","","103.80","","","","-38","","NA"
"-130.23","67.18","LITTLE CHICAGO","220B6Q3","2022-02-20 20:00","2022","02","20","20:00","-35.3","","-39.3","","67","","","","","","0","","","","103.80","","","","","","NA"
"-130.23","67.18","LITTLE CHICAGO","220B6Q3","2022-02-20 21:00","2022","02","20","21:00","-35.9","","-39.7","","68","","","","5","","2","","","","103.81","","","","-38","","NA"
"-130.23","67.18","LITTLE CHICAGO","220B6Q3","2022-02-20 22:00","2022","02","20","22:00","-36.8","","-40.8","","66","","","","7","","3","","","","103.84","","","","-41","","NA"
"-130.23","67.18","LITTLE CHICAGO","220B6Q3","2022-02-20 23:00","2022","02","20","23:00","-37.1","","-41.1","","67","","","","","","0","","","","103.85","","","","","","NA"
"-130.23","67.18","LITTLE CHICAGO","220B6Q3","2022-02-21 00:00","2022","02","21","00:00","-38.7","","-43.0","","64","","","","5","","4","","","","103.85","","","","-44","","NA"
"-130.23","67.18","LITTLE CHICAGO","220B6Q3","2022-02-21 01:00","2022","02","21","01:00","-38.8","","-43.1","","64","","","","7","","8","","","","103.86","","","","-48","","NA"
"-130.23","67.18","LITTLE CHICAGO","220B6Q3","2022-02-21 02:00","2022","02","21","02:00","-38.1","","-42.1","","66","","","","11","","2","","","","103.88","","","","-41","","NA"
"-130.23","67.18","LITTLE CHICAGO","220B6Q3","2022-02-21 03:00","2022","02","21","03:00","-40.2","","-44.6","","63","","","","0","","1","","","","103.86","","","","-42","","NA"
"-130.23","67.18","LITTLE CHICAGO","220B6Q3","2022-02-21 04:00","2022","02","21","04:00","-40.2","","-44.7","","62","","","","0","","1","","","","103.85","","","","-42","","NA"
"-130.23","67.18","LITTLE CHICAGO","220B6Q3","2022-02-21 05:00","2022","02","21","05:00","-40.3","","-44.7","","62","","","","8","","7","","","","103.86","","","","-49","","NA"
"-130.23","67.18","LITTLE CHICAGO","220B6Q3","2022-02-21 06:00","2022","02","21","06:00","-40.7","","-45.2","","62","","","","0","","1","","","","103.85","","","","-42","","NA"
"-130.23","67.18","LITTLE CHICAGO","220B6Q3","2022-02-21 07:00","2022","02","21","07:00","-40.5","","-44.7","","64","","","","16","","3","","","","103.86","","","","-45","","NA"
"-130.23","67.18","LITTLE CHICAGO","220B6Q3","2022-02-21 08:00","2022","02","21","08:00","-40.8","","-45.3","","62","","","","9","","9","","","","103.85","","","","-51","","NA"
"-130.23","67.18","LITTLE CHICAGO","220B6Q3","2022-02-21 09:00","2022","02","21","09:00","-41.1","","-45.6","","62","","","","15","","3","","","","103.83","","","","-45","","NA"
"-130.23","67.18","LITTLE CHICAGO","220B6Q3","2022-02-21 10:00","2022","02","21","10:00","-40.5","","-44.8","","63","","","","11","","7","","","","103.81","","","","-49","","NA"
"-130.23","67.18","LITTLE CHICAGO","220B6Q3","2022-02-21 11:00","2022","02","21","11:00","-38.0","","-42.5","","63","","","","21","","1","","","","103.79","","","","-39","","NA"
"-130.23","67.18","LITTLE CHICAGO","220B6Q3","2022-02-21 12:00","2022","02","21","12:00","-36.3","","-41.0","","61","","","","0","","1","","","","103.75","","","","-38","","NA"
"-130.23","67.18","LITTLE CHICAGO","220B6Q3","2022-02-21 13:00","2022","02","21","13:00","-32.5","","-36.7","","67","","","","16","","2","","","","103.72","","","","-35","","NA"
"-130.23","67.18","LITTLE CHICAGO","220B6Q3","2022-02-21 14:00","2022","02","21","14:00","-32.4","","-37.0","","64","","","","20","","3","","","","103.65","","","","-36","","NA"
"-130.23","67.18","LITTLE CHICAGO","220B6Q3","2022-02-21 15:00","2022","02","21","15:00","-30.8","","-34.4","","70","","","","21","","2","","","","103.58","","","","-33","","NA"
"-130.23","67.18","LITTLE CHICAGO","220B6Q3","2022-02-21 16:00","2022","02","21","16:00","-26.0","","-29.1","","75","","","","14","","8","","","","103.51","","","","-33","","NA"
"-130.23","67.18","LITTLE CHICAGO","220B6Q3","2022-02-21 17:00","2022","02","21","17:00","-28.9","","-32.2","","73","","","","17","","3","","","","103.40","","","","-32","","NA"
"-130.23","67.18","LITTLE CHICAGO","220B6Q3","2022-02-21 18:00","2022","02","21","18:00","-28.4","","-31.5","","74","","","","13","","5","","","","103.31","","","","-34","","NA"
"-130.23","67.18","LITTLE CHICAGO","220B6Q3","2022-02-21 19:00","2022","02","21","19:00","-31.4","","-35.3","","68","","","","18","","5","","","","103.22","","","","-37","","NA"
"-130.23","67.18","LITTLE CHICAGO","220B6Q3","2022-02-21 20:00","2022","02","21","20:00","-29.9","","-33.2","","72","","","","7","","11","","","","103.11","","","","-40","","NA"
"-130.23","67.18","LITTLE CHICAGO","220B6Q3","2022-02-21 21:00","2022","02","21","21:00","-30.8","","-34.3","","71","","","","11","","9","","","","102.93","","","","-40","","NA"
"-130.23","67.18","LITTLE CHICAGO","220B6Q3","2022-02-21 22:00","2022","02","21","22:00","-30.7","","-34.1","","72","","","","8","","13","","","","102.80","","","","-41","","NA"
"-130.23","67.18","LITTLE CHICAGO","220B6Q3","2022-02-21 23:00","2022","02","21","23:00","-28.0","","-31.0","","76","","","","13","","5","","","","102.64","","","","-33","","NA"
"-130.23","67.18","LITTLE CHICAGO","220B6Q3","2022-02-22 00:00","2022","02","22","00:00","-28.5","","-31.6","","75","","","","7","","14","","","","102.48","","","","-39","","NA"
"-130.23","67.18","LITTLE CHICAGO","220B6Q3","2022-02-22 01:00","2022","02","22","01:00","-27.8","","-31.0","","74","","","","8","","9","","","","102.33","","","","-36","","NA"
"-130.23","67.18","LITTLE CHICAGO","220B6Q3","2022-02-22 02:00","2022","02","22","02:00","-27.7","","-30.9","","74","","","","8","","12","","","","102.15","","","","-37","","NA"
"-130.23","67.18","LITTLE CHICAGO","220B6Q3","2022-02-22 03:00","2022","02","22","03:00","-26.8","","-29.8","","76","","","","8","","11","","","","101.97","","","","-36","","NA"
"-130.23","67.18","LITTLE CHICAGO","220B6Q3","2022-02-22 04:00","2022","02","22","04:00","-25.7","","-28.5","","77","","","","8","","10","","","","101.80","","","","-34","","NA"
"-130.23","67.18","LITTLE CHICAGO","220B6Q3","2022-02-22 05:00","2022","02","22","05:00","-24.5","","-27.3","","77","","","","9","","8","","","","101.61","","","","-32","","NA"
"-130.23","67.18","LITTLE CHICAGO","220B6Q3","2022-02-22 06:00","2022","02","22","06:00","-23.1","","-25.9","","78","","","","7","","11","","","","101.40","","","","-31","","NA"
"-130.23","67.18","LITTLE CHICAGO","220B6Q3","2022-02-22 07:00","2022","02","22","07:00","-21.9","","-24.6","","79","","","","7","","12","","","","101.19","","","","-30","","NA"
"-130.23","67.18","LITTLE CHICAGO","220B6Q3","2022-02-22 08:00","2022","02","22","08:00","-20.5","","-23.1","","80","","","","10","","6","","","","101.05","","","","-26","","NA"
"-130.23","67.18","LITTLE CHICAGO","220B6Q3","2022-02-22 09:00","2022","02","22","09:00","-20.1","","-22.7","","80","","","","9","","6","","","","100.87","","","","-25","","NA"
"-130.23","67.18","LITTLE CHICAGO","220B6Q3","2022-02-22 10:00","2022","02","22","10:00","-18.7","","-21.2","","81","","","","11","","5","","","","100.74","","","","-23","","NA"
"-130.23","67.18","LITTLE CHICAGO","220B6Q3","2022-02-22 11:00","2022","02","22","11:00","-17.7","","-20.2","","81","","","","10","","5","","","","100.61","","","","-22","","NA"
"-130.23","67.18","LITTLE CHICAGO","220B6Q3","2022-02-22 12:00","2022","02","22","12:00","-16.9","","-19.1","","84","","","","12","","5","","","","100.43","","","","-21","","NA"
"-130.23","67.18","LITTLE CHICAGO","220B6Q3","2022-02-22 13:00","2022","02","22","13:00","-16.1","","-18.2","","84","","","","16","","5","","","","100.34","","","","-20","","NA"
"-130.23","67.18","LITTLE CHICAGO","220B6Q3","2022-02-22 14:00","2022","02","22","14:00","-15.6","","-17.5","","85","","","","15","","8","","","","100.28","","","","-21","","NA"
"-130.23","67.18","LITTLE CHICAGO","220B6Q3","2022-02-22 15:00","2022","02","22","15:00","-15.0","","-16.9","","86","","","","16","","10","","","","100.20","","","","-21","","NA"
"-130.23","67.18","LITTLE CHICAGO","220B6Q3","2022-02-22 16:00","2022","02","22","16:00","-13.8","","-15.6","","86","","","","16","","10","","","","100.15","","","","-20","","NA"
"-130.23","67.18","LITTLE CHICAGO","220B6Q3","2022-02-22 17:00","2022","02","22","17:00","-13.9","","-15.7","","87","","","","17","","11","","","","100.11","","","","-20","","NA"
"-130.23","67.18","LITTLE CHICAGO","220B6Q3","2022-02-22 18:00","2022","02","22","18:00","-13.9","","-15.6","","87","","","","16","","7","","","","100.08","","","","-19","","NA"
"-130.23","67.18","LITTLE CHICAGO","220B6Q3","2022-02-22 19:00","2022","02","22","19:00","-13.7","","-15.3","","87","","","","15","","6","","","","100.05","","","","-18","","NA"
"-130.23","67.18","LITTLE CHICAGO","220B6Q3","2022-02-22 20:00","2022","02","22","20:00","-14.0","","-15.6","","87","","","","27","","2","","","","100.14","","","","-15","","NA"
"-130.23","67.18","LITTLE CHICAGO","220B6Q3","2022-02-22 21:00","2022","02","22","21:00","-13.7","","-15.3","","88","","","","3","","2","","","","100.25","","","","-15","","NA"
"-130.23","67.18","LITTLE CHICAGO","220B6Q3","2022-02-22 22:00","2022","02","22","22:00","-14.0","","-15.7","","87","","","","32","","3","","","","100.37","","","","-16","","NA"
"-130.23","67.18","LITTLE CHICAGO","220B6Q3","2022-02-22 23:00","2022","02","22","23:00","-14.9","","-16.6","","87","","","","0","","1","","","","100.44","","","","-16","","NA"
"-130.23","67.18","LITTLE CHICAGO","220B6Q3","2022-02-23 00:00","2022","02","23","00:00","-15.6","","-17.4","","86","","","","0","","1","","","","100.54","","","","-16","","NA"
"-130.23","67.18","LITTLE CHICAGO","220B6Q3","2022-02-23 01:00","2022","02","23","01:00","-14.8","","-16.5","","87","","","","0","","1","","","","100.62","","","","-16","","NA"
"-130.23","67.18","LITTLE CHICAGO","220B6Q3","2022-02-23 02:00","2022","02","23","02:00","-14.9","","-16.6","","87","","","","0","","1","","","","100.72","","","","-16","","NA"
"-130.23","67.18","LITTLE CHICAGO","220B6Q3","2022-02-23 03:00","2022","02","23","03:00","-14.3","","-16.0","","87","","","","7","","4","","","","100.84","","","","-17","","NA"
"-130.23","67.18","LITTLE CHICAGO","220B6Q3","2022-02-23 04:00","2022","02","23","04:00","-13.9","","-15.5","","88","","","","8","","1","","","","100.95","","","","-15","","NA"
"-130.23","67.18","LITTLE CHICAGO","220B6Q3","2022-02-23 05:00","2022","02","23","05:00","-15.4","","-17.1","","87","","","","14","","3","","","","101.03","","","","-18","","NA"
"-130.23","67.18","LITTLE CHICAGO","220B6Q3","2022-02-23 06:00","2022","02","23","06:00","-15.5","","-17.2","","87","","","","8","","4","","","","101.02","","","","-18","","NA"
"-130.23","67.18","LITTLE CHICAGO","220B6Q3","2022-02-23 07:00","2022","02","23","07:00","-15.0","","-16.4","","89","","","","13","","3","","","","101.11","","","","-17","","NA"
"-130.23","67.18","LITTLE CHICAGO","220B6Q3","2022-02-23 08:00","2022","02","23","08:00","-15.0","","-16.6","","88","","","","7","","11","","","","101.10","","","","-22","","NA"
"-130.23","67.18","LITTLE CHICAGO","220B6Q3","2022-02-23 09:00","2022","02","23","09:00","-14.7","","-16.0","","89","","","","12","","3","","","","101.12","","","","-17","","NA"
"-130.23","67.18","LITTLE CHICAGO","220B6Q3","2022-02-23 10:00","2022","02","23","10:00"
"-130.23","67.18","LITTLE CHICAGO","220B6Q3","2022-02-23 11:00","2022","02","23","11:00","-12.6","","-14.2","","88","","","","8","","4","","","","101.07","","","","-15","","NA"
"-130.23","67.18","LITTLE CHICAGO","220B6Q3","2022-02-23 12:00","2022","02","23","12:00","-10.0","","-11.6","","88","","","","12","","6","","","","101.01","","","","-14","","NA"
"-130.23","67.18","LITTLE CHICAGO","220B6Q3","2022-02-23 13:00","2022","02","23","13:00","-9.6","","-11.8","","84","","","","17","","4","","","","101.00","","","","-12","","NA"
"-130.23","67.18","LITTLE CHICAGO","220B6Q3","2022-02-23 14:00","2022","02","23","14:00","-5.2","","-7.6","","83","","","","15","","7","","","","100.95","","","","-8","","NA"
"-130.23","67.18","LITTLE CHICAGO","220B6Q3","2022-02-23 15:00","2022","02","23","15:00","-5.1","","-7.1","","86","","","","19","","8","","","","100.93","","","","-9","","NA"
"-130.23","67.18","LITTLE CHICAGO","220B6Q3","2022-02-23 16:00","2022","02","23","16:00","-4.0","","-6.5","","82","","","","31","","3","","","","100.97","","","","-5","","NA"
"-130.23","67.18","LITTLE CHICAGO","220B6Q3","2022-02-23 17:00","2022","02","23","17:00","-6.3","","-8.7","","83","","","","33","","7","","","","101.05","","","","-10","","NA"
"-130.23","67.18","LITTLE CHICAGO","220B6Q3","2022-02-23 18:00","2022","02","23","18:00","-6.8","","-9.0","","85","","","","34","","8","","","","101.10","","","","-11","","NA"
"-130.23","67.18","LITTLE CHICAGO","220B6Q3","2022-02-23 19:00","2022","02","23","19:00","-8.4","","-9.6","","91","","","","6","","3","","","","101.12","","","","-10","","NA"
"-130.23","67.18","LITTLE CHICAGO","220B6Q3","2022-02-23 20:00","2022","02","23","20:00","-8.1","","-9.1","","92","","","","","","0","","","","101.14","","","","","","NA"
"-130.23","67.18","LITTLE CHICAGO","220B6Q3","2022-02-23 21:00","2022","02","23","21:00","-7.8","","-8.8","","93","","","","12","","1","","","","101.15","","","","-8","","NA"
"-130.23","67.18","LITTLE CHICAGO","220B6Q3","2022-02-23 22:00","2022","02","23","22:00","-8.5","","-9.5","","92","","","","","","0","","","","101.17","","","","","","NA"
"-130.23","67.18","LITTLE CHICAGO","220B6Q3","2022-02-23 23:00","2022","02","23","23:00","-8.0","","-9.2","","91","","","","6","","5","","","","101.15","","","","-11","","NA"
"-130.23","67.18","LITTLE CHICAGO","220B6Q3","2022-02-24 00:00","2022","02","24","00:00","-8.9","","-10.1","","91","","","","0","","1","","","","101.18","","","","-9","","NA"
"-130.23","67.18","LITTLE CHICAGO","220B6Q3","2022-02-24 01:00","2022","02","24","01:00","-9.0","","-10.3","","90","","","","35","","7","","","","101.23","","","","-13","","NA"
"-130.23","67.18","LITTLE CHICAGO","220B6Q3","2022-02-24 02:00","2022","02","24","02:00","-9.1","","-10.9","","87","","","","32","","4","","","","101.27","","","","-11","","NA"
"-130.23","67.18","LITTLE CHICAGO","220B6Q3","2022-02-24 03:00","2022","02","24","03:00","-9.3","","-10.6","","90","","","","33","","2","","","","101.29","","","","-10","","NA"
"-130.23","67.18","LITTLE CHICAGO","220B6Q3","2022-02-24 04:00","2022","02","24","04:00","-8.5","","-10.2","","87","","","","33","","6","","","","101.31","","","","-12","","NA"
"-130.23","67.18","LITTLE CHICAGO","220B6Q3","2022-02-24 05:00","2022","02","24","05:00","-9.6","","-11.2","","88","","","","32","","6","","","","101.30","","","","-13","","NA"
"-130.23","67.18","LITTLE CHICAGO","220B6Q3","2022-02-24 06:00","2022","02","24","06:00","-9.6","","-12.0","","83","","","","34","","9","","","","101.33","","","","-14","","NA"
"-130.23","67.18","LITTLE CHICAGO","220B6Q3","2022-02-24 07:00","2022","02","24","07:00","-10.2","","-13.0","","80","","","","36","","8","","","","101.37","","","","-15","","NA"
"-130.23","67.18","LITTLE CHICAGO","220B6Q3","2022-02-24 08:00","2022","02","24","08:00","-10.5","","-13.6","","78","","","","35","","9","","","","101.38","","","","-15","","NA"
"-130.23","67.18","LITTLE CHICAGO","220B6Q3","2022-02-24 09:00","2022","02","24","09:00","-11.2","","-13.3","","85","","","","33","","7","","","","101.38","","","","-15","","NA"
"-130.23","67.18","LITTLE CHICAGO","220B6Q3","2022-02-24 10:00","2022","02","24","10:00","-11.6","","-13.2","","88","","","","32","","9","","","","101.39","","","","-17","","NA"
"-130.23","67.18","LITTLE CHICAGO","220B6Q3","2022-02-24 11:00","2022","02","24","11:00","-11.7","","-13.7","","85","","","","33","","8","","","","101.41","","","","-16","","NA"
"-130.23","67.18","LITTLE CHICAGO","220B6Q3","2022-02-24 12:00","2022","02","24","12:00","-11.8","","-13.4","","88","","","","33","","10","","","","101.39","","","","-17","","NA"
"-130.23","67.18","LITTLE CHICAGO","220B6Q3","2022-02-24 13:00","2022","02","24","13:00","-11.7","","-13.4","","87","","","","34","","8","","","","101.37","","","","-16","","NA"
"-130.23","67.18","LITTLE CHICAGO","220B6Q3","2022-02-24 14:00","2022","02","24","14:00","-11.7","","-13.5","","87","","","","34","","7","","","","101.35","","","","-16","","NA"
"-130.23","67.18","LITTLE CHICAGO","220B6Q3","2022-02-24 15:00","2022","02","24","15:00","-11.5","","-13.4","","86","","","","32","","6","","","","101.30","","","","-15","","NA"
"-130.23","67.18","LITTLE CHICAGO","220B6Q3","2022-02-24 16:00","2022","02","24","16:00","-11.6","","-13.5","","86","","","","34","","5","","","","101.25","","","","-15","","NA"
"-130.23","67.18","LITTLE CHICAGO","220B6Q3","2022-02-24 17:00","2022","02","24","17:00","-11.4","","-13.6","","83","","","","34","","5","","","","101.21","","","","-15","","NA"
"-130.23","67.18","LITTLE CHICAGO","220B6Q3","2022-02-24 18:00","2022","02","24","18:00","-11.6","","-13.4","","86","","","","33","","3","","","","101.18","","","","-13","","NA"
"-130.23","67.18","LITTLE CHICAGO","220B6Q3","2022-02-24 19:00","2022","02","24","19:00","-11.7","","-13.6","","86","","","","35","","6","","","","101.21","","","","-15","","NA"
"-130.23","67.18","LITTLE CHICAGO","220B6Q3","2022-02-24 20:00","2022","02","24","20:00","-11.8","","-13.5","","87","","","","33","","8","","","","101.25","","","","-17","","NA"
"-130.23","67.18","LITTLE CHICAGO","220B6Q3","2022-02-24 21:00","2022","02","24","21:00","-12.1","","-13.8","","87","","","","33","","9","","","","101.32","","","","-17","","NA"
"-130.23","67.18","LITTLE CHICAGO","220B6Q3","2022-02-24 22:00","2022","02","24","22:00","-12.9","","-15.3","","82","","","","33","","10","","","","101.36","","","","-19","","NA"
"-130.23","67.18","LITTLE CHICAGO","220B6Q3","2022-02-24 23:00","2022","02","24","23:00","-13.5","","-16.2","","80","","","","33","","10","","","","101.42","","","","-19","","NA"
"-130.23","67.18","LITTLE CHICAGO","220B6Q3","2022-02-25 00:00","2022","02","25","00:00","-15.7","","-18.7","","78","","","","34","","9","","","","101.49","","","","-22","","NA"
"-130.23","67.18","LITTLE CHICAGO","220B6Q3","2022-02-25 01:00","2022","02","25","01:00","-18.0","","-20.7","","79","","","","34","","8","","","","101.56","","","","-24","","NA"
"-130.23","67.18","LITTLE CHICAGO","220B6Q3","2022-02-25 02:00","2022","02","25","02:00","-19.7","","-23.2","","74","","","","33","","7","","","","101.63","","","","-25","","NA"
"-130.23","67.18","LITTLE CHICAGO","220B6Q3","2022-02-25 03:00","2022","02","25","03:00","-20.0","","-24.5","","67","","","","33","","12","","","","101.73","","","","-28","","NA"
"-130.23","67.18","LITTLE CHICAGO","220B6Q3","2022-02-25 04:00","2022","02","25","04:00","-22.6","","-26.3","","72","","","","32","","3","","","","101.81","","","","-25","","NA"
"-130.23","67.18","LITTLE CHICAGO","220B6Q3","2022-02-25 05:00","2022","02","25","05:00","-22.3","","-25.7","","73","","","","36","","6","","","","101.85","","","","-28","","NA"
"-130.23","67.18","LITTLE CHICAGO","220B6Q3","2022-02-25 06:00","2022","02","25","06:00","-25.3","","-27.9","","79","","","","35","","1","","","","101.88","","","","-26","","NA"
"-130.23","67.18","LITTLE CHICAGO","220B6Q3","2022-02-25 07:00","2022","02","25","07:00","-27.3","","-30.1","","77","","","","","","0","","","","101.90","","","","","","NA"
"-130.23","67.18","LITTLE CHICAGO","220B6Q3","2022-02-25 08:00","2022","02","25","08:00","-26.4","","-29.1","","78","","","","34","","7","","","","101.93","","","","-33","","NA"
"-130.23","67.18","LITTLE CHICAGO","220B6Q3","2022-02-25 09:00","2022","02","25","09:00","-25.7","","-28.8","","75","","","","33","","11","","","","101.96","","","","-34","","NA"
"-130.23","67.18","LITTLE CHICAGO","220B6Q3","2022-02-25 10:00","2022","02","25","10:00","-26.6","","-29.8","","74","","","","33","","13","","","","102.03","","","","-36","","NA"
"-130.23","67.18","LITTLE CHICAGO","220B6Q3","2022-02-25 11:00","2022","02","25","11:00","-26.7","","-30.1","","73","","","","34","","15","","","","102.05","","","","-37","","NA"
"-130.23","67.18","LITTLE CHICAGO","220B6Q3","2022-02-25 12:00","2022","02","25","12:00","-26.0","","-29.7","","71","","","","33","","15","","","","102.05","","","","-36","","NA"
"-130.23","67.18","LITTLE CHICAGO","220B6Q3","2022-02-25 13:00","2022","02","25","13:00","-25.1","","-29.3","","68","","","","34","","11","","","","102.10","","","","-34","","NA"
"-130.23","67.18","LITTLE CHICAGO","220B6Q3","2022-02-25 14:00","2022","02","25","14:00","-24.3","","-28.7","","67","","","","34","","13","","","","102.10","","","","-34","","NA"
"-130.23","67.18","LITTLE CHICAGO","220B6Q3","2022-02-25 15:00","2022","02","25","15:00","-23.6","","-27.9","","68","","","","34","","10","","","","102.09","","","","-32","","NA"
"-130.23","67.18","LITTLE CHICAGO","220B6Q3","2022-02-25 16:00","2022","02","25","16:00","-23.1","","-27.5","","67","","","","33","","10","","","","102.11","","","","-31","","NA"
"-130.23","67.18","LITTLE CHICAGO","220B6Q3","2022-02-25 17:00","2022","02","25","17:00","-23.2","","-27.7","","66","","","","34","","11","","","","102.12","","","","-31","","NA"
"-130.23","67.18","LITTLE CHICAGO","220B6Q3","2022-02-25 18:00","2022","02","25","18:00","-24.1","","-28.3","","68","","","","33","","11","","","","102.12","","","","-33","","NA"
"-130.23","67.18","LITTLE CHICAGO","220B6Q3","2022-02-25 19:00","2022","02","25","19:00","-26.2","","-29.6","","73","","","","34","","5","","","","102.14","","","","-31","","NA"
"-130.23","67.18","LITTLE CHICAGO","220B6Q3","2022-02-25 20:00","2022","02","25","20:00","-27.4","","-30.4","","76","","","","1","","3","","","","102.11","","","","-31","","NA"
"-130.23","67.18","LITTLE CHICAGO","220B6Q3","2022-02-25 21:00","2022","02","25","21:00","-28.5","","-31.5","","76","","","","32","","5","","","","102.11","","","","-34","","NA"
"-130.23","67.18","LITTLE CHICAGO","220B6Q3","2022-02-25 22:00","2022","02","25","22:00","-30.0","","-33.4","","73","","","","3","","4","","","","102.11","","","","-35","","NA"
"-130.23","67.18","LITTLE CHICAGO","220B6Q3","2022-02-25 23:00","2022","02","25","23:00","-30.8","","-34.0","","74","","","","","","0","","","","102.15","","","","","","NA"
"-130.23","67.18","LITTLE CHICAGO","220B6Q3","2022-02-26 00:00","2022","02","26","00:00","-32.6","","-36.0","","71","","","","6","","8","","","","102.17","","","","-41","","NA"
"-130.23","67.18","LITTLE CHICAGO","220B6Q3","2022-02-26 01:00","2022","02","26","01:00","-33.4","","-36.9","","71","","","","4","","3","","","","102.17","","","","-37","","NA"
"-130.23","67.18","LITTLE CHICAGO","220B6Q3","2022-02-26 02:00","2022","02","26","02:00","-33.6","","-37.1","","70","","","","30","","3","","","","102.22","","","","-37","","NA"
"-130.23","67.18","LITTLE CHICAGO","220B6Q3","2022-02-26 03:00","2022","02","26","03:00","-34.6","","-38.5","","68","","","","6","","2","","","","102.24","","","","-37","","NA"
"-130.23","67.18","LITTLE CHICAGO","220B6Q3","2022-02-26 04:00","2022","02","26","04:00","-35.2","","-39.0","","69","","","","0","","1","","","","102.27","","","","-36","","NA"
"-130.23","67.18","LITTLE CHICAGO","220B6Q3","2022-02-26 05:00","2022","02","26","05:00","-35.5","","-39.3","","68","","","","35","","2","","","","102.27","","","","-38","","NA"
"-130.23","67.18","LITTLE CHICAGO","220B6Q3","2022-02-26 06:00","2022","02","26","06:00","-36.0","","-39.8","","68","","","","","","0","","","","102.31","","","","","","NA"
"-130.23","67.18","LITTLE CHICAGO","220B6Q3","2022-02-26 07:00","2022","02","26","07:00","-36.0","","-40.0","","67","","","","","","0","","","","102.34","","","","","","NA"
"-130.23","67.18","LITTLE CHICAGO","220B6Q3","2022-02-26 08:00","2022","02","26","08:00","-37.0","","-41.1","","66","","","","4","","3","","","","102.38","","","","-41","","NA"
"-130.23","67.18","LITTLE CHICAGO","220B6Q3","2022-02-26 09:00","2022","02","26","09:00","-37.1","","-41.1","","66","","","","2","","2","","","","102.36","","","","-40","","NA"
"-130.23","67.18","LITTLE CHICAGO","220B6Q3","2022-02-26 10:00","2022","02","26","10:00","-36.1","","-40.1","","67","","","","0","","1","","","","102.41","","","","-37","","NA"
"-130.23","67.18","LITTLE CHICAGO","220B6Q3","2022-02-26 11:00","2022","02","26","11:00","-32.8","","-37.7","","62","","","","","","0","","","","102.41","","","","","","NA"
"-130.23","67.18","LITTLE CHICAGO","220B6Q3","2022-02-26 12:00","2022","02","26","12:00","-33.5","","-39.1","","57","","","","28","","2","","","","102.37","","","","-36","","NA"
"-130.23","67.18","LITTLE CHICAGO","220B6Q3","2022-02-26 13:00","2022","02","26","13:00","-28.9","","-32.9","","68","","","","32","","5","","","","102.37","","","","-34","","NA"
"-130.23","67.18","LITTLE CHICAGO","220B6Q3","2022-02-26 14:00","2022","02","26","14:00","-27.2","","-31.5","","67","","","","32","","5","","","","102.33","","","","-32","","NA"
"-130.23","67.18","LITTLE CHICAGO","220B6Q3","2022-02-26 15:00","2022","02","26","15:00","-24.5","","-29.5","","63","","","","","","0","","","","102.32","","","","","","NA"
"-130.23","67.18","LITTLE CHICAGO","220B6Q3","2022-02-26 16:00","2022","02","26","16:00","-23.1","","-28.3","","63","","","","30","","2","","","","102.28","","","","-25","","NA"
"-130.23","67.18","LITTLE CHICAGO","220B6Q3","2022-02-26 17:00","2022","02","26","17:00","-23.7","","-28.1","","67","","","","31","","3","","","","102.22","","","","-27","","NA"
"-130.23","67.18","LITTLE CHICAGO","220B6Q3","2022-02-26 18:00","2022","02","26","18:00","-23.6","","-27.2","","72","","","","34","","2","","","","102.21","","","","-26","","NA"
"-130.23","67.18","LITTLE CHICAGO","220B6Q3","2022-02-26 19:00","2022","02","26","19:00","-27.3","","-30.2","","76","","","","11","","1","","","","102.17","","","","-28","","NA"
"-130.23","67.18","LITTLE CHICAGO","220B6Q3","2022-02-26 20:00","2022","02","26","20:00","-28.7","","-31.9","","74","","","","","","0","","","","102.13","","","","","","NA"
"-130.23","67.18","LITTLE CHICAGO","220B6Q3","2022-02-26 21:00","2022","02","26","21:00","-28.1","","-31.0","","77","","","","30","","3","","","","102.05","","","","-31","","NA"
"-130.23","67.18","LITTLE CHICAGO","220B6Q3","2022-02-26 22:00","2022","02","26","22:00","-29.2","","-32.1","","75","","","","33","","1","","","","102.01","","","","-30","","NA"
"-130.23","67.18","LITTLE CHICAGO","220B6Q3","2022-02-26 23:00","2022","02","26","23:00","-30.1","","-33.2","","75","","","","0","","1","","","","102.01","","","","-31","","NA"
"-130.23","67.18","LITTLE CHICAGO","220B6Q3","2022-02-27 00:00","2022","02","27","00:00","-30.0","","-33.2","","73","","","","0","","1","","","","101.97","","","","-31","","NA"
"-130.23","67.18","LITTLE CHICAGO","220B6Q3","2022-02-27 01:00","2022","02","27","01:00","-31.8","","-35.2","","72","","","","32","","5","","","","101.88","","","","-38","","NA"
"-130.23","67.18","LITTLE CHICAGO","220B6Q3","2022-02-27 02:00","2022","02","27","02:00","-30.3","","-33.8","","71","","","","32","","2","","","","101.83","","","","-33","","NA"
"-130.23","67.18","LITTLE CHICAGO","220B6Q3","2022-02-27 03:00","2022","02","27","03:00","-30.2","","-33.1","","75","","","","32","","6","","","","101.76","","","","-37","","NA"
"-130.23","67.18","LITTLE CHICAGO","220B6Q3","2022-02-27 04:00","2022","02","27","04:00","-30.1","","-33.0","","76","","","","32","","6","","","","101.75","","","","-37","","NA"
"-130.23","67.18","LITTLE CHICAGO","220B6Q3","2022-02-27 05:00","2022","02","27","05:00","-30.6","","-33.9","","73","","","","32","","5","","","","101.68","","","","-36","","NA"
"-130.23","67.18","LITTLE CHICAGO","220B6Q3","2022-02-27 06:00","2022","02","27","06:00","-30.1","","-32.9","","76","","","","32","","5","","","","101.61","","","","-36","","NA"
"-130.23","67.18","LITTLE CHICAGO","220B6Q3","2022-02-27 07:00","2022","02","27","07:00","-30.3","","-33.8","","71","","","","32","","5","","","","101.59","","","","-36","","NA"
"-130.23","67.18","LITTLE CHICAGO","220B6Q3","2022-02-27 08:00","2022","02","27","08:00","-31.7","","-35.2","","71","","","","31","","2","","","","101.55","","","","-34","","NA"
"-130.23","67.18","LITTLE CHICAGO","220B6Q3","2022-02-27 09:00","2022","02","27","09:00","-32.5","","-36.4","","68","","","","34","","4","","","","101.52","","","","-37","","NA"
"-130.23","67.18","LITTLE CHICAGO","220B6Q3","2022-02-27 10:00","2022","02","27","10:00","-28.5","","-31.3","","77","","","","34","","5","","","","101.54","","","","-34","","NA"
"-130.23","67.18","LITTLE CHICAGO","220B6Q3","2022-02-27 11:00","2022","02","27","11:00","-29.6","","-34.3","","64","","","","0","","1","","","","101.53","","","","-31","","NA"
"-130.23","67.18","LITTLE CHICAGO","220B6Q3","2022-02-27 12:00","2022","02","27","12:00","-26.6","","-30.7","","68","","","","32","","5","","","","101.51","","","","-32","","NA"
"-130.23","67.18","LITTLE CHICAGO","220B6Q3","2022-02-27 13:00","2022","02","27","13:00","-25.0","","-32.5","","50","","","","31","","2","","","","101.48","","","","-27","","NA"
"-130.23","67.18","LITTLE CHICAGO","220B6Q3","2022-02-27 14:00","2022","02","27","14:00","-22.9","","-29.9","","53","","","","28","","1","","","","101.46","","","","-24","","NA"
"-130.23","67.18","LITTLE CHICAGO","220B6Q3","2022-02-27 15:00","2022","02","27","15:00","-24.4","","-28.1","","71","","","","31","","5","","","","101.44","","","","-29","","NA"
"-130.23","67.18","LITTLE CHICAGO","220B6Q3","2022-02-27 16:00","2022","02","27","16:00","-22.4","","-26.3","","71","","","","32","","3","","","","101.42","","","","-25","","NA"
"-130.23","67.18","LITTLE CHICAGO","220B6Q3","2022-02-27 17:00","2022","02","27","17:00","-21.0","","-25.8","","65","","","","","","0","","","","101.41","","","","","","NA"
"-130.23","67.18","LITTLE CHICAGO","220B6Q3","2022-02-27 18:00","2022","02","27","18:00","-14.8","","-19.1","","70","","","","12","","8","","","","101.39","","","","-20","","NA"
"-130.23","67.18","LITTLE CHICAGO","220B6Q3","2022-02-27 19:00","2022","02","27","19:00","-16.3","","-20.2","","72","","","","10","","11","","","","101.42","","","","-23","","NA"
"-130.23","67.18","LITTLE CHICAGO","220B6Q3","2022-02-27 20:00","2022","02","27","20:00","-17.4","","-21.2","","72","","","","11","","7","","","","101.47","","","","-23","","NA"
"-130.23","67.18","LITTLE CHICAGO","220B6Q3","2022-02-27 21:00","2022","02","27","21:00","-18.5","","-22.0","","74","","","","10","","7","","","","101.50","","","","-24","","NA"
"-130.23","67.18","LITTLE CHICAGO","220B6Q3","2022-02-27 22:00","2022","02","27","22:00","-18.9","","-22.5","","73","","","","10","","9","","","","101.52","","","","-25","","NA"
"-130.23","67.18","LITTLE CHICAGO","220B6Q3","2022-02-27 23:00","2022","02","27","23:00","-21.7","","-24.6","","77","","","","7","","3","","","","101.54","","","","-24","","NA"
"-130.23","67.18","LITTLE CHICAGO","220B6Q3","2022-02-28 00:00","2022","02","28","00:00","-22.9","","-25.4","","80","","","","19","","2","","","","101.56","","","","-25","","NA"
"-130.23","67.18","LITTLE CHICAGO","220B6Q3","2022-02-28 01:00","2022","02","28","01:00","-21.0","","-24.3","","74","","","","11","","8","","","","101.56","","","","-27","","NA"
"-130.23","67.18","LITTLE CHICAGO","220B6Q3","2022-02-28 02:00","2022","02","28","02:00","-21.6","","-25.1","","74","","","","11","","5","","","","101.57","","","","-26","","NA"
"-130.23","67.18","LITTLE CHICAGO","220B6Q3","2022-02-28 03:00","2022","02","28","03:00","-23.6","","-26.3","","78","","","","18","","1","","","","101.56","","","","-25","","NA"
"-130.23","67.18","LITTLE CHICAGO","220B6Q3","2022-02-28 04:00","2022","02","28","04:00","-22.3","","-25.7","","73","","","","11","","6","","","","101.57","","","","-28","","NA"
"-130.23","67.18","LITTLE CHICAGO","220B6Q3","2022-02-28 05:00","2022","02","28","05:00","-22.0","","-25.6","","73","","","","12","","8","","","","101.58","","","","-29","","NA"
"-130.23","67.18","LITTLE CHICAGO","220B6Q3","2022-02-28 06:00","2022","02","28","06:00","-22.0","","-25.7","","72","","","","12","","8","","","","101.60","","","","-29","","NA"
"-130.23","67.18","LITTLE CHICAGO","220B6Q3","2022-02-28 07:00","2022","02","28","07:00","-24.8","","-27.7","","77","","","","29","","2","","","","101.59","","","","-27","","NA"
"-130.23","67.18","LITTLE CHICAGO","220B6Q3","2022-02-28 08:00","2022","02","28","08:00","-27.2","","-30.4","","74","","","","31","","2","","","","101.57","","","","-29","","NA"
"-130.23","67.18","LITTLE CHICAGO","220B6Q3","2022-02-28 09:00","2022","02","28","09:00","-27.7","","-30.3","","78","","","","3","","2","","","","101.57","","","","-30","","NA"
"-130.23","67.18","LITTLE CHICAGO","220B6Q3","2022-02-28 10:00","2022","02","28","10:00","-26.2","","-29.5","","74","","","","31","","5","","","","101.58","","","","-31","","NA"
"-130.23","67.18","LITTLE CHICAGO","220B6Q3","2022-02-28 11:00","2022","02","28","11:00","-21.8","","-27.0","","63","","","","33","","2","","","","101.61","","","","-24","","NA"
"-130.23","67.18","LITTLE CHICAGO","220B6Q3","2022-02-28 12:00","2022","02","28","12:00","-19.5","","-25.5","","59","","","","10","","4","","","","101.66","","","","-23","","NA"
"-130.23","67.18","LITTLE CHICAGO","220B6Q3","2022-02-28 13:00","2022","02","28","13:00","-22.6","","-28.7","","58","","","","18","","3","","","","101.64","","","","-25","","NA"
"-130.23","67.18","LITTLE CHICAGO","220B6Q3","2022-02-28 14:00","2022","02","28","14:00","-21.5","","-25.7","","69","","","","31","","7","","","","101.67","","","","-27","","NA"
"-130.23","67.18","LITTLE CHICAGO","220B6Q3","2022-02-28 15:00","2022","02","28","15:00","-18.0","","-23.2","","64","","","","26","","1","","","","101.65","","","","-19","","NA"
"-130.23","67.18","LITTLE CHICAGO","220B6Q3","2022-02-28 16:00","2022","02","28","16:00","-18.0","","-22.7","","66","","","","34","","6","","","","101.64","","","","-23","","NA"
"-130.23","67.18","LITTLE CHICAGO","220B6Q3","2022-02-28 17:00","2022","02","28","17:00","-18.5","","-22.1","","74","","","","33","","7","","","","101.62","","","","-24","","NA"
"-130.23","67.18","LITTLE CHICAGO","220B6Q3","2022-02-28 18:00","2022","02","28","18:00","-18.4","","-22.3","","72","","","","33","","7","","","","101.65","","","","-24","","NA"
"-130.23","67.18","LITTLE CHICAGO","220B6Q3","2022-02-28 19:00","2022","02","28","19:00","-20.8","","-23.5","","79","","","","","","0","","","","101.69","","","","","","NA"
"-130.23","67.18","LITTLE CHICAGO","220B6Q3","2022-02-28 20:00","2022","02","28","20:00","-21.3","","-23.5","","82","","","","17","","4","","","","101.71","","","","-25","","NA"
"-130.23","67.18","LITTLE CHICAGO","220B6Q3","2022-02-28 21:00","2022","02","28","21:00","-21.4","","-24.1","","79","","","","0","","1","","","","101.73","","","","-22","","NA"
"-130.23","67.18","LITTLE CHICAGO","220B6Q3","2022-02-28 22:00","2022","02","28","22:00","-21.0","","-23.4","","81","","","","13","","4","","","","101.76","","","","-25","","NA"
"-130.23","67.18","LITTLE CHICAGO","220B6Q3","2022-02-28 23:00","2022","02","28","23:00","-19.7","","-23.5","","72","","","","10","","8","","","","101.80","","","","-26","","NA"
