"Longitude (x)","Latitude (y)","Station Name","Climate ID","Date/Time (LST)","Year","Month","Day","Time (LST)","Temp (°C)","Temp Flag","Dew Point Temp (°C)","Dew Point Temp Flag","Rel Hum (%)","Rel Hum Flag","Precip. Amount (mm)","Precip. Amount Flag","Wind Dir (10s deg)","Wind Dir Flag","Wind Spd (km/h)","Wind Spd Flag","Visibility (km)","Visibility Flag","Stn Press (kPa)","Stn Press Flag","Hmdx","Hmdx Flag","Wind Chill","Wind Chill Flag","Weather"
"-105.14","69.11","CAMBRIDGE BAY A","2400603","2022-01-01 00:00","2022","01","01","00:00","-24.8","","-28.2","","74","","","M","1","","22","","","M","101.11","","","","-37","","NA"
"-105.14","69.11","CAMBRIDGE BAY A","2400603","2022-01-01 01:00","2022","01","01","01:00","-24.7","","-28.0","","75","","","M","1","","15","","","M","101.11","","","","-35","","NA"
"-105.14","69.11","CAMBRIDGE BAY A","2400603","2022-01-01 02:00","2022","01","01","02:00","-24.6","","-27.9","","75","","","M","35","","13","","","M","101.12","","","","-34","","NA"
"-105.14","69.11","CAMBRIDGE BAY A","2400603","2022-01-01 03:00","2022","01","01","03:00","-24.3","","-27.7","","74","","","M","35","","14","","","M","101.12","","","","-34","","NA"
"-105.14","69.11","CAMBRIDGE BAY A","2400603","2022-01-01 04:00","2022","01","01","04:00","-24.1","","-27.5","","74","","","M","1","","16","","","M","101.10","","","","-34","","NA"
"-105.14","69.11","CAMBRIDGE BAY A","2400603","2022-01-01 05:00","2022","01","01","05:00","-24.0","","-27.6","","73","","","M","2","","17","","","M","101.09","","","","-35","","NA"
"-105.14","69.11","CAMBRIDGE BAY A","2400603","2022-01-01 06:00","2022","01","01","06:00","-24.1","","-27.5","","74","","","M","1","","16","","","M","101.09","","","","-34","","NA"
"-105.14","69.11","CAMBRIDGE BAY A","2400603","2022-01-01 07:00","2022","01","01","07:00","-24.3","","-27.6","","74","","","M","1","","18","","","M","101.07","","","","-35","","NA"
"-105.14","69.11","CAMBRIDGE BAY A","2400603","2022-01-01 08:00","2022","01","01","08:00","-24.8","","-28.2","","73","","","M","1","","14","","","M","101.10","","","","-35","","NA"
"-105.14","69.11","CAMBRIDGE BAY A","2400603","2022-01-01 09:00","2022","01","01","09:00","-24.8","","-28.2","","74","","","M","36","","13","","","M","101.07","","","","-34","","NA"
"-105.14","69.11","CAMBRIDGE BAY A","2400603","2022-01-01 10:00","2022","01","01","10:00","-24.7","","-28.0","","75","","","M","1","","12","","","M","101.09","","","","-34","","NA"
"-105.14","69.11","CAMBRIDGE BAY A","2400603","2022-01-01 11:00","2022","01","01","11:00","-24.5","","-27.8","","75","","","M","36","","9","","","M","101.10","","","","-32","","NA"
"-105.14","69.11","CAMBRIDGE BAY A","2400603","2022-01-01 12:00","2022","01","01","12:00","-24.7","","-28.0","","74","","","M","35","","12","","","M","101.11","","","","-34","","NA"
"-105.14","69.11","CAMBRIDGE BAY A","2400603","2022-01-01 13:00","2022","01","01","13:00","-25.0","","-28.3","","74","","","M","35","","9","","","M","101.14","","","","-33","","NA"
"-105.14","69.11","CAMBRIDGE BAY A","2400603","2022-01-01 14:00","2022","01","01","14:00","-25.4","","-28.8","","74","","","M","34","","8","","","M","101.17","","","","-33","","NA"
"-105.14","69.11","CAMBRIDGE BAY A","2400603","2022-01-01 15:00","2022","01","01","15:00","-25.7","","-29.1","","74","","","M","33","","13","","","M","101.21","","","","-35","","NA"
"-105.14","69.11","CAMBRIDGE BAY A","2400603","2022-01-01 16:00","2022","01","01","16:00","-25.8","","-29.0","","75","","","M","33","","13","","","M","101.23","","","","-35","","NA"
"-105.14","69.11","CAMBRIDGE BAY A","2400603","2022-01-01 17:00","2022","01","01","17:00","-26.0","","-29.3","","74","","","M","34","","12","","","M","101.25","","","","-35","","NA"
"-105.14","69.11","CAMBRIDGE BAY A","2400603","2022-01-01 18:00","2022","01","01","18:00","-27.8","","-31.0","","75","","","M","31","","13","","","M","101.30","","","","-38","","NA"
"-105.14","69.11","CAMBRIDGE BAY A","2400603","2022-01-01 19:00","2022","01","01","19:00","-28.8","","-32.0","","74","","","M","31","","16","","","M","101.32","","","","-40","","NA"
"-105.14","69.11","CAMBRIDGE BAY A","2400603","2022-01-01 20:00","2022","01","01","20:00","-29.6","","-32.8","","74","","","M","32","","20","","","M","101.35","","","","-43","","NA"
"-105.14","69.11","CAMBRIDGE BAY A","2400603","2022-01-01 21:00","2022","01","01","21:00","-28.9","","-32.2","","74","","","M","31","","17","","","M","101.38","","","","-41","","NA"
"-105.14","69.11","CAMBRIDGE BAY A","2400603","2022-01-01 22:00","2022","01","01","22:00","-26.6","","-29.9","","74","","","M","32","","14","","","M","101.42","","","","-37","","NA"
"-105.14","69.11","CAMBRIDGE BAY A","2400603","2022-01-01 23:00","2022","01","01","23:00","-25.8","","-29.1","","74","","","M","32","","15","","","M","101.45","","","","-36","","NA"
"-105.14","69.11","CAMBRIDGE BAY A","2400603","2022-01-02 00:00","2022","01","02","00:00","-25.1","","-28.5","","74","","","M","34","","14","","","M","101.49","","","","-35","","NA"
"-105.14","69.11","CAMBRIDGE BAY A","2400603","2022-01-02 01:00","2022","01","02","01:00","-25.1","","-28.6","","74","","","M","36","","14","","","M","101.52","","","","-35","","NA"
"-105.14","69.11","CAMBRIDGE BAY A","2400603","2022-01-02 02:00","2022","01","02","02:00","-26.1","","-29.5","","74","","","M","35","","11","","","M","101.57","","","","-35","","NA"
"-105.14","69.11","CAMBRIDGE BAY A","2400603","2022-01-02 03:00","2022","01","02","03:00","-27.1","","-30.6","","73","","","M","34","","13","","","M","101.61","","","","-37","","NA"
"-105.14","69.11","CAMBRIDGE BAY A","2400603","2022-01-02 04:00","2022","01","02","04:00","-27.3","","-30.9","","72","","","M","33","","13","","","M","101.66","","","","-37","","NA"
"-105.14","69.11","CAMBRIDGE BAY A","2400603","2022-01-02 05:00","2022","01","02","05:00","-27.5","","-30.9","","73","","","M","33","","21","","","M","101.70","","","","-40","","NA"
"-105.14","69.11","CAMBRIDGE BAY A","2400603","2022-01-02 06:00","2022","01","02","06:00","-27.6","","-31.0","","74","","","M","34","","14","","","M","101.74","","","","-38","","NA"
"-105.14","69.11","CAMBRIDGE BAY A","2400603","2022-01-02 07:00","2022","01","02","07:00","-28.3","","-31.8","","73","","","M","32","","17","","","M","101.77","","","","-40","","NA"
"-105.14","69.11","CAMBRIDGE BAY A","2400603","2022-01-02 08:00","2022","01","02","08:00","-28.5","","-32.0","","73","","","M","32","","18","","","M","101.82","","","","-41","","NA"
"-105.14","69.11","CAMBRIDGE BAY A","2400603","2022-01-02 09:00","2022","01","02","09:00","-28.1","","-31.7","","72","","","M","36","","16","","","M","101.83","","","","-39","","NA"
"-105.14","69.11","CAMBRIDGE BAY A","2400603","2022-01-02 10:00","2022","01","02","10:00","-28.6","","-32.3","","71","","","M","34","","17","","","M","101.88","","","","-40","","NA"
"-105.14","69.11","CAMBRIDGE BAY A","2400603","2022-01-02 11:00","2022","01","02","11:00","-28.5","","-32.1","","72","","","M","36","","21","","","M","101.90","","","","-41","","NA"
"-105.14","69.11","CAMBRIDGE BAY A","2400603","2022-01-02 12:00","2022","01","02","12:00","-27.4","","-31.0","","72","","","M","36","","22","","","M","101.93","","","","-40","","NA"
"-105.14","69.11","CAMBRIDGE BAY A","2400603","2022-01-02 13:00","2022","01","02","13:00","-27.0","","-30.5","","73","","","M","36","","21","","","M","102.00","","","","-40","","NA"
"-105.14","69.11","CAMBRIDGE BAY A","2400603","2022-01-02 14:00","2022","01","02","14:00","-27.5","","-31.0","","73","","","M","1","","20","","","M","102.05","","","","-40","","NA"
"-105.14","69.11","CAMBRIDGE BAY A","2400603","2022-01-02 15:00","2022","01","02","15:00","-28.5","","-32.0","","73","","","M","1","","25","","","M","102.10","","","","-43","","NA"
"-105.14","69.11","CAMBRIDGE BAY A","2400603","2022-01-02 16:00","2022","01","02","16:00","-29.5","","-33.0","","72","","","M","2","","27","","","M","102.15","","","","-44","","NA"
"-105.14","69.11","CAMBRIDGE BAY A","2400603","2022-01-02 17:00","2022","01","02","17:00","-30.1","","-33.6","","72","","","M","35","","15","","","M","102.19","","","","-42","","NA"
"-105.14","69.11","CAMBRIDGE BAY A","2400603","2022-01-02 18:00","2022","01","02","18:00","-30.3","","-33.8","","73","","","M","35","","13","","","M","102.21","","","","-41","","NA"
"-105.14","69.11","CAMBRIDGE BAY A","2400603","2022-01-02 19:00","2022","01","02","19:00","-30.6","","-34.1","","72","","","M","32","","16","","","M","102.25","","","","-43","","NA"
"-105.14","69.11","CAMBRIDGE BAY A","2400603","2022-01-02 20:00","2022","01","02","20:00","-31.0","","-34.6","","71","","","M","30","","14","","","M","102.28","","","","-42","","NA"
"-105.14","69.11","CAMBRIDGE BAY A","2400603","2022-01-02 21:00","2022","01","02","21:00","-30.4","","-33.9","","72","","","M","35","","18","","","M","102.29","","","","-43","","NA"
"-105.14","69.11","CAMBRIDGE BAY A","2400603","2022-01-02 22:00","2022","01","02","22:00","-31.4","","-35.0","","71","","","M","31","","17","","","M","102.32","","","","-44","","NA"
"-105.14","69.11","CAMBRIDGE BAY A","2400603","2022-01-02 23:00","2022","01","02","23:00","-30.2","","-33.6","","73","","","M","34","","18","","","M","102.33","","","","-43","","NA"
"-105.14","69.11","CAMBRIDGE BAY A","2400603","2022-01-03 00:00","2022","01","03","00:00","-30.1","","-33.4","","74","","","M","33","","16","","","M","102.36","","","","-42","","NA"
"-105.14","69.11","CAMBRIDGE BAY A","2400603","2022-01-03 01:00","2022","01","03","01:00","-29.3","","-32.6","","74","","","M","36","","23","","","M","102.33","","","","-43","","NA"
"-105.14","69.11","CAMBRIDGE BAY A","2400603","2022-01-03 02:00","2022","01","03","02:00","-29.3","","-32.5","","74","","","M","36","","29","","","M","102.35","","","","-44","","NA"
"-105.14","69.11","CAMBRIDGE BAY A","2400603","2022-01-03 03:00","2022","01","03","03:00","-28.7","","-31.9","","75","","","M","36","","34","","","M","102.42","","","","-45","","NA"
"-105.14","69.11","CAMBRIDGE BAY A","2400603","2022-01-03 04:00","2022","01","03","04:00","-28.5","","-31.7","","75","","","M","1","","32","","","M","102.46","","","","-44","","NA"
"-105.14","69.11","CAMBRIDGE BAY A","2400603","2022-01-03 05:00","2022","01","03","05:00","-28.1","","-31.2","","75","","","M","35","","18","","","M","102.52","","","","-40","","NA"
"-105.14","69.11","CAMBRIDGE BAY A","2400603","2022-01-03 06:00","2022","01","03","06:00","-27.7","","-30.9","","75","","","M","34","","26","","","M","102.50","","","","-42","","NA"
"-105.14","69.11","CAMBRIDGE BAY A","2400603","2022-01-03 07:00","2022","01","03","07:00","-27.7","","-30.8","","75","","","M","35","","18","","","M","102.52","","","","-40","","NA"
"-105.14","69.11","CAMBRIDGE BAY A","2400603","2022-01-03 08:00","2022","01","03","08:00","-27.1","","-30.1","","76","","","M","34","","26","","","M","102.56","","","","-41","","NA"
"-105.14","69.11","CAMBRIDGE BAY A","2400603","2022-01-03 09:00","2022","01","03","09:00","-26.7","","-29.8","","76","","","M","34","","29","","","M","102.58","","","","-41","","NA"
"-105.14","69.11","CAMBRIDGE BAY A","2400603","2022-01-03 10:00","2022","01","03","10:00","-27.2","","-30.4","","75","","","M","34","","35","","","M","102.61","","","","-43","","NA"
"-105.14","69.11","CAMBRIDGE BAY A","2400603","2022-01-03 11:00","2022","01","03","11:00","-27.7","","-30.9","","75","","","M","35","","24","","","M","102.65","","","","-41","","NA"
"-105.14","69.11","CAMBRIDGE BAY A","2400603","2022-01-03 12:00","2022","01","03","12:00","-27.8","","-31.0","","75","","","M","33","","24","","","M","102.70","","","","-41","","NA"
"-105.14","69.11","CAMBRIDGE BAY A","2400603","2022-01-03 13:00","2022","01","03","13:00","-27.3","","-30.4","","75","","","M","34","","41","","","M","102.66","","","","-44","","NA"
"-105.14","69.11","CAMBRIDGE BAY A","2400603","2022-01-03 14:00","2022","01","03","14:00","-28.3","","-31.6","","74","","","M","35","","24","","","M","102.74","","","","-42","","NA"
"-105.14","69.11","CAMBRIDGE BAY A","2400603","2022-01-03 15:00","2022","01","03","15:00","-28.6","","-32.0","","73","","","M","31","","14","","","M","102.85","","","","-39","","NA"
"-105.14","69.11","CAMBRIDGE BAY A","2400603","2022-01-03 16:00","2022","01","03","16:00","-28.1","","-31.6","","73","","","M","31","","20","","","M","102.87","","","","-41","","NA"
"-105.14","69.11","CAMBRIDGE BAY A","2400603","2022-01-03 17:00","2022","01","03","17:00","-29.2","","-32.6","","73","","","M","25","","17","","","M","102.88","","","","-41","","NA"
"-105.14","69.11","CAMBRIDGE BAY A","2400603","2022-01-03 18:00","2022","01","03","18:00","-29.1","","-32.7","","72","","","M","29","","24","","","M","102.85","","","","-43","","NA"
"-105.14","69.11","CAMBRIDGE BAY A","2400603","2022-01-03 19:00","2022","01","03","19:00","-29.5","","-33.1","","71","","","M","31","","21","","","M","102.82","","","","-43","","NA"
"-105.14","69.11","CAMBRIDGE BAY A","2400603","2022-01-03 20:00","2022","01","03","20:00","-30.0","","-33.6","","72","","","M","31","","25","","","M","102.81","","","","-44","","NA"
"-105.14","69.11","CAMBRIDGE BAY A","2400603","2022-01-03 21:00","2022","01","03","21:00","-31.0","","-34.4","","72","","","M","31","","18","","","M","102.79","","","","-44","","NA"
"-105.14","69.11","CAMBRIDGE BAY A","2400603","2022-01-03 22:00","2022","01","03","22:00","-31.0","","-34.5","","72","","","M","32","","18","","","M","102.77","","","","-44","","NA"
"-105.14","69.11","CAMBRIDGE BAY A","2400603","2022-01-03 23:00","2022","01","03","23:00","-31.4","","-34.8","","73","","","M","29","","15","","","M","102.74","","","","-43","","NA"
"-105.14","69.11","CAMBRIDGE BAY A","2400603","2022-01-04 00:00","2022","01","04","00:00","-32.1","","-35.5","","72","","","M","27","","17","","","M","102.68","","","","-45","","NA"
"-105.14","69.11","CAMBRIDGE BAY A","2400603","2022-01-04 01:00","2022","01","04","01:00","-32.6","","-36.2","","71","","","M","31","","21","","","M","102.65","","","","-47","","NA"
"-105.14","69.11","CAMBRIDGE BAY A","2400603","2022-01-04 02:00","2022","01","04","02:00","-33.5","","-37.0","","71","","","M","27","","16","","","M","102.67","","","","-46","","NA"
"-105.14","69.11","CAMBRIDGE BAY A","2400603","2022-01-04 03:00","2022","01","04","03:00","-33.6","","-37.1","","71","","","M","24","","11","","","M","102.68","","","","-44","","NA"
"-105.14","69.11","CAMBRIDGE BAY A","2400603","2022-01-04 04:00","2022","01","04","04:00","-34.2","","-37.8","","71","","","M","26","","16","","","M","102.66","","","","-47","","NA"
"-105.14","69.11","CAMBRIDGE BAY A","2400603","2022-01-04 05:00","2022","01","04","05:00","-34.2","","-37.9","","70","","","M","28","","13","","","M","102.62","","","","-46","","NA"
"-105.14","69.11","CAMBRIDGE BAY A","2400603","2022-01-04 06:00","2022","01","04","06:00","-34.3","","-37.9","","70","","","M","27","","21","","","M","102.59","","","","-49","","NA"
"-105.14","69.11","CAMBRIDGE BAY A","2400603","2022-01-04 07:00","2022","01","04","07:00","-33.8","","-37.4","","70","","","M","26","","15","","","M","102.59","","","","-46","","NA"
"-105.14","69.11","CAMBRIDGE BAY A","2400603","2022-01-04 08:00","2022","01","04","08:00","-34.4","","-38.1","","70","","","M","26","","15","","","M","102.56","","","","-47","","NA"
"-105.14","69.11","CAMBRIDGE BAY A","2400603","2022-01-04 09:00","2022","01","04","09:00","-34.5","","-38.1","","70","","","M","27","","19","","","M","102.54","","","","-48","","NA"
"-105.14","69.11","CAMBRIDGE BAY A","2400603","2022-01-04 10:00","2022","01","04","10:00","-34.9","","-38.6","","70","","","M","28","","24","","","M","102.49","","","","-50","","NA"
"-105.14","69.11","CAMBRIDGE BAY A","2400603","2022-01-04 11:00","2022","01","04","11:00","-35.5","","-39.3","","69","","","M","29","","25","","","M","102.46","","","","-52","","NA"
"-105.14","69.11","CAMBRIDGE BAY A","2400603","2022-01-04 12:00","2022","01","04","12:00","-36.0","","-39.8","","69","","","M","28","","18","","","M","102.42","","","","-50","","NA"
"-105.14","69.11","CAMBRIDGE BAY A","2400603","2022-01-04 13:00","2022","01","04","13:00","-36.4","","-40.2","","69","","","M","28","","16","","","M","102.40","","","","-50","","NA"
"-105.14","69.11","CAMBRIDGE BAY A","2400603","2022-01-04 14:00","2022","01","04","14:00","-36.8","","-40.5","","69","","","M","31","","17","","","M","102.35","","","","-51","","NA"
"-105.14","69.11","CAMBRIDGE BAY A","2400603","2022-01-04 15:00","2022","01","04","15:00","-37.2","","-41.0","","69","","","M","31","","20","","","M","102.33","","","","-52","","NA"
"-105.14","69.11","CAMBRIDGE BAY A","2400603","2022-01-04 16:00","2022","01","04","16:00","-37.7","","-41.5","","68","","","M","27","","16","","","M","102.31","","","","-51","","NA"
"-105.14","69.11","CAMBRIDGE BAY A","2400603","2022-01-04 17:00","2022","01","04","17:00","-37.1","","-40.9","","69","","","M","27","","18","","","M","102.28","","","","-51","","NA"
"-105.14","69.11","CAMBRIDGE BAY A","2400603","2022-01-04 18:00","2022","01","04","18:00","-36.4","","-40.1","","69","","","M","28","","25","","","M","102.21","","","","-53","","NA"
"-105.14","69.11","CAMBRIDGE BAY A","2400603","2022-01-04 19:00","2022","01","04","19:00","-36.6","","-40.4","","69","","","M","29","","24","","","M","102.12","","","","-53","","NA"
"-105.14","69.11","CAMBRIDGE BAY A","2400603","2022-01-04 20:00","2022","01","04","20:00","-35.9","","-39.7","","69","","","M","27","","20","","","M","102.06","","","","-51","","NA"
"-105.14","69.11","CAMBRIDGE BAY A","2400603","2022-01-04 21:00","2022","01","04","21:00","-34.9","","-38.6","","70","","","M","29","","27","","","M","102.02","","","","-51","","NA"
"-105.14","69.11","CAMBRIDGE BAY A","2400603","2022-01-04 22:00","2022","01","04","22:00","-33.2","","-36.9","","71","","","M","30","","30","","","M","101.89","","","","-50","","NA"
"-105.14","69.11","CAMBRIDGE BAY A","2400603","2022-01-04 23:00","2022","01","04","23:00","-31.2","","-34.7","","72","","","M","28","","22","","","M","101.84","","","","-45","","NA"
"-105.14","69.11","CAMBRIDGE BAY A","2400603","2022-01-05 00:00","2022","01","05","00:00","-30.7","","-34.2","","72","","","M","31","","30","","","M","101.78","","","","-47","","NA"
"-105.14","69.11","CAMBRIDGE BAY A","2400603","2022-01-05 01:00","2022","01","05","01:00","-29.2","","-32.6","","73","","","M","31","","29","","","M","101.70","","","","-44","","NA"
"-105.14","69.11","CAMBRIDGE BAY A","2400603","2022-01-05 02:00","2022","01","05","02:00","-29.4","","-32.7","","73","","","M","31","","36","","","M","101.62","","","","-46","","NA"
"-105.14","69.11","CAMBRIDGE BAY A","2400603","2022-01-05 03:00","2022","01","05","03:00","-30.5","","-33.9","","73","","","M","31","","33","","","M","101.62","","","","-47","","NA"
"-105.14","69.11","CAMBRIDGE BAY A","2400603","2022-01-05 04:00","2022","01","05","04:00","-29.2","","-32.5","","74","","","M","32","","27","","","M","101.59","","","","-44","","NA"
"-105.14","69.11","CAMBRIDGE BAY A","2400603","2022-01-05 05:00","2022","01","05","05:00","-29.3","","-32.7","","73","","","M","29","","23","","","M","101.56","","","","-43","","NA"
"-105.14","69.11","CAMBRIDGE BAY A","2400603","2022-01-05 06:00","2022","01","05","06:00","-30.1","","-33.6","","72","","","M","31","","28","","","M","101.48","","","","-45","","NA"
"-105.14","69.11","CAMBRIDGE BAY A","2400603","2022-01-05 07:00","2022","01","05","07:00","-30.5","","-34.0","","72","","","M","28","","22","","","M","101.45","","","","-44","","NA"
"-105.14","69.11","CAMBRIDGE BAY A","2400603","2022-01-05 08:00","2022","01","05","08:00","-30.4","","-33.8","","73","","","M","26","","22","","","M","101.40","","","","-44","","NA"
"-105.14","69.11","CAMBRIDGE BAY A","2400603","2022-01-05 09:00","2022","01","05","09:00","-30.2","","-33.6","","73","","","M","30","","27","","","M","101.26","","","","-45","","NA"
"-105.14","69.11","CAMBRIDGE BAY A","2400603","2022-01-05 10:00","2022","01","05","10:00","-29.1","","-32.5","","73","","","M","29","","28","","","M","101.20","","","","-44","","NA"
"-105.14","69.11","CAMBRIDGE BAY A","2400603","2022-01-05 11:00","2022","01","05","11:00","-28.4","","-31.7","","74","","","M","29","","31","","","M","101.10","","","","-44","","NA"
"-105.14","69.11","CAMBRIDGE BAY A","2400603","2022-01-05 12:00","2022","01","05","12:00","-27.4","","-30.4","","76","","","M","26","","27","","","M","101.04","","","","-42","","NA"
"-105.14","69.11","CAMBRIDGE BAY A","2400603","2022-01-05 13:00","2022","01","05","13:00","-25.5","","-28.5","","77","","","M","27","","29","","","M","100.88","","","","-40","","NA"
"-105.14","69.11","CAMBRIDGE BAY A","2400603","2022-01-05 14:00","2022","01","05","14:00","-24.6","","-27.5","","77","","","M","25","","29","","","M","100.77","","","","-38","","NA"
"-105.14","69.11","CAMBRIDGE BAY A","2400603","2022-01-05 15:00","2022","01","05","15:00","-23.8","","-26.5","","79","","","M","26","","34","","","M","100.67","","","","-38","","NA"
"-105.14","69.11","CAMBRIDGE BAY A","2400603","2022-01-05 16:00","2022","01","05","16:00","-23.2","","-25.9","","79","","","M","25","","36","","","M","100.52","","","","-38","","NA"
"-105.14","69.11","CAMBRIDGE BAY A","2400603","2022-01-05 17:00","2022","01","05","17:00","-22.3","","-25.0","","79","","","M","27","","32","","","M","100.38","","","","-36","","NA"
"-105.14","69.11","CAMBRIDGE BAY A","2400603","2022-01-05 18:00","2022","01","05","18:00","-22.8","","-25.5","","79","","","M","26","","41","","","M","100.24","","","","-38","","NA"
"-105.14","69.11","CAMBRIDGE BAY A","2400603","2022-01-05 19:00","2022","01","05","19:00","-22.5","","-25.2","","79","","","M","26","","46","","","M","100.04","","","","-38","","NA"
"-105.14","69.11","CAMBRIDGE BAY A","2400603","2022-01-05 20:00","2022","01","05","20:00","-22.0","","-24.6","","79","","","M","25","","42","","","M","99.88","","","","-37","","NA"
"-105.14","69.11","CAMBRIDGE BAY A","2400603","2022-01-05 21:00","2022","01","05","21:00","-21.5","","-24.1","","80","","","M","25","","39","","","M","99.73","","","","-36","","NA"
"-105.14","69.11","CAMBRIDGE BAY A","2400603","2022-01-05 22:00","2022","01","05","22:00","-21.0","","-23.5","","80","","","M","25","","38","","","M","99.60","","","","-35","","NA"
"-105.14","69.11","CAMBRIDGE BAY A","2400603","2022-01-05 23:00","2022","01","05","23:00","-20.4","","-22.9","","81","","","M","25","","39","","","M","99.44","","","","-35","","NA"
"-105.14","69.11","CAMBRIDGE BAY A","2400603","2022-01-06 00:00","2022","01","06","00:00","-20.3","","-22.7","","81","","","M","25","","33","","","M","99.33","","","","-33","","NA"
"-105.14","69.11","CAMBRIDGE BAY A","2400603","2022-01-06 01:00","2022","01","06","01:00","-19.9","","-22.3","","82","","","M","25","","32","","","M","99.21","","","","-33","","NA"
"-105.14","69.11","CAMBRIDGE BAY A","2400603","2022-01-06 02:00","2022","01","06","02:00","-19.0","","-21.3","","82","","","M","25","","28","","","M","99.12","","","","-31","","NA"
"-105.14","69.11","CAMBRIDGE BAY A","2400603","2022-01-06 03:00","2022","01","06","03:00","-18.9","","-21.2","","83","","","M","25","","27","","","M","99.02","","","","-31","","NA"
"-105.14","69.11","CAMBRIDGE BAY A","2400603","2022-01-06 04:00","2022","01","06","04:00","-18.9","","-21.1","","83","","","M","25","","25","","","M","98.92","","","","-30","","NA"
"-105.14","69.11","CAMBRIDGE BAY A","2400603","2022-01-06 05:00","2022","01","06","05:00","-18.9","","-21.3","","82","","","M","26","","21","","","M","98.82","","","","-29","","NA"
"-105.14","69.11","CAMBRIDGE BAY A","2400603","2022-01-06 06:00","2022","01","06","06:00","-19.1","","-21.3","","83","","","M","26","","21","","","M","98.74","","","","-30","","NA"
"-105.14","69.11","CAMBRIDGE BAY A","2400603","2022-01-06 07:00","2022","01","06","07:00","-19.3","","-21.6","","83","","","M","27","","23","","","M","98.65","","","","-30","","NA"
"-105.14","69.11","CAMBRIDGE BAY A","2400603","2022-01-06 08:00","2022","01","06","08:00","-19.7","","-22.1","","81","","","M","28","","17","","","M","98.62","","","","-29","","NA"
"-105.14","69.11","CAMBRIDGE BAY A","2400603","2022-01-06 09:00","2022","01","06","09:00","-20.6","","-23.1","","80","","","M","31","","17","","","M","98.58","","","","-30","","NA"
"-105.14","69.11","CAMBRIDGE BAY A","2400603","2022-01-06 10:00","2022","01","06","10:00","-20.2","","-22.9","","80","","","M","30","","19","","","M","98.56","","","","-30","","NA"
"-105.14","69.11","CAMBRIDGE BAY A","2400603","2022-01-06 11:00","2022","01","06","11:00","-20.2","","-23.0","","79","","","M","33","","21","","","M","98.51","","","","-31","","NA"
"-105.14","69.11","CAMBRIDGE BAY A","2400603","2022-01-06 12:00","2022","01","06","12:00","-20.2","","-23.1","","78","","","M","34","","20","","","M","98.51","","","","-31","","NA"
"-105.14","69.11","CAMBRIDGE BAY A","2400603","2022-01-06 13:00","2022","01","06","13:00","-20.1","","-23.0","","78","","","M","34","","19","","","M","98.54","","","","-30","","NA"
"-105.14","69.11","CAMBRIDGE BAY A","2400603","2022-01-06 14:00","2022","01","06","14:00","-20.3","","-23.3","","77","","","M","35","","10","","","M","98.54","","","","-28","","NA"
"-105.14","69.11","CAMBRIDGE BAY A","2400603","2022-01-06 15:00","2022","01","06","15:00","-21.1","","-24.1","","77","","","M","34","","14","","","M","98.58","","","","-30","","NA"
"-105.14","69.11","CAMBRIDGE BAY A","2400603","2022-01-06 16:00","2022","01","06","16:00","-22.1","","-25.2","","77","","","M","35","","14","","","M","98.63","","","","-31","","NA"
"-105.14","69.11","CAMBRIDGE BAY A","2400603","2022-01-06 17:00","2022","01","06","17:00","-22.7","","-25.7","","77","","","M","36","","12","","","M","98.64","","","","-31","","NA"
"-105.14","69.11","CAMBRIDGE BAY A","2400603","2022-01-06 18:00","2022","01","06","18:00","-23.2","","-26.2","","77","","","M","33","","19","","","M","98.63","","","","-34","","NA"
"-105.14","69.11","CAMBRIDGE BAY A","2400603","2022-01-06 19:00","2022","01","06","19:00","-23.9","","-27.1","","76","","","M","33","","18","","","M","98.62","","","","-35","","NA"
"-105.14","69.11","CAMBRIDGE BAY A","2400603","2022-01-06 20:00","2022","01","06","20:00","-24.6","","-27.7","","75","","","M","32","","20","","","M","98.62","","","","-36","","NA"
"-105.14","69.11","CAMBRIDGE BAY A","2400603","2022-01-06 21:00","2022","01","06","21:00","-25.3","","-28.5","","75","","","M","32","","22","","","M","98.65","","","","-38","","NA"
"-105.14","69.11","CAMBRIDGE BAY A","2400603","2022-01-06 22:00","2022","01","06","22:00","-25.8","","-29.0","","75","","","M","33","","22","","","M","98.66","","","","-38","","NA"
"-105.14","69.11","CAMBRIDGE BAY A","2400603","2022-01-06 23:00","2022","01","06","23:00","-25.9","","-29.0","","76","","","M","32","","17","","","M","98.65","","","","-37","","NA"
"-105.14","69.11","CAMBRIDGE BAY A","2400603","2022-01-07 00:00","2022","01","07","00:00","-25.4","","-28.5","","76","","","M","33","","20","","","M","98.67","","","","-37","","NA"
"-105.14","69.11","CAMBRIDGE BAY A","2400603","2022-01-07 01:00","2022","01","07","01:00","-25.2","","-28.3","","75","","","M","33","","24","","","M","98.67","","","","-38","","NA"
"-105.14","69.11","CAMBRIDGE BAY A","2400603","2022-01-07 02:00","2022","01","07","02:00","-25.7","","-28.9","","75","","","M","33","","18","","","M","98.68","","","","-37","","NA"
"-105.14","69.11","CAMBRIDGE BAY A","2400603","2022-01-07 03:00","2022","01","07","03:00","-27.0","","-30.1","","75","","","M","32","","17","","","M","98.72","","","","-38","","NA"
"-105.14","69.11","CAMBRIDGE BAY A","2400603","2022-01-07 04:00","2022","01","07","04:00","-27.5","","-30.5","","77","","","M","25","","13","","","M","98.76","","","","-38","","NA"
"-105.14","69.11","CAMBRIDGE BAY A","2400603","2022-01-07 05:00","2022","01","07","05:00","-29.3","","-32.3","","76","","","M","31","","14","","","M","98.78","","","","-40","","NA"
"-105.14","69.11","CAMBRIDGE BAY A","2400603","2022-01-07 06:00","2022","01","07","06:00","-30.5","","-33.6","","75","","","M","31","","16","","","M","98.77","","","","-42","","NA"
"-105.14","69.11","CAMBRIDGE BAY A","2400603","2022-01-07 07:00","2022","01","07","07:00","-30.0","","-33.1","","75","","","M","31","","17","","","M","98.78","","","","-42","","NA"
"-105.14","69.11","CAMBRIDGE BAY A","2400603","2022-01-07 08:00","2022","01","07","08:00","-31.2","","-34.4","","74","","","M","31","","17","","","M","98.78","","","","-44","","NA"
"-105.14","69.11","CAMBRIDGE BAY A","2400603","2022-01-07 09:00","2022","01","07","09:00","-31.8","","-35.0","","74","","","M","32","","12","","","M","98.82","","","","-42","","NA"
"-105.14","69.11","CAMBRIDGE BAY A","2400603","2022-01-07 10:00","2022","01","07","10:00","-33.0","","-36.2","","73","","","M","33","","13","","","M","98.85","","","","-44","","NA"
"-105.14","69.11","CAMBRIDGE BAY A","2400603","2022-01-07 11:00","2022","01","07","11:00","-31.2","","-34.3","","75","","","M","33","","17","","","M","98.88","","","","-44","","NA"
"-105.14","69.11","CAMBRIDGE BAY A","2400603","2022-01-07 12:00","2022","01","07","12:00","-32.7","","-36.0","","74","","","M","33","","16","","","M","98.91","","","","-45","","NA"
"-105.14","69.11","CAMBRIDGE BAY A","2400603","2022-01-07 13:00","2022","01","07","13:00","-32.4","","-35.6","","74","","","M","33","","19","","","M","98.95","","","","-46","","NA"
"-105.14","69.11","CAMBRIDGE BAY A","2400603","2022-01-07 14:00","2022","01","07","14:00","-32.4","","-35.6","","74","","","M","32","","14","","","M","98.99","","","","-44","","NA"
"-105.14","69.11","CAMBRIDGE BAY A","2400603","2022-01-07 15:00","2022","01","07","15:00","-32.0","","-35.2","","74","","","M","33","","14","","","M","99.02","","","","-43","","NA"
"-105.14","69.11","CAMBRIDGE BAY A","2400603","2022-01-07 16:00","2022","01","07","16:00","-32.0","","-35.3","","73","","","M","32","","21","","","M","99.07","","","","-46","","NA"
"-105.14","69.11","CAMBRIDGE BAY A","2400603","2022-01-07 17:00","2022","01","07","17:00","-30.4","","-33.6","","74","","","M","34","","17","","","M","99.12","","","","-43","","NA"
"-105.14","69.11","CAMBRIDGE BAY A","2400603","2022-01-07 18:00","2022","01","07","18:00","-29.3","","-32.5","","74","","","M","36","","21","","","M","99.14","","","","-43","","NA"
"-105.14","69.11","CAMBRIDGE BAY A","2400603","2022-01-07 19:00","2022","01","07","19:00","-29.5","","-32.8","","74","","","M","36","","18","","","M","99.19","","","","-42","","NA"
"-105.14","69.11","CAMBRIDGE BAY A","2400603","2022-01-07 20:00","2022","01","07","20:00","-29.8","","-33.1","","73","","","M","1","","18","","","M","99.23","","","","-42","","NA"
"-105.14","69.11","CAMBRIDGE BAY A","2400603","2022-01-07 21:00","2022","01","07","21:00","-30.5","","-33.9","","73","","","M","36","","14","","","M","99.28","","","","-42","","NA"
"-105.14","69.11","CAMBRIDGE BAY A","2400603","2022-01-07 22:00","2022","01","07","22:00","-30.3","","-33.8","","72","","","M","36","","19","","","M","99.31","","","","-43","","NA"
"-105.14","69.11","CAMBRIDGE BAY A","2400603","2022-01-07 23:00","2022","01","07","23:00","-30.7","","-34.1","","73","","","M","33","","13","","","M","99.40","","","","-41","","NA"
"-105.14","69.11","CAMBRIDGE BAY A","2400603","2022-01-08 00:00","2022","01","08","00:00","-30.9","","-34.3","","73","","","M","36","","19","","","M","99.45","","","","-44","","NA"
"-105.14","69.11","CAMBRIDGE BAY A","2400603","2022-01-08 01:00","2022","01","08","01:00","-31.8","","-35.2","","72","","","M","1","","14","","","M","99.50","","","","-43","","NA"
"-105.14","69.11","CAMBRIDGE BAY A","2400603","2022-01-08 02:00","2022","01","08","02:00","-31.8","","-35.3","","72","","","M","1","","17","","","M","99.56","","","","-44","","NA"
"-105.14","69.11","CAMBRIDGE BAY A","2400603","2022-01-08 03:00","2022","01","08","03:00","-32.1","","-35.6","","72","","","M","1","","22","","","M","99.60","","","","-46","","NA"
"-105.14","69.11","CAMBRIDGE BAY A","2400603","2022-01-08 04:00","2022","01","08","04:00","-32.5","","-36.0","","72","","","M","36","","12","","","M","99.69","","","","-43","","NA"
"-105.14","69.11","CAMBRIDGE BAY A","2400603","2022-01-08 05:00","2022","01","08","05:00","-32.4","","-35.9","","72","","","M","1","","15","","","M","99.75","","","","-44","","NA"
"-105.14","69.11","CAMBRIDGE BAY A","2400603","2022-01-08 06:00","2022","01","08","06:00","-32.1","","-35.5","","73","","","M","1","","10","","","M","99.79","","","","-42","","NA"
"-105.14","69.11","CAMBRIDGE BAY A","2400603","2022-01-08 07:00","2022","01","08","07:00","-32.5","","-36.0","","72","","","M","4","","17","","","M","99.87","","","","-45","","NA"
"-105.14","69.11","CAMBRIDGE BAY A","2400603","2022-01-08 08:00","2022","01","08","08:00","-32.7","","-36.2","","72","","","M","4","","24","","","M","99.93","","","","-48","","NA"
"-105.14","69.11","CAMBRIDGE BAY A","2400603","2022-01-08 09:00","2022","01","08","09:00","-33.0","","-36.5","","72","","","M","2","","27","","","M","99.96","","","","-49","","NA"
"-105.14","69.11","CAMBRIDGE BAY A","2400603","2022-01-08 10:00","2022","01","08","10:00","-33.6","","-37.1","","71","","","M","2","","22","","","M","100.04","","","","-48","","NA"
"-105.14","69.11","CAMBRIDGE BAY A","2400603","2022-01-08 11:00","2022","01","08","11:00","-33.9","","-37.4","","71","","","M","2","","19","","","M","100.11","","","","-48","","NA"
"-105.14","69.11","CAMBRIDGE BAY A","2400603","2022-01-08 12:00","2022","01","08","12:00","-34.4","","-38.0","","71","","","M","2","","17","","","M","100.16","","","","-48","","NA"
"-105.14","69.11","CAMBRIDGE BAY A","2400603","2022-01-08 13:00","2022","01","08","13:00","-33.6","","-37.1","","71","","","M","36","","14","","","M","100.24","","","","-45","","NA"
"-105.14","69.11","CAMBRIDGE BAY A","2400603","2022-01-08 14:00","2022","01","08","14:00","-34.0","","-37.5","","71","","","M","1","","18","","","M","100.29","","","","-47","","NA"
"-105.14","69.11","CAMBRIDGE BAY A","2400603","2022-01-08 15:00","2022","01","08","15:00","-34.5","","-38.0","","71","","","M","1","","16","","","M","100.38","","","","-47","","NA"
"-105.14","69.11","CAMBRIDGE BAY A","2400603","2022-01-08 16:00","2022","01","08","16:00","-34.5","","-38.1","","71","","","M","35","","16","","","M","100.45","","","","-47","","NA"
"-105.14","69.11","CAMBRIDGE BAY A","2400603","2022-01-08 17:00","2022","01","08","17:00","-34.6","","-38.2","","70","","","M","36","","12","","","M","100.50","","","","-46","","NA"
"-105.14","69.11","CAMBRIDGE BAY A","2400603","2022-01-08 18:00","2022","01","08","18:00","-34.9","","-38.5","","70","","","M","31","","9","","","M","100.51","","","","-44","","NA"
"-105.14","69.11","CAMBRIDGE BAY A","2400603","2022-01-08 19:00","2022","01","08","19:00","-35.7","","-39.3","","71","","","M","34","","15","","","M","100.53","","","","-48","","NA"
"-105.14","69.11","CAMBRIDGE BAY A","2400603","2022-01-08 20:00","2022","01","08","20:00","-35.2","","-38.8","","71","","","M","33","","9","","","M","100.59","","","","-45","","NA"
"-105.14","69.11","CAMBRIDGE BAY A","2400603","2022-01-08 21:00","2022","01","08","21:00","-36.2","","-39.8","","70","","","M","32","","17","","","M","100.63","","","","-50","","NA"
"-105.14","69.11","CAMBRIDGE BAY A","2400603","2022-01-08 22:00","2022","01","08","22:00","-35.2","","-38.6","","72","","","M","35","","10","","","M","100.67","","","","-45","","NA"
"-105.14","69.11","CAMBRIDGE BAY A","2400603","2022-01-08 23:00","2022","01","08","23:00","-36.1","","-39.6","","71","","","M","31","","17","","","M","100.70","","","","-50","","NA"
"-105.14","69.11","CAMBRIDGE BAY A","2400603","2022-01-09 00:00","2022","01","09","00:00","-36.4","","-39.9","","71","","","M","32","","18","","","M","100.72","","","","-50","","NA"
"-105.14","69.11","CAMBRIDGE BAY A","2400603","2022-01-09 01:00","2022","01","09","01:00","-35.7","","-39.2","","71","","","M","31","","21","","","M","100.77","","","","-51","","NA"
"-105.14","69.11","CAMBRIDGE BAY A","2400603","2022-01-09 02:00","2022","01","09","02:00","-35.6","","-39.4","","69","","","M","31","","20","","","M","100.82","","","","-50","","NA"
"-105.14","69.11","CAMBRIDGE BAY A","2400603","2022-01-09 03:00","2022","01","09","03:00","-35.5","","-39.3","","70","","","M","31","","22","","","M","100.84","","","","-51","","NA"
"-105.14","69.11","CAMBRIDGE BAY A","2400603","2022-01-09 04:00","2022","01","09","04:00","-35.6","","-39.3","","70","","","M","32","","23","","","M","100.88","","","","-51","","NA"
"-105.14","69.11","CAMBRIDGE BAY A","2400603","2022-01-09 05:00","2022","01","09","05:00","-34.7","","-38.4","","70","","","M","31","","26","","","M","100.92","","","","-51","","NA"
"-105.14","69.11","CAMBRIDGE BAY A","2400603","2022-01-09 06:00","2022","01","09","06:00","-31.9","","-35.5","","72","","","M","33","","20","","","M","100.89","","","","-45","","NA"
"-105.14","69.11","CAMBRIDGE BAY A","2400603","2022-01-09 07:00","2022","01","09","07:00","-30.1","","-33.6","","72","","","M","30","","18","","","M","100.90","","","","-43","","NA"
"-105.14","69.11","CAMBRIDGE BAY A","2400603","2022-01-09 08:00","2022","01","09","08:00","-28.8","","-32.2","","73","","","M","29","","21","","","M","100.92","","","","-42","","NA"
"-105.14","69.11","CAMBRIDGE BAY A","2400603","2022-01-09 09:00","2022","01","09","09:00","-28.4","","-31.8","","73","","","M","29","","20","","","M","100.98","","","","-41","","NA"
"-105.14","69.11","CAMBRIDGE BAY A","2400603","2022-01-09 10:00","2022","01","09","10:00","-28.8","","-32.3","","72","","","M","28","","18","","","M","100.94","","","","-41","","NA"
"-105.14","69.11","CAMBRIDGE BAY A","2400603","2022-01-09 11:00","2022","01","09","11:00","-29.1","","-32.5","","73","","","M","28","","24","","","M","100.97","","","","-43","","NA"
"-105.14","69.11","CAMBRIDGE BAY A","2400603","2022-01-09 12:00","2022","01","09","12:00","-29.9","","-33.3","","73","","","M","27","","33","","","M","101.02","","","","-46","","NA"
"-105.14","69.11","CAMBRIDGE BAY A","2400603","2022-01-09 13:00","2022","01","09","13:00","-30.4","","-33.9","","72","","","M","27","","22","","","M","101.02","","","","-44","","NA"
"-105.14","69.11","CAMBRIDGE BAY A","2400603","2022-01-09 14:00","2022","01","09","14:00","-30.3","","-33.7","","73","","","M","27","","22","","","M","100.99","","","","-44","","NA"
"-105.14","69.11","CAMBRIDGE BAY A","2400603","2022-01-09 15:00","2022","01","09","15:00","-29.5","","-32.8","","74","","","M","26","","26","","","M","101.01","","","","-44","","NA"
"-105.14","69.11","CAMBRIDGE BAY A","2400603","2022-01-09 16:00","2022","01","09","16:00","-29.4","","-32.6","","74","","","M","27","","20","","","M","101.02","","","","-42","","NA"
"-105.14","69.11","CAMBRIDGE BAY A","2400603","2022-01-09 17:00","2022","01","09","17:00","-28.3","","-31.5","","75","","","M","27","","20","","","M","100.96","","","","-41","","NA"
"-105.14","69.11","CAMBRIDGE BAY A","2400603","2022-01-09 18:00","2022","01","09","18:00","-29.2","","-32.5","","74","","","M","28","","26","","","M","100.92","","","","-44","","NA"
"-105.14","69.11","CAMBRIDGE BAY A","2400603","2022-01-09 19:00","2022","01","09","19:00","-30.8","","-34.2","","73","","","M","29","","28","","","M","100.88","","","","-46","","NA"
"-105.14","69.11","CAMBRIDGE BAY A","2400603","2022-01-09 20:00","2022","01","09","20:00","-32.2","","-35.7","","72","","","M","31","","29","","","M","100.89","","","","-48","","NA"
"-105.14","69.11","CAMBRIDGE BAY A","2400603","2022-01-09 21:00","2022","01","09","21:00","-32.8","","-36.4","","71","","","M","31","","34","","","M","100.88","","","","-50","","NA"
"-105.14","69.11","CAMBRIDGE BAY A","2400603","2022-01-09 22:00","2022","01","09","22:00","-33.0","","-36.6","","71","","","M","29","","35","","","M","100.89","","","","-51","","NA"
"-105.14","69.11","CAMBRIDGE BAY A","2400603","2022-01-09 23:00","2022","01","09","23:00","-33.0","","-36.6","","71","","","M","28","","27","","","M","100.86","","","","-49","","NA"
"-105.14","69.11","CAMBRIDGE BAY A","2400603","2022-01-10 00:00","2022","01","10","00:00","-33.0","","-36.6","","71","","","M","27","","28","","","M","100.86","","","","-49","","NA"
"-105.14","69.11","CAMBRIDGE BAY A","2400603","2022-01-10 01:00","2022","01","10","01:00","-33.6","","-37.2","","71","","","M","29","","22","","","M","100.82","","","","-48","","NA"
"-105.14","69.11","CAMBRIDGE BAY A","2400603","2022-01-10 02:00","2022","01","10","02:00","-33.9","","-37.6","","70","","","M","29","","27","","","M","100.79","","","","-50","","NA"
"-105.14","69.11","CAMBRIDGE BAY A","2400603","2022-01-10 03:00","2022","01","10","03:00","-33.7","","-37.4","","70","","","M","30","","26","","","M","100.78","","","","-49","","NA"
"-105.14","69.11","CAMBRIDGE BAY A","2400603","2022-01-10 04:00","2022","01","10","04:00","-33.9","","-37.5","","71","","","M","28","","23","","","M","100.79","","","","-49","","NA"
"-105.14","69.11","CAMBRIDGE BAY A","2400603","2022-01-10 05:00","2022","01","10","05:00","-33.4","","-37.0","","71","","","M","29","","22","","","M","100.70","","","","-48","","NA"
"-105.14","69.11","CAMBRIDGE BAY A","2400603","2022-01-10 06:00","2022","01","10","06:00","-32.4","","-35.9","","71","","","M","28","","28","","","M","100.68","","","","-48","","NA"
"-105.14","69.11","CAMBRIDGE BAY A","2400603","2022-01-10 07:00","2022","01","10","07:00","-31.1","","-34.6","","72","","","M","27","","27","","","M","100.60","","","","-46","","NA"
"-105.14","69.11","CAMBRIDGE BAY A","2400603","2022-01-10 08:00","2022","01","10","08:00","-29.7","","-33.1","","73","","","M","28","","29","","","M","100.47","","","","-45","","NA"
"-105.14","69.11","CAMBRIDGE BAY A","2400603","2022-01-10 09:00","2022","01","10","09:00","-28.9","","-32.3","","73","","","M","28","","27","","","M","100.40","","","","-44","","NA"
"-105.14","69.11","CAMBRIDGE BAY A","2400603","2022-01-10 10:00","2022","01","10","10:00","-28.2","","-31.5","","74","","","M","28","","26","","","M","100.34","","","","-42","","NA"
"-105.14","69.11","CAMBRIDGE BAY A","2400603","2022-01-10 11:00","2022","01","10","11:00","-28.0","","-31.2","","74","","","M","29","","27","","","M","100.27","","","","-42","","NA"
"-105.14","69.11","CAMBRIDGE BAY A","2400603","2022-01-10 12:00","2022","01","10","12:00","-28.7","","-31.9","","74","","","M","28","","18","","","M","100.23","","","","-41","","NA"
"-105.14","69.11","CAMBRIDGE BAY A","2400603","2022-01-10 13:00","2022","01","10","13:00","-29.0","","-32.4","","73","","","M","29","","28","","","M","100.17","","","","-44","","NA"
"-105.14","69.11","CAMBRIDGE BAY A","2400603","2022-01-10 14:00","2022","01","10","14:00","-29.8","","-33.3","","73","","","M","28","","22","","","M","100.15","","","","-43","","NA"
"-105.14","69.11","CAMBRIDGE BAY A","2400603","2022-01-10 15:00","2022","01","10","15:00","-31.1","","-34.6","","72","","","M","28","","34","","","M","100.08","","","","-48","","NA"
"-105.14","69.11","CAMBRIDGE BAY A","2400603","2022-01-10 16:00","2022","01","10","16:00","-31.8","","-35.3","","72","","","M","29","","27","","","M","100.07","","","","-47","","NA"
"-105.14","69.11","CAMBRIDGE BAY A","2400603","2022-01-10 17:00","2022","01","10","17:00","-32.1","","-35.8","","71","","","M","30","","28","","","M","100.01","","","","-48","","NA"
"-105.14","69.11","CAMBRIDGE BAY A","2400603","2022-01-10 18:00","2022","01","10","18:00","-33.3","","-36.9","","71","","","M","29","","25","","","M","99.95","","","","-49","","NA"
"-105.14","69.11","CAMBRIDGE BAY A","2400603","2022-01-10 19:00","2022","01","10","19:00","-33.5","","-37.1","","71","","","M","29","","14","","","M","99.95","","","","-45","","NA"
"-105.14","69.11","CAMBRIDGE BAY A","2400603","2022-01-10 20:00","2022","01","10","20:00","-33.7","","-37.4","","70","","","M","31","","26","","","M","99.91","","","","-49","","NA"
"-105.14","69.11","CAMBRIDGE BAY A","2400603","2022-01-10 21:00","2022","01","10","21:00","-34.1","","-37.8","","70","","","M","30","","23","","","M","99.90","","","","-49","","NA"
"-105.14","69.11","CAMBRIDGE BAY A","2400603","2022-01-10 22:00","2022","01","10","22:00","-34.2","","-37.9","","70","","","M","31","","17","","","M","99.96","","","","-47","","NA"
"-105.14","69.11","CAMBRIDGE BAY A","2400603","2022-01-10 23:00","2022","01","10","23:00","-34.0","","-37.7","","70","","","M","31","","21","","","M","99.93","","","","-48","","NA"
"-105.14","69.11","CAMBRIDGE BAY A","2400603","2022-01-11 00:00","2022","01","11","00:00","-33.7","","-37.5","","70","","","M","32","","23","","","M","99.96","","","","-49","","NA"
"-105.14","69.11","CAMBRIDGE BAY A","2400603","2022-01-11 01:00","2022","01","11","01:00","-32.5","","-36.2","","70","","","M","31","","31","","","M","100.00","","","","-49","","NA"
"-105.14","69.11","CAMBRIDGE BAY A","2400603","2022-01-11 02:00","2022","01","11","02:00","-32.6","","-36.3","","70","","","M","32","","34","","","M","99.97","","","","-50","","NA"
"-105.14","69.11","CAMBRIDGE BAY A","2400603","2022-01-11 03:00","2022","01","11","03:00","-33.6","","-37.4","","70","","","M","31","","32","","","M","99.92","","","","-51","","NA"
"-105.14","69.11","CAMBRIDGE BAY A","2400603","2022-01-11 04:00","2022","01","11","04:00","-33.7","","-37.4","","70","","","M","32","","41","","","M","99.90","","","","-53","","NA"
"-105.14","69.11","CAMBRIDGE BAY A","2400603","2022-01-11 05:00","2022","01","11","05:00","-33.9","","-37.6","","70","","","M","32","","42","","","M","99.95","","","","-53","","NA"
"-105.14","69.11","CAMBRIDGE BAY A","2400603","2022-01-11 06:00","2022","01","11","06:00","-34.7","","-38.4","","70","","","M","31","","33","","","M","99.94","","","","-52","","NA"
"-105.14","69.11","CAMBRIDGE BAY A","2400603","2022-01-11 07:00","2022","01","11","07:00","-34.8","","-38.6","","69","","","M","31","","38","","","M","99.88","","","","-54","","NA"
"-105.14","69.11","CAMBRIDGE BAY A","2400603","2022-01-11 08:00","2022","01","11","08:00","-34.6","","-38.5","","69","","","M","30","","36","","","M","99.86","","","","-53","","NA"
"-105.14","69.11","CAMBRIDGE BAY A","2400603","2022-01-11 09:00","2022","01","11","09:00","-34.6","","-38.3","","70","","","M","29","","30","","","M","99.90","","","","-52","","NA"
"-105.14","69.11","CAMBRIDGE BAY A","2400603","2022-01-11 10:00","2022","01","11","10:00","-34.2","","-37.8","","71","","","M","29","","36","","","M","99.85","","","","-52","","NA"
"-105.14","69.11","CAMBRIDGE BAY A","2400603","2022-01-11 11:00","2022","01","11","11:00","-33.6","","-37.3","","71","","","M","28","","41","","","M","99.82","","","","-52","","NA"
"-105.14","69.11","CAMBRIDGE BAY A","2400603","2022-01-11 12:00","2022","01","11","12:00","-33.3","","-36.9","","71","","","M","29","","40","","","M","99.74","","","","-52","","NA"
"-105.14","69.11","CAMBRIDGE BAY A","2400603","2022-01-11 13:00","2022","01","11","13:00","-33.0","","-36.6","","71","","","M","30","","43","","","M","99.73","","","","-52","","NA"
"-105.14","69.11","CAMBRIDGE BAY A","2400603","2022-01-11 14:00","2022","01","11","14:00","-32.6","","-36.2","","71","","","M","30","","45","","","M","99.71","","","","-52","","NA"
"-105.14","69.11","CAMBRIDGE BAY A","2400603","2022-01-11 15:00","2022","01","11","15:00","-31.9","","-35.5","","72","","","M","31","","52","","","M","99.64","","","","-52","","NA"
"-105.14","69.11","CAMBRIDGE BAY A","2400603","2022-01-11 16:00","2022","01","11","16:00","-31.4","","-34.9","","72","","","M","30","","51","","","M","99.66","","","","-51","","NA"
"-105.14","69.11","CAMBRIDGE BAY A","2400603","2022-01-11 17:00","2022","01","11","17:00","-31.2","","-34.7","","72","","","M","29","","44","","","M","99.71","","","","-50","","NA"
"-105.14","69.11","CAMBRIDGE BAY A","2400603","2022-01-11 18:00","2022","01","11","18:00","-30.0","","-33.3","","73","","","M","30","","46","","","M","99.70","","","","-48","","NA"
"-105.14","69.11","CAMBRIDGE BAY A","2400603","2022-01-11 19:00","2022","01","11","19:00","-30.6","","-34.1","","72","","","M","30","","47","","","M","99.68","","","","-49","","NA"
"-105.14","69.11","CAMBRIDGE BAY A","2400603","2022-01-11 20:00","2022","01","11","20:00","-30.4","","-33.9","","73","","","M","32","","48","","","M","99.67","","","","-49","","NA"
"-105.14","69.11","CAMBRIDGE BAY A","2400603","2022-01-11 21:00","2022","01","11","21:00","-30.3","","-33.8","","72","","","M","31","","41","","","M","99.75","","","","-48","","NA"
"-105.14","69.11","CAMBRIDGE BAY A","2400603","2022-01-11 22:00","2022","01","11","22:00","-30.7","","-34.2","","72","","","M","32","","37","","","M","99.80","","","","-48","","NA"
"-105.14","69.11","CAMBRIDGE BAY A","2400603","2022-01-11 23:00","2022","01","11","23:00","-30.2","","-33.7","","72","","","M","31","","35","","","M","99.92","","","","-47","","NA"
"-105.14","69.11","CAMBRIDGE BAY A","2400603","2022-01-12 00:00","2022","01","12","00:00","-30.1","","-33.6","","72","","","M","31","","41","","","M","99.92","","","","-48","","NA"
"-105.14","69.11","CAMBRIDGE BAY A","2400603","2022-01-12 01:00","2022","01","12","01:00","-30.4","","-33.8","","72","","","M","31","","39","","","M","99.95","","","","-48","","NA"
"-105.14","69.11","CAMBRIDGE BAY A","2400603","2022-01-12 02:00","2022","01","12","02:00","-30.4","","-33.9","","72","","","M","31","","32","","","M","100.05","","","","-47","","NA"
"-105.14","69.11","CAMBRIDGE BAY A","2400603","2022-01-12 03:00","2022","01","12","03:00","-30.6","","-34.2","","71","","","M","31","","27","","","M","100.14","","","","-46","","NA"
"-105.14","69.11","CAMBRIDGE BAY A","2400603","2022-01-12 04:00","2022","01","12","04:00","-30.7","","-34.4","","71","","","M","31","","22","","","M","100.27","","","","-45","","NA"
"-105.14","69.11","CAMBRIDGE BAY A","2400603","2022-01-12 05:00","2022","01","12","05:00","-31.0","","-34.6","","71","","","M","32","","24","","","M","100.31","","","","-45","","NA"
"-105.14","69.11","CAMBRIDGE BAY A","2400603","2022-01-12 06:00","2022","01","12","06:00","-31.1","","-34.8","","71","","","M","29","","18","","","M","100.44","","","","-44","","NA"
"-105.14","69.11","CAMBRIDGE BAY A","2400603","2022-01-12 07:00","2022","01","12","07:00","-31.6","","-35.4","","70","","","M","31","","24","","","M","100.48","","","","-46","","NA"
"-105.14","69.11","CAMBRIDGE BAY A","2400603","2022-01-12 08:00","2022","01","12","08:00","-31.9","","-35.7","","70","","","M","32","","20","","","M","100.57","","","","-45","","NA"
"-105.14","69.11","CAMBRIDGE BAY A","2400603","2022-01-12 09:00","2022","01","12","09:00","-32.3","","-36.0","","70","","","M","31","","24","","","M","100.62","","","","-47","","NA"
"-105.14","69.11","CAMBRIDGE BAY A","2400603","2022-01-12 10:00","2022","01","12","10:00","-33.2","","-37.1","","69","","","M","31","","22","","","M","100.72","","","","-48","","NA"
"-105.14","69.11","CAMBRIDGE BAY A","2400603","2022-01-12 11:00","2022","01","12","11:00","-33.4","","-37.2","","70","","","M","31","","16","","","M","100.81","","","","-46","","NA"
"-105.14","69.11","CAMBRIDGE BAY A","2400603","2022-01-12 12:00","2022","01","12","12:00","-33.3","","-37.0","","70","","","M","35","","15","","","M","100.87","","","","-45","","NA"
"-105.14","69.11","CAMBRIDGE BAY A","2400603","2022-01-12 13:00","2022","01","12","13:00","-33.6","","-37.4","","70","","","M","33","","18","","","M","100.97","","","","-47","","NA"
"-105.14","69.11","CAMBRIDGE BAY A","2400603","2022-01-12 14:00","2022","01","12","14:00","-33.3","","-37.0","","70","","","M","30","","15","","","M","101.11","","","","-45","","NA"
"-105.14","69.11","CAMBRIDGE BAY A","2400603","2022-01-12 15:00","2022","01","12","15:00","-33.2","","-36.9","","70","","","M","29","","13","","","M","101.18","","","","-44","","NA"
"-105.14","69.11","CAMBRIDGE BAY A","2400603","2022-01-12 16:00","2022","01","12","16:00","-33.6","","-37.3","","70","","","M","33","","10","","","M","101.20","","","","-43","","NA"
"-105.14","69.11","CAMBRIDGE BAY A","2400603","2022-01-12 17:00","2022","01","12","17:00","-33.6","","-37.2","","70","","","M","34","","1","","","M","101.26","","","","-35","","NA"
"-105.14","69.11","CAMBRIDGE BAY A","2400603","2022-01-12 18:00","2022","01","12","18:00","-32.8","","-36.4","","71","","","M","22","","3","","","M","101.30","","","","-36","","NA"
"-105.14","69.11","CAMBRIDGE BAY A","2400603","2022-01-12 19:00","2022","01","12","19:00","-33.2","","-36.7","","72","","","M","7","","1","","","M","101.29","","","","-34","","NA"
"-105.14","69.11","CAMBRIDGE BAY A","2400603","2022-01-12 20:00","2022","01","12","20:00","-33.0","","-36.4","","72","","","M","13","","5","","","M","101.33","","","","-39","","NA"
"-105.14","69.11","CAMBRIDGE BAY A","2400603","2022-01-12 21:00","2022","01","12","21:00","-32.0","","-35.2","","74","","","M","16","","8","","","M","101.33","","","","-40","","NA"
"-105.14","69.11","CAMBRIDGE BAY A","2400603","2022-01-12 22:00","2022","01","12","22:00","-31.2","","-34.5","","73","","","M","17","","7","","","M","101.34","","","","-39","","NA"
"-105.14","69.11","CAMBRIDGE BAY A","2400603","2022-01-12 23:00","2022","01","12","23:00","-30.0","","-33.4","","73","","","M","18","","16","","","M","101.36","","","","-42","","NA"
"-105.14","69.11","CAMBRIDGE BAY A","2400603","2022-01-13 00:00","2022","01","13","00:00","-29.4","","-32.8","","73","","","M","18","","14","","","M","101.31","","","","-40","","NA"
"-105.14","69.11","CAMBRIDGE BAY A","2400603","2022-01-13 01:00","2022","01","13","01:00","-28.9","","-32.5","","72","","","M","14","","13","","","M","101.25","","","","-39","","NA"
"-105.14","69.11","CAMBRIDGE BAY A","2400603","2022-01-13 02:00","2022","01","13","02:00","-28.5","","-32.2","","71","","","M","15","","14","","","M","101.28","","","","-39","","NA"
"-105.14","69.11","CAMBRIDGE BAY A","2400603","2022-01-13 03:00","2022","01","13","03:00","-28.0","","-31.5","","73","","","M","14","","16","","","M","101.24","","","","-39","","NA"
"-105.14","69.11","CAMBRIDGE BAY A","2400603","2022-01-13 04:00","2022","01","13","04:00","-27.2","","-30.8","","72","","","M","16","","15","","","M","101.23","","","","-38","","NA"
"-105.14","69.11","CAMBRIDGE BAY A","2400603","2022-01-13 05:00","2022","01","13","05:00","-26.7","","-30.1","","73","","","M","16","","21","","","M","101.22","","","","-39","","NA"
"-105.14","69.11","CAMBRIDGE BAY A","2400603","2022-01-13 06:00","2022","01","13","06:00","-26.6","","-30.0","","73","","","M","16","","16","","","M","101.18","","","","-38","","NA"
"-105.14","69.11","CAMBRIDGE BAY A","2400603","2022-01-13 07:00","2022","01","13","07:00","-26.0","","-29.3","","74","","","M","18","","14","","","M","101.16","","","","-36","","NA"
"-105.14","69.11","CAMBRIDGE BAY A","2400603","2022-01-13 08:00","2022","01","13","08:00","-25.8","","-28.9","","76","","","M","17","","14","","","M","101.16","","","","-36","","NA"
"-105.14","69.11","CAMBRIDGE BAY A","2400603","2022-01-13 09:00","2022","01","13","09:00","-25.6","","-28.7","","76","","","M","18","","14","","","M","101.16","","","","-36","","NA"
"-105.14","69.11","CAMBRIDGE BAY A","2400603","2022-01-13 10:00","2022","01","13","10:00","-25.1","","-28.0","","77","","","M","20","","10","","","M","101.15","","","","-33","","NA"
"-105.14","69.11","CAMBRIDGE BAY A","2400603","2022-01-13 11:00","2022","01","13","11:00","-24.8","","-27.6","","78","","","M","19","","9","","","M","101.19","","","","-32","","NA"
"-105.14","69.11","CAMBRIDGE BAY A","2400603","2022-01-13 12:00","2022","01","13","12:00","-24.1","","-26.9","","78","","","M","19","","9","","","M","101.18","","","","-32","","NA"
"-105.14","69.11","CAMBRIDGE BAY A","2400603","2022-01-13 13:00","2022","01","13","13:00","-23.9","","-26.5","","80","","","M","26","","7","","","M","101.21","","","","-30","","NA"
"-105.14","69.11","CAMBRIDGE BAY A","2400603","2022-01-13 14:00","2022","01","13","14:00","-26.2","","-28.9","","78","","","M","29","","12","","","M","101.26","","","","-36","","NA"
"-105.14","69.11","CAMBRIDGE BAY A","2400603","2022-01-13 15:00","2022","01","13","15:00","-27.7","","-30.9","","75","","","M","31","","28","","","M","101.32","","","","-42","","NA"
"-105.14","69.11","CAMBRIDGE BAY A","2400603","2022-01-13 16:00","2022","01","13","16:00","-28.0","","-31.3","","74","","","M","31","","28","","","M","101.38","","","","-43","","NA"
"-105.14","69.11","CAMBRIDGE BAY A","2400603","2022-01-13 17:00","2022","01","13","17:00","-28.7","","-32.0","","73","","","M","29","","25","","","M","101.42","","","","-43","","NA"
"-105.14","69.11","CAMBRIDGE BAY A","2400603","2022-01-13 18:00","2022","01","13","18:00","-29.5","","-32.8","","73","","","M","28","","31","","","M","101.45","","","","-45","","NA"
"-105.14","69.11","CAMBRIDGE BAY A","2400603","2022-01-13 19:00","2022","01","13","19:00","-29.8","","-33.2","","73","","","M","27","","23","","","M","101.46","","","","-44","","NA"
"-105.14","69.11","CAMBRIDGE BAY A","2400603","2022-01-13 20:00","2022","01","13","20:00","-29.4","","-32.8","","73","","","M","28","","21","","","M","101.46","","","","-43","","NA"
"-105.14","69.11","CAMBRIDGE BAY A","2400603","2022-01-13 21:00","2022","01","13","21:00","-29.2","","-32.4","","75","","","M","27","","20","","","M","101.43","","","","-42","","NA"
"-105.14","69.11","CAMBRIDGE BAY A","2400603","2022-01-13 22:00","2022","01","13","22:00","-27.1","","-30.4","","74","","","M","29","","26","","","M","101.44","","","","-41","","NA"
"-105.14","69.11","CAMBRIDGE BAY A","2400603","2022-01-13 23:00","2022","01","13","23:00","-29.4","","-32.8","","73","","","M","28","","27","","","M","101.46","","","","-44","","NA"
"-105.14","69.11","CAMBRIDGE BAY A","2400603","2022-01-14 00:00","2022","01","14","00:00","-30.1","","-33.5","","73","","","M","28","","26","","","M","101.48","","","","-45","","NA"
"-105.14","69.11","CAMBRIDGE BAY A","2400603","2022-01-14 01:00","2022","01","14","01:00","-30.7","","-34.1","","73","","","M","28","","19","","","M","101.49","","","","-44","","NA"
"-105.14","69.11","CAMBRIDGE BAY A","2400603","2022-01-14 02:00","2022","01","14","02:00","-31.0","","-34.4","","73","","","M","28","","23","","","M","101.47","","","","-45","","NA"
"-105.14","69.11","CAMBRIDGE BAY A","2400603","2022-01-14 03:00","2022","01","14","03:00","-31.6","","-35.0","","72","","","M","25","","17","","","M","101.50","","","","-44","","NA"
"-105.14","69.11","CAMBRIDGE BAY A","2400603","2022-01-14 04:00","2022","01","14","04:00","-31.6","","-35.1","","72","","","M","26","","25","","","M","101.52","","","","-47","","NA"
"-105.14","69.11","CAMBRIDGE BAY A","2400603","2022-01-14 05:00","2022","01","14","05:00","-32.3","","-35.7","","72","","","M","28","","22","","","M","101.47","","","","-47","","NA"
"-105.14","69.11","CAMBRIDGE BAY A","2400603","2022-01-14 06:00","2022","01","14","06:00","-33.1","","-36.7","","71","","","M","30","","21","","","M","101.39","","","","-47","","NA"
"-105.14","69.11","CAMBRIDGE BAY A","2400603","2022-01-14 07:00","2022","01","14","07:00","-33.0","","-36.5","","71","","","M","25","","4","","","M","101.42","","","","-38","","NA"
"-105.14","69.11","CAMBRIDGE BAY A","2400603","2022-01-14 08:00","2022","01","14","08:00","-33.2","","-36.8","","71","","","M","23","","7","","","M","101.43","","","","-41","","NA"
"-105.14","69.11","CAMBRIDGE BAY A","2400603","2022-01-14 09:00","2022","01","14","09:00","-33.2","","-36.8","","71","","","M","28","","15","","","M","101.35","","","","-45","","NA"
"-105.14","69.11","CAMBRIDGE BAY A","2400603","2022-01-14 10:00","2022","01","14","10:00","-33.9","","-37.3","","72","","","M","28","","14","","","M","101.31","","","","-46","","NA"
"-105.14","69.11","CAMBRIDGE BAY A","2400603","2022-01-14 11:00","2022","01","14","11:00","-34.0","","-37.6","","71","","","M","25","","7","","","M","101.28","","","","-42","","NA"
"-105.14","69.11","CAMBRIDGE BAY A","2400603","2022-01-14 12:00","2022","01","14","12:00","-34.8","","-38.4","","71","","","M","34","","8","","","M","101.23","","","","-44","","NA"
"-105.14","69.11","CAMBRIDGE BAY A","2400603","2022-01-14 13:00","2022","01","14","13:00","-35.3","","-38.8","","71","","","M","34","","6","","","M","101.21","","","","-43","","NA"
"-105.14","69.11","CAMBRIDGE BAY A","2400603","2022-01-14 14:00","2022","01","14","14:00","-35.1","","-38.5","","72","","","M","35","","8","","","M","101.19","","","","-44","","NA"
"-105.14","69.11","CAMBRIDGE BAY A","2400603","2022-01-14 15:00","2022","01","14","15:00","-35.8","","-39.2","","72","","","M","2","","14","","","M","101.17","","","","-48","","NA"
"-105.14","69.11","CAMBRIDGE BAY A","2400603","2022-01-14 16:00","2022","01","14","16:00","-32.6","","-35.7","","74","","","M","2","","19","","","M","101.15","","","","-46","","NA"
"-105.14","69.11","CAMBRIDGE BAY A","2400603","2022-01-14 17:00","2022","01","14","17:00","-34.2","","-37.4","","73","","","M","30","","2","","","M","101.16","","","","-37","","NA"
"-105.14","69.11","CAMBRIDGE BAY A","2400603","2022-01-14 18:00","2022","01","14","18:00","-34.1","","-37.3","","74","","","M","33","","7","","","M","101.16","","","","-42","","NA"
"-105.14","69.11","CAMBRIDGE BAY A","2400603","2022-01-14 19:00","2022","01","14","19:00","-34.8","","-38.1","","73","","","M","34","","13","","","M","101.15","","","","-46","","NA"
"-105.14","69.11","CAMBRIDGE BAY A","2400603","2022-01-14 20:00","2022","01","14","20:00","-35.3","","-38.8","","72","","","M","34","","9","","","M","101.15","","","","-45","","NA"
"-105.14","69.11","CAMBRIDGE BAY A","2400603","2022-01-14 21:00","2022","01","14","21:00","-36.0","","-39.6","","71","","","M","32","","19","","","M","101.12","","","","-50","","NA"
"-105.14","69.11","CAMBRIDGE BAY A","2400603","2022-01-14 22:00","2022","01","14","22:00","-34.5","","-38.0","","71","","","M","33","","19","","","M","101.13","","","","-48","","NA"
"-105.14","69.11","CAMBRIDGE BAY A","2400603","2022-01-14 23:00","2022","01","14","23:00","-35.4","","-39.1","","70","","","M","33","","17","","","M","101.13","","","","-49","","NA"
"-105.14","69.11","CAMBRIDGE BAY A","2400603","2022-01-15 00:00","2022","01","15","00:00","-35.6","","-39.3","","70","","","M","32","","26","","","M","101.13","","","","-52","","NA"
"-105.14","69.11","CAMBRIDGE BAY A","2400603","2022-01-15 01:00","2022","01","15","01:00","-35.5","","-39.2","","70","","","M","33","","20","","","M","101.14","","","","-50","","NA"
"-105.14","69.11","CAMBRIDGE BAY A","2400603","2022-01-15 02:00","2022","01","15","02:00","-35.3","","-39.0","","70","","","M","33","","35","","","M","101.16","","","","-54","","NA"
"-105.14","69.11","CAMBRIDGE BAY A","2400603","2022-01-15 03:00","2022","01","15","03:00","-35.1","","-38.8","","70","","","M","32","","28","","","M","101.16","","","","-52","","NA"
"-105.14","69.11","CAMBRIDGE BAY A","2400603","2022-01-15 04:00","2022","01","15","04:00","-35.0","","-38.7","","70","","","M","32","","25","","","M","101.16","","","","-51","","NA"
"-105.14","69.11","CAMBRIDGE BAY A","2400603","2022-01-15 05:00","2022","01","15","05:00","-34.6","","-38.3","","70","","","M","31","","17","","","M","101.18","","","","-48","","NA"
"-105.14","69.11","CAMBRIDGE BAY A","2400603","2022-01-15 06:00","2022","01","15","06:00","-34.0","","-37.7","","70","","","M","33","","16","","","M","101.16","","","","-47","","NA"
"-105.14","69.11","CAMBRIDGE BAY A","2400603","2022-01-15 07:00","2022","01","15","07:00","-33.0","","-36.7","","71","","","M","30","","17","","","M","101.18","","","","-46","","NA"
"-105.14","69.11","CAMBRIDGE BAY A","2400603","2022-01-15 08:00","2022","01","15","08:00","-32.9","","-36.5","","71","","","M","31","","19","","","M","101.12","","","","-46","","NA"
"-105.14","69.11","CAMBRIDGE BAY A","2400603","2022-01-15 09:00","2022","01","15","09:00","-33.2","","-36.8","","71","","","M","31","","10","","","M","101.12","","","","-43","","NA"
"-105.14","69.11","CAMBRIDGE BAY A","2400603","2022-01-15 10:00","2022","01","15","10:00","-31.6","","-35.3","","71","","","M","27","","8","","","M","101.20","","","","-40","","NA"
"-105.14","69.11","CAMBRIDGE BAY A","2400603","2022-01-15 11:00","2022","01","15","11:00","-30.5","","-34.3","","70","","","M","1","","6","","","M","101.23","","","","-37","","NA"
"-105.14","69.11","CAMBRIDGE BAY A","2400603","2022-01-15 12:00","2022","01","15","12:00","-30.4","","-34.0","","72","","","M","33","","13","","","M","101.23","","","","-41","","NA"
"-105.14","69.11","CAMBRIDGE BAY A","2400603","2022-01-15 13:00","2022","01","15","13:00","-30.1","","-33.8","","71","","","M","34","","21","","","M","101.27","","","","-44","","NA"
"-105.14","69.11","CAMBRIDGE BAY A","2400603","2022-01-15 14:00","2022","01","15","14:00","-30.6","","-34.2","","71","","","M","35","","14","","","M","101.30","","","","-42","","NA"
"-105.14","69.11","CAMBRIDGE BAY A","2400603","2022-01-15 15:00","2022","01","15","15:00","-30.6","","-34.4","","70","","","M","34","","14","","","M","101.34","","","","-42","","NA"
"-105.14","69.11","CAMBRIDGE BAY A","2400603","2022-01-15 16:00","2022","01","15","16:00","-31.1","","-34.8","","70","","","M","35","","19","","","M","101.37","","","","-44","","NA"
"-105.14","69.11","CAMBRIDGE BAY A","2400603","2022-01-15 17:00","2022","01","15","17:00","-32.7","","-36.4","","70","","","M","34","","17","","","M","101.40","","","","-45","","NA"
"-105.14","69.11","CAMBRIDGE BAY A","2400603","2022-01-15 18:00","2022","01","15","18:00","-33.5","","-37.1","","70","","","M","35","","14","","","M","101.46","","","","-45","","NA"
"-105.14","69.11","CAMBRIDGE BAY A","2400603","2022-01-15 19:00","2022","01","15","19:00","-33.4","","-37.0","","70","","","M","34","","18","","","M","101.51","","","","-47","","NA"
"-105.14","69.11","CAMBRIDGE BAY A","2400603","2022-01-15 20:00","2022","01","15","20:00","-34.4","","-38.0","","71","","","M","34","","13","","","M","101.53","","","","-46","","NA"
"-105.14","69.11","CAMBRIDGE BAY A","2400603","2022-01-15 21:00","2022","01","15","21:00","-35.0","","-38.7","","70","","","M","34","","17","","","M","101.55","","","","-48","","NA"
"-105.14","69.11","CAMBRIDGE BAY A","2400603","2022-01-15 22:00","2022","01","15","22:00","-35.2","","-38.9","","70","","","M","34","","15","","","M","101.58","","","","-48","","NA"
"-105.14","69.11","CAMBRIDGE BAY A","2400603","2022-01-15 23:00","2022","01","15","23:00","-34.3","","-37.9","","70","","","M","34","","14","","","M","101.64","","","","-46","","NA"
"-105.14","69.11","CAMBRIDGE BAY A","2400603","2022-01-16 00:00","2022","01","16","00:00","-34.6","","-38.3","","70","","","M","32","","8","","","M","101.63","","","","-43","","NA"
"-105.14","69.11","CAMBRIDGE BAY A","2400603","2022-01-16 01:00","2022","01","16","01:00","-35.8","","-39.6","","69","","","M","31","","17","","","M","101.66","","","","-49","","NA"
"-105.14","69.11","CAMBRIDGE BAY A","2400603","2022-01-16 02:00","2022","01","16","02:00","-35.7","","-39.5","","69","","","M","31","","23","","","M","101.68","","","","-51","","NA"
"-105.14","69.11","CAMBRIDGE BAY A","2400603","2022-01-16 03:00","2022","01","16","03:00","-35.7","","-39.5","","69","","","M","32","","23","","","M","101.66","","","","-51","","NA"
"-105.14","69.11","CAMBRIDGE BAY A","2400603","2022-01-16 04:00","2022","01","16","04:00","-35.0","","-38.8","","69","","","M","32","","23","","","M","101.71","","","","-50","","NA"
"-105.14","69.11","CAMBRIDGE BAY A","2400603","2022-01-16 05:00","2022","01","16","05:00","-34.2","","-38.0","","69","","","M","32","","25","","","M","101.70","","","","-50","","NA"
"-105.14","69.11","CAMBRIDGE BAY A","2400603","2022-01-16 06:00","2022","01","16","06:00","-33.1","","-36.8","","70","","","M","33","","29","","","M","101.68","","","","-49","","NA"
"-105.14","69.11","CAMBRIDGE BAY A","2400603","2022-01-16 07:00","2022","01","16","07:00","-32.5","","-36.4","","69","","","M","32","","28","","","M","101.66","","","","-48","","NA"
"-105.14","69.11","CAMBRIDGE BAY A","2400603","2022-01-16 08:00","2022","01","16","08:00","-33.5","","-37.3","","69","","","M","32","","25","","","M","101.66","","","","-49","","NA"
"-105.14","69.11","CAMBRIDGE BAY A","2400603","2022-01-16 09:00","2022","01","16","09:00","-32.6","","-36.5","","69","","","M","32","","20","","","M","101.66","","","","-46","","NA"
"-105.14","69.11","CAMBRIDGE BAY A","2400603","2022-01-16 10:00","2022","01","16","10:00","-31.5","","-35.7","","67","","","M","33","","19","","","M","101.62","","","","-45","","NA"
"-105.14","69.11","CAMBRIDGE BAY A","2400603","2022-01-16 11:00","2022","01","16","11:00","-31.7","","-35.8","","68","","","M","33","","20","","","M","101.58","","","","-45","","NA"
"-105.14","69.11","CAMBRIDGE BAY A","2400603","2022-01-16 12:00","2022","01","16","12:00","-33.0","","-37.0","","68","","","M","32","","20","","","M","101.57","","","","-47","","NA"
"-105.14","69.11","CAMBRIDGE BAY A","2400603","2022-01-16 13:00","2022","01","16","13:00","-33.2","","-37.2","","69","","","M","32","","17","","","M","101.56","","","","-46","","NA"
"-105.14","69.11","CAMBRIDGE BAY A","2400603","2022-01-16 14:00","2022","01","16","14:00","-33.5","","-37.4","","69","","","M","32","","23","","","M","101.55","","","","-48","","NA"
"-105.14","69.11","CAMBRIDGE BAY A","2400603","2022-01-16 15:00","2022","01","16","15:00","-34.0","","-38.0","","68","","","M","31","","16","","","M","101.54","","","","-47","","NA"
"-105.14","69.11","CAMBRIDGE BAY A","2400603","2022-01-16 16:00","2022","01","16","16:00","-34.4","","-38.5","","68","","","M","31","","22","","","M","101.53","","","","-49","","NA"
"-105.14","69.11","CAMBRIDGE BAY A","2400603","2022-01-16 17:00","2022","01","16","17:00","-34.7","","-38.6","","68","","","M","32","","17","","","M","101.54","","","","-48","","NA"
"-105.14","69.11","CAMBRIDGE BAY A","2400603","2022-01-16 18:00","2022","01","16","18:00","-33.8","","-37.8","","69","","","M","31","","17","","","M","101.53","","","","-47","","NA"
"-105.14","69.11","CAMBRIDGE BAY A","2400603","2022-01-16 19:00","2022","01","16","19:00","-33.6","","-37.5","","69","","","M","32","","21","","","M","101.49","","","","-48","","NA"
"-105.14","69.11","CAMBRIDGE BAY A","2400603","2022-01-16 20:00","2022","01","16","20:00","-33.5","","-37.5","","68","","","M","32","","23","","","M","101.54","","","","-48","","NA"
"-105.14","69.11","CAMBRIDGE BAY A","2400603","2022-01-16 21:00","2022","01","16","21:00","-33.1","","-37.0","","68","","","M","32","","26","","","M","101.49","","","","-49","","NA"
"-105.14","69.11","CAMBRIDGE BAY A","2400603","2022-01-16 22:00","2022","01","16","22:00","-32.9","","-36.8","","69","","","M","33","","31","","","M","101.45","","","","-50","","NA"
"-105.14","69.11","CAMBRIDGE BAY A","2400603","2022-01-16 23:00","2022","01","16","23:00","-32.2","","-36.0","","70","","","M","30","","28","","","M","101.45","","","","-48","","NA"
"-105.14","69.11","CAMBRIDGE BAY A","2400603","2022-01-17 00:00","2022","01","17","00:00","-32.6","","-36.4","","70","","","M","31","","34","","","M","101.46","","","","-50","","NA"
"-105.14","69.11","CAMBRIDGE BAY A","2400603","2022-01-17 01:00","2022","01","17","01:00","-32.6","","-36.3","","70","","","M","32","","29","","","M","101.45","","","","-49","","NA"
"-105.14","69.11","CAMBRIDGE BAY A","2400603","2022-01-17 02:00","2022","01","17","02:00","-32.3","","-36.0","","70","","","M","31","","21","","","M","101.50","","","","-46","","NA"
"-105.14","69.11","CAMBRIDGE BAY A","2400603","2022-01-17 03:00","2022","01","17","03:00","-32.4","","-36.1","","70","","","M","30","","22","","","M","101.52","","","","-47","","NA"
"-105.14","69.11","CAMBRIDGE BAY A","2400603","2022-01-17 04:00","2022","01","17","04:00","-32.6","","-36.3","","71","","","M","31","","30","","","M","101.46","","","","-49","","NA"
"-105.14","69.11","CAMBRIDGE BAY A","2400603","2022-01-17 05:00","2022","01","17","05:00","-32.8","","-36.6","","70","","","M","32","","32","","","M","101.49","","","","-50","","NA"
"-105.14","69.11","CAMBRIDGE BAY A","2400603","2022-01-17 06:00","2022","01","17","06:00","-33.2","","-37.0","","69","","","M","32","","20","","","M","101.49","","","","-47","","NA"
"-105.14","69.11","CAMBRIDGE BAY A","2400603","2022-01-17 07:00","2022","01","17","07:00","-33.7","","-37.6","","69","","","M","29","","11","","","M","101.48","","","","-44","","NA"
"-105.14","69.11","CAMBRIDGE BAY A","2400603","2022-01-17 08:00","2022","01","17","08:00","-32.5","","-36.2","","70","","","M","29","","19","","","M","101.49","","","","-46","","NA"
"-105.14","69.11","CAMBRIDGE BAY A","2400603","2022-01-17 09:00","2022","01","17","09:00","-31.1","","-34.9","","70","","","M","31","","28","","","M","101.47","","","","-47","","NA"
"-105.14","69.11","CAMBRIDGE BAY A","2400603","2022-01-17 10:00","2022","01","17","10:00","-29.4","","-32.9","","72","","","M","29","","25","","","M","101.46","","","","-44","","NA"
"-105.14","69.11","CAMBRIDGE BAY A","2400603","2022-01-17 11:00","2022","01","17","11:00","-27.8","","-31.1","","74","","","M","29","","26","","","M","101.40","","","","-42","","NA"
"-105.14","69.11","CAMBRIDGE BAY A","2400603","2022-01-17 12:00","2022","01","17","12:00","-25.8","","-28.9","","75","","","M","30","","38","","","M","101.36","","","","-42","","NA"
"-105.14","69.11","CAMBRIDGE BAY A","2400603","2022-01-17 13:00","2022","01","17","13:00","-26.1","","-29.2","","76","","","M","31","","27","","","M","101.40","","","","-40","","NA"
"-105.14","69.11","CAMBRIDGE BAY A","2400603","2022-01-17 14:00","2022","01","17","14:00","-27.1","","-30.2","","75","","","M","32","","30","","","M","101.47","","","","-42","","NA"
"-105.14","69.11","CAMBRIDGE BAY A","2400603","2022-01-17 15:00","2022","01","17","15:00","-27.1","","-30.3","","75","","","M","31","","26","","","M","101.51","","","","-41","","NA"
"-105.14","69.11","CAMBRIDGE BAY A","2400603","2022-01-17 16:00","2022","01","17","16:00","-27.6","","-30.8","","75","","","M","31","","25","","","M","101.54","","","","-41","","NA"
"-105.14","69.11","CAMBRIDGE BAY A","2400603","2022-01-17 17:00","2022","01","17","17:00","-27.4","","-30.6","","75","","","M","32","","41","","","M","101.51","","","","-44","","NA"
"-105.14","69.11","CAMBRIDGE BAY A","2400603","2022-01-17 18:00","2022","01","17","18:00","-27.6","","-30.8","","75","","","M","31","","19","","","M","101.61","","","","-40","","NA"
"-105.14","69.11","CAMBRIDGE BAY A","2400603","2022-01-17 19:00","2022","01","17","19:00","-27.4","","-30.5","","76","","","M","28","","14","","","M","101.66","","","","-38","","NA"
"-105.14","69.11","CAMBRIDGE BAY A","2400603","2022-01-17 20:00","2022","01","17","20:00","-24.5","","-27.8","","75","","","M","35","","27","","","M","101.59","","","","-38","","NA"
"-105.14","69.11","CAMBRIDGE BAY A","2400603","2022-01-17 21:00","2022","01","17","21:00","-25.4","","-28.6","","75","","","M","34","","32","","","M","101.66","","","","-40","","NA"
"-105.14","69.11","CAMBRIDGE BAY A","2400603","2022-01-17 22:00","2022","01","17","22:00","-25.8","","-28.9","","76","","","M","34","","31","","","M","101.66","","","","-40","","NA"
"-105.14","69.11","CAMBRIDGE BAY A","2400603","2022-01-17 23:00","2022","01","17","23:00","-25.7","","-28.7","","76","","","M","30","","20","","","M","101.74","","","","-38","","NA"
"-105.14","69.11","CAMBRIDGE BAY A","2400603","2022-01-18 00:00","2022","01","18","00:00","-23.4","","-26.2","","79","","","M","36","","25","","","M","101.75","","","","-36","","NA"
"-105.14","69.11","CAMBRIDGE BAY A","2400603","2022-01-18 01:00","2022","01","18","01:00","-23.7","","-26.5","","78","","","M","34","","31","","","M","101.79","","","","-38","","NA"
"-105.14","69.11","CAMBRIDGE BAY A","2400603","2022-01-18 02:00","2022","01","18","02:00","-23.5","","-26.4","","77","","","M","31","","20","","","M","101.92","","","","-35","","NA"
"-105.14","69.11","CAMBRIDGE BAY A","2400603","2022-01-18 03:00","2022","01","18","03:00","-23.6","","-26.8","","75","","","M","31","","21","","","M","101.97","","","","-35","","NA"
"-105.14","69.11","CAMBRIDGE BAY A","2400603","2022-01-18 04:00","2022","01","18","04:00","-23.6","","-27.0","","74","","","M","35","","29","","","M","101.98","","","","-37","","NA"
"-105.14","69.11","CAMBRIDGE BAY A","2400603","2022-01-18 05:00","2022","01","18","05:00","-23.3","","-26.9","","73","","","M","35","","37","","","M","101.99","","","","-38","","NA"
"-105.14","69.11","CAMBRIDGE BAY A","2400603","2022-01-18 06:00","2022","01","18","06:00","-24.1","","-27.7","","73","","","M","35","","28","","","M","102.02","","","","-38","","NA"
"-105.14","69.11","CAMBRIDGE BAY A","2400603","2022-01-18 07:00","2022","01","18","07:00","-24.7","","-27.9","","75","","","M","34","","30","","","M","102.08","","","","-39","","NA"
"-105.14","69.11","CAMBRIDGE BAY A","2400603","2022-01-18 08:00","2022","01","18","08:00","-24.6","","-28.0","","74","","","M","34","","28","","","M","102.15","","","","-38","","NA"
"-105.14","69.11","CAMBRIDGE BAY A","2400603","2022-01-18 09:00","2022","01","18","09:00","-27.2","","-30.5","","74","","","M","29","","21","","","M","102.23","","","","-40","","NA"
"-105.14","69.11","CAMBRIDGE BAY A","2400603","2022-01-18 10:00","2022","01","18","10:00","-27.5","","-30.8","","74","","","M","31","","27","","","M","102.25","","","","-42","","NA"
"-105.14","69.11","CAMBRIDGE BAY A","2400603","2022-01-18 11:00","2022","01","18","11:00","-27.1","","-30.5","","73","","","M","31","","28","","","M","102.24","","","","-41","","NA"
"-105.14","69.11","CAMBRIDGE BAY A","2400603","2022-01-18 12:00","2022","01","18","12:00","-27.8","","-31.4","","72","","","M","31","","30","","","M","102.28","","","","-43","","NA"
"-105.14","69.11","CAMBRIDGE BAY A","2400603","2022-01-18 13:00","2022","01","18","13:00","-28.3","","-31.7","","73","","","M","30","","24","","","M","102.34","","","","-42","","NA"
"-105.14","69.11","CAMBRIDGE BAY A","2400603","2022-01-18 14:00","2022","01","18","14:00","-27.5","","-30.9","","74","","","M","31","","26","","","M","102.32","","","","-41","","NA"
"-105.14","69.11","CAMBRIDGE BAY A","2400603","2022-01-18 15:00","2022","01","18","15:00","-27.2","","-30.5","","74","","","M","32","","27","","","M","102.33","","","","-41","","NA"
"-105.14","69.11","CAMBRIDGE BAY A","2400603","2022-01-18 16:00","2022","01","18","16:00","-27.0","","-30.4","","73","","","M","32","","25","","","M","102.34","","","","-41","","NA"
"-105.14","69.11","CAMBRIDGE BAY A","2400603","2022-01-18 17:00","2022","01","18","17:00","-27.2","","-30.6","","74","","","M","30","","21","","","M","102.36","","","","-40","","NA"
"-105.14","69.11","CAMBRIDGE BAY A","2400603","2022-01-18 18:00","2022","01","18","18:00","-28.5","","-31.6","","75","","","M","24","","15","","","M","102.38","","","","-40","","NA"
"-105.14","69.11","CAMBRIDGE BAY A","2400603","2022-01-18 19:00","2022","01","18","19:00","-27.1","","-30.2","","76","","","M","29","","19","","","M","102.34","","","","-39","","NA"
"-105.14","69.11","CAMBRIDGE BAY A","2400603","2022-01-18 20:00","2022","01","18","20:00","-26.2","","-29.3","","75","","","M","28","","23","","","M","102.28","","","","-39","","NA"
"-105.14","69.11","CAMBRIDGE BAY A","2400603","2022-01-18 21:00","2022","01","18","21:00","-25.8","","-28.9","","75","","","M","29","","15","","","M","102.27","","","","-36","","NA"
"-105.14","69.11","CAMBRIDGE BAY A","2400603","2022-01-18 22:00","2022","01","18","22:00","-26.0","","-29.1","","75","","","M","30","","22","","","M","102.20","","","","-39","","NA"
"-105.14","69.11","CAMBRIDGE BAY A","2400603","2022-01-18 23:00","2022","01","18","23:00","-26.6","","-29.7","","75","","","M","27","","22","","","M","102.17","","","","-39","","NA"
"-105.14","69.11","CAMBRIDGE BAY A","2400603","2022-01-19 00:00","2022","01","19","00:00","-27.2","","-30.4","","75","","","M","28","","18","","","M","102.19","","","","-39","","NA"
"-105.14","69.11","CAMBRIDGE BAY A","2400603","2022-01-19 01:00","2022","01","19","01:00","-27.6","","-30.7","","76","","","M","28","","16","","","M","102.14","","","","-39","","NA"
"-105.14","69.11","CAMBRIDGE BAY A","2400603","2022-01-19 02:00","2022","01","19","02:00","-28.9","","-32.0","","75","","","M","28","","19","","","M","102.12","","","","-41","","NA"
"-105.14","69.11","CAMBRIDGE BAY A","2400603","2022-01-19 03:00","2022","01","19","03:00","-30.1","","-33.3","","75","","","M","31","","10","","","M","102.12","","","","-39","","NA"
"-105.14","69.11","CAMBRIDGE BAY A","2400603","2022-01-19 04:00","2022","01","19","04:00","-30.7","","-33.8","","75","","","M","20","","3","","","M","102.05","","","","-34","","NA"
"-105.14","69.11","CAMBRIDGE BAY A","2400603","2022-01-19 05:00","2022","01","19","05:00","-30.3","","-33.3","","76","","","M","25","","8","","","M","102.02","","","","-38","","NA"
"-105.14","69.11","CAMBRIDGE BAY A","2400603","2022-01-19 06:00","2022","01","19","06:00","-30.9","","-34.1","","75","","","M","27","","12","","","M","101.96","","","","-41","","NA"
"-105.14","69.11","CAMBRIDGE BAY A","2400603","2022-01-19 07:00","2022","01","19","07:00","-31.2","","-34.4","","75","","","M","26","","13","","","M","101.88","","","","-42","","NA"
"-105.14","69.11","CAMBRIDGE BAY A","2400603","2022-01-19 08:00","2022","01","19","08:00","-32.0","","-35.1","","74","","","M","28","","12","","","M","101.78","","","","-43","","NA"
"-105.14","69.11","CAMBRIDGE BAY A","2400603","2022-01-19 09:00","2022","01","19","09:00","-32.0","","-35.1","","75","","","M","26","","12","","","M","101.71","","","","-43","","NA"
"-105.14","69.11","CAMBRIDGE BAY A","2400603","2022-01-19 10:00","2022","01","19","10:00","-31.5","","-34.5","","76","","","M","23","","7","","","M","101.63","","","","-39","","NA"
"-105.14","69.11","CAMBRIDGE BAY A","2400603","2022-01-19 11:00","2022","01","19","11:00","-31.9","","-35.0","","74","","","M","18","","4","","","M","101.53","","","","-37","","NA"
"-105.14","69.11","CAMBRIDGE BAY A","2400603","2022-01-19 12:00","2022","01","19","12:00","-31.3","","-34.4","","75","","","M","21","","9","","","M","101.48","","","","-40","","NA"
"-105.14","69.11","CAMBRIDGE BAY A","2400603","2022-01-19 13:00","2022","01","19","13:00","-31.3","","-34.3","","75","","","M","22","","8","","","M","101.44","","","","-40","","NA"
"-105.14","69.11","CAMBRIDGE BAY A","2400603","2022-01-19 14:00","2022","01","19","14:00","-31.4","","-34.4","","76","","","M","18","","2","","","M","101.34","","","","-34","","NA"
"-105.14","69.11","CAMBRIDGE BAY A","2400603","2022-01-19 15:00","2022","01","19","15:00","-32.2","","-35.4","","74","","","M","12","","5","","","M","101.27","","","","-38","","NA"
"-105.14","69.11","CAMBRIDGE BAY A","2400603","2022-01-19 16:00","2022","01","19","16:00","-30.7","","-33.9","","75","","","M","12","","5","","","M","101.20","","","","-36","","NA"
"-105.14","69.11","CAMBRIDGE BAY A","2400603","2022-01-19 17:00","2022","01","19","17:00","-32.0","","-35.3","","73","","","M","12","","8","","","M","101.07","","","","-40","","NA"
"-105.14","69.11","CAMBRIDGE BAY A","2400603","2022-01-19 18:00","2022","01","19","18:00","-30.5","","-33.6","","74","","","M","10","","3","","","M","100.98","","","","-34","","NA"
"-105.14","69.11","CAMBRIDGE BAY A","2400603","2022-01-19 19:00","2022","01","19","19:00","-29.2","","-32.3","","75","","","M","18","","4","","","M","100.84","","","","-34","","NA"
"-105.14","69.11","CAMBRIDGE BAY A","2400603","2022-01-19 20:00","2022","01","19","20:00","-28.8","","-31.9","","75","","","M","15","","14","","","M","100.69","","","","-40","","NA"
"-105.14","69.11","CAMBRIDGE BAY A","2400603","2022-01-19 21:00","2022","01","19","21:00","-28.4","","-31.4","","76","","","M","16","","8","","","M","100.57","","","","-36","","NA"
"-105.14","69.11","CAMBRIDGE BAY A","2400603","2022-01-19 22:00","2022","01","19","22:00","-27.9","","-30.9","","76","","","M","18","","12","","","M","100.44","","","","-38","","NA"
"-105.14","69.11","CAMBRIDGE BAY A","2400603","2022-01-19 23:00","2022","01","19","23:00","-27.7","","-30.7","","76","","","M","21","","8","","","M","100.36","","","","-35","","NA"
"-105.14","69.11","CAMBRIDGE BAY A","2400603","2022-01-20 00:00","2022","01","20","00:00","-27.6","","-30.6","","76","","","M","22","","7","","","M","100.26","","","","-34","","NA"
"-105.14","69.11","CAMBRIDGE BAY A","2400603","2022-01-20 01:00","2022","01","20","01:00","-27.1","","-30.0","","76","","","M","20","","9","","","M","100.16","","","","-35","","NA"
"-105.14","69.11","CAMBRIDGE BAY A","2400603","2022-01-20 02:00","2022","01","20","02:00","-25.6","","-28.4","","78","","","M","21","","10","","","M","100.03","","","","-34","","NA"
"-105.14","69.11","CAMBRIDGE BAY A","2400603","2022-01-20 03:00","2022","01","20","03:00","-24.4","","-27.2","","78","","","M","26","","15","","","M","99.96","","","","-35","","NA"
"-105.14","69.11","CAMBRIDGE BAY A","2400603","2022-01-20 04:00","2022","01","20","04:00","-24.3","","-27.1","","78","","","M","28","","13","","","M","99.87","","","","-34","","NA"
"-105.14","69.11","CAMBRIDGE BAY A","2400603","2022-01-20 05:00","2022","01","20","05:00","-24.4","","-27.2","","78","","","M","29","","15","","","M","99.77","","","","-35","","NA"
"-105.14","69.11","CAMBRIDGE BAY A","2400603","2022-01-20 06:00","2022","01","20","06:00","-24.4","","-27.2","","78","","","M","28","","18","","","M","99.73","","","","-35","","NA"
"-105.14","69.11","CAMBRIDGE BAY A","2400603","2022-01-20 07:00","2022","01","20","07:00","-27.4","","-30.4","","76","","","M","29","","21","","","M","99.66","","","","-40","","NA"
"-105.14","69.11","CAMBRIDGE BAY A","2400603","2022-01-20 08:00","2022","01","20","08:00","-28.7","","-31.9","","75","","","M","27","","15","","","M","99.62","","","","-40","","NA"
"-105.14","69.11","CAMBRIDGE BAY A","2400603","2022-01-20 09:00","2022","01","20","09:00","-29.8","","-33.0","","74","","","M","29","","25","","","M","99.55","","","","-44","","NA"
"-105.14","69.11","CAMBRIDGE BAY A","2400603","2022-01-20 10:00","2022","01","20","10:00","-29.0","","-32.2","","75","","","M","30","","26","","","M","99.56","","","","-43","","NA"
"-105.14","69.11","CAMBRIDGE BAY A","2400603","2022-01-20 11:00","2022","01","20","11:00","-28.9","","-32.1","","74","","","M","31","","34","","","M","99.52","","","","-45","","NA"
"-105.14","69.11","CAMBRIDGE BAY A","2400603","2022-01-20 12:00","2022","01","20","12:00","-30.7","","-34.0","","73","","","M","32","","37","","","M","99.49","","","","-48","","NA"
"-105.14","69.11","CAMBRIDGE BAY A","2400603","2022-01-20 13:00","2022","01","20","13:00","-31.1","","-34.5","","73","","","M","31","","26","","","M","99.59","","","","-46","","NA"
"-105.14","69.11","CAMBRIDGE BAY A","2400603","2022-01-20 14:00","2022","01","20","14:00","-31.6","","-35.1","","72","","","M","30","","32","","","M","99.63","","","","-48","","NA"
"-105.14","69.11","CAMBRIDGE BAY A","2400603","2022-01-20 15:00","2022","01","20","15:00","-31.7","","-35.1","","73","","","M","31","","28","","","M","99.68","","","","-47","","NA"
"-105.14","69.11","CAMBRIDGE BAY A","2400603","2022-01-20 16:00","2022","01","20","16:00","-31.8","","-35.2","","72","","","M","31","","31","","","M","99.71","","","","-48","","NA"
"-105.14","69.11","CAMBRIDGE BAY A","2400603","2022-01-20 17:00","2022","01","20","17:00","-32.7","","-36.2","","72","","","M","31","","31","","","M","99.74","","","","-49","","NA"
"-105.14","69.11","CAMBRIDGE BAY A","2400603","2022-01-20 18:00","2022","01","20","18:00","-33.3","","-36.9","","71","","","M","30","","31","","","M","99.78","","","","-50","","NA"
"-105.14","69.11","CAMBRIDGE BAY A","2400603","2022-01-20 19:00","2022","01","20","19:00","-33.0","","-36.5","","71","","","M","31","","40","","","M","99.75","","","","-52","","NA"
"-105.14","69.11","CAMBRIDGE BAY A","2400603","2022-01-20 20:00","2022","01","20","20:00","-33.7","","-37.3","","71","","","M","30","","32","","","M","99.79","","","","-51","","NA"
"-105.14","69.11","CAMBRIDGE BAY A","2400603","2022-01-20 21:00","2022","01","20","21:00","-33.8","","-37.4","","71","","","M","31","","43","","","M","99.77","","","","-53","","NA"
"-105.14","69.11","CAMBRIDGE BAY A","2400603","2022-01-20 22:00","2022","01","20","22:00","-33.8","","-37.4","","71","","","M","31","","31","","","M","99.88","","","","-51","","NA"
"-105.14","69.11","CAMBRIDGE BAY A","2400603","2022-01-20 23:00","2022","01","20","23:00","-33.6","","-37.2","","71","","","M","32","","30","","","M","99.88","","","","-50","","NA"
"-105.14","69.11","CAMBRIDGE BAY A","2400603","2022-01-21 00:00","2022","01","21","00:00","-33.1","","-36.6","","71","","","M","32","","28","","","M","100.00","","","","-49","","NA"
"-105.14","69.11","CAMBRIDGE BAY A","2400603","2022-01-21 01:00","2022","01","21","01:00","-32.0","","-35.4","","72","","","M","32","","37","","","M","100.07","","","","-50","","NA"
"-105.14","69.11","CAMBRIDGE BAY A","2400603","2022-01-21 02:00","2022","01","21","02:00","-31.7","","-35.2","","72","","","M","32","","41","","","M","100.14","","","","-50","","NA"
"-105.14","69.11","CAMBRIDGE BAY A","2400603","2022-01-21 03:00","2022","01","21","03:00","-32.3","","-35.8","","72","","","M","32","","30","","","M","100.28","","","","-49","","NA"
"-105.14","69.11","CAMBRIDGE BAY A","2400603","2022-01-21 04:00","2022","01","21","04:00","-32.4","","-35.9","","72","","","M","31","","35","","","M","100.31","","","","-50","","NA"
"-105.14","69.11","CAMBRIDGE BAY A","2400603","2022-01-21 05:00","2022","01","21","05:00","-32.1","","-35.6","","72","","","M","30","","30","","","M","100.35","","","","-48","","NA"
"-105.14","69.11","CAMBRIDGE BAY A","2400603","2022-01-21 06:00","2022","01","21","06:00","-31.6","","-35.0","","72","","","M","27","","26","","","M","100.40","","","","-47","","NA"
"-105.14","69.11","CAMBRIDGE BAY A","2400603","2022-01-21 07:00","2022","01","21","07:00","-31.4","","-34.9","","72","","","M","28","","26","","","M","100.39","","","","-47","","NA"
"-105.14","69.11","CAMBRIDGE BAY A","2400603","2022-01-21 08:00","2022","01","21","08:00","-31.6","","-35.1","","72","","","M","31","","34","","","M","100.38","","","","-49","","NA"
"-105.14","69.11","CAMBRIDGE BAY A","2400603","2022-01-21 09:00","2022","01","21","09:00","-31.5","","-35.0","","72","","","M","32","","40","","","M","100.38","","","","-50","","NA"
"-105.14","69.11","CAMBRIDGE BAY A","2400603","2022-01-21 10:00","2022","01","21","10:00","-31.9","","-35.6","","71","","","M","27","","27","","","M","100.49","","","","-47","","NA"
"-105.14","69.11","CAMBRIDGE BAY A","2400603","2022-01-21 11:00","2022","01","21","11:00","-32.2","","-35.8","","71","","","M","29","","26","","","M","100.53","","","","-48","","NA"
"-105.14","69.11","CAMBRIDGE BAY A","2400603","2022-01-21 12:00","2022","01","21","12:00","-31.6","","-35.3","","71","","","M","30","","27","","","M","100.57","","","","-47","","NA"
"-105.14","69.11","CAMBRIDGE BAY A","2400603","2022-01-21 13:00","2022","01","21","13:00","-32.1","","-35.8","","70","","","M","31","","32","","","M","100.59","","","","-49","","NA"
"-105.14","69.11","CAMBRIDGE BAY A","2400603","2022-01-21 14:00","2022","01","21","14:00","-32.7","","-36.5","","70","","","M","31","","34","","","M","100.65","","","","-50","","NA"
"-105.14","69.11","CAMBRIDGE BAY A","2400603","2022-01-21 15:00","2022","01","21","15:00","-32.9","","-36.8","","69","","","M","30","","34","","","M","100.69","","","","-50","","NA"
"-105.14","69.11","CAMBRIDGE BAY A","2400603","2022-01-21 16:00","2022","01","21","16:00","-33.4","","-37.2","","69","","","M","31","","29","","","M","100.72","","","","-50","","NA"
"-105.14","69.11","CAMBRIDGE BAY A","2400603","2022-01-21 17:00","2022","01","21","17:00","-33.1","","-36.9","","70","","","M","31","","33","","","M","100.76","","","","-50","","NA"
"-105.14","69.11","CAMBRIDGE BAY A","2400603","2022-01-21 18:00","2022","01","21","18:00","-33.2","","-36.9","","70","","","M","30","","32","","","M","100.82","","","","-50","","NA"
"-105.14","69.11","CAMBRIDGE BAY A","2400603","2022-01-21 19:00","2022","01","21","19:00","-33.1","","-36.8","","70","","","M","29","","31","","","M","100.86","","","","-50","","NA"
"-105.14","69.11","CAMBRIDGE BAY A","2400603","2022-01-21 20:00","2022","01","21","20:00","-32.6","","-36.1","","71","","","M","32","","36","","","M","100.82","","","","-50","","NA"
"-105.14","69.11","CAMBRIDGE BAY A","2400603","2022-01-21 21:00","2022","01","21","21:00","-32.2","","-35.8","","71","","","M","30","","37","","","M","100.92","","","","-50","","NA"
"-105.14","69.11","CAMBRIDGE BAY A","2400603","2022-01-21 22:00","2022","01","21","22:00","-32.0","","-35.6","","72","","","M","32","","42","","","M","100.92","","","","-51","","NA"
"-105.14","69.11","CAMBRIDGE BAY A","2400603","2022-01-21 23:00","2022","01","21","23:00","-32.2","","-35.8","","72","","","M","32","","35","","","M","100.95","","","","-50","","NA"
"-105.14","69.11","CAMBRIDGE BAY A","2400603","2022-01-22 00:00","2022","01","22","00:00","-31.9","","-35.5","","71","","","M","31","","41","","","M","101.02","","","","-50","","NA"
"-105.14","69.11","CAMBRIDGE BAY A","2400603","2022-01-22 01:00","2022","01","22","01:00","-32.1","","-35.8","","71","","","M","32","","37","","","M","101.08","","","","-50","","NA"
"-105.14","69.11","CAMBRIDGE BAY A","2400603","2022-01-22 02:00","2022","01","22","02:00","-33.2","","-37.0","","70","","","M","29","","31","","","M","101.16","","","","-50","","NA"
"-105.14","69.11","CAMBRIDGE BAY A","2400603","2022-01-22 03:00","2022","01","22","03:00","-32.6","","-36.5","","69","","","M","29","","32","","","M","101.22","","","","-49","","NA"
"-105.14","69.11","CAMBRIDGE BAY A","2400603","2022-01-22 04:00","2022","01","22","04:00","-33.1","","-36.9","","70","","","M","30","","36","","","M","101.17","","","","-51","","NA"
"-105.14","69.11","CAMBRIDGE BAY A","2400603","2022-01-22 05:00","2022","01","22","05:00","-33.2","","-36.9","","70","","","M","28","","26","","","M","101.20","","","","-49","","NA"
"-105.14","69.11","CAMBRIDGE BAY A","2400603","2022-01-22 06:00","2022","01","22","06:00","-32.5","","-36.2","","71","","","M","31","","29","","","M","101.18","","","","-49","","NA"
"-105.14","69.11","CAMBRIDGE BAY A","2400603","2022-01-22 07:00","2022","01","22","07:00","-32.6","","-36.2","","71","","","M","30","","31","","","M","101.19","","","","-49","","NA"
"-105.14","69.11","CAMBRIDGE BAY A","2400603","2022-01-22 08:00","2022","01","22","08:00","-32.3","","-35.9","","71","","","M","31","","30","","","M","101.22","","","","-49","","NA"
"-105.14","69.11","CAMBRIDGE BAY A","2400603","2022-01-22 09:00","2022","01","22","09:00","-31.9","","-35.5","","71","","","M","31","","30","","","M","101.23","","","","-48","","NA"
"-105.14","69.11","CAMBRIDGE BAY A","2400603","2022-01-22 10:00","2022","01","22","10:00","-31.9","","-35.5","","71","","","M","30","","30","","","M","101.23","","","","-48","","NA"
"-105.14","69.11","CAMBRIDGE BAY A","2400603","2022-01-22 11:00","2022","01","22","11:00","-31.7","","-35.3","","72","","","M","29","","22","","","M","101.27","","","","-46","","NA"
"-105.14","69.11","CAMBRIDGE BAY A","2400603","2022-01-22 12:00","2022","01","22","12:00","-31.5","","-35.0","","72","","","M","30","","28","","","M","101.25","","","","-47","","NA"
"-105.14","69.11","CAMBRIDGE BAY A","2400603","2022-01-22 13:00","2022","01","22","13:00","-31.9","","-35.4","","72","","","M","29","","22","","","M","101.28","","","","-46","","NA"
"-105.14","69.11","CAMBRIDGE BAY A","2400603","2022-01-22 14:00","2022","01","22","14:00","-32.0","","-35.6","","71","","","M","31","","29","","","M","101.30","","","","-48","","NA"
"-105.14","69.11","CAMBRIDGE BAY A","2400603","2022-01-22 15:00","2022","01","22","15:00","-32.2","","-35.7","","72","","","M","30","","21","","","M","101.38","","","","-46","","NA"
"-105.14","69.11","CAMBRIDGE BAY A","2400603","2022-01-22 16:00","2022","01","22","16:00","-32.5","","-36.0","","72","","","M","31","","27","","","M","101.32","","","","-48","","NA"
"-105.14","69.11","CAMBRIDGE BAY A","2400603","2022-01-22 17:00","2022","01","22","17:00","-32.4","","-36.0","","72","","","M","33","","30","","","M","101.36","","","","-49","","NA"
"-105.14","69.11","CAMBRIDGE BAY A","2400603","2022-01-22 18:00","2022","01","22","18:00","-32.6","","-36.2","","71","","","M","32","","34","","","M","101.31","","","","-50","","NA"
"-105.14","69.11","CAMBRIDGE BAY A","2400603","2022-01-22 19:00","2022","01","22","19:00","-32.4","","-36.0","","71","","","M","32","","34","","","M","101.32","","","","-50","","NA"
"-105.14","69.11","CAMBRIDGE BAY A","2400603","2022-01-22 20:00","2022","01","22","20:00","-32.4","","-36.0","","71","","","M","23","","10","","","M","101.41","","","","-42","","NA"
"-105.14","69.11","CAMBRIDGE BAY A","2400603","2022-01-22 21:00","2022","01","22","21:00","-32.5","","-36.0","","72","","","M","32","","17","","","M","101.35","","","","-45","","NA"
"-105.14","69.11","CAMBRIDGE BAY A","2400603","2022-01-22 22:00","2022","01","22","22:00","-32.8","","-36.4","","71","","","M","30","","19","","","M","101.39","","","","-46","","NA"
"-105.14","69.11","CAMBRIDGE BAY A","2400603","2022-01-22 23:00","2022","01","22","23:00","-32.7","","-36.3","","71","","","M","32","","23","","","M","101.37","","","","-47","","NA"
"-105.14","69.11","CAMBRIDGE BAY A","2400603","2022-01-23 00:00","2022","01","23","00:00","-31.6","","-35.1","","72","","","M","34","","30","","","M","101.34","","","","-48","","NA"
"-105.14","69.11","CAMBRIDGE BAY A","2400603","2022-01-23 01:00","2022","01","23","01:00","-32.3","","-35.9","","71","","","M","30","","24","","","M","101.43","","","","-47","","NA"
"-105.14","69.11","CAMBRIDGE BAY A","2400603","2022-01-23 02:00","2022","01","23","02:00","-30.8","","-34.3","","72","","","M","29","","14","","","M","101.45","","","","-42","","NA"
"-105.14","69.11","CAMBRIDGE BAY A","2400603","2022-01-23 03:00","2022","01","23","03:00","-31.0","","-34.4","","73","","","M","32","","35","","","M","101.39","","","","-48","","NA"
"-105.14","69.11","CAMBRIDGE BAY A","2400603","2022-01-23 04:00","2022","01","23","04:00","-31.1","","-34.6","","72","","","M","30","","26","","","M","101.48","","","","-46","","NA"
"-105.14","69.11","CAMBRIDGE BAY A","2400603","2022-01-23 05:00","2022","01","23","05:00","-31.4","","-35.0","","72","","","M","32","","32","","","M","101.44","","","","-48","","NA"
"-105.14","69.11","CAMBRIDGE BAY A","2400603","2022-01-23 06:00","2022","01","23","06:00","-31.8","","-35.3","","72","","","M","32","","25","","","M","101.48","","","","-47","","NA"
"-105.14","69.11","CAMBRIDGE BAY A","2400603","2022-01-23 07:00","2022","01","23","07:00","-31.2","","-34.7","","72","","","M","31","","27","","","M","101.50","","","","-46","","NA"
"-105.14","69.11","CAMBRIDGE BAY A","2400603","2022-01-23 08:00","2022","01","23","08:00","-31.9","","-35.4","","72","","","M","32","","18","","","M","101.50","","","","-45","","NA"
"-105.14","69.11","CAMBRIDGE BAY A","2400603","2022-01-23 09:00","2022","01","23","09:00","-31.4","","-34.8","","72","","","M","33","","16","","","M","101.56","","","","-44","","NA"
"-105.14","69.11","CAMBRIDGE BAY A","2400603","2022-01-23 10:00","2022","01","23","10:00","-30.9","","-34.3","","72","","","M","34","","16","","","M","101.59","","","","-43","","NA"
"-105.14","69.11","CAMBRIDGE BAY A","2400603","2022-01-23 11:00","2022","01","23","11:00","-30.9","","-34.4","","72","","","M","34","","18","","","M","101.67","","","","-44","","NA"
"-105.14","69.11","CAMBRIDGE BAY A","2400603","2022-01-23 12:00","2022","01","23","12:00","-30.8","","-34.5","","71","","","M","35","","20","","","M","101.72","","","","-44","","NA"
"-105.14","69.11","CAMBRIDGE BAY A","2400603","2022-01-23 13:00","2022","01","23","13:00","-31.1","","-34.7","","72","","","M","35","","12","","","M","101.81","","","","-41","","NA"
"-105.14","69.11","CAMBRIDGE BAY A","2400603","2022-01-23 14:00","2022","01","23","14:00","-31.8","","-35.5","","70","","","M","30","","14","","","M","101.90","","","","-43","","NA"
"-105.14","69.11","CAMBRIDGE BAY A","2400603","2022-01-23 15:00","2022","01","23","15:00","-32.7","","-36.4","","70","","","M","29","","15","","","M","101.97","","","","-45","","NA"
"-105.14","69.11","CAMBRIDGE BAY A","2400603","2022-01-23 16:00","2022","01","23","16:00","-32.5","","-36.1","","71","","","M","33","","17","","","M","102.01","","","","-45","","NA"
"-105.14","69.11","CAMBRIDGE BAY A","2400603","2022-01-23 17:00","2022","01","23","17:00","-32.9","","-36.8","","69","","","M","30","","17","","","M","102.10","","","","-46","","NA"
"-105.14","69.11","CAMBRIDGE BAY A","2400603","2022-01-23 18:00","2022","01","23","18:00","-33.2","","-37.0","","70","","","M","30","","13","","","M","102.10","","","","-44","","NA"
"-105.14","69.11","CAMBRIDGE BAY A","2400603","2022-01-23 19:00","2022","01","23","19:00","-33.1","","-36.8","","70","","","M","30","","19","","","M","102.14","","","","-47","","NA"
"-105.14","69.11","CAMBRIDGE BAY A","2400603","2022-01-23 20:00","2022","01","23","20:00","-32.3","","-35.9","","71","","","M","31","","24","","","M","102.14","","","","-47","","NA"
"-105.14","69.11","CAMBRIDGE BAY A","2400603","2022-01-23 21:00","2022","01","23","21:00","-32.6","","-36.1","","71","","","M","32","","26","","","M","102.13","","","","-48","","NA"
"-105.14","69.11","CAMBRIDGE BAY A","2400603","2022-01-23 22:00","2022","01","23","22:00","-32.4","","-35.9","","72","","","M","32","","22","","","M","102.18","","","","-47","","NA"
"-105.14","69.11","CAMBRIDGE BAY A","2400603","2022-01-23 23:00","2022","01","23","23:00","-32.6","","-36.2","","71","","","M","32","","17","","","M","102.21","","","","-45","","NA"
"-105.14","69.11","CAMBRIDGE BAY A","2400603","2022-01-24 00:00","2022","01","24","00:00","-32.4","","-36.0","","72","","","M","28","","13","","","M","102.29","","","","-44","","NA"
"-105.14","69.11","CAMBRIDGE BAY A","2400603","2022-01-24 01:00","2022","01","24","01:00","-31.8","","-35.3","","71","","","M","26","","13","","","M","102.37","","","","-43","","NA"
"-105.14","69.11","CAMBRIDGE BAY A","2400603","2022-01-24 02:00","2022","01","24","02:00","-31.7","","-35.4","","71","","","M","31","","27","","","M","102.38","","","","-47","","NA"
"-105.14","69.11","CAMBRIDGE BAY A","2400603","2022-01-24 03:00","2022","01","24","03:00","-31.9","","-35.6","","70","","","M","31","","26","","","M","102.39","","","","-47","","NA"
"-105.14","69.11","CAMBRIDGE BAY A","2400603","2022-01-24 04:00","2022","01","24","04:00","-31.4","","-35.1","","71","","","M","31","","28","","","M","102.41","","","","-47","","NA"
"-105.14","69.11","CAMBRIDGE BAY A","2400603","2022-01-24 05:00","2022","01","24","05:00","-32.2","","-35.9","","70","","","M","31","","24","","","M","102.39","","","","-47","","NA"
"-105.14","69.11","CAMBRIDGE BAY A","2400603","2022-01-24 06:00","2022","01","24","06:00","-32.5","","-36.2","","70","","","M","30","","24","","","M","102.43","","","","-47","","NA"
"-105.14","69.11","CAMBRIDGE BAY A","2400603","2022-01-24 07:00","2022","01","24","07:00","-32.6","","-36.1","","71","","","M","27","","17","","","M","102.42","","","","-45","","NA"
"-105.14","69.11","CAMBRIDGE BAY A","2400603","2022-01-24 08:00","2022","01","24","08:00","-33.2","","-36.8","","71","","","M","32","","26","","","M","102.36","","","","-49","","NA"
"-105.14","69.11","CAMBRIDGE BAY A","2400603","2022-01-24 09:00","2022","01","24","09:00","-32.5","","-35.9","","72","","","M","27","","17","","","M","102.34","","","","-45","","NA"
"-105.14","69.11","CAMBRIDGE BAY A","2400603","2022-01-24 10:00","2022","01","24","10:00","-32.7","","-35.9","","74","","","M","25","","17","","","M","102.30","","","","-45","","NA"
"-105.14","69.11","CAMBRIDGE BAY A","2400603","2022-01-24 11:00","2022","01","24","11:00","-32.4","","-35.6","","74","","","M","28","","13","","","M","102.25","","","","-44","","NA"
"-105.14","69.11","CAMBRIDGE BAY A","2400603","2022-01-24 12:00","2022","01","24","12:00","-32.1","","-35.3","","74","","","M","30","","12","","","M","102.19","","","","-43","","NA"
"-105.14","69.11","CAMBRIDGE BAY A","2400603","2022-01-24 13:00","2022","01","24","13:00","-32.1","","-35.3","","74","","","M","2","","4","","","M","102.15","","","","-37","","NA"
"-105.14","69.11","CAMBRIDGE BAY A","2400603","2022-01-24 14:00","2022","01","24","14:00","-32.0","","-35.1","","75","","","M","26","","12","","","M","102.03","","","","-43","","NA"
"-105.14","69.11","CAMBRIDGE BAY A","2400603","2022-01-24 15:00","2022","01","24","15:00","-32.2","","-35.4","","74","","","M","26","","16","","","M","102.01","","","","-45","","NA"
"-105.14","69.11","CAMBRIDGE BAY A","2400603","2022-01-24 16:00","2022","01","24","16:00","-32.0","","-35.2","","74","","","M","30","","6","","","M","101.92","","","","-39","","NA"
"-105.14","69.11","CAMBRIDGE BAY A","2400603","2022-01-24 17:00","2022","01","24","17:00","-31.7","","-34.8","","74","","","M","33","","4","","","M","101.82","","","","-36","","NA"
"-105.14","69.11","CAMBRIDGE BAY A","2400603","2022-01-24 18:00","2022","01","24","18:00","-31.4","","-34.6","","74","","","M","24","","16","","","M","101.69","","","","-44","","NA"
"-105.14","69.11","CAMBRIDGE BAY A","2400603","2022-01-24 19:00","2022","01","24","19:00","-31.2","","-34.5","","74","","","M","16","","4","","","M","101.58","","","","-36","","NA"
"-105.14","69.11","CAMBRIDGE BAY A","2400603","2022-01-24 20:00","2022","01","24","20:00","-31.0","","-34.1","","75","","","M","21","","6","","","M","101.40","","","","-38","","NA"
"-105.14","69.11","CAMBRIDGE BAY A","2400603","2022-01-24 21:00","2022","01","24","21:00","-31.9","","-35.1","","74","","","M","9","","5","","","M","101.28","","","","-38","","NA"
"-105.14","69.11","CAMBRIDGE BAY A","2400603","2022-01-24 22:00","2022","01","24","22:00","-31.0","","-34.2","","74","","","M","12","","9","","","M","101.15","","","","-40","","NA"
"-105.14","69.11","CAMBRIDGE BAY A","2400603","2022-01-24 23:00","2022","01","24","23:00","-31.8","","-35.0","","73","","","M","9","","11","","","M","101.03","","","","-42","","NA"
"-105.14","69.11","CAMBRIDGE BAY A","2400603","2022-01-25 00:00","2022","01","25","00:00","-33.4","","-36.8","","73","","","M","8","","11","","","M","100.88","","","","-44","","NA"
"-105.14","69.11","CAMBRIDGE BAY A","2400603","2022-01-25 01:00","2022","01","25","01:00","-32.8","","-36.0","","74","","","M","8","","9","","","M","100.76","","","","-42","","NA"
"-105.14","69.11","CAMBRIDGE BAY A","2400603","2022-01-25 02:00","2022","01","25","02:00","-32.2","","-35.4","","74","","","M","8","","9","","","M","100.67","","","","-41","","NA"
"-105.14","69.11","CAMBRIDGE BAY A","2400603","2022-01-25 03:00","2022","01","25","03:00","-34.6","","-38.0","","72","","","M","6","","12","","","M","100.58","","","","-46","","NA"
"-105.14","69.11","CAMBRIDGE BAY A","2400603","2022-01-25 04:00","2022","01","25","04:00","-33.7","","-37.1","","72","","","M","4","","12","","","M","100.46","","","","-45","","NA"
"-105.14","69.11","CAMBRIDGE BAY A","2400603","2022-01-25 05:00","2022","01","25","05:00","-34.3","","-37.7","","72","","","M","6","","14","","","M","100.36","","","","-46","","NA"
"-105.14","69.11","CAMBRIDGE BAY A","2400603","2022-01-25 06:00","2022","01","25","06:00","-34.1","","-37.4","","73","","","M","5","","19","","","M","100.28","","","","-48","","NA"
"-105.14","69.11","CAMBRIDGE BAY A","2400603","2022-01-25 07:00","2022","01","25","07:00","-32.5","","-35.8","","73","","","M","6","","25","","","M","100.22","","","","-48","","NA"
"-105.14","69.11","CAMBRIDGE BAY A","2400603","2022-01-25 08:00","2022","01","25","08:00","-31.3","","-34.5","","74","","","M","6","","22","","","M","100.20","","","","-45","","NA"
"-105.14","69.11","CAMBRIDGE BAY A","2400603","2022-01-25 09:00","2022","01","25","09:00","-30.3","","-33.5","","74","","","M","7","","22","","","M","100.17","","","","-44","","NA"
"-105.14","69.11","CAMBRIDGE BAY A","2400603","2022-01-25 10:00","2022","01","25","10:00","-29.6","","-32.9","","74","","","M","5","","21","","","M","100.12","","","","-43","","NA"
"-105.14","69.11","CAMBRIDGE BAY A","2400603","2022-01-25 11:00","2022","01","25","11:00","-30.2","","-33.4","","74","","","M","4","","27","","","M","100.09","","","","-45","","NA"
"-105.14","69.11","CAMBRIDGE BAY A","2400603","2022-01-25 12:00","2022","01","25","12:00","-30.9","","-34.2","","73","","","M","4","","22","","","M","100.09","","","","-45","","NA"
"-105.14","69.11","CAMBRIDGE BAY A","2400603","2022-01-25 13:00","2022","01","25","13:00","-32.4","","-35.9","","72","","","M","5","","16","","","M","100.15","","","","-45","","NA"
"-105.14","69.11","CAMBRIDGE BAY A","2400603","2022-01-25 14:00","2022","01","25","14:00","-32.0","","-35.4","","73","","","M","3","","25","","","M","100.14","","","","-47","","NA"
"-105.14","69.11","CAMBRIDGE BAY A","2400603","2022-01-25 15:00","2022","01","25","15:00","-33.4","","-36.9","","72","","","M","3","","19","","","M","100.17","","","","-47","","NA"
"-105.14","69.11","CAMBRIDGE BAY A","2400603","2022-01-25 16:00","2022","01","25","16:00","-33.6","","-37.1","","71","","","M","4","","33","","","M","100.19","","","","-51","","NA"
"-105.14","69.11","CAMBRIDGE BAY A","2400603","2022-01-25 17:00","2022","01","25","17:00","-34.2","","-37.8","","71","","","M","3","","32","","","M","100.26","","","","-52","","NA"
"-105.14","69.11","CAMBRIDGE BAY A","2400603","2022-01-25 18:00","2022","01","25","18:00","-35.1","","-38.8","","70","","","M","4","","29","","","M","100.34","","","","-52","","NA"
"-105.14","69.11","CAMBRIDGE BAY A","2400603","2022-01-25 19:00","2022","01","25","19:00","-35.7","","-39.3","","70","","","M","3","","26","","","M","100.37","","","","-52","","NA"
"-105.14","69.11","CAMBRIDGE BAY A","2400603","2022-01-25 20:00","2022","01","25","20:00","-36.1","","-39.8","","70","","","M","5","","19","","","M","100.41","","","","-50","","NA"
"-105.14","69.11","CAMBRIDGE BAY A","2400603","2022-01-25 21:00","2022","01","25","21:00","-36.1","","-39.8","","70","","","M","3","","27","","","M","100.48","","","","-53","","NA"
"-105.14","69.11","CAMBRIDGE BAY A","2400603","2022-01-25 22:00","2022","01","25","22:00","-36.0","","-39.7","","70","","","M","5","","19","","","M","100.59","","","","-50","","NA"
"-105.14","69.11","CAMBRIDGE BAY A","2400603","2022-01-25 23:00","2022","01","25","23:00","-36.1","","-39.8","","70","","","M","2","","28","","","M","100.70","","","","-53","","NA"
"-105.14","69.11","CAMBRIDGE BAY A","2400603","2022-01-26 00:00","2022","01","26","00:00","-36.5","","-40.3","","69","","","M","3","","29","","","M","100.75","","","","-54","","NA"
"-105.14","69.11","CAMBRIDGE BAY A","2400603","2022-01-26 01:00","2022","01","26","01:00","-36.6","","-40.3","","69","","","M","3","","22","","","M","100.86","","","","-52","","NA"
"-105.14","69.11","CAMBRIDGE BAY A","2400603","2022-01-26 02:00","2022","01","26","02:00","-36.6","","-40.4","","69","","","M","4","","17","","","M","100.95","","","","-50","","NA"
"-105.14","69.11","CAMBRIDGE BAY A","2400603","2022-01-26 03:00","2022","01","26","03:00","-36.2","","-39.9","","70","","","M","1","","28","","","M","101.04","","","","-53","","NA"
"-105.14","69.11","CAMBRIDGE BAY A","2400603","2022-01-26 04:00","2022","01","26","04:00","-36.6","","-40.3","","69","","","M","2","","22","","","M","101.14","","","","-52","","NA"
"-105.14","69.11","CAMBRIDGE BAY A","2400603","2022-01-26 05:00","2022","01","26","05:00","-35.7","","-39.4","","70","","","M","34","","10","","","M","101.24","","","","-46","","NA"
"-105.14","69.11","CAMBRIDGE BAY A","2400603","2022-01-26 06:00","2022","01","26","06:00","-36.5","","-40.2","","69","","","M","31","","11","","","M","101.32","","","","-47","","NA"
"-105.14","69.11","CAMBRIDGE BAY A","2400603","2022-01-26 07:00","2022","01","26","07:00","-36.6","","-40.2","","70","","","M","30","","13","","","M","101.39","","","","-49","","NA"
"-105.14","69.11","CAMBRIDGE BAY A","2400603","2022-01-26 08:00","2022","01","26","08:00","-36.7","","-40.4","","69","","","M","32","","14","","","M","101.44","","","","-49","","NA"
"-105.14","69.11","CAMBRIDGE BAY A","2400603","2022-01-26 09:00","2022","01","26","09:00","-35.8","","-39.4","","70","","","M","31","","22","","","M","101.49","","","","-51","","NA"
"-105.14","69.11","CAMBRIDGE BAY A","2400603","2022-01-26 10:00","2022","01","26","10:00","-35.6","","-39.3","","70","","","M","28","","16","","","M","101.53","","","","-49","","NA"
"-105.14","69.11","CAMBRIDGE BAY A","2400603","2022-01-26 11:00","2022","01","26","11:00","-36.0","","-39.6","","70","","","M","26","","9","","","M","101.55","","","","-46","","NA"
"-105.14","69.11","CAMBRIDGE BAY A","2400603","2022-01-26 12:00","2022","01","26","12:00","-35.5","","-39.1","","70","","","M","26","","16","","","M","101.58","","","","-49","","NA"
"-105.14","69.11","CAMBRIDGE BAY A","2400603","2022-01-26 13:00","2022","01","26","13:00","-35.6","","-39.2","","70","","","M","25","","14","","","M","101.58","","","","-48","","NA"
"-105.14","69.11","CAMBRIDGE BAY A","2400603","2022-01-26 14:00","2022","01","26","14:00","-35.4","","-39.1","","70","","","M","25","","10","","","M","101.58","","","","-46","","NA"
"-105.14","69.11","CAMBRIDGE BAY A","2400603","2022-01-26 15:00","2022","01","26","15:00","-35.6","","-39.2","","70","","","M","26","","12","","","M","101.56","","","","-47","","NA"
"-105.14","69.11","CAMBRIDGE BAY A","2400603","2022-01-26 16:00","2022","01","26","16:00","-35.4","","-39.0","","70","","","M","25","","15","","","M","101.55","","","","-48","","NA"
"-105.14","69.11","CAMBRIDGE BAY A","2400603","2022-01-26 17:00","2022","01","26","17:00","-35.9","","-39.5","","70","","","M","26","","9","","","M","101.52","","","","-46","","NA"
"-105.14","69.11","CAMBRIDGE BAY A","2400603","2022-01-26 18:00","2022","01","26","18:00","-36.0","","-39.6","","70","","","M","23","","8","","","M","101.45","","","","-45","","NA"
"-105.14","69.11","CAMBRIDGE BAY A","2400603","2022-01-26 19:00","2022","01","26","19:00","-36.2","","-39.8","","70","","","M","24","","4","","","M","101.40","","","","-41","","NA"
"-105.14","69.11","CAMBRIDGE BAY A","2400603","2022-01-26 20:00","2022","01","26","20:00","-36.2","","-39.9","","70","","","M","26","","8","","","M","101.34","","","","-45","","NA"
"-105.14","69.11","CAMBRIDGE BAY A","2400603","2022-01-26 21:00","2022","01","26","21:00","-36.0","","-39.7","","70","","","M","21","","3","","","M","101.29","","","","-40","","NA"
"-105.14","69.11","CAMBRIDGE BAY A","2400603","2022-01-26 22:00","2022","01","26","22:00","-35.7","","-39.4","","70","","","M","25","","4","","","M","101.22","","","","-41","","NA"
"-105.14","69.11","CAMBRIDGE BAY A","2400603","2022-01-26 23:00","2022","01","26","23:00","-36.3","","-40.0","","70","","","M","24","","7","","","M","101.21","","","","-45","","NA"
"-105.14","69.11","CAMBRIDGE BAY A","2400603","2022-01-27 00:00","2022","01","27","00:00","-35.2","","-38.8","","71","","","M","22","","4","","","M","101.19","","","","-40","","NA"
"-105.14","69.11","CAMBRIDGE BAY A","2400603","2022-01-27 01:00","2022","01","27","01:00","-35.8","","-39.5","","70","","","M","26","","12","","","M","101.19","","","","-47","","NA"
"-105.14","69.11","CAMBRIDGE BAY A","2400603","2022-01-27 02:00","2022","01","27","02:00","-36.0","","-39.7","","70","","","M","25","","9","","","M","101.19","","","","-46","","NA"
"-105.14","69.11","CAMBRIDGE BAY A","2400603","2022-01-27 03:00","2022","01","27","03:00","-36.3","","-39.9","","70","","","M","27","","14","","","M","101.15","","","","-49","","NA"
"-105.14","69.11","CAMBRIDGE BAY A","2400603","2022-01-27 04:00","2022","01","27","04:00","-36.4","","-40.1","","70","","","M","26","","18","","","M","101.14","","","","-50","","NA"
"-105.14","69.11","CAMBRIDGE BAY A","2400603","2022-01-27 05:00","2022","01","27","05:00","-36.4","","-40.1","","69","","","M","28","","15","","","M","101.14","","","","-49","","NA"
"-105.14","69.11","CAMBRIDGE BAY A","2400603","2022-01-27 06:00","2022","01","27","06:00","-35.7","","-39.3","","70","","","M","27","","23","","","M","101.10","","","","-51","","NA"
"-105.14","69.11","CAMBRIDGE BAY A","2400603","2022-01-27 07:00","2022","01","27","07:00","-34.5","","-38.1","","71","","","M","27","","27","","","M","101.09","","","","-51","","NA"
"-105.14","69.11","CAMBRIDGE BAY A","2400603","2022-01-27 08:00","2022","01","27","08:00","-33.0","","-36.5","","72","","","M","27","","20","","","M","101.09","","","","-47","","NA"
"-105.14","69.11","CAMBRIDGE BAY A","2400603","2022-01-27 09:00","2022","01","27","09:00","-31.0","","-34.3","","73","","","M","29","","19","","","M","101.07","","","","-44","","NA"
"-105.14","69.11","CAMBRIDGE BAY A","2400603","2022-01-27 10:00","2022","01","27","10:00","-28.8","","-31.9","","75","","","M","30","","30","","","M","101.05","","","","-44","","NA"
"-105.14","69.11","CAMBRIDGE BAY A","2400603","2022-01-27 11:00","2022","01","27","11:00","-29.2","","-32.4","","74","","","M","31","","31","","","M","101.04","","","","-45","","NA"
"-105.14","69.11","CAMBRIDGE BAY A","2400603","2022-01-27 12:00","2022","01","27","12:00","-28.9","","-32.1","","75","","","M","31","","22","","","M","101.07","","","","-42","","NA"
"-105.14","69.11","CAMBRIDGE BAY A","2400603","2022-01-27 13:00","2022","01","27","13:00","-28.0","","-31.2","","75","","","M","29","","31","","","M","101.09","","","","-43","","NA"
"-105.14","69.11","CAMBRIDGE BAY A","2400603","2022-01-27 14:00","2022","01","27","14:00","-27.3","","-30.4","","76","","","M","31","","28","","","M","101.10","","","","-42","","NA"
"-105.14","69.11","CAMBRIDGE BAY A","2400603","2022-01-27 15:00","2022","01","27","15:00","-27.6","","-30.8","","75","","","M","32","","28","","","M","101.15","","","","-42","","NA"
"-105.14","69.11","CAMBRIDGE BAY A","2400603","2022-01-27 16:00","2022","01","27","16:00","-27.4","","-30.5","","76","","","M","30","","26","","","M","101.21","","","","-41","","NA"
"-105.14","69.11","CAMBRIDGE BAY A","2400603","2022-01-27 17:00","2022","01","27","17:00","-26.7","","-29.7","","76","","","M","30","","25","","","M","101.22","","","","-40","","NA"
"-105.14","69.11","CAMBRIDGE BAY A","2400603","2022-01-27 18:00","2022","01","27","18:00","-26.6","","-29.6","","76","","","M","30","","19","","","M","101.28","","","","-39","","NA"
"-105.14","69.11","CAMBRIDGE BAY A","2400603","2022-01-27 19:00","2022","01","27","19:00","-26.5","","-29.5","","76","","","M","31","","29","","","M","101.27","","","","-41","","NA"
"-105.14","69.11","CAMBRIDGE BAY A","2400603","2022-01-27 20:00","2022","01","27","20:00","-26.9","","-29.9","","76","","","M","31","","27","","","M","101.30","","","","-41","","NA"
"-105.14","69.11","CAMBRIDGE BAY A","2400603","2022-01-27 21:00","2022","01","27","21:00","-28.5","","-31.6","","75","","","M","32","","28","","","M","101.29","","","","-43","","NA"
"-105.14","69.11","CAMBRIDGE BAY A","2400603","2022-01-27 22:00","2022","01","27","22:00","-29.4","","-32.7","","74","","","M","29","","25","","","M","101.37","","","","-44","","NA"
"-105.14","69.11","CAMBRIDGE BAY A","2400603","2022-01-27 23:00","2022","01","27","23:00","-30.6","","-33.9","","73","","","M","30","","29","","","M","101.38","","","","-46","","NA"
"-105.14","69.11","CAMBRIDGE BAY A","2400603","2022-01-28 00:00","2022","01","28","00:00","-30.2","","-33.6","","74","","","M","31","","27","","","M","101.39","","","","-45","","NA"
"-105.14","69.11","CAMBRIDGE BAY A","2400603","2022-01-28 01:00","2022","01","28","01:00","-30.4","","-33.7","","74","","","M","31","","31","","","M","101.41","","","","-46","","NA"
"-105.14","69.11","CAMBRIDGE BAY A","2400603","2022-01-28 02:00","2022","01","28","02:00","-30.3","","-33.6","","74","","","M","33","","28","","","M","101.35","","","","-46","","NA"
"-105.14","69.11","CAMBRIDGE BAY A","2400603","2022-01-28 03:00","2022","01","28","03:00","-29.9","","-33.2","","74","","","M","31","","27","","","M","101.33","","","","-45","","NA"
"-105.14","69.11","CAMBRIDGE BAY A","2400603","2022-01-28 04:00","2022","01","28","04:00","-31.2","","-34.6","","73","","","M","27","","17","","","M","101.37","","","","-44","","NA"
"-105.14","69.11","CAMBRIDGE BAY A","2400603","2022-01-28 05:00","2022","01","28","05:00","-30.8","","-34.2","","73","","","M","25","","14","","","M","101.34","","","","-42","","NA"
"-105.14","69.11","CAMBRIDGE BAY A","2400603","2022-01-28 06:00","2022","01","28","06:00","-30.8","","-34.1","","73","","","M","25","","22","","","M","101.32","","","","-45","","NA"
"-105.14","69.11","CAMBRIDGE BAY A","2400603","2022-01-28 07:00","2022","01","28","07:00","-31.3","","-34.6","","73","","","M","26","","14","","","M","101.30","","","","-43","","NA"
"-105.14","69.11","CAMBRIDGE BAY A","2400603","2022-01-28 08:00","2022","01","28","08:00","-31.5","","-34.9","","73","","","M","28","","18","","","M","101.31","","","","-44","","NA"
"-105.14","69.11","CAMBRIDGE BAY A","2400603","2022-01-28 09:00","2022","01","28","09:00","-31.9","","-35.3","","72","","","M","26","","17","","","M","101.29","","","","-44","","NA"
"-105.14","69.11","CAMBRIDGE BAY A","2400603","2022-01-28 10:00","2022","01","28","10:00","-31.8","","-35.2","","72","","","M","27","","21","","","M","101.28","","","","-46","","NA"
"-105.14","69.11","CAMBRIDGE BAY A","2400603","2022-01-28 11:00","2022","01","28","11:00","-31.4","","-34.8","","73","","","M","24","","10","","","M","101.28","","","","-41","","NA"
"-105.14","69.11","CAMBRIDGE BAY A","2400603","2022-01-28 12:00","2022","01","28","12:00","-31.1","","-34.5","","73","","","M","27","","23","","","M","101.25","","","","-45","","NA"
"-105.14","69.11","CAMBRIDGE BAY A","2400603","2022-01-28 13:00","2022","01","28","13:00","-30.5","","-33.8","","73","","","M","28","","37","","","M","101.20","","","","-48","","NA"
"-105.14","69.11","CAMBRIDGE BAY A","2400603","2022-01-28 14:00","2022","01","28","14:00","-30.2","","-33.5","","74","","","M","27","","36","","","M","101.21","","","","-47","","NA"
"-105.14","69.11","CAMBRIDGE BAY A","2400603","2022-01-28 15:00","2022","01","28","15:00","-30.3","","-33.6","","74","","","M","25","","32","","","M","101.20","","","","-46","","NA"
"-105.14","69.11","CAMBRIDGE BAY A","2400603","2022-01-28 16:00","2022","01","28","16:00","-30.5","","-33.8","","74","","","M","26","","26","","","M","101.16","","","","-45","","NA"
"-105.14","69.11","CAMBRIDGE BAY A","2400603","2022-01-28 17:00","2022","01","28","17:00","-30.7","","-34.0","","74","","","M","26","","22","","","M","101.14","","","","-45","","NA"
"-105.14","69.11","CAMBRIDGE BAY A","2400603","2022-01-28 18:00","2022","01","28","18:00","-31.2","","-34.6","","73","","","M","25","","24","","","M","101.11","","","","-46","","NA"
"-105.14","69.11","CAMBRIDGE BAY A","2400603","2022-01-28 19:00","2022","01","28","19:00","-31.2","","-34.5","","73","","","M","25","","21","","","M","101.05","","","","-45","","NA"
"-105.14","69.11","CAMBRIDGE BAY A","2400603","2022-01-28 20:00","2022","01","28","20:00","-30.7","","-34.0","","73","","","M","26","","26","","","M","100.98","","","","-46","","NA"
"-105.14","69.11","CAMBRIDGE BAY A","2400603","2022-01-28 21:00","2022","01","28","21:00","-29.6","","-32.9","","74","","","M","26","","33","","","M","100.91","","","","-46","","NA"
"-105.14","69.11","CAMBRIDGE BAY A","2400603","2022-01-28 22:00","2022","01","28","22:00","-28.4","","-31.5","","75","","","M","26","","35","","","M","100.83","","","","-45","","NA"
"-105.14","69.11","CAMBRIDGE BAY A","2400603","2022-01-28 23:00","2022","01","28","23:00","-27.1","","-30.2","","76","","","M","26","","24","","","M","100.81","","","","-40","","NA"
"-105.14","69.11","CAMBRIDGE BAY A","2400603","2022-01-29 00:00","2022","01","29","00:00","-26.0","","-28.9","","77","","","M","27","","36","","","M","100.74","","","","-42","","NA"
"-105.14","69.11","CAMBRIDGE BAY A","2400603","2022-01-29 01:00","2022","01","29","01:00","-25.8","","-28.7","","77","","","M","28","","40","","","M","100.68","","","","-42","","NA"
"-105.14","69.11","CAMBRIDGE BAY A","2400603","2022-01-29 02:00","2022","01","29","02:00","-26.0","","-28.9","","77","","","M","27","","27","","","M","100.71","","","","-40","","NA"
"-105.14","69.11","CAMBRIDGE BAY A","2400603","2022-01-29 03:00","2022","01","29","03:00","-26.4","","-29.4","","76","","","M","27","","25","","","M","100.69","","","","-40","","NA"
"-105.14","69.11","CAMBRIDGE BAY A","2400603","2022-01-29 04:00","2022","01","29","04:00","-26.9","","-30.0","","76","","","M","27","","19","","","M","100.68","","","","-39","","NA"
"-105.14","69.11","CAMBRIDGE BAY A","2400603","2022-01-29 05:00","2022","01","29","05:00","-26.4","","-29.5","","76","","","M","27","","21","","","M","100.63","","","","-39","","NA"
"-105.14","69.11","CAMBRIDGE BAY A","2400603","2022-01-29 06:00","2022","01","29","06:00","-26.7","","-29.7","","76","","","M","28","","33","","","M","100.56","","","","-42","","NA"
"-105.14","69.11","CAMBRIDGE BAY A","2400603","2022-01-29 07:00","2022","01","29","07:00","-28.4","","-31.6","","74","","","M","28","","22","","","M","100.60","","","","-42","","NA"
"-105.14","69.11","CAMBRIDGE BAY A","2400603","2022-01-29 08:00","2022","01","29","08:00","-29.9","","-33.2","","74","","","M","26","","17","","","M","100.60","","","","-42","","NA"
"-105.14","69.11","CAMBRIDGE BAY A","2400603","2022-01-29 09:00","2022","01","29","09:00","-30.6","","-33.9","","73","","","M","28","","30","","","M","100.54","","","","-46","","NA"
"-105.14","69.11","CAMBRIDGE BAY A","2400603","2022-01-29 10:00","2022","01","29","10:00","-30.8","","-34.2","","73","","","M","28","","26","","","M","100.58","","","","-46","","NA"
"-105.14","69.11","CAMBRIDGE BAY A","2400603","2022-01-29 11:00","2022","01","29","11:00","-30.9","","-34.3","","73","","","M","28","","29","","","M","100.56","","","","-47","","NA"
"-105.14","69.11","CAMBRIDGE BAY A","2400603","2022-01-29 12:00","2022","01","29","12:00","-31.2","","-34.6","","72","","","M","27","","25","","","M","100.56","","","","-46","","NA"
"-105.14","69.11","CAMBRIDGE BAY A","2400603","2022-01-29 13:00","2022","01","29","13:00","-31.2","","-34.7","","72","","","M","25","","17","","","M","100.58","","","","-44","","NA"
"-105.14","69.11","CAMBRIDGE BAY A","2400603","2022-01-29 14:00","2022","01","29","14:00","-29.8","","-33.3","","72","","","M","27","","22","","","M","100.58","","","","-43","","NA"
"-105.14","69.11","CAMBRIDGE BAY A","2400603","2022-01-29 15:00","2022","01","29","15:00","-29.5","","-32.9","","73","","","M","27","","29","","","M","100.59","","","","-45","","NA"
"-105.14","69.11","CAMBRIDGE BAY A","2400603","2022-01-29 16:00","2022","01","29","16:00","-29.9","","-33.3","","73","","","M","26","","23","","","M","100.59","","","","-44","","NA"
"-105.14","69.11","CAMBRIDGE BAY A","2400603","2022-01-29 17:00","2022","01","29","17:00","-29.6","","-33.0","","73","","","M","28","","26","","","M","100.55","","","","-44","","NA"
"-105.14","69.11","CAMBRIDGE BAY A","2400603","2022-01-29 18:00","2022","01","29","18:00","-29.6","","-33.0","","73","","","M","25","","22","","","M","100.60","","","","-43","","NA"
"-105.14","69.11","CAMBRIDGE BAY A","2400603","2022-01-29 19:00","2022","01","29","19:00","-29.0","","-32.2","","74","","","M","26","","26","","","M","100.53","","","","-43","","NA"
"-105.14","69.11","CAMBRIDGE BAY A","2400603","2022-01-29 20:00","2022","01","29","20:00","-28.4","","-31.6","","75","","","M","27","","27","","","M","100.50","","","","-43","","NA"
"-105.14","69.11","CAMBRIDGE BAY A","2400603","2022-01-29 21:00","2022","01","29","21:00","-27.8","","-31.0","","75","","","M","26","","16","","","M","100.49","","","","-39","","NA"
"-105.14","69.11","CAMBRIDGE BAY A","2400603","2022-01-29 22:00","2022","01","29","22:00","-28.3","","-31.5","","75","","","M","25","","23","","","M","100.44","","","","-42","","NA"
"-105.14","69.11","CAMBRIDGE BAY A","2400603","2022-01-29 23:00","2022","01","29","23:00","-27.6","","-30.9","","75","","","M","27","","30","","","M","100.42","","","","-42","","NA"
"-105.14","69.11","CAMBRIDGE BAY A","2400603","2022-01-30 00:00","2022","01","30","00:00","-25.9","","-28.9","","76","","","M","26","","28","","","M","100.46","","","","-40","","NA"
"-105.14","69.11","CAMBRIDGE BAY A","2400603","2022-01-30 01:00","2022","01","30","01:00","-24.7","","-27.6","","77","","","M","26","","38","","","M","100.44","","","","-40","","NA"
"-105.14","69.11","CAMBRIDGE BAY A","2400603","2022-01-30 02:00","2022","01","30","02:00","-24.3","","-27.1","","78","","","M","27","","37","","","M","100.43","","","","-39","","NA"
"-105.14","69.11","CAMBRIDGE BAY A","2400603","2022-01-30 03:00","2022","01","30","03:00","-24.0","","-26.7","","78","","","M","27","","33","","","M","100.42","","","","-38","","NA"
"-105.14","69.11","CAMBRIDGE BAY A","2400603","2022-01-30 04:00","2022","01","30","04:00","-23.6","","-26.4","","79","","","M","27","","40","","","M","100.39","","","","-39","","NA"
"-105.14","69.11","CAMBRIDGE BAY A","2400603","2022-01-30 05:00","2022","01","30","05:00","-23.8","","-26.6","","78","","","M","27","","29","","","M","100.39","","","","-37","","NA"
"-105.14","69.11","CAMBRIDGE BAY A","2400603","2022-01-30 06:00","2022","01","30","06:00","-24.1","","-27.0","","78","","","M","27","","23","","","M","100.42","","","","-36","","NA"
"-105.14","69.11","CAMBRIDGE BAY A","2400603","2022-01-30 07:00","2022","01","30","07:00","-25.5","","-28.3","","78","","","M","26","","29","","","M","100.35","","","","-40","","NA"
"-105.14","69.11","CAMBRIDGE BAY A","2400603","2022-01-30 08:00","2022","01","30","08:00","-26.5","","-29.5","","77","","","M","26","","23","","","M","100.37","","","","-39","","NA"
"-105.14","69.11","CAMBRIDGE BAY A","2400603","2022-01-30 09:00","2022","01","30","09:00","-27.8","","-30.9","","76","","","M","25","","21","","","M","100.35","","","","-41","","NA"
"-105.14","69.11","CAMBRIDGE BAY A","2400603","2022-01-30 10:00","2022","01","30","10:00","-28.4","","-31.5","","76","","","M","26","","21","","","M","100.33","","","","-41","","NA"
"-105.14","69.11","CAMBRIDGE BAY A","2400603","2022-01-30 11:00","2022","01","30","11:00","-27.0","","-30.0","","76","","","M","26","","25","","","M","100.32","","","","-41","","NA"
"-105.14","69.11","CAMBRIDGE BAY A","2400603","2022-01-30 12:00","2022","01","30","12:00","-26.0","","-28.9","","77","","","M","27","","24","","","M","100.30","","","","-39","","NA"
"-105.14","69.11","CAMBRIDGE BAY A","2400603","2022-01-30 13:00","2022","01","30","13:00","-26.2","","-29.1","","77","","","M","27","","25","","","M","100.29","","","","-40","","NA"
"-105.14","69.11","CAMBRIDGE BAY A","2400603","2022-01-30 14:00","2022","01","30","14:00","-27.6","","-30.6","","76","","","M","25","","22","","","M","100.27","","","","-41","","NA"
"-105.14","69.11","CAMBRIDGE BAY A","2400603","2022-01-30 15:00","2022","01","30","15:00","-27.7","","-30.7","","76","","","M","25","","24","","","M","100.27","","","","-41","","NA"
"-105.14","69.11","CAMBRIDGE BAY A","2400603","2022-01-30 16:00","2022","01","30","16:00","-28.9","","-32.0","","75","","","M","25","","17","","","M","100.27","","","","-41","","NA"
"-105.14","69.11","CAMBRIDGE BAY A","2400603","2022-01-30 17:00","2022","01","30","17:00","-29.4","","-32.4","","75","","","M","25","","14","","","M","100.26","","","","-40","","NA"
"-105.14","69.11","CAMBRIDGE BAY A","2400603","2022-01-30 18:00","2022","01","30","18:00","-29.7","","-32.7","","75","","","M","27","","12","","","M","100.22","","","","-40","","NA"
"-105.14","69.11","CAMBRIDGE BAY A","2400603","2022-01-30 19:00","2022","01","30","19:00","-29.7","","-32.7","","76","","","M","22","","8","","","M","100.20","","","","-38","","NA"
"-105.14","69.11","CAMBRIDGE BAY A","2400603","2022-01-30 20:00","2022","01","30","20:00","-29.5","","-32.6","","75","","","M","27","","11","","","M","100.14","","","","-39","","NA"
"-105.14","69.11","CAMBRIDGE BAY A","2400603","2022-01-30 21:00","2022","01","30","21:00","-29.4","","-32.5","","75","","","M","26","","17","","","M","100.10","","","","-41","","NA"
"-105.14","69.11","CAMBRIDGE BAY A","2400603","2022-01-30 22:00","2022","01","30","22:00","-30.7","","-34.0","","74","","","M","28","","18","","","M","100.01","","","","-43","","NA"
"-105.14","69.11","CAMBRIDGE BAY A","2400603","2022-01-30 23:00","2022","01","30","23:00","-31.5","","-34.8","","74","","","M","27","","12","","","M","99.99","","","","-42","","NA"
"-105.14","69.11","CAMBRIDGE BAY A","2400603","2022-01-31 00:00","2022","01","31","00:00","-32.1","","-35.2","","75","","","M","27","","3","","","M","99.99","","","","-36","","NA"
"-105.14","69.11","CAMBRIDGE BAY A","2400603","2022-01-31 01:00","2022","01","31","01:00","-33.4","","-36.5","","74","","","M","35","","12","","","M","99.98","","","","-44","","NA"
"-105.14","69.11","CAMBRIDGE BAY A","2400603","2022-01-31 02:00","2022","01","31","02:00","-34.7","","-38.2","","71","","","M","3","","14","","","M","100.00","","","","-47","","NA"
"-105.14","69.11","CAMBRIDGE BAY A","2400603","2022-01-31 03:00","2022","01","31","03:00","-34.8","","-38.4","","71","","","M","2","","17","","","M","99.98","","","","-48","","NA"
"-105.14","69.11","CAMBRIDGE BAY A","2400603","2022-01-31 04:00","2022","01","31","04:00","-35.3","","-39.0","","70","","","M","3","","15","","","M","99.99","","","","-48","","NA"
"-105.14","69.11","CAMBRIDGE BAY A","2400603","2022-01-31 05:00","2022","01","31","05:00","-34.4","","-37.9","","71","","","M","3","","22","","","M","100.00","","","","-49","","NA"
"-105.14","69.11","CAMBRIDGE BAY A","2400603","2022-01-31 06:00","2022","01","31","06:00","-34.2","","-37.8","","71","","","M","2","","23","","","M","100.01","","","","-49","","NA"
"-105.14","69.11","CAMBRIDGE BAY A","2400603","2022-01-31 07:00","2022","01","31","07:00","-33.6","","-37.2","","71","","","M","1","","12","","","M","100.09","","","","-45","","NA"
"-105.14","69.11","CAMBRIDGE BAY A","2400603","2022-01-31 08:00","2022","01","31","08:00","-33.5","","-37.1","","71","","","M","34","","24","","","M","100.12","","","","-49","","NA"
"-105.14","69.11","CAMBRIDGE BAY A","2400603","2022-01-31 09:00","2022","01","31","09:00","-33.9","","-37.7","","70","","","M","32","","26","","","M","100.15","","","","-50","","NA"
"-105.14","69.11","CAMBRIDGE BAY A","2400603","2022-01-31 10:00","2022","01","31","10:00","-34.2","","-37.9","","70","","","M","32","","30","","","M","100.18","","","","-51","","NA"
"-105.14","69.11","CAMBRIDGE BAY A","2400603","2022-01-31 11:00","2022","01","31","11:00","-34.1","","-37.8","","70","","","M","31","","19","","","M","100.24","","","","-48","","NA"
"-105.14","69.11","CAMBRIDGE BAY A","2400603","2022-01-31 12:00","2022","01","31","12:00","-33.6","","-37.3","","70","","","M","32","","21","","","M","100.29","","","","-48","","NA"
"-105.14","69.11","CAMBRIDGE BAY A","2400603","2022-01-31 13:00","2022","01","31","13:00","-33.1","","-36.8","","71","","","M","33","","20","","","M","100.37","","","","-47","","NA"
"-105.14","69.11","CAMBRIDGE BAY A","2400603","2022-01-31 14:00","2022","01","31","14:00","-33.0","","-36.8","","70","","","M","35","","25","","","M","100.45","","","","-48","","NA"
"-105.14","69.11","CAMBRIDGE BAY A","2400603","2022-01-31 15:00","2022","01","31","15:00","-32.7","","-36.5","","70","","","M","34","","22","","","M","100.60","","","","-47","","NA"
"-105.14","69.11","CAMBRIDGE BAY A","2400603","2022-01-31 16:00","2022","01","31","16:00","-31.7","","-35.4","","71","","","M","36","","32","","","M","100.68","","","","-48","","NA"
"-105.14","69.11","CAMBRIDGE BAY A","2400603","2022-01-31 17:00","2022","01","31","17:00","-32.4","","-36.1","","71","","","M","35","","27","","","M","100.83","","","","-48","","NA"
"-105.14","69.11","CAMBRIDGE BAY A","2400603","2022-01-31 18:00","2022","01","31","18:00","-32.4","","-35.9","","71","","","M","1","","23","","","M","100.97","","","","-47","","NA"
"-105.14","69.11","CAMBRIDGE BAY A","2400603","2022-01-31 19:00","2022","01","31","19:00","-32.2","","-35.8","","71","","","M","1","","31","","","M","101.07","","","","-49","","NA"
"-105.14","69.11","CAMBRIDGE BAY A","2400603","2022-01-31 20:00","2022","01","31","20:00","-33.0","","-36.7","","71","","","M","36","","27","","","M","101.20","","","","-49","","NA"
"-105.14","69.11","CAMBRIDGE BAY A","2400603","2022-01-31 21:00","2022","01","31","21:00","-32.8","","-36.6","","70","","","M","36","","30","","","M","101.26","","","","-49","","NA"
"-105.14","69.11","CAMBRIDGE BAY A","2400603","2022-01-31 22:00","2022","01","31","22:00","-31.8","","-35.5","","71","","","M","33","","21","","","M","101.39","","","","-46","","NA"
"-105.14","69.11","CAMBRIDGE BAY A","2400603","2022-01-31 23:00","2022","01","31","23:00","-30.1","","-33.6","","72","","","M","36","","22","","","M","101.49","","","","-44","","NA"
