"Longitude (x)","Latitude (y)","Station Name","Climate ID","Date/Time (LST)","Year","Month","Day","Time (LST)","Temp (°C)","Temp Flag","Dew Point Temp (°C)","Dew Point Temp Flag","Rel Hum (%)","Rel Hum Flag","Precip. Amount (mm)","Precip. Amount Flag","Wind Dir (10s deg)","Wind Dir Flag","Wind Spd (km/h)","Wind Spd Flag","Visibility (km)","Visibility Flag","Stn Press (kPa)","Stn Press Flag","Hmdx","Hmdx Flag","Wind Chill","Wind Chill Flag","Weather"
"-68.56","63.76","IQALUIT A","2402596","2020-07-01 00:00","2020","07","01","00:00","3.4","","1.3","","86","","","","28","","4","","48.3","","101.60","","","","","","NA"
"-68.56","63.76","IQALUIT A","2402596","2020-07-01 01:00","2020","07","01","01:00","2.8","","1.0","","88","","","","29","","4","","48.3","","101.59","","","","","","Mainly Clear"
"-68.56","63.76","IQALUIT A","2402596","2020-07-01 02:00","2020","07","01","02:00","2.7","","1.1","","89","","","","32","","10","","48.3","","101.61","","","","","","NA"
"-68.56","63.76","IQALUIT A","2402596","2020-07-01 03:00","2020","07","01","03:00","3.5","","1.5","","87","","","","31","","11","","48.3","","101.62","","","","","","NA"
"-68.56","63.76","IQALUIT A","2402596","2020-07-01 04:00","2020","07","01","04:00","4.8","","1.8","","81","","","","28","","7","","48.3","","101.61","","","","","","Mainly Clear"
"-68.56","63.76","IQALUIT A","2402596","2020-07-01 05:00","2020","07","01","05:00","8.4","","2.8","","68","","","","32","","13","","48.3","","101.59","","","","","","NA"
"-68.56","63.76","IQALUIT A","2402596","2020-07-01 06:00","2020","07","01","06:00","9.9","","3.1","","63","","","","30","","16","","48.3","","101.57","","","","","","NA"
"-68.56","63.76","IQALUIT A","2402596","2020-07-01 07:00","2020","07","01","07:00","12.2","","3.6","","56","","","","32","","26","","48.3","","101.52","","","","","","Mainly Clear"
"-68.56","63.76","IQALUIT A","2402596","2020-07-01 08:00","2020","07","01","08:00","13.8","","4.6","","54","","","","34","","29","","48.3","","101.49","","","","","","NA"
"-68.56","63.76","IQALUIT A","2402596","2020-07-01 09:00","2020","07","01","09:00","15.6","","5.9","","52","","","","32","","34","","48.3","","101.45","","","","","","NA"
"-68.56","63.76","IQALUIT A","2402596","2020-07-01 10:00","2020","07","01","10:00","17.0","","7.3","","53","","","","33","","28","","48.3","","101.44","","","","","","Mainly Clear"
"-68.56","63.76","IQALUIT A","2402596","2020-07-01 11:00","2020","07","01","11:00","18.1","","6.0","","45","","","","36","","35","","48.3","","101.41","","","","","","NA"
"-68.56","63.76","IQALUIT A","2402596","2020-07-01 12:00","2020","07","01","12:00","17.5","","5.9","","46","","","","36","","30","","48.3","","101.40","","","","","","NA"
"-68.56","63.76","IQALUIT A","2402596","2020-07-01 13:00","2020","07","01","13:00","17.9","","6.5","","47","","","","36","","27","","48.3","","101.40","","","","","","Mostly Cloudy"
"-68.56","63.76","IQALUIT A","2402596","2020-07-01 14:00","2020","07","01","14:00","17.7","","6.1","","46","","","","36","","22","","48.3","","101.37","","","","","","NA"
"-68.56","63.76","IQALUIT A","2402596","2020-07-01 15:00","2020","07","01","15:00","17.6","","6.2","","47","","","","34","","32","","48.3","","101.36","","","","","","NA"
"-68.56","63.76","IQALUIT A","2402596","2020-07-01 16:00","2020","07","01","16:00","17.5","","5.5","","45","","","","33","","33","","48.3","","101.35","","","","","","Mostly Cloudy"
"-68.56","63.76","IQALUIT A","2402596","2020-07-01 17:00","2020","07","01","17:00","17.7","","6.1","","46","","","","32","","28","","48.3","","101.34","","","","","","NA"
"-68.56","63.76","IQALUIT A","2402596","2020-07-01 18:00","2020","07","01","18:00","17.1","","6.3","","49","","","","32","","27","","48.3","","101.31","","","","","","NA"
"-68.56","63.76","IQALUIT A","2402596","2020-07-01 19:00","2020","07","01","19:00","16.0","","6.7","","54","","","","32","","31","","48.3","","101.30","","","","","","Mostly Cloudy"
"-68.56","63.76","IQALUIT A","2402596","2020-07-01 20:00","2020","07","01","20:00","14.7","","7.2","","60","","","","32","","20","","48.3","","101.30","","","","","","NA"
"-68.56","63.76","IQALUIT A","2402596","2020-07-01 21:00","2020","07","01","21:00","13.2","","7.4","","68","","","","32","","12","","48.3","","101.29","","","","","","NA"
"-68.56","63.76","IQALUIT A","2402596","2020-07-01 22:00","2020","07","01","22:00","13.0","","6.6","","65","","","","32","","12","","48.3","","101.27","","","","","","Mostly Cloudy"
"-68.56","63.76","IQALUIT A","2402596","2020-07-01 23:00","2020","07","01","23:00","12.4","","6.5","","67","","","","32","","15","","48.3","","101.24","","","","","","NA"
"-68.56","63.76","IQALUIT A","2402596","2020-07-02 00:00","2020","07","02","00:00","11.7","","6.8","","72","","","","34","","12","","48.3","","101.22","","","","","","NA"
"-68.56","63.76","IQALUIT A","2402596","2020-07-02 01:00","2020","07","02","01:00","10.7","","6.6","","76","","","","31","","16","","48.3","","101.18","","","","","","Mostly Cloudy"
"-68.56","63.76","IQALUIT A","2402596","2020-07-02 02:00","2020","07","02","02:00","9.8","","6.4","","79","","","","33","","16","","48.3","","101.17","","","","","","NA"
"-68.56","63.76","IQALUIT A","2402596","2020-07-02 03:00","2020","07","02","03:00","9.7","","6.3","","79","","","","32","","17","","48.3","","101.14","","","","","","NA"
"-68.56","63.76","IQALUIT A","2402596","2020-07-02 04:00","2020","07","02","04:00","11.9","","7.5","","74","","","","34","","13","","48.3","","101.14","","","","","","Mostly Cloudy"
"-68.56","63.76","IQALUIT A","2402596","2020-07-02 05:00","2020","07","02","05:00","12.5","","7.6","","72","","","","32","","13","","48.3","","101.11","","","","","","NA"
"-68.56","63.76","IQALUIT A","2402596","2020-07-02 06:00","2020","07","02","06:00","14.1","","8.5","","69","","","","33","","15","","48.3","","101.11","","","","","","NA"
"-68.56","63.76","IQALUIT A","2402596","2020-07-02 07:00","2020","07","02","07:00","6.5","","3.8","","83","","","","15","","8","","48.3","","101.09","","","","","","Mainly Clear"
"-68.56","63.76","IQALUIT A","2402596","2020-07-02 08:00","2020","07","02","08:00","6.2","","3.6","","83","","","","15","","10","","48.3","","101.08","","","","","","NA"
"-68.56","63.76","IQALUIT A","2402596","2020-07-02 09:00","2020","07","02","09:00","7.2","","3.1","","75","","","","15","","12","","48.3","","101.05","","","","","","NA"
"-68.56","63.76","IQALUIT A","2402596","2020-07-02 10:00","2020","07","02","10:00","8.3","","4.1","","74","","","","14","","11","","48.3","","101.02","","","","","","Mostly Cloudy"
"-68.56","63.76","IQALUIT A","2402596","2020-07-02 11:00","2020","07","02","11:00","9.2","","4.6","","73","","","","15","","9","","48.3","","100.98","","","","","","NA"
"-68.56","63.76","IQALUIT A","2402596","2020-07-02 12:00","2020","07","02","12:00","10.0","","5.5","","73","","","","15","","10","","48.3","","100.95","","","","","","NA"
"-68.56","63.76","IQALUIT A","2402596","2020-07-02 13:00","2020","07","02","13:00","12.0","","7.5","","74","","","","14","","9","","48.3","","100.95","","","","","","Mainly Clear"
"-68.56","63.76","IQALUIT A","2402596","2020-07-02 14:00","2020","07","02","14:00","12.3","","7.5","","73","","","","14","","8","","48.3","","100.93","","","","","","NA"
"-68.56","63.76","IQALUIT A","2402596","2020-07-02 15:00","2020","07","02","15:00","13.3","","7.9","","70","","","","15","","7","","48.3","","100.92","","","","","","NA"
"-68.56","63.76","IQALUIT A","2402596","2020-07-02 16:00","2020","07","02","16:00","12.0","","8.9","","81","","","","15","","6","","48.3","","100.90","","","","","","Rain Showers"
"-68.56","63.76","IQALUIT A","2402596","2020-07-02 17:00","2020","07","02","17:00","10.5","","7.4","","81","","","","15","","9","","48.3","","100.91","","","","","","NA"
"-68.56","63.76","IQALUIT A","2402596","2020-07-02 18:00","2020","07","02","18:00","6.8","","3.6","","80","","","","14","","10","","48.3","","100.92","","","","","","NA"
"-68.56","63.76","IQALUIT A","2402596","2020-07-02 19:00","2020","07","02","19:00","6.6","","3.8","","82","","","","15","","8","","48.3","","100.94","","","","","","Mostly Cloudy"
"-68.56","63.76","IQALUIT A","2402596","2020-07-02 20:00","2020","07","02","20:00","7.8","","3.9","","76","","","","14","","4","","48.3","","100.97","","","","","","NA"
"-68.56","63.76","IQALUIT A","2402596","2020-07-02 21:00","2020","07","02","21:00","7.2","","2.7","","73","","","","14","","7","","48.3","","101.00","","","","","","NA"
"-68.56","63.76","IQALUIT A","2402596","2020-07-02 22:00","2020","07","02","22:00","6.5","","2.5","","75","","","","25","","7","","48.3","","101.03","","","","","","Mostly Cloudy"
"-68.56","63.76","IQALUIT A","2402596","2020-07-02 23:00","2020","07","02","23:00","4.5","","2.0","","84","","","","22","","7","","48.3","","101.04","","","","","","NA"
"-68.56","63.76","IQALUIT A","2402596","2020-07-03 00:00","2020","07","03","00:00","5.1","","2.4","","83","","","","36","","2","","48.3","","101.02","","","","","","NA"
"-68.56","63.76","IQALUIT A","2402596","2020-07-03 01:00","2020","07","03","01:00","5.2","","2.6","","84","","","","32","","5","","48.3","","101.01","","","","","","Mostly Cloudy"
"-68.56","63.76","IQALUIT A","2402596","2020-07-03 02:00","2020","07","03","02:00","4.0","","2.2","","88","","","","16","","3","","48.3","","101.00","","","","","","NA"
"-68.56","63.76","IQALUIT A","2402596","2020-07-03 03:00","2020","07","03","03:00","4.8","","2.8","","87","","","","28","","7","","48.3","","101.01","","","","","","NA"
"-68.56","63.76","IQALUIT A","2402596","2020-07-03 04:00","2020","07","03","04:00","5.7","","3.3","","85","","","","36","","2","","48.3","","101.03","","","","","","Mostly Cloudy"
"-68.56","63.76","IQALUIT A","2402596","2020-07-03 05:00","2020","07","03","05:00","6.1","","3.3","","82","","","","26","","7","","48.3","","101.04","","","","","","NA"
"-68.56","63.76","IQALUIT A","2402596","2020-07-03 06:00","2020","07","03","06:00","7.9","","3.5","","74","","","","25","","8","","48.3","","101.05","","","","","","NA"
"-68.56","63.76","IQALUIT A","2402596","2020-07-03 07:00","2020","07","03","07:00","8.0","","3.7","","74","","","","24","","8","","48.3","","101.05","","","","","","Mostly Cloudy"
"-68.56","63.76","IQALUIT A","2402596","2020-07-03 08:00","2020","07","03","08:00","8.5","","3.8","","72","","","","15","","7","","48.3","","101.04","","","","","","NA"
"-68.56","63.76","IQALUIT A","2402596","2020-07-03 09:00","2020","07","03","09:00","7.3","","3.6","","77","","","","15","","10","","48.3","","101.03","","","","","","NA"
"-68.56","63.76","IQALUIT A","2402596","2020-07-03 10:00","2020","07","03","10:00","7.2","","3.4","","76","","","","14","","9","","48.3","","101.04","","","","","","Mainly Clear"
"-68.56","63.76","IQALUIT A","2402596","2020-07-03 11:00","2020","07","03","11:00","8.1","","4.1","","76","","","","14","","11","","48.3","","101.04","","","","","","NA"
"-68.56","63.76","IQALUIT A","2402596","2020-07-03 12:00","2020","07","03","12:00","8.7","","4.6","","76","","","","15","","12","","48.3","","101.02","","","","","","NA"
"-68.56","63.76","IQALUIT A","2402596","2020-07-03 13:00","2020","07","03","13:00","9.5","","4.2","","70","","","","15","","12","","48.3","","101.00","","","","","","Mostly Cloudy"
"-68.56","63.76","IQALUIT A","2402596","2020-07-03 14:00","2020","07","03","14:00","7.4","","3.3","","75","","","","14","","11","","48.3","","100.98","","","","","","NA"
"-68.56","63.76","IQALUIT A","2402596","2020-07-03 15:00","2020","07","03","15:00","7.6","","2.8","","72","","","","15","","14","","48.3","","100.97","","","","","","NA"
"-68.56","63.76","IQALUIT A","2402596","2020-07-03 16:00","2020","07","03","16:00","8.1","","3.1","","71","","","","14","","10","","48.3","","100.96","","","","","","Mainly Clear"
"-68.56","63.76","IQALUIT A","2402596","2020-07-03 17:00","2020","07","03","17:00","8.4","","3.3","","70","","","","16","","10","","48.3","","100.96","","","","","","NA"
"-68.56","63.76","IQALUIT A","2402596","2020-07-03 18:00","2020","07","03","18:00","8.3","","3.1","","70","","","","16","","8","","48.3","","100.96","","","","","","NA"
"-68.56","63.76","IQALUIT A","2402596","2020-07-03 19:00","2020","07","03","19:00","6.8","","1.4","","69","","","","15","","4","","48.3","","100.99","","","","","","Mainly Clear"
"-68.56","63.76","IQALUIT A","2402596","2020-07-03 20:00","2020","07","03","20:00","6.0","","1.1","","71","","","","15","","4","","48.3","","100.99","","","","","","NA"
"-68.56","63.76","IQALUIT A","2402596","2020-07-03 21:00","2020","07","03","21:00","5.8","","1.1","","72","","","","12","","8","","48.3","","101.00","","","","","","NA"
"-68.56","63.76","IQALUIT A","2402596","2020-07-03 22:00","2020","07","03","22:00","5.2","","1.4","","76","","","","36","","2","","48.3","","101.01","","","","","","Mainly Clear"
"-68.56","63.76","IQALUIT A","2402596","2020-07-03 23:00","2020","07","03","23:00","5.5","","1.3","","74","","","","36","","2","","48.3","","101.01","","","","","","NA"
"-68.56","63.76","IQALUIT A","2402596","2020-07-04 00:00","2020","07","04","00:00","6.1","","1.4","","72","","","","31","","3","","48.3","","101.02","","","","","","NA"
"-68.56","63.76","IQALUIT A","2402596","2020-07-04 01:00","2020","07","04","01:00","5.0","","2.0","","81","","","","36","","1","","48.3","","101.01","","","","","","Mainly Clear"
"-68.56","63.76","IQALUIT A","2402596","2020-07-04 02:00","2020","07","04","02:00","5.2","","2.1","","81","","","","0","","1","","48.3","","101.04","","","","","","NA"
"-68.56","63.76","IQALUIT A","2402596","2020-07-04 03:00","2020","07","04","03:00","5.1","","2.4","","83","","","","36","","2","","48.3","","101.04","","","","","","NA"
"-68.56","63.76","IQALUIT A","2402596","2020-07-04 04:00","2020","07","04","04:00","8.2","","4.5","","78","","","","32","","5","","48.3","","101.03","","","","","","Mainly Clear"
"-68.56","63.76","IQALUIT A","2402596","2020-07-04 05:00","2020","07","04","05:00","10.9","","7.1","","77","","","","32","","22","","48.3","","101.02","","","","","","NA"
"-68.56","63.76","IQALUIT A","2402596","2020-07-04 06:00","2020","07","04","06:00","11.1","","7.3","","77","","","","32","","18","","48.3","","100.99","","","","","","NA"
"-68.56","63.76","IQALUIT A","2402596","2020-07-04 07:00","2020","07","04","07:00","13.4","","7.7","","68","","","","34","","21","","48.3","","101.00","","","","","","Clear"
"-68.56","63.76","IQALUIT A","2402596","2020-07-04 08:00","2020","07","04","08:00","14.8","","6.5","","57","","","","33","","17","","48.3","","101.00","","","","","","NA"
"-68.56","63.76","IQALUIT A","2402596","2020-07-04 09:00","2020","07","04","09:00","15.9","","7.5","","57","","","","34","","16","","48.3","","100.97","","","","","","NA"
"-68.56","63.76","IQALUIT A","2402596","2020-07-04 10:00","2020","07","04","10:00","13.2","","7.2","","67","","","","15","","8","","48.3","","100.91","","","","","","Mainly Clear"
"-68.56","63.76","IQALUIT A","2402596","2020-07-04 11:00","2020","07","04","11:00","13.2","","8.2","","71","","","","12","","10","","48.3","","100.86","","","","","","NA"
"-68.56","63.76","IQALUIT A","2402596","2020-07-04 12:00","2020","07","04","12:00","12.3","","7.3","","71","","","","14","","10","","48.3","","100.84","","","","","","NA"
"-68.56","63.76","IQALUIT A","2402596","2020-07-04 13:00","2020","07","04","13:00","11.5","","7.1","","74","","","","15","","13","","48.3","","100.80","","","","","","Mainly Clear"
"-68.56","63.76","IQALUIT A","2402596","2020-07-04 14:00","2020","07","04","14:00","12.8","","7.6","","71","","","","16","","10","","48.3","","100.77","","","","","","NA"
"-68.56","63.76","IQALUIT A","2402596","2020-07-04 15:00","2020","07","04","15:00","12.1","","5.9","","66","","","","16","","8","","48.3","","100.71","","","","","","NA"
"-68.56","63.76","IQALUIT A","2402596","2020-07-04 16:00","2020","07","04","16:00","17.5","","6.2","","47","","","","32","","17","","48.3","","100.70","","","","","","Mostly Cloudy"
"-68.56","63.76","IQALUIT A","2402596","2020-07-04 17:00","2020","07","04","17:00","18.3","","5.8","","44","","","","32","","13","","48.3","","100.67","","","","","","NA"
"-68.56","63.76","IQALUIT A","2402596","2020-07-04 18:00","2020","07","04","18:00","17.2","","4.4","","42","","","","28","","25","","48.3","","100.64","","","","","","NA"
"-68.56","63.76","IQALUIT A","2402596","2020-07-04 19:00","2020","07","04","19:00","14.0","","5.0","","54","","","","29","","22","","48.3","","100.65","","","","","","Mostly Cloudy"
"-68.56","63.76","IQALUIT A","2402596","2020-07-04 20:00","2020","07","04","20:00","13.0","","6.2","","63","","","","29","","18","","48.3","","100.64","","","","","","NA"
"-68.56","63.76","IQALUIT A","2402596","2020-07-04 21:00","2020","07","04","21:00","13.1","","7.2","","67","","","","30","","21","","48.3","","100.59","","","","","","NA"
"-68.56","63.76","IQALUIT A","2402596","2020-07-04 22:00","2020","07","04","22:00","12.2","","7.6","","73","","","","30","","12","","48.3","","100.57","","","","","","Mostly Cloudy"
"-68.56","63.76","IQALUIT A","2402596","2020-07-04 23:00","2020","07","04","23:00","12.2","","8.3","","77","","","","30","","20","","48.3","","100.54","","","","","","Rain"
"-68.56","63.76","IQALUIT A","2402596","2020-07-05 00:00","2020","07","05","00:00","11.8","","8.2","","78","","","","30","","23","","48.3","","100.54","","","","","","Rain"
"-68.56","63.76","IQALUIT A","2402596","2020-07-05 01:00","2020","07","05","01:00","10.8","","7.6","","80","","","","29","","18","","48.3","","100.49","","","","","","Mostly Cloudy"
"-68.56","63.76","IQALUIT A","2402596","2020-07-05 02:00","2020","07","05","02:00","10.4","","6.2","","75","","","","31","","25","","48.3","","100.50","","","","","","NA"
"-68.56","63.76","IQALUIT A","2402596","2020-07-05 03:00","2020","07","05","03:00","10.0","","6.0","","76","","","","32","","18","","48.3","","100.47","","","","","","NA"
"-68.56","63.76","IQALUIT A","2402596","2020-07-05 04:00","2020","07","05","04:00","10.0","","5.6","","74","","","","31","","16","","48.3","","100.47","","","","","","Mostly Cloudy"
"-68.56","63.76","IQALUIT A","2402596","2020-07-05 05:00","2020","07","05","05:00","10.4","","5.7","","73","","","","32","","9","","48.3","","100.47","","","","","","NA"
"-68.56","63.76","IQALUIT A","2402596","2020-07-05 06:00","2020","07","05","06:00","11.4","","5.5","","67","","","","34","","12","","48.3","","100.45","","","","","","NA"
"-68.56","63.76","IQALUIT A","2402596","2020-07-05 07:00","2020","07","05","07:00","11.1","","4.9","","65","","","","26","","8","","48.3","","100.42","","","","","","Mostly Cloudy"
"-68.56","63.76","IQALUIT A","2402596","2020-07-05 08:00","2020","07","05","08:00","6.1","","3.6","","84","","","","16","","10","","48.3","","100.36","","","","","","NA"
"-68.56","63.76","IQALUIT A","2402596","2020-07-05 09:00","2020","07","05","09:00","7.3","","5.2","","86","","","","15","","7","","48.3","","100.30","","","","","","NA"
"-68.56","63.76","IQALUIT A","2402596","2020-07-05 10:00","2020","07","05","10:00","6.5","","5.0","","90","","","","13","","5","","48.3","","100.23","","","","","","Rain"
"-68.56","63.76","IQALUIT A","2402596","2020-07-05 11:00","2020","07","05","11:00","6.1","","5.1","","93","","","","14","","9","","6.4","","100.17","","","","","","Rain,Fog"
"-68.56","63.76","IQALUIT A","2402596","2020-07-05 12:00","2020","07","05","12:00","6.4","","5.9","","96","","","","14","","11","","48.3","","100.11","","","","","","Rain"
"-68.56","63.76","IQALUIT A","2402596","2020-07-05 13:00","2020","07","05","13:00","6.3","","5.9","","97","","","","15","","8","","48.3","","100.07","","","","","","Cloudy"
"-68.56","63.76","IQALUIT A","2402596","2020-07-05 14:00","2020","07","05","14:00","7.3","","6.9","","97","","","","14","","3","","48.3","","100.07","","","","","","Rain"
"-68.56","63.76","IQALUIT A","2402596","2020-07-05 15:00","2020","07","05","15:00","7.7","","7.1","","96","","","","14","","4","","48.3","","100.08","","","","","","Rain"
"-68.56","63.76","IQALUIT A","2402596","2020-07-05 16:00","2020","07","05","16:00","8.0","","7.4","","96","","","","19","","4","","48.3","","100.08","","","","","","Rain"
"-68.56","63.76","IQALUIT A","2402596","2020-07-05 17:00","2020","07","05","17:00","7.1","","6.6","","97","","","","15","","9","","48.3","","100.07","","","","","","NA"
"-68.56","63.76","IQALUIT A","2402596","2020-07-05 18:00","2020","07","05","18:00","7.6","","7.2","","97","","","","15","","7","","48.3","","100.08","","","","","","NA"
"-68.56","63.76","IQALUIT A","2402596","2020-07-05 19:00","2020","07","05","19:00","11.3","","8.6","","83","","","","29","","21","","48.3","","100.11","","","","","","Mostly Cloudy"
"-68.56","63.76","IQALUIT A","2402596","2020-07-05 20:00","2020","07","05","20:00","11.3","","8.3","","82","","","","30","","19","","48.3","","100.15","","","","","","NA"
"-68.56","63.76","IQALUIT A","2402596","2020-07-05 21:00","2020","07","05","21:00","10.6","","7.8","","82","","","","31","","18","","48.3","","100.18","","","","","","NA"
"-68.56","63.76","IQALUIT A","2402596","2020-07-05 22:00","2020","07","05","22:00","9.8","","7.2","","83","","","","32","","13","","48.3","","100.20","","","","","","Mostly Cloudy"
"-68.56","63.76","IQALUIT A","2402596","2020-07-05 23:00","2020","07","05","23:00","9.4","","7.1","","86","","","","32","","13","","48.3","","100.21","","","","","","NA"
"-68.56","63.76","IQALUIT A","2402596","2020-07-06 00:00","2020","07","06","00:00","8.3","","6.2","","87","","","","31","","16","","48.3","","100.25","","","","","","NA"
"-68.56","63.76","IQALUIT A","2402596","2020-07-06 01:00","2020","07","06","01:00","8.7","","6.2","","84","","","","34","","21","","48.3","","100.27","","","","","","Mostly Cloudy"
"-68.56","63.76","IQALUIT A","2402596","2020-07-06 02:00","2020","07","06","02:00","8.4","","6.2","","86","","","","34","","28","","48.3","","100.33","","","","","","NA"
"-68.56","63.76","IQALUIT A","2402596","2020-07-06 03:00","2020","07","06","03:00","8.2","","6.0","","86","","","","32","","23","","48.3","","100.37","","","","","","NA"
"-68.56","63.76","IQALUIT A","2402596","2020-07-06 04:00","2020","07","06","04:00","8.1","","5.8","","85","","","","34","","28","","48.3","","100.41","","","","","","Mostly Cloudy"
"-68.56","63.76","IQALUIT A","2402596","2020-07-06 05:00","2020","07","06","05:00","7.9","","5.4","","84","","","","33","","31","","48.3","","100.45","","","","","","NA"
"-68.56","63.76","IQALUIT A","2402596","2020-07-06 06:00","2020","07","06","06:00","8.5","","5.7","","82","","","","33","","29","","48.3","","100.48","","","","","","NA"
"-68.56","63.76","IQALUIT A","2402596","2020-07-06 07:00","2020","07","06","07:00","9.2","","5.5","","78","","","","31","","22","","48.3","","100.50","","","","","","Mostly Cloudy"
"-68.56","63.76","IQALUIT A","2402596","2020-07-06 08:00","2020","07","06","08:00","8.9","","5.7","","80","","","","34","","25","","48.3","","100.55","","","","","","NA"
"-68.56","63.76","IQALUIT A","2402596","2020-07-06 09:00","2020","07","06","09:00","9.6","","5.3","","74","","","","35","","23","","48.3","","100.55","","","","","","NA"
"-68.56","63.76","IQALUIT A","2402596","2020-07-06 10:00","2020","07","06","10:00","11.1","","5.0","","66","","","","33","","17","","48.3","","100.56","","","","","","Mainly Clear"
"-68.56","63.76","IQALUIT A","2402596","2020-07-06 11:00","2020","07","06","11:00","12.5","","4.5","","58","","","","33","","14","","48.3","","100.53","","","","","","NA"
"-68.56","63.76","IQALUIT A","2402596","2020-07-06 12:00","2020","07","06","12:00","12.8","","4.0","","55","","","","26","","10","","48.3","","100.54","","","","","","NA"
"-68.56","63.76","IQALUIT A","2402596","2020-07-06 13:00","2020","07","06","13:00","13.6","","3.5","","50","","","","23","","14","","48.3","","100.52","","","","","","Mainly Clear"
"-68.56","63.76","IQALUIT A","2402596","2020-07-06 14:00","2020","07","06","14:00","12.1","","5.5","","64","","","","16","","12","","48.3","","100.48","","","","","","NA"
"-68.56","63.76","IQALUIT A","2402596","2020-07-06 15:00","2020","07","06","15:00","10.8","","6.3","","73","","","","13","","7","","48.3","","100.50","","","","","","NA"
"-68.56","63.76","IQALUIT A","2402596","2020-07-06 16:00","2020","07","06","16:00","11.3","","3.9","","60","","","","14","","9","","48.3","","100.47","","","","","","Mainly Clear"
"-68.56","63.76","IQALUIT A","2402596","2020-07-06 17:00","2020","07","06","17:00","9.6","","4.0","","68","","","","16","","7","","48.3","","100.47","","","","","","NA"
"-68.56","63.76","IQALUIT A","2402596","2020-07-06 18:00","2020","07","06","18:00","9.1","","2.6","","64","","","","13","","9","","48.3","","100.45","","","","","","NA"
"-68.56","63.76","IQALUIT A","2402596","2020-07-06 19:00","2020","07","06","19:00","9.5","","3.1","","64","","","","14","","6","","48.3","","100.45","","","","","","Mostly Cloudy"
"-68.56","63.76","IQALUIT A","2402596","2020-07-06 20:00","2020","07","06","20:00","9.0","","2.7","","65","","","","15","","7","","48.3","","100.45","","","","","","NA"
"-68.56","63.76","IQALUIT A","2402596","2020-07-06 21:00","2020","07","06","21:00","10.0","","2.7","","60","","","","21","","4","","48.3","","100.45","","","","","","NA"
"-68.56","63.76","IQALUIT A","2402596","2020-07-06 22:00","2020","07","06","22:00","10.4","","3.3","","61","","","","22","","4","","48.3","","100.42","","","","","","Rain"
"-68.56","63.76","IQALUIT A","2402596","2020-07-06 23:00","2020","07","06","23:00","8.8","","4.4","","74","","","","36","","2","","32.2","","100.40","","","","","","Rain"
"-68.56","63.76","IQALUIT A","2402596","2020-07-07 00:00","2020","07","07","00:00","8.9","","4.8","","76","","","","36","","2","","32.2","","100.38","","","","","","Rain"
"-68.56","63.76","IQALUIT A","2402596","2020-07-07 01:00","2020","07","07","01:00","7.4","","4.7","","83","","","","15","","5","","48.3","","100.34","","","","","","Rain"
"-68.56","63.76","IQALUIT A","2402596","2020-07-07 02:00","2020","07","07","02:00","7.9","","6.3","","90","","","","36","","2","","48.3","","100.31","","","","","","Rain"
"-68.56","63.76","IQALUIT A","2402596","2020-07-07 03:00","2020","07","07","03:00","6.2","","5.3","","94","","","","12","","9","","48.3","","100.31","","","","","","Rain"
"-68.56","63.76","IQALUIT A","2402596","2020-07-07 04:00","2020","07","07","04:00","5.8","","4.2","","89","","","","15","","8","","48.3","","100.30","","","","","","Rain"
"-68.56","63.76","IQALUIT A","2402596","2020-07-07 05:00","2020","07","07","05:00","6.6","","4.6","","87","","","","15","","8","","48.3","","100.26","","","","","","NA"
"-68.56","63.76","IQALUIT A","2402596","2020-07-07 06:00","2020","07","07","06:00","6.6","","4.7","","88","","","","15","","15","","48.3","","100.23","","","","","","NA"
"-68.56","63.76","IQALUIT A","2402596","2020-07-07 07:00","2020","07","07","07:00","7.7","","6.6","","93","","","","13","","9","","9.7","","100.22","","","","","","Moderate Rain"
"-68.56","63.76","IQALUIT A","2402596","2020-07-07 08:00","2020","07","07","08:00","7.5","","6.6","","94","","","","36","","2","","48.3","","100.21","","","","","","NA"
"-68.56","63.76","IQALUIT A","2402596","2020-07-07 09:00","2020","07","07","09:00","8.3","","7.3","","93","","","","14","","4","","32.2","","100.19","","","","","","Moderate Rain"
"-68.56","63.76","IQALUIT A","2402596","2020-07-07 10:00","2020","07","07","10:00","8.7","","7.6","","92","","","","19","","5","","48.3","","100.16","","","","","","Rain"
"-68.56","63.76","IQALUIT A","2402596","2020-07-07 11:00","2020","07","07","11:00","6.2","","5.2","","94","","","","22","","5","","48.3","","100.13","","","","","","NA"
"-68.56","63.76","IQALUIT A","2402596","2020-07-07 12:00","2020","07","07","12:00","6.2","","5.0","","92","","","","12","","7","","48.3","","100.05","","","","","","NA"
"-68.56","63.76","IQALUIT A","2402596","2020-07-07 13:00","2020","07","07","13:00","6.9","","5.4","","90","","","","15","","14","","48.3","","99.99","","","","","","Mostly Cloudy"
"-68.56","63.76","IQALUIT A","2402596","2020-07-07 14:00","2020","07","07","14:00","7.2","","5.5","","89","","","","13","","10","","48.3","","99.99","","","","","","NA"
"-68.56","63.76","IQALUIT A","2402596","2020-07-07 15:00","2020","07","07","15:00","9.4","","6.8","","84","","","","17","","9","","48.3","","99.98","","","","","","NA"
"-68.56","63.76","IQALUIT A","2402596","2020-07-07 16:00","2020","07","07","16:00","10.9","","7.6","","80","","","","15","","11","","48.3","","99.92","","","","","","Mainly Clear"
"-68.56","63.76","IQALUIT A","2402596","2020-07-07 17:00","2020","07","07","17:00","10.5","","7.5","","82","","","","15","","7","","48.3","","99.88","","","","","","NA"
"-68.56","63.76","IQALUIT A","2402596","2020-07-07 18:00","2020","07","07","18:00","10.4","","7.2","","80","","","","15","","11","","48.3","","99.87","","","","","","NA"
"-68.56","63.76","IQALUIT A","2402596","2020-07-07 19:00","2020","07","07","19:00","10.1","","7.2","","82","","","","14","","10","","48.3","","99.85","","","","","","Mostly Cloudy"
"-68.56","63.76","IQALUIT A","2402596","2020-07-07 20:00","2020","07","07","20:00","8.2","","6.3","","88","","","","19","","3","","48.3","","99.85","","","","","","NA"
"-68.56","63.76","IQALUIT A","2402596","2020-07-07 21:00","2020","07","07","21:00","8.1","","6.1","","87","","","","0","","1","","48.3","","99.80","","","","","","NA"
"-68.56","63.76","IQALUIT A","2402596","2020-07-07 22:00","2020","07","07","22:00","7.7","","6.0","","89","","","","36","","3","","48.3","","99.74","","","","","","Mostly Cloudy"
"-68.56","63.76","IQALUIT A","2402596","2020-07-07 23:00","2020","07","07","23:00","7.7","","6.1","","89","","","","36","","2","","48.3","","99.72","","","","","","NA"
"-68.56","63.76","IQALUIT A","2402596","2020-07-08 00:00","2020","07","08","00:00","7.6","","6.5","","92","","","","36","","2","","48.3","","99.67","","","","","","NA"
"-68.56","63.76","IQALUIT A","2402596","2020-07-08 01:00","2020","07","08","01:00","7.2","","6.3","","94","","","","33","","4","","48.3","","99.67","","","","","","Mostly Cloudy"
"-68.56","63.76","IQALUIT A","2402596","2020-07-08 02:00","2020","07","08","02:00","6.1","","5.2","","94","","","","33","","4","","48.3","","99.65","","","","","","NA"
"-68.56","63.76","IQALUIT A","2402596","2020-07-08 03:00","2020","07","08","03:00","5.0","","4.5","","97","","","","36","","3","","48.3","","99.64","","","","","","NA"
"-68.56","63.76","IQALUIT A","2402596","2020-07-08 04:00","2020","07","08","04:00","7.2","","6.3","","94","","","","33","","3","","48.3","","99.61","","","","","","Mostly Cloudy"
"-68.56","63.76","IQALUIT A","2402596","2020-07-08 05:00","2020","07","08","05:00","6.0","","5.1","","94","","","","12","","8","","48.3","","99.61","","","","","","NA"
"-68.56","63.76","IQALUIT A","2402596","2020-07-08 06:00","2020","07","08","06:00","6.4","","5.6","","95","","","","17","","3","","48.3","","99.63","","","","","","NA"
"-68.56","63.76","IQALUIT A","2402596","2020-07-08 07:00","2020","07","08","07:00","7.3","","5.4","","87","","","","14","","8","","48.3","","99.64","","","","","","Mostly Cloudy"
"-68.56","63.76","IQALUIT A","2402596","2020-07-08 08:00","2020","07","08","08:00","6.5","","4.8","","89","","","","16","","13","","48.3","","99.64","","","","","","NA"
"-68.56","63.76","IQALUIT A","2402596","2020-07-08 09:00","2020","07","08","09:00","6.7","","4.9","","88","","","","13","","7","","48.3","","99.64","","","","","","NA"
"-68.56","63.76","IQALUIT A","2402596","2020-07-08 10:00","2020","07","08","10:00","6.5","","4.8","","89","","","","11","","5","","48.3","","99.64","","","","","","Mostly Cloudy"
"-68.56","63.76","IQALUIT A","2402596","2020-07-08 11:00","2020","07","08","11:00","6.5","","5.2","","92","","","","12","","8","","48.3","","99.62","","","","","","NA"
"-68.56","63.76","IQALUIT A","2402596","2020-07-08 12:00","2020","07","08","12:00","6.9","","5.6","","91","","","","14","","5","","48.3","","99.60","","","","","","NA"
"-68.56","63.76","IQALUIT A","2402596","2020-07-08 13:00","2020","07","08","13:00","7.6","","6.2","","91","","","","13","","4","","48.3","","99.61","","","","","","Cloudy"
"-68.56","63.76","IQALUIT A","2402596","2020-07-08 14:00","2020","07","08","14:00","7.2","","6.1","","93","","","","15","","6","","48.3","","99.64","","","","","","NA"
"-68.56","63.76","IQALUIT A","2402596","2020-07-08 15:00","2020","07","08","15:00","7.2","","6.1","","93","","","","15","","4","","24.1","","99.64","","","","","","NA"
"-68.56","63.76","IQALUIT A","2402596","2020-07-08 16:00","2020","07","08","16:00","7.4","","6.3","","93","","","","13","","4","","24.1","","99.65","","","","","","Cloudy"
"-68.56","63.76","IQALUIT A","2402596","2020-07-08 17:00","2020","07","08","17:00","7.8","","7.0","","95","","","","36","","3","","9.7","","99.67","","","","","","Rain,Fog"
"-68.56","63.76","IQALUIT A","2402596","2020-07-08 18:00","2020","07","08","18:00","7.5","","7.0","","97","","","","36","","3","","8.1","","99.68","","","","","","Rain,Fog"
"-68.56","63.76","IQALUIT A","2402596","2020-07-08 19:00","2020","07","08","19:00","7.5","","7.1","","97","","","","17","","4","","4.8","","99.72","","","","","","Rain,Fog"
"-68.56","63.76","IQALUIT A","2402596","2020-07-08 20:00","2020","07","08","20:00","7.1","","6.7","","98","","","","16","","3","","2.4","","99.75","","","","","","Drizzle,Fog"
"-68.56","63.76","IQALUIT A","2402596","2020-07-08 21:00","2020","07","08","21:00","7.0","","6.7","","98","","","","17","","3","","3.2","","99.74","","","","","","Drizzle,Fog"
"-68.56","63.76","IQALUIT A","2402596","2020-07-08 22:00","2020","07","08","22:00","7.1","","6.8","","98","","","","","","0","","4.8","","99.78","","","","","","Drizzle,Fog"
"-68.56","63.76","IQALUIT A","2402596","2020-07-08 23:00","2020","07","08","23:00","8.2","","7.8","","98","","","","36","","1","","9.7","","99.80","","","","","","Drizzle,Fog"
"-68.56","63.76","IQALUIT A","2402596","2020-07-09 00:00","2020","07","09","00:00","7.4","","7.0","","97","","","","36","","2","","9.7","","99.83","","","","","","Drizzle,Fog"
"-68.56","63.76","IQALUIT A","2402596","2020-07-09 01:00","2020","07","09","01:00","6.4","","6.1","","98","","","","12","","5","","48.3","","99.87","","","","","","Mostly Cloudy"
"-68.56","63.76","IQALUIT A","2402596","2020-07-09 02:00","2020","07","09","02:00","6.4","","6.1","","98","","","","36","","3","","48.3","","99.92","","","","","","NA"
"-68.56","63.76","IQALUIT A","2402596","2020-07-09 03:00","2020","07","09","03:00","6.2","","5.9","","98","","","","12","","5","","48.3","","99.96","","","","","","NA"
"-68.56","63.76","IQALUIT A","2402596","2020-07-09 04:00","2020","07","09","04:00","7.3","","7.0","","98","","","","14","","3","","48.3","","100.04","","","","","","Mostly Cloudy"
"-68.56","63.76","IQALUIT A","2402596","2020-07-09 05:00","2020","07","09","05:00","7.2","","7.0","","98","","","","13","","4","","0.8","","100.13","","","","","","Fog"
"-68.56","63.76","IQALUIT A","2402596","2020-07-09 06:00","2020","07","09","06:00","7.8","","7.5","","98","","","","16","","4","","6.4","","100.19","","","","","","Fog"
"-68.56","63.76","IQALUIT A","2402596","2020-07-09 07:00","2020","07","09","07:00","7.1","","6.7","","97","","","","14","","10","","1.2","","100.27","","","","","","Fog"
"-68.56","63.76","IQALUIT A","2402596","2020-07-09 08:00","2020","07","09","08:00","6.8","","6.5","","98","","","","14","","9","","1.2","","100.32","","","","","","Fog"
"-68.56","63.76","IQALUIT A","2402596","2020-07-09 09:00","2020","07","09","09:00","6.0","","5.7","","98","","","","15","","13","","1.0","","100.40","","","","","","Fog"
"-68.56","63.76","IQALUIT A","2402596","2020-07-09 10:00","2020","07","09","10:00","5.6","","5.2","","97","","","","12","","11","","4.0","","100.44","","","","","","Fog"
"-68.56","63.76","IQALUIT A","2402596","2020-07-09 11:00","2020","07","09","11:00","6.3","","5.4","","94","","","","14","","12","","48.3","","100.47","","","","","","NA"
"-68.56","63.76","IQALUIT A","2402596","2020-07-09 12:00","2020","07","09","12:00","7.2","","5.5","","89","","","","15","","13","","48.3","","100.50","","","","","","NA"
"-68.56","63.76","IQALUIT A","2402596","2020-07-09 13:00","2020","07","09","13:00","7.6","","5.5","","86","","","","15","","15","","48.3","","100.54","","","","","","Mainly Clear"
"-68.56","63.76","IQALUIT A","2402596","2020-07-09 14:00","2020","07","09","14:00","8.2","","5.1","","81","","","","14","","21","","48.3","","100.58","","","","","","NA"
"-68.56","63.76","IQALUIT A","2402596","2020-07-09 15:00","2020","07","09","15:00","8.2","","4.2","","76","","","","15","","21","","48.3","","100.61","","","","","","NA"
"-68.56","63.76","IQALUIT A","2402596","2020-07-09 16:00","2020","07","09","16:00","7.2","","4.1","","81","","","","15","","21","","48.3","","100.62","","","","","","Mostly Cloudy"
"-68.56","63.76","IQALUIT A","2402596","2020-07-09 17:00","2020","07","09","17:00","7.5","","4.7","","82","","","","15","","19","","48.3","","100.63","","","","","","NA"
"-68.56","63.76","IQALUIT A","2402596","2020-07-09 18:00","2020","07","09","18:00","7.8","","5.1","","83","","","","15","","12","","48.3","","100.64","","","","","","NA"
"-68.56","63.76","IQALUIT A","2402596","2020-07-09 19:00","2020","07","09","19:00","8.5","","5.0","","79","","","","21","","7","","48.3","","100.68","","","","","","Mostly Cloudy"
"-68.56","63.76","IQALUIT A","2402596","2020-07-09 20:00","2020","07","09","20:00","6.4","","3.7","","83","","","","26","","7","","48.3","","100.75","","","","","","NA"
"-68.56","63.76","IQALUIT A","2402596","2020-07-09 21:00","2020","07","09","21:00","5.7","","3.8","","88","","","","31","","6","","48.3","","100.82","","","","","","NA"
"-68.56","63.76","IQALUIT A","2402596","2020-07-09 22:00","2020","07","09","22:00","6.3","","4.1","","86","","","","33","","11","","48.3","","100.84","","","","","","Mostly Cloudy"
"-68.56","63.76","IQALUIT A","2402596","2020-07-09 23:00","2020","07","09","23:00","7.0","","4.5","","84","","","","31","","7","","48.3","","100.84","","","","","","NA"
"-68.56","63.76","IQALUIT A","2402596","2020-07-10 00:00","2020","07","10","00:00","6.6","","4.7","","88","","","","1","","4","","48.3","","100.87","","","","","","NA"
"-68.56","63.76","IQALUIT A","2402596","2020-07-10 01:00","2020","07","10","01:00","5.7","","4.8","","94","","","","6","","4","","48.3","","100.91","","","","","","Mostly Cloudy"
"-68.56","63.76","IQALUIT A","2402596","2020-07-10 02:00","2020","07","10","02:00","5.5","","4.3","","92","","","","11","","5","","48.3","","100.97","","","","","","NA"
"-68.56","63.76","IQALUIT A","2402596","2020-07-10 03:00","2020","07","10","03:00","5.5","","4.8","","95","","","","14","","4","","48.3","","101.00","","","","","","NA"
"-68.56","63.76","IQALUIT A","2402596","2020-07-10 04:00","2020","07","10","04:00","4.7","","3.9","","95","","","","14","","4","","48.3","","101.00","","","","","","Mostly Cloudy"
"-68.56","63.76","IQALUIT A","2402596","2020-07-10 05:00","2020","07","10","05:00","5.5","","4.3","","92","","","","17","","3","","48.3","","101.01","","","","","","NA"
"-68.56","63.76","IQALUIT A","2402596","2020-07-10 06:00","2020","07","10","06:00","5.5","","3.5","","87","","","","15","","6","","48.3","","101.02","","","","","","NA"
"-68.56","63.76","IQALUIT A","2402596","2020-07-10 07:00","2020","07","10","07:00","6.6","","4.0","","83","","","","15","","10","","48.3","","101.04","","","","","","Mostly Cloudy"
"-68.56","63.76","IQALUIT A","2402596","2020-07-10 08:00","2020","07","10","08:00","6.4","","3.9","","84","","","","15","","6","","48.3","","101.05","","","","","","NA"
"-68.56","63.76","IQALUIT A","2402596","2020-07-10 09:00","2020","07","10","09:00","6.7","","4.3","","84","","","","17","","8","","48.3","","101.01","","","","","","NA"
"-68.56","63.76","IQALUIT A","2402596","2020-07-10 10:00","2020","07","10","10:00","6.8","","4.1","","83","","","","14","","12","","48.3","","101.00","","","","","","Mostly Cloudy"
"-68.56","63.76","IQALUIT A","2402596","2020-07-10 11:00","2020","07","10","11:00","6.6","","3.6","","81","","","","14","","14","","48.3","","100.99","","","","","","NA"
"-68.56","63.76","IQALUIT A","2402596","2020-07-10 12:00","2020","07","10","12:00","7.2","","4.0","","80","","","","15","","11","","48.3","","100.97","","","","","","NA"
"-68.56","63.76","IQALUIT A","2402596","2020-07-10 13:00","2020","07","10","13:00","7.4","","4.6","","82","","","","14","","9","","48.3","","100.96","","","","","","Mostly Cloudy"
"-68.56","63.76","IQALUIT A","2402596","2020-07-10 14:00","2020","07","10","14:00","8.1","","4.5","","78","","","","14","","12","","48.3","","100.95","","","","","","NA"
"-68.56","63.76","IQALUIT A","2402596","2020-07-10 15:00","2020","07","10","15:00","8.9","","5.0","","76","","","","16","","6","","48.3","","100.95","","","","","","NA"
"-68.56","63.76","IQALUIT A","2402596","2020-07-10 16:00","2020","07","10","16:00","8.7","","4.4","","74","","","","15","","13","","48.3","","100.96","","","","","","Mainly Clear"
"-68.56","63.76","IQALUIT A","2402596","2020-07-10 17:00","2020","07","10","17:00","7.3","","4.2","","80","","","","15","","15","","48.3","","100.95","","","","","","NA"
"-68.56","63.76","IQALUIT A","2402596","2020-07-10 18:00","2020","07","10","18:00","8.1","","5.1","","81","","","","14","","21","","48.3","","100.95","","","","","","NA"
"-68.56","63.76","IQALUIT A","2402596","2020-07-10 19:00","2020","07","10","19:00","6.5","","4.7","","88","","","","16","","15","","48.3","","100.92","","","","","","Mostly Cloudy"
"-68.56","63.76","IQALUIT A","2402596","2020-07-10 20:00","2020","07","10","20:00","5.8","","4.0","","89","","","","16","","16","","48.3","","100.94","","","","","","NA"
"-68.56","63.76","IQALUIT A","2402596","2020-07-10 21:00","2020","07","10","21:00","5.3","","2.8","","84","","","","16","","16","","48.3","","100.93","","","","","","NA"
"-68.56","63.76","IQALUIT A","2402596","2020-07-10 22:00","2020","07","10","22:00","4.8","","2.1","","83","","","","15","","13","","48.3","","100.93","","","","","","Mostly Cloudy"
"-68.56","63.76","IQALUIT A","2402596","2020-07-10 23:00","2020","07","10","23:00","3.8","","2.0","","88","","","","15","","10","","48.3","","100.91","","","","","","NA"
"-68.56","63.76","IQALUIT A","2402596","2020-07-11 00:00","2020","07","11","00:00","3.0","","1.4","","89","","","","15","","14","","48.3","","100.90","","","","","","NA"
"-68.56","63.76","IQALUIT A","2402596","2020-07-11 01:00","2020","07","11","01:00","2.8","","1.3","","90","","","","15","","10","","48.3","","100.92","","","","","","Mostly Cloudy"
"-68.56","63.76","IQALUIT A","2402596","2020-07-11 02:00","2020","07","11","02:00","2.9","","1.6","","91","","","","16","","13","","48.3","","100.88","","","","","","NA"
"-68.56","63.76","IQALUIT A","2402596","2020-07-11 03:00","2020","07","11","03:00","2.6","","1.5","","92","","","","15","","13","","48.3","","100.89","","","","","","NA"
"-68.56","63.76","IQALUIT A","2402596","2020-07-11 04:00","2020","07","11","04:00","2.6","","1.4","","92","","","","13","","10","","48.3","","100.89","","","","","","Mostly Cloudy"
"-68.56","63.76","IQALUIT A","2402596","2020-07-11 05:00","2020","07","11","05:00","2.6","","1.1","","90","","","","16","","12","","48.3","","100.89","","","","","","NA"
"-68.56","63.76","IQALUIT A","2402596","2020-07-11 06:00","2020","07","11","06:00","3.2","","2.0","","92","","","","19","","10","","48.3","","100.86","","","","","","NA"
"-68.56","63.76","IQALUIT A","2402596","2020-07-11 07:00","2020","07","11","07:00","3.0","","2.0","","93","","","","16","","13","","32.2","","100.83","","","","","","Mostly Cloudy"
"-68.56","63.76","IQALUIT A","2402596","2020-07-11 08:00","2020","07","11","08:00","2.8","","2.1","","95","","","","16","","19","","24.1","","100.83","","","","","","NA"
"-68.56","63.76","IQALUIT A","2402596","2020-07-11 09:00","2020","07","11","09:00","2.6","","1.8","","94","","","","15","","16","","24.1","","100.82","","","","","","Rain"
"-68.56","63.76","IQALUIT A","2402596","2020-07-11 10:00","2020","07","11","10:00","3.0","","2.3","","95","","","","17","","12","","24.1","","100.85","","","","","","Cloudy"
"-68.56","63.76","IQALUIT A","2402596","2020-07-11 11:00","2020","07","11","11:00","3.0","","2.1","","94","","","","15","","8","","48.3","","100.82","","","","","","NA"
"-68.56","63.76","IQALUIT A","2402596","2020-07-11 12:00","2020","07","11","12:00","3.3","","2.4","","94","","","","20","","12","","32.2","","100.78","","","","","","Rain"
"-68.56","63.76","IQALUIT A","2402596","2020-07-11 13:00","2020","07","11","13:00","4.6","","3.5","","92","","","","15","","8","","48.3","","100.73","","","","","","Mostly Cloudy"
"-68.56","63.76","IQALUIT A","2402596","2020-07-11 14:00","2020","07","11","14:00","5.0","","3.7","","91","","","","14","","8","","48.3","","100.74","","","","","","NA"
"-68.56","63.76","IQALUIT A","2402596","2020-07-11 15:00","2020","07","11","15:00","5.1","","4.2","","94","","","","16","","4","","19.3","","100.71","","","","","","NA"
"-68.56","63.76","IQALUIT A","2402596","2020-07-11 16:00","2020","07","11","16:00","4.9","","3.9","","93","","","","16","","8","","16.1","","100.69","","","","","","Rain"
"-68.56","63.76","IQALUIT A","2402596","2020-07-11 17:00","2020","07","11","17:00","4.8","","4.0","","95","","","","16","","4","","19.3","","100.68","","","","","","Rain"
"-68.56","63.76","IQALUIT A","2402596","2020-07-11 18:00","2020","07","11","18:00","4.9","","4.1","","94","","","","15","","12","","16.1","","100.64","","","","","","Rain"
"-68.56","63.76","IQALUIT A","2402596","2020-07-11 19:00","2020","07","11","19:00","4.6","","4.0","","96","","","","14","","4","","19.3","","100.64","","","","","","Drizzle,Fog"
"-68.56","63.76","IQALUIT A","2402596","2020-07-11 20:00","2020","07","11","20:00","4.5","","3.9","","96","","","","14","","8","","9.7","","100.67","","","","","","Drizzle,Fog"
"-68.56","63.76","IQALUIT A","2402596","2020-07-11 21:00","2020","07","11","21:00","5.1","","4.4","","95","","","","15","","7","","19.3","","100.66","","","","","","NA"
"-68.56","63.76","IQALUIT A","2402596","2020-07-11 22:00","2020","07","11","22:00","4.7","","4.0","","95","","","","15","","8","","24.1","","100.67","","","","","","Cloudy"
"-68.56","63.76","IQALUIT A","2402596","2020-07-11 23:00","2020","07","11","23:00","4.9","","4.0","","94","","","","18","","5","","32.2","","100.64","","","","","","NA"
"-68.56","63.76","IQALUIT A","2402596","2020-07-12 00:00","2020","07","12","00:00","4.9","","4.0","","94","","","","36","","2","","32.2","","100.66","","","","","","NA"
"-68.56","63.76","IQALUIT A","2402596","2020-07-12 01:00","2020","07","12","01:00","4.9","","4.0","","94","","","","36","","1","","19.3","","100.66","","","","","","Rain"
"-68.56","63.76","IQALUIT A","2402596","2020-07-12 02:00","2020","07","12","02:00","5.0","","4.4","","96","","","","34","","4","","32.2","","100.66","","","","","","Rain"
"-68.56","63.76","IQALUIT A","2402596","2020-07-12 03:00","2020","07","12","03:00","5.4","","4.8","","96","","","","32","","11","","48.3","","100.68","","","","","","NA"
"-68.56","63.76","IQALUIT A","2402596","2020-07-12 04:00","2020","07","12","04:00","6.2","","5.3","","94","","","","31","","10","","48.3","","100.70","","","","","","Cloudy"
"-68.56","63.76","IQALUIT A","2402596","2020-07-12 05:00","2020","07","12","05:00","6.7","","5.3","","91","","","","28","","7","","48.3","","100.70","","","","","","NA"
"-68.56","63.76","IQALUIT A","2402596","2020-07-12 06:00","2020","07","12","06:00","6.5","","5.5","","94","","","","27","","11","","48.3","","100.69","","","","","","NA"
"-68.56","63.76","IQALUIT A","2402596","2020-07-12 07:00","2020","07","12","07:00","9.4","","8.0","","91","","","","32","","13","","48.3","","100.67","","","","","","Mostly Cloudy"
"-68.56","63.76","IQALUIT A","2402596","2020-07-12 08:00","2020","07","12","08:00","11.6","","8.5","","81","","","","31","","18","","48.3","","100.66","","","","","","NA"
"-68.56","63.76","IQALUIT A","2402596","2020-07-12 09:00","2020","07","12","09:00","13.8","","8.6","","71","","","","31","","18","","48.3","","100.65","","","","","","NA"
"-68.56","63.76","IQALUIT A","2402596","2020-07-12 10:00","2020","07","12","10:00","13.8","","8.3","","69","","","","33","","29","","48.3","","100.65","","","","","","Mostly Cloudy"
"-68.56","63.76","IQALUIT A","2402596","2020-07-12 11:00","2020","07","12","11:00","13.9","","8.2","","68","","","","32","","24","","48.3","","100.63","","","","","","NA"
"-68.56","63.76","IQALUIT A","2402596","2020-07-12 12:00","2020","07","12","12:00","15.2","","6.6","","56","","","","33","","23","","48.3","","100.60","","","","","","NA"
"-68.56","63.76","IQALUIT A","2402596","2020-07-12 13:00","2020","07","12","13:00","14.5","","6.5","","58","","","","8","","8","","48.3","","100.60","","","","","","Rain"
"-68.56","63.76","IQALUIT A","2402596","2020-07-12 14:00","2020","07","12","14:00","16.9","","7.8","","54","","","","33","","34","","48.3","","100.59","","","","","","NA"
"-68.56","63.76","IQALUIT A","2402596","2020-07-12 15:00","2020","07","12","15:00","16.6","","6.9","","52","","","","33","","25","","48.3","","100.60","","","","","","NA"
"-68.56","63.76","IQALUIT A","2402596","2020-07-12 16:00","2020","07","12","16:00","15.2","","7.1","","58","","","","34","","23","","48.3","","100.62","","","","","","Mostly Cloudy"
"-68.56","63.76","IQALUIT A","2402596","2020-07-12 17:00","2020","07","12","17:00","13.0","","9.5","","79","","","","31","","17","","48.3","","100.66","","","","","","Rain Showers"
"-68.56","63.76","IQALUIT A","2402596","2020-07-12 18:00","2020","07","12","18:00","15.2","","8.4","","64","","","","32","","18","","48.3","","100.65","","","","","","NA"
"-68.56","63.76","IQALUIT A","2402596","2020-07-12 19:00","2020","07","12","19:00","13.2","","7.9","","70","","","","33","","17","","48.3","","100.64","","","","","","Mainly Clear"
"-68.56","63.76","IQALUIT A","2402596","2020-07-12 20:00","2020","07","12","20:00","13.5","","8.1","","70","","","","33","","18","","48.3","","100.65","","","","","","NA"
"-68.56","63.76","IQALUIT A","2402596","2020-07-12 21:00","2020","07","12","21:00","12.2","","8.0","","75","","","","32","","14","","48.3","","100.66","","","","","","NA"
"-68.56","63.76","IQALUIT A","2402596","2020-07-12 22:00","2020","07","12","22:00","11.4","","8.1","","80","","","","33","","16","","48.3","","100.70","","","","","","Mostly Cloudy"
"-68.56","63.76","IQALUIT A","2402596","2020-07-12 23:00","2020","07","12","23:00","11.1","","7.4","","78","","","","33","","21","","48.3","","100.71","","","","","","NA"
"-68.56","63.76","IQALUIT A","2402596","2020-07-13 00:00","2020","07","13","00:00","10.7","","7.5","","80","","","","34","","28","","48.3","","100.73","","","","","","NA"
"-68.56","63.76","IQALUIT A","2402596","2020-07-13 01:00","2020","07","13","01:00","9.6","","7.3","","86","","","","34","","24","","48.3","","100.75","","","","","","Mostly Cloudy"
"-68.56","63.76","IQALUIT A","2402596","2020-07-13 02:00","2020","07","13","02:00","9.3","","7.0","","86","","","","35","","32","","48.3","","100.79","","","","","","NA"
"-68.56","63.76","IQALUIT A","2402596","2020-07-13 03:00","2020","07","13","03:00","9.0","","7.0","","87","","","","34","","33","","48.3","","100.81","","","","","","NA"
"-68.56","63.76","IQALUIT A","2402596","2020-07-13 04:00","2020","07","13","04:00","9.3","","7.1","","86","","","","34","","40","","48.3","","100.84","","","","","","Mostly Cloudy"
"-68.56","63.76","IQALUIT A","2402596","2020-07-13 05:00","2020","07","13","05:00","9.0","","6.9","","87","","","","34","","39","","48.3","","100.90","","","","","","NA"
"-68.56","63.76","IQALUIT A","2402596","2020-07-13 06:00","2020","07","13","06:00","9.3","","6.5","","83","","","","33","","43","","48.3","","100.95","","","","","","NA"
"-68.56","63.76","IQALUIT A","2402596","2020-07-13 07:00","2020","07","13","07:00","10.2","","6.7","","79","","","","34","","36","","48.3","","100.96","","","","","","Mainly Clear"
"-68.56","63.76","IQALUIT A","2402596","2020-07-13 08:00","2020","07","13","08:00","12.1","","7.2","","72","","","","34","","37","","48.3","","100.98","","","","","","NA"
"-68.56","63.76","IQALUIT A","2402596","2020-07-13 09:00","2020","07","13","09:00","14.1","","7.5","","64","","","","33","","35","","48.3","","100.99","","","","","","NA"
"-68.56","63.76","IQALUIT A","2402596","2020-07-13 10:00","2020","07","13","10:00","15.7","","7.7","","59","","","","33","","34","","48.3","","101.00","","","","","","Clear"
"-68.56","63.76","IQALUIT A","2402596","2020-07-13 11:00","2020","07","13","11:00","17.1","","6.2","","48","","","","32","","33","","48.3","","101.00","","","","","","NA"
"-68.56","63.76","IQALUIT A","2402596","2020-07-13 12:00","2020","07","13","12:00","17.9","","4.6","","41","","","","32","","32","","48.3","","101.01","","","","","","NA"
"-68.56","63.76","IQALUIT A","2402596","2020-07-13 13:00","2020","07","13","13:00","18.3","","4.8","","41","","","","31","","25","","48.3","","101.01","","","","","","Mainly Clear"
"-68.56","63.76","IQALUIT A","2402596","2020-07-13 14:00","2020","07","13","14:00","18.7","","3.5","","36","","","","31","","28","","48.3","","101.04","","","","","","NA"
"-68.56","63.76","IQALUIT A","2402596","2020-07-13 15:00","2020","07","13","15:00","18.7","","3.3","","36","","","","32","","28","","48.3","","101.06","","","","","","NA"
"-68.56","63.76","IQALUIT A","2402596","2020-07-13 16:00","2020","07","13","16:00","18.4","","3.3","","36","","","","33","","26","","48.3","","101.11","","","","","","Mainly Clear"
"-68.56","63.76","IQALUIT A","2402596","2020-07-13 17:00","2020","07","13","17:00","18.2","","2.6","","35","","","","31","","28","","48.3","","101.13","","","","","","NA"
"-68.56","63.76","IQALUIT A","2402596","2020-07-13 18:00","2020","07","13","18:00","17.7","","2.4","","36","","","","32","","23","","48.3","","101.18","","","","","","NA"
"-68.56","63.76","IQALUIT A","2402596","2020-07-13 19:00","2020","07","13","19:00","16.8","","2.6","","38","","","","33","","22","","48.3","","101.20","","","","","","Mainly Clear"
"-68.56","63.76","IQALUIT A","2402596","2020-07-13 20:00","2020","07","13","20:00","15.7","","3.5","","44","","","","35","","18","","48.3","","101.23","","","","","","NA"
"-68.56","63.76","IQALUIT A","2402596","2020-07-13 21:00","2020","07","13","21:00","13.7","","4.0","","52","","","","32","","17","","48.3","","101.27","","","","","","NA"
"-68.56","63.76","IQALUIT A","2402596","2020-07-13 22:00","2020","07","13","22:00","11.2","","4.5","","63","","","","31","","14","","48.3","","101.33","","","","","","Mainly Clear"
"-68.56","63.76","IQALUIT A","2402596","2020-07-13 23:00","2020","07","13","23:00","10.5","","4.7","","67","","","","32","","16","","48.3","","101.38","","","","","","NA"
"-68.56","63.76","IQALUIT A","2402596","2020-07-14 00:00","2020","07","14","00:00","10.8","","4.7","","66","","","","35","","12","","48.3","","101.39","","","","","","NA"
"-68.56","63.76","IQALUIT A","2402596","2020-07-14 01:00","2020","07","14","01:00","10.2","","5.2","","71","","","","35","","11","","48.3","","101.43","","","","","","Mainly Clear"
"-68.56","63.76","IQALUIT A","2402596","2020-07-14 02:00","2020","07","14","02:00","10.0","","5.5","","74","","","","33","","10","","48.3","","101.45","","","","","","NA"
"-68.56","63.76","IQALUIT A","2402596","2020-07-14 03:00","2020","07","14","03:00","10.3","","5.3","","71","","","","32","","8","","48.3","","101.47","","","","","","NA"
"-68.56","63.76","IQALUIT A","2402596","2020-07-14 04:00","2020","07","14","04:00","8.6","","5.6","","81","","","","36","","1","","48.3","","101.49","","","","","","Mainly Clear"
"-68.56","63.76","IQALUIT A","2402596","2020-07-14 05:00","2020","07","14","05:00","6.7","","4.9","","88","","","","14","","4","","48.3","","101.53","","","","","","NA"
"-68.56","63.76","IQALUIT A","2402596","2020-07-14 06:00","2020","07","14","06:00","10.9","","6.3","","73","","","","23","","3","","48.3","","101.56","","","","","","NA"
"-68.56","63.76","IQALUIT A","2402596","2020-07-14 07:00","2020","07","14","07:00","11.9","","7.0","","72","","","","","","0","","48.3","","101.58","","","","","","Mostly Cloudy"
"-68.56","63.76","IQALUIT A","2402596","2020-07-14 08:00","2020","07","14","08:00","12.8","","7.3","","69","","","","26","","5","","48.3","","101.59","","","","","","NA"
"-68.56","63.76","IQALUIT A","2402596","2020-07-14 09:00","2020","07","14","09:00","13.2","","7.8","","69","","","","33","","12","","48.3","","101.60","","","","","","NA"
"-68.56","63.76","IQALUIT A","2402596","2020-07-14 10:00","2020","07","14","10:00","13.5","","7.9","","68","","","","35","","12","","48.3","","101.60","","","","","","Mostly Cloudy"
"-68.56","63.76","IQALUIT A","2402596","2020-07-14 11:00","2020","07","14","11:00","14.8","","7.9","","63","","","","34","","10","","48.3","","101.60","","","","","","NA"
"-68.56","63.76","IQALUIT A","2402596","2020-07-14 12:00","2020","07","14","12:00","11.6","","7.7","","77","","","","13","","7","","48.3","","101.60","","","","","","NA"
"-68.56","63.76","IQALUIT A","2402596","2020-07-14 13:00","2020","07","14","13:00","12.6","","8.3","","75","","","","15","","12","","48.3","","101.58","","","","","","Mostly Cloudy"
"-68.56","63.76","IQALUIT A","2402596","2020-07-14 14:00","2020","07","14","14:00","12.7","","8.0","","73","","","","14","","11","","48.3","","101.60","","","","","","NA"
"-68.56","63.76","IQALUIT A","2402596","2020-07-14 15:00","2020","07","14","15:00","11.8","","7.6","","75","","","","12","","10","","48.3","","101.60","","","","","","NA"
"-68.56","63.76","IQALUIT A","2402596","2020-07-14 16:00","2020","07","14","16:00","12.6","","8.0","","73","","","","15","","6","","48.3","","101.58","","","","","","Mostly Cloudy"
"-68.56","63.76","IQALUIT A","2402596","2020-07-14 17:00","2020","07","14","17:00","14.4","","7.6","","64","","","","13","","8","","48.3","","101.58","","","","","","NA"
"-68.56","63.76","IQALUIT A","2402596","2020-07-14 18:00","2020","07","14","18:00","15.5","","7.9","","60","","","","16","","4","","48.3","","101.61","","","","","","NA"
"-68.56","63.76","IQALUIT A","2402596","2020-07-14 19:00","2020","07","14","19:00","12.7","","7.0","","68","","","","15","","7","","48.3","","101.61","","","","","","Mainly Clear"
"-68.56","63.76","IQALUIT A","2402596","2020-07-14 20:00","2020","07","14","20:00","12.7","","7.1","","69","","","","36","","3","","48.3","","101.65","","","","","","NA"
"-68.56","63.76","IQALUIT A","2402596","2020-07-14 21:00","2020","07","14","21:00","10.5","","6.7","","77","","","","15","","5","","48.3","","101.65","","","","","","NA"
"-68.56","63.76","IQALUIT A","2402596","2020-07-14 22:00","2020","07","14","22:00","9.8","","6.6","","80","","","","","","0","","48.3","","101.70","","","","","","Clear"
"-68.56","63.76","IQALUIT A","2402596","2020-07-14 23:00","2020","07","14","23:00","10.0","","6.3","","77","","","","35","","5","","48.3","","101.70","","","","","","NA"
"-68.56","63.76","IQALUIT A","2402596","2020-07-15 00:00","2020","07","15","00:00","10.6","","6.3","","75","","","","33","","11","","48.3","","101.73","","","","","","NA"
"-68.56","63.76","IQALUIT A","2402596","2020-07-15 01:00","2020","07","15","01:00","10.4","","6.1","","75","","","","33","","13","","48.3","","101.76","","","","","","Clear"
"-68.56","63.76","IQALUIT A","2402596","2020-07-15 02:00","2020","07","15","02:00","10.9","","6.1","","72","","","","32","","13","","48.3","","101.76","","","","","","NA"
"-68.56","63.76","IQALUIT A","2402596","2020-07-15 03:00","2020","07","15","03:00","7.6","","5.6","","87","","","","36","","1","","48.3","","101.79","","","","","","NA"
"-68.56","63.76","IQALUIT A","2402596","2020-07-15 04:00","2020","07","15","04:00","9.4","","6.6","","83","","","","36","","5","","48.3","","101.81","","","","","","Mainly Clear"
"-68.56","63.76","IQALUIT A","2402596","2020-07-15 05:00","2020","07","15","05:00","11.1","","7.1","","76","","","","32","","12","","48.3","","101.82","","","","","","NA"
"-68.56","63.76","IQALUIT A","2402596","2020-07-15 06:00","2020","07","15","06:00","13.7","","6.3","","61","","","","31","","12","","48.3","","101.84","","","","","","NA"
"-68.56","63.76","IQALUIT A","2402596","2020-07-15 07:00","2020","07","15","07:00","15.2","","4.6","","49","","","","34","","17","","48.3","","101.84","","","","","","Mainly Clear"
"-68.56","63.76","IQALUIT A","2402596","2020-07-15 08:00","2020","07","15","08:00","12.9","","7.6","","70","","","","15","","10","","48.3","","101.81","","","","","","NA"
"-68.56","63.76","IQALUIT A","2402596","2020-07-15 09:00","2020","07","15","09:00","14.0","","7.8","","66","","","","19","","8","","48.3","","101.76","","","","","","NA"
"-68.56","63.76","IQALUIT A","2402596","2020-07-15 10:00","2020","07","15","10:00","14.3","","7.4","","63","","","","14","","8","","48.3","","101.73","","","","","","Mainly Clear"
"-68.56","63.76","IQALUIT A","2402596","2020-07-15 11:00","2020","07","15","11:00","14.3","","6.9","","61","","","","15","","9","","48.3","","101.72","","","","","","NA"
"-68.56","63.76","IQALUIT A","2402596","2020-07-15 12:00","2020","07","15","12:00","15.3","","6.8","","56","","","","15","","10","","48.3","","101.67","","","","","","NA"
"-68.56","63.76","IQALUIT A","2402596","2020-07-15 13:00","2020","07","15","13:00","15.4","","7.0","","57","","","","15","","10","","48.3","","101.65","","","","","","Mainly Clear"
"-68.56","63.76","IQALUIT A","2402596","2020-07-15 14:00","2020","07","15","14:00","16.1","","6.3","","52","","","","13","","8","","48.3","","101.62","","","","","","NA"
"-68.56","63.76","IQALUIT A","2402596","2020-07-15 15:00","2020","07","15","15:00","15.9","","5.8","","51","","","","15","","8","","48.3","","101.59","","","","","","NA"
"-68.56","63.76","IQALUIT A","2402596","2020-07-15 16:00","2020","07","15","16:00","16.4","","6.1","","50","","","","14","","8","","48.3","","101.54","","","","","","Mainly Clear"
"-68.56","63.76","IQALUIT A","2402596","2020-07-15 17:00","2020","07","15","17:00","16.9","","3.3","","40","","","","15","","6","","48.3","","101.49","","","","","","NA"
"-68.56","63.76","IQALUIT A","2402596","2020-07-15 18:00","2020","07","15","18:00","16.6","","3.9","","43","","","","16","","3","","48.3","","101.45","","","","","","NA"
"-68.56","63.76","IQALUIT A","2402596","2020-07-15 19:00","2020","07","15","19:00","17.1","","2.0","","36","","","","13","","5","","48.3","","101.44","","","","","","Clear"
"-68.56","63.76","IQALUIT A","2402596","2020-07-15 20:00","2020","07","15","20:00","17.8","","1.8","","34","","","","13","","4","","48.3","","101.45","","","","","","NA"
"-68.56","63.76","IQALUIT A","2402596","2020-07-15 21:00","2020","07","15","21:00","15.6","","1.3","","38","","","","15","","4","","48.3","","101.45","","","","","","NA"
"-68.56","63.76","IQALUIT A","2402596","2020-07-15 22:00","2020","07","15","22:00","13.7","","2.8","","47","","","","15","","5","","48.3","","101.42","","","","","","Clear"
"-68.56","63.76","IQALUIT A","2402596","2020-07-15 23:00","2020","07","15","23:00","11.0","","2.1","","54","","","","30","","3","","48.3","","101.39","","","","","","NA"
"-68.56","63.76","IQALUIT A","2402596","2020-07-16 00:00","2020","07","16","00:00","7.9","","2.5","","69","","","","30","","4","","48.3","","101.36","","","","","","NA"
"-68.56","63.76","IQALUIT A","2402596","2020-07-16 01:00","2020","07","16","01:00","7.3","","2.3","","71","","","","33","","9","","48.3","","101.37","","","","","","Clear"
"-68.56","63.76","IQALUIT A","2402596","2020-07-16 02:00","2020","07","16","02:00","7.4","","2.5","","71","","","","24","","4","","48.3","","101.34","","","","","","NA"
"-68.56","63.76","IQALUIT A","2402596","2020-07-16 03:00","2020","07","16","03:00","7.2","","3.2","","76","","","","27","","4","","48.3","","101.30","","","","","","NA"
"-68.56","63.76","IQALUIT A","2402596","2020-07-16 04:00","2020","07","16","04:00","8.1","","3.5","","73","","","","33","","3","","48.3","","101.26","","","","","","Mainly Clear"
"-68.56","63.76","IQALUIT A","2402596","2020-07-16 05:00","2020","07","16","05:00","8.6","","3.4","","70","","","","26","","4","","48.3","","101.26","","","","","","NA"
"-68.56","63.76","IQALUIT A","2402596","2020-07-16 06:00","2020","07","16","06:00","10.1","","4.5","","68","","","","36","","1","","48.3","","101.20","","","","","","NA"
"-68.56","63.76","IQALUIT A","2402596","2020-07-16 07:00","2020","07","16","07:00","11.4","","4.9","","64","","","","15","","4","","48.3","","101.18","","","","","","Mostly Cloudy"
"-68.56","63.76","IQALUIT A","2402596","2020-07-16 08:00","2020","07","16","08:00","11.2","","4.9","","65","","","","16","","12","","48.3","","101.15","","","","","","NA"
"-68.56","63.76","IQALUIT A","2402596","2020-07-16 09:00","2020","07","16","09:00","10.2","","3.6","","64","","","","14","","14","","48.3","","101.09","","","","","","NA"
"-68.56","63.76","IQALUIT A","2402596","2020-07-16 10:00","2020","07","16","10:00","12.8","","4.2","","56","","","","16","","18","","48.3","","101.03","","","","","","Mostly Cloudy"
"-68.56","63.76","IQALUIT A","2402596","2020-07-16 11:00","2020","07","16","11:00","12.4","","3.9","","56","","","","15","","21","","48.3","","100.93","","","","","","NA"
"-68.56","63.76","IQALUIT A","2402596","2020-07-16 12:00","2020","07","16","12:00","10.4","","2.8","","59","","","","18","","14","","48.3","","100.90","","","","","","NA"
"-68.56","63.76","IQALUIT A","2402596","2020-07-16 13:00","2020","07","16","13:00","11.4","","2.4","","54","","","","16","","16","","48.3","","100.84","","","","","","Mostly Cloudy"
"-68.56","63.76","IQALUIT A","2402596","2020-07-16 14:00","2020","07","16","14:00","10.9","","3.0","","58","","","","17","","13","","48.3","","100.82","","","","","","NA"
"-68.56","63.76","IQALUIT A","2402596","2020-07-16 15:00","2020","07","16","15:00","12.4","","2.5","","51","","","","13","","12","","48.3","","100.73","","","","","","NA"
"-68.56","63.76","IQALUIT A","2402596","2020-07-16 16:00","2020","07","16","16:00","12.7","","2.5","","50","","","","13","","8","","48.3","","100.69","","","","","","Mostly Cloudy"
"-68.56","63.76","IQALUIT A","2402596","2020-07-16 17:00","2020","07","16","17:00","11.5","","4.0","","60","","","","17","","7","","48.3","","100.66","","","","","","NA"
"-68.56","63.76","IQALUIT A","2402596","2020-07-16 18:00","2020","07","16","18:00","11.7","","4.6","","62","","","","17","","10","","48.3","","100.63","","","","","","NA"
"-68.56","63.76","IQALUIT A","2402596","2020-07-16 19:00","2020","07","16","19:00","12.0","","5.2","","63","","","","26","","10","","48.3","","100.64","","","","","","Mostly Cloudy"
"-68.56","63.76","IQALUIT A","2402596","2020-07-16 20:00","2020","07","16","20:00","9.5","","4.5","","71","","","","27","","7","","48.3","","100.63","","","","","","NA"
"-68.56","63.76","IQALUIT A","2402596","2020-07-16 21:00","2020","07","16","21:00","9.0","","4.7","","74","","","","21","","6","","48.3","","100.61","","","","","","NA"
"-68.56","63.76","IQALUIT A","2402596","2020-07-16 22:00","2020","07","16","22:00","8.5","","5.5","","81","","","","16","","9","","48.3","","100.60","","","","","","Rain"
"-68.56","63.76","IQALUIT A","2402596","2020-07-16 23:00","2020","07","16","23:00","8.3","","5.3","","81","","","","13","","5","","48.3","","100.56","","","","","","NA"
"-68.56","63.76","IQALUIT A","2402596","2020-07-17 00:00","2020","07","17","00:00","7.8","","5.0","","83","","","","15","","10","","48.3","","100.51","","","","","","NA"
"-68.56","63.76","IQALUIT A","2402596","2020-07-17 01:00","2020","07","17","01:00","7.2","","4.3","","82","","","","18","","8","","48.3","","100.51","","","","","","Mostly Cloudy"
"-68.56","63.76","IQALUIT A","2402596","2020-07-17 02:00","2020","07","17","02:00","6.7","","4.7","","87","","","","12","","12","","32.2","","100.48","","","","","","Rain"
"-68.56","63.76","IQALUIT A","2402596","2020-07-17 03:00","2020","07","17","03:00","6.9","","6.0","","93","","","","17","","7","","16.1","","100.45","","","","","","NA"
"-68.56","63.76","IQALUIT A","2402596","2020-07-17 04:00","2020","07","17","04:00","6.7","","6.1","","96","","","","17","","12","","6.4","","100.45","","","","","","Rain,Fog"
"-68.56","63.76","IQALUIT A","2402596","2020-07-17 05:00","2020","07","17","05:00","6.2","","5.8","","97","","","","13","","5","","6.4","","100.46","","","","","","Rain,Fog"
"-68.56","63.76","IQALUIT A","2402596","2020-07-17 06:00","2020","07","17","06:00","6.6","","6.2","","98","","","","36","","2","","4.8","","100.45","","","","","","Rain,Fog"
"-68.56","63.76","IQALUIT A","2402596","2020-07-17 07:00","2020","07","17","07:00","8.1","","7.8","","98","","","","15","","5","","3.2","","100.42","","","","","","Drizzle,Fog"
"-68.56","63.76","IQALUIT A","2402596","2020-07-17 08:00","2020","07","17","08:00","7.9","","7.6","","98","","","","36","","2","","1.6","","100.38","","","","","","Drizzle,Fog"
"-68.56","63.76","IQALUIT A","2402596","2020-07-17 09:00","2020","07","17","09:00","9.7","","9.4","","98","","","","14","","7","","1.6","","100.34","","","","","","Drizzle,Fog"
"-68.56","63.76","IQALUIT A","2402596","2020-07-17 10:00","2020","07","17","10:00","10.3","","10.1","","98","","","","18","","9","","0.8","","100.32","","","","","","Drizzle,Fog"
"-68.56","63.76","IQALUIT A","2402596","2020-07-17 11:00","2020","07","17","11:00","10.1","","9.8","","98","","","","14","","4","","1.6","","100.28","","","","","","Drizzle,Fog"
"-68.56","63.76","IQALUIT A","2402596","2020-07-17 12:00","2020","07","17","12:00","10.3","","10.1","","98","","","","14","","5","","3.2","","100.27","","","","","","Rain,Fog"
"-68.56","63.76","IQALUIT A","2402596","2020-07-17 13:00","2020","07","17","13:00","11.6","","11.4","","99","","","","17","","3","","4.8","","100.24","","","","","","Drizzle,Fog"
"-68.56","63.76","IQALUIT A","2402596","2020-07-17 14:00","2020","07","17","14:00","12.7","","12.4","","98","","","","16","","7","","12.9","","100.21","","","","","","NA"
"-68.56","63.76","IQALUIT A","2402596","2020-07-17 15:00","2020","07","17","15:00","11.1","","10.5","","96","","","","17","","6","","32.2","","100.20","","","","","","NA"
"-68.56","63.76","IQALUIT A","2402596","2020-07-17 16:00","2020","07","17","16:00","8.9","","8.3","","96","","","","15","","14","","32.2","","100.20","","","","","","Mostly Cloudy"
"-68.56","63.76","IQALUIT A","2402596","2020-07-17 17:00","2020","07","17","17:00","10.7","","8.6","","87","","","","15","","16","","48.3","","100.22","","","","","","NA"
"-68.56","63.76","IQALUIT A","2402596","2020-07-17 18:00","2020","07","17","18:00","7.8","","5.7","","87","","","","9","","19","","48.3","","100.23","","","","","","NA"
"-68.56","63.76","IQALUIT A","2402596","2020-07-17 19:00","2020","07","17","19:00","7.3","","5.8","","90","","","","14","","11","","48.3","","100.23","","","","","","Mainly Clear"
"-68.56","63.76","IQALUIT A","2402596","2020-07-17 20:00","2020","07","17","20:00","6.2","","5.7","","97","","","","15","","18","","1.6","","100.26","","","","","","Fog"
"-68.56","63.76","IQALUIT A","2402596","2020-07-17 21:00","2020","07","17","21:00","6.5","","6.2","","98","","","","15","","15","","0.6","","100.27","","","","","","Fog"
"-68.56","63.76","IQALUIT A","2402596","2020-07-17 22:00","2020","07","17","22:00","6.3","","6.0","","98","","","","14","","13","","0.6","","100.25","","","","","","Fog"
"-68.56","63.76","IQALUIT A","2402596","2020-07-17 23:00","2020","07","17","23:00","6.1","","5.8","","98","","","","16","","19","","0.6","","100.26","","","","","","Fog"
"-68.56","63.76","IQALUIT A","2402596","2020-07-18 00:00","2020","07","18","00:00","5.9","","5.7","","98","","","","15","","9","","0.4","","100.23","","","","","","Fog"
"-68.56","63.76","IQALUIT A","2402596","2020-07-18 01:00","2020","07","18","01:00","6.0","","5.8","","98","","","","13","","15","","0.6","","100.25","","","","","","Fog"
"-68.56","63.76","IQALUIT A","2402596","2020-07-18 02:00","2020","07","18","02:00","5.8","","5.6","","98","","","","15","","10","","0.6","","100.23","","","","","","Fog"
"-68.56","63.76","IQALUIT A","2402596","2020-07-18 03:00","2020","07","18","03:00","6.8","","6.6","","99","","","","14","","17","","0.6","","100.25","","","","","","Fog"
"-68.56","63.76","IQALUIT A","2402596","2020-07-18 04:00","2020","07","18","04:00","6.8","","6.6","","99","","","","15","","9","","0.4","","100.23","","","","","","Fog"
"-68.56","63.76","IQALUIT A","2402596","2020-07-18 05:00","2020","07","18","05:00","6.7","","6.5","","99","","","","15","","14","","1.2","","100.25","","","","","","Fog"
"-68.56","63.76","IQALUIT A","2402596","2020-07-18 06:00","2020","07","18","06:00","6.7","","6.5","","99","","","","16","","18","","0.6","","100.27","","","","","","Fog"
"-68.56","63.76","IQALUIT A","2402596","2020-07-18 07:00","2020","07","18","07:00","7.4","","7.2","","99","","","","14","","9","","1.2","","100.28","","","","","","Fog"
"-68.56","63.76","IQALUIT A","2402596","2020-07-18 08:00","2020","07","18","08:00","7.9","","7.7","","99","","","","14","","22","","1.6","","100.26","","","","","","Fog"
"-68.56","63.76","IQALUIT A","2402596","2020-07-18 09:00","2020","07","18","09:00","7.5","","7.3","","99","","","","15","","18","","0.4","","100.24","","","","","","Fog"
"-68.56","63.76","IQALUIT A","2402596","2020-07-18 10:00","2020","07","18","10:00","7.6","","7.4","","99","","","","15","","12","","0.6","","100.25","","","","","","Fog"
"-68.56","63.76","IQALUIT A","2402596","2020-07-18 11:00","2020","07","18","11:00","7.4","","7.2","","99","","","","12","","10","","3.2","","100.21","","","","","","Fog"
"-68.56","63.76","IQALUIT A","2402596","2020-07-18 12:00","2020","07","18","12:00","7.1","","6.9","","99","","","","14","","18","","8.1","","100.24","","","","","","Fog"
"-68.56","63.76","IQALUIT A","2402596","2020-07-18 13:00","2020","07","18","13:00","6.9","","6.7","","99","","","","14","","12","","3.2","","100.23","","","","","","Fog"
"-68.56","63.76","IQALUIT A","2402596","2020-07-18 14:00","2020","07","18","14:00","7.7","","7.5","","99","","","","12","","12","","3.2","","100.23","","","","","","Fog"
"-68.56","63.76","IQALUIT A","2402596","2020-07-18 15:00","2020","07","18","15:00","7.6","","7.4","","99","","","","13","","9","","8.1","","100.23","","","","","","Rain,Fog"
"-68.56","63.76","IQALUIT A","2402596","2020-07-18 16:00","2020","07","18","16:00","7.7","","7.5","","98","","","","16","","7","","32.2","","100.23","","","","","","Cloudy"
"-68.56","63.76","IQALUIT A","2402596","2020-07-18 17:00","2020","07","18","17:00","8.8","","8.3","","97","","","","17","","5","","32.2","","100.21","","","","","","NA"
"-68.56","63.76","IQALUIT A","2402596","2020-07-18 18:00","2020","07","18","18:00","9.2","","8.4","","94","","","","16","","5","","48.3","","100.20","","","","","","NA"
"-68.56","63.76","IQALUIT A","2402596","2020-07-18 19:00","2020","07","18","19:00","9.8","","9.0","","94","","","","17","","4","","48.3","","100.18","","","","","","Mostly Cloudy"
"-68.56","63.76","IQALUIT A","2402596","2020-07-18 20:00","2020","07","18","20:00","9.2","","8.3","","94","","","","36","","2","","48.3","","100.18","","","","","","Rain"
"-68.56","63.76","IQALUIT A","2402596","2020-07-18 21:00","2020","07","18","21:00","7.5","","6.9","","96","","","","25","","5","","48.3","","100.17","","","","","","NA"
"-68.56","63.76","IQALUIT A","2402596","2020-07-18 22:00","2020","07","18","22:00","7.2","","6.9","","98","","","","36","","2","","1.6","","100.17","","","","","","Fog"
"-68.56","63.76","IQALUIT A","2402596","2020-07-18 23:00","2020","07","18","23:00","7.5","","7.2","","98","","","","36","","1","","1.6","","100.15","","","","","","Fog"
"-68.56","63.76","IQALUIT A","2402596","2020-07-19 00:00","2020","07","19","00:00","7.5","","7.3","","98","","","","34","","3","","0.4","","100.12","","","","","","Fog"
"-68.56","63.76","IQALUIT A","2402596","2020-07-19 01:00","2020","07","19","01:00","7.8","","7.6","","98","","","","33","","4","","3.2","","100.09","","","","","","Fog"
"-68.56","63.76","IQALUIT A","2402596","2020-07-19 02:00","2020","07","19","02:00","8.2","","8.0","","99","","","","36","","3","","24.1","","100.07","","","","","","NA"
"-68.56","63.76","IQALUIT A","2402596","2020-07-19 03:00","2020","07","19","03:00","8.6","","8.3","","99","","","","36","","2","","32.2","","100.05","","","","","","NA"
"-68.56","63.76","IQALUIT A","2402596","2020-07-19 04:00","2020","07","19","04:00","8.0","","7.7","","98","","","","13","","3","","8.1","","100.08","","","","","","Fog"
"-68.56","63.76","IQALUIT A","2402596","2020-07-19 05:00","2020","07","19","05:00","8.1","","7.8","","98","","","","36","","3","","16.1","","100.09","","","","","","Rain"
"-68.56","63.76","IQALUIT A","2402596","2020-07-19 06:00","2020","07","19","06:00","9.2","","8.9","","98","","","","18","","3","","12.9","","100.07","","","","","","Rain"
"-68.56","63.76","IQALUIT A","2402596","2020-07-19 07:00","2020","07","19","07:00","9.0","","8.6","","97","","","","28","","6","","8.1","","100.04","","","","","","Rain,Fog"
"-68.56","63.76","IQALUIT A","2402596","2020-07-19 08:00","2020","07","19","08:00","9.5","","9.0","","97","","","","28","","7","","6.4","","100.00","","","","","","Rain,Fog"
"-68.56","63.76","IQALUIT A","2402596","2020-07-19 09:00","2020","07","19","09:00","9.6","","9.0","","96","","","","25","","6","","16.1","","99.98","","","","","","Rain"
"-68.56","63.76","IQALUIT A","2402596","2020-07-19 10:00","2020","07","19","10:00","9.6","","8.5","","93","","","","16","","8","","11.3","","99.94","","","","","","Cloudy"
"-68.56","63.76","IQALUIT A","2402596","2020-07-19 11:00","2020","07","19","11:00","8.4","","8.1","","98","","","","15","","5","","1.6","","99.97","","","","","","Drizzle,Fog"
"-68.56","63.76","IQALUIT A","2402596","2020-07-19 12:00","2020","07","19","12:00","8.3","","8.0","","98","","","","16","","7","","0.8","","99.99","","","","","","Drizzle,Fog"
"-68.56","63.76","IQALUIT A","2402596","2020-07-19 13:00","2020","07","19","13:00","8.7","","8.4","","98","","","","15","","11","","1.6","","99.98","","","","","","Drizzle,Fog"
"-68.56","63.76","IQALUIT A","2402596","2020-07-19 14:00","2020","07","19","14:00","8.0","","7.8","","98","","","","16","","15","","0.8","","100.01","","","","","","Drizzle,Fog"
"-68.56","63.76","IQALUIT A","2402596","2020-07-19 15:00","2020","07","19","15:00","7.7","","7.5","","99","","","","13","","10","","4.8","","100.04","","","","","","Drizzle,Fog"
"-68.56","63.76","IQALUIT A","2402596","2020-07-19 16:00","2020","07","19","16:00","6.5","","6.3","","98","","","","15","","16","","9.7","","100.06","","","","","","Rain,Fog"
"-68.56","63.76","IQALUIT A","2402596","2020-07-19 17:00","2020","07","19","17:00","5.6","","5.3","","98","","","","14","","10","","4.8","","100.07","","","","","","Rain,Fog"
"-68.56","63.76","IQALUIT A","2402596","2020-07-19 18:00","2020","07","19","18:00","5.6","","5.4","","98","","","","16","","10","","4.8","","100.06","","","","","","Rain,Fog"
"-68.56","63.76","IQALUIT A","2402596","2020-07-19 19:00","2020","07","19","19:00","5.5","","5.3","","98","","","","12","","10","","16.1","","100.10","","","","","","Cloudy"
"-68.56","63.76","IQALUIT A","2402596","2020-07-19 20:00","2020","07","19","20:00","5.5","","5.2","","98","","","","16","","14","","12.9","","100.10","","","","","","NA"
"-68.56","63.76","IQALUIT A","2402596","2020-07-19 21:00","2020","07","19","21:00","6.2","","5.9","","98","","","","16","","17","","4.8","","100.10","","","","","","Drizzle,Fog"
"-68.56","63.76","IQALUIT A","2402596","2020-07-19 22:00","2020","07","19","22:00","5.5","","5.2","","98","","","","16","","19","","1.2","","100.07","","","","","","Fog"
"-68.56","63.76","IQALUIT A","2402596","2020-07-19 23:00","2020","07","19","23:00","5.1","","4.8","","98","","","","13","","9","","2.4","","100.05","","","","","","Drizzle,Fog"
"-68.56","63.76","IQALUIT A","2402596","2020-07-20 00:00","2020","07","20","00:00","5.0","","4.7","","98","","","","14","","7","","1.2","","100.06","","","","","","Fog"
"-68.56","63.76","IQALUIT A","2402596","2020-07-20 01:00","2020","07","20","01:00","5.1","","4.8","","98","","","","14","","13","","2.0","","100.04","","","","","","Fog"
"-68.56","63.76","IQALUIT A","2402596","2020-07-20 02:00","2020","07","20","02:00","5.4","","5.2","","99","","","","15","","12","","3.2","","100.03","","","","","","Fog"
"-68.56","63.76","IQALUIT A","2402596","2020-07-20 03:00","2020","07","20","03:00","5.0","","4.7","","98","","","","15","","15","","4.0","","100.04","","","","","","Drizzle,Fog"
"-68.56","63.76","IQALUIT A","2402596","2020-07-20 04:00","2020","07","20","04:00","4.8","","4.5","","99","","","","10","","3","","4.0","","100.03","","","","","","Drizzle,Fog"
"-68.56","63.76","IQALUIT A","2402596","2020-07-20 05:00","2020","07","20","05:00","5.8","","5.6","","99","","","","16","","11","","0.6","","100.04","","","","","","Fog"
"-68.56","63.76","IQALUIT A","2402596","2020-07-20 06:00","2020","07","20","06:00","4.9","","4.7","","99","","","","15","","4","","1.2","","100.01","","","","","","Fog"
"-68.56","63.76","IQALUIT A","2402596","2020-07-20 07:00","2020","07","20","07:00","5.1","","4.9","","99","","","","28","","4","","1.2","","100.01","","","","","","Fog"
"-68.56","63.76","IQALUIT A","2402596","2020-07-20 08:00","2020","07","20","08:00","6.3","","6.1","","99","","","","17","","6","","2.4","","99.99","","","","","","Fog"
"-68.56","63.76","IQALUIT A","2402596","2020-07-20 09:00","2020","07","20","09:00","6.3","","6.1","","99","","","","14","","7","","2.8","","99.99","","","","","","Drizzle,Fog"
"-68.56","63.76","IQALUIT A","2402596","2020-07-20 10:00","2020","07","20","10:00","6.7","","6.5","","99","","","","15","","5","","4.8","","99.98","","","","","","Fog"
"-68.56","63.76","IQALUIT A","2402596","2020-07-20 11:00","2020","07","20","11:00","7.1","","6.9","","98","","","","36","","2","","6.4","","99.94","","","","","","Fog"
"-68.56","63.76","IQALUIT A","2402596","2020-07-20 12:00","2020","07","20","12:00","6.8","","6.4","","97","","","","15","","7","","3.2","","99.93","","","","","","Fog"
"-68.56","63.76","IQALUIT A","2402596","2020-07-20 13:00","2020","07","20","13:00","8.2","","7.7","","96","","","","15","","8","","3.2","","99.90","","","","","","Fog"
"-68.56","63.76","IQALUIT A","2402596","2020-07-20 14:00","2020","07","20","14:00","9.1","","8.0","","93","","","","15","","9","","4.0","","99.87","","","","","","Fog"
"-68.56","63.76","IQALUIT A","2402596","2020-07-20 15:00","2020","07","20","15:00","8.2","","7.1","","92","","","","15","","8","","48.3","","99.89","","","","","","NA"
"-68.56","63.76","IQALUIT A","2402596","2020-07-20 16:00","2020","07","20","16:00","8.0","","6.8","","92","","","","16","","7","","48.3","","99.85","","","","","","Mostly Cloudy"
"-68.56","63.76","IQALUIT A","2402596","2020-07-20 17:00","2020","07","20","17:00","7.6","","6.5","","93","","","","14","","7","","48.3","","99.86","","","","","","NA"
"-68.56","63.76","IQALUIT A","2402596","2020-07-20 18:00","2020","07","20","18:00","7.4","","6.8","","96","","","","14","","5","","32.2","","99.87","","","","","","Rain"
"-68.56","63.76","IQALUIT A","2402596","2020-07-20 19:00","2020","07","20","19:00","7.2","","6.7","","96","","","","19","","9","","12.9","","99.90","","","","","","Rain"
"-68.56","63.76","IQALUIT A","2402596","2020-07-20 20:00","2020","07","20","20:00","6.7","","6.3","","97","","","","16","","6","","12.9","","99.89","","","","","","Rain"
"-68.56","63.76","IQALUIT A","2402596","2020-07-20 21:00","2020","07","20","21:00","6.4","","6.0","","98","","","","36","","2","","9.7","","99.86","","","","","","Fog"
"-68.56","63.76","IQALUIT A","2402596","2020-07-20 22:00","2020","07","20","22:00","7.1","","6.8","","98","","","","32","","13","","24.1","","99.81","","","","","","Rain,Drizzle"
"-68.56","63.76","IQALUIT A","2402596","2020-07-20 23:00","2020","07","20","23:00","7.9","","7.6","","98","","","","32","","17","","24.1","","99.73","","","","","","Rain"
"-68.56","63.76","IQALUIT A","2402596","2020-07-21 00:00","2020","07","21","00:00","9.9","","8.8","","93","","","","33","","3","","19.3","","99.69","","","","","","Rain"
"-68.56","63.76","IQALUIT A","2402596","2020-07-21 01:00","2020","07","21","01:00","9.6","","9.3","","98","","","","8","","9","","16.1","","99.65","","","","","","Rain"
"-68.56","63.76","IQALUIT A","2402596","2020-07-21 02:00","2020","07","21","02:00","10.7","","8.1","","84","","","","6","","9","","9.7","","99.64","","","","","","Rain,Fog"
"-68.56","63.76","IQALUIT A","2402596","2020-07-21 03:00","2020","07","21","03:00","10.4","","8.0","","85","","","","7","","9","","9.7","","99.62","","","","","","Rain,Fog"
"-68.56","63.76","IQALUIT A","2402596","2020-07-21 04:00","2020","07","21","04:00","9.3","","8.2","","93","","","","29","","4","","12.9","","99.62","","","","","","Rain"
"-68.56","63.76","IQALUIT A","2402596","2020-07-21 05:00","2020","07","21","05:00","9.6","","6.9","","83","","","","8","","17","","12.9","","99.62","","","","","","Moderate Rain"
"-68.56","63.76","IQALUIT A","2402596","2020-07-21 06:00","2020","07","21","06:00","9.7","","7.0","","83","","","","9","","13","","8.1","","99.58","","","","","","Moderate Rain,Fog"
"-68.56","63.76","IQALUIT A","2402596","2020-07-21 07:00","2020","07","21","07:00","9.8","","6.4","","79","","","","8","","23","","9.7","","99.52","","","","","","Rain,Fog"
"-68.56","63.76","IQALUIT A","2402596","2020-07-21 08:00","2020","07","21","08:00","10.0","","6.4","","78","","","","11","","7","","9.7","","99.48","","","","","","Rain,Fog"
"-68.56","63.76","IQALUIT A","2402596","2020-07-21 09:00","2020","07","21","09:00","9.4","","6.6","","82","","","","16","","5","","9.7","","99.44","","","","","","Moderate Rain,Fog"
"-68.56","63.76","IQALUIT A","2402596","2020-07-21 10:00","2020","07","21","10:00","9.6","","6.3","","80","","","","11","","19","","6.4","","99.41","","","","","","Rain,Fog"
"-68.56","63.76","IQALUIT A","2402596","2020-07-21 11:00","2020","07","21","11:00","9.4","","6.7","","83","","","","6","","32","","3.2","","99.33","","","","","","Moderate Rain,Fog"
"-68.56","63.76","IQALUIT A","2402596","2020-07-21 12:00","2020","07","21","12:00","9.6","","6.8","","82","","","","6","","36","","4.8","","99.24","","","","","","Rain,Fog"
"-68.56","63.76","IQALUIT A","2402596","2020-07-21 13:00","2020","07","21","13:00","9.5","","6.9","","84","","","","11","","9","","4.8","","99.24","","","","","","Moderate Rain,Fog"
"-68.56","63.76","IQALUIT A","2402596","2020-07-21 14:00","2020","07","21","14:00","9.3","","6.7","","84","","","","3","","14","","9.7","","99.24","","","","","","Rain,Fog"
"-68.56","63.76","IQALUIT A","2402596","2020-07-21 15:00","2020","07","21","15:00","9.2","","6.7","","84","","","","5","","16","","16.1","","99.23","","","","","","Moderate Rain"
"-68.56","63.76","IQALUIT A","2402596","2020-07-21 16:00","2020","07","21","16:00","8.9","","7.5","","91","","","","1","","9","","6.4","","99.23","","","","","","Rain,Fog"
"-68.56","63.76","IQALUIT A","2402596","2020-07-21 17:00","2020","07","21","17:00","9.2","","7.4","","88","","","","1","","12","","12.9","","99.21","","","","","","Rain"
"-68.56","63.76","IQALUIT A","2402596","2020-07-21 18:00","2020","07","21","18:00","9.4","","6.9","","84","","","","5","","17","","16.1","","99.22","","","","","","Rain"
"-68.56","63.76","IQALUIT A","2402596","2020-07-21 19:00","2020","07","21","19:00","9.2","","6.7","","84","","","","5","","17","","16.1","","99.21","","","","","","Rain"
"-68.56","63.76","IQALUIT A","2402596","2020-07-21 20:00","2020","07","21","20:00","8.8","","7.0","","88","","","","8","","14","","12.9","","99.23","","","","","","Rain"
"-68.56","63.76","IQALUIT A","2402596","2020-07-21 21:00","2020","07","21","21:00","8.2","","6.0","","86","","","","6","","25","","12.9","","99.25","","","","","","Rain"
"-68.56","63.76","IQALUIT A","2402596","2020-07-21 22:00","2020","07","21","22:00","7.6","","5.6","","87","","","","6","","21","","8.1","","99.26","","","","","","Rain,Fog"
"-68.56","63.76","IQALUIT A","2402596","2020-07-21 23:00","2020","07","21","23:00","7.5","","5.5","","87","","","","5","","20","","6.4","","99.23","","","","","","Rain,Fog"
"-68.56","63.76","IQALUIT A","2402596","2020-07-22 00:00","2020","07","22","00:00","8.0","","5.2","","82","","","","6","","24","","16.1","","99.22","","","","","","Rain"
"-68.56","63.76","IQALUIT A","2402596","2020-07-22 01:00","2020","07","22","01:00","8.1","","5.1","","81","","","","6","","17","","32.2","","99.22","","","","","","Rain"
"-68.56","63.76","IQALUIT A","2402596","2020-07-22 02:00","2020","07","22","02:00","8.1","","5.2","","82","","","","8","","23","","16.1","","99.25","","","","","","Rain"
"-68.56","63.76","IQALUIT A","2402596","2020-07-22 03:00","2020","07","22","03:00","7.8","","5.2","","83","","","","6","","20","","16.1","","99.28","","","","","","Rain"
"-68.56","63.76","IQALUIT A","2402596","2020-07-22 04:00","2020","07","22","04:00","7.6","","5.0","","83","","","","6","","15","","19.3","","99.31","","","","","","Rain"
"-68.56","63.76","IQALUIT A","2402596","2020-07-22 05:00","2020","07","22","05:00","8.0","","4.6","","79","","","","6","","17","","24.1","","99.32","","","","","","NA"
"-68.56","63.76","IQALUIT A","2402596","2020-07-22 06:00","2020","07","22","06:00","8.0","","4.2","","77","","","","6","","18","","32.2","","99.34","","","","","","NA"
"-68.56","63.76","IQALUIT A","2402596","2020-07-22 07:00","2020","07","22","07:00","9.2","","5.1","","76","","","","7","","16","","32.2","","99.35","","","","","","Cloudy"
"-68.56","63.76","IQALUIT A","2402596","2020-07-22 08:00","2020","07","22","08:00","10.7","","6.0","","73","","","","12","","12","","40.2","","99.34","","","","","","NA"
"-68.56","63.76","IQALUIT A","2402596","2020-07-22 09:00","2020","07","22","09:00","10.1","","5.5","","73","","","","16","","7","","48.3","","99.36","","","","","","NA"
"-68.56","63.76","IQALUIT A","2402596","2020-07-22 10:00","2020","07","22","10:00","9.2","","6.2","","81","","","","17","","4","","40.2","","99.40","","","","","","Cloudy"
"-68.56","63.76","IQALUIT A","2402596","2020-07-22 11:00","2020","07","22","11:00","9.6","","5.5","","76","","","","20","","6","","24.1","","99.40","","","","","","NA"
"-68.56","63.76","IQALUIT A","2402596","2020-07-22 12:00","2020","07","22","12:00","9.3","","5.3","","76","","","","21","","7","","32.2","","99.43","","","","","","NA"
"-68.56","63.76","IQALUIT A","2402596","2020-07-22 13:00","2020","07","22","13:00","9.0","","5.6","","79","","","","14","","5","","48.3","","99.47","","","","","","Cloudy"
"-68.56","63.76","IQALUIT A","2402596","2020-07-22 14:00","2020","07","22","14:00","9.4","","6.4","","82","","","","0","","1","","48.3","","99.49","","","","","","NA"
"-68.56","63.76","IQALUIT A","2402596","2020-07-22 15:00","2020","07","22","15:00","8.8","","7.1","","89","","","","23","","4","","16.1","","99.52","","","","","","Rain Showers"
"-68.56","63.76","IQALUIT A","2402596","2020-07-22 16:00","2020","07","22","16:00","8.0","","7.2","","94","","","","13","","4","","32.2","","99.59","","","","","","Rain Showers"
"-68.56","63.76","IQALUIT A","2402596","2020-07-22 17:00","2020","07","22","17:00","8.4","","7.6","","95","","","","17","","3","","48.3","","99.62","","","","","","Rain Showers"
"-68.56","63.76","IQALUIT A","2402596","2020-07-22 18:00","2020","07","22","18:00","8.2","","7.6","","96","","","","36","","1","","48.3","","99.65","","","","","","Rain Showers"
"-68.56","63.76","IQALUIT A","2402596","2020-07-22 19:00","2020","07","22","19:00","7.8","","7.4","","97","","","","17","","3","","48.3","","99.70","","","","","","Rain Showers"
"-68.56","63.76","IQALUIT A","2402596","2020-07-22 20:00","2020","07","22","20:00","8.8","","8.3","","96","","","","36","","3","","48.3","","99.71","","","","","","NA"
"-68.56","63.76","IQALUIT A","2402596","2020-07-22 21:00","2020","07","22","21:00","9.5","","7.1","","85","","","","9","","14","","48.3","","99.75","","","","","","Rain Showers"
"-68.56","63.76","IQALUIT A","2402596","2020-07-22 22:00","2020","07","22","22:00","9.3","","7.0","","86","","","","9","","15","","32.2","","99.77","","","","","","Rain"
"-68.56","63.76","IQALUIT A","2402596","2020-07-22 23:00","2020","07","22","23:00","9.6","","6.3","","80","","","","9","","15","","24.1","","99.78","","","","","","Rain"
"-68.56","63.76","IQALUIT A","2402596","2020-07-23 00:00","2020","07","23","00:00","9.4","","5.9","","79","","","","12","","9","","24.1","","99.80","","","","","","Rain"
"-68.56","63.76","IQALUIT A","2402596","2020-07-23 01:00","2020","07","23","01:00","8.9","","6.4","","84","","","","8","","17","","24.1","","99.84","","","","","","Rain"
"-68.56","63.76","IQALUIT A","2402596","2020-07-23 02:00","2020","07","23","02:00","9.1","","6.0","","81","","","","9","","11","","48.3","","99.88","","","","","","NA"
"-68.56","63.76","IQALUIT A","2402596","2020-07-23 03:00","2020","07","23","03:00","9.3","","5.4","","76","","","","9","","15","","32.2","","99.92","","","","","","NA"
"-68.56","63.76","IQALUIT A","2402596","2020-07-23 04:00","2020","07","23","04:00","8.9","","5.7","","80","","","","11","","11","","32.2","","100.01","","","","","","Rain"
"-68.56","63.76","IQALUIT A","2402596","2020-07-23 05:00","2020","07","23","05:00","8.8","","5.9","","82","","","","9","","17","","48.3","","100.08","","","","","","Rain"
"-68.56","63.76","IQALUIT A","2402596","2020-07-23 06:00","2020","07","23","06:00","9.7","","6.4","","79","","","","9","","15","","48.3","","100.11","","","","","","NA"
"-68.56","63.76","IQALUIT A","2402596","2020-07-23 07:00","2020","07","23","07:00","11.0","","6.2","","72","","","","13","","16","","48.3","","100.15","","","","","","Mostly Cloudy"
"-68.56","63.76","IQALUIT A","2402596","2020-07-23 08:00","2020","07","23","08:00","9.5","","6.4","","81","","","","20","","7","","48.3","","100.22","","","","","","NA"
"-68.56","63.76","IQALUIT A","2402596","2020-07-23 09:00","2020","07","23","09:00","9.6","","6.0","","79","","","","14","","8","","48.3","","100.27","","","","","","NA"
"-68.56","63.76","IQALUIT A","2402596","2020-07-23 10:00","2020","07","23","10:00","9.2","","6.8","","85","","","","18","","7","","48.3","","100.33","","","","","","Mostly Cloudy"
"-68.56","63.76","IQALUIT A","2402596","2020-07-23 11:00","2020","07","23","11:00","8.7","","6.5","","86","","","","12","","7","","48.3","","100.38","","","","","","NA"
"-68.56","63.76","IQALUIT A","2402596","2020-07-23 12:00","2020","07","23","12:00","9.0","","6.3","","83","","","","21","","5","","48.3","","100.42","","","","","","NA"
"-68.56","63.76","IQALUIT A","2402596","2020-07-23 13:00","2020","07","23","13:00","9.2","","6.4","","82","","","","24","","6","","48.3","","100.43","","","","","","Mostly Cloudy"
"-68.56","63.76","IQALUIT A","2402596","2020-07-23 14:00","2020","07","23","14:00","9.5","","6.5","","81","","","","22","","7","","48.3","","100.47","","","","","","NA"
"-68.56","63.76","IQALUIT A","2402596","2020-07-23 15:00","2020","07","23","15:00","10.2","","7.5","","83","","","","36","","2","","48.3","","100.50","","","","","","NA"
"-68.56","63.76","IQALUIT A","2402596","2020-07-23 16:00","2020","07","23","16:00","12.4","","7.6","","72","","","","14","","8","","48.3","","100.51","","","","","","Mostly Cloudy"
"-68.56","63.76","IQALUIT A","2402596","2020-07-23 17:00","2020","07","23","17:00","13.6","","7.1","","65","","","","8","","12","","48.3","","100.53","","","","","","NA"
"-68.56","63.76","IQALUIT A","2402596","2020-07-23 18:00","2020","07","23","18:00","13.6","","6.7","","63","","","","8","","10","","48.3","","100.55","","","","","","NA"
"-68.56","63.76","IQALUIT A","2402596","2020-07-23 19:00","2020","07","23","19:00","13.6","","6.3","","61","","","","7","","8","","48.3","","100.57","","","","","","Mostly Cloudy"
"-68.56","63.76","IQALUIT A","2402596","2020-07-23 20:00","2020","07","23","20:00","13.1","","6.5","","64","","","","3","","10","","48.3","","100.63","","","","","","NA"
"-68.56","63.76","IQALUIT A","2402596","2020-07-23 21:00","2020","07","23","21:00","12.5","","5.3","","61","","","","9","","9","","48.3","","100.67","","","","","","NA"
"-68.56","63.76","IQALUIT A","2402596","2020-07-23 22:00","2020","07","23","22:00","12.2","","4.1","","57","","","","4","","13","","48.3","","100.69","","","","","","Mostly Cloudy"
"-68.56","63.76","IQALUIT A","2402596","2020-07-23 23:00","2020","07","23","23:00","11.7","","4.6","","61","","","","4","","6","","24.1","","100.72","","","","","","NA"
"-68.56","63.76","IQALUIT A","2402596","2020-07-24 00:00","2020","07","24","00:00","11.7","","3.9","","59","","","","4","","11","","24.1","","100.72","","","","","","NA"
"-68.56","63.76","IQALUIT A","2402596","2020-07-24 01:00","2020","07","24","01:00","11.3","","4.1","","61","","","","5","","10","","24.1","","100.73","","","","","","Mostly Cloudy"
"-68.56","63.76","IQALUIT A","2402596","2020-07-24 02:00","2020","07","24","02:00","11.1","","3.8","","61","","","","5","","17","","48.3","","100.76","","","","","","NA"
"-68.56","63.76","IQALUIT A","2402596","2020-07-24 03:00","2020","07","24","03:00","10.8","","4.2","","63","","","","5","","16","","48.3","","100.79","","","","","","NA"
"-68.56","63.76","IQALUIT A","2402596","2020-07-24 04:00","2020","07","24","04:00","11.2","","3.8","","60","","","","5","","17","","48.3","","100.84","","","","","","Mostly Cloudy"
"-68.56","63.76","IQALUIT A","2402596","2020-07-24 05:00","2020","07","24","05:00","11.9","","3.5","","57","","","","5","","19","","48.3","","100.86","","","","","","NA"
"-68.56","63.76","IQALUIT A","2402596","2020-07-24 06:00","2020","07","24","06:00","11.7","","3.5","","57","","","","5","","28","","48.3","","100.84","","","","","","NA"
"-68.56","63.76","IQALUIT A","2402596","2020-07-24 07:00","2020","07","24","07:00","12.6","","3.7","","54","","","","6","","25","","48.3","","100.86","","","","","","Mostly Cloudy"
"-68.56","63.76","IQALUIT A","2402596","2020-07-24 08:00","2020","07","24","08:00","13.3","","3.7","","52","","","","5","","17","","48.3","","100.90","","","","","","NA"
"-68.56","63.76","IQALUIT A","2402596","2020-07-24 09:00","2020","07","24","09:00","15.1","","4.2","","48","","","","7","","14","","48.3","","100.89","","","","","","NA"
"-68.56","63.76","IQALUIT A","2402596","2020-07-24 10:00","2020","07","24","10:00","15.2","","4.0","","47","","","","10","","22","","48.3","","100.91","","","","","","Mostly Cloudy"
"-68.56","63.76","IQALUIT A","2402596","2020-07-24 11:00","2020","07","24","11:00","13.6","","4.6","","55","","","","21","","11","","48.3","","100.94","","","","","","NA"
"-68.56","63.76","IQALUIT A","2402596","2020-07-24 12:00","2020","07","24","12:00","14.9","","4.5","","50","","","","22","","8","","48.3","","100.96","","","","","","NA"
"-68.56","63.76","IQALUIT A","2402596","2020-07-24 13:00","2020","07","24","13:00","14.9","","3.8","","47","","","","22","","5","","48.3","","100.98","","","","","","Mostly Cloudy"
"-68.56","63.76","IQALUIT A","2402596","2020-07-24 14:00","2020","07","24","14:00","15.1","","4.2","","48","","","","36","","2","","48.3","","100.97","","","","","","NA"
"-68.56","63.76","IQALUIT A","2402596","2020-07-24 15:00","2020","07","24","15:00","10.9","","5.7","","70","","","","15","","9","","48.3","","100.96","","","","","","NA"
"-68.56","63.76","IQALUIT A","2402596","2020-07-24 16:00","2020","07","24","16:00","9.3","","5.5","","77","","","","13","","8","","48.3","","100.97","","","","","","Mostly Cloudy"
"-68.56","63.76","IQALUIT A","2402596","2020-07-24 17:00","2020","07","24","17:00","10.7","","6.2","","73","","","","36","","2","","48.3","","100.96","","","","","","NA"
"-68.56","63.76","IQALUIT A","2402596","2020-07-24 18:00","2020","07","24","18:00","9.6","","5.2","","74","","","","36","","3","","48.3","","100.97","","","","","","NA"
"-68.56","63.76","IQALUIT A","2402596","2020-07-24 19:00","2020","07","24","19:00","9.5","","4.0","","69","","","","15","","7","","48.3","","100.97","","","","","","Mostly Cloudy"
"-68.56","63.76","IQALUIT A","2402596","2020-07-24 20:00","2020","07","24","20:00","7.3","","4.8","","84","","","","15","","4","","48.3","","100.99","","","","","","NA"
"-68.56","63.76","IQALUIT A","2402596","2020-07-24 21:00","2020","07","24","21:00","7.2","","4.0","","80","","","","13","","4","","48.3","","100.99","","","","","","NA"
"-68.56","63.76","IQALUIT A","2402596","2020-07-24 22:00","2020","07","24","22:00","7.6","","4.0","","78","","","","16","","5","","48.3","","100.98","","","","","","Cloudy"
"-68.56","63.76","IQALUIT A","2402596","2020-07-24 23:00","2020","07","24","23:00","7.3","","4.2","","81","","","","15","","6","","24.1","","100.99","","","","","","NA"
"-68.56","63.76","IQALUIT A","2402596","2020-07-25 00:00","2020","07","25","00:00","5.5","","3.9","","89","","","","15","","7","","24.1","","101.01","","","","","","NA"
"-68.56","63.76","IQALUIT A","2402596","2020-07-25 01:00","2020","07","25","01:00","7.1","","4.3","","83","","","","36","","1","","48.3","","101.03","","","","","","Cloudy"
"-68.56","63.76","IQALUIT A","2402596","2020-07-25 02:00","2020","07","25","02:00","6.8","","3.9","","82","","","","36","","2","","48.3","","101.03","","","","","","NA"
"-68.56","63.76","IQALUIT A","2402596","2020-07-25 03:00","2020","07","25","03:00","5.7","","4.1","","90","","","","10","","3","","48.3","","101.04","","","","","","NA"
"-68.56","63.76","IQALUIT A","2402596","2020-07-25 04:00","2020","07","25","04:00","6.9","","4.9","","87","","","","36","","2","","48.3","","101.04","","","","","","Cloudy"
"-68.56","63.76","IQALUIT A","2402596","2020-07-25 05:00","2020","07","25","05:00","7.5","","4.9","","84","","","","25","","4","","48.3","","101.03","","","","","","NA"
"-68.56","63.76","IQALUIT A","2402596","2020-07-25 06:00","2020","07","25","06:00","7.2","","4.5","","83","","","","25","","4","","48.3","","101.04","","","","","","NA"
"-68.56","63.76","IQALUIT A","2402596","2020-07-25 07:00","2020","07","25","07:00","7.6","","5.1","","84","","","","16","","3","","48.3","","101.04","","","","","","Mostly Cloudy"
"-68.56","63.76","IQALUIT A","2402596","2020-07-25 08:00","2020","07","25","08:00","8.6","","5.1","","79","","","","14","","7","","48.3","","101.02","","","","","","NA"
"-68.56","63.76","IQALUIT A","2402596","2020-07-25 09:00","2020","07","25","09:00","8.5","","5.5","","82","","","","12","","7","","48.3","","101.02","","","","","","NA"
"-68.56","63.76","IQALUIT A","2402596","2020-07-25 10:00","2020","07","25","10:00","7.5","","5.3","","86","","","","12","","11","","48.3","","100.99","","","","","","Mostly Cloudy"
"-68.56","63.76","IQALUIT A","2402596","2020-07-25 11:00","2020","07","25","11:00","8.5","","5.5","","81","","","","16","","9","","48.3","","100.99","","","","","","NA"
"-68.56","63.76","IQALUIT A","2402596","2020-07-25 12:00","2020","07","25","12:00","8.0","","5.3","","83","","","","15","","11","","48.3","","100.97","","","","","","NA"
"-68.56","63.76","IQALUIT A","2402596","2020-07-25 13:00","2020","07","25","13:00","8.3","","5.5","","82","","","","14","","6","","48.3","","100.96","","","","","","Mostly Cloudy"
"-68.56","63.76","IQALUIT A","2402596","2020-07-25 14:00","2020","07","25","14:00","8.3","","5.5","","82","","","","16","","10","","48.3","","100.94","","","","","","NA"
"-68.56","63.76","IQALUIT A","2402596","2020-07-25 15:00","2020","07","25","15:00","7.8","","5.7","","87","","","","29","","11","","48.3","","100.97","","","","","","Rain"
"-68.56","63.76","IQALUIT A","2402596","2020-07-25 16:00","2020","07","25","16:00","9.1","","6.2","","82","","","","24","","4","","48.3","","100.99","","","","","","Mostly Cloudy"
"-68.56","63.76","IQALUIT A","2402596","2020-07-25 17:00","2020","07","25","17:00","10.9","","6.6","","75","","","","12","","7","","48.3","","100.95","","","","","","NA"
"-68.56","63.76","IQALUIT A","2402596","2020-07-25 18:00","2020","07","25","18:00","10.9","","8.2","","83","","","","36","","2","","48.3","","100.91","","","","","","NA"
"-68.56","63.76","IQALUIT A","2402596","2020-07-25 19:00","2020","07","25","19:00","7.7","","4.8","","82","","","","23","","10","","48.3","","100.98","","","","","","Mostly Cloudy"
"-68.56","63.76","IQALUIT A","2402596","2020-07-25 20:00","2020","07","25","20:00","7.4","","4.5","","82","","","","24","","4","","48.3","","100.99","","","","","","NA"
"-68.56","63.76","IQALUIT A","2402596","2020-07-25 21:00","2020","07","25","21:00","7.3","","5.2","","87","","","","14","","5","","48.3","","101.01","","","","","","NA"
"-68.56","63.76","IQALUIT A","2402596","2020-07-25 22:00","2020","07","25","22:00","7.6","","5.7","","88","","","","12","","7","","48.3","","101.00","","","","","","Mainly Clear"
"-68.56","63.76","IQALUIT A","2402596","2020-07-25 23:00","2020","07","25","23:00","7.1","","5.2","","87","","","","21","","4","","24.1","","101.05","","","","","","NA"
"-68.56","63.76","IQALUIT A","2402596","2020-07-26 00:00","2020","07","26","00:00","6.0","","4.5","","90","","","","17","","4","","24.1","","101.06","","","","","","NA"
"-68.56","63.76","IQALUIT A","2402596","2020-07-26 01:00","2020","07","26","01:00","5.2","","3.7","","90","","","","15","","6","","24.1","","101.09","","","","","","Mostly Cloudy"
"-68.56","63.76","IQALUIT A","2402596","2020-07-26 02:00","2020","07","26","02:00","5.0","","3.5","","90","","","","12","","6","","48.3","","101.11","","","","","","NA"
"-68.56","63.76","IQALUIT A","2402596","2020-07-26 03:00","2020","07","26","03:00","5.2","","3.4","","88","","","","8","","4","","48.3","","101.11","","","","","","NA"
"-68.56","63.76","IQALUIT A","2402596","2020-07-26 04:00","2020","07","26","04:00","6.3","","3.9","","85","","","","36","","3","","32.2","","101.13","","","","","","Mainly Clear"
"-68.56","63.76","IQALUIT A","2402596","2020-07-26 05:00","2020","07","26","05:00","6.3","","4.1","","86","","","","36","","2","","48.3","","101.17","","","","","","NA"
"-68.56","63.76","IQALUIT A","2402596","2020-07-26 06:00","2020","07","26","06:00","6.6","","3.9","","83","","","","36","","1","","48.3","","101.19","","","","","","NA"
"-68.56","63.76","IQALUIT A","2402596","2020-07-26 07:00","2020","07","26","07:00","7.2","","4.5","","83","","","","15","","4","","48.3","","101.21","","","","","","Mostly Cloudy"
"-68.56","63.76","IQALUIT A","2402596","2020-07-26 08:00","2020","07","26","08:00","9.0","","5.7","","80","","","","27","","3","","48.3","","101.18","","","","","","NA"
"-68.56","63.76","IQALUIT A","2402596","2020-07-26 09:00","2020","07","26","09:00","7.6","","4.8","","83","","","","11","","7","","48.3","","101.26","","","","","","NA"
"-68.56","63.76","IQALUIT A","2402596","2020-07-26 10:00","2020","07","26","10:00","9.9","","6.3","","78","","","","16","","10","","48.3","","101.23","","","","","","Mostly Cloudy"
"-68.56","63.76","IQALUIT A","2402596","2020-07-26 11:00","2020","07","26","11:00","10.6","","7.2","","79","","","","15","","8","","48.3","","101.20","","","","","","NA"
"-68.56","63.76","IQALUIT A","2402596","2020-07-26 12:00","2020","07","26","12:00","10.6","","6.6","","76","","","","15","","14","","48.3","","101.21","","","","","","NA"
"-68.56","63.76","IQALUIT A","2402596","2020-07-26 13:00","2020","07","26","13:00","10.9","","6.2","","73","","","","15","","6","","48.3","","101.21","","","","","","Mostly Cloudy"
"-68.56","63.76","IQALUIT A","2402596","2020-07-26 14:00","2020","07","26","14:00","11.9","","8.2","","78","","","","15","","9","","48.3","","101.19","","","","","","NA"
"-68.56","63.76","IQALUIT A","2402596","2020-07-26 15:00","2020","07","26","15:00","11.7","","7.6","","76","","","","16","","9","","48.3","","101.20","","","","","","NA"
"-68.56","63.76","IQALUIT A","2402596","2020-07-26 16:00","2020","07","26","16:00","11.5","","7.5","","76","","","","17","","5","","48.3","","101.19","","","","","","Mainly Clear"
"-68.56","63.76","IQALUIT A","2402596","2020-07-26 17:00","2020","07","26","17:00","12.1","","8.3","","77","","","","16","","6","","48.3","","101.17","","","","","","NA"
"-68.56","63.76","IQALUIT A","2402596","2020-07-26 18:00","2020","07","26","18:00","11.3","","8.6","","83","","","","14","","7","","48.3","","101.15","","","","","","NA"
"-68.56","63.76","IQALUIT A","2402596","2020-07-26 19:00","2020","07","26","19:00","10.2","","8.2","","87","","","","15","","9","","48.3","","101.16","","","","","","Mainly Clear"
"-68.56","63.76","IQALUIT A","2402596","2020-07-26 20:00","2020","07","26","20:00","9.1","","6.9","","86","","","","16","","5","","48.3","","101.17","","","","","","NA"
"-68.56","63.76","IQALUIT A","2402596","2020-07-26 21:00","2020","07","26","21:00","9.7","","7.5","","86","","","","19","","3","","48.3","","101.18","","","","","","NA"
"-68.56","63.76","IQALUIT A","2402596","2020-07-26 22:00","2020","07","26","22:00","7.2","","5.8","","91","","","","24","","4","","48.3","","101.18","","","","","","Mainly Clear"
"-68.56","63.76","IQALUIT A","2402596","2020-07-26 23:00","2020","07","26","23:00","7.2","","6.2","","94","","","","36","","2","","24.1","","101.16","","","","","","NA"
"-68.56","63.76","IQALUIT A","2402596","2020-07-27 00:00","2020","07","27","00:00","6.7","","5.8","","93","","","","14","","6","","48.3","","101.16","","","","","","NA"
"-68.56","63.76","IQALUIT A","2402596","2020-07-27 01:00","2020","07","27","01:00","6.7","","5.7","","94","","","","8","","3","","40.2","","101.15","","","","","","Mainly Clear"
"-68.56","63.76","IQALUIT A","2402596","2020-07-27 02:00","2020","07","27","02:00","7.2","","6.2","","93","","","","36","","3","","48.3","","101.13","","","","","","NA"
"-68.56","63.76","IQALUIT A","2402596","2020-07-27 03:00","2020","07","27","03:00","6.0","","5.3","","95","","","","26","","9","","48.3","","101.14","","","","","","NA"
"-68.56","63.76","IQALUIT A","2402596","2020-07-27 04:00","2020","07","27","04:00","6.0","","5.6","","97","","","","31","","5","","2.4","","101.15","","","","","","Fog"
"-68.56","63.76","IQALUIT A","2402596","2020-07-27 05:00","2020","07","27","05:00","7.3","","7.0","","98","","","","36","","2","","48.3","","101.14","","","","","","NA"
"-68.56","63.76","IQALUIT A","2402596","2020-07-27 06:00","2020","07","27","06:00","9.3","","8.0","","91","","","","36","","3","","48.3","","101.12","","","","","","NA"
"-68.56","63.76","IQALUIT A","2402596","2020-07-27 07:00","2020","07","27","07:00","10.1","","8.1","","87","","","","16","","4","","48.3","","101.10","","","","","","Mostly Cloudy"
"-68.56","63.76","IQALUIT A","2402596","2020-07-27 08:00","2020","07","27","08:00","10.8","","8.3","","84","","","","15","","5","","48.3","","101.09","","","","","","NA"
"-68.56","63.76","IQALUIT A","2402596","2020-07-27 09:00","2020","07","27","09:00","11.4","","8.5","","82","","","","36","","2","","48.3","","101.07","","","","","","NA"
"-68.56","63.76","IQALUIT A","2402596","2020-07-27 10:00","2020","07","27","10:00","11.0","","8.0","","82","","","","14","","6","","48.3","","101.02","","","","","","Mostly Cloudy"
"-68.56","63.76","IQALUIT A","2402596","2020-07-27 11:00","2020","07","27","11:00","11.5","","8.2","","80","","","","15","","7","","48.3","","100.97","","","","","","NA"
"-68.56","63.76","IQALUIT A","2402596","2020-07-27 12:00","2020","07","27","12:00","12.1","","8.6","","79","","","","14","","9","","48.3","","100.93","","","","","","NA"
"-68.56","63.76","IQALUIT A","2402596","2020-07-27 13:00","2020","07","27","13:00","12.8","","8.8","","77","","","","15","","9","","48.3","","100.89","","","","","","Mostly Cloudy"
"-68.56","63.76","IQALUIT A","2402596","2020-07-27 14:00","2020","07","27","14:00","11.6","","8.8","","83","","","","15","","7","","48.3","","100.88","","","","","","NA"
"-68.56","63.76","IQALUIT A","2402596","2020-07-27 15:00","2020","07","27","15:00","13.4","","9.2","","76","","","","15","","6","","48.3","","100.85","","","","","","NA"
"-68.56","63.76","IQALUIT A","2402596","2020-07-27 16:00","2020","07","27","16:00","14.3","","9.6","","73","","","","14","","5","","48.3","","100.84","","","","","","Mostly Cloudy"
"-68.56","63.76","IQALUIT A","2402596","2020-07-27 17:00","2020","07","27","17:00","13.4","","10.0","","80","","","","13","","7","","48.3","","100.81","","","","","","NA"
"-68.56","63.76","IQALUIT A","2402596","2020-07-27 18:00","2020","07","27","18:00","12.9","","9.3","","78","","","","14","","3","","48.3","","100.80","","","","","","NA"
"-68.56","63.76","IQALUIT A","2402596","2020-07-27 19:00","2020","07","27","19:00","14.0","","10.4","","79","","","","36","","1","","48.3","","100.81","","","","","","Mostly Cloudy"
"-68.56","63.76","IQALUIT A","2402596","2020-07-27 20:00","2020","07","27","20:00","14.4","","11.1","","81","","","","36","","1","","48.3","","100.81","","","","","","NA"
"-68.56","63.76","IQALUIT A","2402596","2020-07-27 21:00","2020","07","27","21:00","14.6","","10.6","","77","","","","33","","8","","48.3","","100.80","","","","","","NA"
"-68.56","63.76","IQALUIT A","2402596","2020-07-27 22:00","2020","07","27","22:00","11.1","","9.0","","87","","","","15","","4","","48.3","","100.80","","","","","","Mostly Cloudy"
"-68.56","63.76","IQALUIT A","2402596","2020-07-27 23:00","2020","07","27","23:00","11.0","","9.1","","88","","","","14","","3","","24.1","","100.80","","","","","","NA"
"-68.56","63.76","IQALUIT A","2402596","2020-07-28 00:00","2020","07","28","00:00","13.9","","9.8","","76","","","","34","","11","","24.1","","100.80","","","","","","NA"
"-68.56","63.76","IQALUIT A","2402596","2020-07-28 01:00","2020","07","28","01:00","13.6","","10.1","","79","","","","33","","15","","24.1","","100.80","","","","","","Mostly Cloudy"
"-68.56","63.76","IQALUIT A","2402596","2020-07-28 02:00","2020","07","28","02:00","12.9","","9.8","","82","","","","32","","14","","48.3","","100.82","","","","","","NA"
"-68.56","63.76","IQALUIT A","2402596","2020-07-28 03:00","2020","07","28","03:00","13.1","","9.9","","81","","","","34","","19","","48.3","","100.83","","","","","","NA"
"-68.56","63.76","IQALUIT A","2402596","2020-07-28 04:00","2020","07","28","04:00","13.3","","9.8","","79","","","","32","","21","","48.3","","100.84","","","","","","Mostly Cloudy"
"-68.56","63.76","IQALUIT A","2402596","2020-07-28 05:00","2020","07","28","05:00","14.4","","9.7","","73","","","","35","","16","","48.3","","100.87","","","","","","NA"
"-68.56","63.76","IQALUIT A","2402596","2020-07-28 06:00","2020","07","28","06:00","15.2","","10.2","","72","","","","34","","14","","48.3","","100.89","","","","","","NA"
"-68.56","63.76","IQALUIT A","2402596","2020-07-28 07:00","2020","07","28","07:00","16.0","","9.8","","66","","","","34","","15","","48.3","","100.89","","","","","","Mostly Cloudy"
"-68.56","63.76","IQALUIT A","2402596","2020-07-28 08:00","2020","07","28","08:00","16.7","","9.4","","62","","","","33","","19","","48.3","","100.91","","","","","","NA"
"-68.56","63.76","IQALUIT A","2402596","2020-07-28 09:00","2020","07","28","09:00","16.9","","9.1","","60","","","","34","","19","","48.3","","100.90","","","","","","NA"
"-68.56","63.76","IQALUIT A","2402596","2020-07-28 10:00","2020","07","28","10:00","18.1","","9.4","","56","","","","33","","16","","48.3","","100.89","","","","","","Mostly Cloudy"
"-68.56","63.76","IQALUIT A","2402596","2020-07-28 11:00","2020","07","28","11:00","18.4","","8.0","","50","","","","32","","15","","48.3","","100.88","","","","","","NA"
"-68.56","63.76","IQALUIT A","2402596","2020-07-28 12:00","2020","07","28","12:00","18.9","","8.6","","51","","","","31","","19","","48.3","","100.86","","","","","","NA"
"-68.56","63.76","IQALUIT A","2402596","2020-07-28 13:00","2020","07","28","13:00","20.4","","9.7","","50","","","","31","","19","","48.3","","100.87","","","","","","Mainly Clear"
"-68.56","63.76","IQALUIT A","2402596","2020-07-28 14:00","2020","07","28","14:00","20.8","","10.2","","50","","","","32","","20","","48.3","","100.87","","","","","","NA"
"-68.56","63.76","IQALUIT A","2402596","2020-07-28 15:00","2020","07","28","15:00","20.9","","9.5","","48","","","","33","","17","","48.3","","100.86","","","","","","NA"
"-68.56","63.76","IQALUIT A","2402596","2020-07-28 16:00","2020","07","28","16:00","21.4","","9.6","","46","","","","31","","21","","48.3","","100.86","","","","","","Mostly Cloudy"
"-68.56","63.76","IQALUIT A","2402596","2020-07-28 17:00","2020","07","28","17:00","21.1","","9.6","","47","","","","33","","24","","48.3","","100.87","","","","","","NA"
"-68.56","63.76","IQALUIT A","2402596","2020-07-28 18:00","2020","07","28","18:00","20.5","","9.6","","49","","","","33","","21","","48.3","","100.89","","","","","","NA"
"-68.56","63.76","IQALUIT A","2402596","2020-07-28 19:00","2020","07","28","19:00","19.3","","9.9","","54","","","","36","","24","","48.3","","100.93","","","","","","Mostly Cloudy"
"-68.56","63.76","IQALUIT A","2402596","2020-07-28 20:00","2020","07","28","20:00","17.9","","9.9","","59","","","","35","","16","","48.3","","100.96","","","","","","NA"
"-68.56","63.76","IQALUIT A","2402596","2020-07-28 21:00","2020","07","28","21:00","15.8","","10.0","","68","","","","35","","9","","48.3","","100.97","","","","","","NA"
"-68.56","63.76","IQALUIT A","2402596","2020-07-28 22:00","2020","07","28","22:00","15.1","","9.8","","71","","","","31","","10","","48.3","","100.98","","","","","","Mostly Cloudy"
"-68.56","63.76","IQALUIT A","2402596","2020-07-28 23:00","2020","07","28","23:00","15.3","","10.2","","71","","","","32","","7","","24.1","","100.99","","","","","","NA"
"-68.56","63.76","IQALUIT A","2402596","2020-07-29 00:00","2020","07","29","00:00","14.2","","10.3","","77","","","","31","","7","","24.1","","100.99","","","","","","NA"
"-68.56","63.76","IQALUIT A","2402596","2020-07-29 01:00","2020","07","29","01:00","14.1","","10.7","","80","","","","36","","3","","24.1","","100.99","","","","","","Mostly Cloudy"
"-68.56","63.76","IQALUIT A","2402596","2020-07-29 02:00","2020","07","29","02:00","11.0","","9.3","","89","","","","30","","3","","48.3","","101.03","","","","","","NA"
"-68.56","63.76","IQALUIT A","2402596","2020-07-29 03:00","2020","07","29","03:00","10.7","","8.9","","89","","","","36","","3","","48.3","","101.03","","","","","","NA"
"-68.56","63.76","IQALUIT A","2402596","2020-07-29 04:00","2020","07","29","04:00","13.0","","10.5","","85","","","","32","","7","","48.3","","101.04","","","","","","Mostly Cloudy"
"-68.56","63.76","IQALUIT A","2402596","2020-07-29 05:00","2020","07","29","05:00","14.5","","10.9","","79","","","","30","","7","","48.3","","101.04","","","","","","NA"
"-68.56","63.76","IQALUIT A","2402596","2020-07-29 06:00","2020","07","29","06:00","16.4","","11.3","","72","","","","32","","9","","48.3","","101.04","","","","","","NA"
"-68.56","63.76","IQALUIT A","2402596","2020-07-29 07:00","2020","07","29","07:00","17.9","","10.7","","62","","","","33","","13","","48.3","","101.03","","","","","","Mainly Clear"
"-68.56","63.76","IQALUIT A","2402596","2020-07-29 08:00","2020","07","29","08:00","18.6","","10.5","","59","","","","30","","16","","48.3","","101.01","","","","","","NA"
"-68.56","63.76","IQALUIT A","2402596","2020-07-29 09:00","2020","07","29","09:00","19.0","","9.3","","53","","","","33","","24","","48.3","","101.02","","","","","","NA"
"-68.56","63.76","IQALUIT A","2402596","2020-07-29 10:00","2020","07","29","10:00","19.7","","10.0","","53","","","","33","","20","","48.3","","101.01","","","","","","Mostly Cloudy"
"-68.56","63.76","IQALUIT A","2402596","2020-07-29 11:00","2020","07","29","11:00","20.3","","10.3","","52","","","","34","","24","","48.3","","100.99","","","","","","NA"
"-68.56","63.76","IQALUIT A","2402596","2020-07-29 12:00","2020","07","29","12:00","21.1","","9.3","","47","","","","32","","27","","48.3","","100.95","","","","","","NA"
"-68.56","63.76","IQALUIT A","2402596","2020-07-29 13:00","2020","07","29","13:00","21.6","","9.2","","45","","","","33","","27","","48.3","","100.91","","","","","","Mostly Cloudy"
"-68.56","63.76","IQALUIT A","2402596","2020-07-29 14:00","2020","07","29","14:00","22.8","","9.3","","42","","","","31","","23","","48.3","","100.87","","","","","","NA"
"-68.56","63.76","IQALUIT A","2402596","2020-07-29 15:00","2020","07","29","15:00","22.6","","8.8","","41","","","","31","","26","","48.3","","100.84","","","","","","NA"
"-68.56","63.76","IQALUIT A","2402596","2020-07-29 16:00","2020","07","29","16:00","22.1","","8.6","","42","","","","33","","35","","48.3","","100.83","","","","","","Mainly Clear"
"-68.56","63.76","IQALUIT A","2402596","2020-07-29 17:00","2020","07","29","17:00","21.7","","9.4","","45","","","","33","","27","","48.3","","100.82","","","","","","NA"
"-68.56","63.76","IQALUIT A","2402596","2020-07-29 18:00","2020","07","29","18:00","21.2","","9.7","","47","","","","32","","26","","48.3","","100.82","","","","","","NA"
"-68.56","63.76","IQALUIT A","2402596","2020-07-29 19:00","2020","07","29","19:00","19.9","","10.2","","53","","","","32","","21","","48.3","","100.84","","","","","","Mainly Clear"
"-68.56","63.76","IQALUIT A","2402596","2020-07-29 20:00","2020","07","29","20:00","17.3","","10.3","","63","","","","33","","15","","48.3","","100.85","","","","","","NA"
"-68.56","63.76","IQALUIT A","2402596","2020-07-29 21:00","2020","07","29","21:00","16.2","","10.3","","68","","","","33","","13","","48.3","","100.84","","","","","","NA"
"-68.56","63.76","IQALUIT A","2402596","2020-07-29 22:00","2020","07","29","22:00","15.2","","10.2","","72","","","","32","","12","","48.3","","100.86","","","","","","Mostly Cloudy"
"-68.56","63.76","IQALUIT A","2402596","2020-07-29 23:00","2020","07","29","23:00","14.0","","10.0","","76","","","","32","","13","","24.1","","100.86","","","","","","NA"
"-68.56","63.76","IQALUIT A","2402596","2020-07-30 00:00","2020","07","30","00:00","13.1","","9.8","","80","","","","33","","10","","24.1","","100.85","","","","","","NA"
"-68.56","63.76","IQALUIT A","2402596","2020-07-30 01:00","2020","07","30","01:00","13.6","","10.0","","78","","","","33","","6","","24.1","","100.85","","","","","","Mostly Cloudy"
"-68.56","63.76","IQALUIT A","2402596","2020-07-30 02:00","2020","07","30","02:00","11.0","","8.9","","86","","","","8","","3","","48.3","","100.85","","","","","","NA"
"-68.56","63.76","IQALUIT A","2402596","2020-07-30 03:00","2020","07","30","03:00","13.6","","10.8","","83","","","","34","","9","","48.3","","100.84","","","","","","NA"
"-68.56","63.76","IQALUIT A","2402596","2020-07-30 04:00","2020","07","30","04:00","11.2","","9.9","","92","","","","36","","2","","48.3","","100.83","","","","","","Mostly Cloudy"
"-68.56","63.76","IQALUIT A","2402596","2020-07-30 05:00","2020","07","30","05:00","11.2","","10.1","","93","","","","29","","4","","48.3","","100.84","","","","","","NA"
"-68.56","63.76","IQALUIT A","2402596","2020-07-30 06:00","2020","07","30","06:00","11.7","","9.9","","89","","","","14","","5","","48.3","","100.80","","","","","","NA"
"-68.56","63.76","IQALUIT A","2402596","2020-07-30 07:00","2020","07","30","07:00","12.6","","10.5","","87","","","","36","","2","","48.3","","100.78","","","","","","Mostly Cloudy"
"-68.56","63.76","IQALUIT A","2402596","2020-07-30 08:00","2020","07","30","08:00","13.0","","10.0","","82","","","","16","","7","","48.3","","100.76","","","","","","NA"
"-68.56","63.76","IQALUIT A","2402596","2020-07-30 09:00","2020","07","30","09:00","13.6","","9.9","","79","","","","15","","9","","48.3","","100.70","","","","","","NA"
"-68.56","63.76","IQALUIT A","2402596","2020-07-30 10:00","2020","07","30","10:00","14.1","","11.0","","81","","","","15","","8","","48.3","","100.64","","","","","","Mostly Cloudy"
"-68.56","63.76","IQALUIT A","2402596","2020-07-30 11:00","2020","07","30","11:00","14.0","","10.3","","79","","","","15","","5","","48.3","","100.59","","","","","","NA"
"-68.56","63.76","IQALUIT A","2402596","2020-07-30 12:00","2020","07","30","12:00","14.8","","9.9","","73","","","","14","","7","","48.3","","100.55","","","","","","NA"
"-68.56","63.76","IQALUIT A","2402596","2020-07-30 13:00","2020","07","30","13:00","12.9","","9.0","","77","","","","14","","9","","48.3","","100.51","","","","","","Mostly Cloudy"
"-68.56","63.76","IQALUIT A","2402596","2020-07-30 14:00","2020","07","30","14:00","13.8","","9.0","","72","","","","15","","11","","48.3","","100.50","","","","","","NA"
"-68.56","63.76","IQALUIT A","2402596","2020-07-30 15:00","2020","07","30","15:00","13.0","","8.2","","72","","","","15","","12","","48.3","","100.49","","","","","","NA"
"-68.56","63.76","IQALUIT A","2402596","2020-07-30 16:00","2020","07","30","16:00","12.8","","8.0","","72","","","","16","","9","","48.3","","100.42","","","","","","Cloudy"
"-68.56","63.76","IQALUIT A","2402596","2020-07-30 17:00","2020","07","30","17:00","12.4","","7.6","","73","","","","15","","5","","48.3","","100.41","","","","","","NA"
"-68.56","63.76","IQALUIT A","2402596","2020-07-30 18:00","2020","07","30","18:00","12.7","","8.6","","76","","","","36","","1","","48.3","","100.39","","","","","","Rain"
"-68.56","63.76","IQALUIT A","2402596","2020-07-30 19:00","2020","07","30","19:00","10.5","","7.9","","84","","","","16","","8","","48.3","","100.33","","","","","","Cloudy"
"-68.56","63.76","IQALUIT A","2402596","2020-07-30 20:00","2020","07","30","20:00","11.2","","7.9","","80","","","","15","","9","","48.3","","100.28","","","","","","NA"
"-68.56","63.76","IQALUIT A","2402596","2020-07-30 21:00","2020","07","30","21:00","11.0","","8.2","","83","","","","13","","6","","48.3","","100.25","","","","","","Rain"
"-68.56","63.76","IQALUIT A","2402596","2020-07-30 22:00","2020","07","30","22:00","10.6","","8.0","","84","","","","15","","8","","24.1","","100.23","","","","","","Rain"
"-68.56","63.76","IQALUIT A","2402596","2020-07-30 23:00","2020","07","30","23:00","10.9","","9.3","","90","","","","15","","6","","24.1","","100.18","","","","","","Rain"
"-68.56","63.76","IQALUIT A","2402596","2020-07-31 00:00","2020","07","31","00:00","12.0","","9.8","","86","","","","15","","8","","24.1","","100.15","","","","","","Rain"
"-68.56","63.76","IQALUIT A","2402596","2020-07-31 01:00","2020","07","31","01:00","13.5","","9.8","","78","","","","20","","7","","24.1","","100.09","","","","","","Cloudy"
"-68.56","63.76","IQALUIT A","2402596","2020-07-31 02:00","2020","07","31","02:00","11.8","","9.3","","85","","","","36","","3","","48.3","","100.06","","","","","","NA"
"-68.56","63.76","IQALUIT A","2402596","2020-07-31 03:00","2020","07","31","03:00","11.6","","9.3","","85","","","","21","","3","","48.3","","100.07","","","","","","NA"
"-68.56","63.76","IQALUIT A","2402596","2020-07-31 04:00","2020","07","31","04:00","13.4","","10.4","","82","","","","22","","6","","48.3","","100.04","","","","","","Mostly Cloudy"
"-68.56","63.76","IQALUIT A","2402596","2020-07-31 05:00","2020","07","31","05:00","12.1","","10.1","","87","","","","22","","3","","48.3","","100.07","","","","","","NA"
"-68.56","63.76","IQALUIT A","2402596","2020-07-31 06:00","2020","07","31","06:00","11.4","","9.4","","87","","","","36","","2","","48.3","","100.08","","","","","","NA"
"-68.56","63.76","IQALUIT A","2402596","2020-07-31 07:00","2020","07","31","07:00","12.5","","10.1","","85","","","","36","","1","","48.3","","100.09","","","","","","Mostly Cloudy"
"-68.56","63.76","IQALUIT A","2402596","2020-07-31 08:00","2020","07","31","08:00","13.5","","11.2","","86","","","","30","","5","","48.3","","100.11","","","","","","NA"
"-68.56","63.76","IQALUIT A","2402596","2020-07-31 09:00","2020","07","31","09:00","14.2","","12.3","","88","","","","28","","5","","48.3","","100.12","","","","","","NA"
"-68.56","63.76","IQALUIT A","2402596","2020-07-31 10:00","2020","07","31","10:00","14.0","","11.8","","87","","","","24","","5","","48.3","","100.12","","","","","","Cloudy"
"-68.56","63.76","IQALUIT A","2402596","2020-07-31 11:00","2020","07","31","11:00","13.5","","12.0","","90","","","","18","","4","","48.3","","100.12","","","","","","NA"
"-68.56","63.76","IQALUIT A","2402596","2020-07-31 12:00","2020","07","31","12:00","11.8","","10.4","","91","","","","15","","8","","48.3","","100.12","","","","","","NA"
"-68.56","63.76","IQALUIT A","2402596","2020-07-31 13:00","2020","07","31","13:00","14.0","","12.0","","87","","","","15","","4","","48.3","","100.09","","","","","","Mostly Cloudy"
"-68.56","63.76","IQALUIT A","2402596","2020-07-31 14:00","2020","07","31","14:00","13.0","","11.5","","91","","","","16","","7","","48.3","","100.08","","","","","","NA"
"-68.56","63.76","IQALUIT A","2402596","2020-07-31 15:00","2020","07","31","15:00","11.5","","10.6","","94","","","","11","","4","","48.3","","100.06","","","","","","NA"
"-68.56","63.76","IQALUIT A","2402596","2020-07-31 16:00","2020","07","31","16:00","11.3","","10.5","","95","","","","12","","4","","48.3","","100.06","","","","","","Cloudy"
"-68.56","63.76","IQALUIT A","2402596","2020-07-31 17:00","2020","07","31","17:00","12.5","","11.6","","94","","","","13","","3","","32.2","","100.02","","","","","","Rain"
"-68.56","63.76","IQALUIT A","2402596","2020-07-31 18:00","2020","07","31","18:00","11.6","","11.1","","96","","","","16","","8","","19.3","","99.99","","","","","","Moderate Rain"
"-68.56","63.76","IQALUIT A","2402596","2020-07-31 19:00","2020","07","31","19:00","12.0","","11.6","","97","","","","14","","4","","16.1","","100.01","","","","","","Rain"
"-68.56","63.76","IQALUIT A","2402596","2020-07-31 20:00","2020","07","31","20:00","12.1","","11.8","","98","","","","11","","5","","19.3","","99.97","","","","","","Rain"
"-68.56","63.76","IQALUIT A","2402596","2020-07-31 21:00","2020","07","31","21:00","12.3","","12.0","","98","","","","22","","4","","24.1","","99.96","","","","","","Rain"
"-68.56","63.76","IQALUIT A","2402596","2020-07-31 22:00","2020","07","31","22:00","12.1","","11.8","","98","","","","36","","2","","24.1","","99.88","","","","","","Rain"
"-68.56","63.76","IQALUIT A","2402596","2020-07-31 23:00","2020","07","31","23:00","11.9","","11.7","","98","","","","28","","4","","16.1","","99.86","","","","","","Rain"
