"Longitude (x)","Latitude (y)","Station Name","Climate ID","Date/Time (LST)","Year","Month","Day","Time (LST)","Temp (°C)","Temp Flag","Dew Point Temp (°C)","Dew Point Temp Flag","Rel Hum (%)","Rel Hum Flag","Precip. Amount (mm)","Precip. Amount Flag","Wind Dir (10s deg)","Wind Dir Flag","Wind Spd (km/h)","Wind Spd Flag","Visibility (km)","Visibility Flag","Stn Press (kPa)","Stn Press Flag","Hmdx","Hmdx Flag","Wind Chill","Wind Chill Flag","Weather"
"-133.03","69.43","TUKTOYAKTUK A","2203913","2023-01-01 00:00","2023","01","01","00:00"
"-133.03","69.43","TUKTOYAKTUK A","2203913","2023-01-01 01:00","2023","01","01","01:00"
"-133.03","69.43","TUKTOYAKTUK A","2203913","2023-01-01 02:00","2023","01","01","02:00","-24.9","","-27.5","","79","","","","11","","16","","24.1","","100.70","","","","-35","","Clear"
"-133.03","69.43","TUKTOYAKTUK A","2203913","2023-01-01 03:00","2023","01","01","03:00","-25.2","","-27.9","","79","","","","12","","12","","24.1","","100.73","","","","-34","","NA"
"-133.03","69.43","TUKTOYAKTUK A","2203913","2023-01-01 04:00","2023","01","01","04:00"
"-133.03","69.43","TUKTOYAKTUK A","2203913","2023-01-01 05:00","2023","01","01","05:00"
"-133.03","69.43","TUKTOYAKTUK A","2203913","2023-01-01 06:00","2023","01","01","06:00"
"-133.03","69.43","TUKTOYAKTUK A","2203913","2023-01-01 07:00","2023","01","01","07:00","-22.9","","-25.3","","81","","","","13","","21","","16.1","","100.74","","","","-34","","NA"
"-133.03","69.43","TUKTOYAKTUK A","2203913","2023-01-01 08:00","2023","01","01","08:00","-19.6","","-21.8","","83","","","","12","","20","","16.1","","100.73","","","","-30","","Cloudy"
"-133.03","69.43","TUKTOYAKTUK A","2203913","2023-01-01 09:00","2023","01","01","09:00","-19.3","","-21.6","","83","","","","10","","20","","4.8","","100.73","","","","-30","","Snow"
"-133.03","69.43","TUKTOYAKTUK A","2203913","2023-01-01 10:00","2023","01","01","10:00","-17.8","","-19.9","","84","","","","10","","26","","4.8","","100.70","","","","-29","","Snow"
"-133.03","69.43","TUKTOYAKTUK A","2203913","2023-01-01 11:00","2023","01","01","11:00","-17.8","","-19.8","","84","","","","11","","24","","9.7","","100.72","","","","-29","","Snow"
"-133.03","69.43","TUKTOYAKTUK A","2203913","2023-01-01 12:00","2023","01","01","12:00","-17.5","","-19.6","","84","","","","11","","23","","4.8","","100.73","","","","-28","","Snow"
"-133.03","69.43","TUKTOYAKTUK A","2203913","2023-01-01 13:00","2023","01","01","13:00","-20.1","","-22.4","","82","","","","12","","17","","9.7","","100.71","","","","-30","","Snow"
"-133.03","69.43","TUKTOYAKTUK A","2203913","2023-01-01 14:00","2023","01","01","14:00","-18.9","","-21.1","","83","","","","12","","27","","9.7","","100.67","","","","-31","","Snow"
"-133.03","69.43","TUKTOYAKTUK A","2203913","2023-01-01 15:00","2023","01","01","15:00","-19.4","","-21.7","","83","","","","11","","22","","11.3","","100.64","","","","-30","","Snow"
"-133.03","69.43","TUKTOYAKTUK A","2203913","2023-01-01 16:00","2023","01","01","16:00","-19.2","","-21.4","","83","","","","11","","32","","16.1","","100.60","","","","-32","","Snow"
"-133.03","69.43","TUKTOYAKTUK A","2203913","2023-01-01 17:00","2023","01","01","17:00","-19.9","","-22.2","","82","","","","10","","27","","9.7","","100.57","","","","-32","","Snow,Blowing Snow"
"-133.03","69.43","TUKTOYAKTUK A","2203913","2023-01-01 18:00","2023","01","01","18:00","-22.9","","-25.4","","80","","","","10","","32","","16.1","","100.49","","","","-37","","Snow,Blowing Snow"
"-133.03","69.43","TUKTOYAKTUK A","2203913","2023-01-01 19:00","2023","01","01","19:00","-22.9","","-25.4","","80","","","","10","","26","","24.1","","100.50","","","","-36","","Blowing Snow"
"-133.03","69.43","TUKTOYAKTUK A","2203913","2023-01-01 20:00","2023","01","01","20:00","-23.2","","-25.8","","80","","","","10","","24","","24.1","","100.48","","","","-36","","Blowing Snow"
"-133.03","69.43","TUKTOYAKTUK A","2203913","2023-01-01 21:00","2023","01","01","21:00","-23.2","","-25.8","","80","","","","11","","24","","24.1","","100.47","","","","-36","","Blowing Snow"
"-133.03","69.43","TUKTOYAKTUK A","2203913","2023-01-01 22:00","2023","01","01","22:00","-23.2","","-25.8","","80","","","","10","","39","","24.1","","100.40","","","","-38","","Blowing Snow"
"-133.03","69.43","TUKTOYAKTUK A","2203913","2023-01-01 23:00","2023","01","01","23:00","-22.6","","-25.1","","80","","","","10","","33","","24.1","","100.36","","","","-36","","Blowing Snow"
"-133.03","69.43","TUKTOYAKTUK A","2203913","2023-01-02 00:00","2023","01","02","00:00"
"-133.03","69.43","TUKTOYAKTUK A","2203913","2023-01-02 01:00","2023","01","02","01:00"
"-133.03","69.43","TUKTOYAKTUK A","2203913","2023-01-02 02:00","2023","01","02","02:00"
"-133.03","69.43","TUKTOYAKTUK A","2203913","2023-01-02 03:00","2023","01","02","03:00"
"-133.03","69.43","TUKTOYAKTUK A","2203913","2023-01-02 04:00","2023","01","02","04:00"
"-133.03","69.43","TUKTOYAKTUK A","2203913","2023-01-02 05:00","2023","01","02","05:00"
"-133.03","69.43","TUKTOYAKTUK A","2203913","2023-01-02 06:00","2023","01","02","06:00"
"-133.03","69.43","TUKTOYAKTUK A","2203913","2023-01-02 07:00","2023","01","02","07:00","-19.5","","-22.0","","81","","","","11","","42","","9.7","","100.11","","","","-34","","Snow,Blowing Snow"
"-133.03","69.43","TUKTOYAKTUK A","2203913","2023-01-02 08:00","2023","01","02","08:00","-18.9","","-21.5","","81","","","","11","","37","","12.9","","100.10","","","","-32","","Snow,Blowing Snow"
"-133.03","69.43","TUKTOYAKTUK A","2203913","2023-01-02 09:00","2023","01","02","09:00","-18.3","","-20.9","","81","","","","10","","32","","16.1","","100.10","","","","-31","","Snow,Blowing Snow"
"-133.03","69.43","TUKTOYAKTUK A","2203913","2023-01-02 10:00","2023","01","02","10:00","-17.4","","-19.9","","81","","","","11","","33","","16.1","","100.07","","","","-30","","Blowing Snow"
"-133.03","69.43","TUKTOYAKTUK A","2203913","2023-01-02 11:00","2023","01","02","11:00","-16.4","","-19.1","","80","","","","11","","41","","12.9","","100.05","","","","-29","","Blowing Snow"
"-133.03","69.43","TUKTOYAKTUK A","2203913","2023-01-02 12:00","2023","01","02","12:00","-16.3","","-19.0","","80","","","","11","","41","","11.3","","100.01","","","","-29","","Blowing Snow"
"-133.03","69.43","TUKTOYAKTUK A","2203913","2023-01-02 13:00","2023","01","02","13:00","-16.2","","-18.9","","80","","","","11","","39","","6.4","","100.05","","","","-29","","Snow,Blowing Snow"
"-133.03","69.43","TUKTOYAKTUK A","2203913","2023-01-02 14:00","2023","01","02","14:00","-15.8","","-18.3","","81","","","","11","","37","","4.8","","100.03","","","","-28","","Snow,Blowing Snow"
"-133.03","69.43","TUKTOYAKTUK A","2203913","2023-01-02 15:00","2023","01","02","15:00","-14.8","","-17.5","","80","","","","12","","40","","4.8","","100.04","","","","-27","","Snow,Blowing Snow"
"-133.03","69.43","TUKTOYAKTUK A","2203913","2023-01-02 16:00","2023","01","02","16:00","-14.8","","-16.9","","84","","","","12","","36","","3.2","","100.03","","","","-27","","Snow,Blowing Snow"
"-133.03","69.43","TUKTOYAKTUK A","2203913","2023-01-02 17:00","2023","01","02","17:00","-14.6","","-16.8","","84","","","","12","","32","","3.2","","100.03","","","","-26","","Snow,Blowing Snow"
"-133.03","69.43","TUKTOYAKTUK A","2203913","2023-01-02 18:00","2023","01","02","18:00","-14.3","","-16.6","","83","","","","12","","33","","6.4","","99.99","","","","-26","","Snow,Blowing Snow"
"-133.03","69.43","TUKTOYAKTUK A","2203913","2023-01-02 19:00","2023","01","02","19:00","-14.2","","-16.7","","82","","","","13","","36","","9.7","","99.99","","","","-26","","Snow,Blowing Snow"
"-133.03","69.43","TUKTOYAKTUK A","2203913","2023-01-02 20:00","2023","01","02","20:00","-14.3","","-16.8","","81","","","","13","","33","","16.1","","100.00","","","","-26","","Snow,Blowing Snow"
"-133.03","69.43","TUKTOYAKTUK A","2203913","2023-01-02 21:00","2023","01","02","21:00","-14.4","","-17.1","","80","","","","12","","33","","16.1","","99.99","","","","-26","","Snow,Blowing Snow"
"-133.03","69.43","TUKTOYAKTUK A","2203913","2023-01-02 22:00","2023","01","02","22:00","-14.2","","-17.2","","79","","","","13","","29","","16.1","","100.01","","","","-25","","Snow,Blowing Snow"
"-133.03","69.43","TUKTOYAKTUK A","2203913","2023-01-02 23:00","2023","01","02","23:00","-14.3","","-17.4","","77","","","","13","","31","","16.1","","100.01","","","","-25","","Snow,Blowing Snow"
"-133.03","69.43","TUKTOYAKTUK A","2203913","2023-01-03 00:00","2023","01","03","00:00"
"-133.03","69.43","TUKTOYAKTUK A","2203913","2023-01-03 01:00","2023","01","03","01:00"
"-133.03","69.43","TUKTOYAKTUK A","2203913","2023-01-03 02:00","2023","01","03","02:00"
"-133.03","69.43","TUKTOYAKTUK A","2203913","2023-01-03 03:00","2023","01","03","03:00"
"-133.03","69.43","TUKTOYAKTUK A","2203913","2023-01-03 04:00","2023","01","03","04:00"
"-133.03","69.43","TUKTOYAKTUK A","2203913","2023-01-03 05:00","2023","01","03","05:00"
"-133.03","69.43","TUKTOYAKTUK A","2203913","2023-01-03 06:00","2023","01","03","06:00"
"-133.03","69.43","TUKTOYAKTUK A","2203913","2023-01-03 07:00","2023","01","03","07:00","-15.3","","-18.5","","77","","","","13","","22","","24.1","","100.09","","","","-25","","Snow,Blowing Snow"
"-133.03","69.43","TUKTOYAKTUK A","2203913","2023-01-03 08:00","2023","01","03","08:00","-15.2","","-18.5","","77","","","","13","","25","","24.1","","100.11","","","","-25","","Snow,Blowing Snow"
"-133.03","69.43","TUKTOYAKTUK A","2203913","2023-01-03 09:00","2023","01","03","09:00","-15.1","","-18.4","","76","","","","14","","25","","24.1","","100.11","","","","-25","","Snow"
"-133.03","69.43","TUKTOYAKTUK A","2203913","2023-01-03 10:00","2023","01","03","10:00","-15.2","","-18.4","","77","","","","13","","22","","24.1","","100.13","","","","-25","","NA"
"-133.03","69.43","TUKTOYAKTUK A","2203913","2023-01-03 11:00","2023","01","03","11:00","-15.4","","-18.7","","76","","","","13","","25","","24.1","","100.15","","","","-26","","Snow"
"-133.03","69.43","TUKTOYAKTUK A","2203913","2023-01-03 12:00","2023","01","03","12:00","-15.5","","-18.8","","76","","","","13","","21","","24.1","","100.19","","","","-25","","NA"
"-133.03","69.43","TUKTOYAKTUK A","2203913","2023-01-03 13:00","2023","01","03","13:00","-15.4","","-18.6","","77","","","","12","","16","","24.1","","100.19","","","","-24","","NA"
"-133.03","69.43","TUKTOYAKTUK A","2203913","2023-01-03 14:00","2023","01","03","14:00","-15.5","","-18.6","","77","","","","12","","19","","24.1","","100.23","","","","-25","","Mostly Cloudy"
"-133.03","69.43","TUKTOYAKTUK A","2203913","2023-01-03 15:00","2023","01","03","15:00","-15.4","","-18.6","","77","","","","12","","21","","24.1","","100.24","","","","-25","","NA"
"-133.03","69.43","TUKTOYAKTUK A","2203913","2023-01-03 16:00","2023","01","03","16:00","-15.4","","-18.4","","78","","","","12","","19","","24.1","","100.28","","","","-24","","NA"
"-133.03","69.43","TUKTOYAKTUK A","2203913","2023-01-03 17:00","2023","01","03","17:00","-15.2","","-18.3","","78","","","","12","","18","","24.1","","100.30","","","","-24","","Cloudy"
"-133.03","69.43","TUKTOYAKTUK A","2203913","2023-01-03 18:00","2023","01","03","18:00","-15.1","","-17.9","","80","","","","13","","15","","24.1","","100.34","","","","-23","","NA"
"-133.03","69.43","TUKTOYAKTUK A","2203913","2023-01-03 19:00","2023","01","03","19:00","-15.1","","-18.1","","78","","","","13","","16","","24.1","","100.36","","","","-23","","NA"
"-133.03","69.43","TUKTOYAKTUK A","2203913","2023-01-03 20:00","2023","01","03","20:00","-15.1","","-18.2","","77","","","","12","","12","","24.1","","100.38","","","","-22","","Snow"
"-133.03","69.43","TUKTOYAKTUK A","2203913","2023-01-03 21:00","2023","01","03","21:00","-15.2","","-17.4","","84","","","","11","","10","","24.1","","100.43","","","","-21","","Snow"
"-133.03","69.43","TUKTOYAKTUK A","2203913","2023-01-03 22:00","2023","01","03","22:00","-15.1","","-17.7","","81","","","","12","","9","","24.1","","100.46","","","","-21","","Snow"
"-133.03","69.43","TUKTOYAKTUK A","2203913","2023-01-03 23:00","2023","01","03","23:00","-15.1","","-17.5","","82","","","","11","","9","","24.1","","100.49","","","","-21","","Snow"
"-133.03","69.43","TUKTOYAKTUK A","2203913","2023-01-04 00:00","2023","01","04","00:00"
"-133.03","69.43","TUKTOYAKTUK A","2203913","2023-01-04 01:00","2023","01","04","01:00"
"-133.03","69.43","TUKTOYAKTUK A","2203913","2023-01-04 02:00","2023","01","04","02:00"
"-133.03","69.43","TUKTOYAKTUK A","2203913","2023-01-04 03:00","2023","01","04","03:00"
"-133.03","69.43","TUKTOYAKTUK A","2203913","2023-01-04 04:00","2023","01","04","04:00"
"-133.03","69.43","TUKTOYAKTUK A","2203913","2023-01-04 05:00","2023","01","04","05:00"
"-133.03","69.43","TUKTOYAKTUK A","2203913","2023-01-04 06:00","2023","01","04","06:00"
"-133.03","69.43","TUKTOYAKTUK A","2203913","2023-01-04 07:00","2023","01","04","07:00","-14.6","","-16.1","","88","","","","12","","7","","16.1","","100.79","","","","-19","","Snow"
"-133.03","69.43","TUKTOYAKTUK A","2203913","2023-01-04 08:00","2023","01","04","08:00","-14.4","","-16.0","","88","","","","10","","7","","6.4","","100.81","","","","-19","","Snow"
"-133.03","69.43","TUKTOYAKTUK A","2203913","2023-01-04 09:00","2023","01","04","09:00","-14.5","","-16.3","","87","","","","11","","9","","16.1","","100.85","","","","-20","","Snow"
"-133.03","69.43","TUKTOYAKTUK A","2203913","2023-01-04 10:00","2023","01","04","10:00","-14.4","","-16.3","","85","","","","11","","10","","16.1","","100.88","","","","-21","","Snow"
"-133.03","69.43","TUKTOYAKTUK A","2203913","2023-01-04 11:00","2023","01","04","11:00","-14.2","","-16.4","","84","","","","10","","12","","16.1","","100.89","","","","-21","","Snow"
"-133.03","69.43","TUKTOYAKTUK A","2203913","2023-01-04 12:00","2023","01","04","12:00","-14.2","","-16.4","","84","","","","11","","10","","4.8","","100.94","","","","-20","","Snow"
"-133.03","69.43","TUKTOYAKTUK A","2203913","2023-01-04 13:00","2023","01","04","13:00","-14.2","","-16.2","","85","","","","10","","9","","2.4","","100.96","","","","-20","","Snow"
"-133.03","69.43","TUKTOYAKTUK A","2203913","2023-01-04 14:00","2023","01","04","14:00","-14.6","","-16.6","","85","","","","9","","9","","2.4","","100.99","","","","-20","","Snow"
"-133.03","69.43","TUKTOYAKTUK A","2203913","2023-01-04 15:00","2023","01","04","15:00","-14.5","","-16.5","","85","","","","9","","10","","6.4","","101.02","","","","-21","","Snow"
"-133.03","69.43","TUKTOYAKTUK A","2203913","2023-01-04 16:00","2023","01","04","16:00","-15.0","","-17.1","","84","","","","9","","14","","6.4","","101.01","","","","-23","","Snow"
"-133.03","69.43","TUKTOYAKTUK A","2203913","2023-01-04 17:00","2023","01","04","17:00","-15.5","","-17.6","","84","","","","9","","13","","9.7","","101.01","","","","-23","","Snow"
"-133.03","69.43","TUKTOYAKTUK A","2203913","2023-01-04 18:00","2023","01","04","18:00","-15.5","","-17.5","","84","","","","9","","9","","9.7","","101.03","","","","-21","","Snow"
"-133.03","69.43","TUKTOYAKTUK A","2203913","2023-01-04 19:00","2023","01","04","19:00","-15.2","","-17.3","","84","","","","9","","11","","9.7","","101.04","","","","-22","","Snow"
"-133.03","69.43","TUKTOYAKTUK A","2203913","2023-01-04 20:00","2023","01","04","20:00","-15.3","","-17.4","","84","","","","9","","12","","16.1","","101.04","","","","-22","","Snow"
"-133.03","69.43","TUKTOYAKTUK A","2203913","2023-01-04 21:00","2023","01","04","21:00","-15.4","","-17.5","","84","","","","8","","13","","9.7","","101.04","","","","-23","","Snow"
"-133.03","69.43","TUKTOYAKTUK A","2203913","2023-01-04 22:00","2023","01","04","22:00","-15.9","","-18.0","","84","","","","7","","15","","9.7","","101.02","","","","-24","","Snow"
"-133.03","69.43","TUKTOYAKTUK A","2203913","2023-01-04 23:00","2023","01","04","23:00","-16.4","","-18.6","","84","","","","8","","12","","16.1","","101.03","","","","-24","","Snow"
"-133.03","69.43","TUKTOYAKTUK A","2203913","2023-01-05 00:00","2023","01","05","00:00"
"-133.03","69.43","TUKTOYAKTUK A","2203913","2023-01-05 01:00","2023","01","05","01:00"
"-133.03","69.43","TUKTOYAKTUK A","2203913","2023-01-05 02:00","2023","01","05","02:00"
"-133.03","69.43","TUKTOYAKTUK A","2203913","2023-01-05 03:00","2023","01","05","03:00"
"-133.03","69.43","TUKTOYAKTUK A","2203913","2023-01-05 04:00","2023","01","05","04:00"
"-133.03","69.43","TUKTOYAKTUK A","2203913","2023-01-05 05:00","2023","01","05","05:00"
"-133.03","69.43","TUKTOYAKTUK A","2203913","2023-01-05 06:00","2023","01","05","06:00"
"-133.03","69.43","TUKTOYAKTUK A","2203913","2023-01-05 07:00","2023","01","05","07:00","-22.9","","-25.5","","80","","","","8","","7","","24.1","","101.13","","","","-29","","NA"
"-133.03","69.43","TUKTOYAKTUK A","2203913","2023-01-05 08:00","2023","01","05","08:00","-23.9","","-26.4","","81","","","","8","","10","","24.1","","101.12","","","","-32","","Mainly Clear"
"-133.03","69.43","TUKTOYAKTUK A","2203913","2023-01-05 09:00","2023","01","05","09:00","-24.2","","-26.5","","82","","","","5","","10","","24.1","","101.12","","","","-32","","NA"
"-133.03","69.43","TUKTOYAKTUK A","2203913","2023-01-05 10:00","2023","01","05","10:00","-25.5","","-27.9","","80","","","","7","","13","","24.1","","101.13","","","","-35","","NA"
"-133.03","69.43","TUKTOYAKTUK A","2203913","2023-01-05 11:00","2023","01","05","11:00","-24.4","","-26.7","","82","","","","10","","11","","24.1","","101.16","","","","-33","","Clear"
"-133.03","69.43","TUKTOYAKTUK A","2203913","2023-01-05 12:00","2023","01","05","12:00","-26.6","","-29.2","","79","","","","7","","12","","24.1","","101.17","","","","-36","","NA"
"-133.03","69.43","TUKTOYAKTUK A","2203913","2023-01-05 13:00","2023","01","05","13:00","-27.2","","-29.9","","79","","","","9","","10","","24.1","","101.22","","","","-36","","NA"
"-133.03","69.43","TUKTOYAKTUK A","2203913","2023-01-05 14:00","2023","01","05","14:00","-27.5","","-30.2","","78","","","","6","","10","","24.1","","101.22","","","","-36","","Clear"
"-133.03","69.43","TUKTOYAKTUK A","2203913","2023-01-05 15:00","2023","01","05","15:00","-27.9","","-30.7","","78","","","","8","","4","","24.1","","101.26","","","","-32","","NA"
"-133.03","69.43","TUKTOYAKTUK A","2203913","2023-01-05 16:00","2023","01","05","16:00","-27.1","","-29.8","","79","","","","8","","5","","24.1","","101.28","","","","-32","","NA"
"-133.03","69.43","TUKTOYAKTUK A","2203913","2023-01-05 17:00","2023","01","05","17:00","-27.7","","-30.3","","79","","","","8","","7","","24.1","","101.25","","","","-35","","Clear"
"-133.03","69.43","TUKTOYAKTUK A","2203913","2023-01-05 18:00","2023","01","05","18:00","-27.6","","-30.2","","80","","","","8","","9","","24.1","","101.28","","","","-36","","NA"
"-133.03","69.43","TUKTOYAKTUK A","2203913","2023-01-05 19:00","2023","01","05","19:00","-27.1","","-29.6","","80","","","","6","","11","","24.1","","101.27","","","","-36","","NA"
"-133.03","69.43","TUKTOYAKTUK A","2203913","2023-01-05 20:00","2023","01","05","20:00","-26.5","","-29.2","","79","","","","10","","19","","24.1","","101.28","","","","-38","","Mainly Clear"
"-133.03","69.43","TUKTOYAKTUK A","2203913","2023-01-05 21:00","2023","01","05","21:00","-25.2","","-27.7","","80","","","","10","","16","","6.4","","101.29","","","","-36","","Fog"
"-133.03","69.43","TUKTOYAKTUK A","2203913","2023-01-05 22:00","2023","01","05","22:00","-24.7","","-27.1","","80","","","","9","","17","","8.1","","101.31","","","","-36","","Fog"
"-133.03","69.43","TUKTOYAKTUK A","2203913","2023-01-05 23:00","2023","01","05","23:00","-24.6","","-27.2","","79","","","","11","","15","","9.7","","101.30","","","","-35","","Fog"
"-133.03","69.43","TUKTOYAKTUK A","2203913","2023-01-06 00:00","2023","01","06","00:00"
"-133.03","69.43","TUKTOYAKTUK A","2203913","2023-01-06 01:00","2023","01","06","01:00"
"-133.03","69.43","TUKTOYAKTUK A","2203913","2023-01-06 02:00","2023","01","06","02:00"
"-133.03","69.43","TUKTOYAKTUK A","2203913","2023-01-06 03:00","2023","01","06","03:00"
"-133.03","69.43","TUKTOYAKTUK A","2203913","2023-01-06 04:00","2023","01","06","04:00"
"-133.03","69.43","TUKTOYAKTUK A","2203913","2023-01-06 05:00","2023","01","06","05:00"
"-133.03","69.43","TUKTOYAKTUK A","2203913","2023-01-06 06:00","2023","01","06","06:00"
"-133.03","69.43","TUKTOYAKTUK A","2203913","2023-01-06 07:00","2023","01","06","07:00","-21.8","","-24.2","","81","","","","7","","22","","6.4","","101.32","","","","-33","","Snow"
"-133.03","69.43","TUKTOYAKTUK A","2203913","2023-01-06 08:00","2023","01","06","08:00","-22.4","","-24.9","","81","","","","7","","23","","4.8","","101.29","","","","-34","","Snow,Fog"
"-133.03","69.43","TUKTOYAKTUK A","2203913","2023-01-06 09:00","2023","01","06","09:00","-23.8","","-26.4","","80","","","","7","","22","","2.4","","101.27","","","","-36","","Fog"
"-133.03","69.43","TUKTOYAKTUK A","2203913","2023-01-06 10:00","2023","01","06","10:00","-23.3","","-25.8","","80","","","","9","","20","","4.8","","101.30","","","","-35","","Fog"
"-133.03","69.43","TUKTOYAKTUK A","2203913","2023-01-06 11:00","2023","01","06","11:00","-23.2","","-25.7","","80","","","","8","","14","","4.8","","101.31","","","","-33","","Snow Grains,Fog"
"-133.03","69.43","TUKTOYAKTUK A","2203913","2023-01-06 12:00","2023","01","06","12:00","-23.0","","-25.5","","80","","","","7","","18","","1.2","","101.28","","","","-34","","Snow Grains,Fog"
"-133.03","69.43","TUKTOYAKTUK A","2203913","2023-01-06 13:00","2023","01","06","13:00","-22.6","","-25.1","","81","","","","7","","16","","2.4","","101.28","","","","-33","","Snow Grains,Fog"
"-133.03","69.43","TUKTOYAKTUK A","2203913","2023-01-06 14:00","2023","01","06","14:00","-22.4","","-24.9","","81","","","","8","","16","","2.4","","101.29","","","","-32","","Snow Grains,Fog"
"-133.03","69.43","TUKTOYAKTUK A","2203913","2023-01-06 15:00","2023","01","06","15:00","-21.6","","-24.0","","81","","","","7","","17","","6.4","","101.29","","","","-32","","Snow Grains,Fog"
"-133.03","69.43","TUKTOYAKTUK A","2203913","2023-01-06 16:00","2023","01","06","16:00","-21.4","","-23.8","","81","","","","6","","14","","6.4","","101.29","","","","-30","","Snow Grains,Fog"
"-133.03","69.43","TUKTOYAKTUK A","2203913","2023-01-06 17:00","2023","01","06","17:00","-21.4","","-23.8","","81","","","","8","","14","","4.8","","101.31","","","","-30","","Snow Grains,Fog"
"-133.03","69.43","TUKTOYAKTUK A","2203913","2023-01-06 18:00","2023","01","06","18:00","-21.0","","-23.4","","82","","","","10","","16","","6.4","","101.31","","","","-31","","Snow Grains,Fog"
"-133.03","69.43","TUKTOYAKTUK A","2203913","2023-01-06 19:00","2023","01","06","19:00","-22.5","","-25.0","","80","","","","6","","13","","9.7","","101.30","","","","-31","","Snow Grains,Fog"
"-133.03","69.43","TUKTOYAKTUK A","2203913","2023-01-06 20:00","2023","01","06","20:00","-24.0","","-26.6","","80","","","","6","","16","","9.7","","101.27","","","","-34","","Snow Grains"
"-133.03","69.43","TUKTOYAKTUK A","2203913","2023-01-06 21:00","2023","01","06","21:00","-23.7","","-26.2","","80","","","","7","","16","","9.7","","101.29","","","","-34","","Snow Grains"
"-133.03","69.43","TUKTOYAKTUK A","2203913","2023-01-06 22:00","2023","01","06","22:00","-23.2","","-25.7","","80","","","","7","","19","","9.7","","101.26","","","","-34","","Snow Grains"
"-133.03","69.43","TUKTOYAKTUK A","2203913","2023-01-06 23:00","2023","01","06","23:00","-23.2","","-25.8","","80","","","","8","","17","","9.7","","101.24","","","","-34","","Snow Grains"
"-133.03","69.43","TUKTOYAKTUK A","2203913","2023-01-07 00:00","2023","01","07","00:00"
"-133.03","69.43","TUKTOYAKTUK A","2203913","2023-01-07 01:00","2023","01","07","01:00"
"-133.03","69.43","TUKTOYAKTUK A","2203913","2023-01-07 02:00","2023","01","07","02:00"
"-133.03","69.43","TUKTOYAKTUK A","2203913","2023-01-07 03:00","2023","01","07","03:00"
"-133.03","69.43","TUKTOYAKTUK A","2203913","2023-01-07 04:00","2023","01","07","04:00"
"-133.03","69.43","TUKTOYAKTUK A","2203913","2023-01-07 05:00","2023","01","07","05:00"
"-133.03","69.43","TUKTOYAKTUK A","2203913","2023-01-07 06:00","2023","01","07","06:00"
"-133.03","69.43","TUKTOYAKTUK A","2203913","2023-01-07 07:00","2023","01","07","07:00","-18.2","","-20.4","","84","","","","9","","16","","24.1","","101.14","","","","-27","","NA"
"-133.03","69.43","TUKTOYAKTUK A","2203913","2023-01-07 08:00","2023","01","07","08:00","-18.0","","-20.1","","84","","","","9","","15","","16.1","","101.13","","","","-27","","Snow"
"-133.03","69.43","TUKTOYAKTUK A","2203913","2023-01-07 09:00","2023","01","07","09:00","-17.2","","-19.2","","85","","","","10","","14","","16.1","","101.10","","","","-25","","Snow"
"-133.03","69.43","TUKTOYAKTUK A","2203913","2023-01-07 10:00","2023","01","07","10:00","-16.9","","-18.8","","85","","","","10","","16","","16.1","","101.10","","","","-26","","Snow"
"-133.03","69.43","TUKTOYAKTUK A","2203913","2023-01-07 11:00","2023","01","07","11:00","-16.7","","-18.6","","85","","","","11","","18","","16.1","","101.13","","","","-26","","Snow"
"-133.03","69.43","TUKTOYAKTUK A","2203913","2023-01-07 12:00","2023","01","07","12:00","-16.4","","-18.4","","85","","","","10","","17","","16.1","","101.10","","","","-25","","Snow"
"-133.03","69.43","TUKTOYAKTUK A","2203913","2023-01-07 13:00","2023","01","07","13:00","-16.0","","-17.8","","86","","","","12","","16","","6.4","","101.14","","","","-24","","Snow"
"-133.03","69.43","TUKTOYAKTUK A","2203913","2023-01-07 14:00","2023","01","07","14:00","-15.9","","-17.8","","86","","","","11","","15","","6.4","","101.16","","","","-24","","Snow"
"-133.03","69.43","TUKTOYAKTUK A","2203913","2023-01-07 15:00","2023","01","07","15:00","-15.8","","-17.7","","86","","","","10","","13","","3.2","","101.19","","","","-23","","Snow"
"-133.03","69.43","TUKTOYAKTUK A","2203913","2023-01-07 16:00","2023","01","07","16:00","-15.7","","-17.6","","86","","","","12","","13","","3.2","","101.20","","","","-23","","Snow"
"-133.03","69.43","TUKTOYAKTUK A","2203913","2023-01-07 17:00","2023","01","07","17:00","-15.7","","-17.6","","86","","","","12","","13","","6.4","","101.21","","","","-23","","Snow"
"-133.03","69.43","TUKTOYAKTUK A","2203913","2023-01-07 18:00","2023","01","07","18:00","-15.9","","-17.8","","86","","","","14","","10","","9.7","","101.22","","","","-22","","Snow"
"-133.03","69.43","TUKTOYAKTUK A","2203913","2023-01-07 19:00","2023","01","07","19:00","-18.4","","-20.5","","84","","","","13","","8","","8.1","","101.24","","","","-24","","Snow"
"-133.03","69.43","TUKTOYAKTUK A","2203913","2023-01-07 20:00","2023","01","07","20:00","-19.7","","-21.8","","83","","","","12","","5","","9.7","","101.25","","","","-24","","Snow"
"-133.03","69.43","TUKTOYAKTUK A","2203913","2023-01-07 21:00","2023","01","07","21:00","-21.7","","-24.0","","82","","","","15","","4","","16.1","","101.30","","","","-25","","Snow"
"-133.03","69.43","TUKTOYAKTUK A","2203913","2023-01-07 22:00","2023","01","07","22:00","-22.7","","-25.1","","81","","","","18","","7","","16.1","","101.31","","","","-29","","Snow"
"-133.03","69.43","TUKTOYAKTUK A","2203913","2023-01-07 23:00","2023","01","07","23:00","-23.5","","-26.0","","80","","","","12","","5","","16.1","","101.33","","","","-28","","Snow"
"-133.03","69.43","TUKTOYAKTUK A","2203913","2023-01-08 00:00","2023","01","08","00:00"
"-133.03","69.43","TUKTOYAKTUK A","2203913","2023-01-08 01:00","2023","01","08","01:00"
"-133.03","69.43","TUKTOYAKTUK A","2203913","2023-01-08 02:00","2023","01","08","02:00"
"-133.03","69.43","TUKTOYAKTUK A","2203913","2023-01-08 03:00","2023","01","08","03:00"
"-133.03","69.43","TUKTOYAKTUK A","2203913","2023-01-08 04:00","2023","01","08","04:00"
"-133.03","69.43","TUKTOYAKTUK A","2203913","2023-01-08 05:00","2023","01","08","05:00"
"-133.03","69.43","TUKTOYAKTUK A","2203913","2023-01-08 06:00","2023","01","08","06:00"
"-133.03","69.43","TUKTOYAKTUK A","2203913","2023-01-08 07:00","2023","01","08","07:00","-18.1","","-20.2","","84","","","","9","","4","","24.1","","101.34","","","","-21","","NA"
"-133.03","69.43","TUKTOYAKTUK A","2203913","2023-01-08 08:00","2023","01","08","08:00","-18.7","","-20.8","","84","","","","9","","6","","24.1","","101.34","","","","-24","","Mostly Cloudy"
"-133.03","69.43","TUKTOYAKTUK A","2203913","2023-01-08 09:00","2023","01","08","09:00","-19.0","","-21.1","","83","","","","10","","7","","24.1","","101.31","","","","-24","","NA"
"-133.03","69.43","TUKTOYAKTUK A","2203913","2023-01-08 10:00","2023","01","08","10:00","-22.6","","-25.1","","80","","","","11","","8","","24.1","","101.32","","","","-29","","NA"
"-133.03","69.43","TUKTOYAKTUK A","2203913","2023-01-08 11:00","2023","01","08","11:00","-23.6","","-26.1","","80","","","","11","","8","","24.1","","101.32","","","","-30","","Mainly Clear"
"-133.03","69.43","TUKTOYAKTUK A","2203913","2023-01-08 12:00","2023","01","08","12:00","-23.9","","-26.4","","80","","","","11","","10","","24.1","","101.28","","","","-32","","NA"
"-133.03","69.43","TUKTOYAKTUK A","2203913","2023-01-08 13:00","2023","01","08","13:00","-23.1","","-25.6","","80","","","","10","","9","","24.1","","101.26","","","","-30","","NA"
"-133.03","69.43","TUKTOYAKTUK A","2203913","2023-01-08 14:00","2023","01","08","14:00","-22.0","","-24.4","","81","","","","11","","16","","24.1","","101.24","","","","-32","","Mainly Clear"
"-133.03","69.43","TUKTOYAKTUK A","2203913","2023-01-08 15:00","2023","01","08","15:00","-20.0","","-22.3","","82","","","","11","","11","","16.1","","101.24","","","","-28","","NA"
"-133.03","69.43","TUKTOYAKTUK A","2203913","2023-01-08 16:00","2023","01","08","16:00","-19.0","","-21.1","","83","","","","11","","11","","4.8","","101.24","","","","-26","","Snow"
"-133.03","69.43","TUKTOYAKTUK A","2203913","2023-01-08 17:00","2023","01","08","17:00","-18.5","","-20.6","","84","","","","9","","11","","4.8","","101.18","","","","-26","","Snow"
"-133.03","69.43","TUKTOYAKTUK A","2203913","2023-01-08 18:00","2023","01","08","18:00","-17.6","","-19.7","","84","","","","10","","14","","9.7","","101.18","","","","-26","","Snow"
"-133.03","69.43","TUKTOYAKTUK A","2203913","2023-01-08 19:00","2023","01","08","19:00","-17.2","","-19.1","","85","","","","6","","9","","4.8","","101.17","","","","-23","","Snow"
"-133.03","69.43","TUKTOYAKTUK A","2203913","2023-01-08 20:00","2023","01","08","20:00","-17.2","","-19.1","","85","","","","5","","11","","4.8","","101.13","","","","-24","","Snow"
"-133.03","69.43","TUKTOYAKTUK A","2203913","2023-01-08 21:00","2023","01","08","21:00","-17.1","","-19.0","","85","","","","8","","9","","6.4","","101.12","","","","-23","","Snow"
"-133.03","69.43","TUKTOYAKTUK A","2203913","2023-01-08 22:00","2023","01","08","22:00","-17.1","","-19.0","","85","","","","8","","10","","1.6","","101.10","","","","-24","","Snow"
"-133.03","69.43","TUKTOYAKTUK A","2203913","2023-01-08 23:00","2023","01","08","23:00","-16.9","","-18.9","","85","","","","8","","9","","1.6","","101.07","","","","-23","","Snow"
"-133.03","69.43","TUKTOYAKTUK A","2203913","2023-01-09 00:00","2023","01","09","00:00"
"-133.03","69.43","TUKTOYAKTUK A","2203913","2023-01-09 01:00","2023","01","09","01:00"
"-133.03","69.43","TUKTOYAKTUK A","2203913","2023-01-09 02:00","2023","01","09","02:00"
"-133.03","69.43","TUKTOYAKTUK A","2203913","2023-01-09 03:00","2023","01","09","03:00"
"-133.03","69.43","TUKTOYAKTUK A","2203913","2023-01-09 04:00","2023","01","09","04:00"
"-133.03","69.43","TUKTOYAKTUK A","2203913","2023-01-09 05:00","2023","01","09","05:00"
"-133.03","69.43","TUKTOYAKTUK A","2203913","2023-01-09 06:00","2023","01","09","06:00"
"-133.03","69.43","TUKTOYAKTUK A","2203913","2023-01-09 07:00","2023","01","09","07:00","-17.2","","-19.2","","85","","","","27","","18","","24.1","","101.07","","","","-26","","Snow"
"-133.03","69.43","TUKTOYAKTUK A","2203913","2023-01-09 08:00","2023","01","09","08:00","-17.6","","-19.6","","84","","","","26","","19","","24.1","","101.06","","","","-27","","Snow"
"-133.03","69.43","TUKTOYAKTUK A","2203913","2023-01-09 09:00","2023","01","09","09:00","-18.5","","-20.7","","84","","","","27","","23","","24.1","","101.06","","","","-29","","Snow"
"-133.03","69.43","TUKTOYAKTUK A","2203913","2023-01-09 10:00","2023","01","09","10:00","-20.6","","-23.0","","81","","","","28","","22","","24.1","","101.09","","","","-32","","Snow"
"-133.03","69.43","TUKTOYAKTUK A","2203913","2023-01-09 11:00","2023","01","09","11:00","-23.8","","-26.3","","80","","","","27","","25","","24.1","","101.12","","","","-36","","Mainly Clear"
"-133.03","69.43","TUKTOYAKTUK A","2203913","2023-01-09 12:00","2023","01","09","12:00","-24.6","","-27.2","","79","","","","28","","27","","24.1","","101.15","","","","-38","","NA"
"-133.03","69.43","TUKTOYAKTUK A","2203913","2023-01-09 13:00","2023","01","09","13:00","-27.2","","-30.1","","77","","","","27","","21","","24.1","","101.21","","","","-40","","NA"
"-133.03","69.43","TUKTOYAKTUK A","2203913","2023-01-09 14:00","2023","01","09","14:00","-25.8","","-28.5","","79","","","","27","","22","","9.7","","101.24","","","","-38","","Fog"
"-133.03","69.43","TUKTOYAKTUK A","2203913","2023-01-09 15:00","2023","01","09","15:00","-26.1","","-28.8","","78","","","","26","","25","","9.7","","101.29","","","","-39","","Fog"
"-133.03","69.43","TUKTOYAKTUK A","2203913","2023-01-09 16:00","2023","01","09","16:00","-26.0","","-28.8","","78","","","","26","","22","","9.7","","101.31","","","","-39","","Fog"
"-133.03","69.43","TUKTOYAKTUK A","2203913","2023-01-09 17:00","2023","01","09","17:00","-26.8","","-29.6","","78","","","","27","","22","","9.7","","101.32","","","","-40","","Fog"
"-133.03","69.43","TUKTOYAKTUK A","2203913","2023-01-09 18:00","2023","01","09","18:00","-26.0","","-28.7","","78","","","","26","","24","","11.3","","101.33","","","","-39","","NA"
"-133.03","69.43","TUKTOYAKTUK A","2203913","2023-01-09 19:00","2023","01","09","19:00","-20.8","","-23.0","","83","","","","27","","27","","9.7","","101.34","","","","-33","","Ice Crystals,Fog"
"-133.03","69.43","TUKTOYAKTUK A","2203913","2023-01-09 20:00","2023","01","09","20:00","-22.9","","-25.5","","80","","","","29","","22","","9.7","","101.35","","","","-35","","Ice Crystals,Fog"
"-133.03","69.43","TUKTOYAKTUK A","2203913","2023-01-09 21:00","2023","01","09","21:00"
"-133.03","69.43","TUKTOYAKTUK A","2203913","2023-01-09 22:00","2023","01","09","22:00","-25.6","","-28.4","","78","","","","28","","23","","9.7","","101.42","","","","-38","","Ice Crystals,Fog"
"-133.03","69.43","TUKTOYAKTUK A","2203913","2023-01-09 23:00","2023","01","09","23:00","-26.1","","-28.9","","78","","","","27","","22","","8.1","","101.48","","","","-39","","Ice Crystals,Fog"
"-133.03","69.43","TUKTOYAKTUK A","2203913","2023-01-10 00:00","2023","01","10","00:00"
"-133.03","69.43","TUKTOYAKTUK A","2203913","2023-01-10 01:00","2023","01","10","01:00"
"-133.03","69.43","TUKTOYAKTUK A","2203913","2023-01-10 02:00","2023","01","10","02:00"
"-133.03","69.43","TUKTOYAKTUK A","2203913","2023-01-10 03:00","2023","01","10","03:00"
"-133.03","69.43","TUKTOYAKTUK A","2203913","2023-01-10 04:00","2023","01","10","04:00"
"-133.03","69.43","TUKTOYAKTUK A","2203913","2023-01-10 05:00","2023","01","10","05:00"
"-133.03","69.43","TUKTOYAKTUK A","2203913","2023-01-10 06:00","2023","01","10","06:00"
"-133.03","69.43","TUKTOYAKTUK A","2203913","2023-01-10 07:00","2023","01","10","07:00","-28.9","","-31.9","","76","","","","29","","21","","24.1","","101.67","","","","-42","","NA"
"-133.03","69.43","TUKTOYAKTUK A","2203913","2023-01-10 08:00","2023","01","10","08:00","-30.4","","-33.5","","75","","","","29","","17","","24.1","","101.70","","","","-43","","Clear"
"-133.03","69.43","TUKTOYAKTUK A","2203913","2023-01-10 09:00","2023","01","10","09:00","-32.2","","-35.4","","74","","","","32","","18","","24.1","","101.77","","","","-45","","NA"
"-133.03","69.43","TUKTOYAKTUK A","2203913","2023-01-10 10:00","2023","01","10","10:00","-30.9","","-34.0","","75","","","","32","","17","","24.1","","101.84","","","","-43","","NA"
"-133.03","69.43","TUKTOYAKTUK A","2203913","2023-01-10 11:00","2023","01","10","11:00","-32.7","","-36.0","","73","","","","31","","15","","24.1","","101.90","","","","-45","","Clear"
"-133.03","69.43","TUKTOYAKTUK A","2203913","2023-01-10 12:00","2023","01","10","12:00","-33.0","","-36.3","","73","","","","31","","11","","24.1","","101.97","","","","-43","","NA"
"-133.03","69.43","TUKTOYAKTUK A","2203913","2023-01-10 13:00","2023","01","10","13:00","-33.8","","-37.1","","73","","","","30","","6","","24.1","","102.05","","","","-41","","NA"
"-133.03","69.43","TUKTOYAKTUK A","2203913","2023-01-10 14:00","2023","01","10","14:00","-33.3","","-36.6","","73","","","","34","","11","","24.1","","102.09","","","","-44","","Mainly Clear"
"-133.03","69.43","TUKTOYAKTUK A","2203913","2023-01-10 15:00","2023","01","10","15:00","-33.6","","-36.9","","73","","","","34","","9","","24.1","","102.15","","","","-43","","NA"
"-133.03","69.43","TUKTOYAKTUK A","2203913","2023-01-10 16:00","2023","01","10","16:00","-34.8","","-38.2","","72","","","","34","","9","","24.1","","102.20","","","","-44","","NA"
"-133.03","69.43","TUKTOYAKTUK A","2203913","2023-01-10 17:00","2023","01","10","17:00","-35.7","","-39.2","","71","","","","34","","3","","24.1","","102.25","","","","-40","","Clear"
"-133.03","69.43","TUKTOYAKTUK A","2203913","2023-01-10 18:00","2023","01","10","18:00","-36.3","","-39.8","","71","","","","29","","5","","24.1","","102.30","","","","-43","","NA"
"-133.03","69.43","TUKTOYAKTUK A","2203913","2023-01-10 19:00","2023","01","10","19:00","-37.2","","-40.7","","70","","","","28","","8","","24.1","","102.35","","","","-46","","NA"
"-133.03","69.43","TUKTOYAKTUK A","2203913","2023-01-10 20:00","2023","01","10","20:00","-37.5","","-41.0","","70","","","","26","","4","","24.1","","102.38","","","","-43","","Clear"
"-133.03","69.43","TUKTOYAKTUK A","2203913","2023-01-10 21:00","2023","01","10","21:00","-35.9","","-39.4","","71","","","","36","","2","","24.1","","102.42","","","","-38","","NA"
"-133.03","69.43","TUKTOYAKTUK A","2203913","2023-01-10 22:00","2023","01","10","22:00","-33.9","","-37.3","","72","","","","36","","1","","24.1","","102.44","","","","-35","","NA"
"-133.03","69.43","TUKTOYAKTUK A","2203913","2023-01-10 23:00","2023","01","10","23:00","-31.8","","-35.0","","74","","","","4","","4","","24.1","","102.49","","","","-36","","Cloudy"
"-133.03","69.43","TUKTOYAKTUK A","2203913","2023-01-11 00:00","2023","01","11","00:00"
"-133.03","69.43","TUKTOYAKTUK A","2203913","2023-01-11 01:00","2023","01","11","01:00"
"-133.03","69.43","TUKTOYAKTUK A","2203913","2023-01-11 02:00","2023","01","11","02:00"
"-133.03","69.43","TUKTOYAKTUK A","2203913","2023-01-11 03:00","2023","01","11","03:00"
"-133.03","69.43","TUKTOYAKTUK A","2203913","2023-01-11 04:00","2023","01","11","04:00"
"-133.03","69.43","TUKTOYAKTUK A","2203913","2023-01-11 05:00","2023","01","11","05:00"
"-133.03","69.43","TUKTOYAKTUK A","2203913","2023-01-11 06:00","2023","01","11","06:00"
"-133.03","69.43","TUKTOYAKTUK A","2203913","2023-01-11 07:00","2023","01","11","07:00","-24.5","","-27.2","","79","","","","9","","15","","24.1","","102.63","","","","-35","","NA"
"-133.03","69.43","TUKTOYAKTUK A","2203913","2023-01-11 08:00","2023","01","11","08:00","-24.7","","-27.4","","79","","","","9","","16","","24.1","","102.62","","","","-35","","Mostly Cloudy"
"-133.03","69.43","TUKTOYAKTUK A","2203913","2023-01-11 09:00","2023","01","11","09:00","-26.8","","-29.7","","77","","","","10","","15","","24.1","","102.65","","","","-37","","Snow"
"-133.03","69.43","TUKTOYAKTUK A","2203913","2023-01-11 10:00","2023","01","11","10:00","-26.9","","-29.8","","77","","","","10","","14","","24.1","","102.67","","","","-37","","Snow"
"-133.03","69.43","TUKTOYAKTUK A","2203913","2023-01-11 11:00","2023","01","11","11:00","-27.9","","-30.9","","76","","","","9","","11","","24.1","","102.68","","","","-37","","Snow"
"-133.03","69.43","TUKTOYAKTUK A","2203913","2023-01-11 12:00","2023","01","11","12:00","-28.1","","-31.1","","76","","","","11","","16","","24.1","","102.70","","","","-39","","NA"
"-133.03","69.43","TUKTOYAKTUK A","2203913","2023-01-11 13:00","2023","01","11","13:00","-27.8","","-30.8","","76","","","","9","","17","","24.1","","102.68","","","","-39","","NA"
"-133.03","69.43","TUKTOYAKTUK A","2203913","2023-01-11 14:00","2023","01","11","14:00","-30.0","","-33.0","","75","","","","10","","16","","24.1","","102.69","","","","-42","","Mostly Cloudy"
"-133.03","69.43","TUKTOYAKTUK A","2203913","2023-01-11 15:00","2023","01","11","15:00","-29.9","","-32.9","","75","","","","9","","17","","11.3","","102.64","","","","-42","","NA"
"-133.03","69.43","TUKTOYAKTUK A","2203913","2023-01-11 16:00","2023","01","11","16:00","-28.2","","-31.2","","76","","","","9","","13","","9.7","","102.65","","","","-38","","Fog"
"-133.03","69.43","TUKTOYAKTUK A","2203913","2023-01-11 17:00","2023","01","11","17:00","-27.9","","-30.8","","76","","","","10","","21","","4.8","","102.65","","","","-41","","Fog"
"-133.03","69.43","TUKTOYAKTUK A","2203913","2023-01-11 18:00","2023","01","11","18:00","-29.1","","-32.2","","75","","","","9","","22","","9.7","","102.62","","","","-43","","Fog"
"-133.03","69.43","TUKTOYAKTUK A","2203913","2023-01-11 19:00","2023","01","11","19:00","-30.1","","-33.2","","75","","","","10","","14","","16.1","","102.64","","","","-41","","NA"
"-133.03","69.43","TUKTOYAKTUK A","2203913","2023-01-11 20:00","2023","01","11","20:00","-31.5","","-34.7","","74","","","","11","","21","","16.1","","102.62","","","","-45","","Mostly Cloudy"
"-133.03","69.43","TUKTOYAKTUK A","2203913","2023-01-11 21:00","2023","01","11","21:00","-30.8","","-34.0","","75","","","","9","","18","","24.1","","102.61","","","","-43","","NA"
"-133.03","69.43","TUKTOYAKTUK A","2203913","2023-01-11 22:00","2023","01","11","22:00","-30.5","","-33.6","","75","","","","9","","20","","24.1","","102.58","","","","-44","","NA"
"-133.03","69.43","TUKTOYAKTUK A","2203913","2023-01-11 23:00","2023","01","11","23:00","-29.7","","-32.8","","75","","","","10","","16","","24.1","","102.59","","","","-41","","Mostly Cloudy"
"-133.03","69.43","TUKTOYAKTUK A","2203913","2023-01-12 00:00","2023","01","12","00:00"
"-133.03","69.43","TUKTOYAKTUK A","2203913","2023-01-12 01:00","2023","01","12","01:00"
"-133.03","69.43","TUKTOYAKTUK A","2203913","2023-01-12 02:00","2023","01","12","02:00"
"-133.03","69.43","TUKTOYAKTUK A","2203913","2023-01-12 03:00","2023","01","12","03:00"
"-133.03","69.43","TUKTOYAKTUK A","2203913","2023-01-12 04:00","2023","01","12","04:00"
"-133.03","69.43","TUKTOYAKTUK A","2203913","2023-01-12 05:00","2023","01","12","05:00"
"-133.03","69.43","TUKTOYAKTUK A","2203913","2023-01-12 06:00","2023","01","12","06:00"
"-133.03","69.43","TUKTOYAKTUK A","2203913","2023-01-12 07:00","2023","01","12","07:00","-31.6","","-34.8","","74","","","","10","","13","","24.1","","102.66","","","","-43","","NA"
"-133.03","69.43","TUKTOYAKTUK A","2203913","2023-01-12 08:00","2023","01","12","08:00","-30.8","","-34.0","","75","","","","13","","15","","24.1","","102.65","","","","-42","","Clear"
"-133.03","69.43","TUKTOYAKTUK A","2203913","2023-01-12 09:00","2023","01","12","09:00","-31.7","","-35.0","","73","","","","10","","15","","24.1","","102.65","","","","-44","","NA"
"-133.03","69.43","TUKTOYAKTUK A","2203913","2023-01-12 10:00","2023","01","12","10:00","-33.3","","-36.6","","73","","","","11","","12","","24.1","","102.66","","","","-44","","NA"
"-133.03","69.43","TUKTOYAKTUK A","2203913","2023-01-12 11:00","2023","01","12","11:00","-31.0","","-34.2","","74","","","","13","","17","","24.1","","102.62","","","","-43","","Mainly Clear"
"-133.03","69.43","TUKTOYAKTUK A","2203913","2023-01-12 12:00","2023","01","12","12:00","-30.3","","-33.4","","75","","","","11","","13","","24.1","","102.65","","","","-41","","NA"
"-133.03","69.43","TUKTOYAKTUK A","2203913","2023-01-12 13:00","2023","01","12","13:00","-30.8","","-33.9","","74","","","","12","","15","","24.1","","102.67","","","","-42","","NA"
"-133.03","69.43","TUKTOYAKTUK A","2203913","2023-01-12 14:00","2023","01","12","14:00","-31.4","","-34.7","","74","","","","11","","17","","24.1","","102.63","","","","-44","","Mostly Cloudy"
"-133.03","69.43","TUKTOYAKTUK A","2203913","2023-01-12 15:00","2023","01","12","15:00","-31.0","","-34.2","","74","","","","11","","17","","24.1","","102.58","","","","-43","","NA"
"-133.03","69.43","TUKTOYAKTUK A","2203913","2023-01-12 16:00","2023","01","12","16:00","-30.0","","-33.1","","75","","","","12","","17","","24.1","","102.53","","","","-42","","NA"
"-133.03","69.43","TUKTOYAKTUK A","2203913","2023-01-12 17:00","2023","01","12","17:00","-30.4","","-33.6","","75","","","","12","","15","","24.1","","102.52","","","","-42","","Mainly Clear"
"-133.03","69.43","TUKTOYAKTUK A","2203913","2023-01-12 18:00","2023","01","12","18:00","-30.8","","-34.0","","74","","","","11","","21","","24.1","","102.51","","","","-44","","NA"
"-133.03","69.43","TUKTOYAKTUK A","2203913","2023-01-12 19:00","2023","01","12","19:00","-30.5","","-33.6","","75","","","","12","","20","","24.1","","102.44","","","","-44","","NA"
"-133.03","69.43","TUKTOYAKTUK A","2203913","2023-01-12 20:00","2023","01","12","20:00","-30.7","","-33.9","","74","","","","11","","22","","24.1","","102.40","","","","-45","","Mainly Clear"
"-133.03","69.43","TUKTOYAKTUK A","2203913","2023-01-12 21:00","2023","01","12","21:00","-31.5","","-34.8","","74","","","","11","","22","","24.1","","102.34","","","","-46","","NA"
"-133.03","69.43","TUKTOYAKTUK A","2203913","2023-01-12 22:00","2023","01","12","22:00","-29.7","","-32.8","","75","","","","12","","20","","24.1","","102.32","","","","-43","","NA"
"-133.03","69.43","TUKTOYAKTUK A","2203913","2023-01-12 23:00","2023","01","12","23:00","-29.5","","-32.6","","75","","","","12","","28","","24.1","","102.26","","","","-45","","Clear"
"-133.03","69.43","TUKTOYAKTUK A","2203913","2023-01-13 00:00","2023","01","13","00:00"
"-133.03","69.43","TUKTOYAKTUK A","2203913","2023-01-13 01:00","2023","01","13","01:00"
"-133.03","69.43","TUKTOYAKTUK A","2203913","2023-01-13 02:00","2023","01","13","02:00"
"-133.03","69.43","TUKTOYAKTUK A","2203913","2023-01-13 03:00","2023","01","13","03:00"
"-133.03","69.43","TUKTOYAKTUK A","2203913","2023-01-13 04:00","2023","01","13","04:00"
"-133.03","69.43","TUKTOYAKTUK A","2203913","2023-01-13 05:00","2023","01","13","05:00"
"-133.03","69.43","TUKTOYAKTUK A","2203913","2023-01-13 06:00","2023","01","13","06:00"
"-133.03","69.43","TUKTOYAKTUK A","2203913","2023-01-13 07:00","2023","01","13","07:00","-28.0","","-31.0","","76","","","","12","","14","","24.1","","101.81","","","","-39","","NA"
"-133.03","69.43","TUKTOYAKTUK A","2203913","2023-01-13 08:00","2023","01","13","08:00","-26.8","","-29.7","","77","","","","12","","18","","32.2","","101.73","","","","-38","","Mostly Cloudy"
"-133.03","69.43","TUKTOYAKTUK A","2203913","2023-01-13 09:00","2023","01","13","09:00","-25.4","","-28.1","","78","","","","11","","27","","24.1","","101.68","","","","-39","","NA"
"-133.03","69.43","TUKTOYAKTUK A","2203913","2023-01-13 10:00","2023","01","13","10:00","-23.9","","-26.6","","79","","","","12","","22","","24.1","","101.63","","","","-36","","NA"
"-133.03","69.43","TUKTOYAKTUK A","2203913","2023-01-13 11:00","2023","01","13","11:00","-23.2","","-25.9","","80","","","","12","","30","","24.1","","101.53","","","","-37","","Mostly Cloudy"
"-133.03","69.43","TUKTOYAKTUK A","2203913","2023-01-13 12:00","2023","01","13","12:00","-22.7","","-25.3","","80","","","","12","","29","","24.1","","101.48","","","","-36","","NA"
"-133.03","69.43","TUKTOYAKTUK A","2203913","2023-01-13 13:00","2023","01","13","13:00","-23.1","","-25.7","","80","","","","11","","29","","24.1","","101.43","","","","-36","","Blowing Snow"
"-133.03","69.43","TUKTOYAKTUK A","2203913","2023-01-13 14:00","2023","01","13","14:00","-22.6","","-25.1","","80","","","","13","","26","","24.1","","101.39","","","","-35","","Blowing Snow"
"-133.03","69.43","TUKTOYAKTUK A","2203913","2023-01-13 15:00","2023","01","13","15:00","-22.3","","-24.8","","80","","","","12","","27","","24.1","","101.31","","","","-35","","Blowing Snow"
"-133.03","69.43","TUKTOYAKTUK A","2203913","2023-01-13 16:00","2023","01","13","16:00","-21.0","","-23.4","","81","","","","12","","31","","24.1","","101.31","","","","-34","","Blowing Snow"
"-133.03","69.43","TUKTOYAKTUK A","2203913","2023-01-13 17:00","2023","01","13","17:00","-21.1","","-23.4","","81","","","","12","","30","","24.1","","101.26","","","","-34","","Blowing Snow"
"-133.03","69.43","TUKTOYAKTUK A","2203913","2023-01-13 18:00","2023","01","13","18:00","-21.0","","-23.4","","81","","","","12","","28","","24.1","","101.20","","","","-34","","Blowing Snow"
"-133.03","69.43","TUKTOYAKTUK A","2203913","2023-01-13 19:00","2023","01","13","19:00","-21.3","","-23.7","","81","","","","12","","24","","24.1","","101.15","","","","-33","","Blowing Snow"
"-133.03","69.43","TUKTOYAKTUK A","2203913","2023-01-13 20:00","2023","01","13","20:00","-21.1","","-23.4","","81","","","","11","","26","","24.1","","101.10","","","","-33","","Mostly Cloudy"
"-133.03","69.43","TUKTOYAKTUK A","2203913","2023-01-13 21:00","2023","01","13","21:00","-20.8","","-23.1","","82","","","","11","","23","","24.1","","101.08","","","","-32","","Blowing Snow"
"-133.03","69.43","TUKTOYAKTUK A","2203913","2023-01-13 22:00","2023","01","13","22:00","-20.7","","-23.0","","82","","","","12","","23","","9.7","","101.03","","","","-32","","Snow,Blowing Snow"
"-133.03","69.43","TUKTOYAKTUK A","2203913","2023-01-13 23:00","2023","01","13","23:00","-20.6","","-22.9","","82","","","","12","","27","","4.8","","101.01","","","","-33","","Snow,Blowing Snow"
"-133.03","69.43","TUKTOYAKTUK A","2203913","2023-01-14 00:00","2023","01","14","00:00"
"-133.03","69.43","TUKTOYAKTUK A","2203913","2023-01-14 01:00","2023","01","14","01:00"
"-133.03","69.43","TUKTOYAKTUK A","2203913","2023-01-14 02:00","2023","01","14","02:00"
"-133.03","69.43","TUKTOYAKTUK A","2203913","2023-01-14 03:00","2023","01","14","03:00"
"-133.03","69.43","TUKTOYAKTUK A","2203913","2023-01-14 04:00","2023","01","14","04:00"
"-133.03","69.43","TUKTOYAKTUK A","2203913","2023-01-14 05:00","2023","01","14","05:00"
"-133.03","69.43","TUKTOYAKTUK A","2203913","2023-01-14 06:00","2023","01","14","06:00"
"-133.03","69.43","TUKTOYAKTUK A","2203913","2023-01-14 07:00","2023","01","14","07:00","-20.4","","-22.7","","82","","","","36","","7","","3.2","","100.96","","","","-26","","Snow"
"-133.03","69.43","TUKTOYAKTUK A","2203913","2023-01-14 08:00","2023","01","14","08:00","-20.3","","-22.6","","82","","","","29","","4","","3.2","","100.92","","","","-24","","Snow"
"-133.03","69.43","TUKTOYAKTUK A","2203913","2023-01-14 09:00","2023","01","14","09:00","-20.2","","-22.4","","82","","","","36","","6","","4.8","","100.93","","","","-25","","Snow"
"-133.03","69.43","TUKTOYAKTUK A","2203913","2023-01-14 10:00","2023","01","14","10:00","-21.5","","-23.8","","82","","","","35","","7","","6.4","","100.94","","","","-27","","Snow"
"-133.03","69.43","TUKTOYAKTUK A","2203913","2023-01-14 11:00","2023","01","14","11:00","-23.7","","-26.3","","80","","","","2","","12","","9.7","","100.96","","","","-33","","Fog"
"-133.03","69.43","TUKTOYAKTUK A","2203913","2023-01-14 12:00","2023","01","14","12:00","-25.7","","-28.5","","78","","","","1","","9","","12.9","","101.00","","","","-33","","NA"
"-133.03","69.43","TUKTOYAKTUK A","2203913","2023-01-14 13:00","2023","01","14","13:00","-25.9","","-28.6","","78","","","","2","","10","","16.1","","101.01","","","","-34","","NA"
"-133.03","69.43","TUKTOYAKTUK A","2203913","2023-01-14 14:00","2023","01","14","14:00","-26.2","","-29.0","","78","","","","5","","11","","24.1","","101.02","","","","-35","","Clear"
"-133.03","69.43","TUKTOYAKTUK A","2203913","2023-01-14 15:00","2023","01","14","15:00","-26.7","","-29.6","","77","","","","5","","13","","4.8","","101.06","","","","-37","","Ice Crystals"
"-133.03","69.43","TUKTOYAKTUK A","2203913","2023-01-14 16:00","2023","01","14","16:00","-26.7","","-29.5","","77","","","","4","","15","","16.1","","101.11","","","","-37","","Ice Crystals"
"-133.03","69.43","TUKTOYAKTUK A","2203913","2023-01-14 17:00","2023","01","14","17:00","-26.5","","-29.3","","78","","","","7","","6","","24.1","","101.14","","","","-32","","Clear"
"-133.03","69.43","TUKTOYAKTUK A","2203913","2023-01-14 18:00","2023","01","14","18:00","-26.4","","-29.2","","78","","","","6","","16","","24.1","","101.12","","","","-37","","NA"
"-133.03","69.43","TUKTOYAKTUK A","2203913","2023-01-14 19:00","2023","01","14","19:00","-27.5","","-30.5","","77","","","","7","","16","","24.1","","101.14","","","","-39","","NA"
"-133.03","69.43","TUKTOYAKTUK A","2203913","2023-01-14 20:00","2023","01","14","20:00","-27.4","","-30.3","","77","","","","9","","10","","24.1","","101.16","","","","-36","","Clear"
"-133.03","69.43","TUKTOYAKTUK A","2203913","2023-01-14 21:00","2023","01","14","21:00","-27.5","","-30.4","","77","","","","5","","13","","24.1","","101.17","","","","-38","","NA"
"-133.03","69.43","TUKTOYAKTUK A","2203913","2023-01-14 22:00","2023","01","14","22:00","-28.2","","-31.2","","76","","","","7","","7","","24.1","","101.18","","","","-35","","NA"
"-133.03","69.43","TUKTOYAKTUK A","2203913","2023-01-14 23:00","2023","01","14","23:00","-28.3","","-31.3","","76","","","","7","","17","","16.1","","101.19","","","","-40","","Mostly Cloudy"
"-133.03","69.43","TUKTOYAKTUK A","2203913","2023-01-15 00:00","2023","01","15","00:00"
"-133.03","69.43","TUKTOYAKTUK A","2203913","2023-01-15 01:00","2023","01","15","01:00"
"-133.03","69.43","TUKTOYAKTUK A","2203913","2023-01-15 02:00","2023","01","15","02:00"
"-133.03","69.43","TUKTOYAKTUK A","2203913","2023-01-15 03:00","2023","01","15","03:00"
"-133.03","69.43","TUKTOYAKTUK A","2203913","2023-01-15 04:00","2023","01","15","04:00"
"-133.03","69.43","TUKTOYAKTUK A","2203913","2023-01-15 05:00","2023","01","15","05:00"
"-133.03","69.43","TUKTOYAKTUK A","2203913","2023-01-15 06:00","2023","01","15","06:00"
"-133.03","69.43","TUKTOYAKTUK A","2203913","2023-01-15 07:00","2023","01","15","07:00","-26.8","","-29.6","","77","","","","6","","13","","9.7","","101.15","","","","-37","","Fog"
"-133.03","69.43","TUKTOYAKTUK A","2203913","2023-01-15 08:00","2023","01","15","08:00","-26.3","","-29.1","","78","","","","7","","12","","6.4","","101.11","","","","-36","","Fog"
"-133.03","69.43","TUKTOYAKTUK A","2203913","2023-01-15 09:00","2023","01","15","09:00","-25.4","","-28.1","","78","","","","6","","16","","9.7","","101.11","","","","-36","","Fog"
"-133.03","69.43","TUKTOYAKTUK A","2203913","2023-01-15 10:00","2023","01","15","10:00","-24.9","","-27.6","","79","","","","7","","19","","9.7","","101.09","","","","-36","","Fog"
"-133.03","69.43","TUKTOYAKTUK A","2203913","2023-01-15 11:00","2023","01","15","11:00","-27.1","","-30.0","","77","","","","8","","16","","8.1","","101.09","","","","-38","","Fog"
"-133.03","69.43","TUKTOYAKTUK A","2203913","2023-01-15 12:00","2023","01","15","12:00","-28.6","","-31.5","","76","","","","9","","13","","12.9","","101.10","","","","-39","","NA"
"-133.03","69.43","TUKTOYAKTUK A","2203913","2023-01-15 13:00","2023","01","15","13:00","-28.1","","-31.1","","76","","","","10","","12","","8.1","","101.09","","","","-38","","Fog"
"-133.03","69.43","TUKTOYAKTUK A","2203913","2023-01-15 14:00","2023","01","15","14:00","-27.6","","-30.5","","77","","","","9","","8","","4.8","","101.09","","","","-35","","Fog"
"-133.03","69.43","TUKTOYAKTUK A","2203913","2023-01-15 15:00","2023","01","15","15:00","-26.9","","-29.7","","77","","","","10","","7","","6.4","","101.07","","","","-34","","Fog"
"-133.03","69.43","TUKTOYAKTUK A","2203913","2023-01-15 16:00","2023","01","15","16:00","-26.8","","-29.7","","77","","","","8","","10","","9.7","","101.10","","","","-35","","Fog"
"-133.03","69.43","TUKTOYAKTUK A","2203913","2023-01-15 17:00","2023","01","15","17:00","-26.5","","-29.3","","78","","","","10","","14","","9.7","","101.12","","","","-37","","Fog"
"-133.03","69.43","TUKTOYAKTUK A","2203913","2023-01-15 18:00","2023","01","15","18:00","-25.9","","-28.7","","78","","","","13","","12","","16.1","","101.11","","","","-35","","NA"
"-133.03","69.43","TUKTOYAKTUK A","2203913","2023-01-15 19:00","2023","01","15","19:00","-26.4","","-29.2","","78","","","","12","","10","","16.1","","101.11","","","","-35","","NA"
"-133.03","69.43","TUKTOYAKTUK A","2203913","2023-01-15 20:00","2023","01","15","20:00","-26.1","","-28.9","","78","","","","15","","12","","16.1","","101.10","","","","-35","","Snow"
"-133.03","69.43","TUKTOYAKTUK A","2203913","2023-01-15 21:00","2023","01","15","21:00","-25.5","","-28.3","","78","","","","14","","13","","16.1","","101.08","","","","-35","","Snow"
"-133.03","69.43","TUKTOYAKTUK A","2203913","2023-01-15 22:00","2023","01","15","22:00","-25.1","","-27.9","","78","","","","13","","10","","16.1","","101.12","","","","-33","","Snow"
"-133.03","69.43","TUKTOYAKTUK A","2203913","2023-01-15 23:00","2023","01","15","23:00","-24.6","","-27.3","","79","","","","12","","13","","16.1","","101.11","","","","-34","","Snow"
"-133.03","69.43","TUKTOYAKTUK A","2203913","2023-01-16 00:00","2023","01","16","00:00"
"-133.03","69.43","TUKTOYAKTUK A","2203913","2023-01-16 01:00","2023","01","16","01:00"
"-133.03","69.43","TUKTOYAKTUK A","2203913","2023-01-16 02:00","2023","01","16","02:00"
"-133.03","69.43","TUKTOYAKTUK A","2203913","2023-01-16 03:00","2023","01","16","03:00"
"-133.03","69.43","TUKTOYAKTUK A","2203913","2023-01-16 04:00","2023","01","16","04:00","-23.5","","-26.1","","80","","","","12","","16","","9.7","","101.14","","","","-34","","Snow"
"-133.03","69.43","TUKTOYAKTUK A","2203913","2023-01-16 05:00","2023","01","16","05:00","-23.5","","-26.1","","80","","","","13","","12","","9.7","","101.15","","","","-32","","Snow"
"-133.03","69.43","TUKTOYAKTUK A","2203913","2023-01-16 06:00","2023","01","16","06:00","-23.5","","-26.1","","80","","","","10","","11","","9.7","","101.14","","","","-32","","Snow"
"-133.03","69.43","TUKTOYAKTUK A","2203913","2023-01-16 07:00","2023","01","16","07:00","-23.3","","-25.9","","80","","","","10","","8","","9.7","","101.08","","","","-30","","Snow"
"-133.03","69.43","TUKTOYAKTUK A","2203913","2023-01-16 08:00","2023","01","16","08:00","-23.2","","-25.8","","80","","","","9","","11","","3.2","","101.06","","","","-31","","Snow"
"-133.03","69.43","TUKTOYAKTUK A","2203913","2023-01-16 09:00","2023","01","16","09:00","-23.5","","-26.1","","80","","","","9","","9","","3.2","","101.04","","","","-31","","Snow"
"-133.03","69.43","TUKTOYAKTUK A","2203913","2023-01-16 10:00","2023","01","16","10:00","-23.5","","-26.1","","80","","","","10","","8","","9.7","","101.02","","","","-30","","Snow"
"-133.03","69.43","TUKTOYAKTUK A","2203913","2023-01-16 11:00","2023","01","16","11:00","-24.3","","-27.0","","79","","","","8","","7","","4.8","","101.01","","","","-31","","Snow"
"-133.03","69.43","TUKTOYAKTUK A","2203913","2023-01-16 12:00","2023","01","16","12:00","-23.6","","-26.2","","80","","","","8","","8","","4.8","","101.00","","","","-30","","Snow"
"-133.03","69.43","TUKTOYAKTUK A","2203913","2023-01-16 13:00","2023","01","16","13:00","-23.4","","-25.9","","80","","","","8","","7","","12.9","","100.96","","","","-30","","Snow"
"-133.03","69.43","TUKTOYAKTUK A","2203913","2023-01-16 14:00","2023","01","16","14:00","-22.9","","-25.5","","80","","","","9","","6","","24.1","","100.95","","","","-28","","Mostly Cloudy"
"-133.03","69.43","TUKTOYAKTUK A","2203913","2023-01-16 15:00","2023","01","16","15:00","-22.8","","-25.3","","80","","","","9","","8","","24.1","","100.92","","","","-30","","NA"
"-133.03","69.43","TUKTOYAKTUK A","2203913","2023-01-16 16:00","2023","01","16","16:00","-22.6","","-25.1","","80","","","","10","","9","","24.1","","100.92","","","","-30","","NA"
"-133.03","69.43","TUKTOYAKTUK A","2203913","2023-01-16 17:00","2023","01","16","17:00","-23.1","","-25.6","","80","","","","10","","7","","24.1","","100.94","","","","-29","","Mostly Cloudy"
"-133.03","69.43","TUKTOYAKTUK A","2203913","2023-01-16 18:00","2023","01","16","18:00","-22.1","","-24.6","","81","","","","10","","9","","24.1","","100.92","","","","-29","","NA"
"-133.03","69.43","TUKTOYAKTUK A","2203913","2023-01-16 19:00","2023","01","16","19:00","-21.2","","-23.6","","81","","","","11","","11","","24.1","","100.85","","","","-29","","NA"
"-133.03","69.43","TUKTOYAKTUK A","2203913","2023-01-16 20:00","2023","01","16","20:00","-20.6","","-22.9","","82","","","","13","","14","","24.1","","100.81","","","","-29","","Cloudy"
"-133.03","69.43","TUKTOYAKTUK A","2203913","2023-01-16 21:00","2023","01","16","21:00","-20.1","","-22.4","","82","","","","15","","12","","24.1","","100.83","","","","-28","","Snow"
"-133.03","69.43","TUKTOYAKTUK A","2203913","2023-01-16 22:00","2023","01","16","22:00","-19.6","","-21.9","","83","","","","14","","11","","24.1","","100.77","","","","-27","","Snow"
"-133.03","69.43","TUKTOYAKTUK A","2203913","2023-01-16 23:00","2023","01","16","23:00","-19.2","","-21.4","","83","","","","13","","13","","24.1","","100.79","","","","-27","","Snow"
"-133.03","69.43","TUKTOYAKTUK A","2203913","2023-01-17 00:00","2023","01","17","00:00"
"-133.03","69.43","TUKTOYAKTUK A","2203913","2023-01-17 01:00","2023","01","17","01:00"
"-133.03","69.43","TUKTOYAKTUK A","2203913","2023-01-17 02:00","2023","01","17","02:00"
"-133.03","69.43","TUKTOYAKTUK A","2203913","2023-01-17 03:00","2023","01","17","03:00"
"-133.03","69.43","TUKTOYAKTUK A","2203913","2023-01-17 04:00","2023","01","17","04:00"
"-133.03","69.43","TUKTOYAKTUK A","2203913","2023-01-17 05:00","2023","01","17","05:00"
"-133.03","69.43","TUKTOYAKTUK A","2203913","2023-01-17 06:00","2023","01","17","06:00"
"-133.03","69.43","TUKTOYAKTUK A","2203913","2023-01-17 07:00","2023","01","17","07:00","-20.2","","-22.6","","82","","","","14","","13","","24.1","","100.58","","","","-29","","NA"
"-133.03","69.43","TUKTOYAKTUK A","2203913","2023-01-17 08:00","2023","01","17","08:00","-19.9","","-22.1","","83","","","","12","","13","","24.1","","100.51","","","","-28","","Cloudy"
"-133.03","69.43","TUKTOYAKTUK A","2203913","2023-01-17 09:00","2023","01","17","09:00","-22.9","","-25.4","","80","","","","14","","15","","24.1","","100.47","","","","-33","","NA"
"-133.03","69.43","TUKTOYAKTUK A","2203913","2023-01-17 10:00","2023","01","17","10:00","-24.0","","-26.6","","79","","","","15","","14","","24.1","","100.48","","","","-34","","NA"
"-133.03","69.43","TUKTOYAKTUK A","2203913","2023-01-17 11:00","2023","01","17","11:00","-23.9","","-26.4","","80","","","","16","","8","","24.1","","100.48","","","","-31","","Mostly Cloudy"
"-133.03","69.43","TUKTOYAKTUK A","2203913","2023-01-17 12:00","2023","01","17","12:00","-21.8","","-24.2","","81","","","","9","","5","","9.7","","100.45","","","","-26","","Fog"
"-133.03","69.43","TUKTOYAKTUK A","2203913","2023-01-17 13:00","2023","01","17","13:00","-20.0","","-22.3","","83","","","","9","","8","","4.8","","100.44","","","","-26","","Fog"
"-133.03","69.43","TUKTOYAKTUK A","2203913","2023-01-17 14:00","2023","01","17","14:00","-19.1","","-21.3","","83","","","","9","","12","","6.4","","100.38","","","","-27","","Fog"
"-133.03","69.43","TUKTOYAKTUK A","2203913","2023-01-17 15:00","2023","01","17","15:00","-18.3","","-20.4","","84","","","","9","","16","","9.7","","100.33","","","","-27","","Fog"
"-133.03","69.43","TUKTOYAKTUK A","2203913","2023-01-17 16:00","2023","01","17","16:00","-17.7","","-19.7","","84","","","","10","","18","","9.7","","100.32","","","","-27","","Fog"
"-133.03","69.43","TUKTOYAKTUK A","2203913","2023-01-17 17:00","2023","01","17","17:00","-17.2","","-19.2","","85","","","","10","","21","","9.7","","100.28","","","","-27","","Fog"
"-133.03","69.43","TUKTOYAKTUK A","2203913","2023-01-17 18:00","2023","01","17","18:00","-16.9","","-18.8","","85","","","","11","","18","","9.7","","100.23","","","","-26","","Fog"
"-133.03","69.43","TUKTOYAKTUK A","2203913","2023-01-17 19:00","2023","01","17","19:00","-16.2","","-18.1","","85","","","","13","","20","","9.7","","100.16","","","","-26","","Snow"
"-133.03","69.43","TUKTOYAKTUK A","2203913","2023-01-17 20:00","2023","01","17","20:00","-15.9","","-17.8","","86","","","","11","","16","","16.1","","100.14","","","","-24","","Snow"
"-133.03","69.43","TUKTOYAKTUK A","2203913","2023-01-17 21:00","2023","01","17","21:00","-15.7","","-17.5","","86","","","","11","","17","","16.1","","100.11","","","","-24","","Snow"
"-133.03","69.43","TUKTOYAKTUK A","2203913","2023-01-17 22:00","2023","01","17","22:00","-15.2","","-17.0","","86","","","","11","","14","","16.1","","100.07","","","","-23","","Snow"
"-133.03","69.43","TUKTOYAKTUK A","2203913","2023-01-17 23:00","2023","01","17","23:00","-14.9","","-16.7","","87","","","","12","","13","","16.1","","100.04","","","","-22","","Snow"
"-133.03","69.43","TUKTOYAKTUK A","2203913","2023-01-18 00:00","2023","01","18","00:00"
"-133.03","69.43","TUKTOYAKTUK A","2203913","2023-01-18 01:00","2023","01","18","01:00"
"-133.03","69.43","TUKTOYAKTUK A","2203913","2023-01-18 02:00","2023","01","18","02:00"
"-133.03","69.43","TUKTOYAKTUK A","2203913","2023-01-18 03:00","2023","01","18","03:00"
"-133.03","69.43","TUKTOYAKTUK A","2203913","2023-01-18 04:00","2023","01","18","04:00"
"-133.03","69.43","TUKTOYAKTUK A","2203913","2023-01-18 05:00","2023","01","18","05:00"
"-133.03","69.43","TUKTOYAKTUK A","2203913","2023-01-18 06:00","2023","01","18","06:00"
"-133.03","69.43","TUKTOYAKTUK A","2203913","2023-01-18 07:00","2023","01","18","07:00","-13.7","","-15.3","","88","","","","8","","9","","16.1","","99.81","","","","-19","","Snow"
"-133.03","69.43","TUKTOYAKTUK A","2203913","2023-01-18 08:00","2023","01","18","08:00","-13.5","","-15.1","","88","","","","9","","10","","16.1","","99.75","","","","-19","","Snow"
"-133.03","69.43","TUKTOYAKTUK A","2203913","2023-01-18 09:00","2023","01","18","09:00","-13.3","","-14.8","","88","","","","9","","10","","4.8","","99.73","","","","-19","","Snow"
"-133.03","69.43","TUKTOYAKTUK A","2203913","2023-01-18 10:00","2023","01","18","10:00","-13.5","","-15.1","","88","","","","10","","11","","16.1","","99.73","","","","-20","","Snow"
"-133.03","69.43","TUKTOYAKTUK A","2203913","2023-01-18 11:00","2023","01","18","11:00","-13.4","","-15.0","","88","","","","10","","9","","16.1","","99.69","","","","-19","","Cloudy"
"-133.03","69.43","TUKTOYAKTUK A","2203913","2023-01-18 12:00","2023","01","18","12:00","-13.4","","-15.0","","88","","","","10","","9","","16.1","","99.67","","","","-19","","NA"
"-133.03","69.43","TUKTOYAKTUK A","2203913","2023-01-18 13:00","2023","01","18","13:00","-13.4","","-15.0","","88","","","","9","","7","","16.1","","99.66","","","","-18","","Snow"
"-133.03","69.43","TUKTOYAKTUK A","2203913","2023-01-18 14:00","2023","01","18","14:00","-13.4","","-15.0","","88","","","","8","","5","","16.1","","99.64","","","","-17","","Snow"
"-133.03","69.43","TUKTOYAKTUK A","2203913","2023-01-18 15:00","2023","01","18","15:00","-13.2","","-14.8","","88","","","","5","","4","","8.1","","99.62","","","","-16","","Snow"
"-133.03","69.43","TUKTOYAKTUK A","2203913","2023-01-18 16:00","2023","01","18","16:00","-13.2","","-14.8","","88","","","","3","","4","","8.1","","99.62","","","","-16","","Snow"
"-133.03","69.43","TUKTOYAKTUK A","2203913","2023-01-18 17:00","2023","01","18","17:00","-13.4","","-15.0","","88","","","","2","","5","","9.7","","99.60","","","","-17","","Snow"
"-133.03","69.43","TUKTOYAKTUK A","2203913","2023-01-18 18:00","2023","01","18","18:00","-13.2","","-14.8","","88","","","","35","","4","","9.7","","99.58","","","","-16","","Snow"
"-133.03","69.43","TUKTOYAKTUK A","2203913","2023-01-18 19:00","2023","01","18","19:00","-13.0","","-14.6","","88","","","","35","","5","","9.7","","99.57","","","","-16","","Snow"
"-133.03","69.43","TUKTOYAKTUK A","2203913","2023-01-18 20:00","2023","01","18","20:00","-12.9","","-14.5","","88","","","","30","","9","","1.6","","99.56","","","","-18","","Snow"
"-133.03","69.43","TUKTOYAKTUK A","2203913","2023-01-18 21:00","2023","01","18","21:00","-13.2","","-14.8","","88","","","","27","","14","","1.6","","99.57","","","","-20","","Snow"
"-133.03","69.43","TUKTOYAKTUK A","2203913","2023-01-18 22:00","2023","01","18","22:00","-15.0","","-16.8","","87","","","","28","","21","","3.2","","99.59","","","","-24","","Snow"
"-133.03","69.43","TUKTOYAKTUK A","2203913","2023-01-18 23:00","2023","01","18","23:00","-15.4","","-17.2","","86","","","","28","","21","","3.2","","99.58","","","","-25","","Snow"
"-133.03","69.43","TUKTOYAKTUK A","2203913","2023-01-19 00:00","2023","01","19","00:00"
"-133.03","69.43","TUKTOYAKTUK A","2203913","2023-01-19 01:00","2023","01","19","01:00"
"-133.03","69.43","TUKTOYAKTUK A","2203913","2023-01-19 02:00","2023","01","19","02:00"
"-133.03","69.43","TUKTOYAKTUK A","2203913","2023-01-19 03:00","2023","01","19","03:00"
"-133.03","69.43","TUKTOYAKTUK A","2203913","2023-01-19 04:00","2023","01","19","04:00"
"-133.03","69.43","TUKTOYAKTUK A","2203913","2023-01-19 05:00","2023","01","19","05:00"
"-133.03","69.43","TUKTOYAKTUK A","2203913","2023-01-19 06:00","2023","01","19","06:00"
"-133.03","69.43","TUKTOYAKTUK A","2203913","2023-01-19 07:00","2023","01","19","07:00","-18.3","","-20.4","","84","","","","25","","23","","9.7","","99.66","","","","-29","","Snow,Blowing Snow"
"-133.03","69.43","TUKTOYAKTUK A","2203913","2023-01-19 08:00","2023","01","19","08:00","-19.2","","-21.4","","83","","","","25","","19","","16.1","","99.68","","","","-29","","Snow,Blowing Snow"
"-133.03","69.43","TUKTOYAKTUK A","2203913","2023-01-19 09:00","2023","01","19","09:00","-18.6","","-20.8","","84","","","","25","","22","","16.1","","99.68","","","","-29","","Snow,Blowing Snow"
"-133.03","69.43","TUKTOYAKTUK A","2203913","2023-01-19 10:00","2023","01","19","10:00","-18.4","","-20.6","","84","","","","25","","23","","16.1","","99.70","","","","-29","","Snow,Blowing Snow"
"-133.03","69.43","TUKTOYAKTUK A","2203913","2023-01-19 11:00","2023","01","19","11:00","-18.7","","-20.8","","84","","","","25","","25","","12.9","","99.72","","","","-30","","Snow,Blowing Snow"
"-133.03","69.43","TUKTOYAKTUK A","2203913","2023-01-19 12:00","2023","01","19","12:00","-18.8","","-21.0","","84","","","","25","","27","","12.9","","99.72","","","","-30","","Snow,Blowing Snow"
"-133.03","69.43","TUKTOYAKTUK A","2203913","2023-01-19 13:00","2023","01","19","13:00","-18.9","","-21.1","","83","","","","25","","23","","11.3","","99.77","","","","-30","","Snow,Blowing Snow"
"-133.03","69.43","TUKTOYAKTUK A","2203913","2023-01-19 14:00","2023","01","19","14:00","-19.5","","-21.8","","83","","","","25","","26","","9.7","","99.80","","","","-31","","Snow,Blowing Snow"
"-133.03","69.43","TUKTOYAKTUK A","2203913","2023-01-19 15:00","2023","01","19","15:00","-19.2","","-21.3","","83","","","","26","","26","","4.8","","99.85","","","","-31","","Snow,Blowing Snow"
"-133.03","69.43","TUKTOYAKTUK A","2203913","2023-01-19 16:00","2023","01","19","16:00","-19.3","","-21.5","","83","","","","27","","26","","1.6","","99.90","","","","-31","","Snow,Blowing Snow"
"-133.03","69.43","TUKTOYAKTUK A","2203913","2023-01-19 17:00","2023","01","19","17:00","-19.1","","-21.3","","83","","","","26","","19","","1.6","","99.94","","","","-29","","Snow,Blowing Snow"
"-133.03","69.43","TUKTOYAKTUK A","2203913","2023-01-19 18:00","2023","01","19","18:00","-19.1","","-21.3","","83","","","","26","","16","","4.8","","99.95","","","","-28","","Snow"
"-133.03","69.43","TUKTOYAKTUK A","2203913","2023-01-19 19:00","2023","01","19","19:00","-18.8","","-20.9","","84","","","","25","","19","","6.4","","99.99","","","","-29","","Snow"
"-133.03","69.43","TUKTOYAKTUK A","2203913","2023-01-19 20:00","2023","01","19","20:00","-18.5","","-20.6","","84","","","","25","","17","","9.7","","100.02","","","","-28","","Snow"
"-133.03","69.43","TUKTOYAKTUK A","2203913","2023-01-19 21:00","2023","01","19","21:00","-18.3","","-20.4","","84","","","","26","","21","","9.7","","100.04","","","","-29","","Snow"
"-133.03","69.43","TUKTOYAKTUK A","2203913","2023-01-19 22:00","2023","01","19","22:00","-18.4","","-20.5","","84","","","","25","","19","","9.7","","100.07","","","","-28","","Snow"
"-133.03","69.43","TUKTOYAKTUK A","2203913","2023-01-19 23:00","2023","01","19","23:00","-18.3","","-20.4","","84","","","","26","","17","","9.7","","100.10","","","","-28","","Snow"
"-133.03","69.43","TUKTOYAKTUK A","2203913","2023-01-20 00:00","2023","01","20","00:00"
"-133.03","69.43","TUKTOYAKTUK A","2203913","2023-01-20 01:00","2023","01","20","01:00"
"-133.03","69.43","TUKTOYAKTUK A","2203913","2023-01-20 02:00","2023","01","20","02:00"
"-133.03","69.43","TUKTOYAKTUK A","2203913","2023-01-20 03:00","2023","01","20","03:00"
"-133.03","69.43","TUKTOYAKTUK A","2203913","2023-01-20 04:00","2023","01","20","04:00"
"-133.03","69.43","TUKTOYAKTUK A","2203913","2023-01-20 05:00","2023","01","20","05:00"
"-133.03","69.43","TUKTOYAKTUK A","2203913","2023-01-20 06:00","2023","01","20","06:00"
"-133.03","69.43","TUKTOYAKTUK A","2203913","2023-01-20 07:00","2023","01","20","07:00","-19.4","","-21.6","","83","","","","27","","14","","16.1","","100.46","","","","-28","","Snow"
"-133.03","69.43","TUKTOYAKTUK A","2203913","2023-01-20 08:00","2023","01","20","08:00","-19.3","","-21.5","","83","","","","27","","19","","16.1","","100.50","","","","-29","","Snow"
"-133.03","69.43","TUKTOYAKTUK A","2203913","2023-01-20 09:00","2023","01","20","09:00","-19.5","","-21.7","","83","","","","28","","15","","16.1","","100.55","","","","-28","","Snow"
"-133.03","69.43","TUKTOYAKTUK A","2203913","2023-01-20 10:00","2023","01","20","10:00","-21.2","","-23.6","","82","","","","31","","10","","16.1","","100.57","","","","-29","","Snow"
"-133.03","69.43","TUKTOYAKTUK A","2203913","2023-01-20 11:00","2023","01","20","11:00","-20.8","","-23.1","","82","","","","27","","10","","24.1","","100.63","","","","-28","","Snow"
"-133.03","69.43","TUKTOYAKTUK A","2203913","2023-01-20 12:00","2023","01","20","12:00","-21.4","","-23.7","","81","","","","31","","11","","16.1","","100.71","","","","-29","","Snow"
"-133.03","69.43","TUKTOYAKTUK A","2203913","2023-01-20 13:00","2023","01","20","13:00","-21.8","","-24.2","","81","","","","29","","4","","16.1","","100.76","","","","-25","","Snow"
"-133.03","69.43","TUKTOYAKTUK A","2203913","2023-01-20 14:00","2023","01","20","14:00","-22.3","","-24.7","","81","","","","25","","9","","24.1","","100.81","","","","-29","","Mostly Cloudy"
"-133.03","69.43","TUKTOYAKTUK A","2203913","2023-01-20 15:00","2023","01","20","15:00","-24.1","","-26.7","","80","","","","29","","11","","24.1","","100.87","","","","-33","","NA"
"-133.03","69.43","TUKTOYAKTUK A","2203913","2023-01-20 16:00","2023","01","20","16:00","-24.6","","-27.2","","79","","","","26","","4","","24.1","","100.92","","","","-29","","NA"
"-133.03","69.43","TUKTOYAKTUK A","2203913","2023-01-20 17:00","2023","01","20","17:00","-23.2","","-25.8","","80","","","","27","","11","","24.1","","100.92","","","","-31","","Mostly Cloudy"
"-133.03","69.43","TUKTOYAKTUK A","2203913","2023-01-20 18:00","2023","01","20","18:00","-24.1","","-26.7","","80","","","","33","","7","","24.1","","100.96","","","","-30","","NA"
"-133.03","69.43","TUKTOYAKTUK A","2203913","2023-01-20 19:00","2023","01","20","19:00","-25.4","","-28.1","","79","","","","27","","4","","16.1","","100.99","","","","-29","","NA"
"-133.03","69.43","TUKTOYAKTUK A","2203913","2023-01-20 20:00","2023","01","20","20:00","-25.5","","-28.1","","79","","","","23","","4","","0.8","","101.02","","","","-30","","Freezing Fog"
"-133.03","69.43","TUKTOYAKTUK A","2203913","2023-01-20 21:00","2023","01","20","21:00","-24.4","","-27.0","","79","","","","1","","4","","1.6","","100.98","","","","-28","","Fog"
"-133.03","69.43","TUKTOYAKTUK A","2203913","2023-01-20 22:00","2023","01","20","22:00","-23.8","","-26.4","","80","","","","36","","1","","1.6","","101.03","","","","-25","","Fog"
"-133.03","69.43","TUKTOYAKTUK A","2203913","2023-01-20 23:00","2023","01","20","23:00","-23.3","","-25.8","","80","","","","5","","7","","1.6","","101.00","","","","-29","","Fog"
"-133.03","69.43","TUKTOYAKTUK A","2203913","2023-01-21 00:00","2023","01","21","00:00"
"-133.03","69.43","TUKTOYAKTUK A","2203913","2023-01-21 01:00","2023","01","21","01:00"
"-133.03","69.43","TUKTOYAKTUK A","2203913","2023-01-21 02:00","2023","01","21","02:00"
"-133.03","69.43","TUKTOYAKTUK A","2203913","2023-01-21 03:00","2023","01","21","03:00"
"-133.03","69.43","TUKTOYAKTUK A","2203913","2023-01-21 04:00","2023","01","21","04:00"
"-133.03","69.43","TUKTOYAKTUK A","2203913","2023-01-21 05:00","2023","01","21","05:00"
"-133.03","69.43","TUKTOYAKTUK A","2203913","2023-01-21 06:00","2023","01","21","06:00"
"-133.03","69.43","TUKTOYAKTUK A","2203913","2023-01-21 07:00","2023","01","21","07:00","-21.2","","-23.6","","81","","","","7","","9","","9.7","","101.16","","","","-28","","Fog"
"-133.03","69.43","TUKTOYAKTUK A","2203913","2023-01-21 08:00","2023","01","21","08:00","-20.7","","-23.1","","82","","","","7","","13","","9.7","","101.17","","","","-29","","Fog"
"-133.03","69.43","TUKTOYAKTUK A","2203913","2023-01-21 09:00","2023","01","21","09:00","-20.2","","-22.4","","82","","","","7","","10","","9.7","","101.19","","","","-27","","Snow"
"-133.03","69.43","TUKTOYAKTUK A","2203913","2023-01-21 10:00","2023","01","21","10:00","-19.4","","-21.6","","83","","","","5","","10","","16.1","","101.20","","","","-26","","Snow"
"-133.03","69.43","TUKTOYAKTUK A","2203913","2023-01-21 11:00","2023","01","21","11:00","-19.0","","-21.1","","83","","","","8","","8","","16.1","","101.25","","","","-25","","Snow"
"-133.03","69.43","TUKTOYAKTUK A","2203913","2023-01-21 12:00","2023","01","21","12:00","-18.4","","-20.6","","84","","","","7","","8","","16.1","","101.34","","","","-24","","Snow"
"-133.03","69.43","TUKTOYAKTUK A","2203913","2023-01-21 13:00","2023","01","21","13:00","-17.9","","-20.0","","84","","","","1","","12","","24.1","","101.39","","","","-25","","Snow"
"-133.03","69.43","TUKTOYAKTUK A","2203913","2023-01-21 14:00","2023","01","21","14:00","-17.9","","-19.9","","84","","","","4","","10","","24.1","","101.47","","","","-25","","Snow"
"-133.03","69.43","TUKTOYAKTUK A","2203913","2023-01-21 15:00","2023","01","21","15:00","-17.6","","-19.6","","84","","","","4","","8","","16.1","","101.53","","","","-23","","Snow"
"-133.03","69.43","TUKTOYAKTUK A","2203913","2023-01-21 16:00","2023","01","21","16:00","-17.1","","-19.1","","85","","","","36","","2","","16.1","","101.57","","","","-19","","Snow"
"-133.03","69.43","TUKTOYAKTUK A","2203913","2023-01-21 17:00","2023","01","21","17:00","-16.6","","-18.6","","85","","","","3","","13","","16.1","","101.62","","","","-24","","Snow"
"-133.03","69.43","TUKTOYAKTUK A","2203913","2023-01-21 18:00","2023","01","21","18:00","-16.4","","-18.3","","85","","","","4","","5","","16.1","","101.64","","","","-20","","Snow"
"-133.03","69.43","TUKTOYAKTUK A","2203913","2023-01-21 19:00","2023","01","21","19:00","-16.2","","-18.1","","85","","","","4","","8","","16.1","","101.69","","","","-22","","Snow"
"-133.03","69.43","TUKTOYAKTUK A","2203913","2023-01-21 20:00","2023","01","21","20:00","-16.1","","-17.9","","86","","","","36","","3","","16.1","","101.74","","","","-18","","Snow"
"-133.03","69.43","TUKTOYAKTUK A","2203913","2023-01-21 21:00","2023","01","21","21:00","-16.0","","-17.9","","86","","","","5","","4","","16.1","","101.81","","","","-19","","Snow"
"-133.03","69.43","TUKTOYAKTUK A","2203913","2023-01-21 22:00","2023","01","21","22:00","-15.8","","-17.7","","86","","","","7","","7","","16.1","","101.85","","","","-21","","Snow"
"-133.03","69.43","TUKTOYAKTUK A","2203913","2023-01-21 23:00","2023","01","21","23:00","-15.5","","-17.3","","86","","","","8","","3","","16.1","","101.89","","","","-18","","Snow"
"-133.03","69.43","TUKTOYAKTUK A","2203913","2023-01-22 00:00","2023","01","22","00:00"
"-133.03","69.43","TUKTOYAKTUK A","2203913","2023-01-22 01:00","2023","01","22","01:00"
"-133.03","69.43","TUKTOYAKTUK A","2203913","2023-01-22 02:00","2023","01","22","02:00"
"-133.03","69.43","TUKTOYAKTUK A","2203913","2023-01-22 03:00","2023","01","22","03:00"
"-133.03","69.43","TUKTOYAKTUK A","2203913","2023-01-22 04:00","2023","01","22","04:00"
"-133.03","69.43","TUKTOYAKTUK A","2203913","2023-01-22 05:00","2023","01","22","05:00"
"-133.03","69.43","TUKTOYAKTUK A","2203913","2023-01-22 06:00","2023","01","22","06:00"
"-133.03","69.43","TUKTOYAKTUK A","2203913","2023-01-22 07:00","2023","01","22","07:00","-15.1","","-16.9","","86","","","","7","","5","","16.1","","102.21","","","","-19","","Snow"
"-133.03","69.43","TUKTOYAKTUK A","2203913","2023-01-22 08:00","2023","01","22","08:00","-15.1","","-16.9","","86","","","","7","","7","","24.1","","102.24","","","","-20","","Snow"
"-133.03","69.43","TUKTOYAKTUK A","2203913","2023-01-22 09:00","2023","01","22","09:00","-15.2","","-17.0","","86","","","","7","","7","","24.1","","102.24","","","","-20","","Snow"
"-133.03","69.43","TUKTOYAKTUK A","2203913","2023-01-22 10:00","2023","01","22","10:00","-15.4","","-17.2","","86","","","","3","","5","","24.1","","102.24","","","","-19","","Snow"
"-133.03","69.43","TUKTOYAKTUK A","2203913","2023-01-22 11:00","2023","01","22","11:00","-15.4","","-17.2","","86","","","","4","","4","","24.1","","102.26","","","","-18","","Snow"
"-133.03","69.43","TUKTOYAKTUK A","2203913","2023-01-22 12:00","2023","01","22","12:00","-15.5","","-17.3","","86","","","","34","","4","","12.9","","102.28","","","","-18","","Snow"
"-133.03","69.43","TUKTOYAKTUK A","2203913","2023-01-22 13:00","2023","01","22","13:00","-16.8","","-18.7","","85","","","","34","","16","","12.9","","102.27","","","","-25","","Snow"
"-133.03","69.43","TUKTOYAKTUK A","2203913","2023-01-22 14:00","2023","01","22","14:00","-17.0","","-19.0","","85","","","","34","","17","","11.3","","102.26","","","","-26","","Snow"
"-133.03","69.43","TUKTOYAKTUK A","2203913","2023-01-22 15:00","2023","01","22","15:00","-17.1","","-19.1","","85","","","","35","","19","","11.3","","102.26","","","","-27","","Snow"
"-133.03","69.43","TUKTOYAKTUK A","2203913","2023-01-22 16:00","2023","01","22","16:00","-16.9","","-18.9","","85","","","","36","","15","","9.7","","102.25","","","","-25","","Snow"
"-133.03","69.43","TUKTOYAKTUK A","2203913","2023-01-22 17:00","2023","01","22","17:00","-16.6","","-18.6","","85","","","","36","","9","","9.7","","102.21","","","","-23","","Snow"
"-133.03","69.43","TUKTOYAKTUK A","2203913","2023-01-22 18:00","2023","01","22","18:00","-15.9","","-17.8","","86","","","","7","","12","","9.7","","102.18","","","","-23","","Snow"
"-133.03","69.43","TUKTOYAKTUK A","2203913","2023-01-22 19:00","2023","01","22","19:00","-16.3","","-18.2","","86","","","","7","","9","","9.7","","102.12","","","","-22","","Snow"
"-133.03","69.43","TUKTOYAKTUK A","2203913","2023-01-22 20:00","2023","01","22","20:00","-16.8","","-18.7","","85","","","","8","","13","","9.7","","102.09","","","","-25","","Snow"
"-133.03","69.43","TUKTOYAKTUK A","2203913","2023-01-22 21:00","2023","01","22","21:00","-17.7","","-19.8","","84","","","","9","","22","","9.7","","102.04","","","","-28","","Snow"
"-133.03","69.43","TUKTOYAKTUK A","2203913","2023-01-22 22:00","2023","01","22","22:00","-18.6","","-20.7","","84","","","","9","","22","","9.7","","102.00","","","","-29","","Snow"
"-133.03","69.43","TUKTOYAKTUK A","2203913","2023-01-22 23:00","2023","01","22","23:00","-19.4","","-21.5","","83","","","","8","","21","","9.7","","101.99","","","","-30","","Snow"
"-133.03","69.43","TUKTOYAKTUK A","2203913","2023-01-23 00:00","2023","01","23","00:00"
"-133.03","69.43","TUKTOYAKTUK A","2203913","2023-01-23 01:00","2023","01","23","01:00"
"-133.03","69.43","TUKTOYAKTUK A","2203913","2023-01-23 02:00","2023","01","23","02:00"
"-133.03","69.43","TUKTOYAKTUK A","2203913","2023-01-23 03:00","2023","01","23","03:00"
"-133.03","69.43","TUKTOYAKTUK A","2203913","2023-01-23 04:00","2023","01","23","04:00"
"-133.03","69.43","TUKTOYAKTUK A","2203913","2023-01-23 05:00","2023","01","23","05:00"
"-133.03","69.43","TUKTOYAKTUK A","2203913","2023-01-23 06:00","2023","01","23","06:00"
"-133.03","69.43","TUKTOYAKTUK A","2203913","2023-01-23 07:00","2023","01","23","07:00","-20.8","","-23.2","","82","","","","8","","18","","16.1","","101.77","","","","-31","","Snow"
"-133.03","69.43","TUKTOYAKTUK A","2203913","2023-01-23 08:00","2023","01","23","08:00","-20.2","","-22.5","","82","","","","10","","23","","16.1","","101.79","","","","-31","","Snow"
"-133.03","69.43","TUKTOYAKTUK A","2203913","2023-01-23 09:00","2023","01","23","09:00","-20.6","","-22.9","","82","","","","10","","24","","24.1","","101.82","","","","-32","","Snow"
"-133.03","69.43","TUKTOYAKTUK A","2203913","2023-01-23 10:00","2023","01","23","10:00","-21.4","","-23.8","","81","","","","10","","19","","24.1","","101.83","","","","-32","","Snow"
"-133.03","69.43","TUKTOYAKTUK A","2203913","2023-01-23 11:00","2023","01","23","11:00","-21.8","","-24.2","","81","","","","9","","16","","24.1","","101.84","","","","-32","","Snow"
"-133.03","69.43","TUKTOYAKTUK A","2203913","2023-01-23 12:00","2023","01","23","12:00","-21.8","","-24.2","","81","","","","9","","16","","9.7","","101.85","","","","-32","","Snow"
"-133.03","69.43","TUKTOYAKTUK A","2203913","2023-01-23 13:00","2023","01","23","13:00","-22.8","","-25.3","","80","","","","7","","19","","6.4","","101.85","","","","-34","","Snow"
"-133.03","69.43","TUKTOYAKTUK A","2203913","2023-01-23 14:00","2023","01","23","14:00","-23.2","","-25.7","","80","","","","7","","15","","8.1","","101.86","","","","-33","","Snow"
"-133.03","69.43","TUKTOYAKTUK A","2203913","2023-01-23 15:00","2023","01","23","15:00","-23.0","","-25.5","","80","","","","8","","12","","6.4","","101.86","","","","-32","","Snow"
"-133.03","69.43","TUKTOYAKTUK A","2203913","2023-01-23 16:00","2023","01","23","16:00","-23.5","","-26.1","","80","","","","5","","13","","8.1","","101.88","","","","-33","","Snow"
"-133.03","69.43","TUKTOYAKTUK A","2203913","2023-01-23 17:00","2023","01","23","17:00","-24.7","","-27.3","","79","","","","3","","13","","16.1","","101.92","","","","-34","","Mainly Clear"
"-133.03","69.43","TUKTOYAKTUK A","2203913","2023-01-23 18:00","2023","01","23","18:00","-26.4","","-29.2","","78","","","","7","","23","","24.1","","101.85","","","","-39","","NA"
"-133.03","69.43","TUKTOYAKTUK A","2203913","2023-01-23 19:00","2023","01","23","19:00","-28.0","","-30.9","","77","","","","8","","16","","24.1","","101.89","","","","-39","","NA"
"-133.03","69.43","TUKTOYAKTUK A","2203913","2023-01-23 20:00","2023","01","23","20:00","-27.9","","-30.8","","77","","","","7","","16","","24.1","","101.90","","","","-39","","Mainly Clear"
"-133.03","69.43","TUKTOYAKTUK A","2203913","2023-01-23 21:00","2023","01","23","21:00","-27.3","","-30.2","","77","","","","9","","17","","24.1","","101.90","","","","-39","","NA"
"-133.03","69.43","TUKTOYAKTUK A","2203913","2023-01-23 22:00","2023","01","23","22:00","-26.7","","-29.5","","78","","","","10","","18","","24.1","","101.89","","","","-38","","NA"
"-133.03","69.43","TUKTOYAKTUK A","2203913","2023-01-23 23:00","2023","01","23","23:00","-25.9","","-28.6","","78","","","","10","","16","","24.1","","101.87","","","","-37","","Mostly Cloudy"
"-133.03","69.43","TUKTOYAKTUK A","2203913","2023-01-24 00:00","2023","01","24","00:00"
"-133.03","69.43","TUKTOYAKTUK A","2203913","2023-01-24 01:00","2023","01","24","01:00"
"-133.03","69.43","TUKTOYAKTUK A","2203913","2023-01-24 02:00","2023","01","24","02:00"
"-133.03","69.43","TUKTOYAKTUK A","2203913","2023-01-24 03:00","2023","01","24","03:00"
"-133.03","69.43","TUKTOYAKTUK A","2203913","2023-01-24 04:00","2023","01","24","04:00"
"-133.03","69.43","TUKTOYAKTUK A","2203913","2023-01-24 05:00","2023","01","24","05:00"
"-133.03","69.43","TUKTOYAKTUK A","2203913","2023-01-24 06:00","2023","01","24","06:00"
"-133.03","69.43","TUKTOYAKTUK A","2203913","2023-01-24 07:00","2023","01","24","07:00","-23.9","","-26.5","","79","","","","10","","16","","24.1","","102.05","","","","-34","","Snow"
"-133.03","69.43","TUKTOYAKTUK A","2203913","2023-01-24 08:00","2023","01","24","08:00","-23.3","","-25.9","","80","","","","7","","17","","24.1","","102.11","","","","-34","","Snow"
"-133.03","69.43","TUKTOYAKTUK A","2203913","2023-01-24 09:00","2023","01","24","09:00","-23.2","","-25.7","","80","","","","9","","21","","24.1","","102.07","","","","-35","","Snow"
"-133.03","69.43","TUKTOYAKTUK A","2203913","2023-01-24 10:00","2023","01","24","10:00","-22.8","","-25.3","","80","","","","9","","15","","24.1","","102.12","","","","-33","","Snow"
"-133.03","69.43","TUKTOYAKTUK A","2203913","2023-01-24 11:00","2023","01","24","11:00","-22.5","","-25.0","","80","","","","9","","26","","24.1","","102.10","","","","-35","","Snow"
"-133.03","69.43","TUKTOYAKTUK A","2203913","2023-01-24 12:00","2023","01","24","12:00","-22.0","","-24.5","","81","","","","9","","23","","24.1","","102.14","","","","-34","","Snow"
"-133.03","69.43","TUKTOYAKTUK A","2203913","2023-01-24 13:00","2023","01","24","13:00","-22.0","","-24.4","","81","","","","10","","18","","24.1","","102.19","","","","-32","","Snow"
"-133.03","69.43","TUKTOYAKTUK A","2203913","2023-01-24 14:00","2023","01","24","14:00","-21.4","","-23.8","","81","","","","10","","23","","24.1","","102.20","","","","-33","","Snow"
"-133.03","69.43","TUKTOYAKTUK A","2203913","2023-01-24 15:00","2023","01","24","15:00","-21.2","","-23.6","","81","","","","9","","23","","11.3","","102.23","","","","-33","","Snow,Blowing Snow"
"-133.03","69.43","TUKTOYAKTUK A","2203913","2023-01-24 16:00","2023","01","24","16:00","-21.1","","-23.4","","82","","","","10","","23","","9.7","","102.23","","","","-33","","Snow,Blowing Snow"
"-133.03","69.43","TUKTOYAKTUK A","2203913","2023-01-24 17:00","2023","01","24","17:00","-20.9","","-23.3","","82","","","","9","","25","","9.7","","102.23","","","","-33","","Snow,Blowing Snow"
"-133.03","69.43","TUKTOYAKTUK A","2203913","2023-01-24 18:00","2023","01","24","18:00","-20.5","","-22.8","","82","","","","9","","26","","12.9","","102.21","","","","-32","","Snow,Blowing Snow"
"-133.03","69.43","TUKTOYAKTUK A","2203913","2023-01-24 19:00","2023","01","24","19:00","-20.3","","-22.6","","82","","","","9","","23","","9.7","","102.24","","","","-32","","Snow,Blowing Snow"
"-133.03","69.43","TUKTOYAKTUK A","2203913","2023-01-24 20:00","2023","01","24","20:00","-20.3","","-22.6","","82","","","","8","","23","","4.8","","102.29","","","","-32","","Snow,Blowing Snow"
"-133.03","69.43","TUKTOYAKTUK A","2203913","2023-01-24 21:00","2023","01","24","21:00","-20.3","","-22.6","","82","","","","9","","26","","2.4","","102.31","","","","-32","","Snow,Blowing Snow"
"-133.03","69.43","TUKTOYAKTUK A","2203913","2023-01-24 22:00","2023","01","24","22:00","-20.3","","-22.6","","82","","","","9","","21","","2.4","","102.30","","","","-31","","Snow,Blowing Snow"
"-133.03","69.43","TUKTOYAKTUK A","2203913","2023-01-24 23:00","2023","01","24","23:00","-20.4","","-22.7","","82","","","","10","","20","","9.7","","102.33","","","","-31","","Snow,Blowing Snow"
"-133.03","69.43","TUKTOYAKTUK A","2203913","2023-01-25 00:00","2023","01","25","00:00"
"-133.03","69.43","TUKTOYAKTUK A","2203913","2023-01-25 01:00","2023","01","25","01:00"
"-133.03","69.43","TUKTOYAKTUK A","2203913","2023-01-25 02:00","2023","01","25","02:00"
"-133.03","69.43","TUKTOYAKTUK A","2203913","2023-01-25 03:00","2023","01","25","03:00"
"-133.03","69.43","TUKTOYAKTUK A","2203913","2023-01-25 04:00","2023","01","25","04:00"
"-133.03","69.43","TUKTOYAKTUK A","2203913","2023-01-25 05:00","2023","01","25","05:00"
"-133.03","69.43","TUKTOYAKTUK A","2203913","2023-01-25 06:00","2023","01","25","06:00"
"-133.03","69.43","TUKTOYAKTUK A","2203913","2023-01-25 07:00","2023","01","25","07:00","-22.1","","-24.5","","81","","","","5","","14","","24.1","","102.40","","","","-31","","NA"
"-133.03","69.43","TUKTOYAKTUK A","2203913","2023-01-25 08:00","2023","01","25","08:00","-22.9","","-25.4","","80","","","","6","","15","","24.1","","102.35","","","","-33","","Mainly Clear"
"-133.03","69.43","TUKTOYAKTUK A","2203913","2023-01-25 09:00","2023","01","25","09:00","-22.8","","-25.3","","80","","","","5","","24","","24.1","","102.32","","","","-35","","NA"
"-133.03","69.43","TUKTOYAKTUK A","2203913","2023-01-25 10:00","2023","01","25","10:00","-22.7","","-25.2","","80","","","","6","","21","","24.1","","102.36","","","","-34","","NA"
"-133.03","69.43","TUKTOYAKTUK A","2203913","2023-01-25 11:00","2023","01","25","11:00","-24.3","","-26.9","","79","","","","6","","19","","24.1","","102.35","","","","-36","","Mostly Cloudy"
"-133.03","69.43","TUKTOYAKTUK A","2203913","2023-01-25 12:00","2023","01","25","12:00","-23.5","","-26.1","","80","","","","5","","17","","24.1","","102.35","","","","-34","","NA"
"-133.03","69.43","TUKTOYAKTUK A","2203913","2023-01-25 13:00","2023","01","25","13:00","-23.1","","-25.6","","80","","","","5","","21","","24.1","","102.32","","","","-35","","NA"
"-133.03","69.43","TUKTOYAKTUK A","2203913","2023-01-25 14:00","2023","01","25","14:00","-22.9","","-25.5","","80","","","","7","","24","","16.1","","102.32","","","","-35","","Snow"
"-133.03","69.43","TUKTOYAKTUK A","2203913","2023-01-25 15:00","2023","01","25","15:00","-22.6","","-25.1","","80","","","","5","","26","","11.3","","102.34","","","","-35","","Snow,Blowing Snow"
"-133.03","69.43","TUKTOYAKTUK A","2203913","2023-01-25 16:00","2023","01","25","16:00","-25.0","","-27.7","","79","","","","4","","17","","11.3","","102.38","","","","-36","","Snow,Blowing Snow"
"-133.03","69.43","TUKTOYAKTUK A","2203913","2023-01-25 17:00","2023","01","25","17:00","-26.3","","-29.1","","78","","","","4","","15","","24.1","","102.40","","","","-37","","Clear"
"-133.03","69.43","TUKTOYAKTUK A","2203913","2023-01-25 18:00","2023","01","25","18:00","-27.8","","-30.7","","77","","","","3","","14","","24.1","","102.42","","","","-38","","NA"
"-133.03","69.43","TUKTOYAKTUK A","2203913","2023-01-25 19:00","2023","01","25","19:00","-28.0","","-30.9","","77","","","","2","","8","","24.1","","102.52","","","","-36","","NA"
"-133.03","69.43","TUKTOYAKTUK A","2203913","2023-01-25 20:00","2023","01","25","20:00","-28.5","","-31.4","","76","","","","2","","10","","24.1","","102.55","","","","-37","","Clear"
"-133.03","69.43","TUKTOYAKTUK A","2203913","2023-01-25 21:00","2023","01","25","21:00","-28.5","","-31.4","","76","","","","2","","15","","24.1","","102.60","","","","-40","","NA"
"-133.03","69.43","TUKTOYAKTUK A","2203913","2023-01-25 22:00","2023","01","25","22:00","-29.7","","-32.8","","75","","","","1","","11","","24.1","","102.67","","","","-39","","NA"
"-133.03","69.43","TUKTOYAKTUK A","2203913","2023-01-25 23:00","2023","01","25","23:00","-30.7","","-33.8","","75","","","","3","","13","","24.1","","102.68","","","","-41","","Clear"
"-133.03","69.43","TUKTOYAKTUK A","2203913","2023-01-26 00:00","2023","01","26","00:00"
"-133.03","69.43","TUKTOYAKTUK A","2203913","2023-01-26 01:00","2023","01","26","01:00"
"-133.03","69.43","TUKTOYAKTUK A","2203913","2023-01-26 02:00","2023","01","26","02:00"
"-133.03","69.43","TUKTOYAKTUK A","2203913","2023-01-26 03:00","2023","01","26","03:00"
"-133.03","69.43","TUKTOYAKTUK A","2203913","2023-01-26 04:00","2023","01","26","04:00"
"-133.03","69.43","TUKTOYAKTUK A","2203913","2023-01-26 05:00","2023","01","26","05:00"
"-133.03","69.43","TUKTOYAKTUK A","2203913","2023-01-26 06:00","2023","01","26","06:00"
"-133.03","69.43","TUKTOYAKTUK A","2203913","2023-01-26 07:00","2023","01","26","07:00"
"-133.03","69.43","TUKTOYAKTUK A","2203913","2023-01-26 08:00","2023","01","26","08:00","-33.4","","-36.7","","73","","","","36","","5","","24.1","","102.97","","","","-39","","Mainly Clear"
"-133.03","69.43","TUKTOYAKTUK A","2203913","2023-01-26 09:00","2023","01","26","09:00","-34.1","","-37.5","","72","","","","3","","3","","24.1","","103.00","","","","-38","","NA"
"-133.03","69.43","TUKTOYAKTUK A","2203913","2023-01-26 10:00","2023","01","26","10:00","-34.8","","-38.2","","72","","","","5","","6","","24.1","","103.02","","","","-42","","NA"
"-133.03","69.43","TUKTOYAKTUK A","2203913","2023-01-26 11:00","2023","01","26","11:00","-34.2","","-37.6","","72","","","","13","","7","","24.1","","103.04","","","","-42","","Mainly Clear"
"-133.03","69.43","TUKTOYAKTUK A","2203913","2023-01-26 12:00","2023","01","26","12:00","-34.9","","-38.3","","72","","","","9","","13","","24.1","","103.07","","","","-47","","NA"
"-133.03","69.43","TUKTOYAKTUK A","2203913","2023-01-26 13:00","2023","01","26","13:00","-35.0","","-38.4","","72","","","","11","","10","","24.1","","103.07","","","","-45","","NA"
"-133.03","69.43","TUKTOYAKTUK A","2203913","2023-01-26 14:00","2023","01","26","14:00","-35.9","","-39.3","","71","","","","13","","5","","24.1","","103.13","","","","-42","","Mainly Clear"
"-133.03","69.43","TUKTOYAKTUK A","2203913","2023-01-26 15:00","2023","01","26","15:00","-36.4","","-39.9","","71","","","","7","","4","","24.1","","103.23","","","","-42","","NA"
"-133.03","69.43","TUKTOYAKTUK A","2203913","2023-01-26 16:00","2023","01","26","16:00","-36.1","","-39.6","","71","","","","6","","13","","24.1","","103.27","","","","-48","","NA"
"-133.03","69.43","TUKTOYAKTUK A","2203913","2023-01-26 17:00","2023","01","26","17:00","-36.7","","-40.2","","71","","","","14","","5","","24.1","","103.34","","","","-43","","Clear"
"-133.03","69.43","TUKTOYAKTUK A","2203913","2023-01-26 18:00","2023","01","26","18:00","-37.6","","-41.2","","70","","","","12","","5","","24.1","","103.41","","","","-44","","NA"
"-133.03","69.43","TUKTOYAKTUK A","2203913","2023-01-26 19:00","2023","01","26","19:00","-36.7","","-40.2","","71","","","","0","","1","","24.1","","103.51","","","","-38","","NA"
"-133.03","69.43","TUKTOYAKTUK A","2203913","2023-01-26 20:00","2023","01","26","20:00","-37.3","","-40.9","","70","","","","11","","4","","24.1","","103.56","","","","-43","","Clear"
"-133.03","69.43","TUKTOYAKTUK A","2203913","2023-01-26 21:00","2023","01","26","21:00","-37.9","","-41.6","","70","","","","6","","6","","24.1","","103.60","","","","-46","","NA"
"-133.03","69.43","TUKTOYAKTUK A","2203913","2023-01-26 22:00","2023","01","26","22:00","-37.8","","-41.4","","70","","","","6","","10","","24.1","","103.63","","","","-48","","NA"
"-133.03","69.43","TUKTOYAKTUK A","2203913","2023-01-26 23:00","2023","01","26","23:00","-38.2","","-41.9","","70","","","","10","","8","","24.1","","103.74","","","","-48","","Clear"
"-133.03","69.43","TUKTOYAKTUK A","2203913","2023-01-27 00:00","2023","01","27","00:00"
"-133.03","69.43","TUKTOYAKTUK A","2203913","2023-01-27 01:00","2023","01","27","01:00"
"-133.03","69.43","TUKTOYAKTUK A","2203913","2023-01-27 02:00","2023","01","27","02:00"
"-133.03","69.43","TUKTOYAKTUK A","2203913","2023-01-27 03:00","2023","01","27","03:00"
"-133.03","69.43","TUKTOYAKTUK A","2203913","2023-01-27 04:00","2023","01","27","04:00"
"-133.03","69.43","TUKTOYAKTUK A","2203913","2023-01-27 05:00","2023","01","27","05:00"
"-133.03","69.43","TUKTOYAKTUK A","2203913","2023-01-27 06:00","2023","01","27","06:00"
"-133.03","69.43","TUKTOYAKTUK A","2203913","2023-01-27 07:00","2023","01","27","07:00","-37.5","","-41.1","","70","","","","36","","2","","24.1","","104.54","","","","-40","","NA"
"-133.03","69.43","TUKTOYAKTUK A","2203913","2023-01-27 08:00","2023","01","27","08:00","-37.4","","-41.0","","70","","","","27","","13","","24.1","","104.65","","","","-50","","Clear"
"-133.03","69.43","TUKTOYAKTUK A","2203913","2023-01-27 09:00","2023","01","27","09:00","-36.6","","-40.2","","70","","","","26","","15","","24.1","","104.75","","","","-50","","NA"
"-133.03","69.43","TUKTOYAKTUK A","2203913","2023-01-27 10:00","2023","01","27","10:00","-35.3","","-38.8","","71","","","","27","","14","","24.1","","104.80","","","","-48","","NA"
"-133.03","69.43","TUKTOYAKTUK A","2203913","2023-01-27 11:00","2023","01","27","11:00","-32.8","","-36.1","","73","","","","29","","16","","12.9","","104.87","","","","-45","","Mostly Cloudy"
"-133.03","69.43","TUKTOYAKTUK A","2203913","2023-01-27 12:00","2023","01","27","12:00","-33.1","","-36.5","","72","","","","27","","16","","12.9","","104.95","","","","-46","","NA"
"-133.03","69.43","TUKTOYAKTUK A","2203913","2023-01-27 13:00","2023","01","27","13:00","-32.1","","-35.4","","73","","","","27","","17","","4.8","","104.97","","","","-45","","Fog"
"-133.03","69.43","TUKTOYAKTUK A","2203913","2023-01-27 14:00","2023","01","27","14:00","-32.5","","-35.9","","73","","","","27","","22","","4.8","","105.03","","","","-47","","Fog"
"-133.03","69.43","TUKTOYAKTUK A","2203913","2023-01-27 15:00","2023","01","27","15:00","-33.0","","-36.4","","72","","","","27","","20","","3.2","","105.05","","","","-47","","Fog"
"-133.03","69.43","TUKTOYAKTUK A","2203913","2023-01-27 16:00","2023","01","27","16:00","-33.0","","-36.3","","73","","","","27","","19","","4.8","","105.09","","","","-47","","Fog"
"-133.03","69.43","TUKTOYAKTUK A","2203913","2023-01-27 17:00","2023","01","27","17:00","-33.2","","-36.6","","72","","","","28","","16","","9.7","","105.08","","","","-46","","Fog"
"-133.03","69.43","TUKTOYAKTUK A","2203913","2023-01-27 18:00","2023","01","27","18:00","-33.1","","-36.5","","72","","","","25","","20","","16.1","","105.09","","","","-47","","NA"
"-133.03","69.43","TUKTOYAKTUK A","2203913","2023-01-27 19:00","2023","01","27","19:00","-32.6","","-36.0","","73","","","","25","","14","","24.1","","105.13","","","","-44","","NA"
"-133.03","69.43","TUKTOYAKTUK A","2203913","2023-01-27 20:00","2023","01","27","20:00","-32.7","","-36.1","","73","","","","25","","15","","16.1","","105.10","","","","-45","","Mainly Clear"
"-133.03","69.43","TUKTOYAKTUK A","2203913","2023-01-27 21:00","2023","01","27","21:00","-33.3","","-36.7","","72","","","","24","","17","","16.1","","105.11","","","","-46","","NA"
"-133.03","69.43","TUKTOYAKTUK A","2203913","2023-01-27 22:00","2023","01","27","22:00","-32.7","","-36.1","","73","","","","26","","14","","24.1","","105.07","","","","-44","","NA"
"-133.03","69.43","TUKTOYAKTUK A","2203913","2023-01-27 23:00","2023","01","27","23:00","-34.5","","-38.0","","72","","","","24","","14","","24.1","","105.03","","","","-47","","Mostly Cloudy"
"-133.03","69.43","TUKTOYAKTUK A","2203913","2023-01-28 00:00","2023","01","28","00:00"
"-133.03","69.43","TUKTOYAKTUK A","2203913","2023-01-28 01:00","2023","01","28","01:00"
"-133.03","69.43","TUKTOYAKTUK A","2203913","2023-01-28 02:00","2023","01","28","02:00"
"-133.03","69.43","TUKTOYAKTUK A","2203913","2023-01-28 03:00","2023","01","28","03:00"
"-133.03","69.43","TUKTOYAKTUK A","2203913","2023-01-28 04:00","2023","01","28","04:00"
"-133.03","69.43","TUKTOYAKTUK A","2203913","2023-01-28 05:00","2023","01","28","05:00"
"-133.03","69.43","TUKTOYAKTUK A","2203913","2023-01-28 06:00","2023","01","28","06:00"
"-133.03","69.43","TUKTOYAKTUK A","2203913","2023-01-28 07:00","2023","01","28","07:00","-30.9","","-34.1","","74","","","","15","","12","","24.1","","104.53","","","","-41","","NA"
"-133.03","69.43","TUKTOYAKTUK A","2203913","2023-01-28 08:00","2023","01","28","08:00","-30.7","","-33.9","","74","","","","16","","10","","24.1","","104.42","","","","-40","","Clear"
"-133.03","69.43","TUKTOYAKTUK A","2203913","2023-01-28 09:00","2023","01","28","09:00","-31.0","","-34.3","","74","","","","16","","13","","24.1","","104.26","","","","-42","","NA"
"-133.03","69.43","TUKTOYAKTUK A","2203913","2023-01-28 10:00","2023","01","28","10:00","-29.1","","-32.3","","75","","","","14","","18","","24.1","","104.11","","","","-41","","NA"
"-133.03","69.43","TUKTOYAKTUK A","2203913","2023-01-28 11:00","2023","01","28","11:00","-29.0","","-32.1","","75","","","","15","","18","","24.1","","103.97","","","","-41","","Clear"
"-133.03","69.43","TUKTOYAKTUK A","2203913","2023-01-28 12:00","2023","01","28","12:00","-28.1","","-31.2","","76","","","","14","","22","","1.6","","103.79","","","","-41","","Fog"
"-133.03","69.43","TUKTOYAKTUK A","2203913","2023-01-28 13:00","2023","01","28","13:00","-26.7","","-29.6","","77","","","","14","","23","","1.6","","103.65","","","","-40","","Fog"
"-133.03","69.43","TUKTOYAKTUK A","2203913","2023-01-28 14:00","2023","01","28","14:00","-25.2","","-28.0","","78","","","","15","","21","","16.1","","103.48","","","","-37","","Blowing Snow"
"-133.03","69.43","TUKTOYAKTUK A","2203913","2023-01-28 15:00","2023","01","28","15:00","-24.9","","-27.7","","78","","","","14","","24","","24.1","","103.30","","","","-38","","Blowing Snow"
"-133.03","69.43","TUKTOYAKTUK A","2203913","2023-01-28 16:00","2023","01","28","16:00","-23.3","","-25.9","","79","","","","15","","22","","24.1","","103.17","","","","-35","","NA"
"-133.03","69.43","TUKTOYAKTUK A","2203913","2023-01-28 17:00","2023","01","28","17:00","-21.7","","-24.2","","81","","","","15","","24","","24.1","","102.98","","","","-34","","Blowing Snow"
"-133.03","69.43","TUKTOYAKTUK A","2203913","2023-01-28 18:00","2023","01","28","18:00","-20.3","","-22.7","","82","","","","15","","22","","24.1","","102.85","","","","-31","","Blowing Snow"
"-133.03","69.43","TUKTOYAKTUK A","2203913","2023-01-28 19:00","2023","01","28","19:00","-18.7","","-20.9","","83","","","","17","","21","","24.1","","102.82","","","","-29","","Blowing Snow"
"-133.03","69.43","TUKTOYAKTUK A","2203913","2023-01-28 20:00","2023","01","28","20:00","-18.4","","-20.6","","83","","","","18","","21","","24.1","","102.73","","","","-29","","Blowing Snow"
"-133.03","69.43","TUKTOYAKTUK A","2203913","2023-01-28 21:00","2023","01","28","21:00","-17.6","","-19.7","","84","","","","18","","20","","12.9","","102.68","","","","-27","","Snow"
"-133.03","69.43","TUKTOYAKTUK A","2203913","2023-01-28 22:00","2023","01","28","22:00","-17.3","","-19.3","","84","","","","18","","18","","2.4","","102.67","","","","-27","","Snow"
"-133.03","69.43","TUKTOYAKTUK A","2203913","2023-01-28 23:00","2023","01","28","23:00","-16.5","","-18.4","","85","","","","21","","19","","2.4","","102.63","","","","-26","","Snow"
"-133.03","69.43","TUKTOYAKTUK A","2203913","2023-01-29 00:00","2023","01","29","00:00"
"-133.03","69.43","TUKTOYAKTUK A","2203913","2023-01-29 01:00","2023","01","29","01:00"
"-133.03","69.43","TUKTOYAKTUK A","2203913","2023-01-29 02:00","2023","01","29","02:00"
"-133.03","69.43","TUKTOYAKTUK A","2203913","2023-01-29 03:00","2023","01","29","03:00"
"-133.03","69.43","TUKTOYAKTUK A","2203913","2023-01-29 04:00","2023","01","29","04:00"
"-133.03","69.43","TUKTOYAKTUK A","2203913","2023-01-29 05:00","2023","01","29","05:00"
"-133.03","69.43","TUKTOYAKTUK A","2203913","2023-01-29 06:00","2023","01","29","06:00"
"-133.03","69.43","TUKTOYAKTUK A","2203913","2023-01-29 07:00","2023","01","29","07:00","-19.8","","-22.1","","83","","","","36","","16","","16.1","","103.04","","","","-29","","NA"
"-133.03","69.43","TUKTOYAKTUK A","2203913","2023-01-29 08:00","2023","01","29","08:00","-21.5","","-23.9","","81","","","","2","","12","","16.1","","103.11","","","","-30","","Cloudy"
"-133.03","69.43","TUKTOYAKTUK A","2203913","2023-01-29 09:00","2023","01","29","09:00","-22.1","","-24.5","","81","","","","36","","7","","16.1","","103.16","","","","-28","","NA"
"-133.03","69.43","TUKTOYAKTUK A","2203913","2023-01-29 10:00","2023","01","29","10:00","-24.4","","-27.0","","79","","","","31","","9","","24.1","","103.17","","","","-32","","NA"
"-133.03","69.43","TUKTOYAKTUK A","2203913","2023-01-29 11:00","2023","01","29","11:00","-24.3","","-26.9","","80","","","","34","","4","","24.1","","103.21","","","","-28","","Mostly Cloudy"
"-133.03","69.43","TUKTOYAKTUK A","2203913","2023-01-29 12:00","2023","01","29","12:00","-23.8","","-26.3","","80","","","","36","","5","","24.1","","103.22","","","","-29","","NA"
"-133.03","69.43","TUKTOYAKTUK A","2203913","2023-01-29 13:00","2023","01","29","13:00","-23.7","","-26.3","","80","","","","2","","5","","24.1","","103.25","","","","-28","","NA"
"-133.03","69.43","TUKTOYAKTUK A","2203913","2023-01-29 14:00","2023","01","29","14:00","-24.1","","-26.8","","79","","","","1","","11","","24.1","","103.27","","","","-33","","Mostly Cloudy"
"-133.03","69.43","TUKTOYAKTUK A","2203913","2023-01-29 15:00","2023","01","29","15:00","-26.3","","-29.1","","78","","","","4","","14","","24.1","","103.24","","","","-36","","NA"
"-133.03","69.43","TUKTOYAKTUK A","2203913","2023-01-29 16:00","2023","01","29","16:00","-26.1","","-28.9","","78","","","","4","","9","","24.1","","103.29","","","","-34","","NA"
"-133.03","69.43","TUKTOYAKTUK A","2203913","2023-01-29 17:00","2023","01","29","17:00","-27.3","","-30.1","","77","","","","6","","8","","24.1","","103.29","","","","-35","","Mostly Cloudy"
"-133.03","69.43","TUKTOYAKTUK A","2203913","2023-01-29 18:00","2023","01","29","18:00","-28.0","","-30.9","","77","","","","6","","8","","24.1","","103.26","","","","-36","","NA"
"-133.03","69.43","TUKTOYAKTUK A","2203913","2023-01-29 19:00","2023","01","29","19:00","-29.0","","-31.9","","76","","","","7","","12","","24.1","","103.26","","","","-39","","NA"
"-133.03","69.43","TUKTOYAKTUK A","2203913","2023-01-29 20:00","2023","01","29","20:00","-28.8","","-31.8","","76","","","","12","","6","","24.1","","103.27","","","","-35","","Mainly Clear"
"-133.03","69.43","TUKTOYAKTUK A","2203913","2023-01-29 21:00","2023","01","29","21:00","-29.6","","-32.7","","76","","","","36","","1","","24.1","","103.29","","","","-31","","NA"
"-133.03","69.43","TUKTOYAKTUK A","2203913","2023-01-29 22:00","2023","01","29","22:00","-29.3","","-32.3","","76","","","","36","","8","","24.1","","103.30","","","","-37","","NA"
"-133.03","69.43","TUKTOYAKTUK A","2203913","2023-01-29 23:00","2023","01","29","23:00","-31.2","","-34.4","","74","","","","4","","5","","24.1","","103.30","","","","-37","","Mostly Cloudy"
"-133.03","69.43","TUKTOYAKTUK A","2203913","2023-01-30 00:00","2023","01","30","00:00"
"-133.03","69.43","TUKTOYAKTUK A","2203913","2023-01-30 01:00","2023","01","30","01:00"
"-133.03","69.43","TUKTOYAKTUK A","2203913","2023-01-30 02:00","2023","01","30","02:00"
"-133.03","69.43","TUKTOYAKTUK A","2203913","2023-01-30 03:00","2023","01","30","03:00"
"-133.03","69.43","TUKTOYAKTUK A","2203913","2023-01-30 04:00","2023","01","30","04:00"
"-133.03","69.43","TUKTOYAKTUK A","2203913","2023-01-30 05:00","2023","01","30","05:00"
"-133.03","69.43","TUKTOYAKTUK A","2203913","2023-01-30 06:00","2023","01","30","06:00"
"-133.03","69.43","TUKTOYAKTUK A","2203913","2023-01-30 07:00","2023","01","30","07:00","-35.2","","-38.7","","72","","","","30","","5","","9.7","","103.39","","","","-42","","Fog"
"-133.03","69.43","TUKTOYAKTUK A","2203913","2023-01-30 08:00","2023","01","30","08:00","-36.0","","-39.5","","71","","","","36","","2","","9.7","","103.39","","","","-39","","Fog"
"-133.03","69.43","TUKTOYAKTUK A","2203913","2023-01-30 09:00","2023","01","30","09:00","-36.7","","-40.2","","71","","","","3","","6","","16.1","","103.37","","","","-44","","NA"
"-133.03","69.43","TUKTOYAKTUK A","2203913","2023-01-30 10:00","2023","01","30","10:00","-36.8","","-40.4","","71","","","","36","","2","","24.1","","103.34","","","","-39","","NA"
"-133.03","69.43","TUKTOYAKTUK A","2203913","2023-01-30 11:00","2023","01","30","11:00","-37.3","","-40.9","","70","","","","25","","4","","24.1","","103.35","","","","-43","","Mainly Clear"
"-133.03","69.43","TUKTOYAKTUK A","2203913","2023-01-30 12:00","2023","01","30","12:00","-36.2","","-39.7","","71","","","","27","","4","","24.1","","103.37","","","","-41","","NA"
"-133.03","69.43","TUKTOYAKTUK A","2203913","2023-01-30 13:00","2023","01","30","13:00","-36.8","","-40.4","","70","","","","28","","4","","24.1","","103.37","","","","-42","","NA"
"-133.03","69.43","TUKTOYAKTUK A","2203913","2023-01-30 14:00","2023","01","30","14:00","-35.9","","-39.4","","71","","","","23","","4","","24.1","","103.35","","","","-41","","Clear"
"-133.03","69.43","TUKTOYAKTUK A","2203913","2023-01-30 15:00","2023","01","30","15:00","-36.0","","-39.6","","71","","","","22","","3","","24.1","","103.31","","","","-40","","NA"
"-133.03","69.43","TUKTOYAKTUK A","2203913","2023-01-30 16:00","2023","01","30","16:00","-36.0","","-39.6","","71","","","","21","","5","","24.1","","103.26","","","","-42","","NA"
"-133.03","69.43","TUKTOYAKTUK A","2203913","2023-01-30 17:00","2023","01","30","17:00","-36.8","","-40.3","","70","","","","36","","3","","24.1","","103.23","","","","-41","","Clear"
"-133.03","69.43","TUKTOYAKTUK A","2203913","2023-01-30 18:00","2023","01","30","18:00","-36.4","","-40.0","","71","","","","25","","5","","24.1","","103.21","","","","-43","","NA"
"-133.03","69.43","TUKTOYAKTUK A","2203913","2023-01-30 19:00","2023","01","30","19:00","-36.5","","-40.1","","71","","","","36","","2","","24.1","","103.15","","","","-39","","NA"
"-133.03","69.43","TUKTOYAKTUK A","2203913","2023-01-30 20:00","2023","01","30","20:00","-36.4","","-39.9","","71","","","","36","","2","","24.1","","103.13","","","","-39","","Mainly Clear"
"-133.03","69.43","TUKTOYAKTUK A","2203913","2023-01-30 21:00","2023","01","30","21:00","-35.3","","-38.8","","71","","","","14","","3","","24.1","","103.12","","","","-39","","NA"
"-133.03","69.43","TUKTOYAKTUK A","2203913","2023-01-30 22:00","2023","01","30","22:00","-33.6","","-37.0","","72","","","","","","0","","24.1","","103.11","","","","","","NA"
"-133.03","69.43","TUKTOYAKTUK A","2203913","2023-01-30 23:00","2023","01","30","23:00","-31.8","","-35.0","","73","","","","26","","3","","16.1","","103.07","","","","-35","","Cloudy"
"-133.03","69.43","TUKTOYAKTUK A","2203913","2023-01-31 00:00","2023","01","31","00:00"
"-133.03","69.43","TUKTOYAKTUK A","2203913","2023-01-31 01:00","2023","01","31","01:00"
"-133.03","69.43","TUKTOYAKTUK A","2203913","2023-01-31 02:00","2023","01","31","02:00"
"-133.03","69.43","TUKTOYAKTUK A","2203913","2023-01-31 03:00","2023","01","31","03:00"
"-133.03","69.43","TUKTOYAKTUK A","2203913","2023-01-31 04:00","2023","01","31","04:00"
"-133.03","69.43","TUKTOYAKTUK A","2203913","2023-01-31 05:00","2023","01","31","05:00"
"-133.03","69.43","TUKTOYAKTUK A","2203913","2023-01-31 06:00","2023","01","31","06:00"
"-133.03","69.43","TUKTOYAKTUK A","2203913","2023-01-31 07:00","2023","01","31","07:00","-37.1","","-40.7","","70","","","","25","","9","","24.1","","103.15","","","","-47","","NA"
"-133.03","69.43","TUKTOYAKTUK A","2203913","2023-01-31 08:00","2023","01","31","08:00","-36.9","","-40.4","","70","","","","30","","7","","24.1","","103.17","","","","-45","","Clear"
"-133.03","69.43","TUKTOYAKTUK A","2203913","2023-01-31 09:00","2023","01","31","09:00","-37.3","","-40.9","","70","","","","27","","7","","24.1","","103.18","","","","-46","","NA"
"-133.03","69.43","TUKTOYAKTUK A","2203913","2023-01-31 10:00","2023","01","31","10:00","-37.0","","-40.6","","70","","","","25","","4","","24.1","","103.20","","","","-42","","NA"
"-133.03","69.43","TUKTOYAKTUK A","2203913","2023-01-31 11:00","2023","01","31","11:00","-36.7","","-40.3","","70","","","","27","","5","","24.1","","103.22","","","","-43","","Clear"
"-133.03","69.43","TUKTOYAKTUK A","2203913","2023-01-31 12:00","2023","01","31","12:00","-35.8","","-39.3","","71","","","","31","","3","","24.1","","103.22","","","","-40","","NA"
"-133.03","69.43","TUKTOYAKTUK A","2203913","2023-01-31 13:00","2023","01","31","13:00","-37.2","","-40.8","","70","","","","27","","7","","24.1","","103.25","","","","-46","","NA"
"-133.03","69.43","TUKTOYAKTUK A","2203913","2023-01-31 14:00","2023","01","31","14:00","-36.4","","-40.0","","70","","","","23","","4","","24.1","","103.27","","","","-42","","Clear"
"-133.03","69.43","TUKTOYAKTUK A","2203913","2023-01-31 15:00","2023","01","31","15:00","-37.0","","-40.6","","70","","","","25","","7","","24.1","","103.27","","","","-45","","NA"
"-133.03","69.43","TUKTOYAKTUK A","2203913","2023-01-31 16:00","2023","01","31","16:00","-36.9","","-40.5","","70","","","","22","","5","","24.1","","103.27","","","","-43","","NA"
"-133.03","69.43","TUKTOYAKTUK A","2203913","2023-01-31 17:00","2023","01","31","17:00","-38.0","","-41.7","","69","","","","26","","5","","24.1","","103.27","","","","-45","","Clear"
"-133.03","69.43","TUKTOYAKTUK A","2203913","2023-01-31 18:00","2023","01","31","18:00","-38.0","","-41.7","","70","","","","22","","8","","24.1","","103.24","","","","-47","","NA"
"-133.03","69.43","TUKTOYAKTUK A","2203913","2023-01-31 19:00","2023","01","31","19:00","-38.2","","-41.9","","69","","","","23","","8","","24.1","","103.22","","","","-48","","NA"
"-133.03","69.43","TUKTOYAKTUK A","2203913","2023-01-31 20:00","2023","01","31","20:00","-38.7","","-42.4","","69","","","","25","","6","","24.1","","103.19","","","","-47","","Clear"
"-133.03","69.43","TUKTOYAKTUK A","2203913","2023-01-31 21:00","2023","01","31","21:00","-38.4","","-42.1","","69","","","","22","","5","","24.1","","103.19","","","","-45","","NA"
"-133.03","69.43","TUKTOYAKTUK A","2203913","2023-01-31 22:00","2023","01","31","22:00","-39.1","","-42.8","","69","","","","19","","3","","24.1","","103.16","","","","-43","","NA"
"-133.03","69.43","TUKTOYAKTUK A","2203913","2023-01-31 23:00","2023","01","31","23:00","-38.7","","-42.5","","69","","","","21","","7","","24.1","","103.15","","","","-47","","Clear"
