"Longitude (x)","Latitude (y)","Station Name","Climate ID","Date/Time (LST)","Year","Month","Day","Time (LST)","Temp (°C)","Temp Flag","Dew Point Temp (°C)","Dew Point Temp Flag","Rel Hum (%)","Rel Hum Flag","Precip. Amount (mm)","Precip. Amount Flag","Wind Dir (10s deg)","Wind Dir Flag","Wind Spd (km/h)","Wind Spd Flag","Visibility (km)","Visibility Flag","Stn Press (kPa)","Stn Press Flag","Hmdx","Hmdx Flag","Wind Chill","Wind Chill Flag","Weather"
"-133.03","69.43","TUKTOYAKTUK A","2203913","2023-03-01 00:00","2023","03","01","00:00"
"-133.03","69.43","TUKTOYAKTUK A","2203913","2023-03-01 01:00","2023","03","01","01:00"
"-133.03","69.43","TUKTOYAKTUK A","2203913","2023-03-01 02:00","2023","03","01","02:00"
"-133.03","69.43","TUKTOYAKTUK A","2203913","2023-03-01 03:00","2023","03","01","03:00"
"-133.03","69.43","TUKTOYAKTUK A","2203913","2023-03-01 04:00","2023","03","01","04:00"
"-133.03","69.43","TUKTOYAKTUK A","2203913","2023-03-01 05:00","2023","03","01","05:00"
"-133.03","69.43","TUKTOYAKTUK A","2203913","2023-03-01 06:00","2023","03","01","06:00"
"-133.03","69.43","TUKTOYAKTUK A","2203913","2023-03-01 07:00","2023","03","01","07:00","-33.1","","-36.4","","73","","","","11","","18","","9.7","","99.54","","","","-46","","Fog"
"-133.03","69.43","TUKTOYAKTUK A","2203913","2023-03-01 08:00","2023","03","01","08:00","-33.0","","-36.4","","73","","","","12","","21","","9.7","","99.50","","","","-47","","Ice Crystals,Fog"
"-133.03","69.43","TUKTOYAKTUK A","2203913","2023-03-01 09:00","2023","03","01","09:00","-33.1","","-36.4","","73","","","","11","","16","","8.1","","99.44","","","","-46","","Fog"
"-133.03","69.43","TUKTOYAKTUK A","2203913","2023-03-01 10:00","2023","03","01","10:00","-33.2","","-36.5","","73","","","","11","","19","","4.8","","99.39","","","","-47","","Fog"
"-133.03","69.43","TUKTOYAKTUK A","2203913","2023-03-01 11:00","2023","03","01","11:00","-33.3","","-36.7","","72","","","","11","","23","","4.8","","99.32","","","","-48","","Fog"
"-133.03","69.43","TUKTOYAKTUK A","2203913","2023-03-01 12:00","2023","03","01","12:00","-32.4","","-35.7","","73","","","","10","","21","","4.8","","99.29","","","","-46","","Fog"
"-133.03","69.43","TUKTOYAKTUK A","2203913","2023-03-01 13:00","2023","03","01","13:00","-31.4","","-34.6","","74","","","","10","","21","","4.8","","99.25","","","","-45","","Fog"
"-133.03","69.43","TUKTOYAKTUK A","2203913","2023-03-01 14:00","2023","03","01","14:00","-29.4","","-32.6","","75","","","","9","","18","","4.8","","99.23","","","","-42","","Fog"
"-133.03","69.43","TUKTOYAKTUK A","2203913","2023-03-01 15:00","2023","03","01","15:00","-29.7","","-32.9","","75","","","","10","","14","","4.8","","99.26","","","","-41","","Ice Crystals"
"-133.03","69.43","TUKTOYAKTUK A","2203913","2023-03-01 16:00","2023","03","01","16:00","-29.9","","-33.0","","75","","","","9","","17","","9.7","","99.21","","","","-42","","Ice Crystals"
"-133.03","69.43","TUKTOYAKTUK A","2203913","2023-03-01 17:00","2023","03","01","17:00","-29.7","","-32.8","","75","","","","9","","19","","16.1","","99.20","","","","-42","","Ice Crystals"
"-133.03","69.43","TUKTOYAKTUK A","2203913","2023-03-01 18:00","2023","03","01","18:00","-30.8","","-34.0","","74","","","","7","","16","","24.1","","99.14","","","","-43","","NA"
"-133.03","69.43","TUKTOYAKTUK A","2203913","2023-03-01 19:00","2023","03","01","19:00","-30.5","","-33.7","","74","","","","8","","17","","24.1","","99.14","","","","-43","","NA"
"-133.03","69.43","TUKTOYAKTUK A","2203913","2023-03-01 20:00","2023","03","01","20:00","-30.8","","-34.0","","74","","","","9","","22","","24.1","","99.14","","","","-45","","Clear"
"-133.03","69.43","TUKTOYAKTUK A","2203913","2023-03-01 21:00","2023","03","01","21:00","-31.4","","-34.6","","74","","","","9","","17","","24.1","","99.18","","","","-44","","NA"
"-133.03","69.43","TUKTOYAKTUK A","2203913","2023-03-01 22:00","2023","03","01","22:00","-31.4","","-34.6","","74","","","","9","","15","","24.1","","99.20","","","","-43","","NA"
"-133.03","69.43","TUKTOYAKTUK A","2203913","2023-03-01 23:00","2023","03","01","23:00","-32.4","","-35.7","","73","","","","6","","13","","24.1","","99.25","","","","-44","","Clear"
"-133.03","69.43","TUKTOYAKTUK A","2203913","2023-03-02 00:00","2023","03","02","00:00"
"-133.03","69.43","TUKTOYAKTUK A","2203913","2023-03-02 01:00","2023","03","02","01:00"
"-133.03","69.43","TUKTOYAKTUK A","2203913","2023-03-02 02:00","2023","03","02","02:00"
"-133.03","69.43","TUKTOYAKTUK A","2203913","2023-03-02 03:00","2023","03","02","03:00"
"-133.03","69.43","TUKTOYAKTUK A","2203913","2023-03-02 04:00","2023","03","02","04:00"
"-133.03","69.43","TUKTOYAKTUK A","2203913","2023-03-02 05:00","2023","03","02","05:00"
"-133.03","69.43","TUKTOYAKTUK A","2203913","2023-03-02 06:00","2023","03","02","06:00"
"-133.03","69.43","TUKTOYAKTUK A","2203913","2023-03-02 07:00","2023","03","02","07:00","-33.8","","-37.2","","72","","","","7","","22","","16.1","","99.90","","","","-49","","Ice Crystals"
"-133.03","69.43","TUKTOYAKTUK A","2203913","2023-03-02 08:00","2023","03","02","08:00","-33.5","","-36.9","","72","","","","5","","16","","16.1","","100.03","","","","-46","","Ice Crystals"
"-133.03","69.43","TUKTOYAKTUK A","2203913","2023-03-02 09:00","2023","03","02","09:00","-33.9","","-37.3","","72","","","","6","","11","","16.1","","100.13","","","","-44","","Ice Crystals"
"-133.03","69.43","TUKTOYAKTUK A","2203913","2023-03-02 10:00","2023","03","02","10:00","-33.9","","-37.3","","72","","","","8","","8","","24.1","","100.22","","","","-43","","NA"
"-133.03","69.43","TUKTOYAKTUK A","2203913","2023-03-02 11:00","2023","03","02","11:00","-33.4","","-36.8","","72","","","","7","","7","","24.1","","100.32","","","","-41","","Clear"
"-133.03","69.43","TUKTOYAKTUK A","2203913","2023-03-02 12:00","2023","03","02","12:00","-32.8","","-36.1","","73","","","","5","","8","","24.1","","100.39","","","","-41","","NA"
"-133.03","69.43","TUKTOYAKTUK A","2203913","2023-03-02 13:00","2023","03","02","13:00","-33.2","","-36.6","","72","","","","4","","5","","16.1","","100.47","","","","-39","","NA"
"-133.03","69.43","TUKTOYAKTUK A","2203913","2023-03-02 14:00","2023","03","02","14:00","-32.5","","-35.8","","73","","","","3","","3","","24.1","","100.57","","","","-36","","Clear"
"-133.03","69.43","TUKTOYAKTUK A","2203913","2023-03-02 15:00","2023","03","02","15:00","-31.6","","-34.9","","73","","","","30","","5","","24.1","","100.66","","","","-37","","NA"
"-133.03","69.43","TUKTOYAKTUK A","2203913","2023-03-02 16:00","2023","03","02","16:00","-31.4","","-34.7","","73","","","","28","","8","","24.1","","100.73","","","","-40","","NA"
"-133.03","69.43","TUKTOYAKTUK A","2203913","2023-03-02 17:00","2023","03","02","17:00","-31.7","","-35.0","","73","","","","29","","8","","24.1","","100.83","","","","-40","","Clear"
"-133.03","69.43","TUKTOYAKTUK A","2203913","2023-03-02 18:00","2023","03","02","18:00","-32.1","","-35.5","","73","","","","36","","6","","24.1","","100.88","","","","-39","","NA"
"-133.03","69.43","TUKTOYAKTUK A","2203913","2023-03-02 19:00","2023","03","02","19:00","-34.1","","-37.5","","72","","","","26","","14","","24.1","","100.94","","","","-46","","NA"
"-133.03","69.43","TUKTOYAKTUK A","2203913","2023-03-02 20:00","2023","03","02","20:00","-35.4","","-38.9","","71","","","","26","","12","","24.1","","101.02","","","","-47","","Clear"
"-133.03","69.43","TUKTOYAKTUK A","2203913","2023-03-02 21:00","2023","03","02","21:00","-35.2","","-38.6","","72","","","","30","","8","","24.1","","101.07","","","","-44","","NA"
"-133.03","69.43","TUKTOYAKTUK A","2203913","2023-03-02 22:00","2023","03","02","22:00","-36.1","","-39.6","","71","","","","29","","8","","24.1","","101.15","","","","-45","","NA"
"-133.03","69.43","TUKTOYAKTUK A","2203913","2023-03-02 23:00","2023","03","02","23:00","-34.9","","-38.3","","72","","","","35","","3","","24.1","","101.20","","","","-39","","Clear"
"-133.03","69.43","TUKTOYAKTUK A","2203913","2023-03-03 00:00","2023","03","03","00:00"
"-133.03","69.43","TUKTOYAKTUK A","2203913","2023-03-03 01:00","2023","03","03","01:00"
"-133.03","69.43","TUKTOYAKTUK A","2203913","2023-03-03 02:00","2023","03","03","02:00"
"-133.03","69.43","TUKTOYAKTUK A","2203913","2023-03-03 03:00","2023","03","03","03:00"
"-133.03","69.43","TUKTOYAKTUK A","2203913","2023-03-03 04:00","2023","03","03","04:00"
"-133.03","69.43","TUKTOYAKTUK A","2203913","2023-03-03 05:00","2023","03","03","05:00"
"-133.03","69.43","TUKTOYAKTUK A","2203913","2023-03-03 06:00","2023","03","03","06:00"
"-133.03","69.43","TUKTOYAKTUK A","2203913","2023-03-03 07:00","2023","03","03","07:00","-39.6","","-43.4","","69","","","","25","","9","","16.1","","101.74","","","","-50","","Ice Crystals"
"-133.03","69.43","TUKTOYAKTUK A","2203913","2023-03-03 08:00","2023","03","03","08:00","-38.8","","-42.5","","69","","","","25","","7","","16.1","","101.81","","","","-48","","Ice Crystals"
"-133.03","69.43","TUKTOYAKTUK A","2203913","2023-03-03 09:00","2023","03","03","09:00","-38.0","","-41.6","","70","","","","27","","5","","16.1","","101.87","","","","-45","","Ice Crystals"
"-133.03","69.43","TUKTOYAKTUK A","2203913","2023-03-03 10:00","2023","03","03","10:00","-37.9","","-41.5","","70","","","","26","","6","","24.1","","101.93","","","","-46","","NA"
"-133.03","69.43","TUKTOYAKTUK A","2203913","2023-03-03 11:00","2023","03","03","11:00","-37.2","","-40.9","","70","","","","27","","8","","24.1","","102.02","","","","-46","","Clear"
"-133.03","69.43","TUKTOYAKTUK A","2203913","2023-03-03 12:00","2023","03","03","12:00","-36.4","","-40.0","","70","","","","28","","4","","24.1","","102.09","","","","-42","","NA"
"-133.03","69.43","TUKTOYAKTUK A","2203913","2023-03-03 13:00","2023","03","03","13:00","-35.3","","-38.9","","71","","","","26","","7","","24.1","","102.15","","","","-43","","NA"
"-133.03","69.43","TUKTOYAKTUK A","2203913","2023-03-03 14:00","2023","03","03","14:00","-34.3","","-37.8","","71","","","","28","","6","","24.1","","102.24","","","","-41","","Clear"
"-133.03","69.43","TUKTOYAKTUK A","2203913","2023-03-03 15:00","2023","03","03","15:00","-33.3","","-36.8","","72","","","","29","","5","","24.1","","102.32","","","","-39","","NA"
"-133.03","69.43","TUKTOYAKTUK A","2203913","2023-03-03 16:00","2023","03","03","16:00","-32.5","","-36.0","","72","","","","26","","3","","24.1","","102.43","","","","-36","","NA"
"-133.03","69.43","TUKTOYAKTUK A","2203913","2023-03-03 17:00","2023","03","03","17:00","-33.4","","-36.8","","72","","","","26","","6","","24.1","","102.52","","","","-40","","Clear"
"-133.03","69.43","TUKTOYAKTUK A","2203913","2023-03-03 18:00","2023","03","03","18:00","-34.5","","-38.0","","71","","","","26","","7","","24.1","","102.61","","","","-43","","NA"
"-133.03","69.43","TUKTOYAKTUK A","2203913","2023-03-03 19:00","2023","03","03","19:00","-35.5","","-39.0","","71","","","","29","","7","","24.1","","102.67","","","","-44","","NA"
"-133.03","69.43","TUKTOYAKTUK A","2203913","2023-03-03 20:00","2023","03","03","20:00","-36.0","","-39.5","","71","","","","28","","12","","24.1","","102.77","","","","-47","","Clear"
"-133.03","69.43","TUKTOYAKTUK A","2203913","2023-03-03 21:00","2023","03","03","21:00","-37.0","","-40.6","","70","","","","30","","9","","24.1","","102.83","","","","-47","","NA"
"-133.03","69.43","TUKTOYAKTUK A","2203913","2023-03-03 22:00","2023","03","03","22:00","-35.7","","-39.3","","71","","","","35","","6","","24.1","","102.92","","","","-43","","NA"
"-133.03","69.43","TUKTOYAKTUK A","2203913","2023-03-03 23:00","2023","03","03","23:00","-37.1","","-40.7","","70","","","","27","","6","","24.1","","103.01","","","","-45","","Clear"
"-133.03","69.43","TUKTOYAKTUK A","2203913","2023-03-04 00:00","2023","03","04","00:00"
"-133.03","69.43","TUKTOYAKTUK A","2203913","2023-03-04 01:00","2023","03","04","01:00"
"-133.03","69.43","TUKTOYAKTUK A","2203913","2023-03-04 02:00","2023","03","04","02:00"
"-133.03","69.43","TUKTOYAKTUK A","2203913","2023-03-04 03:00","2023","03","04","03:00"
"-133.03","69.43","TUKTOYAKTUK A","2203913","2023-03-04 04:00","2023","03","04","04:00"
"-133.03","69.43","TUKTOYAKTUK A","2203913","2023-03-04 05:00","2023","03","04","05:00"
"-133.03","69.43","TUKTOYAKTUK A","2203913","2023-03-04 06:00","2023","03","04","06:00"
"-133.03","69.43","TUKTOYAKTUK A","2203913","2023-03-04 07:00","2023","03","04","07:00","-37.5","","-41.1","","70","","","","27","","11","","24.1","","103.61","","","","-49","","NA"
"-133.03","69.43","TUKTOYAKTUK A","2203913","2023-03-04 08:00","2023","03","04","08:00","-37.0","","-40.7","","70","","","","25","","11","","24.1","","103.66","","","","-48","","Clear"
"-133.03","69.43","TUKTOYAKTUK A","2203913","2023-03-04 09:00","2023","03","04","09:00","-37.1","","-40.8","","70","","","","25","","12","","24.1","","103.69","","","","-49","","NA"
"-133.03","69.43","TUKTOYAKTUK A","2203913","2023-03-04 10:00","2023","03","04","10:00","-37.5","","-41.2","","70","","","","24","","10","","24.1","","103.74","","","","-48","","NA"
"-133.03","69.43","TUKTOYAKTUK A","2203913","2023-03-04 11:00","2023","03","04","11:00","-36.9","","-40.5","","70","","","","21","","6","","24.1","","103.79","","","","-44","","Clear"
"-133.03","69.43","TUKTOYAKTUK A","2203913","2023-03-04 12:00","2023","03","04","12:00","-35.0","","-38.6","","71","","","","24","","11","","24.1","","103.81","","","","-46","","NA"
"-133.03","69.43","TUKTOYAKTUK A","2203913","2023-03-04 13:00","2023","03","04","13:00","-34.1","","-37.7","","71","","","","25","","9","","24.1","","103.82","","","","-43","","NA"
"-133.03","69.43","TUKTOYAKTUK A","2203913","2023-03-04 14:00","2023","03","04","14:00","-33.5","","-37.0","","72","","","","24","","9","","24.1","","103.81","","","","-43","","Mainly Clear"
"-133.03","69.43","TUKTOYAKTUK A","2203913","2023-03-04 15:00","2023","03","04","15:00","-33.0","","-36.5","","72","","","","20","","7","","24.1","","103.84","","","","-41","","NA"
"-133.03","69.43","TUKTOYAKTUK A","2203913","2023-03-04 16:00","2023","03","04","16:00","-32.8","","-36.2","","72","","","","23","","7","","24.1","","103.82","","","","-41","","NA"
"-133.03","69.43","TUKTOYAKTUK A","2203913","2023-03-04 17:00","2023","03","04","17:00","-33.1","","-36.5","","72","","","","21","","7","","24.1","","103.83","","","","-41","","Mainly Clear"
"-133.03","69.43","TUKTOYAKTUK A","2203913","2023-03-04 18:00","2023","03","04","18:00","-33.5","","-37.0","","72","","","","20","","7","","24.1","","103.84","","","","-41","","NA"
"-133.03","69.43","TUKTOYAKTUK A","2203913","2023-03-04 19:00","2023","03","04","19:00","-34.1","","-37.6","","72","","","","19","","7","","24.1","","103.84","","","","-42","","NA"
"-133.03","69.43","TUKTOYAKTUK A","2203913","2023-03-04 20:00","2023","03","04","20:00","-34.9","","-38.4","","71","","","","18","","7","","24.1","","103.82","","","","-43","","Mainly Clear"
"-133.03","69.43","TUKTOYAKTUK A","2203913","2023-03-04 21:00","2023","03","04","21:00","-35.0","","-38.5","","71","","","","18","","5","","24.1","","103.79","","","","-41","","NA"
"-133.03","69.43","TUKTOYAKTUK A","2203913","2023-03-04 22:00","2023","03","04","22:00","-36.2","","-39.8","","70","","","","14","","5","","24.1","","103.76","","","","-43","","NA"
"-133.03","69.43","TUKTOYAKTUK A","2203913","2023-03-04 23:00","2023","03","04","23:00","-36.0","","-39.6","","71","","","","12","","8","","24.1","","103.72","","","","-45","","Clear"
"-133.03","69.43","TUKTOYAKTUK A","2203913","2023-03-05 00:00","2023","03","05","00:00"
"-133.03","69.43","TUKTOYAKTUK A","2203913","2023-03-05 01:00","2023","03","05","01:00"
"-133.03","69.43","TUKTOYAKTUK A","2203913","2023-03-05 02:00","2023","03","05","02:00"
"-133.03","69.43","TUKTOYAKTUK A","2203913","2023-03-05 03:00","2023","03","05","03:00"
"-133.03","69.43","TUKTOYAKTUK A","2203913","2023-03-05 04:00","2023","03","05","04:00"
"-133.03","69.43","TUKTOYAKTUK A","2203913","2023-03-05 05:00","2023","03","05","05:00"
"-133.03","69.43","TUKTOYAKTUK A","2203913","2023-03-05 06:00","2023","03","05","06:00"
"-133.03","69.43","TUKTOYAKTUK A","2203913","2023-03-05 07:00","2023","03","05","07:00","-36.1","","-39.7","","70","","","","13","","4","","24.1","","103.67","","","","-41","","NA"
"-133.03","69.43","TUKTOYAKTUK A","2203913","2023-03-05 08:00","2023","03","05","08:00","-37.1","","-40.7","","70","","","","14","","5","","24.1","","103.67","","","","-44","","Clear"
"-133.03","69.43","TUKTOYAKTUK A","2203913","2023-03-05 09:00","2023","03","05","09:00","-36.2","","-39.8","","70","","","","14","","7","","24.1","","103.65","","","","-44","","NA"
"-133.03","69.43","TUKTOYAKTUK A","2203913","2023-03-05 10:00","2023","03","05","10:00","-35.9","","-39.4","","70","","","","11","","11","","24.1","","103.65","","","","-47","","NA"
"-133.03","69.43","TUKTOYAKTUK A","2203913","2023-03-05 11:00","2023","03","05","11:00","-34.9","","-38.5","","71","","","","14","","5","","24.1","","103.65","","","","-41","","Clear"
"-133.03","69.43","TUKTOYAKTUK A","2203913","2023-03-05 12:00","2023","03","05","12:00","-34.1","","-37.6","","71","","","","11","","5","","24.1","","103.65","","","","-40","","NA"
"-133.03","69.43","TUKTOYAKTUK A","2203913","2023-03-05 13:00","2023","03","05","13:00","-33.0","","-36.4","","72","","","","12","","3","","24.1","","103.61","","","","-37","","NA"
"-133.03","69.43","TUKTOYAKTUK A","2203913","2023-03-05 14:00","2023","03","05","14:00","-31.7","","-35.0","","73","","","","10","","8","","24.1","","103.59","","","","-40","","Clear"
"-133.03","69.43","TUKTOYAKTUK A","2203913","2023-03-05 15:00","2023","03","05","15:00","-30.9","","-34.3","","73","","","","9","","5","","24.1","","103.58","","","","-37","","NA"
"-133.03","69.43","TUKTOYAKTUK A","2203913","2023-03-05 16:00","2023","03","05","16:00","-30.9","","-34.2","","73","","","","10","","6","","24.1","","103.58","","","","-38","","NA"
"-133.03","69.43","TUKTOYAKTUK A","2203913","2023-03-05 17:00","2023","03","05","17:00","-31.6","","-34.9","","73","","","","11","","8","","24.1","","103.56","","","","-40","","Clear"
"-133.03","69.43","TUKTOYAKTUK A","2203913","2023-03-05 18:00","2023","03","05","18:00","-31.8","","-35.1","","73","","","","11","","9","","24.1","","103.54","","","","-41","","NA"
"-133.03","69.43","TUKTOYAKTUK A","2203913","2023-03-05 19:00","2023","03","05","19:00","-32.9","","-36.3","","72","","","","13","","5","","24.1","","103.52","","","","-39","","NA"
"-133.03","69.43","TUKTOYAKTUK A","2203913","2023-03-05 20:00","2023","03","05","20:00","-32.9","","-36.2","","73","","","","14","","5","","24.1","","103.48","","","","-39","","Clear"
"-133.03","69.43","TUKTOYAKTUK A","2203913","2023-03-05 21:00","2023","03","05","21:00","-35.1","","-38.6","","71","","","","15","","4","","24.1","","103.43","","","","-40","","NA"
"-133.03","69.43","TUKTOYAKTUK A","2203913","2023-03-05 22:00","2023","03","05","22:00","-34.9","","-38.4","","71","","","","12","","7","","24.1","","103.40","","","","-43","","NA"
"-133.03","69.43","TUKTOYAKTUK A","2203913","2023-03-05 23:00","2023","03","05","23:00","-35.6","","-39.1","","71","","","","13","","3","","24.1","","103.39","","","","-39","","Clear"
"-133.03","69.43","TUKTOYAKTUK A","2203913","2023-03-06 00:00","2023","03","06","00:00"
"-133.03","69.43","TUKTOYAKTUK A","2203913","2023-03-06 01:00","2023","03","06","01:00"
"-133.03","69.43","TUKTOYAKTUK A","2203913","2023-03-06 02:00","2023","03","06","02:00"
"-133.03","69.43","TUKTOYAKTUK A","2203913","2023-03-06 03:00","2023","03","06","03:00"
"-133.03","69.43","TUKTOYAKTUK A","2203913","2023-03-06 04:00","2023","03","06","04:00"
"-133.03","69.43","TUKTOYAKTUK A","2203913","2023-03-06 05:00","2023","03","06","05:00"
"-133.03","69.43","TUKTOYAKTUK A","2203913","2023-03-06 06:00","2023","03","06","06:00"
"-133.03","69.43","TUKTOYAKTUK A","2203913","2023-03-06 07:00","2023","03","06","07:00","-33.7","","-37.1","","72","","","","9","","8","","24.1","","103.22","","","","-42","","NA"
"-133.03","69.43","TUKTOYAKTUK A","2203913","2023-03-06 08:00","2023","03","06","08:00","-33.8","","-37.2","","72","","","","10","","5","","24.1","","103.23","","","","-40","","Mainly Clear"
"-133.03","69.43","TUKTOYAKTUK A","2203913","2023-03-06 09:00","2023","03","06","09:00","-33.7","","-37.1","","72","","","","8","","16","","24.1","","103.21","","","","-46","","NA"
"-133.03","69.43","TUKTOYAKTUK A","2203913","2023-03-06 10:00","2023","03","06","10:00","-32.8","","-36.2","","72","","","","10","","8","","24.1","","103.22","","","","-41","","NA"
"-133.03","69.43","TUKTOYAKTUK A","2203913","2023-03-06 11:00","2023","03","06","11:00","-32.7","","-36.1","","73","","","","10","","13","","24.1","","103.20","","","","-44","","Mainly Clear"
"-133.03","69.43","TUKTOYAKTUK A","2203913","2023-03-06 12:00","2023","03","06","12:00","-31.4","","-34.7","","73","","","","8","","12","","24.1","","103.23","","","","-42","","NA"
"-133.03","69.43","TUKTOYAKTUK A","2203913","2023-03-06 13:00","2023","03","06","13:00","-29.6","","-32.8","","74","","","","8","","12","","24.1","","103.26","","","","-40","","NA"
"-133.03","69.43","TUKTOYAKTUK A","2203913","2023-03-06 14:00","2023","03","06","14:00","-29.2","","-32.4","","74","","","","9","","12","","24.1","","103.28","","","","-39","","Mainly Clear"
"-133.03","69.43","TUKTOYAKTUK A","2203913","2023-03-06 15:00","2023","03","06","15:00","-29.5","","-32.7","","74","","","","9","","15","","24.1","","103.29","","","","-41","","NA"
"-133.03","69.43","TUKTOYAKTUK A","2203913","2023-03-06 16:00","2023","03","06","16:00","-29.2","","-32.4","","75","","","","11","","16","","16.1","","103.32","","","","-41","","Ice Crystals"
"-133.03","69.43","TUKTOYAKTUK A","2203913","2023-03-06 17:00","2023","03","06","17:00","-29.7","","-32.9","","74","","","","8","","14","","24.1","","103.33","","","","-41","","Clear"
"-133.03","69.43","TUKTOYAKTUK A","2203913","2023-03-06 18:00","2023","03","06","18:00","-30.2","","-33.4","","74","","","","8","","18","","24.1","","103.35","","","","-43","","NA"
"-133.03","69.43","TUKTOYAKTUK A","2203913","2023-03-06 19:00","2023","03","06","19:00","-30.5","","-33.7","","74","","","","14","","5","","24.1","","103.42","","","","-36","","NA"
"-133.03","69.43","TUKTOYAKTUK A","2203913","2023-03-06 20:00","2023","03","06","20:00","-31.5","","-34.7","","74","","","","9","","10","","24.1","","103.44","","","","-41","","Clear"
"-133.03","69.43","TUKTOYAKTUK A","2203913","2023-03-06 21:00","2023","03","06","21:00","-32.6","","-36.0","","73","","","","10","","8","","24.1","","103.47","","","","-41","","NA"
"-133.03","69.43","TUKTOYAKTUK A","2203913","2023-03-06 22:00","2023","03","06","22:00","-32.8","","-36.1","","73","","","","9","","12","","24.1","","103.51","","","","-44","","NA"
"-133.03","69.43","TUKTOYAKTUK A","2203913","2023-03-06 23:00","2023","03","06","23:00","-32.5","","-35.8","","73","","","","10","","16","","24.1","","103.54","","","","-45","","Clear"
"-133.03","69.43","TUKTOYAKTUK A","2203913","2023-03-07 00:00","2023","03","07","00:00"
"-133.03","69.43","TUKTOYAKTUK A","2203913","2023-03-07 01:00","2023","03","07","01:00"
"-133.03","69.43","TUKTOYAKTUK A","2203913","2023-03-07 02:00","2023","03","07","02:00"
"-133.03","69.43","TUKTOYAKTUK A","2203913","2023-03-07 03:00","2023","03","07","03:00"
"-133.03","69.43","TUKTOYAKTUK A","2203913","2023-03-07 04:00","2023","03","07","04:00"
"-133.03","69.43","TUKTOYAKTUK A","2203913","2023-03-07 05:00","2023","03","07","05:00"
"-133.03","69.43","TUKTOYAKTUK A","2203913","2023-03-07 06:00","2023","03","07","06:00"
"-133.03","69.43","TUKTOYAKTUK A","2203913","2023-03-07 07:00","2023","03","07","07:00","-32.2","","-35.5","","73","","","","13","","18","","24.1","","103.76","","","","-45","","NA"
"-133.03","69.43","TUKTOYAKTUK A","2203913","2023-03-07 08:00","2023","03","07","08:00","-32.0","","-35.3","","73","","","","14","","22","","24.1","","103.71","","","","-46","","Clear"
"-133.03","69.43","TUKTOYAKTUK A","2203913","2023-03-07 09:00","2023","03","07","09:00","-31.8","","-35.0","","73","","","","14","","19","","24.1","","103.73","","","","-45","","NA"
"-133.03","69.43","TUKTOYAKTUK A","2203913","2023-03-07 10:00","2023","03","07","10:00","-30.9","","-34.1","","74","","","","13","","13","","24.1","","103.74","","","","-42","","NA"
"-133.03","69.43","TUKTOYAKTUK A","2203913","2023-03-07 11:00","2023","03","07","11:00","-29.7","","-32.9","","75","","","","14","","16","","24.1","","103.79","","","","-41","","Mainly Clear"
"-133.03","69.43","TUKTOYAKTUK A","2203913","2023-03-07 12:00","2023","03","07","12:00","-28.8","","-31.9","","75","","","","13","","23","","24.1","","103.79","","","","-42","","NA"
"-133.03","69.43","TUKTOYAKTUK A","2203913","2023-03-07 13:00","2023","03","07","13:00","-27.4","","-30.4","","76","","","","14","","22","","24.1","","103.80","","","","-40","","NA"
"-133.03","69.43","TUKTOYAKTUK A","2203913","2023-03-07 14:00","2023","03","07","14:00","-26.4","","-29.4","","77","","","","14","","25","","24.1","","103.80","","","","-40","","Mainly Clear"
"-133.03","69.43","TUKTOYAKTUK A","2203913","2023-03-07 15:00","2023","03","07","15:00","-24.8","","-27.6","","78","","","","14","","23","","24.1","","103.80","","","","-37","","NA"
"-133.03","69.43","TUKTOYAKTUK A","2203913","2023-03-07 16:00","2023","03","07","16:00","-23.8","","-26.5","","79","","","","14","","27","","24.1","","103.79","","","","-37","","Blowing Snow"
"-133.03","69.43","TUKTOYAKTUK A","2203913","2023-03-07 17:00","2023","03","07","17:00","-22.8","","-25.4","","80","","","","14","","30","","24.1","","103.74","","","","-36","","Blowing Snow"
"-133.03","69.43","TUKTOYAKTUK A","2203913","2023-03-07 18:00","2023","03","07","18:00","-22.4","","-25.0","","80","","","","14","","25","","24.1","","103.76","","","","-35","","Blowing Snow"
"-133.03","69.43","TUKTOYAKTUK A","2203913","2023-03-07 19:00","2023","03","07","19:00","-22.9","","-25.5","","80","","","","14","","30","","24.1","","103.75","","","","-36","","Blowing Snow"
"-133.03","69.43","TUKTOYAKTUK A","2203913","2023-03-07 20:00","2023","03","07","20:00","-23.6","","-26.2","","79","","","","14","","32","","16.1","","103.74","","","","-38","","Blowing Snow"
"-133.03","69.43","TUKTOYAKTUK A","2203913","2023-03-07 21:00","2023","03","07","21:00","-23.7","","-26.4","","79","","","","14","","33","","16.1","","103.73","","","","-38","","Blowing Snow"
"-133.03","69.43","TUKTOYAKTUK A","2203913","2023-03-07 22:00","2023","03","07","22:00","-23.1","","-25.7","","80","","","","15","","35","","16.1","","103.71","","","","-37","","Blowing Snow"
"-133.03","69.43","TUKTOYAKTUK A","2203913","2023-03-07 23:00","2023","03","07","23:00","-22.4","","-25.0","","80","","","","16","","34","","16.1","","103.71","","","","-36","","Blowing Snow"
"-133.03","69.43","TUKTOYAKTUK A","2203913","2023-03-08 00:00","2023","03","08","00:00"
"-133.03","69.43","TUKTOYAKTUK A","2203913","2023-03-08 01:00","2023","03","08","01:00"
"-133.03","69.43","TUKTOYAKTUK A","2203913","2023-03-08 02:00","2023","03","08","02:00"
"-133.03","69.43","TUKTOYAKTUK A","2203913","2023-03-08 03:00","2023","03","08","03:00"
"-133.03","69.43","TUKTOYAKTUK A","2203913","2023-03-08 04:00","2023","03","08","04:00"
"-133.03","69.43","TUKTOYAKTUK A","2203913","2023-03-08 05:00","2023","03","08","05:00"
"-133.03","69.43","TUKTOYAKTUK A","2203913","2023-03-08 06:00","2023","03","08","06:00"
"-133.03","69.43","TUKTOYAKTUK A","2203913","2023-03-08 07:00","2023","03","08","07:00","-22.8","","-25.4","","80","","","","15","","36","","12.9","","103.40","","","","-37","","Blowing Snow"
"-133.03","69.43","TUKTOYAKTUK A","2203913","2023-03-08 08:00","2023","03","08","08:00","-22.6","","-25.2","","80","","","","16","","30","","24.1","","103.44","","","","-36","","Blowing Snow"
"-133.03","69.43","TUKTOYAKTUK A","2203913","2023-03-08 09:00","2023","03","08","09:00","-21.9","","-24.4","","81","","","","16","","27","","24.1","","103.39","","","","-34","","Blowing Snow"
"-133.03","69.43","TUKTOYAKTUK A","2203913","2023-03-08 10:00","2023","03","08","10:00","-21.0","","-23.4","","81","","","","15","","36","","24.1","","103.29","","","","-35","","Blowing Snow"
"-133.03","69.43","TUKTOYAKTUK A","2203913","2023-03-08 11:00","2023","03","08","11:00","-20.5","","-22.9","","81","","","","15","","36","","24.1","","103.22","","","","-34","","Blowing Snow"
"-133.03","69.43","TUKTOYAKTUK A","2203913","2023-03-08 12:00","2023","03","08","12:00","-19.6","","-22.1","","81","","","","14","","39","","24.1","","103.16","","","","-33","","Blowing Snow"
"-133.03","69.43","TUKTOYAKTUK A","2203913","2023-03-08 13:00","2023","03","08","13:00","-19.1","","-21.5","","82","","","","14","","35","","24.1","","103.10","","","","-32","","Blowing Snow"
"-133.03","69.43","TUKTOYAKTUK A","2203913","2023-03-08 14:00","2023","03","08","14:00","-18.6","","-21.1","","81","","","","14","","36","","24.1","","103.02","","","","-32","","Blowing Snow"
"-133.03","69.43","TUKTOYAKTUK A","2203913","2023-03-08 15:00","2023","03","08","15:00","-17.4","","-20.1","","79","","","","15","","30","","24.1","","102.96","","","","-29","","Blowing Snow"
"-133.03","69.43","TUKTOYAKTUK A","2203913","2023-03-08 16:00","2023","03","08","16:00","-17.1","","-20.2","","77","","","","15","","30","","24.1","","102.86","","","","-29","","Blowing Snow"
"-133.03","69.43","TUKTOYAKTUK A","2203913","2023-03-08 17:00","2023","03","08","17:00","-17.1","","-20.1","","78","","","","15","","32","","16.1","","102.77","","","","-29","","Blowing Snow"
"-133.03","69.43","TUKTOYAKTUK A","2203913","2023-03-08 18:00","2023","03","08","18:00","-16.5","","-19.8","","76","","","","15","","35","","24.1","","102.67","","","","-29","","Blowing Snow"
"-133.03","69.43","TUKTOYAKTUK A","2203913","2023-03-08 19:00","2023","03","08","19:00","-16.5","","-20.0","","75","","","","15","","35","","16.1","","102.63","","","","-29","","Blowing Snow"
"-133.03","69.43","TUKTOYAKTUK A","2203913","2023-03-08 20:00","2023","03","08","20:00","-16.4","","-19.9","","75","","","","15","","36","","16.1","","102.56","","","","-29","","Blowing Snow"
"-133.03","69.43","TUKTOYAKTUK A","2203913","2023-03-08 21:00","2023","03","08","21:00","-16.5","","-20.0","","75","","","","15","","38","","16.1","","102.48","","","","-29","","Blowing Snow"
"-133.03","69.43","TUKTOYAKTUK A","2203913","2023-03-08 22:00","2023","03","08","22:00","-16.6","","-20.4","","73","","","","16","","28","","16.1","","102.45","","","","-28","","Blowing Snow"
"-133.03","69.43","TUKTOYAKTUK A","2203913","2023-03-08 23:00","2023","03","08","23:00","-17.3","","-21.1","","73","","","","15","","30","","24.1","","102.37","","","","-29","","Blowing Snow"
"-133.03","69.43","TUKTOYAKTUK A","2203913","2023-03-09 00:00","2023","03","09","00:00"
"-133.03","69.43","TUKTOYAKTUK A","2203913","2023-03-09 01:00","2023","03","09","01:00"
"-133.03","69.43","TUKTOYAKTUK A","2203913","2023-03-09 02:00","2023","03","09","02:00"
"-133.03","69.43","TUKTOYAKTUK A","2203913","2023-03-09 03:00","2023","03","09","03:00"
"-133.03","69.43","TUKTOYAKTUK A","2203913","2023-03-09 04:00","2023","03","09","04:00"
"-133.03","69.43","TUKTOYAKTUK A","2203913","2023-03-09 05:00","2023","03","09","05:00"
"-133.03","69.43","TUKTOYAKTUK A","2203913","2023-03-09 06:00","2023","03","09","06:00"
"-133.03","69.43","TUKTOYAKTUK A","2203913","2023-03-09 07:00","2023","03","09","07:00","-23.3","","-26.5","","75","","","","13","","12","","24.1","","102.37","","","","-32","","NA"
"-133.03","69.43","TUKTOYAKTUK A","2203913","2023-03-09 08:00","2023","03","09","08:00","-24.8","","-28.2","","74","","","","16","","9","","24.1","","102.42","","","","-32","","Mostly Cloudy"
"-133.03","69.43","TUKTOYAKTUK A","2203913","2023-03-09 09:00","2023","03","09","09:00","-24.0","","-27.2","","75","","","","18","","7","","24.1","","102.47","","","","-30","","NA"
"-133.03","69.43","TUKTOYAKTUK A","2203913","2023-03-09 10:00","2023","03","09","10:00","-23.7","","-27.1","","74","","","","27","","4","","24.1","","102.53","","","","-28","","NA"
"-133.03","69.43","TUKTOYAKTUK A","2203913","2023-03-09 11:00","2023","03","09","11:00","-23.9","","-27.2","","75","","","","33","","9","","24.1","","102.61","","","","-31","","Mostly Cloudy"
"-133.03","69.43","TUKTOYAKTUK A","2203913","2023-03-09 12:00","2023","03","09","12:00","-23.0","","-26.6","","73","","","","3","","7","","24.1","","102.66","","","","-29","","NA"
"-133.03","69.43","TUKTOYAKTUK A","2203913","2023-03-09 13:00","2023","03","09","13:00","-21.8","","-25.5","","72","","","","8","","6","","16.1","","102.69","","","","-27","","Snow"
"-133.03","69.43","TUKTOYAKTUK A","2203913","2023-03-09 14:00","2023","03","09","14:00","-19.8","","-22.7","","78","","","","31","","5","","8.1","","102.76","","","","-24","","Snow"
"-133.03","69.43","TUKTOYAKTUK A","2203913","2023-03-09 15:00","2023","03","09","15:00","-15.7","","-17.8","","84","","","","32","","20","","4.8","","102.80","","","","-25","","Snow"
"-133.03","69.43","TUKTOYAKTUK A","2203913","2023-03-09 16:00","2023","03","09","16:00","-14.9","","-17.0","","84","","","","32","","39","","0.8","","102.86","","","","-27","","Snow,Blowing Snow"
"-133.03","69.43","TUKTOYAKTUK A","2203913","2023-03-09 17:00","2023","03","09","17:00","-15.5","","-17.7","","84","","","","32","","38","","0.6","","102.93","","","","-28","","Snow,Blowing Snow"
"-133.03","69.43","TUKTOYAKTUK A","2203913","2023-03-09 18:00","2023","03","09","18:00","-16.1","","-18.2","","84","","","","32","","37","","0.6","","102.99","","","","-29","","Snow,Blowing Snow"
"-133.03","69.43","TUKTOYAKTUK A","2203913","2023-03-09 19:00","2023","03","09","19:00","-16.7","","-18.8","","84","","","","33","","40","","0.2","","103.06","","","","-30","","Snow,Blowing Snow"
"-133.03","69.43","TUKTOYAKTUK A","2203913","2023-03-09 20:00","2023","03","09","20:00","-17.1","","-19.4","","83","","","","33","","35","","0.2","","103.14","","","","-30","","Snow,Blowing Snow"
"-133.03","69.43","TUKTOYAKTUK A","2203913","2023-03-09 21:00","2023","03","09","21:00","-17.8","","-20.1","","82","","","","33","","39","","0.4","","103.20","","","","-31","","Snow,Blowing Snow"
"-133.03","69.43","TUKTOYAKTUK A","2203913","2023-03-09 22:00","2023","03","09","22:00","-18.2","","-20.5","","82","","","","33","","31","","1.2","","103.25","","","","-30","","Snow,Blowing Snow"
"-133.03","69.43","TUKTOYAKTUK A","2203913","2023-03-09 23:00","2023","03","09","23:00","-18.6","","-21.0","","81","","","","34","","35","","1.2","","103.30","","","","-32","","Snow,Blowing Snow"
"-133.03","69.43","TUKTOYAKTUK A","2203913","2023-03-10 00:00","2023","03","10","00:00"
"-133.03","69.43","TUKTOYAKTUK A","2203913","2023-03-10 01:00","2023","03","10","01:00"
"-133.03","69.43","TUKTOYAKTUK A","2203913","2023-03-10 02:00","2023","03","10","02:00"
"-133.03","69.43","TUKTOYAKTUK A","2203913","2023-03-10 03:00","2023","03","10","03:00"
"-133.03","69.43","TUKTOYAKTUK A","2203913","2023-03-10 04:00","2023","03","10","04:00"
"-133.03","69.43","TUKTOYAKTUK A","2203913","2023-03-10 05:00","2023","03","10","05:00"
"-133.03","69.43","TUKTOYAKTUK A","2203913","2023-03-10 06:00","2023","03","10","06:00"
"-133.03","69.43","TUKTOYAKTUK A","2203913","2023-03-10 07:00","2023","03","10","07:00","-24.9","","-27.4","","80","","","","27","","21","","24.1","","103.42","","","","-37","","NA"
"-133.03","69.43","TUKTOYAKTUK A","2203913","2023-03-10 08:00","2023","03","10","08:00","-24.7","","-27.1","","81","","","","29","","22","","16.1","","103.41","","","","-37","","Mainly Clear"
"-133.03","69.43","TUKTOYAKTUK A","2203913","2023-03-10 09:00","2023","03","10","09:00","-25.1","","-27.5","","81","","","","29","","21","","16.1","","103.38","","","","-37","","NA"
"-133.03","69.43","TUKTOYAKTUK A","2203913","2023-03-10 10:00","2023","03","10","10:00","-24.2","","-26.6","","81","","","","29","","25","","16.1","","103.36","","","","-37","","NA"
"-133.03","69.43","TUKTOYAKTUK A","2203913","2023-03-10 11:00","2023","03","10","11:00","-24.4","","-26.9","","80","","","","28","","23","","16.1","","103.35","","","","-37","","Ice Crystals"
"-133.03","69.43","TUKTOYAKTUK A","2203913","2023-03-10 12:00","2023","03","10","12:00","-22.3","","-24.7","","81","","","","29","","26","","16.1","","103.32","","","","-35","","Ice Crystals"
"-133.03","69.43","TUKTOYAKTUK A","2203913","2023-03-10 13:00","2023","03","10","13:00","-21.4","","-23.8","","81","","","","29","","28","","9.7","","103.31","","","","-34","","Fog"
"-133.03","69.43","TUKTOYAKTUK A","2203913","2023-03-10 14:00","2023","03","10","14:00","-20.8","","-23.3","","80","","","","28","","25","","9.7","","103.29","","","","-33","","Ice Crystals,Fog"
"-133.03","69.43","TUKTOYAKTUK A","2203913","2023-03-10 15:00","2023","03","10","15:00","-20.2","","-22.8","","80","","","","28","","25","","12.9","","103.26","","","","-32","","Ice Crystals"
"-133.03","69.43","TUKTOYAKTUK A","2203913","2023-03-10 16:00","2023","03","10","16:00","-20.2","","-22.9","","80","","","","28","","21","","16.1","","103.25","","","","-31","","Ice Crystals"
"-133.03","69.43","TUKTOYAKTUK A","2203913","2023-03-10 17:00","2023","03","10","17:00","-20.7","","-23.4","","80","","","","27","","25","","24.1","","103.22","","","","-33","","Clear"
"-133.03","69.43","TUKTOYAKTUK A","2203913","2023-03-10 18:00","2023","03","10","18:00","-21.8","","-24.4","","80","","","","27","","18","","24.1","","103.19","","","","-32","","NA"
"-133.03","69.43","TUKTOYAKTUK A","2203913","2023-03-10 19:00","2023","03","10","19:00","-22.6","","-25.1","","80","","","","28","","20","","24.1","","103.17","","","","-34","","NA"
"-133.03","69.43","TUKTOYAKTUK A","2203913","2023-03-10 20:00","2023","03","10","20:00","-23.2","","-25.7","","80","","","","29","","19","","24.1","","103.18","","","","-34","","Mainly Clear"
"-133.03","69.43","TUKTOYAKTUK A","2203913","2023-03-10 21:00","2023","03","10","21:00","-23.7","","-26.2","","80","","","","28","","21","","24.1","","103.15","","","","-35","","NA"
"-133.03","69.43","TUKTOYAKTUK A","2203913","2023-03-10 22:00","2023","03","10","22:00","-25.1","","-27.6","","80","","","","27","","15","","24.1","","103.14","","","","-35","","NA"
"-133.03","69.43","TUKTOYAKTUK A","2203913","2023-03-10 23:00","2023","03","10","23:00","-26.0","","-28.5","","80","","","","28","","15","","24.1","","103.12","","","","-36","","Clear"
"-133.03","69.43","TUKTOYAKTUK A","2203913","2023-03-11 00:00","2023","03","11","00:00"
"-133.03","69.43","TUKTOYAKTUK A","2203913","2023-03-11 01:00","2023","03","11","01:00"
"-133.03","69.43","TUKTOYAKTUK A","2203913","2023-03-11 02:00","2023","03","11","02:00"
"-133.03","69.43","TUKTOYAKTUK A","2203913","2023-03-11 03:00","2023","03","11","03:00"
"-133.03","69.43","TUKTOYAKTUK A","2203913","2023-03-11 04:00","2023","03","11","04:00"
"-133.03","69.43","TUKTOYAKTUK A","2203913","2023-03-11 05:00","2023","03","11","05:00"
"-133.03","69.43","TUKTOYAKTUK A","2203913","2023-03-11 06:00","2023","03","11","06:00"
"-133.03","69.43","TUKTOYAKTUK A","2203913","2023-03-11 07:00","2023","03","11","07:00","-25.5","","-27.9","","80","","","","19","","9","","24.1","","102.98","","","","-33","","NA"
"-133.03","69.43","TUKTOYAKTUK A","2203913","2023-03-11 08:00","2023","03","11","08:00","-24.8","","-27.2","","81","","","","18","","12","","24.1","","102.96","","","","-34","","Mostly Cloudy"
"-133.03","69.43","TUKTOYAKTUK A","2203913","2023-03-11 09:00","2023","03","11","09:00","-24.1","","-26.5","","81","","","","21","","17","","24.1","","102.90","","","","-35","","NA"
"-133.03","69.43","TUKTOYAKTUK A","2203913","2023-03-11 10:00","2023","03","11","10:00","-22.0","","-24.6","","79","","","","22","","18","","24.1","","102.87","","","","-32","","NA"
"-133.03","69.43","TUKTOYAKTUK A","2203913","2023-03-11 11:00","2023","03","11","11:00","-20.1","","-22.7","","80","","","","24","","21","","9.7","","102.83","","","","-31","","Snow"
"-133.03","69.43","TUKTOYAKTUK A","2203913","2023-03-11 12:00","2023","03","11","12:00","-17.6","","-19.9","","82","","","","25","","22","","9.7","","102.83","","","","-28","","Snow Showers"
"-133.03","69.43","TUKTOYAKTUK A","2203913","2023-03-11 13:00","2023","03","11","13:00","-15.6","","-17.8","","83","","","","27","","32","","4.8","","102.81","","","","-27","","Snow Showers,Blowing Snow"
"-133.03","69.43","TUKTOYAKTUK A","2203913","2023-03-11 14:00","2023","03","11","14:00","-15.5","","-17.8","","83","","","","27","","31","","4.8","","102.82","","","","-27","","Snow,Blowing Snow"
"-133.03","69.43","TUKTOYAKTUK A","2203913","2023-03-11 15:00","2023","03","11","15:00","-14.7","","-17.0","","83","","","","27","","28","","8.1","","102.84","","","","-25","","Snow,Blowing Snow"
"-133.03","69.43","TUKTOYAKTUK A","2203913","2023-03-11 16:00","2023","03","11","16:00","-13.9","","-15.9","","85","","","","29","","18","","12.9","","102.83","","","","-22","","Snow,Blowing Snow"
"-133.03","69.43","TUKTOYAKTUK A","2203913","2023-03-11 17:00","2023","03","11","17:00","-14.1","","-16.2","","84","","","","32","","25","","12.9","","102.81","","","","-24","","Snow,Blowing Snow"
"-133.03","69.43","TUKTOYAKTUK A","2203913","2023-03-11 18:00","2023","03","11","18:00","-14.9","","-16.8","","85","","","","31","","14","","24.1","","102.81","","","","-22","","NA"
"-133.03","69.43","TUKTOYAKTUK A","2203913","2023-03-11 19:00","2023","03","11","19:00","-16.0","","-17.8","","86","","","","31","","14","","24.1","","102.79","","","","-24","","NA"
"-133.03","69.43","TUKTOYAKTUK A","2203913","2023-03-11 20:00","2023","03","11","20:00","-16.6","","-18.4","","86","","","","24","","8","","24.1","","102.79","","","","-22","","Cloudy"
"-133.03","69.43","TUKTOYAKTUK A","2203913","2023-03-11 21:00","2023","03","11","21:00","-16.6","","-18.3","","86","","","","27","","10","","24.1","","102.77","","","","-23","","NA"
"-133.03","69.43","TUKTOYAKTUK A","2203913","2023-03-11 22:00","2023","03","11","22:00","-16.2","","-17.9","","88","","","","36","","2","","24.1","","102.74","","","","-18","","Snow"
"-133.03","69.43","TUKTOYAKTUK A","2203913","2023-03-11 23:00","2023","03","11","23:00","-16.1","","-17.9","","87","","","","19","","4","","24.1","","102.70","","","","-19","","Snow"
"-133.03","69.43","TUKTOYAKTUK A","2203913","2023-03-12 00:00","2023","03","12","00:00"
"-133.03","69.43","TUKTOYAKTUK A","2203913","2023-03-12 01:00","2023","03","12","01:00"
"-133.03","69.43","TUKTOYAKTUK A","2203913","2023-03-12 02:00","2023","03","12","02:00"
"-133.03","69.43","TUKTOYAKTUK A","2203913","2023-03-12 03:00","2023","03","12","03:00"
"-133.03","69.43","TUKTOYAKTUK A","2203913","2023-03-12 04:00","2023","03","12","04:00"
"-133.03","69.43","TUKTOYAKTUK A","2203913","2023-03-12 05:00","2023","03","12","05:00"
"-133.03","69.43","TUKTOYAKTUK A","2203913","2023-03-12 06:00","2023","03","12","06:00","-18.1","","-20.2","","84","","","","12","","16","","3.2","","102.25","","","","-27","","Fog"
"-133.03","69.43","TUKTOYAKTUK A","2203913","2023-03-12 07:00","2023","03","12","07:00","-18.4","","-20.4","","84","","","","12","","18","","11.3","","102.17","","","","-28","","NA"
"-133.03","69.43","TUKTOYAKTUK A","2203913","2023-03-12 08:00","2023","03","12","08:00","-18.4","","-20.4","","84","","","","12","","15","","16.1","","102.12","","","","-27","","Cloudy"
"-133.03","69.43","TUKTOYAKTUK A","2203913","2023-03-12 09:00","2023","03","12","09:00","-17.8","","-19.8","","84","","","","14","","9","","16.1","","102.07","","","","-24","","NA"
"-133.03","69.43","TUKTOYAKTUK A","2203913","2023-03-12 10:00","2023","03","12","10:00","-17.7","","-19.8","","84","","","","15","","8","","16.1","","102.02","","","","-24","","NA"
"-133.03","69.43","TUKTOYAKTUK A","2203913","2023-03-12 11:00","2023","03","12","11:00","-17.6","","-19.6","","84","","","","17","","8","","16.1","","101.97","","","","-23","","Cloudy"
"-133.03","69.43","TUKTOYAKTUK A","2203913","2023-03-12 12:00","2023","03","12","12:00","-17.6","","-19.7","","84","","","","19","","6","","16.1","","101.96","","","","-22","","NA"
"-133.03","69.43","TUKTOYAKTUK A","2203913","2023-03-12 13:00","2023","03","12","13:00","-17.5","","-19.5","","84","","","","22","","9","","4.8","","101.93","","","","-24","","Snow"
"-133.03","69.43","TUKTOYAKTUK A","2203913","2023-03-12 14:00","2023","03","12","14:00","-16.8","","-18.7","","85","","","","24","","11","","4.8","","101.93","","","","-24","","Snow"
"-133.03","69.43","TUKTOYAKTUK A","2203913","2023-03-12 15:00","2023","03","12","15:00","-16.2","","-18.1","","85","","","","27","","14","","6.4","","101.91","","","","-24","","Snow"
"-133.03","69.43","TUKTOYAKTUK A","2203913","2023-03-12 16:00","2023","03","12","16:00","-16.4","","-18.4","","85","","","","30","","19","","8.1","","101.90","","","","-26","","Snow"
"-133.03","69.43","TUKTOYAKTUK A","2203913","2023-03-12 17:00","2023","03","12","17:00","-16.9","","-18.9","","85","","","","32","","24","","8.1","","101.92","","","","-27","","Snow"
"-133.03","69.43","TUKTOYAKTUK A","2203913","2023-03-12 18:00","2023","03","12","18:00","-17.0","","-19.0","","85","","","","32","","21","","12.9","","101.94","","","","-27","","Snow"
"-133.03","69.43","TUKTOYAKTUK A","2203913","2023-03-12 19:00","2023","03","12","19:00","-17.8","","-19.9","","84","","","","33","","31","","6.4","","101.98","","","","-30","","Snow,Blowing Snow"
"-133.03","69.43","TUKTOYAKTUK A","2203913","2023-03-12 20:00","2023","03","12","20:00","-18.5","","-20.6","","84","","","","33","","30","","8.1","","102.06","","","","-31","","Snow,Blowing Snow"
"-133.03","69.43","TUKTOYAKTUK A","2203913","2023-03-12 21:00","2023","03","12","21:00","-19.1","","-21.3","","83","","","","33","","31","","9.7","","102.13","","","","-32","","Snow,Blowing Snow"
"-133.03","69.43","TUKTOYAKTUK A","2203913","2023-03-12 22:00","2023","03","12","22:00","-19.4","","-21.6","","83","","","","33","","34","","6.4","","102.17","","","","-32","","Snow,Blowing Snow"
"-133.03","69.43","TUKTOYAKTUK A","2203913","2023-03-12 23:00","2023","03","12","23:00"
"-133.03","69.43","TUKTOYAKTUK A","2203913","2023-03-13 00:00","2023","03","13","00:00","-20.0","","-22.3","","82","","","","33","","26","","11.3","","102.26","","","","-32","","Snow,Blowing Snow"
"-133.03","69.43","TUKTOYAKTUK A","2203913","2023-03-13 01:00","2023","03","13","01:00","-21.2","","-23.6","","81","","","","32","","28","","16.1","","102.29","","","","-34","","Snow,Blowing Snow"
"-133.03","69.43","TUKTOYAKTUK A","2203913","2023-03-13 02:00","2023","03","13","02:00","-22.4","","-24.9","","81","","","","32","","23","","12.9","","102.34","","","","-34","","Snow,Blowing Snow"
"-133.03","69.43","TUKTOYAKTUK A","2203913","2023-03-13 03:00","2023","03","13","03:00","-23.4","","-26.0","","80","","","","32","","23","","16.1","","102.36","","","","-36","","Snow,Blowing Snow"
"-133.03","69.43","TUKTOYAKTUK A","2203913","2023-03-13 04:00","2023","03","13","04:00"
"-133.03","69.43","TUKTOYAKTUK A","2203913","2023-03-13 05:00","2023","03","13","05:00"
"-133.03","69.43","TUKTOYAKTUK A","2203913","2023-03-13 06:00","2023","03","13","06:00","-26.2","","-29.0","","78","","","","29","","16","","24.1","","102.45","","","","-37","","NA"
"-133.03","69.43","TUKTOYAKTUK A","2203913","2023-03-13 07:00","2023","03","13","07:00","-27.1","","-30.0","","77","","","","27","","17","","24.1","","102.45","","","","-39","","NA"
"-133.03","69.43","TUKTOYAKTUK A","2203913","2023-03-13 08:00","2023","03","13","08:00","-28.1","","-31.0","","77","","","","27","","17","","24.1","","102.44","","","","-40","","Mainly Clear"
"-133.03","69.43","TUKTOYAKTUK A","2203913","2023-03-13 09:00","2023","03","13","09:00","-28.9","","-31.9","","76","","","","27","","16","","24.1","","102.42","","","","-40","","NA"
"-133.03","69.43","TUKTOYAKTUK A","2203913","2023-03-13 10:00","2023","03","13","10:00","-28.8","","-31.8","","76","","","","27","","18","","24.1","","102.41","","","","-41","","NA"
"-133.03","69.43","TUKTOYAKTUK A","2203913","2023-03-13 11:00","2023","03","13","11:00","-28.6","","-31.5","","76","","","","27","","19","","24.1","","102.38","","","","-41","","Mainly Clear"
"-133.03","69.43","TUKTOYAKTUK A","2203913","2023-03-13 12:00","2023","03","13","12:00","-27.5","","-30.4","","77","","","","27","","22","","24.1","","102.34","","","","-40","","NA"
"-133.03","69.43","TUKTOYAKTUK A","2203913","2023-03-13 13:00","2023","03","13","13:00","-27.1","","-30.0","","77","","","","27","","22","","24.1","","102.36","","","","-40","","NA"
"-133.03","69.43","TUKTOYAKTUK A","2203913","2023-03-13 14:00","2023","03","13","14:00","-26.3","","-29.1","","77","","","","27","","19","","24.1","","102.34","","","","-38","","Mainly Clear"
"-133.03","69.43","TUKTOYAKTUK A","2203913","2023-03-13 15:00","2023","03","13","15:00","-25.5","","-28.3","","78","","","","26","","17","","24.1","","102.32","","","","-37","","NA"
"-133.03","69.43","TUKTOYAKTUK A","2203913","2023-03-13 16:00","2023","03","13","16:00","-25.3","","-28.1","","78","","","","27","","17","","24.1","","102.28","","","","-36","","NA"
"-133.03","69.43","TUKTOYAKTUK A","2203913","2023-03-13 17:00","2023","03","13","17:00","-25.7","","-28.6","","77","","","","27","","16","","24.1","","102.24","","","","-36","","Mainly Clear"
"-133.03","69.43","TUKTOYAKTUK A","2203913","2023-03-13 18:00","2023","03","13","18:00","-26.8","","-29.8","","76","","","","23","","11","","24.1","","102.21","","","","-36","","NA"
"-133.03","69.43","TUKTOYAKTUK A","2203913","2023-03-13 19:00","2023","03","13","19:00","-27.8","","-30.9","","75","","","","25","","14","","24.1","","102.18","","","","-38","","NA"
"-133.03","69.43","TUKTOYAKTUK A","2203913","2023-03-13 20:00","2023","03","13","20:00","-29.0","","-32.0","","76","","","","24","","15","","24.1","","102.16","","","","-40","","Clear"
"-133.03","69.43","TUKTOYAKTUK A","2203913","2023-03-13 21:00","2023","03","13","21:00","-30.7","","-33.8","","75","","","","24","","12","","24.1","","102.17","","","","-41","","NA"
"-133.03","69.43","TUKTOYAKTUK A","2203913","2023-03-13 22:00","2023","03","13","22:00","-30.8","","-33.9","","75","","","","25","","16","","24.1","","102.15","","","","-43","","NA"
"-133.03","69.43","TUKTOYAKTUK A","2203913","2023-03-13 23:00","2023","03","13","23:00"
"-133.03","69.43","TUKTOYAKTUK A","2203913","2023-03-14 00:00","2023","03","14","00:00"
"-133.03","69.43","TUKTOYAKTUK A","2203913","2023-03-14 01:00","2023","03","14","01:00"
"-133.03","69.43","TUKTOYAKTUK A","2203913","2023-03-14 02:00","2023","03","14","02:00"
"-133.03","69.43","TUKTOYAKTUK A","2203913","2023-03-14 03:00","2023","03","14","03:00"
"-133.03","69.43","TUKTOYAKTUK A","2203913","2023-03-14 04:00","2023","03","14","04:00"
"-133.03","69.43","TUKTOYAKTUK A","2203913","2023-03-14 05:00","2023","03","14","05:00"
"-133.03","69.43","TUKTOYAKTUK A","2203913","2023-03-14 06:00","2023","03","14","06:00","-33.5","","-36.8","","73","","","","28","","11","","24.1","","102.22","","","","-44","","NA"
"-133.03","69.43","TUKTOYAKTUK A","2203913","2023-03-14 07:00","2023","03","14","07:00","-33.8","","-37.1","","73","","","","28","","13","","24.1","","102.25","","","","-45","","NA"
"-133.03","69.43","TUKTOYAKTUK A","2203913","2023-03-14 08:00","2023","03","14","08:00","-34.3","","-37.6","","73","","","","29","","13","","24.1","","102.29","","","","-46","","Mainly Clear"
"-133.03","69.43","TUKTOYAKTUK A","2203913","2023-03-14 09:00","2023","03","14","09:00","-34.4","","-37.7","","73","","","","29","","14","","24.1","","102.33","","","","-46","","NA"
"-133.03","69.43","TUKTOYAKTUK A","2203913","2023-03-14 10:00","2023","03","14","10:00","-33.1","","-36.4","","73","","","","30","","14","","24.1","","102.36","","","","-45","","NA"
"-133.03","69.43","TUKTOYAKTUK A","2203913","2023-03-14 11:00","2023","03","14","11:00","-32.4","","-35.7","","73","","","","30","","14","","24.1","","102.38","","","","-44","","Mainly Clear"
"-133.03","69.43","TUKTOYAKTUK A","2203913","2023-03-14 12:00","2023","03","14","12:00","-31.0","","-34.2","","74","","","","31","","14","","24.1","","102.43","","","","-42","","NA"
"-133.03","69.43","TUKTOYAKTUK A","2203913","2023-03-14 13:00","2023","03","14","13:00","-29.9","","-33.1","","74","","","","29","","12","","24.1","","102.48","","","","-40","","NA"
"-133.03","69.43","TUKTOYAKTUK A","2203913","2023-03-14 14:00","2023","03","14","14:00","-29.1","","-32.3","","74","","","","25","","12","","24.1","","102.49","","","","-39","","Mainly Clear"
"-133.03","69.43","TUKTOYAKTUK A","2203913","2023-03-14 15:00","2023","03","14","15:00","-28.5","","-31.6","","75","","","","27","","15","","24.1","","102.50","","","","-40","","NA"
"-133.03","69.43","TUKTOYAKTUK A","2203913","2023-03-14 16:00","2023","03","14","16:00","-28.2","","-31.4","","75","","","","29","","18","","24.1","","102.50","","","","-40","","NA"
"-133.03","69.43","TUKTOYAKTUK A","2203913","2023-03-14 17:00","2023","03","14","17:00","-28.4","","-31.5","","75","","","","30","","12","","24.1","","102.53","","","","-38","","Mainly Clear"
"-133.03","69.43","TUKTOYAKTUK A","2203913","2023-03-14 18:00","2023","03","14","18:00","-29.2","","-32.3","","75","","","","30","","13","","24.1","","102.54","","","","-40","","NA"
"-133.03","69.43","TUKTOYAKTUK A","2203913","2023-03-14 19:00","2023","03","14","19:00","-30.5","","-33.7","","74","","","","29","","12","","24.1","","102.57","","","","-41","","NA"
"-133.03","69.43","TUKTOYAKTUK A","2203913","2023-03-14 20:00","2023","03","14","20:00","-31.7","","-34.9","","74","","","","30","","13","","24.1","","102.59","","","","-43","","Mainly Clear"
"-133.03","69.43","TUKTOYAKTUK A","2203913","2023-03-14 21:00","2023","03","14","21:00","-32.8","","-36.0","","74","","","","30","","12","","24.1","","102.62","","","","-44","","NA"
"-133.03","69.43","TUKTOYAKTUK A","2203913","2023-03-14 22:00","2023","03","14","22:00","-33.4","","-36.7","","73","","","","30","","15","","24.1","","102.65","","","","-46","","NA"
"-133.03","69.43","TUKTOYAKTUK A","2203913","2023-03-14 23:00","2023","03","14","23:00"
"-133.03","69.43","TUKTOYAKTUK A","2203913","2023-03-15 00:00","2023","03","15","00:00"
"-133.03","69.43","TUKTOYAKTUK A","2203913","2023-03-15 01:00","2023","03","15","01:00"
"-133.03","69.43","TUKTOYAKTUK A","2203913","2023-03-15 02:00","2023","03","15","02:00"
"-133.03","69.43","TUKTOYAKTUK A","2203913","2023-03-15 03:00","2023","03","15","03:00"
"-133.03","69.43","TUKTOYAKTUK A","2203913","2023-03-15 04:00","2023","03","15","04:00"
"-133.03","69.43","TUKTOYAKTUK A","2203913","2023-03-15 05:00","2023","03","15","05:00"
"-133.03","69.43","TUKTOYAKTUK A","2203913","2023-03-15 06:00","2023","03","15","06:00","-37.4","","-40.9","","71","","","","21","","6","","16.1","","102.69","","","","-45","","Ice Crystals"
"-133.03","69.43","TUKTOYAKTUK A","2203913","2023-03-15 07:00","2023","03","15","07:00","-37.3","","-40.8","","71","","","","25","","7","","24.1","","102.68","","","","-46","","Ice Crystals"
"-133.03","69.43","TUKTOYAKTUK A","2203913","2023-03-15 08:00","2023","03","15","08:00","-37.6","","-41.1","","71","","","","22","","6","","24.1","","102.67","","","","-45","","Ice Crystals"
"-133.03","69.43","TUKTOYAKTUK A","2203913","2023-03-15 09:00","2023","03","15","09:00","-37.5","","-41.0","","71","","","","22","","7","","24.1","","102.66","","","","-46","","NA"
"-133.03","69.43","TUKTOYAKTUK A","2203913","2023-03-15 10:00","2023","03","15","10:00","-36.9","","-40.5","","71","","","","22","","6","","24.1","","102.66","","","","-44","","NA"
"-133.03","69.43","TUKTOYAKTUK A","2203913","2023-03-15 11:00","2023","03","15","11:00","-36.4","","-39.9","","71","","","","20","","7","","24.1","","102.63","","","","-45","","Mostly Cloudy"
"-133.03","69.43","TUKTOYAKTUK A","2203913","2023-03-15 12:00","2023","03","15","12:00","-35.0","","-38.4","","72","","","","17","","3","","24.1","","102.64","","","","-39","","NA"
"-133.03","69.43","TUKTOYAKTUK A","2203913","2023-03-15 13:00","2023","03","15","13:00","-33.1","","-36.5","","72","","","","36","","2","","24.1","","102.62","","","","-36","","NA"
"-133.03","69.43","TUKTOYAKTUK A","2203913","2023-03-15 14:00","2023","03","15","14:00","-32.7","","-36.1","","73","","","","17","","5","","24.1","","102.59","","","","-39","","Mostly Cloudy"
"-133.03","69.43","TUKTOYAKTUK A","2203913","2023-03-15 15:00","2023","03","15","15:00","-32.7","","-36.0","","73","","","","17","","5","","24.1","","102.55","","","","-39","","NA"
"-133.03","69.43","TUKTOYAKTUK A","2203913","2023-03-15 16:00","2023","03","15","16:00","-31.5","","-34.8","","73","","","","17","","5","","24.1","","102.51","","","","-37","","NA"
"-133.03","69.43","TUKTOYAKTUK A","2203913","2023-03-15 17:00","2023","03","15","17:00","-31.4","","-34.7","","74","","","","15","","6","","24.1","","102.45","","","","-38","","Mostly Cloudy"
"-133.03","69.43","TUKTOYAKTUK A","2203913","2023-03-15 18:00","2023","03","15","18:00","-31.6","","-34.9","","74","","","","13","","9","","24.1","","102.40","","","","-40","","NA"
"-133.03","69.43","TUKTOYAKTUK A","2203913","2023-03-15 19:00","2023","03","15","19:00","-32.1","","-35.4","","73","","","","14","","8","","24.1","","102.39","","","","-40","","NA"
"-133.03","69.43","TUKTOYAKTUK A","2203913","2023-03-15 20:00","2023","03","15","20:00","-33.8","","-37.2","","72","","","","13","","6","","24.1","","102.36","","","","-41","","Mainly Clear"
"-133.03","69.43","TUKTOYAKTUK A","2203913","2023-03-15 21:00","2023","03","15","21:00","-34.6","","-38.0","","72","","","","12","","8","","24.1","","102.32","","","","-43","","NA"
"-133.03","69.43","TUKTOYAKTUK A","2203913","2023-03-15 22:00","2023","03","15","22:00","-35.9","","-39.4","","71","","","","10","","7","","24.1","","102.31","","","","-44","","NA"
"-133.03","69.43","TUKTOYAKTUK A","2203913","2023-03-15 23:00","2023","03","15","23:00"
"-133.03","69.43","TUKTOYAKTUK A","2203913","2023-03-16 00:00","2023","03","16","00:00"
"-133.03","69.43","TUKTOYAKTUK A","2203913","2023-03-16 01:00","2023","03","16","01:00"
"-133.03","69.43","TUKTOYAKTUK A","2203913","2023-03-16 02:00","2023","03","16","02:00"
"-133.03","69.43","TUKTOYAKTUK A","2203913","2023-03-16 03:00","2023","03","16","03:00"
"-133.03","69.43","TUKTOYAKTUK A","2203913","2023-03-16 04:00","2023","03","16","04:00"
"-133.03","69.43","TUKTOYAKTUK A","2203913","2023-03-16 05:00","2023","03","16","05:00"
"-133.03","69.43","TUKTOYAKTUK A","2203913","2023-03-16 06:00","2023","03","16","06:00","-36.2","","-39.8","","71","","","","10","","6","","24.1","","102.15","","","","-44","","NA"
"-133.03","69.43","TUKTOYAKTUK A","2203913","2023-03-16 07:00","2023","03","16","07:00","-37.1","","-40.7","","70","","","","13","","4","","24.1","","102.16","","","","-42","","NA"
"-133.03","69.43","TUKTOYAKTUK A","2203913","2023-03-16 08:00","2023","03","16","08:00","-36.5","","-40.0","","71","","","","36","","3","","24.1","","102.21","","","","-40","","Mainly Clear"
"-133.03","69.43","TUKTOYAKTUK A","2203913","2023-03-16 09:00","2023","03","16","09:00","-37.3","","-40.9","","70","","","","10","","5","","24.1","","102.20","","","","-44","","NA"
"-133.03","69.43","TUKTOYAKTUK A","2203913","2023-03-16 10:00","2023","03","16","10:00","-36.0","","-39.6","","71","","","","15","","3","","24.1","","102.21","","","","-40","","NA"
"-133.03","69.43","TUKTOYAKTUK A","2203913","2023-03-16 11:00","2023","03","16","11:00","-35.1","","-38.6","","71","","","","36","","1","","24.1","","102.22","","","","-36","","Mainly Clear"
"-133.03","69.43","TUKTOYAKTUK A","2203913","2023-03-16 12:00","2023","03","16","12:00","-33.8","","-37.2","","72","","","","18","","3","","24.1","","102.21","","","","-37","","NA"
"-133.03","69.43","TUKTOYAKTUK A","2203913","2023-03-16 13:00","2023","03","16","13:00","-32.9","","-36.3","","72","","","","36","","3","","24.1","","102.20","","","","-37","","Snow"
"-133.03","69.43","TUKTOYAKTUK A","2203913","2023-03-16 14:00","2023","03","16","14:00","-32.1","","-35.5","","73","","","","19","","4","","24.1","","102.23","","","","-37","","Ice Crystals"
"-133.03","69.43","TUKTOYAKTUK A","2203913","2023-03-16 15:00","2023","03","16","15:00","-31.3","","-34.6","","73","","","","36","","1","","24.1","","102.23","","","","-32","","Ice Crystals"
"-133.03","69.43","TUKTOYAKTUK A","2203913","2023-03-16 16:00","2023","03","16","16:00","-30.9","","-34.2","","73","","","","16","","4","","24.1","","102.25","","","","-35","","Ice Crystals"
"-133.03","69.43","TUKTOYAKTUK A","2203913","2023-03-16 17:00","2023","03","16","17:00","-31.2","","-34.5","","73","","","","18","","4","","24.1","","102.24","","","","-36","","Clear"
"-133.03","69.43","TUKTOYAKTUK A","2203913","2023-03-16 18:00","2023","03","16","18:00","-31.2","","-34.5","","73","","","","13","","4","","24.1","","102.21","","","","-36","","NA"
"-133.03","69.43","TUKTOYAKTUK A","2203913","2023-03-16 19:00","2023","03","16","19:00","-32.2","","-35.5","","73","","","","11","","6","","24.1","","102.21","","","","-39","","NA"
"-133.03","69.43","TUKTOYAKTUK A","2203913","2023-03-16 20:00","2023","03","16","20:00","-33.5","","-36.9","","72","","","","12","","6","","24.1","","102.22","","","","-41","","Clear"
"-133.03","69.43","TUKTOYAKTUK A","2203913","2023-03-16 21:00","2023","03","16","21:00","-33.7","","-37.1","","72","","","","15","","6","","24.1","","102.26","","","","-41","","NA"
"-133.03","69.43","TUKTOYAKTUK A","2203913","2023-03-16 22:00","2023","03","16","22:00","-35.0","","-38.5","","72","","","","10","","5","","24.1","","102.25","","","","-41","","NA"
"-133.03","69.43","TUKTOYAKTUK A","2203913","2023-03-16 23:00","2023","03","16","23:00"
"-133.03","69.43","TUKTOYAKTUK A","2203913","2023-03-17 00:00","2023","03","17","00:00"
"-133.03","69.43","TUKTOYAKTUK A","2203913","2023-03-17 01:00","2023","03","17","01:00"
"-133.03","69.43","TUKTOYAKTUK A","2203913","2023-03-17 02:00","2023","03","17","02:00"
"-133.03","69.43","TUKTOYAKTUK A","2203913","2023-03-17 03:00","2023","03","17","03:00"
"-133.03","69.43","TUKTOYAKTUK A","2203913","2023-03-17 04:00","2023","03","17","04:00"
"-133.03","69.43","TUKTOYAKTUK A","2203913","2023-03-17 05:00","2023","03","17","05:00"
"-133.03","69.43","TUKTOYAKTUK A","2203913","2023-03-17 06:00","2023","03","17","06:00","-34.9","","-38.4","","71","","","","11","","12","","24.1","","102.22","","","","-46","","NA"
"-133.03","69.43","TUKTOYAKTUK A","2203913","2023-03-17 07:00","2023","03","17","07:00","-34.6","","-38.0","","72","","","","11","","9","","24.1","","102.24","","","","-44","","NA"
"-133.03","69.43","TUKTOYAKTUK A","2203913","2023-03-17 08:00","2023","03","17","08:00","-34.7","","-38.2","","71","","","","10","","16","","24.1","","102.22","","","","-48","","Mainly Clear"
"-133.03","69.43","TUKTOYAKTUK A","2203913","2023-03-17 09:00","2023","03","17","09:00","-34.6","","-38.0","","72","","","","9","","8","","24.1","","102.22","","","","-43","","NA"
"-133.03","69.43","TUKTOYAKTUK A","2203913","2023-03-17 10:00","2023","03","17","10:00","-33.4","","-36.8","","72","","","","11","","13","","24.1","","102.26","","","","-45","","NA"
"-133.03","69.43","TUKTOYAKTUK A","2203913","2023-03-17 11:00","2023","03","17","11:00","-32.5","","-35.8","","73","","","","10","","10","","24.1","","102.25","","","","-42","","Clear"
"-133.03","69.43","TUKTOYAKTUK A","2203913","2023-03-17 12:00","2023","03","17","12:00","-31.0","","-34.3","","73","","","","10","","11","","24.1","","102.26","","","","-41","","NA"
"-133.03","69.43","TUKTOYAKTUK A","2203913","2023-03-17 13:00","2023","03","17","13:00","-29.8","","-33.0","","74","","","","9","","12","","24.1","","102.26","","","","-40","","NA"
"-133.03","69.43","TUKTOYAKTUK A","2203913","2023-03-17 14:00","2023","03","17","14:00","-28.7","","-31.9","","75","","","","10","","14","","24.1","","102.25","","","","-39","","Clear"
"-133.03","69.43","TUKTOYAKTUK A","2203913","2023-03-17 15:00","2023","03","17","15:00","-27.8","","-30.9","","75","","","","11","","10","","24.1","","102.28","","","","-37","","NA"
"-133.03","69.43","TUKTOYAKTUK A","2203913","2023-03-17 16:00","2023","03","17","16:00","-27.4","","-30.4","","76","","","","10","","14","","24.1","","102.25","","","","-38","","NA"
"-133.03","69.43","TUKTOYAKTUK A","2203913","2023-03-17 17:00","2023","03","17","17:00","-27.6","","-30.7","","76","","","","11","","14","","24.1","","102.28","","","","-38","","Clear"
"-133.03","69.43","TUKTOYAKTUK A","2203913","2023-03-17 18:00","2023","03","17","18:00","-27.9","","-30.9","","76","","","","9","","15","","24.1","","102.26","","","","-39","","NA"
"-133.03","69.43","TUKTOYAKTUK A","2203913","2023-03-17 19:00","2023","03","17","19:00","-28.6","","-31.7","","75","","","","6","","9","","24.1","","102.28","","","","-37","","NA"
"-133.03","69.43","TUKTOYAKTUK A","2203913","2023-03-17 20:00","2023","03","17","20:00","-29.8","","-33.0","","75","","","","9","","10","","24.1","","102.26","","","","-39","","Clear"
"-133.03","69.43","TUKTOYAKTUK A","2203913","2023-03-17 21:00","2023","03","17","21:00","-31.0","","-34.2","","74","","","","9","","10","","24.1","","102.28","","","","-40","","NA"
"-133.03","69.43","TUKTOYAKTUK A","2203913","2023-03-17 22:00","2023","03","17","22:00","-31.2","","-34.5","","74","","","","10","","14","","24.1","","102.23","","","","-42","","NA"
"-133.03","69.43","TUKTOYAKTUK A","2203913","2023-03-17 23:00","2023","03","17","23:00"
"-133.03","69.43","TUKTOYAKTUK A","2203913","2023-03-18 00:00","2023","03","18","00:00"
"-133.03","69.43","TUKTOYAKTUK A","2203913","2023-03-18 01:00","2023","03","18","01:00"
"-133.03","69.43","TUKTOYAKTUK A","2203913","2023-03-18 02:00","2023","03","18","02:00"
"-133.03","69.43","TUKTOYAKTUK A","2203913","2023-03-18 03:00","2023","03","18","03:00"
"-133.03","69.43","TUKTOYAKTUK A","2203913","2023-03-18 04:00","2023","03","18","04:00"
"-133.03","69.43","TUKTOYAKTUK A","2203913","2023-03-18 05:00","2023","03","18","05:00"
"-133.03","69.43","TUKTOYAKTUK A","2203913","2023-03-18 06:00","2023","03","18","06:00","-32.4","","-35.7","","73","","","","10","","8","","24.1","","102.19","","","","-41","","NA"
"-133.03","69.43","TUKTOYAKTUK A","2203913","2023-03-18 07:00","2023","03","18","07:00","-31.2","","-34.4","","74","","","","10","","11","","24.1","","102.17","","","","-41","","NA"
"-133.03","69.43","TUKTOYAKTUK A","2203913","2023-03-18 08:00","2023","03","18","08:00","-28.9","","-31.9","","75","","","","9","","6","","24.1","","102.18","","","","-35","","Mostly Cloudy"
"-133.03","69.43","TUKTOYAKTUK A","2203913","2023-03-18 09:00","2023","03","18","09:00","-28.3","","-31.4","","76","","","","8","","5","","24.1","","102.18","","","","-34","","NA"
"-133.03","69.43","TUKTOYAKTUK A","2203913","2023-03-18 10:00","2023","03","18","10:00","-27.0","","-30.0","","76","","","","11","","10","","24.1","","102.14","","","","-36","","NA"
"-133.03","69.43","TUKTOYAKTUK A","2203913","2023-03-18 11:00","2023","03","18","11:00","-24.9","","-27.8","","78","","","","11","","11","","24.1","","102.15","","","","-34","","Mostly Cloudy"
"-133.03","69.43","TUKTOYAKTUK A","2203913","2023-03-18 12:00","2023","03","18","12:00","-22.1","","-24.7","","80","","","","11","","17","","24.1","","102.04","","","","-32","","Snow"
"-133.03","69.43","TUKTOYAKTUK A","2203913","2023-03-18 13:00","2023","03","18","13:00","-19.5","","-21.9","","81","","","","14","","12","","24.1","","102.09","","","","-27","","Snow"
"-133.03","69.43","TUKTOYAKTUK A","2203913","2023-03-18 14:00","2023","03","18","14:00","-18.9","","-21.4","","81","","","","11","","13","","24.1","","102.08","","","","-27","","Cloudy"
"-133.03","69.43","TUKTOYAKTUK A","2203913","2023-03-18 15:00","2023","03","18","15:00","-18.6","","-21.0","","81","","","","11","","15","","24.1","","102.10","","","","-27","","NA"
"-133.03","69.43","TUKTOYAKTUK A","2203913","2023-03-18 16:00","2023","03","18","16:00","-18.6","","-21.2","","81","","","","10","","20","","24.1","","102.04","","","","-29","","NA"
"-133.03","69.43","TUKTOYAKTUK A","2203913","2023-03-18 17:00","2023","03","18","17:00","-18.8","","-21.4","","80","","","","10","","15","","24.1","","102.00","","","","-28","","Mostly Cloudy"
"-133.03","69.43","TUKTOYAKTUK A","2203913","2023-03-18 18:00","2023","03","18","18:00","-18.2","","-20.9","","79","","","","12","","19","","24.1","","101.97","","","","-28","","NA"
"-133.03","69.43","TUKTOYAKTUK A","2203913","2023-03-18 19:00","2023","03","18","19:00","-18.5","","-21.3","","79","","","","12","","18","","24.1","","101.95","","","","-28","","NA"
"-133.03","69.43","TUKTOYAKTUK A","2203913","2023-03-18 20:00","2023","03","18","20:00","-18.7","","-21.5","","79","","","","12","","19","","24.1","","101.92","","","","-29","","Mostly Cloudy"
"-133.03","69.43","TUKTOYAKTUK A","2203913","2023-03-18 21:00","2023","03","18","21:00","-20.0","","-22.7","","80","","","","11","","16","","24.1","","101.87","","","","-29","","NA"
"-133.03","69.43","TUKTOYAKTUK A","2203913","2023-03-18 22:00","2023","03","18","22:00","-20.2","","-22.7","","81","","","","12","","16","","24.1","","101.84","","","","-30","","NA"
"-133.03","69.43","TUKTOYAKTUK A","2203913","2023-03-18 23:00","2023","03","18","23:00"
"-133.03","69.43","TUKTOYAKTUK A","2203913","2023-03-19 00:00","2023","03","19","00:00"
"-133.03","69.43","TUKTOYAKTUK A","2203913","2023-03-19 01:00","2023","03","19","01:00"
"-133.03","69.43","TUKTOYAKTUK A","2203913","2023-03-19 02:00","2023","03","19","02:00"
"-133.03","69.43","TUKTOYAKTUK A","2203913","2023-03-19 03:00","2023","03","19","03:00"
"-133.03","69.43","TUKTOYAKTUK A","2203913","2023-03-19 04:00","2023","03","19","04:00"
"-133.03","69.43","TUKTOYAKTUK A","2203913","2023-03-19 05:00","2023","03","19","05:00"
"-133.03","69.43","TUKTOYAKTUK A","2203913","2023-03-19 06:00","2023","03","19","06:00","-18.7","","-21.0","","82","","","","12","","22","","24.1","","101.54","","","","-29","","NA"
"-133.03","69.43","TUKTOYAKTUK A","2203913","2023-03-19 07:00","2023","03","19","07:00","-18.2","","-20.4","","83","","","","14","","17","","24.1","","101.51","","","","-27","","NA"
"-133.03","69.43","TUKTOYAKTUK A","2203913","2023-03-19 08:00","2023","03","19","08:00","-17.8","","-20.3","","82","","","","12","","12","","24.1","","101.46","","","","-25","","Mostly Cloudy"
"-133.03","69.43","TUKTOYAKTUK A","2203913","2023-03-19 09:00","2023","03","19","09:00","-17.8","","-20.2","","82","","","","12","","20","","24.1","","101.43","","","","-28","","NA"
"-133.03","69.43","TUKTOYAKTUK A","2203913","2023-03-19 10:00","2023","03","19","10:00","-16.0","","-18.7","","80","","","","13","","21","","24.1","","101.39","","","","-26","","NA"
"-133.03","69.43","TUKTOYAKTUK A","2203913","2023-03-19 11:00","2023","03","19","11:00","-14.5","","-17.6","","77","","","","12","","19","","24.1","","101.36","","","","-23","","Mostly Cloudy"
"-133.03","69.43","TUKTOYAKTUK A","2203913","2023-03-19 12:00","2023","03","19","12:00","-14.0","","-16.9","","79","","","","12","","28","","24.1","","101.29","","","","-24","","NA"
"-133.03","69.43","TUKTOYAKTUK A","2203913","2023-03-19 13:00","2023","03","19","13:00","-12.8","","-15.9","","78","","","","12","","19","","24.1","","101.27","","","","-21","","NA"
"-133.03","69.43","TUKTOYAKTUK A","2203913","2023-03-19 14:00","2023","03","19","14:00","-12.3","","-15.4","","78","","","","13","","32","","24.1","","101.21","","","","-23","","Blowing Snow"
"-133.03","69.43","TUKTOYAKTUK A","2203913","2023-03-19 15:00","2023","03","19","15:00","-11.7","","-14.9","","77","","","","13","","28","","24.1","","101.23","","","","-21","","Blowing Snow"
"-133.03","69.43","TUKTOYAKTUK A","2203913","2023-03-19 16:00","2023","03","19","16:00","-11.2","","-14.5","","76","","","","13","","21","","24.1","","101.19","","","","-20","","NA"
"-133.03","69.43","TUKTOYAKTUK A","2203913","2023-03-19 17:00","2023","03","19","17:00","-10.5","","-13.8","","77","","","","12","","29","","24.1","","101.11","","","","-20","","Blowing Snow"
"-133.03","69.43","TUKTOYAKTUK A","2203913","2023-03-19 18:00","2023","03","19","18:00","-9.7","","-12.7","","79","","","","13","","30","","24.1","","101.09","","","","-19","","NA"
"-133.03","69.43","TUKTOYAKTUK A","2203913","2023-03-19 19:00","2023","03","19","19:00","-9.9","","-12.9","","79","","","","14","","29","","24.1","","101.13","","","","-19","","Blowing Snow"
"-133.03","69.43","TUKTOYAKTUK A","2203913","2023-03-19 20:00","2023","03","19","20:00","-9.2","","-12.4","","78","","","","14","","29","","24.1","","101.13","","","","-18","","Blowing Snow"
"-133.03","69.43","TUKTOYAKTUK A","2203913","2023-03-19 21:00","2023","03","19","21:00","-10.1","","-12.8","","80","","","","14","","32","","24.1","","101.14","","","","-20","","Blowing Snow"
"-133.03","69.43","TUKTOYAKTUK A","2203913","2023-03-19 22:00","2023","03","19","22:00","-10.4","","-13.1","","81","","","","14","","26","","24.1","","101.17","","","","-19","","NA"
"-133.03","69.43","TUKTOYAKTUK A","2203913","2023-03-19 23:00","2023","03","19","23:00"
"-133.03","69.43","TUKTOYAKTUK A","2203913","2023-03-20 00:00","2023","03","20","00:00"
"-133.03","69.43","TUKTOYAKTUK A","2203913","2023-03-20 01:00","2023","03","20","01:00"
"-133.03","69.43","TUKTOYAKTUK A","2203913","2023-03-20 02:00","2023","03","20","02:00"
"-133.03","69.43","TUKTOYAKTUK A","2203913","2023-03-20 03:00","2023","03","20","03:00"
"-133.03","69.43","TUKTOYAKTUK A","2203913","2023-03-20 04:00","2023","03","20","04:00"
"-133.03","69.43","TUKTOYAKTUK A","2203913","2023-03-20 05:00","2023","03","20","05:00"
"-133.03","69.43","TUKTOYAKTUK A","2203913","2023-03-20 06:00","2023","03","20","06:00","-10.7","","-13.0","","83","","","","17","","18","","24.1","","101.22","","","","-18","","NA"
"-133.03","69.43","TUKTOYAKTUK A","2203913","2023-03-20 07:00","2023","03","20","07:00","-11.2","","-13.6","","83","","","","18","","20","","24.1","","101.23","","","","-19","","NA"
"-133.03","69.43","TUKTOYAKTUK A","2203913","2023-03-20 08:00","2023","03","20","08:00","-11.5","","-14.0","","82","","","","18","","22","","24.1","","101.23","","","","-20","","Mainly Clear"
"-133.03","69.43","TUKTOYAKTUK A","2203913","2023-03-20 09:00","2023","03","20","09:00","-11.1","","-13.6","","82","","","","17","","19","","24.1","","101.26","","","","-19","","NA"
"-133.03","69.43","TUKTOYAKTUK A","2203913","2023-03-20 10:00","2023","03","20","10:00","-10.7","","-13.3","","82","","","","17","","16","","24.1","","101.25","","","","-18","","NA"
"-133.03","69.43","TUKTOYAKTUK A","2203913","2023-03-20 11:00","2023","03","20","11:00","-10.7","","-13.4","","80","","","","18","","16","","24.1","","101.25","","","","-18","","Mostly Cloudy"
"-133.03","69.43","TUKTOYAKTUK A","2203913","2023-03-20 12:00","2023","03","20","12:00","-10.0","","-12.9","","80","","","","17","","13","","24.1","","101.22","","","","-16","","NA"
"-133.03","69.43","TUKTOYAKTUK A","2203913","2023-03-20 13:00","2023","03","20","13:00","-9.6","","-12.5","","79","","","","18","","13","","24.1","","101.22","","","","-16","","NA"
"-133.03","69.43","TUKTOYAKTUK A","2203913","2023-03-20 14:00","2023","03","20","14:00","-9.5","","-12.4","","80","","","","18","","14","","24.1","","101.18","","","","-16","","Mostly Cloudy"
"-133.03","69.43","TUKTOYAKTUK A","2203913","2023-03-20 15:00","2023","03","20","15:00","-8.2","","-11.3","","78","","","","16","","14","","24.1","","101.18","","","","-14","","NA"
"-133.03","69.43","TUKTOYAKTUK A","2203913","2023-03-20 16:00","2023","03","20","16:00","-7.6","","-10.7","","78","","","","15","","9","","24.1","","101.15","","","","-12","","NA"
"-133.03","69.43","TUKTOYAKTUK A","2203913","2023-03-20 17:00","2023","03","20","17:00","-7.8","","-11.0","","78","","","","12","","8","","24.1","","101.08","","","","-12","","Mostly Cloudy"
"-133.03","69.43","TUKTOYAKTUK A","2203913","2023-03-20 18:00","2023","03","20","18:00","-6.8","","-9.8","","79","","","","14","","16","","24.1","","100.99","","","","-13","","NA"
"-133.03","69.43","TUKTOYAKTUK A","2203913","2023-03-20 19:00","2023","03","20","19:00","-6.1","","-9.3","","78","","","","14","","16","","24.1","","100.93","","","","-12","","NA"
"-133.03","69.43","TUKTOYAKTUK A","2203913","2023-03-20 20:00","2023","03","20","20:00","-7.5","","-10.2","","81","","","","15","","21","","24.1","","100.91","","","","-15","","Mostly Cloudy"
"-133.03","69.43","TUKTOYAKTUK A","2203913","2023-03-20 21:00","2023","03","20","21:00","-8.6","","-11.4","","81","","","","13","","17","","24.1","","100.87","","","","-15","","NA"
"-133.03","69.43","TUKTOYAKTUK A","2203913","2023-03-20 22:00","2023","03","20","22:00","-8.5","","-11.6","","78","","","","13","","13","","24.1","","100.82","","","","-14","","NA"
"-133.03","69.43","TUKTOYAKTUK A","2203913","2023-03-20 23:00","2023","03","20","23:00"
"-133.03","69.43","TUKTOYAKTUK A","2203913","2023-03-21 00:00","2023","03","21","00:00"
"-133.03","69.43","TUKTOYAKTUK A","2203913","2023-03-21 01:00","2023","03","21","01:00"
"-133.03","69.43","TUKTOYAKTUK A","2203913","2023-03-21 02:00","2023","03","21","02:00"
"-133.03","69.43","TUKTOYAKTUK A","2203913","2023-03-21 03:00","2023","03","21","03:00"
"-133.03","69.43","TUKTOYAKTUK A","2203913","2023-03-21 04:00","2023","03","21","04:00"
"-133.03","69.43","TUKTOYAKTUK A","2203913","2023-03-21 05:00","2023","03","21","05:00"
"-133.03","69.43","TUKTOYAKTUK A","2203913","2023-03-21 06:00","2023","03","21","06:00","-9.3","","-11.8","","82","","","","15","","26","","24.1","","100.49","","","","-18","","Blowing Snow"
"-133.03","69.43","TUKTOYAKTUK A","2203913","2023-03-21 07:00","2023","03","21","07:00","-9.7","","-12.2","","82","","","","13","","17","","24.1","","100.48","","","","-17","","Blowing Snow"
"-133.03","69.43","TUKTOYAKTUK A","2203913","2023-03-21 08:00","2023","03","21","08:00","-10.2","","-12.7","","82","","","","14","","17","","24.1","","100.44","","","","-17","","Mostly Cloudy"
"-133.03","69.43","TUKTOYAKTUK A","2203913","2023-03-21 09:00","2023","03","21","09:00","-9.9","","-12.4","","82","","","","15","","18","","24.1","","100.43","","","","-17","","NA"
"-133.03","69.43","TUKTOYAKTUK A","2203913","2023-03-21 10:00","2023","03","21","10:00","-9.6","","-12.3","","81","","","","15","","20","","24.1","","100.42","","","","-17","","NA"
"-133.03","69.43","TUKTOYAKTUK A","2203913","2023-03-21 11:00","2023","03","21","11:00","-9.3","","-12.0","","81","","","","15","","22","","24.1","","100.40","","","","-17","","Cloudy"
"-133.03","69.43","TUKTOYAKTUK A","2203913","2023-03-21 12:00","2023","03","21","12:00","-9.0","","-11.8","","81","","","","15","","22","","24.1","","100.37","","","","-17","","NA"
"-133.03","69.43","TUKTOYAKTUK A","2203913","2023-03-21 13:00","2023","03","21","13:00","-8.8","","-11.8","","79","","","","14","","22","","24.1","","100.37","","","","-17","","NA"
"-133.03","69.43","TUKTOYAKTUK A","2203913","2023-03-21 14:00","2023","03","21","14:00","-8.4","","-11.3","","80","","","","13","","20","","24.1","","100.36","","","","-16","","Mostly Cloudy"
"-133.03","69.43","TUKTOYAKTUK A","2203913","2023-03-21 15:00","2023","03","21","15:00","-8.0","","-11.1","","79","","","","16","","18","","24.1","","100.34","","","","-15","","NA"
"-133.03","69.43","TUKTOYAKTUK A","2203913","2023-03-21 16:00","2023","03","21","16:00","-8.0","","-10.7","","81","","","","16","","12","","24.1","","100.34","","","","-13","","NA"
"-133.03","69.43","TUKTOYAKTUK A","2203913","2023-03-21 17:00","2023","03","21","17:00","-7.5","","-10.6","","79","","","","15","","15","","24.1","","100.33","","","","-14","","Mostly Cloudy"
"-133.03","69.43","TUKTOYAKTUK A","2203913","2023-03-21 18:00","2023","03","21","18:00","-7.3","","-10.2","","80","","","","15","","14","","24.1","","100.31","","","","-13","","NA"
"-133.03","69.43","TUKTOYAKTUK A","2203913","2023-03-21 19:00","2023","03","21","19:00","-8.0","","-10.5","","82","","","","14","","12","","24.1","","100.31","","","","-13","","NA"
"-133.03","69.43","TUKTOYAKTUK A","2203913","2023-03-21 20:00","2023","03","21","20:00","-8.9","","-11.4","","82","","","","14","","16","","24.1","","100.30","","","","-16","","Mostly Cloudy"
"-133.03","69.43","TUKTOYAKTUK A","2203913","2023-03-21 21:00","2023","03","21","21:00","-10.1","","-12.3","","84","","","","13","","14","","32.2","","100.30","","","","-17","","NA"
"-133.03","69.43","TUKTOYAKTUK A","2203913","2023-03-21 22:00","2023","03","21","22:00","-10.8","","-12.8","","85","","","","14","","15","","24.1","","100.29","","","","-18","","NA"
"-133.03","69.43","TUKTOYAKTUK A","2203913","2023-03-21 23:00","2023","03","21","23:00"
"-133.03","69.43","TUKTOYAKTUK A","2203913","2023-03-22 00:00","2023","03","22","00:00"
"-133.03","69.43","TUKTOYAKTUK A","2203913","2023-03-22 01:00","2023","03","22","01:00"
"-133.03","69.43","TUKTOYAKTUK A","2203913","2023-03-22 02:00","2023","03","22","02:00"
"-133.03","69.43","TUKTOYAKTUK A","2203913","2023-03-22 03:00","2023","03","22","03:00"
"-133.03","69.43","TUKTOYAKTUK A","2203913","2023-03-22 04:00","2023","03","22","04:00"
"-133.03","69.43","TUKTOYAKTUK A","2203913","2023-03-22 05:00","2023","03","22","05:00"
"-133.03","69.43","TUKTOYAKTUK A","2203913","2023-03-22 06:00","2023","03","22","06:00","-15.6","","-17.4","","86","","","","14","","11","","24.1","","100.35","","","","-22","","NA"
"-133.03","69.43","TUKTOYAKTUK A","2203913","2023-03-22 07:00","2023","03","22","07:00","-15.3","","-17.2","","86","","","","13","","14","","24.1","","100.36","","","","-23","","NA"
"-133.03","69.43","TUKTOYAKTUK A","2203913","2023-03-22 08:00","2023","03","22","08:00","-15.2","","-17.2","","85","","","","14","","13","","24.1","","100.39","","","","-23","","Mainly Clear"
"-133.03","69.43","TUKTOYAKTUK A","2203913","2023-03-22 09:00","2023","03","22","09:00","-13.4","","-15.5","","84","","","","16","","14","","24.1","","100.42","","","","-21","","NA"
"-133.03","69.43","TUKTOYAKTUK A","2203913","2023-03-22 10:00","2023","03","22","10:00","-11.8","","-14.0","","84","","","","14","","11","","24.1","","100.47","","","","-18","","NA"
"-133.03","69.43","TUKTOYAKTUK A","2203913","2023-03-22 11:00","2023","03","22","11:00","-10.8","","-13.2","","83","","","","15","","10","","24.1","","100.50","","","","-16","","Mostly Cloudy"
"-133.03","69.43","TUKTOYAKTUK A","2203913","2023-03-22 12:00","2023","03","22","12:00","-10.6","","-13.3","","80","","","","14","","13","","24.1","","100.53","","","","-17","","NA"
"-133.03","69.43","TUKTOYAKTUK A","2203913","2023-03-22 13:00","2023","03","22","13:00","-10.5","","-13.1","","82","","","","14","","15","","24.1","","100.59","","","","-17","","NA"
"-133.03","69.43","TUKTOYAKTUK A","2203913","2023-03-22 14:00","2023","03","22","14:00","-8.9","","-12.0","","78","","","","12","","13","","24.1","","100.60","","","","-15","","Clear"
"-133.03","69.43","TUKTOYAKTUK A","2203913","2023-03-22 15:00","2023","03","22","15:00","-8.5","","-11.8","","77","","","","13","","15","","24.1","","100.64","","","","-15","","NA"
"-133.03","69.43","TUKTOYAKTUK A","2203913","2023-03-22 16:00","2023","03","22","16:00","-8.4","","-11.8","","77","","","","12","","18","","24.1","","100.66","","","","-15","","NA"
"-133.03","69.43","TUKTOYAKTUK A","2203913","2023-03-22 17:00","2023","03","22","17:00","-9.1","","-12.1","","79","","","","13","","17","","24.1","","100.69","","","","-16","","Clear"
"-133.03","69.43","TUKTOYAKTUK A","2203913","2023-03-22 18:00","2023","03","22","18:00","-9.8","","-12.4","","81","","","","11","","15","","24.1","","100.71","","","","-16","","NA"
"-133.03","69.43","TUKTOYAKTUK A","2203913","2023-03-22 19:00","2023","03","22","19:00","-11.3","","-13.6","","83","","","","11","","14","","24.1","","100.73","","","","-18","","NA"
"-133.03","69.43","TUKTOYAKTUK A","2203913","2023-03-22 20:00","2023","03","22","20:00","-11.4","","-13.7","","84","","","","13","","20","","24.1","","100.75","","","","-20","","Clear"
"-133.03","69.43","TUKTOYAKTUK A","2203913","2023-03-22 21:00","2023","03","22","21:00","-11.6","","-14.1","","82","","","","13","","19","","24.1","","100.77","","","","-20","","NA"
"-133.03","69.43","TUKTOYAKTUK A","2203913","2023-03-22 22:00","2023","03","22","22:00","-11.0","","-13.5","","82","","","","14","","18","","24.1","","100.80","","","","-19","","NA"
"-133.03","69.43","TUKTOYAKTUK A","2203913","2023-03-22 23:00","2023","03","22","23:00"
"-133.03","69.43","TUKTOYAKTUK A","2203913","2023-03-23 00:00","2023","03","23","00:00"
"-133.03","69.43","TUKTOYAKTUK A","2203913","2023-03-23 01:00","2023","03","23","01:00"
"-133.03","69.43","TUKTOYAKTUK A","2203913","2023-03-23 02:00","2023","03","23","02:00"
"-133.03","69.43","TUKTOYAKTUK A","2203913","2023-03-23 03:00","2023","03","23","03:00"
"-133.03","69.43","TUKTOYAKTUK A","2203913","2023-03-23 04:00","2023","03","23","04:00"
"-133.03","69.43","TUKTOYAKTUK A","2203913","2023-03-23 05:00","2023","03","23","05:00"
"-133.03","69.43","TUKTOYAKTUK A","2203913","2023-03-23 06:00","2023","03","23","06:00","-14.4","","-16.4","","86","","","","14","","22","","24.1","","101.02","","","","-24","","NA"
"-133.03","69.43","TUKTOYAKTUK A","2203913","2023-03-23 07:00","2023","03","23","07:00","-14.9","","-17.1","","84","","","","14","","17","","24.1","","101.05","","","","-23","","NA"
"-133.03","69.43","TUKTOYAKTUK A","2203913","2023-03-23 08:00","2023","03","23","08:00","-13.6","","-15.9","","83","","","","14","","20","","24.1","","101.05","","","","-22","","Mostly Cloudy"
"-133.03","69.43","TUKTOYAKTUK A","2203913","2023-03-23 09:00","2023","03","23","09:00","-11.2","","-13.5","","83","","","","14","","23","","24.1","","101.05","","","","-20","","NA"
"-133.03","69.43","TUKTOYAKTUK A","2203913","2023-03-23 10:00","2023","03","23","10:00","-10.4","","-13.0","","81","","","","13","","25","","24.1","","101.05","","","","-19","","NA"
"-133.03","69.43","TUKTOYAKTUK A","2203913","2023-03-23 11:00","2023","03","23","11:00","-10.5","","-13.1","","82","","","","14","","27","","24.1","","101.02","","","","-20","","Cloudy"
"-133.03","69.43","TUKTOYAKTUK A","2203913","2023-03-23 12:00","2023","03","23","12:00","-10.4","","-13.4","","79","","","","13","","29","","24.1","","101.03","","","","-20","","NA"
"-133.03","69.43","TUKTOYAKTUK A","2203913","2023-03-23 13:00","2023","03","23","13:00","-11.0","","-14.6","","75","","","","14","","27","","24.1","","101.02","","","","-20","","NA"
"-133.03","69.43","TUKTOYAKTUK A","2203913","2023-03-23 14:00","2023","03","23","14:00","-10.9","","-14.7","","74","","","","14","","26","","24.1","","101.00","","","","-20","","Clear"
"-133.03","69.43","TUKTOYAKTUK A","2203913","2023-03-23 15:00","2023","03","23","15:00","-10.4","","-14.4","","73","","","","14","","31","","24.1","","100.96","","","","-20","","NA"
"-133.03","69.43","TUKTOYAKTUK A","2203913","2023-03-23 16:00","2023","03","23","16:00","-10.1","","-14.1","","73","","","","14","","34","","24.1","","100.92","","","","-20","","Blowing Snow"
"-133.03","69.43","TUKTOYAKTUK A","2203913","2023-03-23 17:00","2023","03","23","17:00","-9.8","","-14.1","","71","","","","14","","27","","24.1","","100.91","","","","-19","","Clear"
"-133.03","69.43","TUKTOYAKTUK A","2203913","2023-03-23 18:00","2023","03","23","18:00","-9.4","","-14.2","","69","","","","14","","31","","24.1","","100.87","","","","-19","","NA"
"-133.03","69.43","TUKTOYAKTUK A","2203913","2023-03-23 19:00","2023","03","23","19:00","-9.7","","-14.4","","69","","","","13","","27","","24.1","","100.84","","","","-19","","NA"
"-133.03","69.43","TUKTOYAKTUK A","2203913","2023-03-23 20:00","2023","03","23","20:00","-10.9","","-15.2","","71","","","","13","","26","","24.1","","100.83","","","","-20","","Clear"
"-133.03","69.43","TUKTOYAKTUK A","2203913","2023-03-23 21:00","2023","03","23","21:00","-10.9","","-15.5","","70","","","","14","","28","","24.1","","100.82","","","","-20","","NA"
"-133.03","69.43","TUKTOYAKTUK A","2203913","2023-03-23 22:00","2023","03","23","22:00","-11.1","","-15.8","","69","","","","14","","30","","24.1","","100.81","","","","-21","","NA"
"-133.03","69.43","TUKTOYAKTUK A","2203913","2023-03-23 23:00","2023","03","23","23:00"
"-133.03","69.43","TUKTOYAKTUK A","2203913","2023-03-24 00:00","2023","03","24","00:00"
"-133.03","69.43","TUKTOYAKTUK A","2203913","2023-03-24 01:00","2023","03","24","01:00"
"-133.03","69.43","TUKTOYAKTUK A","2203913","2023-03-24 02:00","2023","03","24","02:00"
"-133.03","69.43","TUKTOYAKTUK A","2203913","2023-03-24 03:00","2023","03","24","03:00"
"-133.03","69.43","TUKTOYAKTUK A","2203913","2023-03-24 04:00","2023","03","24","04:00"
"-133.03","69.43","TUKTOYAKTUK A","2203913","2023-03-24 05:00","2023","03","24","05:00"
"-133.03","69.43","TUKTOYAKTUK A","2203913","2023-03-24 06:00","2023","03","24","06:00","-14.4","","-17.7","","77","","","","15","","24","","24.1","","100.86","","","","-24","","NA"
"-133.03","69.43","TUKTOYAKTUK A","2203913","2023-03-24 07:00","2023","03","24","07:00","-14.4","","-17.6","","77","","","","14","","22","","24.1","","100.89","","","","-24","","NA"
"-133.03","69.43","TUKTOYAKTUK A","2203913","2023-03-24 08:00","2023","03","24","08:00","-13.3","","-16.8","","76","","","","16","","26","","24.1","","100.90","","","","-23","","Mainly Clear"
"-133.03","69.43","TUKTOYAKTUK A","2203913","2023-03-24 09:00","2023","03","24","09:00","-13.2","","-16.6","","76","","","","16","","24","","24.1","","100.94","","","","-23","","NA"
"-133.03","69.43","TUKTOYAKTUK A","2203913","2023-03-24 10:00","2023","03","24","10:00","-12.7","","-16.1","","76","","","","17","","21","","24.1","","100.99","","","","-21","","NA"
"-133.03","69.43","TUKTOYAKTUK A","2203913","2023-03-24 11:00","2023","03","24","11:00","-12.0","","-15.3","","77","","","","17","","24","","24.1","","101.03","","","","-21","","Mainly Clear"
"-133.03","69.43","TUKTOYAKTUK A","2203913","2023-03-24 12:00","2023","03","24","12:00","-11.2","","-14.7","","76","","","","18","","27","","24.1","","101.07","","","","-21","","NA"
"-133.03","69.43","TUKTOYAKTUK A","2203913","2023-03-24 13:00","2023","03","24","13:00","-10.2","","-13.7","","76","","","","18","","23","","24.1","","101.13","","","","-19","","NA"
"-133.03","69.43","TUKTOYAKTUK A","2203913","2023-03-24 14:00","2023","03","24","14:00","-8.7","","-12.2","","76","","","","18","","18","","24.1","","101.16","","","","-16","","Mainly Clear"
"-133.03","69.43","TUKTOYAKTUK A","2203913","2023-03-24 15:00","2023","03","24","15:00","-8.3","","-12.0","","75","","","","18","","23","","24.1","","101.22","","","","-16","","NA"
"-133.03","69.43","TUKTOYAKTUK A","2203913","2023-03-24 16:00","2023","03","24","16:00","-7.1","","-11.3","","72","","","","19","","23","","24.1","","101.25","","","","-15","","NA"
"-133.03","69.43","TUKTOYAKTUK A","2203913","2023-03-24 17:00","2023","03","24","17:00","-6.8","","-10.8","","73","","","","20","","21","","24.1","","101.29","","","","-14","","Mainly Clear"
"-133.03","69.43","TUKTOYAKTUK A","2203913","2023-03-24 18:00","2023","03","24","18:00","-7.9","","-11.4","","76","","","","20","","21","","24.1","","101.32","","","","-15","","NA"
"-133.03","69.43","TUKTOYAKTUK A","2203913","2023-03-24 19:00","2023","03","24","19:00","-7.4","","-11.7","","72","","","","20","","19","","24.1","","101.36","","","","-14","","NA"
"-133.03","69.43","TUKTOYAKTUK A","2203913","2023-03-24 20:00","2023","03","24","20:00","-9.5","","-13.1","","76","","","","20","","22","","24.1","","101.39","","","","-18","","Mainly Clear"
"-133.03","69.43","TUKTOYAKTUK A","2203913","2023-03-24 21:00","2023","03","24","21:00","-9.5","","-13.1","","75","","","","21","","20","","24.1","","101.46","","","","-17","","NA"
"-133.03","69.43","TUKTOYAKTUK A","2203913","2023-03-24 22:00","2023","03","24","22:00","-10.7","","-13.4","","81","","","","23","","22","","24.1","","101.52","","","","-19","","NA"
"-133.03","69.43","TUKTOYAKTUK A","2203913","2023-03-24 23:00","2023","03","24","23:00"
"-133.03","69.43","TUKTOYAKTUK A","2203913","2023-03-25 00:00","2023","03","25","00:00"
"-133.03","69.43","TUKTOYAKTUK A","2203913","2023-03-25 01:00","2023","03","25","01:00"
"-133.03","69.43","TUKTOYAKTUK A","2203913","2023-03-25 02:00","2023","03","25","02:00"
"-133.03","69.43","TUKTOYAKTUK A","2203913","2023-03-25 03:00","2023","03","25","03:00"
"-133.03","69.43","TUKTOYAKTUK A","2203913","2023-03-25 04:00","2023","03","25","04:00"
"-133.03","69.43","TUKTOYAKTUK A","2203913","2023-03-25 05:00","2023","03","25","05:00"
"-133.03","69.43","TUKTOYAKTUK A","2203913","2023-03-25 06:00","2023","03","25","06:00","-16.4","","-18.1","","87","","","","29","","21","","24.1","","102.15","","","","-26","","NA"
"-133.03","69.43","TUKTOYAKTUK A","2203913","2023-03-25 07:00","2023","03","25","07:00","-14.4","","-16.1","","87","","","","31","","17","","24.1","","102.28","","","","-23","","NA"
"-133.03","69.43","TUKTOYAKTUK A","2203913","2023-03-25 08:00","2023","03","25","08:00","-14.5","","-16.2","","87","","","","31","","17","","16.1","","102.38","","","","-23","","Mostly Cloudy"
"-133.03","69.43","TUKTOYAKTUK A","2203913","2023-03-25 09:00","2023","03","25","09:00","-13.6","","-15.3","","87","","","","32","","25","","24.1","","102.50","","","","-23","","NA"
"-133.03","69.43","TUKTOYAKTUK A","2203913","2023-03-25 10:00","2023","03","25","10:00","-12.6","","-14.3","","88","","","","32","","28","","4.8","","102.60","","","","-23","","Fog"
"-133.03","69.43","TUKTOYAKTUK A","2203913","2023-03-25 11:00","2023","03","25","11:00","-12.1","","-13.8","","87","","","","32","","30","","6.4","","102.72","","","","-22","","Fog"
"-133.03","69.43","TUKTOYAKTUK A","2203913","2023-03-25 12:00","2023","03","25","12:00","-11.3","","-13.3","","86","","","","32","","30","","3.2","","102.86","","","","-21","","Blowing Snow"
"-133.03","69.43","TUKTOYAKTUK A","2203913","2023-03-25 13:00","2023","03","25","13:00","-11.1","","-13.0","","85","","","","33","","27","","3.2","","102.99","","","","-21","","Blowing Snow"
"-133.03","69.43","TUKTOYAKTUK A","2203913","2023-03-25 14:00","2023","03","25","14:00","-10.7","","-12.8","","84","","","","33","","27","","16.1","","103.10","","","","-20","","Blowing Snow"
"-133.03","69.43","TUKTOYAKTUK A","2203913","2023-03-25 15:00","2023","03","25","15:00","-10.5","","-12.7","","84","","","","33","","26","","24.1","","103.23","","","","-20","","Blowing Snow"
"-133.03","69.43","TUKTOYAKTUK A","2203913","2023-03-25 16:00","2023","03","25","16:00","-10.5","","-12.7","","84","","","","33","","22","","24.1","","103.32","","","","-19","","Blowing Snow"
"-133.03","69.43","TUKTOYAKTUK A","2203913","2023-03-25 17:00","2023","03","25","17:00","-11.0","","-13.2","","84","","","","33","","19","","24.1","","103.40","","","","-19","","Blowing Snow"
"-133.03","69.43","TUKTOYAKTUK A","2203913","2023-03-25 18:00","2023","03","25","18:00","-12.0","","-14.1","","85","","","","33","","13","","24.1","","103.47","","","","-19","","NA"
"-133.03","69.43","TUKTOYAKTUK A","2203913","2023-03-25 19:00","2023","03","25","19:00","-13.5","","-16.0","","81","","","","31","","16","","24.1","","103.54","","","","-21","","NA"
"-133.03","69.43","TUKTOYAKTUK A","2203913","2023-03-25 20:00","2023","03","25","20:00","-15.3","","-18.0","","80","","","","30","","16","","24.1","","103.62","","","","-24","","Mainly Clear"
"-133.03","69.43","TUKTOYAKTUK A","2203913","2023-03-25 21:00","2023","03","25","21:00","-17.0","","-19.6","","81","","","","30","","13","","24.1","","103.64","","","","-25","","NA"
"-133.03","69.43","TUKTOYAKTUK A","2203913","2023-03-25 22:00","2023","03","25","22:00","-18.8","","-21.3","","81","","","","27","","14","","24.1","","103.70","","","","-27","","NA"
"-133.03","69.43","TUKTOYAKTUK A","2203913","2023-03-25 23:00","2023","03","25","23:00"
"-133.03","69.43","TUKTOYAKTUK A","2203913","2023-03-26 00:00","2023","03","26","00:00"
"-133.03","69.43","TUKTOYAKTUK A","2203913","2023-03-26 01:00","2023","03","26","01:00"
"-133.03","69.43","TUKTOYAKTUK A","2203913","2023-03-26 02:00","2023","03","26","02:00"
"-133.03","69.43","TUKTOYAKTUK A","2203913","2023-03-26 03:00","2023","03","26","03:00"
"-133.03","69.43","TUKTOYAKTUK A","2203913","2023-03-26 04:00","2023","03","26","04:00"
"-133.03","69.43","TUKTOYAKTUK A","2203913","2023-03-26 05:00","2023","03","26","05:00"
"-133.03","69.43","TUKTOYAKTUK A","2203913","2023-03-26 06:00","2023","03","26","06:00","-19.4","","-21.8","","82","","","","16","","17","","24.1","","103.47","","","","-29","","NA"
"-133.03","69.43","TUKTOYAKTUK A","2203913","2023-03-26 07:00","2023","03","26","07:00","-19.3","","-21.4","","84","","","","15","","19","","24.1","","103.35","","","","-29","","NA"
"-133.03","69.43","TUKTOYAKTUK A","2203913","2023-03-26 08:00","2023","03","26","08:00","-17.8","","-19.7","","85","","","","17","","23","","24.1","","103.26","","","","-28","","Mainly Clear"
"-133.03","69.43","TUKTOYAKTUK A","2203913","2023-03-26 09:00","2023","03","26","09:00","-16.6","","-19.2","","80","","","","16","","27","","24.1","","103.17","","","","-28","","NA"
"-133.03","69.43","TUKTOYAKTUK A","2203913","2023-03-26 10:00","2023","03","26","10:00","-15.4","","-18.9","","74","","","","17","","30","","24.1","","103.07","","","","-27","","NA"
"-133.03","69.43","TUKTOYAKTUK A","2203913","2023-03-26 11:00","2023","03","26","11:00","-14.4","","-18.0","","74","","","","16","","28","","24.1","","102.99","","","","-25","","Mostly Cloudy"
"-133.03","69.43","TUKTOYAKTUK A","2203913","2023-03-26 12:00","2023","03","26","12:00","-13.4","","-17.2","","73","","","","17","","26","","24.1","","102.89","","","","-23","","NA"
"-133.03","69.43","TUKTOYAKTUK A","2203913","2023-03-26 13:00","2023","03","26","13:00","-11.6","","-16.1","","70","","","","17","","28","","24.1","","102.74","","","","-21","","NA"
"-133.03","69.43","TUKTOYAKTUK A","2203913","2023-03-26 14:00","2023","03","26","14:00","-10.4","","-15.6","","66","","","","18","","27","","24.1","","102.70","","","","-20","","Blowing Snow"
"-133.03","69.43","TUKTOYAKTUK A","2203913","2023-03-26 15:00","2023","03","26","15:00","-9.2","","-14.3","","67","","","","18","","27","","24.1","","102.58","","","","-18","","Blowing Snow"
"-133.03","69.43","TUKTOYAKTUK A","2203913","2023-03-26 16:00","2023","03","26","16:00","-7.8","","-13.2","","65","","","","19","","27","","24.1","","102.51","","","","-16","","Blowing Snow"
"-133.03","69.43","TUKTOYAKTUK A","2203913","2023-03-26 17:00","2023","03","26","17:00","-7.3","","-12.4","","67","","","","18","","34","","24.1","","102.39","","","","-16","","Blowing Snow"
"-133.03","69.43","TUKTOYAKTUK A","2203913","2023-03-26 18:00","2023","03","26","18:00","-7.0","","-12.3","","67","","","","18","","39","","24.1","","102.25","","","","-17","","Blowing Snow"
"-133.03","69.43","TUKTOYAKTUK A","2203913","2023-03-26 19:00","2023","03","26","19:00","-7.2","","-11.8","","70","","","","18","","41","","24.1","","102.17","","","","-17","","Blowing Snow"
"-133.03","69.43","TUKTOYAKTUK A","2203913","2023-03-26 20:00","2023","03","26","20:00","-7.7","","-11.8","","72","","","","18","","36","","24.1","","102.07","","","","-17","","Blowing Snow"
"-133.03","69.43","TUKTOYAKTUK A","2203913","2023-03-26 21:00","2023","03","26","21:00","-7.6","","-11.5","","74","","","","18","","34","","24.1","","101.98","","","","-17","","Blowing Snow"
"-133.03","69.43","TUKTOYAKTUK A","2203913","2023-03-26 22:00","2023","03","26","22:00","-6.8","","-10.9","","73","","","","18","","36","","24.1","","101.87","","","","-16","","Blowing Snow"
"-133.03","69.43","TUKTOYAKTUK A","2203913","2023-03-26 23:00","2023","03","26","23:00"
"-133.03","69.43","TUKTOYAKTUK A","2203913","2023-03-27 00:00","2023","03","27","00:00"
"-133.03","69.43","TUKTOYAKTUK A","2203913","2023-03-27 01:00","2023","03","27","01:00"
"-133.03","69.43","TUKTOYAKTUK A","2203913","2023-03-27 02:00","2023","03","27","02:00"
"-133.03","69.43","TUKTOYAKTUK A","2203913","2023-03-27 03:00","2023","03","27","03:00"
"-133.03","69.43","TUKTOYAKTUK A","2203913","2023-03-27 04:00","2023","03","27","04:00"
"-133.03","69.43","TUKTOYAKTUK A","2203913","2023-03-27 05:00","2023","03","27","05:00"
"-133.03","69.43","TUKTOYAKTUK A","2203913","2023-03-27 06:00","2023","03","27","06:00","-4.4","","-8.5","","73","","","","23","","23","","24.1","","101.51","","","","-11","","NA"
"-133.03","69.43","TUKTOYAKTUK A","2203913","2023-03-27 07:00","2023","03","27","07:00","-4.7","","-8.7","","73","","","","22","","22","","24.1","","101.49","","","","-12","","NA"
"-133.03","69.43","TUKTOYAKTUK A","2203913","2023-03-27 08:00","2023","03","27","08:00","-3.5","","-7.4","","75","","","","24","","18","","24.1","","101.45","","","","-9","","Cloudy"
"-133.03","69.43","TUKTOYAKTUK A","2203913","2023-03-27 09:00","2023","03","27","09:00","-2.9","","-6.5","","76","","","","26","","22","","24.1","","101.40","","","","-9","","NA"
"-133.03","69.43","TUKTOYAKTUK A","2203913","2023-03-27 10:00","2023","03","27","10:00","-2.2","","-5.2","","80","","","","26","","44","","12.9","","101.34","","","","-11","","Blowing Snow"
"-133.03","69.43","TUKTOYAKTUK A","2203913","2023-03-27 11:00","2023","03","27","11:00","-3.2","","-5.0","","87","","","","27","","35","","16.1","","101.34","","","","-11","","Blowing Snow"
"-133.03","69.43","TUKTOYAKTUK A","2203913","2023-03-27 12:00","2023","03","27","12:00","-2.5","","-4.7","","85","","","","28","","35","","16.1","","101.36","","","","-10","","NA"
"-133.03","69.43","TUKTOYAKTUK A","2203913","2023-03-27 13:00","2023","03","27","13:00","-2.0","","-4.1","","85","","","","28","","35","","16.1","","101.37","","","","-10","","NA"
"-133.03","69.43","TUKTOYAKTUK A","2203913","2023-03-27 14:00","2023","03","27","14:00","-1.9","","-4.0","","85","","","","28","","26","","24.1","","101.42","","","","-8","","Mainly Clear"
"-133.03","69.43","TUKTOYAKTUK A","2203913","2023-03-27 15:00","2023","03","27","15:00","-1.3","","-3.5","","85","","","","28","","27","","24.1","","101.43","","","","-8","","NA"
"-133.03","69.43","TUKTOYAKTUK A","2203913","2023-03-27 16:00","2023","03","27","16:00","-1.8","","-4.0","","85","","","","27","","20","","24.1","","101.43","","","","-8","","NA"
"-133.03","69.43","TUKTOYAKTUK A","2203913","2023-03-27 17:00","2023","03","27","17:00","-2.5","","-4.1","","88","","","","29","","21","","24.1","","101.44","","","","-9","","Mostly Cloudy"
"-133.03","69.43","TUKTOYAKTUK A","2203913","2023-03-27 18:00","2023","03","27","18:00","-3.0","","-4.4","","90","","","","28","","22","","24.1","","101.45","","","","-9","","NA"
"-133.03","69.43","TUKTOYAKTUK A","2203913","2023-03-27 19:00","2023","03","27","19:00","-4.2","","-5.6","","90","","","","28","","29","","24.1","","101.44","","","","-12","","NA"
"-133.03","69.43","TUKTOYAKTUK A","2203913","2023-03-27 20:00","2023","03","27","20:00","-5.5","","-7.0","","89","","","","29","","22","","24.1","","101.44","","","","-13","","Cloudy"
"-133.03","69.43","TUKTOYAKTUK A","2203913","2023-03-27 21:00","2023","03","27","21:00","-4.4","","-5.6","","92","","","","31","","27","","24.1","","101.47","","","","-12","","NA"
"-133.03","69.43","TUKTOYAKTUK A","2203913","2023-03-27 22:00","2023","03","27","22:00","-4.8","","-5.7","","93","","","","32","","15","","24.1","","101.45","","","","-10","","NA"
"-133.03","69.43","TUKTOYAKTUK A","2203913","2023-03-27 23:00","2023","03","27","23:00"
"-133.03","69.43","TUKTOYAKTUK A","2203913","2023-03-28 00:00","2023","03","28","00:00"
"-133.03","69.43","TUKTOYAKTUK A","2203913","2023-03-28 01:00","2023","03","28","01:00"
"-133.03","69.43","TUKTOYAKTUK A","2203913","2023-03-28 02:00","2023","03","28","02:00"
"-133.03","69.43","TUKTOYAKTUK A","2203913","2023-03-28 03:00","2023","03","28","03:00"
"-133.03","69.43","TUKTOYAKTUK A","2203913","2023-03-28 04:00","2023","03","28","04:00"
"-133.03","69.43","TUKTOYAKTUK A","2203913","2023-03-28 05:00","2023","03","28","05:00"
"-133.03","69.43","TUKTOYAKTUK A","2203913","2023-03-28 06:00","2023","03","28","06:00","-6.4","","-7.1","","95","","","","30","","15","","16.1","","101.79","","","","-12","","NA"
"-133.03","69.43","TUKTOYAKTUK A","2203913","2023-03-28 07:00","2023","03","28","07:00","-6.6","","-8.0","","90","","","","31","","16","","16.1","","101.87","","","","-13","","NA"
"-133.03","69.43","TUKTOYAKTUK A","2203913","2023-03-28 08:00","2023","03","28","08:00","-6.9","","-8.6","","88","","","","31","","18","","16.1","","101.92","","","","-14","","Cloudy"
"-133.03","69.43","TUKTOYAKTUK A","2203913","2023-03-28 09:00","2023","03","28","09:00","-7.5","","-9.0","","89","","","","32","","14","","16.1","","101.97","","","","-13","","NA"
"-133.03","69.43","TUKTOYAKTUK A","2203913","2023-03-28 10:00","2023","03","28","10:00","-7.2","","-8.6","","90","","","","32","","13","","4.8","","102.04","","","","-13","","Snow"
"-133.03","69.43","TUKTOYAKTUK A","2203913","2023-03-28 11:00","2023","03","28","11:00","-7.0","","-8.5","","89","","","","26","","10","","9.7","","102.07","","","","-12","","Snow"
"-133.03","69.43","TUKTOYAKTUK A","2203913","2023-03-28 12:00","2023","03","28","12:00","-7.0","","-8.5","","89","","","","30","","9","","16.1","","102.13","","","","-11","","NA"
"-133.03","69.43","TUKTOYAKTUK A","2203913","2023-03-28 13:00","2023","03","28","13:00","-7.8","","-11.1","","78","","","","34","","18","","16.1","","102.18","","","","-15","","NA"
"-133.03","69.43","TUKTOYAKTUK A","2203913","2023-03-28 14:00","2023","03","28","14:00","-9.5","","-12.6","","78","","","","33","","16","","16.1","","102.24","","","","-16","","Cloudy"
"-133.03","69.43","TUKTOYAKTUK A","2203913","2023-03-28 15:00","2023","03","28","15:00","-9.1","","-12.4","","77","","","","34","","28","","16.1","","102.33","","","","-18","","NA"
"-133.03","69.43","TUKTOYAKTUK A","2203913","2023-03-28 16:00","2023","03","28","16:00","-9.6","","-12.2","","82","","","","33","","31","","11.3","","102.40","","","","-19","","Snow,Blowing Snow"
"-133.03","69.43","TUKTOYAKTUK A","2203913","2023-03-28 17:00","2023","03","28","17:00","-10.9","","-14.4","","76","","","","34","","32","","12.9","","102.48","","","","-21","","Snow,Blowing Snow"
"-133.03","69.43","TUKTOYAKTUK A","2203913","2023-03-28 18:00","2023","03","28","18:00","-11.7","","-14.9","","77","","","","33","","32","","16.1","","102.51","","","","-22","","Snow,Blowing Snow"
"-133.03","69.43","TUKTOYAKTUK A","2203913","2023-03-28 19:00","2023","03","28","19:00","-12.6","","-15.4","","80","","","","32","","29","","16.1","","102.58","","","","-23","","Blowing Snow"
"-133.03","69.43","TUKTOYAKTUK A","2203913","2023-03-28 20:00","2023","03","28","20:00","-13.3","","-16.0","","81","","","","31","","22","","24.1","","102.65","","","","-22","","Blowing Snow"
"-133.03","69.43","TUKTOYAKTUK A","2203913","2023-03-28 21:00","2023","03","28","21:00","-13.5","","-15.7","","83","","","","30","","27","","24.1","","102.69","","","","-24","","Blowing Snow"
"-133.03","69.43","TUKTOYAKTUK A","2203913","2023-03-28 22:00","2023","03","28","22:00","-14.2","","-16.6","","83","","","","29","","24","","24.1","","102.72","","","","-24","","Blowing Snow"
"-133.03","69.43","TUKTOYAKTUK A","2203913","2023-03-28 23:00","2023","03","28","23:00"
"-133.03","69.43","TUKTOYAKTUK A","2203913","2023-03-29 00:00","2023","03","29","00:00"
"-133.03","69.43","TUKTOYAKTUK A","2203913","2023-03-29 01:00","2023","03","29","01:00"
"-133.03","69.43","TUKTOYAKTUK A","2203913","2023-03-29 02:00","2023","03","29","02:00"
"-133.03","69.43","TUKTOYAKTUK A","2203913","2023-03-29 03:00","2023","03","29","03:00"
"-133.03","69.43","TUKTOYAKTUK A","2203913","2023-03-29 04:00","2023","03","29","04:00"
"-133.03","69.43","TUKTOYAKTUK A","2203913","2023-03-29 05:00","2023","03","29","05:00"
"-133.03","69.43","TUKTOYAKTUK A","2203913","2023-03-29 06:00","2023","03","29","06:00","-21.9","","-24.1","","82","","","","27","","20","","24.1","","102.78","","","","-33","","NA"
"-133.03","69.43","TUKTOYAKTUK A","2203913","2023-03-29 07:00","2023","03","29","07:00","-23.6","","-26.0","","81","","","","26","","12","","24.1","","102.80","","","","-32","","NA"
"-133.03","69.43","TUKTOYAKTUK A","2203913","2023-03-29 08:00","2023","03","29","08:00","-22.9","","-25.2","","82","","","","27","","9","","24.1","","102.79","","","","-30","","Clear"
"-133.03","69.43","TUKTOYAKTUK A","2203913","2023-03-29 09:00","2023","03","29","09:00","-23.2","","-25.7","","81","","","","22","","13","","24.1","","102.80","","","","-32","","NA"
"-133.03","69.43","TUKTOYAKTUK A","2203913","2023-03-29 10:00","2023","03","29","10:00","-21.9","","-24.5","","80","","","","23","","12","","24.1","","102.79","","","","-30","","NA"
"-133.03","69.43","TUKTOYAKTUK A","2203913","2023-03-29 11:00","2023","03","29","11:00","-21.1","","-24.1","","77","","","","24","","12","","24.1","","102.76","","","","-29","","Clear"
"-133.03","69.43","TUKTOYAKTUK A","2203913","2023-03-29 12:00","2023","03","29","12:00","-19.7","","-23.1","","75","","","","25","","10","","24.1","","102.73","","","","-27","","NA"
"-133.03","69.43","TUKTOYAKTUK A","2203913","2023-03-29 13:00","2023","03","29","13:00","-18.5","","-22.1","","74","","","","25","","8","","24.1","","102.72","","","","-24","","NA"
"-133.03","69.43","TUKTOYAKTUK A","2203913","2023-03-29 14:00","2023","03","29","14:00","-17.3","","-20.7","","75","","","","16","","4","","24.1","","102.68","","","","-20","","Clear"
"-133.03","69.43","TUKTOYAKTUK A","2203913","2023-03-29 15:00","2023","03","29","15:00","-16.6","","-20.2","","74","","","","13","","6","","24.1","","102.64","","","","-21","","NA"
"-133.03","69.43","TUKTOYAKTUK A","2203913","2023-03-29 16:00","2023","03","29","16:00","-16.1","","-19.5","","75","","","","12","","5","","24.1","","102.61","","","","-20","","NA"
"-133.03","69.43","TUKTOYAKTUK A","2203913","2023-03-29 17:00","2023","03","29","17:00","-16.7","","-19.9","","77","","","","16","","10","","24.1","","102.58","","","","-23","","Clear"
"-133.03","69.43","TUKTOYAKTUK A","2203913","2023-03-29 18:00","2023","03","29","18:00","-17.7","","-20.8","","77","","","","15","","11","","24.1","","102.55","","","","-25","","NA"
"-133.03","69.43","TUKTOYAKTUK A","2203913","2023-03-29 19:00","2023","03","29","19:00","-19.3","","-22.3","","77","","","","12","","9","","24.1","","102.49","","","","-26","","NA"
"-133.03","69.43","TUKTOYAKTUK A","2203913","2023-03-29 20:00","2023","03","29","20:00","-20.4","","-23.1","","80","","","","12","","14","","24.1","","102.46","","","","-29","","Clear"
"-133.03","69.43","TUKTOYAKTUK A","2203913","2023-03-29 21:00","2023","03","29","21:00","-21.1","","-23.7","","80","","","","13","","11","","24.1","","102.43","","","","-29","","NA"
"-133.03","69.43","TUKTOYAKTUK A","2203913","2023-03-29 22:00","2023","03","29","22:00","-21.1","","-23.5","","81","","","","13","","16","","24.1","","102.39","","","","-31","","NA"
"-133.03","69.43","TUKTOYAKTUK A","2203913","2023-03-29 23:00","2023","03","29","23:00"
"-133.03","69.43","TUKTOYAKTUK A","2203913","2023-03-30 00:00","2023","03","30","00:00"
"-133.03","69.43","TUKTOYAKTUK A","2203913","2023-03-30 01:00","2023","03","30","01:00"
"-133.03","69.43","TUKTOYAKTUK A","2203913","2023-03-30 02:00","2023","03","30","02:00"
"-133.03","69.43","TUKTOYAKTUK A","2203913","2023-03-30 03:00","2023","03","30","03:00"
"-133.03","69.43","TUKTOYAKTUK A","2203913","2023-03-30 04:00","2023","03","30","04:00"
"-133.03","69.43","TUKTOYAKTUK A","2203913","2023-03-30 05:00","2023","03","30","05:00"
"-133.03","69.43","TUKTOYAKTUK A","2203913","2023-03-30 06:00","2023","03","30","06:00","-23.4","","-25.9","","80","","","","12","","21","","24.1","","102.10","","","","-35","","NA"
"-133.03","69.43","TUKTOYAKTUK A","2203913","2023-03-30 07:00","2023","03","30","07:00","-23.2","","-25.8","","80","","","","13","","21","","6.4","","102.09","","","","-35","","Fog"
"-133.03","69.43","TUKTOYAKTUK A","2203913","2023-03-30 08:00","2023","03","30","08:00","-22.1","","-24.6","","81","","","","13","","21","","11.3","","102.07","","","","-33","","Clear"
"-133.03","69.43","TUKTOYAKTUK A","2203913","2023-03-30 09:00","2023","03","30","09:00","-22.4","","-24.9","","80","","","","13","","22","","16.1","","102.04","","","","-34","","NA"
"-133.03","69.43","TUKTOYAKTUK A","2203913","2023-03-30 10:00","2023","03","30","10:00","-21.3","","-23.8","","81","","","","14","","23","","16.1","","101.99","","","","-33","","NA"
"-133.03","69.43","TUKTOYAKTUK A","2203913","2023-03-30 11:00","2023","03","30","11:00","-20.5","","-23.2","","80","","","","13","","26","","24.1","","101.97","","","","-32","","Clear"
"-133.03","69.43","TUKTOYAKTUK A","2203913","2023-03-30 12:00","2023","03","30","12:00","-20.1","","-23.1","","77","","","","12","","19","","24.1","","101.95","","","","-30","","NA"
"-133.03","69.43","TUKTOYAKTUK A","2203913","2023-03-30 13:00","2023","03","30","13:00","-18.8","","-22.0","","76","","","","11","","21","","24.1","","101.95","","","","-29","","NA"
"-133.03","69.43","TUKTOYAKTUK A","2203913","2023-03-30 14:00","2023","03","30","14:00","-17.5","","-21.0","","75","","","","12","","26","","24.1","","101.91","","","","-29","","Clear"
"-133.03","69.43","TUKTOYAKTUK A","2203913","2023-03-30 15:00","2023","03","30","15:00","-16.8","","-20.4","","74","","","","12","","22","","24.1","","101.87","","","","-27","","NA"
"-133.03","69.43","TUKTOYAKTUK A","2203913","2023-03-30 16:00","2023","03","30","16:00","-16.3","","-19.8","","75","","","","12","","29","","24.1","","101.82","","","","-28","","NA"
"-133.03","69.43","TUKTOYAKTUK A","2203913","2023-03-30 17:00","2023","03","30","17:00","-16.3","","-19.7","","76","","","","11","","29","","24.1","","101.79","","","","-28","","Clear"
"-133.03","69.43","TUKTOYAKTUK A","2203913","2023-03-30 18:00","2023","03","30","18:00","-17.3","","-20.5","","77","","","","10","","27","","24.1","","101.76","","","","-29","","NA"
"-133.03","69.43","TUKTOYAKTUK A","2203913","2023-03-30 19:00","2023","03","30","19:00","-18.1","","-21.2","","77","","","","10","","26","","24.1","","101.73","","","","-29","","NA"
"-133.03","69.43","TUKTOYAKTUK A","2203913","2023-03-30 20:00","2023","03","30","20:00","-19.2","","-22.3","","77","","","","10","","25","","24.1","","101.69","","","","-31","","Clear"
"-133.03","69.43","TUKTOYAKTUK A","2203913","2023-03-30 21:00","2023","03","30","21:00","-20.5","","-23.5","","78","","","","11","","22","","24.1","","101.67","","","","-32","","NA"
"-133.03","69.43","TUKTOYAKTUK A","2203913","2023-03-30 22:00","2023","03","30","22:00","-21.6","","-24.6","","77","","","","11","","21","","24.1","","101.66","","","","-33","","NA"
"-133.03","69.43","TUKTOYAKTUK A","2203913","2023-03-30 23:00","2023","03","30","23:00"
"-133.03","69.43","TUKTOYAKTUK A","2203913","2023-03-31 00:00","2023","03","31","00:00"
"-133.03","69.43","TUKTOYAKTUK A","2203913","2023-03-31 01:00","2023","03","31","01:00"
"-133.03","69.43","TUKTOYAKTUK A","2203913","2023-03-31 02:00","2023","03","31","02:00"
"-133.03","69.43","TUKTOYAKTUK A","2203913","2023-03-31 03:00","2023","03","31","03:00"
"-133.03","69.43","TUKTOYAKTUK A","2203913","2023-03-31 04:00","2023","03","31","04:00"
"-133.03","69.43","TUKTOYAKTUK A","2203913","2023-03-31 05:00","2023","03","31","05:00"
"-133.03","69.43","TUKTOYAKTUK A","2203913","2023-03-31 06:00","2023","03","31","06:00","-24.9","","-27.9","","77","","","","10","","25","","24.1","","101.53","","","","-38","","NA"
"-133.03","69.43","TUKTOYAKTUK A","2203913","2023-03-31 07:00","2023","03","31","07:00","-25.8","","-28.8","","77","","","","11","","26","","24.1","","101.52","","","","-39","","NA"
"-133.03","69.43","TUKTOYAKTUK A","2203913","2023-03-31 08:00","2023","03","31","08:00","-25.8","","-28.9","","76","","","","11","","27","","24.1","","101.49","","","","-40","","Clear"
"-133.03","69.43","TUKTOYAKTUK A","2203913","2023-03-31 09:00","2023","03","31","09:00","-25.5","","-28.7","","75","","","","10","","32","","16.1","","101.45","","","","-40","","NA"
"-133.03","69.43","TUKTOYAKTUK A","2203913","2023-03-31 10:00","2023","03","31","10:00","-24.8","","-28.3","","74","","","","10","","24","","24.1","","101.45","","","","-38","","NA"
"-133.03","69.43","TUKTOYAKTUK A","2203913","2023-03-31 11:00","2023","03","31","11:00","-23.3","","-26.8","","74","","","","12","","24","","24.1","","101.41","","","","-36","","Clear"
"-133.03","69.43","TUKTOYAKTUK A","2203913","2023-03-31 12:00","2023","03","31","12:00","-22.0","","-25.7","","73","","","","11","","27","","16.1","","101.40","","","","-35","","NA"
"-133.03","69.43","TUKTOYAKTUK A","2203913","2023-03-31 13:00","2023","03","31","13:00","-20.8","","-24.5","","72","","","","11","","29","","16.1","","101.41","","","","-33","","NA"
"-133.03","69.43","TUKTOYAKTUK A","2203913","2023-03-31 14:00","2023","03","31","14:00","-19.8","","-23.6","","72","","","","11","","29","","24.1","","101.37","","","","-32","","Blowing Snow"
"-133.03","69.43","TUKTOYAKTUK A","2203913","2023-03-31 15:00","2023","03","31","15:00","-19.1","","-22.8","","73","","","","10","","31","","24.1","","101.38","","","","-32","","Blowing Snow"
"-133.03","69.43","TUKTOYAKTUK A","2203913","2023-03-31 16:00","2023","03","31","16:00","-18.5","","-22.1","","74","","","","10","","29","","24.1","","101.35","","","","-30","","Blowing Snow"
"-133.03","69.43","TUKTOYAKTUK A","2203913","2023-03-31 17:00","2023","03","31","17:00","-18.0","","-21.6","","74","","","","10","","34","","24.1","","101.29","","","","-31","","Blowing Snow"
"-133.03","69.43","TUKTOYAKTUK A","2203913","2023-03-31 18:00","2023","03","31","18:00","-18.1","","-21.5","","75","","","","10","","30","","24.1","","101.30","","","","-30","","Blowing Snow"
"-133.03","69.43","TUKTOYAKTUK A","2203913","2023-03-31 19:00","2023","03","31","19:00","-18.5","","-21.8","","76","","","","10","","28","","24.1","","101.28","","","","-30","","Blowing Snow"
"-133.03","69.43","TUKTOYAKTUK A","2203913","2023-03-31 20:00","2023","03","31","20:00","-19.2","","-22.6","","75","","","","10","","27","","24.1","","101.30","","","","-31","","Blowing Snow"
"-133.03","69.43","TUKTOYAKTUK A","2203913","2023-03-31 21:00","2023","03","31","21:00","-20.3","","-23.4","","77","","","","11","","27","","24.1","","101.32","","","","-32","","Blowing Snow"
"-133.03","69.43","TUKTOYAKTUK A","2203913","2023-03-31 22:00","2023","03","31","22:00","-21.1","","-24.2","","76","","","","11","","23","","24.1","","101.33","","","","-33","","Blowing Snow"
"-133.03","69.43","TUKTOYAKTUK A","2203913","2023-03-31 23:00","2023","03","31","23:00"
