"Longitude (x)","Latitude (y)","Station Name","Climate ID","Date/Time (LST)","Year","Month","Day","Time (LST)","Temp (°C)","Temp Flag","Dew Point Temp (°C)","Dew Point Temp Flag","Rel Hum (%)","Rel Hum Flag","Precip. Amount (mm)","Precip. Amount Flag","Wind Dir (10s deg)","Wind Dir Flag","Wind Spd (km/h)","Wind Spd Flag","Visibility (km)","Visibility Flag","Stn Press (kPa)","Stn Press Flag","Hmdx","Hmdx Flag","Wind Chill","Wind Chill Flag","Weather"
"-119.60","49.46","PENTICTON A","1126146","2022-02-01 00:00","2022","02","01","00:00","-2.7","","-5.1","","84","","","M","16","","17","","24.1","","98.22","","","","-8","","NA"
"-119.60","49.46","PENTICTON A","1126146","2022-02-01 01:00","2022","02","01","01:00","-2.5","","-5.2","","82","","","M","16","","12","","24.1","","98.18","","","","-7","","Mostly Cloudy"
"-119.60","49.46","PENTICTON A","1126146","2022-02-01 02:00","2022","02","01","02:00","-3.1","","-5.4","","84","","","M","19","","23","","24.1","","98.20","","","","-10","","NA"
"-119.60","49.46","PENTICTON A","1126146","2022-02-01 03:00","2022","02","01","03:00","-2.9","","-5.8","","81","","","M","19","","22","","24.1","","98.19","","","","-9","","NA"
"-119.60","49.46","PENTICTON A","1126146","2022-02-01 04:00","2022","02","01","04:00","-2.9","","-5.9","","80","","","M","16","","14","","24.1","","98.18","","","","-8","","Mostly Cloudy"
"-119.60","49.46","PENTICTON A","1126146","2022-02-01 05:00","2022","02","01","05:00","-3.2","","-6.0","","81","","","M","16","","8","","24.1","","98.22","","","","-6","","NA"
"-119.60","49.46","PENTICTON A","1126146","2022-02-01 06:00","2022","02","01","06:00","-3.5","","-5.7","","84","","","M","17","","11","","24.1","","98.22","","","","-8","","NA"
"-119.60","49.46","PENTICTON A","1126146","2022-02-01 07:00","2022","02","01","07:00","-3.7","","-5.9","","84","","","M","18","","10","","24.1","","98.24","","","","-8","","Mostly Cloudy"
"-119.60","49.46","PENTICTON A","1126146","2022-02-01 08:00","2022","02","01","08:00","-4.1","","-6.2","","85","","","M","16","","9","","24.1","","98.31","","","","-8","","NA"
"-119.60","49.46","PENTICTON A","1126146","2022-02-01 09:00","2022","02","01","09:00","-3.3","","-5.5","","85","","","M","17","","7","","24.1","","98.32","","","","-6","","NA"
"-119.60","49.46","PENTICTON A","1126146","2022-02-01 10:00","2022","02","01","10:00","-2.8","","-5.4","","82","","","M","18","","10","","24.1","","98.32","","","","-7","","Mostly Cloudy"
"-119.60","49.46","PENTICTON A","1126146","2022-02-01 11:00","2022","02","01","11:00","-2.2","","-5.1","","80","","","M","18","","10","","24.1","","98.29","","","","-6","","Snow Showers"
"-119.60","49.46","PENTICTON A","1126146","2022-02-01 12:00","2022","02","01","12:00","-1.5","","-4.9","","78","","","M","18","","13","","24.1","","98.24","","","","-6","","Snow Showers"
"-119.60","49.46","PENTICTON A","1126146","2022-02-01 13:00","2022","02","01","13:00","0.0","","-4.7","","71","","","M","19","","7","","24.1","","98.19","","","","-2","","Snow Showers"
"-119.60","49.46","PENTICTON A","1126146","2022-02-01 14:00","2022","02","01","14:00","2.8","","-5.3","","55","","","M","1","","16","","24.1","","98.22","","","","","","NA"
"-119.60","49.46","PENTICTON A","1126146","2022-02-01 15:00","2022","02","01","15:00","2.8","","-10.3","","38","","","M","35","","34","","24.1","","98.28","","","","","","NA"
"-119.60","49.46","PENTICTON A","1126146","2022-02-01 16:00","2022","02","01","16:00","1.4","","-11.6","","38","","","M","33","","23","","24.1","","98.37","","","","","","Mainly Clear"
"-119.60","49.46","PENTICTON A","1126146","2022-02-01 17:00","2022","02","01","17:00","1.1","","-14.5","","30","","","M","33","","28","","24.1","","98.39","","","","","","NA"
"-119.60","49.46","PENTICTON A","1126146","2022-02-01 18:00","2022","02","01","18:00","-0.1","","-15.1","","32","","","M","2","","27","","24.1","","98.50","","","","-6","","NA"
"-119.60","49.46","PENTICTON A","1126146","2022-02-01 19:00","2022","02","01","19:00","-1.2","","-13.7","","38","","","M","35","","25","","24.1","","98.59","","","","-7","","Mainly Clear"
"-119.60","49.46","PENTICTON A","1126146","2022-02-01 20:00","2022","02","01","20:00","-1.9","","-14.2","","39","","","M","35","","18","","24.1","","98.65","","","","-7","","NA"
"-119.60","49.46","PENTICTON A","1126146","2022-02-01 21:00","2022","02","01","21:00","-2.8","","-14.6","","40","","","M","34","","18","","24.1","","98.74","","","","-8","","NA"
"-119.60","49.46","PENTICTON A","1126146","2022-02-01 22:00","2022","02","01","22:00","-5.4","","-15.1","","47","","","M","33","","9","","24.1","","98.82","","","","-9","","Mainly Clear"
"-119.60","49.46","PENTICTON A","1126146","2022-02-01 23:00","2022","02","01","23:00","-4.8","","-16.0","","41","","","M","3","","11","","24.1","","98.88","","","","-9","","NA"
"-119.60","49.46","PENTICTON A","1126146","2022-02-02 00:00","2022","02","02","00:00","-5.3","","-16.8","","41","","","M","4","","13","","24.1","","98.94","","","","-10","","NA"
"-119.60","49.46","PENTICTON A","1126146","2022-02-02 01:00","2022","02","02","01:00","-6.0","","-16.9","","42","","","M","5","","14","","24.1","","98.97","","","","-12","","Clear"
"-119.60","49.46","PENTICTON A","1126146","2022-02-02 02:00","2022","02","02","02:00","-6.4","","-19.3","","36","","","M","4","","14","","24.1","","99.02","","","","-12","","NA"
"-119.60","49.46","PENTICTON A","1126146","2022-02-02 03:00","2022","02","02","03:00","-9.2","","-17.1","","53","","","M","1","","7","","24.1","","98.97","","","","-13","","NA"
"-119.60","49.46","PENTICTON A","1126146","2022-02-02 04:00","2022","02","02","04:00","-9.4","","-17.9","","50","","","M","35","","13","","24.1","","99.02","","","","-15","","Clear"
"-119.60","49.46","PENTICTON A","1126146","2022-02-02 05:00","2022","02","02","05:00","-8.5","","-18.1","","46","","","M","1","","13","","24.1","","98.98","","","","-14","","NA"
"-119.60","49.46","PENTICTON A","1126146","2022-02-02 06:00","2022","02","02","06:00","-8.1","","-16.9","","50","","","M","34","","11","","24.1","","99.02","","","","-13","","NA"
"-119.60","49.46","PENTICTON A","1126146","2022-02-02 07:00","2022","02","02","07:00","-7.3","","-16.3","","49","","","M","32","","7","","24.1","","98.97","","","","-11","","Cloudy"
"-119.60","49.46","PENTICTON A","1126146","2022-02-02 08:00","2022","02","02","08:00","-7.9","","-15.1","","56","","","M","5","","8","","24.1","","98.92","","","","-12","","NA"
"-119.60","49.46","PENTICTON A","1126146","2022-02-02 09:00","2022","02","02","09:00","-6.5","","-15.1","","51","","","M","0","","1","","24.1","","98.87","","","","-7","","NA"
"-119.60","49.46","PENTICTON A","1126146","2022-02-02 10:00","2022","02","02","10:00","-5.7","","-14.7","","49","","","M","36","","2","","24.1","","98.82","","","","-7","","Cloudy"
"-119.60","49.46","PENTICTON A","1126146","2022-02-02 11:00","2022","02","02","11:00","-5.2","","-14.1","","50","","","M","19","","3","","24.1","","98.77","","","","-7","","NA"
"-119.60","49.46","PENTICTON A","1126146","2022-02-02 12:00","2022","02","02","12:00","-5.3","","-15.2","","46","","","M","36","","2","","24.1","","98.71","","","","-6","","NA"
"-119.60","49.46","PENTICTON A","1126146","2022-02-02 13:00","2022","02","02","13:00","-5.0","","-15.3","","45","","","M","36","","2","","24.1","","98.66","","","","-6","","Cloudy"
"-119.60","49.46","PENTICTON A","1126146","2022-02-02 14:00","2022","02","02","14:00","-4.6","","-16.1","","41","","","M","18","","4","","24.1","","98.58","","","","-6","","NA"
"-119.60","49.46","PENTICTON A","1126146","2022-02-02 15:00","2022","02","02","15:00","-4.2","","-15.1","","43","","","M","16","","23","","24.1","","98.49","","","","-11","","NA"
"-119.60","49.46","PENTICTON A","1126146","2022-02-02 16:00","2022","02","02","16:00","-4.4","","-13.8","","48","","","M","15","","25","","24.1","","98.43","","","","-12","","Cloudy"
"-119.60","49.46","PENTICTON A","1126146","2022-02-02 17:00","2022","02","02","17:00","-4.5","","-13.3","","50","","","M","18","","36","","24.1","","98.37","","","","-13","","NA"
"-119.60","49.46","PENTICTON A","1126146","2022-02-02 18:00","2022","02","02","18:00","-4.7","","-12.2","","56","","","M","19","","42","","24.1","","98.31","","","","-14","","NA"
"-119.60","49.46","PENTICTON A","1126146","2022-02-02 19:00","2022","02","02","19:00","-5.1","","-10.0","","69","","","M","18","","35","","8.1","","98.31","","","","-14","","Snow"
"-119.60","49.46","PENTICTON A","1126146","2022-02-02 20:00","2022","02","02","20:00","-5.5","","-8.9","","77","","","M","17","","25","","4.8","","98.37","","","","-13","","Snow,Blowing Snow"
"-119.60","49.46","PENTICTON A","1126146","2022-02-02 21:00","2022","02","02","21:00","-5.3","","-8.6","","78","","","M","17","","19","","8.1","","98.46","","","","-12","","Snow,Blowing Snow"
"-119.60","49.46","PENTICTON A","1126146","2022-02-02 22:00","2022","02","02","22:00","-4.8","","-8.4","","77","","","M","16","","26","","12.9","","98.45","","","","-12","","Snow"
"-119.60","49.46","PENTICTON A","1126146","2022-02-02 23:00","2022","02","02","23:00","-4.8","","-8.1","","78","","","M","17","","19","","16.1","","98.49","","","","-11","","Snow"
"-119.60","49.46","PENTICTON A","1126146","2022-02-03 00:00","2022","02","03","00:00","-4.8","","-8.4","","76","","","M","17","","17","","16.1","","98.50","","","","-11","","Snow"
"-119.60","49.46","PENTICTON A","1126146","2022-02-03 01:00","2022","02","03","01:00","-4.5","","-8.5","","74","","","M","19","","21","","24.1","","98.52","","","","-11","","Cloudy"
"-119.60","49.46","PENTICTON A","1126146","2022-02-03 02:00","2022","02","03","02:00","-4.6","","-8.9","","72","","","M","18","","18","","24.1","","98.52","","","","-11","","NA"
"-119.60","49.46","PENTICTON A","1126146","2022-02-03 03:00","2022","02","03","03:00","-5.2","","-9.3","","73","","","M","16","","15","","24.1","","98.53","","","","-11","","NA"
"-119.60","49.46","PENTICTON A","1126146","2022-02-03 04:00","2022","02","03","04:00","-5.4","","-8.8","","78","","","M","14","","13","","24.1","","98.60","","","","-11","","Mostly Cloudy"
"-119.60","49.46","PENTICTON A","1126146","2022-02-03 05:00","2022","02","03","05:00","-5.4","","-8.6","","78","","","M","16","","16","","24.1","","98.67","","","","-11","","NA"
"-119.60","49.46","PENTICTON A","1126146","2022-02-03 06:00","2022","02","03","06:00","-5.6","","-9.1","","76","","","M","15","","18","","24.1","","98.71","","","","-12","","NA"
"-119.60","49.46","PENTICTON A","1126146","2022-02-03 07:00","2022","02","03","07:00","-5.6","","-9.5","","74","","","M","16","","17","","24.1","","98.73","","","","-12","","Mostly Cloudy"
"-119.60","49.46","PENTICTON A","1126146","2022-02-03 08:00","2022","02","03","08:00","-5.3","","-9.6","","72","","","M","16","","18","","24.1","","98.80","","","","-12","","NA"
"-119.60","49.46","PENTICTON A","1126146","2022-02-03 09:00","2022","02","03","09:00","-5.0","","-9.7","","70","","","M","16","","22","","24.1","","98.78","","","","-12","","NA"
"-119.60","49.46","PENTICTON A","1126146","2022-02-03 10:00","2022","02","03","10:00","-3.6","","-9.3","","65","","","M","18","","24","","24.1","","98.84","","","","-10","","Mostly Cloudy"
"-119.60","49.46","PENTICTON A","1126146","2022-02-03 11:00","2022","02","03","11:00","-2.4","","-8.7","","62","","","M","16","","24","","24.1","","98.86","","","","-9","","NA"
"-119.60","49.46","PENTICTON A","1126146","2022-02-03 12:00","2022","02","03","12:00","-2.2","","-8.6","","62","","","M","16","","27","","24.1","","98.88","","","","-9","","NA"
"-119.60","49.46","PENTICTON A","1126146","2022-02-03 13:00","2022","02","03","13:00","-2.0","","-8.3","","62","","","M","17","","26","","24.1","","98.90","","","","-9","","Mostly Cloudy"
"-119.60","49.46","PENTICTON A","1126146","2022-02-03 14:00","2022","02","03","14:00","-1.4","","-7.6","","63","","","M","18","","25","","24.1","","98.88","","","","-8","","NA"
"-119.60","49.46","PENTICTON A","1126146","2022-02-03 15:00","2022","02","03","15:00","-1.2","","-7.4","","63","","","M","17","","22","","24.1","","98.93","","","","-7","","NA"
"-119.60","49.46","PENTICTON A","1126146","2022-02-03 16:00","2022","02","03","16:00","-1.1","","-7.5","","62","","","M","17","","24","","24.1","","98.91","","","","-7","","Mostly Cloudy"
"-119.60","49.46","PENTICTON A","1126146","2022-02-03 17:00","2022","02","03","17:00","-1.6","","-7.1","","66","","","M","16","","27","","24.1","","98.89","","","","-8","","NA"
"-119.60","49.46","PENTICTON A","1126146","2022-02-03 18:00","2022","02","03","18:00","-2.1","","-6.9","","70","","","M","18","","34","","24.1","","98.87","","","","-10","","NA"
"-119.60","49.46","PENTICTON A","1126146","2022-02-03 19:00","2022","02","03","19:00","-2.1","","-7.0","","69","","","M","17","","19","","24.1","","99.01","","","","-8","","Mainly Clear"
"-119.60","49.46","PENTICTON A","1126146","2022-02-03 20:00","2022","02","03","20:00","-2.5","","-6.9","","72","","","M","17","","26","","24.1","","99.02","","","","-9","","NA"
"-119.60","49.46","PENTICTON A","1126146","2022-02-03 21:00","2022","02","03","21:00","-2.8","","-6.8","","74","","","M","18","","28","","24.1","","99.03","","","","-10","","NA"
"-119.60","49.46","PENTICTON A","1126146","2022-02-03 22:00","2022","02","03","22:00","-2.3","","-6.3","","74","","","M","17","","27","","24.1","","99.07","","","","-9","","Mostly Cloudy"
"-119.60","49.46","PENTICTON A","1126146","2022-02-03 23:00","2022","02","03","23:00","-2.5","","-6.7","","73","","","M","17","","26","","24.1","","99.07","","","","-9","","NA"
"-119.60","49.46","PENTICTON A","1126146","2022-02-04 00:00","2022","02","04","00:00","-2.5","","-6.4","","74","","","M","17","","22","","24.1","","99.07","","","","-9","","NA"
"-119.60","49.46","PENTICTON A","1126146","2022-02-04 01:00","2022","02","04","01:00","-2.2","","-6.4","","73","","","M","18","","28","","24.1","","99.05","","","","-9","","Mostly Cloudy"
"-119.60","49.46","PENTICTON A","1126146","2022-02-04 02:00","2022","02","04","02:00","-2.2","","-6.7","","72","","","M","18","","32","","24.1","","99.00","","","","-10","","NA"
"-119.60","49.46","PENTICTON A","1126146","2022-02-04 03:00","2022","02","04","03:00","-2.0","","-6.3","","72","","","M","18","","27","","24.1","","98.94","","","","-9","","NA"
"-119.60","49.46","PENTICTON A","1126146","2022-02-04 04:00","2022","02","04","04:00","-1.9","","-6.3","","72","","","M","17","","24","","24.1","","98.85","","","","-8","","Cloudy"
"-119.60","49.46","PENTICTON A","1126146","2022-02-04 05:00","2022","02","04","05:00","-1.6","","-6.1","","71","","","M","17","","25","","24.1","","98.79","","","","-8","","NA"
"-119.60","49.46","PENTICTON A","1126146","2022-02-04 06:00","2022","02","04","06:00","-1.8","","-6.0","","73","","","M","17","","26","","24.1","","98.74","","","","-8","","NA"
"-119.60","49.46","PENTICTON A","1126146","2022-02-04 07:00","2022","02","04","07:00","-1.6","","-5.4","","75","","","M","15","","19","","24.1","","98.70","","","","-7","","Mostly Cloudy"
"-119.60","49.46","PENTICTON A","1126146","2022-02-04 08:00","2022","02","04","08:00","-1.3","","-4.9","","76","","","M","15","","25","","24.1","","98.67","","","","-8","","NA"
"-119.60","49.46","PENTICTON A","1126146","2022-02-04 09:00","2022","02","04","09:00","-1.3","","-4.2","","81","","","M","16","","22","","19.3","","98.58","","","","-7","","NA"
"-119.60","49.46","PENTICTON A","1126146","2022-02-04 10:00","2022","02","04","10:00","-0.7","","-3.8","","80","","","M","16","","20","","24.1","","98.60","","","","-6","","Cloudy"
"-119.60","49.46","PENTICTON A","1126146","2022-02-04 11:00","2022","02","04","11:00","-0.6","","-3.8","","79","","","M","16","","28","","24.1","","98.54","","","","-7","","NA"
"-119.60","49.46","PENTICTON A","1126146","2022-02-04 12:00","2022","02","04","12:00","0.2","","-3.5","","76","","","M","17","","27","","24.1","","98.51","","","","","","NA"
"-119.60","49.46","PENTICTON A","1126146","2022-02-04 13:00","2022","02","04","13:00","1.4","","-2.5","","75","","","M","17","","27","","24.1","","98.32","","","","","","Mostly Cloudy"
"-119.60","49.46","PENTICTON A","1126146","2022-02-04 14:00","2022","02","04","14:00","1.6","","-2.5","","74","","","M","16","","22","","24.1","","98.29","","","","","","NA"
"-119.60","49.46","PENTICTON A","1126146","2022-02-04 15:00","2022","02","04","15:00","0.4","","-2.9","","79","","","M","17","","35","","24.1","","98.19","","","","","","NA"
"-119.60","49.46","PENTICTON A","1126146","2022-02-04 16:00","2022","02","04","16:00","0.6","","-2.4","","80","","","M","18","","36","","24.1","","98.14","","","","","","Mostly Cloudy"
"-119.60","49.46","PENTICTON A","1126146","2022-02-04 17:00","2022","02","04","17:00","0.2","","-2.5","","82","","","M","18","","40","","24.1","","98.07","","","","","","NA"
"-119.60","49.46","PENTICTON A","1126146","2022-02-04 18:00","2022","02","04","18:00","0.2","","-2.4","","83","","","M","17","","24","","24.1","","98.16","","","","","","NA"
"-119.60","49.46","PENTICTON A","1126146","2022-02-04 19:00","2022","02","04","19:00","0.4","","-2.3","","82","","","M","17","","28","","24.1","","98.18","","","","","","Cloudy"
"-119.60","49.46","PENTICTON A","1126146","2022-02-04 20:00","2022","02","04","20:00","0.5","","-2.5","","80","","","M","18","","26","","24.1","","98.18","","","","","","NA"
"-119.60","49.46","PENTICTON A","1126146","2022-02-04 21:00","2022","02","04","21:00","0.5","","-2.6","","80","","","M","17","","26","","24.1","","98.21","","","","","","NA"
"-119.60","49.46","PENTICTON A","1126146","2022-02-04 22:00","2022","02","04","22:00","0.4","","-2.8","","79","","","M","18","","30","","24.1","","98.23","","","","","","Cloudy"
"-119.60","49.46","PENTICTON A","1126146","2022-02-04 23:00","2022","02","04","23:00","0.4","","-2.8","","79","","","M","18","","31","","24.1","","98.26","","","","","","NA"
"-119.60","49.46","PENTICTON A","1126146","2022-02-05 00:00","2022","02","05","00:00","0.3","","-2.9","","79","","","M","18","","32","","24.1","","98.33","","","","","","NA"
"-119.60","49.46","PENTICTON A","1126146","2022-02-05 01:00","2022","02","05","01:00","0.2","","-2.9","","80","","","M","17","","37","","24.1","","98.36","","","","","","Cloudy"
"-119.60","49.46","PENTICTON A","1126146","2022-02-05 02:00","2022","02","05","02:00","0.0","","-3.0","","80","","","M","17","","35","","24.1","","98.44","","","","-7","","NA"
"-119.60","49.46","PENTICTON A","1126146","2022-02-05 03:00","2022","02","05","03:00","-0.3","","-2.9","","83","","","M","17","","34","","24.1","","98.48","","","","-7","","NA"
"-119.60","49.46","PENTICTON A","1126146","2022-02-05 04:00","2022","02","05","04:00","-0.5","","-2.8","","84","","","M","18","","29","","24.1","","98.54","","","","-7","","Mostly Cloudy"
"-119.60","49.46","PENTICTON A","1126146","2022-02-05 05:00","2022","02","05","05:00","-0.5","","-3.1","","82","","","M","17","","27","","24.1","","98.64","","","","-7","","NA"
"-119.60","49.46","PENTICTON A","1126146","2022-02-05 06:00","2022","02","05","06:00","-1.1","","-3.5","","83","","","M","19","","24","","24.1","","98.73","","","","-7","","NA"
"-119.60","49.46","PENTICTON A","1126146","2022-02-05 07:00","2022","02","05","07:00","-1.2","","-3.5","","84","","","M","18","","25","","24.1","","98.77","","","","-7","","Mostly Cloudy"
"-119.60","49.46","PENTICTON A","1126146","2022-02-05 08:00","2022","02","05","08:00","-1.0","","-3.6","","83","","","M","17","","23","","24.1","","98.89","","","","-7","","NA"
"-119.60","49.46","PENTICTON A","1126146","2022-02-05 09:00","2022","02","05","09:00","-0.5","","-3.3","","82","","","M","17","","23","","24.1","","98.93","","","","-6","","NA"
"-119.60","49.46","PENTICTON A","1126146","2022-02-05 10:00","2022","02","05","10:00","0.6","","-3.0","","77","","","M","17","","26","","24.1","","98.97","","","","","","Mainly Clear"
"-119.60","49.46","PENTICTON A","1126146","2022-02-05 11:00","2022","02","05","11:00","1.2","","-2.9","","74","","","M","17","","24","","24.1","","99.01","","","","","","NA"
"-119.60","49.46","PENTICTON A","1126146","2022-02-05 12:00","2022","02","05","12:00","1.4","","-2.9","","73","","","M","17","","23","","24.1","","98.98","","","","","","NA"
"-119.60","49.46","PENTICTON A","1126146","2022-02-05 13:00","2022","02","05","13:00","1.6","","-2.7","","74","","","M","18","","23","","24.1","","98.97","","","","","","Mostly Cloudy"
"-119.60","49.46","PENTICTON A","1126146","2022-02-05 14:00","2022","02","05","14:00","1.6","","-2.8","","73","","","M","18","","21","","24.1","","98.99","","","","","","NA"
"-119.60","49.46","PENTICTON A","1126146","2022-02-05 15:00","2022","02","05","15:00","1.6","","-2.9","","72","","","M","17","","20","","24.1","","99.04","","","","","","NA"
"-119.60","49.46","PENTICTON A","1126146","2022-02-05 16:00","2022","02","05","16:00","0.6","","-2.7","","78","","","M","18","","19","","24.1","","99.09","","","","","","Mainly Clear"
"-119.60","49.46","PENTICTON A","1126146","2022-02-05 17:00","2022","02","05","17:00","0.4","","-2.8","","79","","","M","17","","20","","24.1","","99.13","","","","","","NA"
"-119.60","49.46","PENTICTON A","1126146","2022-02-05 18:00","2022","02","05","18:00","0.0","","-3.2","","79","","","M","17","","27","","24.1","","99.13","","","","-6","","NA"
"-119.60","49.46","PENTICTON A","1126146","2022-02-05 19:00","2022","02","05","19:00","-0.4","","-3.2","","82","","","M","18","","23","","24.1","","99.15","","","","-6","","Mostly Cloudy"
"-119.60","49.46","PENTICTON A","1126146","2022-02-05 20:00","2022","02","05","20:00","-0.9","","-3.2","","85","","","M","17","","27","","24.1","","99.18","","","","-7","","NA"
"-119.60","49.46","PENTICTON A","1126146","2022-02-05 21:00","2022","02","05","21:00","-1.4","","-3.3","","87","","","M","18","","28","","24.1","","99.27","","","","-8","","NA"
"-119.60","49.46","PENTICTON A","1126146","2022-02-05 22:00","2022","02","05","22:00","-1.6","","-3.3","","88","","","M","18","","28","","24.1","","99.25","","","","-8","","Mainly Clear"
"-119.60","49.46","PENTICTON A","1126146","2022-02-05 23:00","2022","02","05","23:00","-2.0","","-3.5","","90","","","M","18","","25","","24.1","","99.29","","","","-8","","NA"
"-119.60","49.46","PENTICTON A","1126146","2022-02-06 00:00","2022","02","06","00:00","-1.8","","-3.2","","90","","","M","18","","28","","24.1","","99.28","","","","-9","","NA"
"-119.60","49.46","PENTICTON A","1126146","2022-02-06 01:00","2022","02","06","01:00","-1.6","","-3.4","","88","","","M","16","","17","","24.1","","99.24","","","","-7","","Mainly Clear"
"-119.60","49.46","PENTICTON A","1126146","2022-02-06 02:00","2022","02","06","02:00","-1.7","","-3.4","","88","","","M","17","","21","","24.1","","99.29","","","","-8","","NA"
"-119.60","49.46","PENTICTON A","1126146","2022-02-06 03:00","2022","02","06","03:00","-1.6","","-3.4","","88","","","M","19","","29","","24.1","","99.13","","","","-8","","NA"
"-119.60","49.46","PENTICTON A","1126146","2022-02-06 04:00","2022","02","06","04:00","-0.9","","-3.3","","84","","","M","16","","19","","24.1","","99.14","","","","-6","","Mostly Cloudy"
"-119.60","49.46","PENTICTON A","1126146","2022-02-06 05:00","2022","02","06","05:00","-1.2","","-3.6","","84","","","M","17","","28","","24.1","","99.12","","","","-8","","NA"
"-119.60","49.46","PENTICTON A","1126146","2022-02-06 06:00","2022","02","06","06:00","-1.5","","-3.8","","84","","","M","16","","17","","24.1","","99.14","","","","-7","","NA"
"-119.60","49.46","PENTICTON A","1126146","2022-02-06 07:00","2022","02","06","07:00","-1.7","","-3.9","","85","","","M","16","","18","","24.1","","99.10","","","","-7","","Cloudy"
"-119.60","49.46","PENTICTON A","1126146","2022-02-06 08:00","2022","02","06","08:00","-1.2","","-4.0","","81","","","M","15","","22","","24.1","","99.07","","","","-7","","NA"
"-119.60","49.46","PENTICTON A","1126146","2022-02-06 09:00","2022","02","06","09:00","-1.5","","-4.0","","83","","","M","16","","25","","24.1","","99.09","","","","-8","","NA"
"-119.60","49.46","PENTICTON A","1126146","2022-02-06 10:00","2022","02","06","10:00","-0.8","","-3.7","","81","","","M","16","","23","","24.1","","99.11","","","","-7","","Mostly Cloudy"
"-119.60","49.46","PENTICTON A","1126146","2022-02-06 11:00","2022","02","06","11:00","1.0","","-3.0","","74","","","M","15","","27","","24.1","","99.02","","","","","","NA"
"-119.60","49.46","PENTICTON A","1126146","2022-02-06 12:00","2022","02","06","12:00","2.1","","-3.0","","69","","","M","17","","30","","24.1","","98.99","","","","","","NA"
"-119.60","49.46","PENTICTON A","1126146","2022-02-06 13:00","2022","02","06","13:00","2.5","","-2.6","","69","","","M","17","","31","","24.1","","98.88","","","","","","Mostly Cloudy"
"-119.60","49.46","PENTICTON A","1126146","2022-02-06 14:00","2022","02","06","14:00","2.4","","-2.3","","71","","","M","16","","30","","24.1","","98.79","","","","","","NA"
"-119.60","49.46","PENTICTON A","1126146","2022-02-06 15:00","2022","02","06","15:00","2.1","","-2.2","","73","","","M","17","","28","","24.1","","98.74","","","","","","NA"
"-119.60","49.46","PENTICTON A","1126146","2022-02-06 16:00","2022","02","06","16:00","1.7","","-2.2","","75","","","M","18","","35","","24.1","","98.73","","","","","","Mostly Cloudy"
"-119.60","49.46","PENTICTON A","1126146","2022-02-06 17:00","2022","02","06","17:00","1.5","","-1.7","","79","","","M","17","","32","","24.1","","98.69","","","","","","NA"
"-119.60","49.46","PENTICTON A","1126146","2022-02-06 18:00","2022","02","06","18:00","1.5","","-1.3","","81","","","M","17","","27","","24.1","","98.64","","","","","","NA"
"-119.60","49.46","PENTICTON A","1126146","2022-02-06 19:00","2022","02","06","19:00","1.6","","-1.2","","82","","","M","18","","30","","24.1","","98.65","","","","","","Cloudy"
"-119.60","49.46","PENTICTON A","1126146","2022-02-06 20:00","2022","02","06","20:00","1.6","","-0.9","","83","","","M","18","","23","","24.1","","98.64","","","","","","NA"
"-119.60","49.46","PENTICTON A","1126146","2022-02-06 21:00","2022","02","06","21:00","2.0","","-0.9","","81","","","M","17","","26","","24.1","","98.58","","","","","","NA"
"-119.60","49.46","PENTICTON A","1126146","2022-02-06 22:00","2022","02","06","22:00","1.8","","-1.0","","81","","","M","17","","25","","24.1","","98.57","","","","","","Cloudy"
"-119.60","49.46","PENTICTON A","1126146","2022-02-06 23:00","2022","02","06","23:00","2.0","","-1.0","","80","","","M","18","","27","","24.1","","98.47","","","","","","NA"
"-119.60","49.46","PENTICTON A","1126146","2022-02-07 00:00","2022","02","07","00:00","2.2","","-0.9","","80","","","M","17","","19","","24.1","","98.45","","","","","","NA"
"-119.60","49.46","PENTICTON A","1126146","2022-02-07 01:00","2022","02","07","01:00","2.5","","-1.2","","77","","","M","16","","21","","24.1","","98.35","","","","","","Mostly Cloudy"
"-119.60","49.46","PENTICTON A","1126146","2022-02-07 02:00","2022","02","07","02:00","2.2","","-1.4","","77","","","M","16","","22","","24.1","","98.30","","","","","","NA"
"-119.60","49.46","PENTICTON A","1126146","2022-02-07 03:00","2022","02","07","03:00","1.1","","-1.3","","84","","","M","17","","12","","24.1","","98.23","","","","","","NA"
"-119.60","49.46","PENTICTON A","1126146","2022-02-07 04:00","2022","02","07","04:00","1.4","","-1.6","","80","","","M","15","","32","","24.1","","98.07","","","","","","Mainly Clear"
"-119.60","49.46","PENTICTON A","1126146","2022-02-07 05:00","2022","02","07","05:00","1.1","","-1.6","","82","","","M","15","","31","","24.1","","97.97","","","","","","NA"
"-119.60","49.46","PENTICTON A","1126146","2022-02-07 06:00","2022","02","07","06:00","0.9","","-1.5","","84","","","M","16","","36","","24.1","","97.90","","","","","","NA"
"-119.60","49.46","PENTICTON A","1126146","2022-02-07 07:00","2022","02","07","07:00","1.1","","-1.9","","81","","","M","17","","29","","24.1","","97.97","","","","","","Mainly Clear"
"-119.60","49.46","PENTICTON A","1126146","2022-02-07 08:00","2022","02","07","08:00","1.2","","-1.7","","81","","","M","19","","26","","24.1","","98.12","","","","","","NA"
"-119.60","49.46","PENTICTON A","1126146","2022-02-07 09:00","2022","02","07","09:00","2.0","","-1.6","","77","","","M","17","","19","","24.1","","98.17","","","","","","NA"
"-119.60","49.46","PENTICTON A","1126146","2022-02-07 10:00","2022","02","07","10:00","2.7","","-1.6","","73","","","M","15","","23","","24.1","","98.20","","","","","","Clear"
"-119.60","49.46","PENTICTON A","1126146","2022-02-07 11:00","2022","02","07","11:00","4.2","","-1.2","","68","","","M","18","","29","","24.1","","98.21","","","","","","NA"
"-119.60","49.46","PENTICTON A","1126146","2022-02-07 12:00","2022","02","07","12:00","4.9","","-1.3","","64","","","M","18","","37","","24.1","","98.04","","","","","","NA"
"-119.60","49.46","PENTICTON A","1126146","2022-02-07 13:00","2022","02","07","13:00","6.0","","-1.3","","59","","","M","16","","18","","24.1","","97.99","","","","","","Mainly Clear"
"-119.60","49.46","PENTICTON A","1126146","2022-02-07 14:00","2022","02","07","14:00","8.3","","-1.7","","49","","","M","35","","5","","24.1","","98.00","","","","","","NA"
"-119.60","49.46","PENTICTON A","1126146","2022-02-07 15:00","2022","02","07","15:00","11.3","","-1.9","","40","","","M","36","","3","","24.1","","98.09","","","","","","NA"
"-119.60","49.46","PENTICTON A","1126146","2022-02-07 16:00","2022","02","07","16:00","10.4","","-3.7","","37","","","M","18","","8","","24.1","","98.15","","","","","","Mainly Clear"
"-119.60","49.46","PENTICTON A","1126146","2022-02-07 17:00","2022","02","07","17:00","8.8","","-3.8","","41","","","M","11","","14","","24.1","","98.25","","","","","","NA"
"-119.60","49.46","PENTICTON A","1126146","2022-02-07 18:00","2022","02","07","18:00","8.0","","-4.4","","41","","","M","6","","8","","24.1","","98.42","","","","","","NA"
"-119.60","49.46","PENTICTON A","1126146","2022-02-07 19:00","2022","02","07","19:00","5.2","","-3.2","","55","","","M","31","","13","","24.1","","98.56","","","","","","Mainly Clear"
"-119.60","49.46","PENTICTON A","1126146","2022-02-07 20:00","2022","02","07","20:00","8.0","","-4.1","","42","","","M","28","","7","","24.1","","98.53","","","","","","NA"
"-119.60","49.46","PENTICTON A","1126146","2022-02-07 21:00","2022","02","07","21:00","2.5","","-3.9","","63","","","M","1","","5","","24.1","","98.64","","","","","","NA"
"-119.60","49.46","PENTICTON A","1126146","2022-02-07 22:00","2022","02","07","22:00","1.4","","-2.2","","77","","","M","19","","24","","24.1","","98.76","","","","","","Clear"
"-119.60","49.46","PENTICTON A","1126146","2022-02-07 23:00","2022","02","07","23:00","1.4","","-2.2","","77","","","M","21","","9","","24.1","","98.86","","","","","","NA"
"-119.60","49.46","PENTICTON A","1126146","2022-02-08 00:00","2022","02","08","00:00","1.1","","-2.7","","76","","","M","11","","3","","24.1","","98.93","","","","","","NA"
"-119.60","49.46","PENTICTON A","1126146","2022-02-08 01:00","2022","02","08","01:00","0.0","","-2.8","","82","","","M","22","","10","","24.1","","98.96","","","","-3","","Clear"
"-119.60","49.46","PENTICTON A","1126146","2022-02-08 02:00","2022","02","08","02:00","0.6","","-2.6","","79","","","M","17","","11","","24.1","","99.09","","","","","","NA"
"-119.60","49.46","PENTICTON A","1126146","2022-02-08 03:00","2022","02","08","03:00","0.6","","-2.6","","79","","","M","23","","14","","24.1","","98.94","","","","","","NA"
"-119.60","49.46","PENTICTON A","1126146","2022-02-08 04:00","2022","02","08","04:00","0.8","","-2.9","","76","","","M","16","","14","","24.1","","98.96","","","","","","Mostly Cloudy"
"-119.60","49.46","PENTICTON A","1126146","2022-02-08 05:00","2022","02","08","05:00","1.1","","-2.3","","78","","","M","19","","10","","24.1","","98.99","","","","","","NA"
"-119.60","49.46","PENTICTON A","1126146","2022-02-08 06:00","2022","02","08","06:00","0.8","","-2.6","","79","","","M","17","","14","","24.1","","99.03","","","","","","NA"
"-119.60","49.46","PENTICTON A","1126146","2022-02-08 07:00","2022","02","08","07:00","1.1","","-2.8","","75","","","M","17","","20","","24.1","","99.01","","","","","","Mostly Cloudy"
"-119.60","49.46","PENTICTON A","1126146","2022-02-08 08:00","2022","02","08","08:00","1.2","","-2.9","","74","","","M","20","","17","","24.1","","98.99","","","","","","NA"
"-119.60","49.46","PENTICTON A","1126146","2022-02-08 09:00","2022","02","08","09:00","2.0","","-3.4","","67","","","M","18","","27","","22.5","","99.04","","","","","","NA"
"-119.60","49.46","PENTICTON A","1126146","2022-02-08 10:00","2022","02","08","10:00","3.2","","-3.7","","60","","","M","18","","25","","24.1","","99.05","","","","","","Mostly Cloudy"
"-119.60","49.46","PENTICTON A","1126146","2022-02-08 11:00","2022","02","08","11:00","5.1","","-3.8","","53","","","M","16","","25","","24.1","","98.99","","","","","","NA"
"-119.60","49.46","PENTICTON A","1126146","2022-02-08 12:00","2022","02","08","12:00","5.0","","-4.1","","52","","","M","17","","27","","24.1","","98.94","","","","","","NA"
"-119.60","49.46","PENTICTON A","1126146","2022-02-08 13:00","2022","02","08","13:00","5.6","","-3.9","","50","","","M","17","","25","","24.1","","98.93","","","","","","Cloudy"
"-119.60","49.46","PENTICTON A","1126146","2022-02-08 14:00","2022","02","08","14:00","4.6","","-3.2","","57","","","M","15","","20","","24.1","","98.92","","","","","","NA"
"-119.60","49.46","PENTICTON A","1126146","2022-02-08 15:00","2022","02","08","15:00","4.2","","-2.3","","62","","","M","15","","20","","24.1","","98.96","","","","","","Rain"
"-119.60","49.46","PENTICTON A","1126146","2022-02-08 16:00","2022","02","08","16:00","3.4","","-1.2","","72","","","M","23","","9","","24.1","","99.04","","","","","","Rain"
"-119.60","49.46","PENTICTON A","1126146","2022-02-08 17:00","2022","02","08","17:00","3.0","","-1.8","","71","","","M","20","","10","","24.1","","98.96","","","","","","NA"
"-119.60","49.46","PENTICTON A","1126146","2022-02-08 18:00","2022","02","08","18:00","2.5","","-2.2","","71","","","M","18","","20","","24.1","","99.00","","","","","","NA"
"-119.60","49.46","PENTICTON A","1126146","2022-02-08 19:00","2022","02","08","19:00","2.8","","-2.5","","68","","","M","15","","25","","24.1","","98.92","","","","","","Mostly Cloudy"
"-119.60","49.46","PENTICTON A","1126146","2022-02-08 20:00","2022","02","08","20:00","2.6","","-2.3","","70","","","M","16","","18","","24.1","","98.94","","","","","","NA"
"-119.60","49.46","PENTICTON A","1126146","2022-02-08 21:00","2022","02","08","21:00","2.4","","-2.2","","72","","","M","15","","23","","24.1","","98.84","","","","","","NA"
"-119.60","49.46","PENTICTON A","1126146","2022-02-08 22:00","2022","02","08","22:00","2.5","","-2.4","","70","","","M","15","","23","","24.1","","98.85","","","","","","Mostly Cloudy"
"-119.60","49.46","PENTICTON A","1126146","2022-02-08 23:00","2022","02","08","23:00","1.9","","-2.2","","74","","","M","17","","10","","24.1","","98.90","","","","","","NA"
"-119.60","49.46","PENTICTON A","1126146","2022-02-09 00:00","2022","02","09","00:00","1.8","","-2.3","","74","","","M","16","","20","","24.1","","98.84","","","","","","NA"
"-119.60","49.46","PENTICTON A","1126146","2022-02-09 01:00","2022","02","09","01:00","1.7","","-2.3","","75","","","M","15","","20","","24.1","","98.92","","","","","","Mostly Cloudy"
"-119.60","49.46","PENTICTON A","1126146","2022-02-09 02:00","2022","02","09","02:00","1.8","","-2.0","","76","","","M","16","","10","","24.1","","98.90","","","","","","NA"
"-119.60","49.46","PENTICTON A","1126146","2022-02-09 03:00","2022","02","09","03:00","1.2","","-2.3","","77","","","M","16","","8","","24.1","","98.93","","","","","","NA"
"-119.60","49.46","PENTICTON A","1126146","2022-02-09 04:00","2022","02","09","04:00","0.7","","-2.5","","79","","","M","19","","8","","24.1","","98.96","","","","","","Mostly Cloudy"
"-119.60","49.46","PENTICTON A","1126146","2022-02-09 05:00","2022","02","09","05:00","0.6","","-2.5","","80","","","M","15","","15","","24.1","","98.99","","","","","","NA"
"-119.60","49.46","PENTICTON A","1126146","2022-02-09 06:00","2022","02","09","06:00","0.4","","-2.4","","81","","","M","17","","14","","24.1","","99.03","","","","","","NA"
"-119.60","49.46","PENTICTON A","1126146","2022-02-09 07:00","2022","02","09","07:00","-0.2","","-2.6","","84","","","M","19","","5","","24.1","","99.06","","","","-2","","Cloudy"
"-119.60","49.46","PENTICTON A","1126146","2022-02-09 08:00","2022","02","09","08:00","0.1","","-2.1","","85","","","M","20","","8","","24.1","","99.07","","","","","","NA"
"-119.60","49.46","PENTICTON A","1126146","2022-02-09 09:00","2022","02","09","09:00","1.1","","-2.1","","80","","","M","19","","12","","24.1","","99.15","","","","","","NA"
"-119.60","49.46","PENTICTON A","1126146","2022-02-09 10:00","2022","02","09","10:00","1.3","","-2.1","","78","","","M","18","","9","","24.1","","99.15","","","","","","Mostly Cloudy"
"-119.60","49.46","PENTICTON A","1126146","2022-02-09 11:00","2022","02","09","11:00","2.7","","-2.2","","70","","","M","19","","8","","24.1","","99.17","","","","","","NA"
"-119.60","49.46","PENTICTON A","1126146","2022-02-09 12:00","2022","02","09","12:00","5.0","","-1.6","","62","","","M","13","","7","","24.1","","99.11","","","","","","NA"
"-119.60","49.46","PENTICTON A","1126146","2022-02-09 13:00","2022","02","09","13:00","5.5","","-1.8","","59","","","M","18","","5","","24.1","","99.03","","","","","","Cloudy"
"-119.60","49.46","PENTICTON A","1126146","2022-02-09 14:00","2022","02","09","14:00","4.9","","-1.6","","63","","","M","17","","12","","24.1","","98.98","","","","","","NA"
"-119.60","49.46","PENTICTON A","1126146","2022-02-09 15:00","2022","02","09","15:00","5.7","","-1.5","","60","","","M","17","","18","","24.1","","98.91","","","","","","NA"
"-119.60","49.46","PENTICTON A","1126146","2022-02-09 16:00","2022","02","09","16:00","3.9","","-1.6","","67","","","M","19","","17","","24.1","","98.92","","","","","","Mostly Cloudy"
"-119.60","49.46","PENTICTON A","1126146","2022-02-09 17:00","2022","02","09","17:00","3.2","","-1.8","","70","","","M","17","","12","","24.1","","98.87","","","","","","NA"
"-119.60","49.46","PENTICTON A","1126146","2022-02-09 18:00","2022","02","09","18:00","3.4","","-2.2","","67","","","M","15","","23","","24.1","","98.89","","","","","","NA"
"-119.60","49.46","PENTICTON A","1126146","2022-02-09 19:00","2022","02","09","19:00","2.2","","-2.0","","74","","","M","21","","10","","24.1","","98.89","","","","","","Mainly Clear"
"-119.60","49.46","PENTICTON A","1126146","2022-02-09 20:00","2022","02","09","20:00","2.2","","-2.1","","73","","","M","25","","8","","24.1","","98.89","","","","","","NA"
"-119.60","49.46","PENTICTON A","1126146","2022-02-09 21:00","2022","02","09","21:00","2.3","","-1.8","","74","","","M","23","","7","","24.1","","98.81","","","","","","NA"
"-119.60","49.46","PENTICTON A","1126146","2022-02-09 22:00","2022","02","09","22:00","1.8","","-1.9","","77","","","M","16","","14","","24.1","","98.73","","","","","","Mainly Clear"
"-119.60","49.46","PENTICTON A","1126146","2022-02-09 23:00","2022","02","09","23:00","1.8","","-1.6","","78","","","M","20","","9","","24.1","","98.65","","","","","","NA"
"-119.60","49.46","PENTICTON A","1126146","2022-02-10 00:00","2022","02","10","00:00","1.8","","-1.6","","78","","","M","19","","12","","24.1","","98.64","","","","","","NA"
"-119.60","49.46","PENTICTON A","1126146","2022-02-10 01:00","2022","02","10","01:00","1.4","","-1.5","","81","","","M","16","","9","","24.1","","98.61","","","","","","Mostly Cloudy"
"-119.60","49.46","PENTICTON A","1126146","2022-02-10 02:00","2022","02","10","02:00","1.2","","-1.5","","82","","","M","14","","7","","24.1","","98.61","","","","","","NA"
"-119.60","49.46","PENTICTON A","1126146","2022-02-10 03:00","2022","02","10","03:00","0.6","","-2.1","","82","","","M","17","","11","","24.1","","98.55","","","","","","NA"
"-119.60","49.46","PENTICTON A","1126146","2022-02-10 04:00","2022","02","10","04:00","0.5","","-2.0","","83","","","M","16","","13","","24.1","","98.48","","","","","","Cloudy"
"-119.60","49.46","PENTICTON A","1126146","2022-02-10 05:00","2022","02","10","05:00","1.0","","-1.7","","83","","","M","18","","19","","24.1","","98.42","","","","","","NA"
"-119.60","49.46","PENTICTON A","1126146","2022-02-10 06:00","2022","02","10","06:00","0.2","","-2.2","","84","","","M","14","","7","","24.1","","98.42","","","","","","NA"
"-119.60","49.46","PENTICTON A","1126146","2022-02-10 07:00","2022","02","10","07:00","-0.1","","-2.3","","85","","","M","16","","13","","24.1","","98.39","","","","-4","","Mostly Cloudy"
"-119.60","49.46","PENTICTON A","1126146","2022-02-10 08:00","2022","02","10","08:00","-0.1","","-2.2","","86","","","M","14","","7","","24.1","","98.39","","","","-3","","NA"
"-119.60","49.46","PENTICTON A","1126146","2022-02-10 09:00","2022","02","10","09:00","0.6","","-1.9","","83","","","M","36","","1","","24.1","","98.49","","","","","","NA"
"-119.60","49.46","PENTICTON A","1126146","2022-02-10 10:00","2022","02","10","10:00","2.9","","-0.2","","80","","","M","2","","16","","24.1","","98.67","","","","","","Cloudy"
"-119.60","49.46","PENTICTON A","1126146","2022-02-10 11:00","2022","02","10","11:00","4.4","","0.5","","76","","","M","36","","21","","24.1","","98.69","","","","","","NA"
"-119.60","49.46","PENTICTON A","1126146","2022-02-10 12:00","2022","02","10","12:00","5.5","","0.2","","69","","","M","34","","21","","24.1","","98.63","","","","","","NA"
"-119.60","49.46","PENTICTON A","1126146","2022-02-10 13:00","2022","02","10","13:00","5.6","","0.4","","69","","","M","36","","17","","24.1","","98.52","","","","","","Mostly Cloudy"
"-119.60","49.46","PENTICTON A","1126146","2022-02-10 14:00","2022","02","10","14:00","6.8","","0.4","","64","","","M","34","","11","","24.1","","98.42","","","","","","NA"
"-119.60","49.46","PENTICTON A","1126146","2022-02-10 15:00","2022","02","10","15:00","7.9","","0.7","","60","","","M","34","","9","","24.1","","98.36","","","","","","NA"
"-119.60","49.46","PENTICTON A","1126146","2022-02-10 16:00","2022","02","10","16:00","4.9","","-0.1","","70","","","M","19","","7","","24.1","","98.36","","","","","","Mainly Clear"
"-119.60","49.46","PENTICTON A","1126146","2022-02-10 17:00","2022","02","10","17:00","1.7","","-1.4","","80","","","M","2","","4","","24.1","","98.39","","","","","","NA"
"-119.60","49.46","PENTICTON A","1126146","2022-02-10 18:00","2022","02","10","18:00","1.1","","-1.1","","85","","","M","9","","3","","24.1","","98.43","","","","","","NA"
"-119.60","49.46","PENTICTON A","1126146","2022-02-10 19:00","2022","02","10","19:00","-0.1","","-2.0","","87","","","M","35","","11","","24.1","","98.50","","","","-4","","Mainly Clear"
"-119.60","49.46","PENTICTON A","1126146","2022-02-10 20:00","2022","02","10","20:00","0.3","","-1.6","","87","","","M","36","","10","","24.1","","98.62","","","","","","NA"
"-119.60","49.46","PENTICTON A","1126146","2022-02-10 21:00","2022","02","10","21:00","-0.2","","-2.1","","87","","","M","3","","4","","24.1","","98.70","","","","-1","","NA"
"-119.60","49.46","PENTICTON A","1126146","2022-02-10 22:00","2022","02","10","22:00","-1.7","","-3.2","","89","","","M","21","","4","","24.1","","98.71","","","","-3","","Clear"
"-119.60","49.46","PENTICTON A","1126146","2022-02-10 23:00","2022","02","10","23:00","-2.3","","-3.4","","92","","","M","32","","9","","24.1","","98.77","","","","-6","","NA"
"-119.60","49.46","PENTICTON A","1126146","2022-02-11 00:00","2022","02","11","00:00","-1.8","","-3.0","","92","","","M","36","","3","","24.1","","98.86","","","","-3","","NA"
"-119.60","49.46","PENTICTON A","1126146","2022-02-11 01:00","2022","02","11","01:00","-2.3","","-3.2","","93","","","M","34","","17","","24.1","","98.92","","","","-8","","Clear"
"-119.60","49.46","PENTICTON A","1126146","2022-02-11 02:00","2022","02","11","02:00","2.4","","-2.2","","72","","","M","33","","11","","","M","99.01","","","","","","NA"
"-119.60","49.46","PENTICTON A","1126146","2022-02-11 03:00","2022","02","11","03:00","-0.2","","-4.6","","72","","","M","35","","14","","","M","99.06","","","","-4","","NA"
"-119.60","49.46","PENTICTON A","1126146","2022-02-11 04:00","2022","02","11","04:00","-0.1","","-5.8","","65","","","M","35","","14","","24.1","","99.09","","","","-4","","Clear"
"-119.60","49.46","PENTICTON A","1126146","2022-02-11 05:00","2022","02","11","05:00","-0.6","","-6.6","","64","","","M","36","","15","","24.1","","99.17","","","","-5","","NA"
"-119.60","49.46","PENTICTON A","1126146","2022-02-11 06:00","2022","02","11","06:00","1.2","","-8.2","","50","","","M","7","","7","","24.1","","99.22","","","","","","NA"
"-119.60","49.46","PENTICTON A","1126146","2022-02-11 07:00","2022","02","11","07:00","0.8","","-9.6","","46","","","M","32","","8","","24.1","","99.29","","","","","","Clear"
"-119.60","49.46","PENTICTON A","1126146","2022-02-11 08:00","2022","02","11","08:00","0.4","","-8.0","","53","","","M","4","","12","","24.1","","99.38","","","","","","NA"
"-119.60","49.46","PENTICTON A","1126146","2022-02-11 09:00","2022","02","11","09:00","4.2","","-6.9","","44","","","M","36","","12","","24.1","","99.41","","","","","","NA"
"-119.60","49.46","PENTICTON A","1126146","2022-02-11 10:00","2022","02","11","10:00","6.6","","-8.4","","34","","","M","35","","14","","24.1","","99.43","","","","","","Mostly Cloudy"
"-119.60","49.46","PENTICTON A","1126146","2022-02-11 11:00","2022","02","11","11:00","7.9","","-9.2","","29","","","M","36","","11","","24.1","","99.47","","","","","","NA"
"-119.60","49.46","PENTICTON A","1126146","2022-02-11 12:00","2022","02","11","12:00","7.4","","-6.1","","38","","","M","36","","18","","24.1","","99.49","","","","","","NA"
"-119.60","49.46","PENTICTON A","1126146","2022-02-11 13:00","2022","02","11","13:00","8.0","","-7.3","","33","","","M","35","","17","","24.1","","99.45","","","","","","Mainly Clear"
"-119.60","49.46","PENTICTON A","1126146","2022-02-11 14:00","2022","02","11","14:00","7.7","","-6.4","","36","","","M","34","","22","","24.1","","99.39","","","","","","NA"
"-119.60","49.46","PENTICTON A","1126146","2022-02-11 15:00","2022","02","11","15:00","7.6","","-6.0","","37","","","M","1","","14","","24.1","","99.29","","","","","","NA"
"-119.60","49.46","PENTICTON A","1126146","2022-02-11 16:00","2022","02","11","16:00","6.7","","-7.2","","36","","","M","31","","13","","24.1","","99.28","","","","","","Mostly Cloudy"
"-119.60","49.46","PENTICTON A","1126146","2022-02-11 17:00","2022","02","11","17:00","3.1","","-7.5","","46","","","M","34","","7","","24.1","","99.24","","","","","","NA"
"-119.60","49.46","PENTICTON A","1126146","2022-02-11 18:00","2022","02","11","18:00","0.2","","-7.1","","58","","","M","35","","13","","24.1","","99.27","","","","","","NA"
"-119.60","49.46","PENTICTON A","1126146","2022-02-11 19:00","2022","02","11","19:00","-0.2","","-7.1","","60","","","M","1","","8","","24.1","","99.28","","","","-3","","Mainly Clear"
"-119.60","49.46","PENTICTON A","1126146","2022-02-11 20:00","2022","02","11","20:00","0.8","","-6.9","","56","","","M","35","","3","","24.1","","99.25","","","","","","NA"
"-119.60","49.46","PENTICTON A","1126146","2022-02-11 21:00","2022","02","11","21:00","-1.0","","-7.1","","63","","","M","36","","13","","24.1","","99.26","","","","-5","","NA"
"-119.60","49.46","PENTICTON A","1126146","2022-02-11 22:00","2022","02","11","22:00","-1.7","","-7.5","","65","","","M","34","","8","","24.1","","99.26","","","","-5","","Mostly Cloudy"
"-119.60","49.46","PENTICTON A","1126146","2022-02-11 23:00","2022","02","11","23:00","-3.5","","-7.6","","73","","","M","35","","4","","24.1","","99.28","","","","-5","","NA"
"-119.60","49.46","PENTICTON A","1126146","2022-02-12 00:00","2022","02","12","00:00","-2.4","","-7.7","","67","","","M","1","","14","","24.1","","99.27","","","","-7","","NA"
"-119.60","49.46","PENTICTON A","1126146","2022-02-12 01:00","2022","02","12","01:00","-4.3","","-8.4","","73","","","M","1","","5","","24.1","","99.28","","","","-6","","Mainly Clear"
"-119.60","49.46","PENTICTON A","1126146","2022-02-12 02:00","2022","02","12","02:00","-3.2","","-8.2","","68","","","M","2","","14","","24.1","","99.29","","","","-8","","NA"
"-119.60","49.46","PENTICTON A","1126146","2022-02-12 03:00","2022","02","12","03:00","-5.0","","-8.9","","74","","","M","1","","7","","24.1","","99.32","","","","-8","","NA"
"-119.60","49.46","PENTICTON A","1126146","2022-02-12 04:00","2022","02","12","04:00","-4.1","","-8.4","","72","","","M","1","","12","","24.1","","99.30","","","","-9","","Mainly Clear"
"-119.60","49.46","PENTICTON A","1126146","2022-02-12 05:00","2022","02","12","05:00","-4.9","","-8.7","","75","","","M","3","","9","","24.1","","99.30","","","","-9","","NA"
"-119.60","49.46","PENTICTON A","1126146","2022-02-12 06:00","2022","02","12","06:00","-4.9","","-9.1","","73","","","M","35","","10","","24.1","","99.32","","","","-9","","NA"
"-119.60","49.46","PENTICTON A","1126146","2022-02-12 07:00","2022","02","12","07:00","-5.2","","-9.5","","72","","","M","35","","10","","24.1","","99.37","","","","-10","","Clear"
"-119.60","49.46","PENTICTON A","1126146","2022-02-12 08:00","2022","02","12","08:00","-5.0","","-8.1","","79","","","M","33","","11","","24.1","","99.39","","","","-10","","NA"
"-119.60","49.46","PENTICTON A","1126146","2022-02-12 09:00","2022","02","12","09:00","0.0","","-6.2","","63","","","M","35","","9","","24.1","","99.36","","","","-3","","NA"
"-119.60","49.46","PENTICTON A","1126146","2022-02-12 10:00","2022","02","12","10:00","0.8","","-5.8","","61","","","M","35","","16","","24.1","","99.36","","","","","","Clear"
"-119.60","49.46","PENTICTON A","1126146","2022-02-12 11:00","2022","02","12","11:00","1.9","","-5.4","","58","","","M","35","","16","","24.1","","99.31","","","","","","NA"
"-119.60","49.46","PENTICTON A","1126146","2022-02-12 12:00","2022","02","12","12:00","3.0","","-6.2","","51","","","M","36","","22","","24.1","","99.23","","","","","","NA"
"-119.60","49.46","PENTICTON A","1126146","2022-02-12 13:00","2022","02","12","13:00","3.6","","-6.9","","46","","","M","36","","20","","24.1","","99.15","","","","","","Mainly Clear"
"-119.60","49.46","PENTICTON A","1126146","2022-02-12 14:00","2022","02","12","14:00","4.2","","-6.6","","45","","","M","36","","20","","24.1","","99.05","","","","","","NA"
"-119.60","49.46","PENTICTON A","1126146","2022-02-12 15:00","2022","02","12","15:00","4.5","","-6.5","","45","","","M","2","","15","","24.1","","99.00","","","","","","NA"
"-119.60","49.46","PENTICTON A","1126146","2022-02-12 16:00","2022","02","12","16:00","4.2","","-6.4","","46","","","M","36","","13","","24.1","","98.95","","","","","","Clear"
"-119.60","49.46","PENTICTON A","1126146","2022-02-12 17:00","2022","02","12","17:00","2.8","","-5.8","","53","","","M","1","","15","","24.1","","98.93","","","","","","NA"
"-119.60","49.46","PENTICTON A","1126146","2022-02-12 18:00","2022","02","12","18:00","-1.2","","-6.0","","70","","","M","34","","8","","24.1","","98.92","","","","-4","","NA"
"-119.60","49.46","PENTICTON A","1126146","2022-02-12 19:00","2022","02","12","19:00","-1.2","","-5.8","","71","","","M","36","","10","","24.1","","98.91","","","","-5","","Clear"
"-119.60","49.46","PENTICTON A","1126146","2022-02-12 20:00","2022","02","12","20:00","-1.5","","-6.2","","71","","","M","36","","7","","24.1","","98.90","","","","-4","","NA"
"-119.60","49.46","PENTICTON A","1126146","2022-02-12 21:00","2022","02","12","21:00","-3.1","","-5.9","","81","","","M","36","","2","","24.1","","98.88","","","","-4","","NA"
"-119.60","49.46","PENTICTON A","1126146","2022-02-12 22:00","2022","02","12","22:00","-3.8","","-6.8","","80","","","M","36","","4","","24.1","","98.88","","","","-5","","Clear"
"-119.60","49.46","PENTICTON A","1126146","2022-02-12 23:00","2022","02","12","23:00","-3.8","","-7.1","","78","","","M","2","","3","","24.1","","98.86","","","","-5","","NA"
"-119.60","49.46","PENTICTON A","1126146","2022-02-13 00:00","2022","02","13","00:00","-4.7","","-6.9","","84","","","M","36","","3","","24.1","","98.82","","","","-6","","NA"
"-119.60","49.46","PENTICTON A","1126146","2022-02-13 01:00","2022","02","13","01:00","-5.3","","-7.6","","84","","","M","2","","3","","24.1","","98.77","","","","-7","","Mostly Cloudy"
"-119.60","49.46","PENTICTON A","1126146","2022-02-13 02:00","2022","02","13","02:00","-5.2","","-7.1","","86","","","M","36","","1","","24.1","","98.77","","","","-6","","NA"
"-119.60","49.46","PENTICTON A","1126146","2022-02-13 03:00","2022","02","13","03:00","-5.1","","-6.9","","88","","","M","36","","1","","24.1","","98.74","","","","-6","","NA"
"-119.60","49.46","PENTICTON A","1126146","2022-02-13 04:00","2022","02","13","04:00","-6.5","","-8.1","","88","","","M","35","","4","","24.1","","98.72","","","","-8","","Mostly Cloudy"
"-119.60","49.46","PENTICTON A","1126146","2022-02-13 05:00","2022","02","13","05:00","-6.7","","-8.1","","89","","","M","","","0","","24.1","","98.69","","","","","","NA"
"-119.60","49.46","PENTICTON A","1126146","2022-02-13 06:00","2022","02","13","06:00","-5.8","","-7.6","","87","","","M","35","","4","","24.1","","98.66","","","","-8","","NA"
"-119.60","49.46","PENTICTON A","1126146","2022-02-13 07:00","2022","02","13","07:00","-4.8","","-6.7","","87","","","M","6","","4","","24.1","","98.65","","","","-7","","Mostly Cloudy"
"-119.60","49.46","PENTICTON A","1126146","2022-02-13 08:00","2022","02","13","08:00","-3.9","","-6.1","","85","","","M","18","","7","","24.1","","98.64","","","","-7","","NA"
"-119.60","49.46","PENTICTON A","1126146","2022-02-13 09:00","2022","02","13","09:00","-2.5","","-4.8","","84","","","M","19","","11","","24.1","","98.60","","","","-7","","NA"
"-119.60","49.46","PENTICTON A","1126146","2022-02-13 10:00","2022","02","13","10:00","-1.0","","-5.1","","74","","","M","19","","10","","24.1","","98.61","","","","-5","","Mostly Cloudy"
"-119.60","49.46","PENTICTON A","1126146","2022-02-13 11:00","2022","02","13","11:00","0.8","","-5.3","","64","","","M","19","","12","","24.1","","98.58","","","","","","NA"
"-119.60","49.46","PENTICTON A","1126146","2022-02-13 12:00","2022","02","13","12:00","1.9","","-5.1","","60","","","M","17","","9","","24.1","","98.49","","","","","","NA"
"-119.60","49.46","PENTICTON A","1126146","2022-02-13 13:00","2022","02","13","13:00","4.2","","-5.2","","50","","","M","15","","19","","24.1","","98.33","","","","","","Mainly Clear"
"-119.60","49.46","PENTICTON A","1126146","2022-02-13 14:00","2022","02","13","14:00","5.0","","-5.1","","48","","","M","16","","22","","24.1","","98.22","","","","","","NA"
"-119.60","49.46","PENTICTON A","1126146","2022-02-13 15:00","2022","02","13","15:00","4.5","","-5.2","","49","","","M","15","","23","","24.1","","98.12","","","","","","NA"
"-119.60","49.46","PENTICTON A","1126146","2022-02-13 16:00","2022","02","13","16:00","4.2","","-5.8","","48","","","M","17","","23","","24.1","","98.08","","","","","","Mostly Cloudy"
"-119.60","49.46","PENTICTON A","1126146","2022-02-13 17:00","2022","02","13","17:00","3.2","","-6.2","","50","","","M","18","","27","","24.1","","98.05","","","","","","NA"
"-119.60","49.46","PENTICTON A","1126146","2022-02-13 18:00","2022","02","13","18:00","2.9","","-6.1","","52","","","M","18","","27","","24.1","","97.97","","","","","","NA"
"-119.60","49.46","PENTICTON A","1126146","2022-02-13 19:00","2022","02","13","19:00","2.0","","-5.2","","59","","","M","17","","20","","24.1","","97.92","","","","","","Mostly Cloudy"
"-119.60","49.46","PENTICTON A","1126146","2022-02-13 20:00","2022","02","13","20:00","2.2","","-5.5","","57","","","M","18","","22","","24.1","","97.88","","","","","","NA"
"-119.60","49.46","PENTICTON A","1126146","2022-02-13 21:00","2022","02","13","21:00","2.2","","-5.5","","57","","","M","18","","20","","24.1","","97.73","","","","","","NA"
"-119.60","49.46","PENTICTON A","1126146","2022-02-13 22:00","2022","02","13","22:00","2.4","","-5.4","","56","","","M","18","","24","","24.1","","97.80","","","","","","Mostly Cloudy"
"-119.60","49.46","PENTICTON A","1126146","2022-02-13 23:00","2022","02","13","23:00","1.8","","-5.6","","58","","","M","15","","29","","24.1","","97.63","","","","","","NA"
"-119.60","49.46","PENTICTON A","1126146","2022-02-14 00:00","2022","02","14","00:00","1.3","","-5.1","","63","","","M","17","","23","","24.1","","97.58","","","","","","NA"
"-119.60","49.46","PENTICTON A","1126146","2022-02-14 01:00","2022","02","14","01:00","1.7","","-5.5","","59","","","M","17","","22","","24.1","","97.50","","","","","","Cloudy"
"-119.60","49.46","PENTICTON A","1126146","2022-02-14 02:00","2022","02","14","02:00","0.6","","-5.1","","65","","","M","16","","21","","24.1","","97.42","","","","","","NA"
"-119.60","49.46","PENTICTON A","1126146","2022-02-14 03:00","2022","02","14","03:00","0.6","","-4.9","","67","","","M","15","","23","","24.1","","97.30","","","","","","NA"
"-119.60","49.46","PENTICTON A","1126146","2022-02-14 04:00","2022","02","14","04:00","0.1","","-4.7","","70","","","M","18","","16","","24.1","","97.22","","","","","","Cloudy"
"-119.60","49.46","PENTICTON A","1126146","2022-02-14 05:00","2022","02","14","05:00","0.6","","-5.0","","66","","","M","18","","10","","24.1","","97.14","","","","","","NA"
"-119.60","49.46","PENTICTON A","1126146","2022-02-14 06:00","2022","02","14","06:00","0.1","","-4.5","","71","","","M","36","","1","","24.1","","97.09","","","","","","NA"
"-119.60","49.46","PENTICTON A","1126146","2022-02-14 07:00","2022","02","14","07:00","-0.3","","-4.7","","72","","","M","17","","6","","24.1","","97.09","","","","-2","","Cloudy"
"-119.60","49.46","PENTICTON A","1126146","2022-02-14 08:00","2022","02","14","08:00","0.0","","-4.1","","74","","","M","12","","5","","24.1","","97.08","","","","-2","","NA"
"-119.60","49.46","PENTICTON A","1126146","2022-02-14 09:00","2022","02","14","09:00","0.1","","-4.2","","73","","","M","17","","4","","24.1","","97.04","","","","","","NA"
"-119.60","49.46","PENTICTON A","1126146","2022-02-14 10:00","2022","02","14","10:00","0.6","","-4.0","","71","","","M","36","","3","","24.1","","97.05","","","","","","Cloudy"
"-119.60","49.46","PENTICTON A","1126146","2022-02-14 11:00","2022","02","14","11:00","1.2","","-4.3","","67","","","M","36","","3","","16.1","","97.08","","","","","","Snow"
"-119.60","49.46","PENTICTON A","1126146","2022-02-14 12:00","2022","02","14","12:00","1.4","","-2.2","","77","","","M","4","","7","","3.2","","97.07","","","","","","Snow"
"-119.60","49.46","PENTICTON A","1126146","2022-02-14 13:00","2022","02","14","13:00","0.5","","-0.9","","90","","","M","34","","10","","3.2","","97.05","","","","","","Snow"
"-119.60","49.46","PENTICTON A","1126146","2022-02-14 14:00","2022","02","14","14:00","0.7","","-0.4","","92","","","M","34","","8","","3.2","","97.04","","","","","","Snow"
"-119.60","49.46","PENTICTON A","1126146","2022-02-14 15:00","2022","02","14","15:00","0.3","","-0.5","","95","","","M","31","","7","","3.2","","97.06","","","","","","Snow"
"-119.60","49.46","PENTICTON A","1126146","2022-02-14 16:00","2022","02","14","16:00","0.3","","-0.4","","95","","","M","33","","6","","1.2","","97.07","","","","","","Snow"
"-119.60","49.46","PENTICTON A","1126146","2022-02-14 17:00","2022","02","14","17:00","0.4","","-0.2","","96","","","M","33","","10","","4.8","","97.13","","","","","","Rain,Snow"
"-119.60","49.46","PENTICTON A","1126146","2022-02-14 18:00","2022","02","14","18:00","0.4","","-0.3","","95","","","M","34","","10","","3.2","","97.22","","","","","","Snow"
"-119.60","49.46","PENTICTON A","1126146","2022-02-14 19:00","2022","02","14","19:00","0.8","","0.1","","95","","","M","34","","11","","11.3","","97.27","","","","","","Cloudy"
"-119.60","49.46","PENTICTON A","1126146","2022-02-14 20:00","2022","02","14","20:00","0.6","","-0.3","","94","","","M","34","","9","","16.1","","97.32","","","","","","NA"
"-119.60","49.46","PENTICTON A","1126146","2022-02-14 21:00","2022","02","14","21:00","0.3","","-0.5","","95","","","M","35","","11","","16.1","","97.36","","","","","","NA"
"-119.60","49.46","PENTICTON A","1126146","2022-02-14 22:00","2022","02","14","22:00","0.2","","-0.6","","95","","","M","4","","5","","24.1","","97.38","","","","","","Cloudy"
"-119.60","49.46","PENTICTON A","1126146","2022-02-14 23:00","2022","02","14","23:00","0.5","","-0.3","","94","","","M","29","","5","","24.1","","97.45","","","","","","NA"
"-119.60","49.46","PENTICTON A","1126146","2022-02-15 00:00","2022","02","15","00:00","0.5","","-0.2","","95","","","M","20","","4","","24.1","","97.52","","","","","","NA"
"-119.60","49.46","PENTICTON A","1126146","2022-02-15 01:00","2022","02","15","01:00","0.4","","-0.2","","95","","","M","36","","1","","24.1","","97.56","","","","","","Mostly Cloudy"
"-119.60","49.46","PENTICTON A","1126146","2022-02-15 02:00","2022","02","15","02:00","0.2","","-0.4","","96","","","M","19","","4","","19.3","","97.56","","","","","","NA"
"-119.60","49.46","PENTICTON A","1126146","2022-02-15 03:00","2022","02","15","03:00","0.0","","-0.5","","96","","","M","33","","7","","19.3","","97.59","","","","-2","","NA"
"-119.60","49.46","PENTICTON A","1126146","2022-02-15 04:00","2022","02","15","04:00","-0.1","","-0.6","","96","","","M","15","","7","","19.3","","97.63","","","","-3","","Mostly Cloudy"
"-119.60","49.46","PENTICTON A","1126146","2022-02-15 05:00","2022","02","15","05:00","-0.3","","-0.9","","96","","","M","23","","5","","19.3","","97.70","","","","-2","","NA"
"-119.60","49.46","PENTICTON A","1126146","2022-02-15 06:00","2022","02","15","06:00","-0.4","","-0.9","","96","","","M","18","","8","","19.3","","97.76","","","","-3","","NA"
"-119.60","49.46","PENTICTON A","1126146","2022-02-15 07:00","2022","02","15","07:00","-0.8","","-1.3","","96","","","M","33","","5","","19.3","","97.79","","","","-2","","Mostly Cloudy"
"-119.60","49.46","PENTICTON A","1126146","2022-02-15 08:00","2022","02","15","08:00","-0.4","","-0.9","","96","","","M","36","","3","","24.1","","97.83","","","","-1","","NA"
"-119.60","49.46","PENTICTON A","1126146","2022-02-15 09:00","2022","02","15","09:00","0.7","","0.2","","96","","","M","1","","13","","24.1","","97.90","","","","","","NA"
"-119.60","49.46","PENTICTON A","1126146","2022-02-15 10:00","2022","02","15","10:00","3.9","","0.7","","80","","","M","5","","3","","24.1","","97.83","","","","","","Mainly Clear"
"-119.60","49.46","PENTICTON A","1126146","2022-02-15 11:00","2022","02","15","11:00","4.2","","1.9","","85","","","M","15","","5","","24.1","","97.80","","","","","","NA"
"-119.60","49.46","PENTICTON A","1126146","2022-02-15 12:00","2022","02","15","12:00","6.3","","3.0","","79","","","M","19","","7","","24.1","","97.71","","","","","","NA"
"-119.60","49.46","PENTICTON A","1126146","2022-02-15 13:00","2022","02","15","13:00","10.2","","-2.6","","40","","","M","23","","3","","24.1","","97.56","","","","","","Mainly Clear"
"-119.60","49.46","PENTICTON A","1126146","2022-02-15 14:00","2022","02","15","14:00","11.1","","-4.4","","33","","","M","36","","3","","24.1","","97.45","","","","","","NA"
"-119.60","49.46","PENTICTON A","1126146","2022-02-15 15:00","2022","02","15","15:00","7.7","","1.1","","63","","","M","36","","12","","24.1","","97.42","","","","","","NA"
"-119.60","49.46","PENTICTON A","1126146","2022-02-15 16:00","2022","02","15","16:00","5.8","","0.8","","70","","","M","30","","5","","24.1","","97.41","","","","","","Mostly Cloudy"
"-119.60","49.46","PENTICTON A","1126146","2022-02-15 17:00","2022","02","15","17:00","5.3","","-0.6","","66","","","M","19","","6","","24.1","","97.38","","","","","","NA"
"-119.60","49.46","PENTICTON A","1126146","2022-02-15 18:00","2022","02","15","18:00","5.9","","-1.2","","60","","","M","22","","8","","24.1","","97.33","","","","","","NA"
"-119.60","49.46","PENTICTON A","1126146","2022-02-15 19:00","2022","02","15","19:00","5.5","","-1.2","","62","","","M","17","","6","","24.1","","97.35","","","","","","Mostly Cloudy"
"-119.60","49.46","PENTICTON A","1126146","2022-02-15 20:00","2022","02","15","20:00","3.5","","-0.9","","73","","","M","36","","2","","24.1","","97.32","","","","","","NA"
"-119.60","49.46","PENTICTON A","1126146","2022-02-15 21:00","2022","02","15","21:00","3.3","","-1.2","","73","","","M","11","","5","","24.1","","97.27","","","","","","NA"
"-119.60","49.46","PENTICTON A","1126146","2022-02-15 22:00","2022","02","15","22:00","3.1","","-0.6","","76","","","M","19","","8","","24.1","","97.25","","","","","","Cloudy"
"-119.60","49.46","PENTICTON A","1126146","2022-02-15 23:00","2022","02","15","23:00","3.3","","0.2","","80","","","M","19","","16","","24.1","","97.30","","","","","","Rain Showers"
"-119.60","49.46","PENTICTON A","1126146","2022-02-16 00:00","2022","02","16","00:00","3.0","","0.5","","84","","","M","23","","8","","24.1","","97.41","","","","","","NA"
"-119.60","49.46","PENTICTON A","1126146","2022-02-16 01:00","2022","02","16","01:00","2.6","","0.8","","88","","","M","4","","6","","24.1","","97.49","","","","","","Cloudy"
"-119.60","49.46","PENTICTON A","1126146","2022-02-16 02:00","2022","02","16","02:00","4.0","","0.6","","78","","","M","2","","13","","24.1","","97.56","","","","","","NA"
"-119.60","49.46","PENTICTON A","1126146","2022-02-16 03:00","2022","02","16","03:00","5.5","","-0.6","","65","","","M","1","","14","","24.1","","97.62","","","","","","NA"
"-119.60","49.46","PENTICTON A","1126146","2022-02-16 04:00","2022","02","16","04:00","5.8","","-1.1","","61","","","M","2","","14","","24.1","","97.69","","","","","","Cloudy"
"-119.60","49.46","PENTICTON A","1126146","2022-02-16 05:00","2022","02","16","05:00","6.9","","-3.8","","46","","","M","34","","26","","24.1","","97.78","","","","","","NA"
"-119.60","49.46","PENTICTON A","1126146","2022-02-16 06:00","2022","02","16","06:00","6.3","","-4.4","","46","","","M","36","","23","","24.1","","97.93","","","","","","NA"
"-119.60","49.46","PENTICTON A","1126146","2022-02-16 07:00","2022","02","16","07:00","6.1","","-5.0","","45","","","M","35","","18","","24.1","","98.03","","","","","","Mostly Cloudy"
"-119.60","49.46","PENTICTON A","1126146","2022-02-16 08:00","2022","02","16","08:00","6.1","","-4.9","","45","","","M","35","","23","","24.1","","98.12","","","","","","NA"
"-119.60","49.46","PENTICTON A","1126146","2022-02-16 09:00","2022","02","16","09:00","6.3","","-4.2","","47","","","M","3","","14","","24.1","","98.19","","","","","","NA"
"-119.60","49.46","PENTICTON A","1126146","2022-02-16 10:00","2022","02","16","10:00","6.9","","-4.6","","44","","","M","2","","17","","24.1","","98.25","","","","","","Mostly Cloudy"
"-119.60","49.46","PENTICTON A","1126146","2022-02-16 11:00","2022","02","16","11:00","7.9","","-4.7","","41","","","M","4","","19","","24.1","","98.30","","","","","","NA"
"-119.60","49.46","PENTICTON A","1126146","2022-02-16 12:00","2022","02","16","12:00","9.4","","-4.1","","38","","","M","2","","23","","24.1","","98.33","","","","","","NA"
"-119.60","49.46","PENTICTON A","1126146","2022-02-16 13:00","2022","02","16","13:00","9.9","","-4.2","","37","","","M","1","","23","","24.1","","98.35","","","","","","Mainly Clear"
"-119.60","49.46","PENTICTON A","1126146","2022-02-16 14:00","2022","02","16","14:00","10.0","","-4.4","","36","","","M","36","","22","","24.1","","98.31","","","","","","NA"
"-119.60","49.46","PENTICTON A","1126146","2022-02-16 15:00","2022","02","16","15:00","10.1","","-4.8","","35","","","M","36","","17","","24.1","","98.32","","","","","","NA"
"-119.60","49.46","PENTICTON A","1126146","2022-02-16 16:00","2022","02","16","16:00","10.1","","-5.1","","34","","","M","35","","9","","24.1","","98.32","","","","","","Clear"
"-119.60","49.46","PENTICTON A","1126146","2022-02-16 17:00","2022","02","16","17:00","4.2","","-4.4","","54","","","M","28","","4","","24.1","","98.33","","","","","","NA"
"-119.60","49.46","PENTICTON A","1126146","2022-02-16 18:00","2022","02","16","18:00","1.6","","-4.8","","62","","","M","4","","5","","24.1","","98.38","","","","","","NA"
"-119.60","49.46","PENTICTON A","1126146","2022-02-16 19:00","2022","02","16","19:00","0.2","","-5.6","","65","","","M","36","","1","","24.1","","98.40","","","","","","Clear"
"-119.60","49.46","PENTICTON A","1126146","2022-02-16 20:00","2022","02","16","20:00","-0.7","","-5.4","","70","","","M","32","","3","","24.1","","98.45","","","","-2","","NA"
"-119.60","49.46","PENTICTON A","1126146","2022-02-16 21:00","2022","02","16","21:00","-1.0","","-4.2","","79","","","M","8","","4","","24.1","","98.46","","","","-2","","NA"
"-119.60","49.46","PENTICTON A","1126146","2022-02-16 22:00","2022","02","16","22:00","-2.4","","-4.8","","84","","","M","36","","3","","24.1","","98.50","","","","-4","","Clear"
"-119.60","49.46","PENTICTON A","1126146","2022-02-16 23:00","2022","02","16","23:00","-2.4","","-5.5","","79","","","M","2","","3","","24.1","","98.47","","","","-4","","NA"
"-119.60","49.46","PENTICTON A","1126146","2022-02-17 00:00","2022","02","17","00:00","-1.8","","-5.1","","78","","","M","33","","3","","24.1","","98.44","","","","-3","","NA"
"-119.60","49.46","PENTICTON A","1126146","2022-02-17 01:00","2022","02","17","01:00","0.1","","-4.2","","73","","","M","36","","1","","24.1","","98.42","","","","","","Mostly Cloudy"
"-119.60","49.46","PENTICTON A","1126146","2022-02-17 02:00","2022","02","17","02:00","1.8","","-3.5","","68","","","M","16","","7","","24.1","","98.39","","","","","","NA"
"-119.60","49.46","PENTICTON A","1126146","2022-02-17 03:00","2022","02","17","03:00","2.1","","-3.6","","66","","","M","31","","4","","24.1","","98.36","","","","","","NA"
"-119.60","49.46","PENTICTON A","1126146","2022-02-17 04:00","2022","02","17","04:00","2.0","","-3.7","","66","","","M","23","","5","","24.1","","98.34","","","","","","Cloudy"
"-119.60","49.46","PENTICTON A","1126146","2022-02-17 05:00","2022","02","17","05:00","1.7","","-3.8","","67","","","M","22","","5","","24.1","","98.24","","","","","","NA"
"-119.60","49.46","PENTICTON A","1126146","2022-02-17 06:00","2022","02","17","06:00","1.8","","-3.8","","66","","","M","15","","22","","24.1","","98.20","","","","","","NA"
"-119.60","49.46","PENTICTON A","1126146","2022-02-17 07:00","2022","02","17","07:00","2.2","","-4.0","","64","","","M","15","","26","","24.1","","98.12","","","","","","Cloudy"
"-119.60","49.46","PENTICTON A","1126146","2022-02-17 08:00","2022","02","17","08:00","1.9","","-4.0","","65","","","M","14","","26","","24.1","","98.14","","","","","","NA"
"-119.60","49.46","PENTICTON A","1126146","2022-02-17 09:00","2022","02","17","09:00","2.4","","-4.1","","62","","","M","15","","27","","24.1","","98.16","","","","","","NA"
"-119.60","49.46","PENTICTON A","1126146","2022-02-17 10:00","2022","02","17","10:00","2.5","","-3.5","","65","","","M","19","","18","","24.1","","98.17","","","","","","Mostly Cloudy"
"-119.60","49.46","PENTICTON A","1126146","2022-02-17 11:00","2022","02","17","11:00","3.3","","-3.5","","61","","","M","18","","19","","24.1","","98.19","","","","","","NA"
"-119.60","49.46","PENTICTON A","1126146","2022-02-17 12:00","2022","02","17","12:00","3.5","","-3.2","","62","","","M","17","","17","","24.1","","98.22","","","","","","NA"
"-119.60","49.46","PENTICTON A","1126146","2022-02-17 13:00","2022","02","17","13:00","5.8","","-3.2","","52","","","M","18","","19","","24.1","","98.17","","","","","","Mostly Cloudy"
"-119.60","49.46","PENTICTON A","1126146","2022-02-17 14:00","2022","02","17","14:00","5.4","","-2.8","","56","","","M","18","","15","","24.1","","98.10","","","","","","NA"
"-119.60","49.46","PENTICTON A","1126146","2022-02-17 15:00","2022","02","17","15:00","6.8","","-2.4","","52","","","M","17","","20","","24.1","","98.05","","","","","","NA"
"-119.60","49.46","PENTICTON A","1126146","2022-02-17 16:00","2022","02","17","16:00","7.0","","-2.2","","52","","","M","18","","22","","24.1","","98.06","","","","","","Mostly Cloudy"
"-119.60","49.46","PENTICTON A","1126146","2022-02-17 17:00","2022","02","17","17:00","5.6","","-2.7","","55","","","M","18","","26","","24.1","","98.07","","","","","","NA"
"-119.60","49.46","PENTICTON A","1126146","2022-02-17 18:00","2022","02","17","18:00","4.8","","-2.6","","59","","","M","17","","20","","24.1","","98.07","","","","","","NA"
"-119.60","49.46","PENTICTON A","1126146","2022-02-17 19:00","2022","02","17","19:00","4.3","","-2.8","","60","","","M","17","","20","","24.1","","98.10","","","","","","Mainly Clear"
"-119.60","49.46","PENTICTON A","1126146","2022-02-17 20:00","2022","02","17","20:00","2.6","","-2.2","","71","","","M","19","","19","","24.1","","98.19","","","","","","NA"
"-119.60","49.46","PENTICTON A","1126146","2022-02-17 21:00","2022","02","17","21:00","3.8","","-2.2","","64","","","M","18","","20","","24.1","","98.22","","","","","","NA"
"-119.60","49.46","PENTICTON A","1126146","2022-02-17 22:00","2022","02","17","22:00","2.6","","-1.8","","73","","","M","19","","23","","24.1","","98.25","","","","","","Mainly Clear"
"-119.60","49.46","PENTICTON A","1126146","2022-02-17 23:00","2022","02","17","23:00","1.6","","-2.2","","76","","","M","15","","8","","24.1","","98.32","","","","","","NA"
"-119.60","49.46","PENTICTON A","1126146","2022-02-18 00:00","2022","02","18","00:00","2.1","","-1.8","","75","","","M","18","","15","","24.1","","98.35","","","","","","NA"
"-119.60","49.46","PENTICTON A","1126146","2022-02-18 01:00","2022","02","18","01:00","1.5","","-2.1","","77","","","M","19","","16","","24.1","","98.38","","","","","","Mostly Cloudy"
"-119.60","49.46","PENTICTON A","1126146","2022-02-18 02:00","2022","02","18","02:00","1.3","","-2.1","","78","","","M","18","","11","","24.1","","98.43","","","","","","NA"
"-119.60","49.46","PENTICTON A","1126146","2022-02-18 03:00","2022","02","18","03:00","0.6","","-2.2","","82","","","M","19","","14","","24.1","","98.45","","","","","","NA"
"-119.60","49.46","PENTICTON A","1126146","2022-02-18 04:00","2022","02","18","04:00","0.6","","-2.1","","82","","","M","19","","18","","24.1","","98.47","","","","","","Mostly Cloudy"
"-119.60","49.46","PENTICTON A","1126146","2022-02-18 05:00","2022","02","18","05:00","0.4","","-2.0","","84","","","M","22","","10","","24.1","","98.48","","","","","","NA"
"-119.60","49.46","PENTICTON A","1126146","2022-02-18 06:00","2022","02","18","06:00","-0.4","","-2.5","","86","","","M","19","","10","","24.1","","98.50","","","","-4","","NA"
"-119.60","49.46","PENTICTON A","1126146","2022-02-18 07:00","2022","02","18","07:00","-0.1","","-2.3","","85","","","M","18","","11","","24.1","","98.53","","","","-4","","Mainly Clear"
"-119.60","49.46","PENTICTON A","1126146","2022-02-18 08:00","2022","02","18","08:00","0.1","","-2.1","","85","","","M","19","","15","","24.1","","98.58","","","","","","NA"
"-119.60","49.46","PENTICTON A","1126146","2022-02-18 09:00","2022","02","18","09:00","1.7","","-1.7","","78","","","M","19","","16","","24.1","","98.61","","","","","","NA"
"-119.60","49.46","PENTICTON A","1126146","2022-02-18 10:00","2022","02","18","10:00","3.2","","-1.2","","73","","","M","19","","17","","24.1","","98.60","","","","","","Mostly Cloudy"
"-119.60","49.46","PENTICTON A","1126146","2022-02-18 11:00","2022","02","18","11:00","4.2","","-1.0","","69","","","M","20","","16","","24.1","","98.57","","","","","","NA"
"-119.60","49.46","PENTICTON A","1126146","2022-02-18 12:00","2022","02","18","12:00","6.8","","-0.9","","58","","","M","17","","17","","24.1","","98.49","","","","","","NA"
"-119.60","49.46","PENTICTON A","1126146","2022-02-18 13:00","2022","02","18","13:00","8.1","","-0.9","","53","","","M","18","","15","","24.1","","98.39","","","","","","Mostly Cloudy"
"-119.60","49.46","PENTICTON A","1126146","2022-02-18 14:00","2022","02","18","14:00","7.0","","-0.3","","60","","","M","20","","10","","24.1","","98.33","","","","","","NA"
"-119.60","49.46","PENTICTON A","1126146","2022-02-18 15:00","2022","02","18","15:00","7.0","","-0.2","","60","","","M","18","","21","","24.1","","98.31","","","","","","NA"
"-119.60","49.46","PENTICTON A","1126146","2022-02-18 16:00","2022","02","18","16:00","6.9","","-0.9","","58","","","M","17","","21","","24.1","","98.24","","","","","","Mostly Cloudy"
"-119.60","49.46","PENTICTON A","1126146","2022-02-18 17:00","2022","02","18","17:00","5.9","","-1.2","","61","","","M","16","","32","","24.1","","98.20","","","","","","NA"
"-119.60","49.46","PENTICTON A","1126146","2022-02-18 18:00","2022","02","18","18:00","4.3","","-1.1","","68","","","M","15","","25","","24.1","","98.16","","","","","","NA"
"-119.60","49.46","PENTICTON A","1126146","2022-02-18 19:00","2022","02","18","19:00","5.7","","-1.2","","61","","","M","18","","37","","24.1","","98.11","","","","","","Mostly Cloudy"
"-119.60","49.46","PENTICTON A","1126146","2022-02-18 20:00","2022","02","18","20:00","4.7","","-1.5","","64","","","M","15","","23","","24.1","","98.04","","","","","","NA"
"-119.60","49.46","PENTICTON A","1126146","2022-02-18 21:00","2022","02","18","21:00","4.3","","-1.2","","68","","","M","17","","28","","24.1","","97.99","","","","","","NA"
"-119.60","49.46","PENTICTON A","1126146","2022-02-18 22:00","2022","02","18","22:00","3.8","","-1.3","","69","","","M","17","","28","","24.1","","97.95","","","","","","Mainly Clear"
"-119.60","49.46","PENTICTON A","1126146","2022-02-18 23:00","2022","02","18","23:00","3.1","","-1.2","","73","","","M","14","","9","","24.1","","97.90","","","","","","NA"
"-119.60","49.46","PENTICTON A","1126146","2022-02-19 00:00","2022","02","19","00:00","3.8","","-0.8","","72","","","M","14","","23","","24.1","","97.82","","","","","","NA"
"-119.60","49.46","PENTICTON A","1126146","2022-02-19 01:00","2022","02","19","01:00","2.9","","-1.1","","75","","","M","14","","22","","24.1","","97.74","","","","","","Mostly Cloudy"
"-119.60","49.46","PENTICTON A","1126146","2022-02-19 02:00","2022","02","19","02:00","2.8","","-1.0","","76","","","M","14","","21","","24.1","","97.66","","","","","","NA"
"-119.60","49.46","PENTICTON A","1126146","2022-02-19 03:00","2022","02","19","03:00","4.0","","-0.4","","73","","","M","16","","17","","24.1","","97.48","","","","","","NA"
"-119.60","49.46","PENTICTON A","1126146","2022-02-19 04:00","2022","02","19","04:00","3.2","","-1.0","","74","","","M","16","","24","","24.1","","97.35","","","","","","Cloudy"
"-119.60","49.46","PENTICTON A","1126146","2022-02-19 05:00","2022","02","19","05:00","2.7","","-0.9","","78","","","M","14","","17","","24.1","","97.29","","","","","","NA"
"-119.60","49.46","PENTICTON A","1126146","2022-02-19 06:00","2022","02","19","06:00","2.7","","-1.2","","76","","","M","16","","23","","24.1","","97.24","","","","","","NA"
"-119.60","49.46","PENTICTON A","1126146","2022-02-19 07:00","2022","02","19","07:00","2.1","","-1.2","","79","","","M","15","","22","","24.1","","97.18","","","","","","Cloudy"
"-119.60","49.46","PENTICTON A","1126146","2022-02-19 08:00","2022","02","19","08:00","2.6","","-1.1","","77","","","M","15","","21","","24.1","","97.15","","","","","","NA"
"-119.60","49.46","PENTICTON A","1126146","2022-02-19 09:00","2022","02","19","09:00","3.2","","-0.7","","75","","","M","18","","5","","24.1","","97.16","","","","","","NA"
"-119.60","49.46","PENTICTON A","1126146","2022-02-19 10:00","2022","02","19","10:00","3.5","","-0.7","","74","","","M","14","","20","","24.1","","97.09","","","","","","Cloudy"
"-119.60","49.46","PENTICTON A","1126146","2022-02-19 11:00","2022","02","19","11:00","5.5","","-0.3","","66","","","M","17","","32","","24.1","","96.87","","","","","","NA"
"-119.60","49.46","PENTICTON A","1126146","2022-02-19 12:00","2022","02","19","12:00","6.6","","0.0","","62","","","M","18","","18","","24.1","","96.83","","","","","","NA"
"-119.60","49.46","PENTICTON A","1126146","2022-02-19 13:00","2022","02","19","13:00","7.7","","0.0","","58","","","M","17","","31","","24.1","","96.80","","","","","","Mostly Cloudy"
"-119.60","49.46","PENTICTON A","1126146","2022-02-19 14:00","2022","02","19","14:00","8.4","","0.1","","56","","","M","18","","28","","24.1","","96.74","","","","","","NA"
"-119.60","49.46","PENTICTON A","1126146","2022-02-19 15:00","2022","02","19","15:00","8.6","","-0.1","","54","","","M","15","","20","","24.1","","96.70","","","","","","NA"
"-119.60","49.46","PENTICTON A","1126146","2022-02-19 16:00","2022","02","19","16:00","9.4","","-0.8","","49","","","M","17","","16","","24.1","","96.68","","","","","","Mainly Clear"
"-119.60","49.46","PENTICTON A","1126146","2022-02-19 17:00","2022","02","19","17:00","6.5","","-0.7","","60","","","M","17","","6","","24.1","","96.64","","","","","","NA"
"-119.60","49.46","PENTICTON A","1126146","2022-02-19 18:00","2022","02","19","18:00","5.8","","-0.7","","63","","","M","19","","16","","24.1","","96.62","","","","","","NA"
"-119.60","49.46","PENTICTON A","1126146","2022-02-19 19:00","2022","02","19","19:00","6.8","","-1.6","","55","","","M","36","","2","","24.1","","96.63","","","","","","Mainly Clear"
"-119.60","49.46","PENTICTON A","1126146","2022-02-19 20:00","2022","02","19","20:00","7.8","","-2.0","","50","","","M","14","","15","","24.1","","96.64","","","","","","NA"
"-119.60","49.46","PENTICTON A","1126146","2022-02-19 21:00","2022","02","19","21:00","6.4","","-0.7","","60","","","M","18","","21","","24.1","","96.69","","","","","","NA"
"-119.60","49.46","PENTICTON A","1126146","2022-02-19 22:00","2022","02","19","22:00","5.5","","-0.8","","64","","","M","12","","10","","24.1","","96.70","","","","","","Cloudy"
"-119.60","49.46","PENTICTON A","1126146","2022-02-19 23:00","2022","02","19","23:00","4.4","","-1.2","","67","","","M","35","","10","","24.1","","96.73","","","","","","NA"
"-119.60","49.46","PENTICTON A","1126146","2022-02-20 00:00","2022","02","20","00:00","4.6","","-0.5","","69","","","M","32","","5","","24.1","","96.74","","","","","","NA"
"-119.60","49.46","PENTICTON A","1126146","2022-02-20 01:00","2022","02","20","01:00","3.9","","0.2","","77","","","M","36","","13","","24.1","","96.76","","","","","","Cloudy"
"-119.60","49.46","PENTICTON A","1126146","2022-02-20 02:00","2022","02","20","02:00","3.5","","-0.1","","77","","","M","32","","23","","24.1","","96.83","","","","","","NA"
"-119.60","49.46","PENTICTON A","1126146","2022-02-20 03:00","2022","02","20","03:00","3.1","","-0.3","","78","","","M","3","","11","","24.1","","96.83","","","","","","NA"
"-119.60","49.46","PENTICTON A","1126146","2022-02-20 04:00","2022","02","20","04:00","3.1","","-0.4","","78","","","M","4","","5","","24.1","","96.83","","","","","","Rain"
"-119.60","49.46","PENTICTON A","1126146","2022-02-20 05:00","2022","02","20","05:00","1.6","","0.0","","89","","","M","1","","8","","24.1","","96.84","","","","","","Rain"
"-119.60","49.46","PENTICTON A","1126146","2022-02-20 06:00","2022","02","20","06:00","1.5","","-0.1","","89","","","M","36","","1","","24.1","","96.85","","","","","","NA"
"-119.60","49.46","PENTICTON A","1126146","2022-02-20 07:00","2022","02","20","07:00","1.6","","0.3","","91","","","M","22","","10","","24.1","","96.87","","","","","","Mostly Cloudy"
"-119.60","49.46","PENTICTON A","1126146","2022-02-20 08:00","2022","02","20","08:00","1.4","","0.2","","92","","","M","21","","4","","24.1","","96.90","","","","","","NA"
"-119.60","49.46","PENTICTON A","1126146","2022-02-20 09:00","2022","02","20","09:00","2.5","","1.1","","90","","","M","36","","3","","24.1","","96.94","","","","","","NA"
"-119.60","49.46","PENTICTON A","1126146","2022-02-20 10:00","2022","02","20","10:00","3.8","","0.6","","80","","","M","36","","3","","24.1","","96.93","","","","","","Mostly Cloudy"
"-119.60","49.46","PENTICTON A","1126146","2022-02-20 11:00","2022","02","20","11:00","6.6","","-2.8","","51","","","M","4","","7","","24.1","","96.91","","","","","","NA"
"-119.60","49.46","PENTICTON A","1126146","2022-02-20 12:00","2022","02","20","12:00","6.6","","-4.5","","45","","","M","36","","22","","24.1","","96.88","","","","","","NA"
"-119.60","49.46","PENTICTON A","1126146","2022-02-20 13:00","2022","02","20","13:00","7.7","","-5.6","","39","","","M","1","","22","","24.1","","96.81","","","","","","Mostly Cloudy"
"-119.60","49.46","PENTICTON A","1126146","2022-02-20 14:00","2022","02","20","14:00","7.9","","-6.6","","35","","","M","35","","15","","24.1","","96.76","","","","","","NA"
"-119.60","49.46","PENTICTON A","1126146","2022-02-20 15:00","2022","02","20","15:00","7.2","","-7.4","","35","","","M","36","","12","","24.1","","96.73","","","","","","NA"
"-119.60","49.46","PENTICTON A","1126146","2022-02-20 16:00","2022","02","20","16:00","6.8","","-5.6","","41","","","M","36","","12","","24.1","","96.77","","","","","","Mostly Cloudy"
"-119.60","49.46","PENTICTON A","1126146","2022-02-20 17:00","2022","02","20","17:00","6.1","","-6.1","","41","","","M","30","","15","","24.1","","96.79","","","","","","NA"
"-119.60","49.46","PENTICTON A","1126146","2022-02-20 18:00","2022","02","20","18:00","5.8","","-6.6","","41","","","M","31","","11","","24.1","","96.82","","","","","","NA"
"-119.60","49.46","PENTICTON A","1126146","2022-02-20 19:00","2022","02","20","19:00","5.1","","-5.7","","46","","","M","34","","4","","24.1","","96.86","","","","","","Mostly Cloudy"
"-119.60","49.46","PENTICTON A","1126146","2022-02-20 20:00","2022","02","20","20:00","1.6","","-4.6","","64","","","M","34","","11","","24.1","","96.87","","","","","","NA"
"-119.60","49.46","PENTICTON A","1126146","2022-02-20 21:00","2022","02","20","21:00","0.2","","-5.4","","66","","","M","32","","3","","24.1","","96.90","","","","","","NA"
"-119.60","49.46","PENTICTON A","1126146","2022-02-20 22:00","2022","02","20","22:00","0.1","","-5.4","","67","","","M","36","","1","","24.1","","96.92","","","","","","Mostly Cloudy"
"-119.60","49.46","PENTICTON A","1126146","2022-02-20 23:00","2022","02","20","23:00","-1.0","","-5.5","","71","","","M","36","","4","","24.1","","96.96","","","","-2","","NA"
"-119.60","49.46","PENTICTON A","1126146","2022-02-21 00:00","2022","02","21","00:00","-1.8","","-5.6","","76","","","M","31","","6","","24.1","","96.97","","","","-4","","NA"
"-119.60","49.46","PENTICTON A","1126146","2022-02-21 01:00","2022","02","21","01:00","-1.9","","-5.8","","75","","","M","36","","10","","24.1","","97.00","","","","-6","","Mostly Cloudy"
"-119.60","49.46","PENTICTON A","1126146","2022-02-21 02:00","2022","02","21","02:00","-1.8","","-5.8","","74","","","M","36","","9","","24.1","","97.02","","","","-5","","NA"
"-119.60","49.46","PENTICTON A","1126146","2022-02-21 03:00","2022","02","21","03:00","-1.5","","-5.2","","76","","","M","13","","4","","24.1","","97.03","","","","-3","","NA"
"-119.60","49.46","PENTICTON A","1126146","2022-02-21 04:00","2022","02","21","04:00","0.9","","-7.7","","53","","","M","34","","23","","24.1","","97.06","","","","","","Cloudy"
"-119.60","49.46","PENTICTON A","1126146","2022-02-21 05:00","2022","02","21","05:00","0.9","","-8.1","","51","","","M","4","","16","","24.1","","97.13","","","","","","NA"
"-119.60","49.46","PENTICTON A","1126146","2022-02-21 06:00","2022","02","21","06:00","0.3","","-9.4","","48","","","M","2","","21","","24.1","","97.20","","","","","","NA"
"-119.60","49.46","PENTICTON A","1126146","2022-02-21 07:00","2022","02","21","07:00","-0.2","","-10.5","","46","","","M","35","","19","","24.1","","97.28","","","","-5","","Cloudy"
"-119.60","49.46","PENTICTON A","1126146","2022-02-21 08:00","2022","02","21","08:00","-1.0","","-10.6","","48","","","M","35","","19","","24.1","","97.41","","","","-6","","NA"
"-119.60","49.46","PENTICTON A","1126146","2022-02-21 09:00","2022","02","21","09:00","-1.6","","-11.6","","47","","","M","35","","30","","24.1","","97.52","","","","-9","","NA"
"-119.60","49.46","PENTICTON A","1126146","2022-02-21 10:00","2022","02","21","10:00","-0.8","","-11.0","","46","","","M","35","","35","","24.1","","97.58","","","","-8","","Mostly Cloudy"
"-119.60","49.46","PENTICTON A","1126146","2022-02-21 11:00","2022","02","21","11:00","-0.8","","-10.9","","47","","","M","35","","26","","24.1","","97.64","","","","-7","","NA"
"-119.60","49.46","PENTICTON A","1126146","2022-02-21 12:00","2022","02","21","12:00","-1.7","","-12.4","","44","","","M","34","","33","","24.1","","97.70","","","","-9","","NA"
"-119.60","49.46","PENTICTON A","1126146","2022-02-21 13:00","2022","02","21","13:00","-1.7","","-12.3","","45","","","M","35","","33","","24.1","","97.72","","","","-9","","Mostly Cloudy"
"-119.60","49.46","PENTICTON A","1126146","2022-02-21 14:00","2022","02","21","14:00","-2.2","","-12.9","","44","","","M","35","","40","","24.1","","97.79","","","","-10","","NA"
"-119.60","49.46","PENTICTON A","1126146","2022-02-21 15:00","2022","02","21","15:00","-2.9","","-14.5","","41","","","M","34","","30","","24.1","","97.85","","","","-10","","NA"
"-119.60","49.46","PENTICTON A","1126146","2022-02-21 16:00","2022","02","21","16:00","-3.4","","-14.8","","41","","","M","34","","33","","24.1","","97.94","","","","-11","","Mostly Cloudy"
"-119.60","49.46","PENTICTON A","1126146","2022-02-21 17:00","2022","02","21","17:00","-4.0","","-15.5","","41","","","M","33","","32","","24.1","","98.00","","","","-12","","NA"
"-119.60","49.46","PENTICTON A","1126146","2022-02-21 18:00","2022","02","21","18:00","-4.6","","-15.6","","42","","","M","34","","29","","24.1","","98.09","","","","-12","","NA"
"-119.60","49.46","PENTICTON A","1126146","2022-02-21 19:00","2022","02","21","19:00","-5.0","","-15.5","","44","","","M","33","","27","","24.1","","98.17","","","","-13","","Cloudy"
"-119.60","49.46","PENTICTON A","1126146","2022-02-21 20:00","2022","02","21","20:00","-5.6","","-15.9","","44","","","M","33","","30","","24.1","","98.24","","","","-14","","NA"
"-119.60","49.46","PENTICTON A","1126146","2022-02-21 21:00","2022","02","21","21:00","-5.8","","-16.2","","44","","","M","33","","29","","24.1","","98.31","","","","-14","","NA"
"-119.60","49.46","PENTICTON A","1126146","2022-02-21 22:00","2022","02","21","22:00","-6.1","","-16.2","","45","","","M","35","","28","","24.1","","98.39","","","","-14","","Cloudy"
"-119.60","49.46","PENTICTON A","1126146","2022-02-21 23:00","2022","02","21","23:00","-6.3","","-17.0","","43","","","M","33","","28","","24.1","","98.45","","","","-14","","NA"
"-119.60","49.46","PENTICTON A","1126146","2022-02-22 00:00","2022","02","22","00:00","-6.5","","-17.4","","42","","","M","36","","28","","24.1","","98.52","","","","-15","","NA"
"-119.60","49.46","PENTICTON A","1126146","2022-02-22 01:00","2022","02","22","01:00","-6.7","","-17.3","","43","","","M","36","","26","","24.1","","98.59","","","","-15","","Cloudy"
"-119.60","49.46","PENTICTON A","1126146","2022-02-22 02:00","2022","02","22","02:00","-6.9","","-17.9","","42","","","M","35","","27","","24.1","","98.64","","","","-15","","NA"
"-119.60","49.46","PENTICTON A","1126146","2022-02-22 03:00","2022","02","22","03:00","-7.0","","-18.0","","42","","","M","36","","28","","24.1","","98.64","","","","-15","","NA"
"-119.60","49.46","PENTICTON A","1126146","2022-02-22 04:00","2022","02","22","04:00","-7.0","","-18.4","","40","","","M","34","","29","","24.1","","98.68","","","","-15","","Cloudy"
"-119.60","49.46","PENTICTON A","1126146","2022-02-22 05:00","2022","02","22","05:00","-7.1","","-18.3","","41","","","M","33","","31","","24.1","","98.73","","","","-16","","NA"
"-119.60","49.46","PENTICTON A","1126146","2022-02-22 06:00","2022","02","22","06:00","-7.1","","-18.2","","41","","","M","32","","24","","24.1","","98.77","","","","-15","","NA"
"-119.60","49.46","PENTICTON A","1126146","2022-02-22 07:00","2022","02","22","07:00","-7.3","","-18.4","","41","","","M","33","","34","","24.1","","98.85","","","","-16","","Cloudy"
"-119.60","49.46","PENTICTON A","1126146","2022-02-22 08:00","2022","02","22","08:00","-7.4","","-18.8","","40","","","M","32","","25","","24.1","","98.91","","","","-15","","NA"
"-119.60","49.46","PENTICTON A","1126146","2022-02-22 09:00","2022","02","22","09:00","-7.2","","-18.4","","41","","","M","32","","28","","24.1","","98.98","","","","-16","","NA"
"-119.60","49.46","PENTICTON A","1126146","2022-02-22 10:00","2022","02","22","10:00","-6.0","","-17.6","","40","","","M","34","","29","","24.1","","99.01","","","","-14","","Mostly Cloudy"
"-119.60","49.46","PENTICTON A","1126146","2022-02-22 11:00","2022","02","22","11:00","-5.3","","-18.0","","37","","","M","34","","33","","24.1","","99.01","","","","-14","","NA"
"-119.60","49.46","PENTICTON A","1126146","2022-02-22 12:00","2022","02","22","12:00","-4.4","","-17.6","","35","","","M","36","","34","","24.1","","98.98","","","","-13","","NA"
"-119.60","49.46","PENTICTON A","1126146","2022-02-22 13:00","2022","02","22","13:00","-5.0","","-18.4","","34","","","M","33","","30","","24.1","","98.91","","","","-13","","Mostly Cloudy"
"-119.60","49.46","PENTICTON A","1126146","2022-02-22 14:00","2022","02","22","14:00","-3.8","","-18.1","","32","","","M","35","","28","","24.1","","98.88","","","","-11","","NA"
"-119.60","49.46","PENTICTON A","1126146","2022-02-22 15:00","2022","02","22","15:00","-3.3","","-18.7","","30","","","M","32","","32","","24.1","","98.89","","","","-11","","NA"
"-119.60","49.46","PENTICTON A","1126146","2022-02-22 16:00","2022","02","22","16:00","-4.0","","-17.7","","34","","","M","35","","30","","24.1","","98.95","","","","-12","","Cloudy"
"-119.60","49.46","PENTICTON A","1126146","2022-02-22 17:00","2022","02","22","17:00","-4.4","","-17.7","","35","","","M","33","","28","","24.1","","98.98","","","","-12","","NA"
"-119.60","49.46","PENTICTON A","1126146","2022-02-22 18:00","2022","02","22","18:00","-5.0","","-17.7","","37","","","M","36","","29","","24.1","","99.02","","","","-13","","NA"
"-119.60","49.46","PENTICTON A","1126146","2022-02-22 19:00","2022","02","22","19:00","-5.6","","-17.4","","39","","","M","30","","16","","24.1","","99.05","","","","-12","","Mainly Clear"
"-119.60","49.46","PENTICTON A","1126146","2022-02-22 20:00","2022","02","22","20:00","-7.3","","-17.3","","45","","","M","34","","8","","24.1","","99.03","","","","-11","","NA"
"-119.60","49.46","PENTICTON A","1126146","2022-02-22 21:00","2022","02","22","21:00","-8.8","","-17.7","","49","","","M","1","","8","","24.1","","99.11","","","","-13","","NA"
"-119.60","49.46","PENTICTON A","1126146","2022-02-22 22:00","2022","02","22","22:00","-8.5","","-18.5","","45","","","M","1","","10","","24.1","","99.13","","","","-13","","Clear"
"-119.60","49.46","PENTICTON A","1126146","2022-02-22 23:00","2022","02","22","23:00","-8.9","","-18.4","","47","","","M","34","","14","","24.1","","99.14","","","","-15","","NA"
"-119.60","49.46","PENTICTON A","1126146","2022-02-23 00:00","2022","02","23","00:00","-9.2","","-19.1","","45","","","M","2","","14","","24.1","","99.12","","","","-16","","NA"
"-119.60","49.46","PENTICTON A","1126146","2022-02-23 01:00","2022","02","23","01:00","-9.7","","-19.2","","46","","","M","3","","12","","24.1","","99.14","","","","-16","","Clear"
"-119.60","49.46","PENTICTON A","1126146","2022-02-23 02:00","2022","02","23","02:00","-10.3","","-18.9","","50","","","M","34","","9","","24.1","","99.15","","","","-15","","NA"
"-119.60","49.46","PENTICTON A","1126146","2022-02-23 03:00","2022","02","23","03:00","-11.4","","-19.1","","53","","","M","1","","10","","24.1","","99.16","","","","-17","","NA"
"-119.60","49.46","PENTICTON A","1126146","2022-02-23 04:00","2022","02","23","04:00","-11.3","","-19.3","","52","","","M","36","","9","","24.1","","99.12","","","","-16","","Clear"
"-119.60","49.46","PENTICTON A","1126146","2022-02-23 05:00","2022","02","23","05:00","-11.5","","-19.6","","52","","","M","32","","12","","24.1","","99.13","","","","-18","","NA"
"-119.60","49.46","PENTICTON A","1126146","2022-02-23 06:00","2022","02","23","06:00","-11.4","","-20.1","","49","","","M","35","","10","","24.1","","99.09","","","","-17","","NA"
"-119.60","49.46","PENTICTON A","1126146","2022-02-23 07:00","2022","02","23","07:00","-11.5","","-20.3","","49","","","M","33","","12","","24.1","","99.05","","","","-18","","Mainly Clear"
"-119.60","49.46","PENTICTON A","1126146","2022-02-23 08:00","2022","02","23","08:00","-10.3","","-19.8","","46","","","M","35","","8","","24.1","","99.05","","","","-15","","NA"
"-119.60","49.46","PENTICTON A","1126146","2022-02-23 09:00","2022","02","23","09:00","-9.0","","-18.2","","48","","","M","30","","5","","24.1","","99.00","","","","-12","","NA"
"-119.60","49.46","PENTICTON A","1126146","2022-02-23 10:00","2022","02","23","10:00","-8.1","","-16.8","","50","","","M","36","","10","","24.1","","98.95","","","","-13","","Mostly Cloudy"
"-119.60","49.46","PENTICTON A","1126146","2022-02-23 11:00","2022","02","23","11:00","-7.2","","-16.4","","48","","","M","36","","9","","24.1","","98.89","","","","-12","","NA"
"-119.60","49.46","PENTICTON A","1126146","2022-02-23 12:00","2022","02","23","12:00","-6.1","","-16.6","","44","","","M","36","","3","","24.1","","98.79","","","","-8","","NA"
"-119.60","49.46","PENTICTON A","1126146","2022-02-23 13:00","2022","02","23","13:00","-6.0","","-17.2","","41","","","M","35","","7","","24.1","","98.69","","","","-9","","Mostly Cloudy"
"-119.60","49.46","PENTICTON A","1126146","2022-02-23 14:00","2022","02","23","14:00","-5.6","","-18.1","","37","","","M","3","","3","","24.1","","98.62","","","","-7","","NA"
"-119.60","49.46","PENTICTON A","1126146","2022-02-23 15:00","2022","02","23","15:00","-5.1","","-16.7","","40","","","M","36","","2","","24.1","","98.58","","","","-6","","NA"
"-119.60","49.46","PENTICTON A","1126146","2022-02-23 16:00","2022","02","23","16:00","-4.6","","-16.6","","39","","","M","15","","5","","24.1","","98.51","","","","-7","","Cloudy"
"-119.60","49.46","PENTICTON A","1126146","2022-02-23 17:00","2022","02","23","17:00","-5.0","","-15.8","","43","","","M","36","","1","","24.1","","98.46","","","","-5","","NA"
"-119.60","49.46","PENTICTON A","1126146","2022-02-23 18:00","2022","02","23","18:00","-4.7","","-16.3","","40","","","M","18","","14","","24.1","","98.46","","","","-10","","NA"
"-119.60","49.46","PENTICTON A","1126146","2022-02-23 19:00","2022","02","23","19:00","-5.8","","-12.1","","61","","","M","21","","13","","12.9","","98.51","","","","-11","","Snow"
"-119.60","49.46","PENTICTON A","1126146","2022-02-23 20:00","2022","02","23","20:00","-6.5","","-10.7","","72","","","M","17","","15","","4.8","","98.48","","","","-12","","Snow"
"-119.60","49.46","PENTICTON A","1126146","2022-02-23 21:00","2022","02","23","21:00","-6.6","","-9.9","","78","","","M","16","","14","","8.1","","98.43","","","","-12","","Snow"
"-119.60","49.46","PENTICTON A","1126146","2022-02-23 22:00","2022","02","23","22:00","-6.4","","-9.7","","78","","","M","14","","14","","16.1","","98.44","","","","-12","","Snow"
"-119.60","49.46","PENTICTON A","1126146","2022-02-23 23:00","2022","02","23","23:00","-6.6","","-9.5","","80","","","M","13","","5","","8.1","","98.48","","","","-9","","Snow"
"-119.60","49.46","PENTICTON A","1126146","2022-02-24 00:00","2022","02","24","00:00","-6.6","","-9.2","","82","","","M","36","","1","","6.4","","98.52","","","","-7","","Snow"
"-119.60","49.46","PENTICTON A","1126146","2022-02-24 01:00","2022","02","24","01:00","-6.9","","-9.0","","85","","","M","36","","4","","6.4","","98.58","","","","-9","","Snow"
"-119.60","49.46","PENTICTON A","1126146","2022-02-24 02:00","2022","02","24","02:00","-6.6","","-8.7","","85","","","M","36","","6","","4.8","","98.64","","","","-10","","Snow"
"-119.60","49.46","PENTICTON A","1126146","2022-02-24 03:00","2022","02","24","03:00","-6.8","","-9.1","","84","","","M","32","","7","","6.4","","98.70","","","","-10","","Snow"
"-119.60","49.46","PENTICTON A","1126146","2022-02-24 04:00","2022","02","24","04:00","-7.4","","-10.4","","79","","","M","33","","9","","16.1","","98.76","","","","-12","","Snow"
"-119.60","49.46","PENTICTON A","1126146","2022-02-24 05:00","2022","02","24","05:00","-7.4","","-11.6","","72","","","M","33","","16","","24.1","","98.84","","","","-14","","Snow"
"-119.60","49.46","PENTICTON A","1126146","2022-02-24 06:00","2022","02","24","06:00","-10.7","","-14.1","","77","","","M","33","","12","","24.1","","98.89","","","","-17","","NA"
"-119.60","49.46","PENTICTON A","1126146","2022-02-24 07:00","2022","02","24","07:00","-9.4","","-13.1","","74","","","M","36","","11","","24.1","","98.95","","","","-15","","Mainly Clear"
"-119.60","49.46","PENTICTON A","1126146","2022-02-24 08:00","2022","02","24","08:00","-7.3","","-11.9","","70","","","M","34","","11","","24.1","","99.05","","","","-12","","NA"
"-119.60","49.46","PENTICTON A","1126146","2022-02-24 09:00","2022","02","24","09:00","-7.1","","-12.1","","68","","","M","34","","8","","24.1","","99.10","","","","-11","","NA"
"-119.60","49.46","PENTICTON A","1126146","2022-02-24 10:00","2022","02","24","10:00","-4.5","","-10.1","","66","","","M","5","","15","","24.1","","99.08","","","","-10","","Mainly Clear"
"-119.60","49.46","PENTICTON A","1126146","2022-02-24 11:00","2022","02","24","11:00","-4.0","","-10.0","","63","","","M","35","","18","","24.1","","99.09","","","","-10","","NA"
"-119.60","49.46","PENTICTON A","1126146","2022-02-24 12:00","2022","02","24","12:00","-3.4","","-9.9","","61","","","M","36","","16","","24.1","","99.08","","","","-9","","NA"
"-119.60","49.46","PENTICTON A","1126146","2022-02-24 13:00","2022","02","24","13:00","-2.1","","-8.8","","60","","","M","1","","18","","24.1","","98.99","","","","-8","","Mainly Clear"
"-119.60","49.46","PENTICTON A","1126146","2022-02-24 14:00","2022","02","24","14:00","-1.6","","-10.4","","52","","","M","34","","12","","24.1","","98.97","","","","-6","","NA"
"-119.60","49.46","PENTICTON A","1126146","2022-02-24 15:00","2022","02","24","15:00","-0.9","","-10.1","","50","","","M","35","","15","","24.1","","98.94","","","","-6","","NA"
"-119.60","49.46","PENTICTON A","1126146","2022-02-24 16:00","2022","02","24","16:00","-0.9","","-9.5","","52","","","M","34","","14","","24.1","","98.87","","","","-5","","Clear"
"-119.60","49.46","PENTICTON A","1126146","2022-02-24 17:00","2022","02","24","17:00","-2.4","","-9.8","","57","","","M","36","","15","","24.1","","98.86","","","","-7","","NA"
"-119.60","49.46","PENTICTON A","1126146","2022-02-24 18:00","2022","02","24","18:00","-4.2","","-10.0","","64","","","M","32","","8","","24.1","","98.91","","","","-8","","NA"
"-119.60","49.46","PENTICTON A","1126146","2022-02-24 19:00","2022","02","24","19:00","-5.8","","-10.1","","72","","","M","36","","7","","24.1","","98.95","","","","-9","","Clear"
"-119.60","49.46","PENTICTON A","1126146","2022-02-24 20:00","2022","02","24","20:00","-6.5","","-10.3","","74","","","M","34","","10","","24.1","","98.97","","","","-11","","NA"
"-119.60","49.46","PENTICTON A","1126146","2022-02-24 21:00","2022","02","24","21:00","-6.4","","-10.7","","72","","","M","1","","14","","24.1","","99.02","","","","-12","","NA"
"-119.60","49.46","PENTICTON A","1126146","2022-02-24 22:00","2022","02","24","22:00","-8.1","","-11.3","","78","","","M","31","","7","","24.1","","99.03","","","","-12","","Clear"
"-119.60","49.46","PENTICTON A","1126146","2022-02-24 23:00","2022","02","24","23:00","-8.0","","-11.5","","76","","","M","36","","3","","24.1","","99.05","","","","-10","","NA"
"-119.60","49.46","PENTICTON A","1126146","2022-02-25 00:00","2022","02","25","00:00","-9.5","","-12.0","","82","","","M","27","","4","","24.1","","99.05","","","","-12","","NA"
"-119.60","49.46","PENTICTON A","1126146","2022-02-25 01:00","2022","02","25","01:00","-10.2","","-13.0","","80","","","M","36","","2","","24.1","","99.10","","","","-11","","Clear"
"-119.60","49.46","PENTICTON A","1126146","2022-02-25 02:00","2022","02","25","02:00","-10.2","","-12.8","","82","","","M","36","","3","","24.1","","99.13","","","","-12","","NA"
"-119.60","49.46","PENTICTON A","1126146","2022-02-25 03:00","2022","02","25","03:00","-10.9","","-13.2","","83","","","M","36","","3","","24.1","","99.13","","","","-13","","NA"
"-119.60","49.46","PENTICTON A","1126146","2022-02-25 04:00","2022","02","25","04:00","-11.5","","-13.9","","82","","","M","5","","4","","24.1","","99.17","","","","-14","","Clear"
"-119.60","49.46","PENTICTON A","1126146","2022-02-25 05:00","2022","02","25","05:00","-11.3","","-13.6","","83","","","M","0","","1","","24.1","","99.21","","","","-12","","NA"
"-119.60","49.46","PENTICTON A","1126146","2022-02-25 06:00","2022","02","25","06:00","-11.8","","-14.2","","83","","","M","1","","3","","24.1","","99.22","","","","-14","","NA"
"-119.60","49.46","PENTICTON A","1126146","2022-02-25 07:00","2022","02","25","07:00","-11.5","","-14.1","","82","","","M","6","","3","","24.1","","99.24","","","","-13","","Clear"
"-119.60","49.46","PENTICTON A","1126146","2022-02-25 08:00","2022","02","25","08:00","-9.2","","-11.3","","85","","","M","36","","2","","24.1","","99.26","","","","-10","","NA"
"-119.60","49.46","PENTICTON A","1126146","2022-02-25 09:00","2022","02","25","09:00","-6.6","","-11.1","","71","","","M","30","","5","","24.1","","99.27","","","","-9","","NA"
"-119.60","49.46","PENTICTON A","1126146","2022-02-25 10:00","2022","02","25","10:00","-4.4","","-10.6","","62","","","M","16","","20","","24.1","","99.23","","","","-11","","Mainly Clear"
"-119.60","49.46","PENTICTON A","1126146","2022-02-25 11:00","2022","02","25","11:00","-3.1","","-9.8","","60","","","M","17","","23","","24.1","","99.21","","","","-10","","NA"
"-119.60","49.46","PENTICTON A","1126146","2022-02-25 12:00","2022","02","25","12:00","-2.3","","-9.6","","58","","","M","17","","27","","24.1","","99.13","","","","-9","","NA"
"-119.60","49.46","PENTICTON A","1126146","2022-02-25 13:00","2022","02","25","13:00","-1.3","","-9.5","","54","","","M","16","","24","","24.1","","99.03","","","","-7","","Clear"
"-119.60","49.46","PENTICTON A","1126146","2022-02-25 14:00","2022","02","25","14:00","-0.9","","-9.8","","51","","","M","16","","27","","24.1","","98.97","","","","-7","","NA"
"-119.60","49.46","PENTICTON A","1126146","2022-02-25 15:00","2022","02","25","15:00","-0.5","","-9.3","","52","","","M","17","","27","","24.1","","98.96","","","","-7","","NA"
"-119.60","49.46","PENTICTON A","1126146","2022-02-25 16:00","2022","02","25","16:00","-0.7","","-9.1","","53","","","M","17","","28","","24.1","","98.94","","","","-7","","Clear"
"-119.60","49.46","PENTICTON A","1126146","2022-02-25 17:00","2022","02","25","17:00","-2.0","","-8.8","","60","","","M","18","","26","","24.1","","98.95","","","","-9","","NA"
"-119.60","49.46","PENTICTON A","1126146","2022-02-25 18:00","2022","02","25","18:00","-2.8","","-9.1","","62","","","M","18","","25","","24.1","","98.97","","","","-10","","NA"
"-119.60","49.46","PENTICTON A","1126146","2022-02-25 19:00","2022","02","25","19:00","-3.2","","-9.1","","64","","","M","18","","27","","24.1","","99.03","","","","-10","","Clear"
"-119.60","49.46","PENTICTON A","1126146","2022-02-25 20:00","2022","02","25","20:00","-3.6","","-9.2","","65","","","M","17","","26","","24.1","","99.03","","","","-11","","NA"
"-119.60","49.46","PENTICTON A","1126146","2022-02-25 21:00","2022","02","25","21:00","-3.9","","-9.2","","67","","","M","18","","27","","24.1","","99.03","","","","-11","","NA"
"-119.60","49.46","PENTICTON A","1126146","2022-02-25 22:00","2022","02","25","22:00","-4.3","","-9.1","","70","","","M","18","","25","","24.1","","99.07","","","","-11","","Mainly Clear"
"-119.60","49.46","PENTICTON A","1126146","2022-02-25 23:00","2022","02","25","23:00","-4.3","","-9.3","","68","","","M","18","","31","","24.1","","99.03","","","","-12","","NA"
"-119.60","49.46","PENTICTON A","1126146","2022-02-26 00:00","2022","02","26","00:00","-4.0","","-9.1","","67","","","M","18","","26","","24.1","","99.02","","","","-11","","NA"
"-119.60","49.46","PENTICTON A","1126146","2022-02-26 01:00","2022","02","26","01:00","-3.6","","-9.1","","66","","","M","18","","23","","24.1","","99.00","","","","-10","","Mostly Cloudy"
"-119.60","49.46","PENTICTON A","1126146","2022-02-26 02:00","2022","02","26","02:00","-3.5","","-9.3","","64","","","M","18","","23","","24.1","","99.03","","","","-10","","NA"
"-119.60","49.46","PENTICTON A","1126146","2022-02-26 03:00","2022","02","26","03:00","-3.6","","-9.4","","64","","","M","16","","19","","24.1","","99.04","","","","-10","","NA"
"-119.60","49.46","PENTICTON A","1126146","2022-02-26 04:00","2022","02","26","04:00","-3.6","","-9.3","","65","","","M","16","","23","","24.1","","98.96","","","","-10","","Cloudy"
"-119.60","49.46","PENTICTON A","1126146","2022-02-26 05:00","2022","02","26","05:00","-3.5","","-9.5","","64","","","M","15","","16","","24.1","","99.00","","","","-9","","NA"
"-119.60","49.46","PENTICTON A","1126146","2022-02-26 06:00","2022","02","26","06:00","-3.7","","-9.3","","65","","","M","16","","22","","24.1","","98.93","","","","-10","","NA"
"-119.60","49.46","PENTICTON A","1126146","2022-02-26 07:00","2022","02","26","07:00","-3.4","","-9.3","","64","","","M","16","","24","","24.1","","98.92","","","","-10","","Mostly Cloudy"
"-119.60","49.46","PENTICTON A","1126146","2022-02-26 08:00","2022","02","26","08:00","-3.2","","-9.2","","63","","","M","16","","27","","24.1","","98.91","","","","-10","","NA"
"-119.60","49.46","PENTICTON A","1126146","2022-02-26 09:00","2022","02","26","09:00","-2.1","","-9.1","","59","","","M","15","","27","","24.1","","98.90","","","","-9","","NA"
"-119.60","49.46","PENTICTON A","1126146","2022-02-26 10:00","2022","02","26","10:00","-0.6","","-9.0","","53","","","M","15","","30","","24.1","","98.83","","","","-7","","Mostly Cloudy"
"-119.60","49.46","PENTICTON A","1126146","2022-02-26 11:00","2022","02","26","11:00","1.1","","-8.4","","49","","","M","16","","30","","24.1","","98.73","","","","","","NA"
"-119.60","49.46","PENTICTON A","1126146","2022-02-26 12:00","2022","02","26","12:00","1.5","","-8.4","","48","","","M","16","","31","","24.1","","98.68","","","","","","NA"
"-119.60","49.46","PENTICTON A","1126146","2022-02-26 13:00","2022","02","26","13:00","2.5","","-7.4","","48","","","M","17","","27","","24.1","","98.61","","","","","","Mostly Cloudy"
"-119.60","49.46","PENTICTON A","1126146","2022-02-26 14:00","2022","02","26","14:00","2.6","","-8.0","","46","","","M","16","","26","","24.1","","98.50","","","","","","NA"
"-119.60","49.46","PENTICTON A","1126146","2022-02-26 15:00","2022","02","26","15:00","2.5","","-8.1","","46","","","M","16","","25","","24.1","","98.45","","","","","","NA"
"-119.60","49.46","PENTICTON A","1126146","2022-02-26 16:00","2022","02","26","16:00","2.1","","-8.4","","46","","","M","15","","29","","24.1","","98.41","","","","","","Cloudy"
"-119.60","49.46","PENTICTON A","1126146","2022-02-26 17:00","2022","02","26","17:00","1.6","","-8.0","","49","","","M","17","","28","","24.1","","98.38","","","","","","NA"
"-119.60","49.46","PENTICTON A","1126146","2022-02-26 18:00","2022","02","26","18:00","1.1","","-7.7","","52","","","M","17","","23","","24.1","","98.38","","","","","","NA"
"-119.60","49.46","PENTICTON A","1126146","2022-02-26 19:00","2022","02","26","19:00","1.4","","-7.8","","51","","","M","19","","32","","24.1","","98.35","","","","","","Cloudy"
"-119.60","49.46","PENTICTON A","1126146","2022-02-26 20:00","2022","02","26","20:00","1.4","","-7.2","","53","","","M","17","","19","","24.1","","98.33","","","","","","NA"
"-119.60","49.46","PENTICTON A","1126146","2022-02-26 21:00","2022","02","26","21:00","1.9","","-6.8","","53","","","M","17","","20","","24.1","","98.33","","","","","","NA"
"-119.60","49.46","PENTICTON A","1126146","2022-02-26 22:00","2022","02","26","22:00","2.0","","-6.0","","55","","","M","18","","27","","24.1","","98.26","","","","","","Cloudy"
"-119.60","49.46","PENTICTON A","1126146","2022-02-26 23:00","2022","02","26","23:00","1.9","","-5.2","","59","","","M","19","","31","","24.1","","98.22","","","","","","NA"
"-119.60","49.46","PENTICTON A","1126146","2022-02-27 00:00","2022","02","27","00:00","1.5","","-3.8","","68","","","M","17","","24","","24.1","","98.18","","","","","","NA"
"-119.60","49.46","PENTICTON A","1126146","2022-02-27 01:00","2022","02","27","01:00","1.4","","-3.7","","69","","","M","18","","30","","24.1","","98.18","","","","","","Cloudy"
"-119.60","49.46","PENTICTON A","1126146","2022-02-27 02:00","2022","02","27","02:00","1.4","","-3.4","","70","","","M","18","","29","","24.1","","98.20","","","","","","NA"
"-119.60","49.46","PENTICTON A","1126146","2022-02-27 03:00","2022","02","27","03:00","1.4","","-3.3","","71","","","M","18","","30","","24.1","","98.11","","","","","","NA"
"-119.60","49.46","PENTICTON A","1126146","2022-02-27 04:00","2022","02","27","04:00","1.7","","-3.2","","70","","","M","17","","29","","24.1","","98.09","","","","","","Cloudy"
"-119.60","49.46","PENTICTON A","1126146","2022-02-27 05:00","2022","02","27","05:00","2.0","","-3.2","","69","","","M","19","","41","","24.1","","98.06","","","","","","NA"
"-119.60","49.46","PENTICTON A","1126146","2022-02-27 06:00","2022","02","27","06:00","2.2","","-3.2","","67","","","M","20","","40","","24.1","","98.00","","","","","","NA"
"-119.60","49.46","PENTICTON A","1126146","2022-02-27 07:00","2022","02","27","07:00","2.2","","-2.9","","69","","","M","18","","37","","24.1","","98.00","","","","","","Mostly Cloudy"
"-119.60","49.46","PENTICTON A","1126146","2022-02-27 08:00","2022","02","27","08:00","2.2","","-2.9","","69","","","M","18","","43","","24.1","","98.01","","","","","","NA"
"-119.60","49.46","PENTICTON A","1126146","2022-02-27 09:00","2022","02","27","09:00","1.5","","-1.5","","80","","","M","17","","34","","16.1","","98.00","","","","","","Snow Showers"
"-119.60","49.46","PENTICTON A","1126146","2022-02-27 10:00","2022","02","27","10:00","2.3","","-2.2","","72","","","M","18","","40","","24.1","","98.02","","","","","","Mostly Cloudy"
"-119.60","49.46","PENTICTON A","1126146","2022-02-27 11:00","2022","02","27","11:00","4.5","","-1.9","","63","","","M","19","","37","","24.1","","98.00","","","","","","NA"
"-119.60","49.46","PENTICTON A","1126146","2022-02-27 12:00","2022","02","27","12:00","3.7","","-1.9","","67","","","M","18","","35","","24.1","","98.02","","","","","","NA"
"-119.60","49.46","PENTICTON A","1126146","2022-02-27 13:00","2022","02","27","13:00","4.0","","-1.6","","67","","","M","18","","38","","24.1","","97.99","","","","","","Mostly Cloudy"
"-119.60","49.46","PENTICTON A","1126146","2022-02-27 14:00","2022","02","27","14:00","5.4","","-0.9","","64","","","M","18","","37","","24.1","","97.96","","","","","","NA"
"-119.60","49.46","PENTICTON A","1126146","2022-02-27 15:00","2022","02","27","15:00","5.4","","-0.8","","64","","","M","18","","41","","24.1","","98.05","","","","","","NA"
"-119.60","49.46","PENTICTON A","1126146","2022-02-27 16:00","2022","02","27","16:00","4.5","","-1.2","","66","","","M","18","","33","","24.1","","98.06","","","","","","Mostly Cloudy"
"-119.60","49.46","PENTICTON A","1126146","2022-02-27 17:00","2022","02","27","17:00","3.5","","-1.0","","72","","","M","15","","24","","24.1","","98.08","","","","","","NA"
"-119.60","49.46","PENTICTON A","1126146","2022-02-27 18:00","2022","02","27","18:00","3.2","","-1.0","","74","","","M","16","","22","","24.1","","98.03","","","","","","NA"
"-119.60","49.46","PENTICTON A","1126146","2022-02-27 19:00","2022","02","27","19:00","3.1","","-1.0","","74","","","M","18","","24","","24.1","","98.05","","","","","","Mostly Cloudy"
"-119.60","49.46","PENTICTON A","1126146","2022-02-27 20:00","2022","02","27","20:00","2.9","","-1.2","","75","","","M","15","","15","","24.1","","97.99","","","","","","NA"
"-119.60","49.46","PENTICTON A","1126146","2022-02-27 21:00","2022","02","27","21:00","2.6","","-0.9","","78","","","M","15","","15","","19.3","","97.92","","","","","","Rain"
"-119.60","49.46","PENTICTON A","1126146","2022-02-27 22:00","2022","02","27","22:00","2.8","","-1.0","","76","","","M","18","","22","","19.3","","97.84","","","","","","Cloudy"
"-119.60","49.46","PENTICTON A","1126146","2022-02-27 23:00","2022","02","27","23:00","2.0","","-0.4","","84","","","M","17","","20","","12.9","","97.81","","","","","","Rain"
"-119.60","49.46","PENTICTON A","1126146","2022-02-28 00:00","2022","02","28","00:00","1.6","","0.0","","89","","","M","18","","18","","24.1","","97.67","","","","","","Rain"
"-119.60","49.46","PENTICTON A","1126146","2022-02-28 01:00","2022","02","28","01:00","2.1","","0.1","","87","","","M","16","","23","","24.1","","97.61","","","","","","Rain"
"-119.60","49.46","PENTICTON A","1126146","2022-02-28 02:00","2022","02","28","02:00","2.2","","0.3","","87","","","M","13","","20","","24.1","","97.56","","","","","","Rain"
"-119.60","49.46","PENTICTON A","1126146","2022-02-28 03:00","2022","02","28","03:00","2.5","","0.4","","86","","","M","14","","21","","24.1","","97.49","","","","","","Rain"
"-119.60","49.46","PENTICTON A","1126146","2022-02-28 04:00","2022","02","28","04:00","3.0","","0.5","","84","","","M","17","","26","","24.1","","97.46","","","","","","Cloudy"
"-119.60","49.46","PENTICTON A","1126146","2022-02-28 05:00","2022","02","28","05:00","3.1","","0.8","","85","","","M","17","","34","","24.1","","97.43","","","","","","Rain"
"-119.60","49.46","PENTICTON A","1126146","2022-02-28 06:00","2022","02","28","06:00","3.1","","1.0","","86","","","M","16","","33","","24.1","","97.33","","","","","","Rain"
"-119.60","49.46","PENTICTON A","1126146","2022-02-28 07:00","2022","02","28","07:00","3.1","","1.0","","86","","","M","17","","44","","24.1","","97.21","","","","","","Cloudy"
"-119.60","49.46","PENTICTON A","1126146","2022-02-28 08:00","2022","02","28","08:00","3.7","","1.3","","84","","","M","17","","51","","24.1","","97.04","","","","","","NA"
"-119.60","49.46","PENTICTON A","1126146","2022-02-28 09:00","2022","02","28","09:00","4.1","","1.6","","84","","","M","17","","37","","24.1","","97.15","","","","","","NA"
"-119.60","49.46","PENTICTON A","1126146","2022-02-28 10:00","2022","02","28","10:00","4.5","","1.8","","82","","","M","18","","30","","24.1","","97.15","","","","","","Cloudy"
"-119.60","49.46","PENTICTON A","1126146","2022-02-28 11:00","2022","02","28","11:00","5.3","","2.2","","80","","","M","18","","29","","24.1","","97.22","","","","","","NA"
"-119.60","49.46","PENTICTON A","1126146","2022-02-28 12:00","2022","02","28","12:00","6.1","","2.4","","77","","","M","20","","27","","24.1","","97.22","","","","","","NA"
"-119.60","49.46","PENTICTON A","1126146","2022-02-28 13:00","2022","02","28","13:00","6.1","","2.2","","76","","","M","15","","12","","24.1","","97.17","","","","","","Cloudy"
"-119.60","49.46","PENTICTON A","1126146","2022-02-28 14:00","2022","02","28","14:00","4.1","","2.2","","87","","","M","35","","15","","16.1","","97.25","","","","","","Rain"
"-119.60","49.46","PENTICTON A","1126146","2022-02-28 15:00","2022","02","28","15:00","3.7","","2.5","","92","","","M","34","","9","","12.9","","97.25","","","","","","Rain"
"-119.60","49.46","PENTICTON A","1126146","2022-02-28 16:00","2022","02","28","16:00","3.5","","2.5","","93","","","M","3","","5","","9.7","","97.25","","","","","","Rain,Fog"
"-119.60","49.46","PENTICTON A","1126146","2022-02-28 17:00","2022","02","28","17:00","3.2","","2.3","","94","","","M","36","","7","","8.1","","97.21","","","","","","Rain,Fog"
"-119.60","49.46","PENTICTON A","1126146","2022-02-28 18:00","2022","02","28","18:00","3.1","","2.4","","95","","","M","3","","7","","6.4","","97.22","","","","","","Rain,Fog"
"-119.60","49.46","PENTICTON A","1126146","2022-02-28 19:00","2022","02","28","19:00","3.6","","3.0","","96","","","M","16","","7","","9.7","","97.24","","","","","","Rain,Fog"
"-119.60","49.46","PENTICTON A","1126146","2022-02-28 20:00","2022","02","28","20:00","3.4","","2.5","","94","","","M","29","","4","","16.1","","97.23","","","","","","Rain"
"-119.60","49.46","PENTICTON A","1126146","2022-02-28 21:00","2022","02","28","21:00","3.0","","2.1","","94","","","M","17","","6","","12.9","","97.27","","","","","","Rain"
"-119.60","49.46","PENTICTON A","1126146","2022-02-28 22:00","2022","02","28","22:00","3.2","","2.2","","93","","","M","21","","8","","16.1","","97.28","","","","","","Cloudy"
"-119.60","49.46","PENTICTON A","1126146","2022-02-28 23:00","2022","02","28","23:00","3.6","","2.7","","94","","","M","17","","14","","16.1","","97.25","","","","","","Rain"
