"Longitude (x)","Latitude (y)","Station Name","Climate ID","Date/Time (LST)","Year","Month","Day","Time (LST)","Temp (°C)","Temp Flag","Dew Point Temp (°C)","Dew Point Temp Flag","Rel Hum (%)","Rel Hum Flag","Precip. Amount (mm)","Precip. Amount Flag","Wind Dir (10s deg)","Wind Dir Flag","Wind Spd (km/h)","Wind Spd Flag","Visibility (km)","Visibility Flag","Stn Press (kPa)","Stn Press Flag","Hmdx","Hmdx Flag","Wind Chill","Wind Chill Flag","Weather"
"-82.47","49.41","KAPUSKASING A","6073976","2020-08-01 00:00","2020","08","01","00:00","15.8","","15.1","","95","","","","16","","5","","24.1","","98.71","","","","","","NA"
"-82.47","49.41","KAPUSKASING A","6073976","2020-08-01 01:00","2020","08","01","01:00","15.9","","13.7","","87","","","","19","","6","","24.1","","98.68","","","","","","Clear"
"-82.47","49.41","KAPUSKASING A","6073976","2020-08-01 02:00","2020","08","01","02:00","15.7","","13.3","","86","","","","17","","5","","24.1","","98.63","","","","","","NA"
"-82.47","49.41","KAPUSKASING A","6073976","2020-08-01 03:00","2020","08","01","03:00","15.2","","13.3","","88","","","","21","","4","","24.1","","98.64","","","","","","NA"
"-82.47","49.41","KAPUSKASING A","6073976","2020-08-01 04:00","2020","08","01","04:00","15.7","","13.5","","87","","","","36","","2","","24.1","","98.66","","","","","","Mostly Cloudy"
"-82.47","49.41","KAPUSKASING A","6073976","2020-08-01 05:00","2020","08","01","05:00","14.7","","13.1","","90","","","","18","","7","","24.1","","98.67","","","","","","NA"
"-82.47","49.41","KAPUSKASING A","6073976","2020-08-01 06:00","2020","08","01","06:00","14.8","","13.3","","91","","","","17","","4","","24.1","","98.70","","","","","","NA"
"-82.47","49.41","KAPUSKASING A","6073976","2020-08-01 07:00","2020","08","01","07:00","17.7","","14.4","","81","","","","20","","5","","24.1","","98.72","","","","","","Mostly Cloudy"
"-82.47","49.41","KAPUSKASING A","6073976","2020-08-01 08:00","2020","08","01","08:00","20.8","","15.2","","70","","","","22","","4","","24.1","","98.70","","25","","","","NA"
"-82.47","49.41","KAPUSKASING A","6073976","2020-08-01 09:00","2020","08","01","09:00","23.4","","14.3","","56","","","","28","","8","","24.1","","98.69","","27","","","","NA"
"-82.47","49.41","KAPUSKASING A","6073976","2020-08-01 10:00","2020","08","01","10:00","24.5","","15.3","","56","","","","19","","10","","24.1","","98.67","","29","","","","Mainly Clear"
"-82.47","49.41","KAPUSKASING A","6073976","2020-08-01 11:00","2020","08","01","11:00","25.5","","14.8","","51","","","","23","","8","","24.1","","98.64","","29","","","","NA"
"-82.47","49.41","KAPUSKASING A","6073976","2020-08-01 12:00","2020","08","01","12:00","25.2","","14.6","","51","","","","21","","16","","24.1","","98.60","","29","","","","NA"
"-82.47","49.41","KAPUSKASING A","6073976","2020-08-01 13:00","2020","08","01","13:00","26.9","","14.5","","46","","","","24","","8","","24.1","","98.55","","31","","","","Mostly Cloudy"
"-82.47","49.41","KAPUSKASING A","6073976","2020-08-01 14:00","2020","08","01","14:00","28.0","","12.8","","38","","","","26","","11","","24.1","","98.51","","31","","","","NA"
"-82.47","49.41","KAPUSKASING A","6073976","2020-08-01 15:00","2020","08","01","15:00","28.3","","13.3","","39","","","","26","","13","","24.1","","98.47","","31","","","","NA"
"-82.47","49.41","KAPUSKASING A","6073976","2020-08-01 16:00","2020","08","01","16:00","28.3","","13.5","","40","","","","28","","16","","24.1","","98.43","","31","","","","Mostly Cloudy"
"-82.47","49.41","KAPUSKASING A","6073976","2020-08-01 17:00","2020","08","01","17:00","28.2","","14.5","","43","","","","27","","8","","24.1","","98.41","","32","","","","NA"
"-82.47","49.41","KAPUSKASING A","6073976","2020-08-01 18:00","2020","08","01","18:00","27.5","","14.2","","43","","","","27","","8","","24.1","","98.41","","31","","","","NA"
"-82.47","49.41","KAPUSKASING A","6073976","2020-08-01 19:00","2020","08","01","19:00","25.5","","15.8","","54","","","","36","","1","","24.1","","98.42","","30","","","","Mostly Cloudy"
"-82.47","49.41","KAPUSKASING A","6073976","2020-08-01 20:00","2020","08","01","20:00","22.3","","17.0","","72","","","","3","","28","","24.1","","98.52","","28","","","","NA"
"-82.47","49.41","KAPUSKASING A","6073976","2020-08-01 21:00","2020","08","01","21:00","19.0","","16.6","","86","","","","2","","18","","24.1","","98.61","","","","","","NA"
"-82.47","49.41","KAPUSKASING A","6073976","2020-08-01 22:00","2020","08","01","22:00","17.4","","15.9","","91","","","","5","","11","","24.1","","98.66","","","","","","Mostly Cloudy"
"-82.47","49.41","KAPUSKASING A","6073976","2020-08-01 23:00","2020","08","01","23:00","16.8","","15.2","","91","","","","1","","10","","24.1","","98.68","","","","","","NA"
"-82.47","49.41","KAPUSKASING A","6073976","2020-08-02 00:00","2020","08","02","00:00","16.3","","14.2","","87","","","","1","","16","","24.1","","98.70","","","","","","NA"
"-82.47","49.41","KAPUSKASING A","6073976","2020-08-02 01:00","2020","08","02","01:00","15.0","","13.4","","90","","","","3","","22","","24.1","","98.72","","","","","","Cloudy"
"-82.47","49.41","KAPUSKASING A","6073976","2020-08-02 02:00","2020","08","02","02:00","13.7","","12.6","","93","","","","4","","17","","6.4","","98.73","","","","","","Fog"
"-82.47","49.41","KAPUSKASING A","6073976","2020-08-02 03:00","2020","08","02","03:00","12.3","","11.3","","94","","","","1","","24","","6.4","","98.76","","","","","","Drizzle,Fog"
"-82.47","49.41","KAPUSKASING A","6073976","2020-08-02 04:00","2020","08","02","04:00","11.2","","10.3","","94","","","","36","","18","","9.7","","98.80","","","","","","Drizzle,Fog"
"-82.47","49.41","KAPUSKASING A","6073976","2020-08-02 05:00","2020","08","02","05:00","10.3","","8.7","","90","","","","1","","14","","9.7","","98.83","","","","","","Drizzle,Fog"
"-82.47","49.41","KAPUSKASING A","6073976","2020-08-02 06:00","2020","08","02","06:00","9.9","","7.5","","85","","","","2","","19","","16.1","","98.87","","","","","","NA"
"-82.47","49.41","KAPUSKASING A","6073976","2020-08-02 07:00","2020","08","02","07:00","10.0","","7.5","","84","","","","2","","19","","19.3","","98.90","","","","","","Cloudy"
"-82.47","49.41","KAPUSKASING A","6073976","2020-08-02 08:00","2020","08","02","08:00","10.1","","7.3","","83","","","","2","","21","","19.3","","98.91","","","","","","NA"
"-82.47","49.41","KAPUSKASING A","6073976","2020-08-02 09:00","2020","08","02","09:00","10.9","","8.0","","82","","","","4","","15","","24.1","","98.94","","","","","","NA"
"-82.47","49.41","KAPUSKASING A","6073976","2020-08-02 10:00","2020","08","02","10:00","12.5","","7.6","","72","","","","2","","26","","24.1","","98.93","","","","","","Cloudy"
"-82.47","49.41","KAPUSKASING A","6073976","2020-08-02 11:00","2020","08","02","11:00","13.1","","7.5","","69","","","","1","","21","","24.1","","98.95","","","","","","NA"
"-82.47","49.41","KAPUSKASING A","6073976","2020-08-02 12:00","2020","08","02","12:00","12.3","","8.2","","76","","","","3","","18","","24.1","","98.96","","","","","","NA"
"-82.47","49.41","KAPUSKASING A","6073976","2020-08-02 13:00","2020","08","02","13:00","12.5","","8.4","","76","","","","1","","23","","24.1","","98.92","","","","","","Cloudy"
"-82.47","49.41","KAPUSKASING A","6073976","2020-08-02 14:00","2020","08","02","14:00","13.4","","8.5","","72","","","","36","","25","","24.1","","98.91","","","","","","NA"
"-82.47","49.41","KAPUSKASING A","6073976","2020-08-02 15:00","2020","08","02","15:00","13.7","","8.4","","70","","","","2","","16","","24.1","","98.92","","","","","","NA"
"-82.47","49.41","KAPUSKASING A","6073976","2020-08-02 16:00","2020","08","02","16:00","13.8","","8.8","","72","","","","2","","23","","24.1","","98.90","","","","","","Rain"
"-82.47","49.41","KAPUSKASING A","6073976","2020-08-02 17:00","2020","08","02","17:00","15.1","","9.3","","68","","","","2","","14","","24.1","","98.89","","","","","","NA"
"-82.47","49.41","KAPUSKASING A","6073976","2020-08-02 18:00","2020","08","02","18:00","14.9","","8.3","","64","","","","36","","18","","24.1","","98.88","","","","","","NA"
"-82.47","49.41","KAPUSKASING A","6073976","2020-08-02 19:00","2020","08","02","19:00","14.4","","7.4","","62","","","","35","","22","","24.1","","98.90","","","","","","Mostly Cloudy"
"-82.47","49.41","KAPUSKASING A","6073976","2020-08-02 20:00","2020","08","02","20:00","13.5","","7.7","","68","","","","2","","13","","24.1","","98.95","","","","","","NA"
"-82.47","49.41","KAPUSKASING A","6073976","2020-08-02 21:00","2020","08","02","21:00","13.0","","8.1","","72","","","","1","","10","","24.1","","99.02","","","","","","NA"
"-82.47","49.41","KAPUSKASING A","6073976","2020-08-02 22:00","2020","08","02","22:00","12.0","","7.8","","75","","","","36","","8","","24.1","","99.01","","","","","","Mainly Clear"
"-82.47","49.41","KAPUSKASING A","6073976","2020-08-02 23:00","2020","08","02","23:00","9.3","","7.7","","90","","","","33","","7","","24.1","","99.05","","","","","","NA"
"-82.47","49.41","KAPUSKASING A","6073976","2020-08-03 00:00","2020","08","03","00:00","7.8","","7.0","","95","","","","34","","8","","24.1","","99.06","","","","","","NA"
"-82.47","49.41","KAPUSKASING A","6073976","2020-08-03 01:00","2020","08","03","01:00","8.0","","7.2","","95","","","","32","","8","","24.1","","99.05","","","","","","Cloudy"
"-82.47","49.41","KAPUSKASING A","6073976","2020-08-03 02:00","2020","08","03","02:00","6.9","","6.4","","97","","","","32","","8","","24.1","","99.04","","","","","","NA"
"-82.47","49.41","KAPUSKASING A","6073976","2020-08-03 03:00","2020","08","03","03:00","6.5","","5.9","","96","","","","31","","7","","24.1","","99.08","","","","","","NA"
"-82.47","49.41","KAPUSKASING A","6073976","2020-08-03 04:00","2020","08","03","04:00","5.6","","5.2","","97","","","","32","","8","","24.1","","99.10","","","","","","Mainly Clear"
"-82.47","49.41","KAPUSKASING A","6073976","2020-08-03 05:00","2020","08","03","05:00","6.5","","6.0","","97","","","","33","","6","","24.1","","99.14","","","","","","NA"
"-82.47","49.41","KAPUSKASING A","6073976","2020-08-03 06:00","2020","08","03","06:00","7.3","","6.9","","98","","","","33","","8","","24.1","","99.18","","","","","","NA"
"-82.47","49.41","KAPUSKASING A","6073976","2020-08-03 07:00","2020","08","03","07:00","9.0","","8.4","","96","","","","33","","5","","24.1","","99.24","","","","","","Mostly Cloudy"
"-82.47","49.41","KAPUSKASING A","6073976","2020-08-03 08:00","2020","08","03","08:00","10.7","","9.7","","93","","","","33","","9","","16.1","","99.26","","","","","","NA"
"-82.47","49.41","KAPUSKASING A","6073976","2020-08-03 09:00","2020","08","03","09:00","11.8","","9.7","","86","","","","32","","10","","9.7","","99.30","","","","","","Drizzle,Fog"
"-82.47","49.41","KAPUSKASING A","6073976","2020-08-03 10:00","2020","08","03","10:00","12.4","","10.0","","85","","","","6","","14","","16.1","","99.31","","","","","","Mostly Cloudy"
"-82.47","49.41","KAPUSKASING A","6073976","2020-08-03 11:00","2020","08","03","11:00","12.1","","10.3","","89","","","","4","","16","","4.8","","99.34","","","","","","Rain,Drizzle,Fog"
"-82.47","49.41","KAPUSKASING A","6073976","2020-08-03 12:00","2020","08","03","12:00","13.2","","10.9","","86","","","","5","","12","","16.1","","99.32","","","","","","NA"
"-82.47","49.41","KAPUSKASING A","6073976","2020-08-03 13:00","2020","08","03","13:00","12.9","","11.2","","89","","","","1","","13","","9.7","","99.33","","","","","","Rain"
"-82.47","49.41","KAPUSKASING A","6073976","2020-08-03 14:00","2020","08","03","14:00","14.0","","10.1","","77","","","","31","","10","","16.1","","99.32","","","","","","NA"
"-82.47","49.41","KAPUSKASING A","6073976","2020-08-03 15:00","2020","08","03","15:00","14.2","","11.5","","84","","","","1","","8","","19.3","","99.31","","","","","","NA"
"-82.47","49.41","KAPUSKASING A","6073976","2020-08-03 16:00","2020","08","03","16:00","15.4","","10.3","","72","","","","32","","10","","24.1","","99.29","","","","","","Mostly Cloudy"
"-82.47","49.41","KAPUSKASING A","6073976","2020-08-03 17:00","2020","08","03","17:00","14.8","","10.5","","75","","","","1","","10","","24.1","","99.31","","","","","","NA"
"-82.47","49.41","KAPUSKASING A","6073976","2020-08-03 18:00","2020","08","03","18:00","13.8","","8.8","","71","","","","1","","9","","24.1","","99.33","","","","","","NA"
"-82.47","49.41","KAPUSKASING A","6073976","2020-08-03 19:00","2020","08","03","19:00","12.6","","10.5","","87","","","","34","","7","","12.9","","99.36","","","","","","Rain Showers"
"-82.47","49.41","KAPUSKASING A","6073976","2020-08-03 20:00","2020","08","03","20:00","12.5","","11.2","","91","","","","33","","6","","24.1","","99.38","","","","","","NA"
"-82.47","49.41","KAPUSKASING A","6073976","2020-08-03 21:00","2020","08","03","21:00","12.3","","9.9","","85","","","","36","","7","","24.1","","99.43","","","","","","NA"
"-82.47","49.41","KAPUSKASING A","6073976","2020-08-03 22:00","2020","08","03","22:00","11.8","","9.2","","84","","","","2","","10","","24.1","","99.45","","","","","","Cloudy"
"-82.47","49.41","KAPUSKASING A","6073976","2020-08-03 23:00","2020","08","03","23:00","11.1","","9.1","","87","","","","36","","8","","24.1","","99.45","","","","","","NA"
"-82.47","49.41","KAPUSKASING A","6073976","2020-08-04 00:00","2020","08","04","00:00","10.8","","8.8","","88","","","","1","","8","","24.1","","99.42","","","","","","NA"
"-82.47","49.41","KAPUSKASING A","6073976","2020-08-04 01:00","2020","08","04","01:00","9.8","","8.9","","94","","","","34","","4","","24.1","","99.42","","","","","","Cloudy"
"-82.47","49.41","KAPUSKASING A","6073976","2020-08-04 02:00","2020","08","04","02:00","9.9","","9.0","","94","","","","32","","7","","24.1","","99.38","","","","","","NA"
"-82.47","49.41","KAPUSKASING A","6073976","2020-08-04 03:00","2020","08","04","03:00","9.9","","9.0","","94","","","","30","","4","","24.1","","99.36","","","","","","NA"
"-82.47","49.41","KAPUSKASING A","6073976","2020-08-04 04:00","2020","08","04","04:00","9.8","","9.0","","95","","","","33","","5","","24.1","","99.36","","","","","","Cloudy"
"-82.47","49.41","KAPUSKASING A","6073976","2020-08-04 05:00","2020","08","04","05:00","9.8","","9.0","","95","","","","32","","5","","19.3","","99.34","","","","","","Rain"
"-82.47","49.41","KAPUSKASING A","6073976","2020-08-04 06:00","2020","08","04","06:00","10.0","","9.2","","95","","","","32","","8","","24.1","","99.33","","","","","","NA"
"-82.47","49.41","KAPUSKASING A","6073976","2020-08-04 07:00","2020","08","04","07:00","11.0","","9.8","","93","","","","32","","8","","24.1","","99.31","","","","","","Mostly Cloudy"
"-82.47","49.41","KAPUSKASING A","6073976","2020-08-04 08:00","2020","08","04","08:00","11.5","","10.0","","90","","","","36","","6","","24.1","","99.30","","","","","","NA"
"-82.47","49.41","KAPUSKASING A","6073976","2020-08-04 09:00","2020","08","04","09:00","12.0","","9.8","","86","","","","34","","10","","24.1","","99.28","","","","","","NA"
"-82.47","49.41","KAPUSKASING A","6073976","2020-08-04 10:00","2020","08","04","10:00","12.5","","9.9","","84","","","","34","","10","","24.1","","99.25","","","","","","Cloudy"
"-82.47","49.41","KAPUSKASING A","6073976","2020-08-04 11:00","2020","08","04","11:00","12.2","","10.3","","88","","","","35","","7","","9.7","","99.22","","","","","","Fog"
"-82.47","49.41","KAPUSKASING A","6073976","2020-08-04 12:00","2020","08","04","12:00","12.1","","10.7","","91","","","","34","","8","","9.7","","99.20","","","","","","Drizzle,Fog"
"-82.47","49.41","KAPUSKASING A","6073976","2020-08-04 13:00","2020","08","04","13:00","12.0","","10.9","","93","","","","35","","13","","6.4","","99.16","","","","","","Drizzle,Fog"
"-82.47","49.41","KAPUSKASING A","6073976","2020-08-04 14:00","2020","08","04","14:00","13.0","","10.8","","87","","","","34","","7","","24.1","","99.11","","","","","","NA"
"-82.47","49.41","KAPUSKASING A","6073976","2020-08-04 15:00","2020","08","04","15:00","13.5","","10.6","","82","","","","35","","12","","24.1","","99.07","","","","","","NA"
"-82.47","49.41","KAPUSKASING A","6073976","2020-08-04 16:00","2020","08","04","16:00","14.8","","10.8","","76","","","","34","","8","","24.1","","99.03","","","","","","Mostly Cloudy"
"-82.47","49.41","KAPUSKASING A","6073976","2020-08-04 17:00","2020","08","04","17:00","14.2","","10.9","","80","","","","33","","10","","24.1","","98.99","","","","","","NA"
"-82.47","49.41","KAPUSKASING A","6073976","2020-08-04 18:00","2020","08","04","18:00","14.1","","10.8","","81","","","","7","","10","","24.1","","98.93","","","","","","NA"
"-82.47","49.41","KAPUSKASING A","6073976","2020-08-04 19:00","2020","08","04","19:00","12.9","","10.9","","88","","","","33","","7","","24.1","","98.88","","","","","","Mostly Cloudy"
"-82.47","49.41","KAPUSKASING A","6073976","2020-08-04 20:00","2020","08","04","20:00","12.7","","10.9","","89","","","","33","","6","","24.1","","98.87","","","","","","NA"
"-82.47","49.41","KAPUSKASING A","6073976","2020-08-04 21:00","2020","08","04","21:00","11.2","","10.4","","95","","","","30","","5","","24.1","","98.85","","","","","","NA"
"-82.47","49.41","KAPUSKASING A","6073976","2020-08-04 22:00","2020","08","04","22:00","10.3","","9.8","","96","","","","31","","7","","24.1","","98.80","","","","","","Mostly Cloudy"
"-82.47","49.41","KAPUSKASING A","6073976","2020-08-04 23:00","2020","08","04","23:00","10.1","","9.6","","97","","","","30","","7","","24.1","","98.75","","","","","","NA"
"-82.47","49.41","KAPUSKASING A","6073976","2020-08-05 00:00","2020","08","05","00:00","10.3","","9.9","","98","","","","30","","7","","24.1","","98.70","","","","","","NA"
"-82.47","49.41","KAPUSKASING A","6073976","2020-08-05 01:00","2020","08","05","01:00","10.3","","9.9","","97","","","","31","","7","","24.1","","98.67","","","","","","Cloudy"
"-82.47","49.41","KAPUSKASING A","6073976","2020-08-05 02:00","2020","08","05","02:00","10.4","","10.0","","98","","","","32","","9","","24.1","","98.62","","","","","","Rain"
"-82.47","49.41","KAPUSKASING A","6073976","2020-08-05 03:00","2020","08","05","03:00","10.7","","10.4","","98","","","","32","","7","","24.1","","98.59","","","","","","NA"
"-82.47","49.41","KAPUSKASING A","6073976","2020-08-05 04:00","2020","08","05","04:00","10.9","","10.5","","97","","","","31","","7","","16.1","","98.56","","","","","","Cloudy"
"-82.47","49.41","KAPUSKASING A","6073976","2020-08-05 05:00","2020","08","05","05:00","10.8","","10.5","","98","","","","28","","8","","24.1","","98.53","","","","","","NA"
"-82.47","49.41","KAPUSKASING A","6073976","2020-08-05 06:00","2020","08","05","06:00","11.0","","10.6","","97","","","","30","","8","","24.1","","98.52","","","","","","NA"
"-82.47","49.41","KAPUSKASING A","6073976","2020-08-05 07:00","2020","08","05","07:00","11.6","","10.8","","95","","","","27","","9","","24.1","","98.51","","","","","","Cloudy"
"-82.47","49.41","KAPUSKASING A","6073976","2020-08-05 08:00","2020","08","05","08:00","12.0","","10.6","","91","","","","30","","17","","24.1","","98.52","","","","","","NA"
"-82.47","49.41","KAPUSKASING A","6073976","2020-08-05 09:00","2020","08","05","09:00","12.6","","11.2","","91","","","","31","","11","","24.1","","98.51","","","","","","NA"
"-82.47","49.41","KAPUSKASING A","6073976","2020-08-05 10:00","2020","08","05","10:00","13.1","","11.7","","91","","","","28","","10","","9.7","","98.50","","","","","","Rain,Fog"
"-82.47","49.41","KAPUSKASING A","6073976","2020-08-05 11:00","2020","08","05","11:00","14.2","","11.6","","84","","","","31","","17","","24.1","","98.50","","","","","","NA"
"-82.47","49.41","KAPUSKASING A","6073976","2020-08-05 12:00","2020","08","05","12:00","14.4","","12.9","","90","","","","31","","14","","8.1","","98.50","","","","","","Rain,Fog"
"-82.47","49.41","KAPUSKASING A","6073976","2020-08-05 13:00","2020","08","05","13:00","13.6","","12.4","","93","","","","29","","16","","9.7","","98.51","","","","","","Rain,Fog"
"-82.47","49.41","KAPUSKASING A","6073976","2020-08-05 14:00","2020","08","05","14:00","13.8","","13.1","","95","","","","30","","14","","9.7","","98.57","","","","","","Moderate Rain,Fog"
"-82.47","49.41","KAPUSKASING A","6073976","2020-08-05 15:00","2020","08","05","15:00","13.7","","12.9","","95","","","","28","","18","","24.1","","98.57","","","","","","Rain,Fog"
"-82.47","49.41","KAPUSKASING A","6073976","2020-08-05 16:00","2020","08","05","16:00","14.3","","13.4","","94","","","","29","","16","","9.7","","98.62","","","","","","Rain,Fog"
"-82.47","49.41","KAPUSKASING A","6073976","2020-08-05 17:00","2020","08","05","17:00","14.6","","13.4","","92","","","","31","","12","","24.1","","98.66","","","","","","NA"
"-82.47","49.41","KAPUSKASING A","6073976","2020-08-05 18:00","2020","08","05","18:00","14.5","","13.5","","94","","","","29","","11","","24.1","","98.67","","","","","","NA"
"-82.47","49.41","KAPUSKASING A","6073976","2020-08-05 19:00","2020","08","05","19:00","14.6","","13.7","","94","","","","27","","10","","24.1","","98.68","","","","","","Mostly Cloudy"
"-82.47","49.41","KAPUSKASING A","6073976","2020-08-05 20:00","2020","08","05","20:00","14.5","","14.0","","97","","","","24","","9","","24.1","","98.70","","","","","","NA"
"-82.47","49.41","KAPUSKASING A","6073976","2020-08-05 21:00","2020","08","05","21:00","14.4","","13.9","","97","","","","25","","13","","24.1","","98.74","","","","","","NA"
"-82.47","49.41","KAPUSKASING A","6073976","2020-08-05 22:00","2020","08","05","22:00","13.8","","13.4","","98","","","","24","","9","","24.1","","98.76","","","","","","Mostly Cloudy"
"-82.47","49.41","KAPUSKASING A","6073976","2020-08-05 23:00","2020","08","05","23:00","13.8","","13.4","","98","","","","24","","17","","24.1","","98.77","","","","","","NA"
"-82.47","49.41","KAPUSKASING A","6073976","2020-08-06 00:00","2020","08","06","00:00","13.0","","12.6","","97","","","","23","","12","","24.1","","98.79","","","","","","NA"
"-82.47","49.41","KAPUSKASING A","6073976","2020-08-06 01:00","2020","08","06","01:00","12.5","","11.9","","96","","","","24","","10","","24.1","","98.76","","","","","","Mainly Clear"
"-82.47","49.41","KAPUSKASING A","6073976","2020-08-06 02:00","2020","08","06","02:00","11.8","","11.2","","96","","","","22","","11","","24.1","","98.75","","","","","","NA"
"-82.47","49.41","KAPUSKASING A","6073976","2020-08-06 03:00","2020","08","06","03:00","11.0","","10.4","","96","","","","21","","8","","24.1","","98.75","","","","","","NA"
"-82.47","49.41","KAPUSKASING A","6073976","2020-08-06 04:00","2020","08","06","04:00","10.5","","10.0","","97","","","","21","","10","","24.1","","98.77","","","","","","Clear"
"-82.47","49.41","KAPUSKASING A","6073976","2020-08-06 05:00","2020","08","06","05:00","10.0","","9.4","","96","","","","21","","9","","24.1","","98.79","","","","","","NA"
"-82.47","49.41","KAPUSKASING A","6073976","2020-08-06 06:00","2020","08","06","06:00","10.7","","9.7","","94","","","","21","","9","","24.1","","98.82","","","","","","NA"
"-82.47","49.41","KAPUSKASING A","6073976","2020-08-06 07:00","2020","08","06","07:00","12.5","","10.8","","89","","","","22","","14","","24.1","","98.85","","","","","","Mainly Clear"
"-82.47","49.41","KAPUSKASING A","6073976","2020-08-06 08:00","2020","08","06","08:00","14.5","","11.8","","84","","","","23","","15","","24.1","","98.85","","","","","","NA"
"-82.47","49.41","KAPUSKASING A","6073976","2020-08-06 09:00","2020","08","06","09:00","17.2","","13.9","","80","","","","24","","17","","24.1","","98.84","","","","","","NA"
"-82.47","49.41","KAPUSKASING A","6073976","2020-08-06 10:00","2020","08","06","10:00","19.6","","15.3","","76","","","","25","","16","","24.1","","98.83","","","","","","Mainly Clear"
"-82.47","49.41","KAPUSKASING A","6073976","2020-08-06 11:00","2020","08","06","11:00","21.7","","15.4","","67","","","","25","","20","","24.1","","98.84","","26","","","","NA"
"-82.47","49.41","KAPUSKASING A","6073976","2020-08-06 12:00","2020","08","06","12:00","23.8","","15.9","","61","","","","22","","15","","24.1","","98.80","","28","","","","NA"
"-82.47","49.41","KAPUSKASING A","6073976","2020-08-06 13:00","2020","08","06","13:00","25.2","","16.6","","58","","","","26","","15","","24.1","","98.79","","30","","","","Mainly Clear"
"-82.47","49.41","KAPUSKASING A","6073976","2020-08-06 14:00","2020","08","06","14:00","26.1","","14.8","","49","","","","26","","20","","24.1","","98.78","","30","","","","NA"
"-82.47","49.41","KAPUSKASING A","6073976","2020-08-06 15:00","2020","08","06","15:00","26.8","","14.5","","46","","","","26","","14","","24.1","","98.72","","30","","","","NA"
"-82.47","49.41","KAPUSKASING A","6073976","2020-08-06 16:00","2020","08","06","16:00","27.4","","14.6","","45","","","","25","","21","","24.1","","98.68","","31","","","","Mostly Cloudy"
"-82.47","49.41","KAPUSKASING A","6073976","2020-08-06 17:00","2020","08","06","17:00","27.5","","11.1","","35","","","","26","","22","","24.1","","98.69","","29","","","","NA"
"-82.47","49.41","KAPUSKASING A","6073976","2020-08-06 18:00","2020","08","06","18:00","26.4","","13.5","","44","","","","23","","22","","24.1","","98.72","","29","","","","NA"
"-82.47","49.41","KAPUSKASING A","6073976","2020-08-06 19:00","2020","08","06","19:00","23.4","","13.9","","55","","","","24","","17","","24.1","","98.77","","27","","","","Mostly Cloudy"
"-82.47","49.41","KAPUSKASING A","6073976","2020-08-06 20:00","2020","08","06","20:00","20.6","","14.3","","67","","","","24","","13","","24.1","","98.83","","","","","","NA"
"-82.47","49.41","KAPUSKASING A","6073976","2020-08-06 21:00","2020","08","06","21:00","19.0","","14.1","","73","","","","24","","11","","24.1","","98.88","","","","","","NA"
"-82.47","49.41","KAPUSKASING A","6073976","2020-08-06 22:00","2020","08","06","22:00","18.0","","13.8","","76","","","","23","","11","","24.1","","98.89","","","","","","Mainly Clear"
"-82.47","49.41","KAPUSKASING A","6073976","2020-08-06 23:00","2020","08","06","23:00","17.5","","13.8","","79","","","","25","","12","","24.1","","98.90","","","","","","NA"
"-82.47","49.41","KAPUSKASING A","6073976","2020-08-07 00:00","2020","08","07","00:00","16.5","","13.6","","83","","","","24","","10","","24.1","","98.92","","","","","","NA"
"-82.47","49.41","KAPUSKASING A","6073976","2020-08-07 01:00","2020","08","07","01:00","15.4","","13.1","","86","","","","23","","9","","24.1","","98.95","","","","","","Clear"
"-82.47","49.41","KAPUSKASING A","6073976","2020-08-07 02:00","2020","08","07","02:00","15.0","","12.8","","86","","","","21","","7","","24.1","","98.98","","","","","","NA"
"-82.47","49.41","KAPUSKASING A","6073976","2020-08-07 03:00","2020","08","07","03:00","14.1","","12.2","","89","","","","21","","10","","24.1","","99.00","","","","","","NA"
"-82.47","49.41","KAPUSKASING A","6073976","2020-08-07 04:00","2020","08","07","04:00","14.0","","12.3","","89","","","","22","","9","","24.1","","99.02","","","","","","Mainly Clear"
"-82.47","49.41","KAPUSKASING A","6073976","2020-08-07 05:00","2020","08","07","05:00","13.8","","11.8","","88","","","","23","","11","","24.1","","99.05","","","","","","NA"
"-82.47","49.41","KAPUSKASING A","6073976","2020-08-07 06:00","2020","08","07","06:00","14.2","","12.1","","87","","","","22","","14","","24.1","","99.08","","","","","","NA"
"-82.47","49.41","KAPUSKASING A","6073976","2020-08-07 07:00","2020","08","07","07:00","16.2","","12.6","","79","","","","23","","15","","24.1","","99.11","","","","","","Clear"
"-82.47","49.41","KAPUSKASING A","6073976","2020-08-07 08:00","2020","08","07","08:00","18.9","","13.6","","71","","","","24","","15","","24.1","","99.13","","","","","","NA"
"-82.47","49.41","KAPUSKASING A","6073976","2020-08-07 09:00","2020","08","07","09:00","21.9","","14.2","","61","","","","25","","18","","24.1","","99.10","","25","","","","NA"
"-82.47","49.41","KAPUSKASING A","6073976","2020-08-07 10:00","2020","08","07","10:00","23.9","","14.4","","55","","","","23","","25","","24.1","","99.08","","28","","","","Clear"
"-82.47","49.41","KAPUSKASING A","6073976","2020-08-07 11:00","2020","08","07","11:00","25.7","","15.2","","52","","","","24","","21","","24.1","","99.05","","30","","","","NA"
"-82.47","49.41","KAPUSKASING A","6073976","2020-08-07 12:00","2020","08","07","12:00","26.5","","14.9","","48","","","","24","","21","","24.1","","99.03","","30","","","","NA"
"-82.47","49.41","KAPUSKASING A","6073976","2020-08-07 13:00","2020","08","07","13:00","27.4","","15.0","","46","","","","22","","24","","24.1","","99.01","","31","","","","Mainly Clear"
"-82.47","49.41","KAPUSKASING A","6073976","2020-08-07 14:00","2020","08","07","14:00","27.9","","13.4","","40","","","","23","","19","","24.1","","98.96","","31","","","","NA"
"-82.47","49.41","KAPUSKASING A","6073976","2020-08-07 15:00","2020","08","07","15:00","28.3","","13.7","","40","","","","21","","17","","24.1","","98.94","","31","","","","NA"
"-82.47","49.41","KAPUSKASING A","6073976","2020-08-07 16:00","2020","08","07","16:00","27.9","","12.7","","38","","","","22","","22","","24.1","","98.93","","31","","","","Mainly Clear"
"-82.47","49.41","KAPUSKASING A","6073976","2020-08-07 17:00","2020","08","07","17:00","27.9","","12.8","","39","","","","24","","18","","24.1","","98.89","","31","","","","NA"
"-82.47","49.41","KAPUSKASING A","6073976","2020-08-07 18:00","2020","08","07","18:00","27.2","","13.2","","41","","","","24","","19","","24.1","","98.87","","30","","","","NA"
"-82.47","49.41","KAPUSKASING A","6073976","2020-08-07 19:00","2020","08","07","19:00","25.4","","13.7","","48","","","","22","","16","","24.1","","98.87","","29","","","","Mainly Clear"
"-82.47","49.41","KAPUSKASING A","6073976","2020-08-07 20:00","2020","08","07","20:00","23.1","","13.9","","56","","","","23","","16","","24.1","","98.91","","26","","","","NA"
"-82.47","49.41","KAPUSKASING A","6073976","2020-08-07 21:00","2020","08","07","21:00","21.3","","13.2","","59","","","","22","","12","","24.1","","98.97","","","","","","NA"
"-82.47","49.41","KAPUSKASING A","6073976","2020-08-07 22:00","2020","08","07","22:00","19.8","","12.4","","62","","","","22","","13","","24.1","","99.00","","","","","","Clear"
"-82.47","49.41","KAPUSKASING A","6073976","2020-08-07 23:00","2020","08","07","23:00","18.7","","12.2","","66","","","","22","","14","","24.1","","98.99","","","","","","NA"
"-82.47","49.41","KAPUSKASING A","6073976","2020-08-08 00:00","2020","08","08","00:00","18.5","","12.3","","67","","","","23","","16","","24.1","","98.99","","","","","","NA"
"-82.47","49.41","KAPUSKASING A","6073976","2020-08-08 01:00","2020","08","08","01:00","17.0","","12.3","","74","","","","20","","12","","24.1","","98.97","","","","","","Mainly Clear"
"-82.47","49.41","KAPUSKASING A","6073976","2020-08-08 02:00","2020","08","08","02:00","16.5","","12.0","","75","","","","20","","13","","24.1","","98.92","","","","","","NA"
"-82.47","49.41","KAPUSKASING A","6073976","2020-08-08 03:00","2020","08","08","03:00","16.4","","11.5","","72","","","","21","","12","","24.1","","98.90","","","","","","NA"
"-82.47","49.41","KAPUSKASING A","6073976","2020-08-08 04:00","2020","08","08","04:00","17.7","","11.5","","67","","","","21","","12","","24.1","","98.87","","","","","","Mostly Cloudy"
"-82.47","49.41","KAPUSKASING A","6073976","2020-08-08 05:00","2020","08","08","05:00","17.8","","11.4","","66","","","","21","","17","","24.1","","98.86","","","","","","NA"
"-82.47","49.41","KAPUSKASING A","6073976","2020-08-08 06:00","2020","08","08","06:00","17.6","","11.6","","68","","","","21","","16","","24.1","","98.93","","","","","","NA"
"-82.47","49.41","KAPUSKASING A","6073976","2020-08-08 07:00","2020","08","08","07:00","17.2","","11.8","","70","","","","21","","18","","24.1","","98.92","","","","","","Mostly Cloudy"
"-82.47","49.41","KAPUSKASING A","6073976","2020-08-08 08:00","2020","08","08","08:00","19.9","","12.3","","62","","","","22","","23","","24.1","","98.88","","","","","","NA"
"-82.47","49.41","KAPUSKASING A","6073976","2020-08-08 09:00","2020","08","08","09:00","20.8","","13.1","","61","","","","22","","23","","24.1","","98.86","","","","","","NA"
"-82.47","49.41","KAPUSKASING A","6073976","2020-08-08 10:00","2020","08","08","10:00","22.7","","14.4","","59","","","","21","","16","","24.1","","98.82","","26","","","","Cloudy"
"-82.47","49.41","KAPUSKASING A","6073976","2020-08-08 11:00","2020","08","08","11:00","23.8","","15.5","","59","","","","20","","22","","24.1","","98.79","","28","","","","NA"
"-82.47","49.41","KAPUSKASING A","6073976","2020-08-08 12:00","2020","08","08","12:00","25.8","","16.2","","55","","","","24","","22","","24.1","","98.77","","31","","","","NA"
"-82.47","49.41","KAPUSKASING A","6073976","2020-08-08 13:00","2020","08","08","13:00","25.6","","15.7","","54","","","","23","","26","","24.1","","98.73","","30","","","","Cloudy"
"-82.47","49.41","KAPUSKASING A","6073976","2020-08-08 14:00","2020","08","08","14:00","26.3","","16.6","","54","","","","21","","21","","24.1","","98.70","","31","","","","NA"
"-82.47","49.41","KAPUSKASING A","6073976","2020-08-08 15:00","2020","08","08","15:00","26.5","","17.6","","58","","","","21","","16","","24.1","","98.69","","32","","","","NA"
"-82.47","49.41","KAPUSKASING A","6073976","2020-08-08 16:00","2020","08","08","16:00","25.9","","16.0","","54","","","","19","","19","","24.1","","98.64","","31","","","","Cloudy"
"-82.47","49.41","KAPUSKASING A","6073976","2020-08-08 17:00","2020","08","08","17:00","26.2","","16.0","","53","","","","20","","27","","24.1","","98.61","","31","","","","NA"
"-82.47","49.41","KAPUSKASING A","6073976","2020-08-08 18:00","2020","08","08","18:00","25.3","","15.5","","54","","","","25","","20","","24.1","","98.65","","30","","","","NA"
"-82.47","49.41","KAPUSKASING A","6073976","2020-08-08 19:00","2020","08","08","19:00","23.6","","15.8","","61","","","","22","","13","","24.1","","98.61","","28","","","","Mainly Clear"
"-82.47","49.41","KAPUSKASING A","6073976","2020-08-08 20:00","2020","08","08","20:00","21.2","","15.2","","68","","","","20","","12","","24.1","","98.64","","25","","","","NA"
"-82.47","49.41","KAPUSKASING A","6073976","2020-08-08 21:00","2020","08","08","21:00","20.1","","15.8","","76","","","","20","","17","","24.1","","98.66","","25","","","","NA"
"-82.47","49.41","KAPUSKASING A","6073976","2020-08-08 22:00","2020","08","08","22:00","18.6","","15.9","","84","","","","20","","10","","24.1","","98.64","","","","","","Mainly Clear"
"-82.47","49.41","KAPUSKASING A","6073976","2020-08-08 23:00","2020","08","08","23:00","17.8","","15.9","","89","","","","20","","8","","24.1","","98.61","","","","","","NA"
"-82.47","49.41","KAPUSKASING A","6073976","2020-08-09 00:00","2020","08","09","00:00","16.6","","15.5","","94","","","","17","","8","","24.1","","98.62","","","","","","NA"
"-82.47","49.41","KAPUSKASING A","6073976","2020-08-09 01:00","2020","08","09","01:00","16.4","","15.6","","95","","","","22","","8","","24.1","","98.62","","","","","","Clear"
"-82.47","49.41","KAPUSKASING A","6073976","2020-08-09 02:00","2020","08","09","02:00","16.0","","15.5","","97","","","","20","","7","","24.1","","98.67","","","","","","NA"
"-82.47","49.41","KAPUSKASING A","6073976","2020-08-09 03:00","2020","08","09","03:00","16.4","","15.9","","97","","","","22","","10","","24.1","","98.64","","","","","","NA"
"-82.47","49.41","KAPUSKASING A","6073976","2020-08-09 04:00","2020","08","09","04:00","16.5","","16.1","","97","","","","16","","6","","24.1","","98.64","","","","","","Mostly Cloudy"
"-82.47","49.41","KAPUSKASING A","6073976","2020-08-09 05:00","2020","08","09","05:00","16.3","","15.8","","97","","","","19","","7","","24.1","","98.65","","","","","","NA"
"-82.47","49.41","KAPUSKASING A","6073976","2020-08-09 06:00","2020","08","09","06:00","15.9","","15.6","","98","","","","19","","6","","9.7","","98.64","","","","","","Fog"
"-82.47","49.41","KAPUSKASING A","6073976","2020-08-09 07:00","2020","08","09","07:00","18.3","","16.7","","91","","","","20","","12","","24.1","","98.62","","","","","","Mainly Clear"
"-82.47","49.41","KAPUSKASING A","6073976","2020-08-09 08:00","2020","08","09","08:00","20.0","","17.4","","85","","","","20","","14","","24.1","","98.60","","26","","","","NA"
"-82.47","49.41","KAPUSKASING A","6073976","2020-08-09 09:00","2020","08","09","09:00","21.6","","18.0","","80","","","","18","","14","","24.1","","98.60","","28","","","","NA"
"-82.47","49.41","KAPUSKASING A","6073976","2020-08-09 10:00","2020","08","09","10:00","23.7","","18.6","","73","","","","18","","14","","24.1","","98.59","","30","","","","Mainly Clear"
"-82.47","49.41","KAPUSKASING A","6073976","2020-08-09 11:00","2020","08","09","11:00","25.5","","18.8","","66","","","","19","","18","","24.1","","98.56","","32","","","","NA"
"-82.47","49.41","KAPUSKASING A","6073976","2020-08-09 12:00","2020","08","09","12:00","27.1","","18.9","","60","","","","19","","18","","24.1","","98.53","","34","","","","NA"
"-82.47","49.41","KAPUSKASING A","6073976","2020-08-09 13:00","2020","08","09","13:00","29.0","","19.7","","57","","","","20","","23","","24.1","","98.51","","36","","","","Mainly Clear"
"-82.47","49.41","KAPUSKASING A","6073976","2020-08-09 14:00","2020","08","09","14:00","29.9","","20.4","","56","","","","23","","18","","24.1","","98.46","","38","","","","NA"
"-82.47","49.41","KAPUSKASING A","6073976","2020-08-09 15:00","2020","08","09","15:00","30.8","","18.7","","48","","","","24","","22","","24.1","","98.41","","37","","","","NA"
"-82.47","49.41","KAPUSKASING A","6073976","2020-08-09 16:00","2020","08","09","16:00","31.0","","19.4","","49","","","","23","","18","","24.1","","98.39","","38","","","","Mostly Cloudy"
"-82.47","49.41","KAPUSKASING A","6073976","2020-08-09 17:00","2020","08","09","17:00","29.7","","20.6","","57","","","","20","","17","","24.1","","98.33","","38","","","","NA"
"-82.47","49.41","KAPUSKASING A","6073976","2020-08-09 18:00","2020","08","09","18:00","29.0","","20.2","","58","","","","22","","17","","24.1","","98.30","","37","","","","NA"
"-82.47","49.41","KAPUSKASING A","6073976","2020-08-09 19:00","2020","08","09","19:00","26.9","","21.2","","70","","","","22","","12","","24.1","","98.29","","35","","","","Cloudy"
"-82.47","49.41","KAPUSKASING A","6073976","2020-08-09 20:00","2020","08","09","20:00","24.9","","20.8","","78","","","","23","","10","","24.1","","98.31","","33","","","","NA"
"-82.47","49.41","KAPUSKASING A","6073976","2020-08-09 21:00","2020","08","09","21:00","23.7","","20.5","","82","","","","20","","7","","24.1","","98.31","","32","","","","NA"
"-82.47","49.41","KAPUSKASING A","6073976","2020-08-09 22:00","2020","08","09","22:00","23.0","","20.3","","84","","","","19","","7","","24.1","","98.31","","31","","","","Mostly Cloudy"
"-82.47","49.41","KAPUSKASING A","6073976","2020-08-09 23:00","2020","08","09","23:00","22.8","","20.1","","85","","","","22","","8","","24.1","","98.27","","30","","","","NA"
"-82.47","49.41","KAPUSKASING A","6073976","2020-08-10 00:00","2020","08","10","00:00","21.1","","19.6","","91","","","","19","","7","","24.1","","98.20","","28","","","","NA"
"-82.47","49.41","KAPUSKASING A","6073976","2020-08-10 01:00","2020","08","10","01:00","21.0","","19.6","","92","","","","17","","11","","24.1","","98.20","","28","","","","Mostly Cloudy"
"-82.47","49.41","KAPUSKASING A","6073976","2020-08-10 02:00","2020","08","10","02:00","21.7","","19.4","","87","","","","19","","13","","24.1","","98.11","","29","","","","NA"
"-82.47","49.41","KAPUSKASING A","6073976","2020-08-10 03:00","2020","08","10","03:00","21.2","","19.6","","90","","","","18","","12","","24.1","","98.05","","28","","","","NA"
"-82.47","49.41","KAPUSKASING A","6073976","2020-08-10 04:00","2020","08","10","04:00","21.0","","19.4","","90","","","","18","","14","","24.1","","97.99","","28","","","","Mostly Cloudy"
"-82.47","49.41","KAPUSKASING A","6073976","2020-08-10 05:00","2020","08","10","05:00","21.0","","19.3","","89","","","","17","","15","","19.3","","97.92","","28","","","","NA"
"-82.47","49.41","KAPUSKASING A","6073976","2020-08-10 06:00","2020","08","10","06:00","21.4","","19.3","","87","","","","18","","15","","24.1","","97.86","","28","","","","NA"
"-82.47","49.41","KAPUSKASING A","6073976","2020-08-10 07:00","2020","08","10","07:00","21.1","","19.7","","92","","","","19","","21","","2.8","","97.86","","28","","","","Heavy Rain Showers"
"-82.47","49.41","KAPUSKASING A","6073976","2020-08-10 08:00","2020","08","10","08:00","20.0","","18.8","","93","","","","26","","21","","16.1","","97.93","","27","","","","NA"
"-82.47","49.41","KAPUSKASING A","6073976","2020-08-10 09:00","2020","08","10","09:00","22.0","","19.7","","86","","","","26","","21","","24.1","","97.92","","29","","","","NA"
"-82.47","49.41","KAPUSKASING A","6073976","2020-08-10 10:00","2020","08","10","10:00","21.9","","18.8","","82","","","","26","","19","","24.1","","97.96","","29","","","","Mostly Cloudy"
"-82.47","49.41","KAPUSKASING A","6073976","2020-08-10 11:00","2020","08","10","11:00","21.8","","18.1","","79","","","","25","","21","","24.1","","97.96","","28","","","","NA"
"-82.47","49.41","KAPUSKASING A","6073976","2020-08-10 12:00","2020","08","10","12:00","22.1","","18.1","","78","","","","24","","21","","24.1","","97.99","","28","","","","NA"
"-82.47","49.41","KAPUSKASING A","6073976","2020-08-10 13:00","2020","08","10","13:00","24.2","","18.4","","70","","","","25","","21","","24.1","","97.96","","31","","","","Mostly Cloudy"
"-82.47","49.41","KAPUSKASING A","6073976","2020-08-10 14:00","2020","08","10","14:00","25.3","","17.8","","63","","","","25","","34","","24.1","","97.94","","31","","","","NA"
"-82.47","49.41","KAPUSKASING A","6073976","2020-08-10 15:00","2020","08","10","15:00","25.2","","18.1","","64","","","","25","","16","","24.1","","97.89","","31","","","","NA"
"-82.47","49.41","KAPUSKASING A","6073976","2020-08-10 16:00","2020","08","10","16:00","25.8","","19.0","","66","","","","23","","16","","24.1","","97.82","","33","","","","Mostly Cloudy"
"-82.47","49.41","KAPUSKASING A","6073976","2020-08-10 17:00","2020","08","10","17:00","23.9","","18.9","","73","","","","30","","14","","24.1","","97.78","","31","","","","NA"
"-82.47","49.41","KAPUSKASING A","6073976","2020-08-10 18:00","2020","08","10","18:00","23.0","","18.5","","75","","","","26","","14","","24.1","","97.82","","29","","","","NA"
"-82.47","49.41","KAPUSKASING A","6073976","2020-08-10 19:00","2020","08","10","19:00","20.3","","18.3","","88","","","","28","","16","","24.1","","97.85","","27","","","","Cloudy"
"-82.47","49.41","KAPUSKASING A","6073976","2020-08-10 20:00","2020","08","10","20:00","19.9","","15.7","","76","","","","22","","13","","24.1","","97.80","","","","","","NA"
"-82.47","49.41","KAPUSKASING A","6073976","2020-08-10 21:00","2020","08","10","21:00","18.8","","14.5","","76","","","","25","","15","","24.1","","97.91","","","","","","NA"
"-82.47","49.41","KAPUSKASING A","6073976","2020-08-10 22:00","2020","08","10","22:00","18.0","","14.2","","78","","","","25","","17","","24.1","","97.93","","","","","","Mostly Cloudy"
"-82.47","49.41","KAPUSKASING A","6073976","2020-08-10 23:00","2020","08","10","23:00","17.6","","13.9","","79","","","","25","","19","","24.1","","97.95","","","","","","NA"
"-82.47","49.41","KAPUSKASING A","6073976","2020-08-11 00:00","2020","08","11","00:00","16.6","","13.7","","83","","","","24","","13","","24.1","","97.92","","","","","","NA"
"-82.47","49.41","KAPUSKASING A","6073976","2020-08-11 01:00","2020","08","11","01:00","15.9","","13.6","","86","","","","24","","14","","24.1","","97.91","","","","","","Mostly Cloudy"
"-82.47","49.41","KAPUSKASING A","6073976","2020-08-11 02:00","2020","08","11","02:00","14.6","","12.9","","89","","","","22","","13","","24.1","","97.88","","","","","","NA"
"-82.47","49.41","KAPUSKASING A","6073976","2020-08-11 03:00","2020","08","11","03:00","14.2","","12.5","","90","","","","23","","11","","24.1","","97.89","","","","","","NA"
"-82.47","49.41","KAPUSKASING A","6073976","2020-08-11 04:00","2020","08","11","04:00","13.3","","12.0","","92","","","","20","","12","","24.1","","97.92","","","","","","Clear"
"-82.47","49.41","KAPUSKASING A","6073976","2020-08-11 05:00","2020","08","11","05:00","12.9","","11.6","","92","","","","23","","9","","24.1","","97.93","","","","","","NA"
"-82.47","49.41","KAPUSKASING A","6073976","2020-08-11 06:00","2020","08","11","06:00","12.5","","11.2","","92","","","","19","","8","","24.1","","97.98","","","","","","NA"
"-82.47","49.41","KAPUSKASING A","6073976","2020-08-11 07:00","2020","08","11","07:00","15.0","","11.6","","80","","","","25","","19","","24.1","","97.98","","","","","","Mainly Clear"
"-82.47","49.41","KAPUSKASING A","6073976","2020-08-11 08:00","2020","08","11","08:00","18.0","","12.0","","68","","","","24","","16","","24.1","","98.01","","","","","","NA"
"-82.47","49.41","KAPUSKASING A","6073976","2020-08-11 09:00","2020","08","11","09:00","20.6","","11.9","","57","","","","25","","20","","24.1","","98.03","","","","","","NA"
"-82.47","49.41","KAPUSKASING A","6073976","2020-08-11 10:00","2020","08","11","10:00","22.7","","11.8","","50","","","","24","","19","","24.1","","98.00","","25","","","","Clear"
"-82.47","49.41","KAPUSKASING A","6073976","2020-08-11 11:00","2020","08","11","11:00","24.6","","11.9","","45","","","","24","","18","","24.1","","97.99","","27","","","","NA"
"-82.47","49.41","KAPUSKASING A","6073976","2020-08-11 12:00","2020","08","11","12:00","25.8","","11.3","","40","","","","25","","25","","24.1","","97.96","","28","","","","NA"
"-82.47","49.41","KAPUSKASING A","6073976","2020-08-11 13:00","2020","08","11","13:00","26.5","","11.4","","38","","","","24","","20","","24.1","","97.93","","28","","","","Clear"
"-82.47","49.41","KAPUSKASING A","6073976","2020-08-11 14:00","2020","08","11","14:00","27.2","","9.9","","33","","","","24","","27","","24.1","","97.90","","28","","","","NA"
"-82.47","49.41","KAPUSKASING A","6073976","2020-08-11 15:00","2020","08","11","15:00","27.9","","8.9","","30","","","","23","","31","","24.1","","97.85","","29","","","","NA"
"-82.47","49.41","KAPUSKASING A","6073976","2020-08-11 16:00","2020","08","11","16:00","28.4","","8.9","","29","","","","24","","26","","24.1","","97.84","","29","","","","Clear"
"-82.47","49.41","KAPUSKASING A","6073976","2020-08-11 17:00","2020","08","11","17:00","28.1","","6.9","","26","","","","26","","32","","24.1","","97.86","","28","","","","NA"
"-82.47","49.41","KAPUSKASING A","6073976","2020-08-11 18:00","2020","08","11","18:00","26.9","","7.7","","29","","","","25","","24","","24.1","","97.90","","27","","","","NA"
"-82.47","49.41","KAPUSKASING A","6073976","2020-08-11 19:00","2020","08","11","19:00","25.2","","8.3","","34","","","","24","","16","","24.1","","97.96","","26","","","","Mainly Clear"
"-82.47","49.41","KAPUSKASING A","6073976","2020-08-11 20:00","2020","08","11","20:00","21.6","","8.6","","43","","","","23","","16","","24.1","","98.03","","","","","","NA"
"-82.47","49.41","KAPUSKASING A","6073976","2020-08-11 21:00","2020","08","11","21:00","21.2","","9.6","","47","","","","25","","17","","24.1","","98.10","","","","","","NA"
"-82.47","49.41","KAPUSKASING A","6073976","2020-08-11 22:00","2020","08","11","22:00","18.1","","10.3","","60","","","","22","","10","","24.1","","98.16","","","","","","Mainly Clear"
"-82.47","49.41","KAPUSKASING A","6073976","2020-08-11 23:00","2020","08","11","23:00","17.8","","11.3","","65","","","","24","","13","","24.1","","98.20","","","","","","NA"
"-82.47","49.41","KAPUSKASING A","6073976","2020-08-12 00:00","2020","08","12","00:00","18.1","","12.1","","68","","","","25","","13","","24.1","","98.24","","","","","","NA"
"-82.47","49.41","KAPUSKASING A","6073976","2020-08-12 01:00","2020","08","12","01:00","17.4","","12.4","","73","","","","26","","14","","24.1","","98.29","","","","","","Clear"
"-82.47","49.41","KAPUSKASING A","6073976","2020-08-12 02:00","2020","08","12","02:00","16.0","","12.2","","78","","","","25","","8","","24.1","","98.35","","","","","","NA"
"-82.47","49.41","KAPUSKASING A","6073976","2020-08-12 03:00","2020","08","12","03:00","14.1","","11.6","","85","","","","25","","3","","24.1","","98.42","","","","","","NA"
"-82.47","49.41","KAPUSKASING A","6073976","2020-08-12 04:00","2020","08","12","04:00","14.5","","11.9","","84","","","","27","","10","","24.1","","98.52","","","","","","Mainly Clear"
"-82.47","49.41","KAPUSKASING A","6073976","2020-08-12 05:00","2020","08","12","05:00","12.8","","11.4","","91","","","","21","","4","","24.1","","98.60","","","","","","NA"
"-82.47","49.41","KAPUSKASING A","6073976","2020-08-12 06:00","2020","08","12","06:00","12.8","","11.2","","90","","","","26","","4","","24.1","","98.73","","","","","","NA"
"-82.47","49.41","KAPUSKASING A","6073976","2020-08-12 07:00","2020","08","12","07:00","15.5","","12.7","","83","","","","24","","5","","9.7","","98.84","","","","","","Haze"
"-82.47","49.41","KAPUSKASING A","6073976","2020-08-12 08:00","2020","08","12","08:00","18.1","","13.2","","72","","","","30","","8","","9.7","","98.89","","","","","","Haze"
"-82.47","49.41","KAPUSKASING A","6073976","2020-08-12 09:00","2020","08","12","09:00","20.2","","12.7","","62","","","","27","","5","","9.7","","98.91","","","","","","Haze"
"-82.47","49.41","KAPUSKASING A","6073976","2020-08-12 10:00","2020","08","12","10:00","21.8","","13.3","","58","","","","33","","12","","24.1","","98.93","","25","","","","Mainly Clear"
"-82.47","49.41","KAPUSKASING A","6073976","2020-08-12 11:00","2020","08","12","11:00","23.1","","13.1","","53","","","","31","","13","","24.1","","98.97","","26","","","","NA"
"-82.47","49.41","KAPUSKASING A","6073976","2020-08-12 12:00","2020","08","12","12:00","24.3","","13.1","","49","","","","30","","11","","24.1","","98.98","","27","","","","NA"
"-82.47","49.41","KAPUSKASING A","6073976","2020-08-12 13:00","2020","08","12","13:00","25.1","","12.7","","46","","","","32","","13","","24.1","","98.99","","28","","","","Mainly Clear"
"-82.47","49.41","KAPUSKASING A","6073976","2020-08-12 14:00","2020","08","12","14:00","25.3","","12.5","","44","","","","30","","13","","24.1","","99.04","","28","","","","NA"
"-82.47","49.41","KAPUSKASING A","6073976","2020-08-12 15:00","2020","08","12","15:00","26.2","","10.5","","37","","","","31","","22","","24.1","","99.09","","28","","","","NA"
"-82.47","49.41","KAPUSKASING A","6073976","2020-08-12 16:00","2020","08","12","16:00","26.6","","9.7","","34","","","","30","","17","","24.1","","99.11","","28","","","","Mainly Clear"
"-82.47","49.41","KAPUSKASING A","6073976","2020-08-12 17:00","2020","08","12","17:00","24.9","","11.0","","41","","","","32","","12","","24.1","","99.11","","27","","","","NA"
"-82.47","49.41","KAPUSKASING A","6073976","2020-08-12 18:00","2020","08","12","18:00","25.5","","11.8","","42","","","","34","","9","","24.1","","99.12","","28","","","","NA"
"-82.47","49.41","KAPUSKASING A","6073976","2020-08-12 19:00","2020","08","12","19:00","24.5","","11.8","","45","","","","35","","6","","24.1","","99.13","","27","","","","Clear"
"-82.47","49.41","KAPUSKASING A","6073976","2020-08-12 20:00","2020","08","12","20:00","20.4","","14.4","","68","","","","1","","4","","24.1","","99.17","","","","","","NA"
"-82.47","49.41","KAPUSKASING A","6073976","2020-08-12 21:00","2020","08","12","21:00","20.9","","12.7","","59","","","","5","","14","","24.1","","99.23","","","","","","NA"
"-82.47","49.41","KAPUSKASING A","6073976","2020-08-12 22:00","2020","08","12","22:00","18.8","","12.9","","68","","","","6","","9","","24.1","","99.27","","","","","","Mainly Clear"
"-82.47","49.41","KAPUSKASING A","6073976","2020-08-12 23:00","2020","08","12","23:00","17.3","","13.0","","76","","","","5","","10","","24.1","","99.32","","","","","","NA"
"-82.47","49.41","KAPUSKASING A","6073976","2020-08-13 00:00","2020","08","13","00:00","16.8","","13.1","","79","","","","8","","5","","24.1","","99.39","","","","","","NA"
"-82.47","49.41","KAPUSKASING A","6073976","2020-08-13 01:00","2020","08","13","01:00","15.1","","13.0","","87","","","","17","","3","","24.1","","99.43","","","","","","Mostly Cloudy"
"-82.47","49.41","KAPUSKASING A","6073976","2020-08-13 02:00","2020","08","13","02:00","15.9","","13.1","","84","","","","1","","4","","24.1","","99.49","","","","","","NA"
"-82.47","49.41","KAPUSKASING A","6073976","2020-08-13 03:00","2020","08","13","03:00","15.7","","13.2","","85","","","","7","","4","","24.1","","99.50","","","","","","NA"
"-82.47","49.41","KAPUSKASING A","6073976","2020-08-13 04:00","2020","08","13","04:00","16.0","","13.3","","83","","","","9","","10","","24.1","","99.51","","","","","","Mostly Cloudy"
"-82.47","49.41","KAPUSKASING A","6073976","2020-08-13 05:00","2020","08","13","05:00","14.7","","12.5","","86","","","","7","","7","","24.1","","99.55","","","","","","NA"
"-82.47","49.41","KAPUSKASING A","6073976","2020-08-13 06:00","2020","08","13","06:00","13.3","","12.0","","92","","","","36","","3","","24.1","","99.59","","","","","","NA"
"-82.47","49.41","KAPUSKASING A","6073976","2020-08-13 07:00","2020","08","13","07:00","17.4","","13.8","","79","","","","9","","8","","24.1","","99.63","","","","","","Mainly Clear"
"-82.47","49.41","KAPUSKASING A","6073976","2020-08-13 08:00","2020","08","13","08:00","20.0","","15.0","","73","","","","12","","10","","24.1","","99.63","","","","","","NA"
"-82.47","49.41","KAPUSKASING A","6073976","2020-08-13 09:00","2020","08","13","09:00","22.3","","15.5","","65","","","","13","","12","","24.1","","99.61","","27","","","","NA"
"-82.47","49.41","KAPUSKASING A","6073976","2020-08-13 10:00","2020","08","13","10:00","24.2","","14.2","","53","","","","9","","13","","24.1","","99.59","","28","","","","Mainly Clear"
"-82.47","49.41","KAPUSKASING A","6073976","2020-08-13 11:00","2020","08","13","11:00","25.3","","14.2","","50","","","","10","","6","","24.1","","99.56","","29","","","","NA"
"-82.47","49.41","KAPUSKASING A","6073976","2020-08-13 12:00","2020","08","13","12:00","26.3","","13.6","","45","","","","6","","6","","24.1","","99.51","","29","","","","NA"
"-82.47","49.41","KAPUSKASING A","6073976","2020-08-13 13:00","2020","08","13","13:00","27.3","","13.7","","42","","","","13","","14","","24.1","","99.48","","30","","","","Mainly Clear"
"-82.47","49.41","KAPUSKASING A","6073976","2020-08-13 14:00","2020","08","13","14:00","28.3","","12.2","","36","","","","7","","8","","24.1","","99.47","","31","","","","NA"
"-82.47","49.41","KAPUSKASING A","6073976","2020-08-13 15:00","2020","08","13","15:00","28.3","","14.0","","41","","","","17","","4","","24.1","","99.45","","32","","","","NA"
"-82.47","49.41","KAPUSKASING A","6073976","2020-08-13 16:00","2020","08","13","16:00","28.4","","13.0","","38","","","","9","","4","","24.1","","99.42","","31","","","","Mainly Clear"
"-82.47","49.41","KAPUSKASING A","6073976","2020-08-13 17:00","2020","08","13","17:00","28.3","","12.8","","38","","","","6","","13","","24.1","","99.38","","31","","","","NA"
"-82.47","49.41","KAPUSKASING A","6073976","2020-08-13 18:00","2020","08","13","18:00","27.6","","12.2","","38","","","","7","","12","","24.1","","99.35","","30","","","","NA"
"-82.47","49.41","KAPUSKASING A","6073976","2020-08-13 19:00","2020","08","13","19:00","25.5","","13.7","","47","","","","8","","9","","24.1","","99.36","","29","","","","Clear"
"-82.47","49.41","KAPUSKASING A","6073976","2020-08-13 20:00","2020","08","13","20:00","23.0","","14.2","","57","","","","8","","10","","24.1","","99.42","","26","","","","NA"
"-82.47","49.41","KAPUSKASING A","6073976","2020-08-13 21:00","2020","08","13","21:00","20.4","","14.3","","68","","","","9","","9","","24.1","","99.43","","","","","","NA"
"-82.47","49.41","KAPUSKASING A","6073976","2020-08-13 22:00","2020","08","13","22:00","18.6","","14.2","","75","","","","11","","10","","24.1","","99.43","","","","","","Clear"
"-82.47","49.41","KAPUSKASING A","6073976","2020-08-13 23:00","2020","08","13","23:00","18.3","","14.0","","76","","","","12","","13","","24.1","","99.45","","","","","","NA"
"-82.47","49.41","KAPUSKASING A","6073976","2020-08-14 00:00","2020","08","14","00:00","17.5","","13.7","","78","","","","12","","11","","24.1","","99.46","","","","","","NA"
"-82.47","49.41","KAPUSKASING A","6073976","2020-08-14 01:00","2020","08","14","01:00","16.6","","13.5","","82","","","","12","","11","","24.1","","99.43","","","","","","Clear"
"-82.47","49.41","KAPUSKASING A","6073976","2020-08-14 02:00","2020","08","14","02:00","16.3","","13.6","","84","","","","13","","10","","24.1","","99.39","","","","","","NA"
"-82.47","49.41","KAPUSKASING A","6073976","2020-08-14 03:00","2020","08","14","03:00","15.6","","13.4","","86","","","","13","","10","","24.1","","99.37","","","","","","NA"
"-82.47","49.41","KAPUSKASING A","6073976","2020-08-14 04:00","2020","08","14","04:00","16.1","","13.5","","85","","","","14","","9","","24.1","","99.34","","","","","","Clear"
"-82.47","49.41","KAPUSKASING A","6073976","2020-08-14 05:00","2020","08","14","05:00","15.0","","13.1","","88","","","","13","","13","","24.1","","99.35","","","","","","NA"
"-82.47","49.41","KAPUSKASING A","6073976","2020-08-14 06:00","2020","08","14","06:00","14.8","","13.0","","89","","","","14","","7","","24.1","","99.39","","","","","","NA"
"-82.47","49.41","KAPUSKASING A","6073976","2020-08-14 07:00","2020","08","14","07:00","17.1","","14.3","","83","","","","12","","10","","24.1","","99.44","","","","","","Mostly Cloudy"
"-82.47","49.41","KAPUSKASING A","6073976","2020-08-14 08:00","2020","08","14","08:00","18.7","","14.9","","78","","","","15","","5","","24.1","","99.45","","","","","","NA"
"-82.47","49.41","KAPUSKASING A","6073976","2020-08-14 09:00","2020","08","14","09:00","21.4","","15.7","","70","","","","13","","9","","24.1","","99.39","","26","","","","NA"
"-82.47","49.41","KAPUSKASING A","6073976","2020-08-14 10:00","2020","08","14","10:00","24.1","","15.7","","59","","","","18","","11","","24.1","","99.38","","29","","","","Mostly Cloudy"
"-82.47","49.41","KAPUSKASING A","6073976","2020-08-14 11:00","2020","08","14","11:00","25.8","","16.5","","56","","","","18","","8","","24.1","","99.33","","31","","","","NA"
"-82.47","49.41","KAPUSKASING A","6073976","2020-08-14 12:00","2020","08","14","12:00","27.9","","15.8","","47","","","","14","","10","","24.1","","99.26","","32","","","","NA"
"-82.47","49.41","KAPUSKASING A","6073976","2020-08-14 13:00","2020","08","14","13:00","29.2","","14.8","","41","","","","15","","15","","24.1","","99.19","","33","","","","Mostly Cloudy"
"-82.47","49.41","KAPUSKASING A","6073976","2020-08-14 14:00","2020","08","14","14:00","30.1","","14.8","","39","","","","20","","17","","24.1","","99.14","","34","","","","NA"
"-82.47","49.41","KAPUSKASING A","6073976","2020-08-14 15:00","2020","08","14","15:00","30.2","","14.0","","37","","","","15","","14","","24.1","","99.11","","34","","","","NA"
"-82.47","49.41","KAPUSKASING A","6073976","2020-08-14 16:00","2020","08","14","16:00","30.7","","13.0","","33","","","","19","","19","","24.1","","99.06","","33","","","","Mainly Clear"
"-82.47","49.41","KAPUSKASING A","6073976","2020-08-14 17:00","2020","08","14","17:00","30.4","","13.6","","35","","","","19","","20","","24.1","","99.02","","34","","","","NA"
"-82.47","49.41","KAPUSKASING A","6073976","2020-08-14 18:00","2020","08","14","18:00","29.1","","15.0","","42","","","","16","","14","","24.1","","98.99","","33","","","","NA"
"-82.47","49.41","KAPUSKASING A","6073976","2020-08-14 19:00","2020","08","14","19:00","26.3","","15.0","","49","","","","16","","14","","24.1","","98.94","","30","","","","Mainly Clear"
"-82.47","49.41","KAPUSKASING A","6073976","2020-08-14 20:00","2020","08","14","20:00","22.9","","15.6","","63","","","","14","","10","","24.1","","98.91","","27","","","","NA"
"-82.47","49.41","KAPUSKASING A","6073976","2020-08-14 21:00","2020","08","14","21:00","21.0","","14.9","","67","","","","14","","15","","24.1","","98.91","","25","","","","NA"
"-82.47","49.41","KAPUSKASING A","6073976","2020-08-14 22:00","2020","08","14","22:00","21.9","","14.6","","63","","","","15","","18","","24.1","","98.85","","26","","","","Mainly Clear"
"-82.47","49.41","KAPUSKASING A","6073976","2020-08-14 23:00","2020","08","14","23:00","21.6","","14.5","","63","","","","15","","19","","24.1","","98.81","","25","","","","NA"
"-82.47","49.41","KAPUSKASING A","6073976","2020-08-15 00:00","2020","08","15","00:00","21.1","","14.7","","67","","","","16","","18","","24.1","","98.85","","25","","","","NA"
"-82.47","49.41","KAPUSKASING A","6073976","2020-08-15 01:00","2020","08","15","01:00","20.1","","14.8","","71","","","","18","","16","","24.1","","98.89","","","","","","Clear"
"-82.47","49.41","KAPUSKASING A","6073976","2020-08-15 02:00","2020","08","15","02:00","17.8","","14.4","","80","","","","16","","10","","24.1","","98.88","","","","","","NA"
"-82.47","49.41","KAPUSKASING A","6073976","2020-08-15 03:00","2020","08","15","03:00","16.9","","14.5","","86","","","","16","","13","","24.1","","98.83","","","","","","NA"
"-82.47","49.41","KAPUSKASING A","6073976","2020-08-15 04:00","2020","08","15","04:00","16.7","","14.4","","86","","","","17","","10","","24.1","","98.79","","","","","","Clear"
"-82.47","49.41","KAPUSKASING A","6073976","2020-08-15 05:00","2020","08","15","05:00","16.6","","14.3","","86","","","","15","","16","","24.1","","98.76","","","","","","NA"
"-82.47","49.41","KAPUSKASING A","6073976","2020-08-15 06:00","2020","08","15","06:00","17.1","","14.5","","85","","","","16","","18","","24.1","","98.74","","","","","","NA"
"-82.47","49.41","KAPUSKASING A","6073976","2020-08-15 07:00","2020","08","15","07:00","19.4","","14.5","","73","","","","17","","23","","24.1","","98.73","","","","","","Mainly Clear"
"-82.47","49.41","KAPUSKASING A","6073976","2020-08-15 08:00","2020","08","15","08:00","21.6","","14.8","","65","","","","18","","24","","24.1","","98.71","","25","","","","NA"
"-82.47","49.41","KAPUSKASING A","6073976","2020-08-15 09:00","2020","08","15","09:00","24.6","","15.2","","55","","","","18","","24","","24.1","","98.63","","29","","","","NA"
"-82.47","49.41","KAPUSKASING A","6073976","2020-08-15 10:00","2020","08","15","10:00","26.3","","14.2","","47","","","","18","","28","","24.1","","98.61","","30","","","","Mainly Clear"
"-82.47","49.41","KAPUSKASING A","6073976","2020-08-15 11:00","2020","08","15","11:00","28.0","","15.2","","45","","","","18","","27","","24.1","","98.51","","32","","","","NA"
"-82.47","49.41","KAPUSKASING A","6073976","2020-08-15 12:00","2020","08","15","12:00","28.7","","14.7","","42","","","","18","","32","","24.1","","98.44","","32","","","","NA"
"-82.47","49.41","KAPUSKASING A","6073976","2020-08-15 13:00","2020","08","15","13:00","28.9","","14.9","","42","","","","19","","35","","24.1","","98.39","","33","","","","Mostly Cloudy"
"-82.47","49.41","KAPUSKASING A","6073976","2020-08-15 14:00","2020","08","15","14:00","29.0","","14.9","","42","","","","19","","41","","24.1","","98.34","","33","","","","NA"
"-82.47","49.41","KAPUSKASING A","6073976","2020-08-15 15:00","2020","08","15","15:00","28.0","","14.5","","43","","","","19","","37","","24.1","","98.30","","32","","","","NA"
"-82.47","49.41","KAPUSKASING A","6073976","2020-08-15 16:00","2020","08","15","16:00","28.0","","14.9","","44","","","","20","","30","","24.1","","98.26","","32","","","","Mostly Cloudy"
"-82.47","49.41","KAPUSKASING A","6073976","2020-08-15 17:00","2020","08","15","17:00","27.0","","15.3","","48","","","","18","","25","","24.1","","98.29","","31","","","","NA"
"-82.47","49.41","KAPUSKASING A","6073976","2020-08-15 18:00","2020","08","15","18:00","24.6","","17.2","","63","","","","26","","25","","19.3","","98.37","","30","","","","Rain"
"-82.47","49.41","KAPUSKASING A","6073976","2020-08-15 19:00","2020","08","15","19:00","22.7","","17.4","","72","","","","25","","24","","24.1","","98.43","","28","","","","Cloudy"
"-82.47","49.41","KAPUSKASING A","6073976","2020-08-15 20:00","2020","08","15","20:00","19.8","","17.9","","89","","","","25","","13","","24.1","","98.49","","","","","","Rain Showers"
"-82.47","49.41","KAPUSKASING A","6073976","2020-08-15 21:00","2020","08","15","21:00","18.9","","17.5","","92","","","","25","","16","","24.1","","98.55","","","","","","Rain Showers"
"-82.47","49.41","KAPUSKASING A","6073976","2020-08-15 22:00","2020","08","15","22:00","18.2","","17.4","","95","","","","22","","12","","24.1","","98.55","","","","","","Rain Showers"
"-82.47","49.41","KAPUSKASING A","6073976","2020-08-15 23:00","2020","08","15","23:00","17.9","","17.5","","97","","","","25","","7","","24.1","","98.57","","","","","","Rain Showers"
"-82.47","49.41","KAPUSKASING A","6073976","2020-08-16 00:00","2020","08","16","00:00","17.6","","17.0","","97","","","","22","","5","","24.1","","98.58","","","","","","NA"
"-82.47","49.41","KAPUSKASING A","6073976","2020-08-16 01:00","2020","08","16","01:00","17.0","","16.8","","99","","","","36","","2","","9.7","","98.55","","","","","","Fog"
"-82.47","49.41","KAPUSKASING A","6073976","2020-08-16 02:00","2020","08","16","02:00","16.7","","16.5","","99","","","","36","","2","","0.8","","98.56","","","","","","Fog"
"-82.47","49.41","KAPUSKASING A","6073976","2020-08-16 03:00","2020","08","16","03:00","16.9","","16.8","","99","","","","36","","2","","0.8","","98.54","","","","","","Fog"
"-82.47","49.41","KAPUSKASING A","6073976","2020-08-16 04:00","2020","08","16","04:00","16.2","","16.1","","99","","","","25","","6","","0.4","","98.55","","","","","","Fog"
"-82.47","49.41","KAPUSKASING A","6073976","2020-08-16 05:00","2020","08","16","05:00","15.3","","15.2","","99","","","","20","","7","","0.8","","98.56","","","","","","Fog"
"-82.47","49.41","KAPUSKASING A","6073976","2020-08-16 06:00","2020","08","16","06:00","15.2","","15.1","","99","","","","19","","10","","0.4","","98.56","","","","","","Fog"
"-82.47","49.41","KAPUSKASING A","6073976","2020-08-16 07:00","2020","08","16","07:00","15.4","","15.3","","99","","","","22","","7","","1.6","","98.57","","","","","","Fog"
"-82.47","49.41","KAPUSKASING A","6073976","2020-08-16 08:00","2020","08","16","08:00","16.7","","15.6","","93","","","","21","","7","","9.7","","98.57","","","","","","Fog"
"-82.47","49.41","KAPUSKASING A","6073976","2020-08-16 09:00","2020","08","16","09:00","18.2","","16.1","","87","","","","22","","8","","24.1","","98.52","","","","","","NA"
"-82.47","49.41","KAPUSKASING A","6073976","2020-08-16 10:00","2020","08","16","10:00","19.3","","15.8","","80","","","","25","","12","","24.1","","98.53","","","","","","Mostly Cloudy"
"-82.47","49.41","KAPUSKASING A","6073976","2020-08-16 11:00","2020","08","16","11:00","21.4","","14.3","","64","","","","22","","12","","24.1","","98.50","","25","","","","NA"
"-82.47","49.41","KAPUSKASING A","6073976","2020-08-16 12:00","2020","08","16","12:00","22.4","","15.0","","63","","","","21","","12","","24.1","","98.46","","26","","","","NA"
"-82.47","49.41","KAPUSKASING A","6073976","2020-08-16 13:00","2020","08","16","13:00","23.4","","14.2","","56","","","","27","","10","","24.1","","98.41","","27","","","","Mostly Cloudy"
"-82.47","49.41","KAPUSKASING A","6073976","2020-08-16 14:00","2020","08","16","14:00","24.7","","13.6","","50","","","","31","","12","","24.1","","98.36","","28","","","","NA"
"-82.47","49.41","KAPUSKASING A","6073976","2020-08-16 15:00","2020","08","16","15:00","24.9","","12.8","","47","","","","30","","11","","24.1","","98.28","","28","","","","NA"
"-82.47","49.41","KAPUSKASING A","6073976","2020-08-16 16:00","2020","08","16","16:00","24.0","","13.0","","50","","","","30","","11","","24.1","","98.26","","27","","","","Mostly Cloudy"
"-82.47","49.41","KAPUSKASING A","6073976","2020-08-16 17:00","2020","08","16","17:00","24.2","","11.4","","44","","","","27","","11","","24.1","","98.23","","26","","","","NA"
"-82.47","49.41","KAPUSKASING A","6073976","2020-08-16 18:00","2020","08","16","18:00","24.4","","10.5","","41","","","","27","","12","","24.1","","98.21","","26","","","","NA"
"-82.47","49.41","KAPUSKASING A","6073976","2020-08-16 19:00","2020","08","16","19:00","19.2","","12.7","","66","","","","34","","16","","8.1","","98.26","","","","","","Rain Showers"
"-82.47","49.41","KAPUSKASING A","6073976","2020-08-16 20:00","2020","08","16","20:00","18.2","","12.8","","70","","","","24","","5","","24.1","","98.28","","","","","","NA"
"-82.47","49.41","KAPUSKASING A","6073976","2020-08-16 21:00","2020","08","16","21:00","15.0","","12.0","","82","","","","16","","6","","24.1","","98.31","","","","","","NA"
"-82.47","49.41","KAPUSKASING A","6073976","2020-08-16 22:00","2020","08","16","22:00","15.3","","13.0","","86","","","","20","","10","","24.1","","98.33","","","","","","Mostly Cloudy"
"-82.47","49.41","KAPUSKASING A","6073976","2020-08-16 23:00","2020","08","16","23:00","15.2","","12.9","","86","","","","23","","9","","24.1","","98.31","","","","","","NA"
"-82.47","49.41","KAPUSKASING A","6073976","2020-08-17 00:00","2020","08","17","00:00","13.5","","11.9","","90","","","","19","","4","","24.1","","98.30","","","","","","NA"
"-82.47","49.41","KAPUSKASING A","6073976","2020-08-17 01:00","2020","08","17","01:00","14.3","","11.8","","85","","","","27","","8","","24.1","","98.31","","","","","","Mostly Cloudy"
"-82.47","49.41","KAPUSKASING A","6073976","2020-08-17 02:00","2020","08","17","02:00","13.8","","11.7","","87","","","","29","","10","","24.1","","98.31","","","","","","NA"
"-82.47","49.41","KAPUSKASING A","6073976","2020-08-17 03:00","2020","08","17","03:00","13.6","","11.3","","86","","","","29","","8","","24.1","","98.30","","","","","","NA"
"-82.47","49.41","KAPUSKASING A","6073976","2020-08-17 04:00","2020","08","17","04:00","13.2","","11.2","","87","","","","28","","11","","24.1","","98.30","","","","","","Mostly Cloudy"
"-82.47","49.41","KAPUSKASING A","6073976","2020-08-17 05:00","2020","08","17","05:00","12.7","","11.1","","90","","","","27","","11","","24.1","","98.35","","","","","","NA"
"-82.47","49.41","KAPUSKASING A","6073976","2020-08-17 06:00","2020","08","17","06:00","12.1","","10.8","","92","","","","30","","9","","24.1","","98.40","","","","","","NA"
"-82.47","49.41","KAPUSKASING A","6073976","2020-08-17 07:00","2020","08","17","07:00","13.4","","11.3","","87","","","","31","","12","","24.1","","98.42","","","","","","Mainly Clear"
"-82.47","49.41","KAPUSKASING A","6073976","2020-08-17 08:00","2020","08","17","08:00","15.4","","11.9","","79","","","","31","","10","","24.1","","98.43","","","","","","NA"
"-82.47","49.41","KAPUSKASING A","6073976","2020-08-17 09:00","2020","08","17","09:00","17.6","","12.5","","71","","","","31","","11","","24.1","","98.45","","","","","","NA"
"-82.47","49.41","KAPUSKASING A","6073976","2020-08-17 10:00","2020","08","17","10:00","19.0","","11.8","","62","","","","30","","17","","24.1","","98.45","","","","","","Mostly Cloudy"
"-82.47","49.41","KAPUSKASING A","6073976","2020-08-17 11:00","2020","08","17","11:00","20.2","","11.3","","56","","","","28","","22","","24.1","","98.44","","","","","","NA"
"-82.47","49.41","KAPUSKASING A","6073976","2020-08-17 12:00","2020","08","17","12:00","21.4","","11.1","","52","","","","27","","22","","24.1","","98.40","","","","","","NA"
"-82.47","49.41","KAPUSKASING A","6073976","2020-08-17 13:00","2020","08","17","13:00","17.4","","11.7","","69","","","","31","","19","","16.1","","98.40","","","","","","Rain Showers"
"-82.47","49.41","KAPUSKASING A","6073976","2020-08-17 14:00","2020","08","17","14:00","20.0","","11.1","","56","","","","30","","18","","24.1","","98.40","","","","","","NA"
"-82.47","49.41","KAPUSKASING A","6073976","2020-08-17 15:00","2020","08","17","15:00","18.8","","11.2","","61","","","","33","","39","","19.3","","98.44","","","","","","Rain Showers"
"-82.47","49.41","KAPUSKASING A","6073976","2020-08-17 16:00","2020","08","17","16:00","14.9","","13.1","","89","","","","34","","13","","19.3","","98.49","","","","","","Rain Showers"
"-82.47","49.41","KAPUSKASING A","6073976","2020-08-17 17:00","2020","08","17","17:00","17.0","","14.2","","83","","","","32","","17","","24.1","","98.52","","","","","","NA"
"-82.47","49.41","KAPUSKASING A","6073976","2020-08-17 18:00","2020","08","17","18:00","15.3","","13.8","","90","","","","33","","11","","24.1","","98.56","","","","","","NA"
"-82.47","49.41","KAPUSKASING A","6073976","2020-08-17 19:00","2020","08","17","19:00","15.2","","14.0","","92","","","","36","","1","","24.1","","98.62","","","","","","Mostly Cloudy"
"-82.47","49.41","KAPUSKASING A","6073976","2020-08-17 20:00","2020","08","17","20:00","14.3","","13.0","","92","","","","32","","8","","11.3","","98.67","","","","","","Rain Showers"
"-82.47","49.41","KAPUSKASING A","6073976","2020-08-17 21:00","2020","08","17","21:00","13.1","","12.6","","96","","","","31","","4","","24.1","","98.69","","","","","","NA"
"-82.47","49.41","KAPUSKASING A","6073976","2020-08-17 22:00","2020","08","17","22:00","12.1","","11.8","","98","","","","29","","5","","24.1","","98.71","","","","","","Mostly Cloudy"
"-82.47","49.41","KAPUSKASING A","6073976","2020-08-17 23:00","2020","08","17","23:00","12.1","","11.8","","98","","","","30","","4","","24.1","","98.71","","","","","","NA"
"-82.47","49.41","KAPUSKASING A","6073976","2020-08-18 00:00","2020","08","18","00:00","12.1","","11.8","","98","","","","32","","8","","24.1","","98.72","","","","","","NA"
"-82.47","49.41","KAPUSKASING A","6073976","2020-08-18 01:00","2020","08","18","01:00","11.7","","11.1","","96","","","","30","","10","","24.1","","98.69","","","","","","Mostly Cloudy"
"-82.47","49.41","KAPUSKASING A","6073976","2020-08-18 02:00","2020","08","18","02:00","11.3","","10.3","","94","","","","30","","9","","24.1","","98.70","","","","","","NA"
"-82.47","49.41","KAPUSKASING A","6073976","2020-08-18 03:00","2020","08","18","03:00","11.1","","10.1","","94","","","","30","","10","","24.1","","98.71","","","","","","Drizzle"
"-82.47","49.41","KAPUSKASING A","6073976","2020-08-18 04:00","2020","08","18","04:00","10.8","","9.8","","94","","","","31","","12","","24.1","","98.72","","","","","","Cloudy"
"-82.47","49.41","KAPUSKASING A","6073976","2020-08-18 05:00","2020","08","18","05:00","10.5","","9.7","","94","","","","31","","9","","24.1","","98.74","","","","","","NA"
"-82.47","49.41","KAPUSKASING A","6073976","2020-08-18 06:00","2020","08","18","06:00","10.3","","9.6","","95","","","","30","","11","","24.1","","98.79","","","","","","NA"
"-82.47","49.41","KAPUSKASING A","6073976","2020-08-18 07:00","2020","08","18","07:00","10.5","","9.6","","95","","","","30","","12","","24.1","","98.81","","","","","","Mostly Cloudy"
"-82.47","49.41","KAPUSKASING A","6073976","2020-08-18 08:00","2020","08","18","08:00","11.4","","10.2","","93","","","","31","","16","","24.1","","98.87","","","","","","NA"
"-82.47","49.41","KAPUSKASING A","6073976","2020-08-18 09:00","2020","08","18","09:00","12.3","","10.5","","89","","","","31","","16","","12.9","","98.88","","","","","","Drizzle"
"-82.47","49.41","KAPUSKASING A","6073976","2020-08-18 10:00","2020","08","18","10:00","12.8","","11.8","","94","","","","32","","15","","8.1","","98.89","","","","","","Rain"
"-82.47","49.41","KAPUSKASING A","6073976","2020-08-18 11:00","2020","08","18","11:00","12.8","","10.6","","87","","","","31","","18","","16.1","","98.90","","","","","","Rain"
"-82.47","49.41","KAPUSKASING A","6073976","2020-08-18 12:00","2020","08","18","12:00","13.6","","10.9","","84","","","","31","","17","","19.3","","98.91","","","","","","Rain"
"-82.47","49.41","KAPUSKASING A","6073976","2020-08-18 13:00","2020","08","18","13:00","15.3","","11.2","","76","","","","31","","21","","16.1","","98.90","","","","","","Rain"
"-82.47","49.41","KAPUSKASING A","6073976","2020-08-18 14:00","2020","08","18","14:00","16.2","","9.8","","65","","","","33","","24","","24.1","","98.88","","","","","","NA"
"-82.47","49.41","KAPUSKASING A","6073976","2020-08-18 15:00","2020","08","18","15:00","15.2","","9.3","","68","","","","33","","23","","24.1","","98.90","","","","","","NA"
"-82.47","49.41","KAPUSKASING A","6073976","2020-08-18 16:00","2020","08","18","16:00","16.1","","9.2","","63","","","","33","","26","","24.1","","98.90","","","","","","Mostly Cloudy"
"-82.47","49.41","KAPUSKASING A","6073976","2020-08-18 17:00","2020","08","18","17:00","16.7","","9.3","","61","","","","32","","21","","24.1","","98.88","","","","","","NA"
"-82.47","49.41","KAPUSKASING A","6073976","2020-08-18 18:00","2020","08","18","18:00","15.9","","9.1","","64","","","","35","","14","","24.1","","98.88","","","","","","NA"
"-82.47","49.41","KAPUSKASING A","6073976","2020-08-18 19:00","2020","08","18","19:00","14.1","","8.4","","68","","","","36","","8","","24.1","","98.92","","","","","","Mostly Cloudy"
"-82.47","49.41","KAPUSKASING A","6073976","2020-08-18 20:00","2020","08","18","20:00","12.3","","8.9","","80","","","","35","","3","","24.1","","98.96","","","","","","NA"
"-82.47","49.41","KAPUSKASING A","6073976","2020-08-18 21:00","2020","08","18","21:00","10.9","","8.6","","86","","","","4","","6","","24.1","","98.99","","","","","","NA"
"-82.47","49.41","KAPUSKASING A","6073976","2020-08-18 22:00","2020","08","18","22:00","8.8","","8.0","","95","","","","23","","3","","24.1","","99.00","","","","","","Mainly Clear"
"-82.47","49.41","KAPUSKASING A","6073976","2020-08-18 23:00","2020","08","18","23:00","7.2","","6.7","","97","","","","27","","4","","24.1","","99.01","","","","","","NA"
"-82.47","49.41","KAPUSKASING A","6073976","2020-08-19 00:00","2020","08","19","00:00","7.5","","7.0","","96","","","","36","","3","","24.1","","99.03","","","","","","NA"
"-82.47","49.41","KAPUSKASING A","6073976","2020-08-19 01:00","2020","08","19","01:00","7.2","","6.7","","96","","","","36","","2","","24.1","","99.02","","","","","","Mostly Cloudy"
"-82.47","49.41","KAPUSKASING A","6073976","2020-08-19 02:00","2020","08","19","02:00","8.0","","7.5","","96","","","","27","","3","","24.1","","99.02","","","","","","NA"
"-82.47","49.41","KAPUSKASING A","6073976","2020-08-19 03:00","2020","08","19","03:00","7.1","","6.6","","97","","","","31","","3","","24.1","","99.02","","","","","","NA"
"-82.47","49.41","KAPUSKASING A","6073976","2020-08-19 04:00","2020","08","19","04:00","5.5","","5.1","","97","","","","33","","4","","4.8","","99.02","","","","","","Fog"
"-82.47","49.41","KAPUSKASING A","6073976","2020-08-19 05:00","2020","08","19","05:00","5.2","","5.0","","99","","","","","","0","","0.8","","99.05","","","","","","Fog"
"-82.47","49.41","KAPUSKASING A","6073976","2020-08-19 06:00","2020","08","19","06:00","4.3","","4.1","","99","","","","27","","5","","0.8","","99.08","","","","","","Fog"
"-82.47","49.41","KAPUSKASING A","6073976","2020-08-19 07:00","2020","08","19","07:00","6.9","","6.7","","99","","","","36","","2","","1.2","","99.12","","","","","","Fog"
"-82.47","49.41","KAPUSKASING A","6073976","2020-08-19 08:00","2020","08","19","08:00","11.3","","10.3","","93","","","","36","","1","","24.1","","99.14","","","","","","NA"
"-82.47","49.41","KAPUSKASING A","6073976","2020-08-19 09:00","2020","08","19","09:00","14.3","","9.3","","72","","","","35","","5","","24.1","","99.14","","","","","","NA"
"-82.47","49.41","KAPUSKASING A","6073976","2020-08-19 10:00","2020","08","19","10:00","16.1","","8.3","","60","","","","28","","9","","24.1","","99.14","","","","","","Mostly Cloudy"
"-82.47","49.41","KAPUSKASING A","6073976","2020-08-19 11:00","2020","08","19","11:00","16.2","","7.1","","54","","","","2","","8","","24.1","","99.10","","","","","","NA"
"-82.47","49.41","KAPUSKASING A","6073976","2020-08-19 12:00","2020","08","19","12:00","17.9","","6.7","","48","","","","4","","9","","24.1","","99.03","","","","","","NA"
"-82.47","49.41","KAPUSKASING A","6073976","2020-08-19 13:00","2020","08","19","13:00","18.5","","8.8","","53","","","","36","","2","","24.1","","98.97","","","","","","Mainly Clear"
"-82.47","49.41","KAPUSKASING A","6073976","2020-08-19 14:00","2020","08","19","14:00","19.4","","8.4","","49","","","","5","","9","","24.1","","98.88","","","","","","NA"
"-82.47","49.41","KAPUSKASING A","6073976","2020-08-19 15:00","2020","08","19","15:00","20.5","","7.0","","41","","","","19","","13","","24.1","","98.82","","","","","","NA"
"-82.47","49.41","KAPUSKASING A","6073976","2020-08-19 16:00","2020","08","19","16:00","20.3","","6.0","","39","","","","22","","9","","24.1","","98.82","","","","","","Mostly Cloudy"
"-82.47","49.41","KAPUSKASING A","6073976","2020-08-19 17:00","2020","08","19","17:00","19.7","","8.1","","47","","","","23","","9","","24.1","","98.81","","","","","","NA"
"-82.47","49.41","KAPUSKASING A","6073976","2020-08-19 18:00","2020","08","19","18:00","18.3","","9.1","","55","","","","23","","5","","24.1","","98.78","","","","","","NA"
"-82.47","49.41","KAPUSKASING A","6073976","2020-08-19 19:00","2020","08","19","19:00","16.9","","10.3","","65","","","","23","","9","","24.1","","98.75","","","","","","Mostly Cloudy"
"-82.47","49.41","KAPUSKASING A","6073976","2020-08-19 20:00","2020","08","19","20:00","15.5","","10.3","","71","","","","21","","9","","24.1","","98.72","","","","","","NA"
"-82.47","49.41","KAPUSKASING A","6073976","2020-08-19 21:00","2020","08","19","21:00","14.8","","10.7","","76","","","","14","","4","","24.1","","98.70","","","","","","NA"
"-82.47","49.41","KAPUSKASING A","6073976","2020-08-19 22:00","2020","08","19","22:00","13.9","","10.8","","82","","","","12","","7","","14.5","","98.67","","","","","","Cloudy"
"-82.47","49.41","KAPUSKASING A","6073976","2020-08-19 23:00","2020","08","19","23:00","13.8","","10.7","","81","","","","14","","5","","12.9","","98.66","","","","","","NA"
"-82.47","49.41","KAPUSKASING A","6073976","2020-08-20 00:00","2020","08","20","00:00","13.6","","11.1","","85","","","","16","","6","","16.1","","98.65","","","","","","Rain"
"-82.47","49.41","KAPUSKASING A","6073976","2020-08-20 01:00","2020","08","20","01:00","13.2","","11.1","","87","","","","21","","9","","16.1","","98.64","","","","","","Rain"
"-82.47","49.41","KAPUSKASING A","6073976","2020-08-20 02:00","2020","08","20","02:00","12.8","","12.0","","94","","","","20","","10","","14.5","","98.60","","","","","","Rain"
"-82.47","49.41","KAPUSKASING A","6073976","2020-08-20 03:00","2020","08","20","03:00","12.9","","12.4","","96","","","","21","","13","","16.1","","98.55","","","","","","Rain"
"-82.47","49.41","KAPUSKASING A","6073976","2020-08-20 04:00","2020","08","20","04:00","12.9","","12.3","","96","","","","18","","5","","19.3","","98.51","","","","","","Rain"
"-82.47","49.41","KAPUSKASING A","6073976","2020-08-20 05:00","2020","08","20","05:00","13.1","","12.2","","94","","","","11","","10","","19.3","","98.45","","","","","","NA"
"-82.47","49.41","KAPUSKASING A","6073976","2020-08-20 06:00","2020","08","20","06:00","13.0","","12.5","","97","","","","12","","9","","12.9","","98.45","","","","","","Drizzle"
"-82.47","49.41","KAPUSKASING A","6073976","2020-08-20 07:00","2020","08","20","07:00","13.4","","12.9","","97","","","","9","","5","","3.2","","98.50","","","","","","Drizzle"
"-82.47","49.41","KAPUSKASING A","6073976","2020-08-20 08:00","2020","08","20","08:00","13.5","","12.9","","96","","","","7","","6","","24.1","","98.51","","","","","","NA"
"-82.47","49.41","KAPUSKASING A","6073976","2020-08-20 09:00","2020","08","20","09:00","14.2","","13.3","","94","","","","6","","6","","12.9","","98.47","","","","","","Drizzle"
"-82.47","49.41","KAPUSKASING A","6073976","2020-08-20 10:00","2020","08","20","10:00","14.6","","13.4","","92","","","","6","","10","","24.1","","98.45","","","","","","Cloudy"
"-82.47","49.41","KAPUSKASING A","6073976","2020-08-20 11:00","2020","08","20","11:00","17.4","","14.1","","81","","","","7","","11","","24.1","","98.42","","","","","","NA"
"-82.47","49.41","KAPUSKASING A","6073976","2020-08-20 12:00","2020","08","20","12:00","17.2","","13.2","","77","","","","8","","13","","24.1","","98.41","","","","","","NA"
"-82.47","49.41","KAPUSKASING A","6073976","2020-08-20 13:00","2020","08","20","13:00","17.3","","13.2","","77","","","","6","","8","","24.1","","98.42","","","","","","Mostly Cloudy"
"-82.47","49.41","KAPUSKASING A","6073976","2020-08-20 14:00","2020","08","20","14:00","18.9","","13.4","","70","","","","6","","6","","24.1","","98.40","","","","","","NA"
"-82.47","49.41","KAPUSKASING A","6073976","2020-08-20 15:00","2020","08","20","15:00","19.2","","13.2","","68","","","","4","","9","","24.1","","98.36","","","","","","NA"
"-82.47","49.41","KAPUSKASING A","6073976","2020-08-20 16:00","2020","08","20","16:00","19.5","","12.6","","64","","","","2","","9","","24.1","","98.36","","","","","","Mostly Cloudy"
"-82.47","49.41","KAPUSKASING A","6073976","2020-08-20 17:00","2020","08","20","17:00","19.6","","12.5","","63","","","","6","","4","","24.1","","98.36","","","","","","NA"
"-82.47","49.41","KAPUSKASING A","6073976","2020-08-20 18:00","2020","08","20","18:00","19.3","","11.4","","60","","","","33","","3","","24.1","","98.36","","","","","","NA"
"-82.47","49.41","KAPUSKASING A","6073976","2020-08-20 19:00","2020","08","20","19:00","18.6","","12.1","","66","","","","22","","4","","24.1","","98.36","","","","","","Mostly Cloudy"
"-82.47","49.41","KAPUSKASING A","6073976","2020-08-20 20:00","2020","08","20","20:00","15.4","","13.5","","88","","","","36","","1","","24.1","","98.38","","","","","","NA"
"-82.47","49.41","KAPUSKASING A","6073976","2020-08-20 21:00","2020","08","20","21:00","13.1","","12.1","","94","","","","28","","5","","24.1","","98.44","","","","","","NA"
"-82.47","49.41","KAPUSKASING A","6073976","2020-08-20 22:00","2020","08","20","22:00","14.3","","12.3","","88","","","","6","","13","","24.1","","98.47","","","","","","Clear"
"-82.47","49.41","KAPUSKASING A","6073976","2020-08-20 23:00","2020","08","20","23:00","13.2","","11.6","","90","","","","7","","5","","24.1","","98.50","","","","","","NA"
"-82.47","49.41","KAPUSKASING A","6073976","2020-08-21 00:00","2020","08","21","00:00","11.8","","10.7","","93","","","","6","","7","","24.1","","98.52","","","","","","NA"
"-82.47","49.41","KAPUSKASING A","6073976","2020-08-21 01:00","2020","08","21","01:00","10.6","","9.8","","94","","","","7","","4","","24.1","","98.52","","","","","","Clear"
"-82.47","49.41","KAPUSKASING A","6073976","2020-08-21 02:00","2020","08","21","02:00","8.8","","8.2","","96","","","","36","","4","","24.1","","98.54","","","","","","NA"
"-82.47","49.41","KAPUSKASING A","6073976","2020-08-21 03:00","2020","08","21","03:00","9.1","","8.4","","95","","","","36","","2","","24.1","","98.55","","","","","","NA"
"-82.47","49.41","KAPUSKASING A","6073976","2020-08-21 04:00","2020","08","21","04:00","8.5","","8.1","","97","","","","3","","3","","24.1","","98.57","","","","","","Mostly Cloudy"
"-82.47","49.41","KAPUSKASING A","6073976","2020-08-21 05:00","2020","08","21","05:00","6.6","","6.1","","97","","","","16","","3","","24.1","","98.56","","","","","","NA"
"-82.47","49.41","KAPUSKASING A","6073976","2020-08-21 06:00","2020","08","21","06:00","7.5","","7.1","","98","","","","5","","3","","24.1","","98.63","","","","","","NA"
"-82.47","49.41","KAPUSKASING A","6073976","2020-08-21 07:00","2020","08","21","07:00","9.0","","8.8","","98","","","","8","","7","","0.8","","98.65","","","","","","Fog"
"-82.47","49.41","KAPUSKASING A","6073976","2020-08-21 08:00","2020","08","21","08:00","9.9","","9.7","","99","","","","15","","6","","0.4","","98.67","","","","","","Fog"
"-82.47","49.41","KAPUSKASING A","6073976","2020-08-21 09:00","2020","08","21","09:00","11.2","","10.9","","98","","","","19","","4","","1.2","","98.66","","","","","","Fog"
"-82.47","49.41","KAPUSKASING A","6073976","2020-08-21 10:00","2020","08","21","10:00","15.4","","12.9","","85","","","","36","","2","","24.1","","98.63","","","","","","Mainly Clear"
"-82.47","49.41","KAPUSKASING A","6073976","2020-08-21 11:00","2020","08","21","11:00","19.9","","13.7","","67","","","","25","","7","","24.1","","98.59","","","","","","NA"
"-82.47","49.41","KAPUSKASING A","6073976","2020-08-21 12:00","2020","08","21","12:00","21.1","","11.8","","55","","","","32","","7","","24.1","","98.55","","","","","","NA"
"-82.47","49.41","KAPUSKASING A","6073976","2020-08-21 13:00","2020","08","21","13:00","23.0","","10.7","","45","","","","19","","9","","24.1","","98.50","","25","","","","Mostly Cloudy"
"-82.47","49.41","KAPUSKASING A","6073976","2020-08-21 14:00","2020","08","21","14:00","22.9","","8.5","","39","","","","25","","8","","24.1","","98.46","","","","","","NA"
"-82.47","49.41","KAPUSKASING A","6073976","2020-08-21 15:00","2020","08","21","15:00","23.0","","8.9","","40","","","","26","","5","","24.1","","98.40","","","","","","NA"
"-82.47","49.41","KAPUSKASING A","6073976","2020-08-21 16:00","2020","08","21","16:00","23.8","","10.3","","42","","","","23","","5","","24.1","","98.38","","25","","","","Mainly Clear"
"-82.47","49.41","KAPUSKASING A","6073976","2020-08-21 17:00","2020","08","21","17:00","23.4","","10.4","","44","","","","24","","13","","24.1","","98.33","","25","","","","NA"
"-82.47","49.41","KAPUSKASING A","6073976","2020-08-21 18:00","2020","08","21","18:00","22.8","","12.7","","52","","","","23","","9","","24.1","","98.31","","25","","","","NA"
"-82.47","49.41","KAPUSKASING A","6073976","2020-08-21 19:00","2020","08","21","19:00","20.7","","12.9","","61","","","","22","","7","","24.1","","98.31","","","","","","Mostly Cloudy"
"-82.47","49.41","KAPUSKASING A","6073976","2020-08-21 20:00","2020","08","21","20:00","18.6","","12.6","","68","","","","18","","6","","24.1","","98.31","","","","","","NA"
"-82.47","49.41","KAPUSKASING A","6073976","2020-08-21 21:00","2020","08","21","21:00","16.7","","12.2","","74","","","","18","","14","","24.1","","98.28","","","","","","NA"
"-82.47","49.41","KAPUSKASING A","6073976","2020-08-21 22:00","2020","08","21","22:00","17.9","","12.8","","72","","","","19","","11","","24.1","","98.23","","","","","","Cloudy"
"-82.47","49.41","KAPUSKASING A","6073976","2020-08-21 23:00","2020","08","21","23:00","16.8","","14.2","","84","","","","36","","26","","24.1","","98.28","","","","","","Thunderstorms"
"-82.47","49.41","KAPUSKASING A","6073976","2020-08-22 00:00","2020","08","22","00:00","15.1","","14.2","","95","","","","16","","6","","24.1","","98.26","","","","","","NA"
"-82.47","49.41","KAPUSKASING A","6073976","2020-08-22 01:00","2020","08","22","01:00","15.3","","13.7","","90","","","","26","","8","","24.1","","98.27","","","","","","Mostly Cloudy"
"-82.47","49.41","KAPUSKASING A","6073976","2020-08-22 02:00","2020","08","22","02:00","15.4","","13.9","","91","","","","29","","12","","24.1","","98.27","","","","","","NA"
"-82.47","49.41","KAPUSKASING A","6073976","2020-08-22 03:00","2020","08","22","03:00","14.7","","13.8","","94","","","","26","","13","","24.1","","98.30","","","","","","NA"
"-82.47","49.41","KAPUSKASING A","6073976","2020-08-22 04:00","2020","08","22","04:00","14.2","","13.6","","96","","","","29","","9","","24.1","","98.34","","","","","","Clear"
"-82.47","49.41","KAPUSKASING A","6073976","2020-08-22 05:00","2020","08","22","05:00","13.3","","13.0","","98","","","","32","","8","","24.1","","98.39","","","","","","NA"
"-82.47","49.41","KAPUSKASING A","6073976","2020-08-22 06:00","2020","08","22","06:00","12.3","","12.2","","99","","","","31","","7","","0.8","","98.46","","","","","","Fog"
"-82.47","49.41","KAPUSKASING A","6073976","2020-08-22 07:00","2020","08","22","07:00","13.1","","13.0","","99","","","","34","","10","","0.4","","98.50","","","","","","Fog"
"-82.47","49.41","KAPUSKASING A","6073976","2020-08-22 08:00","2020","08","22","08:00","14.0","","13.9","","99","","","","35","","4","","2.4","","98.54","","","","","","Fog"
"-82.47","49.41","KAPUSKASING A","6073976","2020-08-22 09:00","2020","08","22","09:00","15.8","","14.6","","92","","","","36","","1","","24.1","","98.59","","","","","","NA"
"-82.47","49.41","KAPUSKASING A","6073976","2020-08-22 10:00","2020","08","22","10:00","18.4","","15.2","","81","","","","2","","5","","24.1","","98.63","","","","","","Mostly Cloudy"
"-82.47","49.41","KAPUSKASING A","6073976","2020-08-22 11:00","2020","08","22","11:00","20.5","","14.3","","67","","","","3","","7","","24.1","","98.65","","","","","","NA"
"-82.47","49.41","KAPUSKASING A","6073976","2020-08-22 12:00","2020","08","22","12:00","22.5","","14.9","","62","","","","32","","8","","24.1","","98.66","","26","","","","NA"
"-82.47","49.41","KAPUSKASING A","6073976","2020-08-22 13:00","2020","08","22","13:00","22.9","","14.6","","59","","","","31","","12","","24.1","","98.63","","27","","","","Mostly Cloudy"
"-82.47","49.41","KAPUSKASING A","6073976","2020-08-22 14:00","2020","08","22","14:00","23.5","","12.5","","50","","","","6","","9","","24.1","","98.63","","26","","","","NA"
"-82.47","49.41","KAPUSKASING A","6073976","2020-08-22 15:00","2020","08","22","15:00","24.0","","12.7","","49","","","","34","","5","","24.1","","98.65","","27","","","","NA"
"-82.47","49.41","KAPUSKASING A","6073976","2020-08-22 16:00","2020","08","22","16:00","23.7","","11.8","","47","","","","4","","16","","24.1","","98.66","","26","","","","Mostly Cloudy"
"-82.47","49.41","KAPUSKASING A","6073976","2020-08-22 17:00","2020","08","22","17:00","23.0","","12.1","","50","","","","6","","10","","24.1","","98.65","","25","","","","NA"
"-82.47","49.41","KAPUSKASING A","6073976","2020-08-22 18:00","2020","08","22","18:00","21.8","","12.6","","55","","","","6","","8","","24.1","","98.65","","","","","","NA"
"-82.47","49.41","KAPUSKASING A","6073976","2020-08-22 19:00","2020","08","22","19:00","20.3","","13.1","","63","","","","7","","9","","24.1","","98.65","","","","","","Mostly Cloudy"
"-82.47","49.41","KAPUSKASING A","6073976","2020-08-22 20:00","2020","08","22","20:00","18.4","","13.0","","70","","","","6","","9","","24.1","","98.68","","","","","","NA"
"-82.47","49.41","KAPUSKASING A","6073976","2020-08-22 21:00","2020","08","22","21:00","16.1","","13.1","","82","","","","36","","3","","24.1","","98.72","","","","","","NA"
"-82.47","49.41","KAPUSKASING A","6073976","2020-08-22 22:00","2020","08","22","22:00","14.4","","12.7","","89","","","","2","","4","","22.5","","98.78","","","","","","Mostly Cloudy"
"-82.47","49.41","KAPUSKASING A","6073976","2020-08-22 23:00","2020","08","22","23:00","13.7","","12.6","","93","","","","36","","2","","24.1","","98.80","","","","","","NA"
"-82.47","49.41","KAPUSKASING A","6073976","2020-08-23 00:00","2020","08","23","00:00","12.4","","11.4","","94","","","","1","","3","","24.1","","98.82","","","","","","NA"
"-82.47","49.41","KAPUSKASING A","6073976","2020-08-23 01:00","2020","08","23","01:00","12.4","","11.4","","94","","","","3","","3","","24.1","","98.79","","","","","","Mostly Cloudy"
"-82.47","49.41","KAPUSKASING A","6073976","2020-08-23 02:00","2020","08","23","02:00","11.7","","11.0","","95","","","","36","","4","","24.1","","98.81","","","","","","NA"
"-82.47","49.41","KAPUSKASING A","6073976","2020-08-23 03:00","2020","08","23","03:00","12.8","","11.9","","94","","","","6","","7","","24.1","","98.82","","","","","","NA"
"-82.47","49.41","KAPUSKASING A","6073976","2020-08-23 04:00","2020","08","23","04:00","12.6","","12.0","","96","","","","5","","7","","24.1","","98.88","","","","","","Mostly Cloudy"
"-82.47","49.41","KAPUSKASING A","6073976","2020-08-23 05:00","2020","08","23","05:00","12.3","","11.7","","96","","","","5","","9","","24.1","","98.90","","","","","","NA"
"-82.47","49.41","KAPUSKASING A","6073976","2020-08-23 06:00","2020","08","23","06:00","12.1","","11.4","","95","","","","5","","9","","24.1","","98.95","","","","","","NA"
"-82.47","49.41","KAPUSKASING A","6073976","2020-08-23 07:00","2020","08","23","07:00","12.4","","11.5","","94","","","","7","","11","","24.1","","98.98","","","","","","Cloudy"
"-82.47","49.41","KAPUSKASING A","6073976","2020-08-23 08:00","2020","08","23","08:00","12.8","","11.5","","92","","","","6","","13","","24.1","","99.03","","","","","","NA"
"-82.47","49.41","KAPUSKASING A","6073976","2020-08-23 09:00","2020","08","23","09:00","13.9","","11.7","","86","","","","6","","17","","24.1","","99.03","","","","","","NA"
"-82.47","49.41","KAPUSKASING A","6073976","2020-08-23 10:00","2020","08","23","10:00","16.4","","12.5","","78","","","","8","","12","","24.1","","99.04","","","","","","Mostly Cloudy"
"-82.47","49.41","KAPUSKASING A","6073976","2020-08-23 11:00","2020","08","23","11:00","17.0","","12.7","","75","","","","6","","16","","24.1","","99.07","","","","","","NA"
"-82.47","49.41","KAPUSKASING A","6073976","2020-08-23 12:00","2020","08","23","12:00","17.6","","13.3","","76","","","","5","","11","","24.1","","99.06","","","","","","NA"
"-82.47","49.41","KAPUSKASING A","6073976","2020-08-23 13:00","2020","08","23","13:00","20.9","","13.8","","63","","","","5","","19","","24.1","","99.00","","","","","","Mostly Cloudy"
"-82.47","49.41","KAPUSKASING A","6073976","2020-08-23 14:00","2020","08","23","14:00","21.4","","14.0","","62","","","","9","","10","","24.1","","98.95","","25","","","","NA"
"-82.47","49.41","KAPUSKASING A","6073976","2020-08-23 15:00","2020","08","23","15:00","23.0","","14.2","","57","","","","5","","8","","24.1","","98.90","","26","","","","NA"
"-82.47","49.41","KAPUSKASING A","6073976","2020-08-23 16:00","2020","08","23","16:00","23.4","","12.4","","50","","","","8","","10","","24.1","","98.88","","26","","","","Mainly Clear"
"-82.47","49.41","KAPUSKASING A","6073976","2020-08-23 17:00","2020","08","23","17:00","23.6","","13.5","","53","","","","6","","10","","24.1","","98.84","","27","","","","NA"
"-82.47","49.41","KAPUSKASING A","6073976","2020-08-23 18:00","2020","08","23","18:00","23.2","","14.1","","56","","","","8","","9","","24.1","","98.80","","27","","","","NA"
"-82.47","49.41","KAPUSKASING A","6073976","2020-08-23 19:00","2020","08","23","19:00","21.4","","14.2","","63","","","","4","","9","","24.1","","98.79","","25","","","","Mostly Cloudy"
"-82.47","49.41","KAPUSKASING A","6073976","2020-08-23 20:00","2020","08","23","20:00","19.6","","12.7","","64","","","","5","","14","","24.1","","98.80","","","","","","NA"
"-82.47","49.41","KAPUSKASING A","6073976","2020-08-23 21:00","2020","08","23","21:00","17.7","","11.9","","68","","","","7","","12","","24.1","","98.82","","","","","","NA"
"-82.47","49.41","KAPUSKASING A","6073976","2020-08-23 22:00","2020","08","23","22:00","16.5","","11.8","","73","","","","9","","10","","24.1","","98.82","","","","","","Mainly Clear"
"-82.47","49.41","KAPUSKASING A","6073976","2020-08-23 23:00","2020","08","23","23:00","14.9","","12.0","","82","","","","14","","3","","24.1","","98.81","","","","","","NA"
"-82.47","49.41","KAPUSKASING A","6073976","2020-08-24 00:00","2020","08","24","00:00","13.7","","11.5","","87","","","","12","","14","","24.1","","98.75","","","","","","NA"
"-82.47","49.41","KAPUSKASING A","6073976","2020-08-24 01:00","2020","08","24","01:00","14.3","","12.5","","89","","","","14","","10","","24.1","","98.68","","","","","","Clear"
"-82.47","49.41","KAPUSKASING A","6073976","2020-08-24 02:00","2020","08","24","02:00","14.1","","12.7","","91","","","","14","","13","","24.1","","98.60","","","","","","NA"
"-82.47","49.41","KAPUSKASING A","6073976","2020-08-24 03:00","2020","08","24","03:00","13.6","","12.6","","94","","","","14","","10","","24.1","","98.57","","","","","","NA"
"-82.47","49.41","KAPUSKASING A","6073976","2020-08-24 04:00","2020","08","24","04:00","14.8","","13.9","","94","","","","15","","12","","24.1","","98.55","","","","","","Cloudy"
"-82.47","49.41","KAPUSKASING A","6073976","2020-08-24 05:00","2020","08","24","05:00","16.0","","15.1","","95","","","","18","","10","","24.1","","98.47","","","","","","NA"
"-82.47","49.41","KAPUSKASING A","6073976","2020-08-24 06:00","2020","08","24","06:00","15.9","","15.2","","95","","","","19","","10","","9.7","","98.50","","","","","","Fog"
"-82.47","49.41","KAPUSKASING A","6073976","2020-08-24 07:00","2020","08","24","07:00","16.6","","15.6","","94","","","","19","","12","","14.5","","98.47","","","","","","Cloudy"
"-82.47","49.41","KAPUSKASING A","6073976","2020-08-24 08:00","2020","08","24","08:00","17.7","","16.2","","91","","","","21","","11","","16.1","","98.42","","","","","","NA"
"-82.47","49.41","KAPUSKASING A","6073976","2020-08-24 09:00","2020","08","24","09:00","19.1","","16.6","","85","","","","20","","22","","24.1","","98.32","","","","","","NA"
"-82.47","49.41","KAPUSKASING A","6073976","2020-08-24 10:00","2020","08","24","10:00","22.6","","17.7","","73","","","","22","","22","","24.1","","98.25","","28","","","","Mostly Cloudy"
"-82.47","49.41","KAPUSKASING A","6073976","2020-08-24 11:00","2020","08","24","11:00","24.9","","18.7","","68","","","","20","","26","","24.1","","98.17","","31","","","","NA"
"-82.47","49.41","KAPUSKASING A","6073976","2020-08-24 12:00","2020","08","24","12:00","24.4","","18.0","","67","","","","24","","21","","24.1","","98.16","","30","","","","NA"
"-82.47","49.41","KAPUSKASING A","6073976","2020-08-24 13:00","2020","08","24","13:00","26.5","","19.1","","63","","","","23","","19","","24.1","","98.03","","33","","","","Cloudy"
"-82.47","49.41","KAPUSKASING A","6073976","2020-08-24 14:00","2020","08","24","14:00","20.2","","17.2","","82","","","","1","","18","","24.1","","98.05","","26","","","","Thunderstorms,Rain Showers"
"-82.47","49.41","KAPUSKASING A","6073976","2020-08-24 15:00","2020","08","24","15:00","18.9","","18.1","","95","","","","35","","4","","12.9","","98.04","","","","","","Thunderstorms,Rain Showers"
"-82.47","49.41","KAPUSKASING A","6073976","2020-08-24 16:00","2020","08","24","16:00","20.7","","19.6","","93","","","","28","","11","","16.1","","98.05","","28","","","","Cloudy"
"-82.47","49.41","KAPUSKASING A","6073976","2020-08-24 17:00","2020","08","24","17:00","20.6","","18.9","","90","","","","32","","21","","16.1","","98.10","","27","","","","Rain Showers"
"-82.47","49.41","KAPUSKASING A","6073976","2020-08-24 18:00","2020","08","24","18:00","18.4","","16.2","","87","","","","31","","25","","24.1","","98.23","","","","","","NA"
"-82.47","49.41","KAPUSKASING A","6073976","2020-08-24 19:00","2020","08","24","19:00","16.4","","14.5","","89","","","","31","","26","","24.1","","98.31","","","","","","Drizzle"
"-82.47","49.41","KAPUSKASING A","6073976","2020-08-24 20:00","2020","08","24","20:00","15.5","","13.5","","88","","","","31","","16","","24.1","","98.40","","","","","","NA"
"-82.47","49.41","KAPUSKASING A","6073976","2020-08-24 21:00","2020","08","24","21:00","13.8","","12.6","","92","","","","32","","11","","24.1","","98.45","","","","","","NA"
"-82.47","49.41","KAPUSKASING A","6073976","2020-08-24 22:00","2020","08","24","22:00","13.0","","12.2","","95","","","","30","","6","","24.1","","98.47","","","","","","Mostly Cloudy"
"-82.47","49.41","KAPUSKASING A","6073976","2020-08-24 23:00","2020","08","24","23:00","11.8","","11.3","","97","","","","32","","10","","24.1","","98.52","","","","","","NA"
"-82.47","49.41","KAPUSKASING A","6073976","2020-08-25 00:00","2020","08","25","00:00","11.9","","11.1","","95","","","","33","","10","","24.1","","98.53","","","","","","NA"
"-82.47","49.41","KAPUSKASING A","6073976","2020-08-25 01:00","2020","08","25","01:00","12.1","","10.9","","93","","","","36","","15","","24.1","","98.55","","","","","","Mostly Cloudy"
"-82.47","49.41","KAPUSKASING A","6073976","2020-08-25 02:00","2020","08","25","02:00","11.7","","11.0","","95","","","","33","","8","","24.1","","98.58","","","","","","NA"
"-82.47","49.41","KAPUSKASING A","6073976","2020-08-25 03:00","2020","08","25","03:00","11.6","","10.9","","95","","","","33","","10","","24.1","","98.62","","","","","","NA"
"-82.47","49.41","KAPUSKASING A","6073976","2020-08-25 04:00","2020","08","25","04:00","11.2","","10.8","","97","","","","36","","11","","24.1","","98.65","","","","","","Drizzle"
"-82.47","49.41","KAPUSKASING A","6073976","2020-08-25 05:00","2020","08","25","05:00","10.8","","9.6","","92","","","","35","","19","","24.1","","98.73","","","","","","NA"
"-82.47","49.41","KAPUSKASING A","6073976","2020-08-25 06:00","2020","08","25","06:00","10.2","","9.2","","94","","","","36","","17","","9.7","","98.85","","","","","","Drizzle,Fog"
"-82.47","49.41","KAPUSKASING A","6073976","2020-08-25 07:00","2020","08","25","07:00","10.0","","8.4","","90","","","","35","","16","","19.3","","98.94","","","","","","Cloudy"
"-82.47","49.41","KAPUSKASING A","6073976","2020-08-25 08:00","2020","08","25","08:00","10.3","","7.9","","85","","","","1","","19","","24.1","","99.04","","","","","","NA"
"-82.47","49.41","KAPUSKASING A","6073976","2020-08-25 09:00","2020","08","25","09:00","10.6","","7.0","","78","","","","35","","23","","24.1","","99.09","","","","","","NA"
"-82.47","49.41","KAPUSKASING A","6073976","2020-08-25 10:00","2020","08","25","10:00","12.8","","7.3","","69","","","","2","","14","","24.1","","99.17","","","","","","Mostly Cloudy"
"-82.47","49.41","KAPUSKASING A","6073976","2020-08-25 11:00","2020","08","25","11:00","12.8","","5.8","","62","","","","3","","26","","24.1","","99.19","","","","","","NA"
"-82.47","49.41","KAPUSKASING A","6073976","2020-08-25 12:00","2020","08","25","12:00","13.2","","6.8","","65","","","","35","","17","","24.1","","99.21","","","","","","NA"
"-82.47","49.41","KAPUSKASING A","6073976","2020-08-25 13:00","2020","08","25","13:00","13.6","","6.2","","61","","","","36","","13","","24.1","","99.23","","","","","","Mostly Cloudy"
"-82.47","49.41","KAPUSKASING A","6073976","2020-08-25 14:00","2020","08","25","14:00","14.1","","5.8","","57","","","","35","","16","","24.1","","99.25","","","","","","NA"
"-82.47","49.41","KAPUSKASING A","6073976","2020-08-25 15:00","2020","08","25","15:00","14.9","","5.0","","51","","","","34","","20","","24.1","","99.23","","","","","","NA"
"-82.47","49.41","KAPUSKASING A","6073976","2020-08-25 16:00","2020","08","25","16:00","15.2","","5.7","","53","","","","36","","17","","24.1","","99.22","","","","","","Mostly Cloudy"
"-82.47","49.41","KAPUSKASING A","6073976","2020-08-25 17:00","2020","08","25","17:00","14.2","","5.5","","56","","","","35","","17","","24.1","","99.22","","","","","","NA"
"-82.47","49.41","KAPUSKASING A","6073976","2020-08-25 18:00","2020","08","25","18:00","13.8","","5.3","","56","","","","2","","13","","24.1","","99.23","","","","","","NA"
"-82.47","49.41","KAPUSKASING A","6073976","2020-08-25 19:00","2020","08","25","19:00","13.0","","6.0","","62","","","","36","","6","","24.1","","99.26","","","","","","Mostly Cloudy"
"-82.47","49.41","KAPUSKASING A","6073976","2020-08-25 20:00","2020","08","25","20:00","11.5","","6.5","","71","","","","30","","4","","24.1","","99.26","","","","","","NA"
"-82.47","49.41","KAPUSKASING A","6073976","2020-08-25 21:00","2020","08","25","21:00","8.8","","7.0","","88","","","","23","","8","","24.1","","99.24","","","","","","NA"
"-82.47","49.41","KAPUSKASING A","6073976","2020-08-25 22:00","2020","08","25","22:00","8.5","","6.7","","88","","","","26","","3","","24.1","","99.22","","","","","","Mostly Cloudy"
"-82.47","49.41","KAPUSKASING A","6073976","2020-08-25 23:00","2020","08","25","23:00","8.6","","7.1","","91","","","","0","","1","","24.1","","99.22","","","","","","NA"
"-82.47","49.41","KAPUSKASING A","6073976","2020-08-26 00:00","2020","08","26","00:00","8.1","","6.7","","91","","","","26","","6","","24.1","","99.22","","","","","","NA"
"-82.47","49.41","KAPUSKASING A","6073976","2020-08-26 01:00","2020","08","26","01:00","8.2","","6.8","","91","","","","25","","5","","24.1","","99.24","","","","","","Cloudy"
"-82.47","49.41","KAPUSKASING A","6073976","2020-08-26 02:00","2020","08","26","02:00","8.2","","6.5","","89","","","","25","","3","","24.1","","99.20","","","","","","NA"
"-82.47","49.41","KAPUSKASING A","6073976","2020-08-26 03:00","2020","08","26","03:00","7.9","","6.4","","90","","","","25","","4","","24.1","","99.17","","","","","","NA"
"-82.47","49.41","KAPUSKASING A","6073976","2020-08-26 04:00","2020","08","26","04:00","7.3","","6.3","","93","","","","19","","3","","24.1","","99.13","","","","","","Cloudy"
"-82.47","49.41","KAPUSKASING A","6073976","2020-08-26 05:00","2020","08","26","05:00","7.5","","6.1","","91","","","","0","","1","","24.1","","99.11","","","","","","NA"
"-82.47","49.41","KAPUSKASING A","6073976","2020-08-26 06:00","2020","08","26","06:00","7.3","","6.5","","95","","","","36","","2","","24.1","","99.10","","","","","","NA"
"-82.47","49.41","KAPUSKASING A","6073976","2020-08-26 07:00","2020","08","26","07:00","8.8","","7.2","","90","","","","25","","7","","24.1","","99.14","","","","","","Mainly Clear"
"-82.47","49.41","KAPUSKASING A","6073976","2020-08-26 08:00","2020","08","26","08:00","11.3","","7.7","","78","","","","23","","3","","24.1","","99.12","","","","","","NA"
"-82.47","49.41","KAPUSKASING A","6073976","2020-08-26 09:00","2020","08","26","09:00","13.3","","7.2","","67","","","","18","","5","","24.1","","99.05","","","","","","NA"
"-82.47","49.41","KAPUSKASING A","6073976","2020-08-26 10:00","2020","08","26","10:00","14.4","","4.8","","52","","","","17","","3","","24.1","","98.93","","","","","","Mostly Cloudy"
"-82.47","49.41","KAPUSKASING A","6073976","2020-08-26 11:00","2020","08","26","11:00","16.1","","5.8","","50","","","","15","","14","","24.1","","98.92","","","","","","NA"
"-82.47","49.41","KAPUSKASING A","6073976","2020-08-26 12:00","2020","08","26","12:00","16.1","","5.9","","50","","","","3","","3","","24.1","","98.85","","","","","","NA"
"-82.47","49.41","KAPUSKASING A","6073976","2020-08-26 13:00","2020","08","26","13:00","16.9","","5.8","","48","","","","14","","11","","24.1","","98.76","","","","","","Mostly Cloudy"
"-82.47","49.41","KAPUSKASING A","6073976","2020-08-26 14:00","2020","08","26","14:00","17.3","","5.9","","47","","","","17","","14","","24.1","","98.68","","","","","","NA"
"-82.47","49.41","KAPUSKASING A","6073976","2020-08-26 15:00","2020","08","26","15:00","17.3","","6.2","","48","","","","12","","9","","24.1","","98.62","","","","","","NA"
"-82.47","49.41","KAPUSKASING A","6073976","2020-08-26 16:00","2020","08","26","16:00","17.4","","6.4","","48","","","","14","","11","","24.1","","98.53","","","","","","Mostly Cloudy"
"-82.47","49.41","KAPUSKASING A","6073976","2020-08-26 17:00","2020","08","26","17:00","17.2","","7.2","","51","","","","14","","11","","24.1","","98.50","","","","","","NA"
"-82.47","49.41","KAPUSKASING A","6073976","2020-08-26 18:00","2020","08","26","18:00","16.3","","7.7","","56","","","","18","","11","","24.1","","98.46","","","","","","NA"
"-82.47","49.41","KAPUSKASING A","6073976","2020-08-26 19:00","2020","08","26","19:00","14.7","","10.0","","73","","","","11","","7","","24.1","","98.41","","","","","","Cloudy"
"-82.47","49.41","KAPUSKASING A","6073976","2020-08-26 20:00","2020","08","26","20:00","14.1","","9.0","","71","","","","11","","12","","24.1","","98.35","","","","","","NA"
"-82.47","49.41","KAPUSKASING A","6073976","2020-08-26 21:00","2020","08","26","21:00","13.8","","8.8","","71","","","","11","","11","","24.1","","98.29","","","","","","NA"
"-82.47","49.41","KAPUSKASING A","6073976","2020-08-26 22:00","2020","08","26","22:00","13.3","","9.0","","75","","","","12","","12","","16.1","","98.24","","","","","","Rain"
"-82.47","49.41","KAPUSKASING A","6073976","2020-08-26 23:00","2020","08","26","23:00","11.7","","10.3","","91","","","","10","","11","","12.9","","98.24","","","","","","Rain"
"-82.47","49.41","KAPUSKASING A","6073976","2020-08-27 00:00","2020","08","27","00:00","11.2","","10.0","","93","","","","13","","16","","14.5","","98.13","","","","","","Rain"
"-82.47","49.41","KAPUSKASING A","6073976","2020-08-27 01:00","2020","08","27","01:00","11.0","","10.0","","94","","","","12","","17","","4.8","","98.11","","","","","","Heavy Rain"
"-82.47","49.41","KAPUSKASING A","6073976","2020-08-27 02:00","2020","08","27","02:00","9.8","","8.9","","95","","","","13","","24","","6.4","","98.07","","","","","","Heavy Rain"
"-82.47","49.41","KAPUSKASING A","6073976","2020-08-27 03:00","2020","08","27","03:00","9.9","","8.9","","94","","","","15","","37","","14.5","","97.80","","","","","","Rain"
"-82.47","49.41","KAPUSKASING A","6073976","2020-08-27 04:00","2020","08","27","04:00","10.3","","9.5","","95","","","","5","","13","","19.3","","98.01","","","","","","Rain"
"-82.47","49.41","KAPUSKASING A","6073976","2020-08-27 05:00","2020","08","27","05:00","10.1","","9.4","","96","","","","7","","16","","24.1","","97.99","","","","","","NA"
"-82.47","49.41","KAPUSKASING A","6073976","2020-08-27 06:00","2020","08","27","06:00","9.2","","8.5","","95","","","","6","","15","","19.3","","98.03","","","","","","NA"
"-82.47","49.41","KAPUSKASING A","6073976","2020-08-27 07:00","2020","08","27","07:00","9.7","","8.6","","93","","","","9","","10","","24.1","","98.09","","","","","","Mostly Cloudy"
"-82.47","49.41","KAPUSKASING A","6073976","2020-08-27 08:00","2020","08","27","08:00","10.7","","8.7","","88","","","","9","","11","","24.1","","98.12","","","","","","NA"
"-82.47","49.41","KAPUSKASING A","6073976","2020-08-27 09:00","2020","08","27","09:00","11.0","","9.3","","89","","","","8","","13","","24.1","","98.14","","","","","","NA"
"-82.47","49.41","KAPUSKASING A","6073976","2020-08-27 10:00","2020","08","27","10:00","11.2","","9.7","","91","","","","5","","11","","16.1","","98.15","","","","","","Cloudy"
"-82.47","49.41","KAPUSKASING A","6073976","2020-08-27 11:00","2020","08","27","11:00","11.5","","9.5","","87","","","","8","","12","","16.1","","98.19","","","","","","NA"
"-82.47","49.41","KAPUSKASING A","6073976","2020-08-27 12:00","2020","08","27","12:00","12.1","","10.3","","89","","","","5","","7","","16.1","","98.20","","","","","","NA"
"-82.47","49.41","KAPUSKASING A","6073976","2020-08-27 13:00","2020","08","27","13:00","11.9","","10.5","","91","","","","7","","7","","8.1","","98.21","","","","","","Drizzle,Fog"
"-82.47","49.41","KAPUSKASING A","6073976","2020-08-27 14:00","2020","08","27","14:00","12.9","","10.7","","86","","","","36","","3","","16.1","","98.21","","","","","","NA"
"-82.47","49.41","KAPUSKASING A","6073976","2020-08-27 15:00","2020","08","27","15:00","13.1","","10.9","","86","","","","26","","4","","16.1","","98.23","","","","","","NA"
"-82.47","49.41","KAPUSKASING A","6073976","2020-08-27 16:00","2020","08","27","16:00","12.9","","11.3","","90","","","","30","","4","","6.4","","98.27","","","","","","Fog"
"-82.47","49.41","KAPUSKASING A","6073976","2020-08-27 17:00","2020","08","27","17:00","13.3","","11.0","","86","","","","29","","6","","9.7","","98.33","","","","","","Fog"
"-82.47","49.41","KAPUSKASING A","6073976","2020-08-27 18:00","2020","08","27","18:00","13.1","","11.4","","89","","","","32","","11","","16.1","","98.38","","","","","","NA"
"-82.47","49.41","KAPUSKASING A","6073976","2020-08-27 19:00","2020","08","27","19:00","12.5","","11.0","","90","","","","35","","7","","16.1","","98.40","","","","","","Cloudy"
"-82.47","49.41","KAPUSKASING A","6073976","2020-08-27 20:00","2020","08","27","20:00","11.7","","11.2","","97","","","","3","","5","","3.2","","98.41","","","","","","Drizzle,Fog"
"-82.47","49.41","KAPUSKASING A","6073976","2020-08-27 21:00","2020","08","27","21:00","11.8","","11.3","","97","","","","24","","5","","16.1","","98.45","","","","","","NA"
"-82.47","49.41","KAPUSKASING A","6073976","2020-08-27 22:00","2020","08","27","22:00","11.7","","11.3","","97","","","","30","","6","","24.1","","98.50","","","","","","Cloudy"
"-82.47","49.41","KAPUSKASING A","6073976","2020-08-27 23:00","2020","08","27","23:00","11.7","","11.3","","97","","","","28","","7","","12.9","","98.53","","","","","","NA"
"-82.47","49.41","KAPUSKASING A","6073976","2020-08-28 00:00","2020","08","28","00:00","11.6","","11.2","","97","","","","24","","8","","24.1","","98.50","","","","","","NA"
"-82.47","49.41","KAPUSKASING A","6073976","2020-08-28 01:00","2020","08","28","01:00","10.9","","10.6","","98","","","","25","","6","","24.1","","98.53","","","","","","Mostly Cloudy"
"-82.47","49.41","KAPUSKASING A","6073976","2020-08-28 02:00","2020","08","28","02:00","10.1","","9.9","","99","","","","25","","8","","4.8","","98.52","","","","","","Fog"
"-82.47","49.41","KAPUSKASING A","6073976","2020-08-28 03:00","2020","08","28","03:00","9.2","","9.0","","99","","","","36","","3","","4.8","","98.48","","","","","","Fog"
"-82.47","49.41","KAPUSKASING A","6073976","2020-08-28 04:00","2020","08","28","04:00","7.5","","7.4","","99","","","","23","","3","","0.8","","98.44","","","","","","Fog"
"-82.47","49.41","KAPUSKASING A","6073976","2020-08-28 05:00","2020","08","28","05:00","7.5","","7.3","","99","","","","24","","4","","4.8","","98.49","","","","","","Fog"
"-82.47","49.41","KAPUSKASING A","6073976","2020-08-28 06:00","2020","08","28","06:00","7.9","","7.8","","99","","","","21","","4","","24.1","","98.55","","","","","","NA"
"-82.47","49.41","KAPUSKASING A","6073976","2020-08-28 07:00","2020","08","28","07:00","9.4","","9.3","","99","","","","36","","3","","3.2","","98.57","","","","","","Fog"
"-82.47","49.41","KAPUSKASING A","6073976","2020-08-28 08:00","2020","08","28","08:00","10.5","","10.4","","99","","","","28","","8","","3.2","","98.58","","","","","","Fog"
"-82.47","49.41","KAPUSKASING A","6073976","2020-08-28 09:00","2020","08","28","09:00","11.1","","10.8","","98","","","","25","","9","","3.2","","98.60","","","","","","Fog"
"-82.47","49.41","KAPUSKASING A","6073976","2020-08-28 10:00","2020","08","28","10:00","13.4","","12.0","","91","","","","15","","4","","24.1","","98.54","","","","","","Mostly Cloudy"
"-82.47","49.41","KAPUSKASING A","6073976","2020-08-28 11:00","2020","08","28","11:00","14.8","","11.7","","82","","","","17","","9","","24.1","","98.42","","","","","","NA"
"-82.47","49.41","KAPUSKASING A","6073976","2020-08-28 12:00","2020","08","28","12:00","16.4","","11.6","","73","","","","16","","13","","24.1","","98.46","","","","","","NA"
"-82.47","49.41","KAPUSKASING A","6073976","2020-08-28 13:00","2020","08","28","13:00","16.9","","11.1","","68","","","","15","","10","","24.1","","98.40","","","","","","Mostly Cloudy"
"-82.47","49.41","KAPUSKASING A","6073976","2020-08-28 14:00","2020","08","28","14:00","17.8","","11.3","","65","","","","21","","12","","24.1","","98.37","","","","","","NA"
"-82.47","49.41","KAPUSKASING A","6073976","2020-08-28 15:00","2020","08","28","15:00","17.9","","11.2","","65","","","","19","","9","","24.1","","98.28","","","","","","NA"
"-82.47","49.41","KAPUSKASING A","6073976","2020-08-28 16:00","2020","08","28","16:00","17.6","","10.5","","63","","","","17","","9","","24.1","","98.14","","","","","","Mostly Cloudy"
"-82.47","49.41","KAPUSKASING A","6073976","2020-08-28 17:00","2020","08","28","17:00","18.3","","12.0","","66","","","","18","","13","","24.1","","98.09","","","","","","NA"
"-82.47","49.41","KAPUSKASING A","6073976","2020-08-28 18:00","2020","08","28","18:00","16.8","","12.1","","74","","","","20","","8","","24.1","","98.07","","","","","","NA"
"-82.47","49.41","KAPUSKASING A","6073976","2020-08-28 19:00","2020","08","28","19:00","15.4","","12.3","","82","","","","17","","8","","24.1","","98.02","","","","","","Mostly Cloudy"
"-82.47","49.41","KAPUSKASING A","6073976","2020-08-28 20:00","2020","08","28","20:00","13.2","","11.6","","90","","","","16","","10","","24.1","","97.97","","","","","","NA"
"-82.47","49.41","KAPUSKASING A","6073976","2020-08-28 21:00","2020","08","28","21:00","12.7","","10.9","","89","","","","17","","10","","24.1","","97.95","","","","","","NA"
"-82.47","49.41","KAPUSKASING A","6073976","2020-08-28 22:00","2020","08","28","22:00","12.3","","10.7","","90","","","","18","","8","","24.1","","97.92","","","","","","Mainly Clear"
"-82.47","49.41","KAPUSKASING A","6073976","2020-08-28 23:00","2020","08","28","23:00","11.7","","10.2","","91","","","","16","","11","","24.1","","97.86","","","","","","NA"
"-82.47","49.41","KAPUSKASING A","6073976","2020-08-29 00:00","2020","08","29","00:00","11.0","","10.2","","94","","","","12","","5","","24.1","","97.77","","","","","","NA"
"-82.47","49.41","KAPUSKASING A","6073976","2020-08-29 01:00","2020","08","29","01:00","11.2","","10.5","","96","","","","11","","7","","24.1","","97.71","","","","","","Mostly Cloudy"
"-82.47","49.41","KAPUSKASING A","6073976","2020-08-29 02:00","2020","08","29","02:00","11.0","","10.6","","97","","","","14","","8","","24.1","","97.63","","","","","","NA"
"-82.47","49.41","KAPUSKASING A","6073976","2020-08-29 03:00","2020","08","29","03:00","11.4","","11.0","","97","","","","13","","7","","24.1","","97.59","","","","","","NA"
"-82.47","49.41","KAPUSKASING A","6073976","2020-08-29 04:00","2020","08","29","04:00","11.6","","11.1","","96","","","","14","","9","","24.1","","97.54","","","","","","Cloudy"
"-82.47","49.41","KAPUSKASING A","6073976","2020-08-29 05:00","2020","08","29","05:00","11.6","","11.1","","97","","","","14","","8","","24.1","","97.50","","","","","","NA"
"-82.47","49.41","KAPUSKASING A","6073976","2020-08-29 06:00","2020","08","29","06:00","11.7","","11.1","","97","","","","16","","10","","16.1","","97.48","","","","","","Rain"
"-82.47","49.41","KAPUSKASING A","6073976","2020-08-29 07:00","2020","08","29","07:00","11.7","","11.3","","98","","","","15","","8","","3.2","","97.46","","","","","","Rain,Fog"
"-82.47","49.41","KAPUSKASING A","6073976","2020-08-29 08:00","2020","08","29","08:00","12.1","","11.8","","98","","","","17","","8","","3.2","","97.45","","","","","","Moderate Rain,Fog"
"-82.47","49.41","KAPUSKASING A","6073976","2020-08-29 09:00","2020","08","29","09:00","12.5","","12.3","","98","","","","14","","7","","3.2","","97.41","","","","","","Rain"
"-82.47","49.41","KAPUSKASING A","6073976","2020-08-29 10:00","2020","08","29","10:00","12.9","","12.6","","98","","","","22","","5","","4.8","","97.41","","","","","","Rain,Fog"
"-82.47","49.41","KAPUSKASING A","6073976","2020-08-29 11:00","2020","08","29","11:00","13.4","","12.7","","96","","","","21","","5","","9.7","","97.41","","","","","","Rain,Fog"
"-82.47","49.41","KAPUSKASING A","6073976","2020-08-29 12:00","2020","08","29","12:00","14.6","","13.6","","94","","","","5","","4","","9.7","","97.39","","","","","","Rain,Fog"
"-82.47","49.41","KAPUSKASING A","6073976","2020-08-29 13:00","2020","08","29","13:00","15.3","","14.1","","92","","","","7","","10","","24.1","","97.39","","","","","","Cloudy"
"-82.47","49.41","KAPUSKASING A","6073976","2020-08-29 14:00","2020","08","29","14:00","16.4","","13.9","","85","","","","9","","20","","24.1","","97.41","","","","","","NA"
"-82.47","49.41","KAPUSKASING A","6073976","2020-08-29 15:00","2020","08","29","15:00","16.1","","12.6","","80","","","","8","","22","","24.1","","97.44","","","","","","NA"
"-82.47","49.41","KAPUSKASING A","6073976","2020-08-29 16:00","2020","08","29","16:00","15.1","","13.1","","87","","","","6","","15","","24.1","","97.52","","","","","","Cloudy"
"-82.47","49.41","KAPUSKASING A","6073976","2020-08-29 17:00","2020","08","29","17:00","13.9","","12.3","","90","","","","4","","7","","24.1","","97.64","","","","","","NA"
"-82.47","49.41","KAPUSKASING A","6073976","2020-08-29 18:00","2020","08","29","18:00","14.4","","13.1","","91","","","","2","","6","","24.1","","97.74","","","","","","NA"
"-82.47","49.41","KAPUSKASING A","6073976","2020-08-29 19:00","2020","08","29","19:00","13.9","","12.8","","93","","","","1","","7","","16.1","","97.81","","","","","","Rain Showers"
"-82.47","49.41","KAPUSKASING A","6073976","2020-08-29 20:00","2020","08","29","20:00","13.5","","12.9","","96","","","","1","","10","","24.1","","97.92","","","","","","NA"
"-82.47","49.41","KAPUSKASING A","6073976","2020-08-29 21:00","2020","08","29","21:00","12.9","","11.9","","94","","","","1","","18","","19.3","","98.04","","","","","","NA"
"-82.47","49.41","KAPUSKASING A","6073976","2020-08-29 22:00","2020","08","29","22:00","11.9","","11.0","","94","","","","36","","20","","16.1","","98.10","","","","","","Cloudy"
"-82.47","49.41","KAPUSKASING A","6073976","2020-08-29 23:00","2020","08","29","23:00","10.9","","9.9","","94","","","","35","","17","","16.1","","98.21","","","","","","NA"
"-82.47","49.41","KAPUSKASING A","6073976","2020-08-30 00:00","2020","08","30","00:00","10.0","","8.8","","92","","","","35","","20","","19.3","","98.29","","","","","","NA"
"-82.47","49.41","KAPUSKASING A","6073976","2020-08-30 01:00","2020","08","30","01:00","9.2","","8.2","","93","","","","34","","17","","19.3","","98.32","","","","","","Mostly Cloudy"
"-82.47","49.41","KAPUSKASING A","6073976","2020-08-30 02:00","2020","08","30","02:00","9.1","","8.1","","94","","","","34","","14","","19.3","","98.36","","","","","","NA"
"-82.47","49.41","KAPUSKASING A","6073976","2020-08-30 03:00","2020","08","30","03:00","8.9","","7.9","","94","","","","33","","17","","19.3","","98.40","","","","","","NA"
"-82.47","49.41","KAPUSKASING A","6073976","2020-08-30 04:00","2020","08","30","04:00","8.7","","7.8","","94","","","","33","","17","","19.3","","98.45","","","","","","Cloudy"
"-82.47","49.41","KAPUSKASING A","6073976","2020-08-30 05:00","2020","08","30","05:00","8.6","","7.6","","93","","","","34","","16","","19.3","","98.50","","","","","","NA"
"-82.47","49.41","KAPUSKASING A","6073976","2020-08-30 06:00","2020","08","30","06:00","8.5","","7.6","","94","","","","33","","13","","19.3","","98.55","","","","","","NA"
"-82.47","49.41","KAPUSKASING A","6073976","2020-08-30 07:00","2020","08","30","07:00","8.9","","7.3","","90","","","","34","","14","","24.1","","98.67","","","","","","Cloudy"
"-82.47","49.41","KAPUSKASING A","6073976","2020-08-30 08:00","2020","08","30","08:00","8.4","","6.8","","89","","","","34","","14","","24.1","","98.73","","","","","","NA"
"-82.47","49.41","KAPUSKASING A","6073976","2020-08-30 09:00","2020","08","30","09:00","8.6","","6.5","","86","","","","36","","19","","24.1","","98.78","","","","","","NA"
"-82.47","49.41","KAPUSKASING A","6073976","2020-08-30 10:00","2020","08","30","10:00","9.4","","6.5","","82","","","","1","","16","","24.1","","98.81","","","","","","Cloudy"
"-82.47","49.41","KAPUSKASING A","6073976","2020-08-30 11:00","2020","08","30","11:00","10.0","","7.0","","82","","","","36","","12","","24.1","","98.82","","","","","","NA"
"-82.47","49.41","KAPUSKASING A","6073976","2020-08-30 12:00","2020","08","30","12:00","10.8","","6.1","","73","","","","36","","3","","24.1","","98.85","","","","","","NA"
"-82.47","49.41","KAPUSKASING A","6073976","2020-08-30 13:00","2020","08","30","13:00","11.7","","5.5","","66","","","","33","","9","","24.1","","98.87","","","","","","Mostly Cloudy"
"-82.47","49.41","KAPUSKASING A","6073976","2020-08-30 14:00","2020","08","30","14:00","12.1","","6.8","","70","","","","3","","3","","24.1","","98.83","","","","","","NA"
"-82.47","49.41","KAPUSKASING A","6073976","2020-08-30 15:00","2020","08","30","15:00","13.9","","5.3","","56","","","","1","","9","","24.1","","98.79","","","","","","NA"
"-82.47","49.41","KAPUSKASING A","6073976","2020-08-30 16:00","2020","08","30","16:00","12.8","","4.8","","58","","","","25","","7","","24.1","","98.78","","","","","","Mostly Cloudy"
"-82.47","49.41","KAPUSKASING A","6073976","2020-08-30 17:00","2020","08","30","17:00","14.2","","6.0","","58","","","","24","","10","","24.1","","98.77","","","","","","NA"
"-82.47","49.41","KAPUSKASING A","6073976","2020-08-30 18:00","2020","08","30","18:00","13.3","","6.3","","62","","","","24","","7","","24.1","","98.77","","","","","","NA"
"-82.47","49.41","KAPUSKASING A","6073976","2020-08-30 19:00","2020","08","30","19:00","11.6","","7.4","","75","","","","25","","4","","24.1","","98.76","","","","","","Mainly Clear"
"-82.47","49.41","KAPUSKASING A","6073976","2020-08-30 20:00","2020","08","30","20:00","9.3","","6.9","","85","","","","24","","7","","24.1","","98.79","","","","","","NA"
"-82.47","49.41","KAPUSKASING A","6073976","2020-08-30 21:00","2020","08","30","21:00","6.3","","5.3","","93","","","","22","","7","","24.1","","98.82","","","","","","NA"
"-82.47","49.41","KAPUSKASING A","6073976","2020-08-30 22:00","2020","08","30","22:00","7.2","","6.0","","92","","","","20","","4","","24.1","","98.83","","","","","","Clear"
"-82.47","49.41","KAPUSKASING A","6073976","2020-08-30 23:00","2020","08","30","23:00","5.2","","4.9","","97","","","","12","","5","","24.1","","98.83","","","","","","NA"
"-82.47","49.41","KAPUSKASING A","6073976","2020-08-31 00:00","2020","08","31","00:00","4.4","","4.1","","98","","","","19","","4","","24.1","","98.80","","","","","","NA"
"-82.47","49.41","KAPUSKASING A","6073976","2020-08-31 01:00","2020","08","31","01:00","5.0","","4.6","","98","","","","36","","2","","24.1","","98.81","","","","","","Clear"
"-82.47","49.41","KAPUSKASING A","6073976","2020-08-31 02:00","2020","08","31","02:00","3.6","","3.3","","98","","","","10","","7","","24.1","","98.81","","","","","","NA"
"-82.47","49.41","KAPUSKASING A","6073976","2020-08-31 03:00","2020","08","31","03:00","4.3","","4.0","","98","","","","11","","9","","24.1","","98.82","","","","","","NA"
"-82.47","49.41","KAPUSKASING A","6073976","2020-08-31 04:00","2020","08","31","04:00","5.2","","4.8","","97","","","","11","","9","","24.1","","98.81","","","","","","Mostly Cloudy"
"-82.47","49.41","KAPUSKASING A","6073976","2020-08-31 05:00","2020","08","31","05:00","6.2","","5.7","","97","","","","12","","11","","24.1","","98.79","","","","","","NA"
"-82.47","49.41","KAPUSKASING A","6073976","2020-08-31 06:00","2020","08","31","06:00","6.9","","6.1","","94","","","","12","","11","","24.1","","98.77","","","","","","NA"
"-82.47","49.41","KAPUSKASING A","6073976","2020-08-31 07:00","2020","08","31","07:00","8.8","","6.8","","88","","","","15","","16","","24.1","","98.71","","","","","","Cloudy"
"-82.47","49.41","KAPUSKASING A","6073976","2020-08-31 08:00","2020","08","31","08:00","11.0","","8.3","","83","","","","18","","18","","24.1","","98.67","","","","","","NA"
"-82.47","49.41","KAPUSKASING A","6073976","2020-08-31 09:00","2020","08","31","09:00","13.4","","10.0","","80","","","","18","","18","","24.1","","98.61","","","","","","NA"
"-82.47","49.41","KAPUSKASING A","6073976","2020-08-31 10:00","2020","08","31","10:00","16.5","","11.3","","71","","","","17","","23","","24.1","","98.54","","","","","","Mainly Clear"
"-82.47","49.41","KAPUSKASING A","6073976","2020-08-31 11:00","2020","08","31","11:00","19.3","","12.3","","64","","","","18","","22","","24.1","","98.45","","","","","","NA"
"-82.47","49.41","KAPUSKASING A","6073976","2020-08-31 12:00","2020","08","31","12:00","20.1","","11.6","","58","","","","17","","22","","24.1","","98.35","","","","","","NA"
"-82.47","49.41","KAPUSKASING A","6073976","2020-08-31 13:00","2020","08","31","13:00","20.8","","10.6","","52","","","","19","","32","","24.1","","98.30","","","","","","Mostly Cloudy"
"-82.47","49.41","KAPUSKASING A","6073976","2020-08-31 14:00","2020","08","31","14:00","20.3","","9.6","","50","","","","18","","33","","24.1","","98.21","","","","","","NA"
"-82.47","49.41","KAPUSKASING A","6073976","2020-08-31 15:00","2020","08","31","15:00","20.3","","9.9","","51","","","","17","","28","","24.1","","98.16","","","","","","NA"
"-82.47","49.41","KAPUSKASING A","6073976","2020-08-31 16:00","2020","08","31","16:00","20.5","","9.9","","50","","","","17","","32","","24.1","","98.04","","","","","","Mostly Cloudy"
"-82.47","49.41","KAPUSKASING A","6073976","2020-08-31 17:00","2020","08","31","17:00","19.6","","11.1","","58","","","","17","","15","","24.1","","98.01","","","","","","NA"
"-82.47","49.41","KAPUSKASING A","6073976","2020-08-31 18:00","2020","08","31","18:00","18.8","","11.0","","60","","","","16","","21","","24.1","","97.96","","","","","","NA"
"-82.47","49.41","KAPUSKASING A","6073976","2020-08-31 19:00","2020","08","31","19:00","16.7","","12.3","","75","","","","16","","17","","24.1","","97.94","","","","","","Rain"
"-82.47","49.41","KAPUSKASING A","6073976","2020-08-31 20:00","2020","08","31","20:00","16.0","","13.3","","84","","","","17","","20","","24.1","","97.91","","","","","","NA"
"-82.47","49.41","KAPUSKASING A","6073976","2020-08-31 21:00","2020","08","31","21:00","15.7","","13.5","","86","","","","17","","30","","9.7","","97.86","","","","","","Rain,Fog"
"-82.47","49.41","KAPUSKASING A","6073976","2020-08-31 22:00","2020","08","31","22:00","15.8","","12.9","","83","","","","17","","31","","24.1","","97.82","","","","","","Mostly Cloudy"
"-82.47","49.41","KAPUSKASING A","6073976","2020-08-31 23:00","2020","08","31","23:00","16.1","","12.9","","81","","","","22","","21","","24.1","","97.90","","","","","","NA"
