"Longitude (x)","Latitude (y)","Station Name","Climate ID","Date/Time (LST)","Year","Month","Day","Time (LST)","Temp (°C)","Temp Flag","Dew Point Temp (°C)","Dew Point Temp Flag","Rel Hum (%)","Rel Hum Flag","Precip. Amount (mm)","Precip. Amount Flag","Wind Dir (10s deg)","Wind Dir Flag","Wind Spd (km/h)","Wind Spd Flag","Visibility (km)","Visibility Flag","Stn Press (kPa)","Stn Press Flag","Hmdx","Hmdx Flag","Wind Chill","Wind Chill Flag","Weather"
"-111.96","60.02","FORT SMITH A","2202201","2018-08-01 00:00","2018","08","01","00:00","14.4","","10.1","","75","","","","17","","10","","24.1","","98.83","","","","","","NA"
"-111.96","60.02","FORT SMITH A","2202201","2018-08-01 01:00","2018","08","01","01:00","13.4","","9.9","","79","","","","17","","9","","24.1","","98.79","","","","","","NA"
"-111.96","60.02","FORT SMITH A","2202201","2018-08-01 02:00","2018","08","01","02:00","13.2","","10.0","","81","","","","17","","11","","24.1","","98.73","","","","","","Mainly Clear"
"-111.96","60.02","FORT SMITH A","2202201","2018-08-01 03:00","2018","08","01","03:00","12.4","","10.1","","86","","","","16","","8","","24.1","","98.66","","","","","","NA"
"-111.96","60.02","FORT SMITH A","2202201","2018-08-01 04:00","2018","08","01","04:00","11.6","","9.9","","89","","","","15","","7","","24.1","","98.61","","","","","","NA"
"-111.96","60.02","FORT SMITH A","2202201","2018-08-01 05:00","2018","08","01","05:00","12.1","","10.2","","88","","","","16","","6","","24.1","","98.60","","","","","","Mainly Clear"
"-111.96","60.02","FORT SMITH A","2202201","2018-08-01 06:00","2018","08","01","06:00","13.9","","11.0","","82","","","","17","","7","","24.1","","98.57","","","","","","NA"
"-111.96","60.02","FORT SMITH A","2202201","2018-08-01 07:00","2018","08","01","07:00","17.1","","12.1","","72","","","","25","","7","","24.1","","98.54","","","","","","NA"
"-111.96","60.02","FORT SMITH A","2202201","2018-08-01 08:00","2018","08","01","08:00","18.1","","12.6","","70","","","","19","","4","","24.1","","98.49","","","","","","Mostly Cloudy"
"-111.96","60.02","FORT SMITH A","2202201","2018-08-01 09:00","2018","08","01","09:00","18.9","","12.9","","68","","","","29","","7","","24.1","","98.48","","","","","","NA"
"-111.96","60.02","FORT SMITH A","2202201","2018-08-01 10:00","2018","08","01","10:00","19.7","","13.3","","66","","","","36","","2","","24.1","","98.44","","","","","","NA"
"-111.96","60.02","FORT SMITH A","2202201","2018-08-01 11:00","2018","08","01","11:00","22.2","","13.6","","58","","","","21","","6","","24.1","","98.41","","25","","","","Mostly Cloudy"
"-111.96","60.02","FORT SMITH A","2202201","2018-08-01 12:00","2018","08","01","12:00","23.7","","13.0","","50","","","","24","","7","","24.1","","98.36","","26","","","","NA"
"-111.96","60.02","FORT SMITH A","2202201","2018-08-01 13:00","2018","08","01","13:00","25.0","","11.9","","44","","","","26","","9","","24.1","","98.31","","27","","","","NA"
"-111.96","60.02","FORT SMITH A","2202201","2018-08-01 14:00","2018","08","01","14:00","25.9","","12.4","","43","","","","31","","14","","24.1","","98.26","","28","","","","Mostly Cloudy"
"-111.96","60.02","FORT SMITH A","2202201","2018-08-01 15:00","2018","08","01","15:00","26.7","","12.1","","40","","","","29","","23","","24.1","","98.23","","29","","","","NA"
"-111.96","60.02","FORT SMITH A","2202201","2018-08-01 16:00","2018","08","01","16:00","26.4","","12.4","","41","","","","36","","17","","24.1","","98.22","","29","","","","NA"
"-111.96","60.02","FORT SMITH A","2202201","2018-08-01 17:00","2018","08","01","17:00","25.2","","11.0","","40","","","","31","","17","","24.1","","98.22","","27","","","","Mostly Cloudy"
"-111.96","60.02","FORT SMITH A","2202201","2018-08-01 18:00","2018","08","01","18:00","24.6","","8.8","","36","","","","35","","17","","24.1","","98.22","","25","","","","NA"
"-111.96","60.02","FORT SMITH A","2202201","2018-08-01 19:00","2018","08","01","19:00","23.2","","9.0","","40","","","","35","","17","","24.1","","98.20","","","","","","NA"
"-111.96","60.02","FORT SMITH A","2202201","2018-08-01 20:00","2018","08","01","20:00","21.4","","10.1","","48","","","","36","","9","","24.1","","98.20","","","","","","Mostly Cloudy"
"-111.96","60.02","FORT SMITH A","2202201","2018-08-01 21:00","2018","08","01","21:00","19.0","","10.5","","57","","","","2","","3","","24.1","","98.20","","","","","","NA"
"-111.96","60.02","FORT SMITH A","2202201","2018-08-01 22:00","2018","08","01","22:00","15.5","","11.0","","74","","","","31","","5","","24.1","","98.23","","","","","","NA"
"-111.96","60.02","FORT SMITH A","2202201","2018-08-01 23:00","2018","08","01","23:00","15.3","","10.3","","72","","","","21","","3","","24.1","","98.25","","","","","","Mainly Clear"
"-111.96","60.02","FORT SMITH A","2202201","2018-08-02 00:00","2018","08","02","00:00","12.8","","9.9","","82","","","","36","","1","","24.1","","98.25","","","","","","NA"
"-111.96","60.02","FORT SMITH A","2202201","2018-08-02 01:00","2018","08","02","01:00","12.0","","9.6","","85","","","","36","","2","","24.1","","98.25","","","","","","NA"
"-111.96","60.02","FORT SMITH A","2202201","2018-08-02 02:00","2018","08","02","02:00","11.7","","8.9","","83","","","","15","","4","","24.1","","98.22","","","","","","Mainly Clear"
"-111.96","60.02","FORT SMITH A","2202201","2018-08-02 03:00","2018","08","02","03:00","11.0","","8.4","","84","","","","36","","1","","24.1","","98.22","","","","","","NA"
"-111.96","60.02","FORT SMITH A","2202201","2018-08-02 04:00","2018","08","02","04:00","10.3","","7.7","","83","","","","17","","4","","24.1","","98.22","","","","","","NA"
"-111.96","60.02","FORT SMITH A","2202201","2018-08-02 05:00","2018","08","02","05:00","9.7","","8.3","","91","","","","36","","1","","24.1","","98.18","","","","","","Mainly Clear"
"-111.96","60.02","FORT SMITH A","2202201","2018-08-02 06:00","2018","08","02","06:00","12.6","","9.9","","83","","","","17","","6","","24.1","","98.21","","","","","","NA"
"-111.96","60.02","FORT SMITH A","2202201","2018-08-02 07:00","2018","08","02","07:00","15.5","","11.6","","77","","","","36","","2","","24.1","","98.21","","","","","","NA"
"-111.96","60.02","FORT SMITH A","2202201","2018-08-02 08:00","2018","08","02","08:00","18.5","","11.9","","65","","","","16","","9","","24.1","","98.17","","","","","","Mostly Cloudy"
"-111.96","60.02","FORT SMITH A","2202201","2018-08-02 09:00","2018","08","02","09:00","20.9","","11.9","","56","","","","17","","17","","24.1","","98.12","","","","","","NA"
"-111.96","60.02","FORT SMITH A","2202201","2018-08-02 10:00","2018","08","02","10:00","22.5","","11.8","","50","","","","18","","16","","24.1","","98.10","","25","","","","NA"
"-111.96","60.02","FORT SMITH A","2202201","2018-08-02 11:00","2018","08","02","11:00","23.5","","11.9","","48","","","","17","","19","","24.1","","98.05","","26","","","","Mostly Cloudy"
"-111.96","60.02","FORT SMITH A","2202201","2018-08-02 12:00","2018","08","02","12:00","24.2","","12.5","","47","","","","17","","12","","24.1","","98.01","","27","","","","NA"
"-111.96","60.02","FORT SMITH A","2202201","2018-08-02 13:00","2018","08","02","13:00","25.6","","11.3","","40","","","","20","","9","","24.1","","97.94","","28","","","","NA"
"-111.96","60.02","FORT SMITH A","2202201","2018-08-02 14:00","2018","08","02","14:00","26.1","","11.9","","41","","","","21","","15","","24.1","","97.89","","28","","","","Mostly Cloudy"
"-111.96","60.02","FORT SMITH A","2202201","2018-08-02 15:00","2018","08","02","15:00","26.8","","11.5","","38","","","","17","","19","","24.1","","97.82","","29","","","","NA"
"-111.96","60.02","FORT SMITH A","2202201","2018-08-02 16:00","2018","08","02","16:00","27.4","","12.5","","39","","","","17","","14","","24.1","","97.75","","30","","","","NA"
"-111.96","60.02","FORT SMITH A","2202201","2018-08-02 17:00","2018","08","02","17:00","27.0","","12.9","","41","","","","17","","12","","24.1","","97.68","","30","","","","Mostly Cloudy"
"-111.96","60.02","FORT SMITH A","2202201","2018-08-02 18:00","2018","08","02","18:00","26.9","","12.9","","42","","","","16","","16","","24.1","","97.63","","30","","","","NA"
"-111.96","60.02","FORT SMITH A","2202201","2018-08-02 19:00","2018","08","02","19:00","25.2","","14.6","","51","","","","20","","19","","24.1","","97.60","","29","","","","NA"
"-111.96","60.02","FORT SMITH A","2202201","2018-08-02 20:00","2018","08","02","20:00","23.4","","13.7","","54","","","","16","","9","","24.1","","97.55","","27","","","","Mainly Clear"
"-111.96","60.02","FORT SMITH A","2202201","2018-08-02 21:00","2018","08","02","21:00","21.9","","14.3","","62","","","","17","","12","","24.1","","97.52","","25","","","","NA"
"-111.96","60.02","FORT SMITH A","2202201","2018-08-02 22:00","2018","08","02","22:00","21.4","","14.4","","64","","","","17","","14","","24.1","","97.51","","25","","","","NA"
"-111.96","60.02","FORT SMITH A","2202201","2018-08-02 23:00","2018","08","02","23:00","20.6","","14.1","","66","","","","16","","14","","24.1","","97.49","","","","","","Mostly Cloudy"
"-111.96","60.02","FORT SMITH A","2202201","2018-08-03 00:00","2018","08","03","00:00","19.4","","14.2","","72","","","","16","","14","","24.1","","97.44","","","","","","NA"
"-111.96","60.02","FORT SMITH A","2202201","2018-08-03 01:00","2018","08","03","01:00","18.4","","13.6","","73","","","","17","","15","","24.1","","97.41","","","","","","NA"
"-111.96","60.02","FORT SMITH A","2202201","2018-08-03 02:00","2018","08","03","02:00","17.5","","13.2","","76","","","","17","","16","","24.1","","97.39","","","","","","Clear"
"-111.96","60.02","FORT SMITH A","2202201","2018-08-03 03:00","2018","08","03","03:00","16.4","","13.1","","80","","","","16","","9","","24.1","","97.36","","","","","","NA"
"-111.96","60.02","FORT SMITH A","2202201","2018-08-03 04:00","2018","08","03","04:00","16.4","","13.4","","82","","","","16","","7","","24.1","","97.40","","","","","","NA"
"-111.96","60.02","FORT SMITH A","2202201","2018-08-03 05:00","2018","08","03","05:00","15.1","","12.9","","87","","","","15","","9","","24.1","","97.43","","","","","","Mainly Clear"
"-111.96","60.02","FORT SMITH A","2202201","2018-08-03 06:00","2018","08","03","06:00","16.3","","13.3","","82","","","","14","","4","","24.1","","97.42","","","","","","NA"
"-111.96","60.02","FORT SMITH A","2202201","2018-08-03 07:00","2018","08","03","07:00","18.6","","14.1","","75","","","","16","","10","","24.1","","97.33","","","","","","NA"
"-111.96","60.02","FORT SMITH A","2202201","2018-08-03 08:00","2018","08","03","08:00","19.0","","14.5","","75","","","","20","","3","","24.1","","97.29","","","","","","Mostly Cloudy"
"-111.96","60.02","FORT SMITH A","2202201","2018-08-03 09:00","2018","08","03","09:00","20.3","","15.2","","72","","","","36","","2","","24.1","","97.36","","","","","","NA"
"-111.96","60.02","FORT SMITH A","2202201","2018-08-03 10:00","2018","08","03","10:00","21.9","","15.7","","67","","","","32","","11","","24.1","","97.43","","26","","","","NA"
"-111.96","60.02","FORT SMITH A","2202201","2018-08-03 11:00","2018","08","03","11:00","24.3","","16.1","","60","","","","30","","13","","24.1","","97.46","","29","","","","Mostly Cloudy"
"-111.96","60.02","FORT SMITH A","2202201","2018-08-03 12:00","2018","08","03","12:00","24.7","","16.1","","58","","","","31","","16","","24.1","","97.49","","29","","","","NA"
"-111.96","60.02","FORT SMITH A","2202201","2018-08-03 13:00","2018","08","03","13:00","24.8","","16.1","","58","","","","31","","16","","24.1","","97.53","","29","","","","NA"
"-111.96","60.02","FORT SMITH A","2202201","2018-08-03 14:00","2018","08","03","14:00","21.3","","19.0","","87","","","","30","","11","","24.1","","97.57","","28","","","","Rain Showers"
"-111.96","60.02","FORT SMITH A","2202201","2018-08-03 15:00","2018","08","03","15:00","22.4","","16.4","","68","","","","32","","16","","24.1","","97.64","","27","","","","NA"
"-111.96","60.02","FORT SMITH A","2202201","2018-08-03 16:00","2018","08","03","16:00","22.4","","15.5","","65","","","","34","","21","","24.1","","97.71","","27","","","","NA"
"-111.96","60.02","FORT SMITH A","2202201","2018-08-03 17:00","2018","08","03","17:00","21.6","","14.7","","65","","","","32","","18","","24.1","","97.80","","25","","","","Cloudy"
"-111.96","60.02","FORT SMITH A","2202201","2018-08-03 18:00","2018","08","03","18:00","20.6","","14.6","","68","","","","33","","19","","24.1","","97.85","","","","","","NA"
"-111.96","60.02","FORT SMITH A","2202201","2018-08-03 19:00","2018","08","03","19:00","20.0","","13.5","","66","","","","33","","16","","24.1","","97.93","","","","","","NA"
"-111.96","60.02","FORT SMITH A","2202201","2018-08-03 20:00","2018","08","03","20:00","18.3","","13.0","","71","","","","33","","15","","24.1","","98.00","","","","","","Mostly Cloudy"
"-111.96","60.02","FORT SMITH A","2202201","2018-08-03 21:00","2018","08","03","21:00","17.0","","12.3","","74","","","","33","","13","","24.1","","98.07","","","","","","NA"
"-111.96","60.02","FORT SMITH A","2202201","2018-08-03 22:00","2018","08","03","22:00","15.6","","11.8","","78","","","","32","","9","","24.1","","98.15","","","","","","NA"
"-111.96","60.02","FORT SMITH A","2202201","2018-08-03 23:00","2018","08","03","23:00","14.7","","10.6","","76","","","","33","","12","","24.1","","98.21","","","","","","Mainly Clear"
"-111.96","60.02","FORT SMITH A","2202201","2018-08-04 00:00","2018","08","04","00:00","13.9","","10.3","","79","","","","35","","10","","24.1","","98.26","","","","","","NA"
"-111.96","60.02","FORT SMITH A","2202201","2018-08-04 01:00","2018","08","04","01:00","13.3","","9.6","","78","","","","34","","11","","24.1","","98.29","","","","","","NA"
"-111.96","60.02","FORT SMITH A","2202201","2018-08-04 02:00","2018","08","04","02:00","12.7","","9.3","","80","","","","36","","10","","24.1","","98.34","","","","","","Mostly Cloudy"
"-111.96","60.02","FORT SMITH A","2202201","2018-08-04 03:00","2018","08","04","03:00","12.5","","8.8","","78","","","","35","","12","","24.1","","98.42","","","","","","NA"
"-111.96","60.02","FORT SMITH A","2202201","2018-08-04 04:00","2018","08","04","04:00","12.0","","8.7","","80","","","","35","","9","","24.1","","98.51","","","","","","NA"
"-111.96","60.02","FORT SMITH A","2202201","2018-08-04 05:00","2018","08","04","05:00","12.0","","8.3","","78","","","","35","","11","","24.1","","98.60","","","","","","Mostly Cloudy"
"-111.96","60.02","FORT SMITH A","2202201","2018-08-04 06:00","2018","08","04","06:00","12.0","","8.3","","78","","","","1","","13","","24.1","","98.67","","","","","","NA"
"-111.96","60.02","FORT SMITH A","2202201","2018-08-04 07:00","2018","08","04","07:00","12.1","","8.2","","77","","","","2","","13","","24.1","","98.73","","","","","","NA"
"-111.96","60.02","FORT SMITH A","2202201","2018-08-04 08:00","2018","08","04","08:00","14.1","","8.0","","67","","","","3","","8","","24.1","","98.76","","","","","","Mostly Cloudy"
"-111.96","60.02","FORT SMITH A","2202201","2018-08-04 09:00","2018","08","04","09:00","14.2","","6.8","","60","","","","3","","12","","24.1","","98.82","","","","","","NA"
"-111.96","60.02","FORT SMITH A","2202201","2018-08-04 10:00","2018","08","04","10:00","14.7","","5.5","","54","","","","1","","13","","24.1","","98.83","","","","","","NA"
"-111.96","60.02","FORT SMITH A","2202201","2018-08-04 11:00","2018","08","04","11:00","15.6","","5.8","","52","","","","34","","14","","24.1","","98.84","","","","","","Mainly Clear"
"-111.96","60.02","FORT SMITH A","2202201","2018-08-04 12:00","2018","08","04","12:00","16.4","","5.1","","47","","","","5","","9","","24.1","","98.86","","","","","","NA"
"-111.96","60.02","FORT SMITH A","2202201","2018-08-04 13:00","2018","08","04","13:00","17.3","","4.2","","42","","","","2","","14","","24.1","","98.89","","","","","","NA"
"-111.96","60.02","FORT SMITH A","2202201","2018-08-04 14:00","2018","08","04","14:00","17.5","","4.5","","42","","","","34","","8","","24.1","","98.91","","","","","","Mostly Cloudy"
"-111.96","60.02","FORT SMITH A","2202201","2018-08-04 15:00","2018","08","04","15:00","17.4","","5.5","","45","","","","1","","15","","24.1","","98.94","","","","","","NA"
"-111.96","60.02","FORT SMITH A","2202201","2018-08-04 16:00","2018","08","04","16:00","16.3","","5.1","","47","","","","1","","12","","24.1","","98.98","","","","","","NA"
"-111.96","60.02","FORT SMITH A","2202201","2018-08-04 17:00","2018","08","04","17:00","16.9","","5.0","","45","","","","36","","9","","24.1","","98.97","","","","","","Mostly Cloudy"
"-111.96","60.02","FORT SMITH A","2202201","2018-08-04 18:00","2018","08","04","18:00","17.3","","4.8","","43","","","","35","","5","","24.1","","98.95","","","","","","NA"
"-111.96","60.02","FORT SMITH A","2202201","2018-08-04 19:00","2018","08","04","19:00","16.9","","3.6","","41","","","","34","","6","","24.1","","98.94","","","","","","NA"
"-111.96","60.02","FORT SMITH A","2202201","2018-08-04 20:00","2018","08","04","20:00","13.9","","5.3","","56","","","","36","","4","","24.1","","98.94","","","","","","Clear"
"-111.96","60.02","FORT SMITH A","2202201","2018-08-04 21:00","2018","08","04","21:00","11.3","","5.6","","68","","","","36","","2","","24.1","","98.99","","","","","","NA"
"-111.96","60.02","FORT SMITH A","2202201","2018-08-04 22:00","2018","08","04","22:00","9.7","","5.1","","73","","","","36","","2","","24.1","","99.00","","","","","","NA"
"-111.96","60.02","FORT SMITH A","2202201","2018-08-04 23:00","2018","08","04","23:00","8.5","","4.0","","73","","","","36","","3","","24.1","","99.01","","","","","","Mostly Cloudy"
"-111.96","60.02","FORT SMITH A","2202201","2018-08-05 00:00","2018","08","05","00:00","7.2","","3.4","","77","","","","18","","4","","24.1","","99.02","","","","","","NA"
"-111.96","60.02","FORT SMITH A","2202201","2018-08-05 01:00","2018","08","05","01:00","5.7","","2.7","","81","","","","13","","4","","24.1","","99.02","","","","","","NA"
"-111.96","60.02","FORT SMITH A","2202201","2018-08-05 02:00","2018","08","05","02:00","5.1","","3.0","","87","","","","36","","3","","24.1","","99.00","","","","","","Mainly Clear"
"-111.96","60.02","FORT SMITH A","2202201","2018-08-05 03:00","2018","08","05","03:00","5.0","","2.5","","84","","","","16","","4","","24.1","","98.99","","","","","","NA"
"-111.96","60.02","FORT SMITH A","2202201","2018-08-05 04:00","2018","08","05","04:00","4.4","","2.4","","86","","","","16","","7","","24.1","","98.95","","","","","","NA"
"-111.96","60.02","FORT SMITH A","2202201","2018-08-05 05:00","2018","08","05","05:00","6.3","","3.3","","81","","","","15","","8","","24.1","","98.92","","","","","","Mostly Cloudy"
"-111.96","60.02","FORT SMITH A","2202201","2018-08-05 06:00","2018","08","05","06:00","9.0","","4.8","","75","","","","14","","8","","24.1","","98.90","","","","","","NA"
"-111.96","60.02","FORT SMITH A","2202201","2018-08-05 07:00","2018","08","05","07:00","9.9","","5.8","","75","","","","15","","14","","24.1","","98.85","","","","","","NA"
"-111.96","60.02","FORT SMITH A","2202201","2018-08-05 08:00","2018","08","05","08:00","13.6","","7.3","","66","","","","16","","13","","24.1","","98.80","","","","","","Mostly Cloudy"
"-111.96","60.02","FORT SMITH A","2202201","2018-08-05 09:00","2018","08","05","09:00","15.8","","8.0","","59","","","","16","","12","","24.1","","98.73","","","","","","NA"
"-111.96","60.02","FORT SMITH A","2202201","2018-08-05 10:00","2018","08","05","10:00","16.6","","9.6","","63","","","","15","","14","","19.3","","98.66","","","","","","Rain Showers"
"-111.96","60.02","FORT SMITH A","2202201","2018-08-05 11:00","2018","08","05","11:00","18.0","","10.1","","60","","","","16","","13","","24.1","","98.58","","","","","","Cloudy"
"-111.96","60.02","FORT SMITH A","2202201","2018-08-05 12:00","2018","08","05","12:00","17.1","","12.1","","72","","","","13","","9","","19.3","","98.50","","","","","","Rain Showers"
"-111.96","60.02","FORT SMITH A","2202201","2018-08-05 13:00","2018","08","05","13:00","20.6","","12.2","","58","","","","15","","19","","24.1","","98.39","","","","","","Rain Showers"
"-111.96","60.02","FORT SMITH A","2202201","2018-08-05 14:00","2018","08","05","14:00","22.3","","12.4","","53","","","","15","","23","","24.1","","98.28","","25","","","","Mostly Cloudy"
"-111.96","60.02","FORT SMITH A","2202201","2018-08-05 15:00","2018","08","05","15:00","23.4","","12.5","","50","","","","18","","22","","24.1","","98.19","","26","","","","NA"
"-111.96","60.02","FORT SMITH A","2202201","2018-08-05 16:00","2018","08","05","16:00","23.6","","14.0","","54","","","","16","","20","","24.1","","98.12","","27","","","","Rain Showers"
"-111.96","60.02","FORT SMITH A","2202201","2018-08-05 17:00","2018","08","05","17:00","23.6","","14.6","","56","","","","17","","14","","24.1","","98.03","","27","","","","Rain Showers"
"-111.96","60.02","FORT SMITH A","2202201","2018-08-05 18:00","2018","08","05","18:00","23.6","","15.4","","60","","","","21","","9","","24.1","","98.01","","28","","","","Rain Showers"
"-111.96","60.02","FORT SMITH A","2202201","2018-08-05 19:00","2018","08","05","19:00","23.0","","15.2","","61","","","","31","","17","","24.1","","98.04","","27","","","","NA"
"-111.96","60.02","FORT SMITH A","2202201","2018-08-05 20:00","2018","08","05","20:00","20.6","","14.4","","68","","","","31","","15","","24.1","","98.12","","","","","","Cloudy"
"-111.96","60.02","FORT SMITH A","2202201","2018-08-05 21:00","2018","08","05","21:00","18.9","","14.6","","76","","","","30","","9","","24.1","","98.14","","","","","","NA"
"-111.96","60.02","FORT SMITH A","2202201","2018-08-05 22:00","2018","08","05","22:00","17.7","","14.3","","80","","","","31","","11","","24.1","","98.17","","","","","","NA"
"-111.96","60.02","FORT SMITH A","2202201","2018-08-05 23:00","2018","08","05","23:00","16.2","","13.7","","85","","","","31","","12","","24.1","","98.18","","","","","","Mostly Cloudy"
"-111.96","60.02","FORT SMITH A","2202201","2018-08-06 00:00","2018","08","06","00:00","15.7","","13.3","","86","","","","30","","11","","24.1","","98.20","","","","","","NA"
"-111.96","60.02","FORT SMITH A","2202201","2018-08-06 01:00","2018","08","06","01:00","15.4","","13.4","","88","","","","29","","10","","24.1","","98.21","","","","","","NA"
"-111.96","60.02","FORT SMITH A","2202201","2018-08-06 02:00","2018","08","06","02:00","14.9","","13.2","","89","","","","29","","10","","24.1","","98.20","","","","","","Cloudy"
"-111.96","60.02","FORT SMITH A","2202201","2018-08-06 03:00","2018","08","06","03:00","14.6","","12.7","","88","","","","35","","10","","24.1","","98.21","","","","","","NA"
"-111.96","60.02","FORT SMITH A","2202201","2018-08-06 04:00","2018","08","06","04:00","14.4","","12.8","","90","","","","27","","5","","24.1","","98.21","","","","","","NA"
"-111.96","60.02","FORT SMITH A","2202201","2018-08-06 05:00","2018","08","06","05:00","13.7","","12.3","","91","","","","22","","12","","24.1","","98.21","","","","","","Cloudy"
"-111.96","60.02","FORT SMITH A","2202201","2018-08-06 06:00","2018","08","06","06:00","13.4","","12.2","","92","","","","22","","8","","24.1","","98.19","","","","","","NA"
"-111.96","60.02","FORT SMITH A","2202201","2018-08-06 07:00","2018","08","06","07:00","13.5","","12.3","","93","","","","24","","10","","24.1","","98.16","","","","","","NA"
"-111.96","60.02","FORT SMITH A","2202201","2018-08-06 08:00","2018","08","06","08:00","15.8","","12.8","","82","","","","20","","7","","24.1","","98.09","","","","","","Mostly Cloudy"
"-111.96","60.02","FORT SMITH A","2202201","2018-08-06 09:00","2018","08","06","09:00","17.4","","13.1","","76","","","","19","","11","","24.1","","98.05","","","","","","NA"
"-111.96","60.02","FORT SMITH A","2202201","2018-08-06 10:00","2018","08","06","10:00","18.6","","14.0","","74","","","","21","","13","","24.1","","98.01","","","","","","NA"
"-111.96","60.02","FORT SMITH A","2202201","2018-08-06 11:00","2018","08","06","11:00","19.9","","14.8","","72","","","","18","","17","","24.1","","97.93","","","","","","Cloudy"
"-111.96","60.02","FORT SMITH A","2202201","2018-08-06 12:00","2018","08","06","12:00","20.7","","14.8","","69","","","","20","","14","","24.1","","97.88","","25","","","","NA"
"-111.96","60.02","FORT SMITH A","2202201","2018-08-06 13:00","2018","08","06","13:00","19.6","","16.3","","81","","","","17","","17","","19.3","","97.81","","","","","","Rain Showers"
"-111.96","60.02","FORT SMITH A","2202201","2018-08-06 14:00","2018","08","06","14:00","21.2","","16.1","","73","","","","18","","19","","24.1","","97.74","","26","","","","Mostly Cloudy"
"-111.96","60.02","FORT SMITH A","2202201","2018-08-06 15:00","2018","08","06","15:00","23.3","","16.0","","63","","","","17","","23","","24.1","","97.64","","28","","","","NA"
"-111.96","60.02","FORT SMITH A","2202201","2018-08-06 16:00","2018","08","06","16:00","23.7","","15.8","","61","","","","19","","17","","24.1","","97.57","","28","","","","NA"
"-111.96","60.02","FORT SMITH A","2202201","2018-08-06 17:00","2018","08","06","17:00","23.7","","14.4","","56","","","","21","","20","","24.1","","97.50","","27","","","","Mostly Cloudy"
"-111.96","60.02","FORT SMITH A","2202201","2018-08-06 18:00","2018","08","06","18:00","22.9","","13.9","","57","","","","22","","23","","19.3","","97.50","","26","","","","NA"
"-111.96","60.02","FORT SMITH A","2202201","2018-08-06 19:00","2018","08","06","19:00","21.8","","14.4","","62","","","","20","","10","","19.3","","97.51","","25","","","","NA"
"-111.96","60.02","FORT SMITH A","2202201","2018-08-06 20:00","2018","08","06","20:00","20.8","","14.9","","68","","","","9","","6","","24.1","","97.48","","25","","","","Thunderstorms"
"-111.96","60.02","FORT SMITH A","2202201","2018-08-06 21:00","2018","08","06","21:00","17.8","","16.0","","89","","","","26","","13","","12.9","","97.61","","","","","","Thunderstorms,Rain Showers"
"-111.96","60.02","FORT SMITH A","2202201","2018-08-06 22:00","2018","08","06","22:00","17.1","","16.1","","94","","","","20","","5","","24.1","","97.53","","","","","","Thunderstorms,Rain Showers"
"-111.96","60.02","FORT SMITH A","2202201","2018-08-06 23:00","2018","08","06","23:00","16.9","","15.8","","94","","","","22","","9","","24.1","","97.54","","","","","","Rain Showers"
"-111.96","60.02","FORT SMITH A","2202201","2018-08-07 00:00","2018","08","07","00:00","16.5","","15.4","","93","","","","27","","10","","24.1","","97.58","","","","","","Rain Showers"
"-111.96","60.02","FORT SMITH A","2202201","2018-08-07 01:00","2018","08","07","01:00","15.7","","14.8","","94","","","","27","","10","","24.1","","97.57","","","","","","NA"
"-111.96","60.02","FORT SMITH A","2202201","2018-08-07 02:00","2018","08","07","02:00","15.3","","14.5","","95","","","","26","","8","","24.1","","97.60","","","","","","Mainly Clear"
"-111.96","60.02","FORT SMITH A","2202201","2018-08-07 03:00","2018","08","07","03:00","15.6","","14.4","","93","","","","29","","11","","24.1","","97.61","","","","","","NA"
"-111.96","60.02","FORT SMITH A","2202201","2018-08-07 04:00","2018","08","07","04:00","15.4","","14.5","","94","","","","30","","9","","24.1","","97.64","","","","","","NA"
"-111.96","60.02","FORT SMITH A","2202201","2018-08-07 05:00","2018","08","07","05:00","14.7","","14.2","","96","","","","29","","7","","24.1","","97.68","","","","","","Mostly Cloudy"
"-111.96","60.02","FORT SMITH A","2202201","2018-08-07 06:00","2018","08","07","06:00","15.3","","14.6","","96","","","","29","","7","","19.3","","97.73","","","","","","NA"
"-111.96","60.02","FORT SMITH A","2202201","2018-08-07 07:00","2018","08","07","07:00","15.4","","14.5","","95","","","","31","","7","","24.1","","97.78","","","","","","Rain Showers"
"-111.96","60.02","FORT SMITH A","2202201","2018-08-07 08:00","2018","08","07","08:00","15.8","","14.8","","94","","","","29","","8","","24.1","","97.85","","","","","","Rain Showers"
"-111.96","60.02","FORT SMITH A","2202201","2018-08-07 09:00","2018","08","07","09:00","16.5","","15.1","","91","","","","33","","7","","19.3","","97.87","","","","","","Rain Showers"
"-111.96","60.02","FORT SMITH A","2202201","2018-08-07 10:00","2018","08","07","10:00","17.2","","15.1","","87","","","","35","","8","","24.1","","97.91","","","","","","NA"
"-111.96","60.02","FORT SMITH A","2202201","2018-08-07 11:00","2018","08","07","11:00","18.0","","15.1","","83","","","","30","","7","","24.1","","97.95","","","","","","Cloudy"
"-111.96","60.02","FORT SMITH A","2202201","2018-08-07 12:00","2018","08","07","12:00","19.6","","14.6","","72","","","","30","","13","","24.1","","97.97","","","","","","NA"
"-111.96","60.02","FORT SMITH A","2202201","2018-08-07 13:00","2018","08","07","13:00","20.7","","14.4","","67","","","","27","","15","","24.1","","98.00","","","","","","NA"
"-111.96","60.02","FORT SMITH A","2202201","2018-08-07 14:00","2018","08","07","14:00","22.0","","14.0","","60","","","","26","","15","","24.1","","98.02","","25","","","","Mostly Cloudy"
"-111.96","60.02","FORT SMITH A","2202201","2018-08-07 15:00","2018","08","07","15:00","21.3","","14.5","","65","","","","25","","13","","24.1","","98.03","","25","","","","NA"
"-111.96","60.02","FORT SMITH A","2202201","2018-08-07 16:00","2018","08","07","16:00","22.0","","13.9","","60","","","","27","","12","","24.1","","98.03","","25","","","","NA"
"-111.96","60.02","FORT SMITH A","2202201","2018-08-07 17:00","2018","08","07","17:00","21.8","","13.9","","60","","","","30","","15","","24.1","","98.06","","25","","","","Mostly Cloudy"
"-111.96","60.02","FORT SMITH A","2202201","2018-08-07 18:00","2018","08","07","18:00","22.0","","13.1","","57","","","","32","","11","","24.1","","98.06","","25","","","","NA"
"-111.96","60.02","FORT SMITH A","2202201","2018-08-07 19:00","2018","08","07","19:00","20.7","","13.1","","61","","","","31","","8","","24.1","","98.07","","","","","","NA"
"-111.96","60.02","FORT SMITH A","2202201","2018-08-07 20:00","2018","08","07","20:00","19.3","","14.3","","73","","","","36","","7","","24.1","","98.10","","","","","","Cloudy"
"-111.96","60.02","FORT SMITH A","2202201","2018-08-07 21:00","2018","08","07","21:00","18.6","","12.5","","67","","","","36","","8","","24.1","","98.10","","","","","","NA"
"-111.96","60.02","FORT SMITH A","2202201","2018-08-07 22:00","2018","08","07","22:00","18.1","","11.9","","67","","","","6","","4","","24.1","","98.12","","","","","","NA"
"-111.96","60.02","FORT SMITH A","2202201","2018-08-07 23:00","2018","08","07","23:00","17.2","","13.0","","76","","","","26","","3","","24.1","","98.16","","","","","","Cloudy"
"-111.96","60.02","FORT SMITH A","2202201","2018-08-08 00:00","2018","08","08","00:00","16.2","","12.2","","76","","","","4","","5","","19.3","","98.17","","","","","","Rain"
"-111.96","60.02","FORT SMITH A","2202201","2018-08-08 01:00","2018","08","08","01:00","15.2","","12.1","","82","","","","8","","13","","24.1","","98.16","","","","","","NA"
"-111.96","60.02","FORT SMITH A","2202201","2018-08-08 02:00","2018","08","08","02:00","14.9","","12.5","","86","","","","5","","3","","24.1","","98.16","","","","","","Mostly Cloudy"
"-111.96","60.02","FORT SMITH A","2202201","2018-08-08 03:00","2018","08","08","03:00","14.7","","12.5","","86","","","","36","","2","","24.1","","98.16","","","","","","NA"
"-111.96","60.02","FORT SMITH A","2202201","2018-08-08 04:00","2018","08","08","04:00","12.0","","10.9","","93","","","","5","","3","","24.1","","98.15","","","","","","NA"
"-111.96","60.02","FORT SMITH A","2202201","2018-08-08 05:00","2018","08","08","05:00","12.5","","11.4","","93","","","","16","","6","","24.1","","98.16","","","","","","Mainly Clear"
"-111.96","60.02","FORT SMITH A","2202201","2018-08-08 06:00","2018","08","08","06:00","14.4","","13.0","","91","","","","15","","7","","24.1","","98.17","","","","","","NA"
"-111.96","60.02","FORT SMITH A","2202201","2018-08-08 07:00","2018","08","08","07:00","15.9","","14.3","","90","","","","14","","9","","24.1","","98.16","","","","","","NA"
"-111.96","60.02","FORT SMITH A","2202201","2018-08-08 08:00","2018","08","08","08:00","17.7","","14.8","","83","","","","17","","12","","24.1","","98.14","","","","","","Mostly Cloudy"
"-111.96","60.02","FORT SMITH A","2202201","2018-08-08 09:00","2018","08","08","09:00","19.0","","14.9","","77","","","","17","","12","","24.1","","98.12","","","","","","NA"
"-111.96","60.02","FORT SMITH A","2202201","2018-08-08 10:00","2018","08","08","10:00","21.4","","15.2","","67","","","","15","","14","","24.1","","98.08","","25","","","","NA"
"-111.96","60.02","FORT SMITH A","2202201","2018-08-08 11:00","2018","08","08","11:00","22.1","","15.1","","64","","","","15","","9","","24.1","","98.05","","26","","","","Mostly Cloudy"
"-111.96","60.02","FORT SMITH A","2202201","2018-08-08 12:00","2018","08","08","12:00","24.3","","12.3","","47","","","","24","","19","","24.1","","98.02","","27","","","","NA"
"-111.96","60.02","FORT SMITH A","2202201","2018-08-08 13:00","2018","08","08","13:00","23.9","","10.9","","43","","","","26","","26","","24.1","","98.02","","26","","","","NA"
"-111.96","60.02","FORT SMITH A","2202201","2018-08-08 14:00","2018","08","08","14:00","23.8","","10.3","","42","","","","24","","17","","24.1","","98.06","","25","","","","Smoke"
"-111.96","60.02","FORT SMITH A","2202201","2018-08-08 15:00","2018","08","08","15:00","23.7","","11.1","","45","","","","26","","14","","16.1","","98.05","","26","","","","Smoke"
"-111.96","60.02","FORT SMITH A","2202201","2018-08-08 16:00","2018","08","08","16:00","24.8","","10.0","","39","","","","26","","8","","24.1","","98.03","","26","","","","Smoke"
"-111.96","60.02","FORT SMITH A","2202201","2018-08-08 17:00","2018","08","08","17:00","25.3","","10.9","","40","","","","3","","3","","16.1","","97.99","","27","","","","Smoke"
"-111.96","60.02","FORT SMITH A","2202201","2018-08-08 18:00","2018","08","08","18:00","24.4","","11.2","","43","","","","8","","4","","12.9","","97.97","","26","","","","NA"
"-111.96","60.02","FORT SMITH A","2202201","2018-08-08 19:00","2018","08","08","19:00","23.9","","12.4","","48","","","","8","","4","","12.9","","97.94","","26","","","","NA"
"-111.96","60.02","FORT SMITH A","2202201","2018-08-08 20:00","2018","08","08","20:00","22.4","","12.4","","53","","","","8","","6","","12.9","","97.93","","25","","","","Mostly Cloudy"
"-111.96","60.02","FORT SMITH A","2202201","2018-08-08 21:00","2018","08","08","21:00","20.4","","12.6","","60","","","","12","","7","","16.1","","97.91","","","","","","NA"
"-111.96","60.02","FORT SMITH A","2202201","2018-08-08 22:00","2018","08","08","22:00","19.1","","12.7","","66","","","","16","","13","","16.1","","97.95","","","","","","NA"
"-111.96","60.02","FORT SMITH A","2202201","2018-08-08 23:00","2018","08","08","23:00","18.7","","12.4","","66","","","","19","","10","","24.1","","97.97","","","","","","Mainly Clear"
"-111.96","60.02","FORT SMITH A","2202201","2018-08-09 00:00","2018","08","09","00:00","15.6","","11.9","","78","","","","20","","5","","24.1","","97.99","","","","","","NA"
"-111.96","60.02","FORT SMITH A","2202201","2018-08-09 01:00","2018","08","09","01:00","16.4","","11.9","","74","","","","20","","4","","24.1","","98.01","","","","","","NA"
"-111.96","60.02","FORT SMITH A","2202201","2018-08-09 02:00","2018","08","09","02:00","15.5","","11.4","","77","","","","16","","8","","24.1","","98.03","","","","","","Mainly Clear"
"-111.96","60.02","FORT SMITH A","2202201","2018-08-09 03:00","2018","08","09","03:00","15.1","","11.2","","77","","","","18","","4","","24.1","","98.07","","","","","","NA"
"-111.96","60.02","FORT SMITH A","2202201","2018-08-09 04:00","2018","08","09","04:00","14.8","","10.7","","76","","","","36","","3","","24.1","","98.09","","","","","","NA"
"-111.96","60.02","FORT SMITH A","2202201","2018-08-09 05:00","2018","08","09","05:00","13.8","","10.1","","78","","","","21","","4","","19.3","","98.12","","","","","","Mostly Cloudy"
"-111.96","60.02","FORT SMITH A","2202201","2018-08-09 06:00","2018","08","09","06:00","15.7","","11.0","","73","","","","24","","9","","19.3","","98.19","","","","","","NA"
"-111.96","60.02","FORT SMITH A","2202201","2018-08-09 07:00","2018","08","09","07:00","18.1","","10.7","","62","","","","26","","13","","19.3","","98.20","","","","","","NA"
"-111.96","60.02","FORT SMITH A","2202201","2018-08-09 08:00","2018","08","09","08:00","19.9","","11.3","","57","","","","27","","14","","19.3","","98.23","","","","","","Mostly Cloudy"
"-111.96","60.02","FORT SMITH A","2202201","2018-08-09 09:00","2018","08","09","09:00","21.3","","10.6","","50","","","","27","","16","","24.1","","98.22","","","","","","NA"
"-111.96","60.02","FORT SMITH A","2202201","2018-08-09 10:00","2018","08","09","10:00","22.5","","11.5","","49","","","","26","","13","","19.3","","98.26","","25","","","","NA"
"-111.96","60.02","FORT SMITH A","2202201","2018-08-09 11:00","2018","08","09","11:00","23.9","","10.5","","43","","","","30","","23","","24.1","","98.29","","25","","","","Mostly Cloudy"
"-111.96","60.02","FORT SMITH A","2202201","2018-08-09 12:00","2018","08","09","12:00","25.1","","9.2","","36","","","","30","","26","","24.1","","98.30","","26","","","","NA"
"-111.96","60.02","FORT SMITH A","2202201","2018-08-09 13:00","2018","08","09","13:00","26.5","","9.6","","34","","","","30","","18","","24.1","","98.31","","28","","","","NA"
"-111.96","60.02","FORT SMITH A","2202201","2018-08-09 14:00","2018","08","09","14:00","27.2","","10.4","","34","","","","31","","14","","24.1","","98.31","","29","","","","Mostly Cloudy"
"-111.96","60.02","FORT SMITH A","2202201","2018-08-09 15:00","2018","08","09","15:00","26.3","","9.9","","35","","","","31","","8","","24.1","","98.32","","28","","","","NA"
"-111.96","60.02","FORT SMITH A","2202201","2018-08-09 16:00","2018","08","09","16:00","26.2","","10.4","","37","","","","27","","6","","24.1","","98.32","","28","","","","NA"
"-111.96","60.02","FORT SMITH A","2202201","2018-08-09 17:00","2018","08","09","17:00","26.4","","12.2","","41","","","","3","","8","","24.1","","98.30","","29","","","","Mostly Cloudy"
"-111.96","60.02","FORT SMITH A","2202201","2018-08-09 18:00","2018","08","09","18:00","25.6","","12.5","","44","","","","3","","8","","24.1","","98.29","","28","","","","NA"
"-111.96","60.02","FORT SMITH A","2202201","2018-08-09 19:00","2018","08","09","19:00","24.9","","12.0","","44","","","","5","","7","","24.1","","98.29","","27","","","","NA"
"-111.96","60.02","FORT SMITH A","2202201","2018-08-09 20:00","2018","08","09","20:00","21.8","","12.8","","56","","","","6","","4","","24.1","","98.28","","","","","","Mainly Clear"
"-111.96","60.02","FORT SMITH A","2202201","2018-08-09 21:00","2018","08","09","21:00","20.2","","12.5","","61","","","","36","","3","","24.1","","98.24","","","","","","NA"
"-111.96","60.02","FORT SMITH A","2202201","2018-08-09 22:00","2018","08","09","22:00","19.9","","11.5","","58","","","","6","","4","","24.1","","98.23","","","","","","NA"
"-111.96","60.02","FORT SMITH A","2202201","2018-08-09 23:00","2018","08","09","23:00","18.1","","11.2","","63","","","","6","","3","","24.1","","98.21","","","","","","Mainly Clear"
"-111.96","60.02","FORT SMITH A","2202201","2018-08-10 00:00","2018","08","10","00:00","19.5","","11.0","","57","","","","11","","5","","24.1","","98.14","","","","","","NA"
"-111.96","60.02","FORT SMITH A","2202201","2018-08-10 01:00","2018","08","10","01:00","18.8","","10.8","","59","","","","10","","6","","24.1","","98.07","","","","","","NA"
"-111.96","60.02","FORT SMITH A","2202201","2018-08-10 02:00","2018","08","10","02:00","18.9","","11.0","","60","","","","12","","12","","24.1","","97.98","","","","","","Clear"
"-111.96","60.02","FORT SMITH A","2202201","2018-08-10 03:00","2018","08","10","03:00","18.2","","10.6","","61","","","","14","","11","","24.1","","97.94","","","","","","NA"
"-111.96","60.02","FORT SMITH A","2202201","2018-08-10 04:00","2018","08","10","04:00","16.7","","11.0","","69","","","","15","","13","","24.1","","97.89","","","","","","NA"
"-111.96","60.02","FORT SMITH A","2202201","2018-08-10 05:00","2018","08","10","05:00","16.7","","12.0","","73","","","","14","","14","","19.3","","97.78","","","","","","Cloudy"
"-111.96","60.02","FORT SMITH A","2202201","2018-08-10 06:00","2018","08","10","06:00","17.0","","13.1","","78","","","","16","","17","","19.3","","97.72","","","","","","NA"
"-111.96","60.02","FORT SMITH A","2202201","2018-08-10 07:00","2018","08","10","07:00","18.1","","13.5","","74","","","","18","","19","","19.3","","97.64","","","","","","NA"
"-111.96","60.02","FORT SMITH A","2202201","2018-08-10 08:00","2018","08","10","08:00","21.0","","13.8","","63","","","","19","","14","","19.3","","97.59","","","","","","Mostly Cloudy"
"-111.96","60.02","FORT SMITH A","2202201","2018-08-10 09:00","2018","08","10","09:00","24.1","","13.8","","52","","","","23","","16","","19.3","","97.58","","27","","","","NA"
"-111.96","60.02","FORT SMITH A","2202201","2018-08-10 10:00","2018","08","10","10:00","25.1","","12.4","","45","","","","28","","26","","19.3","","97.65","","28","","","","NA"
"-111.96","60.02","FORT SMITH A","2202201","2018-08-10 11:00","2018","08","10","11:00","24.8","","12.6","","46","","","","25","","25","","24.1","","97.69","","27","","","","Mostly Cloudy"
"-111.96","60.02","FORT SMITH A","2202201","2018-08-10 12:00","2018","08","10","12:00","24.4","","12.8","","48","","","","26","","23","","24.1","","97.75","","27","","","","NA"
"-111.96","60.02","FORT SMITH A","2202201","2018-08-10 13:00","2018","08","10","13:00","24.8","","12.1","","45","","","","28","","12","","24.1","","97.78","","27","","","","NA"
"-111.96","60.02","FORT SMITH A","2202201","2018-08-10 14:00","2018","08","10","14:00","26.4","","8.6","","32","","","","25","","29","","24.1","","97.77","","27","","","","Mostly Cloudy"
"-111.96","60.02","FORT SMITH A","2202201","2018-08-10 15:00","2018","08","10","15:00","26.6","","8.4","","31","","","","28","","26","","24.1","","97.78","","27","","","","NA"
"-111.96","60.02","FORT SMITH A","2202201","2018-08-10 16:00","2018","08","10","16:00","26.4","","5.3","","25","","","","28","","27","","24.1","","97.84","","26","","","","NA"
"-111.96","60.02","FORT SMITH A","2202201","2018-08-10 17:00","2018","08","10","17:00","25.0","","3.2","","24","","","","27","","20","","24.1","","97.85","","","","","","Mostly Cloudy"
"-111.96","60.02","FORT SMITH A","2202201","2018-08-10 18:00","2018","08","10","18:00","23.1","","10.9","","46","","","","31","","14","","24.1","","97.91","","25","","","","NA"
"-111.96","60.02","FORT SMITH A","2202201","2018-08-10 19:00","2018","08","10","19:00","20.8","","8.6","","45","","","","33","","27","","24.1","","98.02","","","","","","NA"
"-111.96","60.02","FORT SMITH A","2202201","2018-08-10 20:00","2018","08","10","20:00","18.8","","8.8","","52","","","","30","","14","","24.1","","98.13","","","","","","Mostly Cloudy"
"-111.96","60.02","FORT SMITH A","2202201","2018-08-10 21:00","2018","08","10","21:00","17.6","","6.9","","49","","","","30","","20","","24.1","","98.19","","","","","","NA"
"-111.96","60.02","FORT SMITH A","2202201","2018-08-10 22:00","2018","08","10","22:00","14.7","","7.0","","60","","","","31","","21","","24.1","","98.33","","","","","","NA"
"-111.96","60.02","FORT SMITH A","2202201","2018-08-10 23:00","2018","08","10","23:00","13.4","","6.2","","61","","","","30","","27","","24.1","","98.42","","","","","","Mainly Clear"
"-111.96","60.02","FORT SMITH A","2202201","2018-08-11 00:00","2018","08","11","00:00","12.2","","6.3","","67","","","","31","","19","","24.1","","98.51","","","","","","NA"
"-111.96","60.02","FORT SMITH A","2202201","2018-08-11 01:00","2018","08","11","01:00","11.5","","4.8","","63","","","","30","","28","","24.1","","98.60","","","","","","NA"
"-111.96","60.02","FORT SMITH A","2202201","2018-08-11 02:00","2018","08","11","02:00","11.4","","5.5","","67","","","","30","","23","","24.1","","98.62","","","","","","Mostly Cloudy"
"-111.96","60.02","FORT SMITH A","2202201","2018-08-11 03:00","2018","08","11","03:00","9.9","","4.5","","69","","","","29","","28","","24.1","","98.73","","","","","","NA"
"-111.96","60.02","FORT SMITH A","2202201","2018-08-11 04:00","2018","08","11","04:00","8.9","","3.9","","71","","","","28","","21","","24.1","","98.79","","","","","","NA"
"-111.96","60.02","FORT SMITH A","2202201","2018-08-11 05:00","2018","08","11","05:00","8.9","","2.9","","66","","","","30","","22","","24.1","","98.87","","","","","","Mainly Clear"
"-111.96","60.02","FORT SMITH A","2202201","2018-08-11 06:00","2018","08","11","06:00","9.0","","2.5","","64","","","","30","","23","","24.1","","98.95","","","","","","NA"
"-111.96","60.02","FORT SMITH A","2202201","2018-08-11 07:00","2018","08","11","07:00","9.5","","2.8","","63","","","","30","","24","","24.1","","99.05","","","","","","NA"
"-111.96","60.02","FORT SMITH A","2202201","2018-08-11 08:00","2018","08","11","08:00","9.7","","3.1","","63","","","","29","","25","","24.1","","99.12","","","","","","Cloudy"
"-111.96","60.02","FORT SMITH A","2202201","2018-08-11 09:00","2018","08","11","09:00","9.8","","3.5","","65","","","","28","","24","","24.1","","99.21","","","","","","NA"
"-111.96","60.02","FORT SMITH A","2202201","2018-08-11 10:00","2018","08","11","10:00","10.3","","4.0","","65","","","","29","","23","","24.1","","99.25","","","","","","NA"
"-111.96","60.02","FORT SMITH A","2202201","2018-08-11 11:00","2018","08","11","11:00","10.1","","4.5","","68","","","","32","","18","","24.1","","99.33","","","","","","Cloudy"
"-111.96","60.02","FORT SMITH A","2202201","2018-08-11 12:00","2018","08","11","12:00","10.8","","4.7","","66","","","","29","","27","","24.1","","99.38","","","","","","NA"
"-111.96","60.02","FORT SMITH A","2202201","2018-08-11 13:00","2018","08","11","13:00","13.0","","2.8","","50","","","","30","","21","","24.1","","99.41","","","","","","NA"
"-111.96","60.02","FORT SMITH A","2202201","2018-08-11 14:00","2018","08","11","14:00","13.8","","3.4","","49","","","","29","","16","","24.1","","99.45","","","","","","Mostly Cloudy"
"-111.96","60.02","FORT SMITH A","2202201","2018-08-11 15:00","2018","08","11","15:00","13.8","","2.4","","46","","","","33","","18","","24.1","","99.50","","","","","","NA"
"-111.96","60.02","FORT SMITH A","2202201","2018-08-11 16:00","2018","08","11","16:00","15.2","","2.1","","41","","","","32","","18","","24.1","","99.49","","","","","","NA"
"-111.96","60.02","FORT SMITH A","2202201","2018-08-11 17:00","2018","08","11","17:00","15.3","","2.1","","40","","","","28","","17","","24.1","","99.50","","","","","","Mainly Clear"
"-111.96","60.02","FORT SMITH A","2202201","2018-08-11 18:00","2018","08","11","18:00","15.2","","2.7","","43","","","","30","","19","","24.1","","99.53","","","","","","NA"
"-111.96","60.02","FORT SMITH A","2202201","2018-08-11 19:00","2018","08","11","19:00","14.3","","2.7","","45","","","","33","","11","","24.1","","99.57","","","","","","NA"
"-111.96","60.02","FORT SMITH A","2202201","2018-08-11 20:00","2018","08","11","20:00","12.0","","3.8","","57","","","","36","","2","","24.1","","99.62","","","","","","Clear"
"-111.96","60.02","FORT SMITH A","2202201","2018-08-11 21:00","2018","08","11","21:00","8.5","","4.1","","74","","","","36","","1","","24.1","","99.61","","","","","","NA"
"-111.96","60.02","FORT SMITH A","2202201","2018-08-11 22:00","2018","08","11","22:00","7.0","","3.5","","79","","","","17","","3","","24.1","","99.60","","","","","","NA"
"-111.96","60.02","FORT SMITH A","2202201","2018-08-11 23:00","2018","08","11","23:00","4.8","","2.4","","84","","","","36","","1","","24.1","","99.60","","","","","","Clear"
"-111.96","60.02","FORT SMITH A","2202201","2018-08-12 00:00","2018","08","12","00:00","4.6","","1.6","","81","","","","18","","3","","24.1","","99.64","","","","","","NA"
"-111.96","60.02","FORT SMITH A","2202201","2018-08-12 01:00","2018","08","12","01:00","3.3","","0.9","","85","","","","16","","7","","24.1","","99.69","","","","","","NA"
"-111.96","60.02","FORT SMITH A","2202201","2018-08-12 02:00","2018","08","12","02:00","4.9","","1.8","","80","","","","17","","5","","24.1","","99.69","","","","","","Clear"
"-111.96","60.02","FORT SMITH A","2202201","2018-08-12 03:00","2018","08","12","03:00","3.8","","1.1","","83","","","","16","","6","","24.1","","99.72","","","","","","NA"
"-111.96","60.02","FORT SMITH A","2202201","2018-08-12 04:00","2018","08","12","04:00","3.3","","0.9","","84","","","","16","","5","","24.1","","99.73","","","","","","NA"
"-111.96","60.02","FORT SMITH A","2202201","2018-08-12 05:00","2018","08","12","05:00","2.9","","0.9","","86","","","","15","","5","","19.3","","99.73","","","","","","Clear"
"-111.96","60.02","FORT SMITH A","2202201","2018-08-12 06:00","2018","08","12","06:00","5.2","","1.7","","78","","","","15","","6","","24.1","","99.73","","","","","","NA"
"-111.96","60.02","FORT SMITH A","2202201","2018-08-12 07:00","2018","08","12","07:00","8.7","","3.7","","71","","","","18","","3","","19.3","","99.75","","","","","","NA"
"-111.96","60.02","FORT SMITH A","2202201","2018-08-12 08:00","2018","08","12","08:00","12.6","","4.8","","59","","","","23","","8","","19.3","","99.75","","","","","","Clear"
"-111.96","60.02","FORT SMITH A","2202201","2018-08-12 09:00","2018","08","12","09:00","15.5","","3.6","","45","","","","18","","12","","24.1","","99.73","","","","","","NA"
"-111.96","60.02","FORT SMITH A","2202201","2018-08-12 10:00","2018","08","12","10:00","16.4","","2.1","","38","","","","19","","18","","24.1","","99.70","","","","","","NA"
"-111.96","60.02","FORT SMITH A","2202201","2018-08-12 11:00","2018","08","12","11:00","17.7","","3.2","","38","","","","16","","17","","24.1","","99.65","","","","","","Clear"
"-111.96","60.02","FORT SMITH A","2202201","2018-08-12 12:00","2018","08","12","12:00","18.9","","2.0","","32","","","","23","","11","","24.1","","99.59","","","","","","NA"
"-111.96","60.02","FORT SMITH A","2202201","2018-08-12 13:00","2018","08","12","13:00","19.6","","2.6","","32","","","","24","","12","","24.1","","99.54","","","","","","NA"
"-111.96","60.02","FORT SMITH A","2202201","2018-08-12 14:00","2018","08","12","14:00","20.0","","3.5","","33","","","","25","","9","","24.1","","99.48","","","","","","Mainly Clear"
"-111.96","60.02","FORT SMITH A","2202201","2018-08-12 15:00","2018","08","12","15:00","20.4","","2.9","","31","","","","24","","5","","24.1","","99.40","","","","","","NA"
"-111.96","60.02","FORT SMITH A","2202201","2018-08-12 16:00","2018","08","12","16:00","20.2","","4.2","","35","","","","14","","9","","24.1","","99.35","","","","","","NA"
"-111.96","60.02","FORT SMITH A","2202201","2018-08-12 17:00","2018","08","12","17:00","20.2","","4.7","","36","","","","17","","18","","24.1","","99.31","","","","","","Mainly Clear"
"-111.96","60.02","FORT SMITH A","2202201","2018-08-12 18:00","2018","08","12","18:00","20.4","","4.7","","35","","","","16","","17","","24.1","","99.27","","","","","","NA"
"-111.96","60.02","FORT SMITH A","2202201","2018-08-12 19:00","2018","08","12","19:00","19.2","","4.2","","37","","","","16","","19","","24.1","","99.27","","","","","","NA"
"-111.96","60.02","FORT SMITH A","2202201","2018-08-12 20:00","2018","08","12","20:00","17.2","","4.2","","42","","","","16","","14","","19.3","","99.28","","","","","","Mostly Cloudy"
"-111.96","60.02","FORT SMITH A","2202201","2018-08-12 21:00","2018","08","12","21:00","14.5","","4.0","","49","","","","16","","12","","19.3","","99.26","","","","","","NA"
"-111.96","60.02","FORT SMITH A","2202201","2018-08-12 22:00","2018","08","12","22:00","13.6","","3.7","","51","","","","17","","15","","24.1","","99.23","","","","","","NA"
"-111.96","60.02","FORT SMITH A","2202201","2018-08-12 23:00","2018","08","12","23:00","12.4","","4.4","","58","","","","17","","13","","24.1","","99.21","","","","","","Mostly Cloudy"
"-111.96","60.02","FORT SMITH A","2202201","2018-08-13 00:00","2018","08","13","00:00","12.9","","4.5","","57","","","","16","","20","","24.1","","99.20","","","","","","NA"
"-111.96","60.02","FORT SMITH A","2202201","2018-08-13 01:00","2018","08","13","01:00","12.6","","5.9","","63","","","","16","","13","","24.1","","99.15","","","","","","NA"
"-111.96","60.02","FORT SMITH A","2202201","2018-08-13 02:00","2018","08","13","02:00","12.5","","7.2","","70","","","","16","","16","","24.1","","99.10","","","","","","Cloudy"
"-111.96","60.02","FORT SMITH A","2202201","2018-08-13 03:00","2018","08","13","03:00","12.6","","7.5","","71","","","","16","","14","","24.1","","99.04","","","","","","NA"
"-111.96","60.02","FORT SMITH A","2202201","2018-08-13 04:00","2018","08","13","04:00","11.7","","7.2","","74","","","","15","","13","","19.3","","98.96","","","","","","NA"
"-111.96","60.02","FORT SMITH A","2202201","2018-08-13 05:00","2018","08","13","05:00","11.5","","7.2","","75","","","","16","","14","","4.8","","98.90","","","","","","Smoke"
"-111.96","60.02","FORT SMITH A","2202201","2018-08-13 06:00","2018","08","13","06:00","12.7","","7.5","","71","","","","16","","19","","9.7","","98.81","","","","","","Smoke"
"-111.96","60.02","FORT SMITH A","2202201","2018-08-13 07:00","2018","08","13","07:00","14.1","","8.2","","67","","","","17","","20","","9.7","","98.80","","","","","","Smoke"
"-111.96","60.02","FORT SMITH A","2202201","2018-08-13 08:00","2018","08","13","08:00","15.0","","8.7","","66","","","","17","","17","","4.8","","98.72","","","","","","Smoke"
"-111.96","60.02","FORT SMITH A","2202201","2018-08-13 09:00","2018","08","13","09:00","16.2","","9.3","","63","","","","17","","22","","8.1","","98.64","","","","","","Smoke"
"-111.96","60.02","FORT SMITH A","2202201","2018-08-13 10:00","2018","08","13","10:00","17.7","","10.1","","60","","","","17","","20","","9.7","","98.57","","","","","","Smoke"
"-111.96","60.02","FORT SMITH A","2202201","2018-08-13 11:00","2018","08","13","11:00","19.9","","9.7","","52","","","","18","","13","","16.1","","98.50","","","","","","Mainly Clear"
"-111.96","60.02","FORT SMITH A","2202201","2018-08-13 12:00","2018","08","13","12:00","21.1","","9.5","","47","","","","18","","25","","19.3","","98.40","","","","","","NA"
"-111.96","60.02","FORT SMITH A","2202201","2018-08-13 13:00","2018","08","13","13:00","22.1","","10.1","","46","","","","19","","20","","19.3","","98.28","","","","","","NA"
"-111.96","60.02","FORT SMITH A","2202201","2018-08-13 14:00","2018","08","13","14:00","23.5","","8.0","","36","","","","19","","21","","19.3","","98.17","","","","","","Mostly Cloudy"
"-111.96","60.02","FORT SMITH A","2202201","2018-08-13 15:00","2018","08","13","15:00","24.7","","8.6","","35","","","","18","","19","","19.3","","98.05","","25","","","","NA"
"-111.96","60.02","FORT SMITH A","2202201","2018-08-13 16:00","2018","08","13","16:00","23.9","","7.4","","34","","","","19","","23","","19.3","","97.96","","","","","","NA"
"-111.96","60.02","FORT SMITH A","2202201","2018-08-13 17:00","2018","08","13","17:00","23.9","","7.2","","34","","","","19","","23","","24.1","","97.88","","","","","","Cloudy"
"-111.96","60.02","FORT SMITH A","2202201","2018-08-13 18:00","2018","08","13","18:00","23.0","","7.9","","37","","","","19","","20","","24.1","","97.77","","","","","","NA"
"-111.96","60.02","FORT SMITH A","2202201","2018-08-13 19:00","2018","08","13","19:00","22.9","","8.7","","40","","","","19","","21","","24.1","","97.67","","","","","","NA"
"-111.96","60.02","FORT SMITH A","2202201","2018-08-13 20:00","2018","08","13","20:00","22.9","","9.1","","41","","","","19","","21","","24.1","","97.60","","","","","","Cloudy"
"-111.96","60.02","FORT SMITH A","2202201","2018-08-13 21:00","2018","08","13","21:00","22.7","","8.8","","41","","","","20","","22","","24.1","","97.51","","","","","","NA"
"-111.96","60.02","FORT SMITH A","2202201","2018-08-13 22:00","2018","08","13","22:00","22.3","","8.7","","41","","","","21","","21","","24.1","","97.45","","","","","","NA"
"-111.96","60.02","FORT SMITH A","2202201","2018-08-13 23:00","2018","08","13","23:00","22.0","","9.1","","43","","","","21","","19","","24.1","","97.36","","","","","","Cloudy"
"-111.96","60.02","FORT SMITH A","2202201","2018-08-14 00:00","2018","08","14","00:00","21.5","","9.6","","46","","","","21","","19","","24.1","","97.31","","","","","","NA"
"-111.96","60.02","FORT SMITH A","2202201","2018-08-14 01:00","2018","08","14","01:00","21.2","","10.1","","49","","","","22","","19","","24.1","","97.29","","","","","","NA"
"-111.96","60.02","FORT SMITH A","2202201","2018-08-14 02:00","2018","08","14","02:00","19.9","","10.4","","54","","","","22","","14","","24.1","","97.28","","","","","","Cloudy"
"-111.96","60.02","FORT SMITH A","2202201","2018-08-14 03:00","2018","08","14","03:00","18.7","","10.4","","58","","","","22","","14","","24.1","","97.28","","","","","","NA"
"-111.96","60.02","FORT SMITH A","2202201","2018-08-14 04:00","2018","08","14","04:00","17.2","","10.2","","63","","","","22","","12","","24.1","","97.27","","","","","","NA"
"-111.96","60.02","FORT SMITH A","2202201","2018-08-14 05:00","2018","08","14","05:00","15.0","","9.6","","70","","","","24","","8","","24.1","","97.31","","","","","","Mainly Clear"
"-111.96","60.02","FORT SMITH A","2202201","2018-08-14 06:00","2018","08","14","06:00","15.8","","10.2","","69","","","","24","","4","","19.3","","97.31","","","","","","NA"
"-111.96","60.02","FORT SMITH A","2202201","2018-08-14 07:00","2018","08","14","07:00","18.8","","10.8","","59","","","","29","","11","","19.3","","97.32","","","","","","NA"
"-111.96","60.02","FORT SMITH A","2202201","2018-08-14 08:00","2018","08","14","08:00","19.9","","11.1","","57","","","","31","","13","","24.1","","97.36","","","","","","Clear"
"-111.96","60.02","FORT SMITH A","2202201","2018-08-14 09:00","2018","08","14","09:00","21.0","","11.8","","55","","","","28","","9","","24.1","","97.39","","","","","","NA"
"-111.96","60.02","FORT SMITH A","2202201","2018-08-14 10:00","2018","08","14","10:00","22.1","","11.7","","51","","","","27","","12","","24.1","","97.39","","","","","","NA"
"-111.96","60.02","FORT SMITH A","2202201","2018-08-14 11:00","2018","08","14","11:00","23.5","","11.3","","46","","","","30","","13","","24.1","","97.38","","25","","","","Mostly Cloudy"
"-111.96","60.02","FORT SMITH A","2202201","2018-08-14 12:00","2018","08","14","12:00","24.5","","11.5","","44","","","","25","","8","","24.1","","97.36","","27","","","","NA"
"-111.96","60.02","FORT SMITH A","2202201","2018-08-14 13:00","2018","08","14","13:00","24.8","","10.6","","40","","","","32","","13","","24.1","","97.34","","26","","","","NA"
"-111.96","60.02","FORT SMITH A","2202201","2018-08-14 14:00","2018","08","14","14:00","26.0","","10.8","","38","","","","27","","15","","24.1","","97.34","","28","","","","Mostly Cloudy"
"-111.96","60.02","FORT SMITH A","2202201","2018-08-14 15:00","2018","08","14","15:00","25.8","","10.9","","39","","","","29","","6","","24.1","","97.33","","28","","","","NA"
"-111.96","60.02","FORT SMITH A","2202201","2018-08-14 16:00","2018","08","14","16:00","24.9","","11.1","","41","","","","31","","5","","24.1","","97.30","","27","","","","NA"
"-111.96","60.02","FORT SMITH A","2202201","2018-08-14 17:00","2018","08","14","17:00","24.7","","11.8","","44","","","","20","","4","","24.1","","97.28","","27","","","","Mostly Cloudy"
"-111.96","60.02","FORT SMITH A","2202201","2018-08-14 18:00","2018","08","14","18:00","25.1","","11.9","","43","","","","25","","8","","24.1","","97.27","","27","","","","NA"
"-111.96","60.02","FORT SMITH A","2202201","2018-08-14 19:00","2018","08","14","19:00","23.9","","9.6","","40","","","","25","","19","","24.1","","97.29","","25","","","","NA"
"-111.96","60.02","FORT SMITH A","2202201","2018-08-14 20:00","2018","08","14","20:00","21.2","","9.9","","48","","","","23","","11","","24.1","","97.28","","","","","","Mainly Clear"
"-111.96","60.02","FORT SMITH A","2202201","2018-08-14 21:00","2018","08","14","21:00","20.1","","9.2","","49","","","","20","","11","","24.1","","97.28","","","","","","NA"
"-111.96","60.02","FORT SMITH A","2202201","2018-08-14 22:00","2018","08","14","22:00","19.8","","9.5","","51","","","","21","","14","","24.1","","97.27","","","","","","NA"
"-111.96","60.02","FORT SMITH A","2202201","2018-08-14 23:00","2018","08","14","23:00","19.7","","8.5","","48","","","","24","","14","","24.1","","97.29","","","","","","Mainly Clear"
"-111.96","60.02","FORT SMITH A","2202201","2018-08-15 00:00","2018","08","15","00:00","18.1","","8.6","","53","","","","24","","13","","24.1","","97.33","","","","","","NA"
"-111.96","60.02","FORT SMITH A","2202201","2018-08-15 01:00","2018","08","15","01:00","17.4","","8.7","","56","","","","27","","11","","24.1","","97.41","","","","","","NA"
"-111.96","60.02","FORT SMITH A","2202201","2018-08-15 02:00","2018","08","15","02:00","16.6","","9.2","","61","","","","28","","28","","24.1","","97.50","","","","","","Mainly Clear"
"-111.96","60.02","FORT SMITH A","2202201","2018-08-15 03:00","2018","08","15","03:00","14.8","","10.4","","75","","","","29","","25","","24.1","","97.63","","","","","","NA"
"-111.96","60.02","FORT SMITH A","2202201","2018-08-15 04:00","2018","08","15","04:00","14.0","","10.3","","78","","","","28","","23","","24.1","","97.72","","","","","","NA"
"-111.96","60.02","FORT SMITH A","2202201","2018-08-15 05:00","2018","08","15","05:00","13.7","","10.0","","78","","","","30","","26","","24.1","","97.79","","","","","","Mostly Cloudy"
"-111.96","60.02","FORT SMITH A","2202201","2018-08-15 06:00","2018","08","15","06:00","13.4","","8.5","","72","","","","30","","25","","24.1","","97.93","","","","","","NA"
"-111.96","60.02","FORT SMITH A","2202201","2018-08-15 07:00","2018","08","15","07:00","13.2","","8.6","","73","","","","30","","19","","24.1","","98.06","","","","","","Rain Showers"
"-111.96","60.02","FORT SMITH A","2202201","2018-08-15 08:00","2018","08","15","08:00","12.7","","8.7","","76","","","","30","","29","","24.1","","98.18","","","","","","Rain Showers"
"-111.96","60.02","FORT SMITH A","2202201","2018-08-15 09:00","2018","08","15","09:00","12.5","","8.2","","75","","","","33","","22","","24.1","","98.33","","","","","","Rain Showers"
"-111.96","60.02","FORT SMITH A","2202201","2018-08-15 10:00","2018","08","15","10:00","12.8","","7.1","","68","","","","32","","20","","24.1","","98.47","","","","","","NA"
"-111.96","60.02","FORT SMITH A","2202201","2018-08-15 11:00","2018","08","15","11:00","12.7","","6.4","","65","","","","33","","20","","24.1","","98.59","","","","","","Cloudy"
"-111.96","60.02","FORT SMITH A","2202201","2018-08-15 12:00","2018","08","15","12:00","14.4","","6.2","","57","","","","34","","12","","24.1","","98.66","","","","","","NA"
"-111.96","60.02","FORT SMITH A","2202201","2018-08-15 13:00","2018","08","15","13:00","14.5","","6.0","","57","","","","32","","15","","24.1","","98.76","","","","","","NA"
"-111.96","60.02","FORT SMITH A","2202201","2018-08-15 14:00","2018","08","15","14:00","15.4","","5.8","","52","","","","28","","20","","24.1","","98.79","","","","","","Mostly Cloudy"
"-111.96","60.02","FORT SMITH A","2202201","2018-08-15 15:00","2018","08","15","15:00","15.8","","6.1","","52","","","","29","","17","","24.1","","98.87","","","","","","NA"
"-111.96","60.02","FORT SMITH A","2202201","2018-08-15 16:00","2018","08","15","16:00","15.8","","5.2","","49","","","","29","","23","","24.1","","98.90","","","","","","NA"
"-111.96","60.02","FORT SMITH A","2202201","2018-08-15 17:00","2018","08","15","17:00","16.2","","5.4","","49","","","","30","","14","","24.1","","98.95","","","","","","Mostly Cloudy"
"-111.96","60.02","FORT SMITH A","2202201","2018-08-15 18:00","2018","08","15","18:00","15.6","","5.3","","50","","","","35","","12","","24.1","","98.98","","","","","","NA"
"-111.96","60.02","FORT SMITH A","2202201","2018-08-15 19:00","2018","08","15","19:00","14.8","","4.8","","51","","","","32","","9","","24.1","","99.01","","","","","","NA"
"-111.96","60.02","FORT SMITH A","2202201","2018-08-15 20:00","2018","08","15","20:00","11.9","","5.3","","64","","","","35","","5","","24.1","","99.04","","","","","","Clear"
"-111.96","60.02","FORT SMITH A","2202201","2018-08-15 21:00","2018","08","15","21:00","9.8","","5.7","","76","","","","36","","2","","24.1","","99.09","","","","","","NA"
"-111.96","60.02","FORT SMITH A","2202201","2018-08-15 22:00","2018","08","15","22:00","7.6","","4.9","","83","","","","36","","1","","24.1","","99.09","","","","","","NA"
"-111.96","60.02","FORT SMITH A","2202201","2018-08-15 23:00","2018","08","15","23:00","7.2","","4.5","","83","","","","17","","6","","24.1","","99.10","","","","","","Mainly Clear"
"-111.96","60.02","FORT SMITH A","2202201","2018-08-16 00:00","2018","08","16","00:00","6.0","","3.7","","85","","","","16","","5","","24.1","","99.12","","","","","","NA"
"-111.96","60.02","FORT SMITH A","2202201","2018-08-16 01:00","2018","08","16","01:00","6.0","","4.1","","88","","","","15","","10","","24.1","","99.10","","","","","","NA"
"-111.96","60.02","FORT SMITH A","2202201","2018-08-16 02:00","2018","08","16","02:00","6.6","","4.5","","86","","","","15","","12","","24.1","","99.08","","","","","","Mainly Clear"
"-111.96","60.02","FORT SMITH A","2202201","2018-08-16 03:00","2018","08","16","03:00","6.9","","4.4","","84","","","","15","","10","","24.1","","99.07","","","","","","NA"
"-111.96","60.02","FORT SMITH A","2202201","2018-08-16 04:00","2018","08","16","04:00","6.9","","4.5","","84","","","","15","","12","","24.1","","99.04","","","","","","NA"
"-111.96","60.02","FORT SMITH A","2202201","2018-08-16 05:00","2018","08","16","05:00","7.6","","4.9","","83","","","","16","","14","","24.1","","99.01","","","","","","Mainly Clear"
"-111.96","60.02","FORT SMITH A","2202201","2018-08-16 06:00","2018","08","16","06:00","8.3","","5.5","","83","","","","16","","14","","16.1","","98.97","","","","","","NA"
"-111.96","60.02","FORT SMITH A","2202201","2018-08-16 07:00","2018","08","16","07:00","10.3","","7.0","","80","","","","17","","14","","12.9","","98.95","","","","","","NA"
"-111.96","60.02","FORT SMITH A","2202201","2018-08-16 08:00","2018","08","16","08:00","11.7","","7.9","","78","","","","17","","13","","6.4","","98.91","","","","","","Smoke"
"-111.96","60.02","FORT SMITH A","2202201","2018-08-16 09:00","2018","08","16","09:00","13.6","","8.5","","71","","","","17","","17","","6.4","","98.86","","","","","","Smoke"
"-111.96","60.02","FORT SMITH A","2202201","2018-08-16 10:00","2018","08","16","10:00","14.8","","9.1","","68","","","","17","","17","","9.7","","98.79","","","","","","Smoke"
"-111.96","60.02","FORT SMITH A","2202201","2018-08-16 11:00","2018","08","16","11:00","16.4","","9.7","","64","","","","16","","15","","19.3","","98.73","","","","","","Mostly Cloudy"
"-111.96","60.02","FORT SMITH A","2202201","2018-08-16 12:00","2018","08","16","12:00","20.1","","10.3","","53","","","","17","","23","","16.1","","98.63","","","","","","NA"
"-111.96","60.02","FORT SMITH A","2202201","2018-08-16 13:00","2018","08","16","13:00","21.4","","10.0","","48","","","","19","","17","","12.9","","98.58","","","","","","NA"
"-111.96","60.02","FORT SMITH A","2202201","2018-08-16 14:00","2018","08","16","14:00","23.1","","9.7","","42","","","","17","","21","","16.1","","98.50","","","","","","Mostly Cloudy"
"-111.96","60.02","FORT SMITH A","2202201","2018-08-16 15:00","2018","08","16","15:00","23.2","","8.6","","39","","","","20","","14","","16.1","","98.46","","","","","","NA"
"-111.96","60.02","FORT SMITH A","2202201","2018-08-16 16:00","2018","08","16","16:00","24.2","","9.1","","38","","","","20","","10","","16.1","","98.39","","25","","","","NA"
"-111.96","60.02","FORT SMITH A","2202201","2018-08-16 17:00","2018","08","16","17:00","24.9","","8.8","","35","","","","19","","17","","19.3","","98.36","","26","","","","Mostly Cloudy"
"-111.96","60.02","FORT SMITH A","2202201","2018-08-16 18:00","2018","08","16","18:00","24.0","","10.3","","42","","","","17","","11","","19.3","","98.33","","25","","","","NA"
"-111.96","60.02","FORT SMITH A","2202201","2018-08-16 19:00","2018","08","16","19:00","22.4","","10.5","","46","","","","17","","9","","19.3","","98.31","","","","","","NA"
"-111.96","60.02","FORT SMITH A","2202201","2018-08-16 20:00","2018","08","16","20:00","19.1","","11.7","","62","","","","17","","8","","19.3","","98.33","","","","","","Mostly Cloudy"
"-111.96","60.02","FORT SMITH A","2202201","2018-08-16 21:00","2018","08","16","21:00","18.3","","11.3","","64","","","","31","","5","","19.3","","98.37","","","","","","NA"
"-111.96","60.02","FORT SMITH A","2202201","2018-08-16 22:00","2018","08","16","22:00","16.3","","13.3","","83","","","","14","","5","","24.1","","98.36","","","","","","Rain Showers"
"-111.96","60.02","FORT SMITH A","2202201","2018-08-16 23:00","2018","08","16","23:00","14.6","","13.1","","91","","","","36","","2","","24.1","","98.36","","","","","","Mostly Cloudy"
"-111.96","60.02","FORT SMITH A","2202201","2018-08-17 00:00","2018","08","17","00:00","13.4","","12.7","","95","","","","36","","1","","24.1","","98.37","","","","","","NA"
"-111.96","60.02","FORT SMITH A","2202201","2018-08-17 01:00","2018","08","17","01:00","12.4","","11.3","","93","","","","36","","1","","24.1","","98.36","","","","","","NA"
"-111.96","60.02","FORT SMITH A","2202201","2018-08-17 02:00","2018","08","17","02:00","12.1","","11.1","","94","","","","36","","1","","24.1","","98.34","","","","","","Mostly Cloudy"
"-111.96","60.02","FORT SMITH A","2202201","2018-08-17 03:00","2018","08","17","03:00","12.0","","10.6","","91","","","","16","","4","","24.1","","98.34","","","","","","NA"
"-111.96","60.02","FORT SMITH A","2202201","2018-08-17 04:00","2018","08","17","04:00","11.2","","10.0","","92","","","","16","","4","","19.3","","98.35","","","","","","NA"
"-111.96","60.02","FORT SMITH A","2202201","2018-08-17 05:00","2018","08","17","05:00","9.8","","8.6","","92","","","","36","","1","","9.7","","98.36","","","","","","Smoke"
"-111.96","60.02","FORT SMITH A","2202201","2018-08-17 06:00","2018","08","17","06:00","9.8","","8.8","","94","","","","21","","5","","9.7","","98.39","","","","","","Smoke"
"-111.96","60.02","FORT SMITH A","2202201","2018-08-17 07:00","2018","08","17","07:00","12.1","","9.5","","84","","","","18","","4","","4.8","","98.40","","","","","","Smoke"
"-111.96","60.02","FORT SMITH A","2202201","2018-08-17 08:00","2018","08","17","08:00","14.5","","9.2","","70","","","","21","","4","","4.8","","98.39","","","","","","Smoke"
"-111.96","60.02","FORT SMITH A","2202201","2018-08-17 09:00","2018","08","17","09:00","17.4","","7.8","","53","","","","28","","11","","4.8","","98.35","","","","","","Smoke"
"-111.96","60.02","FORT SMITH A","2202201","2018-08-17 10:00","2018","08","17","10:00","19.3","","7.7","","47","","","","24","","7","","4.8","","98.33","","","","","","Smoke"
"-111.96","60.02","FORT SMITH A","2202201","2018-08-17 11:00","2018","08","17","11:00","21.9","","6.7","","37","","","","23","","18","","4.8","","98.30","","","","","","Smoke"
"-111.96","60.02","FORT SMITH A","2202201","2018-08-17 12:00","2018","08","17","12:00","23.0","","6.8","","35","","","","23","","19","","6.4","","98.27","","","","","","Smoke"
"-111.96","60.02","FORT SMITH A","2202201","2018-08-17 13:00","2018","08","17","13:00","24.1","","5.2","","29","","","","27","","11","","9.7","","98.21","","","","","","Smoke"
"-111.96","60.02","FORT SMITH A","2202201","2018-08-17 14:00","2018","08","17","14:00","25.2","","1.9","","22","","","","26","","14","","9.7","","98.18","","","","","","Smoke"
"-111.96","60.02","FORT SMITH A","2202201","2018-08-17 15:00","2018","08","17","15:00","23.8","","0.6","","21","","","","24","","26","","4.8","","98.19","","","","","","Smoke"
"-111.96","60.02","FORT SMITH A","2202201","2018-08-17 16:00","2018","08","17","16:00","22.9","","0.6","","23","","","","27","","29","","4.8","","98.21","","","","","","Smoke"
"-111.96","60.02","FORT SMITH A","2202201","2018-08-17 17:00","2018","08","17","17:00","22.8","","1.0","","23","","","","26","","28","","4.8","","98.18","","","","","","Smoke"
"-111.96","60.02","FORT SMITH A","2202201","2018-08-17 18:00","2018","08","17","18:00","21.7","","2.7","","28","","","","25","","19","","4.8","","98.18","","","","","","Smoke"
"-111.96","60.02","FORT SMITH A","2202201","2018-08-17 19:00","2018","08","17","19:00","21.3","","1.5","","27","","","","27","","23","","4.8","","98.21","","","","","","Smoke"
"-111.96","60.02","FORT SMITH A","2202201","2018-08-17 20:00","2018","08","17","20:00","19.0","","2.6","","33","","","","25","","12","","4.8","","98.23","","","","","","Smoke"
"-111.96","60.02","FORT SMITH A","2202201","2018-08-17 21:00","2018","08","17","21:00","16.6","","2.6","","39","","","","22","","12","","4.8","","98.24","","","","","","Smoke"
"-111.96","60.02","FORT SMITH A","2202201","2018-08-17 22:00","2018","08","17","22:00","16.4","","1.8","","37","","","","25","","10","","4.8","","98.22","","","","","","Smoke"
"-111.96","60.02","FORT SMITH A","2202201","2018-08-17 23:00","2018","08","17","23:00","15.0","","1.9","","41","","","","24","","12","","4.8","","98.23","","","","","","Smoke"
"-111.96","60.02","FORT SMITH A","2202201","2018-08-18 00:00","2018","08","18","00:00","14.4","","1.9","","43","","","","25","","13","","4.8","","98.25","","","","","","Smoke"
"-111.96","60.02","FORT SMITH A","2202201","2018-08-18 01:00","2018","08","18","01:00","14.1","","2.7","","46","","","","25","","12","","4.8","","98.27","","","","","","Smoke"
"-111.96","60.02","FORT SMITH A","2202201","2018-08-18 02:00","2018","08","18","02:00","13.0","","2.9","","50","","","","24","","9","","4.8","","98.27","","","","","","Smoke"
"-111.96","60.02","FORT SMITH A","2202201","2018-08-18 03:00","2018","08","18","03:00","12.8","","3.0","","51","","","","23","","13","","4.8","","98.33","","","","","","Smoke"
"-111.96","60.02","FORT SMITH A","2202201","2018-08-18 04:00","2018","08","18","04:00","12.1","","3.5","","56","","","","24","","12","","19.3","","98.37","","","","","","NA"
"-111.96","60.02","FORT SMITH A","2202201","2018-08-18 05:00","2018","08","18","05:00","13.7","","6.8","","63","","","","28","","21","","24.1","","98.43","","","","","","Mostly Cloudy"
"-111.96","60.02","FORT SMITH A","2202201","2018-08-18 06:00","2018","08","18","06:00","13.0","","8.7","","75","","","","29","","24","","24.1","","98.55","","","","","","NA"
"-111.96","60.02","FORT SMITH A","2202201","2018-08-18 07:00","2018","08","18","07:00","13.3","","9.1","","75","","","","30","","24","","24.1","","98.66","","","","","","NA"
"-111.96","60.02","FORT SMITH A","2202201","2018-08-18 08:00","2018","08","18","08:00","14.5","","8.8","","68","","","","31","","16","","24.1","","98.76","","","","","","Mostly Cloudy"
"-111.96","60.02","FORT SMITH A","2202201","2018-08-18 09:00","2018","08","18","09:00","15.5","","8.8","","64","","","","30","","25","","24.1","","98.84","","","","","","NA"
"-111.96","60.02","FORT SMITH A","2202201","2018-08-18 10:00","2018","08","18","10:00","17.1","","6.7","","50","","","","30","","30","","24.1","","98.93","","","","","","NA"
"-111.96","60.02","FORT SMITH A","2202201","2018-08-18 11:00","2018","08","18","11:00","17.4","","7.0","","50","","","","31","","27","","24.1","","98.98","","","","","","Mainly Clear"
"-111.96","60.02","FORT SMITH A","2202201","2018-08-18 12:00","2018","08","18","12:00","17.3","","5.7","","46","","","","32","","21","","24.1","","99.05","","","","","","NA"
"-111.96","60.02","FORT SMITH A","2202201","2018-08-18 13:00","2018","08","18","13:00","18.8","","6.4","","44","","","","29","","25","","24.1","","99.10","","","","","","NA"
"-111.96","60.02","FORT SMITH A","2202201","2018-08-18 14:00","2018","08","18","14:00","17.9","","5.8","","45","","","","31","","23","","24.1","","99.19","","","","","","Mostly Cloudy"
"-111.96","60.02","FORT SMITH A","2202201","2018-08-18 15:00","2018","08","18","15:00","18.2","","5.7","","43","","","","32","","20","","24.1","","99.22","","","","","","NA"
"-111.96","60.02","FORT SMITH A","2202201","2018-08-18 16:00","2018","08","18","16:00","17.0","","6.0","","48","","","","33","","17","","24.1","","99.29","","","","","","NA"
"-111.96","60.02","FORT SMITH A","2202201","2018-08-18 17:00","2018","08","18","17:00","17.7","","5.3","","44","","","","30","","23","","24.1","","99.30","","","","","","Mostly Cloudy"
"-111.96","60.02","FORT SMITH A","2202201","2018-08-18 18:00","2018","08","18","18:00","17.0","","6.1","","48","","","","33","","10","","24.1","","99.30","","","","","","NA"
"-111.96","60.02","FORT SMITH A","2202201","2018-08-18 19:00","2018","08","18","19:00","16.1","","6.4","","52","","","","31","","8","","24.1","","99.30","","","","","","NA"
"-111.96","60.02","FORT SMITH A","2202201","2018-08-18 20:00","2018","08","18","20:00","14.3","","6.7","","60","","","","35","","4","","24.1","","99.32","","","","","","Mostly Cloudy"
"-111.96","60.02","FORT SMITH A","2202201","2018-08-18 21:00","2018","08","18","21:00","13.0","","7.0","","67","","","","16","","3","","24.1","","99.33","","","","","","NA"
"-111.96","60.02","FORT SMITH A","2202201","2018-08-18 22:00","2018","08","18","22:00","12.5","","7.2","","70","","","","19","","3","","24.1","","99.34","","","","","","NA"
"-111.96","60.02","FORT SMITH A","2202201","2018-08-18 23:00","2018","08","18","23:00","12.9","","6.7","","66","","","","31","","14","","24.1","","99.38","","","","","","Mostly Cloudy"
"-111.96","60.02","FORT SMITH A","2202201","2018-08-19 00:00","2018","08","19","00:00","11.6","","9.5","","87","","","","28","","13","","9.7","","99.42","","","","","","Rain Showers"
"-111.96","60.02","FORT SMITH A","2202201","2018-08-19 01:00","2018","08","19","01:00","11.1","","9.5","","90","","","","28","","5","","19.3","","99.41","","","","","","Rain Showers"
"-111.96","60.02","FORT SMITH A","2202201","2018-08-19 02:00","2018","08","19","02:00","10.4","","9.3","","93","","","","20","","6","","19.3","","99.44","","","","","","Rain Showers"
"-111.96","60.02","FORT SMITH A","2202201","2018-08-19 03:00","2018","08","19","03:00","9.7","","8.8","","94","","","","27","","6","","19.3","","99.45","","","","","","Rain Showers"
"-111.96","60.02","FORT SMITH A","2202201","2018-08-19 04:00","2018","08","19","04:00","9.0","","8.2","","95","","","","26","","8","","24.1","","99.48","","","","","","NA"
"-111.96","60.02","FORT SMITH A","2202201","2018-08-19 05:00","2018","08","19","05:00","9.1","","8.2","","94","","","","29","","8","","24.1","","99.52","","","","","","Mainly Clear"
"-111.96","60.02","FORT SMITH A","2202201","2018-08-19 06:00","2018","08","19","06:00","9.0","","8.3","","95","","","","29","","7","","24.1","","99.57","","","","","","NA"
"-111.96","60.02","FORT SMITH A","2202201","2018-08-19 07:00","2018","08","19","07:00","10.4","","9.2","","92","","","","30","","10","","24.1","","99.63","","","","","","NA"
"-111.96","60.02","FORT SMITH A","2202201","2018-08-19 08:00","2018","08","19","08:00","11.4","","9.5","","88","","","","30","","9","","24.1","","99.65","","","","","","Mainly Clear"
"-111.96","60.02","FORT SMITH A","2202201","2018-08-19 09:00","2018","08","19","09:00","13.2","","9.1","","76","","","","32","","8","","24.1","","99.66","","","","","","NA"
"-111.96","60.02","FORT SMITH A","2202201","2018-08-19 10:00","2018","08","19","10:00","14.9","","8.6","","66","","","","29","","14","","24.1","","99.66","","","","","","NA"
"-111.96","60.02","FORT SMITH A","2202201","2018-08-19 11:00","2018","08","19","11:00","16.2","","7.6","","56","","","","29","","24","","24.1","","99.65","","","","","","Mostly Cloudy"
"-111.96","60.02","FORT SMITH A","2202201","2018-08-19 12:00","2018","08","19","12:00","17.2","","6.6","","49","","","","30","","23","","24.1","","99.64","","","","","","Rain Showers"
"-111.96","60.02","FORT SMITH A","2202201","2018-08-19 13:00","2018","08","19","13:00","16.9","","7.0","","52","","","","29","","22","","24.1","","99.65","","","","","","Rain Showers"
"-111.96","60.02","FORT SMITH A","2202201","2018-08-19 14:00","2018","08","19","14:00","18.6","","5.8","","43","","","","32","","16","","24.1","","99.64","","","","","","Mostly Cloudy"
"-111.96","60.02","FORT SMITH A","2202201","2018-08-19 15:00","2018","08","19","15:00","17.7","","5.2","","43","","","","30","","14","","24.1","","99.61","","","","","","NA"
"-111.96","60.02","FORT SMITH A","2202201","2018-08-19 16:00","2018","08","19","16:00","17.8","","6.1","","46","","","","33","","14","","24.1","","99.61","","","","","","NA"
"-111.96","60.02","FORT SMITH A","2202201","2018-08-19 17:00","2018","08","19","17:00","17.1","","6.6","","50","","","","31","","12","","24.1","","99.63","","","","","","Mostly Cloudy"
"-111.96","60.02","FORT SMITH A","2202201","2018-08-19 18:00","2018","08","19","18:00","16.3","","6.0","","50","","","","30","","17","","24.1","","99.67","","","","","","NA"
"-111.96","60.02","FORT SMITH A","2202201","2018-08-19 19:00","2018","08","19","19:00","16.6","","6.7","","52","","","","28","","13","","24.1","","99.64","","","","","","NA"
"-111.96","60.02","FORT SMITH A","2202201","2018-08-19 20:00","2018","08","19","20:00","13.9","","6.8","","62","","","","29","","6","","24.1","","99.67","","","","","","Mainly Clear"
"-111.96","60.02","FORT SMITH A","2202201","2018-08-19 21:00","2018","08","19","21:00","12.0","","6.6","","69","","","","23","","11","","24.1","","99.67","","","","","","NA"
"-111.96","60.02","FORT SMITH A","2202201","2018-08-19 22:00","2018","08","19","22:00","11.8","","6.7","","71","","","","25","","9","","24.1","","99.69","","","","","","NA"
"-111.96","60.02","FORT SMITH A","2202201","2018-08-19 23:00","2018","08","19","23:00","11.3","","6.3","","71","","","","23","","10","","24.1","","99.68","","","","","","Mostly Cloudy"
"-111.96","60.02","FORT SMITH A","2202201","2018-08-20 00:00","2018","08","20","00:00","11.1","","6.2","","72","","","","23","","12","","24.1","","99.69","","","","","","NA"
"-111.96","60.02","FORT SMITH A","2202201","2018-08-20 01:00","2018","08","20","01:00","9.7","","5.8","","76","","","","23","","10","","24.1","","99.68","","","","","","NA"
"-111.96","60.02","FORT SMITH A","2202201","2018-08-20 02:00","2018","08","20","02:00","8.7","","5.3","","79","","","","23","","4","","24.1","","99.68","","","","","","Mainly Clear"
"-111.96","60.02","FORT SMITH A","2202201","2018-08-20 03:00","2018","08","20","03:00","8.7","","5.5","","80","","","","36","","2","","24.1","","99.68","","","","","","NA"
"-111.96","60.02","FORT SMITH A","2202201","2018-08-20 04:00","2018","08","20","04:00","8.9","","5.6","","79","","","","21","","4","","24.1","","99.67","","","","","","NA"
"-111.96","60.02","FORT SMITH A","2202201","2018-08-20 05:00","2018","08","20","05:00","8.2","","5.3","","82","","","","22","","7","","24.1","","99.66","","","","","","Mainly Clear"
"-111.96","60.02","FORT SMITH A","2202201","2018-08-20 06:00","2018","08","20","06:00","9.8","","6.1","","78","","","","22","","7","","24.1","","99.66","","","","","","NA"
"-111.96","60.02","FORT SMITH A","2202201","2018-08-20 07:00","2018","08","20","07:00","10.7","","6.8","","76","","","","23","","4","","24.1","","99.67","","","","","","NA"
"-111.96","60.02","FORT SMITH A","2202201","2018-08-20 08:00","2018","08","20","08:00","13.6","","7.1","","65","","","","22","","5","","24.1","","99.63","","","","","","Mainly Clear"
"-111.96","60.02","FORT SMITH A","2202201","2018-08-20 09:00","2018","08","20","09:00","16.1","","7.2","","55","","","","28","","7","","24.1","","99.59","","","","","","NA"
"-111.96","60.02","FORT SMITH A","2202201","2018-08-20 10:00","2018","08","20","10:00","17.9","","7.2","","49","","","","23","","8","","24.1","","99.54","","","","","","NA"
"-111.96","60.02","FORT SMITH A","2202201","2018-08-20 11:00","2018","08","20","11:00","19.8","","6.8","","42","","","","20","","7","","24.1","","99.45","","","","","","Mostly Cloudy"
"-111.96","60.02","FORT SMITH A","2202201","2018-08-20 12:00","2018","08","20","12:00","21.7","","5.7","","35","","","","24","","13","","24.1","","99.36","","","","","","NA"
"-111.96","60.02","FORT SMITH A","2202201","2018-08-20 13:00","2018","08","20","13:00","21.8","","5.1","","33","","","","23","","16","","24.1","","99.29","","","","","","NA"
"-111.96","60.02","FORT SMITH A","2202201","2018-08-20 14:00","2018","08","20","14:00","22.6","","5.3","","32","","","","21","","10","","24.1","","99.21","","","","","","Mostly Cloudy"
"-111.96","60.02","FORT SMITH A","2202201","2018-08-20 15:00","2018","08","20","15:00","22.8","","6.0","","33","","","","23","","13","","24.1","","99.14","","","","","","NA"
"-111.96","60.02","FORT SMITH A","2202201","2018-08-20 16:00","2018","08","20","16:00","23.7","","5.6","","31","","","","20","","9","","24.1","","99.04","","","","","","NA"
"-111.96","60.02","FORT SMITH A","2202201","2018-08-20 17:00","2018","08","20","17:00","22.9","","7.2","","36","","","","21","","10","","19.3","","98.99","","","","","","Cloudy"
"-111.96","60.02","FORT SMITH A","2202201","2018-08-20 18:00","2018","08","20","18:00","21.9","","7.6","","39","","","","19","","10","","6.4","","98.93","","","","","","Smoke"
"-111.96","60.02","FORT SMITH A","2202201","2018-08-20 19:00","2018","08","20","19:00","21.3","","7.0","","39","","","","19","","12","","6.4","","98.87","","","","","","Smoke"
"-111.96","60.02","FORT SMITH A","2202201","2018-08-20 20:00","2018","08","20","20:00","18.2","","7.1","","48","","","","22","","12","","6.4","","98.85","","","","","","Smoke"
"-111.96","60.02","FORT SMITH A","2202201","2018-08-20 21:00","2018","08","20","21:00","18.1","","8.0","","51","","","","27","","9","","4.8","","98.87","","","","","","Smoke"
"-111.96","60.02","FORT SMITH A","2202201","2018-08-20 22:00","2018","08","20","22:00","17.7","","7.9","","52","","","","26","","8","","6.4","","98.86","","","","","","Smoke"
"-111.96","60.02","FORT SMITH A","2202201","2018-08-20 23:00","2018","08","20","23:00","15.8","","7.7","","58","","","","29","","10","","9.7","","98.86","","","","","","Smoke"
"-111.96","60.02","FORT SMITH A","2202201","2018-08-21 00:00","2018","08","21","00:00","14.0","","7.4","","64","","","","28","","10","","9.7","","98.86","","","","","","Smoke"
"-111.96","60.02","FORT SMITH A","2202201","2018-08-21 01:00","2018","08","21","01:00","13.0","","7.6","","70","","","","29","","10","","16.1","","98.86","","","","","","NA"
"-111.96","60.02","FORT SMITH A","2202201","2018-08-21 02:00","2018","08","21","02:00","11.9","","7.3","","73","","","","29","","8","","16.1","","98.84","","","","","","Mainly Clear"
"-111.96","60.02","FORT SMITH A","2202201","2018-08-21 03:00","2018","08","21","03:00","10.9","","6.9","","76","","","","21","","4","","16.1","","98.84","","","","","","NA"
"-111.96","60.02","FORT SMITH A","2202201","2018-08-21 04:00","2018","08","21","04:00","9.9","","6.7","","80","","","","25","","6","","9.7","","98.88","","","","","","Smoke"
"-111.96","60.02","FORT SMITH A","2202201","2018-08-21 05:00","2018","08","21","05:00","11.8","","7.8","","76","","","","27","","10","","6.4","","98.88","","","","","","Smoke"
"-111.96","60.02","FORT SMITH A","2202201","2018-08-21 06:00","2018","08","21","06:00","12.7","","8.6","","76","","","","27","","10","","4.8","","98.89","","","","","","Smoke"
"-111.96","60.02","FORT SMITH A","2202201","2018-08-21 07:00","2018","08","21","07:00","14.1","","8.7","","70","","","","27","","10","","12.9","","98.89","","","","","","Smoke"
"-111.96","60.02","FORT SMITH A","2202201","2018-08-21 08:00","2018","08","21","08:00","15.8","","9.0","","63","","","","29","","15","","19.3","","98.90","","","","","","Mainly Clear"
"-111.96","60.02","FORT SMITH A","2202201","2018-08-21 09:00","2018","08","21","09:00","17.0","","8.9","","59","","","","27","","13","","19.3","","98.88","","","","","","NA"
"-111.96","60.02","FORT SMITH A","2202201","2018-08-21 10:00","2018","08","21","10:00","18.7","","8.9","","53","","","","31","","12","","24.1","","98.87","","","","","","NA"
"-111.96","60.02","FORT SMITH A","2202201","2018-08-21 11:00","2018","08","21","11:00","19.6","","8.7","","49","","","","29","","8","","24.1","","98.81","","","","","","Mostly Cloudy"
"-111.96","60.02","FORT SMITH A","2202201","2018-08-21 12:00","2018","08","21","12:00","19.7","","8.5","","48","","","","27","","11","","24.1","","98.80","","","","","","NA"
"-111.96","60.02","FORT SMITH A","2202201","2018-08-21 13:00","2018","08","21","13:00","21.0","","8.4","","44","","","","21","","7","","24.1","","98.72","","","","","","NA"
"-111.96","60.02","FORT SMITH A","2202201","2018-08-21 14:00","2018","08","21","14:00","21.6","","7.5","","40","","","","20","","4","","24.1","","98.65","","","","","","Mostly Cloudy"
"-111.96","60.02","FORT SMITH A","2202201","2018-08-21 15:00","2018","08","21","15:00","22.0","","8.1","","40","","","","36","","1","","24.1","","98.55","","","","","","NA"
"-111.96","60.02","FORT SMITH A","2202201","2018-08-21 16:00","2018","08","21","16:00","22.2","","8.4","","41","","","","7","","10","","24.1","","98.47","","","","","","NA"
"-111.96","60.02","FORT SMITH A","2202201","2018-08-21 17:00","2018","08","21","17:00","22.3","","9.2","","43","","","","4","","8","","24.1","","98.39","","","","","","Mostly Cloudy"
"-111.96","60.02","FORT SMITH A","2202201","2018-08-21 18:00","2018","08","21","18:00","21.0","","10.1","","49","","","","5","","11","","24.1","","98.34","","","","","","NA"
"-111.96","60.02","FORT SMITH A","2202201","2018-08-21 19:00","2018","08","21","19:00","20.2","","10.2","","52","","","","6","","8","","24.1","","98.25","","","","","","NA"
"-111.96","60.02","FORT SMITH A","2202201","2018-08-21 20:00","2018","08","21","20:00","18.4","","9.5","","56","","","","4","","8","","24.1","","98.21","","","","","","Mostly Cloudy"
"-111.96","60.02","FORT SMITH A","2202201","2018-08-21 21:00","2018","08","21","21:00","17.2","","9.0","","58","","","","6","","7","","24.1","","98.12","","","","","","NA"
"-111.96","60.02","FORT SMITH A","2202201","2018-08-21 22:00","2018","08","21","22:00","16.9","","9.0","","59","","","","6","","5","","24.1","","98.03","","","","","","NA"
"-111.96","60.02","FORT SMITH A","2202201","2018-08-21 23:00","2018","08","21","23:00","16.4","","8.9","","61","","","","5","","3","","24.1","","97.92","","","","","","Cloudy"
"-111.96","60.02","FORT SMITH A","2202201","2018-08-22 00:00","2018","08","22","00:00","14.9","","9.0","","67","","","","2","","7","","24.1","","97.91","","","","","","NA"
"-111.96","60.02","FORT SMITH A","2202201","2018-08-22 01:00","2018","08","22","01:00","15.1","","9.1","","68","","","","5","","6","","24.1","","97.84","","","","","","NA"
"-111.96","60.02","FORT SMITH A","2202201","2018-08-22 02:00","2018","08","22","02:00","15.7","","8.8","","64","","","","4","","9","","24.1","","97.71","","","","","","Mostly Cloudy"
"-111.96","60.02","FORT SMITH A","2202201","2018-08-22 03:00","2018","08","22","03:00","13.5","","8.8","","73","","","","1","","5","","24.1","","97.70","","","","","","NA"
"-111.96","60.02","FORT SMITH A","2202201","2018-08-22 04:00","2018","08","22","04:00","14.2","","8.9","","70","","","","3","","16","","24.1","","97.71","","","","","","NA"
"-111.96","60.02","FORT SMITH A","2202201","2018-08-22 05:00","2018","08","22","05:00","13.9","","8.9","","72","","","","36","","10","","24.1","","97.77","","","","","","Mostly Cloudy"
"-111.96","60.02","FORT SMITH A","2202201","2018-08-22 06:00","2018","08","22","06:00","13.5","","7.7","","68","","","","36","","13","","24.1","","97.83","","","","","","NA"
"-111.96","60.02","FORT SMITH A","2202201","2018-08-22 07:00","2018","08","22","07:00","13.8","","7.4","","65","","","","1","","18","","24.1","","97.92","","","","","","NA"
"-111.96","60.02","FORT SMITH A","2202201","2018-08-22 08:00","2018","08","22","08:00","13.8","","8.1","","69","","","","3","","21","","24.1","","98.01","","","","","","Mostly Cloudy"
"-111.96","60.02","FORT SMITH A","2202201","2018-08-22 09:00","2018","08","22","09:00","12.9","","7.5","","70","","","","36","","27","","24.1","","98.15","","","","","","NA"
"-111.96","60.02","FORT SMITH A","2202201","2018-08-22 10:00","2018","08","22","10:00","10.1","","5.2","","71","","","","1","","21","","24.1","","98.34","","","","","","Rain"
"-111.96","60.02","FORT SMITH A","2202201","2018-08-22 11:00","2018","08","22","11:00","10.2","","2.6","","59","","","","3","","18","","24.1","","98.45","","","","","","Cloudy"
"-111.96","60.02","FORT SMITH A","2202201","2018-08-22 12:00","2018","08","22","12:00","9.5","","2.0","","59","","","","2","","20","","24.1","","98.55","","","","","","NA"
"-111.96","60.02","FORT SMITH A","2202201","2018-08-22 13:00","2018","08","22","13:00","8.6","","-0.2","","54","","","","4","","23","","24.1","","98.59","","","","","","NA"
"-111.96","60.02","FORT SMITH A","2202201","2018-08-22 14:00","2018","08","22","14:00","9.0","","-1.0","","49","","","","4","","18","","24.1","","98.68","","","","","","Mostly Cloudy"
"-111.96","60.02","FORT SMITH A","2202201","2018-08-22 15:00","2018","08","22","15:00","9.3","","-0.9","","49","","","","2","","12","","24.1","","98.84","","","","","","NA"
"-111.96","60.02","FORT SMITH A","2202201","2018-08-22 16:00","2018","08","22","16:00","8.8","","-1.3","","49","","","","3","","11","","24.1","","98.80","","","","","","NA"
"-111.96","60.02","FORT SMITH A","2202201","2018-08-22 17:00","2018","08","22","17:00","8.8","","-0.7","","52","","","","36","","8","","24.1","","98.94","","","","","","Cloudy"
"-111.96","60.02","FORT SMITH A","2202201","2018-08-22 18:00","2018","08","22","18:00","8.7","","-0.4","","53","","","","4","","9","","24.1","","98.91","","","","","","NA"
"-111.96","60.02","FORT SMITH A","2202201","2018-08-22 19:00","2018","08","22","19:00","7.9","","0.5","","60","","","","2","","7","","24.1","","99.01","","","","","","NA"
"-111.96","60.02","FORT SMITH A","2202201","2018-08-22 20:00","2018","08","22","20:00","7.1","","1.1","","65","","","","2","","7","","24.1","","99.04","","","","","","Cloudy"
"-111.96","60.02","FORT SMITH A","2202201","2018-08-22 21:00","2018","08","22","21:00","7.0","","0.6","","63","","","","5","","7","","24.1","","99.08","","","","","","NA"
"-111.96","60.02","FORT SMITH A","2202201","2018-08-22 22:00","2018","08","22","22:00","6.1","","0.6","","68","","","","36","","3","","24.1","","99.11","","","","","","NA"
"-111.96","60.02","FORT SMITH A","2202201","2018-08-22 23:00","2018","08","22","23:00","7.2","","0.3","","61","","","","7","","7","","24.1","","99.15","","","","","","Mostly Cloudy"
"-111.96","60.02","FORT SMITH A","2202201","2018-08-23 00:00","2018","08","23","00:00","6.9","","0.4","","63","","","","6","","7","","24.1","","99.13","","","","","","NA"
"-111.96","60.02","FORT SMITH A","2202201","2018-08-23 01:00","2018","08","23","01:00","6.8","","0.6","","65","","","","6","","5","","24.1","","99.20","","","","","","NA"
"-111.96","60.02","FORT SMITH A","2202201","2018-08-23 02:00","2018","08","23","02:00","6.6","","0.4","","65","","","","7","","7","","24.1","","99.23","","","","","","Cloudy"
"-111.96","60.02","FORT SMITH A","2202201","2018-08-23 03:00","2018","08","23","03:00","6.3","","0.2","","65","","","","8","","7","","24.1","","99.24","","","","","","NA"
"-111.96","60.02","FORT SMITH A","2202201","2018-08-23 04:00","2018","08","23","04:00","6.0","","0.1","","66","","","","7","","8","","24.1","","99.28","","","","","","NA"
"-111.96","60.02","FORT SMITH A","2202201","2018-08-23 05:00","2018","08","23","05:00","6.1","","0.2","","66","","","","7","","9","","24.1","","99.28","","","","","","Mostly Cloudy"
"-111.96","60.02","FORT SMITH A","2202201","2018-08-23 06:00","2018","08","23","06:00","5.7","","1.0","","72","","","","8","","8","","24.1","","99.29","","","","","","NA"
"-111.96","60.02","FORT SMITH A","2202201","2018-08-23 07:00","2018","08","23","07:00","6.2","","1.4","","71","","","","9","","8","","24.1","","99.30","","","","","","NA"
"-111.96","60.02","FORT SMITH A","2202201","2018-08-23 08:00","2018","08","23","08:00","6.3","","1.5","","71","","","","7","","7","","24.1","","99.32","","","","","","Mostly Cloudy"
"-111.96","60.02","FORT SMITH A","2202201","2018-08-23 09:00","2018","08","23","09:00","7.8","","1.5","","65","","","","9","","9","","24.1","","99.34","","","","","","NA"
"-111.96","60.02","FORT SMITH A","2202201","2018-08-23 10:00","2018","08","23","10:00","9.1","","1.8","","60","","","","10","","8","","24.1","","99.34","","","","","","NA"
"-111.96","60.02","FORT SMITH A","2202201","2018-08-23 11:00","2018","08","23","11:00","10.3","","2.4","","58","","","","0","","1","","24.1","","99.29","","","","","","Mostly Cloudy"
"-111.96","60.02","FORT SMITH A","2202201","2018-08-23 12:00","2018","08","23","12:00","11.4","","0.6","","48","","","","13","","13","","24.1","","99.23","","","","","","NA"
"-111.96","60.02","FORT SMITH A","2202201","2018-08-23 13:00","2018","08","23","13:00","12.1","","-0.1","","43","","","","12","","12","","24.1","","99.19","","","","","","NA"
"-111.96","60.02","FORT SMITH A","2202201","2018-08-23 14:00","2018","08","23","14:00","12.7","","0.2","","42","","","","7","","15","","24.1","","99.14","","","","","","Mostly Cloudy"
"-111.96","60.02","FORT SMITH A","2202201","2018-08-23 15:00","2018","08","23","15:00","13.6","","0.6","","41","","","","13","","7","","24.1","","99.12","","","","","","NA"
"-111.96","60.02","FORT SMITH A","2202201","2018-08-23 16:00","2018","08","23","16:00","13.3","","-0.3","","39","","","","11","","7","","24.1","","99.08","","","","","","NA"
"-111.96","60.02","FORT SMITH A","2202201","2018-08-23 17:00","2018","08","23","17:00","13.0","","0.1","","41","","","","13","","8","","24.1","","99.07","","","","","","Cloudy"
"-111.96","60.02","FORT SMITH A","2202201","2018-08-23 18:00","2018","08","23","18:00","12.2","","0.7","","45","","","","17","","8","","24.1","","99.06","","","","","","NA"
"-111.96","60.02","FORT SMITH A","2202201","2018-08-23 19:00","2018","08","23","19:00","11.1","","1.6","","52","","","","19","","9","","24.1","","99.06","","","","","","NA"
"-111.96","60.02","FORT SMITH A","2202201","2018-08-23 20:00","2018","08","23","20:00","9.8","","1.5","","56","","","","18","","7","","24.1","","99.06","","","","","","Cloudy"
"-111.96","60.02","FORT SMITH A","2202201","2018-08-23 21:00","2018","08","23","21:00","8.8","","2.0","","62","","","","17","","4","","24.1","","99.05","","","","","","NA"
"-111.96","60.02","FORT SMITH A","2202201","2018-08-23 22:00","2018","08","23","22:00","7.1","","1.6","","68","","","","36","","2","","24.1","","99.03","","","","","","NA"
"-111.96","60.02","FORT SMITH A","2202201","2018-08-23 23:00","2018","08","23","23:00","7.1","","1.5","","68","","","","36","","1","","24.1","","99.01","","","","","","Cloudy"
"-111.96","60.02","FORT SMITH A","2202201","2018-08-24 00:00","2018","08","24","00:00","6.0","","2.5","","78","","","","36","","1","","24.1","","99.01","","","","","","NA"
"-111.96","60.02","FORT SMITH A","2202201","2018-08-24 01:00","2018","08","24","01:00","6.3","","1.9","","73","","","","0","","1","","24.1","","99.00","","","","","","NA"
"-111.96","60.02","FORT SMITH A","2202201","2018-08-24 02:00","2018","08","24","02:00","6.5","","2.6","","76","","","","2","","6","","24.1","","98.97","","","","","","Cloudy"
"-111.96","60.02","FORT SMITH A","2202201","2018-08-24 03:00","2018","08","24","03:00","7.1","","2.0","","70","","","","5","","3","","24.1","","98.95","","","","","","NA"
"-111.96","60.02","FORT SMITH A","2202201","2018-08-24 04:00","2018","08","24","04:00","8.7","","2.3","","64","","","","5","","6","","24.1","","98.94","","","","","","NA"
"-111.96","60.02","FORT SMITH A","2202201","2018-08-24 05:00","2018","08","24","05:00","7.6","","2.5","","70","","","","36","","3","","24.1","","98.97","","","","","","Cloudy"
"-111.96","60.02","FORT SMITH A","2202201","2018-08-24 06:00","2018","08","24","06:00","6.6","","3.3","","79","","","","0","","1","","24.1","","98.95","","","","","","NA"
"-111.96","60.02","FORT SMITH A","2202201","2018-08-24 07:00","2018","08","24","07:00","7.2","","3.8","","79","","","","33","","5","","24.1","","98.94","","","","","","NA"
"-111.96","60.02","FORT SMITH A","2202201","2018-08-24 08:00","2018","08","24","08:00","8.1","","4.2","","76","","","","36","","4","","24.1","","98.94","","","","","","Cloudy"
"-111.96","60.02","FORT SMITH A","2202201","2018-08-24 09:00","2018","08","24","09:00","8.9","","4.3","","73","","","","1","","7","","24.1","","98.92","","","","","","NA"
"-111.96","60.02","FORT SMITH A","2202201","2018-08-24 10:00","2018","08","24","10:00","9.8","","4.5","","69","","","","8","","4","","24.1","","98.93","","","","","","NA"
"-111.96","60.02","FORT SMITH A","2202201","2018-08-24 11:00","2018","08","24","11:00","10.4","","4.8","","68","","","","7","","5","","24.1","","98.92","","","","","","Cloudy"
"-111.96","60.02","FORT SMITH A","2202201","2018-08-24 12:00","2018","08","24","12:00","11.2","","4.9","","65","","","","5","","5","","24.1","","98.91","","","","","","NA"
"-111.96","60.02","FORT SMITH A","2202201","2018-08-24 13:00","2018","08","24","13:00","11.4","","3.9","","60","","","","16","","4","","24.1","","98.91","","","","","","NA"
"-111.96","60.02","FORT SMITH A","2202201","2018-08-24 14:00","2018","08","24","14:00","12.1","","3.6","","56","","","","34","","4","","24.1","","98.89","","","","","","Cloudy"
"-111.96","60.02","FORT SMITH A","2202201","2018-08-24 15:00","2018","08","24","15:00","12.3","","2.6","","52","","","","8","","7","","24.1","","98.89","","","","","","NA"
"-111.96","60.02","FORT SMITH A","2202201","2018-08-24 16:00","2018","08","24","16:00","10.1","","5.2","","71","","","","16","","17","","24.1","","98.91","","","","","","NA"
"-111.96","60.02","FORT SMITH A","2202201","2018-08-24 17:00","2018","08","24","17:00","9.2","","4.6","","73","","","","17","","17","","24.1","","98.92","","","","","","Cloudy"
"-111.96","60.02","FORT SMITH A","2202201","2018-08-24 18:00","2018","08","24","18:00","8.3","","4.6","","77","","","","19","","12","","24.1","","98.94","","","","","","NA"
"-111.96","60.02","FORT SMITH A","2202201","2018-08-24 19:00","2018","08","24","19:00","8.2","","3.9","","74","","","","20","","13","","24.1","","98.96","","","","","","NA"
"-111.96","60.02","FORT SMITH A","2202201","2018-08-24 20:00","2018","08","24","20:00","7.1","","3.9","","80","","","","18","","10","","24.1","","98.97","","","","","","Mostly Cloudy"
"-111.96","60.02","FORT SMITH A","2202201","2018-08-24 21:00","2018","08","24","21:00","4.8","","3.2","","89","","","","18","","5","","24.1","","98.96","","","","","","NA"
"-111.96","60.02","FORT SMITH A","2202201","2018-08-24 22:00","2018","08","24","22:00","3.5","","2.5","","93","","","","36","","1","","24.1","","98.94","","","","","","NA"
"-111.96","60.02","FORT SMITH A","2202201","2018-08-24 23:00","2018","08","24","23:00","2.8","","1.4","","91","","","","17","","3","","24.1","","98.94","","","","","","Mainly Clear"
"-111.96","60.02","FORT SMITH A","2202201","2018-08-25 00:00","2018","08","25","00:00","1.2","","-0.1","","91","","","","16","","4","","24.1","","98.94","","","","","","NA"
"-111.96","60.02","FORT SMITH A","2202201","2018-08-25 01:00","2018","08","25","01:00","0.2","","-1.1","","91","","","","0","","1","","24.1","","98.95","","","","","","NA"
"-111.96","60.02","FORT SMITH A","2202201","2018-08-25 02:00","2018","08","25","02:00","-0.6","","-1.6","","93","","","","36","","1","","24.1","","98.94","","","","-1","","Mainly Clear"
"-111.96","60.02","FORT SMITH A","2202201","2018-08-25 03:00","2018","08","25","03:00","-0.4","","-0.8","","97","","","","36","","2","","0.4","","98.95","","","","-1","","Freezing Fog"
"-111.96","60.02","FORT SMITH A","2202201","2018-08-25 04:00","2018","08","25","04:00","0.5","","-0.3","","94","","","","18","","4","","9.7","","98.94","","","","","","Fog"
"-111.96","60.02","FORT SMITH A","2202201","2018-08-25 05:00","2018","08","25","05:00","2.1","","0.4","","89","","","","36","","2","","9.7","","98.94","","","","","","Fog"
"-111.96","60.02","FORT SMITH A","2202201","2018-08-25 06:00","2018","08","25","06:00","2.7","","1.7","","93","","","","15","","5","","24.1","","98.95","","","","","","NA"
"-111.96","60.02","FORT SMITH A","2202201","2018-08-25 07:00","2018","08","25","07:00","4.2","","2.9","","91","","","","36","","2","","24.1","","98.95","","","","","","NA"
"-111.96","60.02","FORT SMITH A","2202201","2018-08-25 08:00","2018","08","25","08:00","7.9","","4.1","","77","","","","6","","7","","24.1","","98.94","","","","","","Mainly Clear"
"-111.96","60.02","FORT SMITH A","2202201","2018-08-25 09:00","2018","08","25","09:00","9.2","","4.5","","73","","","","13","","7","","24.1","","98.93","","","","","","NA"
"-111.96","60.02","FORT SMITH A","2202201","2018-08-25 10:00","2018","08","25","10:00","10.0","","3.2","","62","","","","15","","7","","24.1","","98.90","","","","","","NA"
"-111.96","60.02","FORT SMITH A","2202201","2018-08-25 11:00","2018","08","25","11:00","11.1","","3.3","","59","","","","10","","4","","24.1","","98.87","","","","","","Mostly Cloudy"
"-111.96","60.02","FORT SMITH A","2202201","2018-08-25 12:00","2018","08","25","12:00","11.6","","2.9","","55","","","","10","","4","","24.1","","98.86","","","","","","NA"
"-111.96","60.02","FORT SMITH A","2202201","2018-08-25 13:00","2018","08","25","13:00","11.7","","1.9","","51","","","","15","","3","","24.1","","98.83","","","","","","NA"
"-111.96","60.02","FORT SMITH A","2202201","2018-08-25 14:00","2018","08","25","14:00","12.4","","1.7","","48","","","","13","","7","","24.1","","98.81","","","","","","Mostly Cloudy"
"-111.96","60.02","FORT SMITH A","2202201","2018-08-25 15:00","2018","08","25","15:00","12.5","","2.2","","50","","","","6","","11","","24.1","","98.79","","","","","","NA"
"-111.96","60.02","FORT SMITH A","2202201","2018-08-25 16:00","2018","08","25","16:00","13.2","","2.5","","48","","","","5","","9","","24.1","","98.77","","","","","","NA"
"-111.96","60.02","FORT SMITH A","2202201","2018-08-25 17:00","2018","08","25","17:00","12.2","","2.2","","50","","","","13","","11","","24.1","","98.75","","","","","","Mostly Cloudy"
"-111.96","60.02","FORT SMITH A","2202201","2018-08-25 18:00","2018","08","25","18:00","12.4","","2.4","","50","","","","15","","9","","24.1","","98.74","","","","","","NA"
"-111.96","60.02","FORT SMITH A","2202201","2018-08-25 19:00","2018","08","25","19:00","10.8","","2.9","","58","","","","15","","9","","24.1","","98.73","","","","","","NA"
"-111.96","60.02","FORT SMITH A","2202201","2018-08-25 20:00","2018","08","25","20:00","7.3","","3.0","","74","","","","13","","3","","24.1","","98.74","","","","","","Mainly Clear"
"-111.96","60.02","FORT SMITH A","2202201","2018-08-25 21:00","2018","08","25","21:00","5.5","","2.7","","82","","","","14","","5","","24.1","","98.75","","","","","","NA"
"-111.96","60.02","FORT SMITH A","2202201","2018-08-25 22:00","2018","08","25","22:00","6.5","","2.9","","78","","","","14","","8","","24.1","","98.75","","","","","","NA"
"-111.96","60.02","FORT SMITH A","2202201","2018-08-25 23:00","2018","08","25","23:00","5.9","","3.0","","82","","","","14","","9","","24.1","","98.75","","","","","","Mainly Clear"
"-111.96","60.02","FORT SMITH A","2202201","2018-08-26 00:00","2018","08","26","00:00","4.9","","2.7","","86","","","","14","","7","","24.1","","98.76","","","","","","NA"
"-111.96","60.02","FORT SMITH A","2202201","2018-08-26 01:00","2018","08","26","01:00","5.4","","3.3","","86","","","","15","","5","","24.1","","98.77","","","","","","NA"
"-111.96","60.02","FORT SMITH A","2202201","2018-08-26 02:00","2018","08","26","02:00","3.9","","2.1","","88","","","","16","","4","","24.1","","98.77","","","","","","Mainly Clear"
"-111.96","60.02","FORT SMITH A","2202201","2018-08-26 03:00","2018","08","26","03:00","3.5","","2.0","","90","","","","9","","3","","24.1","","98.75","","","","","","NA"
"-111.96","60.02","FORT SMITH A","2202201","2018-08-26 04:00","2018","08","26","04:00","3.0","","1.8","","92","","","","36","","2","","24.1","","98.75","","","","","","NA"
"-111.96","60.02","FORT SMITH A","2202201","2018-08-26 05:00","2018","08","26","05:00","5.1","","4.2","","94","","","","9","","4","","24.1","","98.76","","","","","","Mainly Clear"
"-111.96","60.02","FORT SMITH A","2202201","2018-08-26 06:00","2018","08","26","06:00","4.2","","3.7","","97","","","","7","","4","","24.1","","98.79","","","","","","NA"
"-111.96","60.02","FORT SMITH A","2202201","2018-08-26 07:00","2018","08","26","07:00","7.2","","5.2","","87","","","","7","","8","","24.1","","98.81","","","","","","NA"
"-111.96","60.02","FORT SMITH A","2202201","2018-08-26 08:00","2018","08","26","08:00","9.6","","5.3","","75","","","","8","","9","","24.1","","98.85","","","","","","Clear"
"-111.96","60.02","FORT SMITH A","2202201","2018-08-26 09:00","2018","08","26","09:00","11.2","","5.5","","68","","","","7","","8","","24.1","","98.89","","","","","","NA"
"-111.96","60.02","FORT SMITH A","2202201","2018-08-26 10:00","2018","08","26","10:00","11.6","","4.7","","62","","","","11","","7","","24.1","","98.93","","","","","","NA"
"-111.96","60.02","FORT SMITH A","2202201","2018-08-26 11:00","2018","08","26","11:00","12.2","","3.7","","56","","","","8","","7","","24.1","","98.94","","","","","","Mostly Cloudy"
"-111.96","60.02","FORT SMITH A","2202201","2018-08-26 12:00","2018","08","26","12:00","12.4","","2.5","","50","","","","7","","13","","24.1","","98.97","","","","","","NA"
"-111.96","60.02","FORT SMITH A","2202201","2018-08-26 13:00","2018","08","26","13:00","13.2","","2.6","","48","","","","16","","7","","24.1","","98.98","","","","","","NA"
"-111.96","60.02","FORT SMITH A","2202201","2018-08-26 14:00","2018","08","26","14:00","13.6","","1.7","","44","","","","10","","8","","24.1","","99.01","","","","","","Mostly Cloudy"
"-111.96","60.02","FORT SMITH A","2202201","2018-08-26 15:00","2018","08","26","15:00","14.2","","0.5","","39","","","","5","","10","","24.1","","99.01","","","","","","NA"
"-111.96","60.02","FORT SMITH A","2202201","2018-08-26 16:00","2018","08","26","16:00","14.1","","-0.7","","36","","","","5","","10","","24.1","","99.05","","","","","","NA"
"-111.96","60.02","FORT SMITH A","2202201","2018-08-26 17:00","2018","08","26","17:00","14.1","","0.7","","40","","","","2","","16","","24.1","","99.07","","","","","","Mostly Cloudy"
"-111.96","60.02","FORT SMITH A","2202201","2018-08-26 18:00","2018","08","26","18:00","13.9","","1.2","","42","","","","1","","8","","24.1","","99.11","","","","","","NA"
"-111.96","60.02","FORT SMITH A","2202201","2018-08-26 19:00","2018","08","26","19:00","13.0","","2.8","","50","","","","33","","5","","24.1","","99.13","","","","","","NA"
"-111.96","60.02","FORT SMITH A","2202201","2018-08-26 20:00","2018","08","26","20:00","11.1","","3.4","","59","","","","32","","3","","24.1","","99.18","","","","","","Mostly Cloudy"
"-111.96","60.02","FORT SMITH A","2202201","2018-08-26 21:00","2018","08","26","21:00","9.9","","4.2","","68","","","","36","","1","","24.1","","99.20","","","","","","NA"
"-111.96","60.02","FORT SMITH A","2202201","2018-08-26 22:00","2018","08","26","22:00","8.4","","4.2","","75","","","","23","","3","","24.1","","99.22","","","","","","NA"
"-111.96","60.02","FORT SMITH A","2202201","2018-08-26 23:00","2018","08","26","23:00","8.1","","4.0","","76","","","","","","0","","24.1","","99.24","","","","","","Mostly Cloudy"
"-111.96","60.02","FORT SMITH A","2202201","2018-08-27 00:00","2018","08","27","00:00","8.8","","3.0","","67","","","","1","","3","","24.1","","99.25","","","","","","NA"
"-111.96","60.02","FORT SMITH A","2202201","2018-08-27 01:00","2018","08","27","01:00","6.5","","2.8","","77","","","","","","0","","24.1","","99.28","","","","","","NA"
"-111.96","60.02","FORT SMITH A","2202201","2018-08-27 02:00","2018","08","27","02:00","4.8","","2.2","","83","","","","15","","3","","24.1","","99.28","","","","","","Mostly Cloudy"
"-111.96","60.02","FORT SMITH A","2202201","2018-08-27 03:00","2018","08","27","03:00","3.1","","1.6","","89","","","","36","","1","","24.1","","99.29","","","","","","NA"
"-111.96","60.02","FORT SMITH A","2202201","2018-08-27 04:00","2018","08","27","04:00","1.8","","0.0","","88","","","","36","","3","","24.1","","99.28","","","","","","NA"
"-111.96","60.02","FORT SMITH A","2202201","2018-08-27 05:00","2018","08","27","05:00","2.0","","-0.1","","86","","","","16","","4","","24.1","","99.28","","","","","","Mainly Clear"
"-111.96","60.02","FORT SMITH A","2202201","2018-08-27 06:00","2018","08","27","06:00","1.2","","-0.3","","90","","","","12","","4","","24.1","","99.26","","","","","","NA"
"-111.96","60.02","FORT SMITH A","2202201","2018-08-27 07:00","2018","08","27","07:00","6.2","","3.5","","82","","","","23","","8","","24.1","","99.30","","","","","","NA"
"-111.96","60.02","FORT SMITH A","2202201","2018-08-27 08:00","2018","08","27","08:00","9.3","","4.1","","70","","","","22","","4","","24.1","","99.28","","","","","","Mostly Cloudy"
"-111.96","60.02","FORT SMITH A","2202201","2018-08-27 09:00","2018","08","27","09:00","12.5","","3.4","","54","","","","18","","8","","24.1","","99.24","","","","","","NA"
"-111.96","60.02","FORT SMITH A","2202201","2018-08-27 10:00","2018","08","27","10:00","14.0","","2.1","","44","","","","19","","9","","24.1","","99.19","","","","","","NA"
"-111.96","60.02","FORT SMITH A","2202201","2018-08-27 11:00","2018","08","27","11:00","14.6","","-0.3","","36","","","","23","","6","","24.1","","99.13","","","","","","Mainly Clear"
"-111.96","60.02","FORT SMITH A","2202201","2018-08-27 12:00","2018","08","27","12:00","14.5","","1.0","","40","","","","19","","7","","24.1","","99.07","","","","","","NA"
"-111.96","60.02","FORT SMITH A","2202201","2018-08-27 13:00","2018","08","27","13:00","16.5","","0.2","","33","","","","18","","13","","24.1","","99.00","","","","","","NA"
"-111.96","60.02","FORT SMITH A","2202201","2018-08-27 14:00","2018","08","27","14:00","15.4","","0.5","","36","","","","19","","14","","24.1","","98.96","","","","","","Mostly Cloudy"
"-111.96","60.02","FORT SMITH A","2202201","2018-08-27 15:00","2018","08","27","15:00","15.4","","0.8","","37","","","","19","","14","","24.1","","98.90","","","","","","NA"
"-111.96","60.02","FORT SMITH A","2202201","2018-08-27 16:00","2018","08","27","16:00","15.8","","2.0","","39","","","","18","","19","","24.1","","98.83","","","","","","NA"
"-111.96","60.02","FORT SMITH A","2202201","2018-08-27 17:00","2018","08","27","17:00","14.8","","2.6","","44","","","","19","","19","","24.1","","98.81","","","","","","Mostly Cloudy"
"-111.96","60.02","FORT SMITH A","2202201","2018-08-27 18:00","2018","08","27","18:00","14.6","","4.7","","51","","","","18","","19","","24.1","","98.75","","","","","","NA"
"-111.96","60.02","FORT SMITH A","2202201","2018-08-27 19:00","2018","08","27","19:00","13.6","","5.5","","58","","","","17","","16","","24.1","","98.72","","","","","","NA"
"-111.96","60.02","FORT SMITH A","2202201","2018-08-27 20:00","2018","08","27","20:00","11.6","","5.4","","66","","","","16","","10","","24.1","","98.71","","","","","","Mostly Cloudy"
"-111.96","60.02","FORT SMITH A","2202201","2018-08-27 21:00","2018","08","27","21:00","11.2","","5.3","","67","","","","15","","11","","24.1","","98.68","","","","","","NA"
"-111.96","60.02","FORT SMITH A","2202201","2018-08-27 22:00","2018","08","27","22:00","11.3","","5.0","","65","","","","17","","15","","24.1","","98.65","","","","","","NA"
"-111.96","60.02","FORT SMITH A","2202201","2018-08-27 23:00","2018","08","27","23:00","10.7","","4.9","","67","","","","16","","11","","24.1","","98.61","","","","","","Cloudy"
"-111.96","60.02","FORT SMITH A","2202201","2018-08-28 00:00","2018","08","28","00:00","10.0","","4.8","","70","","","","16","","13","","24.1","","98.57","","","","","","NA"
"-111.96","60.02","FORT SMITH A","2202201","2018-08-28 01:00","2018","08","28","01:00","8.9","","4.7","","75","","","","16","","12","","24.1","","98.54","","","","","","NA"
"-111.96","60.02","FORT SMITH A","2202201","2018-08-28 02:00","2018","08","28","02:00","8.0","","4.5","","78","","","","16","","14","","24.1","","98.50","","","","","","Mostly Cloudy"
"-111.96","60.02","FORT SMITH A","2202201","2018-08-28 03:00","2018","08","28","03:00","7.6","","4.3","","80","","","","16","","13","","24.1","","98.49","","","","","","NA"
"-111.96","60.02","FORT SMITH A","2202201","2018-08-28 04:00","2018","08","28","04:00","8.0","","4.4","","78","","","","15","","14","","24.1","","98.48","","","","","","NA"
"-111.96","60.02","FORT SMITH A","2202201","2018-08-28 05:00","2018","08","28","05:00","7.7","","4.2","","78","","","","16","","13","","24.1","","98.44","","","","","","Mainly Clear"
"-111.96","60.02","FORT SMITH A","2202201","2018-08-28 06:00","2018","08","28","06:00","7.6","","4.0","","78","","","","16","","13","","24.1","","98.43","","","","","","NA"
"-111.96","60.02","FORT SMITH A","2202201","2018-08-28 07:00","2018","08","28","07:00","9.2","","4.2","","71","","","","15","","12","","24.1","","98.41","","","","","","NA"
"-111.96","60.02","FORT SMITH A","2202201","2018-08-28 08:00","2018","08","28","08:00","11.6","","4.4","","61","","","","17","","14","","24.1","","98.38","","","","","","Mainly Clear"
"-111.96","60.02","FORT SMITH A","2202201","2018-08-28 09:00","2018","08","28","09:00","13.4","","4.7","","55","","","","17","","13","","24.1","","98.36","","","","","","NA"
"-111.96","60.02","FORT SMITH A","2202201","2018-08-28 10:00","2018","08","28","10:00","15.1","","4.8","","50","","","","17","","15","","24.1","","98.32","","","","","","NA"
"-111.96","60.02","FORT SMITH A","2202201","2018-08-28 11:00","2018","08","28","11:00","15.9","","5.2","","49","","","","18","","18","","24.1","","98.29","","","","","","Mainly Clear"
"-111.96","60.02","FORT SMITH A","2202201","2018-08-28 12:00","2018","08","28","12:00","17.1","","5.5","","46","","","","19","","10","","24.1","","98.27","","","","","","NA"
"-111.96","60.02","FORT SMITH A","2202201","2018-08-28 13:00","2018","08","28","13:00","17.5","","5.4","","44","","","","16","","5","","24.1","","98.25","","","","","","NA"
"-111.96","60.02","FORT SMITH A","2202201","2018-08-28 14:00","2018","08","28","14:00","16.8","","5.6","","47","","","","9","","8","","24.1","","98.23","","","","","","Mostly Cloudy"
"-111.96","60.02","FORT SMITH A","2202201","2018-08-28 15:00","2018","08","28","15:00","16.8","","5.6","","47","","","","12","","7","","24.1","","98.20","","","","","","NA"
"-111.96","60.02","FORT SMITH A","2202201","2018-08-28 16:00","2018","08","28","16:00","17.3","","6.0","","47","","","","11","","3","","24.1","","98.18","","","","","","NA"
"-111.96","60.02","FORT SMITH A","2202201","2018-08-28 17:00","2018","08","28","17:00","18.2","","5.8","","44","","","","18","","7","","24.1","","98.17","","","","","","Mainly Clear"
"-111.96","60.02","FORT SMITH A","2202201","2018-08-28 18:00","2018","08","28","18:00","17.9","","6.5","","47","","","","13","","8","","24.1","","98.14","","","","","","NA"
"-111.96","60.02","FORT SMITH A","2202201","2018-08-28 19:00","2018","08","28","19:00","16.1","","6.8","","54","","","","15","","12","","24.1","","98.15","","","","","","NA"
"-111.96","60.02","FORT SMITH A","2202201","2018-08-28 20:00","2018","08","28","20:00","13.2","","6.9","","66","","","","15","","10","","24.1","","98.18","","","","","","Clear"
"-111.96","60.02","FORT SMITH A","2202201","2018-08-28 21:00","2018","08","28","21:00","12.0","","7.1","","72","","","","15","","12","","24.1","","98.19","","","","","","NA"
"-111.96","60.02","FORT SMITH A","2202201","2018-08-28 22:00","2018","08","28","22:00","10.4","","6.8","","78","","","","15","","9","","24.1","","98.20","","","","","","NA"
"-111.96","60.02","FORT SMITH A","2202201","2018-08-28 23:00","2018","08","28","23:00","9.3","","6.5","","83","","","","15","","10","","24.1","","98.19","","","","","","Mainly Clear"
"-111.96","60.02","FORT SMITH A","2202201","2018-08-29 00:00","2018","08","29","00:00","8.6","","6.4","","86","","","","14","","8","","24.1","","98.16","","","","","","NA"
"-111.96","60.02","FORT SMITH A","2202201","2018-08-29 01:00","2018","08","29","01:00","7.8","","6.0","","89","","","","15","","7","","24.1","","98.16","","","","","","NA"
"-111.96","60.02","FORT SMITH A","2202201","2018-08-29 02:00","2018","08","29","02:00","6.2","","5.4","","95","","","","36","","2","","24.1","","98.15","","","","","","Mainly Clear"
"-111.96","60.02","FORT SMITH A","2202201","2018-08-29 03:00","2018","08","29","03:00","5.0","","3.6","","90","","","","15","","5","","24.1","","98.14","","","","","","NA"
"-111.96","60.02","FORT SMITH A","2202201","2018-08-29 04:00","2018","08","29","04:00","5.6","","5.0","","96","","","","12","","5","","24.1","","98.15","","","","","","NA"
"-111.96","60.02","FORT SMITH A","2202201","2018-08-29 05:00","2018","08","29","05:00","6.5","","5.8","","95","","","","13","","5","","24.1","","98.14","","","","","","Mainly Clear"
"-111.96","60.02","FORT SMITH A","2202201","2018-08-29 06:00","2018","08","29","06:00","5.6","","5.2","","97","","","","10","","3","","24.1","","98.13","","","","","","NA"
"-111.96","60.02","FORT SMITH A","2202201","2018-08-29 07:00","2018","08","29","07:00","9.3","","8.2","","92","","","","9","","4","","24.1","","98.14","","","","","","NA"
"-111.96","60.02","FORT SMITH A","2202201","2018-08-29 08:00","2018","08","29","08:00","10.5","","8.2","","86","","","","12","","4","","24.1","","98.14","","","","","","Mostly Cloudy"
"-111.96","60.02","FORT SMITH A","2202201","2018-08-29 09:00","2018","08","29","09:00","12.7","","7.7","","71","","","","12","","8","","24.1","","98.13","","","","","","NA"
"-111.96","60.02","FORT SMITH A","2202201","2018-08-29 10:00","2018","08","29","10:00","13.6","","7.3","","66","","","","15","","13","","24.1","","98.11","","","","","","NA"
"-111.96","60.02","FORT SMITH A","2202201","2018-08-29 11:00","2018","08","29","11:00","14.8","","7.5","","61","","","","7","","10","","24.1","","98.09","","","","","","Mainly Clear"
"-111.96","60.02","FORT SMITH A","2202201","2018-08-29 12:00","2018","08","29","12:00","16.0","","7.5","","57","","","","6","","7","","24.1","","98.06","","","","","","NA"
"-111.96","60.02","FORT SMITH A","2202201","2018-08-29 13:00","2018","08","29","13:00","16.7","","7.4","","54","","","","10","","7","","24.1","","98.03","","","","","","NA"
"-111.96","60.02","FORT SMITH A","2202201","2018-08-29 14:00","2018","08","29","14:00","17.3","","6.5","","49","","","","13","","5","","24.1","","98.03","","","","","","Mostly Cloudy"
"-111.96","60.02","FORT SMITH A","2202201","2018-08-29 15:00","2018","08","29","15:00","18.4","","6.0","","44","","","","13","","8","","24.1","","98.01","","","","","","NA"
"-111.96","60.02","FORT SMITH A","2202201","2018-08-29 16:00","2018","08","29","16:00","18.3","","5.6","","43","","","","18","","7","","24.1","","98.00","","","","","","NA"
"-111.96","60.02","FORT SMITH A","2202201","2018-08-29 17:00","2018","08","29","17:00","18.8","","4.8","","39","","","","8","","7","","24.1","","97.98","","","","","","Mostly Cloudy"
"-111.96","60.02","FORT SMITH A","2202201","2018-08-29 18:00","2018","08","29","18:00","17.9","","5.2","","43","","","","9","","4","","24.1","","97.95","","","","","","NA"
"-111.96","60.02","FORT SMITH A","2202201","2018-08-29 19:00","2018","08","29","19:00","14.7","","7.2","","61","","","","36","","2","","24.1","","97.95","","","","","","NA"
"-111.96","60.02","FORT SMITH A","2202201","2018-08-29 20:00","2018","08","29","20:00","12.2","","6.8","","69","","","","15","","4","","24.1","","97.99","","","","","","Mostly Cloudy"
"-111.96","60.02","FORT SMITH A","2202201","2018-08-29 21:00","2018","08","29","21:00","11.9","","6.6","","70","","","","15","","5","","24.1","","98.02","","","","","","NA"
"-111.96","60.02","FORT SMITH A","2202201","2018-08-29 22:00","2018","08","29","22:00","9.8","","6.2","","78","","","","","","0","","24.1","","98.00","","","","","","NA"
"-111.96","60.02","FORT SMITH A","2202201","2018-08-29 23:00","2018","08","29","23:00","8.6","","5.2","","79","","","","36","","1","","24.1","","97.99","","","","","","Mainly Clear"
"-111.96","60.02","FORT SMITH A","2202201","2018-08-30 00:00","2018","08","30","00:00","7.4","","5.2","","86","","","","36","","2","","24.1","","97.96","","","","","","NA"
"-111.96","60.02","FORT SMITH A","2202201","2018-08-30 01:00","2018","08","30","01:00","6.8","","4.8","","87","","","","36","","1","","24.1","","97.93","","","","","","NA"
"-111.96","60.02","FORT SMITH A","2202201","2018-08-30 02:00","2018","08","30","02:00","6.5","","4.3","","86","","","","14","","5","","24.1","","97.91","","","","","","Mostly Cloudy"
"-111.96","60.02","FORT SMITH A","2202201","2018-08-30 03:00","2018","08","30","03:00","6.1","","4.5","","89","","","","36","","3","","24.1","","97.92","","","","","","NA"
"-111.96","60.02","FORT SMITH A","2202201","2018-08-30 04:00","2018","08","30","04:00","6.1","","3.9","","86","","","","18","","3","","24.1","","97.89","","","","","","NA"
"-111.96","60.02","FORT SMITH A","2202201","2018-08-30 05:00","2018","08","30","05:00","5.8","","3.9","","87","","","","36","","1","","24.1","","97.89","","","","","","Mostly Cloudy"
"-111.96","60.02","FORT SMITH A","2202201","2018-08-30 06:00","2018","08","30","06:00","6.4","","5.7","","95","","","","36","","5","","24.1","","97.89","","","","","","NA"
"-111.96","60.02","FORT SMITH A","2202201","2018-08-30 07:00","2018","08","30","07:00","7.5","","6.3","","92","","","","36","","1","","24.1","","97.86","","","","","","NA"
"-111.96","60.02","FORT SMITH A","2202201","2018-08-30 08:00","2018","08","30","08:00","9.2","","7.3","","88","","","","28","","4","","24.1","","97.88","","","","","","Mostly Cloudy"
"-111.96","60.02","FORT SMITH A","2202201","2018-08-30 09:00","2018","08","30","09:00","10.5","","7.9","","84","","","","29","","4","","24.1","","97.89","","","","","","NA"
"-111.96","60.02","FORT SMITH A","2202201","2018-08-30 10:00","2018","08","30","10:00","11.7","","7.7","","76","","","","30","","8","","24.1","","97.89","","","","","","NA"
"-111.96","60.02","FORT SMITH A","2202201","2018-08-30 11:00","2018","08","30","11:00","12.7","","7.9","","73","","","","35","","9","","24.1","","97.89","","","","","","Cloudy"
"-111.96","60.02","FORT SMITH A","2202201","2018-08-30 12:00","2018","08","30","12:00","13.2","","8.6","","73","","","","31","","5","","24.1","","97.89","","","","","","Rain"
"-111.96","60.02","FORT SMITH A","2202201","2018-08-30 13:00","2018","08","30","13:00","14.5","","9.3","","71","","","","29","","10","","24.1","","97.90","","","","","","NA"
"-111.96","60.02","FORT SMITH A","2202201","2018-08-30 14:00","2018","08","30","14:00","14.8","","9.8","","72","","","","28","","12","","24.1","","97.90","","","","","","Cloudy"
"-111.96","60.02","FORT SMITH A","2202201","2018-08-30 15:00","2018","08","30","15:00","15.8","","9.2","","65","","","","33","","8","","24.1","","97.88","","","","","","NA"
"-111.96","60.02","FORT SMITH A","2202201","2018-08-30 16:00","2018","08","30","16:00","16.0","","9.3","","64","","","","31","","8","","24.1","","97.87","","","","","","NA"
"-111.96","60.02","FORT SMITH A","2202201","2018-08-30 17:00","2018","08","30","17:00","15.7","","9.1","","65","","","","30","","10","","24.1","","97.87","","","","","","Cloudy"
"-111.96","60.02","FORT SMITH A","2202201","2018-08-30 18:00","2018","08","30","18:00","14.9","","8.6","","66","","","","36","","17","","24.1","","97.90","","","","","","NA"
"-111.96","60.02","FORT SMITH A","2202201","2018-08-30 19:00","2018","08","30","19:00","14.0","","8.6","","70","","","","33","","9","","24.1","","97.92","","","","","","NA"
"-111.96","60.02","FORT SMITH A","2202201","2018-08-30 20:00","2018","08","30","20:00","12.2","","8.4","","78","","","","30","","8","","24.1","","97.94","","","","","","Mostly Cloudy"
"-111.96","60.02","FORT SMITH A","2202201","2018-08-30 21:00","2018","08","30","21:00","10.9","","8.1","","82","","","","29","","7","","24.1","","97.96","","","","","","NA"
"-111.96","60.02","FORT SMITH A","2202201","2018-08-30 22:00","2018","08","30","22:00","11.3","","7.7","","78","","","","31","","10","","24.1","","97.95","","","","","","NA"
"-111.96","60.02","FORT SMITH A","2202201","2018-08-30 23:00","2018","08","30","23:00","10.6","","7.4","","81","","","","31","","5","","24.1","","97.94","","","","","","Mostly Cloudy"
"-111.96","60.02","FORT SMITH A","2202201","2018-08-31 00:00","2018","08","31","00:00","8.2","","6.4","","88","","","","29","","8","","24.1","","97.94","","","","","","NA"
"-111.96","60.02","FORT SMITH A","2202201","2018-08-31 01:00","2018","08","31","01:00","7.3","","6.0","","91","","","","27","","7","","24.1","","97.90","","","","","","NA"
"-111.96","60.02","FORT SMITH A","2202201","2018-08-31 02:00","2018","08","31","02:00","7.3","","6.2","","93","","","","26","","5","","24.1","","97.89","","","","","","Mainly Clear"
"-111.96","60.02","FORT SMITH A","2202201","2018-08-31 03:00","2018","08","31","03:00","5.5","","4.5","","94","","","","21","","5","","24.1","","97.89","","","","","","NA"
"-111.96","60.02","FORT SMITH A","2202201","2018-08-31 04:00","2018","08","31","04:00","4.5","","3.9","","96","","","","16","","7","","24.1","","97.86","","","","","","NA"
"-111.96","60.02","FORT SMITH A","2202201","2018-08-31 05:00","2018","08","31","05:00","3.9","","3.3","","96","","","","36","","2","","24.1","","97.84","","","","","","Mainly Clear"
"-111.96","60.02","FORT SMITH A","2202201","2018-08-31 06:00","2018","08","31","06:00","5.0","","4.2","","94","","","","36","","1","","24.1","","97.83","","","","","","NA"
"-111.96","60.02","FORT SMITH A","2202201","2018-08-31 07:00","2018","08","31","07:00","5.6","","4.5","","93","","","","20","","7","","24.1","","97.82","","","","","","NA"
"-111.96","60.02","FORT SMITH A","2202201","2018-08-31 08:00","2018","08","31","08:00","6.8","","5.3","","90","","","","19","","5","","24.1","","97.82","","","","","","Mostly Cloudy"
"-111.96","60.02","FORT SMITH A","2202201","2018-08-31 09:00","2018","08","31","09:00","8.9","","6.6","","85","","","","19","","7","","24.1","","97.81","","","","","","NA"
"-111.96","60.02","FORT SMITH A","2202201","2018-08-31 10:00","2018","08","31","10:00","12.2","","7.4","","72","","","","18","","4","","24.1","","97.73","","","","","","NA"
"-111.96","60.02","FORT SMITH A","2202201","2018-08-31 11:00","2018","08","31","11:00","14.2","","7.2","","62","","","","21","","13","","24.1","","97.67","","","","","","Mostly Cloudy"
"-111.96","60.02","FORT SMITH A","2202201","2018-08-31 12:00","2018","08","31","12:00","14.8","","7.6","","62","","","","15","","17","","24.1","","97.61","","","","","","NA"
"-111.96","60.02","FORT SMITH A","2202201","2018-08-31 13:00","2018","08","31","13:00","15.3","","7.1","","58","","","","15","","17","","24.1","","97.57","","","","","","NA"
"-111.96","60.02","FORT SMITH A","2202201","2018-08-31 14:00","2018","08","31","14:00","15.7","","7.6","","58","","","","16","","19","","24.1","","97.53","","","","","","Mostly Cloudy"
"-111.96","60.02","FORT SMITH A","2202201","2018-08-31 15:00","2018","08","31","15:00","15.8","","6.5","","54","","","","20","","23","","24.1","","97.48","","","","","","NA"
"-111.96","60.02","FORT SMITH A","2202201","2018-08-31 16:00","2018","08","31","16:00","15.9","","6.7","","54","","","","17","","24","","24.1","","97.44","","","","","","NA"
"-111.96","60.02","FORT SMITH A","2202201","2018-08-31 17:00","2018","08","31","17:00","15.6","","5.2","","50","","","","18","","22","","24.1","","97.42","","","","","","Mostly Cloudy"
"-111.96","60.02","FORT SMITH A","2202201","2018-08-31 18:00","2018","08","31","18:00","14.4","","5.6","","55","","","","17","","11","","24.1","","97.39","","","","","","NA"
"-111.96","60.02","FORT SMITH A","2202201","2018-08-31 19:00","2018","08","31","19:00","13.0","","6.3","","64","","","","15","","7","","24.1","","97.36","","","","","","NA"
"-111.96","60.02","FORT SMITH A","2202201","2018-08-31 20:00","2018","08","31","20:00","10.3","","6.4","","76","","","","13","","4","","24.1","","97.36","","","","","","Mostly Cloudy"
"-111.96","60.02","FORT SMITH A","2202201","2018-08-31 21:00","2018","08","31","21:00","10.1","","6.0","","76","","","","11","","4","","24.1","","97.34","","","","","","NA"
"-111.96","60.02","FORT SMITH A","2202201","2018-08-31 22:00","2018","08","31","22:00","10.7","","6.1","","73","","","","14","","6","","24.1","","97.32","","","","","","NA"
"-111.96","60.02","FORT SMITH A","2202201","2018-08-31 23:00","2018","08","31","23:00","11.6","","6.6","","71","","","","12","","6","","24.1","","97.30","","","","","","Mostly Cloudy"
