"Longitude (x)","Latitude (y)","Station Name","Climate ID","Date/Time (LST)","Year","Month","Day","Time (LST)","Temp (°C)","Temp Flag","Dew Point Temp (°C)","Dew Point Temp Flag","Rel Hum (%)","Rel Hum Flag","Precip. Amount (mm)","Precip. Amount Flag","Wind Dir (10s deg)","Wind Dir Flag","Wind Spd (km/h)","Wind Spd Flag","Visibility (km)","Visibility Flag","Stn Press (kPa)","Stn Press Flag","Hmdx","Hmdx Flag","Wind Chill","Wind Chill Flag","Weather"
"-111.96","60.02","FORT SMITH A","2202201","2018-09-01 00:00","2018","09","01","00:00","11.2","","7.4","","78","","","","14","","9","","24.1","","97.32","","","","","","NA"
"-111.96","60.02","FORT SMITH A","2202201","2018-09-01 01:00","2018","09","01","01:00","10.1","","7.2","","82","","","","12","","6","","24.1","","97.29","","","","","","NA"
"-111.96","60.02","FORT SMITH A","2202201","2018-09-01 02:00","2018","09","01","02:00","9.9","","7.4","","84","","","","15","","3","","24.1","","97.31","","","","","","Mostly Cloudy"
"-111.96","60.02","FORT SMITH A","2202201","2018-09-01 03:00","2018","09","01","03:00","9.1","","7.8","","92","","","","36","","2","","19.3","","97.33","","","","","","Rain Showers"
"-111.96","60.02","FORT SMITH A","2202201","2018-09-01 04:00","2018","09","01","04:00","8.9","","8.0","","94","","","","19","","3","","24.1","","97.34","","","","","","NA"
"-111.96","60.02","FORT SMITH A","2202201","2018-09-01 05:00","2018","09","01","05:00","8.5","","7.7","","95","","","","15","","7","","19.3","","97.37","","","","","","Mostly Cloudy"
"-111.96","60.02","FORT SMITH A","2202201","2018-09-01 06:00","2018","09","01","06:00","8.7","","8.1","","96","","","","19","","3","","24.1","","97.38","","","","","","Rain Showers"
"-111.96","60.02","FORT SMITH A","2202201","2018-09-01 07:00","2018","09","01","07:00","9.1","","8.3","","95","","","","26","","6","","24.1","","97.42","","","","","","NA"
"-111.96","60.02","FORT SMITH A","2202201","2018-09-01 08:00","2018","09","01","08:00","9.4","","8.4","","94","","","","29","","9","","24.1","","97.47","","","","","","Mostly Cloudy"
"-111.96","60.02","FORT SMITH A","2202201","2018-09-01 09:00","2018","09","01","09:00","9.7","","8.8","","94","","","","30","","15","","24.1","","97.53","","","","","","Rain Showers"
"-111.96","60.02","FORT SMITH A","2202201","2018-09-01 10:00","2018","09","01","10:00","8.9","","8.2","","95","","","","28","","24","","4.0","","97.60","","","","","","Rain,Fog"
"-111.96","60.02","FORT SMITH A","2202201","2018-09-01 11:00","2018","09","01","11:00","8.1","","7.1","","93","","","","28","","16","","4.0","","97.67","","","","","","Rain,Drizzle"
"-111.96","60.02","FORT SMITH A","2202201","2018-09-01 12:00","2018","09","01","12:00","7.6","","6.4","","92","","","","29","","22","","4.0","","97.72","","","","","","Drizzle"
"-111.96","60.02","FORT SMITH A","2202201","2018-09-01 13:00","2018","09","01","13:00","7.2","","6.0","","92","","","","29","","24","","4.0","","97.77","","","","","","Drizzle"
"-111.96","60.02","FORT SMITH A","2202201","2018-09-01 14:00","2018","09","01","14:00","7.2","","6.0","","92","","","","28","","23","","4.0","","97.83","","","","","","Drizzle"
"-111.96","60.02","FORT SMITH A","2202201","2018-09-01 15:00","2018","09","01","15:00","7.4","","5.7","","89","","","","28","","21","","9.7","","97.89","","","","","","Drizzle"
"-111.96","60.02","FORT SMITH A","2202201","2018-09-01 16:00","2018","09","01","16:00","7.4","","5.2","","86","","","","28","","19","","24.1","","97.94","","","","","","Drizzle"
"-111.96","60.02","FORT SMITH A","2202201","2018-09-01 17:00","2018","09","01","17:00","7.7","","5.1","","84","","","","28","","16","","24.1","","97.98","","","","","","Drizzle"
"-111.96","60.02","FORT SMITH A","2202201","2018-09-01 18:00","2018","09","01","18:00","6.9","","4.5","","84","","","","28","","25","","24.1","","98.03","","","","","","NA"
"-111.96","60.02","FORT SMITH A","2202201","2018-09-01 19:00","2018","09","01","19:00","6.5","","3.8","","83","","","","28","","21","","19.3","","98.06","","","","","","NA"
"-111.96","60.02","FORT SMITH A","2202201","2018-09-01 20:00","2018","09","01","20:00","5.8","","3.9","","88","","","","27","","22","","24.1","","98.10","","","","","","Drizzle"
"-111.96","60.02","FORT SMITH A","2202201","2018-09-01 21:00","2018","09","01","21:00","5.8","","3.9","","88","","","","27","","18","","24.1","","98.12","","","","","","Drizzle"
"-111.96","60.02","FORT SMITH A","2202201","2018-09-01 22:00","2018","09","01","22:00","5.5","","4.5","","93","","","","26","","16","","16.1","","98.10","","","","","","Drizzle"
"-111.96","60.02","FORT SMITH A","2202201","2018-09-01 23:00","2018","09","01","23:00","5.8","","4.9","","94","","","","26","","15","","24.1","","98.09","","","","","","Drizzle"
"-111.96","60.02","FORT SMITH A","2202201","2018-09-02 00:00","2018","09","02","00:00","6.3","","5.4","","94","","","","27","","14","","24.1","","98.10","","","","","","Drizzle"
"-111.96","60.02","FORT SMITH A","2202201","2018-09-02 01:00","2018","09","02","01:00","6.7","","5.5","","92","","","","28","","16","","19.3","","98.12","","","","","","Drizzle"
"-111.96","60.02","FORT SMITH A","2202201","2018-09-02 02:00","2018","09","02","02:00","7.1","","5.6","","90","","","","27","","12","","24.1","","98.14","","","","","","Drizzle"
"-111.96","60.02","FORT SMITH A","2202201","2018-09-02 03:00","2018","09","02","03:00"
"-111.96","60.02","FORT SMITH A","2202201","2018-09-02 04:00","2018","09","02","04:00","7.4","","5.1","","85","","","","29","","19","","24.1","","98.20","","","","","","NA"
"-111.96","60.02","FORT SMITH A","2202201","2018-09-02 05:00","2018","09","02","05:00","7.2","","4.6","","83","","","","29","","15","","24.1","","98.22","","","","","","Cloudy"
"-111.96","60.02","FORT SMITH A","2202201","2018-09-02 06:00","2018","09","02","06:00","6.9","","4.2","","83","","","","28","","19","","24.1","","98.25","","","","","","NA"
"-111.96","60.02","FORT SMITH A","2202201","2018-09-02 07:00","2018","09","02","07:00","6.5","","4.0","","84","","","","27","","16","","24.1","","98.28","","","","","","NA"
"-111.96","60.02","FORT SMITH A","2202201","2018-09-02 08:00","2018","09","02","08:00","7.2","","4.1","","80","","","","28","","10","","24.1","","98.28","","","","","","Mostly Cloudy"
"-111.96","60.02","FORT SMITH A","2202201","2018-09-02 09:00","2018","09","02","09:00","8.6","","4.4","","75","","","","26","","11","","24.1","","98.29","","","","","","NA"
"-111.96","60.02","FORT SMITH A","2202201","2018-09-02 10:00","2018","09","02","10:00","10.8","","4.4","","64","","","","29","","10","","24.1","","98.29","","","","","","NA"
"-111.96","60.02","FORT SMITH A","2202201","2018-09-02 11:00","2018","09","02","11:00","12.0","","2.5","","52","","","","29","","5","","24.1","","98.30","","","","","","Mainly Clear"
"-111.96","60.02","FORT SMITH A","2202201","2018-09-02 12:00","2018","09","02","12:00","13.0","","3.0","","50","","","","21","","9","","24.1","","98.28","","","","","","NA"
"-111.96","60.02","FORT SMITH A","2202201","2018-09-02 13:00","2018","09","02","13:00","14.2","","3.8","","49","","","","22","","7","","24.1","","98.25","","","","","","NA"
"-111.96","60.02","FORT SMITH A","2202201","2018-09-02 14:00","2018","09","02","14:00","15.7","","3.0","","42","","","","21","","10","","24.1","","98.24","","","","","","Mainly Clear"
"-111.96","60.02","FORT SMITH A","2202201","2018-09-02 15:00","2018","09","02","15:00","16.0","","3.0","","41","","","","30","","7","","24.1","","98.23","","","","","","NA"
"-111.96","60.02","FORT SMITH A","2202201","2018-09-02 16:00","2018","09","02","16:00","16.5","","1.1","","35","","","","23","","13","","24.1","","98.22","","","","","","NA"
"-111.96","60.02","FORT SMITH A","2202201","2018-09-02 17:00","2018","09","02","17:00","16.7","","1.0","","34","","","","24","","5","","24.1","","98.21","","","","","","Clear"
"-111.96","60.02","FORT SMITH A","2202201","2018-09-02 18:00","2018","09","02","18:00","16.4","","1.6","","36","","","","16","","6","","24.1","","98.19","","","","","","NA"
"-111.96","60.02","FORT SMITH A","2202201","2018-09-02 19:00","2018","09","02","19:00","13.9","","3.5","","49","","","","14","","5","","24.1","","98.22","","","","","","NA"
"-111.96","60.02","FORT SMITH A","2202201","2018-09-02 20:00","2018","09","02","20:00","10.2","","3.4","","63","","","","15","","9","","24.1","","98.26","","","","","","Clear"
"-111.96","60.02","FORT SMITH A","2202201","2018-09-02 21:00","2018","09","02","21:00","9.5","","2.5","","61","","","","15","","11","","24.1","","98.27","","","","","","NA"
"-111.96","60.02","FORT SMITH A","2202201","2018-09-02 22:00","2018","09","02","22:00","8.4","","2.8","","67","","","","15","","12","","24.1","","98.26","","","","","","NA"
"-111.96","60.02","FORT SMITH A","2202201","2018-09-02 23:00","2018","09","02","23:00","7.9","","2.9","","71","","","","15","","10","","24.1","","98.27","","","","","","Clear"
"-111.96","60.02","FORT SMITH A","2202201","2018-09-03 00:00","2018","09","03","00:00","7.6","","2.9","","72","","","","15","","12","","24.1","","98.28","","","","","","NA"
"-111.96","60.02","FORT SMITH A","2202201","2018-09-03 01:00","2018","09","03","01:00","7.6","","2.9","","72","","","","15","","12","","24.1","","98.26","","","","","","NA"
"-111.96","60.02","FORT SMITH A","2202201","2018-09-03 02:00","2018","09","03","02:00","6.0","","2.6","","79","","","","16","","6","","24.1","","98.27","","","","","","Clear"
"-111.96","60.02","FORT SMITH A","2202201","2018-09-03 03:00","2018","09","03","03:00","4.8","","2.1","","83","","","","15","","5","","24.1","","98.27","","","","","","NA"
"-111.96","60.02","FORT SMITH A","2202201","2018-09-03 04:00","2018","09","03","04:00","3.8","","1.4","","84","","","","23","","14","","24.1","","98.34","","","","","","NA"
"-111.96","60.02","FORT SMITH A","2202201","2018-09-03 05:00","2018","09","03","05:00","3.2","","1.6","","89","","","","36","","1","","24.1","","98.34","","","","","","Mostly Cloudy"
"-111.96","60.02","FORT SMITH A","2202201","2018-09-03 06:00","2018","09","03","06:00","4.9","","3.2","","89","","","","29","","14","","24.1","","98.42","","","","","","Rain Showers"
"-111.96","60.02","FORT SMITH A","2202201","2018-09-03 07:00","2018","09","03","07:00","6.2","","5.1","","93","","","","31","","12","","24.1","","98.52","","","","","","Rain Showers"
"-111.96","60.02","FORT SMITH A","2202201","2018-09-03 08:00","2018","09","03","08:00","7.5","","6.0","","90","","","","32","","16","","24.1","","98.63","","","","","","Rain Showers"
"-111.96","60.02","FORT SMITH A","2202201","2018-09-03 09:00","2018","09","03","09:00","6.9","","6.0","","94","","","","30","","14","","9.7","","98.74","","","","","","Rain Showers"
"-111.96","60.02","FORT SMITH A","2202201","2018-09-03 10:00","2018","09","03","10:00","6.4","","5.0","","91","","","","32","","22","","9.7","","98.84","","","","","","Rain"
"-111.96","60.02","FORT SMITH A","2202201","2018-09-03 11:00","2018","09","03","11:00","6.0","","4.1","","88","","","","34","","22","","19.3","","98.93","","","","","","Rain,Drizzle"
"-111.96","60.02","FORT SMITH A","2202201","2018-09-03 12:00","2018","09","03","12:00","6.1","","4.1","","87","","","","32","","17","","19.3","","99.02","","","","","","Drizzle"
"-111.96","60.02","FORT SMITH A","2202201","2018-09-03 13:00","2018","09","03","13:00","5.3","","2.7","","83","","","","31","","17","","24.1","","99.14","","","","","","NA"
"-111.96","60.02","FORT SMITH A","2202201","2018-09-03 14:00","2018","09","03","14:00","6.0","","3.0","","81","","","","30","","23","","24.1","","99.23","","","","","","Rain Showers"
"-111.96","60.02","FORT SMITH A","2202201","2018-09-03 15:00","2018","09","03","15:00","6.7","","1.3","","68","","","","33","","18","","24.1","","99.27","","","","","","Rain Showers"
"-111.96","60.02","FORT SMITH A","2202201","2018-09-03 16:00","2018","09","03","16:00","6.8","","-1.0","","58","","","","30","","21","","24.1","","99.34","","","","","","NA"
"-111.96","60.02","FORT SMITH A","2202201","2018-09-03 17:00","2018","09","03","17:00","5.6","","-2.4","","56","","","","33","","18","","24.1","","99.44","","","","","","Mostly Cloudy"
"-111.96","60.02","FORT SMITH A","2202201","2018-09-03 18:00","2018","09","03","18:00","4.9","","-2.5","","59","","","","34","","21","","24.1","","99.52","","","","","","NA"
"-111.96","60.02","FORT SMITH A","2202201","2018-09-03 19:00","2018","09","03","19:00","4.3","","-2.6","","61","","","","33","","9","","24.1","","99.58","","","","","","NA"
"-111.96","60.02","FORT SMITH A","2202201","2018-09-03 20:00","2018","09","03","20:00","3.4","","-2.5","","66","","","","32","","7","","24.1","","99.64","","","","","","Mainly Clear"
"-111.96","60.02","FORT SMITH A","2202201","2018-09-03 21:00","2018","09","03","21:00","1.7","","-2.4","","74","","","","29","","6","","24.1","","99.67","","","","","","NA"
"-111.96","60.02","FORT SMITH A","2202201","2018-09-03 22:00","2018","09","03","22:00","0.4","","-1.7","","85","","","","28","","7","","24.1","","99.68","","","","","","NA"
"-111.96","60.02","FORT SMITH A","2202201","2018-09-03 23:00","2018","09","03","23:00","0.8","","-2.1","","80","","","","25","","5","","24.1","","99.69","","","","","","Mostly Cloudy"
"-111.96","60.02","FORT SMITH A","2202201","2018-09-04 00:00","2018","09","04","00:00","1.4","","-1.4","","82","","","","23","","4","","24.1","","99.71","","","","","","NA"
"-111.96","60.02","FORT SMITH A","2202201","2018-09-04 01:00","2018","09","04","01:00"
"-111.96","60.02","FORT SMITH A","2202201","2018-09-04 02:00","2018","09","04","02:00","1.6","","-1.3","","81","","","","21","","5","","24.1","","99.72","","","","","","Mostly Cloudy"
"-111.96","60.02","FORT SMITH A","2202201","2018-09-04 03:00","2018","09","04","03:00","1.3","","-1.5","","82","","","","20","","4","","24.1","","99.72","","","","","","NA"
"-111.96","60.02","FORT SMITH A","2202201","2018-09-04 04:00","2018","09","04","04:00","-0.4","","-2.5","","86","","","","16","","3","","24.1","","99.74","","","","-1","","NA"
"-111.96","60.02","FORT SMITH A","2202201","2018-09-04 05:00","2018","09","04","05:00","-1.9","","-3.3","","90","","","","16","","4","","24.1","","99.72","","","","-3","","Clear"
"-111.96","60.02","FORT SMITH A","2202201","2018-09-04 06:00","2018","09","04","06:00","-1.7","","-3.3","","89","","","","16","","7","","24.1","","99.69","","","","-4","","NA"
"-111.96","60.02","FORT SMITH A","2202201","2018-09-04 07:00","2018","09","04","07:00","-0.2","","-2.7","","83","","","","16","","8","","24.1","","99.68","","","","-3","","NA"
"-111.96","60.02","FORT SMITH A","2202201","2018-09-04 08:00","2018","09","04","08:00","2.5","","-2.1","","71","","","","17","","9","","24.1","","99.64","","","","","","Mainly Clear"
"-111.96","60.02","FORT SMITH A","2202201","2018-09-04 09:00","2018","09","04","09:00","6.3","","-2.5","","53","","","","17","","13","","24.1","","99.59","","","","","","NA"
"-111.96","60.02","FORT SMITH A","2202201","2018-09-04 10:00","2018","09","04","10:00","8.1","","-4.0","","42","","","","19","","17","","24.1","","99.53","","","","","","NA"
"-111.96","60.02","FORT SMITH A","2202201","2018-09-04 11:00","2018","09","04","11:00","9.7","","-3.8","","38","","","","18","","14","","24.1","","99.46","","","","","","Mainly Clear"
"-111.96","60.02","FORT SMITH A","2202201","2018-09-04 12:00","2018","09","04","12:00","10.9","","-3.8","","35","","","","20","","15","","24.1","","99.37","","","","","","NA"
"-111.96","60.02","FORT SMITH A","2202201","2018-09-04 13:00","2018","09","04","13:00","12.2","","-2.7","","35","","","","18","","23","","24.1","","99.27","","","","","","NA"
"-111.96","60.02","FORT SMITH A","2202201","2018-09-04 14:00","2018","09","04","14:00","12.9","","-3.0","","33","","","","21","","18","","24.1","","99.17","","","","","","Mainly Clear"
"-111.96","60.02","FORT SMITH A","2202201","2018-09-04 15:00","2018","09","04","15:00","13.8","","-3.1","","31","","","","19","","17","","24.1","","99.08","","","","","","NA"
"-111.96","60.02","FORT SMITH A","2202201","2018-09-04 16:00","2018","09","04","16:00","14.2","","-3.0","","30","","","","18","","22","","24.1","","99.01","","","","","","NA"
"-111.96","60.02","FORT SMITH A","2202201","2018-09-04 17:00","2018","09","04","17:00","13.8","","-2.5","","32","","","","18","","19","","24.1","","98.98","","","","","","Mostly Cloudy"
"-111.96","60.02","FORT SMITH A","2202201","2018-09-04 18:00","2018","09","04","18:00","13.3","","-1.3","","36","","","","18","","14","","24.1","","98.94","","","","","","NA"
"-111.96","60.02","FORT SMITH A","2202201","2018-09-04 19:00","2018","09","04","19:00","11.9","","-0.1","","43","","","","16","","12","","24.1","","98.89","","","","","","NA"
"-111.96","60.02","FORT SMITH A","2202201","2018-09-04 20:00","2018","09","04","20:00","10.1","","0.9","","52","","","","18","","13","","24.1","","98.86","","","","","","Mostly Cloudy"
"-111.96","60.02","FORT SMITH A","2202201","2018-09-04 21:00","2018","09","04","21:00","9.1","","1.2","","58","","","","17","","11","","24.1","","98.86","","","","","","NA"
"-111.96","60.02","FORT SMITH A","2202201","2018-09-04 22:00","2018","09","04","22:00","8.7","","2.0","","63","","","","24","","8","","24.1","","98.90","","","","","","NA"
"-111.96","60.02","FORT SMITH A","2202201","2018-09-04 23:00","2018","09","04","23:00","8.9","","3.1","","67","","","","30","","15","","24.1","","98.95","","","","","","Mostly Cloudy"
"-111.96","60.02","FORT SMITH A","2202201","2018-09-05 00:00","2018","09","05","00:00","8.4","","3.8","","73","","","","31","","18","","24.1","","99.02","","","","","","NA"
"-111.96","60.02","FORT SMITH A","2202201","2018-09-05 01:00","2018","09","05","01:00","7.6","","4.3","","80","","","","32","","11","","24.1","","99.12","","","","","","NA"
"-111.96","60.02","FORT SMITH A","2202201","2018-09-05 02:00","2018","09","05","02:00","7.5","","3.3","","74","","","","32","","12","","24.1","","99.19","","","","","","Cloudy"
"-111.96","60.02","FORT SMITH A","2202201","2018-09-05 03:00","2018","09","05","03:00","5.8","","0.2","","67","","","","31","","13","","24.1","","99.29","","","","","","NA"
"-111.96","60.02","FORT SMITH A","2202201","2018-09-05 04:00","2018","09","05","04:00"
"-111.96","60.02","FORT SMITH A","2202201","2018-09-05 05:00","2018","09","05","05:00","3.7","","0.0","","77","","","","29","","19","","24.1","","99.43","","","","","","Mainly Clear"
"-111.96","60.02","FORT SMITH A","2202201","2018-09-05 06:00","2018","09","05","06:00","4.2","","0.2","","75","","","","29","","15","","24.1","","99.49","","","","","","NA"
"-111.96","60.02","FORT SMITH A","2202201","2018-09-05 07:00","2018","09","05","07:00","4.2","","0.3","","76","","","","29","","20","","24.1","","99.56","","","","","","NA"
"-111.96","60.02","FORT SMITH A","2202201","2018-09-05 08:00","2018","09","05","08:00","4.3","","0.5","","76","","","","29","","24","","24.1","","99.63","","","","","","Mostly Cloudy"
"-111.96","60.02","FORT SMITH A","2202201","2018-09-05 09:00","2018","09","05","09:00","5.5","","-0.7","","64","","","","29","","32","","24.1","","99.71","","","","","","NA"
"-111.96","60.02","FORT SMITH A","2202201","2018-09-05 10:00","2018","09","05","10:00","6.6","","-0.7","","60","","","","33","","18","","24.1","","99.79","","","","","","NA"
"-111.96","60.02","FORT SMITH A","2202201","2018-09-05 11:00","2018","09","05","11:00","6.3","","0.2","","65","","","","29","","29","","24.1","","99.88","","","","","","Rain Showers"
"-111.96","60.02","FORT SMITH A","2202201","2018-09-05 12:00","2018","09","05","12:00","6.1","","-1.5","","58","","","","30","","21","","24.1","","99.93","","","","","","NA"
"-111.96","60.02","FORT SMITH A","2202201","2018-09-05 13:00","2018","09","05","13:00","6.7","","-1.6","","55","","","","30","","30","","24.1","","100.00","","","","","","Rain Showers"
"-111.96","60.02","FORT SMITH A","2202201","2018-09-05 14:00","2018","09","05","14:00","7.4","","-1.8","","52","","","","31","","21","","24.1","","100.05","","","","","","Mostly Cloudy"
"-111.96","60.02","FORT SMITH A","2202201","2018-09-05 15:00","2018","09","05","15:00","8.7","","-2.2","","46","","","","29","","26","","24.1","","100.10","","","","","","NA"
"-111.96","60.02","FORT SMITH A","2202201","2018-09-05 16:00","2018","09","05","16:00","7.7","","-2.1","","50","","","","33","","19","","24.1","","100.16","","","","","","NA"
"-111.96","60.02","FORT SMITH A","2202201","2018-09-05 17:00","2018","09","05","17:00","7.3","","-1.4","","54","","","","32","","14","","24.1","","100.20","","","","","","Mainly Clear"
"-111.96","60.02","FORT SMITH A","2202201","2018-09-05 18:00","2018","09","05","18:00","6.3","","-2.1","","55","","","","32","","19","","24.1","","100.23","","","","","","NA"
"-111.96","60.02","FORT SMITH A","2202201","2018-09-05 19:00","2018","09","05","19:00","5.2","","-1.9","","60","","","","33","","10","","24.1","","100.28","","","","","","NA"
"-111.96","60.02","FORT SMITH A","2202201","2018-09-05 20:00","2018","09","05","20:00","3.6","","-1.8","","68","","","","32","","6","","24.1","","100.34","","","","","","Mainly Clear"
"-111.96","60.02","FORT SMITH A","2202201","2018-09-05 21:00","2018","09","05","21:00","1.4","","-2.4","","76","","","","28","","3","","24.1","","100.39","","","","","","NA"
"-111.96","60.02","FORT SMITH A","2202201","2018-09-05 22:00","2018","09","05","22:00","-0.8","","-3.0","","85","","","","16","","3","","24.1","","100.41","","","","-2","","NA"
"-111.96","60.02","FORT SMITH A","2202201","2018-09-05 23:00","2018","09","05","23:00","-2.1","","-3.7","","89","","","","36","","2","","24.1","","100.44","","","","-3","","Clear"
"-111.96","60.02","FORT SMITH A","2202201","2018-09-06 00:00","2018","09","06","00:00","-2.5","","-4.4","","87","","","","18","","4","","24.1","","100.46","","","","-4","","NA"
"-111.96","60.02","FORT SMITH A","2202201","2018-09-06 01:00","2018","09","06","01:00","-3.0","","-4.5","","90","","","","20","","4","","24.1","","100.48","","","","-5","","NA"
"-111.96","60.02","FORT SMITH A","2202201","2018-09-06 02:00","2018","09","06","02:00","-3.0","","-4.4","","90","","","","21","","3","","24.1","","100.49","","","","-4","","Clear"
"-111.96","60.02","FORT SMITH A","2202201","2018-09-06 03:00","2018","09","06","03:00","-3.6","","-5.4","","87","","","","21","","5","","24.1","","100.53","","","","-6","","NA"
"-111.96","60.02","FORT SMITH A","2202201","2018-09-06 04:00","2018","09","06","04:00","-3.1","","-4.8","","88","","","","19","","4","","24.1","","100.53","","","","-5","","NA"
"-111.96","60.02","FORT SMITH A","2202201","2018-09-06 05:00","2018","09","06","05:00","-3.9","","-5.3","","90","","","","16","","5","","24.1","","100.56","","","","-6","","Clear"
"-111.96","60.02","FORT SMITH A","2202201","2018-09-06 06:00","2018","09","06","06:00","-4.7","","-5.7","","92","","","","14","","5","","24.1","","100.58","","","","-7","","NA"
"-111.96","60.02","FORT SMITH A","2202201","2018-09-06 07:00","2018","09","06","07:00","-2.4","","-4.1","","88","","","","16","","6","","24.1","","100.59","","","","-5","","NA"
"-111.96","60.02","FORT SMITH A","2202201","2018-09-06 08:00","2018","09","06","08:00","0.6","","-1.9","","84","","","","15","","5","","24.1","","100.57","","","","","","Mostly Cloudy"
"-111.96","60.02","FORT SMITH A","2202201","2018-09-06 09:00","2018","09","06","09:00","5.1","","-0.9","","65","","","","19","","10","","24.1","","100.58","","","","","","NA"
"-111.96","60.02","FORT SMITH A","2202201","2018-09-06 10:00","2018","09","06","10:00","7.1","","-1.3","","55","","","","18","","13","","24.1","","100.56","","","","","","NA"
"-111.96","60.02","FORT SMITH A","2202201","2018-09-06 11:00","2018","09","06","11:00","9.0","","-1.8","","47","","","","20","","16","","24.1","","100.52","","","","","","Mostly Cloudy"
"-111.96","60.02","FORT SMITH A","2202201","2018-09-06 12:00","2018","09","06","12:00","9.8","","-2.1","","43","","","","15","","10","","24.1","","100.46","","","","","","NA"
"-111.96","60.02","FORT SMITH A","2202201","2018-09-06 13:00","2018","09","06","13:00","11.2","","-1.9","","40","","","","14","","10","","24.1","","100.39","","","","","","NA"
"-111.96","60.02","FORT SMITH A","2202201","2018-09-06 14:00","2018","09","06","14:00","12.0","","-2.7","","36","","","","16","","16","","24.1","","100.32","","","","","","Mostly Cloudy"
"-111.96","60.02","FORT SMITH A","2202201","2018-09-06 15:00","2018","09","06","15:00","12.8","","-2.0","","36","","","","16","","17","","24.1","","100.27","","","","","","NA"
"-111.96","60.02","FORT SMITH A","2202201","2018-09-06 16:00","2018","09","06","16:00","13.2","","-2.8","","33","","","","15","","14","","24.1","","100.21","","","","","","NA"
"-111.96","60.02","FORT SMITH A","2202201","2018-09-06 17:00","2018","09","06","17:00","12.8","","-2.8","","34","","","","15","","16","","24.1","","100.15","","","","","","Mainly Clear"
"-111.96","60.02","FORT SMITH A","2202201","2018-09-06 18:00","2018","09","06","18:00","12.0","","-3.4","","34","","","","15","","21","","24.1","","100.09","","","","","","NA"
"-111.96","60.02","FORT SMITH A","2202201","2018-09-06 19:00","2018","09","06","19:00","9.6","","-2.3","","43","","","","14","","10","","24.1","","100.04","","","","","","NA"
"-111.96","60.02","FORT SMITH A","2202201","2018-09-06 20:00","2018","09","06","20:00","7.9","","-1.9","","50","","","","15","","14","","24.1","","100.04","","","","","","Clear"
"-111.96","60.02","FORT SMITH A","2202201","2018-09-06 21:00","2018","09","06","21:00","6.6","","-1.9","","55","","","","15","","14","","24.1","","100.03","","","","","","NA"
"-111.96","60.02","FORT SMITH A","2202201","2018-09-06 22:00","2018","09","06","22:00","5.4","","-1.6","","61","","","","14","","14","","24.1","","100.01","","","","","","NA"
"-111.96","60.02","FORT SMITH A","2202201","2018-09-06 23:00","2018","09","06","23:00","3.9","","-0.1","","75","","","","15","","13","","24.1","","100.00","","","","","","Mainly Clear"
"-111.96","60.02","FORT SMITH A","2202201","2018-09-07 00:00","2018","09","07","00:00","3.6","","1.2","","84","","","","14","","11","","24.1","","99.95","","","","","","NA"
"-111.96","60.02","FORT SMITH A","2202201","2018-09-07 01:00","2018","09","07","01:00","4.1","","1.8","","85","","","","14","","14","","24.1","","99.87","","","","","","NA"
"-111.96","60.02","FORT SMITH A","2202201","2018-09-07 02:00","2018","09","07","02:00","4.1","","1.6","","84","","","","14","","14","","24.1","","99.80","","","","","","Clear"
"-111.96","60.02","FORT SMITH A","2202201","2018-09-07 03:00","2018","09","07","03:00","4.2","","1.1","","80","","","","14","","12","","24.1","","99.74","","","","","","NA"
"-111.96","60.02","FORT SMITH A","2202201","2018-09-07 04:00","2018","09","07","04:00","4.2","","1.1","","80","","","","14","","12","","24.1","","99.70","","","","","","NA"
"-111.96","60.02","FORT SMITH A","2202201","2018-09-07 05:00","2018","09","07","05:00","5.1","","1.3","","76","","","","14","","13","","24.1","","99.64","","","","","","Mostly Cloudy"
"-111.96","60.02","FORT SMITH A","2202201","2018-09-07 06:00","2018","09","07","06:00","4.8","","1.6","","79","","","","15","","11","","24.1","","99.58","","","","","","NA"
"-111.96","60.02","FORT SMITH A","2202201","2018-09-07 07:00","2018","09","07","07:00","6.8","","2.2","","72","","","","15","","9","","24.1","","99.56","","","","","","NA"
"-111.96","60.02","FORT SMITH A","2202201","2018-09-07 08:00","2018","09","07","08:00","8.7","","2.5","","65","","","","13","","14","","24.1","","99.48","","","","","","Mostly Cloudy"
"-111.96","60.02","FORT SMITH A","2202201","2018-09-07 09:00","2018","09","07","09:00","10.4","","2.9","","60","","","","15","","16","","24.1","","99.44","","","","","","NA"
"-111.96","60.02","FORT SMITH A","2202201","2018-09-07 10:00","2018","09","07","10:00","12.4","","3.0","","52","","","","15","","17","","24.1","","99.41","","","","","","NA"
"-111.96","60.02","FORT SMITH A","2202201","2018-09-07 11:00","2018","09","07","11:00","13.0","","3.0","","50","","","","16","","18","","24.1","","99.35","","","","","","Mostly Cloudy"
"-111.96","60.02","FORT SMITH A","2202201","2018-09-07 12:00","2018","09","07","12:00","13.5","","3.5","","51","","","","15","","18","","24.1","","99.31","","","","","","NA"
"-111.96","60.02","FORT SMITH A","2202201","2018-09-07 13:00","2018","09","07","13:00","13.8","","4.4","","53","","","","13","","8","","24.1","","99.28","","","","","","NA"
"-111.96","60.02","FORT SMITH A","2202201","2018-09-07 14:00","2018","09","07","14:00","15.3","","4.3","","48","","","","16","","15","","24.1","","99.24","","","","","","Mostly Cloudy"
"-111.96","60.02","FORT SMITH A","2202201","2018-09-07 15:00","2018","09","07","15:00","16.3","","4.9","","47","","","","15","","12","","24.1","","99.20","","","","","","NA"
"-111.96","60.02","FORT SMITH A","2202201","2018-09-07 16:00","2018","09","07","16:00","15.4","","4.9","","49","","","","13","","12","","24.1","","99.18","","","","","","NA"
"-111.96","60.02","FORT SMITH A","2202201","2018-09-07 17:00","2018","09","07","17:00","14.6","","4.6","","51","","","","13","","9","","24.1","","99.16","","","","","","Mostly Cloudy"
"-111.96","60.02","FORT SMITH A","2202201","2018-09-07 18:00","2018","09","07","18:00","14.0","","5.0","","54","","","","13","","4","","24.1","","99.13","","","","","","NA"
"-111.96","60.02","FORT SMITH A","2202201","2018-09-07 19:00","2018","09","07","19:00","13.0","","5.1","","58","","","","13","","4","","24.1","","99.14","","","","","","NA"
"-111.96","60.02","FORT SMITH A","2202201","2018-09-07 20:00","2018","09","07","20:00","11.3","","5.3","","67","","","","13","","3","","24.1","","99.12","","","","","","Cloudy"
"-111.96","60.02","FORT SMITH A","2202201","2018-09-07 21:00","2018","09","07","21:00","10.2","","5.2","","71","","","","36","","3","","24.1","","99.09","","","","","","NA"
"-111.96","60.02","FORT SMITH A","2202201","2018-09-07 22:00","2018","09","07","22:00","9.7","","5.7","","76","","","","5","","3","","24.1","","99.06","","","","","","NA"
"-111.96","60.02","FORT SMITH A","2202201","2018-09-07 23:00","2018","09","07","23:00","9.8","","5.8","","76","","","","4","","3","","24.1","","99.06","","","","","","Cloudy"
"-111.96","60.02","FORT SMITH A","2202201","2018-09-08 00:00","2018","09","08","00:00","9.2","","6.4","","83","","","","36","","2","","24.1","","99.05","","","","","","NA"
"-111.96","60.02","FORT SMITH A","2202201","2018-09-08 01:00","2018","09","08","01:00","9.6","","6.4","","81","","","","6","","4","","24.1","","98.99","","","","","","Rain Showers"
"-111.96","60.02","FORT SMITH A","2202201","2018-09-08 02:00","2018","09","08","02:00","8.5","","7.2","","91","","","","1","","7","","24.1","","98.96","","","","","","Rain Showers"
"-111.96","60.02","FORT SMITH A","2202201","2018-09-08 03:00","2018","09","08","03:00","9.1","","6.7","","84","","","","36","","3","","19.3","","98.94","","","","","","Rain Showers"
"-111.96","60.02","FORT SMITH A","2202201","2018-09-08 04:00","2018","09","08","04:00","8.8","","6.7","","87","","","","2","","12","","19.3","","98.91","","","","","","Rain Showers"
"-111.96","60.02","FORT SMITH A","2202201","2018-09-08 05:00","2018","09","08","05:00","8.9","","6.6","","86","","","","2","","9","","19.3","","98.90","","","","","","Rain Showers"
"-111.96","60.02","FORT SMITH A","2202201","2018-09-08 06:00","2018","09","08","06:00","9.0","","6.7","","86","","","","3","","6","","24.1","","98.90","","","","","","Rain Showers"
"-111.96","60.02","FORT SMITH A","2202201","2018-09-08 07:00","2018","09","08","07:00","8.9","","7.1","","89","","","","1","","8","","24.1","","98.90","","","","","","NA"
"-111.96","60.02","FORT SMITH A","2202201","2018-09-08 08:00","2018","09","08","08:00","9.2","","7.4","","88","","","","35","","12","","24.1","","98.93","","","","","","Cloudy"
"-111.96","60.02","FORT SMITH A","2202201","2018-09-08 09:00","2018","09","08","09:00","10.0","","7.6","","85","","","","35","","13","","24.1","","98.95","","","","","","NA"
"-111.96","60.02","FORT SMITH A","2202201","2018-09-08 10:00","2018","09","08","10:00","10.6","","7.7","","82","","","","35","","12","","24.1","","98.94","","","","","","NA"
"-111.96","60.02","FORT SMITH A","2202201","2018-09-08 11:00","2018","09","08","11:00","11.1","","7.8","","80","","","","1","","11","","24.1","","98.95","","","","","","Mostly Cloudy"
"-111.96","60.02","FORT SMITH A","2202201","2018-09-08 12:00","2018","09","08","12:00","11.0","","8.0","","81","","","","35","","16","","24.1","","98.99","","","","","","NA"
"-111.96","60.02","FORT SMITH A","2202201","2018-09-08 13:00","2018","09","08","13:00","11.5","","7.8","","78","","","","1","","17","","24.1","","98.98","","","","","","NA"
"-111.96","60.02","FORT SMITH A","2202201","2018-09-08 14:00","2018","09","08","14:00","12.4","","7.6","","72","","","","35","","20","","24.1","","98.99","","","","","","Cloudy"
"-111.96","60.02","FORT SMITH A","2202201","2018-09-08 15:00","2018","09","08","15:00","12.6","","7.3","","70","","","","36","","17","","24.1","","99.02","","","","","","NA"
"-111.96","60.02","FORT SMITH A","2202201","2018-09-08 16:00","2018","09","08","16:00","12.2","","7.2","","71","","","","35","","22","","24.1","","99.01","","","","","","NA"
"-111.96","60.02","FORT SMITH A","2202201","2018-09-08 17:00","2018","09","08","17:00","11.4","","7.0","","74","","","","36","","16","","24.1","","99.05","","","","","","Cloudy"
"-111.96","60.02","FORT SMITH A","2202201","2018-09-08 18:00","2018","09","08","18:00","10.4","","5.5","","72","","","","1","","26","","24.1","","99.07","","","","","","NA"
"-111.96","60.02","FORT SMITH A","2202201","2018-09-08 19:00","2018","09","08","19:00","9.5","","5.0","","73","","","","36","","22","","24.1","","99.15","","","","","","NA"
"-111.96","60.02","FORT SMITH A","2202201","2018-09-08 20:00","2018","09","08","20:00","8.6","","4.2","","74","","","","1","","22","","24.1","","99.19","","","","","","Cloudy"
"-111.96","60.02","FORT SMITH A","2202201","2018-09-08 21:00","2018","09","08","21:00","7.8","","3.8","","76","","","","1","","18","","24.1","","99.21","","","","","","NA"
"-111.96","60.02","FORT SMITH A","2202201","2018-09-08 22:00","2018","09","08","22:00","7.2","","3.5","","77","","","","1","","18","","24.1","","99.25","","","","","","NA"
"-111.96","60.02","FORT SMITH A","2202201","2018-09-08 23:00","2018","09","08","23:00","6.5","","3.0","","78","","","","35","","16","","24.1","","99.28","","","","","","Cloudy"
"-111.96","60.02","FORT SMITH A","2202201","2018-09-09 00:00","2018","09","09","00:00","6.0","","2.6","","79","","","","35","","21","","24.1","","99.28","","","","","","NA"
"-111.96","60.02","FORT SMITH A","2202201","2018-09-09 01:00","2018","09","09","01:00","5.5","","2.1","","79","","","","1","","20","","24.1","","99.31","","","","","","NA"
"-111.96","60.02","FORT SMITH A","2202201","2018-09-09 02:00","2018","09","09","02:00","5.4","","2.0","","79","","","","1","","19","","24.1","","99.31","","","","","","Cloudy"
"-111.96","60.02","FORT SMITH A","2202201","2018-09-09 03:00","2018","09","09","03:00","5.3","","1.8","","78","","","","36","","19","","24.1","","99.32","","","","","","NA"
"-111.96","60.02","FORT SMITH A","2202201","2018-09-09 04:00","2018","09","09","04:00","5.0","","1.5","","78","","","","35","","13","","24.1","","99.35","","","","","","NA"
"-111.96","60.02","FORT SMITH A","2202201","2018-09-09 05:00","2018","09","09","05:00","4.7","","1.6","","80","","","","33","","11","","24.1","","99.37","","","","","","Cloudy"
"-111.96","60.02","FORT SMITH A","2202201","2018-09-09 06:00","2018","09","09","06:00","4.6","","1.1","","78","","","","36","","18","","24.1","","99.39","","","","","","NA"
"-111.96","60.02","FORT SMITH A","2202201","2018-09-09 07:00","2018","09","09","07:00","4.5","","0.8","","77","","","","35","","14","","24.1","","99.42","","","","","","NA"
"-111.96","60.02","FORT SMITH A","2202201","2018-09-09 08:00","2018","09","09","08:00","4.5","","0.5","","75","","","","34","","14","","24.1","","99.44","","","","","","Mostly Cloudy"
"-111.96","60.02","FORT SMITH A","2202201","2018-09-09 09:00","2018","09","09","09:00","4.5","","-1.0","","67","","","","1","","17","","24.1","","99.48","","","","","","NA"
"-111.96","60.02","FORT SMITH A","2202201","2018-09-09 10:00","2018","09","09","10:00","6.6","","0.1","","63","","","","34","","10","","24.1","","99.47","","","","","","NA"
"-111.96","60.02","FORT SMITH A","2202201","2018-09-09 11:00","2018","09","09","11:00","7.3","","-0.8","","56","","","","36","","9","","24.1","","99.45","","","","","","Mainly Clear"
"-111.96","60.02","FORT SMITH A","2202201","2018-09-09 12:00","2018","09","09","12:00","8.6","","-1.1","","50","","","","34","","11","","24.1","","99.42","","","","","","NA"
"-111.96","60.02","FORT SMITH A","2202201","2018-09-09 13:00","2018","09","09","13:00","9.3","","-1.5","","47","","","","36","","17","","24.1","","99.39","","","","","","NA"
"-111.96","60.02","FORT SMITH A","2202201","2018-09-09 14:00","2018","09","09","14:00","10.0","","-1.4","","45","","","","35","","11","","24.1","","99.36","","","","","","Mainly Clear"
"-111.96","60.02","FORT SMITH A","2202201","2018-09-09 15:00","2018","09","09","15:00","10.5","","-1.4","","43","","","","33","","11","","24.1","","99.32","","","","","","NA"
"-111.96","60.02","FORT SMITH A","2202201","2018-09-09 16:00","2018","09","09","16:00","10.7","","-1.9","","41","","","","33","","12","","24.1","","99.29","","","","","","NA"
"-111.96","60.02","FORT SMITH A","2202201","2018-09-09 17:00","2018","09","09","17:00","10.1","","-1.6","","44","","","","27","","12","","24.1","","99.27","","","","","","Mostly Cloudy"
"-111.96","60.02","FORT SMITH A","2202201","2018-09-09 18:00","2018","09","09","18:00","9.3","","-1.5","","47","","","","34","","6","","24.1","","99.25","","","","","","NA"
"-111.96","60.02","FORT SMITH A","2202201","2018-09-09 19:00","2018","09","09","19:00","6.8","","-0.4","","60","","","","36","","2","","24.1","","99.22","","","","","","NA"
"-111.96","60.02","FORT SMITH A","2202201","2018-09-09 20:00","2018","09","09","20:00","3.7","","-0.6","","74","","","","18","","3","","24.1","","99.20","","","","","","Mainly Clear"
"-111.96","60.02","FORT SMITH A","2202201","2018-09-09 21:00","2018","09","09","21:00","1.9","","-1.4","","79","","","","36","","2","","24.1","","99.18","","","","","","NA"
"-111.96","60.02","FORT SMITH A","2202201","2018-09-09 22:00","2018","09","09","22:00","0.3","","-2.5","","82","","","","17","","3","","24.1","","99.13","","","","","","NA"
"-111.96","60.02","FORT SMITH A","2202201","2018-09-09 23:00","2018","09","09","23:00","-0.9","","-3.4","","83","","","","18","","4","","24.1","","99.11","","","","-2","","Clear"
"-111.96","60.02","FORT SMITH A","2202201","2018-09-10 00:00","2018","09","10","00:00","-1.8","","-3.8","","87","","","","16","","5","","24.1","","99.07","","","","-4","","NA"
"-111.96","60.02","FORT SMITH A","2202201","2018-09-10 01:00","2018","09","10","01:00","-2.7","","-4.5","","87","","","","16","","3","","24.1","","99.03","","","","-4","","NA"
"-111.96","60.02","FORT SMITH A","2202201","2018-09-10 02:00","2018","09","10","02:00","-2.1","","-3.2","","92","","","","17","","5","","24.1","","98.97","","","","-4","","Clear"
"-111.96","60.02","FORT SMITH A","2202201","2018-09-10 03:00","2018","09","10","03:00","-2.2","","-3.7","","90","","","","15","","6","","24.1","","98.91","","","","-5","","NA"
"-111.96","60.02","FORT SMITH A","2202201","2018-09-10 04:00","2018","09","10","04:00","-2.3","","-3.9","","89","","","","16","","5","","24.1","","98.86","","","","-4","","NA"
"-111.96","60.02","FORT SMITH A","2202201","2018-09-10 05:00","2018","09","10","05:00","-1.4","","-3.7","","85","","","","16","","4","","24.1","","98.81","","","","-3","","Mainly Clear"
"-111.96","60.02","FORT SMITH A","2202201","2018-09-10 06:00","2018","09","10","06:00","-2.0","","-4.0","","86","","","","16","","5","","24.1","","98.77","","","","-4","","NA"
"-111.96","60.02","FORT SMITH A","2202201","2018-09-10 07:00","2018","09","10","07:00","-1.7","","-4.0","","84","","","","16","","7","","24.1","","98.72","","","","-4","","NA"
"-111.96","60.02","FORT SMITH A","2202201","2018-09-10 08:00","2018","09","10","08:00","1.5","","-2.3","","76","","","","19","","5","","24.1","","98.69","","","","","","Mainly Clear"
"-111.96","60.02","FORT SMITH A","2202201","2018-09-10 09:00","2018","09","10","09:00","5.8","","-0.9","","62","","","","21","","10","","24.1","","98.64","","","","","","NA"
"-111.96","60.02","FORT SMITH A","2202201","2018-09-10 10:00","2018","09","10","10:00","9.9","","-0.5","","48","","","","22","","21","","24.1","","98.56","","","","","","NA"
"-111.96","60.02","FORT SMITH A","2202201","2018-09-10 11:00","2018","09","10","11:00","11.7","","-0.2","","44","","","","24","","13","","24.1","","98.50","","","","","","Mostly Cloudy"
"-111.96","60.02","FORT SMITH A","2202201","2018-09-10 12:00","2018","09","10","12:00","13.5","","0.5","","41","","","","26","","12","","24.1","","98.45","","","","","","NA"
"-111.96","60.02","FORT SMITH A","2202201","2018-09-10 13:00","2018","09","10","13:00","13.7","","-0.3","","38","","","","23","","19","","24.1","","98.40","","","","","","NA"
"-111.96","60.02","FORT SMITH A","2202201","2018-09-10 14:00","2018","09","10","14:00","14.5","","-0.9","","34","","","","23","","15","","24.1","","98.34","","","","","","Mostly Cloudy"
"-111.96","60.02","FORT SMITH A","2202201","2018-09-10 15:00","2018","09","10","15:00","14.5","","0.1","","37","","","","28","","10","","24.1","","98.30","","","","","","NA"
"-111.96","60.02","FORT SMITH A","2202201","2018-09-10 16:00","2018","09","10","16:00","15.4","","-1.2","","32","","","","26","","22","","24.1","","98.25","","","","","","NA"
"-111.96","60.02","FORT SMITH A","2202201","2018-09-10 17:00","2018","09","10","17:00","14.9","","-0.8","","34","","","","30","","17","","24.1","","98.22","","","","","","Mostly Cloudy"
"-111.96","60.02","FORT SMITH A","2202201","2018-09-10 18:00","2018","09","10","18:00","12.1","","1.5","","48","","","","33","","17","","24.1","","98.26","","","","","","NA"
"-111.96","60.02","FORT SMITH A","2202201","2018-09-10 19:00","2018","09","10","19:00","10.5","","-0.1","","48","","","","31","","17","","24.1","","98.32","","","","","","NA"
"-111.96","60.02","FORT SMITH A","2202201","2018-09-10 20:00","2018","09","10","20:00","9.3","","2.0","","60","","","","32","","16","","24.1","","98.35","","","","","","Mostly Cloudy"
"-111.96","60.02","FORT SMITH A","2202201","2018-09-10 21:00","2018","09","10","21:00","8.6","","2.2","","64","","","","32","","10","","24.1","","98.39","","","","","","NA"
"-111.96","60.02","FORT SMITH A","2202201","2018-09-10 22:00","2018","09","10","22:00","7.8","","2.4","","68","","","","34","","10","","24.1","","98.43","","","","","","Rain"
"-111.96","60.02","FORT SMITH A","2202201","2018-09-10 23:00","2018","09","10","23:00","7.0","","1.5","","68","","","","32","","14","","24.1","","98.46","","","","","","Mostly Cloudy"
"-111.96","60.02","FORT SMITH A","2202201","2018-09-11 00:00","2018","09","11","00:00","6.4","","1.2","","69","","","","33","","13","","24.1","","98.50","","","","","","NA"
"-111.96","60.02","FORT SMITH A","2202201","2018-09-11 01:00","2018","09","11","01:00","5.7","","0.4","","69","","","","33","","11","","24.1","","98.52","","","","","","NA"
"-111.96","60.02","FORT SMITH A","2202201","2018-09-11 02:00","2018","09","11","02:00","4.8","","-0.4","","69","","","","33","","9","","24.1","","98.58","","","","","","Mostly Cloudy"
"-111.96","60.02","FORT SMITH A","2202201","2018-09-11 03:00","2018","09","11","03:00","4.1","","-2.2","","64","","","","34","","12","","24.1","","98.60","","","","","","NA"
"-111.96","60.02","FORT SMITH A","2202201","2018-09-11 04:00","2018","09","11","04:00","3.6","","-2.1","","66","","","","31","","8","","24.1","","98.60","","","","","","NA"
"-111.96","60.02","FORT SMITH A","2202201","2018-09-11 05:00","2018","09","11","05:00","3.5","","-1.9","","68","","","","31","","7","","24.1","","98.63","","","","","","Mostly Cloudy"
"-111.96","60.02","FORT SMITH A","2202201","2018-09-11 06:00","2018","09","11","06:00","3.6","","-1.0","","72","","","","35","","8","","24.1","","98.68","","","","","","NA"
"-111.96","60.02","FORT SMITH A","2202201","2018-09-11 07:00","2018","09","11","07:00","2.4","","0.5","","88","","","","33","","9","","24.1","","98.78","","","","","","Rain"
"-111.96","60.02","FORT SMITH A","2202201","2018-09-11 08:00","2018","09","11","08:00","2.3","","-0.4","","82","","","","34","","18","","24.1","","98.88","","","","","","Rain"
"-111.96","60.02","FORT SMITH A","2202201","2018-09-11 09:00","2018","09","11","09:00","2.0","","-4.7","","62","","","","34","","17","","24.1","","98.96","","","","","","NA"
"-111.96","60.02","FORT SMITH A","2202201","2018-09-11 10:00","2018","09","11","10:00","2.0","","-6.0","","56","","","","33","","23","","24.1","","99.03","","","","","","NA"
"-111.96","60.02","FORT SMITH A","2202201","2018-09-11 11:00","2018","09","11","11:00","3.6","","-7.5","","44","","","","32","","23","","24.1","","99.05","","","","","","Mostly Cloudy"
"-111.96","60.02","FORT SMITH A","2202201","2018-09-11 12:00","2018","09","11","12:00","4.6","","-6.9","","43","","","","33","","18","","24.1","","99.07","","","","","","NA"
"-111.96","60.02","FORT SMITH A","2202201","2018-09-11 13:00","2018","09","11","13:00","3.8","","-9.2","","38","","","","34","","23","","24.1","","99.12","","","","","","NA"
"-111.96","60.02","FORT SMITH A","2202201","2018-09-11 14:00","2018","09","11","14:00","3.9","","-8.3","","41","","","","34","","21","","24.1","","99.17","","","","","","Mostly Cloudy"
"-111.96","60.02","FORT SMITH A","2202201","2018-09-11 15:00","2018","09","11","15:00","3.8","","-8.1","","41","","","","32","","16","","24.1","","99.20","","","","","","NA"
"-111.96","60.02","FORT SMITH A","2202201","2018-09-11 16:00","2018","09","11","16:00","3.4","","-7.8","","44","","","","33","","18","","24.1","","99.24","","","","","","NA"
"-111.96","60.02","FORT SMITH A","2202201","2018-09-11 17:00","2018","09","11","17:00","3.1","","-7.8","","45","","","","32","","14","","24.1","","99.27","","","","","","Mostly Cloudy"
"-111.96","60.02","FORT SMITH A","2202201","2018-09-11 18:00","2018","09","11","18:00","2.7","","-7.2","","48","","","","35","","14","","24.1","","99.32","","","","","","NA"
"-111.96","60.02","FORT SMITH A","2202201","2018-09-11 19:00","2018","09","11","19:00","1.7","","-4.0","","66","","","","30","","19","","24.1","","99.37","","","","","","NA"
"-111.96","60.02","FORT SMITH A","2202201","2018-09-11 20:00","2018","09","11","20:00","0.9","","-2.9","","76","","","","30","","13","","24.1","","99.43","","","","","","Snow Pellets"
"-111.96","60.02","FORT SMITH A","2202201","2018-09-11 21:00","2018","09","11","21:00","0.6","","-2.9","","77","","","","30","","13","","24.1","","99.46","","","","","","Snow"
"-111.96","60.02","FORT SMITH A","2202201","2018-09-11 22:00","2018","09","11","22:00","0.2","","-2.7","","80","","","","30","","10","","24.1","","99.48","","","","","","Snow"
"-111.96","60.02","FORT SMITH A","2202201","2018-09-11 23:00","2018","09","11","23:00","0.2","","-2.7","","81","","","","29","","12","","24.1","","99.51","","","","","","Cloudy"
"-111.96","60.02","FORT SMITH A","2202201","2018-09-12 00:00","2018","09","12","00:00","0.0","","-2.6","","82","","","","30","","13","","24.1","","99.55","","","","-4","","NA"
"-111.96","60.02","FORT SMITH A","2202201","2018-09-12 01:00","2018","09","12","01:00","0.0","","-1.9","","87","","","","27","","13","","24.1","","99.57","","","","-4","","Snow"
"-111.96","60.02","FORT SMITH A","2202201","2018-09-12 02:00","2018","09","12","02:00","-0.8","","-2.2","","90","","","","27","","11","","24.1","","99.58","","","","-5","","Snow"
"-111.96","60.02","FORT SMITH A","2202201","2018-09-12 03:00","2018","09","12","03:00","-0.6","","-2.1","","90","","","","28","","13","","24.1","","99.62","","","","-5","","Snow"
"-111.96","60.02","FORT SMITH A","2202201","2018-09-12 04:00","2018","09","12","04:00","-0.9","","-2.1","","92","","","","28","","13","","24.1","","99.63","","","","-5","","NA"
"-111.96","60.02","FORT SMITH A","2202201","2018-09-12 05:00","2018","09","12","05:00","-1.0","","-2.2","","91","","","","26","","10","","24.1","","99.64","","","","-5","","Mostly Cloudy"
"-111.96","60.02","FORT SMITH A","2202201","2018-09-12 06:00","2018","09","12","06:00","-1.0","","-2.6","","89","","","","27","","11","","24.1","","99.66","","","","-5","","NA"
"-111.96","60.02","FORT SMITH A","2202201","2018-09-12 07:00","2018","09","12","07:00","-0.8","","-2.5","","88","","","","27","","13","","24.1","","99.67","","","","-5","","Snow Showers"
"-111.96","60.02","FORT SMITH A","2202201","2018-09-12 08:00","2018","09","12","08:00","-0.4","","-2.8","","84","","","","30","","15","","24.1","","99.69","","","","-5","","Snow Showers"
"-111.96","60.02","FORT SMITH A","2202201","2018-09-12 09:00","2018","09","12","09:00","0.8","","-3.5","","73","","","","28","","15","","24.1","","99.72","","","","","","NA"
"-111.96","60.02","FORT SMITH A","2202201","2018-09-12 10:00","2018","09","12","10:00","3.4","","-5.2","","54","","","","25","","15","","24.1","","99.71","","","","","","NA"
"-111.96","60.02","FORT SMITH A","2202201","2018-09-12 11:00","2018","09","12","11:00","3.3","","-5.7","","52","","","","26","","14","","24.1","","99.69","","","","","","Mostly Cloudy"
"-111.96","60.02","FORT SMITH A","2202201","2018-09-12 12:00","2018","09","12","12:00","3.5","","-5.1","","53","","","","30","","21","","24.1","","99.68","","","","","","NA"
"-111.96","60.02","FORT SMITH A","2202201","2018-09-12 13:00","2018","09","12","13:00","3.5","","-5.4","","52","","","","27","","18","","24.1","","99.70","","","","","","NA"
"-111.96","60.02","FORT SMITH A","2202201","2018-09-12 14:00","2018","09","12","14:00","3.6","","-5.3","","52","","","","28","","11","","24.1","","99.69","","","","","","Cloudy"
"-111.96","60.02","FORT SMITH A","2202201","2018-09-12 15:00","2018","09","12","15:00","3.6","","-5.5","","51","","","","31","","14","","24.1","","99.67","","","","","","NA"
"-111.96","60.02","FORT SMITH A","2202201","2018-09-12 16:00","2018","09","12","16:00","3.4","","-6.0","","50","","","","31","","16","","24.1","","99.67","","","","","","NA"
"-111.96","60.02","FORT SMITH A","2202201","2018-09-12 17:00","2018","09","12","17:00","3.2","","-5.5","","53","","","","30","","14","","24.1","","99.68","","","","","","Cloudy"
"-111.96","60.02","FORT SMITH A","2202201","2018-09-12 18:00","2018","09","12","18:00","2.8","","-5.1","","56","","","","33","","8","","24.1","","99.68","","","","","","NA"
"-111.96","60.02","FORT SMITH A","2202201","2018-09-12 19:00","2018","09","12","19:00","2.2","","-4.1","","63","","","","36","","4","","24.1","","99.68","","","","","","NA"
"-111.96","60.02","FORT SMITH A","2202201","2018-09-12 20:00","2018","09","12","20:00","1.1","","-3.8","","70","","","","4","","4","","24.1","","99.69","","","","","","Mostly Cloudy"
"-111.96","60.02","FORT SMITH A","2202201","2018-09-12 21:00","2018","09","12","21:00","-0.2","","-4.1","","75","","","","1","","3","","24.1","","99.70","","","","-1","","NA"
"-111.96","60.02","FORT SMITH A","2202201","2018-09-12 22:00","2018","09","12","22:00","0.1","","-4.2","","73","","","","15","","6","","24.1","","99.68","","","","","","NA"
"-111.96","60.02","FORT SMITH A","2202201","2018-09-12 23:00","2018","09","12","23:00","0.1","","-4.2","","73","","","","16","","7","","24.1","","99.65","","","","","","Mostly Cloudy"
"-111.96","60.02","FORT SMITH A","2202201","2018-09-13 00:00","2018","09","13","00:00","-0.4","","-4.5","","74","","","","36","","2","","24.1","","99.63","","","","-1","","NA"
"-111.96","60.02","FORT SMITH A","2202201","2018-09-13 01:00","2018","09","13","01:00","-0.6","","-4.7","","73","","","","16","","5","","24.1","","99.59","","","","-2","","NA"
"-111.96","60.02","FORT SMITH A","2202201","2018-09-13 02:00","2018","09","13","02:00","0.0","","-6.2","","63","","","","20","","9","","24.1","","99.57","","","","-3","","Cloudy"
"-111.96","60.02","FORT SMITH A","2202201","2018-09-13 03:00","2018","09","13","03:00","-0.6","","-5.7","","69","","","","22","","9","","24.1","","99.55","","","","-4","","NA"
"-111.96","60.02","FORT SMITH A","2202201","2018-09-13 04:00","2018","09","13","04:00","-0.2","","-5.3","","68","","","","25","","9","","24.1","","99.55","","","","-3","","NA"
"-111.96","60.02","FORT SMITH A","2202201","2018-09-13 05:00","2018","09","13","05:00","-2.2","","-5.5","","78","","","","17","","4","","24.1","","99.55","","","","-4","","Mostly Cloudy"
"-111.96","60.02","FORT SMITH A","2202201","2018-09-13 06:00","2018","09","13","06:00","-1.3","","-5.0","","76","","","","21","","4","","24.1","","99.53","","","","-3","","NA"
"-111.96","60.02","FORT SMITH A","2202201","2018-09-13 07:00","2018","09","13","07:00","-0.4","","-4.7","","72","","","","22","","8","","24.1","","99.53","","","","-3","","NA"
"-111.96","60.02","FORT SMITH A","2202201","2018-09-13 08:00","2018","09","13","08:00","0.6","","-4.5","","69","","","","22","","9","","24.1","","99.52","","","","","","Cloudy"
"-111.96","60.02","FORT SMITH A","2202201","2018-09-13 09:00","2018","09","13","09:00","1.5","","-4.6","","64","","","","24","","12","","24.1","","99.52","","","","","","NA"
"-111.96","60.02","FORT SMITH A","2202201","2018-09-13 10:00","2018","09","13","10:00","3.2","","-4.2","","58","","","","22","","8","","24.1","","99.50","","","","","","NA"
"-111.96","60.02","FORT SMITH A","2202201","2018-09-13 11:00","2018","09","13","11:00","4.1","","-4.4","","54","","","","23","","13","","24.1","","99.46","","","","","","Mostly Cloudy"
"-111.96","60.02","FORT SMITH A","2202201","2018-09-13 12:00","2018","09","13","12:00","6.2","","-4.8","","45","","","","24","","16","","24.1","","99.44","","","","","","NA"
"-111.96","60.02","FORT SMITH A","2202201","2018-09-13 13:00","2018","09","13","13:00","6.4","","-5.5","","42","","","","28","","17","","24.1","","99.42","","","","","","NA"
"-111.96","60.02","FORT SMITH A","2202201","2018-09-13 14:00","2018","09","13","14:00","7.2","","-6.7","","36","","","","25","","12","","24.1","","99.40","","","","","","Mostly Cloudy"
"-111.96","60.02","FORT SMITH A","2202201","2018-09-13 15:00","2018","09","13","15:00","6.6","","-6.3","","39","","","","23","","13","","24.1","","99.40","","","","","","NA"
"-111.96","60.02","FORT SMITH A","2202201","2018-09-13 16:00","2018","09","13","16:00","6.9","","-6.8","","37","","","","26","","17","","24.1","","99.41","","","","","","NA"
"-111.96","60.02","FORT SMITH A","2202201","2018-09-13 17:00","2018","09","13","17:00","6.5","","-6.3","","39","","","","27","","8","","24.1","","99.43","","","","","","Cloudy"
"-111.96","60.02","FORT SMITH A","2202201","2018-09-13 18:00","2018","09","13","18:00","6.3","","-5.6","","42","","","","25","","7","","24.1","","99.44","","","","","","NA"
"-111.96","60.02","FORT SMITH A","2202201","2018-09-13 19:00","2018","09","13","19:00","5.1","","-4.2","","51","","","","1","","4","","24.1","","99.45","","","","","","NA"
"-111.96","60.02","FORT SMITH A","2202201","2018-09-13 20:00","2018","09","13","20:00","3.8","","-3.4","","59","","","","36","","2","","24.1","","99.47","","","","","","Cloudy"
"-111.96","60.02","FORT SMITH A","2202201","2018-09-13 21:00","2018","09","13","21:00","2.6","","-3.5","","64","","","","36","","1","","24.1","","99.49","","","","","","NA"
"-111.96","60.02","FORT SMITH A","2202201","2018-09-13 22:00","2018","09","13","22:00","2.1","","-3.3","","67","","","","17","","5","","24.1","","99.52","","","","","","NA"
"-111.96","60.02","FORT SMITH A","2202201","2018-09-13 23:00","2018","09","13","23:00","2.2","","-3.7","","65","","","","19","","4","","24.1","","99.52","","","","","","Cloudy"
"-111.96","60.02","FORT SMITH A","2202201","2018-09-14 00:00","2018","09","14","00:00","1.2","","-3.8","","69","","","","36","","1","","24.1","","99.53","","","","","","NA"
"-111.96","60.02","FORT SMITH A","2202201","2018-09-14 01:00","2018","09","14","01:00","2.0","","-4.4","","62","","","","21","","4","","24.1","","99.54","","","","","","NA"
"-111.96","60.02","FORT SMITH A","2202201","2018-09-14 02:00","2018","09","14","02:00","1.2","","-4.3","","67","","","","36","","3","","24.1","","99.53","","","","","","Cloudy"
"-111.96","60.02","FORT SMITH A","2202201","2018-09-14 03:00","2018","09","14","03:00","0.3","","-4.2","","72","","","","21","","4","","24.1","","99.54","","","","","","NA"
"-111.96","60.02","FORT SMITH A","2202201","2018-09-14 04:00","2018","09","14","04:00","-0.7","","-4.2","","77","","","","21","","4","","24.1","","99.55","","","","-2","","NA"
"-111.96","60.02","FORT SMITH A","2202201","2018-09-14 05:00","2018","09","14","05:00","-2.7","","-5.5","","81","","","","36","","3","","24.1","","99.55","","","","-4","","Mostly Cloudy"
"-111.96","60.02","FORT SMITH A","2202201","2018-09-14 06:00","2018","09","14","06:00","-1.6","","-4.7","","80","","","","23","","3","","24.1","","99.57","","","","-3","","NA"
"-111.96","60.02","FORT SMITH A","2202201","2018-09-14 07:00","2018","09","14","07:00","-1.0","","-3.9","","81","","","","15","","5","","24.1","","99.59","","","","-3","","NA"
"-111.96","60.02","FORT SMITH A","2202201","2018-09-14 08:00","2018","09","14","08:00","0.8","","-2.2","","80","","","","31","","6","","24.1","","99.65","","","","","","Snow Showers"
"-111.96","60.02","FORT SMITH A","2202201","2018-09-14 09:00","2018","09","14","09:00","1.8","","-1.2","","81","","","","33","","8","","24.1","","99.70","","","","","","NA"
"-111.96","60.02","FORT SMITH A","2202201","2018-09-14 10:00","2018","09","14","10:00","2.6","","-0.7","","79","","","","31","","10","","24.1","","99.73","","","","","","NA"
"-111.96","60.02","FORT SMITH A","2202201","2018-09-14 11:00","2018","09","14","11:00","4.0","","-1.0","","70","","","","29","","11","","24.1","","99.75","","","","","","Cloudy"
"-111.96","60.02","FORT SMITH A","2202201","2018-09-14 12:00","2018","09","14","12:00","5.8","","-3.7","","51","","","","27","","18","","24.1","","99.74","","","","","","NA"
"-111.96","60.02","FORT SMITH A","2202201","2018-09-14 13:00","2018","09","14","13:00","4.1","","-2.5","","62","","","","28","","21","","24.1","","99.79","","","","","","NA"
"-111.96","60.02","FORT SMITH A","2202201","2018-09-14 14:00","2018","09","14","14:00","3.5","","-1.2","","71","","","","31","","16","","24.1","","99.83","","","","","","Rain Showers"
"-111.96","60.02","FORT SMITH A","2202201","2018-09-14 15:00","2018","09","14","15:00","3.1","","-2.3","","68","","","","31","","21","","24.1","","99.88","","","","","","Rain Showers"
"-111.96","60.02","FORT SMITH A","2202201","2018-09-14 16:00","2018","09","14","16:00","2.8","","-2.0","","71","","","","30","","18","","24.1","","99.91","","","","","","NA"
"-111.96","60.02","FORT SMITH A","2202201","2018-09-14 17:00","2018","09","14","17:00","2.8","","-3.2","","65","","","","28","","16","","24.1","","99.94","","","","","","Cloudy"
"-111.96","60.02","FORT SMITH A","2202201","2018-09-14 18:00","2018","09","14","18:00","2.4","","-4.0","","63","","","","27","","14","","24.1","","99.97","","","","","","NA"
"-111.96","60.02","FORT SMITH A","2202201","2018-09-14 19:00","2018","09","14","19:00","1.6","","-3.9","","67","","","","31","","7","","24.1","","99.98","","","","","","NA"
"-111.96","60.02","FORT SMITH A","2202201","2018-09-14 20:00","2018","09","14","20:00","1.3","","-3.8","","69","","","","30","","7","","24.1","","100.01","","","","","","Mostly Cloudy"
"-111.96","60.02","FORT SMITH A","2202201","2018-09-14 21:00","2018","09","14","21:00","-0.4","","-3.9","","77","","","","29","","8","","24.1","","100.03","","","","-3","","NA"
"-111.96","60.02","FORT SMITH A","2202201","2018-09-14 22:00","2018","09","14","22:00","-1.9","","-4.0","","86","","","","28","","7","","24.1","","100.05","","","","-5","","NA"
"-111.96","60.02","FORT SMITH A","2202201","2018-09-14 23:00","2018","09","14","23:00","-1.5","","-3.3","","88","","","","29","","7","","24.1","","100.09","","","","-4","","Mainly Clear"
"-111.96","60.02","FORT SMITH A","2202201","2018-09-15 00:00","2018","09","15","00:00","-0.7","","-2.4","","88","","","","27","","9","","24.1","","100.11","","","","-4","","NA"
"-111.96","60.02","FORT SMITH A","2202201","2018-09-15 01:00","2018","09","15","01:00","-0.3","","-2.2","","87","","","","26","","12","","24.1","","100.11","","","","-4","","NA"
"-111.96","60.02","FORT SMITH A","2202201","2018-09-15 02:00","2018","09","15","02:00","-2.1","","-3.7","","89","","","","25","","8","","24.1","","100.13","","","","-5","","Cloudy"
"-111.96","60.02","FORT SMITH A","2202201","2018-09-15 03:00","2018","09","15","03:00","-2.9","","-4.2","","91","","","","22","","3","","24.1","","100.15","","","","-4","","NA"
"-111.96","60.02","FORT SMITH A","2202201","2018-09-15 04:00","2018","09","15","04:00","-3.2","","-4.4","","91","","","","22","","8","","24.1","","100.16","","","","-6","","NA"
"-111.96","60.02","FORT SMITH A","2202201","2018-09-15 05:00","2018","09","15","05:00","-2.6","","-3.7","","92","","","","23","","7","","24.1","","100.17","","","","-5","","Mostly Cloudy"
"-111.96","60.02","FORT SMITH A","2202201","2018-09-15 06:00","2018","09","15","06:00","-2.2","","-3.5","","91","","","","24","","7","","24.1","","100.21","","","","-5","","NA"
"-111.96","60.02","FORT SMITH A","2202201","2018-09-15 07:00","2018","09","15","07:00","-1.3","","-2.9","","89","","","","28","","12","","24.1","","100.21","","","","-5","","NA"
"-111.96","60.02","FORT SMITH A","2202201","2018-09-15 08:00","2018","09","15","08:00","-0.3","","-2.6","","84","","","","29","","13","","24.1","","100.24","","","","-4","","Mostly Cloudy"
"-111.96","60.02","FORT SMITH A","2202201","2018-09-15 09:00","2018","09","15","09:00","1.2","","-2.7","","75","","","","28","","9","","24.1","","100.26","","","","","","NA"
"-111.96","60.02","FORT SMITH A","2202201","2018-09-15 10:00","2018","09","15","10:00","2.6","","-3.1","","66","","","","27","","13","","24.1","","100.28","","","","","","NA"
"-111.96","60.02","FORT SMITH A","2202201","2018-09-15 11:00","2018","09","15","11:00","3.7","","-4.8","","54","","","","28","","7","","24.1","","100.29","","","","","","Mostly Cloudy"
"-111.96","60.02","FORT SMITH A","2202201","2018-09-15 12:00","2018","09","15","12:00","4.1","","-4.7","","53","","","","33","","8","","24.1","","100.26","","","","","","NA"
"-111.96","60.02","FORT SMITH A","2202201","2018-09-15 13:00","2018","09","15","13:00","4.3","","-4.3","","54","","","","29","","15","","24.1","","100.24","","","","","","NA"
"-111.96","60.02","FORT SMITH A","2202201","2018-09-15 14:00","2018","09","15","14:00","4.5","","-6.1","","46","","","","27","","16","","24.1","","100.23","","","","","","Cloudy"
"-111.96","60.02","FORT SMITH A","2202201","2018-09-15 15:00","2018","09","15","15:00","4.9","","-6.1","","45","","","","31","","12","","24.1","","100.21","","","","","","NA"
"-111.96","60.02","FORT SMITH A","2202201","2018-09-15 16:00","2018","09","15","16:00","5.0","","-6.5","","43","","","","29","","9","","24.1","","100.19","","","","","","NA"
"-111.96","60.02","FORT SMITH A","2202201","2018-09-15 17:00","2018","09","15","17:00","4.8","","-6.2","","45","","","","30","","5","","24.1","","100.18","","","","","","Mostly Cloudy"
"-111.96","60.02","FORT SMITH A","2202201","2018-09-15 18:00","2018","09","15","18:00","3.9","","-4.4","","55","","","","3","","12","","24.1","","100.18","","","","","","NA"
"-111.96","60.02","FORT SMITH A","2202201","2018-09-15 19:00","2018","09","15","19:00","1.0","","-4.7","","66","","","","36","","2","","24.1","","100.21","","","","","","NA"
"-111.96","60.02","FORT SMITH A","2202201","2018-09-15 20:00","2018","09","15","20:00","-1.1","","-5.1","","74","","","","36","","1","","24.1","","100.24","","","","-1","","Clear"
"-111.96","60.02","FORT SMITH A","2202201","2018-09-15 21:00","2018","09","15","21:00","-2.6","","-6.4","","75","","","","36","","2","","24.1","","100.28","","","","-3","","NA"
"-111.96","60.02","FORT SMITH A","2202201","2018-09-15 22:00","2018","09","15","22:00","-4.2","","-6.5","","84","","","","36","","1","","24.1","","100.32","","","","-5","","NA"
"-111.96","60.02","FORT SMITH A","2202201","2018-09-15 23:00","2018","09","15","23:00","-3.8","","-6.5","","82","","","","36","","3","","24.1","","100.34","","","","-5","","Mainly Clear"
"-111.96","60.02","FORT SMITH A","2202201","2018-09-16 00:00","2018","09","16","00:00","-4.8","","-6.6","","88","","","","36","","1","","24.1","","100.35","","","","-5","","NA"
"-111.96","60.02","FORT SMITH A","2202201","2018-09-16 01:00","2018","09","16","01:00","-5.7","","-6.7","","93","","","","36","","1","","24.1","","100.34","","","","-6","","NA"
"-111.96","60.02","FORT SMITH A","2202201","2018-09-16 02:00","2018","09","16","02:00","-3.8","","-5.4","","88","","","","36","","2","","24.1","","100.33","","","","-5","","Mostly Cloudy"
"-111.96","60.02","FORT SMITH A","2202201","2018-09-16 03:00","2018","09","16","03:00","-2.7","","-4.0","","91","","","","36","","1","","24.1","","100.32","","","","-3","","NA"
"-111.96","60.02","FORT SMITH A","2202201","2018-09-16 04:00","2018","09","16","04:00","-2.4","","-3.8","","90","","","","36","","2","","24.1","","100.32","","","","-3","","NA"
"-111.96","60.02","FORT SMITH A","2202201","2018-09-16 05:00","2018","09","16","05:00","-2.6","","-3.8","","92","","","","36","","2","","24.1","","100.33","","","","-3","","Mostly Cloudy"
"-111.96","60.02","FORT SMITH A","2202201","2018-09-16 06:00","2018","09","16","06:00","-1.9","","-3.3","","90","","","","17","","3","","24.1","","100.33","","","","-3","","NA"
"-111.96","60.02","FORT SMITH A","2202201","2018-09-16 07:00","2018","09","16","07:00","-1.5","","-3.6","","86","","","","36","","1","","24.1","","100.33","","","","-2","","NA"
"-111.96","60.02","FORT SMITH A","2202201","2018-09-16 08:00","2018","09","16","08:00","1.2","","-1.2","","84","","","","36","","2","","24.1","","100.32","","","","","","Mostly Cloudy"
"-111.96","60.02","FORT SMITH A","2202201","2018-09-16 09:00","2018","09","16","09:00","2.7","","-2.2","","70","","","","14","","9","","24.1","","100.32","","","","","","NA"
"-111.96","60.02","FORT SMITH A","2202201","2018-09-16 10:00","2018","09","16","10:00","4.9","","-1.7","","62","","","","36","","2","","24.1","","100.28","","","","","","NA"
"-111.96","60.02","FORT SMITH A","2202201","2018-09-16 11:00","2018","09","16","11:00","6.5","","-4.4","","46","","","","15","","15","","24.1","","100.23","","","","","","Mainly Clear"
"-111.96","60.02","FORT SMITH A","2202201","2018-09-16 12:00","2018","09","16","12:00","7.5","","-4.6","","42","","","","14","","7","","24.1","","100.16","","","","","","NA"
"-111.96","60.02","FORT SMITH A","2202201","2018-09-16 13:00","2018","09","16","13:00","8.8","","-4.2","","40","","","","31","","11","","24.1","","100.12","","","","","","NA"
"-111.96","60.02","FORT SMITH A","2202201","2018-09-16 14:00","2018","09","16","14:00","7.3","","-4.5","","43","","","","4","","9","","24.1","","100.05","","","","","","Mainly Clear"
"-111.96","60.02","FORT SMITH A","2202201","2018-09-16 15:00","2018","09","16","15:00","9.0","","-4.8","","37","","","","6","","8","","24.1","","100.00","","","","","","NA"
"-111.96","60.02","FORT SMITH A","2202201","2018-09-16 16:00","2018","09","16","16:00","9.1","","-5.0","","37","","","","5","","9","","24.1","","99.96","","","","","","NA"
"-111.96","60.02","FORT SMITH A","2202201","2018-09-16 17:00","2018","09","16","17:00","8.9","","-5.2","","36","","","","6","","8","","24.1","","99.94","","","","","","Mainly Clear"
"-111.96","60.02","FORT SMITH A","2202201","2018-09-16 18:00","2018","09","16","18:00","8.1","","-5.4","","38","","","","9","","5","","24.1","","99.91","","","","","","NA"
"-111.96","60.02","FORT SMITH A","2202201","2018-09-16 19:00","2018","09","16","19:00","5.0","","-4.0","","52","","","","11","","3","","24.1","","99.88","","","","","","NA"
"-111.96","60.02","FORT SMITH A","2202201","2018-09-16 20:00","2018","09","16","20:00","2.7","","-4.7","","58","","","","14","","7","","24.1","","99.87","","","","","","Clear"
"-111.96","60.02","FORT SMITH A","2202201","2018-09-16 21:00","2018","09","16","21:00","1.9","","-5.0","","60","","","","15","","11","","24.1","","99.87","","","","","","NA"
"-111.96","60.02","FORT SMITH A","2202201","2018-09-16 22:00","2018","09","16","22:00","0.8","","-5.2","","64","","","","15","","11","","24.1","","99.88","","","","","","NA"
"-111.96","60.02","FORT SMITH A","2202201","2018-09-16 23:00","2018","09","16","23:00","0.0","","-5.1","","68","","","","15","","10","","24.1","","99.87","","","","-3","","Clear"
"-111.96","60.02","FORT SMITH A","2202201","2018-09-17 00:00","2018","09","17","00:00","-0.8","","-5.1","","73","","","","15","","9","","22.5","","99.85","","","","-4","","NA"
"-111.96","60.02","FORT SMITH A","2202201","2018-09-17 01:00","2018","09","17","01:00","-2.0","","-5.8","","76","","","","16","","10","","24.1","","99.82","","","","-6","","NA"
"-111.96","60.02","FORT SMITH A","2202201","2018-09-17 02:00","2018","09","17","02:00","-1.8","","-5.1","","78","","","","15","","11","","24.1","","99.77","","","","-6","","Clear"
"-111.96","60.02","FORT SMITH A","2202201","2018-09-17 03:00","2018","09","17","03:00","-2.3","","-5.1","","81","","","","16","","13","","24.1","","99.74","","","","-7","","NA"
"-111.96","60.02","FORT SMITH A","2202201","2018-09-17 04:00","2018","09","17","04:00","-2.7","","-4.8","","85","","","","16","","12","","24.1","","99.68","","","","-7","","NA"
"-111.96","60.02","FORT SMITH A","2202201","2018-09-17 05:00","2018","09","17","05:00","-2.7","","-4.5","","88","","","","16","","11","","24.1","","99.64","","","","-7","","Clear"
"-111.96","60.02","FORT SMITH A","2202201","2018-09-17 06:00","2018","09","17","06:00","-3.2","","-4.7","","89","","","","16","","7","","24.1","","99.61","","","","-6","","NA"
"-111.96","60.02","FORT SMITH A","2202201","2018-09-17 07:00","2018","09","17","07:00","-2.9","","-4.7","","87","","","","15","","9","","24.1","","99.58","","","","-6","","NA"
"-111.96","60.02","FORT SMITH A","2202201","2018-09-17 08:00","2018","09","17","08:00","0.3","","-3.5","","76","","","","17","","5","","24.1","","99.56","","","","","","Mainly Clear"
"-111.96","60.02","FORT SMITH A","2202201","2018-09-17 09:00","2018","09","17","09:00","4.2","","-3.2","","59","","","","19","","9","","24.1","","99.51","","","","","","NA"
"-111.96","60.02","FORT SMITH A","2202201","2018-09-17 10:00","2018","09","17","10:00","7.1","","-3.6","","47","","","","22","","10","","24.1","","99.46","","","","","","NA"
"-111.96","60.02","FORT SMITH A","2202201","2018-09-17 11:00","2018","09","17","11:00","9.1","","-4.4","","38","","","","20","","13","","24.1","","99.40","","","","","","Clear"
"-111.96","60.02","FORT SMITH A","2202201","2018-09-17 12:00","2018","09","17","12:00","10.8","","-5.6","","31","","","","23","","10","","24.1","","99.32","","","","","","NA"
"-111.96","60.02","FORT SMITH A","2202201","2018-09-17 13:00","2018","09","17","13:00","11.6","","-6.1","","28","","","","23","","15","","24.1","","99.24","","","","","","NA"
"-111.96","60.02","FORT SMITH A","2202201","2018-09-17 14:00","2018","09","17","14:00","12.4","","-6.3","","26","","","","23","","12","","24.1","","99.15","","","","","","Mainly Clear"
"-111.96","60.02","FORT SMITH A","2202201","2018-09-17 15:00","2018","09","17","15:00","12.4","","-7.5","","24","","","","24","","19","","24.1","","99.07","","","","","","NA"
"-111.96","60.02","FORT SMITH A","2202201","2018-09-17 16:00","2018","09","17","16:00","12.7","","-7.0","","25","","","","28","","11","","24.1","","99.01","","","","","","NA"
"-111.96","60.02","FORT SMITH A","2202201","2018-09-17 17:00","2018","09","17","17:00","12.7","","-7.0","","25","","","","26","","19","","24.1","","98.95","","","","","","Mainly Clear"
"-111.96","60.02","FORT SMITH A","2202201","2018-09-17 18:00","2018","09","17","18:00","11.3","","-5.4","","30","","","","27","","11","","24.1","","98.94","","","","","","NA"
"-111.96","60.02","FORT SMITH A","2202201","2018-09-17 19:00","2018","09","17","19:00","9.9","","-4.8","","35","","","","24","","8","","24.1","","98.93","","","","","","NA"
"-111.96","60.02","FORT SMITH A","2202201","2018-09-17 20:00","2018","09","17","20:00","8.8","","-4.4","","39","","","","22","","10","","24.1","","98.91","","","","","","Mostly Cloudy"
"-111.96","60.02","FORT SMITH A","2202201","2018-09-17 21:00","2018","09","17","21:00","8.8","","-4.4","","39","","","","21","","12","","24.1","","98.88","","","","","","NA"
"-111.96","60.02","FORT SMITH A","2202201","2018-09-17 22:00","2018","09","17","22:00","7.0","","-4.0","","46","","","","22","","10","","24.1","","98.85","","","","","","NA"
"-111.96","60.02","FORT SMITH A","2202201","2018-09-17 23:00","2018","09","17","23:00","7.2","","-4.2","","44","","","","29","","18","","24.1","","98.89","","","","","","Clear"
"-111.96","60.02","FORT SMITH A","2202201","2018-09-18 00:00","2018","09","18","00:00","5.0","","-1.1","","64","","","","32","","12","","24.1","","98.98","","","","","","NA"
"-111.96","60.02","FORT SMITH A","2202201","2018-09-18 01:00","2018","09","18","01:00","4.0","","-1.7","","66","","","","33","","15","","24.1","","99.03","","","","","","NA"
"-111.96","60.02","FORT SMITH A","2202201","2018-09-18 02:00","2018","09","18","02:00","3.3","","-1.8","","69","","","","32","","13","","24.1","","99.08","","","","","","Mostly Cloudy"
"-111.96","60.02","FORT SMITH A","2202201","2018-09-18 03:00","2018","09","18","03:00","2.9","","-1.6","","72","","","","31","","12","","24.1","","99.15","","","","","","NA"
"-111.96","60.02","FORT SMITH A","2202201","2018-09-18 04:00","2018","09","18","04:00","2.3","","-1.8","","75","","","","31","","12","","24.1","","99.23","","","","","","NA"
"-111.96","60.02","FORT SMITH A","2202201","2018-09-18 05:00","2018","09","18","05:00","0.3","","-3.0","","78","","","","31","","9","","24.1","","99.29","","","","","","Mainly Clear"
"-111.96","60.02","FORT SMITH A","2202201","2018-09-18 06:00","2018","09","18","06:00","-0.9","","-4.1","","79","","","","34","","9","","24.1","","99.35","","","","-4","","NA"
"-111.96","60.02","FORT SMITH A","2202201","2018-09-18 07:00","2018","09","18","07:00","-1.0","","-3.8","","81","","","","30","","9","","24.1","","99.41","","","","-4","","NA"
"-111.96","60.02","FORT SMITH A","2202201","2018-09-18 08:00","2018","09","18","08:00","0.4","","-4.1","","72","","","","32","","10","","24.1","","99.47","","","","","","Mostly Cloudy"
"-111.96","60.02","FORT SMITH A","2202201","2018-09-18 09:00","2018","09","18","09:00","1.2","","-6.1","","58","","","","35","","17","","24.1","","99.53","","","","","","NA"
"-111.96","60.02","FORT SMITH A","2202201","2018-09-18 10:00","2018","09","18","10:00","1.8","","-6.4","","55","","","","35","","25","","24.1","","99.56","","","","","","NA"
"-111.96","60.02","FORT SMITH A","2202201","2018-09-18 11:00","2018","09","18","11:00","2.5","","-7.3","","49","","","","31","","20","","24.1","","99.61","","","","","","Mostly Cloudy"
"-111.96","60.02","FORT SMITH A","2202201","2018-09-18 12:00","2018","09","18","12:00","2.4","","-7.2","","49","","","","32","","12","","24.1","","99.60","","","","","","NA"
"-111.96","60.02","FORT SMITH A","2202201","2018-09-18 13:00","2018","09","18","13:00","3.5","","-8.2","","42","","","","29","","19","","24.1","","99.60","","","","","","NA"
"-111.96","60.02","FORT SMITH A","2202201","2018-09-18 14:00","2018","09","18","14:00","4.0","","-8.4","","40","","","","28","","17","","24.1","","99.59","","","","","","Mainly Clear"
"-111.96","60.02","FORT SMITH A","2202201","2018-09-18 15:00","2018","09","18","15:00","3.8","","-8.7","","40","","","","31","","9","","24.1","","99.56","","","","","","NA"
"-111.96","60.02","FORT SMITH A","2202201","2018-09-18 16:00","2018","09","18","16:00","4.0","","-8.9","","39","","","","32","","13","","24.1","","99.53","","","","","","NA"
"-111.96","60.02","FORT SMITH A","2202201","2018-09-18 17:00","2018","09","18","17:00","3.8","","-8.7","","40","","","","34","","15","","24.1","","99.53","","","","","","Mainly Clear"
"-111.96","60.02","FORT SMITH A","2202201","2018-09-18 18:00","2018","09","18","18:00","2.5","","-8.0","","46","","","","34","","10","","24.1","","99.56","","","","","","NA"
"-111.96","60.02","FORT SMITH A","2202201","2018-09-18 19:00","2018","09","18","19:00","-0.3","","-7.7","","57","","","","36","","5","","24.1","","99.63","","","","-2","","NA"
"-111.96","60.02","FORT SMITH A","2202201","2018-09-18 20:00","2018","09","18","20:00","-2.7","","-8.5","","65","","","","19","","3","","24.1","","99.64","","","","-4","","Clear"
"-111.96","60.02","FORT SMITH A","2202201","2018-09-18 21:00","2018","09","18","21:00","-4.6","","-8.7","","73","","","","36","","1","","24.1","","99.62","","","","-5","","NA"
"-111.96","60.02","FORT SMITH A","2202201","2018-09-18 22:00","2018","09","18","22:00","-4.3","","-8.9","","70","","","","21","","5","","24.1","","99.62","","","","-6","","NA"
"-111.96","60.02","FORT SMITH A","2202201","2018-09-18 23:00","2018","09","18","23:00","-4.0","","-8.7","","70","","","","18","","5","","24.1","","99.60","","","","-6","","Clear"
"-111.96","60.02","FORT SMITH A","2202201","2018-09-19 00:00","2018","09","19","00:00","-4.2","","-8.7","","71","","","","20","","4","","24.1","","99.58","","","","-6","","NA"
"-111.96","60.02","FORT SMITH A","2202201","2018-09-19 01:00","2018","09","19","01:00","-5.1","","-8.7","","76","","","","28","","7","","24.1","","99.59","","","","-8","","NA"
"-111.96","60.02","FORT SMITH A","2202201","2018-09-19 02:00","2018","09","19","02:00","-4.6","","-8.0","","77","","","","29","","10","","24.1","","99.59","","","","-9","","Clear"
"-111.96","60.02","FORT SMITH A","2202201","2018-09-19 03:00","2018","09","19","03:00","-6.1","","-9.1","","79","","","","25","","5","","24.1","","99.58","","","","-9","","NA"
"-111.96","60.02","FORT SMITH A","2202201","2018-09-19 04:00","2018","09","19","04:00","-6.1","","-9.0","","80","","","","22","","8","","24.1","","99.59","","","","-10","","NA"
"-111.96","60.02","FORT SMITH A","2202201","2018-09-19 05:00","2018","09","19","05:00","-5.3","","-8.7","","77","","","","21","","7","","24.1","","99.60","","","","-9","","Mostly Cloudy"
"-111.96","60.02","FORT SMITH A","2202201","2018-09-19 06:00","2018","09","19","06:00","-6.3","","-9.0","","81","","","","20","","5","","24.1","","99.59","","","","-9","","NA"
"-111.96","60.02","FORT SMITH A","2202201","2018-09-19 07:00","2018","09","19","07:00","-5.4","","-8.3","","80","","","","24","","5","","24.1","","99.62","","","","-8","","NA"
"-111.96","60.02","FORT SMITH A","2202201","2018-09-19 08:00","2018","09","19","08:00","-3.6","","-7.1","","77","","","","19","","4","","24.1","","99.62","","","","-5","","Snow"
"-111.96","60.02","FORT SMITH A","2202201","2018-09-19 09:00","2018","09","19","09:00","-2.5","","-6.5","","74","","","","22","","9","","24.1","","99.61","","","","-6","","Snow"
"-111.96","60.02","FORT SMITH A","2202201","2018-09-19 10:00","2018","09","19","10:00","-1.3","","-6.6","","67","","","","23","","10","","24.1","","99.58","","","","-5","","NA"
"-111.96","60.02","FORT SMITH A","2202201","2018-09-19 11:00","2018","09","19","11:00","2.1","","-7.8","","48","","","","24","","12","","24.1","","99.50","","","","","","Mainly Clear"
"-111.96","60.02","FORT SMITH A","2202201","2018-09-19 12:00","2018","09","19","12:00","3.5","","-9.7","","38","","","","27","","25","","24.1","","99.48","","","","","","NA"
"-111.96","60.02","FORT SMITH A","2202201","2018-09-19 13:00","2018","09","19","13:00","2.9","","-9.6","","40","","","","30","","28","","24.1","","99.48","","","","","","NA"
"-111.96","60.02","FORT SMITH A","2202201","2018-09-19 14:00","2018","09","19","14:00","3.5","","-9.4","","38","","","","33","","23","","24.1","","99.43","","","","","","Mostly Cloudy"
"-111.96","60.02","FORT SMITH A","2202201","2018-09-19 15:00","2018","09","19","15:00","3.1","","-10.0","","38","","","","30","","23","","24.1","","99.42","","","","","","NA"
"-111.96","60.02","FORT SMITH A","2202201","2018-09-19 16:00","2018","09","19","16:00","3.0","","-9.7","","39","","","","28","","25","","24.1","","99.42","","","","","","NA"
"-111.96","60.02","FORT SMITH A","2202201","2018-09-19 17:00","2018","09","19","17:00","2.3","","-9.6","","41","","","","33","","19","","24.1","","99.45","","","","","","Mostly Cloudy"
"-111.96","60.02","FORT SMITH A","2202201","2018-09-19 18:00","2018","09","19","18:00","1.2","","-8.2","","50","","","","32","","14","","24.1","","99.50","","","","","","NA"
"-111.96","60.02","FORT SMITH A","2202201","2018-09-19 19:00","2018","09","19","19:00","0.9","","-9.1","","48","","","","31","","16","","24.1","","99.54","","","","","","NA"
"-111.96","60.02","FORT SMITH A","2202201","2018-09-19 20:00","2018","09","19","20:00","0.1","","-8.1","","54","","","","31","","10","","24.1","","99.56","","","","","","Mostly Cloudy"
"-111.96","60.02","FORT SMITH A","2202201","2018-09-19 21:00","2018","09","19","21:00","-1.1","","-7.8","","60","","","","35","","5","","24.1","","99.57","","","","-3","","NA"
"-111.96","60.02","FORT SMITH A","2202201","2018-09-19 22:00","2018","09","19","22:00","-2.9","","-7.8","","69","","","","25","","7","","24.1","","99.61","","","","-6","","NA"
"-111.96","60.02","FORT SMITH A","2202201","2018-09-19 23:00","2018","09","19","23:00","-3.3","","-7.5","","73","","","","28","","7","","24.1","","99.65","","","","-6","","Mainly Clear"
"-111.96","60.02","FORT SMITH A","2202201","2018-09-20 00:00","2018","09","20","00:00","-2.0","","-7.0","","69","","","","28","","10","","24.1","","99.69","","","","-6","","NA"
"-111.96","60.02","FORT SMITH A","2202201","2018-09-20 01:00","2018","09","20","01:00","-1.9","","-6.6","","70","","","","29","","18","","24.1","","99.71","","","","-7","","NA"
"-111.96","60.02","FORT SMITH A","2202201","2018-09-20 02:00","2018","09","20","02:00","-2.5","","-4.1","","89","","","","30","","10","","9.7","","99.75","","","","-6","","Snow"
"-111.96","60.02","FORT SMITH A","2202201","2018-09-20 03:00","2018","09","20","03:00","-2.5","","-3.9","","90","","","","28","","18","","19.3","","99.79","","","","-8","","Snow"
"-111.96","60.02","FORT SMITH A","2202201","2018-09-20 04:00","2018","09","20","04:00","-2.5","","-3.7","","92","","","","29","","15","","24.1","","99.83","","","","-7","","Snow"
"-111.96","60.02","FORT SMITH A","2202201","2018-09-20 05:00","2018","09","20","05:00","-2.3","","-3.6","","91","","","","28","","13","","24.1","","99.89","","","","-7","","Snow"
"-111.96","60.02","FORT SMITH A","2202201","2018-09-20 06:00","2018","09","20","06:00","-2.3","","-4.1","","87","","","","29","","13","","24.1","","99.93","","","","-7","","Snow"
"-111.96","60.02","FORT SMITH A","2202201","2018-09-20 07:00","2018","09","20","07:00","-1.8","","-5.6","","75","","","","28","","16","","24.1","","99.93","","","","-7","","Snow Showers"
"-111.96","60.02","FORT SMITH A","2202201","2018-09-20 08:00","2018","09","20","08:00","-1.2","","-5.4","","73","","","","28","","26","","24.1","","99.98","","","","-8","","Mostly Cloudy"
"-111.96","60.02","FORT SMITH A","2202201","2018-09-20 09:00","2018","09","20","09:00","-0.5","","-5.6","","68","","","","28","","21","","24.1","","100.02","","","","-6","","NA"
"-111.96","60.02","FORT SMITH A","2202201","2018-09-20 10:00","2018","09","20","10:00","0.4","","-6.2","","61","","","","29","","35","","24.1","","100.04","","","","","","NA"
"-111.96","60.02","FORT SMITH A","2202201","2018-09-20 11:00","2018","09","20","11:00","0.7","","-6.3","","60","","","","28","","30","","24.1","","100.06","","","","","","Cloudy"
"-111.96","60.02","FORT SMITH A","2202201","2018-09-20 12:00","2018","09","20","12:00","1.3","","-6.6","","56","","","","28","","29","","24.1","","100.08","","","","","","NA"
"-111.96","60.02","FORT SMITH A","2202201","2018-09-20 13:00","2018","09","20","13:00","1.3","","-7.1","","54","","","","29","","32","","24.1","","100.09","","","","","","NA"
"-111.96","60.02","FORT SMITH A","2202201","2018-09-20 14:00","2018","09","20","14:00","1.1","","-6.6","","56","","","","28","","27","","24.1","","100.11","","","","","","Snow"
"-111.96","60.02","FORT SMITH A","2202201","2018-09-20 15:00","2018","09","20","15:00","1.3","","-6.4","","57","","","","28","","20","","24.1","","100.12","","","","","","NA"
"-111.96","60.02","FORT SMITH A","2202201","2018-09-20 16:00","2018","09","20","16:00","1.1","","-6.3","","58","","","","30","","22","","24.1","","100.14","","","","","","NA"
"-111.96","60.02","FORT SMITH A","2202201","2018-09-20 17:00","2018","09","20","17:00","1.0","","-6.4","","58","","","","29","","21","","24.1","","100.16","","","","","","Mostly Cloudy"
"-111.96","60.02","FORT SMITH A","2202201","2018-09-20 18:00","2018","09","20","18:00","0.4","","-6.3","","61","","","","29","","21","","24.1","","100.16","","","","","","NA"
"-111.96","60.02","FORT SMITH A","2202201","2018-09-20 19:00","2018","09","20","19:00","-0.1","","-6.3","","63","","","","28","","15","","24.1","","100.15","","","","-5","","NA"
"-111.96","60.02","FORT SMITH A","2202201","2018-09-20 20:00","2018","09","20","20:00","-0.2","","-6.3","","63","","","","28","","17","","24.1","","100.16","","","","-5","","Mostly Cloudy"
"-111.96","60.02","FORT SMITH A","2202201","2018-09-20 21:00","2018","09","20","21:00","0.0","","-6.1","","64","","","","30","","11","","24.1","","100.15","","","","-4","","NA"
"-111.96","60.02","FORT SMITH A","2202201","2018-09-20 22:00","2018","09","20","22:00","0.1","","-6.0","","64","","","","27","","12","","24.1","","100.14","","","","","","NA"
"-111.96","60.02","FORT SMITH A","2202201","2018-09-20 23:00","2018","09","20","23:00","0.1","","-6.1","","63","","","","27","","10","","24.1","","100.11","","","","","","Cloudy"
"-111.96","60.02","FORT SMITH A","2202201","2018-09-21 00:00","2018","09","21","00:00","-1.5","","-6.4","","69","","","","23","","9","","24.1","","100.10","","","","-5","","NA"
"-111.96","60.02","FORT SMITH A","2202201","2018-09-21 01:00","2018","09","21","01:00","-1.5","","-6.5","","69","","","","26","","9","","64.4","","100.09","","","","-5","","NA"
"-111.96","60.02","FORT SMITH A","2202201","2018-09-21 02:00","2018","09","21","02:00","-1.7","","-6.9","","68","","","","25","","11","","24.1","","100.08","","","","-6","","Cloudy"
"-111.96","60.02","FORT SMITH A","2202201","2018-09-21 03:00","2018","09","21","03:00","-2.6","","-7.1","","71","","","","26","","9","","24.1","","100.07","","","","-6","","NA"
"-111.96","60.02","FORT SMITH A","2202201","2018-09-21 04:00","2018","09","21","04:00","-3.1","","-7.3","","73","","","","21","","7","","24.1","","100.09","","","","-6","","NA"
"-111.96","60.02","FORT SMITH A","2202201","2018-09-21 05:00","2018","09","21","05:00","-3.6","","-7.5","","74","","","","21","","5","","24.1","","100.10","","","","-6","","Cloudy"
"-111.96","60.02","FORT SMITH A","2202201","2018-09-21 06:00","2018","09","21","06:00","-3.8","","-7.7","","75","","","","27","","5","","24.1","","100.12","","","","-6","","NA"
"-111.96","60.02","FORT SMITH A","2202201","2018-09-21 07:00","2018","09","21","07:00","-3.6","","-7.9","","73","","","","23","","4","","24.1","","100.13","","","","-5","","NA"
"-111.96","60.02","FORT SMITH A","2202201","2018-09-21 08:00","2018","09","21","08:00","-2.8","","-7.7","","69","","","","21","","8","","24.1","","100.14","","","","-6","","Mostly Cloudy"
"-111.96","60.02","FORT SMITH A","2202201","2018-09-21 09:00","2018","09","21","09:00","-1.4","","-7.7","","62","","","","21","","6","","24.1","","100.13","","","","-4","","NA"
"-111.96","60.02","FORT SMITH A","2202201","2018-09-21 10:00","2018","09","21","10:00","0.2","","-7.5","","57","","","","36","","3","","24.1","","100.12","","","","","","NA"
"-111.96","60.02","FORT SMITH A","2202201","2018-09-21 11:00","2018","09","21","11:00","1.7","","-7.4","","51","","","","26","","7","","24.1","","100.10","","","","","","Mostly Cloudy"
"-111.96","60.02","FORT SMITH A","2202201","2018-09-21 12:00","2018","09","21","12:00","2.5","","-6.8","","50","","","","33","","3","","24.1","","100.07","","","","","","NA"
"-111.96","60.02","FORT SMITH A","2202201","2018-09-21 13:00","2018","09","21","13:00","3.4","","-7.6","","44","","","","23","","8","","24.1","","100.06","","","","","","NA"
"-111.96","60.02","FORT SMITH A","2202201","2018-09-21 14:00","2018","09","21","14:00","4.0","","-7.9","","41","","","","36","","3","","24.1","","100.03","","","","","","Mainly Clear"
"-111.96","60.02","FORT SMITH A","2202201","2018-09-21 15:00","2018","09","21","15:00","4.3","","-7.6","","42","","","","2","","8","","24.1","","100.01","","","","","","NA"
"-111.96","60.02","FORT SMITH A","2202201","2018-09-21 16:00","2018","09","21","16:00","4.5","","-7.5","","41","","","","4","","8","","24.1","","99.98","","","","","","NA"
"-111.96","60.02","FORT SMITH A","2202201","2018-09-21 17:00","2018","09","21","17:00","4.6","","-7.7","","41","","","","8","","9","","24.1","","99.96","","","","","","Mainly Clear"
"-111.96","60.02","FORT SMITH A","2202201","2018-09-21 18:00","2018","09","21","18:00","3.2","","-7.3","","46","","","","6","","5","","24.1","","99.97","","","","","","NA"
"-111.96","60.02","FORT SMITH A","2202201","2018-09-21 19:00","2018","09","21","19:00","0.4","","-7.5","","55","","","","10","","4","","24.1","","99.95","","","","","","NA"
"-111.96","60.02","FORT SMITH A","2202201","2018-09-21 20:00","2018","09","21","20:00","-1.6","","-7.4","","65","","","","10","","3","","24.1","","99.98","","","","-3","","Clear"
"-111.96","60.02","FORT SMITH A","2202201","2018-09-21 21:00","2018","09","21","21:00","-2.8","","-8.2","","66","","","","12","","4","","24.1","","99.99","","","","-4","","NA"
"-111.96","60.02","FORT SMITH A","2202201","2018-09-21 22:00","2018","09","21","22:00","-1.1","","-7.5","","62","","","","14","","9","","24.1","","99.98","","","","-4","","NA"
"-111.96","60.02","FORT SMITH A","2202201","2018-09-21 23:00","2018","09","21","23:00","-1.8","","-7.7","","64","","","","14","","11","","24.1","","99.96","","","","-6","","Clear"
"-111.96","60.02","FORT SMITH A","2202201","2018-09-22 00:00","2018","09","22","00:00","-2.7","","-7.6","","69","","","","15","","10","","24.1","","99.95","","","","-7","","NA"
"-111.96","60.02","FORT SMITH A","2202201","2018-09-22 01:00","2018","09","22","01:00","-3.2","","-7.3","","73","","","","15","","12","","24.1","","99.94","","","","-8","","NA"
"-111.96","60.02","FORT SMITH A","2202201","2018-09-22 02:00","2018","09","22","02:00","-3.5","","-7.3","","75","","","","15","","14","","24.1","","99.91","","","","-9","","Clear"
"-111.96","60.02","FORT SMITH A","2202201","2018-09-22 03:00","2018","09","22","03:00","-3.9","","-7.3","","78","","","","16","","13","","24.1","","99.89","","","","-9","","NA"
"-111.96","60.02","FORT SMITH A","2202201","2018-09-22 04:00","2018","09","22","04:00","-4.0","","-7.1","","79","","","","15","","15","","24.1","","99.87","","","","-9","","NA"
"-111.96","60.02","FORT SMITH A","2202201","2018-09-22 05:00","2018","09","22","05:00","-4.4","","-7.1","","82","","","","16","","14","","24.1","","99.85","","","","-10","","Clear"
"-111.96","60.02","FORT SMITH A","2202201","2018-09-22 06:00","2018","09","22","06:00","-5.4","","-7.5","","86","","","","16","","12","","24.1","","99.86","","","","-10","","NA"
"-111.96","60.02","FORT SMITH A","2202201","2018-09-22 07:00","2018","09","22","07:00","-5.5","","-7.3","","87","","","","16","","12","","24.1","","99.85","","","","-10","","NA"
"-111.96","60.02","FORT SMITH A","2202201","2018-09-22 08:00","2018","09","22","08:00","-3.0","","-6.5","","77","","","","16","","16","","24.1","","99.83","","","","-8","","Clear"
"-111.96","60.02","FORT SMITH A","2202201","2018-09-22 09:00","2018","09","22","09:00","-0.2","","-5.8","","66","","","","17","","14","","24.1","","99.80","","","","-4","","NA"
"-111.96","60.02","FORT SMITH A","2202201","2018-09-22 10:00","2018","09","22","10:00","3.2","","-6.3","","50","","","","17","","13","","24.1","","99.77","","","","","","NA"
"-111.96","60.02","FORT SMITH A","2202201","2018-09-22 11:00","2018","09","22","11:00","6.0","","-7.3","","38","","","","17","","21","","24.1","","99.72","","","","","","Clear"
"-111.96","60.02","FORT SMITH A","2202201","2018-09-22 12:00","2018","09","22","12:00","7.5","","-9.1","","30","","","","18","","21","","24.1","","99.65","","","","","","NA"
"-111.96","60.02","FORT SMITH A","2202201","2018-09-22 13:00","2018","09","22","13:00","8.8","","-9.7","","26","","","","17","","27","","24.1","","99.59","","","","","","NA"
"-111.96","60.02","FORT SMITH A","2202201","2018-09-22 14:00","2018","09","22","14:00","9.6","","-9.9","","24","","","","17","","22","","24.1","","99.52","","","","","","Clear"
"-111.96","60.02","FORT SMITH A","2202201","2018-09-22 15:00","2018","09","22","15:00","10.2","","-10.6","","22","","","","18","","15","","24.1","","99.45","","","","","","NA"
"-111.96","60.02","FORT SMITH A","2202201","2018-09-22 16:00","2018","09","22","16:00","10.5","","-11.2","","21","","","","17","","17","","24.1","","99.41","","","","","","NA"
"-111.96","60.02","FORT SMITH A","2202201","2018-09-22 17:00","2018","09","22","17:00","10.0","","-11.2","","21","","","","16","","14","","24.1","","99.36","","","","","","Clear"
"-111.96","60.02","FORT SMITH A","2202201","2018-09-22 18:00","2018","09","22","18:00","8.1","","-11.3","","24","","","","16","","13","","24.1","","99.32","","","","","","NA"
"-111.96","60.02","FORT SMITH A","2202201","2018-09-22 19:00","2018","09","22","19:00","5.5","","-11.6","","28","","","","15","","13","","24.1","","99.29","","","","","","NA"
"-111.96","60.02","FORT SMITH A","2202201","2018-09-22 20:00","2018","09","22","20:00","3.8","","-12.3","","30","","","","16","","14","","24.1","","99.25","","","","","","Clear"
"-111.96","60.02","FORT SMITH A","2202201","2018-09-22 21:00","2018","09","22","21:00","2.2","","-11.7","","35","","","","16","","12","","24.1","","99.21","","","","","","NA"
"-111.96","60.02","FORT SMITH A","2202201","2018-09-22 22:00","2018","09","22","22:00","1.9","","-11.1","","38","","","","15","","13","","24.1","","99.14","","","","","","NA"
"-111.96","60.02","FORT SMITH A","2202201","2018-09-22 23:00","2018","09","22","23:00","1.1","","-10.3","","42","","","","16","","16","","24.1","","99.10","","","","","","Clear"
"-111.96","60.02","FORT SMITH A","2202201","2018-09-23 00:00","2018","09","23","00:00","0.1","","-9.7","","48","","","","16","","16","","24.1","","99.07","","","","","","NA"
"-111.96","60.02","FORT SMITH A","2202201","2018-09-23 01:00","2018","09","23","01:00","-1.0","","-9.4","","53","","","","16","","16","","24.1","","99.02","","","","-6","","NA"
"-111.96","60.02","FORT SMITH A","2202201","2018-09-23 02:00","2018","09","23","02:00","-1.5","","-9.2","","56","","","","16","","15","","24.1","","98.97","","","","-6","","Clear"
"-111.96","60.02","FORT SMITH A","2202201","2018-09-23 03:00","2018","09","23","03:00","-1.4","","-8.8","","58","","","","16","","16","","24.1","","98.93","","","","-6","","NA"
"-111.96","60.02","FORT SMITH A","2202201","2018-09-23 04:00","2018","09","23","04:00","-1.7","","-8.4","","60","","","","16","","16","","24.1","","98.90","","","","-7","","NA"
"-111.96","60.02","FORT SMITH A","2202201","2018-09-23 05:00","2018","09","23","05:00","-1.8","","-7.9","","63","","","","16","","16","","24.1","","98.89","","","","-7","","Clear"
"-111.96","60.02","FORT SMITH A","2202201","2018-09-23 06:00","2018","09","23","06:00","-2.7","","-8.0","","67","","","","15","","15","","24.1","","98.85","","","","-8","","NA"
"-111.96","60.02","FORT SMITH A","2202201","2018-09-23 07:00","2018","09","23","07:00","-1.2","","-6.5","","67","","","","16","","21","","24.1","","98.78","","","","-7","","NA"
"-111.96","60.02","FORT SMITH A","2202201","2018-09-23 08:00","2018","09","23","08:00","0.9","","-5.2","","64","","","","16","","24","","24.1","","98.73","","","","","","Clear"
"-111.96","60.02","FORT SMITH A","2202201","2018-09-23 09:00","2018","09","23","09:00","3.2","","-4.5","","57","","","","17","","28","","24.1","","98.65","","","","","","NA"
"-111.96","60.02","FORT SMITH A","2202201","2018-09-23 10:00","2018","09","23","10:00","4.8","","-3.8","","54","","","","17","","30","","24.1","","98.59","","","","","","NA"
"-111.96","60.02","FORT SMITH A","2202201","2018-09-23 11:00","2018","09","23","11:00","6.1","","-3.3","","51","","","","19","","27","","24.1","","98.51","","","","","","Mainly Clear"
"-111.96","60.02","FORT SMITH A","2202201","2018-09-23 12:00","2018","09","23","12:00","7.5","","-3.6","","45","","","","15","","30","","24.1","","98.43","","","","","","NA"
"-111.96","60.02","FORT SMITH A","2202201","2018-09-23 13:00","2018","09","23","13:00","8.4","","-3.3","","43","","","","17","","24","","24.1","","98.35","","","","","","NA"
"-111.96","60.02","FORT SMITH A","2202201","2018-09-23 14:00","2018","09","23","14:00","8.4","","-3.5","","43","","","","19","","33","","24.1","","98.32","","","","","","Mainly Clear"
"-111.96","60.02","FORT SMITH A","2202201","2018-09-23 15:00","2018","09","23","15:00","7.8","","-3.1","","46","","","","17","","27","","24.1","","98.28","","","","","","NA"
"-111.96","60.02","FORT SMITH A","2202201","2018-09-23 16:00","2018","09","23","16:00","7.5","","-3.0","","47","","","","16","","28","","24.1","","98.26","","","","","","NA"
"-111.96","60.02","FORT SMITH A","2202201","2018-09-23 17:00","2018","09","23","17:00","6.3","","-2.9","","52","","","","16","","27","","24.1","","98.22","","","","","","Mainly Clear"
"-111.96","60.02","FORT SMITH A","2202201","2018-09-23 18:00","2018","09","23","18:00","4.5","","-3.1","","58","","","","15","","17","","24.1","","98.21","","","","","","NA"
"-111.96","60.02","FORT SMITH A","2202201","2018-09-23 19:00","2018","09","23","19:00","3.3","","-3.0","","63","","","","15","","14","","24.1","","98.22","","","","","","NA"
"-111.96","60.02","FORT SMITH A","2202201","2018-09-23 20:00","2018","09","23","20:00","2.8","","-2.7","","67","","","","14","","14","","24.1","","98.18","","","","","","Mostly Cloudy"
"-111.96","60.02","FORT SMITH A","2202201","2018-09-23 21:00","2018","09","23","21:00","3.5","","-1.6","","69","","","","16","","17","","19.3","","98.15","","","","","","Rain"
"-111.96","60.02","FORT SMITH A","2202201","2018-09-23 22:00","2018","09","23","22:00","3.1","","-0.8","","75","","","","16","","20","","24.1","","98.11","","","","","","Rain"
"-111.96","60.02","FORT SMITH A","2202201","2018-09-23 23:00","2018","09","23","23:00","3.1","","-0.6","","77","","","","15","","12","","24.1","","98.08","","","","","","Rain"
"-111.96","60.02","FORT SMITH A","2202201","2018-09-24 00:00","2018","09","24","00:00","2.9","","-0.6","","78","","","","15","","11","","24.1","","98.04","","","","","","Rain"
"-111.96","60.02","FORT SMITH A","2202201","2018-09-24 01:00","2018","09","24","01:00","2.5","","-0.7","","79","","","","14","","7","","24.1","","98.03","","","","","","NA"
"-111.96","60.02","FORT SMITH A","2202201","2018-09-24 02:00","2018","09","24","02:00","2.2","","-0.7","","81","","","","14","","7","","24.1","","98.05","","","","","","Cloudy"
"-111.96","60.02","FORT SMITH A","2202201","2018-09-24 03:00","2018","09","24","03:00","2.0","","-0.7","","82","","","","13","","7","","24.1","","98.08","","","","","","NA"
"-111.96","60.02","FORT SMITH A","2202201","2018-09-24 04:00","2018","09","24","04:00","1.7","","-0.7","","84","","","","36","","3","","24.1","","98.12","","","","","","NA"
"-111.96","60.02","FORT SMITH A","2202201","2018-09-24 05:00","2018","09","24","05:00","0.2","","-1.4","","89","","","","33","","3","","24.1","","98.20","","","","","","Mostly Cloudy"
"-111.96","60.02","FORT SMITH A","2202201","2018-09-24 06:00","2018","09","24","06:00","1.7","","-0.3","","86","","","","31","","9","","24.1","","98.24","","","","","","Rain"
"-111.96","60.02","FORT SMITH A","2202201","2018-09-24 07:00","2018","09","24","07:00","2.0","","-0.3","","85","","","","30","","10","","24.1","","98.31","","","","","","Rain"
"-111.96","60.02","FORT SMITH A","2202201","2018-09-24 08:00","2018","09","24","08:00","2.6","","0.3","","85","","","","31","","11","","24.1","","98.37","","","","","","Rain"
"-111.96","60.02","FORT SMITH A","2202201","2018-09-24 09:00","2018","09","24","09:00","3.4","","0.7","","83","","","","31","","6","","24.1","","98.41","","","","","","NA"
"-111.96","60.02","FORT SMITH A","2202201","2018-09-24 10:00","2018","09","24","10:00","6.1","","2.1","","76","","","","31","","9","","24.1","","98.42","","","","","","NA"
"-111.96","60.02","FORT SMITH A","2202201","2018-09-24 11:00","2018","09","24","11:00","7.4","","2.4","","71","","","","29","","12","","24.1","","98.47","","","","","","Mostly Cloudy"
"-111.96","60.02","FORT SMITH A","2202201","2018-09-24 12:00","2018","09","24","12:00","7.9","","2.5","","68","","","","34","","15","","24.1","","98.53","","","","","","NA"
"-111.96","60.02","FORT SMITH A","2202201","2018-09-24 13:00","2018","09","24","13:00","9.0","","1.8","","60","","","","30","","16","","24.1","","98.60","","","","","","NA"
"-111.96","60.02","FORT SMITH A","2202201","2018-09-24 14:00","2018","09","24","14:00","9.1","","1.9","","60","","","","29","","17","","24.1","","98.64","","","","","","Cloudy"
"-111.96","60.02","FORT SMITH A","2202201","2018-09-24 15:00","2018","09","24","15:00","8.5","","0.9","","59","","","","30","","22","","24.1","","98.71","","","","","","NA"
"-111.96","60.02","FORT SMITH A","2202201","2018-09-24 16:00","2018","09","24","16:00","8.5","","1.1","","60","","","","32","","15","","24.1","","98.78","","","","","","NA"
"-111.96","60.02","FORT SMITH A","2202201","2018-09-24 17:00","2018","09","24","17:00","7.7","","2.0","","67","","","","32","","12","","24.1","","98.86","","","","","","Rain Showers"
"-111.96","60.02","FORT SMITH A","2202201","2018-09-24 18:00","2018","09","24","18:00","7.1","","2.4","","72","","","","32","","14","","24.1","","98.94","","","","","","NA"
"-111.96","60.02","FORT SMITH A","2202201","2018-09-24 19:00","2018","09","24","19:00","6.7","","2.6","","75","","","","31","","9","","24.1","","98.99","","","","","","Rain Showers"
"-111.96","60.02","FORT SMITH A","2202201","2018-09-24 20:00","2018","09","24","20:00","6.1","","2.5","","78","","","","30","","10","","24.1","","99.02","","","","","","Mostly Cloudy"
"-111.96","60.02","FORT SMITH A","2202201","2018-09-24 21:00","2018","09","24","21:00","4.3","","2.0","","85","","","","30","","6","","24.1","","99.07","","","","","","Rain Showers"
"-111.96","60.02","FORT SMITH A","2202201","2018-09-24 22:00","2018","09","24","22:00","3.0","","1.3","","88","","","","31","","8","","24.1","","99.10","","","","","","NA"
"-111.96","60.02","FORT SMITH A","2202201","2018-09-24 23:00","2018","09","24","23:00","0.4","","-0.3","","95","","","","0","","1","","24.1","","99.11","","","","","","Clear"
"-111.96","60.02","FORT SMITH A","2202201","2018-09-25 00:00","2018","09","25","00:00","-2.0","","-2.6","","96","","","","15","","5","","24.1","","99.10","","","","-4","","NA"
"-111.96","60.02","FORT SMITH A","2202201","2018-09-25 01:00","2018","09","25","01:00","-2.4","","-2.7","","97","","","","36","","3","","9.7","","99.10","","","","-4","","Fog"
"-111.96","60.02","FORT SMITH A","2202201","2018-09-25 02:00","2018","09","25","02:00","-2.5","","-3.0","","97","","","","20","","5","","3.2","","99.10","","","","-4","","Fog"
"-111.96","60.02","FORT SMITH A","2202201","2018-09-25 03:00","2018","09","25","03:00","-1.7","","-2.1","","97","","","","20","","5","","3.2","","99.09","","","","-4","","Fog"
"-111.96","60.02","FORT SMITH A","2202201","2018-09-25 04:00","2018","09","25","04:00","-3.2","","-3.5","","98","","","","16","","4","","9.7","","99.08","","","","-5","","Fog"
"-111.96","60.02","FORT SMITH A","2202201","2018-09-25 05:00","2018","09","25","05:00","-3.3","","-3.6","","97","","","","16","","7","","24.1","","99.05","","","","-6","","Clear"
"-111.96","60.02","FORT SMITH A","2202201","2018-09-25 06:00","2018","09","25","06:00","-2.9","","-3.3","","97","","","","15","","9","","24.1","","98.99","","","","-6","","NA"
"-111.96","60.02","FORT SMITH A","2202201","2018-09-25 07:00","2018","09","25","07:00","-1.8","","-2.6","","95","","","","15","","13","","24.1","","98.95","","","","-6","","NA"
"-111.96","60.02","FORT SMITH A","2202201","2018-09-25 08:00","2018","09","25","08:00","1.0","","-0.1","","93","","","","16","","13","","24.1","","98.88","","","","","","Mostly Cloudy"
"-111.96","60.02","FORT SMITH A","2202201","2018-09-25 09:00","2018","09","25","09:00","2.5","","0.7","","88","","","","15","","15","","24.1","","98.78","","","","","","NA"
"-111.96","60.02","FORT SMITH A","2202201","2018-09-25 10:00","2018","09","25","10:00","6.3","","-0.1","","64","","","","16","","21","","24.1","","98.67","","","","","","NA"
"-111.96","60.02","FORT SMITH A","2202201","2018-09-25 11:00","2018","09","25","11:00","8.9","","-0.3","","53","","","","15","","22","","24.1","","98.56","","","","","","Mostly Cloudy"
"-111.96","60.02","FORT SMITH A","2202201","2018-09-25 12:00","2018","09","25","12:00","9.9","","-0.2","","49","","","","16","","21","","24.1","","98.48","","","","","","NA"
"-111.96","60.02","FORT SMITH A","2202201","2018-09-25 13:00","2018","09","25","13:00","12.2","","-0.8","","41","","","","17","","21","","24.1","","98.38","","","","","","NA"
"-111.96","60.02","FORT SMITH A","2202201","2018-09-25 14:00","2018","09","25","14:00","11.9","","-0.6","","42","","","","16","","25","","24.1","","98.30","","","","","","Mostly Cloudy"
"-111.96","60.02","FORT SMITH A","2202201","2018-09-25 15:00","2018","09","25","15:00","11.7","","-0.2","","44","","","","15","","21","","24.1","","98.22","","","","","","NA"
"-111.96","60.02","FORT SMITH A","2202201","2018-09-25 16:00","2018","09","25","16:00","10.3","","0.5","","51","","","","19","","15","","24.1","","98.21","","","","","","NA"
"-111.96","60.02","FORT SMITH A","2202201","2018-09-25 17:00","2018","09","25","17:00","7.4","","4.2","","80","","","","16","","15","","16.1","","98.21","","","","","","Rain"
"-111.96","60.02","FORT SMITH A","2202201","2018-09-25 18:00","2018","09","25","18:00","6.5","","5.1","","91","","","","5","","7","","19.3","","98.21","","","","","","Rain"
"-111.96","60.02","FORT SMITH A","2202201","2018-09-25 19:00","2018","09","25","19:00","6.2","","5.4","","95","","","","10","","3","","24.1","","98.18","","","","","","Rain"
"-111.96","60.02","FORT SMITH A","2202201","2018-09-25 20:00","2018","09","25","20:00","5.7","","5.2","","97","","","","36","","3","","19.3","","98.19","","","","","","Rain"
"-111.96","60.02","FORT SMITH A","2202201","2018-09-25 21:00","2018","09","25","21:00","5.1","","4.8","","98","","","","25","","5","","24.1","","98.19","","","","","","Rain"
"-111.96","60.02","FORT SMITH A","2202201","2018-09-25 22:00","2018","09","25","22:00","5.3","","4.9","","97","","","","7","","5","","19.3","","98.23","","","","","","Rain"
"-111.96","60.02","FORT SMITH A","2202201","2018-09-25 23:00","2018","09","25","23:00","4.5","","4.3","","98","","","","36","","1","","24.1","","98.27","","","","","","Cloudy"
"-111.96","60.02","FORT SMITH A","2202201","2018-09-26 00:00","2018","09","26","00:00","4.3","","4.0","","98","","","","28","","6","","24.1","","98.31","","","","","","NA"
"-111.96","60.02","FORT SMITH A","2202201","2018-09-26 01:00","2018","09","26","01:00","4.2","","2.8","","91","","","","31","","10","","24.1","","98.36","","","","","","NA"
"-111.96","60.02","FORT SMITH A","2202201","2018-09-26 02:00","2018","09","26","02:00","3.6","","2.5","","93","","","","30","","13","","24.1","","98.43","","","","","","Mostly Cloudy"
"-111.96","60.02","FORT SMITH A","2202201","2018-09-26 03:00","2018","09","26","03:00","4.3","","3.7","","96","","","","30","","12","","24.1","","98.49","","","","","","NA"
"-111.96","60.02","FORT SMITH A","2202201","2018-09-26 04:00","2018","09","26","04:00","3.9","","3.4","","97","","","","29","","8","","24.1","","98.51","","","","","","NA"
"-111.96","60.02","FORT SMITH A","2202201","2018-09-26 05:00","2018","09","26","05:00","4.6","","3.8","","95","","","","30","","15","","19.3","","98.58","","","","","","Cloudy"
"-111.96","60.02","FORT SMITH A","2202201","2018-09-26 06:00","2018","09","26","06:00","4.6","","3.8","","95","","","","30","","12","","24.1","","98.65","","","","","","Rain"
"-111.96","60.02","FORT SMITH A","2202201","2018-09-26 07:00","2018","09","26","07:00","4.8","","3.6","","92","","","","31","","12","","24.1","","98.70","","","","","","Rain"
"-111.96","60.02","FORT SMITH A","2202201","2018-09-26 08:00","2018","09","26","08:00","4.5","","3.4","","93","","","","31","","9","","16.1","","98.73","","","","","","Rain"
"-111.96","60.02","FORT SMITH A","2202201","2018-09-26 09:00","2018","09","26","09:00","3.6","","2.7","","94","","","","30","","20","","12.9","","98.81","","","","","","Rain"
"-111.96","60.02","FORT SMITH A","2202201","2018-09-26 10:00","2018","09","26","10:00","3.7","","2.8","","94","","","","31","","13","","19.3","","98.88","","","","","","Rain"
"-111.96","60.02","FORT SMITH A","2202201","2018-09-26 11:00","2018","09","26","11:00","3.4","","2.5","","94","","","","34","","13","","24.1","","98.99","","","","","","Rain"
"-111.96","60.02","FORT SMITH A","2202201","2018-09-26 12:00","2018","09","26","12:00","3.6","","2.4","","92","","","","32","","14","","24.1","","99.07","","","","","","Rain"
"-111.96","60.02","FORT SMITH A","2202201","2018-09-26 13:00","2018","09","26","13:00","2.7","","1.3","","91","","","","32","","13","","24.1","","99.13","","","","","","Rain Showers"
"-111.96","60.02","FORT SMITH A","2202201","2018-09-26 14:00","2018","09","26","14:00","3.6","","2.0","","89","","","","33","","16","","19.3","","99.20","","","","","","Rain Showers"
"-111.96","60.02","FORT SMITH A","2202201","2018-09-26 15:00","2018","09","26","15:00","3.0","","0.7","","85","","","","33","","26","","24.1","","99.28","","","","","","NA"
"-111.96","60.02","FORT SMITH A","2202201","2018-09-26 16:00","2018","09","26","16:00","3.0","","-0.3","","79","","","","33","","24","","24.1","","99.42","","","","","","Rain Showers"
"-111.96","60.02","FORT SMITH A","2202201","2018-09-26 17:00","2018","09","26","17:00","1.5","","-1.6","","80","","","","32","","22","","24.1","","99.53","","","","","","Rain Showers"
"-111.96","60.02","FORT SMITH A","2202201","2018-09-26 18:00","2018","09","26","18:00","0.9","","-4.3","","68","","","","31","","19","","24.1","","99.63","","","","","","Rain Showers"
"-111.96","60.02","FORT SMITH A","2202201","2018-09-26 19:00","2018","09","26","19:00","0.5","","-4.8","","68","","","","32","","14","","24.1","","99.71","","","","","","NA"
"-111.96","60.02","FORT SMITH A","2202201","2018-09-26 20:00","2018","09","26","20:00","0.2","","-6.5","","61","","","","32","","14","","24.1","","99.77","","","","","","Snow"
"-111.96","60.02","FORT SMITH A","2202201","2018-09-26 21:00","2018","09","26","21:00","-0.3","","-7.3","","59","","","","33","","9","","24.1","","99.78","","","","-3","","NA"
"-111.96","60.02","FORT SMITH A","2202201","2018-09-26 22:00","2018","09","26","22:00","-0.4","","-7.2","","60","","","","30","","10","","24.1","","99.82","","","","-4","","Snow"
"-111.96","60.02","FORT SMITH A","2202201","2018-09-26 23:00","2018","09","26","23:00","-0.6","","-6.5","","64","","","","30","","10","","24.1","","99.86","","","","-4","","Snow"
"-111.96","60.02","FORT SMITH A","2202201","2018-09-27 00:00","2018","09","27","00:00","-0.8","","-5.8","","69","","","","32","","7","","24.1","","99.89","","","","-3","","Snow"
"-111.96","60.02","FORT SMITH A","2202201","2018-09-27 01:00","2018","09","27","01:00","-1.5","","-4.4","","80","","","","34","","12","","19.3","","99.94","","","","-6","","Snow"
"-111.96","60.02","FORT SMITH A","2202201","2018-09-27 02:00","2018","09","27","02:00","-1.7","","-4.1","","84","","","","31","","12","","19.3","","99.99","","","","-6","","Snow"
"-111.96","60.02","FORT SMITH A","2202201","2018-09-27 03:00","2018","09","27","03:00","-1.7","","-4.1","","84","","","","30","","14","","24.1","","100.03","","","","-6","","Snow"
"-111.96","60.02","FORT SMITH A","2202201","2018-09-27 04:00","2018","09","27","04:00","-2.0","","-3.8","","87","","","","29","","8","","24.1","","100.03","","","","-5","","Snow"
"-111.96","60.02","FORT SMITH A","2202201","2018-09-27 05:00","2018","09","27","05:00","-1.9","","-3.3","","90","","","","29","","11","","24.1","","100.08","","","","-6","","Snow"
"-111.96","60.02","FORT SMITH A","2202201","2018-09-27 06:00","2018","09","27","06:00","-1.8","","-4.6","","81","","","","31","","11","","24.1","","100.11","","","","-6","","Snow"
"-111.96","60.02","FORT SMITH A","2202201","2018-09-27 07:00","2018","09","27","07:00","-2.2","","-5.1","","80","","","","31","","9","","19.3","","100.13","","","","-6","","Snow Showers"
"-111.96","60.02","FORT SMITH A","2202201","2018-09-27 08:00","2018","09","27","08:00","-2.5","","-5.2","","82","","","","32","","10","","19.3","","100.16","","","","-6","","Snow Showers"
"-111.96","60.02","FORT SMITH A","2202201","2018-09-27 09:00","2018","09","27","09:00","-2.2","","-4.8","","82","","","","33","","11","","19.3","","100.21","","","","-6","","Snow Showers"
"-111.96","60.02","FORT SMITH A","2202201","2018-09-27 10:00","2018","09","27","10:00","-1.4","","-6.2","","70","","","","32","","9","","24.1","","100.24","","","","-5","","Snow Showers"
"-111.96","60.02","FORT SMITH A","2202201","2018-09-27 11:00","2018","09","27","11:00","-1.7","","-6.2","","72","","","","33","","17","","24.1","","100.25","","","","-7","","Snow Showers"
"-111.96","60.02","FORT SMITH A","2202201","2018-09-27 12:00","2018","09","27","12:00","-1.3","","-7.3","","64","","","","31","","16","","24.1","","100.25","","","","-6","","Snow Showers"
"-111.96","60.02","FORT SMITH A","2202201","2018-09-27 13:00","2018","09","27","13:00","-1.1","","-7.1","","64","","","","30","","25","","24.1","","100.23","","","","-7","","Snow"
"-111.96","60.02","FORT SMITH A","2202201","2018-09-27 14:00","2018","09","27","14:00","-0.2","","-8.5","","54","","","","33","","18","","24.1","","100.22","","","","-5","","Snow"
"-111.96","60.02","FORT SMITH A","2202201","2018-09-27 15:00","2018","09","27","15:00","-0.9","","-8.9","","55","","","","30","","20","","24.1","","100.22","","","","-6","","NA"
"-111.96","60.02","FORT SMITH A","2202201","2018-09-27 16:00","2018","09","27","16:00","-1.0","","-8.5","","57","","","","30","","22","","24.1","","100.20","","","","-7","","NA"
"-111.96","60.02","FORT SMITH A","2202201","2018-09-27 17:00","2018","09","27","17:00","-1.1","","-8.3","","58","","","","28","","14","","24.1","","100.16","","","","-6","","Cloudy"
"-111.96","60.02","FORT SMITH A","2202201","2018-09-27 18:00","2018","09","27","18:00","-1.4","","-6.9","","66","","","","28","","22","","24.1","","100.13","","","","-7","","Snow"
"-111.96","60.02","FORT SMITH A","2202201","2018-09-27 19:00","2018","09","27","19:00","-1.6","","-6.0","","72","","","","26","","14","","19.3","","100.06","","","","-6","","Snow"
"-111.96","60.02","FORT SMITH A","2202201","2018-09-27 20:00","2018","09","27","20:00","-1.7","","-6.4","","70","","","","22","","11","","24.1","","99.98","","","","-6","","Snow"
"-111.96","60.02","FORT SMITH A","2202201","2018-09-27 21:00","2018","09","27","21:00","-1.5","","-6.6","","68","","","","23","","11","","24.1","","99.91","","","","-5","","Snow"
"-111.96","60.02","FORT SMITH A","2202201","2018-09-27 22:00","2018","09","27","22:00","-0.7","","-6.5","","65","","","","24","","13","","24.1","","99.83","","","","-5","","Snow"
"-111.96","60.02","FORT SMITH A","2202201","2018-09-27 23:00","2018","09","27","23:00","-0.5","","-6.5","","64","","","","24","","10","","24.1","","99.79","","","","-4","","Snow"
"-111.96","60.02","FORT SMITH A","2202201","2018-09-28 00:00","2018","09","28","00:00","-0.3","","-5.8","","66","","","","25","","8","","24.1","","99.75","","","","-3","","Snow"
"-111.96","60.02","FORT SMITH A","2202201","2018-09-28 01:00","2018","09","28","01:00","0.6","","-4.8","","67","","","","29","","12","","24.1","","99.73","","","","","","NA"
"-111.96","60.02","FORT SMITH A","2202201","2018-09-28 02:00","2018","09","28","02:00","0.9","","-4.2","","69","","","","27","","12","","24.1","","99.71","","","","","","Mostly Cloudy"
"-111.96","60.02","FORT SMITH A","2202201","2018-09-28 03:00","2018","09","28","03:00","1.4","","-4.4","","65","","","","28","","17","","24.1","","99.67","","","","","","Snow"
"-111.96","60.02","FORT SMITH A","2202201","2018-09-28 04:00","2018","09","28","04:00","1.1","","-4.5","","67","","","","28","","13","","24.1","","99.64","","","","","","Snow"
"-111.96","60.02","FORT SMITH A","2202201","2018-09-28 05:00","2018","09","28","05:00","0.7","","-4.6","","68","","","","26","","11","","24.1","","99.60","","","","","","Cloudy"
"-111.96","60.02","FORT SMITH A","2202201","2018-09-28 06:00","2018","09","28","06:00","0.8","","-4.7","","67","","","","26","","14","","24.1","","99.56","","","","","","NA"
"-111.96","60.02","FORT SMITH A","2202201","2018-09-28 07:00","2018","09","28","07:00","1.1","","-5.0","","64","","","","28","","21","","24.1","","99.51","","","","","","NA"
"-111.96","60.02","FORT SMITH A","2202201","2018-09-28 08:00","2018","09","28","08:00","1.0","","-4.6","","66","","","","28","","18","","24.1","","99.51","","","","","","Mostly Cloudy"
"-111.96","60.02","FORT SMITH A","2202201","2018-09-28 09:00","2018","09","28","09:00","1.8","","-3.2","","69","","","","28","","21","","24.1","","99.48","","","","","","NA"
"-111.96","60.02","FORT SMITH A","2202201","2018-09-28 10:00","2018","09","28","10:00","2.3","","-3.2","","67","","","","30","","19","","24.1","","99.48","","","","","","NA"
"-111.96","60.02","FORT SMITH A","2202201","2018-09-28 11:00","2018","09","28","11:00","1.8","","-1.2","","80","","","","28","","25","","24.1","","99.47","","","","","","Snow Showers"
"-111.96","60.02","FORT SMITH A","2202201","2018-09-28 12:00","2018","09","28","12:00","2.0","","-0.5","","84","","","","29","","17","","24.1","","99.48","","","","","","Snow Showers"
"-111.96","60.02","FORT SMITH A","2202201","2018-09-28 13:00","2018","09","28","13:00","3.2","","-1.5","","71","","","","29","","26","","24.1","","99.46","","","","","","NA"
"-111.96","60.02","FORT SMITH A","2202201","2018-09-28 14:00","2018","09","28","14:00","2.8","","-1.9","","71","","","","30","","22","","24.1","","99.47","","","","","","Mostly Cloudy"
"-111.96","60.02","FORT SMITH A","2202201","2018-09-28 15:00","2018","09","28","15:00","2.6","","-2.3","","70","","","","31","","26","","24.1","","99.47","","","","","","Snow Showers"
"-111.96","60.02","FORT SMITH A","2202201","2018-09-28 16:00","2018","09","28","16:00","1.2","","-1.3","","83","","","","30","","22","","24.1","","99.49","","","","","","Snow Showers"
"-111.96","60.02","FORT SMITH A","2202201","2018-09-28 17:00","2018","09","28","17:00","0.4","","-0.5","","94","","","","30","","19","","24.1","","99.50","","","","","","Snow Showers"
"-111.96","60.02","FORT SMITH A","2202201","2018-09-28 18:00","2018","09","28","18:00","0.5","","-0.6","","93","","","","31","","16","","1.6","","99.50","","","","","","Snow Showers"
"-111.96","60.02","FORT SMITH A","2202201","2018-09-28 19:00","2018","09","28","19:00","0.0","","-0.9","","94","","","","31","","17","","4.8","","99.53","","","","-5","","Snow"
"-111.96","60.02","FORT SMITH A","2202201","2018-09-28 20:00","2018","09","28","20:00","-0.1","","-1.0","","94","","","","31","","16","","9.7","","99.56","","","","-5","","Snow"
"-111.96","60.02","FORT SMITH A","2202201","2018-09-28 21:00","2018","09","28","21:00","-0.2","","-1.0","","95","","","","31","","14","","19.3","","99.61","","","","-4","","Snow"
"-111.96","60.02","FORT SMITH A","2202201","2018-09-28 22:00","2018","09","28","22:00","-0.5","","-1.7","","92","","","","32","","14","","19.3","","99.63","","","","-5","","Snow"
"-111.96","60.02","FORT SMITH A","2202201","2018-09-28 23:00","2018","09","28","23:00","-0.5","","-1.6","","92","","","","31","","14","","19.3","","99.70","","","","-5","","Snow"
"-111.96","60.02","FORT SMITH A","2202201","2018-09-29 00:00","2018","09","29","00:00","-1.2","","-2.3","","92","","","","31","","15","","19.3","","99.76","","","","-6","","Snow"
"-111.96","60.02","FORT SMITH A","2202201","2018-09-29 01:00","2018","09","29","01:00","-1.7","","-3.1","","90","","","","32","","13","","24.1","","99.82","","","","-6","","NA"
"-111.96","60.02","FORT SMITH A","2202201","2018-09-29 02:00","2018","09","29","02:00","-2.2","","-3.8","","89","","","","32","","13","","24.1","","99.86","","","","-7","","Mostly Cloudy"
"-111.96","60.02","FORT SMITH A","2202201","2018-09-29 03:00","2018","09","29","03:00","-2.5","","-4.2","","89","","","","31","","14","","24.1","","99.90","","","","-7","","NA"
"-111.96","60.02","FORT SMITH A","2202201","2018-09-29 04:00","2018","09","29","04:00","-2.7","","-4.3","","89","","","","30","","13","","24.1","","99.93","","","","-7","","NA"
"-111.96","60.02","FORT SMITH A","2202201","2018-09-29 05:00","2018","09","29","05:00","-2.4","","-4.0","","89","","","","31","","16","","24.1","","99.97","","","","-8","","Mostly Cloudy"
"-111.96","60.02","FORT SMITH A","2202201","2018-09-29 06:00","2018","09","29","06:00","-2.5","","-4.0","","89","","","","32","","12","","24.1","","100.03","","","","-7","","Snow"
"-111.96","60.02","FORT SMITH A","2202201","2018-09-29 07:00","2018","09","29","07:00","-2.4","","-4.5","","86","","","","32","","15","","24.1","","100.07","","","","-7","","Snow"
"-111.96","60.02","FORT SMITH A","2202201","2018-09-29 08:00","2018","09","29","08:00","-2.4","","-4.9","","83","","","","33","","17","","24.1","","100.11","","","","-8","","Snow"
"-111.96","60.02","FORT SMITH A","2202201","2018-09-29 09:00","2018","09","29","09:00","-2.2","","-5.1","","81","","","","33","","13","","24.1","","100.19","","","","-7","","Snow"
"-111.96","60.02","FORT SMITH A","2202201","2018-09-29 10:00","2018","09","29","10:00","-1.8","","-5.4","","76","","","","31","","14","","24.1","","100.23","","","","-6","","Snow"
"-111.96","60.02","FORT SMITH A","2202201","2018-09-29 11:00","2018","09","29","11:00","-1.4","","-5.7","","72","","","","34","","15","","24.1","","100.27","","","","-6","","Mostly Cloudy"
"-111.96","60.02","FORT SMITH A","2202201","2018-09-29 12:00","2018","09","29","12:00","-0.9","","-5.5","","71","","","","33","","14","","24.1","","100.32","","","","-5","","Snow"
"-111.96","60.02","FORT SMITH A","2202201","2018-09-29 13:00","2018","09","29","13:00","-1.0","","-7.7","","60","","","","31","","23","","24.1","","100.35","","","","-7","","Snow"
"-111.96","60.02","FORT SMITH A","2202201","2018-09-29 14:00","2018","09","29","14:00","-0.2","","-6.1","","64","","","","33","","12","","24.1","","100.34","","","","-4","","Mostly Cloudy"
"-111.96","60.02","FORT SMITH A","2202201","2018-09-29 15:00","2018","09","29","15:00","-0.1","","-7.0","","60","","","","33","","14","","24.1","","100.34","","","","-4","","NA"
"-111.96","60.02","FORT SMITH A","2202201","2018-09-29 16:00","2018","09","29","16:00","0.6","","-7.0","","57","","","","34","","15","","24.1","","100.34","","","","","","NA"
"-111.96","60.02","FORT SMITH A","2202201","2018-09-29 17:00","2018","09","29","17:00","0.1","","-6.7","","60","","","","35","","13","","24.1","","100.36","","","","","","Mostly Cloudy"
"-111.96","60.02","FORT SMITH A","2202201","2018-09-29 18:00","2018","09","29","18:00","-0.2","","-6.2","","64","","","","35","","8","","24.1","","100.34","","","","-3","","NA"
"-111.96","60.02","FORT SMITH A","2202201","2018-09-29 19:00","2018","09","29","19:00","-0.7","","-4.9","","73","","","","25","","8","","24.1","","100.33","","","","-4","","Snow"
"-111.96","60.02","FORT SMITH A","2202201","2018-09-29 20:00","2018","09","29","20:00","-1.3","","-2.5","","92","","","","28","","4","","24.1","","100.30","","","","-3","","Mostly Cloudy"
"-111.96","60.02","FORT SMITH A","2202201","2018-09-29 21:00","2018","09","29","21:00","-0.7","","-2.0","","91","","","","28","","10","","24.1","","100.27","","","","-4","","NA"
"-111.96","60.02","FORT SMITH A","2202201","2018-09-29 22:00","2018","09","29","22:00","-0.6","","-1.6","","93","","","","28","","13","","24.1","","100.25","","","","-5","","NA"
"-111.96","60.02","FORT SMITH A","2202201","2018-09-29 23:00","2018","09","29","23:00","-0.6","","-1.8","","92","","","","28","","13","","24.1","","100.21","","","","-5","","Mostly Cloudy"
"-111.96","60.02","FORT SMITH A","2202201","2018-09-30 00:00","2018","09","30","00:00","-1.5","","-2.5","","93","","","","22","","10","","24.1","","100.18","","","","-5","","NA"
"-111.96","60.02","FORT SMITH A","2202201","2018-09-30 01:00","2018","09","30","01:00","-1.6","","-2.7","","92","","","","22","","11","","24.1","","100.14","","","","-5","","NA"
"-111.96","60.02","FORT SMITH A","2202201","2018-09-30 02:00","2018","09","30","02:00","-1.2","","-2.9","","88","","","","23","","9","","24.1","","100.11","","","","-4","","Mostly Cloudy"
"-111.96","60.02","FORT SMITH A","2202201","2018-09-30 03:00","2018","09","30","03:00","-1.1","","-3.2","","86","","","","25","","8","","24.1","","100.06","","","","-4","","NA"
"-111.96","60.02","FORT SMITH A","2202201","2018-09-30 04:00","2018","09","30","04:00","-1.1","","-3.4","","85","","","","22","","13","","24.1","","99.99","","","","-5","","NA"
"-111.96","60.02","FORT SMITH A","2202201","2018-09-30 05:00","2018","09","30","05:00","-1.0","","-3.7","","82","","","","24","","10","","24.1","","99.95","","","","-5","","Mostly Cloudy"
"-111.96","60.02","FORT SMITH A","2202201","2018-09-30 06:00","2018","09","30","06:00","-1.0","","-3.5","","84","","","","24","","9","","24.1","","99.90","","","","-4","","NA"
"-111.96","60.02","FORT SMITH A","2202201","2018-09-30 07:00","2018","09","30","07:00","-0.9","","-3.3","","83","","","","27","","11","","24.1","","99.89","","","","-5","","Snow"
"-111.96","60.02","FORT SMITH A","2202201","2018-09-30 08:00","2018","09","30","08:00","-0.6","","-3.6","","80","","","","26","","15","","24.1","","99.87","","","","-5","","Cloudy"
"-111.96","60.02","FORT SMITH A","2202201","2018-09-30 09:00","2018","09","30","09:00","-0.2","","-3.5","","79","","","","26","","13","","24.1","","99.83","","","","-4","","NA"
"-111.96","60.02","FORT SMITH A","2202201","2018-09-30 10:00","2018","09","30","10:00","0.3","","-3.5","","75","","","","29","","16","","24.1","","99.78","","","","","","NA"
"-111.96","60.02","FORT SMITH A","2202201","2018-09-30 11:00","2018","09","30","11:00","0.9","","-3.4","","73","","","","28","","13","","24.1","","99.73","","","","","","Cloudy"
"-111.96","60.02","FORT SMITH A","2202201","2018-09-30 12:00","2018","09","30","12:00","1.4","","-3.8","","68","","","","27","","13","","24.1","","99.69","","","","","","NA"
"-111.96","60.02","FORT SMITH A","2202201","2018-09-30 13:00","2018","09","30","13:00","1.2","","-3.9","","69","","","","26","","16","","24.1","","99.64","","","","","","NA"
"-111.96","60.02","FORT SMITH A","2202201","2018-09-30 14:00","2018","09","30","14:00","0.8","","-3.3","","74","","","","30","","14","","24.1","","99.60","","","","","","Rain Showers"
"-111.96","60.02","FORT SMITH A","2202201","2018-09-30 15:00","2018","09","30","15:00","1.1","","-4.6","","66","","","","27","","16","","24.1","","99.56","","","","","","NA"
"-111.96","60.02","FORT SMITH A","2202201","2018-09-30 16:00","2018","09","30","16:00","0.8","","-4.4","","69","","","","28","","14","","24.1","","99.52","","","","","","NA"
"-111.96","60.02","FORT SMITH A","2202201","2018-09-30 17:00","2018","09","30","17:00","0.5","","-4.7","","68","","","","29","","13","","24.1","","99.46","","","","","","Cloudy"
"-111.96","60.02","FORT SMITH A","2202201","2018-09-30 18:00","2018","09","30","18:00","0.3","","-4.4","","71","","","","30","","7","","24.1","","99.41","","","","","","NA"
"-111.96","60.02","FORT SMITH A","2202201","2018-09-30 19:00","2018","09","30","19:00","0.0","","-4.7","","71","","","","30","","8","","24.1","","99.37","","","","-3","","NA"
"-111.96","60.02","FORT SMITH A","2202201","2018-09-30 20:00","2018","09","30","20:00","-0.5","","-4.3","","76","","","","30","","5","","24.1","","99.32","","","","-2","","Cloudy"
"-111.96","60.02","FORT SMITH A","2202201","2018-09-30 21:00","2018","09","30","21:00","-0.6","","-4.4","","75","","","","36","","3","","24.1","","99.28","","","","-2","","NA"
"-111.96","60.02","FORT SMITH A","2202201","2018-09-30 22:00","2018","09","30","22:00","-0.9","","-4.5","","77","","","","22","","7","","24.1","","99.23","","","","-3","","NA"
"-111.96","60.02","FORT SMITH A","2202201","2018-09-30 23:00","2018","09","30","23:00","-1.2","","-4.2","","80","","","","24","","5","","24.1","","99.20","","","","-3","","Cloudy"
