"Longitude (x)","Latitude (y)","Station Name","Climate ID","Date/Time (LST)","Year","Month","Day","Time (LST)","Temp (°C)","Temp Flag","Dew Point Temp (°C)","Dew Point Temp Flag","Rel Hum (%)","Rel Hum Flag","Precip. Amount (mm)","Precip. Amount Flag","Wind Dir (10s deg)","Wind Dir Flag","Wind Spd (km/h)","Wind Spd Flag","Visibility (km)","Visibility Flag","Stn Press (kPa)","Stn Press Flag","Hmdx","Hmdx Flag","Wind Chill","Wind Chill Flag","Weather"
"-65.89","45.32","SAINT JOHN A","8104901","2019-08-01 00:00","2019","08","01","00:00","16.5","","16.5","","100","","","","9","","4","","0.6","","100.21","","","","","","Fog"
"-65.89","45.32","SAINT JOHN A","8104901","2019-08-01 01:00","2019","08","01","01:00","16.7","","16.7","","100","","","","6","","9","","4.8","","100.14","","","","","","Fog"
"-65.89","45.32","SAINT JOHN A","8104901","2019-08-01 02:00","2019","08","01","02:00","17.2","","17.2","","100","","","","17","","5","","4.8","","100.10","","","","","","Fog"
"-65.89","45.32","SAINT JOHN A","8104901","2019-08-01 03:00","2019","08","01","03:00","16.5","","16.5","","100","","","","19","","11","","0.4","","100.13","","","","","","Fog"
"-65.89","45.32","SAINT JOHN A","8104901","2019-08-01 04:00","2019","08","01","04:00","16.3","","16.3","","100","","","","26","","9","","0.8","","100.18","","","","","","Fog"
"-65.89","45.32","SAINT JOHN A","8104901","2019-08-01 05:00","2019","08","01","05:00","15.9","","15.9","","100","","","","1","","3","","3.2","","100.17","","","","","","Fog"
"-65.89","45.32","SAINT JOHN A","8104901","2019-08-01 06:00","2019","08","01","06:00","16.3","","16.3","","100","","","","36","","2","","4.0","","100.24","","","","","","Fog"
"-65.89","45.32","SAINT JOHN A","8104901","2019-08-01 07:00","2019","08","01","07:00","17.0","","17.0","","100","","","","36","","2","","4.8","","100.24","","","","","","Fog"
"-65.89","45.32","SAINT JOHN A","8104901","2019-08-01 08:00","2019","08","01","08:00","19.2","","18.6","","96","","","","29","","5","","6.4","","100.26","","","","","","Fog"
"-65.89","45.32","SAINT JOHN A","8104901","2019-08-01 09:00","2019","08","01","09:00","21.3","","18.9","","86","","","","30","","8","","12.9","","100.27","","28","","","","NA"
"-65.89","45.32","SAINT JOHN A","8104901","2019-08-01 10:00","2019","08","01","10:00","23.5","","18.4","","73","","","","34","","14","","24.1","","100.28","","30","","","","NA"
"-65.89","45.32","SAINT JOHN A","8104901","2019-08-01 11:00","2019","08","01","11:00","24.1","","17.7","","67","","","","31","","12","","24.1","","100.30","","30","","","","Cloudy"
"-65.89","45.32","SAINT JOHN A","8104901","2019-08-01 12:00","2019","08","01","12:00","25.5","","17.7","","61","","","","32","","11","","24.1","","100.29","","31","","","","NA"
"-65.89","45.32","SAINT JOHN A","8104901","2019-08-01 13:00","2019","08","01","13:00","26.8","","17.5","","56","","","","29","","12","","24.1","","100.27","","32","","","","NA"
"-65.89","45.32","SAINT JOHN A","8104901","2019-08-01 14:00","2019","08","01","14:00","27.4","","15.1","","46","","","","36","","12","","24.1","","100.25","","31","","","","Mostly Cloudy"
"-65.89","45.32","SAINT JOHN A","8104901","2019-08-01 15:00","2019","08","01","15:00","26.6","","16.9","","54","","","","32","","15","","24.1","","100.22","","32","","","","NA"
"-65.89","45.32","SAINT JOHN A","8104901","2019-08-01 16:00","2019","08","01","16:00","26.5","","18.0","","59","","","","27","","12","","24.1","","100.21","","33","","","","NA"
"-65.89","45.32","SAINT JOHN A","8104901","2019-08-01 17:00","2019","08","01","17:00","25.8","","16.9","","57","","","","34","","13","","24.1","","100.21","","31","","","","Mostly Cloudy"
"-65.89","45.32","SAINT JOHN A","8104901","2019-08-01 18:00","2019","08","01","18:00","24.9","","18.3","","67","","","","29","","7","","24.1","","100.23","","31","","","","NA"
"-65.89","45.32","SAINT JOHN A","8104901","2019-08-01 19:00","2019","08","01","19:00","25.0","","15.2","","54","","","","32","","21","","24.1","","100.26","","29","","","","NA"
"-65.89","45.32","SAINT JOHN A","8104901","2019-08-01 20:00","2019","08","01","20:00","21.3","","15.2","","68","","","","31","","7","","24.1","","100.30","","25","","","","Mainly Clear"
"-65.89","45.32","SAINT JOHN A","8104901","2019-08-01 21:00","2019","08","01","21:00","18.2","","15.3","","83","","","","36","","2","","24.1","","100.37","","","","","","NA"
"-65.89","45.32","SAINT JOHN A","8104901","2019-08-01 22:00","2019","08","01","22:00","14.8","","14.1","","95","","","","","","0","","24.1","","100.37","","","","","","NA"
"-65.89","45.32","SAINT JOHN A","8104901","2019-08-01 23:00","2019","08","01","23:00","15.3","","13.9","","91","","","","36","","2","","24.1","","100.41","","","","","","Clear"
"-65.89","45.32","SAINT JOHN A","8104901","2019-08-02 00:00","2019","08","02","00:00","12.5","","12.3","","99","","","","36","","1","","24.1","","100.41","","","","","","NA"
"-65.89","45.32","SAINT JOHN A","8104901","2019-08-02 01:00","2019","08","02","01:00","11.4","","11.3","","100","","","","36","","2","","24.1","","100.40","","","","","","NA"
"-65.89","45.32","SAINT JOHN A","8104901","2019-08-02 02:00","2019","08","02","02:00","10.6","","10.6","","100","","","","36","","1","","24.1","","100.41","","","","","","Clear"
"-65.89","45.32","SAINT JOHN A","8104901","2019-08-02 03:00","2019","08","02","03:00","10.4","","10.4","","100","","","","36","","3","","24.1","","100.40","","","","","","NA"
"-65.89","45.32","SAINT JOHN A","8104901","2019-08-02 04:00","2019","08","02","04:00","9.2","","9.2","","100","","","","36","","1","","24.1","","100.39","","","","","","NA"
"-65.89","45.32","SAINT JOHN A","8104901","2019-08-02 05:00","2019","08","02","05:00","9.1","","9.1","","100","","","","36","","1","","24.1","","100.43","","","","","","Mainly Clear"
"-65.89","45.32","SAINT JOHN A","8104901","2019-08-02 06:00","2019","08","02","06:00","10.8","","10.8","","100","","","","6","","4","","24.1","","100.47","","","","","","NA"
"-65.89","45.32","SAINT JOHN A","8104901","2019-08-02 07:00","2019","08","02","07:00","17.3","","14.8","","85","","","","36","","2","","24.1","","100.50","","","","","","NA"
"-65.89","45.32","SAINT JOHN A","8104901","2019-08-02 08:00","2019","08","02","08:00","20.7","","13.4","","63","","","","29","","9","","24.1","","100.53","","","","","","Mainly Clear"
"-65.89","45.32","SAINT JOHN A","8104901","2019-08-02 09:00","2019","08","02","09:00","22.9","","13.4","","54","","","","28","","10","","24.1","","100.51","","26","","","","NA"
"-65.89","45.32","SAINT JOHN A","8104901","2019-08-02 10:00","2019","08","02","10:00","24.3","","13.6","","51","","","","28","","10","","24.1","","100.49","","27","","","","NA"
"-65.89","45.32","SAINT JOHN A","8104901","2019-08-02 11:00","2019","08","02","11:00","26.0","","13.3","","45","","","","27","","9","","24.1","","100.47","","29","","","","Clear"
"-65.89","45.32","SAINT JOHN A","8104901","2019-08-02 12:00","2019","08","02","12:00","27.3","","12.3","","39","","","","27","","17","","24.1","","100.43","","30","","","","NA"
"-65.89","45.32","SAINT JOHN A","8104901","2019-08-02 13:00","2019","08","02","13:00","28.2","","12.0","","36","","","","24","","13","","24.1","","100.37","","30","","","","NA"
"-65.89","45.32","SAINT JOHN A","8104901","2019-08-02 14:00","2019","08","02","14:00","26.8","","14.1","","45","","","","21","","23","","24.1","","100.36","","30","","","","Mainly Clear"
"-65.89","45.32","SAINT JOHN A","8104901","2019-08-02 15:00","2019","08","02","15:00","26.8","","11.8","","39","","","","22","","29","","24.1","","100.34","","29","","","","NA"
"-65.89","45.32","SAINT JOHN A","8104901","2019-08-02 16:00","2019","08","02","16:00","25.9","","10.9","","38","","","","22","","32","","24.1","","100.31","","28","","","","NA"
"-65.89","45.32","SAINT JOHN A","8104901","2019-08-02 17:00","2019","08","02","17:00","24.4","","11.0","","42","","","","22","","27","","24.1","","100.34","","26","","","","Mainly Clear"
"-65.89","45.32","SAINT JOHN A","8104901","2019-08-02 18:00","2019","08","02","18:00","22.9","","10.9","","46","","","","23","","22","","24.1","","100.33","","25","","","","NA"
"-65.89","45.32","SAINT JOHN A","8104901","2019-08-02 19:00","2019","08","02","19:00","21.4","","10.0","","48","","","","22","","21","","24.1","","100.35","","","","","","NA"
"-65.89","45.32","SAINT JOHN A","8104901","2019-08-02 20:00","2019","08","02","20:00","19.6","","10.6","","56","","","","21","","14","","24.1","","100.38","","","","","","Mainly Clear"
"-65.89","45.32","SAINT JOHN A","8104901","2019-08-02 21:00","2019","08","02","21:00","16.9","","10.5","","65","","","","18","","9","","24.1","","100.43","","","","","","NA"
"-65.89","45.32","SAINT JOHN A","8104901","2019-08-02 22:00","2019","08","02","22:00","14.9","","10.8","","76","","","","20","","13","","24.1","","100.42","","","","","","NA"
"-65.89","45.32","SAINT JOHN A","8104901","2019-08-02 23:00","2019","08","02","23:00","13.7","","11.0","","84","","","","36","","2","","24.1","","100.41","","","","","","Clear"
"-65.89","45.32","SAINT JOHN A","8104901","2019-08-03 00:00","2019","08","03","00:00","12.7","","10.8","","88","","","","4","","5","","24.1","","100.40","","","","","","NA"
"-65.89","45.32","SAINT JOHN A","8104901","2019-08-03 01:00","2019","08","03","01:00","12.9","","11.1","","89","","","","36","","2","","24.1","","100.39","","","","","","NA"
"-65.89","45.32","SAINT JOHN A","8104901","2019-08-03 02:00","2019","08","03","02:00","11.0","","10.1","","94","","","","36","","1","","24.1","","100.36","","","","","","Clear"
"-65.89","45.32","SAINT JOHN A","8104901","2019-08-03 03:00","2019","08","03","03:00","9.6","","9.3","","98","","","","36","","1","","24.1","","100.37","","","","","","NA"
"-65.89","45.32","SAINT JOHN A","8104901","2019-08-03 04:00","2019","08","03","04:00","10.4","","10.0","","97","","","","6","","4","","24.1","","100.33","","","","","","NA"
"-65.89","45.32","SAINT JOHN A","8104901","2019-08-03 05:00","2019","08","03","05:00","10.5","","10.0","","97","","","","36","","2","","24.1","","100.34","","","","","","Mainly Clear"
"-65.89","45.32","SAINT JOHN A","8104901","2019-08-03 06:00","2019","08","03","06:00","10.7","","9.9","","95","","","","36","","2","","24.1","","100.36","","","","","","NA"
"-65.89","45.32","SAINT JOHN A","8104901","2019-08-03 07:00","2019","08","03","07:00","14.7","","13.0","","89","","","","18","","8","","24.1","","100.36","","","","","","NA"
"-65.89","45.32","SAINT JOHN A","8104901","2019-08-03 08:00","2019","08","03","08:00","19.2","","14.9","","76","","","","19","","10","","24.1","","100.35","","","","","","Mainly Clear"
"-65.89","45.32","SAINT JOHN A","8104901","2019-08-03 09:00","2019","08","03","09:00","21.9","","15.4","","66","","","","20","","12","","24.1","","100.32","","26","","","","NA"
"-65.89","45.32","SAINT JOHN A","8104901","2019-08-03 10:00","2019","08","03","10:00","24.8","","15.0","","54","","","","20","","16","","24.1","","100.28","","29","","","","NA"
"-65.89","45.32","SAINT JOHN A","8104901","2019-08-03 11:00","2019","08","03","11:00","24.3","","14.5","","54","","","","19","","16","","24.1","","100.23","","28","","","","Mostly Cloudy"
"-65.89","45.32","SAINT JOHN A","8104901","2019-08-03 12:00","2019","08","03","12:00","23.5","","14.0","","55","","","","20","","26","","24.1","","100.19","","27","","","","NA"
"-65.89","45.32","SAINT JOHN A","8104901","2019-08-03 13:00","2019","08","03","13:00","24.3","","14.2","","52","","","","19","","23","","24.1","","100.14","","28","","","","NA"
"-65.89","45.32","SAINT JOHN A","8104901","2019-08-03 14:00","2019","08","03","14:00","23.2","","16.7","","66","","","","21","","28","","24.1","","100.09","","28","","","","Mostly Cloudy"
"-65.89","45.32","SAINT JOHN A","8104901","2019-08-03 15:00","2019","08","03","15:00","22.7","","17.0","","70","","","","22","","29","","24.1","","100.04","","28","","","","NA"
"-65.89","45.32","SAINT JOHN A","8104901","2019-08-03 16:00","2019","08","03","16:00","21.2","","17.3","","78","","","","20","","32","","24.1","","99.97","","27","","","","NA"
"-65.89","45.32","SAINT JOHN A","8104901","2019-08-03 17:00","2019","08","03","17:00","18.4","","17.4","","94","","","","20","","20","","1.6","","99.94","","","","","","Fog"
"-65.89","45.32","SAINT JOHN A","8104901","2019-08-03 18:00","2019","08","03","18:00","17.5","","17.5","","100","","","","20","","19","","0.6","","99.90","","","","","","Fog"
"-65.89","45.32","SAINT JOHN A","8104901","2019-08-03 19:00","2019","08","03","19:00","16.9","","16.9","","100","","","","20","","21","","0.4","","99.88","","","","","","Fog"
"-65.89","45.32","SAINT JOHN A","8104901","2019-08-03 20:00","2019","08","03","20:00","16.4","","16.4","","100","","","","21","","25","","1.2","","99.88","","","","","","Fog"
"-65.89","45.32","SAINT JOHN A","8104901","2019-08-03 21:00","2019","08","03","21:00","16.3","","16.3","","100","","","","21","","22","","1.2","","99.86","","","","","","Fog"
"-65.89","45.32","SAINT JOHN A","8104901","2019-08-03 22:00","2019","08","03","22:00","16.3","","16.3","","100","","","","22","","18","","0.4","","99.83","","","","","","Fog"
"-65.89","45.32","SAINT JOHN A","8104901","2019-08-03 23:00","2019","08","03","23:00","16.4","","16.4","","100","","","","32","","18","","1.2","","99.94","","","","","","Thunderstorms,Moderate Rain Showers,Fog"
"-65.89","45.32","SAINT JOHN A","8104901","2019-08-04 00:00","2019","08","04","00:00","17.2","","17.2","","100","","","","36","","3","","6.4","","99.80","","","","","","Fog"
"-65.89","45.32","SAINT JOHN A","8104901","2019-08-04 01:00","2019","08","04","01:00","16.2","","16.2","","100","","","","20","","10","","3.2","","99.80","","","","","","Fog"
"-65.89","45.32","SAINT JOHN A","8104901","2019-08-04 02:00","2019","08","04","02:00","15.9","","15.9","","100","","","","20","","9","","0.4","","99.76","","","","","","Fog"
"-65.89","45.32","SAINT JOHN A","8104901","2019-08-04 03:00","2019","08","04","03:00","15.3","","15.3","","100","","","","18","","9","","0.4","","99.75","","","","","","Fog"
"-65.89","45.32","SAINT JOHN A","8104901","2019-08-04 04:00","2019","08","04","04:00","15.1","","15.1","","100","","","","36","","3","","1.2","","99.77","","","","","","Fog"
"-65.89","45.32","SAINT JOHN A","8104901","2019-08-04 05:00","2019","08","04","05:00","15.2","","15.2","","100","","","","36","","1","","0.8","","99.75","","","","","","Fog"
"-65.89","45.32","SAINT JOHN A","8104901","2019-08-04 06:00","2019","08","04","06:00","15.5","","15.5","","100","","","","4","","4","","1.2","","99.77","","","","","","Fog"
"-65.89","45.32","SAINT JOHN A","8104901","2019-08-04 07:00","2019","08","04","07:00","16.9","","16.9","","100","","","","28","","7","","24.1","","99.76","","","","","","NA"
"-65.89","45.32","SAINT JOHN A","8104901","2019-08-04 08:00","2019","08","04","08:00","18.6","","17.2","","92","","","","32","","13","","24.1","","99.75","","","","","","Mainly Clear"
"-65.89","45.32","SAINT JOHN A","8104901","2019-08-04 09:00","2019","08","04","09:00","19.9","","16.7","","81","","","","32","","10","","24.1","","99.77","","","","","","NA"
"-65.89","45.32","SAINT JOHN A","8104901","2019-08-04 10:00","2019","08","04","10:00","21.6","","14.2","","62","","","","25","","13","","24.1","","99.78","","25","","","","NA"
"-65.89","45.32","SAINT JOHN A","8104901","2019-08-04 11:00","2019","08","04","11:00","22.3","","11.1","","49","","","","28","","19","","24.1","","99.76","","","","","","Mainly Clear"
"-65.89","45.32","SAINT JOHN A","8104901","2019-08-04 12:00","2019","08","04","12:00","23.8","","11.9","","47","","","","30","","22","","24.1","","99.71","","26","","","","NA"
"-65.89","45.32","SAINT JOHN A","8104901","2019-08-04 13:00","2019","08","04","13:00","24.2","","11.4","","44","","","","27","","18","","24.1","","99.69","","26","","","","NA"
"-65.89","45.32","SAINT JOHN A","8104901","2019-08-04 14:00","2019","08","04","14:00","24.6","","10.2","","40","","","","31","","22","","24.1","","99.67","","26","","","","Mainly Clear"
"-65.89","45.32","SAINT JOHN A","8104901","2019-08-04 15:00","2019","08","04","15:00","24.2","","10.0","","40","","","","30","","11","","24.1","","99.65","","25","","","","NA"
"-65.89","45.32","SAINT JOHN A","8104901","2019-08-04 16:00","2019","08","04","16:00","24.5","","9.6","","38","","","","31","","24","","24.1","","99.63","","26","","","","NA"
"-65.89","45.32","SAINT JOHN A","8104901","2019-08-04 17:00","2019","08","04","17:00","24.0","","9.0","","38","","","","31","","20","","24.1","","99.63","","25","","","","Mainly Clear"
"-65.89","45.32","SAINT JOHN A","8104901","2019-08-04 18:00","2019","08","04","18:00","22.6","","9.4","","43","","","","33","","21","","24.1","","99.65","","","","","","NA"
"-65.89","45.32","SAINT JOHN A","8104901","2019-08-04 19:00","2019","08","04","19:00","21.6","","9.6","","46","","","","32","","19","","24.1","","99.69","","","","","","NA"
"-65.89","45.32","SAINT JOHN A","8104901","2019-08-04 20:00","2019","08","04","20:00","18.5","","10.3","","58","","","","32","","10","","24.1","","99.74","","","","","","Mainly Clear"
"-65.89","45.32","SAINT JOHN A","8104901","2019-08-04 21:00","2019","08","04","21:00","16.1","","11.1","","72","","","","31","","8","","24.1","","99.79","","","","","","NA"
"-65.89","45.32","SAINT JOHN A","8104901","2019-08-04 22:00","2019","08","04","22:00","14.2","","11.0","","81","","","","30","","8","","24.1","","99.82","","","","","","NA"
"-65.89","45.32","SAINT JOHN A","8104901","2019-08-04 23:00","2019","08","04","23:00","13.0","","10.6","","85","","","","36","","2","","24.1","","99.81","","","","","","Clear"
"-65.89","45.32","SAINT JOHN A","8104901","2019-08-05 00:00","2019","08","05","00:00","8.9","","8.4","","97","","","","0","","1","","24.1","","99.82","","","","","","NA"
"-65.89","45.32","SAINT JOHN A","8104901","2019-08-05 01:00","2019","08","05","01:00","8.4","","8.1","","98","","","","36","","1","","24.1","","99.81","","","","","","NA"
"-65.89","45.32","SAINT JOHN A","8104901","2019-08-05 02:00","2019","08","05","02:00","8.7","","7.5","","92","","","","36","","1","","24.1","","99.81","","","","","","Clear"
"-65.89","45.32","SAINT JOHN A","8104901","2019-08-05 03:00","2019","08","05","03:00","8.1","","7.4","","96","","","","36","","1","","24.1","","99.79","","","","","","NA"
"-65.89","45.32","SAINT JOHN A","8104901","2019-08-05 04:00","2019","08","05","04:00","9.0","","8.4","","96","","","","36","","2","","24.1","","99.81","","","","","","NA"
"-65.89","45.32","SAINT JOHN A","8104901","2019-08-05 05:00","2019","08","05","05:00","8.1","","7.4","","95","","","","36","","2","","24.1","","99.84","","","","","","Mainly Clear"
"-65.89","45.32","SAINT JOHN A","8104901","2019-08-05 06:00","2019","08","05","06:00","8.6","","8.5","","99","","","","36","","3","","24.1","","99.86","","","","","","NA"
"-65.89","45.32","SAINT JOHN A","8104901","2019-08-05 07:00","2019","08","05","07:00","15.3","","11.4","","77","","","","33","","9","","24.1","","99.88","","","","","","NA"
"-65.89","45.32","SAINT JOHN A","8104901","2019-08-05 08:00","2019","08","05","08:00","17.1","","10.7","","66","","","","33","","14","","22.5","","99.88","","","","","","Clear"
"-65.89","45.32","SAINT JOHN A","8104901","2019-08-05 09:00","2019","08","05","09:00","19.0","","11.5","","61","","","","30","","12","","24.1","","99.89","","","","","","NA"
"-65.89","45.32","SAINT JOHN A","8104901","2019-08-05 10:00","2019","08","05","10:00","20.7","","11.9","","57","","","","30","","16","","24.1","","99.88","","","","","","NA"
"-65.89","45.32","SAINT JOHN A","8104901","2019-08-05 11:00","2019","08","05","11:00","21.8","","11.6","","52","","","","31","","24","","24.1","","99.88","","","","","","Mainly Clear"
"-65.89","45.32","SAINT JOHN A","8104901","2019-08-05 12:00","2019","08","05","12:00","23.2","","11.6","","47","","","","32","","21","","24.1","","99.84","","25","","","","NA"
"-65.89","45.32","SAINT JOHN A","8104901","2019-08-05 13:00","2019","08","05","13:00","24.5","","11.8","","44","","","","32","","21","","24.1","","99.81","","27","","","","NA"
"-65.89","45.32","SAINT JOHN A","8104901","2019-08-05 14:00","2019","08","05","14:00","24.9","","10.5","","40","","","","31","","24","","24.1","","99.83","","26","","","","Mainly Clear"
"-65.89","45.32","SAINT JOHN A","8104901","2019-08-05 15:00","2019","08","05","15:00","25.3","","10.0","","38","","","","29","","10","","24.1","","99.81","","27","","","","NA"
"-65.89","45.32","SAINT JOHN A","8104901","2019-08-05 16:00","2019","08","05","16:00","22.9","","12.2","","51","","","","22","","17","","24.1","","99.84","","25","","","","NA"
"-65.89","45.32","SAINT JOHN A","8104901","2019-08-05 17:00","2019","08","05","17:00","22.5","","11.6","","50","","","","23","","20","","24.1","","99.86","","25","","","","Mostly Cloudy"
"-65.89","45.32","SAINT JOHN A","8104901","2019-08-05 18:00","2019","08","05","18:00","20.9","","11.3","","53","","","","22","","19","","24.1","","99.91","","","","","","NA"
"-65.89","45.32","SAINT JOHN A","8104901","2019-08-05 19:00","2019","08","05","19:00","19.2","","11.0","","59","","","","21","","16","","24.1","","99.96","","","","","","NA"
"-65.89","45.32","SAINT JOHN A","8104901","2019-08-05 20:00","2019","08","05","20:00","16.3","","11.2","","72","","","","21","","11","","24.1","","99.98","","","","","","Mainly Clear"
"-65.89","45.32","SAINT JOHN A","8104901","2019-08-05 21:00","2019","08","05","21:00","14.6","","11.5","","81","","","","21","","3","","24.1","","100.02","","","","","","NA"
"-65.89","45.32","SAINT JOHN A","8104901","2019-08-05 22:00","2019","08","05","22:00","12.3","","11.2","","93","","","","19","","4","","24.1","","100.03","","","","","","NA"
"-65.89","45.32","SAINT JOHN A","8104901","2019-08-05 23:00","2019","08","05","23:00","10.5","","10.1","","97","","","","0","","1","","24.1","","100.05","","","","","","Mainly Clear"
"-65.89","45.32","SAINT JOHN A","8104901","2019-08-06 00:00","2019","08","06","00:00","10.2","","10.0","","98","","","","36","","2","","24.1","","100.09","","","","","","NA"
"-65.89","45.32","SAINT JOHN A","8104901","2019-08-06 01:00","2019","08","06","01:00","8.9","","8.8","","99","","","","6","","3","","24.1","","100.06","","","","","","NA"
"-65.89","45.32","SAINT JOHN A","8104901","2019-08-06 02:00","2019","08","06","02:00","8.4","","8.2","","99","","","","36","","2","","24.1","","100.07","","","","","","Clear"
"-65.89","45.32","SAINT JOHN A","8104901","2019-08-06 03:00","2019","08","06","03:00","9.2","","8.8","","97","","","","36","","2","","24.1","","100.07","","","","","","NA"
"-65.89","45.32","SAINT JOHN A","8104901","2019-08-06 04:00","2019","08","06","04:00","8.5","","8.4","","99","","","","35","","3","","24.1","","100.11","","","","","","NA"
"-65.89","45.32","SAINT JOHN A","8104901","2019-08-06 05:00","2019","08","06","05:00","7.9","","7.8","","99","","","","36","","1","","24.1","","100.14","","","","","","Mainly Clear"
"-65.89","45.32","SAINT JOHN A","8104901","2019-08-06 06:00","2019","08","06","06:00","9.9","","9.3","","96","","","","36","","2","","24.1","","100.18","","","","","","NA"
"-65.89","45.32","SAINT JOHN A","8104901","2019-08-06 07:00","2019","08","06","07:00","14.9","","12.4","","85","","","","18","","10","","24.1","","100.19","","","","","","NA"
"-65.89","45.32","SAINT JOHN A","8104901","2019-08-06 08:00","2019","08","06","08:00","18.6","","13.4","","71","","","","20","","13","","24.1","","100.19","","","","","","Mainly Clear"
"-65.89","45.32","SAINT JOHN A","8104901","2019-08-06 09:00","2019","08","06","09:00","21.8","","14.6","","63","","","","22","","14","","24.1","","100.18","","26","","","","NA"
"-65.89","45.32","SAINT JOHN A","8104901","2019-08-06 10:00","2019","08","06","10:00","22.8","","15.2","","62","","","","21","","15","","24.1","","100.21","","27","","","","NA"
"-65.89","45.32","SAINT JOHN A","8104901","2019-08-06 11:00","2019","08","06","11:00","24.5","","14.2","","52","","","","23","","14","","24.1","","100.20","","28","","","","Mainly Clear"
"-65.89","45.32","SAINT JOHN A","8104901","2019-08-06 12:00","2019","08","06","12:00","23.9","","15.3","","58","","","","20","","21","","24.1","","100.19","","28","","","","NA"
"-65.89","45.32","SAINT JOHN A","8104901","2019-08-06 13:00","2019","08","06","13:00","23.8","","13.6","","52","","","","21","","24","","24.1","","100.15","","27","","","","NA"
"-65.89","45.32","SAINT JOHN A","8104901","2019-08-06 14:00","2019","08","06","14:00","23.4","","16.1","","63","","","","19","","22","","24.1","","100.12","","28","","","","Mainly Clear"
"-65.89","45.32","SAINT JOHN A","8104901","2019-08-06 15:00","2019","08","06","15:00","23.5","","14.7","","57","","","","21","","26","","24.1","","100.10","","27","","","","NA"
"-65.89","45.32","SAINT JOHN A","8104901","2019-08-06 16:00","2019","08","06","16:00","22.6","","12.6","","53","","","","25","","18","","24.1","","100.05","","25","","","","NA"
"-65.89","45.32","SAINT JOHN A","8104901","2019-08-06 17:00","2019","08","06","17:00","21.2","","13.0","","59","","","","22","","20","","24.1","","100.07","","","","","","Mostly Cloudy"
"-65.89","45.32","SAINT JOHN A","8104901","2019-08-06 18:00","2019","08","06","18:00","19.0","","9.7","","54","","","","23","","18","","24.1","","100.04","","","","","","NA"
"-65.89","45.32","SAINT JOHN A","8104901","2019-08-06 19:00","2019","08","06","19:00","16.9","","9.0","","59","","","","21","","11","","24.1","","100.03","","","","","","NA"
"-65.89","45.32","SAINT JOHN A","8104901","2019-08-06 20:00","2019","08","06","20:00","15.5","","7.9","","60","","","","21","","15","","24.1","","100.10","","","","","","Mostly Cloudy"
"-65.89","45.32","SAINT JOHN A","8104901","2019-08-06 21:00","2019","08","06","21:00","13.9","","9.0","","72","","","","0","","1","","24.1","","100.10","","","","","","NA"
"-65.89","45.32","SAINT JOHN A","8104901","2019-08-06 22:00","2019","08","06","22:00","10.6","","8.3","","85","","","","0","","1","","24.1","","100.11","","","","","","NA"
"-65.89","45.32","SAINT JOHN A","8104901","2019-08-06 23:00","2019","08","06","23:00","9.7","","8.3","","91","","","","20","","8","","24.1","","100.07","","","","","","Mostly Cloudy"
"-65.89","45.32","SAINT JOHN A","8104901","2019-08-07 00:00","2019","08","07","00:00","8.5","","7.4","","93","","","","13","","4","","24.1","","100.04","","","","","","NA"
"-65.89","45.32","SAINT JOHN A","8104901","2019-08-07 01:00","2019","08","07","01:00","6.6","","6.3","","98","","","","36","","2","","24.1","","100.03","","","","","","NA"
"-65.89","45.32","SAINT JOHN A","8104901","2019-08-07 02:00","2019","08","07","02:00","7.0","","6.5","","97","","","","4","","3","","24.1","","99.98","","","","","","Mostly Cloudy"
"-65.89","45.32","SAINT JOHN A","8104901","2019-08-07 03:00","2019","08","07","03:00","8.3","","8.2","","99","","","","36","","2","","24.1","","99.97","","","","","","NA"
"-65.89","45.32","SAINT JOHN A","8104901","2019-08-07 04:00","2019","08","07","04:00","7.5","","6.9","","96","","","","36","","1","","24.1","","99.95","","","","","","NA"
"-65.89","45.32","SAINT JOHN A","8104901","2019-08-07 05:00","2019","08","07","05:00","8.8","","8.1","","96","","","","36","","3","","24.1","","99.96","","","","","","Mostly Cloudy"
"-65.89","45.32","SAINT JOHN A","8104901","2019-08-07 06:00","2019","08","07","06:00","10.4","","9.3","","93","","","","35","","5","","24.1","","100.00","","","","","","NA"
"-65.89","45.32","SAINT JOHN A","8104901","2019-08-07 07:00","2019","08","07","07:00","13.5","","11.2","","86","","","","2","","4","","24.1","","100.02","","","","","","NA"
"-65.89","45.32","SAINT JOHN A","8104901","2019-08-07 08:00","2019","08","07","08:00","18.2","","12.8","","71","","","","13","","13","","24.1","","100.02","","","","","","Mainly Clear"
"-65.89","45.32","SAINT JOHN A","8104901","2019-08-07 09:00","2019","08","07","09:00","20.2","","14.0","","67","","","","20","","8","","24.1","","100.04","","","","","","NA"
"-65.89","45.32","SAINT JOHN A","8104901","2019-08-07 10:00","2019","08","07","10:00","21.7","","14.3","","62","","","","19","","7","","24.1","","100.01","","25","","","","NA"
"-65.89","45.32","SAINT JOHN A","8104901","2019-08-07 11:00","2019","08","07","11:00","23.4","","14.8","","58","","","","14","","8","","24.1","","99.96","","27","","","","Mostly Cloudy"
"-65.89","45.32","SAINT JOHN A","8104901","2019-08-07 12:00","2019","08","07","12:00","24.7","","14.9","","54","","","","20","","22","","24.1","","99.98","","29","","","","NA"
"-65.89","45.32","SAINT JOHN A","8104901","2019-08-07 13:00","2019","08","07","13:00","22.8","","14.5","","59","","","","22","","16","","24.1","","100.01","","26","","","","NA"
"-65.89","45.32","SAINT JOHN A","8104901","2019-08-07 14:00","2019","08","07","14:00","22.4","","15.4","","64","","","","22","","19","","24.1","","100.04","","27","","","","Mostly Cloudy"
"-65.89","45.32","SAINT JOHN A","8104901","2019-08-07 15:00","2019","08","07","15:00","23.9","","16.6","","63","","","","21","","18","","24.1","","100.03","","29","","","","NA"
"-65.89","45.32","SAINT JOHN A","8104901","2019-08-07 16:00","2019","08","07","16:00","23.4","","16.1","","63","","","","21","","17","","24.1","","100.01","","28","","","","NA"
"-65.89","45.32","SAINT JOHN A","8104901","2019-08-07 17:00","2019","08","07","17:00","22.5","","15.3","","64","","","","20","","14","","24.1","","99.98","","27","","","","Mostly Cloudy"
"-65.89","45.32","SAINT JOHN A","8104901","2019-08-07 18:00","2019","08","07","18:00","21.6","","16.1","","70","","","","20","","11","","24.1","","99.98","","26","","","","NA"
"-65.89","45.32","SAINT JOHN A","8104901","2019-08-07 19:00","2019","08","07","19:00","19.6","","16.1","","80","","","","21","","16","","24.1","","100.02","","","","","","NA"
"-65.89","45.32","SAINT JOHN A","8104901","2019-08-07 20:00","2019","08","07","20:00","17.2","","15.5","","90","","","","19","","7","","24.1","","100.04","","","","","","Mostly Cloudy"
"-65.89","45.32","SAINT JOHN A","8104901","2019-08-07 21:00","2019","08","07","21:00","16.3","","16.3","","100","","","","18","","8","","3.2","","100.12","","","","","","Fog"
"-65.89","45.32","SAINT JOHN A","8104901","2019-08-07 22:00","2019","08","07","22:00","16.9","","16.9","","100","","","","18","","8","","16.1","","100.11","","","","","","NA"
"-65.89","45.32","SAINT JOHN A","8104901","2019-08-07 23:00","2019","08","07","23:00","16.7","","15.3","","91","","","","20","","21","","24.1","","100.12","","","","","","Cloudy"
"-65.89","45.32","SAINT JOHN A","8104901","2019-08-08 00:00","2019","08","08","00:00","16.9","","14.5","","86","","","","18","","11","","24.1","","100.10","","","","","","NA"
"-65.89","45.32","SAINT JOHN A","8104901","2019-08-08 01:00","2019","08","08","01:00","17.5","","15.4","","88","","","","18","","13","","16.1","","100.08","","","","","","NA"
"-65.89","45.32","SAINT JOHN A","8104901","2019-08-08 02:00","2019","08","08","02:00","17.1","","15.3","","89","","","","15","","13","","16.1","","100.05","","","","","","Cloudy"
"-65.89","45.32","SAINT JOHN A","8104901","2019-08-08 03:00","2019","08","08","03:00","16.7","","15.1","","90","","","","14","","13","","16.1","","100.00","","","","","","NA"
"-65.89","45.32","SAINT JOHN A","8104901","2019-08-08 04:00","2019","08","08","04:00","16.3","","14.7","","90","","","","15","","12","","16.1","","99.96","","","","","","NA"
"-65.89","45.32","SAINT JOHN A","8104901","2019-08-08 05:00","2019","08","08","05:00","16.5","","14.6","","88","","","","14","","12","","19.3","","99.99","","","","","","Cloudy"
"-65.89","45.32","SAINT JOHN A","8104901","2019-08-08 06:00","2019","08","08","06:00","16.8","","14.4","","86","","","","14","","18","","24.1","","99.99","","","","","","NA"
"-65.89","45.32","SAINT JOHN A","8104901","2019-08-08 07:00","2019","08","08","07:00","17.1","","14.7","","86","","","","15","","17","","24.1","","99.98","","","","","","NA"
"-65.89","45.32","SAINT JOHN A","8104901","2019-08-08 08:00","2019","08","08","08:00","17.9","","15.4","","85","","","","15","","18","","24.1","","99.97","","","","","","Cloudy"
"-65.89","45.32","SAINT JOHN A","8104901","2019-08-08 09:00","2019","08","08","09:00","20.0","","15.4","","75","","","","13","","28","","24.1","","99.90","","","","","","NA"
"-65.89","45.32","SAINT JOHN A","8104901","2019-08-08 10:00","2019","08","08","10:00","21.0","","15.8","","72","","","","14","","26","","24.1","","99.85","","25","","","","NA"
"-65.89","45.32","SAINT JOHN A","8104901","2019-08-08 11:00","2019","08","08","11:00","21.8","","15.7","","68","","","","14","","30","","24.1","","99.80","","26","","","","Mostly Cloudy"
"-65.89","45.32","SAINT JOHN A","8104901","2019-08-08 12:00","2019","08","08","12:00","23.0","","17.0","","68","","","","14","","21","","24.1","","99.73","","28","","","","NA"
"-65.89","45.32","SAINT JOHN A","8104901","2019-08-08 13:00","2019","08","08","13:00","23.5","","16.7","","65","","","","15","","20","","24.1","","99.66","","29","","","","NA"
"-65.89","45.32","SAINT JOHN A","8104901","2019-08-08 14:00","2019","08","08","14:00","22.5","","16.5","","69","","","","15","","21","","24.1","","99.61","","27","","","","Cloudy"
"-65.89","45.32","SAINT JOHN A","8104901","2019-08-08 15:00","2019","08","08","15:00","22.8","","16.2","","66","","","","14","","22","","24.1","","99.56","","28","","","","NA"
"-65.89","45.32","SAINT JOHN A","8104901","2019-08-08 16:00","2019","08","08","16:00","21.7","","16.0","","70","","","","13","","26","","24.1","","99.49","","26","","","","NA"
"-65.89","45.32","SAINT JOHN A","8104901","2019-08-08 17:00","2019","08","08","17:00","19.4","","15.7","","79","","","","13","","28","","24.1","","99.47","","","","","","Cloudy"
"-65.89","45.32","SAINT JOHN A","8104901","2019-08-08 18:00","2019","08","08","18:00","18.4","","16.3","","87","","","","14","","21","","24.1","","99.42","","","","","","Rain"
"-65.89","45.32","SAINT JOHN A","8104901","2019-08-08 19:00","2019","08","08","19:00","16.6","","16.6","","100","","","","12","","17","","4.0","","99.46","","","","","","Rain Showers,Fog"
"-65.89","45.32","SAINT JOHN A","8104901","2019-08-08 20:00","2019","08","08","20:00","16.7","","16.7","","100","","","","13","","16","","3.2","","99.37","","","","","","Moderate Rain Showers,Fog"
"-65.89","45.32","SAINT JOHN A","8104901","2019-08-08 21:00","2019","08","08","21:00","16.9","","16.9","","100","","","","12","","18","","3.2","","99.35","","","","","","Rain Showers,Fog"
"-65.89","45.32","SAINT JOHN A","8104901","2019-08-08 22:00","2019","08","08","22:00","16.9","","16.9","","100","","","","12","","17","","4.8","","99.27","","","","","","Rain Showers,Fog"
"-65.89","45.32","SAINT JOHN A","8104901","2019-08-08 23:00","2019","08","08","23:00","16.9","","16.9","","100","","","","12","","18","","3.2","","99.16","","","","","","Rain Showers,Fog"
"-65.89","45.32","SAINT JOHN A","8104901","2019-08-09 00:00","2019","08","09","00:00","16.9","","16.9","","100","","","","13","","15","","3.2","","99.13","","","","","","Rain Showers,Fog"
"-65.89","45.32","SAINT JOHN A","8104901","2019-08-09 01:00","2019","08","09","01:00","16.9","","16.9","","100","","","","13","","19","","3.2","","99.07","","","","","","Fog"
"-65.89","45.32","SAINT JOHN A","8104901","2019-08-09 02:00","2019","08","09","02:00","16.8","","16.8","","100","","","","14","","10","","3.2","","99.05","","","","","","Fog"
"-65.89","45.32","SAINT JOHN A","8104901","2019-08-09 03:00","2019","08","09","03:00","17.1","","17.1","","100","","","","17","","10","","3.2","","99.03","","","","","","Fog"
"-65.89","45.32","SAINT JOHN A","8104901","2019-08-09 04:00","2019","08","09","04:00","17.1","","17.1","","100","","","","16","","9","","3.2","","99.00","","","","","","Fog"
"-65.89","45.32","SAINT JOHN A","8104901","2019-08-09 05:00","2019","08","09","05:00","17.0","","17.0","","100","","","","16","","14","","0.8","","98.97","","","","","","Fog"
"-65.89","45.32","SAINT JOHN A","8104901","2019-08-09 06:00","2019","08","09","06:00","17.0","","17.0","","100","","","","16","","9","","0.8","","98.99","","","","","","Fog"
"-65.89","45.32","SAINT JOHN A","8104901","2019-08-09 07:00","2019","08","09","07:00","17.1","","17.1","","100","","","","16","","14","","1.2","","98.99","","","","","","Fog"
"-65.89","45.32","SAINT JOHN A","8104901","2019-08-09 08:00","2019","08","09","08:00","18.0","","18.0","","100","","","","19","","16","","1.2","","98.99","","","","","","Fog"
"-65.89","45.32","SAINT JOHN A","8104901","2019-08-09 09:00","2019","08","09","09:00","18.4","","18.4","","100","","","","17","","18","","1.2","","98.99","","","","","","Fog"
"-65.89","45.32","SAINT JOHN A","8104901","2019-08-09 10:00","2019","08","09","10:00","18.4","","18.4","","100","","","","22","","20","","1.2","","98.99","","","","","","Fog"
"-65.89","45.32","SAINT JOHN A","8104901","2019-08-09 11:00","2019","08","09","11:00","17.5","","17.5","","100","","","","21","","23","","0.8","","99.00","","","","","","Fog"
"-65.89","45.32","SAINT JOHN A","8104901","2019-08-09 12:00","2019","08","09","12:00","16.9","","16.9","","100","","","","20","","11","","0.8","","98.98","","","","","","Fog"
"-65.89","45.32","SAINT JOHN A","8104901","2019-08-09 13:00","2019","08","09","13:00","18.7","","18.7","","100","","","","19","","8","","1.6","","98.97","","","","","","Fog"
"-65.89","45.32","SAINT JOHN A","8104901","2019-08-09 14:00","2019","08","09","14:00","19.3","","18.6","","96","","","","21","","9","","4.8","","98.98","","","","","","Fog"
"-65.89","45.32","SAINT JOHN A","8104901","2019-08-09 15:00","2019","08","09","15:00","20.4","","18.9","","91","","","","20","","3","","9.7","","98.96","","27","","","","Fog"
"-65.89","45.32","SAINT JOHN A","8104901","2019-08-09 16:00","2019","08","09","16:00","22.1","","19.6","","86","","","","20","","9","","24.1","","98.97","","29","","","","NA"
"-65.89","45.32","SAINT JOHN A","8104901","2019-08-09 17:00","2019","08","09","17:00","17.7","","17.1","","96","","","","20","","16","","4.8","","99.03","","","","","","Fog"
"-65.89","45.32","SAINT JOHN A","8104901","2019-08-09 18:00","2019","08","09","18:00","17.1","","16.9","","99","","","","19","","17","","4.8","","99.10","","","","","","Fog"
"-65.89","45.32","SAINT JOHN A","8104901","2019-08-09 19:00","2019","08","09","19:00","17.5","","16.8","","96","","","","21","","11","","16.1","","99.11","","","","","","NA"
"-65.89","45.32","SAINT JOHN A","8104901","2019-08-09 20:00","2019","08","09","20:00","16.2","","16.1","","99","","","","22","","9","","12.9","","99.17","","","","","","Mainly Clear"
"-65.89","45.32","SAINT JOHN A","8104901","2019-08-09 21:00","2019","08","09","21:00","14.3","","14.3","","100","","","","22","","5","","12.9","","99.21","","","","","","NA"
"-65.89","45.32","SAINT JOHN A","8104901","2019-08-09 22:00","2019","08","09","22:00","13.7","","13.7","","100","","","","20","","3","","24.1","","99.20","","","","","","NA"
"-65.89","45.32","SAINT JOHN A","8104901","2019-08-09 23:00","2019","08","09","23:00","12.8","","12.8","","100","","","","17","","6","","24.1","","99.22","","","","","","Mainly Clear"
"-65.89","45.32","SAINT JOHN A","8104901","2019-08-10 00:00","2019","08","10","00:00","12.5","","12.5","","100","","","","18","","4","","19.3","","99.22","","","","","","NA"
"-65.89","45.32","SAINT JOHN A","8104901","2019-08-10 01:00","2019","08","10","01:00","11.5","","11.5","","100","","","","7","","4","","16.1","","99.20","","","","","","NA"
"-65.89","45.32","SAINT JOHN A","8104901","2019-08-10 02:00","2019","08","10","02:00","11.9","","11.9","","100","","","","36","","1","","19.3","","99.18","","","","","","Mainly Clear"
"-65.89","45.32","SAINT JOHN A","8104901","2019-08-10 03:00","2019","08","10","03:00","11.0","","11.0","","100","","","","36","","1","","19.3","","99.12","","","","","","NA"
"-65.89","45.32","SAINT JOHN A","8104901","2019-08-10 04:00","2019","08","10","04:00","12.0","","12.0","","100","","","","22","","5","","2.4","","99.18","","","","","","Fog"
"-65.89","45.32","SAINT JOHN A","8104901","2019-08-10 05:00","2019","08","10","05:00","11.3","","11.3","","100","","","","8","","6","","1.0","","99.13","","","","","","Fog"
"-65.89","45.32","SAINT JOHN A","8104901","2019-08-10 06:00","2019","08","10","06:00","12.0","","12.0","","100","","","","22","","9","","1.0","","99.13","","","","","","Fog"
"-65.89","45.32","SAINT JOHN A","8104901","2019-08-10 07:00","2019","08","10","07:00","13.6","","13.6","","100","","","","34","","5","","2.4","","99.16","","","","","","Thunderstorms,Rain,Fog"
"-65.89","45.32","SAINT JOHN A","8104901","2019-08-10 08:00","2019","08","10","08:00","15.2","","15.2","","100","","","","13","","9","","0.8","","99.11","","","","","","Fog"
"-65.89","45.32","SAINT JOHN A","8104901","2019-08-10 09:00","2019","08","10","09:00","15.8","","15.8","","100","","","","18","","15","","1.0","","99.15","","","","","","Fog"
"-65.89","45.32","SAINT JOHN A","8104901","2019-08-10 10:00","2019","08","10","10:00","16.7","","16.3","","97","","","","18","","13","","2.4","","99.11","","","","","","Fog"
"-65.89","45.32","SAINT JOHN A","8104901","2019-08-10 11:00","2019","08","10","11:00","16.8","","16.2","","96","","","","22","","17","","9.7","","99.13","","","","","","Fog"
"-65.89","45.32","SAINT JOHN A","8104901","2019-08-10 12:00","2019","08","10","12:00","18.6","","16.4","","87","","","","15","","15","","16.1","","99.08","","","","","","NA"
"-65.89","45.32","SAINT JOHN A","8104901","2019-08-10 13:00","2019","08","10","13:00","20.6","","16.0","","74","","","","21","","20","","24.1","","98.99","","25","","","","NA"
"-65.89","45.32","SAINT JOHN A","8104901","2019-08-10 14:00","2019","08","10","14:00","19.0","","15.9","","82","","","","20","","26","","24.1","","99.00","","","","","","Mainly Clear"
"-65.89","45.32","SAINT JOHN A","8104901","2019-08-10 15:00","2019","08","10","15:00","19.1","","14.5","","74","","","","24","","20","","24.1","","99.03","","","","","","NA"
"-65.89","45.32","SAINT JOHN A","8104901","2019-08-10 16:00","2019","08","10","16:00","19.5","","15.4","","77","","","","23","","10","","24.1","","99.05","","","","","","NA"
"-65.89","45.32","SAINT JOHN A","8104901","2019-08-10 17:00","2019","08","10","17:00","17.0","","16.2","","95","","","","23","","9","","9.7","","99.10","","","","","","Thunderstorms,Rain Showers,Fog"
"-65.89","45.32","SAINT JOHN A","8104901","2019-08-10 18:00","2019","08","10","18:00","18.0","","16.3","","90","","","","22","","11","","24.1","","99.11","","","","","","NA"
"-65.89","45.32","SAINT JOHN A","8104901","2019-08-10 19:00","2019","08","10","19:00","15.6","","15.0","","96","","","","20","","10","","24.1","","99.18","","","","","","NA"
"-65.89","45.32","SAINT JOHN A","8104901","2019-08-10 20:00","2019","08","10","20:00","14.7","","14.2","","97","","","","18","","9","","24.1","","99.21","","","","","","Mostly Cloudy"
"-65.89","45.32","SAINT JOHN A","8104901","2019-08-10 21:00","2019","08","10","21:00","14.4","","14.1","","98","","","","21","","5","","24.1","","99.25","","","","","","NA"
"-65.89","45.32","SAINT JOHN A","8104901","2019-08-10 22:00","2019","08","10","22:00","14.3","","13.8","","97","","","","21","","4","","24.1","","99.25","","","","","","NA"
"-65.89","45.32","SAINT JOHN A","8104901","2019-08-10 23:00","2019","08","10","23:00","14.5","","14.1","","97","","","","36","","3","","24.1","","99.26","","","","","","Mainly Clear"
"-65.89","45.32","SAINT JOHN A","8104901","2019-08-11 00:00","2019","08","11","00:00","12.1","","12.1","","100","","","","36","","3","","24.1","","99.25","","","","","","NA"
"-65.89","45.32","SAINT JOHN A","8104901","2019-08-11 01:00","2019","08","11","01:00","10.6","","10.5","","100","","","","23","","3","","24.1","","99.30","","","","","","NA"
"-65.89","45.32","SAINT JOHN A","8104901","2019-08-11 02:00","2019","08","11","02:00","11.1","","11.1","","100","","","","20","","10","","0.8","","99.33","","","","","","Fog"
"-65.89","45.32","SAINT JOHN A","8104901","2019-08-11 03:00","2019","08","11","03:00","10.7","","10.7","","100","","","","19","","4","","3.2","","99.38","","","","","","Fog"
"-65.89","45.32","SAINT JOHN A","8104901","2019-08-11 04:00","2019","08","11","04:00","10.6","","10.6","","100","","","","36","","2","","24.1","","99.37","","","","","","NA"
"-65.89","45.32","SAINT JOHN A","8104901","2019-08-11 05:00","2019","08","11","05:00","9.9","","9.9","","100","","","","36","","2","","24.1","","99.40","","","","","","Mainly Clear"
"-65.89","45.32","SAINT JOHN A","8104901","2019-08-11 06:00","2019","08","11","06:00","9.7","","9.7","","100","","","","36","","2","","24.1","","99.46","","","","","","NA"
"-65.89","45.32","SAINT JOHN A","8104901","2019-08-11 07:00","2019","08","11","07:00","14.3","","13.4","","94","","","","29","","13","","24.1","","99.50","","","","","","NA"
"-65.89","45.32","SAINT JOHN A","8104901","2019-08-11 08:00","2019","08","11","08:00","16.0","","13.6","","86","","","","28","","16","","24.1","","99.56","","","","","","Mainly Clear"
"-65.89","45.32","SAINT JOHN A","8104901","2019-08-11 09:00","2019","08","11","09:00","17.5","","13.1","","75","","","","26","","13","","24.1","","99.54","","","","","","NA"
"-65.89","45.32","SAINT JOHN A","8104901","2019-08-11 10:00","2019","08","11","10:00","18.9","","13.2","","69","","","","25","","15","","24.1","","99.54","","","","","","NA"
"-65.89","45.32","SAINT JOHN A","8104901","2019-08-11 11:00","2019","08","11","11:00","20.4","","14.0","","66","","","","22","","13","","24.1","","99.52","","","","","","Mostly Cloudy"
"-65.89","45.32","SAINT JOHN A","8104901","2019-08-11 12:00","2019","08","11","12:00","20.4","","15.0","","71","","","","24","","15","","24.1","","99.50","","","","","","NA"
"-65.89","45.32","SAINT JOHN A","8104901","2019-08-11 13:00","2019","08","11","13:00","17.2","","14.6","","85","","","","22","","19","","24.1","","99.50","","","","","","Rain Showers"
"-65.89","45.32","SAINT JOHN A","8104901","2019-08-11 14:00","2019","08","11","14:00","16.6","","14.6","","88","","","","23","","13","","24.1","","99.51","","","","","","Rain Showers"
"-65.89","45.32","SAINT JOHN A","8104901","2019-08-11 15:00","2019","08","11","15:00","18.6","","14.6","","77","","","","24","","12","","24.1","","99.48","","","","","","NA"
"-65.89","45.32","SAINT JOHN A","8104901","2019-08-11 16:00","2019","08","11","16:00","19.9","","12.2","","61","","","","26","","21","","24.1","","99.46","","","","","","NA"
"-65.89","45.32","SAINT JOHN A","8104901","2019-08-11 17:00","2019","08","11","17:00","19.4","","12.2","","63","","","","26","","23","","24.1","","99.48","","","","","","Mostly Cloudy"
"-65.89","45.32","SAINT JOHN A","8104901","2019-08-11 18:00","2019","08","11","18:00","18.0","","13.6","","75","","","","24","","11","","24.1","","99.53","","","","","","NA"
"-65.89","45.32","SAINT JOHN A","8104901","2019-08-11 19:00","2019","08","11","19:00","18.0","","13.6","","75","","","","25","","13","","24.1","","99.57","","","","","","NA"
"-65.89","45.32","SAINT JOHN A","8104901","2019-08-11 20:00","2019","08","11","20:00","17.6","","14.0","","79","","","","25","","13","","24.1","","99.59","","","","","","Cloudy"
"-65.89","45.32","SAINT JOHN A","8104901","2019-08-11 21:00","2019","08","11","21:00","16.3","","14.3","","88","","","","21","","11","","24.1","","99.62","","","","","","NA"
"-65.89","45.32","SAINT JOHN A","8104901","2019-08-11 22:00","2019","08","11","22:00","16.4","","13.7","","84","","","","24","","6","","24.1","","99.65","","","","","","NA"
"-65.89","45.32","SAINT JOHN A","8104901","2019-08-11 23:00","2019","08","11","23:00","16.8","","13.8","","82","","","","26","","6","","24.1","","99.63","","","","","","Cloudy"
"-65.89","45.32","SAINT JOHN A","8104901","2019-08-12 00:00","2019","08","12","00:00","17.1","","14.1","","82","","","","27","","7","","24.1","","99.64","","","","","","NA"
"-65.89","45.32","SAINT JOHN A","8104901","2019-08-12 01:00","2019","08","12","01:00","16.2","","13.9","","86","","","","25","","7","","24.1","","99.63","","","","","","NA"
"-65.89","45.32","SAINT JOHN A","8104901","2019-08-12 02:00","2019","08","12","02:00","13.3","","12.9","","97","","","","21","","9","","24.1","","99.64","","","","","","Mainly Clear"
"-65.89","45.32","SAINT JOHN A","8104901","2019-08-12 03:00","2019","08","12","03:00","12.9","","12.8","","99","","","","25","","7","","24.1","","99.62","","","","","","NA"
"-65.89","45.32","SAINT JOHN A","8104901","2019-08-12 04:00","2019","08","12","04:00","12.8","","12.7","","99","","","","0","","1","","24.1","","99.63","","","","","","NA"
"-65.89","45.32","SAINT JOHN A","8104901","2019-08-12 05:00","2019","08","12","05:00","14.1","","13.7","","97","","","","36","","2","","24.1","","99.64","","","","","","Mostly Cloudy"
"-65.89","45.32","SAINT JOHN A","8104901","2019-08-12 06:00","2019","08","12","06:00","14.8","","13.8","","94","","","","21","","4","","24.1","","99.66","","","","","","NA"
"-65.89","45.32","SAINT JOHN A","8104901","2019-08-12 07:00","2019","08","12","07:00","17.2","","14.0","","82","","","","25","","10","","24.1","","99.68","","","","","","NA"
"-65.89","45.32","SAINT JOHN A","8104901","2019-08-12 08:00","2019","08","12","08:00","19.4","","14.6","","73","","","","25","","13","","24.1","","99.69","","","","","","Mostly Cloudy"
"-65.89","45.32","SAINT JOHN A","8104901","2019-08-12 09:00","2019","08","12","09:00","20.2","","15.4","","74","","","","27","","12","","24.1","","99.72","","","","","","NA"
"-65.89","45.32","SAINT JOHN A","8104901","2019-08-12 10:00","2019","08","12","10:00","21.8","","16.3","","70","","","","26","","14","","24.1","","99.70","","27","","","","NA"
"-65.89","45.32","SAINT JOHN A","8104901","2019-08-12 11:00","2019","08","12","11:00","23.5","","15.9","","62","","","","26","","18","","24.1","","99.65","","28","","","","Mostly Cloudy"
"-65.89","45.32","SAINT JOHN A","8104901","2019-08-12 12:00","2019","08","12","12:00","24.0","","16.5","","63","","","","26","","22","","24.1","","99.66","","29","","","","NA"
"-65.89","45.32","SAINT JOHN A","8104901","2019-08-12 13:00","2019","08","12","13:00","24.1","","17.3","","65","","","","26","","13","","24.1","","99.63","","30","","","","NA"
"-65.89","45.32","SAINT JOHN A","8104901","2019-08-12 14:00","2019","08","12","14:00","24.2","","17.1","","64","","","","25","","16","","24.1","","99.60","","30","","","","Mostly Cloudy"
"-65.89","45.32","SAINT JOHN A","8104901","2019-08-12 15:00","2019","08","12","15:00","23.6","","16.9","","66","","","","20","","17","","24.1","","99.57","","29","","","","NA"
"-65.89","45.32","SAINT JOHN A","8104901","2019-08-12 16:00","2019","08","12","16:00","18.6","","17.6","","94","","","","21","","20","","16.1","","99.61","","","","","","Thunderstorms,Rain Showers"
"-65.89","45.32","SAINT JOHN A","8104901","2019-08-12 17:00","2019","08","12","17:00","19.8","","16.9","","83","","","","22","","17","","24.1","","99.61","","","","","","Mostly Cloudy"
"-65.89","45.32","SAINT JOHN A","8104901","2019-08-12 18:00","2019","08","12","18:00","18.1","","15.2","","83","","","","18","","14","","24.1","","99.57","","","","","","NA"
"-65.89","45.32","SAINT JOHN A","8104901","2019-08-12 19:00","2019","08","12","19:00","15.2","","15.0","","99","","","","19","","8","","16.1","","99.67","","","","","","Thunderstorms,Rain Showers"
"-65.89","45.32","SAINT JOHN A","8104901","2019-08-12 20:00","2019","08","12","20:00","15.4","","15.3","","100","","","","20","","8","","24.1","","99.63","","","","","","Thunderstorms"
"-65.89","45.32","SAINT JOHN A","8104901","2019-08-12 21:00","2019","08","12","21:00","15.4","","15.1","","98","","","","21","","16","","24.1","","99.67","","","","","","Thunderstorms,Rain Showers"
"-65.89","45.32","SAINT JOHN A","8104901","2019-08-12 22:00","2019","08","12","22:00","14.4","","14.3","","100","","","","18","","9","","24.1","","99.57","","","","","","NA"
"-65.89","45.32","SAINT JOHN A","8104901","2019-08-12 23:00","2019","08","12","23:00","14.3","","14.3","","100","","","","19","","14","","8.1","","99.53","","","","","","Fog"
"-65.89","45.32","SAINT JOHN A","8104901","2019-08-13 00:00","2019","08","13","00:00","14.1","","14.1","","100","","","","23","","7","","24.1","","99.50","","","","","","NA"
"-65.89","45.32","SAINT JOHN A","8104901","2019-08-13 01:00","2019","08","13","01:00","14.6","","14.6","","100","","","","20","","10","","8.1","","99.47","","","","","","Fog"
"-65.89","45.32","SAINT JOHN A","8104901","2019-08-13 02:00","2019","08","13","02:00","14.7","","14.7","","100","","","","19","","16","","0.4","","99.41","","","","","","Fog"
"-65.89","45.32","SAINT JOHN A","8104901","2019-08-13 03:00","2019","08","13","03:00","14.7","","14.7","","100","","","","20","","17","","0.8","","99.37","","","","","","Fog"
"-65.89","45.32","SAINT JOHN A","8104901","2019-08-13 04:00","2019","08","13","04:00","14.7","","14.7","","100","","","","21","","14","","4.8","","99.38","","","","","","Rain Showers,Fog"
"-65.89","45.32","SAINT JOHN A","8104901","2019-08-13 05:00","2019","08","13","05:00","14.5","","14.5","","100","","","","22","","4","","4.8","","99.40","","","","","","Rain Showers,Fog"
"-65.89","45.32","SAINT JOHN A","8104901","2019-08-13 06:00","2019","08","13","06:00","14.4","","14.4","","100","","","","13","","6","","3.2","","99.38","","","","","","Fog"
"-65.89","45.32","SAINT JOHN A","8104901","2019-08-13 07:00","2019","08","13","07:00","15.0","","15.0","","100","","","","20","","10","","3.2","","99.35","","","","","","Fog"
"-65.89","45.32","SAINT JOHN A","8104901","2019-08-13 08:00","2019","08","13","08:00","15.1","","15.1","","100","","","","20","","12","","3.2","","99.41","","","","","","Fog"
"-65.89","45.32","SAINT JOHN A","8104901","2019-08-13 09:00","2019","08","13","09:00","17.3","","16.8","","97","","","","20","","9","","9.7","","99.39","","","","","","Fog"
"-65.89","45.32","SAINT JOHN A","8104901","2019-08-13 10:00","2019","08","13","10:00","19.8","","17.7","","88","","","","20","","11","","16.1","","99.38","","","","","","NA"
"-65.89","45.32","SAINT JOHN A","8104901","2019-08-13 11:00","2019","08","13","11:00","22.0","","17.8","","77","","","","23","","6","","19.3","","99.34","","28","","","","Mostly Cloudy"
"-65.89","45.32","SAINT JOHN A","8104901","2019-08-13 12:00","2019","08","13","12:00","23.9","","19.2","","75","","","","20","","18","","19.3","","99.35","","31","","","","NA"
"-65.89","45.32","SAINT JOHN A","8104901","2019-08-13 13:00","2019","08","13","13:00","23.4","","18.8","","75","","","","21","","19","","19.3","","99.34","","30","","","","NA"
"-65.89","45.32","SAINT JOHN A","8104901","2019-08-13 14:00","2019","08","13","14:00","22.8","","18.0","","74","","","","23","","20","","19.3","","99.36","","29","","","","Mostly Cloudy"
"-65.89","45.32","SAINT JOHN A","8104901","2019-08-13 15:00","2019","08","13","15:00","23.4","","18.0","","71","","","","21","","22","","19.3","","99.36","","29","","","","NA"
"-65.89","45.32","SAINT JOHN A","8104901","2019-08-13 16:00","2019","08","13","16:00","23.4","","17.3","","68","","","","21","","21","","24.1","","99.34","","29","","","","NA"
"-65.89","45.32","SAINT JOHN A","8104901","2019-08-13 17:00","2019","08","13","17:00","23.9","","16.6","","63","","","","23","","15","","24.1","","99.35","","29","","","","Mostly Cloudy"
"-65.89","45.32","SAINT JOHN A","8104901","2019-08-13 18:00","2019","08","13","18:00","21.6","","16.5","","72","","","","23","","10","","24.1","","99.42","","27","","","","NA"
"-65.89","45.32","SAINT JOHN A","8104901","2019-08-13 19:00","2019","08","13","19:00","17.9","","15.6","","86","","","","20","","10","","24.1","","99.50","","","","","","NA"
"-65.89","45.32","SAINT JOHN A","8104901","2019-08-13 20:00","2019","08","13","20:00","16.0","","15.2","","95","","","","21","","4","","24.1","","99.56","","","","","","Mainly Clear"
"-65.89","45.32","SAINT JOHN A","8104901","2019-08-13 21:00","2019","08","13","21:00","15.3","","15.0","","98","","","","19","","7","","24.1","","99.67","","","","","","NA"
"-65.89","45.32","SAINT JOHN A","8104901","2019-08-13 22:00","2019","08","13","22:00","14.2","","14.1","","100","","","","6","","5","","24.1","","99.69","","","","","","NA"
"-65.89","45.32","SAINT JOHN A","8104901","2019-08-13 23:00","2019","08","13","23:00","14.4","","14.4","","100","","","","36","","1","","24.1","","99.74","","","","","","Mostly Cloudy"
"-65.89","45.32","SAINT JOHN A","8104901","2019-08-14 00:00","2019","08","14","00:00","13.3","","13.3","","100","","","","4","","4","","24.1","","99.77","","","","","","NA"
"-65.89","45.32","SAINT JOHN A","8104901","2019-08-14 01:00","2019","08","14","01:00","13.5","","13.5","","100","","","","36","","1","","24.1","","99.78","","","","","","NA"
"-65.89","45.32","SAINT JOHN A","8104901","2019-08-14 02:00","2019","08","14","02:00","11.8","","11.8","","100","","","","2","","4","","24.1","","99.77","","","","","","Mostly Cloudy"
"-65.89","45.32","SAINT JOHN A","8104901","2019-08-14 03:00","2019","08","14","03:00","11.0","","10.9","","99","","","","2","","3","","24.1","","99.75","","","","","","NA"
"-65.89","45.32","SAINT JOHN A","8104901","2019-08-14 04:00","2019","08","14","04:00","10.4","","10.1","","98","","","","16","","4","","24.1","","99.76","","","","","","NA"
"-65.89","45.32","SAINT JOHN A","8104901","2019-08-14 05:00","2019","08","14","05:00","9.1","","8.9","","99","","","","36","","2","","24.1","","99.81","","","","","","Mainly Clear"
"-65.89","45.32","SAINT JOHN A","8104901","2019-08-14 06:00","2019","08","14","06:00","9.7","","9.1","","96","","","","4","","5","","24.1","","99.86","","","","","","NA"
"-65.89","45.32","SAINT JOHN A","8104901","2019-08-14 07:00","2019","08","14","07:00","13.9","","12.0","","89","","","","4","","4","","24.1","","99.92","","","","","","NA"
"-65.89","45.32","SAINT JOHN A","8104901","2019-08-14 08:00","2019","08","14","08:00","18.2","","11.6","","65","","","","5","","6","","24.1","","99.96","","","","","","Mainly Clear"
"-65.89","45.32","SAINT JOHN A","8104901","2019-08-14 09:00","2019","08","14","09:00","20.3","","11.1","","55","","","","6","","9","","24.1","","99.96","","","","","","NA"
"-65.89","45.32","SAINT JOHN A","8104901","2019-08-14 10:00","2019","08","14","10:00","21.5","","11.3","","52","","","","9","","10","","24.1","","99.95","","","","","","NA"
"-65.89","45.32","SAINT JOHN A","8104901","2019-08-14 11:00","2019","08","14","11:00","21.9","","10.7","","49","","","","16","","4","","24.1","","99.94","","","","","","Mostly Cloudy"
"-65.89","45.32","SAINT JOHN A","8104901","2019-08-14 12:00","2019","08","14","12:00","23.4","","10.7","","44","","","","32","","12","","24.1","","99.89","","25","","","","NA"
"-65.89","45.32","SAINT JOHN A","8104901","2019-08-14 13:00","2019","08","14","13:00","23.8","","10.8","","44","","","","24","","5","","24.1","","99.86","","25","","","","NA"
"-65.89","45.32","SAINT JOHN A","8104901","2019-08-14 14:00","2019","08","14","14:00","23.8","","11.2","","45","","","","28","","4","","24.1","","99.84","","26","","","","Mostly Cloudy"
"-65.89","45.32","SAINT JOHN A","8104901","2019-08-14 15:00","2019","08","14","15:00","24.5","","11.5","","44","","","","36","","2","","24.1","","99.81","","27","","","","NA"
"-65.89","45.32","SAINT JOHN A","8104901","2019-08-14 16:00","2019","08","14","16:00","25.0","","10.8","","40","","","","32","","13","","24.1","","99.81","","27","","","","NA"
"-65.89","45.32","SAINT JOHN A","8104901","2019-08-14 17:00","2019","08","14","17:00","24.9","","12.7","","46","","","","34","","8","","24.1","","99.82","","28","","","","Clear"
"-65.89","45.32","SAINT JOHN A","8104901","2019-08-14 18:00","2019","08","14","18:00","23.3","","12.4","","50","","","","36","","9","","24.1","","99.86","","26","","","","NA"
"-65.89","45.32","SAINT JOHN A","8104901","2019-08-14 19:00","2019","08","14","19:00","21.3","","12.5","","57","","","","1","","9","","24.1","","99.89","","","","","","NA"
"-65.89","45.32","SAINT JOHN A","8104901","2019-08-14 20:00","2019","08","14","20:00","17.1","","14.4","","84","","","","18","","6","","24.1","","99.95","","","","","","Mainly Clear"
"-65.89","45.32","SAINT JOHN A","8104901","2019-08-14 21:00","2019","08","14","21:00","15.8","","13.0","","83","","","","22","","3","","24.1","","100.03","","","","","","NA"
"-65.89","45.32","SAINT JOHN A","8104901","2019-08-14 22:00","2019","08","14","22:00","13.8","","12.7","","93","","","","36","","2","","24.1","","100.04","","","","","","NA"
"-65.89","45.32","SAINT JOHN A","8104901","2019-08-14 23:00","2019","08","14","23:00","13.3","","12.2","","93","","","","36","","2","","24.1","","100.08","","","","","","Mostly Cloudy"
"-65.89","45.32","SAINT JOHN A","8104901","2019-08-15 00:00","2019","08","15","00:00","12.2","","11.7","","96","","","","6","","4","","24.1","","100.10","","","","","","NA"
"-65.89","45.32","SAINT JOHN A","8104901","2019-08-15 01:00","2019","08","15","01:00","12.3","","11.9","","98","","","","36","","1","","24.1","","100.12","","","","","","NA"
"-65.89","45.32","SAINT JOHN A","8104901","2019-08-15 02:00","2019","08","15","02:00","10.8","","10.8","","100","","","","36","","2","","24.1","","100.14","","","","","","Mostly Cloudy"
"-65.89","45.32","SAINT JOHN A","8104901","2019-08-15 03:00","2019","08","15","03:00","10.1","","10.1","","100","","","","7","","5","","24.1","","100.14","","","","","","NA"
"-65.89","45.32","SAINT JOHN A","8104901","2019-08-15 04:00","2019","08","15","04:00","8.9","","8.9","","100","","","","36","","3","","24.1","","100.17","","","","","","NA"
"-65.89","45.32","SAINT JOHN A","8104901","2019-08-15 05:00","2019","08","15","05:00","8.3","","8.3","","100","","","","6","","4","","24.1","","100.23","","","","","","Mainly Clear"
"-65.89","45.32","SAINT JOHN A","8104901","2019-08-15 06:00","2019","08","15","06:00","9.3","","9.3","","100","","","","7","","4","","24.1","","100.29","","","","","","NA"
"-65.89","45.32","SAINT JOHN A","8104901","2019-08-15 07:00","2019","08","15","07:00","14.6","","13.5","","93","","","","36","","1","","24.1","","100.32","","","","","","NA"
"-65.89","45.32","SAINT JOHN A","8104901","2019-08-15 08:00","2019","08","15","08:00","19.1","","13.7","","71","","","","3","","8","","24.1","","100.36","","","","","","Clear"
"-65.89","45.32","SAINT JOHN A","8104901","2019-08-15 09:00","2019","08","15","09:00","21.8","","13.3","","58","","","","2","","8","","24.1","","100.37","","25","","","","NA"
"-65.89","45.32","SAINT JOHN A","8104901","2019-08-15 10:00","2019","08","15","10:00","23.6","","12.7","","50","","","","3","","5","","24.1","","100.40","","26","","","","NA"
"-65.89","45.32","SAINT JOHN A","8104901","2019-08-15 11:00","2019","08","15","11:00","24.6","","11.2","","42","","","","26","","9","","24.1","","100.44","","26","","","","Mainly Clear"
"-65.89","45.32","SAINT JOHN A","8104901","2019-08-15 12:00","2019","08","15","12:00","24.4","","10.0","","40","","","","13","","3","","24.1","","100.45","","26","","","","NA"
"-65.89","45.32","SAINT JOHN A","8104901","2019-08-15 13:00","2019","08","15","13:00","26.1","","11.4","","39","","","","25","","10","","24.1","","100.43","","28","","","","NA"
"-65.89","45.32","SAINT JOHN A","8104901","2019-08-15 14:00","2019","08","15","14:00","25.8","","9.3","","35","","","","22","","15","","24.1","","100.42","","27","","","","Mainly Clear"
"-65.89","45.32","SAINT JOHN A","8104901","2019-08-15 15:00","2019","08","15","15:00","25.6","","8.7","","34","","","","20","","17","","24.1","","100.40","","26","","","","NA"
"-65.89","45.32","SAINT JOHN A","8104901","2019-08-15 16:00","2019","08","15","16:00","25.2","","8.8","","35","","","","22","","17","","24.1","","100.41","","26","","","","NA"
"-65.89","45.32","SAINT JOHN A","8104901","2019-08-15 17:00","2019","08","15","17:00","24.9","","9.6","","37","","","","21","","13","","24.1","","100.43","","26","","","","Mainly Clear"
"-65.89","45.32","SAINT JOHN A","8104901","2019-08-15 18:00","2019","08","15","18:00","24.0","","9.4","","39","","","","20","","10","","24.1","","100.45","","25","","","","NA"
"-65.89","45.32","SAINT JOHN A","8104901","2019-08-15 19:00","2019","08","15","19:00","21.5","","10.6","","49","","","","21","","8","","24.1","","100.47","","","","","","NA"
"-65.89","45.32","SAINT JOHN A","8104901","2019-08-15 20:00","2019","08","15","20:00","16.3","","11.8","","75","","","","36","","1","","24.1","","100.52","","","","","","Mainly Clear"
"-65.89","45.32","SAINT JOHN A","8104901","2019-08-15 21:00","2019","08","15","21:00","13.9","","12.0","","88","","","","36","","2","","24.1","","100.58","","","","","","NA"
"-65.89","45.32","SAINT JOHN A","8104901","2019-08-15 22:00","2019","08","15","22:00","11.4","","10.6","","95","","","","36","","1","","24.1","","100.63","","","","","","NA"
"-65.89","45.32","SAINT JOHN A","8104901","2019-08-15 23:00","2019","08","15","23:00","11.1","","10.0","","93","","","","4","","3","","24.1","","100.62","","","","","","Clear"
"-65.89","45.32","SAINT JOHN A","8104901","2019-08-16 00:00","2019","08","16","00:00","10.2","","9.5","","95","","","","1","","4","","24.1","","100.62","","","","","","NA"
"-65.89","45.32","SAINT JOHN A","8104901","2019-08-16 01:00","2019","08","16","01:00","8.9","","8.6","","98","","","","3","","3","","24.1","","100.62","","","","","","NA"
"-65.89","45.32","SAINT JOHN A","8104901","2019-08-16 02:00","2019","08","16","02:00","8.8","","7.9","","94","","","","34","","4","","24.1","","100.62","","","","","","Mainly Clear"
"-65.89","45.32","SAINT JOHN A","8104901","2019-08-16 03:00","2019","08","16","03:00","7.5","","7.3","","99","","","","36","","1","","24.1","","100.62","","","","","","NA"
"-65.89","45.32","SAINT JOHN A","8104901","2019-08-16 04:00","2019","08","16","04:00","10.4","","9.2","","93","","","","2","","5","","24.1","","100.61","","","","","","NA"
"-65.89","45.32","SAINT JOHN A","8104901","2019-08-16 05:00","2019","08","16","05:00","10.4","","9.0","","91","","","","4","","3","","24.1","","100.61","","","","","","Mainly Clear"
"-65.89","45.32","SAINT JOHN A","8104901","2019-08-16 06:00","2019","08","16","06:00","11.3","","9.9","","91","","","","1","","3","","24.1","","100.64","","","","","","NA"
"-65.89","45.32","SAINT JOHN A","8104901","2019-08-16 07:00","2019","08","16","07:00","15.3","","12.0","","80","","","","36","","2","","24.1","","100.66","","","","","","NA"
"-65.89","45.32","SAINT JOHN A","8104901","2019-08-16 08:00","2019","08","16","08:00","18.0","","13.9","","77","","","","13","","9","","24.1","","100.69","","","","","","Mostly Cloudy"
"-65.89","45.32","SAINT JOHN A","8104901","2019-08-16 09:00","2019","08","16","09:00","19.8","","15.1","","74","","","","14","","12","","24.1","","100.72","","","","","","NA"
"-65.89","45.32","SAINT JOHN A","8104901","2019-08-16 10:00","2019","08","16","10:00","20.9","","15.5","","71","","","","16","","15","","24.1","","100.77","","25","","","","NA"
"-65.89","45.32","SAINT JOHN A","8104901","2019-08-16 11:00","2019","08","16","11:00","23.3","","15.4","","61","","","","21","","12","","24.1","","100.75","","28","","","","Mostly Cloudy"
"-65.89","45.32","SAINT JOHN A","8104901","2019-08-16 12:00","2019","08","16","12:00","24.1","","14.9","","56","","","","19","","15","","24.1","","100.71","","28","","","","NA"
"-65.89","45.32","SAINT JOHN A","8104901","2019-08-16 13:00","2019","08","16","13:00","21.6","","14.9","","65","","","","21","","18","","24.1","","100.69","","26","","","","NA"
"-65.89","45.32","SAINT JOHN A","8104901","2019-08-16 14:00","2019","08","16","14:00","22.7","","13.6","","56","","","","26","","7","","24.1","","100.65","","26","","","","Mostly Cloudy"
"-65.89","45.32","SAINT JOHN A","8104901","2019-08-16 15:00","2019","08","16","15:00","24.8","","12.7","","46","","","","20","","14","","24.1","","100.59","","27","","","","NA"
"-65.89","45.32","SAINT JOHN A","8104901","2019-08-16 16:00","2019","08","16","16:00","23.6","","12.2","","48","","","","27","","9","","24.1","","100.56","","26","","","","NA"
"-65.89","45.32","SAINT JOHN A","8104901","2019-08-16 17:00","2019","08","16","17:00","23.8","","11.5","","46","","","","24","","7","","24.1","","100.56","","26","","","","Mostly Cloudy"
"-65.89","45.32","SAINT JOHN A","8104901","2019-08-16 18:00","2019","08","16","18:00","23.4","","11.2","","46","","","","29","","7","","24.1","","100.57","","25","","","","NA"
"-65.89","45.32","SAINT JOHN A","8104901","2019-08-16 19:00","2019","08","16","19:00","20.6","","13.8","","65","","","","20","","9","","24.1","","100.58","","","","","","NA"
"-65.89","45.32","SAINT JOHN A","8104901","2019-08-16 20:00","2019","08","16","20:00","18.0","","14.3","","79","","","","20","","9","","24.1","","100.60","","","","","","Mostly Cloudy"
"-65.89","45.32","SAINT JOHN A","8104901","2019-08-16 21:00","2019","08","16","21:00","16.4","","13.5","","83","","","","20","","9","","24.1","","100.65","","","","","","NA"
"-65.89","45.32","SAINT JOHN A","8104901","2019-08-16 22:00","2019","08","16","22:00","15.4","","13.9","","91","","","","36","","1","","24.1","","100.68","","","","","","NA"
"-65.89","45.32","SAINT JOHN A","8104901","2019-08-16 23:00","2019","08","16","23:00","13.9","","12.9","","94","","","","6","","3","","24.1","","100.69","","","","","","Mostly Cloudy"
"-65.89","45.32","SAINT JOHN A","8104901","2019-08-17 00:00","2019","08","17","00:00","13.6","","13.0","","97","","","","36","","2","","24.1","","100.74","","","","","","NA"
"-65.89","45.32","SAINT JOHN A","8104901","2019-08-17 01:00","2019","08","17","01:00","12.7","","11.9","","94","","","","24","","3","","24.1","","100.75","","","","","","NA"
"-65.89","45.32","SAINT JOHN A","8104901","2019-08-17 02:00","2019","08","17","02:00","12.2","","11.8","","97","","","","36","","1","","24.1","","100.73","","","","","","Mostly Cloudy"
"-65.89","45.32","SAINT JOHN A","8104901","2019-08-17 03:00","2019","08","17","03:00","11.9","","11.8","","99","","","","36","","1","","24.1","","100.73","","","","","","NA"
"-65.89","45.32","SAINT JOHN A","8104901","2019-08-17 04:00","2019","08","17","04:00","11.7","","11.3","","98","","","","6","","5","","24.1","","100.71","","","","","","NA"
"-65.89","45.32","SAINT JOHN A","8104901","2019-08-17 05:00","2019","08","17","05:00","13.0","","12.3","","96","","","","18","","8","","24.1","","100.73","","","","","","Cloudy"
"-65.89","45.32","SAINT JOHN A","8104901","2019-08-17 06:00","2019","08","17","06:00","13.9","","13.9","","100","","","","18","","3","","0.8","","100.73","","","","","","Fog"
"-65.89","45.32","SAINT JOHN A","8104901","2019-08-17 07:00","2019","08","17","07:00","14.5","","14.5","","100","","","","16","","5","","0.2","","100.78","","","","","","Fog"
"-65.89","45.32","SAINT JOHN A","8104901","2019-08-17 08:00","2019","08","17","08:00","15.9","","15.9","","100","","","","18","","10","","2.0","","100.79","","","","","","Fog"
"-65.89","45.32","SAINT JOHN A","8104901","2019-08-17 09:00","2019","08","17","09:00","16.9","","16.6","","98","","","","17","","5","","9.7","","100.79","","","","","","Fog"
"-65.89","45.32","SAINT JOHN A","8104901","2019-08-17 10:00","2019","08","17","10:00","18.6","","17.1","","91","","","","21","","8","","24.1","","100.81","","","","","","NA"
"-65.89","45.32","SAINT JOHN A","8104901","2019-08-17 11:00","2019","08","17","11:00","19.0","","17.3","","90","","","","16","","8","","24.1","","100.79","","","","","","Cloudy"
"-65.89","45.32","SAINT JOHN A","8104901","2019-08-17 12:00","2019","08","17","12:00","20.7","","17.2","","80","","","","20","","15","","24.1","","100.75","","26","","","","NA"
"-65.89","45.32","SAINT JOHN A","8104901","2019-08-17 13:00","2019","08","17","13:00","20.4","","16.9","","80","","","","17","","13","","24.1","","100.73","","26","","","","NA"
"-65.89","45.32","SAINT JOHN A","8104901","2019-08-17 14:00","2019","08","17","14:00","19.5","","16.7","","84","","","","19","","8","","24.1","","100.71","","","","","","Cloudy"
"-65.89","45.32","SAINT JOHN A","8104901","2019-08-17 15:00","2019","08","17","15:00","19.5","","17.1","","86","","","","22","","8","","24.1","","100.70","","","","","","NA"
"-65.89","45.32","SAINT JOHN A","8104901","2019-08-17 16:00","2019","08","17","16:00","19.4","","17.7","","90","","","","22","","14","","24.1","","100.71","","","","","","NA"
"-65.89","45.32","SAINT JOHN A","8104901","2019-08-17 17:00","2019","08","17","17:00","19.9","","16.7","","82","","","","22","","23","","24.1","","100.70","","","","","","Mostly Cloudy"
"-65.89","45.32","SAINT JOHN A","8104901","2019-08-17 18:00","2019","08","17","18:00","17.6","","16.5","","93","","","","20","","17","","24.1","","100.64","","","","","","NA"
"-65.89","45.32","SAINT JOHN A","8104901","2019-08-17 19:00","2019","08","17","19:00","16.9","","16.4","","97","","","","18","","7","","24.1","","100.62","","","","","","NA"
"-65.89","45.32","SAINT JOHN A","8104901","2019-08-17 20:00","2019","08","17","20:00","16.3","","16.2","","99","","","","20","","17","","24.1","","100.61","","","","","","Cloudy"
"-65.89","45.32","SAINT JOHN A","8104901","2019-08-17 21:00","2019","08","17","21:00","15.9","","15.9","","100","","","","22","","10","","4.8","","100.65","","","","","","Fog"
"-65.89","45.32","SAINT JOHN A","8104901","2019-08-17 22:00","2019","08","17","22:00","15.7","","15.7","","100","","","","20","","7","","1.2","","100.62","","","","","","Fog"
"-65.89","45.32","SAINT JOHN A","8104901","2019-08-17 23:00","2019","08","17","23:00","15.7","","15.7","","100","","","","20","","8","","0.8","","100.60","","","","","","Fog"
"-65.89","45.32","SAINT JOHN A","8104901","2019-08-18 00:00","2019","08","18","00:00","15.9","","15.9","","100","","","","19","","5","","0.4","","100.60","","","","","","Fog"
"-65.89","45.32","SAINT JOHN A","8104901","2019-08-18 01:00","2019","08","18","01:00","15.9","","15.9","","100","","","","16","","6","","0.8","","100.53","","","","","","Fog"
"-65.89","45.32","SAINT JOHN A","8104901","2019-08-18 02:00","2019","08","18","02:00","15.5","","15.5","","100","","","","17","","8","","3.2","","100.50","","","","","","Fog"
"-65.89","45.32","SAINT JOHN A","8104901","2019-08-18 03:00","2019","08","18","03:00","15.1","","15.1","","100","","","","19","","8","","3.2","","100.52","","","","","","Fog"
"-65.89","45.32","SAINT JOHN A","8104901","2019-08-18 04:00","2019","08","18","04:00","15.5","","15.5","","100","","","","16","","4","","24.1","","100.48","","","","","","NA"
"-65.89","45.32","SAINT JOHN A","8104901","2019-08-18 05:00","2019","08","18","05:00","15.8","","15.8","","100","","","","13","","10","","16.1","","100.48","","","","","","Rain Showers"
"-65.89","45.32","SAINT JOHN A","8104901","2019-08-18 06:00","2019","08","18","06:00","16.1","","16.1","","100","","","","36","","2","","4.8","","100.50","","","","","","Rain Showers,Fog"
"-65.89","45.32","SAINT JOHN A","8104901","2019-08-18 07:00","2019","08","18","07:00","16.3","","16.3","","100","","","","11","","8","","8.1","","100.49","","","","","","Rain Showers,Fog"
"-65.89","45.32","SAINT JOHN A","8104901","2019-08-18 08:00","2019","08","18","08:00","16.3","","16.3","","100","","","","8","","7","","6.4","","100.53","","","","","","Rain Showers,Fog"
"-65.89","45.32","SAINT JOHN A","8104901","2019-08-18 09:00","2019","08","18","09:00","16.6","","16.6","","100","","","","12","","21","","4.8","","100.42","","","","","","Rain Showers,Fog"
"-65.89","45.32","SAINT JOHN A","8104901","2019-08-18 10:00","2019","08","18","10:00","17.2","","17.2","","100","","","","13","","14","","4.8","","100.49","","","","","","Rain Showers,Fog"
"-65.89","45.32","SAINT JOHN A","8104901","2019-08-18 11:00","2019","08","18","11:00","18.6","","18.0","","96","","","","12","","16","","9.7","","100.45","","","","","","Rain Showers,Fog"
"-65.89","45.32","SAINT JOHN A","8104901","2019-08-18 12:00","2019","08","18","12:00","18.7","","17.4","","92","","","","14","","16","","12.9","","100.45","","","","","","NA"
"-65.89","45.32","SAINT JOHN A","8104901","2019-08-18 13:00","2019","08","18","13:00","18.4","","17.5","","95","","","","14","","10","","12.9","","100.45","","","","","","NA"
"-65.89","45.32","SAINT JOHN A","8104901","2019-08-18 14:00","2019","08","18","14:00","18.6","","18.5","","100","","","","11","","9","","9.7","","100.41","","","","","","Drizzle"
"-65.89","45.32","SAINT JOHN A","8104901","2019-08-18 15:00","2019","08","18","15:00","19.5","","19.3","","99","","","","12","","8","","16.1","","100.40","","","","","","Drizzle"
"-65.89","45.32","SAINT JOHN A","8104901","2019-08-18 16:00","2019","08","18","16:00","19.8","","19.7","","99","","","","15","","6","","16.1","","100.42","","","","","","Fog"
"-65.89","45.32","SAINT JOHN A","8104901","2019-08-18 17:00","2019","08","18","17:00","19.9","","19.8","","99","","","","0","","1","","12.9","","100.40","","","","","","Drizzle,Fog"
"-65.89","45.32","SAINT JOHN A","8104901","2019-08-18 18:00","2019","08","18","18:00","20.2","","20.2","","100","","","","17","","5","","16.1","","100.38","","28","","","","Drizzle,Fog"
"-65.89","45.32","SAINT JOHN A","8104901","2019-08-18 19:00","2019","08","18","19:00","20.0","","20.0","","100","","","","19","","5","","9.7","","100.39","","28","","","","Drizzle,Fog"
"-65.89","45.32","SAINT JOHN A","8104901","2019-08-18 20:00","2019","08","18","20:00","19.4","","19.4","","100","","","","14","","4","","4.0","","100.39","","","","","","Drizzle,Fog"
"-65.89","45.32","SAINT JOHN A","8104901","2019-08-18 21:00","2019","08","18","21:00","18.9","","18.9","","100","","","","15","","9","","3.2","","100.40","","","","","","Drizzle,Fog"
"-65.89","45.32","SAINT JOHN A","8104901","2019-08-18 22:00","2019","08","18","22:00","18.1","","18.1","","100","","","","17","","9","","3.2","","100.39","","","","","","Drizzle,Fog"
"-65.89","45.32","SAINT JOHN A","8104901","2019-08-18 23:00","2019","08","18","23:00","18.0","","18.0","","100","","","","14","","4","","1.6","","100.37","","","","","","Drizzle,Fog"
"-65.89","45.32","SAINT JOHN A","8104901","2019-08-19 00:00","2019","08","19","00:00","18.2","","18.2","","100","","","","18","","7","","1.2","","100.37","","","","","","Drizzle,Fog"
"-65.89","45.32","SAINT JOHN A","8104901","2019-08-19 01:00","2019","08","19","01:00","18.0","","18.0","","100","","","","17","","9","","1.2","","100.36","","","","","","Drizzle,Fog"
"-65.89","45.32","SAINT JOHN A","8104901","2019-08-19 02:00","2019","08","19","02:00","18.3","","18.3","","100","","","","18","","9","","1.0","","100.33","","","","","","Drizzle,Fog"
"-65.89","45.32","SAINT JOHN A","8104901","2019-08-19 03:00","2019","08","19","03:00","18.2","","18.2","","100","","","","18","","8","","0.6","","100.29","","","","","","Drizzle,Fog"
"-65.89","45.32","SAINT JOHN A","8104901","2019-08-19 04:00","2019","08","19","04:00","18.1","","18.1","","100","","","","19","","4","","1.0","","100.30","","","","","","Drizzle,Fog"
"-65.89","45.32","SAINT JOHN A","8104901","2019-08-19 05:00","2019","08","19","05:00","18.0","","18.0","","100","","","","19","","6","","1.0","","100.31","","","","","","Drizzle,Fog"
"-65.89","45.32","SAINT JOHN A","8104901","2019-08-19 06:00","2019","08","19","06:00","18.0","","18.0","","100","","","","18","","6","","0.6","","100.35","","","","","","Drizzle,Fog"
"-65.89","45.32","SAINT JOHN A","8104901","2019-08-19 07:00","2019","08","19","07:00","17.9","","17.9","","100","","","","18","","9","","0.4","","100.36","","","","","","Drizzle,Fog"
"-65.89","45.32","SAINT JOHN A","8104901","2019-08-19 08:00","2019","08","19","08:00","18.2","","18.2","","100","","","","18","","7","","0.8","","100.33","","","","","","Drizzle,Fog"
"-65.89","45.32","SAINT JOHN A","8104901","2019-08-19 09:00","2019","08","19","09:00","18.9","","18.9","","100","","","","18","","12","","1.2","","100.34","","","","","","Drizzle,Fog"
"-65.89","45.32","SAINT JOHN A","8104901","2019-08-19 10:00","2019","08","19","10:00","18.8","","18.8","","100","","","","21","","11","","0.8","","100.36","","","","","","Fog"
"-65.89","45.32","SAINT JOHN A","8104901","2019-08-19 11:00","2019","08","19","11:00","19.0","","19.0","","100","","","","21","","14","","1.6","","100.33","","","","","","Fog"
"-65.89","45.32","SAINT JOHN A","8104901","2019-08-19 12:00","2019","08","19","12:00","18.8","","18.8","","100","","","","19","","13","","3.2","","100.28","","","","","","Fog"
"-65.89","45.32","SAINT JOHN A","8104901","2019-08-19 13:00","2019","08","19","13:00","20.4","","19.6","","95","","","","17","","16","","9.7","","100.21","","28","","","","Fog"
"-65.89","45.32","SAINT JOHN A","8104901","2019-08-19 14:00","2019","08","19","14:00","21.4","","20.1","","92","","","","20","","16","","24.1","","100.16","","29","","","","Cloudy"
"-65.89","45.32","SAINT JOHN A","8104901","2019-08-19 15:00","2019","08","19","15:00","20.3","","20.1","","99","","","","21","","13","","16.1","","100.09","","28","","","","Rain Showers"
"-65.89","45.32","SAINT JOHN A","8104901","2019-08-19 16:00","2019","08","19","16:00","19.8","","19.8","","100","","","","19","","10","","3.2","","100.04","","","","","","Rain Showers,Fog"
"-65.89","45.32","SAINT JOHN A","8104901","2019-08-19 17:00","2019","08","19","17:00","18.9","","18.9","","100","","","","19","","18","","0.8","","99.98","","","","","","Drizzle,Fog"
"-65.89","45.32","SAINT JOHN A","8104901","2019-08-19 18:00","2019","08","19","18:00","18.3","","18.3","","100","","","","19","","17","","0.4","","99.96","","","","","","Drizzle,Fog"
"-65.89","45.32","SAINT JOHN A","8104901","2019-08-19 19:00","2019","08","19","19:00","17.5","","17.5","","100","","","","20","","21","","0.8","","99.99","","","","","","Drizzle,Fog"
"-65.89","45.32","SAINT JOHN A","8104901","2019-08-19 20:00","2019","08","19","20:00","16.9","","16.9","","100","","","","21","","20","","1.2","","100.00","","","","","","Drizzle,Fog"
"-65.89","45.32","SAINT JOHN A","8104901","2019-08-19 21:00","2019","08","19","21:00","17.3","","17.3","","100","","","","21","","14","","0.6","","100.00","","","","","","Drizzle,Fog"
"-65.89","45.32","SAINT JOHN A","8104901","2019-08-19 22:00","2019","08","19","22:00","17.6","","17.6","","100","","","","22","","10","","0.6","","100.01","","","","","","Drizzle,Fog"
"-65.89","45.32","SAINT JOHN A","8104901","2019-08-19 23:00","2019","08","19","23:00","16.9","","16.9","","100","","","","21","","13","","0.6","","99.99","","","","","","Drizzle,Fog"
"-65.89","45.32","SAINT JOHN A","8104901","2019-08-20 00:00","2019","08","20","00:00","17.0","","17.0","","100","","","","22","","13","","0.6","","99.93","","","","","","Drizzle,Fog"
"-65.89","45.32","SAINT JOHN A","8104901","2019-08-20 01:00","2019","08","20","01:00","16.9","","16.9","","100","","","","20","","9","","0.6","","99.89","","","","","","Drizzle,Fog"
"-65.89","45.32","SAINT JOHN A","8104901","2019-08-20 02:00","2019","08","20","02:00","16.8","","16.8","","100","","","","22","","9","","0.8","","99.91","","","","","","Drizzle,Fog"
"-65.89","45.32","SAINT JOHN A","8104901","2019-08-20 03:00","2019","08","20","03:00","16.2","","16.2","","100","","","","19","","7","","0.8","","99.93","","","","","","Drizzle,Fog"
"-65.89","45.32","SAINT JOHN A","8104901","2019-08-20 04:00","2019","08","20","04:00","15.6","","15.6","","100","","","","20","","7","","0.2","","99.95","","","","","","Drizzle,Fog"
"-65.89","45.32","SAINT JOHN A","8104901","2019-08-20 05:00","2019","08","20","05:00","15.2","","15.2","","100","","","","36","","1","","0.2","","100.00","","","","","","Drizzle,Fog"
"-65.89","45.32","SAINT JOHN A","8104901","2019-08-20 06:00","2019","08","20","06:00","15.6","","15.6","","100","","","","0","","1","","0.4","","100.07","","","","","","Drizzle,Fog"
"-65.89","45.32","SAINT JOHN A","8104901","2019-08-20 07:00","2019","08","20","07:00","17.9","","17.9","","100","","","","34","","8","","3.2","","100.16","","","","","","Fog"
"-65.89","45.32","SAINT JOHN A","8104901","2019-08-20 08:00","2019","08","20","08:00","20.1","","20.1","","100","","","","35","","15","","4.8","","100.18","","28","","","","Fog"
"-65.89","45.32","SAINT JOHN A","8104901","2019-08-20 09:00","2019","08","20","09:00","22.2","","19.1","","82","","","","34","","17","","24.1","","100.22","","29","","","","NA"
"-65.89","45.32","SAINT JOHN A","8104901","2019-08-20 10:00","2019","08","20","10:00","23.9","","17.6","","68","","","","34","","18","","24.1","","100.23","","30","","","","NA"
"-65.89","45.32","SAINT JOHN A","8104901","2019-08-20 11:00","2019","08","20","11:00","24.9","","16.5","","59","","","","36","","16","","24.1","","100.27","","30","","","","Mainly Clear"
"-65.89","45.32","SAINT JOHN A","8104901","2019-08-20 12:00","2019","08","20","12:00","25.5","","15.4","","53","","","","36","","19","","24.1","","100.26","","30","","","","NA"
"-65.89","45.32","SAINT JOHN A","8104901","2019-08-20 13:00","2019","08","20","13:00","26.3","","13.4","","44","","","","30","","18","","24.1","","100.24","","29","","","","NA"
"-65.89","45.32","SAINT JOHN A","8104901","2019-08-20 14:00","2019","08","20","14:00","26.8","","11.0","","37","","","","31","","20","","24.1","","100.22","","29","","","","Clear"
"-65.89","45.32","SAINT JOHN A","8104901","2019-08-20 15:00","2019","08","20","15:00","27.0","","11.2","","37","","","","32","","11","","24.1","","100.20","","29","","","","NA"
"-65.89","45.32","SAINT JOHN A","8104901","2019-08-20 16:00","2019","08","20","16:00","26.9","","11.1","","37","","","","29","","8","","24.1","","100.18","","29","","","","NA"
"-65.89","45.32","SAINT JOHN A","8104901","2019-08-20 17:00","2019","08","20","17:00","26.2","","13.7","","45","","","","25","","12","","24.1","","100.24","","29","","","","Clear"
"-65.89","45.32","SAINT JOHN A","8104901","2019-08-20 18:00","2019","08","20","18:00","24.7","","13.8","","50","","","","22","","12","","24.1","","100.26","","28","","","","NA"
"-65.89","45.32","SAINT JOHN A","8104901","2019-08-20 19:00","2019","08","20","19:00","22.4","","14.5","","61","","","","25","","4","","24.1","","100.30","","26","","","","NA"
"-65.89","45.32","SAINT JOHN A","8104901","2019-08-20 20:00","2019","08","20","20:00","18.0","","15.3","","84","","","","20","","5","","24.1","","100.31","","","","","","Clear"
"-65.89","45.32","SAINT JOHN A","8104901","2019-08-20 21:00","2019","08","20","21:00","15.3","","14.2","","93","","","","36","","1","","24.1","","100.34","","","","","","NA"
"-65.89","45.32","SAINT JOHN A","8104901","2019-08-20 22:00","2019","08","20","22:00","14.7","","13.4","","92","","","","19","","4","","24.1","","100.36","","","","","","NA"
"-65.89","45.32","SAINT JOHN A","8104901","2019-08-20 23:00","2019","08","20","23:00","11.9","","11.9","","100","","","","36","","2","","24.1","","100.37","","","","","","Clear"
"-65.89","45.32","SAINT JOHN A","8104901","2019-08-21 00:00","2019","08","21","00:00","11.5","","11.4","","99","","","","0","","1","","24.1","","100.37","","","","","","NA"
"-65.89","45.32","SAINT JOHN A","8104901","2019-08-21 01:00","2019","08","21","01:00","11.8","","11.5","","98","","","","0","","1","","24.1","","100.40","","","","","","NA"
"-65.89","45.32","SAINT JOHN A","8104901","2019-08-21 02:00","2019","08","21","02:00","10.9","","10.8","","99","","","","0","","1","","24.1","","100.40","","","","","","Clear"
"-65.89","45.32","SAINT JOHN A","8104901","2019-08-21 03:00","2019","08","21","03:00","10.1","","10.0","","99","","","","0","","1","","24.1","","100.37","","","","","","NA"
"-65.89","45.32","SAINT JOHN A","8104901","2019-08-21 04:00","2019","08","21","04:00","10.5","","10.5","","100","","","","5","","3","","24.1","","100.36","","","","","","NA"
"-65.89","45.32","SAINT JOHN A","8104901","2019-08-21 05:00","2019","08","21","05:00","9.5","","9.4","","100","","","","0","","1","","24.1","","100.42","","","","","","Clear"
"-65.89","45.32","SAINT JOHN A","8104901","2019-08-21 06:00","2019","08","21","06:00","9.6","","9.6","","100","","","","36","","1","","24.1","","100.39","","","","","","NA"
"-65.89","45.32","SAINT JOHN A","8104901","2019-08-21 07:00","2019","08","21","07:00","14.8","","14.0","","95","","","","18","","8","","24.1","","100.44","","","","","","NA"
"-65.89","45.32","SAINT JOHN A","8104901","2019-08-21 08:00","2019","08","21","08:00","18.7","","15.0","","79","","","","20","","13","","24.1","","100.42","","","","","","Mostly Cloudy"
"-65.89","45.32","SAINT JOHN A","8104901","2019-08-21 09:00","2019","08","21","09:00","21.3","","14.3","","64","","","","21","","9","","24.1","","100.43","","25","","","","NA"
"-65.89","45.32","SAINT JOHN A","8104901","2019-08-21 10:00","2019","08","21","10:00","21.5","","14.7","","65","","","","20","","21","","24.1","","100.45","","25","","","","NA"
"-65.89","45.32","SAINT JOHN A","8104901","2019-08-21 11:00","2019","08","21","11:00","21.8","","14.7","","64","","","","21","","19","","24.1","","100.45","","26","","","","Mostly Cloudy"
"-65.89","45.32","SAINT JOHN A","8104901","2019-08-21 12:00","2019","08","21","12:00","24.0","","15.8","","59","","","","20","","18","","24.1","","100.38","","28","","","","NA"
"-65.89","45.32","SAINT JOHN A","8104901","2019-08-21 13:00","2019","08","21","13:00","23.7","","15.7","","61","","","","22","","24","","24.1","","100.32","","28","","","","NA"
"-65.89","45.32","SAINT JOHN A","8104901","2019-08-21 14:00","2019","08","21","14:00","22.2","","14.8","","62","","","","20","","18","","24.1","","100.27","","26","","","","Mostly Cloudy"
"-65.89","45.32","SAINT JOHN A","8104901","2019-08-21 15:00","2019","08","21","15:00","24.2","","13.1","","49","","","","20","","29","","24.1","","100.23","","27","","","","NA"
"-65.89","45.32","SAINT JOHN A","8104901","2019-08-21 16:00","2019","08","21","16:00","22.6","","13.6","","57","","","","20","","22","","24.1","","100.25","","26","","","","NA"
"-65.89","45.32","SAINT JOHN A","8104901","2019-08-21 17:00","2019","08","21","17:00","20.1","","14.8","","71","","","","20","","19","","24.1","","100.21","","","","","","Cloudy"
"-65.89","45.32","SAINT JOHN A","8104901","2019-08-21 18:00","2019","08","21","18:00","19.1","","14.9","","76","","","","18","","15","","24.1","","100.20","","","","","","NA"
"-65.89","45.32","SAINT JOHN A","8104901","2019-08-21 19:00","2019","08","21","19:00","18.5","","15.1","","80","","","","22","","16","","19.3","","100.19","","","","","","NA"
"-65.89","45.32","SAINT JOHN A","8104901","2019-08-21 20:00","2019","08","21","20:00","17.6","","15.1","","85","","","","21","","9","","19.3","","100.21","","","","","","Cloudy"
"-65.89","45.32","SAINT JOHN A","8104901","2019-08-21 21:00","2019","08","21","21:00","18.2","","15.2","","82","","","","22","","12","","19.3","","100.16","","","","","","NA"
"-65.89","45.32","SAINT JOHN A","8104901","2019-08-21 22:00","2019","08","21","22:00","17.1","","16.5","","96","","","","14","","7","","24.1","","100.09","","","","","","Rain Showers"
"-65.89","45.32","SAINT JOHN A","8104901","2019-08-21 23:00","2019","08","21","23:00","16.8","","16.1","","96","","","","13","","9","","24.1","","100.00","","","","","","Rain Showers"
"-65.89","45.32","SAINT JOHN A","8104901","2019-08-22 00:00","2019","08","22","00:00","16.7","","16.4","","98","","","","36","","2","","8.1","","99.96","","","","","","Rain Showers,Fog"
"-65.89","45.32","SAINT JOHN A","8104901","2019-08-22 01:00","2019","08","22","01:00","16.5","","16.3","","99","","","","11","","12","","16.1","","99.83","","","","","","NA"
"-65.89","45.32","SAINT JOHN A","8104901","2019-08-22 02:00","2019","08","22","02:00","15.9","","15.9","","100","","","","13","","10","","12.9","","99.76","","","","","","Cloudy"
"-65.89","45.32","SAINT JOHN A","8104901","2019-08-22 03:00","2019","08","22","03:00","16.4","","16.1","","98","","","","12","","22","","8.1","","99.67","","","","","","Fog"
"-65.89","45.32","SAINT JOHN A","8104901","2019-08-22 04:00","2019","08","22","04:00","16.8","","16.8","","100","","","","13","","18","","3.2","","99.57","","","","","","Fog"
"-65.89","45.32","SAINT JOHN A","8104901","2019-08-22 05:00","2019","08","22","05:00","17.6","","17.6","","100","","","","16","","14","","1.2","","99.54","","","","","","Rain Showers,Fog"
"-65.89","45.32","SAINT JOHN A","8104901","2019-08-22 06:00","2019","08","22","06:00","17.7","","17.7","","100","","","","19","","17","","0.8","","99.55","","","","","","Rain Showers,Fog"
"-65.89","45.32","SAINT JOHN A","8104901","2019-08-22 07:00","2019","08","22","07:00","17.5","","17.5","","100","","","","23","","9","","0.4","","99.58","","","","","","Fog"
"-65.89","45.32","SAINT JOHN A","8104901","2019-08-22 08:00","2019","08","22","08:00","17.9","","17.9","","100","","","","25","","7","","0.8","","99.61","","","","","","Fog"
"-65.89","45.32","SAINT JOHN A","8104901","2019-08-22 09:00","2019","08","22","09:00","18.9","","18.9","","100","","","","27","","4","","3.2","","99.59","","","","","","Fog"
"-65.89","45.32","SAINT JOHN A","8104901","2019-08-22 10:00","2019","08","22","10:00","20.0","","19.6","","98","","","","26","","6","","3.2","","99.63","","27","","","","Fog"
"-65.89","45.32","SAINT JOHN A","8104901","2019-08-22 11:00","2019","08","22","11:00","21.8","","20.2","","91","","","","21","","14","","4.8","","99.60","","30","","","","Fog"
"-65.89","45.32","SAINT JOHN A","8104901","2019-08-22 12:00","2019","08","22","12:00","21.0","","19.8","","93","","","","22","","18","","4.8","","99.66","","28","","","","Fog"
"-65.89","45.32","SAINT JOHN A","8104901","2019-08-22 13:00","2019","08","22","13:00","21.0","","19.4","","91","","","","21","","16","","9.7","","99.64","","28","","","","Fog"
"-65.89","45.32","SAINT JOHN A","8104901","2019-08-22 14:00","2019","08","22","14:00","19.8","","19.3","","97","","","","20","","20","","3.2","","99.62","","","","","","Fog"
"-65.89","45.32","SAINT JOHN A","8104901","2019-08-22 15:00","2019","08","22","15:00","21.0","","19.4","","90","","","","20","","20","","9.7","","99.61","","28","","","","Fog"
"-65.89","45.32","SAINT JOHN A","8104901","2019-08-22 16:00","2019","08","22","16:00","18.6","","18.4","","98","","","","21","","14","","1.6","","99.63","","","","","","Fog"
"-65.89","45.32","SAINT JOHN A","8104901","2019-08-22 17:00","2019","08","22","17:00","18.9","","18.2","","96","","","","19","","17","","3.2","","99.59","","","","","","Fog"
"-65.89","45.32","SAINT JOHN A","8104901","2019-08-22 18:00","2019","08","22","18:00","17.5","","17.5","","100","","","","20","","14","","1.6","","99.59","","","","","","Fog"
"-65.89","45.32","SAINT JOHN A","8104901","2019-08-22 19:00","2019","08","22","19:00","17.3","","17.3","","100","","","","21","","10","","0.8","","99.59","","","","","","Fog"
"-65.89","45.32","SAINT JOHN A","8104901","2019-08-22 20:00","2019","08","22","20:00","16.6","","16.6","","100","","","","21","","10","","0.8","","99.65","","","","","","Fog"
"-65.89","45.32","SAINT JOHN A","8104901","2019-08-22 21:00","2019","08","22","21:00","16.7","","16.7","","100","","","","20","","19","","0.8","","99.61","","","","","","Fog"
"-65.89","45.32","SAINT JOHN A","8104901","2019-08-22 22:00","2019","08","22","22:00","16.3","","16.3","","100","","","","20","","13","","0.8","","99.61","","","","","","Fog"
"-65.89","45.32","SAINT JOHN A","8104901","2019-08-22 23:00","2019","08","22","23:00","15.9","","15.9","","100","","","","22","","8","","0.8","","99.59","","","","","","Fog"
"-65.89","45.32","SAINT JOHN A","8104901","2019-08-23 00:00","2019","08","23","00:00","15.9","","15.9","","100","","","","20","","9","","0.8","","99.58","","","","","","Fog"
"-65.89","45.32","SAINT JOHN A","8104901","2019-08-23 01:00","2019","08","23","01:00","15.6","","15.6","","100","","","","22","","5","","0.8","","99.61","","","","","","Fog"
"-65.89","45.32","SAINT JOHN A","8104901","2019-08-23 02:00","2019","08","23","02:00","15.6","","15.6","","100","","","","22","","3","","0.8","","99.59","","","","","","Fog"
"-65.89","45.32","SAINT JOHN A","8104901","2019-08-23 03:00","2019","08","23","03:00","15.2","","15.2","","100","","","","19","","4","","0.8","","99.61","","","","","","Fog"
"-65.89","45.32","SAINT JOHN A","8104901","2019-08-23 04:00","2019","08","23","04:00","15.2","","15.2","","100","","","","33","","5","","0.8","","99.63","","","","","","Fog"
"-65.89","45.32","SAINT JOHN A","8104901","2019-08-23 05:00","2019","08","23","05:00","15.4","","15.4","","100","","","","36","","1","","9.7","","99.61","","","","","","Fog"
"-65.89","45.32","SAINT JOHN A","8104901","2019-08-23 06:00","2019","08","23","06:00","15.3","","15.3","","100","","","","36","","2","","19.3","","99.67","","","","","","NA"
"-65.89","45.32","SAINT JOHN A","8104901","2019-08-23 07:00","2019","08","23","07:00","17.1","","17.1","","100","","","","","","0","","19.3","","99.71","","","","","","NA"
"-65.89","45.32","SAINT JOHN A","8104901","2019-08-23 08:00","2019","08","23","08:00","18.4","","17.5","","95","","","","27","","4","","24.1","","99.76","","","","","","Mainly Clear"
"-65.89","45.32","SAINT JOHN A","8104901","2019-08-23 09:00","2019","08","23","09:00","20.1","","16.5","","79","","","","26","","6","","24.1","","99.76","","25","","","","NA"
"-65.89","45.32","SAINT JOHN A","8104901","2019-08-23 10:00","2019","08","23","10:00","22.1","","15.5","","66","","","","23","","11","","24.1","","99.77","","26","","","","NA"
"-65.89","45.32","SAINT JOHN A","8104901","2019-08-23 11:00","2019","08","23","11:00","22.9","","15.1","","61","","","","25","","12","","24.1","","99.78","","27","","","","Mainly Clear"
"-65.89","45.32","SAINT JOHN A","8104901","2019-08-23 12:00","2019","08","23","12:00","24.4","","15.0","","55","","","","24","","13","","24.1","","99.71","","28","","","","NA"
"-65.89","45.32","SAINT JOHN A","8104901","2019-08-23 13:00","2019","08","23","13:00","24.7","","12.9","","47","","","","28","","20","","24.1","","99.69","","27","","","","NA"
"-65.89","45.32","SAINT JOHN A","8104901","2019-08-23 14:00","2019","08","23","14:00","25.3","","12.3","","44","","","","26","","18","","24.1","","99.67","","28","","","","Mostly Cloudy"
"-65.89","45.32","SAINT JOHN A","8104901","2019-08-23 15:00","2019","08","23","15:00","24.5","","13.8","","51","","","","23","","18","","24.1","","99.67","","28","","","","NA"
"-65.89","45.32","SAINT JOHN A","8104901","2019-08-23 16:00","2019","08","23","16:00","24.6","","13.2","","49","","","","23","","17","","24.1","","99.68","","28","","","","NA"
"-65.89","45.32","SAINT JOHN A","8104901","2019-08-23 17:00","2019","08","23","17:00","24.4","","11.6","","44","","","","27","","15","","24.1","","99.71","","26","","","","Mainly Clear"
"-65.89","45.32","SAINT JOHN A","8104901","2019-08-23 18:00","2019","08","23","18:00","22.6","","11.7","","50","","","","29","","14","","24.1","","99.77","","25","","","","NA"
"-65.89","45.32","SAINT JOHN A","8104901","2019-08-23 19:00","2019","08","23","19:00","21.4","","10.4","","49","","","","30","","19","","24.1","","99.83","","","","","","NA"
"-65.89","45.32","SAINT JOHN A","8104901","2019-08-23 20:00","2019","08","23","20:00","19.6","","11.4","","59","","","","28","","12","","24.1","","99.90","","","","","","Mostly Cloudy"
"-65.89","45.32","SAINT JOHN A","8104901","2019-08-23 21:00","2019","08","23","21:00","18.6","","11.3","","62","","","","31","","14","","24.1","","99.90","","","","","","NA"
"-65.89","45.32","SAINT JOHN A","8104901","2019-08-23 22:00","2019","08","23","22:00","18.0","","10.6","","62","","","","31","","12","","24.1","","99.93","","","","","","NA"
"-65.89","45.32","SAINT JOHN A","8104901","2019-08-23 23:00","2019","08","23","23:00","16.8","","10.8","","67","","","","32","","15","","24.1","","99.99","","","","","","Mostly Cloudy"
"-65.89","45.32","SAINT JOHN A","8104901","2019-08-24 00:00","2019","08","24","00:00","16.0","","10.8","","71","","","","31","","14","","24.1","","100.02","","","","","","NA"
"-65.89","45.32","SAINT JOHN A","8104901","2019-08-24 01:00","2019","08","24","01:00","15.5","","10.9","","74","","","","32","","14","","24.1","","100.05","","","","","","NA"
"-65.89","45.32","SAINT JOHN A","8104901","2019-08-24 02:00","2019","08","24","02:00","15.2","","11.1","","76","","","","31","","11","","24.1","","100.05","","","","","","Mostly Cloudy"
"-65.89","45.32","SAINT JOHN A","8104901","2019-08-24 03:00","2019","08","24","03:00","14.5","","11.3","","81","","","","32","","13","","24.1","","100.09","","","","","","NA"
"-65.89","45.32","SAINT JOHN A","8104901","2019-08-24 04:00","2019","08","24","04:00","13.4","","11.4","","88","","","","32","","14","","24.1","","100.18","","","","","","NA"
"-65.89","45.32","SAINT JOHN A","8104901","2019-08-24 05:00","2019","08","24","05:00","13.2","","11.6","","90","","","","35","","10","","24.1","","100.24","","","","","","Mainly Clear"
"-65.89","45.32","SAINT JOHN A","8104901","2019-08-24 06:00","2019","08","24","06:00","13.4","","12.0","","91","","","","36","","16","","24.1","","100.33","","","","","","NA"
"-65.89","45.32","SAINT JOHN A","8104901","2019-08-24 07:00","2019","08","24","07:00","14.8","","12.4","","85","","","","35","","25","","24.1","","100.40","","","","","","NA"
"-65.89","45.32","SAINT JOHN A","8104901","2019-08-24 08:00","2019","08","24","08:00","16.2","","13.0","","81","","","","1","","29","","24.1","","100.51","","","","","","Mainly Clear"
"-65.89","45.32","SAINT JOHN A","8104901","2019-08-24 09:00","2019","08","24","09:00","18.1","","13.3","","73","","","","1","","28","","24.1","","100.60","","","","","","NA"
"-65.89","45.32","SAINT JOHN A","8104901","2019-08-24 10:00","2019","08","24","10:00","19.1","","13.2","","68","","","","36","","22","","24.1","","100.68","","","","","","NA"
"-65.89","45.32","SAINT JOHN A","8104901","2019-08-24 11:00","2019","08","24","11:00","17.6","","13.3","","76","","","","36","","27","","24.1","","100.73","","","","","","Mostly Cloudy"
"-65.89","45.32","SAINT JOHN A","8104901","2019-08-24 12:00","2019","08","24","12:00","18.1","","12.4","","69","","","","2","","29","","24.1","","100.76","","","","","","NA"
"-65.89","45.32","SAINT JOHN A","8104901","2019-08-24 13:00","2019","08","24","13:00","19.2","","12.2","","64","","","","3","","29","","24.1","","100.83","","","","","","NA"
"-65.89","45.32","SAINT JOHN A","8104901","2019-08-24 14:00","2019","08","24","14:00","19.2","","12.0","","63","","","","5","","18","","24.1","","100.88","","","","","","Mostly Cloudy"
"-65.89","45.32","SAINT JOHN A","8104901","2019-08-24 15:00","2019","08","24","15:00","18.8","","12.2","","65","","","","3","","24","","24.1","","100.94","","","","","","NA"
"-65.89","45.32","SAINT JOHN A","8104901","2019-08-24 16:00","2019","08","24","16:00","18.8","","12.3","","65","","","","1","","23","","24.1","","100.97","","","","","","NA"
"-65.89","45.32","SAINT JOHN A","8104901","2019-08-24 17:00","2019","08","24","17:00","17.2","","11.4","","68","","","","5","","25","","24.1","","101.04","","","","","","Mostly Cloudy"
"-65.89","45.32","SAINT JOHN A","8104901","2019-08-24 18:00","2019","08","24","18:00","16.2","","10.6","","69","","","","4","","26","","24.1","","101.14","","","","","","NA"
"-65.89","45.32","SAINT JOHN A","8104901","2019-08-24 19:00","2019","08","24","19:00","14.3","","9.5","","73","","","","4","","13","","24.1","","101.24","","","","","","NA"
"-65.89","45.32","SAINT JOHN A","8104901","2019-08-24 20:00","2019","08","24","20:00","11.4","","9.4","","87","","","","5","","12","","24.1","","101.34","","","","","","Mainly Clear"
"-65.89","45.32","SAINT JOHN A","8104901","2019-08-24 21:00","2019","08","24","21:00","9.3","","8.6","","95","","","","7","","6","","24.1","","101.39","","","","","","NA"
"-65.89","45.32","SAINT JOHN A","8104901","2019-08-24 22:00","2019","08","24","22:00","7.5","","7.4","","99","","","","5","","5","","24.1","","101.40","","","","","","NA"
"-65.89","45.32","SAINT JOHN A","8104901","2019-08-24 23:00","2019","08","24","23:00","6.2","","6.2","","100","","","","6","","5","","24.1","","101.44","","","","","","Mainly Clear"
"-65.89","45.32","SAINT JOHN A","8104901","2019-08-25 00:00","2019","08","25","00:00","5.1","","5.1","","100","","","","2","","6","","24.1","","101.46","","","","","","NA"
"-65.89","45.32","SAINT JOHN A","8104901","2019-08-25 01:00","2019","08","25","01:00","4.8","","4.7","","99","","","","","","0","","24.1","","101.48","","","","","","NA"
"-65.89","45.32","SAINT JOHN A","8104901","2019-08-25 02:00","2019","08","25","02:00","5.2","","4.8","","97","","","","5","","4","","24.1","","101.49","","","","","","Clear"
"-65.89","45.32","SAINT JOHN A","8104901","2019-08-25 03:00","2019","08","25","03:00","6.5","","6.5","","100","","","","2","","7","","24.1","","101.49","","","","","","NA"
"-65.89","45.32","SAINT JOHN A","8104901","2019-08-25 04:00","2019","08","25","04:00","6.8","","6.8","","100","","","","6","","6","","24.1","","101.52","","","","","","NA"
"-65.89","45.32","SAINT JOHN A","8104901","2019-08-25 05:00","2019","08","25","05:00","6.9","","6.9","","100","","","","5","","8","","24.1","","101.55","","","","","","Mainly Clear"
"-65.89","45.32","SAINT JOHN A","8104901","2019-08-25 06:00","2019","08","25","06:00","6.6","","6.6","","100","","","","5","","7","","24.1","","101.57","","","","","","NA"
"-65.89","45.32","SAINT JOHN A","8104901","2019-08-25 07:00","2019","08","25","07:00","10.3","","10.1","","98","","","","3","","12","","24.1","","101.61","","","","","","NA"
"-65.89","45.32","SAINT JOHN A","8104901","2019-08-25 08:00","2019","08","25","08:00","13.0","","11.3","","89","","","","3","","11","","24.1","","101.66","","","","","","Clear"
"-65.89","45.32","SAINT JOHN A","8104901","2019-08-25 09:00","2019","08","25","09:00","15.3","","10.9","","75","","","","1","","16","","24.1","","101.68","","","","","","NA"
"-65.89","45.32","SAINT JOHN A","8104901","2019-08-25 10:00","2019","08","25","10:00","17.2","","10.9","","66","","","","6","","11","","24.1","","101.66","","","","","","NA"
"-65.89","45.32","SAINT JOHN A","8104901","2019-08-25 11:00","2019","08","25","11:00","18.7","","10.4","","58","","","","2","","15","","24.1","","101.65","","","","","","Mainly Clear"
"-65.89","45.32","SAINT JOHN A","8104901","2019-08-25 12:00","2019","08","25","12:00","20.0","","10.4","","54","","","","35","","19","","24.1","","101.60","","","","","","NA"
"-65.89","45.32","SAINT JOHN A","8104901","2019-08-25 13:00","2019","08","25","13:00","19.6","","11.0","","57","","","","36","","8","","24.1","","101.56","","","","","","NA"
"-65.89","45.32","SAINT JOHN A","8104901","2019-08-25 14:00","2019","08","25","14:00","20.7","","9.8","","49","","","","13","","11","","24.1","","101.51","","","","","","Mainly Clear"
"-65.89","45.32","SAINT JOHN A","8104901","2019-08-25 15:00","2019","08","25","15:00","20.1","","9.3","","49","","","","13","","14","","24.1","","101.45","","","","","","NA"
"-65.89","45.32","SAINT JOHN A","8104901","2019-08-25 16:00","2019","08","25","16:00","20.0","","9.3","","50","","","","11","","16","","24.1","","101.41","","","","","","NA"
"-65.89","45.32","SAINT JOHN A","8104901","2019-08-25 17:00","2019","08","25","17:00","20.1","","10.6","","54","","","","12","","12","","24.1","","101.39","","","","","","Mainly Clear"
"-65.89","45.32","SAINT JOHN A","8104901","2019-08-25 18:00","2019","08","25","18:00","19.1","","10.4","","57","","","","12","","9","","24.1","","101.38","","","","","","NA"
"-65.89","45.32","SAINT JOHN A","8104901","2019-08-25 19:00","2019","08","25","19:00","17.2","","11.2","","67","","","","10","","4","","24.1","","101.40","","","","","","NA"
"-65.89","45.32","SAINT JOHN A","8104901","2019-08-25 20:00","2019","08","25","20:00","13.0","","10.9","","87","","","","3","","3","","24.1","","101.38","","","","","","Clear"
"-65.89","45.32","SAINT JOHN A","8104901","2019-08-25 21:00","2019","08","25","21:00","10.9","","9.6","","92","","","","36","","2","","24.1","","101.40","","","","","","NA"
"-65.89","45.32","SAINT JOHN A","8104901","2019-08-25 22:00","2019","08","25","22:00","8.7","","8.2","","97","","","","4","","4","","24.1","","101.41","","","","","","NA"
"-65.89","45.32","SAINT JOHN A","8104901","2019-08-25 23:00","2019","08","25","23:00","7.9","","7.5","","97","","","","","","0","","24.1","","101.41","","","","","","Clear"
"-65.89","45.32","SAINT JOHN A","8104901","2019-08-26 00:00","2019","08","26","00:00","8.4","","8.1","","98","","","","34","","4","","24.1","","101.39","","","","","","NA"
"-65.89","45.32","SAINT JOHN A","8104901","2019-08-26 01:00","2019","08","26","01:00","9.0","","8.4","","96","","","","36","","3","","24.1","","101.36","","","","","","NA"
"-65.89","45.32","SAINT JOHN A","8104901","2019-08-26 02:00","2019","08","26","02:00","5.6","","5.6","","100","","","","36","","3","","24.1","","101.32","","","","","","Clear"
"-65.89","45.32","SAINT JOHN A","8104901","2019-08-26 03:00","2019","08","26","03:00","7.7","","7.7","","100","","","","36","","3","","24.1","","101.35","","","","","","NA"
"-65.89","45.32","SAINT JOHN A","8104901","2019-08-26 04:00","2019","08","26","04:00","8.9","","8.6","","98","","","","9","","4","","24.1","","101.30","","","","","","NA"
"-65.89","45.32","SAINT JOHN A","8104901","2019-08-26 05:00","2019","08","26","05:00","6.9","","6.9","","100","","","","5","","5","","24.1","","101.21","","","","","","Mainly Clear"
"-65.89","45.32","SAINT JOHN A","8104901","2019-08-26 06:00","2019","08","26","06:00","8.3","","8.2","","100","","","","13","","3","","24.1","","101.25","","","","","","NA"
"-65.89","45.32","SAINT JOHN A","8104901","2019-08-26 07:00","2019","08","26","07:00","9.4","","9.4","","100","","","","5","","5","","24.1","","101.24","","","","","","NA"
"-65.89","45.32","SAINT JOHN A","8104901","2019-08-26 08:00","2019","08","26","08:00","10.9","","10.7","","99","","","","4","","5","","24.1","","101.30","","","","","","Cloudy"
"-65.89","45.32","SAINT JOHN A","8104901","2019-08-26 09:00","2019","08","26","09:00","14.1","","12.2","","89","","","","36","","2","","24.1","","101.31","","","","","","NA"
"-65.89","45.32","SAINT JOHN A","8104901","2019-08-26 10:00","2019","08","26","10:00","14.6","","12.8","","89","","","","1","","6","","24.1","","101.23","","","","","","NA"
"-65.89","45.32","SAINT JOHN A","8104901","2019-08-26 11:00","2019","08","26","11:00","15.6","","13.3","","86","","","","8","","5","","24.1","","101.22","","","","","","Cloudy"
"-65.89","45.32","SAINT JOHN A","8104901","2019-08-26 12:00","2019","08","26","12:00","16.6","","13.4","","81","","","","6","","9","","24.1","","101.16","","","","","","NA"
"-65.89","45.32","SAINT JOHN A","8104901","2019-08-26 13:00","2019","08","26","13:00","18.4","","11.9","","65","","","","8","","12","","24.1","","101.09","","","","","","NA"
"-65.89","45.32","SAINT JOHN A","8104901","2019-08-26 14:00","2019","08","26","14:00","18.7","","11.7","","63","","","","3","","10","","24.1","","101.02","","","","","","Cloudy"
"-65.89","45.32","SAINT JOHN A","8104901","2019-08-26 15:00","2019","08","26","15:00","18.0","","11.6","","66","","","","10","","14","","24.1","","100.98","","","","","","NA"
"-65.89","45.32","SAINT JOHN A","8104901","2019-08-26 16:00","2019","08","26","16:00","16.4","","11.8","","74","","","","10","","11","","24.1","","100.93","","","","","","NA"
"-65.89","45.32","SAINT JOHN A","8104901","2019-08-26 17:00","2019","08","26","17:00","15.9","","11.8","","77","","","","36","","3","","24.1","","100.87","","","","","","Cloudy"
"-65.89","45.32","SAINT JOHN A","8104901","2019-08-26 18:00","2019","08","26","18:00","15.8","","12.1","","79","","","","24","","4","","24.1","","100.86","","","","","","NA"
"-65.89","45.32","SAINT JOHN A","8104901","2019-08-26 19:00","2019","08","26","19:00","14.8","","13.0","","89","","","","36","","1","","24.1","","100.86","","","","","","NA"
"-65.89","45.32","SAINT JOHN A","8104901","2019-08-26 20:00","2019","08","26","20:00","12.5","","12.2","","98","","","","36","","2","","24.1","","100.85","","","","","","Mostly Cloudy"
"-65.89","45.32","SAINT JOHN A","8104901","2019-08-26 21:00","2019","08","26","21:00","11.7","","11.6","","99","","","","6","","6","","24.1","","100.85","","","","","","NA"
"-65.89","45.32","SAINT JOHN A","8104901","2019-08-26 22:00","2019","08","26","22:00","12.2","","11.9","","98","","","","0","","1","","24.1","","100.77","","","","","","NA"
"-65.89","45.32","SAINT JOHN A","8104901","2019-08-26 23:00","2019","08","26","23:00","10.6","","10.6","","100","","","","5","","3","","24.1","","100.75","","","","","","Cloudy"
"-65.89","45.32","SAINT JOHN A","8104901","2019-08-27 00:00","2019","08","27","00:00","11.1","","11.1","","100","","","","","","0","","24.1","","100.72","","","","","","NA"
"-65.89","45.32","SAINT JOHN A","8104901","2019-08-27 01:00","2019","08","27","01:00","11.3","","11.2","","99","","","","36","","4","","24.1","","100.69","","","","","","NA"
"-65.89","45.32","SAINT JOHN A","8104901","2019-08-27 02:00","2019","08","27","02:00","11.5","","11.3","","99","","","","5","","7","","24.1","","100.63","","","","","","Cloudy"
"-65.89","45.32","SAINT JOHN A","8104901","2019-08-27 03:00","2019","08","27","03:00","11.5","","11.2","","98","","","","36","","1","","24.1","","100.57","","","","","","NA"
"-65.89","45.32","SAINT JOHN A","8104901","2019-08-27 04:00","2019","08","27","04:00","11.8","","11.2","","96","","","","30","","5","","24.1","","100.49","","","","","","NA"
"-65.89","45.32","SAINT JOHN A","8104901","2019-08-27 05:00","2019","08","27","05:00","10.5","","10.4","","99","","","","2","","3","","24.1","","100.45","","","","","","Mostly Cloudy"
"-65.89","45.32","SAINT JOHN A","8104901","2019-08-27 06:00","2019","08","27","06:00","10.5","","10.5","","100","","","","6","","5","","24.1","","100.48","","","","","","NA"
"-65.89","45.32","SAINT JOHN A","8104901","2019-08-27 07:00","2019","08","27","07:00","11.7","","11.4","","98","","","","36","","1","","24.1","","100.49","","","","","","NA"
"-65.89","45.32","SAINT JOHN A","8104901","2019-08-27 08:00","2019","08","27","08:00","14.8","","12.1","","84","","","","2","","10","","24.1","","100.51","","","","","","Mostly Cloudy"
"-65.89","45.32","SAINT JOHN A","8104901","2019-08-27 09:00","2019","08","27","09:00","14.9","","12.0","","83","","","","36","","3","","24.1","","100.50","","","","","","NA"
"-65.89","45.32","SAINT JOHN A","8104901","2019-08-27 10:00","2019","08","27","10:00","16.4","","10.6","","68","","","","23","","12","","24.1","","100.41","","","","","","NA"
"-65.89","45.32","SAINT JOHN A","8104901","2019-08-27 11:00","2019","08","27","11:00","18.4","","12.0","","66","","","","26","","13","","24.1","","100.40","","","","","","Mostly Cloudy"
"-65.89","45.32","SAINT JOHN A","8104901","2019-08-27 12:00","2019","08","27","12:00","20.3","","10.0","","51","","","","28","","7","","24.1","","100.36","","","","","","NA"
"-65.89","45.32","SAINT JOHN A","8104901","2019-08-27 13:00","2019","08","27","13:00","22.7","","12.4","","52","","","","25","","13","","24.1","","100.25","","25","","","","NA"
"-65.89","45.32","SAINT JOHN A","8104901","2019-08-27 14:00","2019","08","27","14:00","22.3","","13.3","","56","","","","27","","14","","24.1","","100.24","","25","","","","Mainly Clear"
"-65.89","45.32","SAINT JOHN A","8104901","2019-08-27 15:00","2019","08","27","15:00","21.7","","14.1","","61","","","","21","","19","","24.1","","100.19","","25","","","","NA"
"-65.89","45.32","SAINT JOHN A","8104901","2019-08-27 16:00","2019","08","27","16:00","21.1","","14.3","","65","","","","21","","21","","24.1","","100.18","","25","","","","NA"
"-65.89","45.32","SAINT JOHN A","8104901","2019-08-27 17:00","2019","08","27","17:00","20.3","","13.8","","66","","","","21","","26","","24.1","","100.16","","","","","","Mainly Clear"
"-65.89","45.32","SAINT JOHN A","8104901","2019-08-27 18:00","2019","08","27","18:00","18.7","","13.7","","72","","","","22","","18","","24.1","","100.15","","","","","","NA"
"-65.89","45.32","SAINT JOHN A","8104901","2019-08-27 19:00","2019","08","27","19:00","17.0","","12.8","","76","","","","20","","13","","24.1","","100.14","","","","","","NA"
"-65.89","45.32","SAINT JOHN A","8104901","2019-08-27 20:00","2019","08","27","20:00","14.2","","12.3","","88","","","","20","","8","","24.1","","100.17","","","","","","Mainly Clear"
"-65.89","45.32","SAINT JOHN A","8104901","2019-08-27 21:00","2019","08","27","21:00","13.7","","12.5","","93","","","","20","","8","","24.1","","100.21","","","","","","NA"
"-65.89","45.32","SAINT JOHN A","8104901","2019-08-27 22:00","2019","08","27","22:00","14.2","","12.8","","91","","","","20","","4","","24.1","","100.22","","","","","","NA"
"-65.89","45.32","SAINT JOHN A","8104901","2019-08-27 23:00","2019","08","27","23:00","12.5","","12.2","","98","","","","22","","8","","24.1","","100.20","","","","","","Clear"
"-65.89","45.32","SAINT JOHN A","8104901","2019-08-28 00:00","2019","08","28","00:00","10.7","","10.4","","98","","","","36","","2","","24.1","","100.19","","","","","","NA"
"-65.89","45.32","SAINT JOHN A","8104901","2019-08-28 01:00","2019","08","28","01:00","13.0","","12.8","","98","","","","21","","12","","24.1","","100.18","","","","","","NA"
"-65.89","45.32","SAINT JOHN A","8104901","2019-08-28 02:00","2019","08","28","02:00","12.2","","12.2","","100","","","","20","","8","","24.1","","100.18","","","","","","Clear"
"-65.89","45.32","SAINT JOHN A","8104901","2019-08-28 03:00","2019","08","28","03:00","11.4","","11.4","","100","","","","20","","10","","24.1","","100.21","","","","","","NA"
"-65.89","45.32","SAINT JOHN A","8104901","2019-08-28 04:00","2019","08","28","04:00","9.9","","9.9","","100","","","","36","","3","","24.1","","100.21","","","","","","NA"
"-65.89","45.32","SAINT JOHN A","8104901","2019-08-28 05:00","2019","08","28","05:00","8.2","","8.2","","100","","","","36","","1","","24.1","","100.22","","","","","","Clear"
"-65.89","45.32","SAINT JOHN A","8104901","2019-08-28 06:00","2019","08","28","06:00","7.8","","7.8","","100","","","","7","","5","","24.1","","100.29","","","","","","NA"
"-65.89","45.32","SAINT JOHN A","8104901","2019-08-28 07:00","2019","08","28","07:00","12.1","","11.7","","98","","","","19","","7","","24.1","","100.28","","","","","","NA"
"-65.89","45.32","SAINT JOHN A","8104901","2019-08-28 08:00","2019","08","28","08:00","16.0","","14.2","","89","","","","20","","4","","24.1","","100.30","","","","","","Mainly Clear"
"-65.89","45.32","SAINT JOHN A","8104901","2019-08-28 09:00","2019","08","28","09:00","19.3","","15.1","","76","","","","19","","7","","24.1","","100.33","","","","","","NA"
"-65.89","45.32","SAINT JOHN A","8104901","2019-08-28 10:00","2019","08","28","10:00","22.1","","14.7","","62","","","","20","","12","","24.1","","100.32","","26","","","","NA"
"-65.89","45.32","SAINT JOHN A","8104901","2019-08-28 11:00","2019","08","28","11:00","23.4","","12.3","","49","","","","25","","13","","24.1","","100.34","","26","","","","Mainly Clear"
"-65.89","45.32","SAINT JOHN A","8104901","2019-08-28 12:00","2019","08","28","12:00","24.4","","13.9","","51","","","","21","","16","","24.1","","100.34","","28","","","","NA"
"-65.89","45.32","SAINT JOHN A","8104901","2019-08-28 13:00","2019","08","28","13:00","24.2","","13.2","","50","","","","20","","18","","24.1","","100.29","","27","","","","NA"
"-65.89","45.32","SAINT JOHN A","8104901","2019-08-28 14:00","2019","08","28","14:00","23.1","","11.9","","49","","","","21","","18","","24.1","","100.30","","25","","","","Mainly Clear"
"-65.89","45.32","SAINT JOHN A","8104901","2019-08-28 15:00","2019","08","28","15:00","22.6","","10.3","","45","","","","20","","18","","24.1","","100.29","","","","","","NA"
"-65.89","45.32","SAINT JOHN A","8104901","2019-08-28 16:00","2019","08","28","16:00","22.2","","10.5","","47","","","","23","","16","","24.1","","100.28","","","","","","NA"
"-65.89","45.32","SAINT JOHN A","8104901","2019-08-28 17:00","2019","08","28","17:00","21.5","","9.0","","44","","","","23","","15","","24.1","","100.28","","","","","","Mainly Clear"
"-65.89","45.32","SAINT JOHN A","8104901","2019-08-28 18:00","2019","08","28","18:00","18.6","","10.7","","59","","","","22","","14","","24.1","","100.27","","","","","","NA"
"-65.89","45.32","SAINT JOHN A","8104901","2019-08-28 19:00","2019","08","28","19:00","16.7","","12.9","","78","","","","21","","6","","24.1","","100.27","","","","","","NA"
"-65.89","45.32","SAINT JOHN A","8104901","2019-08-28 20:00","2019","08","28","20:00","15.3","","12.5","","83","","","","21","","8","","24.1","","100.30","","","","","","Mainly Clear"
"-65.89","45.32","SAINT JOHN A","8104901","2019-08-28 21:00","2019","08","28","21:00","15.2","","12.8","","85","","","","19","","5","","24.1","","100.29","","","","","","NA"
"-65.89","45.32","SAINT JOHN A","8104901","2019-08-28 22:00","2019","08","28","22:00","14.4","","13.0","","91","","","","21","","6","","24.1","","100.30","","","","","","NA"
"-65.89","45.32","SAINT JOHN A","8104901","2019-08-28 23:00","2019","08","28","23:00","12.1","","10.9","","93","","","","9","","9","","24.1","","100.24","","","","","","Mostly Cloudy"
"-65.89","45.32","SAINT JOHN A","8104901","2019-08-29 00:00","2019","08","29","00:00","13.2","","11.3","","88","","","","36","","3","","24.1","","100.19","","","","","","NA"
"-65.89","45.32","SAINT JOHN A","8104901","2019-08-29 01:00","2019","08","29","01:00","13.0","","11.4","","90","","","","5","","4","","24.1","","100.18","","","","","","NA"
"-65.89","45.32","SAINT JOHN A","8104901","2019-08-29 02:00","2019","08","29","02:00","16.0","","7.0","","55","","","","36","","3","","24.1","","100.12","","","","","","Cloudy"
"-65.89","45.32","SAINT JOHN A","8104901","2019-08-29 03:00","2019","08","29","03:00","17.1","","8.1","","55","","","","11","","20","","24.1","","100.04","","","","","","NA"
"-65.89","45.32","SAINT JOHN A","8104901","2019-08-29 04:00","2019","08","29","04:00","17.5","","12.1","","70","","","","11","","23","","24.1","","99.94","","","","","","NA"
"-65.89","45.32","SAINT JOHN A","8104901","2019-08-29 05:00","2019","08","29","05:00","15.8","","13.3","","85","","","","10","","23","","16.1","","99.89","","","","","","Rain"
"-65.89","45.32","SAINT JOHN A","8104901","2019-08-29 06:00","2019","08","29","06:00","15.4","","15.2","","99","","","","11","","21","","4.8","","99.88","","","","","","Moderate Rain,Fog"
"-65.89","45.32","SAINT JOHN A","8104901","2019-08-29 07:00","2019","08","29","07:00","16.5","","16.5","","100","","","","11","","27","","8.1","","99.84","","","","","","Rain,Fog"
"-65.89","45.32","SAINT JOHN A","8104901","2019-08-29 08:00","2019","08","29","08:00","18.3","","18.3","","100","","","","13","","28","","8.1","","99.79","","","","","","Moderate Rain,Fog"
"-65.89","45.32","SAINT JOHN A","8104901","2019-08-29 09:00","2019","08","29","09:00","19.0","","19.0","","100","","","","14","","24","","3.2","","99.78","","","","","","Rain,Fog"
"-65.89","45.32","SAINT JOHN A","8104901","2019-08-29 10:00","2019","08","29","10:00","20.2","","20.2","","100","","","","15","","16","","3.2","","99.79","","28","","","","Rain,Fog"
"-65.89","45.32","SAINT JOHN A","8104901","2019-08-29 11:00","2019","08","29","11:00","20.3","","20.3","","100","","","","14","","18","","1.6","","99.76","","28","","","","Rain,Fog"
"-65.89","45.32","SAINT JOHN A","8104901","2019-08-29 12:00","2019","08","29","12:00","20.6","","20.6","","100","","","","16","","16","","3.2","","99.69","","29","","","","Rain,Fog"
"-65.89","45.32","SAINT JOHN A","8104901","2019-08-29 13:00","2019","08","29","13:00","20.3","","20.3","","100","","","","15","","12","","3.2","","99.63","","28","","","","Rain,Fog"
"-65.89","45.32","SAINT JOHN A","8104901","2019-08-29 14:00","2019","08","29","14:00","21.0","","21.0","","100","","","","21","","17","","3.2","","99.64","","29","","","","Rain,Fog"
"-65.89","45.32","SAINT JOHN A","8104901","2019-08-29 15:00","2019","08","29","15:00","19.1","","19.1","","100","","","","20","","15","","3.2","","99.67","","","","","","Rain,Fog"
"-65.89","45.32","SAINT JOHN A","8104901","2019-08-29 16:00","2019","08","29","16:00","19.6","","19.6","","100","","","","21","","17","","3.2","","99.64","","","","","","Rain,Fog"
"-65.89","45.32","SAINT JOHN A","8104901","2019-08-29 17:00","2019","08","29","17:00","19.3","","19.3","","100","","","","19","","17","","3.2","","99.61","","","","","","Rain,Fog"
"-65.89","45.32","SAINT JOHN A","8104901","2019-08-29 18:00","2019","08","29","18:00","19.1","","19.1","","100","","","","14","","10","","4.8","","99.52","","","","","","Rain,Fog"
"-65.89","45.32","SAINT JOHN A","8104901","2019-08-29 19:00","2019","08","29","19:00","18.7","","18.7","","100","","","","15","","8","","3.2","","99.59","","","","","","Rain,Fog"
"-65.89","45.32","SAINT JOHN A","8104901","2019-08-29 20:00","2019","08","29","20:00","18.1","","18.1","","100","","","","11","","10","","8.1","","99.54","","","","","","Rain,Fog"
"-65.89","45.32","SAINT JOHN A","8104901","2019-08-29 21:00","2019","08","29","21:00","18.6","","18.6","","100","","","","36","","3","","16.1","","99.55","","","","","","NA"
"-65.89","45.32","SAINT JOHN A","8104901","2019-08-29 22:00","2019","08","29","22:00","18.6","","18.6","","100","","","","26","","3","","12.9","","99.55","","","","","","NA"
"-65.89","45.32","SAINT JOHN A","8104901","2019-08-29 23:00","2019","08","29","23:00","19.0","","19.0","","100","","","","25","","7","","3.2","","99.56","","","","","","Rain,Fog"
"-65.89","45.32","SAINT JOHN A","8104901","2019-08-30 00:00","2019","08","30","00:00","18.6","","18.6","","100","","","","28","","7","","3.2","","99.55","","","","","","Rain,Fog"
"-65.89","45.32","SAINT JOHN A","8104901","2019-08-30 01:00","2019","08","30","01:00","18.6","","18.6","","100","","","","29","","12","","24.1","","99.56","","","","","","NA"
"-65.89","45.32","SAINT JOHN A","8104901","2019-08-30 02:00","2019","08","30","02:00","18.4","","18.4","","100","","","","33","","14","","24.1","","99.59","","","","","","Cloudy"
"-65.89","45.32","SAINT JOHN A","8104901","2019-08-30 03:00","2019","08","30","03:00","17.8","","17.8","","100","","","","32","","11","","24.1","","99.68","","","","","","NA"
"-65.89","45.32","SAINT JOHN A","8104901","2019-08-30 04:00","2019","08","30","04:00","17.1","","17.1","","100","","","","36","","2","","16.1","","99.72","","","","","","NA"
"-65.89","45.32","SAINT JOHN A","8104901","2019-08-30 05:00","2019","08","30","05:00","17.5","","17.5","","100","","","","33","","13","","24.1","","99.76","","","","","","Mostly Cloudy"
"-65.89","45.32","SAINT JOHN A","8104901","2019-08-30 06:00","2019","08","30","06:00","15.5","","15.5","","100","","","","21","","9","","8.1","","99.91","","","","","","Fog"
"-65.89","45.32","SAINT JOHN A","8104901","2019-08-30 07:00","2019","08","30","07:00","15.4","","15.4","","100","","","","19","","5","","0.6","","99.95","","","","","","Fog"
"-65.89","45.32","SAINT JOHN A","8104901","2019-08-30 08:00","2019","08","30","08:00","18.9","","18.0","","94","","","","27","","10","","16.1","","100.00","","","","","","Mainly Clear"
"-65.89","45.32","SAINT JOHN A","8104901","2019-08-30 09:00","2019","08","30","09:00","20.4","","17.5","","83","","","","26","","10","","19.3","","100.02","","26","","","","NA"
"-65.89","45.32","SAINT JOHN A","8104901","2019-08-30 10:00","2019","08","30","10:00","22.1","","17.3","","74","","","","26","","10","","19.3","","100.02","","28","","","","NA"
"-65.89","45.32","SAINT JOHN A","8104901","2019-08-30 11:00","2019","08","30","11:00","23.1","","16.8","","67","","","","26","","18","","24.1","","100.00","","28","","","","Clear"
"-65.89","45.32","SAINT JOHN A","8104901","2019-08-30 12:00","2019","08","30","12:00","23.9","","15.9","","60","","","","20","","18","","24.1","","99.98","","28","","","","NA"
"-65.89","45.32","SAINT JOHN A","8104901","2019-08-30 13:00","2019","08","30","13:00","24.1","","15.7","","59","","","","21","","23","","19.3","","100.03","","29","","","","NA"
"-65.89","45.32","SAINT JOHN A","8104901","2019-08-30 14:00","2019","08","30","14:00","22.7","","14.6","","60","","","","20","","30","","19.3","","100.04","","26","","","","Mainly Clear"
"-65.89","45.32","SAINT JOHN A","8104901","2019-08-30 15:00","2019","08","30","15:00","22.2","","14.8","","63","","","","20","","31","","19.3","","99.99","","26","","","","NA"
"-65.89","45.32","SAINT JOHN A","8104901","2019-08-30 16:00","2019","08","30","16:00","20.1","","17.8","","86","","","","21","","22","","24.1","","99.94","","26","","","","NA"
"-65.89","45.32","SAINT JOHN A","8104901","2019-08-30 17:00","2019","08","30","17:00","19.9","","14.8","","72","","","","21","","21","","19.3","","99.96","","","","","","Clear"
"-65.89","45.32","SAINT JOHN A","8104901","2019-08-30 18:00","2019","08","30","18:00","17.9","","14.2","","78","","","","21","","22","","19.3","","99.96","","","","","","NA"
"-65.89","45.32","SAINT JOHN A","8104901","2019-08-30 19:00","2019","08","30","19:00","16.2","","14.3","","88","","","","20","","18","","24.1","","100.01","","","","","","NA"
"-65.89","45.32","SAINT JOHN A","8104901","2019-08-30 20:00","2019","08","30","20:00","15.5","","14.6","","94","","","","20","","20","","24.1","","100.05","","","","","","Clear"
"-65.89","45.32","SAINT JOHN A","8104901","2019-08-30 21:00","2019","08","30","21:00","15.4","","15.1","","98","","","","21","","14","","24.1","","100.09","","","","","","NA"
"-65.89","45.32","SAINT JOHN A","8104901","2019-08-30 22:00","2019","08","30","22:00","15.8","","15.4","","98","","","","22","","13","","24.1","","100.12","","","","","","NA"
"-65.89","45.32","SAINT JOHN A","8104901","2019-08-30 23:00","2019","08","30","23:00","15.8","","15.5","","98","","","","21","","13","","24.1","","100.12","","","","","","Mostly Cloudy"
"-65.89","45.32","SAINT JOHN A","8104901","2019-08-31 00:00","2019","08","31","00:00","15.8","","15.6","","99","","","","23","","5","","24.1","","100.16","","","","","","NA"
"-65.89","45.32","SAINT JOHN A","8104901","2019-08-31 01:00","2019","08","31","01:00","13.6","","13.6","","100","","","","20","","3","","24.1","","100.20","","","","","","NA"
"-65.89","45.32","SAINT JOHN A","8104901","2019-08-31 02:00","2019","08","31","02:00","11.5","","11.5","","100","","","","36","","2","","24.1","","100.24","","","","","","Mostly Cloudy"
"-65.89","45.32","SAINT JOHN A","8104901","2019-08-31 03:00","2019","08","31","03:00","11.2","","11.2","","100","","","","36","","1","","24.1","","100.27","","","","","","NA"
"-65.89","45.32","SAINT JOHN A","8104901","2019-08-31 04:00","2019","08","31","04:00","10.3","","10.3","","100","","","","36","","2","","24.1","","100.29","","","","","","NA"
"-65.89","45.32","SAINT JOHN A","8104901","2019-08-31 05:00","2019","08","31","05:00","9.4","","9.4","","100","","","","36","","2","","24.1","","100.37","","","","","","Mainly Clear"
"-65.89","45.32","SAINT JOHN A","8104901","2019-08-31 06:00","2019","08","31","06:00","8.2","","8.2","","100","","","","36","","2","","24.1","","100.43","","","","","","NA"
"-65.89","45.32","SAINT JOHN A","8104901","2019-08-31 07:00","2019","08","31","07:00","11.7","","11.5","","99","","","","36","","1","","24.1","","100.45","","","","","","NA"
"-65.89","45.32","SAINT JOHN A","8104901","2019-08-31 08:00","2019","08","31","08:00","17.4","","12.4","","72","","","","24","","9","","24.1","","100.48","","","","","","Clear"
"-65.89","45.32","SAINT JOHN A","8104901","2019-08-31 09:00","2019","08","31","09:00","18.9","","11.9","","63","","","","26","","11","","24.1","","100.50","","","","","","NA"
"-65.89","45.32","SAINT JOHN A","8104901","2019-08-31 10:00","2019","08","31","10:00","19.9","","12.5","","62","","","","25","","13","","24.1","","100.49","","","","","","NA"
"-65.89","45.32","SAINT JOHN A","8104901","2019-08-31 11:00","2019","08","31","11:00","21.3","","12.8","","58","","","","26","","11","","24.1","","100.50","","","","","","Mainly Clear"
"-65.89","45.32","SAINT JOHN A","8104901","2019-08-31 12:00","2019","08","31","12:00","21.8","","10.4","","48","","","","29","","13","","24.1","","100.49","","","","","","NA"
"-65.89","45.32","SAINT JOHN A","8104901","2019-08-31 13:00","2019","08","31","13:00","23.6","","10.4","","43","","","","26","","22","","24.1","","100.48","","25","","","","NA"
"-65.89","45.32","SAINT JOHN A","8104901","2019-08-31 14:00","2019","08","31","14:00","22.7","","10.0","","44","","","","31","","24","","24.1","","100.50","","","","","","Mostly Cloudy"
"-65.89","45.32","SAINT JOHN A","8104901","2019-08-31 15:00","2019","08","31","15:00","22.3","","10.9","","48","","","","27","","17","","24.1","","100.53","","","","","","NA"
"-65.89","45.32","SAINT JOHN A","8104901","2019-08-31 16:00","2019","08","31","16:00","22.5","","11.0","","47","","","","27","","15","","24.1","","100.56","","","","","","NA"
"-65.89","45.32","SAINT JOHN A","8104901","2019-08-31 17:00","2019","08","31","17:00","21.7","","11.1","","51","","","","30","","17","","24.1","","100.60","","","","","","Mostly Cloudy"
"-65.89","45.32","SAINT JOHN A","8104901","2019-08-31 18:00","2019","08","31","18:00","21.4","","11.1","","51","","","","30","","16","","24.1","","100.64","","","","","","NA"
"-65.89","45.32","SAINT JOHN A","8104901","2019-08-31 19:00","2019","08","31","19:00","19.1","","12.4","","65","","","","30","","6","","24.1","","100.70","","","","","","NA"
"-65.89","45.32","SAINT JOHN A","8104901","2019-08-31 20:00","2019","08","31","20:00","16.9","","12.3","","74","","","","30","","7","","24.1","","100.77","","","","","","Mainly Clear"
"-65.89","45.32","SAINT JOHN A","8104901","2019-08-31 21:00","2019","08","31","21:00","14.9","","12.9","","88","","","","30","","5","","24.1","","100.84","","","","","","NA"
"-65.89","45.32","SAINT JOHN A","8104901","2019-08-31 22:00","2019","08","31","22:00","11.1","","10.7","","97","","","","3","","3","","24.1","","100.87","","","","","","NA"
"-65.89","45.32","SAINT JOHN A","8104901","2019-08-31 23:00","2019","08","31","23:00","13.8","","11.6","","86","","","","30","","9","","24.1","","100.90","","","","","","Mainly Clear"
