"Longitude (x)","Latitude (y)","Station Name","Climate ID","Date/Time (LST)","Year","Month","Day","Time (LST)","Temp (°C)","Temp Flag","Dew Point Temp (°C)","Dew Point Temp Flag","Rel Hum (%)","Rel Hum Flag","Precip. Amount (mm)","Precip. Amount Flag","Wind Dir (10s deg)","Wind Dir Flag","Wind Spd (km/h)","Wind Spd Flag","Visibility (km)","Visibility Flag","Stn Press (kPa)","Stn Press Flag","Hmdx","Hmdx Flag","Wind Chill","Wind Chill Flag","Weather"
"-87.93","52.20","LANSDOWNE HOUSE A","6014351","2020-11-01 00:00","2020","11","01","00:00","-3.1","","-3.5","","97","","0.2","","34","","21","","1.6","","96.63","","","","-9","","Snow"
"-87.93","52.20","LANSDOWNE HOUSE A","6014351","2020-11-01 01:00","2020","11","01","01:00","-3.3","","-3.7","","97","","0.5","","35","","26","","1.2","","96.78","","","","-10","","Snow"
"-87.93","52.20","LANSDOWNE HOUSE A","6014351","2020-11-01 02:00","2020","11","01","02:00","-3.4","","-4.1","","95","","0.2","","34","","30","","1.6","","96.99","","","","-11","","Snow"
"-87.93","52.20","LANSDOWNE HOUSE A","6014351","2020-11-01 03:00","2020","11","01","03:00","-3.9","","-4.8","","93","","0.2","","35","","28","","1.6","","97.20","","","","-11","","Snow"
"-87.93","52.20","LANSDOWNE HOUSE A","6014351","2020-11-01 04:00","2020","11","01","04:00","-4.6","","-5.9","","90","","0.0","","35","","34","","2.0","","97.47","","","","-13","","Snow"
"-87.93","52.20","LANSDOWNE HOUSE A","6014351","2020-11-01 05:00","2020","11","01","05:00","-5.2","","-6.8","","89","","0.0","","35","","28","","2.8","","97.71","","","","-13","","Snow"
"-87.93","52.20","LANSDOWNE HOUSE A","6014351","2020-11-01 06:00","2020","11","01","06:00","-5.6","","-7.4","","87","","0.0","","35","","32","","4.8","","97.92","","","","-14","","Snow"
"-87.93","52.20","LANSDOWNE HOUSE A","6014351","2020-11-01 07:00","2020","11","01","07:00","-6.1","","-8.1","","86","","0.0","","35","","24","","16.1","","98.14","","","","-14","","Snow"
"-87.93","52.20","LANSDOWNE HOUSE A","6014351","2020-11-01 08:00","2020","11","01","08:00","-6.6","","-8.6","","86","","0.0","","34","","21","","16.1","","98.34","","","","-14","","Snow"
"-87.93","52.20","LANSDOWNE HOUSE A","6014351","2020-11-01 09:00","2020","11","01","09:00","-6.9","","-9.2","","84","","0.0","","34","","24","","16.1","","98.50","","","","-15","","Snow"
"-87.93","52.20","LANSDOWNE HOUSE A","6014351","2020-11-01 10:00","2020","11","01","10:00","-6.7","","-9.4","","81","","0.0","","32","","17","","16.1","","98.63","","","","-13","","NA"
"-87.93","52.20","LANSDOWNE HOUSE A","6014351","2020-11-01 11:00","2020","11","01","11:00","-6.3","","-9.9","","76","","0.0","","33","","18","","16.1","","98.73","","","","-13","","NA"
"-87.93","52.20","LANSDOWNE HOUSE A","6014351","2020-11-01 12:00","2020","11","01","12:00","-5.5","","-10.2","","70","","0.0","","33","","21","","16.1","","98.83","","","","-12","","NA"
"-87.93","52.20","LANSDOWNE HOUSE A","6014351","2020-11-01 13:00","2020","11","01","13:00","-5.5","","-10.1","","70","","0.0","","31","","15","","16.1","","98.90","","","","-11","","NA"
"-87.93","52.20","LANSDOWNE HOUSE A","6014351","2020-11-01 14:00","2020","11","01","14:00","-5.9","","-10.6","","70","","0.0","","33","","11","","16.1","","98.92","","","","-11","","Snow"
"-87.93","52.20","LANSDOWNE HOUSE A","6014351","2020-11-01 15:00","2020","11","01","15:00","-6.0","","-10.8","","69","","0.0","","30","","15","","16.1","","98.94","","","","-12","","NA"
"-87.93","52.20","LANSDOWNE HOUSE A","6014351","2020-11-01 16:00","2020","11","01","16:00","-6.0","","-11.4","","66","","0.0","","29","","15","","16.1","","98.92","","","","-12","","NA"
"-87.93","52.20","LANSDOWNE HOUSE A","6014351","2020-11-01 17:00","2020","11","01","17:00","-6.6","","-11.2","","70","","0.0","","28","","15","","16.1","","98.95","","","","-13","","NA"
"-87.93","52.20","LANSDOWNE HOUSE A","6014351","2020-11-01 18:00","2020","11","01","18:00","-7.4","","-11.4","","73","","0.0","","27","","9","","16.1","","98.93","","","","-12","","NA"
"-87.93","52.20","LANSDOWNE HOUSE A","6014351","2020-11-01 19:00","2020","11","01","19:00","-9.0","","-11.5","","82","","0.0","","23","","8","","16.1","","98.87","","","","-13","","NA"
"-87.93","52.20","LANSDOWNE HOUSE A","6014351","2020-11-01 20:00","2020","11","01","20:00","-9.3","","-11.5","","84","","0.0","","21","","9","","16.1","","98.80","","","","-14","","NA"
"-87.93","52.20","LANSDOWNE HOUSE A","6014351","2020-11-01 21:00","2020","11","01","21:00","-8.8","","-10.9","","85","","0.0","","20","","11","","16.1","","98.66","","","","-14","","NA"
"-87.93","52.20","LANSDOWNE HOUSE A","6014351","2020-11-01 22:00","2020","11","01","22:00","-8.1","","-11.3","","78","","0.0","","21","","15","","16.1","","98.54","","","","-14","","NA"
"-87.93","52.20","LANSDOWNE HOUSE A","6014351","2020-11-01 23:00","2020","11","01","23:00","-7.2","","-11.0","","75","","0.0","","21","","13","","16.1","","98.37","","","","-13","","NA"
"-87.93","52.20","LANSDOWNE HOUSE A","6014351","2020-11-02 00:00","2020","11","02","00:00","-7.1","","-8.9","","87","","0.0","","21","","13","","2.8","","98.22","","","","-13","","Snow"
"-87.93","52.20","LANSDOWNE HOUSE A","6014351","2020-11-02 01:00","2020","11","02","01:00","-6.7","","-7.7","","93","","0.5","","21","","18","","4.0","","98.03","","","","-13","","Snow"
"-87.93","52.20","LANSDOWNE HOUSE A","6014351","2020-11-02 02:00","2020","11","02","02:00","-6.1","","-7.1","","93","","0.2","","22","","21","","3.2","","97.88","","","","-13","","Snow"
"-87.93","52.20","LANSDOWNE HOUSE A","6014351","2020-11-02 03:00","2020","11","02","03:00","-5.7","","-6.4","","95","","0.2","","22","","17","","3.6","","97.74","","","","-12","","Snow"
"-87.93","52.20","LANSDOWNE HOUSE A","6014351","2020-11-02 04:00","2020","11","02","04:00","-4.9","","-6.0","","92","","0.0","","23","","21","","6.4","","97.62","","","","-12","","Snow"
"-87.93","52.20","LANSDOWNE HOUSE A","6014351","2020-11-02 05:00","2020","11","02","05:00","-4.0","","-5.3","","91","","0.0","","23","","18","","4.0","","97.48","","","","-10","","Snow"
"-87.93","52.20","LANSDOWNE HOUSE A","6014351","2020-11-02 06:00","2020","11","02","06:00","-3.4","","-5.0","","89","","0.0","","24","","17","","6.4","","97.42","","","","-9","","Snow"
"-87.93","52.20","LANSDOWNE HOUSE A","6014351","2020-11-02 07:00","2020","11","02","07:00","-2.5","","-4.3","","87","","0.0","","26","","18","","16.1","","97.32","","","","-8","","NA"
"-87.93","52.20","LANSDOWNE HOUSE A","6014351","2020-11-02 08:00","2020","11","02","08:00","-1.9","","-3.6","","88","","0.0","","27","","18","","16.1","","97.26","","","","-7","","NA"
"-87.93","52.20","LANSDOWNE HOUSE A","6014351","2020-11-02 09:00","2020","11","02","09:00","-1.9","","-2.6","","95","","0.0","","27","","15","","3.2","","97.30","","","","-7","","Snow"
"-87.93","52.20","LANSDOWNE HOUSE A","6014351","2020-11-02 10:00","2020","11","02","10:00","-1.2","","-2.3","","92","","0.0","","29","","17","","16.1","","97.36","","","","-6","","Snow"
"-87.93","52.20","LANSDOWNE HOUSE A","6014351","2020-11-02 11:00","2020","11","02","11:00","-0.8","","-2.4","","89","","0.0","","29","","21","","16.1","","97.39","","","","-6","","Snow"
"-87.93","52.20","LANSDOWNE HOUSE A","6014351","2020-11-02 12:00","2020","11","02","12:00","-0.8","","-2.7","","87","","0.0","","31","","15","","16.1","","97.43","","","","-5","","Snow"
"-87.93","52.20","LANSDOWNE HOUSE A","6014351","2020-11-02 13:00","2020","11","02","13:00","-1.1","","-4.6","","77","","0.0","","30","","21","","16.1","","97.52","","","","-7","","NA"
"-87.93","52.20","LANSDOWNE HOUSE A","6014351","2020-11-02 14:00","2020","11","02","14:00","-2.2","","-5.5","","79","","0.0","","33","","18","","16.1","","97.66","","","","-8","","Snow"
"-87.93","52.20","LANSDOWNE HOUSE A","6014351","2020-11-02 15:00","2020","11","02","15:00","-3.0","","-8.1","","68","","0.0","","33","","21","","16.1","","97.79","","","","-9","","NA"
"-87.93","52.20","LANSDOWNE HOUSE A","6014351","2020-11-02 16:00","2020","11","02","16:00","-4.8","","-9.2","","71","","0.0","","34","","17","","16.1","","97.96","","","","-11","","Snow"
"-87.93","52.20","LANSDOWNE HOUSE A","6014351","2020-11-02 17:00","2020","11","02","17:00","-5.7","","-9.5","","75","","0.0","","32","","11","","16.1","","98.11","","","","-10","","Snow"
"-87.93","52.20","LANSDOWNE HOUSE A","6014351","2020-11-02 18:00","2020","11","02","18:00","-5.7","","-9.0","","78","","0.0","","32","","11","","16.1","","98.20","","","","-10","","Snow"
"-87.93","52.20","LANSDOWNE HOUSE A","6014351","2020-11-02 19:00","2020","11","02","19:00","-5.8","","-8.6","","81","","0.0","","31","","9","","16.1","","98.31","","","","-10","","NA"
"-87.93","52.20","LANSDOWNE HOUSE A","6014351","2020-11-02 20:00","2020","11","02","20:00","-6.2","","-8.5","","84","","0.0","","30","","9","","16.1","","98.31","","","","-10","","NA"
"-87.93","52.20","LANSDOWNE HOUSE A","6014351","2020-11-02 21:00","2020","11","02","21:00","-6.0","","-8.3","","84","","0.0","","30","","5","","16.1","","98.33","","","","-8","","NA"
"-87.93","52.20","LANSDOWNE HOUSE A","6014351","2020-11-02 22:00","2020","11","02","22:00","-6.1","","-8.2","","85","","0.0","","30","","8","","16.1","","98.33","","","","-10","","NA"
"-87.93","52.20","LANSDOWNE HOUSE A","6014351","2020-11-02 23:00","2020","11","02","23:00","-6.3","","-8.3","","86","","0.0","","32","","5","","16.1","","98.33","","","","-9","","NA"
"-87.93","52.20","LANSDOWNE HOUSE A","6014351","2020-11-03 00:00","2020","11","03","00:00","-6.3","","-8.1","","87","","0.0","","29","","5","","16.1","","98.31","","","","-9","","NA"
"-87.93","52.20","LANSDOWNE HOUSE A","6014351","2020-11-03 01:00","2020","11","03","01:00","-6.4","","-8.1","","88","","0.0","","28","","4","","16.1","","98.33","","","","-8","","Snow"
"-87.93","52.20","LANSDOWNE HOUSE A","6014351","2020-11-03 02:00","2020","11","03","02:00","-6.5","","-7.9","","90","","0.0","","","M","4","","16.1","","98.36","","","","-8","","Snow"
"-87.93","52.20","LANSDOWNE HOUSE A","6014351","2020-11-03 03:00","2020","11","03","03:00","-6.5","","-7.2","","95","","0.0","","","","0","","2.4","","98.33","","","","","","Snow"
"-87.93","52.20","LANSDOWNE HOUSE A","6014351","2020-11-03 04:00","2020","11","03","04:00","-6.8","","-7.2","","97","","0.5","","19","","5","","2.0","","98.27","","","","-9","","Snow"
"-87.93","52.20","LANSDOWNE HOUSE A","6014351","2020-11-03 05:00","2020","11","03","05:00","-6.9","","-7.3","","97","","0.5","","17","","5","","2.0","","98.12","","","","-9","","Snow"
"-87.93","52.20","LANSDOWNE HOUSE A","6014351","2020-11-03 06:00","2020","11","03","06:00","-6.9","","-7.6","","95","","0.2","","16","","8","","2.4","","98.07","","","","-11","","Snow"
"-87.93","52.20","LANSDOWNE HOUSE A","6014351","2020-11-03 07:00","2020","11","03","07:00","-6.9","","-7.6","","95","","0.5","","10","","13","","1.6","","98.04","","","","-12","","Snow"
"-87.93","52.20","LANSDOWNE HOUSE A","6014351","2020-11-03 08:00","2020","11","03","08:00","-6.9","","-7.4","","96","","0.8","","10","","13","","1.6","","98.06","","","","-12","","Snow"
"-87.93","52.20","LANSDOWNE HOUSE A","6014351","2020-11-03 09:00","2020","11","03","09:00","-6.8","","-7.8","","93","","0.2","","10","","18","","16.1","","97.96","","","","-13","","Snow"
"-87.93","52.20","LANSDOWNE HOUSE A","6014351","2020-11-03 10:00","2020","11","03","10:00","-6.6","","-7.6","","93","","0.0","","10","","18","","4.0","","98.01","","","","-13","","Snow"
"-87.93","52.20","LANSDOWNE HOUSE A","6014351","2020-11-03 11:00","2020","11","03","11:00","-6.5","","-7.5","","93","","0.2","","11","","17","","3.2","","97.96","","","","-13","","Snow"
"-87.93","52.20","LANSDOWNE HOUSE A","6014351","2020-11-03 12:00","2020","11","03","12:00","-6.3","","-7.4","","92","","0.2","","13","","15","","12.9","","97.91","","","","-12","","Snow"
"-87.93","52.20","LANSDOWNE HOUSE A","6014351","2020-11-03 13:00","2020","11","03","13:00","-6.0","","-7.1","","92","","0.0","","11","","17","","16.1","","97.80","","","","-12","","NA"
"-87.93","52.20","LANSDOWNE HOUSE A","6014351","2020-11-03 14:00","2020","11","03","14:00","-5.6","","-6.7","","92","","0.0","","11","","15","","16.1","","97.75","","","","-11","","NA"
"-87.93","52.20","LANSDOWNE HOUSE A","6014351","2020-11-03 15:00","2020","11","03","15:00","-5.4","","-6.1","","95","","0.0","","12","","17","","16.1","","97.74","","","","-11","","NA"
"-87.93","52.20","LANSDOWNE HOUSE A","6014351","2020-11-03 16:00","2020","11","03","16:00","-5.3","","-5.4","","99","","0.0","","12","","11","","14.5","","97.75","","","","-10","","NA"
"-87.93","52.20","LANSDOWNE HOUSE A","6014351","2020-11-03 17:00","2020","11","03","17:00","-5.3","","-5.3","","100","","0.0","","10","","11","","12.9","","97.79","","","","-10","","NA"
"-87.93","52.20","LANSDOWNE HOUSE A","6014351","2020-11-03 18:00","2020","11","03","18:00","-5.3","","-5.3","","100","","0.0","","10","","13","","8.1","","97.84","","","","-10","","Fog"
"-87.93","52.20","LANSDOWNE HOUSE A","6014351","2020-11-03 19:00","2020","11","03","19:00","-5.3","","-5.3","","100","","0.0","","10","","11","","16.1","","97.88","","","","-10","","NA"
"-87.93","52.20","LANSDOWNE HOUSE A","6014351","2020-11-03 20:00","2020","11","03","20:00","-5.3","","-5.3","","100","","0.0","","10","","13","","16.1","","97.86","","","","-10","","NA"
"-87.93","52.20","LANSDOWNE HOUSE A","6014351","2020-11-03 21:00","2020","11","03","21:00","-5.2","","-5.2","","100","","0.0","","11","","11","","16.1","","97.80","","","","-10","","NA"
"-87.93","52.20","LANSDOWNE HOUSE A","6014351","2020-11-03 22:00","2020","11","03","22:00","-5.1","","-5.1","","100","","0.0","","10","","8","","16.1","","97.83","","","","-9","","NA"
"-87.93","52.20","LANSDOWNE HOUSE A","6014351","2020-11-03 23:00","2020","11","03","23:00","-5.0","","-5.0","","100","","0.0","","9","","9","","12.9","","97.85","","","","-9","","NA"
"-87.93","52.20","LANSDOWNE HOUSE A","6014351","2020-11-04 00:00","2020","11","04","00:00","-5.0","","-5.0","","100","","0.0","","10","","9","","4.8","","97.86","","","","-9","","Fog"
"-87.93","52.20","LANSDOWNE HOUSE A","6014351","2020-11-04 01:00","2020","11","04","01:00","-4.9","","-4.9","","100","","0.0","","9","","13","","16.1","","97.92","","","","-10","","NA"
"-87.93","52.20","LANSDOWNE HOUSE A","6014351","2020-11-04 02:00","2020","11","04","02:00","-4.8","","-4.8","","100","","0.0","","12","","9","","12.9","","97.86","","","","-9","","NA"
"-87.93","52.20","LANSDOWNE HOUSE A","6014351","2020-11-04 03:00","2020","11","04","03:00","-4.7","","-4.7","","100","","0.0","","12","","9","","9.7","","97.88","","","","-9","","Fog"
"-87.93","52.20","LANSDOWNE HOUSE A","6014351","2020-11-04 04:00","2020","11","04","04:00","-4.7","","-4.7","","100","","0.0","","13","","5","","2.0","","97.92","","","","-7","","Fog"
"-87.93","52.20","LANSDOWNE HOUSE A","6014351","2020-11-04 05:00","2020","11","04","05:00","-4.6","","-4.6","","100","","0.0","","10","","8","","2.4","","97.91","","","","-8","","Fog"
"-87.93","52.20","LANSDOWNE HOUSE A","6014351","2020-11-04 06:00","2020","11","04","06:00","-4.6","","-4.6","","100","","0.0","","9","","9","","4.0","","97.92","","","","-8","","Snow"
"-87.93","52.20","LANSDOWNE HOUSE A","6014351","2020-11-04 07:00","2020","11","04","07:00","-4.5","","-4.5","","100","","0.0","","10","","11","","11.3","","97.91","","","","-9","","NA"
"-87.93","52.20","LANSDOWNE HOUSE A","6014351","2020-11-04 08:00","2020","11","04","08:00","-4.4","","-4.4","","100","","0.0","","13","","11","","9.7","","97.92","","","","-9","","Fog"
"-87.93","52.20","LANSDOWNE HOUSE A","6014351","2020-11-04 09:00","2020","11","04","09:00","-4.1","","-4.1","","100","","0.0","","12","","8","","1.2","","97.95","","","","-8","","Fog"
"-87.93","52.20","LANSDOWNE HOUSE A","6014351","2020-11-04 10:00","2020","11","04","10:00","-3.4","","-3.4","","100","","0.0","","12","","8","","2.0","","97.93","","","","-7","","Fog"
"-87.93","52.20","LANSDOWNE HOUSE A","6014351","2020-11-04 11:00","2020","11","04","11:00","-2.6","","-2.6","","100","","0.0","","13","","11","","16.1","","97.95","","","","-7","","NA"
"-87.93","52.20","LANSDOWNE HOUSE A","6014351","2020-11-04 12:00","2020","11","04","12:00","-2.0","","-2.0","","100","","0.0","","","M","","M","","M","97.89","","","","","","NA"
"-87.93","52.20","LANSDOWNE HOUSE A","6014351","2020-11-04 13:00","2020","11","04","13:00","-1.5","","-1.5","","100","","0.0","","10","","11","","16.1","","97.85","","","","-5","","NA"
"-87.93","52.20","LANSDOWNE HOUSE A","6014351","2020-11-04 14:00","2020","11","04","14:00","-1.1","","-1.1","","100","","0.0","","10","","13","","16.1","","97.78","","","","-5","","NA"
"-87.93","52.20","LANSDOWNE HOUSE A","6014351","2020-11-04 15:00","2020","11","04","15:00","-1.1","","-1.1","","100","","0.0","","9","","11","","14.5","","97.77","","","","-5","","NA"
"-87.93","52.20","LANSDOWNE HOUSE A","6014351","2020-11-04 16:00","2020","11","04","16:00","-1.0","","-1.0","","100","","0.0","","12","","11","","2.8","","97.79","","","","-5","","Fog"
"-87.93","52.20","LANSDOWNE HOUSE A","6014351","2020-11-04 17:00","2020","11","04","17:00","-1.2","","-1.2","","100","","0.0","","12","","17","","1.2","","97.71","","","","-6","","Fog"
"-87.93","52.20","LANSDOWNE HOUSE A","6014351","2020-11-04 18:00","2020","11","04","18:00","-1.3","","-1.3","","100","","0.0","","12","","9","","1.6","","97.76","","","","-5","","Fog"
"-87.93","52.20","LANSDOWNE HOUSE A","6014351","2020-11-04 19:00","2020","11","04","19:00","-1.5","","-1.5","","100","","0.0","","13","","13","","2.0","","97.70","","","","-6","","Fog"
"-87.93","52.20","LANSDOWNE HOUSE A","6014351","2020-11-04 20:00","2020","11","04","20:00","-1.7","","-1.7","","100","","0.0","","17","","8","","8.1","","97.66","","","","-5","","Fog"
"-87.93","52.20","LANSDOWNE HOUSE A","6014351","2020-11-04 21:00","2020","11","04","21:00","-1.8","","-1.8","","100","","0.0","","14","","9","","16.1","","97.61","","","","-5","","NA"
"-87.93","52.20","LANSDOWNE HOUSE A","6014351","2020-11-04 22:00","2020","11","04","22:00","-1.6","","-1.6","","100","","0.0","","","M","4","","3.2","","97.59","","","","-3","","Fog"
"-87.93","52.20","LANSDOWNE HOUSE A","6014351","2020-11-04 23:00","2020","11","04","23:00","-1.5","","-1.5","","100","","0.0","","18","","5","","4.8","","97.49","","","","-3","","Fog"
"-87.93","52.20","LANSDOWNE HOUSE A","6014351","2020-11-05 00:00","2020","11","05","00:00","-1.5","","-1.5","","100","","0.0","","21","","8","","2.4","","97.50","","","","-5","","Fog"
"-87.93","52.20","LANSDOWNE HOUSE A","6014351","2020-11-05 01:00","2020","11","05","01:00","-1.3","","-1.3","","100","","0.0","","24","","8","","1.6","","97.50","","","","-4","","Fog"
"-87.93","52.20","LANSDOWNE HOUSE A","6014351","2020-11-05 02:00","2020","11","05","02:00","-1.1","","-1.1","","100","","0.0","","27","","15","","1.6","","97.57","","","","-6","","Fog"
"-87.93","52.20","LANSDOWNE HOUSE A","6014351","2020-11-05 03:00","2020","11","05","03:00","-1.0","","-1.0","","100","","0.0","","26","","8","","4.8","","97.55","","","","-4","","Fog"
"-87.93","52.20","LANSDOWNE HOUSE A","6014351","2020-11-05 04:00","2020","11","05","04:00","-0.8","","-0.8","","100","","0.0","","27","","13","","12.9","","97.68","","","","-5","","NA"
"-87.93","52.20","LANSDOWNE HOUSE A","6014351","2020-11-05 05:00","2020","11","05","05:00","-0.4","","-0.4","","100","","0.0","","27","","13","","16.1","","97.77","","","","-5","","NA"
"-87.93","52.20","LANSDOWNE HOUSE A","6014351","2020-11-05 06:00","2020","11","05","06:00","0.1","","0.1","","100","","0.0","","27","","9","","16.1","","97.89","","","","","","NA"
"-87.93","52.20","LANSDOWNE HOUSE A","6014351","2020-11-05 07:00","2020","11","05","07:00","0.6","","0.6","","100","","0.0","","30","","13","","4.8","","98.05","","","","","","Fog"
"-87.93","52.20","LANSDOWNE HOUSE A","6014351","2020-11-05 08:00","2020","11","05","08:00","0.8","","0.3","","97","","0.0","","30","","15","","16.1","","98.21","","","","","","NA"
"-87.93","52.20","LANSDOWNE HOUSE A","6014351","2020-11-05 09:00","2020","11","05","09:00","0.6","","0.1","","97","","0.0","","29","","13","","16.1","","98.33","","","","","","NA"
"-87.93","52.20","LANSDOWNE HOUSE A","6014351","2020-11-05 10:00","2020","11","05","10:00","0.8","","-0.1","","94","","0.0","","29","","9","","16.1","","98.44","","","","","","NA"
"-87.93","52.20","LANSDOWNE HOUSE A","6014351","2020-11-05 11:00","2020","11","05","11:00","1.1","","-1.0","","86","","0.0","","29","","13","","16.1","","98.54","","","","","","NA"
"-87.93","52.20","LANSDOWNE HOUSE A","6014351","2020-11-05 12:00","2020","11","05","12:00","1.6","","-0.8","","84","","0.0","","28","","13","","16.1","","98.59","","","","","","NA"
"-87.93","52.20","LANSDOWNE HOUSE A","6014351","2020-11-05 13:00","2020","11","05","13:00","2.3","","-1.2","","78","","0.0","","29","","8","","16.1","","98.59","","","","","","NA"
"-87.93","52.20","LANSDOWNE HOUSE A","6014351","2020-11-05 14:00","2020","11","05","14:00","1.3","","0.0","","91","","0.0","","34","","5","","16.1","","98.69","","","","","","NA"
"-87.93","52.20","LANSDOWNE HOUSE A","6014351","2020-11-05 15:00","2020","11","05","15:00","1.2","","-0.3","","90","","0.0","","36","","8","","16.1","","98.72","","","","","","NA"
"-87.93","52.20","LANSDOWNE HOUSE A","6014351","2020-11-05 16:00","2020","11","05","16:00","0.0","","-1.2","","92","","0.0","","1","","9","","16.1","","98.70","","","","-3","","NA"
"-87.93","52.20","LANSDOWNE HOUSE A","6014351","2020-11-05 17:00","2020","11","05","17:00","-0.2","","-1.9","","88","","0.0","","1","","5","","16.1","","98.69","","","","-2","","NA"
"-87.93","52.20","LANSDOWNE HOUSE A","6014351","2020-11-05 18:00","2020","11","05","18:00","-0.8","","-3.8","","80","","0.0","","7","","13","","16.1","","98.61","","","","-5","","NA"
"-87.93","52.20","LANSDOWNE HOUSE A","6014351","2020-11-05 19:00","2020","11","05","19:00","-1.4","","-4.5","","79","","0.0","","9","","11","","16.1","","98.59","","","","-5","","NA"
"-87.93","52.20","LANSDOWNE HOUSE A","6014351","2020-11-05 20:00","2020","11","05","20:00","-1.4","","-3.4","","86","","0.0","","9","","21","","16.1","","98.47","","","","-7","","Snow"
"-87.93","52.20","LANSDOWNE HOUSE A","6014351","2020-11-05 21:00","2020","11","05","21:00","-1.5","","-2.5","","93","","0.0","","8","","17","","16.1","","98.34","","","","-7","","NA"
"-87.93","52.20","LANSDOWNE HOUSE A","6014351","2020-11-05 22:00","2020","11","05","22:00","-2.2","","-3.5","","91","","0.0","","9","","24","","16.1","","98.19","","","","-9","","Snow"
"-87.93","52.20","LANSDOWNE HOUSE A","6014351","2020-11-05 23:00","2020","11","05","23:00","-2.1","","-2.8","","95","","0.0","","9","","18","","16.1","","98.02","","","","-8","","Snow"
"-87.93","52.20","LANSDOWNE HOUSE A","6014351","2020-11-06 00:00","2020","11","06","00:00","-1.5","","-1.5","","100","","1.5","","10","","21","","16.1","","97.86","","","","-7","","Freezing Rain"
"-87.93","52.20","LANSDOWNE HOUSE A","6014351","2020-11-06 01:00","2020","11","06","01:00","-0.1","","-0.1","","100","","0.5","","12","","15","","16.1","","97.62","","","","-5","","Freezing Rain"
"-87.93","52.20","LANSDOWNE HOUSE A","6014351","2020-11-06 02:00","2020","11","06","02:00","0.0","","0.0","","100","","0.2","","13","","13","","16.1","","97.54","","","","-4","","Rain"
"-87.93","52.20","LANSDOWNE HOUSE A","6014351","2020-11-06 03:00","2020","11","06","03:00","0.2","","0.2","","100","","0.0","","6","","8","","16.1","","97.47","","","","","","NA"
"-87.93","52.20","LANSDOWNE HOUSE A","6014351","2020-11-06 04:00","2020","11","06","04:00","0.0","","0.0","","100","","0.0","","9","","9","","16.1","","97.37","","","","-3","","NA"
"-87.93","52.20","LANSDOWNE HOUSE A","6014351","2020-11-06 05:00","2020","11","06","05:00","-0.1","","-0.1","","100","","0.0","","6","","11","","6.4","","97.30","","","","-4","","Fog"
"-87.93","52.20","LANSDOWNE HOUSE A","6014351","2020-11-06 06:00","2020","11","06","06:00","-1.3","","-1.3","","100","","0.0","","3","","11","","8.1","","97.32","","","","-5","","Fog"
"-87.93","52.20","LANSDOWNE HOUSE A","6014351","2020-11-06 07:00","2020","11","06","07:00","-2.5","","-2.5","","100","","0.0","","2","","17","","4.8","","97.42","","","","-8","","Fog"
"-87.93","52.20","LANSDOWNE HOUSE A","6014351","2020-11-06 08:00","2020","11","06","08:00","-4.4","","-4.4","","100","","0.0","","1","","15","","9.7","","97.55","","","","-10","","Fog"
"-87.93","52.20","LANSDOWNE HOUSE A","6014351","2020-11-06 09:00","2020","11","06","09:00","-6.0","","-6.0","","100","","0.0","","1","","15","","2.4","","97.70","","","","-12","","Snow"
"-87.93","52.20","LANSDOWNE HOUSE A","6014351","2020-11-06 10:00","2020","11","06","10:00","-7.3","","-7.4","","99","","0.0","","35","","13","","11.3","","97.88","","","","-13","","NA"
"-87.93","52.20","LANSDOWNE HOUSE A","6014351","2020-11-06 11:00","2020","11","06","11:00","-7.2","","-7.3","","99","","0.0","","34","","9","","16.1","","98.03","","","","-12","","NA"
"-87.93","52.20","LANSDOWNE HOUSE A","6014351","2020-11-06 12:00","2020","11","06","12:00","-6.7","","-7.0","","98","","0.0","","34","","8","","16.1","","98.22","","","","-11","","NA"
"-87.93","52.20","LANSDOWNE HOUSE A","6014351","2020-11-06 13:00","2020","11","06","13:00","-6.0","","-6.3","","98","","0.0","","32","","13","","16.1","","98.26","","","","-11","","NA"
"-87.93","52.20","LANSDOWNE HOUSE A","6014351","2020-11-06 14:00","2020","11","06","14:00","-5.8","","-6.3","","96","","0.0","","35","","9","","16.1","","98.43","","","","-10","","NA"
"-87.93","52.20","LANSDOWNE HOUSE A","6014351","2020-11-06 15:00","2020","11","06","15:00","-6.0","","-6.4","","97","","0.0","","35","","11","","16.1","","98.47","","","","-11","","NA"
"-87.93","52.20","LANSDOWNE HOUSE A","6014351","2020-11-06 16:00","2020","11","06","16:00","-6.3","","-6.8","","96","","0.0","","36","","13","","16.1","","98.56","","","","-12","","NA"
"-87.93","52.20","LANSDOWNE HOUSE A","6014351","2020-11-06 17:00","2020","11","06","17:00","-6.3","","-6.7","","97","","0.0","","3","","8","","16.1","","98.57","","","","-10","","NA"
"-87.93","52.20","LANSDOWNE HOUSE A","6014351","2020-11-06 18:00","2020","11","06","18:00","-6.2","","-6.7","","96","","0.0","","4","","15","","16.1","","98.65","","","","-12","","NA"
"-87.93","52.20","LANSDOWNE HOUSE A","6014351","2020-11-06 19:00","2020","11","06","19:00","-6.2","","-6.5","","98","","0.0","","9","","15","","16.1","","98.65","","","","-12","","NA"
"-87.93","52.20","LANSDOWNE HOUSE A","6014351","2020-11-06 20:00","2020","11","06","20:00","-6.1","","-6.2","","99","","0.0","","7","","13","","16.1","","98.67","","","","-11","","NA"
"-87.93","52.20","LANSDOWNE HOUSE A","6014351","2020-11-06 21:00","2020","11","06","21:00","-6.0","","-6.1","","99","","0.0","","6","","13","","16.1","","98.75","","","","-11","","NA"
"-87.93","52.20","LANSDOWNE HOUSE A","6014351","2020-11-06 22:00","2020","11","06","22:00","-5.9","","-5.9","","100","","0.0","","6","","9","","12.9","","98.77","","","","-10","","NA"
"-87.93","52.20","LANSDOWNE HOUSE A","6014351","2020-11-06 23:00","2020","11","06","23:00","-5.8","","-5.8","","100","","0.0","","8","","15","","14.5","","98.78","","","","-12","","NA"
"-87.93","52.20","LANSDOWNE HOUSE A","6014351","2020-11-07 00:00","2020","11","07","00:00","-5.7","","-5.7","","100","","0.0","","8","","18","","9.7","","98.74","","","","-12","","Fog"
"-87.93","52.20","LANSDOWNE HOUSE A","6014351","2020-11-07 01:00","2020","11","07","01:00","-5.6","","-5.6","","100","","0.0","","7","","15","","16.1","","98.73","","","","-11","","NA"
"-87.93","52.20","LANSDOWNE HOUSE A","6014351","2020-11-07 02:00","2020","11","07","02:00","-5.5","","-5.6","","99","","0.0","","6","","17","","16.1","","98.75","","","","-12","","NA"
"-87.93","52.20","LANSDOWNE HOUSE A","6014351","2020-11-07 03:00","2020","11","07","03:00","-5.4","","-5.4","","100","","0.0","","8","","15","","16.1","","98.78","","","","-11","","NA"
"-87.93","52.20","LANSDOWNE HOUSE A","6014351","2020-11-07 04:00","2020","11","07","04:00","-5.3","","-5.4","","99","","0.0","","10","","11","","16.1","","98.75","","","","-10","","NA"
"-87.93","52.20","LANSDOWNE HOUSE A","6014351","2020-11-07 05:00","2020","11","07","05:00","-5.2","","-5.3","","99","","0.0","","9","","11","","16.1","","98.73","","","","-10","","NA"
"-87.93","52.20","LANSDOWNE HOUSE A","6014351","2020-11-07 06:00","2020","11","07","06:00","-5.0","","-5.0","","100","","0.0","","8","","11","","16.1","","98.74","","","","-10","","NA"
"-87.93","52.20","LANSDOWNE HOUSE A","6014351","2020-11-07 07:00","2020","11","07","07:00","-5.0","","-5.0","","100","","0.0","","7","","13","","16.1","","98.78","","","","-10","","NA"
"-87.93","52.20","LANSDOWNE HOUSE A","6014351","2020-11-07 08:00","2020","11","07","08:00","-5.0","","-5.0","","100","","0.0","","8","","13","","11.3","","98.78","","","","-10","","NA"
"-87.93","52.20","LANSDOWNE HOUSE A","6014351","2020-11-07 09:00","2020","11","07","09:00","-4.8","","-4.8","","100","","0.0","","7","","15","","16.1","","98.77","","","","-10","","NA"
"-87.93","52.20","LANSDOWNE HOUSE A","6014351","2020-11-07 10:00","2020","11","07","10:00","-4.4","","-4.4","","100","","0.0","","9","","13","","16.1","","98.79","","","","-9","","NA"
"-87.93","52.20","LANSDOWNE HOUSE A","6014351","2020-11-07 11:00","2020","11","07","11:00","-4.1","","-4.1","","100","","0.0","","9","","13","","16.1","","98.77","","","","-9","","NA"
"-87.93","52.20","LANSDOWNE HOUSE A","6014351","2020-11-07 12:00","2020","11","07","12:00","-3.7","","-3.7","","100","","0.0","","8","","15","","14.5","","98.74","","","","-9","","Snow"
"-87.93","52.20","LANSDOWNE HOUSE A","6014351","2020-11-07 13:00","2020","11","07","13:00","-3.1","","-3.2","","99","","0.0","","9","","17","","16.1","","98.66","","","","-9","","Snow"
"-87.93","52.20","LANSDOWNE HOUSE A","6014351","2020-11-07 14:00","2020","11","07","14:00","-2.5","","-2.8","","98","","0.0","","7","","11","","6.4","","98.69","","","","-7","","Snow"
"-87.93","52.20","LANSDOWNE HOUSE A","6014351","2020-11-07 15:00","2020","11","07","15:00","-2.2","","-2.8","","96","","0.0","","7","","15","","16.1","","98.63","","","","-7","","Snow"
"-87.93","52.20","LANSDOWNE HOUSE A","6014351","2020-11-07 16:00","2020","11","07","16:00","-1.9","","-2.2","","98","","0.0","","8","","11","","16.1","","98.66","","","","-6","","Snow"
"-87.93","52.20","LANSDOWNE HOUSE A","6014351","2020-11-07 17:00","2020","11","07","17:00","-1.7","","-1.8","","99","","0.0","","6","","15","","16.1","","98.67","","","","-7","","Snow"
"-87.93","52.20","LANSDOWNE HOUSE A","6014351","2020-11-07 18:00","2020","11","07","18:00","-1.5","","-1.5","","100","","0.0","","9","","13","","14.5","","98.69","","","","-6","","NA"
"-87.93","52.20","LANSDOWNE HOUSE A","6014351","2020-11-07 19:00","2020","11","07","19:00","-1.4","","-1.4","","100","","0.0","","8","","11","","9.7","","98.71","","","","-5","","Fog"
"-87.93","52.20","LANSDOWNE HOUSE A","6014351","2020-11-07 20:00","2020","11","07","20:00","-1.6","","-1.6","","100","","0.0","","8","","17","","9.7","","98.71","","","","-7","","Fog"
"-87.93","52.20","LANSDOWNE HOUSE A","6014351","2020-11-07 21:00","2020","11","07","21:00","-1.8","","-1.8","","100","","0.0","","9","","13","","12.9","","98.71","","","","-6","","NA"
"-87.93","52.20","LANSDOWNE HOUSE A","6014351","2020-11-07 22:00","2020","11","07","22:00","-1.7","","-1.7","","100","","0.0","","9","","13","","9.7","","98.71","","","","-6","","Fog"
"-87.93","52.20","LANSDOWNE HOUSE A","6014351","2020-11-07 23:00","2020","11","07","23:00","-1.8","","-1.8","","100","","0.0","","10","","11","","12.9","","98.72","","","","-6","","NA"
"-87.93","52.20","LANSDOWNE HOUSE A","6014351","2020-11-08 00:00","2020","11","08","00:00","-1.8","","-1.8","","100","","0.0","","8","","17","","16.1","","98.61","","","","-7","","NA"
"-87.93","52.20","LANSDOWNE HOUSE A","6014351","2020-11-08 01:00","2020","11","08","01:00","-1.7","","-1.7","","100","","0.0","","10","","13","","16.1","","98.64","","","","-6","","NA"
"-87.93","52.20","LANSDOWNE HOUSE A","6014351","2020-11-08 02:00","2020","11","08","02:00","-1.7","","-1.7","","100","","0.0","","10","","13","","16.1","","98.57","","","","-6","","NA"
"-87.93","52.20","LANSDOWNE HOUSE A","6014351","2020-11-08 03:00","2020","11","08","03:00","-1.7","","-1.7","","100","","0.0","","10","","13","","16.1","","98.53","","","","-6","","NA"
"-87.93","52.20","LANSDOWNE HOUSE A","6014351","2020-11-08 04:00","2020","11","08","04:00","-1.8","","-1.8","","100","","0.0","","10","","15","","16.1","","98.51","","","","-7","","NA"
"-87.93","52.20","LANSDOWNE HOUSE A","6014351","2020-11-08 05:00","2020","11","08","05:00","-1.8","","-1.8","","100","","0.0","","10","","11","","16.1","","98.51","","","","-6","","NA"
"-87.93","52.20","LANSDOWNE HOUSE A","6014351","2020-11-08 06:00","2020","11","08","06:00","-1.8","","-1.8","","100","","0.0","","10","","11","","16.1","","98.54","","","","-6","","NA"
"-87.93","52.20","LANSDOWNE HOUSE A","6014351","2020-11-08 07:00","2020","11","08","07:00","-1.9","","-1.9","","100","","0.0","","8","","15","","16.1","","98.47","","","","-7","","NA"
"-87.93","52.20","LANSDOWNE HOUSE A","6014351","2020-11-08 08:00","2020","11","08","08:00","-1.7","","-1.7","","100","","0.0","","8","","13","","16.1","","98.50","","","","-6","","NA"
"-87.93","52.20","LANSDOWNE HOUSE A","6014351","2020-11-08 09:00","2020","11","08","09:00","-1.6","","-1.6","","100","","0.0","","10","","11","","16.1","","98.52","","","","-5","","NA"
"-87.93","52.20","LANSDOWNE HOUSE A","6014351","2020-11-08 10:00","2020","11","08","10:00","-1.5","","-1.5","","100","","0.0","","9","","13","","9.7","","98.46","","","","-6","","Fog"
"-87.93","52.20","LANSDOWNE HOUSE A","6014351","2020-11-08 11:00","2020","11","08","11:00","-1.3","","-1.3","","100","","0.0","","10","","11","","4.0","","98.42","","","","-5","","Fog"
"-87.93","52.20","LANSDOWNE HOUSE A","6014351","2020-11-08 12:00","2020","11","08","12:00","-1.0","","-1.0","","100","","0.0","","9","","15","","2.0","","98.39","","","","-6","","Fog"
"-87.93","52.20","LANSDOWNE HOUSE A","6014351","2020-11-08 13:00","2020","11","08","13:00","-0.6","","-0.6","","100","","0.0","","9","","9","","2.8","","98.33","","","","-4","","Fog"
"-87.93","52.20","LANSDOWNE HOUSE A","6014351","2020-11-08 14:00","2020","11","08","14:00","-0.3","","-0.3","","100","","0.0","","10","","13","","4.0","","98.20","","","","-4","","Fog"
"-87.93","52.20","LANSDOWNE HOUSE A","6014351","2020-11-08 15:00","2020","11","08","15:00","0.0","","0.0","","100","","0.0","","10","","9","","3.6","","98.23","","","","-3","","Fog"
"-87.93","52.20","LANSDOWNE HOUSE A","6014351","2020-11-08 16:00","2020","11","08","16:00","-0.1","","-0.1","","100","","0.0","","7","","13","","2.0","","98.20","","","","-4","","Snow"
"-87.93","52.20","LANSDOWNE HOUSE A","6014351","2020-11-08 17:00","2020","11","08","17:00","0.0","","0.0","","100","","0.0","","8","","15","","3.2","","98.15","","","","-4","","Rain,Fog"
"-87.93","52.20","LANSDOWNE HOUSE A","6014351","2020-11-08 18:00","2020","11","08","18:00","0.0","","0.0","","100","","0.0","","7","","13","","2.4","","98.16","","","","-4","","Rain,Fog"
"-87.93","52.20","LANSDOWNE HOUSE A","6014351","2020-11-08 19:00","2020","11","08","19:00","0.0","","0.0","","100","","0.0","","8","","15","","12.9","","98.11","","","","-4","","NA"
"-87.93","52.20","LANSDOWNE HOUSE A","6014351","2020-11-08 20:00","2020","11","08","20:00","0.1","","0.1","","100","","0.0","","9","","13","","16.1","","98.04","","","","","","NA"
"-87.93","52.20","LANSDOWNE HOUSE A","6014351","2020-11-08 21:00","2020","11","08","21:00","0.1","","0.1","","100","","0.0","","10","","9","","2.0","","97.95","","","","","","Fog"
"-87.93","52.20","LANSDOWNE HOUSE A","6014351","2020-11-08 22:00","2020","11","08","22:00","0.1","","0.1","","100","","0.0","","10","","9","","0.8","","97.89","","","","","","Fog"
"-87.93","52.20","LANSDOWNE HOUSE A","6014351","2020-11-08 23:00","2020","11","08","23:00","0.2","","0.2","","100","","0.0","","11","","8","","0.8","","97.82","","","","","","Fog"
"-87.93","52.20","LANSDOWNE HOUSE A","6014351","2020-11-09 00:00","2020","11","09","00:00","0.2","","0.2","","100","","0.0","","11","","5","","0.8","","97.73","","","","","","Fog"
"-87.93","52.20","LANSDOWNE HOUSE A","6014351","2020-11-09 01:00","2020","11","09","01:00","0.4","","0.4","","100","","0.0","","12","","5","","0.6","","97.64","","","","","","Fog"
"-87.93","52.20","LANSDOWNE HOUSE A","6014351","2020-11-09 02:00","2020","11","09","02:00","0.6","","0.6","","100","","0.0","","14","","4","","0.6","","97.56","","","","","","Fog"
"-87.93","52.20","LANSDOWNE HOUSE A","6014351","2020-11-09 03:00","2020","11","09","03:00","0.2","","0.2","","100","","0.0","","6","","4","","1.6","","97.47","","","","","","Fog"
"-87.93","52.20","LANSDOWNE HOUSE A","6014351","2020-11-09 04:00","2020","11","09","04:00","5.9","","5.9","","100","","0.0","","21","","11","","16.1","","97.40","","","","","","NA"
"-87.93","52.20","LANSDOWNE HOUSE A","6014351","2020-11-09 05:00","2020","11","09","05:00","7.3","","7.3","","100","","0.0","","20","","18","","16.1","","97.35","","","","","","NA"
"-87.93","52.20","LANSDOWNE HOUSE A","6014351","2020-11-09 06:00","2020","11","09","06:00","7.8","","7.8","","100","","0.0","","19","","17","","16.1","","97.33","","","","","","NA"
"-87.93","52.20","LANSDOWNE HOUSE A","6014351","2020-11-09 07:00","2020","11","09","07:00","8.0","","8.0","","100","","0.0","","20","","15","","16.1","","97.32","","","","","","NA"
"-87.93","52.20","LANSDOWNE HOUSE A","6014351","2020-11-09 08:00","2020","11","09","08:00","8.8","","8.8","","100","","0.0","","20","","15","","16.1","","97.32","","","","","","NA"
"-87.93","52.20","LANSDOWNE HOUSE A","6014351","2020-11-09 09:00","2020","11","09","09:00","9.9","","9.9","","100","","0.0","","21","","17","","16.1","","97.28","","","","","","NA"
"-87.93","52.20","LANSDOWNE HOUSE A","6014351","2020-11-09 10:00","2020","11","09","10:00","9.7","","9.7","","100","","0.0","","19","","13","","16.1","","97.18","","","","","","NA"
"-87.93","52.20","LANSDOWNE HOUSE A","6014351","2020-11-09 11:00","2020","11","09","11:00","10.0","","10.0","","100","","0.0","","22","","13","","16.1","","97.23","","","","","","NA"
"-87.93","52.20","LANSDOWNE HOUSE A","6014351","2020-11-09 12:00","2020","11","09","12:00","10.5","","10.5","","100","","0.0","","19","","9","","16.1","","97.18","","","","","","NA"
"-87.93","52.20","LANSDOWNE HOUSE A","6014351","2020-11-09 13:00","2020","11","09","13:00","10.6","","10.6","","100","","0.0","","21","","11","","16.1","","97.20","","","","","","NA"
"-87.93","52.20","LANSDOWNE HOUSE A","6014351","2020-11-09 14:00","2020","11","09","14:00","9.8","","9.8","","100","","0.0","","29","","5","","16.1","","97.17","","","","","","NA"
"-87.93","52.20","LANSDOWNE HOUSE A","6014351","2020-11-09 15:00","2020","11","09","15:00","8.3","","7.4","","94","","0.0","","26","","9","","16.1","","97.17","","","","","","Rain"
"-87.93","52.20","LANSDOWNE HOUSE A","6014351","2020-11-09 16:00","2020","11","09","16:00","6.8","","6.1","","95","","0.0","","35","","11","","16.1","","97.00","","","","","","NA"
"-87.93","52.20","LANSDOWNE HOUSE A","6014351","2020-11-09 17:00","2020","11","09","17:00","4.9","","4.3","","96","","0.2","","29","","5","","16.1","","97.15","","","","","","Rain"
"-87.93","52.20","LANSDOWNE HOUSE A","6014351","2020-11-09 18:00","2020","11","09","18:00","3.0","","2.9","","99","","0.2","","24","","4","","16.1","","97.12","","","","","","NA"
"-87.93","52.20","LANSDOWNE HOUSE A","6014351","2020-11-09 19:00","2020","11","09","19:00","2.7","","2.7","","100","","0.0","","","M","4","","16.1","","97.08","","","","","","Rain"
"-87.93","52.20","LANSDOWNE HOUSE A","6014351","2020-11-09 20:00","2020","11","09","20:00","2.2","","2.2","","100","","0.0","","30","","8","","16.1","","97.12","","","","","","NA"
"-87.93","52.20","LANSDOWNE HOUSE A","6014351","2020-11-09 21:00","2020","11","09","21:00","1.7","","1.7","","100","","0.2","","","","0","","16.1","","97.12","","","","","","Rain"
"-87.93","52.20","LANSDOWNE HOUSE A","6014351","2020-11-09 22:00","2020","11","09","22:00","1.3","","1.3","","100","","0.5","","25","","4","","3.2","","97.13","","","","","","Rain,Fog"
"-87.93","52.20","LANSDOWNE HOUSE A","6014351","2020-11-09 23:00","2020","11","09","23:00","1.4","","1.4","","100","","0.2","","26","","5","","12.9","","97.12","","","","","","Rain"
"-87.93","52.20","LANSDOWNE HOUSE A","6014351","2020-11-10 00:00","2020","11","10","00:00","1.3","","1.3","","100","","0.0","","26","","5","","8.1","","97.13","","","","","","Rain,Fog"
"-87.93","52.20","LANSDOWNE HOUSE A","6014351","2020-11-10 01:00","2020","11","10","01:00","0.7","","0.7","","100","","0.5","","","M","4","","6.4","","97.08","","","","","","Rain,Snow"
"-87.93","52.20","LANSDOWNE HOUSE A","6014351","2020-11-10 02:00","2020","11","10","02:00","0.7","","0.7","","100","","0.0","","23","","15","","16.1","","97.14","","","","","","NA"
"-87.93","52.20","LANSDOWNE HOUSE A","6014351","2020-11-10 03:00","2020","11","10","03:00","-0.4","","-0.8","","97","","0.2","","26","","24","","16.1","","97.20","","","","-6","","Snow"
"-87.93","52.20","LANSDOWNE HOUSE A","6014351","2020-11-10 04:00","2020","11","10","04:00","-1.5","","-1.9","","97","","0.0","","25","","17","","16.1","","97.32","","","","-7","","NA"
"-87.93","52.20","LANSDOWNE HOUSE A","6014351","2020-11-10 05:00","2020","11","10","05:00","-2.5","","-3.5","","93","","0.0","","26","","17","","16.1","","97.36","","","","-8","","Snow"
"-87.93","52.20","LANSDOWNE HOUSE A","6014351","2020-11-10 06:00","2020","11","10","06:00","-3.1","","-4.7","","89","","0.0","","26","","21","","16.1","","97.36","","","","-9","","Snow"
"-87.93","52.20","LANSDOWNE HOUSE A","6014351","2020-11-10 07:00","2020","11","10","07:00","-3.5","","-4.6","","92","","0.0","","26","","18","","16.1","","97.46","","","","-9","","NA"
"-87.93","52.20","LANSDOWNE HOUSE A","6014351","2020-11-10 08:00","2020","11","10","08:00","-4.0","","-5.4","","90","","0.0","","26","","15","","16.1","","97.50","","","","-9","","NA"
"-87.93","52.20","LANSDOWNE HOUSE A","6014351","2020-11-10 09:00","2020","11","10","09:00","-4.1","","-5.4","","91","","0.0","","25","","18","","16.1","","97.65","","","","-10","","NA"
"-87.93","52.20","LANSDOWNE HOUSE A","6014351","2020-11-10 10:00","2020","11","10","10:00","-4.5","","-6.1","","89","","0.0","","26","","17","","16.1","","97.66","","","","-10","","Snow"
"-87.93","52.20","LANSDOWNE HOUSE A","6014351","2020-11-10 11:00","2020","11","10","11:00","-4.7","","-7.1","","84","","0.0","","27","","17","","16.1","","97.70","","","","-11","","NA"
"-87.93","52.20","LANSDOWNE HOUSE A","6014351","2020-11-10 12:00","2020","11","10","12:00","-4.4","","-6.9","","83","","0.0","","26","","21","","16.1","","97.69","","","","-11","","NA"
"-87.93","52.20","LANSDOWNE HOUSE A","6014351","2020-11-10 13:00","2020","11","10","13:00","-4.4","","-7.6","","79","","0.0","","26","","17","","16.1","","97.71","","","","-10","","NA"
"-87.93","52.20","LANSDOWNE HOUSE A","6014351","2020-11-10 14:00","2020","11","10","14:00","-4.3","","-7.4","","79","","0.0","","27","","15","","16.1","","97.73","","","","-10","","NA"
"-87.93","52.20","LANSDOWNE HOUSE A","6014351","2020-11-10 15:00","2020","11","10","15:00","-3.7","","-7.9","","73","","0.0","","28","","18","","16.1","","97.73","","","","-10","","NA"
"-87.93","52.20","LANSDOWNE HOUSE A","6014351","2020-11-10 16:00","2020","11","10","16:00","-4.1","","-7.8","","75","","0.0","","27","","15","","16.1","","97.76","","","","-9","","NA"
"-87.93","52.20","LANSDOWNE HOUSE A","6014351","2020-11-10 17:00","2020","11","10","17:00","-4.5","","-7.5","","80","","0.0","","27","","11","","16.1","","97.78","","","","-9","","NA"
"-87.93","52.20","LANSDOWNE HOUSE A","6014351","2020-11-10 18:00","2020","11","10","18:00","-5.3","","-7.8","","83","","0.0","","26","","13","","16.1","","97.76","","","","-10","","Snow"
"-87.93","52.20","LANSDOWNE HOUSE A","6014351","2020-11-10 19:00","2020","11","10","19:00","-5.5","","-7.5","","86","","0.0","","26","","13","","16.1","","97.76","","","","-11","","Snow"
"-87.93","52.20","LANSDOWNE HOUSE A","6014351","2020-11-10 20:00","2020","11","10","20:00","-5.6","","-7.3","","88","","0.0","","29","","11","","16.1","","97.69","","","","-10","","NA"
"-87.93","52.20","LANSDOWNE HOUSE A","6014351","2020-11-10 21:00","2020","11","10","21:00","-5.8","","-7.0","","91","","0.0","","29","","9","","16.1","","97.69","","","","-10","","NA"
"-87.93","52.20","LANSDOWNE HOUSE A","6014351","2020-11-10 22:00","2020","11","10","22:00","-6.0","","-6.8","","94","","0.0","","32","","9","","16.1","","97.58","","","","-10","","NA"
"-87.93","52.20","LANSDOWNE HOUSE A","6014351","2020-11-10 23:00","2020","11","10","23:00","-6.0","","-6.1","","99","","0.0","","34","","8","","16.1","","97.52","","","","-10","","NA"
"-87.93","52.20","LANSDOWNE HOUSE A","6014351","2020-11-11 00:00","2020","11","11","00:00","-5.8","","-5.8","","100","","0.0","","35","","11","","9.7","","97.43","","","","-11","","Fog"
"-87.93","52.20","LANSDOWNE HOUSE A","6014351","2020-11-11 01:00","2020","11","11","01:00","-5.8","","-5.8","","100","","0.0","","34","","13","","11.3","","97.34","","","","-11","","NA"
"-87.93","52.20","LANSDOWNE HOUSE A","6014351","2020-11-11 02:00","2020","11","11","02:00","-5.2","","-5.2","","100","","0.0","","1","","8","","11.3","","97.39","","","","-9","","NA"
"-87.93","52.20","LANSDOWNE HOUSE A","6014351","2020-11-11 03:00","2020","11","11","03:00","-5.4","","-5.4","","100","","0.0","","35","","11","","16.1","","97.32","","","","-10","","NA"
"-87.93","52.20","LANSDOWNE HOUSE A","6014351","2020-11-11 04:00","2020","11","11","04:00","-5.7","","-5.8","","99","","0.0","","34","","8","","16.1","","97.22","","","","-9","","NA"
"-87.93","52.20","LANSDOWNE HOUSE A","6014351","2020-11-11 05:00","2020","11","11","05:00","-5.7","","-5.7","","100","","0.0","","31","","5","","2.0","","97.25","","","","-8","","Fog"
"-87.93","52.20","LANSDOWNE HOUSE A","6014351","2020-11-11 06:00","2020","11","11","06:00","-5.6","","-5.6","","100","","0.0","","35","","8","","16.1","","97.26","","","","-9","","NA"
"-87.93","52.20","LANSDOWNE HOUSE A","6014351","2020-11-11 07:00","2020","11","11","07:00","-5.8","","-5.8","","100","","0.0","","32","","8","","4.0","","97.32","","","","-10","","Fog"
"-87.93","52.20","LANSDOWNE HOUSE A","6014351","2020-11-11 08:00","2020","11","11","08:00","-6.3","","-6.3","","100","","0.0","","29","","9","","3.6","","97.38","","","","-11","","Snow"
"-87.93","52.20","LANSDOWNE HOUSE A","6014351","2020-11-11 09:00","2020","11","11","09:00","-7.4","","-7.5","","99","","0.0","","29","","9","","16.1","","97.50","","","","-12","","NA"
"-87.93","52.20","LANSDOWNE HOUSE A","6014351","2020-11-11 10:00","2020","11","11","10:00","-7.3","","-7.4","","99","","0.0","","28","","11","","16.1","","97.55","","","","-12","","NA"
"-87.93","52.20","LANSDOWNE HOUSE A","6014351","2020-11-11 11:00","2020","11","11","11:00","-6.2","","-6.6","","97","","0.0","","30","","8","","16.1","","97.62","","","","-10","","NA"
"-87.93","52.20","LANSDOWNE HOUSE A","6014351","2020-11-11 12:00","2020","11","11","12:00","-5.2","","-5.7","","96","","0.0","","30","","11","","16.1","","97.63","","","","-10","","NA"
"-87.93","52.20","LANSDOWNE HOUSE A","6014351","2020-11-11 13:00","2020","11","11","13:00","-4.2","","-5.2","","93","","0.0","","29","","9","","16.1","","97.67","","","","-8","","NA"
"-87.93","52.20","LANSDOWNE HOUSE A","6014351","2020-11-11 14:00","2020","11","11","14:00","-3.2","","-5.5","","84","","0.0","","31","","9","","16.1","","97.72","","","","-7","","NA"
"-87.93","52.20","LANSDOWNE HOUSE A","6014351","2020-11-11 15:00","2020","11","11","15:00","-3.4","","-5.2","","87","","0.0","","25","","11","","16.1","","97.77","","","","-8","","NA"
"-87.93","52.20","LANSDOWNE HOUSE A","6014351","2020-11-11 16:00","2020","11","11","16:00","-4.7","","-5.1","","97","","0.0","","26","","8","","16.1","","97.80","","","","-8","","NA"
"-87.93","52.20","LANSDOWNE HOUSE A","6014351","2020-11-11 17:00","2020","11","11","17:00","-4.6","","-5.0","","97","","0.0","","24","","9","","16.1","","97.91","","","","-8","","NA"
"-87.93","52.20","LANSDOWNE HOUSE A","6014351","2020-11-11 18:00","2020","11","11","18:00","-4.7","","-5.0","","98","","0.0","","23","","8","","16.1","","97.97","","","","-8","","NA"
"-87.93","52.20","LANSDOWNE HOUSE A","6014351","2020-11-11 19:00","2020","11","11","19:00","-5.0","","-5.0","","100","","0.0","","28","","5","","16.1","","97.98","","","","-7","","NA"
"-87.93","52.20","LANSDOWNE HOUSE A","6014351","2020-11-11 20:00","2020","11","11","20:00","-5.2","","-5.2","","100","","0.0","","26","","11","","3.6","","98.02","","","","-10","","Fog"
"-87.93","52.20","LANSDOWNE HOUSE A","6014351","2020-11-11 21:00","2020","11","11","21:00","-5.1","","-5.6","","96","","0.0","","","M","4","","16.1","","98.01","","","","-7","","NA"
"-87.93","52.20","LANSDOWNE HOUSE A","6014351","2020-11-11 22:00","2020","11","11","22:00","-5.1","","-6.1","","93","","0.0","","","M","4","","16.1","","98.03","","","","-7","","NA"
"-87.93","52.20","LANSDOWNE HOUSE A","6014351","2020-11-11 23:00","2020","11","11","23:00","-5.2","","-5.7","","96","","0.0","","20","","5","","16.1","","98.02","","","","-7","","NA"
"-87.93","52.20","LANSDOWNE HOUSE A","6014351","2020-11-12 00:00","2020","11","12","00:00","-5.3","","-5.8","","96","","0.0","","20","","11","","16.1","","98.03","","","","-10","","NA"
"-87.93","52.20","LANSDOWNE HOUSE A","6014351","2020-11-12 01:00","2020","11","12","01:00","-5.5","","-6.0","","96","","0.0","","21","","11","","16.1","","98.01","","","","-10","","Snow"
"-87.93","52.20","LANSDOWNE HOUSE A","6014351","2020-11-12 02:00","2020","11","12","02:00","-5.4","","-5.9","","96","","0.0","","20","","8","","16.1","","97.97","","","","-9","","NA"
"-87.93","52.20","LANSDOWNE HOUSE A","6014351","2020-11-12 03:00","2020","11","12","03:00","-5.4","","-5.9","","96","","0.0","","","M","4","","16.1","","97.93","","","","-7","","NA"
"-87.93","52.20","LANSDOWNE HOUSE A","6014351","2020-11-12 04:00","2020","11","12","04:00","-5.4","","-5.9","","96","","0.0","","","M","4","","16.1","","97.89","","","","-7","","Snow"
"-87.93","52.20","LANSDOWNE HOUSE A","6014351","2020-11-12 05:00","2020","11","12","05:00","-5.6","","-6.1","","96","","0.0","","16","","8","","16.1","","97.89","","","","-9","","Snow"
"-87.93","52.20","LANSDOWNE HOUSE A","6014351","2020-11-12 06:00","2020","11","12","06:00","-5.8","","-6.2","","97","","0.0","","","M","4","","8.1","","97.86","","","","-8","","Snow"
"-87.93","52.20","LANSDOWNE HOUSE A","6014351","2020-11-12 07:00","2020","11","12","07:00","-6.2","","-6.3","","99","","0.0","","7","","4","","16.1","","97.85","","","","-8","","Snow"
"-87.93","52.20","LANSDOWNE HOUSE A","6014351","2020-11-12 08:00","2020","11","12","08:00","-6.6","","-6.7","","99","","0.0","","","","0","","16.1","","97.87","","","","","","NA"
"-87.93","52.20","LANSDOWNE HOUSE A","6014351","2020-11-12 09:00","2020","11","12","09:00","-5.9","","-6.0","","99","","0.0","","","","0","","16.1","","97.89","","","","","","Snow"
"-87.93","52.20","LANSDOWNE HOUSE A","6014351","2020-11-12 10:00","2020","11","12","10:00","-5.5","","-5.8","","98","","0.0","","","M","4","","16.1","","97.90","","","","-7","","Snow"
"-87.93","52.20","LANSDOWNE HOUSE A","6014351","2020-11-12 11:00","2020","11","12","11:00","-4.8","","-5.9","","92","","0.0","","","M","4","","16.1","","97.91","","","","-7","","Snow"
"-87.93","52.20","LANSDOWNE HOUSE A","6014351","2020-11-12 12:00","2020","11","12","12:00","-4.3","","-5.9","","89","","0.0","","31","","5","","16.1","","97.92","","","","-6","","NA"
"-87.93","52.20","LANSDOWNE HOUSE A","6014351","2020-11-12 13:00","2020","11","12","13:00","-4.0","","-6.1","","86","","0.0","","","M","4","","11.3","","97.92","","","","-6","","Snow"
"-87.93","52.20","LANSDOWNE HOUSE A","6014351","2020-11-12 14:00","2020","11","12","14:00","-3.7","","-6.1","","83","","0.0","","23","","5","","16.1","","97.94","","","","-6","","Snow"
"-87.93","52.20","LANSDOWNE HOUSE A","6014351","2020-11-12 15:00","2020","11","12","15:00","-3.7","","-6.0","","84","","0.0","","","","0","","11.3","","97.95","","","","","","Snow"
"-87.93","52.20","LANSDOWNE HOUSE A","6014351","2020-11-12 16:00","2020","11","12","16:00","-3.9","","-5.5","","89","","0.0","","","","0","","16.1","","97.96","","","","","","Snow"
"-87.93","52.20","LANSDOWNE HOUSE A","6014351","2020-11-12 17:00","2020","11","12","17:00","-4.4","","-5.2","","94","","0.0","","","","0","","14.5","","98.00","","","","","","Snow"
"-87.93","52.20","LANSDOWNE HOUSE A","6014351","2020-11-12 18:00","2020","11","12","18:00","-4.9","","-5.2","","98","","0.0","","","","0","","16.1","","98.05","","","","","","Snow"
"-87.93","52.20","LANSDOWNE HOUSE A","6014351","2020-11-12 19:00","2020","11","12","19:00","-4.7","","-5.0","","98","","0.0","","","","0","","4.0","","98.07","","","","","","Snow"
"-87.93","52.20","LANSDOWNE HOUSE A","6014351","2020-11-12 20:00","2020","11","12","20:00","-4.9","","-5.2","","98","","0.0","","12","","5","","16.1","","98.05","","","","-7","","Snow"
"-87.93","52.20","LANSDOWNE HOUSE A","6014351","2020-11-12 21:00","2020","11","12","21:00","-5.2","","-5.2","","100","","0.0","","13","","4","","11.3","","98.06","","","","-7","","Snow"
"-87.93","52.20","LANSDOWNE HOUSE A","6014351","2020-11-12 22:00","2020","11","12","22:00","-5.2","","-5.2","","100","","0.0","","","","0","","12.9","","98.06","","","","","","Snow"
"-87.93","52.20","LANSDOWNE HOUSE A","6014351","2020-11-12 23:00","2020","11","12","23:00","-5.2","","-5.2","","100","","0.0","","30","","5","","16.1","","98.09","","","","-7","","Snow"
"-87.93","52.20","LANSDOWNE HOUSE A","6014351","2020-11-13 00:00","2020","11","13","00:00","-5.0","","-5.1","","99","","0.0","","27","","5","","16.1","","98.12","","","","-7","","Snow"
"-87.93","52.20","LANSDOWNE HOUSE A","6014351","2020-11-13 01:00","2020","11","13","01:00","-5.6","","-6.0","","97","","0.0","","29","","9","","16.1","","98.16","","","","-10","","Snow"
"-87.93","52.20","LANSDOWNE HOUSE A","6014351","2020-11-13 02:00","2020","11","13","02:00","-6.8","","-7.6","","94","","0.0","","28","","13","","12.9","","98.18","","","","-12","","Snow"
"-87.93","52.20","LANSDOWNE HOUSE A","6014351","2020-11-13 03:00","2020","11","13","03:00","-7.8","","-8.5","","95","","0.0","","28","","8","","9.7","","98.24","","","","-12","","Snow"
"-87.93","52.20","LANSDOWNE HOUSE A","6014351","2020-11-13 04:00","2020","11","13","04:00","-9.0","","-10.2","","91","","0.0","","28","","9","","16.1","","98.28","","","","-14","","Snow"
"-87.93","52.20","LANSDOWNE HOUSE A","6014351","2020-11-13 05:00","2020","11","13","05:00","-10.8","","-11.9","","92","","0.0","","29","","13","","16.1","","98.35","","","","-17","","NA"
"-87.93","52.20","LANSDOWNE HOUSE A","6014351","2020-11-13 06:00","2020","11","13","06:00","-13.2","","-14.8","","88","","0.0","","29","","11","","16.1","","98.43","","","","-19","","NA"
"-87.93","52.20","LANSDOWNE HOUSE A","6014351","2020-11-13 07:00","2020","11","13","07:00","-13.8","","-15.4","","88","","0.0","","29","","11","","16.1","","98.47","","","","-20","","NA"
"-87.93","52.20","LANSDOWNE HOUSE A","6014351","2020-11-13 08:00","2020","11","13","08:00","-13.6","","-14.9","","90","","0.0","","24","","5","","16.1","","98.45","","","","-17","","Snow"
"-87.93","52.20","LANSDOWNE HOUSE A","6014351","2020-11-13 09:00","2020","11","13","09:00","-13.1","","-14.4","","90","","0.0","","25","","9","","16.1","","98.47","","","","-19","","Snow"
"-87.93","52.20","LANSDOWNE HOUSE A","6014351","2020-11-13 10:00","2020","11","13","10:00","-12.2","","-13.9","","87","","0.0","","25","","9","","16.1","","98.45","","","","-17","","Snow"
"-87.93","52.20","LANSDOWNE HOUSE A","6014351","2020-11-13 11:00","2020","11","13","11:00","-11.0","","-12.8","","87","","0.0","","27","","9","","16.1","","98.43","","","","-16","","Snow"
"-87.93","52.20","LANSDOWNE HOUSE A","6014351","2020-11-13 12:00","2020","11","13","12:00","-10.3","","-13.0","","81","","0.0","","26","","11","","16.1","","98.38","","","","-16","","Snow"
"-87.93","52.20","LANSDOWNE HOUSE A","6014351","2020-11-13 13:00","2020","11","13","13:00","-9.6","","-12.7","","78","","0.0","","25","","17","","16.1","","98.33","","","","-17","","Snow"
"-87.93","52.20","LANSDOWNE HOUSE A","6014351","2020-11-13 14:00","2020","11","13","14:00","-9.1","","-12.2","","78","","0.0","","24","","15","","16.1","","98.29","","","","-16","","Snow"
"-87.93","52.20","LANSDOWNE HOUSE A","6014351","2020-11-13 15:00","2020","11","13","15:00","-8.8","","-12.3","","76","","0.0","","25","","13","","16.1","","98.24","","","","-15","","Snow"
"-87.93","52.20","LANSDOWNE HOUSE A","6014351","2020-11-13 16:00","2020","11","13","16:00","-8.4","","-11.9","","76","","0.0","","25","","11","","16.1","","98.22","","","","-14","","Snow"
"-87.93","52.20","LANSDOWNE HOUSE A","6014351","2020-11-13 17:00","2020","11","13","17:00","-8.6","","-11.2","","82","","0.0","","21","","8","","16.1","","98.15","","","","-13","","Snow"
"-87.93","52.20","LANSDOWNE HOUSE A","6014351","2020-11-13 18:00","2020","11","13","18:00","-9.2","","-11.0","","87","","0.0","","17","","8","","16.1","","98.14","","","","-14","","NA"
"-87.93","52.20","LANSDOWNE HOUSE A","6014351","2020-11-13 19:00","2020","11","13","19:00","-10.4","","-11.7","","91","","0.0","","17","","5","","16.1","","98.10","","","","-13","","NA"
"-87.93","52.20","LANSDOWNE HOUSE A","6014351","2020-11-13 20:00","2020","11","13","20:00","-10.6","","-11.8","","91","","0.0","","17","","11","","16.1","","98.05","","","","-16","","NA"
"-87.93","52.20","LANSDOWNE HOUSE A","6014351","2020-11-13 21:00","2020","11","13","21:00","-10.7","","-11.9","","91","","0.0","","17","","11","","16.1","","97.99","","","","-16","","NA"
"-87.93","52.20","LANSDOWNE HOUSE A","6014351","2020-11-13 22:00","2020","11","13","22:00","-11.3","","-12.4","","92","","0.0","","18","","8","","16.1","","97.95","","","","-16","","NA"
"-87.93","52.20","LANSDOWNE HOUSE A","6014351","2020-11-13 23:00","2020","11","13","23:00","-10.7","","-11.8","","92","","0.0","","18","","8","","16.1","","97.88","","","","-15","","NA"
"-87.93","52.20","LANSDOWNE HOUSE A","6014351","2020-11-14 00:00","2020","11","14","00:00","-9.7","","-10.9","","91","","0.0","","20","","9","","16.1","","97.83","","","","-15","","NA"
"-87.93","52.20","LANSDOWNE HOUSE A","6014351","2020-11-14 01:00","2020","11","14","01:00","-8.9","","-10.4","","89","","0.0","","21","","13","","16.1","","97.80","","","","-15","","NA"
"-87.93","52.20","LANSDOWNE HOUSE A","6014351","2020-11-14 02:00","2020","11","14","02:00","-9.5","","-10.9","","90","","0.0","","19","","8","","16.1","","97.78","","","","-14","","NA"
"-87.93","52.20","LANSDOWNE HOUSE A","6014351","2020-11-14 03:00","2020","11","14","03:00","-10.5","","-11.5","","93","","0.0","","19","","8","","16.1","","97.74","","","","-15","","NA"
"-87.93","52.20","LANSDOWNE HOUSE A","6014351","2020-11-14 04:00","2020","11","14","04:00","-10.3","","-11.4","","92","","0.0","","21","","11","","16.1","","97.76","","","","-16","","NA"
"-87.93","52.20","LANSDOWNE HOUSE A","6014351","2020-11-14 05:00","2020","11","14","05:00","-10.4","","-11.5","","92","","0.0","","23","","5","","16.1","","97.75","","","","-13","","NA"
"-87.93","52.20","LANSDOWNE HOUSE A","6014351","2020-11-14 06:00","2020","11","14","06:00","-9.9","","-10.8","","93","","0.0","","19","","9","","16.1","","97.71","","","","-15","","NA"
"-87.93","52.20","LANSDOWNE HOUSE A","6014351","2020-11-14 07:00","2020","11","14","07:00","-9.0","","-10.1","","92","","0.0","","19","","15","","16.1","","97.71","","","","-16","","NA"
"-87.93","52.20","LANSDOWNE HOUSE A","6014351","2020-11-14 08:00","2020","11","14","08:00","-8.1","","-9.5","","90","","0.0","","19","","17","","16.1","","97.67","","","","-15","","NA"
"-87.93","52.20","LANSDOWNE HOUSE A","6014351","2020-11-14 09:00","2020","11","14","09:00","-6.7","","-8.1","","90","","0.0","","18","","9","","16.1","","97.60","","","","-11","","NA"
"-87.93","52.20","LANSDOWNE HOUSE A","6014351","2020-11-14 10:00","2020","11","14","10:00","-4.6","","-6.3","","88","","0.0","","17","","8","","16.1","","97.54","","","","-8","","NA"
"-87.93","52.20","LANSDOWNE HOUSE A","6014351","2020-11-14 11:00","2020","11","14","11:00","-3.7","","-5.4","","88","","0.0","","17","","11","","16.1","","97.47","","","","-8","","NA"
"-87.93","52.20","LANSDOWNE HOUSE A","6014351","2020-11-14 12:00","2020","11","14","12:00","-1.5","","-4.0","","83","","0.0","","17","","13","","16.1","","97.39","","","","-6","","NA"
"-87.93","52.20","LANSDOWNE HOUSE A","6014351","2020-11-14 13:00","2020","11","14","13:00","-0.2","","-2.7","","83","","0.0","","17","","18","","16.1","","97.32","","","","-5","","NA"
"-87.93","52.20","LANSDOWNE HOUSE A","6014351","2020-11-14 14:00","2020","11","14","14:00","0.6","","-2.2","","81","","0.0","","17","","18","","16.1","","97.23","","","","","","NA"
"-87.93","52.20","LANSDOWNE HOUSE A","6014351","2020-11-14 15:00","2020","11","14","15:00","1.1","","-1.6","","82","","0.0","","15","","21","","16.1","","97.14","","","","","","NA"
"-87.93","52.20","LANSDOWNE HOUSE A","6014351","2020-11-14 16:00","2020","11","14","16:00","1.4","","-1.9","","79","","0.0","","15","","17","","16.1","","97.08","","","","","","NA"
"-87.93","52.20","LANSDOWNE HOUSE A","6014351","2020-11-14 17:00","2020","11","14","17:00","1.4","","-2.4","","76","","0.0","","15","","15","","16.1","","97.02","","","","","","NA"
"-87.93","52.20","LANSDOWNE HOUSE A","6014351","2020-11-14 18:00","2020","11","14","18:00","1.4","","-2.2","","77","","0.0","","15","","13","","16.1","","96.97","","","","","","NA"
"-87.93","52.20","LANSDOWNE HOUSE A","6014351","2020-11-14 19:00","2020","11","14","19:00","1.6","","-2.0","","77","","0.0","","17","","15","","16.1","","96.96","","","","","","NA"
"-87.93","52.20","LANSDOWNE HOUSE A","6014351","2020-11-14 20:00","2020","11","14","20:00","1.6","","-2.3","","75","","0.0","","18","","17","","16.1","","96.93","","","","","","NA"
"-87.93","52.20","LANSDOWNE HOUSE A","6014351","2020-11-14 21:00","2020","11","14","21:00","1.2","","-2.4","","77","","0.0","","17","","13","","16.1","","96.85","","","","","","NA"
"-87.93","52.20","LANSDOWNE HOUSE A","6014351","2020-11-14 22:00","2020","11","14","22:00","1.6","","-2.0","","77","","0.0","","18","","11","","16.1","","96.82","","","","","","NA"
"-87.93","52.20","LANSDOWNE HOUSE A","6014351","2020-11-14 23:00","2020","11","14","23:00","1.8","","-1.6","","78","","0.0","","17","","15","","16.1","","96.75","","","","","","NA"
"-87.93","52.20","LANSDOWNE HOUSE A","6014351","2020-11-15 00:00","2020","11","15","00:00","1.8","","-0.6","","84","","0.0","","18","","13","","16.1","","96.74","","","","","","NA"
"-87.93","52.20","LANSDOWNE HOUSE A","6014351","2020-11-15 01:00","2020","11","15","01:00","1.0","","0.9","","99","","0.0","","16","","5","","4.8","","96.68","","","","","","Rain,Fog"
"-87.93","52.20","LANSDOWNE HOUSE A","6014351","2020-11-15 02:00","2020","11","15","02:00","0.7","","0.7","","100","","0.0","","","M","4","","8.1","","96.54","","","","","","Fog"
"-87.93","52.20","LANSDOWNE HOUSE A","6014351","2020-11-15 03:00","2020","11","15","03:00","0.7","","0.7","","100","","0.0","","12","","5","","12.9","","96.44","","","","","","NA"
"-87.93","52.20","LANSDOWNE HOUSE A","6014351","2020-11-15 04:00","2020","11","15","04:00","0.5","","0.5","","100","","0.0","","11","","5","","4.0","","96.34","","","","","","Snow"
"-87.93","52.20","LANSDOWNE HOUSE A","6014351","2020-11-15 05:00","2020","11","15","05:00","0.1","","0.1","","100","","1.0","","11","","5","","1.6","","96.25","","","","","","Snow"
"-87.93","52.20","LANSDOWNE HOUSE A","6014351","2020-11-15 06:00","2020","11","15","06:00","0.1","","0.1","","100","","1.5","","","M","4","","1.2","","96.19","","","","","","Snow"
"-87.93","52.20","LANSDOWNE HOUSE A","6014351","2020-11-15 07:00","2020","11","15","07:00","0.0","","0.0","","100","","1.5","","5","","4","","1.6","","96.08","","","","-1","","Snow"
"-87.93","52.20","LANSDOWNE HOUSE A","6014351","2020-11-15 08:00","2020","11","15","08:00","-0.3","","-0.3","","100","","0.8","","6","","5","","1.2","","95.97","","","","-2","","Snow"
"-87.93","52.20","LANSDOWNE HOUSE A","6014351","2020-11-15 09:00","2020","11","15","09:00","-0.1","","-0.1","","100","","0.2","","","","0","","4.0","","95.91","","","","","","Snow"
"-87.93","52.20","LANSDOWNE HOUSE A","6014351","2020-11-15 10:00","2020","11","15","10:00","0.0","","0.0","","100","","0.2","","32","","5","","2.0","","95.86","","","","-2","","Snow"
"-87.93","52.20","LANSDOWNE HOUSE A","6014351","2020-11-15 11:00","2020","11","15","11:00","0.2","","0.2","","100","","0.2","","33","","5","","3.2","","95.82","","","","","","Snow"
"-87.93","52.20","LANSDOWNE HOUSE A","6014351","2020-11-15 12:00","2020","11","15","12:00","0.3","","0.3","","100","","0.2","","","M","5","","4.8","","95.78","","","","","","Snow"
"-87.93","52.20","LANSDOWNE HOUSE A","6014351","2020-11-15 13:00","2020","11","15","13:00","-0.1","","-0.4","","98","","0.0","","33","","8","","12.9","","95.72","","","","-3","","Snow"
"-87.93","52.20","LANSDOWNE HOUSE A","6014351","2020-11-15 14:00","2020","11","15","14:00","-0.4","","-0.7","","98","","0.0","","33","","11","","14.5","","95.71","","","","-4","","Snow"
"-87.93","52.20","LANSDOWNE HOUSE A","6014351","2020-11-15 15:00","2020","11","15","15:00","-0.7","","-1.0","","98","","0.2","","31","","13","","9.7","","95.73","","","","-5","","Snow"
"-87.93","52.20","LANSDOWNE HOUSE A","6014351","2020-11-15 16:00","2020","11","15","16:00","-1.5","","-1.8","","98","","0.5","","31","","18","","3.2","","95.80","","","","-7","","Snow"
"-87.93","52.20","LANSDOWNE HOUSE A","6014351","2020-11-15 17:00","2020","11","15","17:00","-2.7","","-3.0","","98","","0.0","","30","","15","","6.4","","95.89","","","","-8","","Freezing Rain,Fog"
"-87.93","52.20","LANSDOWNE HOUSE A","6014351","2020-11-15 18:00","2020","11","15","18:00","-4.2","","-4.8","","96","","0.0","","30","","18","","8.1","","96.02","","","","-10","","Rain,Snow"
"-87.93","52.20","LANSDOWNE HOUSE A","6014351","2020-11-15 19:00","2020","11","15","19:00","-5.2","","-5.7","","96","","0.0","","30","","21","","4.8","","96.11","","","","-12","","Freezing Rain,Fog"
"-87.93","52.20","LANSDOWNE HOUSE A","6014351","2020-11-15 20:00","2020","11","15","20:00","-6.7","","-7.4","","95","","0.0","","29","","21","","11.3","","96.20","","","","-14","","Snow"
"-87.93","52.20","LANSDOWNE HOUSE A","6014351","2020-11-15 21:00","2020","11","15","21:00","-7.2","","-8.2","","93","","0.0","","29","","21","","14.5","","96.26","","","","-15","","Snow"
"-87.93","52.20","LANSDOWNE HOUSE A","6014351","2020-11-15 22:00","2020","11","15","22:00","-8.0","","-9.1","","92","","0.0","","29","","22","","8.1","","96.34","","","","-16","","Snow"
"-87.93","52.20","LANSDOWNE HOUSE A","6014351","2020-11-15 23:00","2020","11","15","23:00","-8.2","","-9.3","","92","","0.0","","29","","21","","12.9","","96.43","","","","-16","","Snow"
"-87.93","52.20","LANSDOWNE HOUSE A","6014351","2020-11-16 00:00","2020","11","16","00:00","-8.5","","-9.7","","91","","0.0","","28","","21","","6.4","","96.50","","","","-16","","Snow"
"-87.93","52.20","LANSDOWNE HOUSE A","6014351","2020-11-16 01:00","2020","11","16","01:00","-8.6","","-9.8","","91","","0.0","","28","","18","","4.0","","96.60","","","","-16","","Snow"
"-87.93","52.20","LANSDOWNE HOUSE A","6014351","2020-11-16 02:00","2020","11","16","02:00","-8.8","","-10.0","","91","","0.0","","28","","15","","3.2","","96.70","","","","-15","","Snow"
"-87.93","52.20","LANSDOWNE HOUSE A","6014351","2020-11-16 03:00","2020","11","16","03:00","-9.0","","-10.2","","91","","0.0","","28","","21","","3.2","","96.83","","","","-17","","Snow"
"-87.93","52.20","LANSDOWNE HOUSE A","6014351","2020-11-16 04:00","2020","11","16","04:00","-9.5","","-10.9","","90","","0.0","","30","","24","","4.0","","96.95","","","","-18","","Snow"
"-87.93","52.20","LANSDOWNE HOUSE A","6014351","2020-11-16 05:00","2020","11","16","05:00","-10.1","","-11.6","","89","","0.0","","29","","18","","6.4","","97.03","","","","-18","","Snow"
"-87.93","52.20","LANSDOWNE HOUSE A","6014351","2020-11-16 06:00","2020","11","16","06:00","-10.1","","-11.6","","89","","0.0","","28","","22","","8.1","","97.14","","","","-18","","Snow"
"-87.93","52.20","LANSDOWNE HOUSE A","6014351","2020-11-16 07:00","2020","11","16","07:00","-10.8","","-12.1","","90","","0.0","","29","","18","","4.8","","97.25","","","","-18","","Snow"
"-87.93","52.20","LANSDOWNE HOUSE A","6014351","2020-11-16 08:00","2020","11","16","08:00","-11.4","","-13.2","","87","","0.0","","28","","22","","16.1","","97.36","","","","-20","","Snow"
"-87.93","52.20","LANSDOWNE HOUSE A","6014351","2020-11-16 09:00","2020","11","16","09:00","-12.1","","-13.8","","88","","0.0","","28","","15","","16.1","","97.49","","","","-19","","Snow"
"-87.93","52.20","LANSDOWNE HOUSE A","6014351","2020-11-16 10:00","2020","11","16","10:00","-12.0","","-13.8","","87","","0.0","","28","","21","","16.1","","97.58","","","","-21","","Snow"
"-87.93","52.20","LANSDOWNE HOUSE A","6014351","2020-11-16 11:00","2020","11","16","11:00","-12.0","","-14.0","","85","","0.0","","30","","17","","14.5","","97.65","","","","-20","","Snow"
"-87.93","52.20","LANSDOWNE HOUSE A","6014351","2020-11-16 12:00","2020","11","16","12:00","-12.0","","-14.8","","80","","0.0","","28","","21","","16.1","","97.73","","","","-21","","Snow"
"-87.93","52.20","LANSDOWNE HOUSE A","6014351","2020-11-16 13:00","2020","11","16","13:00","-12.2","","-16.2","","73","","0.0","","30","","18","","16.1","","97.79","","","","-20","","NA"
"-87.93","52.20","LANSDOWNE HOUSE A","6014351","2020-11-16 14:00","2020","11","16","14:00","-12.5","","-17.3","","68","","0.0","","28","","22","","16.1","","97.82","","","","-21","","NA"
"-87.93","52.20","LANSDOWNE HOUSE A","6014351","2020-11-16 15:00","2020","11","16","15:00","-12.5","","-17.4","","67","","0.0","","29","","22","","16.1","","97.90","","","","-21","","NA"
"-87.93","52.20","LANSDOWNE HOUSE A","6014351","2020-11-16 16:00","2020","11","16","16:00","-13.3","","-18.1","","67","","0.0","","28","","15","","16.1","","98.01","","","","-21","","NA"
"-87.93","52.20","LANSDOWNE HOUSE A","6014351","2020-11-16 17:00","2020","11","16","17:00","-14.3","","-18.4","","72","","0.0","","29","","17","","16.1","","98.12","","","","-23","","NA"
"-87.93","52.20","LANSDOWNE HOUSE A","6014351","2020-11-16 18:00","2020","11","16","18:00","-15.2","","-18.7","","75","","0.0","","28","","17","","16.1","","98.19","","","","-24","","NA"
"-87.93","52.20","LANSDOWNE HOUSE A","6014351","2020-11-16 19:00","2020","11","16","19:00","-15.5","","-19.0","","75","","0.0","","27","","17","","16.1","","98.26","","","","-24","","NA"
"-87.93","52.20","LANSDOWNE HOUSE A","6014351","2020-11-16 20:00","2020","11","16","20:00","-15.5","","-18.8","","76","","0.0","","28","","17","","16.1","","98.32","","","","-24","","NA"
"-87.93","52.20","LANSDOWNE HOUSE A","6014351","2020-11-16 21:00","2020","11","16","21:00","-15.7","","-18.7","","78","","0.0","","28","","18","","16.1","","98.38","","","","-25","","NA"
"-87.93","52.20","LANSDOWNE HOUSE A","6014351","2020-11-16 22:00","2020","11","16","22:00","-15.5","","-18.2","","80","","0.0","","29","","15","","16.1","","98.45","","","","-24","","NA"
"-87.93","52.20","LANSDOWNE HOUSE A","6014351","2020-11-16 23:00","2020","11","16","23:00","-15.4","","-17.8","","82","","0.0","","28","","21","","16.1","","98.46","","","","-25","","NA"
"-87.93","52.20","LANSDOWNE HOUSE A","6014351","2020-11-17 00:00","2020","11","17","00:00","-14.9","","-17.0","","84","","0.0","","27","","17","","16.1","","98.52","","","","-23","","Snow"
"-87.93","52.20","LANSDOWNE HOUSE A","6014351","2020-11-17 01:00","2020","11","17","01:00","-14.7","","-16.7","","85","","0.0","","27","","17","","16.1","","98.58","","","","-23","","NA"
"-87.93","52.20","LANSDOWNE HOUSE A","6014351","2020-11-17 02:00","2020","11","17","02:00","-14.3","","-16.4","","84","","0.0","","28","","26","","16.1","","98.67","","","","-24","","Snow"
"-87.93","52.20","LANSDOWNE HOUSE A","6014351","2020-11-17 03:00","2020","11","17","03:00","-14.3","","-16.5","","83","","0.0","","27","","17","","16.1","","98.73","","","","-23","","Snow"
"-87.93","52.20","LANSDOWNE HOUSE A","6014351","2020-11-17 04:00","2020","11","17","04:00","-14.4","","-16.7","","83","","0.0","","28","","18","","16.1","","98.81","","","","-23","","Snow"
"-87.93","52.20","LANSDOWNE HOUSE A","6014351","2020-11-17 05:00","2020","11","17","05:00","-14.5","","-16.8","","83","","0.0","","28","","15","","16.1","","98.91","","","","-22","","Snow"
"-87.93","52.20","LANSDOWNE HOUSE A","6014351","2020-11-17 06:00","2020","11","17","06:00","-14.5","","-16.8","","83","","0.0","","27","","21","","16.1","","98.96","","","","-24","","Snow"
"-87.93","52.20","LANSDOWNE HOUSE A","6014351","2020-11-17 07:00","2020","11","17","07:00","-14.3","","-16.4","","84","","0.0","","27","","17","","16.1","","99.00","","","","-23","","NA"
"-87.93","52.20","LANSDOWNE HOUSE A","6014351","2020-11-17 08:00","2020","11","17","08:00","-13.9","","-16.3","","82","","0.0","","28","","21","","16.1","","99.07","","","","-23","","Snow"
"-87.93","52.20","LANSDOWNE HOUSE A","6014351","2020-11-17 09:00","2020","11","17","09:00","-13.6","","-16.1","","82","","0.0","","29","","15","","16.1","","99.14","","","","-21","","Snow"
"-87.93","52.20","LANSDOWNE HOUSE A","6014351","2020-11-17 10:00","2020","11","17","10:00","-13.2","","-16.0","","80","","0.0","","28","","15","","16.1","","99.19","","","","-21","","NA"
"-87.93","52.20","LANSDOWNE HOUSE A","6014351","2020-11-17 11:00","2020","11","17","11:00","-12.5","","-15.6","","78","","0.0","","28","","17","","16.1","","99.25","","","","-20","","NA"
"-87.93","52.20","LANSDOWNE HOUSE A","6014351","2020-11-17 12:00","2020","11","17","12:00","-12.0","","-15.4","","76","","0.0","","28","","21","","16.1","","99.29","","","","-21","","NA"
"-87.93","52.20","LANSDOWNE HOUSE A","6014351","2020-11-17 13:00","2020","11","17","13:00","-11.5","","-15.1","","75","","0.0","","30","","17","","16.1","","99.34","","","","-19","","NA"
"-87.93","52.20","LANSDOWNE HOUSE A","6014351","2020-11-17 14:00","2020","11","17","14:00","-11.1","","-15.0","","74","","0.0","","30","","13","","16.1","","99.39","","","","-18","","NA"
"-87.93","52.20","LANSDOWNE HOUSE A","6014351","2020-11-17 15:00","2020","11","17","15:00","-10.9","","-15.1","","72","","0.0","","30","","17","","16.1","","99.47","","","","-18","","NA"
"-87.93","52.20","LANSDOWNE HOUSE A","6014351","2020-11-17 16:00","2020","11","17","16:00","-11.1","","-15.5","","71","","0.0","","30","","13","","16.1","","99.57","","","","-18","","Snow"
"-87.93","52.20","LANSDOWNE HOUSE A","6014351","2020-11-17 17:00","2020","11","17","17:00","-11.6","","-15.6","","73","","0.0","","30","","11","","16.1","","99.63","","","","-18","","Snow"
"-87.93","52.20","LANSDOWNE HOUSE A","6014351","2020-11-17 18:00","2020","11","17","18:00","-11.7","","-16.0","","71","","0.0","","28","","15","","16.1","","99.67","","","","-19","","NA"
"-87.93","52.20","LANSDOWNE HOUSE A","6014351","2020-11-17 19:00","2020","11","17","19:00","-11.8","","-15.6","","74","","0.0","","30","","8","","16.1","","99.65","","","","-17","","Snow"
"-87.93","52.20","LANSDOWNE HOUSE A","6014351","2020-11-17 20:00","2020","11","17","20:00","-11.8","","-16.0","","71","","0.0","","28","","9","","16.1","","99.73","","","","-17","","Snow"
"-87.93","52.20","LANSDOWNE HOUSE A","6014351","2020-11-17 21:00","2020","11","17","21:00","-11.9","","-16.0","","72","","0.0","","29","","8","","16.1","","99.67","","","","-17","","NA"
"-87.93","52.20","LANSDOWNE HOUSE A","6014351","2020-11-17 22:00","2020","11","17","22:00","-11.8","","-15.8","","72","","0.0","","29","","9","","16.1","","99.69","","","","-17","","Snow"
"-87.93","52.20","LANSDOWNE HOUSE A","6014351","2020-11-17 23:00","2020","11","17","23:00","-12.0","","-15.7","","75","","0.0","","29","","9","","16.1","","99.70","","","","-17","","Snow"
"-87.93","52.20","LANSDOWNE HOUSE A","6014351","2020-11-18 00:00","2020","11","18","00:00","-11.9","","-15.6","","75","","0.0","","30","","5","","16.1","","99.72","","","","-15","","Snow"
"-87.93","52.20","LANSDOWNE HOUSE A","6014351","2020-11-18 01:00","2020","11","18","01:00","-12.1","","-15.5","","76","","0.0","","","M","4","","16.1","","99.75","","","","-15","","NA"
"-87.93","52.20","LANSDOWNE HOUSE A","6014351","2020-11-18 02:00","2020","11","18","02:00","-12.3","","-15.5","","77","","0.0","","","","0","","16.1","","99.72","","","","","","NA"
"-87.93","52.20","LANSDOWNE HOUSE A","6014351","2020-11-18 03:00","2020","11","18","03:00","-16.4","","-17.7","","90","","0.0","","23","","4","","16.1","","99.71","","","","-19","","NA"
"-87.93","52.20","LANSDOWNE HOUSE A","6014351","2020-11-18 04:00","2020","11","18","04:00","-17.9","","-19.2","","90","","0.0","","21","","5","","16.1","","99.71","","","","-22","","NA"
"-87.93","52.20","LANSDOWNE HOUSE A","6014351","2020-11-18 05:00","2020","11","18","05:00","-18.7","","-20.3","","88","","0.0","","","M","4","","16.1","","99.64","","","","-22","","NA"
"-87.93","52.20","LANSDOWNE HOUSE A","6014351","2020-11-18 06:00","2020","11","18","06:00","-19.4","","-20.9","","88","","0.0","","21","","5","","16.1","","99.61","","","","-24","","NA"
"-87.93","52.20","LANSDOWNE HOUSE A","6014351","2020-11-18 07:00","2020","11","18","07:00","-19.7","","-21.3","","87","","0.0","","18","","5","","16.1","","99.50","","","","-24","","NA"
"-87.93","52.20","LANSDOWNE HOUSE A","6014351","2020-11-18 08:00","2020","11","18","08:00","-17.8","","-19.6","","86","","0.0","","19","","8","","16.1","","99.46","","","","-24","","NA"
"-87.93","52.20","LANSDOWNE HOUSE A","6014351","2020-11-18 09:00","2020","11","18","09:00","-17.1","","-18.9","","86","","0.0","","16","","5","","16.1","","99.42","","","","-21","","NA"
"-87.93","52.20","LANSDOWNE HOUSE A","6014351","2020-11-18 10:00","2020","11","18","10:00","-14.4","","-16.8","","82","","0.0","","17","","8","","16.1","","99.29","","","","-20","","NA"
"-87.93","52.20","LANSDOWNE HOUSE A","6014351","2020-11-18 11:00","2020","11","18","11:00","-12.3","","-15.7","","76","","0.0","","16","","11","","16.1","","99.19","","","","-18","","NA"
"-87.93","52.20","LANSDOWNE HOUSE A","6014351","2020-11-18 12:00","2020","11","18","12:00","-11.3","","-14.6","","77","","0.0","","16","","15","","16.1","","99.03","","","","-18","","NA"
"-87.93","52.20","LANSDOWNE HOUSE A","6014351","2020-11-18 13:00","2020","11","18","13:00","-10.0","","-12.7","","81","","0.0","","14","","11","","16.1","","98.81","","","","-16","","NA"
"-87.93","52.20","LANSDOWNE HOUSE A","6014351","2020-11-18 14:00","2020","11","18","14:00","-9.0","","-11.2","","84","","0.0","","12","","17","","16.1","","98.61","","","","-16","","NA"
"-87.93","52.20","LANSDOWNE HOUSE A","6014351","2020-11-18 15:00","2020","11","18","15:00","-8.7","","-10.1","","89","","0.0","","12","","11","","2.4","","98.52","","","","-14","","Snow"
"-87.93","52.20","LANSDOWNE HOUSE A","6014351","2020-11-18 16:00","2020","11","18","16:00","-8.7","","-9.9","","91","","0.2","","10","","18","","3.2","","98.25","","","","-16","","Snow"
"-87.93","52.20","LANSDOWNE HOUSE A","6014351","2020-11-18 17:00","2020","11","18","17:00","-8.5","","-9.9","","90","","0.0","","11","","21","","12.9","","98.02","","","","-16","","Snow"
"-87.93","52.20","LANSDOWNE HOUSE A","6014351","2020-11-18 18:00","2020","11","18","18:00","-8.3","","-9.7","","90","","0.0","","11","","17","","16.1","","97.90","","","","-15","","NA"
"-87.93","52.20","LANSDOWNE HOUSE A","6014351","2020-11-18 19:00","2020","11","18","19:00","-8.0","","-9.2","","91","","0.0","","12","","13","","16.1","","97.93","","","","-14","","NA"
"-87.93","52.20","LANSDOWNE HOUSE A","6014351","2020-11-18 20:00","2020","11","18","20:00","-7.7","","-8.6","","93","","0.0","","12","","15","","16.1","","97.71","","","","-14","","NA"
"-87.93","52.20","LANSDOWNE HOUSE A","6014351","2020-11-18 21:00","2020","11","18","21:00","-7.2","","-7.9","","95","","0.0","","13","","9","","16.1","","97.60","","","","-12","","NA"
"-87.93","52.20","LANSDOWNE HOUSE A","6014351","2020-11-18 22:00","2020","11","18","22:00","-7.1","","-7.6","","96","","0.0","","12","","13","","16.1","","97.47","","","","-13","","NA"
"-87.93","52.20","LANSDOWNE HOUSE A","6014351","2020-11-18 23:00","2020","11","18","23:00","-6.9","","-7.3","","97","","0.0","","12","","11","","16.1","","97.36","","","","-12","","NA"
"-87.93","52.20","LANSDOWNE HOUSE A","6014351","2020-11-19 00:00","2020","11","19","00:00","-6.6","","-7.0","","97","","0.0","","13","","9","","16.1","","97.28","","","","-11","","NA"
"-87.93","52.20","LANSDOWNE HOUSE A","6014351","2020-11-19 01:00","2020","11","19","01:00","-6.1","","-6.5","","97","","0.0","","13","","8","","16.1","","97.17","","","","-10","","NA"
"-87.93","52.20","LANSDOWNE HOUSE A","6014351","2020-11-19 02:00","2020","11","19","02:00","-5.6","","-6.0","","97","","0.0","","15","","8","","16.1","","97.11","","","","-9","","NA"
"-87.93","52.20","LANSDOWNE HOUSE A","6014351","2020-11-19 03:00","2020","11","19","03:00","-5.3","","-5.7","","97","","0.0","","15","","5","","16.1","","97.05","","","","-8","","NA"
"-87.93","52.20","LANSDOWNE HOUSE A","6014351","2020-11-19 04:00","2020","11","19","04:00","-5.0","","-5.3","","98","","0.0","","","M","4","","16.1","","97.01","","","","-7","","NA"
"-87.93","52.20","LANSDOWNE HOUSE A","6014351","2020-11-19 05:00","2020","11","19","05:00","-4.9","","-5.2","","98","","0.0","","11","","5","","16.1","","96.95","","","","-7","","NA"
"-87.93","52.20","LANSDOWNE HOUSE A","6014351","2020-11-19 06:00","2020","11","19","06:00","-5.9","","-5.9","","100","","0.0","","","M","4","","16.1","","96.89","","","","-8","","NA"
"-87.93","52.20","LANSDOWNE HOUSE A","6014351","2020-11-19 07:00","2020","11","19","07:00","-8.2","","-8.3","","99","","0.0","","","","0","","16.1","","96.86","","","","","","NA"
"-87.93","52.20","LANSDOWNE HOUSE A","6014351","2020-11-19 08:00","2020","11","19","08:00","-6.3","","-6.3","","100","","0.0","","21","","5","","16.1","","96.87","","","","-9","","NA"
"-87.93","52.20","LANSDOWNE HOUSE A","6014351","2020-11-19 09:00","2020","11","19","09:00","-5.0","","-5.0","","100","","0.0","","24","","5","","16.1","","96.94","","","","-7","","NA"
"-87.93","52.20","LANSDOWNE HOUSE A","6014351","2020-11-19 10:00","2020","11","19","10:00","-3.7","","-3.7","","100","","0.0","","26","","9","","6.4","","96.99","","","","-7","","Fog"
"-87.93","52.20","LANSDOWNE HOUSE A","6014351","2020-11-19 11:00","2020","11","19","11:00","-2.2","","-2.2","","100","","0.0","","26","","11","","8.1","","97.06","","","","-6","","Fog"
"-87.93","52.20","LANSDOWNE HOUSE A","6014351","2020-11-19 12:00","2020","11","19","12:00","-1.4","","-1.5","","99","","0.0","","28","","15","","9.7","","97.16","","","","-6","","Fog"
"-87.93","52.20","LANSDOWNE HOUSE A","6014351","2020-11-19 13:00","2020","11","19","13:00","-1.1","","-1.4","","98","","0.0","","28","","15","","11.3","","97.24","","","","-6","","NA"
"-87.93","52.20","LANSDOWNE HOUSE A","6014351","2020-11-19 14:00","2020","11","19","14:00","-1.2","","-2.2","","93","","0.0","","28","","17","","16.1","","97.30","","","","-6","","NA"
"-87.93","52.20","LANSDOWNE HOUSE A","6014351","2020-11-19 15:00","2020","11","19","15:00","-1.7","","-3.0","","91","","0.0","","30","","17","","16.1","","97.40","","","","-7","","NA"
"-87.93","52.20","LANSDOWNE HOUSE A","6014351","2020-11-19 16:00","2020","11","19","16:00","-2.2","","-4.9","","82","","0.0","","29","","18","","16.1","","97.51","","","","-8","","NA"
"-87.93","52.20","LANSDOWNE HOUSE A","6014351","2020-11-19 17:00","2020","11","19","17:00","-2.6","","-4.7","","86","","0.0","","29","","9","","16.1","","97.62","","","","-6","","NA"
"-87.93","52.20","LANSDOWNE HOUSE A","6014351","2020-11-19 18:00","2020","11","19","18:00","-3.1","","-5.6","","83","","0.0","","29","","13","","16.1","","97.75","","","","-8","","NA"
"-87.93","52.20","LANSDOWNE HOUSE A","6014351","2020-11-19 19:00","2020","11","19","19:00","-3.7","","-5.7","","86","","0.0","","29","","11","","16.1","","97.87","","","","-8","","NA"
"-87.93","52.20","LANSDOWNE HOUSE A","6014351","2020-11-19 20:00","2020","11","19","20:00","-3.9","","-5.6","","88","","0.0","","28","","11","","16.1","","97.93","","","","-8","","NA"
"-87.93","52.20","LANSDOWNE HOUSE A","6014351","2020-11-19 21:00","2020","11","19","21:00","-4.3","","-6.3","","86","","0.0","","29","","17","","16.1","","97.99","","","","-10","","NA"
"-87.93","52.20","LANSDOWNE HOUSE A","6014351","2020-11-19 22:00","2020","11","19","22:00","-4.7","","-7.5","","81","","0.0","","29","","13","","16.1","","98.02","","","","-10","","NA"
"-87.93","52.20","LANSDOWNE HOUSE A","6014351","2020-11-19 23:00","2020","11","19","23:00","-5.1","","-8.2","","79","","0.0","","30","","15","","16.1","","98.09","","","","-11","","Snow"
"-87.93","52.20","LANSDOWNE HOUSE A","6014351","2020-11-20 00:00","2020","11","20","00:00","-5.5","","-8.1","","82","","0.0","","28","","18","","16.1","","98.18","","","","-12","","Snow"
"-87.93","52.20","LANSDOWNE HOUSE A","6014351","2020-11-20 01:00","2020","11","20","01:00","-6.0","","-9.1","","79","","0.0","","29","","13","","16.1","","98.21","","","","-11","","Snow"
"-87.93","52.20","LANSDOWNE HOUSE A","6014351","2020-11-20 02:00","2020","11","20","02:00","-6.3","","-9.4","","79","","0.0","","28","","13","","16.1","","98.24","","","","-12","","Snow"
"-87.93","52.20","LANSDOWNE HOUSE A","6014351","2020-11-20 03:00","2020","11","20","03:00","-6.6","","-9.2","","82","","0.0","","29","","11","","16.1","","98.29","","","","-12","","Snow"
"-87.93","52.20","LANSDOWNE HOUSE A","6014351","2020-11-20 04:00","2020","11","20","04:00","-7.3","","-9.3","","86","","0.0","","31","","8","","16.1","","98.31","","","","-11","","Snow"
"-87.93","52.20","LANSDOWNE HOUSE A","6014351","2020-11-20 05:00","2020","11","20","05:00","-7.8","","-9.5","","88","","0.0","","34","","9","","16.1","","98.25","","","","-12","","NA"
"-87.93","52.20","LANSDOWNE HOUSE A","6014351","2020-11-20 06:00","2020","11","20","06:00","-8.1","","-10.4","","84","","0.0","","32","","8","","16.1","","98.36","","","","-12","","NA"
"-87.93","52.20","LANSDOWNE HOUSE A","6014351","2020-11-20 07:00","2020","11","20","07:00","-8.4","","-10.6","","84","","0.0","","33","","9","","16.1","","98.41","","","","-13","","NA"
"-87.93","52.20","LANSDOWNE HOUSE A","6014351","2020-11-20 08:00","2020","11","20","08:00","-9.0","","-9.8","","94","","0.2","","28","","9","","1.6","","98.53","","","","-14","","Snow"
"-87.93","52.20","LANSDOWNE HOUSE A","6014351","2020-11-20 09:00","2020","11","20","09:00","-9.5","","-10.7","","91","","0.2","","29","","13","","2.4","","98.59","","","","-16","","Snow"
"-87.93","52.20","LANSDOWNE HOUSE A","6014351","2020-11-20 10:00","2020","11","20","10:00","-9.3","","-10.5","","91","","0.2","","29","","13","","2.4","","98.67","","","","-15","","Snow"
"-87.93","52.20","LANSDOWNE HOUSE A","6014351","2020-11-20 11:00","2020","11","20","11:00","-9.0","","-10.4","","90","","0.2","","29","","8","","3.6","","98.71","","","","-13","","Snow"
"-87.93","52.20","LANSDOWNE HOUSE A","6014351","2020-11-20 12:00","2020","11","20","12:00","-8.2","","-9.6","","90","","0.0","","29","","11","","2.8","","98.79","","","","-13","","Snow"
"-87.93","52.20","LANSDOWNE HOUSE A","6014351","2020-11-20 13:00","2020","11","20","13:00","-7.3","","-9.1","","87","","0.2","","30","","11","","6.4","","98.86","","","","-12","","Snow"
"-87.93","52.20","LANSDOWNE HOUSE A","6014351","2020-11-20 14:00","2020","11","20","14:00","-7.0","","-8.7","","88","","0.0","","33","","9","","8.1","","98.93","","","","-11","","Snow"
"-87.93","52.20","LANSDOWNE HOUSE A","6014351","2020-11-20 15:00","2020","11","20","15:00","-7.0","","-8.8","","87","","0.0","","31","","11","","4.8","","99.03","","","","-12","","Snow"
"-87.93","52.20","LANSDOWNE HOUSE A","6014351","2020-11-20 16:00","2020","11","20","16:00","-7.4","","-9.4","","86","","0.0","","32","","8","","6.4","","99.17","","","","-11","","Snow"
"-87.93","52.20","LANSDOWNE HOUSE A","6014351","2020-11-20 17:00","2020","11","20","17:00","-7.9","","-10.0","","85","","0.0","","31","","13","","16.1","","99.31","","","","-14","","Snow"
"-87.93","52.20","LANSDOWNE HOUSE A","6014351","2020-11-20 18:00","2020","11","20","18:00","-9.0","","-10.9","","86","","0.0","","30","","15","","16.1","","99.46","","","","-16","","Snow"
"-87.93","52.20","LANSDOWNE HOUSE A","6014351","2020-11-20 19:00","2020","11","20","19:00","-9.9","","-11.5","","88","","0.0","","32","","11","","16.1","","99.56","","","","-15","","Snow"
"-87.93","52.20","LANSDOWNE HOUSE A","6014351","2020-11-20 20:00","2020","11","20","20:00","-10.9","","-12.7","","87","","0.0","","31","","9","","16.1","","99.64","","","","-16","","NA"
"-87.93","52.20","LANSDOWNE HOUSE A","6014351","2020-11-20 21:00","2020","11","20","21:00","-11.9","","-13.4","","89","","0.0","","32","","9","","16.1","","99.73","","","","-17","","Snow"
"-87.93","52.20","LANSDOWNE HOUSE A","6014351","2020-11-20 22:00","2020","11","20","22:00","-13.1","","-14.1","","92","","0.0","","30","","5","","16.1","","99.81","","","","-16","","Snow"
"-87.93","52.20","LANSDOWNE HOUSE A","6014351","2020-11-20 23:00","2020","11","20","23:00","-14.1","","-15.7","","88","","0.0","","28","","8","","16.1","","99.86","","","","-19","","NA"
"-87.93","52.20","LANSDOWNE HOUSE A","6014351","2020-11-21 00:00","2020","11","21","00:00","-17.8","","-19.1","","90","","0.0","","25","","5","","16.1","","99.89","","","","-22","","NA"
"-87.93","52.20","LANSDOWNE HOUSE A","6014351","2020-11-21 01:00","2020","11","21","01:00","-19.1","","-20.0","","93","","0.0","","25","","9","","16.1","","99.93","","","","-26","","NA"
"-87.93","52.20","LANSDOWNE HOUSE A","6014351","2020-11-21 02:00","2020","11","21","02:00","-18.5","","-19.6","","91","","0.0","","26","","11","","16.1","","99.96","","","","-26","","NA"
"-87.93","52.20","LANSDOWNE HOUSE A","6014351","2020-11-21 03:00","2020","11","21","03:00","-17.8","","-18.9","","91","","0.0","","26","","9","","16.1","","99.99","","","","-24","","NA"
"-87.93","52.20","LANSDOWNE HOUSE A","6014351","2020-11-21 04:00","2020","11","21","04:00","-14.9","","-15.9","","92","","0.0","","25","","5","","16.1","","99.99","","","","-18","","Snow"
"-87.93","52.20","LANSDOWNE HOUSE A","6014351","2020-11-21 05:00","2020","11","21","05:00","-13.8","","-14.8","","92","","0.0","","","M","4","","16.1","","99.96","","","","-17","","Snow"
"-87.93","52.20","LANSDOWNE HOUSE A","6014351","2020-11-21 06:00","2020","11","21","06:00","-14.0","","-15.0","","92","","0.0","","","","0","","16.1","","99.94","","","","","","NA"
"-87.93","52.20","LANSDOWNE HOUSE A","6014351","2020-11-21 07:00","2020","11","21","07:00","-13.7","","-14.6","","93","","0.0","","","M","4","","16.1","","99.94","","","","-16","","Snow"
"-87.93","52.20","LANSDOWNE HOUSE A","6014351","2020-11-21 08:00","2020","11","21","08:00","-12.8","","-13.8","","92","","0.0","","19","","8","","16.1","","99.90","","","","-18","","Snow"
"-87.93","52.20","LANSDOWNE HOUSE A","6014351","2020-11-21 09:00","2020","11","21","09:00","-11.8","","-12.9","","92","","0.0","","21","","9","","16.1","","99.89","","","","-17","","Snow"
"-87.93","52.20","LANSDOWNE HOUSE A","6014351","2020-11-21 10:00","2020","11","21","10:00","-10.3","","-11.5","","91","","0.0","","20","","9","","16.1","","99.85","","","","-15","","Snow"
"-87.93","52.20","LANSDOWNE HOUSE A","6014351","2020-11-21 11:00","2020","11","21","11:00","-9.5","","-10.7","","91","","0.0","","20","","9","","16.1","","99.80","","","","-14","","Snow"
"-87.93","52.20","LANSDOWNE HOUSE A","6014351","2020-11-21 12:00","2020","11","21","12:00","-8.8","","-11.0","","84","","0.0","","24","","21","","16.1","","99.73","","","","-17","","Snow"
"-87.93","52.20","LANSDOWNE HOUSE A","6014351","2020-11-21 13:00","2020","11","21","13:00","-8.0","","-10.6","","82","","0.0","","23","","18","","16.1","","99.65","","","","-15","","Snow"
"-87.93","52.20","LANSDOWNE HOUSE A","6014351","2020-11-21 14:00","2020","11","21","14:00","-7.8","","-10.4","","82","","0.0","","22","","22","","16.1","","99.58","","","","-15","","Snow"
"-87.93","52.20","LANSDOWNE HOUSE A","6014351","2020-11-21 15:00","2020","11","21","15:00","-7.5","","-9.9","","83","","0.0","","21","","13","","16.1","","99.50","","","","-13","","Snow"
"-87.93","52.20","LANSDOWNE HOUSE A","6014351","2020-11-21 16:00","2020","11","21","16:00","-7.7","","-9.9","","84","","0.0","","22","","13","","16.1","","99.45","","","","-13","","Snow"
"-87.93","52.20","LANSDOWNE HOUSE A","6014351","2020-11-21 17:00","2020","11","21","17:00","-7.8","","-9.9","","85","","0.0","","21","","13","","16.1","","99.43","","","","-14","","Snow"
"-87.93","52.20","LANSDOWNE HOUSE A","6014351","2020-11-21 18:00","2020","11","21","18:00","-7.7","","-9.7","","86","","0.0","","22","","15","","16.1","","99.41","","","","-14","","Snow"
"-87.93","52.20","LANSDOWNE HOUSE A","6014351","2020-11-21 19:00","2020","11","21","19:00","-7.7","","-9.7","","86","","0.0","","20","","13","","16.1","","99.33","","","","-13","","Snow"
"-87.93","52.20","LANSDOWNE HOUSE A","6014351","2020-11-21 20:00","2020","11","21","20:00","-7.5","","-9.6","","85","","0.0","","22","","15","","16.1","","99.27","","","","-14","","Snow"
"-87.93","52.20","LANSDOWNE HOUSE A","6014351","2020-11-21 21:00","2020","11","21","21:00","-7.2","","-9.5","","84","","0.0","","24","","18","","16.1","","99.22","","","","-14","","Snow"
"-87.93","52.20","LANSDOWNE HOUSE A","6014351","2020-11-21 22:00","2020","11","21","22:00","-7.3","","-9.7","","83","","0.0","","24","","22","","16.1","","99.19","","","","-15","","NA"
"-87.93","52.20","LANSDOWNE HOUSE A","6014351","2020-11-21 23:00","2020","11","21","23:00","-7.4","","-9.7","","84","","0.0","","23","","21","","16.1","","99.16","","","","-15","","NA"
"-87.93","52.20","LANSDOWNE HOUSE A","6014351","2020-11-22 00:00","2020","11","22","00:00","-7.5","","-9.3","","87","","0.0","","22","","11","","16.1","","99.12","","","","-13","","NA"
"-87.93","52.20","LANSDOWNE HOUSE A","6014351","2020-11-22 01:00","2020","11","22","01:00","-8.3","","-9.5","","91","","0.0","","20","","11","","16.1","","99.08","","","","-14","","NA"
"-87.93","52.20","LANSDOWNE HOUSE A","6014351","2020-11-22 02:00","2020","11","22","02:00","-9.0","","-10.1","","92","","0.0","","20","","13","","16.1","","98.99","","","","-15","","NA"
"-87.93","52.20","LANSDOWNE HOUSE A","6014351","2020-11-22 03:00","2020","11","22","03:00","-9.7","","-10.5","","94","","0.0","","20","","11","","16.1","","98.94","","","","-15","","NA"
"-87.93","52.20","LANSDOWNE HOUSE A","6014351","2020-11-22 04:00","2020","11","22","04:00","-10.2","","-11.0","","94","","0.0","","21","","11","","16.1","","98.85","","","","-16","","NA"
"-87.93","52.20","LANSDOWNE HOUSE A","6014351","2020-11-22 05:00","2020","11","22","05:00","-9.3","","-10.2","","93","","0.0","","20","","13","","16.1","","98.75","","","","-15","","NA"
"-87.93","52.20","LANSDOWNE HOUSE A","6014351","2020-11-22 06:00","2020","11","22","06:00","-8.9","","-10.0","","92","","0.0","","22","","15","","16.1","","98.72","","","","-15","","NA"
"-87.93","52.20","LANSDOWNE HOUSE A","6014351","2020-11-22 07:00","2020","11","22","07:00","-8.7","","-9.8","","92","","0.0","","20","","17","","16.1","","98.63","","","","-16","","NA"
"-87.93","52.20","LANSDOWNE HOUSE A","6014351","2020-11-22 08:00","2020","11","22","08:00","-8.5","","-9.2","","95","","0.0","","21","","13","","16.1","","98.59","","","","-14","","NA"
"-87.93","52.20","LANSDOWNE HOUSE A","6014351","2020-11-22 09:00","2020","11","22","09:00","-7.8","","-8.3","","96","","0.0","","23","","13","","16.1","","98.55","","","","-14","","NA"
"-87.93","52.20","LANSDOWNE HOUSE A","6014351","2020-11-22 10:00","2020","11","22","10:00","-7.4","","-8.2","","94","","0.0","","27","","15","","16.1","","98.54","","","","-14","","NA"
"-87.93","52.20","LANSDOWNE HOUSE A","6014351","2020-11-22 11:00","2020","11","22","11:00","-7.0","","-8.0","","93","","0.0","","27","","15","","16.1","","98.54","","","","-13","","NA"
"-87.93","52.20","LANSDOWNE HOUSE A","6014351","2020-11-22 12:00","2020","11","22","12:00","-6.6","","-8.0","","90","","0.0","","25","","11","","16.1","","98.52","","","","-12","","NA"
"-87.93","52.20","LANSDOWNE HOUSE A","6014351","2020-11-22 13:00","2020","11","22","13:00","-6.0","","-7.4","","90","","0.0","","25","","11","","6.4","","98.47","","","","-11","","Snow"
"-87.93","52.20","LANSDOWNE HOUSE A","6014351","2020-11-22 14:00","2020","11","22","14:00","-5.4","","-6.8","","90","","0.0","","25","","9","","6.4","","98.46","","","","-9","","Snow"
"-87.93","52.20","LANSDOWNE HOUSE A","6014351","2020-11-22 15:00","2020","11","22","15:00","-5.5","","-6.6","","92","","0.0","","27","","8","","9.7","","98.47","","","","-9","","Snow"
"-87.93","52.20","LANSDOWNE HOUSE A","6014351","2020-11-22 16:00","2020","11","22","16:00","-7.0","","-8.7","","88","","0.0","","34","","9","","12.9","","98.55","","","","-11","","Snow"
"-87.93","52.20","LANSDOWNE HOUSE A","6014351","2020-11-22 17:00","2020","11","22","17:00","-7.7","","-9.1","","90","","0.0","","33","","8","","16.1","","98.63","","","","-12","","Snow"
"-87.93","52.20","LANSDOWNE HOUSE A","6014351","2020-11-22 18:00","2020","11","22","18:00","-7.9","","-9.9","","86","","0.0","","31","","9","","14.5","","98.71","","","","-12","","Snow"
"-87.93","52.20","LANSDOWNE HOUSE A","6014351","2020-11-22 19:00","2020","11","22","19:00","-8.7","","-11.0","","84","","0.0","","32","","11","","16.1","","98.82","","","","-14","","Snow"
"-87.93","52.20","LANSDOWNE HOUSE A","6014351","2020-11-22 20:00","2020","11","22","20:00","-9.7","","-12.5","","80","","0.0","","34","","15","","16.1","","98.90","","","","-16","","Snow"
"-87.93","52.20","LANSDOWNE HOUSE A","6014351","2020-11-22 21:00","2020","11","22","21:00","-10.6","","-12.8","","84","","0.0","","32","","9","","16.1","","98.94","","","","-16","","NA"
"-87.93","52.20","LANSDOWNE HOUSE A","6014351","2020-11-22 22:00","2020","11","22","22:00","-10.7","","-12.8","","85","","0.0","","31","","5","","16.1","","99.00","","","","-14","","Snow"
"-87.93","52.20","LANSDOWNE HOUSE A","6014351","2020-11-22 23:00","2020","11","22","23:00","-10.8","","-12.6","","87","","0.0","","32","","5","","14.5","","99.04","","","","-14","","Snow"
"-87.93","52.20","LANSDOWNE HOUSE A","6014351","2020-11-23 00:00","2020","11","23","00:00","-10.8","","-13.2","","83","","0.0","","33","","9","","16.1","","99.09","","","","-16","","Snow"
"-87.93","52.20","LANSDOWNE HOUSE A","6014351","2020-11-23 01:00","2020","11","23","01:00","-11.1","","-13.8","","81","","0.0","","34","","15","","16.1","","99.16","","","","-18","","Snow"
"-87.93","52.20","LANSDOWNE HOUSE A","6014351","2020-11-23 02:00","2020","11","23","02:00","-12.0","","-14.9","","79","","0.0","","30","","11","","16.1","","99.23","","","","-18","","Snow"
"-87.93","52.20","LANSDOWNE HOUSE A","6014351","2020-11-23 03:00","2020","11","23","03:00","-12.5","","-15.1","","81","","0.0","","33","","8","","16.1","","99.31","","","","-17","","Snow"
"-87.93","52.20","LANSDOWNE HOUSE A","6014351","2020-11-23 04:00","2020","11","23","04:00","-13.1","","-15.4","","83","","0.0","","31","","5","","16.1","","99.37","","","","-16","","Snow"
"-87.93","52.20","LANSDOWNE HOUSE A","6014351","2020-11-23 05:00","2020","11","23","05:00","-13.7","","-15.9","","84","","0.0","","31","","9","","16.1","","99.41","","","","-19","","Snow"
"-87.93","52.20","LANSDOWNE HOUSE A","6014351","2020-11-23 06:00","2020","11","23","06:00","-14.5","","-16.6","","84","","0.0","","34","","15","","16.1","","99.52","","","","-22","","Snow"
"-87.93","52.20","LANSDOWNE HOUSE A","6014351","2020-11-23 07:00","2020","11","23","07:00","-15.9","","-18.7","","79","","0.0","","35","","17","","16.1","","99.59","","","","-25","","Snow"
"-87.93","52.20","LANSDOWNE HOUSE A","6014351","2020-11-23 08:00","2020","11","23","08:00","-17.4","","-20.1","","80","","0.0","","33","","5","","16.1","","99.65","","","","-21","","NA"
"-87.93","52.20","LANSDOWNE HOUSE A","6014351","2020-11-23 09:00","2020","11","23","09:00","-17.5","","-20.0","","81","","0.0","","31","","9","","16.1","","99.72","","","","-24","","NA"
"-87.93","52.20","LANSDOWNE HOUSE A","6014351","2020-11-23 10:00","2020","11","23","10:00","-16.7","","-19.8","","77","","0.0","","26","","8","","16.1","","99.76","","","","-22","","NA"
"-87.93","52.20","LANSDOWNE HOUSE A","6014351","2020-11-23 11:00","2020","11","23","11:00","-15.5","","-18.8","","76","","0.0","","28","","8","","16.1","","99.78","","","","-21","","NA"
"-87.93","52.20","LANSDOWNE HOUSE A","6014351","2020-11-23 12:00","2020","11","23","12:00","-14.7","","-19.1","","70","","0.0","","29","","9","","16.1","","99.77","","","","-20","","NA"
"-87.93","52.20","LANSDOWNE HOUSE A","6014351","2020-11-23 13:00","2020","11","23","13:00","-14.9","","-19.0","","72","","0.0","","25","","8","","16.1","","99.76","","","","-20","","NA"
"-87.93","52.20","LANSDOWNE HOUSE A","6014351","2020-11-23 14:00","2020","11","23","14:00","-14.9","","-18.6","","74","","0.0","","24","","11","","16.1","","99.78","","","","-21","","Snow"
"-87.93","52.20","LANSDOWNE HOUSE A","6014351","2020-11-23 15:00","2020","11","23","15:00","-14.9","","-18.3","","76","","0.0","","25","","9","","16.1","","99.74","","","","-21","","Snow"
"-87.93","52.20","LANSDOWNE HOUSE A","6014351","2020-11-23 16:00","2020","11","23","16:00","-14.8","","-17.8","","78","","0.0","","25","","5","","16.1","","99.72","","","","-18","","Snow"
"-87.93","52.20","LANSDOWNE HOUSE A","6014351","2020-11-23 17:00","2020","11","23","17:00","-14.8","","-17.4","","81","","0.0","","19","","5","","16.1","","99.72","","","","-18","","NA"
"-87.93","52.20","LANSDOWNE HOUSE A","6014351","2020-11-23 18:00","2020","11","23","18:00","-14.8","","-17.2","","82","","0.0","","20","","11","","16.1","","99.73","","","","-21","","NA"
"-87.93","52.20","LANSDOWNE HOUSE A","6014351","2020-11-23 19:00","2020","11","23","19:00","-14.8","","-17.0","","83","","0.0","","","M","4","","16.1","","99.71","","","","-18","","NA"
"-87.93","52.20","LANSDOWNE HOUSE A","6014351","2020-11-23 20:00","2020","11","23","20:00","-14.6","","-16.6","","85","","0.0","","19","","8","","16.1","","99.71","","","","-20","","NA"
"-87.93","52.20","LANSDOWNE HOUSE A","6014351","2020-11-23 21:00","2020","11","23","21:00","-14.4","","-16.4","","85","","0.0","","20","","5","","16.1","","99.71","","","","-18","","NA"
"-87.93","52.20","LANSDOWNE HOUSE A","6014351","2020-11-23 22:00","2020","11","23","22:00","-14.1","","-16.0","","85","","0.0","","20","","8","","16.1","","99.68","","","","-19","","NA"
"-87.93","52.20","LANSDOWNE HOUSE A","6014351","2020-11-23 23:00","2020","11","23","23:00","-13.9","","-15.8","","86","","0.0","","21","","11","","16.1","","99.66","","","","-20","","Snow"
"-87.93","52.20","LANSDOWNE HOUSE A","6014351","2020-11-24 00:00","2020","11","24","00:00","-14.1","","-16.0","","86","","0.0","","19","","8","","16.1","","99.60","","","","-19","","NA"
"-87.93","52.20","LANSDOWNE HOUSE A","6014351","2020-11-24 01:00","2020","11","24","01:00","-16.7","","-17.8","","91","","0.0","","14","","5","","16.1","","99.56","","","","-21","","NA"
"-87.93","52.20","LANSDOWNE HOUSE A","6014351","2020-11-24 02:00","2020","11","24","02:00","-16.3","","-17.6","","90","","0.0","","13","","8","","16.1","","99.49","","","","-22","","NA"
"-87.93","52.20","LANSDOWNE HOUSE A","6014351","2020-11-24 03:00","2020","11","24","03:00","-14.8","","-16.2","","89","","0.0","","17","","5","","16.1","","99.50","","","","-18","","Snow"
"-87.93","52.20","LANSDOWNE HOUSE A","6014351","2020-11-24 04:00","2020","11","24","04:00","-14.2","","-15.5","","90","","0.0","","11","","5","","16.1","","99.43","","","","-18","","Snow"
"-87.93","52.20","LANSDOWNE HOUSE A","6014351","2020-11-24 05:00","2020","11","24","05:00","-13.8","","-15.1","","90","","0.0","","11","","5","","16.1","","99.35","","","","-17","","Snow"
"-87.93","52.20","LANSDOWNE HOUSE A","6014351","2020-11-24 06:00","2020","11","24","06:00","-13.3","","-14.5","","91","","0.0","","13","","8","","16.1","","99.30","","","","-18","","NA"
"-87.93","52.20","LANSDOWNE HOUSE A","6014351","2020-11-24 07:00","2020","11","24","07:00","-12.6","","-13.8","","91","","0.0","","15","","11","","16.1","","99.20","","","","-19","","NA"
"-87.93","52.20","LANSDOWNE HOUSE A","6014351","2020-11-24 08:00","2020","11","24","08:00","-11.9","","-13.0","","92","","0.0","","15","","11","","16.1","","99.14","","","","-18","","Snow"
"-87.93","52.20","LANSDOWNE HOUSE A","6014351","2020-11-24 09:00","2020","11","24","09:00","-11.8","","-12.9","","92","","0.0","","16","","11","","16.1","","99.10","","","","-18","","Snow"
"-87.93","52.20","LANSDOWNE HOUSE A","6014351","2020-11-24 10:00","2020","11","24","10:00","-11.3","","-12.5","","91","","0.0","","15","","13","","16.1","","99.02","","","","-18","","Snow"
"-87.93","52.20","LANSDOWNE HOUSE A","6014351","2020-11-24 11:00","2020","11","24","11:00","-10.6","","-12.1","","89","","0.0","","16","","13","","16.1","","98.96","","","","-17","","Snow"
"-87.93","52.20","LANSDOWNE HOUSE A","6014351","2020-11-24 12:00","2020","11","24","12:00","-9.6","","-11.2","","88","","0.0","","15","","15","","16.1","","98.86","","","","-16","","NA"
"-87.93","52.20","LANSDOWNE HOUSE A","6014351","2020-11-24 13:00","2020","11","24","13:00","-8.7","","-10.5","","87","","0.0","","16","","9","","16.1","","98.71","","","","-13","","NA"
"-87.93","52.20","LANSDOWNE HOUSE A","6014351","2020-11-24 14:00","2020","11","24","14:00","-8.0","","-9.8","","87","","0.0","","15","","17","","16.1","","98.58","","","","-15","","NA"
"-87.93","52.20","LANSDOWNE HOUSE A","6014351","2020-11-24 15:00","2020","11","24","15:00","-7.6","","-9.4","","87","","0.0","","14","","11","","16.1","","98.48","","","","-13","","NA"
"-87.93","52.20","LANSDOWNE HOUSE A","6014351","2020-11-24 16:00","2020","11","24","16:00","-7.3","","-8.9","","88","","0.0","","14","","13","","16.1","","98.38","","","","-13","","NA"
"-87.93","52.20","LANSDOWNE HOUSE A","6014351","2020-11-24 17:00","2020","11","24","17:00","-7.7","","-9.1","","90","","0.0","","13","","13","","6.4","","98.28","","","","-13","","Snow"
"-87.93","52.20","LANSDOWNE HOUSE A","6014351","2020-11-24 18:00","2020","11","24","18:00","-7.8","","-8.9","","92","","0.0","","13","","11","","6.4","","98.21","","","","-13","","Snow"
"-87.93","52.20","LANSDOWNE HOUSE A","6014351","2020-11-24 19:00","2020","11","24","19:00","-7.8","","-8.8","","92","","0.2","","14","","13","","2.0","","98.10","","","","-14","","Snow"
"-87.93","52.20","LANSDOWNE HOUSE A","6014351","2020-11-24 20:00","2020","11","24","20:00","-8.0","","-8.8","","94","","0.5","","15","","11","","1.6","","98.01","","","","-13","","Snow"
"-87.93","52.20","LANSDOWNE HOUSE A","6014351","2020-11-24 21:00","2020","11","24","21:00","-7.9","","-8.7","","94","","0.8","","14","","9","","1.6","","97.89","","","","-12","","Snow"
"-87.93","52.20","LANSDOWNE HOUSE A","6014351","2020-11-24 22:00","2020","11","24","22:00","-7.8","","-8.9","","92","","0.2","","13","","8","","4.8","","97.81","","","","-12","","Snow"
"-87.93","52.20","LANSDOWNE HOUSE A","6014351","2020-11-24 23:00","2020","11","24","23:00","-7.7","","-8.6","","93","","0.2","","16","","8","","4.8","","97.75","","","","-12","","Snow"
"-87.93","52.20","LANSDOWNE HOUSE A","6014351","2020-11-25 00:00","2020","11","25","00:00","-7.5","","-8.4","","93","","0.0","","17","","5","","16.1","","97.68","","","","-10","","Snow"
"-87.93","52.20","LANSDOWNE HOUSE A","6014351","2020-11-25 01:00","2020","11","25","01:00","-7.4","","-8.1","","95","","0.0","","","","0","","14.5","","97.66","","","","","","Snow"
"-87.93","52.20","LANSDOWNE HOUSE A","6014351","2020-11-25 02:00","2020","11","25","02:00","-7.2","","-7.7","","96","","0.0","","23","","4","","16.1","","97.65","","","","-9","","Snow"
"-87.93","52.20","LANSDOWNE HOUSE A","6014351","2020-11-25 03:00","2020","11","25","03:00","-6.8","","-7.2","","97","","0.0","","22","","4","","12.9","","97.67","","","","-9","","Snow"
"-87.93","52.20","LANSDOWNE HOUSE A","6014351","2020-11-25 04:00","2020","11","25","04:00","-6.4","","-6.7","","98","","0.0","","25","","8","","16.1","","97.71","","","","-10","","Snow"
"-87.93","52.20","LANSDOWNE HOUSE A","6014351","2020-11-25 05:00","2020","11","25","05:00","-5.4","","-5.8","","97","","0.0","","27","","11","","16.1","","97.74","","","","-10","","Snow"
"-87.93","52.20","LANSDOWNE HOUSE A","6014351","2020-11-25 06:00","2020","11","25","06:00","-5.1","","-5.5","","97","","0.0","","27","","9","","16.1","","97.80","","","","-9","","Snow"
"-87.93","52.20","LANSDOWNE HOUSE A","6014351","2020-11-25 07:00","2020","11","25","07:00","-4.8","","-5.3","","96","","0.0","","28","","5","","16.1","","97.84","","","","-7","","Snow"
"-87.93","52.20","LANSDOWNE HOUSE A","6014351","2020-11-25 08:00","2020","11","25","08:00","-4.8","","-5.2","","97","","0.0","","26","","8","","16.1","","97.89","","","","-8","","Snow"
"-87.93","52.20","LANSDOWNE HOUSE A","6014351","2020-11-25 09:00","2020","11","25","09:00","-4.7","","-5.2","","96","","0.0","","27","","5","","16.1","","97.92","","","","-7","","Snow"
"-87.93","52.20","LANSDOWNE HOUSE A","6014351","2020-11-25 10:00","2020","11","25","10:00","-4.6","","-5.3","","95","","0.0","","28","","8","","16.1","","97.94","","","","-8","","Snow"
"-87.93","52.20","LANSDOWNE HOUSE A","6014351","2020-11-25 11:00","2020","11","25","11:00","-4.4","","-5.5","","92","","0.0","","28","","8","","16.1","","98.02","","","","-8","","NA"
"-87.93","52.20","LANSDOWNE HOUSE A","6014351","2020-11-25 12:00","2020","11","25","12:00","-4.4","","-5.8","","90","","0.0","","28","","5","","16.1","","98.01","","","","-7","","NA"
"-87.93","52.20","LANSDOWNE HOUSE A","6014351","2020-11-25 13:00","2020","11","25","13:00","-4.3","","-5.9","","89","","0.0","","","M","4","","16.1","","97.97","","","","-6","","NA"
"-87.93","52.20","LANSDOWNE HOUSE A","6014351","2020-11-25 14:00","2020","11","25","14:00","-3.9","","-5.6","","88","","0.0","","25","","9","","16.1","","98.03","","","","-8","","NA"
"-87.93","52.20","LANSDOWNE HOUSE A","6014351","2020-11-25 15:00","2020","11","25","15:00","-3.9","","-6.1","","85","","0.0","","22","","5","","16.1","","97.95","","","","-6","","NA"
"-87.93","52.20","LANSDOWNE HOUSE A","6014351","2020-11-25 16:00","2020","11","25","16:00","-4.2","","-6.3","","86","","0.0","","21","","9","","16.1","","97.98","","","","-8","","NA"
"-87.93","52.20","LANSDOWNE HOUSE A","6014351","2020-11-25 17:00","2020","11","25","17:00","-4.4","","-6.0","","89","","0.0","","18","","5","","16.1","","97.96","","","","-7","","NA"
"-87.93","52.20","LANSDOWNE HOUSE A","6014351","2020-11-25 18:00","2020","11","25","18:00","-4.3","","-5.8","","90","","0.0","","18","","9","","16.1","","97.89","","","","-8","","NA"
"-87.93","52.20","LANSDOWNE HOUSE A","6014351","2020-11-25 19:00","2020","11","25","19:00","-4.0","","-5.1","","92","","0.0","","18","","9","","16.1","","97.83","","","","-8","","NA"
"-87.93","52.20","LANSDOWNE HOUSE A","6014351","2020-11-25 20:00","2020","11","25","20:00","-3.8","","-4.6","","94","","0.0","","18","","9","","16.1","","97.75","","","","-8","","NA"
"-87.93","52.20","LANSDOWNE HOUSE A","6014351","2020-11-25 21:00","2020","11","25","21:00","-3.1","","-4.1","","93","","0.0","","20","","18","","16.1","","97.69","","","","-9","","NA"
"-87.93","52.20","LANSDOWNE HOUSE A","6014351","2020-11-25 22:00","2020","11","25","22:00","-3.0","","-3.8","","94","","0.0","","20","","11","","16.1","","97.61","","","","-7","","NA"
"-87.93","52.20","LANSDOWNE HOUSE A","6014351","2020-11-25 23:00","2020","11","25","23:00","-2.6","","-3.6","","93","","0.0","","20","","18","","16.1","","97.55","","","","-8","","NA"
"-87.93","52.20","LANSDOWNE HOUSE A","6014351","2020-11-26 00:00","2020","11","26","00:00","-2.4","","-3.7","","91","","0.0","","20","","17","","16.1","","97.50","","","","-8","","NA"
"-87.93","52.20","LANSDOWNE HOUSE A","6014351","2020-11-26 01:00","2020","11","26","01:00","-2.3","","-3.4","","92","","0.0","","20","","17","","16.1","","97.42","","","","-8","","NA"
"-87.93","52.20","LANSDOWNE HOUSE A","6014351","2020-11-26 02:00","2020","11","26","02:00","-2.1","","-3.2","","92","","0.0","","20","","21","","16.1","","97.40","","","","-8","","NA"
"-87.93","52.20","LANSDOWNE HOUSE A","6014351","2020-11-26 03:00","2020","11","26","03:00","-2.0","","-3.0","","93","","0.0","","20","","15","","16.1","","97.33","","","","-7","","NA"
"-87.93","52.20","LANSDOWNE HOUSE A","6014351","2020-11-26 04:00","2020","11","26","04:00","-2.0","","-3.1","","92","","0.0","","20","","15","","16.1","","97.24","","","","-7","","NA"
"-87.93","52.20","LANSDOWNE HOUSE A","6014351","2020-11-26 05:00","2020","11","26","05:00","-2.1","","-3.2","","92","","0.0","","21","","17","","16.1","","97.19","","","","-7","","NA"
"-87.93","52.20","LANSDOWNE HOUSE A","6014351","2020-11-26 06:00","2020","11","26","06:00","-2.2","","-3.5","","91","","0.0","","22","","21","","16.1","","97.17","","","","-8","","NA"
"-87.93","52.20","LANSDOWNE HOUSE A","6014351","2020-11-26 07:00","2020","11","26","07:00","-2.3","","-3.6","","91","","0.0","","22","","18","","16.1","","97.15","","","","-8","","NA"
"-87.93","52.20","LANSDOWNE HOUSE A","6014351","2020-11-26 08:00","2020","11","26","08:00","-2.2","","-3.5","","91","","0.0","","21","","13","","16.1","","97.11","","","","-7","","NA"
"-87.93","52.20","LANSDOWNE HOUSE A","6014351","2020-11-26 09:00","2020","11","26","09:00","-1.9","","-3.2","","91","","0.0","","21","","17","","16.1","","97.05","","","","-7","","NA"
"-87.93","52.20","LANSDOWNE HOUSE A","6014351","2020-11-26 10:00","2020","11","26","10:00","-1.5","","-2.8","","91","","0.0","","22","","18","","9.7","","97.00","","","","-7","","Snow"
"-87.93","52.20","LANSDOWNE HOUSE A","6014351","2020-11-26 11:00","2020","11","26","11:00","-1.5","","-1.9","","97","","0.2","","21","","17","","2.0","","96.97","","","","-7","","Snow"
"-87.93","52.20","LANSDOWNE HOUSE A","6014351","2020-11-26 12:00","2020","11","26","12:00","-1.3","","-1.6","","98","","0.5","","22","","13","","2.0","","96.93","","","","-6","","Snow"
"-87.93","52.20","LANSDOWNE HOUSE A","6014351","2020-11-26 13:00","2020","11","26","13:00","-0.8","","-1.2","","97","","0.2","","23","","15","","2.0","","96.88","","","","-5","","Snow"
"-87.93","52.20","LANSDOWNE HOUSE A","6014351","2020-11-26 14:00","2020","11","26","14:00","-0.5","","-1.1","","96","","0.2","","24","","15","","4.0","","96.88","","","","-5","","Snow"
"-87.93","52.20","LANSDOWNE HOUSE A","6014351","2020-11-26 15:00","2020","11","26","15:00","-0.6","","-1.2","","96","","0.2","","26","","17","","16.1","","96.89","","","","-6","","Snow"
"-87.93","52.20","LANSDOWNE HOUSE A","6014351","2020-11-26 16:00","2020","11","26","16:00","-0.8","","-1.2","","97","","0.0","","26","","17","","16.1","","96.95","","","","-6","","Snow"
"-87.93","52.20","LANSDOWNE HOUSE A","6014351","2020-11-26 17:00","2020","11","26","17:00","-1.9","","-2.5","","96","","0.0","","28","","21","","3.6","","97.08","","","","-8","","Snow"
"-87.93","52.20","LANSDOWNE HOUSE A","6014351","2020-11-26 18:00","2020","11","26","18:00"
"-87.93","52.20","LANSDOWNE HOUSE A","6014351","2020-11-26 19:00","2020","11","26","19:00"
"-87.93","52.20","LANSDOWNE HOUSE A","6014351","2020-11-26 20:00","2020","11","26","20:00"
"-87.93","52.20","LANSDOWNE HOUSE A","6014351","2020-11-26 21:00","2020","11","26","21:00"
"-87.93","52.20","LANSDOWNE HOUSE A","6014351","2020-11-26 22:00","2020","11","26","22:00"
"-87.93","52.20","LANSDOWNE HOUSE A","6014351","2020-11-26 23:00","2020","11","26","23:00"
"-87.93","52.20","LANSDOWNE HOUSE A","6014351","2020-11-27 00:00","2020","11","27","00:00"
"-87.93","52.20","LANSDOWNE HOUSE A","6014351","2020-11-27 01:00","2020","11","27","01:00"
"-87.93","52.20","LANSDOWNE HOUSE A","6014351","2020-11-27 02:00","2020","11","27","02:00"
"-87.93","52.20","LANSDOWNE HOUSE A","6014351","2020-11-27 03:00","2020","11","27","03:00"
"-87.93","52.20","LANSDOWNE HOUSE A","6014351","2020-11-27 04:00","2020","11","27","04:00"
"-87.93","52.20","LANSDOWNE HOUSE A","6014351","2020-11-27 05:00","2020","11","27","05:00"
"-87.93","52.20","LANSDOWNE HOUSE A","6014351","2020-11-27 06:00","2020","11","27","06:00"
"-87.93","52.20","LANSDOWNE HOUSE A","6014351","2020-11-27 07:00","2020","11","27","07:00"
"-87.93","52.20","LANSDOWNE HOUSE A","6014351","2020-11-27 08:00","2020","11","27","08:00"
"-87.93","52.20","LANSDOWNE HOUSE A","6014351","2020-11-27 09:00","2020","11","27","09:00"
"-87.93","52.20","LANSDOWNE HOUSE A","6014351","2020-11-27 10:00","2020","11","27","10:00"
"-87.93","52.20","LANSDOWNE HOUSE A","6014351","2020-11-27 11:00","2020","11","27","11:00"
"-87.93","52.20","LANSDOWNE HOUSE A","6014351","2020-11-27 12:00","2020","11","27","12:00"
"-87.93","52.20","LANSDOWNE HOUSE A","6014351","2020-11-27 13:00","2020","11","27","13:00"
"-87.93","52.20","LANSDOWNE HOUSE A","6014351","2020-11-27 14:00","2020","11","27","14:00"
"-87.93","52.20","LANSDOWNE HOUSE A","6014351","2020-11-27 15:00","2020","11","27","15:00"
"-87.93","52.20","LANSDOWNE HOUSE A","6014351","2020-11-27 16:00","2020","11","27","16:00"
"-87.93","52.20","LANSDOWNE HOUSE A","6014351","2020-11-27 17:00","2020","11","27","17:00"
"-87.93","52.20","LANSDOWNE HOUSE A","6014351","2020-11-27 18:00","2020","11","27","18:00"
"-87.93","52.20","LANSDOWNE HOUSE A","6014351","2020-11-27 19:00","2020","11","27","19:00"
"-87.93","52.20","LANSDOWNE HOUSE A","6014351","2020-11-27 20:00","2020","11","27","20:00"
"-87.93","52.20","LANSDOWNE HOUSE A","6014351","2020-11-27 21:00","2020","11","27","21:00"
"-87.93","52.20","LANSDOWNE HOUSE A","6014351","2020-11-27 22:00","2020","11","27","22:00"
"-87.93","52.20","LANSDOWNE HOUSE A","6014351","2020-11-27 23:00","2020","11","27","23:00"
"-87.93","52.20","LANSDOWNE HOUSE A","6014351","2020-11-28 00:00","2020","11","28","00:00"
"-87.93","52.20","LANSDOWNE HOUSE A","6014351","2020-11-28 01:00","2020","11","28","01:00"
"-87.93","52.20","LANSDOWNE HOUSE A","6014351","2020-11-28 02:00","2020","11","28","02:00"
"-87.93","52.20","LANSDOWNE HOUSE A","6014351","2020-11-28 03:00","2020","11","28","03:00"
"-87.93","52.20","LANSDOWNE HOUSE A","6014351","2020-11-28 04:00","2020","11","28","04:00"
"-87.93","52.20","LANSDOWNE HOUSE A","6014351","2020-11-28 05:00","2020","11","28","05:00"
"-87.93","52.20","LANSDOWNE HOUSE A","6014351","2020-11-28 06:00","2020","11","28","06:00"
"-87.93","52.20","LANSDOWNE HOUSE A","6014351","2020-11-28 07:00","2020","11","28","07:00"
"-87.93","52.20","LANSDOWNE HOUSE A","6014351","2020-11-28 08:00","2020","11","28","08:00"
"-87.93","52.20","LANSDOWNE HOUSE A","6014351","2020-11-28 09:00","2020","11","28","09:00"
"-87.93","52.20","LANSDOWNE HOUSE A","6014351","2020-11-28 10:00","2020","11","28","10:00"
"-87.93","52.20","LANSDOWNE HOUSE A","6014351","2020-11-28 11:00","2020","11","28","11:00"
"-87.93","52.20","LANSDOWNE HOUSE A","6014351","2020-11-28 12:00","2020","11","28","12:00"
"-87.93","52.20","LANSDOWNE HOUSE A","6014351","2020-11-28 13:00","2020","11","28","13:00"
"-87.93","52.20","LANSDOWNE HOUSE A","6014351","2020-11-28 14:00","2020","11","28","14:00"
"-87.93","52.20","LANSDOWNE HOUSE A","6014351","2020-11-28 15:00","2020","11","28","15:00"
"-87.93","52.20","LANSDOWNE HOUSE A","6014351","2020-11-28 16:00","2020","11","28","16:00"
"-87.93","52.20","LANSDOWNE HOUSE A","6014351","2020-11-28 17:00","2020","11","28","17:00"
"-87.93","52.20","LANSDOWNE HOUSE A","6014351","2020-11-28 18:00","2020","11","28","18:00"
"-87.93","52.20","LANSDOWNE HOUSE A","6014351","2020-11-28 19:00","2020","11","28","19:00"
"-87.93","52.20","LANSDOWNE HOUSE A","6014351","2020-11-28 20:00","2020","11","28","20:00"
"-87.93","52.20","LANSDOWNE HOUSE A","6014351","2020-11-28 21:00","2020","11","28","21:00"
"-87.93","52.20","LANSDOWNE HOUSE A","6014351","2020-11-28 22:00","2020","11","28","22:00"
"-87.93","52.20","LANSDOWNE HOUSE A","6014351","2020-11-28 23:00","2020","11","28","23:00"
"-87.93","52.20","LANSDOWNE HOUSE A","6014351","2020-11-29 00:00","2020","11","29","00:00"
"-87.93","52.20","LANSDOWNE HOUSE A","6014351","2020-11-29 01:00","2020","11","29","01:00"
"-87.93","52.20","LANSDOWNE HOUSE A","6014351","2020-11-29 02:00","2020","11","29","02:00"
"-87.93","52.20","LANSDOWNE HOUSE A","6014351","2020-11-29 03:00","2020","11","29","03:00"
"-87.93","52.20","LANSDOWNE HOUSE A","6014351","2020-11-29 04:00","2020","11","29","04:00"
"-87.93","52.20","LANSDOWNE HOUSE A","6014351","2020-11-29 05:00","2020","11","29","05:00"
"-87.93","52.20","LANSDOWNE HOUSE A","6014351","2020-11-29 06:00","2020","11","29","06:00"
"-87.93","52.20","LANSDOWNE HOUSE A","6014351","2020-11-29 07:00","2020","11","29","07:00"
"-87.93","52.20","LANSDOWNE HOUSE A","6014351","2020-11-29 08:00","2020","11","29","08:00"
"-87.93","52.20","LANSDOWNE HOUSE A","6014351","2020-11-29 09:00","2020","11","29","09:00"
"-87.93","52.20","LANSDOWNE HOUSE A","6014351","2020-11-29 10:00","2020","11","29","10:00"
"-87.93","52.20","LANSDOWNE HOUSE A","6014351","2020-11-29 11:00","2020","11","29","11:00"
"-87.93","52.20","LANSDOWNE HOUSE A","6014351","2020-11-29 12:00","2020","11","29","12:00"
"-87.93","52.20","LANSDOWNE HOUSE A","6014351","2020-11-29 13:00","2020","11","29","13:00"
"-87.93","52.20","LANSDOWNE HOUSE A","6014351","2020-11-29 14:00","2020","11","29","14:00"
"-87.93","52.20","LANSDOWNE HOUSE A","6014351","2020-11-29 15:00","2020","11","29","15:00"
"-87.93","52.20","LANSDOWNE HOUSE A","6014351","2020-11-29 16:00","2020","11","29","16:00"
"-87.93","52.20","LANSDOWNE HOUSE A","6014351","2020-11-29 17:00","2020","11","29","17:00"
"-87.93","52.20","LANSDOWNE HOUSE A","6014351","2020-11-29 18:00","2020","11","29","18:00"
"-87.93","52.20","LANSDOWNE HOUSE A","6014351","2020-11-29 19:00","2020","11","29","19:00"
"-87.93","52.20","LANSDOWNE HOUSE A","6014351","2020-11-29 20:00","2020","11","29","20:00"
"-87.93","52.20","LANSDOWNE HOUSE A","6014351","2020-11-29 21:00","2020","11","29","21:00"
"-87.93","52.20","LANSDOWNE HOUSE A","6014351","2020-11-29 22:00","2020","11","29","22:00"
"-87.93","52.20","LANSDOWNE HOUSE A","6014351","2020-11-29 23:00","2020","11","29","23:00"
"-87.93","52.20","LANSDOWNE HOUSE A","6014351","2020-11-30 00:00","2020","11","30","00:00"
"-87.93","52.20","LANSDOWNE HOUSE A","6014351","2020-11-30 01:00","2020","11","30","01:00"
"-87.93","52.20","LANSDOWNE HOUSE A","6014351","2020-11-30 02:00","2020","11","30","02:00"
"-87.93","52.20","LANSDOWNE HOUSE A","6014351","2020-11-30 03:00","2020","11","30","03:00"
"-87.93","52.20","LANSDOWNE HOUSE A","6014351","2020-11-30 04:00","2020","11","30","04:00"
"-87.93","52.20","LANSDOWNE HOUSE A","6014351","2020-11-30 05:00","2020","11","30","05:00"
"-87.93","52.20","LANSDOWNE HOUSE A","6014351","2020-11-30 06:00","2020","11","30","06:00"
"-87.93","52.20","LANSDOWNE HOUSE A","6014351","2020-11-30 07:00","2020","11","30","07:00"
"-87.93","52.20","LANSDOWNE HOUSE A","6014351","2020-11-30 08:00","2020","11","30","08:00"
"-87.93","52.20","LANSDOWNE HOUSE A","6014351","2020-11-30 09:00","2020","11","30","09:00"
"-87.93","52.20","LANSDOWNE HOUSE A","6014351","2020-11-30 10:00","2020","11","30","10:00"
"-87.93","52.20","LANSDOWNE HOUSE A","6014351","2020-11-30 11:00","2020","11","30","11:00"
"-87.93","52.20","LANSDOWNE HOUSE A","6014351","2020-11-30 12:00","2020","11","30","12:00"
"-87.93","52.20","LANSDOWNE HOUSE A","6014351","2020-11-30 13:00","2020","11","30","13:00"
"-87.93","52.20","LANSDOWNE HOUSE A","6014351","2020-11-30 14:00","2020","11","30","14:00"
"-87.93","52.20","LANSDOWNE HOUSE A","6014351","2020-11-30 15:00","2020","11","30","15:00"
"-87.93","52.20","LANSDOWNE HOUSE A","6014351","2020-11-30 16:00","2020","11","30","16:00"
"-87.93","52.20","LANSDOWNE HOUSE A","6014351","2020-11-30 17:00","2020","11","30","17:00"
"-87.93","52.20","LANSDOWNE HOUSE A","6014351","2020-11-30 18:00","2020","11","30","18:00"
"-87.93","52.20","LANSDOWNE HOUSE A","6014351","2020-11-30 19:00","2020","11","30","19:00"
"-87.93","52.20","LANSDOWNE HOUSE A","6014351","2020-11-30 20:00","2020","11","30","20:00"
"-87.93","52.20","LANSDOWNE HOUSE A","6014351","2020-11-30 21:00","2020","11","30","21:00"
"-87.93","52.20","LANSDOWNE HOUSE A","6014351","2020-11-30 22:00","2020","11","30","22:00"
"-87.93","52.20","LANSDOWNE HOUSE A","6014351","2020-11-30 23:00","2020","11","30","23:00"
