"Longitude (x)","Latitude (y)","Station Name","Climate ID","Date/Time (LST)","Year","Month","Day","Time (LST)","Temp (°C)","Temp Flag","Dew Point Temp (°C)","Dew Point Temp Flag","Rel Hum (%)","Rel Hum Flag","Precip. Amount (mm)","Precip. Amount Flag","Wind Dir (10s deg)","Wind Dir Flag","Wind Spd (km/h)","Wind Spd Flag","Visibility (km)","Visibility Flag","Stn Press (kPa)","Stn Press Flag","Hmdx","Hmdx Flag","Wind Chill","Wind Chill Flag","Weather"
"-55.33","47.14","WINTERLAND BRANCH HILL","8404242","2020-10-01 00:00","2020","10","01","00:00","19.9","","19.8","","99","","0.2","","22","","33","","","","100.66","","","","","","NA"
"-55.33","47.14","WINTERLAND BRANCH HILL","8404242","2020-10-01 01:00","2020","10","01","01:00","19.9","","19.8","","100","","0.0","","22","","37","","","","100.60","","","","","","NA"
"-55.33","47.14","WINTERLAND BRANCH HILL","8404242","2020-10-01 02:00","2020","10","01","02:00","19.5","","19.4","","100","","0.0","","22","","38","","","","100.55","","","","","","NA"
"-55.33","47.14","WINTERLAND BRANCH HILL","8404242","2020-10-01 03:00","2020","10","01","03:00","19.8","","19.7","","100","","0.0","","22","","32","","","","100.52","","","","","","NA"
"-55.33","47.14","WINTERLAND BRANCH HILL","8404242","2020-10-01 04:00","2020","10","01","04:00","18.7","","18.5","","99","","6.9","","23","","31","","","","100.54","","","","","","NA"
"-55.33","47.14","WINTERLAND BRANCH HILL","8404242","2020-10-01 05:00","2020","10","01","05:00","18.4","","18.1","","98","","4.5","","23","","28","","","","100.59","","","","","","NA"
"-55.33","47.14","WINTERLAND BRANCH HILL","8404242","2020-10-01 06:00","2020","10","01","06:00","18.2","","17.9","","99","","4.3","","24","","22","","","","100.62","","","","","","NA"
"-55.33","47.14","WINTERLAND BRANCH HILL","8404242","2020-10-01 07:00","2020","10","01","07:00","17.7","","17.5","","99","","0.0","","23","","18","","","","100.66","","","","","","NA"
"-55.33","47.14","WINTERLAND BRANCH HILL","8404242","2020-10-01 08:00","2020","10","01","08:00","17.8","","16.9","","94","","0.9","","25","","20","","","","100.69","","","","","","NA"
"-55.33","47.14","WINTERLAND BRANCH HILL","8404242","2020-10-01 09:00","2020","10","01","09:00","17.5","","16.9","","96","","0.3","","24","","14","","","","100.80","","","","","","NA"
"-55.33","47.14","WINTERLAND BRANCH HILL","8404242","2020-10-01 10:00","2020","10","01","10:00","17.0","","16.3","","96","","0.0","","25","","21","","","","100.79","","","","","","NA"
"-55.33","47.14","WINTERLAND BRANCH HILL","8404242","2020-10-01 11:00","2020","10","01","11:00","16.7","","16.4","","98","","0.0","","25","","16","","","","100.82","","","","","","NA"
"-55.33","47.14","WINTERLAND BRANCH HILL","8404242","2020-10-01 12:00","2020","10","01","12:00","17.4","","16.6","","95","","0.0","","26","","15","","","","100.87","","","","","","NA"
"-55.33","47.14","WINTERLAND BRANCH HILL","8404242","2020-10-01 13:00","2020","10","01","13:00","17.4","","15.8","","90","","0.0","","29","","14","","","","100.86","","","","","","NA"
"-55.33","47.14","WINTERLAND BRANCH HILL","8404242","2020-10-01 14:00","2020","10","01","14:00","17.3","","15.0","","87","","0.0","","30","","12","","","","100.91","","","","","","NA"
"-55.33","47.14","WINTERLAND BRANCH HILL","8404242","2020-10-01 15:00","2020","10","01","15:00","17.8","","15.7","","87","","0.0","","27","","9","","","","100.95","","","","","","NA"
"-55.33","47.14","WINTERLAND BRANCH HILL","8404242","2020-10-01 16:00","2020","10","01","16:00","16.6","","15.2","","91","","0.0","","30","","10","","","","100.97","","","","","","NA"
"-55.33","47.14","WINTERLAND BRANCH HILL","8404242","2020-10-01 17:00","2020","10","01","17:00","16.0","","15.3","","95","","0.0","","20","","5","","","","100.99","","","","","","NA"
"-55.33","47.14","WINTERLAND BRANCH HILL","8404242","2020-10-01 18:00","2020","10","01","18:00","15.0","","14.6","","97","","0.0","","21","","11","","","","101.05","","","","","","NA"
"-55.33","47.14","WINTERLAND BRANCH HILL","8404242","2020-10-01 19:00","2020","10","01","19:00","14.2","","13.8","","98","","0.0","","20","","9","","","","101.09","","","","","","NA"
"-55.33","47.14","WINTERLAND BRANCH HILL","8404242","2020-10-01 20:00","2020","10","01","20:00","13.7","","13.5","","99","","0.0","","21","","11","","","","101.11","","","","","","NA"
"-55.33","47.14","WINTERLAND BRANCH HILL","8404242","2020-10-01 21:00","2020","10","01","21:00","13.8","","13.7","","99","","0.0","","24","","14","","","","101.17","","","","","","NA"
"-55.33","47.14","WINTERLAND BRANCH HILL","8404242","2020-10-01 22:00","2020","10","01","22:00","13.6","","13.1","","97","","0.0","","27","","10","","","","101.18","","","","","","NA"
"-55.33","47.14","WINTERLAND BRANCH HILL","8404242","2020-10-01 23:00","2020","10","01","23:00","12.7","","12.3","","98","","0.0","","25","","11","","","","101.19","","","","","","NA"
"-55.33","47.14","WINTERLAND BRANCH HILL","8404242","2020-10-02 00:00","2020","10","02","00:00","12.2","","11.9","","98","","0.0","","25","","3","","","","101.29","","","","","","NA"
"-55.33","47.14","WINTERLAND BRANCH HILL","8404242","2020-10-02 01:00","2020","10","02","01:00","11.8","","11.5","","98","","0.0","","31","","4","","","","101.32","","","","","","NA"
"-55.33","47.14","WINTERLAND BRANCH HILL","8404242","2020-10-02 02:00","2020","10","02","02:00","12.5","","12.4","","99","","0.0","","32","","4","","","","101.37","","","","","","NA"
"-55.33","47.14","WINTERLAND BRANCH HILL","8404242","2020-10-02 03:00","2020","10","02","03:00","12.5","","12.2","","99","","0.0","","32","","3","","","","101.39","","","","","","NA"
"-55.33","47.14","WINTERLAND BRANCH HILL","8404242","2020-10-02 04:00","2020","10","02","04:00","12.0","","11.9","","99","","0.0","","14","","3","","","","101.42","","","","","","NA"
"-55.33","47.14","WINTERLAND BRANCH HILL","8404242","2020-10-02 05:00","2020","10","02","05:00","11.9","","11.9","","100","","0.0","","12","","4","","","","101.42","","","","","","NA"
"-55.33","47.14","WINTERLAND BRANCH HILL","8404242","2020-10-02 06:00","2020","10","02","06:00","11.5","","11.5","","100","","0.0","","14","","4","","","","101.46","","","","","","NA"
"-55.33","47.14","WINTERLAND BRANCH HILL","8404242","2020-10-02 07:00","2020","10","02","07:00","11.7","","11.6","","100","","","M","10","","6","","","","101.46","","","","","","NA"
"-55.33","47.14","WINTERLAND BRANCH HILL","8404242","2020-10-02 08:00","2020","10","02","08:00","12.9","","12.7","","99","","","M","10","","7","","","","101.50","","","","","","NA"
"-55.33","47.14","WINTERLAND BRANCH HILL","8404242","2020-10-02 09:00","2020","10","02","09:00","13.9","","13.1","","95","","","M","12","","10","","","","101.50","","","","","","NA"
"-55.33","47.14","WINTERLAND BRANCH HILL","8404242","2020-10-02 10:00","2020","10","02","10:00","14.5","","13.4","","93","","","M","13","","12","","","","101.51","","","","","","NA"
"-55.33","47.14","WINTERLAND BRANCH HILL","8404242","2020-10-02 11:00","2020","10","02","11:00","15.2","","14.3","","95","","","M","11","","6","","","","101.47","","","","","","NA"
"-55.33","47.14","WINTERLAND BRANCH HILL","8404242","2020-10-02 12:00","2020","10","02","12:00","15.7","","14.5","","93","","","M","14","","11","","","","101.46","","","","","","NA"
"-55.33","47.14","WINTERLAND BRANCH HILL","8404242","2020-10-02 13:00","2020","10","02","13:00","14.5","","13.6","","95","","","M","12","","12","","","","101.37","","","","","","NA"
"-55.33","47.14","WINTERLAND BRANCH HILL","8404242","2020-10-02 14:00","2020","10","02","14:00","15.1","","13.7","","91","","","M","14","","11","","","","101.38","","","","","","NA"
"-55.33","47.14","WINTERLAND BRANCH HILL","8404242","2020-10-02 15:00","2020","10","02","15:00","15.0","","13.5","","91","","","M","12","","12","","","","101.33","","","","","","NA"
"-55.33","47.14","WINTERLAND BRANCH HILL","8404242","2020-10-02 16:00","2020","10","02","16:00","14.4","","14.3","","99","","","M","13","","11","","","","101.31","","","","","","NA"
"-55.33","47.14","WINTERLAND BRANCH HILL","8404242","2020-10-02 17:00","2020","10","02","17:00","14.2","","14.2","","100","","","M","13","","12","","","","101.30","","","","","","NA"
"-55.33","47.14","WINTERLAND BRANCH HILL","8404242","2020-10-02 18:00","2020","10","02","18:00","14.1","","14.1","","100","","","M","11","","16","","","","101.26","","","","","","NA"
"-55.33","47.14","WINTERLAND BRANCH HILL","8404242","2020-10-02 19:00","2020","10","02","19:00","14.1","","14.0","","100","","","M","13","","11","","","","101.24","","","","","","NA"
"-55.33","47.14","WINTERLAND BRANCH HILL","8404242","2020-10-02 20:00","2020","10","02","20:00","14.0","","14.0","","100","","","M","11","","9","","","","101.15","","","","","","NA"
"-55.33","47.14","WINTERLAND BRANCH HILL","8404242","2020-10-02 21:00","2020","10","02","21:00","14.0","","14.0","","100","","","M","10","","11","","","","101.07","","","","","","NA"
"-55.33","47.14","WINTERLAND BRANCH HILL","8404242","2020-10-02 22:00","2020","10","02","22:00","14.8","","14.7","","100","","","M","11","","11","","","","100.95","","","","","","NA"
"-55.33","47.14","WINTERLAND BRANCH HILL","8404242","2020-10-02 23:00","2020","10","02","23:00","16.0","","16.0","","100","","","M","12","","11","","","","100.83","","","","","","NA"
"-55.33","47.14","WINTERLAND BRANCH HILL","8404242","2020-10-03 00:00","2020","10","03","00:00","17.0","","17.0","","100","","","M","13","","10","","","","100.76","","","","","","NA"
"-55.33","47.14","WINTERLAND BRANCH HILL","8404242","2020-10-03 01:00","2020","10","03","01:00","18.6","","18.6","","100","","","M","22","","22","","","","100.71","","","","","","NA"
"-55.33","47.14","WINTERLAND BRANCH HILL","8404242","2020-10-03 02:00","2020","10","03","02:00","18.0","","18.0","","100","","","M","23","","28","","","","100.66","","","","","","NA"
"-55.33","47.14","WINTERLAND BRANCH HILL","8404242","2020-10-03 03:00","2020","10","03","03:00","18.2","","18.0","","99","","","M","23","","25","","","","100.62","","","","","","NA"
"-55.33","47.14","WINTERLAND BRANCH HILL","8404242","2020-10-03 04:00","2020","10","03","04:00","19.2","","19.1","","100","","","M","22","","27","","","","100.56","","","","","","NA"
"-55.33","47.14","WINTERLAND BRANCH HILL","8404242","2020-10-03 05:00","2020","10","03","05:00","19.6","","19.4","","99","","","M","21","","24","","","","100.50","","","","","","NA"
"-55.33","47.14","WINTERLAND BRANCH HILL","8404242","2020-10-03 06:00","2020","10","03","06:00","18.6","","18.5","","99","","","M","22","","29","","","","100.49","","","","","","NA"
"-55.33","47.14","WINTERLAND BRANCH HILL","8404242","2020-10-03 07:00","2020","10","03","07:00","18.1","","18.0","","100","","","M","22","","27","","","","100.48","","","","","","NA"
"-55.33","47.14","WINTERLAND BRANCH HILL","8404242","2020-10-03 08:00","2020","10","03","08:00","18.7","","18.6","","99","","","M","23","","31","","","","100.49","","","","","","NA"
"-55.33","47.14","WINTERLAND BRANCH HILL","8404242","2020-10-03 09:00","2020","10","03","09:00","18.4","","18.1","","98","","","M","24","","27","","","","100.54","","","","","","NA"
"-55.33","47.14","WINTERLAND BRANCH HILL","8404242","2020-10-03 10:00","2020","10","03","10:00","17.7","","17.2","","97","","","M","25","","25","","","","100.60","","","","","","NA"
"-55.33","47.14","WINTERLAND BRANCH HILL","8404242","2020-10-03 11:00","2020","10","03","11:00","16.6","","15.5","","94","","","M","27","","24","","","","100.64","","","","","","NA"
"-55.33","47.14","WINTERLAND BRANCH HILL","8404242","2020-10-03 12:00","2020","10","03","12:00","16.0","","15.7","","99","","","M","28","","23","","","","100.68","","","","","","NA"
"-55.33","47.14","WINTERLAND BRANCH HILL","8404242","2020-10-03 13:00","2020","10","03","13:00","15.6","","14.6","","94","","","M","29","","25","","","","100.69","","","","","","NA"
"-55.33","47.14","WINTERLAND BRANCH HILL","8404242","2020-10-03 14:00","2020","10","03","14:00","15.3","","14.0","","92","","","M","29","","29","","","","100.71","","","","","","NA"
"-55.33","47.14","WINTERLAND BRANCH HILL","8404242","2020-10-03 15:00","2020","10","03","15:00","15.1","","12.9","","87","","","M","29","","20","","","","100.73","","","","","","NA"
"-55.33","47.14","WINTERLAND BRANCH HILL","8404242","2020-10-03 16:00","2020","10","03","16:00","14.4","","13.0","","91","","","M","28","","17","","","","100.75","","","","","","NA"
"-55.33","47.14","WINTERLAND BRANCH HILL","8404242","2020-10-03 17:00","2020","10","03","17:00","14.2","","13.2","","94","","","M","28","","17","","","","100.80","","","","","","NA"
"-55.33","47.14","WINTERLAND BRANCH HILL","8404242","2020-10-03 18:00","2020","10","03","18:00","12.8","","11.8","","94","","","M","28","","17","","","","100.86","","","","","","NA"
"-55.33","47.14","WINTERLAND BRANCH HILL","8404242","2020-10-03 19:00","2020","10","03","19:00","12.0","","11.2","","95","","","M","27","","17","","","","100.92","","","","","","NA"
"-55.33","47.14","WINTERLAND BRANCH HILL","8404242","2020-10-03 20:00","2020","10","03","20:00","11.9","","11.0","","94","","","M","26","","21","","","","100.92","","","","","","NA"
"-55.33","47.14","WINTERLAND BRANCH HILL","8404242","2020-10-03 21:00","2020","10","03","21:00","12.1","","11.5","","96","","","M","29","","16","","","","101.00","","","","","","NA"
"-55.33","47.14","WINTERLAND BRANCH HILL","8404242","2020-10-03 22:00","2020","10","03","22:00","11.4","","9.5","","88","","","M","30","","19","","","","101.02","","","","","","NA"
"-55.33","47.14","WINTERLAND BRANCH HILL","8404242","2020-10-03 23:00","2020","10","03","23:00","10.2","","9.3","","94","","","M","31","","15","","","","101.04","","","","","","NA"
"-55.33","47.14","WINTERLAND BRANCH HILL","8404242","2020-10-04 00:00","2020","10","04","00:00","9.7","","8.8","","94","","","M","32","","13","","","","101.07","","","","","","NA"
"-55.33","47.14","WINTERLAND BRANCH HILL","8404242","2020-10-04 01:00","2020","10","04","01:00","9.4","","8.7","","96","","","M","34","","11","","","","101.13","","","","","","NA"
"-55.33","47.14","WINTERLAND BRANCH HILL","8404242","2020-10-04 02:00","2020","10","04","02:00","8.3","","7.1","","93","","","M","34","","10","","","","101.18","","","","","","NA"
"-55.33","47.14","WINTERLAND BRANCH HILL","8404242","2020-10-04 03:00","2020","10","04","03:00","7.0","","5.9","","93","","","M","35","","10","","","","101.23","","","","","","NA"
"-55.33","47.14","WINTERLAND BRANCH HILL","8404242","2020-10-04 04:00","2020","10","04","04:00","8.1","","7.2","","94","","","M","34","","10","","","","101.29","","","","","","NA"
"-55.33","47.14","WINTERLAND BRANCH HILL","8404242","2020-10-04 05:00","2020","10","04","05:00","8.1","","6.9","","93","","","M","33","","13","","","","101.34","","","","","","NA"
"-55.33","47.14","WINTERLAND BRANCH HILL","8404242","2020-10-04 06:00","2020","10","04","06:00","7.3","","6.1","","92","","","M","35","","8","","","","101.39","","","","","","NA"
"-55.33","47.14","WINTERLAND BRANCH HILL","8404242","2020-10-04 07:00","2020","10","04","07:00","9.2","","7.4","","89","","","M","34","","8","","","","101.47","","","","","","NA"
"-55.33","47.14","WINTERLAND BRANCH HILL","8404242","2020-10-04 08:00","2020","10","04","08:00","10.7","","7.3","","80","","","M","1","","12","","","","101.52","","","","","","NA"
"-55.33","47.14","WINTERLAND BRANCH HILL","8404242","2020-10-04 09:00","2020","10","04","09:00","11.5","","6.6","","72","","","M","1","","11","","","","101.58","","","","","","NA"
"-55.33","47.14","WINTERLAND BRANCH HILL","8404242","2020-10-04 10:00","2020","10","04","10:00","11.6","","6.4","","71","","","M","35","","11","","","","101.60","","","","","","NA"
"-55.33","47.14","WINTERLAND BRANCH HILL","8404242","2020-10-04 11:00","2020","10","04","11:00","12.7","","6.6","","66","","","M","34","","7","","","","101.59","","","","","","NA"
"-55.33","47.14","WINTERLAND BRANCH HILL","8404242","2020-10-04 12:00","2020","10","04","12:00","13.2","","7.3","","67","","","M","32","","12","","","","101.62","","","","","","NA"
"-55.33","47.14","WINTERLAND BRANCH HILL","8404242","2020-10-04 13:00","2020","10","04","13:00","13.0","","5.9","","62","","","M","33","","10","","","","101.60","","","","","","NA"
"-55.33","47.14","WINTERLAND BRANCH HILL","8404242","2020-10-04 14:00","2020","10","04","14:00","13.5","","6.5","","63","","","M","30","","12","","","","101.62","","","","","","NA"
"-55.33","47.14","WINTERLAND BRANCH HILL","8404242","2020-10-04 15:00","2020","10","04","15:00","13.4","","7.6","","68","","","M","29","","16","","","","101.62","","","","","","NA"
"-55.33","47.14","WINTERLAND BRANCH HILL","8404242","2020-10-04 16:00","2020","10","04","16:00","12.0","","6.7","","70","","","M","29","","12","","","","101.60","","","","","","NA"
"-55.33","47.14","WINTERLAND BRANCH HILL","8404242","2020-10-04 17:00","2020","10","04","17:00","10.6","","7.3","","80","","","M","29","","9","","","","101.63","","","","","","NA"
"-55.33","47.14","WINTERLAND BRANCH HILL","8404242","2020-10-04 18:00","2020","10","04","18:00","8.1","","7.0","","93","","","M","28","","10","","","","101.70","","","","","","NA"
"-55.33","47.14","WINTERLAND BRANCH HILL","8404242","2020-10-04 19:00","2020","10","04","19:00","7.6","","6.6","","93","","","M","28","","9","","","","101.73","","","","","","NA"
"-55.33","47.14","WINTERLAND BRANCH HILL","8404242","2020-10-04 20:00","2020","10","04","20:00","6.8","","6.1","","95","","","M","29","","11","","","","101.75","","","","","","NA"
"-55.33","47.14","WINTERLAND BRANCH HILL","8404242","2020-10-04 21:00","2020","10","04","21:00","7.0","","6.5","","97","","","M","25","","10","","","","101.72","","","","","","NA"
"-55.33","47.14","WINTERLAND BRANCH HILL","8404242","2020-10-04 22:00","2020","10","04","22:00","7.7","","7.0","","95","","","M","27","","9","","","","101.69","","","","","","NA"
"-55.33","47.14","WINTERLAND BRANCH HILL","8404242","2020-10-04 23:00","2020","10","04","23:00","6.9","","6.2","","95","","","M","28","","10","","","","101.67","","","","","","NA"
"-55.33","47.14","WINTERLAND BRANCH HILL","8404242","2020-10-05 00:00","2020","10","05","00:00","9.5","","5.4","","75","","","M","30","","21","","","","101.75","","","","","","NA"
"-55.33","47.14","WINTERLAND BRANCH HILL","8404242","2020-10-05 01:00","2020","10","05","01:00","8.6","","4.5","","76","","","M","31","","15","","","","101.72","","","","","","NA"
"-55.33","47.14","WINTERLAND BRANCH HILL","8404242","2020-10-05 02:00","2020","10","05","02:00","8.4","","3.6","","72","","","M","31","","15","","","","101.67","","","","","","NA"
"-55.33","47.14","WINTERLAND BRANCH HILL","8404242","2020-10-05 03:00","2020","10","05","03:00","7.6","","3.9","","77","","","M","30","","10","","","","101.65","","","","","","NA"
"-55.33","47.14","WINTERLAND BRANCH HILL","8404242","2020-10-05 04:00","2020","10","05","04:00","8.4","","4.1","","74","","","M","32","","12","","","","101.65","","","","","","NA"
"-55.33","47.14","WINTERLAND BRANCH HILL","8404242","2020-10-05 05:00","2020","10","05","05:00","8.2","","4.0","","75","","","M","32","","13","","","","101.68","","","","","","NA"
"-55.33","47.14","WINTERLAND BRANCH HILL","8404242","2020-10-05 06:00","2020","10","05","06:00","8.3","","3.5","","72","","","M","31","","16","","","","101.76","","","","","","NA"
"-55.33","47.14","WINTERLAND BRANCH HILL","8404242","2020-10-05 07:00","2020","10","05","07:00","8.5","","4.4","","75","","","M","31","","12","","","","101.78","","","","","","NA"
"-55.33","47.14","WINTERLAND BRANCH HILL","8404242","2020-10-05 08:00","2020","10","05","08:00","9.2","","4.5","","73","","","M","32","","14","","","","101.81","","","","","","NA"
"-55.33","47.14","WINTERLAND BRANCH HILL","8404242","2020-10-05 09:00","2020","10","05","09:00","9.1","","4.9","","75","","","M","31","","12","","","","101.82","","","","","","NA"
"-55.33","47.14","WINTERLAND BRANCH HILL","8404242","2020-10-05 10:00","2020","10","05","10:00","9.2","","4.4","","72","","","M","34","","13","","","","101.78","","","","","","NA"
"-55.33","47.14","WINTERLAND BRANCH HILL","8404242","2020-10-05 11:00","2020","10","05","11:00","9.1","","4.5","","73","","","M","36","","14","","","","101.71","","","","","","NA"
"-55.33","47.14","WINTERLAND BRANCH HILL","8404242","2020-10-05 12:00","2020","10","05","12:00","9.6","","4.9","","73","","","M","34","","13","","","","101.70","","","","","","NA"
"-55.33","47.14","WINTERLAND BRANCH HILL","8404242","2020-10-05 13:00","2020","10","05","13:00","9.4","","4.9","","74","","","M","35","","14","","","","101.65","","","","","","NA"
"-55.33","47.14","WINTERLAND BRANCH HILL","8404242","2020-10-05 14:00","2020","10","05","14:00","9.5","","4.8","","72","","","M","36","","14","","","","101.63","","","","","","NA"
"-55.33","47.14","WINTERLAND BRANCH HILL","8404242","2020-10-05 15:00","2020","10","05","15:00","9.4","","4.9","","74","","","M","36","","12","","","","101.63","","","","","","NA"
"-55.33","47.14","WINTERLAND BRANCH HILL","8404242","2020-10-05 16:00","2020","10","05","16:00","9.0","","5.4","","78","","","M","35","","6","","","","101.61","","","","","","NA"
"-55.33","47.14","WINTERLAND BRANCH HILL","8404242","2020-10-05 17:00","2020","10","05","17:00","7.7","","4.9","","82","","","M","2","","8","","","","101.56","","","","","","NA"
"-55.33","47.14","WINTERLAND BRANCH HILL","8404242","2020-10-05 18:00","2020","10","05","18:00","6.6","","4.4","","86","","","M","3","","10","","","","101.59","","","","","","NA"
"-55.33","47.14","WINTERLAND BRANCH HILL","8404242","2020-10-05 19:00","2020","10","05","19:00","6.5","","4.2","","86","","","M","3","","12","","","","101.60","","","","","","NA"
"-55.33","47.14","WINTERLAND BRANCH HILL","8404242","2020-10-05 20:00","2020","10","05","20:00","5.6","","4.0","","89","","","M","3","","12","","","","101.63","","","","","","NA"
"-55.33","47.14","WINTERLAND BRANCH HILL","8404242","2020-10-05 21:00","2020","10","05","21:00","5.5","","3.9","","89","","","M","4","","13","","","","101.62","","","","","","NA"
"-55.33","47.14","WINTERLAND BRANCH HILL","8404242","2020-10-05 22:00","2020","10","05","22:00","4.4","","2.8","","90","","","M","2","","12","","","","101.67","","","","","","NA"
"-55.33","47.14","WINTERLAND BRANCH HILL","8404242","2020-10-05 23:00","2020","10","05","23:00","3.5","","1.9","","89","","","M","4","","6","","","","101.63","","","","","","NA"
"-55.33","47.14","WINTERLAND BRANCH HILL","8404242","2020-10-06 00:00","2020","10","06","00:00","3.6","","2.1","","90","","","M","5","","11","","","","101.62","","","","","","NA"
"-55.33","47.14","WINTERLAND BRANCH HILL","8404242","2020-10-06 01:00","2020","10","06","01:00","2.5","","1.6","","94","","","M","34","","3","","","","101.65","","","","","","NA"
"-55.33","47.14","WINTERLAND BRANCH HILL","8404242","2020-10-06 02:00","2020","10","06","02:00","1.3","","0.4","","94","","","M","34","","5","","","","101.66","","","","","","NA"
"-55.33","47.14","WINTERLAND BRANCH HILL","8404242","2020-10-06 03:00","2020","10","06","03:00","2.1","","1.5","","96","","","M","33","","2","","","","101.70","","","","","","NA"
"-55.33","47.14","WINTERLAND BRANCH HILL","8404242","2020-10-06 04:00","2020","10","06","04:00","1.5","","1.0","","96","","","M","29","","3","","","","101.74","","","","","","NA"
"-55.33","47.14","WINTERLAND BRANCH HILL","8404242","2020-10-06 05:00","2020","10","06","05:00","1.4","","1.2","","99","","","M","35","","4","","","","101.79","","","","","","NA"
"-55.33","47.14","WINTERLAND BRANCH HILL","8404242","2020-10-06 06:00","2020","10","06","06:00","1.6","","0.9","","95","","","M","31","","1","","","","101.81","","","","","","NA"
"-55.33","47.14","WINTERLAND BRANCH HILL","8404242","2020-10-06 07:00","2020","10","06","07:00","3.4","","2.6","","95","","","M","35","","5","","","","101.87","","","","","","NA"
"-55.33","47.14","WINTERLAND BRANCH HILL","8404242","2020-10-06 08:00","2020","10","06","08:00","6.8","","4.1","","83","","","M","","","0","","","","101.92","","","","","","NA"
"-55.33","47.14","WINTERLAND BRANCH HILL","8404242","2020-10-06 09:00","2020","10","06","09:00","9.5","","4.6","","72","","","M","10","","6","","","","101.93","","","","","","NA"
"-55.33","47.14","WINTERLAND BRANCH HILL","8404242","2020-10-06 10:00","2020","10","06","10:00","10.4","","4.6","","67","","","M","13","","9","","","","101.92","","","","","","NA"
"-55.33","47.14","WINTERLAND BRANCH HILL","8404242","2020-10-06 11:00","2020","10","06","11:00","11.9","","4.9","","62","","","M","13","","11","","","","101.90","","","","","","NA"
"-55.33","47.14","WINTERLAND BRANCH HILL","8404242","2020-10-06 12:00","2020","10","06","12:00","12.3","","4.7","","60","","","M","12","","11","","","","101.84","","","","","","NA"
"-55.33","47.14","WINTERLAND BRANCH HILL","8404242","2020-10-06 13:00","2020","10","06","13:00","13.1","","3.5","","52","","","M","16","","13","","","","101.78","","","","","","NA"
"-55.33","47.14","WINTERLAND BRANCH HILL","8404242","2020-10-06 14:00","2020","10","06","14:00","14.1","","3.5","","49","","","M","19","","13","","","","101.76","","","","","","NA"
"-55.33","47.14","WINTERLAND BRANCH HILL","8404242","2020-10-06 15:00","2020","10","06","15:00","13.0","","3.7","","53","","","M","19","","12","","","","101.76","","","","","","NA"
"-55.33","47.14","WINTERLAND BRANCH HILL","8404242","2020-10-06 16:00","2020","10","06","16:00","11.7","","4.4","","61","","","M","18","","12","","","","101.75","","","","","","NA"
"-55.33","47.14","WINTERLAND BRANCH HILL","8404242","2020-10-06 17:00","2020","10","06","17:00","8.9","","4.9","","76","","","M","19","","10","","","","101.76","","","","","","NA"
"-55.33","47.14","WINTERLAND BRANCH HILL","8404242","2020-10-06 18:00","2020","10","06","18:00","8.1","","5.3","","82","","","M","15","","8","","","","101.75","","","","","","NA"
"-55.33","47.14","WINTERLAND BRANCH HILL","8404242","2020-10-06 19:00","2020","10","06","19:00","8.0","","5.4","","84","","","M","17","","3","","","","101.73","","","","","","NA"
"-55.33","47.14","WINTERLAND BRANCH HILL","8404242","2020-10-06 20:00","2020","10","06","20:00","6.4","","4.7","","89","","","M","20","","3","","","","101.72","","","","","","NA"
"-55.33","47.14","WINTERLAND BRANCH HILL","8404242","2020-10-06 21:00","2020","10","06","21:00","8.3","","6.3","","87","","","M","20","","13","","","","101.66","","","","","","NA"
"-55.33","47.14","WINTERLAND BRANCH HILL","8404242","2020-10-06 22:00","2020","10","06","22:00","8.1","","6.3","","89","","","M","23","","7","","","","101.65","","","","","","NA"
"-55.33","47.14","WINTERLAND BRANCH HILL","8404242","2020-10-06 23:00","2020","10","06","23:00","9.3","","6.9","","85","","","M","19","","9","","","","101.58","","","","","","NA"
"-55.33","47.14","WINTERLAND BRANCH HILL","8404242","2020-10-07 00:00","2020","10","07","00:00","9.6","","7.3","","86","","","M","17","","9","","","","101.52","","","","","","NA"
"-55.33","47.14","WINTERLAND BRANCH HILL","8404242","2020-10-07 01:00","2020","10","07","01:00","9.6","","8.6","","93","","","M","16","","11","","","","101.48","","","","","","NA"
"-55.33","47.14","WINTERLAND BRANCH HILL","8404242","2020-10-07 02:00","2020","10","07","02:00","9.8","","9.0","","95","","","M","17","","8","","","","101.44","","","","","","NA"
"-55.33","47.14","WINTERLAND BRANCH HILL","8404242","2020-10-07 03:00","2020","10","07","03:00","10.3","","8.8","","91","","","M","14","","10","","","","101.33","","","","","","NA"
"-55.33","47.14","WINTERLAND BRANCH HILL","8404242","2020-10-07 04:00","2020","10","07","04:00","10.8","","9.1","","90","","","M","19","","12","","","","101.29","","","","","","NA"
"-55.33","47.14","WINTERLAND BRANCH HILL","8404242","2020-10-07 05:00","2020","10","07","05:00","11.0","","9.3","","90","","","M","19","","13","","","","101.25","","","","","","NA"
"-55.33","47.14","WINTERLAND BRANCH HILL","8404242","2020-10-07 06:00","2020","10","07","06:00","10.6","","9.7","","95","","","M","10","","13","","","","101.18","","","","","","NA"
"-55.33","47.14","WINTERLAND BRANCH HILL","8404242","2020-10-07 07:00","2020","10","07","07:00","12.0","","10.9","","93","","","M","12","","8","","","","101.18","","","","","","NA"
"-55.33","47.14","WINTERLAND BRANCH HILL","8404242","2020-10-07 08:00","2020","10","07","08:00","14.1","","12.0","","87","","","M","16","","18","","","","101.12","","","","","","NA"
"-55.33","47.14","WINTERLAND BRANCH HILL","8404242","2020-10-07 09:00","2020","10","07","09:00","14.8","","12.2","","85","","","M","17","","32","","","","101.04","","","","","","NA"
"-55.33","47.14","WINTERLAND BRANCH HILL","8404242","2020-10-07 10:00","2020","10","07","10:00","15.4","","11.7","","79","","","M","17","","35","","","","100.96","","","","","","NA"
"-55.33","47.14","WINTERLAND BRANCH HILL","8404242","2020-10-07 11:00","2020","10","07","11:00","14.3","","11.5","","83","","","M","16","","28","","","","100.85","","","","","","NA"
"-55.33","47.14","WINTERLAND BRANCH HILL","8404242","2020-10-07 12:00","2020","10","07","12:00","14.9","","11.6","","81","","","M","16","","31","","","","100.74","","","","","","NA"
"-55.33","47.14","WINTERLAND BRANCH HILL","8404242","2020-10-07 13:00","2020","10","07","13:00","14.7","","11.2","","80","","","M","15","","33","","","","100.61","","","","","","NA"
"-55.33","47.14","WINTERLAND BRANCH HILL","8404242","2020-10-07 14:00","2020","10","07","14:00","13.3","","12.5","","95","","","M","15","","30","","","","100.49","","","","","","NA"
"-55.33","47.14","WINTERLAND BRANCH HILL","8404242","2020-10-07 15:00","2020","10","07","15:00","13.3","","12.8","","97","","","M","15","","29","","","","100.38","","","","","","NA"
"-55.33","47.14","WINTERLAND BRANCH HILL","8404242","2020-10-07 16:00","2020","10","07","16:00","13.3","","12.8","","97","","","M","14","","36","","","","100.21","","","","","","NA"
"-55.33","47.14","WINTERLAND BRANCH HILL","8404242","2020-10-07 17:00","2020","10","07","17:00","13.2","","12.5","","96","","","M","15","","40","","","","100.08","","","","","","NA"
"-55.33","47.14","WINTERLAND BRANCH HILL","8404242","2020-10-07 18:00","2020","10","07","18:00","14.0","","13.2","","95","","","M","15","","34","","","","100.05","","","","","","NA"
"-55.33","47.14","WINTERLAND BRANCH HILL","8404242","2020-10-07 19:00","2020","10","07","19:00","14.3","","13.5","","95","","","M","15","","34","","","","99.93","","","","","","NA"
"-55.33","47.14","WINTERLAND BRANCH HILL","8404242","2020-10-07 20:00","2020","10","07","20:00","14.1","","13.5","","97","","","M","16","","29","","","","99.86","","","","","","NA"
"-55.33","47.14","WINTERLAND BRANCH HILL","8404242","2020-10-07 21:00","2020","10","07","21:00","13.9","","13.4","","97","","","M","15","","29","","","","99.75","","","","","","NA"
"-55.33","47.14","WINTERLAND BRANCH HILL","8404242","2020-10-07 22:00","2020","10","07","22:00","13.6","","13.3","","98","","","M","15","","21","","","","99.63","","","","","","NA"
"-55.33","47.14","WINTERLAND BRANCH HILL","8404242","2020-10-07 23:00","2020","10","07","23:00","13.3","","13.1","","99","","","M","17","","16","","","","99.48","","","","","","NA"
"-55.33","47.14","WINTERLAND BRANCH HILL","8404242","2020-10-08 00:00","2020","10","08","00:00","13.6","","13.5","","99","","","M","14","","38","","","","99.22","","","","","","NA"
"-55.33","47.14","WINTERLAND BRANCH HILL","8404242","2020-10-08 01:00","2020","10","08","01:00","13.0","","12.9","","100","","","M","11","","13","","","","99.09","","","","","","NA"
"-55.33","47.14","WINTERLAND BRANCH HILL","8404242","2020-10-08 02:00","2020","10","08","02:00","14.0","","14.0","","100","","","M","12","","5","","","","98.90","","","","","","NA"
"-55.33","47.14","WINTERLAND BRANCH HILL","8404242","2020-10-08 03:00","2020","10","08","03:00","12.3","","12.3","","100","","","M","28","","15","","","","98.85","","","","","","NA"
"-55.33","47.14","WINTERLAND BRANCH HILL","8404242","2020-10-08 04:00","2020","10","08","04:00","11.2","","11.1","","99","","","M","23","","11","","","","98.84","","","","","","NA"
"-55.33","47.14","WINTERLAND BRANCH HILL","8404242","2020-10-08 05:00","2020","10","08","05:00","12.1","","12.1","","100","","","M","18","","19","","","","98.76","","","","","","NA"
"-55.33","47.14","WINTERLAND BRANCH HILL","8404242","2020-10-08 06:00","2020","10","08","06:00","12.5","","12.4","","100","","","M","15","","13","","","","98.61","","","","","","NA"
"-55.33","47.14","WINTERLAND BRANCH HILL","8404242","2020-10-08 07:00","2020","10","08","07:00","12.5","","12.2","","98","","","M","13","","14","","","","98.42","","","","","","NA"
"-55.33","47.14","WINTERLAND BRANCH HILL","8404242","2020-10-08 08:00","2020","10","08","08:00","13.1","","12.3","","95","","","M","13","","24","","","","98.22","","","","","","NA"
"-55.33","47.14","WINTERLAND BRANCH HILL","8404242","2020-10-08 09:00","2020","10","08","09:00","12.3","","11.3","","94","","","M","14","","20","","","","98.05","","","","","","NA"
"-55.33","47.14","WINTERLAND BRANCH HILL","8404242","2020-10-08 10:00","2020","10","08","10:00","13.4","","13.2","","99","","","M","13","","23","","","","97.74","","","","","","NA"
"-55.33","47.14","WINTERLAND BRANCH HILL","8404242","2020-10-08 11:00","2020","10","08","11:00","13.8","","13.1","","96","","","M","22","","27","","","","97.61","","","","","","NA"
"-55.33","47.14","WINTERLAND BRANCH HILL","8404242","2020-10-08 12:00","2020","10","08","12:00","15.2","","12.6","","84","","","M","22","","27","","","","97.54","","","","","","NA"
"-55.33","47.14","WINTERLAND BRANCH HILL","8404242","2020-10-08 13:00","2020","10","08","13:00","14.3","","11.7","","85","","","M","23","","27","","","","97.52","","","","","","NA"
"-55.33","47.14","WINTERLAND BRANCH HILL","8404242","2020-10-08 14:00","2020","10","08","14:00","14.5","","10.7","","78","","","M","23","","32","","","","97.47","","","","","","NA"
"-55.33","47.14","WINTERLAND BRANCH HILL","8404242","2020-10-08 15:00","2020","10","08","15:00","12.5","","11.6","","94","","","M","22","","30","","","","97.45","","","","","","NA"
"-55.33","47.14","WINTERLAND BRANCH HILL","8404242","2020-10-08 16:00","2020","10","08","16:00","12.9","","11.8","","93","","","M","24","","33","","","","97.40","","","","","","NA"
"-55.33","47.14","WINTERLAND BRANCH HILL","8404242","2020-10-08 17:00","2020","10","08","17:00","12.4","","11.4","","93","","","M","23","","32","","","","97.40","","","","","","NA"
"-55.33","47.14","WINTERLAND BRANCH HILL","8404242","2020-10-08 18:00","2020","10","08","18:00","12.3","","11.3","","93","","","M","24","","36","","","","97.41","","","","","","NA"
"-55.33","47.14","WINTERLAND BRANCH HILL","8404242","2020-10-08 19:00","2020","10","08","19:00","11.3","","10.7","","96","","","M","24","","35","","","","97.45","","","","","","NA"
"-55.33","47.14","WINTERLAND BRANCH HILL","8404242","2020-10-08 20:00","2020","10","08","20:00","11.2","","10.6","","96","","","M","24","","43","","","","97.46","","","","","","NA"
"-55.33","47.14","WINTERLAND BRANCH HILL","8404242","2020-10-08 21:00","2020","10","08","21:00","11.5","","10.8","","95","","","M","26","","46","","","","97.56","","","","","","NA"
"-55.33","47.14","WINTERLAND BRANCH HILL","8404242","2020-10-08 22:00","2020","10","08","22:00","10.4","","9.6","","95","","","M","26","","48","","","","97.67","","","","","","NA"
"-55.33","47.14","WINTERLAND BRANCH HILL","8404242","2020-10-08 23:00","2020","10","08","23:00","9.7","","8.5","","92","","","M","26","","50","","","","97.82","","","","","","NA"
"-55.33","47.14","WINTERLAND BRANCH HILL","8404242","2020-10-09 00:00","2020","10","09","00:00","9.5","","7.7","","89","","","M","26","","42","","","","97.93","","","","","","NA"
"-55.33","47.14","WINTERLAND BRANCH HILL","8404242","2020-10-09 01:00","2020","10","09","01:00","8.9","","7.0","","88","","","M","26","","40","","","","98.03","","","","","","NA"
"-55.33","47.14","WINTERLAND BRANCH HILL","8404242","2020-10-09 02:00","2020","10","09","02:00","8.0","","6.2","","88","","","M","26","","45","","","","98.13","","","","","","NA"
"-55.33","47.14","WINTERLAND BRANCH HILL","8404242","2020-10-09 03:00","2020","10","09","03:00","6.9","","5.3","","90","","","M","26","","43","","","","98.21","","","","","","NA"
"-55.33","47.14","WINTERLAND BRANCH HILL","8404242","2020-10-09 04:00","2020","10","09","04:00","6.9","","3.7","","80","","","M","26","","46","","","","98.30","","","","","","NA"
"-55.33","47.14","WINTERLAND BRANCH HILL","8404242","2020-10-09 05:00","2020","10","09","05:00","6.7","","3.3","","79","","","M","26","","42","","","","98.40","","","","","","NA"
"-55.33","47.14","WINTERLAND BRANCH HILL","8404242","2020-10-09 06:00","2020","10","09","06:00","6.3","","3.2","","80","","","M","26","","35","","","","98.50","","","","","","NA"
"-55.33","47.14","WINTERLAND BRANCH HILL","8404242","2020-10-09 07:00","2020","10","09","07:00","5.9","","3.1","","82","","","M","27","","42","","","","98.61","","","","","","NA"
"-55.33","47.14","WINTERLAND BRANCH HILL","8404242","2020-10-09 08:00","2020","10","09","08:00","7.4","","2.3","","70","","","M","27","","52","","","","98.74","","","","","","NA"
"-55.33","47.14","WINTERLAND BRANCH HILL","8404242","2020-10-09 09:00","2020","10","09","09:00","6.0","","3.5","","84","","","M","26","","47","","","","98.82","","","","","","NA"
"-55.33","47.14","WINTERLAND BRANCH HILL","8404242","2020-10-09 10:00","2020","10","09","10:00","8.0","","2.4","","68","","","M","27","","50","","","","98.83","","","","","","NA"
"-55.33","47.14","WINTERLAND BRANCH HILL","8404242","2020-10-09 11:00","2020","10","09","11:00","5.7","","3.0","","83","","","M","27","","43","","","","98.92","","","","","","NA"
"-55.33","47.14","WINTERLAND BRANCH HILL","8404242","2020-10-09 12:00","2020","10","09","12:00","6.5","","3.5","","81","","","M","27","","48","","","","98.92","","","","","","NA"
"-55.33","47.14","WINTERLAND BRANCH HILL","8404242","2020-10-09 13:00","2020","10","09","13:00","5.8","","2.3","","78","","","M","27","","50","","","","98.93","","","","","","NA"
"-55.33","47.14","WINTERLAND BRANCH HILL","8404242","2020-10-09 14:00","2020","10","09","14:00","7.8","","3.1","","72","","","M","27","","49","","","","98.99","","","","","","NA"
"-55.33","47.14","WINTERLAND BRANCH HILL","8404242","2020-10-09 15:00","2020","10","09","15:00","6.9","","1.4","","68","","","M","27","","47","","","","99.08","","","","","","NA"
"-55.33","47.14","WINTERLAND BRANCH HILL","8404242","2020-10-09 16:00","2020","10","09","16:00","6.4","","1.2","","69","","","M","27","","47","","","","99.18","","","","","","NA"
"-55.33","47.14","WINTERLAND BRANCH HILL","8404242","2020-10-09 17:00","2020","10","09","17:00","4.4","","1.6","","82","","","M","27","","46","","","","99.32","","","","","","NA"
"-55.33","47.14","WINTERLAND BRANCH HILL","8404242","2020-10-09 18:00","2020","10","09","18:00","4.2","","2.0","","85","","","M","26","","31","","","","99.45","","","","","","NA"
"-55.33","47.14","WINTERLAND BRANCH HILL","8404242","2020-10-09 19:00","2020","10","09","19:00","4.7","","2.2","","84","","","M","29","","38","","","","99.56","","","","","","NA"
"-55.33","47.14","WINTERLAND BRANCH HILL","8404242","2020-10-09 20:00","2020","10","09","20:00","5.2","","1.1","","75","","","M","29","","42","","","","99.67","","","","","","NA"
"-55.33","47.14","WINTERLAND BRANCH HILL","8404242","2020-10-09 21:00","2020","10","09","21:00","5.8","","-0.2","","66","","","M","29","","46","","","","99.80","","","","","","NA"
"-55.33","47.14","WINTERLAND BRANCH HILL","8404242","2020-10-09 22:00","2020","10","09","22:00","5.8","","0.3","","68","","","M","29","","42","","","","99.88","","","","","","NA"
"-55.33","47.14","WINTERLAND BRANCH HILL","8404242","2020-10-09 23:00","2020","10","09","23:00","6.2","","-0.7","","61","","","M","29","","43","","","","99.96","","","","","","NA"
"-55.33","47.14","WINTERLAND BRANCH HILL","8404242","2020-10-10 00:00","2020","10","10","00:00","6.3","","-1.8","","56","","","M","29","","44","","","","100.05","","","","","","NA"
"-55.33","47.14","WINTERLAND BRANCH HILL","8404242","2020-10-10 01:00","2020","10","10","01:00","5.9","","-3.6","","50","","","M","29","","45","","","","100.19","","","","","","NA"
"-55.33","47.14","WINTERLAND BRANCH HILL","8404242","2020-10-10 02:00","2020","10","10","02:00","6.3","","-3.3","","50","","","M","29","","45","","","","100.27","","","","","","NA"
"-55.33","47.14","WINTERLAND BRANCH HILL","8404242","2020-10-10 03:00","2020","10","10","03:00","6.6","","-3.3","","49","","","M","29","","41","","","","100.37","","","","","","NA"
"-55.33","47.14","WINTERLAND BRANCH HILL","8404242","2020-10-10 04:00","2020","10","10","04:00","6.4","","-2.0","","55","","","M","29","","39","","","","100.48","","","","","","NA"
"-55.33","47.14","WINTERLAND BRANCH HILL","8404242","2020-10-10 05:00","2020","10","10","05:00","6.7","","-1.4","","56","","","M","29","","36","","","","100.58","","","","","","NA"
"-55.33","47.14","WINTERLAND BRANCH HILL","8404242","2020-10-10 06:00","2020","10","10","06:00","6.6","","-0.1","","62","","","M","27","","30","","","","100.67","","","","","","NA"
"-55.33","47.14","WINTERLAND BRANCH HILL","8404242","2020-10-10 07:00","2020","10","10","07:00","7.6","","0.5","","61","","","M","26","","20","","","","100.77","","","","","","NA"
"-55.33","47.14","WINTERLAND BRANCH HILL","8404242","2020-10-10 08:00","2020","10","10","08:00","9.4","","1.3","","57","","","M","26","","28","","","","100.83","","","","","","NA"
"-55.33","47.14","WINTERLAND BRANCH HILL","8404242","2020-10-10 09:00","2020","10","10","09:00","9.6","","1.5","","57","","","M","27","","28","","","","100.88","","","","","","NA"
"-55.33","47.14","WINTERLAND BRANCH HILL","8404242","2020-10-10 10:00","2020","10","10","10:00","10.1","","0.9","","53","","","M","26","","32","","","","100.92","","","","","","NA"
"-55.33","47.14","WINTERLAND BRANCH HILL","8404242","2020-10-10 11:00","2020","10","10","11:00","10.8","","2.0","","55","","","M","25","","32","","","","100.95","","","","","","NA"
"-55.33","47.14","WINTERLAND BRANCH HILL","8404242","2020-10-10 12:00","2020","10","10","12:00","11.5","","1.7","","51","","","M","26","","35","","","","100.98","","","","","","NA"
"-55.33","47.14","WINTERLAND BRANCH HILL","8404242","2020-10-10 13:00","2020","10","10","13:00","10.5","","2.6","","58","","","M","24","","27","","","","100.99","","","","","","NA"
"-55.33","47.14","WINTERLAND BRANCH HILL","8404242","2020-10-10 14:00","2020","10","10","14:00","10.9","","3.4","","60","","","M","24","","26","","","","101.00","","","","","","NA"
"-55.33","47.14","WINTERLAND BRANCH HILL","8404242","2020-10-10 15:00","2020","10","10","15:00","10.8","","4.6","","65","","","M","23","","23","","","","101.04","","","","","","NA"
"-55.33","47.14","WINTERLAND BRANCH HILL","8404242","2020-10-10 16:00","2020","10","10","16:00","9.9","","6.0","","77","","","M","22","","17","","","","101.04","","","","","","NA"
"-55.33","47.14","WINTERLAND BRANCH HILL","8404242","2020-10-10 17:00","2020","10","10","17:00","10.3","","6.6","","78","","","M","20","","24","","","","100.98","","","","","","NA"
"-55.33","47.14","WINTERLAND BRANCH HILL","8404242","2020-10-10 18:00","2020","10","10","18:00","10.5","","7.1","","79","","","M","20","","24","","","","100.91","","","","","","NA"
"-55.33","47.14","WINTERLAND BRANCH HILL","8404242","2020-10-10 19:00","2020","10","10","19:00","10.7","","7.9","","83","","","M","20","","31","","","","100.92","","","","","","NA"
"-55.33","47.14","WINTERLAND BRANCH HILL","8404242","2020-10-10 20:00","2020","10","10","20:00","11.0","","8.3","","83","","","M","20","","27","","","","100.96","","","","","","NA"
"-55.33","47.14","WINTERLAND BRANCH HILL","8404242","2020-10-10 21:00","2020","10","10","21:00","11.2","","9.1","","87","","","M","20","","24","","","","100.90","","","","","","NA"
"-55.33","47.14","WINTERLAND BRANCH HILL","8404242","2020-10-10 22:00","2020","10","10","22:00","11.9","","9.9","","88","","","M","20","","24","","","","100.87","","","","","","NA"
"-55.33","47.14","WINTERLAND BRANCH HILL","8404242","2020-10-10 23:00","2020","10","10","23:00","13.0","","10.5","","85","","","M","21","","33","","","","100.75","","","","","","NA"
"-55.33","47.14","WINTERLAND BRANCH HILL","8404242","2020-10-11 00:00","2020","10","11","00:00","13.3","","10.8","","85","","","M","21","","38","","","","100.72","","","","","","NA"
"-55.33","47.14","WINTERLAND BRANCH HILL","8404242","2020-10-11 01:00","2020","10","11","01:00","13.2","","10.9","","86","","","M","20","","39","","","","100.68","","","","","","NA"
"-55.33","47.14","WINTERLAND BRANCH HILL","8404242","2020-10-11 02:00","2020","10","11","02:00","14.0","","11.2","","83","","","M","21","","44","","","","100.60","","","","","","NA"
"-55.33","47.14","WINTERLAND BRANCH HILL","8404242","2020-10-11 03:00","2020","10","11","03:00","14.4","","11.4","","82","","","M","20","","45","","","","100.55","","","","","","NA"
"-55.33","47.14","WINTERLAND BRANCH HILL","8404242","2020-10-11 04:00","2020","10","11","04:00","14.9","","11.8","","82","","","M","21","","45","","","","100.56","","","","","","NA"
"-55.33","47.14","WINTERLAND BRANCH HILL","8404242","2020-10-11 05:00","2020","10","11","05:00","14.7","","12.1","","84","","","M","21","","48","","","","100.50","","","","","","NA"
"-55.33","47.14","WINTERLAND BRANCH HILL","8404242","2020-10-11 06:00","2020","10","11","06:00","14.9","","12.4","","85","","","M","21","","45","","","","100.46","","","","","","NA"
"-55.33","47.14","WINTERLAND BRANCH HILL","8404242","2020-10-11 07:00","2020","10","11","07:00","15.2","","12.5","","84","","","M","21","","42","","","","100.49","","","","","","NA"
"-55.33","47.14","WINTERLAND BRANCH HILL","8404242","2020-10-11 08:00","2020","10","11","08:00","16.2","","12.8","","80","","","M","20","","44","","","","100.49","","","","","","NA"
"-55.33","47.14","WINTERLAND BRANCH HILL","8404242","2020-10-11 09:00","2020","10","11","09:00","16.6","","12.8","","79","","","M","20","","45","","","","100.40","","","","","","NA"
"-55.33","47.14","WINTERLAND BRANCH HILL","8404242","2020-10-11 10:00","2020","10","11","10:00","17.0","","12.7","","76","","","M","20","","47","","","","100.36","","","","","","NA"
"-55.33","47.14","WINTERLAND BRANCH HILL","8404242","2020-10-11 11:00","2020","10","11","11:00","16.5","","12.8","","79","","","M","20","","51","","","","100.27","","","","","","NA"
"-55.33","47.14","WINTERLAND BRANCH HILL","8404242","2020-10-11 12:00","2020","10","11","12:00","15.2","","13.0","","87","","","M","20","","52","","","","100.16","","","","","","NA"
"-55.33","47.14","WINTERLAND BRANCH HILL","8404242","2020-10-11 13:00","2020","10","11","13:00","13.2","","12.4","","95","","","M","23","","41","","","","100.27","","","","","","NA"
"-55.33","47.14","WINTERLAND BRANCH HILL","8404242","2020-10-11 14:00","2020","10","11","14:00","11.9","","11.3","","96","","","M","27","","30","","","","100.35","","","","","","NA"
"-55.33","47.14","WINTERLAND BRANCH HILL","8404242","2020-10-11 15:00","2020","10","11","15:00","8.6","","8.2","","97","","","M","28","","33","","","","100.43","","","","","","NA"
"-55.33","47.14","WINTERLAND BRANCH HILL","8404242","2020-10-11 16:00","2020","10","11","16:00","7.8","","6.3","","90","","","M","28","","34","","","","100.49","","","","","","NA"
"-55.33","47.14","WINTERLAND BRANCH HILL","8404242","2020-10-11 17:00","2020","10","11","17:00","7.0","","5.7","","91","","","M","27","","21","","","","100.59","","","","","","NA"
"-55.33","47.14","WINTERLAND BRANCH HILL","8404242","2020-10-11 18:00","2020","10","11","18:00","6.3","","4.3","","87","","","M","28","","25","","","","100.69","","","","","","NA"
"-55.33","47.14","WINTERLAND BRANCH HILL","8404242","2020-10-11 19:00","2020","10","11","19:00","5.8","","3.4","","85","","","M","29","","26","","","","100.76","","","","","","NA"
"-55.33","47.14","WINTERLAND BRANCH HILL","8404242","2020-10-11 20:00","2020","10","11","20:00","6.0","","2.8","","80","","","M","31","","26","","","","100.87","","","","","","NA"
"-55.33","47.14","WINTERLAND BRANCH HILL","8404242","2020-10-11 21:00","2020","10","11","21:00","4.3","","0.9","","79","","","M","31","","22","","","","100.99","","","","","","NA"
"-55.33","47.14","WINTERLAND BRANCH HILL","8404242","2020-10-11 22:00","2020","10","11","22:00","4.3","","1.1","","80","","","M","31","","25","","","","101.08","","","","","","NA"
"-55.33","47.14","WINTERLAND BRANCH HILL","8404242","2020-10-11 23:00","2020","10","11","23:00","4.2","","0.7","","78","","","M","31","","30","","","","101.19","","","","","","NA"
"-55.33","47.14","WINTERLAND BRANCH HILL","8404242","2020-10-12 00:00","2020","10","12","00:00","3.6","","-0.5","","74","","","M","30","","19","","","","101.28","","","","","","NA"
"-55.33","47.14","WINTERLAND BRANCH HILL","8404242","2020-10-12 01:00","2020","10","12","01:00","3.2","","-1.2","","73","","","M","30","","19","","","","101.33","","","","","","NA"
"-55.33","47.14","WINTERLAND BRANCH HILL","8404242","2020-10-12 02:00","2020","10","12","02:00","2.9","","-0.6","","78","","","M","29","","16","","","","101.38","","","","","","NA"
"-55.33","47.14","WINTERLAND BRANCH HILL","8404242","2020-10-12 03:00","2020","10","12","03:00","3.0","","-1.0","","75","","","M","29","","17","","","","101.44","","","","","","NA"
"-55.33","47.14","WINTERLAND BRANCH HILL","8404242","2020-10-12 04:00","2020","10","12","04:00","3.2","","-0.7","","75","","","M","30","","17","","","","101.47","","","","","","NA"
"-55.33","47.14","WINTERLAND BRANCH HILL","8404242","2020-10-12 05:00","2020","10","12","05:00","3.1","","-1.2","","74","","","M","29","","16","","","","101.54","","","","","","NA"
"-55.33","47.14","WINTERLAND BRANCH HILL","8404242","2020-10-12 06:00","2020","10","12","06:00","3.2","","-0.9","","75","","","M","31","","9","","","","101.59","","","","","","NA"
"-55.33","47.14","WINTERLAND BRANCH HILL","8404242","2020-10-12 07:00","2020","10","12","07:00","5.0","","0.3","","72","","","M","29","","17","","","","101.69","","","","","","NA"
"-55.33","47.14","WINTERLAND BRANCH HILL","8404242","2020-10-12 08:00","2020","10","12","08:00","6.8","","-0.4","","60","","","M","29","","26","","","","101.76","","","","","","NA"
"-55.33","47.14","WINTERLAND BRANCH HILL","8404242","2020-10-12 09:00","2020","10","12","09:00","7.5","","-0.6","","56","","","M","29","","30","","","","101.76","","","","","","NA"
"-55.33","47.14","WINTERLAND BRANCH HILL","8404242","2020-10-12 10:00","2020","10","12","10:00","8.1","","0.2","","57","","","M","29","","28","","","","101.79","","","","","","NA"
"-55.33","47.14","WINTERLAND BRANCH HILL","8404242","2020-10-12 11:00","2020","10","12","11:00","8.5","","0.0","","55","","","M","29","","29","","","","101.80","","","","","","NA"
"-55.33","47.14","WINTERLAND BRANCH HILL","8404242","2020-10-12 12:00","2020","10","12","12:00","8.7","","1.0","","59","","","M","29","","33","","","","101.77","","","","","","NA"
"-55.33","47.14","WINTERLAND BRANCH HILL","8404242","2020-10-12 13:00","2020","10","12","13:00","8.7","","0.5","","56","","","M","29","","28","","","","101.79","","","","","","NA"
"-55.33","47.14","WINTERLAND BRANCH HILL","8404242","2020-10-12 14:00","2020","10","12","14:00","8.7","","1.2","","59","","","M","29","","26","","","","101.81","","","","","","NA"
"-55.33","47.14","WINTERLAND BRANCH HILL","8404242","2020-10-12 15:00","2020","10","12","15:00","8.5","","2.3","","65","","","M","29","","26","","","","101.83","","","","","","NA"
"-55.33","47.14","WINTERLAND BRANCH HILL","8404242","2020-10-12 16:00","2020","10","12","16:00","7.7","","1.8","","67","","","M","28","","22","","","","101.87","","","","","","NA"
"-55.33","47.14","WINTERLAND BRANCH HILL","8404242","2020-10-12 17:00","2020","10","12","17:00","6.2","","2.2","","76","","","M","29","","24","","","","101.88","","","","","","NA"
"-55.33","47.14","WINTERLAND BRANCH HILL","8404242","2020-10-12 18:00","2020","10","12","18:00","4.9","","2.3","","83","","","M","28","","16","","","","101.98","","","","","","NA"
"-55.33","47.14","WINTERLAND BRANCH HILL","8404242","2020-10-12 19:00","2020","10","12","19:00","4.3","","2.2","","86","","","M","26","","12","","","","102.01","","","","","","NA"
"-55.33","47.14","WINTERLAND BRANCH HILL","8404242","2020-10-12 20:00","2020","10","12","20:00","3.7","","2.3","","90","","","M","28","","13","","","","102.06","","","","","","NA"
"-55.33","47.14","WINTERLAND BRANCH HILL","8404242","2020-10-12 21:00","2020","10","12","21:00","3.0","","2.0","","93","","","M","29","","10","","","","102.10","","","","","","NA"
"-55.33","47.14","WINTERLAND BRANCH HILL","8404242","2020-10-12 22:00","2020","10","12","22:00","2.0","","1.4","","96","","","M","28","","12","","","","102.10","","","","","","NA"
"-55.33","47.14","WINTERLAND BRANCH HILL","8404242","2020-10-12 23:00","2020","10","12","23:00","2.4","","1.7","","95","","","M","13","","4","","","","102.14","","","","","","NA"
"-55.33","47.14","WINTERLAND BRANCH HILL","8404242","2020-10-13 00:00","2020","10","13","00:00","2.5","","1.6","","94","","","M","27","","4","","","","102.18","","","","","","NA"
"-55.33","47.14","WINTERLAND BRANCH HILL","8404242","2020-10-13 01:00","2020","10","13","01:00","1.5","","0.1","","91","","","M","7","","4","","","","102.21","","","","","","NA"
"-55.33","47.14","WINTERLAND BRANCH HILL","8404242","2020-10-13 02:00","2020","10","13","02:00","0.1","","-0.4","","97","","","M","22","","4","","","","102.20","","","","","","NA"
"-55.33","47.14","WINTERLAND BRANCH HILL","8404242","2020-10-13 03:00","2020","10","13","03:00","-0.3","","-0.8","","96","","","M","15","","1","","","","102.15","","","","-1","","NA"
"-55.33","47.14","WINTERLAND BRANCH HILL","8404242","2020-10-13 04:00","2020","10","13","04:00","-1.4","","-2.0","","96","","","M","10","","7","","","","102.18","","","","-4","","NA"
"-55.33","47.14","WINTERLAND BRANCH HILL","8404242","2020-10-13 05:00","2020","10","13","05:00","-0.6","","-0.8","","99","","","M","29","","5","","","","102.20","","","","-2","","NA"
"-55.33","47.14","WINTERLAND BRANCH HILL","8404242","2020-10-13 06:00","2020","10","13","06:00","0.7","","0.5","","99","","","M","28","","3","","","","102.24","","","","","","NA"
"-55.33","47.14","WINTERLAND BRANCH HILL","8404242","2020-10-13 07:00","2020","10","13","07:00","0.7","","0.2","","96","","","M","27","","5","","","","102.29","","","","","","NA"
"-55.33","47.14","WINTERLAND BRANCH HILL","8404242","2020-10-13 08:00","2020","10","13","08:00","4.7","","2.6","","86","","","M","26","","3","","","","102.33","","","","","","NA"
"-55.33","47.14","WINTERLAND BRANCH HILL","8404242","2020-10-13 09:00","2020","10","13","09:00","8.6","","2.9","","68","","","M","26","","11","","","","102.32","","","","","","NA"
"-55.33","47.14","WINTERLAND BRANCH HILL","8404242","2020-10-13 10:00","2020","10","13","10:00","9.2","","1.5","","59","","","M","25","","9","","","","102.31","","","","","","NA"
"-55.33","47.14","WINTERLAND BRANCH HILL","8404242","2020-10-13 11:00","2020","10","13","11:00","10.9","","2.2","","55","","","M","23","","10","","","","102.27","","","","","","NA"
"-55.33","47.14","WINTERLAND BRANCH HILL","8404242","2020-10-13 12:00","2020","10","13","12:00","10.8","","4.2","","64","","","M","29","","11","","","","102.23","","","","","","NA"
"-55.33","47.14","WINTERLAND BRANCH HILL","8404242","2020-10-13 13:00","2020","10","13","13:00","10.8","","4.2","","64","","","M","29","","13","","","","102.17","","","","","","NA"
"-55.33","47.14","WINTERLAND BRANCH HILL","8404242","2020-10-13 14:00","2020","10","13","14:00","10.7","","4.2","","64","","","M","29","","12","","","","102.14","","","","","","NA"
"-55.33","47.14","WINTERLAND BRANCH HILL","8404242","2020-10-13 15:00","2020","10","13","15:00","9.9","","4.3","","68","","","M","30","","13","","","","102.11","","","","","","NA"
"-55.33","47.14","WINTERLAND BRANCH HILL","8404242","2020-10-13 16:00","2020","10","13","16:00","8.2","","4.0","","74","","","M","31","","12","","","","102.10","","","","","","NA"
"-55.33","47.14","WINTERLAND BRANCH HILL","8404242","2020-10-13 17:00","2020","10","13","17:00","5.8","","3.8","","87","","","M","32","","6","","","","102.12","","","","","","NA"
"-55.33","47.14","WINTERLAND BRANCH HILL","8404242","2020-10-13 18:00","2020","10","13","18:00","4.5","","3.3","","92","","","M","27","","4","","","","102.14","","","","","","NA"
"-55.33","47.14","WINTERLAND BRANCH HILL","8404242","2020-10-13 19:00","2020","10","13","19:00","3.0","","2.1","","94","","","M","25","","6","","","","102.15","","","","","","NA"
"-55.33","47.14","WINTERLAND BRANCH HILL","8404242","2020-10-13 20:00","2020","10","13","20:00","2.5","","1.9","","96","","","M","25","","6","","","","102.19","","","","","","NA"
"-55.33","47.14","WINTERLAND BRANCH HILL","8404242","2020-10-13 21:00","2020","10","13","21:00","2.0","","1.4","","96","","","M","28","","6","","","","102.20","","","","","","NA"
"-55.33","47.14","WINTERLAND BRANCH HILL","8404242","2020-10-13 22:00","2020","10","13","22:00","1.9","","1.5","","97","","","M","25","","2","","","","102.15","","","","","","NA"
"-55.33","47.14","WINTERLAND BRANCH HILL","8404242","2020-10-13 23:00","2020","10","13","23:00","1.3","","1.0","","98","","","M","14","","2","","","","102.11","","","","","","NA"
"-55.33","47.14","WINTERLAND BRANCH HILL","8404242","2020-10-14 00:00","2020","10","14","00:00","0.5","","0.4","","99","","","M","33","","3","","","","102.12","","","","","","NA"
"-55.33","47.14","WINTERLAND BRANCH HILL","8404242","2020-10-14 01:00","2020","10","14","01:00","0.9","","0.9","","100","","","M","10","","3","","","","102.11","","","","","","NA"
"-55.33","47.14","WINTERLAND BRANCH HILL","8404242","2020-10-14 02:00","2020","10","14","02:00","-0.2","","-0.2","","100","","","M","13","","2","","","","102.08","","","","-1","","NA"
"-55.33","47.14","WINTERLAND BRANCH HILL","8404242","2020-10-14 03:00","2020","10","14","03:00","-0.7","","-0.8","","100","","","M","14","","3","","","","102.07","","","","-2","","NA"
"-55.33","47.14","WINTERLAND BRANCH HILL","8404242","2020-10-14 04:00","2020","10","14","04:00","0.0","","-0.1","","100","","","M","10","","5","","","","102.05","","","","-2","","NA"
"-55.33","47.14","WINTERLAND BRANCH HILL","8404242","2020-10-14 05:00","2020","10","14","05:00","0.6","","0.6","","100","","","M","10","","5","","","","102.02","","","","","","NA"
"-55.33","47.14","WINTERLAND BRANCH HILL","8404242","2020-10-14 06:00","2020","10","14","06:00","0.7","","0.7","","100","","","M","","","0","","","","102.00","","","","","","NA"
"-55.33","47.14","WINTERLAND BRANCH HILL","8404242","2020-10-14 07:00","2020","10","14","07:00","1.9","","1.9","","100","","","M","9","","9","","","","101.96","","","","","","NA"
"-55.33","47.14","WINTERLAND BRANCH HILL","8404242","2020-10-14 08:00","2020","10","14","08:00","4.8","","4.7","","100","","","M","8","","4","","","","101.93","","","","","","NA"
"-55.33","47.14","WINTERLAND BRANCH HILL","8404242","2020-10-14 09:00","2020","10","14","09:00","9.3","","9.0","","98","","","M","12","","9","","","","101.90","","","","","","NA"
"-55.33","47.14","WINTERLAND BRANCH HILL","8404242","2020-10-14 10:00","2020","10","14","10:00","12.5","","7.7","","72","","","M","14","","28","","","","101.86","","","","","","NA"
"-55.33","47.14","WINTERLAND BRANCH HILL","8404242","2020-10-14 11:00","2020","10","14","11:00","13.4","","6.9","","65","","","M","15","","25","","","","101.81","","","","","","NA"
"-55.33","47.14","WINTERLAND BRANCH HILL","8404242","2020-10-14 12:00","2020","10","14","12:00","12.5","","6.9","","69","","","M","15","","29","","","","101.75","","","","","","NA"
"-55.33","47.14","WINTERLAND BRANCH HILL","8404242","2020-10-14 13:00","2020","10","14","13:00","12.6","","7.0","","69","","","M","15","","31","","","","101.65","","","","","","NA"
"-55.33","47.14","WINTERLAND BRANCH HILL","8404242","2020-10-14 14:00","2020","10","14","14:00","12.4","","7.0","","70","","","M","14","","29","","","","101.58","","","","","","NA"
"-55.33","47.14","WINTERLAND BRANCH HILL","8404242","2020-10-14 15:00","2020","10","14","15:00","11.7","","7.2","","74","","","M","15","","31","","","","101.55","","","","","","NA"
"-55.33","47.14","WINTERLAND BRANCH HILL","8404242","2020-10-14 16:00","2020","10","14","16:00","11.5","","7.1","","75","","","M","15","","28","","","","101.49","","","","","","NA"
"-55.33","47.14","WINTERLAND BRANCH HILL","8404242","2020-10-14 17:00","2020","10","14","17:00","11.4","","7.9","","79","","","M","14","","25","","","","101.39","","","","","","NA"
"-55.33","47.14","WINTERLAND BRANCH HILL","8404242","2020-10-14 18:00","2020","10","14","18:00","11.5","","8.3","","80","","","M","15","","31","","","","101.35","","","","","","NA"
"-55.33","47.14","WINTERLAND BRANCH HILL","8404242","2020-10-14 19:00","2020","10","14","19:00","11.8","","9.4","","85","","","M","15","","32","","","","101.29","","","","","","NA"
"-55.33","47.14","WINTERLAND BRANCH HILL","8404242","2020-10-14 20:00","2020","10","14","20:00","12.0","","10.2","","89","","","M","15","","31","","","","101.25","","","","","","NA"
"-55.33","47.14","WINTERLAND BRANCH HILL","8404242","2020-10-14 21:00","2020","10","14","21:00","11.9","","10.9","","94","","","M","15","","33","","","","101.19","","","","","","NA"
"-55.33","47.14","WINTERLAND BRANCH HILL","8404242","2020-10-14 22:00","2020","10","14","22:00","12.0","","11.6","","97","","","M","15","","32","","","","101.14","","","","","","NA"
"-55.33","47.14","WINTERLAND BRANCH HILL","8404242","2020-10-14 23:00","2020","10","14","23:00","12.4","","11.8","","96","","","M","15","","31","","","","101.06","","","","","","NA"
"-55.33","47.14","WINTERLAND BRANCH HILL","8404242","2020-10-15 00:00","2020","10","15","00:00","12.9","","12.4","","97","","","M","15","","33","","","","100.95","","","","","","NA"
"-55.33","47.14","WINTERLAND BRANCH HILL","8404242","2020-10-15 01:00","2020","10","15","01:00","13.2","","12.6","","97","","","M","15","","36","","","","100.86","","","","","","NA"
"-55.33","47.14","WINTERLAND BRANCH HILL","8404242","2020-10-15 02:00","2020","10","15","02:00","12.9","","12.7","","99","","","M","16","","39","","","","100.78","","","","","","NA"
"-55.33","47.14","WINTERLAND BRANCH HILL","8404242","2020-10-15 03:00","2020","10","15","03:00","13.2","","12.9","","99","","","M","16","","37","","","","100.75","","","","","","NA"
"-55.33","47.14","WINTERLAND BRANCH HILL","8404242","2020-10-15 04:00","2020","10","15","04:00","13.6","","13.5","","99","","","M","17","","38","","","","100.77","","","","","","NA"
"-55.33","47.14","WINTERLAND BRANCH HILL","8404242","2020-10-15 05:00","2020","10","15","05:00","13.8","","13.6","","99","","","M","16","","29","","","","100.80","","","","","","NA"
"-55.33","47.14","WINTERLAND BRANCH HILL","8404242","2020-10-15 06:00","2020","10","15","06:00","13.6","","13.4","","99","","","M","16","","25","","","","100.82","","","","","","NA"
"-55.33","47.14","WINTERLAND BRANCH HILL","8404242","2020-10-15 07:00","2020","10","15","07:00","14.0","","13.9","","99","","","M","16","","18","","","","100.90","","","","","","NA"
"-55.33","47.14","WINTERLAND BRANCH HILL","8404242","2020-10-15 08:00","2020","10","15","08:00","14.2","","14.1","","99","","","M","23","","11","","","","101.02","","","","","","NA"
"-55.33","47.14","WINTERLAND BRANCH HILL","8404242","2020-10-15 09:00","2020","10","15","09:00","13.3","","13.1","","99","","","M","21","","5","","","","101.08","","","","","","NA"
"-55.33","47.14","WINTERLAND BRANCH HILL","8404242","2020-10-15 10:00","2020","10","15","10:00","13.3","","12.0","","92","","","M","28","","17","","","","101.14","","","","","","NA"
"-55.33","47.14","WINTERLAND BRANCH HILL","8404242","2020-10-15 11:00","2020","10","15","11:00","12.9","","10.6","","86","","","M","29","","26","","","","101.18","","","","","","NA"
"-55.33","47.14","WINTERLAND BRANCH HILL","8404242","2020-10-15 12:00","2020","10","15","12:00","13.6","","10.9","","84","","","M","29","","19","","","","101.16","","","","","","NA"
"-55.33","47.14","WINTERLAND BRANCH HILL","8404242","2020-10-15 13:00","2020","10","15","13:00","13.2","","9.2","","76","","","M","29","","20","","","","101.22","","","","","","NA"
"-55.33","47.14","WINTERLAND BRANCH HILL","8404242","2020-10-15 14:00","2020","10","15","14:00","12.4","","8.5","","77","","","M","29","","22","","","","101.30","","","","","","NA"
"-55.33","47.14","WINTERLAND BRANCH HILL","8404242","2020-10-15 15:00","2020","10","15","15:00","12.3","","8.2","","76","","","M","29","","14","","","","101.36","","","","","","NA"
"-55.33","47.14","WINTERLAND BRANCH HILL","8404242","2020-10-15 16:00","2020","10","15","16:00","10.8","","7.8","","81","","","M","29","","13","","","","101.43","","","","","","NA"
"-55.33","47.14","WINTERLAND BRANCH HILL","8404242","2020-10-15 17:00","2020","10","15","17:00","8.2","","7.0","","92","","","M","28","","9","","","","101.50","","","","","","NA"
"-55.33","47.14","WINTERLAND BRANCH HILL","8404242","2020-10-15 18:00","2020","10","15","18:00","7.3","","6.8","","97","","","M","29","","6","","","","101.57","","","","","","NA"
"-55.33","47.14","WINTERLAND BRANCH HILL","8404242","2020-10-15 19:00","2020","10","15","19:00","6.4","","6.1","","98","","","M","30","","10","","","","101.63","","","","","","NA"
"-55.33","47.14","WINTERLAND BRANCH HILL","8404242","2020-10-15 20:00","2020","10","15","20:00","5.3","","5.0","","98","","","M","28","","7","","","","101.70","","","","","","NA"
"-55.33","47.14","WINTERLAND BRANCH HILL","8404242","2020-10-15 21:00","2020","10","15","21:00","5.6","","5.5","","99","","","M","26","","4","","","","101.73","","","","","","NA"
"-55.33","47.14","WINTERLAND BRANCH HILL","8404242","2020-10-15 22:00","2020","10","15","22:00","4.9","","4.9","","100","","","M","29","","11","","","","101.75","","","","","","NA"
"-55.33","47.14","WINTERLAND BRANCH HILL","8404242","2020-10-15 23:00","2020","10","15","23:00","5.1","","5.1","","100","","","M","29","","5","","","","101.74","","","","","","NA"
"-55.33","47.14","WINTERLAND BRANCH HILL","8404242","2020-10-16 00:00","2020","10","16","00:00","3.6","","3.5","","100","","","M","17","","3","","","","101.75","","","","","","NA"
"-55.33","47.14","WINTERLAND BRANCH HILL","8404242","2020-10-16 01:00","2020","10","16","01:00","3.3","","3.3","","100","","","M","32","","1","","","","101.81","","","","","","NA"
"-55.33","47.14","WINTERLAND BRANCH HILL","8404242","2020-10-16 02:00","2020","10","16","02:00","3.2","","3.2","","100","","","M","33","","4","","","","101.85","","","","","","NA"
"-55.33","47.14","WINTERLAND BRANCH HILL","8404242","2020-10-16 03:00","2020","10","16","03:00","3.7","","3.7","","100","","","M","24","","4","","","","101.90","","","","","","NA"
"-55.33","47.14","WINTERLAND BRANCH HILL","8404242","2020-10-16 04:00","2020","10","16","04:00","4.9","","4.9","","100","","","M","31","","8","","","","101.97","","","","","","NA"
"-55.33","47.14","WINTERLAND BRANCH HILL","8404242","2020-10-16 05:00","2020","10","16","05:00","4.3","","4.3","","100","","","M","27","","6","","","","102.00","","","","","","NA"
"-55.33","47.14","WINTERLAND BRANCH HILL","8404242","2020-10-16 06:00","2020","10","16","06:00","4.1","","4.1","","100","","","M","24","","3","","","","102.04","","","","","","NA"
"-55.33","47.14","WINTERLAND BRANCH HILL","8404242","2020-10-16 07:00","2020","10","16","07:00","4.1","","4.1","","100","","","M","27","","3","","","","102.13","","","","","","NA"
"-55.33","47.14","WINTERLAND BRANCH HILL","8404242","2020-10-16 08:00","2020","10","16","08:00","6.8","","6.8","","100","","","M","33","","4","","","","102.16","","","","","","NA"
"-55.33","47.14","WINTERLAND BRANCH HILL","8404242","2020-10-16 09:00","2020","10","16","09:00","9.4","","9.3","","99","","","M","25","","1","","","","102.19","","","","","","NA"
"-55.33","47.14","WINTERLAND BRANCH HILL","8404242","2020-10-16 10:00","2020","10","16","10:00","11.8","","10.4","","91","","","M","12","","5","","","","102.20","","","","","","NA"
"-55.33","47.14","WINTERLAND BRANCH HILL","8404242","2020-10-16 11:00","2020","10","16","11:00","14.9","","10.8","","77","","","M","13","","6","","","","102.21","","","","","","NA"
"-55.33","47.14","WINTERLAND BRANCH HILL","8404242","2020-10-16 12:00","2020","10","16","12:00","17.2","","10.4","","64","","","M","11","","6","","","","102.20","","","","","","NA"
"-55.33","47.14","WINTERLAND BRANCH HILL","8404242","2020-10-16 13:00","2020","10","16","13:00","17.9","","11.0","","64","","","M","13","","11","","","","102.20","","","","","","NA"
"-55.33","47.14","WINTERLAND BRANCH HILL","8404242","2020-10-16 14:00","2020","10","16","14:00","16.7","","9.3","","62","","","M","13","","13","","","","102.22","","","","","","NA"
"-55.33","47.14","WINTERLAND BRANCH HILL","8404242","2020-10-16 15:00","2020","10","16","15:00","16.6","","9.0","","61","","","M","12","","10","","","","102.22","","","","","","NA"
"-55.33","47.14","WINTERLAND BRANCH HILL","8404242","2020-10-16 16:00","2020","10","16","16:00","14.7","","7.9","","64","","","M","13","","9","","","","102.27","","","","","","NA"
"-55.33","47.14","WINTERLAND BRANCH HILL","8404242","2020-10-16 17:00","2020","10","16","17:00","11.6","","9.3","","86","","","M","13","","8","","","","102.29","","","","","","NA"
"-55.33","47.14","WINTERLAND BRANCH HILL","8404242","2020-10-16 18:00","2020","10","16","18:00","10.6","","9.8","","95","","","M","11","","11","","","","102.32","","","","","","NA"
"-55.33","47.14","WINTERLAND BRANCH HILL","8404242","2020-10-16 19:00","2020","10","16","19:00","10.9","","9.9","","94","","","M","10","","10","","","","102.33","","","","","","NA"
"-55.33","47.14","WINTERLAND BRANCH HILL","8404242","2020-10-16 20:00","2020","10","16","20:00","11.2","","9.9","","92","","","M","10","","10","","","","102.39","","","","","","NA"
"-55.33","47.14","WINTERLAND BRANCH HILL","8404242","2020-10-16 21:00","2020","10","16","21:00","11.1","","11.0","","99","","","M","11","","10","","","","102.43","","","","","","NA"
"-55.33","47.14","WINTERLAND BRANCH HILL","8404242","2020-10-16 22:00","2020","10","16","22:00","11.6","","11.6","","100","","","M","12","","10","","","","102.44","","","","","","NA"
"-55.33","47.14","WINTERLAND BRANCH HILL","8404242","2020-10-16 23:00","2020","10","16","23:00","12.1","","12.1","","100","","","M","11","","8","","","","102.45","","","","","","NA"
"-55.33","47.14","WINTERLAND BRANCH HILL","8404242","2020-10-17 00:00","2020","10","17","00:00","12.2","","12.2","","100","","","M","12","","9","","","","102.47","","","","","","NA"
"-55.33","47.14","WINTERLAND BRANCH HILL","8404242","2020-10-17 01:00","2020","10","17","01:00","12.0","","12.0","","100","","","M","11","","6","","","","102.46","","","","","","NA"
"-55.33","47.14","WINTERLAND BRANCH HILL","8404242","2020-10-17 02:00","2020","10","17","02:00","11.6","","11.6","","100","","","M","9","","7","","","","102.45","","","","","","NA"
"-55.33","47.14","WINTERLAND BRANCH HILL","8404242","2020-10-17 03:00","2020","10","17","03:00","12.0","","12.0","","100","","","M","11","","8","","","","102.46","","","","","","NA"
"-55.33","47.14","WINTERLAND BRANCH HILL","8404242","2020-10-17 04:00","2020","10","17","04:00","12.0","","12.0","","100","","","M","11","","9","","","","102.47","","","","","","NA"
"-55.33","47.14","WINTERLAND BRANCH HILL","8404242","2020-10-17 05:00","2020","10","17","05:00","12.0","","12.0","","100","","","M","10","","10","","","","102.47","","","","","","NA"
"-55.33","47.14","WINTERLAND BRANCH HILL","8404242","2020-10-17 06:00","2020","10","17","06:00","12.1","","12.1","","100","","","M","10","","10","","","","102.48","","","","","","NA"
"-55.33","47.14","WINTERLAND BRANCH HILL","8404242","2020-10-17 07:00","2020","10","17","07:00","12.5","","12.5","","100","","","M","9","","7","","","","102.52","","","","","","NA"
"-55.33","47.14","WINTERLAND BRANCH HILL","8404242","2020-10-17 08:00","2020","10","17","08:00","13.1","","13.1","","100","","","M","12","","7","","","","102.53","","","","","","NA"
"-55.33","47.14","WINTERLAND BRANCH HILL","8404242","2020-10-17 09:00","2020","10","17","09:00","13.1","","13.1","","100","","","M","12","","10","","","","102.53","","","","","","NA"
"-55.33","47.14","WINTERLAND BRANCH HILL","8404242","2020-10-17 10:00","2020","10","17","10:00","13.4","","13.4","","100","","","M","11","","13","","","","102.53","","","","","","NA"
"-55.33","47.14","WINTERLAND BRANCH HILL","8404242","2020-10-17 11:00","2020","10","17","11:00","13.7","","13.7","","100","","","M","14","","12","","","","102.53","","","","","","NA"
"-55.33","47.14","WINTERLAND BRANCH HILL","8404242","2020-10-17 12:00","2020","10","17","12:00","13.6","","13.6","","100","","","M","13","","21","","","","102.49","","","","","","NA"
"-55.33","47.14","WINTERLAND BRANCH HILL","8404242","2020-10-17 13:00","2020","10","17","13:00","13.6","","13.6","","100","","","M","12","","21","","","","102.42","","","","","","NA"
"-55.33","47.14","WINTERLAND BRANCH HILL","8404242","2020-10-17 14:00","2020","10","17","14:00","13.7","","13.7","","100","","","M","12","","18","","","","102.41","","","","","","NA"
"-55.33","47.14","WINTERLAND BRANCH HILL","8404242","2020-10-17 15:00","2020","10","17","15:00","13.4","","13.3","","100","","","M","13","","16","","","","102.41","","","","","","NA"
"-55.33","47.14","WINTERLAND BRANCH HILL","8404242","2020-10-17 16:00","2020","10","17","16:00","13.0","","13.0","","100","","","M","12","","16","","","","102.43","","","","","","NA"
"-55.33","47.14","WINTERLAND BRANCH HILL","8404242","2020-10-17 17:00","2020","10","17","17:00","12.6","","12.6","","100","","","M","13","","15","","","","102.44","","","","","","NA"
"-55.33","47.14","WINTERLAND BRANCH HILL","8404242","2020-10-17 18:00","2020","10","17","18:00","12.8","","12.7","","100","","","M","13","","20","","","","102.44","","","","","","NA"
"-55.33","47.14","WINTERLAND BRANCH HILL","8404242","2020-10-17 19:00","2020","10","17","19:00","12.5","","12.5","","100","","","M","13","","22","","","","102.41","","","","","","NA"
"-55.33","47.14","WINTERLAND BRANCH HILL","8404242","2020-10-17 20:00","2020","10","17","20:00","12.3","","12.3","","100","","","M","13","","21","","","","102.40","","","","","","NA"
"-55.33","47.14","WINTERLAND BRANCH HILL","8404242","2020-10-17 21:00","2020","10","17","21:00","12.1","","12.0","","100","","","M","13","","21","","","","102.37","","","","","","NA"
"-55.33","47.14","WINTERLAND BRANCH HILL","8404242","2020-10-17 22:00","2020","10","17","22:00","11.9","","11.8","","100","","","M","13","","18","","","","102.33","","","","","","NA"
"-55.33","47.14","WINTERLAND BRANCH HILL","8404242","2020-10-17 23:00","2020","10","17","23:00","11.7","","11.6","","100","","","M","12","","17","","","","102.30","","","","","","NA"
"-55.33","47.14","WINTERLAND BRANCH HILL","8404242","2020-10-18 00:00","2020","10","18","00:00","11.5","","11.4","","100","","","M","12","","16","","","","102.32","","","","","","NA"
"-55.33","47.14","WINTERLAND BRANCH HILL","8404242","2020-10-18 01:00","2020","10","18","01:00","11.4","","11.4","","100","","","M","13","","15","","","","102.36","","","","","","NA"
"-55.33","47.14","WINTERLAND BRANCH HILL","8404242","2020-10-18 02:00","2020","10","18","02:00","11.4","","11.4","","100","","","M","13","","16","","","","102.36","","","","","","NA"
"-55.33","47.14","WINTERLAND BRANCH HILL","8404242","2020-10-18 03:00","2020","10","18","03:00","11.5","","11.5","","100","","","M","13","","25","","","","102.31","","","","","","NA"
"-55.33","47.14","WINTERLAND BRANCH HILL","8404242","2020-10-18 04:00","2020","10","18","04:00","11.4","","11.4","","100","","","M","13","","19","","","","102.24","","","","","","NA"
"-55.33","47.14","WINTERLAND BRANCH HILL","8404242","2020-10-18 05:00","2020","10","18","05:00","11.4","","11.4","","100","","","M","14","","23","","","","102.26","","","","","","NA"
"-55.33","47.14","WINTERLAND BRANCH HILL","8404242","2020-10-18 06:00","2020","10","18","06:00","11.4","","11.3","","100","","","M","14","","22","","","","102.31","","","","","","NA"
"-55.33","47.14","WINTERLAND BRANCH HILL","8404242","2020-10-18 07:00","2020","10","18","07:00","11.6","","11.6","","100","","","M","14","","24","","","","102.32","","","","","","NA"
"-55.33","47.14","WINTERLAND BRANCH HILL","8404242","2020-10-18 08:00","2020","10","18","08:00","12.0","","12.0","","100","","","M","16","","15","","","","102.45","","","","","","NA"
"-55.33","47.14","WINTERLAND BRANCH HILL","8404242","2020-10-18 09:00","2020","10","18","09:00","12.4","","12.4","","100","","","M","15","","14","","","","102.50","","","","","","NA"
"-55.33","47.14","WINTERLAND BRANCH HILL","8404242","2020-10-18 10:00","2020","10","18","10:00","12.7","","12.6","","99","","","M","15","","13","","","","102.52","","","","","","NA"
"-55.33","47.14","WINTERLAND BRANCH HILL","8404242","2020-10-18 11:00","2020","10","18","11:00","12.8","","12.5","","98","","","M","13","","13","","","","102.54","","","","","","NA"
"-55.33","47.14","WINTERLAND BRANCH HILL","8404242","2020-10-18 12:00","2020","10","18","12:00","12.9","","12.7","","98","","","M","13","","14","","","","102.50","","","","","","NA"
"-55.33","47.14","WINTERLAND BRANCH HILL","8404242","2020-10-18 13:00","2020","10","18","13:00","12.9","","12.5","","97","","","M","12","","12","","","","102.51","","","","","","NA"
"-55.33","47.14","WINTERLAND BRANCH HILL","8404242","2020-10-18 14:00","2020","10","18","14:00","12.5","","12.1","","98","","","M","12","","14","","","","102.54","","","","","","NA"
"-55.33","47.14","WINTERLAND BRANCH HILL","8404242","2020-10-18 15:00","2020","10","18","15:00","12.1","","11.7","","97","","","M","12","","13","","","","102.57","","","","","","NA"
"-55.33","47.14","WINTERLAND BRANCH HILL","8404242","2020-10-18 16:00","2020","10","18","16:00","11.7","","11.5","","99","","","M","12","","10","","","","102.64","","","","","","NA"
"-55.33","47.14","WINTERLAND BRANCH HILL","8404242","2020-10-18 17:00","2020","10","18","17:00","11.4","","11.3","","99","","","M","12","","7","","","","102.71","","","","","","NA"
"-55.33","47.14","WINTERLAND BRANCH HILL","8404242","2020-10-18 18:00","2020","10","18","18:00","11.3","","11.2","","100","","","M","10","","7","","","","102.79","","","","","","NA"
"-55.33","47.14","WINTERLAND BRANCH HILL","8404242","2020-10-18 19:00","2020","10","18","19:00","11.2","","11.1","","100","","","M","7","","7","","","","102.80","","","","","","NA"
"-55.33","47.14","WINTERLAND BRANCH HILL","8404242","2020-10-18 20:00","2020","10","18","20:00","11.2","","11.1","","100","","","M","7","","5","","","","102.82","","","","","","NA"
"-55.33","47.14","WINTERLAND BRANCH HILL","8404242","2020-10-18 21:00","2020","10","18","21:00","11.1","","11.1","","100","","","M","12","","8","","","","102.81","","","","","","NA"
"-55.33","47.14","WINTERLAND BRANCH HILL","8404242","2020-10-18 22:00","2020","10","18","22:00","11.2","","11.1","","100","","","M","12","","5","","","","102.81","","","","","","NA"
"-55.33","47.14","WINTERLAND BRANCH HILL","8404242","2020-10-18 23:00","2020","10","18","23:00","11.1","","11.1","","100","","","M","12","","11","","","","102.81","","","","","","NA"
"-55.33","47.14","WINTERLAND BRANCH HILL","8404242","2020-10-19 00:00","2020","10","19","00:00","11.2","","11.2","","100","","","M","12","","13","","","","102.79","","","","","","NA"
"-55.33","47.14","WINTERLAND BRANCH HILL","8404242","2020-10-19 01:00","2020","10","19","01:00","11.1","","11.1","","100","","","M","13","","14","","","","102.79","","","","","","NA"
"-55.33","47.14","WINTERLAND BRANCH HILL","8404242","2020-10-19 02:00","2020","10","19","02:00","11.2","","11.2","","100","","","M","14","","14","","","","102.75","","","","","","NA"
"-55.33","47.14","WINTERLAND BRANCH HILL","8404242","2020-10-19 03:00","2020","10","19","03:00","11.2","","11.1","","100","","","M","14","","11","","","","102.77","","","","","","NA"
"-55.33","47.14","WINTERLAND BRANCH HILL","8404242","2020-10-19 04:00","2020","10","19","04:00","11.1","","11.1","","100","","","M","13","","12","","","","102.76","","","","","","NA"
"-55.33","47.14","WINTERLAND BRANCH HILL","8404242","2020-10-19 05:00","2020","10","19","05:00","11.1","","11.1","","100","","","M","13","","12","","","","102.79","","","","","","NA"
"-55.33","47.14","WINTERLAND BRANCH HILL","8404242","2020-10-19 06:00","2020","10","19","06:00","10.8","","10.7","","99","","","M","16","","14","","","","102.83","","","","","","NA"
"-55.33","47.14","WINTERLAND BRANCH HILL","8404242","2020-10-19 07:00","2020","10","19","07:00","10.9","","10.8","","99","","","M","17","","12","","","","102.87","","","","","","NA"
"-55.33","47.14","WINTERLAND BRANCH HILL","8404242","2020-10-19 08:00","2020","10","19","08:00","11.5","","10.9","","96","","","M","15","","7","","","","102.90","","","","","","NA"
"-55.33","47.14","WINTERLAND BRANCH HILL","8404242","2020-10-19 09:00","2020","10","19","09:00","11.9","","10.9","","94","","","M","17","","7","","","","102.89","","","","","","NA"
"-55.33","47.14","WINTERLAND BRANCH HILL","8404242","2020-10-19 10:00","2020","10","19","10:00","12.6","","10.9","","89","","","M","16","","10","","","","102.84","","","","","","NA"
"-55.33","47.14","WINTERLAND BRANCH HILL","8404242","2020-10-19 11:00","2020","10","19","11:00","13.4","","10.7","","84","","","M","17","","15","","","","102.81","","","","","","NA"
"-55.33","47.14","WINTERLAND BRANCH HILL","8404242","2020-10-19 12:00","2020","10","19","12:00","13.9","","11.2","","84","","","M","19","","12","","","","102.80","","","","","","NA"
"-55.33","47.14","WINTERLAND BRANCH HILL","8404242","2020-10-19 13:00","2020","10","19","13:00","14.1","","9.9","","76","","","M","18","","15","","","","102.76","","","","","","NA"
"-55.33","47.14","WINTERLAND BRANCH HILL","8404242","2020-10-19 14:00","2020","10","19","14:00","14.7","","9.7","","72","","","M","18","","16","","","","102.70","","","","","","NA"
"-55.33","47.14","WINTERLAND BRANCH HILL","8404242","2020-10-19 15:00","2020","10","19","15:00","14.0","","9.4","","74","","","M","17","","17","","","","102.68","","","","","","NA"
"-55.33","47.14","WINTERLAND BRANCH HILL","8404242","2020-10-19 16:00","2020","10","19","16:00","13.0","","9.5","","80","","","M","20","","9","","","","102.74","","","","","","NA"
"-55.33","47.14","WINTERLAND BRANCH HILL","8404242","2020-10-19 17:00","2020","10","19","17:00","11.6","","9.5","","87","","","M","15","","10","","","","102.70","","","","","","NA"
"-55.33","47.14","WINTERLAND BRANCH HILL","8404242","2020-10-19 18:00","2020","10","19","18:00","11.3","","9.6","","89","","","M","17","","7","","","","102.75","","","","","","NA"
"-55.33","47.14","WINTERLAND BRANCH HILL","8404242","2020-10-19 19:00","2020","10","19","19:00","10.0","","9.1","","94","","","M","15","","8","","","","102.72","","","","","","NA"
"-55.33","47.14","WINTERLAND BRANCH HILL","8404242","2020-10-19 20:00","2020","10","19","20:00","9.5","","9.0","","96","","","M","0","","1","","","","102.76","","","","","","NA"
"-55.33","47.14","WINTERLAND BRANCH HILL","8404242","2020-10-19 21:00","2020","10","19","21:00","9.2","","8.8","","97","","","M","13","","7","","","","102.74","","","","","","NA"
"-55.33","47.14","WINTERLAND BRANCH HILL","8404242","2020-10-19 22:00","2020","10","19","22:00","8.8","","8.7","","99","","","M","18","","3","","","","102.72","","","","","","NA"
"-55.33","47.14","WINTERLAND BRANCH HILL","8404242","2020-10-19 23:00","2020","10","19","23:00","8.2","","7.9","","98","","","M","12","","5","","","","102.65","","","","","","NA"
"-55.33","47.14","WINTERLAND BRANCH HILL","8404242","2020-10-20 00:00","2020","10","20","00:00","8.3","","8.3","","100","","","M","13","","7","","","","102.64","","","","","","NA"
"-55.33","47.14","WINTERLAND BRANCH HILL","8404242","2020-10-20 01:00","2020","10","20","01:00","8.6","","8.5","","100","","","M","12","","6","","","","102.68","","","","","","NA"
"-55.33","47.14","WINTERLAND BRANCH HILL","8404242","2020-10-20 02:00","2020","10","20","02:00","9.0","","8.9","","100","","","M","11","","6","","","","102.64","","","","","","NA"
"-55.33","47.14","WINTERLAND BRANCH HILL","8404242","2020-10-20 03:00","2020","10","20","03:00","8.5","","8.5","","100","","","M","11","","6","","","","102.57","","","","","","NA"
"-55.33","47.14","WINTERLAND BRANCH HILL","8404242","2020-10-20 04:00","2020","10","20","04:00","8.6","","8.5","","100","","","M","11","","7","","","","102.55","","","","","","NA"
"-55.33","47.14","WINTERLAND BRANCH HILL","8404242","2020-10-20 05:00","2020","10","20","05:00","9.1","","8.7","","98","","","M","18","","3","","","","102.57","","","","","","NA"
"-55.33","47.14","WINTERLAND BRANCH HILL","8404242","2020-10-20 06:00","2020","10","20","06:00","11.0","","10.2","","95","","","M","18","","9","","","","102.55","","","","","","NA"
"-55.33","47.14","WINTERLAND BRANCH HILL","8404242","2020-10-20 07:00","2020","10","20","07:00","11.7","","11.1","","96","","","M","15","","7","","","","102.57","","","","","","NA"
"-55.33","47.14","WINTERLAND BRANCH HILL","8404242","2020-10-20 08:00","2020","10","20","08:00","12.8","","12.1","","95","","","M","19","","13","","","","102.52","","","","","","NA"
"-55.33","47.14","WINTERLAND BRANCH HILL","8404242","2020-10-20 09:00","2020","10","20","09:00","14.3","","13.0","","92","","","M","19","","12","","","","102.50","","","","","","NA"
"-55.33","47.14","WINTERLAND BRANCH HILL","8404242","2020-10-20 10:00","2020","10","20","10:00"
"-55.33","47.14","WINTERLAND BRANCH HILL","8404242","2020-10-20 11:00","2020","10","20","11:00"
"-55.33","47.14","WINTERLAND BRANCH HILL","8404242","2020-10-20 12:00","2020","10","20","12:00"
"-55.33","47.14","WINTERLAND BRANCH HILL","8404242","2020-10-20 13:00","2020","10","20","13:00"
"-55.33","47.14","WINTERLAND BRANCH HILL","8404242","2020-10-20 14:00","2020","10","20","14:00","16.1","","13.4","","84","","0.0","","21","","22","","","","102.32","","","","","","NA"
"-55.33","47.14","WINTERLAND BRANCH HILL","8404242","2020-10-20 15:00","2020","10","20","15:00","15.4","","13.4","","88","","0.0","","21","","17","","","","102.28","","","","","","NA"
"-55.33","47.14","WINTERLAND BRANCH HILL","8404242","2020-10-20 16:00","2020","10","20","16:00","14.8","","13.4","","91","","0.0","","19","","18","","","","102.24","","","","","","NA"
"-55.33","47.14","WINTERLAND BRANCH HILL","8404242","2020-10-20 17:00","2020","10","20","17:00","14.1","","13.2","","94","","0.0","","19","","16","","","","102.20","","","","","","NA"
"-55.33","47.14","WINTERLAND BRANCH HILL","8404242","2020-10-20 18:00","2020","10","20","18:00","13.8","","13.1","","95","","0.0","","19","","19","","","","102.12","","","","","","NA"
"-55.33","47.14","WINTERLAND BRANCH HILL","8404242","2020-10-20 19:00","2020","10","20","19:00","13.7","","12.7","","94","","0.0","","21","","18","","","","102.16","","","","","","NA"
"-55.33","47.14","WINTERLAND BRANCH HILL","8404242","2020-10-20 20:00","2020","10","20","20:00","13.6","","12.2","","92","","0.0","","21","","18","","","","102.09","","","","","","NA"
"-55.33","47.14","WINTERLAND BRANCH HILL","8404242","2020-10-20 21:00","2020","10","20","21:00","13.5","","12.1","","91","","0.0","","22","","19","","","","102.06","","","","","","NA"
"-55.33","47.14","WINTERLAND BRANCH HILL","8404242","2020-10-20 22:00","2020","10","20","22:00","14.4","","12.8","","90","","0.0","","22","","22","","","","101.97","","","","","","NA"
"-55.33","47.14","WINTERLAND BRANCH HILL","8404242","2020-10-20 23:00","2020","10","20","23:00","14.4","","13.0","","91","","0.0","","22","","25","","","","101.89","","","","","","NA"
"-55.33","47.14","WINTERLAND BRANCH HILL","8404242","2020-10-21 00:00","2020","10","21","00:00","14.6","","13.3","","92","","0.0","","22","","22","","","","101.88","","","","","","NA"
"-55.33","47.14","WINTERLAND BRANCH HILL","8404242","2020-10-21 01:00","2020","10","21","01:00","14.6","","13.9","","95","","0.0","","23","","25","","","","101.87","","","","","","NA"
"-55.33","47.14","WINTERLAND BRANCH HILL","8404242","2020-10-21 02:00","2020","10","21","02:00","14.4","","14.0","","97","","0.0","","25","","20","","","","101.87","","","","","","NA"
"-55.33","47.14","WINTERLAND BRANCH HILL","8404242","2020-10-21 03:00","2020","10","21","03:00","13.8","","13.3","","97","","0.0","","27","","21","","","","101.93","","","","","","NA"
"-55.33","47.14","WINTERLAND BRANCH HILL","8404242","2020-10-21 04:00","2020","10","21","04:00","12.6","","12.2","","97","","0.0","","24","","9","","","","101.90","","","","","","NA"
"-55.33","47.14","WINTERLAND BRANCH HILL","8404242","2020-10-21 05:00","2020","10","21","05:00","11.4","","10.8","","96","","0.0","","26","","9","","","","101.96","","","","","","NA"
"-55.33","47.14","WINTERLAND BRANCH HILL","8404242","2020-10-21 06:00","2020","10","21","06:00","10.7","","9.9","","95","","0.0","","28","","16","","","","102.04","","","","","","NA"
"-55.33","47.14","WINTERLAND BRANCH HILL","8404242","2020-10-21 07:00","2020","10","21","07:00"
"-55.33","47.14","WINTERLAND BRANCH HILL","8404242","2020-10-21 08:00","2020","10","21","08:00"
"-55.33","47.14","WINTERLAND BRANCH HILL","8404242","2020-10-21 09:00","2020","10","21","09:00"
"-55.33","47.14","WINTERLAND BRANCH HILL","8404242","2020-10-21 10:00","2020","10","21","10:00"
"-55.33","47.14","WINTERLAND BRANCH HILL","8404242","2020-10-21 11:00","2020","10","21","11:00"
"-55.33","47.14","WINTERLAND BRANCH HILL","8404242","2020-10-21 12:00","2020","10","21","12:00","12.7","","9.0","","78","","0.0","","28","","21","","","","102.27","","","","","","NA"
"-55.33","47.14","WINTERLAND BRANCH HILL","8404242","2020-10-21 13:00","2020","10","21","13:00","12.5","","8.5","","76","","0.0","","28","","16","","","","102.28","","","","","","NA"
"-55.33","47.14","WINTERLAND BRANCH HILL","8404242","2020-10-21 14:00","2020","10","21","14:00","13.6","","5.9","","60","","0.0","","27","","18","","","","102.25","","","","","","NA"
"-55.33","47.14","WINTERLAND BRANCH HILL","8404242","2020-10-21 15:00","2020","10","21","15:00","11.1","","6.3","","72","","0.0","","29","","16","","","","102.28","","","","","","NA"
"-55.33","47.14","WINTERLAND BRANCH HILL","8404242","2020-10-21 16:00","2020","10","21","16:00","10.7","","6.0","","73","","0.0","","28","","9","","","","102.23","","","","","","NA"
"-55.33","47.14","WINTERLAND BRANCH HILL","8404242","2020-10-21 17:00","2020","10","21","17:00","10.0","","6.6","","79","","0.0","","31","","8","","","","102.24","","","","","","NA"
"-55.33","47.14","WINTERLAND BRANCH HILL","8404242","2020-10-21 18:00","2020","10","21","18:00","9.9","","6.6","","80","","0.0","","31","","5","","","","102.26","","","","","","NA"
"-55.33","47.14","WINTERLAND BRANCH HILL","8404242","2020-10-21 19:00","2020","10","21","19:00","9.8","","7.1","","83","","0.0","","36","","5","","","","102.24","","","","","","NA"
"-55.33","47.14","WINTERLAND BRANCH HILL","8404242","2020-10-21 20:00","2020","10","21","20:00","9.8","","7.6","","86","","0.0","","19","","2","","","","102.20","","","","","","NA"
"-55.33","47.14","WINTERLAND BRANCH HILL","8404242","2020-10-21 21:00","2020","10","21","21:00","10.3","","7.5","","83","","0.0","","13","","5","","","","102.14","","","","","","NA"
"-55.33","47.14","WINTERLAND BRANCH HILL","8404242","2020-10-21 22:00","2020","10","21","22:00","9.6","","5.5","","76","","0.0","","21","","8","","","","102.03","","","","","","NA"
"-55.33","47.14","WINTERLAND BRANCH HILL","8404242","2020-10-21 23:00","2020","10","21","23:00","9.6","","7.1","","84","","0.0","","15","","12","","","","101.90","","","","","","NA"
"-55.33","47.14","WINTERLAND BRANCH HILL","8404242","2020-10-22 00:00","2020","10","22","00:00","9.9","","9.3","","96","","0.0","","14","","15","","","","101.80","","","","","","NA"
"-55.33","47.14","WINTERLAND BRANCH HILL","8404242","2020-10-22 01:00","2020","10","22","01:00","10.8","","9.7","","93","","0.0","","17","","22","","","","101.69","","","","","","NA"
"-55.33","47.14","WINTERLAND BRANCH HILL","8404242","2020-10-22 02:00","2020","10","22","02:00","11.6","","11.3","","98","","0.0","","18","","19","","","","101.57","","","","","","NA"
"-55.33","47.14","WINTERLAND BRANCH HILL","8404242","2020-10-22 03:00","2020","10","22","03:00","12.5","","12.4","","99","","0.0","","21","","27","","","","101.44","","","","","","NA"
"-55.33","47.14","WINTERLAND BRANCH HILL","8404242","2020-10-22 04:00","2020","10","22","04:00","12.5","","12.3","","99","","0.0","","22","","26","","","","101.35","","","","","","NA"
"-55.33","47.14","WINTERLAND BRANCH HILL","8404242","2020-10-22 05:00","2020","10","22","05:00","13.4","","12.9","","96","","0.0","","23","","27","","","","101.27","","","","","","NA"
"-55.33","47.14","WINTERLAND BRANCH HILL","8404242","2020-10-22 06:00","2020","10","22","06:00","14.3","","13.5","","95","","0.0","","24","","32","","","","101.22","","","","","","NA"
"-55.33","47.14","WINTERLAND BRANCH HILL","8404242","2020-10-22 07:00","2020","10","22","07:00","14.8","","13.7","","93","","0.0","","24","","33","","","","101.17","","","","","","NA"
"-55.33","47.14","WINTERLAND BRANCH HILL","8404242","2020-10-22 08:00","2020","10","22","08:00","15.5","","13.9","","90","","0.0","","24","","34","","","","101.12","","","","","","NA"
"-55.33","47.14","WINTERLAND BRANCH HILL","8404242","2020-10-22 09:00","2020","10","22","09:00","15.8","","13.9","","88","","0.0","","24","","34","","","","101.05","","","","","","NA"
"-55.33","47.14","WINTERLAND BRANCH HILL","8404242","2020-10-22 10:00","2020","10","22","10:00","14.8","","14.4","","97","","0.0","","25","","28","","","","101.04","","","","","","NA"
"-55.33","47.14","WINTERLAND BRANCH HILL","8404242","2020-10-22 11:00","2020","10","22","11:00","14.9","","14.3","","96","","0.0","","26","","35","","","","101.00","","","","","","NA"
"-55.33","47.14","WINTERLAND BRANCH HILL","8404242","2020-10-22 12:00","2020","10","22","12:00","13.9","","13.1","","95","","0.0","","27","","31","","","","100.96","","","","","","NA"
"-55.33","47.14","WINTERLAND BRANCH HILL","8404242","2020-10-22 13:00","2020","10","22","13:00","13.6","","10.6","","82","","0.0","","27","","33","","","","100.94","","","","","","NA"
"-55.33","47.14","WINTERLAND BRANCH HILL","8404242","2020-10-22 14:00","2020","10","22","14:00","13.7","","8.0","","68","","0.0","","27","","40","","","","100.96","","","","","","NA"
"-55.33","47.14","WINTERLAND BRANCH HILL","8404242","2020-10-22 15:00","2020","10","22","15:00","11.6","","7.3","","75","","0.0","","28","","43","","","","101.00","","","","","","NA"
"-55.33","47.14","WINTERLAND BRANCH HILL","8404242","2020-10-22 16:00","2020","10","22","16:00","11.0","","6.7","","75","","0.0","","28","","44","","","","101.06","","","","","","NA"
"-55.33","47.14","WINTERLAND BRANCH HILL","8404242","2020-10-22 17:00","2020","10","22","17:00","9.4","","7.1","","86","","0.0","","28","","31","","","","101.20","","","","","","NA"
"-55.33","47.14","WINTERLAND BRANCH HILL","8404242","2020-10-22 18:00","2020","10","22","18:00","8.8","","7.0","","88","","0.0","","28","","23","","","","101.32","","","","","","NA"
"-55.33","47.14","WINTERLAND BRANCH HILL","8404242","2020-10-22 19:00","2020","10","22","19:00","8.4","","7.0","","91","","0.0","","27","","24","","","","101.35","","","","","","NA"
"-55.33","47.14","WINTERLAND BRANCH HILL","8404242","2020-10-22 20:00","2020","10","22","20:00","8.5","","5.7","","83","","0.0","","28","","26","","","","101.37","","","","","","NA"
"-55.33","47.14","WINTERLAND BRANCH HILL","8404242","2020-10-22 21:00","2020","10","22","21:00","8.1","","4.7","","79","","0.0","","29","","31","","","","101.42","","","","","","NA"
"-55.33","47.14","WINTERLAND BRANCH HILL","8404242","2020-10-22 22:00","2020","10","22","22:00","7.4","","4.0","","79","","0.0","","31","","25","","","","101.51","","","","","","NA"
"-55.33","47.14","WINTERLAND BRANCH HILL","8404242","2020-10-22 23:00","2020","10","22","23:00","6.5","","3.0","","78","","0.0","","31","","17","","","","101.55","","","","","","NA"
"-55.33","47.14","WINTERLAND BRANCH HILL","8404242","2020-10-23 00:00","2020","10","23","00:00","5.9","","2.6","","79","","0.0","","31","","19","","","","101.58","","","","","","NA"
"-55.33","47.14","WINTERLAND BRANCH HILL","8404242","2020-10-23 01:00","2020","10","23","01:00","5.9","","1.7","","74","","0.0","","32","","20","","","","101.66","","","","","","NA"
"-55.33","47.14","WINTERLAND BRANCH HILL","8404242","2020-10-23 02:00","2020","10","23","02:00","5.1","","1.8","","79","","0.0","","33","","16","","","","101.72","","","","","","NA"
"-55.33","47.14","WINTERLAND BRANCH HILL","8404242","2020-10-23 03:00","2020","10","23","03:00","4.7","","0.6","","75","","0.0","","33","","13","","","","101.75","","","","","","NA"
"-55.33","47.14","WINTERLAND BRANCH HILL","8404242","2020-10-23 04:00","2020","10","23","04:00","3.1","","0.6","","84","","0.0","","31","","13","","","","101.82","","","","","","NA"
"-55.33","47.14","WINTERLAND BRANCH HILL","8404242","2020-10-23 05:00","2020","10","23","05:00","3.2","","0.8","","84","","0.0","","32","","14","","","","101.85","","","","","","NA"
"-55.33","47.14","WINTERLAND BRANCH HILL","8404242","2020-10-23 06:00","2020","10","23","06:00","3.2","","0.3","","81","","0.0","","33","","11","","","","101.91","","","","","","NA"
"-55.33","47.14","WINTERLAND BRANCH HILL","8404242","2020-10-23 07:00","2020","10","23","07:00","3.9","","0.3","","77","","0.0","","35","","7","","","","101.99","","","","","","NA"
"-55.33","47.14","WINTERLAND BRANCH HILL","8404242","2020-10-23 08:00","2020","10","23","08:00","6.1","","1.5","","72","","0.0","","30","","6","","","","102.07","","","","","","NA"
"-55.33","47.14","WINTERLAND BRANCH HILL","8404242","2020-10-23 09:00","2020","10","23","09:00","6.7","","0.3","","63","","0.0","","32","","17","","","","102.08","","","","","","NA"
"-55.33","47.14","WINTERLAND BRANCH HILL","8404242","2020-10-23 10:00","2020","10","23","10:00","7.2","","0.5","","62","","0.0","","33","","16","","","","102.08","","","","","","NA"
"-55.33","47.14","WINTERLAND BRANCH HILL","8404242","2020-10-23 11:00","2020","10","23","11:00","7.9","","0.9","","61","","0.0","","34","","13","","","","102.07","","","","","","NA"
"-55.33","47.14","WINTERLAND BRANCH HILL","8404242","2020-10-23 12:00","2020","10","23","12:00","7.7","","-0.9","","54","","0.0","","32","","11","","","","102.07","","","","","","NA"
"-55.33","47.14","WINTERLAND BRANCH HILL","8404242","2020-10-23 13:00","2020","10","23","13:00","8.3","","-0.2","","55","","0.0","","33","","12","","","","102.07","","","","","","NA"
"-55.33","47.14","WINTERLAND BRANCH HILL","8404242","2020-10-23 14:00","2020","10","23","14:00","8.4","","0.4","","57","","0.0","","35","","9","","","","102.06","","","","","","NA"
"-55.33","47.14","WINTERLAND BRANCH HILL","8404242","2020-10-23 15:00","2020","10","23","15:00","9.0","","0.8","","56","","0.0","","31","","8","","","","102.15","","","","","","NA"
"-55.33","47.14","WINTERLAND BRANCH HILL","8404242","2020-10-23 16:00","2020","10","23","16:00","7.8","","0.7","","61","","0.0","","32","","6","","","","102.18","","","","","","NA"
"-55.33","47.14","WINTERLAND BRANCH HILL","8404242","2020-10-23 17:00","2020","10","23","17:00","5.2","","1.5","","77","","0.0","","32","","9","","","","102.20","","","","","","NA"
"-55.33","47.14","WINTERLAND BRANCH HILL","8404242","2020-10-23 18:00","2020","10","23","18:00","2.5","","0.3","","85","","0.0","","28","","8","","","","102.24","","","","","","NA"
"-55.33","47.14","WINTERLAND BRANCH HILL","8404242","2020-10-23 19:00","2020","10","23","19:00","3.0","","1.6","","91","","0.0","","29","","5","","","","102.21","","","","","","NA"
"-55.33","47.14","WINTERLAND BRANCH HILL","8404242","2020-10-23 20:00","2020","10","23","20:00","3.5","","1.5","","87","","0.0","","32","","2","","","","102.19","","","","","","NA"
"-55.33","47.14","WINTERLAND BRANCH HILL","8404242","2020-10-23 21:00","2020","10","23","21:00","2.5","","0.6","","87","","0.0","","17","","4","","","","102.19","","","","","","NA"
"-55.33","47.14","WINTERLAND BRANCH HILL","8404242","2020-10-23 22:00","2020","10","23","22:00","1.3","","0.6","","95","","0.0","","","","0","","","","102.18","","","","","","NA"
"-55.33","47.14","WINTERLAND BRANCH HILL","8404242","2020-10-23 23:00","2020","10","23","23:00","1.2","","0.4","","94","","0.0","","29","","3","","","","102.14","","","","","","NA"
"-55.33","47.14","WINTERLAND BRANCH HILL","8404242","2020-10-24 00:00","2020","10","24","00:00","1.6","","0.8","","94","","0.0","","14","","2","","","","102.09","","","","","","NA"
"-55.33","47.14","WINTERLAND BRANCH HILL","8404242","2020-10-24 01:00","2020","10","24","01:00","1.5","","1.1","","97","","0.0","","1","","4","","","","102.07","","","","","","NA"
"-55.33","47.14","WINTERLAND BRANCH HILL","8404242","2020-10-24 02:00","2020","10","24","02:00","0.7","","0.0","","95","","0.0","","21","","4","","","","102.01","","","","","","NA"
"-55.33","47.14","WINTERLAND BRANCH HILL","8404242","2020-10-24 03:00","2020","10","24","03:00","1.5","","1.2","","98","","0.0","","9","","6","","","","101.95","","","","","","NA"
"-55.33","47.14","WINTERLAND BRANCH HILL","8404242","2020-10-24 04:00","2020","10","24","04:00","1.5","","1.2","","98","","0.0","","21","","3","","","","102.00","","","","","","NA"
"-55.33","47.14","WINTERLAND BRANCH HILL","8404242","2020-10-24 05:00","2020","10","24","05:00","3.9","","3.3","","95","","0.0","","10","","11","","","","101.93","","","","","","NA"
"-55.33","47.14","WINTERLAND BRANCH HILL","8404242","2020-10-24 06:00","2020","10","24","06:00","6.2","","4.1","","87","","0.0","","12","","14","","","","101.84","","","","","","NA"
"-55.33","47.14","WINTERLAND BRANCH HILL","8404242","2020-10-24 07:00","2020","10","24","07:00","6.8","","4.5","","85","","0.0","","12","","16","","","","101.80","","","","","","NA"
"-55.33","47.14","WINTERLAND BRANCH HILL","8404242","2020-10-24 08:00","2020","10","24","08:00","8.0","","4.9","","81","","0.0","","11","","19","","","","101.75","","","","","","NA"
"-55.33","47.14","WINTERLAND BRANCH HILL","8404242","2020-10-24 09:00","2020","10","24","09:00","8.9","","5.1","","77","","0.0","","12","","25","","","","101.68","","","","","","NA"
"-55.33","47.14","WINTERLAND BRANCH HILL","8404242","2020-10-24 10:00","2020","10","24","10:00","9.6","","5.8","","77","","0.0","","13","","28","","","","101.58","","","","","","NA"
"-55.33","47.14","WINTERLAND BRANCH HILL","8404242","2020-10-24 11:00","2020","10","24","11:00","10.6","","6.6","","76","","0.0","","13","","28","","","","101.48","","","","","","NA"
"-55.33","47.14","WINTERLAND BRANCH HILL","8404242","2020-10-24 12:00","2020","10","24","12:00","10.6","","6.8","","78","","0.0","","13","","29","","","","101.35","","","","","","NA"
"-55.33","47.14","WINTERLAND BRANCH HILL","8404242","2020-10-24 13:00","2020","10","24","13:00","10.8","","7.3","","79","","0.0","","13","","30","","","","101.18","","","","","","NA"
"-55.33","47.14","WINTERLAND BRANCH HILL","8404242","2020-10-24 14:00","2020","10","24","14:00","10.9","","7.9","","82","","0.0","","13","","28","","","","101.08","","","","","","NA"
"-55.33","47.14","WINTERLAND BRANCH HILL","8404242","2020-10-24 15:00","2020","10","24","15:00","10.7","","8.4","","86","","0.0","","12","","25","","","","100.95","","","","","","NA"
"-55.33","47.14","WINTERLAND BRANCH HILL","8404242","2020-10-24 16:00","2020","10","24","16:00","10.6","","8.5","","87","","0.0","","12","","27","","","","100.83","","","","","","NA"
"-55.33","47.14","WINTERLAND BRANCH HILL","8404242","2020-10-24 17:00","2020","10","24","17:00","10.4","","8.7","","89","","0.0","","12","","20","","","","100.75","","","","","","NA"
"-55.33","47.14","WINTERLAND BRANCH HILL","8404242","2020-10-24 18:00","2020","10","24","18:00","9.9","","9.3","","96","","0.0","","12","","18","","","","100.64","","","","","","NA"
"-55.33","47.14","WINTERLAND BRANCH HILL","8404242","2020-10-24 19:00","2020","10","24","19:00","9.8","","9.4","","97","","0.0","","12","","25","","","","100.50","","","","","","NA"
"-55.33","47.14","WINTERLAND BRANCH HILL","8404242","2020-10-24 20:00","2020","10","24","20:00","9.9","","9.6","","98","","0.6","","11","","17","","","","100.37","","","","","","NA"
"-55.33","47.14","WINTERLAND BRANCH HILL","8404242","2020-10-24 21:00","2020","10","24","21:00","10.1","","9.9","","99","","0.7","","10","","17","","","","100.21","","","","","","NA"
"-55.33","47.14","WINTERLAND BRANCH HILL","8404242","2020-10-24 22:00","2020","10","24","22:00","9.9","","9.8","","99","","2.0","","9","","16","","","","100.04","","","","","","NA"
"-55.33","47.14","WINTERLAND BRANCH HILL","8404242","2020-10-24 23:00","2020","10","24","23:00","10.0","","9.9","","100","","0.8","","10","","17","","","","99.85","","","","","","NA"
"-55.33","47.14","WINTERLAND BRANCH HILL","8404242","2020-10-25 00:00","2020","10","25","00:00","10.6","","10.5","","100","","0.2","","9","","12","","","","99.71","","","","","","NA"
"-55.33","47.14","WINTERLAND BRANCH HILL","8404242","2020-10-25 01:00","2020","10","25","01:00","11.2","","11.1","","100","","0.5","","8","","15","","","","99.56","","","","","","NA"
"-55.33","47.14","WINTERLAND BRANCH HILL","8404242","2020-10-25 02:00","2020","10","25","02:00","11.7","","11.5","","99","","0.0","","3","","10","","","","99.46","","","","","","NA"
"-55.33","47.14","WINTERLAND BRANCH HILL","8404242","2020-10-25 03:00","2020","10","25","03:00","11.8","","11.5","","98","","0.0","","5","","16","","","","99.38","","","","","","NA"
"-55.33","47.14","WINTERLAND BRANCH HILL","8404242","2020-10-25 04:00","2020","10","25","04:00","11.8","","11.5","","98","","0.2","","8","","14","","","","99.19","","","","","","NA"
"-55.33","47.14","WINTERLAND BRANCH HILL","8404242","2020-10-25 05:00","2020","10","25","05:00","11.2","","10.9","","98","","0.0","","35","","20","","","","99.26","","","","","","NA"
"-55.33","47.14","WINTERLAND BRANCH HILL","8404242","2020-10-25 06:00","2020","10","25","06:00","10.5","","10.1","","98","","0.0","","35","","28","","","","99.17","","","","","","NA"
"-55.33","47.14","WINTERLAND BRANCH HILL","8404242","2020-10-25 07:00","2020","10","25","07:00","10.4","","9.8","","96","","0.0","","35","","32","","","","99.21","","","","","","NA"
"-55.33","47.14","WINTERLAND BRANCH HILL","8404242","2020-10-25 08:00","2020","10","25","08:00","10.7","","9.9","","94","","0.0","","34","","35","","","","99.27","","","","","","NA"
"-55.33","47.14","WINTERLAND BRANCH HILL","8404242","2020-10-25 09:00","2020","10","25","09:00","11.6","","10.1","","91","","0.0","","36","","29","","","","99.35","","","","","","NA"
"-55.33","47.14","WINTERLAND BRANCH HILL","8404242","2020-10-25 10:00","2020","10","25","10:00","12.1","","9.9","","86","","0.0","","34","","35","","","","99.40","","","","","","NA"
"-55.33","47.14","WINTERLAND BRANCH HILL","8404242","2020-10-25 11:00","2020","10","25","11:00","13.3","","9.9","","80","","0.0","","33","","22","","","","99.44","","","","","","NA"
"-55.33","47.14","WINTERLAND BRANCH HILL","8404242","2020-10-25 12:00","2020","10","25","12:00","13.3","","9.5","","78","","0.0","","32","","30","","","","99.47","","","","","","NA"
"-55.33","47.14","WINTERLAND BRANCH HILL","8404242","2020-10-25 13:00","2020","10","25","13:00","13.2","","8.5","","73","","0.0","","32","","35","","","","99.58","","","","","","NA"
"-55.33","47.14","WINTERLAND BRANCH HILL","8404242","2020-10-25 14:00","2020","10","25","14:00","11.5","","5.5","","67","","0.0","","31","","33","","","","99.76","","","","","","NA"
"-55.33","47.14","WINTERLAND BRANCH HILL","8404242","2020-10-25 15:00","2020","10","25","15:00","11.1","","3.9","","61","","0.0","","31","","39","","","","99.97","","","","","","NA"
"-55.33","47.14","WINTERLAND BRANCH HILL","8404242","2020-10-25 16:00","2020","10","25","16:00","9.3","","2.3","","61","","0.0","","31","","32","","","","100.16","","","","","","NA"
"-55.33","47.14","WINTERLAND BRANCH HILL","8404242","2020-10-25 17:00","2020","10","25","17:00","7.9","","0.8","","61","","0.0","","31","","32","","","","100.38","","","","","","NA"
"-55.33","47.14","WINTERLAND BRANCH HILL","8404242","2020-10-25 18:00","2020","10","25","18:00","6.9","","0.4","","63","","0.0","","31","","32","","","","100.58","","","","","","NA"
"-55.33","47.14","WINTERLAND BRANCH HILL","8404242","2020-10-25 19:00","2020","10","25","19:00","5.3","","-0.3","","67","","0.0","","31","","32","","","","100.78","","","","","","NA"
"-55.33","47.14","WINTERLAND BRANCH HILL","8404242","2020-10-25 20:00","2020","10","25","20:00","4.4","","-1.7","","65","","0.0","","31","","27","","","","100.99","","","","","","NA"
"-55.33","47.14","WINTERLAND BRANCH HILL","8404242","2020-10-25 21:00","2020","10","25","21:00","4.2","","-2.1","","64","","0.0","","31","","29","","","","101.13","","","","","","NA"
"-55.33","47.14","WINTERLAND BRANCH HILL","8404242","2020-10-25 22:00","2020","10","25","22:00","4.6","","-2.6","","59","","0.0","","31","","28","","","","101.26","","","","","","NA"
"-55.33","47.14","WINTERLAND BRANCH HILL","8404242","2020-10-25 23:00","2020","10","25","23:00","4.1","","-4.6","","53","","0.0","","32","","29","","","","101.38","","","","","","NA"
"-55.33","47.14","WINTERLAND BRANCH HILL","8404242","2020-10-26 00:00","2020","10","26","00:00","4.0","","-4.3","","54","","0.0","","32","","25","","","","101.49","","","","","","NA"
"-55.33","47.14","WINTERLAND BRANCH HILL","8404242","2020-10-26 01:00","2020","10","26","01:00","4.0","","-4.5","","54","","0.0","","33","","16","","","","101.64","","","","","","NA"
"-55.33","47.14","WINTERLAND BRANCH HILL","8404242","2020-10-26 02:00","2020","10","26","02:00","3.0","","-5.8","","52","","0.0","","32","","17","","","","101.72","","","","","","NA"
"-55.33","47.14","WINTERLAND BRANCH HILL","8404242","2020-10-26 03:00","2020","10","26","03:00","2.4","","-5.6","","56","","0.0","","32","","16","","","","101.85","","","","","","NA"
"-55.33","47.14","WINTERLAND BRANCH HILL","8404242","2020-10-26 04:00","2020","10","26","04:00","2.5","","-5.6","","55","","0.0","","33","","15","","","","101.99","","","","","","NA"
"-55.33","47.14","WINTERLAND BRANCH HILL","8404242","2020-10-26 05:00","2020","10","26","05:00","1.4","","-4.6","","65","","0.0","","35","","14","","","","102.09","","","","","","NA"
"-55.33","47.14","WINTERLAND BRANCH HILL","8404242","2020-10-26 06:00","2020","10","26","06:00","1.5","","-4.9","","63","","0.0","","34","","15","","","","102.19","","","","","","NA"
"-55.33","47.14","WINTERLAND BRANCH HILL","8404242","2020-10-26 07:00","2020","10","26","07:00","1.8","","-4.6","","63","","0.0","","33","","11","","","","102.30","","","","","","NA"
"-55.33","47.14","WINTERLAND BRANCH HILL","8404242","2020-10-26 08:00","2020","10","26","08:00","3.7","","-7.2","","45","","0.0","","33","","16","","","","102.36","","","","","","NA"
"-55.33","47.14","WINTERLAND BRANCH HILL","8404242","2020-10-26 09:00","2020","10","26","09:00","4.5","","-5.2","","49","","0.0","","33","","20","","","","102.41","","","","","","NA"
"-55.33","47.14","WINTERLAND BRANCH HILL","8404242","2020-10-26 10:00","2020","10","26","10:00","4.8","","-6.8","","43","","0.0","","31","","20","","","","102.47","","","","","","NA"
"-55.33","47.14","WINTERLAND BRANCH HILL","8404242","2020-10-26 11:00","2020","10","26","11:00","5.4","","-4.9","","47","","0.0","","33","","16","","","","102.47","","","","","","NA"
"-55.33","47.14","WINTERLAND BRANCH HILL","8404242","2020-10-26 12:00","2020","10","26","12:00","5.2","","-4.8","","48","","0.0","","31","","18","","","","102.42","","","","","","NA"
"-55.33","47.14","WINTERLAND BRANCH HILL","8404242","2020-10-26 13:00","2020","10","26","13:00","5.4","","-5.4","","46","","0.0","","30","","18","","","","102.39","","","","","","NA"
"-55.33","47.14","WINTERLAND BRANCH HILL","8404242","2020-10-26 14:00","2020","10","26","14:00","5.7","","-4.7","","47","","0.0","","29","","20","","","","102.43","","","","","","NA"
"-55.33","47.14","WINTERLAND BRANCH HILL","8404242","2020-10-26 15:00","2020","10","26","15:00","5.7","","-3.3","","52","","0.0","","28","","21","","","","102.42","","","","","","NA"
"-55.33","47.14","WINTERLAND BRANCH HILL","8404242","2020-10-26 16:00","2020","10","26","16:00","3.6","","-2.7","","63","","0.0","","28","","13","","","","102.44","","","","","","NA"
"-55.33","47.14","WINTERLAND BRANCH HILL","8404242","2020-10-26 17:00","2020","10","26","17:00","2.6","","-3.1","","66","","0.0","","22","","2","","","","102.34","","","","","","NA"
"-55.33","47.14","WINTERLAND BRANCH HILL","8404242","2020-10-26 18:00","2020","10","26","18:00","1.4","","-3.0","","73","","0.0","","18","","6","","","","102.37","","","","","","NA"
"-55.33","47.14","WINTERLAND BRANCH HILL","8404242","2020-10-26 19:00","2020","10","26","19:00","2.0","","-2.5","","72","","0.0","","23","","3","","","","102.32","","","","","","NA"
"-55.33","47.14","WINTERLAND BRANCH HILL","8404242","2020-10-26 20:00","2020","10","26","20:00","3.2","","-2.2","","67","","0.0","","24","","9","","","","102.35","","","","","","NA"
"-55.33","47.14","WINTERLAND BRANCH HILL","8404242","2020-10-26 21:00","2020","10","26","21:00","2.7","","-1.1","","76","","0.0","","16","","5","","","","102.20","","","","","","NA"
"-55.33","47.14","WINTERLAND BRANCH HILL","8404242","2020-10-26 22:00","2020","10","26","22:00","2.9","","-0.9","","76","","0.0","","","","0","","","","102.15","","","","","","NA"
"-55.33","47.14","WINTERLAND BRANCH HILL","8404242","2020-10-26 23:00","2020","10","26","23:00","2.9","","-0.7","","77","","0.0","","17","","3","","","","102.05","","","","","","NA"
"-55.33","47.14","WINTERLAND BRANCH HILL","8404242","2020-10-27 00:00","2020","10","27","00:00","3.3","","-0.1","","78","","0.0","","15","","2","","","","101.93","","","","","","NA"
"-55.33","47.14","WINTERLAND BRANCH HILL","8404242","2020-10-27 01:00","2020","10","27","01:00","3.5","","-0.1","","77","","0.0","","12","","3","","","","101.89","","","","","","NA"
"-55.33","47.14","WINTERLAND BRANCH HILL","8404242","2020-10-27 02:00","2020","10","27","02:00","3.6","","0.7","","81","","0.0","","15","","5","","","","101.73","","","","","","NA"
"-55.33","47.14","WINTERLAND BRANCH HILL","8404242","2020-10-27 03:00","2020","10","27","03:00","4.8","","1.1","","77","","0.0","","13","","8","","","","101.55","","","","","","NA"
"-55.33","47.14","WINTERLAND BRANCH HILL","8404242","2020-10-27 04:00","2020","10","27","04:00","5.9","","2.4","","79","","0.0","","14","","12","","","","101.37","","","","","","NA"
"-55.33","47.14","WINTERLAND BRANCH HILL","8404242","2020-10-27 05:00","2020","10","27","05:00","6.0","","4.8","","92","","0.0","","13","","12","","","","101.18","","","","","","NA"
"-55.33","47.14","WINTERLAND BRANCH HILL","8404242","2020-10-27 06:00","2020","10","27","06:00","7.2","","7.0","","99","","0.0","","13","","18","","","","100.92","","","","","","NA"
"-55.33","47.14","WINTERLAND BRANCH HILL","8404242","2020-10-27 07:00","2020","10","27","07:00","8.9","","8.7","","99","","0.3","","14","","20","","","","100.69","","","","","","NA"
"-55.33","47.14","WINTERLAND BRANCH HILL","8404242","2020-10-27 08:00","2020","10","27","08:00","10.2","","10.0","","99","","1.0","","17","","29","","","","100.46","","","","","","NA"
"-55.33","47.14","WINTERLAND BRANCH HILL","8404242","2020-10-27 09:00","2020","10","27","09:00","12.1","","11.6","","97","","1.3","","20","","37","","","","100.23","","","","","","NA"
"-55.33","47.14","WINTERLAND BRANCH HILL","8404242","2020-10-27 10:00","2020","10","27","10:00","12.0","","11.6","","97","","2.6","","23","","26","","","","100.19","","","","","","NA"
"-55.33","47.14","WINTERLAND BRANCH HILL","8404242","2020-10-27 11:00","2020","10","27","11:00","12.9","","12.7","","98","","0.0","","25","","26","","","","100.04","","","","","","NA"
"-55.33","47.14","WINTERLAND BRANCH HILL","8404242","2020-10-27 12:00","2020","10","27","12:00","12.3","","11.8","","97","","0.2","","28","","31","","","","100.01","","","","","","NA"
"-55.33","47.14","WINTERLAND BRANCH HILL","8404242","2020-10-27 13:00","2020","10","27","13:00","11.3","","11.0","","98","","0.9","","28","","23","","","","99.93","","","","","","NA"
"-55.33","47.14","WINTERLAND BRANCH HILL","8404242","2020-10-27 14:00","2020","10","27","14:00","10.3","","9.9","","98","","0.2","","27","","20","","","","99.89","","","","","","NA"
"-55.33","47.14","WINTERLAND BRANCH HILL","8404242","2020-10-27 15:00","2020","10","27","15:00","9.6","","9.1","","96","","0.0","","28","","31","","","","99.92","","","","","","NA"
"-55.33","47.14","WINTERLAND BRANCH HILL","8404242","2020-10-27 16:00","2020","10","27","16:00","8.1","","7.5","","96","","0.0","","30","","27","","","","99.95","","","","","","NA"
"-55.33","47.14","WINTERLAND BRANCH HILL","8404242","2020-10-27 17:00","2020","10","27","17:00","7.3","","7.0","","98","","0.0","","31","","13","","","","99.96","","","","","","NA"
"-55.33","47.14","WINTERLAND BRANCH HILL","8404242","2020-10-27 18:00","2020","10","27","18:00","7.4","","7.3","","99","","0.0","","30","","11","","","","99.97","","","","","","NA"
"-55.33","47.14","WINTERLAND BRANCH HILL","8404242","2020-10-27 19:00","2020","10","27","19:00","6.8","","6.5","","98","","0.5","","29","","21","","","","99.92","","","","","","NA"
"-55.33","47.14","WINTERLAND BRANCH HILL","8404242","2020-10-27 20:00","2020","10","27","20:00","6.7","","5.7","","93","","0.0","","29","","18","","","","99.93","","","","","","NA"
"-55.33","47.14","WINTERLAND BRANCH HILL","8404242","2020-10-27 21:00","2020","10","27","21:00","6.6","","5.2","","91","","0.0","","30","","22","","","","99.95","","","","","","NA"
"-55.33","47.14","WINTERLAND BRANCH HILL","8404242","2020-10-27 22:00","2020","10","27","22:00","5.6","","5.3","","98","","0.4","","31","","13","","","","99.97","","","","","","NA"
"-55.33","47.14","WINTERLAND BRANCH HILL","8404242","2020-10-27 23:00","2020","10","27","23:00","5.6","","4.3","","92","","0.0","","29","","16","","","","99.92","","","","","","NA"
"-55.33","47.14","WINTERLAND BRANCH HILL","8404242","2020-10-28 00:00","2020","10","28","00:00","5.4","","4.3","","92","","0.0","","29","","12","","","","99.94","","","","","","NA"
"-55.33","47.14","WINTERLAND BRANCH HILL","8404242","2020-10-28 01:00","2020","10","28","01:00","5.9","","4.4","","90","","0.0","","30","","23","","","","99.89","","","","","","NA"
"-55.33","47.14","WINTERLAND BRANCH HILL","8404242","2020-10-28 02:00","2020","10","28","02:00","5.2","","3.6","","89","","0.2","","30","","24","","","","99.96","","","","","","NA"
"-55.33","47.14","WINTERLAND BRANCH HILL","8404242","2020-10-28 03:00","2020","10","28","03:00","4.9","","3.4","","89","","0.0","","31","","20","","","","99.96","","","","","","NA"
"-55.33","47.14","WINTERLAND BRANCH HILL","8404242","2020-10-28 04:00","2020","10","28","04:00","4.3","","2.6","","89","","0.0","","33","","21","","","","100.08","","","","","","NA"
"-55.33","47.14","WINTERLAND BRANCH HILL","8404242","2020-10-28 05:00","2020","10","28","05:00","3.6","","1.6","","87","","0.0","","33","","20","","","","100.21","","","","","","NA"
"-55.33","47.14","WINTERLAND BRANCH HILL","8404242","2020-10-28 06:00","2020","10","28","06:00","2.8","","0.7","","86","","0.0","","35","","24","","","","100.27","","","","","","NA"
"-55.33","47.14","WINTERLAND BRANCH HILL","8404242","2020-10-28 07:00","2020","10","28","07:00","2.9","","0.4","","84","","0.0","","33","","23","","","","100.43","","","","","","NA"
"-55.33","47.14","WINTERLAND BRANCH HILL","8404242","2020-10-28 08:00","2020","10","28","08:00","3.9","","1.2","","82","","0.0","","34","","18","","","","100.49","","","","","","NA"
"-55.33","47.14","WINTERLAND BRANCH HILL","8404242","2020-10-28 09:00","2020","10","28","09:00","4.6","","-0.3","","70","","0.0","","34","","25","","","","100.58","","","","","","NA"
"-55.33","47.14","WINTERLAND BRANCH HILL","8404242","2020-10-28 10:00","2020","10","28","10:00","4.8","","-0.6","","68","","0.0","","33","","21","","","","100.63","","","","","","NA"
"-55.33","47.14","WINTERLAND BRANCH HILL","8404242","2020-10-28 11:00","2020","10","28","11:00","4.7","","-1.8","","63","","0.0","","35","","21","","","","100.61","","","","","","NA"
"-55.33","47.14","WINTERLAND BRANCH HILL","8404242","2020-10-28 12:00","2020","10","28","12:00","5.5","","-2.6","","56","","0.0","","30","","22","","","","100.58","","","","","","NA"
"-55.33","47.14","WINTERLAND BRANCH HILL","8404242","2020-10-28 13:00","2020","10","28","13:00","4.7","","-2.8","","58","","0.0","","30","","25","","","","100.62","","","","","","NA"
"-55.33","47.14","WINTERLAND BRANCH HILL","8404242","2020-10-28 14:00","2020","10","28","14:00","5.1","","-3.9","","52","","0.0","","30","","25","","","","100.63","","","","","","NA"
"-55.33","47.14","WINTERLAND BRANCH HILL","8404242","2020-10-28 15:00","2020","10","28","15:00","4.7","","-4.0","","53","","0.0","","28","","20","","","","100.63","","","","","","NA"
"-55.33","47.14","WINTERLAND BRANCH HILL","8404242","2020-10-28 16:00","2020","10","28","16:00","3.2","","-2.9","","64","","0.0","","30","","13","","","","100.65","","","","","","NA"
"-55.33","47.14","WINTERLAND BRANCH HILL","8404242","2020-10-28 17:00","2020","10","28","17:00","2.1","","-4.1","","63","","0.0","","31","","12","","","","100.72","","","","","","NA"
"-55.33","47.14","WINTERLAND BRANCH HILL","8404242","2020-10-28 18:00","2020","10","28","18:00","1.5","","-3.6","","69","","0.0","","31","","8","","","","100.76","","","","","","NA"
"-55.33","47.14","WINTERLAND BRANCH HILL","8404242","2020-10-28 19:00","2020","10","28","19:00","1.2","","-3.2","","73","","0.0","","1","","9","","","","100.77","","","","","","NA"
"-55.33","47.14","WINTERLAND BRANCH HILL","8404242","2020-10-28 20:00","2020","10","28","20:00","0.5","","-3.3","","75","","0.0","","3","","6","","","","100.80","","","","","","NA"
"-55.33","47.14","WINTERLAND BRANCH HILL","8404242","2020-10-28 21:00","2020","10","28","21:00","0.2","","-2.8","","80","","0.0","","27","","3","","","","100.84","","","","","","NA"
"-55.33","47.14","WINTERLAND BRANCH HILL","8404242","2020-10-28 22:00","2020","10","28","22:00","0.4","","-1.8","","85","","0.0","","","","0","","","","100.84","","","","","","NA"
"-55.33","47.14","WINTERLAND BRANCH HILL","8404242","2020-10-28 23:00","2020","10","28","23:00","-0.2","","-3.3","","79","","0.0","","8","","5","","","","100.76","","","","-2","","NA"
"-55.33","47.14","WINTERLAND BRANCH HILL","8404242","2020-10-29 00:00","2020","10","29","00:00","-0.4","","-2.5","","86","","0.0","","17","","2","","","","100.73","","","","-1","","NA"
"-55.33","47.14","WINTERLAND BRANCH HILL","8404242","2020-10-29 01:00","2020","10","29","01:00","-0.7","","-2.8","","86","","0.0","","16","","4","","","","100.65","","","","-2","","NA"
"-55.33","47.14","WINTERLAND BRANCH HILL","8404242","2020-10-29 02:00","2020","10","29","02:00","-0.2","","-3.0","","81","","0.0","","24","","4","","","","100.59","","","","-1","","NA"
"-55.33","47.14","WINTERLAND BRANCH HILL","8404242","2020-10-29 03:00","2020","10","29","03:00","-0.1","","-2.8","","82","","0.0","","28","","7","","","","100.56","","","","-3","","NA"
"-55.33","47.14","WINTERLAND BRANCH HILL","8404242","2020-10-29 04:00","2020","10","29","04:00","0.3","","-2.4","","82","","0.0","","30","","5","","","","100.48","","","","","","NA"
"-55.33","47.14","WINTERLAND BRANCH HILL","8404242","2020-10-29 05:00","2020","10","29","05:00","0.2","","-2.6","","82","","0.0","","27","","6","","","","100.43","","","","","","NA"
"-55.33","47.14","WINTERLAND BRANCH HILL","8404242","2020-10-29 06:00","2020","10","29","06:00","0.5","","-2.5","","80","","0.0","","","","0","","","","100.43","","","","","","NA"
"-55.33","47.14","WINTERLAND BRANCH HILL","8404242","2020-10-29 07:00","2020","10","29","07:00","0.4","","-1.7","","86","","0.0","","11","","3","","","","100.43","","","","","","NA"
"-55.33","47.14","WINTERLAND BRANCH HILL","8404242","2020-10-29 08:00","2020","10","29","08:00","1.0","","-0.3","","91","","0.0","","9","","5","","","","100.37","","","","","","NA"
"-55.33","47.14","WINTERLAND BRANCH HILL","8404242","2020-10-29 09:00","2020","10","29","09:00","1.8","","0.7","","92","","0.0","","11","","8","","","","100.28","","","","","","NA"
"-55.33","47.14","WINTERLAND BRANCH HILL","8404242","2020-10-29 10:00","2020","10","29","10:00","4.1","","1.1","","81","","0.0","","13","","15","","","","100.22","","","","","","NA"
"-55.33","47.14","WINTERLAND BRANCH HILL","8404242","2020-10-29 11:00","2020","10","29","11:00","5.2","","2.7","","84","","0.0","","16","","14","","","","100.12","","","","","","NA"
"-55.33","47.14","WINTERLAND BRANCH HILL","8404242","2020-10-29 12:00","2020","10","29","12:00","8.6","","3.3","","69","","0.0","","25","","16","","","","100.00","","","","","","NA"
"-55.33","47.14","WINTERLAND BRANCH HILL","8404242","2020-10-29 13:00","2020","10","29","13:00","8.3","","3.4","","72","","0.0","","28","","21","","","","99.92","","","","","","NA"
"-55.33","47.14","WINTERLAND BRANCH HILL","8404242","2020-10-29 14:00","2020","10","29","14:00","7.2","","2.2","","70","","0.0","","26","","17","","","","99.91","","","","","","NA"
"-55.33","47.14","WINTERLAND BRANCH HILL","8404242","2020-10-29 15:00","2020","10","29","15:00","6.1","","4.5","","89","","0.2","","22","","11","","","","99.87","","","","","","NA"
"-55.33","47.14","WINTERLAND BRANCH HILL","8404242","2020-10-29 16:00","2020","10","29","16:00","6.1","","4.1","","87","","0.0","","28","","23","","","","99.88","","","","","","NA"
"-55.33","47.14","WINTERLAND BRANCH HILL","8404242","2020-10-29 17:00","2020","10","29","17:00","5.7","","2.0","","77","","0.0","","27","","22","","","","99.89","","","","","","NA"
"-55.33","47.14","WINTERLAND BRANCH HILL","8404242","2020-10-29 18:00","2020","10","29","18:00","5.6","","1.5","","75","","0.0","","28","","23","","","","99.94","","","","","","NA"
"-55.33","47.14","WINTERLAND BRANCH HILL","8404242","2020-10-29 19:00","2020","10","29","19:00","5.9","","0.4","","68","","0.0","","29","","32","","","","99.94","","","","","","NA"
"-55.33","47.14","WINTERLAND BRANCH HILL","8404242","2020-10-29 20:00","2020","10","29","20:00","5.7","","2.0","","77","","0.0","","29","","23","","","","99.89","","","","","","NA"
"-55.33","47.14","WINTERLAND BRANCH HILL","8404242","2020-10-29 21:00","2020","10","29","21:00","5.1","","2.0","","81","","0.0","","29","","17","","","","99.94","","","","","","NA"
"-55.33","47.14","WINTERLAND BRANCH HILL","8404242","2020-10-29 22:00","2020","10","29","22:00","5.5","","1.2","","74","","0.0","","29","","21","","","","99.90","","","","","","NA"
"-55.33","47.14","WINTERLAND BRANCH HILL","8404242","2020-10-29 23:00","2020","10","29","23:00","4.1","","2.9","","92","","0.2","","28","","18","","","","99.88","","","","","","NA"
"-55.33","47.14","WINTERLAND BRANCH HILL","8404242","2020-10-30 00:00","2020","10","30","00:00","4.2","","2.6","","89","","0.0","","28","","17","","","","99.82","","","","","","NA"
"-55.33","47.14","WINTERLAND BRANCH HILL","8404242","2020-10-30 01:00","2020","10","30","01:00","3.7","","3.0","","95","","0.9","","26","","8","","","","99.80","","","","","","NA"
"-55.33","47.14","WINTERLAND BRANCH HILL","8404242","2020-10-30 02:00","2020","10","30","02:00","4.1","","1.0","","80","","0.0","","30","","23","","","","99.82","","","","","","NA"
"-55.33","47.14","WINTERLAND BRANCH HILL","8404242","2020-10-30 03:00","2020","10","30","03:00","3.7","","-0.2","","75","","0.0","","30","","22","","","","99.85","","","","","","NA"
"-55.33","47.14","WINTERLAND BRANCH HILL","8404242","2020-10-30 04:00","2020","10","30","04:00","3.3","","-1.2","","72","","0.0","","30","","26","","","","99.89","","","","","","NA"
"-55.33","47.14","WINTERLAND BRANCH HILL","8404242","2020-10-30 05:00","2020","10","30","05:00","2.7","","-2.6","","68","","0.0","","30","","25","","","","99.90","","","","","","NA"
"-55.33","47.14","WINTERLAND BRANCH HILL","8404242","2020-10-30 06:00","2020","10","30","06:00","2.1","","-2.9","","69","","0.0","","32","","22","","","","99.89","","","","","","NA"
"-55.33","47.14","WINTERLAND BRANCH HILL","8404242","2020-10-30 07:00","2020","10","30","07:00","1.5","","-6.1","","57","","0.0","","33","","24","","","","99.92","","","","","","NA"
"-55.33","47.14","WINTERLAND BRANCH HILL","8404242","2020-10-30 08:00","2020","10","30","08:00","1.7","","-5.8","","57","","0.0","","33","","19","","","","100.00","","","","","","NA"
"-55.33","47.14","WINTERLAND BRANCH HILL","8404242","2020-10-30 09:00","2020","10","30","09:00","1.3","","-7.6","","52","","0.0","","33","","23","","","","99.93","","","","","","NA"
"-55.33","47.14","WINTERLAND BRANCH HILL","8404242","2020-10-30 10:00","2020","10","30","10:00","1.0","","-7.3","","54","","0.0","","35","","21","","","","99.91","","","","","","NA"
"-55.33","47.14","WINTERLAND BRANCH HILL","8404242","2020-10-30 11:00","2020","10","30","11:00","2.4","","-8.2","","45","","0.0","","36","","24","","","","99.85","","","","","","NA"
"-55.33","47.14","WINTERLAND BRANCH HILL","8404242","2020-10-30 12:00","2020","10","30","12:00","2.8","","-7.9","","45","","0.0","","35","","21","","","","99.79","","","","","","NA"
"-55.33","47.14","WINTERLAND BRANCH HILL","8404242","2020-10-30 13:00","2020","10","30","13:00","2.5","","-8.2","","45","","0.0","","35","","21","","","","99.82","","","","","","NA"
"-55.33","47.14","WINTERLAND BRANCH HILL","8404242","2020-10-30 14:00","2020","10","30","14:00","2.6","","-7.9","","46","","0.0","","34","","19","","","","99.81","","","","","","NA"
"-55.33","47.14","WINTERLAND BRANCH HILL","8404242","2020-10-30 15:00","2020","10","30","15:00","2.6","","-7.5","","47","","0.0","","1","","19","","","","99.83","","","","","","NA"
"-55.33","47.14","WINTERLAND BRANCH HILL","8404242","2020-10-30 16:00","2020","10","30","16:00","1.9","","-6.5","","53","","0.0","","36","","21","","","","99.87","","","","","","NA"
"-55.33","47.14","WINTERLAND BRANCH HILL","8404242","2020-10-30 17:00","2020","10","30","17:00","1.1","","-6.3","","58","","0.0","","1","","11","","","","99.96","","","","","","NA"
"-55.33","47.14","WINTERLAND BRANCH HILL","8404242","2020-10-30 18:00","2020","10","30","18:00","0.4","","-6.6","","59","","0.0","","4","","10","","","","100.02","","","","","","NA"
"-55.33","47.14","WINTERLAND BRANCH HILL","8404242","2020-10-30 19:00","2020","10","30","19:00","-0.1","","-5.8","","65","","0.0","","4","","10","","","","100.05","","","","-3","","NA"
"-55.33","47.14","WINTERLAND BRANCH HILL","8404242","2020-10-30 20:00","2020","10","30","20:00","-0.1","","-5.8","","66","","0.0","","4","","10","","","","100.13","","","","-3","","NA"
"-55.33","47.14","WINTERLAND BRANCH HILL","8404242","2020-10-30 21:00","2020","10","30","21:00","-0.2","","-5.6","","67","","0.0","","2","","11","","","","100.21","","","","-4","","NA"
"-55.33","47.14","WINTERLAND BRANCH HILL","8404242","2020-10-30 22:00","2020","10","30","22:00","-0.4","","-5.5","","68","","0.0","","2","","14","","","","100.21","","","","-5","","NA"
"-55.33","47.14","WINTERLAND BRANCH HILL","8404242","2020-10-30 23:00","2020","10","30","23:00","-0.5","","-5.9","","67","","0.0","","3","","13","","","","100.16","","","","-5","","NA"
"-55.33","47.14","WINTERLAND BRANCH HILL","8404242","2020-10-31 00:00","2020","10","31","00:00","-0.7","","-5.5","","70","","0.0","","2","","14","","","","100.12","","","","-5","","NA"
"-55.33","47.14","WINTERLAND BRANCH HILL","8404242","2020-10-31 01:00","2020","10","31","01:00","-0.9","","-5.0","","74","","0.0","","2","","14","","","","100.08","","","","-5","","NA"
"-55.33","47.14","WINTERLAND BRANCH HILL","8404242","2020-10-31 02:00","2020","10","31","02:00","-0.8","","-4.8","","74","","0.0","","2","","11","","","","100.19","","","","-5","","NA"
"-55.33","47.14","WINTERLAND BRANCH HILL","8404242","2020-10-31 03:00","2020","10","31","03:00","-0.5","","-4.7","","74","","0.0","","1","","12","","","","100.26","","","","-4","","NA"
"-55.33","47.14","WINTERLAND BRANCH HILL","8404242","2020-10-31 04:00","2020","10","31","04:00","-0.7","","-4.6","","75","","0.0","","1","","14","","","","100.30","","","","-5","","NA"
"-55.33","47.14","WINTERLAND BRANCH HILL","8404242","2020-10-31 05:00","2020","10","31","05:00","-0.4","","-4.4","","74","","0.0","","1","","17","","","","100.38","","","","-5","","NA"
"-55.33","47.14","WINTERLAND BRANCH HILL","8404242","2020-10-31 06:00","2020","10","31","06:00","-0.4","","-4.4","","74","","0.0","","2","","19","","","","100.44","","","","-6","","NA"
"-55.33","47.14","WINTERLAND BRANCH HILL","8404242","2020-10-31 07:00","2020","10","31","07:00","-0.2","","-4.8","","71","","0.0","","1","","23","","","","100.60","","","","-6","","NA"
"-55.33","47.14","WINTERLAND BRANCH HILL","8404242","2020-10-31 08:00","2020","10","31","08:00","0.6","","-4.4","","69","","0.0","","36","","16","","","","100.74","","","","","","NA"
"-55.33","47.14","WINTERLAND BRANCH HILL","8404242","2020-10-31 09:00","2020","10","31","09:00","0.3","","-4.7","","69","","0.0","","35","","27","","","","100.84","","","","","","NA"
"-55.33","47.14","WINTERLAND BRANCH HILL","8404242","2020-10-31 10:00","2020","10","31","10:00","0.5","","-5.8","","63","","0.0","","36","","24","","","","100.94","","","","","","NA"
"-55.33","47.14","WINTERLAND BRANCH HILL","8404242","2020-10-31 11:00","2020","10","31","11:00","1.1","","-5.6","","61","","0.0","","34","","23","","","","101.00","","","","","","NA"
"-55.33","47.14","WINTERLAND BRANCH HILL","8404242","2020-10-31 12:00","2020","10","31","12:00","2.2","","-7.3","","49","","0.0","","33","","21","","","","101.05","","","","","","NA"
"-55.33","47.14","WINTERLAND BRANCH HILL","8404242","2020-10-31 13:00","2020","10","31","13:00","1.7","","-6.6","","54","","0.0","","31","","25","","","","101.10","","","","","","NA"
"-55.33","47.14","WINTERLAND BRANCH HILL","8404242","2020-10-31 14:00","2020","10","31","14:00","2.1","","-7.0","","51","","0.0","","31","","22","","","","101.14","","","","","","NA"
"-55.33","47.14","WINTERLAND BRANCH HILL","8404242","2020-10-31 15:00","2020","10","31","15:00","2.4","","-6.7","","51","","0.0","","31","","20","","","","101.22","","","","","","NA"
"-55.33","47.14","WINTERLAND BRANCH HILL","8404242","2020-10-31 16:00","2020","10","31","16:00","1.9","","-7.2","","51","","0.0","","31","","18","","","","101.29","","","","","","NA"
"-55.33","47.14","WINTERLAND BRANCH HILL","8404242","2020-10-31 17:00","2020","10","31","17:00","1.9","","-7.2","","51","","0.0","","30","","21","","","","101.39","","","","","","NA"
"-55.33","47.14","WINTERLAND BRANCH HILL","8404242","2020-10-31 18:00","2020","10","31","18:00","1.3","","-6.7","","55","","0.0","","31","","19","","","","101.49","","","","","","NA"
"-55.33","47.14","WINTERLAND BRANCH HILL","8404242","2020-10-31 19:00","2020","10","31","19:00","1.0","","-5.8","","61","","0.0","","31","","22","","","","101.61","","","","","","NA"
"-55.33","47.14","WINTERLAND BRANCH HILL","8404242","2020-10-31 20:00","2020","10","31","20:00","0.8","","-5.6","","62","","0.0","","31","","26","","","","101.75","","","","","","NA"
"-55.33","47.14","WINTERLAND BRANCH HILL","8404242","2020-10-31 21:00","2020","10","31","21:00","0.3","","-6.1","","62","","0.0","","31","","21","","","","101.86","","","","","","NA"
"-55.33","47.14","WINTERLAND BRANCH HILL","8404242","2020-10-31 22:00","2020","10","31","22:00","1.0","","-5.8","","60","","0.0","","30","","21","","","","101.88","","","","","","NA"
"-55.33","47.14","WINTERLAND BRANCH HILL","8404242","2020-10-31 23:00","2020","10","31","23:00","2.4","","-4.4","","61","","0.0","","30","","30","","","","101.88","","","","","","NA"
