"Longitude (x)","Latitude (y)","Station Name","Climate ID","Date/Time (LST)","Year","Month","Day","Time (LST)","Temp (°C)","Temp Flag","Dew Point Temp (°C)","Dew Point Temp Flag","Rel Hum (%)","Rel Hum Flag","Precip. Amount (mm)","Precip. Amount Flag","Wind Dir (10s deg)","Wind Dir Flag","Wind Spd (km/h)","Wind Spd Flag","Visibility (km)","Visibility Flag","Stn Press (kPa)","Stn Press Flag","Hmdx","Hmdx Flag","Wind Chill","Wind Chill Flag","Weather"
"-96.00","64.32","BAKER LAKE CLIMATE","2300501","2023-01-01 00:00","2023","01","01","00:00","-19.8","","-22.3","","80","","0.1","","8","","8","","","","100.27","","","","-26","","NA"
"-96.00","64.32","BAKER LAKE CLIMATE","2300501","2023-01-01 01:00","2023","01","01","01:00","-19.8","","-22.3","","80","","0.0","","8","","10","","","","100.29","","","","-27","","NA"
"-96.00","64.32","BAKER LAKE CLIMATE","2300501","2023-01-01 02:00","2023","01","01","02:00","-20.5","","-23.1","","80","","0.2","","9","","9","","","","100.29","","","","-27","","NA"
"-96.00","64.32","BAKER LAKE CLIMATE","2300501","2023-01-01 03:00","2023","01","01","03:00","-20.4","","-22.9","","80","","0.1","","10","","9","","","","100.29","","","","-27","","NA"
"-96.00","64.32","BAKER LAKE CLIMATE","2300501","2023-01-01 04:00","2023","01","01","04:00","-19.9","","-22.4","","80","","0.0","","9","","8","","","","100.27","","","","-26","","NA"
"-96.00","64.32","BAKER LAKE CLIMATE","2300501","2023-01-01 05:00","2023","01","01","05:00","-19.6","","-22.1","","81","","0.0","","10","","6","","","","100.28","","","","-25","","NA"
"-96.00","64.32","BAKER LAKE CLIMATE","2300501","2023-01-01 06:00","2023","01","01","06:00","-20.0","","-22.5","","80","","0.0","","11","","6","","","","100.24","","","","-25","","NA"
"-96.00","64.32","BAKER LAKE CLIMATE","2300501","2023-01-01 07:00","2023","01","01","07:00","-20.2","","-22.7","","80","","0.0","","13","","5","","","","100.21","","","","-25","","NA"
"-96.00","64.32","BAKER LAKE CLIMATE","2300501","2023-01-01 08:00","2023","01","01","08:00","-20.8","","-23.4","","79","","0.0","","12","","6","","","","100.18","","","","-26","","NA"
"-96.00","64.32","BAKER LAKE CLIMATE","2300501","2023-01-01 09:00","2023","01","01","09:00","-21.2","","-23.8","","79","","0.1","","14","","3","","","","100.19","","","","-24","","NA"
"-96.00","64.32","BAKER LAKE CLIMATE","2300501","2023-01-01 10:00","2023","01","01","10:00","-21.3","","-24.0","","79","","0.1","","9","","7","","","","100.18","","","","-27","","NA"
"-96.00","64.32","BAKER LAKE CLIMATE","2300501","2023-01-01 11:00","2023","01","01","11:00","-21.4","","-24.1","","79","","0.1","","9","","9","","","","100.16","","","","-28","","NA"
"-96.00","64.32","BAKER LAKE CLIMATE","2300501","2023-01-01 12:00","2023","01","01","12:00","-20.8","","-23.3","","80","","0.0","","13","","7","","","","100.14","","","","-27","","NA"
"-96.00","64.32","BAKER LAKE CLIMATE","2300501","2023-01-01 13:00","2023","01","01","13:00","-21.5","","-24.2","","79","","0.0","","11","","6","","","","100.11","","","","-27","","NA"
"-96.00","64.32","BAKER LAKE CLIMATE","2300501","2023-01-01 14:00","2023","01","01","14:00","-21.4","","-24.0","","79","","0.1","","10","","5","","","","100.06","","","","-26","","NA"
"-96.00","64.32","BAKER LAKE CLIMATE","2300501","2023-01-01 15:00","2023","01","01","15:00","-20.9","","-23.6","","79","","0.0","","13","","1","","","","100.05","","","","-22","","NA"
"-96.00","64.32","BAKER LAKE CLIMATE","2300501","2023-01-01 16:00","2023","01","01","16:00","-21.8","","-24.5","","78","","0.1","","9","","6","","","","100.01","","","","-27","","NA"
"-96.00","64.32","BAKER LAKE CLIMATE","2300501","2023-01-01 17:00","2023","01","01","17:00","-21.7","","-24.4","","79","","0.1","","10","","7","","","","99.99","","","","-28","","NA"
"-96.00","64.32","BAKER LAKE CLIMATE","2300501","2023-01-01 18:00","2023","01","01","18:00","-20.5","","-23.1","","80","","0.0","","13","","3","","","","99.97","","","","-23","","NA"
"-96.00","64.32","BAKER LAKE CLIMATE","2300501","2023-01-01 19:00","2023","01","01","19:00","-20.4","","-23.0","","80","","0.0","","8","","6","","","","99.90","","","","-25","","NA"
"-96.00","64.32","BAKER LAKE CLIMATE","2300501","2023-01-01 20:00","2023","01","01","20:00","-20.3","","-22.9","","80","","0.1","","9","","6","","","","99.84","","","","-25","","NA"
"-96.00","64.32","BAKER LAKE CLIMATE","2300501","2023-01-01 21:00","2023","01","01","21:00","-20.2","","-22.7","","80","","0.3","","8","","5","","","","99.77","","","","-25","","NA"
"-96.00","64.32","BAKER LAKE CLIMATE","2300501","2023-01-01 22:00","2023","01","01","22:00","-20.3","","-22.9","","80","","0.2","","4","","4","","","","99.74","","","","-24","","NA"
"-96.00","64.32","BAKER LAKE CLIMATE","2300501","2023-01-01 23:00","2023","01","01","23:00","-19.9","","-22.5","","80","","0.1","","1","","9","","","","99.71","","","","-27","","NA"
"-96.00","64.32","BAKER LAKE CLIMATE","2300501","2023-01-02 00:00","2023","01","02","00:00","-19.7","","-22.2","","80","","0.1","","2","","9","","","","99.68","","","","-26","","NA"
"-96.00","64.32","BAKER LAKE CLIMATE","2300501","2023-01-02 01:00","2023","01","02","01:00","-19.8","","-22.3","","80","","0.0","","2","","11","","","","99.66","","","","-27","","NA"
"-96.00","64.32","BAKER LAKE CLIMATE","2300501","2023-01-02 02:00","2023","01","02","02:00","-20.0","","-22.6","","80","","0.0","","1","","12","","","","99.66","","","","-28","","NA"
"-96.00","64.32","BAKER LAKE CLIMATE","2300501","2023-01-02 03:00","2023","01","02","03:00","-20.0","","-22.5","","80","","0.0","","36","","21","","","","99.64","","","","-31","","NA"
"-96.00","64.32","BAKER LAKE CLIMATE","2300501","2023-01-02 04:00","2023","01","02","04:00","-20.7","","-23.4","","79","","0.0","","36","","27","","","","99.60","","","","-33","","NA"
"-96.00","64.32","BAKER LAKE CLIMATE","2300501","2023-01-02 05:00","2023","01","02","05:00","-22.0","","-24.7","","78","","0.0","","36","","32","","","","99.60","","","","-36","","NA"
"-96.00","64.32","BAKER LAKE CLIMATE","2300501","2023-01-02 06:00","2023","01","02","06:00","-21.1","","-23.7","","79","","0.0","","35","","36","","","","99.59","","","","-35","","NA"
"-96.00","64.32","BAKER LAKE CLIMATE","2300501","2023-01-02 07:00","2023","01","02","07:00","-21.4","","-24.1","","79","","0.0","","35","","43","","","","99.57","","","","-36","","NA"
"-96.00","64.32","BAKER LAKE CLIMATE","2300501","2023-01-02 08:00","2023","01","02","08:00","-21.9","","-24.7","","78","","0.0","","35","","42","","","","99.55","","","","-37","","NA"
"-96.00","64.32","BAKER LAKE CLIMATE","2300501","2023-01-02 09:00","2023","01","02","09:00","-22.4","","-25.2","","78","","0.0","","35","","48","","","","99.54","","","","-38","","NA"
"-96.00","64.32","BAKER LAKE CLIMATE","2300501","2023-01-02 10:00","2023","01","02","10:00","-23.5","","-26.5","","77","","0.0","","35","","46","","","","99.55","","","","-40","","NA"
"-96.00","64.32","BAKER LAKE CLIMATE","2300501","2023-01-02 11:00","2023","01","02","11:00","-23.8","","-26.8","","77","","0.0","","34","","47","","","","99.62","","","","-40","","NA"
"-96.00","64.32","BAKER LAKE CLIMATE","2300501","2023-01-02 12:00","2023","01","02","12:00","-24.5","","-27.5","","76","","0.0","","34","","43","","","","99.66","","","","-41","","NA"
"-96.00","64.32","BAKER LAKE CLIMATE","2300501","2023-01-02 13:00","2023","01","02","13:00","-25.4","","-28.5","","75","","0.0","","35","","48","","","","99.65","","","","-42","","NA"
"-96.00","64.32","BAKER LAKE CLIMATE","2300501","2023-01-02 14:00","2023","01","02","14:00","-26.4","","-29.7","","74","","0.0","","34","","51","","","","99.71","","","","-44","","NA"
"-96.00","64.32","BAKER LAKE CLIMATE","2300501","2023-01-02 15:00","2023","01","02","15:00","-26.9","","-30.2","","74","","0.0","","35","","48","","","","99.77","","","","-45","","NA"
"-96.00","64.32","BAKER LAKE CLIMATE","2300501","2023-01-02 16:00","2023","01","02","16:00","-26.4","","-29.6","","74","","0.0","","35","","54","","","","99.80","","","","-45","","NA"
"-96.00","64.32","BAKER LAKE CLIMATE","2300501","2023-01-02 17:00","2023","01","02","17:00","-27.8","","-31.2","","73","","0.0","","36","","54","","","","99.93","","","","-47","","NA"
"-96.00","64.32","BAKER LAKE CLIMATE","2300501","2023-01-02 18:00","2023","01","02","18:00","-29.0","","-32.5","","72","","0.0","","34","","48","","","","100.01","","","","-47","","NA"
"-96.00","64.32","BAKER LAKE CLIMATE","2300501","2023-01-02 19:00","2023","01","02","19:00","-29.6","","-33.2","","71","","0.0","","34","","43","","","","100.09","","","","-47","","NA"
"-96.00","64.32","BAKER LAKE CLIMATE","2300501","2023-01-02 20:00","2023","01","02","20:00","-30.5","","-34.2","","70","","0.0","","35","","48","","","","100.07","","","","-49","","NA"
"-96.00","64.32","BAKER LAKE CLIMATE","2300501","2023-01-02 21:00","2023","01","02","21:00","-30.8","","-34.5","","70","","0.0","","36","","45","","","","100.17","","","","-49","","NA"
"-96.00","64.32","BAKER LAKE CLIMATE","2300501","2023-01-02 22:00","2023","01","02","22:00","-31.5","","-35.3","","69","","0.0","","33","","22","","","","100.29","","","","-46","","NA"
"-96.00","64.32","BAKER LAKE CLIMATE","2300501","2023-01-02 23:00","2023","01","02","23:00","-31.3","","-35.0","","69","","0.0","","34","","40","","","","100.31","","","","-49","","NA"
"-96.00","64.32","BAKER LAKE CLIMATE","2300501","2023-01-03 00:00","2023","01","03","00:00","-31.6","","-35.4","","69","","0.0","","35","","39","","","","100.35","","","","-49","","NA"
"-96.00","64.32","BAKER LAKE CLIMATE","2300501","2023-01-03 01:00","2023","01","03","01:00","-31.4","","-35.2","","69","","0.0","","34","","29","","","","100.48","","","","-47","","NA"
"-96.00","64.32","BAKER LAKE CLIMATE","2300501","2023-01-03 02:00","2023","01","03","02:00","-32.1","","-36.0","","68","","","M","34","","25","","","","100.59","","","","-47","","NA"
"-96.00","64.32","BAKER LAKE CLIMATE","2300501","2023-01-03 03:00","2023","01","03","03:00","-33.3","","-37.3","","67","","","M","34","","39","","","","100.48","","","","-52","","NA"
"-96.00","64.32","BAKER LAKE CLIMATE","2300501","2023-01-03 04:00","2023","01","03","04:00","-33.7","","-37.8","","67","","","M","32","","25","","","","100.60","","","","-49","","NA"
"-96.00","64.32","BAKER LAKE CLIMATE","2300501","2023-01-03 05:00","2023","01","03","05:00","-34.5","","-38.6","","66","","","M","35","","36","","","","100.64","","","","-53","","NA"
"-96.00","64.32","BAKER LAKE CLIMATE","2300501","2023-01-03 06:00","2023","01","03","06:00","-35.2","","-39.4","","65","","","M","35","","28","","","","100.66","","","","-52","","NA"
"-96.00","64.32","BAKER LAKE CLIMATE","2300501","2023-01-03 07:00","2023","01","03","07:00","-35.2","","-39.4","","65","","","M","34","","34","","","","100.70","","","","-53","","NA"
"-96.00","64.32","BAKER LAKE CLIMATE","2300501","2023-01-03 08:00","2023","01","03","08:00","-35.2","","-39.5","","65","","","M","33","","30","","","","100.69","","","","-52","","NA"
"-96.00","64.32","BAKER LAKE CLIMATE","2300501","2023-01-03 09:00","2023","01","03","09:00","-35.1","","-39.3","","65","","","M","34","","30","","","","100.70","","","","-52","","NA"
"-96.00","64.32","BAKER LAKE CLIMATE","2300501","2023-01-03 10:00","2023","01","03","10:00","-35.5","","-39.8","","65","","","M","34","","36","","","","100.76","","","","-54","","NA"
"-96.00","64.32","BAKER LAKE CLIMATE","2300501","2023-01-03 11:00","2023","01","03","11:00","-35.6","","-39.8","","65","","","M","29","","9","","","","100.93","","","","-45","","NA"
"-96.00","64.32","BAKER LAKE CLIMATE","2300501","2023-01-03 12:00","2023","01","03","12:00","-34.7","","-38.8","","66","","","M","34","","22","","","","100.96","","","","-50","","NA"
"-96.00","64.32","BAKER LAKE CLIMATE","2300501","2023-01-03 13:00","2023","01","03","13:00","-34.7","","-38.9","","66","","","M","32","","18","","","","100.99","","","","-48","","NA"
"-96.00","64.32","BAKER LAKE CLIMATE","2300501","2023-01-03 14:00","2023","01","03","14:00","-34.8","","-39.0","","66","","","M","36","","35","","","","101.00","","","","-53","","NA"
"-96.00","64.32","BAKER LAKE CLIMATE","2300501","2023-01-03 15:00","2023","01","03","15:00","-34.6","","-38.8","","66","","","M","35","","37","","","","101.00","","","","-53","","NA"
"-96.00","64.32","BAKER LAKE CLIMATE","2300501","2023-01-03 16:00","2023","01","03","16:00","-35.0","","-39.3","","65","","","M","32","","18","","","","101.17","","","","-49","","NA"
"-96.00","64.32","BAKER LAKE CLIMATE","2300501","2023-01-03 17:00","2023","01","03","17:00","-35.0","","-39.2","","65","","","M","33","","16","","","","101.18","","","","-48","","NA"
"-96.00","64.32","BAKER LAKE CLIMATE","2300501","2023-01-03 18:00","2023","01","03","18:00","-34.4","","-38.6","","66","","","M","31","","15","","","","101.28","","","","-47","","NA"
"-96.00","64.32","BAKER LAKE CLIMATE","2300501","2023-01-03 19:00","2023","01","03","19:00","-36.0","","-40.4","","64","","","M","34","","23","","","","101.29","","","","-52","","NA"
"-96.00","64.32","BAKER LAKE CLIMATE","2300501","2023-01-03 20:00","2023","01","03","20:00","-35.7","","-40.0","","65","","","M","32","","13","","","","101.34","","","","-48","","NA"
"-96.00","64.32","BAKER LAKE CLIMATE","2300501","2023-01-03 21:00","2023","01","03","21:00","-36.0","","-40.3","","64","","","M","34","","24","","","","101.29","","","","-52","","NA"
"-96.00","64.32","BAKER LAKE CLIMATE","2300501","2023-01-03 22:00","2023","01","03","22:00","-34.9","","-39.0","","66","","","M","1","","21","","","","101.33","","","","-50","","NA"
"-96.00","64.32","BAKER LAKE CLIMATE","2300501","2023-01-03 23:00","2023","01","03","23:00","-35.3","","-39.5","","65","","","M","34","","12","","","","101.38","","","","-47","","NA"
"-96.00","64.32","BAKER LAKE CLIMATE","2300501","2023-01-04 00:00","2023","01","04","00:00","-34.6","","-38.8","","66","","","M","36","","12","","","","101.44","","","","-46","","NA"
"-96.00","64.32","BAKER LAKE CLIMATE","2300501","2023-01-04 01:00","2023","01","04","01:00","-35.2","","-39.4","","65","","","M","36","","16","","","","101.41","","","","-48","","NA"
"-96.00","64.32","BAKER LAKE CLIMATE","2300501","2023-01-04 02:00","2023","01","04","02:00","-34.2","","-38.3","","66","","","M","3","","17","","","","101.43","","","","-47","","NA"
"-96.00","64.32","BAKER LAKE CLIMATE","2300501","2023-01-04 03:00","2023","01","04","03:00","-35.5","","-39.7","","65","","","M","1","","7","","","","101.43","","","","-44","","NA"
"-96.00","64.32","BAKER LAKE CLIMATE","2300501","2023-01-04 04:00","2023","01","04","04:00","-35.0","","-39.2","","65","","","M","2","","12","","","","101.41","","","","-46","","NA"
"-96.00","64.32","BAKER LAKE CLIMATE","2300501","2023-01-04 05:00","2023","01","04","05:00","-34.5","","-38.7","","66","","","M","8","","6","","","","101.39","","","","-42","","NA"
"-96.00","64.32","BAKER LAKE CLIMATE","2300501","2023-01-04 06:00","2023","01","04","06:00","-34.6","","-38.8","","66","","","M","9","","7","","","","101.33","","","","-43","","NA"
"-96.00","64.32","BAKER LAKE CLIMATE","2300501","2023-01-04 07:00","2023","01","04","07:00","-34.5","","-38.7","","66","","","M","22","","2","","","","101.33","","","","-37","","NA"
"-96.00","64.32","BAKER LAKE CLIMATE","2300501","2023-01-04 08:00","2023","01","04","08:00","-34.6","","-38.8","","66","","","M","21","","1","","","","101.32","","","","-36","","NA"
"-96.00","64.32","BAKER LAKE CLIMATE","2300501","2023-01-04 09:00","2023","01","04","09:00","-35.8","","-40.1","","65","","","M","7","","4","","","","101.28","","","","-41","","NA"
"-96.00","64.32","BAKER LAKE CLIMATE","2300501","2023-01-04 10:00","2023","01","04","10:00","-35.2","","-39.4","","65","","","M","6","","6","","","","101.22","","","","-42","","NA"
"-96.00","64.32","BAKER LAKE CLIMATE","2300501","2023-01-04 11:00","2023","01","04","11:00","-35.1","","-39.3","","65","","","M","9","","10","","","","101.21","","","","-45","","NA"
"-96.00","64.32","BAKER LAKE CLIMATE","2300501","2023-01-04 12:00","2023","01","04","12:00","-34.6","","-38.7","","66","","","M","14","","5","","","","101.19","","","","-41","","NA"
"-96.00","64.32","BAKER LAKE CLIMATE","2300501","2023-01-04 13:00","2023","01","04","13:00","-35.0","","-39.2","","65","","","M","9","","14","","","","101.15","","","","-47","","NA"
"-96.00","64.32","BAKER LAKE CLIMATE","2300501","2023-01-04 14:00","2023","01","04","14:00","-34.2","","-38.3","","66","","","M","9","","15","","","","101.12","","","","-47","","NA"
"-96.00","64.32","BAKER LAKE CLIMATE","2300501","2023-01-04 15:00","2023","01","04","15:00","-33.8","","-37.9","","67","","","M","10","","9","","","","101.10","","","","-43","","NA"
"-96.00","64.32","BAKER LAKE CLIMATE","2300501","2023-01-04 16:00","2023","01","04","16:00","-34.0","","-38.1","","66","","","M","7","","7","","","","101.13","","","","-42","","NA"
"-96.00","64.32","BAKER LAKE CLIMATE","2300501","2023-01-04 17:00","2023","01","04","17:00","-33.9","","-37.9","","67","","","M","6","","9","","","","101.13","","","","-43","","NA"
"-96.00","64.32","BAKER LAKE CLIMATE","2300501","2023-01-04 18:00","2023","01","04","18:00","-34.1","","-38.3","","66","","","M","6","","12","","","","101.12","","","","-45","","NA"
"-96.00","64.32","BAKER LAKE CLIMATE","2300501","2023-01-04 19:00","2023","01","04","19:00","-33.4","","-37.5","","67","","","M","9","","9","","","","101.12","","","","-43","","NA"
"-96.00","64.32","BAKER LAKE CLIMATE","2300501","2023-01-04 20:00","2023","01","04","20:00","-33.3","","-37.3","","67","","","M","9","","10","","","","101.11","","","","-43","","NA"
"-96.00","64.32","BAKER LAKE CLIMATE","2300501","2023-01-04 21:00","2023","01","04","21:00","-32.8","","-36.8","","68","","","M","10","","8","","","","101.04","","","","-41","","NA"
"-96.00","64.32","BAKER LAKE CLIMATE","2300501","2023-01-04 22:00","2023","01","04","22:00","-31.9","","-35.7","","69","","","M","7","","4","","","","101.05","","","","-37","","NA"
"-96.00","64.32","BAKER LAKE CLIMATE","2300501","2023-01-04 23:00","2023","01","04","23:00","-31.0","","-34.8","","69","","","M","12","","6","","","","101.08","","","","-38","","NA"
"-96.00","64.32","BAKER LAKE CLIMATE","2300501","2023-01-05 00:00","2023","01","05","00:00","-30.6","","-34.3","","70","","","M","6","","5","","","","101.10","","","","-36","","NA"
"-96.00","64.32","BAKER LAKE CLIMATE","2300501","2023-01-05 01:00","2023","01","05","01:00","-30.6","","-34.3","","70","","","M","5","","9","","","","101.09","","","","-39","","NA"
"-96.00","64.32","BAKER LAKE CLIMATE","2300501","2023-01-05 02:00","2023","01","05","02:00","-31.1","","-34.9","","69","","","M","8","","8","","","","101.12","","","","-39","","NA"
"-96.00","64.32","BAKER LAKE CLIMATE","2300501","2023-01-05 03:00","2023","01","05","03:00","-31.9","","-35.8","","69","","","M","7","","4","","","","101.16","","","","-37","","NA"
"-96.00","64.32","BAKER LAKE CLIMATE","2300501","2023-01-05 04:00","2023","01","05","04:00","-30.8","","-34.6","","70","","","M","13","","6","","","","101.16","","","","-37","","NA"
"-96.00","64.32","BAKER LAKE CLIMATE","2300501","2023-01-05 05:00","2023","01","05","05:00","-30.2","","-33.8","","70","","","M","13","","2","","","","101.20","","","","-32","","NA"
"-96.00","64.32","BAKER LAKE CLIMATE","2300501","2023-01-05 06:00","2023","01","05","06:00","-29.7","","-33.3","","71","","","M","6","","1","","","","101.18","","","","-31","","NA"
"-96.00","64.32","BAKER LAKE CLIMATE","2300501","2023-01-05 07:00","2023","01","05","07:00","-29.3","","-32.8","","71","","","M","18","","5","","","","101.21","","","","-35","","NA"
"-96.00","64.32","BAKER LAKE CLIMATE","2300501","2023-01-05 08:00","2023","01","05","08:00","-28.8","","-32.4","","72","","","M","17","","5","","","","101.18","","","","-34","","NA"
"-96.00","64.32","BAKER LAKE CLIMATE","2300501","2023-01-05 09:00","2023","01","05","09:00","-28.4","","-31.9","","72","","","M","18","","5","","","","101.17","","","","-34","","NA"
"-96.00","64.32","BAKER LAKE CLIMATE","2300501","2023-01-05 10:00","2023","01","05","10:00","-27.9","","-31.3","","73","","","M","15","","7","","","","101.16","","","","-35","","NA"
"-96.00","64.32","BAKER LAKE CLIMATE","2300501","2023-01-05 11:00","2023","01","05","11:00","-27.4","","-30.7","","73","","","M","17","","7","","","","101.22","","","","-34","","NA"
"-96.00","64.32","BAKER LAKE CLIMATE","2300501","2023-01-05 12:00","2023","01","05","12:00","-26.8","","-30.1","","74","","","M","17","","7","","","","101.20","","","","-34","","NA"
"-96.00","64.32","BAKER LAKE CLIMATE","2300501","2023-01-05 13:00","2023","01","05","13:00","-26.1","","-29.4","","74","","","M","15","","7","","","","101.21","","","","-33","","NA"
"-96.00","64.32","BAKER LAKE CLIMATE","2300501","2023-01-05 14:00","2023","01","05","14:00","-25.5","","-28.7","","75","","","M","16","","7","","","","101.18","","","","-32","","NA"
"-96.00","64.32","BAKER LAKE CLIMATE","2300501","2023-01-05 15:00","2023","01","05","15:00","-25.0","","-28.1","","75","","","M","14","","8","","","","101.20","","","","-32","","NA"
"-96.00","64.32","BAKER LAKE CLIMATE","2300501","2023-01-05 16:00","2023","01","05","16:00","-24.6","","-27.7","","76","","","M","14","","10","","","","101.21","","","","-33","","NA"
"-96.00","64.32","BAKER LAKE CLIMATE","2300501","2023-01-05 17:00","2023","01","05","17:00","-24.5","","-27.6","","76","","","M","13","","14","","","","101.19","","","","-34","","NA"
"-96.00","64.32","BAKER LAKE CLIMATE","2300501","2023-01-05 18:00","2023","01","05","18:00","-24.3","","-27.3","","76","","","M","12","","12","","","","101.19","","","","-33","","NA"
"-96.00","64.32","BAKER LAKE CLIMATE","2300501","2023-01-05 19:00","2023","01","05","19:00","-24.2","","-27.2","","76","","","M","12","","14","","","","101.15","","","","-34","","NA"
"-96.00","64.32","BAKER LAKE CLIMATE","2300501","2023-01-05 20:00","2023","01","05","20:00","-23.9","","-26.9","","76","","","M","13","","18","","","","101.14","","","","-35","","NA"
"-96.00","64.32","BAKER LAKE CLIMATE","2300501","2023-01-05 21:00","2023","01","05","21:00","-22.9","","-25.8","","77","","","M","12","","16","","","","101.12","","","","-33","","NA"
"-96.00","64.32","BAKER LAKE CLIMATE","2300501","2023-01-05 22:00","2023","01","05","22:00","-22.6","","-25.5","","78","","","M","12","","17","","","","101.09","","","","-33","","NA"
"-96.00","64.32","BAKER LAKE CLIMATE","2300501","2023-01-05 23:00","2023","01","05","23:00","-22.3","","-25.1","","78","","","M","11","","15","","","","101.08","","","","-32","","NA"
"-96.00","64.32","BAKER LAKE CLIMATE","2300501","2023-01-06 00:00","2023","01","06","00:00","-21.5","","-24.2","","79","","","M","12","","18","","","","101.07","","","","-32","","NA"
"-96.00","64.32","BAKER LAKE CLIMATE","2300501","2023-01-06 01:00","2023","01","06","01:00","-21.2","","-23.9","","79","","","M","11","","20","","","","101.03","","","","-32","","NA"
"-96.00","64.32","BAKER LAKE CLIMATE","2300501","2023-01-06 02:00","2023","01","06","02:00","-21.1","","-23.8","","79","","","M","11","","20","","","","101.02","","","","-32","","NA"
"-96.00","64.32","BAKER LAKE CLIMATE","2300501","2023-01-06 03:00","2023","01","06","03:00","-20.6","","-23.2","","79","","","M","11","","20","","","","101.06","","","","-31","","NA"
"-96.00","64.32","BAKER LAKE CLIMATE","2300501","2023-01-06 04:00","2023","01","06","04:00","-20.4","","-23.0","","80","","","M","11","","23","","","","101.03","","","","-32","","NA"
"-96.00","64.32","BAKER LAKE CLIMATE","2300501","2023-01-06 05:00","2023","01","06","05:00","-20.1","","-22.7","","80","","","M","11","","22","","","","101.07","","","","-31","","NA"
"-96.00","64.32","BAKER LAKE CLIMATE","2300501","2023-01-06 06:00","2023","01","06","06:00","-20.3","","-22.9","","80","","","M","11","","25","","","","101.07","","","","-32","","NA"
"-96.00","64.32","BAKER LAKE CLIMATE","2300501","2023-01-06 07:00","2023","01","06","07:00","-20.5","","-23.1","","80","","","M","11","","27","","","","101.09","","","","-33","","NA"
"-96.00","64.32","BAKER LAKE CLIMATE","2300501","2023-01-06 08:00","2023","01","06","08:00","-20.6","","-23.2","","80","","","M","11","","27","","","","101.10","","","","-33","","NA"
"-96.00","64.32","BAKER LAKE CLIMATE","2300501","2023-01-06 09:00","2023","01","06","09:00","-22.0","","-24.8","","78","","","M","10","","26","","","","101.12","","","","-34","","NA"
"-96.00","64.32","BAKER LAKE CLIMATE","2300501","2023-01-06 10:00","2023","01","06","10:00","-23.2","","-26.1","","77","","","M","9","","23","","","","101.14","","","","-35","","NA"
"-96.00","64.32","BAKER LAKE CLIMATE","2300501","2023-01-06 11:00","2023","01","06","11:00","-23.9","","-26.9","","77","","","M","9","","28","","","","101.18","","","","-37","","NA"
"-96.00","64.32","BAKER LAKE CLIMATE","2300501","2023-01-06 12:00","2023","01","06","12:00","-24.3","","-27.3","","76","","","M","9","","29","","","","101.16","","","","-38","","NA"
"-96.00","64.32","BAKER LAKE CLIMATE","2300501","2023-01-06 13:00","2023","01","06","13:00","-24.6","","-27.6","","76","","","M","9","","26","","","","101.21","","","","-38","","NA"
"-96.00","64.32","BAKER LAKE CLIMATE","2300501","2023-01-06 14:00","2023","01","06","14:00","-24.8","","-27.8","","76","","","M","9","","24","","","","101.23","","","","-38","","NA"
"-96.00","64.32","BAKER LAKE CLIMATE","2300501","2023-01-06 15:00","2023","01","06","15:00","-23.4","","-26.3","","77","","","M","10","","29","","","","101.24","","","","-37","","NA"
"-96.00","64.32","BAKER LAKE CLIMATE","2300501","2023-01-06 16:00","2023","01","06","16:00","-24.1","","-27.1","","76","","","M","8","","24","","","","101.27","","","","-37","","NA"
"-96.00","64.32","BAKER LAKE CLIMATE","2300501","2023-01-06 17:00","2023","01","06","17:00","-24.3","","-27.3","","76","","","M","9","","32","","","","101.27","","","","-39","","NA"
"-96.00","64.32","BAKER LAKE CLIMATE","2300501","2023-01-06 18:00","2023","01","06","18:00","-24.3","","-27.4","","76","","","M","9","","30","","","","101.30","","","","-38","","NA"
"-96.00","64.32","BAKER LAKE CLIMATE","2300501","2023-01-06 19:00","2023","01","06","19:00","-24.5","","-27.5","","76","","","M","9","","31","","","","101.29","","","","-39","","NA"
"-96.00","64.32","BAKER LAKE CLIMATE","2300501","2023-01-06 20:00","2023","01","06","20:00","-24.5","","-27.5","","76","","","M","9","","33","","","","101.25","","","","-39","","NA"
"-96.00","64.32","BAKER LAKE CLIMATE","2300501","2023-01-06 21:00","2023","01","06","21:00","-24.5","","-27.5","","76","","","M","9","","29","","","","101.25","","","","-38","","NA"
"-96.00","64.32","BAKER LAKE CLIMATE","2300501","2023-01-06 22:00","2023","01","06","22:00","-24.5","","-27.5","","76","","","M","9","","34","","","","101.22","","","","-39","","NA"
"-96.00","64.32","BAKER LAKE CLIMATE","2300501","2023-01-06 23:00","2023","01","06","23:00","-24.3","","-27.3","","76","","","M","9","","32","","","","101.22","","","","-39","","NA"
"-96.00","64.32","BAKER LAKE CLIMATE","2300501","2023-01-07 00:00","2023","01","07","00:00","-24.0","","-27.0","","76","","","M","9","","30","","","","101.23","","","","-38","","NA"
"-96.00","64.32","BAKER LAKE CLIMATE","2300501","2023-01-07 01:00","2023","01","07","01:00","-23.8","","-26.7","","77","","","M","9","","33","","","","101.18","","","","-38","","NA"
"-96.00","64.32","BAKER LAKE CLIMATE","2300501","2023-01-07 02:00","2023","01","07","02:00","-23.3","","-26.2","","77","","","M","9","","33","","","","101.17","","","","-37","","NA"
"-96.00","64.32","BAKER LAKE CLIMATE","2300501","2023-01-07 03:00","2023","01","07","03:00","-22.9","","-25.8","","77","","","M","9","","33","","","","101.15","","","","-37","","NA"
"-96.00","64.32","BAKER LAKE CLIMATE","2300501","2023-01-07 04:00","2023","01","07","04:00","-22.5","","-25.3","","78","","","M","10","","33","","","","101.14","","","","-36","","NA"
"-96.00","64.32","BAKER LAKE CLIMATE","2300501","2023-01-07 05:00","2023","01","07","05:00","-22.3","","-25.1","","78","","","M","10","","37","","","","101.14","","","","-37","","NA"
"-96.00","64.32","BAKER LAKE CLIMATE","2300501","2023-01-07 06:00","2023","01","07","06:00","-21.9","","-24.7","","78","","","M","10","","31","","","","101.18","","","","-35","","NA"
"-96.00","64.32","BAKER LAKE CLIMATE","2300501","2023-01-07 07:00","2023","01","07","07:00","-21.8","","-24.5","","78","","","M","10","","30","","","","101.19","","","","-35","","NA"
"-96.00","64.32","BAKER LAKE CLIMATE","2300501","2023-01-07 08:00","2023","01","07","08:00","-21.2","","-23.9","","79","","","M","10","","25","","","","101.20","","","","-33","","NA"
"-96.00","64.32","BAKER LAKE CLIMATE","2300501","2023-01-07 09:00","2023","01","07","09:00","-20.9","","-23.6","","79","","","M","9","","24","","","","101.20","","","","-33","","NA"
"-96.00","64.32","BAKER LAKE CLIMATE","2300501","2023-01-07 10:00","2023","01","07","10:00","-20.7","","-23.4","","79","","","M","9","","22","","","","101.23","","","","-32","","NA"
"-96.00","64.32","BAKER LAKE CLIMATE","2300501","2023-01-07 11:00","2023","01","07","11:00","-21.0","","-23.6","","79","","","M","9","","24","","","","101.24","","","","-33","","NA"
"-96.00","64.32","BAKER LAKE CLIMATE","2300501","2023-01-07 12:00","2023","01","07","12:00","-21.0","","-23.7","","79","","","M","9","","26","","","","101.23","","","","-33","","NA"
"-96.00","64.32","BAKER LAKE CLIMATE","2300501","2023-01-07 13:00","2023","01","07","13:00","-20.6","","-23.2","","79","","","M","10","","22","","","","101.25","","","","-32","","NA"
"-96.00","64.32","BAKER LAKE CLIMATE","2300501","2023-01-07 14:00","2023","01","07","14:00","-20.6","","-23.2","","79","","","M","9","","25","","","","101.26","","","","-32","","NA"
"-96.00","64.32","BAKER LAKE CLIMATE","2300501","2023-01-07 15:00","2023","01","07","15:00","-20.7","","-23.4","","79","","","M","10","","20","","","","101.29","","","","-31","","NA"
"-96.00","64.32","BAKER LAKE CLIMATE","2300501","2023-01-07 16:00","2023","01","07","16:00","-20.9","","-23.6","","79","","","M","11","","20","","","","101.34","","","","-32","","NA"
"-96.00","64.32","BAKER LAKE CLIMATE","2300501","2023-01-07 17:00","2023","01","07","17:00","-21.2","","-23.9","","79","","","M","11","","19","","","","101.39","","","","-32","","NA"
"-96.00","64.32","BAKER LAKE CLIMATE","2300501","2023-01-07 18:00","2023","01","07","18:00","-21.4","","-24.1","","79","","","M","11","","23","","","","101.41","","","","-33","","NA"
"-96.00","64.32","BAKER LAKE CLIMATE","2300501","2023-01-07 19:00","2023","01","07","19:00","-21.6","","-24.3","","79","","","M","10","","19","","","","101.41","","","","-32","","NA"
"-96.00","64.32","BAKER LAKE CLIMATE","2300501","2023-01-07 20:00","2023","01","07","20:00","-22.0","","-24.7","","78","","","M","10","","21","","","","101.43","","","","-33","","NA"
"-96.00","64.32","BAKER LAKE CLIMATE","2300501","2023-01-07 21:00","2023","01","07","21:00","-22.4","","-25.2","","78","","","M","8","","17","","","","101.46","","","","-33","","NA"
"-96.00","64.32","BAKER LAKE CLIMATE","2300501","2023-01-07 22:00","2023","01","07","22:00","-23.8","","-26.8","","76","","","M","7","","13","","","","101.49","","","","-33","","NA"
"-96.00","64.32","BAKER LAKE CLIMATE","2300501","2023-01-07 23:00","2023","01","07","23:00","-24.0","","-27.0","","76","","","M","7","","19","","","","101.49","","","","-35","","NA"
"-96.00","64.32","BAKER LAKE CLIMATE","2300501","2023-01-08 00:00","2023","01","08","00:00","-24.7","","-27.7","","76","","","M","9","","16","","","","101.44","","","","-35","","NA"
"-96.00","64.32","BAKER LAKE CLIMATE","2300501","2023-01-08 01:00","2023","01","08","01:00","-24.4","","-27.4","","76","","","M","7","","11","","","","101.46","","","","-33","","NA"
"-96.00","64.32","BAKER LAKE CLIMATE","2300501","2023-01-08 02:00","2023","01","08","02:00","-25.6","","-28.7","","75","","","M","8","","12","","","","101.46","","","","-35","","NA"
"-96.00","64.32","BAKER LAKE CLIMATE","2300501","2023-01-08 03:00","2023","01","08","03:00","-26.4","","-29.6","","74","","","M","6","","17","","","","101.45","","","","-38","","NA"
"-96.00","64.32","BAKER LAKE CLIMATE","2300501","2023-01-08 04:00","2023","01","08","04:00","-25.9","","-29.1","","74","","","M","9","","15","","","","101.45","","","","-36","","NA"
"-96.00","64.32","BAKER LAKE CLIMATE","2300501","2023-01-08 05:00","2023","01","08","05:00","-25.3","","-28.4","","75","","","M","6","","13","","","","101.49","","","","-35","","NA"
"-96.00","64.32","BAKER LAKE CLIMATE","2300501","2023-01-08 06:00","2023","01","08","06:00","-25.0","","-28.1","","75","","","M","7","","12","","","","101.48","","","","-34","","NA"
"-96.00","64.32","BAKER LAKE CLIMATE","2300501","2023-01-08 07:00","2023","01","08","07:00","-24.4","","-27.4","","76","","","M","9","","9","","","","101.48","","","","-32","","NA"
"-96.00","64.32","BAKER LAKE CLIMATE","2300501","2023-01-08 08:00","2023","01","08","08:00","-24.0","","-27.0","","76","","","M","9","","11","","","","101.47","","","","-32","","NA"
"-96.00","64.32","BAKER LAKE CLIMATE","2300501","2023-01-08 09:00","2023","01","08","09:00","-23.7","","-26.6","","77","","","M","12","","12","","","","101.44","","","","-33","","NA"
"-96.00","64.32","BAKER LAKE CLIMATE","2300501","2023-01-08 10:00","2023","01","08","10:00","-23.6","","-26.5","","77","","","M","11","","12","","","","101.43","","","","-32","","NA"
"-96.00","64.32","BAKER LAKE CLIMATE","2300501","2023-01-08 11:00","2023","01","08","11:00","-23.3","","-26.2","","77","","","M","12","","14","","","","101.43","","","","-33","","NA"
"-96.00","64.32","BAKER LAKE CLIMATE","2300501","2023-01-08 12:00","2023","01","08","12:00","-23.3","","-26.2","","77","","","M","11","","14","","","","101.41","","","","-33","","NA"
"-96.00","64.32","BAKER LAKE CLIMATE","2300501","2023-01-08 13:00","2023","01","08","13:00","-23.0","","-25.9","","77","","","M","13","","13","","","","101.38","","","","-32","","NA"
"-96.00","64.32","BAKER LAKE CLIMATE","2300501","2023-01-08 14:00","2023","01","08","14:00","-22.9","","-25.7","","77","","","M","11","","12","","","","101.40","","","","-32","","NA"
"-96.00","64.32","BAKER LAKE CLIMATE","2300501","2023-01-08 15:00","2023","01","08","15:00","-22.7","","-25.6","","78","","","M","12","","13","","","","101.43","","","","-32","","NA"
"-96.00","64.32","BAKER LAKE CLIMATE","2300501","2023-01-08 16:00","2023","01","08","16:00","-22.5","","-25.4","","78","","","M","11","","14","","","","101.45","","","","-32","","NA"
"-96.00","64.32","BAKER LAKE CLIMATE","2300501","2023-01-08 17:00","2023","01","08","17:00","-22.2","","-25.0","","78","","","M","10","","15","","","","101.48","","","","-32","","NA"
"-96.00","64.32","BAKER LAKE CLIMATE","2300501","2023-01-08 18:00","2023","01","08","18:00","-22.2","","-25.0","","78","","","M","9","","13","","","","101.49","","","","-31","","NA"
"-96.00","64.32","BAKER LAKE CLIMATE","2300501","2023-01-08 19:00","2023","01","08","19:00","-22.3","","-25.1","","78","","","M","10","","14","","","","101.51","","","","-32","","NA"
"-96.00","64.32","BAKER LAKE CLIMATE","2300501","2023-01-08 20:00","2023","01","08","20:00","-22.1","","-24.9","","78","","","M","10","","14","","","","101.52","","","","-31","","NA"
"-96.00","64.32","BAKER LAKE CLIMATE","2300501","2023-01-08 21:00","2023","01","08","21:00","-22.2","","-24.9","","78","","","M","9","","15","","","","101.53","","","","-32","","NA"
"-96.00","64.32","BAKER LAKE CLIMATE","2300501","2023-01-08 22:00","2023","01","08","22:00","-23.0","","-25.9","","77","","","M","9","","13","","","","101.53","","","","-32","","NA"
"-96.00","64.32","BAKER LAKE CLIMATE","2300501","2023-01-08 23:00","2023","01","08","23:00","-24.9","","-28.0","","75","","","M","7","","16","","","","101.56","","","","-35","","NA"
"-96.00","64.32","BAKER LAKE CLIMATE","2300501","2023-01-09 00:00","2023","01","09","00:00","-25.4","","-28.5","","75","","","M","7","","13","","","","101.61","","","","-35","","NA"
"-96.00","64.32","BAKER LAKE CLIMATE","2300501","2023-01-09 01:00","2023","01","09","01:00","-25.8","","-29.0","","75","","","M","7","","16","","","","101.62","","","","-37","","NA"
"-96.00","64.32","BAKER LAKE CLIMATE","2300501","2023-01-09 02:00","2023","01","09","02:00","-26.8","","-30.1","","74","","","M","6","","18","","","","101.66","","","","-38","","NA"
"-96.00","64.32","BAKER LAKE CLIMATE","2300501","2023-01-09 03:00","2023","01","09","03:00","-26.9","","-30.2","","74","","","M","5","","18","","","","101.71","","","","-39","","NA"
"-96.00","64.32","BAKER LAKE CLIMATE","2300501","2023-01-09 04:00","2023","01","09","04:00","-26.6","","-29.8","","74","","","M","7","","15","","","","101.74","","","","-37","","NA"
"-96.00","64.32","BAKER LAKE CLIMATE","2300501","2023-01-09 05:00","2023","01","09","05:00","-26.8","","-30.0","","74","","","M","8","","12","","","","101.75","","","","-36","","NA"
"-96.00","64.32","BAKER LAKE CLIMATE","2300501","2023-01-09 06:00","2023","01","09","06:00","-28.2","","-31.6","","72","","","M","5","","14","","","","101.76","","","","-39","","NA"
"-96.00","64.32","BAKER LAKE CLIMATE","2300501","2023-01-09 07:00","2023","01","09","07:00","-28.3","","-31.8","","72","","","M","5","","14","","","","101.79","","","","-39","","NA"
"-96.00","64.32","BAKER LAKE CLIMATE","2300501","2023-01-09 08:00","2023","01","09","08:00","-28.5","","-31.9","","72","","","M","6","","10","","","","101.80","","","","-37","","NA"
"-96.00","64.32","BAKER LAKE CLIMATE","2300501","2023-01-09 09:00","2023","01","09","09:00","-28.8","","-32.4","","72","","","M","5","","7","","","","101.82","","","","-36","","NA"
"-96.00","64.32","BAKER LAKE CLIMATE","2300501","2023-01-09 10:00","2023","01","09","10:00","-29.2","","-32.7","","71","","","M","6","","10","","","","101.83","","","","-38","","NA"
"-96.00","64.32","BAKER LAKE CLIMATE","2300501","2023-01-09 11:00","2023","01","09","11:00","-29.1","","-32.6","","72","","","M","4","","11","","","","101.87","","","","-39","","NA"
"-96.00","64.32","BAKER LAKE CLIMATE","2300501","2023-01-09 12:00","2023","01","09","12:00","-28.8","","-32.3","","72","","","M","6","","12","","","","101.85","","","","-39","","NA"
"-96.00","64.32","BAKER LAKE CLIMATE","2300501","2023-01-09 13:00","2023","01","09","13:00","-29.2","","-32.7","","71","","","M","5","","10","","","","101.86","","","","-38","","NA"
"-96.00","64.32","BAKER LAKE CLIMATE","2300501","2023-01-09 14:00","2023","01","09","14:00","-29.9","","-33.5","","71","","","M","6","","6","","","","101.88","","","","-36","","NA"
"-96.00","64.32","BAKER LAKE CLIMATE","2300501","2023-01-09 15:00","2023","01","09","15:00","-30.1","","-33.8","","70","","","M","7","","7","","","","101.91","","","","-37","","NA"
"-96.00","64.32","BAKER LAKE CLIMATE","2300501","2023-01-09 16:00","2023","01","09","16:00","-30.3","","-34.0","","70","","","M","7","","6","","","","101.91","","","","-37","","NA"
"-96.00","64.32","BAKER LAKE CLIMATE","2300501","2023-01-09 17:00","2023","01","09","17:00","-30.2","","-33.8","","70","","","M","7","","8","","","","101.90","","","","-38","","NA"
"-96.00","64.32","BAKER LAKE CLIMATE","2300501","2023-01-09 18:00","2023","01","09","18:00","-29.7","","-33.3","","71","","","M","8","","10","","","","101.88","","","","-39","","NA"
"-96.00","64.32","BAKER LAKE CLIMATE","2300501","2023-01-09 19:00","2023","01","09","19:00","-28.9","","-32.4","","71","","","M","9","","6","","","","101.88","","","","-35","","NA"
"-96.00","64.32","BAKER LAKE CLIMATE","2300501","2023-01-09 20:00","2023","01","09","20:00","-31.0","","-34.8","","69","","","M","7","","5","","","","101.87","","","","-37","","NA"
"-96.00","64.32","BAKER LAKE CLIMATE","2300501","2023-01-09 21:00","2023","01","09","21:00","-29.9","","-33.6","","71","","","M","9","","5","","","","101.87","","","","-36","","NA"
"-96.00","64.32","BAKER LAKE CLIMATE","2300501","2023-01-09 22:00","2023","01","09","22:00","-30.6","","-34.3","","70","","","M","8","","8","","","","101.86","","","","-39","","NA"
"-96.00","64.32","BAKER LAKE CLIMATE","2300501","2023-01-09 23:00","2023","01","09","23:00","-30.3","","-34.0","","70","","","M","8","","7","","","","101.82","","","","-38","","NA"
"-96.00","64.32","BAKER LAKE CLIMATE","2300501","2023-01-10 00:00","2023","01","10","00:00","-29.5","","-33.1","","71","","","M","10","","7","","","","101.82","","","","-37","","NA"
"-96.00","64.32","BAKER LAKE CLIMATE","2300501","2023-01-10 01:00","2023","01","10","01:00","-30.0","","-33.7","","70","","","M","11","","7","","","","101.81","","","","-37","","NA"
"-96.00","64.32","BAKER LAKE CLIMATE","2300501","2023-01-10 02:00","2023","01","10","02:00","-30.1","","-33.8","","70","","","M","11","","6","","","","101.82","","","","-37","","NA"
"-96.00","64.32","BAKER LAKE CLIMATE","2300501","2023-01-10 03:00","2023","01","10","03:00","-29.5","","-33.2","","71","","","M","10","","15","","","","101.79","","","","-41","","NA"
"-96.00","64.32","BAKER LAKE CLIMATE","2300501","2023-01-10 04:00","2023","01","10","04:00","-29.2","","-32.8","","71","","","M","9","","18","","","","101.73","","","","-41","","NA"
"-96.00","64.32","BAKER LAKE CLIMATE","2300501","2023-01-10 05:00","2023","01","10","05:00","-28.7","","-32.2","","72","","","M","9","","17","","","","101.70","","","","-41","","NA"
"-96.00","64.32","BAKER LAKE CLIMATE","2300501","2023-01-10 06:00","2023","01","10","06:00","-27.7","","-31.1","","73","","","M","9","","16","","","","101.66","","","","-39","","NA"
"-96.00","64.32","BAKER LAKE CLIMATE","2300501","2023-01-10 07:00","2023","01","10","07:00","-26.7","","-30.0","","74","","","M","10","","16","","","","101.58","","","","-38","","NA"
"-96.00","64.32","BAKER LAKE CLIMATE","2300501","2023-01-10 08:00","2023","01","10","08:00","-25.9","","-29.1","","74","","","M","12","","13","","","","101.54","","","","-36","","NA"
"-96.00","64.32","BAKER LAKE CLIMATE","2300501","2023-01-10 09:00","2023","01","10","09:00","-25.6","","-28.7","","75","","","M","11","","13","","","","101.46","","","","-35","","NA"
"-96.00","64.32","BAKER LAKE CLIMATE","2300501","2023-01-10 10:00","2023","01","10","10:00","-24.7","","-27.8","","76","","","M","12","","18","","","","101.43","","","","-36","","NA"
"-96.00","64.32","BAKER LAKE CLIMATE","2300501","2023-01-10 11:00","2023","01","10","11:00","-23.5","","-26.5","","77","","","M","12","","14","","","","101.38","","","","-33","","NA"
"-96.00","64.32","BAKER LAKE CLIMATE","2300501","2023-01-10 12:00","2023","01","10","12:00","-23.5","","-26.4","","77","","","M","11","","20","","","","101.28","","","","-35","","NA"
"-96.00","64.32","BAKER LAKE CLIMATE","2300501","2023-01-10 13:00","2023","01","10","13:00","-21.1","","-23.8","","79","","","M","13","","17","","","","101.21","","","","-31","","NA"
"-96.00","64.32","BAKER LAKE CLIMATE","2300501","2023-01-10 14:00","2023","01","10","14:00","-19.8","","-22.3","","80","","","M","14","","18","","","","101.12","","","","-30","","NA"
"-96.00","64.32","BAKER LAKE CLIMATE","2300501","2023-01-10 15:00","2023","01","10","15:00","-19.1","","-21.5","","81","","","M","14","","20","","","","101.06","","","","-29","","NA"
"-96.00","64.32","BAKER LAKE CLIMATE","2300501","2023-01-10 16:00","2023","01","10","16:00","-18.4","","-20.8","","81","","","M","14","","21","","","","100.97","","","","-29","","NA"
"-96.00","64.32","BAKER LAKE CLIMATE","2300501","2023-01-10 17:00","2023","01","10","17:00","-17.8","","-20.1","","82","","","M","15","","23","","","","100.89","","","","-28","","NA"
"-96.00","64.32","BAKER LAKE CLIMATE","2300501","2023-01-10 18:00","2023","01","10","18:00","-17.3","","-19.6","","82","","","M","16","","26","","","","100.81","","","","-28","","NA"
"-96.00","64.32","BAKER LAKE CLIMATE","2300501","2023-01-10 19:00","2023","01","10","19:00","-16.8","","-19.1","","83","","","M","16","","27","","","","100.71","","","","-28","","NA"
"-96.00","64.32","BAKER LAKE CLIMATE","2300501","2023-01-10 20:00","2023","01","10","20:00","-16.3","","-18.5","","83","","","M","17","","27","","","","100.63","","","","-27","","NA"
"-96.00","64.32","BAKER LAKE CLIMATE","2300501","2023-01-10 21:00","2023","01","10","21:00","-15.6","","-17.7","","84","","","M","17","","20","","","","100.54","","","","-25","","NA"
"-96.00","64.32","BAKER LAKE CLIMATE","2300501","2023-01-10 22:00","2023","01","10","22:00","-14.8","","-16.9","","84","","","M","18","","28","","","","100.41","","","","-25","","NA"
"-96.00","64.32","BAKER LAKE CLIMATE","2300501","2023-01-10 23:00","2023","01","10","23:00","-14.5","","-16.4","","85","","","M","18","","29","","","","100.34","","","","-25","","NA"
"-96.00","64.32","BAKER LAKE CLIMATE","2300501","2023-01-11 00:00","2023","01","11","00:00","-14.3","","-16.3","","85","","","M","19","","24","","","","100.28","","","","-24","","NA"
"-96.00","64.32","BAKER LAKE CLIMATE","2300501","2023-01-11 01:00","2023","01","11","01:00","-14.3","","-16.2","","85","","","M","21","","24","","","","100.18","","","","-24","","NA"
"-96.00","64.32","BAKER LAKE CLIMATE","2300501","2023-01-11 02:00","2023","01","11","02:00","-14.1","","-16.0","","85","","","M","22","","21","","","","100.11","","","","-23","","NA"
"-96.00","64.32","BAKER LAKE CLIMATE","2300501","2023-01-11 03:00","2023","01","11","03:00","-13.9","","-15.8","","85","","","M","24","","14","","","","100.07","","","","-21","","NA"
"-96.00","64.32","BAKER LAKE CLIMATE","2300501","2023-01-11 04:00","2023","01","11","04:00","-13.5","","-15.3","","86","","","M","28","","10","","","","100.08","","","","-19","","NA"
"-96.00","64.32","BAKER LAKE CLIMATE","2300501","2023-01-11 05:00","2023","01","11","05:00","-14.9","","-16.9","","85","","","M","31","","33","","","","100.08","","","","-26","","NA"
"-96.00","64.32","BAKER LAKE CLIMATE","2300501","2023-01-11 06:00","2023","01","11","06:00","-17.8","","-20.1","","82","","","M","34","","40","","","","100.19","","","","-31","","NA"
"-96.00","64.32","BAKER LAKE CLIMATE","2300501","2023-01-11 07:00","2023","01","11","07:00","-18.3","","-20.6","","82","","","M","33","","40","","","","100.24","","","","-32","","NA"
"-96.00","64.32","BAKER LAKE CLIMATE","2300501","2023-01-11 08:00","2023","01","11","08:00","-18.3","","-20.7","","82","","","M","32","","32","","","","100.31","","","","-31","","NA"
"-96.00","64.32","BAKER LAKE CLIMATE","2300501","2023-01-11 09:00","2023","01","11","09:00","-18.4","","-20.8","","82","","","M","31","","24","","","","100.40","","","","-29","","NA"
"-96.00","64.32","BAKER LAKE CLIMATE","2300501","2023-01-11 10:00","2023","01","11","10:00","-18.8","","-21.2","","81","","","M","31","","22","","","","100.48","","","","-29","","NA"
"-96.00","64.32","BAKER LAKE CLIMATE","2300501","2023-01-11 11:00","2023","01","11","11:00","-18.8","","-21.3","","81","","","M","31","","26","","","","100.51","","","","-30","","NA"
"-96.00","64.32","BAKER LAKE CLIMATE","2300501","2023-01-11 12:00","2023","01","11","12:00","-21.7","","-24.4","","79","","","M","32","","28","","","","100.56","","","","-34","","NA"
"-96.00","64.32","BAKER LAKE CLIMATE","2300501","2023-01-11 13:00","2023","01","11","13:00","-21.7","","-24.4","","79","","","M","32","","36","","","","100.64","","","","-36","","NA"
"-96.00","64.32","BAKER LAKE CLIMATE","2300501","2023-01-11 14:00","2023","01","11","14:00","-21.8","","-24.5","","79","","","M","32","","38","","","","100.69","","","","-36","","NA"
"-96.00","64.32","BAKER LAKE CLIMATE","2300501","2023-01-11 15:00","2023","01","11","15:00","-24.0","","-26.9","","77","","","M","33","","40","","","","100.79","","","","-39","","NA"
"-96.00","64.32","BAKER LAKE CLIMATE","2300501","2023-01-11 16:00","2023","01","11","16:00","-26.2","","-29.3","","75","","","M","33","","31","","","","100.99","","","","-41","","NA"
"-96.00","64.32","BAKER LAKE CLIMATE","2300501","2023-01-11 17:00","2023","01","11","17:00","-27.6","","-30.9","","73","","","M","33","","30","","","","101.14","","","","-42","","NA"
"-96.00","64.32","BAKER LAKE CLIMATE","2300501","2023-01-11 18:00","2023","01","11","18:00","-28.3","","-31.8","","72","","","M","29","","16","","","","101.22","","","","-40","","NA"
"-96.00","64.32","BAKER LAKE CLIMATE","2300501","2023-01-11 19:00","2023","01","11","19:00","-28.6","","-32.1","","72","","","M","32","","39","","","","101.21","","","","-45","","NA"
"-96.00","64.32","BAKER LAKE CLIMATE","2300501","2023-01-11 20:00","2023","01","11","20:00","-29.0","","-32.5","","72","","","M","33","","45","","","","101.24","","","","-47","","NA"
"-96.00","64.32","BAKER LAKE CLIMATE","2300501","2023-01-11 21:00","2023","01","11","21:00","-30.2","","-33.8","","71","","","M","33","","45","","","","101.31","","","","-49","","NA"
"-96.00","64.32","BAKER LAKE CLIMATE","2300501","2023-01-11 22:00","2023","01","11","22:00","-30.7","","-34.4","","70","","","M","33","","50","","","","101.34","","","","-50","","NA"
"-96.00","64.32","BAKER LAKE CLIMATE","2300501","2023-01-11 23:00","2023","01","11","23:00","-31.6","","-35.3","","69","","","M","32","","40","","","","101.53","","","","-50","","NA"
"-96.00","64.32","BAKER LAKE CLIMATE","2300501","2023-01-12 00:00","2023","01","12","00:00","-32.1","","-36.0","","69","","","M","34","","32","","","","101.68","","","","-49","","NA"
"-96.00","64.32","BAKER LAKE CLIMATE","2300501","2023-01-12 01:00","2023","01","12","01:00","-32.3","","-36.2","","68","","","M","33","","47","","","","101.69","","","","-52","","NA"
"-96.00","64.32","BAKER LAKE CLIMATE","2300501","2023-01-12 02:00","2023","01","12","02:00","-32.7","","-36.6","","68","","","M","34","","37","","","","101.81","","","","-51","","NA"
"-96.00","64.32","BAKER LAKE CLIMATE","2300501","2023-01-12 03:00","2023","01","12","03:00","-32.7","","-36.6","","68","","","M","33","","35","","","","101.91","","","","-50","","NA"
"-96.00","64.32","BAKER LAKE CLIMATE","2300501","2023-01-12 04:00","2023","01","12","04:00","-32.6","","-36.5","","68","","","M","33","","34","","","","101.93","","","","-50","","NA"
"-96.00","64.32","BAKER LAKE CLIMATE","2300501","2023-01-12 05:00","2023","01","12","05:00","-32.1","","-36.0","","68","","","M","32","","31","","","","101.95","","","","-49","","NA"
"-96.00","64.32","BAKER LAKE CLIMATE","2300501","2023-01-12 06:00","2023","01","12","06:00","-31.8","","-35.7","","69","","","M","31","","31","","","","101.98","","","","-48","","NA"
"-96.00","64.32","BAKER LAKE CLIMATE","2300501","2023-01-12 07:00","2023","01","12","07:00","-31.7","","-35.6","","69","","","M","31","","28","","","","101.96","","","","-47","","NA"
"-96.00","64.32","BAKER LAKE CLIMATE","2300501","2023-01-12 08:00","2023","01","12","08:00","-30.8","","-34.6","","70","","","M","32","","32","","","","101.92","","","","-47","","NA"
"-96.00","64.32","BAKER LAKE CLIMATE","2300501","2023-01-12 09:00","2023","01","12","09:00","-30.3","","-34.0","","70","","","M","31","","33","","","","101.91","","","","-47","","NA"
"-96.00","64.32","BAKER LAKE CLIMATE","2300501","2023-01-12 10:00","2023","01","12","10:00","-30.3","","-33.9","","70","","","M","28","","26","","","","101.95","","","","-45","","NA"
"-96.00","64.32","BAKER LAKE CLIMATE","2300501","2023-01-12 11:00","2023","01","12","11:00","-31.1","","-34.9","","70","","","M","30","","30","","","","101.94","","","","-47","","NA"
"-96.00","64.32","BAKER LAKE CLIMATE","2300501","2023-01-12 12:00","2023","01","12","12:00","-30.6","","-34.2","","70","","","M","31","","27","","","","101.96","","","","-46","","NA"
"-96.00","64.32","BAKER LAKE CLIMATE","2300501","2023-01-12 13:00","2023","01","12","13:00","-29.9","","-33.5","","71","","","M","29","","20","","","","101.98","","","","-43","","NA"
"-96.00","64.32","BAKER LAKE CLIMATE","2300501","2023-01-12 14:00","2023","01","12","14:00","-30.7","","-34.3","","70","","","M","30","","8","","","","101.99","","","","-39","","NA"
"-96.00","64.32","BAKER LAKE CLIMATE","2300501","2023-01-12 15:00","2023","01","12","15:00","-30.5","","-34.2","","70","","","M","29","","17","","","","101.99","","","","-43","","NA"
"-96.00","64.32","BAKER LAKE CLIMATE","2300501","2023-01-12 16:00","2023","01","12","16:00","-32.1","","-35.9","","69","","","M","29","","11","","","","101.96","","","","-42","","NA"
"-96.00","64.32","BAKER LAKE CLIMATE","2300501","2023-01-12 17:00","2023","01","12","17:00","-31.9","","-35.8","","69","","","M","28","","10","","","","101.97","","","","-41","","NA"
"-96.00","64.32","BAKER LAKE CLIMATE","2300501","2023-01-12 18:00","2023","01","12","18:00","-32.5","","-36.4","","68","","","M","29","","7","","","","101.94","","","","-40","","NA"
"-96.00","64.32","BAKER LAKE CLIMATE","2300501","2023-01-12 19:00","2023","01","12","19:00","-32.5","","-36.4","","68","","","M","26","","9","","","","101.84","","","","-42","","NA"
"-96.00","64.32","BAKER LAKE CLIMATE","2300501","2023-01-12 20:00","2023","01","12","20:00","-32.7","","-36.6","","68","","","M","28","","9","","","","101.78","","","","-42","","NA"
"-96.00","64.32","BAKER LAKE CLIMATE","2300501","2023-01-12 21:00","2023","01","12","21:00","-31.8","","-35.7","","69","","","M","31","","13","","","","101.69","","","","-43","","NA"
"-96.00","64.32","BAKER LAKE CLIMATE","2300501","2023-01-12 22:00","2023","01","12","22:00","-31.1","","-34.9","","69","","","M","24","","9","","","","101.62","","","","-40","","NA"
"-96.00","64.32","BAKER LAKE CLIMATE","2300501","2023-01-12 23:00","2023","01","12","23:00","-30.7","","-34.4","","70","","","M","32","","6","","","","101.56","","","","-37","","NA"
"-96.00","64.32","BAKER LAKE CLIMATE","2300501","2023-01-13 00:00","2023","01","13","00:00","-30.7","","-34.4","","70","","","M","10","","4","","","","101.53","","","","-35","","NA"
"-96.00","64.32","BAKER LAKE CLIMATE","2300501","2023-01-13 01:00","2023","01","13","01:00","-29.8","","-33.5","","70","","","M","22","","4","","","","101.45","","","","-34","","NA"
"-96.00","64.32","BAKER LAKE CLIMATE","2300501","2023-01-13 02:00","2023","01","13","02:00","-29.4","","-33.0","","71","","","M","32","","5","","","","101.36","","","","-35","","NA"
"-96.00","64.32","BAKER LAKE CLIMATE","2300501","2023-01-13 03:00","2023","01","13","03:00","-29.7","","-33.3","","71","","","M","20","","2","","","","101.31","","","","-32","","NA"
"-96.00","64.32","BAKER LAKE CLIMATE","2300501","2023-01-13 04:00","2023","01","13","04:00","-29.8","","-33.4","","71","","","M","4","","2","","","","101.27","","","","-32","","NA"
"-96.00","64.32","BAKER LAKE CLIMATE","2300501","2023-01-13 05:00","2023","01","13","05:00","-30.1","","-33.7","","70","","","M","","","0","","","","101.23","","","","","","NA"
"-96.00","64.32","BAKER LAKE CLIMATE","2300501","2023-01-13 06:00","2023","01","13","06:00","-30.2","","-33.9","","70","","","M","34","","2","","","","101.15","","","","-32","","NA"
"-96.00","64.32","BAKER LAKE CLIMATE","2300501","2023-01-13 07:00","2023","01","13","07:00","-32.4","","-36.3","","68","","","M","33","","11","","","","101.11","","","","-43","","NA"
"-96.00","64.32","BAKER LAKE CLIMATE","2300501","2023-01-13 08:00","2023","01","13","08:00","-31.2","","-35.0","","69","","","M","33","","8","","","","101.11","","","","-39","","NA"
"-96.00","64.32","BAKER LAKE CLIMATE","2300501","2023-01-13 09:00","2023","01","13","09:00","-28.3","","-31.8","","72","","","M","32","","17","","","","101.09","","","","-40","","NA"
"-96.00","64.32","BAKER LAKE CLIMATE","2300501","2023-01-13 10:00","2023","01","13","10:00","-28.6","","-32.1","","72","","","M","1","","2","","","","101.06","","","","-31","","NA"
"-96.00","64.32","BAKER LAKE CLIMATE","2300501","2023-01-13 11:00","2023","01","13","11:00","-27.3","","-30.6","","73","","","M","33","","25","","","","101.01","","","","-41","","NA"
"-96.00","64.32","BAKER LAKE CLIMATE","2300501","2023-01-13 12:00","2023","01","13","12:00","-26.5","","-29.7","","74","","","M","27","","4","","","","101.01","","","","-31","","NA"
"-96.00","64.32","BAKER LAKE CLIMATE","2300501","2023-01-13 13:00","2023","01","13","13:00","-26.3","","-29.5","","74","","","M","30","","12","","","","101.02","","","","-36","","NA"
"-96.00","64.32","BAKER LAKE CLIMATE","2300501","2023-01-13 14:00","2023","01","13","14:00","-28.2","","-31.5","","73","","","M","32","","37","","","","100.95","","","","-45","","NA"
"-96.00","64.32","BAKER LAKE CLIMATE","2300501","2023-01-13 15:00","2023","01","13","15:00","-29.4","","-32.9","","71","","","M","31","","18","","","","101.02","","","","-42","","NA"
"-96.00","64.32","BAKER LAKE CLIMATE","2300501","2023-01-13 16:00","2023","01","13","16:00","-29.8","","-33.4","","71","","","M","32","","20","","","","101.03","","","","-43","","NA"
"-96.00","64.32","BAKER LAKE CLIMATE","2300501","2023-01-13 17:00","2023","01","13","17:00","-30.0","","-33.7","","71","","","M","31","","35","","","","101.05","","","","-47","","NA"
"-96.00","64.32","BAKER LAKE CLIMATE","2300501","2023-01-13 18:00","2023","01","13","18:00","-30.5","","-34.2","","70","","","M","31","","21","","","","101.11","","","","-44","","NA"
"-96.00","64.32","BAKER LAKE CLIMATE","2300501","2023-01-13 19:00","2023","01","13","19:00","-30.7","","-34.4","","70","","","M","31","","29","","","","101.10","","","","-46","","NA"
"-96.00","64.32","BAKER LAKE CLIMATE","2300501","2023-01-13 20:00","2023","01","13","20:00","-30.1","","-33.8","","70","","","M","32","","26","","","","101.13","","","","-45","","NA"
"-96.00","64.32","BAKER LAKE CLIMATE","2300501","2023-01-13 21:00","2023","01","13","21:00","-29.0","","-32.6","","71","","","M","32","","24","","","","101.11","","","","-43","","NA"
"-96.00","64.32","BAKER LAKE CLIMATE","2300501","2023-01-13 22:00","2023","01","13","22:00","-28.4","","-31.9","","72","","","M","32","","18","","","","101.17","","","","-40","","NA"
"-96.00","64.32","BAKER LAKE CLIMATE","2300501","2023-01-13 23:00","2023","01","13","23:00","-29.5","","-33.1","","71","","","M","32","","27","","","","101.20","","","","-44","","NA"
"-96.00","64.32","BAKER LAKE CLIMATE","2300501","2023-01-14 00:00","2023","01","14","00:00","-29.6","","-33.2","","71","","","M","32","","19","","","","101.26","","","","-42","","NA"
"-96.00","64.32","BAKER LAKE CLIMATE","2300501","2023-01-14 01:00","2023","01","14","01:00","-30.3","","-34.0","","70","","","M","33","","23","","","","101.29","","","","-44","","NA"
"-96.00","64.32","BAKER LAKE CLIMATE","2300501","2023-01-14 02:00","2023","01","14","02:00","-31.5","","-35.3","","69","","","M","33","","22","","","","101.32","","","","-46","","NA"
"-96.00","64.32","BAKER LAKE CLIMATE","2300501","2023-01-14 03:00","2023","01","14","03:00","-32.3","","-36.2","","68","","","M","33","","29","","","","101.35","","","","-48","","NA"
"-96.00","64.32","BAKER LAKE CLIMATE","2300501","2023-01-14 04:00","2023","01","14","04:00","-33.3","","-37.3","","67","","","M","34","","29","","","","101.41","","","","-50","","NA"
"-96.00","64.32","BAKER LAKE CLIMATE","2300501","2023-01-14 05:00","2023","01","14","05:00","-33.7","","-37.7","","67","","","M","35","","25","","","","101.43","","","","-49","","NA"
"-96.00","64.32","BAKER LAKE CLIMATE","2300501","2023-01-14 06:00","2023","01","14","06:00","-34.1","","-38.2","","66","","","M","36","","25","","","","101.46","","","","-50","","NA"
"-96.00","64.32","BAKER LAKE CLIMATE","2300501","2023-01-14 07:00","2023","01","14","07:00","-35.4","","-39.6","","65","","","M","33","","15","","","","101.49","","","","-48","","NA"
"-96.00","64.32","BAKER LAKE CLIMATE","2300501","2023-01-14 08:00","2023","01","14","08:00","-34.6","","-38.7","","66","","","M","32","","9","","","","101.50","","","","-44","","NA"
"-96.00","64.32","BAKER LAKE CLIMATE","2300501","2023-01-14 09:00","2023","01","14","09:00","-33.2","","-37.3","","66","","","M","27","","7","","","","101.52","","","","-41","","NA"
"-96.00","64.32","BAKER LAKE CLIMATE","2300501","2023-01-14 10:00","2023","01","14","10:00","-34.2","","-38.3","","66","","","M","32","","13","","","","101.54","","","","-46","","NA"
"-96.00","64.32","BAKER LAKE CLIMATE","2300501","2023-01-14 11:00","2023","01","14","11:00","-33.7","","-37.7","","67","","","M","23","","5","","","","101.56","","","","-40","","NA"
"-96.00","64.32","BAKER LAKE CLIMATE","2300501","2023-01-14 12:00","2023","01","14","12:00","-34.6","","-38.8","","66","","","M","34","","16","","","","101.53","","","","-47","","NA"
"-96.00","64.32","BAKER LAKE CLIMATE","2300501","2023-01-14 13:00","2023","01","14","13:00","-36.1","","-40.4","","65","","","M","11","","5","","","","101.54","","","","-43","","NA"
"-96.00","64.32","BAKER LAKE CLIMATE","2300501","2023-01-14 14:00","2023","01","14","14:00","-34.7","","-38.9","","65","","","M","32","","3","","","","101.53","","","","-38","","NA"
"-96.00","64.32","BAKER LAKE CLIMATE","2300501","2023-01-14 15:00","2023","01","14","15:00","-34.8","","-39.1","","65","","","M","36","","1","","","","101.53","","","","-36","","NA"
"-96.00","64.32","BAKER LAKE CLIMATE","2300501","2023-01-14 16:00","2023","01","14","16:00","-35.4","","-39.7","","65","","","M","16","","3","","","","101.54","","","","-39","","NA"
"-96.00","64.32","BAKER LAKE CLIMATE","2300501","2023-01-14 17:00","2023","01","14","17:00","-35.6","","-39.9","","65","","","M","11","","5","","","","101.50","","","","-42","","NA"
"-96.00","64.32","BAKER LAKE CLIMATE","2300501","2023-01-14 18:00","2023","01","14","18:00","-34.8","","-39.0","","65","","","M","13","","5","","","","101.49","","","","-41","","NA"
"-96.00","64.32","BAKER LAKE CLIMATE","2300501","2023-01-14 19:00","2023","01","14","19:00","-34.6","","-38.8","","66","","","M","14","","3","","","","101.46","","","","-38","","NA"
"-96.00","64.32","BAKER LAKE CLIMATE","2300501","2023-01-14 20:00","2023","01","14","20:00","-33.7","","-37.8","","66","","","M","12","","6","","","","101.40","","","","-41","","NA"
"-96.00","64.32","BAKER LAKE CLIMATE","2300501","2023-01-14 21:00","2023","01","14","21:00","-33.3","","-37.4","","67","","","M","13","","7","","","","101.37","","","","-41","","NA"
"-96.00","64.32","BAKER LAKE CLIMATE","2300501","2023-01-14 22:00","2023","01","14","22:00","-32.5","","-36.5","","68","","","M","11","","10","","","","101.31","","","","-42","","NA"
"-96.00","64.32","BAKER LAKE CLIMATE","2300501","2023-01-14 23:00","2023","01","14","23:00","-31.5","","-35.4","","69","","","M","11","","10","","","","101.34","","","","-41","","NA"
"-96.00","64.32","BAKER LAKE CLIMATE","2300501","2023-01-15 00:00","2023","01","15","00:00","-30.9","","-34.6","","69","","","M","11","","12","","","","101.32","","","","-41","","NA"
"-96.00","64.32","BAKER LAKE CLIMATE","2300501","2023-01-15 01:00","2023","01","15","01:00","-30.3","","-34.0","","70","","","M","13","","15","","","","101.24","","","","-42","","NA"
"-96.00","64.32","BAKER LAKE CLIMATE","2300501","2023-01-15 02:00","2023","01","15","02:00","-29.3","","-32.9","","71","","","M","12","","16","","","","101.19","","","","-41","","NA"
"-96.00","64.32","BAKER LAKE CLIMATE","2300501","2023-01-15 03:00","2023","01","15","03:00","-28.4","","-31.9","","72","","","M","12","","18","","","","101.15","","","","-40","","NA"
"-96.00","64.32","BAKER LAKE CLIMATE","2300501","2023-01-15 04:00","2023","01","15","04:00","-27.3","","-30.7","","73","","","M","12","","20","","","","101.08","","","","-40","","NA"
"-96.00","64.32","BAKER LAKE CLIMATE","2300501","2023-01-15 05:00","2023","01","15","05:00","-26.5","","-29.8","","74","","","M","12","","22","","","","101.03","","","","-39","","NA"
"-96.00","64.32","BAKER LAKE CLIMATE","2300501","2023-01-15 06:00","2023","01","15","06:00","-25.8","","-29.0","","74","","","M","12","","19","","","","101.02","","","","-38","","NA"
"-96.00","64.32","BAKER LAKE CLIMATE","2300501","2023-01-15 07:00","2023","01","15","07:00","-25.5","","-28.7","","75","","","M","11","","24","","","","100.97","","","","-38","","NA"
"-96.00","64.32","BAKER LAKE CLIMATE","2300501","2023-01-15 08:00","2023","01","15","08:00","-25.6","","-28.7","","75","","","M","11","","26","","","","100.89","","","","-39","","NA"
"-96.00","64.32","BAKER LAKE CLIMATE","2300501","2023-01-15 09:00","2023","01","15","09:00","-25.0","","-28.1","","75","","","M","11","","30","","","","100.91","","","","-39","","NA"
"-96.00","64.32","BAKER LAKE CLIMATE","2300501","2023-01-15 10:00","2023","01","15","10:00","-24.5","","-27.6","","76","","","M","11","","26","","","","100.89","","","","-38","","NA"
"-96.00","64.32","BAKER LAKE CLIMATE","2300501","2023-01-15 11:00","2023","01","15","11:00","-24.3","","-27.3","","76","","","M","11","","28","","","","100.91","","","","-38","","NA"
"-96.00","64.32","BAKER LAKE CLIMATE","2300501","2023-01-15 12:00","2023","01","15","12:00","-23.7","","-26.7","","77","","","M","11","","29","","","","100.84","","","","-37","","NA"
"-96.00","64.32","BAKER LAKE CLIMATE","2300501","2023-01-15 13:00","2023","01","15","13:00","-23.4","","-26.3","","77","","","M","12","","32","","","","100.80","","","","-37","","NA"
"-96.00","64.32","BAKER LAKE CLIMATE","2300501","2023-01-15 14:00","2023","01","15","14:00","-23.0","","-25.9","","77","","","M","11","","30","","","","100.81","","","","-36","","NA"
"-96.00","64.32","BAKER LAKE CLIMATE","2300501","2023-01-15 15:00","2023","01","15","15:00","-22.7","","-25.5","","78","","","M","11","","30","","","","100.77","","","","-36","","NA"
"-96.00","64.32","BAKER LAKE CLIMATE","2300501","2023-01-15 16:00","2023","01","15","16:00","-22.3","","-25.1","","78","","","M","12","","32","","","","100.76","","","","-36","","NA"
"-96.00","64.32","BAKER LAKE CLIMATE","2300501","2023-01-15 17:00","2023","01","15","17:00","-21.4","","-24.2","","79","","","M","12","","27","","","","100.81","","","","-34","","NA"
"-96.00","64.32","BAKER LAKE CLIMATE","2300501","2023-01-15 18:00","2023","01","15","18:00","-21.0","","-23.7","","79","","","M","12","","26","","","","100.81","","","","-33","","NA"
"-96.00","64.32","BAKER LAKE CLIMATE","2300501","2023-01-15 19:00","2023","01","15","19:00","-20.6","","-23.2","","79","","","M","12","","26","","","","100.79","","","","-33","","NA"
"-96.00","64.32","BAKER LAKE CLIMATE","2300501","2023-01-15 20:00","2023","01","15","20:00","-21.0","","-23.6","","79","","","M","11","","26","","","","100.80","","","","-33","","NA"
"-96.00","64.32","BAKER LAKE CLIMATE","2300501","2023-01-15 21:00","2023","01","15","21:00","-20.6","","-23.2","","79","","","M","11","","28","","","","100.77","","","","-33","","NA"
"-96.00","64.32","BAKER LAKE CLIMATE","2300501","2023-01-15 22:00","2023","01","15","22:00","-20.4","","-23.0","","80","","","M","11","","27","","","","100.76","","","","-33","","NA"
"-96.00","64.32","BAKER LAKE CLIMATE","2300501","2023-01-15 23:00","2023","01","15","23:00","-19.7","","-22.3","","80","","","M","11","","23","","","","100.78","","","","-31","","NA"
"-96.00","64.32","BAKER LAKE CLIMATE","2300501","2023-01-16 00:00","2023","01","16","00:00","-19.2","","-21.7","","81","","","M","13","","21","","","","100.83","","","","-30","","NA"
"-96.00","64.32","BAKER LAKE CLIMATE","2300501","2023-01-16 01:00","2023","01","16","01:00","-18.9","","-21.3","","81","","","M","13","","35","","","","100.75","","","","-32","","NA"
"-96.00","64.32","BAKER LAKE CLIMATE","2300501","2023-01-16 02:00","2023","01","16","02:00","-18.6","","-21.0","","81","","","M","13","","34","","","","100.75","","","","-31","","NA"
"-96.00","64.32","BAKER LAKE CLIMATE","2300501","2023-01-16 03:00","2023","01","16","03:00","-18.3","","-20.7","","81","","","M","14","","26","","","","100.84","","","","-30","","NA"
"-96.00","64.32","BAKER LAKE CLIMATE","2300501","2023-01-16 04:00","2023","01","16","04:00","-18.3","","-20.7","","81","","","M","13","","27","","","","100.87","","","","-30","","NA"
"-96.00","64.32","BAKER LAKE CLIMATE","2300501","2023-01-16 05:00","2023","01","16","05:00","-18.2","","-20.6","","82","","","M","12","","26","","","","100.87","","","","-29","","NA"
"-96.00","64.32","BAKER LAKE CLIMATE","2300501","2023-01-16 06:00","2023","01","16","06:00","-18.2","","-20.6","","82","","","M","13","","30","","","","100.87","","","","-30","","NA"
"-96.00","64.32","BAKER LAKE CLIMATE","2300501","2023-01-16 07:00","2023","01","16","07:00","-18.1","","-20.5","","82","","","M","13","","29","","","","100.91","","","","-30","","NA"
"-96.00","64.32","BAKER LAKE CLIMATE","2300501","2023-01-16 08:00","2023","01","16","08:00","-18.1","","-20.5","","82","","","M","13","","29","","","","100.90","","","","-30","","NA"
"-96.00","64.32","BAKER LAKE CLIMATE","2300501","2023-01-16 09:00","2023","01","16","09:00","-18.0","","-20.4","","82","","","M","13","","26","","","","100.95","","","","-29","","NA"
"-96.00","64.32","BAKER LAKE CLIMATE","2300501","2023-01-16 10:00","2023","01","16","10:00","-17.9","","-20.2","","82","","","M","13","","24","","","","101.00","","","","-29","","NA"
"-96.00","64.32","BAKER LAKE CLIMATE","2300501","2023-01-16 11:00","2023","01","16","11:00","-17.8","","-20.2","","82","","","M","13","","23","","","","101.01","","","","-28","","NA"
"-96.00","64.32","BAKER LAKE CLIMATE","2300501","2023-01-16 12:00","2023","01","16","12:00","-17.8","","-20.2","","82","","","M","13","","23","","","","101.03","","","","-28","","NA"
"-96.00","64.32","BAKER LAKE CLIMATE","2300501","2023-01-16 13:00","2023","01","16","13:00","-17.7","","-20.0","","82","","","M","13","","24","","","","101.03","","","","-28","","NA"
"-96.00","64.32","BAKER LAKE CLIMATE","2300501","2023-01-16 14:00","2023","01","16","14:00","-17.7","","-20.0","","82","","","M","12","","21","","","","101.07","","","","-28","","NA"
"-96.00","64.32","BAKER LAKE CLIMATE","2300501","2023-01-16 15:00","2023","01","16","15:00","-17.9","","-20.2","","82","","","M","12","","22","","","","101.13","","","","-28","","NA"
"-96.00","64.32","BAKER LAKE CLIMATE","2300501","2023-01-16 16:00","2023","01","16","16:00","-17.9","","-20.3","","82","","","M","12","","24","","","","101.15","","","","-29","","NA"
"-96.00","64.32","BAKER LAKE CLIMATE","2300501","2023-01-16 17:00","2023","01","16","17:00","-17.9","","-20.2","","82","","","M","12","","21","","","","101.20","","","","-28","","NA"
"-96.00","64.32","BAKER LAKE CLIMATE","2300501","2023-01-16 18:00","2023","01","16","18:00","-17.8","","-20.1","","82","","","M","12","","18","","","","101.25","","","","-27","","NA"
"-96.00","64.32","BAKER LAKE CLIMATE","2300501","2023-01-16 19:00","2023","01","16","19:00","-17.7","","-20.0","","82","","","M","12","","18","","","","101.28","","","","-27","","NA"
"-96.00","64.32","BAKER LAKE CLIMATE","2300501","2023-01-16 20:00","2023","01","16","20:00","-17.5","","-19.9","","82","","","M","12","","19","","","","101.32","","","","-27","","NA"
"-96.00","64.32","BAKER LAKE CLIMATE","2300501","2023-01-16 21:00","2023","01","16","21:00","-17.4","","-19.7","","82","","","M","12","","18","","","","101.33","","","","-27","","NA"
"-96.00","64.32","BAKER LAKE CLIMATE","2300501","2023-01-16 22:00","2023","01","16","22:00","-17.4","","-19.7","","82","","","M","12","","16","","","","101.35","","","","-26","","NA"
"-96.00","64.32","BAKER LAKE CLIMATE","2300501","2023-01-16 23:00","2023","01","16","23:00","-17.3","","-19.6","","82","","","M","11","","15","","","","101.36","","","","-26","","NA"
"-96.00","64.32","BAKER LAKE CLIMATE","2300501","2023-01-17 00:00","2023","01","17","00:00","-17.3","","-19.5","","82","","","M","11","","14","","","","101.40","","","","-25","","NA"
"-96.00","64.32","BAKER LAKE CLIMATE","2300501","2023-01-17 01:00","2023","01","17","01:00","-17.2","","-19.5","","82","","","M","11","","16","","","","101.40","","","","-26","","NA"
"-96.00","64.32","BAKER LAKE CLIMATE","2300501","2023-01-17 02:00","2023","01","17","02:00","-17.8","","-20.1","","82","","","M","9","","18","","","","101.47","","","","-27","","NA"
"-96.00","64.32","BAKER LAKE CLIMATE","2300501","2023-01-17 03:00","2023","01","17","03:00","-17.8","","-20.2","","82","","","M","9","","19","","","","101.49","","","","-27","","NA"
"-96.00","64.32","BAKER LAKE CLIMATE","2300501","2023-01-17 04:00","2023","01","17","04:00","-18.0","","-20.3","","82","","","M","9","","21","","","","101.53","","","","-28","","NA"
"-96.00","64.32","BAKER LAKE CLIMATE","2300501","2023-01-17 05:00","2023","01","17","05:00","-18.1","","-20.5","","82","","","M","10","","21","","","","101.56","","","","-28","","NA"
"-96.00","64.32","BAKER LAKE CLIMATE","2300501","2023-01-17 06:00","2023","01","17","06:00","-18.1","","-20.4","","82","","","M","10","","19","","","","101.57","","","","-28","","NA"
"-96.00","64.32","BAKER LAKE CLIMATE","2300501","2023-01-17 07:00","2023","01","17","07:00","-18.0","","-20.3","","82","","","M","10","","18","","","","101.58","","","","-27","","NA"
"-96.00","64.32","BAKER LAKE CLIMATE","2300501","2023-01-17 08:00","2023","01","17","08:00","-18.0","","-20.4","","82","","","M","9","","19","","","","101.62","","","","-28","","NA"
"-96.00","64.32","BAKER LAKE CLIMATE","2300501","2023-01-17 09:00","2023","01","17","09:00","-18.2","","-20.6","","82","","","M","11","","18","","","","101.61","","","","-28","","NA"
"-96.00","64.32","BAKER LAKE CLIMATE","2300501","2023-01-17 10:00","2023","01","17","10:00","-18.2","","-20.5","","82","","","M","11","","16","","","","101.65","","","","-27","","NA"
"-96.00","64.32","BAKER LAKE CLIMATE","2300501","2023-01-17 11:00","2023","01","17","11:00","-18.2","","-20.5","","82","","","M","10","","20","","","","101.64","","","","-28","","NA"
"-96.00","64.32","BAKER LAKE CLIMATE","2300501","2023-01-17 12:00","2023","01","17","12:00","-18.2","","-20.6","","82","","","M","10","","20","","","","101.61","","","","-28","","NA"
"-96.00","64.32","BAKER LAKE CLIMATE","2300501","2023-01-17 13:00","2023","01","17","13:00","-18.1","","-20.4","","82","","","M","10","","18","","","","101.63","","","","-28","","NA"
"-96.00","64.32","BAKER LAKE CLIMATE","2300501","2023-01-17 14:00","2023","01","17","14:00","-18.0","","-20.3","","82","","","M","10","","20","","","","101.63","","","","-28","","NA"
"-96.00","64.32","BAKER LAKE CLIMATE","2300501","2023-01-17 15:00","2023","01","17","15:00","-18.2","","-20.5","","82","","","M","11","","21","","","","101.62","","","","-28","","NA"
"-96.00","64.32","BAKER LAKE CLIMATE","2300501","2023-01-17 16:00","2023","01","17","16:00","-18.1","","-20.5","","82","","","M","11","","19","","","","101.63","","","","-28","","NA"
"-96.00","64.32","BAKER LAKE CLIMATE","2300501","2023-01-17 17:00","2023","01","17","17:00","-18.1","","-20.5","","82","","","M","12","","20","","","","101.63","","","","-28","","NA"
"-96.00","64.32","BAKER LAKE CLIMATE","2300501","2023-01-17 18:00","2023","01","17","18:00","-18.4","","-20.8","","81","","","M","11","","23","","","","101.63","","","","-29","","NA"
"-96.00","64.32","BAKER LAKE CLIMATE","2300501","2023-01-17 19:00","2023","01","17","19:00","-18.7","","-21.1","","81","","","M","11","","26","","","","101.59","","","","-30","","NA"
"-96.00","64.32","BAKER LAKE CLIMATE","2300501","2023-01-17 20:00","2023","01","17","20:00","-18.9","","-21.3","","81","","","M","11","","24","","","","101.55","","","","-30","","NA"
"-96.00","64.32","BAKER LAKE CLIMATE","2300501","2023-01-17 21:00","2023","01","17","21:00","-18.5","","-20.9","","81","","","M","11","","26","","","","101.49","","","","-30","","NA"
"-96.00","64.32","BAKER LAKE CLIMATE","2300501","2023-01-17 22:00","2023","01","17","22:00","-18.1","","-20.4","","82","","","M","12","","27","","","","101.45","","","","-30","","NA"
"-96.00","64.32","BAKER LAKE CLIMATE","2300501","2023-01-17 23:00","2023","01","17","23:00","-17.7","","-20.0","","82","","","M","11","","25","","","","101.44","","","","-29","","NA"
"-96.00","64.32","BAKER LAKE CLIMATE","2300501","2023-01-18 00:00","2023","01","18","00:00","-16.9","","-19.2","","83","","","M","13","","23","","","","101.40","","","","-27","","NA"
"-96.00","64.32","BAKER LAKE CLIMATE","2300501","2023-01-18 01:00","2023","01","18","01:00","-16.6","","-18.8","","83","","","M","11","","30","","","","101.30","","","","-28","","NA"
"-96.00","64.32","BAKER LAKE CLIMATE","2300501","2023-01-18 02:00","2023","01","18","02:00","-16.2","","-18.3","","83","","","M","12","","32","","","","101.25","","","","-28","","NA"
"-96.00","64.32","BAKER LAKE CLIMATE","2300501","2023-01-18 03:00","2023","01","18","03:00","-15.8","","-17.9","","84","","","M","13","","34","","","","101.19","","","","-28","","NA"
"-96.00","64.32","BAKER LAKE CLIMATE","2300501","2023-01-18 04:00","2023","01","18","04:00","-15.5","","-17.6","","84","","","M","13","","35","","","","101.13","","","","-27","","NA"
"-96.00","64.32","BAKER LAKE CLIMATE","2300501","2023-01-18 05:00","2023","01","18","05:00","-15.0","","-17.1","","84","","","M","13","","33","","","","101.05","","","","-27","","NA"
"-96.00","64.32","BAKER LAKE CLIMATE","2300501","2023-01-18 06:00","2023","01","18","06:00","-14.6","","-16.5","","85","","","M","14","","28","","","","101.01","","","","-25","","NA"
"-96.00","64.32","BAKER LAKE CLIMATE","2300501","2023-01-18 07:00","2023","01","18","07:00","-14.4","","-16.3","","85","","","M","14","","30","","","","100.92","","","","-25","","NA"
"-96.00","64.32","BAKER LAKE CLIMATE","2300501","2023-01-18 08:00","2023","01","18","08:00","-14.2","","-16.1","","85","","","M","14","","24","","","","100.90","","","","-24","","NA"
"-96.00","64.32","BAKER LAKE CLIMATE","2300501","2023-01-18 09:00","2023","01","18","09:00","-14.2","","-16.1","","85","","","M","15","","24","","","","100.87","","","","-24","","NA"
"-96.00","64.32","BAKER LAKE CLIMATE","2300501","2023-01-18 10:00","2023","01","18","10:00","-14.3","","-16.2","","85","","","M","15","","31","","","","100.81","","","","-25","","NA"
"-96.00","64.32","BAKER LAKE CLIMATE","2300501","2023-01-18 11:00","2023","01","18","11:00","-14.3","","-16.2","","85","","","M","15","","23","","","","100.80","","","","-24","","NA"
"-96.00","64.32","BAKER LAKE CLIMATE","2300501","2023-01-18 12:00","2023","01","18","12:00","-14.0","","-16.0","","85","","","M","16","","28","","","","100.73","","","","-24","","NA"
"-96.00","64.32","BAKER LAKE CLIMATE","2300501","2023-01-18 13:00","2023","01","18","13:00","-13.8","","-15.7","","86","","","M","15","","21","","","","100.69","","","","-23","","NA"
"-96.00","64.32","BAKER LAKE CLIMATE","2300501","2023-01-18 14:00","2023","01","18","14:00","-13.7","","-15.6","","86","","","M","14","","18","","","","100.63","","","","-22","","NA"
"-96.00","64.32","BAKER LAKE CLIMATE","2300501","2023-01-18 15:00","2023","01","18","15:00","-13.6","","-15.5","","86","","","M","14","","20","","","","100.60","","","","-22","","NA"
"-96.00","64.32","BAKER LAKE CLIMATE","2300501","2023-01-18 16:00","2023","01","18","16:00","-13.6","","-15.4","","86","","","M","13","","24","","","","100.56","","","","-23","","NA"
"-96.00","64.32","BAKER LAKE CLIMATE","2300501","2023-01-18 17:00","2023","01","18","17:00","-13.6","","-15.5","","86","","","M","14","","21","","","","100.52","","","","-23","","NA"
"-96.00","64.32","BAKER LAKE CLIMATE","2300501","2023-01-18 18:00","2023","01","18","18:00","-13.5","","-15.4","","86","","","M","13","","22","","","","100.50","","","","-23","","NA"
"-96.00","64.32","BAKER LAKE CLIMATE","2300501","2023-01-18 19:00","2023","01","18","19:00","-13.2","","-15.1","","86","","","M","13","","20","","","","100.46","","","","-22","","NA"
"-96.00","64.32","BAKER LAKE CLIMATE","2300501","2023-01-18 20:00","2023","01","18","20:00","-13.1","","-14.9","","86","","","M","12","","17","","","","100.42","","","","-21","","NA"
"-96.00","64.32","BAKER LAKE CLIMATE","2300501","2023-01-18 21:00","2023","01","18","21:00","-12.9","","-14.7","","86","","","M","12","","15","","","","100.39","","","","-20","","NA"
"-96.00","64.32","BAKER LAKE CLIMATE","2300501","2023-01-18 22:00","2023","01","18","22:00","-13.0","","-14.8","","86","","","M","9","","13","","","","100.37","","","","-20","","NA"
"-96.00","64.32","BAKER LAKE CLIMATE","2300501","2023-01-18 23:00","2023","01","18","23:00","-12.8","","-14.6","","87","","","M","9","","15","","","","100.35","","","","-20","","NA"
"-96.00","64.32","BAKER LAKE CLIMATE","2300501","2023-01-19 00:00","2023","01","19","00:00","-12.6","","-14.3","","87","","","M","10","","13","","","","100.33","","","","-19","","NA"
"-96.00","64.32","BAKER LAKE CLIMATE","2300501","2023-01-19 01:00","2023","01","19","01:00","-12.5","","-14.2","","87","","","M","10","","14","","","","100.34","","","","-20","","NA"
"-96.00","64.32","BAKER LAKE CLIMATE","2300501","2023-01-19 02:00","2023","01","19","02:00","-12.2","","-13.9","","87","","","M","9","","9","","","","100.34","","","","-17","","NA"
"-96.00","64.32","BAKER LAKE CLIMATE","2300501","2023-01-19 03:00","2023","01","19","03:00","-12.1","","-13.8","","87","","","M","8","","9","","","","100.36","","","","-17","","NA"
"-96.00","64.32","BAKER LAKE CLIMATE","2300501","2023-01-19 04:00","2023","01","19","04:00","-11.8","","-13.5","","88","","","M","7","","11","","","","100.36","","","","-18","","NA"
"-96.00","64.32","BAKER LAKE CLIMATE","2300501","2023-01-19 05:00","2023","01","19","05:00","-11.5","","-13.2","","88","","","M","8","","11","","","","100.36","","","","-17","","NA"
"-96.00","64.32","BAKER LAKE CLIMATE","2300501","2023-01-19 06:00","2023","01","19","06:00","-11.7","","-13.4","","88","","","M","22","","2","","","","100.37","","","","-13","","NA"
"-96.00","64.32","BAKER LAKE CLIMATE","2300501","2023-01-19 07:00","2023","01","19","07:00","-11.9","","-13.5","","88","","","M","7","","11","","","","100.34","","","","-18","","NA"
"-96.00","64.32","BAKER LAKE CLIMATE","2300501","2023-01-19 08:00","2023","01","19","08:00","-11.7","","-13.4","","88","","","M","7","","9","","","","100.33","","","","-17","","NA"
"-96.00","64.32","BAKER LAKE CLIMATE","2300501","2023-01-19 09:00","2023","01","19","09:00","-11.7","","-13.4","","88","","","M","7","","13","","","","100.30","","","","-18","","NA"
"-96.00","64.32","BAKER LAKE CLIMATE","2300501","2023-01-19 10:00","2023","01","19","10:00","-11.5","","-13.1","","88","","","M","8","","13","","","","100.28","","","","-18","","NA"
"-96.00","64.32","BAKER LAKE CLIMATE","2300501","2023-01-19 11:00","2023","01","19","11:00","-11.5","","-13.0","","88","","","M","8","","14","","","","100.24","","","","-18","","NA"
"-96.00","64.32","BAKER LAKE CLIMATE","2300501","2023-01-19 12:00","2023","01","19","12:00","-10.9","","-12.4","","89","","","M","9","","14","","","","100.22","","","","-18","","NA"
"-96.00","64.32","BAKER LAKE CLIMATE","2300501","2023-01-19 13:00","2023","01","19","13:00","-10.9","","-12.4","","89","","","M","9","","20","","","","100.15","","","","-19","","NA"
"-96.00","64.32","BAKER LAKE CLIMATE","2300501","2023-01-19 14:00","2023","01","19","14:00","-10.8","","-12.3","","89","","","M","10","","17","","","","100.09","","","","-18","","NA"
"-96.00","64.32","BAKER LAKE CLIMATE","2300501","2023-01-19 15:00","2023","01","19","15:00","-10.5","","-12.0","","89","","","M","9","","20","","","","100.04","","","","-18","","NA"
"-96.00","64.32","BAKER LAKE CLIMATE","2300501","2023-01-19 16:00","2023","01","19","16:00","-9.8","","-11.2","","89","","","M","11","","25","","","","99.99","","","","-19","","NA"
"-96.00","64.32","BAKER LAKE CLIMATE","2300501","2023-01-19 17:00","2023","01","19","17:00","-9.7","","-11.1","","89","","","M","11","","23","","","","99.95","","","","-18","","NA"
"-96.00","64.32","BAKER LAKE CLIMATE","2300501","2023-01-19 18:00","2023","01","19","18:00","-9.4","","-10.7","","90","","","M","11","","23","","","","99.89","","","","-18","","NA"
"-96.00","64.32","BAKER LAKE CLIMATE","2300501","2023-01-19 19:00","2023","01","19","19:00","-9.3","","-10.6","","90","","","M","11","","24","","","","99.80","","","","-18","","NA"
"-96.00","64.32","BAKER LAKE CLIMATE","2300501","2023-01-19 20:00","2023","01","19","20:00","-9.2","","-10.5","","90","","","M","12","","23","","","","99.71","","","","-17","","NA"
"-96.00","64.32","BAKER LAKE CLIMATE","2300501","2023-01-19 21:00","2023","01","19","21:00","-8.9","","-10.3","","90","","","M","13","","23","","","","99.61","","","","-17","","NA"
"-96.00","64.32","BAKER LAKE CLIMATE","2300501","2023-01-19 22:00","2023","01","19","22:00","-8.8","","-10.1","","90","","","M","15","","20","","","","99.52","","","","-16","","NA"
"-96.00","64.32","BAKER LAKE CLIMATE","2300501","2023-01-19 23:00","2023","01","19","23:00","-9.9","","-11.3","","89","","","M","15","","19","","","","99.41","","","","-18","","NA"
"-96.00","64.32","BAKER LAKE CLIMATE","2300501","2023-01-20 00:00","2023","01","20","00:00","-10.0","","-11.5","","89","","","M","16","","21","","","","99.31","","","","-18","","NA"
"-96.00","64.32","BAKER LAKE CLIMATE","2300501","2023-01-20 01:00","2023","01","20","01:00","-10.2","","-11.7","","89","","","M","15","","19","","","","99.20","","","","-18","","NA"
"-96.00","64.32","BAKER LAKE CLIMATE","2300501","2023-01-20 02:00","2023","01","20","02:00","-11.9","","-13.5","","88","","","M","18","","19","","","","99.16","","","","-20","","NA"
"-96.00","64.32","BAKER LAKE CLIMATE","2300501","2023-01-20 03:00","2023","01","20","03:00","-12.2","","-13.8","","87","","","M","16","","14","","","","99.09","","","","-19","","NA"
"-96.00","64.32","BAKER LAKE CLIMATE","2300501","2023-01-20 04:00","2023","01","20","04:00","-11.9","","-13.5","","88","","","M","17","","13","","","","99.00","","","","-19","","NA"
"-96.00","64.32","BAKER LAKE CLIMATE","2300501","2023-01-20 05:00","2023","01","20","05:00","-11.1","","-12.7","","88","","","M","18","","6","","","","98.96","","","","-15","","NA"
"-96.00","64.32","BAKER LAKE CLIMATE","2300501","2023-01-20 06:00","2023","01","20","06:00","-10.3","","-11.8","","89","","","M","17","","3","","","","98.85","","","","-12","","NA"
"-96.00","64.32","BAKER LAKE CLIMATE","2300501","2023-01-20 07:00","2023","01","20","07:00","-8.3","","-9.6","","90","","","M","22","","17","","","","98.78","","","","-15","","NA"
"-96.00","64.32","BAKER LAKE CLIMATE","2300501","2023-01-20 08:00","2023","01","20","08:00","-8.2","","-9.4","","91","","","M","19","","20","","","","98.65","","","","-16","","NA"
"-96.00","64.32","BAKER LAKE CLIMATE","2300501","2023-01-20 09:00","2023","01","20","09:00","-9.7","","-11.1","","90","","","M","21","","26","","","","98.59","","","","-19","","NA"
"-96.00","64.32","BAKER LAKE CLIMATE","2300501","2023-01-20 10:00","2023","01","20","10:00","-10.7","","-12.2","","89","","","M","22","","9","","","","98.53","","","","-16","","NA"
"-96.00","64.32","BAKER LAKE CLIMATE","2300501","2023-01-20 11:00","2023","01","20","11:00","-12.0","","-13.7","","88","","","M","23","","14","","","","98.47","","","","-19","","NA"
"-96.00","64.32","BAKER LAKE CLIMATE","2300501","2023-01-20 12:00","2023","01","20","12:00","-11.0","","-12.6","","88","","","M","23","","19","","","","98.41","","","","-19","","NA"
"-96.00","64.32","BAKER LAKE CLIMATE","2300501","2023-01-20 13:00","2023","01","20","13:00","-9.8","","-11.2","","90","","","M","21","","18","","","","98.33","","","","-17","","NA"
"-96.00","64.32","BAKER LAKE CLIMATE","2300501","2023-01-20 14:00","2023","01","20","14:00","-9.0","","-10.3","","90","","","M","25","","18","","","","98.29","","","","-16","","NA"
"-96.00","64.32","BAKER LAKE CLIMATE","2300501","2023-01-20 15:00","2023","01","20","15:00","-10.0","","-11.3","","90","","","M","29","","16","","","","98.30","","","","-17","","NA"
"-96.00","64.32","BAKER LAKE CLIMATE","2300501","2023-01-20 16:00","2023","01","20","16:00","-10.1","","-11.6","","89","","","M","29","","18","","","","98.31","","","","-18","","NA"
"-96.00","64.32","BAKER LAKE CLIMATE","2300501","2023-01-20 17:00","2023","01","20","17:00","-9.0","","-10.3","","90","","","M","30","","24","","","","98.30","","","","-17","","NA"
"-96.00","64.32","BAKER LAKE CLIMATE","2300501","2023-01-20 18:00","2023","01","20","18:00","-10.1","","-11.5","","90","","","M","31","","39","","","","98.32","","","","-21","","NA"
"-96.00","64.32","BAKER LAKE CLIMATE","2300501","2023-01-20 19:00","2023","01","20","19:00","-12.6","","-14.3","","87","","","M","30","","38","","","","98.38","","","","-24","","NA"
"-96.00","64.32","BAKER LAKE CLIMATE","2300501","2023-01-20 20:00","2023","01","20","20:00","-13.4","","-15.2","","86","","","M","30","","47","","","","98.34","","","","-26","","NA"
"-96.00","64.32","BAKER LAKE CLIMATE","2300501","2023-01-20 21:00","2023","01","20","21:00","-14.6","","-16.5","","85","","","M","31","","38","","","","98.42","","","","-27","","NA"
"-96.00","64.32","BAKER LAKE CLIMATE","2300501","2023-01-20 22:00","2023","01","20","22:00","-16.4","","-18.4","","84","","","M","31","","34","","","","98.45","","","","-28","","NA"
"-96.00","64.32","BAKER LAKE CLIMATE","2300501","2023-01-20 23:00","2023","01","20","23:00","-17.3","","-19.4","","83","","","M","31","","42","","","","98.47","","","","-31","","NA"
"-96.00","64.32","BAKER LAKE CLIMATE","2300501","2023-01-21 00:00","2023","01","21","00:00","-17.6","","-19.8","","83","","","M","31","","34","","","","98.53","","","","-30","","NA"
"-96.00","64.32","BAKER LAKE CLIMATE","2300501","2023-01-21 01:00","2023","01","21","01:00","-17.9","","-20.1","","83","","","M","32","","48","","","","98.50","","","","-32","","NA"
"-96.00","64.32","BAKER LAKE CLIMATE","2300501","2023-01-21 02:00","2023","01","21","02:00","-18.5","","-20.8","","82","","","M","32","","42","","","","98.61","","","","-32","","NA"
"-96.00","64.32","BAKER LAKE CLIMATE","2300501","2023-01-21 03:00","2023","01","21","03:00","-19.0","","-21.4","","82","","","M","34","","64","","","","98.52","","","","-35","","NA"
"-96.00","64.32","BAKER LAKE CLIMATE","2300501","2023-01-21 04:00","2023","01","21","04:00","-19.6","","-22.1","","81","","","M","34","","58","","","","98.63","","","","-36","","NA"
"-96.00","64.32","BAKER LAKE CLIMATE","2300501","2023-01-21 05:00","2023","01","21","05:00","-20.4","","-22.9","","80","","","M","34","","67","","","","98.72","","","","-38","","NA"
"-96.00","64.32","BAKER LAKE CLIMATE","2300501","2023-01-21 06:00","2023","01","21","06:00","-20.9","","-23.4","","80","","","M","34","","69","","","","98.78","","","","-39","","NA"
"-96.00","64.32","BAKER LAKE CLIMATE","2300501","2023-01-21 07:00","2023","01","21","07:00","-21.0","","-23.5","","80","","","M","35","","65","","","","98.88","","","","-38","","NA"
"-96.00","64.32","BAKER LAKE CLIMATE","2300501","2023-01-21 08:00","2023","01","21","08:00","-21.1","","-23.7","","80","","","M","35","","63","","","","98.96","","","","-38","","NA"
"-96.00","64.32","BAKER LAKE CLIMATE","2300501","2023-01-21 09:00","2023","01","21","09:00","-21.0","","-23.6","","80","","","M","35","","64","","","","99.02","","","","-38","","NA"
"-96.00","64.32","BAKER LAKE CLIMATE","2300501","2023-01-21 10:00","2023","01","21","10:00","-20.9","","-23.4","","80","","","M","35","","63","","","","99.11","","","","-38","","NA"
"-96.00","64.32","BAKER LAKE CLIMATE","2300501","2023-01-21 11:00","2023","01","21","11:00","-20.7","","-23.2","","80","","","M","35","","56","","","","99.24","","","","-37","","NA"
"-96.00","64.32","BAKER LAKE CLIMATE","2300501","2023-01-21 12:00","2023","01","21","12:00","-21.2","","-23.8","","80","","","M","35","","56","","","","99.34","","","","-38","","NA"
"-96.00","64.32","BAKER LAKE CLIMATE","2300501","2023-01-21 13:00","2023","01","21","13:00","-21.6","","-24.3","","79","","","M","34","","54","","","","99.43","","","","-38","","NA"
"-96.00","64.32","BAKER LAKE CLIMATE","2300501","2023-01-21 14:00","2023","01","21","14:00","-22.4","","-25.1","","79","","","M","35","","54","","","","99.53","","","","-39","","NA"
"-96.00","64.32","BAKER LAKE CLIMATE","2300501","2023-01-21 15:00","2023","01","21","15:00","-22.9","","-25.7","","78","","","M","35","","53","","","","99.58","","","","-40","","NA"
"-96.00","64.32","BAKER LAKE CLIMATE","2300501","2023-01-21 16:00","2023","01","21","16:00","-24.2","","-27.1","","77","","","M","34","","45","","","","99.75","","","","-40","","NA"
"-96.00","64.32","BAKER LAKE CLIMATE","2300501","2023-01-21 17:00","2023","01","21","17:00","-25.4","","-28.5","","76","","","M","34","","49","","","","99.79","","","","-43","","NA"
"-96.00","64.32","BAKER LAKE CLIMATE","2300501","2023-01-21 18:00","2023","01","21","18:00","-25.8","","-28.9","","75","","","M","34","","52","","","","99.80","","","","-44","","NA"
"-96.00","64.32","BAKER LAKE CLIMATE","2300501","2023-01-21 19:00","2023","01","21","19:00","-26.3","","-29.4","","75","","","M","34","","48","","","","99.87","","","","-44","","NA"
"-96.00","64.32","BAKER LAKE CLIMATE","2300501","2023-01-21 20:00","2023","01","21","20:00","-26.8","","-30.0","","74","","","M","35","","49","","","","99.88","","","","-45","","NA"
"-96.00","64.32","BAKER LAKE CLIMATE","2300501","2023-01-21 21:00","2023","01","21","21:00","-27.3","","-30.6","","74","","","M","34","","48","","","","99.92","","","","-45","","NA"
"-96.00","64.32","BAKER LAKE CLIMATE","2300501","2023-01-21 22:00","2023","01","21","22:00","-27.5","","-30.8","","73","","","M","36","","42","","","","99.99","","","","-44","","NA"
"-96.00","64.32","BAKER LAKE CLIMATE","2300501","2023-01-21 23:00","2023","01","21","23:00","-28.6","","-32.0","","73","","","M","34","","44","","","","100.00","","","","-46","","NA"
"-96.00","64.32","BAKER LAKE CLIMATE","2300501","2023-01-22 00:00","2023","01","22","00:00","-29.5","","-33.0","","72","","","M","34","","39","","","","100.06","","","","-47","","NA"
"-96.00","64.32","BAKER LAKE CLIMATE","2300501","2023-01-22 01:00","2023","01","22","01:00","-29.6","","-33.2","","71","","","M","34","","39","","","","100.13","","","","-47","","NA"
"-96.00","64.32","BAKER LAKE CLIMATE","2300501","2023-01-22 02:00","2023","01","22","02:00","-29.9","","-33.5","","71","","","M","36","","50","","","","100.11","","","","-49","","NA"
"-96.00","64.32","BAKER LAKE CLIMATE","2300501","2023-01-22 03:00","2023","01","22","03:00","-30.9","","-34.6","","70","","","M","35","","44","","","","100.14","","","","-49","","NA"
"-96.00","64.32","BAKER LAKE CLIMATE","2300501","2023-01-22 04:00","2023","01","22","04:00","-31.0","","-34.7","","70","","","M","35","","42","","","","100.18","","","","-49","","NA"
"-96.00","64.32","BAKER LAKE CLIMATE","2300501","2023-01-22 05:00","2023","01","22","05:00","-32.1","","-36.0","","69","","","M","35","","30","","","","100.25","","","","-48","","NA"
"-96.00","64.32","BAKER LAKE CLIMATE","2300501","2023-01-22 06:00","2023","01","22","06:00","-32.2","","-36.0","","69","","","M","34","","30","","","","100.27","","","","-48","","NA"
"-96.00","64.32","BAKER LAKE CLIMATE","2300501","2023-01-22 07:00","2023","01","22","07:00","-32.6","","-36.4","","69","","","M","35","","41","","","","100.25","","","","-51","","NA"
"-96.00","64.32","BAKER LAKE CLIMATE","2300501","2023-01-22 08:00","2023","01","22","08:00","-33.2","","-37.1","","68","","","M","35","","41","","","","100.28","","","","-52","","NA"
"-96.00","64.32","BAKER LAKE CLIMATE","2300501","2023-01-22 09:00","2023","01","22","09:00","-33.6","","-37.6","","67","","","M","35","","42","","","","100.35","","","","-53","","NA"
"-96.00","64.32","BAKER LAKE CLIMATE","2300501","2023-01-22 10:00","2023","01","22","10:00","-33.7","","-37.8","","67","","","M","34","","22","","","","100.45","","","","-48","","NA"
"-96.00","64.32","BAKER LAKE CLIMATE","2300501","2023-01-22 11:00","2023","01","22","11:00","-33.8","","-37.8","","67","","","M","34","","24","","","","100.48","","","","-49","","NA"
"-96.00","64.32","BAKER LAKE CLIMATE","2300501","2023-01-22 12:00","2023","01","22","12:00","-34.3","","-38.3","","67","","","M","33","","26","","","","100.46","","","","-50","","NA"
"-96.00","64.32","BAKER LAKE CLIMATE","2300501","2023-01-22 13:00","2023","01","22","13:00","-34.4","","-38.4","","67","","","M","34","","29","","","","100.49","","","","-51","","NA"
"-96.00","64.32","BAKER LAKE CLIMATE","2300501","2023-01-22 14:00","2023","01","22","14:00","-34.9","","-39.0","","66","","","M","33","","27","","","","100.54","","","","-51","","NA"
"-96.00","64.32","BAKER LAKE CLIMATE","2300501","2023-01-22 15:00","2023","01","22","15:00","-35.1","","-39.3","","66","","","M","34","","21","","","","100.58","","","","-50","","NA"
"-96.00","64.32","BAKER LAKE CLIMATE","2300501","2023-01-22 16:00","2023","01","22","16:00","-35.0","","-39.2","","66","","","M","34","","37","","","","100.55","","","","-54","","NA"
"-96.00","64.32","BAKER LAKE CLIMATE","2300501","2023-01-22 17:00","2023","01","22","17:00","-34.7","","-38.8","","66","","","M","34","","54","","","","100.53","","","","-56","","NA"
"-96.00","64.32","BAKER LAKE CLIMATE","2300501","2023-01-22 18:00","2023","01","22","18:00","-34.4","","-38.6","","66","","","M","35","","36","","","","100.68","","","","-53","","NA"
"-96.00","64.32","BAKER LAKE CLIMATE","2300501","2023-01-22 19:00","2023","01","22","19:00","-34.2","","-38.3","","66","","","M","35","","34","","","","100.71","","","","-52","","NA"
"-96.00","64.32","BAKER LAKE CLIMATE","2300501","2023-01-22 20:00","2023","01","22","20:00","-34.0","","-38.1","","67","","","M","34","","35","","","","100.68","","","","-52","","NA"
"-96.00","64.32","BAKER LAKE CLIMATE","2300501","2023-01-22 21:00","2023","01","22","21:00","-32.8","","-36.8","","68","","","M","32","","16","","","","100.82","","","","-45","","NA"
"-96.00","64.32","BAKER LAKE CLIMATE","2300501","2023-01-22 22:00","2023","01","22","22:00","-32.8","","-36.7","","68","","","M","33","","22","","","","100.81","","","","-47","","NA"
"-96.00","64.32","BAKER LAKE CLIMATE","2300501","2023-01-22 23:00","2023","01","22","23:00","-32.1","","-36.0","","68","","","M","30","","16","","","","100.83","","","","-44","","NA"
"-96.00","64.32","BAKER LAKE CLIMATE","2300501","2023-01-23 00:00","2023","01","23","00:00","-32.2","","-36.1","","69","","","M","30","","21","","","","100.80","","","","-46","","NA"
"-96.00","64.32","BAKER LAKE CLIMATE","2300501","2023-01-23 01:00","2023","01","23","01:00","-32.6","","-36.5","","68","","","M","29","","23","","","","100.81","","","","-47","","NA"
"-96.00","64.32","BAKER LAKE CLIMATE","2300501","2023-01-23 02:00","2023","01","23","02:00","-32.5","","-36.4","","68","","","M","28","","8","","","","100.78","","","","-41","","NA"
"-96.00","64.32","BAKER LAKE CLIMATE","2300501","2023-01-23 03:00","2023","01","23","03:00","-32.3","","-36.2","","68","","","M","32","","28","","","","100.71","","","","-48","","NA"
"-96.00","64.32","BAKER LAKE CLIMATE","2300501","2023-01-23 04:00","2023","01","23","04:00","-31.4","","-35.2","","69","","","M","32","","35","","","","100.67","","","","-48","","NA"
"-96.00","64.32","BAKER LAKE CLIMATE","2300501","2023-01-23 05:00","2023","01","23","05:00","-30.4","","-34.1","","70","","","M","32","","26","","","","100.63","","","","-45","","NA"
"-96.00","64.32","BAKER LAKE CLIMATE","2300501","2023-01-23 06:00","2023","01","23","06:00","-30.6","","-34.3","","70","","","M","31","","26","","","","100.60","","","","-45","","NA"
"-96.00","64.32","BAKER LAKE CLIMATE","2300501","2023-01-23 07:00","2023","01","23","07:00","-30.7","","-34.4","","70","","","M","31","","28","","","","100.60","","","","-46","","NA"
"-96.00","64.32","BAKER LAKE CLIMATE","2300501","2023-01-23 08:00","2023","01","23","08:00","-31.0","","-34.8","","70","","","M","31","","25","","","","100.57","","","","-46","","NA"
"-96.00","64.32","BAKER LAKE CLIMATE","2300501","2023-01-23 09:00","2023","01","23","09:00","-31.0","","-34.7","","70","","0.0","","30","","20","","","","100.60","","","","-44","","NA"
"-96.00","64.32","BAKER LAKE CLIMATE","2300501","2023-01-23 10:00","2023","01","23","10:00","-31.1","","-34.9","","70","","0.0","","33","","43","","","","100.56","","","","-49","","NA"
"-96.00","64.32","BAKER LAKE CLIMATE","2300501","2023-01-23 11:00","2023","01","23","11:00","-31.9","","-35.7","","69","","0.0","","32","","21","","","","100.63","","","","-46","","NA"
"-96.00","64.32","BAKER LAKE CLIMATE","2300501","2023-01-23 12:00","2023","01","23","12:00","-32.4","","-36.2","","69","","0.0","","33","","27","","","","100.67","","","","-48","","NA"
"-96.00","64.32","BAKER LAKE CLIMATE","2300501","2023-01-23 13:00","2023","01","23","13:00","-33.2","","-37.0","","68","","0.0","","34","","34","","","","100.65","","","","-51","","NA"
"-96.00","64.32","BAKER LAKE CLIMATE","2300501","2023-01-23 14:00","2023","01","23","14:00","-34.0","","-38.0","","67","","0.0","","34","","16","","","","100.74","","","","-47","","NA"
"-96.00","64.32","BAKER LAKE CLIMATE","2300501","2023-01-23 15:00","2023","01","23","15:00","-34.5","","-38.6","","66","","0.0","","35","","31","","","","100.75","","","","-52","","NA"
"-96.00","64.32","BAKER LAKE CLIMATE","2300501","2023-01-23 16:00","2023","01","23","16:00","-34.6","","-38.7","","66","","0.0","","35","","40","","","","100.75","","","","-54","","NA"
"-96.00","64.32","BAKER LAKE CLIMATE","2300501","2023-01-23 17:00","2023","01","23","17:00","-35.1","","-39.3","","66","","0.0","","34","","34","","","","100.76","","","","-53","","NA"
"-96.00","64.32","BAKER LAKE CLIMATE","2300501","2023-01-23 18:00","2023","01","23","18:00","-34.9","","-39.1","","66","","0.0","","23","","16","","","","100.89","","","","-48","","NA"
"-96.00","64.32","BAKER LAKE CLIMATE","2300501","2023-01-23 19:00","2023","01","23","19:00","-34.9","","-39.1","","66","","0.0","","31","","8","","","","100.91","","","","-44","","NA"
"-96.00","64.32","BAKER LAKE CLIMATE","2300501","2023-01-23 20:00","2023","01","23","20:00","-35.5","","-39.8","","65","","0.0","","32","","16","","","","100.91","","","","-49","","NA"
"-96.00","64.32","BAKER LAKE CLIMATE","2300501","2023-01-23 21:00","2023","01","23","21:00","-36.3","","-40.6","","64","","0.0","","33","","12","","","","100.95","","","","-48","","NA"
"-96.00","64.32","BAKER LAKE CLIMATE","2300501","2023-01-23 22:00","2023","01","23","22:00","-34.9","","-39.1","","65","","0.0","","34","","36","","","","100.85","","","","-53","","NA"
"-96.00","64.32","BAKER LAKE CLIMATE","2300501","2023-01-23 23:00","2023","01","23","23:00","-35.5","","-39.8","","65","","0.0","","33","","14","","","","100.91","","","","-48","","NA"
"-96.00","64.32","BAKER LAKE CLIMATE","2300501","2023-01-24 00:00","2023","01","24","00:00","-36.9","","-41.3","","64","","0.0","","33","","21","","","","100.91","","","","-52","","NA"
"-96.00","64.32","BAKER LAKE CLIMATE","2300501","2023-01-24 01:00","2023","01","24","01:00","-36.4","","-40.7","","64","","0.0","","32","","18","","","","100.94","","","","-50","","NA"
"-96.00","64.32","BAKER LAKE CLIMATE","2300501","2023-01-24 02:00","2023","01","24","02:00","-36.1","","-40.4","","65","","0.0","","28","","18","","","","100.90","","","","-50","","NA"
"-96.00","64.32","BAKER LAKE CLIMATE","2300501","2023-01-24 03:00","2023","01","24","03:00","-36.1","","-40.5","","64","","0.0","","30","","13","","","","100.88","","","","-48","","NA"
"-96.00","64.32","BAKER LAKE CLIMATE","2300501","2023-01-24 04:00","2023","01","24","04:00","-36.2","","-40.5","","64","","0.0","","30","","10","","","","100.91","","","","-47","","NA"
"-96.00","64.32","BAKER LAKE CLIMATE","2300501","2023-01-24 05:00","2023","01","24","05:00","-35.8","","-40.1","","65","","0.0","","31","","9","","","","100.87","","","","-45","","NA"
"-96.00","64.32","BAKER LAKE CLIMATE","2300501","2023-01-24 06:00","2023","01","24","06:00","-35.2","","-39.5","","65","","0.0","","32","","15","","","","100.83","","","","-48","","NA"
"-96.00","64.32","BAKER LAKE CLIMATE","2300501","2023-01-24 07:00","2023","01","24","07:00","-35.0","","-39.2","","65","","0.0","","28","","7","","","","100.83","","","","-43","","NA"
"-96.00","64.32","BAKER LAKE CLIMATE","2300501","2023-01-24 08:00","2023","01","24","08:00","-34.4","","-38.6","","66","","0.0","","26","","16","","","","100.78","","","","-47","","NA"
"-96.00","64.32","BAKER LAKE CLIMATE","2300501","2023-01-24 09:00","2023","01","24","09:00","-35.0","","-39.1","","66","","0.0","","28","","11","","","","100.76","","","","-46","","NA"
"-96.00","64.32","BAKER LAKE CLIMATE","2300501","2023-01-24 10:00","2023","01","24","10:00","-34.2","","-38.3","","66","","0.0","","26","","22","","","","100.73","","","","-49","","NA"
"-96.00","64.32","BAKER LAKE CLIMATE","2300501","2023-01-24 11:00","2023","01","24","11:00","-32.5","","-36.5","","68","","0.0","","30","","11","","","","100.71","","","","-43","","NA"
"-96.00","64.32","BAKER LAKE CLIMATE","2300501","2023-01-24 12:00","2023","01","24","12:00","-31.9","","-35.7","","69","","0.0","","30","","10","","","","100.73","","","","-41","","NA"
"-96.00","64.32","BAKER LAKE CLIMATE","2300501","2023-01-24 13:00","2023","01","24","13:00","-31.8","","-35.6","","69","","0.0","","28","","10","","","","100.74","","","","-41","","NA"
"-96.00","64.32","BAKER LAKE CLIMATE","2300501","2023-01-24 14:00","2023","01","24","14:00","-32.5","","-36.3","","69","","0.0","","29","","14","","","","100.72","","","","-44","","NA"
"-96.00","64.32","BAKER LAKE CLIMATE","2300501","2023-01-24 15:00","2023","01","24","15:00","-32.0","","-35.8","","69","","0.0","","30","","4","","","","100.72","","","","-37","","NA"
"-96.00","64.32","BAKER LAKE CLIMATE","2300501","2023-01-24 16:00","2023","01","24","16:00","-31.5","","-35.3","","69","","0.0","","31","","11","","","","100.70","","","","-41","","NA"
"-96.00","64.32","BAKER LAKE CLIMATE","2300501","2023-01-24 17:00","2023","01","24","17:00","-31.2","","-35.0","","69","","0.0","","31","","13","","","","100.75","","","","-42","","NA"
"-96.00","64.32","BAKER LAKE CLIMATE","2300501","2023-01-24 18:00","2023","01","24","18:00","-31.1","","-34.8","","70","","0.0","","31","","22","","","","100.70","","","","-45","","NA"
"-96.00","64.32","BAKER LAKE CLIMATE","2300501","2023-01-24 19:00","2023","01","24","19:00","-31.0","","-34.7","","70","","0.0","","33","","22","","","","100.72","","","","-45","","NA"
"-96.00","64.32","BAKER LAKE CLIMATE","2300501","2023-01-24 20:00","2023","01","24","20:00","-30.8","","-34.6","","70","","0.0","","32","","25","","","","100.75","","","","-45","","NA"
"-96.00","64.32","BAKER LAKE CLIMATE","2300501","2023-01-24 21:00","2023","01","24","21:00","-30.9","","-34.6","","70","","0.0","","32","","31","","","","100.74","","","","-47","","NA"
"-96.00","64.32","BAKER LAKE CLIMATE","2300501","2023-01-24 22:00","2023","01","24","22:00","-30.8","","-34.6","","70","","0.0","","32","","26","","","","100.74","","","","-46","","NA"
"-96.00","64.32","BAKER LAKE CLIMATE","2300501","2023-01-24 23:00","2023","01","24","23:00","-31.2","","-34.9","","70","","0.0","","32","","27","","","","100.76","","","","-46","","NA"
"-96.00","64.32","BAKER LAKE CLIMATE","2300501","2023-01-25 00:00","2023","01","25","00:00","-31.7","","-35.5","","69","","0.0","","32","","32","","","","100.70","","","","-48","","NA"
"-96.00","64.32","BAKER LAKE CLIMATE","2300501","2023-01-25 01:00","2023","01","25","01:00","-32.4","","-36.3","","69","","0.0","","34","","27","","","","100.75","","","","-48","","NA"
"-96.00","64.32","BAKER LAKE CLIMATE","2300501","2023-01-25 02:00","2023","01","25","02:00","-33.2","","-37.1","","67","","0.0","","34","","32","","","","100.74","","","","-50","","NA"
"-96.00","64.32","BAKER LAKE CLIMATE","2300501","2023-01-25 03:00","2023","01","25","03:00","-33.4","","-37.4","","67","","0.0","","34","","46","","","","100.76","","","","-53","","NA"
"-96.00","64.32","BAKER LAKE CLIMATE","2300501","2023-01-25 04:00","2023","01","25","04:00","-34.4","","-38.5","","66","","0.0","","34","","34","","","","100.90","","","","-52","","NA"
"-96.00","64.32","BAKER LAKE CLIMATE","2300501","2023-01-25 05:00","2023","01","25","05:00","-34.6","","-38.8","","66","","0.0","","34","","30","","","","100.95","","","","-52","","NA"
"-96.00","64.32","BAKER LAKE CLIMATE","2300501","2023-01-25 06:00","2023","01","25","06:00","-35.3","","-39.5","","66","","0.0","","31","","19","","","","101.05","","","","-49","","NA"
"-96.00","64.32","BAKER LAKE CLIMATE","2300501","2023-01-25 07:00","2023","01","25","07:00","-35.8","","-40.0","","65","","0.0","","27","","13","","","","101.07","","","","-48","","NA"
"-96.00","64.32","BAKER LAKE CLIMATE","2300501","2023-01-25 08:00","2023","01","25","08:00","-35.5","","-39.7","","65","","0.0","","33","","33","","","","101.05","","","","-53","","NA"
"-96.00","64.32","BAKER LAKE CLIMATE","2300501","2023-01-25 09:00","2023","01","25","09:00","-36.0","","-40.3","","65","","0.0","","30","","11","","","","101.11","","","","-47","","NA"
"-96.00","64.32","BAKER LAKE CLIMATE","2300501","2023-01-25 10:00","2023","01","25","10:00","-35.5","","-39.8","","65","","0.0","","30","","14","","","","101.12","","","","-48","","NA"
"-96.00","64.32","BAKER LAKE CLIMATE","2300501","2023-01-25 11:00","2023","01","25","11:00","-35.5","","-39.8","","65","","0.0","","30","","36","","","","101.06","","","","-54","","NA"
"-96.00","64.32","BAKER LAKE CLIMATE","2300501","2023-01-25 12:00","2023","01","25","12:00","-35.5","","-39.7","","65","","0.0","","33","","26","","","","101.07","","","","-52","","NA"
"-96.00","64.32","BAKER LAKE CLIMATE","2300501","2023-01-25 13:00","2023","01","25","13:00","-35.1","","-39.3","","66","","0.0","","31","","33","","","","101.07","","","","-53","","NA"
"-96.00","64.32","BAKER LAKE CLIMATE","2300501","2023-01-25 14:00","2023","01","25","14:00","-34.8","","-38.9","","66","","0.0","","30","","26","","","","101.14","","","","-51","","NA"
"-96.00","64.32","BAKER LAKE CLIMATE","2300501","2023-01-25 15:00","2023","01","25","15:00","-34.9","","-39.1","","66","","0.0","","32","","31","","","","101.16","","","","-52","","NA"
"-96.00","64.32","BAKER LAKE CLIMATE","2300501","2023-01-25 16:00","2023","01","25","16:00","-34.7","","-38.9","","66","","0.0","","34","","28","","","","101.18","","","","-51","","NA"
"-96.00","64.32","BAKER LAKE CLIMATE","2300501","2023-01-25 17:00","2023","01","25","17:00","-35.1","","-39.3","","65","","0.0","","31","","19","","","","101.18","","","","-49","","NA"
"-96.00","64.32","BAKER LAKE CLIMATE","2300501","2023-01-25 18:00","2023","01","25","18:00","-34.2","","-38.4","","66","","0.0","","28","","23","","","","101.13","","","","-49","","NA"
"-96.00","64.32","BAKER LAKE CLIMATE","2300501","2023-01-25 19:00","2023","01","25","19:00","-34.6","","-38.8","","66","","0.0","","31","","34","","","","101.01","","","","-52","","NA"
"-96.00","64.32","BAKER LAKE CLIMATE","2300501","2023-01-25 20:00","2023","01","25","20:00","-35.2","","-39.4","","65","","0.0","","32","","40","","","","100.88","","","","-54","","NA"
"-96.00","64.32","BAKER LAKE CLIMATE","2300501","2023-01-25 21:00","2023","01","25","21:00","-34.9","","-39.2","","65","","0.0","","33","","41","","","","100.79","","","","-54","","NA"
"-96.00","64.32","BAKER LAKE CLIMATE","2300501","2023-01-25 22:00","2023","01","25","22:00","-34.9","","-39.1","","65","","0.0","","27","","12","","","","100.86","","","","-46","","NA"
"-96.00","64.32","BAKER LAKE CLIMATE","2300501","2023-01-25 23:00","2023","01","25","23:00","-35.4","","-39.6","","65","","0.0","","33","","32","","","","100.77","","","","-53","","NA"
"-96.00","64.32","BAKER LAKE CLIMATE","2300501","2023-01-26 00:00","2023","01","26","00:00","-35.7","","-40.0","","65","","0.0","","32","","24","","","","100.78","","","","-52","","NA"
"-96.00","64.32","BAKER LAKE CLIMATE","2300501","2023-01-26 01:00","2023","01","26","01:00","-35.0","","-39.3","","65","","0.0","","32","","29","","","","100.71","","","","-52","","NA"
"-96.00","64.32","BAKER LAKE CLIMATE","2300501","2023-01-26 02:00","2023","01","26","02:00","-35.1","","-39.3","","65","","0.0","","26","","8","","","","100.70","","","","-44","","NA"
"-96.00","64.32","BAKER LAKE CLIMATE","2300501","2023-01-26 03:00","2023","01","26","03:00","-35.4","","-39.6","","65","","0.0","","32","","18","","","","100.66","","","","-49","","NA"
"-96.00","64.32","BAKER LAKE CLIMATE","2300501","2023-01-26 04:00","2023","01","26","04:00","-35.5","","-39.7","","65","","0.0","","32","","28","","","","100.55","","","","-52","","NA"
"-96.00","64.32","BAKER LAKE CLIMATE","2300501","2023-01-26 05:00","2023","01","26","05:00","-35.8","","-40.1","","65","","0.0","","31","","34","","","","100.47","","","","-54","","NA"
"-96.00","64.32","BAKER LAKE CLIMATE","2300501","2023-01-26 06:00","2023","01","26","06:00","-36.4","","-40.8","","64","","0.0","","31","","28","","","","100.45","","","","-53","","NA"
"-96.00","64.32","BAKER LAKE CLIMATE","2300501","2023-01-26 07:00","2023","01","26","07:00","-36.7","","-41.1","","64","","0.0","","33","","24","","","","100.43","","","","-53","","NA"
"-96.00","64.32","BAKER LAKE CLIMATE","2300501","2023-01-26 08:00","2023","01","26","08:00","-36.8","","-41.2","","64","","0.0","","31","","15","","","","100.43","","","","-50","","NA"
"-96.00","64.32","BAKER LAKE CLIMATE","2300501","2023-01-26 09:00","2023","01","26","09:00","-36.7","","-41.1","","64","","0.0","","33","","23","","","","100.37","","","","-52","","NA"
"-96.00","64.32","BAKER LAKE CLIMATE","2300501","2023-01-26 10:00","2023","01","26","10:00","-36.1","","-40.5","","64","","0.0","","33","","34","","","","100.30","","","","-54","","NA"
"-96.00","64.32","BAKER LAKE CLIMATE","2300501","2023-01-26 11:00","2023","01","26","11:00","-35.4","","-39.7","","65","","0.0","","34","","34","","","","100.31","","","","-54","","NA"
"-96.00","64.32","BAKER LAKE CLIMATE","2300501","2023-01-26 12:00","2023","01","26","12:00","-33.8","","-38.0","","66","","0.0","","32","","24","","","","100.30","","","","-49","","NA"
"-96.00","64.32","BAKER LAKE CLIMATE","2300501","2023-01-26 13:00","2023","01","26","13:00","-33.4","","-37.5","","67","","0.0","","33","","34","","","","100.22","","","","-51","","NA"
"-96.00","64.32","BAKER LAKE CLIMATE","2300501","2023-01-26 14:00","2023","01","26","14:00","-33.0","","-37.1","","67","","0.0","","32","","34","","","","100.28","","","","-50","","NA"
"-96.00","64.32","BAKER LAKE CLIMATE","2300501","2023-01-26 15:00","2023","01","26","15:00","-32.6","","-36.6","","68","","0.0","","32","","34","","","","100.30","","","","-50","","NA"
"-96.00","64.32","BAKER LAKE CLIMATE","2300501","2023-01-26 16:00","2023","01","26","16:00","-32.1","","-36.0","","68","","0.0","","33","","32","","","","100.33","","","","-49","","NA"
"-96.00","64.32","BAKER LAKE CLIMATE","2300501","2023-01-26 17:00","2023","01","26","17:00","-31.6","","-35.4","","69","","0.0","","32","","14","","","","100.44","","","","-43","","NA"
"-96.00","64.32","BAKER LAKE CLIMATE","2300501","2023-01-26 18:00","2023","01","26","18:00","-31.6","","-35.4","","69","","0.0","","35","","27","","","","100.40","","","","-47","","NA"
"-96.00","64.32","BAKER LAKE CLIMATE","2300501","2023-01-26 19:00","2023","01","26","19:00","-31.8","","-35.6","","69","","0.0","","35","","25","","","","100.45","","","","-47","","NA"
"-96.00","64.32","BAKER LAKE CLIMATE","2300501","2023-01-26 20:00","2023","01","26","20:00","-33.6","","-37.6","","67","","0.0","","34","","31","","","","100.48","","","","-51","","NA"
"-96.00","64.32","BAKER LAKE CLIMATE","2300501","2023-01-26 21:00","2023","01","26","21:00","-35.0","","-39.2","","66","","0.0","","34","","29","","","","100.51","","","","-52","","NA"
"-96.00","64.32","BAKER LAKE CLIMATE","2300501","2023-01-26 22:00","2023","01","26","22:00","-35.1","","-39.3","","65","","0.0","","34","","31","","","","100.51","","","","-52","","NA"
"-96.00","64.32","BAKER LAKE CLIMATE","2300501","2023-01-26 23:00","2023","01","26","23:00","-35.1","","-39.3","","65","","0.0","","32","","18","","","","100.55","","","","-49","","NA"
"-96.00","64.32","BAKER LAKE CLIMATE","2300501","2023-01-27 00:00","2023","01","27","00:00","-35.8","","-40.1","","65","","0.0","","34","","25","","","","100.60","","","","-52","","NA"
"-96.00","64.32","BAKER LAKE CLIMATE","2300501","2023-01-27 01:00","2023","01","27","01:00","-35.7","","-40.0","","65","","0.0","","36","","38","","","","100.54","","","","-55","","NA"
"-96.00","64.32","BAKER LAKE CLIMATE","2300501","2023-01-27 02:00","2023","01","27","02:00","-36.0","","-40.3","","64","","0.0","","35","","35","","","","100.56","","","","-55","","NA"
"-96.00","64.32","BAKER LAKE CLIMATE","2300501","2023-01-27 03:00","2023","01","27","03:00","-35.8","","-40.2","","64","","0.0","","35","","33","","","","100.61","","","","-54","","NA"
"-96.00","64.32","BAKER LAKE CLIMATE","2300501","2023-01-27 04:00","2023","01","27","04:00","-35.2","","-39.5","","65","","0.0","","31","","12","","","","100.73","","","","-46","","NA"
"-96.00","64.32","BAKER LAKE CLIMATE","2300501","2023-01-27 05:00","2023","01","27","05:00","-33.6","","-37.7","","66","","0.0","","33","","21","","","","100.71","","","","-48","","NA"
"-96.00","64.32","BAKER LAKE CLIMATE","2300501","2023-01-27 06:00","2023","01","27","06:00","-32.4","","-36.4","","68","","0.0","","33","","19","","","","100.68","","","","-46","","NA"
"-96.00","64.32","BAKER LAKE CLIMATE","2300501","2023-01-27 07:00","2023","01","27","07:00","-31.3","","-35.1","","69","","0.0","","31","","14","","","","100.64","","","","-43","","NA"
"-96.00","64.32","BAKER LAKE CLIMATE","2300501","2023-01-27 08:00","2023","01","27","08:00","-30.6","","-34.3","","70","","0.1","","32","","19","","","","100.58","","","","-44","","NA"
"-96.00","64.32","BAKER LAKE CLIMATE","2300501","2023-01-27 09:00","2023","01","27","09:00","-30.2","","-33.8","","70","","0.0","","33","","15","","","","100.56","","","","-42","","NA"
"-96.00","64.32","BAKER LAKE CLIMATE","2300501","2023-01-27 10:00","2023","01","27","10:00","-29.5","","-33.1","","71","","0.0","","32","","17","","","","100.55","","","","-42","","NA"
"-96.00","64.32","BAKER LAKE CLIMATE","2300501","2023-01-27 11:00","2023","01","27","11:00","-29.0","","-32.6","","72","","0.0","","32","","15","","","","100.52","","","","-40","","NA"
"-96.00","64.32","BAKER LAKE CLIMATE","2300501","2023-01-27 12:00","2023","01","27","12:00","-29.8","","-33.3","","71","","0.0","","33","","20","","","","100.49","","","","-43","","NA"
"-96.00","64.32","BAKER LAKE CLIMATE","2300501","2023-01-27 13:00","2023","01","27","13:00","-30.3","","-33.9","","71","","0.0","","34","","22","","","","100.46","","","","-44","","NA"
"-96.00","64.32","BAKER LAKE CLIMATE","2300501","2023-01-27 14:00","2023","01","27","14:00","-31.5","","-35.2","","70","","0.0","","34","","22","","","","100.49","","","","-46","","NA"
"-96.00","64.32","BAKER LAKE CLIMATE","2300501","2023-01-27 15:00","2023","01","27","15:00","-33.4","","-37.3","","68","","0.0","","35","","22","","","","100.49","","","","-48","","NA"
"-96.00","64.32","BAKER LAKE CLIMATE","2300501","2023-01-27 16:00","2023","01","27","16:00","-34.8","","-39.0","","66","","0.0","","34","","21","","","","100.51","","","","-49","","NA"
"-96.00","64.32","BAKER LAKE CLIMATE","2300501","2023-01-27 17:00","2023","01","27","17:00","-34.5","","-38.6","","66","","0.0","","34","","30","","","","100.52","","","","-51","","NA"
"-96.00","64.32","BAKER LAKE CLIMATE","2300501","2023-01-27 18:00","2023","01","27","18:00","-34.8","","-39.0","","66","","0.0","","35","","38","","","","100.51","","","","-54","","NA"
"-96.00","64.32","BAKER LAKE CLIMATE","2300501","2023-01-27 19:00","2023","01","27","19:00","-34.9","","-39.1","","66","","0.0","","35","","31","","","","100.53","","","","-52","","NA"
"-96.00","64.32","BAKER LAKE CLIMATE","2300501","2023-01-27 20:00","2023","01","27","20:00","-35.0","","-39.2","","66","","0.0","","35","","39","","","","100.46","","","","-54","","NA"
"-96.00","64.32","BAKER LAKE CLIMATE","2300501","2023-01-27 21:00","2023","01","27","21:00","-35.7","","-40.0","","65","","0.0","","35","","34","","","","100.48","","","","-54","","NA"
"-96.00","64.32","BAKER LAKE CLIMATE","2300501","2023-01-27 22:00","2023","01","27","22:00","-36.2","","-40.5","","65","","0.0","","33","","40","","","","100.40","","","","-56","","NA"
"-96.00","64.32","BAKER LAKE CLIMATE","2300501","2023-01-27 23:00","2023","01","27","23:00","-36.2","","-40.5","","64","","0.0","","34","","35","","","","100.43","","","","-55","","NA"
"-96.00","64.32","BAKER LAKE CLIMATE","2300501","2023-01-28 00:00","2023","01","28","00:00","-34.9","","-39.2","","65","","0.0","","35","","31","","","","100.40","","","","-52","","NA"
"-96.00","64.32","BAKER LAKE CLIMATE","2300501","2023-01-28 01:00","2023","01","28","01:00","-36.0","","-40.3","","65","","0.0","","32","","26","","","","100.37","","","","-52","","NA"
"-96.00","64.32","BAKER LAKE CLIMATE","2300501","2023-01-28 02:00","2023","01","28","02:00","-35.6","","-39.9","","65","","0.0","","33","","26","","","","100.35","","","","-52","","NA"
"-96.00","64.32","BAKER LAKE CLIMATE","2300501","2023-01-28 03:00","2023","01","28","03:00","-35.9","","-40.2","","65","","0.0","","33","","27","","","","100.35","","","","-53","","NA"
"-96.00","64.32","BAKER LAKE CLIMATE","2300501","2023-01-28 04:00","2023","01","28","04:00","-34.8","","-39.0","","66","","0.0","","33","","27","","","","100.32","","","","-51","","NA"
"-96.00","64.32","BAKER LAKE CLIMATE","2300501","2023-01-28 05:00","2023","01","28","05:00","-32.9","","-37.0","","67","","0.0","","34","","37","","","","100.28","","","","-51","","NA"
"-96.00","64.32","BAKER LAKE CLIMATE","2300501","2023-01-28 06:00","2023","01","28","06:00","-33.3","","-37.4","","67","","0.0","","34","","40","","","","100.22","","","","-52","","NA"
"-96.00","64.32","BAKER LAKE CLIMATE","2300501","2023-01-28 07:00","2023","01","28","07:00","-34.0","","-38.1","","66","","0.0","","32","","32","","","","100.20","","","","-51","","NA"
"-96.00","64.32","BAKER LAKE CLIMATE","2300501","2023-01-28 08:00","2023","01","28","08:00","-34.1","","-38.2","","66","","0.0","","32","","29","","","","100.19","","","","-51","","NA"
"-96.00","64.32","BAKER LAKE CLIMATE","2300501","2023-01-28 09:00","2023","01","28","09:00","-32.9","","-36.9","","67","","0.0","","34","","39","","","","100.18","","","","-51","","NA"
"-96.00","64.32","BAKER LAKE CLIMATE","2300501","2023-01-28 10:00","2023","01","28","10:00","-32.4","","-36.4","","68","","0.0","","31","","28","","","","100.28","","","","-48","","NA"
"-96.00","64.32","BAKER LAKE CLIMATE","2300501","2023-01-28 11:00","2023","01","28","11:00","-31.7","","-35.6","","69","","0.0","","33","","42","","","","100.19","","","","-50","","NA"
"-96.00","64.32","BAKER LAKE CLIMATE","2300501","2023-01-28 12:00","2023","01","28","12:00","-31.3","","-35.1","","69","","0.0","","34","","43","","","","100.21","","","","-50","","NA"
"-96.00","64.32","BAKER LAKE CLIMATE","2300501","2023-01-28 13:00","2023","01","28","13:00","-31.0","","-34.8","","70","","0.0","","33","","35","","","","100.27","","","","-48","","NA"
"-96.00","64.32","BAKER LAKE CLIMATE","2300501","2023-01-28 14:00","2023","01","28","14:00","-30.8","","-34.5","","70","","0.0","","31","","19","","","","100.38","","","","-44","","NA"
"-96.00","64.32","BAKER LAKE CLIMATE","2300501","2023-01-28 15:00","2023","01","28","15:00","-30.8","","-34.5","","70","","0.0","","33","","42","","","","100.29","","","","-49","","NA"
"-96.00","64.32","BAKER LAKE CLIMATE","2300501","2023-01-28 16:00","2023","01","28","16:00","-30.6","","-34.3","","70","","0.0","","34","","28","","","","100.48","","","","-46","","NA"
"-96.00","64.32","BAKER LAKE CLIMATE","2300501","2023-01-28 17:00","2023","01","28","17:00","-30.3","","-33.9","","70","","0.0","","36","","42","","","","100.50","","","","-48","","NA"
"-96.00","64.32","BAKER LAKE CLIMATE","2300501","2023-01-28 18:00","2023","01","28","18:00","-30.6","","-34.3","","70","","0.0","","35","","48","","","","100.49","","","","-50","","NA"
"-96.00","64.32","BAKER LAKE CLIMATE","2300501","2023-01-28 19:00","2023","01","28","19:00","-31.5","","-35.3","","69","","0.0","","32","","21","","","","100.65","","","","-45","","NA"
"-96.00","64.32","BAKER LAKE CLIMATE","2300501","2023-01-28 20:00","2023","01","28","20:00","-32.4","","-36.3","","68","","0.0","","34","","38","","","","100.61","","","","-50","","NA"
"-96.00","64.32","BAKER LAKE CLIMATE","2300501","2023-01-28 21:00","2023","01","28","21:00","-32.9","","-36.8","","68","","0.0","","34","","40","","","","100.61","","","","-51","","NA"
"-96.00","64.32","BAKER LAKE CLIMATE","2300501","2023-01-28 22:00","2023","01","28","22:00","-33.0","","-37.0","","67","","0.0","","34","","41","","","","100.66","","","","-52","","NA"
"-96.00","64.32","BAKER LAKE CLIMATE","2300501","2023-01-28 23:00","2023","01","28","23:00","-33.4","","-37.4","","67","","0.0","","35","","54","","","","100.59","","","","-54","","NA"
"-96.00","64.32","BAKER LAKE CLIMATE","2300501","2023-01-29 00:00","2023","01","29","00:00","-33.4","","-37.5","","67","","0.0","","35","","53","","","","100.61","","","","-54","","NA"
"-96.00","64.32","BAKER LAKE CLIMATE","2300501","2023-01-29 01:00","2023","01","29","01:00","-32.1","","-36.1","","68","","0.0","","30","","10","","","","100.77","","","","-42","","NA"
"-96.00","64.32","BAKER LAKE CLIMATE","2300501","2023-01-29 02:00","2023","01","29","02:00","-33.4","","-37.4","","67","","0.0","","31","","14","","","","100.79","","","","-45","","NA"
"-96.00","64.32","BAKER LAKE CLIMATE","2300501","2023-01-29 03:00","2023","01","29","03:00","-33.8","","-37.9","","67","","0.0","","32","","17","","","","100.83","","","","-47","","NA"
"-96.00","64.32","BAKER LAKE CLIMATE","2300501","2023-01-29 04:00","2023","01","29","04:00","-33.6","","-37.7","","67","","0.0","","33","","19","","","","100.81","","","","-47","","NA"
"-96.00","64.32","BAKER LAKE CLIMATE","2300501","2023-01-29 05:00","2023","01","29","05:00","-33.7","","-37.8","","67","","0.0","","33","","23","","","","100.77","","","","-49","","NA"
"-96.00","64.32","BAKER LAKE CLIMATE","2300501","2023-01-29 06:00","2023","01","29","06:00","-33.2","","-37.3","","67","","0.0","","33","","16","","","","100.76","","","","-46","","NA"
"-96.00","64.32","BAKER LAKE CLIMATE","2300501","2023-01-29 07:00","2023","01","29","07:00","-33.2","","-37.2","","67","","0.0","","32","","9","","","","100.73","","","","-42","","NA"
"-96.00","64.32","BAKER LAKE CLIMATE","2300501","2023-01-29 08:00","2023","01","29","08:00","-32.6","","-36.6","","68","","0.1","","32","","21","","","","100.68","","","","-47","","NA"
"-96.00","64.32","BAKER LAKE CLIMATE","2300501","2023-01-29 09:00","2023","01","29","09:00","-33.6","","-37.7","","67","","0.0","","34","","6","","","","100.66","","","","-41","","NA"
"-96.00","64.32","BAKER LAKE CLIMATE","2300501","2023-01-29 10:00","2023","01","29","10:00","-33.2","","-37.3","","67","","0.0","","32","","13","","","","100.61","","","","-44","","NA"
"-96.00","64.32","BAKER LAKE CLIMATE","2300501","2023-01-29 11:00","2023","01","29","11:00","-33.6","","-37.6","","67","","0.0","","31","","17","","","","100.57","","","","-47","","NA"
"-96.00","64.32","BAKER LAKE CLIMATE","2300501","2023-01-29 12:00","2023","01","29","12:00","-32.2","","-36.1","","68","","0.0","","32","","19","","","","100.53","","","","-46","","NA"
"-96.00","64.32","BAKER LAKE CLIMATE","2300501","2023-01-29 13:00","2023","01","29","13:00","-32.2","","-36.1","","68","","0.0","","32","","20","","","","100.44","","","","-46","","NA"
"-96.00","64.32","BAKER LAKE CLIMATE","2300501","2023-01-29 14:00","2023","01","29","14:00","-31.1","","-34.8","","69","","0.0","","31","","28","","","","100.37","","","","-47","","NA"
"-96.00","64.32","BAKER LAKE CLIMATE","2300501","2023-01-29 15:00","2023","01","29","15:00","-30.9","","-34.6","","70","","0.0","","31","","21","","","","100.31","","","","-45","","NA"
"-96.00","64.32","BAKER LAKE CLIMATE","2300501","2023-01-29 16:00","2023","01","29","16:00","-30.4","","-34.1","","70","","0.0","","30","","18","","","","100.27","","","","-43","","NA"
"-96.00","64.32","BAKER LAKE CLIMATE","2300501","2023-01-29 17:00","2023","01","29","17:00","-32.2","","-36.0","","69","","0.0","","32","","29","","","","100.22","","","","-48","","NA"
"-96.00","64.32","BAKER LAKE CLIMATE","2300501","2023-01-29 18:00","2023","01","29","18:00","-33.6","","-37.6","","67","","0.0","","33","","22","","","","100.15","","","","-48","","NA"
"-96.00","64.32","BAKER LAKE CLIMATE","2300501","2023-01-29 19:00","2023","01","29","19:00","-33.0","","-37.1","","67","","0.0","","33","","23","","","","100.06","","","","-48","","NA"
"-96.00","64.32","BAKER LAKE CLIMATE","2300501","2023-01-29 20:00","2023","01","29","20:00","-33.9","","-37.9","","67","","0.0","","33","","23","","","","99.99","","","","-49","","NA"
"-96.00","64.32","BAKER LAKE CLIMATE","2300501","2023-01-29 21:00","2023","01","29","21:00","-34.6","","-38.8","","66","","0.0","","32","","26","","","","99.92","","","","-51","","NA"
"-96.00","64.32","BAKER LAKE CLIMATE","2300501","2023-01-29 22:00","2023","01","29","22:00","-35.3","","-39.6","","65","","0.0","","33","","29","","","","99.87","","","","-52","","NA"
"-96.00","64.32","BAKER LAKE CLIMATE","2300501","2023-01-29 23:00","2023","01","29","23:00","-35.7","","-40.0","","65","","0.0","","33","","32","","","","99.79","","","","-54","","NA"
"-96.00","64.32","BAKER LAKE CLIMATE","2300501","2023-01-30 00:00","2023","01","30","00:00","-36.3","","-40.6","","64","","0.0","","33","","28","","","","99.71","","","","-53","","NA"
"-96.00","64.32","BAKER LAKE CLIMATE","2300501","2023-01-30 01:00","2023","01","30","01:00","-36.9","","-41.3","","64","","0.0","","33","","22","","","","99.72","","","","-52","","NA"
"-96.00","64.32","BAKER LAKE CLIMATE","2300501","2023-01-30 02:00","2023","01","30","02:00","-36.7","","-41.1","","64","","0.0","","33","","21","","","","99.68","","","","-52","","NA"
"-96.00","64.32","BAKER LAKE CLIMATE","2300501","2023-01-30 03:00","2023","01","30","03:00","-36.9","","-41.3","","63","","0.0","","33","","21","","","","99.64","","","","-52","","NA"
"-96.00","64.32","BAKER LAKE CLIMATE","2300501","2023-01-30 04:00","2023","01","30","04:00","-36.9","","-41.3","","63","","0.0","","33","","22","","","","99.57","","","","-52","","NA"
"-96.00","64.32","BAKER LAKE CLIMATE","2300501","2023-01-30 05:00","2023","01","30","05:00","-36.4","","-40.8","","64","","0.0","","33","","25","","","","99.53","","","","-53","","NA"
"-96.00","64.32","BAKER LAKE CLIMATE","2300501","2023-01-30 06:00","2023","01","30","06:00","-36.7","","-41.1","","64","","0.0","","33","","39","","","","99.47","","","","-56","","NA"
"-96.00","64.32","BAKER LAKE CLIMATE","2300501","2023-01-30 07:00","2023","01","30","07:00","-36.7","","-41.1","","64","","0.0","","33","","33","","","","99.46","","","","-55","","NA"
"-96.00","64.32","BAKER LAKE CLIMATE","2300501","2023-01-30 08:00","2023","01","30","08:00","-36.9","","-41.3","","63","","0.0","","34","","43","","","","99.45","","","","-57","","NA"
"-96.00","64.32","BAKER LAKE CLIMATE","2300501","2023-01-30 09:00","2023","01","30","09:00","-37.4","","-41.9","","63","","0.0","","34","","41","","","","99.45","","","","-58","","NA"
"-96.00","64.32","BAKER LAKE CLIMATE","2300501","2023-01-30 10:00","2023","01","30","10:00","-38.0","","-42.5","","62","","0.0","","34","","43","","","","99.43","","","","-59","","NA"
"-96.00","64.32","BAKER LAKE CLIMATE","2300501","2023-01-30 11:00","2023","01","30","11:00","-38.0","","-42.5","","63","","0.0","","34","","37","","","","99.56","","","","-58","","NA"
"-96.00","64.32","BAKER LAKE CLIMATE","2300501","2023-01-30 12:00","2023","01","30","12:00","-38.1","","-42.6","","63","","0.0","","35","","47","","","","99.56","","","","-60","","NA"
"-96.00","64.32","BAKER LAKE CLIMATE","2300501","2023-01-30 13:00","2023","01","30","13:00","-37.5","","-42.0","","63","","0.0","","35","","42","","","","99.69","","","","-58","","NA"
"-96.00","64.32","BAKER LAKE CLIMATE","2300501","2023-01-30 14:00","2023","01","30","14:00","-37.4","","-41.8","","63","","0.0","","35","","46","","","","99.75","","","","-58","","NA"
"-96.00","64.32","BAKER LAKE CLIMATE","2300501","2023-01-30 15:00","2023","01","30","15:00","-37.2","","-41.6","","63","","0.0","","35","","35","","","","99.85","","","","-56","","NA"
"-96.00","64.32","BAKER LAKE CLIMATE","2300501","2023-01-30 16:00","2023","01","30","16:00","-36.9","","-41.4","","63","","0.0","","36","","39","","","","99.97","","","","-57","","NA"
"-96.00","64.32","BAKER LAKE CLIMATE","2300501","2023-01-30 17:00","2023","01","30","17:00","-37.4","","-41.9","","63","","0.0","","35","","33","","","","100.08","","","","-56","","NA"
"-96.00","64.32","BAKER LAKE CLIMATE","2300501","2023-01-30 18:00","2023","01","30","18:00","-36.6","","-41.0","","64","","0.0","","35","","38","","","","100.16","","","","-56","","NA"
"-96.00","64.32","BAKER LAKE CLIMATE","2300501","2023-01-30 19:00","2023","01","30","19:00","-36.9","","-41.4","","63","","0.0","","36","","28","","","","100.23","","","","-54","","NA"
"-96.00","64.32","BAKER LAKE CLIMATE","2300501","2023-01-30 20:00","2023","01","30","20:00","-36.9","","-41.4","","63","","0.0","","36","","36","","","","100.34","","","","-56","","NA"
"-96.00","64.32","BAKER LAKE CLIMATE","2300501","2023-01-30 21:00","2023","01","30","21:00","-37.6","","-42.1","","63","","0.0","","36","","34","","","","100.40","","","","-56","","NA"
"-96.00","64.32","BAKER LAKE CLIMATE","2300501","2023-01-30 22:00","2023","01","30","22:00","-38.2","","-42.8","","62","","0.0","","34","","33","","","","100.46","","","","-57","","NA"
"-96.00","64.32","BAKER LAKE CLIMATE","2300501","2023-01-30 23:00","2023","01","30","23:00","-37.7","","-42.3","","62","","0.0","","35","","39","","","","100.46","","","","-58","","NA"
"-96.00","64.32","BAKER LAKE CLIMATE","2300501","2023-01-31 00:00","2023","01","31","00:00","-38.0","","-42.6","","62","","0.0","","36","","41","","","","100.46","","","","-58","","NA"
"-96.00","64.32","BAKER LAKE CLIMATE","2300501","2023-01-31 01:00","2023","01","31","01:00","-38.6","","-43.3","","62","","0.0","","35","","41","","","","100.45","","","","-59","","NA"
"-96.00","64.32","BAKER LAKE CLIMATE","2300501","2023-01-31 02:00","2023","01","31","02:00","-39.4","","-44.2","","61","","0.0","","34","","35","","","","100.47","","","","-59","","NA"
"-96.00","64.32","BAKER LAKE CLIMATE","2300501","2023-01-31 03:00","2023","01","31","03:00","-39.0","","-43.8","","61","","0.0","","34","","37","","","","100.50","","","","-59","","NA"
"-96.00","64.32","BAKER LAKE CLIMATE","2300501","2023-01-31 04:00","2023","01","31","04:00","-38.5","","-43.2","","62","","0.0","","34","","33","","","","100.54","","","","-57","","NA"
"-96.00","64.32","BAKER LAKE CLIMATE","2300501","2023-01-31 05:00","2023","01","31","05:00","-38.0","","-42.6","","62","","0.0","","35","","32","","","","100.55","","","","-57","","NA"
"-96.00","64.32","BAKER LAKE CLIMATE","2300501","2023-01-31 06:00","2023","01","31","06:00","-38.9","","-43.5","","61","","0.0","","33","","39","","","","100.53","","","","-59","","NA"
"-96.00","64.32","BAKER LAKE CLIMATE","2300501","2023-01-31 07:00","2023","01","31","07:00","-38.0","","-42.6","","62","","0.0","","34","","27","","","","100.56","","","","-55","","NA"
"-96.00","64.32","BAKER LAKE CLIMATE","2300501","2023-01-31 08:00","2023","01","31","08:00","-37.4","","-41.9","","63","","0.0","","32","","24","","","","100.54","","","","-54","","NA"
"-96.00","64.32","BAKER LAKE CLIMATE","2300501","2023-01-31 09:00","2023","01","31","09:00","-37.4","","-41.9","","63","","0.0","","33","","32","","","","100.47","","","","-56","","NA"
"-96.00","64.32","BAKER LAKE CLIMATE","2300501","2023-01-31 10:00","2023","01","31","10:00","-37.4","","-41.9","","63","","0.0","","33","","33","","","","100.42","","","","-56","","NA"
"-96.00","64.32","BAKER LAKE CLIMATE","2300501","2023-01-31 11:00","2023","01","31","11:00","-37.7","","-42.3","","63","","0.0","","33","","35","","","","100.40","","","","-57","","NA"
"-96.00","64.32","BAKER LAKE CLIMATE","2300501","2023-01-31 12:00","2023","01","31","12:00","-38.3","","-42.8","","62","","0.0","","30","","20","","","","100.43","","","","-54","","NA"
"-96.00","64.32","BAKER LAKE CLIMATE","2300501","2023-01-31 13:00","2023","01","31","13:00","-38.2","","-42.7","","62","","0.0","","33","","31","","","","100.36","","","","-57","","NA"
"-96.00","64.32","BAKER LAKE CLIMATE","2300501","2023-01-31 14:00","2023","01","31","14:00","-37.4","","-42.0","","63","","0.0","","33","","36","","","","100.32","","","","-57","","NA"
"-96.00","64.32","BAKER LAKE CLIMATE","2300501","2023-01-31 15:00","2023","01","31","15:00","-36.5","","-40.9","","64","","0.0","","33","","26","","","","100.33","","","","-53","","NA"
"-96.00","64.32","BAKER LAKE CLIMATE","2300501","2023-01-31 16:00","2023","01","31","16:00","-36.1","","-40.4","","64","","0.0","","35","","12","","","","100.35","","","","-48","","NA"
"-96.00","64.32","BAKER LAKE CLIMATE","2300501","2023-01-31 17:00","2023","01","31","17:00","-35.8","","-40.1","","64","","0.0","","33","","21","","","","100.31","","","","-51","","NA"
"-96.00","64.32","BAKER LAKE CLIMATE","2300501","2023-01-31 18:00","2023","01","31","18:00","-35.7","","-40.0","","64","","0.0","","34","","21","","","","100.32","","","","-51","","NA"
"-96.00","64.32","BAKER LAKE CLIMATE","2300501","2023-01-31 19:00","2023","01","31","19:00","-35.9","","-40.3","","64","","0.0","","33","","21","","","","100.26","","","","-51","","NA"
"-96.00","64.32","BAKER LAKE CLIMATE","2300501","2023-01-31 20:00","2023","01","31","20:00","-37.1","","-41.5","","63","","0.1","","34","","21","","","","100.22","","","","-52","","NA"
"-96.00","64.32","BAKER LAKE CLIMATE","2300501","2023-01-31 21:00","2023","01","31","21:00","-37.6","","-42.0","","63","","0.0","","35","","26","","","","100.21","","","","-55","","NA"
"-96.00","64.32","BAKER LAKE CLIMATE","2300501","2023-01-31 22:00","2023","01","31","22:00","-39.1","","-43.8","","61","","0.0","","34","","22","","","","100.16","","","","-55","","NA"
"-96.00","64.32","BAKER LAKE CLIMATE","2300501","2023-01-31 23:00","2023","01","31","23:00","-39.4","","-44.2","","61","","0.0","","34","","13","","","","100.16","","","","-52","","NA"
